<?xml version="1.0" encoding="UTF-8"?>
<osm version="0.6" generator="osmapis">
	<node lat="70.18463892830631" lon="29.290182145788787" id="-32124">
		<tag k="name" v="Flintelvdalen" />
		<tag k="natural" v="valley" />
		<tag k="place" v="locality" />
		<tag k="ssr:stedsnr" v="19747" />
	</node>
	<node lat="70.19727782828238" lon="29.92222071132907" id="-32125">
		<tag k="fixme" v="multiple name tags, choose one and add the other to alt_name" />
		<tag k="name" v="Ridelva - Giellasjohka;Riddojohka - Rittajoki" />
		<tag k="name:fkv" v="Rittajoki" />
		<tag k="name:no" v="Ridelva" />
		<tag k="name:se" v="Giellasjohka;Riddojohka" />
		<tag k="old_name:se" v="Giellasjåkka;Riddujåkka" />
		<tag k="ssr:stedsnr" v="20590" />
		<tag k="waterway" v="river" />
	</node>
	<node lat="70.07081949328393" lon="30.05789002244983" id="-32127">
		<tag k="name" v="Varangerflua" />
		<tag k="natural" v="shoal" />
		<tag k="place" v="locality" />
		<tag k="ssr:stedsnr" v="25306" />
	</node>
	<node lat="70.12819449552075" lon="30.30995100393224" id="-32128">
		<tag k="name" v="Moe-berget" />
		<tag k="natural" v="hill" />
		<tag k="place" v="locality" />
		<tag k="ssr:stedsnr" v="25292" />
	</node>
	<node lat="70.11515559593057" lon="29.21035438351261" id="-32129">
		<tag k="name" v="Fálesgohppi" />
		<tag k="name:se" v="Fálesgohppi" />
		<tag k="natural" v="bay" />
		<tag k="ssr:stedsnr" v="26388" />
	</node>
	<node lat="70.09987226966973" lon="29.700001349605166" id="-32130">
		<tag k="name" v="Basis A-vannet" />
		<tag k="natural" v="water" />
		<tag k="ssr:stedsnr" v="30004" />
	</node>
	<node lat="70.09415004440629" lon="29.771267981262792" id="-32131">
		<tag k="highway" v="path" />
		<tag k="name" v="Vintervegen" />
		<tag k="ssr:stedsnr" v="30213" />
	</node>
	<node lat="70.07061393541115" lon="29.795623518274475" id="-32132">
		<tag k="name" v="Paavobakken" />
		<tag k="natural" v="slope" />
		<tag k="place" v="locality" />
		<tag k="ssr:stedsnr" v="30279" />
	</node>
	<node lat="70.11097227301039" lon="29.93641512283357" id="-32133">
		<tag k="name" v="Hildonenslåtta" />
		<tag k="place" v="locality" />
		<tag k="ssr:stedsnr" v="30319" />
	</node>
	<node lat="70.07878616716883" lon="30.082809463101444" id="-32134">
		<tag k="name" v="Sollnesbukta" />
		<tag k="natural" v="bay" />
		<tag k="ssr:stedsnr" v="30568" />
	</node>
	<node lat="70.06934727622624" lon="30.15393163842506" id="-32135">
		<tag k="name" v="Kvalvika" />
		<tag k="natural" v="bay" />
		<tag k="ssr:stedsnr" v="30527" />
	</node>
	<node lat="70.07030838568829" lon="30.13762886323076" id="-32136">
		<tag k="name" v="Skipparvika" />
		<tag k="natural" v="bay" />
		<tag k="ssr:stedsnr" v="30545" />
	</node>
	<node lat="70.08574449523555" lon="29.96718174717212" id="-32137">
		<tag k="name" v="Kaakkurijänkkä" />
		<tag k="name:fkv" v="Kaakkurijänkkä" />
		<tag k="natural" v="wetland" />
		<tag k="ssr:stedsnr" v="30465" />
	</node>
	<node lat="70.07538616260226" lon="30.001023399722968" id="-32138">
		<tag k="name" v="Ruijanjängät" />
		<tag k="name:fkv" v="Ruijanjängät" />
		<tag k="natural" v="wetland" />
		<tag k="old_name:fkv" v="Rujanjängät" />
		<tag k="ssr:stedsnr" v="30605" />
	</node>
	<node lat="70.19193060450921" lon="30.254728843773396" id="-32139">
		<tag k="name" v="Kukonjokiniitynjärvi" />
		<tag k="name:fkv" v="Kukonjokiniitynjärvi" />
		<tag k="natural" v="water" />
		<tag k="old_name:fkv" v="Kokkonjohinniittynjärvi" />
		<tag k="ssr:stedsnr" v="30636" />
	</node>
	<node lat="70.19690561083695" lon="30.32126768602794" id="-32140">
		<tag k="fixme" v="consider highway=path" />
		<tag k="highway" v="track" />
		<tag k="name" v="Maanlaita-vegen" />
		<tag k="ssr:stedsnr" v="30671" />
	</node>
	<node lat="70.24833615166311" lon="29.356054347894936" id="-32141">
		<tag k="name" v="Borjjasgurra" />
		<tag k="name:se" v="Borjjasgurra" />
		<tag k="natural" v="valley" />
		<tag k="old_name:se" v="Bårjasgurra" />
		<tag k="place" v="locality" />
		<tag k="ssr:stedsnr" v="80703" />
	</node>
	<node lat="70.15782504133686" lon="29.365684889634984" id="-32142">
		<tag k="name" v="Vaselva - Suottarjohka - Vesijoki" />
		<tag k="name:fkv" v="Vesijoki" />
		<tag k="name:no" v="Vaselva" />
		<tag k="name:se" v="Suottarjohka" />
		<tag k="old_name:se" v="Suoddarjåkka" />
		<tag k="ssr:stedsnr" v="80740" />
		<tag k="waterway" v="river" />
	</node>
	<node lat="70.11796393518921" lon="29.734423566498325" id="-32143">
		<tag k="name" v="Svanevannet" />
		<tag k="natural" v="water" />
		<tag k="ssr:stedsnr" v="81632" />
		<tag k="water" v="lake" />
	</node>
	<node lat="70.11977226525848" lon="29.59428752246596" id="-32144">
		<tag k="name" v="Brynhaugen - Goahtesaičorru" />
		<tag k="name:no" v="Brynhaugen" />
		<tag k="name:se" v="Goahtesaičorru" />
		<tag k="natural" v="hill" />
		<tag k="old_name:se" v="Goattesajčårro" />
		<tag k="place" v="locality" />
		<tag k="ssr:stedsnr" v="81634" />
	</node>
	<node lat="70.26573059358294" lon="29.55115426839386" id="-32145">
		<tag k="fixme" v="consider natural=peak for the most distinct mountains in the district" />
		<tag k="name" v="Márgarehtaboldni" />
		<tag k="name:se" v="Márgarehtaboldni" />
		<tag k="natural" v="hill" />
		<tag k="old_name:se" v="Magarettabåldni" />
		<tag k="place" v="locality" />
		<tag k="ssr:stedsnr" v="81904" />
	</node>
	<node lat="70.3435250321018" lon="29.44537933533433" id="-32146">
		<tag k="name" v="Ovsttarjeaggi" />
		<tag k="name:se" v="Ovsttarjeaggi" />
		<tag k="natural" v="wetland" />
		<tag k="old_name:se" v="Åvstarjæggi" />
		<tag k="ssr:stedsnr" v="81916" />
	</node>
	<node lat="70.17609169798969" lon="29.189343296332407" id="-32147">
		<tag k="name" v="Djupholbekken" />
		<tag k="ssr:stedsnr" v="89874" />
		<tag k="waterway" v="stream" />
	</node>
	<node lat="70.08976115136288" lon="29.605415289479797" id="-32148">
		<tag k="name" v="Andersbybukta" />
		<tag k="natural" v="bay" />
		<tag k="ssr:stedsnr" v="91009" />
	</node>
	<node lat="70.1044917085269" lon="29.484159791712493" id="-32149">
		<tag k="fixme" v="consider natural=peak for the most distinct mountains in the district" />
		<tag k="name" v="Salen" />
		<tag k="natural" v="hill" />
		<tag k="place" v="locality" />
		<tag k="ssr:stedsnr" v="91024" />
	</node>
	<node lat="70.11672504263832" lon="29.326396000167914" id="-32150">
		<tag k="name" v="Holmen" />
		<tag k="place" v="islet" />
		<tag k="ssr:stedsnr" v="91076" />
	</node>
	<node lat="70.08694863762217" lon="29.77605225847909" id="-32151">
		<tag k="name" v="Solbakken" />
		<tag k="place" v="farm" />
		<tag k="ssr:stedsnr" v="91222" />
	</node>
	<node lat="70.10892783380329" lon="30.068890037852423" id="-32152">
		<tag k="name" v="Sandbakkhølene" />
		<tag k="place" v="locality" />
		<tag k="ssr:stedsnr" v="91527" />
	</node>
	<node lat="70.07532227325015" lon="30.13378163730265" id="-32153">
		<tag k="name" v="Stormyrberget" />
		<tag k="natural" v="hill" />
		<tag k="place" v="locality" />
		<tag k="ssr:stedsnr" v="91564" />
	</node>
	<node lat="70.0705778302807" lon="30.13043442866434" id="-32154">
		<tag k="name" v="Spelemannshammaren" />
		<tag k="natural" v="cliff" />
		<tag k="ssr:stedsnr" v="91569" />
	</node>
	<node lat="70.07076393700655" lon="30.01698726775472" id="-32155">
		<tag k="name" v="Seiberget" />
		<tag k="natural" v="hill" />
		<tag k="place" v="locality" />
		<tag k="ssr:stedsnr" v="91607" />
	</node>
	<node lat="70.07496671704683" lon="29.987934519163737" id="-32156">
		<tag k="name" v="Sandbakken - Hietamella" />
		<tag k="name:fkv" v="Hietamella" />
		<tag k="name:no" v="Sandbakken" />
		<tag k="natural" v="slope" />
		<tag k="old_name:fkv" v="Jedamella" />
		<tag k="place" v="locality" />
		<tag k="ssr:stedsnr" v="91623" />
	</node>
	<node lat="70.07562227063802" lon="29.816192941318523" id="-32157">
		<tag k="alt_name:se" v="Mielgavárri" />
		<tag k="name" v="Melkevarden - Mielkevárri" />
		<tag k="name:no" v="Melkevarden" />
		<tag k="name:se" v="Mielkevárri" />
		<tag k="natural" v="hill" />
		<tag k="old_name:se" v="Mielkevarri" />
		<tag k="place" v="locality" />
		<tag k="ssr:stedsnr" v="140504" />
	</node>
	<node lat="70.22878614822784" lon="29.348207117214447" id="-32158">
		<tag k="name" v="Reinelva - Devddorjohka" />
		<tag k="name:no" v="Reinelva" />
		<tag k="name:se" v="Devddorjohka" />
		<tag k="old_name:se" v="Devdurjåkka" />
		<tag k="ssr:stedsnr" v="140689" />
		<tag k="waterway" v="stream" />
	</node>
	<node lat="70.17900837178507" lon="29.221432168757435" id="-32159">
		<tag k="name" v="Karlsmyra - Kallenjänkkä" />
		<tag k="name:fkv" v="Kallenjänkkä" />
		<tag k="name:no" v="Karlsmyra" />
		<tag k="natural" v="wetland" />
		<tag k="ssr:stedsnr" v="140739" />
	</node>
	<node lat="70.11097503784225" lon="29.46735702651071" id="-32160">
		<tag k="name" v="Paddebyvannet" />
		<tag k="natural" v="water" />
		<tag k="ssr:stedsnr" v="141619" />
		<tag k="water" v="lake" />
	</node>
	<node lat="70.15044171017122" lon="29.66140417118312" id="-32161">
		<tag k="fixme" v="consider natural=peak for the most distinct mountains in the district" />
		<tag k="loc_name:no" v="Dobbeltnasen" />
		<tag k="name" v="Dobbeltnasa - Doappalnjunni" />
		<tag k="name:no" v="Dobbeltnasa" />
		<tag k="name:se" v="Doappalnjunni" />
		<tag k="natural" v="hill" />
		<tag k="old_name:se" v="Doabbalnjunni" />
		<tag k="place" v="locality" />
		<tag k="ssr:stedsnr" v="141632" />
	</node>
	<node lat="70.1639111593063" lon="29.885890157409094" id="-32162">
		<tag k="name" v="Stabbursdalen" />
		<tag k="natural" v="valley" />
		<tag k="place" v="locality" />
		<tag k="ssr:stedsnr" v="141636" />
	</node>
	<node lat="70.29269170808867" lon="29.843470807037818" id="-32163">
		<tag k="name" v="Guovdavákkejohka" />
		<tag k="name:se" v="Guovdavákkejohka" />
		<tag k="old_name:se" v="Guovdavaggejåkka;Guovdavaggejohka" />
		<tag k="ssr:stedsnr" v="141891" />
		<tag k="waterway" v="river" />
	</node>
	<node lat="70.29214170719918" lon="29.96254572403527" id="-32164">
		<tag k="name" v="Uhca Guovdavággi" />
		<tag k="name:se" v="Uhca Guovdavággi" />
		<tag k="natural" v="valley" />
		<tag k="old_name:se" v="Guovdavaggi, ucca" />
		<tag k="place" v="locality" />
		<tag k="ssr:stedsnr" v="141892" />
	</node>
	<node lat="70.40009169553655" lon="29.27414332503879" id="-32165">
		<tag k="name" v="Šelgesjohka" />
		<tag k="name:se" v="Šelgesjohka" />
		<tag k="old_name:se" v="Šelgesjåkka" />
		<tag k="ssr:stedsnr" v="141932" />
		<tag k="waterway" v="stream" />
	</node>
	<node lat="70.41944169616974" lon="29.29070998550337" id="-32166">
		<tag k="fixme" v="consider natural=peak for the most distinct mountains in the district" />
		<tag k="name" v="Suoidneoaivvit" />
		<tag k="name:se" v="Suoidneoaivvit" />
		<tag k="natural" v="hill" />
		<tag k="old_name:se" v="Suoidneoaivit" />
		<tag k="place" v="locality" />
		<tag k="ssr:stedsnr" v="141934" />
	</node>
	<node lat="70.39330281131015" lon="29.091357288043163" id="-32167">
		<tag k="name" v="Hermanskáidi" />
		<tag k="name:se" v="Hermanskáidi" />
		<tag k="natural" v="cape" />
		<tag k="old_name:se" v="Hermanskaidi" />
		<tag k="ssr:stedsnr" v="141997" />
	</node>
	<node lat="70.07109727410065" lon="29.77759852302672" id="-32168">
		<tag k="name" v="Austrehamna" />
		<tag k="natural" v="bay" />
		<tag k="ssr:stedsnr" v="147221" />
	</node>
	<node lat="70.1872639374007" lon="30.210295538664415" id="-32169">
		<tag k="name" v="Falkormunningen" />
		<tag k="natural" v="bay" />
		<tag k="ssr:stedsnr" v="149905" />
	</node>
	<node lat="70.09469726850293" lon="29.55770698305713" id="-32170">
		<tag k="name" v="Krumpestein" />
		<tag k="natural" v="stone" />
		<tag k="ssr:stedsnr" v="151017" />
	</node>
	<node lat="70.1183972606591" lon="29.290754344867736" id="-32171">
		<tag k="name" v="Bakken" />
		<tag k="natural" v="slope" />
		<tag k="place" v="locality" />
		<tag k="ssr:stedsnr" v="151103" />
	</node>
	<node lat="70.11391116211495" lon="29.812220740510973" id="-32172">
		<tag k="name" v="Byvasshøgda" />
		<tag k="natural" v="hill" />
		<tag k="place" v="locality" />
		<tag k="ssr:stedsnr" v="151302" />
	</node>
	<node lat="70.06676949394415" lon="29.87881233940122" id="-32173">
		<tag k="name" v="Hølen" />
		<tag k="place" v="locality" />
		<tag k="ssr:stedsnr" v="151309" />
	</node>
	<node lat="70.11520560565529" lon="29.972456754785846" id="-32174">
		<tag k="name" v="Helistøslåtta" />
		<tag k="place" v="locality" />
		<tag k="ssr:stedsnr" v="151313" />
	</node>
	<node lat="70.11254449729344" lon="29.922134570761038" id="-32175">
		<tag k="name" v="Løfgrenslåtta" />
		<tag k="place" v="locality" />
		<tag k="ssr:stedsnr" v="151315" />
	</node>
	<node lat="70.06614171101634" lon="29.764795751833187" id="-32176">
		<tag k="name" v="Luftskipsmast" />
		<tag k="ssr:stedsnr" v="151359" />
		<tag k="tourism" v="attraction" />
	</node>
	<node lat="70.0710889346418" lon="29.762245758651414" id="-32177">
		<tag k="name" v="Makkeleira" />
		<tag k="natural" v="bay" />
		<tag k="ssr:stedsnr" v="151365" />
	</node>
	<node lat="70.06953894035095" lon="29.780009633288273" id="-32178">
		<tag k="name" v="Yttersundet" />
		<tag k="natural" v="strait" />
		<tag k="ssr:stedsnr" v="151367" />
	</node>
	<node lat="70.08281949462052" lon="29.733173545138367" id="-32179">
		<tag k="name" v="Prestelvtorget" />
		<tag k="place" v="quarter" />
		<tag k="ssr:stedsnr" v="151256" />
	</node>
	<node lat="70.07865559771389" lon="29.74353744152072" id="-32180">
		<tag k="leisure" v="pitch" />
		<tag k="name" v="Sentralidrettsanlegg" />
		<tag k="ssr:stedsnr" v="151261" />
	</node>
	<node lat="70.07390005231879" lon="30.129906641541588" id="-32181">
		<tag k="name" v="Larslygarhaugen" />
		<tag k="natural" v="hill" />
		<tag k="place" v="locality" />
		<tag k="ssr:stedsnr" v="151554" />
	</node>
	<node lat="70.0891306036625" lon="29.93385121299388" id="-32182">
		<tag k="fixme" v="verify maritime location" />
		<tag k="mooring" v="yes" />
		<tag k="name" v="Båtstø" />
		<tag k="place" v="locality" />
		<tag k="ssr:stedsnr" v="151466" />
	</node>
	<node lat="70.18488616585716" lon="30.252003837808363" id="-32183">
		<tag k="name" v="Gostohola" />
		<tag k="place" v="locality" />
		<tag k="ssr:stedsnr" v="151654" />
	</node>
	<node lat="70.20358894683376" lon="30.40187321074576" id="-32184">
		<tag k="name" v="Ulkoranta" />
		<tag k="name:fkv" v="Ulkoranta" />
		<tag k="natural" v="beach" />
		<tag k="old_name:fkv" v="Olgåranda" />
		<tag k="ssr:stedsnr" v="262573" />
	</node>
	<node lat="70.12928059251166" lon="29.270382127285806" id="-32185">
		<tag k="alt_name:no" v="Skittenelv;Skitnelva" />
		<tag k="name" v="Skitenelva - Baikajohka" />
		<tag k="name:no" v="Skitenelva" />
		<tag k="name:se" v="Baikajohka" />
		<tag k="old_name:se" v="Baikajåkka" />
		<tag k="ssr:stedsnr" v="262633" />
		<tag k="waterway" v="stream" />
	</node>
	<node lat="70.17366948416166" lon="29.305137691307685" id="-32186">
		<tag k="fixme" v="consider natural=peak for the most distinct mountains in the district" />
		<tag k="name" v="Flintnasen - Didnonjunis - Flinttinokka" />
		<tag k="name:fkv" v="Flinttinokka" />
		<tag k="name:no" v="Flintnasen" />
		<tag k="name:se" v="Didnonjunis" />
		<tag k="natural" v="hill" />
		<tag k="old_name:fkv" v="Flintinokka" />
		<tag k="old_name:se" v="Didnjunjunis" />
		<tag k="place" v="locality" />
		<tag k="ssr:stedsnr" v="262757" />
	</node>
	<node lat="70.15815559381085" lon="29.268876602544744" id="-32187">
		<tag k="alt_name" v="Storhompen" />
		<tag k="fixme" v="consider natural=peak for the most distinct mountains in the district" />
		<tag k="name" v="Storhumpen" />
		<tag k="natural" v="hill" />
		<tag k="place" v="locality" />
		<tag k="ssr:stedsnr" v="262761" />
	</node>
	<node lat="70.20230281802846" lon="29.35735989391471" id="-32188">
		<tag k="name" v="Høyelvdalen" />
		<tag k="natural" v="valley" />
		<tag k="place" v="locality" />
		<tag k="ssr:stedsnr" v="262776" />
	</node>
	<node lat="70.10528617091636" lon="30.194978837693977" id="-32189">
		<tag k="fixme" v="consider place=hamlet" />
		<tag k="name" v="Krampenes - Kramppinen" />
		<tag k="name:fkv" v="Kramppinen" />
		<tag k="name:no" v="Krampenes" />
		<tag k="place" v="village" />
		<tag k="ssr:stedsnr" v="263556" />
	</node>
	<node lat="70.09076948747003" lon="29.596548639501382" id="-32190">
		<tag k="name" v="Andersby" />
		<tag k="place" v="hamlet" />
		<tag k="ssr:stedsnr" v="263615" />
	</node>
	<node lat="70.09992504589385" lon="29.679245811735125" id="-32191">
		<tag k="alt_name" v="Fossefjellet" />
		<tag k="fixme" v="consider natural=peak for the most distinct mountains in the district" />
		<tag k="name" v="Basis A" />
		<tag k="natural" v="hill" />
		<tag k="place" v="locality" />
		<tag k="ssr:stedsnr" v="263619" />
	</node>
	<node lat="70.14825560293033" lon="29.722473577491765" id="-32192">
		<tag k="name" v="Frøkendalen" />
		<tag k="natural" v="valley" />
		<tag k="place" v="locality" />
		<tag k="ssr:stedsnr" v="263634" />
	</node>
	<node lat="70.15351115193457" lon="29.46817648010466" id="-32193">
		<tag k="name" v="Østervannet" />
		<tag k="natural" v="water" />
		<tag k="ssr:stedsnr" v="202642" />
		<tag k="water" v="lake" />
	</node>
	<node lat="70.12772782512643" lon="29.683373597820992" id="-32194">
		<tag k="name" v="Viinikka" />
		<tag k="name:fkv" v="Viinikka" />
		<tag k="old_name:fkv" v="Vinika" />
		<tag k="place" v="locality" />
		<tag k="ssr:stedsnr" v="202645" />
	</node>
	<node lat="70.15576115718046" lon="29.52297924055379" id="-32195">
		<tag k="name" v="Vargelva - Gunnesaijohka - Hukkajoki" />
		<tag k="name:fkv" v="Hukkajoki" />
		<tag k="name:no" v="Vargelva" />
		<tag k="name:se" v="Gunnesaijohka" />
		<tag k="old_name:fkv" v="Hokkajoki" />
		<tag k="old_name:se" v="Gunnesajjåkka" />
		<tag k="ssr:stedsnr" v="202647" />
		<tag k="waterway" v="stream" />
	</node>
	<node lat="70.1548850853352" lon="29.814732884948718" id="-32196">
		<tag k="loc_name:fkv" v="Koppakuru" />
		<tag k="loc_name:no" v="Storelvdalen" />
		<tag k="loc_name:se" v="Idjaávži" />
		<tag k="name" v="Nattfjelldalen" />
		<tag k="name:no" v="Nattfjelldalen" />
		<tag k="natural" v="valley" />
		<tag k="place" v="locality" />
		<tag k="ssr:stedsnr" v="202657" />
	</node>
	<node lat="70.06348615797704" lon="29.82877347807468" id="-32197">
		<tag k="name" v="Navaren" />
		<tag k="natural" v="hill" />
		<tag k="place" v="locality" />
		<tag k="ssr:stedsnr" v="202544" />
	</node>
	<node lat="70.34031114561266" lon="29.320673848834662" id="-32198">
		<tag k="name" v="Ørretvannet - Dápmotjávri" />
		<tag k="name:no" v="Ørretvannet" />
		<tag k="name:se" v="Dápmotjávri" />
		<tag k="natural" v="water" />
		<tag k="old_name:se" v="Dabmutjavri" />
		<tag k="ssr:stedsnr" v="202996" />
	</node>
	<node lat="70.3725778116167" lon="29.228423908540137" id="-32199">
		<tag k="name" v="Jakobselvkroken - Ánnejohmohkki - Annijoenmukka" />
		<tag k="name:fkv" v="Annijoenmukka" />
		<tag k="name:no" v="Jakobselvkroken" />
		<tag k="name:se" v="Ánnejohmohkki" />
		<tag k="old_name:se" v="Annejåkmåkki;Ánnejohkmohkki" />
		<tag k="place" v="locality" />
		<tag k="ssr:stedsnr" v="202998" />
	</node>
	<node lat="70.3841639185462" lon="29.206351678238022" id="-32200">
		<tag k="name" v="Stálofielbmá" />
		<tag k="name:se" v="Stálofielbmá" />
		<tag k="old_name:se" v="Stalufielbma" />
		<tag k="ssr:stedsnr" v="203000" />
		<tag k="waterway" v="river" />
	</node>
	<node lat="70.05746671393601" lon="29.810998490929766" id="-32201">
		<tag k="name" v="Salinengrunnen" />
		<tag k="natural" v="shoal" />
		<tag k="place" v="locality" />
		<tag k="ssr:stedsnr" v="207292" />
	</node>
	<node lat="70.10033615992165" lon="29.65880414809386" id="-32202">
		<tag k="name" v="Myrvannet" />
		<tag k="natural" v="water" />
		<tag k="ssr:stedsnr" v="212033" />
	</node>
	<node lat="70.07698060090655" lon="29.756265201617037" id="-32203">
		<tag k="amenity" v="kindergarten" />
		<tag k="name" v="Tomlebo barnehage" />
		<tag k="ssr:stedsnr" v="212177" />
	</node>
	<node lat="70.0738556070264" lon="29.777795750197523" id="-32204">
		<tag k="name" v="Landhuselva" />
		<tag k="ssr:stedsnr" v="212205" />
		<tag k="waterway" v="stream" />
	</node>
	<node lat="70.06636671570712" lon="29.862526254392257" id="-32205">
		<tag k="name" v="Raet" />
		<tag k="natural" v="ridge" />
		<tag k="place" v="locality" />
		<tag k="ssr:stedsnr" v="212286" />
	</node>
	<node lat="70.06558893786845" lon="29.875176246790275" id="-32206">
		<tag k="name" v="Brasbergsletta" />
		<tag k="place" v="locality" />
		<tag k="ssr:stedsnr" v="212293" />
	</node>
	<node lat="70.07975283192627" lon="30.02842893080349" id="-32207">
		<tag k="name" v="Riuttapäri" />
		<tag k="name:fkv" v="Riuttapäri" />
		<tag k="natural" v="hill" />
		<tag k="place" v="locality" />
		<tag k="ssr:stedsnr" v="212408" />
	</node>
	<node lat="70.10470560965287" lon="30.065945582148434" id="-32208">
		<tag k="name" v="Geitvannet" />
		<tag k="natural" v="water" />
		<tag k="ssr:stedsnr" v="212507" />
		<tag k="water" v="lake" />
	</node>
	<node lat="70.10548061011197" lon="30.150967756575298" id="-32209">
		<tag k="highway" v="path" />
		<tag k="name" v="Siribakkvegen" />
		<tag k="ssr:stedsnr" v="212509" />
	</node>
	<node lat="70.08923060676095" lon="30.10121778852482" id="-32210">
		<tag k="name" v="Strandvassvalen" />
		<tag k="natural" v="beach" />
		<tag k="ssr:stedsnr" v="212575" />
	</node>
	<node lat="70.0956722772631" lon="30.103551110659392" id="-32211">
		<tag k="name" v="Lilleelva" />
		<tag k="ssr:stedsnr" v="212576" />
		<tag k="waterway" v="stream" />
	</node>
	<node lat="70.1750667239482" lon="30.33066489896181" id="-32212">
		<tag k="fixme" v="consider seamark:type=rock or natural=shoal" />
		<tag k="name" v="Skjæret" />
		<tag k="place" v="islet" />
		<tag k="ssr:stedsnr" v="212692" />
	</node>
	<node lat="70.16362505368018" lon="30.326967680960117" id="-32213">
		<tag k="name" v="Kallilahti" />
		<tag k="name:fkv" v="Kallilahti" />
		<tag k="natural" v="beach" />
		<tag k="ssr:stedsnr" v="212693" />
	</node>
	<node lat="70.11160559483756" lon="29.336434872670864" id="-32214">
		<tag k="amenity" v="place_of_worship" />
		<tag k="denomination" v="lutheran" />
		<tag k="name" v="Vestre Jakobselv kirke" />
		<tag k="religion" v="christian" />
		<tag k="ssr:stedsnr" v="212882" />
	</node>
	<node lat="70.11422227044254" lon="30.109573347025012" id="-32215">
		<tag k="name" v="Øvre Siribakken" />
		<tag k="natural" v="slope" />
		<tag k="place" v="locality" />
		<tag k="ssr:stedsnr" v="271043" />
	</node>
	<node lat="70.06841116230481" lon="29.986070619866442" id="-32216">
		<tag k="name" v="Oterneset" />
		<tag k="natural" v="cape" />
		<tag k="ssr:stedsnr" v="451240" />
	</node>
	<node lat="70.06176949264118" lon="29.8816984558074" id="-32217">
		<tag k="alt_name" v="Batteriet" />
		<tag k="name" v="Vargemyrbakken" />
		<tag k="natural" v="slope" />
		<tag k="place" v="locality" />
		<tag k="ssr:stedsnr" v="455269" />
	</node>
	<node lat="70.06259726890477" lon="29.838992931106485" id="-32218">
		<tag k="name" v="Høghammaren" />
		<tag k="natural" v="hill" />
		<tag k="place" v="locality" />
		<tag k="ssr:stedsnr" v="455276" />
	</node>
	<node lat="70.21845837103594" lon="29.24926552009648" id="-32219">
		<tag k="name" v="Buckdammen" />
		<tag k="natural" v="water" />
		<tag k="ssr:stedsnr" v="453880" />
	</node>
	<node lat="70.12647783376514" lon="30.284762134813242" id="-32220">
		<tag k="name" v="Lille-Urneselva" />
		<tag k="ssr:stedsnr" v="453882" />
		<tag k="waterway" v="river" />
	</node>
	<node lat="70.12749448756568" lon="29.325732104155954" id="-32221">
		<tag k="name" v="Bustra" />
		<tag k="natural" v="valley" />
		<tag k="place" v="locality" />
		<tag k="ssr:stedsnr" v="455092" />
	</node>
	<node lat="70.1159583667952" lon="29.221001600030675" id="-32222">
		<tag k="name" v="Maŋŋegeahče" />
		<tag k="name:se" v="Maŋŋegeahče" />
		<tag k="natural" v="beach" />
		<tag k="ssr:stedsnr" v="455095" />
	</node>
	<node lat="70.0800306057642" lon="29.783517980606494" id="-32223">
		<tag k="name" v="Kanaberget" />
		<tag k="natural" v="hill" />
		<tag k="place" v="locality" />
		<tag k="ssr:stedsnr" v="455187" />
	</node>
	<node lat="70.08882504897315" lon="29.868679040152244" id="-32224">
		<tag k="name" v="Raet" />
		<tag k="natural" v="ridge" />
		<tag k="place" v="locality" />
		<tag k="ssr:stedsnr" v="455223" />
	</node>
	<node lat="70.17184726094136" lon="29.25740158681014" id="-32225">
		<tag k="name" v="Lasse-Petter-slåtta - Petterinniitty" />
		<tag k="name:fkv" v="Petterinniitty" />
		<tag k="name:no" v="Lasse-Petter-slåtta" />
		<tag k="place" v="locality" />
		<tag k="ssr:stedsnr" v="455040" />
	</node>
	<node lat="70.16813892731341" lon="29.246346055715435" id="-32226">
		<tag k="alt_name" v="Lillehompen" />
		<tag k="name" v="Lillehumpen" />
		<tag k="natural" v="hill" />
		<tag k="place" v="locality" />
		<tag k="ssr:stedsnr" v="455041" />
	</node>
	<node lat="70.06171671124207" lon="29.82603738772941" id="-32227">
		<tag k="name" v="Grunnesbukta" />
		<tag k="natural" v="bay" />
		<tag k="ssr:stedsnr" v="455247" />
	</node>
	<node lat="70.08200560844891" lon="30.07465113515886" id="-32228">
		<tag k="name" v="Katteknausen" />
		<tag k="natural" v="hill" />
		<tag k="place" v="locality" />
		<tag k="ssr:stedsnr" v="455555" />
	</node>
	<node lat="70.07906672358895" lon="30.06431779662959" id="-32229">
		<tag k="name" v="Osteberget" />
		<tag k="natural" v="hill" />
		<tag k="place" v="locality" />
		<tag k="ssr:stedsnr" v="455558" />
	</node>
	<node lat="70.06890838635152" lon="29.99540396069207" id="-32230">
		<tag k="name" v="Storsjødammen" />
		<tag k="natural" v="bay" />
		<tag k="ssr:stedsnr" v="455584" />
	</node>
	<node lat="70.0827250499062" lon="29.982995621586245" id="-32231">
		<tag k="name" v="Monstaskogen" />
		<tag k="place" v="locality" />
		<tag k="ssr:stedsnr" v="455376" />
	</node>
	<node lat="70.11676393956643" lon="30.121770571927787" id="-32232">
		<tag k="name" v="Storskogelva" />
		<tag k="ssr:stedsnr" v="455493" />
		<tag k="waterway" v="stream" />
	</node>
	<node lat="70.19854449583488" lon="30.3663148973993" id="-32233">
		<tag k="name" v="Tavijoenmukka" />
		<tag k="name:fkv" v="Tavijoenmukka" />
		<tag k="natural" v="bay" />
		<tag k="ssr:stedsnr" v="455628" />
	</node>
	<node lat="70.19606393955964" lon="30.286998259006904" id="-32234">
		<tag k="name" v="Pitkänpäri" />
		<tag k="name:fkv" v="Pitkänpäri" />
		<tag k="natural" v="hill" />
		<tag k="place" v="locality" />
		<tag k="ssr:stedsnr" v="455652" />
	</node>
	<node lat="70.15505283271632" lon="30.33452045865739" id="-32235">
		<tag k="name" v="Mortintörmä" />
		<tag k="name:fkv" v="Mortintörmä" />
		<tag k="natural" v="slope" />
		<tag k="old_name:fkv" v="Murtintörmä" />
		<tag k="place" v="locality" />
		<tag k="ssr:stedsnr" v="455682" />
	</node>
	<node lat="70.11295283304887" lon="30.171617767378727" id="-32236">
		<tag k="name" v="Varavannet" />
		<tag k="natural" v="water" />
		<tag k="ssr:stedsnr" v="455726" />
	</node>
	<node lat="70.10003060843003" lon="30.122387231815246" id="-32237">
		<tag k="name" v="Brokulpen" />
		<tag k="place" v="locality" />
		<tag k="ssr:stedsnr" v="455728" />
	</node>
	<node lat="70.10393338747642" lon="30.174956648259368" id="-32238">
		<tag k="name" v="Bukta" />
		<tag k="natural" v="bay" />
		<tag k="ssr:stedsnr" v="455734" />
	</node>
	<node lat="70.11015283270964" lon="30.1760399700344" id="-32239">
		<tag k="name" v="Kaakkurijänkkä" />
		<tag k="name:fkv" v="Kaakkurijänkkä" />
		<tag k="natural" v="wetland" />
		<tag k="ssr:stedsnr" v="455743" />
	</node>
	<node lat="70.0770972698998" lon="29.906248436811715" id="-32240">
		<tag k="alt_name" v="Aksla" />
		<tag k="fixme" v="consider natural=peak for the most distinct mountains in the district" />
		<tag k="name" v="Kibyaksla" />
		<tag k="natural" v="hill" />
		<tag k="place" v="locality" />
		<tag k="ssr:stedsnr" v="262545" />
	</node>
	<node lat="70.1176417055548" lon="29.27260434009726" id="-32241">
		<tag k="name" v="Ytre Klubben" />
		<tag k="old_name" v="Klubben, yt" />
		<tag k="place" v="hamlet" />
		<tag k="ssr:stedsnr" v="262645" />
	</node>
	<node lat="70.12274170260865" lon="29.380270974335527" id="-32242">
		<tag k="alt_name:no" v="Sudielva;Røverelva" />
		<tag k="name" v="Røvarelva - Čuđđejohka" />
		<tag k="name:no" v="Røvarelva" />
		<tag k="name:se" v="Čuđđejohka" />
		<tag k="old_name:se" v="Čuđđejåkka" />
		<tag k="ssr:stedsnr" v="262646" />
		<tag k="waterway" v="stream" />
	</node>
	<node lat="70.09906528549774" lon="29.487302571186863" id="-32243">
		<tag k="name" v="Fugleberg" />
		<tag k="place" v="farm" />
		<tag k="ssr:stedsnr" v="263612" />
	</node>
	<node lat="70.17223059642372" lon="29.4611015143862" id="-32244">
		<tag k="name" v="Roggejohka - Rokkijoki" />
		<tag k="name:fkv" v="Rokkijoki" />
		<tag k="name:se" v="Roggejohka" />
		<tag k="old_name:se" v="Råggejåkka" />
		<tag k="ssr:stedsnr" v="263573" />
		<tag k="waterway" v="stream" />
	</node>
	<node lat="70.31697504074235" lon="29.553126517943294" id="-32245">
		<tag k="fixme" v="consider natural=peak for the most distinct mountains in the district" />
		<tag k="name" v="Bealjáidoalgi" />
		<tag k="name:se" v="Bealjáidoalgi" />
		<tag k="natural" v="hill" />
		<tag k="old_name:se" v="Bælljaidoalgi" />
		<tag k="place" v="locality" />
		<tag k="ssr:stedsnr" v="263913" />
	</node>
	<node lat="70.07894449691496" lon="30.102726102002933" id="-32246">
		<tag k="name" v="Yttersida" />
		<tag k="natural" v="bay" />
		<tag k="ssr:stedsnr" v="268282" />
	</node>
	<node lat="70.06856671709117" lon="30.108898334244927" id="-32247">
		<tag k="name" v="Molla" />
		<tag k="natural" v="bay" />
		<tag k="ssr:stedsnr" v="268286" />
	</node>
	<node lat="70.16832226426475" lon="29.285107133071342" id="-32248">
		<tag k="name" v="Gjelhaugslåtta" />
		<tag k="place" v="locality" />
		<tag k="ssr:stedsnr" v="273023" />
	</node>
	<node lat="70.08810004507058" lon="29.738809654276597" id="-32249">
		<tag k="leisure" v="pitch" />
		<tag k="name" v="Vadsø skistadion" />
		<tag k="ssr:stedsnr" v="273206" />
	</node>
	<node lat="70.12712504009937" lon="29.31804044768682" id="-32250">
		<tag k="name" v="Holmen" />
		<tag k="place" v="islet" />
		<tag k="ssr:stedsnr" v="273102" />
	</node>
	<node lat="70.06416671203498" lon="29.81811239383374" id="-32251">
		<tag k="name" v="Navarsbukta" />
		<tag k="natural" v="bay" />
		<tag k="ssr:stedsnr" v="273302" />
	</node>
	<node lat="70.06956115937504" lon="29.944295637717815" id="-32252">
		<tag k="name" v="Alihaaki" />
		<tag k="name:fkv" v="Alihaaki" />
		<tag k="natural" v="slope" />
		<tag k="place" v="locality" />
		<tag k="ssr:stedsnr" v="273422" />
	</node>
	<node lat="70.09038894203285" lon="30.007776171845855" id="-32253">
		<tag k="name" v="Kaakkurijärvi" />
		<tag k="name:fkv" v="Kaakkurijärvi" />
		<tag k="natural" v="water" />
		<tag k="ssr:stedsnr" v="273390" />
	</node>
	<node lat="70.12060838542361" lon="30.158464995637456" id="-32254">
		<tag k="name" v="Flata" />
		<tag k="place" v="locality" />
		<tag k="ssr:stedsnr" v="273510" />
	</node>
	<node lat="70.06749727603675" lon="29.97454840065272" id="-32255">
		<tag k="name" v="Rapamukka" />
		<tag k="name:fkv" v="Rapamukka" />
		<tag k="natural" v="bay" />
		<tag k="ssr:stedsnr" v="273605" />
	</node>
	<node lat="70.10486116310219" lon="30.196951053077683" id="-32256">
		<tag k="name" v="Båtstø" />
		<tag k="natural" v="bay" />
		<tag k="ssr:stedsnr" v="273771" />
	</node>
	<node lat="70.07363615644287" lon="29.774531865382222" id="-32257">
		<tag k="name" v="Ytrebyen" />
		<tag k="place" v="suburb" />
		<tag k="ssr:stedsnr" v="275485" />
	</node>
	<node lat="70.06666671569518" lon="29.961109533294987" id="-32258">
		<tag k="name" v="Salttjern" />
		<tag k="place" v="hamlet" />
		<tag k="ssr:stedsnr" v="303320" />
	</node>
	<node lat="70.22245281360745" lon="29.184671103970423" id="-32259">
		<tag k="name" v="Äimänpää" />
		<tag k="name:fkv" v="Äimänpää" />
		<tag k="old_name:fkv" v="Æimænbæ" />
		<tag k="ssr:stedsnr" v="322685" />
		<tag k="waterway" v="rapids" />
	</node>
	<node lat="70.24270004030826" lon="29.386484889831177" id="-32260">
		<tag k="fixme" v="consider natural=peak for the most distinct mountains in the district" />
		<tag k="name" v="Borjjasbuolžžat" />
		<tag k="name:se" v="Borjjasbuolžžat" />
		<tag k="natural" v="hill" />
		<tag k="old_name:se" v="Bårjasbuolžat" />
		<tag k="place" v="locality" />
		<tag k="ssr:stedsnr" v="322688" />
	</node>
	<node lat="70.08726393123793" lon="29.672709683637116" id="-32261">
		<tag k="name" v="Tomaselva" />
		<tag k="place" v="isolated_dwelling" />
		<tag k="ssr:stedsnr" v="323609" />
	</node>
	<node lat="70.09341393051608" lon="29.53427365271944" id="-32262">
		<tag k="alt_name" v="Makknes" />
		<tag k="name" v="Makkenes" />
		<tag k="natural" v="cape" />
		<tag k="ssr:stedsnr" v="323611" />
	</node>
	<node lat="70.15495281420091" lon="29.414945957545683" id="-32263">
		<tag k="alt_name" v="Falkevannshompen" />
		<tag k="name" v="Falkevannshumpen" />
		<tag k="natural" v="hill" />
		<tag k="place" v="locality" />
		<tag k="ssr:stedsnr" v="333955" />
	</node>
	<node lat="70.068019489911" lon="29.805954070658405" id="-32264">
		<tag k="name" v="Kavringen" />
		<tag k="natural" v="slope" />
		<tag k="place" v="locality" />
		<tag k="ssr:stedsnr" v="334249" />
	</node>
	<node lat="70.07545282421354" lon="29.756298536737276" id="-32265">
		<tag k="amenity" v="school" />
		<tag k="name" v="Vadsø Barne- og Ungdomsskole" />
		<tag k="ssr:stedsnr" v="334162" />
	</node>
	<node lat="70.06504727567285" lon="29.963831753480875" id="-32266">
		<tag k="fixme" v="consider seamark:type=rock or natural=shoal" />
		<tag k="name" v="Laassa" />
		<tag k="name:fkv" v="Laassa" />
		<tag k="place" v="islet" />
		<tag k="ssr:stedsnr" v="334602" />
	</node>
	<node lat="70.14169727794561" lon="30.359731526435606" id="-32267">
		<tag k="fixme" v="consider seamark:type=rock or natural=shoal" />
		<tag k="name" v="Jounalaassa" />
		<tag k="name:fkv" v="Jounalaassa" />
		<tag k="place" v="islet" />
		<tag k="ssr:stedsnr" v="334658" />
	</node>
	<node lat="70.12723060802725" lon="30.18507330318499" id="-32268">
		<tag k="name" v="Tørrvannet" />
		<tag k="natural" v="water" />
		<tag k="ssr:stedsnr" v="334506" />
	</node>
	<node lat="70.06888339174832" lon="30.167362168417018" id="-32269">
		<tag k="name" v="Loddekeila" />
		<tag k="natural" v="bay" />
		<tag k="ssr:stedsnr" v="334513" />
	</node>
	<node lat="70.06963894290634" lon="30.102923331754987" id="-32270">
		<tag k="name" v="Neset" />
		<tag k="natural" v="cape" />
		<tag k="ssr:stedsnr" v="334547" />
	</node>
	<node lat="70.08530561481892" lon="30.26167324802548" id="-32271">
		<tag k="name" v="Korsneset" />
		<tag k="natural" v="cape" />
		<tag k="ssr:stedsnr" v="344250" />
	</node>
	<node lat="70.09111392523329" lon="29.008704474976128" id="-32272">
		<tag k="bay" v="fjord" />
		<tag k="name" v="Varangerfjorden - Várjavuonna - Varenkinvuono" />
		<tag k="name:fkv" v="Varenkinvuono" />
		<tag k="name:no" v="Varangerfjorden" />
		<tag k="name:se" v="Várjavuonna" />
		<tag k="natural" v="bay" />
		<tag k="ssr:stedsnr" v="383165" />
	</node>
	<node lat="70.06420052875" lon="29.838877524164356" id="-32273">
		<tag k="aeroway" v="aerodrome" />
		<tag k="alt_name:no" v="Vadsø" />
		<tag k="name" v="Vadsø lufthavn - Čáhcesullo girdihámman - Vesisaaren lentohamina" />
		<tag k="name:fkv" v="Vesisaaren lentohamina" />
		<tag k="name:no" v="Vadsø lufthavn" />
		<tag k="name:se" v="Čáhcesullo girdihámman" />
		<tag k="ssr:stedsnr" v="383548" />
	</node>
	<node lat="70.10892783012676" lon="30.162901077962445" id="-32274">
		<tag k="name" v="Lillelva" />
		<tag k="ssr:stedsnr" v="384521" />
		<tag k="waterway" v="stream" />
	</node>
	<node lat="70.19388616378615" lon="30.36002043568043" id="-32275">
		<tag k="name" v="Matoniemenmukka" />
		<tag k="name:fkv" v="Matoniemenmukka" />
		<tag k="natural" v="bay" />
		<tag k="old_name:fkv" v="Madåniemenmokka" />
		<tag k="ssr:stedsnr" v="384547" />
	</node>
	<node lat="70.12309448949046" lon="29.897717916937978" id="-32276">
		<tag k="name" v="Tanelinjärvi" />
		<tag k="name:fkv" v="Tanelinjärvi" />
		<tag k="natural" v="water" />
		<tag k="old_name:fkv" v="Danelinjærvi" />
		<tag k="ssr:stedsnr" v="384606" />
	</node>
	<node lat="70.12066392649885" lon="29.492412580183533" id="-32277">
		<tag k="fixme" v="consider natural=peak for the most distinct mountains in the district" />
		<tag k="name" v="Store Guovlloaivi" />
		<tag k="natural" v="hill" />
		<tag k="old_name" v="Guovloaivi, store;Guovlloaivi" />
		<tag k="place" v="locality" />
		<tag k="ssr:stedsnr" v="384610" />
	</node>
	<node lat="70.13946393142297" lon="29.540137558248453" id="-32278">
		<tag k="name" v="Jolma" />
		<tag k="name:fkv" v="Jolma" />
		<tag k="natural" v="water" />
		<tag k="old_name:fkv" v="Jålma" />
		<tag k="ssr:stedsnr" v="384613" />
	</node>
	<node lat="70.15537504214561" lon="29.42649872517355" id="-32279">
		<tag k="name" v="Langvannet" />
		<tag k="natural" v="water" />
		<tag k="ssr:stedsnr" v="384615" />
	</node>
	<node lat="70.04720005421984" lon="29.848217913963097" id="-32280">
		<tag k="name" v="Ytre Seigrunnen" />
		<tag k="natural" v="shoal" />
		<tag k="old_name" v="Seigrunnen, Ytre" />
		<tag k="place" v="locality" />
		<tag k="ssr:stedsnr" v="389313" />
	</node>
	<node lat="70.1019305982266" lon="29.622568057876432" id="-32281">
		<tag k="alt_name" v="Bergelvskaret" />
		<tag k="name" v="Andersbyskaret" />
		<tag k="natural" v="valley" />
		<tag k="place" v="locality" />
		<tag k="ssr:stedsnr" v="394009" />
	</node>
	<node lat="70.09100004913232" lon="29.602384731759507" id="-32282">
		<tag k="name" v="Badestrand" />
		<tag k="natural" v="beach" />
		<tag k="ssr:stedsnr" v="394010" />
	</node>
	<node lat="70.10722226685213" lon="29.64959305826278" id="-32283">
		<tag k="name" v="Tesnitten" />
		<tag k="place" v="isolated_dwelling" />
		<tag k="ssr:stedsnr" v="394032" />
	</node>
	<node lat="70.17252503494262" lon="29.258584918066546" id="-32284">
		<tag k="ford" v="yes" />
		<tag k="name" v="Vadested" />
		<tag k="place" v="locality" />
		<tag k="ssr:stedsnr" v="394036" />
	</node>
	<node lat="70.07754448828052" lon="29.72702078402289" id="-32285">
		<tag k="name" v="Prestelva" />
		<tag k="ssr:stedsnr" v="394182" />
		<tag k="waterway" v="stream" />
	</node>
	<node lat="70.08043059959932" lon="29.726773564098174" id="-32286">
		<tag k="name" v="St. Hanshaugen" />
		<tag k="place" v="quarter" />
		<tag k="ssr:stedsnr" v="394214" />
	</node>
	<node lat="70.08014726847846" lon="29.747579088011026" id="-32287">
		<tag k="name" v="Campingplass" />
		<tag k="ssr:stedsnr" v="394217" />
		<tag k="tourism" v="camp_site" />
	</node>
	<node lat="70.09767782973508" lon="30.026303952859745" id="-32288">
		<tag k="name" v="Vuopajanpäri" />
		<tag k="name:fkv" v="Vuopajanpäri" />
		<tag k="natural" v="hill" />
		<tag k="place" v="locality" />
		<tag k="ssr:stedsnr" v="394406" />
	</node>
	<node lat="70.08099449869422" lon="29.98506508046775" id="-32289">
		<tag k="name" v="Kaivosoja" />
		<tag k="name:fkv" v="Kaivosoja" />
		<tag k="ssr:stedsnr" v="394413" />
		<tag k="waterway" v="stream" />
	</node>
	<node lat="70.07254449577287" lon="30.009323387002055" id="-32290">
		<tag k="fixme" v="consider highway=path" />
		<tag k="highway" v="track" />
		<tag k="name" v="Grusvegen" />
		<tag k="ssr:stedsnr" v="394583" />
	</node>
	<node lat="70.06767505254668" lon="29.983781723086672" id="-32291">
		<tag k="name" v="Oterberget - Saukkokallio" />
		<tag k="name:fkv" v="Saukkokallio" />
		<tag k="name:no" v="Oterberget" />
		<tag k="natural" v="hill" />
		<tag k="place" v="locality" />
		<tag k="ssr:stedsnr" v="394592" />
	</node>
	<node lat="70.07944449467878" lon="29.97094009227194" id="-32292">
		<tag k="name" v="Lille Monsta" />
		<tag k="place" v="locality" />
		<tag k="ssr:stedsnr" v="394481" />
	</node>
	<node lat="70.06239449740356" lon="29.915529009712664" id="-32293">
		<tag k="name" v="Isokari" />
		<tag k="name:fkv" v="Isokari" />
		<tag k="natural" v="beach" />
		<tag k="ssr:stedsnr" v="394609" />
	</node>
	<node lat="70.18441949804524" lon="30.266856606069755" id="-32294">
		<tag k="name" v="Helmerslåtta" />
		<tag k="place" v="locality" />
		<tag k="ssr:stedsnr" v="394631" />
	</node>
	<node lat="70.08307505402973" lon="30.23493713731823" id="-32295">
		<tag k="name" v="Ramnfloggrunnen" />
		<tag k="natural" v="shoal" />
		<tag k="place" v="locality" />
		<tag k="ssr:stedsnr" v="405237" />
	</node>
	<node lat="70.10783614844486" lon="29.27180156663846" id="-32296">
		<tag k="name" v="Skitnelvgrunnen" />
		<tag k="name:no" v="Skitnelvgrunnen" />
		<tag k="natural" v="shoal" />
		<tag k="place" v="locality" />
		<tag k="ssr:stedsnr" v="413091" />
	</node>
	<node lat="70.08253893633479" lon="29.66915968798611" id="-32297">
		<tag k="name" v="Laksbuneset" />
		<tag k="natural" v="cape" />
		<tag k="ssr:stedsnr" v="413989" />
	</node>
	<node lat="70.07620837986008" lon="29.634762495430195" id="-32298">
		<tag k="name" v="Lille Vadsøya" />
		<tag k="old_name" v="Vadsøya, l" />
		<tag k="place" v="island" />
		<tag k="ssr:stedsnr" v="444508" />
	</node>
	<node lat="70.0616917151471" lon="29.831156820454083" id="-32299">
		<tag k="name" v="Grunnes" />
		<tag k="natural" v="cape" />
		<tag k="ssr:stedsnr" v="444510" />
	</node>
	<node lat="70.06961583601436" lon="30.00211744652188" id="-32300">
		<tag k="alt_name" v="Salttjern, l" />
		<tag k="name" v="Lille Salttjern" />
		<tag k="place" v="farm" />
		<tag k="ssr:stedsnr" v="445491" />
	</node>
	<node lat="70.22472504553876" lon="30.120403951867257" id="-32301">
		<tag k="name" v="Litlelva - Pikkujoki" />
		<tag k="name:fkv" v="Pikkujoki" />
		<tag k="name:no" v="Litlelva" />
		<tag k="old_name:fkv" v="Bikkojåki" />
		<tag k="ssr:stedsnr" v="445526" />
		<tag k="waterway" v="stream" />
	</node>
	<node lat="70.23722503981674" lon="29.54330147276315" id="-32302">
		<tag k="name" v="Didnojohskáidi" />
		<tag k="name:se" v="Didnojohskáidi" />
		<tag k="natural" v="cape" />
		<tag k="old_name:se" v="Didnujåkskaidi" />
		<tag k="ssr:stedsnr" v="445588" />
	</node>
	<node lat="70.12521116263443" lon="30.30184823622055" id="-32303">
		<tag k="name" v="Rødberget" />
		<tag k="natural" v="hill" />
		<tag k="place" v="locality" />
		<tag k="ssr:stedsnr" v="450273" />
	</node>
	<node lat="70.18746950316678" lon="30.34144268022094" id="-32304">
		<tag k="amenity" v="place_of_worship" />
		<tag k="denomination" v="lutheran" />
		<tag k="name" v="Skallelv  kapell" />
		<tag k="religion" v="christian" />
		<tag k="ssr:stedsnr" v="454866" />
	</node>
	<node lat="70.09534171110133" lon="29.507162559533924" id="-32305">
		<tag k="name" v="Lomakaneset" />
		<tag k="natural" v="cape" />
		<tag k="ssr:stedsnr" v="455106" />
	</node>
	<node lat="70.14334170143493" lon="29.28517379071342" id="-32306">
		<tag k="fixme" v="consider natural=peak for the most distinct mountains in the district" />
		<tag k="name" v="Turvevaara" />
		<tag k="name:fkv" v="Turvevaara" />
		<tag k="natural" v="hill" />
		<tag k="place" v="locality" />
		<tag k="ssr:stedsnr" v="455107" />
	</node>
	<node lat="70.06955838260203" lon="29.724104104681345" id="-32307">
		<tag k="name" v="Hysebukta" />
		<tag k="natural" v="bay" />
		<tag k="ssr:stedsnr" v="455305" />
	</node>
	<node lat="70.07748337873821" lon="29.769492961382593" id="-32308">
		<tag k="amenity" v="prison" />
		<tag k="name" v="Vadsø fengsel" />
		<tag k="old_name" v="Vadsø kretsfengsel" />
		<tag k="ssr:stedsnr" v="455341" />
	</node>
	<node lat="70.12423060461026" lon="30.187592746003908" id="-32309">
		<tag k="name" v="Kjøreslåka" />
		<tag k="ssr:stedsnr" v="455509" />
		<tag k="waterway" v="stream" />
	</node>
	<node lat="70.06924172617478" lon="30.166467736533242" id="-32310">
		<tag k="name" v="Svarteberget" />
		<tag k="natural" v="hill" />
		<tag k="place" v="locality" />
		<tag k="ssr:stedsnr" v="455524" />
	</node>
	<node lat="70.0924806095492" lon="30.070592804730694" id="-32311">
		<tag k="name" v="Skjervebakkvannan" />
		<tag k="natural" v="water" />
		<tag k="ssr:stedsnr" v="455566" />
		<tag k="water" v="lake" />
	</node>
	<node lat="70.0730389385988" lon="30.033159491002746" id="-32312">
		<tag k="leisure" v="marina" />
		<tag k="name" v="Båtstø" />
		<tag k="ssr:stedsnr" v="455572" />
	</node>
	<node lat="70.07568893727418" lon="30.025098376152634" id="-32313">
		<tag k="name" v="Storberget - Isopäri" />
		<tag k="name:fkv" v="Isopäri" />
		<tag k="name:no" v="Storberget" />
		<tag k="natural" v="hill" />
		<tag k="place" v="locality" />
		<tag k="ssr:stedsnr" v="455578" />
	</node>
	<node lat="70.07142505334518" lon="30.001134497480287" id="-32314">
		<tag k="name" v="Russegrava" />
		<tag k="place" v="locality" />
		<tag k="ssr:stedsnr" v="455580" />
	</node>
	<node lat="70.07584171202058" lon="29.750298545976054" id="-32315">
		<tag k="amenity" v="place_of_worship" />
		<tag k="denomination" v="lutheran" />
		<tag k="name" v="Vadsø  kirke" />
		<tag k="religion" v="christian" />
		<tag k="ssr:stedsnr" v="272844" />
	</node>
	<node lat="70.191833386849" lon="30.28372883146871" id="-32316">
		<tag k="alt_name:no" v="Berrelva" />
		<tag k="name" v="Bærelva - Pärijoki" />
		<tag k="name:fkv" v="Pärijoki" />
		<tag k="name:no" v="Bærelva" />
		<tag k="ssr:stedsnr" v="505567" />
		<tag k="waterway" v="stream" />
	</node>
	<node lat="70.2132167046537" lon="29.644273648844162" id="-32317">
		<tag k="name" v="Varitjávri" />
		<tag k="name:se" v="Varitjávri" />
		<tag k="natural" v="water" />
		<tag k="old_name:se" v="Varitjavri" />
		<tag k="ssr:stedsnr" v="505573" />
		<tag k="water" v="lake" />
	</node>
	<node lat="70.32090281477156" lon="29.330384959252957" id="-32318">
		<tag k="alt_name:se" v="Álljeveadji" />
		<tag k="name" v="Øvre Flintelva - Álljeveaijohka - Öystäjoki" />
		<tag k="name:fkv" v="Öystäjoki" />
		<tag k="name:no" v="Øvre Flintelva" />
		<tag k="name:se" v="Álljeveaijohka" />
		<tag k="old_name:no" v="Flintelva, øvre" />
		<tag k="old_name:se" v="Alljevæjjåkka;Alljevæddji;Álljaveaijohka" />
		<tag k="ssr:stedsnr" v="505579" />
		<tag k="waterway" v="river" />
	</node>
	<node lat="70.10765560397897" lon="29.80770685603846" id="-32319">
		<tag k="name" v="Byvannet" />
		<tag k="natural" v="water" />
		<tag k="ssr:stedsnr" v="505615" />
		<tag k="water" v="lake" />
	</node>
	<node lat="70.14535836999225" lon="29.31039602063915" id="-32320">
		<tag k="name" v="Kvilebakken" />
		<tag k="natural" v="slope" />
		<tag k="place" v="locality" />
		<tag k="ssr:stedsnr" v="505663" />
	</node>
	<node lat="70.29649726403954" lon="30.074115119059794" id="-32321">
		<tag k="name" v="Grythaugen - Stuorra Ruitu - Patatunturi" />
		<tag k="name:fkv" v="Patatunturi" />
		<tag k="name:no" v="Grythaugen" />
		<tag k="name:se" v="Stuorra Ruitu" />
		<tag k="natural" v="hill" />
		<tag k="old_name:se" v="Ruito, stuorra" />
		<tag k="place" v="locality" />
		<tag k="ssr:stedsnr" v="505910" />
	</node>
	<node lat="70.08918338141694" lon="29.597076404342538" id="-32322">
		<tag k="name" v="Andersbyneset" />
		<tag k="natural" v="cape" />
		<tag k="ssr:stedsnr" v="514182" />
	</node>
	<node lat="70.13398892654688" lon="29.302873784359644" id="-32323">
		<tag k="fixme" v="consider highway=path" />
		<tag k="highway" v="track" />
		<tag k="name" v="Solvarvegen" />
		<tag k="ssr:stedsnr" v="515113" />
	</node>
	<node lat="70.14957225398285" lon="29.220543278589656" id="-32324">
		<tag k="name" v="Keskitalonkuru" />
		<tag k="name:fkv" v="Keskitalonkuru" />
		<tag k="natural" v="valley" />
		<tag k="old_name:fkv" v="Keskintalokuru" />
		<tag k="place" v="locality" />
		<tag k="ssr:stedsnr" v="515013" />
	</node>
	<node lat="70.08692782229046" lon="29.806692966284512" id="-32325">
		<tag k="name" v="Pikkuberget" />
		<tag k="natural" v="hill" />
		<tag k="place" v="locality" />
		<tag k="ssr:stedsnr" v="515243" />
	</node>
	<node lat="70.08831116112334" lon="29.85981237893665" id="-32326">
		<tag k="alt_name" v="Gøngæsfossen" />
		<tag k="name" v="Hengebrofossen" />
		<tag k="natural" v="waterfall" />
		<tag k="ssr:stedsnr" v="515248" />
	</node>
	<node lat="70.08752782714035" lon="29.891856794010423" id="-32327">
		<tag k="name" v="Langsmedbekken" />
		<tag k="ssr:stedsnr" v="515251" />
		<tag k="waterway" v="stream" />
	</node>
	<node lat="70.09738893626353" lon="29.58640697414117" id="-32328">
		<tag k="name" v="Raet" />
		<tag k="natural" v="hill" />
		<tag k="place" v="locality" />
		<tag k="ssr:stedsnr" v="516013" />
	</node>
	<node lat="70.07728894448539" lon="29.946576202061713" id="-32330">
		<tag k="name" v="Karvosenpirtti" />
		<tag k="name:fkv" v="Karvosenpirtti" />
		<tag k="natural" v="hill" />
		<tag k="old_name:fkv" v="Garvosenpirtti" />
		<tag k="place" v="locality" />
		<tag k="ssr:stedsnr" v="516420" />
	</node>
	<node lat="70.12794727209403" lon="30.20877606523222" id="-32331">
		<tag k="name" v="Sikehøgda" />
		<tag k="natural" v="hill" />
		<tag k="place" v="locality" />
		<tag k="ssr:stedsnr" v="516513" />
	</node>
	<node lat="70.06936949932333" lon="30.16025106135928" id="-32332">
		<tag k="name" v="Kvalvikhaugen" />
		<tag k="natural" v="hill" />
		<tag k="place" v="locality" />
		<tag k="ssr:stedsnr" v="516529" />
	</node>
	<node lat="70.07211394836719" lon="30.122717755714643" id="-32333">
		<tag k="alt_name" v="Flågbakken" />
		<tag k="name" v="Flogbakken" />
		<tag k="natural" v="slope" />
		<tag k="place" v="locality" />
		<tag k="ssr:stedsnr" v="516537" />
	</node>
	<node lat="70.06245005340945" lon="29.90288734792829" id="-32334">
		<tag k="name" v="Sjåbushaugen" />
		<tag k="natural" v="hill" />
		<tag k="place" v="locality" />
		<tag k="ssr:stedsnr" v="516613" />
	</node>
	<node lat="70.14943061016844" lon="30.35385375989927" id="-32335">
		<tag k="name" v="Falkekeilavannet" />
		<tag k="natural" v="water" />
		<tag k="ssr:stedsnr" v="516683" />
	</node>
	<node lat="70.1885222559248" lon="29.24089882327272" id="-32336">
		<tag k="fixme" v="consider natural=peak for the most distinct mountains in the district" />
		<tag k="name" v="Aaltonen" />
		<tag k="name:fkv" v="Aaltonen" />
		<tag k="natural" v="hill" />
		<tag k="old_name:fkv" v="Aldonen" />
		<tag k="place" v="locality" />
		<tag k="ssr:stedsnr" v="686733" />
	</node>
	<node lat="70.220713937665" lon="30.23500943970344" id="-32337">
		<tag k="fixme" v="consider natural=peak for the most distinct mountains in the district" />
		<tag k="name" v="Holmfjellet - Suolovárri" />
		<tag k="name:no" v="Holmfjellet" />
		<tag k="name:se" v="Suolovárri" />
		<tag k="natural" v="hill" />
		<tag k="old_name:se" v="Suoluvarri" />
		<tag k="place" v="locality" />
		<tag k="ssr:stedsnr" v="687493" />
	</node>
	<node lat="70.21141671771171" lon="30.33524823552913" id="-32338">
		<tag k="name" v="Pramminjänkkä" />
		<tag k="name:fkv" v="Pramminjänkkä" />
		<tag k="natural" v="wetland" />
		<tag k="old_name:fkv" v="Braminjængæ" />
		<tag k="ssr:stedsnr" v="687496" />
	</node>
	<node lat="70.08005004608651" lon="29.702601347796932" id="-32339">
		<tag k="name" v="Vegsletta" />
		<tag k="place" v="locality" />
		<tag k="ssr:stedsnr" v="687525" />
	</node>
	<node lat="70.12970561020967" lon="30.257862152269876" id="-32340">
		<tag k="name" v="Lille-Urnesdalen" />
		<tag k="natural" v="valley" />
		<tag k="place" v="locality" />
		<tag k="ssr:stedsnr" v="687530" />
	</node>
	<node lat="70.11128616603108" lon="30.206195516139367" id="-32341">
		<tag k="alt_name" v="Sandbukt" />
		<tag k="name" v="Sandbukta" />
		<tag k="natural" v="bay" />
		<tag k="ssr:stedsnr" v="687540" />
	</node>
	<node lat="70.14350560626524" lon="30.211934394167482" id="-32342">
		<tag k="name" v="Skallnesvannet" />
		<tag k="natural" v="water" />
		<tag k="ssr:stedsnr" v="687547" />
		<tag k="water" v="lake" />
	</node>
	<node lat="70.13974172688891" lon="30.349034320948352" id="-32343">
		<tag k="name" v="Skallnes" />
		<tag k="natural" v="cape" />
		<tag k="old_name" v="Skallneset" />
		<tag k="ssr:stedsnr" v="687549" />
	</node>
	<node lat="70.1200944973083" lon="30.10654834753621" id="-32344">
		<tag k="name" v="Storskog" />
		<tag k="place" v="locality" />
		<tag k="ssr:stedsnr" v="687556" />
	</node>
	<node lat="70.17751672313662" lon="30.15454834046419" id="-32345">
		<tag k="name" v="Falkorelva" />
		<tag k="ssr:stedsnr" v="687559" />
		<tag k="waterway" v="river" />
	</node>
	<node lat="70.16068616972395" lon="30.347323218059856" id="-32346">
		<tag k="fixme" v="consider seamark:type=rock or natural=shoal" />
		<tag k="name" v="Jarkoskjæret" />
		<tag k="place" v="islet" />
		<tag k="ssr:stedsnr" v="687565" />
	</node>
	<node lat="70.14951116336817" lon="30.21212052427092" id="-32347">
		<tag k="name" v="Multebærvannet" />
		<tag k="natural" v="water" />
		<tag k="ssr:stedsnr" v="687568" />
	</node>
	<node lat="70.20707783750082" lon="30.45774539043609" id="-32348">
		<tag k="barrier" v="fence" />
		<tag k="name" v="Steingjerde - Kiviaita" />
		<tag k="name:fkv" v="Kiviaita" />
		<tag k="name:no" v="Steingjerde" />
		<tag k="old_name:fkv" v="Giviaida" />
		<tag k="ssr:stedsnr" v="687572" />
	</node>
	<node lat="70.20040005282947" lon="30.3815621021778" id="-32349">
		<tag k="name" v="Sollnes - Sulaniemi" />
		<tag k="name:fkv" v="Sulaniemi" />
		<tag k="name:no" v="Sollnes" />
		<tag k="natural" v="cape" />
		<tag k="ssr:stedsnr" v="687579" />
	</node>
	<node lat="70.19667505016739" lon="30.413598195650376" id="-32350">
		<tag k="fixme" v="consider seamark:type=rock or natural=shoal" />
		<tag k="name" v="Kobbeskjæret" />
		<tag k="place" v="islet" />
		<tag k="ssr:stedsnr" v="687581" />
	</node>
	<node lat="70.2840472583284" lon="29.2663377475846" id="-32351">
		<tag k="name" v="Teodorvannet - Joddojávri" />
		<tag k="name:no" v="Teodorvannet" />
		<tag k="name:se" v="Joddojávri" />
		<tag k="natural" v="water" />
		<tag k="old_name:se" v="Jåddujavri" />
		<tag k="ssr:stedsnr" v="687986" />
	</node>
	<node lat="70.47489447304734" lon="29.224129490548556" id="-32352">
		<tag k="name" v="Oarddojávri - Ortojärvi" />
		<tag k="name:fkv" v="Ortojärvi" />
		<tag k="name:se" v="Oarddojávri" />
		<tag k="natural" v="water" />
		<tag k="old_name:se" v="Oardujavri" />
		<tag k="ssr:stedsnr" v="687952" />
		<tag k="water" v="lake" />
	</node>
	<node lat="70.11352782400729" lon="29.673081932781482" id="-32353">
		<tag k="name" v="Silstadhaugen" />
		<tag k="natural" v="hill" />
		<tag k="place" v="locality" />
		<tag k="ssr:stedsnr" v="688612" />
	</node>
	<node lat="70.14063060056202" lon="29.69967913931594" id="-32354">
		<tag k="name" v="Doappalávži" />
		<tag k="name:se" v="Doappalávži" />
		<tag k="natural" v="valley" />
		<tag k="old_name:se" v="Doabbalavži" />
		<tag k="place" v="locality" />
		<tag k="ssr:stedsnr" v="688625" />
	</node>
	<node lat="70.07103893304081" lon="29.75029853090737" id="-32355">
		<tag k="name" v="Ørtangen" />
		<tag k="natural" v="cape" />
		<tag k="ssr:stedsnr" v="565506" />
	</node>
	<node lat="70.16016670576755" lon="29.364176544312613" id="-32356">
		<tag k="name" v="Sauevannet" />
		<tag k="natural" v="water" />
		<tag k="ssr:stedsnr" v="565733" />
	</node>
	<node lat="70.11263059979072" lon="29.645590270917072" id="-32357">
		<tag k="name" v="Tomaselvdalen" />
		<tag k="natural" v="valley" />
		<tag k="old_name" v="Thomaselvdalen" />
		<tag k="place" v="locality" />
		<tag k="ssr:stedsnr" v="566613" />
	</node>
	<node lat="70.18922505291762" lon="30.33423433854924" id="-32358">
		<tag k="fixme" v="consider place=hamlet" />
		<tag k="name" v="Skallelv - Gállojohka - Kallijoki" />
		<tag k="name:fkv" v="Kallijoki" />
		<tag k="name:no" v="Skallelv" />
		<tag k="name:se" v="Gállojohka" />
		<tag k="place" v="village" />
		<tag k="ssr:stedsnr" v="566559" />
	</node>
	<node lat="70.20855281770417" lon="29.614390319762645" id="-32359">
		<tag k="fixme" v="consider natural=peak for the most distinct mountains in the district" />
		<tag k="name" v="Varitčielgi" />
		<tag k="name:se" v="Varitčielgi" />
		<tag k="natural" v="hill" />
		<tag k="place" v="locality" />
		<tag k="ssr:stedsnr" v="566563" />
	</node>
	<node lat="70.22215559123495" lon="29.433748749711718" id="-32360">
		<tag k="name" v="Devddorjohskáidi" />
		<tag k="name:se" v="Devddorjohskáidi" />
		<tag k="natural" v="cape" />
		<tag k="old_name:se" v="Devdurjåkskaidi" />
		<tag k="ssr:stedsnr" v="566566" />
	</node>
	<node lat="70.17323892843493" lon="29.213112739222296" id="-32361">
		<tag k="name" v="Lavdnjelutta" />
		<tag k="name:se" v="Lavdnjelutta" />
		<tag k="natural" v="wetland" />
		<tag k="ssr:stedsnr" v="573099" />
	</node>
	<node lat="70.15100283076364" lon="29.993490101808174" id="-32362">
		<tag k="name" v="Steinvannet" />
		<tag k="natural" v="water" />
		<tag k="ssr:stedsnr" v="574912" />
	</node>
	<node lat="70.09812226428981" lon="29.621031945205683" id="-32363">
		<tag k="name" v="Bergelvmyra" />
		<tag k="natural" v="wetland" />
		<tag k="ssr:stedsnr" v="576011" />
	</node>
	<node lat="70.11059449545023" lon="29.886904024754976" id="-32364">
		<tag k="name" v="Kolmikantajärvi" />
		<tag k="name:fkv" v="Kolmikantajärvi" />
		<tag k="natural" v="water" />
		<tag k="ssr:stedsnr" v="576302" />
	</node>
	<node lat="70.10472226704859" lon="29.825837392926193" id="-32365">
		<tag k="name" v="Djevelhaugen" />
		<tag k="natural" v="hill" />
		<tag k="place" v="locality" />
		<tag k="ssr:stedsnr" v="576310" />
	</node>
	<node lat="70.07865004497673" lon="29.719270776507972" id="-32366">
		<tag k="junction" v="yes" />
		<tag k="name" v="Deinbolls plass" />
		<tag k="place" v="locality" />
		<tag k="ssr:stedsnr" v="576047" />
	</node>
	<node lat="70.08910560206238" lon="29.787476309285896" id="-32367">
		<tag k="name" v="Sanddalen" />
		<tag k="natural" v="valley" />
		<tag k="place" v="locality" />
		<tag k="ssr:stedsnr" v="576204" />
	</node>
	<node lat="70.08461949585696" lon="29.817623510868955" id="-32368">
		<tag k="name" v="Vyörykänniemi" />
		<tag k="name:fkv" v="Vyörykänniemi" />
		<tag k="natural" v="cape" />
		<tag k="ssr:stedsnr" v="576215" />
	</node>
	<node lat="70.11008893609954" lon="29.92469011518364" id="-32369">
		<tag k="name" v="Bekolaslåtta" />
		<tag k="place" v="locality" />
		<tag k="ssr:stedsnr" v="576296" />
	</node>
	<node lat="70.07610005581184" lon="29.98459839612374" id="-32370">
		<tag k="name" v="Välipäri" />
		<tag k="name:fkv" v="Välipäri" />
		<tag k="natural" v="hill" />
		<tag k="place" v="locality" />
		<tag k="ssr:stedsnr" v="576613" />
	</node>
	<node lat="70.12183894677848" lon="30.23782883558872" id="-32371">
		<tag k="name" v="Flåget" />
		<tag k="natural" v="hill" />
		<tag k="place" v="locality" />
		<tag k="ssr:stedsnr" v="576748" />
	</node>
	<node lat="70.13063338985744" lon="30.28967323785047" id="-32372">
		<tag k="name" v="Urneselva" />
		<tag k="ssr:stedsnr" v="695882" />
		<tag k="waterway" v="river" />
	</node>
	<node lat="70.12790004993876" lon="30.2446316062852" id="-32373">
		<tag k="name" v="Falkelvdalen" />
		<tag k="natural" v="valley" />
		<tag k="place" v="locality" />
		<tag k="ssr:stedsnr" v="695884" />
	</node>
	<node lat="70.15816392248281" lon="29.288582137766085" id="-32374">
		<tag k="name" v="Humpinlampi" />
		<tag k="name:fkv" v="Humpinlampi" />
		<tag k="natural" v="water" />
		<tag k="old_name:fkv" v="Hyvibilempi" />
		<tag k="ssr:stedsnr" v="697017" />
	</node>
	<node lat="70.1340000382555" lon="29.30825712701461" id="-32375">
		<tag k="name" v="Feriehjem" />
		<tag k="place" v="isolated_dwelling" />
		<tag k="ssr:stedsnr" v="697094" />
	</node>
	<node lat="70.13691948326908" lon="29.31919044608396" id="-32376">
		<tag k="name" v="Fossenakken" />
		<tag k="natural" v="hill" />
		<tag k="place" v="locality" />
		<tag k="ssr:stedsnr" v="697122" />
	</node>
	<node lat="70.13496948006045" lon="29.328365434696096" id="-32377">
		<tag k="fixme" v="consider highway=path" />
		<tag k="highway" v="track" />
		<tag k="name" v="Jordbruksveg" />
		<tag k="ssr:stedsnr" v="697098" />
	</node>
	<node lat="70.12449170897986" lon="29.320543222814806" id="-32378">
		<tag k="name" v="Esbensenkulpen" />
		<tag k="place" v="locality" />
		<tag k="ssr:stedsnr" v="697100" />
	</node>
	<node lat="70.13750558901653" lon="29.217665500365413" id="-32379">
		<tag k="name" v="Puurijärvi" />
		<tag k="name:fkv" v="Puurijärvi" />
		<tag k="natural" v="water" />
		<tag k="old_name:fkv" v="Bårrejärvi" />
		<tag k="ssr:stedsnr" v="697127" />
	</node>
	<node lat="70.11343060694936" lon="30.090915009789548" id="-32380">
		<tag k="name" v="Tverrelva" />
		<tag k="ssr:stedsnr" v="698474" />
		<tag k="waterway" v="stream" />
	</node>
	<node lat="70.08481116271467" lon="29.73101243817128" id="-32381">
		<tag k="name" v="Prestelv nord" />
		<tag k="place" v="quarter" />
		<tag k="ssr:stedsnr" v="698194" />
	</node>
	<node lat="70.06736671785262" lon="29.858481812601212" id="-32382">
		<tag k="name" v="Ingersbergan" />
		<tag k="natural" v="hill" />
		<tag k="place" v="locality" />
		<tag k="ssr:stedsnr" v="698240" />
	</node>
	<node lat="70.0944167122481" lon="29.516059791193133" id="-32383">
		<tag k="name" v="Sandskjærneset" />
		<tag k="natural" v="cape" />
		<tag k="ssr:stedsnr" v="698080" />
	</node>
	<node lat="70.09427782038249" lon="29.51888756980582" id="-32384">
		<tag k="name" v="Sandskjærbukta" />
		<tag k="natural" v="bay" />
		<tag k="ssr:stedsnr" v="698082" />
	</node>
	<node lat="70.09328893390425" lon="29.542520870108806" id="-32385">
		<tag k="name" v="Makkeleira" />
		<tag k="natural" v="bay" />
		<tag k="ssr:stedsnr" v="698085" />
	</node>
	<node lat="70.06994448737795" lon="29.733995763859248" id="-32386">
		<tag k="building" v="commercial" />
		<tag k="name" v="Industriutleiebygget" />
		<tag k="ssr:stedsnr" v="698296" />
	</node>
	<node lat="70.11840005213276" lon="30.20539827333266" id="-32387">
		<tag k="name" v="Siket" />
		<tag k="natural" v="wetland" />
		<tag k="ssr:stedsnr" v="698495" />
	</node>
	<node lat="70.07369727243284" lon="30.039809482591767" id="-32388">
		<tag k="name" v="Saukkokallio" />
		<tag k="name:fkv" v="Saukkokallio" />
		<tag k="natural" v="cape" />
		<tag k="ssr:stedsnr" v="698574" />
	</node>
	<node lat="70.07040282735748" lon="30.001328936481848" id="-32389">
		<tag k="name" v="Lille Salttjern - Pikkujärvi" />
		<tag k="name:fkv" v="Pikkujärvi" />
		<tag k="name:no" v="Lille Salttjern" />
		<tag k="place" v="hamlet" />
		<tag k="ssr:stedsnr" v="698576" />
	</node>
	<node lat="70.20602227456651" lon="30.372067663661067" id="-32390">
		<tag k="name" v="Ulkoranta" />
		<tag k="name:fkv" v="Ulkoranta" />
		<tag k="place" v="locality" />
		<tag k="ssr:stedsnr" v="698646" />
	</node>
	<node lat="70.20322783394573" lon="30.355928781913875" id="-32391">
		<tag k="alt_name" v="Ulkoranta-vegen" />
		<tag k="fixme" v="consider highway=path" />
		<tag k="highway" v="track" />
		<tag k="name" v="Tavijoki-vegen" />
		<tag k="ssr:stedsnr" v="698648" />
	</node>
	<node lat="70.1373833878371" lon="30.3397009948048" id="-32392">
		<tag k="name" v="Lohikallio" />
		<tag k="name:fkv" v="Lohikallio" />
		<tag k="natural" v="hill" />
		<tag k="place" v="locality" />
		<tag k="ssr:stedsnr" v="698691" />
	</node>
	<node lat="70.07280560824931" lon="29.976045639846244" id="-32393">
		<tag k="name" v="Takanjänkänpäri" />
		<tag k="name:fkv" v="Takanjänkänpäri" />
		<tag k="natural" v="hill" />
		<tag k="place" v="locality" />
		<tag k="ssr:stedsnr" v="698585" />
	</node>
	<node lat="70.09997226163132" lon="29.514045895770504" id="-32394">
		<tag k="name" v="Karelinkuru" />
		<tag k="name:fkv" v="Karelinkuru" />
		<tag k="natural" v="valley" />
		<tag k="place" v="locality" />
		<tag k="ssr:stedsnr" v="698987" />
	</node>
	<node lat="70.24191392422088" lon="29.287740489267613" id="-32395">
		<tag k="fixme" v="consider natural=peak for the most distinct mountains in the district" />
		<tag k="name" v="Skjøthaugen - Vuolit Goaivebeaski" />
		<tag k="name:no" v="Skjøthaugen" />
		<tag k="name:se" v="Vuolit Goaivebeaski" />
		<tag k="natural" v="hill" />
		<tag k="old_name:se" v="Goaivebæski, vuolit" />
		<tag k="place" v="locality" />
		<tag k="ssr:stedsnr" v="625707" />
	</node>
	<node lat="70.1158972770313" lon="30.125173346964274" id="-32396">
		<tag k="alt_name" v="Richardsletta" />
		<tag k="name" v="Rikardsletta" />
		<tag k="place" v="locality" />
		<tag k="ssr:stedsnr" v="626556" />
	</node>
	<node lat="70.11715561039989" lon="30.14823165402112" id="-32397">
		<tag k="alt_name" v="Richardslettvatnet" />
		<tag k="name" v="Rikardslettvatnet" />
		<tag k="natural" v="water" />
		<tag k="ssr:stedsnr" v="626560" />
	</node>
	<node lat="70.18344448022447" lon="29.53084869575154" id="-32398">
		<tag k="fixme" v="consider natural=peak for the most distinct mountains in the district" />
		<tag k="name" v="Gunnesaioaivi" />
		<tag k="name:se" v="Gunnesaioaivi" />
		<tag k="natural" v="hill" />
		<tag k="old_name:se" v="Gunnesajoaivi" />
		<tag k="place" v="locality" />
		<tag k="ssr:stedsnr" v="626597" />
	</node>
	<node lat="70.2026806005504" lon="29.561012572449652" id="-32399">
		<tag k="name" v="Vargelva" />
		<tag k="ssr:stedsnr" v="626600" />
		<tag k="waterway" v="river" />
	</node>
	<node lat="70.26405281817047" lon="29.683248656526494" id="-32400">
		<tag k="name" v="Kompásjeaggi" />
		<tag k="name:se" v="Kompásjeaggi" />
		<tag k="natural" v="wetland" />
		<tag k="old_name:se" v="Kompasjæggi" />
		<tag k="ssr:stedsnr" v="626904" />
	</node>
	<node lat="70.09476115613799" lon="29.621373605056725" id="-32401">
		<tag k="fixme" v="consider highway=path" />
		<tag k="highway" v="track" />
		<tag k="name" v="Elvedalsvegen" />
		<tag k="ssr:stedsnr" v="636009" />
	</node>
	<node lat="70.10858893764758" lon="29.6969707966439" id="-32402">
		<tag k="name" v="Tvillingan" />
		<tag k="natural" v="hill" />
		<tag k="place" v="locality" />
		<tag k="ssr:stedsnr" v="636032" />
	</node>
	<node lat="70.09238615950538" lon="29.53406254218347" id="-32403">
		<tag k="fixme" v="verify maritime location" />
		<tag k="mooring" v="yes" />
		<tag k="name" v="Båtstø" />
		<tag k="place" v="locality" />
		<tag k="ssr:stedsnr" v="636115" />
	</node>
	<node lat="70.08419171227266" lon="29.749481872915958" id="-32404">
		<tag k="leisure" v="park" />
		<tag k="name" v="Parken" />
		<tag k="ssr:stedsnr" v="636227" />
	</node>
	<node lat="70.07499172052819" lon="30.02436505897696" id="-32405">
		<tag k="highway" v="path" />
		<tag k="name" v="Sisäpääntie" />
		<tag k="name:fkv" v="Sisäpääntie" />
		<tag k="ssr:stedsnr" v="636405" />
	</node>
	<node lat="70.13663338813046" lon="30.319223221800538" id="-32406">
		<tag k="name" v="Skallnesbergan" />
		<tag k="natural" v="hill" />
		<tag k="place" v="locality" />
		<tag k="ssr:stedsnr" v="637714" />
	</node>
	<node lat="70.11468339027206" lon="30.19345663263293" id="-32407">
		<tag k="name" v="Lillesiket" />
		<tag k="natural" v="wetland" />
		<tag k="ssr:stedsnr" v="637726" />
	</node>
	<node lat="70.1825278275663" lon="30.21805387294812" id="-32408">
		<tag k="name" v="Storsteinen" />
		<tag k="natural" v="stone" />
		<tag k="ssr:stedsnr" v="637734" />
	</node>
	<node lat="70.18658336545552" lon="29.271496044270215" id="-32411">
		<tag k="alt_name:no" v="Multebærbekken" />
		<tag k="name" v="Moltebærbekken - Hillaoja" />
		<tag k="name:fkv" v="Hillaoja" />
		<tag k="name:no" v="Moltebærbekken" />
		<tag k="ssr:stedsnr" v="686739" />
		<tag k="waterway" v="stream" />
	</node>
	<node lat="70.21278894506648" lon="30.347439907727235" id="-32412">
		<tag k="fixme" v="multiple name tags, choose one and add the other to alt_name" />
		<tag k="name" v="Lille-Tavijoki;Lille Davvejohka - Praminjänkäoja" />
		<tag k="name:fkv" v="Praminjänkäoja" />
		<tag k="name:no" v="Lille-Tavijoki;Lille Davvejohka" />
		<tag k="old_name:no" v="Davvejåkka, l" />
		<tag k="ssr:stedsnr" v="687504" />
		<tag k="waterway" v="stream" />
	</node>
	<node lat="70.1234278172146" lon="29.305709893573276" id="-32413">
		<tag k="loc_name:se" v="Stuoraluohkká" />
		<tag k="name" v="Storbakken" />
		<tag k="name:no" v="Storbakken" />
		<tag k="natural" v="slope" />
		<tag k="place" v="locality" />
		<tag k="ssr:stedsnr" v="687639" />
	</node>
	<node lat="70.09342782761806" lon="30.11741500123981" id="-32414">
		<tag k="alt_name" v="Litleelvneset" />
		<tag k="name" v="Lilleelvneset" />
		<tag k="natural" v="cape" />
		<tag k="ssr:stedsnr" v="687536" />
	</node>
	<node lat="70.39657780817676" lon="29.13229339040917" id="-32415">
		<tag k="fixme" v="consider natural=peak for the most distinct mountains in the district" />
		<tag k="name" v="Šáikkastanoaivi" />
		<tag k="name:se" v="Šáikkastanoaivi" />
		<tag k="natural" v="hill" />
		<tag k="old_name:se" v="Šaikastanoaivi" />
		<tag k="place" v="locality" />
		<tag k="ssr:stedsnr" v="687933" />
	</node>
	<node lat="70.09645838264885" lon="29.820073497129435" id="-32416">
		<tag k="fixme" v="consider natural=peak for the most distinct mountains in the district" />
		<tag k="name" v="Torsvarden - Doaresvárri" />
		<tag k="name:no" v="Torsvarden" />
		<tag k="name:se" v="Doaresvárri" />
		<tag k="natural" v="hill" />
		<tag k="old_name:se" v="Doaresvarri" />
		<tag k="place" v="locality" />
		<tag k="ssr:stedsnr" v="688606" />
	</node>
	<node lat="70.11330837823631" lon="29.879976268610037" id="-32417">
		<tag k="name" v="Kolmikanta" />
		<tag k="name:fkv" v="Kolmikanta" />
		<tag k="natural" v="slope" />
		<tag k="place" v="locality" />
		<tag k="ssr:stedsnr" v="698278" />
	</node>
	<node lat="70.07241116285816" lon="29.96251509736806" id="-32418">
		<tag k="name" v="Lillemyra" />
		<tag k="natural" v="wetland" />
		<tag k="ssr:stedsnr" v="698403" />
	</node>
	<node lat="70.07125283335685" lon="29.968428962607366" id="-32419">
		<tag k="name" v="Jänespäri" />
		<tag k="name:fkv" v="Jänespäri" />
		<tag k="natural" v="hill" />
		<tag k="place" v="locality" />
		<tag k="ssr:stedsnr" v="698404" />
	</node>
	<node lat="70.08998060828542" lon="29.958517873982625" id="-32420">
		<tag k="name" v="Monsta" />
		<tag k="natural" v="ridge" />
		<tag k="place" v="locality" />
		<tag k="ssr:stedsnr" v="698410" />
	</node>
	<node lat="70.08551116145709" lon="30.01957893713218" id="-32421">
		<tag k="highway" v="path" />
		<tag k="name" v="Myllärintie" />
		<tag k="name:fkv" v="Myllärintie" />
		<tag k="ssr:stedsnr" v="698371" />
	</node>
	<node lat="70.07538060817045" lon="29.92387899400022" id="-32422">
		<tag k="name" v="Pikku-Louhikko" />
		<tag k="name:fkv" v="Pikku-Louhikko" />
		<tag k="natural" v="scree" />
		<tag k="ssr:stedsnr" v="698372" />
	</node>
	<node lat="70.11125283121822" lon="30.15809277245575" id="-32423">
		<tag k="name" v="Fossen" />
		<tag k="place" v="isolated_dwelling" />
		<tag k="ssr:stedsnr" v="698721" />
	</node>
	<node lat="70.10538061136323" lon="30.16376220073718" id="-32424">
		<tag k="name" v="Sollnes" />
		<tag k="natural" v="cape" />
		<tag k="ssr:stedsnr" v="698727" />
	</node>
	<node lat="70.1025000564589" lon="30.18886495647511" id="-32425">
		<tag k="name" v="Stikkfiskdammen" />
		<tag k="natural" v="water" />
		<tag k="ssr:stedsnr" v="698728" />
	</node>
	<node lat="70.08346948804525" lon="29.683073566318612" id="-32426">
		<tag k="name" v="Stykket" />
		<tag k="place" v="isolated_dwelling" />
		<tag k="ssr:stedsnr" v="716982" />
	</node>
	<node lat="70.06682226638559" lon="29.746673524714364" id="-32427">
		<tag k="name" v="Vadsøya" />
		<tag k="place" v="island" />
		<tag k="ssr:stedsnr" v="747516" />
	</node>
	<node lat="70.11591670482132" lon="29.396623742487495" id="-32428">
		<tag k="fixme" v="consider natural=peak for the most distinct mountains in the district" />
		<tag k="name" v="Čuđđevárri" />
		<tag k="name:se" v="Čuđđevárri" />
		<tag k="natural" v="hill" />
		<tag k="old_name:se" v="Čuđđevarri" />
		<tag k="place" v="locality" />
		<tag k="ssr:stedsnr" v="747665" />
	</node>
	<node lat="70.16255559486967" lon="29.36829875428779" id="-32429">
		<tag k="name" v="Bikkájávri" />
		<tag k="name:se" v="Bikkájávri" />
		<tag k="natural" v="water" />
		<tag k="old_name:se" v="Biggajavri" />
		<tag k="ssr:stedsnr" v="747714" />
	</node>
	<node lat="70.20213893777839" lon="30.299992710941073" id="-32430">
		<tag k="name" v="Maanlaita" />
		<tag k="name:fkv" v="Maanlaita" />
		<tag k="old_name:fkv" v="Malaida" />
		<tag k="place" v="locality" />
		<tag k="ssr:stedsnr" v="748517" />
	</node>
	<node lat="70.21718616070555" lon="30.36709823290007" id="-32431">
		<tag k="name" v="Store Davvejohka - Davvejohka - Tavijoki" />
		<tag k="name:fkv" v="Tavijoki" />
		<tag k="name:no" v="Store Davvejohka" />
		<tag k="name:se" v="Davvejohka" />
		<tag k="old_name:no" v="Davvejåkka, store" />
		<tag k="ssr:stedsnr" v="748518" />
		<tag k="waterway" v="stream" />
	</node>
	<node lat="70.06248894007437" lon="29.856673479908732" id="-32432">
		<tag k="fixme" v="consider place=suburb, village or hamlet" />
		<tag k="name" v="Kiby" />
		<tag k="place" v="quarter" />
		<tag k="ssr:stedsnr" v="748524" />
	</node>
	<node lat="70.18920560870612" lon="30.357195454707945" id="-32433">
		<tag k="name" v="Makkenes - Matoniemi" />
		<tag k="name:fkv" v="Matoniemi" />
		<tag k="name:no" v="Makkenes" />
		<tag k="natural" v="cape" />
		<tag k="old_name:fkv" v="Madåniemi" />
		<tag k="ssr:stedsnr" v="748565" />
	</node>
	<node lat="70.14421393878978" lon="30.14757610251493" id="-32434">
		<tag k="name" v="Trettenvannan" />
		<tag k="natural" v="water" />
		<tag k="ssr:stedsnr" v="748570" />
		<tag k="water" v="lake" />
	</node>
	<node lat="70.20473893952662" lon="30.37990100279064" id="-32435">
		<tag k="name" v="Falkemyra - Juntinjänkä" />
		<tag k="name:fkv" v="Juntinjänkä" />
		<tag k="name:no" v="Falkemyra" />
		<tag k="natural" v="wetland" />
		<tag k="ssr:stedsnr" v="748574" />
	</node>
	<node lat="70.18265282455026" lon="30.046356740295643" id="-32436">
		<tag k="name" v="Hellestøkulpen" />
		<tag k="natural" v="water" />
		<tag k="ssr:stedsnr" v="748576" />
	</node>
	<node lat="70.1990389294596" lon="29.676756966451336" id="-32437">
		<tag k="name" v="Gåstjerna" />
		<tag k="natural" v="water" />
		<tag k="ssr:stedsnr" v="748580" />
	</node>
	<node lat="70.18185005289442" lon="30.165770554471383" id="-32438">
		<tag k="name" v="Falkorfossen" />
		<tag k="natural" v="waterfall" />
		<tag k="ssr:stedsnr" v="756913" />
	</node>
	<node lat="70.09770559726334" lon="29.667395804096948" id="-32439">
		<tag k="name" v="Rødekorshytta" />
		<tag k="place" v="isolated_dwelling" />
		<tag k="ssr:stedsnr" v="758004" />
	</node>
	<node lat="70.10248893474338" lon="29.556795890361602" id="-32440">
		<tag k="name" v="Legdemyra" />
		<tag k="natural" v="wetland" />
		<tag k="ssr:stedsnr" v="758020" />
	</node>
	<node lat="70.17506670569166" lon="29.231740488901213" id="-32441">
		<tag k="name" v="Hillaoja" />
		<tag k="name:fkv" v="Hillaoja" />
		<tag k="ssr:stedsnr" v="758046" />
		<tag k="waterway" v="stream" />
	</node>
	<node lat="70.12917781490032" lon="29.31755987773947" id="-32442">
		<tag k="name" v="Båtkulpen" />
		<tag k="place" v="locality" />
		<tag k="ssr:stedsnr" v="758101" />
	</node>
	<node lat="70.08011115948423" lon="30.012578941557994" id="-32443">
		<tag k="name" v="Leenankivi" />
		<tag k="name:fkv" v="Leenankivi" />
		<tag k="natural" v="stone" />
		<tag k="ssr:stedsnr" v="758449" />
	</node>
	<node lat="70.07299171831771" lon="29.858598473695363" id="-32444">
		<tag k="name" v="Øvre Ingersbergan" />
		<tag k="natural" v="hill" />
		<tag k="place" v="locality" />
		<tag k="ssr:stedsnr" v="758313" />
	</node>
	<node lat="70.1067361555537" lon="29.817704071838623" id="-32445">
		<tag k="name" v="Lille Torsvarden" />
		<tag k="natural" v="hill" />
		<tag k="place" v="locality" />
		<tag k="ssr:stedsnr" v="758326" />
	</node>
	<node lat="70.12193061334327" lon="30.261484363459545" id="-32446">
		<tag k="name" v="Prekestolen" />
		<tag k="natural" v="hill" />
		<tag k="place" v="locality" />
		<tag k="ssr:stedsnr" v="758728" />
	</node>
	<node lat="70.11890005636845" lon="30.238053818163774" id="-32447">
		<tag k="name" v="Jamtesanden" />
		<tag k="natural" v="beach" />
		<tag k="ssr:stedsnr" v="758730" />
	</node>
	<node lat="70.11683616611106" lon="30.159051097897493" id="-32448">
		<tag k="highway" v="path" />
		<tag k="name" v="Storskogvegen" />
		<tag k="ssr:stedsnr" v="758758" />
	</node>
	<node lat="70.07980005382578" lon="30.058790037334457" id="-32449">
		<tag k="name" v="Reinfarsletta" />
		<tag k="place" v="locality" />
		<tag k="ssr:stedsnr" v="758617" />
	</node>
	<node lat="70.08034171206859" lon="29.904051230716316" id="-32450">
		<tag k="fixme" v="multiple name tags, choose one and add the other to alt_name" />
		<tag k="name" v="Akslavannet;Øvre Akslavannet" />
		<tag k="natural" v="water" />
		<tag k="ssr:stedsnr" v="808515" />
	</node>
	<node lat="70.1096194968653" lon="30.038251165369577" id="-32451">
		<tag k="name" v="Storelva - Idjajohka" />
		<tag k="name:no" v="Storelva" />
		<tag k="name:se" v="Idjajohka" />
		<tag k="old_name:se" v="Iddjajåkka" />
		<tag k="ssr:stedsnr" v="808448" />
		<tag k="waterway" v="river" />
	</node>
	<node lat="70.06868894130932" lon="29.85934848245514" id="-32452">
		<tag k="name" v="Ingersvannet" />
		<tag k="natural" v="water" />
		<tag k="ssr:stedsnr" v="808495" />
	</node>
	<node lat="70.11705003671439" lon="29.2955765736699" id="-32453">
		<tag k="alt_name:no" v="Skitenelva;Skitnelv" />
		<tag k="name" v="Skittenelv - Baikajohka" />
		<tag k="name:no" v="Skittenelv" />
		<tag k="name:se" v="Baikajohka" />
		<tag k="place" v="hamlet" />
		<tag k="ssr:stedsnr" v="808638" />
	</node>
	<node lat="70.21965559017318" lon="29.473265402917626" id="-32454">
		<tag k="fixme" v="consider natural=peak for the most distinct mountains in the district" />
		<tag k="name" v="Fárppaloaivi" />
		<tag k="name:se" v="Fárppaloaivi" />
		<tag k="natural" v="hill" />
		<tag k="old_name:se" v="Farpaloaivi" />
		<tag k="place" v="locality" />
		<tag k="ssr:stedsnr" v="809598" />
	</node>
	<node lat="70.09777782041017" lon="29.67151524726" id="-32455">
		<tag k="name" v="Basis A-bakken" />
		<tag k="natural" v="slope" />
		<tag k="place" v="locality" />
		<tag k="ssr:stedsnr" v="819003" />
	</node>
	<node lat="70.09776393967259" lon="29.751676327679284" id="-32456">
		<tag k="highway" v="path" />
		<tag k="name" v="Sommervegen" />
		<tag k="ssr:stedsnr" v="819224" />
	</node>
	<node lat="70.0807583850441" lon="29.876934597321775" id="-32457">
		<tag k="fixme" v="consider natural=peak for the most distinct mountains in the district" />
		<tag k="name" v="Indre Aksla" />
		<tag k="natural" v="hill" />
		<tag k="place" v="locality" />
		<tag k="ssr:stedsnr" v="819250" />
	</node>
	<node lat="70.06606949115448" lon="29.760656862986693" id="-32458">
		<tag k="name" v="Travbane" />
		<tag k="place" v="locality" />
		<tag k="ssr:stedsnr" v="819368" />
	</node>
	<node lat="70.11601949649875" lon="30.074078920196687" id="-32459">
		<tag k="name" v="Majomyra" />
		<tag k="natural" v="wetland" />
		<tag k="ssr:stedsnr" v="819526" />
	</node>
	<node lat="70.10640005424385" lon="30.122134456715997" id="-32460">
		<tag k="name" v="Siribakkelva" />
		<tag k="ssr:stedsnr" v="819529" />
		<tag k="waterway" v="stream" />
	</node>
	<node lat="70.07531116467956" lon="30.042467804748828" id="-32461">
		<tag k="name" v="Golneshalsen" />
		<tag k="natural" v="hill" />
		<tag k="place" v="locality" />
		<tag k="ssr:stedsnr" v="819608" />
	</node>
	<node lat="70.06663616361058" lon="29.972976184274447" id="-32462">
		<tag k="name" v="Pitkäkallionnokka" />
		<tag k="name:fkv" v="Pitkäkallionnokka" />
		<tag k="natural" v="cape" />
		<tag k="ssr:stedsnr" v="819624" />
	</node>
	<node lat="70.0704861642678" lon="30.123892771318122" id="-32463">
		<tag k="alt_name" v="Flågan" />
		<tag k="name" v="Flogan" />
		<tag k="natural" v="cliff" />
		<tag k="ssr:stedsnr" v="819569" />
	</node>
	<node lat="70.11297504131542" lon="29.358779320347033" id="-32464">
		<tag k="name" v="Sudimyra - Čuđđejeaggi - Lauriniemenjänkkä" />
		<tag k="name:fkv" v="Lauriniemenjänkkä" />
		<tag k="name:no" v="Sudimyra" />
		<tag k="name:se" v="Čuđđejeaggi" />
		<tag k="natural" v="wetland" />
		<tag k="old_name:se" v="Čuđđejæggi" />
		<tag k="ssr:stedsnr" v="929652" />
	</node>
	<node lat="70.08537504328038" lon="29.755379088744526" id="-32465">
		<tag k="alt_name" v="Glasberget" />
		<tag k="name" v="Glassberget" />
		<tag k="natural" v="hill" />
		<tag k="place" v="locality" />
		<tag k="ssr:stedsnr" v="870527" />
	</node>
	<node lat="70.09246115769135" lon="29.759879106289542" id="-32466">
		<tag k="fixme" v="consider natural=peak for the most distinct mountains in the district" />
		<tag k="name" v="Basis B" />
		<tag k="natural" v="hill" />
		<tag k="place" v="locality" />
		<tag k="ssr:stedsnr" v="870528" />
	</node>
	<node lat="70.09893615773822" lon="30.04374560432885" id="-32467">
		<tag k="name" v="Varskog" />
		<tag k="place" v="locality" />
		<tag k="ssr:stedsnr" v="870541" />
	</node>
	<node lat="70.12320837445296" lon="29.564012542869445" id="-32468">
		<tag k="name" v="Andersbyvannet - Goahtejávri" />
		<tag k="name:no" v="Andersbyvannet" />
		<tag k="name:se" v="Goahtejávri" />
		<tag k="natural" v="water" />
		<tag k="old_name:se" v="Goattejavri" />
		<tag k="ssr:stedsnr" v="870610" />
		<tag k="water" v="lake" />
	</node>
	<node lat="70.1543778166476" lon="29.543465345728304" id="-32469">
		<tag k="name" v="Vasselva" />
		<tag k="ssr:stedsnr" v="870618" />
		<tag k="waterway" v="stream" />
	</node>
	<node lat="70.15385718144385" lon="29.85601985355023" id="-32470">
		<tag k="fixme" v="consider natural=peak for the most distinct mountains in the district" />
		<tag k="name" v="Nattfjellet - Idjaoaivi" />
		<tag k="name:no" v="Nattfjellet" />
		<tag k="name:se" v="Idjaoaivi" />
		<tag k="natural" v="hill" />
		<tag k="old_name:se" v="Iddjaoaivi" />
		<tag k="place" v="locality" />
		<tag k="ssr:stedsnr" v="870625" />
	</node>
	<node lat="70.16542504589793" lon="29.976578998873578" id="-32471">
		<tag k="name" v="Vasavannet - Riddojávri" />
		<tag k="name:no" v="Vasavannet" />
		<tag k="name:se" v="Riddojávri" />
		<tag k="natural" v="water" />
		<tag k="old_name:se" v="Riddujavri" />
		<tag k="ssr:stedsnr" v="870627" />
		<tag k="water" v="lake" />
	</node>
	<node lat="70.08550005353102" lon="29.823404050664553" id="-32472">
		<tag k="name" v="Navarsvannet" />
		<tag k="natural" v="water" />
		<tag k="ssr:stedsnr" v="930556" />
	</node>
	<node lat="70.10147505060534" lon="30.148987211726258" id="-32473">
		<tag k="name" v="Storelvneset" />
		<tag k="natural" v="cape" />
		<tag k="ssr:stedsnr" v="930566" />
	</node>
	<node lat="70.11256671644306" lon="29.979065091092902" id="-32474">
		<tag k="name" v="Keita" />
		<tag k="natural" v="wetland" />
		<tag k="ssr:stedsnr" v="930630" />
	</node>
	<node lat="70.28090282165263" lon="30.129431754074627" id="-32475">
		<tag k="fixme" v="consider natural=peak for the most distinct mountains in the district" />
		<tag k="name" v="Cavnnat" />
		<tag k="name:se" v="Cavnnat" />
		<tag k="natural" v="hill" />
		<tag k="old_name:se" v="Cavnat" />
		<tag k="place" v="locality" />
		<tag k="ssr:stedsnr" v="930911" />
	</node>
	<node lat="70.44435003490425" lon="29.243754461138895" id="-32476">
		<tag k="name" v="Soalddátgorsa" />
		<tag k="name:se" v="Soalddátgorsa" />
		<tag k="natural" v="valley" />
		<tag k="old_name:se" v="Soaldatgårsa" />
		<tag k="place" v="locality" />
		<tag k="ssr:stedsnr" v="930950" />
	</node>
	<node lat="70.46400836383623" lon="29.27147389436857" id="-32477">
		<tag k="name" v="Oarddojárskáidi" />
		<tag k="name:se" v="Oarddojárskáidi" />
		<tag k="natural" v="cape" />
		<tag k="old_name:se" v="Oardujarskaidi" />
		<tag k="ssr:stedsnr" v="930954" />
	</node>
	<node lat="70.37328892063354" lon="29.385537720820782" id="-32478">
		<tag k="fixme" v="consider natural=peak for the most distinct mountains in the district" />
		<tag k="name" v="Juovvoaivi" />
		<tag k="name:se" v="Juovvoaivi" />
		<tag k="natural" v="hill" />
		<tag k="old_name:se" v="Juovloaivi" />
		<tag k="place" v="locality" />
		<tag k="ssr:stedsnr" v="930997" />
	</node>
	<node lat="70.40784448012995" lon="29.47783490007309" id="-32479">
		<tag k="name" v="Skipskjølen - Bealjáidčearru - Kööli" />
		<tag k="name:fkv" v="Kööli" />
		<tag k="name:no" v="Skipskjølen" />
		<tag k="name:se" v="Bealjáidčearru" />
		<tag k="natural" v="plateau" />
		<tag k="old_name:se" v="Bælljaidčearro" />
		<tag k="ssr:stedsnr" v="875970" />
	</node>
	<node lat="70.27272781149783" lon="29.40487656419901" id="-32480">
		<tag k="fixme" v="consider natural=peak for the most distinct mountains in the district" />
		<tag k="name" v="Urfjellet - Jiessavárri - Kivitunturi" />
		<tag k="name:fkv" v="Kivitunturi" />
		<tag k="name:no" v="Urfjellet" />
		<tag k="name:se" v="Jiessavárri" />
		<tag k="natural" v="hill" />
		<tag k="old_name:se" v="Jiessavarri" />
		<tag k="place" v="locality" />
		<tag k="ssr:stedsnr" v="875982" />
	</node>
	<node lat="70.07595004964104" lon="29.747417997056015" id="-32481">
		<tag k="building" v="commercial" />
		<tag k="name" v="Statens hus" />
		<tag k="ssr:stedsnr" v="880141" />
	</node>
	<node lat="70.09199171217672" lon="29.744748559391038" id="-32482">
		<tag k="name" v="Fossen" />
		<tag k="natural" v="waterfall" />
		<tag k="ssr:stedsnr" v="880206" />
	</node>
	<node lat="70.07625005060665" lon="29.925081782399772" id="-32483">
		<tag k="name" v="Iso-Louhikko" />
		<tag k="name:fkv" v="Iso-Louhikko" />
		<tag k="natural" v="scree" />
		<tag k="ssr:stedsnr" v="880406" />
	</node>
	<node lat="70.07121116333055" lon="29.930292884685127" id="-32484">
		<tag k="name" v="Ylihaakinpäri" />
		<tag k="name:fkv" v="Ylihaakinpäri" />
		<tag k="natural" v="hill" />
		<tag k="place" v="locality" />
		<tag k="ssr:stedsnr" v="880410" />
	</node>
	<node lat="70.0714889361242" lon="29.937303978026563" id="-32485">
		<tag k="alt_name" v="Høivikvegen" />
		<tag k="highway" v="path" />
		<tag k="name" v="Høyvikveien" />
		<tag k="ssr:stedsnr" v="880415" />
	</node>
	<node lat="70.07319171337268" lon="29.945678991089014" id="-32486">
		<tag k="name" v="Pärinpääjänkkä" />
		<tag k="name:fkv" v="Pärinpääjänkkä" />
		<tag k="natural" v="wetland" />
		<tag k="ssr:stedsnr" v="880420" />
	</node>
	<node lat="70.07302227251573" lon="30.02513170881895" id="-32487">
		<tag k="name" v="Nikolaidammen" />
		<tag k="natural" v="water" />
		<tag k="ssr:stedsnr" v="880616" />
	</node>
	<node lat="70.07209449480251" lon="30.000837293596188" id="-32488">
		<tag k="name" v="Berget" />
		<tag k="natural" v="hill" />
		<tag k="place" v="locality" />
		<tag k="ssr:stedsnr" v="880620" />
	</node>
	<node lat="70.19172782977465" lon="30.191481663575086" id="-32489">
		<tag k="name" v="Nedre Torvmælen" />
		<tag k="natural" v="wetland" />
		<tag k="ssr:stedsnr" v="880750" />
	</node>
	<node lat="70.08676116461314" lon="30.254045454263736" id="-32490">
		<tag k="name" v="Ramnflogmola" />
		<tag k="natural" v="bay" />
		<tag k="ssr:stedsnr" v="934171" />
	</node>
	<node lat="70.11148893156822" lon="29.332976534932698" id="-32492">
		<tag k="name" v="Vestre Jakobselv - Ánnejohka - Annijoki" />
		<tag k="name:fkv" v="Annijoki" />
		<tag k="name:no" v="Vestre Jakobselv" />
		<tag k="name:se" v="Ánnejohka" />
		<tag k="place" v="village" />
		<tag k="ssr:stedsnr" v="929611" />
	</node>
	<node lat="70.07520559978396" lon="29.85661237422853" id="-32493">
		<tag k="name" v="Skallskogvannet" />
		<tag k="natural" v="water" />
		<tag k="ssr:stedsnr" v="930543" />
	</node>
	<node lat="70.07466116464765" lon="29.890881788963068" id="-32494">
		<tag k="name" v="Nedre Akslavannet" />
		<tag k="natural" v="water" />
		<tag k="ssr:stedsnr" v="930547" />
		<tag k="water" v="lake" />
	</node>
	<node lat="70.08505281727734" lon="29.55159586897786" id="-32495">
		<tag k="fixme" v="consider seamark:type=rock or natural=shoal" />
		<tag k="name" v="Sandskjæret" />
		<tag k="place" v="islet" />
		<tag k="ssr:stedsnr" v="930551" />
	</node>
	<node lat="70.2433305888312" lon="29.47377375221916" id="-32496">
		<tag k="fixme" v="consider natural=peak for the most distinct mountains in the district" />
		<tag k="name" v="Váttačielgi" />
		<tag k="name:se" v="Váttačielgi" />
		<tag k="natural" v="hill" />
		<tag k="old_name:se" v="Vaddačielgi" />
		<tag k="place" v="locality" />
		<tag k="ssr:stedsnr" v="930604" />
	</node>
	<node lat="70.12519170853284" lon="29.407348747019462" id="-32497">
		<tag k="name" v="Maritmyra" />
		<tag k="natural" v="wetland" />
		<tag k="ssr:stedsnr" v="930653" />
	</node>
	<node lat="70.20997781538507" lon="29.451332083800725" id="-32498">
		<tag k="name" v="Fárppaljohka" />
		<tag k="name:se" v="Fárppaljohka" />
		<tag k="old_name:se" v="Farpaljåkka" />
		<tag k="ssr:stedsnr" v="930598" />
		<tag k="waterway" v="stream" />
	</node>
	<node lat="70.10008059449875" lon="29.454604251748435" id="-32499">
		<tag k="name" v="Paddebybukta" />
		<tag k="natural" v="bay" />
		<tag k="ssr:stedsnr" v="931605" />
	</node>
	<node lat="70.09930281744396" lon="29.647501389551937" id="-32500">
		<tag k="name" v="Storbakken" />
		<tag k="natural" v="slope" />
		<tag k="place" v="locality" />
		<tag k="ssr:stedsnr" v="931612" />
	</node>
	<node lat="70.10623059465414" lon="29.45227369819421" id="-32501">
		<tag k="name" v="Paddebyelva" />
		<tag k="ssr:stedsnr" v="931614" />
		<tag k="waterway" v="stream" />
	</node>
	<node lat="70.09573338257808" lon="29.75430409709178" id="-32502">
		<tag k="fixme" v="consider natural=peak for the most distinct mountains in the district" />
		<tag k="name" v="Fossefjellet" />
		<tag k="natural" v="hill" />
		<tag k="place" v="locality" />
		<tag k="ssr:stedsnr" v="931616" />
	</node>
	<node lat="70.12905003575396" lon="29.265290470731482" id="-32503">
		<tag k="name" v="Gvádasjeaggi" />
		<tag k="name:se" v="Gvádasjeaggi" />
		<tag k="natural" v="wetland" />
		<tag k="ssr:stedsnr" v="940106" />
	</node>
	<node lat="70.10532503929522" lon="29.339107102962107" id="-32504">
		<tag k="name" v="Finnes" />
		<tag k="place" v="farm" />
		<tag k="ssr:stedsnr" v="940082" />
	</node>
	<node lat="70.13881392728368" lon="29.33758488954246" id="-32505">
		<tag k="highway" v="path" />
		<tag k="name" v="Oksemyrvegen" />
		<tag k="ssr:stedsnr" v="940085" />
	</node>
	<node lat="70.12798614885727" lon="29.314101546436003" id="-32506">
		<tag k="name" v="Svingen" />
		<tag k="natural" v="water" />
		<tag k="ssr:stedsnr" v="940091" />
		<tag k="water" v="lake" />
	</node>
	<node lat="70.10406477698707" lon="29.34007148743502" id="-32508">
		<tag k="fixme" v="consider natural=peak for the most distinct mountains in the district" />
		<tag k="name" v="Lauriniemenharju" />
		<tag k="name:fkv" v="Lauriniemenharju" />
		<tag k="natural" v="hill" />
		<tag k="place" v="locality" />
		<tag k="ssr:stedsnr" v="979558" />
	</node>
	<node lat="70.16448892659646" lon="29.289415478274048" id="-32509">
		<tag k="alt_name" v="4.Fossen" />
		<tag k="name" v="Fjerdefossen" />
		<tag k="natural" v="waterfall" />
		<tag k="ssr:stedsnr" v="19711" />
	</node>
	<node lat="70.1747778145808" lon="29.252359939929647" id="-32510">
		<tag k="alt_name:no" v="Kaffeholmen" />
		<tag k="name" v="Kaffiholmen - Kaffisaari" />
		<tag k="name:fkv" v="Kaffisaari" />
		<tag k="name:no" v="Kaffiholmen" />
		<tag k="place" v="islet" />
		<tag k="ssr:stedsnr" v="19717" />
	</node>
	<node lat="70.10378892623925" lon="29.35114040890825" id="-32511">
		<tag k="name" v="Torvhaugen" />
		<tag k="natural" v="hill" />
		<tag k="place" v="locality" />
		<tag k="ssr:stedsnr" v="19657" />
	</node>
	<node lat="70.18478061321325" lon="30.33422602064446" id="-32512">
		<tag k="name" v="Poikilaniemi" />
		<tag k="name:fkv" v="Poikilaniemi" />
		<tag k="natural" v="cape" />
		<tag k="old_name:fkv" v="Boigilanniemi" />
		<tag k="ssr:stedsnr" v="20566" />
	</node>
	<node lat="70.14842783122528" lon="30.076862278398668" id="-32513">
		<tag k="name" v="Bondevannet" />
		<tag k="natural" v="water" />
		<tag k="ssr:stedsnr" v="20571" />
	</node>
	<node lat="70.20671117050702" lon="30.450362062485976" id="-32514">
		<tag k="name" v="Laivanmukka" />
		<tag k="name:fkv" v="Laivanmukka" />
		<tag k="natural" v="bay" />
		<tag k="old_name:fkv" v="Laivanmokka" />
		<tag k="ssr:stedsnr" v="20581" />
	</node>
	<node lat="70.09457504613826" lon="29.519223679162113" id="-32515">
		<tag k="name" v="Sandskjær" />
		<tag k="natural" v="beach" />
		<tag k="ssr:stedsnr" v="20628" />
	</node>
	<node lat="70.45087781097446" lon="29.10691841417069" id="-32516">
		<tag k="name" v="Rátkkajávri" />
		<tag k="name:se" v="Rátkkajávri" />
		<tag k="natural" v="water" />
		<tag k="old_name:se" v="Ratkajavri" />
		<tag k="ssr:stedsnr" v="20961" />
	</node>
	<node lat="70.05464727581126" lon="29.81787348762091" id="-32517">
		<tag k="name" v="Indre Seigrunnen" />
		<tag k="natural" v="shoal" />
		<tag k="old_name" v="Seigrunnen, Indre" />
		<tag k="place" v="locality" />
		<tag k="ssr:stedsnr" v="25297" />
	</node>
	<node lat="70.075491717302" lon="30.01859560803611" id="-32518">
		<tag k="name" v="Golneselva - Kullaselva" />
		<tag k="name:fkv" v="Kullaselva" />
		<tag k="name:no" v="Golneselva" />
		<tag k="ssr:stedsnr" v="26246" />
		<tag k="waterway" v="river" />
	</node>
	<node lat="70.23058059392943" lon="29.28233493268629" id="-32519">
		<tag k="name" v="Steinvannet" />
		<tag k="natural" v="water" />
		<tag k="ssr:stedsnr" v="28902" />
	</node>
	<node lat="70.13241394218205" lon="30.10416502141786" id="-32520">
		<tag k="name" v="Johan Abrahamrabben" />
		<tag k="place" v="locality" />
		<tag k="ssr:stedsnr" v="28907" />
	</node>
	<node lat="70.16578059360332" lon="29.283823802832554" id="-32521">
		<tag k="name" v="Lehtipäri" />
		<tag k="name:fkv" v="Lehtipäri" />
		<tag k="natural" v="slope" />
		<tag k="place" v="locality" />
		<tag k="ssr:stedsnr" v="30022" />
	</node>
	<node lat="70.10055837438192" lon="29.619576395123136" id="-32522">
		<tag k="name" v="Kroken" />
		<tag k="natural" v="slope" />
		<tag k="place" v="locality" />
		<tag k="ssr:stedsnr" v="30047" />
	</node>
	<node lat="70.1457972563548" lon="29.254268248256967" id="-32523">
		<tag k="name" v="Puolipäivähyppylä" />
		<tag k="name:fkv" v="Puolipäivähyppylä" />
		<tag k="natural" v="hill" />
		<tag k="old_name:fkv" v="Buribäivahypperi" />
		<tag k="place" v="locality" />
		<tag k="ssr:stedsnr" v="30011" />
	</node>
	<node lat="70.09716393420622" lon="29.573340319894342" id="-32524">
		<tag k="name" v="Bårdsletta" />
		<tag k="place" v="locality" />
		<tag k="ssr:stedsnr" v="30012" />
	</node>
	<node lat="70.16279447836027" lon="29.293584907879367" id="-32525">
		<tag k="name" v="Andergå" />
		<tag k="natural" v="wetland" />
		<tag k="ssr:stedsnr" v="30014" />
	</node>
	<node lat="70.07898338211734" lon="29.736923559150128" id="-32526">
		<tag k="amenity" v="school" />
		<tag k="name" v="Vadsø videregående skole" />
		<tag k="ssr:stedsnr" v="30255" />
	</node>
	<node lat="70.07974449147548" lon="29.757895765781594" id="-32527">
		<tag k="name" v="Russemattielva" />
		<tag k="ssr:stedsnr" v="30192" />
		<tag k="waterway" v="stream" />
	</node>
	<node lat="70.06107227588706" lon="29.858009583134" id="-32528">
		<tag k="name" v="Leirhaugen" />
		<tag k="natural" v="hill" />
		<tag k="place" v="locality" />
		<tag k="ssr:stedsnr" v="30311" />
	</node>
	<node lat="70.06198894166607" lon="29.856295697532417" id="-32529">
		<tag k="fixme" v="consider place=hamlet" />
		<tag k="name" v="Været" />
		<tag k="place" v="village" />
		<tag k="ssr:stedsnr" v="30312" />
	</node>
	<node lat="70.07067782466503" lon="29.87588179968103" id="-32530">
		<tag k="name" v="Fossen" />
		<tag k="natural" v="waterfall" />
		<tag k="ssr:stedsnr" v="30313" />
	</node>
	<node lat="70.0631000513501" lon="29.824859601094115" id="-32531">
		<tag k="alt_name" v="Flågan" />
		<tag k="name" v="Flogan" />
		<tag k="natural" v="hill" />
		<tag k="place" v="locality" />
		<tag k="ssr:stedsnr" v="30314" />
	</node>
	<node lat="70.07098338613166" lon="29.918970653604873" id="-32532">
		<tag k="name" v="Turvejänkkä" />
		<tag k="name:fkv" v="Turvejänkkä" />
		<tag k="natural" v="wetland" />
		<tag k="ssr:stedsnr" v="30423" />
	</node>
	<node lat="70.10576393632233" lon="29.85006795304822" id="-32533">
		<tag k="name" v="Maanlaita" />
		<tag k="name:fkv" v="Maanlaita" />
		<tag k="natural" v="slope" />
		<tag k="place" v="locality" />
		<tag k="ssr:stedsnr" v="30322" />
	</node>
	<node lat="70.07066671269595" lon="29.73730132037406" id="-32534">
		<tag k="man_made" v="quay" />
		<tag k="name" v="Dampskips kai" />
		<tag k="place" v="locality" />
		<tag k="ssr:stedsnr" v="30329" />
	</node>
	<node lat="70.09491393830399" lon="30.05158725895102" id="-32535">
		<tag k="name" v="Varskogelva - Rautujoki" />
		<tag k="name:fkv" v="Rautujoki" />
		<tag k="name:no" v="Varskogelva" />
		<tag k="ssr:stedsnr" v="30413" />
		<tag k="waterway" v="stream" />
	</node>
	<node lat="70.17893893942082" lon="30.329064902586683" id="-32536">
		<tag k="name" v="Kallilahti" />
		<tag k="name:fkv" v="Kallilahti" />
		<tag k="natural" v="beach" />
		<tag k="ssr:stedsnr" v="30693" />
	</node>
	<node lat="70.15005838535045" lon="30.33506489154671" id="-32537">
		<tag k="name" v="Pärintakustajänkkä" />
		<tag k="name:fkv" v="Pärintakustajänkkä" />
		<tag k="natural" v="wetland" />
		<tag k="old_name:fkv" v="Pärintäkustaajänkkä" />
		<tag k="ssr:stedsnr" v="30699" />
	</node>
	<node lat="70.07461116462348" lon="30.04575947602381" id="-32538">
		<tag k="name" v="Solalaassa" />
		<tag k="name:fkv" v="Solalaassa" />
		<tag k="natural" v="cape" />
		<tag k="ssr:stedsnr" v="30585" />
	</node>
	<node lat="70.06963338064381" lon="30.00303450415909" id="-32539">
		<tag k="name" v="Været" />
		<tag k="place" v="hamlet" />
		<tag k="ssr:stedsnr" v="30588" />
	</node>
	<node lat="70.09737504291867" lon="29.41606537799686" id="-32540">
		<tag k="name" v="Paddebyhaugen" />
		<tag k="natural" v="hill" />
		<tag k="place" v="locality" />
		<tag k="ssr:stedsnr" v="30994" />
	</node>
	<node lat="70.17579449622804" lon="30.356537107189748" id="-32541">
		<tag k="fixme" v="consider seamark:type=rock or natural=shoal" />
		<tag k="name" v="Langskjæret" />
		<tag k="place" v="islet" />
		<tag k="ssr:stedsnr" v="40225" />
	</node>
	<node lat="70.07285005198007" lon="29.739023537006048" id="-32542">
		<tag k="name" v="Hamna" />
		<tag k="natural" v="bay" />
		<tag k="ssr:stedsnr" v="80522" />
	</node>
	<node lat="70.08030560531951" lon="29.73093745015903" id="-32543">
		<tag k="name" v="Vadsø - Čáhcesuolu - Vesisaari" />
		<tag k="name:fkv" v="Vesisaari" />
		<tag k="name:no" v="Vadsø" />
		<tag k="name:se" v="Čáhcesuolu" />
		<tag k="place" v="town" />
		<tag k="ssr:stedsnr" v="80524" />
	</node>
	<node lat="70.06689172056679" lon="29.91797344014518" id="-32544">
		<tag k="alt_name" v="Høivikhaugen" />
		<tag k="name" v="Høyvikhaugen" />
		<tag k="natural" v="hill" />
		<tag k="place" v="locality" />
		<tag k="ssr:stedsnr" v="80530" />
	</node>
	<node lat="70.1330000359449" lon="29.313371001108745" id="-32545">
		<tag k="alt_name" v="1.Fossen" />
		<tag k="name" v="Førstefossen" />
		<tag k="natural" v="waterfall" />
		<tag k="ssr:stedsnr" v="80635" />
	</node>
	<node lat="70.08161393873912" lon="29.95316508584642" id="-32546">
		<tag k="name" v="Stormyra - Maanlaita" />
		<tag k="name:fkv" v="Maanlaita" />
		<tag k="name:no" v="Stormyra" />
		<tag k="natural" v="wetland" />
		<tag k="ssr:stedsnr" v="80540" />
	</node>
	<node lat="70.1035694813163" lon="29.336301524159037" id="-32547">
		<tag k="alt_name:no" v="Finnesset" />
		<tag k="loc_name:se" v="Lávrranjárga" />
		<tag k="name" v="Finneset - Lauriniemi" />
		<tag k="name:fkv" v="Lauriniemi" />
		<tag k="name:no" v="Finneset" />
		<tag k="natural" v="cape" />
		<tag k="ssr:stedsnr" v="80675" />
	</node>
	<node lat="70.17766948778106" lon="29.523312591256584" id="-32548">
		<tag k="alt_name" v="Gjelhaugan" />
		<tag k="fixme" v="consider natural=peak for the most distinct mountains in the district" />
		<tag k="name" v="Gjelhaugane" />
		<tag k="natural" v="hill" />
		<tag k="place" v="locality" />
		<tag k="ssr:stedsnr" v="80735" />
	</node>
	<node lat="70.38777502895316" lon="29.220376674448886" id="-32549">
		<tag k="name" v="Stáloboldni" />
		<tag k="name:se" v="Stáloboldni" />
		<tag k="natural" v="hill" />
		<tag k="old_name:se" v="Stalubåldni" />
		<tag k="place" v="locality" />
		<tag k="ssr:stedsnr" v="80946" />
	</node>
	<node lat="70.38675558899462" lon="29.25561278403839" id="-32550">
		<tag k="name" v="Stálojávrrit" />
		<tag k="name:se" v="Stálojávrrit" />
		<tag k="natural" v="water" />
		<tag k="old_name:se" v="Stalujavrit" />
		<tag k="ssr:stedsnr" v="80947" />
		<tag k="water" v="lake" />
	</node>
	<node lat="70.19771115005264" lon="29.421465426155493" id="-32551">
		<tag k="fixme" v="consider natural=peak for the most distinct mountains in the district" />
		<tag k="name" v="Flintnasa" />
		<tag k="natural" v="hill" />
		<tag k="place" v="locality" />
		<tag k="ssr:stedsnr" v="81586" />
	</node>
	<node lat="70.20245281579191" lon="29.56322646407256" id="-32552">
		<tag k="name" v="Vargelvskardet" />
		<tag k="natural" v="valley" />
		<tag k="place" v="locality" />
		<tag k="ssr:stedsnr" v="81589" />
	</node>
	<node lat="70.19930003326647" lon="29.38084043946966" id="-32553">
		<tag k="name" v="Høyelva - Oažžejohka - Heinäjoki" />
		<tag k="name:fkv" v="Heinäjoki" />
		<tag k="name:no" v="Høyelva" />
		<tag k="name:se" v="Oažžejohka" />
		<tag k="old_name:no" v="Flintelva, nedre;Nedre Flintelva" />
		<tag k="old_name:se" v="Oažžejåkka" />
		<tag k="ssr:stedsnr" v="81594" />
		<tag k="waterway" v="river" />
	</node>
	<node lat="70.07406672503303" lon="30.102784435469353" id="-32554">
		<tag k="alt_name:no" v="Ekkerøy" />
		<tag k="fixme" v="consider place=hamlet" />
		<tag k="name" v="Ekkerøya - Ekrea" />
		<tag k="name:fkv" v="Ekrea" />
		<tag k="name:no" v="Ekkerøya" />
		<tag k="place" v="village" />
		<tag k="ssr:stedsnr" v="81496" />
	</node>
	<node lat="70.12703894162165" lon="30.226817728112703" id="-32555">
		<tag k="fixme" v="multiple name tags, choose one and add the other to alt_name" />
		<tag k="name" v="Torvvannet;Nedre Sikevannet" />
		<tag k="natural" v="water" />
		<tag k="ssr:stedsnr" v="81563" />
	</node>
	<node lat="70.1573028335341" lon="30.24523440964387" id="-32556">
		<tag k="alt_name:no" v="Lille Skallelv" />
		<tag k="name" v="Lille Skallelva - Ávže-Gállojohka" />
		<tag k="name:no" v="Lille Skallelva" />
		<tag k="name:se" v="Ávže-Gállojohka" />
		<tag k="old_name:no" v="Skallelva, l" />
		<tag k="ssr:stedsnr" v="81571" />
		<tag k="waterway" v="river" />
	</node>
	<node lat="70.17555003721148" lon="29.488529265228664" id="-32557">
		<tag k="fixme" v="consider natural=peak for the most distinct mountains in the district" />
		<tag k="name" v="Várjjoaivi" />
		<tag k="name:se" v="Várjjoaivi" />
		<tag k="natural" v="hill" />
		<tag k="old_name:se" v="Varjoaivi" />
		<tag k="place" v="locality" />
		<tag k="ssr:stedsnr" v="81647" />
	</node>
	<node lat="70.10636393551097" lon="29.89039847765585" id="-32558">
		<tag k="name" v="Kibymyra" />
		<tag k="natural" v="wetland" />
		<tag k="ssr:stedsnr" v="81629" />
	</node>
	<node lat="70.12350559503405" lon="29.333618203380517" id="-32559">
		<tag k="amenity" v="nursing_home" />
		<tag k="name" v="Barnehjem" />
		<tag k="ssr:stedsnr" v="91093" />
	</node>
	<node lat="70.12007225665886" lon="29.294393234973988" id="-32560">
		<tag k="name" v="Skittenelvbakken" />
		<tag k="natural" v="slope" />
		<tag k="place" v="locality" />
		<tag k="ssr:stedsnr" v="91096" />
	</node>
	<node lat="70.13244725531325" lon="29.249834926648262" id="-32561">
		<tag k="name" v="Lille Rundhaug" />
		<tag k="natural" v="hill" />
		<tag k="place" v="locality" />
		<tag k="ssr:stedsnr" v="91101" />
	</node>
	<node lat="70.06880282433683" lon="29.855706802581366" id="-32562">
		<tag k="name" v="Lille Ingersvannet" />
		<tag k="natural" v="water" />
		<tag k="ssr:stedsnr" v="91294" />
	</node>
	<node lat="70.06405560794016" lon="29.85607902893155" id="-32563">
		<tag k="name" v="Kibybekken" />
		<tag k="ssr:stedsnr" v="91310" />
		<tag k="waterway" v="stream" />
	</node>
	<node lat="70.0675917124399" lon="29.748154082556027" id="-32564">
		<tag k="name" v="Lailas Gjestehus" />
		<tag k="ssr:stedsnr" v="91351" />
		<tag k="tourism" v="hotel" />
	</node>
	<node lat="70.08586949199183" lon="29.807920729333336" id="-32565">
		<tag k="amenity" v="sports_centre" />
		<tag k="name" v="Skytterhus" />
		<tag k="ssr:stedsnr" v="91244" />
	</node>
	<node lat="70.20029172603792" lon="30.377989878555027" id="-32566">
		<tag k="name" v="Juntinkenttä" />
		<tag k="name:fkv" v="Juntinkenttä" />
		<tag k="place" v="locality" />
		<tag k="ssr:stedsnr" v="91668" />
	</node>
	<node lat="70.0699306111467" lon="29.97131785782576" id="-32567">
		<tag k="fixme" v="consider highway=path" />
		<tag k="highway" v="track" />
		<tag k="name" v="Torvmarkvegen" />
		<tag k="ssr:stedsnr" v="91463" />
	</node>
	<node lat="70.07627226907151" lon="29.96838174356603" id="-32568">
		<tag k="name" v="Taipale" />
		<tag k="name:fkv" v="Taipale" />
		<tag k="natural" v="slope" />
		<tag k="place" v="locality" />
		<tag k="ssr:stedsnr" v="91464" />
	</node>
	<node lat="70.086355610276" lon="29.942120648364565" id="-32569">
		<tag k="name" v="Reingårdshamran - Monstanriutta" />
		<tag k="name:fkv" v="Monstanriutta" />
		<tag k="name:no" v="Reingårdshamran" />
		<tag k="natural" v="slope" />
		<tag k="place" v="locality" />
		<tag k="ssr:stedsnr" v="91486" />
	</node>
	<node lat="70.07104450102472" lon="30.15392606699772" id="-32570">
		<tag k="name" v="Skagbakken" />
		<tag k="natural" v="slope" />
		<tag k="place" v="locality" />
		<tag k="ssr:stedsnr" v="91562" />
	</node>
	<node lat="70.20375005477895" lon="30.252517752100044" id="-32571">
		<tag k="name" v="Villenniitty" />
		<tag k="name:fkv" v="Villenniitty" />
		<tag k="place" v="locality" />
		<tag k="ssr:stedsnr" v="91687" />
	</node>
	<node lat="70.20596393701952" lon="30.192678895838284" id="-32572">
		<tag k="name" v="Skallelvporten" />
		<tag k="natural" v="waterfall" />
		<tag k="ssr:stedsnr" v="91724" />
	</node>
	<node lat="70.15390559767084" lon="29.44989594693098" id="-32573">
		<tag k="alt_name" v="Østervannshompen" />
		<tag k="name" v="Østervannshumpen" />
		<tag k="natural" v="hill" />
		<tag k="place" v="locality" />
		<tag k="ssr:stedsnr" v="91969" />
	</node>
	<node lat="70.16121392327871" lon="29.308309896075176" id="-32574">
		<tag k="alt_name" v="3.Fossen" />
		<tag k="name" v="Tredjefossen" />
		<tag k="natural" v="waterfall" />
		<tag k="ssr:stedsnr" v="140724" />
	</node>
	<node lat="70.16350838087826" lon="29.885740159830505" id="-32575">
		<tag k="name" v="Áitejohka" />
		<tag k="name:se" v="Áitejohka" />
		<tag k="old_name:se" v="Aitejåkka" />
		<tag k="ssr:stedsnr" v="141476" />
		<tag k="waterway" v="river" />
	</node>
	<node lat="70.07921966914405" lon="30.09148330216643" id="-32576">
		<tag k="name" v="Valen" />
		<tag k="place" v="farm" />
		<tag k="ssr:stedsnr" v="141550" />
	</node>
	<node lat="70.12751672300614" lon="30.12387612513005" id="-32577">
		<tag k="name" v="Storskogkløfta" />
		<tag k="natural" v="valley" />
		<tag k="place" v="locality" />
		<tag k="ssr:stedsnr" v="141555" />
	</node>
	<node lat="70.14667505385775" lon="30.23865106910781" id="-32578">
		<tag k="fixme" v="consider natural=peak for the most distinct mountains in the district" />
		<tag k="name" v="Skallhalsen" />
		<tag k="natural" v="hill" />
		<tag k="place" v="locality" />
		<tag k="ssr:stedsnr" v="141564" />
	</node>
	<node lat="70.20092504565484" lon="30.159256694515836" id="-32579">
		<tag k="name" v="Tievanjärvi" />
		<tag k="name:fkv" v="Tievanjärvi" />
		<tag k="natural" v="water" />
		<tag k="old_name:fkv" v="Dievajærvi" />
		<tag k="ssr:stedsnr" v="141569" />
	</node>
	<node lat="70.41170003495054" lon="29.440362706905372" id="-32580">
		<tag k="name" v="Rávdoljohka" />
		<tag k="name:se" v="Rávdoljohka" />
		<tag k="old_name:se" v="Ravduljåkka" />
		<tag k="ssr:stedsnr" v="141969" />
		<tag k="waterway" v="stream" />
	</node>
	<node lat="70.11315838545298" lon="30.151434416381665" id="-32581">
		<tag k="name" v="Varen" />
		<tag k="natural" v="ridge" />
		<tag k="place" v="locality" />
		<tag k="ssr:stedsnr" v="149032" />
	</node>
	<node lat="70.07921671919462" lon="29.98928452738258" id="-32582">
		<tag k="name" v="Nikulainjänkkä" />
		<tag k="name:fkv" v="Nikulainjänkkä" />
		<tag k="natural" v="wetland" />
		<tag k="old_name:fkv" v="Nikolainjänkkä" />
		<tag k="ssr:stedsnr" v="151425" />
	</node>
	<node lat="70.07035282719531" lon="29.924067871171072" id="-32583">
		<tag k="name" v="Ylihaaki" />
		<tag k="name:fkv" v="Ylihaaki" />
		<tag k="natural" v="valley" />
		<tag k="place" v="locality" />
		<tag k="ssr:stedsnr" v="151443" />
	</node>
	<node lat="70.09161948808706" lon="29.643334700139054" id="-32584">
		<tag k="fixme" v="consider highway=path" />
		<tag k="highway" v="track" />
		<tag k="name" v="Tyskvegen" />
		<tag k="ssr:stedsnr" v="151001" />
	</node>
	<node lat="70.09591949064563" lon="29.532281987506792" id="-32585">
		<tag k="name" v="Rødberget" />
		<tag k="natural" v="hill" />
		<tag k="place" v="locality" />
		<tag k="ssr:stedsnr" v="151121" />
	</node>
	<node lat="70.08995282477773" lon="29.823826293296356" id="-32586">
		<tag k="name" v="Torsvardmyra" />
		<tag k="natural" v="wetland" />
		<tag k="ssr:stedsnr" v="151238" />
	</node>
	<node lat="70.0868417165929" lon="29.83604293568364" id="-32587">
		<tag k="name" v="Kettuberget" />
		<tag k="natural" v="hill" />
		<tag k="place" v="locality" />
		<tag k="ssr:stedsnr" v="151240" />
	</node>
	<node lat="70.091886154837" lon="29.842920724291147" id="-32588">
		<tag k="name" v="Eevanjänkä" />
		<tag k="name:fkv" v="Eevanjänkä" />
		<tag k="natural" v="wetland" />
		<tag k="old_name:fkv" v="Evajänkkä" />
		<tag k="ssr:stedsnr" v="151249" />
	</node>
	<node lat="70.11998338272289" lon="29.83292906501178" id="-32589">
		<tag k="name" v="Sjåbuselvskaret - Itkukuru" />
		<tag k="name:fkv" v="Itkukuru" />
		<tag k="name:no" v="Sjåbuselvskaret" />
		<tag k="natural" v="valley" />
		<tag k="place" v="locality" />
		<tag k="ssr:stedsnr" v="151325" />
	</node>
	<node lat="70.07414449491196" lon="29.7486540924228" id="-32590">
		<tag k="amenity" v="townhall" />
		<tag k="name" v="Vadsø Rådhus" />
		<tag k="ssr:stedsnr" v="151198" />
	</node>
	<node lat="70.06920004500768" lon="29.838001273913914" id="-32591">
		<tag k="name" v="Myran" />
		<tag k="natural" v="wetland" />
		<tag k="ssr:stedsnr" v="151294" />
	</node>
	<node lat="70.06844171510723" lon="29.7301152186152" id="-32592">
		<tag k="building" v="industrial" />
		<tag k="name" v="Forbrenningsovn" />
		<tag k="ssr:stedsnr" v="151330" />
	</node>
	<node lat="70.07686115798275" lon="29.76095963727051" id="-32593">
		<tag k="name" v="Stjerneplassen" />
		<tag k="place" v="neighbourhood" />
		<tag k="ssr:stedsnr" v="151346" />
	</node>
	<node lat="70.07623616094288" lon="29.759667982831942" id="-32594">
		<tag k="leisure" v="pitch" />
		<tag k="name" v="Idrettsplass" />
		<tag k="ssr:stedsnr" v="151347" />
	</node>
	<node lat="70.0637611563063" lon="29.91766789170243" id="-32595">
		<tag k="name" v="Vanhantienvarsi" />
		<tag k="name:fkv" v="Vanhantienvarsi" />
		<tag k="natural" v="slope" />
		<tag k="place" v="locality" />
		<tag k="ssr:stedsnr" v="151615" />
	</node>
	<node lat="70.07131393706513" lon="30.01098727465868" id="-32596">
		<tag k="name" v="Lille Salttjern-halsen" />
		<tag k="natural" v="hill" />
		<tag k="place" v="locality" />
		<tag k="ssr:stedsnr" v="151595" />
	</node>
	<node lat="70.19626393847444" lon="30.247973289747478" id="-32597">
		<tag k="name" v="Niskanniitty" />
		<tag k="name:fkv" v="Niskanniitty" />
		<tag k="place" v="locality" />
		<tag k="ssr:stedsnr" v="151649" />
	</node>
	<node lat="70.14883060080153" lon="29.480929253550368" id="-32598">
		<tag k="name" v="Cikkafjielbma" />
		<tag k="name:se" v="Cikkafjielbma" />
		<tag k="natural" v="water" />
		<tag k="ssr:stedsnr" v="151991" />
		<tag k="water" v="lake" />
	</node>
	<node lat="70.10968059770391" lon="29.60578473062169" id="-32599">
		<tag k="name" v="Anderselva" />
		<tag k="ssr:stedsnr" v="170988" />
		<tag k="waterway" v="stream" />
	</node>
	<node lat="70.09710282258969" lon="29.641556941287824" id="-32600">
		<tag k="name" v="Elvedalen" />
		<tag k="natural" v="valley" />
		<tag k="place" v="locality" />
		<tag k="ssr:stedsnr" v="273017" />
	</node>
	<node lat="70.13316948605448" lon="29.3471126701711" id="-32601">
		<tag k="name" v="Smørbakken" />
		<tag k="natural" v="slope" />
		<tag k="place" v="locality" />
		<tag k="ssr:stedsnr" v="201594" />
	</node>
	<node lat="70.22346114555826" lon="29.28524049972265" id="-32602">
		<tag k="name" v="Langdam" />
		<tag k="natural" v="water" />
		<tag k="ssr:stedsnr" v="201730" />
	</node>
	<node lat="70.06988339117117" lon="30.164948293308978" id="-32603">
		<tag k="name" v="Skagodden" />
		<tag k="natural" v="cape" />
		<tag k="ssr:stedsnr" v="202478" />
	</node>
	<node lat="70.13967505173902" lon="30.131878895732267" id="-32604">
		<tag k="name" v="Lille Valavannet" />
		<tag k="natural" v="water" />
		<tag k="ssr:stedsnr" v="202566" />
	</node>
	<node lat="70.22651394062109" lon="30.163778931907352" id="-32605">
		<tag k="name" v="Djupdalsbekken - Syvänkuru" />
		<tag k="name:fkv" v="Syvänkuru" />
		<tag k="name:no" v="Djupdalsbekken" />
		<tag k="old_name:fkv" v="Suvængoro" />
		<tag k="ssr:stedsnr" v="202515" />
		<tag k="waterway" v="stream" />
	</node>
	<node lat="70.24649171645373" lon="30.225198334409065" id="-32606">
		<tag k="name" v="Pettervannet" />
		<tag k="natural" v="water" />
		<tag k="ssr:stedsnr" v="202530" />
	</node>
	<node lat="70.24604171478907" lon="30.11005673211817" id="-32607">
		<tag k="name" v="Bukselårvannet" />
		<tag k="natural" v="water" />
		<tag k="ssr:stedsnr" v="202532" />
	</node>
	<node lat="70.10184726803162" lon="29.622293072012514" id="-32608">
		<tag k="name" v="Bergelva - Kivijoki" />
		<tag k="name:fkv" v="Kivijoki" />
		<tag k="name:no" v="Bergelva" />
		<tag k="ssr:stedsnr" v="202626" />
		<tag k="waterway" v="stream" />
	</node>
	<node lat="70.11554170860869" lon="29.641273617425682" id="-32609">
		<tag k="name" v="Langvannet" />
		<tag k="natural" v="water" />
		<tag k="ssr:stedsnr" v="202636" />
	</node>
	<node lat="70.31649447660499" lon="29.340829383739422" id="-32610">
		<tag k="fixme" v="consider natural=peak for the most distinct mountains in the district" />
		<tag k="name" v="Biipoaivi" />
		<tag k="name:se" v="Biipoaivi" />
		<tag k="natural" v="hill" />
		<tag k="place" v="locality" />
		<tag k="ssr:stedsnr" v="202987" />
	</node>
	<node lat="70.16700837191732" lon="29.25475991997255" id="-32611">
		<tag k="name" v="Brennevinsbekken - Viinioja" />
		<tag k="name:fkv" v="Viinioja" />
		<tag k="name:no" v="Brennevinsbekken" />
		<tag k="ssr:stedsnr" v="273058" />
		<tag k="waterway" v="stream" />
	</node>
	<node lat="70.08486115286904" lon="29.715098564916882" id="-32612">
		<tag k="name" v="Prestelv vest" />
		<tag k="place" v="quarter" />
		<tag k="ssr:stedsnr" v="273066" />
	</node>
	<node lat="70.07773615714486" lon="29.738679090236165" id="-32613">
		<tag k="name" v="Karl Rasmussens plass" />
		<tag k="place" v="square" />
		<tag k="ssr:stedsnr" v="273148" />
	</node>
	<node lat="70.13437781954286" lon="29.376582082320937" id="-32614">
		<tag k="fixme" v="consider natural=peak for the most distinct mountains in the district" />
		<tag k="name" v="Solvarden - Suolovárri" />
		<tag k="name:no" v="Solvarden" />
		<tag k="name:se" v="Suolovárri" />
		<tag k="natural" v="hill" />
		<tag k="old_name:se" v="Suoluvarri" />
		<tag k="place" v="locality" />
		<tag k="ssr:stedsnr" v="208627" />
	</node>
	<node lat="70.15475561526887" lon="30.34676765745009" id="-32615">
		<tag k="loc_name" v="Nyhamn" />
		<tag k="name" v="Nyhavn" />
		<tag k="place" v="farm" />
		<tag k="ssr:stedsnr" v="209422" />
	</node>
	<node lat="70.16148337301186" lon="29.433120969258567" id="-32616">
		<tag k="name" v="Kortevannet" />
		<tag k="natural" v="water" />
		<tag k="ssr:stedsnr" v="210897" />
	</node>
	<node lat="70.15292504967499" lon="30.12374835099387" id="-32617">
		<tag k="name" v="Petter Persmoavannet" />
		<tag k="natural" v="water" />
		<tag k="ssr:stedsnr" v="210899" />
		<tag k="water" v="lake" />
	</node>
	<node lat="70.08225560170514" lon="29.73595966774901" id="-32618">
		<tag k="name" v="Tibergrabben" />
		<tag k="place" v="locality" />
		<tag k="ssr:stedsnr" v="212244" />
	</node>
	<node lat="70.11947226451457" lon="29.317448771446024" id="-32619">
		<tag k="name" v="Laksekulpen" />
		<tag k="place" v="locality" />
		<tag k="ssr:stedsnr" v="212061" />
	</node>
	<node lat="70.10678059686825" lon="29.365568193588874" id="-32620">
		<tag k="name" v="Halsen" />
		<tag k="place" v="locality" />
		<tag k="ssr:stedsnr" v="212073" />
	</node>
	<node lat="70.06313893616766" lon="29.919526203995172" id="-32621">
		<tag k="name" v="Brænda" />
		<tag k="place" v="locality" />
		<tag k="ssr:stedsnr" v="212620" />
	</node>
	<node lat="70.07064171496691" lon="29.94420953354653" id="-32622">
		<tag k="name" v="Ylihaaki" />
		<tag k="name:fkv" v="Ylihaaki" />
		<tag k="natural" v="slope" />
		<tag k="place" v="locality" />
		<tag k="ssr:stedsnr" v="212427" />
	</node>
	<node lat="70.07037783309556" lon="29.95961786029155" id="-32623">
		<tag k="name" v="Høvetsbakken" />
		<tag k="natural" v="slope" />
		<tag k="place" v="locality" />
		<tag k="ssr:stedsnr" v="212428" />
	</node>
	<node lat="70.07043338635464" lon="30.120648309746397" id="-32624">
		<tag k="alt_name" v="Høghamaren" />
		<tag k="name" v="Høghammaren" />
		<tag k="natural" v="cliff" />
		<tag k="ssr:stedsnr" v="212553" />
	</node>
	<node lat="70.07330282911227" lon="30.10494553732219" id="-32625">
		<tag k="name" v="Finnebakken" />
		<tag k="natural" v="slope" />
		<tag k="place" v="locality" />
		<tag k="ssr:stedsnr" v="212556" />
	</node>
	<node lat="70.18730561080851" lon="30.296031600849524" id="-32626">
		<tag k="name" v="Berrelv-kulpen" />
		<tag k="place" v="locality" />
		<tag k="ssr:stedsnr" v="212644" />
	</node>
	<node lat="70.11690838571815" lon="30.16573441082582" id="-32627">
		<tag k="name" v="Flata" />
		<tag k="place" v="locality" />
		<tag k="ssr:stedsnr" v="212755" />
	</node>
	<node lat="70.18499172098393" lon="30.206298332421483" id="-32628">
		<tag k="name" v="Lillefossen" />
		<tag k="natural" v="waterfall" />
		<tag k="ssr:stedsnr" v="214343" />
	</node>
	<node lat="70.1211055918007" lon="29.374876520581775" id="-32629">
		<tag k="fixme" v="consider natural=peak for the most distinct mountains in the district" />
		<tag k="name" v="Sudifjell" />
		<tag k="natural" v="hill" />
		<tag k="place" v="locality" />
		<tag k="ssr:stedsnr" v="226221" />
	</node>
	<node lat="70.09718060936575" lon="29.914279012716094" id="-32630">
		<tag k="name" v="Raet" />
		<tag k="natural" v="ridge" />
		<tag k="place" v="locality" />
		<tag k="ssr:stedsnr" v="273436" />
	</node>
	<node lat="70.10625005026881" lon="29.97283176305007" id="-32631">
		<tag k="name" v="Beldoslåtta" />
		<tag k="place" v="locality" />
		<tag k="ssr:stedsnr" v="273439" />
	</node>
	<node lat="70.11835282705685" lon="30.109534448056994" id="-32632">
		<tag k="name" v="Storskoghaugen" />
		<tag k="natural" v="hill" />
		<tag k="place" v="locality" />
		<tag k="ssr:stedsnr" v="273495" />
	</node>
	<node lat="70.19847227750174" lon="30.30457049023223" id="-32633">
		<tag k="name" v="Rapajänkkä" />
		<tag k="name:fkv" v="Rapajänkkä" />
		<tag k="natural" v="wetland" />
		<tag k="ssr:stedsnr" v="273703" />
	</node>
	<node lat="70.07014727438745" lon="30.11447331473361" id="-32634">
		<tag k="name" v="Sandfloget" />
		<tag k="natural" v="cliff" />
		<tag k="ssr:stedsnr" v="273544" />
	</node>
	<node lat="70.07018894540869" lon="30.124901091512243" id="-32635">
		<tag k="name" v="Storholla" />
		<tag k="natural" v="bay" />
		<tag k="ssr:stedsnr" v="273546" />
	</node>
	<node lat="70.06975005241927" lon="30.119703861838044" id="-32636">
		<tag k="fixme" v="consider seamark:type=rock or natural=shoal" />
		<tag k="name" v="Høghammarskjæret" />
		<tag k="place" v="islet" />
		<tag k="ssr:stedsnr" v="273548" />
	</node>
	<node lat="70.07099171987024" lon="30.11488997674303" id="-32637">
		<tag k="alt_name" v="Flågmyra" />
		<tag k="name" v="Flogmyra" />
		<tag k="natural" v="wetland" />
		<tag k="ssr:stedsnr" v="273552" />
	</node>
	<node lat="70.06791116040047" lon="30.099562222045332" id="-32638">
		<tag k="name" v="Finnes" />
		<tag k="natural" v="cape" />
		<tag k="ssr:stedsnr" v="273553" />
	</node>
	<node lat="70.07121394530769" lon="30.133028879136035" id="-32639">
		<tag k="fixme" v="consider boundary=protected_area and relevant protect_class if not nature reserve" />
		<tag k="leisure" v="nature_reserve" />
		<tag k="name" v="Ekkerøy naturreservat" />
		<tag k="ssr:stedsnr" v="273561" />
	</node>
	<node lat="70.06624449322447" lon="29.970578971375318" id="-32640">
		<tag k="leisure" v="marina" />
		<tag k="name" v="Småbåthamn" />
		<tag k="ssr:stedsnr" v="273631" />
	</node>
	<node lat="70.18602227439888" lon="30.342570445464517" id="-32641">
		<tag k="name" v="Neset - Niemi" />
		<tag k="name:fkv" v="Niemi" />
		<tag k="name:no" v="Neset" />
		<tag k="natural" v="cape" />
		<tag k="ssr:stedsnr" v="273643" />
	</node>
	<node lat="70.18804727985003" lon="30.347131567914825" id="-32642">
		<tag k="name" v="Kreetanmukka" />
		<tag k="name:fkv" v="Kreetanmukka" />
		<tag k="natural" v="bay" />
		<tag k="ssr:stedsnr" v="273645" />
	</node>
	<node lat="70.18355283457649" lon="30.317981593578896" id="-32643">
		<tag k="name" v="Eggøya - Munasaari" />
		<tag k="name:fkv" v="Munasaari" />
		<tag k="name:no" v="Eggøya" />
		<tag k="place" v="islet" />
		<tag k="ssr:stedsnr" v="273646" />
	</node>
	<node lat="70.15568894123209" lon="30.352912100774816" id="-32644">
		<tag k="name" v="Nyhavnneset" />
		<tag k="natural" v="cape" />
		<tag k="ssr:stedsnr" v="273730" />
	</node>
	<node lat="70.10543060893241" lon="30.1338761106679" id="-32645">
		<tag k="name" v="Holmvannet" />
		<tag k="natural" v="water" />
		<tag k="ssr:stedsnr" v="273766" />
	</node>
	<node lat="70.0660472746194" lon="29.945109528024638" id="-32648">
		<tag k="alt_name" v="Høivik" />
		<tag k="name" v="Høyvik" />
		<tag k="place" v="hamlet" />
		<tag k="ssr:stedsnr" v="323525" />
	</node>
	<node lat="70.0711000436885" lon="29.71900409750147" id="-32649">
		<tag k="name" v="Skagen" />
		<tag k="natural" v="cape" />
		<tag k="ssr:stedsnr" v="323531" />
	</node>
	<node lat="70.13276394198965" lon="30.165703874971573" id="-32650">
		<tag k="name" v="Laurivannet" />
		<tag k="natural" v="water" />
		<tag k="ssr:stedsnr" v="323552" />
	</node>
	<node lat="70.17010837993838" lon="30.06423174124669" id="-32651">
		<tag k="name" v="Falkorvannet" />
		<tag k="natural" v="water" />
		<tag k="ssr:stedsnr" v="323560" />
	</node>
	<node lat="70.2330028184054" lon="29.84445965847871" id="-32652">
		<tag k="fixme" v="consider natural=peak for the most distinct mountains in the district" />
		<tag k="loc_name:no" v="Falkefjellet" />
		<tag k="name" v="Falkfjellet - Gielas" />
		<tag k="name:no" v="Falkfjellet" />
		<tag k="name:se" v="Gielas" />
		<tag k="natural" v="hill" />
		<tag k="place" v="locality" />
		<tag k="ssr:stedsnr" v="323581" />
	</node>
	<node lat="70.09768338125868" lon="29.569637524707908" id="-32653">
		<tag k="name" v="Bårdslettberget" />
		<tag k="natural" v="hill" />
		<tag k="place" v="locality" />
		<tag k="ssr:stedsnr" v="323615" />
	</node>
	<node lat="70.1251083807882" lon="29.870723502313687" id="-32654">
		<tag k="fixme" v="consider natural=peak for the most distinct mountains in the district" />
		<tag k="name" v="Gammerabben" />
		<tag k="natural" v="hill" />
		<tag k="place" v="locality" />
		<tag k="ssr:stedsnr" v="323622" />
	</node>
	<node lat="70.11951114885716" lon="29.435937606450498" id="-32655">
		<tag k="fixme" v="consider natural=peak for the most distinct mountains in the district" />
		<tag k="name" v="Guovlloaivi" />
		<tag k="name:se" v="Guovlloaivi" />
		<tag k="natural" v="hill" />
		<tag k="old_name:se" v="Guovloaivi, l" />
		<tag k="place" v="locality" />
		<tag k="ssr:stedsnr" v="323625" />
	</node>
	<node lat="70.12005559971593" lon="29.46275426507563" id="-32656">
		<tag k="name" v="Sauvannet" />
		<tag k="natural" v="water" />
		<tag k="ssr:stedsnr" v="323627" />
	</node>
	<node lat="70.14022782624437" lon="29.959565121881326" id="-32657">
		<tag k="name" v="Sabelhaugen" />
		<tag k="natural" v="hill" />
		<tag k="place" v="locality" />
		<tag k="ssr:stedsnr" v="323629" />
	</node>
	<node lat="70.12916671353767" lon="29.93194844690009" id="-32658">
		<tag k="name" v="Mastinjärvi" />
		<tag k="name:fkv" v="Mastinjärvi" />
		<tag k="natural" v="water" />
		<tag k="old_name:fkv" v="Mastijærvi" />
		<tag k="ssr:stedsnr" v="323630" />
	</node>
	<node lat="70.17437504154282" lon="29.62218475063879" id="-32659">
		<tag k="name" v="Stormyra" />
		<tag k="natural" v="wetland" />
		<tag k="ssr:stedsnr" v="323639" />
	</node>
	<node lat="70.13266670539046" lon="29.233687704222273" id="-32660">
		<tag k="name" v="Rundhaug" />
		<tag k="natural" v="hill" />
		<tag k="place" v="locality" />
		<tag k="ssr:stedsnr" v="323643" />
	</node>
	<node lat="70.12001392998951" lon="29.233668266134732" id="-32661">
		<tag k="alt_name" v="Indre Klubben" />
		<tag k="name" v="Klubben" />
		<tag k="old_name" v="Klubben, in" />
		<tag k="place" v="hamlet" />
		<tag k="ssr:stedsnr" v="323653" />
	</node>
	<node lat="70.11426670537021" lon="29.199512721036008" id="-32662">
		<tag k="name" v="Klubbnasen - Murggiidgeahči" />
		<tag k="name:no" v="Klubbnasen" />
		<tag k="name:se" v="Murggiidgeahči" />
		<tag k="natural" v="cape" />
		<tag k="ssr:stedsnr" v="323657" />
	</node>
	<node lat="70.15245004064131" lon="29.24308771839658" id="-32663">
		<tag k="name" v="Brennevinsvannet - Viinijärvi" />
		<tag k="name:fkv" v="Viinijärvi" />
		<tag k="name:no" v="Brennevinsvannet" />
		<tag k="natural" v="water" />
		<tag k="old_name:fkv" v="Vinijærvi" />
		<tag k="ssr:stedsnr" v="323659" />
	</node>
	<node lat="70.28679171006077" lon="29.707437544206634" id="-32664">
		<tag k="name" v="Midtdalen - Stuorra Guovdavággi" />
		<tag k="name:no" v="Midtdalen" />
		<tag k="name:se" v="Stuorra Guovdavággi" />
		<tag k="natural" v="valley" />
		<tag k="old_name:se" v="Guovdavaggi, stuorra" />
		<tag k="place" v="locality" />
		<tag k="ssr:stedsnr" v="323913" />
	</node>
	<node lat="70.3996750319018" lon="29.129187844960907" id="-32665">
		<tag k="name" v="Šáikkastanjohka" />
		<tag k="name:se" v="Šáikkastanjohka" />
		<tag k="old_name:se" v="Šaikastanjåkka" />
		<tag k="ssr:stedsnr" v="323938" />
		<tag k="waterway" v="stream" />
	</node>
	<node lat="70.10969727306234" lon="30.104887225107863" id="-32666">
		<tag k="name" v="Nedre Siribakken" />
		<tag k="natural" v="slope" />
		<tag k="place" v="locality" />
		<tag k="ssr:stedsnr" v="331034" />
	</node>
	<node lat="70.30969170656789" lon="29.895567993735533" id="-32667">
		<tag k="name" v="Guovžagurjohka" />
		<tag k="name:se" v="Guovžagurjohka" />
		<tag k="old_name:se" v="Guovžagurjåkka" />
		<tag k="ssr:stedsnr" v="331850" />
		<tag k="waterway" v="river" />
	</node>
	<node lat="70.13150282014242" lon="29.347893216428485" id="-32668">
		<tag k="name" v="Felleskuru" />
		<tag k="natural" v="valley" />
		<tag k="place" v="locality" />
		<tag k="ssr:stedsnr" v="333085" />
	</node>
	<node lat="70.10738059491426" lon="29.401473716124418" id="-32669">
		<tag k="fixme" v="consider highway=path" />
		<tag k="highway" v="track" />
		<tag k="name" v="Traktorveg" />
		<tag k="ssr:stedsnr" v="333029" />
	</node>
	<node lat="70.08344449160718" lon="29.775290185416587" id="-32670">
		<tag k="name" v="Kuru-gryta" />
		<tag k="natural" v="wetland" />
		<tag k="ssr:stedsnr" v="333227" />
	</node>
	<node lat="70.07751115995653" lon="29.745570759725275" id="-32671">
		<tag k="amenity" v="kindergarten" />
		<tag k="name" v="Maurtua barnehage" />
		<tag k="ssr:stedsnr" v="333142" />
	</node>
	<node lat="70.09099448972208" lon="29.5872958517836" id="-32672">
		<tag k="name" v="Toftebukta" />
		<tag k="natural" v="bay" />
		<tag k="ssr:stedsnr" v="334014" />
	</node>
	<node lat="70.09214170830778" lon="29.572479189826232" id="-32673">
		<tag k="name" v="Kvelven" />
		<tag k="natural" v="bay" />
		<tag k="ssr:stedsnr" v="334015" />
	</node>
	<node lat="70.08323337869386" lon="29.735929101007716" id="-32674">
		<tag k="amenity" v="nursing_home" />
		<tag k="name" v="Vadsø helse- og sosialsenter" />
		<tag k="ssr:stedsnr" v="333279" />
	</node>
	<node lat="70.082100043709" lon="29.723776334515122" id="-32675">
		<tag k="amenity" v="kindergarten" />
		<tag k="name" v="Stubben barnehage" />
		<tag k="ssr:stedsnr" v="333288" />
	</node>
	<node lat="70.14773337318114" lon="29.467332041204987" id="-32676">
		<tag k="name" v="Sumpen" />
		<tag k="natural" v="wetland" />
		<tag k="ssr:stedsnr" v="333983" />
	</node>
	<node lat="70.10224171725504" lon="29.94664289744399" id="-32677">
		<tag k="name" v="Storsletta" />
		<tag k="place" v="locality" />
		<tag k="ssr:stedsnr" v="334272" />
	</node>
	<node lat="70.1197444951859" lon="29.970548428858166" id="-32678">
		<tag k="name" v="Brannsletta" />
		<tag k="place" v="locality" />
		<tag k="ssr:stedsnr" v="334276" />
	</node>
	<node lat="70.09517782586937" lon="30.038820606746178" id="-32679">
		<tag k="name" v="Rautujärvi" />
		<tag k="name:fkv" v="Rautujärvi" />
		<tag k="natural" v="water" />
		<tag k="ssr:stedsnr" v="334390" />
	</node>
	<node lat="70.0659361665338" lon="29.968642847187564" id="-32680">
		<tag k="name" v="Karvosenniemi" />
		<tag k="name:fkv" v="Karvosenniemi" />
		<tag k="natural" v="cape" />
		<tag k="old_name:fkv" v="Garvosenniemi" />
		<tag k="ssr:stedsnr" v="334411" />
	</node>
	<node lat="70.15308616903442" lon="30.273664933860264" id="-32681">
		<tag k="name" v="Turvejärvi" />
		<tag k="name:fkv" v="Turvejärvi" />
		<tag k="natural" v="water" />
		<tag k="ssr:stedsnr" v="334675" />
	</node>
	<node lat="70.14893616312963" lon="30.310442681716555" id="-32682">
		<tag k="name" v="Lilleelva" />
		<tag k="ssr:stedsnr" v="334677" />
		<tag k="waterway" v="stream" />
	</node>
	<node lat="70.12692782846787" lon="30.15507332604939" id="-32683">
		<tag k="barrier" v="fence" />
		<tag k="name" v="Reingjerde" />
		<tag k="ssr:stedsnr" v="334492" />
	</node>
	<node lat="70.19475283159136" lon="30.238653872680256" id="-32684">
		<tag k="name" v="Johinniitty" />
		<tag k="name:fkv" v="Johinniitty" />
		<tag k="place" v="locality" />
		<tag k="ssr:stedsnr" v="334628" />
	</node>
	<node lat="70.19151116550435" lon="30.322676020984925" id="-32685">
		<tag k="highway" v="path" />
		<tag k="name" v="Berrelvvegen" />
		<tag k="ssr:stedsnr" v="334630" />
	</node>
	<node lat="70.1852583847924" lon="30.27159550558034" id="-32686">
		<tag k="name" v="Stillakulpen" />
		<tag k="place" v="locality" />
		<tag k="ssr:stedsnr" v="334636" />
	</node>
	<node lat="70.18356949899434" lon="30.31263712795032" id="-32687">
		<tag k="name" v="Rusefossen - Mertakoski" />
		<tag k="name:fkv" v="Mertakoski" />
		<tag k="name:no" v="Rusefossen" />
		<tag k="ssr:stedsnr" v="334638" />
		<tag k="waterway" v="rapids" />
	</node>
	<node lat="70.20173616631838" lon="30.36757879156551" id="-32688">
		<tag k="name" v="Falkemyrvannet" />
		<tag k="natural" v="water" />
		<tag k="ssr:stedsnr" v="334642" />
	</node>
	<node lat="70.10515283144777" lon="30.182128862271718" id="-32689">
		<tag k="name" v="Jonsihollet" />
		<tag k="natural" v="valley" />
		<tag k="place" v="locality" />
		<tag k="ssr:stedsnr" v="334721" />
	</node>
	<node lat="70.06743615629166" lon="29.769309635562173" id="-32690">
		<tag k="alt_name" v="Kokneset" />
		<tag k="name" v="Kokkenes" />
		<tag k="natural" v="cape" />
		<tag k="ssr:stedsnr" v="383542" />
	</node>
	<node lat="70.1369583717424" lon="29.27058768188975" id="-32691">
		<tag k="alt_name" v="Solvarmyra" />
		<tag k="name" v="Holmfjellmyra" />
		<tag k="natural" v="wetland" />
		<tag k="ssr:stedsnr" v="383634" />
	</node>
	<node lat="70.20039171737682" lon="30.328926034186534" id="-32692">
		<tag k="name" v="Bakmyra" />
		<tag k="natural" v="wetland" />
		<tag k="ssr:stedsnr" v="383588" />
	</node>
	<node lat="70.19876670121782" lon="29.26390993334672" id="-32693">
		<tag k="name" v="Moltebærvannet" />
		<tag k="natural" v="water" />
		<tag k="ssr:stedsnr" v="383750" />
	</node>
	<node lat="70.1220583747634" lon="29.214404377814972" id="-32694">
		<tag k="alt_name" v="Klubbfjell" />
		<tag k="fixme" v="consider natural=peak for the most distinct mountains in the district" />
		<tag k="name" v="Klubbfjellet" />
		<tag k="natural" v="hill" />
		<tag k="place" v="locality" />
		<tag k="ssr:stedsnr" v="383643" />
	</node>
	<node lat="70.12670004128815" lon="29.24614881998106" id="-32695">
		<tag k="alt_name" v="Kortemyrene" />
		<tag k="name" v="Kortemyran" />
		<tag k="natural" v="wetland" />
		<tag k="ssr:stedsnr" v="383644" />
	</node>
	<node lat="70.16457503795003" lon="29.2931487893747" id="-32696">
		<tag k="name" v="Strykan" />
		<tag k="place" v="locality" />
		<tag k="ssr:stedsnr" v="383717" />
	</node>
	<node lat="70.1611139268429" lon="29.40686262677945" id="-32697">
		<tag k="name" v="Holmvannet" />
		<tag k="natural" v="water" />
		<tag k="ssr:stedsnr" v="383720" />
	</node>
	<node lat="70.17716114946955" lon="29.23228494546795" id="-32698">
		<tag k="name" v="Djuphola - Syvähauta" />
		<tag k="name:fkv" v="Syvähauta" />
		<tag k="name:no" v="Djuphola" />
		<tag k="place" v="locality" />
		<tag k="ssr:stedsnr" v="383723" />
	</node>
	<node lat="70.16664725512837" lon="29.267140480481974" id="-32699">
		<tag k="name" v="Kildebekken - Heteoja" />
		<tag k="name:fkv" v="Heteoja" />
		<tag k="name:no" v="Kildebekken" />
		<tag k="ssr:stedsnr" v="383730" />
		<tag k="waterway" v="stream" />
	</node>
	<node lat="70.2647833831248" lon="30.180553916880307" id="-32700">
		<tag k="fixme" v="consider natural=peak for the most distinct mountains in the district" />
		<tag k="name" v="Devja" />
		<tag k="name:se" v="Devja" />
		<tag k="natural" v="hill" />
		<tag k="place" v="locality" />
		<tag k="ssr:stedsnr" v="383937" />
	</node>
	<node lat="70.1548444923039" lon="30.164823335320925" id="-32701">
		<tag k="name" v="Portvannet" />
		<tag k="natural" v="water" />
		<tag k="ssr:stedsnr" v="384524" />
	</node>
	<node lat="70.36533336779831" lon="29.333159957661127" id="-32702">
		<tag k="name" v="Urelva - Juovvajohka" />
		<tag k="name:no" v="Urelva" />
		<tag k="name:se" v="Juovvajohka" />
		<tag k="old_name:se" v="Juovvajåkka;Juovlajohka" />
		<tag k="ssr:stedsnr" v="384529" />
		<tag k="waterway" v="river" />
	</node>
	<node lat="70.15573084009333" lon="30.352197572766727" id="-32703">
		<tag k="name" v="Nyhavn" />
		<tag k="place" v="farm" />
		<tag k="ssr:stedsnr" v="384535" />
	</node>
	<node lat="70.41210558397935" lon="29.15920450153499" id="-32704">
		<tag k="name" v="Georggaláddot" />
		<tag k="name:se" v="Georggaláddot" />
		<tag k="natural" v="water" />
		<tag k="old_name:se" v="Georgaladdut" />
		<tag k="ssr:stedsnr" v="384932" />
	</node>
	<node lat="70.25376114534184" lon="29.3320626907827" id="-32705">
		<tag k="fixme" v="consider natural=peak for the most distinct mountains in the district" />
		<tag k="name" v="Juovva-Goaibeaski" />
		<tag k="name:se" v="Juovva-Goaibeaski" />
		<tag k="natural" v="hill" />
		<tag k="old_name:se" v="Juovva-Goaibæski" />
		<tag k="place" v="locality" />
		<tag k="ssr:stedsnr" v="384980" />
	</node>
	<node lat="70.27871947616022" lon="29.301823841378297" id="-32706">
		<tag k="name" v="Álljeveaiskáidi" />
		<tag k="name:se" v="Álljeveaiskáidi" />
		<tag k="natural" v="cape" />
		<tag k="old_name:se" v="Alljevæjskaidi" />
		<tag k="ssr:stedsnr" v="384984" />
	</node>
	<node lat="70.1099417161438" lon="30.12380111763007" id="-32707">
		<tag k="name" v="Storvannet" />
		<tag k="natural" v="water" />
		<tag k="ssr:stedsnr" v="392909" />
		<tag k="water" v="lake" />
	</node>
	<node lat="70.08154727007013" lon="29.70646246911237" id="-32708">
		<tag k="amenity" v="school" />
		<tag k="name" v="Torsvarden skole" />
		<tag k="ssr:stedsnr" v="394041" />
	</node>
	<node lat="70.09536115279" lon="29.484462584314226" id="-32709">
		<tag k="name" v="Båe" />
		<tag k="place" v="locality" />
		<tag k="seamark:type" v="rock" />
		<tag k="ssr:stedsnr" v="394088" />
	</node>
	<node lat="70.14357781726552" lon="29.32870156084737" id="-32710">
		<tag k="name" v="Smørbakken" />
		<tag k="natural" v="slope" />
		<tag k="place" v="locality" />
		<tag k="ssr:stedsnr" v="394089" />
	</node>
	<node lat="70.07390004887344" lon="29.800117960949905" id="-32711">
		<tag k="name" v="Lomakkaberget" />
		<tag k="natural" v="hill" />
		<tag k="place" v="locality" />
		<tag k="ssr:stedsnr" v="394260" />
	</node>
	<node lat="70.07225282510805" lon="29.884545682176533" id="-32712">
		<tag k="name" v="Måsetua" />
		<tag k="natural" v="hill" />
		<tag k="place" v="locality" />
		<tag k="ssr:stedsnr" v="394268" />
	</node>
	<node lat="70.07453337732481" lon="29.749651312188757" id="-32713">
		<tag k="name" v="Rica Hotel Vadsø" />
		<tag k="ssr:stedsnr" v="394172" />
		<tag k="tourism" v="hotel" />
	</node>
	<node lat="70.06324449275206" lon="29.931562326045558" id="-32714">
		<tag k="alt_name" v="Høivikneset" />
		<tag k="name" v="Høyvikneset" />
		<tag k="natural" v="cape" />
		<tag k="ssr:stedsnr" v="394611" />
	</node>
	<node lat="70.1950806048997" lon="30.16139278538501" id="-32715">
		<tag k="name" v="Blinkkulpen" />
		<tag k="place" v="locality" />
		<tag k="ssr:stedsnr" v="394717" />
	</node>
	<node lat="70.10216949918764" lon="30.188787169315678" id="-32716">
		<tag k="fixme" v="consider seamark:type=rock or natural=shoal" />
		<tag k="name" v="Flua" />
		<tag k="place" v="islet" />
		<tag k="ssr:stedsnr" v="394726" />
	</node>
	<node lat="70.06939171664993" lon="29.952401197223097" id="-32717">
		<tag k="name" v="Siljamaa" />
		<tag k="name:fkv" v="Siljamaa" />
		<tag k="place" v="locality" />
		<tag k="ssr:stedsnr" v="394440" />
	</node>
	<node lat="70.06686116168491" lon="29.961590067627455" id="-32718">
		<tag k="name" v="Skolemyra" />
		<tag k="natural" v="wetland" />
		<tag k="ssr:stedsnr" v="394449" />
	</node>
	<node lat="70.07034449751293" lon="30.095976104690543" id="-32719">
		<tag k="landuse" v="harbour" />
		<tag k="name" v="Hamna" />
		<tag k="seamark:type" v="harbour" />
		<tag k="ssr:stedsnr" v="394556" />
	</node>
	<node lat="70.07756116249222" lon="30.12132330683656" id="-32720">
		<tag k="name" v="Varbukta" />
		<tag k="natural" v="bay" />
		<tag k="ssr:stedsnr" v="394562" />
	</node>
	<node lat="70.09774172015116" lon="30.09864279254132" id="-32721">
		<tag k="name" v="Tverrelva" />
		<tag k="ssr:stedsnr" v="394570" />
		<tag k="waterway" v="stream" />
	</node>
	<node lat="70.08898616013609" lon="30.06435947196519" id="-32722">
		<tag k="highway" v="path" />
		<tag k="name" v="Keitavegen" />
		<tag k="ssr:stedsnr" v="394571" />
	</node>
	<node lat="70.07268595730152" lon="30.02602641100068" id="-32723">
		<tag k="fixme" v="consider place=hamlet" />
		<tag k="name" v="Sisäpää" />
		<tag k="name:fkv" v="Sisäpää" />
		<tag k="place" v="village" />
		<tag k="ssr:stedsnr" v="394578" />
	</node>
	<node lat="70.15401393066969" lon="29.440059828589817" id="-32724">
		<tag k="name" v="Hjertevannet" />
		<tag k="natural" v="water" />
		<tag k="ssr:stedsnr" v="394956" />
	</node>
	<node lat="70.15986670580476" lon="29.449651494554313" id="-32725">
		<tag k="name" v="Osvaldmyra - Kurujänkkä" />
		<tag k="name:fkv" v="Kurujänkkä" />
		<tag k="name:no" v="Osvaldmyra" />
		<tag k="natural" v="wetland" />
		<tag k="old_name:fkv" v="Gurrujänkkä" />
		<tag k="ssr:stedsnr" v="394957" />
	</node>
	<node lat="70.0614000468137" lon="29.924753997637097" id="-32727">
		<tag k="alt_name" v="Sjåbusgrunnen" />
		<tag k="name" v="Skjåbugrunnen" />
		<tag k="natural" v="shoal" />
		<tag k="place" v="locality" />
		<tag k="ssr:stedsnr" v="444497" />
	</node>
	<node lat="70.16853059440443" lon="29.326390446398765" id="-32728">
		<tag k="name" v="Gjelhaugbekken" />
		<tag k="ssr:stedsnr" v="444714" />
		<tag k="waterway" v="stream" />
	</node>
	<node lat="70.14667503482084" lon="29.359279329552784" id="-32729">
		<tag k="name" v="Oksemyra" />
		<tag k="natural" v="wetland" />
		<tag k="ssr:stedsnr" v="444637" />
	</node>
	<node lat="70.19055281493699" lon="29.339957123206002" id="-32730">
		<tag k="fixme" v="consider natural=peak for the most distinct mountains in the district" />
		<tag k="name" v="Gubbfjellet" />
		<tag k="natural" v="hill" />
		<tag k="place" v="locality" />
		<tag k="ssr:stedsnr" v="444736" />
	</node>
	<node lat="70.09801671197661" lon="29.848504054695614" id="-32731">
		<tag k="alt_name" v="Skjåbustelva" />
		<tag k="name" v="Sjåbuselva" />
		<tag k="ssr:stedsnr" v="445616" />
		<tag k="waterway" v="river" />
	</node>
	<node lat="70.117069491758" lon="29.769217980847138" id="-32732">
		<tag k="name" v="Byvasshøgda - Dápmotčorru" />
		<tag k="name:no" v="Byvasshøgda" />
		<tag k="name:se" v="Dápmotčorru" />
		<tag k="natural" v="hill" />
		<tag k="old_name:se" v="Dabmutčårro" />
		<tag k="place" v="locality" />
		<tag k="ssr:stedsnr" v="445636" />
	</node>
	<node lat="70.15630838375364" lon="29.990573439949767" id="-32733">
		<tag k="name" v="Rundvannet" />
		<tag k="natural" v="water" />
		<tag k="ssr:stedsnr" v="445648" />
	</node>
	<node lat="70.27387504721882" lon="30.04533735638302" id="-32734">
		<tag k="name" v="Skallelvskardet - Guovdovákkerohči" />
		<tag k="name:no" v="Skallelvskardet" />
		<tag k="name:se" v="Guovdovákkerohči" />
		<tag k="natural" v="valley" />
		<tag k="old_name:se" v="Guovduvaggeråčči" />
		<tag k="place" v="locality" />
		<tag k="ssr:stedsnr" v="445922" />
	</node>
	<node lat="70.38382781384698" lon="29.364759944064485" id="-32735">
		<tag k="name" v="Tørrvedelva - Goikemuorjohka" />
		<tag k="name:no" v="Tørrvedelva" />
		<tag k="name:se" v="Goikemuorjohka" />
		<tag k="old_name:se" v="Gåikemuorjåkka;Guoikemuorjohka" />
		<tag k="ssr:stedsnr" v="445999" />
		<tag k="waterway" v="river" />
	</node>
	<node lat="70.18810836786145" lon="29.26867658874428" id="-32736">
		<tag k="alt_name:no" v="Hammerdalen" />
		<tag k="name" v="Hammardalen - Hamarinkuru" />
		<tag k="name:fkv" v="Hamarinkuru" />
		<tag k="name:no" v="Hammardalen" />
		<tag k="natural" v="valley" />
		<tag k="place" v="locality" />
		<tag k="ssr:stedsnr" v="504750" />
	</node>
	<node lat="70.07486672091765" lon="30.132617749912736" id="-32737">
		<tag k="fixme" v="multiple name tags, choose one and add the other to alt_name" />
		<tag k="name" v="Ekkerøya;Store Ekkerøya - Ekrea" />
		<tag k="name:fkv" v="Ekrea" />
		<tag k="name:no" v="Ekkerøya;Store Ekkerøya" />
		<tag k="place" v="island" />
		<tag k="ssr:stedsnr" v="505482" />
	</node>
	<node lat="70.09216116229058" lon="29.799817966064154" id="-32738">
		<tag k="name" v="Andevannet" />
		<tag k="natural" v="water" />
		<tag k="ssr:stedsnr" v="505531" />
	</node>
	<node lat="70.08120004689175" lon="29.973673414585953" id="-32739">
		<tag k="name" v="Monstad" />
		<tag k="place" v="locality" />
		<tag k="ssr:stedsnr" v="505533" />
	</node>
	<node lat="70.12354450082293" lon="30.2620815771241" id="-32740">
		<tag k="name" v="Falkelva" />
		<tag k="ssr:stedsnr" v="505538" />
		<tag k="waterway" v="stream" />
	</node>
	<node lat="70.11730283357157" lon="30.227648281244544" id="-32741">
		<tag k="name" v="Jamteberget" />
		<tag k="natural" v="cape" />
		<tag k="ssr:stedsnr" v="505540" />
	</node>
	<node lat="70.14636671824177" lon="30.11084835919656" id="-32742">
		<tag k="name" v="Store Valavannet" />
		<tag k="natural" v="water" />
		<tag k="ssr:stedsnr" v="505549" />
		<tag k="water" v="lake" />
	</node>
	<node lat="70.32535004170224" lon="29.49495986483027" id="-32743">
		<tag k="name" v="Golggotjohka" />
		<tag k="name:se" v="Golggotjohka" />
		<tag k="old_name:se" v="Gålgutjåkka" />
		<tag k="ssr:stedsnr" v="505553" />
		<tag k="waterway" v="river" />
	</node>
	<node lat="70.16744727849989" lon="30.337973233990937" id="-32744">
		<tag k="name" v="Skallbukta" />
		<tag k="natural" v="bay" />
		<tag k="ssr:stedsnr" v="505558" />
	</node>
	<node lat="70.14906671734411" lon="29.971301214753733" id="-32745">
		<tag k="name" v="Sabelhaugvannet" />
		<tag k="natural" v="water" />
		<tag k="ssr:stedsnr" v="505628" />
	</node>
	<node lat="70.1454167069752" lon="29.500682032313453" id="-32746">
		<tag k="name" v="Suottarvuopmi" />
		<tag k="name:se" v="Suottarvuopmi" />
		<tag k="natural" v="valley" />
		<tag k="old_name:se" v="Suoddarvuobmi" />
		<tag k="place" v="locality" />
		<tag k="ssr:stedsnr" v="505629" />
	</node>
	<node lat="70.13092781198057" lon="29.279090469693692" id="-32747">
		<tag k="fixme" v="consider natural=peak for the most distinct mountains in the district" />
		<tag k="name" v="Lankovaara" />
		<tag k="name:fkv" v="Lankovaara" />
		<tag k="natural" v="hill" />
		<tag k="old_name:fkv" v="Langovara" />
		<tag k="place" v="locality" />
		<tag k="ssr:stedsnr" v="505650" />
	</node>
	<node lat="70.39940836297868" lon="29.18705446829371" id="-32748">
		<tag k="fixme" v="consider natural=peak for the most distinct mountains in the district" />
		<tag k="name" v="Vuomašoaivi" />
		<tag k="name:se" v="Vuomašoaivi" />
		<tag k="natural" v="hill" />
		<tag k="place" v="locality" />
		<tag k="ssr:stedsnr" v="505924" />
	</node>
	<node lat="70.4425111399324" lon="29.214040599723695" id="-32749">
		<tag k="name" v="Svanevannan - Njukčajávrrit" />
		<tag k="name:no" v="Svanevannan" />
		<tag k="name:se" v="Njukčajávrrit" />
		<tag k="natural" v="water" />
		<tag k="old_name:se" v="Njukčajavrit" />
		<tag k="ssr:stedsnr" v="505937" />
		<tag k="water" v="lake" />
	</node>
	<node lat="70.48375003306245" lon="29.54015713483775" id="-32750">
		<tag k="name" v="Varangerhalvøya - Várnjárga - Varenkinniemi" />
		<tag k="name:fkv" v="Varenkinniemi" />
		<tag k="name:no" v="Varangerhalvøya" />
		<tag k="name:se" v="Várnjárga" />
		<tag k="natural" v="cape" />
		<tag k="ssr:stedsnr" v="506029" />
	</node>
	<node lat="70.1108111502541" lon="29.32388765870949" id="-32751">
		<tag k="name" v="Øra" />
		<tag k="natural" v="scree" />
		<tag k="ssr:stedsnr" v="515058" />
	</node>
	<node lat="70.14176948131683" lon="29.32559321842305" id="-32752">
		<tag k="name" v="Smørbakkmyra" />
		<tag k="natural" v="wetland" />
		<tag k="ssr:stedsnr" v="515125" />
	</node>
	<node lat="70.10295005240667" lon="30.18880107396893" id="-32753">
		<tag k="name" v="Neset" />
		<tag k="natural" v="cape" />
		<tag k="ssr:stedsnr" v="516740" />
	</node>
	<node lat="70.0615361587905" lon="29.854890147478077" id="-32754">
		<tag k="name" v="Renna" />
		<tag k="natural" v="bay" />
		<tag k="ssr:stedsnr" v="516297" />
	</node>
	<node lat="70.06298615699168" lon="29.878026241519077" id="-32755">
		<tag k="name" v="Vargemyra" />
		<tag k="natural" v="wetland" />
		<tag k="ssr:stedsnr" v="516300" />
	</node>
	<node lat="70.07463615467503" lon="29.741823550546357" id="-32756">
		<tag k="man_made" v="quay" />
		<tag k="name" v="Fiskerikai" />
		<tag k="place" v="locality" />
		<tag k="ssr:stedsnr" v="516194" />
	</node>
	<node lat="70.08537227351246" lon="29.980848411669026" id="-32757">
		<tag k="name" v="Eevanjänkä" />
		<tag k="name:fkv" v="Eevanjänkä" />
		<tag k="natural" v="wetland" />
		<tag k="old_name:fkv" v="Eevanjänkkä" />
		<tag k="ssr:stedsnr" v="516387" />
	</node>
	<node lat="70.07563338742841" lon="30.03409281754095" id="-32758">
		<tag k="fixme" v="consider highway=path" />
		<tag k="highway" v="track" />
		<tag k="name" v="Talvitie" />
		<tag k="name:fkv" v="Talvitie" />
		<tag k="ssr:stedsnr" v="516399" />
	</node>
	<node lat="70.07056672088824" lon="30.13406220354043" id="-32759">
		<tag k="name" v="Skarvskitnasen" />
		<tag k="natural" v="cliff" />
		<tag k="ssr:stedsnr" v="516545" />
	</node>
	<node lat="70.07610560429235" lon="30.103812226015414" id="-32760">
		<tag k="name" v="Været" />
		<tag k="place" v="hamlet" />
		<tag k="ssr:stedsnr" v="516547" />
	</node>
	<node lat="70.07196949387738" lon="30.10940388054666" id="-32761">
		<tag k="fixme" v="consider natural=peak for the most distinct mountains in the district" />
		<tag k="name" v="Varden" />
		<tag k="natural" v="hill" />
		<tag k="place" v="locality" />
		<tag k="ssr:stedsnr" v="516550" />
	</node>
	<node lat="70.18587504808099" lon="30.291859385630413" id="-32762">
		<tag k="name" v="Reidar Olsenkulpen" />
		<tag k="place" v="locality" />
		<tag k="ssr:stedsnr" v="516633" />
	</node>
	<node lat="70.11445005381627" lon="30.14009278059425" id="-32763">
		<tag k="name" v="Richardsletthaugen" />
		<tag k="natural" v="hill" />
		<tag k="place" v="locality" />
		<tag k="ssr:stedsnr" v="516496" />
	</node>
	<node lat="70.07089727286768" lon="30.020190059821694" id="-32764">
		<tag k="name" v="Pikkujärvenniemi" />
		<tag k="name:fkv" v="Pikkujärvenniemi" />
		<tag k="natural" v="cape" />
		<tag k="ssr:stedsnr" v="516579" />
	</node>
	<node lat="70.06877505451496" lon="30.00130674030446" id="-32765">
		<tag k="name" v="Peder-sitt-nes" />
		<tag k="natural" v="cape" />
		<tag k="ssr:stedsnr" v="516582" />
	</node>
	<node lat="70.0692167155808" lon="29.983423398596695" id="-32766">
		<tag k="alt_name" v="Halsen" />
		<tag k="name" v="Salttjernbakken" />
		<tag k="natural" v="slope" />
		<tag k="place" v="locality" />
		<tag k="ssr:stedsnr" v="516599" />
	</node>
	<node lat="70.08648337260009" lon="29.60192362665605" id="-32767">
		<tag k="name" v="Makkstein" />
		<tag k="place" v="locality" />
		<tag k="seamark:type" v="rock" />
		<tag k="ssr:stedsnr" v="534990" />
	</node>
	<node lat="70.10402225884667" lon="29.392918173495914" id="-32768">
		<tag k="alt_name:no" v="Karielmyra" />
		<tag k="name" v="Kargilmyra - Gárjiljeakkit" />
		<tag k="name:no" v="Kargilmyra" />
		<tag k="name:se" v="Gárjiljeakkit" />
		<tag k="natural" v="wetland" />
		<tag k="ssr:stedsnr" v="564660" />
	</node>
	<node lat="70.06738060579391" lon="29.970912283511716" id="-32769">
		<tag k="alt_name:no" v="Salttjern, store;Salttjern" />
		<tag k="name" v="Store Salttjern - Sáltejávri - Salttijärvi" />
		<tag k="name:fkv" v="Salttijärvi" />
		<tag k="name:no" v="Store Salttjern" />
		<tag k="name:se" v="Sáltejávri" />
		<tag k="place" v="hamlet" />
		<tag k="ssr:stedsnr" v="565518" />
	</node>
	<node lat="70.08334171920397" lon="29.924190116354637" id="-32770">
		<tag k="fixme" v="multiple name tags, choose one and add the other to alt_name" />
		<tag k="name" v="Lille Monstadvannet;Lille Akslavannet" />
		<tag k="natural" v="water" />
		<tag k="ssr:stedsnr" v="565519" />
	</node>
	<node lat="70.0916583795695" lon="29.92430399652306" id="-32771">
		<tag k="name" v="Langsmedvannet" />
		<tag k="natural" v="water" />
		<tag k="ssr:stedsnr" v="565522" />
		<tag k="water" v="lake" />
	</node>
	<node lat="70.08617504971379" lon="29.640006935107515" id="-32772">
		<tag k="alt_name" v="Laksbukta" />
		<tag k="name" v="Laksebubukta" />
		<tag k="natural" v="bay" />
		<tag k="ssr:stedsnr" v="565531" />
	</node>
	<node lat="70.18828892119416" lon="29.189473854533507" id="-32773">
		<tag k="name" v="Aldonneset" />
		<tag k="natural" v="cape" />
		<tag k="ssr:stedsnr" v="565763" />
	</node>
	<node lat="70.18524725733172" lon="29.28907103759371" id="-32774">
		<tag k="name" v="Flintelva" />
		<tag k="ssr:stedsnr" v="565769" />
		<tag k="waterway" v="river" />
	</node>
	<node lat="70.22043059004042" lon="29.3919293295576" id="-32775">
		<tag k="fixme" v="consider natural=peak for the most distinct mountains in the district" />
		<tag k="name" v="Reinelvfjellet" />
		<tag k="natural" v="hill" />
		<tag k="place" v="locality" />
		<tag k="ssr:stedsnr" v="565751" />
	</node>
	<node lat="70.21588614670742" lon="29.31645991123584" id="-32776">
		<tag k="name" v="Reinelvdalen" />
		<tag k="natural" v="valley" />
		<tag k="place" v="locality" />
		<tag k="ssr:stedsnr" v="565754" />
	</node>
	<node lat="70.43999169138736" lon="29.08707675614424" id="-32777">
		<tag k="fixme" v="consider natural=peak for the most distinct mountains in the district" />
		<tag k="name" v="Doaresčearru" />
		<tag k="name:se" v="Doaresčearru" />
		<tag k="natural" v="hill" />
		<tag k="old_name:se" v="Doaresčærro" />
		<tag k="place" v="locality" />
		<tag k="ssr:stedsnr" v="565945" />
	</node>
	<node lat="70.14662505899061" lon="30.303667688871982" id="-32778">
		<tag k="fixme" v="multiple name tags, choose one and add the other to alt_name" />
		<tag k="name" v="Torvmyrvannet - Kivijärvi;Turvejärvi" />
		<tag k="name:fkv" v="Kivijärvi;Turvejärvi" />
		<tag k="name:no" v="Torvmyrvannet" />
		<tag k="natural" v="water" />
		<tag k="old_name:fkv" v="Dorvejærvi" />
		<tag k="ssr:stedsnr" v="566541" />
	</node>
	<node lat="70.17750282559858" lon="30.085937263948853" id="-32779">
		<tag k="fixme" v="consider natural=peak for the most distinct mountains in the district" />
		<tag k="name" v="Falkor" />
		<tag k="natural" v="hill" />
		<tag k="place" v="locality" />
		<tag k="ssr:stedsnr" v="566547" />
	</node>
	<node lat="70.19450005033075" lon="30.32227881549595" id="-32780">
		<tag k="alt_name:no" v="Lommemyra" />
		<tag k="name" v="Lomemyra - Kaakkurijänkkä" />
		<tag k="name:fkv" v="Kaakkurijänkkä" />
		<tag k="name:no" v="Lomemyra" />
		<tag k="natural" v="wetland" />
		<tag k="ssr:stedsnr" v="566555" />
	</node>
	<node lat="70.08384726304912" lon="29.664431929281328" id="-32781">
		<tag k="name" v="Nakannokka" />
		<tag k="name:fkv" v="Nakannokka" />
		<tag k="natural" v="slope" />
		<tag k="place" v="locality" />
		<tag k="ssr:stedsnr" v="576001" />
	</node>
	<node lat="70.16628336953788" lon="29.278065471321888" id="-32782">
		<tag k="name" v="Elvesvingen - Jokimukka" />
		<tag k="name:fkv" v="Jokimukka" />
		<tag k="name:no" v="Elvesvingen" />
		<tag k="natural" v="water" />
		<tag k="ssr:stedsnr" v="576023" />
		<tag k="water" v="lake" />
	</node>
	<node lat="70.09689171455828" lon="29.735465227072588" id="-32783">
		<tag k="highway" v="path" />
		<tag k="name" v="Svanevassvegen" />
		<tag k="ssr:stedsnr" v="576040" />
	</node>
	<node lat="70.11458337147425" lon="29.317129331705143" id="-32784">
		<tag k="name" v="Vestsida" />
		<tag k="place" v="hamlet" />
		<tag k="ssr:stedsnr" v="576065" />
	</node>
	<node lat="70.1201389322116" lon="29.320029326292172" id="-32785">
		<tag k="name" v="Brokulpen" />
		<tag k="place" v="locality" />
		<tag k="ssr:stedsnr" v="576068" />
	</node>
	<node lat="70.11937226464246" lon="29.32911822238652" id="-32786">
		<tag k="name" v="Lilledalen" />
		<tag k="natural" v="valley" />
		<tag k="place" v="locality" />
		<tag k="ssr:stedsnr" v="576073" />
	</node>
	<node lat="70.06458060464982" lon="29.939959544601745" id="-32787">
		<tag k="alt_name" v="Høivikbukta" />
		<tag k="name" v="Høyvikbukta" />
		<tag k="natural" v="bay" />
		<tag k="ssr:stedsnr" v="576621" />
	</node>
	<node lat="70.18613616063922" lon="30.334012135671568" id="-32788">
		<tag k="landuse" v="harbour" />
		<tag k="name" v="Hamn" />
		<tag k="seamark:type" v="harbour" />
		<tag k="ssr:stedsnr" v="576636" />
	</node>
	<node lat="70.13162503902227" lon="29.319943232913044" id="-32789">
		<tag k="name" v="Skolemyra" />
		<tag k="natural" v="wetland" />
		<tag k="ssr:stedsnr" v="576082" />
	</node>
	<node lat="70.10889449333725" lon="29.91816789927787" id="-32790">
		<tag k="name" v="Hansenslåtta" />
		<tag k="place" v="locality" />
		<tag k="ssr:stedsnr" v="576289" />
	</node>
	<node lat="70.07775838375342" lon="29.74942076911769" id="-32791">
		<tag k="building" v="commercial" />
		<tag k="name" v="Norsk Rikskringkasting" />
		<tag k="ssr:stedsnr" v="576131" />
	</node>
	<node lat="70.08113615940341" lon="29.933090115115984" id="-32792">
		<tag k="name" v="Monstanmatala" />
		<tag k="name:fkv" v="Monstanmatala" />
		<tag k="old_name:fkv" v="Monstamaatala" />
		<tag k="place" v="locality" />
		<tag k="ssr:stedsnr" v="576475" />
	</node>
	<node lat="70.07818060647654" lon="29.92843454098711" id="-32793">
		<tag k="name" v="Ankelinpirtti" />
		<tag k="name:fkv" v="Ankelinpirtti" />
		<tag k="place" v="locality" />
		<tag k="ssr:stedsnr" v="576476" />
	</node>
	<node lat="70.0739056142829" lon="30.112642765651188" id="-32794">
		<tag k="name" v="Trettebakken" />
		<tag k="natural" v="slope" />
		<tag k="place" v="locality" />
		<tag k="ssr:stedsnr" v="576567" />
	</node>
	<node lat="70.07805838362145" lon="30.12979832301683" id="-32795">
		<tag k="name" v="Sandvika" />
		<tag k="natural" v="bay" />
		<tag k="ssr:stedsnr" v="576574" />
	</node>
	<node lat="70.0861306089547" lon="30.095751110938878" id="-32796">
		<tag k="fixme" v="consider seamark:type=rock or natural=shoal" />
		<tag k="name" v="Krokskjæret" />
		<tag k="place" v="islet" />
		<tag k="ssr:stedsnr" v="576586" />
	</node>
	<node lat="70.08841116072915" lon="30.070620572472524" id="-32797">
		<tag k="name" v="Skjervebakken" />
		<tag k="natural" v="slope" />
		<tag k="place" v="locality" />
		<tag k="ssr:stedsnr" v="576592" />
	</node>
	<node lat="70.07555004777224" lon="29.937617868893934" id="-32798">
		<tag k="name" v="Midtmyra" />
		<tag k="natural" v="wetland" />
		<tag k="ssr:stedsnr" v="576437" />
	</node>
	<node lat="70.07696393630513" lon="29.950451207242015" id="-32799">
		<tag k="name" v="Mellommyra" />
		<tag k="natural" v="wetland" />
		<tag k="ssr:stedsnr" v="576438" />
	</node>
	<node lat="70.10569171553841" lon="30.10194002195326" id="-32800">
		<tag k="name" v="Konrad-si-myr" />
		<tag k="natural" v="wetland" />
		<tag k="ssr:stedsnr" v="576519" />
	</node>
	<node lat="70.11755838877738" lon="30.184217751610866" id="-32801">
		<tag k="highway" v="path" />
		<tag k="name" v="Falkelvvegen" />
		<tag k="ssr:stedsnr" v="576528" />
	</node>
	<node lat="70.12189449659371" lon="30.223378826161063" id="-32802">
		<tag k="alt_name" v="Flåget" />
		<tag k="name" v="Floget" />
		<tag k="natural" v="cliff" />
		<tag k="ssr:stedsnr" v="576531" />
	</node>
	<node lat="70.14661949619712" lon="30.325975998995137" id="-32803">
		<tag k="name" v="Pikku Turvejänkkä" />
		<tag k="name:fkv" v="Pikku Turvejänkkä" />
		<tag k="natural" v="wetland" />
		<tag k="ssr:stedsnr" v="576723" />
	</node>
	<node lat="70.2042639377025" lon="30.182745562595095" id="-32804">
		<tag k="name" v="Brentsletta" />
		<tag k="place" v="locality" />
		<tag k="ssr:stedsnr" v="576753" />
	</node>
	<node lat="70.1076972749474" lon="30.193487172114892" id="-32805">
		<tag k="name" v="Haugen" />
		<tag k="natural" v="hill" />
		<tag k="place" v="locality" />
		<tag k="ssr:stedsnr" v="576758" />
	</node>
	<node lat="70.1539833725975" lon="29.48083482785126" id="-32806">
		<tag k="name" v="Varjejok" />
		<tag k="natural" v="wetland" />
		<tag k="ssr:stedsnr" v="576985" />
	</node>
	<node lat="70.10135559475967" lon="29.426909818273987" id="-32807">
		<tag k="name" v="Paddebymyra" />
		<tag k="natural" v="wetland" />
		<tag k="ssr:stedsnr" v="576989" />
	</node>
	<node lat="70.0982000362884" lon="29.39546539770168" id="-32808">
		<tag k="alt_name" v="Halsen, yt" />
		<tag k="name" v="Ytre Halsen" />
		<tag k="place" v="isolated_dwelling" />
		<tag k="ssr:stedsnr" v="625681" />
	</node>
	<node lat="70.21222227901853" lon="30.4508176332785" id="-32809">
		<tag k="fixme" v="consider natural=peak for the most distinct mountains in the district" />
		<tag k="name" v="Komaghalsen - Skáraskáidi" />
		<tag k="name:no" v="Komaghalsen" />
		<tag k="name:se" v="Skáraskáidi" />
		<tag k="natural" v="hill" />
		<tag k="old_name:se" v="Skaraskaidi" />
		<tag k="place" v="locality" />
		<tag k="ssr:stedsnr" v="626535" />
	</node>
	<node lat="70.22567505247902" lon="30.157417821482838" id="-32810">
		<tag k="name" v="Bukselårelva - Housunsäärijoki" />
		<tag k="name:fkv" v="Housunsäärijoki" />
		<tag k="name:no" v="Bukselårelva" />
		<tag k="old_name:fkv" v="Håusonsærijåki" />
		<tag k="ssr:stedsnr" v="626543" />
		<tag k="waterway" v="stream" />
	</node>
	<node lat="70.10840837696153" lon="29.617959735489077" id="-32811">
		<tag k="fixme" v="multiple name tags, choose one and add the other to alt_name" />
		<tag k="name" v="Lillevannet;Lille Andersbyvannet" />
		<tag k="natural" v="water" />
		<tag k="ssr:stedsnr" v="626631" />
	</node>
	<node lat="70.14233894301667" lon="30.06159839440452" id="-32812">
		<tag k="name" v="Lille Bondevannet" />
		<tag k="natural" v="water" />
		<tag k="ssr:stedsnr" v="626566" />
	</node>
	<node lat="70.11311670775399" lon="29.484123688455185" id="-32813">
		<tag k="name" v="Makkvannan" />
		<tag k="natural" v="water" />
		<tag k="ssr:stedsnr" v="626633" />
		<tag k="water" v="lake" />
	</node>
	<node lat="70.12428059861634" lon="29.459623702199885" id="-32814">
		<tag k="name" v="Steinvannet" />
		<tag k="natural" v="water" />
		<tag k="ssr:stedsnr" v="626635" />
	</node>
	<node lat="70.28183892552482" lon="29.646562562775063" id="-32815">
		<tag k="fixme" v="consider natural=peak for the most distinct mountains in the district" />
		<tag k="name" v="Midthaugen - Guovdoaivi" />
		<tag k="name:no" v="Midthaugen" />
		<tag k="name:se" v="Guovdoaivi" />
		<tag k="natural" v="hill" />
		<tag k="place" v="locality" />
		<tag k="ssr:stedsnr" v="626919" />
	</node>
	<node lat="70.117625039657" lon="29.249859919295435" id="-32816">
		<tag k="name" v="Dážabákti" />
		<tag k="name:se" v="Dážabákti" />
		<tag k="natural" v="hill" />
		<tag k="place" v="locality" />
		<tag k="ssr:stedsnr" v="636101" />
	</node>
	<node lat="70.17738615115523" lon="29.246584932347925" id="-32817">
		<tag k="name" v="Djupholmyra - Syvähautanjänkkä" />
		<tag k="name:fkv" v="Syvähautanjänkkä" />
		<tag k="name:no" v="Djupholmyra" />
		<tag k="natural" v="wetland" />
		<tag k="ssr:stedsnr" v="636048" />
	</node>
	<node lat="70.08113894537117" lon="30.04985114789489" id="-32818">
		<tag k="fixme" v="consider natural=peak for the most distinct mountains in the district" />
		<tag k="name" v="Aksla" />
		<tag k="natural" v="hill" />
		<tag k="place" v="locality" />
		<tag k="ssr:stedsnr" v="636417" />
	</node>
	<node lat="70.07791671925953" lon="30.11263722646207" id="-32819">
		<tag k="name" v="Varnes" />
		<tag k="natural" v="cape" />
		<tag k="ssr:stedsnr" v="636591" />
	</node>
	<node lat="70.07262781995136" lon="29.719295783414466" id="-32820">
		<tag k="landuse" v="harbour" />
		<tag k="name" v="Molokroken" />
		<tag k="seamark:type" v="harbour" />
		<tag k="ssr:stedsnr" v="636173" />
	</node>
	<node lat="70.06878338272801" lon="29.966942849411033" id="-32821">
		<tag k="name" v="Saunabakken" />
		<tag k="natural" v="slope" />
		<tag k="place" v="locality" />
		<tag k="ssr:stedsnr" v="636438" />
	</node>
	<node lat="70.07508060309334" lon="29.98552895874403" id="-32822">
		<tag k="name" v="Sandbakkbekken" />
		<tag k="ssr:stedsnr" v="636638" />
		<tag k="waterway" v="stream" />
	</node>
	<node lat="70.06545282676574" lon="29.95344563096307" id="-32823">
		<tag k="name" v="Sonninhinkalo" />
		<tag k="name:fkv" v="Sonninhinkalo" />
		<tag k="natural" v="hill" />
		<tag k="place" v="locality" />
		<tag k="ssr:stedsnr" v="636641" />
	</node>
	<node lat="70.07432505024326" lon="30.02871782270238" id="-32824">
		<tag k="amenity" v="community_centre" />
		<tag k="name" v="Grendehus" />
		<tag k="ssr:stedsnr" v="636611" />
	</node>
	<node lat="70.1569778135292" lon="29.32022379015207" id="-32825">
		<tag k="name" v="Fossen" />
		<tag k="ssr:stedsnr" v="636940" />
		<tag k="waterway" v="rapids" />
	</node>
	<node lat="70.06104171163105" lon="29.904951230011932" id="-32826">
		<tag k="name" v="Pikkukari" />
		<tag k="name:fkv" v="Pikkukari" />
		<tag k="natural" v="beach" />
		<tag k="ssr:stedsnr" v="636649" />
	</node>
	<node lat="70.09490004119186" lon="29.417384817493875" id="-32827">
		<tag k="name" v="Paddebynes" />
		<tag k="natural" v="cape" />
		<tag k="ssr:stedsnr" v="636989" />
	</node>
	<node lat="70.07632782203962" lon="29.793101295033278" id="-32828">
		<tag k="amenity" v="school" />
		<tag k="name" v="Melkevarden skole" />
		<tag k="ssr:stedsnr" v="637374" />
	</node>
	<node lat="70.06362782707495" lon="29.837923485732997" id="-32829">
		<tag k="name" v="Storebakken" />
		<tag k="natural" v="slope" />
		<tag k="place" v="locality" />
		<tag k="ssr:stedsnr" v="637321" />
	</node>
	<node lat="70.08404171556292" lon="29.964226194053" id="-32830">
		<tag k="name" v="Valen - Kaulanne" />
		<tag k="name:fkv" v="Kaulanne" />
		<tag k="name:no" v="Valen" />
		<tag k="old_name:fkv" v="Kaulanen" />
		<tag k="place" v="locality" />
		<tag k="ssr:stedsnr" v="637487" />
	</node>
	<node lat="70.19788616392786" lon="30.27619272992992" id="-32831">
		<tag k="name" v="Tilleri" />
		<tag k="name:fkv" v="Tilleri" />
		<tag k="old_name:fkv" v="Dilleri" />
		<tag k="place" v="locality" />
		<tag k="ssr:stedsnr" v="637682" />
	</node>
	<node lat="70.1082722740845" lon="30.18192051712681" id="-32832">
		<tag k="name" v="Raet" />
		<tag k="natural" v="ridge" />
		<tag k="place" v="locality" />
		<tag k="ssr:stedsnr" v="637748" />
	</node>
	<node lat="70.10275282726082" lon="30.135053877607263" id="-32833">
		<tag k="name" v="Storelvbakken" />
		<tag k="natural" v="slope" />
		<tag k="place" v="locality" />
		<tag k="ssr:stedsnr" v="637555" />
	</node>
	<node lat="70.1935722757972" lon="30.238414978925206" id="-32834">
		<tag k="name" v="Perinniitty" />
		<tag k="name:fkv" v="Perinniitty" />
		<tag k="place" v="locality" />
		<tag k="ssr:stedsnr" v="637664" />
	</node>
	<node lat="70.11471392971174" lon="29.198962712398757" id="-32835">
		<tag k="alt_name:se" v="Murggiid" />
		<tag k="name" v="Murgget" />
		<tag k="name:se" v="Murgget" />
		<tag k="natural" v="hill" />
		<tag k="old_name:se" v="Murget" />
		<tag k="place" v="locality" />
		<tag k="ssr:stedsnr" v="716388" />
	</node>
	<node lat="70.12963892949787" lon="29.327026564765106" id="-32837">
		<tag k="alt_name:no" v="Lortskardet" />
		<tag k="name" v="Lortskaret - Rapakuru" />
		<tag k="name:fkv" v="Rapakuru" />
		<tag k="name:no" v="Lortskaret" />
		<tag k="natural" v="valley" />
		<tag k="place" v="locality" />
		<tag k="ssr:stedsnr" v="747626" />
	</node>
	<node lat="70.19263336661506" lon="29.37402378011665" id="-32838">
		<tag k="fixme" v="consider natural=peak for the most distinct mountains in the district" />
		<tag k="name" v="Høyelvfjellet" />
		<tag k="natural" v="hill" />
		<tag k="place" v="locality" />
		<tag k="ssr:stedsnr" v="747742" />
	</node>
	<node lat="70.12330561025554" lon="30.29423433421206" id="-32839">
		<tag k="name" v="Urnesodden" />
		<tag k="natural" v="cape" />
		<tag k="ssr:stedsnr" v="748551" />
	</node>
	<node lat="70.09030561007903" lon="30.239878795877846" id="-32840">
		<tag k="name" v="Lille Ekkerøy - Pikku-Ekrea" />
		<tag k="name:fkv" v="Pikku-Ekrea" />
		<tag k="name:no" v="Lille Ekkerøy" />
		<tag k="old_name:no" v="Ekkerøy, lille" />
		<tag k="place" v="island" />
		<tag k="ssr:stedsnr" v="748556" />
	</node>
	<node lat="70.10841949088538" lon="29.712209690647498" id="-32841">
		<tag k="name" v="Svanevasshøgda" />
		<tag k="natural" v="hill" />
		<tag k="place" v="locality" />
		<tag k="ssr:stedsnr" v="748626" />
	</node>
	<node lat="70.12888337938072" lon="29.77387908903561" id="-32842">
		<tag k="name" v="Vinikabekken" />
		<tag k="ssr:stedsnr" v="748633" />
		<tag k="waterway" v="stream" />
	</node>
	<node lat="70.1531944891776" lon="29.71034860123986" id="-32843">
		<tag k="name" v="Sisttetjohka" />
		<tag k="name:se" v="Sisttetjohka" />
		<tag k="old_name:se" v="Sistetjåkka" />
		<tag k="ssr:stedsnr" v="748640" />
		<tag k="waterway" v="river" />
	</node>
	<node lat="70.17122503807832" lon="29.570109782211844" id="-32844">
		<tag k="fixme" v="consider natural=peak for the most distinct mountains in the district" />
		<tag k="name" v="Nissoláhttenvárri" />
		<tag k="name:se" v="Nissoláhttenvárri" />
		<tag k="natural" v="hill" />
		<tag k="old_name:se" v="Nissulattenvarri" />
		<tag k="place" v="locality" />
		<tag k="ssr:stedsnr" v="748643" />
	</node>
	<node lat="70.40645558759462" lon="28.98134623511558" id="-32845">
		<tag k="name" v="Ánnečearru - Jakobselvvidda" />
		<tag k="name:no" v="Jakobselvvidda" />
		<tag k="name:se" v="Ánnečearru" />
		<tag k="natural" v="plateau" />
		<tag k="old_name:se" v="Annečærro" />
		<tag k="ssr:stedsnr" v="748952" />
	</node>
	<node lat="70.33466114696895" lon="29.402687700402513" id="-32846">
		<tag k="name" v="Tønnevannan - Fárppaljávrrit" />
		<tag k="name:no" v="Tønnevannan" />
		<tag k="name:se" v="Fárppaljávrrit" />
		<tag k="natural" v="water" />
		<tag k="old_name:se" v="Farpaljavrit" />
		<tag k="ssr:stedsnr" v="748995" />
		<tag k="water" v="lake" />
	</node>
	<node lat="70.1220611546342" lon="29.325359882996498" id="-32847">
		<tag k="name" v="Hermannkulpen" />
		<tag k="place" v="locality" />
		<tag k="ssr:stedsnr" v="758072" />
	</node>
	<node lat="70.10971392964153" lon="29.327426543285338" id="-32848">
		<tag k="leisure" v="marina" />
		<tag k="name" v="Hamna" />
		<tag k="ssr:stedsnr" v="758074" />
	</node>
	<node lat="70.11008059846684" lon="29.64821805174889" id="-32849">
		<tag k="name" v="Gingengammen" />
		<tag k="place" v="isolated_dwelling" />
		<tag k="ssr:stedsnr" v="758034" />
	</node>
	<node lat="70.07308615906948" lon="29.779326305919398" id="-32850">
		<tag k="leisure" v="marina" />
		<tag k="name" v="Småbåthamn" />
		<tag k="ssr:stedsnr" v="758223" />
	</node>
	<node lat="70.09013615344679" lon="29.79448741427184" id="-32851">
		<tag k="name" v="Kråkeberget" />
		<tag k="natural" v="hill" />
		<tag k="place" v="locality" />
		<tag k="ssr:stedsnr" v="758266" />
	</node>
	<node lat="70.07149726541597" lon="29.746804099718826" id="-32853">
		<tag k="man_made" v="quay" />
		<tag k="name" v="Fiskerikai" />
		<tag k="place" v="locality" />
		<tag k="ssr:stedsnr" v="758375" />
	</node>
	<node lat="70.0889639396628" lon="30.01025673302692" id="-32854">
		<tag k="fixme" v="consider natural=peak for the most distinct mountains in the district" />
		<tag k="name" v="Monsta" />
		<tag k="natural" v="hill" />
		<tag k="place" v="locality" />
		<tag k="ssr:stedsnr" v="758436" />
	</node>
	<node lat="70.07097228082031" lon="30.159467741817128" id="-32855">
		<tag k="name" v="Småvannan" />
		<tag k="natural" v="water" />
		<tag k="ssr:stedsnr" v="758565" />
		<tag k="water" v="lake" />
	</node>
	<node lat="70.06726949170978" lon="29.98338173838721" id="-32856">
		<tag k="name" v="Pelikallio" />
		<tag k="name:fkv" v="Pelikallio" />
		<tag k="natural" v="cliff" />
		<tag k="ssr:stedsnr" v="758634" />
	</node>
	<node lat="70.13984727383894" lon="30.267001046378567" id="-32857">
		<tag k="name" v="Langvannet - Pitkäjärvi" />
		<tag k="name:fkv" v="Pitkäjärvi" />
		<tag k="name:no" v="Langvannet" />
		<tag k="natural" v="water" />
		<tag k="ssr:stedsnr" v="758732" />
		<tag k="water" v="lake" />
	</node>
	<node lat="70.1868972736138" lon="30.230751083479134" id="-32858">
		<tag k="name" v="Viltokulpen" />
		<tag k="place" v="locality" />
		<tag k="ssr:stedsnr" v="758734" />
	</node>
	<node lat="70.10262782837235" lon="30.191362181225756" id="-32859">
		<tag k="name" v="Dampen" />
		<tag k="natural" v="bay" />
		<tag k="ssr:stedsnr" v="758738" />
	</node>
	<node lat="70.21325283024325" lon="30.36861210860164" id="-32860">
		<tag k="name" v="Tavijoken-kuru" />
		<tag k="name:fkv" v="Tavijoken-kuru" />
		<tag k="natural" v="valley" />
		<tag k="place" v="locality" />
		<tag k="ssr:stedsnr" v="758688" />
	</node>
	<node lat="70.20400282778766" lon="30.23396220931259" id="-32861">
		<tag k="name" v="Pekkonniitty" />
		<tag k="name:fkv" v="Pekkonniitty" />
		<tag k="place" v="locality" />
		<tag k="ssr:stedsnr" v="758691" />
	</node>
	<node lat="70.09882226773821" lon="29.485298695771075" id="-32862">
		<tag k="name" v="Fugleberg" />
		<tag k="place" v="hamlet" />
		<tag k="ssr:stedsnr" v="758986" />
	</node>
	<node lat="70.06258894195688" lon="29.822873489778324" id="-32863">
		<tag k="name" v="Navarsodden" />
		<tag k="natural" v="cape" />
		<tag k="ssr:stedsnr" v="808502" />
	</node>
	<node lat="70.13651670662146" lon="29.312179351645852" id="-32864">
		<tag k="alt_name" v="2.Fossen" />
		<tag k="name" v="Andrefossen" />
		<tag k="natural" v="waterfall" />
		<tag k="ssr:stedsnr" v="808649" />
	</node>
	<node lat="70.10073892683945" lon="29.3801820763505" id="-32865">
		<tag k="alt_name:no" v="Kargil" />
		<tag k="name" v="Kariel - Gárjil - Karieli" />
		<tag k="name:fkv" v="Karieli" />
		<tag k="name:no" v="Kariel" />
		<tag k="name:se" v="Gárjil" />
		<tag k="place" v="hamlet" />
		<tag k="ssr:stedsnr" v="808671" />
	</node>
	<node lat="70.13562504116223" lon="29.23461270661361" id="-32866">
		<tag k="alt_name:no" v="Skitenelvdalen" />
		<tag k="loc_name:fkv" v="Paskajoentaali" />
		<tag k="name" v="Skittenelvdalen" />
		<tag k="name:no" v="Skittenelvdalen" />
		<tag k="natural" v="valley" />
		<tag k="place" v="locality" />
		<tag k="ssr:stedsnr" v="808619" />
	</node>
	<node lat="70.13271393093646" lon="29.431901499939457" id="-32867">
		<tag k="name" v="Røvarvannet - Čuđđejávri" />
		<tag k="name:no" v="Røvarvannet" />
		<tag k="name:se" v="Čuđđejávri" />
		<tag k="natural" v="water" />
		<tag k="old_name:se" v="Čuđđejavri" />
		<tag k="ssr:stedsnr" v="808623" />
	</node>
	<node lat="70.14571116757169" lon="30.3563426386074" id="-32868">
		<tag k="alt_name:no" v="Falkekeila" />
		<tag k="name" v="Falkkeila - Falkkikeila" />
		<tag k="name:fkv" v="Falkkikeila" />
		<tag k="name:no" v="Falkkeila" />
		<tag k="natural" v="bay" />
		<tag k="ssr:stedsnr" v="809564" />
	</node>
	<node lat="70.1331361624379" lon="30.279562143275857" id="-32869">
		<tag k="name" v="Urnesdalen" />
		<tag k="natural" v="valley" />
		<tag k="place" v="locality" />
		<tag k="ssr:stedsnr" v="809565" />
	</node>
	<node lat="70.14041950043693" lon="30.190217749540253" id="-32870">
		<tag k="name" v="Urnesvannet" />
		<tag k="natural" v="water" />
		<tag k="ssr:stedsnr" v="809567" />
	</node>
	<node lat="70.26788614841655" lon="29.589509818159158" id="-32871">
		<tag k="name" v="Guorrojohka" />
		<tag k="name:se" v="Guorrojohka" />
		<tag k="old_name:se" v="Guorrujåkka" />
		<tag k="ssr:stedsnr" v="809571" />
		<tag k="waterway" v="river" />
	</node>
	<node lat="70.17800005120479" lon="30.035337318704286" id="-32872">
		<tag k="name" v="Vasaelva" />
		<tag k="ssr:stedsnr" v="809572" />
		<tag k="waterway" v="stream" />
	</node>
	<node lat="70.2079278275928" lon="30.15898447735445" id="-32873">
		<tag k="name" v="Pikkumittajärvi" />
		<tag k="name:fkv" v="Pikkumittajärvi" />
		<tag k="natural" v="water" />
		<tag k="old_name:fkv" v="Bikkomittajærvi" />
		<tag k="ssr:stedsnr" v="809531" />
	</node>
	<node lat="70.10068060643665" lon="29.710593008770953" id="-32874">
		<tag k="alt_name" v="Klippeskardet" />
		<tag k="name" v="Klippeskaret" />
		<tag k="natural" v="valley" />
		<tag k="place" v="locality" />
		<tag k="ssr:stedsnr" v="809630" />
	</node>
	<node lat="70.09950837327938" lon="29.43674314965657" id="-32875">
		<tag k="fixme" v="consider place=hamlet" />
		<tag k="name" v="Paddeby" />
		<tag k="place" v="village" />
		<tag k="ssr:stedsnr" v="809635" />
	</node>
	<node lat="70.15727503920048" lon="29.56884866399718" id="-32876">
		<tag k="fixme" v="consider natural=peak for the most distinct mountains in the district" />
		<tag k="name" v="Ciehkoaivi" />
		<tag k="name:se" v="Ciehkoaivi" />
		<tag k="natural" v="hill" />
		<tag k="old_name:se" v="Ciekkoaivi" />
		<tag k="place" v="locality" />
		<tag k="ssr:stedsnr" v="809652" />
	</node>
	<node lat="70.15628337986632" lon="29.759476357884736" id="-32877">
		<tag k="fixme" v="consider natural=peak for the most distinct mountains in the district" />
		<tag k="name" v="Lovttašvárri" />
		<tag k="name:se" v="Lovttašvárri" />
		<tag k="natural" v="hill" />
		<tag k="old_name:se" v="Låvtašvarri" />
		<tag k="place" v="locality" />
		<tag k="ssr:stedsnr" v="809653" />
	</node>
	<node lat="70.2897361483041" lon="29.649715339044516" id="-32878">
		<tag k="name" v="Guovdoaijávri" />
		<tag k="name:se" v="Guovdoaijávri" />
		<tag k="natural" v="water" />
		<tag k="old_name:se" v="Guovdoaijavri" />
		<tag k="ssr:stedsnr" v="809922" />
		<tag k="water" v="lake" />
	</node>
	<node lat="70.13459170267318" lon="29.37547374278803" id="-32879">
		<tag k="fixme" v="consider natural=peak for the most distinct mountains in the district" />
		<tag k="name" v="Solvarden - Suolovárri" />
		<tag k="name:no" v="Solvarden" />
		<tag k="name:se" v="Suolovárri" />
		<tag k="natural" v="hill" />
		<tag k="old_name:se" v="Suoluvarri" />
		<tag k="place" v="locality" />
		<tag k="ssr:stedsnr" v="813393" />
	</node>
	<node lat="70.18457504348044" lon="29.83469021189197" id="-32880">
		<tag k="fixme" v="consider natural=peak for the most distinct mountains in the district" />
		<tag k="name" v="Steinfjellet - Riddočearru - Kivitunturi" />
		<tag k="name:fkv" v="Kivitunturi" />
		<tag k="name:no" v="Steinfjellet" />
		<tag k="name:se" v="Riddočearru" />
		<tag k="natural" v="hill" />
		<tag k="old_name:se" v="Riddučærro;Riddučearru" />
		<tag k="place" v="locality" />
		<tag k="ssr:stedsnr" v="815520" />
	</node>
	<node lat="70.12820838531552" lon="30.29361490848373" id="-32881">
		<tag k="name" v="Urnes" />
		<tag k="natural" v="cape" />
		<tag k="ssr:stedsnr" v="817905" />
	</node>
	<node lat="70.09357504629484" lon="29.717040234225088" id="-32882">
		<tag k="name" v="Sandhaugen" />
		<tag k="natural" v="hill" />
		<tag k="place" v="locality" />
		<tag k="ssr:stedsnr" v="819002" />
	</node>
	<node lat="70.07597782468947" lon="29.8682456823306" id="-32883">
		<tag k="name" v="Elvekrokan" />
		<tag k="natural" v="bay" />
		<tag k="ssr:stedsnr" v="819288" />
	</node>
	<node lat="70.12146670455667" lon="29.26177381103593" id="-32884">
		<tag k="name" v="Fannebákti" />
		<tag k="name:se" v="Fannebákti" />
		<tag k="natural" v="hill" />
		<tag k="place" v="locality" />
		<tag k="ssr:stedsnr" v="819100" />
	</node>
	<node lat="70.09449171331211" lon="29.544301435274566" id="-32885">
		<tag k="name" v="Hestelva" />
		<tag k="ssr:stedsnr" v="819111" />
		<tag k="waterway" v="stream" />
	</node>
	<node lat="70.07728893569652" lon="29.716651348068" id="-32886">
		<tag k="leisure" v="marina" />
		<tag k="name" v="Småbåthamn" />
		<tag k="ssr:stedsnr" v="819179" />
	</node>
	<node lat="70.0714694951627" lon="29.718912441307477" id="-32887">
		<tag k="building" v="industrial" />
		<tag k="industrial" v="factory" />
		<tag k="name" v="Sildoljefabrikk" />
		<tag k="ssr:stedsnr" v="819181" />
	</node>
	<node lat="70.08284171720742" lon="29.79142628652453" id="-32888">
		<tag k="name" v="Naversiket" />
		<tag k="ssr:stedsnr" v="819212" />
		<tag k="waterway" v="stream" />
	</node>
	<node lat="70.06060560869867" lon="29.877590126125952" id="-32889">
		<tag k="name" v="Samuelby" />
		<tag k="place" v="locality" />
		<tag k="ssr:stedsnr" v="819320" />
	</node>
	<node lat="70.10509449740204" lon="29.94891788133118" id="-32890">
		<tag k="name" v="Mentyjærvislåtta" />
		<tag k="place" v="locality" />
		<tag k="ssr:stedsnr" v="819324" />
	</node>
	<node lat="70.10727504693169" lon="29.913354026874263" id="-32891">
		<tag k="name" v="Keitabekken" />
		<tag k="ssr:stedsnr" v="819331" />
		<tag k="waterway" v="stream" />
	</node>
	<node lat="70.06781949316877" lon="29.898795674948534" id="-32892">
		<tag k="name" v="Sjåbuselvmyra" />
		<tag k="natural" v="wetland" />
		<tag k="ssr:stedsnr" v="819439" />
	</node>
	<node lat="70.0748722696825" lon="29.940731754783574" id="-32893">
		<tag k="name" v="Kettupäri" />
		<tag k="name:fkv" v="Kettupäri" />
		<tag k="natural" v="hill" />
		<tag k="place" v="locality" />
		<tag k="ssr:stedsnr" v="819444" />
	</node>
	<node lat="70.07511393738177" lon="29.960873416604628" id="-32894">
		<tag k="name" v="Torvmyra - Takajänkkä" />
		<tag k="name:fkv" v="Takajänkkä" />
		<tag k="name:no" v="Torvmyra" />
		<tag k="natural" v="wetland" />
		<tag k="ssr:stedsnr" v="819456" />
	</node>
	<node lat="70.07461394269595" lon="29.97901508353518" id="-32895">
		<tag k="name" v="Løfgreninjänkkä" />
		<tag k="name:fkv" v="Løfgreninjänkkä" />
		<tag k="natural" v="wetland" />
		<tag k="ssr:stedsnr" v="819631" />
	</node>
	<node lat="70.12665561220146" lon="30.247476038788438" id="-32896">
		<tag k="name" v="Falkelvvannan" />
		<tag k="natural" v="water" />
		<tag k="ssr:stedsnr" v="819743" />
		<tag k="water" v="lake" />
	</node>
	<node lat="70.1276889440182" lon="30.25727049133955" id="-32897">
		<tag k="name" v="Falkelvhøgda" />
		<tag k="natural" v="hill" />
		<tag k="place" v="locality" />
		<tag k="ssr:stedsnr" v="819744" />
	</node>
	<node lat="70.10748614785628" lon="29.361048759626343" id="-32899">
		<tag k="alt_name" v="Halsen, in" />
		<tag k="name" v="Indre Halsen" />
		<tag k="place" v="farm" />
		<tag k="ssr:stedsnr" v="868630" />
	</node>
	<node lat="70.17829449659159" lon="30.294487162058164" id="-32900">
		<tag k="name" v="Sinisiikki" />
		<tag k="name:fkv" v="Sinisiikki" />
		<tag k="old_name:fkv" v="Sinsigi" />
		<tag k="place" v="locality" />
		<tag k="ssr:stedsnr" v="869584" />
	</node>
	<node lat="70.22915005672805" lon="30.299328830331152" id="-32901">
		<tag k="name" v="Holmfjellvannet - Lumipilkkajärvi" />
		<tag k="name:fkv" v="Lumipilkkajärvi" />
		<tag k="name:no" v="Holmfjellvannet" />
		<tag k="natural" v="water" />
		<tag k="old_name:fkv" v="Lomibilkajærvi" />
		<tag k="ssr:stedsnr" v="869533" />
	</node>
	<node lat="70.23280282897598" lon="30.214167776840714" id="-32902">
		<tag k="name" v="Rássejohka - Niskanoja" />
		<tag k="name:fkv" v="Niskanoja" />
		<tag k="name:se" v="Rássejohka" />
		<tag k="old_name:fkv" v="Niskanåja" />
		<tag k="old_name:se" v="Rassejåkka" />
		<tag k="ssr:stedsnr" v="869537" />
		<tag k="waterway" v="stream" />
	</node>
	<node lat="70.21653060544244" lon="30.09923174395881" id="-32903">
		<tag k="name" v="Tverrelva - Tievanjoki" />
		<tag k="name:fkv" v="Tievanjoki" />
		<tag k="name:no" v="Tverrelva" />
		<tag k="old_name:fkv" v="Dievanjåki" />
		<tag k="ssr:stedsnr" v="869543" />
		<tag k="waterway" v="stream" />
	</node>
	<node lat="70.0601639389064" lon="29.87768736189794" id="-32904">
		<tag k="name" v="Samuelbyneset" />
		<tag k="natural" v="cape" />
		<tag k="ssr:stedsnr" v="869547" />
	</node>
	<node lat="70.23399727252082" lon="30.178840019760468" id="-32905">
		<tag k="name" v="Skallelva - Gállojohka - Kallijoki" />
		<tag k="name:fkv" v="Kallijoki" />
		<tag k="name:no" v="Skallelva" />
		<tag k="name:se" v="Gállojohka" />
		<tag k="old_name:se" v="Guovdevaggejåkka;Guovduvaggejåkka;Guovdovákkejohka" />
		<tag k="ssr:stedsnr" v="869553" />
		<tag k="waterway" v="river" />
	</node>
	<node lat="70.08500560861282" lon="29.9786984263753" id="-32906">
		<tag k="name" v="Monstadvannet" />
		<tag k="natural" v="water" />
		<tag k="ssr:stedsnr" v="869563" />
	</node>
	<node lat="70.08359726735844" lon="29.757801309161874" id="-32907">
		<tag k="name" v="Fossgård" />
		<tag k="place" v="farm" />
		<tag k="ssr:stedsnr" v="869567" />
	</node>
	<node lat="70.15529170603732" lon="29.404643189233912" id="-32908">
		<tag k="name" v="Falkevannet" />
		<tag k="natural" v="water" />
		<tag k="ssr:stedsnr" v="869755" />
	</node>
	<node lat="70.3905250362889" lon="29.318029423373954" id="-32909">
		<tag k="fixme" v="consider natural=peak for the most distinct mountains in the district" />
		<tag k="name" v="Njuvččanjunis" />
		<tag k="name:se" v="Njuvččanjunis" />
		<tag k="natural" v="hill" />
		<tag k="old_name:se" v="Njuvčanjunis" />
		<tag k="place" v="locality" />
		<tag k="ssr:stedsnr" v="869935" />
	</node>
	<node lat="70.42617502945363" lon="29.229726678547404" id="-32910">
		<tag k="fixme" v="consider natural=peak for the most distinct mountains in the district" />
		<tag k="name" v="Njukčanjunis" />
		<tag k="name:se" v="Njukčanjunis" />
		<tag k="natural" v="hill" />
		<tag k="place" v="locality" />
		<tag k="ssr:stedsnr" v="869937" />
	</node>
	<node lat="70.07333060347692" lon="30.03171227114653" id="-32911">
		<tag k="fixme" v="consider place=hamlet" />
		<tag k="name" v="Golnes - Kullaselva" />
		<tag k="name:fkv" v="Kullaselva" />
		<tag k="name:no" v="Golnes" />
		<tag k="place" v="village" />
		<tag k="ssr:stedsnr" v="870482" />
	</node>
	<node lat="70.07728616078099" lon="30.139001091207167" id="-32912">
		<tag k="alt_name" v="Vardneset" />
		<tag k="name" v="Varnes" />
		<tag k="natural" v="cape" />
		<tag k="ssr:stedsnr" v="870545" />
	</node>
	<node lat="70.07885004808034" lon="30.076026133044202" id="-32913">
		<tag k="name" v="Sollnes" />
		<tag k="natural" v="cape" />
		<tag k="ssr:stedsnr" v="870546" />
	</node>
	<node lat="70.12559172484382" lon="30.160145535341595" id="-32914">
		<tag k="alt_name:no" v="Holmfjell" />
		<tag k="fixme" v="consider natural=peak for the most distinct mountains in the district" />
		<tag k="name" v="Holmfjellet - Suolovárri" />
		<tag k="name:no" v="Holmfjellet" />
		<tag k="name:se" v="Suolovárri" />
		<tag k="natural" v="hill" />
		<tag k="old_name:se" v="Suoluvarri" />
		<tag k="place" v="locality" />
		<tag k="ssr:stedsnr" v="870553" />
	</node>
	<node lat="70.09330838135541" lon="29.56092920023211" id="-32915">
		<tag k="name" v="Blåbærnes" />
		<tag k="natural" v="cape" />
		<tag k="ssr:stedsnr" v="870588" />
	</node>
	<node lat="70.11234726734659" lon="29.64405138267221" id="-32916">
		<tag k="loc_name:se" v="Vuorjánjohka" />
		<tag k="name" v="Tomaselva - Turvejoki" />
		<tag k="name:fkv" v="Turvejoki" />
		<tag k="name:no" v="Tomaselva" />
		<tag k="old_name:no" v="Thomaselva" />
		<tag k="ssr:stedsnr" v="870596" />
		<tag k="waterway" v="river" />
	</node>
	<node lat="70.10698615491502" lon="29.518876459927004" id="-32917">
		<tag k="alt_name" v="Makkefjell;Makkfjellet" />
		<tag k="fixme" v="consider natural=peak for the most distinct mountains in the district" />
		<tag k="name" v="Makkefjellet" />
		<tag k="natural" v="hill" />
		<tag k="place" v="locality" />
		<tag k="ssr:stedsnr" v="870598" />
	</node>
	<node lat="70.25439448309037" lon="29.487532073255576" id="-32918">
		<tag k="fixme" v="consider natural=peak for the most distinct mountains in the district" />
		<tag k="name" v="Stuorraboldni" />
		<tag k="name:se" v="Stuorraboldni" />
		<tag k="natural" v="hill" />
		<tag k="old_name:se" v="Stuorrabåldni" />
		<tag k="place" v="locality" />
		<tag k="ssr:stedsnr" v="870888" />
	</node>
	<node lat="70.32063893055505" lon="29.899751322884153" id="-32919">
		<tag k="name" v="Bjørnskaret - Guovžagurra" />
		<tag k="name:no" v="Bjørnskaret" />
		<tag k="name:se" v="Guovžagurra" />
		<tag k="natural" v="valley" />
		<tag k="place" v="locality" />
		<tag k="ssr:stedsnr" v="870901" />
	</node>
	<node lat="70.0776500508261" lon="30.087834458514216" id="-32920">
		<tag k="fixme" v="multiple name tags, choose one and add the other to alt_name" />
		<tag k="name" v="Bukta;Innersida" />
		<tag k="natural" v="bay" />
		<tag k="ssr:stedsnr" v="874192" />
	</node>
	<node lat="70.06822227459719" lon="30.10489554107613" id="-32921">
		<tag k="name" v="Finneset" />
		<tag k="natural" v="cape" />
		<tag k="ssr:stedsnr" v="875301" />
	</node>
	<node lat="70.32770837447042" lon="29.734423640963456" id="-32922">
		<tag k="fixme" v="consider natural=peak for the most distinct mountains in the district" />
		<tag k="name" v="Kjøltindan" />
		<tag k="natural" v="hill" />
		<tag k="place" v="locality" />
		<tag k="ssr:stedsnr" v="875770" />
	</node>
	<node lat="70.17363059528266" lon="29.207646059666615" id="-32923">
		<tag k="name" v="Moskolpavannet" />
		<tag k="natural" v="water" />
		<tag k="ssr:stedsnr" v="878890" />
		<tag k="water" v="lake" />
	</node>
	<node lat="70.16034450052555" lon="30.195387193982558" id="-32924">
		<tag k="name" v="Amandavannet" />
		<tag k="natural" v="water" />
		<tag k="ssr:stedsnr" v="878891" />
	</node>
	<node lat="70.12374726988811" lon="30.161212212976114" id="-32925">
		<tag k="name" v="Sølvfarm" />
		<tag k="natural" v="cliff" />
		<tag k="ssr:stedsnr" v="880532" />
	</node>
	<node lat="70.1640528186053" lon="29.300279355915603" id="-32926">
		<tag k="name" v="Storstilla" />
		<tag k="natural" v="water" />
		<tag k="ssr:stedsnr" v="880004" />
		<tag k="water" v="lake" />
	</node>
	<node lat="70.18486948230243" lon="29.263665492557287" id="-32927">
		<tag k="highway" v="path" />
		<tag k="name" v="Multebærveien - Hillatie" />
		<tag k="name:fkv" v="Hillatie" />
		<tag k="name:no" v="Multebærveien" />
		<tag k="ssr:stedsnr" v="880039" />
	</node>
	<node lat="70.10843337366133" lon="29.329943224255317" id="-32928">
		<tag k="name" v="Sudines" />
		<tag k="natural" v="cape" />
		<tag k="ssr:stedsnr" v="880073" />
	</node>
	<node lat="70.0703139340419" lon="29.809054060288137" id="-32929">
		<tag k="alt_name" v="Høvetsbakken" />
		<tag k="name" v="Høvedsbakken" />
		<tag k="natural" v="slope" />
		<tag k="place" v="locality" />
		<tag k="ssr:stedsnr" v="880253" />
	</node>
	<node lat="70.07736949101864" lon="29.877229019628015" id="-32930">
		<tag k="name" v="Aksla" />
		<tag k="natural" v="hill" />
		<tag k="place" v="locality" />
		<tag k="ssr:stedsnr" v="880261" />
	</node>
	<node lat="70.06048894307037" lon="29.868054018271653" id="-32931">
		<tag k="name" v="Flua" />
		<tag k="natural" v="cape" />
		<tag k="ssr:stedsnr" v="880281" />
	</node>
	<node lat="70.10913616069443" lon="29.970503982909474" id="-32932">
		<tag k="name" v="Davidsenslåtta" />
		<tag k="place" v="locality" />
		<tag k="ssr:stedsnr" v="880285" />
	</node>
	<node lat="70.06469448824743" lon="29.76420964722264" id="-32933">
		<tag k="name" v="Dammen" />
		<tag k="natural" v="water" />
		<tag k="ssr:stedsnr" v="880326" />
	</node>
	<node lat="70.07183893977466" lon="30.146992750241843" id="-32934">
		<tag k="name" v="Storvannet" />
		<tag k="natural" v="water" />
		<tag k="ssr:stedsnr" v="880566" />
	</node>
	<node lat="70.07520838818301" lon="30.123892776299147" id="-32935">
		<tag k="name" v="Stormyra" />
		<tag k="natural" v="wetland" />
		<tag k="ssr:stedsnr" v="880568" />
	</node>
	<node lat="70.07970283011795" lon="29.997831742711714" id="-32936">
		<tag k="name" v="Ugleberget" />
		<tag k="natural" v="hill" />
		<tag k="place" v="locality" />
		<tag k="ssr:stedsnr" v="880389" />
	</node>
	<node lat="70.08913338540403" lon="30.036251168279115" id="-32937">
		<tag k="name" v="Monstavannet" />
		<tag k="natural" v="water" />
		<tag k="ssr:stedsnr" v="880397" />
		<tag k="water" v="lake" />
	</node>
	<node lat="70.18980005405044" lon="30.329653788864547" id="-32938">
		<tag k="name" v="Raet" />
		<tag k="natural" v="ridge" />
		<tag k="place" v="locality" />
		<tag k="ssr:stedsnr" v="880670" />
	</node>
	<node lat="70.1892778319798" lon="30.345162124476097" id="-32939">
		<tag k="name" v="Enkanoja" />
		<tag k="name:fkv" v="Enkanoja" />
		<tag k="old_name:fkv" v="Enganoja" />
		<tag k="ssr:stedsnr" v="880692" />
		<tag k="waterway" v="stream" />
	</node>
	<node lat="70.13439172619013" lon="30.32540932279932" id="-32940">
		<tag k="name" v="Rullestrand" />
		<tag k="natural" v="beach" />
		<tag k="ssr:stedsnr" v="880740" />
	</node>
	<node lat="70.19074449647113" lon="30.209434425919515" id="-32941">
		<tag k="name" v="Blindtarmen" />
		<tag k="natural" v="water" />
		<tag k="ssr:stedsnr" v="880747" />
		<tag k="water" v="lake" />
	</node>
	<node lat="70.15009726140788" lon="29.33672099927021" id="-32942">
		<tag k="name" v="Lille Vaselva" />
		<tag k="ssr:stedsnr" v="880966" />
		<tag k="waterway" v="stream" />
	</node>
	<node lat="70.22301949510694" lon="30.272995529579234" id="-32943">
		<tag k="name" v="Bekkavannet" />
		<tag k="natural" v="water" />
		<tag k="ssr:stedsnr" v="938892" />
	</node>
	<node lat="70.08976393745995" lon="29.641223608676352" id="-32944">
		<tag k="name" v="Laksebubukta" />
		<tag k="place" v="hamlet" />
		<tag k="ssr:stedsnr" v="940008" />
	</node>
	<node lat="70.08511948876176" lon="29.70766524317305" id="-32945">
		<tag k="amenity" v="kindergarten" />
		<tag k="name" v="Glimmerstua barnehage" />
		<tag k="ssr:stedsnr" v="940058" />
	</node>
	<node lat="70.08650559960428" lon="29.712768018136593" id="-32946">
		<tag k="name" v="Fjellheim" />
		<tag k="place" v="quarter" />
		<tag k="ssr:stedsnr" v="940061" />
	</node>
	<node lat="70.08829449308627" lon="29.825892952870294" id="-32947">
		<tag k="name" v="Grønneset" />
		<tag k="natural" v="cape" />
		<tag k="ssr:stedsnr" v="940236" />
	</node>
	<node lat="70.17864450023006" lon="30.326556565481315" id="-32948">
		<tag k="name" v="Sinisiikki" />
		<tag k="name:fkv" v="Sinisiikki" />
		<tag k="ssr:stedsnr" v="941683" />
		<tag k="waterway" v="stream" />
	</node>
	<node lat="70.12131394617694" lon="30.255395473422343" id="-32949">
		<tag k="name" v="Kjerringa og mannen" />
		<tag k="natural" v="stone" />
		<tag k="ssr:stedsnr" v="941706" />
	</node>
	<node lat="70.10220559680238" lon="29.480093133683436" id="-32950">
		<tag k="name" v="Nivan Kallen kuru" />
		<tag k="name:fkv" v="Nivan Kallen kuru" />
		<tag k="natural" v="valley" />
		<tag k="old_name:fkv" v="Nivan-kallen-kuru" />
		<tag k="place" v="locality" />
		<tag k="ssr:stedsnr" v="941024" />
	</node>
	<node lat="70.07594449015193" lon="29.755970746440003" id="-32951">
		<tag k="amenity" v="community_centre" />
		<tag k="name" v="Samfunnshus" />
		<tag k="ssr:stedsnr" v="941158" />
	</node>
	<node lat="70.07773060536132" lon="29.993965065330066" id="-32952">
		<tag k="alt_name" v="Kretturvegen" />
		<tag k="highway" v="path" />
		<tag k="name" v="Fjellvegen" />
		<tag k="ssr:stedsnr" v="941395" />
	</node>
	<node lat="70.07458338287094" lon="29.7557096581204" id="-32953">
		<tag k="cemetery" v="grave" />
		<tag k="name" v="Kirkegård" />
		<tag k="place" v="locality" />
		<tag k="ssr:stedsnr" v="941343" />
	</node>
	<node lat="70.08591949671442" lon="30.025826158960164" id="-32954">
		<tag k="name" v="Santahoova" />
		<tag k="name:fkv" v="Santahoova" />
		<tag k="natural" v="hill" />
		<tag k="place" v="locality" />
		<tag k="ssr:stedsnr" v="941412" />
	</node>
	<node lat="70.07101393881038" lon="29.953709536421993" id="-32955">
		<tag k="name" v="Pappapäri" />
		<tag k="name:fkv" v="Pappapäri" />
		<tag k="natural" v="hill" />
		<tag k="place" v="locality" />
		<tag k="ssr:stedsnr" v="941423" />
	</node>
	<node lat="70.07047227953906" lon="30.156812178317285" id="-32956">
		<tag k="name" v="Skagen" />
		<tag k="natural" v="cape" />
		<tag k="ssr:stedsnr" v="941534" />
	</node>
	<node lat="70.07784171605263" lon="30.135028876408118" id="-32957">
		<tag k="name" v="Sandnes" />
		<tag k="natural" v="cape" />
		<tag k="ssr:stedsnr" v="941561" />
	</node>
	<node lat="70.08556671759075" lon="30.081051125010603" id="-32958">
		<tag k="name" v="Risdalen" />
		<tag k="natural" v="valley" />
		<tag k="place" v="locality" />
		<tag k="ssr:stedsnr" v="941573" />
	</node>
	<node lat="70.10202783119674" lon="30.089003921893127" id="-32959">
		<tag k="name" v="Kaldbekkmyra" />
		<tag k="natural" v="wetland" />
		<tag k="ssr:stedsnr" v="941506" />
	</node>
	<node lat="70.06936949433603" lon="30.00483727576513" id="-32960">
		<tag k="fixme" v="verify maritime location" />
		<tag k="mooring" v="yes" />
		<tag k="name" v="Båtstø" />
		<tag k="place" v="locality" />
		<tag k="ssr:stedsnr" v="941586" />
	</node>
	<node lat="70.06778338255782" lon="29.949303985961606" id="-32961">
		<tag k="alt_name" v="Høivikbekken" />
		<tag k="name" v="Høyvikbekken" />
		<tag k="ssr:stedsnr" v="941609" />
		<tag k="waterway" v="stream" />
	</node>
	<node lat="70.10993616440082" lon="30.14974553754318" id="-32962">
		<tag k="name" v="Fossevannet" />
		<tag k="natural" v="water" />
		<tag k="ssr:stedsnr" v="941723" />
	</node>
	<node lat="70.07584171334955" lon="29.731054098876655" id="-32963">
		<tag k="name" v="Indrebyen" />
		<tag k="place" v="suburb" />
		<tag k="ssr:stedsnr" v="942504" />
	</node>
	<node lat="70.1459889282282" lon="29.223576606182927" id="-32964">
		<tag k="fixme" v="multiple name tags, choose one and add the other to alt_name; consider natural=peak for the most distinct mountains in the district" />
		<tag k="name" v="Solvarden;Suolovárri" />
		<tag k="name:se" v="Solvarden;Suolovárri" />
		<tag k="natural" v="hill" />
		<tag k="place" v="locality" />
		<tag k="ssr:stedsnr" v="966017" />
	</node>
	<node lat="70.10833818340346" lon="29.329114887063675" id="-32965">
		<tag k="name" v="Lauriniemennokka" />
		<tag k="name:fkv" v="Lauriniemennokka" />
		<tag k="natural" v="cape" />
		<tag k="ssr:stedsnr" v="979485" />
	</node>
	<node lat="70.10611437241987" lon="29.33358421589352" id="-32966">
		<tag k="name" v="Lauriniemenmukka" />
		<tag k="natural" v="bay" />
		<tag k="ssr:stedsnr" v="979486" />
	</node>
	<node lat="70.12003233561173" lon="29.304690324690682" id="-32967">
		<tag k="name" v="Mettäperä" />
		<tag k="name:fkv" v="Mettäperä" />
		<tag k="place" v="locality" />
		<tag k="ssr:stedsnr" v="979477" />
	</node>
	<node lat="70.10590364029532" lon="29.338015020878682" id="-32968">
		<tag k="name" v="Lauriniemi" />
		<tag k="name:fkv" v="Lauriniemi" />
		<tag k="place" v="hamlet" />
		<tag k="ssr:stedsnr" v="979482" />
	</node>
	<node lat="70.07828817799216" lon="30.094118488988958" id="-32970">
		<tag k="loc_name:fkv" v="Kalvanto" />
		<tag k="name" v="Valen" />
		<tag k="name:no" v="Valen" />
		<tag k="place" v="hamlet" />
		<tag k="ssr:stedsnr" v="979563" />
	</node>
	<node lat="70.14417873082749" lon="30.35254321689516" id="-32971">
		<tag k="loc_name:fkv" v="Keila" />
		<tag k="loc_name:se" v="Lassa-vuolle" />
		<tag k="name" v="Falkekjeilen" />
		<tag k="name:no" v="Falkekjeilen" />
		<tag k="place" v="farm" />
		<tag k="ssr:stedsnr" v="979565" />
	</node>
	<node lat="70.1856167790743" lon="30.341899800000547" id="-32975">
		<tag k="loc_name:fkv" v="Niemi" />
		<tag k="name" v="Neset" />
		<tag k="name:no" v="Neset" />
		<tag k="place" v="hamlet" />
		<tag k="ssr:stedsnr" v="979570" />
	</node>
	<node lat="70.20122060819799" lon="30.340145928204088" id="-32976">
		<tag k="name" v="Neitijänkkä" />
		<tag k="name:fkv" v="Neitijänkkä" />
		<tag k="natural" v="wetland" />
		<tag k="ssr:stedsnr" v="979572" />
	</node>
	<node lat="70.08700767606868" lon="29.66794496575244" id="-33007">
		<tag k="loc_name:se" v="Vuor'jam-jokka;Vuorjánjohka" />
		<tag k="name" v="Tomaselv - Turvejoki" />
		<tag k="name:fkv" v="Turvejoki" />
		<tag k="name:no" v="Tomaselv" />
		<tag k="place" v="hamlet" />
		<tag k="ssr:stedsnr" v="1071926" />
	</node>
	<node lat="69.65483861708206" lon="18.954055597917613" id="-33011">
		<tag k="amenity" v="school" />
		<tag k="name" v="Ishavsbyen videregående skole" />
		<tag k="ssr:stedsnr" v="1075695" />
	</node>
</osm>
