<?xml version="1.0" encoding="UTF-8"?>
<<<<<<< HEAD
<osm version="0.6" generator="osmapis">
	<node lat="70.06614171101634" lon="29.764795751833187" id="-32176">
		<tag k="name" v="Luftskipsmast" />
		<tag k="ssr:stedsnr" v="151359" />
		<tag k="tourism" v="attraction" />
	</node>
	<node lat="70.11160559483756" lon="29.336434872670864" id="-32214">
		<tag k="amenity" v="place_of_worship" />
		<tag k="denomination" v="lutheran" />
		<tag k="name" v="Vestre Jakobselv kirke" />
		<tag k="religion" v="christian" />
		<tag k="ssr:stedsnr" v="212882" />
	</node>
	<node lat="70.18746950316678" lon="30.34144268022094" id="-32304">
		<tag k="amenity" v="place_of_worship" />
		<tag k="denomination" v="lutheran" />
		<tag k="name" v="Skallelv  kapell" />
		<tag k="religion" v="christian" />
		<tag k="ssr:stedsnr" v="454866" />
	</node>
	<node lat="70.07142505334518" lon="30.001134497480287" id="-32314">
		<tag k="name" v="Russegrava" />
		<tag k="place" v="locality" />
		<tag k="ssr:stedsnr" v="455580" />
	</node>
	<node lat="70.07584171202058" lon="29.750298545976054" id="-32315">
=======
<osm generator="osmapis" version="0.6">
	<node id="-846533" lat="70.1874695032" lon="30.3414426802">
		<tag k="amenity" v="place_of_worship" />
		<tag k="denomination" v="lutheran" />
		<tag k="name" v="Skallelv  kapell" />
		<tag k="religion" v="christian" />
		<tag k="ssr:stedsnr" v="454866" />
	</node>
	<node id="-846716" lat="70.0743250502" lon="30.0287178227">
		<tag k="amenity" v="community_centre" />
		<tag k="name" v="Grendehus" />
		<tag k="ssr:stedsnr" v="636611" />
	</node>
	<node id="-846809" lat="70.0745833829" lon="29.7557096581">
		<tag k="cemetery" v="grave" />
		<tag k="name" v="Kirkegård" />
		<tag k="place" v="locality" />
		<tag k="ssr:stedsnr" v="941343" />
	</node>
	<node id="-846808" lat="70.0759444902" lon="29.7559707464">
		<tag k="amenity" v="community_centre" />
		<tag k="name" v="Samfunnshus" />
		<tag k="ssr:stedsnr" v="941158" />
	</node>
	<node id="-846967" lat="70.066141711" lon="29.7647957518">
		<tag k="name" v="Luftskipsmast" />
		<tag k="ssr:stedsnr" v="151359" />
		<tag k="tourism" v="attraction" />
	</node>
	<node id="-846547" lat="70.0714250533" lon="30.0011344975">
		<tag k="name" v="Russegrava" />
		<tag k="place" v="locality" />
		<tag k="ssr:stedsnr" v="455580" />
	</node>
	<node id="-846479" lat="70.075841712" lon="29.750298546">
>>>>>>> e1d4bc35ff8a6074a6f2e91616a996b547c36f15
		<tag k="amenity" v="place_of_worship" />
		<tag k="denomination" v="lutheran" />
		<tag k="name" v="Vadsø  kirke" />
		<tag k="religion" v="christian" />
		<tag k="ssr:stedsnr" v="272844" />
	</node>
<<<<<<< HEAD
	<node lat="70.06606949115448" lon="29.760656862986693" id="-32458">
		<tag k="name" v="Travbane" />
		<tag k="place" v="locality" />
		<tag k="ssr:stedsnr" v="819368" />
	</node>
	<node lat="70.08113615940341" lon="29.933090115115984" id="-32792">
=======
	<node id="-846704" lat="70.0781806065" lon="29.928434541">
		<tag k="name" v="Angelinpirtti" />
		<tag k="name:fkv" v="Angelinpirtti" />
		<tag k="place" v="locality" />
		<tag k="ssr:stedsnr" v="576476" />
	</node>
	<node id="-846703" lat="70.0811361594" lon="29.9330901151">
>>>>>>> e1d4bc35ff8a6074a6f2e91616a996b547c36f15
		<tag k="name" v="Monstanmatala" />
		<tag k="name:fkv" v="Monstanmatala" />
		<tag k="old_name:fkv" v="Monstamaatala" />
		<tag k="place" v="locality" />
		<tag k="ssr:stedsnr" v="576475" />
	</node>
<<<<<<< HEAD
	<node lat="70.07818060647654" lon="29.92843454098711" id="-32793">
		<tag k="name" v="Ankelinpirtti" />
		<tag k="name:fkv" v="Ankelinpirtti" />
		<tag k="place" v="locality" />
		<tag k="ssr:stedsnr" v="576476" />
	</node>
	<node lat="70.07432505024326" lon="30.02871782270238" id="-32824">
		<tag k="amenity" v="community_centre" />
		<tag k="name" v="Grendehus" />
		<tag k="ssr:stedsnr" v="636611" />
	</node>
	<node lat="70.07594449015193" lon="29.755970746440003" id="-32951">
		<tag k="amenity" v="community_centre" />
		<tag k="name" v="Samfunnshus" />
		<tag k="ssr:stedsnr" v="941158" />
	</node>
	<node lat="70.07458338287094" lon="29.7557096581204" id="-32953">
		<tag k="cemetery" v="grave" />
		<tag k="name" v="Kirkegård" />
		<tag k="place" v="locality" />
		<tag k="ssr:stedsnr" v="941343" />
=======
	<node id="-846789" lat="70.0660694912" lon="29.760656863">
		<tag k="name" v="Travbane" />
		<tag k="place" v="locality" />
		<tag k="ssr:stedsnr" v="819368" />
	</node>
	<node id="-847012" lat="70.1116055948" lon="29.3364348727">
		<tag k="amenity" v="place_of_worship" />
		<tag k="denomination" v="lutheran" />
		<tag k="name" v="Vestre Jakobselv kirke" />
		<tag k="religion" v="christian" />
		<tag k="ssr:stedsnr" v="212882" />
>>>>>>> e1d4bc35ff8a6074a6f2e91616a996b547c36f15
	</node>
</osm>
