<?xml version="1.0" encoding="UTF-8"?>
<osm generator="osmapis" version="0.6">
	<node id="-84992" lat="70.474894473" lon="29.2241294905">
		<tag k="loc_name:fkv" v="Ortojärvi" />
		<tag k="name" v="Oarddojávri" />
		<tag k="name:se" v="Oarddojávri" />
		<tag k="natural" v="water" />
		<tag k="old_name:se" v="Oardujavri" />
		<tag k="ssr:stedsnr" v="687952" />
		<tag k="water" v="lake" />
	</node>
	<node id="-84986" lat="70.1495111634" lon="30.2121205243">
		<tag k="name" v="Multebærvannet" />
		<tag k="natural" v="water" />
		<tag k="ssr:stedsnr" v="687568" />
	</node>
	<node id="-84984" lat="70.1775167231" lon="30.1545483405">
		<tag k="name" v="Falkorelva" />
		<tag k="ssr:stedsnr" v="687559" />
		<tag k="waterway" v="river" />
	</node>
	<node id="-84981" lat="70.1435056063" lon="30.2119343942">
		<tag k="name" v="Skallnesvannet" />
		<tag k="natural" v="water" />
		<tag k="ssr:stedsnr" v="687547" />
		<tag k="water" v="lake" />
	</node>
	<node id="-85492" lat="70.1569778135" lon="29.3202237902">
		<tag k="name" v="Fossen" />
		<tag k="ssr:stedsnr" v="636940" />
		<tag k="waterway" v="rapids" />
	</node>
	<node id="-85489" lat="70.0750806031" lon="29.9855289587">
		<tag k="name" v="Sandbakkbekken" />
		<tag k="ssr:stedsnr" v="636638" />
		<tag k="waterway" v="stream" />
	</node>
	<node id="-84976" lat="70.2127889451" lon="30.3474399077">
		<tag k="fixme" v="multiple name tags, choose one and add the other to alt_name" />
		<tag k="name" v="Lille-Tavijoki;Lille Davvejohka - Praminjänkäoja" />
		<tag k="name:fkv" v="Praminjänkäoja" />
		<tag k="name:no" v="Lille-Tavijoki;Lille Davvejohka" />
		<tag k="old_name:no" v="Davvejåkka, l" />
		<tag k="ssr:stedsnr" v="687504" />
		<tag k="waterway" v="stream" />
	</node>
	<node id="-84973" lat="70.1865833655" lon="29.2714960443">
		<tag k="alt_name:no" v="Multebærbekken" />
		<tag k="name" v="Moltebærbekken - Hillaoja" />
		<tag k="name:fkv" v="Hillaoja" />
		<tag k="name:no" v="Moltebærbekken" />
		<tag k="ssr:stedsnr" v="686739" />
		<tag k="waterway" v="stream" />
	</node>
	<node id="-85480" lat="70.1242805986" lon="29.4596237022">
		<tag k="name" v="Steinvannet" />
		<tag k="natural" v="water" />
		<tag k="ssr:stedsnr" v="626635" />
	</node>
	<node id="-85479" lat="70.1131167078" lon="29.4841236885">
		<tag k="name" v="Makkvannan" />
		<tag k="natural" v="water" />
		<tag k="ssr:stedsnr" v="626633" />
		<tag k="water" v="lake" />
	</node>
	<node id="-85478" lat="70.108408377" lon="29.6179597355">
		<tag k="fixme" v="multiple name tags, choose one and add the other to alt_name" />
		<tag k="name" v="Lillevannet;Lille Andersbyvannet" />
		<tag k="natural" v="water" />
		<tag k="ssr:stedsnr" v="626631" />
	</node>
	<node id="-85477" lat="70.2026806006" lon="29.5610125724">
		<tag k="name" v="Vargelva" />
		<tag k="ssr:stedsnr" v="626600" />
		<tag k="waterway" v="river" />
	</node>
	<node id="-85475" lat="70.142338943" lon="30.0615983944">
		<tag k="name" v="Lille Bondevannet" />
		<tag k="natural" v="water" />
		<tag k="ssr:stedsnr" v="626566" />
	</node>
	<node id="-85474" lat="70.1171556104" lon="30.148231654">
		<tag k="alt_name" v="Richardslettvatnet" />
		<tag k="name" v="Rikardslettvatnet" />
		<tag k="natural" v="water" />
		<tag k="ssr:stedsnr" v="626560" />
	</node>
	<node id="-85472" lat="70.2256750525" lon="30.1574178215">
		<tag k="name" v="Bukselårelva - Housunsäärijoki" />
		<tag k="name:fkv" v="Housunsäärijoki" />
		<tag k="name:no" v="Bukselårelva" />
		<tag k="old_name:fkv" v="Håusonsærijåki" />
		<tag k="ssr:stedsnr" v="626543" />
		<tag k="waterway" v="stream" />
	</node>
	<node id="-84816" lat="70.1054306089" lon="30.1338761107">
		<tag k="name" v="Holmvannet" />
		<tag k="natural" v="water" />
		<tag k="ssr:stedsnr" v="273766" />
	</node>
	<node id="-84958" lat="70.0921611623" lon="29.7998179661">
		<tag k="name" v="Andevannet" />
		<tag k="natural" v="water" />
		<tag k="ssr:stedsnr" v="505531" />
	</node>
	<node id="-84901" lat="70.1553750421" lon="29.4264987252">
		<tag k="name" v="Langvannet" />
		<tag k="natural" v="water" />
		<tag k="ssr:stedsnr" v="384615" />
	</node>
	<node id="-84952" lat="70.098016712" lon="29.8485040547">
		<tag k="alt_name" v="Skjåbustelva" />
		<tag k="name" v="Sjåbuselva" />
		<tag k="ssr:stedsnr" v="445616" />
		<tag k="waterway" v="river" />
	</node>
	<node id="-84951" lat="70.2247250455" lon="30.1204039519">
		<tag k="name" v="Litlelva - Pikkujoki" />
		<tag k="name:fkv" v="Pikkujoki" />
		<tag k="name:no" v="Litlelva" />
		<tag k="old_name:fkv" v="Bikkojåki" />
		<tag k="ssr:stedsnr" v="445526" />
		<tag k="waterway" v="stream" />
	</node>
	<node id="-84950" lat="70.1685305944" lon="29.3263904464">
		<tag k="name" v="Gjelhaugbekken" />
		<tag k="ssr:stedsnr" v="444714" />
		<tag k="waterway" v="stream" />
	</node>
	<node id="-84946" lat="70.1494306102" lon="30.3538537599">
		<tag k="name" v="Falkekeilavannet" />
		<tag k="natural" v="water" />
		<tag k="ssr:stedsnr" v="516683" />
	</node>
	<node id="-84945" lat="70.1858750481" lon="30.2918593856">
		<tag k="name" v="Reidar Olsenkulpen" />
		<tag k="place" v="locality" />
		<tag k="ssr:stedsnr" v="516633" />
	</node>
	<node id="-85451" lat="70.0846194959" lon="29.8176235109">
		<tag k="name" v="Vyörykänniemi" />
		<tag k="name:fkv" v="Vyörykänniemi" />
		<tag k="natural" v="cape" />
		<tag k="ssr:stedsnr" v="576215" />
	</node>
	<node id="-84919" lat="70.1918333868" lon="30.2837288315">
		<tag k="alt_name:no" v="Berrelva" />
		<tag k="name" v="Bærelva - Pärijoki" />
		<tag k="name:fkv" v="Pärijoki" />
		<tag k="name:no" v="Bærelva" />
		<tag k="ssr:stedsnr" v="505567" />
		<tag k="waterway" v="stream" />
	</node>
	<node id="-85447" lat="70.1662833695" lon="29.2780654713">
		<tag k="name" v="Elvesvingen - Jokimukka" />
		<tag k="name:fkv" v="Jokimukka" />
		<tag k="name:no" v="Elvesvingen" />
		<tag k="natural" v="water" />
		<tag k="ssr:stedsnr" v="576023" />
		<tag k="water" v="lake" />
	</node>
	<node id="-85442" lat="70.1510028308" lon="29.9934901018">
		<tag k="name" v="Steinvannet" />
		<tag k="natural" v="water" />
		<tag k="ssr:stedsnr" v="574912" />
	</node>
	<node id="-84929" lat="70.0883111611" lon="29.8598123789">
		<tag k="alt_name" v="Gøngæsfossen" />
		<tag k="name" v="Hengebrofossen" />
		<tag k="natural" v="waterfall" />
		<tag k="ssr:stedsnr" v="515248" />
	</node>
	<node id="-85439" lat="70.2221555912" lon="29.4337487497">
		<tag k="name" v="Devddorjohskáidi" />
		<tag k="name:se" v="Devddorjohskáidi" />
		<tag k="natural" v="cape" />
		<tag k="old_name:se" v="Devdurjåkskaidi" />
		<tag k="ssr:stedsnr" v="566566" />
	</node>
	<node id="-84926" lat="70.4425111399" lon="29.2140405997">
		<tag k="name" v="Svanevannan - Njukčajávrrit" />
		<tag k="name:no" v="Svanevannan" />
		<tag k="name:se" v="Njukčajávrrit" />
		<tag k="natural" v="water" />
		<tag k="old_name:se" v="Njukčajavrit" />
		<tag k="ssr:stedsnr" v="505937" />
		<tag k="water" v="lake" />
	</node>
	<node id="-84923" lat="70.1490667173" lon="29.9713012148">
		<tag k="name" v="Sabelhaugvannet" />
		<tag k="natural" v="water" />
		<tag k="ssr:stedsnr" v="505628" />
	</node>
	<node id="-85434" lat="70.146625059" lon="30.3036676889">
		<tag k="fixme" v="multiple name tags, choose one and add the other to alt_name" />
		<tag k="name" v="Torvmyrvannet - Kivijärvi;Turvejärvi" />
		<tag k="name:fkv" v="Kivijärvi;Turvejärvi" />
		<tag k="name:no" v="Torvmyrvannet" />
		<tag k="natural" v="water" />
		<tag k="old_name:fkv" v="Dorvejærvi" />
		<tag k="ssr:stedsnr" v="566541" />
	</node>
	<node id="-84921" lat="70.3209028148" lon="29.3303849593">
		<tag k="alt_name:se" v="Álljeveadji" />
		<tag k="loc_name:fkv" v="Öystäjoki" />
		<tag k="name" v="Øvre Flintelva - Álljeveaijohka" />
		<tag k="name:no" v="Øvre Flintelva" />
		<tag k="name:se" v="Álljeveaijohka" />
		<tag k="old_name:no" v="Flintelva, øvre" />
		<tag k="old_name:se" v="Alljevæjjåkka;Alljevæddji;Álljaveaijohka" />
		<tag k="ssr:stedsnr" v="505579" />
		<tag k="waterway" v="river" />
	</node>
	<node id="-84920" lat="70.2132167047" lon="29.6442736488">
		<tag k="name" v="Varitjávri" />
		<tag k="name:se" v="Varitjávri" />
		<tag k="natural" v="water" />
		<tag k="old_name:se" v="Varitjavri" />
		<tag k="ssr:stedsnr" v="505573" />
		<tag k="water" v="lake" />
	</node>
	<node id="-85431" lat="70.1882889212" lon="29.1894738545">
		<tag k="name" v="Aldonneset" />
		<tag k="natural" v="cape" />
		<tag k="ssr:stedsnr" v="565763" />
	</node>
	<node id="-84917" lat="70.3253500417" lon="29.4949598648">
		<tag k="name" v="Golggotjohka" />
		<tag k="name:se" v="Golggotjohka" />
		<tag k="old_name:se" v="Gålgutjåkka" />
		<tag k="ssr:stedsnr" v="505553" />
		<tag k="waterway" v="river" />
	</node>
	<node id="-85428" lat="70.1601667058" lon="29.3641765443">
		<tag k="name" v="Sauevannet" />
		<tag k="natural" v="water" />
		<tag k="ssr:stedsnr" v="565733" />
	</node>
	<node id="-84914" lat="70.1235445008" lon="30.2620815771">
		<tag k="name" v="Falkelva" />
		<tag k="ssr:stedsnr" v="505538" />
		<tag k="waterway" v="stream" />
	</node>
	<node id="-84893" lat="70.183569499" lon="30.312637128">
		<tag k="name" v="Rusefossen - Mertakoski" />
		<tag k="name:fkv" v="Mertakoski" />
		<tag k="name:no" v="Rusefossen" />
		<tag k="ssr:stedsnr" v="334638" />
		<tag k="waterway" v="rapids" />
	</node>
	<node id="-85419" lat="70.1540139307" lon="29.4400598286">
		<tag k="name" v="Hjertevannet" />
		<tag k="natural" v="water" />
		<tag k="ssr:stedsnr" v="394956" />
	</node>
	<node id="-85417" lat="70.1950806049" lon="30.1613927854">
		<tag k="name" v="Blinkkulpen" />
		<tag k="place" v="locality" />
		<tag k="ssr:stedsnr" v="394717" />
	</node>
	<node id="-85413" lat="70.0809944987" lon="29.9850650805">
		<tag k="name" v="Kaivosoja" />
		<tag k="name:fkv" v="Kaivosoja" />
		<tag k="ssr:stedsnr" v="394413" />
		<tag k="waterway" v="stream" />
	</node>
	<node id="-84900" lat="70.1394639314" lon="29.5401375582">
		<tag k="name" v="Jolma" />
		<tag k="name:fkv" v="Jolma" />
		<tag k="natural" v="water" />
		<tag k="old_name:fkv" v="Jålma" />
		<tag k="ssr:stedsnr" v="384613" />
	</node>
	<node id="-84898" lat="70.1230944895" lon="29.8977179169">
		<tag k="name" v="Tanelinjärvi" />
		<tag k="name:fkv" v="Tanelinjärvi" />
		<tag k="natural" v="water" />
		<tag k="old_name:fkv" v="Danelinjærvi" />
		<tag k="ssr:stedsnr" v="384606" />
	</node>
	<node id="-84897" lat="70.1548444923" lon="30.1648233353">
		<tag k="name" v="Portvannet" />
		<tag k="natural" v="water" />
		<tag k="ssr:stedsnr" v="384524" />
	</node>
	<node id="-85408" lat="70.0977417202" lon="30.0986427925">
		<tag k="name" v="Tverrelva" />
		<tag k="ssr:stedsnr" v="394570" />
		<tag k="waterway" v="stream" />
	</node>
	<node id="-84894" lat="70.2017361663" lon="30.3675787916">
		<tag k="name" v="Falkemyrvannet" />
		<tag k="natural" v="water" />
		<tag k="ssr:stedsnr" v="334642" />
	</node>
	<node id="-85405" lat="70.0775444883" lon="29.727020784">
		<tag k="name" v="Prestelva" />
		<tag k="ssr:stedsnr" v="394182" />
		<tag k="waterway" v="stream" />
	</node>
	<node id="-84892" lat="70.1852583848" lon="30.2715955056">
		<tag k="name" v="Stillakulpen" />
		<tag k="place" v="locality" />
		<tag k="ssr:stedsnr" v="334636" />
	</node>
	<node id="-84886" lat="70.127230608" lon="30.1850733032">
		<tag k="name" v="Tørrvannet" />
		<tag k="natural" v="water" />
		<tag k="ssr:stedsnr" v="334506" />
	</node>
	<node id="-85397" lat="70.1099417161" lon="30.1238011176">
		<tag k="name" v="Storvannet" />
		<tag k="natural" v="water" />
		<tag k="ssr:stedsnr" v="392909" />
		<tag k="water" v="lake" />
	</node>
	<node id="-85396" lat="70.412105584" lon="29.1592045015">
		<tag k="name" v="Georggaláddot" />
		<tag k="name:se" v="Georggaláddot" />
		<tag k="natural" v="water" />
		<tag k="old_name:se" v="Georgaladdut" />
		<tag k="ssr:stedsnr" v="384932" />
	</node>
	<node id="-85395" lat="70.2787194762" lon="29.3018238414">
		<tag k="name" v="Álljeveaiskáidi" />
		<tag k="name:se" v="Álljeveaiskáidi" />
		<tag k="natural" v="cape" />
		<tag k="old_name:se" v="Alljevæjskaidi" />
		<tag k="ssr:stedsnr" v="384984" />
	</node>
	<node id="-84803" lat="70.090388942" lon="30.0077761718">
		<tag k="name" v="Kaakkurijärvi" />
		<tag k="name:fkv" v="Kaakkurijärvi" />
		<tag k="natural" v="water" />
		<tag k="ssr:stedsnr" v="273390" />
	</node>
	<node id="-85391" lat="70.3653333678" lon="29.3331599577">
		<tag k="name" v="Urdelva - Juovvajohka" />
		<tag k="name:no" v="Urdelva" />
		<tag k="name:se" v="Juovvajohka" />
		<tag k="old_name:se" v="Juovvajåkka;Juovlajohka" />
		<tag k="ssr:stedsnr" v="384529" />
		<tag k="waterway" v="river" />
	</node>
	<node id="-85389" lat="70.1987667012" lon="29.2639099333">
		<tag k="name" v="Moltebærvannet" />
		<tag k="natural" v="water" />
		<tag k="ssr:stedsnr" v="383750" />
	</node>
	<node id="-85388" lat="70.1666472551" lon="29.2671404805">
		<tag k="name" v="Kildebekken - Heteoja" />
		<tag k="name:fkv" v="Heteoja" />
		<tag k="name:no" v="Kildebekken" />
		<tag k="ssr:stedsnr" v="383730" />
		<tag k="waterway" v="stream" />
	</node>
	<node id="-85387" lat="70.1771611495" lon="29.2322849455">
		<tag k="name" v="Djuphola - Syvähauta" />
		<tag k="name:fkv" v="Syvähauta" />
		<tag k="name:no" v="Djuphola" />
		<tag k="place" v="locality" />
		<tag k="ssr:stedsnr" v="383723" />
	</node>
	<node id="-85386" lat="70.1611139268" lon="29.4068626268">
		<tag k="name" v="Holmvannet" />
		<tag k="natural" v="water" />
		<tag k="ssr:stedsnr" v="383720" />
	</node>
	<node id="-85385" lat="70.164575038" lon="29.2931487894">
		<tag k="name" v="Strykan" />
		<tag k="place" v="locality" />
		<tag k="ssr:stedsnr" v="383717" />
	</node>
	<node id="-84871" lat="70.1000306084" lon="30.1223872318">
		<tag k="name" v="Brokulpen" />
		<tag k="place" v="locality" />
		<tag k="ssr:stedsnr" v="455728" />
	</node>
	<node id="-84870" lat="70.112952833" lon="30.1716177674">
		<tag k="name" v="Varavannet" />
		<tag k="natural" v="water" />
		<tag k="ssr:stedsnr" v="455726" />
	</node>
	<node id="-85376" lat="70.1489361631" lon="30.3104426817">
		<tag k="name" v="Lilleelva" />
		<tag k="ssr:stedsnr" v="334677" />
		<tag k="waterway" v="stream" />
	</node>
	<node id="-85375" lat="70.153086169" lon="30.2736649339">
		<tag k="name" v="Turvejärvi" />
		<tag k="name:fkv" v="Turvejärvi" />
		<tag k="natural" v="water" />
		<tag k="ssr:stedsnr" v="334675" />
	</node>
	<node id="-85371" lat="70.0951778259" lon="30.0388206067">
		<tag k="name" v="Rautujärvi" />
		<tag k="name:fkv" v="Rautujärvi" />
		<tag k="natural" v="water" />
		<tag k="ssr:stedsnr" v="334390" />
	</node>
	<node id="-84858" lat="70.1167639396" lon="30.1217705719">
		<tag k="name" v="Storskogelva" />
		<tag k="ssr:stedsnr" v="455493" />
		<tag k="waterway" v="stream" />
	</node>
	<node id="-84916" lat="70.1463667182" lon="30.1108483592">
		<tag k="name" v="Store Valavannet" />
		<tag k="natural" v="water" />
		<tag k="ssr:stedsnr" v="505549" />
		<tag k="water" v="lake" />
	</node>
	<node id="-85358" lat="70.3096917066" lon="29.8955679937">
		<tag k="name" v="Guovžagurjohka" />
		<tag k="name:se" v="Guovžagurjohka" />
		<tag k="old_name:se" v="Guovžagurjåkka" />
		<tag k="ssr:stedsnr" v="331850" />
		<tag k="waterway" v="river" />
	</node>
	<node id="-84845" lat="70.1264778338" lon="30.2847621348">
		<tag k="name" v="Lille-Urneselva" />
		<tag k="ssr:stedsnr" v="453882" />
		<tag k="waterway" v="river" />
	</node>
	<node id="-85356" lat="70.3996750319" lon="29.129187845">
		<tag k="name" v="Šáikkastanjohka" />
		<tag k="name:se" v="Šáikkastanjohka" />
		<tag k="old_name:se" v="Šaikastanjåkka" />
		<tag k="ssr:stedsnr" v="323938" />
		<tag k="waterway" v="stream" />
	</node>
	<node id="-85354" lat="70.1524500406" lon="29.2430877184">
		<tag k="name" v="Brennevinsvannet - Viinijärvi" />
		<tag k="name:fkv" v="Viinijärvi" />
		<tag k="name:no" v="Brennevinsvannet" />
		<tag k="natural" v="water" />
		<tag k="old_name:fkv" v="Vinijærvi" />
		<tag k="ssr:stedsnr" v="323659" />
	</node>
	<node id="-84841" lat="70.3838278138" lon="29.3647599441">
		<tag k="name" v="Tørrvedelva - Goikemuorjohka" />
		<tag k="name:no" v="Tørrvedelva" />
		<tag k="name:se" v="Goikemuorjohka" />
		<tag k="old_name:se" v="Gåikemuorjåkka;Guoikemuorjohka" />
		<tag k="ssr:stedsnr" v="445999" />
		<tag k="waterway" v="river" />
	</node>
	<node id="-84840" lat="70.1563083838" lon="29.9905734399">
		<tag k="name" v="Rundvannet" />
		<tag k="natural" v="water" />
		<tag k="ssr:stedsnr" v="445648" />
	</node>
	<node id="-84839" lat="70.2372250398" lon="29.5433014728">
		<tag k="name" v="Didnojohskáidi" />
		<tag k="name:se" v="Didnojohskáidi" />
		<tag k="natural" v="cape" />
		<tag k="old_name:se" v="Didnujåkskaidi" />
		<tag k="ssr:stedsnr" v="445588" />
	</node>
	<node id="-85349" lat="70.1291667135" lon="29.9319484469">
		<tag k="name" v="Mastinjärvi" />
		<tag k="name:fkv" v="Mastinjärvi" />
		<tag k="natural" v="water" />
		<tag k="old_name:fkv" v="Mastijærvi" />
		<tag k="ssr:stedsnr" v="323630" />
	</node>
	<node id="-85347" lat="70.1200555997" lon="29.4627542651">
		<tag k="name" v="Sauvannet" />
		<tag k="natural" v="water" />
		<tag k="ssr:stedsnr" v="323627" />
	</node>
	<node id="-84830" lat="70.1047056097" lon="30.0659455821">
		<tag k="name" v="Geitvannet" />
		<tag k="natural" v="water" />
		<tag k="ssr:stedsnr" v="212507" />
		<tag k="water" v="lake" />
	</node>
	<node id="-85340" lat="70.1701083799" lon="30.0642317412">
		<tag k="name" v="Falkorvannet" />
		<tag k="natural" v="water" />
		<tag k="ssr:stedsnr" v="323560" />
	</node>
	<node id="-85339" lat="70.132763942" lon="30.165703875">
		<tag k="name" v="Laurivannet" />
		<tag k="natural" v="water" />
		<tag k="ssr:stedsnr" v="323552" />
	</node>
	<node id="-84826" lat="70.2234611456" lon="29.2852404997">
		<tag k="name" v="Langdam" />
		<tag k="natural" v="water" />
		<tag k="ssr:stedsnr" v="201730" />
	</node>
	<node id="-85334" lat="70.2224528136" lon="29.184671104">
		<tag k="name" v="Äimänpää" />
		<tag k="name:fkv" v="Äimänpää" />
		<tag k="old_name:fkv" v="Æimænbæ" />
		<tag k="ssr:stedsnr" v="322685" />
		<tag k="waterway" v="rapids" />
	</node>
	<node id="-85332" lat="70.184991721" lon="30.2062983324">
		<tag k="name" v="Lillefossen" />
		<tag k="natural" v="waterfall" />
		<tag k="ssr:stedsnr" v="214343" />
	</node>
	<node id="-84819" lat="70.1872639374" lon="30.2102955387">
		<tag k="name" v="Falkormunningen" />
		<tag k="natural" v="bay" />
		<tag k="ssr:stedsnr" v="149905" />
	</node>
	<node id="-85328" lat="70.1873056108" lon="30.2960316008">
		<tag k="name" v="Berrelv-kulpen" />
		<tag k="place" v="locality" />
		<tag k="ssr:stedsnr" v="212644" />
	</node>
	<node id="-84815" lat="70.1835528346" lon="30.3179815936">
		<tag k="name" v="Eggøya - Munasaari" />
		<tag k="name:fkv" v="Munasaari" />
		<tag k="name:no" v="Eggøya" />
		<tag k="place" v="islet" />
		<tag k="ssr:stedsnr" v="273646" />
	</node>
	<node id="-85326" lat="70.0956722773" lon="30.1035511107">
		<tag k="name" v="Lilleelva" />
		<tag k="ssr:stedsnr" v="212576" />
		<tag k="waterway" v="stream" />
	</node>
	<node id="-85317" lat="70.1194722645" lon="29.3174487714">
		<tag k="name" v="Laksekulpen" />
		<tag k="place" v="locality" />
		<tag k="ssr:stedsnr" v="212061" />
	</node>
	<node id="-85315" lat="70.1003361599" lon="29.6588041481">
		<tag k="name" v="Myrvannet" />
		<tag k="natural" v="water" />
		<tag k="ssr:stedsnr" v="212033" />
	</node>
	<node id="-85314" lat="70.1529250497" lon="30.123748351">
		<tag k="name" v="Petter Persmoavannet" />
		<tag k="natural" v="water" />
		<tag k="ssr:stedsnr" v="210899" />
		<tag k="water" v="lake" />
	</node>
	<node id="-85313" lat="70.161483373" lon="29.4331209693">
		<tag k="name" v="Kortevannet" />
		<tag k="natural" v="water" />
		<tag k="ssr:stedsnr" v="210897" />
	</node>
	<node id="-85310" lat="70.3841639185" lon="29.2063516782">
		<tag k="name" v="Stálofielbmá" />
		<tag k="name:se" v="Stálofielbmá" />
		<tag k="old_name:se" v="Stalufielbma" />
		<tag k="ssr:stedsnr" v="203000" />
		<tag k="waterway" v="river" />
	</node>
	<node id="-84789" lat="70.1722305964" lon="29.4611015144">
		<tag k="name" v="Roggejohka - Rokkijoki" />
		<tag k="name:fkv" v="Rokkijoki" />
		<tag k="name:se" v="Roggejohka" />
		<tag k="old_name:se" v="Råggejåkka" />
		<tag k="ssr:stedsnr" v="263573" />
		<tag k="waterway" v="stream" />
	</node>
	<node id="-85308" lat="70.3403111456" lon="29.3206738488">
		<tag k="name" v="Ørretvannet - Dápmotjávri" />
		<tag k="name:no" v="Ørretvannet" />
		<tag k="name:se" v="Dápmotjávri" />
		<tag k="natural" v="water" />
		<tag k="old_name:se" v="Dabmutjavri" />
		<tag k="ssr:stedsnr" v="202996" />
	</node>
	<node id="-84874" lat="70.1271250401" lon="29.3180404477">
		<tag k="name" v="Holmen" />
		<tag k="place" v="islet" />
		<tag k="ssr:stedsnr" v="273102" />
	</node>
	<node id="-85305" lat="70.1557611572" lon="29.5229792406">
		<tag k="name" v="Vargelva - Gunnesaijohka - Hukkajoki" />
		<tag k="name:fkv" v="Hukkajoki" />
		<tag k="name:no" v="Vargelva" />
		<tag k="name:se" v="Gunnesaijohka" />
		<tag k="old_name:fkv" v="Hokkajoki" />
		<tag k="old_name:se" v="Gunnesajjåkka" />
		<tag k="ssr:stedsnr" v="202647" />
		<tag k="waterway" v="stream" />
	</node>
	<node id="-85303" lat="70.1535111519" lon="29.4681764801">
		<tag k="name" v="Østervannet" />
		<tag k="natural" v="water" />
		<tag k="ssr:stedsnr" v="202642" />
		<tag k="water" v="lake" />
	</node>
	<node id="-85302" lat="70.1155417086" lon="29.6412736174">
		<tag k="name" v="Langvannet" />
		<tag k="natural" v="water" />
		<tag k="ssr:stedsnr" v="202636" />
	</node>
	<node id="-85301" lat="70.101847268" lon="29.622293072">
		<tag k="name" v="Bergelva - Kivijoki" />
		<tag k="name:fkv" v="Kivijoki" />
		<tag k="name:no" v="Bergelva" />
		<tag k="ssr:stedsnr" v="202626" />
		<tag k="waterway" v="stream" />
	</node>
	<node id="-85300" lat="70.1396750517" lon="30.1318788957">
		<tag k="name" v="Lille Valavannet" />
		<tag k="natural" v="water" />
		<tag k="ssr:stedsnr" v="202566" />
	</node>
	<node id="-85298" lat="70.2460417148" lon="30.1100567321">
		<tag k="name" v="Bukselårvannet" />
		<tag k="natural" v="water" />
		<tag k="ssr:stedsnr" v="202532" />
	</node>
	<node id="-85297" lat="70.2464917165" lon="30.2251983344">
		<tag k="name" v="Pettervannet" />
		<tag k="natural" v="water" />
		<tag k="ssr:stedsnr" v="202530" />
	</node>
	<node id="-85296" lat="70.2265139406" lon="30.1637789319">
		<tag k="name" v="Djupdalsbekken - Syvänkuru" />
		<tag k="name:fkv" v="Syvänkuru" />
		<tag k="name:no" v="Djupdalsbekken" />
		<tag k="old_name:fkv" v="Suvængoro" />
		<tag k="ssr:stedsnr" v="202515" />
		<tag k="waterway" v="stream" />
	</node>
	<node id="-84782" lat="70.1292805925" lon="29.2703821273">
		<tag k="alt_name:no" v="Skittenelv;Skitnelva" />
		<tag k="name" v="Skitenelva - Baikajohka" />
		<tag k="name:no" v="Skitenelva" />
		<tag k="name:se" v="Baikajohka" />
		<tag k="old_name:se" v="Baikajåkka" />
		<tag k="ssr:stedsnr" v="262633" />
		<tag k="waterway" v="stream" />
	</node>
	<node id="-85293" lat="70.1096805977" lon="29.6057847306">
		<tag k="name" v="Anderselva" />
		<tag k="ssr:stedsnr" v="170988" />
		<tag k="waterway" v="stream" />
	</node>
	<node id="-85292" lat="70.1488306008" lon="29.4809292536">
		<tag k="name" v="Cikkafjielbma" />
		<tag k="name:se" v="Cikkafjielbma" />
		<tag k="natural" v="water" />
		<tag k="ssr:stedsnr" v="151991" />
		<tag k="water" v="lake" />
	</node>
	<node id="-84777" lat="70.1089278338" lon="30.0688900379">
		<tag k="name" v="Sandbakkhølene" />
		<tag k="place" v="locality" />
		<tag k="ssr:stedsnr" v="91527" />
	</node>
	<node id="-84771" lat="70.2305805939" lon="29.2823349327">
		<tag k="name" v="Steinvannet" />
		<tag k="natural" v="water" />
		<tag k="ssr:stedsnr" v="28902" />
	</node>
	<node id="-85279" lat="70.0667694939" lon="29.8788123394">
		<tag k="name" v="Hølen" />
		<tag k="place" v="locality" />
		<tag k="ssr:stedsnr" v="151309" />
	</node>
	<node id="-84896" lat="70.1089278301" lon="30.162901078">
		<tag k="name" v="Lillelva" />
		<tag k="ssr:stedsnr" v="384521" />
		<tag k="waterway" v="stream" />
	</node>
	<node id="-85270" lat="70.1848861659" lon="30.2520038378">
		<tag k="name" v="Gostohola" />
		<tag k="place" v="locality" />
		<tag k="ssr:stedsnr" v="151654" />
	</node>
	<node id="-85263" lat="70.3933028113" lon="29.091357288">
		<tag k="name" v="Hermanskáidi" />
		<tag k="name:se" v="Hermanskáidi" />
		<tag k="natural" v="cape" />
		<tag k="old_name:se" v="Hermanskaidi" />
		<tag k="ssr:stedsnr" v="141997" />
	</node>
	<node id="-85262" lat="70.411700035" lon="29.4403627069">
		<tag k="name" v="Rávdoljohka" />
		<tag k="name:se" v="Rávdoljohka" />
		<tag k="old_name:se" v="Ravduljåkka" />
		<tag k="ssr:stedsnr" v="141969" />
		<tag k="waterway" v="stream" />
	</node>
	<node id="-85037" lat="70.1736305953" lon="29.2076460597">
		<tag k="name" v="Moskolpavannet" />
		<tag k="natural" v="water" />
		<tag k="ssr:stedsnr" v="878890" />
		<tag k="water" v="lake" />
	</node>
	<node id="-85260" lat="70.4000916955" lon="29.274143325">
		<tag k="name" v="Šelgesjohka" />
		<tag k="name:se" v="Šelgesjohka" />
		<tag k="old_name:se" v="Šelgesjåkka" />
		<tag k="ssr:stedsnr" v="141932" />
		<tag k="waterway" v="stream" />
	</node>
	<node id="-85258" lat="70.2926917081" lon="29.843470807">
		<tag k="name" v="Guovdavákkejohka" />
		<tag k="name:se" v="Guovdavákkejohka" />
		<tag k="old_name:se" v="Guovdavaggejåkka;Guovdavaggejohka" />
		<tag k="ssr:stedsnr" v="141891" />
		<tag k="waterway" v="river" />
	</node>
	<node id="-85255" lat="70.1109750378" lon="29.4673570265">
		<tag k="name" v="Paddebyvannet" />
		<tag k="natural" v="water" />
		<tag k="ssr:stedsnr" v="141619" />
		<tag k="water" v="lake" />
	</node>
	<node id="-85254" lat="70.2009250457" lon="30.1592566945">
		<tag k="name" v="Tievanjärvi" />
		<tag k="name:fkv" v="Tievanjärvi" />
		<tag k="natural" v="water" />
		<tag k="old_name:fkv" v="Dievajærvi" />
		<tag k="ssr:stedsnr" v="141569" />
	</node>
	<node id="-85250" lat="70.1635083809" lon="29.8857401598">
		<tag k="name" v="Áitejohka" />
		<tag k="name:se" v="Áitejohka" />
		<tag k="old_name:se" v="Aitejåkka" />
		<tag k="ssr:stedsnr" v="141476" />
		<tag k="waterway" v="river" />
	</node>
	<node id="-85248" lat="70.1612139233" lon="29.3083098961">
		<tag k="alt_name" v="3.Fossen" />
		<tag k="name" v="Tredjefossen" />
		<tag k="natural" v="waterfall" />
		<tag k="ssr:stedsnr" v="140724" />
	</node>
	<node id="-85247" lat="70.2287861482" lon="29.3482071172">
		<tag k="name" v="Reinelva - Devddorjohka" />
		<tag k="name:no" v="Reinelva" />
		<tag k="name:se" v="Devddorjohka" />
		<tag k="old_name:se" v="Devdurjåkka" />
		<tag k="ssr:stedsnr" v="140689" />
		<tag k="waterway" v="stream" />
	</node>
	<node id="-85244" lat="70.205963937" lon="30.1926788958">
		<tag k="name" v="Skallelvporten" />
		<tag k="natural" v="waterfall" />
		<tag k="ssr:stedsnr" v="91724" />
	</node>
	<node id="-84863" lat="70.0924806095" lon="30.0705928047">
		<tag k="name" v="Skjervebakkvannan" />
		<tag k="natural" v="water" />
		<tag k="ssr:stedsnr" v="455566" />
		<tag k="water" v="lake" />
	</node>
	<node id="-85234" lat="70.0640556079" lon="29.8560790289">
		<tag k="name" v="Kibybekken" />
		<tag k="ssr:stedsnr" v="91310" />
		<tag k="waterway" v="stream" />
	</node>
	<node id="-85233" lat="70.0688028243" lon="29.8557068026">
		<tag k="name" v="Lille Ingersvannet" />
		<tag k="natural" v="water" />
		<tag k="ssr:stedsnr" v="91294" />
	</node>
	<node id="-85048" lat="70.0646944882" lon="29.7642096472">
		<tag k="name" v="Dammen" />
		<tag k="natural" v="water" />
		<tag k="ssr:stedsnr" v="880326" />
	</node>
	<node id="-85227" lat="70.1167250426" lon="29.3263960002">
		<tag k="name" v="Holmen" />
		<tag k="place" v="islet" />
		<tag k="ssr:stedsnr" v="91076" />
	</node>
	<node id="-85224" lat="70.176091698" lon="29.1893432963">
		<tag k="name" v="Djupholbekken" />
		<tag k="ssr:stedsnr" v="89874" />
		<tag k="waterway" v="stream" />
	</node>
	<node id="-85221" lat="70.1179639352" lon="29.7344235665">
		<tag k="name" v="Svanevannet" />
		<tag k="natural" v="water" />
		<tag k="ssr:stedsnr" v="81632" />
		<tag k="water" v="lake" />
	</node>
	<node id="-85219" lat="70.1993000333" lon="29.3808404395">
		<tag k="name" v="Høyelva - Oažžejohka" />
		<tag k="name:no" v="Høyelva" />
		<tag k="name:se" v="Oažžejohka" />
		<tag k="old_name:no" v="Flintelva, nedre;Nedre Flintelva" />
		<tag k="old_name:se" v="Oažžejåkka" />
		<tag k="ssr:stedsnr" v="81594" />
		<tag k="waterway" v="river" />
	</node>
	<node id="-84859" lat="70.1242306046" lon="30.187592746">
		<tag k="name" v="Kjøreslåka" />
		<tag k="ssr:stedsnr" v="455509" />
		<tag k="waterway" v="stream" />
	</node>
	<node id="-85216" lat="70.1573028335" lon="30.2452344096">
		<tag k="alt_name:no" v="Lille Skallelv" />
		<tag k="name" v="Lille Skallelva - Ávže-Gállojohka" />
		<tag k="name:no" v="Lille Skallelva" />
		<tag k="name:se" v="Ávže-Gállojohka" />
		<tag k="old_name:no" v="Skallelva, l" />
		<tag k="ssr:stedsnr" v="81571" />
		<tag k="waterway" v="river" />
	</node>
	<node id="-85215" lat="70.1270389416" lon="30.2268177281">
		<tag k="fixme" v="multiple name tags, choose one and add the other to alt_name" />
		<tag k="name" v="Nedre Sikevannet;Torvvannet" />
		<tag k="natural" v="water" />
		<tag k="ssr:stedsnr" v="81563" />
	</node>
	<node id="-85213" lat="70.386755589" lon="29.255612784">
		<tag k="name" v="Stálojávrrit" />
		<tag k="name:se" v="Stálojávrrit" />
		<tag k="natural" v="water" />
		<tag k="old_name:se" v="Stalujavrit" />
		<tag k="ssr:stedsnr" v="80947" />
		<tag k="water" v="lake" />
	</node>
	<node id="-85211" lat="70.1578250413" lon="29.3656848896">
		<tag k="name" v="Vaselva - Suottarjohka - Vesijoki" />
		<tag k="name:fkv" v="Vesijoki" />
		<tag k="name:no" v="Vaselva" />
		<tag k="name:se" v="Suottarjohka" />
		<tag k="old_name:se" v="Suoddarjåkka" />
		<tag k="ssr:stedsnr" v="80740" />
		<tag k="waterway" v="river" />
	</node>
	<node id="-85207" lat="70.1330000359" lon="29.3133710011">
		<tag k="alt_name" v="1.Fossen" />
		<tag k="name" v="Førstefossen" />
		<tag k="natural" v="waterfall" />
		<tag k="ssr:stedsnr" v="80635" />
	</node>
	<node id="-85201" lat="70.1919306045" lon="30.2547288438">
		<tag k="name" v="Kukonjokiniitynjärvi" />
		<tag k="name:fkv" v="Kukonjokiniitynjärvi" />
		<tag k="natural" v="water" />
		<tag k="old_name:fkv" v="Kokkonjohinniittynjärvi" />
		<tag k="ssr:stedsnr" v="30636" />
	</node>
	<node id="-85192" lat="70.0949139383" lon="30.051587259">
		<tag k="name" v="Varskogelva - Rautujoki" />
		<tag k="name:fkv" v="Rautujoki" />
		<tag k="name:no" v="Varskogelva" />
		<tag k="ssr:stedsnr" v="30413" />
		<tag k="waterway" v="stream" />
	</node>
	<node id="-85187" lat="70.0706778247" lon="29.8758817997">
		<tag k="name" v="Fossen" />
		<tag k="natural" v="waterfall" />
		<tag k="ssr:stedsnr" v="30313" />
	</node>
	<node id="-85181" lat="70.0797444915" lon="29.7578957658">
		<tag k="name" v="Russemattielva" />
		<tag k="ssr:stedsnr" v="30192" />
		<tag k="waterway" v="stream" />
	</node>
	<node id="-85173" lat="70.0998722697" lon="29.7000013496">
		<tag k="name" v="Basis A-vannet" />
		<tag k="natural" v="water" />
		<tag k="ssr:stedsnr" v="30004" />
	</node>
	<node id="-85171" lat="70.0754917173" lon="30.018595608">
		<tag k="name" v="Golneselva" />
		<tag k="ssr:stedsnr" v="26246" />
		<tag k="waterway" v="river" />
	</node>
	<node id="-85167" lat="70.450877811" lon="29.1069184142">
		<tag k="name" v="Rátkkajávri" />
		<tag k="name:se" v="Rátkkajávri" />
		<tag k="natural" v="water" />
		<tag k="old_name:se" v="Ratkajavri" />
		<tag k="ssr:stedsnr" v="20961" />
	</node>
	<node id="-85165" lat="70.1972778283" lon="29.9222207113">
		<tag k="fixme" v="multiple name tags, choose one and add the other to alt_name" />
		<tag k="loc_name:fkv" v="Rittajoki" />
		<tag k="name" v="Ridelva - Giellasjohka;Riddojohka" />
		<tag k="name:no" v="Ridelva" />
		<tag k="name:se" v="Giellasjohka;Riddojohka" />
		<tag k="old_name:se" v="Giellasjåkka;Riddujåkka" />
		<tag k="ssr:stedsnr" v="20590" />
		<tag k="waterway" v="river" />
	</node>
	<node id="-85163" lat="70.1484278312" lon="30.0768622784">
		<tag k="name" v="Bondevannet" />
		<tag k="natural" v="water" />
		<tag k="ssr:stedsnr" v="20571" />
	</node>
	<node id="-85159" lat="70.1747778146" lon="29.2523599399">
		<tag k="alt_name:no" v="Kaffeholmen" />
		<tag k="name" v="Kaffiholmen - Kaffisaari" />
		<tag k="name:fkv" v="Kaffisaari" />
		<tag k="name:no" v="Kaffiholmen" />
		<tag k="place" v="islet" />
		<tag k="ssr:stedsnr" v="19717" />
	</node>
	<node id="-85158" lat="70.1644889266" lon="29.2894154783">
		<tag k="alt_name" v="4.Fossen" />
		<tag k="name" v="Fjerdefossen" />
		<tag k="natural" v="waterfall" />
		<tag k="ssr:stedsnr" v="19711" />
	</node>
	<node id="-85085" lat="70.2171861607" lon="30.3670982329">
		<tag k="name" v="Store Davvejohka - Davvejohka - Tavijoki" />
		<tag k="name:fkv" v="Tavijoki" />
		<tag k="name:no" v="Store Davvejohka" />
		<tag k="name:se" v="Davvejohka" />
		<tag k="old_name:no" v="Davvejåkka, store" />
		<tag k="ssr:stedsnr" v="748518" />
		<tag k="waterway" v="stream" />
	</node>
	<node id="-84875" lat="70.1670083719" lon="29.25475992">
		<tag k="name" v="Brennevinsbekken - Viinioja" />
		<tag k="name:fkv" v="Viinioja" />
		<tag k="name:no" v="Brennevinsbekken" />
		<tag k="ssr:stedsnr" v="273058" />
		<tag k="waterway" v="stream" />
	</node>
	<node id="-85143" lat="70.1543778166" lon="29.5434653457">
		<tag k="name" v="Vasselva" />
		<tag k="ssr:stedsnr" v="870618" />
		<tag k="waterway" v="stream" />
	</node>
	<node id="-85142" lat="70.1232083745" lon="29.5640125429">
		<tag k="name" v="Andersbyvannet - Goahtejávri" />
		<tag k="name:no" v="Andersbyvannet" />
		<tag k="name:se" v="Goahtejávri" />
		<tag k="natural" v="water" />
		<tag k="old_name:se" v="Goattejavri" />
		<tag k="ssr:stedsnr" v="870610" />
		<tag k="water" v="lake" />
	</node>
	<node id="-85017" lat="70.1105944955" lon="29.8869040248">
		<tag k="name" v="Kolmikantajärvi" />
		<tag k="name:fkv" v="Kolmikantajärvi" />
		<tag k="natural" v="water" />
		<tag k="ssr:stedsnr" v="576302" />
	</node>
	<node id="-85140" lat="70.1099361644" lon="30.1497455375">
		<tag k="name" v="Fossevannet" />
		<tag k="natural" v="water" />
		<tag k="ssr:stedsnr" v="941723" />
	</node>
	<node id="-85138" lat="70.1786445002" lon="30.3265565655">
		<tag k="name" v="Sinisiikki" />
		<tag k="name:fkv" v="Sinisiikki" />
		<tag k="ssr:stedsnr" v="941683" />
		<tag k="waterway" v="stream" />
	</node>
	<node id="-85137" lat="70.0677833826" lon="29.949303986">
		<tag k="alt_name" v="Høivikbekken" />
		<tag k="name" v="Høyvikbekken" />
		<tag k="ssr:stedsnr" v="941609" />
		<tag k="waterway" v="stream" />
	</node>
	<node id="-84930" lat="70.0875278271" lon="29.891856794">
		<tag k="name" v="Langsmedbekken" />
		<tag k="ssr:stedsnr" v="515251" />
		<tag k="waterway" v="stream" />
	</node>
	<node id="-84844" lat="70.218458371" lon="29.2492655201">
		<tag k="name" v="Buckdammen" />
		<tag k="natural" v="water" />
		<tag k="ssr:stedsnr" v="453880" />
	</node>
	<node id="-85125" lat="70.0882944931" lon="29.8258929529">
		<tag k="name" v="Grønneset" />
		<tag k="natural" v="cape" />
		<tag k="ssr:stedsnr" v="940236" />
	</node>
	<node id="-85123" lat="70.1279861489" lon="29.3141015464">
		<tag k="name" v="Svingen" />
		<tag k="natural" v="water" />
		<tag k="ssr:stedsnr" v="940091" />
		<tag k="water" v="lake" />
	</node>
	<node id="-85118" lat="70.2230194951" lon="30.2729955296">
		<tag k="name" v="Bekkavannet" />
		<tag k="natural" v="water" />
		<tag k="ssr:stedsnr" v="938892" />
	</node>
	<node id="-85115" lat="70.1062305947" lon="29.4522736982">
		<tag k="name" v="Paddebyelva" />
		<tag k="ssr:stedsnr" v="931614" />
		<tag k="waterway" v="stream" />
	</node>
	<node id="-85061" lat="70.189277832" lon="30.3451621245">
		<tag k="name" v="Enkanoja" />
		<tag k="name:fkv" v="Enkanoja" />
		<tag k="old_name:fkv" v="Enganoja" />
		<tag k="ssr:stedsnr" v="880692" />
		<tag k="waterway" v="stream" />
	</node>
	<node id="-85106" lat="70.0828417172" lon="29.7914262865">
		<tag k="name" v="Naversiket" />
		<tag k="ssr:stedsnr" v="819212" />
		<tag k="waterway" v="stream" />
	</node>
	<node id="-85105" lat="70.0944917133" lon="29.5443014353">
		<tag k="name" v="Hestelva" />
		<tag k="ssr:stedsnr" v="819111" />
		<tag k="waterway" v="stream" />
	</node>
	<node id="-85102" lat="70.4640083638" lon="29.2714738944">
		<tag k="name" v="Oarddojárskáidi" />
		<tag k="name:se" v="Oarddojárskáidi" />
		<tag k="natural" v="cape" />
		<tag k="old_name:se" v="Oardujarskaidi" />
		<tag k="ssr:stedsnr" v="930954" />
	</node>
	<node id="-85100" lat="70.2099778154" lon="29.4513320838">
		<tag k="name" v="Fárppaljohka" />
		<tag k="name:se" v="Fárppaljohka" />
		<tag k="old_name:se" v="Farpaljåkka" />
		<tag k="ssr:stedsnr" v="930598" />
		<tag k="waterway" v="stream" />
	</node>
	<node id="-85611" lat="70.1123472673" lon="29.6440513827">
		<tag k="loc_name:se" v="Vuorjánjohka" />
		<tag k="name" v="Tomaselva - Turvejoki" />
		<tag k="name:fkv" v="Turvejoki" />
		<tag k="name:no" v="Tomaselva" />
		<tag k="old_name:no" v="Thomaselva" />
		<tag k="ssr:stedsnr" v="870596" />
		<tag k="waterway" v="river" />
	</node>
	<node id="-85098" lat="70.0855000535" lon="29.8234040507">
		<tag k="name" v="Navarsvannet" />
		<tag k="natural" v="water" />
		<tag k="ssr:stedsnr" v="930556" />
	</node>
	<node id="-85609" lat="70.1654250459" lon="29.9765789989">
		<tag k="name" v="Vasavannet - Riddojávri" />
		<tag k="name:no" v="Vasavannet" />
		<tag k="name:se" v="Riddojávri" />
		<tag k="natural" v="water" />
		<tag k="old_name:se" v="Riddujavri" />
		<tag k="ssr:stedsnr" v="870627" />
		<tag k="water" v="lake" />
	</node>
	<node id="-85095" lat="70.0746611646" lon="29.890881789">
		<tag k="name" v="Nedre Akslavannet" />
		<tag k="natural" v="water" />
		<tag k="ssr:stedsnr" v="930547" />
		<tag k="water" v="lake" />
	</node>
	<node id="-85094" lat="70.0752055998" lon="29.8566123742">
		<tag k="name" v="Skallskogvannet" />
		<tag k="natural" v="water" />
		<tag k="ssr:stedsnr" v="930543" />
	</node>
	<node id="-85092" lat="70.0803417121" lon="29.9040512307">
		<tag k="fixme" v="multiple name tags, choose one and add the other to alt_name" />
		<tag k="name" v="Akslavannet;Øvre Akslavannet" />
		<tag k="natural" v="water" />
		<tag k="ssr:stedsnr" v="808515" />
	</node>
	<node id="-85090" lat="70.1220611546" lon="29.325359883">
		<tag k="name" v="Hermannkulpen" />
		<tag k="place" v="locality" />
		<tag k="ssr:stedsnr" v="758072" />
	</node>
	<node id="-85600" lat="70.155291706" lon="29.4046431892">
		<tag k="name" v="Falkevannet" />
		<tag k="natural" v="water" />
		<tag k="ssr:stedsnr" v="869755" />
	</node>
	<node id="-85597" lat="70.0850056086" lon="29.9786984264">
		<tag k="name" v="Monstadvannet" />
		<tag k="natural" v="water" />
		<tag k="ssr:stedsnr" v="869563" />
	</node>
	<node id="-85596" lat="70.2339972725" lon="30.1788400198">
		<tag k="name" v="Skallelva - Gállojohka - Kallijoki" />
		<tag k="name:fkv" v="Kallijoki" />
		<tag k="name:no" v="Skallelva" />
		<tag k="name:se" v="Gállojohka" />
		<tag k="old_name:se" v="Guovdevaggejåkka;Guovduvaggejåkka;Guovdovákkejohka" />
		<tag k="ssr:stedsnr" v="869553" />
		<tag k="waterway" v="river" />
	</node>
	<node id="-84922" lat="70.107655604" lon="29.807706856">
		<tag k="name" v="Byvannet" />
		<tag k="natural" v="water" />
		<tag k="ssr:stedsnr" v="505615" />
		<tag k="water" v="lake" />
	</node>
	<node id="-85594" lat="70.2165306054" lon="30.099231744">
		<tag k="name" v="Tverrelva - Tievanjoki" />
		<tag k="name:fkv" v="Tievanjoki" />
		<tag k="name:no" v="Tverrelva" />
		<tag k="old_name:fkv" v="Dievanjåki" />
		<tag k="ssr:stedsnr" v="869543" />
		<tag k="waterway" v="stream" />
	</node>
	<node id="-85593" lat="70.232802829" lon="30.2141677768">
		<tag k="name" v="Rássejohka - Niskanoja" />
		<tag k="name:fkv" v="Niskanoja" />
		<tag k="name:se" v="Rássejohka" />
		<tag k="old_name:fkv" v="Niskanåja" />
		<tag k="old_name:se" v="Rassejåkka" />
		<tag k="ssr:stedsnr" v="869537" />
		<tag k="waterway" v="stream" />
	</node>
	<node id="-85592" lat="70.2291500567" lon="30.2993288303">
		<tag k="name" v="Holmfjellvannet - Lumipilkkajärvi" />
		<tag k="name:fkv" v="Lumipilkkajärvi" />
		<tag k="name:no" v="Holmfjellvannet" />
		<tag k="natural" v="water" />
		<tag k="old_name:fkv" v="Lomibilkajærvi" />
		<tag k="ssr:stedsnr" v="869533" />
	</node>
	<node id="-85079" lat="70.1134306069" lon="30.0909150098">
		<tag k="name" v="Tverrelva" />
		<tag k="ssr:stedsnr" v="698474" />
		<tag k="waterway" v="stream" />
	</node>
	<node id="-85586" lat="70.1266556122" lon="30.2474760388">
		<tag k="name" v="Falkelvvannan" />
		<tag k="natural" v="water" />
		<tag k="ssr:stedsnr" v="819743" />
		<tag k="water" v="lake" />
	</node>
	<node id="-85585" lat="70.1064000542" lon="30.1221344567">
		<tag k="name" v="Siribakkelva" />
		<tag k="ssr:stedsnr" v="819529" />
		<tag k="waterway" v="stream" />
	</node>
	<node id="-85071" lat="70.1581639225" lon="29.2885821378">
		<tag k="name" v="Humpinlampi" />
		<tag k="name:fkv" v="Humpinlampi" />
		<tag k="natural" v="water" />
		<tag k="old_name:fkv" v="Hyvibilempi" />
		<tag k="ssr:stedsnr" v="697017" />
	</node>
	<node id="-85070" lat="70.137505589" lon="29.2176655004">
		<tag k="name" v="Puurijärvi" />
		<tag k="name:fkv" v="Puurijärvi" />
		<tag k="natural" v="water" />
		<tag k="old_name:fkv" v="Bårrejärvi" />
		<tag k="ssr:stedsnr" v="697127" />
	</node>
	<node id="-85579" lat="70.1072750469" lon="29.9133540269">
		<tag k="name" v="Keitabekken" />
		<tag k="ssr:stedsnr" v="819331" />
		<tag k="waterway" v="stream" />
	</node>
	<node id="-85065" lat="70.1500972614" lon="29.3367209993">
		<tag k="name" v="Lille Vaselva" />
		<tag k="ssr:stedsnr" v="880966" />
		<tag k="waterway" v="stream" />
	</node>
	<node id="-85063" lat="70.1907444965" lon="30.2094344259">
		<tag k="name" v="Blindtarmen" />
		<tag k="natural" v="water" />
		<tag k="ssr:stedsnr" v="880747" />
		<tag k="water" v="lake" />
	</node>
	<node id="-85573" lat="70.0759778247" lon="29.8682456823">
		<tag k="name" v="Elvekrokan" />
		<tag k="natural" v="bay" />
		<tag k="ssr:stedsnr" v="819288" />
	</node>
	<node id="-85058" lat="70.0730222725" lon="30.0251317088">
		<tag k="name" v="Nikolaidammen" />
		<tag k="natural" v="water" />
		<tag k="ssr:stedsnr" v="880616" />
	</node>
	<node id="-85056" lat="70.0718389398" lon="30.1469927502">
		<tag k="name" v="Storvannet" />
		<tag k="natural" v="water" />
		<tag k="ssr:stedsnr" v="880566" />
	</node>
	<node id="-85567" lat="70.2897361483" lon="29.649715339">
		<tag k="name" v="Guovdoaijávri" />
		<tag k="name:se" v="Guovdoaijávri" />
		<tag k="natural" v="water" />
		<tag k="old_name:se" v="Guovdoaijavri" />
		<tag k="ssr:stedsnr" v="809922" />
		<tag k="water" v="lake" />
	</node>
	<node id="-85050" lat="70.0891333854" lon="30.0362511683">
		<tag k="name" v="Monstavannet" />
		<tag k="natural" v="water" />
		<tag k="ssr:stedsnr" v="880397" />
		<tag k="water" v="lake" />
	</node>
	<node id="-85561" lat="70.1780000512" lon="30.0353373187">
		<tag k="name" v="Vasaelva" />
		<tag k="ssr:stedsnr" v="809572" />
		<tag k="waterway" v="stream" />
	</node>
	<node id="-85560" lat="70.2678861484" lon="29.5895098182">
		<tag k="name" v="Guorrojohka" />
		<tag k="name:se" v="Guorrojohka" />
		<tag k="old_name:se" v="Guorrujåkka" />
		<tag k="ssr:stedsnr" v="809571" />
		<tag k="waterway" v="river" />
	</node>
	<node id="-85559" lat="70.1404195004" lon="30.1902177495">
		<tag k="name" v="Urnesvannet" />
		<tag k="natural" v="water" />
		<tag k="ssr:stedsnr" v="809567" />
	</node>
	<node id="-85556" lat="70.2079278276" lon="30.1589844774">
		<tag k="name" v="Pikkumittajärvi" />
		<tag k="name:fkv" v="Pikkumittajärvi" />
		<tag k="natural" v="water" />
		<tag k="old_name:fkv" v="Bikkomittajærvi" />
		<tag k="ssr:stedsnr" v="809531" />
	</node>
	<node id="-85043" lat="70.0919917122" lon="29.7447485594">
		<tag k="name" v="Fossen" />
		<tag k="natural" v="waterfall" />
		<tag k="ssr:stedsnr" v="880206" />
	</node>
	<node id="-85554" lat="70.1365167066" lon="29.3121793516">
		<tag k="alt_name" v="2.Fossen" />
		<tag k="name" v="Andrefossen" />
		<tag k="natural" v="waterfall" />
		<tag k="ssr:stedsnr" v="808649" />
	</node>
	<node id="-85552" lat="70.1327139309" lon="29.4319014999">
		<tag k="name" v="Røvarvannet - Čuđđejávri" />
		<tag k="name:no" v="Røvarvannet" />
		<tag k="name:se" v="Čuđđejávri" />
		<tag k="natural" v="water" />
		<tag k="old_name:se" v="Čuđđejavri" />
		<tag k="ssr:stedsnr" v="808623" />
	</node>
	<node id="-85039" lat="70.1640528186" lon="29.3002793559">
		<tag k="name" v="Storstilla" />
		<tag k="natural" v="water" />
		<tag k="ssr:stedsnr" v="880004" />
		<tag k="water" v="lake" />
	</node>
	<node id="-85038" lat="70.1603445005" lon="30.195387194">
		<tag k="name" v="Amandavannet" />
		<tag k="natural" v="water" />
		<tag k="ssr:stedsnr" v="878891" />
	</node>
	<node id="-85549" lat="70.0686889413" lon="29.8593484825">
		<tag k="name" v="Ingersvannet" />
		<tag k="natural" v="water" />
		<tag k="ssr:stedsnr" v="808495" />
	</node>
	<node id="-85548" lat="70.1096194969" lon="30.0382511654">
		<tag k="name" v="Storelva - Idjajohka" />
		<tag k="name:no" v="Storelva" />
		<tag k="name:se" v="Idjajohka" />
		<tag k="old_name:se" v="Iddjajåkka" />
		<tag k="ssr:stedsnr" v="808448" />
		<tag k="waterway" v="river" />
	</node>
	<node id="-85432" lat="70.1852472573" lon="29.2890710376">
		<tag k="name" v="Flintelva" />
		<tag k="ssr:stedsnr" v="565769" />
		<tag k="waterway" v="river" />
	</node>
	<node id="-84828" lat="70.073855607" lon="29.7777957502">
		<tag k="name" v="Landhuselva" />
		<tag k="ssr:stedsnr" v="212205" />
		<tag k="waterway" v="stream" />
	</node>
	<node id="-85541" lat="70.1868972736" lon="30.2307510835">
		<tag k="name" v="Viltokulpen" />
		<tag k="place" v="locality" />
		<tag k="ssr:stedsnr" v="758734" />
	</node>
	<node id="-85540" lat="70.1398472738" lon="30.2670010464">
		<tag k="name" v="Langvannet - Pitkäjärvi" />
		<tag k="name:fkv" v="Pitkäjärvi" />
		<tag k="name:no" v="Langvannet" />
		<tag k="natural" v="water" />
		<tag k="ssr:stedsnr" v="758732" />
		<tag k="water" v="lake" />
	</node>
	<node id="-85020" lat="70.1201389322" lon="29.3200293263">
		<tag k="name" v="Brokulpen" />
		<tag k="place" v="locality" />
		<tag k="ssr:stedsnr" v="576068" />
	</node>
	<node id="-85531" lat="70.0709722808" lon="30.1594677418">
		<tag k="name" v="Småvannan" />
		<tag k="natural" v="water" />
		<tag k="ssr:stedsnr" v="758565" />
		<tag k="water" v="lake" />
	</node>
	<node id="-85529" lat="70.1750667057" lon="29.2317404889">
		<tag k="name" v="Hillaoja" />
		<tag k="name:fkv" v="Hillaoja" />
		<tag k="ssr:stedsnr" v="758046" />
		<tag k="waterway" v="stream" />
	</node>
	<node id="-85016" lat="70.0916583796" lon="29.9243039965">
		<tag k="name" v="Langsmedvannet" />
		<tag k="natural" v="water" />
		<tag k="ssr:stedsnr" v="565522" />
		<tag k="water" v="lake" />
	</node>
	<node id="-85015" lat="70.0833417192" lon="29.9241901164">
		<tag k="fixme" v="multiple name tags, choose one and add the other to alt_name" />
		<tag k="name" v="Lille Monstadvannet;Lille Akslavannet" />
		<tag k="natural" v="water" />
		<tag k="ssr:stedsnr" v="565519" />
	</node>
	<node id="-84784" lat="70.1227417026" lon="29.3802709743">
		<tag k="alt_name:no" v="Sudielva;Røverelva" />
		<tag k="name" v="Røvarelva - Čuđđejohka" />
		<tag k="name:no" v="Røvarelva" />
		<tag k="name:se" v="Čuđđejohka" />
		<tag k="old_name:se" v="Čuđđejåkka" />
		<tag k="ssr:stedsnr" v="262646" />
		<tag k="waterway" v="stream" />
	</node>
	<node id="-85525" lat="70.1291778149" lon="29.3175598777">
		<tag k="name" v="Båtkulpen" />
		<tag k="place" v="locality" />
		<tag k="ssr:stedsnr" v="758101" />
	</node>
	<node id="-85523" lat="70.1818500529" lon="30.1657705545">
		<tag k="name" v="Falkorfossen" />
		<tag k="natural" v="waterfall" />
		<tag k="ssr:stedsnr" v="756913" />
	</node>
	<node id="-85522" lat="70.334661147" lon="29.4026877004">
		<tag k="name" v="Tønnevannan - Fárppaljávrrit" />
		<tag k="name:no" v="Tønnevannan" />
		<tag k="name:se" v="Fárppaljávrrit" />
		<tag k="natural" v="water" />
		<tag k="old_name:se" v="Farpaljavrit" />
		<tag k="ssr:stedsnr" v="748995" />
		<tag k="water" v="lake" />
	</node>
	<node id="-85009" lat="70.1025000565" lon="30.1888649565">
		<tag k="name" v="Stikkfiskdammen" />
		<tag k="natural" v="water" />
		<tag k="ssr:stedsnr" v="698728" />
	</node>
	<node id="-85519" lat="70.1531944892" lon="29.7103486012">
		<tag k="name" v="Sisttetjohka" />
		<tag k="name:se" v="Sisttetjohka" />
		<tag k="old_name:se" v="Sistetjåkka" />
		<tag k="ssr:stedsnr" v="748640" />
		<tag k="waterway" v="river" />
	</node>
	<node id="-85518" lat="70.1288833794" lon="29.773879089">
		<tag k="name" v="Vinikabekken" />
		<tag k="ssr:stedsnr" v="748633" />
		<tag k="waterway" v="stream" />
	</node>
	<node id="-85514" lat="70.1990389295" lon="29.6767569665">
		<tag k="name" v="Gåstjerna" />
		<tag k="natural" v="water" />
		<tag k="ssr:stedsnr" v="748580" />
	</node>
	<node id="-85513" lat="70.1826528246" lon="30.0463567403">
		<tag k="name" v="Hellestøkulpen" />
		<tag k="natural" v="water" />
		<tag k="ssr:stedsnr" v="748576" />
	</node>
	<node id="-85511" lat="70.1442139388" lon="30.1475761025">
		<tag k="name" v="Trettenvannan" />
		<tag k="natural" v="water" />
		<tag k="ssr:stedsnr" v="748570" />
		<tag k="water" v="lake" />
	</node>
	<node id="-84998" lat="70.124491709" lon="29.3205432228">
		<tag k="name" v="Esbensenkulpen" />
		<tag k="place" v="locality" />
		<tag k="ssr:stedsnr" v="697100" />
	</node>
	<node id="-85509" lat="70.1625555949" lon="29.3682987543">
		<tag k="name" v="Bikkájávri" />
		<tag k="name:se" v="Bikkájávri" />
		<tag k="natural" v="water" />
		<tag k="old_name:se" v="Biggajavri" />
		<tag k="ssr:stedsnr" v="747714" />
	</node>
	<node id="-84994" lat="70.1306333899" lon="30.2896732379">
		<tag k="name" v="Urneselva" />
		<tag k="ssr:stedsnr" v="695882" />
		<tag k="waterway" v="river" />
	</node>
	<node id="-84993" lat="70.2840472583" lon="29.2663377476">
		<tag k="name" v="Teodorvannet - Joddojávri" />
		<tag k="name:no" v="Teodorvannet" />
		<tag k="name:se" v="Joddojávri" />
		<tag k="natural" v="water" />
		<tag k="old_name:se" v="Jåddujavri" />
		<tag k="ssr:stedsnr" v="687986" />
	</node>
</osm>
