<?xml version="1.0" encoding="UTF-8"?>
<osm generator="osmapis" version="0.6">
	<node id="-487808" lat="60.7519694483" lon="5.03531665815">
		<tag k="alt_name" v="Ådnøyskjer" />
		<tag k="name" v="Ådnøyskjeret" />
		<tag k="ssr:date" v="2016-12-29" />
		<tag k="ssr:gruppe" v="navigasjon" />
		<tag k="ssr:hovedgruppe" v="infrastruktur" />
		<tag k="ssr:stedsnr" v="479227" />
		<tag k="ssr:type" v="lanterne" />
	</node>
	<node id="-489855" lat="60.7722222196" lon="5.66630833991">
		<tag k="name" v="Nordhordland" />
		<tag k="ssr:date" v="2016-05-10" />
		<tag k="ssr:gruppe" v="terrengområder" />
		<tag k="ssr:hovedgruppe" v="terreng" />
		<tag k="ssr:stedsnr" v="634800" />
		<tag k="ssr:type" v="landskapsområde" />
	</node>
	<node id="-487364" lat="60.5824810905" lon="5.24158831857">
		<tag k="name" v="Stølhaugane" />
		<tag k="ssr:date" v="2019-05-31" />
		<tag k="ssr:gruppe" v="veg" />
		<tag k="ssr:hovedgruppe" v="infrastruktur" />
		<tag k="ssr:stedsnr" v="1040571" />
		<tag k="ssr:type" v="adressenavn" />
	</node>
	<node id="-488299" lat="60.7273984619" lon="5.66446195913">
		<tag k="alt_name" v="Åsnes;Åsnes lykt" />
		<tag k="name" v="Åsneset lykt" />
		<tag k="old_name" v="Åsneset" />
		<tag k="ssr:date" v="2019-07-25" />
		<tag k="ssr:gruppe" v="navigasjon" />
		<tag k="ssr:hovedgruppe" v="infrastruktur" />
		<tag k="ssr:stedsnr" v="67312" />
		<tag k="ssr:type" v="fyrlykt" />
	</node>
	<node id="-487380" lat="60.5703695732" lon="5.2278008332">
		<tag k="name" v="Radøyvegen" />
		<tag k="ssr:date" v="2019-05-31" />
		<tag k="ssr:gruppe" v="veg" />
		<tag k="ssr:hovedgruppe" v="infrastruktur" />
		<tag k="ssr:stedsnr" v="1041719" />
		<tag k="ssr:type" v="adressenavn" />
	</node>
	<node id="-487375" lat="60.8243519949" lon="4.99528960887">
		<tag k="name" v="Håvarden" />
		<tag k="ssr:date" v="2019-05-31" />
		<tag k="ssr:gruppe" v="veg" />
		<tag k="ssr:hovedgruppe" v="infrastruktur" />
		<tag k="ssr:stedsnr" v="1040606" />
		<tag k="ssr:type" v="adressenavn" />
	</node>
	<node id="-487374" lat="60.6941298557" lon="5.5915616043">
		<tag k="name" v="Haukøy" />
		<tag k="ssr:date" v="2019-05-31" />
		<tag k="ssr:gruppe" v="veg" />
		<tag k="ssr:hovedgruppe" v="infrastruktur" />
		<tag k="ssr:stedsnr" v="1040603" />
		<tag k="ssr:type" v="adressenavn" />
	</node>
	<node id="-487373" lat="60.694585692" lon="5.58709420004">
		<tag k="name" v="Padøy" />
		<tag k="ssr:date" v="2019-05-31" />
		<tag k="ssr:gruppe" v="veg" />
		<tag k="ssr:hovedgruppe" v="infrastruktur" />
		<tag k="ssr:stedsnr" v="1040612" />
		<tag k="ssr:type" v="adressenavn" />
	</node>
	<node id="-487372" lat="60.6842527407" lon="5.23157703525">
		<tag k="name" v="Konglevoll" />
		<tag k="ssr:date" v="2019-05-31" />
		<tag k="ssr:gruppe" v="veg" />
		<tag k="ssr:hovedgruppe" v="infrastruktur" />
		<tag k="ssr:stedsnr" v="1040609" />
		<tag k="ssr:type" v="adressenavn" />
	</node>
	<node id="-487371" lat="60.5887719617" lon="5.36102190657">
		<tag k="name" v="Helleåsen" />
		<tag k="ssr:date" v="2019-05-31" />
		<tag k="ssr:gruppe" v="veg" />
		<tag k="ssr:hovedgruppe" v="infrastruktur" />
		<tag k="ssr:stedsnr" v="1040596" />
		<tag k="ssr:type" v="adressenavn" />
	</node>
	<node id="-487370" lat="60.5620900562" lon="5.23996904396">
		<tag k="name" v="Nedre Mangerbua" />
		<tag k="ssr:date" v="2019-05-31" />
		<tag k="ssr:gruppe" v="veg" />
		<tag k="ssr:hovedgruppe" v="infrastruktur" />
		<tag k="ssr:stedsnr" v="1040593" />
		<tag k="ssr:type" v="adressenavn" />
	</node>
	<node id="-487369" lat="60.5766210138" lon="5.37503645241">
		<tag k="name" v="Fløsvikvegen" />
		<tag k="ssr:date" v="2019-05-31" />
		<tag k="ssr:gruppe" v="veg" />
		<tag k="ssr:hovedgruppe" v="infrastruktur" />
		<tag k="ssr:stedsnr" v="1040590" />
		<tag k="ssr:type" v="adressenavn" />
	</node>
	<node id="-487368" lat="60.5526677264" lon="5.29504054919">
		<tag k="name" v="Brekkelia" />
		<tag k="ssr:date" v="2019-05-31" />
		<tag k="ssr:gruppe" v="veg" />
		<tag k="ssr:hovedgruppe" v="infrastruktur" />
		<tag k="ssr:stedsnr" v="1040587" />
		<tag k="ssr:type" v="adressenavn" />
	</node>
	<node id="-487367" lat="60.6134652491" lon="5.40324899501">
		<tag k="name" v="Torvhusmyrane" />
		<tag k="ssr:date" v="2019-05-31" />
		<tag k="ssr:gruppe" v="veg" />
		<tag k="ssr:hovedgruppe" v="infrastruktur" />
		<tag k="ssr:stedsnr" v="1040580" />
		<tag k="ssr:type" v="adressenavn" />
	</node>
	<node id="-487366" lat="60.8238308187" lon="5.00494696015">
		<tag k="name" v="Kvaløy" />
		<tag k="ssr:date" v="2019-05-31" />
		<tag k="ssr:gruppe" v="veg" />
		<tag k="ssr:hovedgruppe" v="infrastruktur" />
		<tag k="ssr:stedsnr" v="1040577" />
		<tag k="ssr:type" v="adressenavn" />
	</node>
	<node id="-487365" lat="60.6174515875" lon="5.26877339296">
		<tag k="name" v="Fuglevikvegen" />
		<tag k="ssr:date" v="2019-05-31" />
		<tag k="ssr:gruppe" v="veg" />
		<tag k="ssr:hovedgruppe" v="infrastruktur" />
		<tag k="ssr:stedsnr" v="1040574" />
		<tag k="ssr:type" v="adressenavn" />
	</node>
	<node id="-489668" lat="60.6798888917" lon="5.1152833351">
		<tag k="name" v="Tunnholmen lanterne" />
		<tag k="old_name" v="Fyr" />
		<tag k="ssr:date" v="2016-11-01" />
		<tag k="ssr:gruppe" v="navigasjon" />
		<tag k="ssr:hovedgruppe" v="infrastruktur" />
		<tag k="ssr:stedsnr" v="590267" />
		<tag k="ssr:type" v="lanterne" />
	</node>
	<node id="-488001" lat="60.557195421" lon="5.26513746288">
		<tag k="name" v="Nygård" />
		<tag k="ssr:date" v="2019-12-05" />
		<tag k="ssr:gruppe" v="veg" />
		<tag k="ssr:hovedgruppe" v="infrastruktur" />
		<tag k="ssr:stedsnr" v="1073780" />
		<tag k="ssr:type" v="adressenavn" />
	</node>
	<node id="-489802" lat="60.7232944405" lon="5.34834166709">
		<tag k="alt_name" v="Kråka" />
		<tag k="name" v="Kråka lykt" />
		<tag k="ssr:date" v="2016-05-10" />
		<tag k="ssr:gruppe" v="navigasjon" />
		<tag k="ssr:hovedgruppe" v="infrastruktur" />
		<tag k="ssr:stedsnr" v="612185" />
		<tag k="ssr:type" v="fyrlykt" />
	</node>
	<node id="-487990" lat="60.5855041716" lon="5.18879454933">
		<tag k="name" v="Vetåsvegen" />
		<tag k="ssr:date" v="2019-07-03" />
		<tag k="ssr:gruppe" v="veg" />
		<tag k="ssr:hovedgruppe" v="infrastruktur" />
		<tag k="ssr:stedsnr" v="1072094" />
		<tag k="ssr:type" v="adressenavn" />
	</node>
	<node id="-490544" lat="60.5585222213" lon="5.22655278098">
		<tag k="alt_name" v="Tjuvholmen" />
		<tag k="name" v="Tjuvholmen lykt" />
		<tag k="ssr:date" v="2016-05-11" />
		<tag k="ssr:gruppe" v="navigasjon" />
		<tag k="ssr:hovedgruppe" v="infrastruktur" />
		<tag k="ssr:stedsnr" v="813502" />
		<tag k="ssr:type" v="fyrlykt" />
	</node>
	<node id="-491038" lat="60.8816104596" lon="6.30047518531">
		<tag k="name" v="Vestlandet" />
		<tag k="ssr:date" v="2019-01-06" />
		<tag k="ssr:gruppe" v="administrativeIndelinger" />
		<tag k="ssr:hovedgruppe" v="offentligAdministrasjon" />
		<tag k="ssr:stedsnr" v="974777" />
		<tag k="ssr:type" v="annenAdministrativInndeling" />
	</node>
	<node id="-489111" lat="60.5655166677" lon="5.23134444457">
		<tag k="alt_name" v="Uksebåsen" />
		<tag k="name" v="Uksebåsen lykt" />
		<tag k="ssr:date" v="2019-07-26" />
		<tag k="ssr:gruppe" v="navigasjon" />
		<tag k="ssr:hovedgruppe" v="infrastruktur" />
		<tag k="ssr:stedsnr" v="450602" />
		<tag k="ssr:type" v="lanterne" />
	</node>
	<node id="-489607" lat="60.5490999997" lon="5.28565277306">
		<tag k="alt_name" v="Lindås" />
		<tag k="name" v="Lindås kommune" />
		<tag k="ssr:date" v="2019-05-07" />
		<tag k="ssr:gruppe" v="administrativeIndelinger" />
		<tag k="ssr:hovedgruppe" v="offentligAdministrasjon" />
		<tag k="ssr:stedsnr" v="570154" />
		<tag k="ssr:type" v="kommune" />
	</node>
</osm>
