<?xml version="1.0" encoding="UTF-8"?>
<osm version="0.6" generator="osmapis">
	<node id="33177524" lat="60.1410342" lon="11.2102778" version="5" timestamp="2022-02-01T07:28:18Z" changeset="116853439" uid="3497659" user="NKA">
		<tag k="junction" v="yes" />
		<tag k="name" v="Gystad" />
		<tag k="ssr:stedsnr" v="544588" />
	</node>
	<node id="33196554" lat="60.151217" lon="11.134149" version="6" timestamp="2022-02-01T07:28:18Z" changeset="116853439" uid="3497659" user="NKA">
		<tag k="junction" v="yes" />
		<tag k="name" v="Gravhaugen" />
		<tag k="ssr:stedsnr" v="969638" />
	</node>
	<node id="247944689" lat="60.088973" lon="11.26328" version="4" timestamp="2022-02-01T07:28:18Z" changeset="116853439" uid="3497659" user="NKA">
		<tag k="junction" v="yes" />
		<tag k="name" v="Kauserudkrysset" />
		<tag k="ssr:stedsnr" v="362902" />
	</node>
	<node id="247945379" lat="60.0809152" lon="11.1823396" version="5" timestamp="2022-02-01T07:28:18Z" changeset="116853439" uid="3497659" user="NKA">
		<tag k="junction" v="yes" />
		<tag k="name" v="Lauten" />
		<tag k="ssr:stedsnr" v="726921" />
	</node>
	<node id="252588838" lat="60.1415121" lon="11.1751516" version="15" timestamp="2022-08-04T08:22:41Z" changeset="124468190" uid="7436199" user="aleksaJov">
		<tag k="name" v="Jessheim" />
		<tag k="name:ps" v="يسهايم" />
		<tag k="name:ru" v="Йессхейм" />
		<tag k="place" v="town" />
		<tag k="population" v="22213" />
		<tag k="population:date" v="2021-01-01" />
		<tag k="ref:ssb_tettsted" v="0659" />
		<tag k="source:population" v="SSB - befolkning i tettstedet" />
		<tag k="ssr:stedsnr" v="855131" />
		<tag k="wikidata" v="Q990999" />
		<tag k="wikipedia" v="en:Jessheim" />
	</node>
	<node id="252588906" lat="60.0740687" lon="11.1380487" version="10" timestamp="2022-04-17T08:37:28Z" changeset="119807855" uid="3497659" user="NKA">
		<tag k="name" v="Kløfta" />
		<tag k="place" v="village" />
		<tag k="population" v="8071" />
		<tag k="population:date" v="2021-01-01" />
		<tag k="ref:ssb_tettsted" v="0651" />
		<tag k="source:population" v="SSB - befolkning i tettstedet" />
		<tag k="ssr:stedsnr" v="5032" />
	</node>
	<node id="253158287" lat="60.0765903" lon="11.1278928" version="10" timestamp="2022-02-01T07:28:18Z" changeset="116853439" uid="3497659" user="NKA">
		<tag k="junction" v="yes" />
		<tag k="name" v="Ånerudkrysset" />
		<tag k="ssr:stedsnr" v="969915" />
	</node>
	<node id="253183029" lat="60.0950009" lon="11.2149362" version="7" timestamp="2022-04-17T08:37:28Z" changeset="119807855" uid="3497659" user="NKA">
		<tag k="alt_name" v="Børgen" />
		<tag k="name" v="Borgen" />
		<tag k="place" v="quarter" />
		<tag k="population" v="1351" />
		<tag k="population:date" v="2021-01-01" />
		<tag k="ref:ssb_tettsted" v="0657" />
		<tag k="source:population" v="SSB - befolkning i tettstedet" />
		<tag k="ssr:stedsnr" v="369047" />
	</node>
	<node id="299172316" lat="60.1844132" lon="11.1637859" version="4" timestamp="2022-02-01T07:28:18Z" changeset="116853439" uid="3497659" user="NKA">
		<tag k="junction" v="yes" />
		<tag k="name" v="Vilberg" />
		<tag k="ssr:stedsnr" v="830326" />
	</node>
	<node id="316437032" lat="60.1857211" lon="11.1960406" version="2" timestamp="2022-04-17T08:37:28Z" changeset="119807855" uid="3497659" user="NKA">
		<tag k="name" v="Hauerseter" />
		<tag k="place" v="quarter" />
		<tag k="ssr:stedsnr" v="855235" />
	</node>
	<node id="331075457" lat="60.1533265" lon="11.1299266" version="6" timestamp="2022-04-17T08:37:28Z" changeset="119807855" uid="3497659" user="NKA">
		<tag k="name" v="Sand" />
		<tag k="place" v="village" />
		<tag k="population" v="2413" />
		<tag k="population:date" v="2021-01-01" />
		<tag k="ref:ssb_tettsted" v="0653" />
		<tag k="source:population" v="SSB - befolkning i tettstedet" />
		<tag k="ssr:stedsnr" v="248161" />
	</node>
	<node id="2622731907" lat="60.2288115" lon="11.1673631" version="6" timestamp="2022-04-17T08:37:28Z" changeset="119807855" uid="3497659" user="NKA">
		<tag k="name" v="Mogreina" />
		<tag k="place" v="quarter" />
		<tag k="population" v="1256" />
		<tag k="population:date" v="2021-01-01" />
		<tag k="ref:ssb_tettsted" v="0655" />
		<tag k="source:population" v="SSB - befolkning i tettstedet" />
		<tag k="ssr:stedsnr" v="269348" />
	</node>
	<node id="6236538508" lat="60.1931149" lon="11.0616782" version="2" timestamp="2022-04-17T08:37:28Z" changeset="119807855" uid="3497659" user="NKA">
		<tag k="alt_name" v="Gardermoen" />
		<tag k="name" v="Garder" />
		<tag k="place" v="hamlet" />
		<tag k="ssr:stedsnr" v="466377" />
	</node>
	<node id="6236538535" lat="60.1443687" lon="11.2522803" version="2" timestamp="2022-04-17T08:37:28Z" changeset="119807855" uid="3497659" user="NKA">
		<tag k="name" v="Algarheim" />
		<tag k="place" v="quarter" />
		<tag k="ssr:stedsnr" v="188208" />
	</node>
	<node id="6236538559" lat="60.2453831" lon="11.1675571" version="2" timestamp="2022-04-17T08:37:28Z" changeset="119807855" uid="3497659" user="NKA">
		<tag k="alt_name" v="Sessvollmoen" />
		<tag k="name" v="Sesvoll" />
		<tag k="place" v="hamlet" />
		<tag k="ssr:stedsnr" v="308306" />
	</node>
	<node id="8163608639" lat="60.0756852" lon="11.2755608" version="2" timestamp="2022-02-01T07:28:18Z" changeset="116853439" uid="3497659" user="NKA">
		<tag k="junction" v="yes" />
		<tag k="name" v="Ormstad" />
		<tag k="ssr:stedsnr" v="848903" />
	</node>
	<node id="9671644128" lat="60.1420444" lon="11.1820722" version="1" timestamp="2022-04-17T08:37:28Z" changeset="119807855" uid="3497659" user="NKA">
		<tag k="name" v="Tomtemoen" />
		<tag k="place" v="neighbourhood" />
		<tag k="ssr:stedsnr" v="241586" />
	</node>
	<node id="9671644129" lat="60.2383408" lon="11.1747939" version="1" timestamp="2022-04-17T08:37:28Z" changeset="119807855" uid="3497659" user="NKA">
		<tag k="name" v="Risebru" />
		<tag k="place" v="hamlet" />
		<tag k="ssr:stedsnr" v="309365" />
	</node>
	<node id="9671644130" lat="60.1480445" lon="11.159625" version="1" timestamp="2022-04-17T08:37:28Z" changeset="119807855" uid="3497659" user="NKA">
		<tag k="name" v="Gjestadhagen" />
		<tag k="place" v="neighbourhood" />
		<tag k="ssr:stedsnr" v="119555" />
	</node>
	<node id="9671644131" lat="60.0761083" lon="11.1249723" version="1" timestamp="2022-04-17T08:37:28Z" changeset="119807855" uid="3497659" user="NKA">
		<tag k="name" v="Tviterhellinga" />
		<tag k="place" v="neighbourhood" />
		<tag k="ssr:stedsnr" v="241942" />
	</node>
	<node id="9671644132" lat="60.0868281" lon="11.2643793" version="1" timestamp="2022-04-17T08:37:28Z" changeset="119807855" uid="3497659" user="NKA">
		<tag k="name" v="Kauserud" />
		<tag k="place" v="farm" />
		<tag k="ssr:stedsnr" v="855091" />
	</node>
	<node id="9671644133" lat="60.1956348" lon="11.0608535" version="1" timestamp="2022-04-17T08:37:28Z" changeset="119807855" uid="3497659" user="NKA">
		<tag k="alt_name" v="Garder, nordre" />
		<tag k="name" v="Nordre Garder" />
		<tag k="place" v="farm" />
		<tag k="ssr:stedsnr" v="126726" />
	</node>
	<node id="9671644134" lat="60.0794951" lon="11.1095314" version="1" timestamp="2022-04-17T08:37:28Z" changeset="119807855" uid="3497659" user="NKA">
		<tag k="name" v="Averstad" />
		<tag k="place" v="farm" />
		<tag k="ssr:stedsnr" v="612043" />
	</node>
	<node id="9671644135" lat="60.2263938" lon="11.2360627" version="1" timestamp="2022-04-17T08:37:28Z" changeset="119807855" uid="3497659" user="NKA">
		<tag k="name" v="Jelkerud" />
		<tag k="place" v="farm" />
		<tag k="ssr:stedsnr" v="612329" />
	</node>
	<node id="9671644136" lat="60.1636055" lon="11.2712163" version="1" timestamp="2022-04-17T08:37:28Z" changeset="119807855" uid="3497659" user="NKA">
		<tag k="name" v="Stokkstad" />
		<tag k="place" v="hamlet" />
		<tag k="ssr:stedsnr" v="66207" />
	</node>
	<node id="9671644137" lat="60.092725" lon="11.2531251" version="1" timestamp="2022-04-17T08:37:28Z" changeset="119807855" uid="3497659" user="NKA">
		<tag k="name" v="Snippen" />
		<tag k="place" v="neighbourhood" />
		<tag k="ssr:stedsnr" v="248072" />
	</node>
	<node id="9671644138" lat="60.1268919" lon="11.0969156" version="1" timestamp="2022-04-17T08:37:28Z" changeset="119807855" uid="3497659" user="NKA">
		<tag k="name" v="Kolby" />
		<tag k="place" v="hamlet" />
		<tag k="ssr:stedsnr" v="490148" />
	</node>
	<node id="9671644139" lat="60.0954945" lon="11.1303973" version="1" timestamp="2022-04-17T08:37:28Z" changeset="119807855" uid="3497659" user="NKA">
		<tag k="name" v="Holum" />
		<tag k="place" v="hamlet" />
		<tag k="ssr:stedsnr" v="916074" />
	</node>
	<node id="9671644140" lat="60.1844456" lon="11.1633751" version="1" timestamp="2022-04-17T08:37:28Z" changeset="119807855" uid="3497659" user="NKA">
		<tag k="name" v="Vilberg" />
		<tag k="old_name" v="Viberg" />
		<tag k="place" v="hamlet" />
		<tag k="ssr:stedsnr" v="611230" />
	</node>
	<node id="9671644141" lat="60.0979234" lon="11.1891531" version="1" timestamp="2022-04-17T08:37:28Z" changeset="119807855" uid="3497659" user="NKA">
		<tag k="name" v="Flatby" />
		<tag k="place" v="hamlet" />
		<tag k="ssr:stedsnr" v="369050" />
	</node>
	<node id="9671644142" lat="60.1682982" lon="11.2627725" version="1" timestamp="2022-04-17T08:37:28Z" changeset="119807855" uid="3497659" user="NKA">
		<tag k="alt_name" v="Sanderud" />
		<tag k="name" v="Sannerud" />
		<tag k="place" v="neighbourhood" />
		<tag k="ssr:stedsnr" v="430191" />
	</node>
	<node id="9671644143" lat="60.0972017" lon="11.1766444" version="1" timestamp="2022-04-17T08:37:28Z" changeset="119807855" uid="3497659" user="NKA">
		<tag k="name" v="Ramby" />
		<tag k="place" v="hamlet" />
		<tag k="ssr:stedsnr" v="673079" />
	</node>
	<node id="9671644144" lat="60.2144593" lon="11.2512499" version="1" timestamp="2022-04-17T08:37:28Z" changeset="119807855" uid="3497659" user="NKA">
		<tag k="name" v="Kopperud" />
		<tag k="place" v="hamlet" />
		<tag k="ssr:stedsnr" v="612309" />
	</node>
	<node id="9671644145" lat="60.1941883" lon="11.0554067" version="1" timestamp="2022-04-17T08:37:28Z" changeset="119807855" uid="3497659" user="NKA">
		<tag k="alt_name" v="Garder, vestre;Garder vestre" />
		<tag k="name" v="Vestre Garder" />
		<tag k="place" v="farm" />
		<tag k="ssr:stedsnr" v="855770" />
	</node>
	<node id="9671644146" lat="60.1145469" lon="11.1440622" version="1" timestamp="2022-04-17T08:37:28Z" changeset="119807855" uid="3497659" user="NKA">
		<tag k="alt_name" v="Ullern" />
		<tag k="name" v="Ulleren" />
		<tag k="place" v="hamlet" />
		<tag k="ssr:stedsnr" v="126095" />
	</node>
	<node id="9671644147" lat="60.1329906" lon="11.2451425" version="1" timestamp="2022-04-17T08:37:28Z" changeset="119807855" uid="3497659" user="NKA">
		<tag k="name" v="Habbarstad" />
		<tag k="old_name" v="Haberstad" />
		<tag k="place" v="hamlet" />
		<tag k="ssr:stedsnr" v="490129" />
	</node>
	<node id="9671644148" lat="60.1419611" lon="11.1870361" version="1" timestamp="2022-04-17T08:37:28Z" changeset="119807855" uid="3497659" user="NKA">
		<tag k="name" v="Myrtangen" />
		<tag k="place" v="neighbourhood" />
		<tag k="ssr:stedsnr" v="301580" />
	</node>
	<node id="9671644149" lat="60.1335389" lon="11.1732417" version="1" timestamp="2022-04-17T08:37:28Z" changeset="119807855" uid="3497659" user="NKA">
		<tag k="name" v="Tungen" />
		<tag k="place" v="neighbourhood" />
		<tag k="ssr:stedsnr" v="604559" />
	</node>
	<node id="9671644150" lat="60.1954902" lon="11.063684" version="1" timestamp="2022-04-17T08:37:28Z" changeset="119807855" uid="3497659" user="NKA">
		<tag k="alt_name" v="Garder, østre;Garder østre" />
		<tag k="name" v="Østre Garder" />
		<tag k="place" v="farm" />
		<tag k="ssr:stedsnr" v="551759" />
	</node>
	<node id="9671644151" lat="60.1183019" lon="11.1206229" version="1" timestamp="2022-04-17T08:37:28Z" changeset="119807855" uid="3497659" user="NKA">
		<tag k="name" v="Haga" />
		<tag k="place" v="hamlet" />
		<tag k="ssr:stedsnr" v="66102" />
	</node>
	<node id="9671644152" lat="60.1002943" lon="11.119888" version="1" timestamp="2022-04-17T08:37:28Z" changeset="119807855" uid="3497659" user="NKA">
		<tag k="name" v="Rud" />
		<tag k="place" v="farm" />
		<tag k="ssr:stedsnr" v="794060" />
	</node>
	<node id="9671644153" lat="60.1417384" lon="11.121724" version="1" timestamp="2022-04-17T08:37:28Z" changeset="119807855" uid="3497659" user="NKA">
		<tag k="name" v="Hovin" />
		<tag k="place" v="hamlet" />
		<tag k="ssr:stedsnr" v="612204" />
	</node>
	<node id="9671644154" lat="60.1512208" lon="11.3049721" version="1" timestamp="2022-04-17T08:37:28Z" changeset="119807855" uid="3497659" user="NKA">
		<tag k="name" v="Fjellet" />
		<tag k="place" v="farm" />
		<tag k="ssr:stedsnr" v="5175" />
	</node>
	<node id="9671644155" lat="60.1399528" lon="11.2261501" version="1" timestamp="2022-04-17T08:37:28Z" changeset="119807855" uid="3497659" user="NKA">
		<tag k="name" v="Åsmoen" />
		<tag k="place" v="neighbourhood" />
		<tag k="ssr:stedsnr" v="59611" />
	</node>
	<node id="9671644156" lat="60.1751334" lon="11.0799531" version="1" timestamp="2022-04-17T08:37:28Z" changeset="119807855" uid="3497659" user="NKA">
		<tag k="name" v="Røgler" />
		<tag k="place" v="hamlet" />
		<tag k="ssr:stedsnr" v="1078961" />
	</node>
	<node id="9671644157" lat="60.080884" lon="11.2234203" version="1" timestamp="2022-04-17T08:37:28Z" changeset="119807855" uid="3497659" user="NKA">
		<tag k="name" v="Sørby" />
		<tag k="place" v="hamlet" />
		<tag k="ssr:stedsnr" v="915034" />
	</node>
	<node id="9671644158" lat="60.117057" lon="11.2391154" version="1" timestamp="2022-04-17T08:37:28Z" changeset="119807855" uid="3497659" user="NKA">
		<tag k="name" v="Ås" />
		<tag k="place" v="hamlet" />
		<tag k="ssr:stedsnr" v="369103" />
	</node>
	<node id="9671644159" lat="60.1549315" lon="11.091039" version="1" timestamp="2022-04-17T08:37:28Z" changeset="119807855" uid="3497659" user="NKA">
		<tag k="name" v="Kjos" />
		<tag k="place" v="hamlet" />
		<tag k="ssr:stedsnr" v="734183" />
	</node>
	<node id="9671644160" lat="60.0656347" lon="11.1656008" version="1" timestamp="2022-04-17T08:37:28Z" changeset="119807855" uid="3497659" user="NKA">
		<tag k="name" v="Ile" />
		<tag k="place" v="hamlet" />
		<tag k="ssr:stedsnr" v="1078181" />
	</node>
	<node id="9671644161" lat="60.1856804" lon="11.26303" version="1" timestamp="2022-04-17T08:37:28Z" changeset="119807855" uid="3497659" user="NKA">
		<tag k="name" v="Nordkisa" />
		<tag k="place" v="village" />
		<tag k="population" v="1276" />
		<tag k="population:date" v="2021-01-01" />
		<tag k="ref:ssb_tettsted" v="0656" />
		<tag k="source:population" v="SSB - befolkning i tettstedet" />
		<tag k="ssr:stedsnr" v="611243" />
		<tag k="wikidata" v="Q2132309" />
	</node>
	<node id="9671644162" lat="60.15089" lon="11.1776446" version="1" timestamp="2022-04-17T08:37:28Z" changeset="119807855" uid="3497659" user="NKA">
		<tag k="name" v="Nordby" />
		<tag k="place" v="suburb" />
		<tag k="ssr:stedsnr" v="430159" />
	</node>
	<node id="9671644163" lat="60.1550695" lon="11.1759445" version="1" timestamp="2022-04-17T08:37:28Z" changeset="119807855" uid="3497659" user="NKA">
		<tag k="name" v="Nordbymoen" />
		<tag k="place" v="neighbourhood" />
		<tag k="ssr:stedsnr" v="769485" />
	</node>
	<node id="9671644164" lat="60.1361916" lon="11.226075" version="1" timestamp="2022-04-17T08:37:28Z" changeset="119807855" uid="3497659" user="NKA">
		<tag k="name" v="Rismoen" />
		<tag k="place" v="neighbourhood" />
		<tag k="ssr:stedsnr" v="665666" />
	</node>
	<node id="9671644165" lat="60.139195" lon="11.2069428" version="1" timestamp="2022-04-17T08:37:28Z" changeset="119807855" uid="3497659" user="NKA">
		<tag k="name" v="Gystad" />
		<tag k="place" v="suburb" />
		<tag k="ssr:stedsnr" v="733144" />
	</node>
	<node id="9671644166" lat="60.0676583" lon="11.1360723" version="1" timestamp="2022-04-17T08:37:28Z" changeset="119807855" uid="3497659" user="NKA">
		<tag k="name" v="Nordre Bakke" />
		<tag k="place" v="neighbourhood" />
		<tag k="ssr:stedsnr" v="604982" />
	</node>
	<node id="9671644167" lat="60.1285688" lon="11.272968" version="1" timestamp="2022-04-17T08:37:28Z" changeset="119807855" uid="3497659" user="NKA">
		<tag k="name" v="Nesten" />
		<tag k="place" v="hamlet" />
		<tag k="ssr:stedsnr" v="611123" />
	</node>
	<node id="9671644168" lat="60.1155576" lon="11.2968159" version="1" timestamp="2022-04-17T08:37:28Z" changeset="119807855" uid="3497659" user="NKA">
		<tag k="name" v="Kverner" />
		<tag k="place" v="hamlet" />
		<tag k="ssr:stedsnr" v="66111" />
	</node>
	<node id="9671644169" lat="60.1820306" lon="11.2663111" version="1" timestamp="2022-04-17T08:37:28Z" changeset="119807855" uid="3497659" user="NKA">
		<tag k="name" v="Skrythagen" />
		<tag k="place" v="hamlet" />
		<tag k="ssr:stedsnr" v="967667" />
	</node>
	<node id="9671644170" lat="60.1260016" lon="11.2127129" version="1" timestamp="2022-04-17T08:37:28Z" changeset="119807855" uid="3497659" user="NKA">
		<tag k="name" v="Sollia" />
		<tag k="place" v="neighbourhood" />
		<tag k="ssr:stedsnr" v="981919" />
	</node>
	<node id="9671644171" lat="60.1459944" lon="11.1172611" version="1" timestamp="2022-04-17T08:37:28Z" changeset="119807855" uid="3497659" user="NKA">
		<tag k="name" v="Lauten" />
		<tag k="place" v="farm" />
		<tag k="ssr:stedsnr" v="612200" />
	</node>
	<node id="9671644172" lat="60.0659639" lon="11.12245" version="1" timestamp="2022-04-17T08:37:28Z" changeset="119807855" uid="3497659" user="NKA">
		<tag k="name" v="Hilton" />
		<tag k="place" v="neighbourhood" />
		<tag k="ssr:stedsnr" v="241971" />
	</node>
	<node id="9671644173" lat="60.234448" lon="11.2095537" version="1" timestamp="2022-04-17T08:37:28Z" changeset="119807855" uid="3497659" user="NKA">
		<tag k="name" v="Rullnes" />
		<tag k="place" v="farm" />
		<tag k="ssr:stedsnr" v="915377" />
	</node>
	<node id="9671644174" lat="60.1370973" lon="11.1637889" version="1" timestamp="2022-04-17T08:37:28Z" changeset="119807855" uid="3497659" user="NKA">
		<tag k="name" v="Brinken" />
		<tag k="place" v="neighbourhood" />
		<tag k="ssr:stedsnr" v="908576" />
	</node>
	<node id="9671644175" lat="60.1933865" lon="11.2666885" version="1" timestamp="2022-04-17T08:37:28Z" changeset="119807855" uid="3497659" user="NKA">
		<tag k="name" v="Stensby" />
		<tag k="place" v="hamlet" />
		<tag k="ssr:stedsnr" v="248259" />
	</node>
	<node id="9671644176" lat="60.233946" lon="11.1447978" version="1" timestamp="2022-04-17T08:37:28Z" changeset="119807855" uid="3497659" user="NKA">
		<tag k="name" v="Sessvollmoen" />
		<tag k="old_name" v="Sesvoll" />
		<tag k="place" v="neighbourhood" />
		<tag k="ssr:stedsnr" v="390202" />
	</node>
	<node id="9671644177" lat="60.1143547" lon="11.3084754" version="1" timestamp="2022-04-17T08:37:28Z" changeset="119807855" uid="3497659" user="NKA">
		<tag k="name" v="Rolstad" />
		<tag k="old_name" v="Rolvstad" />
		<tag k="place" v="hamlet" />
		<tag k="ssr:stedsnr" v="369090" />
	</node>
	<node id="9671644178" lat="60.0695564" lon="11.2138906" version="1" timestamp="2022-04-17T08:37:28Z" changeset="119807855" uid="3497659" user="NKA">
		<tag k="name" v="Stokker" />
		<tag k="place" v="hamlet" />
		<tag k="ssr:stedsnr" v="915052" />
	</node>
	<node id="9671644179" lat="60.0670528" lon="11.1061253" version="1" timestamp="2022-04-17T08:37:28Z" changeset="119807855" uid="3497659" user="NKA">
		<tag k="name" v="Hilton" />
		<tag k="place" v="farm" />
		<tag k="ssr:stedsnr" v="66378" />
	</node>
	<node id="9671644180" lat="60.1068189" lon="11.2478169" version="1" timestamp="2022-04-17T08:37:28Z" changeset="119807855" uid="3497659" user="NKA">
		<tag k="name" v="Flindrum" />
		<tag k="place" v="hamlet" />
		<tag k="ssr:stedsnr" v="673137" />
	</node>
	<node id="9671644181" lat="60.1208506" lon="11.0996488" version="1" timestamp="2022-04-17T08:37:28Z" changeset="119807855" uid="3497659" user="NKA">
		<tag k="name" v="Taugland" />
		<tag k="place" v="hamlet" />
		<tag k="ssr:stedsnr" v="551105" />
	</node>
	<node id="9671644182" lat="60.1440529" lon="11.2200618" version="1" timestamp="2022-04-17T08:37:28Z" changeset="119807855" uid="3497659" user="NKA">
		<tag k="name" v="Holm" />
		<tag k="place" v="hamlet" />
		<tag k="ssr:stedsnr" v="916200" />
	</node>
	<node id="9671644183" lat="60.2334417" lon="11.1544083" version="1" timestamp="2022-04-17T08:37:28Z" changeset="119807855" uid="3497659" user="NKA">
		<tag k="name" v="Østli" />
		<tag k="place" v="neighbourhood" />
		<tag k="ssr:stedsnr" v="300623" />
	</node>
	<node id="9671644184" lat="60.093513" lon="11.1525445" version="1" timestamp="2022-04-17T08:37:28Z" changeset="119807855" uid="3497659" user="NKA">
		<tag k="name" v="Bogstad" />
		<tag k="place" v="hamlet" />
		<tag k="ssr:stedsnr" v="734071" />
	</node>
	<node id="9671644185" lat="60.1008389" lon="11.214714" version="1" timestamp="2022-04-17T08:37:28Z" changeset="119807855" uid="3497659" user="NKA">
		<tag k="name" v="Borgenåsen" />
		<tag k="place" v="neighbourhood" />
		<tag k="ssr:stedsnr" v="41380" />
	</node>
	<node id="9671644186" lat="60.1345138" lon="11.288809" version="1" timestamp="2022-04-17T08:37:28Z" changeset="119807855" uid="3497659" user="NKA">
		<tag k="name" v="Onsrud" />
		<tag k="place" v="hamlet" />
		<tag k="ssr:stedsnr" v="66127" />
	</node>
	<node id="9671644187" lat="60.1519639" lon="11.1554861" version="1" timestamp="2022-04-17T08:37:28Z" changeset="119807855" uid="3497659" user="NKA">
		<tag k="name" v="Kverndalen" />
		<tag k="place" v="neighbourhood" />
		<tag k="ssr:stedsnr" v="969639" />
	</node>
	<node id="9671644188" lat="60.1025661" lon="11.2043655" version="1" timestamp="2022-04-17T08:37:28Z" changeset="119807855" uid="3497659" user="NKA">
		<tag k="name" v="Oppen" />
		<tag k="place" v="hamlet" />
		<tag k="ssr:stedsnr" v="66121" />
	</node>
	<node id="9671644189" lat="60.1720188" lon="11.2152752" version="1" timestamp="2022-04-17T08:37:28Z" changeset="119807855" uid="3497659" user="NKA">
		<tag k="alt_name" v="Lien" />
		<tag k="name" v="Lia" />
		<tag k="place" v="hamlet" />
		<tag k="ssr:stedsnr" v="1078937" />
	</node>
	<node id="9671644190" lat="60.2041056" lon="11.166036" version="1" timestamp="2022-04-17T08:37:28Z" changeset="119807855" uid="3497659" user="NKA">
		<tag k="name" v="Kloppeløkken" />
		<tag k="place" v="hamlet" />
		<tag k="ssr:stedsnr" v="57663" />
	</node>
	<node id="9671644191" lat="60.0791332" lon="11.271919" version="1" timestamp="2022-04-17T08:37:28Z" changeset="119807855" uid="3497659" user="NKA">
		<tag k="name" v="Holt" />
		<tag k="place" v="hamlet" />
		<tag k="ssr:stedsnr" v="672045" />
	</node>
	<node id="9671644192" lat="60.1868147" lon="11.2517129" version="1" timestamp="2022-04-17T08:37:28Z" changeset="119807855" uid="3497659" user="NKA">
		<tag k="alt_name" v="Søndre Støvner" />
		<tag k="name" v="Støvner" />
		<tag k="place" v="farm" />
		<tag k="ssr:stedsnr" v="162259" />
	</node>
	<node id="9671644193" lat="60.0744088" lon="11.2725778" version="1" timestamp="2022-04-17T08:37:28Z" changeset="119807855" uid="3497659" user="NKA">
		<tag k="name" v="Ormstad" />
		<tag k="place" v="hamlet" />
		<tag k="ssr:stedsnr" v="673044" />
	</node>
	<node id="9671644194" lat="60.1128224" lon="11.1291176" version="1" timestamp="2022-04-17T08:37:28Z" changeset="119807855" uid="3497659" user="NKA">
		<tag k="name" v="Asper" />
		<tag k="place" v="farm" />
		<tag k="ssr:stedsnr" v="491112" />
	</node>
	<node id="9671644195" lat="60.1038349" lon="11.1920878" version="1" timestamp="2022-04-17T08:37:28Z" changeset="119807855" uid="3497659" user="NKA">
		<tag k="name" v="Plogstad" />
		<tag k="place" v="hamlet" />
		<tag k="ssr:stedsnr" v="916116" />
	</node>
	<node id="9671644196" lat="60.2383319" lon="11.2032616" version="1" timestamp="2022-04-17T08:37:28Z" changeset="119807855" uid="3497659" user="NKA">
		<tag k="name" v="Sætrefeltet" />
		<tag k="place" v="neighbourhood" />
		<tag k="ssr:stedsnr" v="981970" />
	</node>
	<node id="9671644197" lat="60.1636548" lon="11.0728523" version="1" timestamp="2022-04-17T08:37:28Z" changeset="119807855" uid="3497659" user="NKA">
		<tag k="name" v="Bjørningstad" />
		<tag k="place" v="hamlet" />
		<tag k="ssr:stedsnr" v="672728" />
	</node>
	<node id="9671644198" lat="60.1516328" lon="11.1438358" version="1" timestamp="2022-04-17T08:37:28Z" changeset="119807855" uid="3497659" user="NKA">
		<tag k="name" v="Haug" />
		<tag k="place" v="neighbourhood" />
		<tag k="ssr:stedsnr" v="981967" />
	</node>
	<node id="9671644199" lat="60.1781242" lon="11.2137714" version="1" timestamp="2022-04-17T08:37:28Z" changeset="119807855" uid="3497659" user="NKA">
		<tag k="name" v="Korslund" />
		<tag k="place" v="hamlet" />
		<tag k="ssr:stedsnr" v="794228" />
	</node>
	<node id="9671644200" lat="60.1475391" lon="11.1118386" version="1" timestamp="2022-04-17T08:37:28Z" changeset="119807855" uid="3497659" user="NKA">
		<tag k="name" v="Gislevoll" />
		<tag k="place" v="farm" />
		<tag k="ssr:stedsnr" v="794153" />
	</node>
	<node id="9671644201" lat="60.0755755" lon="11.1328263" version="1" timestamp="2022-04-17T08:37:28Z" changeset="119807855" uid="3497659" user="NKA">
		<tag k="name" v="Fredly søndre" />
		<tag k="place" v="neighbourhood" />
		<tag k="ssr:stedsnr" v="604949" />
	</node>
	<node id="9671644202" lat="60.1035425" lon="11.1631836" version="1" timestamp="2022-04-17T08:37:28Z" changeset="119807855" uid="3497659" user="NKA">
		<tag k="name" v="Loding" />
		<tag k="place" v="hamlet" />
		<tag k="ssr:stedsnr" v="5051" />
	</node>
	<node id="9671644203" lat="60.1627296" lon="11.2938183" version="1" timestamp="2022-04-17T08:37:28Z" changeset="119807855" uid="3497659" user="NKA">
		<tag k="name" v="Berg" />
		<tag k="place" v="hamlet" />
		<tag k="ssr:stedsnr" v="5216" />
	</node>
	<node id="9671644204" lat="60.144138" lon="11.1542957" version="1" timestamp="2022-04-17T08:37:28Z" changeset="119807855" uid="3497659" user="NKA">
		<tag k="name" v="Gjestad" />
		<tag k="place" v="farm" />
		<tag k="ssr:stedsnr" v="309210" />
	</node>
	<node id="9671644205" lat="60.1576863" lon="11.0706833" version="1" timestamp="2022-04-17T08:37:28Z" changeset="119807855" uid="3497659" user="NKA">
		<tag k="name" v="Hallingstad" />
		<tag k="place" v="hamlet" />
		<tag k="ssr:stedsnr" v="611730" />
	</node>
	<node id="9671644206" lat="60.1065933" lon="11.1289094" version="1" timestamp="2022-04-17T08:37:28Z" changeset="119807855" uid="3497659" user="NKA">
		<tag k="name" v="Lystad" />
		<tag k="place" v="hamlet" />
		<tag k="ssr:stedsnr" v="187110" />
	</node>
	<node id="9671644207" lat="60.1350531" lon="11.106317" version="1" timestamp="2022-04-17T08:37:28Z" changeset="119807855" uid="3497659" user="NKA">
		<tag k="name" v="Åstad" />
		<tag k="place" v="hamlet" />
		<tag k="ssr:stedsnr" v="551148" />
	</node>
	<node id="9671644208" lat="60.2401603" lon="11.1909233" version="1" timestamp="2022-04-17T08:37:28Z" changeset="119807855" uid="3497659" user="NKA">
		<tag k="name" v="Dal" />
		<tag k="place" v="hamlet" />
		<tag k="ssr:stedsnr" v="490302" />
	</node>
	<node id="9671644209" lat="60.1513639" lon="11.1954083" version="1" timestamp="2022-04-17T08:37:28Z" changeset="119807855" uid="3497659" user="NKA">
		<tag k="name" v="Gystadmarka" />
		<tag k="place" v="neighbourhood" />
		<tag k="ssr:stedsnr" v="118418" />
	</node>
	<node id="9671644210" lat="60.0782976" lon="11.1842563" version="1" timestamp="2022-04-17T08:37:28Z" changeset="119807855" uid="3497659" user="NKA">
		<tag k="name" v="Frogner" />
		<tag k="place" v="hamlet" />
		<tag k="ssr:stedsnr" v="126034" />
	</node>
	<node id="9671644211" lat="60.178677" lon="11.271065" version="1" timestamp="2022-04-17T08:37:28Z" changeset="119807855" uid="3497659" user="NKA">
		<tag k="name" v="Skryta" />
		<tag k="place" v="hamlet" />
		<tag k="ssr:stedsnr" v="915218" />
	</node>
	<node id="9671644212" lat="60.1453912" lon="11.2652007" version="1" timestamp="2022-04-17T08:37:28Z" changeset="119807855" uid="3497659" user="NKA">
		<tag k="name" v="Algrem" />
		<tag k="place" v="hamlet" />
		<tag k="ssr:stedsnr" v="1078922" />
	</node>
	<node id="9671644213" lat="60.1557404" lon="11.2627585" version="1" timestamp="2022-04-17T08:37:28Z" changeset="119807855" uid="3497659" user="NKA">
		<tag k="name" v="Furuset" />
		<tag k="place" v="hamlet" />
		<tag k="ssr:stedsnr" v="309248" />
	</node>
	<node id="9671644214" lat="60.0860966" lon="11.1588586" version="1" timestamp="2022-04-17T08:37:28Z" changeset="119807855" uid="3497659" user="NKA">
		<tag k="name" v="Hauger" />
		<tag k="place" v="hamlet" />
		<tag k="ssr:stedsnr" v="612093" />
	</node>
	<node id="9671644215" lat="60.1957557" lon="11.1660082" version="1" timestamp="2022-04-17T08:37:28Z" changeset="119807855" uid="3497659" user="NKA">
		<tag k="name" v="Furulund" />
		<tag k="place" v="hamlet" />
		<tag k="ssr:stedsnr" v="551265" />
	</node>
	<node id="9671644216" lat="60.1717866" lon="11.3030535" version="1" timestamp="2022-04-17T08:37:28Z" changeset="119807855" uid="3497659" user="NKA">
		<tag k="name" v="Jødal" />
		<tag k="place" v="hamlet" />
		<tag k="ssr:stedsnr" v="187200" />
	</node>
	<node id="9671652117" lat="60.1763828" lon="11.0758436" version="1" timestamp="2022-04-17T08:37:28Z" changeset="119807855" uid="3497659" user="NKA">
		<tag k="alt_name" v="Røgler, store;Røgler store" />
		<tag k="name" v="Store Røgler" />
		<tag k="old_name" v="Røgler, nedre" />
		<tag k="place" v="farm" />
		<tag k="ssr:stedsnr" v="66708" />
	</node>
	<node id="9671652118" lat="60.1432998" lon="11.0933112" version="1" timestamp="2022-04-17T08:37:28Z" changeset="119807855" uid="3497659" user="NKA">
		<tag k="name" v="Rud" />
		<tag k="place" v="farm" />
		<tag k="ssr:stedsnr" v="673198" />
	</node>
	<node id="9671652119" lat="60.1371417" lon="11.1705638" version="1" timestamp="2022-04-17T08:37:28Z" changeset="119807855" uid="3497659" user="NKA">
		<tag k="name" v="Sundbyjordet" />
		<tag k="place" v="neighbourhood" />
		<tag k="ssr:stedsnr" v="301521" />
	</node>
	<node id="9671652120" lat="60.207451" lon="11.1501886" version="1" timestamp="2022-04-17T08:37:28Z" changeset="119807855" uid="3497659" user="NKA">
		<tag k="name" v="Elstad" />
		<tag k="place" v="hamlet" />
		<tag k="ssr:stedsnr" v="491277" />
	</node>
	<node id="9671652121" lat="60.1335008" lon="11.1463434" version="1" timestamp="2022-04-17T08:37:28Z" changeset="119807855" uid="3497659" user="NKA">
		<tag k="name" v="Døli" />
		<tag k="place" v="hamlet" />
		<tag k="ssr:stedsnr" v="430122" />
	</node>
	<node id="9671652122" lat="60.0629203" lon="11.1487957" version="1" timestamp="2022-04-17T08:37:28Z" changeset="119807855" uid="3497659" user="NKA">
		<tag k="name" v="Isingrud" />
		<tag k="place" v="hamlet" />
		<tag k="ssr:stedsnr" v="59955" />
	</node>
	<node id="9671652123" lat="60.0872873" lon="11.1232241" version="1" timestamp="2022-04-17T08:37:28Z" changeset="119807855" uid="3497659" user="NKA">
		<tag k="name" v="Olstad" />
		<tag k="place" v="hamlet" />
		<tag k="ssr:stedsnr" v="794073" />
	</node>
	<node id="9671652124" lat="60.1030323" lon="11.1511931" version="1" timestamp="2022-04-17T08:37:28Z" changeset="119807855" uid="3497659" user="NKA">
		<tag k="name" v="Stanger" />
		<tag k="place" v="hamlet" />
		<tag k="ssr:stedsnr" v="369107" />
	</node>
	<node id="9671652125" lat="60.150238" lon="11.1035305" version="1" timestamp="2022-04-17T08:37:28Z" changeset="119807855" uid="3497659" user="NKA">
		<tag k="name" v="Låke" />
		<tag k="place" v="hamlet" />
		<tag k="ssr:stedsnr" v="551179" />
	</node>
	<node id="9671652126" lat="60.1116728" lon="11.2971715" version="1" timestamp="2022-04-17T08:37:28Z" changeset="119807855" uid="3497659" user="NKA">
		<tag k="alt_name" v="Reierstad" />
		<tag k="name" v="Restad" />
		<tag k="place" v="farm" />
		<tag k="ssr:stedsnr" v="126099" />
	</node>
	<node id="9671652127" lat="60.1010379" lon="11.2393369" version="1" timestamp="2022-04-17T08:37:28Z" changeset="119807855" uid="3497659" user="NKA">
		<tag k="name" v="Lund" />
		<tag k="place" v="hamlet" />
		<tag k="ssr:stedsnr" v="369044" />
	</node>
	<node id="9671652128" lat="60.1551154" lon="11.2377301" version="1" timestamp="2022-04-17T08:37:28Z" changeset="119807855" uid="3497659" user="NKA">
		<tag k="name" v="Brenni" />
		<tag k="place" v="hamlet" />
		<tag k="ssr:stedsnr" v="673239" />
	</node>
	<node id="9671652129" lat="60.0923051" lon="11.2805753" version="1" timestamp="2022-04-17T08:37:28Z" changeset="119807855" uid="3497659" user="NKA">
		<tag k="name" v="Vettal" />
		<tag k="place" v="hamlet" />
		<tag k="ssr:stedsnr" v="490078" />
	</node>
	<node id="9671652130" lat="60.1965459" lon="11.3009443" version="1" timestamp="2022-04-17T08:37:28Z" changeset="119807855" uid="3497659" user="NKA">
		<tag k="name" v="Grøndalen" />
		<tag k="place" v="hamlet" />
		<tag k="ssr:stedsnr" v="916272" />
	</node>
	<node id="9671652131" lat="60.0613872" lon="11.1091244" version="1" timestamp="2022-04-17T08:37:28Z" changeset="119807855" uid="3497659" user="NKA">
		<tag k="alt_name" v="Brotnov" />
		<tag k="name" v="Brotnu" />
		<tag k="place" v="farm" />
		<tag k="ssr:stedsnr" v="612071" />
	</node>
	<node id="9671652132" lat="60.1336756" lon="11.1214569" version="1" timestamp="2022-04-17T08:37:28Z" changeset="119807855" uid="3497659" user="NKA">
		<tag k="name" v="Bjørke" />
		<tag k="place" v="hamlet" />
		<tag k="ssr:stedsnr" v="5135" />
	</node>
	<node id="9671652133" lat="60.1475622" lon="11.1432302" version="1" timestamp="2022-04-17T08:37:28Z" changeset="119807855" uid="3497659" user="NKA">
		<tag k="name" v="Haug" />
		<tag k="place" v="hamlet" />
		<tag k="ssr:stedsnr" v="491189" />
	</node>
	<node id="9671652134" lat="60.2180082" lon="11.1447691" version="1" timestamp="2022-04-17T08:37:28Z" changeset="119807855" uid="3497659" user="NKA">
		<tag k="name" v="Fløgstad" />
		<tag k="place" v="farm" />
		<tag k="ssr:stedsnr" v="876133" />
	</node>
	<node id="9671652135" lat="60.1721642" lon="11.0965007" version="1" timestamp="2022-04-17T08:37:28Z" changeset="119807855" uid="3497659" user="NKA">
		<tag k="name" v="Brudalen" />
		<tag k="place" v="hamlet" />
		<tag k="ssr:stedsnr" v="66194" />
	</node>
	<node id="9671652136" lat="60.0871854" lon="11.2427674" version="1" timestamp="2022-04-17T08:37:28Z" changeset="119807855" uid="3497659" user="NKA">
		<tag k="alt_name" v="Ingjer" />
		<tag k="name" v="Inngjerd" />
		<tag k="place" v="farm" />
		<tag k="ssr:stedsnr" v="369083" />
	</node>
	<node id="9671652137" lat="60.1313303" lon="11.0842428" version="1" timestamp="2022-04-17T08:37:28Z" changeset="119807855" uid="3497659" user="NKA">
		<tag k="alt_name" v="Krokfoss" />
		<tag k="name" v="Kråkfoss" />
		<tag k="old_name" v="Kraakfoss;Kraakfos" />
		<tag k="place" v="farm" />
		<tag k="ssr:stedsnr" v="672620" />
	</node>
	<node id="9671652139" lat="60.1382389" lon="11.2207029" version="1" timestamp="2022-04-17T08:37:28Z" changeset="119807855" uid="3497659" user="NKA">
		<tag k="name" v="Holmsrøa" />
		<tag k="place" v="neighbourhood" />
		<tag k="ssr:stedsnr" v="544626" />
	</node>
	<node id="9671652140" lat="60.081706" lon="11.1911536" version="1" timestamp="2022-04-17T08:37:28Z" changeset="119807855" uid="3497659" user="NKA">
		<tag k="name" v="Kyken" />
		<tag k="place" v="farm" />
		<tag k="ssr:stedsnr" v="733049" />
	</node>
	<node id="9671652141" lat="60.0690885" lon="11.1788702" version="1" timestamp="2022-04-17T08:37:28Z" changeset="119807855" uid="3497659" user="NKA">
		<tag k="name" v="Romsås" />
		<tag k="place" v="hamlet" />
		<tag k="ssr:stedsnr" v="430050" />
	</node>
	<node id="9671652142" lat="60.0643472" lon="11.1230279" version="1" timestamp="2022-04-17T08:37:28Z" changeset="119807855" uid="3497659" user="NKA">
		<tag k="alt_name" v="Gamle Klufta" />
		<tag k="name" v="Gamlekløfta" />
		<tag k="place" v="neighbourhood" />
		<tag k="ssr:stedsnr" v="551056" />
	</node>
	<node id="9671652143" lat="60.1309019" lon="11.103238" version="1" timestamp="2022-04-17T08:37:28Z" changeset="119807855" uid="3497659" user="NKA">
		<tag k="alt_name" v="Sundby nedre" />
		<tag k="name" v="Nedre Sundby" />
		<tag k="place" v="farm" />
		<tag k="ssr:stedsnr" v="891672" />
	</node>
	<node id="9671652144" lat="60.1854688" lon="11.2762235" version="1" timestamp="2022-04-17T08:37:28Z" changeset="119807855" uid="3497659" user="NKA">
		<tag k="name" v="Jaren" />
		<tag k="old_name" v="Jaeren" />
		<tag k="place" v="hamlet" />
		<tag k="ssr:stedsnr" v="672214" />
	</node>
	<node id="9671652145" lat="60.167325" lon="11.1703362" version="1" timestamp="2022-04-17T08:37:28Z" changeset="119807855" uid="3497659" user="NKA">
		<tag k="name" v="Trøgstadmoen" />
		<tag k="place" v="neighbourhood" />
		<tag k="ssr:stedsnr" v="951486" />
	</node>
	<node id="9671652146" lat="60.120701" lon="11.2739135" version="1" timestamp="2022-04-17T08:37:28Z" changeset="119807855" uid="3497659" user="NKA">
		<tag k="name" v="Vårum" />
		<tag k="place" v="farm" />
		<tag k="ssr:stedsnr" v="187152" />
	</node>
	<node id="9671652147" lat="60.1611123" lon="11.2666523" version="1" timestamp="2022-04-17T08:37:28Z" changeset="119807855" uid="3497659" user="NKA">
		<tag k="name" v="Julset" />
		<tag k="place" v="farm" />
		<tag k="ssr:stedsnr" v="855214" />
	</node>
	<node id="9671652148" lat="60.1222964" lon="11.2633558" version="1" timestamp="2022-04-17T08:37:28Z" changeset="119807855" uid="3497659" user="NKA">
		<tag k="name" v="Støvre" />
		<tag k="place" v="hamlet" />
		<tag k="ssr:stedsnr" v="855146" />
	</node>
	<node id="9671652149" lat="60.0820196" lon="11.1830936" version="1" timestamp="2022-04-17T08:37:28Z" changeset="119807855" uid="3497659" user="NKA">
		<tag k="name" v="Lauten" />
		<tag k="place" v="hamlet" />
		<tag k="ssr:stedsnr" v="1078897" />
	</node>
	<node id="9671652150" lat="60.0903891" lon="11.2239348" version="1" timestamp="2022-04-17T08:37:28Z" changeset="119807855" uid="3497659" user="NKA">
		<tag k="name" v="Nafstad" />
		<tag k="place" v="hamlet" />
		<tag k="ssr:stedsnr" v="794090" />
	</node>
	<node id="9671652151" lat="60.1874137" lon="11.1689234" version="1" timestamp="2022-04-17T08:37:28Z" changeset="119807855" uid="3497659" user="NKA">
		<tag k="name" v="Li" />
		<tag k="place" v="farm" />
		<tag k="ssr:stedsnr" v="611231" />
	</node>
	<node id="9671652152" lat="60.0650528" lon="11.1366583" version="1" timestamp="2022-04-17T08:37:28Z" changeset="119807855" uid="3497659" user="NKA">
		<tag k="name" v="Søndre Bakke" />
		<tag k="place" v="neighbourhood" />
		<tag k="ssr:stedsnr" v="726973" />
	</node>
	<node id="3594564353" lat="60.0618126" lon="11.2852532" version="2" timestamp="2019-04-18T16:52:20Z" changeset="69352299" uid="253645" user="tubaknut" />
	<node id="3594564375" lat="60.0619376" lon="11.2852625" version="2" timestamp="2019-04-18T16:52:21Z" changeset="69352299" uid="253645" user="tubaknut" />
	<node id="6414666750" lat="60.0618827" lon="11.2852359" version="1" timestamp="2019-04-18T16:52:15Z" changeset="69352299" uid="253645" user="tubaknut" />
	<node id="3594564355" lat="60.0626096" lon="11.2864384" version="2" timestamp="2019-04-18T16:52:20Z" changeset="69352299" uid="253645" user="tubaknut" />
	<node id="3594564356" lat="60.0622272" lon="11.2862373" version="2" timestamp="2019-04-18T16:52:20Z" changeset="69352299" uid="253645" user="tubaknut" />
	<node id="3594564371" lat="60.0623711" lon="11.2864498" version="2" timestamp="2019-04-18T16:52:20Z" changeset="69352299" uid="253645" user="tubaknut" />
	<node id="3594564373" lat="60.0626513" lon="11.2861653" version="2" timestamp="2019-04-18T16:52:20Z" changeset="69352299" uid="253645" user="tubaknut" />
	<node id="3594564374" lat="60.062267" lon="11.2856911" version="2" timestamp="2019-04-18T16:52:21Z" changeset="69352299" uid="253645" user="tubaknut" />
	<node id="3594564381" lat="60.0624847" lon="11.2857897" version="2" timestamp="2019-04-18T16:52:21Z" changeset="69352299" uid="253645" user="tubaknut" />
	<node id="3594564382" lat="60.0616948" lon="11.2856824" version="2" timestamp="2019-04-18T16:52:21Z" changeset="69352299" uid="253645" user="tubaknut" />
	<node id="3594564383" lat="60.0618447" lon="11.2858755" version="2" timestamp="2019-04-18T16:52:21Z" changeset="69352299" uid="253645" user="tubaknut" />
	<node id="3594564384" lat="60.0619598" lon="11.2859656" version="2" timestamp="2019-04-18T16:52:21Z" changeset="69352299" uid="253645" user="tubaknut" />
	<node id="6414666744" lat="60.0626191" lon="11.2860591" version="1" timestamp="2019-04-18T16:52:15Z" changeset="69352299" uid="253645" user="tubaknut" />
	<node id="6414666745" lat="60.0625642" lon="11.2859908" version="1" timestamp="2019-04-18T16:52:15Z" changeset="69352299" uid="253645" user="tubaknut" />
	<node id="6414666746" lat="60.0625452" lon="11.2858239" version="1" timestamp="2019-04-18T16:52:15Z" changeset="69352299" uid="253645" user="tubaknut" />
	<node id="6414666747" lat="60.0623673" lon="11.2857784" version="1" timestamp="2019-04-18T16:52:15Z" changeset="69352299" uid="253645" user="tubaknut" />
	<node id="6414666748" lat="60.0621326" lon="11.2854408" version="1" timestamp="2019-04-18T16:52:15Z" changeset="69352299" uid="253645" user="tubaknut" />
	<node id="6414666749" lat="60.062019" lon="11.285327" version="1" timestamp="2019-04-18T16:52:15Z" changeset="69352299" uid="253645" user="tubaknut" />
	<node id="6414666751" lat="60.0617293" lon="11.2853118" version="1" timestamp="2019-04-18T16:52:15Z" changeset="69352299" uid="253645" user="tubaknut" />
	<node id="6414666752" lat="60.0616858" lon="11.2855091" version="1" timestamp="2019-04-18T16:52:15Z" changeset="69352299" uid="253645" user="tubaknut" />
	<node id="6414666753" lat="60.061735" lon="11.2857708" version="1" timestamp="2019-04-18T16:52:15Z" changeset="69352299" uid="253645" user="tubaknut" />
	<node id="6414666754" lat="60.0620303" lon="11.2860363" version="1" timestamp="2019-04-18T16:52:15Z" changeset="69352299" uid="253645" user="tubaknut" />
	<node id="6414666755" lat="60.0624411" lon="11.2864611" version="1" timestamp="2019-04-18T16:52:15Z" changeset="69352299" uid="253645" user="tubaknut" />
	<node id="6414666756" lat="60.0625301" lon="11.2864839" version="1" timestamp="2019-04-18T16:52:15Z" changeset="69352299" uid="253645" user="tubaknut" />
	<node id="6414666757" lat="60.0626513" lon="11.2863208" version="1" timestamp="2019-04-18T16:52:15Z" changeset="69352299" uid="253645" user="tubaknut" />
	<node id="31991813" lat="60.123353" lon="11.3031506" version="11" timestamp="2020-11-25T19:54:08Z" changeset="94795797" uid="3497659" user="NKA" />
	<node id="104775996" lat="60.1230883" lon="11.3031571" version="10" timestamp="2020-11-25T19:54:08Z" changeset="94795797" uid="3497659" user="NKA" />
	<node id="104776143" lat="60.1231854" lon="11.3030285" version="10" timestamp="2020-11-25T19:54:08Z" changeset="94795797" uid="3497659" user="NKA" />
	<node id="104776148" lat="60.1233203" lon="11.3036241" version="9" timestamp="2020-11-25T19:54:08Z" changeset="94795797" uid="3497659" user="NKA" />
	<node id="104776152" lat="60.123085" lon="11.3035361" version="8" timestamp="2020-11-25T19:54:08Z" changeset="94795797" uid="3497659" user="NKA" />
	<node id="254790151" lat="60.1232206" lon="11.3036824" version="6" timestamp="2020-11-25T19:54:08Z" changeset="94795797" uid="3497659" user="NKA" />
	<node id="254790152" lat="60.1233852" lon="11.3033975" version="6" timestamp="2020-11-25T19:54:08Z" changeset="94795797" uid="3497659" user="NKA" />
	<node id="254790153" lat="60.1232781" lon="11.3030402" version="6" timestamp="2020-11-25T19:54:08Z" changeset="94795797" uid="3497659" user="NKA" />
	<node id="1834005564" lat="60.1233195" lon="11.3030846" version="3" timestamp="2020-11-25T19:54:08Z" changeset="94795797" uid="3497659" user="NKA" />
	<node id="1834005573" lat="60.1230609" lon="11.3032789" version="3" timestamp="2020-11-25T19:54:08Z" changeset="94795797" uid="3497659" user="NKA" />
	<node id="1834005574" lat="60.1233637" lon="11.3035203" version="3" timestamp="2020-11-25T19:54:08Z" changeset="94795797" uid="3497659" user="NKA" />
	<node id="1834005581" lat="60.1232731" lon="11.3036661" version="3" timestamp="2020-11-25T19:54:08Z" changeset="94795797" uid="3497659" user="NKA" />
	<node id="1834005588" lat="60.1231214" lon="11.3036139" version="3" timestamp="2020-11-25T19:54:08Z" changeset="94795797" uid="3497659" user="NKA" />
	<node id="1834005590" lat="60.1230598" lon="11.3034125" version="3" timestamp="2020-11-25T19:54:08Z" changeset="94795797" uid="3497659" user="NKA" />
	<node id="1834005592" lat="60.1231682" lon="11.3036644" version="3" timestamp="2020-11-25T19:54:08Z" changeset="94795797" uid="3497659" user="NKA" />
	<node id="1834005593" lat="60.1233814" lon="11.3032676" version="3" timestamp="2020-11-25T19:54:08Z" changeset="94795797" uid="3497659" user="NKA" />
	<node id="1834005595" lat="60.1232322" lon="11.303021" version="3" timestamp="2020-11-25T19:54:08Z" changeset="94795797" uid="3497659" user="NKA" />
	<node id="4757851511" lat="60.1231152" lon="11.3030989" version="2" timestamp="2020-11-25T19:54:08Z" changeset="94795797" uid="3497659" user="NKA" />
	<node id="4757851512" lat="60.1231482" lon="11.3030552" version="2" timestamp="2020-11-25T19:54:08Z" changeset="94795797" uid="3497659" user="NKA" />
	<way id="11706852" version="20" timestamp="2022-02-01T07:28:18Z" changeset="116853439" uid="3497659" user="NKA">
		<tag k="highway" v="trunk" />
		<tag k="junction" v="roundabout" />
		<tag k="maxspeed" v="50" />
		<tag k="name" v="Nybakkrysset" />
		<tag k="oneway" v="yes" />
		<tag k="ref" v="E 16" />
		<tag k="ssr:stedsnr" v="180545" />
		<nd ref="104775996" />
		<nd ref="1834005573" />
		<nd ref="1834005590" />
		<nd ref="104776152" />
		<nd ref="1834005588" />
		<nd ref="1834005592" />
		<nd ref="254790151" />
		<nd ref="1834005581" />
		<nd ref="104776148" />
		<nd ref="1834005574" />
		<nd ref="254790152" />
		<nd ref="1834005593" />
		<nd ref="31991813" />
		<nd ref="1834005564" />
		<nd ref="254790153" />
		<nd ref="1834005595" />
		<nd ref="104776143" />
		<nd ref="4757851512" />
		<nd ref="4757851511" />
		<nd ref="104775996" />
	</way>
	<way id="353643352" version="3" timestamp="2022-06-08T19:05:49Z" changeset="122132185" uid="11560" user="zidel">
		<tag k="alt_name" v="Ormstadtjennet" />
		<tag k="name" v="Ormstadtjernet" />
		<tag k="natural" v="water" />
		<tag k="ssr:stedsnr" v="430004" />
		<nd ref="3594564373" />
		<nd ref="6414666757" />
		<nd ref="3594564355" />
		<nd ref="6414666756" />
		<nd ref="6414666755" />
		<nd ref="3594564371" />
		<nd ref="3594564356" />
		<nd ref="6414666754" />
		<nd ref="3594564384" />
		<nd ref="3594564383" />
		<nd ref="6414666753" />
		<nd ref="3594564382" />
		<nd ref="6414666752" />
		<nd ref="6414666751" />
		<nd ref="3594564353" />
		<nd ref="6414666750" />
		<nd ref="3594564375" />
		<nd ref="6414666749" />
		<nd ref="6414666748" />
		<nd ref="3594564374" />
		<nd ref="6414666747" />
		<nd ref="3594564381" />
		<nd ref="6414666746" />
		<nd ref="6414666745" />
		<nd ref="6414666744" />
		<nd ref="3594564373" />
	</way>
</osm>
