<?xml version="1.0" encoding="UTF-8"?>
<osm version="0.6" generator="osmapis">
	<node lat="64.57223333006519" lon="11.969980553412736" id="-89683">
		<tag k="historic" v="shieling" />
		<tag k="name" v="Amdalsetran" />
		<tag k="place" v="locality" />
		<tag k="ssr:date" v="2018-01-09" />
		<tag k="ssr:gruppe" v="dyrkamark" />
		<tag k="ssr:hovedgruppe" v="markslag" />
		<tag k="ssr:stedsnr" v="230324" />
		<tag k="ssr:type" v="setervoll" />
	</node>
	<node lat="64.57544444888654" lon="12.036219443859714" id="-89684">
		<tag k="name" v="Midtivatnet" />
		<tag k="natural" v="water" />
		<tag k="ssr:date" v="2018-01-09" />
		<tag k="ssr:gruppe" v="stilleståendeVann" />
		<tag k="ssr:hovedgruppe" v="ferskvann" />
		<tag k="ssr:stedsnr" v="230343" />
		<tag k="ssr:type" v="tjern" />
	</node>
	<node lat="64.55335555971578" lon="12.069749995555615" id="-89685">
		<tag k="name" v="Ljøsbergsaksla" />
		<tag k="natural" v="hill" />
		<tag k="place" v="locality" />
		<tag k="ssr:date" v="2018-01-09" />
		<tag k="ssr:gruppe" v="høyder" />
		<tag k="ssr:hovedgruppe" v="terreng" />
		<tag k="ssr:stedsnr" v="230354" />
		<tag k="ssr:type" v="haug" />
	</node>
	<node lat="64.37397222161037" lon="11.884972216611775" id="-89686">
		<tag k="name" v="Bårdsådalen" />
		<tag k="natural" v="valley" />
		<tag k="place" v="locality" />
		<tag k="ssr:date" v="2018-01-09" />
		<tag k="ssr:gruppe" v="senkninger" />
		<tag k="ssr:hovedgruppe" v="terreng" />
		<tag k="ssr:stedsnr" v="230372" />
		<tag k="ssr:type" v="dal" />
	</node>
	<node lat="64.33002499982199" lon="11.921791664629222" id="-89687">
		<tag k="historic" v="shieling" />
		<tag k="name" v="Skarseteren" />
		<tag k="place" v="isolated_dwelling" />
		<tag k="ssr:date" v="2018-01-09" />
		<tag k="ssr:gruppe" v="gardsbebyggelse" />
		<tag k="ssr:hovedgruppe" v="bebyggelse" />
		<tag k="ssr:stedsnr" v="230742" />
		<tag k="ssr:type" v="seterStøl" />
	</node>
	<node lat="64.33263611041988" lon="11.85997222139594" id="-89688">
		<tag k="name" v="Pehaugfossen" />
		<tag k="natural" v="waterfall" />
		<tag k="ssr:date" v="2018-01-09" />
		<tag k="ssr:gruppe" v="rennendeVann" />
		<tag k="ssr:hovedgruppe" v="ferskvann" />
		<tag k="ssr:stedsnr" v="231913" />
		<tag k="ssr:type" v="foss" />
	</node>
	<node lat="64.45386111030493" lon="11.690674992900256" id="-89689">
		<tag k="name" v="Stormyra" />
		<tag k="natural" v="wetland" />
		<tag k="ssr:date" v="2018-01-09" />
		<tag k="ssr:gruppe" v="våtmark" />
		<tag k="ssr:hovedgruppe" v="markslag" />
		<tag k="ssr:stedsnr" v="13006" />
		<tag k="ssr:type" v="myr" />
	</node>
	<node lat="64.30216111427049" lon="11.815000000006052" id="-89691">
		<tag k="name" v="Steindalsbekken" />
		<tag k="ssr:date" v="2018-01-09" />
		<tag k="ssr:gruppe" v="rennendeVann" />
		<tag k="ssr:hovedgruppe" v="ferskvann" />
		<tag k="ssr:stedsnr" v="13618" />
		<tag k="ssr:type" v="bekk" />
		<tag k="waterway" v="stream" />
	</node>
	<node lat="64.38747778204873" lon="11.759627774450848" id="-89693">
		<tag k="name" v="Styggdalen" />
		<tag k="natural" v="valley" />
		<tag k="place" v="locality" />
		<tag k="ssr:date" v="2018-01-09" />
		<tag k="ssr:gruppe" v="senkninger" />
		<tag k="ssr:hovedgruppe" v="terreng" />
		<tag k="ssr:stedsnr" v="14604" />
		<tag k="ssr:type" v="dal" />
	</node>
	<node lat="64.39157499819477" lon="12.085875009706529" id="-89694">
		<tag k="name" v="Grytsjøen" />
		<tag k="natural" v="water" />
		<tag k="ssr:date" v="2018-01-09" />
		<tag k="ssr:gruppe" v="stilleståendeVann" />
		<tag k="ssr:hovedgruppe" v="ferskvann" />
		<tag k="ssr:stedsnr" v="14607" />
		<tag k="ssr:type" v="vann" />
		<tag k="water" v="lake" />
	</node>
	<node lat="64.5731500043433" lon="11.97324999159293" id="-89702">
		<tag k="name" v="Amdalsmyra" />
		<tag k="natural" v="wetland" />
		<tag k="ssr:date" v="2018-01-09" />
		<tag k="ssr:gruppe" v="våtmark" />
		<tag k="ssr:hovedgruppe" v="markslag" />
		<tag k="ssr:stedsnr" v="15815" />
		<tag k="ssr:type" v="myr" />
	</node>
	<node lat="64.60638889270267" lon="12.084536121648814" id="-89723">
		<tag k="name" v="Nyengbukta" />
		<tag k="natural" v="bay" />
		<tag k="ssr:date" v="2018-01-09" />
		<tag k="ssr:gruppe" v="ferskvannskontur" />
		<tag k="ssr:hovedgruppe" v="ferskvann" />
		<tag k="ssr:stedsnr" v="28125" />
		<tag k="ssr:type" v="vik" />
	</node>
	<node lat="64.41141111476206" lon="11.893030548768428" id="-89725">
		<tag k="name" v="Ålvatnet hytteområde" />
		<tag k="place" v="neighbourhood" />
		<tag k="ssr:date" v="2021-06-08" />
		<tag k="ssr:gruppe" v="bebyggelsesområder" />
		<tag k="ssr:hovedgruppe" v="bebyggelse" />
		<tag k="ssr:stedsnr" v="39159" />
		<tag k="ssr:type" v="hyttefelt" />
	</node>
	<node lat="64.61326388924171" lon="12.057316658368915" id="-89726">
		<tag k="name" v="Nevervatnet hytteområde" />
		<tag k="place" v="neighbourhood" />
		<tag k="ssr:date" v="2018-01-09" />
		<tag k="ssr:gruppe" v="bebyggelsesområder" />
		<tag k="ssr:hovedgruppe" v="bebyggelse" />
		<tag k="ssr:stedsnr" v="39160" />
		<tag k="ssr:type" v="hyttefelt" />
	</node>
	<node lat="64.41370000155648" lon="11.722961111521979" id="-89727">
		<tag k="name" v="Flåttastøa" />
		<tag k="natural" v="wetland" />
		<tag k="ssr:date" v="2018-01-09" />
		<tag k="ssr:gruppe" v="våtmark" />
		<tag k="ssr:hovedgruppe" v="markslag" />
		<tag k="ssr:stedsnr" v="48008" />
		<tag k="ssr:type" v="myr" />
	</node>
	<node lat="64.5726361137368" lon="11.980500007089844" id="-89728">
		<tag k="historic" v="shieling" />
		<tag k="name" v="Beatasetran" />
		<tag k="place" v="locality" />
		<tag k="ssr:date" v="2018-01-09" />
		<tag k="ssr:gruppe" v="dyrkamark" />
		<tag k="ssr:hovedgruppe" v="markslag" />
		<tag k="ssr:stedsnr" v="48308" />
		<tag k="ssr:type" v="setervoll" />
	</node>
	<node lat="64.40095277698623" lon="11.855288891550439" id="-89732">
		<tag k="name" v="Erikmyra" />
		<tag k="natural" v="wetland" />
		<tag k="ssr:date" v="2018-01-09" />
		<tag k="ssr:gruppe" v="våtmark" />
		<tag k="ssr:hovedgruppe" v="markslag" />
		<tag k="ssr:stedsnr" v="74661" />
		<tag k="ssr:type" v="myr" />
	</node>
	<node lat="65.02243055633078" lon="13.281624997645249" id="-89738">
		<tag k="name" v="Namdalen" />
		<tag k="natural" v="valley" />
		<tag k="place" v="locality" />
		<tag k="ssr:date" v="2019-12-27" />
		<tag k="ssr:gruppe" v="senkninger" />
		<tag k="ssr:hovedgruppe" v="terreng" />
		<tag k="ssr:stedsnr" v="75909" />
		<tag k="ssr:type" v="dal" />
	</node>
	<node lat="64.5310250040341" lon="11.778025008353904" id="-89740">
		<tag k="alt_name" v="Taklifjellet" />
		<tag k="fixme" v="consider natural=peak for the most distinct mountains in the district" />
		<tag k="name" v="Taklia" />
		<tag k="natural" v="hill" />
		<tag k="place" v="locality" />
		<tag k="ssr:date" v="2018-01-09" />
		<tag k="ssr:gruppe" v="høyder" />
		<tag k="ssr:hovedgruppe" v="terreng" />
		<tag k="ssr:stedsnr" v="75967" />
		<tag k="ssr:type" v="ås" />
	</node>
	<node lat="64.53622500302544" lon="12.044474992591244" id="-89743">
		<tag k="name" v="Skjørva" />
		<tag k="ssr:date" v="2018-01-09" />
		<tag k="ssr:gruppe" v="rennendeVann" />
		<tag k="ssr:hovedgruppe" v="ferskvann" />
		<tag k="ssr:stedsnr" v="76956" />
		<tag k="ssr:type" v="bekk" />
		<tag k="waterway" v="stream" />
	</node>
	<node lat="64.56444166542335" lon="12.09383610680304" id="-89760">
		<tag k="name" v="Grovtjønnbekken" />
		<tag k="ssr:date" v="2018-01-09" />
		<tag k="ssr:gruppe" v="rennendeVann" />
		<tag k="ssr:hovedgruppe" v="ferskvann" />
		<tag k="ssr:stedsnr" v="89079" />
		<tag k="ssr:type" v="bekk" />
		<tag k="waterway" v="stream" />
	</node>
	<node lat="64.52799166936968" lon="11.909916676940462" id="-89761">
		<tag k="name" v="Kvennhaugen" />
		<tag k="natural" v="hill" />
		<tag k="place" v="locality" />
		<tag k="ssr:date" v="2018-01-09" />
		<tag k="ssr:gruppe" v="høyder" />
		<tag k="ssr:hovedgruppe" v="terreng" />
		<tag k="ssr:stedsnr" v="97772" />
		<tag k="ssr:type" v="haug" />
	</node>
	<node lat="64.29177777997246" lon="11.770152782766381" id="-89762">
		<tag k="name" v="Sælkskjæret" />
		<tag k="place" v="islet" />
		<tag k="ssr:date" v="2018-01-09" />
		<tag k="ssr:gruppe" v="grunnerIFerskvann" />
		<tag k="ssr:hovedgruppe" v="ferskvann" />
		<tag k="ssr:stedsnr" v="109105" />
		<tag k="ssr:type" v="skjær" />
	</node>
	<node lat="64.42789999851956" lon="12.115702785912944" id="-89763">
		<tag k="name" v="Dalan" />
		<tag k="natural" v="valley" />
		<tag k="place" v="locality" />
		<tag k="ssr:date" v="2018-01-09" />
		<tag k="ssr:gruppe" v="senkninger" />
		<tag k="ssr:hovedgruppe" v="terreng" />
		<tag k="ssr:stedsnr" v="109169" />
		<tag k="ssr:type" v="dal" />
	</node>
	<node lat="64.38594999937317" lon="11.96638333795443" id="-89764">
		<tag k="name" v="Eriktjønnklompen" />
		<tag k="natural" v="hill" />
		<tag k="place" v="locality" />
		<tag k="ssr:date" v="2018-01-09" />
		<tag k="ssr:gruppe" v="høyder" />
		<tag k="ssr:hovedgruppe" v="terreng" />
		<tag k="ssr:stedsnr" v="109377" />
		<tag k="ssr:type" v="haug" />
	</node>
	<node lat="64.41969444798279" lon="12.03786389575487" id="-89765">
		<tag k="name" v="Koltjønndalen" />
		<tag k="natural" v="valley" />
		<tag k="place" v="locality" />
		<tag k="ssr:date" v="2018-01-09" />
		<tag k="ssr:gruppe" v="senkninger" />
		<tag k="ssr:hovedgruppe" v="terreng" />
		<tag k="ssr:stedsnr" v="109403" />
		<tag k="ssr:type" v="dal" />
	</node>
	<node lat="64.3113027813875" lon="11.950844436355057" id="-89766">
		<tag k="name" v="Beinholet" />
		<tag k="natural" v="wetland" />
		<tag k="ssr:date" v="2018-01-09" />
		<tag k="ssr:gruppe" v="våtmark" />
		<tag k="ssr:hovedgruppe" v="markslag" />
		<tag k="ssr:stedsnr" v="109730" />
		<tag k="ssr:type" v="myr" />
	</node>
	<node lat="64.56553333639214" lon="11.93054443951954" id="-89767">
		<tag k="name" v="Svahylla" />
		<tag k="place" v="locality" />
		<tag k="ssr:date" v="2018-01-09" />
		<tag k="ssr:gruppe" v="terrengdetaljer" />
		<tag k="ssr:hovedgruppe" v="terreng" />
		<tag k="ssr:stedsnr" v="110319" />
		<tag k="ssr:type" v="hylle" />
	</node>
	<node lat="64.56156111032475" lon="11.937991661612509" id="-89768">
		<tag k="name" v="Litlfjellet" />
		<tag k="natural" v="hill" />
		<tag k="place" v="locality" />
		<tag k="ssr:date" v="2018-01-09" />
		<tag k="ssr:gruppe" v="høyder" />
		<tag k="ssr:hovedgruppe" v="terreng" />
		<tag k="ssr:stedsnr" v="110321" />
		<tag k="ssr:type" v="haug" />
	</node>
	<node lat="64.39197222245623" lon="11.836536115920676" id="-89769">
		<tag k="name" v="Taralddalen" />
		<tag k="natural" v="valley" />
		<tag k="place" v="locality" />
		<tag k="ssr:date" v="2018-01-09" />
		<tag k="ssr:gruppe" v="senkninger" />
		<tag k="ssr:hovedgruppe" v="terreng" />
		<tag k="ssr:stedsnr" v="110871" />
		<tag k="ssr:type" v="dal" />
	</node>
	<node lat="64.46895277616487" lon="11.717355547535929" id="-89771">
		<tag k="name" v="Grytvattan" />
		<tag k="natural" v="hill" />
		<tag k="place" v="locality" />
		<tag k="ssr:date" v="2018-01-09" />
		<tag k="ssr:gruppe" v="høyder" />
		<tag k="ssr:hovedgruppe" v="terreng" />
		<tag k="ssr:stedsnr" v="134066" />
		<tag k="ssr:type" v="haug" />
	</node>
	<node lat="64.35535555753142" lon="11.878158326567593" id="-89777">
		<tag k="alt_name" v="Næverfjellet" />
		<tag k="fixme" v="consider natural=peak for the most distinct mountains in the district" />
		<tag k="name" v="Neverfjellet" />
		<tag k="natural" v="hill" />
		<tag k="place" v="locality" />
		<tag k="ssr:date" v="2018-01-09" />
		<tag k="ssr:gruppe" v="høyder" />
		<tag k="ssr:hovedgruppe" v="terreng" />
		<tag k="ssr:stedsnr" v="135569" />
		<tag k="ssr:type" v="ås" />
	</node>
	<node lat="64.44487777607964" lon="11.822913897042906" id="-89779">
		<tag k="name" v="Solbakken" />
		<tag k="place" v="farm" />
		<tag k="ssr:date" v="2018-01-09" />
		<tag k="ssr:gruppe" v="gardsbebyggelse" />
		<tag k="ssr:hovedgruppe" v="bebyggelse" />
		<tag k="ssr:stedsnr" v="135710" />
		<tag k="ssr:type" v="bruk" />
	</node>
	<node lat="64.4334444474282" lon="11.74916388648572" id="-89780">
		<tag k="name" v="Ådalen" />
		<tag k="natural" v="valley" />
		<tag k="place" v="locality" />
		<tag k="ssr:date" v="2018-01-09" />
		<tag k="ssr:gruppe" v="senkninger" />
		<tag k="ssr:hovedgruppe" v="terreng" />
		<tag k="ssr:stedsnr" v="135714" />
		<tag k="ssr:type" v="dal" />
	</node>
	<node lat="64.42048055208173" lon="11.990169437668106" id="-89782">
		<tag k="name" v="Flyåa" />
		<tag k="ssr:date" v="2018-01-09" />
		<tag k="ssr:gruppe" v="rennendeVann" />
		<tag k="ssr:hovedgruppe" v="ferskvann" />
		<tag k="ssr:stedsnr" v="135722" />
		<tag k="ssr:type" v="bekk" />
		<tag k="waterway" v="stream" />
	</node>
	<node lat="64.3616083329486" lon="11.79968889621079" id="-89785">
		<tag k="name" v="Bergvatnet" />
		<tag k="natural" v="water" />
		<tag k="ssr:date" v="2018-01-09" />
		<tag k="ssr:gruppe" v="stilleståendeVann" />
		<tag k="ssr:hovedgruppe" v="ferskvann" />
		<tag k="ssr:stedsnr" v="135673" />
		<tag k="ssr:type" v="vann" />
		<tag k="water" v="lake" />
	</node>
	<node lat="64.56429999690597" lon="11.91185000928392" id="-89791">
		<tag k="name" v="Urddalen" />
		<tag k="natural" v="valley" />
		<tag k="place" v="locality" />
		<tag k="ssr:date" v="2018-01-09" />
		<tag k="ssr:gruppe" v="senkninger" />
		<tag k="ssr:hovedgruppe" v="terreng" />
		<tag k="ssr:stedsnr" v="136806" />
		<tag k="ssr:type" v="dal" />
	</node>
	<node lat="64.55518333661504" lon="12.10913054585433" id="-89792">
		<tag k="name" v="Øyenga" />
		<tag k="ssr:date" v="2019-12-27" />
		<tag k="ssr:gruppe" v="rennendeVann" />
		<tag k="ssr:hovedgruppe" v="ferskvann" />
		<tag k="ssr:stedsnr" v="136812" />
		<tag k="ssr:type" v="bekk" />
		<tag k="waterway" v="stream" />
	</node>
	<node lat="64.4362055527856" lon="11.668530549887732" id="-89811">
		<tag k="name" v="Tømmerdalen" />
		<tag k="natural" v="valley" />
		<tag k="place" v="locality" />
		<tag k="ssr:date" v="2018-01-09" />
		<tag k="ssr:gruppe" v="senkninger" />
		<tag k="ssr:hovedgruppe" v="terreng" />
		<tag k="ssr:stedsnr" v="256086" />
		<tag k="ssr:type" v="dal" />
	</node>
	<node lat="64.34760832904425" lon="11.788422219132459" id="-89812">
		<tag k="name" v="Vesterslettet" />
		<tag k="place" v="locality" />
		<tag k="ssr:date" v="2018-01-09" />
		<tag k="ssr:gruppe" v="flater" />
		<tag k="ssr:hovedgruppe" v="terreng" />
		<tag k="ssr:stedsnr" v="147659" />
		<tag k="ssr:type" v="slette" />
	</node>
	<node lat="64.34520277563276" lon="11.929736112190117" id="-89813">
		<tag k="name" v="Bjønndalen" />
		<tag k="natural" v="valley" />
		<tag k="place" v="locality" />
		<tag k="ssr:date" v="2018-01-09" />
		<tag k="ssr:gruppe" v="senkninger" />
		<tag k="ssr:hovedgruppe" v="terreng" />
		<tag k="ssr:stedsnr" v="147662" />
		<tag k="ssr:type" v="dal" />
	</node>
	<node lat="64.57284722620281" lon="12.083433324447157" id="-89814">
		<tag k="name" v="Gurinabekken" />
		<tag k="ssr:date" v="2018-01-09" />
		<tag k="ssr:gruppe" v="rennendeVann" />
		<tag k="ssr:hovedgruppe" v="ferskvann" />
		<tag k="ssr:stedsnr" v="149062" />
		<tag k="ssr:type" v="bekk" />
		<tag k="waterway" v="stream" />
	</node>
	<node lat="64.57091944522588" lon="12.085911100895672" id="-89815">
		<tag k="name" v="Kaukarhaugen" />
		<tag k="natural" v="hill" />
		<tag k="place" v="locality" />
		<tag k="ssr:date" v="2018-01-09" />
		<tag k="ssr:gruppe" v="høyder" />
		<tag k="ssr:hovedgruppe" v="terreng" />
		<tag k="ssr:stedsnr" v="149076" />
		<tag k="ssr:type" v="haug" />
	</node>
	<node lat="64.35296666360397" lon="11.951786115225087" id="-89816">
		<tag k="name" v="Storåa" />
		<tag k="ssr:date" v="2018-01-09" />
		<tag k="ssr:gruppe" v="rennendeVann" />
		<tag k="ssr:hovedgruppe" v="ferskvann" />
		<tag k="ssr:stedsnr" v="256541" />
		<tag k="ssr:type" v="bekk" />
		<tag k="waterway" v="stream" />
	</node>
	<node lat="64.38491944542842" lon="11.909613891476678" id="-89820">
		<tag k="alt_name" v="Rognvasselva" />
		<tag k="name" v="Rognvassåa" />
		<tag k="ssr:date" v="2018-01-09" />
		<tag k="ssr:gruppe" v="rennendeVann" />
		<tag k="ssr:hovedgruppe" v="ferskvann" />
		<tag k="ssr:stedsnr" v="256633" />
		<tag k="ssr:type" v="bekk" />
		<tag k="waterway" v="stream" />
	</node>
	<node lat="64.3774250026876" lon="11.87758611077674" id="-89821">
		<tag k="name" v="Bergvatnet" />
		<tag k="natural" v="water" />
		<tag k="ssr:date" v="2018-01-09" />
		<tag k="ssr:gruppe" v="stilleståendeVann" />
		<tag k="ssr:hovedgruppe" v="ferskvann" />
		<tag k="ssr:stedsnr" v="256641" />
		<tag k="ssr:type" v="tjern" />
	</node>
	<node lat="64.37274444200608" lon="11.730113880485796" id="-89822">
		<tag k="name" v="Pikhaugen" />
		<tag k="natural" v="hill" />
		<tag k="place" v="locality" />
		<tag k="ssr:date" v="2018-01-09" />
		<tag k="ssr:gruppe" v="høyder" />
		<tag k="ssr:hovedgruppe" v="terreng" />
		<tag k="ssr:stedsnr" v="256644" />
		<tag k="ssr:type" v="haug" />
	</node>
	<node lat="64.44051388484638" lon="11.73268055074045" id="-89828">
		<tag k="fixme" v="consider natural=peak for the most distinct mountains in the district" />
		<tag k="name" v="Rabben" />
		<tag k="natural" v="hill" />
		<tag k="place" v="locality" />
		<tag k="ssr:date" v="2018-01-09" />
		<tag k="ssr:gruppe" v="høyder" />
		<tag k="ssr:hovedgruppe" v="terreng" />
		<tag k="ssr:stedsnr" v="256690" />
		<tag k="ssr:type" v="ås" />
	</node>
	<node lat="64.46153889027624" lon="11.999250008200356" id="-89829">
		<tag k="name" v="Svahylla" />
		<tag k="natural" v="hill" />
		<tag k="place" v="locality" />
		<tag k="ssr:date" v="2018-01-09" />
		<tag k="ssr:gruppe" v="høyder" />
		<tag k="ssr:hovedgruppe" v="terreng" />
		<tag k="ssr:stedsnr" v="256741" />
		<tag k="ssr:type" v="haug" />
	</node>
	<node lat="64.46213889206156" lon="12.0557277837203" id="-89830">
		<tag k="fixme" v="consider place=hamlet" />
		<tag k="name" v="Øysletta" />
		<tag k="place" v="village" />
		<tag k="ssr:date" v="2018-01-09" />
		<tag k="ssr:gruppe" v="bebyggelsesområder" />
		<tag k="ssr:hovedgruppe" v="bebyggelse" />
		<tag k="ssr:stedsnr" v="256746" />
		<tag k="ssr:type" v="bygdelagBygd" />
	</node>
	<node lat="64.51235555512764" lon="11.630008332977962" id="-89831">
		<tag k="fixme" v="consider natural=peak for the most distinct mountains in the district" />
		<tag k="name" v="Heiafjellet" />
		<tag k="natural" v="hill" />
		<tag k="place" v="locality" />
		<tag k="ssr:date" v="2019-12-27" />
		<tag k="ssr:gruppe" v="høyder" />
		<tag k="ssr:hovedgruppe" v="terreng" />
		<tag k="ssr:stedsnr" v="257154" />
		<tag k="ssr:type" v="ås" />
	</node>
	<node lat="64.32729167095304" lon="11.856986115129047" id="-89832">
		<tag k="fixme" v="consider natural=peak for the most distinct mountains in the district" />
		<tag k="name" v="Pehaugåsen" />
		<tag k="natural" v="hill" />
		<tag k="place" v="locality" />
		<tag k="ssr:date" v="2018-01-09" />
		<tag k="ssr:gruppe" v="høyder" />
		<tag k="ssr:hovedgruppe" v="terreng" />
		<tag k="ssr:stedsnr" v="257639" />
		<tag k="ssr:type" v="ås" />
	</node>
	<node lat="64.43300833514257" lon="11.87745277574781" id="-89837">
		<tag k="name" v="Nonshaugen" />
		<tag k="natural" v="hill" />
		<tag k="place" v="locality" />
		<tag k="ssr:date" v="2018-01-09" />
		<tag k="ssr:gruppe" v="høyder" />
		<tag k="ssr:hovedgruppe" v="terreng" />
		<tag k="ssr:stedsnr" v="257789" />
		<tag k="ssr:type" v="haug" />
	</node>
	<node lat="64.5657999966636" lon="11.970877776651962" id="-89839">
		<tag k="name" v="Kløyva" />
		<tag k="natural" v="valley" />
		<tag k="place" v="locality" />
		<tag k="ssr:date" v="2018-01-09" />
		<tag k="ssr:gruppe" v="senkninger" />
		<tag k="ssr:hovedgruppe" v="terreng" />
		<tag k="ssr:stedsnr" v="257856" />
		<tag k="ssr:type" v="skar" />
	</node>
	<node lat="64.57019999831383" lon="12.051624998300179" id="-89841">
		<tag k="name" v="Øyengvatna" />
		<tag k="natural" v="water" />
		<tag k="ssr:date" v="2018-01-09" />
		<tag k="ssr:gruppe" v="stilleståendeVann" />
		<tag k="ssr:hovedgruppe" v="ferskvann" />
		<tag k="ssr:stedsnr" v="257848" />
		<tag k="ssr:type" v="vann" />
		<tag k="water" v="lake" />
	</node>
	<node lat="64.56442499704823" lon="11.879175004527857" id="-89842">
		<tag k="fixme" v="consider natural=peak for the most distinct mountains in the district" />
		<tag k="name" v="Ekornfjellkjølen" />
		<tag k="natural" v="hill" />
		<tag k="place" v="locality" />
		<tag k="ssr:date" v="2018-01-09" />
		<tag k="ssr:gruppe" v="høyder" />
		<tag k="ssr:hovedgruppe" v="terreng" />
		<tag k="ssr:stedsnr" v="257851" />
		<tag k="ssr:type" v="ås" />
	</node>
	<node lat="64.49437777895825" lon="11.737563895497507" id="-89844">
		<tag k="alt_name" v="Storhaugen" />
		<tag k="name" v="Nordalhaugen" />
		<tag k="natural" v="hill" />
		<tag k="place" v="locality" />
		<tag k="ssr:date" v="2021-06-08" />
		<tag k="ssr:gruppe" v="høyder" />
		<tag k="ssr:hovedgruppe" v="terreng" />
		<tag k="ssr:stedsnr" v="257873" />
		<tag k="ssr:type" v="haug" />
	</node>
	<node lat="64.54047500391462" lon="11.83347500906558" id="-89848">
		<tag k="name" v="Rugla" />
		<tag k="natural" v="hill" />
		<tag k="place" v="locality" />
		<tag k="ssr:date" v="2018-01-09" />
		<tag k="ssr:gruppe" v="høyder" />
		<tag k="ssr:hovedgruppe" v="terreng" />
		<tag k="ssr:stedsnr" v="257971" />
		<tag k="ssr:type" v="haug" />
	</node>
	<node lat="64.41061666974541" lon="11.772694438717158" id="-89851">
		<tag k="name" v="Langvatnet" />
		<tag k="natural" v="water" />
		<tag k="ssr:date" v="2018-01-09" />
		<tag k="ssr:gruppe" v="stilleståendeVann" />
		<tag k="ssr:hovedgruppe" v="ferskvann" />
		<tag k="ssr:stedsnr" v="169005" />
		<tag k="ssr:type" v="tjern" />
	</node>
	<node lat="64.41337500000029" lon="11.784783341808472" id="-89882">
		<tag k="name" v="Langvatnet" />
		<tag k="natural" v="water" />
		<tag k="ssr:date" v="2018-01-09" />
		<tag k="ssr:gruppe" v="stilleståendeVann" />
		<tag k="ssr:hovedgruppe" v="ferskvann" />
		<tag k="ssr:stedsnr" v="195630" />
		<tag k="ssr:type" v="tjern" />
	</node>
	<node lat="64.4183861127023" lon="11.690144442129034" id="-89885">
		<tag k="alt_name" v="Knepptjønna" />
		<tag k="name" v="Middagstjønna" />
		<tag k="natural" v="water" />
		<tag k="ssr:date" v="2021-06-08" />
		<tag k="ssr:gruppe" v="stilleståendeVann" />
		<tag k="ssr:hovedgruppe" v="ferskvann" />
		<tag k="ssr:stedsnr" v="196117" />
		<tag k="ssr:type" v="tjern" />
	</node>
	<node lat="64.35543610701984" lon="11.974474999578627" id="-89886">
		<tag k="alt_name" v="Rognvassklompen" />
		<tag k="fixme" v="consider natural=peak for the most distinct mountains in the district" />
		<tag k="name" v="Rognvassfjellet" />
		<tag k="natural" v="hill" />
		<tag k="place" v="locality" />
		<tag k="ssr:date" v="2018-01-09" />
		<tag k="ssr:gruppe" v="høyder" />
		<tag k="ssr:hovedgruppe" v="terreng" />
		<tag k="ssr:stedsnr" v="196657" />
		<tag k="ssr:type" v="fjell" />
	</node>
	<node lat="64.65064999596416" lon="11.957249994308974" id="-89889">
		<tag k="name" v="Grønbotnet" />
		<tag k="natural" v="valley" />
		<tag k="place" v="locality" />
		<tag k="ssr:date" v="2018-01-09" />
		<tag k="ssr:gruppe" v="senkninger" />
		<tag k="ssr:hovedgruppe" v="terreng" />
		<tag k="ssr:stedsnr" v="196824" />
		<tag k="ssr:type" v="botn" />
	</node>
	<node lat="64.43853611551786" lon="12.078288886259637" id="-89890">
		<tag k="name" v="Hestmyra" />
		<tag k="natural" v="wetland" />
		<tag k="ssr:date" v="2018-01-09" />
		<tag k="ssr:gruppe" v="våtmark" />
		<tag k="ssr:hovedgruppe" v="markslag" />
		<tag k="ssr:stedsnr" v="196713" />
		<tag k="ssr:type" v="myr" />
	</node>
	<node lat="64.43970833681583" lon="11.956986101482668" id="-89891">
		<tag k="name" v="Fossem" />
		<tag k="place" v="farm" />
		<tag k="ssr:date" v="2018-01-09" />
		<tag k="ssr:gruppe" v="gardsbebyggelse" />
		<tag k="ssr:hovedgruppe" v="bebyggelse" />
		<tag k="ssr:stedsnr" v="196719" />
		<tag k="ssr:type" v="bruk" />
	</node>
	<node lat="64.46249999889044" lon="11.969516660756637" id="-89893">
		<tag k="fixme" v="consider natural=peak for the most distinct mountains in the district" />
		<tag k="name" v="Grandaksla" />
		<tag k="natural" v="hill" />
		<tag k="place" v="locality" />
		<tag k="ssr:date" v="2018-01-09" />
		<tag k="ssr:gruppe" v="høyder" />
		<tag k="ssr:hovedgruppe" v="terreng" />
		<tag k="ssr:stedsnr" v="196771" />
		<tag k="ssr:type" v="ås" />
	</node>
	<node lat="64.46763055831248" lon="11.929413893622021" id="-89894">
		<tag k="name" v="Vibstad" />
		<tag k="place" v="farm" />
		<tag k="ssr:date" v="2018-01-09" />
		<tag k="ssr:gruppe" v="gardsbebyggelse" />
		<tag k="ssr:hovedgruppe" v="bebyggelse" />
		<tag k="ssr:stedsnr" v="196773" />
		<tag k="ssr:type" v="bruk" />
	</node>
	<node lat="64.55362500196804" lon="11.84803332957508" id="-89897">
		<tag k="name" v="Kjellaren" />
		<tag k="natural" v="valley" />
		<tag k="place" v="locality" />
		<tag k="ssr:date" v="2018-01-09" />
		<tag k="ssr:gruppe" v="senkninger" />
		<tag k="ssr:hovedgruppe" v="terreng" />
		<tag k="ssr:stedsnr" v="197959" />
		<tag k="ssr:type" v="skar" />
	</node>
	<node lat="64.54616389003947" lon="12.091069440321007" id="-89908">
		<tag k="name" v="Strupen" />
		<tag k="natural" v="valley" />
		<tag k="place" v="locality" />
		<tag k="ssr:date" v="2018-01-09" />
		<tag k="ssr:gruppe" v="senkninger" />
		<tag k="ssr:hovedgruppe" v="terreng" />
		<tag k="ssr:stedsnr" v="210130" />
		<tag k="ssr:type" v="dal" />
	</node>
	<node lat="64.53595555857753" lon="12.168658325535317" id="-89909">
		<tag k="name" v="Arndalen" />
		<tag k="natural" v="valley" />
		<tag k="place" v="locality" />
		<tag k="ssr:date" v="2018-01-09" />
		<tag k="ssr:gruppe" v="senkninger" />
		<tag k="ssr:hovedgruppe" v="terreng" />
		<tag k="ssr:stedsnr" v="271070" />
		<tag k="ssr:type" v="dal" />
	</node>
	<node lat="64.43147777599975" lon="11.994136117077787" id="-89910">
		<tag k="name" v="Einarsvatnet hytteområde" />
		<tag k="place" v="neighbourhood" />
		<tag k="ssr:date" v="2018-01-09" />
		<tag k="ssr:gruppe" v="bebyggelsesområder" />
		<tag k="ssr:hovedgruppe" v="bebyggelse" />
		<tag k="ssr:stedsnr" v="222182" />
		<tag k="ssr:type" v="hyttefelt" />
	</node>
	<node lat="64.5626972254502" lon="12.085191657232784" id="-89912">
		<tag k="name" v="Øyengbakkan" />
		<tag k="natural" v="slope" />
		<tag k="place" v="locality" />
		<tag k="ssr:date" v="2018-01-09" />
		<tag k="ssr:gruppe" v="skråninger" />
		<tag k="ssr:hovedgruppe" v="terreng" />
		<tag k="ssr:stedsnr" v="271073" />
		<tag k="ssr:type" v="bakke" />
	</node>
	<node lat="64.5008972226212" lon="12.123074991535862" id="-89913">
		<tag k="name" v="Risvikmyra" />
		<tag k="natural" v="wetland" />
		<tag k="ssr:date" v="2018-01-09" />
		<tag k="ssr:gruppe" v="våtmark" />
		<tag k="ssr:hovedgruppe" v="markslag" />
		<tag k="ssr:stedsnr" v="271095" />
		<tag k="ssr:type" v="myr" />
	</node>
	<node lat="64.60035000175597" lon="12.09013610192058" id="-89914">
		<tag k="name" v="Dessmerengodden" />
		<tag k="natural" v="cape" />
		<tag k="ssr:date" v="2018-01-09" />
		<tag k="ssr:gruppe" v="ferskvannskontur" />
		<tag k="ssr:hovedgruppe" v="ferskvann" />
		<tag k="ssr:stedsnr" v="271148" />
		<tag k="ssr:type" v="nes" />
	</node>
	<node lat="64.37931388855968" lon="11.689883324471756" id="-89915">
		<tag k="name" v="Landegod statsallminning" />
		<tag k="place" v="locality" />
		<tag k="ssr:date" v="2018-01-09" />
		<tag k="ssr:gruppe" v="verne-OgBruksområder" />
		<tag k="ssr:hovedgruppe" v="offentligAdministrasjon" />
		<tag k="ssr:stedsnr" v="230007" />
		<tag k="ssr:type" v="allmenning" />
	</node>
	<node lat="64.39979722034286" lon="11.727886102830057" id="-89916">
		<tag k="name" v="Krokvasseteran" />
		<tag k="place" v="locality" />
		<tag k="ssr:date" v="2018-01-09" />
		<tag k="ssr:gruppe" v="bolighus" />
		<tag k="ssr:hovedgruppe" v="bebyggelse" />
		<tag k="ssr:stedsnr" v="230010" />
		<tag k="ssr:type" v="gammelBosettingsplass" />
	</node>
	<node lat="64.40318611212734" lon="11.817330560307703" id="-89917">
		<tag k="name" v="Litlrunden" />
		<tag k="natural" v="hill" />
		<tag k="place" v="locality" />
		<tag k="ssr:date" v="2018-01-09" />
		<tag k="ssr:gruppe" v="høyder" />
		<tag k="ssr:hovedgruppe" v="terreng" />
		<tag k="ssr:stedsnr" v="232800" />
		<tag k="ssr:type" v="høyde" />
	</node>
	<node lat="64.42251111328412" lon="11.964849996386471" id="-89920">
		<tag k="alt_name" v="Svarttjønna" />
		<tag k="name" v="Setertjønn" />
		<tag k="natural" v="water" />
		<tag k="ssr:date" v="2021-06-08" />
		<tag k="ssr:gruppe" v="stilleståendeVann" />
		<tag k="ssr:hovedgruppe" v="ferskvann" />
		<tag k="ssr:stedsnr" v="451236" />
		<tag k="ssr:type" v="tjern" />
	</node>
	<node lat="64.46989999586545" lon="11.864266666124621" id="-89921">
		<tag k="name" v="Tetlia" />
		<tag k="place" v="farm" />
		<tag k="ssr:date" v="2018-01-09" />
		<tag k="ssr:gruppe" v="gardsbebyggelse" />
		<tag k="ssr:hovedgruppe" v="bebyggelse" />
		<tag k="ssr:stedsnr" v="241834" />
		<tag k="ssr:type" v="bruk" />
	</node>
	<node lat="64.45475833564907" lon="11.724502788322203" id="-89922">
		<tag k="name" v="Råbakkelva" />
		<tag k="ssr:date" v="2018-01-09" />
		<tag k="ssr:gruppe" v="rennendeVann" />
		<tag k="ssr:hovedgruppe" v="ferskvann" />
		<tag k="ssr:stedsnr" v="451941" />
		<tag k="ssr:type" v="bekk" />
		<tag k="waterway" v="stream" />
	</node>
	<node lat="64.60746666292485" lon="12.083613884989889" id="-89923">
		<tag k="name" v="Kringla" />
		<tag k="natural" v="wetland" />
		<tag k="ssr:date" v="2018-01-09" />
		<tag k="ssr:gruppe" v="våtmark" />
		<tag k="ssr:hovedgruppe" v="markslag" />
		<tag k="ssr:stedsnr" v="453136" />
		<tag k="ssr:type" v="myr" />
	</node>
	<node lat="64.52797500076416" lon="12.162674994988008" id="-89924">
		<tag k="name" v="Stokkengmyra" />
		<tag k="natural" v="wetland" />
		<tag k="ssr:date" v="2018-01-09" />
		<tag k="ssr:gruppe" v="våtmark" />
		<tag k="ssr:hovedgruppe" v="markslag" />
		<tag k="ssr:stedsnr" v="454041" />
		<tag k="ssr:type" v="myr" />
	</node>
	<node lat="64.37034166675664" lon="11.691038894467924" id="-89931">
		<tag k="fixme" v="consider natural=peak for the most distinct mountains in the district" />
		<tag k="name" v="Finnfjellet" />
		<tag k="natural" v="hill" />
		<tag k="place" v="locality" />
		<tag k="ssr:date" v="2018-01-09" />
		<tag k="ssr:gruppe" v="høyder" />
		<tag k="ssr:hovedgruppe" v="terreng" />
		<tag k="ssr:stedsnr" v="256962" />
		<tag k="ssr:type" v="ås" />
	</node>
	<node lat="64.42295833682535" lon="11.957402783418184" id="-89935">
		<tag k="name" v="Dyrlegehaugen" />
		<tag k="natural" v="hill" />
		<tag k="place" v="locality" />
		<tag k="ssr:date" v="2018-01-09" />
		<tag k="ssr:gruppe" v="høyder" />
		<tag k="ssr:hovedgruppe" v="terreng" />
		<tag k="ssr:stedsnr" v="257800" />
		<tag k="ssr:type" v="haug" />
	</node>
	<node lat="64.62043055626421" lon="12.004930561949747" id="-89936">
		<tag k="name" v="Snødalen" />
		<tag k="natural" v="valley" />
		<tag k="place" v="locality" />
		<tag k="ssr:date" v="2018-01-09" />
		<tag k="ssr:gruppe" v="senkninger" />
		<tag k="ssr:hovedgruppe" v="terreng" />
		<tag k="ssr:stedsnr" v="257906" />
		<tag k="ssr:type" v="dal" />
	</node>
	<node lat="64.3756972187253" lon="11.769477777703864" id="-89943">
		<tag k="name" v="Røyrtjønnin" />
		<tag k="natural" v="water" />
		<tag k="ssr:date" v="2018-01-09" />
		<tag k="ssr:gruppe" v="stilleståendeVann" />
		<tag k="ssr:hovedgruppe" v="ferskvann" />
		<tag k="ssr:stedsnr" v="291009" />
		<tag k="ssr:type" v="tjern" />
	</node>
	<node lat="64.39693333465338" lon="11.667530558176267" id="-89944">
		<tag k="fixme" v="consider natural=peak for the most distinct mountains in the district" />
		<tag k="name" v="Finntøytja" />
		<tag k="natural" v="hill" />
		<tag k="place" v="locality" />
		<tag k="ssr:date" v="2018-01-09" />
		<tag k="ssr:gruppe" v="høyder" />
		<tag k="ssr:hovedgruppe" v="terreng" />
		<tag k="ssr:stedsnr" v="291010" />
		<tag k="ssr:type" v="topp" />
	</node>
	<node lat="64.37126944276467" lon="11.750230559718018" id="-89945">
		<tag k="name" v="Gosen" />
		<tag k="place" v="isolated_dwelling" />
		<tag k="ssr:date" v="2018-01-09" />
		<tag k="ssr:gruppe" v="bolighus" />
		<tag k="ssr:hovedgruppe" v="bebyggelse" />
		<tag k="ssr:stedsnr" v="291092" />
		<tag k="ssr:type" v="fritidsbolig" />
	</node>
	<node lat="64.43268610851028" lon="11.77621944725525" id="-89946">
		<tag k="name" v="Horkfossen" />
		<tag k="natural" v="waterfall" />
		<tag k="ssr:date" v="2018-01-09" />
		<tag k="ssr:gruppe" v="rennendeVann" />
		<tag k="ssr:hovedgruppe" v="ferskvann" />
		<tag k="ssr:stedsnr" v="291813" />
		<tag k="ssr:type" v="foss" />
	</node>
	<node lat="64.46294166341467" lon="11.763819437934332" id="-89949">
		<tag k="amenity" v="school" />
		<tag k="name" v="Hunn skole" />
		<tag k="ssr:date" v="2018-01-09" />
		<tag k="ssr:gruppe" v="institusjoner" />
		<tag k="ssr:hovedgruppe" v="bebyggelse" />
		<tag k="ssr:stedsnr" v="466265" />
		<tag k="ssr:type" v="skole" />
	</node>
	<node lat="64.4629666640419" lon="11.829291672291314" id="-89953">
		<tag k="name" v="Midtun" />
		<tag k="place" v="farm" />
		<tag k="ssr:date" v="2018-01-09" />
		<tag k="ssr:gruppe" v="gardsbebyggelse" />
		<tag k="ssr:hovedgruppe" v="bebyggelse" />
		<tag k="ssr:stedsnr" v="317643" />
		<tag k="ssr:type" v="bruk" />
	</node>
	<node lat="64.50700000430201" lon="11.997400001859125" id="-89954">
		<tag k="name" v="Neset" />
		<tag k="place" v="isolated_dwelling" />
		<tag k="ssr:date" v="2018-01-09" />
		<tag k="ssr:gruppe" v="bolighus" />
		<tag k="ssr:hovedgruppe" v="bebyggelse" />
		<tag k="ssr:stedsnr" v="318996" />
		<tag k="ssr:type" v="eneboligMindreBoligbygg" />
	</node>
	<node lat="64.43099999991772" lon="12.007586116822663" id="-89979">
		<tag k="name" v="Bekkdalen" />
		<tag k="natural" v="valley" />
		<tag k="place" v="locality" />
		<tag k="ssr:date" v="2018-01-09" />
		<tag k="ssr:gruppe" v="senkninger" />
		<tag k="ssr:hovedgruppe" v="terreng" />
		<tag k="ssr:stedsnr" v="472370" />
		<tag k="ssr:type" v="dal" />
	</node>
	<node lat="64.4325250044256" lon="11.990286107641355" id="-89980">
		<tag k="historic" v="shieling" />
		<tag k="name" v="Landfallmosetran" />
		<tag k="place" v="locality" />
		<tag k="ssr:date" v="2018-01-09" />
		<tag k="ssr:gruppe" v="dyrkamark" />
		<tag k="ssr:hovedgruppe" v="markslag" />
		<tag k="ssr:stedsnr" v="472371" />
		<tag k="ssr:type" v="setervoll" />
	</node>
	<node lat="64.38026666361861" lon="11.85838888145029" id="-89981">
		<tag k="name" v="Bergvassbekken" />
		<tag k="ssr:date" v="2018-01-09" />
		<tag k="ssr:gruppe" v="rennendeVann" />
		<tag k="ssr:hovedgruppe" v="ferskvann" />
		<tag k="ssr:stedsnr" v="472374" />
		<tag k="ssr:type" v="bekk" />
		<tag k="waterway" v="stream" />
	</node>
	<node lat="64.53884444361468" lon="11.89452777310238" id="-89982">
		<tag k="historic" v="shieling" />
		<tag k="name" v="Svalisetran" />
		<tag k="place" v="locality" />
		<tag k="ssr:date" v="2018-01-09" />
		<tag k="ssr:gruppe" v="dyrkamark" />
		<tag k="ssr:hovedgruppe" v="markslag" />
		<tag k="ssr:stedsnr" v="340745" />
		<tag k="ssr:type" v="setervoll" />
	</node>
	<node lat="64.50580000072503" lon="11.626477768092439" id="-89983">
		<tag k="highway" v="path" />
		<tag k="name" v="Heiakleiva" />
		<tag k="ssr:date" v="2018-01-09" />
		<tag k="ssr:gruppe" v="veg" />
		<tag k="ssr:hovedgruppe" v="infrastruktur" />
		<tag k="ssr:stedsnr" v="472398" />
		<tag k="ssr:type" v="sti" />
	</node>
	<node lat="64.5695861143877" lon="12.05304165919443" id="-89985">
		<tag k="name" v="Øyengvatnet" />
		<tag k="natural" v="water" />
		<tag k="ssr:date" v="2018-01-09" />
		<tag k="ssr:gruppe" v="stilleståendeVann" />
		<tag k="ssr:hovedgruppe" v="ferskvann" />
		<tag k="ssr:stedsnr" v="473383" />
		<tag k="ssr:type" v="tjern" />
	</node>
	<node lat="64.34820833728988" lon="11.952491662844027" id="-89986">
		<tag k="loc_name" v="Storåslættet" />
		<tag k="name" v="Storåsslettet" />
		<tag k="natural" v="wetland" />
		<tag k="ssr:date" v="2018-01-09" />
		<tag k="ssr:gruppe" v="våtmark" />
		<tag k="ssr:hovedgruppe" v="markslag" />
		<tag k="ssr:stedsnr" v="473779" />
		<tag k="ssr:type" v="myr" />
	</node>
	<node lat="64.42089166509422" lon="11.769686107932147" id="-89987">
		<tag k="name" v="Bjønnsela" />
		<tag k="natural" v="water" />
		<tag k="ssr:date" v="2018-01-09" />
		<tag k="ssr:gruppe" v="rennendeVann" />
		<tag k="ssr:hovedgruppe" v="ferskvann" />
		<tag k="ssr:stedsnr" v="473815" />
		<tag k="ssr:type" v="lon" />
		<tag k="water" v="lake" />
	</node>
	<node lat="64.3561611101747" lon="11.837363891769794" id="-89988">
		<tag k="name" v="Langøset" />
		<tag k="natural" v="strait" />
		<tag k="ssr:date" v="2018-01-09" />
		<tag k="ssr:gruppe" v="ferskvannskontur" />
		<tag k="ssr:hovedgruppe" v="ferskvann" />
		<tag k="ssr:stedsnr" v="352854" />
		<tag k="ssr:type" v="sund" />
	</node>
	<node lat="64.41373611007154" lon="11.837522212403478" id="-89989">
		<tag k="name" v="Varvasslia" />
		<tag k="natural" v="slope" />
		<tag k="place" v="locality" />
		<tag k="ssr:date" v="2018-01-09" />
		<tag k="ssr:gruppe" v="skråninger" />
		<tag k="ssr:hovedgruppe" v="terreng" />
		<tag k="ssr:stedsnr" v="353815" />
		<tag k="ssr:type" v="li" />
	</node>
	<node lat="64.34995278127634" lon="11.803808330293476" id="-89990">
		<tag k="name" v="Langdalen" />
		<tag k="natural" v="valley" />
		<tag k="place" v="locality" />
		<tag k="ssr:date" v="2018-01-09" />
		<tag k="ssr:gruppe" v="senkninger" />
		<tag k="ssr:hovedgruppe" v="terreng" />
		<tag k="ssr:stedsnr" v="474871" />
		<tag k="ssr:type" v="dal" />
	</node>
	<node lat="64.32682778074077" lon="11.736702787781155" id="-89991">
		<tag k="name" v="Nedre Nytjønna" />
		<tag k="natural" v="water" />
		<tag k="ssr:date" v="2018-01-09" />
		<tag k="ssr:gruppe" v="stilleståendeVann" />
		<tag k="ssr:hovedgruppe" v="ferskvann" />
		<tag k="ssr:stedsnr" v="478610" />
		<tag k="ssr:type" v="tjern" />
	</node>
	<node lat="64.41480277784069" lon="12.027825005164129" id="-90010">
		<tag k="name" v="Elgremma" />
		<tag k="natural" v="slope" />
		<tag k="place" v="locality" />
		<tag k="ssr:date" v="2018-01-09" />
		<tag k="ssr:gruppe" v="skråninger" />
		<tag k="ssr:hovedgruppe" v="terreng" />
		<tag k="ssr:stedsnr" v="412387" />
		<tag k="ssr:type" v="li" />
	</node>
	<node lat="64.4102750040348" lon="12.09746667033041" id="-90013">
		<tag k="name" v="Svarttjønna" />
		<tag k="natural" v="water" />
		<tag k="ssr:date" v="2018-01-09" />
		<tag k="ssr:gruppe" v="stilleståendeVann" />
		<tag k="ssr:hovedgruppe" v="ferskvann" />
		<tag k="ssr:stedsnr" v="438649" />
		<tag k="ssr:type" v="tjern" />
	</node>
	<node lat="64.49906389135931" lon="11.637124992488616" id="-90015">
		<tag k="name" v="Stormyra" />
		<tag k="natural" v="wetland" />
		<tag k="ssr:date" v="2018-01-09" />
		<tag k="ssr:gruppe" v="våtmark" />
		<tag k="ssr:hovedgruppe" v="markslag" />
		<tag k="ssr:stedsnr" v="439218" />
		<tag k="ssr:type" v="myr" />
	</node>
	<node lat="64.59445277590852" lon="12.086294452695832" id="-90016">
		<tag k="name" v="Svartdalen" />
		<tag k="natural" v="valley" />
		<tag k="place" v="locality" />
		<tag k="ssr:date" v="2018-01-09" />
		<tag k="ssr:gruppe" v="senkninger" />
		<tag k="ssr:hovedgruppe" v="terreng" />
		<tag k="ssr:stedsnr" v="439798" />
		<tag k="ssr:type" v="dal" />
	</node>
	<node lat="64.58078333189007" lon="11.962786101904815" id="-90017">
		<tag k="name" v="Bjørndalen" />
		<tag k="natural" v="valley" />
		<tag k="place" v="locality" />
		<tag k="ssr:date" v="2018-01-09" />
		<tag k="ssr:gruppe" v="senkninger" />
		<tag k="ssr:hovedgruppe" v="terreng" />
		<tag k="ssr:stedsnr" v="439800" />
		<tag k="ssr:type" v="dal" />
	</node>
	<node lat="64.44160555684013" lon="12.027361121338126" id="-90018">
		<tag k="name" v="Isakberga" />
		<tag k="natural" v="hill" />
		<tag k="place" v="locality" />
		<tag k="ssr:date" v="2018-01-09" />
		<tag k="ssr:gruppe" v="høyder" />
		<tag k="ssr:hovedgruppe" v="terreng" />
		<tag k="ssr:stedsnr" v="439745" />
		<tag k="ssr:type" v="berg" />
	</node>
	<node lat="64.58534999940922" lon="12.0364999986963" id="-90019">
		<tag k="name" v="Heia" />
		<tag k="natural" v="valley" />
		<tag k="place" v="locality" />
		<tag k="ssr:date" v="2018-01-09" />
		<tag k="ssr:gruppe" v="senkninger" />
		<tag k="ssr:hovedgruppe" v="terreng" />
		<tag k="ssr:stedsnr" v="439808" />
		<tag k="ssr:type" v="dal" />
	</node>
	<node lat="64.51667499867015" lon="12.09530000794606" id="-90020">
		<tag k="name" v="Risvikmyran" />
		<tag k="natural" v="wetland" />
		<tag k="ssr:date" v="2018-01-09" />
		<tag k="ssr:gruppe" v="våtmark" />
		<tag k="ssr:hovedgruppe" v="markslag" />
		<tag k="ssr:stedsnr" v="439999" />
		<tag k="ssr:type" v="myr" />
	</node>
	<node lat="64.40214166602077" lon="11.92777500677111" id="-90040">
		<tag k="name" v="Storbrokvassbekken" />
		<tag k="ssr:date" v="2018-01-09" />
		<tag k="ssr:gruppe" v="rennendeVann" />
		<tag k="ssr:hovedgruppe" v="ferskvann" />
		<tag k="ssr:stedsnr" v="472360" />
		<tag k="ssr:type" v="bekk" />
		<tag k="waterway" v="stream" />
	</node>
	<node lat="64.42240833674191" lon="11.924786115427741" id="-90041">
		<tag k="name" v="Finntomaslia" />
		<tag k="natural" v="slope" />
		<tag k="place" v="locality" />
		<tag k="ssr:date" v="2018-01-09" />
		<tag k="ssr:gruppe" v="skråninger" />
		<tag k="ssr:hovedgruppe" v="terreng" />
		<tag k="ssr:stedsnr" v="472365" />
		<tag k="ssr:type" v="li" />
	</node>
	<node lat="64.58295555678013" lon="12.063363896120782" id="-90042">
		<tag k="name" v="Svartdalvollen" />
		<tag k="place" v="locality" />
		<tag k="ssr:date" v="2018-01-09" />
		<tag k="ssr:gruppe" v="flater" />
		<tag k="ssr:hovedgruppe" v="terreng" />
		<tag k="ssr:stedsnr" v="473376" />
		<tag k="ssr:type" v="slette" />
	</node>
	<node lat="64.43378333617929" lon="11.730108324451388" id="-90043">
		<tag k="name" v="Føribotnet" />
		<tag k="natural" v="wetland" />
		<tag k="ssr:date" v="2018-01-09" />
		<tag k="ssr:gruppe" v="våtmark" />
		<tag k="ssr:hovedgruppe" v="markslag" />
		<tag k="ssr:stedsnr" v="473807" />
		<tag k="ssr:type" v="myr" />
	</node>
	<node lat="64.42931110811914" lon="11.744994445879435" id="-90044">
		<tag k="highway" v="path" />
		<tag k="name" v="Brattstigen" />
		<tag k="ssr:date" v="2018-01-09" />
		<tag k="ssr:gruppe" v="veg" />
		<tag k="ssr:hovedgruppe" v="infrastruktur" />
		<tag k="ssr:stedsnr" v="473808" />
		<tag k="ssr:type" v="sti" />
	</node>
	<node lat="64.34291388606746" lon="11.94283888619995" id="-90045">
		<tag k="historic" v="shieling" />
		<tag k="name" v="Bjønndalsseteren" />
		<tag k="place" v="isolated_dwelling" />
		<tag k="ssr:date" v="2018-01-09" />
		<tag k="ssr:gruppe" v="gardsbebyggelse" />
		<tag k="ssr:hovedgruppe" v="bebyggelse" />
		<tag k="ssr:stedsnr" v="473777" />
		<tag k="ssr:type" v="seterStøl" />
	</node>
	<node lat="64.39596944660849" lon="11.807133328450133" id="-90046">
		<tag k="name" v="Oksvasselva" />
		<tag k="ssr:date" v="2018-01-09" />
		<tag k="ssr:gruppe" v="rennendeVann" />
		<tag k="ssr:hovedgruppe" v="ferskvann" />
		<tag k="ssr:stedsnr" v="474821" />
		<tag k="ssr:type" v="bekk" />
		<tag k="waterway" v="stream" />
	</node>
	<node lat="64.43031389223191" lon="12.057830564286338" id="-90052">
		<tag k="alt_name" v="Seterstormyra" />
		<tag k="name" v="Stormyra" />
		<tag k="natural" v="wetland" />
		<tag k="ssr:date" v="2018-01-09" />
		<tag k="ssr:gruppe" v="våtmark" />
		<tag k="ssr:hovedgruppe" v="markslag" />
		<tag k="ssr:stedsnr" v="499850" />
		<tag k="ssr:type" v="myr" />
	</node>
	<node lat="64.40384166303639" lon="11.888658331085047" id="-90054">
		<tag k="name" v="Ålvatnet" />
		<tag k="natural" v="water" />
		<tag k="ssr:date" v="2018-01-09" />
		<tag k="ssr:gruppe" v="stilleståendeVann" />
		<tag k="ssr:hovedgruppe" v="ferskvann" />
		<tag k="ssr:stedsnr" v="499586" />
		<tag k="ssr:type" v="vann" />
		<tag k="water" v="lake" />
	</node>
	<node lat="64.39354444305798" lon="11.80006110852872" id="-90055">
		<tag k="name" v="Oksvatnet" />
		<tag k="natural" v="water" />
		<tag k="ssr:date" v="2018-01-09" />
		<tag k="ssr:gruppe" v="stilleståendeVann" />
		<tag k="ssr:hovedgruppe" v="ferskvann" />
		<tag k="ssr:stedsnr" v="499593" />
		<tag k="ssr:type" v="tjern" />
	</node>
	<node lat="64.54780000216512" lon="11.826577767688313" id="-90058">
		<tag k="name" v="Urddalen" />
		<tag k="natural" v="valley" />
		<tag k="place" v="locality" />
		<tag k="ssr:date" v="2018-01-09" />
		<tag k="ssr:gruppe" v="senkninger" />
		<tag k="ssr:hovedgruppe" v="terreng" />
		<tag k="ssr:stedsnr" v="500208" />
		<tag k="ssr:type" v="dal" />
	</node>
	<node lat="64.57449999578216" lon="11.916230559116778" id="-90061">
		<tag k="fixme" v="consider natural=peak for the most distinct mountains in the district" />
		<tag k="name" v="Ekornfjella" />
		<tag k="natural" v="hill" />
		<tag k="place" v="locality" />
		<tag k="ssr:date" v="2018-01-09" />
		<tag k="ssr:gruppe" v="høyder" />
		<tag k="ssr:hovedgruppe" v="terreng" />
		<tag k="ssr:stedsnr" v="500831" />
		<tag k="ssr:type" v="fjell" />
	</node>
	<node lat="64.63280000302146" lon="12.032474995972748" id="-90062">
		<tag k="name" v="Kovaholet" />
		<tag k="natural" v="valley" />
		<tag k="place" v="locality" />
		<tag k="ssr:date" v="2018-01-09" />
		<tag k="ssr:gruppe" v="senkninger" />
		<tag k="ssr:hovedgruppe" v="terreng" />
		<tag k="ssr:stedsnr" v="500883" />
		<tag k="ssr:type" v="botn" />
	</node>
	<node lat="64.4022444401238" lon="11.834286117093924" id="-90063">
		<tag k="name" v="Geitkløyvdalen" />
		<tag k="natural" v="valley" />
		<tag k="place" v="locality" />
		<tag k="ssr:date" v="2018-01-09" />
		<tag k="ssr:gruppe" v="senkninger" />
		<tag k="ssr:hovedgruppe" v="terreng" />
		<tag k="ssr:stedsnr" v="681637" />
		<tag k="ssr:type" v="dal" />
	</node>
	<node lat="64.40819722515863" lon="11.772258342153743" id="-90064">
		<tag k="name" v="Svartvatnet" />
		<tag k="natural" v="water" />
		<tag k="ssr:date" v="2018-01-09" />
		<tag k="ssr:gruppe" v="stilleståendeVann" />
		<tag k="ssr:hovedgruppe" v="ferskvann" />
		<tag k="ssr:stedsnr" v="681639" />
		<tag k="ssr:type" v="tjern" />
	</node>
	<node lat="64.40578888967586" lon="11.975075000807015" id="-90065">
		<tag k="name" v="Etiopia" />
		<tag k="natural" v="valley" />
		<tag k="place" v="locality" />
		<tag k="ssr:date" v="2018-01-09" />
		<tag k="ssr:gruppe" v="senkninger" />
		<tag k="ssr:hovedgruppe" v="terreng" />
		<tag k="ssr:stedsnr" v="681641" />
		<tag k="ssr:type" v="dal" />
	</node>
	<node lat="64.40601944399732" lon="11.984150006604823" id="-90066">
		<tag k="name" v="Teppendalen" />
		<tag k="natural" v="valley" />
		<tag k="place" v="locality" />
		<tag k="ssr:date" v="2018-01-09" />
		<tag k="ssr:gruppe" v="senkninger" />
		<tag k="ssr:hovedgruppe" v="terreng" />
		<tag k="ssr:stedsnr" v="681642" />
		<tag k="ssr:type" v="dal" />
	</node>
	<node lat="64.35672500073824" lon="11.934716660131109" id="-90068">
		<tag k="name" v="Finnmarjaholmen" />
		<tag k="place" v="islet" />
		<tag k="ssr:date" v="2018-01-09" />
		<tag k="ssr:gruppe" v="ferskvannskontur" />
		<tag k="ssr:hovedgruppe" v="ferskvann" />
		<tag k="ssr:stedsnr" v="681686" />
		<tag k="ssr:type" v="holme" />
	</node>
	<node lat="64.44661944066512" lon="11.863350007861978" id="-90071">
		<tag k="name" v="Skogrud" />
		<tag k="place" v="farm" />
		<tag k="ssr:date" v="2018-01-09" />
		<tag k="ssr:gruppe" v="gardsbebyggelse" />
		<tag k="ssr:hovedgruppe" v="bebyggelse" />
		<tag k="ssr:stedsnr" v="681724" />
		<tag k="ssr:type" v="bruk" />
	</node>
	<node lat="64.44584444306504" lon="11.735249991114861" id="-90073">
		<tag k="name" v="Kåvin" />
		<tag k="natural" v="slope" />
		<tag k="place" v="locality" />
		<tag k="ssr:date" v="2018-01-09" />
		<tag k="ssr:gruppe" v="skråninger" />
		<tag k="ssr:hovedgruppe" v="terreng" />
		<tag k="ssr:stedsnr" v="681734" />
		<tag k="ssr:type" v="li" />
	</node>
	<node lat="64.55837500412295" lon="11.96817500942299" id="-90107">
		<tag k="name" v="Storenget" />
		<tag k="natural" v="wetland" />
		<tag k="ssr:date" v="2018-01-09" />
		<tag k="ssr:gruppe" v="våtmark" />
		<tag k="ssr:hovedgruppe" v="markslag" />
		<tag k="ssr:stedsnr" v="682851" />
		<tag k="ssr:type" v="myr" />
	</node>
	<node lat="64.54582777990194" lon="11.871900003966246" id="-90109">
		<tag k="name" v="Roesdalen" />
		<tag k="natural" v="valley" />
		<tag k="place" v="locality" />
		<tag k="ssr:date" v="2018-01-09" />
		<tag k="ssr:gruppe" v="senkninger" />
		<tag k="ssr:hovedgruppe" v="terreng" />
		<tag k="ssr:stedsnr" v="682955" />
		<tag k="ssr:type" v="dal" />
	</node>
	<node lat="64.51143055320219" lon="11.730050003976071" id="-90112">
		<tag k="name" v="Masåa" />
		<tag k="ssr:date" v="2018-01-09" />
		<tag k="ssr:gruppe" v="rennendeVann" />
		<tag k="ssr:hovedgruppe" v="ferskvann" />
		<tag k="ssr:stedsnr" v="682989" />
		<tag k="ssr:type" v="bekk" />
		<tag k="waterway" v="stream" />
	</node>
	<node lat="64.51085555947361" lon="11.942933333464365" id="-90114">
		<tag k="name" v="Svalielva" />
		<tag k="ssr:date" v="2018-01-09" />
		<tag k="ssr:gruppe" v="rennendeVann" />
		<tag k="ssr:hovedgruppe" v="ferskvann" />
		<tag k="ssr:stedsnr" v="682997" />
		<tag k="ssr:type" v="bekk" />
		<tag k="waterway" v="stream" />
	</node>
	<node lat="64.5300944475921" lon="12.170530560158946" id="-90116">
		<tag k="name" v="Seterura" />
		<tag k="natural" v="scree" />
		<tag k="ssr:date" v="2018-01-09" />
		<tag k="ssr:gruppe" v="løsmasseavsetninger" />
		<tag k="ssr:hovedgruppe" v="markslag" />
		<tag k="ssr:stedsnr" v="514068" />
		<tag k="ssr:type" v="ur" />
	</node>
	<node lat="64.52729166743742" lon="12.173888892620685" id="-90117">
		<tag k="historic" v="shieling" />
		<tag k="name" v="Galgøftsetran" />
		<tag k="place" v="locality" />
		<tag k="ssr:date" v="2018-01-09" />
		<tag k="ssr:gruppe" v="dyrkamark" />
		<tag k="ssr:hovedgruppe" v="markslag" />
		<tag k="ssr:stedsnr" v="514071" />
		<tag k="ssr:type" v="setervoll" />
	</node>
	<node lat="64.5410861150686" lon="12.156061101572876" id="-90118">
		<tag k="name" v="Stormyra" />
		<tag k="natural" v="wetland" />
		<tag k="ssr:date" v="2018-01-09" />
		<tag k="ssr:gruppe" v="våtmark" />
		<tag k="ssr:hovedgruppe" v="markslag" />
		<tag k="ssr:stedsnr" v="514074" />
		<tag k="ssr:type" v="myr" />
	</node>
	<node lat="64.5212305564794" lon="11.758430560296514" id="-90119">
		<tag k="fixme" v="consider natural=peak for the most distinct mountains in the district" />
		<tag k="name" v="Svartåsen" />
		<tag k="natural" v="hill" />
		<tag k="place" v="locality" />
		<tag k="ssr:date" v="2018-01-09" />
		<tag k="ssr:gruppe" v="høyder" />
		<tag k="ssr:hovedgruppe" v="terreng" />
		<tag k="ssr:stedsnr" v="534432" />
		<tag k="ssr:type" v="ås" />
	</node>
	<node lat="64.37016944752092" lon="11.878427784246046" id="-90120">
		<tag k="name" v="Tetlifjellet" />
		<tag k="natural" v="hill" />
		<tag k="place" v="locality" />
		<tag k="ssr:date" v="2018-01-09" />
		<tag k="ssr:gruppe" v="høyder" />
		<tag k="ssr:hovedgruppe" v="terreng" />
		<tag k="ssr:stedsnr" v="535874" />
		<tag k="ssr:type" v="haug" />
	</node>
	<node lat="64.46181666705995" lon="11.817627782616338" id="-90136">
		<tag k="name" v="Myrset" />
		<tag k="place" v="farm" />
		<tag k="ssr:date" v="2018-01-09" />
		<tag k="ssr:gruppe" v="gardsbebyggelse" />
		<tag k="ssr:hovedgruppe" v="bebyggelse" />
		<tag k="ssr:stedsnr" v="559687" />
		<tag k="ssr:type" v="bruk" />
	</node>
	<node lat="64.51345000208457" lon="11.70210277989619" id="-90140">
		<tag k="name" v="Sømmelbekken" />
		<tag k="ssr:date" v="2018-01-09" />
		<tag k="ssr:gruppe" v="rennendeVann" />
		<tag k="ssr:hovedgruppe" v="ferskvann" />
		<tag k="ssr:stedsnr" v="560140" />
		<tag k="ssr:type" v="bekk" />
		<tag k="waterway" v="stream" />
	</node>
	<node lat="64.56715000388155" lon="11.959875007517624" id="-90149">
		<tag k="name" v="Hanshaugen" />
		<tag k="natural" v="hill" />
		<tag k="place" v="locality" />
		<tag k="ssr:date" v="2018-01-09" />
		<tag k="ssr:gruppe" v="høyder" />
		<tag k="ssr:hovedgruppe" v="terreng" />
		<tag k="ssr:stedsnr" v="560809" />
		<tag k="ssr:type" v="haug" />
	</node>
	<node lat="64.55912778171421" lon="11.922175003266174" id="-90150">
		<tag k="name" v="Vestervatnet" />
		<tag k="natural" v="water" />
		<tag k="ssr:date" v="2018-01-09" />
		<tag k="ssr:gruppe" v="stilleståendeVann" />
		<tag k="ssr:hovedgruppe" v="ferskvann" />
		<tag k="ssr:stedsnr" v="560816" />
		<tag k="ssr:type" v="vann" />
		<tag k="water" v="lake" />
	</node>
	<node lat="64.4284611127871" lon="11.896758336786904" id="-90153">
		<tag k="name" v="Danielenghaugen" />
		<tag k="natural" v="hill" />
		<tag k="place" v="locality" />
		<tag k="ssr:date" v="2018-01-09" />
		<tag k="ssr:gruppe" v="høyder" />
		<tag k="ssr:hovedgruppe" v="terreng" />
		<tag k="ssr:stedsnr" v="560731" />
		<tag k="ssr:type" v="haug" />
	</node>
	<node lat="64.34446111398005" lon="11.686791667267421" id="-90158">
		<tag k="name" v="Steinbekken" />
		<tag k="ssr:date" v="2018-01-09" />
		<tag k="ssr:gruppe" v="rennendeVann" />
		<tag k="ssr:hovedgruppe" v="ferskvann" />
		<tag k="ssr:stedsnr" v="560902" />
		<tag k="ssr:type" v="bekk" />
		<tag k="waterway" v="stream" />
	</node>
	<node lat="64.44253888450903" lon="11.759324999400146" id="-90166">
		<tag k="name" v="Ådalsmyra" />
		<tag k="natural" v="wetland" />
		<tag k="ssr:date" v="2018-01-09" />
		<tag k="ssr:gruppe" v="våtmark" />
		<tag k="ssr:hovedgruppe" v="markslag" />
		<tag k="ssr:stedsnr" v="690370" />
		<tag k="ssr:type" v="myr" />
	</node>
	<node lat="64.71767778049386" lon="12.160149996331885" id="-90198">
		<tag k="name" v="Alm og Ekorndal statsallmenning" />
		<tag k="place" v="locality" />
		<tag k="ssr:date" v="2019-12-27" />
		<tag k="ssr:gruppe" v="verne-OgBruksområder" />
		<tag k="ssr:hovedgruppe" v="offentligAdministrasjon" />
		<tag k="ssr:stedsnr" v="696137" />
		<tag k="ssr:type" v="allmenning" />
	</node>
	<node lat="64.40690000135686" lon="11.907119444310826" id="-90199">
		<tag k="name" v="Brokvasselva" />
		<tag k="ssr:date" v="2018-01-09" />
		<tag k="ssr:gruppe" v="rennendeVann" />
		<tag k="ssr:hovedgruppe" v="ferskvann" />
		<tag k="ssr:stedsnr" v="593363" />
		<tag k="ssr:type" v="bekk" />
		<tag k="waterway" v="stream" />
	</node>
	<node lat="64.41414166650047" lon="11.853222230857451" id="-90200">
		<tag k="name" v="Litløyelva" />
		<tag k="ssr:date" v="2018-01-09" />
		<tag k="ssr:gruppe" v="rennendeVann" />
		<tag k="ssr:hovedgruppe" v="ferskvann" />
		<tag k="ssr:stedsnr" v="593366" />
		<tag k="ssr:type" v="elv" />
		<tag k="waterway" v="river" />
	</node>
	<node lat="64.39823055692493" lon="11.68190278815378" id="-90201">
		<tag k="name" v="Gravdal statsallmenning" />
		<tag k="place" v="locality" />
		<tag k="ssr:date" v="2018-01-09" />
		<tag k="ssr:gruppe" v="verne-OgBruksområder" />
		<tag k="ssr:hovedgruppe" v="offentligAdministrasjon" />
		<tag k="ssr:stedsnr" v="594009" />
		<tag k="ssr:type" v="allmenning" />
	</node>
	<node lat="64.34750555266332" lon="12.171211114467608" id="-90202">
		<tag k="name" v="Bognsjø statsallmenning" />
		<tag k="place" v="locality" />
		<tag k="ssr:date" v="2019-12-27" />
		<tag k="ssr:gruppe" v="verne-OgBruksområder" />
		<tag k="ssr:hovedgruppe" v="offentligAdministrasjon" />
		<tag k="ssr:stedsnr" v="594169" />
		<tag k="ssr:type" v="allmenning" />
	</node>
	<node lat="64.41947777584294" lon="11.992886101376218" id="-90203">
		<tag k="name" v="Mattiasholet" />
		<tag k="natural" v="valley" />
		<tag k="place" v="locality" />
		<tag k="ssr:date" v="2018-01-09" />
		<tag k="ssr:gruppe" v="senkninger" />
		<tag k="ssr:hovedgruppe" v="terreng" />
		<tag k="ssr:stedsnr" v="594409" />
		<tag k="ssr:type" v="botn" />
	</node>
	<node lat="64.37463055381625" lon="11.830424996554662" id="-90204">
		<tag k="historic" v="shieling" />
		<tag k="name" v="Rundasetran" />
		<tag k="place" v="isolated_dwelling" />
		<tag k="ssr:date" v="2018-01-09" />
		<tag k="ssr:gruppe" v="gardsbebyggelse" />
		<tag k="ssr:hovedgruppe" v="bebyggelse" />
		<tag k="ssr:stedsnr" v="595856" />
		<tag k="ssr:type" v="seterStøl" />
	</node>
	<node lat="64.4110250011554" lon="12.010383324495404" id="-90208">
		<tag k="name" v="Flydalspiken" />
		<tag k="natural" v="hill" />
		<tag k="place" v="locality" />
		<tag k="ssr:date" v="2018-01-09" />
		<tag k="ssr:gruppe" v="høyder" />
		<tag k="ssr:hovedgruppe" v="terreng" />
		<tag k="ssr:stedsnr" v="620605" />
		<tag k="ssr:type" v="haug" />
	</node>
	<node lat="64.45279444230985" lon="11.806324995040415" id="-90210">
		<tag k="name" v="Furu" />
		<tag k="place" v="farm" />
		<tag k="ssr:date" v="2018-01-09" />
		<tag k="ssr:gruppe" v="gardsbebyggelse" />
		<tag k="ssr:hovedgruppe" v="bebyggelse" />
		<tag k="ssr:stedsnr" v="620682" />
		<tag k="ssr:type" v="bruk" />
	</node>
	<node lat="64.45604999835393" lon="12.112502779280856" id="-90211">
		<tag k="name" v="Brennmoen" />
		<tag k="place" v="locality" />
		<tag k="ssr:date" v="2018-01-09" />
		<tag k="ssr:gruppe" v="flater" />
		<tag k="ssr:hovedgruppe" v="terreng" />
		<tag k="ssr:stedsnr" v="620687" />
		<tag k="ssr:type" v="mo" />
	</node>
	<node lat="64.43175277961953" lon="12.026480551603617" id="-90212">
		<tag k="name" v="Gåsmyra" />
		<tag k="natural" v="wetland" />
		<tag k="ssr:date" v="2018-01-09" />
		<tag k="ssr:gruppe" v="våtmark" />
		<tag k="ssr:hovedgruppe" v="markslag" />
		<tag k="ssr:stedsnr" v="620717" />
		<tag k="ssr:type" v="myr" />
	</node>
	<node lat="64.5346750006979" lon="11.783458334608861" id="-90215">
		<tag k="name" v="Storfjelldomma" />
		<tag k="natural" v="slope" />
		<tag k="place" v="locality" />
		<tag k="ssr:date" v="2018-01-09" />
		<tag k="ssr:gruppe" v="skråninger" />
		<tag k="ssr:hovedgruppe" v="terreng" />
		<tag k="ssr:stedsnr" v="621968" />
		<tag k="ssr:type" v="li" />
	</node>
	<node lat="64.50360000064508" lon="11.98354999585762" id="-90220">
		<tag k="name" v="Bjøra" />
		<tag k="place" v="farm" />
		<tag k="ssr:date" v="2018-01-09" />
		<tag k="ssr:gruppe" v="gardsbebyggelse" />
		<tag k="ssr:hovedgruppe" v="bebyggelse" />
		<tag k="ssr:stedsnr" v="621984" />
		<tag k="ssr:type" v="bruk" />
	</node>
	<node lat="64.51053055608644" lon="11.780049998656567" id="-90221">
		<tag k="name" v="Åengelva" />
		<tag k="ssr:date" v="2018-01-09" />
		<tag k="ssr:gruppe" v="rennendeVann" />
		<tag k="ssr:hovedgruppe" v="ferskvann" />
		<tag k="ssr:stedsnr" v="621987" />
		<tag k="ssr:type" v="bekk" />
		<tag k="waterway" v="stream" />
	</node>
	<node lat="64.44466388518798" lon="11.678763883945313" id="-90238">
		<tag k="name" v="Tømmerdalen" />
		<tag k="natural" v="valley" />
		<tag k="place" v="locality" />
		<tag k="ssr:date" v="2018-01-09" />
		<tag k="ssr:gruppe" v="senkninger" />
		<tag k="ssr:hovedgruppe" v="terreng" />
		<tag k="ssr:stedsnr" v="629341" />
		<tag k="ssr:type" v="dal" />
	</node>
	<node lat="64.39850277896001" lon="11.890227768129336" id="-90246">
		<tag k="name" v="Steinvika" />
		<tag k="natural" v="bay" />
		<tag k="ssr:date" v="2018-01-09" />
		<tag k="ssr:gruppe" v="ferskvannskontur" />
		<tag k="ssr:hovedgruppe" v="ferskvann" />
		<tag k="ssr:stedsnr" v="654407" />
		<tag k="ssr:type" v="vik" />
	</node>
	<node lat="64.4310666679218" lon="12.04976666196" id="-90247">
		<tag k="historic" v="shieling" />
		<tag k="name" v="Heglessetran" />
		<tag k="place" v="locality" />
		<tag k="ssr:date" v="2018-01-09" />
		<tag k="ssr:gruppe" v="dyrkamark" />
		<tag k="ssr:hovedgruppe" v="markslag" />
		<tag k="ssr:stedsnr" v="654436" />
		<tag k="ssr:type" v="setervoll" />
	</node>
	<node lat="64.43278611543244" lon="12.01525000291477" id="-90248">
		<tag k="name" v="Isakberget" />
		<tag k="natural" v="hill" />
		<tag k="place" v="locality" />
		<tag k="ssr:date" v="2018-01-09" />
		<tag k="ssr:gruppe" v="høyder" />
		<tag k="ssr:hovedgruppe" v="terreng" />
		<tag k="ssr:stedsnr" v="654395" />
		<tag k="ssr:type" v="haug" />
	</node>
	<node lat="64.6165388932983" lon="12.022430559287127" id="-90249">
		<tag k="historic" v="shieling" />
		<tag k="name" v="Melhussetran" />
		<tag k="place" v="locality" />
		<tag k="ssr:date" v="2018-01-09" />
		<tag k="ssr:gruppe" v="dyrkamark" />
		<tag k="ssr:hovedgruppe" v="markslag" />
		<tag k="ssr:stedsnr" v="654535" />
		<tag k="ssr:type" v="setervoll" />
	</node>
	<node lat="64.39371944834153" lon="11.805250008088807" id="-90273">
		<tag k="name" v="Oksvatnet hytteområde" />
		<tag k="place" v="neighbourhood" />
		<tag k="ssr:date" v="2018-01-09" />
		<tag k="ssr:gruppe" v="bebyggelsesområder" />
		<tag k="ssr:hovedgruppe" v="bebyggelse" />
		<tag k="ssr:stedsnr" v="707224" />
		<tag k="ssr:type" v="hyttefelt" />
	</node>
	<node lat="64.34400833572153" lon="11.735822224114562" id="-90274">
		<tag k="name" v="Nytjønnbekken" />
		<tag k="ssr:date" v="2018-01-09" />
		<tag k="ssr:gruppe" v="rennendeVann" />
		<tag k="ssr:hovedgruppe" v="ferskvann" />
		<tag k="ssr:stedsnr" v="898025" />
		<tag k="ssr:type" v="bekk" />
		<tag k="waterway" v="stream" />
	</node>
	<node lat="64.35206666236704" lon="11.72237500948165" id="-90275">
		<tag k="name" v="Søråa" />
		<tag k="ssr:date" v="2018-01-09" />
		<tag k="ssr:gruppe" v="rennendeVann" />
		<tag k="ssr:hovedgruppe" v="ferskvann" />
		<tag k="ssr:stedsnr" v="898099" />
		<tag k="ssr:type" v="elv" />
		<tag k="waterway" v="river" />
	</node>
	<node lat="64.34283333089071" lon="12.111752770505614" id="-90276">
		<tag k="name" v="Himmelriket" />
		<tag k="natural" v="slope" />
		<tag k="place" v="locality" />
		<tag k="ssr:date" v="2018-01-09" />
		<tag k="ssr:gruppe" v="skråninger" />
		<tag k="ssr:hovedgruppe" v="terreng" />
		<tag k="ssr:stedsnr" v="898163" />
		<tag k="ssr:type" v="bakke" />
	</node>
	<node lat="64.39310277613203" lon="11.953058324247854" id="-90277">
		<tag k="name" v="Storbrokvassdalen" />
		<tag k="natural" v="valley" />
		<tag k="place" v="locality" />
		<tag k="ssr:date" v="2018-01-09" />
		<tag k="ssr:gruppe" v="senkninger" />
		<tag k="ssr:hovedgruppe" v="terreng" />
		<tag k="ssr:stedsnr" v="715409" />
		<tag k="ssr:type" v="dal" />
	</node>
	<node lat="64.43505000021288" lon="11.950763888643797" id="-90278">
		<tag k="name" v="Kaldalbekken" />
		<tag k="ssr:date" v="2018-01-09" />
		<tag k="ssr:gruppe" v="rennendeVann" />
		<tag k="ssr:hovedgruppe" v="ferskvann" />
		<tag k="ssr:stedsnr" v="715410" />
		<tag k="ssr:type" v="bekk" />
		<tag k="waterway" v="stream" />
	</node>
	<node lat="64.43002777709106" lon="12.0169305621296" id="-90279">
		<tag k="name" v="Stormyra" />
		<tag k="natural" v="wetland" />
		<tag k="ssr:date" v="2018-01-09" />
		<tag k="ssr:gruppe" v="våtmark" />
		<tag k="ssr:hovedgruppe" v="markslag" />
		<tag k="ssr:stedsnr" v="715433" />
		<tag k="ssr:type" v="myr" />
	</node>
	<node lat="64.4229472201192" lon="12.048805556459952" id="-90280">
		<tag k="name" v="Lonet" />
		<tag k="natural" v="water" />
		<tag k="ssr:date" v="2018-01-09" />
		<tag k="ssr:gruppe" v="rennendeVann" />
		<tag k="ssr:hovedgruppe" v="ferskvann" />
		<tag k="ssr:stedsnr" v="715443" />
		<tag k="ssr:type" v="lon" />
		<tag k="water" v="lake" />
	</node>
	<node lat="64.41613333335906" lon="12.079972218395868" id="-90281">
		<tag k="name" v="Jenstjønnbekken" />
		<tag k="ssr:date" v="2018-01-09" />
		<tag k="ssr:gruppe" v="rennendeVann" />
		<tag k="ssr:hovedgruppe" v="ferskvann" />
		<tag k="ssr:stedsnr" v="715444" />
		<tag k="ssr:type" v="bekk" />
		<tag k="waterway" v="stream" />
	</node>
	<node lat="64.38551944245985" lon="11.687552781974818" id="-90282">
		<tag k="name" v="Øver Finntjønna" />
		<tag k="natural" v="water" />
		<tag k="ssr:date" v="2018-01-09" />
		<tag k="ssr:gruppe" v="stilleståendeVann" />
		<tag k="ssr:hovedgruppe" v="ferskvann" />
		<tag k="ssr:stedsnr" v="716008" />
		<tag k="ssr:type" v="tjern" />
	</node>
	<node lat="64.35482222595968" lon="11.691133328063595" id="-90283">
		<tag k="alt_name" v="Vesterogndalen" />
		<tag k="name" v="Vesterongdalen" />
		<tag k="natural" v="valley" />
		<tag k="place" v="locality" />
		<tag k="ssr:date" v="2018-01-09" />
		<tag k="ssr:gruppe" v="senkninger" />
		<tag k="ssr:hovedgruppe" v="terreng" />
		<tag k="ssr:stedsnr" v="716105" />
		<tag k="ssr:type" v="dal" />
	</node>
	<node lat="64.56500833129483" lon="12.040238899072277" id="-90284">
		<tag k="name" v="Svartdalsbekken" />
		<tag k="ssr:date" v="2018-01-09" />
		<tag k="ssr:gruppe" v="rennendeVann" />
		<tag k="ssr:hovedgruppe" v="ferskvann" />
		<tag k="ssr:stedsnr" v="716374" />
		<tag k="ssr:type" v="bekk" />
		<tag k="waterway" v="stream" />
	</node>
	<node lat="64.38628055892492" lon="11.786313889941058" id="-90285">
		<tag k="name" v="Gåstjønna" />
		<tag k="natural" v="water" />
		<tag k="ssr:date" v="2018-01-09" />
		<tag k="ssr:gruppe" v="stilleståendeVann" />
		<tag k="ssr:hovedgruppe" v="ferskvann" />
		<tag k="ssr:stedsnr" v="899880" />
		<tag k="ssr:type" v="tjern" />
	</node>
	<node lat="64.40751389184481" lon="11.834594438298835" id="-90286">
		<tag k="name" v="Svartberget" />
		<tag k="natural" v="hill" />
		<tag k="place" v="locality" />
		<tag k="ssr:date" v="2018-01-09" />
		<tag k="ssr:gruppe" v="høyder" />
		<tag k="ssr:hovedgruppe" v="terreng" />
		<tag k="ssr:stedsnr" v="899845" />
		<tag k="ssr:type" v="haug" />
	</node>
	<node lat="64.39938888648285" lon="11.797066659265322" id="-90287">
		<tag k="name" v="Jonslettet" />
		<tag k="natural" v="wetland" />
		<tag k="ssr:date" v="2018-01-09" />
		<tag k="ssr:gruppe" v="våtmark" />
		<tag k="ssr:hovedgruppe" v="markslag" />
		<tag k="ssr:stedsnr" v="899848" />
		<tag k="ssr:type" v="myr" />
	</node>
	<node lat="64.35166944239481" lon="11.84065834111532" id="-90289">
		<tag k="name" v="Gressøset" />
		<tag k="natural" v="strait" />
		<tag k="ssr:date" v="2018-01-09" />
		<tag k="ssr:gruppe" v="ferskvannskontur" />
		<tag k="ssr:hovedgruppe" v="ferskvann" />
		<tag k="ssr:stedsnr" v="899886" />
		<tag k="ssr:type" v="sund" />
	</node>
	<node lat="64.51927499576281" lon="11.711913880595427" id="-90291">
		<tag k="name" v="Tverråa" />
		<tag k="ssr:date" v="2018-01-09" />
		<tag k="ssr:gruppe" v="rennendeVann" />
		<tag k="ssr:hovedgruppe" v="ferskvann" />
		<tag k="ssr:stedsnr" v="742139" />
		<tag k="ssr:type" v="bekk" />
		<tag k="waterway" v="stream" />
	</node>
	<node lat="64.38386388568107" lon="11.863777778818012" id="-90292">
		<tag k="name" v="Selhaugen" />
		<tag k="natural" v="hill" />
		<tag k="place" v="locality" />
		<tag k="ssr:date" v="2018-01-09" />
		<tag k="ssr:gruppe" v="høyder" />
		<tag k="ssr:hovedgruppe" v="terreng" />
		<tag k="ssr:stedsnr" v="742636" />
		<tag k="ssr:type" v="haug" />
	</node>
	<node lat="64.51540833518165" lon="11.775177775191464" id="-90306">
		<tag k="fixme" v="consider natural=peak for the most distinct mountains in the district" />
		<tag k="name" v="Trøengåsen" />
		<tag k="natural" v="hill" />
		<tag k="place" v="locality" />
		<tag k="ssr:date" v="2018-01-09" />
		<tag k="ssr:gruppe" v="høyder" />
		<tag k="ssr:hovedgruppe" v="terreng" />
		<tag k="ssr:stedsnr" v="742998" />
		<tag k="ssr:type" v="ås" />
	</node>
	<node lat="64.41171666311713" lon="11.949113891396147" id="-90326">
		<tag k="fixme" v="consider natural=peak for the most distinct mountains in the district" />
		<tag k="name" v="Litlklumpen" />
		<tag k="natural" v="hill" />
		<tag k="place" v="locality" />
		<tag k="ssr:date" v="2018-01-09" />
		<tag k="ssr:gruppe" v="høyder" />
		<tag k="ssr:hovedgruppe" v="terreng" />
		<tag k="ssr:stedsnr" v="754567" />
		<tag k="ssr:type" v="ås" />
	</node>
	<node lat="64.55688888664757" lon="12.083452777537657" id="-90327">
		<tag k="fixme" v="consider natural=peak for the most distinct mountains in the district" />
		<tag k="name" v="Brannåsen" />
		<tag k="natural" v="hill" />
		<tag k="place" v="locality" />
		<tag k="ssr:date" v="2018-01-09" />
		<tag k="ssr:gruppe" v="høyder" />
		<tag k="ssr:hovedgruppe" v="terreng" />
		<tag k="ssr:stedsnr" v="756115" />
		<tag k="ssr:type" v="ås" />
	</node>
	<node lat="64.5538249977353" lon="12.086247225941937" id="-90328">
		<tag k="name" v="Råenget" />
		<tag k="natural" v="wetland" />
		<tag k="ssr:date" v="2018-01-09" />
		<tag k="ssr:gruppe" v="våtmark" />
		<tag k="ssr:hovedgruppe" v="markslag" />
		<tag k="ssr:stedsnr" v="756116" />
		<tag k="ssr:type" v="myr" />
	</node>
	<node lat="64.57221111367743" lon="12.088194436114085" id="-90329">
		<tag k="name" v="Flyin" />
		<tag k="natural" v="water" />
		<tag k="ssr:date" v="2018-01-09" />
		<tag k="ssr:gruppe" v="rennendeVann" />
		<tag k="ssr:hovedgruppe" v="ferskvann" />
		<tag k="ssr:stedsnr" v="756054" />
		<tag k="ssr:type" v="lon" />
		<tag k="water" v="lake" />
	</node>
	<node lat="64.33276111525062" lon="12.0623888917741" id="-90330">
		<tag k="historic" v="shieling" />
		<tag k="name" v="Øyemsseteren" />
		<tag k="place" v="locality" />
		<tag k="ssr:date" v="2018-01-09" />
		<tag k="ssr:gruppe" v="dyrkamark" />
		<tag k="ssr:hovedgruppe" v="markslag" />
		<tag k="ssr:stedsnr" v="776165" />
		<tag k="ssr:type" v="setervoll" />
	</node>
	<node lat="64.42259722196782" lon="12.103861116765913" id="-90331">
		<tag k="name" v="Stemningshaugen" />
		<tag k="natural" v="hill" />
		<tag k="place" v="locality" />
		<tag k="ssr:date" v="2018-01-09" />
		<tag k="ssr:gruppe" v="høyder" />
		<tag k="ssr:hovedgruppe" v="terreng" />
		<tag k="ssr:stedsnr" v="776166" />
		<tag k="ssr:type" v="haug" />
	</node>
	<node lat="64.39159166458465" lon="11.912786117828237" id="-90332">
		<tag k="historic" v="shieling" />
		<tag k="name" v="Pesetran" />
		<tag k="place" v="locality" />
		<tag k="ssr:date" v="2018-01-09" />
		<tag k="ssr:gruppe" v="dyrkamark" />
		<tag k="ssr:hovedgruppe" v="markslag" />
		<tag k="ssr:stedsnr" v="776366" />
		<tag k="ssr:type" v="setervoll" />
	</node>
	<node lat="64.40692222226492" lon="11.937941666566156" id="-90333">
		<tag k="name" v="Klumpbekken" />
		<tag k="ssr:date" v="2018-01-09" />
		<tag k="ssr:gruppe" v="rennendeVann" />
		<tag k="ssr:hovedgruppe" v="ferskvann" />
		<tag k="ssr:stedsnr" v="776368" />
		<tag k="ssr:type" v="bekk" />
		<tag k="waterway" v="stream" />
	</node>
	<node lat="64.43106111030977" lon="12.032433331012687" id="-90334">
		<tag k="name" v="Båsbergholet" />
		<tag k="ssr:date" v="2018-01-09" />
		<tag k="ssr:gruppe" v="rennendeVann" />
		<tag k="ssr:hovedgruppe" v="ferskvann" />
		<tag k="ssr:stedsnr" v="776414" />
		<tag k="ssr:type" v="bekk" />
		<tag k="waterway" v="stream" />
	</node>
	<node lat="64.36979166359573" lon="11.942830561884142" id="-90335">
		<tag k="name" v="Setertjønna" />
		<tag k="natural" v="water" />
		<tag k="ssr:date" v="2018-01-09" />
		<tag k="ssr:gruppe" v="stilleståendeVann" />
		<tag k="ssr:hovedgruppe" v="ferskvann" />
		<tag k="ssr:stedsnr" v="776757" />
		<tag k="ssr:type" v="tjern" />
	</node>
	<node lat="64.53139999612695" lon="12.133224996885675" id="-90345">
		<tag k="name" v="Nordtun" />
		<tag k="place" v="farm" />
		<tag k="ssr:date" v="2018-01-09" />
		<tag k="ssr:gruppe" v="gardsbebyggelse" />
		<tag k="ssr:hovedgruppe" v="bebyggelse" />
		<tag k="ssr:stedsnr" v="803980" />
		<tag k="ssr:type" v="bruk" />
	</node>
	<node lat="64.5513999967117" lon="12.031424996177781" id="-90347">
		<tag k="fixme" v="consider natural=peak for the most distinct mountains in the district" />
		<tag k="name" v="Storfjellet" />
		<tag k="natural" v="hill" />
		<tag k="place" v="locality" />
		<tag k="ssr:date" v="2018-01-09" />
		<tag k="ssr:gruppe" v="høyder" />
		<tag k="ssr:hovedgruppe" v="terreng" />
		<tag k="ssr:stedsnr" v="804812" />
		<tag k="ssr:type" v="fjell" />
	</node>
	<node lat="64.5638083359714" lon="11.953947231634624" id="-90361">
		<tag k="name" v="Himovatnet hytteområde" />
		<tag k="place" v="neighbourhood" />
		<tag k="ssr:date" v="2018-01-09" />
		<tag k="ssr:gruppe" v="bebyggelsesområder" />
		<tag k="ssr:hovedgruppe" v="bebyggelse" />
		<tag k="ssr:stedsnr" v="829204" />
		<tag k="ssr:type" v="hyttefelt" />
	</node>
	<node lat="64.41908333368546" lon="11.670563897258184" id="-90365">
		<tag k="alt_name" v="Harravatnet" />
		<tag k="name" v="Knepptjønna" />
		<tag k="natural" v="water" />
		<tag k="ssr:date" v="2021-06-08" />
		<tag k="ssr:gruppe" v="stilleståendeVann" />
		<tag k="ssr:hovedgruppe" v="ferskvann" />
		<tag k="ssr:stedsnr" v="924096" />
		<tag k="ssr:type" v="tjern" />
	</node>
	<node lat="64.48645833420922" lon="11.657958339289038" id="-90367">
		<tag k="name" v="Myrvoll" />
		<tag k="place" v="farm" />
		<tag k="ssr:date" v="2018-01-09" />
		<tag k="ssr:gruppe" v="gardsbebyggelse" />
		<tag k="ssr:hovedgruppe" v="bebyggelse" />
		<tag k="ssr:stedsnr" v="924179" />
		<tag k="ssr:type" v="bruk" />
	</node>
	<node lat="64.49710833688948" lon="11.675536103763163" id="-90368">
		<tag k="name" v="Finnbekken" />
		<tag k="ssr:date" v="2018-01-09" />
		<tag k="ssr:gruppe" v="rennendeVann" />
		<tag k="ssr:hovedgruppe" v="ferskvann" />
		<tag k="ssr:stedsnr" v="924180" />
		<tag k="ssr:type" v="bekk" />
		<tag k="waterway" v="stream" />
	</node>
	<node lat="64.51621667032762" lon="11.637569446265285" id="-90370">
		<tag k="name" v="Tverrdalen" />
		<tag k="natural" v="valley" />
		<tag k="place" v="locality" />
		<tag k="ssr:date" v="2018-01-09" />
		<tag k="ssr:gruppe" v="senkninger" />
		<tag k="ssr:hovedgruppe" v="terreng" />
		<tag k="ssr:stedsnr" v="837416" />
		<tag k="ssr:type" v="dal" />
	</node>
	<node lat="64.41658610667953" lon="12.046319444559023" id="-90371">
		<tag k="name" v="Bergmyra" />
		<tag k="natural" v="wetland" />
		<tag k="ssr:date" v="2018-01-09" />
		<tag k="ssr:gruppe" v="våtmark" />
		<tag k="ssr:hovedgruppe" v="markslag" />
		<tag k="ssr:stedsnr" v="837422" />
		<tag k="ssr:type" v="myr" />
	</node>
	<node lat="64.4174805578215" lon="11.739655547986281" id="-90372">
		<tag k="name" v="Stamtjønna" />
		<tag k="natural" v="water" />
		<tag k="ssr:date" v="2018-01-09" />
		<tag k="ssr:gruppe" v="stilleståendeVann" />
		<tag k="ssr:hovedgruppe" v="ferskvann" />
		<tag k="ssr:stedsnr" v="837797" />
		<tag k="ssr:type" v="tjern" />
	</node>
	<node lat="64.36869444279726" lon="11.684083332324343" id="-90373">
		<tag k="name" v="Hunnasetertjønna" />
		<tag k="natural" v="water" />
		<tag k="ssr:date" v="2018-01-09" />
		<tag k="ssr:gruppe" v="stilleståendeVann" />
		<tag k="ssr:hovedgruppe" v="ferskvann" />
		<tag k="ssr:stedsnr" v="838126" />
		<tag k="ssr:type" v="tjern" />
	</node>
	<node lat="64.31909999679635" lon="11.84102778289423" id="-90374">
		<tag k="name" v="Brennvinshaugen" />
		<tag k="natural" v="hill" />
		<tag k="place" v="locality" />
		<tag k="ssr:date" v="2018-01-09" />
		<tag k="ssr:gruppe" v="høyder" />
		<tag k="ssr:hovedgruppe" v="terreng" />
		<tag k="ssr:stedsnr" v="924590" />
		<tag k="ssr:type" v="haug" />
	</node>
	<node lat="64.40671110987593" lon="11.954825005519323" id="-90375">
		<tag k="fixme" v="consider natural=peak for the most distinct mountains in the district" />
		<tag k="name" v="Brokvassklumpen" />
		<tag k="natural" v="hill" />
		<tag k="place" v="locality" />
		<tag k="ssr:date" v="2018-01-09" />
		<tag k="ssr:gruppe" v="høyder" />
		<tag k="ssr:hovedgruppe" v="terreng" />
		<tag k="ssr:stedsnr" v="924626" />
		<tag k="ssr:type" v="ås" />
	</node>
	<node lat="64.39375555592059" lon="11.71906388897541" id="-90376">
		<tag k="name" v="Finndalen" />
		<tag k="natural" v="valley" />
		<tag k="place" v="locality" />
		<tag k="ssr:date" v="2018-01-09" />
		<tag k="ssr:gruppe" v="senkninger" />
		<tag k="ssr:hovedgruppe" v="terreng" />
		<tag k="ssr:stedsnr" v="924630" />
		<tag k="ssr:type" v="dal" />
	</node>
	<node lat="64.39755278089073" lon="12.154450000489271" id="-90377">
		<tag k="fixme" v="consider natural=peak for the most distinct mountains in the district" />
		<tag k="name" v="Revrumpfjellet" />
		<tag k="natural" v="hill" />
		<tag k="place" v="locality" />
		<tag k="ssr:date" v="2019-12-27" />
		<tag k="ssr:gruppe" v="høyder" />
		<tag k="ssr:hovedgruppe" v="terreng" />
		<tag k="ssr:stedsnr" v="924633" />
		<tag k="ssr:type" v="ås" />
	</node>
	<node lat="64.37810278107973" lon="11.743775005108013" id="-90379">
		<tag k="name" v="Krokvatnet" />
		<tag k="natural" v="water" />
		<tag k="ssr:date" v="2018-01-09" />
		<tag k="ssr:gruppe" v="stilleståendeVann" />
		<tag k="ssr:hovedgruppe" v="ferskvann" />
		<tag k="ssr:stedsnr" v="924645" />
		<tag k="ssr:type" v="tjern" />
	</node>
	<node lat="64.47446944471238" lon="12.063366660330683" id="-90386">
		<tag k="name" v="Stormyra" />
		<tag k="natural" v="wetland" />
		<tag k="ssr:date" v="2018-01-09" />
		<tag k="ssr:gruppe" v="våtmark" />
		<tag k="ssr:hovedgruppe" v="markslag" />
		<tag k="ssr:stedsnr" v="924786" />
		<tag k="ssr:type" v="myr" />
	</node>
	<node lat="64.61928333771965" lon="11.963033331695152" id="-90388">
		<tag k="fixme" v="consider natural=peak for the most distinct mountains in the district" />
		<tag k="name" v="Fealloetjahke" />
		<tag k="name:sma" v="Fealloetjahke" />
		<tag k="natural" v="hill" />
		<tag k="place" v="locality" />
		<tag k="ssr:date" v="2018-01-09" />
		<tag k="ssr:gruppe" v="høyder" />
		<tag k="ssr:hovedgruppe" v="terreng" />
		<tag k="ssr:stedsnr" v="924853" />
		<tag k="ssr:type" v="fjell" />
	</node>
	<node lat="64.618158331719" lon="12.032575008410925" id="-90389">
		<tag k="alt_name" v="Almdalåa" />
		<tag k="name" v="Almåa" />
		<tag k="ssr:date" v="2018-01-09" />
		<tag k="ssr:gruppe" v="rennendeVann" />
		<tag k="ssr:hovedgruppe" v="ferskvann" />
		<tag k="ssr:stedsnr" v="924855" />
		<tag k="ssr:type" v="bekk" />
		<tag k="waterway" v="stream" />
	</node>
	<node lat="64.53976111035786" lon="11.697550002255843" id="-90392">
		<tag k="fixme" v="consider natural=peak for the most distinct mountains in the district" />
		<tag k="name" v="Storlifjellet" />
		<tag k="natural" v="hill" />
		<tag k="place" v="locality" />
		<tag k="ssr:date" v="2019-12-27" />
		<tag k="ssr:gruppe" v="høyder" />
		<tag k="ssr:hovedgruppe" v="terreng" />
		<tag k="ssr:stedsnr" v="925097" />
		<tag k="ssr:type" v="ås" />
	</node>
	<node lat="64.52322777525141" lon="11.67882499136351" id="-90393">
		<tag k="alt_name" v="Svartåsen" />
		<tag k="fixme" v="consider natural=peak for the most distinct mountains in the district" />
		<tag k="name" v="Knutengsvartåsen" />
		<tag k="natural" v="hill" />
		<tag k="place" v="locality" />
		<tag k="ssr:date" v="2018-01-09" />
		<tag k="ssr:gruppe" v="høyder" />
		<tag k="ssr:hovedgruppe" v="terreng" />
		<tag k="ssr:stedsnr" v="925178" />
		<tag k="ssr:type" v="ås" />
	</node>
	<node lat="64.56024999645234" lon="12.04567777655665" id="-90394">
		<tag k="name" v="Høyhaugen" />
		<tag k="natural" v="hill" />
		<tag k="place" v="locality" />
		<tag k="ssr:date" v="2018-01-09" />
		<tag k="ssr:gruppe" v="høyder" />
		<tag k="ssr:hovedgruppe" v="terreng" />
		<tag k="ssr:stedsnr" v="925852" />
		<tag k="ssr:type" v="haug" />
	</node>
	<node lat="64.64062777399106" lon="11.920775002490593" id="-90395">
		<tag k="fixme" v="consider natural=peak for the most distinct mountains in the district" />
		<tag k="name" v="Storengfjellet" />
		<tag k="natural" v="hill" />
		<tag k="place" v="locality" />
		<tag k="ssr:date" v="2019-12-27" />
		<tag k="ssr:gruppe" v="høyder" />
		<tag k="ssr:hovedgruppe" v="terreng" />
		<tag k="ssr:stedsnr" v="925886" />
		<tag k="ssr:type" v="fjell" />
	</node>
	<node lat="64.41388333700174" lon="11.980788884719091" id="-90402">
		<tag k="name" v="Flyin" />
		<tag k="natural" v="water" />
		<tag k="ssr:date" v="2018-01-09" />
		<tag k="ssr:gruppe" v="stilleståendeVann" />
		<tag k="ssr:hovedgruppe" v="ferskvann" />
		<tag k="ssr:stedsnr" v="863646" />
		<tag k="ssr:type" v="tjern" />
	</node>
	<node lat="64.60090277666593" lon="12.085016663050277" id="-90434">
		<tag k="name" v="Gressodden" />
		<tag k="natural" v="cape" />
		<tag k="ssr:date" v="2018-01-09" />
		<tag k="ssr:gruppe" v="ferskvannskontur" />
		<tag k="ssr:hovedgruppe" v="ferskvann" />
		<tag k="ssr:stedsnr" v="878124" />
		<tag k="ssr:type" v="nes" />
	</node>
	<node lat="64.41828611011385" lon="12.058091659324951" id="-90439">
		<tag k="name" v="Tømmersjøen hytteområde" />
		<tag k="place" v="neighbourhood" />
		<tag k="ssr:date" v="2018-01-09" />
		<tag k="ssr:gruppe" v="bebyggelsesområder" />
		<tag k="ssr:hovedgruppe" v="bebyggelse" />
		<tag k="ssr:stedsnr" v="889205" />
		<tag k="ssr:type" v="hyttefelt" />
	</node>
	<node lat="64.40280555094218" lon="11.709022232058123" id="-90440">
		<tag k="fixme" v="consider natural=peak for the most distinct mountains in the district" />
		<tag k="name" v="Storflisninghatten" />
		<tag k="natural" v="hill" />
		<tag k="place" v="locality" />
		<tag k="ssr:date" v="2018-01-09" />
		<tag k="ssr:gruppe" v="høyder" />
		<tag k="ssr:hovedgruppe" v="terreng" />
		<tag k="ssr:stedsnr" v="898008" />
		<tag k="ssr:type" v="fjell" />
	</node>
	<node lat="64.55965555803867" lon="12.068880550661069" id="-90441">
		<tag k="name" v="Melhusdalen" />
		<tag k="natural" v="valley" />
		<tag k="place" v="locality" />
		<tag k="ssr:date" v="2018-01-09" />
		<tag k="ssr:gruppe" v="senkninger" />
		<tag k="ssr:hovedgruppe" v="terreng" />
		<tag k="ssr:stedsnr" v="898355" />
		<tag k="ssr:type" v="dal" />
	</node>
	<node lat="64.42830555462166" lon="12.045816671298532" id="-90442">
		<tag k="ford" v="yes" />
		<tag k="name" v="Vadet" />
		<tag k="place" v="locality" />
		<tag k="ssr:date" v="2018-01-09" />
		<tag k="ssr:gruppe" v="veg" />
		<tag k="ssr:hovedgruppe" v="infrastruktur" />
		<tag k="ssr:stedsnr" v="898423" />
		<tag k="ssr:type" v="vad" />
	</node>
	<node lat="64.56801944543304" lon="11.953377787826183" id="-90444">
		<tag k="historic" v="shieling" />
		<tag k="name" v="Melhussetran" />
		<tag k="place" v="locality" />
		<tag k="ssr:date" v="2018-01-09" />
		<tag k="ssr:gruppe" v="dyrkamark" />
		<tag k="ssr:hovedgruppe" v="markslag" />
		<tag k="ssr:stedsnr" v="899310" />
		<tag k="ssr:type" v="setervoll" />
	</node>
	<node lat="64.30737778168553" lon="11.819775003772543" id="-90445">
		<tag k="name" v="Steindalsvatnet" />
		<tag k="natural" v="water" />
		<tag k="ssr:date" v="2018-01-09" />
		<tag k="ssr:gruppe" v="stilleståendeVann" />
		<tag k="ssr:hovedgruppe" v="ferskvann" />
		<tag k="ssr:stedsnr" v="924583" />
		<tag k="ssr:type" v="tjern" />
	</node>
	<node lat="64.43553610886717" lon="12.055233323672658" id="-90447">
		<tag k="name" v="Drøfttjønna" />
		<tag k="natural" v="water" />
		<tag k="ssr:date" v="2018-01-09" />
		<tag k="ssr:gruppe" v="stilleståendeVann" />
		<tag k="ssr:hovedgruppe" v="ferskvann" />
		<tag k="ssr:stedsnr" v="924714" />
		<tag k="ssr:type" v="tjern" />
	</node>
	<node lat="64.41725555217381" lon="11.802769434418419" id="-90448">
		<tag k="fixme" v="consider natural=peak for the most distinct mountains in the district" />
		<tag k="name" v="Langvassåsen" />
		<tag k="natural" v="hill" />
		<tag k="place" v="locality" />
		<tag k="ssr:date" v="2018-01-09" />
		<tag k="ssr:gruppe" v="høyder" />
		<tag k="ssr:hovedgruppe" v="terreng" />
		<tag k="ssr:stedsnr" v="924609" />
		<tag k="ssr:type" v="ås" />
	</node>
	<node lat="64.4048777747691" lon="11.84625000806634" id="-90449">
		<tag k="name" v="Olamyrdalen" />
		<tag k="natural" v="valley" />
		<tag k="place" v="locality" />
		<tag k="ssr:date" v="2018-01-09" />
		<tag k="ssr:gruppe" v="senkninger" />
		<tag k="ssr:hovedgruppe" v="terreng" />
		<tag k="ssr:stedsnr" v="924617" />
		<tag k="ssr:type" v="dal" />
	</node>
	<node lat="64.49475278182715" lon="11.998163894429025" id="-90451">
		<tag k="name" v="Engeskilen" />
		<tag k="place" v="islet" />
		<tag k="ssr:date" v="2018-01-09" />
		<tag k="ssr:gruppe" v="ferskvannskontur" />
		<tag k="ssr:hovedgruppe" v="ferskvann" />
		<tag k="ssr:stedsnr" v="925813" />
		<tag k="ssr:type" v="holme" />
	</node>
	<node lat="64.59490555202049" lon="11.90820000455752" id="-90454">
		<tag k="name" v="Gåshalsen" />
		<tag k="natural" v="valley" />
		<tag k="place" v="locality" />
		<tag k="ssr:date" v="2019-12-27" />
		<tag k="ssr:gruppe" v="senkninger" />
		<tag k="ssr:hovedgruppe" v="terreng" />
		<tag k="ssr:stedsnr" v="925828" />
		<tag k="ssr:type" v="skar" />
	</node>
	<node lat="64.37583888655881" lon="11.960066668835982" id="-90473">
		<tag k="name" v="Rundhaugen" />
		<tag k="natural" v="hill" />
		<tag k="place" v="locality" />
		<tag k="ssr:date" v="2018-01-09" />
		<tag k="ssr:gruppe" v="høyder" />
		<tag k="ssr:hovedgruppe" v="terreng" />
		<tag k="ssr:stedsnr" v="936538" />
		<tag k="ssr:type" v="haug" />
	</node>
	<node lat="64.54584444592086" lon="12.076469448842161" id="-90474">
		<tag k="name" v="Steinengbekken" />
		<tag k="ssr:date" v="2018-01-09" />
		<tag k="ssr:gruppe" v="rennendeVann" />
		<tag k="ssr:hovedgruppe" v="ferskvann" />
		<tag k="ssr:stedsnr" v="938107" />
		<tag k="ssr:type" v="bekk" />
		<tag k="waterway" v="stream" />
	</node>
	<node lat="64.55687222106964" lon="11.96738889123787" id="-90475">
		<tag k="name" v="Storengfossen" />
		<tag k="natural" v="waterfall" />
		<tag k="ssr:date" v="2018-01-09" />
		<tag k="ssr:gruppe" v="rennendeVann" />
		<tag k="ssr:hovedgruppe" v="ferskvann" />
		<tag k="ssr:stedsnr" v="958341" />
		<tag k="ssr:type" v="foss" />
	</node>
	<node lat="64.46350883192218" lon="11.758534705112393" id="-90480">
		<tag k="name" v="Kjerkekra" />
		<tag k="place" v="locality" />
		<tag k="ssr:date" v="2018-01-09" />
		<tag k="ssr:gruppe" v="dyrkamark" />
		<tag k="ssr:hovedgruppe" v="markslag" />
		<tag k="ssr:stedsnr" v="980978" />
		<tag k="ssr:type" v="jorde" />
	</node>
	<node lat="64.40758333334786" lon="11.767711119719761" id="-90482">
		<tag k="name" v="Fiskløysa" />
		<tag k="natural" v="water" />
		<tag k="ssr:date" v="2018-01-09" />
		<tag k="ssr:gruppe" v="stilleståendeVann" />
		<tag k="ssr:hovedgruppe" v="ferskvann" />
		<tag k="ssr:stedsnr" v="13663" />
		<tag k="ssr:type" v="tjern" />
	</node>
	<node lat="64.41407500401736" lon="11.817899991245213" id="-90483">
		<tag k="fixme" v="consider natural=peak for the most distinct mountains in the district" />
		<tag k="name" v="Storbakkåsen" />
		<tag k="natural" v="hill" />
		<tag k="place" v="locality" />
		<tag k="ssr:date" v="2018-01-09" />
		<tag k="ssr:gruppe" v="høyder" />
		<tag k="ssr:hovedgruppe" v="terreng" />
		<tag k="ssr:stedsnr" v="13642" />
		<tag k="ssr:type" v="ås" />
	</node>
	<node lat="64.41430833413473" lon="12.065227782281369" id="-90484">
		<tag k="name" v="Tømmersjøen" />
		<tag k="natural" v="water" />
		<tag k="ssr:date" v="2018-01-09" />
		<tag k="ssr:gruppe" v="stilleståendeVann" />
		<tag k="ssr:hovedgruppe" v="ferskvann" />
		<tag k="ssr:stedsnr" v="13655" />
		<tag k="ssr:type" v="vann" />
		<tag k="water" v="lake" />
	</node>
	<node lat="64.46616111521716" lon="11.825294439445296" id="-90486">
		<tag k="name" v="Midtgard" />
		<tag k="place" v="farm" />
		<tag k="ssr:date" v="2018-01-09" />
		<tag k="ssr:gruppe" v="gardsbebyggelse" />
		<tag k="ssr:hovedgruppe" v="bebyggelse" />
		<tag k="ssr:stedsnr" v="13794" />
		<tag k="ssr:type" v="bruk" />
	</node>
	<node lat="64.37576389124057" lon="11.666166667139406" id="-90487">
		<tag k="fixme" v="consider natural=peak for the most distinct mountains in the district" />
		<tag k="name" v="Finnkallen" />
		<tag k="natural" v="hill" />
		<tag k="place" v="locality" />
		<tag k="ssr:date" v="2018-01-09" />
		<tag k="ssr:gruppe" v="høyder" />
		<tag k="ssr:hovedgruppe" v="terreng" />
		<tag k="ssr:stedsnr" v="13966" />
		<tag k="ssr:type" v="ås" />
	</node>
	<node lat="64.33921111314685" lon="12.106641663991187" id="-90489">
		<tag k="name" v="Reinsjøelva" />
		<tag k="ssr:date" v="2018-01-09" />
		<tag k="ssr:gruppe" v="rennendeVann" />
		<tag k="ssr:hovedgruppe" v="ferskvann" />
		<tag k="ssr:stedsnr" v="14511" />
		<tag k="ssr:type" v="bekk" />
		<tag k="waterway" v="stream" />
	</node>
	<node lat="64.42896944318164" lon="11.983075008668532" id="-90494">
		<tag k="name" v="Einarsvatnet" />
		<tag k="natural" v="water" />
		<tag k="ssr:date" v="2018-01-09" />
		<tag k="ssr:gruppe" v="stilleståendeVann" />
		<tag k="ssr:hovedgruppe" v="ferskvann" />
		<tag k="ssr:stedsnr" v="14697" />
		<tag k="ssr:type" v="vann" />
		<tag k="water" v="lake" />
	</node>
	<node lat="64.49106944598554" lon="11.864461109299741" id="-90496">
		<tag k="name" v="Blengslia" />
		<tag k="natural" v="slope" />
		<tag k="place" v="locality" />
		<tag k="ssr:date" v="2018-01-09" />
		<tag k="ssr:gruppe" v="skråninger" />
		<tag k="ssr:hovedgruppe" v="terreng" />
		<tag k="ssr:stedsnr" v="14746" />
		<tag k="ssr:type" v="li" />
	</node>
	<node lat="64.50999999641667" lon="12.022424999979236" id="-90500">
		<tag k="name" v="Fuglem" />
		<tag k="place" v="farm" />
		<tag k="ssr:date" v="2018-01-09" />
		<tag k="ssr:gruppe" v="gardsbebyggelse" />
		<tag k="ssr:hovedgruppe" v="bebyggelse" />
		<tag k="ssr:stedsnr" v="14994" />
		<tag k="ssr:type" v="bruk" />
	</node>
	<node lat="64.3615861118565" lon="11.667983327703666" id="-90501">
		<tag k="fixme" v="consider natural=peak for the most distinct mountains in the district" />
		<tag k="name" v="Merkesaksla" />
		<tag k="natural" v="hill" />
		<tag k="place" v="locality" />
		<tag k="ssr:date" v="2018-01-09" />
		<tag k="ssr:gruppe" v="høyder" />
		<tag k="ssr:hovedgruppe" v="terreng" />
		<tag k="ssr:stedsnr" v="14932" />
		<tag k="ssr:type" v="ås" />
	</node>
	<node lat="64.53082499906303" lon="11.820841658579917" id="-90502">
		<tag k="alt_name" v="Flyhatten" />
		<tag k="fixme" v="consider natural=peak for the most distinct mountains in the district" />
		<tag k="name" v="Storflyhatten" />
		<tag k="natural" v="hill" />
		<tag k="place" v="locality" />
		<tag k="ssr:date" v="2018-01-09" />
		<tag k="ssr:gruppe" v="høyder" />
		<tag k="ssr:hovedgruppe" v="terreng" />
		<tag k="ssr:stedsnr" v="14941" />
		<tag k="ssr:type" v="ås" />
	</node>
	<node lat="64.52510832937953" lon="11.90040556307263" id="-90504">
		<tag k="name" v="Nordelva" />
		<tag k="ssr:date" v="2018-01-09" />
		<tag k="ssr:gruppe" v="rennendeVann" />
		<tag k="ssr:hovedgruppe" v="ferskvann" />
		<tag k="ssr:stedsnr" v="14948" />
		<tag k="ssr:type" v="bekk" />
		<tag k="waterway" v="stream" />
	</node>
	<node lat="64.53512777361495" lon="11.745949993677446" id="-90505">
		<tag k="name" v="Nordskåla" />
		<tag k="natural" v="valley" />
		<tag k="place" v="locality" />
		<tag k="ssr:date" v="2018-01-09" />
		<tag k="ssr:gruppe" v="senkninger" />
		<tag k="ssr:hovedgruppe" v="terreng" />
		<tag k="ssr:stedsnr" v="14951" />
		<tag k="ssr:type" v="dal" />
	</node>
	<node lat="64.6689749986077" lon="12.027925003120455" id="-90506">
		<tag k="alt_name:no" v="Grønningsfjellet" />
		<tag k="fixme" v="consider natural=peak for the most distinct mountains in the district" />
		<tag k="name" v="Grønningfjella - Guevtele" />
		<tag k="name:no" v="Grønningfjella" />
		<tag k="name:sma" v="Guevtele" />
		<tag k="natural" v="hill" />
		<tag k="place" v="locality" />
		<tag k="ssr:date" v="2019-12-27" />
		<tag k="ssr:gruppe" v="høyder" />
		<tag k="ssr:hovedgruppe" v="terreng" />
		<tag k="ssr:stedsnr" v="15839" />
		<tag k="ssr:type" v="fjell" />
	</node>
	<node lat="64.54365000414408" lon="11.979755565048828" id="-90507">
		<tag k="name" v="Grøtåa" />
		<tag k="ssr:date" v="2018-01-09" />
		<tag k="ssr:gruppe" v="rennendeVann" />
		<tag k="ssr:hovedgruppe" v="ferskvann" />
		<tag k="ssr:stedsnr" v="15944" />
		<tag k="ssr:type" v="bekk" />
		<tag k="waterway" v="stream" />
	</node>
	<node lat="64.54007499624177" lon="12.170824990513326" id="-90508">
		<tag k="name" v="Storhaugen" />
		<tag k="natural" v="hill" />
		<tag k="place" v="locality" />
		<tag k="ssr:date" v="2020-06-08" />
		<tag k="ssr:gruppe" v="høyder" />
		<tag k="ssr:hovedgruppe" v="terreng" />
		<tag k="ssr:stedsnr" v="15959" />
		<tag k="ssr:type" v="haug" />
	</node>
	<node lat="64.3875277732119" lon="11.79975278390374" id="-90540">
		<tag k="name" v="Feitfisktjønna" />
		<tag k="natural" v="water" />
		<tag k="ssr:date" v="2018-01-09" />
		<tag k="ssr:gruppe" v="stilleståendeVann" />
		<tag k="ssr:hovedgruppe" v="ferskvann" />
		<tag k="ssr:stedsnr" v="26670" />
		<tag k="ssr:type" v="tjern" />
	</node>
	<node lat="64.35300277882212" lon="11.912938878961153" id="-90541">
		<tag k="name" v="Dyrgrovin" />
		<tag k="place" v="locality" />
		<tag k="ssr:date" v="2018-01-09" />
		<tag k="ssr:gruppe" v="kulturminner" />
		<tag k="ssr:hovedgruppe" v="kultur" />
		<tag k="ssr:stedsnr" v="26537" />
		<tag k="ssr:type" v="annenKulturdetalj" />
	</node>
	<node lat="64.39419444682581" lon="11.90655555337938" id="-90542">
		<tag k="name" v="Dyrfossen" />
		<tag k="natural" v="waterfall" />
		<tag k="ssr:date" v="2018-01-09" />
		<tag k="ssr:gruppe" v="rennendeVann" />
		<tag k="ssr:hovedgruppe" v="ferskvann" />
		<tag k="ssr:stedsnr" v="26552" />
		<tag k="ssr:type" v="foss" />
	</node>
	<node lat="64.6266250034412" lon="11.935233338094077" id="-90543">
		<tag k="fixme" v="consider tourism=alpine_hut or tourism=chalet" />
		<tag k="name" v="Salfjellstu" />
		<tag k="ssr:date" v="2018-04-26" />
		<tag k="ssr:gruppe" v="næring" />
		<tag k="ssr:hovedgruppe" v="bebyggelse" />
		<tag k="ssr:stedsnr" v="39138" />
		<tag k="ssr:type" v="turisthytte" />
		<tag k="tourism" v="wilderness_hut" />
	</node>
	<node lat="64.41346944795693" lon="11.878547218091592" id="-90545">
		<tag k="name" v="Navarsholhaugen" />
		<tag k="natural" v="hill" />
		<tag k="place" v="locality" />
		<tag k="ssr:date" v="2018-01-09" />
		<tag k="ssr:gruppe" v="høyder" />
		<tag k="ssr:hovedgruppe" v="terreng" />
		<tag k="ssr:stedsnr" v="48370" />
		<tag k="ssr:type" v="haug" />
	</node>
	<node lat="64.38530555959468" lon="11.939550000753584" id="-90546">
		<tag k="name" v="Fiskløyslia" />
		<tag k="natural" v="slope" />
		<tag k="place" v="locality" />
		<tag k="ssr:date" v="2018-01-09" />
		<tag k="ssr:gruppe" v="skråninger" />
		<tag k="ssr:hovedgruppe" v="terreng" />
		<tag k="ssr:stedsnr" v="48362" />
		<tag k="ssr:type" v="li" />
	</node>
	<node lat="64.38688333610222" lon="11.851988894860432" id="-90547">
		<tag k="historic" v="shieling" />
		<tag k="name" v="Eriksetran" />
		<tag k="place" v="locality" />
		<tag k="ssr:date" v="2018-01-09" />
		<tag k="ssr:gruppe" v="dyrkamark" />
		<tag k="ssr:hovedgruppe" v="markslag" />
		<tag k="ssr:stedsnr" v="48367" />
		<tag k="ssr:type" v="setervoll" />
	</node>
	<node lat="64.40872222193288" lon="11.807388888415295" id="-90548">
		<tag k="name" v="Gauksjøåsen" />
		<tag k="natural" v="slope" />
		<tag k="place" v="locality" />
		<tag k="ssr:date" v="2018-01-09" />
		<tag k="ssr:gruppe" v="skråninger" />
		<tag k="ssr:hovedgruppe" v="terreng" />
		<tag k="ssr:stedsnr" v="50797" />
		<tag k="ssr:type" v="li" />
	</node>
	<node lat="64.2983944414977" lon="11.722152787432798" id="-90552">
		<tag k="name" v="Spillumsdalen" />
		<tag k="natural" v="valley" />
		<tag k="place" v="locality" />
		<tag k="ssr:date" v="2018-01-09" />
		<tag k="ssr:gruppe" v="senkninger" />
		<tag k="ssr:hovedgruppe" v="terreng" />
		<tag k="ssr:stedsnr" v="74599" />
		<tag k="ssr:type" v="dal" />
	</node>
	<node lat="64.49157499610648" lon="12.10646389039151" id="-90556">
		<tag k="fixme" v="consider natural=peak for the most distinct mountains in the district" />
		<tag k="name" v="Spannfjellet" />
		<tag k="natural" v="hill" />
		<tag k="place" v="locality" />
		<tag k="ssr:date" v="2019-12-27" />
		<tag k="ssr:gruppe" v="høyder" />
		<tag k="ssr:hovedgruppe" v="terreng" />
		<tag k="ssr:stedsnr" v="74729" />
		<tag k="ssr:type" v="fjell" />
	</node>
	<node lat="64.4754333366542" lon="11.95530833044534" id="-90565">
		<tag k="fixme" v="consider natural=peak for the most distinct mountains in the district" />
		<tag k="name" v="Vibstadfjellet" />
		<tag k="natural" v="hill" />
		<tag k="place" v="locality" />
		<tag k="ssr:date" v="2018-01-09" />
		<tag k="ssr:gruppe" v="høyder" />
		<tag k="ssr:hovedgruppe" v="terreng" />
		<tag k="ssr:stedsnr" v="75850" />
		<tag k="ssr:type" v="ås" />
	</node>
	<node lat="64.56770833506786" lon="12.022650008657102" id="-90566">
		<tag k="name" v="Bjørkbekken" />
		<tag k="ssr:date" v="2018-01-09" />
		<tag k="ssr:gruppe" v="rennendeVann" />
		<tag k="ssr:hovedgruppe" v="ferskvann" />
		<tag k="ssr:stedsnr" v="75854" />
		<tag k="ssr:type" v="bekk" />
		<tag k="waterway" v="stream" />
	</node>
	<node lat="64.5224474357943" lon="12.08155812771572" id="-90568">
		<tag k="name" v="Flasnes" />
		<tag k="place" v="farm" />
		<tag k="ssr:date" v="2018-01-09" />
		<tag k="ssr:gruppe" v="gardsbebyggelse" />
		<tag k="ssr:hovedgruppe" v="bebyggelse" />
		<tag k="ssr:stedsnr" v="75980" />
		<tag k="ssr:type" v="bruk" />
	</node>
	<node lat="64.55411623324262" lon="11.967337110819763" id="-90600">
		<tag k="fixme" v="consider tourism=alpine_hut or tourism=chalet" />
		<tag k="name" v="Røde-Korshytta" />
		<tag k="ssr:date" v="2019-11-18" />
		<tag k="ssr:gruppe" v="næring" />
		<tag k="ssr:hovedgruppe" v="bebyggelse" />
		<tag k="ssr:stedsnr" v="100168" />
		<tag k="ssr:type" v="turisthytte" />
		<tag k="tourism" v="wilderness_hut" />
	</node>
	<node lat="64.51437777338559" lon="11.769644452025823" id="-90602">
		<tag k="name" v="Åsenget" />
		<tag k="natural" v="wetland" />
		<tag k="ssr:date" v="2018-01-09" />
		<tag k="ssr:gruppe" v="våtmark" />
		<tag k="ssr:hovedgruppe" v="markslag" />
		<tag k="ssr:stedsnr" v="108429" />
		<tag k="ssr:type" v="myr" />
	</node>
	<node lat="64.51220277994611" lon="11.771686118153344" id="-90603">
		<tag k="name" v="Loken" />
		<tag k="natural" v="bay" />
		<tag k="ssr:date" v="2018-01-09" />
		<tag k="ssr:gruppe" v="ferskvannskontur" />
		<tag k="ssr:hovedgruppe" v="ferskvann" />
		<tag k="ssr:stedsnr" v="108431" />
		<tag k="ssr:type" v="vik" />
	</node>
	<node lat="64.56294166879402" lon="11.973411107327765" id="-90604">
		<tag k="historic" v="shieling" />
		<tag k="name" v="Roemsetran" />
		<tag k="place" v="locality" />
		<tag k="ssr:date" v="2018-01-09" />
		<tag k="ssr:gruppe" v="dyrkamark" />
		<tag k="ssr:hovedgruppe" v="markslag" />
		<tag k="ssr:stedsnr" v="109330" />
		<tag k="ssr:type" v="setervoll" />
	</node>
	<node lat="64.58295555650983" lon="11.995894442367051" id="-90605">
		<tag k="historic" v="shieling" />
		<tag k="name" v="Bjørnessetran" />
		<tag k="place" v="locality" />
		<tag k="ssr:date" v="2018-01-09" />
		<tag k="ssr:gruppe" v="dyrkamark" />
		<tag k="ssr:hovedgruppe" v="markslag" />
		<tag k="ssr:stedsnr" v="109335" />
		<tag k="ssr:type" v="setervoll" />
	</node>
	<node lat="64.34013055720463" lon="11.72051389869571" id="-90606">
		<tag k="name" v="Bjønntjønna" />
		<tag k="natural" v="water" />
		<tag k="ssr:date" v="2018-01-09" />
		<tag k="ssr:gruppe" v="stilleståendeVann" />
		<tag k="ssr:hovedgruppe" v="ferskvann" />
		<tag k="ssr:stedsnr" v="109030" />
		<tag k="ssr:type" v="tjern" />
	</node>
	<node lat="64.34660833055612" lon="12.109447218703858" id="-90607">
		<tag k="name" v="Marenliin" />
		<tag k="natural" v="slope" />
		<tag k="place" v="locality" />
		<tag k="ssr:date" v="2018-01-09" />
		<tag k="ssr:gruppe" v="skråninger" />
		<tag k="ssr:hovedgruppe" v="terreng" />
		<tag k="ssr:stedsnr" v="109166" />
		<tag k="ssr:type" v="li" />
	</node>
	<node lat="64.36692777401919" lon="11.697649993902324" id="-90608">
		<tag k="name" v="Hunnasetran" />
		<tag k="place" v="locality" />
		<tag k="ssr:date" v="2018-01-09" />
		<tag k="ssr:gruppe" v="bolighus" />
		<tag k="ssr:hovedgruppe" v="bebyggelse" />
		<tag k="ssr:stedsnr" v="109096" />
		<tag k="ssr:type" v="gammelBosettingsplass" />
	</node>
	<node lat="64.42357499948102" lon="12.042075005034805" id="-90609">
		<tag k="name" v="Stormyra" />
		<tag k="natural" v="wetland" />
		<tag k="ssr:date" v="2018-01-09" />
		<tag k="ssr:gruppe" v="våtmark" />
		<tag k="ssr:hovedgruppe" v="markslag" />
		<tag k="ssr:stedsnr" v="109411" />
		<tag k="ssr:type" v="myr" />
	</node>
	<node lat="64.39376666792413" lon="11.835241664685537" id="-90610">
		<tag k="name" v="Taraldalkjeften" />
		<tag k="natural" v="valley" />
		<tag k="place" v="locality" />
		<tag k="ssr:date" v="2018-01-09" />
		<tag k="ssr:gruppe" v="senkninger" />
		<tag k="ssr:hovedgruppe" v="terreng" />
		<tag k="ssr:stedsnr" v="110847" />
		<tag k="ssr:type" v="skar" />
	</node>
	<node lat="64.5061833358665" lon="11.948383327846852" id="-90611">
		<tag k="name" v="Krabbstufeltet" />
		<tag k="place" v="quarter" />
		<tag k="ssr:date" v="2018-01-09" />
		<tag k="ssr:gruppe" v="bebyggelsesområder" />
		<tag k="ssr:hovedgruppe" v="bebyggelse" />
		<tag k="ssr:stedsnr" v="112898" />
		<tag k="ssr:type" v="boligfelt" />
	</node>
	<node lat="64.45523888754819" lon="11.647963899147866" id="-90612">
		<tag k="name" v="Merradalen" />
		<tag k="natural" v="valley" />
		<tag k="place" v="locality" />
		<tag k="ssr:date" v="2018-01-09" />
		<tag k="ssr:gruppe" v="senkninger" />
		<tag k="ssr:hovedgruppe" v="terreng" />
		<tag k="ssr:stedsnr" v="134014" />
		<tag k="ssr:type" v="dal" />
	</node>
	<node lat="64.39200000277997" lon="11.700425009647253" id="-90616">
		<tag k="name" v="Krokvatnet" />
		<tag k="natural" v="water" />
		<tag k="ssr:date" v="2018-01-09" />
		<tag k="ssr:gruppe" v="stilleståendeVann" />
		<tag k="ssr:hovedgruppe" v="ferskvann" />
		<tag k="ssr:stedsnr" v="135073" />
		<tag k="ssr:type" v="tjern" />
	</node>
	<node lat="64.35010833779884" lon="11.813644441453885" id="-90617">
		<tag k="name" v="Langdalsbekken" />
		<tag k="ssr:date" v="2018-01-09" />
		<tag k="ssr:gruppe" v="rennendeVann" />
		<tag k="ssr:hovedgruppe" v="ferskvann" />
		<tag k="ssr:stedsnr" v="135574" />
		<tag k="ssr:type" v="bekk" />
		<tag k="waterway" v="stream" />
	</node>
	<node lat="64.3846861102718" lon="11.934402774684354" id="-90621">
		<tag k="name" v="Fiskløysa" />
		<tag k="natural" v="water" />
		<tag k="ssr:date" v="2018-01-09" />
		<tag k="ssr:gruppe" v="stilleståendeVann" />
		<tag k="ssr:hovedgruppe" v="ferskvann" />
		<tag k="ssr:stedsnr" v="135642" />
		<tag k="ssr:type" v="tjern" />
	</node>
	<node lat="64.63537499608856" lon="11.881977771899606" id="-90624">
		<tag k="fixme" v="consider natural=peak for the most distinct mountains in the district" />
		<tag k="name" v="Storengaksla - Gåahketjahke" />
		<tag k="name:no" v="Storengaksla" />
		<tag k="name:sma" v="Gåahketjahke" />
		<tag k="natural" v="hill" />
		<tag k="place" v="locality" />
		<tag k="ssr:date" v="2020-06-05" />
		<tag k="ssr:gruppe" v="høyder" />
		<tag k="ssr:hovedgruppe" v="terreng" />
		<tag k="ssr:stedsnr" v="135834" />
		<tag k="ssr:type" v="ås" />
	</node>
	<node lat="64.6139083332582" lon="11.960627785117298" id="-90627">
		<tag k="alt_name" v="Vakkerfjella" />
		<tag k="fixme" v="consider natural=peak for the most distinct mountains in the district" />
		<tag k="name" v="Vakkerfjellet" />
		<tag k="natural" v="hill" />
		<tag k="place" v="locality" />
		<tag k="ssr:date" v="2018-01-09" />
		<tag k="ssr:gruppe" v="høyder" />
		<tag k="ssr:hovedgruppe" v="terreng" />
		<tag k="ssr:stedsnr" v="135847" />
		<tag k="ssr:type" v="ås" />
	</node>
	<node lat="64.62222499961531" lon="11.891975007547435" id="-90628">
		<tag k="name" v="Fiskløysa" />
		<tag k="natural" v="water" />
		<tag k="ssr:date" v="2018-01-09" />
		<tag k="ssr:gruppe" v="stilleståendeVann" />
		<tag k="ssr:hovedgruppe" v="ferskvann" />
		<tag k="ssr:stedsnr" v="135851" />
		<tag k="ssr:type" v="tjern" />
	</node>
	<node lat="64.5079249956382" lon="12.048150004359552" id="-90630">
		<tag k="name" v="Tjurdalsbekken" />
		<tag k="ssr:date" v="2018-01-09" />
		<tag k="ssr:gruppe" v="rennendeVann" />
		<tag k="ssr:hovedgruppe" v="ferskvann" />
		<tag k="ssr:stedsnr" v="135991" />
		<tag k="ssr:type" v="bekk" />
		<tag k="waterway" v="stream" />
	</node>
	<node lat="64.58847500002292" lon="11.966524990406393" id="-90632">
		<tag k="name" v="Amdalshaugen" />
		<tag k="natural" v="hill" />
		<tag k="place" v="locality" />
		<tag k="ssr:date" v="2018-01-09" />
		<tag k="ssr:gruppe" v="høyder" />
		<tag k="ssr:hovedgruppe" v="terreng" />
		<tag k="ssr:stedsnr" v="135769" />
		<tag k="ssr:type" v="haug" />
	</node>
	<node lat="64.47289444113152" lon="11.814063878311512" id="-90634">
		<tag k="name" v="Vestmyr" />
		<tag k="place" v="farm" />
		<tag k="ssr:date" v="2018-01-09" />
		<tag k="ssr:gruppe" v="gardsbebyggelse" />
		<tag k="ssr:hovedgruppe" v="bebyggelse" />
		<tag k="ssr:stedsnr" v="135785" />
		<tag k="ssr:type" v="bruk" />
	</node>
	<node lat="64.49927500378304" lon="11.960513895637204" id="-90667">
		<tag k="name" v="Svenningmoen" />
		<tag k="place" v="locality" />
		<tag k="ssr:date" v="2018-01-09" />
		<tag k="ssr:gruppe" v="flater" />
		<tag k="ssr:hovedgruppe" v="terreng" />
		<tag k="ssr:stedsnr" v="161718" />
		<tag k="ssr:type" v="mo" />
	</node>
	<node lat="64.39175833365788" lon="11.846708341451533" id="-90669">
		<tag k="name" v="Seterdalen" />
		<tag k="natural" v="valley" />
		<tag k="place" v="locality" />
		<tag k="ssr:date" v="2018-01-09" />
		<tag k="ssr:gruppe" v="senkninger" />
		<tag k="ssr:hovedgruppe" v="terreng" />
		<tag k="ssr:stedsnr" v="169391" />
		<tag k="ssr:type" v="dal" />
	</node>
	<node lat="64.57768889055107" lon="12.049875007190606" id="-90670">
		<tag k="name" v="Bjørknesbekken" />
		<tag k="ssr:date" v="2018-01-09" />
		<tag k="ssr:gruppe" v="rennendeVann" />
		<tag k="ssr:hovedgruppe" v="ferskvann" />
		<tag k="ssr:stedsnr" v="169333" />
		<tag k="ssr:type" v="bekk" />
		<tag k="waterway" v="stream" />
	</node>
	<node lat="64.54686111389518" lon="12.057411104624125" id="-90671">
		<tag k="name" v="Storhøgdin" />
		<tag k="natural" v="hill" />
		<tag k="place" v="locality" />
		<tag k="ssr:date" v="2018-01-09" />
		<tag k="ssr:gruppe" v="høyder" />
		<tag k="ssr:hovedgruppe" v="terreng" />
		<tag k="ssr:stedsnr" v="169352" />
		<tag k="ssr:type" v="haug" />
	</node>
	<node lat="64.38019722631508" lon="11.943166666085098" id="-90672">
		<tag k="name" v="Eriktjønnheia" />
		<tag k="natural" v="hill" />
		<tag k="place" v="locality" />
		<tag k="ssr:date" v="2018-01-09" />
		<tag k="ssr:gruppe" v="høyder" />
		<tag k="ssr:hovedgruppe" v="terreng" />
		<tag k="ssr:stedsnr" v="169397" />
		<tag k="ssr:type" v="høyde" />
	</node>
	<node lat="64.42627778018753" lon="11.745025006353368" id="-90673">
		<tag k="name" v="Stamtjønna" />
		<tag k="natural" v="water" />
		<tag k="ssr:date" v="2018-01-09" />
		<tag k="ssr:gruppe" v="stilleståendeVann" />
		<tag k="ssr:hovedgruppe" v="ferskvann" />
		<tag k="ssr:stedsnr" v="169791" />
		<tag k="ssr:type" v="tjern" />
	</node>
	<node lat="64.34731667056131" lon="11.714897232073561" id="-90674">
		<tag k="name" v="Rotbekken" />
		<tag k="ssr:date" v="2018-01-09" />
		<tag k="ssr:gruppe" v="rennendeVann" />
		<tag k="ssr:hovedgruppe" v="ferskvann" />
		<tag k="ssr:stedsnr" v="170036" />
		<tag k="ssr:type" v="bekk" />
		<tag k="waterway" v="stream" />
	</node>
	<node lat="64.33588889215406" lon="11.961024994670323" id="-90675">
		<tag k="alt_name" v="Nord Bangsjø statsallmenning" />
		<tag k="name" v="Bangsjø statsallmenning" />
		<tag k="place" v="locality" />
		<tag k="ssr:date" v="2018-01-09" />
		<tag k="ssr:gruppe" v="verne-OgBruksområder" />
		<tag k="ssr:hovedgruppe" v="offentligAdministrasjon" />
		<tag k="ssr:stedsnr" v="170782" />
		<tag k="ssr:type" v="allmenning" />
	</node>
	<node lat="64.35101110996561" lon="11.920386109446174" id="-90676">
		<tag k="name" v="Jamtheimen statsskog" />
		<tag k="place" v="locality" />
		<tag k="ssr:date" v="2018-01-09" />
		<tag k="ssr:gruppe" v="verne-OgBruksområder" />
		<tag k="ssr:hovedgruppe" v="offentligAdministrasjon" />
		<tag k="ssr:stedsnr" v="170784" />
		<tag k="ssr:type" v="allmenning" />
	</node>
	<node lat="64.3633444467374" lon="11.834319449006978" id="-90677">
		<tag k="name" v="Steinøset" />
		<tag k="natural" v="strait" />
		<tag k="ssr:date" v="2018-01-09" />
		<tag k="ssr:gruppe" v="ferskvannskontur" />
		<tag k="ssr:hovedgruppe" v="ferskvann" />
		<tag k="ssr:stedsnr" v="170890" />
		<tag k="ssr:type" v="sund" />
	</node>
	<node lat="64.40500833460138" lon="11.811327772781357" id="-90678">
		<tag k="historic" v="shieling" />
		<tag k="name" v="Homstadseter" />
		<tag k="place" v="isolated_dwelling" />
		<tag k="ssr:date" v="2018-01-09" />
		<tag k="ssr:gruppe" v="gardsbebyggelse" />
		<tag k="ssr:hovedgruppe" v="bebyggelse" />
		<tag k="ssr:stedsnr" v="171830" />
		<tag k="ssr:type" v="seterStøl" />
	</node>
	<node lat="64.38721389227736" lon="11.80585555785706" id="-90679">
		<tag k="name" v="Langtjønna" />
		<tag k="natural" v="water" />
		<tag k="ssr:date" v="2018-01-09" />
		<tag k="ssr:gruppe" v="stilleståendeVann" />
		<tag k="ssr:hovedgruppe" v="ferskvann" />
		<tag k="ssr:stedsnr" v="171877" />
		<tag k="ssr:type" v="tjern" />
	</node>
	<node lat="64.47049999833855" lon="11.689788878764713" id="-90681">
		<tag k="name" v="Solheim" />
		<tag k="place" v="isolated_dwelling" />
		<tag k="ssr:date" v="2018-01-09" />
		<tag k="ssr:gruppe" v="bolighus" />
		<tag k="ssr:hovedgruppe" v="bebyggelse" />
		<tag k="ssr:stedsnr" v="195044" />
		<tag k="ssr:type" v="eneboligMindreBoligbygg" />
	</node>
	<node lat="64.4874333295493" lon="11.668152784877343" id="-90683">
		<tag k="name" v="Hallset" />
		<tag k="place" v="farm" />
		<tag k="ssr:date" v="2018-01-09" />
		<tag k="ssr:gruppe" v="gardsbebyggelse" />
		<tag k="ssr:hovedgruppe" v="bebyggelse" />
		<tag k="ssr:stedsnr" v="195223" />
		<tag k="ssr:type" v="bruk" />
	</node>
	<node lat="65.11002777597567" lon="13.085422216082504" id="-90688">
		<tag k="fixme" v="consider natural=peak for the most distinct mountains in the district" />
		<tag k="name" v="Kløftfjellet - Sloeptjenguevtele" />
		<tag k="name:no" v="Kløftfjellet" />
		<tag k="name:sma" v="Sloeptjenguevtele" />
		<tag k="natural" v="hill" />
		<tag k="place" v="locality" />
		<tag k="ssr:date" v="2021-10-07" />
		<tag k="ssr:gruppe" v="høyder" />
		<tag k="ssr:hovedgruppe" v="terreng" />
		<tag k="ssr:stedsnr" v="196523" />
		<tag k="ssr:type" v="fjell" />
	</node>
	<node lat="64.3570916705529" lon="11.742238893130661" id="-90690">
		<tag k="name" v="Langdalskjeften" />
		<tag k="natural" v="valley" />
		<tag k="place" v="locality" />
		<tag k="ssr:date" v="2018-01-09" />
		<tag k="ssr:gruppe" v="senkninger" />
		<tag k="ssr:hovedgruppe" v="terreng" />
		<tag k="ssr:stedsnr" v="196538" />
		<tag k="ssr:type" v="dal" />
	</node>
	<node lat="64.39544722358877" lon="11.89064444876412" id="-90697">
		<tag k="name" v="Fuglhaugen" />
		<tag k="natural" v="hill" />
		<tag k="place" v="locality" />
		<tag k="ssr:date" v="2018-01-09" />
		<tag k="ssr:gruppe" v="høyder" />
		<tag k="ssr:hovedgruppe" v="terreng" />
		<tag k="ssr:stedsnr" v="196617" />
		<tag k="ssr:type" v="haug" />
	</node>
	<node lat="64.45542500440828" lon="11.922427782388027" id="-90698">
		<tag k="name" v="Bergli" />
		<tag k="place" v="farm" />
		<tag k="ssr:date" v="2018-01-09" />
		<tag k="ssr:gruppe" v="gardsbebyggelse" />
		<tag k="ssr:hovedgruppe" v="bebyggelse" />
		<tag k="ssr:stedsnr" v="196676" />
		<tag k="ssr:type" v="bruk" />
	</node>
	<node lat="64.4482916689893" lon="12.118274992083" id="-90701">
		<tag k="name" v="Mosetet" />
		<tag k="place" v="locality" />
		<tag k="ssr:date" v="2018-01-09" />
		<tag k="ssr:gruppe" v="gardsbebyggelse" />
		<tag k="ssr:hovedgruppe" v="bebyggelse" />
		<tag k="ssr:stedsnr" v="196695" />
		<tag k="ssr:type" v="eiendom" />
	</node>
	<node lat="64.43241666294333" lon="11.771836116266192" id="-90702">
		<tag k="name" v="Horka" />
		<tag k="ssr:date" v="2018-01-09" />
		<tag k="ssr:gruppe" v="rennendeVann" />
		<tag k="ssr:hovedgruppe" v="ferskvann" />
		<tag k="ssr:stedsnr" v="196725" />
		<tag k="ssr:type" v="elv" />
		<tag k="waterway" v="river" />
	</node>
	<node lat="64.4222055595014" lon="11.944922227570851" id="-90703">
		<tag k="alt_name" v="Setertjønna" />
		<tag k="name" v="Storbakktjønna" />
		<tag k="natural" v="water" />
		<tag k="ssr:date" v="2021-06-08" />
		<tag k="ssr:gruppe" v="stilleståendeVann" />
		<tag k="ssr:hovedgruppe" v="ferskvann" />
		<tag k="ssr:stedsnr" v="196731" />
		<tag k="ssr:type" v="tjern" />
	</node>
	<node lat="64.35962500159833" lon="11.762283340108825" id="-90705">
		<tag k="name" v="Skogkjerringhaugen" />
		<tag k="natural" v="hill" />
		<tag k="place" v="locality" />
		<tag k="ssr:date" v="2018-01-09" />
		<tag k="ssr:gruppe" v="høyder" />
		<tag k="ssr:hovedgruppe" v="terreng" />
		<tag k="ssr:stedsnr" v="196647" />
		<tag k="ssr:type" v="haug" />
	</node>
	<node lat="64.4855277804285" lon="11.9726000061174" id="-90706">
		<tag k="name" v="Stortuva" />
		<tag k="natural" v="hill" />
		<tag k="place" v="locality" />
		<tag k="ssr:date" v="2018-01-09" />
		<tag k="ssr:gruppe" v="høyder" />
		<tag k="ssr:hovedgruppe" v="terreng" />
		<tag k="ssr:stedsnr" v="196745" />
		<tag k="ssr:type" v="haug" />
	</node>
	<node lat="64.4728555537395" lon="11.834352783503357" id="-90708">
		<tag k="name" v="Håksli" />
		<tag k="place" v="farm" />
		<tag k="ssr:date" v="2018-01-09" />
		<tag k="ssr:gruppe" v="gardsbebyggelse" />
		<tag k="ssr:hovedgruppe" v="bebyggelse" />
		<tag k="ssr:stedsnr" v="196786" />
		<tag k="ssr:type" v="bruk" />
	</node>
	<node lat="64.34440555793736" lon="11.668100003545753" id="-90713">
		<tag k="name" v="Sandåhatten" />
		<tag k="natural" v="hill" />
		<tag k="place" v="locality" />
		<tag k="ssr:date" v="2018-01-09" />
		<tag k="ssr:gruppe" v="høyder" />
		<tag k="ssr:hovedgruppe" v="terreng" />
		<tag k="ssr:stedsnr" v="196884" />
		<tag k="ssr:type" v="haug" />
	</node>
	<node lat="64.31192071815597" lon="11.946764209147315" id="-90733">
		<tag k="name" v="Grandaundalen" />
		<tag k="natural" v="valley" />
		<tag k="place" v="locality" />
		<tag k="ssr:date" v="2021-06-30" />
		<tag k="ssr:gruppe" v="senkninger" />
		<tag k="ssr:hovedgruppe" v="terreng" />
		<tag k="ssr:stedsnr" v="208155" />
		<tag k="ssr:type" v="dal" />
	</node>
	<node lat="64.3862472217287" lon="11.812613892972376" id="-90734">
		<tag k="name" v="Rundtjønna" />
		<tag k="natural" v="water" />
		<tag k="ssr:date" v="2018-01-09" />
		<tag k="ssr:gruppe" v="stilleståendeVann" />
		<tag k="ssr:hovedgruppe" v="ferskvann" />
		<tag k="ssr:stedsnr" v="208696" />
		<tag k="ssr:type" v="tjern" />
	</node>
	<node lat="64.55028055618341" lon="12.10368055857385" id="-90735">
		<tag k="name" v="Kvernmoen" />
		<tag k="place" v="locality" />
		<tag k="ssr:date" v="2018-01-09" />
		<tag k="ssr:gruppe" v="flater" />
		<tag k="ssr:hovedgruppe" v="terreng" />
		<tag k="ssr:stedsnr" v="210071" />
		<tag k="ssr:type" v="mo" />
	</node>
	<node lat="64.52347778164817" lon="12.158516659131065" id="-90736">
		<tag k="name" v="Nåltjønnmoan" />
		<tag k="place" v="locality" />
		<tag k="ssr:date" v="2018-01-09" />
		<tag k="ssr:gruppe" v="flater" />
		<tag k="ssr:hovedgruppe" v="terreng" />
		<tag k="ssr:stedsnr" v="211047" />
		<tag k="ssr:type" v="mo" />
	</node>
	<node lat="64.52537222019612" lon="11.874722230875408" id="-90737">
		<tag k="historic" v="shieling" />
		<tag k="name" v="Ballisetran" />
		<tag k="place" v="isolated_dwelling" />
		<tag k="ssr:date" v="2018-01-09" />
		<tag k="ssr:gruppe" v="gardsbebyggelse" />
		<tag k="ssr:hovedgruppe" v="bebyggelse" />
		<tag k="ssr:stedsnr" v="219769" />
		<tag k="ssr:type" v="seterStøl" />
	</node>
	<node lat="64.41284444458226" lon="11.862455558660338" id="-90739">
		<tag k="name" v="Ånessa" />
		<tag k="natural" v="cape" />
		<tag k="ssr:date" v="2018-01-09" />
		<tag k="ssr:gruppe" v="ferskvannskontur" />
		<tag k="ssr:hovedgruppe" v="ferskvann" />
		<tag k="ssr:stedsnr" v="290367" />
		<tag k="ssr:type" v="nes" />
	</node>
	<node lat="64.35495833475254" lon="12.131552781571084" id="-90740">
		<tag k="historic" v="shieling" />
		<tag k="name" v="Skjelbredseteren" />
		<tag k="place" v="locality" />
		<tag k="ssr:date" v="2018-01-09" />
		<tag k="ssr:gruppe" v="dyrkamark" />
		<tag k="ssr:hovedgruppe" v="markslag" />
		<tag k="ssr:stedsnr" v="291172" />
		<tag k="ssr:type" v="setervoll" />
	</node>
	<node lat="64.360386111525" lon="11.948605545788038" id="-90741">
		<tag k="name" v="Bjønndalen" />
		<tag k="natural" v="valley" />
		<tag k="place" v="locality" />
		<tag k="ssr:date" v="2018-01-09" />
		<tag k="ssr:gruppe" v="senkninger" />
		<tag k="ssr:hovedgruppe" v="terreng" />
		<tag k="ssr:stedsnr" v="291760" />
		<tag k="ssr:type" v="dal" />
	</node>
	<node lat="64.54990277543875" lon="11.944563883635032" id="-90742">
		<tag k="name" v="Gosmørdalen" />
		<tag k="natural" v="valley" />
		<tag k="place" v="locality" />
		<tag k="ssr:date" v="2018-01-09" />
		<tag k="ssr:gruppe" v="senkninger" />
		<tag k="ssr:hovedgruppe" v="terreng" />
		<tag k="ssr:stedsnr" v="292293" />
		<tag k="ssr:type" v="dal" />
	</node>
	<node lat="64.39588055521989" lon="11.824772214181506" id="-90743">
		<tag k="name" v="Taraldalåsen" />
		<tag k="natural" v="hill" />
		<tag k="place" v="locality" />
		<tag k="ssr:date" v="2018-01-09" />
		<tag k="ssr:gruppe" v="høyder" />
		<tag k="ssr:hovedgruppe" v="terreng" />
		<tag k="ssr:stedsnr" v="292837" />
		<tag k="ssr:type" v="høyde" />
	</node>
	<node lat="64.38540277574077" lon="11.82263333408125" id="-90744">
		<tag k="name" v="Halvardloddo" />
		<tag k="natural" v="valley" />
		<tag k="place" v="locality" />
		<tag k="ssr:date" v="2018-01-09" />
		<tag k="ssr:gruppe" v="senkninger" />
		<tag k="ssr:hovedgruppe" v="terreng" />
		<tag k="ssr:stedsnr" v="292864" />
		<tag k="ssr:type" v="dal" />
	</node>
	<node lat="64.51571388749684" lon="11.657450002224458" id="-90748">
		<tag k="fixme" v="consider natural=peak for the most distinct mountains in the district" />
		<tag k="name" v="Aunaåsen" />
		<tag k="natural" v="hill" />
		<tag k="place" v="locality" />
		<tag k="ssr:date" v="2019-12-27" />
		<tag k="ssr:gruppe" v="høyder" />
		<tag k="ssr:hovedgruppe" v="terreng" />
		<tag k="ssr:stedsnr" v="317129" />
		<tag k="ssr:type" v="ås" />
	</node>
	<node lat="64.31516944463158" lon="11.821833333267087" id="-90753">
		<tag k="name" v="Steindalen" />
		<tag k="natural" v="valley" />
		<tag k="place" v="locality" />
		<tag k="ssr:date" v="2018-01-09" />
		<tag k="ssr:gruppe" v="senkninger" />
		<tag k="ssr:hovedgruppe" v="terreng" />
		<tag k="ssr:stedsnr" v="317568" />
		<tag k="ssr:type" v="dal" />
	</node>
	<node lat="64.41720278158421" lon="11.997227778631684" id="-90754">
		<tag k="name" v="Fiskløysa" />
		<tag k="natural" v="water" />
		<tag k="ssr:date" v="2018-01-09" />
		<tag k="ssr:gruppe" v="stilleståendeVann" />
		<tag k="ssr:hovedgruppe" v="ferskvann" />
		<tag k="ssr:stedsnr" v="317684" />
		<tag k="ssr:type" v="tjern" />
	</node>
	<node lat="64.4233111089227" lon="12.092391667643776" id="-90755">
		<tag k="fixme" v="multiple name tags, choose one and add the other to alt_name; consider natural=peak for the most distinct mountains in the district" />
		<tag k="name" v="Middagsfjellet;Middagsklumpen" />
		<tag k="natural" v="hill" />
		<tag k="place" v="locality" />
		<tag k="ssr:date" v="2018-01-09" />
		<tag k="ssr:gruppe" v="høyder" />
		<tag k="ssr:hovedgruppe" v="terreng" />
		<tag k="ssr:stedsnr" v="317686" />
		<tag k="ssr:type" v="ås" />
	</node>
	<node lat="64.4952083356116" lon="11.947716673210897" id="-90756">
		<tag k="name" v="Haugom" />
		<tag k="place" v="farm" />
		<tag k="ssr:date" v="2018-01-09" />
		<tag k="ssr:gruppe" v="gardsbebyggelse" />
		<tag k="ssr:hovedgruppe" v="bebyggelse" />
		<tag k="ssr:stedsnr" v="317723" />
		<tag k="ssr:type" v="bruk" />
	</node>
	<node lat="64.3430138930159" lon="11.641497232640056" id="-90759">
		<tag k="name" v="Sandåa" />
		<tag k="ssr:date" v="2019-12-27" />
		<tag k="ssr:gruppe" v="rennendeVann" />
		<tag k="ssr:hovedgruppe" v="ferskvann" />
		<tag k="ssr:stedsnr" v="317836" />
		<tag k="ssr:type" v="elv" />
		<tag k="waterway" v="river" />
	</node>
	<node lat="64.59895833295752" lon="11.915255547716905" id="-90764">
		<tag k="name" v="Almdalen" />
		<tag k="natural" v="valley" />
		<tag k="place" v="locality" />
		<tag k="ssr:date" v="2019-12-27" />
		<tag k="ssr:gruppe" v="senkninger" />
		<tag k="ssr:hovedgruppe" v="terreng" />
		<tag k="ssr:stedsnr" v="318775" />
		<tag k="ssr:type" v="dal" />
	</node>
	<node lat="64.5985305591618" lon="12.04698333444406" id="-90765">
		<tag k="name" v="Nevervatnet" />
		<tag k="natural" v="water" />
		<tag k="ssr:date" v="2018-01-09" />
		<tag k="ssr:gruppe" v="stilleståendeVann" />
		<tag k="ssr:hovedgruppe" v="ferskvann" />
		<tag k="ssr:stedsnr" v="318779" />
		<tag k="ssr:type" v="tjern" />
	</node>
	<node lat="64.55491388914787" lon="12.095044434413426" id="-90795">
		<tag k="name" v="Bekknesbekken" />
		<tag k="ssr:date" v="2018-01-09" />
		<tag k="ssr:gruppe" v="rennendeVann" />
		<tag k="ssr:hovedgruppe" v="ferskvann" />
		<tag k="ssr:stedsnr" v="331060" />
		<tag k="ssr:type" v="bekk" />
		<tag k="waterway" v="stream" />
	</node>
	<node lat="64.40702222328092" lon="11.859383338271954" id="-90799">
		<tag k="name" v="Nyseterdalen" />
		<tag k="natural" v="valley" />
		<tag k="place" v="locality" />
		<tag k="ssr:date" v="2018-01-09" />
		<tag k="ssr:gruppe" v="senkninger" />
		<tag k="ssr:hovedgruppe" v="terreng" />
		<tag k="ssr:stedsnr" v="351389" />
		<tag k="ssr:type" v="dal" />
	</node>
	<node lat="64.42483333670131" lon="12.00796388508538" id="-90800">
		<tag k="name" v="Grøtvasshaugen" />
		<tag k="natural" v="hill" />
		<tag k="place" v="locality" />
		<tag k="ssr:date" v="2018-01-09" />
		<tag k="ssr:gruppe" v="høyder" />
		<tag k="ssr:hovedgruppe" v="terreng" />
		<tag k="ssr:stedsnr" v="351401" />
		<tag k="ssr:type" v="haug" />
	</node>
	<node lat="64.34869999761496" lon="11.68781387920981" id="-90801">
		<tag k="name" v="Sagfossen" />
		<tag k="natural" v="waterfall" />
		<tag k="ssr:date" v="2018-01-09" />
		<tag k="ssr:gruppe" v="rennendeVann" />
		<tag k="ssr:hovedgruppe" v="ferskvann" />
		<tag k="ssr:stedsnr" v="351094" />
		<tag k="ssr:type" v="foss" />
	</node>
	<node lat="64.57004444832353" lon="12.064413881973765" id="-90802">
		<tag k="historic" v="shieling" />
		<tag k="name" v="Ljøsbergssetran" />
		<tag k="place" v="locality" />
		<tag k="ssr:date" v="2018-01-09" />
		<tag k="ssr:gruppe" v="dyrkamark" />
		<tag k="ssr:hovedgruppe" v="markslag" />
		<tag k="ssr:stedsnr" v="351340" />
		<tag k="ssr:type" v="setervoll" />
	</node>
	<node lat="64.42712500076031" lon="12.071066675450952" id="-90803">
		<tag k="loc_name" v="Urdal'n" />
		<tag k="name" v="Urdalen" />
		<tag k="natural" v="valley" />
		<tag k="place" v="locality" />
		<tag k="ssr:date" v="2018-01-09" />
		<tag k="ssr:gruppe" v="senkninger" />
		<tag k="ssr:hovedgruppe" v="terreng" />
		<tag k="ssr:stedsnr" v="351413" />
		<tag k="ssr:type" v="dal" />
	</node>
	<node lat="64.5159305544758" lon="11.725911108420833" id="-90804">
		<tag k="fixme" v="consider natural=peak for the most distinct mountains in the district" />
		<tag k="name" v="Reinbjøråsen" />
		<tag k="natural" v="hill" />
		<tag k="place" v="locality" />
		<tag k="ssr:date" v="2018-01-09" />
		<tag k="ssr:gruppe" v="høyder" />
		<tag k="ssr:hovedgruppe" v="terreng" />
		<tag k="ssr:stedsnr" v="351415" />
		<tag k="ssr:type" v="ås" />
	</node>
	<node lat="64.424686113711" lon="12.048338893724427" id="-90805">
		<tag k="name" v="Stormyrhaugen" />
		<tag k="natural" v="hill" />
		<tag k="place" v="locality" />
		<tag k="ssr:date" v="2018-01-09" />
		<tag k="ssr:gruppe" v="høyder" />
		<tag k="ssr:hovedgruppe" v="terreng" />
		<tag k="ssr:stedsnr" v="351416" />
		<tag k="ssr:type" v="haug" />
	</node>
	<node lat="64.502627779002" lon="11.661736105355256" id="-90806">
		<tag k="name" v="Svahylla" />
		<tag k="natural" v="hill" />
		<tag k="place" v="locality" />
		<tag k="ssr:date" v="2018-01-09" />
		<tag k="ssr:gruppe" v="høyder" />
		<tag k="ssr:hovedgruppe" v="terreng" />
		<tag k="ssr:stedsnr" v="351417" />
		<tag k="ssr:type" v="berg" />
	</node>
	<node lat="64.3272722220878" lon="11.851747212985899" id="-90807">
		<tag k="name" v="Myrmosetran" />
		<tag k="place" v="locality" />
		<tag k="ssr:date" v="2018-01-09" />
		<tag k="ssr:gruppe" v="bolighus" />
		<tag k="ssr:hovedgruppe" v="bebyggelse" />
		<tag k="ssr:stedsnr" v="351838" />
		<tag k="ssr:type" v="gammelBosettingsplass" />
	</node>
	<node lat="64.41455555639347" lon="11.810688878648573" id="-90808">
		<tag k="name" v="Halvtotuva" />
		<tag k="natural" v="hill" />
		<tag k="place" v="locality" />
		<tag k="ssr:date" v="2018-01-09" />
		<tag k="ssr:gruppe" v="høyder" />
		<tag k="ssr:hovedgruppe" v="terreng" />
		<tag k="ssr:stedsnr" v="353832" />
		<tag k="ssr:type" v="haug" />
	</node>
	<node lat="64.48715277854718" lon="11.70847778253145" id="-90810">
		<tag k="name" v="Brann" />
		<tag k="place" v="farm" />
		<tag k="ssr:date" v="2018-01-09" />
		<tag k="ssr:gruppe" v="gardsbebyggelse" />
		<tag k="ssr:hovedgruppe" v="bebyggelse" />
		<tag k="ssr:stedsnr" v="377179" />
		<tag k="ssr:type" v="bruk" />
	</node>
	<node lat="64.48050555688212" lon="11.670850005179862" id="-90812">
		<tag k="name" v="Sjåengmyra" />
		<tag k="natural" v="wetland" />
		<tag k="ssr:date" v="2018-01-09" />
		<tag k="ssr:gruppe" v="våtmark" />
		<tag k="ssr:hovedgruppe" v="markslag" />
		<tag k="ssr:stedsnr" v="377185" />
		<tag k="ssr:type" v="myr" />
	</node>
	<node lat="64.29256666923112" lon="11.780155552384002" id="-90813">
		<tag k="alt_name" v="Sælkholman" />
		<tag k="name" v="Bognholman" />
		<tag k="place" v="islet" />
		<tag k="ssr:date" v="2021-06-08" />
		<tag k="ssr:gruppe" v="ferskvannskontur" />
		<tag k="ssr:hovedgruppe" v="ferskvann" />
		<tag k="ssr:stedsnr" v="377626" />
		<tag k="ssr:type" v="holme" />
	</node>
	<node lat="64.40740555373296" lon="11.814844448713286" id="-90814">
		<tag k="loc_name" v="Litløyvatnet" />
		<tag k="name" v="Gauksjøen" />
		<tag k="natural" v="water" />
		<tag k="ssr:date" v="2018-01-09" />
		<tag k="ssr:gruppe" v="stilleståendeVann" />
		<tag k="ssr:hovedgruppe" v="ferskvann" />
		<tag k="ssr:stedsnr" v="377643" />
		<tag k="ssr:type" v="tjern" />
	</node>
	<node lat="64.37705000275417" lon="12.15503889890017" id="-90816">
		<tag k="name" v="Tørrisbekken" />
		<tag k="ssr:date" v="2018-01-09" />
		<tag k="ssr:gruppe" v="rennendeVann" />
		<tag k="ssr:hovedgruppe" v="ferskvann" />
		<tag k="ssr:stedsnr" v="377667" />
		<tag k="ssr:type" v="bekk" />
		<tag k="waterway" v="stream" />
	</node>
	<node lat="64.46846944854342" lon="11.728666666468023" id="-90818">
		<tag k="fixme" v="consider natural=peak for the most distinct mountains in the district" />
		<tag k="name" v="Vattan" />
		<tag k="natural" v="hill" />
		<tag k="place" v="locality" />
		<tag k="ssr:date" v="2018-01-09" />
		<tag k="ssr:gruppe" v="høyder" />
		<tag k="ssr:hovedgruppe" v="terreng" />
		<tag k="ssr:stedsnr" v="377730" />
		<tag k="ssr:type" v="ås" />
	</node>
	<node lat="64.40408333174592" lon="11.660838883792557" id="-90824">
		<tag k="alt_name" v="Takliheia" />
		<tag k="fixme" v="consider natural=peak for the most distinct mountains in the district" />
		<tag k="name" v="Taklifjellet" />
		<tag k="natural" v="hill" />
		<tag k="place" v="locality" />
		<tag k="ssr:date" v="2019-12-27" />
		<tag k="ssr:gruppe" v="høyder" />
		<tag k="ssr:hovedgruppe" v="terreng" />
		<tag k="ssr:stedsnr" v="378053" />
		<tag k="ssr:type" v="ås" />
	</node>
	<node lat="64.5146333319866" lon="11.683399998360109" id="-90826">
		<tag k="name" v="Skagaheia" />
		<tag k="natural" v="hill" />
		<tag k="place" v="locality" />
		<tag k="ssr:date" v="2018-01-09" />
		<tag k="ssr:gruppe" v="høyder" />
		<tag k="ssr:hovedgruppe" v="terreng" />
		<tag k="ssr:stedsnr" v="378137" />
		<tag k="ssr:type" v="haug" />
	</node>
	<node lat="64.36670555901321" lon="11.814016662484505" id="-90828">
		<tag k="name" v="Karidalshøgda" />
		<tag k="natural" v="hill" />
		<tag k="place" v="locality" />
		<tag k="ssr:date" v="2018-01-09" />
		<tag k="ssr:gruppe" v="høyder" />
		<tag k="ssr:hovedgruppe" v="terreng" />
		<tag k="ssr:stedsnr" v="378689" />
		<tag k="ssr:type" v="haug" />
	</node>
	<node lat="64.49589999731698" lon="12.01028054553361" id="-90831">
		<tag k="name" v="Harestranda" />
		<tag k="natural" v="beach" />
		<tag k="ssr:date" v="2018-01-09" />
		<tag k="ssr:gruppe" v="ferskvannskontur" />
		<tag k="ssr:hovedgruppe" v="ferskvann" />
		<tag k="ssr:stedsnr" v="378790" />
		<tag k="ssr:type" v="strand" />
	</node>
	<node lat="64.42880000022389" lon="12.011255550980767" id="-90832">
		<tag k="fixme" v="multiple name tags, choose one and add the other to alt_name" />
		<tag k="name" v="Steinselva;Hegleselva" />
		<tag k="ssr:date" v="2018-01-09" />
		<tag k="ssr:gruppe" v="rennendeVann" />
		<tag k="ssr:hovedgruppe" v="ferskvann" />
		<tag k="ssr:stedsnr" v="378760" />
		<tag k="ssr:type" v="elv" />
		<tag k="waterway" v="river" />
	</node>
	<node lat="64.58510000014908" lon="12.085325006400831" id="-90833">
		<tag k="fixme" v="consider natural=peak for the most distinct mountains in the district" />
		<tag k="name" v="Grønlifjellet" />
		<tag k="natural" v="hill" />
		<tag k="place" v="locality" />
		<tag k="ssr:date" v="2019-12-27" />
		<tag k="ssr:gruppe" v="høyder" />
		<tag k="ssr:hovedgruppe" v="terreng" />
		<tag k="ssr:stedsnr" v="378822" />
		<tag k="ssr:type" v="fjell" />
	</node>
	<node lat="64.57134999803272" lon="11.951783330907475" id="-90834">
		<tag k="name" v="Solemsdalen" />
		<tag k="natural" v="valley" />
		<tag k="place" v="locality" />
		<tag k="ssr:date" v="2018-01-09" />
		<tag k="ssr:gruppe" v="senkninger" />
		<tag k="ssr:hovedgruppe" v="terreng" />
		<tag k="ssr:stedsnr" v="378824" />
		<tag k="ssr:type" v="dal" />
	</node>
	<node lat="64.4794944471684" lon="11.916086110606964" id="-90835">
		<tag k="name" v="Skveneset" />
		<tag k="natural" v="cape" />
		<tag k="ssr:date" v="2018-01-09" />
		<tag k="ssr:gruppe" v="ferskvannskontur" />
		<tag k="ssr:hovedgruppe" v="ferskvann" />
		<tag k="ssr:stedsnr" v="378830" />
		<tag k="ssr:type" v="nes" />
	</node>
	<node lat="64.52679722168693" lon="12.15460000972268" id="-90838">
		<tag k="name" v="Hauka" />
		<tag k="ssr:date" v="2018-01-09" />
		<tag k="ssr:gruppe" v="rennendeVann" />
		<tag k="ssr:hovedgruppe" v="ferskvann" />
		<tag k="ssr:stedsnr" v="378980" />
		<tag k="ssr:type" v="bekk" />
		<tag k="waterway" v="stream" />
	</node>
	<node lat="64.52812499950967" lon="11.864852779945359" id="-90840">
		<tag k="name" v="Ratbekken" />
		<tag k="ssr:date" v="2018-01-09" />
		<tag k="ssr:gruppe" v="rennendeVann" />
		<tag k="ssr:hovedgruppe" v="ferskvann" />
		<tag k="ssr:stedsnr" v="378954" />
		<tag k="ssr:type" v="bekk" />
		<tag k="waterway" v="stream" />
	</node>
	<node lat="64.53455000030597" lon="11.812333324343285" id="-90841">
		<tag k="alt_name" v="Svarthalldalen" />
		<tag k="name" v="Svartholdalen" />
		<tag k="natural" v="valley" />
		<tag k="place" v="locality" />
		<tag k="ssr:date" v="2018-01-09" />
		<tag k="ssr:gruppe" v="senkninger" />
		<tag k="ssr:hovedgruppe" v="terreng" />
		<tag k="ssr:stedsnr" v="379957" />
		<tag k="ssr:type" v="dal" />
	</node>
	<node lat="64.55824166257332" lon="12.100811111040132" id="-90867">
		<tag k="name" v="Øyenghola" />
		<tag k="natural" v="valley" />
		<tag k="place" v="locality" />
		<tag k="ssr:date" v="2018-01-09" />
		<tag k="ssr:gruppe" v="senkninger" />
		<tag k="ssr:hovedgruppe" v="terreng" />
		<tag k="ssr:stedsnr" v="392076" />
		<tag k="ssr:type" v="botn" />
	</node>
	<node lat="64.56032222087288" lon="12.084350005874159" id="-90868">
		<tag k="fixme" v="consider natural=peak for the most distinct mountains in the district" />
		<tag k="name" v="Storengåsen" />
		<tag k="natural" v="hill" />
		<tag k="place" v="locality" />
		<tag k="ssr:date" v="2018-01-09" />
		<tag k="ssr:gruppe" v="høyder" />
		<tag k="ssr:hovedgruppe" v="terreng" />
		<tag k="ssr:stedsnr" v="392143" />
		<tag k="ssr:type" v="ås" />
	</node>
	<node lat="64.54541111531641" lon="12.153661115127557" id="-90869">
		<tag k="fixme" v="consider natural=peak for the most distinct mountains in the district" />
		<tag k="name" v="Nesåsen" />
		<tag k="natural" v="hill" />
		<tag k="place" v="locality" />
		<tag k="ssr:date" v="2018-01-09" />
		<tag k="ssr:gruppe" v="høyder" />
		<tag k="ssr:hovedgruppe" v="terreng" />
		<tag k="ssr:stedsnr" v="392245" />
		<tag k="ssr:type" v="ås" />
	</node>
	<node lat="64.52659722510484" lon="12.164436114046506" id="-90870">
		<tag k="name" v="Langmyra" />
		<tag k="natural" v="wetland" />
		<tag k="ssr:date" v="2018-01-09" />
		<tag k="ssr:gruppe" v="våtmark" />
		<tag k="ssr:hovedgruppe" v="markslag" />
		<tag k="ssr:stedsnr" v="393062" />
		<tag k="ssr:type" v="myr" />
	</node>
	<node lat="64.36921388862196" lon="11.93588889418486" id="-90871">
		<tag k="name" v="Rognvatnet hytteområde" />
		<tag k="place" v="neighbourhood" />
		<tag k="ssr:date" v="2018-01-09" />
		<tag k="ssr:gruppe" v="bebyggelsesområder" />
		<tag k="ssr:hovedgruppe" v="bebyggelse" />
		<tag k="ssr:stedsnr" v="403175" />
		<tag k="ssr:type" v="hyttefelt" />
	</node>
	<node lat="64.60093055359243" lon="12.078516675919015" id="-90873">
		<tag k="name" v="Elgsjøen hytteområde" />
		<tag k="place" v="neighbourhood" />
		<tag k="ssr:date" v="2018-01-09" />
		<tag k="ssr:gruppe" v="bebyggelsesområder" />
		<tag k="ssr:hovedgruppe" v="bebyggelse" />
		<tag k="ssr:stedsnr" v="403181" />
		<tag k="ssr:type" v="hyttefelt" />
	</node>
	<node lat="64.34698714832732" lon="12.022890534450168" id="-90874">
		<tag k="name" v="Lokangamma" />
		<tag k="place" v="isolated_dwelling" />
		<tag k="ssr:date" v="2021-03-22" />
		<tag k="ssr:gruppe" v="bolighus" />
		<tag k="ssr:hovedgruppe" v="bebyggelse" />
		<tag k="ssr:stedsnr" v="403185" />
		<tag k="ssr:type" v="fritidsbolig" />
	</node>
	<node lat="64.4355388863607" lon="12.092722216104411" id="-90875">
		<tag k="name" v="Haustsetran" />
		<tag k="place" v="farm" />
		<tag k="ssr:date" v="2018-01-09" />
		<tag k="ssr:gruppe" v="gardsbebyggelse" />
		<tag k="ssr:hovedgruppe" v="bebyggelse" />
		<tag k="ssr:stedsnr" v="412151" />
		<tag k="ssr:type" v="bruk" />
	</node>
	<node lat="64.38803889203352" lon="11.92087221562774" id="-90876">
		<tag k="name" v="Fiskløysbekken" />
		<tag k="ssr:date" v="2018-01-09" />
		<tag k="ssr:gruppe" v="rennendeVann" />
		<tag k="ssr:hovedgruppe" v="ferskvann" />
		<tag k="ssr:stedsnr" v="412357" />
		<tag k="ssr:type" v="bekk" />
		<tag k="waterway" v="stream" />
	</node>
	<node lat="64.40758611233919" lon="11.933927768296229" id="-90877">
		<tag k="historic" v="shieling" />
		<tag k="name" v="Klumpsetran" />
		<tag k="place" v="locality" />
		<tag k="ssr:date" v="2018-01-09" />
		<tag k="ssr:gruppe" v="dyrkamark" />
		<tag k="ssr:hovedgruppe" v="markslag" />
		<tag k="ssr:stedsnr" v="412363" />
		<tag k="ssr:type" v="setervoll" />
	</node>
	<node lat="64.39984722167205" lon="11.859738881198105" id="-90878">
		<tag k="name" v="Erikmyra" />
		<tag k="natural" v="wetland" />
		<tag k="ssr:date" v="2018-01-09" />
		<tag k="ssr:gruppe" v="våtmark" />
		<tag k="ssr:hovedgruppe" v="markslag" />
		<tag k="ssr:stedsnr" v="412368" />
		<tag k="ssr:type" v="myr" />
	</node>
	<node lat="64.40573889020195" lon="11.848702785666223" id="-90879">
		<tag k="name" v="Olamyrbekken" />
		<tag k="ssr:date" v="2018-01-09" />
		<tag k="ssr:gruppe" v="rennendeVann" />
		<tag k="ssr:hovedgruppe" v="ferskvann" />
		<tag k="ssr:stedsnr" v="412371" />
		<tag k="ssr:type" v="bekk" />
		<tag k="waterway" v="stream" />
	</node>
	<node lat="64.40482222410147" lon="11.8896305494339" id="-90880">
		<tag k="name" v="Seterodden" />
		<tag k="natural" v="cape" />
		<tag k="ssr:date" v="2018-01-09" />
		<tag k="ssr:gruppe" v="ferskvannskontur" />
		<tag k="ssr:hovedgruppe" v="ferskvann" />
		<tag k="ssr:stedsnr" v="412373" />
		<tag k="ssr:type" v="nes" />
	</node>
	<node lat="64.40399444064894" lon="12.030274998380124" id="-90886">
		<tag k="fixme" v="consider natural=peak for the most distinct mountains in the district" />
		<tag k="name" v="Slipsteinsfjellet" />
		<tag k="natural" v="hill" />
		<tag k="place" v="locality" />
		<tag k="ssr:date" v="2018-01-09" />
		<tag k="ssr:gruppe" v="høyder" />
		<tag k="ssr:hovedgruppe" v="terreng" />
		<tag k="ssr:stedsnr" v="438657" />
		<tag k="ssr:type" v="fjell" />
	</node>
	<node lat="64.42454444021817" lon="11.711627768600001" id="-90893">
		<tag k="fixme" v="consider natural=peak for the most distinct mountains in the district" />
		<tag k="name" v="Høgaksla" />
		<tag k="natural" v="hill" />
		<tag k="place" v="locality" />
		<tag k="ssr:date" v="2018-01-09" />
		<tag k="ssr:gruppe" v="høyder" />
		<tag k="ssr:hovedgruppe" v="terreng" />
		<tag k="ssr:stedsnr" v="439084" />
		<tag k="ssr:type" v="ås" />
	</node>
	<node lat="64.32804444343891" lon="11.870955546064758" id="-90897">
		<tag k="name" v="Øltappen" />
		<tag k="place" v="isolated_dwelling" />
		<tag k="ssr:date" v="2018-01-09" />
		<tag k="ssr:gruppe" v="bolighus" />
		<tag k="ssr:hovedgruppe" v="bebyggelse" />
		<tag k="ssr:stedsnr" v="439572" />
		<tag k="ssr:type" v="fritidsbolig" />
	</node>
	<node lat="64.57440277719576" lon="12.063430559979201" id="-90899">
		<tag k="name" v="Grovdalen" />
		<tag k="natural" v="valley" />
		<tag k="place" v="locality" />
		<tag k="ssr:date" v="2018-01-09" />
		<tag k="ssr:gruppe" v="senkninger" />
		<tag k="ssr:hovedgruppe" v="terreng" />
		<tag k="ssr:stedsnr" v="439816" />
		<tag k="ssr:type" v="dal" />
	</node>
	<node lat="64.56440000390566" lon="11.947850003638951" id="-90900">
		<tag k="name" v="Himovatnet" />
		<tag k="natural" v="water" />
		<tag k="ssr:date" v="2018-01-09" />
		<tag k="ssr:gruppe" v="stilleståendeVann" />
		<tag k="ssr:hovedgruppe" v="ferskvann" />
		<tag k="ssr:stedsnr" v="439823" />
		<tag k="ssr:type" v="tjern" />
	</node>
	<node lat="64.62998055282958" lon="11.992450003097943" id="-90901">
		<tag k="fixme" v="consider natural=peak for the most distinct mountains in the district" />
		<tag k="name" v="Skorva" />
		<tag k="natural" v="hill" />
		<tag k="place" v="locality" />
		<tag k="ssr:date" v="2018-01-09" />
		<tag k="ssr:gruppe" v="høyder" />
		<tag k="ssr:hovedgruppe" v="terreng" />
		<tag k="ssr:stedsnr" v="439885" />
		<tag k="ssr:type" v="fjell" />
	</node>
	<node lat="64.60527778017874" lon="11.911874994709079" id="-90903">
		<tag k="alt_name" v="Nordstigen" />
		<tag k="name" v="Nordlistigen" />
		<tag k="natural" v="slope" />
		<tag k="place" v="locality" />
		<tag k="ssr:date" v="2018-01-09" />
		<tag k="ssr:gruppe" v="skråninger" />
		<tag k="ssr:hovedgruppe" v="terreng" />
		<tag k="ssr:stedsnr" v="439776" />
		<tag k="ssr:type" v="li" />
	</node>
	<node lat="64.59536388549195" lon="11.975999998373648" id="-90906">
		<tag k="fixme" v="consider natural=peak for the most distinct mountains in the district" />
		<tag k="name" v="Almdalsfjella" />
		<tag k="natural" v="hill" />
		<tag k="place" v="locality" />
		<tag k="ssr:date" v="2018-01-09" />
		<tag k="ssr:gruppe" v="høyder" />
		<tag k="ssr:hovedgruppe" v="terreng" />
		<tag k="ssr:stedsnr" v="439780" />
		<tag k="ssr:type" v="fjell" />
	</node>
	<node lat="64.5444027793097" lon="11.757949993054666" id="-90912">
		<tag k="alt_name" v="Storlifjellet" />
		<tag k="fixme" v="consider natural=peak for the most distinct mountains in the district" />
		<tag k="name" v="Storfjellet" />
		<tag k="natural" v="hill" />
		<tag k="place" v="locality" />
		<tag k="ssr:date" v="2019-12-27" />
		<tag k="ssr:gruppe" v="høyder" />
		<tag k="ssr:hovedgruppe" v="terreng" />
		<tag k="ssr:stedsnr" v="440968" />
		<tag k="ssr:type" v="ås" />
	</node>
	<node lat="64.45248610843906" lon="11.777652778720684" id="-90946">
		<tag k="name" v="Gran" />
		<tag k="place" v="farm" />
		<tag k="ssr:date" v="2018-01-09" />
		<tag k="ssr:gruppe" v="gardsbebyggelse" />
		<tag k="ssr:hovedgruppe" v="bebyggelse" />
		<tag k="ssr:stedsnr" v="499650" />
		<tag k="ssr:type" v="bruk" />
	</node>
	<node lat="64.48408888761088" lon="11.693999990454179" id="-90954">
		<tag k="name" v="Omlamyra" />
		<tag k="natural" v="wetland" />
		<tag k="ssr:date" v="2018-01-09" />
		<tag k="ssr:gruppe" v="våtmark" />
		<tag k="ssr:hovedgruppe" v="markslag" />
		<tag k="ssr:stedsnr" v="499156" />
		<tag k="ssr:type" v="myr" />
	</node>
	<node lat="64.48587222144369" lon="11.628169451107398" id="-90956">
		<tag k="alt_name" v="Tretvikfjellet" />
		<tag k="fixme" v="multiple name tags, choose one and add the other to alt_name" />
		<tag k="name" v="Trettvikberga;Trettvikfjellet" />
		<tag k="natural" v="hill" />
		<tag k="place" v="locality" />
		<tag k="ssr:date" v="2019-12-27" />
		<tag k="ssr:gruppe" v="høyder" />
		<tag k="ssr:hovedgruppe" v="terreng" />
		<tag k="ssr:stedsnr" v="499162" />
		<tag k="ssr:type" v="berg" />
	</node>
	<node lat="64.35997778118428" lon="11.724161111302838" id="-90957">
		<tag k="name" v="Fiskløysa" />
		<tag k="natural" v="water" />
		<tag k="ssr:date" v="2018-01-09" />
		<tag k="ssr:gruppe" v="stilleståendeVann" />
		<tag k="ssr:hovedgruppe" v="ferskvann" />
		<tag k="ssr:stedsnr" v="499621" />
		<tag k="ssr:type" v="tjern" />
	</node>
	<node lat="64.36136110985815" lon="11.821036108560081" id="-90958">
		<tag k="name" v="Karidalen" />
		<tag k="natural" v="valley" />
		<tag k="place" v="locality" />
		<tag k="ssr:date" v="2018-01-09" />
		<tag k="ssr:gruppe" v="senkninger" />
		<tag k="ssr:hovedgruppe" v="terreng" />
		<tag k="ssr:stedsnr" v="499626" />
		<tag k="ssr:type" v="dal" />
	</node>
	<node lat="64.35406944133291" lon="11.743949996162737" id="-90959">
		<tag k="name" v="Selhaugen" />
		<tag k="natural" v="hill" />
		<tag k="place" v="locality" />
		<tag k="ssr:date" v="2018-01-09" />
		<tag k="ssr:gruppe" v="høyder" />
		<tag k="ssr:hovedgruppe" v="terreng" />
		<tag k="ssr:stedsnr" v="499631" />
		<tag k="ssr:type" v="haug" />
	</node>
	<node lat="64.40998055460527" lon="11.827091675623198" id="-90964">
		<tag k="name" v="Sagvatnet" />
		<tag k="natural" v="water" />
		<tag k="ssr:date" v="2018-01-09" />
		<tag k="ssr:gruppe" v="stilleståendeVann" />
		<tag k="ssr:hovedgruppe" v="ferskvann" />
		<tag k="ssr:stedsnr" v="499571" />
		<tag k="ssr:type" v="tjern" />
	</node>
	<node lat="64.48159444140332" lon="11.838463886026698" id="-90967">
		<tag k="name" v="Unnset" />
		<tag k="place" v="farm" />
		<tag k="ssr:date" v="2018-01-09" />
		<tag k="ssr:gruppe" v="gardsbebyggelse" />
		<tag k="ssr:hovedgruppe" v="bebyggelse" />
		<tag k="ssr:stedsnr" v="499774" />
		<tag k="ssr:type" v="bruk" />
	</node>
	<node lat="64.47594999622416" lon="11.8374416719061" id="-90968">
		<tag k="name" v="Nyheim" />
		<tag k="place" v="farm" />
		<tag k="ssr:date" v="2018-01-09" />
		<tag k="ssr:gruppe" v="gardsbebyggelse" />
		<tag k="ssr:hovedgruppe" v="bebyggelse" />
		<tag k="ssr:stedsnr" v="499775" />
		<tag k="ssr:type" v="bruk" />
	</node>
	<node lat="64.5026861130532" lon="11.637452767931682" id="-90973">
		<tag k="name" v="Heiaurda" />
		<tag k="natural" v="scree" />
		<tag k="ssr:date" v="2018-01-09" />
		<tag k="ssr:gruppe" v="løsmasseavsetninger" />
		<tag k="ssr:hovedgruppe" v="markslag" />
		<tag k="ssr:stedsnr" v="500275" />
		<tag k="ssr:type" v="ur" />
	</node>
	<node lat="64.37681666933585" lon="11.938624997970946" id="-91007">
		<tag k="name" v="Kranslintjønnin" />
		<tag k="natural" v="water" />
		<tag k="ssr:date" v="2018-01-09" />
		<tag k="ssr:gruppe" v="stilleståendeVann" />
		<tag k="ssr:hovedgruppe" v="ferskvann" />
		<tag k="ssr:stedsnr" v="511521" />
		<tag k="ssr:type" v="tjern" />
	</node>
	<node lat="64.5569083317903" lon="12.104911108524059" id="-91008">
		<tag k="name" v="Kvernhushola" />
		<tag k="natural" v="valley" />
		<tag k="place" v="locality" />
		<tag k="ssr:date" v="2018-01-09" />
		<tag k="ssr:gruppe" v="senkninger" />
		<tag k="ssr:hovedgruppe" v="terreng" />
		<tag k="ssr:stedsnr" v="513073" />
		<tag k="ssr:type" v="botn" />
	</node>
	<node lat="64.56811666956224" lon="12.064158324431547" id="-91009">
		<tag k="name" v="Øyengvatna hytteområde" />
		<tag k="place" v="neighbourhood" />
		<tag k="ssr:date" v="2018-01-09" />
		<tag k="ssr:gruppe" v="bebyggelsesområder" />
		<tag k="ssr:hovedgruppe" v="bebyggelse" />
		<tag k="ssr:stedsnr" v="525230" />
		<tag k="ssr:type" v="hyttefelt" />
	</node>
	<node lat="64.49829444651637" lon="11.960574992278305" id="-91010">
		<tag k="amenity" v="school" />
		<tag k="name" v="Overhalla barne- og ungdomsskole" />
		<tag k="ssr:date" v="2018-01-09" />
		<tag k="ssr:gruppe" v="institusjoner" />
		<tag k="ssr:hovedgruppe" v="bebyggelse" />
		<tag k="ssr:stedsnr" v="527242" />
		<tag k="ssr:type" v="skole" />
	</node>
	<node lat="64.40573611392595" lon="11.664619434373927" id="-91011">
		<tag k="fixme" v="consider natural=peak for the most distinct mountains in the district" />
		<tag k="name" v="Gravdalshøgda" />
		<tag k="natural" v="hill" />
		<tag k="place" v="locality" />
		<tag k="ssr:date" v="2018-01-09" />
		<tag k="ssr:gruppe" v="høyder" />
		<tag k="ssr:hovedgruppe" v="terreng" />
		<tag k="ssr:stedsnr" v="533012" />
		<tag k="ssr:type" v="fjell" />
	</node>
	<node lat="64.39663055936148" lon="11.896269436069534" id="-91012">
		<tag k="name" v="Storburet" />
		<tag k="place" v="locality" />
		<tag k="ssr:date" v="2018-01-09" />
		<tag k="ssr:gruppe" v="flater" />
		<tag k="ssr:hovedgruppe" v="terreng" />
		<tag k="ssr:stedsnr" v="533394" />
		<tag k="ssr:type" v="slette" />
	</node>
	<node lat="64.43333610987136" lon="11.769433326665775" id="-91013">
		<tag k="name" v="Nilskleiva" />
		<tag k="natural" v="slope" />
		<tag k="place" v="locality" />
		<tag k="ssr:date" v="2018-01-09" />
		<tag k="ssr:gruppe" v="skråninger" />
		<tag k="ssr:hovedgruppe" v="terreng" />
		<tag k="ssr:stedsnr" v="533812" />
		<tag k="ssr:type" v="li" />
	</node>
	<node lat="64.31582778176332" lon="11.707127772064359" id="-91014">
		<tag k="name" v="Daltjønna" />
		<tag k="natural" v="water" />
		<tag k="ssr:date" v="2018-01-09" />
		<tag k="ssr:gruppe" v="stilleståendeVann" />
		<tag k="ssr:hovedgruppe" v="ferskvann" />
		<tag k="ssr:stedsnr" v="534099" />
		<tag k="ssr:type" v="tjern" />
	</node>
	<node lat="64.3149722263733" lon="11.69946944333111" id="-91015">
		<tag k="name" v="Storfisktjønna" />
		<tag k="natural" v="water" />
		<tag k="ssr:date" v="2018-01-09" />
		<tag k="ssr:gruppe" v="stilleståendeVann" />
		<tag k="ssr:hovedgruppe" v="ferskvann" />
		<tag k="ssr:stedsnr" v="534100" />
		<tag k="ssr:type" v="tjern" />
	</node>
	<node lat="64.32251944377725" lon="11.88817222352696" id="-91016">
		<tag k="name" v="Andfindalen" />
		<tag k="natural" v="valley" />
		<tag k="place" v="locality" />
		<tag k="ssr:date" v="2018-01-09" />
		<tag k="ssr:gruppe" v="senkninger" />
		<tag k="ssr:hovedgruppe" v="terreng" />
		<tag k="ssr:stedsnr" v="534837" />
		<tag k="ssr:type" v="dal" />
	</node>
	<node lat="64.3082805540701" lon="11.798102769630745" id="-91017">
		<tag k="historic" v="shieling" />
		<tag k="name" v="Sellegsetran" />
		<tag k="place" v="isolated_dwelling" />
		<tag k="ssr:date" v="2018-01-09" />
		<tag k="ssr:gruppe" v="gardsbebyggelse" />
		<tag k="ssr:hovedgruppe" v="bebyggelse" />
		<tag k="ssr:stedsnr" v="534841" />
		<tag k="ssr:type" v="seterStøl" />
	</node>
	<node lat="64.3396805567025" lon="11.795336102690635" id="-91018">
		<tag k="name" v="Vesterslettjønnin" />
		<tag k="natural" v="water" />
		<tag k="ssr:date" v="2018-01-09" />
		<tag k="ssr:gruppe" v="stilleståendeVann" />
		<tag k="ssr:hovedgruppe" v="ferskvann" />
		<tag k="ssr:stedsnr" v="534950" />
		<tag k="ssr:type" v="tjern" />
	</node>
	<node lat="64.41229166626857" lon="12.001155547893454" id="-91023">
		<tag k="name" v="Flydalen" />
		<tag k="natural" v="valley" />
		<tag k="place" v="locality" />
		<tag k="ssr:date" v="2018-01-09" />
		<tag k="ssr:gruppe" v="senkninger" />
		<tag k="ssr:hovedgruppe" v="terreng" />
		<tag k="ssr:stedsnr" v="559640" />
		<tag k="ssr:type" v="dal" />
	</node>
	<node lat="64.40984444442266" lon="11.799563880167673" id="-91026">
		<tag k="fixme" v="consider natural=peak for the most distinct mountains in the district" />
		<tag k="name" v="Storengåsen" />
		<tag k="natural" v="hill" />
		<tag k="place" v="locality" />
		<tag k="ssr:date" v="2018-01-09" />
		<tag k="ssr:gruppe" v="høyder" />
		<tag k="ssr:hovedgruppe" v="terreng" />
		<tag k="ssr:stedsnr" v="559655" />
		<tag k="ssr:type" v="ås" />
	</node>
	<node lat="64.38853333232422" lon="11.726161110078545" id="-91028">
		<tag k="name" v="Finnhaugan" />
		<tag k="natural" v="hill" />
		<tag k="place" v="locality" />
		<tag k="ssr:date" v="2018-01-09" />
		<tag k="ssr:gruppe" v="høyder" />
		<tag k="ssr:hovedgruppe" v="terreng" />
		<tag k="ssr:stedsnr" v="559667" />
		<tag k="ssr:type" v="haug" />
	</node>
	<node lat="64.3898555590282" lon="11.824833340694974" id="-91029">
		<tag k="fixme" v="consider natural=peak for the most distinct mountains in the district" />
		<tag k="name" v="Pikrunden" />
		<tag k="natural" v="hill" />
		<tag k="place" v="locality" />
		<tag k="ssr:date" v="2018-01-09" />
		<tag k="ssr:gruppe" v="høyder" />
		<tag k="ssr:hovedgruppe" v="terreng" />
		<tag k="ssr:stedsnr" v="559668" />
		<tag k="ssr:type" v="ås" />
	</node>
	<node lat="64.34393333531949" lon="11.837188884173258" id="-91032">
		<tag k="name" v="Grønlibukta" />
		<tag k="natural" v="water" />
		<tag k="ssr:date" v="2018-01-09" />
		<tag k="ssr:gruppe" v="stilleståendeVann" />
		<tag k="ssr:hovedgruppe" v="ferskvann" />
		<tag k="ssr:stedsnr" v="560588" />
		<tag k="ssr:type" v="tjern" />
	</node>
	<node lat="64.34860555361574" lon="11.937269438075768" id="-91033">
		<tag k="name" v="Litlåa" />
		<tag k="ssr:date" v="2018-01-09" />
		<tag k="ssr:gruppe" v="rennendeVann" />
		<tag k="ssr:hovedgruppe" v="ferskvann" />
		<tag k="ssr:stedsnr" v="560590" />
		<tag k="ssr:type" v="bekk" />
		<tag k="waterway" v="stream" />
	</node>
	<node lat="64.32348333337964" lon="11.858413890543575" id="-91035">
		<tag k="name" v="Abellia" />
		<tag k="natural" v="slope" />
		<tag k="place" v="locality" />
		<tag k="ssr:date" v="2018-01-09" />
		<tag k="ssr:gruppe" v="skråninger" />
		<tag k="ssr:hovedgruppe" v="terreng" />
		<tag k="ssr:stedsnr" v="560597" />
		<tag k="ssr:type" v="li" />
	</node>
	<node lat="64.38139999718402" lon="11.823777777495106" id="-91036">
		<tag k="fixme" v="consider natural=peak for the most distinct mountains in the district" />
		<tag k="name" v="Flatrunden" />
		<tag k="natural" v="hill" />
		<tag k="place" v="locality" />
		<tag k="ssr:date" v="2018-01-09" />
		<tag k="ssr:gruppe" v="høyder" />
		<tag k="ssr:hovedgruppe" v="terreng" />
		<tag k="ssr:stedsnr" v="559679" />
		<tag k="ssr:type" v="ås" />
	</node>
	<node lat="64.46973269588982" lon="11.867560271386802" id="-91039">
		<tag k="alt_name" v="Tetlien" />
		<tag k="fixme" v="consider place=hamlet" />
		<tag k="name" v="Tetlia" />
		<tag k="place" v="farm" />
		<tag k="ssr:date" v="2018-01-09" />
		<tag k="ssr:gruppe" v="gardsbebyggelse" />
		<tag k="ssr:hovedgruppe" v="bebyggelse" />
		<tag k="ssr:stedsnr" v="559784" />
		<tag k="ssr:type" v="gard" />
	</node>
	<node lat="64.50808611257249" lon="11.672127785669275" id="-91040">
		<tag k="fixme" v="multiple name tags, choose one and add the other to alt_name; consider natural=peak for the most distinct mountains in the district" />
		<tag k="name" v="Brattengåsen;Åsengåsen" />
		<tag k="natural" v="hill" />
		<tag k="place" v="locality" />
		<tag k="ssr:date" v="2018-01-09" />
		<tag k="ssr:gruppe" v="høyder" />
		<tag k="ssr:hovedgruppe" v="terreng" />
		<tag k="ssr:stedsnr" v="560237" />
		<tag k="ssr:type" v="ås" />
	</node>
	<node lat="64.35652778000855" lon="11.724813887482101" id="-91041">
		<tag k="name" v="Brannhaugen" />
		<tag k="natural" v="hill" />
		<tag k="place" v="locality" />
		<tag k="ssr:date" v="2018-01-09" />
		<tag k="ssr:gruppe" v="høyder" />
		<tag k="ssr:hovedgruppe" v="terreng" />
		<tag k="ssr:stedsnr" v="560680" />
		<tag k="ssr:type" v="haug" />
	</node>
	<node lat="64.42209444524174" lon="11.744869447080038" id="-91043">
		<tag k="fixme" v="consider natural=peak for the most distinct mountains in the district" />
		<tag k="name" v="Finnkjerringa" />
		<tag k="natural" v="hill" />
		<tag k="place" v="locality" />
		<tag k="ssr:date" v="2018-01-09" />
		<tag k="ssr:gruppe" v="høyder" />
		<tag k="ssr:hovedgruppe" v="terreng" />
		<tag k="ssr:stedsnr" v="560737" />
		<tag k="ssr:type" v="ås" />
	</node>
	<node lat="64.42211389322647" lon="11.934583337481735" id="-91044">
		<tag k="fixme" v="consider natural=peak for the most distinct mountains in the district" />
		<tag k="name" v="Middagsfjellet" />
		<tag k="natural" v="hill" />
		<tag k="place" v="locality" />
		<tag k="ssr:date" v="2018-01-09" />
		<tag k="ssr:gruppe" v="høyder" />
		<tag k="ssr:hovedgruppe" v="terreng" />
		<tag k="ssr:stedsnr" v="560740" />
		<tag k="ssr:type" v="ås" />
	</node>
	<node lat="64.60809999593532" lon="12.019874993095138" id="-91045">
		<tag k="alt_name" v="Løntoppen" />
		<tag k="fixme" v="consider natural=peak for the most distinct mountains in the district" />
		<tag k="name" v="Lønntoppen" />
		<tag k="natural" v="hill" />
		<tag k="place" v="locality" />
		<tag k="ssr:date" v="2018-01-09" />
		<tag k="ssr:gruppe" v="høyder" />
		<tag k="ssr:hovedgruppe" v="terreng" />
		<tag k="ssr:stedsnr" v="560753" />
		<tag k="ssr:type" v="ås" />
	</node>
	<node lat="64.61520000140294" lon="12.057574993671821" id="-91046">
		<tag k="name" v="Finnbuhaugen" />
		<tag k="natural" v="hill" />
		<tag k="place" v="locality" />
		<tag k="ssr:date" v="2018-01-09" />
		<tag k="ssr:gruppe" v="høyder" />
		<tag k="ssr:hovedgruppe" v="terreng" />
		<tag k="ssr:stedsnr" v="560757" />
		<tag k="ssr:type" v="haug" />
	</node>
	<node lat="64.52913055602338" lon="11.7236499896569" id="-91047">
		<tag k="fixme" v="consider natural=peak for the most distinct mountains in the district" />
		<tag k="name" v="Tostenlifjellet" />
		<tag k="natural" v="hill" />
		<tag k="place" v="locality" />
		<tag k="ssr:date" v="2018-01-09" />
		<tag k="ssr:gruppe" v="høyder" />
		<tag k="ssr:hovedgruppe" v="terreng" />
		<tag k="ssr:stedsnr" v="560963" />
		<tag k="ssr:type" v="ås" />
	</node>
	<node lat="64.52690277342843" lon="11.770686108752022" id="-91075">
		<tag k="name" v="Finnhusa" />
		<tag k="place" v="locality" />
		<tag k="ssr:date" v="2018-01-09" />
		<tag k="ssr:gruppe" v="bolighus" />
		<tag k="ssr:hovedgruppe" v="bebyggelse" />
		<tag k="ssr:stedsnr" v="593396" />
		<tag k="ssr:type" v="gammelBosettingsplass" />
	</node>
	<node lat="64.32951389071455" lon="12.078347225102574" id="-91076">
		<tag k="historic" v="shieling" />
		<tag k="name" v="Nyseteren" />
		<tag k="place" v="locality" />
		<tag k="ssr:date" v="2018-01-09" />
		<tag k="ssr:gruppe" v="dyrkamark" />
		<tag k="ssr:hovedgruppe" v="markslag" />
		<tag k="ssr:stedsnr" v="594175" />
		<tag k="ssr:type" v="setervoll" />
	</node>
	<node lat="64.57045833774735" lon="11.958500001043292" id="-91078">
		<tag k="name" v="Litlhanshaugen" />
		<tag k="natural" v="hill" />
		<tag k="place" v="locality" />
		<tag k="ssr:date" v="2018-01-09" />
		<tag k="ssr:gruppe" v="høyder" />
		<tag k="ssr:hovedgruppe" v="terreng" />
		<tag k="ssr:stedsnr" v="595274" />
		<tag k="ssr:type" v="haug" />
	</node>
	<node lat="64.34638888475006" lon="11.880552769553352" id="-91079">
		<tag k="name" v="Opdalsetran" />
		<tag k="place" v="locality" />
		<tag k="ssr:date" v="2018-01-09" />
		<tag k="ssr:gruppe" v="dyrkamark" />
		<tag k="ssr:hovedgruppe" v="markslag" />
		<tag k="ssr:stedsnr" v="595898" />
		<tag k="ssr:type" v="utmark" />
	</node>
	<node lat="64.33770277939843" lon="11.805813894273633" id="-91085">
		<tag k="fixme" v="consider natural=peak for the most distinct mountains in the district" />
		<tag k="name" v="Middagsfjellet" />
		<tag k="natural" v="hill" />
		<tag k="place" v="locality" />
		<tag k="ssr:date" v="2018-01-09" />
		<tag k="ssr:gruppe" v="høyder" />
		<tag k="ssr:hovedgruppe" v="terreng" />
		<tag k="ssr:stedsnr" v="620552" />
		<tag k="ssr:type" v="ås" />
	</node>
	<node lat="64.34950278188381" lon="11.836625008074034" id="-91086">
		<tag k="alt_name" v="Vesteråvatnet" />
		<tag k="name" v="Vesteråvatna" />
		<tag k="natural" v="water" />
		<tag k="ssr:date" v="2018-01-09" />
		<tag k="ssr:gruppe" v="stilleståendeVann" />
		<tag k="ssr:hovedgruppe" v="ferskvann" />
		<tag k="ssr:stedsnr" v="620554" />
		<tag k="ssr:type" v="vann" />
		<tag k="water" v="lake" />
	</node>
	<node lat="64.3126611086484" lon="11.722447229025656" id="-91088">
		<tag k="alt_name" v="Spillumsdaltjønna" />
		<tag k="name" v="Svartelvtjønna" />
		<tag k="natural" v="water" />
		<tag k="ssr:date" v="2021-06-08" />
		<tag k="ssr:gruppe" v="stilleståendeVann" />
		<tag k="ssr:hovedgruppe" v="ferskvann" />
		<tag k="ssr:stedsnr" v="620583" />
		<tag k="ssr:type" v="tjern" />
	</node>
	<node lat="64.36543889201064" lon="11.929924990754413" id="-91092">
		<tag k="name" v="Rognvatnet" />
		<tag k="natural" v="water" />
		<tag k="ssr:date" v="2018-01-09" />
		<tag k="ssr:gruppe" v="stilleståendeVann" />
		<tag k="ssr:hovedgruppe" v="ferskvann" />
		<tag k="ssr:stedsnr" v="620643" />
		<tag k="ssr:type" v="vann" />
		<tag k="water" v="lake" />
	</node>
	<node lat="64.44512500111799" lon="11.955761105974078" id="-91095">
		<tag k="fixme" v="consider natural=peak for the most distinct mountains in the district" />
		<tag k="name" v="Kinnbeinfjellet" />
		<tag k="natural" v="hill" />
		<tag k="place" v="locality" />
		<tag k="ssr:date" v="2018-01-09" />
		<tag k="ssr:gruppe" v="høyder" />
		<tag k="ssr:hovedgruppe" v="terreng" />
		<tag k="ssr:stedsnr" v="620693" />
		<tag k="ssr:type" v="ås" />
	</node>
	<node lat="64.43551111019286" lon="11.726580553561602" id="-91096">
		<tag k="name" v="Botndammen" />
		<tag k="ssr:date" v="2018-01-09" />
		<tag k="ssr:gruppe" v="stilleståendeVann" />
		<tag k="ssr:hovedgruppe" v="ferskvann" />
		<tag k="ssr:stedsnr" v="620713" />
		<tag k="ssr:type" v="dam" />
		<tag k="waterway" v="dam" />
	</node>
	<node lat="64.55814999947964" lon="11.986624993059676" id="-91100">
		<tag k="name" v="Øyengdalen" />
		<tag k="natural" v="valley" />
		<tag k="place" v="locality" />
		<tag k="ssr:date" v="2018-01-09" />
		<tag k="ssr:gruppe" v="senkninger" />
		<tag k="ssr:hovedgruppe" v="terreng" />
		<tag k="ssr:stedsnr" v="621826" />
		<tag k="ssr:type" v="dal" />
	</node>
	<node lat="64.59985277512222" lon="12.103980559453442" id="-91102">
		<tag k="name" v="Elgsjøen" />
		<tag k="natural" v="water" />
		<tag k="ssr:date" v="2019-12-27" />
		<tag k="ssr:gruppe" v="stilleståendeVann" />
		<tag k="ssr:hovedgruppe" v="ferskvann" />
		<tag k="ssr:stedsnr" v="621793" />
		<tag k="ssr:type" v="vann" />
		<tag k="water" v="lake" />
	</node>
	<node lat="64.52613055239364" lon="12.163061117641845" id="-91104">
		<tag k="name" v="Hauka" />
		<tag k="ssr:date" v="2018-01-09" />
		<tag k="ssr:gruppe" v="rennendeVann" />
		<tag k="ssr:hovedgruppe" v="ferskvann" />
		<tag k="ssr:stedsnr" v="635042" />
		<tag k="ssr:type" v="elv" />
		<tag k="waterway" v="river" />
	</node>
	<node lat="64.36802500384793" lon="11.942794435169597" id="-91124">
		<tag k="name" v="Vibstadbekken" />
		<tag k="ssr:date" v="2018-01-09" />
		<tag k="ssr:gruppe" v="rennendeVann" />
		<tag k="ssr:hovedgruppe" v="ferskvann" />
		<tag k="ssr:stedsnr" v="632545" />
		<tag k="ssr:type" v="bekk" />
		<tag k="waterway" v="stream" />
	</node>
	<node lat="64.52505833074683" lon="12.194449994817719" id="-91125">
		<tag k="name" v="Bjørklia" />
		<tag k="natural" v="slope" />
		<tag k="place" v="locality" />
		<tag k="ssr:date" v="2018-01-09" />
		<tag k="ssr:gruppe" v="skråninger" />
		<tag k="ssr:hovedgruppe" v="terreng" />
		<tag k="ssr:stedsnr" v="634039" />
		<tag k="ssr:type" v="li" />
	</node>
	<node lat="64.52853611349883" lon="12.18246665732079" id="-91126">
		<tag k="fixme" v="consider natural=peak for the most distinct mountains in the district" />
		<tag k="name" v="Seteråsen" />
		<tag k="natural" v="hill" />
		<tag k="place" v="locality" />
		<tag k="ssr:date" v="2018-01-09" />
		<tag k="ssr:gruppe" v="høyder" />
		<tag k="ssr:hovedgruppe" v="terreng" />
		<tag k="ssr:stedsnr" v="634053" />
		<tag k="ssr:type" v="ås" />
	</node>
	<node lat="64.54826944877497" lon="12.097550002949003" id="-91127">
		<tag k="name" v="Bjørngjøtin" />
		<tag k="natural" v="wetland" />
		<tag k="ssr:date" v="2018-01-09" />
		<tag k="ssr:gruppe" v="våtmark" />
		<tag k="ssr:hovedgruppe" v="markslag" />
		<tag k="ssr:stedsnr" v="634110" />
		<tag k="ssr:type" v="myr" />
	</node>
	<node lat="64.57277222104632" lon="11.969583325873694" id="-91128">
		<tag k="name" v="Amdalsmyra hytteområde" />
		<tag k="place" v="neighbourhood" />
		<tag k="ssr:date" v="2018-01-09" />
		<tag k="ssr:gruppe" v="bebyggelsesområder" />
		<tag k="ssr:hovedgruppe" v="bebyggelse" />
		<tag k="ssr:stedsnr" v="646214" />
		<tag k="ssr:type" v="hyttefelt" />
	</node>
	<node lat="64.42254166637056" lon="11.985088896451126" id="-91129">
		<tag k="name" v="Vinterdalen" />
		<tag k="natural" v="valley" />
		<tag k="place" v="locality" />
		<tag k="ssr:date" v="2018-01-09" />
		<tag k="ssr:gruppe" v="senkninger" />
		<tag k="ssr:hovedgruppe" v="terreng" />
		<tag k="ssr:stedsnr" v="654417" />
		<tag k="ssr:type" v="dal" />
	</node>
	<node lat="64.37638333733477" lon="11.713586103283864" id="-91130">
		<tag k="name" v="Mætenseter" />
		<tag k="place" v="locality" />
		<tag k="ssr:date" v="2018-01-09" />
		<tag k="ssr:gruppe" v="bolighus" />
		<tag k="ssr:hovedgruppe" v="bebyggelse" />
		<tag k="ssr:stedsnr" v="655013" />
		<tag k="ssr:type" v="gammelBosettingsplass" />
	</node>
	<node lat="64.32389722257403" lon="12.00386666207923" id="-91131">
		<tag k="historic" v="shieling" />
		<tag k="name" v="Lestemseteren" />
		<tag k="place" v="locality" />
		<tag k="ssr:date" v="2018-01-09" />
		<tag k="ssr:gruppe" v="dyrkamark" />
		<tag k="ssr:hovedgruppe" v="markslag" />
		<tag k="ssr:stedsnr" v="655264" />
		<tag k="ssr:type" v="setervoll" />
	</node>
	<node lat="64.42074166714984" lon="11.759283326229653" id="-91132">
		<tag k="name" v="Flyåsen" />
		<tag k="natural" v="slope" />
		<tag k="place" v="locality" />
		<tag k="ssr:date" v="2018-01-09" />
		<tag k="ssr:gruppe" v="skråninger" />
		<tag k="ssr:hovedgruppe" v="terreng" />
		<tag k="ssr:stedsnr" v="655771" />
		<tag k="ssr:type" v="li" />
	</node>
	<node lat="64.39776944457296" lon="11.835069443667019" id="-91133">
		<tag k="name" v="Taraldalmyra" />
		<tag k="natural" v="wetland" />
		<tag k="ssr:date" v="2018-01-09" />
		<tag k="ssr:gruppe" v="våtmark" />
		<tag k="ssr:hovedgruppe" v="markslag" />
		<tag k="ssr:stedsnr" v="656848" />
		<tag k="ssr:type" v="myr" />
	</node>
	<node lat="64.40549444496077" lon="11.803505555023778" id="-91134">
		<tag k="name" v="Storenget" />
		<tag k="natural" v="wetland" />
		<tag k="ssr:date" v="2018-01-09" />
		<tag k="ssr:gruppe" v="våtmark" />
		<tag k="ssr:hovedgruppe" v="markslag" />
		<tag k="ssr:stedsnr" v="656852" />
		<tag k="ssr:type" v="myr" />
	</node>
	<node lat="64.37121389307873" lon="11.833786101739957" id="-91136">
		<tag k="name" v="Vesteråvatna hytteområde" />
		<tag k="place" v="neighbourhood" />
		<tag k="ssr:date" v="2018-01-09" />
		<tag k="ssr:gruppe" v="bebyggelsesområder" />
		<tag k="ssr:hovedgruppe" v="bebyggelse" />
		<tag k="ssr:stedsnr" v="666756" />
		<tag k="ssr:type" v="hyttefelt" />
	</node>
	<node lat="64.42951667088667" lon="12.107750006689223" id="-91138">
		<tag k="name" v="Fururabban" />
		<tag k="natural" v="ridge" />
		<tag k="place" v="locality" />
		<tag k="ssr:date" v="2018-01-09" />
		<tag k="ssr:gruppe" v="høyder" />
		<tag k="ssr:hovedgruppe" v="terreng" />
		<tag k="ssr:stedsnr" v="715170" />
		<tag k="ssr:type" v="rygg" />
	</node>
	<node lat="64.43217499735162" lon="12.069733338715427" id="-91139">
		<tag k="name" v="Hesjedalen" />
		<tag k="natural" v="valley" />
		<tag k="place" v="locality" />
		<tag k="ssr:date" v="2018-01-09" />
		<tag k="ssr:gruppe" v="senkninger" />
		<tag k="ssr:hovedgruppe" v="terreng" />
		<tag k="ssr:stedsnr" v="715457" />
		<tag k="ssr:type" v="dal" />
	</node>
	<node lat="64.36386111097006" lon="11.725144436281811" id="-91140">
		<tag k="name" v="Hanshaugen" />
		<tag k="natural" v="hill" />
		<tag k="place" v="locality" />
		<tag k="ssr:date" v="2018-01-09" />
		<tag k="ssr:gruppe" v="høyder" />
		<tag k="ssr:hovedgruppe" v="terreng" />
		<tag k="ssr:stedsnr" v="716102" />
		<tag k="ssr:type" v="haug" />
	</node>
	<node lat="64.5718499959622" lon="12.016655558738277" id="-91141">
		<tag k="name" v="Innervatnet" />
		<tag k="natural" v="water" />
		<tag k="ssr:date" v="2018-01-09" />
		<tag k="ssr:gruppe" v="stilleståendeVann" />
		<tag k="ssr:hovedgruppe" v="ferskvann" />
		<tag k="ssr:stedsnr" v="716371" />
		<tag k="ssr:type" v="tjern" />
	</node>
	<node lat="64.40904999791603" lon="11.822666657910712" id="-91142">
		<tag k="name" v="Gauksjøoset" />
		<tag k="natural" v="bay" />
		<tag k="ssr:date" v="2018-01-09" />
		<tag k="ssr:gruppe" v="rennendeVann" />
		<tag k="ssr:hovedgruppe" v="ferskvann" />
		<tag k="ssr:stedsnr" v="717827" />
		<tag k="ssr:type" v="os" />
	</node>
	<node lat="64.4125861146943" lon="11.828202770825404" id="-91143">
		<tag k="name" v="Sagvassmyra" />
		<tag k="natural" v="wetland" />
		<tag k="ssr:date" v="2018-01-09" />
		<tag k="ssr:gruppe" v="våtmark" />
		<tag k="ssr:hovedgruppe" v="markslag" />
		<tag k="ssr:stedsnr" v="717831" />
		<tag k="ssr:type" v="myr" />
	</node>
	<node lat="64.46304444279455" lon="11.791647223127043" id="-91145">
		<tag k="name" v="Hunnamyra" />
		<tag k="natural" v="wetland" />
		<tag k="ssr:date" v="2018-01-09" />
		<tag k="ssr:gruppe" v="våtmark" />
		<tag k="ssr:hovedgruppe" v="markslag" />
		<tag k="ssr:stedsnr" v="727437" />
		<tag k="ssr:type" v="myr" />
	</node>
	<node lat="64.4778888852344" lon="11.64873889397712" id="-91147">
		<tag k="name" v="Kvatningan" />
		<tag k="natural" v="cape" />
		<tag k="ssr:date" v="2018-01-09" />
		<tag k="ssr:gruppe" v="ferskvannskontur" />
		<tag k="ssr:hovedgruppe" v="ferskvann" />
		<tag k="ssr:stedsnr" v="741053" />
		<tag k="ssr:type" v="nes" />
	</node>
	<node lat="64.53473888671542" lon="11.694133341680061" id="-91149">
		<tag k="name" v="Storlia" />
		<tag k="natural" v="slope" />
		<tag k="place" v="locality" />
		<tag k="ssr:date" v="2018-01-09" />
		<tag k="ssr:gruppe" v="skråninger" />
		<tag k="ssr:hovedgruppe" v="terreng" />
		<tag k="ssr:stedsnr" v="743080" />
		<tag k="ssr:type" v="li" />
	</node>
	<node lat="64.36692499949226" lon="12.027494438787306" id="-91151">
		<tag k="fixme" v="consider natural=peak for the most distinct mountains in the district" />
		<tag k="name" v="Reinsjøfjellet" />
		<tag k="natural" v="hill" />
		<tag k="place" v="locality" />
		<tag k="ssr:date" v="2018-01-09" />
		<tag k="ssr:gruppe" v="høyder" />
		<tag k="ssr:hovedgruppe" v="terreng" />
		<tag k="ssr:stedsnr" v="742657" />
		<tag k="ssr:type" v="fjell" />
	</node>
	<node lat="64.35705833332305" lon="11.92324999998026" id="-91153">
		<tag k="name" v="Jamtheimen" />
		<tag k="place" v="isolated_dwelling" />
		<tag k="ssr:date" v="2018-01-09" />
		<tag k="ssr:gruppe" v="bolighus" />
		<tag k="ssr:hovedgruppe" v="bebyggelse" />
		<tag k="ssr:stedsnr" v="742668" />
		<tag k="ssr:type" v="fritidsbolig" />
	</node>
	<node lat="64.35397499826819" lon="11.727752786921762" id="-91154">
		<tag k="name" v="Mellomhaugen" />
		<tag k="natural" v="hill" />
		<tag k="place" v="locality" />
		<tag k="ssr:date" v="2018-01-09" />
		<tag k="ssr:gruppe" v="høyder" />
		<tag k="ssr:hovedgruppe" v="terreng" />
		<tag k="ssr:stedsnr" v="742675" />
		<tag k="ssr:type" v="haug" />
	</node>
	<node lat="64.6025083347286" lon="12.060255562954046" id="-91163">
		<tag k="name" v="Elgsjøhaugan" />
		<tag k="natural" v="hill" />
		<tag k="place" v="locality" />
		<tag k="ssr:date" v="2018-01-09" />
		<tag k="ssr:gruppe" v="høyder" />
		<tag k="ssr:hovedgruppe" v="terreng" />
		<tag k="ssr:stedsnr" v="742761" />
		<tag k="ssr:type" v="haug" />
	</node>
	<node lat="64.46405278027328" lon="12.04946388625404" id="-91165">
		<tag k="name" v="Vangsnes" />
		<tag k="place" v="farm" />
		<tag k="ssr:date" v="2018-01-09" />
		<tag k="ssr:gruppe" v="gardsbebyggelse" />
		<tag k="ssr:hovedgruppe" v="bebyggelse" />
		<tag k="ssr:stedsnr" v="742770" />
		<tag k="ssr:type" v="bruk" />
	</node>
	<node lat="64.52110555873091" lon="12.027374999898338" id="-91168">
		<tag k="name" v="Bjøra" />
		<tag k="ssr:date" v="2018-01-09" />
		<tag k="ssr:gruppe" v="rennendeVann" />
		<tag k="ssr:hovedgruppe" v="ferskvann" />
		<tag k="ssr:stedsnr" v="742975" />
		<tag k="ssr:type" v="elv" />
		<tag k="waterway" v="river" />
	</node>
	<node lat="64.62514999730563" lon="11.91327500714169" id="-91169">
		<tag k="name" v="Storvatnet" />
		<tag k="natural" v="water" />
		<tag k="ssr:date" v="2018-01-09" />
		<tag k="ssr:gruppe" v="stilleståendeVann" />
		<tag k="ssr:hovedgruppe" v="ferskvann" />
		<tag k="ssr:stedsnr" v="743863" />
		<tag k="ssr:type" v="tjern" />
	</node>
	<node lat="64.53665833318682" lon="11.72948054535428" id="-91172">
		<tag k="name" v="Liavatna" />
		<tag k="natural" v="water" />
		<tag k="ssr:date" v="2018-01-09" />
		<tag k="ssr:gruppe" v="stilleståendeVann" />
		<tag k="ssr:hovedgruppe" v="ferskvann" />
		<tag k="ssr:stedsnr" v="743963" />
		<tag k="ssr:type" v="tjern" />
	</node>
	<node lat="64.52458889017669" lon="12.162202775697914" id="-91205">
		<tag k="name" v="Nåltjønnelva" />
		<tag k="ssr:date" v="2018-01-09" />
		<tag k="ssr:gruppe" v="rennendeVann" />
		<tag k="ssr:hovedgruppe" v="ferskvann" />
		<tag k="ssr:stedsnr" v="757043" />
		<tag k="ssr:type" v="bekk" />
		<tag k="waterway" v="stream" />
	</node>
	<node lat="64.55998332998975" lon="11.932838896114102" id="-91208">
		<tag k="name" v="Vestervatnet hytteområde" />
		<tag k="place" v="neighbourhood" />
		<tag k="ssr:date" v="2018-01-09" />
		<tag k="ssr:gruppe" v="bebyggelsesområder" />
		<tag k="ssr:hovedgruppe" v="bebyggelse" />
		<tag k="ssr:stedsnr" v="768214" />
		<tag k="ssr:type" v="hyttefelt" />
	</node>
	<node lat="64.3518750028461" lon="11.708313891213782" id="-91209">
		<tag k="name" v="Ristadsetran" />
		<tag k="place" v="locality" />
		<tag k="ssr:date" v="2018-01-09" />
		<tag k="ssr:gruppe" v="bolighus" />
		<tag k="ssr:hovedgruppe" v="bebyggelse" />
		<tag k="ssr:stedsnr" v="776090" />
		<tag k="ssr:type" v="gammelBosettingsplass" />
	</node>
	<node lat="64.32658889258391" lon="11.762294443336698" id="-91210">
		<tag k="name" v="Møssmørbekken" />
		<tag k="ssr:date" v="2018-01-09" />
		<tag k="ssr:gruppe" v="rennendeVann" />
		<tag k="ssr:hovedgruppe" v="ferskvann" />
		<tag k="ssr:stedsnr" v="776100" />
		<tag k="ssr:type" v="bekk" />
		<tag k="waterway" v="stream" />
	</node>
	<node lat="64.42850277674059" lon="12.00057777197106" id="-91212">
		<tag k="name" v="Setermoen" />
		<tag k="place" v="locality" />
		<tag k="ssr:date" v="2018-01-09" />
		<tag k="ssr:gruppe" v="flater" />
		<tag k="ssr:hovedgruppe" v="terreng" />
		<tag k="ssr:stedsnr" v="776373" />
		<tag k="ssr:type" v="slette" />
	</node>
	<node lat="64.39701388786685" lon="11.850136103072048" id="-91213">
		<tag k="name" v="Storstakkenget" />
		<tag k="place" v="locality" />
		<tag k="ssr:date" v="2018-01-09" />
		<tag k="ssr:gruppe" v="flater" />
		<tag k="ssr:hovedgruppe" v="terreng" />
		<tag k="ssr:stedsnr" v="776376" />
		<tag k="ssr:type" v="slette" />
	</node>
	<node lat="64.41464166540666" lon="11.866413893927529" id="-91214">
		<tag k="name" v="Bjørberget" />
		<tag k="natural" v="hill" />
		<tag k="place" v="locality" />
		<tag k="ssr:date" v="2018-01-09" />
		<tag k="ssr:gruppe" v="høyder" />
		<tag k="ssr:hovedgruppe" v="terreng" />
		<tag k="ssr:stedsnr" v="776382" />
		<tag k="ssr:type" v="haug" />
	</node>
	<node lat="64.34203888850615" lon="11.707505547843" id="-91215">
		<tag k="name" v="Damtjønna" />
		<tag k="natural" v="water" />
		<tag k="ssr:date" v="2018-01-09" />
		<tag k="ssr:gruppe" v="stilleståendeVann" />
		<tag k="ssr:hovedgruppe" v="ferskvann" />
		<tag k="ssr:stedsnr" v="776039" />
		<tag k="ssr:type" v="tjern" />
	</node>
	<node lat="64.435977780605" lon="11.739719440322578" id="-91216">
		<tag k="name" v="Bottenrabban" />
		<tag k="natural" v="slope" />
		<tag k="place" v="locality" />
		<tag k="ssr:date" v="2018-01-09" />
		<tag k="ssr:gruppe" v="skråninger" />
		<tag k="ssr:hovedgruppe" v="terreng" />
		<tag k="ssr:stedsnr" v="776782" />
		<tag k="ssr:type" v="li" />
	</node>
	<node lat="64.47024444302326" lon="11.8715250024234" id="-91217">
		<tag k="name" v="Tetlia" />
		<tag k="place" v="farm" />
		<tag k="ssr:date" v="2018-01-09" />
		<tag k="ssr:gruppe" v="gardsbebyggelse" />
		<tag k="ssr:hovedgruppe" v="bebyggelse" />
		<tag k="ssr:stedsnr" v="787834" />
		<tag k="ssr:type" v="bruk" />
	</node>
	<node lat="64.41405000178737" lon="11.961138880193387" id="-91219">
		<tag k="name" v="Klumptjønna" />
		<tag k="natural" v="water" />
		<tag k="ssr:date" v="2018-01-09" />
		<tag k="ssr:gruppe" v="stilleståendeVann" />
		<tag k="ssr:hovedgruppe" v="ferskvann" />
		<tag k="ssr:stedsnr" v="802680" />
		<tag k="ssr:type" v="tjern" />
	</node>
	<node lat="64.41626944323505" lon="12.11073054823335" id="-91221">
		<tag k="fixme" v="consider natural=peak for the most distinct mountains in the district" />
		<tag k="name" v="Tømmersjøfjellet" />
		<tag k="natural" v="hill" />
		<tag k="place" v="locality" />
		<tag k="ssr:date" v="2018-01-09" />
		<tag k="ssr:gruppe" v="høyder" />
		<tag k="ssr:hovedgruppe" v="terreng" />
		<tag k="ssr:stedsnr" v="802689" />
		<tag k="ssr:type" v="ås" />
	</node>
	<node lat="64.5615749990695" lon="12.03462499799951" id="-91223">
		<tag k="name" v="Svartdalen" />
		<tag k="natural" v="valley" />
		<tag k="place" v="locality" />
		<tag k="ssr:date" v="2018-01-09" />
		<tag k="ssr:gruppe" v="senkninger" />
		<tag k="ssr:hovedgruppe" v="terreng" />
		<tag k="ssr:stedsnr" v="803194" />
		<tag k="ssr:type" v="dal" />
	</node>
	<node lat="64.5066861086101" lon="11.701580546837326" id="-91225">
		<tag k="name" v="Langbakkan" />
		<tag k="natural" v="slope" />
		<tag k="place" v="locality" />
		<tag k="ssr:date" v="2018-01-09" />
		<tag k="ssr:gruppe" v="skråninger" />
		<tag k="ssr:hovedgruppe" v="terreng" />
		<tag k="ssr:stedsnr" v="803240" />
		<tag k="ssr:type" v="bakke" />
	</node>
	<node lat="64.32567777381067" lon="11.828705545222657" id="-91226">
		<tag k="name" v="Grønlihaugen" />
		<tag k="natural" v="hill" />
		<tag k="place" v="locality" />
		<tag k="ssr:date" v="2018-01-09" />
		<tag k="ssr:gruppe" v="høyder" />
		<tag k="ssr:hovedgruppe" v="terreng" />
		<tag k="ssr:stedsnr" v="803595" />
		<tag k="ssr:type" v="haug" />
	</node>
	<node lat="64.48140833714443" lon="11.942566658618235" id="-91232">
		<tag k="name" v="Hannabekkdalen" />
		<tag k="natural" v="valley" />
		<tag k="place" v="locality" />
		<tag k="ssr:date" v="2018-01-09" />
		<tag k="ssr:gruppe" v="senkninger" />
		<tag k="ssr:hovedgruppe" v="terreng" />
		<tag k="ssr:stedsnr" v="803772" />
		<tag k="ssr:type" v="dal" />
	</node>
	<node lat="64.49350555171326" lon="11.95136943608718" id="-91235">
		<tag k="amenity" v="place_of_worship" />
		<tag k="denomination" v="lutheran" />
		<tag k="name" v="Ranem kirke" />
		<tag k="religion" v="christian" />
		<tag k="ssr:date" v="2018-01-09" />
		<tag k="ssr:gruppe" v="kulturinstitusjoner" />
		<tag k="ssr:hovedgruppe" v="kultur" />
		<tag k="ssr:stedsnr" v="803788" />
		<tag k="ssr:type" v="kirke" />
	</node>
	<node lat="64.33916389264797" lon="11.681472215846064" id="-91237">
		<tag k="alt_name" v="Kringlåtvasshaugen" />
		<tag k="fixme" v="consider natural=peak for the most distinct mountains in the district" />
		<tag k="name" v="Tverrbekkfjellet" />
		<tag k="natural" v="hill" />
		<tag k="place" v="locality" />
		<tag k="ssr:date" v="2021-06-08" />
		<tag k="ssr:gruppe" v="høyder" />
		<tag k="ssr:hovedgruppe" v="terreng" />
		<tag k="ssr:stedsnr" v="803884" />
		<tag k="ssr:type" v="ås" />
	</node>
	<node lat="64.52499999717278" lon="11.853436116439712" id="-91262">
		<tag k="name" v="Veglosetran" />
		<tag k="place" v="locality" />
		<tag k="ssr:date" v="2018-01-09" />
		<tag k="ssr:gruppe" v="dyrkamark" />
		<tag k="ssr:hovedgruppe" v="markslag" />
		<tag k="ssr:stedsnr" v="825734" />
		<tag k="ssr:type" v="utmark" />
	</node>
	<node lat="64.5300777786591" lon="11.888880560462248" id="-91263">
		<tag k="name" v="Seterhaugen" />
		<tag k="natural" v="hill" />
		<tag k="place" v="locality" />
		<tag k="ssr:date" v="2018-01-09" />
		<tag k="ssr:gruppe" v="høyder" />
		<tag k="ssr:hovedgruppe" v="terreng" />
		<tag k="ssr:stedsnr" v="826749" />
		<tag k="ssr:type" v="haug" />
	</node>
	<node lat="64.34105833655022" lon="12.108369448828348" id="-91264">
		<tag k="name" v="Helvetet" />
		<tag k="natural" v="slope" />
		<tag k="place" v="locality" />
		<tag k="ssr:date" v="2018-01-09" />
		<tag k="ssr:gruppe" v="skråninger" />
		<tag k="ssr:hovedgruppe" v="terreng" />
		<tag k="ssr:stedsnr" v="837145" />
		<tag k="ssr:type" v="bakke" />
	</node>
	<node lat="64.35365555603065" lon="12.120550003781252" id="-91265">
		<tag k="name" v="Johansliodden" />
		<tag k="natural" v="cape" />
		<tag k="ssr:date" v="2018-01-09" />
		<tag k="ssr:gruppe" v="ferskvannskontur" />
		<tag k="ssr:hovedgruppe" v="ferskvann" />
		<tag k="ssr:stedsnr" v="837147" />
		<tag k="ssr:type" v="nes" />
	</node>
	<node lat="64.55398055479303" lon="11.978783335217823" id="-91266">
		<tag k="historic" v="shieling" />
		<tag k="name" v="Himosetran" />
		<tag k="place" v="locality" />
		<tag k="ssr:date" v="2018-01-09" />
		<tag k="ssr:gruppe" v="dyrkamark" />
		<tag k="ssr:hovedgruppe" v="markslag" />
		<tag k="ssr:stedsnr" v="837339" />
		<tag k="ssr:type" v="setervoll" />
	</node>
	<node lat="64.36810832911003" lon="11.72186111743512" id="-91267">
		<tag k="name" v="Vesterå og Landegod statsallmenning" />
		<tag k="place" v="locality" />
		<tag k="ssr:date" v="2018-01-09" />
		<tag k="ssr:gruppe" v="verne-OgBruksområder" />
		<tag k="ssr:hovedgruppe" v="offentligAdministrasjon" />
		<tag k="ssr:stedsnr" v="838125" />
		<tag k="ssr:type" v="allmenning" />
	</node>
	<node lat="64.38854722226344" lon="11.840977777778962" id="-91268">
		<tag k="name" v="Svarttjønna" />
		<tag k="natural" v="water" />
		<tag k="ssr:date" v="2018-01-09" />
		<tag k="ssr:gruppe" v="stilleståendeVann" />
		<tag k="ssr:hovedgruppe" v="ferskvann" />
		<tag k="ssr:stedsnr" v="839856" />
		<tag k="ssr:type" v="tjern" />
	</node>
	<node lat="64.46220278113243" lon="11.756297229592601" id="-91269">
		<tag k="name" v="Kjerkmyra" />
		<tag k="natural" v="wetland" />
		<tag k="ssr:date" v="2018-01-09" />
		<tag k="ssr:gruppe" v="våtmark" />
		<tag k="ssr:hovedgruppe" v="markslag" />
		<tag k="ssr:stedsnr" v="848462" />
		<tag k="ssr:type" v="myr" />
	</node>
	<node lat="64.46267500235645" lon="11.83527499941359" id="-91273">
		<tag k="name" v="Nytun" />
		<tag k="place" v="farm" />
		<tag k="ssr:date" v="2018-01-09" />
		<tag k="ssr:gruppe" v="gardsbebyggelse" />
		<tag k="ssr:hovedgruppe" v="bebyggelse" />
		<tag k="ssr:stedsnr" v="863698" />
		<tag k="ssr:type" v="bruk" />
	</node>
	<node lat="64.44885832958313" lon="11.911638892543827" id="-91275">
		<tag k="name" v="Oppdalsneset" />
		<tag k="natural" v="cape" />
		<tag k="ssr:date" v="2018-01-09" />
		<tag k="ssr:gruppe" v="ferskvannskontur" />
		<tag k="ssr:hovedgruppe" v="ferskvann" />
		<tag k="ssr:stedsnr" v="863712" />
		<tag k="ssr:type" v="nes" />
	</node>
	<node lat="64.36224166495445" lon="11.861361100945379" id="-91276">
		<tag k="fixme" v="consider natural=peak for the most distinct mountains in the district" />
		<tag k="name" v="Høgloftet" />
		<tag k="natural" v="hill" />
		<tag k="place" v="locality" />
		<tag k="ssr:date" v="2018-01-09" />
		<tag k="ssr:gruppe" v="høyder" />
		<tag k="ssr:hovedgruppe" v="terreng" />
		<tag k="ssr:stedsnr" v="863682" />
		<tag k="ssr:type" v="ås" />
	</node>
	<node lat="64.36489999763188" lon="11.7436166753109" id="-91277">
		<tag k="name" v="Elvrabban" />
		<tag k="natural" v="valley" />
		<tag k="place" v="locality" />
		<tag k="ssr:date" v="2018-01-09" />
		<tag k="ssr:gruppe" v="senkninger" />
		<tag k="ssr:hovedgruppe" v="terreng" />
		<tag k="ssr:stedsnr" v="863686" />
		<tag k="ssr:type" v="skar" />
	</node>
	<node lat="64.40535000348322" lon="11.696299990728372" id="-91279">
		<tag k="name" v="Gravdalshavet" />
		<tag k="natural" v="water" />
		<tag k="ssr:date" v="2018-01-09" />
		<tag k="ssr:gruppe" v="stilleståendeVann" />
		<tag k="ssr:hovedgruppe" v="ferskvann" />
		<tag k="ssr:stedsnr" v="864062" />
		<tag k="ssr:type" v="tjern" />
	</node>
	<node lat="64.5190444454314" lon="11.66550555857554" id="-91281">
		<tag k="name" v="Trekorsbekken" />
		<tag k="ssr:date" v="2018-01-09" />
		<tag k="ssr:gruppe" v="rennendeVann" />
		<tag k="ssr:hovedgruppe" v="ferskvann" />
		<tag k="ssr:stedsnr" v="864139" />
		<tag k="ssr:type" v="bekk" />
		<tag k="waterway" v="stream" />
	</node>
	<node lat="64.3351999958966" lon="11.821669434102768" id="-91286">
		<tag k="name" v="Grønlidalen" />
		<tag k="natural" v="valley" />
		<tag k="place" v="locality" />
		<tag k="ssr:date" v="2018-01-09" />
		<tag k="ssr:gruppe" v="senkninger" />
		<tag k="ssr:hovedgruppe" v="terreng" />
		<tag k="ssr:stedsnr" v="864606" />
		<tag k="ssr:type" v="dal" />
	</node>
	<node lat="64.4334750045018" lon="11.947666666300721" id="-91293">
		<tag k="name" v="Stordalen" />
		<tag k="natural" v="valley" />
		<tag k="place" v="locality" />
		<tag k="ssr:date" v="2018-01-09" />
		<tag k="ssr:gruppe" v="senkninger" />
		<tag k="ssr:hovedgruppe" v="terreng" />
		<tag k="ssr:stedsnr" v="864769" />
		<tag k="ssr:type" v="dal" />
	</node>
	<node lat="64.49304999792727" lon="11.818574989608123" id="-91296">
		<tag k="name" v="Haklia" />
		<tag k="natural" v="slope" />
		<tag k="place" v="locality" />
		<tag k="ssr:date" v="2018-01-09" />
		<tag k="ssr:gruppe" v="skråninger" />
		<tag k="ssr:hovedgruppe" v="terreng" />
		<tag k="ssr:stedsnr" v="864807" />
		<tag k="ssr:type" v="li" />
	</node>
	<node lat="64.57562500262955" lon="11.998925007050062" id="-91297">
		<tag k="name" v="Beataberget" />
		<tag k="natural" v="hill" />
		<tag k="place" v="locality" />
		<tag k="ssr:date" v="2018-01-09" />
		<tag k="ssr:gruppe" v="høyder" />
		<tag k="ssr:hovedgruppe" v="terreng" />
		<tag k="ssr:stedsnr" v="864825" />
		<tag k="ssr:type" v="berg" />
	</node>
	<node lat="64.55425000199689" lon="11.993250010250373" id="-91299">
		<tag k="fixme" v="consider natural=peak for the most distinct mountains in the district" />
		<tag k="name" v="Grøtåfjellet" />
		<tag k="natural" v="hill" />
		<tag k="place" v="locality" />
		<tag k="ssr:date" v="2018-01-09" />
		<tag k="ssr:gruppe" v="høyder" />
		<tag k="ssr:hovedgruppe" v="terreng" />
		<tag k="ssr:stedsnr" v="864837" />
		<tag k="ssr:type" v="ås" />
	</node>
	<node lat="64.64045555242606" lon="11.996600002904549" id="-91300">
		<tag k="fixme" v="consider natural=peak for the most distinct mountains in the district" />
		<tag k="name" v="Salfjellet" />
		<tag k="natural" v="hill" />
		<tag k="place" v="locality" />
		<tag k="ssr:date" v="2018-01-09" />
		<tag k="ssr:gruppe" v="høyder" />
		<tag k="ssr:hovedgruppe" v="terreng" />
		<tag k="ssr:stedsnr" v="864862" />
		<tag k="ssr:type" v="fjell" />
	</node>
	<node lat="64.53067778223243" lon="11.759225000229184" id="-91302">
		<tag k="name" v="Sørskåla" />
		<tag k="natural" v="valley" />
		<tag k="place" v="locality" />
		<tag k="ssr:date" v="2018-01-09" />
		<tag k="ssr:gruppe" v="senkninger" />
		<tag k="ssr:hovedgruppe" v="terreng" />
		<tag k="ssr:stedsnr" v="864957" />
		<tag k="ssr:type" v="søkk" />
	</node>
	<node lat="64.53540833006504" lon="11.844777785609347" id="-91306">
		<tag k="fixme" v="consider natural=peak for the most distinct mountains in the district" />
		<tag k="name" v="Veglofjellet" />
		<tag k="natural" v="hill" />
		<tag k="place" v="locality" />
		<tag k="ssr:date" v="2018-01-09" />
		<tag k="ssr:gruppe" v="høyder" />
		<tag k="ssr:hovedgruppe" v="terreng" />
		<tag k="ssr:stedsnr" v="865964" />
		<tag k="ssr:type" v="fjell" />
	</node>
	<node lat="64.54015000014834" lon="12.01534999352451" id="-91307">
		<tag k="fixme" v="consider natural=peak for the most distinct mountains in the district" />
		<tag k="name" v="Skjørlandshatten" />
		<tag k="natural" v="hill" />
		<tag k="place" v="locality" />
		<tag k="ssr:date" v="2018-01-09" />
		<tag k="ssr:gruppe" v="høyder" />
		<tag k="ssr:hovedgruppe" v="terreng" />
		<tag k="ssr:stedsnr" v="865967" />
		<tag k="ssr:type" v="ås" />
	</node>
	<node lat="64.53777499881934" lon="11.833125008753477" id="-91308">
		<tag k="name" v="Langvatnet" />
		<tag k="natural" v="water" />
		<tag k="ssr:date" v="2018-01-09" />
		<tag k="ssr:gruppe" v="stilleståendeVann" />
		<tag k="ssr:hovedgruppe" v="ferskvann" />
		<tag k="ssr:stedsnr" v="865976" />
		<tag k="ssr:type" v="tjern" />
	</node>
	<node lat="64.57778055102636" lon="12.093766671507487" id="-91340">
		<tag k="name" v="Nilsholet" />
		<tag k="natural" v="valley" />
		<tag k="place" v="locality" />
		<tag k="ssr:date" v="2018-01-09" />
		<tag k="ssr:gruppe" v="senkninger" />
		<tag k="ssr:hovedgruppe" v="terreng" />
		<tag k="ssr:stedsnr" v="878075" />
		<tag k="ssr:type" v="dal" />
	</node>
	<node lat="64.44366666312267" lon="11.814163878609692" id="-91342">
		<tag k="name" v="Melen" />
		<tag k="place" v="hamlet" />
		<tag k="ssr:date" v="2018-01-09" />
		<tag k="ssr:gruppe" v="bebyggelsesområder" />
		<tag k="ssr:hovedgruppe" v="bebyggelse" />
		<tag k="ssr:stedsnr" v="876193" />
		<tag k="ssr:type" v="grend" />
	</node>
	<node lat="64.60529721831946" lon="12.082638888483382" id="-91343">
		<tag k="name" v="Tverrlandet" />
		<tag k="natural" v="beach" />
		<tag k="ssr:date" v="2018-01-09" />
		<tag k="ssr:gruppe" v="ferskvannskontur" />
		<tag k="ssr:hovedgruppe" v="ferskvann" />
		<tag k="ssr:stedsnr" v="878136" />
		<tag k="ssr:type" v="strand" />
	</node>
	<node lat="64.36576666986468" lon="11.95209722875295" id="-91344">
		<tag k="historic" v="shieling" />
		<tag k="name" v="Rognvasseteren" />
		<tag k="place" v="locality" />
		<tag k="ssr:date" v="2018-01-09" />
		<tag k="ssr:gruppe" v="dyrkamark" />
		<tag k="ssr:hovedgruppe" v="markslag" />
		<tag k="ssr:stedsnr" v="936541" />
		<tag k="ssr:type" v="setervoll" />
	</node>
	<node lat="64.5984472189297" lon="12.083969438411911" id="-91345">
		<tag k="name" v="Dessmerengbekken" />
		<tag k="ssr:date" v="2018-01-09" />
		<tag k="ssr:gruppe" v="rennendeVann" />
		<tag k="ssr:hovedgruppe" v="ferskvann" />
		<tag k="ssr:stedsnr" v="939112" />
		<tag k="ssr:type" v="bekk" />
		<tag k="waterway" v="stream" />
	</node>
	<node lat="64.56354166390408" lon="12.045330546148204" id="-91346">
		<tag k="name" v="Svartdalshøgda" />
		<tag k="natural" v="hill" />
		<tag k="place" v="locality" />
		<tag k="ssr:date" v="2018-01-09" />
		<tag k="ssr:gruppe" v="høyder" />
		<tag k="ssr:hovedgruppe" v="terreng" />
		<tag k="ssr:stedsnr" v="958355" />
		<tag k="ssr:type" v="haug" />
	</node>
	<node lat="64.3745666699102" lon="11.930355549002872" id="-91347">
		<tag k="name" v="Raudtjønna" />
		<tag k="natural" v="water" />
		<tag k="ssr:date" v="2018-01-09" />
		<tag k="ssr:gruppe" v="stilleståendeVann" />
		<tag k="ssr:hovedgruppe" v="ferskvann" />
		<tag k="ssr:stedsnr" v="958401" />
		<tag k="ssr:type" v="tjern" />
	</node>
	<node lat="64.41708333142283" lon="11.98558334120697" id="-91348">
		<tag k="name" v="Flytjønnin" />
		<tag k="place" v="locality" />
		<tag k="ssr:date" v="2018-01-09" />
		<tag k="ssr:gruppe" v="rennendeVann" />
		<tag k="ssr:hovedgruppe" v="ferskvann" />
		<tag k="ssr:stedsnr" v="958430" />
		<tag k="ssr:type" v="høl" />
	</node>
	<node lat="64.51194721932322" lon="11.641819451450846" id="-91349">
		<tag k="fixme" v="consider natural=peak for the most distinct mountains in the district" />
		<tag k="name" v="Kvalstadseteråsen" />
		<tag k="natural" v="hill" />
		<tag k="place" v="locality" />
		<tag k="ssr:date" v="2018-01-09" />
		<tag k="ssr:gruppe" v="høyder" />
		<tag k="ssr:hovedgruppe" v="terreng" />
		<tag k="ssr:stedsnr" v="958433" />
		<tag k="ssr:type" v="ås" />
	</node>
	<node lat="64.41796944655758" lon="12.048769452681" id="-91350">
		<tag k="name" v="Skrovelfossen" />
		<tag k="natural" v="waterfall" />
		<tag k="ssr:date" v="2018-01-09" />
		<tag k="ssr:gruppe" v="rennendeVann" />
		<tag k="ssr:hovedgruppe" v="ferskvann" />
		<tag k="ssr:stedsnr" v="958438" />
		<tag k="ssr:type" v="foss" />
	</node>
	<node lat="64.42083055797757" lon="12.049955549072612" id="-91351">
		<tag k="name" v="Skrovelåsen" />
		<tag k="natural" v="hill" />
		<tag k="place" v="locality" />
		<tag k="ssr:date" v="2018-01-09" />
		<tag k="ssr:gruppe" v="høyder" />
		<tag k="ssr:hovedgruppe" v="terreng" />
		<tag k="ssr:stedsnr" v="958439" />
		<tag k="ssr:type" v="haug" />
	</node>
	<node lat="64.42801388598383" lon="12.03949722457838" id="-91352">
		<tag k="name" v="Setermyra" />
		<tag k="natural" v="wetland" />
		<tag k="ssr:date" v="2018-01-09" />
		<tag k="ssr:gruppe" v="våtmark" />
		<tag k="ssr:hovedgruppe" v="markslag" />
		<tag k="ssr:stedsnr" v="958444" />
		<tag k="ssr:type" v="myr" />
	</node>
	<node lat="64.42842221813972" lon="11.715152782798988" id="-91353">
		<tag k="name" v="Skiftesrabben" />
		<tag k="natural" v="slope" />
		<tag k="place" v="locality" />
		<tag k="ssr:date" v="2018-01-09" />
		<tag k="ssr:gruppe" v="skråninger" />
		<tag k="ssr:hovedgruppe" v="terreng" />
		<tag k="ssr:stedsnr" v="958815" />
		<tag k="ssr:type" v="li" />
	</node>
	<node lat="64.36055555507038" lon="11.731213883981582" id="-91354">
		<tag k="name" v="Gansmosetran" />
		<tag k="place" v="locality" />
		<tag k="ssr:date" v="2018-01-09" />
		<tag k="ssr:gruppe" v="bolighus" />
		<tag k="ssr:hovedgruppe" v="bebyggelse" />
		<tag k="ssr:stedsnr" v="959097" />
		<tag k="ssr:type" v="gammelBosettingsplass" />
	</node>
	<node lat="64.56237778196657" lon="11.92666666588856" id="-91355">
		<tag k="historic" v="shieling" />
		<tag k="name" v="Liasetran" />
		<tag k="place" v="locality" />
		<tag k="ssr:date" v="2018-01-09" />
		<tag k="ssr:gruppe" v="dyrkamark" />
		<tag k="ssr:hovedgruppe" v="markslag" />
		<tag k="ssr:stedsnr" v="959277" />
		<tag k="ssr:type" v="setervoll" />
	</node>
	<node lat="64.41448333008462" lon="11.815705561293603" id="-91356">
		<tag k="name" v="Gauksjøskaret" />
		<tag k="natural" v="valley" />
		<tag k="place" v="locality" />
		<tag k="ssr:date" v="2018-01-09" />
		<tag k="ssr:gruppe" v="senkninger" />
		<tag k="ssr:hovedgruppe" v="terreng" />
		<tag k="ssr:stedsnr" v="960797" />
		<tag k="ssr:type" v="skar" />
	</node>
	<node lat="64.46662445310314" lon="12.060506409421706" id="-91361">
		<tag k="name" v="Øyelva" />
		<tag k="ssr:date" v="2018-01-09" />
		<tag k="ssr:gruppe" v="rennendeVann" />
		<tag k="ssr:hovedgruppe" v="ferskvann" />
		<tag k="ssr:stedsnr" v="974435" />
		<tag k="ssr:type" v="elv" />
		<tag k="waterway" v="river" />
	</node>
	<node lat="64.46076334478107" lon="11.791980364023665" id="-91363">
		<tag k="name" v="Bjørbekkdalen" />
		<tag k="natural" v="valley" />
		<tag k="place" v="locality" />
		<tag k="ssr:date" v="2018-01-09" />
		<tag k="ssr:gruppe" v="senkninger" />
		<tag k="ssr:hovedgruppe" v="terreng" />
		<tag k="ssr:stedsnr" v="980615" />
		<tag k="ssr:type" v="dal" />
	</node>
	<node lat="64.49895910732019" lon="11.96449792442176" id="-91555">
		<tag k="amenity" v="sports_centre" />
		<tag k="name" v="Gimle" />
		<tag k="ssr:date" v="2020-05-28" />
		<tag k="ssr:gruppe" v="fritidsanlegg" />
		<tag k="ssr:hovedgruppe" v="bebyggelse" />
		<tag k="ssr:stedsnr" v="1077075" />
		<tag k="ssr:type" v="idrettshall" />
	</node>
	<node lat="64.51878001234091" lon="11.945577145182606" id="-91556">
		<tag k="amenity" v="kindergarten" />
		<tag k="name" v="Gammelstua friluftsbarnehage" />
		<tag k="ssr:date" v="2020-05-28" />
		<tag k="ssr:gruppe" v="institusjoner" />
		<tag k="ssr:hovedgruppe" v="bebyggelse" />
		<tag k="ssr:stedsnr" v="1077082" />
		<tag k="ssr:type" v="barnehage" />
	</node>
	<node lat="64.46471678498807" lon="12.055077851965608" id="-91557">
		<tag k="amenity" v="community_centre" />
		<tag k="name" v="Øysletta grendehus" />
		<tag k="ssr:date" v="2020-05-28" />
		<tag k="ssr:gruppe" v="kulturinstitusjoner" />
		<tag k="ssr:hovedgruppe" v="kultur" />
		<tag k="ssr:stedsnr" v="1077083" />
		<tag k="ssr:type" v="forsamlingshusKulturhus" />
	</node>
	<node lat="64.46141286769381" lon="11.771847783426509" id="-91558">
		<tag k="amenity" v="community_centre" />
		<tag k="name" v="Solvoll" />
		<tag k="ssr:date" v="2020-05-28" />
		<tag k="ssr:gruppe" v="kulturinstitusjoner" />
		<tag k="ssr:hovedgruppe" v="kultur" />
		<tag k="ssr:stedsnr" v="1077085" />
		<tag k="ssr:type" v="forsamlingshusKulturhus" />
	</node>
	<node lat="64.44338820587053" lon="11.812874645168284" id="-91559">
		<tag k="amenity" v="community_centre" />
		<tag k="name" v="Melasalen" />
		<tag k="ssr:date" v="2020-05-28" />
		<tag k="ssr:gruppe" v="kulturinstitusjoner" />
		<tag k="ssr:hovedgruppe" v="kultur" />
		<tag k="ssr:stedsnr" v="1077086" />
		<tag k="ssr:type" v="forsamlingshusKulturhus" />
	</node>
	<node lat="64.49165349041527" lon="11.94576562722761" id="-91560">
		<tag k="amenity" v="nursing_home" />
		<tag k="name" v="Overhalla helsesenter" />
		<tag k="ssr:date" v="2020-05-28" />
		<tag k="ssr:gruppe" v="institusjoner" />
		<tag k="ssr:hovedgruppe" v="bebyggelse" />
		<tag k="ssr:stedsnr" v="1077087" />
		<tag k="ssr:type" v="helseinstitusjon" />
	</node>
	<node lat="64.50818825663822" lon="12.015164582416247" id="-91561">
		<tag k="name" v="Skogmo industripark" />
		<tag k="place" v="quarter" />
		<tag k="ssr:date" v="2020-05-29" />
		<tag k="ssr:gruppe" v="bebyggelsesområder" />
		<tag k="ssr:hovedgruppe" v="bebyggelse" />
		<tag k="ssr:stedsnr" v="1077091" />
		<tag k="ssr:type" v="industriområde" />
	</node>
	<node lat="64.50406708354504" lon="12.011943156997802" id="-91562">
		<tag k="building" v="industrial" />
		<tag k="industrial" v="factory" />
		<tag k="name" v="Pharmaq" />
		<tag k="ssr:date" v="2020-05-29" />
		<tag k="ssr:gruppe" v="næring" />
		<tag k="ssr:hovedgruppe" v="bebyggelse" />
		<tag k="ssr:stedsnr" v="1077092" />
		<tag k="ssr:type" v="fabrikk" />
	</node>
	<node lat="64.51956160026796" lon="12.016444600810596" id="-91563">
		<tag k="building" v="industrial" />
		<tag k="industrial" v="factory" />
		<tag k="name" v="Overhalla betongbygg" />
		<tag k="ssr:date" v="2020-05-29" />
		<tag k="ssr:gruppe" v="næring" />
		<tag k="ssr:hovedgruppe" v="bebyggelse" />
		<tag k="ssr:stedsnr" v="1077093" />
		<tag k="ssr:type" v="fabrikk" />
	</node>
	<node lat="64.46432711989658" lon="12.055023594926697" id="-91565">
		<tag k="amenity" v="school" />
		<tag k="name" v="Overhalla Montessoriskole" />
		<tag k="ssr:date" v="2020-05-28" />
		<tag k="ssr:gruppe" v="institusjoner" />
		<tag k="ssr:hovedgruppe" v="bebyggelse" />
		<tag k="ssr:stedsnr" v="1077054" />
		<tag k="ssr:type" v="skole" />
	</node>
	<node lat="64.50476430859153" lon="11.948638505704903" id="-91566">
		<tag k="amenity" v="kindergarten" />
		<tag k="name" v="Ranemsletta barnehage" />
		<tag k="ssr:date" v="2020-05-28" />
		<tag k="ssr:gruppe" v="institusjoner" />
		<tag k="ssr:hovedgruppe" v="bebyggelse" />
		<tag k="ssr:stedsnr" v="1077061" />
		<tag k="ssr:type" v="barnehage" />
	</node>
	<node lat="64.47030339243182" lon="11.751714470726947" id="-91567">
		<tag k="amenity" v="kindergarten" />
		<tag k="name" v="Skage barnehage" />
		<tag k="ssr:date" v="2020-05-28" />
		<tag k="ssr:gruppe" v="institusjoner" />
		<tag k="ssr:hovedgruppe" v="bebyggelse" />
		<tag k="ssr:stedsnr" v="1077063" />
		<tag k="ssr:type" v="barnehage" />
	</node>
	<node lat="64.49938350317747" lon="11.961603191982977" id="-91568">
		<tag k="leisure" v="pitch" />
		<tag k="name" v="Svenningmoen idrettspark" />
		<tag k="ssr:date" v="2020-05-28" />
		<tag k="ssr:gruppe" v="fritidsanlegg" />
		<tag k="ssr:hovedgruppe" v="bebyggelse" />
		<tag k="ssr:stedsnr" v="1077073" />
		<tag k="ssr:type" v="idrettsanlegg" />
	</node>
</osm>
