<?xml version="1.0" encoding="UTF-8"?>
<osm generator="osmapis" version="0.6">
	<node id="-789343" lat="64.4820068613" lon="11.7961210629">
		<tag k="name" v="Skiljåsaunvegen" />
		<tag k="ssr:date" v="2020-05-15" />
		<tag k="ssr:gruppe" v="veg" />
		<tag k="ssr:hovedgruppe" v="infrastruktur" />
		<tag k="ssr:stedsnr" v="1076955" />
		<tag k="ssr:type" v="adressenavn" />
	</node>
	<node id="-789342" lat="64.4710480098" lon="11.764942318">
		<tag k="name" v="Storberrevegen" />
		<tag k="ssr:date" v="2019-05-30" />
		<tag k="ssr:gruppe" v="veg" />
		<tag k="ssr:hovedgruppe" v="infrastruktur" />
		<tag k="ssr:stedsnr" v="1023622" />
		<tag k="ssr:type" v="adressenavn" />
	</node>
	<node id="-789341" lat="64.5598156464" lon="11.9475479476">
		<tag k="name" v="Fromsetran" />
		<tag k="ssr:date" v="2019-05-30" />
		<tag k="ssr:gruppe" v="veg" />
		<tag k="ssr:hovedgruppe" v="infrastruktur" />
		<tag k="ssr:stedsnr" v="1023610" />
		<tag k="ssr:type" v="adressenavn" />
	</node>
	<node id="-789340" lat="64.4035164109" lon="11.9781553865">
		<tag k="name" v="Nyseterslættet" />
		<tag k="ssr:date" v="2019-05-30" />
		<tag k="ssr:gruppe" v="veg" />
		<tag k="ssr:hovedgruppe" v="infrastruktur" />
		<tag k="ssr:stedsnr" v="1023601" />
		<tag k="ssr:type" v="adressenavn" />
	</node>
	<node id="-789339" lat="64.5181803646" lon="11.9263484949">
		<tag k="name" v="Aunahaugen" />
		<tag k="ssr:date" v="2019-05-30" />
		<tag k="ssr:gruppe" v="veg" />
		<tag k="ssr:hovedgruppe" v="infrastruktur" />
		<tag k="ssr:stedsnr" v="1023596" />
		<tag k="ssr:type" v="adressenavn" />
	</node>
	<node id="-789338" lat="64.5365951053" lon="11.7355299258">
		<tag k="name" v="Liasetran" />
		<tag k="ssr:date" v="2020-01-30" />
		<tag k="ssr:gruppe" v="veg" />
		<tag k="ssr:hovedgruppe" v="infrastruktur" />
		<tag k="ssr:stedsnr" v="1023595" />
		<tag k="ssr:type" v="adressenavn" />
	</node>
	<node id="-789337" lat="64.3817644787" lon="11.9563430007">
		<tag k="name" v="Eriktjønna" />
		<tag k="ssr:date" v="2019-05-30" />
		<tag k="ssr:gruppe" v="veg" />
		<tag k="ssr:hovedgruppe" v="infrastruktur" />
		<tag k="ssr:stedsnr" v="1023574" />
		<tag k="ssr:type" v="adressenavn" />
	</node>
	<node id="-789336" lat="64.5222545518" lon="11.7869986115">
		<tag k="name" v="Værnbusetran" />
		<tag k="ssr:date" v="2019-05-30" />
		<tag k="ssr:gruppe" v="veg" />
		<tag k="ssr:hovedgruppe" v="infrastruktur" />
		<tag k="ssr:stedsnr" v="1023569" />
		<tag k="ssr:type" v="adressenavn" />
	</node>
	<node id="-789335" lat="64.4373400274" lon="11.649293369">
		<tag k="name" v="Smørauga" />
		<tag k="ssr:date" v="2019-05-30" />
		<tag k="ssr:gruppe" v="veg" />
		<tag k="ssr:hovedgruppe" v="infrastruktur" />
		<tag k="ssr:stedsnr" v="1023558" />
		<tag k="ssr:type" v="adressenavn" />
	</node>
	<node id="-789334" lat="64.5093131564" lon="11.7520263644">
		<tag k="name" v="Hammersetran" />
		<tag k="ssr:date" v="2019-05-30" />
		<tag k="ssr:gruppe" v="veg" />
		<tag k="ssr:hovedgruppe" v="infrastruktur" />
		<tag k="ssr:stedsnr" v="1023557" />
		<tag k="ssr:type" v="adressenavn" />
	</node>
	<node id="-789333" lat="64.5728707142" lon="11.9811570587">
		<tag k="name" v="Beatasetran" />
		<tag k="ssr:date" v="2019-05-30" />
		<tag k="ssr:gruppe" v="veg" />
		<tag k="ssr:hovedgruppe" v="infrastruktur" />
		<tag k="ssr:stedsnr" v="1023555" />
		<tag k="ssr:type" v="adressenavn" />
	</node>
	<node id="-789332" lat="64.4020708079" lon="11.742432992">
		<tag k="name" v="Flisingan" />
		<tag k="ssr:date" v="2019-05-30" />
		<tag k="ssr:gruppe" v="veg" />
		<tag k="ssr:hovedgruppe" v="infrastruktur" />
		<tag k="ssr:stedsnr" v="1023545" />
		<tag k="ssr:type" v="adressenavn" />
	</node>
	<node id="-789331" lat="64.3094903768" lon="11.9750823253">
		<tag k="name" v="Midter-Bangsjøen" />
		<tag k="ssr:date" v="2019-05-30" />
		<tag k="ssr:gruppe" v="veg" />
		<tag k="ssr:hovedgruppe" v="infrastruktur" />
		<tag k="ssr:stedsnr" v="1023526" />
		<tag k="ssr:type" v="adressenavn" />
	</node>
	<node id="-789330" lat="64.315070411" lon="11.9797615352">
		<tag k="name" v="Bangsjøhytta" />
		<tag k="ssr:date" v="2019-05-30" />
		<tag k="ssr:gruppe" v="veg" />
		<tag k="ssr:hovedgruppe" v="infrastruktur" />
		<tag k="ssr:stedsnr" v="1023522" />
		<tag k="ssr:type" v="adressenavn" />
	</node>
	<node id="-789329" lat="64.6001017901" lon="12.0527177317">
		<tag k="name" v="Nevervatnet" />
		<tag k="ssr:date" v="2019-05-30" />
		<tag k="ssr:gruppe" v="veg" />
		<tag k="ssr:hovedgruppe" v="infrastruktur" />
		<tag k="ssr:stedsnr" v="1023507" />
		<tag k="ssr:type" v="adressenavn" />
	</node>
	<node id="-789327" lat="64.0144468016" lon="11.4818866293">
		<tag k="name" v="Trøndelag fylke - Trööndelagen fylhke" />
		<tag k="name:no" v="Trøndelag fylke" />
		<tag k="name:sma" v="Trööndelagen fylhke" />
		<tag k="ssr:date" v="2020-01-13" />
		<tag k="ssr:gruppe" v="administrativeIndelinger" />
		<tag k="ssr:hovedgruppe" v="offentligAdministrasjon" />
		<tag k="ssr:stedsnr" v="980645" />
		<tag k="ssr:type" v="fylke" />
	</node>
	<node id="-789357" lat="69.6388889725" lon="30.5666644427">
		<tag k="fixme" v="multiple name tags, choose one and add the other to alt_name" />
		<tag k="loc_name:se" v="Norgga gonagasriika" />
		<tag k="loc_name:sma" v="Nöörjen gånkarïjhke" />
		<tag k="loc_name:smj" v="Vuona gånågisrijkka" />
		<tag k="name" v="Noreg;Norge" />
		<tag k="name:en" v="Norway" />
		<tag k="name:no" v="Noreg;Norge" />
		<tag k="ssr:date" v="2020-06-04" />
		<tag k="ssr:gruppe" v="administrativeIndelinger" />
		<tag k="ssr:hovedgruppe" v="offentligAdministrasjon" />
		<tag k="ssr:stedsnr" v="26330" />
		<tag k="ssr:type" v="nasjon" />
	</node>
	<node id="-789305" lat="64.4938027817" lon="11.9475472297">
		<tag k="name" v="Overhalla kommune" />
		<tag k="ssr:date" v="2018-01-09" />
		<tag k="ssr:gruppe" v="administrativeIndelinger" />
		<tag k="ssr:hovedgruppe" v="offentligAdministrasjon" />
		<tag k="ssr:stedsnr" v="875007" />
		<tag k="ssr:type" v="kommune" />
	</node>
</osm>
