<?xml version="1.0" encoding="UTF-8"?>
<osm generator="osmapis" version="0.6">
	<node id="-26622" lat="60.6759388845" lon="8.56356389236">
		<tag k="alt_name" v="Søndre Grønebakken" />
		<tag k="name" v="Søre Grønebakken" />
		<tag k="natural" v="slope" />
		<tag k="place" v="locality" />
		<tag k="ssr:stedsnr" v="238709" />
	</node>
	<node id="-26621" lat="60.6996777772" lon="8.3579277709">
		<tag k="name" v="Ivarshollberget" />
		<tag k="natural" v="hill" />
		<tag k="place" v="locality" />
		<tag k="ssr:stedsnr" v="238452" />
	</node>
	<node id="-26616" lat="60.7090416634" lon="8.41281945062">
		<tag k="name" v="Hausehovda" />
		<tag k="natural" v="hill" />
		<tag k="place" v="locality" />
		<tag k="ssr:stedsnr" v="238077" />
	</node>
	<node id="-28662" lat="60.5501333379" lon="8.47752500556">
		<tag k="fixme" v="consider natural=peak for the most distinct mountains in the district" />
		<tag k="name" v="Storhovda" />
		<tag k="natural" v="hill" />
		<tag k="place" v="locality" />
		<tag k="ssr:stedsnr" v="856248" />
	</node>
	<node id="-28659" lat="60.5687611152" lon="8.58879721966">
		<tag k="fixme" v="consider natural=peak for the most distinct mountains in the district" />
		<tag k="name" v="Børdalsranden" />
		<tag k="natural" v="hill" />
		<tag k="place" v="locality" />
		<tag k="ssr:stedsnr" v="847073" />
	</node>
	<node id="-26610" lat="60.5894861105" lon="8.75360556414">
		<tag k="name" v="Grasbakkbergi" />
		<tag k="natural" v="hill" />
		<tag k="place" v="locality" />
		<tag k="ssr:stedsnr" v="55022" />
	</node>
	<node id="-28656" lat="60.5265805567" lon="8.62560554699">
		<tag k="name" v="Øvre Langetjørnhovda" />
		<tag k="natural" v="hill" />
		<tag k="place" v="locality" />
		<tag k="ssr:stedsnr" v="846576" />
	</node>
	<node id="-26605" lat="60.5684444441" lon="8.46170555679">
		<tag k="name" v="Nedre Svaberget" />
		<tag k="natural" v="hill" />
		<tag k="place" v="locality" />
		<tag k="ssr:stedsnr" v="234534" />
	</node>
	<node id="-26602" lat="60.6504777744" lon="8.42209443635">
		<tag k="name" v="Langstøldalsberget" />
		<tag k="natural" v="hill" />
		<tag k="place" v="locality" />
		<tag k="ssr:stedsnr" v="41717" />
	</node>
	<node id="-28649" lat="60.7062694477" lon="8.56139444046">
		<tag k="name" v="Kinnhovdun" />
		<tag k="natural" v="hill" />
		<tag k="place" v="locality" />
		<tag k="ssr:stedsnr" v="845563" />
	</node>
	<node id="-28648" lat="60.6882861119" lon="8.46977499423">
		<tag k="name" v="Sisselstølbergi" />
		<tag k="natural" v="hill" />
		<tag k="place" v="locality" />
		<tag k="ssr:stedsnr" v="845267" />
	</node>
	<node id="-28645" lat="60.6988277763" lon="8.41978056128">
		<tag k="name" v="Kambebergi" />
		<tag k="natural" v="hill" />
		<tag k="place" v="locality" />
		<tag k="ssr:stedsnr" v="845083" />
	</node>
	<node id="-26596" lat="60.5960027813" lon="8.45825278269">
		<tag k="name" v="Vesleberget" />
		<tag k="natural" v="hill" />
		<tag k="place" v="locality" />
		<tag k="ssr:stedsnr" v="41372" />
	</node>
	<node id="-28642" lat="60.6862305582" lon="8.41954999244">
		<tag k="fixme" v="consider natural=peak for the most distinct mountains in the district" />
		<tag k="name" v="Levornatten" />
		<tag k="natural" v="hill" />
		<tag k="place" v="locality" />
		<tag k="ssr:stedsnr" v="845345" />
	</node>
	<node id="-28640" lat="60.6232055545" lon="8.59976388761">
		<tag k="loc_name" v="Rote" />
		<tag k="name" v="Roti" />
		<tag k="natural" v="hill" />
		<tag k="place" v="locality" />
		<tag k="ssr:stedsnr" v="842076" />
	</node>
	<node id="-28639" lat="60.5840499987" lon="8.52114722522">
		<tag k="name" v="Damtjørnhovda" />
		<tag k="natural" v="hill" />
		<tag k="old_name" v="Damkj: Hovden" />
		<tag k="place" v="locality" />
		<tag k="ssr:stedsnr" v="842048" />
	</node>
	<node id="-26589" lat="60.7076388903" lon="8.72494722483">
		<tag k="name" v="Heldeslettet" />
		<tag k="place" v="locality" />
		<tag k="ssr:stedsnr" v="40859" />
	</node>
	<node id="-28629" lat="60.7081638859" lon="8.73168332604">
		<tag k="name" v="Heldesletthaugen" />
		<tag k="natural" v="hill" />
		<tag k="place" v="locality" />
		<tag k="ssr:stedsnr" v="830854" />
	</node>
	<node id="-28628" lat="60.6837694425" lon="8.34938333607">
		<tag k="name" v="Fetahovda" />
		<tag k="natural" v="hill" />
		<tag k="place" v="locality" />
		<tag k="ssr:stedsnr" v="830828" />
	</node>
	<node id="-26579" lat="60.5210444447" lon="8.38878888787">
		<tag k="name" v="Fetjastøldalen" />
		<tag k="natural" v="valley" />
		<tag k="place" v="locality" />
		<tag k="ssr:stedsnr" v="24518" />
	</node>
	<node id="-28625" lat="60.6486777782" lon="8.44869999767">
		<tag k="name" v="Briskiset" />
		<tag k="place" v="locality" />
		<tag k="ssr:stedsnr" v="830781" />
	</node>
	<node id="-28624" lat="60.6401083302" lon="8.45173611537">
		<tag k="name" v="Tollefringen" />
		<tag k="place" v="locality" />
		<tag k="ssr:stedsnr" v="830780" />
	</node>
	<node id="-26575" lat="60.6987250037" lon="8.53902221383">
		<tag k="name" v="Pålberget" />
		<tag k="natural" v="hill" />
		<tag k="place" v="locality" />
		<tag k="ssr:stedsnr" v="223993" />
	</node>
	<node id="-28622" lat="60.5866444403" lon="8.48713888028">
		<tag k="alt_name" v="Turrlii" />
		<tag k="name" v="Turrlie" />
		<tag k="natural" v="slope" />
		<tag k="place" v="locality" />
		<tag k="ssr:stedsnr" v="830742" />
	</node>
	<node id="-28620" lat="60.6140500009" lon="8.45128334092">
		<tag k="name" v="Heggerustberget" />
		<tag k="natural" v="hill" />
		<tag k="place" v="locality" />
		<tag k="ssr:stedsnr" v="830730" />
	</node>
	<node id="-28619" lat="60.711472223" lon="8.64458332683">
		<tag k="name" v="Karaslettet" />
		<tag k="place" v="locality" />
		<tag k="ssr:stedsnr" v="830680" />
	</node>
	<node id="-28617" lat="60.6572361114" lon="8.35635832935">
		<tag k="name" v="Høgehaug" />
		<tag k="natural" v="hill" />
		<tag k="place" v="locality" />
		<tag k="ssr:stedsnr" v="830616" />
	</node>
	<node id="-26567" lat="60.6813805522" lon="8.50908332725">
		<tag k="name" v="Nuten" />
		<tag k="natural" v="hill" />
		<tag k="place" v="locality" />
		<tag k="ssr:stedsnr" v="223773" />
	</node>
	<node id="-28614" lat="60.7370611117" lon="8.12307222716">
		<tag k="name" v="Buvasslie" />
		<tag k="natural" v="slope" />
		<tag k="place" v="locality" />
		<tag k="ssr:stedsnr" v="830413" />
	</node>
	<node id="-26560" lat="60.704819444" lon="8.20058333597">
		<tag k="name" v="Heimskaret" />
		<tag k="natural" v="valley" />
		<tag k="place" v="locality" />
		<tag k="ssr:stedsnr" v="223299" />
	</node>
	<node id="-26558" lat="60.6486222193" lon="8.73761110737">
		<tag k="name" v="Ridalsbergi" />
		<tag k="natural" v="hill" />
		<tag k="place" v="locality" />
		<tag k="ssr:stedsnr" v="223239" />
	</node>
	<node id="-26557" lat="60.7364055585" lon="8.57422222033">
		<tag k="name" v="Veslehamaren" />
		<tag k="natural" v="hill" />
		<tag k="place" v="locality" />
		<tag k="ssr:stedsnr" v="223148" />
	</node>
	<node id="-26556" lat="60.7293138888" lon="8.50836943706">
		<tag k="name" v="Skjenhovda" />
		<tag k="natural" v="hill" />
		<tag k="place" v="locality" />
		<tag k="ssr:stedsnr" v="223105" />
	</node>
	<node id="-26554" lat="60.7213444425" lon="8.4303166626">
		<tag k="name" v="Bjødnahovda" />
		<tag k="natural" v="hill" />
		<tag k="place" v="locality" />
		<tag k="ssr:stedsnr" v="223062" />
	</node>
	<node id="-26552" lat="60.7511027785" lon="8.45257777781">
		<tag k="name" v="Skarhovdun" />
		<tag k="natural" v="hill" />
		<tag k="place" v="locality" />
		<tag k="ssr:stedsnr" v="223049" />
	</node>
	<node id="-28595" lat="60.6468666683" lon="8.54501111794">
		<tag k="alt_name" v="Møretjørnknatten" />
		<tag k="name" v="Møretjørnnatten" />
		<tag k="natural" v="hill" />
		<tag k="place" v="locality" />
		<tag k="ssr:stedsnr" v="809754" />
	</node>
	<node id="-26544" lat="60.8759305592" lon="7.90751389617">
		<tag k="name" v="Steinane" />
		<tag k="natural" v="slope" />
		<tag k="place" v="locality" />
		<tag k="ssr:stedsnr" v="8650" />
	</node>
	<node id="-26540" lat="60.6954277787" lon="8.6915361091">
		<tag k="name" v="Huldrahaugen" />
		<tag k="natural" v="hill" />
		<tag k="place" v="locality" />
		<tag k="ssr:stedsnr" v="6890" />
	</node>
	<node id="-28587" lat="60.8599166629" lon="8.14184722602">
		<tag k="name" v="Hestebotn" />
		<tag k="natural" v="valley" />
		<tag k="place" v="locality" />
		<tag k="ssr:stedsnr" v="797915" />
	</node>
	<node id="-26538" lat="60.6658333295" lon="8.51116388057">
		<tag k="name" v="Storehovda" />
		<tag k="natural" v="hill" />
		<tag k="place" v="locality" />
		<tag k="ssr:stedsnr" v="6938" />
	</node>
	<node id="-28584" lat="60.8024166655" lon="8.29568611131">
		<tag k="fixme" v="consider natural=peak for the most distinct mountains in the district" />
		<tag k="name" v="Skarvanstølnuten" />
		<tag k="natural" v="hill" />
		<tag k="place" v="locality" />
		<tag k="ssr:stedsnr" v="797889" />
	</node>
	<node id="-28583" lat="60.7906999977" lon="8.09540555904">
		<tag k="alt_name" v="Buhovda, øvre" />
		<tag k="fixme" v="consider natural=peak for the most distinct mountains in the district" />
		<tag k="name" v="Øvre Buhovda" />
		<tag k="natural" v="hill" />
		<tag k="place" v="locality" />
		<tag k="ssr:stedsnr" v="797874" />
	</node>
	<node id="-28580" lat="60.8058638908" lon="8.04456389256">
		<tag k="fixme" v="consider natural=peak for the most distinct mountains in the district" />
		<tag k="name" v="Skriduhovda" />
		<tag k="natural" v="hill" />
		<tag k="place" v="locality" />
		<tag k="ssr:stedsnr" v="797724" />
	</node>
	<node id="-28577" lat="60.8550750021" lon="7.93747500018">
		<tag k="fixme" v="consider natural=peak for the most distinct mountains in the district" />
		<tag k="name" v="Helvetet" />
		<tag k="natural" v="hill" />
		<tag k="place" v="locality" />
		<tag k="ssr:stedsnr" v="797659" />
	</node>
	<node id="-28570" lat="60.5990499978" lon="8.4613972257">
		<tag k="name" v="Breiefjerdingen" />
		<tag k="natural" v="slope" />
		<tag k="place" v="locality" />
		<tag k="ssr:stedsnr" v="796655" />
	</node>
	<node id="-28568" lat="60.6172416708" lon="8.42232500673">
		<tag k="name" v="Kristidalen" />
		<tag k="natural" v="valley" />
		<tag k="place" v="locality" />
		<tag k="ssr:stedsnr" v="796639" />
	</node>
	<node id="-28565" lat="60.6143750044" lon="8.69926666339">
		<tag k="alt_name" v="Sveinlii" />
		<tag k="name" v="Sveinlie" />
		<tag k="natural" v="slope" />
		<tag k="place" v="locality" />
		<tag k="ssr:stedsnr" v="796075" />
	</node>
	<node id="-28552" lat="60.5832305517" lon="8.50680832954">
		<tag k="fixme" v="consider natural=peak for the most distinct mountains in the district" />
		<tag k="name" v="Hellehovda" />
		<tag k="natural" v="hill" />
		<tag k="place" v="locality" />
		<tag k="ssr:stedsnr" v="796042" />
	</node>
	<node id="-28548" lat="60.7311138918" lon="8.33830278552">
		<tag k="fixme" v="consider natural=peak for the most distinct mountains in the district" />
		<tag k="name" v="Valkehovda" />
		<tag k="natural" v="hill" />
		<tag k="place" v="locality" />
		<tag k="ssr:stedsnr" v="795514" />
	</node>
	<node id="-28547" lat="60.7147583353" lon="8.27496112012">
		<tag k="fixme" v="consider natural=peak for the most distinct mountains in the district" />
		<tag k="name" v="Karihellhovda" />
		<tag k="natural" v="hill" />
		<tag k="place" v="locality" />
		<tag k="ssr:stedsnr" v="795583" />
	</node>
	<node id="-28545" lat="60.6363916627" lon="8.71074721382">
		<tag k="alt_name" v="Geiteryggskaret" />
		<tag k="name" v="Geiteryggskardet" />
		<tag k="natural" v="valley" />
		<tag k="place" v="locality" />
		<tag k="ssr:stedsnr" v="795127" />
	</node>
	<node id="-28543" lat="60.6006083293" lon="8.49663332554">
		<tag k="name" v="Hamaren" />
		<tag k="place" v="locality" />
		<tag k="ssr:stedsnr" v="791944" />
	</node>
	<node id="-28542" lat="60.5631777814" lon="8.70454166768">
		<tag k="fixme" v="consider natural=peak for the most distinct mountains in the district" />
		<tag k="name" v="Vesledyna" />
		<tag k="natural" v="hill" />
		<tag k="place" v="locality" />
		<tag k="ssr:stedsnr" v="786703" />
	</node>
	<node id="-28540" lat="60.5488805571" lon="8.62199444757">
		<tag k="name" v="Kvanneberget" />
		<tag k="natural" v="hill" />
		<tag k="place" v="locality" />
		<tag k="ssr:stedsnr" v="786780" />
	</node>
	<node id="-28537" lat="60.5267638897" lon="8.38167499671">
		<tag k="loc_name" v="Grønolie" />
		<tag k="name" v="Grønelii" />
		<tag k="natural" v="slope" />
		<tag k="place" v="locality" />
		<tag k="ssr:stedsnr" v="784867" />
	</node>
	<node id="-28529" lat="60.7055777791" lon="8.33828055251">
		<tag k="name" v="Rakkekjekshovda" />
		<tag k="natural" v="hill" />
		<tag k="place" v="locality" />
		<tag k="ssr:stedsnr" v="784446" />
	</node>
	<node id="-28528" lat="60.7009944413" lon="8.3444388937">
		<tag k="name" v="Røvsberget" />
		<tag k="natural" v="hill" />
		<tag k="place" v="locality" />
		<tag k="ssr:stedsnr" v="784427" />
	</node>
	<node id="-26600" lat="60.589238892" lon="8.5232055626">
		<tag k="name" v="Hellehovda" />
		<tag k="natural" v="hill" />
		<tag k="place" v="locality" />
		<tag k="ssr:stedsnr" v="41556" />
	</node>
	<node id="-28514" lat="60.656308333" lon="8.37483333384">
		<tag k="name" v="Skurvehovda" />
		<tag k="natural" v="hill" />
		<tag k="place" v="locality" />
		<tag k="ssr:stedsnr" v="769609" />
	</node>
	<node id="-28511" lat="60.7052916674" lon="8.32188888296">
		<tag k="name" v="Damtjørnhaugen" />
		<tag k="natural" v="hill" />
		<tag k="place" v="locality" />
		<tag k="ssr:stedsnr" v="769496" />
	</node>
	<node id="-28501" lat="60.548361113" lon="8.61563611287">
		<tag k="fixme" v="consider natural=peak for the most distinct mountains in the district" />
		<tag k="name" v="Urdestighovda" />
		<tag k="natural" v="hill" />
		<tag k="place" v="locality" />
		<tag k="ssr:stedsnr" v="767488" />
	</node>
	<node id="-28498" lat="60.6350816976" lon="8.50383842763">
		<tag k="name" v="Ormeberget" />
		<tag k="natural" v="slope" />
		<tag k="place" v="locality" />
		<tag k="ssr:stedsnr" v="749765" />
	</node>
	<node id="-28495" lat="60.6441138862" lon="8.57088332623">
		<tag k="loc_name" v="Danielskardet" />
		<tag k="name" v="Danielskaret" />
		<tag k="natural" v="valley" />
		<tag k="place" v="locality" />
		<tag k="ssr:stedsnr" v="748931" />
	</node>
	<node id="-28492" lat="60.7994527755" lon="8.05184166381">
		<tag k="fixme" v="consider natural=peak for the most distinct mountains in the district" />
		<tag k="name" v="Djupshovda" />
		<tag k="natural" v="hill" />
		<tag k="place" v="locality" />
		<tag k="ssr:stedsnr" v="737687" />
	</node>
	<node id="-28486" lat="60.7721500031" lon="8.21458332643">
		<tag k="name" v="Eitrebotn" />
		<tag k="natural" v="valley" />
		<tag k="place" v="locality" />
		<tag k="ssr:stedsnr" v="736987" />
	</node>
	<node id="-28484" lat="60.8542944455" lon="8.12743888905">
		<tag k="alt_name" v="Skålanuten, nordre" />
		<tag k="fixme" v="consider natural=peak for the most distinct mountains in the district" />
		<tag k="loc_name" v="Nørdre Skålanut" />
		<tag k="name" v="Nørdre Skålanuten" />
		<tag k="natural" v="hill" />
		<tag k="place" v="locality" />
		<tag k="ssr:stedsnr" v="736923" />
	</node>
	<node id="-28483" lat="60.8369750042" lon="8.28548888092">
		<tag k="name" v="Skurvenatten" />
		<tag k="natural" v="hill" />
		<tag k="place" v="locality" />
		<tag k="ssr:stedsnr" v="736903" />
	</node>
	<node id="-28482" lat="60.8337833328" lon="7.9675249945">
		<tag k="fixme" v="consider natural=peak for the most distinct mountains in the district" />
		<tag k="name" v="Klevafjellet" />
		<tag k="natural" v="hill" />
		<tag k="place" v="locality" />
		<tag k="ssr:stedsnr" v="736766" />
	</node>
	<node id="-28481" lat="60.858513887" lon="7.9166749912">
		<tag k="name" v="Hibergi" />
		<tag k="natural" v="hill" />
		<tag k="place" v="locality" />
		<tag k="ssr:stedsnr" v="736651" />
	</node>
	<node id="-28479" lat="60.866986115" lon="7.95691110982">
		<tag k="fixme" v="consider natural=peak for the most distinct mountains in the district" />
		<tag k="name" v="Trollnose" />
		<tag k="natural" v="hill" />
		<tag k="place" v="locality" />
		<tag k="ssr:stedsnr" v="736640" />
	</node>
	<node id="-28478" lat="60.8931805564" lon="8.04073610512">
		<tag k="fixme" v="consider natural=peak for the most distinct mountains in the district" />
		<tag k="name" v="Raudbergnuten" />
		<tag k="natural" v="hill" />
		<tag k="place" v="locality" />
		<tag k="ssr:stedsnr" v="736634" />
	</node>
	<node id="-28474" lat="60.7003138926" lon="8.53636110735">
		<tag k="name" v="Gautestein" />
		<tag k="natural" v="hill" />
		<tag k="place" v="locality" />
		<tag k="ssr:stedsnr" v="647988" />
	</node>
	<node id="-26591" lat="60.7435194488" lon="8.45140277603">
		<tag k="name" v="Brennehaug" />
		<tag k="natural" v="hill" />
		<tag k="place" v="locality" />
		<tag k="ssr:stedsnr" v="41054" />
	</node>
	<node id="-28469" lat="60.6386833317" lon="8.47055278011">
		<tag k="name" v="Langehaugen" />
		<tag k="natural" v="hill" />
		<tag k="place" v="locality" />
		<tag k="ssr:stedsnr" v="647768" />
	</node>
	<node id="-28468" lat="60.7069499961" lon="8.59513054845">
		<tag k="name" v="Grønebakken" />
		<tag k="natural" v="slope" />
		<tag k="place" v="locality" />
		<tag k="ssr:stedsnr" v="647759" />
	</node>
	<node id="-28463" lat="60.7451722205" lon="8.0739472181">
		<tag k="alt_name" v="Nørdre Ørnehøgdi;Ørnehøgdi, nordre" />
		<tag k="name" v="Storhovda" />
		<tag k="natural" v="hill" />
		<tag k="place" v="locality" />
		<tag k="ssr:stedsnr" v="647268" />
	</node>
	<node id="-28460" lat="60.7165416691" lon="8.41346944502">
		<tag k="name" v="Knutstølhovda" />
		<tag k="natural" v="hill" />
		<tag k="place" v="locality" />
		<tag k="ssr:stedsnr" v="647001" />
	</node>
	<node id="-28459" lat="60.5925611077" lon="8.6657166645">
		<tag k="name" v="Hollhovdun" />
		<tag k="natural" v="hill" />
		<tag k="place" v="locality" />
		<tag k="ssr:stedsnr" v="645188" />
	</node>
	<node id="-28458" lat="60.5864111109" lon="8.69093333983">
		<tag k="fixme" v="consider natural=peak for the most distinct mountains in the district" />
		<tag k="name" v="Grøthovdun" />
		<tag k="natural" v="hill" />
		<tag k="place" v="locality" />
		<tag k="ssr:stedsnr" v="645167" />
	</node>
	<node id="-28457" lat="60.5508444473" lon="8.63734166181">
		<tag k="name" v="Kristihaugen" />
		<tag k="natural" v="hill" />
		<tag k="place" v="locality" />
		<tag k="ssr:stedsnr" v="645739" />
	</node>
	<node id="-28455" lat="60.8672277806" lon="7.81762499968">
		<tag k="fixme" v="consider natural=peak for the most distinct mountains in the district" />
		<tag k="name" v="Flågrunnshøgde" />
		<tag k="natural" v="hill" />
		<tag k="place" v="locality" />
		<tag k="ssr:stedsnr" v="627025" />
	</node>
	<node id="-28453" lat="60.8556027794" lon="8.27189443766">
		<tag k="name" v="Veslebotn" />
		<tag k="natural" v="valley" />
		<tag k="place" v="locality" />
		<tag k="ssr:stedsnr" v="615929" />
	</node>
	<node id="-28451" lat="60.8523861148" lon="8.20015277801">
		<tag k="fixme" v="consider natural=peak for the most distinct mountains in the district" />
		<tag k="name" v="Svartenuten" />
		<tag k="natural" v="hill" />
		<tag k="place" v="locality" />
		<tag k="ssr:stedsnr" v="615924" />
	</node>
	<node id="-28449" lat="60.8220611112" lon="8.00000555776">
		<tag k="fixme" v="consider natural=peak for the most distinct mountains in the district" />
		<tag k="name" v="Langebrea" />
		<tag k="natural" v="hill" />
		<tag k="place" v="locality" />
		<tag k="ssr:stedsnr" v="615736" />
	</node>
	<node id="-28446" lat="60.8388777806" lon="7.96792777114">
		<tag k="fixme" v="consider natural=peak for the most distinct mountains in the district" />
		<tag k="name" v="Kvannenuten" />
		<tag k="natural" v="hill" />
		<tag k="place" v="locality" />
		<tag k="ssr:stedsnr" v="615707" />
	</node>
	<node id="-28445" lat="60.8405499996" lon="7.86800554763">
		<tag k="name" v="Systrandbotnan" />
		<tag k="natural" v="valley" />
		<tag k="place" v="locality" />
		<tag k="ssr:stedsnr" v="615699" />
	</node>
	<node id="-28444" lat="60.7550305527" lon="8.18958611768">
		<tag k="fixme" v="consider natural=peak for the most distinct mountains in the district" />
		<tag k="name" v="Vardehovda" />
		<tag k="natural" v="hill" />
		<tag k="place" v="locality" />
		<tag k="ssr:stedsnr" v="614992" />
	</node>
	<node id="-28439" lat="60.8691027759" lon="8.04232500829">
		<tag k="name" v="Storefjellsbergi" />
		<tag k="natural" v="hill" />
		<tag k="place" v="locality" />
		<tag k="ssr:stedsnr" v="614675" />
	</node>
	<node id="-28438" lat="60.8725027748" lon="7.86111110413">
		<tag k="fixme" v="consider natural=peak for the most distinct mountains in the district" />
		<tag k="name" v="Mønin" />
		<tag k="natural" v="hill" />
		<tag k="place" v="locality" />
		<tag k="ssr:stedsnr" v="614650" />
	</node>
	<node id="-28429" lat="60.6997166705" lon="8.30673055364">
		<tag k="fixme" v="consider natural=peak for the most distinct mountains in the district" />
		<tag k="name" v="Kollehovda" />
		<tag k="natural" v="hill" />
		<tag k="place" v="locality" />
		<tag k="ssr:stedsnr" v="613511" />
	</node>
	<node id="-28427" lat="60.6487305552" lon="8.76676111776">
		<tag k="name" v="Munnen" />
		<tag k="natural" v="slope" />
		<tag k="place" v="locality" />
		<tag k="ssr:stedsnr" v="613116" />
	</node>
	<node id="-28422" lat="60.6214000025" lon="8.83678611793">
		<tag k="fixme" v="consider natural=peak for the most distinct mountains in the district" />
		<tag k="name" v="Storhovda" />
		<tag k="natural" v="hill" />
		<tag k="place" v="locality" />
		<tag k="ssr:stedsnr" v="613074" />
	</node>
	<node id="-28418" lat="60.5695166653" lon="8.51301945276">
		<tag k="name" v="Merkesteinhovda" />
		<tag k="natural" v="hill" />
		<tag k="place" v="locality" />
		<tag k="ssr:stedsnr" v="613030" />
	</node>
	<node id="-28415" lat="60.7244111093" lon="8.12884166811">
		<tag k="fixme" v="consider natural=peak for the most distinct mountains in the district" />
		<tag k="name" v="Froshovda" />
		<tag k="natural" v="hill" />
		<tag k="old_name" v="Nordre Froshovda;Søre Froshovda" />
		<tag k="place" v="locality" />
		<tag k="ssr:stedsnr" v="612488" />
	</node>
	<node id="-28414" lat="60.5844972189" lon="8.68750277135">
		<tag k="name" v="Grøthovdun" />
		<tag k="natural" v="hill" />
		<tag k="place" v="locality" />
		<tag k="ssr:stedsnr" v="604937" />
	</node>
	<node id="-28413" lat="60.5588833348" lon="8.59731110799">
		<tag k="fixme" v="consider natural=peak for the most distinct mountains in the district" />
		<tag k="name" v="Skurveranden" />
		<tag k="natural" v="hill" />
		<tag k="place" v="locality" />
		<tag k="ssr:stedsnr" v="604844" />
	</node>
	<node id="-28408" lat="60.4769527752" lon="8.39606944664">
		<tag k="name" v="Bekretjørnhovda" />
		<tag k="natural" v="hill" />
		<tag k="place" v="locality" />
		<tag k="ssr:stedsnr" v="602631" />
	</node>
	<node id="-28406" lat="60.5270493521" lon="8.40528680916">
		<tag k="name" v="Bleikmyrdalen" />
		<tag k="natural" v="valley" />
		<tag k="place" v="locality" />
		<tag k="ssr:stedsnr" v="602337" />
	</node>
	<node id="-28405" lat="60.7350555537" lon="8.21967222744">
		<tag k="name" v="Skriuhovda" />
		<tag k="natural" v="hill" />
		<tag k="place" v="locality" />
		<tag k="ssr:stedsnr" v="602272" />
	</node>
	<node id="-28404" lat="60.5756916699" lon="8.41896111887">
		<tag k="name" v="Breieslåtta" />
		<tag k="place" v="locality" />
		<tag k="ssr:stedsnr" v="602476" />
	</node>
	<node id="-28400" lat="60.7005166632" lon="8.42209445038">
		<tag k="name" v="Høgeås" />
		<tag k="natural" v="hill" />
		<tag k="place" v="locality" />
		<tag k="ssr:stedsnr" v="601065" />
	</node>
	<node id="-28393" lat="60.6115972196" lon="8.49642500157">
		<tag k="loc_name" v="Strandaeggi;Eggi" />
		<tag k="name" v="Strandaeggen" />
		<tag k="natural" v="ridge" />
		<tag k="place" v="locality" />
		<tag k="ssr:stedsnr" v="587981" />
	</node>
	<node id="-28391" lat="60.6614111141" lon="8.38108333484">
		<tag k="name" v="Snøfonndalen" />
		<tag k="natural" v="valley" />
		<tag k="place" v="locality" />
		<tag k="ssr:stedsnr" v="587626" />
	</node>
	<node id="-28388" lat="60.7047777806" lon="8.61356944914">
		<tag k="name" v="Lappeknutslettene" />
		<tag k="place" v="locality" />
		<tag k="ssr:stedsnr" v="587761" />
	</node>
	<node id="-28387" lat="60.5958277813" lon="8.43915834119">
		<tag k="name" v="Bekkestadkamben" />
		<tag k="place" v="locality" />
		<tag k="ssr:stedsnr" v="586810" />
	</node>
	<node id="-28386" lat="60.6827583335" lon="8.50294722414">
		<tag k="name" v="Skurvenatten" />
		<tag k="natural" v="hill" />
		<tag k="place" v="locality" />
		<tag k="ssr:stedsnr" v="586745" />
	</node>
	<node id="-28382" lat="60.7247416685" lon="8.46556389378">
		<tag k="name" v="Kaslegrashaugen" />
		<tag k="natural" v="hill" />
		<tag k="place" v="locality" />
		<tag k="ssr:stedsnr" v="586038" />
	</node>
	<node id="-28380" lat="60.7522638845" lon="8.42536667361">
		<tag k="name" v="Brearanden" />
		<tag k="natural" v="ridge" />
		<tag k="place" v="locality" />
		<tag k="ssr:stedsnr" v="586014" />
	</node>
	<node id="-28372" lat="60.6230083361" lon="8.74310277068">
		<tag k="name" v="Kolbotnen" />
		<tag k="natural" v="valley" />
		<tag k="place" v="locality" />
		<tag k="ssr:stedsnr" v="566842" />
	</node>
	<node id="-28371" lat="60.6311749959" lon="8.55113611112">
		<tag k="alt_name" v="Prestegardsbakkene" />
		<tag k="name" v="Prestegardsbakkan" />
		<tag k="natural" v="slope" />
		<tag k="place" v="locality" />
		<tag k="ssr:stedsnr" v="566754" />
	</node>
	<node id="-28366" lat="60.6109777797" lon="8.55678055199">
		<tag k="name" v="Maradyssa" />
		<tag k="natural" v="slope" />
		<tag k="place" v="locality" />
		<tag k="ssr:stedsnr" v="566725" />
	</node>
	<node id="-28359" lat="60.7526361102" lon="8.46271389344">
		<tag k="fixme" v="consider natural=peak for the most distinct mountains in the district" />
		<tag k="name" v="Fristølfjellet" />
		<tag k="natural" v="hill" />
		<tag k="place" v="locality" />
		<tag k="ssr:stedsnr" v="554998" />
	</node>
	<node id="-28358" lat="60.7838833334" lon="8.46051666839">
		<tag k="name" v="Reinsbotnan" />
		<tag k="natural" v="valley" />
		<tag k="place" v="locality" />
		<tag k="ssr:stedsnr" v="554911" />
	</node>
	<node id="-28357" lat="60.7767250033" lon="8.45413611464">
		<tag k="alt_name" v="Fossedalen, s" />
		<tag k="name" v="Søre Fossedalen" />
		<tag k="natural" v="valley" />
		<tag k="place" v="locality" />
		<tag k="ssr:stedsnr" v="554899" />
	</node>
	<node id="-28355" lat="60.8474777798" lon="7.85983055521">
		<tag k="alt_name" v="Haldalsnuten" />
		<tag k="fixme" v="consider natural=peak for the most distinct mountains in the district" />
		<tag k="name" v="Halldalsnuten" />
		<tag k="natural" v="hill" />
		<tag k="place" v="locality" />
		<tag k="ssr:stedsnr" v="554749" />
	</node>
	<node id="-28354" lat="60.7946749966" lon="8.07431110336">
		<tag k="name" v="Karkeskardet" />
		<tag k="natural" v="valley" />
		<tag k="place" v="locality" />
		<tag k="ssr:stedsnr" v="554739" />
	</node>
	<node id="-28351" lat="60.860283337" lon="8.08070000892">
		<tag k="fixme" v="consider natural=peak for the most distinct mountains in the district" />
		<tag k="name" v="Storefjellsnuten" />
		<tag k="natural" v="hill" />
		<tag k="place" v="locality" />
		<tag k="ssr:stedsnr" v="554753" />
	</node>
	<node id="-28349" lat="60.5712249966" lon="8.57022499537">
		<tag k="fixme" v="consider natural=peak for the most distinct mountains in the district" />
		<tag k="name" v="Nysetfjellet" />
		<tag k="natural" v="hill" />
		<tag k="place" v="locality" />
		<tag k="ssr:stedsnr" v="553907" />
	</node>
	<node id="-28337" lat="60.6991638911" lon="8.33742223107">
		<tag k="name" v="Storeberget" />
		<tag k="natural" v="hill" />
		<tag k="place" v="locality" />
		<tag k="ssr:stedsnr" v="553493" />
	</node>
	<node id="-28335" lat="60.5417805531" lon="8.51435277315">
		<tag k="fixme" v="consider natural=peak for the most distinct mountains in the district" />
		<tag k="name" v="Storestølhovda" />
		<tag k="natural" v="hill" />
		<tag k="place" v="locality" />
		<tag k="ssr:stedsnr" v="553214" />
	</node>
	<node id="-28326" lat="60.6092999998" lon="8.77080278584">
		<tag k="alt_name" v="Grønhovdene" />
		<tag k="fixme" v="consider natural=peak for the most distinct mountains in the district" />
		<tag k="name" v="Grønhovdun" />
		<tag k="natural" v="hill" />
		<tag k="place" v="locality" />
		<tag k="ssr:stedsnr" v="553064" />
	</node>
	<node id="-28325" lat="60.5933194405" lon="8.79385833288">
		<tag k="name" v="Dalane" />
		<tag k="natural" v="valley" />
		<tag k="place" v="locality" />
		<tag k="ssr:stedsnr" v="553056" />
	</node>
	<node id="-28317" lat="60.6895638929" lon="8.76223611047">
		<tag k="name" v="Snebakkhøgda" />
		<tag k="natural" v="hill" />
		<tag k="place" v="locality" />
		<tag k="ssr:stedsnr" v="552919" />
	</node>
	<node id="-28305" lat="60.7268194427" lon="8.32911666684">
		<tag k="fixme" v="consider natural=peak for the most distinct mountains in the district" />
		<tag k="name" v="Storenatten" />
		<tag k="natural" v="hill" />
		<tag k="place" v="locality" />
		<tag k="ssr:stedsnr" v="552533" />
	</node>
	<node id="-28303" lat="60.7474444421" lon="8.35455278437">
		<tag k="fixme" v="consider natural=peak for the most distinct mountains in the district" />
		<tag k="name" v="Hausehovda" />
		<tag k="natural" v="hill" />
		<tag k="place" v="locality" />
		<tag k="ssr:stedsnr" v="552502" />
	</node>
	<node id="-28296" lat="60.6333388916" lon="8.83305555027">
		<tag k="name" v="Brenneskardhøgdi" />
		<tag k="natural" v="hill" />
		<tag k="place" v="locality" />
		<tag k="ssr:stedsnr" v="552105" />
	</node>
	<node id="-28293" lat="60.4850888848" lon="8.44480000368">
		<tag k="fixme" v="consider natural=peak for the most distinct mountains in the district" />
		<tag k="loc_name" v="Grårøyshovda" />
		<tag k="name" v="Grårøyshovdi" />
		<tag k="natural" v="hill" />
		<tag k="old_name" v="Gravreishd" />
		<tag k="place" v="locality" />
		<tag k="ssr:stedsnr" v="551878" />
	</node>
	<node id="-28292" lat="60.8584916672" lon="8.1851999939">
		<tag k="alt_name" v="Lysebottnuten" />
		<tag k="fixme" v="consider natural=peak for the most distinct mountains in the district" />
		<tag k="name" v="Lyserbottnuten" />
		<tag k="natural" v="hill" />
		<tag k="place" v="locality" />
		<tag k="ssr:stedsnr" v="542929" />
	</node>
	<node id="-28290" lat="60.5382388908" lon="8.65796666642">
		<tag k="name" v="Veahovda" />
		<tag k="natural" v="hill" />
		<tag k="place" v="locality" />
		<tag k="ssr:stedsnr" v="542654" />
	</node>
	<node id="-28289" lat="60.5381861082" lon="8.64719722934">
		<tag k="name" v="Skitjørnhovda" />
		<tag k="natural" v="hill" />
		<tag k="place" v="locality" />
		<tag k="ssr:stedsnr" v="542653" />
	</node>
	<node id="-28287" lat="60.7051416625" lon="8.58469443541">
		<tag k="name" v="Vårtjørnhovda" />
		<tag k="natural" v="hill" />
		<tag k="place" v="locality" />
		<tag k="ssr:stedsnr" v="541750" />
	</node>
	<node id="-28282" lat="60.680566668" lon="8.49767222418">
		<tag k="name" v="Dugdenatten" />
		<tag k="natural" v="hill" />
		<tag k="place" v="locality" />
		<tag k="ssr:stedsnr" v="541299" />
	</node>
	<node id="-28281" lat="60.581141665" lon="8.5387833378">
		<tag k="fixme" v="multiple name tags, choose one and add the other to alt_name" />
		<tag k="name" v="Åsbrendhovda;Åsbrenthøgdi" />
		<tag k="natural" v="hill" />
		<tag k="place" v="locality" />
		<tag k="ssr:stedsnr" v="541252" />
	</node>
	<node id="-28280" lat="60.6972138891" lon="8.46818055374">
		<tag k="name" v="Høgehaug" />
		<tag k="natural" v="hill" />
		<tag k="place" v="locality" />
		<tag k="ssr:stedsnr" v="541105" />
	</node>
	<node id="-28279" lat="60.5972694456" lon="8.74454722788">
		<tag k="name" v="Lasse" />
		<tag k="natural" v="hill" />
		<tag k="place" v="locality" />
		<tag k="ssr:stedsnr" v="541026" />
	</node>
	<node id="-28278" lat="60.7216444432" lon="8.19734166221">
		<tag k="alt_name" v="Dugurdshovda, Søndre" />
		<tag k="name" v="Søre Dugurdshovda" />
		<tag k="natural" v="hill" />
		<tag k="place" v="locality" />
		<tag k="ssr:stedsnr" v="541227" />
	</node>
	<node id="-28277" lat="60.7162194424" lon="8.67515556282">
		<tag k="name" v="Høgehaug" />
		<tag k="natural" v="hill" />
		<tag k="place" v="locality" />
		<tag k="ssr:stedsnr" v="541184" />
	</node>
	<node id="-28276" lat="60.8450138886" lon="8.17032777212">
		<tag k="alt_name" v="Lysebotthovda" />
		<tag k="fixme" v="consider natural=peak for the most distinct mountains in the district" />
		<tag k="name" v="Lyserbotthovda" />
		<tag k="natural" v="hill" />
		<tag k="place" v="locality" />
		<tag k="ssr:stedsnr" v="538942" />
	</node>
	<node id="-28268" lat="60.707011109" lon="8.40268611017">
		<tag k="name" v="Raunehovda" />
		<tag k="natural" v="hill" />
		<tag k="place" v="locality" />
		<tag k="ssr:stedsnr" v="526898" />
	</node>
	<node id="-28263" lat="60.6151805549" lon="8.462097224">
		<tag k="name" v="Partjørnan" />
		<tag k="natural" v="hill" />
		<tag k="place" v="locality" />
		<tag k="ssr:stedsnr" v="526722" />
	</node>
	<node id="-28259" lat="60.678299996" lon="8.75338610894">
		<tag k="name" v="Rispedokkberget" />
		<tag k="natural" v="hill" />
		<tag k="place" v="locality" />
		<tag k="ssr:stedsnr" v="526262" />
	</node>
	<node id="-28258" lat="60.7015416675" lon="8.28128333169">
		<tag k="name" v="Gjetarbergi" />
		<tag k="natural" v="hill" />
		<tag k="place" v="locality" />
		<tag k="ssr:stedsnr" v="526466" />
	</node>
	<node id="-28257" lat="60.7499777806" lon="8.6639166669">
		<tag k="name" v="Tjukketjørrhaugen" />
		<tag k="natural" v="hill" />
		<tag k="place" v="locality" />
		<tag k="ssr:stedsnr" v="526205" />
	</node>
	<node id="-28256" lat="60.7107333311" lon="8.49527777608">
		<tag k="name" v="Gurigardhovda" />
		<tag k="natural" v="hill" />
		<tag k="place" v="locality" />
		<tag k="ssr:stedsnr" v="526194" />
	</node>
	<node id="-28254" lat="60.7561000018" lon="8.13317499614">
		<tag k="fixme" v="consider natural=peak for the most distinct mountains in the district" />
		<tag k="name" v="Bratteleinsnuten" />
		<tag k="natural" v="hill" />
		<tag k="place" v="locality" />
		<tag k="ssr:stedsnr" v="433989" />
	</node>
	<node id="-28253" lat="60.768163885" lon="8.38957777624">
		<tag k="fixme" v="consider natural=peak for the most distinct mountains in the district" />
		<tag k="loc_name" v="Laudalsbrea" />
		<tag k="name" v="Lauvdalsbrea" />
		<tag k="natural" v="hill" />
		<tag k="old_name" v="STORE LØVDALS BRÆEN" />
		<tag k="place" v="locality" />
		<tag k="ssr:stedsnr" v="433988" />
	</node>
	<node id="-28251" lat="60.8336388928" lon="7.87141388075">
		<tag k="fixme" v="consider natural=peak for the most distinct mountains in the district" />
		<tag k="name" v="Galdenøse" />
		<tag k="natural" v="hill" />
		<tag k="place" v="locality" />
		<tag k="ssr:stedsnr" v="433746" />
	</node>
	<node id="-28249" lat="60.8170694443" lon="8.21405556095">
		<tag k="fixme" v="consider natural=peak for the most distinct mountains in the district" />
		<tag k="name" v="Grånose" />
		<tag k="natural" v="hill" />
		<tag k="place" v="locality" />
		<tag k="ssr:stedsnr" v="433892" />
	</node>
	<node id="-28247" lat="60.8051250032" lon="8.40414445165">
		<tag k="name" v="Dugurdshovda" />
		<tag k="natural" v="hill" />
		<tag k="place" v="locality" />
		<tag k="ssr:stedsnr" v="433887" />
	</node>
	<node id="-28241" lat="60.6725527809" lon="8.42936944448">
		<tag k="fixme" v="consider natural=peak for the most distinct mountains in the district" />
		<tag k="name" v="Hevjanåsen" />
		<tag k="natural" v="hill" />
		<tag k="old_name" v="Hevjanaasen" />
		<tag k="place" v="locality" />
		<tag k="ssr:stedsnr" v="432560" />
	</node>
	<node id="-28240" lat="60.652358329" lon="8.46604999546">
		<tag k="fixme" v="consider natural=peak for the most distinct mountains in the district" />
		<tag k="name" v="Hesthovda" />
		<tag k="natural" v="hill" />
		<tag k="place" v="locality" />
		<tag k="ssr:stedsnr" v="432548" />
	</node>
	<node id="-26650" lat="60.6737388847" lon="8.59203333577">
		<tag k="alt_name" v="Sletthovdene" />
		<tag k="name" v="Sletthovdun" />
		<tag k="natural" v="hill" />
		<tag k="place" v="locality" />
		<tag k="ssr:stedsnr" v="67933" />
	</node>
	<node id="-28229" lat="60.6133138858" lon="8.73106666766">
		<tag k="fixme" v="consider natural=peak for the most distinct mountains in the district" />
		<tag k="name" v="Heimstølhovda" />
		<tag k="natural" v="hill" />
		<tag k="place" v="locality" />
		<tag k="ssr:stedsnr" v="432064" />
	</node>
	<node id="-28224" lat="60.5930499974" lon="8.68984443886">
		<tag k="alt_name" v="Mjellsnatten" />
		<tag k="fixme" v="consider natural=peak for the most distinct mountains in the district" />
		<tag k="name" v="Mjeltsnatten" />
		<tag k="natural" v="hill" />
		<tag k="place" v="locality" />
		<tag k="ssr:stedsnr" v="432027" />
	</node>
	<node id="-28220" lat="60.7036805556" lon="8.44402222681">
		<tag k="fixme" v="consider natural=peak for the most distinct mountains in the district" />
		<tag k="name" v="Øyliåsen" />
		<tag k="natural" v="hill" />
		<tag k="place" v="locality" />
		<tag k="ssr:stedsnr" v="431556" />
	</node>
	<node id="-26547" lat="60.710238889" lon="8.48344999714">
		<tag k="name" v="Eikreberget" />
		<tag k="natural" v="hill" />
		<tag k="place" v="locality" />
		<tag k="ssr:stedsnr" v="222038" />
	</node>
	<node id="-28206" lat="60.7210138869" lon="8.47577500578">
		<tag k="name" v="Tægistølhovda" />
		<tag k="natural" v="hill" />
		<tag k="old_name" v="Teighovda;Tegihovda" />
		<tag k="place" v="locality" />
		<tag k="ssr:stedsnr" v="430813" />
	</node>
	<node id="-28205" lat="60.5466083298" lon="8.50615000282">
		<tag k="name" v="Langefet" />
		<tag k="place" v="locality" />
		<tag k="ssr:stedsnr" v="422925" />
	</node>
	<node id="-28204" lat="60.5483499968" lon="8.46585000376">
		<tag k="name" v="Gunbjørndekkan" />
		<tag k="natural" v="valley" />
		<tag k="place" v="locality" />
		<tag k="ssr:stedsnr" v="420940" />
	</node>
	<node id="-28203" lat="60.5335138873" lon="8.49708888542">
		<tag k="name" v="Bergastølhovda" />
		<tag k="natural" v="hill" />
		<tag k="place" v="locality" />
		<tag k="ssr:stedsnr" v="420797" />
	</node>
	<node id="-28201" lat="60.6931472195" lon="8.52840832624">
		<tag k="name" v="Høgehaug" />
		<tag k="natural" v="hill" />
		<tag k="place" v="locality" />
		<tag k="ssr:stedsnr" v="420743" />
	</node>
	<node id="-28195" lat="60.6793722189" lon="8.50021667575">
		<tag k="name" v="Kjøtnatten" />
		<tag k="natural" v="hill" />
		<tag k="place" v="locality" />
		<tag k="ssr:stedsnr" v="420288" />
	</node>
	<node id="-28189" lat="60.6937749958" lon="8.43544166933">
		<tag k="alt_name" v="Votnedalen" />
		<tag k="name" v="Votndalen" />
		<tag k="natural" v="valley" />
		<tag k="old_name" v="Vaatnedalen;Vatnedalen" />
		<tag k="place" v="locality" />
		<tag k="ssr:stedsnr" v="415946" />
	</node>
	<node id="-28179" lat="60.6870249987" lon="8.50385276869">
		<tag k="name" v="Stølsbergi" />
		<tag k="natural" v="hill" />
		<tag k="place" v="locality" />
		<tag k="ssr:stedsnr" v="405767" />
	</node>
	<node id="-28178" lat="60.6996722231" lon="8.28788332506">
		<tag k="name" v="Rauberget" />
		<tag k="natural" v="hill" />
		<tag k="place" v="locality" />
		<tag k="ssr:stedsnr" v="405482" />
	</node>
	<node id="-28176" lat="60.7100861086" lon="8.27068611941">
		<tag k="name" v="Osehovda" />
		<tag k="natural" v="hill" />
		<tag k="place" v="locality" />
		<tag k="ssr:stedsnr" v="405464" />
	</node>
	<node id="-28172" lat="60.609727782" lon="8.47743889091">
		<tag k="name" v="Jonsokberget" />
		<tag k="natural" v="hill" />
		<tag k="place" v="locality" />
		<tag k="ssr:stedsnr" v="405543" />
	</node>
	<node id="-28170" lat="60.7396944434" lon="8.5659083332">
		<tag k="name" v="Lyhaugane" />
		<tag k="place" v="locality" />
		<tag k="ssr:stedsnr" v="405115" />
	</node>
	<node id="-28169" lat="60.7237972179" lon="8.4584861142">
		<tag k="name" v="Blautemyrhellan" />
		<tag k="natural" v="slope" />
		<tag k="place" v="locality" />
		<tag k="ssr:stedsnr" v="405049" />
	</node>
	<node id="-28161" lat="60.6360493789" lon="8.51059319422">
		<tag k="name" v="Verpebakken" />
		<tag k="natural" v="slope" />
		<tag k="place" v="locality" />
		<tag k="ssr:stedsnr" v="384734" />
	</node>
	<node id="-28160" lat="60.7507555599" lon="8.37286943822">
		<tag k="name" v="Fiskeløkhovda" />
		<tag k="natural" v="hill" />
		<tag k="place" v="locality" />
		<tag k="ssr:stedsnr" v="372994" />
	</node>
	<node id="-28155" lat="60.8357388897" lon="7.99440832961">
		<tag k="fixme" v="consider natural=peak for the most distinct mountains in the district" />
		<tag k="name" v="Mjolgenuten" />
		<tag k="natural" v="hill" />
		<tag k="place" v="locality" />
		<tag k="ssr:stedsnr" v="372741" />
	</node>
	<node id="-28154" lat="60.8011750015" lon="8.04852499294">
		<tag k="name" v="Djupedalen" />
		<tag k="natural" v="valley" />
		<tag k="place" v="locality" />
		<tag k="ssr:stedsnr" v="372726" />
	</node>
	<node id="-28153" lat="60.8714749983" lon="8.11798333103">
		<tag k="fixme" v="consider natural=peak for the most distinct mountains in the district" />
		<tag k="name" v="Hestebottnuten" />
		<tag k="natural" v="hill" />
		<tag k="place" v="locality" />
		<tag k="ssr:stedsnr" v="372590" />
	</node>
	<node id="-28152" lat="60.8645055518" lon="8.29444999354">
		<tag k="name" v="Storebotn" />
		<tag k="natural" v="valley" />
		<tag k="place" v="locality" />
		<tag k="ssr:stedsnr" v="372588" />
	</node>
	<node id="-28151" lat="60.6381833378" lon="8.56839999101">
		<tag k="name" v="Sundreberget" />
		<tag k="natural" v="hill" />
		<tag k="place" v="locality" />
		<tag k="ssr:stedsnr" v="372000" />
	</node>
	<node id="-28149" lat="60.6504833331" lon="8.75837777138">
		<tag k="alt_name" v="Oksle;Øksle" />
		<tag k="name" v="Okslenuten" />
		<tag k="natural" v="hill" />
		<tag k="place" v="locality" />
		<tag k="ssr:stedsnr" v="371989" />
	</node>
	<node id="-28146" lat="60.5306805516" lon="8.3548444389">
		<tag k="fixme" v="consider natural=peak for the most distinct mountains in the district" />
		<tag k="name" v="Brennun" />
		<tag k="natural" v="hill" />
		<tag k="place" v="locality" />
		<tag k="ssr:stedsnr" v="371782" />
	</node>
	<node id="-28142" lat="60.610949997" lon="8.46419445352">
		<tag k="fixme" v="consider natural=peak for the most distinct mountains in the district" />
		<tag k="name" v="Bryllaupsnatten" />
		<tag k="natural" v="hill" />
		<tag k="place" v="locality" />
		<tag k="ssr:stedsnr" v="371688" />
	</node>
	<node id="-28133" lat="60.6561583365" lon="8.46862221733">
		<tag k="alt_name" v="Kløvhovdene;Kløvhovdun" />
		<tag k="loc_name" v="Klovhovda" />
		<tag k="name" v="Klovhovdun" />
		<tag k="natural" v="hill" />
		<tag k="place" v="locality" />
		<tag k="ssr:stedsnr" v="370981" />
	</node>
	<node id="-28116" lat="60.7297722204" lon="8.1286944456">
		<tag k="fixme" v="consider natural=peak for the most distinct mountains in the district" />
		<tag k="name" v="Karoshovda" />
		<tag k="natural" v="hill" />
		<tag k="place" v="locality" />
		<tag k="ssr:stedsnr" v="370497" />
	</node>
	<node id="-28115" lat="60.7374916656" lon="8.14770833871">
		<tag k="fixme" v="consider natural=peak for the most distinct mountains in the district" />
		<tag k="name" v="Skjenhovda" />
		<tag k="natural" v="hill" />
		<tag k="place" v="locality" />
		<tag k="ssr:stedsnr" v="370486" />
	</node>
	<node id="-28113" lat="60.5720916652" lon="8.66563610343">
		<tag k="alt_name" v="Buhovd" />
		<tag k="fixme" v="consider natural=peak for the most distinct mountains in the district" />
		<tag k="name" v="Buhovdnatten" />
		<tag k="natural" v="hill" />
		<tag k="place" v="locality" />
		<tag k="ssr:stedsnr" v="370037" />
	</node>
	<node id="-28112" lat="60.5712916663" lon="8.5989250039">
		<tag k="fixme" v="consider natural=peak for the most distinct mountains in the district" />
		<tag k="name" v="Nysetknippen" />
		<tag k="natural" v="hill" />
		<tag k="place" v="locality" />
		<tag k="ssr:stedsnr" v="370032" />
	</node>
	<node id="-28108" lat="60.5064027812" lon="8.35217778056">
		<tag k="name" v="Fyritjørnlii" />
		<tag k="natural" v="slope" />
		<tag k="place" v="locality" />
		<tag k="ssr:stedsnr" v="359835" />
	</node>
	<node id="-28107" lat="60.4945527779" lon="8.38379166298">
		<tag k="name" v="Halldalen" />
		<tag k="natural" v="valley" />
		<tag k="place" v="locality" />
		<tag k="ssr:stedsnr" v="359736" />
	</node>
	<node id="-28105" lat="60.6329277757" lon="8.69065277401">
		<tag k="alt_name" v="Rognerusti" />
		<tag k="name" v="Rogneruste" />
		<tag k="place" v="locality" />
		<tag k="ssr:stedsnr" v="359537" />
	</node>
	<node id="-28103" lat="60.7134277794" lon="8.37621666943">
		<tag k="name" v="Gyrihovda" />
		<tag k="natural" v="hill" />
		<tag k="place" v="locality" />
		<tag k="ssr:stedsnr" v="359423" />
	</node>
	<node id="-28102" lat="60.5094305567" lon="8.41795554927">
		<tag k="name" v="Hanklefekjan" />
		<tag k="old_name" v="Hanklefedt" />
		<tag k="place" v="locality" />
		<tag k="ssr:stedsnr" v="359343" />
	</node>
	<node id="-28101" lat="60.54051944" lon="8.53279999706">
		<tag k="name" v="Haustestølhovda" />
		<tag k="natural" v="hill" />
		<tag k="place" v="locality" />
		<tag k="ssr:stedsnr" v="359229" />
	</node>
	<node id="-28089" lat="60.6748527741" lon="8.72678333319">
		<tag k="name" v="Veslekamben" />
		<tag k="natural" v="hill" />
		<tag k="place" v="locality" />
		<tag k="ssr:stedsnr" v="344942" />
	</node>
	<node id="-28080" lat="60.6484111135" lon="8.40543611983">
		<tag k="name" v="Skotreberget" />
		<tag k="natural" v="hill" />
		<tag k="place" v="locality" />
		<tag k="ssr:stedsnr" v="344734" />
	</node>
	<node id="-28077" lat="60.742055555" lon="8.7169499989">
		<tag k="name" v="Dansarfeten" />
		<tag k="place" v="locality" />
		<tag k="ssr:stedsnr" v="344175" />
	</node>
	<node id="-28075" lat="60.7183583329" lon="8.52787221874">
		<tag k="name" v="Ragnhildhellan" />
		<tag k="natural" v="slope" />
		<tag k="place" v="locality" />
		<tag k="ssr:stedsnr" v="344085" />
	</node>
	<node id="-28071" lat="60.6050111153" lon="8.42004167499">
		<tag k="name" v="Bekkestadberget" />
		<tag k="natural" v="hill" />
		<tag k="place" v="locality" />
		<tag k="ssr:stedsnr" v="344830" />
	</node>
	<node id="-28069" lat="60.833053532" lon="7.96418794799">
		<tag k="fixme" v="multiple name tags, choose one and add the other to alt_name" />
		<tag k="name" v="Nordfjella;Skarvheimen" />
		<tag k="natural" v="mountain_range" />
		<tag k="ssr:stedsnr" v="324756" />
	</node>
	<node id="-28061" lat="60.8013194437" lon="8.0984888887">
		<tag k="fixme" v="consider natural=peak for the most distinct mountains in the district" />
		<tag k="loc_name" v="Gjøtenuten" />
		<tag k="name" v="Jøtenuten" />
		<tag k="natural" v="hill" />
		<tag k="place" v="locality" />
		<tag k="ssr:stedsnr" v="312893" />
	</node>
	<node id="-28059" lat="60.8563499998" lon="8.07836111317">
		<tag k="fixme" v="consider natural=peak for the most distinct mountains in the district" />
		<tag k="name" v="Storefjellet" />
		<tag k="natural" v="hill" />
		<tag k="place" v="locality" />
		<tag k="ssr:stedsnr" v="312697" />
	</node>
	<node id="-28057" lat="60.8143666673" lon="7.93579165924">
		<tag k="name" v="Storebotn" />
		<tag k="natural" v="valley" />
		<tag k="place" v="locality" />
		<tag k="ssr:stedsnr" v="312674" />
	</node>
	<node id="-28056" lat="60.8508500041" lon="8.16279444311">
		<tag k="name" v="Uksebotn" />
		<tag k="natural" v="valley" />
		<tag k="place" v="locality" />
		<tag k="ssr:stedsnr" v="312929" />
	</node>
	<node id="-28049" lat="60.8532861124" lon="7.84707499592">
		<tag k="alt_name" v="Haldalen, s" />
		<tag k="name" v="Søre Halldalen" />
		<tag k="natural" v="valley" />
		<tag k="place" v="locality" />
		<tag k="ssr:stedsnr" v="311698" />
	</node>
	<node id="-28045" lat="60.8801722211" lon="7.8415749931">
		<tag k="fixme" v="consider natural=peak for the most distinct mountains in the district" />
		<tag k="name" v="Flågrunnshøgdi" />
		<tag k="natural" v="hill" />
		<tag k="place" v="locality" />
		<tag k="ssr:stedsnr" v="311669" />
	</node>
	<node id="-28041" lat="60.6575027786" lon="8.75678333566">
		<tag k="alt_name" v="Bjørnaskaret" />
		<tag k="name" v="Bjørnaskardet" />
		<tag k="natural" v="valley" />
		<tag k="place" v="locality" />
		<tag k="ssr:stedsnr" v="310992" />
	</node>
	<node id="-28025" lat="60.54843889" lon="8.42508333598">
		<tag k="name" v="Sangenuten" />
		<tag k="natural" v="hill" />
		<tag k="place" v="locality" />
		<tag k="ssr:stedsnr" v="310730" />
	</node>
	<node id="-28022" lat="60.6718638896" lon="8.34936667368">
		<tag k="fixme" v="consider natural=peak for the most distinct mountains in the district" />
		<tag k="name" v="Galden" />
		<tag k="natural" v="hill" />
		<tag k="place" v="locality" />
		<tag k="ssr:stedsnr" v="310586" />
	</node>
	<node id="-28016" lat="60.7181138866" lon="8.17521666591">
		<tag k="name" v="Snuten" />
		<tag k="natural" v="hill" />
		<tag k="place" v="locality" />
		<tag k="ssr:stedsnr" v="310536" />
	</node>
	<node id="-28012" lat="60.5247416689" lon="8.59285277775">
		<tag k="fixme" v="consider natural=peak for the most distinct mountains in the district" />
		<tag k="name" v="Jøtehovda" />
		<tag k="natural" v="hill" />
		<tag k="place" v="locality" />
		<tag k="ssr:stedsnr" v="310208" />
	</node>
	<node id="-28008" lat="60.6173861101" lon="8.49353888793">
		<tag k="alt_name" v="Nasakammen" />
		<tag k="name" v="Nasakamben" />
		<tag k="natural" v="hill" />
		<tag k="place" v="locality" />
		<tag k="ssr:stedsnr" v="310085" />
	</node>
	<node id="-28004" lat="60.598752782" lon="8.54687499638">
		<tag k="loc_name" v="Medbrotet" />
		<tag k="name" v="Mebrotet" />
		<tag k="place" v="locality" />
		<tag k="ssr:stedsnr" v="310052" />
	</node>
	<node id="-28003" lat="60.5936527743" lon="8.76456666508">
		<tag k="alt_name" v="Storekvelve" />
		<tag k="name" v="Storekvelvi" />
		<tag k="natural" v="valley" />
		<tag k="place" v="locality" />
		<tag k="ssr:stedsnr" v="310038" />
	</node>
	<node id="-28001" lat="60.569936113" lon="8.70318611892">
		<tag k="fixme" v="consider natural=peak for the most distinct mountains in the district" />
		<tag k="name" v="Dyna" />
		<tag k="natural" v="hill" />
		<tag k="place" v="locality" />
		<tag k="ssr:stedsnr" v="310024" />
	</node>
	<node id="-28000" lat="60.5864250003" lon="8.71439999638">
		<tag k="name" v="Bispen" />
		<tag k="natural" v="hill" />
		<tag k="place" v="locality" />
		<tag k="ssr:stedsnr" v="310018" />
	</node>
	<node id="-27996" lat="60.7040138908" lon="8.55532499797">
		<tag k="alt_name" v="Kinnhovdene" />
		<tag k="name" v="Kinnhovdun" />
		<tag k="natural" v="hill" />
		<tag k="place" v="locality" />
		<tag k="ssr:stedsnr" v="309849" />
	</node>
	<node id="-27995" lat="60.711047226" lon="8.69475832855">
		<tag k="alt_name" v="Ringhovdene" />
		<tag k="name" v="Ringhovdun" />
		<tag k="natural" v="hill" />
		<tag k="place" v="locality" />
		<tag k="ssr:stedsnr" v="309847" />
	</node>
	<node id="-27990" lat="60.71253611" lon="8.67658055367">
		<tag k="name" v="Høgehaug" />
		<tag k="natural" v="hill" />
		<tag k="place" v="locality" />
		<tag k="ssr:stedsnr" v="309834" />
	</node>
	<node id="-27983" lat="60.7320166658" lon="8.45968332461">
		<tag k="fixme" v="consider natural=peak for the most distinct mountains in the district" />
		<tag k="name" v="Raunehovda" />
		<tag k="natural" v="hill" />
		<tag k="place" v="locality" />
		<tag k="ssr:stedsnr" v="309496" />
	</node>
	<node id="-27974" lat="60.646169448" lon="8.56283333443">
		<tag k="alt_name" v="Vardseggen" />
		<tag k="name" v="Vardseggi" />
		<tag k="natural" v="ridge" />
		<tag k="place" v="locality" />
		<tag k="ssr:stedsnr" v="202935" />
	</node>
	<node id="-27971" lat="60.8115111069" lon="8.10263056313">
		<tag k="fixme" v="consider natural=peak for the most distinct mountains in the district" />
		<tag k="name" v="Tunga" />
		<tag k="natural" v="hill" />
		<tag k="place" v="locality" />
		<tag k="ssr:stedsnr" v="191858" />
	</node>
	<node id="-27970" lat="60.8196999995" lon="8.06620000141">
		<tag k="name" v="Veslegjenget" />
		<tag k="natural" v="slope" />
		<tag k="place" v="locality" />
		<tag k="ssr:stedsnr" v="191694" />
	</node>
	<node id="-27967" lat="60.754336111" lon="8.42664999856">
		<tag k="name" v="Veslebrea" />
		<tag k="natural" v="hill" />
		<tag k="place" v="locality" />
		<tag k="ssr:stedsnr" v="190993" />
	</node>
	<node id="-27966" lat="60.8640583303" lon="8.00791666385">
		<tag k="name" v="Mjolgedalen" />
		<tag k="natural" v="valley" />
		<tag k="place" v="locality" />
		<tag k="ssr:stedsnr" v="190666" />
	</node>
	<node id="-27962" lat="60.5441722246" lon="8.70559166524">
		<tag k="fixme" v="consider natural=peak for the most distinct mountains in the district" />
		<tag k="name" v="Skurvenatten" />
		<tag k="natural" v="hill" />
		<tag k="place" v="locality" />
		<tag k="ssr:stedsnr" v="189889" />
	</node>
	<node id="-27955" lat="60.7445861147" lon="8.42047778418">
		<tag k="fixme" v="consider natural=peak for the most distinct mountains in the district" />
		<tag k="name" v="Hengshovda" />
		<tag k="natural" v="hill" />
		<tag k="place" v="locality" />
		<tag k="ssr:stedsnr" v="189427" />
	</node>
	<node id="-27951" lat="60.5059111109" lon="8.53311111177">
		<tag k="fixme" v="consider natural=peak for the most distinct mountains in the district" />
		<tag k="name" v="Mosehovda" />
		<tag k="natural" v="hill" />
		<tag k="place" v="locality" />
		<tag k="ssr:stedsnr" v="189187" />
	</node>
	<node id="-27950" lat="60.6260277783" lon="8.5817527749">
		<tag k="name" v="Sundrelii" />
		<tag k="natural" v="slope" />
		<tag k="place" v="locality" />
		<tag k="ssr:stedsnr" v="189094" />
	</node>
	<node id="-27949" lat="60.61792222" lon="8.48114443719">
		<tag k="fixme" v="consider natural=peak for the most distinct mountains in the district" />
		<tag k="name" v="Orreleikhovda" />
		<tag k="natural" v="hill" />
		<tag k="place" v="locality" />
		<tag k="ssr:stedsnr" v="189074" />
	</node>
	<node id="-27947" lat="60.6115611124" lon="8.75787777857">
		<tag k="fixme" v="consider natural=peak for the most distinct mountains in the district" />
		<tag k="name" v="Kreklinghovda" />
		<tag k="natural" v="hill" />
		<tag k="place" v="locality" />
		<tag k="ssr:stedsnr" v="189067" />
	</node>
	<node id="-27945" lat="60.610005553" lon="8.59915833444">
		<tag k="alt_name" v="Hovdene" />
		<tag k="fixme" v="consider natural=peak for the most distinct mountains in the district" />
		<tag k="name" v="Hovdun" />
		<tag k="natural" v="hill" />
		<tag k="place" v="locality" />
		<tag k="ssr:stedsnr" v="189057" />
	</node>
	<node id="-27936" lat="60.6736250034" lon="8.48808055353">
		<tag k="name" v="Lauvhaugen" />
		<tag k="natural" v="hill" />
		<tag k="place" v="locality" />
		<tag k="ssr:stedsnr" v="188932" />
	</node>
	<node id="-27931" lat="60.7251472258" lon="8.51363889139">
		<tag k="name" v="Storhovda" />
		<tag k="natural" v="hill" />
		<tag k="place" v="locality" />
		<tag k="ssr:stedsnr" v="188841" />
	</node>
	<node id="-27926" lat="60.5576972223" lon="8.56010556399">
		<tag k="name" v="Smålihovda" />
		<tag k="natural" v="hill" />
		<tag k="place" v="locality" />
		<tag k="ssr:stedsnr" v="179892" />
	</node>
	<node id="-27925" lat="60.5829972258" lon="8.65802221498">
		<tag k="name" v="Svarthamarlie" />
		<tag k="natural" v="slope" />
		<tag k="place" v="locality" />
		<tag k="ssr:stedsnr" v="179037" />
	</node>
	<node id="-27924" lat="60.5381666704" lon="8.58187777447">
		<tag k="name" v="Flæin" />
		<tag k="place" v="locality" />
		<tag k="ssr:stedsnr" v="178916" />
	</node>
	<node id="-27923" lat="60.5758805517" lon="8.44045278338">
		<tag k="name" v="Fuglemyre" />
		<tag k="place" v="locality" />
		<tag k="ssr:stedsnr" v="178739" />
	</node>
	<node id="-27921" lat="60.524791663" lon="8.6093944426">
		<tag k="fixme" v="consider natural=peak for the most distinct mountains in the district" />
		<tag k="name" v="Øvre Brendhaugen" />
		<tag k="natural" v="hill" />
		<tag k="place" v="locality" />
		<tag k="ssr:stedsnr" v="177791" />
	</node>
	<node id="-27918" lat="60.8232305591" lon="8.06670000177">
		<tag k="alt_name" v="Fjellanbergi;Fjell-lein-bergi" />
		<tag k="fixme" v="consider natural=peak for the most distinct mountains in the district" />
		<tag k="name" v="Fjelleinbergi" />
		<tag k="natural" v="hill" />
		<tag k="place" v="locality" />
		<tag k="ssr:stedsnr" v="174787" />
	</node>
	<node id="-27915" lat="60.7247694436" lon="8.54095833018">
		<tag k="name" v="Bleste" />
		<tag k="natural" v="hill" />
		<tag k="place" v="locality" />
		<tag k="ssr:stedsnr" v="174021" />
	</node>
	<node id="-27914" lat="60.6342944368" lon="8.71023573073">
		<tag k="alt_name" v="Øksleberget" />
		<tag k="fixme" v="consider natural=peak for the most distinct mountains in the district" />
		<tag k="name" v="Oksleberget" />
		<tag k="natural" v="hill" />
		<tag k="place" v="locality" />
		<tag k="ssr:stedsnr" v="173728" />
	</node>
	<node id="-27905" lat="60.593774999" lon="8.42369445092">
		<tag k="name" v="Lykkjaskaret" />
		<tag k="natural" v="valley" />
		<tag k="place" v="locality" />
		<tag k="ssr:stedsnr" v="162830" />
	</node>
	<node id="-27903" lat="60.7167583353" lon="8.2827222162">
		<tag k="name" v="Karihellan" />
		<tag k="natural" v="slope" />
		<tag k="place" v="locality" />
		<tag k="ssr:stedsnr" v="162887" />
	</node>
	<node id="-27901" lat="60.6841555562" lon="8.50451943834">
		<tag k="name" v="Krusenatten" />
		<tag k="natural" v="hill" />
		<tag k="place" v="locality" />
		<tag k="ssr:stedsnr" v="162771" />
	</node>
	<node id="-27895" lat="60.6789583321" lon="8.77122777682">
		<tag k="name" v="Grønebakken" />
		<tag k="natural" v="slope" />
		<tag k="place" v="locality" />
		<tag k="ssr:stedsnr" v="162299" />
	</node>
	<node id="-27894" lat="60.6473027796" lon="8.42045277468">
		<tag k="name" v="Maristøldalen" />
		<tag k="natural" v="valley" />
		<tag k="place" v="locality" />
		<tag k="ssr:stedsnr" v="162742" />
	</node>
	<node id="-27892" lat="60.7502361137" lon="8.44061110367">
		<tag k="name" v="Skugglehovda" />
		<tag k="natural" v="hill" />
		<tag k="place" v="locality" />
		<tag k="ssr:stedsnr" v="162041" />
	</node>
	<node id="-27890" lat="60.8582044094" lon="7.8713068329">
		<tag k="alt_name" v="Haldalen" />
		<tag k="name" v="Halldalen" />
		<tag k="natural" v="valley" />
		<tag k="place" v="locality" />
		<tag k="ssr:stedsnr" v="161236" />
	</node>
	<node id="-27877" lat="60.8108750035" lon="8.22510277614">
		<tag k="name" v="Langehaugbotn" />
		<tag k="natural" v="valley" />
		<tag k="place" v="locality" />
		<tag k="ssr:stedsnr" v="130900" />
	</node>
	<node id="-27874" lat="60.8222944428" lon="8.25745000848">
		<tag k="fixme" v="consider natural=peak for the most distinct mountains in the district" />
		<tag k="name" v="Blånuten" />
		<tag k="natural" v="hill" />
		<tag k="place" v="locality" />
		<tag k="ssr:stedsnr" v="130878" />
	</node>
	<node id="-27871" lat="60.8205749974" lon="7.97425555098">
		<tag k="fixme" v="consider natural=peak for the most distinct mountains in the district" />
		<tag k="name" v="Toviknuten" />
		<tag k="natural" v="hill" />
		<tag k="place" v="locality" />
		<tag k="ssr:stedsnr" v="130693" />
	</node>
	<node id="-27870" lat="60.8102666701" lon="8.07856665817">
		<tag k="name" v="Såteskardet" />
		<tag k="natural" v="valley" />
		<tag k="place" v="locality" />
		<tag k="ssr:stedsnr" v="130662" />
	</node>
	<node id="-27869" lat="60.7568499996" lon="8.21574999616">
		<tag k="name" v="Eitrejuvet" />
		<tag k="natural" v="valley" />
		<tag k="place" v="locality" />
		<tag k="ssr:stedsnr" v="129996" />
	</node>
	<node id="-27865" lat="60.7852277756" lon="8.42106110197">
		<tag k="fixme" v="consider natural=peak for the most distinct mountains in the district" />
		<tag k="name" v="Nørdre Skorve" />
		<tag k="natural" v="hill" />
		<tag k="place" v="locality" />
		<tag k="ssr:stedsnr" v="129887" />
	</node>
	<node id="-27864" lat="60.7825305559" lon="8.1607944436">
		<tag k="fixme" v="consider natural=peak for the most distinct mountains in the district" />
		<tag k="name" v="Reineskarvet" />
		<tag k="natural" v="hill" />
		<tag k="old_name" v="Reen Fjeld" />
		<tag k="place" v="locality" />
		<tag k="ssr:stedsnr" v="129885" />
	</node>
	<node id="-27862" lat="60.8409083315" lon="8.06791388591">
		<tag k="fixme" v="consider natural=peak for the most distinct mountains in the district" />
		<tag k="name" v="Venehallsnuten" />
		<tag k="natural" v="hill" />
		<tag k="place" v="locality" />
		<tag k="ssr:stedsnr" v="129745" />
	</node>
	<node id="-27861" lat="60.8644000001" lon="8.2026527852">
		<tag k="name" v="Dyrebotn" />
		<tag k="natural" v="valley" />
		<tag k="place" v="locality" />
		<tag k="ssr:stedsnr" v="129573" />
	</node>
	<node id="-27858" lat="60.8691833365" lon="7.93376667178">
		<tag k="name" v="Svartebergi" />
		<tag k="natural" v="hill" />
		<tag k="place" v="locality" />
		<tag k="ssr:stedsnr" v="129639" />
	</node>
	<node id="-27857" lat="60.8627416658" lon="7.93309999382">
		<tag k="name" v="Trollbotn" />
		<tag k="natural" v="valley" />
		<tag k="place" v="locality" />
		<tag k="ssr:stedsnr" v="129635" />
	</node>
	<node id="-27844" lat="60.5401277743" lon="8.70599443848">
		<tag k="name" v="Smalevasslie" />
		<tag k="natural" v="slope" />
		<tag k="place" v="locality" />
		<tag k="ssr:stedsnr" v="128190" />
	</node>
	<node id="-27840" lat="60.6426444408" lon="8.72227777561">
		<tag k="name" v="Ridalsbergi" />
		<tag k="natural" v="hill" />
		<tag k="place" v="locality" />
		<tag k="ssr:stedsnr" v="128082" />
	</node>
	<node id="-27839" lat="60.6346611136" lon="8.78762777691">
		<tag k="name" v="Stallane" />
		<tag k="natural" v="slope" />
		<tag k="place" v="locality" />
		<tag k="ssr:stedsnr" v="128071" />
	</node>
	<node id="-27827" lat="60.7114888916" lon="8.75170277491">
		<tag k="alt_name" v="Olshovdane" />
		<tag k="loc_name" v="Olshovdun" />
		<tag k="name" v="Olshovdene" />
		<tag k="natural" v="hill" />
		<tag k="place" v="locality" />
		<tag k="ssr:stedsnr" v="127887" />
	</node>
	<node id="-27820" lat="60.5588805513" lon="8.39818055813">
		<tag k="name" v="Bjørnehiet" />
		<tag k="place" v="locality" />
		<tag k="ssr:stedsnr" v="119925" />
	</node>
	<node id="-27815" lat="60.7155611094" lon="8.23964444088">
		<tag k="name" v="Hjallanhovda" />
		<tag k="natural" v="hill" />
		<tag k="place" v="locality" />
		<tag k="ssr:stedsnr" v="117299" />
	</node>
	<node id="-27814" lat="60.7202416689" lon="8.23235000148">
		<tag k="name" v="Storehovda" />
		<tag k="natural" v="hill" />
		<tag k="place" v="locality" />
		<tag k="ssr:stedsnr" v="117294" />
	</node>
	<node id="-27811" lat="60.7097250005" lon="8.35474166489">
		<tag k="name" v="Klype" />
		<tag k="natural" v="valley" />
		<tag k="place" v="locality" />
		<tag k="ssr:stedsnr" v="116377" />
	</node>
	<node id="-27810" lat="60.7352861073" lon="8.72201389417">
		<tag k="name" v="Køyrehovda" />
		<tag k="natural" v="hill" />
		<tag k="place" v="locality" />
		<tag k="ssr:stedsnr" v="116162" />
	</node>
	<node id="-27805" lat="60.7007249981" lon="8.5822055468">
		<tag k="name" v="Høgehaugen" />
		<tag k="natural" v="hill" />
		<tag k="place" v="locality" />
		<tag k="ssr:stedsnr" v="102781" />
	</node>
	<node id="-27804" lat="60.7137833325" lon="8.59218610272">
		<tag k="name" v="Skarveslettet" />
		<tag k="place" v="locality" />
		<tag k="ssr:stedsnr" v="102779" />
	</node>
	<node id="-27800" lat="60.7163305557" lon="8.30728888392">
		<tag k="name" v="Heimhovdun" />
		<tag k="natural" v="hill" />
		<tag k="place" v="locality" />
		<tag k="ssr:stedsnr" v="101945" />
	</node>
	<node id="-27793" lat="60.68773056" lon="8.30489999567">
		<tag k="name" v="Geitepeisen" />
		<tag k="natural" v="valley" />
		<tag k="place" v="locality" />
		<tag k="ssr:stedsnr" v="101699" />
	</node>
	<node id="-27792" lat="60.6125166653" lon="8.45035833274">
		<tag k="alt_name" v="Skardåsen" />
		<tag k="fixme" v="consider natural=peak for the most distinct mountains in the district" />
		<tag k="name" v="Skaråsen" />
		<tag k="natural" v="hill" />
		<tag k="old_name" v="Skaraasen" />
		<tag k="place" v="locality" />
		<tag k="ssr:stedsnr" v="101645" />
	</node>
	<node id="-27791" lat="60.6888166661" lon="8.30830278546">
		<tag k="name" v="Kulteberget" />
		<tag k="natural" v="hill" />
		<tag k="place" v="locality" />
		<tag k="ssr:stedsnr" v="101578" />
	</node>
	<node id="-27788" lat="60.7426583371" lon="8.70588332637">
		<tag k="name" v="Rundehaug" />
		<tag k="natural" v="hill" />
		<tag k="place" v="locality" />
		<tag k="ssr:stedsnr" v="101150" />
	</node>
	<node id="-27787" lat="60.7497944488" lon="8.7176694373">
		<tag k="name" v="Langehaug" />
		<tag k="natural" v="hill" />
		<tag k="place" v="locality" />
		<tag k="ssr:stedsnr" v="101148" />
	</node>
	<node id="-27785" lat="60.7244972183" lon="8.44949167417">
		<tag k="name" v="Venehovda" />
		<tag k="natural" v="hill" />
		<tag k="place" v="locality" />
		<tag k="ssr:stedsnr" v="101056" />
	</node>
	<node id="-27784" lat="60.7469416686" lon="8.46902777953">
		<tag k="name" v="Jordbruberget" />
		<tag k="natural" v="hill" />
		<tag k="place" v="locality" />
		<tag k="ssr:stedsnr" v="101039" />
	</node>
	<node id="-27779" lat="60.6121833317" lon="8.55410277217">
		<tag k="name" v="Sandbakken" />
		<tag k="natural" v="slope" />
		<tag k="place" v="locality" />
		<tag k="ssr:stedsnr" v="81733" />
	</node>
	<node id="-27776" lat="60.6583472184" lon="8.76157778389">
		<tag k="name" v="Natten" />
		<tag k="natural" v="hill" />
		<tag k="place" v="locality" />
		<tag k="ssr:stedsnr" v="81676" />
	</node>
	<node id="-27772" lat="60.7827555559" lon="8.38603056139">
		<tag k="fixme" v="consider natural=peak for the most distinct mountains in the district" />
		<tag k="name" v="Vermenuten" />
		<tag k="natural" v="hill" />
		<tag k="place" v="locality" />
		<tag k="ssr:stedsnr" v="69899" />
	</node>
	<node id="-27771" lat="60.7949527746" lon="8.25207500641">
		<tag k="name" v="Hestebotn" />
		<tag k="natural" v="valley" />
		<tag k="place" v="locality" />
		<tag k="ssr:stedsnr" v="69894" />
	</node>
	<node id="-27770" lat="60.796430552" lon="8.40968889121">
		<tag k="fixme" v="consider natural=peak for the most distinct mountains in the district" />
		<tag k="name" v="Nonshovda" />
		<tag k="natural" v="hill" />
		<tag k="place" v="locality" />
		<tag k="ssr:stedsnr" v="69888" />
	</node>
	<node id="-27769" lat="60.8242194475" lon="8.02532777183">
		<tag k="name" v="Veslebotnen" />
		<tag k="natural" v="valley" />
		<tag k="place" v="locality" />
		<tag k="ssr:stedsnr" v="69771" />
	</node>
	<node id="-27768" lat="60.8239416662" lon="8.0349777802">
		<tag k="name" v="Djupsgjenget" />
		<tag k="natural" v="slope" />
		<tag k="place" v="locality" />
		<tag k="ssr:stedsnr" v="69770" />
	</node>
	<node id="-27767" lat="60.8225611085" lon="8.01317499629">
		<tag k="fixme" v="consider natural=peak for the most distinct mountains in the district" />
		<tag k="name" v="Djupsnuten" />
		<tag k="natural" v="hill" />
		<tag k="place" v="locality" />
		<tag k="ssr:stedsnr" v="69769" />
	</node>
	<node id="-27766" lat="60.894749998" lon="7.84859999498">
		<tag k="name" v="Djupeskard" />
		<tag k="natural" v="valley" />
		<tag k="place" v="locality" />
		<tag k="ssr:stedsnr" v="69667" />
	</node>
	<node id="-27765" lat="60.8036750025" lon="8.54517499098">
		<tag k="fixme" v="consider natural=peak for the most distinct mountains in the district" />
		<tag k="name" v="Såta" />
		<tag k="natural" v="hill" />
		<tag k="old_name" v="Værsjøfjeld" />
		<tag k="place" v="locality" />
		<tag k="ssr:stedsnr" v="69245" />
	</node>
	<node id="-27761" lat="60.5200527786" lon="8.43382499508">
		<tag k="fixme" v="consider natural=peak for the most distinct mountains in the district" />
		<tag k="name" v="Teinhovda" />
		<tag k="natural" v="hill" />
		<tag k="place" v="locality" />
		<tag k="ssr:stedsnr" v="68782" />
	</node>
	<node id="-27759" lat="60.6728333327" lon="8.44944167344">
		<tag k="fixme" v="consider natural=peak for the most distinct mountains in the district" />
		<tag k="name" v="Buhovda" />
		<tag k="natural" v="hill" />
		<tag k="place" v="locality" />
		<tag k="ssr:stedsnr" v="68597" />
	</node>
	<node id="-27758" lat="60.6609083331" lon="8.46470000025">
		<tag k="fixme" v="consider natural=peak for the most distinct mountains in the district" />
		<tag k="name" v="Pigghovda" />
		<tag k="natural" v="hill" />
		<tag k="place" v="locality" />
		<tag k="ssr:stedsnr" v="68584" />
	</node>
	<node id="-27756" lat="60.607480556" lon="8.73663055844">
		<tag k="name" v="Storeberg" />
		<tag k="natural" v="hill" />
		<tag k="place" v="locality" />
		<tag k="ssr:stedsnr" v="68071" />
	</node>
	<node id="-27753" lat="60.6032638891" lon="8.51431944835">
		<tag k="name" v="Strandalii" />
		<tag k="natural" v="slope" />
		<tag k="place" v="locality" />
		<tag k="ssr:stedsnr" v="68043" />
	</node>
	<node id="-27752" lat="60.5956166692" lon="8.57304166306">
		<tag k="name" v="Krunehaugen" />
		<tag k="natural" v="hill" />
		<tag k="place" v="locality" />
		<tag k="ssr:stedsnr" v="68027" />
	</node>
	<node id="-27749" lat="60.6736083311" lon="8.72364444056">
		<tag k="alt_name" v="Rikansrudkammen" />
		<tag k="name" v="Rikansrudkamben" />
		<tag k="natural" v="hill" />
		<tag k="place" v="locality" />
		<tag k="ssr:stedsnr" v="67955" />
	</node>
	<node id="-27748" lat="60.7491750018" lon="8.47394166558">
		<tag k="name" v="Jomfruberget" />
		<tag k="natural" v="hill" />
		<tag k="place" v="locality" />
		<tag k="ssr:stedsnr" v="67789" />
	</node>
	<node id="-27747" lat="60.5016944413" lon="8.40348055499">
		<tag k="fixme" v="consider natural=peak for the most distinct mountains in the district" />
		<tag k="name" v="Berghovda" />
		<tag k="natural" v="hill" />
		<tag k="place" v="locality" />
		<tag k="ssr:stedsnr" v="67787" />
	</node>
	<node id="-27740" lat="60.7246722205" lon="8.35986666489">
		<tag k="alt_name" v="Hesthovd" />
		<tag k="fixme" v="consider natural=peak for the most distinct mountains in the district" />
		<tag k="name" v="Hesthovda" />
		<tag k="natural" v="hill" />
		<tag k="place" v="locality" />
		<tag k="ssr:stedsnr" v="67562" />
	</node>
	<node id="-27737" lat="60.7230194424" lon="8.30348055969">
		<tag k="fixme" v="consider natural=peak for the most distinct mountains in the district" />
		<tag k="name" v="Bratteleinhovda" />
		<tag k="natural" v="hill" />
		<tag k="place" v="locality" />
		<tag k="ssr:stedsnr" v="67495" />
	</node>
	<node id="-27725" lat="60.7311888885" lon="8.30700555675">
		<tag k="name" v="Blånatten" />
		<tag k="natural" v="hill" />
		<tag k="place" v="locality" />
		<tag k="ssr:stedsnr" v="56884" />
	</node>
	<node id="-26633" lat="60.5000166683" lon="8.52549999418">
		<tag k="fixme" v="consider natural=peak for the most distinct mountains in the district" />
		<tag k="name" v="Grefsgardnatten" />
		<tag k="natural" v="hill" />
		<tag k="place" v="locality" />
		<tag k="ssr:stedsnr" v="66039" />
	</node>
	<node id="-27719" lat="60.7011944459" lon="8.36747777851">
		<tag k="name" v="Halvornatten" />
		<tag k="natural" v="hill" />
		<tag k="place" v="locality" />
		<tag k="ssr:stedsnr" v="56441" />
	</node>
	<node id="-27718" lat="60.6980694401" lon="8.35230000006">
		<tag k="name" v="Storemyrhaugen" />
		<tag k="natural" v="hill" />
		<tag k="place" v="locality" />
		<tag k="ssr:stedsnr" v="56440" />
	</node>
	<node id="-27714" lat="60.6566361153" lon="8.70063054963">
		<tag k="alt_name" v="Kløvberghaugen" />
		<tag k="name" v="Klovberghaugen" />
		<tag k="natural" v="hill" />
		<tag k="place" v="locality" />
		<tag k="ssr:stedsnr" v="52988" />
	</node>
	<node id="-27706" lat="60.6625027781" lon="8.38805000786">
		<tag k="name" v="Brekkedalen" />
		<tag k="natural" v="valley" />
		<tag k="place" v="locality" />
		<tag k="ssr:stedsnr" v="41597" />
	</node>
	<node id="-27705" lat="60.6739916688" lon="8.25792222135">
		<tag k="name" v="Skitvalken" />
		<tag k="natural" v="hill" />
		<tag k="place" v="locality" />
		<tag k="ssr:stedsnr" v="41329" />
	</node>
	<node id="-27703" lat="60.7116027768" lon="8.39523610678">
		<tag k="name" v="Grønli" />
		<tag k="natural" v="slope" />
		<tag k="place" v="locality" />
		<tag k="ssr:stedsnr" v="41127" />
	</node>
	<node id="-27702" lat="60.7463916657" lon="8.43370833152">
		<tag k="name" v="Hamaren" />
		<tag k="place" v="locality" />
		<tag k="ssr:stedsnr" v="41021" />
	</node>
	<node id="-27701" lat="60.7418749979" lon="8.28680277058">
		<tag k="name" v="Rupebærhovda" />
		<tag k="natural" v="hill" />
		<tag k="place" v="locality" />
		<tag k="ssr:stedsnr" v="40930" />
	</node>
	<node id="-27698" lat="60.7778194403" lon="8.09494722689">
		<tag k="name" v="Grasjuve" />
		<tag k="place" v="locality" />
		<tag k="ssr:stedsnr" v="40486" />
	</node>
	<node id="-27694" lat="60.5981555544" lon="8.7295472304">
		<tag k="name" v="Syningen" />
		<tag k="natural" v="hill" />
		<tag k="place" v="locality" />
		<tag k="ssr:stedsnr" v="39145" />
	</node>
	<node id="-27693" lat="60.6329477496" lon="8.5070893703">
		<tag k="name" v="Høgehaug" />
		<tag k="natural" v="hill" />
		<tag k="place" v="locality" />
		<tag k="ssr:stedsnr" v="21742" />
	</node>
	<node id="-27692" lat="60.6428194401" lon="8.55060832667">
		<tag k="fixme" v="consider natural=peak for the most distinct mountains in the district" />
		<tag k="name" v="Varabergnatten" />
		<tag k="natural" v="hill" />
		<tag k="place" v="locality" />
		<tag k="ssr:stedsnr" v="21737" />
	</node>
	<node id="-27689" lat="60.6485527779" lon="8.56697777895">
		<tag k="name" v="Tuftin" />
		<tag k="natural" v="slope" />
		<tag k="place" v="locality" />
		<tag k="ssr:stedsnr" v="20933" />
	</node>
	<node id="-27686" lat="60.8240055565" lon="8.34085278154">
		<tag k="fixme" v="consider natural=peak for the most distinct mountains in the district" />
		<tag k="name" v="Veslebeihovda" />
		<tag k="natural" v="hill" />
		<tag k="place" v="locality" />
		<tag k="ssr:stedsnr" v="9880" />
	</node>
	<node id="-27685" lat="60.8151305591" lon="8.1658249922">
		<tag k="name" v="Veslebotn" />
		<tag k="natural" v="valley" />
		<tag k="place" v="locality" />
		<tag k="ssr:stedsnr" v="9878" />
	</node>
	<node id="-27684" lat="60.8108361154" lon="8.21040833555">
		<tag k="fixme" v="consider natural=peak for the most distinct mountains in the district" />
		<tag k="name" v="Gyrinostinden" />
		<tag k="natural" v="hill" />
		<tag k="place" v="locality" />
		<tag k="ssr:stedsnr" v="9876" />
	</node>
	<node id="-27682" lat="60.8142805582" lon="8.06422500788">
		<tag k="name" v="Djupsbotn" />
		<tag k="natural" v="valley" />
		<tag k="place" v="locality" />
		<tag k="ssr:stedsnr" v="9700" />
	</node>
	<node id="-27678" lat="60.7733305563" lon="8.43326666975">
		<tag k="fixme" v="consider natural=peak for the most distinct mountains in the district" />
		<tag k="name" v="Blåbergi" />
		<tag k="natural" v="hill" />
		<tag k="place" v="locality" />
		<tag k="ssr:stedsnr" v="8889" />
	</node>
	<node id="-27677" lat="60.7787194475" lon="8.42079444529">
		<tag k="fixme" v="consider natural=peak for the most distinct mountains in the district" />
		<tag k="name" v="Fossebrea" />
		<tag k="natural" v="hill" />
		<tag k="place" v="locality" />
		<tag k="ssr:stedsnr" v="8887" />
	</node>
	<node id="-27675" lat="60.7541555548" lon="8.16557500646">
		<tag k="name" v="Hovda" />
		<tag k="natural" v="hill" />
		<tag k="place" v="locality" />
		<tag k="ssr:stedsnr" v="8991" />
	</node>
	<node id="-27673" lat="60.8239277819" lon="7.97743889793">
		<tag k="name" v="Klevaskardet" />
		<tag k="natural" v="valley" />
		<tag k="place" v="locality" />
		<tag k="ssr:stedsnr" v="8776" />
	</node>
	<node id="-27672" lat="60.6475638865" lon="8.51130833924">
		<tag k="fixme" v="consider natural=peak for the most distinct mountains in the district" />
		<tag k="name" v="Fuglehovda" />
		<tag k="natural" v="hill" />
		<tag k="place" v="locality" />
		<tag k="ssr:stedsnr" v="7999" />
	</node>
	<node id="-27661" lat="60.702797224" lon="8.28656667408">
		<tag k="fixme" v="consider natural=peak for the most distinct mountains in the district" />
		<tag k="name" v="Vardehovda" />
		<tag k="natural" v="hill" />
		<tag k="place" v="locality" />
		<tag k="ssr:stedsnr" v="7488" />
	</node>
	<node id="-27656" lat="60.5207694476" lon="8.67658611218">
		<tag k="alt_name" v="Hestehallin" />
		<tag k="name" v="Hestehallene" />
		<tag k="natural" v="slope" />
		<tag k="place" v="locality" />
		<tag k="ssr:stedsnr" v="7215" />
	</node>
	<node id="-27655" lat="60.5078611129" lon="8.57829721661">
		<tag k="fixme" v="consider natural=peak for the most distinct mountains in the district" />
		<tag k="name" v="Sundshovda" />
		<tag k="natural" v="hill" />
		<tag k="place" v="locality" />
		<tag k="ssr:stedsnr" v="7206" />
	</node>
	<node id="-27651" lat="60.625177774" lon="8.59277499217">
		<tag k="alt_name" v="Skruvedalshøi;Skruvedalshovda;Skruvedalshøgda" />
		<tag k="name" v="Skruvedalshøgde" />
		<tag k="natural" v="hill" />
		<tag k="place" v="locality" />
		<tag k="ssr:stedsnr" v="7118" />
	</node>
	<node id="-27648" lat="60.6282250039" lon="8.75526388218">
		<tag k="fixme" v="consider natural=peak for the most distinct mountains in the district" />
		<tag k="name" v="Reshovda" />
		<tag k="natural" v="hill" />
		<tag k="place" v="locality" />
		<tag k="ssr:stedsnr" v="7091" />
	</node>
	<node id="-27644" lat="60.602166669" lon="8.53851945338">
		<tag k="name" v="Grøthovda" />
		<tag k="natural" v="hill" />
		<tag k="place" v="locality" />
		<tag k="ssr:stedsnr" v="7056" />
	</node>
	<node id="-27642" lat="60.7032888877" lon="8.71833333075">
		<tag k="name" v="Mangsethovda" />
		<tag k="natural" v="hill" />
		<tag k="place" v="locality" />
		<tag k="ssr:stedsnr" v="6881" />
	</node>
	<node id="-27638" lat="60.7256333337" lon="8.24127500815">
		<tag k="fixme" v="consider natural=peak for the most distinct mountains in the district" />
		<tag k="name" v="Langhovda" />
		<tag k="natural" v="hill" />
		<tag k="place" v="locality" />
		<tag k="ssr:stedsnr" v="6505" />
	</node>
	<node id="-27635" lat="60.7419722248" lon="8.20319999917">
		<tag k="fixme" v="consider natural=peak for the most distinct mountains in the district" />
		<tag k="name" v="Nonshovda" />
		<tag k="natural" v="hill" />
		<tag k="place" v="locality" />
		<tag k="ssr:stedsnr" v="6475" />
	</node>
	<node id="-27633" lat="60.6345027816" lon="8.71043054961">
		<tag k="fixme" v="consider natural=peak for the most distinct mountains in the district" />
		<tag k="name" v="Geiteryggen" />
		<tag k="natural" v="hill" />
		<tag k="place" v="locality" />
		<tag k="ssr:stedsnr" v="6116" />
	</node>
	<node id="-27630" lat="60.5698555566" lon="8.41693055639">
		<tag k="name" v="Leirkulen" />
		<tag k="natural" v="hill" />
		<tag k="place" v="locality" />
		<tag k="ssr:stedsnr" v="966512" />
	</node>
	<node id="-27629" lat="60.7195805565" lon="8.2142194452">
		<tag k="alt_name" v="Kleivehovda, Søndre" />
		<tag k="name" v="Søre Kleivehovda" />
		<tag k="natural" v="hill" />
		<tag k="place" v="locality" />
		<tag k="ssr:stedsnr" v="966253" />
	</node>
	<node id="-27618" lat="60.6167055574" lon="8.47290554748">
		<tag k="name" v="Eggi" />
		<tag k="natural" v="ridge" />
		<tag k="place" v="locality" />
		<tag k="ssr:stedsnr" v="951523" />
	</node>
	<node id="-27616" lat="60.7553333324" lon="8.54956945139">
		<tag k="name" v="Veghovda" />
		<tag k="natural" v="hill" />
		<tag k="place" v="locality" />
		<tag k="ssr:stedsnr" v="951138" />
	</node>
	<node id="-27615" lat="60.7488999976" lon="8.44063612027">
		<tag k="name" v="Rupebærhovda" />
		<tag k="natural" v="hill" />
		<tag k="place" v="locality" />
		<tag k="ssr:stedsnr" v="951049" />
	</node>
	<node id="-27606" lat="60.8523666705" lon="8.02523055919">
		<tag k="fixme" v="consider natural=peak for the most distinct mountains in the district" />
		<tag k="name" v="Julsennuten" />
		<tag k="natural" v="hill" />
		<tag k="place" v="locality" />
		<tag k="ssr:stedsnr" v="919706" />
	</node>
	<node id="-27605" lat="60.8949361106" lon="8.03373610546">
		<tag k="alt_name" v="Raudbergskarvet" />
		<tag k="fixme" v="consider natural=peak for the most distinct mountains in the district" />
		<tag k="name" v="Raudebergskarvet" />
		<tag k="natural" v="hill" />
		<tag k="place" v="locality" />
		<tag k="ssr:stedsnr" v="919609" />
	</node>
	<node id="-27604" lat="60.7707555562" lon="8.12259166251">
		<tag k="fixme" v="consider natural=peak for the most distinct mountains in the district" />
		<tag k="name" v="Svaranuten" />
		<tag k="natural" v="hill" />
		<tag k="place" v="locality" />
		<tag k="ssr:stedsnr" v="918910" />
	</node>
	<node id="-27603" lat="60.7660749963" lon="8.11807499134">
		<tag k="name" v="Sygnihovda" />
		<tag k="natural" v="hill" />
		<tag k="place" v="locality" />
		<tag k="ssr:stedsnr" v="918907" />
	</node>
	<node id="-27601" lat="60.7720527796" lon="8.50410833707">
		<tag k="name" v="Buhovd" />
		<tag k="natural" v="hill" />
		<tag k="place" v="locality" />
		<tag k="ssr:stedsnr" v="918018" />
	</node>
	<node id="-27597" lat="60.6637805569" lon="8.37688334165">
		<tag k="fixme" v="consider natural=peak for the most distinct mountains in the district" />
		<tag k="name" v="Skurvehovda" />
		<tag k="natural" v="hill" />
		<tag k="place" v="locality" />
		<tag k="ssr:stedsnr" v="917560" />
	</node>
	<node id="-27596" lat="60.7176055555" lon="8.25215000456">
		<tag k="alt_name" v="Rødungsbergi" />
		<tag k="name" v="Rødungsberget" />
		<tag k="natural" v="hill" />
		<tag k="place" v="locality" />
		<tag k="ssr:stedsnr" v="917510" />
	</node>
	<node id="-27589" lat="60.5262888906" lon="8.67328333729">
		<tag k="name" v="Helgesetdalen" />
		<tag k="natural" v="valley" />
		<tag k="place" v="locality" />
		<tag k="ssr:stedsnr" v="917178" />
	</node>
	<node id="-27586" lat="60.499886109" lon="8.52516944325">
		<tag k="fixme" v="consider natural=peak for the most distinct mountains in the district" />
		<tag k="name" v="Bjørkehovda" />
		<tag k="natural" v="hill" />
		<tag k="place" v="locality" />
		<tag k="ssr:stedsnr" v="917155" />
	</node>
	<node id="-27579" lat="60.5520222239" lon="8.56802221545">
		<tag k="fixme" v="consider natural=peak for the most distinct mountains in the district" />
		<tag k="name" v="Køytehovda" />
		<tag k="natural" v="hill" />
		<tag k="place" v="locality" />
		<tag k="ssr:stedsnr" v="907857" />
	</node>
	<node id="-27578" lat="60.6667861151" lon="8.29364167016">
		<tag k="name" v="Skurvenatten" />
		<tag k="place" v="locality" />
		<tag k="ssr:stedsnr" v="906307" />
	</node>
	<node id="-27568" lat="60.5962305548" lon="8.68233055699">
		<tag k="name" v="Lusenatten" />
		<tag k="natural" v="hill" />
		<tag k="place" v="locality" />
		<tag k="ssr:stedsnr" v="949191" />
	</node>
	<node id="-27567" lat="60.8324083322" lon="8.32458611021">
		<tag k="name" v="Bjørkhovda" />
		<tag k="natural" v="hill" />
		<tag k="place" v="locality" />
		<tag k="ssr:stedsnr" v="858921" />
	</node>
	<node id="-27562" lat="60.7851749996" lon="8.57973610796">
		<tag k="fixme" v="consider natural=peak for the most distinct mountains in the district" />
		<tag k="name" v="Grytingen" />
		<tag k="natural" v="hill" />
		<tag k="place" v="locality" />
		<tag k="ssr:stedsnr" v="858005" />
	</node>
	<node id="-27558" lat="60.6828222262" lon="8.40051667525">
		<tag k="fixme" v="consider natural=peak for the most distinct mountains in the district" />
		<tag k="name" v="Tonatten" />
		<tag k="natural" v="hill" />
		<tag k="place" v="locality" />
		<tag k="ssr:stedsnr" v="857554" />
	</node>
	<node id="-27556" lat="60.6115555568" lon="8.81642222468">
		<tag k="fixme" v="consider natural=peak for the most distinct mountains in the district" />
		<tag k="name" v="Rundhovda" />
		<tag k="natural" v="hill" />
		<tag k="place" v="locality" />
		<tag k="ssr:stedsnr" v="857068" />
	</node>
	<node id="-27551" lat="60.7111305527" lon="8.61860555843">
		<tag k="name" v="Helsingsetberget" />
		<tag k="natural" v="hill" />
		<tag k="place" v="locality" />
		<tag k="ssr:stedsnr" v="856866" />
	</node>
	<node id="-27549" lat="60.7047555558" lon="8.65409165912">
		<tag k="name" v="Brenneberget" />
		<tag k="natural" v="hill" />
		<tag k="place" v="locality" />
		<tag k="ssr:stedsnr" v="856858" />
	</node>
	<node id="-27545" lat="60.7058472239" lon="8.37539165991">
		<tag k="alt_name" v="Hesthovd" />
		<tag k="fixme" v="consider natural=peak for the most distinct mountains in the district" />
		<tag k="loc_name" v="Storevarden" />
		<tag k="name" v="Hesthovda" />
		<tag k="natural" v="hill" />
		<tag k="place" v="locality" />
		<tag k="ssr:stedsnr" v="856565" />
	</node>
	<node id="-27540" lat="60.7015138863" lon="8.33711943898">
		<tag k="name" v="Hesten og salen" />
		<tag k="natural" v="hill" />
		<tag k="place" v="locality" />
		<tag k="ssr:stedsnr" v="845416" />
	</node>
	<node id="-27536" lat="60.611461114" lon="8.47967778101">
		<tag k="name" v="Høgehaug" />
		<tag k="natural" v="hill" />
		<tag k="place" v="locality" />
		<tag k="ssr:stedsnr" v="830519" />
	</node>
	<node id="-27535" lat="60.7150805582" lon="8.17646944571">
		<tag k="name" v="Snuten" />
		<tag k="natural" v="hill" />
		<tag k="place" v="locality" />
		<tag k="ssr:stedsnr" v="830310" />
	</node>
	<node id="-27533" lat="60.5161638875" lon="8.40283333779">
		<tag k="name" v="Fetjastøldalen" />
		<tag k="natural" v="valley" />
		<tag k="place" v="locality" />
		<tag k="ssr:stedsnr" v="934490" />
	</node>
	<node id="-27510" lat="60.4996194467" lon="8.39776945314">
		<tag k="fixme" v="consider natural=peak for the most distinct mountains in the district" />
		<tag k="name" v="Storelihovda" />
		<tag k="natural" v="hill" />
		<tag k="place" v="locality" />
		<tag k="ssr:stedsnr" v="795785" />
	</node>
	<node id="-27507" lat="60.6988527792" lon="8.19827777362">
		<tag k="fixme" v="consider natural=peak for the most distinct mountains in the district" />
		<tag k="name" v="Flishovda" />
		<tag k="natural" v="hill" />
		<tag k="place" v="locality" />
		<tag k="ssr:stedsnr" v="795566" />
	</node>
	<node id="-27502" lat="60.7565166703" lon="8.69551945163">
		<tag k="name" v="Hellingreset" />
		<tag k="natural" v="hill" />
		<tag k="place" v="locality" />
		<tag k="ssr:stedsnr" v="919043" />
	</node>
	<node id="-27501" lat="60.8447499997" lon="7.835452779">
		<tag k="fixme" v="consider natural=peak for the most distinct mountains in the district" />
		<tag k="name" v="Galdebrea" />
		<tag k="natural" v="hill" />
		<tag k="place" v="locality" />
		<tag k="ssr:stedsnr" v="918789" />
	</node>
	<node id="-27500" lat="60.7802722234" lon="8.06825000167">
		<tag k="alt_name" v="Kvanneberget, øvre" />
		<tag k="fixme" v="consider natural=peak for the most distinct mountains in the district" />
		<tag k="name" v="Øvre Kvanneberget" />
		<tag k="natural" v="hill" />
		<tag k="place" v="locality" />
		<tag k="ssr:stedsnr" v="918785" />
	</node>
	<node id="-27496" lat="60.6451861083" lon="8.54626666941">
		<tag k="fixme" v="consider natural=peak for the most distinct mountains in the district" />
		<tag k="name" v="Vindhaugen" />
		<tag k="natural" v="hill" />
		<tag k="place" v="locality" />
		<tag k="ssr:stedsnr" v="917996" />
	</node>
	<node id="-27489" lat="60.601575001" lon="8.42037500057">
		<tag k="fixme" v="consider natural=peak for the most distinct mountains in the district" />
		<tag k="name" v="Kvannehovda" />
		<tag k="natural" v="hill" />
		<tag k="place" v="locality" />
		<tag k="ssr:stedsnr" v="917634" />
	</node>
	<node id="-27480" lat="60.5341138878" lon="8.6434833313">
		<tag k="alt_name" v="Ørnehovdene" />
		<tag k="fixme" v="consider natural=peak for the most distinct mountains in the district" />
		<tag k="name" v="Ørnehovdun" />
		<tag k="natural" v="hill" />
		<tag k="place" v="locality" />
		<tag k="ssr:stedsnr" v="917187" />
	</node>
	<node id="-27479" lat="60.6437305571" lon="8.69418332497">
		<tag k="name" v="Nubgardslie" />
		<tag k="natural" v="slope" />
		<tag k="place" v="locality" />
		<tag k="ssr:stedsnr" v="917097" />
	</node>
	<node id="-27474" lat="60.639383331" lon="8.67378611703">
		<tag k="name" v="Bærabergi" />
		<tag k="natural" v="hill" />
		<tag k="place" v="locality" />
		<tag k="ssr:stedsnr" v="917084" />
	</node>
	<node id="-26592" lat="60.7031916663" lon="8.38572222815">
		<tag k="name" v="Piggen" />
		<tag k="natural" v="hill" />
		<tag k="place" v="locality" />
		<tag k="ssr:stedsnr" v="41125" />
	</node>
	<node id="-27465" lat="60.6114555525" lon="8.63260555372">
		<tag k="alt_name" v="Grostøllii" />
		<tag k="name" v="Grostøllie" />
		<tag k="natural" v="slope" />
		<tag k="place" v="locality" />
		<tag k="ssr:stedsnr" v="917066" />
	</node>
	<node id="-27460" lat="60.7251111126" lon="8.69570555296">
		<tag k="name" v="Hovdestølhovda" />
		<tag k="natural" v="hill" />
		<tag k="place" v="locality" />
		<tag k="ssr:stedsnr" v="916829" />
	</node>
	<node id="-27458" lat="60.687127774" lon="8.49346388113">
		<tag k="alt_name" v="Haugnatten" />
		<tag k="name" v="Haugsnatten" />
		<tag k="natural" v="hill" />
		<tag k="place" v="locality" />
		<tag k="ssr:stedsnr" v="916901" />
	</node>
	<node id="-27452" lat="60.6399277744" lon="8.40122222089">
		<tag k="name" v="Tipphovda" />
		<tag k="natural" v="hill" />
		<tag k="place" v="locality" />
		<tag k="ssr:stedsnr" v="769711" />
	</node>
	<node id="-27448" lat="60.7425750044" lon="8.51566944627">
		<tag k="name" v="Renneberg" />
		<tag k="natural" v="hill" />
		<tag k="place" v="locality" />
		<tag k="ssr:stedsnr" v="769121" />
	</node>
	<node id="-27445" lat="60.5738749973" lon="8.59044722545">
		<tag k="name" v="Håvebraude" />
		<tag k="natural" v="ridge" />
		<tag k="place" v="locality" />
		<tag k="ssr:stedsnr" v="908850" />
	</node>
	<node id="-27442" lat="60.5823722188" lon="8.52635555303">
		<tag k="fixme" v="consider natural=peak for the most distinct mountains in the district" />
		<tag k="name" v="Svartetjørnhovda" />
		<tag k="natural" v="hill" />
		<tag k="place" v="locality" />
		<tag k="ssr:stedsnr" v="907898" />
	</node>
	<node id="-27437" lat="60.6877999973" lon="8.64960556307">
		<tag k="name" v="Stavsløng" />
		<tag k="place" v="locality" />
		<tag k="ssr:stedsnr" v="906808" />
	</node>
	<node id="-27436" lat="60.5413027763" lon="8.65485554921">
		<tag k="name" v="Vatningshovda" />
		<tag k="natural" v="hill" />
		<tag k="place" v="locality" />
		<tag k="ssr:stedsnr" v="906691" />
	</node>
	<node id="-27435" lat="60.4837583319" lon="8.43816388137">
		<tag k="name" v="Guttormsgardhovda" />
		<tag k="natural" v="hill" />
		<tag k="place" v="locality" />
		<tag k="ssr:stedsnr" v="906729" />
	</node>
	<node id="-27434" lat="60.5749694423" lon="8.41833611849">
		<tag k="name" v="Eirikslåtta" />
		<tag k="place" v="locality" />
		<tag k="ssr:stedsnr" v="906498" />
	</node>
	<node id="-27432" lat="60.6817749958" lon="8.55799166699">
		<tag k="name" v="Høgehaug" />
		<tag k="natural" v="hill" />
		<tag k="place" v="locality" />
		<tag k="ssr:stedsnr" v="905724" />
	</node>
	<node id="-27430" lat="60.7152916682" lon="8.35653610396">
		<tag k="name" v="Fantehovda" />
		<tag k="natural" v="hill" />
		<tag k="place" v="locality" />
		<tag k="ssr:stedsnr" v="905382" />
	</node>
	<node id="-27429" lat="60.7066388889" lon="8.34040278216">
		<tag k="name" v="Revtjørnskaret" />
		<tag k="natural" v="valley" />
		<tag k="place" v="locality" />
		<tag k="ssr:stedsnr" v="905381" />
	</node>
	<node id="-27428" lat="60.6912333343" lon="8.46787777461">
		<tag k="name" v="Sjugurdstølbergi" />
		<tag k="natural" v="hill" />
		<tag k="place" v="locality" />
		<tag k="ssr:stedsnr" v="905250" />
	</node>
	<node id="-27427" lat="60.7028111112" lon="8.7684027829">
		<tag k="name" v="Halldisslette" />
		<tag k="place" v="locality" />
		<tag k="ssr:stedsnr" v="905244" />
	</node>
	<node id="-27425" lat="60.5150694417" lon="8.38934165853">
		<tag k="name" v="Berget" />
		<tag k="natural" v="hill" />
		<tag k="place" v="locality" />
		<tag k="ssr:stedsnr" v="904301" />
	</node>
	<node id="-27420" lat="60.5414666655" lon="8.54722222898">
		<tag k="name" v="Nyestølhovda" />
		<tag k="natural" v="hill" />
		<tag k="place" v="locality" />
		<tag k="ssr:stedsnr" v="906887" />
	</node>
	<node id="-27417" lat="60.6655305592" lon="8.40059999693">
		<tag k="alt_name" v="Haugtrollbergi" />
		<tag k="name" v="Haugatrollbergi" />
		<tag k="natural" v="hill" />
		<tag k="place" v="locality" />
		<tag k="ssr:stedsnr" v="902650" />
	</node>
	<node id="-27415" lat="60.7059027814" lon="8.52008610464">
		<tag k="name" v="Slekaberget" />
		<tag k="natural" v="hill" />
		<tag k="place" v="locality" />
		<tag k="ssr:stedsnr" v="902013" />
	</node>
	<node id="-27413" lat="60.5386499997" lon="8.60762500332">
		<tag k="fixme" v="consider natural=peak for the most distinct mountains in the district" />
		<tag k="name" v="Grimstadnatten" />
		<tag k="natural" v="hill" />
		<tag k="place" v="locality" />
		<tag k="ssr:stedsnr" v="724753" />
	</node>
	<node id="-27408" lat="60.6205083347" lon="8.49539166991">
		<tag k="name" v="Råahovda" />
		<tag k="natural" v="hill" />
		<tag k="place" v="locality" />
		<tag k="ssr:stedsnr" v="716830" />
	</node>
	<node id="-27404" lat="60.6327444407" lon="8.41574165932">
		<tag k="alt_name" v="Norliadn" />
		<tag k="name" v="Nordlian" />
		<tag k="natural" v="slope" />
		<tag k="place" v="locality" />
		<tag k="ssr:stedsnr" v="891740" />
	</node>
	<node id="-27400" lat="60.5879305563" lon="8.41742777131">
		<tag k="name" v="Bekkestadhøgde" />
		<tag k="natural" v="hill" />
		<tag k="place" v="locality" />
		<tag k="ssr:stedsnr" v="891469" />
	</node>
	<node id="-27395" lat="60.717661113" lon="8.48274445142">
		<tag k="name" v="Reinsfet" />
		<tag k="place" v="locality" />
		<tag k="ssr:stedsnr" v="890058" />
	</node>
	<node id="-27392" lat="60.7127666672" lon="8.46616666266">
		<tag k="name" v="Timrehaug" />
		<tag k="natural" v="hill" />
		<tag k="place" v="locality" />
		<tag k="ssr:stedsnr" v="890004" />
	</node>
	<node id="-27391" lat="60.6745611076" lon="8.65836943732">
		<tag k="name" v="Geiteberget" />
		<tag k="natural" v="hill" />
		<tag k="place" v="locality" />
		<tag k="ssr:stedsnr" v="906802" />
	</node>
	<node id="-27390" lat="60.6257472215" lon="8.4275444363">
		<tag k="fixme" v="consider natural=peak for the most distinct mountains in the district" />
		<tag k="name" v="Vesle Fetjastølnatten" />
		<tag k="natural" v="hill" />
		<tag k="place" v="locality" />
		<tag k="ssr:stedsnr" v="888959" />
	</node>
	<node id="-27384" lat="60.5276456267" lon="8.37989923153">
		<tag k="fixme" v="consider natural=peak for the most distinct mountains in the district" />
		<tag k="loc_name" v="Grønoliåsen" />
		<tag k="name" v="Grønåsen" />
		<tag k="natural" v="hill" />
		<tag k="place" v="locality" />
		<tag k="ssr:stedsnr" v="675805" />
	</node>
	<node id="-27382" lat="60.7611388897" lon="8.56228611998">
		<tag k="name" v="Syningen" />
		<tag k="natural" v="hill" />
		<tag k="place" v="locality" />
		<tag k="ssr:stedsnr" v="675022" />
	</node>
	<node id="-27376" lat="60.6365111116" lon="8.39645834139">
		<tag k="alt_name" v="Stokksendhovda" />
		<tag k="fixme" v="consider natural=peak for the most distinct mountains in the district" />
		<tag k="name" v="Stokksennhovda" />
		<tag k="natural" v="hill" />
		<tag k="place" v="locality" />
		<tag k="ssr:stedsnr" v="674603" />
	</node>
	<node id="-27370" lat="60.5335055533" lon="8.50150000587">
		<tag k="fixme" v="consider natural=peak for the most distinct mountains in the district" />
		<tag k="name" v="Bergstølhovdene" />
		<tag k="natural" v="hill" />
		<tag k="place" v="locality" />
		<tag k="ssr:stedsnr" v="674224" />
	</node>
	<node id="-27369" lat="60.5383833293" lon="8.53692499104">
		<tag k="fixme" v="consider natural=peak for the most distinct mountains in the district" />
		<tag k="name" v="Hauststølnatten" />
		<tag k="natural" v="hill" />
		<tag k="place" v="locality" />
		<tag k="ssr:stedsnr" v="674221" />
	</node>
	<node id="-27367" lat="60.5153166642" lon="8.53405000055">
		<tag k="loc_name" v="Ukseberget" />
		<tag k="name" v="Okseberget" />
		<tag k="natural" v="hill" />
		<tag k="place" v="locality" />
		<tag k="ssr:stedsnr" v="674204" />
	</node>
	<node id="-27366" lat="60.517247225" lon="8.62511666343">
		<tag k="name" v="Sukkerberget" />
		<tag k="natural" v="hill" />
		<tag k="place" v="locality" />
		<tag k="ssr:stedsnr" v="674203" />
	</node>
	<node id="-27365" lat="60.6087749961" lon="8.56463611672">
		<tag k="alt_name" v="Grytekleivi" />
		<tag k="fixme" v="consider natural=peak for the most distinct mountains in the district" />
		<tag k="name" v="Grytekleive" />
		<tag k="natural" v="hill" />
		<tag k="place" v="locality" />
		<tag k="ssr:stedsnr" v="674064" />
	</node>
	<node id="-27364" lat="60.5863138925" lon="8.54576666337">
		<tag k="fixme" v="consider natural=peak for the most distinct mountains in the district" />
		<tag k="name" v="Høgebrot" />
		<tag k="natural" v="hill" />
		<tag k="place" v="locality" />
		<tag k="ssr:stedsnr" v="674059" />
	</node>
	<node id="-27360" lat="60.6299638858" lon="8.67733334156">
		<tag k="name" v="Trolltjørnhovda" />
		<tag k="natural" v="hill" />
		<tag k="place" v="locality" />
		<tag k="ssr:stedsnr" v="674104" />
	</node>
	<node id="-27357" lat="60.5703361075" lon="8.68247500316">
		<tag k="name" v="Kalvehovdun" />
		<tag k="natural" v="hill" />
		<tag k="place" v="locality" />
		<tag k="ssr:stedsnr" v="665951" />
	</node>
	<node id="-27355" lat="60.6724083353" lon="8.5574083332">
		<tag k="name" v="Holeslette" />
		<tag k="place" v="locality" />
		<tag k="ssr:stedsnr" v="662728" />
	</node>
	<node id="-27351" lat="60.5410388852" lon="8.44431110512">
		<tag k="alt_name" v="Veslesang" />
		<tag k="fixme" v="consider natural=peak for the most distinct mountains in the district" />
		<tag k="name" v="Veslesanget" />
		<tag k="natural" v="hill" />
		<tag k="place" v="locality" />
		<tag k="ssr:stedsnr" v="661725" />
	</node>
	<node id="-27348" lat="60.6455027751" lon="8.62896388999">
		<tag k="fixme" v="consider natural=peak for the most distinct mountains in the district" />
		<tag k="name" v="Hovda" />
		<tag k="natural" v="hill" />
		<tag k="place" v="locality" />
		<tag k="ssr:stedsnr" v="735997" />
	</node>
	<node id="-27336" lat="60.6287027767" lon="8.7987388934">
		<tag k="loc_name" v="Mone" />
		<tag k="name" v="Møne" />
		<tag k="natural" v="ridge" />
		<tag k="place" v="locality" />
		<tag k="ssr:stedsnr" v="735075" />
	</node>
	<node id="-27335" lat="60.6067555583" lon="8.65205000712">
		<tag k="fixme" v="consider natural=peak for the most distinct mountains in the district" />
		<tag k="name" v="Purkebakkhovda" />
		<tag k="natural" v="hill" />
		<tag k="place" v="locality" />
		<tag k="ssr:stedsnr" v="735069" />
	</node>
	<node id="-27327" lat="60.5758694435" lon="8.60738611438">
		<tag k="alt_name" v="Store Bunsa" />
		<tag k="name" v="Storebunsa" />
		<tag k="natural" v="hill" />
		<tag k="place" v="locality" />
		<tag k="ssr:stedsnr" v="735024" />
	</node>
	<node id="-27325" lat="60.6645472244" lon="8.65668334034">
		<tag k="alt_name" v="Gjeiteryggen" />
		<tag k="name" v="Geiteryggen" />
		<tag k="natural" v="hill" />
		<tag k="place" v="locality" />
		<tag k="ssr:stedsnr" v="734980" />
	</node>
	<node id="-27322" lat="60.6660027745" lon="8.59002777123">
		<tag k="alt_name" v="Selshovdene" />
		<tag k="name" v="Selshovdun" />
		<tag k="natural" v="hill" />
		<tag k="place" v="locality" />
		<tag k="ssr:stedsnr" v="734969" />
	</node>
	<node id="-27319" lat="60.6805638923" lon="8.70551666285">
		<tag k="name" v="Bergastølbergi" />
		<tag k="natural" v="hill" />
		<tag k="place" v="locality" />
		<tag k="ssr:stedsnr" v="734915" />
	</node>
	<node id="-27307" lat="60.7323500019" lon="8.47436110234">
		<tag k="fixme" v="consider natural=peak for the most distinct mountains in the district" />
		<tag k="name" v="Hyttehovda" />
		<tag k="natural" v="hill" />
		<tag k="place" v="locality" />
		<tag k="ssr:stedsnr" v="734800" />
	</node>
	<node id="-27305" lat="60.729161112" lon="8.43784444798">
		<tag k="alt_name" v="Vardhovda" />
		<tag k="fixme" v="consider natural=peak for the most distinct mountains in the district" />
		<tag k="name" v="Vardehovda" />
		<tag k="natural" v="hill" />
		<tag k="place" v="locality" />
		<tag k="ssr:stedsnr" v="734496" />
	</node>
	<node id="-27304" lat="60.7355722206" lon="8.22998611139">
		<tag k="fixme" v="consider natural=peak for the most distinct mountains in the district" />
		<tag k="name" v="Krosshovda" />
		<tag k="natural" v="hill" />
		<tag k="place" v="locality" />
		<tag k="ssr:stedsnr" v="734487" />
	</node>
	<node id="-27300" lat="60.6949027738" lon="8.61969444308">
		<tag k="loc_name" v="Hjalman" />
		<tag k="name" v="Hjalmane" />
		<tag k="place" v="locality" />
		<tag k="ssr:stedsnr" v="647668" />
	</node>
	<node id="-27298" lat="60.6481999992" lon="8.41613888299">
		<tag k="name" v="Møne" />
		<tag k="natural" v="ridge" />
		<tag k="place" v="locality" />
		<tag k="ssr:stedsnr" v="647733" />
	</node>
	<node id="-27295" lat="60.7021416661" lon="8.18670832917">
		<tag k="name" v="Søre Kjølen" />
		<tag k="natural" v="hill" />
		<tag k="place" v="locality" />
		<tag k="ssr:stedsnr" v="647308" />
	</node>
	<node id="-27293" lat="60.7421833293" lon="8.45395833649">
		<tag k="name" v="Fekjan" />
		<tag k="place" v="locality" />
		<tag k="ssr:stedsnr" v="647062" />
	</node>
	<node id="-27292" lat="60.725402774" lon="8.52424999372">
		<tag k="name" v="Røvshellan" />
		<tag k="natural" v="slope" />
		<tag k="place" v="locality" />
		<tag k="ssr:stedsnr" v="647138" />
	</node>
	<node id="-27280" lat="60.6669916676" lon="8.77783333641">
		<tag k="name" v="Hallingdal" />
		<tag k="natural" v="valley" />
		<tag k="place" v="locality" />
		<tag k="ssr:stedsnr" v="630909" />
	</node>
	<node id="-27274" lat="60.4969444409" lon="8.41245277816">
		<tag k="name" v="Slettan" />
		<tag k="place" v="locality" />
		<tag k="ssr:stedsnr" v="724580" />
	</node>
	<node id="-27271" lat="60.6927527817" lon="8.6689638921">
		<tag k="name" v="Fareslettane" />
		<tag k="place" v="locality" />
		<tag k="ssr:stedsnr" v="723951" />
	</node>
	<node id="-27267" lat="60.6832833291" lon="8.43617221869">
		<tag k="name" v="Smalskard" />
		<tag k="natural" v="valley" />
		<tag k="place" v="locality" />
		<tag k="ssr:stedsnr" v="723323" />
	</node>
	<node id="-27265" lat="60.6698166653" lon="8.32552778245">
		<tag k="name" v="Ostedyssa" />
		<tag k="natural" v="hill" />
		<tag k="place" v="locality" />
		<tag k="ssr:stedsnr" v="723285" />
	</node>
	<node id="-27264" lat="60.6993305552" lon="8.7658083384">
		<tag k="name" v="Tuftebakken" />
		<tag k="natural" v="slope" />
		<tag k="place" v="locality" />
		<tag k="ssr:stedsnr" v="723260" />
	</node>
	<node id="-27263" lat="60.7321250021" lon="8.16099722252">
		<tag k="name" v="Kinnuten" />
		<tag k="natural" v="hill" />
		<tag k="place" v="locality" />
		<tag k="ssr:stedsnr" v="723213" />
	</node>
	<node id="-27261" lat="60.9169749968" lon="7.88130555367">
		<tag k="name" v="Eivindhalle" />
		<tag k="natural" v="valley" />
		<tag k="place" v="locality" />
		<tag k="ssr:stedsnr" v="615612" />
	</node>
	<node id="-27260" lat="60.8566999966" lon="8.05330000581">
		<tag k="name" v="Storefjellsbotn" />
		<tag k="natural" v="valley" />
		<tag k="place" v="locality" />
		<tag k="ssr:stedsnr" v="614759" />
	</node>
	<node id="-27259" lat="60.6466111107" lon="8.58122500427">
		<tag k="alt_name" v="Ulvshagenatten;Ulshagennatten" />
		<tag k="fixme" v="consider natural=peak for the most distinct mountains in the district" />
		<tag k="loc_name" v="Ulshaganatten" />
		<tag k="name" v="Ulshagenatten" />
		<tag k="natural" v="hill" />
		<tag k="old_name" v="Ulfshage Bj." />
		<tag k="place" v="locality" />
		<tag k="ssr:stedsnr" v="613999" />
	</node>
	<node id="-27255" lat="60.703188892" lon="8.41913610557">
		<tag k="fixme" v="consider natural=peak for the most distinct mountains in the district" />
		<tag k="name" v="Toåsen" />
		<tag k="natural" v="hill" />
		<tag k="place" v="locality" />
		<tag k="ssr:stedsnr" v="613552" />
	</node>
	<node id="-27253" lat="60.543961114" lon="8.42948333581">
		<tag k="fixme" v="consider natural=peak for the most distinct mountains in the district" />
		<tag k="name" v="Sangefjellet" />
		<tag k="natural" v="hill" />
		<tag k="place" v="locality" />
		<tag k="ssr:stedsnr" v="613713" />
	</node>
	<node id="-27247" lat="60.7194361097" lon="8.49458888759">
		<tag k="fixme" v="multiple name tags, choose one and add the other to alt_name" />
		<tag k="name" v="Kjerringstølhovda;Langehovda" />
		<tag k="natural" v="hill" />
		<tag k="place" v="locality" />
		<tag k="ssr:stedsnr" v="612835" />
	</node>
	<node id="-27241" lat="60.6947194481" lon="8.36892500367">
		<tag k="name" v="Slåtta" />
		<tag k="place" v="locality" />
		<tag k="ssr:stedsnr" v="601394" />
	</node>
	<node id="-27240" lat="60.6980694441" lon="8.32671389628">
		<tag k="name" v="Torkelshovda" />
		<tag k="natural" v="hill" />
		<tag k="place" v="locality" />
		<tag k="ssr:stedsnr" v="601365" />
	</node>
	<node id="-27235" lat="60.7112583352" lon="8.63139444257">
		<tag k="name" v="Beinstigane" />
		<tag k="natural" v="slope" />
		<tag k="place" v="locality" />
		<tag k="ssr:stedsnr" v="587691" />
	</node>
	<node id="-27233" lat="60.6392777763" lon="8.42324722461">
		<tag k="name" v="Vindhaugen" />
		<tag k="natural" v="hill" />
		<tag k="place" v="locality" />
		<tag k="ssr:stedsnr" v="587741" />
	</node>
	<node id="-27230" lat="60.7503222217" lon="8.30187778654">
		<tag k="name" v="Reinun" />
		<tag k="natural" v="hill" />
		<tag k="place" v="locality" />
		<tag k="ssr:stedsnr" v="586927" />
	</node>
	<node id="-27226" lat="60.7125777807" lon="8.27147222492">
		<tag k="name" v="Leinin" />
		<tag k="natural" v="slope" />
		<tag k="place" v="locality" />
		<tag k="ssr:stedsnr" v="586453" />
	</node>
	<node id="-27224" lat="60.6996305568" lon="8.53873611256">
		<tag k="name" v="Mysethovdun" />
		<tag k="natural" v="hill" />
		<tag k="place" v="locality" />
		<tag k="ssr:stedsnr" v="708981" />
	</node>
	<node id="-27222" lat="60.7005555555" lon="8.54892500834">
		<tag k="name" v="Lakahovda" />
		<tag k="natural" v="hill" />
		<tag k="place" v="locality" />
		<tag k="ssr:stedsnr" v="708962" />
	</node>
	<node id="-27221" lat="60.7228138898" lon="8.31406111028">
		<tag k="name" v="Bukkebergi" />
		<tag k="natural" v="hill" />
		<tag k="place" v="locality" />
		<tag k="ssr:stedsnr" v="708934" />
	</node>
	<node id="-27216" lat="60.6816194405" lon="8.50376943537">
		<tag k="name" v="Brennun" />
		<tag k="natural" v="hill" />
		<tag k="place" v="locality" />
		<tag k="ssr:stedsnr" v="708746" />
	</node>
	<node id="-27215" lat="60.6936972245" lon="8.50363889624">
		<tag k="name" v="Høgehaug" />
		<tag k="natural" v="hill" />
		<tag k="place" v="locality" />
		<tag k="ssr:stedsnr" v="708741" />
	</node>
	<node id="-27212" lat="60.7016055526" lon="8.64866945049">
		<tag k="name" v="Geiteslettene" />
		<tag k="place" v="locality" />
		<tag k="ssr:stedsnr" v="708661" />
	</node>
	<node id="-27211" lat="60.669088888" lon="8.3973499952">
		<tag k="alt_name" v="Helladn" />
		<tag k="name" v="Hellan" />
		<tag k="natural" v="slope" />
		<tag k="place" v="locality" />
		<tag k="ssr:stedsnr" v="708595" />
	</node>
	<node id="-27208" lat="60.6992694428" lon="8.31747500881">
		<tag k="name" v="Hollehovda" />
		<tag k="natural" v="hill" />
		<tag k="place" v="locality" />
		<tag k="ssr:stedsnr" v="708499" />
	</node>
	<node id="-27207" lat="60.7684805537" lon="8.08019445034">
		<tag k="alt_name" v="Skurvehovda, øvre" />
		<tag k="name" v="Øvre Skurvehovda" />
		<tag k="natural" v="hill" />
		<tag k="place" v="locality" />
		<tag k="ssr:stedsnr" v="708487" />
	</node>
	<node id="-27203" lat="60.7070749965" lon="8.16987500236">
		<tag k="alt_name" v="Nordre Kjølen" />
		<tag k="name" v="Nørdre Kjølen" />
		<tag k="natural" v="hill" />
		<tag k="place" v="locality" />
		<tag k="ssr:stedsnr" v="708297" />
	</node>
	<node id="-27199" lat="60.6120361123" lon="8.43125833681">
		<tag k="name" v="Brendhaug" />
		<tag k="natural" v="hill" />
		<tag k="place" v="locality" />
		<tag k="ssr:stedsnr" v="706947" />
	</node>
	<node id="-27198" lat="60.4931555517" lon="8.42821945">
		<tag k="name" v="Halldalslie" />
		<tag k="natural" v="slope" />
		<tag k="old_name" v="Halldalslii" />
		<tag k="place" v="locality" />
		<tag k="ssr:stedsnr" v="570465" />
	</node>
	<node id="-27197" lat="60.4891012333" lon="8.4392438979">
		<tag k="name" v="Grårøyslie" />
		<tag k="natural" v="slope" />
		<tag k="place" v="locality" />
		<tag k="ssr:stedsnr" v="570464" />
	</node>
	<node id="-27187" lat="60.6361694421" lon="8.62139165813">
		<tag k="name" v="Geiteryggen" />
		<tag k="natural" v="ridge" />
		<tag k="place" v="locality" />
		<tag k="ssr:stedsnr" v="526753" />
	</node>
	<node id="-27183" lat="60.6733611086" lon="8.62243889531">
		<tag k="name" v="Aunsetberget" />
		<tag k="natural" v="hill" />
		<tag k="place" v="locality" />
		<tag k="ssr:stedsnr" v="526816" />
	</node>
	<node id="-27169" lat="60.7442388891" lon="8.43381944233">
		<tag k="name" v="Hytteberget" />
		<tag k="natural" v="hill" />
		<tag k="place" v="locality" />
		<tag k="ssr:stedsnr" v="526019" />
	</node>
	<node id="-27160" lat="60.6242444453" lon="8.42265555906">
		<tag k="fixme" v="consider natural=peak for the most distinct mountains in the district" />
		<tag k="name" v="Fetjastølnatten" />
		<tag k="natural" v="hill" />
		<tag k="place" v="locality" />
		<tag k="ssr:stedsnr" v="687934" />
	</node>
	<node id="-27156" lat="60.6101055532" lon="8.5575444487">
		<tag k="loc_name" v="Brotsbakken" />
		<tag k="name" v="Bråtsbakken" />
		<tag k="natural" v="slope" />
		<tag k="place" v="locality" />
		<tag k="ssr:stedsnr" v="506708" />
	</node>
	<node id="-27155" lat="60.7920500009" lon="8.45914722476">
		<tag k="fixme" v="consider natural=peak for the most distinct mountains in the district" />
		<tag k="name" v="Søre Skorve" />
		<tag k="natural" v="hill" />
		<tag k="place" v="locality" />
		<tag k="ssr:stedsnr" v="506068" />
	</node>
	<node id="-27153" lat="60.8274777757" lon="8.14304999794">
		<tag k="fixme" v="consider natural=peak for the most distinct mountains in the district" />
		<tag k="name" v="Myljonuten" />
		<tag k="natural" v="hill" />
		<tag k="place" v="locality" />
		<tag k="ssr:stedsnr" v="494913" />
	</node>
	<node id="-27152" lat="60.8365083291" lon="7.97295278008">
		<tag k="name" v="Grønebakken" />
		<tag k="natural" v="slope" />
		<tag k="place" v="locality" />
		<tag k="ssr:stedsnr" v="494709" />
	</node>
	<node id="-27150" lat="60.5924027767" lon="8.60215000022">
		<tag k="alt_name" v="Merihaugen" />
		<tag k="name" v="Merihaugane" />
		<tag k="natural" v="hill" />
		<tag k="place" v="locality" />
		<tag k="ssr:stedsnr" v="492026" />
	</node>
	<node id="-27147" lat="60.8297000012" lon="8.11036111751">
		<tag k="name" v="Klypesgjenget" />
		<tag k="natural" v="valley" />
		<tag k="place" v="locality" />
		<tag k="ssr:stedsnr" v="676922" />
	</node>
	<node id="-27145" lat="60.8376333296" lon="8.2001527774">
		<tag k="fixme" v="consider natural=peak for the most distinct mountains in the district" />
		<tag k="name" v="Veslenose" />
		<tag k="natural" v="hill" />
		<tag k="place" v="locality" />
		<tag k="ssr:stedsnr" v="676897" />
	</node>
	<node id="-27143" lat="60.8188249997" lon="7.93421111386">
		<tag k="fixme" v="consider natural=peak for the most distinct mountains in the district" />
		<tag k="name" v="Storebotnnuten" />
		<tag k="natural" v="hill" />
		<tag k="place" v="locality" />
		<tag k="ssr:stedsnr" v="676743" />
	</node>
	<node id="-27141" lat="60.7593638933" lon="8.60365556308">
		<tag k="name" v="Breidsethovda" />
		<tag k="natural" v="hill" />
		<tag k="place" v="locality" />
		<tag k="ssr:stedsnr" v="676040" />
	</node>
	<node id="-27139" lat="60.7686555517" lon="8.30855555829">
		<tag k="fixme" v="consider natural=peak for the most distinct mountains in the district" />
		<tag k="name" v="Skoddenose" />
		<tag k="natural" v="hill" />
		<tag k="place" v="locality" />
		<tag k="ssr:stedsnr" v="675989" />
	</node>
	<node id="-27137" lat="60.7774750026" lon="8.44971665749">
		<tag k="name" v="Nuten" />
		<tag k="natural" v="hill" />
		<tag k="place" v="locality" />
		<tag k="ssr:stedsnr" v="675885" />
	</node>
	<node id="-27130" lat="60.6547861144" lon="8.80583611806">
		<tag k="name" v="Ivjulii" />
		<tag k="natural" v="slope" />
		<tag k="place" v="locality" />
		<tag k="ssr:stedsnr" v="674986" />
	</node>
	<node id="-27118" lat="60.6864861068" lon="8.4547916578">
		<tag k="fixme" v="consider natural=peak for the most distinct mountains in the district" />
		<tag k="name" v="Høgenatten" />
		<tag k="natural" v="hill" />
		<tag k="place" v="locality" />
		<tag k="ssr:stedsnr" v="674539" />
	</node>
	<node id="-27113" lat="60.6152166682" lon="8.4876916597">
		<tag k="name" v="Strandaberget" />
		<tag k="natural" v="hill" />
		<tag k="place" v="locality" />
		<tag k="ssr:stedsnr" v="674084" />
	</node>
	<node id="-27112" lat="60.513994449" lon="8.63396111565">
		<tag k="name" v="Grashallberget" />
		<tag k="natural" v="hill" />
		<tag k="place" v="locality" />
		<tag k="ssr:stedsnr" v="674197" />
	</node>
	<node id="-27108" lat="60.5648222198" lon="8.47176111036">
		<tag k="alt_name" v="Turrlii" />
		<tag k="name" v="Turrlie" />
		<tag k="natural" v="slope" />
		<tag k="place" v="locality" />
		<tag k="ssr:stedsnr" v="674038" />
	</node>
	<node id="-27106" lat="60.5925000041" lon="8.73640000223">
		<tag k="fixme" v="consider natural=peak for the most distinct mountains in the district" />
		<tag k="name" v="Syningen" />
		<tag k="natural" v="hill" />
		<tag k="place" v="locality" />
		<tag k="ssr:stedsnr" v="674031" />
	</node>
	<node id="-27102" lat="60.7346194485" lon="8.70430832802">
		<tag k="name" v="Gåsterudhovda" />
		<tag k="natural" v="hill" />
		<tag k="place" v="locality" />
		<tag k="ssr:stedsnr" v="673831" />
	</node>
	<node id="-27098" lat="60.7381416693" lon="8.63268056259">
		<tag k="alt_name" v="Skurvehovdun" />
		<tag k="name" v="Skurvehovdene" />
		<tag k="natural" v="hill" />
		<tag k="place" v="locality" />
		<tag k="ssr:stedsnr" v="673810" />
	</node>
	<node id="-27095" lat="60.7184722249" lon="8.19586389345">
		<tag k="fixme" v="consider natural=peak for the most distinct mountains in the district" />
		<tag k="name" v="Dugurdshovdun" />
		<tag k="natural" v="hill" />
		<tag k="place" v="locality" />
		<tag k="ssr:stedsnr" v="673477" />
	</node>
	<node id="-27092" lat="60.5393916683" lon="8.37784722727">
		<tag k="name" v="Hestestøidn" />
		<tag k="natural" v="slope" />
		<tag k="place" v="locality" />
		<tag k="ssr:stedsnr" v="481872" />
	</node>
	<node id="-27091" lat="60.5099972228" lon="8.37441666224">
		<tag k="loc_name" v="Storeleine" />
		<tag k="name" v="Storeleini" />
		<tag k="natural" v="slope" />
		<tag k="place" v="locality" />
		<tag k="ssr:stedsnr" v="481864" />
	</node>
	<node id="-27090" lat="60.5316509993" lon="8.5906587243">
		<tag k="name" v="Flabergi" />
		<tag k="place" v="locality" />
		<tag k="ssr:stedsnr" v="481764" />
	</node>
	<node id="-27089" lat="60.5373166668" lon="8.60665555796">
		<tag k="alt_name" v="Kjerringskaret" />
		<tag k="name" v="Kjerringskardet" />
		<tag k="natural" v="valley" />
		<tag k="place" v="locality" />
		<tag k="ssr:stedsnr" v="481752" />
	</node>
	<node id="-27087" lat="60.7140694482" lon="8.44221110829">
		<tag k="name" v="Nystølhaugen" />
		<tag k="natural" v="hill" />
		<tag k="place" v="locality" />
		<tag k="ssr:stedsnr" v="480066" />
	</node>
	<node id="-27085" lat="60.5811138862" lon="8.53874721622">
		<tag k="name" v="Åsbrendhovda" />
		<tag k="natural" v="hill" />
		<tag k="place" v="locality" />
		<tag k="ssr:stedsnr" v="477561" />
	</node>
	<node id="-27084" lat="60.6408027762" lon="8.39239444459">
		<tag k="name" v="Grashallbergi" />
		<tag k="natural" v="hill" />
		<tag k="place" v="locality" />
		<tag k="ssr:stedsnr" v="466720" />
	</node>
	<node id="-27083" lat="60.71490278" lon="8.55731667213">
		<tag k="name" v="Mosaberget" />
		<tag k="place" v="locality" />
		<tag k="ssr:stedsnr" v="465962" />
	</node>
	<node id="-27081" lat="60.6520055524" lon="8.34444721756">
		<tag k="name" v="Tverrlie" />
		<tag k="natural" v="slope" />
		<tag k="place" v="locality" />
		<tag k="ssr:stedsnr" v="465608" />
	</node>
	<node id="-27078" lat="60.6795499985" lon="8.75950833345">
		<tag k="name" v="Hesteberget" />
		<tag k="natural" v="hill" />
		<tag k="place" v="locality" />
		<tag k="ssr:stedsnr" v="465263" />
	</node>
	<node id="-27077" lat="60.5547111128" lon="8.6522861026">
		<tag k="fixme" v="consider natural=peak for the most distinct mountains in the district" />
		<tag k="name" v="Skitjørnåsen" />
		<tag k="natural" v="hill" />
		<tag k="place" v="locality" />
		<tag k="ssr:stedsnr" v="665044" />
	</node>
	<node id="-27072" lat="60.6900194459" lon="8.67529166247">
		<tag k="name" v="Melsethaugen" />
		<tag k="natural" v="hill" />
		<tag k="place" v="locality" />
		<tag k="ssr:stedsnr" v="662972" />
	</node>
	<node id="-27071" lat="60.6757249978" lon="8.64618610668">
		<tag k="name" v="Marsteinstakken" />
		<tag k="place" v="locality" />
		<tag k="ssr:stedsnr" v="662776" />
	</node>
	<node id="-27069" lat="60.6793777791" lon="8.64277777954">
		<tag k="name" v="Brennerudslettene" />
		<tag k="place" v="locality" />
		<tag k="ssr:stedsnr" v="662772" />
	</node>
	<node id="-27067" lat="60.7195305584" lon="8.2087055539">
		<tag k="alt_name" v="Kleivehovda, nordre" />
		<tag k="name" v="Nørdre Kleivehovda" />
		<tag k="natural" v="hill" />
		<tag k="place" v="locality" />
		<tag k="ssr:stedsnr" v="662238" />
	</node>
	<node id="-27066" lat="60.7202638864" lon="8.18876388928">
		<tag k="alt_name" v="Dugardshovda, nordre" />
		<tag k="name" v="Nørdre Dugardshovda" />
		<tag k="natural" v="hill" />
		<tag k="place" v="locality" />
		<tag k="ssr:stedsnr" v="662206" />
	</node>
	<node id="-27065" lat="60.7133833309" lon="8.54057221856">
		<tag k="name" v="Nilsehovda" />
		<tag k="natural" v="hill" />
		<tag k="place" v="locality" />
		<tag k="ssr:stedsnr" v="660500" />
	</node>
	<node id="-27056" lat="60.7547750033" lon="8.48137500728">
		<tag k="fixme" v="consider natural=peak for the most distinct mountains in the district" />
		<tag k="name" v="Fristølfjellet" />
		<tag k="natural" v="hill" />
		<tag k="place" v="locality" />
		<tag k="ssr:stedsnr" v="434638" />
	</node>
	<node id="-27053" lat="60.8108500004" lon="8.40725556086">
		<tag k="name" v="Rundhovda" />
		<tag k="natural" v="hill" />
		<tag k="place" v="locality" />
		<tag k="ssr:stedsnr" v="433903" />
	</node>
	<node id="-27051" lat="60.8903833315" lon="7.80054999596">
		<tag k="fixme" v="consider natural=peak for the most distinct mountains in the district" />
		<tag k="name" v="Flågrunnsnatten" />
		<tag k="natural" v="hill" />
		<tag k="place" v="locality" />
		<tag k="ssr:stedsnr" v="433611" />
	</node>
	<node id="-27049" lat="60.6443722261" lon="8.36100278571">
		<tag k="fixme" v="consider natural=peak for the most distinct mountains in the district" />
		<tag k="name" v="Venelibrotet" />
		<tag k="natural" v="hill" />
		<tag k="place" v="locality" />
		<tag k="ssr:stedsnr" v="432603" />
	</node>
	<node id="-27045" lat="60.5333111134" lon="8.60603055109">
		<tag k="alt_name" v="Storehøgdi" />
		<tag k="name" v="Storehøgde" />
		<tag k="natural" v="hill" />
		<tag k="place" v="locality" />
		<tag k="ssr:stedsnr" v="432212" />
	</node>
	<node id="-26694" lat="60.7310555514" lon="8.57988610206">
		<tag k="name" v="Kylleshamaren" />
		<tag k="natural" v="hill" />
		<tag k="place" v="locality" />
		<tag k="ssr:stedsnr" v="249793" />
	</node>
	<node id="-27039" lat="60.7259555521" lon="8.55430555474">
		<tag k="alt_name" v="Syningen" />
		<tag k="name" v="Gaukelinatten" />
		<tag k="natural" v="hill" />
		<tag k="place" v="locality" />
		<tag k="ssr:stedsnr" v="431834" />
	</node>
	<node id="-27036" lat="60.5805111098" lon="8.7075777738">
		<tag k="alt_name" v="Dynaranden" />
		<tag k="fixme" v="consider natural=peak for the most distinct mountains in the district" />
		<tag k="name" v="Dyneranden" />
		<tag k="natural" v="hill" />
		<tag k="place" v="locality" />
		<tag k="ssr:stedsnr" v="431029" />
	</node>
	<node id="-27029" lat="60.6278972265" lon="8.60556944982">
		<tag k="name" v="Mønine" />
		<tag k="natural" v="ridge" />
		<tag k="place" v="locality" />
		<tag k="ssr:stedsnr" v="420617" />
	</node>
	<node id="-27028" lat="60.7044250044" lon="8.33933055573">
		<tag k="name" v="Rakkekjekshallene" />
		<tag k="natural" v="slope" />
		<tag k="place" v="locality" />
		<tag k="ssr:stedsnr" v="420404" />
	</node>
	<node id="-27027" lat="60.6989388882" lon="8.33198889465">
		<tag k="name" v="Blåberget" />
		<tag k="natural" v="hill" />
		<tag k="place" v="locality" />
		<tag k="ssr:stedsnr" v="420403" />
	</node>
	<node id="-27024" lat="60.6418861079" lon="8.63671943543">
		<tag k="name" v="Hovda" />
		<tag k="natural" v="hill" />
		<tag k="place" v="locality" />
		<tag k="ssr:stedsnr" v="405755" />
	</node>
	<node id="-27022" lat="60.7774916644" lon="8.08114723119">
		<tag k="alt_name" v="Buhovda, nedre" />
		<tag k="name" v="Nedre Buhovda" />
		<tag k="natural" v="hill" />
		<tag k="place" v="locality" />
		<tag k="ssr:stedsnr" v="405506" />
	</node>
	<node id="-27020" lat="60.7388277821" lon="8.69443888442">
		<tag k="name" v="Blåsihaug" />
		<tag k="natural" v="hill" />
		<tag k="place" v="locality" />
		<tag k="ssr:stedsnr" v="405171" />
	</node>
	<node id="-27016" lat="60.5346388859" lon="8.45162499985">
		<tag k="name" v="Bakselehaugen" />
		<tag k="natural" v="hill" />
		<tag k="place" v="locality" />
		<tag k="ssr:stedsnr" v="299228" />
	</node>
	<node id="-27010" lat="60.8646833342" lon="7.99405000567">
		<tag k="fixme" v="consider natural=peak for the most distinct mountains in the district" />
		<tag k="name" v="Mjolgebrea" />
		<tag k="natural" v="hill" />
		<tag k="old_name" v="Mjölgebreia" />
		<tag k="place" v="locality" />
		<tag k="ssr:stedsnr" v="554682" />
	</node>
	<node id="-27009" lat="60.8477861107" lon="8.27218332779">
		<tag k="fixme" v="consider natural=peak for the most distinct mountains in the district" />
		<tag k="name" v="Nybunose" />
		<tag k="natural" v="hill" />
		<tag k="place" v="locality" />
		<tag k="ssr:stedsnr" v="372930" />
	</node>
	<node id="-27008" lat="60.8169916708" lon="8.35700832587">
		<tag k="fixme" v="consider natural=peak for the most distinct mountains in the district" />
		<tag k="name" v="Storebeihovda" />
		<tag k="natural" v="hill" />
		<tag k="old_name" v="Beihovd" />
		<tag k="place" v="locality" />
		<tag k="ssr:stedsnr" v="372923" />
	</node>
	<node id="-27007" lat="60.8125249994" lon="8.20101944709">
		<tag k="name" v="Storebotn" />
		<tag k="natural" v="valley" />
		<tag k="place" v="locality" />
		<tag k="ssr:stedsnr" v="372906" />
	</node>
	<node id="-27006" lat="60.7798638875" lon="8.32783889111">
		<tag k="name" v="Døldebergi" />
		<tag k="natural" v="hill" />
		<tag k="place" v="locality" />
		<tag k="ssr:stedsnr" v="372902" />
	</node>
	<node id="-27005" lat="60.8219749995" lon="8.0831749939">
		<tag k="name" v="Storegjenget" />
		<tag k="natural" v="slope" />
		<tag k="place" v="locality" />
		<tag k="ssr:stedsnr" v="372763" />
	</node>
	<node id="-27004" lat="60.8635138882" lon="8.02327499443">
		<tag k="fixme" v="consider natural=peak for the most distinct mountains in the district" />
		<tag k="name" v="Pigghovda" />
		<tag k="natural" v="hill" />
		<tag k="place" v="locality" />
		<tag k="ssr:stedsnr" v="372675" />
	</node>
	<node id="-27003" lat="60.8629166711" lon="7.88678055561">
		<tag k="name" v="Bukkeholene" />
		<tag k="natural" v="ridge" />
		<tag k="place" v="locality" />
		<tag k="ssr:stedsnr" v="372663" />
	</node>
	<node id="-27001" lat="60.767877775" lon="8.64581388167">
		<tag k="fixme" v="consider natural=peak for the most distinct mountains in the district" />
		<tag k="name" v="Valhovd" />
		<tag k="natural" v="hill" />
		<tag k="ssr:stedsnr" v="372015" />
	</node>
	<node id="-26994" lat="60.676502775" lon="8.77916944226">
		<tag k="name" v="Liaberget" />
		<tag k="natural" v="hill" />
		<tag k="place" v="locality" />
		<tag k="ssr:stedsnr" v="370958" />
	</node>
	<node id="-26991" lat="60.6796444452" lon="8.58371943803">
		<tag k="alt_name" v="Skrindehaugan" />
		<tag k="name" v="Skrindehaugen" />
		<tag k="natural" v="hill" />
		<tag k="old_name" v="Skrindehaugann" />
		<tag k="place" v="locality" />
		<tag k="ssr:stedsnr" v="370918" />
	</node>
	<node id="-26987" lat="60.6879888906" lon="8.60710554987">
		<tag k="name" v="Stakkestøberget" />
		<tag k="natural" v="hill" />
		<tag k="place" v="locality" />
		<tag k="ssr:stedsnr" v="370904" />
	</node>
	<node id="-26986" lat="60.8289750037" lon="7.97917500738">
		<tag k="name" v="Klevanuten" />
		<tag k="natural" v="hill" />
		<tag k="place" v="locality" />
		<tag k="ssr:stedsnr" v="494713" />
	</node>
	<node id="-26982" lat="60.8903861117" lon="7.88986389714">
		<tag k="alt_name" v="Førdalen" />
		<tag k="name" v="Fødalen" />
		<tag k="natural" v="valley" />
		<tag k="old_name" v="Føldalen" />
		<tag k="place" v="locality" />
		<tag k="ssr:stedsnr" v="494607" />
	</node>
	<node id="-26980" lat="60.7740083292" lon="8.4008138955">
		<tag k="name" v="Breadalen" />
		<tag k="natural" v="valley" />
		<tag k="place" v="locality" />
		<tag k="ssr:stedsnr" v="493993" />
	</node>
	<node id="-26977" lat="60.8644611112" lon="8.22761665822">
		<tag k="fixme" v="consider natural=peak for the most distinct mountains in the district" />
		<tag k="name" v="Storebottskarvet" />
		<tag k="natural" v="hill" />
		<tag k="place" v="locality" />
		<tag k="ssr:stedsnr" v="493579" />
	</node>
	<node id="-26976" lat="60.7816250026" lon="8.5046583409">
		<tag k="name" v="Svaraberget" />
		<tag k="natural" v="hill" />
		<tag k="place" v="locality" />
		<tag k="ssr:stedsnr" v="493033" />
	</node>
	<node id="-26970" lat="60.6632027735" lon="8.48491111562">
		<tag k="fixme" v="consider natural=peak for the most distinct mountains in the district" />
		<tag k="name" v="Primhovda" />
		<tag k="natural" v="hill" />
		<tag k="place" v="locality" />
		<tag k="ssr:stedsnr" v="492945" />
	</node>
	<node id="-26956" lat="60.7040138883" lon="8.39503056237">
		<tag k="name" v="Ørnehovda" />
		<tag k="natural" v="hill" />
		<tag k="place" v="locality" />
		<tag k="ssr:stedsnr" v="492472" />
	</node>
	<node id="-26953" lat="60.6754444439" lon="8.61335554927">
		<tag k="name" v="Veslestølberget" />
		<tag k="natural" v="hill" />
		<tag k="place" v="locality" />
		<tag k="ssr:stedsnr" v="359707" />
	</node>
	<node id="-26947" lat="60.5479921926" lon="8.71677448454">
		<tag k="fixme" v="consider natural=peak for the most distinct mountains in the district" />
		<tag k="name" v="Briskenatten" />
		<tag k="natural" v="hill" />
		<tag k="place" v="locality" />
		<tag k="ssr:stedsnr" v="492197" />
	</node>
	<node id="-26946" lat="60.5351749999" lon="8.6238611128">
		<tag k="fixme" v="consider natural=peak for the most distinct mountains in the district" />
		<tag k="name" v="Grimstadhovda" />
		<tag k="natural" v="hill" />
		<tag k="old_name" v="Grimshovde" />
		<tag k="place" v="locality" />
		<tag k="ssr:stedsnr" v="492186" />
	</node>
	<node id="-26942" lat="60.6239638898" lon="8.60726388429">
		<tag k="name" v="Skruvedalen" />
		<tag k="natural" v="valley" />
		<tag k="place" v="locality" />
		<tag k="ssr:stedsnr" v="492081" />
	</node>
	<node id="-26941" lat="60.635769442" lon="8.74220834127">
		<tag k="name" v="Ridalen" />
		<tag k="natural" v="valley" />
		<tag k="place" v="locality" />
		<tag k="ssr:stedsnr" v="492071" />
	</node>
	<node id="-26940" lat="60.6065499964" lon="8.46942221735">
		<tag k="fixme" v="consider natural=peak for the most distinct mountains in the district" />
		<tag k="name" v="Tunekamben" />
		<tag k="natural" v="hill" />
		<tag k="place" v="locality" />
		<tag k="ssr:stedsnr" v="492053" />
	</node>
	<node id="-26920" lat="60.7283388866" lon="8.2978444475">
		<tag k="fixme" v="consider natural=peak for the most distinct mountains in the district" />
		<tag k="name" v="Mørehovda" />
		<tag k="natural" v="hill" />
		<tag k="place" v="locality" />
		<tag k="ssr:stedsnr" v="491482" />
	</node>
	<node id="-26673" lat="60.6487638879" lon="8.73349166734">
		<tag k="loc_name" v="Mønin" />
		<tag k="name" v="Mønene" />
		<tag k="natural" v="hill" />
		<tag k="place" v="locality" />
		<tag k="ssr:stedsnr" v="249113" />
	</node>
	<node id="-26916" lat="60.7206749957" lon="8.13653056327">
		<tag k="name" v="Markalihovdun" />
		<tag k="natural" v="ridge" />
		<tag k="place" v="locality" />
		<tag k="ssr:stedsnr" v="344472" />
	</node>
	<node id="-26914" lat="60.5609000025" lon="8.64302776973">
		<tag k="fixme" v="consider natural=peak for the most distinct mountains in the district" />
		<tag k="name" v="Grevskarhovdun" />
		<tag k="natural" v="hill" />
		<tag k="place" v="locality" />
		<tag k="ssr:stedsnr" v="342710" />
	</node>
	<node id="-26913" lat="60.5485335951" lon="8.71644600513">
		<tag k="fixme" v="consider natural=peak for the most distinct mountains in the district" />
		<tag k="name" v="Briskeranden" />
		<tag k="natural" v="hill" />
		<tag k="place" v="locality" />
		<tag k="ssr:stedsnr" v="482671" />
	</node>
	<node id="-26912" lat="60.5591722236" lon="8.70468888672">
		<tag k="fixme" v="consider natural=peak for the most distinct mountains in the district" />
		<tag k="name" v="Storebrenna" />
		<tag k="natural" v="hill" />
		<tag k="place" v="locality" />
		<tag k="ssr:stedsnr" v="482667" />
	</node>
	<node id="-26910" lat="60.5359861075" lon="8.69908610807">
		<tag k="name" v="Kyrkjelii" />
		<tag k="natural" v="slope" />
		<tag k="old_name" v="Kyrkjellii" />
		<tag k="place" v="locality" />
		<tag k="ssr:stedsnr" v="481676" />
	</node>
	<node id="-26907" lat="60.7250027808" lon="8.6732888974">
		<tag k="name" v="Hyttehaugane" />
		<tag k="natural" v="hill" />
		<tag k="place" v="locality" />
		<tag k="ssr:stedsnr" v="480148" />
	</node>
	<node id="-26906" lat="60.7219166641" lon="8.20256111547">
		<tag k="name" v="Brennhaugen" />
		<tag k="natural" v="hill" />
		<tag k="place" v="locality" />
		<tag k="ssr:stedsnr" v="480183" />
	</node>
	<node id="-26895" lat="60.8242666681" lon="7.93995000812">
		<tag k="fixme" v="consider natural=peak for the most distinct mountains in the district" />
		<tag k="name" v="Fødalsbrea" />
		<tag k="natural" v="hill" />
		<tag k="place" v="locality" />
		<tag k="ssr:stedsnr" v="312713" />
	</node>
	<node id="-26894" lat="60.8221527744" lon="7.92490555814">
		<tag k="name" v="Veslebotn" />
		<tag k="natural" v="valley" />
		<tag k="place" v="locality" />
		<tag k="ssr:stedsnr" v="312712" />
	</node>
	<node id="-26887" lat="60.55989167" lon="8.68947222875">
		<tag k="name" v="Nonshamaren" />
		<tag k="natural" v="cliff" />
		<tag k="ssr:stedsnr" v="301952" />
	</node>
	<node id="-26886" lat="60.6781194443" lon="8.68441666593">
		<tag k="name" v="Slettun" />
		<tag k="place" v="locality" />
		<tag k="ssr:stedsnr" v="299959" />
	</node>
	<node id="-26885" lat="60.6858666631" lon="8.45050000882">
		<tag k="name" v="Ørnedekkane" />
		<tag k="place" v="locality" />
		<tag k="ssr:stedsnr" v="299367" />
	</node>
	<node id="-26880" lat="60.641363887" lon="8.40525555384">
		<tag k="name" v="Langehaugen" />
		<tag k="natural" v="hill" />
		<tag k="place" v="locality" />
		<tag k="ssr:stedsnr" v="466735" />
	</node>
	<node id="-26876" lat="60.6754111106" lon="8.33322500521">
		<tag k="name" v="Lappehovda" />
		<tag k="natural" v="hill" />
		<tag k="place" v="locality" />
		<tag k="ssr:stedsnr" v="465836" />
	</node>
	<node id="-26869" lat="60.7278666636" lon="8.74811110427">
		<tag k="name" v="Langehovda" />
		<tag k="natural" v="hill" />
		<tag k="place" v="locality" />
		<tag k="ssr:stedsnr" v="465428" />
	</node>
	<node id="-26866" lat="60.747950001" lon="8.44996944824">
		<tag k="name" v="Skurveberget" />
		<tag k="natural" v="hill" />
		<tag k="place" v="locality" />
		<tag k="ssr:stedsnr" v="465041" />
	</node>
	<node id="-26860" lat="60.5135194433" lon="8.42786389517">
		<tag k="name" v="Teinhovdstøllie" />
		<tag k="natural" v="slope" />
		<tag k="place" v="locality" />
		<tag k="ssr:stedsnr" v="267463" />
	</node>
	<node id="-26844" lat="60.6062888926" lon="8.56505277208">
		<tag k="name" v="Bjørnebakken" />
		<tag k="natural" v="slope" />
		<tag k="place" v="locality" />
		<tag k="ssr:stedsnr" v="223565" />
	</node>
	<node id="-26843" lat="60.7044027809" lon="8.5752694378">
		<tag k="name" v="Krosshaugberget" />
		<tag k="natural" v="hill" />
		<tag k="place" v="locality" />
		<tag k="ssr:stedsnr" v="298711" />
	</node>
	<node id="-26840" lat="60.7044361114" lon="8.38122777962">
		<tag k="name" v="Håkonnatten" />
		<tag k="natural" v="hill" />
		<tag k="place" v="locality" />
		<tag k="ssr:stedsnr" v="298376" />
	</node>
	<node id="-26839" lat="60.7030055534" lon="8.36865277155">
		<tag k="name" v="Settungsgardsnatten" />
		<tag k="natural" v="hill" />
		<tag k="place" v="locality" />
		<tag k="ssr:stedsnr" v="298375" />
	</node>
	<node id="-26836" lat="60.5651444424" lon="8.46533610692">
		<tag k="name" v="Øvre Svaberget" />
		<tag k="natural" v="hill" />
		<tag k="place" v="locality" />
		<tag k="ssr:stedsnr" v="295563" />
	</node>
	<node id="-26834" lat="60.7918388857" lon="8.18136388293">
		<tag k="name" v="Sandskardet" />
		<tag k="natural" v="valley" />
		<tag k="place" v="locality" />
		<tag k="ssr:stedsnr" v="191842" />
	</node>
	<node id="-26830" lat="60.7553305556" lon="8.52999166069">
		<tag k="name" v="Hellerane" />
		<tag k="natural" v="hill" />
		<tag k="place" v="locality" />
		<tag k="ssr:stedsnr" v="191029" />
	</node>
	<node id="-26829" lat="60.8651750019" lon="7.86209999263">
		<tag k="alt_name" v="Haldalen, nordre;Nørdre Haldalen" />
		<tag k="name" v="Nørdre Halldalen" />
		<tag k="natural" v="valley" />
		<tag k="place" v="locality" />
		<tag k="ssr:stedsnr" v="190641" />
	</node>
	<node id="-26824" lat="60.4811777745" lon="8.37916945181">
		<tag k="fixme" v="consider natural=peak for the most distinct mountains in the district" />
		<tag k="name" v="Bekretjørnhovda" />
		<tag k="natural" v="hill" />
		<tag k="place" v="locality" />
		<tag k="ssr:stedsnr" v="187853" />
	</node>
	<node id="-26822" lat="60.5756499956" lon="8.60122776922">
		<tag k="fixme" v="consider natural=peak for the most distinct mountains in the district" />
		<tag k="name" v="Vesle Bunsa" />
		<tag k="natural" v="hill" />
		<tag k="place" v="locality" />
		<tag k="ssr:stedsnr" v="180824" />
	</node>
	<node id="-26818" lat="60.7043222232" lon="8.38736666612">
		<tag k="name" v="Håkonhovda" />
		<tag k="natural" v="hill" />
		<tag k="place" v="locality" />
		<tag k="ssr:stedsnr" v="284910" />
	</node>
	<node id="-26814" lat="60.7149333348" lon="8.64302500247">
		<tag k="name" v="Dølaslette" />
		<tag k="place" v="locality" />
		<tag k="ssr:stedsnr" v="284686" />
	</node>
	<node id="-26812" lat="60.7093694405" lon="8.32446110507">
		<tag k="name" v="Hean" />
		<tag k="place" v="locality" />
		<tag k="ssr:stedsnr" v="284505" />
	</node>
	<node id="-26655" lat="60.7180888916" lon="8.75187221699">
		<tag k="alt_name" v="Steinhøgdin" />
		<tag k="name" v="Steinhøgdine" />
		<tag k="natural" v="hill" />
		<tag k="place" v="locality" />
		<tag k="ssr:stedsnr" v="67831" />
	</node>
	<node id="-26808" lat="60.6869944466" lon="8.75591943805">
		<tag k="name" v="Timreskardet" />
		<tag k="natural" v="valley" />
		<tag k="place" v="locality" />
		<tag k="ssr:stedsnr" v="283255" />
	</node>
	<node id="-26806" lat="60.6989777778" lon="8.48961944451">
		<tag k="name" v="Gunnarhaugen" />
		<tag k="natural" v="hill" />
		<tag k="place" v="locality" />
		<tag k="ssr:stedsnr" v="283162" />
	</node>
	<node id="-26800" lat="60.6782388912" lon="8.37003332893">
		<tag k="name" v="Grøthovda" />
		<tag k="natural" v="hill" />
		<tag k="place" v="locality" />
		<tag k="ssr:stedsnr" v="162855" />
	</node>
	<node id="-26795" lat="60.5879694423" lon="8.59282500471">
		<tag k="name" v="Gjestolhaugen" />
		<tag k="natural" v="hill" />
		<tag k="place" v="locality" />
		<tag k="ssr:stedsnr" v="162602" />
	</node>
	<node id="-26792" lat="60.7373638863" lon="8.67915833805">
		<tag k="name" v="Kviteberget" />
		<tag k="natural" v="hill" />
		<tag k="place" v="locality" />
		<tag k="ssr:stedsnr" v="162171" />
	</node>
	<node id="-26787" lat="60.7121722234" lon="8.47231388057">
		<tag k="name" v="Ivarberget" />
		<tag k="natural" v="hill" />
		<tag k="place" v="locality" />
		<tag k="ssr:stedsnr" v="162010" />
	</node>
	<node id="-26782" lat="60.7530166671" lon="8.63880556091">
		<tag k="name" v="Stuvesethovda" />
		<tag k="natural" v="hill" />
		<tag k="place" v="locality" />
		<tag k="ssr:stedsnr" v="130032" />
	</node>
	<node id="-26780" lat="60.850575002" lon="8.12947222623">
		<tag k="name" v="Skålakjeften" />
		<tag k="natural" v="slope" />
		<tag k="place" v="locality" />
		<tag k="ssr:stedsnr" v="129931" />
	</node>
	<node id="-26779" lat="60.7612499967" lon="8.51148610706">
		<tag k="fixme" v="consider natural=peak for the most distinct mountains in the district" />
		<tag k="name" v="Syningen" />
		<tag k="natural" v="hill" />
		<tag k="place" v="locality" />
		<tag k="ssr:stedsnr" v="129029" />
	</node>
	<node id="-26770" lat="60.6896916669" lon="8.67536388833">
		<tag k="name" v="Helsethaugen" />
		<tag k="natural" v="hill" />
		<tag k="place" v="locality" />
		<tag k="ssr:stedsnr" v="127907" />
	</node>
	<node id="-26768" lat="60.5619694437" lon="8.68047499906">
		<tag k="alt_name" v="Bollfjellet;Bolfjell" />
		<tag k="fixme" v="consider natural=peak for the most distinct mountains in the district" />
		<tag k="name" v="Bolfjellet" />
		<tag k="natural" v="hill" />
		<tag k="place" v="locality" />
		<tag k="ssr:stedsnr" v="128009" />
	</node>
	<node id="-26764" lat="60.7231888849" lon="8.20943888395">
		<tag k="name" v="Kvanneberget" />
		<tag k="natural" v="hill" />
		<tag k="place" v="locality" />
		<tag k="ssr:stedsnr" v="127510" />
	</node>
	<node id="-26759" lat="60.6252694443" lon="8.5928250051">
		<tag k="name" v="Olastølmønet" />
		<tag k="natural" v="hill" />
		<tag k="place" v="locality" />
		<tag k="ssr:stedsnr" v="263839" />
	</node>
	<node id="-26756" lat="60.582286108" lon="8.62008888918">
		<tag k="name" v="Kroktjørnhaugen" />
		<tag k="natural" v="hill" />
		<tag k="place" v="locality" />
		<tag k="ssr:stedsnr" v="119794" />
	</node>
	<node id="-26752" lat="60.5236611087" lon="8.42914999552">
		<tag k="name" v="Gryfledalen" />
		<tag k="natural" v="valley" />
		<tag k="place" v="locality" />
		<tag k="ssr:stedsnr" v="115005" />
	</node>
	<node id="-26745" lat="60.845505557" lon="8.12473332566">
		<tag k="alt_name" v="Skålanuten, s" />
		<tag k="fixme" v="consider natural=peak for the most distinct mountains in the district" />
		<tag k="name" v="Søre Skålanuten" />
		<tag k="natural" v="hill" />
		<tag k="place" v="locality" />
		<tag k="ssr:stedsnr" v="251936" />
	</node>
	<node id="-26744" lat="60.8138166633" lon="8.25837778038">
		<tag k="fixme" v="consider natural=peak for the most distinct mountains in the district" />
		<tag k="name" v="Veslebottnatten" />
		<tag k="natural" v="hill" />
		<tag k="place" v="locality" />
		<tag k="ssr:stedsnr" v="251932" />
	</node>
	<node id="-26743" lat="60.8167499989" lon="8.42234999822">
		<tag k="name" v="Fagerdalen" />
		<tag k="natural" v="valley" />
		<tag k="place" v="locality" />
		<tag k="ssr:stedsnr" v="251929" />
	</node>
	<node id="-26742" lat="60.7783777762" lon="8.43543610261">
		<tag k="name" v="Fossedalen" />
		<tag k="natural" v="valley" />
		<tag k="place" v="locality" />
		<tag k="ssr:stedsnr" v="251910" />
	</node>
	<node id="-26740" lat="60.8350750034" lon="7.93286110625">
		<tag k="name" v="Klevahovda" />
		<tag k="natural" v="hill" />
		<tag k="place" v="locality" />
		<tag k="ssr:stedsnr" v="251760" />
	</node>
	<node id="-26738" lat="60.8451166651" lon="7.99133611485">
		<tag k="name" v="Mjolgebotnen" />
		<tag k="natural" v="valley" />
		<tag k="place" v="locality" />
		<tag k="ssr:stedsnr" v="251755" />
	</node>
	<node id="-26736" lat="60.8072500015" lon="8.07521666552">
		<tag k="fixme" v="consider natural=peak for the most distinct mountains in the district" />
		<tag k="name" v="Såta" />
		<tag k="natural" v="hill" />
		<tag k="ssr:stedsnr" v="251734" />
	</node>
	<node id="-26735" lat="60.8045916687" lon="8.05654999158">
		<tag k="fixme" v="consider natural=peak for the most distinct mountains in the district" />
		<tag k="name" v="Djupedalsbrea" />
		<tag k="natural" v="hill" />
		<tag k="place" v="locality" />
		<tag k="ssr:stedsnr" v="251732" />
	</node>
	<node id="-26734" lat="60.8716166661" lon="7.92797500382">
		<tag k="name" v="Breidskard" />
		<tag k="natural" v="valley" />
		<tag k="place" v="locality" />
		<tag k="ssr:stedsnr" v="251673" />
	</node>
	<node id="-28777" lat="60.5120878054" lon="8.68149127569">
		<tag k="fixme" v="consider natural=peak for the most distinct mountains in the district" />
		<tag k="name" v="Såtenatten" />
		<tag k="natural" v="hill" />
		<tag k="place" v="locality" />
		<tag k="ssr:stedsnr" v="553180" />
	</node>
	<node id="-26726" lat="60.6541416688" lon="8.36477778327">
		<tag k="name" v="Reset" />
		<tag k="natural" v="slope" />
		<tag k="place" v="locality" />
		<tag k="ssr:stedsnr" v="250558" />
	</node>
	<node id="-26722" lat="60.6142722204" lon="8.71993334055">
		<tag k="fixme" v="consider natural=peak for the most distinct mountains in the district" />
		<tag k="name" v="Baustehovda" />
		<tag k="natural" v="hill" />
		<tag k="place" v="locality" />
		<tag k="ssr:stedsnr" v="250090" />
	</node>
	<node id="-26716" lat="60.6029555559" lon="8.76219167101">
		<tag k="alt_name" v="Rundhovdene" />
		<tag k="name" v="Rundhovdun" />
		<tag k="natural" v="hill" />
		<tag k="place" v="locality" />
		<tag k="ssr:stedsnr" v="250059" />
	</node>
	<node id="-26706" lat="60.6782833351" lon="8.51165555247">
		<tag k="name" v="Svartebergi" />
		<tag k="natural" v="hill" />
		<tag k="old_name" v="Svartberget" />
		<tag k="place" v="locality" />
		<tag k="ssr:stedsnr" v="249902" />
	</node>
	<node id="-26702" lat="60.6984111114" lon="8.54296110243">
		<tag k="name" v="Ørneberget" />
		<tag k="natural" v="hill" />
		<tag k="place" v="locality" />
		<tag k="ssr:stedsnr" v="249863" />
	</node>
	<node id="-26698" lat="60.7143666637" lon="8.73102777512">
		<tag k="name" v="Kråkehovda" />
		<tag k="natural" v="hill" />
		<tag k="place" v="locality" />
		<tag k="ssr:stedsnr" v="249834" />
	</node>
	<node id="-28745" lat="60.5299500039" lon="8.60836666853">
		<tag k="name" v="Veslehøgde" />
		<tag k="natural" v="hill" />
		<tag k="place" v="locality" />
		<tag k="ssr:stedsnr" v="966780" />
	</node>
	<node id="-26695" lat="60.7423999986" lon="8.71147499216">
		<tag k="name" v="Storefeten" />
		<tag k="place" v="locality" />
		<tag k="ssr:stedsnr" v="249800" />
	</node>
	<node id="-28742" lat="60.679086108" lon="8.56476666056">
		<tag k="name" v="Grønebakkberget" />
		<tag k="natural" v="hill" />
		<tag k="place" v="locality" />
		<tag k="ssr:stedsnr" v="966732" />
	</node>
	<node id="-28738" lat="60.7085277747" lon="8.35381111752">
		<tag k="name" v="Heimstølhovdun" />
		<tag k="natural" v="hill" />
		<tag k="place" v="locality" />
		<tag k="ssr:stedsnr" v="966432" />
	</node>
	<node id="-28737" lat="60.6131333327" lon="8.75271389662">
		<tag k="name" v="Kreklingslette" />
		<tag k="place" v="locality" />
		<tag k="ssr:stedsnr" v="965037" />
	</node>
	<node id="-28735" lat="60.5630499998" lon="8.40118333402">
		<tag k="name" v="Sangelie" />
		<tag k="natural" v="slope" />
		<tag k="place" v="locality" />
		<tag k="ssr:stedsnr" v="962731" />
	</node>
	<node id="-26686" lat="60.705363889" lon="8.17667776883">
		<tag k="fixme" v="consider natural=peak for the most distinct mountains in the district" />
		<tag k="name" v="Kjølen" />
		<tag k="natural" v="hill" />
		<tag k="place" v="locality" />
		<tag k="ssr:stedsnr" v="249528" />
	</node>
	<node id="-28727" lat="60.6705972186" lon="8.66320833294">
		<tag k="name" v="Bruhaugane" />
		<tag k="place" v="locality" />
		<tag k="ssr:stedsnr" v="951820" />
	</node>
	<node id="-26678" lat="60.746813889" lon="8.28028888593">
		<tag k="fixme" v="consider natural=peak for the most distinct mountains in the district" />
		<tag k="name" v="Skardhovda" />
		<tag k="natural" v="hill" />
		<tag k="old_name" v="Skarhovda" />
		<tag k="place" v="locality" />
		<tag k="ssr:stedsnr" v="249457" />
	</node>
	<node id="-28725" lat="60.6102916655" lon="8.45256944711">
		<tag k="name" v="Skurvenatten" />
		<tag k="natural" v="hill" />
		<tag k="place" v="locality" />
		<tag k="ssr:stedsnr" v="951591" />
	</node>
	<node id="-26676" lat="60.5576083375" lon="8.58868333275">
		<tag k="alt_name" v="Røungshovda" />
		<tag k="fixme" v="consider natural=peak for the most distinct mountains in the district" />
		<tag k="name" v="Rødungshovda" />
		<tag k="natural" v="hill" />
		<tag k="place" v="locality" />
		<tag k="ssr:stedsnr" v="249228" />
	</node>
	<node id="-28723" lat="60.5880416663" lon="8.44548055071">
		<tag k="name" v="Tellehaug" />
		<tag k="place" v="locality" />
		<tag k="ssr:stedsnr" v="951427" />
	</node>
	<node id="-28722" lat="60.7662722192" lon="8.07524722816">
		<tag k="alt_name" v="Skurvehovda, nedre" />
		<tag k="name" v="Nedre Skurvehovda" />
		<tag k="natural" v="hill" />
		<tag k="place" v="locality" />
		<tag k="ssr:stedsnr" v="951481" />
	</node>
	<node id="-28721" lat="60.7192777802" lon="8.76920000474">
		<tag k="name" v="Veslesyningen" />
		<tag k="natural" v="hill" />
		<tag k="place" v="locality" />
		<tag k="ssr:stedsnr" v="951469" />
	</node>
	<node id="-28718" lat="60.7341777762" lon="8.551477784">
		<tag k="name" v="Flænane" />
		<tag k="place" v="locality" />
		<tag k="ssr:stedsnr" v="951152" />
	</node>
	<node id="-28717" lat="60.7582444444" lon="8.60120000487">
		<tag k="name" v="Breisethovda" />
		<tag k="natural" v="hill" />
		<tag k="place" v="locality" />
		<tag k="ssr:stedsnr" v="951143" />
	</node>
	<node id="-26668" lat="60.5846527799" lon="8.55639445261">
		<tag k="alt_name" v="Mefaringshovda" />
		<tag k="name" v="Mefarningshovda" />
		<tag k="natural" v="hill" />
		<tag k="place" v="locality" />
		<tag k="ssr:stedsnr" v="249017" />
	</node>
	<node id="-26666" lat="60.5640750037" lon="8.53267222346">
		<tag k="fixme" v="consider natural=peak for the most distinct mountains in the district" />
		<tag k="name" v="Gjøtehovda" />
		<tag k="natural" v="hill" />
		<tag k="old_name" v="Ljote Hovden" />
		<tag k="place" v="locality" />
		<tag k="ssr:stedsnr" v="249008" />
	</node>
	<node id="-26665" lat="60.8510027818" lon="8.04281389302">
		<tag k="fixme" v="consider natural=peak for the most distinct mountains in the district" />
		<tag k="name" v="Julsennose" />
		<tag k="natural" v="hill" />
		<tag k="old_name" v="Julsengnøset" />
		<tag k="place" v="locality" />
		<tag k="ssr:stedsnr" v="69691" />
	</node>
	<node id="-26664" lat="60.8844750016" lon="7.98928332414">
		<tag k="fixme" v="consider natural=peak for the most distinct mountains in the district" />
		<tag k="name" v="Gråhyrneran" />
		<tag k="natural" v="hill" />
		<tag k="place" v="locality" />
		<tag k="ssr:stedsnr" v="69684" />
	</node>
	<node id="-26663" lat="60.8756249989" lon="7.79323610691">
		<tag k="name" v="Flågrunnane" />
		<tag k="place" v="locality" />
		<tag k="ssr:stedsnr" v="69677" />
	</node>
	<node id="-26661" lat="60.8117722266" lon="8.26580556282">
		<tag k="name" v="Veslebotn" />
		<tag k="natural" v="valley" />
		<tag k="place" v="locality" />
		<tag k="ssr:stedsnr" v="69909" />
	</node>
	<node id="-28708" lat="60.7585833302" lon="8.71228888358">
		<tag k="name" v="Storhovda" />
		<tag k="natural" v="hill" />
		<tag k="place" v="locality" />
		<tag k="ssr:stedsnr" v="859036" />
	</node>
	<node id="-28707" lat="60.7656500016" lon="8.71787500114">
		<tag k="alt_name" v="Bellebuhovda, nordre" />
		<tag k="name" v="Nordre Bellebuhovda" />
		<tag k="natural" v="hill" />
		<tag k="place" v="locality" />
		<tag k="ssr:stedsnr" v="859034" />
	</node>
	<node id="-26656" lat="60.7181833294" lon="8.76491944873">
		<tag k="name" v="Syningen" />
		<tag k="natural" v="hill" />
		<tag k="place" v="locality" />
		<tag k="ssr:stedsnr" v="67832" />
	</node>
	<node id="-28703" lat="60.8161999962" lon="8.0022111054">
		<tag k="fixme" v="consider natural=peak for the most distinct mountains in the district" />
		<tag k="name" v="Veslebrea" />
		<tag k="natural" v="hill" />
		<tag k="place" v="locality" />
		<tag k="ssr:stedsnr" v="858781" />
	</node>
	<node id="-28702" lat="60.81853889" lon="7.95157499921">
		<tag k="fixme" v="consider natural=peak for the most distinct mountains in the district" />
		<tag k="name" v="Tovikbergi" />
		<tag k="natural" v="hill" />
		<tag k="place" v="locality" />
		<tag k="ssr:stedsnr" v="858777" />
	</node>
	<node id="-28699" lat="60.8085444405" lon="8.31075278283">
		<tag k="name" v="Øynehovda" />
		<tag k="natural" v="hill" />
		<tag k="place" v="locality" />
		<tag k="ssr:stedsnr" v="858901" />
	</node>
	<node id="-28698" lat="60.8225194429" lon="8.14160277911">
		<tag k="name" v="Vollebotn" />
		<tag k="natural" v="valley" />
		<tag k="place" v="locality" />
		<tag k="ssr:stedsnr" v="858899" />
	</node>
	<node id="-28696" lat="60.7937999981" lon="8.28117778192">
		<tag k="fixme" v="consider natural=peak for the most distinct mountains in the district" />
		<tag k="name" v="Hestefjellet" />
		<tag k="natural" v="hill" />
		<tag k="place" v="locality" />
		<tag k="ssr:stedsnr" v="858887" />
	</node>
	<node id="-28695" lat="60.7806249966" lon="8.3345999956">
		<tag k="name" v="Klypesberget" />
		<tag k="natural" v="hill" />
		<tag k="place" v="locality" />
		<tag k="ssr:stedsnr" v="858885" />
	</node>
	<node id="-28693" lat="60.7991361154" lon="8.08035555942">
		<tag k="fixme" v="consider natural=peak for the most distinct mountains in the district" />
		<tag k="name" v="Karkenuten" />
		<tag k="natural" v="hill" />
		<tag k="place" v="locality" />
		<tag k="ssr:stedsnr" v="858736" />
	</node>
	<node id="-26644" lat="60.6826166667" lon="8.6663222145">
		<tag k="name" v="Brendemoen" />
		<tag k="place" v="locality" />
		<tag k="ssr:stedsnr" v="67918" />
	</node>
	<node id="-26642" lat="60.6840472224" lon="8.47817499777">
		<tag k="alt_name" v="Skinnatten" />
		<tag k="name" v="Skjennatten" />
		<tag k="natural" v="hill" />
		<tag k="place" v="locality" />
		<tag k="ssr:stedsnr" v="67902" />
	</node>
	<node id="-26627" lat="60.5807111155" lon="8.53933611617">
		<tag k="name" v="Åsbrendhovda" />
		<tag k="natural" v="hill" />
		<tag k="place" v="locality" />
		<tag k="ssr:stedsnr" v="238934" />
	</node>
	<node id="-28687" lat="60.5328361143" lon="8.6712666743">
		<tag k="fixme" v="consider natural=peak for the most distinct mountains in the district" />
		<tag k="name" v="Lauvhovda" />
		<tag k="natural" v="hill" />
		<tag k="place" v="locality" />
		<tag k="ssr:stedsnr" v="857244" />
	</node>
	<node id="-28686" lat="60.5189555593" lon="8.58370555408">
		<tag k="alt_name" v="Røungslie" />
		<tag k="name" v="Rødungslii" />
		<tag k="natural" v="slope" />
		<tag k="place" v="locality" />
		<tag k="ssr:stedsnr" v="857235" />
	</node>
	<node id="-28684" lat="60.5221166625" lon="8.60783888093">
		<tag k="name" v="Brennhaugen" />
		<tag k="natural" v="hill" />
		<tag k="place" v="locality" />
		<tag k="ssr:stedsnr" v="857229" />
	</node>
	<node id="-28681" lat="60.672225002" lon="8.64520000583">
		<tag k="alt_name" v="Veslenåbbe" />
		<tag k="name" v="Veslenobbi" />
		<tag k="natural" v="hill" />
		<tag k="place" v="locality" />
		<tag k="ssr:stedsnr" v="856948" />
	</node>
	<node id="-26630" lat="60.5412027781" lon="8.54736666501">
		<tag k="fixme" v="consider natural=peak for the most distinct mountains in the district" />
		<tag k="name" v="Nystølhovda" />
		<tag k="natural" v="hill" />
		<tag k="place" v="locality" />
		<tag k="ssr:stedsnr" v="310226" />
	</node>
	<node id="-28677" lat="60.7191000043" lon="8.69104999238">
		<tag k="alt_name" v="Pikkhaug" />
		<tag k="name" v="Pikhaug" />
		<tag k="natural" v="hill" />
		<tag k="place" v="locality" />
		<tag k="ssr:stedsnr" v="856843" />
	</node>
	<node id="-28675" lat="60.736633337" lon="8.69282777896">
		<tag k="alt_name" v="Gauvhovd" />
		<tag k="loc_name" v="Gaurhovda" />
		<tag k="name" v="Gaurhovd" />
		<tag k="natural" v="hill" />
		<tag k="place" v="locality" />
		<tag k="ssr:stedsnr" v="856832" />
	</node>
	<node id="-26626" lat="60.5619250025" lon="8.57921666207">
		<tag k="name" v="Lensmannshaugen" />
		<tag k="natural" v="hill" />
		<tag k="place" v="locality" />
		<tag k="ssr:stedsnr" v="58911" />
	</node>
	<node id="-26625" lat="60.6916972237" lon="8.31481389787">
		<tag k="name" v="Tullekamben" />
		<tag k="natural" v="slope" />
		<tag k="place" v="locality" />
		<tag k="ssr:stedsnr" v="238786" />
	</node>
</osm>
