<?xml version="1.0" encoding="UTF-8"?>
<<<<<<< HEAD
<osm version="0.6" generator="osmapis">
	<node lat="60.67661388615007" lon="8.575030555086878" id="-25997">
		<tag k="name" v="Syningstjørn" />
		<tag k="natural" v="water" />
		<tag k="ssr:stedsnr" v="3669" />
	</node>
	<node lat="60.74618333697905" lon="8.43334443643999" id="-26000">
		<tag k="name" v="Breaåne" />
		<tag k="ssr:stedsnr" v="6483" />
		<tag k="waterway" v="stream" />
	</node>
	<node lat="60.74079415988681" lon="8.466583972883273" id="-26002">
		<tag k="name" v="Kråkhamarvatnet" />
		<tag k="natural" v="water" />
		<tag k="ssr:stedsnr" v="6803" />
		<tag k="water" v="lake" />
	</node>
	<node lat="60.61748333142811" lon="8.692055550267735" id="-26008">
		<tag k="alt_name" v="Hesttjerni;Hesttjørni" />
		<tag k="name" v="Hesttjørn" />
		<tag k="natural" v="water" />
		<tag k="ssr:stedsnr" v="7101" />
	</node>
	<node lat="60.67547222065425" lon="8.449175008616516" id="-26017">
		<tag k="name" v="Butjørne" />
		<tag k="natural" v="water" />
		<tag k="old_name" v="Butjørn" />
		<tag k="ssr:stedsnr" v="7518" />
	</node>
	<node lat="60.78387168620326" lon="8.468329240328888" id="-26024">
		<tag k="name" v="Reinsbottvatnet" />
		<tag k="natural" v="water" />
		<tag k="ssr:stedsnr" v="8890" />
		<tag k="water" v="lake" />
	</node>
	<node lat="60.75358889120114" lon="8.149500008437764" id="-26026">
		<tag k="name" v="Øvre Blomestøltjørne" />
		<tag k="natural" v="water" />
		<tag k="old_name" v="Blommetjørn" />
		<tag k="ssr:stedsnr" v="8993" />
	</node>
	<node lat="60.802333333300695" lon="8.082911102337917" id="-26027">
		<tag k="name" v="Karketjørne" />
		<tag k="natural" v="water" />
		<tag k="ssr:stedsnr" v="9709" />
	</node>
	<node lat="60.809091666586696" lon="7.975761104784217" id="-26028">
		<tag k="name" v="Tovikstangen" />
		<tag k="natural" v="cape" />
		<tag k="ssr:stedsnr" v="9693" />
	</node>
	<node lat="60.81026111044055" lon="8.03439999706764" id="-26029">
		<tag k="name" v="Søregrove" />
		<tag k="ssr:stedsnr" v="9699" />
		<tag k="waterway" v="stream" />
	</node>
	<node lat="60.65740555907743" lon="8.34120832745846" id="-26049">
		<tag k="name" v="Langtjørnbekken" />
		<tag k="ssr:stedsnr" v="238331" />
		<tag k="waterway" v="stream" />
	</node>
	<node lat="60.52896111059747" lon="8.681333334942712" id="-26058">
		<tag k="loc_name" v="Helgesetåni" />
		<tag k="name" v="Helgesetåne" />
		<tag k="ssr:stedsnr" v="239662" />
		<tag k="waterway" v="stream" />
	</node>
	<node lat="60.55268055169906" lon="8.59728055426766" id="-26062">
		<tag k="name" v="Nedre Suneivstjørn" />
		<tag k="natural" v="water" />
		<tag k="ssr:stedsnr" v="240827" />
	</node>
	<node lat="60.646202774686586" lon="8.80612500038918" id="-26067">
		<tag k="name" v="Svarvarbekken" />
		<tag k="ssr:stedsnr" v="67128" />
		<tag k="waterway" v="stream" />
	</node>
	<node lat="60.68696388954521" lon="8.641888889546463" id="-26077">
		<tag k="alt_name" v="Halfarbekken" />
		<tag k="name" v="Halvfarbekken" />
		<tag k="ssr:stedsnr" v="67897" />
		<tag k="waterway" v="stream" />
	</node>
	<node lat="60.521177775116215" lon="8.661586114371246" id="-26078">
		<tag k="alt_name" v="Helgesettjørn" />
		<tag k="name" v="Helgesettjørni" />
		<tag k="natural" v="water" />
		<tag k="ssr:stedsnr" v="68214" />
	</node>
	<node lat="60.52902778192494" lon="8.585091663408258" id="-26080">
		<tag k="name" v="Flabergbekken" />
		<tag k="ssr:stedsnr" v="68226" />
		<tag k="waterway" v="stream" />
	</node>
	<node lat="60.81132952200416" lon="8.37368397966333" id="-26085">
		<tag k="name" v="Vesle Beihovdtjørne" />
		<tag k="natural" v="water" />
		<tag k="ssr:stedsnr" v="69911" />
	</node>
	<node lat="60.677847221950955" lon="8.273044443687288" id="-26092">
		<tag k="name" v="Ælinggrove" />
		<tag k="old_name" v="Erlingsgrove" />
		<tag k="ssr:stedsnr" v="80945" />
		<tag k="waterway" v="stream" />
	</node>
	<node lat="60.601327777512495" lon="8.467294444251442" id="-26102">
		<tag k="alt_name" v="Sundbreigrovi" />
		<tag k="name" v="Sundbreigrove" />
		<tag k="ssr:stedsnr" v="102703" />
		<tag k="waterway" v="stream" />
	</node>
	<node lat="60.579388893010666" lon="8.69118332521471" id="-26104">
		<tag k="alt_name" v="Øvre Oddetjørn" />
		<tag k="name" v="Øvre Oddetjørni" />
		<tag k="natural" v="water" />
		<tag k="ssr:stedsnr" v="249013" />
	</node>
	<node lat="60.61480977892914" lon="8.601097729725032" id="-26110">
		<tag k="alt_name" v="Hovdetjørn" />
		<tag k="name" v="Hovdetjørni" />
		<tag k="natural" v="water" />
		<tag k="ssr:stedsnr" v="249090" />
	</node>
	<node lat="60.635433331755095" lon="8.731041662617265" id="-26111">
		<tag k="alt_name" v="Tvenesla" />
		<tag k="loc_name" v="Tvinisla" />
		<tag k="name" v="Tvinesla" />
		<tag k="natural" v="water" />
		<tag k="ssr:stedsnr" v="249094" />
	</node>
	<node lat="60.73570277912018" lon="8.310061112391011" id="-26115">
		<tag k="name" v="Blånattjørne" />
		<tag k="natural" v="water" />
		<tag k="old_name" v="Blånattjørn" />
		<tag k="ssr:stedsnr" v="249470" />
	</node>
	<node lat="60.72679085805192" lon="8.273895687107926" id="-26116">
		<tag k="name" v="Søre Dyrebotntjørne" />
		<tag k="natural" v="water" />
		<tag k="old_name" v="Dyrebotntjørne, s" />
		<tag k="ssr:stedsnr" v="249471" />
	</node>
	<node lat="60.72608611520873" lon="8.16901666422423" id="-26117">
		<tag k="name" v="Svartetjørne" />
		<tag k="natural" v="water" />
		<tag k="old_name" v="Svartetjørn, store" />
		<tag k="ssr:stedsnr" v="249473" />
	</node>
	<node lat="60.71979444291383" lon="8.261702770216113" id="-26118">
		<tag k="name" v="Bukketjørne" />
		<tag k="natural" v="water" />
		<tag k="old_name" v="Bukketjørnan" />
		<tag k="ssr:stedsnr" v="249479" />
	</node>
	<node lat="60.65062077086637" lon="8.501568825340994" id="-26144">
		<tag k="alt_name" v="Blekketjørn" />
		<tag k="name" v="Blekketjørni" />
		<tag k="natural" v="water" />
		<tag k="ssr:stedsnr" v="249983" />
	</node>
	<node lat="60.59709663424062" lon="8.619123885582923" id="-26145">
		<tag k="alt_name" v="Raudtjørn" />
		<tag k="name" v="Raudtjørni" />
		<tag k="natural" v="water" />
		<tag k="ssr:stedsnr" v="250035" />
	</node>
	<node lat="60.69111138458618" lon="8.388851818992649" id="-26152">
		<tag k="alt_name" v="Vassfjorden" />
		<tag k="name" v="Vatsfjorden" />
		<tag k="natural" v="water" />
		<tag k="old_name" v="Vassfjord" />
		<tag k="ssr:stedsnr" v="113517" />
		<tag k="water" v="lake" />
	</node>
	<node lat="60.712938889726395" lon="8.328838880399726" id="-26162">
		<tag k="name" v="Hetjørn" />
		<tag k="natural" v="water" />
		<tag k="ssr:stedsnr" v="116383" />
	</node>
	<node lat="60.534569442239594" lon="8.416666667800119" id="-26164">
		<tag k="name" v="Flåtastokk" />
		<tag k="natural" v="water" />
		<tag k="ssr:stedsnr" v="250747" />
	</node>
	<node lat="60.86234610403529" lon="7.822158668951201" id="-26170">
		<tag k="name" v="Øystre Flågrunnsvatnet" />
		<tag k="natural" v="water" />
		<tag k="ssr:stedsnr" v="251666" />
		<tag k="water" v="lake" />
	</node>
	<node lat="60.77821944571102" lon="8.05424445139165" id="-26174">
		<tag k="name" v="Karka" />
		<tag k="ssr:stedsnr" v="251745" />
		<tag k="waterway" v="stream" />
	</node>
	<node lat="60.84359279233401" lon="7.955372897490933" id="-26176">
		<tag k="name" v="Vesle Klevavatnet" />
		<tag k="natural" v="water" />
		<tag k="ssr:stedsnr" v="251757" />
		<tag k="water" v="lake" />
	</node>
	<node lat="60.82688055893831" lon="7.979458338262642" id="-26178">
		<tag k="name" v="Nykkingsgrove" />
		<tag k="ssr:stedsnr" v="251765" />
		<tag k="waterway" v="stream" />
	</node>
	<node lat="60.82889166665337" lon="8.396658334144771" id="-26180">
		<tag k="name" v="Kroktjørne" />
		<tag k="natural" v="water" />
		<tag k="ssr:stedsnr" v="251941" />
	</node>
	<node lat="60.48651666430163" lon="8.49136388554383" id="-26186">
		<tag k="name" v="Halldalsåne" />
		<tag k="ssr:stedsnr" v="127044" />
		<tag k="waterway" v="stream" />
	</node>
	<node lat="60.73642500078255" lon="8.339808341538621" id="-26187">
		<tag k="alt_name" v="Smørtjørn" />
		<tag k="name" v="Smørtjørni" />
		<tag k="natural" v="water" />
		<tag k="ssr:stedsnr" v="127503" />
	</node>
	<node lat="60.733191667340776" lon="8.369341658922599" id="-26188">
		<tag k="alt_name" v="Fjellstøltjørn" />
		<tag k="name" v="Fjellstøltjørni" />
		<tag k="natural" v="water" />
		<tag k="ssr:stedsnr" v="127504" />
	</node>
	<node lat="60.692461106862616" lon="8.55699999613877" id="-26195">
		<tag k="alt_name" v="Fettjørn" />
		<tag k="name" v="Fetjørni" />
		<tag k="natural" v="water" />
		<tag k="ssr:stedsnr" v="127901" />
	</node>
	<node lat="60.70187319184357" lon="8.301621851137236" id="-26204">
		<tag k="name" v="Tulletjørnan" />
		<tag k="natural" v="water" />
		<tag k="old_name" v="Nordre Tulletjørn;Søndre Tulletjørn" />
		<tag k="ssr:stedsnr" v="128492" />
		<tag k="water" v="lake" />
	</node>
	<node lat="60.61718055339778" lon="8.459541671649074" id="-26208">
		<tag k="alt_name" v="Tjørnstøltjørn" />
		<tag k="name" v="Tjørnstøltjørni" />
		<tag k="natural" v="water" />
		<tag k="ssr:stedsnr" v="128620" />
	</node>
	<node lat="60.70761388478926" lon="8.227227780476987" id="-26209">
		<tag k="name" v="Rødungen" />
		<tag k="natural" v="water" />
		<tag k="ssr:stedsnr" v="128884" />
		<tag k="water" v="lake" />
	</node>
	<node lat="60.87175511819292" lon="7.822294494062606" id="-26210">
		<tag k="alt_name" v="Haldalsvatnet, nordre" />
		<tag k="name" v="Nørdre Halldalsvatnet" />
		<tag k="natural" v="water" />
		<tag k="ssr:stedsnr" v="129624" />
		<tag k="water" v="lake" />
	</node>
	<node lat="60.890153003462984" lon="7.839459715978736" id="-26211">
		<tag k="alt_name" v="Djupeskardtjørni, vesle" />
		<tag k="name" v="Vesle Djupeskardtjørni" />
		<tag k="natural" v="water" />
		<tag k="ssr:stedsnr" v="129629" />
	</node>
	<node lat="60.77362499871418" lon="8.442902783833953" id="-26215">
		<tag k="name" v="Fossen" />
		<tag k="ssr:stedsnr" v="129987" />
		<tag k="waterway" v="stream" />
	</node>
	<node lat="60.81670833126933" lon="8.419591673177328" id="-26222">
		<tag k="name" v="Fagerdøla" />
		<tag k="ssr:stedsnr" v="130893" />
		<tag k="waterway" v="stream" />
	</node>
	<node lat="60.81382500347668" lon="8.272588883601705" id="-26223">
		<tag k="name" v="Storegrovi" />
		<tag k="ssr:stedsnr" v="130896" />
		<tag k="waterway" v="stream" />
	</node>
	<node lat="60.67938889330312" lon="8.355036116568808" id="-26225">
		<tag k="name" v="Mjåvassbekken" />
		<tag k="ssr:stedsnr" v="310547" />
		<tag k="waterway" v="stream" />
	</node>
	<node lat="60.72894999610742" lon="8.264225003547692" id="-26245">
		<tag k="name" v="Lomreitjørne" />
		<tag k="natural" v="water" />
		<tag k="old_name" v="Lomreitjørn" />
		<tag k="ssr:stedsnr" v="188502" />
	</node>
	<node lat="60.73600277644436" lon="8.360080563980203" id="-26246">
		<tag k="name" v="Stautjørne" />
		<tag k="natural" v="water" />
		<tag k="old_name" v="Staurtjørn" />
		<tag k="ssr:stedsnr" v="188507" />
	</node>
	<node lat="60.498971741788395" lon="8.356349762893412" id="-26247">
		<tag k="name" v="Fyritjørne" />
		<tag k="natural" v="water" />
		<tag k="old_name" v="Fyrrre Kj;Fyretj;Fyritjørn" />
		<tag k="ssr:stedsnr" v="188868" />
	</node>
	<node lat="60.79500000081155" lon="8.516049991479862" id="-26266">
		<tag k="loc_name" v="Værsjøen" />
		<tag k="name" v="Versjøen" />
		<tag k="natural" v="water" />
		<tag k="old_name" v="Vers-søen" />
		<tag k="ssr:stedsnr" v="191213" />
		<tag k="water" v="lake" />
	</node>
	<node lat="60.64844722462044" lon="8.509638882003118" id="-26276">
		<tag k="loc_name" v="Fuglehovdtjørne" />
		<tag k="name" v="Fuglehovdtjørn" />
		<tag k="natural" v="water" />
		<tag k="ssr:stedsnr" v="203738" />
	</node>
	<node lat="60.69109444451999" lon="8.60986943647172" id="-26313">
		<tag k="name" v="Mørshøl" />
		<tag k="natural" v="water" />
		<tag k="ssr:stedsnr" v="283693" />
		<tag k="water" v="lake" />
	</node>
	<node lat="60.593227779136676" lon="8.451452773325808" id="-26316">
		<tag k="alt_name" v="Kvednagrovi" />
		<tag k="name" v="Kvednagrove" />
		<tag k="ssr:stedsnr" v="284374" />
		<tag k="waterway" v="stream" />
	</node>
	<node lat="60.62630000163957" lon="8.48404167464757" id="-26318">
		<tag k="name" v="Stavåne" />
		<tag k="ssr:stedsnr" v="284523" />
		<tag k="waterway" v="stream" />
	</node>
	<node lat="60.628150000400176" lon="8.497702772899268" id="-26322">
		<tag k="name" v="Stakkestøet" />
		<tag k="place" v="locality" />
		<tag k="ssr:stedsnr" v="284991" />
	</node>
	<node lat="60.664619446066254" lon="8.474575001538525" id="-26330">
		<tag k="name" v="Guritjørn" />
		<tag k="natural" v="water" />
		<tag k="ssr:stedsnr" v="463593" />
	</node>
	<node lat="60.67573333185031" lon="8.507027782415822" id="-26338">
		<tag k="name" v="Hundetjørn" />
		<tag k="natural" v="water" />
		<tag k="ssr:stedsnr" v="465748" />
	</node>
	<node lat="60.740869446796616" lon="8.59567500537753" id="-26344">
		<tag k="alt_name" v="Steintjørn" />
		<tag k="name" v="Steintjerni" />
		<tag k="natural" v="water" />
		<tag k="ssr:stedsnr" v="309802" />
	</node>
	<node lat="60.510994445199884" lon="8.415966665372064" id="-26351">
		<tag k="name" v="Fetjaåne" />
		<tag k="ssr:stedsnr" v="309792" />
		<tag k="waterway" v="stream" />
	</node>
	<node lat="60.67521666985869" lon="8.650913883116791" id="-26352">
		<tag k="name" v="Lya" />
		<tag k="ssr:stedsnr" v="309800" />
		<tag k="waterway" v="river" />
	</node>
	<node lat="60.565269444887484" lon="8.630755557631279" id="-26353">
		<tag k="name" v="Helletjørni" />
		<tag k="natural" v="water" />
		<tag k="ssr:stedsnr" v="310003" />
	</node>
	<node lat="60.555038884951806" lon="8.624183327981077" id="-26361">
		<tag k="name" v="Vestrebekken" />
		<tag k="ssr:stedsnr" v="310231" />
		<tag k="waterway" v="stream" />
	</node>
	<node lat="60.662319443205256" lon="8.338488888641711" id="-26365">
		<tag k="name" v="Mjåvatnet" />
		<tag k="natural" v="water" />
		<tag k="old_name" v="Mjåvatn;Mjaavand" />
		<tag k="ssr:stedsnr" v="310583" />
		<tag k="water" v="lake" />
	</node>
	<node lat="60.68511666425985" lon="8.567705556246567" id="-26375">
		<tag k="alt_name" v="Nykketjørn" />
		<tag k="name" v="Nykketjørni" />
		<tag k="natural" v="water" />
		<tag k="ssr:stedsnr" v="310898" />
	</node>
	<node lat="60.88024455800045" lon="8.00992777827296" id="-26378">
		<tag k="name" v="Mjolgetjørne" />
		<tag k="natural" v="water" />
		<tag k="ssr:stedsnr" v="311682" />
	</node>
	<node lat="60.86417682434076" lon="7.789938157809821" id="-26379">
		<tag k="name" v="Midtre Flågrunnsvatnet" />
		<tag k="natural" v="water" />
		<tag k="ssr:stedsnr" v="311685" />
		<tag k="water" v="lake" />
	</node>
	<node lat="60.779248239097015" lon="8.349168953437232" id="-26380">
		<tag k="name" v="Klypestjørne" />
		<tag k="natural" v="water" />
		<tag k="ssr:stedsnr" v="311907" />
	</node>
	<node lat="60.77720197521301" lon="8.39456920536967" id="-26381">
		<tag k="name" v="Breatjørnan" />
		<tag k="natural" v="water" />
		<tag k="ssr:stedsnr" v="311909" />
		<tag k="water" v="lake" />
	</node>
	<node lat="60.74261944146099" lon="8.566052781501707" id="-26392">
		<tag k="name" v="Fiskekrokan" />
		<tag k="place" v="locality" />
		<tag k="ssr:stedsnr" v="344121" />
	</node>
	<node lat="60.70228333131726" lon="8.626900008223794" id="-26395">
		<tag k="name" v="Vesleånslette" />
		<tag k="natural" v="water" />
		<tag k="ssr:stedsnr" v="344719" />
	</node>
	<node lat="60.844938889988974" lon="8.186041664359815" id="-26399">
		<tag k="alt_name" v="Lyserbottj" />
		<tag k="name" v="Lyserbottjørni" />
		<tag k="natural" v="water" />
		<tag k="ssr:stedsnr" v="356918" />
	</node>
	<node lat="60.55475277955319" lon="8.459488890330439" id="-26400">
		<tag k="name" v="Nystøltjørn" />
		<tag k="natural" v="water" />
		<tag k="ssr:stedsnr" v="359014" />
	</node>
	<node lat="60.74492777675472" lon="8.14127221314613" id="-26402">
		<tag k="name" v="Blommetjørn" />
		<tag k="natural" v="water" />
		<tag k="ssr:stedsnr" v="359212" />
	</node>
	<node lat="60.673147224512995" lon="8.577747230154564" id="-26405">
		<tag k="name" v="Nedre Damtjørn" />
		<tag k="natural" v="water" />
		<tag k="ssr:stedsnr" v="359712" />
	</node>
	<node lat="60.69490555834734" lon="8.570174997925418" id="-26406">
		<tag k="name" v="Langetjørn" />
		<tag k="natural" v="water" />
		<tag k="ssr:stedsnr" v="359752" />
	</node>
	<node lat="60.58110675471234" lon="8.629809192163417" id="-26413">
		<tag k="alt_name" v="Kroktjørn" />
		<tag k="name" v="Kroktjørni" />
		<tag k="natural" v="water" />
		<tag k="ssr:stedsnr" v="370023" />
	</node>
	<node lat="60.73100477852349" lon="8.280923117619416" id="-26418">
		<tag k="name" v="Nørdre Dyrebotntjørne" />
		<tag k="natural" v="water" />
		<tag k="ssr:stedsnr" v="370504" />
	</node>
	<node lat="60.72310000012535" lon="8.159508341622512" id="-26419">
		<tag k="name" v="Klovsteintjørne" />
		<tag k="natural" v="water" />
		<tag k="old_name" v="Kløvsteintjørn" />
		<tag k="ssr:stedsnr" v="370510" />
	</node>
	<node lat="60.595411107586926" lon="8.476502769483583" id="-26421">
		<tag k="name" v="Strandafjorden" />
		<tag k="natural" v="water" />
		<tag k="ssr:stedsnr" v="370709" />
		<tag k="water" v="lake" />
	</node>
	<node lat="60.745199996174485" lon="8.654736113801123" id="-26422">
		<tag k="alt_name" v="Dyretjørn" />
		<tag k="name" v="Dyretjerni" />
		<tag k="natural" v="water" />
		<tag k="ssr:stedsnr" v="370819" />
	</node>
	<node lat="60.56476388459634" lon="8.588319445827604" id="-26433">
		<tag k="alt_name" v="Nysettjørn" />
		<tag k="name" v="Nysettjørni" />
		<tag k="natural" v="water" />
		<tag k="ssr:stedsnr" v="371002" />
	</node>
	<node lat="60.55601666727907" lon="8.690147227032995" id="-26436">
		<tag k="alt_name" v="Hamretjørn" />
		<tag k="name" v="Hamretjørni" />
		<tag k="natural" v="water" />
		<tag k="ssr:stedsnr" v="371229" />
	</node>
	<node lat="60.64133888483967" lon="8.388361113244159" id="-26438">
		<tag k="name" v="Langtjørne" />
		<tag k="natural" v="water" />
		<tag k="old_name" v="Langtjørn" />
		<tag k="ssr:stedsnr" v="371613" />
	</node>
	<node lat="60.641315729272335" lon="8.384886993715627" id="-26439">
		<tag k="name" v="Daudfettjørne" />
		<tag k="natural" v="water" />
		<tag k="old_name" v="Daufettjørn" />
		<tag k="ssr:stedsnr" v="371614" />
	</node>
	<node lat="60.53175833672686" lon="8.490744444881933" id="-26450">
		<tag k="name" v="Langetjørnbekken" />
		<tag k="ssr:stedsnr" v="481795" />
		<tag k="waterway" v="stream" />
	</node>
	<node lat="60.48269166791858" lon="8.370044444616287" id="-26455">
		<tag k="alt_name" v="Skjærtjødn" />
		<tag k="name" v="Skjærtjørn" />
		<tag k="natural" v="water" />
		<tag k="ssr:stedsnr" v="483618" />
	</node>
	<node lat="60.56201666328812" lon="8.615913888350386" id="-26456">
		<tag k="name" v="Purka" />
		<tag k="natural" v="water" />
		<tag k="ssr:stedsnr" v="403474" />
	</node>
	<node lat="60.66944166277415" lon="8.663950001385995" id="-26463">
		<tag k="name" v="Lya" />
		<tag k="ssr:stedsnr" v="405938" />
		<tag k="waterway" v="river" />
	</node>
	<node lat="60.663913892766935" lon="8.346508336191897" id="-26467">
		<tag k="name" v="Mjåvassbekken" />
		<tag k="ssr:stedsnr" v="420315" />
		<tag k="waterway" v="stream" />
	</node>
	<node lat="60.475883329697375" lon="8.389530546867933" id="-26473">
		<tag k="alt_name" v="Damtjørni" />
		<tag k="name" v="Damtjørne" />
		<tag k="natural" v="water" />
		<tag k="ssr:stedsnr" v="430808" />
	</node>
	<node lat="60.71981388818305" lon="8.172716667648647" id="-26476">
		<tag k="name" v="Juvåne" />
		<tag k="ssr:stedsnr" v="431508" />
		<tag k="waterway" v="stream" />
	</node>
	<node lat="60.54906111521976" lon="8.631800007985374" id="-26477">
		<tag k="name" v="Vesle Skitjørn" />
		<tag k="natural" v="water" />
		<tag k="ssr:stedsnr" v="431702" />
	</node>
	<node lat="60.721983253343275" lon="8.667662601448491" id="-26478">
		<tag k="alt_name" v="Øknevatn" />
		<tag k="name" v="Øknevatni" />
		<tag k="natural" v="water" />
		<tag k="ssr:stedsnr" v="431852" />
		<tag k="water" v="lake" />
	</node>
	<node lat="60.53798889135167" lon="8.686894438457507" id="-26481">
		<tag k="name" v="Riklebekken" />
		<tag k="ssr:stedsnr" v="432203" />
		<tag k="waterway" v="stream" />
	</node>
	<node lat="60.55957607486887" lon="8.628136214269661" id="-26485">
		<tag k="name" v="Flåta" />
		<tag k="natural" v="water" />
		<tag k="old_name" v="Flaata;Flaate Kj:" />
		<tag k="ssr:stedsnr" v="432237" />
		<tag k="water" v="lake" />
	</node>
	<node lat="60.65201388637168" lon="8.57570277934525" id="-26487">
		<tag k="name" v="Votna" />
		<tag k="old_name" v="Vatna" />
		<tag k="ssr:stedsnr" v="432521" />
		<tag k="waterway" v="river" />
	</node>
	<node lat="60.70047221856204" lon="8.35029166191378" id="-26488">
		<tag k="name" v="Dusa" />
		<tag k="ssr:stedsnr" v="432536" />
		<tag k="waterway" v="stream" />
	</node>
	<node lat="60.69734722372865" lon="8.320955562742988" id="-26490">
		<tag k="name" v="Lappegrove" />
		<tag k="ssr:stedsnr" v="432481" />
		<tag k="waterway" v="stream" />
	</node>
	<node lat="60.73174311923719" lon="8.413199041168816" id="-26492">
		<tag k="name" v="Hengsvatnet" />
		<tag k="natural" v="water" />
		<tag k="ssr:stedsnr" v="491476" />
		<tag k="water" v="lake" />
	</node>
	<node lat="60.80899999735206" lon="7.998575008111655" id="-26496">
		<tag k="name" v="Armen" />
		<tag k="natural" v="cape" />
		<tag k="ssr:stedsnr" v="433708" />
	</node>
	<node lat="60.742036112185325" lon="8.674633325039705" id="-26498">
		<tag k="name" v="Buhovdvatnet" />
		<tag k="natural" v="water" />
		<tag k="ssr:stedsnr" v="491801" />
		<tag k="water" v="lake" />
	</node>
	<node lat="60.8890000032858" lon="8.007033324828784" id="-26500">
		<tag k="name" v="Jøranvatnet" />
		<tag k="natural" v="water" />
		<tag k="ssr:stedsnr" v="433625" />
	</node>
	<node lat="60.70961666788556" lon="8.723550003617168" id="-26502">
		<tag k="alt_name" v="Nystøltjørn" />
		<tag k="name" v="Nystøltjerni" />
		<tag k="natural" v="water" />
		<tag k="ssr:stedsnr" v="491836" />
	</node>
	<node lat="60.64050555620986" lon="8.743669452026449" id="-26509">
		<tag k="alt_name" v="Røyrtjørn" />
		<tag k="name" v="Røyrtjerni" />
		<tag k="natural" v="water" />
		<tag k="old_name" v="Røyetjørn" />
		<tag k="ssr:stedsnr" v="492090" />
	</node>
	<node lat="60.76540000221289" lon="8.62026389402604" id="-26511">
		<tag k="alt_name" v="Rundtjørn" />
		<tag k="name" v="Rundtjerni" />
		<tag k="natural" v="water" />
		<tag k="ssr:stedsnr" v="434024" />
	</node>
	<node lat="60.5996102733621" lon="8.594899562446495" id="-26514">
		<tag k="alt_name" v="Presttjørn" />
		<tag k="name" v="Presttjørni" />
		<tag k="natural" v="water" />
		<tag k="old_name" v="AslaksKj:;Aslakstjørne;AslakKj;Aslaktjern" />
		<tag k="ssr:stedsnr" v="492036" />
	</node>
	<node lat="60.71655277877373" lon="8.315952781206505" id="-26520">
		<tag k="alt_name" v="Bergsjøen, vesle;Bergsjø, vesle" />
		<tag k="name" v="Vesle Bergsjøen" />
		<tag k="natural" v="water" />
		<tag k="ssr:stedsnr" v="492475" />
	</node>
	<node lat="60.702005556874" lon="8.318825008036109" id="-26521">
		<tag k="name" v="Damtjørne" />
		<tag k="natural" v="water" />
		<tag k="old_name" v="Torkels - Damtjørn" />
		<tag k="ssr:stedsnr" v="492468" />
	</node>
	<node lat="60.877372158497316" lon="7.969968719530443" id="-26532">
		<tag k="name" v="Valevatnet" />
		<tag k="natural" v="water" />
		<tag k="ssr:stedsnr" v="493656" />
		<tag k="water" v="lake" />
	</node>
	<node lat="60.665830014061584" lon="8.787826796458111" id="-26539">
		<tag k="alt_name" v="Tufteøyni" />
		<tag k="name" v="Tufteøyne" />
		<tag k="place" v="island" />
		<tag k="ssr:stedsnr" v="445686" />
	</node>
	<node lat="60.89107583980915" lon="7.854252117578617" id="-26542">
		<tag k="alt_name" v="Djupeskardtjørni, store" />
		<tag k="name" v="Store Djupeskardtjørni" />
		<tag k="natural" v="water" />
		<tag k="ssr:stedsnr" v="494609" />
	</node>
	<node lat="60.835639285417294" lon="7.945590162325678" id="-26543">
		<tag k="name" v="Store Klevavatnet" />
		<tag k="natural" v="water" />
		<tag k="ssr:stedsnr" v="494697" />
		<tag k="water" v="lake" />
	</node>
	<node lat="60.597533333712626" lon="8.69600832705019" id="-26549">
		<tag k="name" v="Gullhagatjørni" />
		<tag k="natural" v="water" />
		<tag k="ssr:stedsnr" v="674051" />
	</node>
	<node lat="60.53921944419001" lon="8.653358329135264" id="-26557">
		<tag k="alt_name" v="Vatningstjørn" />
		<tag k="name" v="Vatningstjørni" />
		<tag k="natural" v="water" />
		<tag k="ssr:stedsnr" v="674218" />
	</node>
	<node lat="60.546375001129164" lon="8.631099998479174" id="-26560">
		<tag k="alt_name" v="Melraktjørn;Melraktjørni" />
		<tag k="name" v="Melrakktjørni" />
		<tag k="natural" v="water" />
		<tag k="ssr:stedsnr" v="674225" />
	</node>
	<node lat="60.67097777906757" lon="8.474708325485077" id="-26563">
		<tag k="alt_name" v="Bottjørn" />
		<tag k="name" v="Bottjørni" />
		<tag k="natural" v="water" />
		<tag k="ssr:stedsnr" v="463594" />
	</node>
	<node lat="60.63919444131756" lon="8.46409166640655" id="-26570">
		<tag k="name" v="Kvinda" />
		<tag k="old_name" v="Kvina;Qvina;Kvindellidelven" />
		<tag k="ssr:stedsnr" v="674596" />
		<tag k="waterway" v="river" />
	</node>
	<node lat="60.64086944768786" lon="8.37975832713141" id="-26576">
		<tag k="loc_name" v="Langetjørni" />
		<tag k="name" v="Langetjørn" />
		<tag k="natural" v="water" />
		<tag k="ssr:stedsnr" v="465599" />
	</node>
	<node lat="60.68242777641867" lon="8.586683328417225" id="-26583">
		<tag k="alt_name" v="Svartetjørn" />
		<tag k="name" v="Svartetjørni" />
		<tag k="natural" v="water" />
		<tag k="ssr:stedsnr" v="674891" />
	</node>
	<node lat="60.64664793942023" lon="8.526908501199536" id="-26590">
		<tag k="alt_name" v="Damtjørni;Damtjørn" />
		<tag k="name" v="Damtjørne" />
		<tag k="natural" v="water" />
		<tag k="ssr:stedsnr" v="674996" />
	</node>
	<node lat="60.8424527801086" lon="8.082091662667555" id="-26593">
		<tag k="name" v="Venehallsåne" />
		<tag k="ssr:stedsnr" v="676724" />
		<tag k="waterway" v="stream" />
	</node>
	<node lat="60.847577780264366" lon="8.10522778618693" id="-26596">
		<tag k="name" v="Skålaåni" />
		<tag k="ssr:stedsnr" v="676929" />
		<tag k="waterway" v="stream" />
	</node>
	<node lat="60.72170277615548" lon="8.329022227417147" id="-26609">
		<tag k="name" v="Storetjørne" />
		<tag k="natural" v="water" />
		<tag k="old_name" v="Storetjørn" />
		<tag k="ssr:stedsnr" v="491484" />
	</node>
	<node lat="60.68969999593647" lon="8.574541667052268" id="-26613">
		<tag k="alt_name" v="Skrindetjørn" />
		<tag k="name" v="Skrindetjørni" />
		<tag k="natural" v="water" />
		<tag k="ssr:stedsnr" v="491894" />
	</node>
	<node lat="60.5639527792746" lon="8.694594451723475" id="-26615">
		<tag k="alt_name" v="Heimtjørn" />
		<tag k="name" v="Heimtjørni" />
		<tag k="natural" v="water" />
		<tag k="ssr:stedsnr" v="492011" />
	</node>
	<node lat="60.55865832997156" lon="8.658316667768998" id="-26619">
		<tag k="alt_name" v="Mosatjørn" />
		<tag k="name" v="Mosatjørni" />
		<tag k="natural" v="water" />
		<tag k="ssr:stedsnr" v="492204" />
	</node>
	<node lat="60.75113055432018" lon="8.218880546554264" id="-26620">
		<tag k="name" v="Eitra" />
		<tag k="ssr:stedsnr" v="492410" />
		<tag k="waterway" v="stream" />
	</node>
	<node lat="60.8149000034226" lon="8.031811118231538" id="-26631">
		<tag k="name" v="Buagrove" />
		<tag k="ssr:stedsnr" v="494666" />
		<tag k="waterway" v="stream" />
	</node>
	<node lat="60.856955553015624" lon="8.143588881230443" id="-26635">
		<tag k="name" v="Hestebottåne" />
		<tag k="ssr:stedsnr" v="494924" />
		<tag k="waterway" v="stream" />
	</node>
	<node lat="60.67491944335576" lon="8.57908055456514" id="-26655">
		<tag k="name" v="Øvre Damtjørn" />
		<tag k="natural" v="water" />
		<tag k="ssr:stedsnr" v="541719" />
	</node>
	<node lat="60.72300556238116" lon="8.283647502343497" id="-26659">
		<tag k="name" v="Kroktjørne" />
		<tag k="natural" v="water" />
		<tag k="old_name" v="Kroktjørn" />
		<tag k="ssr:stedsnr" v="552531" />
	</node>
	<node lat="60.59001310069244" lon="8.692944997721446" id="-26663">
		<tag k="alt_name" v="Restjørnan" />
		<tag k="name" v="Restjørnane" />
		<tag k="natural" v="water" />
		<tag k="ssr:stedsnr" v="553034" />
		<tag k="water" v="lake" />
	</node>
	<node lat="60.536013892634244" lon="8.573941665049862" id="-26670">
		<tag k="alt_name" v="Bjørnsbutjørn" />
		<tag k="name" v="Bjørnsbutjørni" />
		<tag k="natural" v="water" />
		<tag k="ssr:stedsnr" v="553212" />
	</node>
	<node lat="60.6709166684241" lon="8.28696111723684" id="-26674">
		<tag k="name" v="Varaldsetåne" />
		<tag k="ssr:stedsnr" v="553589" />
		<tag k="waterway" v="stream" />
	</node>
	<node lat="60.70190277496503" lon="8.265227780429132" id="-26675">
		<tag k="name" v="Tverråne" />
		<tag k="ssr:stedsnr" v="553492" />
		<tag k="waterway" v="stream" />
	</node>
	<node lat="60.88586666592979" lon="7.893705548774369" id="-26681">
		<tag k="name" v="Fødalsåni" />
		<tag k="ssr:stedsnr" v="554676" />
		<tag k="waterway" v="river" />
	</node>
	<node lat="60.869891665666984" lon="8.072908336166247" id="-26683">
		<tag k="name" v="Simletjørne" />
		<tag k="natural" v="water" />
		<tag k="ssr:stedsnr" v="554693" />
	</node>
	<node lat="60.764372219104" lon="8.082458330050782" id="-26684">
		<tag k="loc_name" v="Svore" />
		<tag k="name" v="Svori" />
		<tag k="old_name" v="Svåre" />
		<tag k="ssr:stedsnr" v="554574" />
		<tag k="waterway" v="stream" />
	</node>
	<node lat="60.60508055972567" lon="8.571569452465543" id="-26688">
		<tag k="alt_name" v="Kula" />
		<tag k="name" v="Kulu" />
		<tag k="ssr:stedsnr" v="688725" />
		<tag k="waterway" v="river" />
	</node>
	<node lat="60.674461110783206" lon="8.505363884666224" id="-26702">
		<tag k="name" v="Fekjatjørn" />
		<tag k="natural" v="water" />
		<tag k="ssr:stedsnr" v="586743" />
	</node>
	<node lat="60.50229999719941" lon="8.42857776996126" id="-26711">
		<tag k="name" v="Fiskeviki" />
		<tag k="natural" v="bay" />
		<tag k="ssr:stedsnr" v="600005" />
	</node>
	<node lat="60.681738891183436" lon="8.568850007210136" id="-26716">
		<tag k="name" v="Øvre Damtjørn" />
		<tag k="natural" v="water" />
		<tag k="ssr:stedsnr" v="601702" />
	</node>
	<node lat="60.59061388497937" lon="8.670774991486025" id="-26722">
		<tag k="alt_name" v="Steintjørn" />
		<tag k="name" v="Steintjørni" />
		<tag k="natural" v="water" />
		<tag k="ssr:stedsnr" v="613036" />
	</node>
	<node lat="60.60953333258762" lon="8.811752779813391" id="-26726">
		<tag k="name" v="Rundehovdtjørnane" />
		<tag k="natural" v="water" />
		<tag k="ssr:stedsnr" v="613077" />
		<tag k="water" v="lake" />
	</node>
	<node lat="60.530170679555134" lon="8.64015164047727" id="-26727">
		<tag k="alt_name" v="Oddetjørnan" />
		<tag k="name" v="Oddetjørnane" />
		<tag k="natural" v="water" />
		<tag k="ssr:stedsnr" v="613218" />
		<tag k="water" v="lake" />
	</node>
	<node lat="60.7185166643531" lon="8.326136104269647" id="-26734">
		<tag k="name" v="Veavegtjørne" />
		<tag k="natural" v="water" />
		<tag k="old_name" v="Veavegtjørn" />
		<tag k="ssr:stedsnr" v="613521" />
	</node>
	<node lat="60.68143611379228" lon="8.7183777750071" id="-26740">
		<tag k="alt_name" v="Sireåni" />
		<tag k="name" v="Sireåne" />
		<tag k="ssr:stedsnr" v="613910" />
		<tag k="waterway" v="river" />
	</node>
	<node lat="60.840149693119834" lon="7.893980857509316" id="-26745">
		<tag k="name" v="Systrandtjørne" />
		<tag k="natural" v="water" />
		<tag k="ssr:stedsnr" v="615712" />
	</node>
	<node lat="60.835391903603" lon="8.03418147040579" id="-26746">
		<tag k="loc_name" v="Gjurdsennvatnet" />
		<tag k="name" v="Julsennvatnet" />
		<tag k="natural" v="water" />
		<tag k="ssr:stedsnr" v="615719" />
		<tag k="water" v="lake" />
	</node>
	<node lat="60.59633210432537" lon="8.619800150046812" id="-26760">
		<tag k="name" v="Rautjørn" />
		<tag k="natural" v="water" />
		<tag k="ssr:stedsnr" v="647585" />
	</node>
	<node lat="60.59115555516069" lon="8.473722214082946" id="-26763">
		<tag k="name" v="Hestodden" />
		<tag k="natural" v="cape" />
		<tag k="ssr:stedsnr" v="647738" />
	</node>
	<node lat="60.60813707555273" lon="8.42200382461942" id="-26765">
		<tag k="name" v="Steinhushaugtjørn" />
		<tag k="natural" v="water" />
		<tag k="ssr:stedsnr" v="706951" />
	</node>
	<node lat="60.708069442263124" lon="8.295136114092317" id="-26773">
		<tag k="name" v="Skurvenatten" />
		<tag k="natural" v="cape" />
		<tag k="ssr:stedsnr" v="708474" />
	</node>
	<node lat="60.520977776655435" lon="8.427816664680822" id="-26796">
		<tag k="name" v="Gryflebekken" />
		<tag k="ssr:stedsnr" v="663014" />
		<tag k="waterway" v="stream" />
	</node>
	<node lat="60.67584444630803" lon="8.602366673601868" id="-26801">
		<tag k="name" v="Langetjørn" />
		<tag k="natural" v="water" />
		<tag k="ssr:stedsnr" v="890742" />
	</node>
	<node lat="60.726574997905445" lon="8.150963884934514" id="-26803">
		<tag k="name" v="Ragnhildtjørne" />
=======
<osm generator="osmapis" version="0.6">
	<node id="-276472" lat="60.5022999972" lon="8.42857776996">
		<tag k="name" v="Fiskeviki" />
		<tag k="natural" v="bay" />
		<tag k="ssr:stedsnr" v="600005" />
	</node>
	<node id="-276462" lat="60.6995972199" lon="8.28052221999">
		<tag k="name" v="Skardtjørne" />
		<tag k="natural" v="water" />
		<tag k="ssr:stedsnr" v="586467" />
	</node>
	<node id="-276448" lat="60.6419388871" lon="8.40561111919">
		<tag k="name" v="Holustølgrove" />
		<tag k="ssr:stedsnr" v="708704" />
		<tag k="waterway" v="stream" />
	</node>
	<node id="-276441" lat="60.7080694423" lon="8.29513611409">
		<tag k="name" v="Skurvenatten" />
		<tag k="natural" v="cape" />
		<tag k="ssr:stedsnr" v="708474" />
	</node>
	<node id="-276440" lat="60.7436194451" lon="8.09779999647">
		<tag k="name" v="Killingøyne" />
		<tag k="place" v="islet" />
		<tag k="ssr:stedsnr" v="708431" />
	</node>
	<node id="-276435" lat="60.6081370756" lon="8.42200382462">
		<tag k="name" v="Steinhushaugtjørn" />
		<tag k="natural" v="water" />
		<tag k="ssr:stedsnr" v="706951" />
	</node>
	<node id="-276428" lat="60.7643722191" lon="8.08245833005">
		<tag k="loc_name" v="Svore" />
		<tag k="name" v="Svori" />
		<tag k="old_name" v="Svåre" />
		<tag k="ssr:stedsnr" v="554574" />
		<tag k="waterway" v="stream" />
	</node>
	<node id="-276427" lat="60.8858666659" lon="7.89370554877">
		<tag k="name" v="Fødalsåni" />
		<tag k="ssr:stedsnr" v="554676" />
		<tag k="waterway" v="river" />
	</node>
	<node id="-276416" lat="60.5902027775" lon="8.58082222354">
		<tag k="name" v="Hundeøynan" />
		<tag k="place" v="island" />
		<tag k="ssr:stedsnr" v="526556" />
	</node>
	<node id="-276408" lat="60.6050805597" lon="8.57156945247">
		<tag k="alt_name" v="Kula" />
		<tag k="name" v="Kulu" />
		<tag k="ssr:stedsnr" v="688725" />
		<tag k="waterway" v="river" />
	</node>
	<node id="-276399" lat="60.6598638902" lon="8.70558056134">
		<tag k="alt_name" v="Almøya" />
		<tag k="loc_name" v="Almøyne" />
		<tag k="name" v="Almøyni" />
		<tag k="place" v="island" />
		<tag k="ssr:stedsnr" v="688532" />
	</node>
	<node id="-276393" lat="60.6493500025" lon="8.60862499282">
		<tag k="name" v="Ylifossen" />
		<tag k="natural" v="waterfall" />
		<tag k="ssr:stedsnr" v="506949" />
	</node>
	<node id="-276389" lat="60.856955553" lon="8.14358888123">
		<tag k="name" v="Hestebottåne" />
		<tag k="ssr:stedsnr" v="494924" />
		<tag k="waterway" v="stream" />
	</node>
	<node id="-276386" lat="60.5996102734" lon="8.59489956245">
		<tag k="alt_name" v="Presttjørn" />
		<tag k="name" v="Presttjørni" />
		<tag k="natural" v="water" />
		<tag k="old_name" v="AslaksKj:;Aslakstjørne;AslakKj;Aslaktjern" />
		<tag k="ssr:stedsnr" v="492036" />
	</node>
	<node id="-276384" lat="60.5639527793" lon="8.69459445172">
		<tag k="alt_name" v="Heimtjørn" />
		<tag k="name" v="Heimtjørni" />
		<tag k="natural" v="water" />
		<tag k="ssr:stedsnr" v="492011" />
	</node>
	<node id="-276383" lat="60.8475777803" lon="8.10522778619">
		<tag k="name" v="Skålaåni" />
		<tag k="ssr:stedsnr" v="676929" />
		<tag k="waterway" v="stream" />
	</node>
	<node id="-276379" lat="60.8026305582" lon="8.34765555977">
		<tag k="name" v="Skarvanstølløken" />
		<tag k="old_name" v="Løvdøla" />
		<tag k="ssr:stedsnr" v="676884" />
		<tag k="waterway" v="stream" />
	</node>
	<node id="-276377" lat="60.8528099176" lon="7.86071786929">
		<tag k="alt_name" v="Haldalstjørne" />
		<tag k="name" v="Halldalstjørne" />
		<tag k="natural" v="water" />
		<tag k="ssr:stedsnr" v="676644" />
	</node>
	<node id="-276375" lat="60.7527166699" lon="8.40423611113">
		<tag k="alt_name" v="Breatjørn" />
		<tag k="name" v="Breavatnet" />
		<tag k="natural" v="water" />
		<tag k="ssr:stedsnr" v="675994" />
	</node>
	<node id="-276373" lat="60.5247304054" lon="8.35505701872">
		<tag k="name" v="Langetjørne" />
		<tag k="natural" v="water" />
		<tag k="ssr:stedsnr" v="675798" />
	</node>
	<node id="-276366" lat="60.6466479394" lon="8.5269085012">
		<tag k="alt_name" v="Damtjørni;Damtjørn" />
		<tag k="name" v="Damtjørne" />
		<tag k="natural" v="water" />
		<tag k="ssr:stedsnr" v="674996" />
	</node>
	<node id="-276360" lat="60.6824277764" lon="8.58668332842">
		<tag k="alt_name" v="Svartetjørn" />
		<tag k="name" v="Svartetjørni" />
		<tag k="natural" v="water" />
		<tag k="ssr:stedsnr" v="674891" />
	</node>
	<node id="-276355" lat="60.6391944413" lon="8.46409166641">
		<tag k="name" v="Kvinda" />
		<tag k="old_name" v="Kvina;Qvina;Kvindellidelven" />
		<tag k="ssr:stedsnr" v="674596" />
		<tag k="waterway" v="river" />
	</node>
	<node id="-276346" lat="60.5975333337" lon="8.69600832705">
		<tag k="name" v="Gullhagatjørni" />
		<tag k="natural" v="water" />
		<tag k="ssr:stedsnr" v="674051" />
	</node>
	<node id="-276340" lat="60.5896055601" lon="8.72450833704">
		<tag k="alt_name" v="Sandvatn" />
		<tag k="name" v="Nedre Sandvatnet" />
		<tag k="natural" v="water" />
		<tag k="ssr:stedsnr" v="674030" />
	</node>
	<node id="-276339" lat="60.5923138908" lon="8.56490833315">
		<tag k="alt_name" v="Randitjørn" />
		<tag k="name" v="Randitjørni" />
		<tag k="natural" v="water" />
		<tag k="ssr:stedsnr" v="674025" />
	</node>
	<node id="-276335" lat="60.729800011" lon="8.75832975977">
		<tag k="alt_name" v="Flætjern" />
		<tag k="name" v="Flætjerni" />
		<tag k="natural" v="water" />
		<tag k="ssr:stedsnr" v="673818" />
	</node>
	<node id="-276334" lat="60.7402972212" lon="8.72661111841">
		<tag k="name" v="Krokbekk" />
		<tag k="ssr:stedsnr" v="673815" />
		<tag k="waterway" v="stream" />
	</node>
	<node id="-276332" lat="60.7409916668" lon="8.56717500332">
		<tag k="alt_name" v="Fiskegrove" />
		<tag k="name" v="Fiskegrovi" />
		<tag k="ssr:stedsnr" v="673806" />
		<tag k="waterway" v="stream" />
	</node>
	<node id="-276329" lat="60.7265749979" lon="8.15096388493">
		<tag k="name" v="Ragnhildtjørne" />
		<tag k="natural" v="water" />
		<tag k="old_name" v="Ragnhildtjørn" />
		<tag k="ssr:stedsnr" v="673462" />
	</node>
	<node id="-276328" lat="60.4826916679" lon="8.37004444462">
		<tag k="alt_name" v="Skjærtjødn" />
		<tag k="name" v="Skjærtjørn" />
		<tag k="natural" v="water" />
		<tag k="ssr:stedsnr" v="483618" />
	</node>
	<node id="-276309" lat="60.5209777767" lon="8.42781666468">
		<tag k="name" v="Gryflebekken" />
		<tag k="ssr:stedsnr" v="663014" />
		<tag k="waterway" v="stream" />
	</node>
	<node id="-275768" lat="60.7407941599" lon="8.46658397288">
		<tag k="name" v="Kråkhamarvatnet" />
		<tag k="natural" v="water" />
		<tag k="ssr:stedsnr" v="6803" />
		<tag k="water" v="lake" />
	</node>
	<node id="-276298" lat="60.6641527782" lon="8.78115832885">
		<tag k="name" v="Langehølen" />
		<tag k="place" v="locality" />
		<tag k="ssr:stedsnr" v="659322" />
	</node>
	<node id="-276290" lat="60.7654000022" lon="8.62026389403">
		<tag k="alt_name" v="Rundtjørn" />
		<tag k="name" v="Rundtjerni" />
		<tag k="natural" v="water" />
		<tag k="ssr:stedsnr" v="434024" />
	</node>
	<node id="-276289" lat="60.8610910778" lon="8.2894127516">
		<tag k="name" v="Storebottjørne" />
		<tag k="natural" v="water" />
		<tag k="ssr:stedsnr" v="433932" />
	</node>
	<node id="-276287" lat="60.8890000033" lon="8.00703332483">
		<tag k="name" v="Jøranvatnet" />
		<tag k="natural" v="water" />
		<tag k="ssr:stedsnr" v="433625" />
	</node>
	<node id="-276283" lat="60.5595760749" lon="8.62813621427">
		<tag k="name" v="Flåta" />
		<tag k="natural" v="water" />
		<tag k="old_name" v="Flaata;Flaate Kj:" />
		<tag k="ssr:stedsnr" v="432237" />
		<tag k="water" v="lake" />
	</node>
	<node id="-276282" lat="60.5538760316" lon="8.70459307799">
		<tag k="alt_name" v="Brisketjørnan" />
		<tag k="name" v="Brisketjørnane" />
		<tag k="natural" v="water" />
		<tag k="ssr:stedsnr" v="432229" />
		<tag k="water" v="lake" />
	</node>
	<node id="-276281" lat="60.5527055592" lon="8.57353889783">
		<tag k="alt_name" v="Køytetjørn" />
		<tag k="name" v="Køytetjørni" />
		<tag k="natural" v="water" />
		<tag k="ssr:stedsnr" v="432228" />
	</node>
	<node id="-276277" lat="60.5379888914" lon="8.68689443846">
		<tag k="name" v="Riklebekken" />
		<tag k="ssr:stedsnr" v="432203" />
		<tag k="waterway" v="stream" />
	</node>
	<node id="-276275" lat="60.7204861144" lon="8.65263611064">
		<tag k="alt_name" v="Øknevatn" />
		<tag k="name" v="Øknevatni" />
		<tag k="natural" v="water" />
		<tag k="ssr:stedsnr" v="431852" />
		<tag k="water" v="lake" />
	</node>
	<node id="-276273" lat="60.7333750026" lon="8.49385555653">
		<tag k="alt_name" v="Hurdstøltjørni;Hulastøltjørni;Hulastøltjørn" />
		<tag k="loc_name" v="Hulastølstjødn" />
		<tag k="name" v="Hulastølstjørni" />
		<tag k="natural" v="water" />
		<tag k="ssr:stedsnr" v="431819" />
	</node>
	<node id="-276272" lat="60.5757611076" lon="8.638352775">
		<tag k="alt_name" v="Øyetjørn" />
		<tag k="name" v="Øyetjørni" />
		<tag k="natural" v="water" />
		<tag k="ssr:stedsnr" v="431036" />
	</node>
	<node id="-276270" lat="60.5870277813" lon="8.68588889506">
		<tag k="name" v="Ausa" />
		<tag k="natural" v="water" />
		<tag k="ssr:stedsnr" v="431020" />
	</node>
	<node id="-276269" lat="60.5633516168" lon="8.56328126008">
		<tag k="alt_name" v="Nordre Hestetjørn;N(ordre) Hestetjørn" />
		<tag k="name" v="Nordre Hestetjørni" />
		<tag k="natural" v="water" />
		<tag k="ssr:stedsnr" v="431009" />
	</node>
	<node id="-276268" lat="60.4758833297" lon="8.38953054687">
		<tag k="alt_name" v="Damtjørni" />
		<tag k="name" v="Damtjørne" />
		<tag k="natural" v="water" />
		<tag k="ssr:stedsnr" v="430808" />
	</node>
	<node id="-276266" lat="60.4957722208" lon="8.44663888795">
		<tag k="alt_name" v="Paradisbukta" />
		<tag k="name" v="Paradisbukti" />
		<tag k="natural" v="bay" />
		<tag k="ssr:stedsnr" v="420723" />
	</node>
	<node id="-276261" lat="60.6639138928" lon="8.34650833619">
		<tag k="name" v="Mjåvassbekken" />
		<tag k="ssr:stedsnr" v="420315" />
		<tag k="waterway" v="stream" />
	</node>
	<node id="-276250" lat="60.5620166633" lon="8.61591388835">
		<tag k="name" v="Purka" />
		<tag k="natural" v="water" />
		<tag k="ssr:stedsnr" v="403474" />
	</node>
	<node id="-276237" lat="60.7815083308" lon="8.52972500035">
		<tag k="name" v="Kyrkjetjerni" />
		<tag k="natural" v="water" />
		<tag k="ssr:stedsnr" v="372026" />
	</node>
	<node id="-276235" lat="60.6413157293" lon="8.38488699372">
		<tag k="name" v="Daudfettjørne" />
		<tag k="natural" v="water" />
		<tag k="old_name" v="Daufettjørn" />
		<tag k="ssr:stedsnr" v="371614" />
	</node>
	<node id="-276234" lat="60.6413388848" lon="8.38836111324">
		<tag k="name" v="Langtjørne" />
		<tag k="natural" v="water" />
		<tag k="old_name" v="Langtjørn" />
		<tag k="ssr:stedsnr" v="371613" />
	</node>
	<node id="-276232" lat="60.5647638846" lon="8.58831944583">
		<tag k="alt_name" v="Nysettjørn" />
		<tag k="name" v="Nysettjørni" />
		<tag k="natural" v="water" />
		<tag k="ssr:stedsnr" v="371002" />
	</node>
	<node id="-276220" lat="60.8356392854" lon="7.94559016233">
		<tag k="name" v="Store Klevavatnet" />
		<tag k="natural" v="water" />
		<tag k="ssr:stedsnr" v="494697" />
		<tag k="water" v="lake" />
	</node>
	<node id="-276219" lat="60.8149000034" lon="8.03181111823">
		<tag k="name" v="Buagrove" />
		<tag k="ssr:stedsnr" v="494666" />
		<tag k="waterway" v="stream" />
	</node>
	<node id="-276218" lat="60.8910758398" lon="7.85425211758">
		<tag k="alt_name" v="Djupeskardtjørni, store" />
		<tag k="name" v="Store Djupeskardtjørni" />
		<tag k="natural" v="water" />
		<tag k="ssr:stedsnr" v="494609" />
	</node>
	<node id="-276213" lat="60.8773721585" lon="7.96996871953">
		<tag k="name" v="Valevatnet" />
		<tag k="natural" v="water" />
		<tag k="ssr:stedsnr" v="493656" />
		<tag k="water" v="lake" />
	</node>
	<node id="-276194" lat="60.6949055583" lon="8.57017499793">
		<tag k="name" v="Langetjørn" />
		<tag k="natural" v="water" />
		<tag k="ssr:stedsnr" v="359752" />
	</node>
	<node id="-276192" lat="60.7165527788" lon="8.31595278121">
		<tag k="alt_name" v="Bergsjøen, vesle;Bergsjø, vesle" />
		<tag k="name" v="Vesle Bergsjøen" />
		<tag k="natural" v="water" />
		<tag k="ssr:stedsnr" v="492475" />
	</node>
	<node id="-276190" lat="60.7020055569" lon="8.31882500804">
		<tag k="name" v="Damtjørne" />
		<tag k="natural" v="water" />
		<tag k="old_name" v="Torkels - Damtjørn" />
		<tag k="ssr:stedsnr" v="492468" />
	</node>
	<node id="-276189" lat="60.6731472245" lon="8.57774723015">
		<tag k="name" v="Nedre Damtjørn" />
		<tag k="natural" v="water" />
		<tag k="ssr:stedsnr" v="359712" />
	</node>
	<node id="-276187" lat="60.7511305543" lon="8.21888054655">
		<tag k="name" v="Eitra" />
		<tag k="ssr:stedsnr" v="492410" />
		<tag k="waterway" v="stream" />
	</node>
	<node id="-276186" lat="60.7449277768" lon="8.14127221315">
		<tag k="name" v="Blommetjørn" />
		<tag k="natural" v="water" />
		<tag k="ssr:stedsnr" v="359212" />
	</node>
	<node id="-276184" lat="60.5547527796" lon="8.45948889033">
		<tag k="name" v="Nystøltjørn" />
		<tag k="natural" v="water" />
		<tag k="ssr:stedsnr" v="359014" />
	</node>
	<node id="-276183" lat="60.55865833" lon="8.65831666777">
		<tag k="alt_name" v="Mosatjørn" />
		<tag k="name" v="Mosatjørni" />
		<tag k="natural" v="water" />
		<tag k="ssr:stedsnr" v="492204" />
	</node>
	<node id="-276179" lat="60.6405055562" lon="8.74366945203">
		<tag k="alt_name" v="Røyrtjørn" />
		<tag k="name" v="Røyrtjerni" />
		<tag k="natural" v="water" />
		<tag k="old_name" v="Røyetjørn" />
		<tag k="ssr:stedsnr" v="492090" />
	</node>
	<node id="-276170" lat="60.6896999959" lon="8.57454166705">
		<tag k="alt_name" v="Skrindetjørn" />
		<tag k="name" v="Skrindetjørni" />
		<tag k="natural" v="water" />
		<tag k="ssr:stedsnr" v="491894" />
	</node>
	<node id="-276164" lat="60.7096166679" lon="8.72355000362">
		<tag k="alt_name" v="Nystøltjørn" />
		<tag k="name" v="Nystøltjerni" />
		<tag k="natural" v="water" />
		<tag k="ssr:stedsnr" v="491836" />
	</node>
	<node id="-276160" lat="60.7420361122" lon="8.67463332504">
		<tag k="name" v="Buhovdvatnet" />
		<tag k="natural" v="water" />
		<tag k="ssr:stedsnr" v="491801" />
		<tag k="water" v="lake" />
	</node>
	<node id="-276156" lat="60.7217027762" lon="8.32902222742">
		<tag k="name" v="Storetjørne" />
		<tag k="natural" v="water" />
		<tag k="old_name" v="Storetjørn" />
		<tag k="ssr:stedsnr" v="491484" />
	</node>
	<node id="-276154" lat="60.7317431192" lon="8.41319904117">
		<tag k="name" v="Hengsvatnet" />
		<tag k="natural" v="water" />
		<tag k="ssr:stedsnr" v="491476" />
		<tag k="water" v="lake" />
	</node>
	<node id="-276152" lat="60.7022833313" lon="8.62690000822">
		<tag k="name" v="Vesleånslette" />
		<tag k="natural" v="water" />
		<tag k="ssr:stedsnr" v="344719" />
	</node>
	<node id="-276146" lat="60.5317583367" lon="8.49074444488">
		<tag k="name" v="Langetjørnbekken" />
		<tag k="ssr:stedsnr" v="481795" />
		<tag k="waterway" v="stream" />
	</node>
	<node id="-276128" lat="60.8425333364" lon="8.01596110262">
		<tag k="name" v="Julsennbekken" />
		<tag k="ssr:stedsnr" v="312709" />
		<tag k="waterway" v="stream" />
	</node>
	<node id="-276127" lat="60.8403302538" lon="7.91586101424">
		<tag k="name" v="Fødalstangen" />
		<tag k="natural" v="cape" />
		<tag k="ssr:stedsnr" v="312704" />
	</node>
	<node id="-276124" lat="60.7408694468" lon="8.59567500538">
		<tag k="alt_name" v="Steintjørn" />
		<tag k="name" v="Steintjerni" />
		<tag k="natural" v="water" />
		<tag k="ssr:stedsnr" v="309802" />
	</node>
	<node id="-276109" lat="60.6408694477" lon="8.37975832713">
		<tag k="loc_name" v="Langetjørni" />
		<tag k="name" v="Langetjørn" />
		<tag k="natural" v="water" />
		<tag k="ssr:stedsnr" v="465599" />
	</node>
	<node id="-276108" lat="60.6757333319" lon="8.50702778242">
		<tag k="name" v="Hundetjørn" />
		<tag k="natural" v="water" />
		<tag k="ssr:stedsnr" v="465748" />
	</node>
	<node id="-276099" lat="60.6709777791" lon="8.47470832549">
		<tag k="alt_name" v="Bottjørn" />
		<tag k="name" v="Bottjørni" />
		<tag k="natural" v="water" />
		<tag k="ssr:stedsnr" v="463594" />
	</node>
	<node id="-276098" lat="60.6646194461" lon="8.47457500154">
		<tag k="name" v="Guritjørn" />
		<tag k="natural" v="water" />
		<tag k="ssr:stedsnr" v="463593" />
	</node>
	<node id="-276090" lat="60.6786944423" lon="8.29909167435">
		<tag k="name" v="Tunga" />
		<tag k="natural" v="cape" />
		<tag k="ssr:stedsnr" v="445766" />
	</node>
	<node id="-276085" lat="60.6658300141" lon="8.78782679646">
		<tag k="alt_name" v="Tufteøyni" />
		<tag k="name" v="Tufteøyne" />
		<tag k="place" v="island" />
		<tag k="ssr:stedsnr" v="445686" />
	</node>
	<node id="-276080" lat="60.5895722183" lon="8.56818055436">
		<tag k="name" v="Larshalltjørn" />
		<tag k="natural" v="water" />
		<tag k="ssr:stedsnr" v="223569" />
	</node>
	<node id="-276077" lat="60.681938893" lon="8.5377611156">
		<tag k="name" v="Arnegardsgrove" />
		<tag k="ssr:stedsnr" v="298697" />
		<tag k="waterway" v="stream" />
	</node>
	<node id="-276068" lat="60.7952277811" lon="8.35138333806">
		<tag k="name" v="Skarvanstøltjørne" />
		<tag k="natural" v="water" />
		<tag k="ssr:stedsnr" v="191840" />
	</node>
	<node id="-276063" lat="60.8934749977" lon="7.95297499285">
		<tag k="name" v="Rundtjørne" />
		<tag k="natural" v="water" />
		<tag k="ssr:stedsnr" v="190637" />
	</node>
	<node id="-276061" lat="60.5752831469" lon="8.50611481653">
		<tag k="alt_name" v="Langetjørni;Langetjørn" />
		<tag k="name" v="Langetjørne" />
		<tag k="natural" v="water" />
		<tag k="ssr:stedsnr" v="189019" />
	</node>
	<node id="-276056" lat="60.6281500004" lon="8.4977027729">
		<tag k="name" v="Stakkestøet" />
		<tag k="place" v="locality" />
		<tag k="ssr:stedsnr" v="284991" />
	</node>
	<node id="-276048" lat="60.6263000016" lon="8.48404167465">
		<tag k="name" v="Stavåne" />
		<tag k="ssr:stedsnr" v="284523" />
		<tag k="waterway" v="stream" />
	</node>
	<node id="-276046" lat="60.5932277791" lon="8.45145277333">
		<tag k="alt_name" v="Kvednagrovi" />
		<tag k="name" v="Kvednagrove" />
		<tag k="ssr:stedsnr" v="284374" />
		<tag k="waterway" v="stream" />
	</node>
	<node id="-276044" lat="60.6910944445" lon="8.60986943647">
		<tag k="name" v="Mørshøl" />
		<tag k="natural" v="water" />
		<tag k="ssr:stedsnr" v="283693" />
		<tag k="water" v="lake" />
	</node>
	<node id="-276037" lat="60.6631444406" lon="8.4691472294">
		<tag k="name" v="Søre Holtetjørne" />
		<tag k="natural" v="water" />
		<tag k="ssr:stedsnr" v="281638" />
	</node>
	<node id="-276018" lat="60.7589638892" lon="8.67167777802">
		<tag k="alt_name" v="Standartjørn" />
		<tag k="name" v="Standartjerni" />
		<tag k="natural" v="water" />
		<tag k="ssr:stedsnr" v="130034" />
	</node>
	<node id="-276013" lat="60.6171805534" lon="8.45954167165">
		<tag k="alt_name" v="Tjørnstøltjørn" />
		<tag k="name" v="Tjørnstøltjørni" />
		<tag k="natural" v="water" />
		<tag k="ssr:stedsnr" v="128620" />
	</node>
	<node id="-276010" lat="60.5423770453" lon="8.47795289543">
		<tag k="name" v="Langetjørne" />
		<tag k="natural" v="water" />
		<tag k="old_name" v="Langetjørn" />
		<tag k="ssr:stedsnr" v="128718" />
	</node>
	<node id="-276002" lat="60.7410833336" lon="8.55524999263">
		<tag k="name" v="Eitra" />
		<tag k="ssr:stedsnr" v="127828" />
		<tag k="waterway" v="stream" />
	</node>
	<node id="-276001" lat="60.5127805594" lon="8.3779472159">
		<tag k="loc_name" v="Svartetjørn" />
		<tag k="name" v="Svartetjørni" />
		<tag k="natural" v="water" />
		<tag k="ssr:stedsnr" v="127818" />
	</node>
	<node id="-275997" lat="60.7331916673" lon="8.36934165892">
		<tag k="alt_name" v="Fjellstøltjørn" />
		<tag k="name" v="Fjellstøltjørni" />
		<tag k="natural" v="water" />
		<tag k="ssr:stedsnr" v="127504" />
	</node>
	<node id="-275996" lat="60.7364250008" lon="8.33980834154">
		<tag k="alt_name" v="Smørtjørn" />
		<tag k="name" v="Smørtjørni" />
		<tag k="natural" v="water" />
		<tag k="ssr:stedsnr" v="127503" />
	</node>
	<node id="-275986" lat="60.6911113846" lon="8.38885181899">
		<tag k="alt_name" v="Vassfjorden" />
		<tag k="name" v="Vatsfjorden" />
		<tag k="natural" v="water" />
		<tag k="old_name" v="Vassfjord" />
		<tag k="ssr:stedsnr" v="113517" />
		<tag k="water" v="lake" />
	</node>
	<node id="-275981" lat="60.8288916667" lon="8.39665833414">
		<tag k="name" v="Kroktjørne" />
		<tag k="natural" v="water" />
		<tag k="ssr:stedsnr" v="251941" />
	</node>
	<node id="-275976" lat="60.8268805589" lon="7.97945833826">
		<tag k="name" v="Nykkingsgrove" />
		<tag k="ssr:stedsnr" v="251765" />
		<tag k="waterway" v="stream" />
	</node>
	<node id="-275974" lat="60.8435927923" lon="7.95537289749">
		<tag k="name" v="Vesle Klevavatnet" />
		<tag k="natural" v="water" />
		<tag k="ssr:stedsnr" v="251757" />
		<tag k="water" v="lake" />
	</node>
	<node id="-275972" lat="60.7782194457" lon="8.05424445139">
		<tag k="name" v="Karka" />
		<tag k="ssr:stedsnr" v="251745" />
		<tag k="waterway" v="stream" />
	</node>
	<node id="-275968" lat="60.862346104" lon="7.82215866895">
		<tag k="name" v="Øystre Flågrunnsvatnet" />
		<tag k="natural" v="water" />
		<tag k="ssr:stedsnr" v="251666" />
		<tag k="water" v="lake" />
	</node>
	<node id="-275963" lat="60.5345694422" lon="8.4166666678">
		<tag k="name" v="Flåtastokk" />
		<tag k="natural" v="water" />
		<tag k="ssr:stedsnr" v="250747" />
	</node>
	<node id="-278009" lat="60.716378828" lon="8.14117285699">
		<tag k="name" v="Frosen" />
		<tag k="natural" v="water" />
		<tag k="old_name" v="Frosten" />
		<tag k="ssr:stedsnr" v="734578" />
		<tag k="water" v="lake" />
	</node>
	<node id="-278008" lat="60.7364696682" lon="8.74751612955">
		<tag k="fixme" v="multiple name tags, choose one and add the other to alt_name" />
		<tag k="name" v="Kroktjern;Gravastøltjern" />
		<tag k="natural" v="water" />
		<tag k="ssr:stedsnr" v="916838" />
	</node>
	<node id="-278007" lat="60.8640716637" lon="7.77152225311">
		<tag k="name" v="Flågrunnsvotni" />
		<tag k="natural" v="water" />
		<tag k="ssr:stedsnr" v="1076454" />
		<tag k="water" v="lake" />
	</node>
	<node id="-275949" lat="60.5970966342" lon="8.61912388558">
		<tag k="alt_name" v="Raudtjørn" />
		<tag k="name" v="Raudtjørni" />
		<tag k="natural" v="water" />
		<tag k="ssr:stedsnr" v="250035" />
	</node>
	<node id="-275948" lat="60.6303500045" lon="8.57340000321">
		<tag k="fixme" v="multiple name tags, choose one and add the other to alt_name" />
		<tag k="name" v="Rikterøyne;Sundreøyne" />
		<tag k="natural" v="cape" />
		<tag k="old_name" v="Sundreøen" />
		<tag k="ssr:stedsnr" v="81931" />
	</node>
	<node id="-275947" lat="60.6506207709" lon="8.50156882534">
		<tag k="alt_name" v="Blekketjørn" />
		<tag k="name" v="Blekketjørni" />
		<tag k="natural" v="water" />
		<tag k="ssr:stedsnr" v="249983" />
	</node>
	<node id="-277984" lat="60.5452972181" lon="8.65049166094">
		<tag k="name" v="Nedre Skitjørn" />
		<tag k="natural" v="water" />
		<tag k="ssr:stedsnr" v="968041" />
	</node>
	<node id="-277983" lat="60.572949996" lon="8.62101944478">
		<tag k="name" v="Skjetvaltjørn" />
		<tag k="natural" v="water" />
		<tag k="ssr:stedsnr" v="968787" />
	</node>
	<node id="-277982" lat="60.5360789346" lon="8.57374486353">
		<tag k="name" v="Nordre Rotetjørn" />
		<tag k="natural" v="water" />
		<tag k="ssr:stedsnr" v="966884" />
	</node>
	<node id="-277978" lat="60.680433332" lon="8.56504167169">
		<tag k="name" v="Nedre Damtjørn" />
		<tag k="natural" v="water" />
		<tag k="ssr:stedsnr" v="966733" />
	</node>
	<node id="-277976" lat="60.6801583313" lon="8.55772222922">
		<tag k="name" v="Åstjørn" />
		<tag k="natural" v="water" />
		<tag k="ssr:stedsnr" v="966727" />
	</node>
	<node id="-277971" lat="60.6283333839" lon="8.68391697532">
		<tag k="alt_name" v="Trolltjørni;Trolltjørn" />
		<tag k="name" v="Trolltjerni" />
		<tag k="natural" v="water" />
		<tag k="ssr:stedsnr" v="963088" />
	</node>
	<node id="-277968" lat="60.7447416643" lon="8.14294722367">
		<tag k="name" v="Nedre Blomestøltjørne" />
		<tag k="natural" v="water" />
		<tag k="ssr:stedsnr" v="962435" />
	</node>
	<node id="-275918" lat="60.7197944429" lon="8.26170277022">
		<tag k="name" v="Bukketjørne" />
		<tag k="natural" v="water" />
		<tag k="old_name" v="Bukketjørnan" />
		<tag k="ssr:stedsnr" v="249479" />
	</node>
	<node id="-275917" lat="60.7260861152" lon="8.16901666422">
		<tag k="name" v="Svartetjørne" />
		<tag k="natural" v="water" />
		<tag k="old_name" v="Svartetjørn, store" />
		<tag k="ssr:stedsnr" v="249473" />
	</node>
	<node id="-275916" lat="60.7267908581" lon="8.27389568711">
		<tag k="name" v="Søre Dyrebotntjørne" />
		<tag k="natural" v="water" />
		<tag k="old_name" v="Dyrebotntjørne, s" />
		<tag k="ssr:stedsnr" v="249471" />
	</node>
	<node id="-275915" lat="60.7357027791" lon="8.31006111239">
		<tag k="name" v="Blånattjørne" />
		<tag k="natural" v="water" />
		<tag k="old_name" v="Blånattjørn" />
		<tag k="ssr:stedsnr" v="249470" />
	</node>
	<node id="-275906" lat="60.6354333318" lon="8.73104166262">
		<tag k="alt_name" v="Tvenesla" />
		<tag k="loc_name" v="Tvinisla" />
		<tag k="name" v="Tvinesla" />
		<tag k="natural" v="water" />
		<tag k="ssr:stedsnr" v="249094" />
	</node>
	<node id="-275905" lat="60.6148097789" lon="8.60109772973">
		<tag k="alt_name" v="Hovdetjørn" />
		<tag k="name" v="Hovdetjørni" />
		<tag k="natural" v="water" />
		<tag k="ssr:stedsnr" v="249090" />
	</node>
	<node id="-275902" lat="60.579388893" lon="8.69118332521">
		<tag k="alt_name" v="Øvre Oddetjørn" />
		<tag k="name" v="Øvre Oddetjørni" />
		<tag k="natural" v="water" />
		<tag k="ssr:stedsnr" v="249013" />
	</node>
	<node id="-275897" lat="60.811329522" lon="8.37368397966">
		<tag k="name" v="Vesle Beihovdtjørne" />
		<tag k="natural" v="water" />
		<tag k="ssr:stedsnr" v="69911" />
	</node>
	<node id="-275894" lat="60.5290277819" lon="8.58509166341">
		<tag k="name" v="Flabergbekken" />
		<tag k="ssr:stedsnr" v="68226" />
		<tag k="waterway" v="stream" />
	</node>
	<node id="-277941" lat="60.7596210379" lon="8.62712915062">
		<tag k="alt_name" v="Breisettjørn" />
		<tag k="name" v="Breidsettjerni" />
		<tag k="natural" v="water" />
		<tag k="ssr:stedsnr" v="859032" />
	</node>
	<node id="-277940" lat="60.855310286" lon="8.26461584081">
		<tag k="name" v="Veslebottjørne" />
		<tag k="natural" v="water" />
		<tag k="ssr:stedsnr" v="858932" />
	</node>
	<node id="-277939" lat="60.7689500025" lon="8.21554166016">
		<tag k="name" v="Eitretjørne" />
		<tag k="natural" v="water" />
		<tag k="ssr:stedsnr" v="858983" />
	</node>
	<node id="-277936" lat="60.8175388909" lon="7.92733887969">
		<tag k="name" v="Fossebrekka" />
		<tag k="ssr:stedsnr" v="858775" />
		<tag k="waterway" v="stream" />
	</node>
	<node id="-277935" lat="60.9008250035" lon="7.8934111092">
		<tag k="name" v="Urgeåne" />
		<tag k="ssr:stedsnr" v="858644" />
		<tag k="waterway" v="stream" />
	</node>
	<node id="-277932" lat="60.807036112" lon="8.46181667106">
		<tag k="name" v="Storebottjørne" />
		<tag k="natural" v="water" />
		<tag k="ssr:stedsnr" v="858892" />
	</node>
	<node id="-277929" lat="60.7955027795" lon="8.43190000379">
		<tag k="name" v="Skridune" />
		<tag k="ssr:stedsnr" v="858882" />
		<tag k="waterway" v="stream" />
	</node>
	<node id="-277927" lat="60.8031027774" lon="7.99232777777">
		<tag k="name" v="Djupsvatnet" />
		<tag k="natural" v="water" />
		<tag k="ssr:stedsnr" v="858729" />
		<tag k="water" v="lake" />
	</node>
	<node id="-277926" lat="60.8694913669" lon="8.09428923684">
		<tag k="name" v="Reinstjørne" />
		<tag k="natural" v="water" />
		<tag k="ssr:stedsnr" v="858677" />
	</node>
	<node id="-275875" lat="60.7105388918" lon="8.36329721516">
		<tag k="name" v="Store Damtjørne" />
		<tag k="natural" v="water" />
		<tag k="old_name" v="Damtjørne, store" />
		<tag k="ssr:stedsnr" v="67546" />
	</node>
	<node id="-275873" lat="60.6462027747" lon="8.80612500039">
		<tag k="name" v="Svarvarbekken" />
		<tag k="ssr:stedsnr" v="67128" />
		<tag k="waterway" v="stream" />
	</node>
	<node id="-277920" lat="60.5179638879" lon="8.64442499154">
		<tag k="alt_name" v="Langetjørn" />
		<tag k="name" v="Langetjørni" />
		<tag k="natural" v="water" />
		<tag k="ssr:stedsnr" v="857234" />
	</node>
	<node id="-275870" lat="60.5649972238" lon="8.52370833259">
		<tag k="alt_name" v="Sundåni" />
		<tag k="name" v="Sundåne" />
		<tag k="old_name" v="Sand-Aaen" />
		<tag k="ssr:stedsnr" v="67012" />
		<tag k="waterway" v="stream" />
	</node>
	<node id="-277917" lat="60.6763166624" lon="8.57076665905">
		<tag k="name" v="Skardtjørne" />
		<tag k="natural" v="water" />
		<tag k="ssr:stedsnr" v="856950" />
	</node>
	<node id="-275867" lat="60.6060083314" lon="8.42026110557">
		<tag k="name" v="Bekkestadtjørne" />
		<tag k="natural" v="water" />
		<tag k="old_name" v="Bekkestadtjørn" />
		<tag k="ssr:stedsnr" v="310680" />
	</node>
	<node id="-275866" lat="60.6079113017" lon="8.42972401979">
		<tag k="name" v="Langetjørne" />
		<tag k="natural" v="water" />
		<tag k="old_name" v="Langetjørn" />
		<tag k="ssr:stedsnr" v="310679" />
	</node>
	<node id="-277913" lat="60.6504235346" lon="8.52430429188">
		<tag k="alt_name" v="Langetjørni;Langetjørn" />
		<tag k="name" v="Langetjørne" />
		<tag k="natural" v="water" />
		<tag k="ssr:stedsnr" v="856980" />
	</node>
	<node id="-275864" lat="60.5526805517" lon="8.59728055427">
		<tag k="name" v="Nedre Suneivstjørn" />
>>>>>>> e1d4bc35ff8a6074a6f2e91616a996b547c36f15
		<tag k="natural" v="water" />
		<tag k="ssr:stedsnr" v="240827" />
	</node>
<<<<<<< HEAD
	<node lat="60.74099166676422" lon="8.567175003322847" id="-26804">
		<tag k="alt_name" v="Fiskegrove" />
		<tag k="name" v="Fiskegrovi" />
		<tag k="ssr:stedsnr" v="673806" />
		<tag k="waterway" v="stream" />
	</node>
	<node lat="60.74029722124117" lon="8.726611118413127" id="-26806">
		<tag k="name" v="Krokbekk" />
		<tag k="ssr:stedsnr" v="673815" />
		<tag k="waterway" v="stream" />
	</node>
	<node lat="60.72980001095382" lon="8.758329759772934" id="-26807">
		<tag k="alt_name" v="Flætjern" />
		<tag k="name" v="Flætjerni" />
		<tag k="natural" v="water" />
		<tag k="ssr:stedsnr" v="673818" />
	</node>
	<node lat="60.583833330919504" lon="8.729466659862723" id="-26809">
		<tag k="alt_name" v="Hagavatn" />
		<tag k="name" v="Øvre Sandvatnet" />
		<tag k="natural" v="water" />
		<tag k="ssr:stedsnr" v="674018" />
	</node>
	<node lat="60.59231389084101" lon="8.564908333149004" id="-26811">
		<tag k="alt_name" v="Randitjørn" />
		<tag k="name" v="Randitjørni" />
		<tag k="natural" v="water" />
		<tag k="ssr:stedsnr" v="674025" />
	</node>
	<node lat="60.5896055600775" lon="8.724508337036474" id="-26812">
		<tag k="alt_name" v="Sandvatn" />
		<tag k="name" v="Nedre Sandvatnet" />
		<tag k="natural" v="water" />
		<tag k="ssr:stedsnr" v="674030" />
	</node>
	<node lat="60.77158055660508" lon="8.089908335065646" id="-26835">
		<tag k="name" v="Vesleåne" />
		<tag k="ssr:stedsnr" v="675553" />
		<tag k="waterway" v="stream" />
	</node>
	<node lat="60.5247304054462" lon="8.355057018718725" id="-26838">
		<tag k="name" v="Langetjørne" />
		<tag k="natural" v="water" />
		<tag k="ssr:stedsnr" v="675798" />
	</node>
	<node lat="60.75271666988574" lon="8.404236111125554" id="-26842">
		<tag k="alt_name" v="Breatjørn" />
		<tag k="name" v="Breavatnet" />
		<tag k="natural" v="water" />
		<tag k="ssr:stedsnr" v="675994" />
	</node>
	<node lat="60.85280991759361" lon="7.860717869285072" id="-26844">
		<tag k="alt_name" v="Haldalstjørne" />
		<tag k="name" v="Halldalstjørne" />
		<tag k="natural" v="water" />
		<tag k="ssr:stedsnr" v="676644" />
	</node>
	<node lat="60.80263055820064" lon="8.347655559773742" id="-26845">
		<tag k="name" v="Skarvanstølløken" />
		<tag k="old_name" v="Løvdøla" />
		<tag k="ssr:stedsnr" v="676884" />
		<tag k="waterway" v="stream" />
	</node>
	<node lat="60.83277499657107" lon="8.24898055909426" id="-26847">
		<tag k="name" v="Gyrinosvatnet" />
		<tag k="natural" v="water" />
		<tag k="ssr:stedsnr" v="676912" />
		<tag k="water" v="lake" />
	</node>
	<node lat="60.659863890240956" lon="8.705580561343318" id="-26854">
		<tag k="alt_name" v="Almøya" />
		<tag k="loc_name" v="Almøyne" />
		<tag k="name" v="Almøyni" />
		<tag k="place" v="island" />
		<tag k="ssr:stedsnr" v="688532" />
	</node>
	<node lat="60.74361944514978" lon="8.097799996473666" id="-26862">
		<tag k="name" v="Killingøyne" />
		<tag k="place" v="islet" />
		<tag k="ssr:stedsnr" v="708431" />
	</node>
	<node lat="60.64193888712297" lon="8.405611119189436" id="-26866">
		<tag k="name" v="Holustølgrove" />
		<tag k="ssr:stedsnr" v="708704" />
		<tag k="waterway" v="stream" />
	</node>
	<node lat="60.692788885931776" lon="8.56274999945313" id="-26873">
		<tag k="name" v="Torkelstjørn" />
		<tag k="natural" v="water" />
		<tag k="ssr:stedsnr" v="723707" />
	</node>
	<node lat="60.531583336918025" lon="8.517366665462498" id="-26877">
		<tag k="name" v="Langodden" />
		<tag k="natural" v="cape" />
		<tag k="ssr:stedsnr" v="724107" />
	</node>
	<node lat="60.561727778011885" lon="8.605538891991076" id="-26887">
		<tag k="alt_name" v="Eirikstjørn" />
		<tag k="name" v="Eiriktjørni" />
		<tag k="natural" v="water" />
		<tag k="ssr:stedsnr" v="735006" />
	</node>
	<node lat="60.57495091595689" lon="8.624726439724185" id="-26896">
		<tag k="name" v="Monsa" />
		<tag k="natural" v="water" />
		<tag k="ssr:stedsnr" v="735028" />
	</node>
	<node lat="60.50794999641441" lon="8.522502784832856" id="-26899">
		<tag k="name" v="Svartveisund" />
		<tag k="place" v="locality" />
		<tag k="ssr:stedsnr" v="735207" />
	</node>
	<node lat="60.548381774254636" lon="8.496999903465252" id="-26900">
		<tag k="alt_name" v="Partjørnan" />
		<tag k="name" v="Partjørnane" />
		<tag k="natural" v="water" />
		<tag k="ssr:stedsnr" v="735235" />
		<tag k="water" v="lake" />
	</node>
	<node lat="60.77419166957992" lon="8.0279166653008" id="-26905">
		<tag k="name" v="Geitevatnet" />
		<tag k="natural" v="water" />
		<tag k="ssr:stedsnr" v="736529" />
		<tag k="water" v="lake" />
	</node>
	<node lat="60.89546167364827" lon="7.917271421043107" id="-26906">
		<tag k="name" v="Urgevatnet" />
		<tag k="natural" v="water" />
		<tag k="ssr:stedsnr" v="736613" />
		<tag k="water" v="lake" />
	</node>
	<node lat="60.90448790568662" lon="7.841396883671257" id="-26907">
		<tag k="alt_name" v="Djupeskardtjørni, indre" />
		<tag k="name" v="Indre Djupeskardtjørni" />
		<tag k="natural" v="water" />
		<tag k="ssr:stedsnr" v="736615" />
	</node>
	<node lat="60.678994446183815" lon="8.561802784673622" id="-26913">
		<tag k="alt_name" v="Hologrovi;Holograve" />
		<tag k="name" v="Hologrove" />
		<tag k="ssr:stedsnr" v="902596" />
		<tag k="waterway" v="stream" />
	</node>
	<node lat="60.74991944549177" lon="8.16240277115408" id="-26920">
		<tag k="name" v="Dyrebotnåne" />
		<tag k="ssr:stedsnr" v="906223" />
		<tag k="waterway" v="stream" />
	</node>
	<node lat="60.60796389207859" lon="8.438783336451234" id="-26927">
		<tag k="name" v="Langetjørnbekken" />
		<tag k="ssr:stedsnr" v="767957" />
		<tag k="waterway" v="stream" />
	</node>
	<node lat="60.73967222571921" lon="8.551144439280915" id="-26932">
		<tag k="name" v="Knutshøl" />
		<tag k="place" v="locality" />
		<tag k="ssr:stedsnr" v="769147" />
	</node>
	<node lat="60.586135721550896" lon="8.588797293615741" id="-26943">
		<tag k="name" v="Hustjørn" />
		<tag k="natural" v="water" />
		<tag k="ssr:stedsnr" v="908848" />
	</node>
	<node lat="60.64825555944222" lon="8.687633332008117" id="-26948">
		<tag k="name" v="Dauvestrendane" />
		<tag k="natural" v="beach" />
		<tag k="ssr:stedsnr" v="784554" />
	</node>
	<node lat="60.770683789927205" lon="8.617405652890787" id="-26970">
		<tag k="alt_name" v="Langtjørn" />
		<tag k="name" v="Langtjerni" />
		<tag k="natural" v="water" />
		<tag k="ssr:stedsnr" v="797023" />
	</node>
	<node lat="60.77408109906438" lon="8.012064084414865" id="-26971">
		<tag k="name" v="Bjørnsenntjørni" />
		<tag k="natural" v="water" />
		<tag k="ssr:stedsnr" v="797555" />
	</node>
	<node lat="60.872481181369" lon="7.943913282096792" id="-26973">
		<tag k="name" v="Jutultjørne" />
		<tag k="natural" v="water" />
		<tag k="ssr:stedsnr" v="797654" />
	</node>
	<node lat="60.86284378477967" lon="7.951022236940431" id="-26975">
		<tag k="name" v="Svartetjørne" />
		<tag k="natural" v="water" />
		<tag k="ssr:stedsnr" v="797660" />
	</node>
	<node lat="60.42842777865993" lon="9.385488886218223" id="-26977">
		<tag k="loc_name" v="Storåne" />
		<tag k="name" v="Hallingdalselve" />
		<tag k="old_name" v="Hallingdalsåni" />
		<tag k="ssr:stedsnr" v="916191" />
		<tag k="waterway" v="river" />
	</node>
	<node lat="60.73646966823061" lon="8.74751612955436" id="-26980">
		<tag k="fixme" v="multiple name tags, choose one and add the other to alt_name" />
		<tag k="name" v="Kroktjern;Gravastøltjern" />
		<tag k="natural" v="water" />
		<tag k="ssr:stedsnr" v="916838" />
	</node>
	<node lat="60.599521781825665" lon="8.78613169185286" id="-26984">
		<tag k="alt_name" v="Kroktjørn" />
		<tag k="name" v="Kroktjerni" />
		<tag k="natural" v="water" />
		<tag k="ssr:stedsnr" v="917046" />
	</node>
	<node lat="60.51149815401003" lon="8.586354642254085" id="-26992">
		<tag k="name" v="Sundet" />
		<tag k="natural" v="strait" />
		<tag k="ssr:stedsnr" v="917164" />
	</node>
	<node lat="60.541991667640815" lon="8.478016665390065" id="-26996">
		<tag k="alt_name" v="Langetjørn" />
		<tag k="name" v="Langtjørni" />
		<tag k="natural" v="water" />
		<tag k="ssr:stedsnr" v="917191" />
	</node>
	<node lat="60.70794721873939" lon="8.358238883779366" id="-26998">
		<tag k="name" v="Vesle Damtjørne" />
		<tag k="natural" v="water" />
		<tag k="old_name" v="Damtjørne, l" />
		<tag k="ssr:stedsnr" v="917489" />
	</node>
	<node lat="60.6577416674907" lon="8.516169445412707" id="-27002">
		<tag k="alt_name" v="Kroktjørn" />
		<tag k="name" v="Kroktjørni" />
		<tag k="natural" v="water" />
		<tag k="old_name" v="Krokvatnet;Krog Kj" />
		<tag k="ssr:stedsnr" v="917938" />
	</node>
	<node lat="60.76437499567289" lon="8.064905552363957" id="-27012">
		<tag k="name" v="Svaravatnet" />
		<tag k="natural" v="water" />
		<tag k="ssr:stedsnr" v="918597" />
		<tag k="water" v="lake" />
	</node>
	<node lat="60.87335000164748" lon="8.142738896591153" id="-27013">
		<tag k="name" v="Hestebottjørne" />
		<tag k="natural" v="water" />
		<tag k="ssr:stedsnr" v="918647" />
	</node>
	<node lat="60.78178888734902" lon="8.02294999876292" id="-27014">
		<tag k="name" v="Holmen" />
		<tag k="place" v="island" />
		<tag k="ssr:stedsnr" v="918782" />
	</node>
	<node lat="60.817527778851954" lon="8.035799993047423" id="-27019">
		<tag k="name" v="Storegrove" />
		<tag k="ssr:stedsnr" v="919728" />
		<tag k="waterway" v="river" />
	</node>
	<node lat="60.79553611486846" lon="8.314080552318314" id="-27020">
		<tag k="name" v="Øynegrovi" />
		<tag k="ssr:stedsnr" v="919869" />
		<tag k="waterway" v="stream" />
	</node>
	<node lat="60.62795399480444" lon="8.714128941740128" id="-27042">
		<tag k="name" v="Bausta" />
		<tag k="natural" v="water" />
		<tag k="old_name" v="Bausten;Baustevatnet;Baustasjøen;Baustadsjøen" />
		<tag k="ssr:stedsnr" v="842081" />
		<tag k="water" v="lake" />
	</node>
	<node lat="60.727022221020796" lon="8.16087222837061" id="-27048">
		<tag k="name" v="Heimtjørn" />
		<tag k="natural" v="water" />
		<tag k="ssr:stedsnr" v="845232" />
	</node>
	<node lat="60.56781388806594" lon="8.675366674034516" id="-27053">
		<tag k="alt_name" v="Butjørn" />
		<tag k="name" v="Butjørni" />
		<tag k="natural" v="water" />
		<tag k="ssr:stedsnr" v="856013" />
	</node>
	<node lat="60.74383958512344" lon="8.373012712530599" id="-27057">
		<tag k="alt_name" v="Fiskeløktjørn" />
		<tag k="name" v="Fiskeløktjørni" />
		<tag k="natural" v="water" />
		<tag k="ssr:stedsnr" v="856509" />
	</node>
	<node lat="60.72937499959982" lon="8.37300833325343" id="-27058">
		<tag k="name" v="Heståne" />
		<tag k="ssr:stedsnr" v="856515" />
		<tag k="waterway" v="stream" />
	</node>
	<node lat="60.58825302291761" lon="8.764071135919377" id="-27066">
		<tag k="alt_name" v="Belgavatnet" />
		<tag k="name" v="Øvre Belgevatnet" />
		<tag k="natural" v="water" />
		<tag k="ssr:stedsnr" v="857040" />
		<tag k="water" v="lake" />
	</node>
	<node lat="60.86949136686653" lon="8.094289236839812" id="-27072">
		<tag k="name" v="Reinstjørne" />
		<tag k="natural" v="water" />
		<tag k="ssr:stedsnr" v="858677" />
	</node>
	<node lat="60.812080560070584" lon="7.971016669508272" id="-27073">
		<tag k="name" v="Toviki" />
		<tag k="natural" v="bay" />
		<tag k="ssr:stedsnr" v="858719" />
	</node>
	<node lat="60.81753889088032" lon="7.9273388796865305" id="-27074">
		<tag k="name" v="Fossebrekka" />
		<tag k="ssr:stedsnr" v="858775" />
		<tag k="waterway" v="stream" />
	</node>
	<node lat="60.830616670794235" lon="8.155194445467613" id="-27077">
		<tag k="name" v="Vollegrovi" />
		<tag k="ssr:stedsnr" v="858918" />
		<tag k="waterway" v="stream" />
	</node>
	<node lat="60.76895000250523" lon="8.215541660158499" id="-27079">
		<tag k="name" v="Eitretjørne" />
		<tag k="natural" v="water" />
		<tag k="ssr:stedsnr" v="858983" />
	</node>
	<node lat="60.650922220818686" lon="8.5011166705179" id="-27084">
		<tag k="name" v="Blekketjørn" />
		<tag k="natural" v="water" />
		<tag k="ssr:stedsnr" v="931758" />
	</node>
	<node lat="60.628333383863136" lon="8.683916975320095" id="-27091">
		<tag k="alt_name" v="Trolltjørni;Trolltjørn" />
		<tag k="name" v="Trolltjerni" />
		<tag k="natural" v="water" />
		<tag k="ssr:stedsnr" v="963088" />
	</node>
	<node lat="60.68082778070748" lon="8.628008332277235" id="-27100">
		<tag k="name" v="Aunsetbekken" />
		<tag k="ssr:stedsnr" v="891819" />
		<tag k="waterway" v="stream" />
	</node>
	<node lat="60.68757777824863" lon="8.603663888857417" id="-27118">
		<tag k="alt_name" v="Tjødnstøltjørn" />
		<tag k="name" v="Tjørnstøltjørni" />
		<tag k="natural" v="water" />
		<tag k="ssr:stedsnr" v="916910" />
	</node>
	<node lat="60.707844448444064" lon="8.534177777785318" id="-27121">
		<tag k="alt_name" v="Løkenstjørn" />
		<tag k="name" v="Løkenstjørni" />
		<tag k="natural" v="water" />
		<tag k="ssr:stedsnr" v="916868" />
	</node>
	<node lat="60.500989841661365" lon="8.448399231472107" id="-27122">
		<tag k="name" v="Halldalsvatnet" />
		<tag k="natural" v="water" />
		<tag k="ssr:stedsnr" v="916872" />
		<tag k="water" v="lake" />
	</node>
	<node lat="60.632426433985536" lon="8.840477361256303" id="-27127">
		<tag k="alt_name" v="Gudbrandstjørn" />
		<tag k="name" v="Gudbrandstjerni" />
		<tag k="natural" v="water" />
		<tag k="ssr:stedsnr" v="917069" />
	</node>
	<node lat="60.62992500268992" lon="8.620986112241853" id="-27133">
		<tag k="name" v="Dokkgrovi" />
		<tag k="ssr:stedsnr" v="917083" />
		<tag k="waterway" v="stream" />
	</node>
	<node lat="60.74698333113843" lon="8.452974991873809" id="-27136">
		<tag k="name" v="Øynegrove" />
		<tag k="ssr:stedsnr" v="917413" />
		<tag k="waterway" v="stream" />
	</node>
	<node lat="60.74163889107475" lon="8.16788055809894" id="-27137">
		<tag k="loc_name" v="Dyrebottjørne" />
		<tag k="name" v="Dyrebotntjørne" />
		<tag k="natural" v="water" />
		<tag k="old_name" v="Dyrebotntjørn" />
		<tag k="ssr:stedsnr" v="917416" />
	</node>
	<node lat="60.73492500025649" lon="8.260052782146523" id="-27138">
		<tag k="name" v="Nedre Eitretjørne" />
		<tag k="natural" v="water" />
		<tag k="ssr:stedsnr" v="917419" />
	</node>
	<node lat="60.74101509718307" lon="8.344497395452937" id="-27139">
		<tag k="name" v="Hundetjørnan" />
		<tag k="natural" v="water" />
		<tag k="old_name" v="Hundetjørn" />
		<tag k="ssr:stedsnr" v="917423" />
		<tag k="water" v="lake" />
	</node>
	<node lat="60.8538777789557" lon="7.974500000574618" id="-27151">
		<tag k="name" v="Trollåne" />
		<tag k="ssr:stedsnr" v="918709" />
		<tag k="waterway" v="stream" />
	</node>
	<node lat="60.832816664920195" lon="8.175155551223884" id="-27156">
		<tag k="name" v="Langevatnet" />
		<tag k="natural" v="water" />
		<tag k="ssr:stedsnr" v="919908" />
	</node>
	<node lat="60.815836112743696" lon="8.317013895764818" id="-27157">
		<tag k="name" v="Skarvanstølåni" />
		<tag k="ssr:stedsnr" v="919898" />
		<tag k="waterway" v="stream" />
	</node>
	<node lat="60.59944166704128" lon="8.666852769257174" id="-27164">
		<tag k="name" v="Tomastjørn" />
		<tag k="natural" v="water" />
		<tag k="ssr:stedsnr" v="949200" />
	</node>
	<node lat="60.64481388819678" lon="8.760425005587182" id="-27174">
		<tag k="name" v="Vesletjørn" />
		<tag k="natural" v="water" />
		<tag k="ssr:stedsnr" v="966006" />
	</node>
	<node lat="60.54529721812514" lon="8.650491660942848" id="-27175">
		<tag k="name" v="Nedre Skitjørn" />
		<tag k="natural" v="water" />
		<tag k="ssr:stedsnr" v="968041" />
	</node>
	<node lat="60.57294999600172" lon="8.621019444781492" id="-27176">
		<tag k="name" v="Skjetvaltjørn" />
		<tag k="natural" v="water" />
		<tag k="ssr:stedsnr" v="968787" />
	</node>
	<node lat="60.59259166657888" lon="8.488030547308563" id="-27184">
		<tag k="alt_name" v="Hakkerudgrovi" />
		<tag k="name" v="Hakkerudgrove" />
		<tag k="ssr:stedsnr" v="7068" />
		<tag k="waterway" v="stream" />
	</node>
	<node lat="60.582866669442446" lon="8.674138896846685" id="-27188">
		<tag k="alt_name" v="Nedre Oddetjørn" />
		<tag k="name" v="Nedre Oddetjørni" />
		<tag k="natural" v="water" />
		<tag k="ssr:stedsnr" v="6022" />
	</node>
	<node lat="60.73799721917345" lon="8.521641658748695" id="-27193">
		<tag k="alt_name" v="Fekjastølgrove" />
		<tag k="loc_name" v="Løken" />
		<tag k="name" v="Fetjastølløken" />
		<tag k="ssr:stedsnr" v="6815" />
		<tag k="waterway" v="stream" />
	</node>
	<node lat="60.69140555782582" lon="8.58105832537392" id="-27201">
		<tag k="name" v="Rauna" />
		<tag k="natural" v="water" />
		<tag k="ssr:stedsnr" v="6900" />
	</node>
	<node lat="60.69431388792348" lon="8.2632583422322" id="-27202">
		<tag k="name" v="Storåne" />
		<tag k="ssr:stedsnr" v="7888" />
		<tag k="waterway" v="river" />
	</node>
	<node lat="60.530466668261255" lon="8.694358339173284" id="-27204">
		<tag k="alt_name" v="Olsettjørni" />
		<tag k="name" v="Olsettjørn" />
		<tag k="natural" v="water" />
		<tag k="ssr:stedsnr" v="7224" />
	</node>
	<node lat="60.705844446704724" lon="8.330761112397616" id="-27209">
		<tag k="name" v="Revtjørne" />
		<tag k="natural" v="water" />
		<tag k="old_name" v="Revtjørn" />
		<tag k="ssr:stedsnr" v="7496" />
	</node>
	<node lat="60.606890683751345" lon="8.606624249925037" id="-27212">
		<tag k="name" v="Hovdetjørni" />
		<tag k="natural" v="water" />
		<tag k="ssr:stedsnr" v="7901" />
	</node>
	<node lat="60.59990833188194" lon="8.658830562762722" id="-27227">
		<tag k="name" v="Torkjellsettjørn" />
		<tag k="natural" v="water" />
		<tag k="ssr:stedsnr" v="39692" />
	</node>
	<node lat="60.581266666279745" lon="8.651727776303046" id="-27266">
		<tag k="name" v="Svarthamarløken" />
		<tag k="ssr:stedsnr" v="58040" />
		<tag k="waterway" v="stream" />
	</node>
	<node lat="60.56499722379039" lon="8.52370833258784" id="-27272">
		<tag k="alt_name" v="Sundåni" />
		<tag k="name" v="Sundåne" />
		<tag k="old_name" v="Sand-Aaen" />
		<tag k="ssr:stedsnr" v="67012" />
		<tag k="waterway" v="stream" />
	</node>
	<node lat="60.57446388915214" lon="8.605744438008186" id="-27273">
		<tag k="name" v="Langetjørni" />
		<tag k="natural" v="water" />
		<tag k="ssr:stedsnr" v="67035" />
	</node>
	<node lat="60.55202777777709" lon="8.562658335953483" id="-27275">
		<tag k="alt_name" v="Tranetjørn" />
		<tag k="name" v="Tranetjørni" />
		<tag k="natural" v="water" />
		<tag k="ssr:stedsnr" v="67276" />
	</node>
	<node lat="60.73860000311514" lon="8.284158329975654" id="-27278">
		<tag k="name" v="Øvre Skardtjørne" />
		<tag k="natural" v="water" />
		<tag k="ssr:stedsnr" v="67472" />
	</node>
	<node lat="60.737816666737636" lon="8.290080553051416" id="-27279">
		<tag k="name" v="Nedre Skardtjørne" />
		<tag k="natural" v="water" />
		<tag k="ssr:stedsnr" v="67481" />
	</node>
	<node lat="60.71053889184861" lon="8.363297215161682" id="-27281">
		<tag k="name" v="Store Damtjørne" />
		<tag k="natural" v="water" />
		<tag k="old_name" v="Damtjørne, store" />
		<tag k="ssr:stedsnr" v="67546" />
	</node>
	<node lat="60.67583888497106" lon="8.763213896240615" id="-27294">
		<tag k="name" v="Liabekken" />
		<tag k="ssr:stedsnr" v="67922" />
		<tag k="waterway" v="stream" />
	</node>
	<node lat="60.54054721935053" lon="8.414833329873996" id="-27307">
		<tag k="name" v="Godmortjørne" />
		<tag k="natural" v="water" />
		<tag k="ssr:stedsnr" v="68764" />
	</node>
	<node lat="60.63035000446408" lon="8.573400003207576" id="-27319">
		<tag k="fixme" v="multiple name tags, choose one and add the other to alt_name" />
		<tag k="name" v="Rikterøyne;Sundreøyne" />
		<tag k="natural" v="cape" />
		<tag k="old_name" v="Sundreøen" />
		<tag k="ssr:stedsnr" v="81931" />
	</node>
	<node lat="60.724536107203456" lon="8.314205558078061" id="-27340">
		<tag k="name" v="Bukketjørn" />
		<tag k="natural" v="water" />
		<tag k="ssr:stedsnr" v="101943" />
	</node>
	<node lat="60.69698611316213" lon="8.601558325664056" id="-27345">
		<tag k="name" v="Øynane" />
		<tag k="place" v="locality" />
		<tag k="ssr:stedsnr" v="102784" />
	</node>
	<node lat="60.6925611070812" lon="8.4302972288127" id="-27352">
		<tag k="name" v="Langehølen" />
		<tag k="natural" v="water" />
		<tag k="ssr:stedsnr" v="117368" />
		<tag k="water" v="lake" />
	</node>
	<node lat="60.51278055936058" lon="8.377947215895782" id="-27366">
		<tag k="loc_name" v="Svartetjørn" />
		<tag k="name" v="Svartetjørni" />
		<tag k="natural" v="water" />
		<tag k="ssr:stedsnr" v="127818" />
	</node>
	<node lat="60.741083333623365" lon="8.555249992631694" id="-27367">
		<tag k="name" v="Eitra" />
		<tag k="ssr:stedsnr" v="127828" />
		<tag k="waterway" v="stream" />
	</node>
	<node lat="60.59267777510578" lon="8.710936111010641" id="-27372">
		<tag k="alt_name" v="Mattjørn" />
		<tag k="name" v="Mattjerni" />
		<tag k="natural" v="water" />
		<tag k="ssr:stedsnr" v="128027" />
	</node>
	<node lat="60.641819442402685" lon="8.762533326145412" id="-27375">
		<tag k="alt_name" v="Storegrove" />
		<tag k="name" v="Storegrovi" />
		<tag k="ssr:stedsnr" v="128070" />
		<tag k="waterway" v="stream" />
	</node>
	<node lat="60.644177778619046" lon="8.754044444821815" id="-27378">
		<tag k="alt_name" v="Svartetjørn" />
		<tag k="name" v="Svartetjerni" />
		<tag k="natural" v="water" />
		<tag k="ssr:stedsnr" v="128085" />
	</node>
	<node lat="60.50575555959952" lon="8.562719439369543" id="-27380">
		<tag k="name" v="Nordre Rotetjørni" />
		<tag k="natural" v="water" />
		<tag k="ssr:stedsnr" v="128164" />
	</node>
	<node lat="60.743069448945434" lon="8.390588895339125" id="-27381">
		<tag k="alt_name" v="Hengsvatnet, vesle" />
		<tag k="name" v="Vesle Hengsvatnet" />
		<tag k="natural" v="water" />
		<tag k="ssr:stedsnr" v="128428" />
	</node>
	<node lat="60.54237704531897" lon="8.477952895428823" id="-27382">
		<tag k="name" v="Langetjørne" />
		<tag k="natural" v="water" />
		<tag k="old_name" v="Langetjørn" />
		<tag k="ssr:stedsnr" v="128718" />
	</node>
	<node lat="60.86306303889039" lon="8.203760385374215" id="-27387">
		<tag k="name" v="Dyrebottjørnan" />
		<tag k="natural" v="water" />
		<tag k="ssr:stedsnr" v="129572" />
		<tag k="water" v="lake" />
	</node>
	<node lat="60.85927879105971" lon="7.967278904250604" id="-27390">
		<tag k="name" v="Trolltjørne" />
		<tag k="natural" v="water" />
		<tag k="ssr:stedsnr" v="129653" />
	</node>
	<node lat="60.829316249893914" lon="8.025079181295979" id="-27391">
		<tag k="alt_name" v="Julsennvatnet, vesle" />
		<tag k="name" v="Vesle Julsennvatnet" />
		<tag k="natural" v="water" />
		<tag k="ssr:stedsnr" v="129752" />
	</node>
	<node lat="60.75896388919665" lon="8.67167777802138" id="-27394">
		<tag k="alt_name" v="Standartjørn" />
		<tag k="name" v="Standartjerni" />
		<tag k="natural" v="water" />
		<tag k="ssr:stedsnr" v="130034" />
	</node>
	<node lat="60.79366111450339" lon="8.245308341345213" id="-27396">
		<tag k="name" v="Hestebottjørnan" />
		<tag k="natural" v="water" />
		<tag k="ssr:stedsnr" v="130854" />
		<tag k="water" v="lake" />
	</node>
	<node lat="60.64657147657374" lon="8.539555170943325" id="-27407">
		<tag k="alt_name" v="Møretjørn" />
		<tag k="name" v="Møretjørne" />
		<tag k="natural" v="water" />
		<tag k="ssr:stedsnr" v="142757" />
	</node>
	<node lat="60.63309999839497" lon="8.577963881391602" id="-27409">
		<tag k="alt_name" v="Uppsjø" />
		<tag k="name" v="Oppsjø" />
		<tag k="natural" v="water" />
		<tag k="old_name" v="Oppsjøen;Uppsjøen" />
		<tag k="ssr:stedsnr" v="160090" />
		<tag k="water" v="lake" />
	</node>
	<node lat="60.60779507370825" lon="8.462768176930851" id="-27423">
		<tag k="alt_name" v="Damtjørni" />
		<tag k="name" v="Damtjørn" />
		<tag k="natural" v="water" />
		<tag k="ssr:stedsnr" v="162387" />
	</node>
	<node lat="60.64082778020581" lon="8.37663332422029" id="-27424">
		<tag k="name" v="Djupedalstjørn" />
		<tag k="natural" v="water" />
		<tag k="ssr:stedsnr" v="162647" />
	</node>
	<node lat="60.67170555338159" lon="8.66156667303285" id="-27428">
		<tag k="name" v="Eitra" />
		<tag k="ssr:stedsnr" v="162938" />
		<tag k="waterway" v="stream" />
	</node>
	<node lat="60.586127273357874" lon="8.45270140838476" id="-27438">
		<tag k="alt_name" v="Sandøyni" />
		<tag k="name" v="Sandøyne" />
		<tag k="place" v="island" />
		<tag k="ssr:stedsnr" v="174597" />
	</node>
	<node lat="60.74675833437023" lon="8.7009472223709" id="-27451">
		<tag k="name" v="Vola" />
		<tag k="ssr:stedsnr" v="188836" />
		<tag k="waterway" v="stream" />
	</node>
	<node lat="60.5752831469202" lon="8.506114816525773" id="-27456">
		<tag k="alt_name" v="Langetjørni;Langetjørn" />
		<tag k="name" v="Langetjørne" />
		<tag k="natural" v="water" />
		<tag k="ssr:stedsnr" v="189019" />
	</node>
	<node lat="60.60736666985627" lon="8.556136107327854" id="-27460">
		<tag k="alt_name" v="Kulefossen" />
		<tag k="name" v="Kulufossen" />
		<tag k="natural" v="waterfall" />
		<tag k="ssr:stedsnr" v="189059" />
	</node>
	<node lat="60.530616667069914" lon="8.493838887230407" id="-27462">
		<tag k="name" v="Langtjørnsviki" />
		<tag k="natural" v="bay" />
		<tag k="ssr:stedsnr" v="189199" />
	</node>
	<node lat="60.5534611134086" lon="8.643233326170261" id="-27466">
		<tag k="alt_name" v="Trolltjørn" />
		<tag k="name" v="Trolltjørni" />
		<tag k="natural" v="water" />
		<tag k="ssr:stedsnr" v="189222" />
	</node>
	<node lat="60.89347499768611" lon="7.952974992848911" id="-27473">
		<tag k="name" v="Rundtjørne" />
		<tag k="natural" v="water" />
		<tag k="ssr:stedsnr" v="190637" />
	</node>
	<node lat="60.79522778108308" lon="8.35138333805995" id="-27481">
		<tag k="name" v="Skarvanstøltjørne" />
		<tag k="natural" v="water" />
		<tag k="ssr:stedsnr" v="191840" />
	</node>
	<node lat="60.587358334275045" lon="8.619975008441838" id="-27486">
		<tag k="name" v="Våmanntjørn" />
		<tag k="natural" v="water" />
		<tag k="ssr:stedsnr" v="221982" />
	</node>
	<node lat="60.73464166606617" lon="8.40534722091792" id="-27490">
		<tag k="name" v="Løken" />
		<tag k="ssr:stedsnr" v="223021" />
		<tag k="waterway" v="stream" />
	</node>
	<node lat="60.58957221833698" lon="8.568180554356454" id="-27502">
		<tag k="name" v="Larshalltjørn" />
		<tag k="natural" v="water" />
		<tag k="ssr:stedsnr" v="223569" />
	</node>
	<node lat="60.66314444057936" lon="8.469147229398981" id="-27508">
		<tag k="name" v="Søre Holtetjørne" />
		<tag k="natural" v="water" />
		<tag k="ssr:stedsnr" v="281638" />
	</node>
	<node lat="60.68193889299344" lon="8.53776111559631" id="-27519">
		<tag k="name" v="Arnegardsgrove" />
		<tag k="ssr:stedsnr" v="298697" />
		<tag k="waterway" v="stream" />
	</node>
	<node lat="60.722044445140156" lon="8.403305562214236" id="-27530">
		<tag k="name" v="Hengsgrove" />
		<tag k="ssr:stedsnr" v="309565" />
		<tag k="waterway" v="stream" />
	</node>
	<node lat="60.71381388784155" lon="8.16521111347466" id="-27531">
		<tag k="name" v="Veslevatnet" />
		<tag k="natural" v="water" />
		<tag k="ssr:stedsnr" v="309569" />
	</node>
	<node lat="60.73572500403791" lon="8.244263883644589" id="-27532">
		<tag k="name" v="Øvre Eitretjørne" />
		<tag k="natural" v="water" />
		<tag k="ssr:stedsnr" v="309493" />
	</node>
	<node lat="60.5914475347689" lon="8.5819186318422" id="-27536">
		<tag k="alt_name" v="Hustjørn" />
		<tag k="name" v="Hustjørni" />
		<tag k="natural" v="water" />
		<tag k="ssr:stedsnr" v="310027" />
	</node>
	<node lat="60.54718611101882" lon="8.620461109556945" id="-27537">
		<tag k="alt_name" v="Kvannebergtjørn" />
		<tag k="name" v="Kvannetjørni" />
		<tag k="natural" v="water" />
		<tag k="ssr:stedsnr" v="310219" />
	</node>
	<node lat="60.54861324897298" lon="8.602273080586016" id="-27538">
		<tag k="name" v="Sundøyrtjørnane" />
		<tag k="natural" v="water" />
		<tag k="ssr:stedsnr" v="310221" />
		<tag k="water" v="lake" />
	</node>
	<node lat="60.603338885289816" lon="8.611563891868771" id="-27544">
		<tag k="alt_name" v="Helletjørn" />
		<tag k="name" v="Helletjørni" />
		<tag k="natural" v="water" />
		<tag k="ssr:stedsnr" v="310055" />
	</node>
	<node lat="60.59011111373331" lon="8.519738896538273" id="-27545">
		<tag k="alt_name" v="Damtjørn" />
		<tag k="name" v="Damtjørni" />
		<tag k="natural" v="water" />
		<tag k="ssr:stedsnr" v="310069" />
	</node>
	<node lat="60.607911301669574" lon="8.429724019786796" id="-27547">
		<tag k="name" v="Langetjørne" />
		<tag k="natural" v="water" />
		<tag k="old_name" v="Langetjørn" />
		<tag k="ssr:stedsnr" v="310679" />
	</node>
	<node lat="60.60600833143369" lon="8.420261105565913" id="-27548">
		<tag k="name" v="Bekkestadtjørne" />
		<tag k="natural" v="water" />
		<tag k="old_name" v="Bekkestadtjørn" />
		<tag k="ssr:stedsnr" v="310680" />
	</node>
	<node lat="60.654047226716635" lon="8.421100001688794" id="-27550">
		<tag k="name" v="Hornansåne" />
		<tag k="old_name" v="Hornaa" />
		<tag k="ssr:stedsnr" v="310570" />
		<tag k="waterway" v="stream" />
	</node>
	<node lat="60.679524997618" lon="8.616338896290282" id="-27551">
		<tag k="name" v="Onsetbekken" />
		<tag k="ssr:stedsnr" v="310901" />
		<tag k="waterway" v="stream" />
	</node>
	<node lat="60.64986413457701" lon="8.688433256146459" id="-27553">
		<tag k="name" v="Tingvollfjorden" />
		<tag k="natural" v="water" />
		<tag k="ssr:stedsnr" v="310989" />
		<tag k="water" v="lake" />
	</node>
	<node lat="60.85453055798367" lon="7.999211110234553" id="-27563">
		<tag k="name" v="Mjolga" />
		<tag k="ssr:stedsnr" v="311690" />
		<tag k="waterway" v="stream" />
	</node>
	<node lat="60.76263611557165" lon="8.362150006923892" id="-27565">
		<tag k="name" v="Lauvdalsåne" />
		<tag k="old_name" v="Lauvedalsåne" />
		<tag k="ssr:stedsnr" v="311995" />
		<tag k="waterway" v="stream" />
	</node>
	<node lat="60.88072499738226" lon="7.9335666732815895" id="-27566">
		<tag k="name" v="Steinevatnet" />
		<tag k="natural" v="water" />
		<tag k="ssr:stedsnr" v="311668" />
		<tag k="water" v="lake" />
	</node>
	<node lat="60.799511115244314" lon="8.01550000480296" id="-27568">
		<tag k="name" v="Dagsveljodden" />
		<tag k="natural" v="cape" />
		<tag k="ssr:stedsnr" v="312682" />
	</node>
	<node lat="60.84033025375133" lon="7.915861014240039" id="-27570">
		<tag k="name" v="Fødalstangen" />
		<tag k="natural" v="cape" />
		<tag k="ssr:stedsnr" v="312704" />
	</node>
	<node lat="60.84253333635666" lon="8.015961102615133" id="-27571">
		<tag k="name" v="Julsennbekken" />
		<tag k="ssr:stedsnr" v="312709" />
		<tag k="waterway" v="stream" />
	</node>
	<node lat="60.82115833524925" lon="8.378216674311243" id="-27574">
		<tag k="name" v="Store Beihovdtjørne" />
		<tag k="natural" v="water" />
		<tag k="ssr:stedsnr" v="312886" />
	</node>
	<node lat="60.748663887085904" lon="8.29041110817076" id="-27598">
		<tag k="name" v="Hellogrove" />
		<tag k="ssr:stedsnr" v="344939" />
		<tag k="waterway" v="stream" />
	</node>
	<node lat="60.49409722210986" lon="8.39257222591855" id="-27601">
		<tag k="loc_name" v="Fyritjørnåne" />
		<tag k="name" v="Fyritjørnbekken" />
		<tag k="ssr:stedsnr" v="369834" />
		<tag k="waterway" v="stream" />
	</node>
	<node lat="60.607411112716655" lon="8.564927775844023" id="-27603">
		<tag k="alt_name" v="Løkjene" />
		<tag k="name" v="Løkin" />
		<tag k="natural" v="water" />
		<tag k="ssr:stedsnr" v="355139" />
		<tag k="water" v="lake" />
	</node>
	<node lat="60.572041662353925" lon="8.541133327538686" id="-27607">
		<tag k="alt_name" v="Mefaringen" />
		<tag k="name" v="Mefarningen" />
		<tag k="natural" v="water" />
		<tag k="old_name" v="Meefaringen" />
		<tag k="ssr:stedsnr" v="356028" />
		<tag k="water" v="lake" />
	</node>
	<node lat="60.5996749964842" lon="8.776605553629373" id="-27621">
		<tag k="alt_name" v="Sievombe" />
		<tag k="loc_name" v="Sidevombe" />
		<tag k="name" v="Sievombi" />
		<tag k="natural" v="water" />
		<tag k="ssr:stedsnr" v="371047" />
	</node>
	<node lat="60.70634999598401" lon="8.727480546647202" id="-27627">
		<tag k="name" v="Pålsetbekken" />
		<tag k="ssr:stedsnr" v="370882" />
		<tag k="waterway" v="stream" />
	</node>
	<node lat="60.667074998082676" lon="8.32689999153596" id="-27633">
		<tag k="loc_name" v="Torkjelstjørn" />
		<tag k="name" v="Torkjelstjørne" />
		<tag k="natural" v="water" />
		<tag k="ssr:stedsnr" v="371579" />
	</node>
	<node lat="60.630583334929696" lon="8.37653610651722" id="-27636">
		<tag k="alt_name" v="Stokksendvatnet" />
		<tag k="name" v="Stokksennvatnet" />
		<tag k="natural" v="water" />
		<tag k="ssr:stedsnr" v="371640" />
		<tag k="water" v="lake" />
	</node>
	<node lat="60.645220844699395" lon="8.519944599296986" id="-27642">
		<tag k="alt_name" v="Staugardtjørni;Staugardtjørn" />
		<tag k="name" v="Staugardtjørne" />
		<tag k="natural" v="water" />
		<tag k="ssr:stedsnr" v="371997" />
	</node>
	<node lat="60.78150833078437" lon="8.529725000354142" id="-27644">
		<tag k="name" v="Kyrkjetjerni" />
		<tag k="natural" v="water" />
		<tag k="ssr:stedsnr" v="372026" />
	</node>
	<node lat="60.79754999789654" lon="8.144436117367915" id="-27649">
		<tag k="name" v="Svortjørne" />
		<tag k="natural" v="water" />
		<tag k="ssr:stedsnr" v="372895" />
	</node>
	<node lat="60.76820000326985" lon="8.465477771314387" id="-27651">
		<tag k="name" v="Grøvane" />
		<tag k="ssr:stedsnr" v="372987" />
		<tag k="waterway" v="stream" />
	</node>
	<node lat="60.84126036657431" lon="7.979631218513589" id="-27654">
		<tag k="name" v="Mjolgevatnet" />
		<tag k="natural" v="water" />
		<tag k="ssr:stedsnr" v="372743" />
		<tag k="water" v="lake" />
	</node>
	<node lat="60.71793317744529" lon="8.681805093708592" id="-27661">
		<tag k="name" v="Øknevatn" />
		<tag k="natural" v="water" />
		<tag k="ssr:stedsnr" v="404834" />
		<tag k="water" v="lake" />
	</node>
	<node lat="60.69372741863631" lon="8.283062808788756" id="-27672">
		<tag k="name" v="Skardtjørne" />
		<tag k="natural" v="water" />
		<tag k="ssr:stedsnr" v="405480" />
	</node>
	<node lat="60.71342499886509" lon="8.589424996042762" id="-27675">
		<tag k="name" v="Langestrønde" />
		<tag k="natural" v="beach" />
		<tag k="ssr:stedsnr" v="405769" />
	</node>
	<node lat="60.686236111926576" lon="8.38315278268146" id="-27677">
		<tag k="name" v="Raubugrove" />
		<tag k="ssr:stedsnr" v="405857" />
		<tag k="waterway" v="stream" />
	</node>
	<node lat="60.7108527748015" lon="8.297033329068473" id="-27684">
		<tag k="alt_name" v="Bergsjø" />
		<tag k="name" v="Bergsjøen" />
		<tag k="natural" v="water" />
		<tag k="ssr:stedsnr" v="416461" />
		<tag k="water" v="lake" />
	</node>
	<node lat="60.67362222024424" lon="8.494613890423754" id="-27690">
		<tag k="name" v="Nykketjørn" />
		<tag k="natural" v="water" />
		<tag k="ssr:stedsnr" v="420295" />
	</node>
	<node lat="60.71350607611446" lon="8.37029032813689" id="-27692">
		<tag k="name" v="Gyritjørn" />
		<tag k="natural" v="water" />
		<tag k="ssr:stedsnr" v="420432" />
	</node>
	<node lat="60.495772220758205" lon="8.44663888795267" id="-27695">
		<tag k="alt_name" v="Paradisbukta" />
		<tag k="name" v="Paradisbukti" />
		<tag k="natural" v="bay" />
		<tag k="ssr:stedsnr" v="420723" />
	</node>
	<node lat="60.56335161681205" lon="8.563281260084427" id="-27702">
		<tag k="alt_name" v="Nordre Hestetjørn;N(ordre) Hestetjørn" />
		<tag k="name" v="Nordre Hestetjørni" />
		<tag k="natural" v="water" />
		<tag k="ssr:stedsnr" v="431009" />
	</node>
	<node lat="60.58702778125943" lon="8.685888895061641" id="-27703">
		<tag k="name" v="Ausa" />
		<tag k="natural" v="water" />
		<tag k="ssr:stedsnr" v="431020" />
	</node>
	<node lat="60.57576110759139" lon="8.638352775004" id="-27705">
		<tag k="alt_name" v="Øyetjørn" />
		<tag k="name" v="Øyetjørni" />
		<tag k="natural" v="water" />
		<tag k="ssr:stedsnr" v="431036" />
	</node>
	<node lat="60.5527055592486" lon="8.573538897832957" id="-27709">
		<tag k="alt_name" v="Køytetjørn" />
		<tag k="name" v="Køytetjørni" />
		<tag k="natural" v="water" />
		<tag k="ssr:stedsnr" v="432228" />
	</node>
	<node lat="60.55387603159304" lon="8.704593077987324" id="-27710">
		<tag k="alt_name" v="Brisketjørnan" />
		<tag k="name" v="Brisketjørnane" />
		<tag k="natural" v="water" />
		<tag k="ssr:stedsnr" v="432229" />
		<tag k="water" v="lake" />
	</node>
	<node lat="60.74213610861627" lon="8.108605557197123" id="-27711">
		<tag k="name" v="Buvassodden" />
		<tag k="natural" v="cape" />
		<tag k="ssr:stedsnr" v="431469" />
	</node>
	<node lat="60.73762777529311" lon="8.21915000837682" id="-27712">
		<tag k="name" v="Djupedalstjørne" />
		<tag k="natural" v="water" />
		<tag k="old_name" v="Djupedalstjørn" />
		<tag k="ssr:stedsnr" v="431477" />
	</node>
	<node lat="60.70270277369825" lon="8.309322224557594" id="-27714">
		<tag k="name" v="Lappetjørne" />
		<tag k="natural" v="water" />
		<tag k="old_name" v="Lappetjørn" />
		<tag k="ssr:stedsnr" v="431554" />
	</node>
	<node lat="60.718122222679554" lon="8.357266673289574" id="-27716">
		<tag k="name" v="Hovdatjørne" />
		<tag k="natural" v="water" />
		<tag k="old_name" v="Hovdatjørn" />
		<tag k="ssr:stedsnr" v="431563" />
	</node>
	<node lat="60.733375002578605" lon="8.493855556531434" id="-27717">
		<tag k="alt_name" v="Hurdstøltjørni;Hulastøltjørni;Hulastøltjørn" />
		<tag k="loc_name" v="Hulastølstjødn" />
		<tag k="name" v="Hulastølstjørni" />
		<tag k="natural" v="water" />
		<tag k="ssr:stedsnr" v="431819" />
	</node>
	<node lat="60.657799996001835" lon="8.780111104253411" id="-27727">
		<tag k="name" v="Ridøla" />
		<tag k="ssr:stedsnr" v="432991" />
		<tag k="waterway" v="river" />
	</node>
	<node lat="60.60129166864701" lon="8.7635416745817" id="-27728">
		<tag k="alt_name" v="Hellebutjørn" />
		<tag k="name" v="Hellebutjerni" />
		<tag k="natural" v="water" />
		<tag k="ssr:stedsnr" v="432048" />
	</node>
	<node lat="60.625180556702986" lon="8.753933334749872" id="-27733">
		<tag k="name" v="Resbekken" />
		<tag k="ssr:stedsnr" v="432075" />
		<tag k="waterway" v="stream" />
	</node>
	<node lat="60.864919445249654" lon="8.331816658860035" id="-27737">
		<tag k="name" v="Langebottjørne" />
		<tag k="natural" v="water" />
		<tag k="ssr:stedsnr" v="433564" />
	</node>
	<node lat="60.80521944240522" lon="8.446180551421001" id="-27741">
		<tag k="name" v="Svartegrovi" />
		<tag k="ssr:stedsnr" v="433888" />
		<tag k="waterway" v="stream" />
	</node>
	<node lat="60.82194166289745" lon="8.178697223006186" id="-27743">
		<tag k="name" v="Øynegrovi" />
		<tag k="ssr:stedsnr" v="433899" />
		<tag k="waterway" v="stream" />
	</node>
	<node lat="60.861091077783044" lon="8.28941275160208" id="-27744">
		<tag k="name" v="Storebottjørne" />
		<tag k="natural" v="water" />
		<tag k="ssr:stedsnr" v="433932" />
	</node>
	<node lat="60.678694442311425" lon="8.299091674354338" id="-27750">
		<tag k="name" v="Tunga" />
		<tag k="natural" v="cape" />
		<tag k="ssr:stedsnr" v="445766" />
	</node>
	<node lat="60.64935000249461" lon="8.608624992815086" id="-27755">
		<tag k="name" v="Ylifossen" />
		<tag k="natural" v="waterfall" />
		<tag k="ssr:stedsnr" v="506949" />
	</node>
	<node lat="60.59020277749731" lon="8.580822223543791" id="-27769">
		<tag k="name" v="Hundeøynan" />
		<tag k="place" v="island" />
		<tag k="ssr:stedsnr" v="526556" />
	</node>
	<node lat="60.74161944573703" lon="8.347405560629664" id="-27774">
		<tag k="name" v="Øksetjørn" />
		<tag k="natural" v="water" />
		<tag k="ssr:stedsnr" v="526974" />
	</node>
	<node lat="60.5041138923372" lon="8.428377777454795" id="-27790">
		<tag k="alt_name" v="Fiskeøyne" />
		<tag k="name" v="Fiskeøyni" />
		<tag k="place" v="island" />
		<tag k="ssr:stedsnr" v="542001" />
	</node>
	<node lat="60.563330008175576" lon="8.571565155963189" id="-27798">
		<tag k="alt_name" v="Søndre Hestetjørni;Søre Hestetjørn;Hestetjørni Søre;S(øre) Hestetjørn" />
		<tag k="name" v="Søre Hestetjørni" />
		<tag k="natural" v="water" />
		<tag k="ssr:stedsnr" v="552010" />
	</node>
	<node lat="60.58409444604777" lon="8.603111116335384" id="-27800">
		<tag k="alt_name" v="Karlstjørn" />
		<tag k="name" v="Karlstjørni" />
		<tag k="natural" v="water" />
		<tag k="ssr:stedsnr" v="552032" />
	</node>
	<node lat="60.545088959348064" lon="8.644911287186977" id="-27802">
		<tag k="name" v="Skitjørnane" />
		<tag k="natural" v="water" />
		<tag k="ssr:stedsnr" v="552256" />
		<tag k="water" v="lake" />
	</node>
	<node lat="60.54636666522658" lon="8.586233334162959" id="-27803">
		<tag k="alt_name" v="Vesle Køytetjørn" />
		<tag k="name" v="Veslekøyta" />
=======
	<node id="-275863" lat="60.5289611106" lon="8.68133333494">
		<tag k="loc_name" v="Helgesetåni" />
		<tag k="name" v="Helgesetåne" />
		<tag k="ssr:stedsnr" v="239662" />
		<tag k="waterway" v="stream" />
	</node>
	<node id="-277902" lat="60.6968694462" lon="8.58359166625">
		<tag k="alt_name" v="Grytegrovi" />
		<tag k="name" v="Grytegrove" />
		<tag k="ssr:stedsnr" v="856891" />
		<tag k="waterway" v="stream" />
	</node>
	<node id="-277901" lat="60.7016250017" lon="8.77413889137">
		<tag k="name" v="Halldisløken" />
		<tag k="ssr:stedsnr" v="856887" />
		<tag k="waterway" v="stream" />
	</node>
	<node id="-277893" lat="60.5471333312" lon="8.63891388733">
		<tag k="name" v="Øvre Skitjørn" />
		<tag k="natural" v="water" />
		<tag k="ssr:stedsnr" v="847052" />
	</node>
	<node id="-277892" lat="60.54249722" lon="8.64766111936">
		<tag k="name" v="Nedre Skitjørn" />
		<tag k="natural" v="water" />
		<tag k="ssr:stedsnr" v="846644" />
	</node>
	<node id="-277882" lat="60.727022221" lon="8.16087222837">
		<tag k="name" v="Heimtjørn" />
		<tag k="natural" v="water" />
		<tag k="ssr:stedsnr" v="845232" />
	</node>
	<node id="-277876" lat="60.6279539948" lon="8.71412894174">
		<tag k="name" v="Bausta" />
		<tag k="natural" v="water" />
		<tag k="old_name" v="Bausten;Baustasjøen;Baustevatnet;Baustadsjøen" />
		<tag k="ssr:stedsnr" v="842081" />
		<tag k="water" v="lake" />
	</node>
	<node id="-277871" lat="60.7337972221" lon="8.27874721538">
		<tag k="name" v="Eitra" />
		<tag k="ssr:stedsnr" v="830938" />
		<tag k="waterway" v="stream" />
	</node>
	<node id="-277865" lat="60.7202361112" lon="8.29334722601">
		<tag k="name" v="Langtjørn" />
		<tag k="natural" v="water" />
		<tag k="ssr:stedsnr" v="830890" />
	</node>
	<node id="-277853" lat="60.6445833322" lon="8.38255833389">
		<tag k="name" v="Gardstjørn" />
		<tag k="natural" v="water" />
		<tag k="ssr:stedsnr" v="830628" />
	</node>
	<node id="-277843" lat="60.7392305569" lon="8.54823610847">
		<tag k="name" v="Svarthøl" />
		<tag k="place" v="locality" />
		<tag k="ssr:stedsnr" v="830148" />
	</node>
	<node id="-277838" lat="60.7161805578" lon="8.39295000157">
		<tag k="name" v="Ringane" />
		<tag k="place" v="locality" />
		<tag k="ssr:stedsnr" v="830002" />
	</node>
	<node id="-275784" lat="60.7346416661" lon="8.40534722092">
		<tag k="name" v="Løken" />
		<tag k="ssr:stedsnr" v="223021" />
		<tag k="waterway" v="stream" />
	</node>
	<node id="-275783" lat="60.8023333333" lon="8.08291110234">
		<tag k="name" v="Karketjørne" />
		<tag k="natural" v="water" />
		<tag k="ssr:stedsnr" v="9709" />
	</node>
	<node id="-275780" lat="60.5873583343" lon="8.61997500844">
		<tag k="name" v="Våmanntjørn" />
		<tag k="natural" v="water" />
		<tag k="ssr:stedsnr" v="221982" />
	</node>
	<node id="-275777" lat="60.6914055578" lon="8.58105832537">
		<tag k="name" v="Rauna" />
		<tag k="natural" v="water" />
		<tag k="ssr:stedsnr" v="6900" />
	</node>
	<node id="-275770" lat="60.7379972192" lon="8.52164165875">
		<tag k="alt_name" v="Fekjastølgrove" />
		<tag k="loc_name" v="Løken" />
		<tag k="name" v="Fetjastølløken" />
		<tag k="ssr:stedsnr" v="6815" />
		<tag k="waterway" v="stream" />
	</node>
	<node id="-277817" lat="60.8486750032" lon="8.06893889005">
		<tag k="name" v="Storefjellsåne" />
		<tag k="ssr:stedsnr" v="797741" />
		<tag k="waterway" v="stream" />
	</node>
	<node id="-277816" lat="60.8396741287" lon="7.87222278632">
		<tag k="name" v="Galdetjørnan" />
		<tag k="natural" v="water" />
		<tag k="ssr:stedsnr" v="797740" />
		<tag k="water" v="lake" />
	</node>
	<node id="-275767" lat="60.6766138862" lon="8.57503055509">
		<tag k="name" v="Syningstjørn" />
		<tag k="natural" v="water" />
		<tag k="ssr:stedsnr" v="3669" />
	</node>
	<node id="-277814" lat="60.8045805527" lon="8.03225277789">
		<tag k="name" v="Godbekken" />
		<tag k="ssr:stedsnr" v="797720" />
		<tag k="waterway" v="stream" />
	</node>
	<node id="-277813" lat="60.8628437848" lon="7.95102223694">
		<tag k="name" v="Svartetjørne" />
		<tag k="natural" v="water" />
		<tag k="ssr:stedsnr" v="797660" />
	</node>
	<node id="-277811" lat="60.8724811814" lon="7.9439132821">
		<tag k="name" v="Jutultjørne" />
		<tag k="natural" v="water" />
		<tag k="ssr:stedsnr" v="797654" />
	</node>
	<node id="-277792" lat="60.6883311641" lon="8.55933560694">
		<tag k="alt_name" v="Lislelitjørn" />
		<tag k="name" v="Lislelitjørni" />
		<tag k="natural" v="water" />
		<tag k="ssr:stedsnr" v="795895" />
	</node>
	<node id="-277786" lat="60.5935861109" lon="8.6446749999">
		<tag k="alt_name" v="Svansettjørn" />
		<tag k="name" v="Svansettjørni" />
		<tag k="natural" v="water" />
		<tag k="ssr:stedsnr" v="796032" />
	</node>
	<node id="-277779" lat="60.5847999981" lon="8.52881389196">
		<tag k="alt_name" v="Svartetjørn" />
		<tag k="name" v="Svartetjørni" />
		<tag k="natural" v="water" />
		<tag k="ssr:stedsnr" v="795070" />
	</node>
	<node id="-277776" lat="60.5528611072" lon="8.68516389515">
		<tag k="name" v="Helletjørn" />
		<tag k="natural" v="water" />
		<tag k="ssr:stedsnr" v="786670" />
	</node>
	<node id="-277773" lat="60.5316583361" lon="8.568130548">
		<tag k="name" v="Bjørnsbubekken" />
		<tag k="ssr:stedsnr" v="784891" />
		<tag k="waterway" v="river" />
	</node>
	<node id="-277770" lat="60.6861888845" lon="8.31910555673">
		<tag k="name" v="Tullehølen" />
		<tag k="place" v="locality" />
		<tag k="ssr:stedsnr" v="784789" />
	</node>
	<node id="-277769" lat="60.6954472225" lon="8.57690555128">
		<tag k="name" v="Grytegrovtjørn" />
		<tag k="natural" v="water" />
		<tag k="ssr:stedsnr" v="784775" />
	</node>
	<node id="-277767" lat="60.6482555594" lon="8.68763333201">
		<tag k="name" v="Dauvestrendane" />
		<tag k="natural" v="beach" />
		<tag k="ssr:stedsnr" v="784554" />
	</node>
	<node id="-277762" lat="60.6908111102" lon="8.42426666518">
		<tag k="name" v="Veslehølen" />
		<tag k="natural" v="water" />
		<tag k="ssr:stedsnr" v="784382" />
	</node>
	<node id="-277759" lat="60.7409166695" lon="8.2621361098">
		<tag k="name" v="Skargrove" />
		<tag k="ssr:stedsnr" v="784275" />
		<tag k="waterway" v="stream" />
	</node>
	<node id="-277744" lat="60.7396722257" lon="8.55114443928">
		<tag k="name" v="Knutshøl" />
		<tag k="place" v="locality" />
		<tag k="ssr:stedsnr" v="769147" />
	</node>
	<node id="-277737" lat="60.6079638921" lon="8.43878333645">
		<tag k="name" v="Langetjørnbekken" />
		<tag k="ssr:stedsnr" v="767957" />
		<tag k="waterway" v="stream" />
	</node>
	<node id="-277728" lat="60.8263197047" lon="8.10686015432">
		<tag k="name" v="Klypestjørne" />
		<tag k="natural" v="water" />
		<tag k="ssr:stedsnr" v="737897" />
	</node>
	<node id="-277722" lat="60.7591093604" lon="8.45413057626">
		<tag k="name" v="Fjelltjørne" />
		<tag k="natural" v="water" />
		<tag k="ssr:stedsnr" v="736995" />
	</node>
	<node id="-277715" lat="60.869000492" lon="7.96834569738">
		<tag k="name" v="Skridutjørne" />
		<tag k="natural" v="water" />
		<tag k="ssr:stedsnr" v="736641" />
	</node>
	<node id="-277712" lat="60.9044879057" lon="7.84139688367">
		<tag k="alt_name" v="Djupeskardtjørni, indre" />
		<tag k="name" v="Indre Djupeskardtjørni" />
		<tag k="natural" v="water" />
		<tag k="ssr:stedsnr" v="736615" />
	</node>
	<node id="-277711" lat="60.7741916696" lon="8.0279166653">
		<tag k="name" v="Geitevatnet" />
		<tag k="natural" v="water" />
		<tag k="ssr:stedsnr" v="736529" />
		<tag k="water" v="lake" />
	</node>
	<node id="-277702" lat="60.5963321043" lon="8.61980015005">
		<tag k="name" v="Rautjørn" />
		<tag k="natural" v="water" />
		<tag k="ssr:stedsnr" v="647585" />
	</node>
	<node id="-275892" lat="60.5211777751" lon="8.66158611437">
		<tag k="alt_name" v="Helgesettjørn" />
		<tag k="name" v="Helgesettjørni" />
		<tag k="natural" v="water" />
		<tag k="ssr:stedsnr" v="68214" />
	</node>
	<node id="-277687" lat="60.8482083301" lon="8.13185555001">
		<tag k="name" v="Skålatjørne" />
		<tag k="natural" v="water" />
		<tag k="ssr:stedsnr" v="615927" />
	</node>
	<node id="-277683" lat="60.8353919036" lon="8.03418147041">
		<tag k="loc_name" v="Gjurdsennvatnet" />
		<tag k="name" v="Julsennvatnet" />
		<tag k="natural" v="water" />
		<tag k="ssr:stedsnr" v="615719" />
		<tag k="water" v="lake" />
	</node>
	<node id="-277682" lat="60.8401496931" lon="7.89398085751">
		<tag k="name" v="Systrandtjørne" />
		<tag k="natural" v="water" />
		<tag k="ssr:stedsnr" v="615712" />
	</node>
	<node id="-277678" lat="60.7669305528" lon="8.3307194529">
		<tag k="name" v="Venestølgrovi" />
		<tag k="ssr:stedsnr" v="614984" />
		<tag k="waterway" v="stream" />
	</node>
	<node id="-277677" lat="60.7971361112" lon="8.02850555955">
		<tag k="name" v="Dagsvelja" />
		<tag k="ssr:stedsnr" v="614742" />
		<tag k="waterway" v="stream" />
	</node>
	<node id="-277675" lat="60.8553222253" lon="7.88002222096">
		<tag k="alt_name" v="Haldalsåne" />
		<tag k="name" v="Halldalsåne" />
		<tag k="ssr:stedsnr" v="614679" />
		<tag k="waterway" v="stream" />
	</node>
	<node id="-277670" lat="60.6814361138" lon="8.71837777501">
		<tag k="alt_name" v="Sireåni" />
		<tag k="name" v="Sireåne" />
		<tag k="ssr:stedsnr" v="613910" />
		<tag k="waterway" v="river" />
	</node>
	<node id="-277665" lat="60.7185166644" lon="8.32613610427">
		<tag k="name" v="Veavegtjørne" />
		<tag k="natural" v="water" />
		<tag k="old_name" v="Veavegtjørn" />
		<tag k="ssr:stedsnr" v="613521" />
	</node>
	<node id="-277658" lat="60.6095333326" lon="8.81175277981">
		<tag k="name" v="Rundehovdtjørnane" />
		<tag k="natural" v="water" />
		<tag k="ssr:stedsnr" v="613077" />
		<tag k="water" v="lake" />
	</node>
	<node id="-277654" lat="60.590613885" lon="8.67077499149">
		<tag k="alt_name" v="Steintjørn" />
		<tag k="name" v="Steintjørni" />
		<tag k="natural" v="water" />
		<tag k="ssr:stedsnr" v="613036" />
	</node>
	<node id="-277651" lat="60.726312237" lon="8.18941069871">
		<tag k="name" v="Tvistvatnet" />
		<tag k="natural" v="water" />
		<tag k="ssr:stedsnr" v="612490" />
		<tag k="water" v="lake" />
	</node>
	<node id="-277647" lat="60.5743972246" lon="8.60580277879">
		<tag k="name" v="Langetjørn" />
		<tag k="natural" v="water" />
		<tag k="ssr:stedsnr" v="603244" />
	</node>
	<node id="-277637" lat="60.6817388912" lon="8.56885000721">
		<tag k="name" v="Øvre Damtjørn" />
		<tag k="natural" v="water" />
		<tag k="ssr:stedsnr" v="601702" />
	</node>
	<node id="-277620" lat="60.6744611108" lon="8.50536388467">
		<tag k="name" v="Fekjatjørn" />
		<tag k="natural" v="water" />
		<tag k="ssr:stedsnr" v="586743" />
	</node>
	<node id="-277618" lat="60.6988500026" lon="8.75341110267">
		<tag k="name" v="Øyestølbekken" />
		<tag k="ssr:stedsnr" v="586271" />
		<tag k="waterway" v="stream" />
	</node>
	<node id="-277616" lat="60.6596944465" lon="8.79476110373">
		<tag k="name" v="Svarvarbekken" />
		<tag k="ssr:stedsnr" v="586022" />
		<tag k="waterway" v="stream" />
	</node>
	<node id="-277591" lat="60.8450865343" lon="7.91352958279">
		<tag k="name" v="Fødalsvatnet" />
		<tag k="natural" v="water" />
		<tag k="ssr:stedsnr" v="554750" />
		<tag k="water" v="lake" />
	</node>
	<node id="-277588" lat="60.8698916657" lon="8.07290833617">
		<tag k="name" v="Simletjørne" />
		<tag k="natural" v="water" />
		<tag k="ssr:stedsnr" v="554693" />
	</node>
	<node id="-277587" lat="60.8376999995" lon="7.8662000042">
		<tag k="name" v="Galdegrove" />
		<tag k="ssr:stedsnr" v="554762" />
		<tag k="waterway" v="stream" />
	</node>
	<node id="-277578" lat="60.61413333" lon="8.43478610844">
		<tag k="name" v="Flåtjørne" />
		<tag k="natural" v="water" />
		<tag k="old_name" v="Flåtjørn" />
		<tag k="ssr:stedsnr" v="553642" />
	</node>
	<node id="-277577" lat="60.6709166684" lon="8.28696111724">
		<tag k="name" v="Varaldsetåne" />
		<tag k="ssr:stedsnr" v="553589" />
		<tag k="waterway" v="stream" />
	</node>
	<node id="-277571" lat="60.701902775" lon="8.26522778043">
		<tag k="name" v="Tverråne" />
		<tag k="ssr:stedsnr" v="553492" />
		<tag k="waterway" v="stream" />
	</node>
	<node id="-277569" lat="60.5360138926" lon="8.57394166505">
		<tag k="alt_name" v="Bjørnsbutjørn" />
		<tag k="name" v="Bjørnsbutjørni" />
		<tag k="natural" v="water" />
		<tag k="ssr:stedsnr" v="553212" />
	</node>
	<node id="-277566" lat="60.6000916684" lon="8.71174166936">
		<tag k="name" v="Hagatjerni" />
		<tag k="natural" v="water" />
		<tag k="ssr:stedsnr" v="553051" />
	</node>
	<node id="-277563" lat="60.5900131007" lon="8.69294499772">
		<tag k="alt_name" v="Restjørnan" />
		<tag k="name" v="Restjørnane" />
		<tag k="natural" v="water" />
		<tag k="ssr:stedsnr" v="553034" />
		<tag k="water" v="lake" />
	</node>
	<node id="-277562" lat="60.5871749969" lon="8.62000833795">
		<tag k="name" v="Våmannsløken" />
		<tag k="natural" v="water" />
		<tag k="ssr:stedsnr" v="553029" />
	</node>
	<node id="-277548" lat="60.6996555522" lon="8.5211277752">
		<tag k="name" v="Løkbekken" />
		<tag k="ssr:stedsnr" v="552885" />
		<tag k="waterway" v="stream" />
	</node>
	<node id="-277546" lat="60.7086138869" lon="8.66601110885">
		<tag k="alt_name" v="Trytitjerni" />
		<tag k="name" v="Trytitjørn" />
		<tag k="natural" v="water" />
		<tag k="ssr:stedsnr" v="552875" />
	</node>
	<node id="-277541" lat="60.6438805531" lon="8.41420278418">
		<tag k="name" v="Innkvelvlibekken" />
		<tag k="ssr:stedsnr" v="552668" />
		<tag k="waterway" v="stream" />
	</node>
	<node id="-277539" lat="60.7230055624" lon="8.28364750234">
		<tag k="name" v="Kroktjørne" />
		<tag k="natural" v="water" />
		<tag k="old_name" v="Kroktjørn" />
		<tag k="ssr:stedsnr" v="552531" />
	</node>
	<node id="-277537" lat="60.5529888856" lon="8.66579444845">
		<tag k="alt_name" v="Riklene, vesle" />
		<tag k="name" v="Vesle Rikla" />
		<tag k="natural" v="water" />
		<tag k="ssr:stedsnr" v="552272" />
	</node>
	<node id="-277536" lat="60.5463666652" lon="8.58623333416">
		<tag k="alt_name" v="Vesle Køytetjørn" />
		<tag k="name" v="Veslekøyta" />
		<tag k="natural" v="water" />
		<tag k="ssr:stedsnr" v="552262" />
	</node>
	<node id="-277535" lat="60.5450889593" lon="8.64491128719">
		<tag k="name" v="Skitjørnane" />
		<tag k="natural" v="water" />
		<tag k="ssr:stedsnr" v="552256" />
		<tag k="water" v="lake" />
	</node>
	<node id="-277534" lat="60.584094446" lon="8.60311111634">
		<tag k="alt_name" v="Karlstjørn" />
		<tag k="name" v="Karlstjørni" />
		<tag k="natural" v="water" />
		<tag k="ssr:stedsnr" v="552032" />
	</node>
	<node id="-277529" lat="60.5633300082" lon="8.57156515596">
		<tag k="alt_name" v="Søndre Hestetjørni;Søre Hestetjørn;Hestetjørni Søre;S(øre) Hestetjørn" />
		<tag k="name" v="Søre Hestetjørni" />
		<tag k="natural" v="water" />
		<tag k="ssr:stedsnr" v="552010" />
	</node>
	<node id="-277523" lat="60.5041138923" lon="8.42837777745">
		<tag k="alt_name" v="Fiskeøyne" />
		<tag k="name" v="Fiskeøyni" />
		<tag k="place" v="island" />
		<tag k="ssr:stedsnr" v="542001" />
	</node>
	<node id="-277518" lat="60.6749194434" lon="8.57908055457">
		<tag k="name" v="Øvre Damtjørn" />
		<tag k="natural" v="water" />
		<tag k="ssr:stedsnr" v="541719" />
	</node>
	<node id="-277496" lat="60.7416194457" lon="8.34740556063">
		<tag k="name" v="Øksetjørn" />
		<tag k="natural" v="water" />
		<tag k="ssr:stedsnr" v="526974" />
	</node>
	<node id="-277485" lat="60.8219416629" lon="8.17869722301">
		<tag k="name" v="Øynegrovi" />
		<tag k="ssr:stedsnr" v="433899" />
		<tag k="waterway" v="stream" />
	</node>
	<node id="-277483" lat="60.8052194424" lon="8.44618055142">
		<tag k="name" v="Svartegrovi" />
		<tag k="ssr:stedsnr" v="433888" />
		<tag k="waterway" v="stream" />
	</node>
	<node id="-277481" lat="60.8649194452" lon="8.33181665886">
		<tag k="name" v="Langebottjørne" />
		<tag k="natural" v="water" />
		<tag k="ssr:stedsnr" v="433564" />
	</node>
	<node id="-277480" lat="60.8089999974" lon="7.99857500811">
		<tag k="name" v="Armen" />
		<tag k="natural" v="cape" />
		<tag k="ssr:stedsnr" v="433708" />
	</node>
	<node id="-277479" lat="60.657799996" lon="8.78011110425">
		<tag k="name" v="Ridøla" />
		<tag k="ssr:stedsnr" v="432991" />
		<tag k="waterway" v="river" />
	</node>
	<node id="-277474" lat="60.7004722186" lon="8.35029166191">
		<tag k="name" v="Dusa" />
		<tag k="ssr:stedsnr" v="432536" />
		<tag k="waterway" v="stream" />
	</node>
	<node id="-277473" lat="60.6520138864" lon="8.57570277935">
		<tag k="name" v="Votna" />
		<tag k="old_name" v="Vatna" />
		<tag k="ssr:stedsnr" v="432521" />
		<tag k="waterway" v="river" />
	</node>
	<node id="-277471" lat="60.6973472237" lon="8.32095556274">
		<tag k="name" v="Lappegrove" />
		<tag k="ssr:stedsnr" v="432481" />
		<tag k="waterway" v="stream" />
	</node>
	<node id="-277465" lat="60.6251805567" lon="8.75393333475">
		<tag k="name" v="Resbekken" />
		<tag k="ssr:stedsnr" v="432075" />
		<tag k="waterway" v="stream" />
	</node>
	<node id="-277460" lat="60.6012916686" lon="8.76354167458">
		<tag k="alt_name" v="Hellebutjørn" />
		<tag k="name" v="Hellebutjerni" />
		<tag k="natural" v="water" />
		<tag k="ssr:stedsnr" v="432048" />
	</node>
	<node id="-277457" lat="60.5490611152" lon="8.63180000799">
		<tag k="name" v="Vesle Skitjørn" />
		<tag k="natural" v="water" />
		<tag k="ssr:stedsnr" v="431702" />
	</node>
	<node id="-277456" lat="60.7181222227" lon="8.35726667329">
		<tag k="name" v="Hovdatjørne" />
		<tag k="natural" v="water" />
		<tag k="old_name" v="Hovdatjørn" />
		<tag k="ssr:stedsnr" v="431563" />
	</node>
	<node id="-277454" lat="60.7027027737" lon="8.30932222456">
		<tag k="name" v="Lappetjørne" />
		<tag k="natural" v="water" />
		<tag k="old_name" v="Lappetjørn" />
		<tag k="ssr:stedsnr" v="431554" />
	</node>
	<node id="-277448" lat="60.7198138882" lon="8.17271666765">
		<tag k="name" v="Juvåne" />
		<tag k="ssr:stedsnr" v="431508" />
		<tag k="waterway" v="stream" />
	</node>
	<node id="-277447" lat="60.7376277753" lon="8.21915000838">
		<tag k="name" v="Djupedalstjørne" />
		<tag k="natural" v="water" />
		<tag k="old_name" v="Djupedalstjørn" />
		<tag k="ssr:stedsnr" v="431477" />
	</node>
	<node id="-277446" lat="60.7421361086" lon="8.1086055572">
		<tag k="name" v="Buvassodden" />
		<tag k="natural" v="cape" />
		<tag k="ssr:stedsnr" v="431469" />
	</node>
	<node id="-277435" lat="60.7135060761" lon="8.37029032814">
		<tag k="name" v="Gyritjørn" />
		<tag k="natural" v="water" />
		<tag k="ssr:stedsnr" v="420432" />
	</node>
	<node id="-277431" lat="60.6736222202" lon="8.49461389042">
		<tag k="name" v="Nykketjørn" />
		<tag k="natural" v="water" />
		<tag k="ssr:stedsnr" v="420295" />
	</node>
	<node id="-277425" lat="60.7108527748" lon="8.29703332907">
		<tag k="alt_name" v="Bergsjø" />
		<tag k="name" v="Bergsjøen" />
		<tag k="natural" v="water" />
		<tag k="ssr:stedsnr" v="416461" />
		<tag k="water" v="lake" />
	</node>
	<node id="-277420" lat="60.6694416628" lon="8.66395000139">
		<tag k="name" v="Lya" />
		<tag k="ssr:stedsnr" v="405938" />
		<tag k="waterway" v="river" />
	</node>
	<node id="-277416" lat="60.6862361119" lon="8.38315278268">
		<tag k="name" v="Raubugrove" />
		<tag k="ssr:stedsnr" v="405857" />
		<tag k="waterway" v="stream" />
	</node>
	<node id="-277415" lat="60.7134249989" lon="8.58942499604">
		<tag k="name" v="Langestrønde" />
		<tag k="natural" v="beach" />
		<tag k="ssr:stedsnr" v="405769" />
	</node>
	<node id="-277412" lat="60.6937274186" lon="8.28306280879">
		<tag k="name" v="Skardtjørne" />
		<tag k="natural" v="water" />
		<tag k="ssr:stedsnr" v="405480" />
	</node>
	<node id="-277401" lat="60.7179331774" lon="8.68180509371">
		<tag k="name" v="Øknevatn" />
		<tag k="natural" v="water" />
		<tag k="ssr:stedsnr" v="404834" />
		<tag k="water" v="lake" />
	</node>
	<node id="-277394" lat="60.7682000033" lon="8.46547777131">
		<tag k="name" v="Grøvane" />
		<tag k="ssr:stedsnr" v="372987" />
		<tag k="waterway" v="stream" />
	</node>
	<node id="-277392" lat="60.7975499979" lon="8.14443611737">
		<tag k="name" v="Svortjørne" />
		<tag k="natural" v="water" />
		<tag k="ssr:stedsnr" v="372895" />
	</node>
	<node id="-277391" lat="60.8412603666" lon="7.97963121851">
		<tag k="name" v="Mjolgevatnet" />
		<tag k="natural" v="water" />
		<tag k="ssr:stedsnr" v="372743" />
		<tag k="water" v="lake" />
	</node>
	<node id="-277385" lat="60.6452208447" lon="8.5199445993">
		<tag k="alt_name" v="Staugardtjørni;Staugardtjørn" />
		<tag k="name" v="Staugardtjørne" />
		<tag k="natural" v="water" />
		<tag k="ssr:stedsnr" v="371997" />
	</node>
	<node id="-277380" lat="60.6305833349" lon="8.37653610652">
		<tag k="alt_name" v="Stokksendvatnet" />
		<tag k="name" v="Stokksennvatnet" />
		<tag k="natural" v="water" />
		<tag k="ssr:stedsnr" v="371640" />
		<tag k="water" v="lake" />
	</node>
	<node id="-277376" lat="60.6670749981" lon="8.32689999154">
		<tag k="loc_name" v="Torkjelstjørn" />
		<tag k="name" v="Torkjelstjørne" />
		<tag k="natural" v="water" />
		<tag k="ssr:stedsnr" v="371579" />
	</node>
	<node id="-277375" lat="60.5560166673" lon="8.69014722703">
		<tag k="alt_name" v="Hamretjørn" />
		<tag k="name" v="Hamretjørni" />
		<tag k="natural" v="water" />
		<tag k="ssr:stedsnr" v="371229" />
	</node>
	<node id="-277373" lat="60.5996749965" lon="8.77660555363">
		<tag k="alt_name" v="Sievombe" />
		<tag k="loc_name" v="Sidevombe" />
		<tag k="name" v="Sievombi" />
		<tag k="natural" v="water" />
		<tag k="ssr:stedsnr" v="371047" />
	</node>
	<node id="-275881" lat="60.675838885" lon="8.76321389624">
		<tag k="name" v="Liabekken" />
		<tag k="ssr:stedsnr" v="67922" />
		<tag k="waterway" v="stream" />
	</node>
	<node id="-277365" lat="60.706349996" lon="8.72748054665">
		<tag k="name" v="Pålsetbekken" />
		<tag k="ssr:stedsnr" v="370882" />
		<tag k="waterway" v="stream" />
	</node>
	<node id="-277360" lat="60.7451999962" lon="8.6547361138">
		<tag k="alt_name" v="Dyretjørn" />
		<tag k="name" v="Dyretjerni" />
		<tag k="natural" v="water" />
		<tag k="ssr:stedsnr" v="370819" />
	</node>
	<node id="-277359" lat="60.5954111076" lon="8.47650276948">
		<tag k="name" v="Strandafjorden" />
		<tag k="natural" v="water" />
		<tag k="ssr:stedsnr" v="370709" />
		<tag k="water" v="lake" />
	</node>
	<node id="-277355" lat="60.7231000001" lon="8.15950834162">
		<tag k="name" v="Klovsteintjørne" />
		<tag k="natural" v="water" />
		<tag k="old_name" v="Kløvsteintjørn" />
		<tag k="ssr:stedsnr" v="370510" />
	</node>
	<node id="-277354" lat="60.7310047785" lon="8.28092311762">
		<tag k="name" v="Nørdre Dyrebotntjørne" />
		<tag k="natural" v="water" />
		<tag k="ssr:stedsnr" v="370504" />
	</node>
	<node id="-277346" lat="60.5811067547" lon="8.62980919216">
		<tag k="alt_name" v="Kroktjørn" />
		<tag k="name" v="Kroktjørni" />
		<tag k="natural" v="water" />
		<tag k="ssr:stedsnr" v="370023" />
	</node>
	<node id="-277345" lat="60.4940972221" lon="8.39257222592">
		<tag k="loc_name" v="Fyritjørnåne" />
		<tag k="name" v="Fyritjørnbekken" />
		<tag k="ssr:stedsnr" v="369834" />
		<tag k="waterway" v="stream" />
	</node>
	<node id="-277335" lat="60.84493889" lon="8.18604166436">
		<tag k="alt_name" v="Lyserbottj" />
		<tag k="name" v="Lyserbottjørni" />
		<tag k="natural" v="water" />
		<tag k="ssr:stedsnr" v="356918" />
	</node>
	<node id="-277333" lat="60.5720416624" lon="8.54113332754">
		<tag k="alt_name" v="Mefaringen" />
		<tag k="name" v="Mefarningen" />
		<tag k="natural" v="water" />
		<tag k="old_name" v="Meefaringen" />
		<tag k="ssr:stedsnr" v="356028" />
		<tag k="water" v="lake" />
	</node>
	<node id="-277326" lat="60.6074111127" lon="8.56492777584">
		<tag k="alt_name" v="Løkjene" />
		<tag k="name" v="Løkin" />
		<tag k="natural" v="water" />
		<tag k="ssr:stedsnr" v="355139" />
		<tag k="water" v="lake" />
	</node>
	<node id="-277323" lat="60.7486638871" lon="8.29041110817">
		<tag k="name" v="Hellogrove" />
		<tag k="ssr:stedsnr" v="344939" />
		<tag k="waterway" v="stream" />
	</node>
	<node id="-277311" lat="60.7426194415" lon="8.5660527815">
		<tag k="name" v="Fiskekrokan" />
		<tag k="place" v="locality" />
		<tag k="ssr:stedsnr" v="344121" />
	</node>
	<node id="-277295" lat="60.8211583352" lon="8.37821667431">
		<tag k="name" v="Store Beihovdtjørne" />
		<tag k="natural" v="water" />
		<tag k="ssr:stedsnr" v="312886" />
	</node>
	<node id="-277293" lat="60.7995111152" lon="8.0155000048">
		<tag k="name" v="Dagsveljodden" />
		<tag k="natural" v="cape" />
		<tag k="ssr:stedsnr" v="312682" />
	</node>
	<node id="-277289" lat="60.7626361156" lon="8.36215000692">
		<tag k="name" v="Lauvdalsåne" />
		<tag k="old_name" v="Lauvedalsåne" />
		<tag k="ssr:stedsnr" v="311995" />
		<tag k="waterway" v="stream" />
	</node>
	<node id="-277287" lat="60.7772019752" lon="8.39456920537">
		<tag k="name" v="Breatjørnan" />
		<tag k="natural" v="water" />
		<tag k="ssr:stedsnr" v="311909" />
		<tag k="water" v="lake" />
	</node>
	<node id="-277286" lat="60.7792482391" lon="8.34916895344">
		<tag k="name" v="Klypestjørne" />
		<tag k="natural" v="water" />
		<tag k="ssr:stedsnr" v="311907" />
	</node>
	<node id="-277283" lat="60.854530558" lon="7.99921111023">
		<tag k="name" v="Mjolga" />
		<tag k="ssr:stedsnr" v="311690" />
		<tag k="waterway" v="stream" />
	</node>
	<node id="-277282" lat="60.8641768243" lon="7.78993815781">
		<tag k="name" v="Midtre Flågrunnsvatnet" />
		<tag k="natural" v="water" />
		<tag k="ssr:stedsnr" v="311685" />
		<tag k="water" v="lake" />
	</node>
	<node id="-277281" lat="60.880244558" lon="8.00992777827">
		<tag k="name" v="Mjolgetjørne" />
		<tag k="natural" v="water" />
		<tag k="ssr:stedsnr" v="311682" />
	</node>
	<node id="-277279" lat="60.8807249974" lon="7.93356667328">
		<tag k="name" v="Steinevatnet" />
		<tag k="natural" v="water" />
		<tag k="ssr:stedsnr" v="311668" />
		<tag k="water" v="lake" />
	</node>
	<node id="-277275" lat="60.6498641346" lon="8.68843325615">
		<tag k="name" v="Tingvollfjorden" />
		<tag k="natural" v="water" />
		<tag k="ssr:stedsnr" v="310989" />
		<tag k="water" v="lake" />
	</node>
	<node id="-277266" lat="60.6795249976" lon="8.61633889629">
		<tag k="name" v="Onsetbekken" />
		<tag k="ssr:stedsnr" v="310901" />
		<tag k="waterway" v="stream" />
	</node>
	<node id="-277265" lat="60.6851166643" lon="8.56770555625">
		<tag k="alt_name" v="Nykketjørn" />
		<tag k="name" v="Nykketjørni" />
		<tag k="natural" v="water" />
		<tag k="ssr:stedsnr" v="310898" />
	</node>
	<node id="-277256" lat="60.6623194432" lon="8.33848888864">
		<tag k="name" v="Mjåvatnet" />
		<tag k="natural" v="water" />
		<tag k="old_name" v="Mjåvatn;Mjaavand" />
		<tag k="ssr:stedsnr" v="310583" />
		<tag k="water" v="lake" />
	</node>
	<node id="-277255" lat="60.6540472267" lon="8.42110000169">
		<tag k="name" v="Hornansåne" />
		<tag k="old_name" v="Hornaa" />
		<tag k="ssr:stedsnr" v="310570" />
		<tag k="waterway" v="stream" />
	</node>
	<node id="-277252" lat="60.6793888933" lon="8.35503611657">
		<tag k="name" v="Mjåvassbekken" />
		<tag k="ssr:stedsnr" v="310547" />
		<tag k="waterway" v="stream" />
	</node>
	<node id="-277250" lat="60.555038885" lon="8.62418332798">
		<tag k="name" v="Vestrebekken" />
		<tag k="ssr:stedsnr" v="310231" />
		<tag k="waterway" v="stream" />
	</node>
	<node id="-277249" lat="60.548613249" lon="8.60227308059">
		<tag k="name" v="Sundøyrtjørnane" />
		<tag k="natural" v="water" />
		<tag k="ssr:stedsnr" v="310221" />
		<tag k="water" v="lake" />
	</node>
	<node id="-277248" lat="60.547186111" lon="8.62046110956">
		<tag k="alt_name" v="Kvannebergtjørn" />
		<tag k="name" v="Kvannetjørni" />
		<tag k="natural" v="water" />
		<tag k="ssr:stedsnr" v="310219" />
	</node>
	<node id="-277241" lat="60.5901111137" lon="8.51973889654">
		<tag k="alt_name" v="Damtjørn" />
		<tag k="name" v="Damtjørni" />
		<tag k="natural" v="water" />
		<tag k="ssr:stedsnr" v="310069" />
	</node>
	<node id="-277240" lat="60.6033388853" lon="8.61156389187">
		<tag k="alt_name" v="Helletjørn" />
		<tag k="name" v="Helletjørni" />
		<tag k="natural" v="water" />
		<tag k="ssr:stedsnr" v="310055" />
	</node>
	<node id="-277237" lat="60.5914475348" lon="8.58191863184">
		<tag k="alt_name" v="Hustjørn" />
		<tag k="name" v="Hustjørni" />
		<tag k="natural" v="water" />
		<tag k="ssr:stedsnr" v="310027" />
	</node>
	<node id="-277234" lat="60.5652694449" lon="8.63075555763">
		<tag k="name" v="Helletjørni" />
		<tag k="natural" v="water" />
		<tag k="ssr:stedsnr" v="310003" />
	</node>
	<node id="-277224" lat="60.6752166699" lon="8.65091388312">
		<tag k="name" v="Lya" />
		<tag k="ssr:stedsnr" v="309800" />
		<tag k="waterway" v="river" />
	</node>
	<node id="-277223" lat="60.5109944452" lon="8.41596666537">
		<tag k="name" v="Fetjaåne" />
		<tag k="ssr:stedsnr" v="309792" />
		<tag k="waterway" v="stream" />
	</node>
	<node id="-277222" lat="60.7138138878" lon="8.16521111347">
		<tag k="name" v="Veslevatnet" />
		<tag k="natural" v="water" />
		<tag k="ssr:stedsnr" v="309569" />
	</node>
	<node id="-277221" lat="60.7220444451" lon="8.40330556221">
		<tag k="name" v="Hengsgrove" />
		<tag k="ssr:stedsnr" v="309565" />
		<tag k="waterway" v="stream" />
	</node>
	<node id="-277217" lat="60.735725004" lon="8.24426388364">
		<tag k="name" v="Øvre Eitretjørne" />
		<tag k="natural" v="water" />
		<tag k="ssr:stedsnr" v="309493" />
	</node>
	<node id="-277215" lat="60.6484472246" lon="8.509638882">
		<tag k="loc_name" v="Fuglehovdtjørne" />
		<tag k="name" v="Fuglehovdtjørn" />
		<tag k="natural" v="water" />
		<tag k="ssr:stedsnr" v="203738" />
	</node>
	<node id="-277203" lat="60.7950000008" lon="8.51604999148">
		<tag k="loc_name" v="Værsjøen" />
		<tag k="name" v="Versjøen" />
		<tag k="natural" v="water" />
		<tag k="old_name" v="Vers-søen" />
		<tag k="ssr:stedsnr" v="191213" />
		<tag k="water" v="lake" />
	</node>
	<node id="-277188" lat="60.5534611134" lon="8.64323332617">
		<tag k="alt_name" v="Trolltjørn" />
		<tag k="name" v="Trolltjørni" />
		<tag k="natural" v="water" />
		<tag k="ssr:stedsnr" v="189222" />
	</node>
	<node id="-277187" lat="60.5306166671" lon="8.49383888723">
		<tag k="name" v="Langtjørnsviki" />
		<tag k="natural" v="bay" />
		<tag k="ssr:stedsnr" v="189199" />
	</node>
	<node id="-277181" lat="60.6073666699" lon="8.55613610733">
		<tag k="alt_name" v="Kulefossen" />
		<tag k="name" v="Kulufossen" />
		<tag k="natural" v="waterfall" />
		<tag k="ssr:stedsnr" v="189059" />
	</node>
	<node id="-277167" lat="60.4989717418" lon="8.35634976289">
		<tag k="name" v="Fyritjørne" />
		<tag k="natural" v="water" />
		<tag k="old_name" v="Fyrrre Kj;Fyretj;Fyritjørn" />
		<tag k="ssr:stedsnr" v="188868" />
	</node>
	<node id="-277165" lat="60.7467583344" lon="8.70094722237">
		<tag k="name" v="Vola" />
		<tag k="ssr:stedsnr" v="188836" />
		<tag k="waterway" v="stream" />
	</node>
	<node id="-277164" lat="60.7360027764" lon="8.36008056398">
		<tag k="name" v="Stautjørne" />
		<tag k="natural" v="water" />
		<tag k="old_name" v="Staurtjørn" />
		<tag k="ssr:stedsnr" v="188507" />
	</node>
	<node id="-277163" lat="60.7289499961" lon="8.26422500355">
		<tag k="name" v="Lomreitjørne" />
		<tag k="natural" v="water" />
		<tag k="old_name" v="Lomreitjørn" />
		<tag k="ssr:stedsnr" v="188502" />
	</node>
	<node id="-277152" lat="60.5861272734" lon="8.45270140838">
		<tag k="alt_name" v="Sandøyni" />
		<tag k="name" v="Sandøyne" />
		<tag k="place" v="island" />
		<tag k="ssr:stedsnr" v="174597" />
	</node>
	<node id="-277139" lat="60.6717055534" lon="8.66156667303">
		<tag k="name" v="Eitra" />
		<tag k="ssr:stedsnr" v="162938" />
		<tag k="waterway" v="stream" />
	</node>
	<node id="-277135" lat="60.6408277802" lon="8.37663332422">
		<tag k="name" v="Djupedalstjørn" />
		<tag k="natural" v="water" />
		<tag k="ssr:stedsnr" v="162647" />
	</node>
	<node id="-277132" lat="60.6077950737" lon="8.46276817693">
		<tag k="alt_name" v="Damtjørni" />
		<tag k="name" v="Damtjørn" />
		<tag k="natural" v="water" />
		<tag k="ssr:stedsnr" v="162387" />
	</node>
	<node id="-277123" lat="60.6330999984" lon="8.57796388139">
		<tag k="alt_name" v="Uppsjø" />
		<tag k="name" v="Oppsjø" />
		<tag k="natural" v="water" />
		<tag k="old_name" v="Oppsjøen;Uppsjøen" />
		<tag k="ssr:stedsnr" v="160090" />
		<tag k="water" v="lake" />
	</node>
	<node id="-277121" lat="60.6465714766" lon="8.53955517094">
		<tag k="alt_name" v="Møretjørn" />
		<tag k="name" v="Møretjørne" />
		<tag k="natural" v="water" />
		<tag k="ssr:stedsnr" v="142757" />
	</node>
	<node id="-277111" lat="60.8138250035" lon="8.2725888836">
		<tag k="name" v="Storegrovi" />
		<tag k="ssr:stedsnr" v="130896" />
		<tag k="waterway" v="stream" />
	</node>
	<node id="-277110" lat="60.8167083313" lon="8.41959167318">
		<tag k="name" v="Fagerdøla" />
		<tag k="ssr:stedsnr" v="130893" />
		<tag k="waterway" v="stream" />
	</node>
	<node id="-277108" lat="60.7936611145" lon="8.24530834135">
		<tag k="name" v="Hestebottjørnan" />
		<tag k="natural" v="water" />
		<tag k="ssr:stedsnr" v="130854" />
		<tag k="water" v="lake" />
	</node>
	<node id="-277107" lat="60.8203999979" lon="7.98925000142">
		<tag k="name" v="Mjolga" />
		<tag k="ssr:stedsnr" v="130694" />
		<tag k="waterway" v="river" />
	</node>
	<node id="-277101" lat="60.7736249987" lon="8.44290278383">
		<tag k="name" v="Fossen" />
		<tag k="ssr:stedsnr" v="129987" />
		<tag k="waterway" v="stream" />
	</node>
	<node id="-277918" lat="60.5882530229" lon="8.76407113592">
		<tag k="alt_name" v="Belgavatnet" />
		<tag k="name" v="Øvre Belgevatnet" />
		<tag k="natural" v="water" />
		<tag k="ssr:stedsnr" v="857040" />
		<tag k="water" v="lake" />
	</node>
	<node id="-277098" lat="60.8293162499" lon="8.0250791813">
		<tag k="alt_name" v="Julsennvatnet, vesle" />
		<tag k="name" v="Vesle Julsennvatnet" />
		<tag k="natural" v="water" />
		<tag k="ssr:stedsnr" v="129752" />
	</node>
	<node id="-277095" lat="60.8630630389" lon="8.20376038537">
		<tag k="name" v="Dyrebottjørnan" />
		<tag k="natural" v="water" />
		<tag k="ssr:stedsnr" v="129572" />
		<tag k="water" v="lake" />
	</node>
	<node id="-277094" lat="60.8592787911" lon="7.96727890425">
		<tag k="name" v="Trolltjørne" />
		<tag k="natural" v="water" />
		<tag k="ssr:stedsnr" v="129653" />
	</node>
	<node id="-277091" lat="60.8901530035" lon="7.83945971598">
		<tag k="alt_name" v="Djupeskardtjørni, vesle" />
		<tag k="name" v="Vesle Djupeskardtjørni" />
		<tag k="natural" v="water" />
		<tag k="ssr:stedsnr" v="129629" />
	</node>
	<node id="-277090" lat="60.8717551182" lon="7.82229449406">
		<tag k="alt_name" v="Haldalsvatnet, nordre" />
		<tag k="name" v="Nørdre Halldalsvatnet" />
		<tag k="natural" v="water" />
		<tag k="ssr:stedsnr" v="129624" />
		<tag k="water" v="lake" />
	</node>
	<node id="-277086" lat="60.7076138848" lon="8.22722778048">
		<tag k="name" v="Rødungen" />
		<tag k="natural" v="water" />
		<tag k="ssr:stedsnr" v="128884" />
		<tag k="water" v="lake" />
	</node>
	<node id="-277082" lat="60.7018731918" lon="8.30162185114">
		<tag k="name" v="Tulletjørnan" />
		<tag k="natural" v="water" />
		<tag k="old_name" v="Nordre Tulletjørn;Søndre Tulletjørn" />
		<tag k="ssr:stedsnr" v="128492" />
		<tag k="water" v="lake" />
	</node>
	<node id="-277081" lat="60.7430694489" lon="8.39058889534">
		<tag k="alt_name" v="Hengsvatnet, vesle" />
		<tag k="name" v="Vesle Hengsvatnet" />
		<tag k="natural" v="water" />
		<tag k="ssr:stedsnr" v="128428" />
	</node>
	<node id="-277078" lat="60.5057555596" lon="8.56271943937">
		<tag k="name" v="Nordre Rotetjørni" />
		<tag k="natural" v="water" />
		<tag k="ssr:stedsnr" v="128164" />
	</node>
	<node id="-277076" lat="60.6441777786" lon="8.75404444482">
		<tag k="alt_name" v="Svartetjørn" />
		<tag k="name" v="Svartetjerni" />
		<tag k="natural" v="water" />
		<tag k="ssr:stedsnr" v="128085" />
	</node>
	<node id="-277073" lat="60.6418194424" lon="8.76253332615">
		<tag k="alt_name" v="Storegrove" />
		<tag k="name" v="Storegrovi" />
		<tag k="ssr:stedsnr" v="128070" />
		<tag k="waterway" v="stream" />
	</node>
	<node id="-277065" lat="60.5926777751" lon="8.71093611101">
		<tag k="alt_name" v="Mattjørn" />
		<tag k="name" v="Mattjerni" />
		<tag k="natural" v="water" />
		<tag k="ssr:stedsnr" v="128027" />
	</node>
	<node id="-277063" lat="60.6924611069" lon="8.55699999614">
		<tag k="alt_name" v="Fettjørn" />
		<tag k="name" v="Fetjørni" />
		<tag k="natural" v="water" />
		<tag k="ssr:stedsnr" v="127901" />
	</node>
	<node id="-277056" lat="60.4865166643" lon="8.49136388554">
		<tag k="name" v="Halldalsåne" />
		<tag k="ssr:stedsnr" v="127044" />
		<tag k="waterway" v="stream" />
	</node>
	<node id="-277051" lat="60.6925611071" lon="8.43029722881">
		<tag k="name" v="Langehølen" />
		<tag k="natural" v="water" />
		<tag k="ssr:stedsnr" v="117368" />
		<tag k="water" v="lake" />
	</node>
	<node id="-277047" lat="60.7129388897" lon="8.3288388804">
		<tag k="name" v="Hetjørn" />
		<tag k="natural" v="water" />
		<tag k="ssr:stedsnr" v="116383" />
	</node>
	<node id="-277041" lat="60.6969861132" lon="8.60155832566">
		<tag k="name" v="Øynane" />
		<tag k="place" v="locality" />
		<tag k="ssr:stedsnr" v="102784" />
	</node>
	<node id="-277038" lat="60.6013277775" lon="8.46729444425">
		<tag k="alt_name" v="Sundbreigrovi" />
		<tag k="name" v="Sundbreigrove" />
		<tag k="ssr:stedsnr" v="102703" />
		<tag k="waterway" v="stream" />
	</node>
	<node id="-277034" lat="60.7245361072" lon="8.31420555808">
		<tag k="name" v="Bukketjørn" />
		<tag k="natural" v="water" />
		<tag k="ssr:stedsnr" v="101943" />
	</node>
	<node id="-277009" lat="60.677847222" lon="8.27304444369">
		<tag k="name" v="Ælinggrove" />
		<tag k="old_name" v="Erlingsgrove" />
		<tag k="ssr:stedsnr" v="80945" />
		<tag k="waterway" v="stream" />
	</node>
	<node id="-276995" lat="60.5405472194" lon="8.41483332987">
		<tag k="name" v="Godmortjørne" />
		<tag k="natural" v="water" />
		<tag k="ssr:stedsnr" v="68764" />
	</node>
	<node id="-276981" lat="60.6869638895" lon="8.64188888955">
		<tag k="alt_name" v="Halfarbekken" />
		<tag k="name" v="Halvfarbekken" />
		<tag k="ssr:stedsnr" v="67897" />
		<tag k="waterway" v="stream" />
	</node>
	<node id="-276971" lat="60.7378166667" lon="8.29008055305">
		<tag k="name" v="Nedre Skardtjørne" />
		<tag k="natural" v="water" />
		<tag k="ssr:stedsnr" v="67481" />
	</node>
	<node id="-276970" lat="60.7386000031" lon="8.28415832998">
		<tag k="name" v="Øvre Skardtjørne" />
		<tag k="natural" v="water" />
		<tag k="ssr:stedsnr" v="67472" />
	</node>
	<node id="-276969" lat="60.5520277778" lon="8.56265833595">
		<tag k="alt_name" v="Tranetjørn" />
		<tag k="name" v="Tranetjørni" />
		<tag k="natural" v="water" />
		<tag k="ssr:stedsnr" v="67276" />
	</node>
	<node id="-276966" lat="60.5744638892" lon="8.60574443801">
		<tag k="name" v="Langetjørni" />
		<tag k="natural" v="water" />
		<tag k="ssr:stedsnr" v="67035" />
	</node>
	<node id="-276961" lat="60.5812666663" lon="8.6517277763">
		<tag k="name" v="Svarthamarløken" />
		<tag k="ssr:stedsnr" v="58040" />
		<tag k="waterway" v="stream" />
	</node>
	<node id="-276930" lat="60.5999083319" lon="8.65883056276">
		<tag k="name" v="Torkjellsettjørn" />
		<tag k="natural" v="water" />
		<tag k="ssr:stedsnr" v="39692" />
	</node>
	<node id="-276916" lat="60.8102611104" lon="8.03439999707">
		<tag k="name" v="Søregrove" />
		<tag k="ssr:stedsnr" v="9699" />
		<tag k="waterway" v="stream" />
	</node>
	<node id="-276915" lat="60.8090916666" lon="7.97576110478">
		<tag k="name" v="Tovikstangen" />
		<tag k="natural" v="cape" />
		<tag k="ssr:stedsnr" v="9693" />
	</node>
	<node id="-276914" lat="60.7838716862" lon="8.46832924033">
		<tag k="name" v="Reinsbottvatnet" />
		<tag k="natural" v="water" />
		<tag k="ssr:stedsnr" v="8890" />
		<tag k="water" v="lake" />
	</node>
	<node id="-276911" lat="60.7535888912" lon="8.14950000844">
		<tag k="name" v="Øvre Blomestøltjørne" />
>>>>>>> e1d4bc35ff8a6074a6f2e91616a996b547c36f15
		<tag k="natural" v="water" />
		<tag k="old_name" v="Blommetjørn" />
		<tag k="ssr:stedsnr" v="8993" />
	</node>
<<<<<<< HEAD
	<node lat="60.55298888555352" lon="8.665794448454342" id="-27804">
		<tag k="alt_name" v="Riklene, vesle" />
		<tag k="name" v="Vesle Rikla" />
		<tag k="natural" v="water" />
		<tag k="ssr:stedsnr" v="552272" />
	</node>
	<node lat="60.64388055305399" lon="8.414202784182743" id="-27805">
		<tag k="name" v="Innkvelvlibekken" />
		<tag k="ssr:stedsnr" v="552668" />
		<tag k="waterway" v="stream" />
	</node>
	<node lat="60.69965555216853" lon="8.521127775201867" id="-27808">
		<tag k="name" v="Løkbekken" />
		<tag k="ssr:stedsnr" v="552885" />
		<tag k="waterway" v="stream" />
	</node>
	<node lat="60.58717499691483" lon="8.62000833795008" id="-27810">
		<tag k="name" v="Våmannsløken" />
		<tag k="natural" v="water" />
		<tag k="ssr:stedsnr" v="553029" />
	</node>
	<node lat="60.70861388690915" lon="8.666011108851785" id="-27815">
		<tag k="alt_name" v="Trytitjerni" />
		<tag k="name" v="Trytitjørn" />
		<tag k="natural" v="water" />
		<tag k="ssr:stedsnr" v="552875" />
	</node>
	<node lat="60.60009166839919" lon="8.711741669356481" id="-27821">
		<tag k="name" v="Hagatjerni" />
		<tag k="natural" v="water" />
		<tag k="ssr:stedsnr" v="553051" />
	</node>
	<node lat="60.614133330036914" lon="8.43478610844106" id="-27827">
		<tag k="name" v="Flåtjørne" />
		<tag k="natural" v="water" />
		<tag k="old_name" v="Flåtjørn" />
		<tag k="ssr:stedsnr" v="553642" />
	</node>
	<node lat="60.845086534273854" lon="7.913529582793951" id="-27836">
		<tag k="name" v="Fødalsvatnet" />
		<tag k="natural" v="water" />
		<tag k="ssr:stedsnr" v="554750" />
		<tag k="water" v="lake" />
	</node>
	<node lat="60.8376999994772" lon="7.866200004196934" id="-27838">
		<tag k="name" v="Galdegrove" />
		<tag k="ssr:stedsnr" v="554762" />
		<tag k="waterway" v="stream" />
	</node>
	<node lat="60.698850002639944" lon="8.753411102665266" id="-27855">
		<tag k="name" v="Øyestølbekken" />
		<tag k="ssr:stedsnr" v="586271" />
		<tag k="waterway" v="stream" />
	</node>
	<node lat="60.65969444651011" lon="8.794761103730645" id="-27857">
		<tag k="name" v="Svarvarbekken" />
		<tag k="ssr:stedsnr" v="586022" />
		<tag k="waterway" v="stream" />
	</node>
	<node lat="60.69959721986134" lon="8.280522219990713" id="-27859">
		<tag k="name" v="Skardtjørne" />
		<tag k="natural" v="water" />
		<tag k="ssr:stedsnr" v="586467" />
	</node>
	<node lat="60.574397224581595" lon="8.605802778794759" id="-27885">
		<tag k="name" v="Langetjørn" />
		<tag k="natural" v="water" />
		<tag k="ssr:stedsnr" v="603244" />
	</node>
	<node lat="60.726312237026015" lon="8.189410698713447" id="-27890">
		<tag k="name" v="Tvistvatnet" />
		<tag k="natural" v="water" />
		<tag k="ssr:stedsnr" v="612490" />
		<tag k="water" v="lake" />
	</node>
	<node lat="60.544829060660085" lon="8.666783594139263" id="-27894">
		<tag k="alt_name" v="Riklene, store" />
		<tag k="name" v="Store Rikla" />
		<tag k="natural" v="water" />
		<tag k="ssr:stedsnr" v="613235" />
	</node>
	<node lat="60.54341110712471" lon="8.538244439843742" id="-27895">
		<tag k="alt_name" v="Breidtjørni;Breitjørni" />
		<tag k="name" v="Breitjørn" />
		<tag k="natural" v="water" />
		<tag k="ssr:stedsnr" v="613238" />
	</node>
	<node lat="60.55047777656479" lon="8.400669439988445" id="-27897">
		<tag k="name" v="Grastjørne" />
		<tag k="natural" v="water" />
		<tag k="ssr:stedsnr" v="613706" />
	</node>
	<node lat="60.797136111194554" lon="8.028505559545918" id="-27905">
		<tag k="name" v="Dagsvelja" />
		<tag k="ssr:stedsnr" v="614742" />
		<tag k="waterway" v="stream" />
	</node>
	<node lat="60.855322225267095" lon="7.880022220961254" id="-27908">
		<tag k="alt_name" v="Haldalsåne" />
		<tag k="name" v="Halldalsåne" />
		<tag k="ssr:stedsnr" v="614679" />
		<tag k="waterway" v="stream" />
	</node>
	<node lat="60.76693055275325" lon="8.330719452902773" id="-27909">
		<tag k="name" v="Venestølgrovi" />
		<tag k="ssr:stedsnr" v="614984" />
		<tag k="waterway" v="stream" />
	</node>
	<node lat="60.84820833013685" lon="8.131855550009387" id="-27914">
		<tag k="name" v="Skålatjørne" />
		<tag k="natural" v="water" />
		<tag k="ssr:stedsnr" v="615927" />
	</node>
	<node lat="60.547605558270085" lon="8.600461105650151" id="-27926">
		<tag k="name" v="Øvre Suneivstjørn" />
		<tag k="natural" v="water" />
		<tag k="ssr:stedsnr" v="645458" />
	</node>
	<node lat="60.664152778203146" lon="8.78115832884987" id="-27943">
		<tag k="name" v="Langehølen" />
		<tag k="place" v="locality" />
		<tag k="ssr:stedsnr" v="659322" />
	</node>
	<node lat="60.70319722445084" lon="8.358058332412169" id="-27962">
		<tag k="name" v="Rovetrolltjørn" />
		<tag k="natural" v="water" />
		<tag k="ssr:stedsnr" v="723387" />
	</node>
	<node lat="60.535091662985394" lon="8.439783325922471" id="-27963">
		<tag k="name" v="Langtjørni" />
		<tag k="natural" v="water" />
		<tag k="ssr:stedsnr" v="724202" />
	</node>
	<node lat="60.558152775125166" lon="8.72954999214651" id="-27966">
		<tag k="alt_name" v="Sivtjørni" />
		<tag k="loc_name" v="Sevtjørne" />
		<tag k="name" v="Sivtjernet" />
		<tag k="natural" v="water" />
		<tag k="ssr:stedsnr" v="735237" />
	</node>
	<node lat="60.52353356507472" lon="8.538079085938548" id="-27969">
		<tag k="alt_name" v="Røungen" />
		<tag k="name" v="Rødungen" />
		<tag k="natural" v="water" />
		<tag k="ssr:stedsnr" v="734049" />
		<tag k="water" v="lake" />
	</node>
	<node lat="60.716378828034735" lon="8.14117285699339" id="-27971">
		<tag k="name" v="Frosen" />
		<tag k="natural" v="water" />
		<tag k="old_name" v="Frosten" />
		<tag k="ssr:stedsnr" v="734578" />
		<tag k="water" v="lake" />
	</node>
	<node lat="60.689083332190165" lon="8.70130000679224" id="-27978">
		<tag k="alt_name" v="Raudsetbekken" />
		<tag k="name" v="Rausetbekken" />
		<tag k="ssr:stedsnr" v="734871" />
		<tag k="waterway" v="stream" />
	</node>
	<node lat="60.586538888618875" lon="8.677149992306154" id="-27981">
		<tag k="name" v="Fela" />
		<tag k="natural" v="water" />
		<tag k="ssr:stedsnr" v="735032" />
	</node>
	<node lat="60.594202776830784" lon="8.51053611512346" id="-27983">
		<tag k="name" v="Sagbekken" />
		<tag k="ssr:stedsnr" v="735043" />
		<tag k="waterway" v="stream" />
	</node>
	<node lat="60.66470277595205" lon="8.46384999308915" id="-27989">
		<tag k="name" v="Holtetjørne" />
		<tag k="natural" v="water" />
		<tag k="old_name" v="Holtetjørn" />
		<tag k="ssr:stedsnr" v="735562" />
	</node>
	<node lat="60.53554166374987" lon="8.439088884215112" id="-27990">
		<tag k="name" v="Langetjørni" />
		<tag k="natural" v="water" />
		<tag k="ssr:stedsnr" v="735746" />
	</node>
	<node lat="60.535573756790804" lon="8.385213935909265" id="-27991">
		<tag k="name" v="Fisketjørne" />
		<tag k="natural" v="water" />
		<tag k="ssr:stedsnr" v="735754" />
	</node>
	<node lat="60.869000492012844" lon="7.968345697375777" id="-27994">
		<tag k="name" v="Skridutjørne" />
		<tag k="natural" v="water" />
		<tag k="ssr:stedsnr" v="736641" />
	</node>
	<node lat="60.75910936042463" lon="8.45413057626468" id="-27998">
		<tag k="name" v="Fjelltjørne" />
		<tag k="natural" v="water" />
		<tag k="ssr:stedsnr" v="736995" />
	</node>
	<node lat="60.82631970469374" lon="8.106860154323009" id="-28004">
		<tag k="name" v="Klypestjørne" />
		<tag k="natural" v="water" />
		<tag k="ssr:stedsnr" v="737897" />
	</node>
	<node lat="60.704077777114065" lon="8.739541667166748" id="-28017">
		<tag k="name" v="Pålsetbekken" />
		<tag k="ssr:stedsnr" v="769280" />
		<tag k="waterway" v="stream" />
	</node>
	<node lat="60.695447222454625" lon="8.576905551276086" id="-28027">
		<tag k="name" v="Grytegrovtjørn" />
		<tag k="natural" v="water" />
		<tag k="ssr:stedsnr" v="784775" />
	</node>
	<node lat="60.740916669517546" lon="8.262136109803874" id="-28030">
		<tag k="name" v="Skargrove" />
		<tag k="ssr:stedsnr" v="784275" />
		<tag k="waterway" v="stream" />
	</node>
	<node lat="60.69081111015862" lon="8.424266665182065" id="-28034">
		<tag k="name" v="Veslehølen" />
		<tag k="natural" v="water" />
		<tag k="ssr:stedsnr" v="784382" />
	</node>
	<node lat="60.686188884464315" lon="8.319105556725585" id="-28039">
		<tag k="name" v="Tullehølen" />
		<tag k="place" v="locality" />
		<tag k="ssr:stedsnr" v="784789" />
	</node>
	<node lat="60.53165833613508" lon="8.568130547999052" id="-28042">
		<tag k="name" v="Bjørnsbubekken" />
		<tag k="ssr:stedsnr" v="784891" />
		<tag k="waterway" v="river" />
	</node>
	<node lat="60.55286110721507" lon="8.685163895145148" id="-28043">
		<tag k="name" v="Helletjørn" />
		<tag k="natural" v="water" />
		<tag k="ssr:stedsnr" v="786670" />
	</node>
	<node lat="60.58479999810404" lon="8.52881389196256" id="-28045">
		<tag k="alt_name" v="Svartetjørn" />
		<tag k="name" v="Svartetjørni" />
		<tag k="natural" v="water" />
		<tag k="ssr:stedsnr" v="795070" />
	</node>
	<node lat="60.59358611088219" lon="8.644674999896473" id="-28057">
		<tag k="alt_name" v="Svansettjørn" />
		<tag k="name" v="Svansettjørni" />
		<tag k="natural" v="water" />
		<tag k="ssr:stedsnr" v="796032" />
	</node>
	<node lat="60.6883311640621" lon="8.559335606941437" id="-28063">
		<tag k="alt_name" v="Lislelitjørn" />
		<tag k="name" v="Lislelitjørni" />
		<tag k="natural" v="water" />
		<tag k="ssr:stedsnr" v="795895" />
	</node>
	<node lat="60.80458055270541" lon="8.032252777893374" id="-28075">
		<tag k="name" v="Godbekken" />
		<tag k="ssr:stedsnr" v="797720" />
		<tag k="waterway" v="stream" />
	</node>
	<node lat="60.83967412866885" lon="7.872222786322293" id="-28077">
		<tag k="name" v="Galdetjørnan" />
		<tag k="natural" v="water" />
		<tag k="ssr:stedsnr" v="797740" />
		<tag k="water" v="lake" />
	</node>
	<node lat="60.84867500318986" lon="8.068938890049369" id="-28078">
		<tag k="name" v="Storefjellsåne" />
		<tag k="ssr:stedsnr" v="797741" />
		<tag k="waterway" v="stream" />
	</node>
	<node lat="60.71618055781622" lon="8.392950001567723" id="-28090">
		<tag k="name" v="Ringane" />
		<tag k="place" v="locality" />
		<tag k="ssr:stedsnr" v="830002" />
	</node>
	<node lat="60.73923055690722" lon="8.548236108470093" id="-28091">
		<tag k="name" v="Svarthøl" />
		<tag k="place" v="locality" />
		<tag k="ssr:stedsnr" v="830148" />
	</node>
	<node lat="60.644583332177106" lon="8.382558333888523" id="-28098">
		<tag k="name" v="Gardstjørn" />
		<tag k="natural" v="water" />
		<tag k="ssr:stedsnr" v="830628" />
	</node>
	<node lat="60.73379722210568" lon="8.278747215382822" id="-28103">
		<tag k="name" v="Eitra" />
		<tag k="ssr:stedsnr" v="830938" />
		<tag k="waterway" v="stream" />
	</node>
	<node lat="60.72023611124478" lon="8.29334722601327" id="-28105">
		<tag k="name" v="Langtjørn" />
		<tag k="natural" v="water" />
		<tag k="ssr:stedsnr" v="830890" />
	</node>
	<node lat="60.54249721997569" lon="8.647661119356153" id="-28121">
		<tag k="name" v="Nedre Skitjørn" />
		<tag k="natural" v="water" />
		<tag k="ssr:stedsnr" v="846644" />
	</node>
	<node lat="60.5471333312333" lon="8.638913887327682" id="-28122">
		<tag k="name" v="Øvre Skitjørn" />
		<tag k="natural" v="water" />
		<tag k="ssr:stedsnr" v="847052" />
	</node>
	<node lat="60.71698333343125" lon="8.350102777556918" id="-28125">
		<tag k="name" v="Kroktjørne" />
		<tag k="natural" v="water" />
		<tag k="old_name" v="Kroktjørn" />
		<tag k="ssr:stedsnr" v="856572" />
	</node>
	<node lat="60.80310277742262" lon="7.992327777772405" id="-28127">
		<tag k="name" v="Djupsvatnet" />
		<tag k="natural" v="water" />
		<tag k="ssr:stedsnr" v="858729" />
		<tag k="water" v="lake" />
	</node>
	<node lat="60.85181051553231" lon="7.8176048554150555" id="-28129">
		<tag k="alt_name" v="Haldalsvatnet, s" />
		<tag k="name" v="Søre Halldalsvatnet" />
		<tag k="natural" v="water" />
		<tag k="ssr:stedsnr" v="858755" />
		<tag k="water" v="lake" />
	</node>
	<node lat="60.70162500174444" lon="8.774138891365094" id="-28133">
		<tag k="name" v="Halldisløken" />
		<tag k="ssr:stedsnr" v="856887" />
		<tag k="waterway" v="stream" />
	</node>
	<node lat="60.69686944618451" lon="8.583591666251097" id="-28134">
		<tag k="alt_name" v="Grytegrovi" />
		<tag k="name" v="Grytegrove" />
		<tag k="ssr:stedsnr" v="856891" />
		<tag k="waterway" v="stream" />
	</node>
	<node lat="60.65042353462428" lon="8.524304291876026" id="-28139">
		<tag k="alt_name" v="Langetjørni;Langetjørn" />
		<tag k="name" v="Langetjørne" />
		<tag k="natural" v="water" />
		<tag k="ssr:stedsnr" v="856980" />
	</node>
	<node lat="60.69311666242175" lon="8.619916660741902" id="-28143">
		<tag k="alt_name" v="Vesleåni" />
		<tag k="name" v="Vesleåne" />
		<tag k="ssr:stedsnr" v="856859" />
		<tag k="waterway" v="river" />
	</node>
	<node lat="60.67631666240554" lon="8.570766659051017" id="-28147">
		<tag k="name" v="Skardtjørne" />
		<tag k="natural" v="water" />
		<tag k="ssr:stedsnr" v="856950" />
	</node>
	<node lat="60.517963887913645" lon="8.6444249915419" id="-28154">
		<tag k="alt_name" v="Langetjørn" />
		<tag k="name" v="Langetjørni" />
		<tag k="natural" v="water" />
		<tag k="ssr:stedsnr" v="857234" />
	</node>
	<node lat="60.79550277945832" lon="8.431900003789677" id="-28160">
		<tag k="name" v="Skridune" />
		<tag k="ssr:stedsnr" v="858882" />
		<tag k="waterway" v="stream" />
	</node>
	<node lat="60.80703611204693" lon="8.461816671064543" id="-28163">
		<tag k="name" v="Storebottjørne" />
		<tag k="natural" v="water" />
		<tag k="ssr:stedsnr" v="858892" />
	</node>
	<node lat="60.90082500347975" lon="7.893411109202539" id="-28166">
		<tag k="name" v="Urgeåne" />
		<tag k="ssr:stedsnr" v="858644" />
		<tag k="waterway" v="stream" />
	</node>
	<node lat="60.85531028604451" lon="8.26461584080796" id="-28167">
		<tag k="name" v="Veslebottjørne" />
		<tag k="natural" v="water" />
		<tag k="ssr:stedsnr" v="858932" />
	</node>
	<node lat="60.75962103792799" lon="8.62712915061783" id="-28168">
		<tag k="alt_name" v="Breisettjørn" />
		<tag k="name" v="Breidsettjerni" />
		<tag k="natural" v="water" />
		<tag k="ssr:stedsnr" v="859032" />
	</node>
	<node lat="60.62743333010521" lon="8.44387222716633" id="-28183">
		<tag k="name" v="Rotebakktjørn" />
		<tag k="natural" v="water" />
		<tag k="ssr:stedsnr" v="949942" />
	</node>
	<node lat="60.74474166430119" lon="8.142947223668962" id="-28198">
		<tag k="name" v="Nedre Blomestøltjørne" />
		<tag k="natural" v="water" />
		<tag k="ssr:stedsnr" v="962435" />
	</node>
	<node lat="60.50519166294593" lon="8.4463083258627" id="-28202">
		<tag k="name" v="Langodden" />
		<tag k="natural" v="cape" />
		<tag k="ssr:stedsnr" v="966216" />
	</node>
	<node lat="60.68015833130069" lon="8.557722229224476" id="-28210">
		<tag k="name" v="Åstjørn" />
		<tag k="natural" v="water" />
		<tag k="ssr:stedsnr" v="966727" />
	</node>
	<node lat="60.68043333198963" lon="8.565041671688277" id="-28212">
		<tag k="name" v="Nedre Damtjørn" />
		<tag k="natural" v="water" />
		<tag k="ssr:stedsnr" v="966733" />
	</node>
	<node lat="60.53607893464496" lon="8.573744863530141" id="-28213">
		<tag k="name" v="Nordre Rotetjørn" />
		<tag k="natural" v="water" />
		<tag k="ssr:stedsnr" v="966884" />
	</node>
	<node lat="60.866660580508764" lon="7.768854792669598" id="-28237">
		<tag k="name" v="Flågrunnsvotni" />
		<tag k="natural" v="water" />
		<tag k="ssr:stedsnr" v="1076454" />
=======
	<node id="-276905" lat="60.6068906838" lon="8.60662424993">
		<tag k="name" v="Hovdetjørni" />
		<tag k="natural" v="water" />
		<tag k="ssr:stedsnr" v="7901" />
	</node>
	<node id="-276904" lat="60.6943138879" lon="8.26325834223">
		<tag k="name" v="Storåne" />
		<tag k="ssr:stedsnr" v="7888" />
		<tag k="waterway" v="river" />
	</node>
	<node id="-276899" lat="60.6754722207" lon="8.44917500862">
		<tag k="name" v="Butjørne" />
		<tag k="natural" v="water" />
		<tag k="old_name" v="Butjørn" />
		<tag k="ssr:stedsnr" v="7518" />
	</node>
	<node id="-276897" lat="60.7058444467" lon="8.3307611124">
		<tag k="name" v="Revtjørne" />
		<tag k="natural" v="water" />
		<tag k="old_name" v="Revtjørn" />
		<tag k="ssr:stedsnr" v="7496" />
	</node>
	<node id="-276893" lat="60.5304666683" lon="8.69435833917">
		<tag k="alt_name" v="Olsettjørni" />
		<tag k="name" v="Olsettjørn" />
		<tag k="natural" v="water" />
		<tag k="ssr:stedsnr" v="7224" />
	</node>
	<node id="-276884" lat="60.6174833314" lon="8.69205555027">
		<tag k="alt_name" v="Hesttjerni;Hesttjørni" />
		<tag k="name" v="Hesttjørn" />
		<tag k="natural" v="water" />
		<tag k="ssr:stedsnr" v="7101" />
	</node>
	<node id="-276880" lat="60.5925916666" lon="8.48803054731">
		<tag k="alt_name" v="Hakkerudgrovi" />
		<tag k="name" v="Hakkerudgrove" />
		<tag k="ssr:stedsnr" v="7068" />
		<tag k="waterway" v="stream" />
	</node>
	<node id="-276872" lat="60.746183337" lon="8.43334443644">
		<tag k="name" v="Breaåne" />
		<tag k="ssr:stedsnr" v="6483" />
		<tag k="waterway" v="stream" />
	</node>
	<node id="-276867" lat="60.5828666694" lon="8.67413889685">
		<tag k="alt_name" v="Nedre Oddetjørn" />
		<tag k="name" v="Nedre Oddetjørni" />
		<tag k="natural" v="water" />
		<tag k="ssr:stedsnr" v="6022" />
	</node>
	<node id="-276863" lat="60.5051916629" lon="8.44630832586">
		<tag k="name" v="Langodden" />
		<tag k="natural" v="cape" />
		<tag k="ssr:stedsnr" v="966216" />
	</node>
	<node id="-276860" lat="60.6448138882" lon="8.76042500559">
		<tag k="name" v="Vesletjørn" />
		<tag k="natural" v="water" />
		<tag k="ssr:stedsnr" v="966006" />
	</node>
	<node id="-276844" lat="60.7955361149" lon="8.31408055232">
		<tag k="name" v="Øynegrovi" />
		<tag k="ssr:stedsnr" v="919869" />
		<tag k="waterway" v="stream" />
	</node>
	<node id="-276843" lat="60.8328166649" lon="8.17515555122">
		<tag k="name" v="Langevatnet" />
		<tag k="natural" v="water" />
		<tag k="ssr:stedsnr" v="919908" />
	</node>
	<node id="-276842" lat="60.8175277789" lon="8.03579999305">
		<tag k="name" v="Storegrove" />
		<tag k="ssr:stedsnr" v="919728" />
		<tag k="waterway" v="river" />
	</node>
	<node id="-276837" lat="60.853877779" lon="7.97450000057">
		<tag k="name" v="Trollåne" />
		<tag k="ssr:stedsnr" v="918709" />
		<tag k="waterway" v="stream" />
	</node>
	<node id="-276829" lat="60.7410150972" lon="8.34449739545">
		<tag k="name" v="Hundetjørnan" />
		<tag k="natural" v="water" />
		<tag k="old_name" v="Hundetjørn" />
		<tag k="ssr:stedsnr" v="917423" />
		<tag k="water" v="lake" />
	</node>
	<node id="-276828" lat="60.7349250003" lon="8.26005278215">
		<tag k="name" v="Nedre Eitretjørne" />
		<tag k="natural" v="water" />
		<tag k="ssr:stedsnr" v="917419" />
	</node>
	<node id="-276827" lat="60.7416388911" lon="8.1678805581">
		<tag k="loc_name" v="Dyrebottjørne" />
		<tag k="name" v="Dyrebotntjørne" />
		<tag k="natural" v="water" />
		<tag k="old_name" v="Dyrebotntjørn" />
		<tag k="ssr:stedsnr" v="917416" />
	</node>
	<node id="-276826" lat="60.7469833311" lon="8.45297499187">
		<tag k="name" v="Øynegrove" />
		<tag k="ssr:stedsnr" v="917413" />
		<tag k="waterway" v="stream" />
	</node>
	<node id="-276822" lat="60.511498154" lon="8.58635464225">
		<tag k="name" v="Sundet" />
		<tag k="natural" v="strait" />
		<tag k="ssr:stedsnr" v="917164" />
	</node>
	<node id="-276819" lat="60.6875777782" lon="8.60366388886">
		<tag k="alt_name" v="Tjødnstøltjørn" />
		<tag k="name" v="Tjørnstøltjørni" />
		<tag k="natural" v="water" />
		<tag k="ssr:stedsnr" v="916910" />
	</node>
	<node id="-276817" lat="60.5009898417" lon="8.44839923147">
		<tag k="name" v="Halldalsvatnet" />
		<tag k="natural" v="water" />
		<tag k="ssr:stedsnr" v="916872" />
		<tag k="water" v="lake" />
	</node>
	<node id="-276816" lat="60.7078444484" lon="8.53417777779">
		<tag k="alt_name" v="Løkenstjørn" />
		<tag k="name" v="Løkenstjørni" />
		<tag k="natural" v="water" />
		<tag k="ssr:stedsnr" v="916868" />
	</node>
	<node id="-275853" lat="60.6574055591" lon="8.34120832746">
		<tag k="name" v="Langtjørnbekken" />
		<tag k="ssr:stedsnr" v="238331" />
		<tag k="waterway" v="stream" />
	</node>
	<node id="-276806" lat="60.6274333301" lon="8.44387222717">
		<tag k="name" v="Rotebakktjørn" />
		<tag k="natural" v="water" />
		<tag k="ssr:stedsnr" v="949942" />
	</node>
	<node id="-276804" lat="60.599441667" lon="8.66685276926">
		<tag k="name" v="Tomastjørn" />
		<tag k="natural" v="water" />
		<tag k="ssr:stedsnr" v="949200" />
	</node>
	<node id="-276801" lat="60.8306166708" lon="8.15519444547">
		<tag k="name" v="Vollegrovi" />
		<tag k="ssr:stedsnr" v="858918" />
		<tag k="waterway" v="stream" />
	</node>
	<node id="-276799" lat="60.8518105155" lon="7.81760485542">
		<tag k="alt_name" v="Haldalsvatnet, s" />
		<tag k="name" v="Søre Halldalsvatnet" />
		<tag k="natural" v="water" />
		<tag k="ssr:stedsnr" v="858755" />
		<tag k="water" v="lake" />
	</node>
	<node id="-276798" lat="60.8120805601" lon="7.97101666951">
		<tag k="name" v="Toviki" />
		<tag k="natural" v="bay" />
		<tag k="ssr:stedsnr" v="858719" />
	</node>
	<node id="-276785" lat="60.6931166624" lon="8.61991666074">
		<tag k="alt_name" v="Vesleåni" />
		<tag k="name" v="Vesleåne" />
		<tag k="ssr:stedsnr" v="856859" />
		<tag k="waterway" v="river" />
	</node>
	<node id="-276781" lat="60.7169833334" lon="8.35010277756">
		<tag k="name" v="Kroktjørne" />
		<tag k="natural" v="water" />
		<tag k="old_name" v="Kroktjørn" />
		<tag k="ssr:stedsnr" v="856572" />
	</node>
	<node id="-276779" lat="60.7293749996" lon="8.37300833325">
		<tag k="name" v="Heståne" />
		<tag k="ssr:stedsnr" v="856515" />
		<tag k="waterway" v="stream" />
	</node>
	<node id="-276778" lat="60.7438395851" lon="8.37301271253">
		<tag k="alt_name" v="Fiskeløktjørn" />
		<tag k="name" v="Fiskeløktjørni" />
		<tag k="natural" v="water" />
		<tag k="ssr:stedsnr" v="856509" />
	</node>
	<node id="-276776" lat="60.5678138881" lon="8.67536667403">
		<tag k="alt_name" v="Butjørn" />
		<tag k="name" v="Butjørni" />
		<tag k="natural" v="water" />
		<tag k="ssr:stedsnr" v="856013" />
	</node>
	<node id="-276765" lat="60.6509222208" lon="8.50111667052">
		<tag k="name" v="Blekketjørn" />
		<tag k="natural" v="water" />
		<tag k="ssr:stedsnr" v="931758" />
	</node>
	<node id="-276758" lat="60.7740810991" lon="8.01206408441">
		<tag k="name" v="Bjørnsenntjørni" />
		<tag k="natural" v="water" />
		<tag k="ssr:stedsnr" v="797555" />
	</node>
	<node id="-276757" lat="60.7706837899" lon="8.61740565289">
		<tag k="alt_name" v="Langtjørn" />
		<tag k="name" v="Langtjerni" />
		<tag k="natural" v="water" />
		<tag k="ssr:stedsnr" v="797023" />
	</node>
	<node id="-276739" lat="60.8158361127" lon="8.31701389576">
		<tag k="name" v="Skarvanstølåni" />
		<tag k="ssr:stedsnr" v="919898" />
		<tag k="waterway" v="stream" />
	</node>
	<node id="-276734" lat="60.7817888873" lon="8.02294999876">
		<tag k="name" v="Holmen" />
		<tag k="place" v="island" />
		<tag k="ssr:stedsnr" v="918782" />
	</node>
	<node id="-276733" lat="60.8733500016" lon="8.14273889659">
		<tag k="name" v="Hestebottjørne" />
		<tag k="natural" v="water" />
		<tag k="ssr:stedsnr" v="918647" />
	</node>
	<node id="-276732" lat="60.7643749957" lon="8.06490555236">
		<tag k="name" v="Svaravatnet" />
		<tag k="natural" v="water" />
		<tag k="ssr:stedsnr" v="918597" />
		<tag k="water" v="lake" />
	</node>
	<node id="-276728" lat="60.6577416675" lon="8.51616944541">
		<tag k="alt_name" v="Kroktjørn" />
		<tag k="name" v="Kroktjørni" />
		<tag k="natural" v="water" />
		<tag k="old_name" v="Krokvatnet;Krog Kj" />
		<tag k="ssr:stedsnr" v="917938" />
	</node>
	<node id="-276719" lat="60.7079472187" lon="8.35823888378">
		<tag k="name" v="Vesle Damtjørne" />
		<tag k="natural" v="water" />
		<tag k="old_name" v="Damtjørne, l" />
		<tag k="ssr:stedsnr" v="917489" />
	</node>
	<node id="-276716" lat="60.5419916676" lon="8.47801666539">
		<tag k="alt_name" v="Langetjørn" />
		<tag k="name" v="Langtjørni" />
		<tag k="natural" v="water" />
		<tag k="ssr:stedsnr" v="917191" />
	</node>
	<node id="-276711" lat="60.5995217818" lon="8.78613169185">
		<tag k="alt_name" v="Kroktjørn" />
		<tag k="name" v="Kroktjerni" />
		<tag k="natural" v="water" />
		<tag k="ssr:stedsnr" v="917046" />
	</node>
	<node id="-276708" lat="60.6299250027" lon="8.62098611224">
		<tag k="name" v="Dokkgrovi" />
		<tag k="ssr:stedsnr" v="917083" />
		<tag k="waterway" v="stream" />
	</node>
	<node id="-276702" lat="60.632426434" lon="8.84047736126">
		<tag k="alt_name" v="Gudbrandstjørn" />
		<tag k="name" v="Gudbrandstjerni" />
		<tag k="natural" v="water" />
		<tag k="ssr:stedsnr" v="917069" />
	</node>
	<node id="-276691" lat="60.4284277787" lon="9.38548888622">
		<tag k="loc_name" v="Storåne" />
		<tag k="name" v="Hallingdalselve" />
		<tag k="old_name" v="Hallingdalsåni" />
		<tag k="ssr:stedsnr" v="916191" />
		<tag k="waterway" v="river" />
	</node>
	<node id="-276684" lat="60.7040777771" lon="8.73954166717">
		<tag k="name" v="Pålsetbekken" />
		<tag k="ssr:stedsnr" v="769280" />
		<tag k="waterway" v="stream" />
	</node>
	<node id="-276679" lat="60.5861357216" lon="8.58879729362">
		<tag k="name" v="Hustjørn" />
		<tag k="natural" v="water" />
		<tag k="ssr:stedsnr" v="908848" />
	</node>
	<node id="-276668" lat="60.7499194455" lon="8.16240277115">
		<tag k="name" v="Dyrebotnåne" />
		<tag k="ssr:stedsnr" v="906223" />
		<tag k="waterway" v="stream" />
	</node>
	<node id="-276658" lat="60.8954616736" lon="7.91727142104">
		<tag k="name" v="Urgevatnet" />
		<tag k="natural" v="water" />
		<tag k="ssr:stedsnr" v="736613" />
		<tag k="water" v="lake" />
	</node>
	<node id="-276651" lat="60.6789944462" lon="8.56180278467">
		<tag k="alt_name" v="Hologrovi;Holograve" />
		<tag k="name" v="Hologrove" />
		<tag k="ssr:stedsnr" v="902596" />
		<tag k="waterway" v="stream" />
	</node>
	<node id="-276640" lat="60.6808277807" lon="8.62800833228">
		<tag k="name" v="Aunsetbekken" />
		<tag k="ssr:stedsnr" v="891819" />
		<tag k="waterway" v="stream" />
	</node>
	<node id="-276631" lat="60.6758444463" lon="8.6023666736">
		<tag k="name" v="Langetjørn" />
		<tag k="natural" v="water" />
		<tag k="ssr:stedsnr" v="890742" />
	</node>
	<node id="-276623" lat="60.8327749966" lon="8.24898055909">
		<tag k="name" v="Gyrinosvatnet" />
		<tag k="natural" v="water" />
		<tag k="ssr:stedsnr" v="676912" />
		<tag k="water" v="lake" />
	</node>
	<node id="-276621" lat="60.8424527801" lon="8.08209166267">
		<tag k="name" v="Venehallsåne" />
		<tag k="ssr:stedsnr" v="676724" />
		<tag k="waterway" v="stream" />
	</node>
	<node id="-276618" lat="60.7715805566" lon="8.08990833507">
		<tag k="name" v="Vesleåne" />
		<tag k="ssr:stedsnr" v="675553" />
		<tag k="waterway" v="stream" />
	</node>
	<node id="-276606" lat="60.5463750011" lon="8.63109999848">
		<tag k="alt_name" v="Melraktjørn;Melraktjørni" />
		<tag k="name" v="Melrakktjørni" />
		<tag k="natural" v="water" />
		<tag k="ssr:stedsnr" v="674225" />
	</node>
	<node id="-276603" lat="60.5392194442" lon="8.65335832914">
		<tag k="alt_name" v="Vatningstjørn" />
		<tag k="name" v="Vatningstjørni" />
		<tag k="natural" v="water" />
		<tag k="ssr:stedsnr" v="674218" />
	</node>
	<node id="-276593" lat="60.5838333309" lon="8.72946665986">
		<tag k="alt_name" v="Hagavatn" />
		<tag k="name" v="Øvre Sandvatnet" />
		<tag k="natural" v="water" />
		<tag k="ssr:stedsnr" v="674018" />
	</node>
	<node id="-276582" lat="60.5355737568" lon="8.38521393591">
		<tag k="name" v="Fisketjørne" />
		<tag k="natural" v="water" />
		<tag k="ssr:stedsnr" v="735754" />
	</node>
	<node id="-276581" lat="60.5355416637" lon="8.43908888422">
		<tag k="name" v="Langetjørni" />
		<tag k="natural" v="water" />
		<tag k="ssr:stedsnr" v="735746" />
	</node>
	<node id="-276580" lat="60.664702776" lon="8.46384999309">
		<tag k="name" v="Holtetjørne" />
		<tag k="natural" v="water" />
		<tag k="old_name" v="Holtetjørn" />
		<tag k="ssr:stedsnr" v="735562" />
	</node>
	<node id="-276578" lat="60.5581527751" lon="8.72954999215">
		<tag k="alt_name" v="Sivtjørni" />
		<tag k="loc_name" v="Sevtjørne" />
		<tag k="name" v="Sivtjernet" />
		<tag k="natural" v="water" />
		<tag k="ssr:stedsnr" v="735237" />
	</node>
	<node id="-276577" lat="60.5483817743" lon="8.49699990347">
		<tag k="alt_name" v="Partjørnan" />
		<tag k="name" v="Partjørnane" />
		<tag k="natural" v="water" />
		<tag k="ssr:stedsnr" v="735235" />
		<tag k="water" v="lake" />
	</node>
	<node id="-276576" lat="60.5079499964" lon="8.52250278483">
		<tag k="name" v="Svartveisund" />
		<tag k="place" v="locality" />
		<tag k="ssr:stedsnr" v="735207" />
	</node>
	<node id="-276568" lat="60.5942027768" lon="8.51053611512">
		<tag k="name" v="Sagbekken" />
		<tag k="ssr:stedsnr" v="735043" />
		<tag k="waterway" v="stream" />
	</node>
	<node id="-276565" lat="60.5865388886" lon="8.67714999231">
		<tag k="name" v="Fela" />
		<tag k="natural" v="water" />
		<tag k="ssr:stedsnr" v="735032" />
	</node>
	<node id="-276564" lat="60.574950916" lon="8.62472643972">
		<tag k="name" v="Monsa" />
		<tag k="natural" v="water" />
		<tag k="ssr:stedsnr" v="735028" />
	</node>
	<node id="-276561" lat="60.561727778" lon="8.60553889199">
		<tag k="alt_name" v="Eirikstjørn" />
		<tag k="name" v="Eiriktjørni" />
		<tag k="natural" v="water" />
		<tag k="ssr:stedsnr" v="735006" />
	</node>
	<node id="-276552" lat="60.6890833322" lon="8.70130000679">
		<tag k="alt_name" v="Raudsetbekken" />
		<tag k="name" v="Rausetbekken" />
		<tag k="ssr:stedsnr" v="734871" />
		<tag k="waterway" v="stream" />
	</node>
	<node id="-276534" lat="60.5911555552" lon="8.47372221408">
		<tag k="name" v="Hestodden" />
		<tag k="natural" v="cape" />
		<tag k="ssr:stedsnr" v="647738" />
	</node>
	<node id="-276524" lat="60.5235335651" lon="8.53807908594">
		<tag k="alt_name" v="Røungen" />
		<tag k="name" v="Rødungen" />
		<tag k="natural" v="water" />
		<tag k="ssr:stedsnr" v="734049" />
		<tag k="water" v="lake" />
	</node>
	<node id="-276521" lat="60.5476055583" lon="8.60046110565">
		<tag k="name" v="Øvre Suneivstjørn" />
		<tag k="natural" v="water" />
		<tag k="ssr:stedsnr" v="645458" />
	</node>
	<node id="-276508" lat="60.5315833369" lon="8.51736666546">
		<tag k="name" v="Langodden" />
		<tag k="natural" v="cape" />
		<tag k="ssr:stedsnr" v="724107" />
	</node>
	<node id="-276507" lat="60.535091663" lon="8.43978332592">
		<tag k="name" v="Langtjørni" />
		<tag k="natural" v="water" />
		<tag k="ssr:stedsnr" v="724202" />
	</node>
	<node id="-276503" lat="60.6927888859" lon="8.56274999945">
		<tag k="name" v="Torkelstjørn" />
		<tag k="natural" v="water" />
		<tag k="ssr:stedsnr" v="723707" />
	</node>
	<node id="-276497" lat="60.7031972245" lon="8.35805833241">
		<tag k="name" v="Rovetrolltjørn" />
		<tag k="natural" v="water" />
		<tag k="ssr:stedsnr" v="723387" />
	</node>
	<node id="-276487" lat="60.5504777766" lon="8.40066943999">
		<tag k="name" v="Grastjørne" />
		<tag k="natural" v="water" />
		<tag k="ssr:stedsnr" v="613706" />
	</node>
	<node id="-276486" lat="60.5434111071" lon="8.53824443984">
		<tag k="alt_name" v="Breidtjørni;Breitjørni" />
		<tag k="name" v="Breitjørn" />
		<tag k="natural" v="water" />
		<tag k="ssr:stedsnr" v="613238" />
	</node>
	<node id="-276485" lat="60.5448290607" lon="8.66678359414">
		<tag k="alt_name" v="Riklene, store" />
		<tag k="name" v="Store Rikla" />
		<tag k="natural" v="water" />
		<tag k="ssr:stedsnr" v="613235" />
	</node>
	<node id="-276484" lat="60.5301706796" lon="8.64015164048">
		<tag k="alt_name" v="Oddetjørnan" />
		<tag k="name" v="Oddetjørnane" />
		<tag k="natural" v="water" />
		<tag k="ssr:stedsnr" v="613218" />
>>>>>>> e1d4bc35ff8a6074a6f2e91616a996b547c36f15
		<tag k="water" v="lake" />
	</node>
</osm>
