<?xml version="1.0" encoding="UTF-8"?>
<<<<<<< HEAD
<osm version="0.6" generator="osmapis">
	<node lat="60.66466666698333" lon="8.739486118122482" id="-26048">
		<tag k="bridge" v="yes" />
		<tag k="layer" v="1" />
		<tag k="name" v="Bråten" />
		<tag k="ssr:stedsnr" v="46815" />
	</node>
	<node lat="60.69230833737087" lon="8.511922217344729" id="-26238">
		<tag k="bridge" v="yes" />
		<tag k="layer" v="1" />
		<tag k="name" v="Løkensgard" />
		<tag k="ssr:stedsnr" v="168961" />
	</node>
	<node lat="60.64478333369875" lon="8.434719442735313" id="-26323">
=======
<osm generator="osmapis" version="0.6">
	<node id="-277886" lat="60.492375002" lon="8.47459722186">
		<tag k="junction" v="yes" />
		<tag k="name" v="Kolaplassen" />
		<tag k="place" v="locality" />
		<tag k="ssr:stedsnr" v="845729" />
	</node>
	<node id="-277629" lat="60.6637972264" lon="8.74651943806">
		<tag k="bridge" v="yes" />
		<tag k="layer" v="1" />
		<tag k="name" v="Bjørøybråten" />
		<tag k="ssr:stedsnr" v="592849" />
	</node>
	<node id="-277754" lat="60.649297225" lon="8.59941666936">
		<tag k="bridge" v="yes" />
		<tag k="layer" v="1" />
		<tag k="name" v="Gulhagen" />
		<tag k="ssr:stedsnr" v="774804" />
	</node>
	<node id="-276596" lat="60.6263805581" lon="8.5621416644">
		<tag k="name" v="Ål stasjon" />
		<tag k="railway" v="station" />
		<tag k="ssr:stedsnr" v="674108" />
		<tag k="train" v="yes" />
	</node>
	<node id="-277630" lat="60.6695555554" lon="8.73930833161">
		<tag k="bridge" v="yes" />
		<tag k="layer" v="1" />
		<tag k="loc_name" v="Sireåbrune" />
		<tag k="name" v="Sirielv" />
		<tag k="ssr:stedsnr" v="592977" />
	</node>
	<node id="-277490" lat="60.6218888926" lon="8.53526111605">
		<tag k="bridge" v="yes" />
		<tag k="layer" v="1" />
		<tag k="name" v="Vangen Søndre" />
		<tag k="ssr:stedsnr" v="524944" />
	</node>
	<node id="-277965" lat="60.6524194464" lon="8.68299444596">
		<tag k="bridge" v="yes" />
		<tag k="layer" v="1" />
		<tag k="name" v="Koddemoen" />
		<tag k="ssr:stedsnr" v="957968" />
	</node>
	<node id="-275817" lat="60.6568055572" lon="8.69727222284">
		<tag k="bridge" v="yes" />
		<tag k="layer" v="1" />
		<tag k="name" v="Klovberget" />
		<tag k="ssr:stedsnr" v="228977" />
	</node>
	<node id="-275816" lat="60.6482916654" lon="8.59871666925">
		<tag k="bridge" v="yes" />
		<tag k="layer" v="1" />
		<tag k="name" v="Jægermoen" />
		<tag k="ssr:stedsnr" v="228975" />
	</node>
	<node id="-275815" lat="60.7018694473" lon="8.46012500822">
		<tag k="bridge" v="yes" />
		<tag k="layer" v="1" />
		<tag k="name" v="Hestaåni" />
		<tag k="ssr:stedsnr" v="228972" />
	</node>
	<node id="-276070" lat="60.5710472254" lon="8.45682776961">
		<tag k="highway" v="path" />
		<tag k="name" v="Gamle Stølsvegen" />
		<tag k="ssr:stedsnr" v="295558" />
	</node>
	<node id="-276060" lat="60.6447833337" lon="8.43471944274">
>>>>>>> e1d4bc35ff8a6074a6f2e91616a996b547c36f15
		<tag k="bridge" v="yes" />
		<tag k="layer" v="1" />
		<tag k="name" v="Myking" />
		<tag k="ssr:stedsnr" v="289983" />
	</node>
<<<<<<< HEAD
	<node lat="60.62947191459972" lon="8.56668758663428" id="-26592">
=======
	<node id="-276058" lat="60.6490694445" lon="8.60010277145">
>>>>>>> e1d4bc35ff8a6074a6f2e91616a996b547c36f15
		<tag k="bridge" v="yes" />
		<tag k="layer" v="1" />
		<tag k="loc_name" v="Myrebrune" />
		<tag k="name" v="Myhren" />
		<tag k="ssr:stedsnr" v="471966" />
	</node>
	<node lat="60.68253888681218" lon="8.689663888742286" id="-26784">
		<tag k="name" v="Tvilessingi" />
		<tag k="place" v="locality" />
		<tag k="ssr:stedsnr" v="708906" />
	</node>
	<node lat="60.626380558059964" lon="8.562141664395318" id="-26817">
		<tag k="name" v="Ål stasjon" />
		<tag k="railway" v="station" />
		<tag k="ssr:stedsnr" v="674108" />
		<tag k="train" v="yes" />
	</node>
<<<<<<< HEAD
	<node lat="60.653058334478644" lon="8.614372228568584" id="-26859">
=======
	<node id="-276567" lat="60.6908555553" lon="8.3638444509">
>>>>>>> e1d4bc35ff8a6074a6f2e91616a996b547c36f15
		<tag k="bridge" v="yes" />
		<tag k="layer" v="1" />
		<tag k="name" v="Sando" />
		<tag k="ssr:stedsnr" v="896975" />
	</node>
	<node lat="60.57990277428721" lon="8.42217778111609" id="-26860">
		<tag k="bridge" v="yes" />
		<tag k="layer" v="1" />
		<tag k="name" v="Kleivi" />
		<tag k="ssr:stedsnr" v="896976" />
	</node>
<<<<<<< HEAD
	<node lat="60.65038610767411" lon="8.397205549685735" id="-26937">
=======
	<node id="-276558" lat="60.6598555523" lon="8.71629722172">
		<tag k="alt_name" v="Torpo" />
		<tag k="name" v="Torpo stasjon" />
		<tag k="railway" v="station" />
		<tag k="ssr:stedsnr" v="734974" />
		<tag k="train" v="yes" />
	</node>
	<node id="-276689" lat="60.6503861077" lon="8.39720554969">
>>>>>>> e1d4bc35ff8a6074a6f2e91616a996b547c36f15
		<tag k="highway" v="path" />
		<tag k="name" v="Fjellvegen" />
		<tag k="ssr:stedsnr" v="769732" />
	</node>
<<<<<<< HEAD
	<node lat="60.69085555527767" lon="8.36384445089736" id="-26942">
=======
	<node id="-276944" lat="60.664666667" lon="8.73948611812">
>>>>>>> e1d4bc35ff8a6074a6f2e91616a996b547c36f15
		<tag k="bridge" v="yes" />
		<tag k="layer" v="1" />
		<tag k="name" v="Hovdegård" />
		<tag k="ssr:stedsnr" v="774973" />
	</node>
<<<<<<< HEAD
	<node lat="60.49237500201211" lon="8.474597221856545" id="-27049">
		<tag k="junction" v="yes" />
		<tag k="name" v="Kolaplassen" />
		<tag k="place" v="locality" />
		<tag k="ssr:stedsnr" v="845729" />
	</node>
	<node lat="60.70186944731119" lon="8.46012500822274" id="-27181">
		<tag k="bridge" v="yes" />
		<tag k="layer" v="1" />
		<tag k="name" v="Hestaåni" />
		<tag k="ssr:stedsnr" v="228972" />
	</node>
	<node lat="60.64829166537828" lon="8.598716669253713" id="-27182">
=======
	<node id="-277710" lat="60.6423055542" lon="8.59075555745">
		<tag k="bridge" v="yes" />
		<tag k="layer" v="1" />
		<tag k="name" v="Stølen" />
		<tag k="ssr:stedsnr" v="653969" />
	</node>
	<node id="-277325" lat="60.4834777803" lon="8.50278610634">
		<tag k="bridge" v="yes" />
		<tag k="layer" v="1" />
		<tag k="name" v="Halldalsåne" />
		<tag k="ssr:stedsnr" v="350549" />
	</node>
	<node id="-277964" lat="60.6315805562" lon="8.54040832827">
>>>>>>> e1d4bc35ff8a6074a6f2e91616a996b547c36f15
		<tag k="bridge" v="yes" />
		<tag k="layer" v="1" />
		<tag k="name" v="Jægermoen" />
		<tag k="ssr:stedsnr" v="228975" />
	</node>
<<<<<<< HEAD
	<node lat="60.65680555720001" lon="8.697272222839013" id="-27183">
		<tag k="bridge" v="yes" />
		<tag k="layer" v="1" />
		<tag k="name" v="Klovberget" />
		<tag k="ssr:stedsnr" v="228977" />
	</node>
	<node lat="60.64585833457" lon="8.594744452467891" id="-27347">
=======
	<node id="-277954" lat="60.7020083349" lon="8.52813055007">
		<tag k="name" v="Tvilessingi" />
		<tag k="place" v="locality" />
		<tag k="ssr:stedsnr" v="951250" />
	</node>
	<node id="-277043" lat="60.6458583346" lon="8.59474445247">
>>>>>>> e1d4bc35ff8a6074a6f2e91616a996b547c36f15
		<tag k="bridge" v="yes" />
		<tag k="layer" v="1" />
		<tag k="name" v="Stranden" />
		<tag k="ssr:stedsnr" v="107977" />
	</node>
<<<<<<< HEAD
	<node lat="60.62485000318657" lon="8.540936112577542" id="-27432">
		<tag k="bridge" v="yes" />
		<tag k="layer" v="1" />
		<tag k="name" v="Stave" />
		<tag k="ssr:stedsnr" v="168965" />
	</node>
	<node lat="60.621544447653804" lon="8.534816659774586" id="-27433">
=======
	<node id="-277423" lat="60.6630277782" lon="8.69937223029">
		<tag k="bridge" v="yes" />
		<tag k="layer" v="1" />
		<tag k="name" v="Lya" />
		<tag k="ssr:stedsnr" v="410971" />
	</node>
	<node id="-277422" lat="60.6628499989" lon="8.73249722068">
		<tag k="bridge" v="yes" />
		<tag k="layer" v="1" />
		<tag k="name" v="Torpeslåtten vest" />
		<tag k="ssr:stedsnr" v="410963" />
	</node>
	<node id="-276646" lat="60.5799027743" lon="8.42217778112">
>>>>>>> e1d4bc35ff8a6074a6f2e91616a996b547c36f15
		<tag k="bridge" v="yes" />
		<tag k="layer" v="1" />
		<tag k="name" v="Kvinda" />
		<tag k="old_name" v="Kvenda" />
		<tag k="ssr:stedsnr" v="168969" />
	</node>
<<<<<<< HEAD
	<node lat="60.64906944449501" lon="8.600102771448514" id="-27514">
=======
	<node id="-276645" lat="60.6530583345" lon="8.61437222857">
>>>>>>> e1d4bc35ff8a6074a6f2e91616a996b547c36f15
		<tag k="bridge" v="yes" />
		<tag k="layer" v="1" />
		<tag k="name" v="Gulhagen vestre" />
		<tag k="ssr:stedsnr" v="289844" />
	</node>
<<<<<<< HEAD
	<node lat="60.57104722538356" lon="8.456827769611204" id="-27516">
		<tag k="highway" v="path" />
		<tag k="name" v="Gamle Stølsvegen" />
		<tag k="ssr:stedsnr" v="295558" />
	</node>
	<node lat="60.48347778033885" lon="8.502786106342198" id="-27600">
=======
	<node id="-276123" lat="60.6294719146" lon="8.56668758663">
>>>>>>> e1d4bc35ff8a6074a6f2e91616a996b547c36f15
		<tag k="bridge" v="yes" />
		<tag k="layer" v="1" />
		<tag k="name" v="Halldalsåne" />
		<tag k="ssr:stedsnr" v="350549" />
	</node>
<<<<<<< HEAD
	<node lat="60.66284999891037" lon="8.732497220679079" id="-27681">
=======
	<node id="-277144" lat="60.6215444477" lon="8.53481665977">
>>>>>>> e1d4bc35ff8a6074a6f2e91616a996b547c36f15
		<tag k="bridge" v="yes" />
		<tag k="layer" v="1" />
		<tag k="name" v="Torpeslåtten vest" />
		<tag k="ssr:stedsnr" v="410963" />
	</node>
<<<<<<< HEAD
	<node lat="60.663027778212815" lon="8.699372230286897" id="-27682">
=======
	<node id="-277143" lat="60.6248500032" lon="8.54093611258">
>>>>>>> e1d4bc35ff8a6074a6f2e91616a996b547c36f15
		<tag k="bridge" v="yes" />
		<tag k="layer" v="1" />
		<tag k="name" v="Lya" />
		<tag k="ssr:stedsnr" v="410971" />
	</node>
<<<<<<< HEAD
	<node lat="60.62188889259228" lon="8.53526111605197" id="-27756">
		<tag k="bridge" v="yes" />
		<tag k="layer" v="1" />
		<tag k="name" v="Vangen Søndre" />
		<tag k="ssr:stedsnr" v="524944" />
	</node>
	<node lat="60.6603666653683" lon="8.704594448920389" id="-27776">
		<tag k="bridge" v="yes" />
		<tag k="layer" v="1" />
		<tag k="name" v="Vangen" />
		<tag k="ssr:stedsnr" v="532951" />
	</node>
	<node lat="60.66379722644218" lon="8.746519438061624" id="-27871">
		<tag k="bridge" v="yes" />
		<tag k="layer" v="1" />
		<tag k="name" v="Bjørøybråten" />
		<tag k="ssr:stedsnr" v="592849" />
	</node>
	<node lat="60.66955555537492" lon="8.739308331606399" id="-27872">
		<tag k="bridge" v="yes" />
		<tag k="layer" v="1" />
		<tag k="loc_name" v="Sireåbrune" />
		<tag k="name" v="Sirielv" />
		<tag k="ssr:stedsnr" v="592977" />
	</node>
	<node lat="60.57805555576995" lon="8.453827771883356" id="-27883">
		<tag k="highway" v="path" />
		<tag k="name" v="Nordre Sandøynvegen" />
		<tag k="ssr:stedsnr" v="602741" />
	</node>
	<node lat="60.642305554223306" lon="8.590755557450402" id="-27940">
		<tag k="bridge" v="yes" />
		<tag k="layer" v="1" />
		<tag k="name" v="Stølen" />
		<tag k="ssr:stedsnr" v="653969" />
	</node>
	<node lat="60.65985555230046" lon="8.716297221719252" id="-27980">
		<tag k="alt_name" v="Torpo" />
		<tag k="name" v="Torpo stasjon" />
		<tag k="railway" v="station" />
		<tag k="ssr:stedsnr" v="734974" />
		<tag k="train" v="yes" />
	</node>
	<node lat="60.649297224955134" lon="8.599416669362443" id="-28025">
		<tag k="bridge" v="yes" />
		<tag k="layer" v="1" />
		<tag k="name" v="Gulhagen" />
		<tag k="ssr:stedsnr" v="774804" />
	</node>
	<node lat="60.702008334929424" lon="8.528130550068717" id="-28189">
		<tag k="name" v="Tvilessingi" />
		<tag k="place" v="locality" />
		<tag k="ssr:stedsnr" v="951250" />
	</node>
	<node lat="60.63158055617976" lon="8.540408328272576" id="-28194">
		<tag k="bridge" v="yes" />
		<tag k="layer" v="1" />
		<tag k="name" v="Hellinggrove" />
		<tag k="old_name" v="Hellinggrøvet" />
		<tag k="ssr:stedsnr" v="957799" />
	</node>
	<node lat="60.652419446438486" lon="8.682994445963459" id="-28195">
		<tag k="bridge" v="yes" />
		<tag k="layer" v="1" />
		<tag k="name" v="Koddemoen" />
		<tag k="ssr:stedsnr" v="957968" />
=======
	<node id="-277142" lat="60.6923083374" lon="8.51192221734">
		<tag k="bridge" v="yes" />
		<tag k="layer" v="1" />
		<tag k="name" v="Løkensgard" />
		<tag k="ssr:stedsnr" v="168961" />
	</node>
	<node id="-277644" lat="60.5780555558" lon="8.45382777188">
		<tag k="highway" v="path" />
		<tag k="name" v="Nordre Sandøynvegen" />
		<tag k="ssr:stedsnr" v="602741" />
	</node>
	<node id="-276455" lat="60.6825388868" lon="8.68966388874">
		<tag k="name" v="Tvilessingi" />
		<tag k="place" v="locality" />
		<tag k="ssr:stedsnr" v="708906" />
	</node>
	<node id="-277505" lat="60.6603666654" lon="8.70459444892">
		<tag k="bridge" v="yes" />
		<tag k="layer" v="1" />
		<tag k="name" v="Vangen" />
		<tag k="ssr:stedsnr" v="532951" />
>>>>>>> e1d4bc35ff8a6074a6f2e91616a996b547c36f15
	</node>
</osm>
