<?xml version="1.0" encoding="UTF-8"?>
<osm version="0.6" generator="osmapis">
	<node lat="60.65496111118915" lon="8.69873056452582" id="-32474">
		<tag k="name" v="Søre Bråten" />
		<tag k="place" v="locality" />
		<tag k="ssr:stedsnr" v="20542" />
	</node>
	<node lat="60.615280551544245" lon="8.55464999459831" id="-32478">
		<tag k="alt_name" v="Storemyre" />
		<tag k="name" v="Storemyri" />
		<tag k="natural" v="wetland" />
		<tag k="ssr:stedsnr" v="21715" />
	</node>
	<node lat="60.665758332008856" lon="8.797852770923207" id="-32493">
		<tag k="name" v="Bjørnemoen" />
		<tag k="place" v="locality" />
		<tag k="ssr:stedsnr" v="237820" />
	</node>
	<node lat="60.653647222479364" lon="8.696724993260279" id="-32540">
		<tag k="alt_name" v="Nordre Bråten" />
		<tag k="name" v="Nørdre Bråten" />
		<tag k="place" v="locality" />
		<tag k="ssr:stedsnr" v="81547" />
	</node>
	<node lat="60.61914444570303" lon="8.584366661828046" id="-32543">
		<tag k="name" v="Piperslåtta" />
		<tag k="place" v="locality" />
		<tag k="ssr:stedsnr" v="81839" />
	</node>
	<node lat="60.67495277425105" lon="8.290899998620855" id="-32549">
		<tag k="historic" v="shieling" />
		<tag k="name" v="Nystølen" />
		<tag k="place" v="locality" />
		<tag k="ssr:stedsnr" v="101504" />
	</node>
	<node lat="60.691402773514255" lon="8.659249998775524" id="-32588">
		<tag k="alt_name" v="Dyresmyran" />
		<tag k="name" v="Dyresmyrane" />
		<tag k="natural" v="wetland" />
		<tag k="ssr:stedsnr" v="249898" />
	</node>
	<node lat="60.71331111116693" lon="8.459047216496538" id="-32678">
		<tag k="name" v="Timrehaugmyre" />
		<tag k="natural" v="wetland" />
		<tag k="ssr:stedsnr" v="162109" />
	</node>
	<node lat="60.67827500082095" lon="8.620275002330057" id="-32684">
		<tag k="name" v="Aunsetmyrane" />
		<tag k="natural" v="wetland" />
		<tag k="ssr:stedsnr" v="162825" />
	</node>
	<node lat="60.68813333669311" lon="8.43200278255796" id="-32693">
		<tag k="name" v="Kyrkjemyre" />
		<tag k="natural" v="wetland" />
		<tag k="ssr:stedsnr" v="177320" />
	</node>
	<node lat="60.61376944189431" lon="8.550075000357035" id="-32725">
		<tag k="name" v="Tunga" />
		<tag k="place" v="locality" />
		<tag k="ssr:stedsnr" v="203720" />
	</node>
	<node lat="60.67839721902773" lon="8.34859445155062" id="-32739">
		<tag k="name" v="Flåmyrane" />
		<tag k="natural" v="wetland" />
		<tag k="ssr:stedsnr" v="223851" />
	</node>
	<node lat="60.695858335767504" lon="8.63768611607915" id="-32740">
		<tag k="historic" v="shieling" />
		<tag k="name" v="Holvollen" />
		<tag k="place" v="locality" />
		<tag k="ssr:stedsnr" v="223715" />
	</node>
	<node lat="60.66912222549982" lon="8.29348054895601" id="-32783">
		<tag k="historic" v="shieling" />
		<tag k="name" v="Nystølen" />
		<tag k="place" v="locality" />
		<tag k="ssr:stedsnr" v="299334" />
	</node>
	<node lat="60.73745555741616" lon="8.554019445577802" id="-32786">
		<tag k="name" v="Romyre" />
		<tag k="natural" v="wetland" />
		<tag k="ssr:stedsnr" v="465141" />
	</node>
	<node lat="60.681511108371495" lon="8.51805277410966" id="-32790">
		<tag k="landuse" v="meadow" />
		<tag k="name" v="Jalleslåtta" />
		<tag k="ssr:stedsnr" v="465733" />
	</node>
	<node lat="60.716894446830246" lon="8.274452783836567" id="-32794">
		<tag k="name" v="Karihellmyre" />
		<tag k="natural" v="wetland" />
		<tag k="ssr:stedsnr" v="465892" />
	</node>
	<node lat="60.643933333562465" lon="8.39586389184363" id="-32840">
		<tag k="name" v="Torsbumyre" />
		<tag k="natural" v="wetland" />
		<tag k="ssr:stedsnr" v="466738" />
	</node>
	<node lat="60.58049444184715" lon="8.606294437697942" id="-32928">
		<tag k="name" v="Flåmyrane" />
		<tag k="natural" v="wetland" />
		<tag k="ssr:stedsnr" v="422848" />
	</node>
	<node lat="60.72385832899284" lon="8.39736943913862" id="-32949">
		<tag k="name" v="Fjellstølmyran" />
		<tag k="natural" v="wetland" />
		<tag k="ssr:stedsnr" v="491547" />
	</node>
	<node lat="60.55883333693903" lon="8.479844448100433" id="-33006">
		<tag k="name" v="Nystølmyrane" />
		<tag k="natural" v="wetland" />
		<tag k="ssr:stedsnr" v="674001" />
	</node>
	<node lat="60.77986111134077" lon="8.594036116852005" id="-33018">
		<tag k="name" v="Grytingurde" />
		<tag k="natural" v="scree" />
		<tag k="ssr:stedsnr" v="675040" />
	</node>
	<node lat="60.618525003085" lon="8.457272215324526" id="-33030">
		<tag k="historic" v="shieling" />
		<tag k="name" v="Tjørnstølen" />
		<tag k="place" v="locality" />
		<tag k="ssr:stedsnr" v="674642" />
	</node>
	<node lat="60.59386944203171" lon="8.7750611083248" id="-33059">
		<tag k="alt_name" v="Byggjarvolden" />
		<tag k="historic" v="shieling" />
		<tag k="name" v="Byggjarvollen" />
		<tag k="place" v="locality" />
		<tag k="ssr:stedsnr" v="480027" />
	</node>
	<node lat="60.69980833075254" lon="8.766519449970017" id="-33060">
		<tag k="name" v="Skarmyre" />
		<tag k="natural" v="wetland" />
		<tag k="ssr:stedsnr" v="480214" />
	</node>
	<node lat="60.638105553180246" lon="8.471844439165336" id="-33105">
		<tag k="name" v="Storemyre" />
		<tag k="natural" v="wetland" />
		<tag k="ssr:stedsnr" v="526774" />
	</node>
	<node lat="60.709408337098125" lon="8.707708334133986" id="-33108">
		<tag k="name" v="Skjerpingflæin" />
		<tag k="natural" v="wetland" />
		<tag k="ssr:stedsnr" v="526874" />
	</node>
	<node lat="60.68521388944048" lon="8.683300005052008" id="-33124">
		<tag k="alt_name" v="Klopparmyra" />
		<tag k="name" v="Klopparmyri" />
		<tag k="natural" v="wetland" />
		<tag k="ssr:stedsnr" v="552920" />
	</node>
	<node lat="60.61470000273725" lon="8.53660278236156" id="-33152">
		<tag k="name" v="Gjernesslåtta" />
		<tag k="place" v="locality" />
		<tag k="ssr:stedsnr" v="566713" />
	</node>
	<node lat="60.66758055777091" lon="8.728063892741384" id="-33155">
		<tag k="name" v="Jorde" />
		<tag k="place" v="locality" />
		<tag k="ssr:stedsnr" v="567407" />
	</node>
	<node lat="60.70933055748301" lon="8.595688897877034" id="-33168">
		<tag k="landuse" v="meadow" />
		<tag k="name" v="Hesjane" />
		<tag k="ssr:stedsnr" v="587773" />
	</node>
	<node lat="60.70706111326577" lon="8.393452771633015" id="-33169">
		<tag k="historic" v="shieling" />
		<tag k="name" v="Grønlistølen" />
		<tag k="place" v="locality" />
		<tag k="ssr:stedsnr" v="587902" />
	</node>
	<node lat="60.69023055577912" lon="8.435280546429022" id="-33179">
		<tag k="name" v="Karvemyre" />
		<tag k="natural" v="wetland" />
		<tag k="ssr:stedsnr" v="602348" />
	</node>
	<node lat="60.68903055669632" lon="8.428161109069707" id="-33258">
		<tag k="landuse" v="meadow" />
		<tag k="name" v="Stakkestøet" />
		<tag k="ssr:stedsnr" v="662310" />
	</node>
	<node lat="60.58990278164981" lon="8.749108331969698" id="-33279">
		<tag k="name" v="Storemyr" />
		<tag k="natural" v="wetland" />
		<tag k="ssr:stedsnr" v="674033" />
	</node>
	<node lat="60.63792499920096" lon="8.49950555531967" id="-33284">
		<tag k="historic" v="shieling" />
		<tag k="name" v="Kolbjørnstølen" />
		<tag k="place" v="locality" />
		<tag k="ssr:stedsnr" v="674117" />
	</node>
	<node lat="60.65947500042944" lon="8.397805547788659" id="-33286">
		<tag k="name" v="Svartedyssa" />
		<tag k="natural" v="wetland" />
		<tag k="ssr:stedsnr" v="891685" />
	</node>
	<node lat="60.52134166378288" lon="8.43806944707222" id="-33302">
		<tag k="historic" v="shieling" />
		<tag k="name" v="Torsfeten" />
		<tag k="place" v="locality" />
		<tag k="ssr:stedsnr" v="675817" />
	</node>
	<node lat="60.648216665584094" lon="8.522975000943553" id="-33323">
		<tag k="name" v="Feten" />
		<tag k="place" v="locality" />
		<tag k="ssr:stedsnr" v="688735" />
	</node>
	<node lat="60.638961111080725" lon="8.368733325203152" id="-33370">
		<tag k="alt_name" v="Djupedalsstølen" />
		<tag k="historic" v="shieling" />
		<tag k="name" v="Djupedalstølen" />
		<tag k="place" v="locality" />
		<tag k="ssr:stedsnr" v="735610" />
	</node>
	<node lat="60.70737221921463" lon="8.406691675779358" id="-33385">
		<tag k="name" v="Fekjastølmyre" />
		<tag k="natural" v="wetland" />
		<tag k="ssr:stedsnr" v="905076" />
	</node>
	<node lat="60.674452779295116" lon="8.683663896962896" id="-33393">
		<tag k="name" v="Nilsehagene" />
		<tag k="place" v="locality" />
		<tag k="ssr:stedsnr" v="906944" />
	</node>
	<node lat="60.64654722103293" lon="8.398099993395927" id="-33404">
		<tag k="name" v="Rågjerda" />
		<tag k="place" v="locality" />
		<tag k="ssr:stedsnr" v="769725" />
	</node>
	<node lat="60.70591666767971" lon="8.390708333458315" id="-33408">
		<tag k="name" v="Vesleskarmyre" />
		<tag k="natural" v="wetland" />
		<tag k="ssr:stedsnr" v="769872" />
	</node>
	<node lat="60.72763611201789" lon="8.4466499931049" id="-33424">
		<tag k="name" v="Vardehovdmyran" />
		<tag k="natural" v="wetland" />
		<tag k="old_name" v="Vardhovdmyrane" />
		<tag k="ssr:stedsnr" v="795580" />
	</node>
	<node lat="60.503441667013966" lon="8.552394447069926" id="-33453">
		<tag k="historic" v="shieling" />
		<tag k="loc_name" v="Grevsgardstølen" />
		<tag k="name" v="Grefsgardstølen" />
		<tag k="old_name" v="Grevsgard Sr;Grevskard Sr" />
		<tag k="place" v="locality" />
		<tag k="ssr:stedsnr" v="917153" />
	</node>
	<node lat="60.633084756502285" lon="8.515963844112413" id="-33471">
		<tag k="name" v="Gjerdun" />
		<tag k="place" v="locality" />
		<tag k="ssr:stedsnr" v="809745" />
	</node>
	<node lat="60.64306238117294" lon="8.558541817949726" id="-33472">
		<tag k="loc_name" v="Lauvhuse" />
		<tag k="name" v="Lauvhuso" />
		<tag k="place" v="locality" />
		<tag k="ssr:stedsnr" v="809749" />
	</node>
	<node lat="60.64877778009301" lon="8.455666673596575" id="-33502">
		<tag k="historic" v="shieling" />
		<tag k="name" v="Rudstølen" />
		<tag k="place" v="locality" />
		<tag k="ssr:stedsnr" v="830778" />
	</node>
	<node lat="60.59784167065254" lon="8.473305559723542" id="-33506">
		<tag k="name" v="Nygard" />
		<tag k="place" v="locality" />
		<tag k="ssr:stedsnr" v="830813" />
	</node>
	<node lat="60.680786115395584" lon="8.73063054880933" id="-33508">
		<tag k="name" v="Trolledokki" />
		<tag k="natural" v="wetland" />
		<tag k="ssr:stedsnr" v="830928" />
	</node>
	<node lat="60.74526666353642" lon="8.300008329217198" id="-33509">
		<tag k="historic" v="shieling" />
		<tag k="name" v="Kokkestølen" />
		<tag k="place" v="locality" />
		<tag k="ssr:stedsnr" v="830930" />
	</node>
	<node lat="60.68724722448893" lon="8.483983328710474" id="-33532">
		<tag k="historic" v="shieling" />
		<tag k="name" v="Øvrestølen" />
		<tag k="place" v="locality" />
		<tag k="ssr:stedsnr" v="856910" />
	</node>
	<node lat="60.66872222397704" lon="8.698094445142543" id="-33556">
		<tag k="name" v="Valdresplassen" />
		<tag k="place" v="locality" />
		<tag k="ssr:stedsnr" v="931462" />
	</node>
	<node lat="60.638402779067086" lon="8.522113896616167" id="-33558">
		<tag k="landuse" v="meadow" />
		<tag k="name" v="Veslestølen" />
		<tag k="ssr:stedsnr" v="931765" />
	</node>
	<node lat="60.641717278626196" lon="8.51775602913175" id="-33559">
		<tag k="name" v="Staugard" />
		<tag k="place" v="locality" />
		<tag k="ssr:stedsnr" v="931770" />
	</node>
	<node lat="60.622811114228696" lon="8.528530556865894" id="-33563">
		<tag k="name" v="Busteteigen" />
		<tag k="place" v="locality" />
		<tag k="ssr:stedsnr" v="931730" />
	</node>
	<node lat="60.61374444010786" lon="8.531613889010014" id="-33564">
		<tag k="name" v="Langelandslåtta" />
		<tag k="place" v="locality" />
		<tag k="ssr:stedsnr" v="931732" />
	</node>
	<node lat="60.57243333612405" lon="8.586233341414676" id="-33592">
		<tag k="landuse" v="meadow" />
		<tag k="name" v="Blomeruste" />
		<tag k="ssr:stedsnr" v="908862" />
	</node>
	<node lat="60.722069445908524" lon="8.721119445900955" id="-33595">
		<tag k="alt_name" v="Flæi" />
		<tag k="name" v="Flæin" />
		<tag k="natural" v="wetland" />
		<tag k="ssr:stedsnr" v="916828" />
	</node>
	<node lat="60.64113889311041" lon="8.596808335986417" id="-33608">
		<tag k="landuse" v="quarry" />
		<tag k="name" v="Oppsjøtippen" />
		<tag k="ssr:stedsnr" v="917082" />
	</node>
	<node lat="60.72314722570304" lon="8.635930563014037" id="-33642">
		<tag k="name" v="Øknemyran" />
		<tag k="natural" v="wetland" />
		<tag k="ssr:stedsnr" v="951216" />
	</node>
	<node lat="60.60559999620126" lon="8.63560833054962" id="-33726">
		<tag k="name" v="Grostølmyri" />
		<tag k="natural" v="wetland" />
		<tag k="ssr:stedsnr" v="7086" />
	</node>
	<node lat="60.73362499556569" lon="8.534391671943256" id="-33732">
		<tag k="loc_name" v="Fetjan" />
		<tag k="name" v="Fetjastølmyrane" />
		<tag k="natural" v="wetland" />
		<tag k="ssr:stedsnr" v="6814" />
	</node>
	<node lat="60.70446389240105" lon="8.373624992342673" id="-33801">
		<tag k="name" v="Reinshengne" />
		<tag k="place" v="locality" />
		<tag k="ssr:stedsnr" v="56443" />
	</node>
	<node lat="60.67687222055439" lon="8.649102780223032" id="-33805">
		<tag k="name" v="Ljøsmyr" />
		<tag k="natural" v="wetland" />
		<tag k="ssr:stedsnr" v="56792" />
	</node>
	<node lat="60.51904444189566" lon="8.440377785185868" id="-33897">
		<tag k="alt_name" v="Brauti" />
		<tag k="historic" v="shieling" />
		<tag k="loc_name" v="Braudi" />
		<tag k="name" v="Braute" />
		<tag k="old_name" v="Braudde" />
		<tag k="place" v="locality" />
		<tag k="ssr:stedsnr" v="117258" />
	</node>
	<node lat="60.69151944095412" lon="8.474008339728567" id="-33900">
		<tag k="name" v="Gorrtjørnmyre" />
		<tag k="natural" v="wetland" />
		<tag k="ssr:stedsnr" v="117331" />
	</node>
	<node lat="60.608925000464595" lon="8.781691671061166" id="-33910">
		<tag k="loc_name" v="Vesleflæi" />
		<tag k="name" v="Vesleflæet" />
		<tag k="natural" v="wetland" />
		<tag k="ssr:stedsnr" v="128056" />
	</node>
	<node lat="60.7484972256279" lon="8.5544499990461" id="-33911">
		<tag k="historic" v="shieling" />
		<tag k="name" v="Nystølan" />
		<tag k="place" v="locality" />
		<tag k="ssr:stedsnr" v="127812" />
	</node>
	<node lat="60.62005277720519" lon="8.611330557363527" id="-33949">
		<tag k="name" v="Elgsmyre" />
		<tag k="natural" v="wetland" />
		<tag k="ssr:stedsnr" v="141823" />
	</node>
	<node lat="60.703230555056614" lon="8.520969440722764" id="-33965">
		<tag k="landuse" v="meadow" />
		<tag k="name" v="Løkingsgardfeten" />
		<tag k="ssr:stedsnr" v="162244" />
	</node>
	<node lat="60.68172222167126" lon="8.754275001517692" id="-33968">
		<tag k="name" v="Brøtmyrane" />
		<tag k="natural" v="wetland" />
		<tag k="ssr:stedsnr" v="162274" />
	</node>
	<node lat="60.705369442802024" lon="8.600444443493199" id="-33979">
		<tag k="landuse" v="meadow" />
		<tag k="name" v="Dalane" />
		<tag k="ssr:stedsnr" v="162788" />
	</node>
	<node lat="60.601263885794395" lon="8.625544449833347" id="-34006">
		<tag k="alt_name" v="Blautmyrkroken" />
		<tag k="name" v="Blautemyrkroken" />
		<tag k="natural" v="wetland" />
		<tag k="ssr:stedsnr" v="189046" />
	</node>
	<node lat="60.72884166389073" lon="8.428477784447553" id="-34082">
		<tag k="name" v="Hengsmyran" />
		<tag k="natural" v="wetland" />
		<tag k="ssr:stedsnr" v="309560" />
	</node>
	<node lat="60.66229119864122" lon="8.790627574440066" id="-34136">
		<tag k="alt_name" v="Ulvemyrtreet" />
		<tag k="name" v="Ulvemyrtræet" />
		<tag k="place" v="locality" />
		<tag k="ssr:stedsnr" v="324657" />
	</node>
	<node lat="60.70929999859622" lon="8.738269440604306" id="-34147">
		<tag k="historic" v="shieling" />
		<tag k="name" v="Tufteheimstølen" />
		<tag k="place" v="locality" />
		<tag k="ssr:stedsnr" v="344287" />
	</node>
	<node lat="60.71445555605124" lon="8.639183341571604" id="-34149">
		<tag k="name" v="Høgstane" />
		<tag k="place" v="locality" />
		<tag k="ssr:stedsnr" v="344677" />
	</node>
	<node lat="60.70018611242835" lon="8.637216668922779" id="-34151">
		<tag k="name" v="Steinset" />
		<tag k="place" v="locality" />
		<tag k="ssr:stedsnr" v="344683" />
	</node>
	<node lat="60.69153610738729" lon="8.29619443650904" id="-34152">
		<tag k="historic" v="shieling" />
		<tag k="name" v="Perstølen" />
		<tag k="place" v="locality" />
		<tag k="ssr:stedsnr" v="344640" />
	</node>
	<node lat="60.539913890983186" lon="8.601211112486526" id="-34176">
		<tag k="name" v="Klovsteinan" />
		<tag k="natural" v="stone" />
		<tag k="ssr:stedsnr" v="360764" />
	</node>
	<node lat="60.603119448603486" lon="8.779594441301727" id="-34183">
		<tag k="alt_name" v="Storflæet" />
		<tag k="loc_name" v="Storeflæin" />
		<tag k="name" v="Storeflæi" />
		<tag k="natural" v="wetland" />
		<tag k="old_name" v="Storeflæenne;Storeflee" />
		<tag k="ssr:stedsnr" v="371050" />
	</node>
	<node lat="60.603944447262734" lon="8.660761112130539" id="-34224">
		<tag k="name" v="Hestekroken" />
		<tag k="natural" v="wetland" />
		<tag k="ssr:stedsnr" v="403195" />
	</node>
	<node lat="60.73408055855155" lon="8.651319449978809" id="-34232">
		<tag k="name" v="Fivilhav" />
		<tag k="natural" v="wetland" />
		<tag k="ssr:stedsnr" v="405219" />
	</node>
	<node lat="60.67491111211217" lon="8.546391672451113" id="-34260">
		<tag k="historic" v="shieling" />
		<tag k="name" v="Botilstølen" />
		<tag k="place" v="locality" />
		<tag k="ssr:stedsnr" v="420726" />
	</node>
	<node lat="60.562988886557946" lon="8.424133336253487" id="-34300">
		<tag k="historic" v="shieling" />
		<tag k="name" v="Sangestølen" />
		<tag k="place" v="locality" />
		<tag k="ssr:stedsnr" v="432713" />
	</node>
	<node lat="60.59563610794223" lon="8.45404167147151" id="-34338">
		<tag k="historic" v="shieling" />
		<tag k="name" v="Trøberget" />
		<tag k="place" v="locality" />
		<tag k="ssr:stedsnr" v="526353" />
	</node>
	<node lat="60.67024166636945" lon="8.668736107764826" id="-34343">
		<tag k="name" v="Dølahaugen" />
		<tag k="place" v="locality" />
		<tag k="ssr:stedsnr" v="526811" />
	</node>
	<node lat="60.73125833404656" lon="8.665924996043689" id="-34379">
		<tag k="alt_name" v="Fekjan" />
		<tag k="name" v="Fetjan" />
		<tag k="natural" v="wetland" />
		<tag k="ssr:stedsnr" v="552853" />
	</node>
	<node lat="60.51853333215715" lon="8.681502771200037" id="-34385">
		<tag k="name" v="Hestehallmyrane" />
		<tag k="natural" v="wetland" />
		<tag k="ssr:stedsnr" v="553191" />
	</node>
	<node lat="60.50127499889489" lon="8.48823055894687" id="-34397">
		<tag k="name" v="Flåmyrane" />
		<tag k="natural" v="wetland" />
		<tag k="ssr:stedsnr" v="553173" />
	</node>
	<node lat="60.53333888670718" lon="8.447869444190925" id="-34529">
		<tag k="alt_name" v="Gråura" />
		<tag k="name" v="Gråurdi" />
		<tag k="natural" v="scree" />
		<tag k="ssr:stedsnr" v="663223" />
	</node>
	<node lat="60.69518055177305" lon="8.772336109301957" id="-34543">
		<tag k="alt_name" v="Oksemyre;Uksedokkmyri" />
		<tag k="loc_name" v="Uksemyre" />
		<tag k="name" v="Oksemyri" />
		<tag k="natural" v="wetland" />
		<tag k="ssr:stedsnr" v="733879" />
	</node>
	<node lat="60.68772222644243" lon="8.405919439764785" id="-34611">
		<tag k="historic" v="shieling" />
		<tag k="loc_name" v="Dokkensstølen" />
		<tag k="name" v="Dokkenstølen" />
		<tag k="place" v="locality" />
		<tag k="ssr:stedsnr" v="784146" />
	</node>
	<node lat="60.691308337097496" lon="8.541783328297203" id="-34615">
		<tag k="alt_name" v="Kjerringslettmyra" />
		<tag k="name" v="Kjerringslettmyri" />
		<tag k="natural" v="wetland" />
		<tag k="ssr:stedsnr" v="784730" />
	</node>
	<node lat="60.72698888518165" lon="8.487924998403148" id="-34626">
		<tag k="name" v="Ljosmyran" />
		<tag k="natural" v="wetland" />
		<tag k="ssr:stedsnr" v="795818" />
	</node>
	<node lat="60.723299998968635" lon="8.516272222137985" id="-34674">
		<tag k="name" v="Storemyre" />
		<tag k="natural" v="wetland" />
		<tag k="ssr:stedsnr" v="830097" />
	</node>
	<node lat="60.74470832907615" lon="8.668794439287298" id="-34677">
		<tag k="name" v="Svinetreet" />
		<tag k="place" v="locality" />
		<tag k="ssr:stedsnr" v="830160" />
	</node>
	<node lat="60.68532777840424" lon="8.321119448799967" id="-34695">
		<tag k="name" v="Lappemyre" />
		<tag k="natural" v="wetland" />
		<tag k="ssr:stedsnr" v="845819" />
	</node>
	<node lat="60.6197861075616" lon="8.604258341209105" id="-34758">
		<tag k="alt_name" v="Reinsgravidn" />
		<tag k="name" v="Reinsgravin" />
		<tag k="natural" v="wetland" />
		<tag k="ssr:stedsnr" v="870833" />
	</node>
	<node lat="60.621750001259976" lon="8.605186117431174" id="-34759">
		<tag k="name" v="Torvmyre" />
		<tag k="natural" v="wetland" />
		<tag k="ssr:stedsnr" v="870834" />
	</node>
	<node lat="60.63695833764892" lon="8.660797214887456" id="-34763">
		<tag k="name" v="Rensle" />
		<tag k="natural" v="scree" />
		<tag k="ssr:stedsnr" v="951770" />
	</node>
	<node lat="60.63704444659831" lon="8.843788881556604" id="-34783">
		<tag k="name" v="Bergalustein" />
		<tag k="natural" v="stone" />
		<tag k="ssr:stedsnr" v="965072" />
	</node>
	<node lat="60.506022225616256" lon="8.405158330482113" id="-34790">
		<tag k="name" v="Flåmyre" />
		<tag k="natural" v="wetland" />
		<tag k="ssr:stedsnr" v="966352" />
	</node>
	<node lat="60.681399999572434" lon="8.660733342069232" id="-34799">
		<tag k="name" v="Fjordungstokkmyra" />
		<tag k="natural" v="wetland" />
		<tag k="ssr:stedsnr" v="966982" />
	</node>
</osm>
