<?xml version="1.0" encoding="UTF-8"?>
<osm version="0.6" generator="osmapis">
	<node lat="60.90554444429593" lon="7.187313894423651" id="-77582">
		<tag k="alt_name" v="Aurland" />
		<tag k="name" v="Aurland kommune" />
		<tag k="ssr:date" v="2019-12-27" />
		<tag k="ssr:gruppe" v="administrativeIndelinger" />
		<tag k="ssr:hovedgruppe" v="offentligAdministrasjon" />
		<tag k="ssr:stedsnr" v="388403" />
		<tag k="ssr:type" v="kommune" />
	</node>
	<node lat="60.86422499730723" lon="7.128719435470368" id="-77829">
		<tag k="alt_name" v="Fretheim" />
		<tag k="name" v="Fretheim lykt" />
		<tag k="ssr:date" v="2019-12-27" />
		<tag k="ssr:gruppe" v="navigasjon" />
		<tag k="ssr:hovedgruppe" v="infrastruktur" />
		<tag k="ssr:stedsnr" v="540704" />
		<tag k="ssr:type" v="fyrlykt" />
	</node>
	<node lat="60.93300555613489" lon="6.883091673415726" id="-78011">
		<tag k="name" v="Nordre Stolsgrunnen lanterne" />
		<tag k="ssr:date" v="2019-12-27" />
		<tag k="ssr:gruppe" v="navigasjon" />
		<tag k="ssr:hovedgruppe" v="infrastruktur" />
		<tag k="ssr:stedsnr" v="662705" />
		<tag k="ssr:type" v="lanterne" />
	</node>
	<node lat="60.91676377699021" lon="6.8727472214836824" id="-78166">
		<tag k="name" v="Bakkagrunnen lanterne" />
		<tag k="ssr:date" v="2019-12-27" />
		<tag k="ssr:gruppe" v="navigasjon" />
		<tag k="ssr:hovedgruppe" v="infrastruktur" />
		<tag k="ssr:stedsnr" v="784705" />
		<tag k="ssr:type" v="lanterne" />
	</node>
	<node lat="60.93810000316348" lon="7.154325002391425" id="-78346">
		<tag k="name" v="Flenes lanterne" />
		<tag k="ssr:date" v="2019-12-27" />
		<tag k="ssr:gruppe" v="navigasjon" />
		<tag k="ssr:hovedgruppe" v="infrastruktur" />
		<tag k="ssr:stedsnr" v="891667" />
		<tag k="ssr:type" v="lanterne" />
	</node>
	<node lat="60.71023888623316" lon="7.212947222281534" id="-78385">
		<tag k="name" v="Kleven" />
		<tag k="ssr:date" v="2019-12-27" />
		<tag k="ssr:gruppe" v="bane" />
		<tag k="ssr:hovedgruppe" v="infrastruktur" />
		<tag k="ssr:stedsnr" v="939018" />
		<tag k="ssr:type" v="banestrekning" />
	</node>
	<node lat="60.921450286509604" lon="6.873601988364674" id="-78810">
		<tag k="name" v="Holmagrunnen lanterne" />
		<tag k="ssr:date" v="2019-12-27" />
		<tag k="ssr:gruppe" v="navigasjon" />
		<tag k="ssr:hovedgruppe" v="infrastruktur" />
		<tag k="ssr:stedsnr" v="298669" />
		<tag k="ssr:type" v="lanterne" />
	</node>
	<node lat="60.999088889792006" lon="7.036713888999388" id="-79455">
		<tag k="alt_name" v="Nærøynes" />
		<tag k="name" v="Nærøynes lykt" />
		<tag k="ssr:date" v="2019-12-27" />
		<tag k="ssr:gruppe" v="navigasjon" />
		<tag k="ssr:hovedgruppe" v="infrastruktur" />
		<tag k="ssr:stedsnr" v="782832" />
		<tag k="ssr:type" v="fyrlykt" />
	</node>
	<node lat="60.85259714329327" lon="7.111550241322288" id="-79711">
		<tag k="name" v="Lunden" />
		<tag k="ssr:date" v="2019-12-27" />
		<tag k="ssr:gruppe" v="veg" />
		<tag k="ssr:hovedgruppe" v="infrastruktur" />
		<tag k="ssr:stedsnr" v="950518" />
		<tag k="ssr:type" v="adressenavn" />
	</node>
	<node lat="60.826578499944944" lon="7.114323566805565" id="-79795">
		<tag k="name" v="Rallarvegen" />
		<tag k="ssr:date" v="2020-01-06" />
		<tag k="ssr:gruppe" v="veg" />
		<tag k="ssr:hovedgruppe" v="infrastruktur" />
		<tag k="ssr:stedsnr" v="1074472" />
		<tag k="ssr:type" v="vegstrekning" />
	</node>
	<node lat="60.83001598618517" lon="7.504402372929162" id="-79805">
		<tag k="name" v="Viki" />
		<tag k="ssr:date" v="2021-11-11" />
		<tag k="ssr:gruppe" v="veg" />
		<tag k="ssr:hovedgruppe" v="infrastruktur" />
		<tag k="ssr:stedsnr" v="1082879" />
		<tag k="ssr:type" v="adressenavn" />
	</node>
	<node lat="60.82534635176089" lon="7.522324064109587" id="-79807">
		<tag k="name" v="Li" />
		<tag k="ssr:date" v="2021-11-11" />
		<tag k="ssr:gruppe" v="veg" />
		<tag k="ssr:hovedgruppe" v="infrastruktur" />
		<tag k="ssr:stedsnr" v="1082881" />
		<tag k="ssr:type" v="adressenavn" />
	</node>
</osm>
