<?xml version="1.0" encoding="UTF-8"?>
<<<<<<< HEAD
<osm version="0.6" generator="osmapis">
	<node lat="58.78551389134243" lon="5.9441416651459935" id="-11">
		<tag k="alt_name" v="Lima, indre" />
		<tag k="name" v="Indre Lima" />
		<tag k="place" v="farm" />
		<tag k="ssr:stedsnr" v="1562" />
	</node>
	<node lat="58.866955559865254" lon="6.561969452591301" id="-64">
		<tag k="historic" v="shieling" />
		<tag k="name" v="Øvstabøstølen" />
		<tag k="place" v="isolated_dwelling" />
		<tag k="ssr:stedsnr" v="61627" />
	</node>
	<node lat="58.7803746612598" lon="6.089889662391473" id="-71">
		<tag k="alt_name" v="Slettebø" />
		<tag k="name" v="Slettabø" />
		<tag k="place" v="farm" />
		<tag k="ssr:stedsnr" v="62574" />
	</node>
	<node lat="58.769640744498076" lon="5.984345149679093" id="-72">
		<tag k="alt_name" v="Halland" />
		<tag k="fixme" v="consider place=hamlet" />
		<tag k="name" v="Hadland" />
		<tag k="place" v="farm" />
		<tag k="ssr:stedsnr" v="62578" />
	</node>
	<node lat="58.76757791724449" lon="5.94559280925532" id="-73">
		<tag k="fixme" v="consider place=hamlet" />
		<tag k="name" v="Gjesdal" />
		<tag k="place" v="farm" />
		<tag k="ssr:stedsnr" v="62581" />
	</node>
	<node lat="58.719616666137796" lon="5.932444452211754" id="-86">
		<tag k="name" v="Kringlelia" />
		<tag k="place" v="farm" />
		<tag k="ssr:stedsnr" v="242370" />
	</node>
	<node lat="58.684410755765654" lon="5.984266566186542" id="-87">
		<tag k="fixme" v="consider place=hamlet" />
		<tag k="name" v="Søyland" />
		<tag k="place" v="farm" />
		<tag k="ssr:stedsnr" v="243446" />
	</node>
	<node lat="58.77233055717628" lon="5.893088885129047" id="-88">
		<tag k="alt_name" v="Lima, ytre;Lima ytre" />
		<tag k="name" v="Ytre Lima" />
		<tag k="place" v="farm" />
		<tag k="ssr:stedsnr" v="243217" />
	</node>
	<node lat="58.82764110508456" lon="6.194432813751711" id="-103">
		<tag k="fixme" v="consider place=hamlet" />
		<tag k="name" v="Holmen" />
		<tag k="place" v="farm" />
		<tag k="ssr:stedsnr" v="244535" />
	</node>
	<node lat="58.825124997252146" lon="6.415127782605277" id="-108">
		<tag k="name" v="Homma" />
		<tag k="place" v="isolated_dwelling" />
		<tag k="ssr:stedsnr" v="244844" />
	</node>
	<node lat="58.806716671080245" lon="6.261088886405289" id="-110">
		<tag k="name" v="Moen" />
		<tag k="place" v="farm" />
		<tag k="ssr:stedsnr" v="244851" />
	</node>
	<node lat="58.78352222188064" lon="5.9468861192356774" id="-125">
		<tag k="name" v="Knudavoll" />
=======
<osm generator="osmapis" version="0.6">
	<node id="-24061" lat="58.846619447" lon="6.34998056079">
		<tag k="name" v="Lindehaug" />
		<tag k="place" v="locality" />
		<tag k="ssr:stedsnr" v="646588" />
	</node>
	<node id="-23537" lat="58.7722555531" lon="5.83570832793">
		<tag k="fixme" v="consider place=suburb, village or hamlet" />
		<tag k="name" v="Holmen" />
		<tag k="place" v="quarter" />
		<tag k="ssr:stedsnr" v="205062" />
	</node>
	<node id="-23021" lat="58.8069444438" lon="6.24264444317">
		<tag k="alt_name" v="Lindland" />
		<tag k="name" v="Lindeland" />
		<tag k="place" v="farm" />
		<tag k="ssr:stedsnr" v="911835" />
	</node>
	<node id="-24044" lat="58.8385583336" lon="6.48699166673">
		<tag k="name" v="Gautøyna" />
		<tag k="place" v="locality" />
		<tag k="ssr:stedsnr" v="634374" />
	</node>
	<node id="-23014" lat="58.7633277782" lon="6.349158326">
		<tag k="alt_name" v="Maudal, øvre" />
		<tag k="fixme" v="consider place=hamlet" />
		<tag k="name" v="Øvre Maudal" />
		<tag k="place" v="village" />
		<tag k="ssr:stedsnr" v="911778" />
	</node>
	<node id="-24037" lat="58.7260472264" lon="5.97070000638">
		<tag k="name" v="Vodl" />
		<tag k="place" v="farm" />
		<tag k="ssr:stedsnr" v="629789" />
	</node>
	<node id="-23522" lat="58.8450972203" lon="6.2807888973">
		<tag k="alt_name" v="Øyri;Øyra" />
		<tag k="name" v="Øyren" />
		<tag k="place" v="farm" />
		<tag k="ssr:stedsnr" v="183660" />
	</node>
	<node id="-23519" lat="58.8460132001" lon="6.3725699416">
		<tag k="fixme" v="consider place=hamlet" />
		<tag k="name" v="Brådland" />
		<tag k="place" v="farm" />
		<tag k="ssr:stedsnr" v="183652" />
	</node>
	<node id="-23516" lat="58.7516526242" lon="5.90032569848">
		<tag k="fixme" v="consider place=hamlet" />
		<tag k="name" v="Skurve" />
		<tag k="place" v="farm" />
		<tag k="ssr:stedsnr" v="183600" />
	</node>
	<node id="-24027" lat="58.9151999986" lon="6.49467499207">
		<tag k="name" v="Litlestølen" />
		<tag k="place" v="locality" />
		<tag k="ssr:stedsnr" v="607727" />
	</node>
	<node id="-22607" lat="58.7609166669" lon="6.33081110739">
		<tag k="name" v="Lindland" />
		<tag k="place" v="farm" />
		<tag k="ssr:stedsnr" v="467558" />
	</node>
	<node id="-23512" lat="58.7664166705" lon="5.88113055485">
		<tag k="name" v="Fiskebekk" />
>>>>>>> e1d4bc35ff8a6074a6f2e91616a996b547c36f15
		<tag k="place" v="farm" />
		<tag k="ssr:stedsnr" v="183548" />
	</node>
<<<<<<< HEAD
	<node lat="58.80358672859804" lon="5.971479040342591" id="-174">
		<tag k="fixme" v="consider place=hamlet" />
		<tag k="name" v="Lomeland" />
		<tag k="place" v="farm" />
		<tag k="ssr:stedsnr" v="122508" />
	</node>
	<node lat="58.77318055566545" lon="6.032924995926478" id="-179">
		<tag k="name" v="Myrvoll" />
		<tag k="place" v="farm" />
		<tag k="ssr:stedsnr" v="122576" />
	</node>
	<node lat="58.75947009021706" lon="5.85020957880931" id="-180">
		<tag k="fixme" v="consider place=hamlet" />
		<tag k="name" v="Edland" />
		<tag k="place" v="farm" />
		<tag k="ssr:stedsnr" v="122589" />
	</node>
	<node lat="58.755357743521024" lon="6.014823665520442" id="-181">
		<tag k="alt_name" v="Hedland" />
		<tag k="fixme" v="consider place=hamlet" />
		<tag k="name" v="Helland" />
		<tag k="place" v="farm" />
		<tag k="ssr:stedsnr" v="122617" />
	</node>
	<node lat="58.76649166655378" lon="5.825366672117632" id="-184">
		<tag k="name" v="Røyseland" />
		<tag k="place" v="locality" />
		<tag k="ssr:stedsnr" v="145145" />
	</node>
	<node lat="58.73113055917439" lon="5.961566668200137" id="-201">
		<tag k="alt_name" v="Kålholen" />
		<tag k="name" v="Kolholen" />
		<tag k="place" v="farm" />
		<tag k="ssr:stedsnr" v="182397" />
	</node>
	<node lat="58.78961666469547" lon="5.9118805623863935" id="-207">
		<tag k="alt_name" v="Hodl" />
		<tag k="name" v="Holen" />
		<tag k="place" v="farm" />
		<tag k="ssr:stedsnr" v="183516" />
	</node>
	<node lat="58.84601320008273" lon="6.372569941597524" id="-210">
		<tag k="fixme" v="consider place=hamlet" />
		<tag k="name" v="Brådland" />
		<tag k="place" v="farm" />
		<tag k="ssr:stedsnr" v="183652" />
	</node>
	<node lat="58.72961944704735" lon="5.976222214461903" id="-264">
		<tag k="name" v="Aurgota" />
		<tag k="place" v="farm" />
		<tag k="ssr:stedsnr" v="242378" />
	</node>
	<node lat="58.808476330489256" lon="6.0123685860307985" id="-268">
		<tag k="alt_name" v="Haugamork" />
		<tag k="fixme" v="consider place=hamlet" />
		<tag k="name" v="Haugamorka" />
		<tag k="place" v="farm" />
		<tag k="ssr:stedsnr" v="243538" />
	</node>
	<node lat="58.827664140862204" lon="6.458634499366035" id="-270">
		<tag k="fixme" v="consider place=hamlet" />
		<tag k="name" v="Øvstabø" />
		<tag k="place" v="farm" />
		<tag k="ssr:stedsnr" v="244702" />
	</node>
	<node lat="58.79249444248613" lon="6.3348333288628" id="-290">
		<tag k="name" v="Ryggen" />
		<tag k="place" v="locality" />
		<tag k="ssr:stedsnr" v="271405" />
	</node>
	<node lat="58.824108333609594" lon="6.021477771961735" id="-294">
		<tag k="name" v="Grøde" />
		<tag k="place" v="quarter" />
		<tag k="ssr:stedsnr" v="283224" />
	</node>
	<node lat="58.83019986875624" lon="6.051142050050393" id="-313">
		<tag k="fixme" v="consider place=hamlet" />
		<tag k="name" v="Nedre Oltedal" />
		<tag k="place" v="farm" />
		<tag k="ssr:stedsnr" v="300084" />
	</node>
	<node lat="58.790938885946346" lon="5.933758328924902" id="-333">
		<tag k="alt_name" v="Bergje" />
		<tag k="name" v="Berge" />
		<tag k="place" v="farm" />
		<tag k="ssr:stedsnr" v="304215" />
	</node>
	<node lat="58.78098588542281" lon="6.061740094334551" id="-342">
		<tag k="fixme" v="consider place=hamlet" />
		<tag k="name" v="Vatne" />
		<tag k="place" v="farm" />
		<tag k="ssr:stedsnr" v="304591" />
	</node>
	<node lat="58.76416666519564" lon="5.852541668067607" id="-343">
		<tag k="name" v="Ålgård" />
		<tag k="place" v="village" />
		<tag k="ssr:stedsnr" v="304594" />
	</node>
	<node lat="58.76903821798028" lon="5.953031197835029" id="-344">
		<tag k="alt_name" v="Kyrkjevoll;Kjyrkjevoll" />
		<tag k="name" v="Gjesdal" />
		<tag k="place" v="farm" />
		<tag k="ssr:stedsnr" v="304598" />
	</node>
	<node lat="58.821106448185894" lon="6.028370851654172" id="-350">
		<tag k="alt_name" v="Øvre Oltedal" />
		<tag k="name" v="Oltedal" />
		<tag k="place" v="hamlet" />
		<tag k="ssr:stedsnr" v="304484" />
	</node>
	<node lat="58.758241671350234" lon="5.813275008151475" id="-357">
		<tag k="name" v="Edlandsheia" />
		<tag k="place" v="farm" />
		<tag k="ssr:stedsnr" v="304885" />
	</node>
	<node lat="58.84363409154345" lon="6.308926581508552" id="-360">
		<tag k="fixme" v="consider place=hamlet" />
		<tag k="name" v="Frafjord" />
		<tag k="place" v="farm" />
		<tag k="ssr:stedsnr" v="465562" />
	</node>
	<node lat="58.76134444272299" lon="6.351550007653111" id="-373">
		<tag k="name" v="Pletten" />
		<tag k="place" v="farm" />
		<tag k="ssr:stedsnr" v="467556" />
	</node>
	<node lat="58.76091666690608" lon="6.330811107386661" id="-374">
		<tag k="name" v="Lindland" />
		<tag k="place" v="farm" />
		<tag k="ssr:stedsnr" v="467558" />
	</node>
	<node lat="58.77967777995705" lon="6.314419438206468" id="-383">
		<tag k="name" v="Gloppedalsplasset" />
		<tag k="place" v="locality" />
		<tag k="ssr:stedsnr" v="343507" />
	</node>
	<node lat="58.737885402540826" lon="5.901019568035312" id="-401">
		<tag k="fixme" v="consider place=hamlet" />
		<tag k="name" v="Eidland" />
		<tag k="place" v="farm" />
		<tag k="ssr:stedsnr" v="364396" />
	</node>
	<node lat="58.694781776903454" lon="5.88390810603019" id="-402">
		<tag k="alt_name" v="Sikvaland, indra;Sikvaland, indre;Sikvaland indre" />
		<tag k="fixme" v="consider place=hamlet" />
		<tag k="name" v="Indra Sikvaland" />
		<tag k="place" v="farm" />
		<tag k="ssr:stedsnr" v="364502" />
	</node>
	<node lat="58.85499444459191" lon="6.264858329916698" id="-404">
		<tag k="alt_name" v="Frafjordstølen, yt" />
		<tag k="name" v="Ytre Frafjordstølen" />
		<tag k="place" v="locality" />
		<tag k="ssr:stedsnr" v="364657" />
	</node>
	<node lat="58.839226369938274" lon="6.1214061737954575" id="-411">
		<tag k="alt_name" v="Morkjå" />
=======
	<node id="-22998" lat="58.760355559" lon="6.00357499759">
		<tag k="name" v="Tjetland" />
		<tag k="place" v="farm" />
		<tag k="ssr:stedsnr" v="911612" />
	</node>
	<node id="-23509" lat="58.784978739" lon="6.02762170122">
		<tag k="fixme" v="consider place=hamlet" />
		<tag k="name" v="Nevland" />
		<tag k="place" v="farm" />
		<tag k="ssr:stedsnr" v="183527" />
	</node>
	<node id="-23508" lat="58.7895910051" lon="6.04807214667">
		<tag k="fixme" v="consider place=hamlet" />
		<tag k="name" v="Vølstad" />
		<tag k="place" v="farm" />
		<tag k="ssr:stedsnr" v="183526" />
	</node>
	<node id="-23507" lat="58.7896166647" lon="5.91188056239">
		<tag k="alt_name" v="Hodl" />
		<tag k="name" v="Holen" />
		<tag k="place" v="farm" />
		<tag k="ssr:stedsnr" v="183516" />
	</node>
	<node id="-23506" lat="58.8229007405" lon="6.2047448376">
		<tag k="fixme" v="consider place=hamlet" />
		<tag k="name" v="Steinskog" />
		<tag k="place" v="farm" />
		<tag k="ssr:stedsnr" v="183486" />
	</node>
	<node id="-23833" lat="58.7654222904" lon="5.83858647252">
		<tag k="alt_name" v="Berland" />
		<tag k="fixme" v="consider place=hamlet" />
		<tag k="name" v="Bærland" />
		<tag k="place" v="farm" />
		<tag k="ssr:stedsnr" v="426882" />
	</node>
	<node id="-23288" lat="58.7675779172" lon="5.94559280926">
		<tag k="fixme" v="consider place=hamlet" />
		<tag k="name" v="Gjesdal" />
		<tag k="place" v="farm" />
		<tag k="ssr:stedsnr" v="62581" />
	</node>
	<node id="-22476" lat="58.8700861103" lon="6.2825749924">
		<tag k="name" v="Hyttestølen" />
		<tag k="place" v="locality" />
		<tag k="ssr:stedsnr" v="486678" />
	</node>
	<node id="-23497" lat="58.7311305592" lon="5.9615666682">
		<tag k="alt_name" v="Kålholen" />
		<tag k="name" v="Kolholen" />
		<tag k="place" v="farm" />
		<tag k="ssr:stedsnr" v="182397" />
	</node>
	<node id="-22984" lat="58.7333833306" lon="5.96407778199">
		<tag k="alt_name" v="Skarsholen" />
		<tag k="name" v="Skardsholen" />
		<tag k="place" v="farm" />
		<tag k="ssr:stedsnr" v="910394" />
	</node>
	<node id="-22471" lat="58.7750794144" lon="5.90017227568">
		<tag k="alt_name" v="Lima, ytre" />
		<tag k="fixme" v="consider place=hamlet" />
		<tag k="name" v="Ytre Lima" />
		<tag k="place" v="farm" />
		<tag k="ssr:stedsnr" v="486574" />
	</node>
	<node id="-23494" lat="58.7378493425" lon="5.94319173646">
		<tag k="fixme" v="consider place=hamlet" />
		<tag k="name" v="Haraland" />
		<tag k="place" v="farm" />
		<tag k="ssr:stedsnr" v="182376" />
	</node>
	<node id="-22976" lat="58.8003388865" lon="6.26577777382">
		<tag k="name" v="Giljahagen" />
		<tag k="place" v="quarter" />
		<tag k="ssr:stedsnr" v="909567" />
	</node>
	<node id="-23992" lat="58.8217189966" lon="6.02800108484">
		<tag k="fixme" v="consider place=hamlet" />
		<tag k="name" v="Øvre Oltedal" />
		<tag k="place" v="farm" />
		<tag k="ssr:stedsnr" v="603058" />
	</node>
	<node id="-23476" lat="58.8362999964" lon="6.11871389733">
		<tag k="name" v="Kåsen" />
		<tag k="place" v="farm" />
		<tag k="ssr:stedsnr" v="178939" />
	</node>
	<node id="-22953" lat="58.7270451243" lon="5.97701265862">
		<tag k="fixme" v="consider place=hamlet" />
		<tag k="name" v="Kyllingstad" />
		<tag k="place" v="farm" />
		<tag k="ssr:stedsnr" v="728358" />
	</node>
	<node id="-23464" lat="58.7640555591" lon="6.34886943828">
		<tag k="name" v="Bekkjåkeren" />
		<tag k="place" v="farm" />
		<tag k="ssr:stedsnr" v="163500" />
	</node>
	<node id="-23974" lat="58.7981236473" lon="6.25134951981">
		<tag k="fixme" v="consider place=hamlet" />
		<tag k="name" v="Giljabrekka" />
		<tag k="place" v="farm" />
		<tag k="ssr:stedsnr" v="587376" />
	</node>
	<node id="-23454" lat="58.7824500006" lon="6.32232221557">
		<tag k="name" v="Storevoll" />
		<tag k="place" v="farm" />
		<tag k="ssr:stedsnr" v="161496" />
	</node>
	<node id="-23453" lat="58.7797138888" lon="6.32651389722">
		<tag k="name" v="Brualand" />
		<tag k="place" v="locality" />
		<tag k="ssr:stedsnr" v="161493" />
	</node>
	<node id="-23962" lat="58.8462055592" lon="6.30566388215">
		<tag k="name" v="Tuptene" />
		<tag k="place" v="farm" />
		<tag k="ssr:stedsnr" v="586583" />
	</node>
	<node id="-23448" lat="58.7664916666" lon="5.82536667212">
		<tag k="name" v="Røyseland" />
		<tag k="place" v="locality" />
		<tag k="ssr:stedsnr" v="145145" />
	</node>
	<node id="-23445" lat="58.7715277738" lon="5.9681361169">
		<tag k="name" v="Berget" />
		<tag k="place" v="farm" />
		<tag k="ssr:stedsnr" v="144957" />
	</node>
	<node id="-23440" lat="58.7266083368" lon="5.9812305605">
		<tag k="name" v="Klapperdalen" />
		<tag k="place" v="farm" />
		<tag k="ssr:stedsnr" v="144786" />
	</node>
	<node id="-23950" lat="58.7670166634" lon="5.95961945078">
		<tag k="name" v="Fidjane" />
		<tag k="place" v="farm" />
		<tag k="ssr:stedsnr" v="569976" />
	</node>
	<node id="-22411" lat="58.7909388859" lon="5.93375832892">
		<tag k="alt_name" v="Bergje" />
		<tag k="name" v="Berge" />
		<tag k="place" v="farm" />
		<tag k="ssr:stedsnr" v="304215" />
	</node>
	<node id="-23020" lat="58.8100499998" lon="6.48871389031">
		<tag k="name" v="Samslåtthytta" />
		<tag k="place" v="isolated_dwelling" />
		<tag k="ssr:stedsnr" v="911825" />
	</node>
	<node id="-22592" lat="58.7027250023" lon="6.00340832695">
		<tag k="alt_name" v="Noråsen" />
		<tag k="name" v="Nordåsen" />
		<tag k="place" v="farm" />
		<tag k="ssr:stedsnr" v="667464" />
	</node>
	<node id="-22904" lat="58.834038885" lon="6.18112500847">
		<tag k="fixme" v="consider place=hamlet" />
		<tag k="name" v="Dirdal" />
		<tag k="place" v="village" />
		<tag k="ssr:stedsnr" v="692858" />
	</node>
	<node id="-22901" lat="58.8286000029" lon="6.03686945064">
		<tag k="name" v="Oltedal" />
		<tag k="place" v="village" />
		<tag k="ssr:stedsnr" v="668646" />
	</node>
	<node id="-22899" lat="58.8446859853" lon="6.11954078286">
		<tag k="name" v="Øygarden" />
		<tag k="place" v="farm" />
		<tag k="ssr:stedsnr" v="668627" />
	</node>
	<node id="-22897" lat="58.7597861139" lon="6.01820000146">
		<tag k="name" v="Nordhei" />
		<tag k="place" v="farm" />
		<tag k="ssr:stedsnr" v="668623" />
	</node>
	<node id="-22896" lat="58.7739711047" lon="6.07328415444">
		<tag k="alt_name" v="Brekka;Brekkå" />
		<tag k="fixme" v="consider place=hamlet" />
		<tag k="name" v="Brekko" />
		<tag k="place" v="farm" />
		<tag k="ssr:stedsnr" v="668603" />
	</node>
	<node id="-22895" lat="58.7955382688" lon="5.99931956112">
		<tag k="alt_name" v="Ramndal" />
>>>>>>> e1d4bc35ff8a6074a6f2e91616a996b547c36f15
		<tag k="fixme" v="consider place=hamlet" />
		<tag k="name" v="Ravndal" />
		<tag k="place" v="farm" />
<<<<<<< HEAD
		<tag k="ssr:stedsnr" v="365643" />
	</node>
	<node lat="58.75859722147047" lon="5.895549995691042" id="-421">
		<tag k="name" v="Straumheia" />
		<tag k="place" v="farm" />
		<tag k="ssr:stedsnr" v="386065" />
	</node>
	<node lat="58.78926666389357" lon="5.906741671334854" id="-429">
		<tag k="name" v="Netland" />
		<tag k="place" v="locality" />
		<tag k="ssr:stedsnr" v="387023" />
	</node>
	<node lat="58.796269440525904" lon="6.451974997052092" id="-467">
		<tag k="historic" v="shieling" />
		<tag k="name" v="Mjålandsstølen" />
		<tag k="place" v="isolated_dwelling" />
		<tag k="ssr:stedsnr" v="485855" />
	</node>
	<node lat="58.775079414445095" lon="5.900172275676345" id="-475">
		<tag k="alt_name" v="Lima, ytre" />
		<tag k="fixme" v="consider place=hamlet" />
		<tag k="name" v="Ytre Lima" />
		<tag k="place" v="farm" />
		<tag k="ssr:stedsnr" v="486574" />
	</node>
	<node lat="58.87008611032074" lon="6.28257499239543" id="-480">
		<tag k="name" v="Hyttestølen" />
		<tag k="place" v="locality" />
		<tag k="ssr:stedsnr" v="486678" />
	</node>
	<node lat="58.81661388629493" lon="6.222125003923253" id="-493">
		<tag k="name" v="Neset" />
		<tag k="place" v="farm" />
		<tag k="ssr:stedsnr" v="423601" />
	</node>
	<node lat="58.77405555959231" lon="6.028400006945027" id="-504">
		<tag k="name" v="Solbakken" />
		<tag k="place" v="farm" />
		<tag k="ssr:stedsnr" v="426583" />
	</node>
	<node lat="58.924199998055805" lon="6.515686108399641" id="-505">
		<tag k="historic" v="shieling" />
		<tag k="name" v="Fidjastølen" />
		<tag k="place" v="isolated_dwelling" />
		<tag k="ssr:stedsnr" v="426708" />
	</node>
	<node lat="58.76542229038532" lon="5.838586472516614" id="-512">
		<tag k="alt_name" v="Berland" />
		<tag k="fixme" v="consider place=hamlet" />
		<tag k="name" v="Bærland" />
		<tag k="place" v="farm" />
		<tag k="ssr:stedsnr" v="426882" />
	</node>
	<node lat="58.68555796546684" lon="5.994150669480207" id="-547">
		<tag k="fixme" v="consider place=hamlet" />
		<tag k="name" v="Kydland" />
		<tag k="place" v="farm" />
		<tag k="ssr:stedsnr" v="485407" />
	</node>
	<node lat="58.849510307595885" lon="6.126176235121339" id="-552">
		<tag k="alt_name" v="Oltesvik" />
		<tag k="fixme" v="consider place=hamlet" />
		<tag k="name" v="Oltesvika" />
		<tag k="place" v="farm" />
		<tag k="ssr:stedsnr" v="486605" />
	</node>
	<node lat="58.834041420613794" lon="6.092412439664197" id="-557">
		<tag k="alt_name" v="Ragje" />
		<tag k="fixme" v="consider place=hamlet" />
		<tag k="name" v="Rage" />
		<tag k="place" v="farm" />
		<tag k="ssr:stedsnr" v="486640" />
	</node>
	<node lat="58.845128862243335" lon="6.35961288230418" id="-563">
		<tag k="fixme" v="consider place=hamlet" />
		<tag k="name" v="Kommedal" />
		<tag k="place" v="farm" />
		<tag k="ssr:stedsnr" v="486708" />
	</node>
	<node lat="58.72301110936608" lon="5.935730555480149" id="-574">
		<tag k="name" v="Tronslåttå" />
		<tag k="place" v="farm" />
		<tag k="ssr:stedsnr" v="508717" />
	</node>
	<node lat="58.72721944548722" lon="5.972933338079781" id="-578">
		<tag k="name" v="Krædjeberholen" />
		<tag k="place" v="farm" />
		<tag k="ssr:stedsnr" v="508816" />
	</node>
	<node lat="58.78863611159316" lon="5.92926666749512" id="-579">
		<tag k="name" v="Egrå" />
		<tag k="place" v="farm" />
		<tag k="ssr:stedsnr" v="509011" />
	</node>
	<node lat="58.928275003891294" lon="6.530047227548794" id="-585">
		<tag k="fixme" v="consider tourism=alpine_hut or tourism=chalet" />
		<tag k="name" v="Blåfjellenden" />
		<tag k="ssr:stedsnr" v="509114" />
		<tag k="tourism" v="wilderness_hut" />
	</node>
	<node lat="58.766488887835585" lon="5.951330550540336" id="-589">
		<tag k="name" v="Egrebakken" />
		<tag k="place" v="farm" />
		<tag k="ssr:stedsnr" v="509976" />
	</node>
	<node lat="58.85075555918627" lon="6.136363889943993" id="-607">
		<tag k="name" v="Plasset" />
		<tag k="place" v="locality" />
		<tag k="ssr:stedsnr" v="542887" />
	</node>
	<node lat="58.880938887562124" lon="6.4211777750461065" id="-623">
		<tag k="name" v="Månastølen" />
		<tag k="place" v="locality" />
		<tag k="ssr:stedsnr" v="546589" />
	</node>
	<node lat="58.93088611502724" lon="6.534763892439836" id="-627">
		<tag k="name" v="Blåfjellenden" />
		<tag k="place" v="isolated_dwelling" />
		<tag k="ssr:stedsnr" v="547722" />
	</node>
	<node lat="58.834072894321" lon="6.181124896540388" id="-647">
		<tag k="fixme" v="consider place=hamlet" />
		<tag k="name" v="Dirdal" />
		<tag k="place" v="village" />
		<tag k="ssr:stedsnr" v="692858" />
	</node>
	<node lat="58.7670166633557" lon="5.959619450777497" id="-661">
		<tag k="name" v="Fidjane" />
		<tag k="place" v="farm" />
		<tag k="ssr:stedsnr" v="569976" />
	</node>
	<node lat="58.82171899660666" lon="6.028001084836825" id="-684">
		<tag k="fixme" v="consider place=hamlet" />
		<tag k="name" v="Øvre Oltedal" />
		<tag k="place" v="farm" />
		<tag k="ssr:stedsnr" v="603058" />
	</node>
	<node lat="58.75796666822341" lon="5.812802776362435" id="-718">
		<tag k="name" v="Prestholen" />
		<tag k="place" v="farm" />
		<tag k="ssr:stedsnr" v="630153" />
	</node>
	<node lat="58.768977776397925" lon="5.852925005823293" id="-742">
		<tag k="name" v="Bruhammaren" />
		<tag k="place" v="quarter" />
		<tag k="ssr:stedsnr" v="707293" />
	</node>
	<node lat="58.78215555216296" lon="6.318105547897131" id="-746">
		<tag k="name" v="Der Heima" />
		<tag k="place" v="farm" />
		<tag k="ssr:stedsnr" v="707526" />
	</node>
	<node lat="58.81344622952778" lon="6.232528942014222" id="-780">
		<tag k="fixme" v="consider place=hamlet" />
		<tag k="name" v="Nødland" />
		<tag k="place" v="farm" />
		<tag k="ssr:stedsnr" v="668843" />
	</node>
	<node lat="58.76600833046263" lon="5.951719438470254" id="-816">
		<tag k="name" v="Bekkjen" />
		<tag k="place" v="farm" />
		<tag k="ssr:stedsnr" v="691981" />
	</node>
	<node lat="58.76753333401898" lon="5.943872223921041" id="-817">
		<tag k="name" v="Sirdalsholen" />
		<tag k="place" v="farm" />
		<tag k="ssr:stedsnr" v="691989" />
	</node>
	<node lat="58.824505551211516" lon="6.293711107890206" id="-830">
		<tag k="historic" v="shieling" />
		<tag k="name" v="Gamle Giljastølen" />
		<tag k="place" v="isolated_dwelling" />
		<tag k="ssr:stedsnr" v="708723" />
	</node>
	<node lat="58.818752774574826" lon="6.217172215283549" id="-852">
=======
		<tag k="ssr:stedsnr" v="668552" />
	</node>
	<node id="-22893" lat="58.7906084958" lon="5.93433708463">
		<tag k="alt_name" v="Bergje" />
		<tag k="fixme" v="consider place=hamlet" />
		<tag k="name" v="Berge" />
		<tag k="place" v="farm" />
		<tag k="ssr:stedsnr" v="668549" />
	</node>
	<node id="-23404" lat="58.7553577435" lon="6.01482366552">
		<tag k="alt_name" v="Hedland" />
		<tag k="fixme" v="consider place=hamlet" />
		<tag k="name" v="Helland" />
		<tag k="place" v="farm" />
		<tag k="ssr:stedsnr" v="122617" />
	</node>
	<node id="-23915" lat="58.8062293972" lon="6.37441875782">
		<tag k="fixme" v="consider place=hamlet" />
		<tag k="name" v="Motland" />
		<tag k="place" v="farm" />
		<tag k="ssr:stedsnr" v="547843" />
	</node>
	<node id="-23913" lat="58.930886115" lon="6.53476389244">
		<tag k="name" v="Blåfjellenden" />
		<tag k="place" v="isolated_dwelling" />
		<tag k="ssr:stedsnr" v="547722" />
	</node>
	<node id="-23399" lat="58.7594700902" lon="5.85020957881">
		<tag k="fixme" v="consider place=hamlet" />
		<tag k="name" v="Edland" />
		<tag k="place" v="farm" />
		<tag k="ssr:stedsnr" v="122589" />
	</node>
	<node id="-23398" lat="58.7731805557" lon="6.03292499593">
		<tag k="name" v="Myrvoll" />
		<tag k="place" v="farm" />
		<tag k="ssr:stedsnr" v="122576" />
	</node>
	<node id="-23397" lat="58.7808096951" lon="5.9898706085">
		<tag k="alt_name" v="Bjedland" />
		<tag k="fixme" v="consider place=hamlet" />
		<tag k="name" v="Bjelland" />
		<tag k="place" v="farm" />
		<tag k="ssr:stedsnr" v="122563" />
	</node>
	<node id="-23907" lat="58.7577299664" lon="5.98682294808">
		<tag k="fixme" v="consider place=hamlet" />
		<tag k="name" v="Tjetland" />
		<tag k="place" v="farm" />
		<tag k="ssr:stedsnr" v="547650" />
	</node>
	<node id="-23905" lat="58.7565680671" lon="5.8735286174">
		<tag k="fixme" v="consider place=hamlet" />
		<tag k="name" v="Nese" />
		<tag k="place" v="farm" />
		<tag k="ssr:stedsnr" v="547645" />
	</node>
	<node id="-23904" lat="58.7752944471" lon="6.09464722766">
		<tag k="name" v="Lomsvik" />
		<tag k="place" v="locality" />
		<tag k="ssr:stedsnr" v="547643" />
	</node>
	<node id="-22366" lat="58.7924944425" lon="6.33483332886">
		<tag k="name" v="Ryggen" />
		<tag k="place" v="locality" />
		<tag k="ssr:stedsnr" v="271405" />
	</node>
	<node id="-23389" lat="58.8035867286" lon="5.97147904034">
		<tag k="fixme" v="consider place=hamlet" />
		<tag k="name" v="Lomeland" />
		<tag k="place" v="farm" />
		<tag k="ssr:stedsnr" v="122508" />
	</node>
	<node id="-22362" lat="58.772625002" lon="5.9479388882">
		<tag k="alt_name" v="Kjyrkjebø" />
		<tag k="name" v="Kyrkjebø" />
		<tag k="place" v="farm" />
		<tag k="ssr:stedsnr" v="448969" />
	</node>
	<node id="-23383" lat="58.7104251127" lon="6.02004153477">
		<tag k="alt_name" v="Noråsen" />
		<tag k="fixme" v="consider place=hamlet" />
		<tag k="name" v="Nordåsen" />
		<tag k="place" v="farm" />
		<tag k="ssr:stedsnr" v="121497" />
	</node>
	<node id="-23893" lat="58.8809388876" lon="6.42117777505">
		<tag k="name" v="Månastølen" />
		<tag k="place" v="locality" />
		<tag k="ssr:stedsnr" v="546589" />
	</node>
	<node id="-23380" lat="58.7236888873" lon="5.89485556262">
		<tag k="name" v="Solheim" />
		<tag k="place" v="farm" />
		<tag k="ssr:stedsnr" v="121392" />
	</node>
	<node id="-22866" lat="58.7860333373" lon="6.24113055897">
		<tag k="alt_name" v="Stakkvik" />
		<tag k="name" v="Stakkavik" />
		<tag k="place" v="locality" />
		<tag k="ssr:stedsnr" v="729871" />
	</node>
	<node id="-22353" lat="58.8276641409" lon="6.45863449937">
		<tag k="fixme" v="consider place=hamlet" />
		<tag k="name" v="Øvstabø" />
		<tag k="place" v="farm" />
		<tag k="ssr:stedsnr" v="244702" />
	</node>
	<node id="-23888" lat="58.7162749964" lon="5.96678888567">
		<tag k="name" v="Solheim" />
		<tag k="place" v="farm" />
		<tag k="ssr:stedsnr" v="546443" />
	</node>
	<node id="-23887" lat="58.7257972225" lon="5.98130555747">
		<tag k="name" v="Kloppa" />
		<tag k="old_name" v="Klappa" />
		<tag k="place" v="farm" />
		<tag k="ssr:stedsnr" v="546355" />
	</node>
	<node id="-22584" lat="58.742159268" lon="5.94361855597">
		<tag k="fixme" v="consider place=hamlet" />
		<tag k="name" v="Auestad" />
		<tag k="place" v="farm" />
		<tag k="ssr:stedsnr" v="667375" />
	</node>
	<node id="-22859" lat="58.8133223084" lon="6.41166669832">
		<tag k="fixme" v="consider place=hamlet" />
		<tag k="name" v="Mjåland" />
		<tag k="place" v="farm" />
		<tag k="ssr:stedsnr" v="729825" />
	</node>
	<node id="-22856" lat="58.8435777752" lon="6.30541945248">
		<tag k="fixme" v="consider place=hamlet" />
		<tag k="name" v="Frafjord" />
		<tag k="place" v="village" />
		<tag k="ssr:stedsnr" v="729686" />
	</node>
	<node id="-22855" lat="58.8666750009" lon="6.34002499952">
		<tag k="historic" v="shieling" />
		<tag k="name" v="Hålandsstølen" />
		<tag k="place" v="locality" />
		<tag k="ssr:stedsnr" v="729674" />
	</node>
	<node id="-22338" lat="58.7723305572" lon="5.89308888513">
		<tag k="alt_name" v="Lima, ytre;Lima ytre" />
		<tag k="name" v="Ytre Lima" />
		<tag k="place" v="farm" />
		<tag k="ssr:stedsnr" v="243217" />
	</node>
	<node id="-23360" lat="58.7916694452" lon="6.13186944723">
		<tag k="fixme" v="consider tourism=alpine_hut or tourism=chalet" />
		<tag k="name" v="Fisketjønnbu" />
		<tag k="ssr:stedsnr" v="120571" />
		<tag k="tourism" v="wilderness_hut" />
	</node>
	<node id="-22847" lat="58.7614055581" lon="6.01224999173">
		<tag k="name" v="Kvernaheia" />
		<tag k="place" v="farm" />
		<tag k="ssr:stedsnr" v="729610" />
	</node>
	<node id="-22846" lat="58.7661191699" lon="5.91458862872">
		<tag k="alt_name" v="Klugje;Klugje øvre" />
		<tag k="name" v="Øvrakluge" />
		<tag k="place" v="farm" />
		<tag k="ssr:stedsnr" v="729583" />
	</node>
	<node id="-22332" lat="58.7196166661" lon="5.93244445221">
		<tag k="name" v="Kringlelia" />
		<tag k="place" v="farm" />
		<tag k="ssr:stedsnr" v="242370" />
	</node>
	<node id="-22839" lat="58.7913972204" lon="5.91362500505">
		<tag k="alt_name" v="Bakkjen" />
		<tag k="name" v="Bakken" />
		<tag k="place" v="farm" />
		<tag k="ssr:stedsnr" v="729537" />
	</node>
	<node id="-22838" lat="58.8187527746" lon="6.21717221528">
>>>>>>> e1d4bc35ff8a6074a6f2e91616a996b547c36f15
		<tag k="name" v="Kjervoll" />
		<tag k="place" v="farm" />
		<tag k="ssr:stedsnr" v="729517" />
	</node>
<<<<<<< HEAD
	<node lat="58.79139722035927" lon="5.913625005053464" id="-853">
		<tag k="alt_name" v="Bakkjen" />
		<tag k="name" v="Bakken" />
		<tag k="place" v="farm" />
		<tag k="ssr:stedsnr" v="729537" />
	</node>
	<node lat="58.7661191698665" lon="5.914588628718828" id="-860">
		<tag k="alt_name" v="Klugje;Klugje øvre" />
		<tag k="name" v="Øvrakluge" />
		<tag k="place" v="farm" />
		<tag k="ssr:stedsnr" v="729583" />
	</node>
	<node lat="58.76140555809693" lon="6.01224999173409" id="-861">
		<tag k="name" v="Kvernaheia" />
		<tag k="place" v="farm" />
		<tag k="ssr:stedsnr" v="729610" />
	</node>
	<node lat="58.813322308403016" lon="6.411666698319193" id="-864">
		<tag k="fixme" v="consider place=hamlet" />
		<tag k="name" v="Mjåland" />
		<tag k="place" v="farm" />
		<tag k="ssr:stedsnr" v="729825" />
	</node>
	<node lat="58.781511113149406" lon="6.322850005230556" id="-869">
		<tag k="fixme" v="consider place=hamlet" />
		<tag k="name" v="Byrkjedal" />
		<tag k="place" v="village" />
		<tag k="ssr:stedsnr" v="729847" />
	</node>
	<node lat="58.800338886522795" lon="6.265777773824994" id="-910">
		<tag k="name" v="Giljahagen" />
		<tag k="place" v="quarter" />
		<tag k="ssr:stedsnr" v="909567" />
	</node>
	<node lat="58.73338333058804" lon="5.964077781990632" id="-916">
		<tag k="alt_name" v="Skarsholen" />
		<tag k="name" v="Skardsholen" />
		<tag k="place" v="farm" />
		<tag k="ssr:stedsnr" v="910394" />
	</node>
	<node lat="58.685455555689806" lon="5.992449996575811" id="-917">
		<tag k="name" v="Kydland" />
		<tag k="place" v="hamlet" />
		<tag k="ssr:stedsnr" v="910449" />
	</node>
	<node lat="58.76932729403333" lon="5.945589422864576" id="-934">
		<tag k="name" v="Gjesdal" />
		<tag k="place" v="farm" />
		<tag k="ssr:stedsnr" v="911240" />
	</node>
	<node lat="58.77117499797079" lon="5.97671943735797" id="-947">
		<tag k="alt_name" v="Hallandsmoen" />
		<tag k="name" v="Moen" />
		<tag k="place" v="farm" />
		<tag k="ssr:stedsnr" v="790618" />
	</node>
	<node lat="58.76332777815225" lon="6.349158326003387" id="-953">
		<tag k="alt_name" v="Maudal, øvre" />
		<tag k="fixme" v="consider place=hamlet" />
		<tag k="name" v="Øvre Maudal" />
		<tag k="place" v="village" />
		<tag k="ssr:stedsnr" v="911778" />
	</node>
	<node lat="58.76035555902376" lon="6.003574997593491" id="-956">
		<tag k="name" v="Tjetland" />
		<tag k="place" v="farm" />
		<tag k="ssr:stedsnr" v="911612" />
	</node>
	<node lat="58.77753888792796" lon="5.841402785683286" id="-977">
		<tag k="name" v="Kongeparken" />
		<tag k="ssr:stedsnr" v="815925" />
		<tag k="tourism" v="theme_park" />
	</node>
	<node lat="58.73518889174872" lon="5.954863881213307" id="-1006">
		<tag k="alt_name" v="Tøket" />
		<tag k="name" v="Tøgje" />
		<tag k="old_name" v="Tøkje" />
		<tag k="place" v="farm" />
		<tag k="ssr:stedsnr" v="849412" />
	</node>
	<node lat="58.80698333151786" lon="6.258986109154569" id="-1025">
		<tag k="fixme" v="consider place=hamlet" />
		<tag k="name" v="Gilja" />
		<tag k="place" v="village" />
		<tag k="ssr:stedsnr" v="851818" />
	</node>
	<node lat="58.810049999765695" lon="6.4887138903069825" id="-1079">
		<tag k="name" v="Samslåtthytta" />
		<tag k="place" v="isolated_dwelling" />
		<tag k="ssr:stedsnr" v="911825" />
	</node>
	<node lat="58.806944443848515" lon="6.24264444317258" id="-1080">
		<tag k="alt_name" v="Lindland" />
		<tag k="name" v="Lindeland" />
		<tag k="place" v="farm" />
		<tag k="ssr:stedsnr" v="911835" />
	</node>
	<node lat="58.86604721928769" lon="6.56079721857593" id="-1099">
		<tag k="name" v="Øvstabødalen" />
		<tag k="place" v="neighbourhood" />
		<tag k="ssr:stedsnr" v="950278" />
	</node>
	<node lat="58.865530556976765" lon="6.4593861024480805" id="-1139">
		<tag k="historic" v="shieling" />
		<tag k="name" v="Brådlandsstølen" />
		<tag k="place" v="isolated_dwelling" />
		<tag k="ssr:stedsnr" v="637" />
	</node>
	<node lat="58.78081111077836" lon="6.059336114338147" id="-1145">
		<tag k="name" v="Stølshei" />
		<tag k="place" v="farm" />
		<tag k="ssr:stedsnr" v="1579" />
	</node>
	<node lat="58.80755833358162" lon="6.373744445329657" id="-1162">
		<tag k="name" v="Motland" />
		<tag k="place" v="farm" />
		<tag k="ssr:stedsnr" v="24697" />
	</node>
	<node lat="58.76864722682832" lon="5.874841673604053" id="-1173">
		<tag k="name" v="Fiskebekk" />
		<tag k="place" v="quarter" />
		<tag k="ssr:stedsnr" v="40283" />
	</node>
	<node lat="58.78502221973557" lon="6.321119450243947" id="-1178">
		<tag k="name" v="Grabakken" />
		<tag k="place" v="locality" />
		<tag k="ssr:stedsnr" v="40533" />
	</node>
	<node lat="58.81583888509991" lon="6.217786103130774" id="-1194">
		<tag k="amenity" v="school" />
		<tag k="name" v="Dirdal" />
		<tag k="ssr:stedsnr" v="59539" />
	</node>
	<node lat="58.85978358892804" lon="6.39255708590751" id="-1207">
		<tag k="fixme" v="consider place=hamlet" />
		<tag k="name" v="Mån" />
		<tag k="place" v="farm" />
		<tag k="ssr:stedsnr" v="61649" />
	</node>
	<node lat="58.90706117529092" lon="6.473725924030389" id="-1208">
		<tag k="fixme" v="consider place=hamlet" />
		<tag k="name" v="Fed" />
		<tag k="place" v="farm" />
		<tag k="ssr:stedsnr" v="61740" />
	</node>
	<node lat="58.766586107898405" lon="5.8706500011579035" id="-1230">
		<tag k="fixme" v="consider place=suburb, village or hamlet" />
		<tag k="name" v="Fiske" />
		<tag k="place" v="quarter" />
		<tag k="ssr:stedsnr" v="83058" />
	</node>
	<node lat="58.69698333609999" lon="5.887344436639399" id="-1233">
		<tag k="alt_name" v="Sikvaland indre;Indre Sikvaland" />
		<tag k="name" v="Indra Sikvaland" />
		<tag k="place" v="farm" />
		<tag k="ssr:stedsnr" v="83223" />
	</node>
	<node lat="58.72368888725223" lon="5.894855562619757" id="-1277">
		<tag k="name" v="Solheim" />
		<tag k="place" v="farm" />
		<tag k="ssr:stedsnr" v="121392" />
	</node>
	<node lat="58.710425112713935" lon="6.020041534771789" id="-1278">
		<tag k="alt_name" v="Noråsen" />
		<tag k="fixme" v="consider place=hamlet" />
		<tag k="name" v="Nordåsen" />
		<tag k="place" v="farm" />
		<tag k="ssr:stedsnr" v="121497" />
	</node>
	<node lat="58.780809695069124" lon="5.989870608497102" id="-1290">
		<tag k="alt_name" v="Bjedland" />
		<tag k="fixme" v="consider place=hamlet" />
		<tag k="name" v="Bjelland" />
		<tag k="place" v="farm" />
		<tag k="ssr:stedsnr" v="122563" />
	</node>
	<node lat="58.72660833677927" lon="5.9812305605035645" id="-1321">
		<tag k="name" v="Klapperdalen" />
		<tag k="place" v="farm" />
		<tag k="ssr:stedsnr" v="144786" />
	</node>
	<node lat="58.77152777377957" lon="5.968136116897717" id="-1334">
		<tag k="name" v="Berget" />
		<tag k="place" v="farm" />
		<tag k="ssr:stedsnr" v="144957" />
	</node>
	<node lat="58.779713888821874" lon="6.326513897220607" id="-1344">
		<tag k="name" v="Brualand" />
		<tag k="place" v="locality" />
		<tag k="ssr:stedsnr" v="161493" />
	</node>
	<node lat="58.78245000057349" lon="6.3223222155685885" id="-1345">
		<tag k="name" v="Storevoll" />
		<tag k="place" v="farm" />
		<tag k="ssr:stedsnr" v="161496" />
	</node>
	<node lat="58.76405555913117" lon="6.348869438279578" id="-1355">
		<tag k="name" v="Bekkjåkeren" />
		<tag k="place" v="farm" />
		<tag k="ssr:stedsnr" v="163500" />
	</node>
	<node lat="58.83629999641544" lon="6.118713897333167" id="-1366">
		<tag k="name" v="Kåsen" />
		<tag k="place" v="farm" />
		<tag k="ssr:stedsnr" v="178939" />
	</node>
	<node lat="58.73784934245086" lon="5.943191736455563" id="-1389">
		<tag k="fixme" v="consider place=hamlet" />
		<tag k="name" v="Haraland" />
		<tag k="place" v="farm" />
		<tag k="ssr:stedsnr" v="182376" />
	</node>
	<node lat="58.751652624162254" lon="5.900325698478406" id="-1396">
		<tag k="fixme" v="consider place=hamlet" />
		<tag k="name" v="Skurve" />
		<tag k="place" v="farm" />
		<tag k="ssr:stedsnr" v="183600" />
	</node>
	<node lat="58.84509722027284" lon="6.280788897303711" id="-1399">
		<tag k="alt_name" v="Øyri;Øyra" />
		<tag k="name" v="Øyren" />
		<tag k="place" v="farm" />
		<tag k="ssr:stedsnr" v="183660" />
	</node>
	<node lat="58.82290074051442" lon="6.20474483760221" id="-1406">
		<tag k="fixme" v="consider place=hamlet" />
		<tag k="name" v="Steinskog" />
		<tag k="place" v="farm" />
		<tag k="ssr:stedsnr" v="183486" />
	</node>
	<node lat="58.789591005066654" lon="6.04807214667277" id="-1407">
		<tag k="fixme" v="consider place=hamlet" />
		<tag k="name" v="Vølstad" />
		<tag k="place" v="farm" />
		<tag k="ssr:stedsnr" v="183526" />
	</node>
	<node lat="58.78497873904363" lon="6.027621701219177" id="-1408">
		<tag k="fixme" v="consider place=hamlet" />
		<tag k="name" v="Nevland" />
		<tag k="place" v="farm" />
		<tag k="ssr:stedsnr" v="183527" />
	</node>
	<node lat="58.766416670530056" lon="5.881130554846286" id="-1411">
		<tag k="name" v="Fiskebekk" />
		<tag k="place" v="farm" />
		<tag k="ssr:stedsnr" v="183548" />
	</node>
	<node lat="58.77225555305231" lon="5.835708327933775" id="-1418">
		<tag k="fixme" v="consider place=suburb, village or hamlet" />
		<tag k="name" v="Holmen" />
		<tag k="place" v="quarter" />
		<tag k="ssr:stedsnr" v="205062" />
	</node>
	<node lat="58.81545833268601" lon="5.995927769826661" id="-1426">
		<tag k="alt_name" v="ovre Oltedal" />
		<tag k="name" v="Øvre Oltedal" />
		<tag k="place" v="farm" />
		<tag k="ssr:stedsnr" v="205958" />
	</node>
	<node lat="58.78035704867721" lon="6.320570659464532" id="-1442">
		<tag k="fixme" v="consider place=hamlet" />
		<tag k="name" v="Byrkjedal" />
		<tag k="place" v="farm" />
		<tag k="ssr:stedsnr" v="224331" />
	</node>
	<node lat="58.82952500276143" lon="6.46147777882519" id="-1479">
		<tag k="name" v="Austbø" />
		<tag k="place" v="farm" />
		<tag k="ssr:stedsnr" v="302094" />
	</node>
	<node lat="58.809777774387655" lon="6.232488886398891" id="-1484">
		<tag k="name" v="Fredheim" />
		<tag k="place" v="farm" />
		<tag k="ssr:stedsnr" v="304849" />
	</node>
	<node lat="58.72201389047079" lon="5.973544440103729" id="-1498">
		<tag k="alt_name" v="Sør i heio" />
		<tag k="name" v="Sør i heia" />
		<tag k="old_name" v="Sørheim" />
		<tag k="place" v="farm" />
		<tag k="ssr:stedsnr" v="303384" />
	</node>
	<node lat="58.787727781399276" lon="6.029394440870939" id="-1510">
		<tag k="name" v="Tobakken" />
		<tag k="place" v="farm" />
		<tag k="ssr:stedsnr" v="304565" />
	</node>
	<node lat="58.77470000101973" lon="6.485886110894682" id="-1520">
		<tag k="historic" v="shieling" />
		<tag k="name" v="Jensastølen" />
		<tag k="place" v="isolated_dwelling" />
		<tag k="ssr:stedsnr" v="304781" />
	</node>
	<node lat="58.8101454699085" lon="6.245869832141605" id="-1521">
		<tag k="fixme" v="consider place=hamlet" />
		<tag k="name" v="Kvitaland" />
		<tag k="place" v="farm" />
		<tag k="ssr:stedsnr" v="304859" />
	</node>
	<node lat="58.773861114913856" lon="5.899816671473743" id="-1526">
		<tag k="name" v="Tegavollen" />
		<tag k="place" v="farm" />
		<tag k="ssr:stedsnr" v="326075" />
	</node>
	<node lat="58.77160277991609" lon="5.951844440548236" id="-1535">
		<tag k="name" v="Leide" />
=======
	<node id="-23858" lat="58.8507555592" lon="6.13636388994">
		<tag k="name" v="Plasset" />
		<tag k="place" v="locality" />
		<tag k="ssr:stedsnr" v="542887" />
	</node>
	<node id="-22833" lat="58.7764968376" lon="5.85404406307">
		<tag k="fixme" v="consider place=hamlet" />
		<tag k="name" v="Ålgård" />
		<tag k="place" v="farm" />
		<tag k="ssr:stedsnr" v="729561" />
	</node>
	<node id="-23855" lat="58.8480205777" lon="6.36490645969">
		<tag k="name" v="Fladebrot" />
		<tag k="place" v="locality" />
		<tag k="ssr:stedsnr" v="542688" />
	</node>
	<node id="-22823" lat="58.7853166645" lon="5.94470277246">
		<tag k="name" v="Store vodl" />
		<tag k="place" v="farm" />
		<tag k="ssr:stedsnr" v="630917" />
	</node>
	<node id="-22821" lat="58.7579666682" lon="5.81280277636">
		<tag k="name" v="Prestholen" />
		<tag k="place" v="farm" />
		<tag k="ssr:stedsnr" v="630153" />
	</node>
	<node id="-24351" lat="58.8278132713" lon="6.28425705528">
		<tag k="fixme" v="consider place=hamlet" />
		<tag k="name" v="Moen" />
		<tag k="place" v="farm" />
		<tag k="ssr:stedsnr" v="1071928" />
	</node>
	<node id="-22813" lat="58.7797888881" lon="6.31620000823">
		<tag k="name" v="Byrkjedalstunet" />
		<tag k="place" v="quarter" />
		<tag k="ssr:stedsnr" v="627094" />
	</node>
	<node id="-23835" lat="58.7720444405" lon="5.86154166509">
		<tag k="name" v="Husafjellet" />
		<tag k="place" v="quarter" />
		<tag k="ssr:stedsnr" v="525297" />
	</node>
	<node id="-24345" lat="58.7672736388" lon="5.91285789306">
		<tag k="alt_name" v="Klugje" />
		<tag k="fixme" v="consider place=hamlet" />
		<tag k="name" v="Kluge" />
		<tag k="place" v="farm" />
		<tag k="ssr:stedsnr" v="972954" />
	</node>
	<node id="-23826" lat="58.8157861083" lon="6.53087778396">
		<tag k="name" v="Reinshølhytta" />
		<tag k="place" v="isolated_dwelling" />
		<tag k="ssr:stedsnr" v="426821" />
	</node>
	<node id="-23824" lat="58.7740555596" lon="6.02840000695">
		<tag k="name" v="Solbakken" />
		<tag k="place" v="farm" />
		<tag k="ssr:stedsnr" v="426583" />
	</node>
	<node id="-23311" lat="58.7835222219" lon="5.94688611924">
		<tag k="name" v="Knudavoll" />
		<tag k="place" v="farm" />
		<tag k="ssr:stedsnr" v="84946" />
	</node>
	<node id="-23822" lat="58.78234137" lon="6.08349443534">
		<tag k="fixme" v="consider place=hamlet" />
		<tag k="name" v="Madland" />
		<tag k="place" v="farm" />
		<tag k="ssr:stedsnr" v="426566" />
	</node>
	<node id="-22283" lat="58.8241083336" lon="6.02147777196">
		<tag k="name" v="Grøde" />
		<tag k="place" v="quarter" />
		<tag k="ssr:stedsnr" v="283224" />
	</node>
	<node id="-22792" lat="58.8205631559" lon="6.43284941854">
		<tag k="alt_name" v="Rettland" />
		<tag k="fixme" v="consider place=hamlet" />
		<tag k="name" v="Retland" />
		<tag k="place" v="farm" />
		<tag k="ssr:stedsnr" v="607825" />
	</node>
	<node id="-22789" lat="58.7555072897" lon="6.3219756167">
		<tag k="alt_name" v="Maudal, nedre" />
		<tag k="fixme" v="consider place=hamlet" />
		<tag k="name" v="Nedre Maudal" />
		<tag k="place" v="farm" />
		<tag k="ssr:stedsnr" v="607774" />
	</node>
	<node id="-23298" lat="58.6969833361" lon="5.88734443664">
		<tag k="alt_name" v="Sikvaland indre;Indre Sikvaland" />
		<tag k="name" v="Indra Sikvaland" />
		<tag k="place" v="farm" />
		<tag k="ssr:stedsnr" v="83223" />
	</node>
	<node id="-23802" lat="58.7917527823" lon="6.38306389711">
		<tag k="historic" v="shieling" />
		<tag k="name" v="Byrkjedalsstølen" />
		<tag k="place" v="locality" />
		<tag k="ssr:stedsnr" v="425867" />
	</node>
	<node id="-24312" lat="58.7662694485" lon="6.39619723048">
		<tag k="name" v="Bualøa" />
		<tag k="place" v="locality" />
		<tag k="ssr:stedsnr" v="951248" />
	</node>
	<node id="-23287" lat="58.7696407445" lon="5.98434514968">
		<tag k="alt_name" v="Halland" />
		<tag k="fixme" v="consider place=hamlet" />
		<tag k="name" v="Hadland" />
		<tag k="place" v="farm" />
		<tag k="ssr:stedsnr" v="62578" />
	</node>
	<node id="-23286" lat="58.7803746613" lon="6.08988966239">
		<tag k="alt_name" v="Slettebø" />
		<tag k="name" v="Slettabø" />
		<tag k="place" v="farm" />
		<tag k="ssr:stedsnr" v="62574" />
	</node>
	<node id="-23797" lat="58.8166138863" lon="6.22212500392">
		<tag k="name" v="Neset" />
		<tag k="place" v="farm" />
		<tag k="ssr:stedsnr" v="423601" />
	</node>
	<node id="-22771" lat="58.7650326389" lon="6.34900905254">
		<tag k="fixme" v="consider place=hamlet" />
		<tag k="name" v="Øvre Maudal" />
		<tag k="place" v="farm" />
		<tag k="ssr:stedsnr" v="585666" />
	</node>
	<node id="-22768" lat="58.7807499974" lon="6.32101666621">
		<tag k="name" v="Moen" />
		<tag k="place" v="farm" />
		<tag k="ssr:stedsnr" v="585480" />
	</node>
	<node id="-23275" lat="58.9070611753" lon="6.47372592403">
		<tag k="fixme" v="consider place=hamlet" />
		<tag k="name" v="Fed" />
		<tag k="place" v="farm" />
		<tag k="ssr:stedsnr" v="61740" />
	</node>
	<node id="-23272" lat="58.8597835889" lon="6.39255708591">
		<tag k="fixme" v="consider place=hamlet" />
		<tag k="name" v="Mån" />
		<tag k="place" v="farm" />
		<tag k="ssr:stedsnr" v="61649" />
	</node>
	<node id="-23269" lat="58.8669555599" lon="6.56196945259">
		<tag k="historic" v="shieling" />
		<tag k="name" v="Øvstabøstølen" />
		<tag k="place" v="locality" />
		<tag k="ssr:stedsnr" v="61627" />
	</node>
	<node id="-22752" lat="58.8245055512" lon="6.29371110789">
		<tag k="historic" v="shieling" />
		<tag k="name" v="Gamle Giljastølen" />
		<tag k="place" v="locality" />
		<tag k="ssr:stedsnr" v="708723" />
	</node>
	<node id="-23768" lat="58.7893596943" lon="6.04232127605">
		<tag k="name" v="Steinbu" />
		<tag k="place" v="farm" />
		<tag k="ssr:stedsnr" v="404730" />
	</node>
	<node id="-22649" lat="58.8451288622" lon="6.3596128823">
		<tag k="fixme" v="consider place=hamlet" />
		<tag k="name" v="Kommedal" />
		<tag k="place" v="farm" />
		<tag k="ssr:stedsnr" v="486708" />
	</node>
	<node id="-22597" lat="58.8436340915" lon="6.30892658151">
		<tag k="fixme" v="consider place=hamlet" />
		<tag k="name" v="Frafjord" />
		<tag k="place" v="farm" />
		<tag k="ssr:stedsnr" v="465562" />
	</node>
	<node id="-22738" lat="58.7821555522" lon="6.3181055479">
		<tag k="name" v="Der Heima" />
		<tag k="place" v="farm" />
		<tag k="ssr:stedsnr" v="707526" />
	</node>
	<node id="-22864" lat="58.7815111131" lon="6.32285000523">
		<tag k="fixme" v="consider place=hamlet" />
		<tag k="name" v="Byrkjedal" />
		<tag k="place" v="village" />
		<tag k="ssr:stedsnr" v="729847" />
	</node>
	<node id="-23755" lat="58.7892666639" lon="5.90674167133">
		<tag k="name" v="Netland" />
		<tag k="place" v="locality" />
		<tag k="ssr:stedsnr" v="387023" />
	</node>
	<node id="-24264" lat="58.7351888917" lon="5.95486388121">
		<tag k="alt_name" v="Tøket" />
		<tag k="name" v="Tøgje" />
		<tag k="old_name" v="Tøkje" />
		<tag k="place" v="farm" />
		<tag k="ssr:stedsnr" v="849412" />
	</node>
	<node id="-22727" lat="58.7689777764" lon="5.85292500582">
		<tag k="name" v="Bruhammaren" />
		<tag k="place" v="quarter" />
		<tag k="ssr:stedsnr" v="707293" />
	</node>
	<node id="-22540" lat="58.7272194455" lon="5.97293333808">
		<tag k="name" v="Krædjeberholen" />
		<tag k="place" v="farm" />
		<tag k="ssr:stedsnr" v="508816" />
	</node>
	<node id="-23747" lat="58.6851055588" lon="5.99268888687">
		<tag k="name" v="Moen" />
		<tag k="place" v="farm" />
		<tag k="ssr:stedsnr" v="386327" />
	</node>
	<node id="-23234" lat="58.8301998688" lon="6.05114205005">
		<tag k="fixme" v="consider place=hamlet" />
		<tag k="name" v="Nedre Oltedal" />
		<tag k="place" v="farm" />
		<tag k="ssr:stedsnr" v="300084" />
	</node>
	<node id="-23243" lat="58.8158388851" lon="6.21778610313">
		<tag k="amenity" v="school" />
		<tag k="name" v="Dirdal" />
		<tag k="ssr:stedsnr" v="59539" />
	</node>
	<node id="-23742" lat="58.7585972215" lon="5.89554999569">
		<tag k="name" v="Straumheia" />
		<tag k="place" v="farm" />
		<tag k="ssr:stedsnr" v="386065" />
	</node>
	<node id="-23741" lat="58.8238111147" lon="6.29313333627">
		<tag k="historic" v="shieling" />
		<tag k="name" v="Giljastølen" />
		<tag k="place" v="locality" />
		<tag k="ssr:stedsnr" v="384109" />
	</node>
	<node id="-22202" lat="58.7665861079" lon="5.87065000116">
		<tag k="fixme" v="consider place=suburb, village or hamlet" />
		<tag k="name" v="Fiske" />
		<tag k="place" v="quarter" />
		<tag k="ssr:stedsnr" v="83058" />
	</node>
	<node id="-22200" lat="58.8067166711" lon="6.26108888641">
		<tag k="name" v="Moen" />
		<tag k="place" v="farm" />
		<tag k="ssr:stedsnr" v="244851" />
	</node>
	<node id="-22198" lat="58.8251249973" lon="6.41512778261">
		<tag k="name" v="Homma" />
		<tag k="place" v="isolated_dwelling" />
		<tag k="ssr:stedsnr" v="244844" />
	</node>
	<node id="-22709" lat="58.767533334" lon="5.94387222392">
		<tag k="name" v="Sirdalsholen" />
		<tag k="place" v="farm" />
		<tag k="ssr:stedsnr" v="691989" />
	</node>
	<node id="-22708" lat="58.7660083305" lon="5.95171943847">
		<tag k="name" v="Bekkjen" />
>>>>>>> e1d4bc35ff8a6074a6f2e91616a996b547c36f15
		<tag k="place" v="farm" />
		<tag k="ssr:stedsnr" v="691981" />
	</node>
<<<<<<< HEAD
	<node lat="58.768458337077305" lon="5.948299992899006" id="-1538">
		<tag k="name" v="Torvholen" />
		<tag k="place" v="farm" />
		<tag k="ssr:stedsnr" v="327977" />
	</node>
	<node lat="58.80331474059462" lon="6.2695499685200184" id="-1542">
		<tag k="fixme" v="consider place=hamlet" />
		<tag k="name" v="Gilja" />
		<tag k="place" v="farm" />
		<tag k="ssr:stedsnr" v="341339" />
	</node>
	<node lat="58.77750555612785" lon="6.492458335163774" id="-1555">
		<tag k="name" v="Andersbu" />
		<tag k="place" v="isolated_dwelling" />
		<tag k="ssr:stedsnr" v="343928" />
	</node>
	<node lat="58.803209792628664" lon="6.214114294125135" id="-1592">
		<tag k="historic" v="shieling" />
		<tag k="loc_name" v="Dokkolstølen" />
		<tag k="name" v="Dokkollstølen" />
		<tag k="place" v="isolated_dwelling" />
		<tag k="ssr:stedsnr" v="362556" />
	</node>
	<node lat="58.87661111172526" lon="6.353869443804425" id="-1617">
		<tag k="name" v="Eikjeskogstølen" />
		<tag k="place" v="locality" />
		<tag k="ssr:stedsnr" v="364636" />
	</node>
	<node lat="58.84714363994712" lon="6.359439171570435" id="-1627">
		<tag k="fixme" v="consider place=hamlet" />
		<tag k="name" v="Håland" />
		<tag k="place" v="farm" />
		<tag k="ssr:stedsnr" v="365668" />
	</node>
	<node lat="58.82381111474423" lon="6.293133336272833" id="-1634">
		<tag k="historic" v="shieling" />
		<tag k="name" v="Giljastølen" />
		<tag k="place" v="isolated_dwelling" />
		<tag k="ssr:stedsnr" v="384109" />
	</node>
	<node lat="58.68510555880425" lon="5.992688886867006" id="-1640">
		<tag k="name" v="Moen" />
		<tag k="place" v="farm" />
		<tag k="ssr:stedsnr" v="386327" />
	</node>
	<node lat="58.78935969430575" lon="6.0423212760471605" id="-1657">
		<tag k="name" v="Steinbu" />
		<tag k="place" v="farm" />
		<tag k="ssr:stedsnr" v="404730" />
	</node>
	<node lat="58.77262500203715" lon="5.9479388882004205" id="-1660">
		<tag k="alt_name" v="Kjyrkjebø" />
		<tag k="name" v="Kyrkjebø" />
		<tag k="place" v="farm" />
		<tag k="ssr:stedsnr" v="448969" />
	</node>
	<node lat="58.79175278225482" lon="6.383063897113712" id="-1694">
		<tag k="historic" v="shieling" />
		<tag k="name" v="Byrkjedalsstølen" />
		<tag k="place" v="isolated_dwelling" />
		<tag k="ssr:stedsnr" v="425867" />
	</node>
	<node lat="58.78234136998159" lon="6.08349443534003" id="-1699">
		<tag k="fixme" v="consider place=hamlet" />
		<tag k="name" v="Madland" />
		<tag k="place" v="farm" />
		<tag k="ssr:stedsnr" v="426566" />
	</node>
	<node lat="58.81578610833138" lon="6.530877783955681" id="-1707">
		<tag k="name" v="Reinshølhytta" />
		<tag k="place" v="isolated_dwelling" />
		<tag k="ssr:stedsnr" v="426821" />
	</node>
	<node lat="58.822494448379494" lon="6.288361102372173" id="-1722">
		<tag k="historic" v="shieling" />
		<tag k="name" v="Giljastølen" />
		<tag k="place" v="isolated_dwelling" />
		<tag k="ssr:stedsnr" v="506098" />
	</node>
	<node lat="58.77436389158438" lon="5.833611103370083" id="-1724">
		<tag k="fixme" v="consider place=suburb, village or hamlet" />
		<tag k="name" v="Opstad" />
		<tag k="place" v="quarter" />
		<tag k="ssr:stedsnr" v="508066" />
	</node>
	<node lat="58.768183332607904" lon="5.95764722983759" id="-1735">
		<tag k="name" v="Sygnivollen" />
		<tag k="place" v="farm" />
		<tag k="ssr:stedsnr" v="509940" />
	</node>
	<node lat="58.77204444049568" lon="5.861541665086357" id="-1740">
		<tag k="name" v="Husafjellet" />
		<tag k="place" v="quarter" />
		<tag k="ssr:stedsnr" v="525297" />
	</node>
	<node lat="58.84802057766831" lon="6.364906459687068" id="-1757">
		<tag k="name" v="Fladebrot" />
		<tag k="place" v="locality" />
		<tag k="ssr:stedsnr" v="542688" />
	</node>
	<node lat="58.725797222491195" lon="5.981305557467794" id="-1782">
		<tag k="name" v="Kloppa" />
		<tag k="old_name" v="Klappa" />
		<tag k="place" v="farm" />
		<tag k="ssr:stedsnr" v="546355" />
	</node>
	<node lat="58.71627499642759" lon="5.966788885666859" id="-1783">
		<tag k="name" v="Solheim" />
		<tag k="place" v="farm" />
		<tag k="ssr:stedsnr" v="546443" />
	</node>
	<node lat="58.77529444714285" lon="6.094647227657229" id="-1790">
		<tag k="name" v="Lomsvik" />
		<tag k="place" v="locality" />
		<tag k="ssr:stedsnr" v="547643" />
	</node>
	<node lat="58.756568067102734" lon="5.873528617399772" id="-1791">
		<tag k="fixme" v="consider place=hamlet" />
		<tag k="name" v="Nese" />
		<tag k="place" v="farm" />
		<tag k="ssr:stedsnr" v="547645" />
	</node>
	<node lat="58.75772996638812" lon="5.986822948081714" id="-1793">
		<tag k="fixme" v="consider place=hamlet" />
		<tag k="name" v="Tjetland" />
		<tag k="place" v="farm" />
		<tag k="ssr:stedsnr" v="547650" />
	</node>
	<node lat="58.80622939717201" lon="6.374418757822711" id="-1800">
		<tag k="fixme" v="consider place=hamlet" />
		<tag k="name" v="Motland" />
		<tag k="place" v="farm" />
		<tag k="ssr:stedsnr" v="547843" />
	</node>
	<node lat="58.780749997431485" lon="6.321016666214697" id="-1824">
		<tag k="name" v="Moen" />
		<tag k="place" v="farm" />
		<tag k="ssr:stedsnr" v="585480" />
	</node>
	<node lat="58.765032638921674" lon="6.349009052535216" id="-1827">
		<tag k="fixme" v="consider place=hamlet" />
		<tag k="name" v="Øvre Maudal" />
		<tag k="place" v="farm" />
		<tag k="ssr:stedsnr" v="585666" />
	</node>
	<node lat="58.846205559189215" lon="6.305663882150108" id="-1832">
		<tag k="name" v="Tuptene" />
=======
	<node id="-23730" lat="58.8471436399" lon="6.35943917157">
		<tag k="fixme" v="consider place=hamlet" />
		<tag k="name" v="Håland" />
		<tag k="place" v="farm" />
		<tag k="ssr:stedsnr" v="365668" />
	</node>
	<node id="-23217" lat="58.7850222197" lon="6.32111945024">
		<tag k="name" v="Grabakken" />
		<tag k="place" v="locality" />
		<tag k="ssr:stedsnr" v="40533" />
	</node>
	<node id="-23214" lat="58.7686472268" lon="5.8748416736">
		<tag k="name" v="Fiskebekk" />
		<tag k="place" v="quarter" />
		<tag k="ssr:stedsnr" v="40283" />
	</node>
	<node id="-22188" lat="58.8084763305" lon="6.01236858603">
		<tag k="alt_name" v="Haugamork" />
		<tag k="fixme" v="consider place=hamlet" />
		<tag k="name" v="Haugamorka" />
		<tag k="place" v="farm" />
		<tag k="ssr:stedsnr" v="243538" />
	</node>
	<node id="-22642" lat="58.8495103076" lon="6.12617623512">
		<tag k="alt_name" v="Oltesvik" />
		<tag k="fixme" v="consider place=hamlet" />
		<tag k="name" v="Oltesvika" />
		<tag k="place" v="farm" />
		<tag k="ssr:stedsnr" v="486605" />
	</node>
	<node id="-22185" lat="58.6844107558" lon="5.98426656619">
		<tag k="fixme" v="consider place=hamlet" />
		<tag k="name" v="Søyland" />
		<tag k="place" v="farm" />
		<tag k="ssr:stedsnr" v="243446" />
	</node>
	<node id="-22184" lat="58.729619447" lon="5.97622221446">
		<tag k="name" v="Aurgota" />
		<tag k="place" v="farm" />
		<tag k="ssr:stedsnr" v="242378" />
	</node>
	<node id="-23203" lat="58.8075583336" lon="6.37374444533">
		<tag k="name" v="Motland" />
		<tag k="place" v="farm" />
		<tag k="ssr:stedsnr" v="24697" />
	</node>
	<node id="-23710" lat="58.8549944446" lon="6.26485832992">
		<tag k="alt_name" v="Frafjordstølen, yt" />
		<tag k="name" v="Ytre Frafjordstølen" />
		<tag k="place" v="locality" />
		<tag k="ssr:stedsnr" v="364657" />
	</node>
	<node id="-23707" lat="58.8766111117" lon="6.3538694438">
		<tag k="name" v="Eikjeskogstølen" />
		<tag k="place" v="locality" />
		<tag k="ssr:stedsnr" v="364636" />
	</node>
	<node id="-23706" lat="58.6947817769" lon="5.88390810603">
		<tag k="alt_name" v="Sikvaland, indra;Sikvaland, indre;Sikvaland indre" />
		<tag k="fixme" v="consider place=hamlet" />
		<tag k="name" v="Indra Sikvaland" />
		<tag k="place" v="farm" />
		<tag k="ssr:stedsnr" v="364502" />
	</node>
	<node id="-24215" lat="58.815900715" lon="6.32930518018">
		<tag k="fixme" v="consider place=hamlet" />
		<tag k="name" v="Vatne" />
		<tag k="place" v="farm" />
		<tag k="ssr:stedsnr" v="829502" />
	</node>
	<node id="-23701" lat="58.7378854025" lon="5.90101956804">
		<tag k="fixme" v="consider place=hamlet" />
		<tag k="name" v="Eidland" />
		<tag k="place" v="farm" />
		<tag k="ssr:stedsnr" v="364396" />
	</node>
	<node id="-24207" lat="58.7775388879" lon="5.84140278568">
		<tag k="name" v="Kongeparken" />
		<tag k="ssr:stedsnr" v="815925" />
		<tag k="tourism" v="theme_park" />
	</node>
	<node id="-24204" lat="58.7466086404" lon="5.98421245979">
		<tag k="fixme" v="consider place=hamlet" />
		<tag k="name" v="Årreberg" />
		<tag k="place" v="farm" />
		<tag k="ssr:stedsnr" v="812956" />
	</node>
	<node id="-23177" lat="58.7808111108" lon="6.05933611434">
		<tag k="name" v="Stølshei" />
		<tag k="place" v="farm" />
		<tag k="ssr:stedsnr" v="1579" />
	</node>
	<node id="-22658" lat="58.9282750039" lon="6.53004722755">
		<tag k="fixme" v="consider tourism=alpine_hut or tourism=chalet" />
		<tag k="name" v="Blåfjellenden" />
		<tag k="ssr:stedsnr" v="509114" />
		<tag k="tourism" v="wilderness_hut" />
	</node>
	<node id="-22656" lat="58.7230111094" lon="5.93573055548">
		<tag k="name" v="Tronslåttå" />
		<tag k="place" v="farm" />
		<tag k="ssr:stedsnr" v="508717" />
	</node>
	<node id="-23167" lat="58.865530557" lon="6.45938610245">
		<tag k="historic" v="shieling" />
		<tag k="name" v="Brådlandsstølen" />
		<tag k="place" v="locality" />
		<tag k="ssr:stedsnr" v="637" />
	</node>
	<node id="-22140" lat="58.7803570487" lon="6.32057065946">
		<tag k="fixme" v="consider place=hamlet" />
		<tag k="name" v="Byrkjedal" />
		<tag k="place" v="farm" />
		<tag k="ssr:stedsnr" v="224331" />
	</node>
	<node id="-22651" lat="58.7743638916" lon="5.83361110337">
		<tag k="fixme" v="consider place=suburb, village or hamlet" />
		<tag k="name" v="Opstad" />
		<tag k="place" v="quarter" />
		<tag k="ssr:stedsnr" v="508066" />
	</node>
	<node id="-24185" lat="58.7688388903" lon="5.90654443839">
		<tag k="name" v="Vigjå" />
		<tag k="place" v="farm" />
		<tag k="ssr:stedsnr" v="811076" />
	</node>
	<node id="-22647" lat="58.8340414206" lon="6.09241243966">
		<tag k="alt_name" v="Ragje" />
		<tag k="fixme" v="consider place=hamlet" />
		<tag k="name" v="Rage" />
		<tag k="place" v="farm" />
		<tag k="ssr:stedsnr" v="486640" />
	</node>
	<node id="-24178" lat="58.834248031" lon="6.18408679201">
		<tag k="fixme" v="consider place=hamlet" />
		<tag k="name" v="Dirdal" />
		<tag k="place" v="farm" />
		<tag k="ssr:stedsnr" v="790659" />
	</node>
	<node id="-22640" lat="58.7962694405" lon="6.45197499705">
		<tag k="historic" v="shieling" />
		<tag k="name" v="Mjålandsstølen" />
		<tag k="place" v="locality" />
		<tag k="ssr:stedsnr" v="485855" />
	</node>
	<node id="-22639" lat="58.6855579655" lon="5.99415066948">
		<tag k="fixme" v="consider place=hamlet" />
		<tag k="name" v="Kydland" />
>>>>>>> e1d4bc35ff8a6074a6f2e91616a996b547c36f15
		<tag k="place" v="farm" />
		<tag k="ssr:stedsnr" v="485407" />
	</node>
<<<<<<< HEAD
	<node lat="58.79812364727243" lon="6.251349519808036" id="-1834">
		<tag k="fixme" v="consider place=hamlet" />
		<tag k="name" v="Giljabrekka" />
		<tag k="place" v="farm" />
		<tag k="ssr:stedsnr" v="587376" />
	</node>
	<node lat="58.75550728971373" lon="6.321975616698439" id="-1870">
		<tag k="alt_name" v="Maudal, nedre" />
		<tag k="fixme" v="consider place=hamlet" />
		<tag k="name" v="Nedre Maudal" />
		<tag k="place" v="farm" />
		<tag k="ssr:stedsnr" v="607774" />
	</node>
	<node lat="58.91519999857598" lon="6.494674992066541" id="-1881">
		<tag k="name" v="Litlestølen" />
		<tag k="place" v="locality" />
		<tag k="ssr:stedsnr" v="607727" />
	</node>
	<node lat="58.820563155858494" lon="6.432849418536751" id="-1883">
		<tag k="alt_name" v="Rettland" />
		<tag k="fixme" v="consider place=hamlet" />
		<tag k="name" v="Retland" />
		<tag k="place" v="farm" />
		<tag k="ssr:stedsnr" v="607825" />
	</node>
	<node lat="58.77978888813651" lon="6.316200008229312" id="-1885">
		<tag k="name" v="Byrkjedalstunet" />
		<tag k="place" v="quarter" />
		<tag k="ssr:stedsnr" v="627094" />
	</node>
	<node lat="58.72604722635644" lon="5.970700006382038" id="-1895">
		<tag k="name" v="Vodl" />
		<tag k="place" v="farm" />
		<tag k="ssr:stedsnr" v="629789" />
	</node>
	<node lat="58.78531666454421" lon="5.9447027724649395" id="-1897">
		<tag k="name" v="Store vodl" />
		<tag k="place" v="farm" />
		<tag k="ssr:stedsnr" v="630917" />
	</node>
	<node lat="58.838558333625684" lon="6.486991666729274" id="-1903">
		<tag k="name" v="Gautøyna" />
=======
	<node id="-24173" lat="58.7618729962" lon="5.89439840543">
		<tag k="alt_name" v="Bodlestad" />
		<tag k="fixme" v="consider place=hamlet" />
		<tag k="name" v="Bollestad" />
		<tag k="place" v="farm" />
		<tag k="ssr:stedsnr" v="790636" />
	</node>
	<node id="-23659" lat="58.7775055561" lon="6.49245833516">
		<tag k="name" v="Andersbu" />
		<tag k="place" v="isolated_dwelling" />
		<tag k="ssr:stedsnr" v="343928" />
	</node>
	<node id="-24167" lat="58.7192472222" lon="5.97955000435">
		<tag k="name" v="Oppsal" />
		<tag k="place" v="farm" />
		<tag k="ssr:stedsnr" v="789482" />
	</node>
	<node id="-22630" lat="58.7578249961" lon="5.83948056105">
		<tag k="alt_name" v="Øygård" />
		<tag k="name" v="Øygarden" />
		<tag k="place" v="farm" />
		<tag k="ssr:stedsnr" v="668866" />
	</node>
	<node id="-24165" lat="58.6907027748" lon="5.91217777909">
		<tag k="name" v="Holmaholen" />
		<tag k="old_name" v="Holm" />
		<tag k="place" v="farm" />
		<tag k="ssr:stedsnr" v="789461" />
	</node>
	<node id="-22116" lat="58.7855138913" lon="5.94414166515">
		<tag k="alt_name" v="Lima, indre" />
		<tag k="name" v="Indre Lima" />
		<tag k="place" v="farm" />
		<tag k="ssr:stedsnr" v="1562" />
	</node>
	<node id="-22627" lat="58.8134462295" lon="6.23252894201">
		<tag k="fixme" v="consider place=hamlet" />
		<tag k="name" v="Nødland" />
		<tag k="place" v="farm" />
		<tag k="ssr:stedsnr" v="668843" />
	</node>
	<node id="-22508" lat="58.8224944484" lon="6.28836110237">
		<tag k="historic" v="shieling" />
		<tag k="name" v="Giljastølen" />
>>>>>>> e1d4bc35ff8a6074a6f2e91616a996b547c36f15
		<tag k="place" v="locality" />
		<tag k="ssr:stedsnr" v="506098" />
	</node>
<<<<<<< HEAD
	<node lat="58.84661944696116" lon="6.349980560792145" id="-1913">
		<tag k="name" v="Lindehaug" />
		<tag k="place" v="locality" />
		<tag k="ssr:stedsnr" v="646588" />
	</node>
	<node lat="58.74215926803066" lon="5.943618555974338" id="-1956">
		<tag k="fixme" v="consider place=hamlet" />
		<tag k="name" v="Auestad" />
		<tag k="place" v="farm" />
		<tag k="ssr:stedsnr" v="667375" />
	</node>
	<node lat="58.69549999637113" lon="5.987569449122748" id="-1957">
		<tag k="name" v="Gautedal" />
		<tag k="place" v="farm" />
		<tag k="ssr:stedsnr" v="667456" />
	</node>
	<node lat="58.7027250022736" lon="6.003408326946713" id="-1958">
		<tag k="alt_name" v="Noråsen" />
		<tag k="name" v="Nordåsen" />
=======
	<node id="-23137" lat="58.769327294" lon="5.94558942286">
		<tag k="name" v="Gjesdal" />
		<tag k="place" v="farm" />
		<tag k="ssr:stedsnr" v="911240" />
	</node>
	<node id="-24160" lat="58.8450060319" lon="6.3496829148">
		<tag k="fixme" v="consider place=hamlet" />
		<tag k="name" v="Molaug" />
>>>>>>> e1d4bc35ff8a6074a6f2e91616a996b547c36f15
		<tag k="place" v="farm" />
		<tag k="ssr:stedsnr" v="789666" />
	</node>
<<<<<<< HEAD
	<node lat="58.79060849576413" lon="5.934337084632956" id="-1963">
		<tag k="alt_name" v="Bergje" />
		<tag k="fixme" v="consider place=hamlet" />
		<tag k="name" v="Berge" />
		<tag k="place" v="farm" />
		<tag k="ssr:stedsnr" v="668549" />
	</node>
	<node lat="58.795538268816586" lon="5.999319561120077" id="-1965">
		<tag k="alt_name" v="Ramndal" />
		<tag k="fixme" v="consider place=hamlet" />
		<tag k="name" v="Ravndal" />
		<tag k="place" v="farm" />
		<tag k="ssr:stedsnr" v="668552" />
	</node>
	<node lat="58.82860000289745" lon="6.0368694506366385" id="-1969">
		<tag k="name" v="Oltedal" />
		<tag k="place" v="village" />
		<tag k="ssr:stedsnr" v="668646" />
	</node>
	<node lat="58.76913752444191" lon="5.911290430072315" id="-1972">
		<tag k="alt_name" v="Klugje nedre;Kluge" />
		<tag k="name" v="Nedrakluge" />
		<tag k="place" v="farm" />
		<tag k="ssr:stedsnr" v="668601" />
	</node>
	<node lat="58.77397110466466" lon="6.073284154442526" id="-1973">
		<tag k="alt_name" v="Brekka;Brekkå" />
=======
	<node id="-23135" lat="58.6854555557" lon="5.99244999658">
		<tag k="name" v="Kydland" />
		<tag k="place" v="hamlet" />
		<tag k="ssr:stedsnr" v="910449" />
	</node>
	<node id="-23653" lat="58.77967778" lon="6.31441943821">
		<tag k="name" v="Gloppedalsplasset" />
		<tag k="place" v="locality" />
		<tag k="ssr:stedsnr" v="343507" />
	</node>
	<node id="-24150" lat="58.7615416686" lon="6.01169999293">
		<tag k="name" v="Litla Hedland" />
		<tag k="place" v="farm" />
		<tag k="ssr:stedsnr" v="787089" />
	</node>
	<node id="-23125" lat="58.8660472193" lon="6.56079721858">
		<tag k="name" v="Øvstabødalen" />
		<tag k="place" v="neighbourhood" />
		<tag k="ssr:stedsnr" v="950278" />
	</node>
	<node id="-23636" lat="58.8033147406" lon="6.26954996852">
>>>>>>> e1d4bc35ff8a6074a6f2e91616a996b547c36f15
		<tag k="fixme" v="consider place=hamlet" />
		<tag k="name" v="Gilja" />
		<tag k="place" v="farm" />
		<tag k="ssr:stedsnr" v="341339" />
	</node>
<<<<<<< HEAD
	<node lat="58.75978611388414" lon="6.0182000014617305" id="-1974">
		<tag k="name" v="Nordhei" />
		<tag k="place" v="farm" />
		<tag k="ssr:stedsnr" v="668623" />
	</node>
	<node lat="58.84468598533623" lon="6.11954078286016" id="-1976">
		<tag k="name" v="Øygarden" />
		<tag k="place" v="farm" />
		<tag k="ssr:stedsnr" v="668627" />
	</node>
	<node lat="58.760055516264146" lon="5.841171074236749" id="-1979">
		<tag k="alt_name" v="Øygard" />
		<tag k="name" v="Øygarden" />
		<tag k="place" v="locality" />
		<tag k="ssr:stedsnr" v="668866" />
	</node>
	<node lat="58.727045124348514" lon="5.9770126586217955" id="-2000">
		<tag k="fixme" v="consider place=hamlet" />
		<tag k="name" v="Kyllingstad" />
		<tag k="place" v="farm" />
		<tag k="ssr:stedsnr" v="728358" />
	</node>
	<node lat="58.81797498256406" lon="6.218218987958141" id="-2005">
		<tag k="fixme" v="consider place=hamlet" />
		<tag k="name" v="Kjervoll" />
		<tag k="place" v="farm" />
		<tag k="ssr:stedsnr" v="729237" />
	</node>
	<node lat="58.7764968375812" lon="5.8540440630715365" id="-2006">
		<tag k="fixme" v="consider place=hamlet" />
		<tag k="name" v="Ålgård" />
		<tag k="place" v="farm" />
		<tag k="ssr:stedsnr" v="729561" />
	</node>
	<node lat="58.86667500089087" lon="6.340024999520516" id="-2008">
		<tag k="historic" v="shieling" />
		<tag k="name" v="Hålandsstølen" />
		<tag k="place" v="isolated_dwelling" />
		<tag k="ssr:stedsnr" v="729674" />
	</node>
	<node lat="58.84304238039553" lon="6.3064684413063885" id="-2009">
		<tag k="fixme" v="consider place=hamlet" />
		<tag k="name" v="Frafjord" />
		<tag k="place" v="village" />
		<tag k="ssr:stedsnr" v="729686" />
	</node>
	<node lat="58.786033337296445" lon="6.2411305589728725" id="-2016">
		<tag k="alt_name" v="Stakkvik" />
		<tag k="name" v="Stakkavik" />
		<tag k="place" v="locality" />
		<tag k="ssr:stedsnr" v="729871" />
	</node>
	<node lat="58.77038508997559" lon="5.955309195355365" id="-2062">
		<tag k="name" v="Gjesdal" />
		<tag k="place" v="hamlet" />
		<tag k="ssr:stedsnr" v="784060" />
	</node>
	<node lat="58.761541668580975" lon="6.011699992926624" id="-2073">
		<tag k="name" v="Litla Hedland" />
		<tag k="place" v="farm" />
		<tag k="ssr:stedsnr" v="787089" />
	</node>
	<node lat="58.785046076033844" lon="5.939351645502883" id="-2078">
		<tag k="alt_name" v="Lima, indre" />
		<tag k="fixme" v="consider place=hamlet" />
		<tag k="name" v="Indre Lima" />
		<tag k="place" v="farm" />
		<tag k="ssr:stedsnr" v="789554" />
	</node>
	<node lat="58.6907027747741" lon="5.9121777790948995" id="-2080">
		<tag k="name" v="Holmaholen" />
		<tag k="old_name" v="Holm" />
		<tag k="place" v="farm" />
		<tag k="ssr:stedsnr" v="789461" />
	</node>
	<node lat="58.71924722217165" lon="5.979550004351661" id="-2082">
		<tag k="name" v="Oppsal" />
		<tag k="place" v="farm" />
		<tag k="ssr:stedsnr" v="789482" />
	</node>
	<node lat="58.87777499848175" lon="6.586125000613363" id="-2090">
		<tag k="alt_name" v="Fudesede" />
		<tag k="historic" v="shieling" />
		<tag k="name" v="Futasæte" />
		<tag k="place" v="isolated_dwelling" />
		<tag k="ssr:stedsnr" v="789657" />
	</node>
	<node lat="58.845006031918054" lon="6.349682914795966" id="-2092">
		<tag k="fixme" v="consider place=hamlet" />
		<tag k="name" v="Molaug" />
		<tag k="place" v="farm" />
		<tag k="ssr:stedsnr" v="789666" />
	</node>
	<node lat="58.85498567975252" lon="6.3715484917290865" id="-2098">
		<tag k="alt_name" v="Eikjeskog" />
		<tag k="fixme" v="consider place=hamlet" />
		<tag k="name" v="Eikeskog" />
		<tag k="place" v="farm" />
		<tag k="ssr:stedsnr" v="789632" />
	</node>
	<node lat="58.76187299619712" lon="5.894398405428558" id="-2101">
		<tag k="alt_name" v="Bodlestad" />
		<tag k="fixme" v="consider place=hamlet" />
		<tag k="name" v="Bollestad" />
		<tag k="place" v="farm" />
		<tag k="ssr:stedsnr" v="790636" />
	</node>
	<node lat="58.83424803102579" lon="6.1840867920074025" id="-2106">
		<tag k="fixme" v="consider place=hamlet" />
		<tag k="name" v="Dirdal" />
=======
	<node id="-23122" lat="58.7573833356" lon="5.81673889273">
		<tag k="name" v="Lyngen" />
		<tag k="place" v="farm" />
		<tag k="ssr:stedsnr" v="873156" />
	</node>
	<node id="-23632" lat="58.7684583371" lon="5.9482999929">
		<tag k="name" v="Torvholen" />
		<tag k="place" v="farm" />
		<tag k="ssr:stedsnr" v="327977" />
	</node>
	<node id="-23631" lat="58.7716027799" lon="5.95184444055">
		<tag k="name" v="Leide" />
		<tag k="place" v="farm" />
		<tag k="ssr:stedsnr" v="327944" />
	</node>
	<node id="-22606" lat="58.7613444427" lon="6.35155000765">
		<tag k="name" v="Pletten" />
		<tag k="place" v="farm" />
		<tag k="ssr:stedsnr" v="467556" />
	</node>
	<node id="-24137" lat="58.77038509" lon="5.95530919536">
		<tag k="name" v="Gjesdal" />
		<tag k="place" v="hamlet" />
		<tag k="ssr:stedsnr" v="784060" />
	</node>
	<node id="-23111" lat="58.8069833315" lon="6.25898610915">
		<tag k="fixme" v="consider place=hamlet" />
		<tag k="name" v="Gilja" />
		<tag k="place" v="village" />
		<tag k="ssr:stedsnr" v="851818" />
	</node>
	<node id="-22831" lat="58.8179749826" lon="6.21821898796">
		<tag k="fixme" v="consider place=hamlet" />
		<tag k="name" v="Kjervoll" />
		<tag k="place" v="farm" />
		<tag k="ssr:stedsnr" v="729237" />
	</node>
	<node id="-23621" lat="58.7738611149" lon="5.89981667147">
		<tag k="name" v="Tegavollen" />
		<tag k="place" v="farm" />
		<tag k="ssr:stedsnr" v="326075" />
	</node>
	<node id="-23618" lat="58.7582416714" lon="5.81327500815">
		<tag k="name" v="Edlandsheia" />
		<tag k="place" v="farm" />
		<tag k="ssr:stedsnr" v="304885" />
	</node>
	<node id="-23616" lat="58.774700001" lon="6.48588611089">
		<tag k="historic" v="shieling" />
		<tag k="name" v="Jensastølen" />
		<tag k="place" v="locality" />
		<tag k="ssr:stedsnr" v="304781" />
	</node>
	<node id="-22591" lat="58.6954999964" lon="5.98756944912">
		<tag k="name" v="Gautedal" />
		<tag k="place" v="farm" />
		<tag k="ssr:stedsnr" v="667456" />
	</node>
	<node id="-23608" lat="58.8101454699" lon="6.24586983214">
		<tag k="fixme" v="consider place=hamlet" />
		<tag k="name" v="Kvitaland" />
		<tag k="place" v="farm" />
		<tag k="ssr:stedsnr" v="304859" />
	</node>
	<node id="-23607" lat="58.8097777744" lon="6.2324888864">
		<tag k="name" v="Fredheim" />
		<tag k="place" v="farm" />
		<tag k="ssr:stedsnr" v="304849" />
	</node>
	<node id="-23605" lat="58.8211064482" lon="6.02837085165">
		<tag k="alt_name" v="Øvre Oltedal" />
		<tag k="name" v="Oltedal" />
		<tag k="place" v="hamlet" />
		<tag k="ssr:stedsnr" v="304484" />
	</node>
	<node id="-23600" lat="58.769038218" lon="5.95303119784">
		<tag k="alt_name" v="Kyrkjevoll;Kjyrkjevoll" />
		<tag k="name" v="Gjesdal" />
		<tag k="place" v="farm" />
		<tag k="ssr:stedsnr" v="304598" />
	</node>
	<node id="-23599" lat="58.7641666652" lon="5.85254166807">
		<tag k="name" v="Ålgård" />
		<tag k="place" v="village" />
		<tag k="ssr:stedsnr" v="304594" />
	</node>
	<node id="-23598" lat="58.7809858854" lon="6.06174009433">
		<tag k="fixme" v="consider place=hamlet" />
		<tag k="name" v="Vatne" />
		<tag k="place" v="farm" />
		<tag k="ssr:stedsnr" v="304591" />
	</node>
	<node id="-22194" lat="58.8276411051" lon="6.19443281375">
		<tag k="fixme" v="consider place=hamlet" />
		<tag k="name" v="Holmen" />
		<tag k="place" v="farm" />
		<tag k="ssr:stedsnr" v="244535" />
	</node>
	<node id="-23592" lat="58.7877277814" lon="6.02939444087">
		<tag k="name" v="Tobakken" />
		<tag k="place" v="farm" />
		<tag k="ssr:stedsnr" v="304565" />
	</node>
	<node id="-23729" lat="58.8392263699" lon="6.1214061738">
		<tag k="alt_name" v="Morkjå" />
		<tag k="fixme" v="consider place=hamlet" />
		<tag k="name" v="Morka" />
		<tag k="place" v="farm" />
		<tag k="ssr:stedsnr" v="365643" />
	</node>
	<node id="-22563" lat="58.9241999981" lon="6.5156861084">
		<tag k="historic" v="shieling" />
		<tag k="name" v="Fidjastølen" />
		<tag k="place" v="locality" />
		<tag k="ssr:stedsnr" v="426708" />
	</node>
	<node id="-23583" lat="58.7220138905" lon="5.9735444401">
		<tag k="alt_name" v="Sør i heio" />
		<tag k="name" v="Sør i heia" />
		<tag k="old_name" v="Sørheim" />
>>>>>>> e1d4bc35ff8a6074a6f2e91616a996b547c36f15
		<tag k="place" v="farm" />
		<tag k="ssr:stedsnr" v="303384" />
	</node>
<<<<<<< HEAD
	<node lat="58.768838890318136" lon="5.906544438391872" id="-2110">
		<tag k="name" v="Vigjå" />
		<tag k="place" v="farm" />
		<tag k="ssr:stedsnr" v="811076" />
	</node>
	<node lat="58.7466086404289" lon="5.984212459786392" id="-2121">
		<tag k="fixme" v="consider place=hamlet" />
		<tag k="name" v="Årreberg" />
		<tag k="place" v="farm" />
		<tag k="ssr:stedsnr" v="812956" />
	</node>
	<node lat="58.81590071498391" lon="6.329305180180772" id="-2129">
		<tag k="fixme" v="consider place=hamlet" />
		<tag k="name" v="Vatne" />
		<tag k="place" v="farm" />
		<tag k="ssr:stedsnr" v="829502" />
	</node>
	<node lat="58.75738333560267" lon="5.816738892730933" id="-2194">
		<tag k="name" v="Lyngen" />
		<tag k="place" v="farm" />
		<tag k="ssr:stedsnr" v="873156" />
	</node>
	<node lat="58.766269448490064" lon="6.396197230479967" id="-2223">
		<tag k="name" v="Bualøa" />
		<tag k="place" v="locality" />
		<tag k="ssr:stedsnr" v="951248" />
	</node>
	<node lat="58.76727363879044" lon="5.912857893058686" id="-2247">
		<tag k="alt_name" v="Klugje" />
		<tag k="fixme" v="consider place=hamlet" />
		<tag k="name" v="Kluge" />
		<tag k="place" v="farm" />
		<tag k="ssr:stedsnr" v="972954" />
	</node>
	<node lat="58.82781327134089" lon="6.28425705528335" id="-2251">
		<tag k="fixme" v="consider place=hamlet" />
		<tag k="name" v="Moen" />
		<tag k="place" v="farm" />
		<tag k="ssr:stedsnr" v="1071928" />
=======
	<node id="-22549" lat="58.7664888878" lon="5.95133055054">
		<tag k="name" v="Egrebakken" />
		<tag k="place" v="farm" />
		<tag k="ssr:stedsnr" v="509976" />
	</node>
	<node id="-22547" lat="58.7681833326" lon="5.95764722984">
		<tag k="name" v="Sygnivollen" />
		<tag k="place" v="farm" />
		<tag k="ssr:stedsnr" v="509940" />
	</node>
	<node id="-23057" lat="58.771174998" lon="5.97671943736">
		<tag k="alt_name" v="Hallandsmoen" />
		<tag k="name" v="Moen" />
		<tag k="place" v="farm" />
		<tag k="ssr:stedsnr" v="790618" />
	</node>
	<node id="-23568" lat="58.8295250028" lon="6.46147777883">
		<tag k="name" v="Austbø" />
		<tag k="place" v="farm" />
		<tag k="ssr:stedsnr" v="302094" />
	</node>
	<node id="-22541" lat="58.7886361116" lon="5.9292666675">
		<tag k="name" v="Egrå" />
		<tag k="place" v="farm" />
		<tag k="ssr:stedsnr" v="509011" />
	</node>
	<node id="-23052" lat="58.785046076" lon="5.9393516455">
		<tag k="alt_name" v="Lima, indre" />
		<tag k="fixme" v="consider place=hamlet" />
		<tag k="name" v="Indre Lima" />
		<tag k="place" v="farm" />
		<tag k="ssr:stedsnr" v="789554" />
	</node>
	<node id="-23050" lat="58.8777749985" lon="6.58612500061">
		<tag k="alt_name" v="Fudesede" />
		<tag k="historic" v="shieling" />
		<tag k="name" v="Futasæte" />
		<tag k="place" v="locality" />
		<tag k="ssr:stedsnr" v="789657" />
	</node>
	<node id="-23048" lat="58.8549856798" lon="6.37154849173">
		<tag k="alt_name" v="Eikjeskog" />
		<tag k="fixme" v="consider place=hamlet" />
		<tag k="name" v="Eikeskog" />
		<tag k="place" v="farm" />
		<tag k="ssr:stedsnr" v="789632" />
	</node>
	<node id="-23556" lat="58.8154583327" lon="5.99592776983">
		<tag k="alt_name" v="ovre Oltedal" />
		<tag k="name" v="Øvre Oltedal" />
		<tag k="place" v="farm" />
		<tag k="ssr:stedsnr" v="205958" />
	</node>
	<node id="-22614" lat="58.7691375244" lon="5.91129043007">
		<tag k="alt_name" v="Klugje nedre;Kluge" />
		<tag k="name" v="Nedrakluge" />
		<tag k="place" v="farm" />
		<tag k="ssr:stedsnr" v="668601" />
>>>>>>> e1d4bc35ff8a6074a6f2e91616a996b547c36f15
	</node>
</osm>
