<?xml version="1.0" encoding="UTF-8"?>
<osm generator="osmapis" version="0.6">
	<node id="-405502" lat="58.8296264159" lon="6.3718680513">
		<tag k="name" v="Giltjørna" />
		<tag k="natural" v="water" />
		<tag k="ssr:stedsnr" v="542749" />
	</node>
	<node id="-405501" lat="58.8284305596" lon="6.35339721821">
		<tag k="name" v="Tangatjørna" />
		<tag k="natural" v="water" />
		<tag k="ssr:stedsnr" v="542744" />
	</node>
	<node id="-405488" lat="58.7860416671" lon="6.28446944122">
		<tag k="name" v="Skredbekken" />
		<tag k="ssr:stedsnr" v="525991" />
		<tag k="waterway" v="stream" />
	</node>
	<node id="-405477" lat="58.809222226" lon="6.28691944255">
		<tag k="name" v="Møgelitjørna" />
		<tag k="natural" v="water" />
		<tag k="ssr:stedsnr" v="525487" />
	</node>
	<node id="-405476" lat="58.8069805599" lon="6.29097222405">
		<tag k="name" v="Bjødnasøylå" />
		<tag k="natural" v="water" />
		<tag k="ssr:stedsnr" v="525486" />
	</node>
	<node id="-405472" lat="58.7612194447" lon="6.14819999337">
		<tag k="name" v="Vengjekrærne" />
		<tag k="place" v="locality" />
		<tag k="ssr:stedsnr" v="525345" />
	</node>
	<node id="-405465" lat="58.9126888875" lon="6.48650000653">
		<tag k="name" v="Fidjafossen" />
		<tag k="natural" v="waterfall" />
		<tag k="ssr:stedsnr" v="513456" />
	</node>
	<node id="-405445" lat="58.7202805602" lon="5.96345833834">
		<tag k="name" v="Polltjørna" />
		<tag k="natural" v="water" />
		<tag k="ssr:stedsnr" v="508799" />
	</node>
	<node id="-405442" lat="58.699830555" lon="5.95240832527">
		<tag k="name" v="Fossliåna" />
		<tag k="ssr:stedsnr" v="508784" />
		<tag k="waterway" v="stream" />
	</node>
	<node id="-405436" lat="58.6739972194" lon="5.9639583406">
		<tag k="name" v="Kuholtjørna" />
		<tag k="natural" v="water" />
		<tag k="ssr:stedsnr" v="508346" />
	</node>
	<node id="-405435" lat="58.6797722227" lon="5.95876110347">
		<tag k="name" v="Lauvholsbekken" />
		<tag k="ssr:stedsnr" v="508315" />
		<tag k="waterway" v="stream" />
	</node>
	<node id="-405433" lat="58.7372611137" lon="5.89395277928">
		<tag k="name" v="Husaåna" />
		<tag k="ssr:stedsnr" v="508086" />
		<tag k="waterway" v="river" />
	</node>
	<node id="-405431" lat="58.7989138846" lon="5.9344916596">
		<tag k="name" v="Krosstjørna" />
		<tag k="natural" v="water" />
		<tag k="ssr:stedsnr" v="508017" />
	</node>
	<node id="-405429" lat="58.7852750034" lon="6.25308333548">
		<tag k="name" v="Midtjørn" />
		<tag k="natural" v="water" />
		<tag k="ssr:stedsnr" v="486875" />
	</node>
	<node id="-405428" lat="58.7924499971" lon="6.23878611331">
		<tag k="alt_name" v="Resatjørn" />
		<tag k="name" v="Risatjørn" />
		<tag k="natural" v="water" />
		<tag k="ssr:stedsnr" v="486867" />
	</node>
	<node id="-405426" lat="58.8123861149" lon="6.27311111465">
		<tag k="alt_name" v="Krossbekk" />
		<tag k="name" v="Krossbekken" />
		<tag k="ssr:stedsnr" v="486840" />
		<tag k="waterway" v="stream" />
	</node>
	<node id="-405424" lat="58.8552861078" lon="6.55657499298">
		<tag k="name" v="Nonsbekken" />
		<tag k="ssr:stedsnr" v="486704" />
		<tag k="waterway" v="stream" />
	</node>
	<node id="-405423" lat="58.830849997" lon="6.47241111239">
		<tag k="name" v="Gautøynvatnet" />
		<tag k="natural" v="water" />
		<tag k="ssr:stedsnr" v="486692" />
	</node>
	<node id="-405420" lat="58.8680249957" lon="6.54301389227">
		<tag k="alt_name" v="Bergebekktjørnene" />
		<tag k="name" v="Bergebekktjørna" />
		<tag k="natural" v="water" />
		<tag k="ssr:stedsnr" v="486668" />
	</node>
	<node id="-405416" lat="58.756838889" lon="5.91453888186">
		<tag k="alt_name" v="Klugjevatn" />
		<tag k="name" v="Klugsvatnet" />
		<tag k="natural" v="water" />
		<tag k="ssr:stedsnr" v="486611" />
		<tag k="water" v="lake" />
	</node>
	<node id="-405415" lat="58.7737805546" lon="6.09400556138">
		<tag k="alt_name" v="Mjåvatnet" />
		<tag k="name" v="Mjåvatn" />
		<tag k="natural" v="water" />
		<tag k="ssr:stedsnr" v="486608" />
		<tag k="water" v="lake" />
	</node>
	<node id="-405414" lat="58.8063277752" lon="6.33647222632">
		<tag k="name" v="Kalledalsvatnet" />
		<tag k="natural" v="water" />
		<tag k="ssr:stedsnr" v="486826" />
	</node>
	<node id="-405413" lat="58.8019361138" lon="6.30911388448">
		<tag k="alt_name" v="Dybingvatnet" />
		<tag k="name" v="Dypingsvatnet" />
		<tag k="natural" v="water" />
		<tag k="ssr:stedsnr" v="486824" />
		<tag k="water" v="lake" />
	</node>
	<node id="-405412" lat="58.8171361155" lon="6.48952499742">
		<tag k="name" v="Jakobsbekken" />
		<tag k="ssr:stedsnr" v="486818" />
		<tag k="waterway" v="stream" />
	</node>
	<node id="-405406" lat="58.8310833372" lon="6.19197221989">
		<tag k="name" v="Dirdalsåna" />
		<tag k="ssr:stedsnr" v="486534" />
		<tag k="waterway" v="river" />
	</node>
	<node id="-405405" lat="58.8167361148" lon="6.1922500018">
		<tag k="alt_name" v="Frøylandsbekken" />
		<tag k="name" v="Frøylandsbekk" />
		<tag k="ssr:stedsnr" v="486533" />
		<tag k="waterway" v="stream" />
	</node>
	<node id="-405404" lat="58.8145666676" lon="6.01331389228">
		<tag k="name" v="Oltedalsvatnet" />
		<tag k="natural" v="water" />
		<tag k="ssr:stedsnr" v="486521" />
		<tag k="water" v="lake" />
	</node>
	<node id="-405403" lat="58.8288814721" lon="6.16269755211">
		<tag k="fixme" v="multiple name tags, choose one and add the other to alt_name" />
		<tag k="name" v="Stølsvatnet;Yleskogvatnet" />
		<tag k="natural" v="water" />
		<tag k="ssr:stedsnr" v="486515" />
		<tag k="water" v="lake" />
	</node>
	<node id="-405401" lat="58.8553999976" lon="6.08062499719">
		<tag k="alt_name" v="Rasmalitjørna" />
		<tag k="name" v="Rasmustjørna" />
		<tag k="natural" v="water" />
		<tag k="ssr:stedsnr" v="486602" />
	</node>
	<node id="-405400" lat="58.7415861116" lon="6.3853166642">
		<tag k="alt_name" v="Svartevatn" />
		<tag k="name" v="Svartevatnet" />
		<tag k="natural" v="water" />
		<tag k="ssr:stedsnr" v="486116" />
	</node>
	<node id="-405397" lat="58.7920416701" lon="6.28906110667">
		<tag k="name" v="Skutetjørna" />
		<tag k="natural" v="water" />
		<tag k="ssr:stedsnr" v="485844" />
	</node>
	<node id="-405390" lat="58.8772527756" lon="6.40002222974">
		<tag k="name" v="Høgebakktjørna" />
		<tag k="natural" v="water" />
		<tag k="ssr:stedsnr" v="484892" />
	</node>
	<node id="-405389" lat="58.8462805563" lon="6.0298722201">
		<tag k="name" v="Trodlabekken" />
		<tag k="ssr:stedsnr" v="484830" />
		<tag k="waterway" v="stream" />
	</node>
	<node id="-405386" lat="58.777813892" lon="6.06834443837">
		<tag k="name" v="Orreneset" />
		<tag k="natural" v="cape" />
		<tag k="ssr:stedsnr" v="484562" />
	</node>
	<node id="-405384" lat="58.8066249991" lon="6.10342499759">
		<tag k="name" v="Storeliåna" />
		<tag k="ssr:stedsnr" v="484636" />
		<tag k="waterway" v="river" />
	</node>
	<node id="-405380" lat="58.8162388903" lon="6.2034638862">
		<tag k="name" v="Kvednabekken" />
		<tag k="ssr:stedsnr" v="484524" />
		<tag k="waterway" v="stream" />
	</node>
	<node id="-405379" lat="58.8389111117" lon="6.49261388879">
		<tag k="name" v="Lilobrotet" />
		<tag k="place" v="island" />
		<tag k="ssr:stedsnr" v="483088" />
	</node>
	<node id="-405374" lat="58.827613887" lon="6.1240972151">
		<tag k="name" v="Grasdalstjørna" />
		<tag k="natural" v="water" />
		<tag k="ssr:stedsnr" v="482936" />
	</node>
	<node id="-405361" lat="58.7757444432" lon="6.37330834046">
		<tag k="name" v="Litla Tjønndalstjørna" />
		<tag k="natural" v="water" />
		<tag k="ssr:stedsnr" v="467559" />
	</node>
	<node id="-405358" lat="58.7936222216" lon="6.38076665873">
		<tag k="name" v="Teinebekk" />
		<tag k="ssr:stedsnr" v="466969" />
		<tag k="waterway" v="stream" />
	</node>
	<node id="-405357" lat="58.8097388928" lon="6.39609166345">
		<tag k="name" v="Tretteholmane" />
		<tag k="place" v="islet" />
		<tag k="ssr:stedsnr" v="466952" />
	</node>
	<node id="-405356" lat="58.7917583373" lon="6.40716666225">
		<tag k="alt_name" v="Øvra Bjødnatjødna" />
		<tag k="name" v="Øvra Bjørnatjørna" />
		<tag k="natural" v="water" />
		<tag k="ssr:stedsnr" v="466938" />
	</node>
	<node id="-405355" lat="58.8065861091" lon="6.49416667334">
		<tag k="name" v="Odden" />
		<tag k="natural" v="cape" />
		<tag k="ssr:stedsnr" v="466935" />
	</node>
	<node id="-405354" lat="58.8140694411" lon="6.50007222816">
		<tag k="name" v="Steinulvstjørna" />
		<tag k="natural" v="water" />
		<tag k="ssr:stedsnr" v="466929" />
	</node>
	<node id="-405352" lat="58.7676444433" lon="6.4428166636">
		<tag k="name" v="Møssmørstronda" />
		<tag k="natural" v="beach" />
		<tag k="ssr:stedsnr" v="466433" />
	</node>
	<node id="-405349" lat="58.8084472234" lon="6.00648610941">
		<tag k="name" v="På Vigjå" />
		<tag k="natural" v="bay" />
		<tag k="ssr:stedsnr" v="466319" />
	</node>
	<node id="-405343" lat="58.8332694434" lon="6.32573055078">
		<tag k="name" v="Djubatjørna" />
		<tag k="natural" v="water" />
		<tag k="ssr:stedsnr" v="465735" />
	</node>
	<node id="-405341" lat="58.855033334" lon="6.29814444332">
		<tag k="name" v="Flikkefjorden" />
		<tag k="natural" v="water" />
		<tag k="ssr:stedsnr" v="465572" />
	</node>
	<node id="-405337" lat="58.7781500011" lon="6.32772222494">
		<tag k="name" v="Brekkebekken" />
		<tag k="ssr:stedsnr" v="464988" />
		<tag k="waterway" v="stream" />
	</node>
	<node id="-405336" lat="58.8259583303" lon="6.23795833021">
		<tag k="name" v="Egebertjørna" />
		<tag k="natural" v="water" />
		<tag k="ssr:stedsnr" v="464547" />
	</node>
	<node id="-405322" lat="58.7345277739" lon="6.31534444798">
		<tag k="name" v="Bleieåna" />
		<tag k="ssr:stedsnr" v="463481" />
		<tag k="waterway" v="river" />
	</node>
	<node id="-405321" lat="58.7801888902" lon="6.23237222049">
		<tag k="name" v="Vommå" />
		<tag k="natural" v="water" />
		<tag k="ssr:stedsnr" v="463352" />
	</node>
	<node id="-405319" lat="58.7670333367" lon="6.30437777604">
		<tag k="name" v="Flådalstjørna" />
		<tag k="natural" v="water" />
		<tag k="ssr:stedsnr" v="464703" />
	</node>
	<node id="-405310" lat="58.6829833376" lon="5.98878333978">
		<tag k="name" v="Litleosen" />
		<tag k="ssr:stedsnr" v="448340" />
		<tag k="waterway" v="stream" />
	</node>
	<node id="-405306" lat="58.7867777744" lon="5.86880554851">
		<tag k="name" v="Holmen" />
		<tag k="place" v="islet" />
		<tag k="ssr:stedsnr" v="448036" />
	</node>
	<node id="-405302" lat="58.7250666651" lon="5.96111666799">
		<tag k="name" v="Hadvarshølen" />
		<tag k="place" v="locality" />
		<tag k="ssr:stedsnr" v="447779" />
	</node>
	<node id="-405301" lat="58.7171027784" lon="5.91240000726">
		<tag k="name" v="Småtjørnene" />
		<tag k="natural" v="water" />
		<tag k="ssr:stedsnr" v="447688" />
	</node>
	<node id="-405298" lat="58.7213138847" lon="5.89692776966">
		<tag k="name" v="Sorpetjørna" />
		<tag k="natural" v="water" />
		<tag k="ssr:stedsnr" v="447666" />
	</node>
	<node id="-405296" lat="58.7529555589" lon="5.93020277687">
		<tag k="name" v="Fjellskarbekken" />
		<tag k="ssr:stedsnr" v="447117" />
		<tag k="waterway" v="stream" />
	</node>
	<node id="-405290" lat="58.7553302015" lon="5.8247374737">
		<tag k="alt_name" v="Skotjørna" />
		<tag k="name" v="Skotjørn" />
		<tag k="natural" v="water" />
		<tag k="ssr:stedsnr" v="426885" />
	</node>
	<node id="-405288" lat="58.827027861" lon="6.51767669757">
		<tag k="name" v="Mørkatjørna" />
		<tag k="natural" v="water" />
		<tag k="ssr:stedsnr" v="426843" />
	</node>
	<node id="-405287" lat="58.8165027813" lon="6.23777499392">
		<tag k="name" v="Skjerabekken" />
		<tag k="ssr:stedsnr" v="426838" />
		<tag k="waterway" v="stream" />
	</node>
	<node id="-405286" lat="58.8043027783" lon="6.4199916634">
		<tag k="name" v="Brekketjørna" />
		<tag k="natural" v="water" />
		<tag k="ssr:stedsnr" v="426830" />
	</node>
	<node id="-405282" lat="58.8114499962" lon="6.45723332622">
		<tag k="name" v="Grastjørna" />
		<tag k="natural" v="water" />
		<tag k="ssr:stedsnr" v="426820" />
	</node>
	<node id="-405281" lat="58.7574638891" lon="6.41756111952">
		<tag k="name" v="Langavatnet" />
		<tag k="natural" v="water" />
		<tag k="ssr:stedsnr" v="426780" />
	</node>
	<node id="-405280" lat="58.7634305531" lon="6.41938611546">
		<tag k="alt_name" v="Hollavatnet" />
		<tag k="name" v="Holavatnet" />
		<tag k="natural" v="water" />
		<tag k="ssr:stedsnr" v="426778" />
		<tag k="water" v="lake" />
	</node>
	<node id="-405276" lat="58.8489083325" lon="6.31331111027">
		<tag k="alt_name" v="Miaren" />
		<tag k="name" v="Migaren" />
		<tag k="ssr:stedsnr" v="426661" />
		<tag k="waterway" v="stream" />
	</node>
	<node id="-405267" lat="58.7772638916" lon="5.93161110998">
		<tag k="alt_name" v="Dyraneset" />
		<tag k="name" v="Dyrneset" />
		<tag k="natural" v="cape" />
		<tag k="ssr:stedsnr" v="426560" />
	</node>
	<node id="-405263" lat="58.9128138933" lon="6.53432777076">
		<tag k="name" v="Langatjørn" />
		<tag k="natural" v="water" />
		<tag k="ssr:stedsnr" v="425741" />
	</node>
	<node id="-405262" lat="58.8650601374" lon="6.481698573">
		<tag k="name" v="Blåtjørn" />
		<tag k="natural" v="water" />
		<tag k="ssr:stedsnr" v="425671" />
	</node>
	<node id="-405261" lat="58.8576666629" lon="6.38367500535">
		<tag k="name" v="Månafossen" />
		<tag k="natural" v="waterfall" />
		<tag k="ssr:stedsnr" v="425666" />
	</node>
	<node id="-405260" lat="58.8617666643" lon="6.27691389315">
		<tag k="name" v="Dypingen" />
		<tag k="natural" v="water" />
		<tag k="ssr:stedsnr" v="425646" />
	</node>
	<node id="-405257" lat="58.876602776" lon="6.32517221991">
		<tag k="name" v="Fornastølsvatnet" />
		<tag k="natural" v="water" />
		<tag k="ssr:stedsnr" v="425620" />
	</node>
	<node id="-405255" lat="58.7584388933" lon="6.14968611092">
		<tag k="name" v="Vinjavotna" />
		<tag k="natural" v="water" />
		<tag k="ssr:stedsnr" v="425614" />
		<tag k="water" v="lake" />
	</node>
	<node id="-405254" lat="58.7211444464" lon="5.93846667455">
		<tag k="alt_name" v="Errevatn" />
		<tag k="name" v="Errevatnet" />
		<tag k="natural" v="water" />
		<tag k="ssr:stedsnr" v="425393" />
	</node>
	<node id="-405253" lat="58.8793861093" lon="6.32765555306">
		<tag k="name" v="Kjosen" />
		<tag k="natural" v="bay" />
		<tag k="ssr:stedsnr" v="423984" />
	</node>
	<node id="-405250" lat="58.8747083312" lon="6.59235278271">
		<tag k="name" v="Tveidefossen" />
		<tag k="natural" v="waterfall" />
		<tag k="ssr:stedsnr" v="423902" />
	</node>
	<node id="-405249" lat="58.8825166649" lon="6.60588610385">
		<tag k="name" v="Tverråtjørn" />
		<tag k="natural" v="water" />
		<tag k="ssr:stedsnr" v="423901" />
	</node>
	<node id="-405241" lat="58.8093055543" lon="6.12443611104">
		<tag k="name" v="Ytretjørna" />
		<tag k="natural" v="water" />
		<tag k="ssr:stedsnr" v="423657" />
	</node>
	<node id="-405232" lat="58.7608333358" lon="6.00788888074">
		<tag k="name" v="Hedlandsåna" />
		<tag k="ssr:stedsnr" v="423087" />
		<tag k="waterway" v="river" />
	</node>
	<node id="-405224" lat="58.8438555558" lon="6.1066444482">
		<tag k="name" v="Stegatjørn" />
		<tag k="natural" v="water" />
		<tag k="ssr:stedsnr" v="421900" />
	</node>
	<node id="-405216" lat="58.7411333333" lon="5.98096667495">
		<tag k="name" v="Surtetjørna" />
		<tag k="natural" v="water" />
		<tag k="ssr:stedsnr" v="266965" />
	</node>
	<node id="-405212" lat="58.7482833324" lon="5.90340555776">
		<tag k="name" v="Auseltjørna" />
		<tag k="natural" v="water" />
		<tag k="ssr:stedsnr" v="266131" />
	</node>
	<node id="-405209" lat="58.7261555563" lon="5.96692221987">
		<tag k="name" v="Kjedlandsåna" />
		<tag k="ssr:stedsnr" v="265829" />
		<tag k="waterway" v="river" />
	</node>
	<node id="-405207" lat="58.7071416642" lon="5.97128889282">
		<tag k="name" v="Kammabekken" />
		<tag k="ssr:stedsnr" v="265818" />
		<tag k="waterway" v="stream" />
	</node>
	<node id="-405206" lat="58.7011666698" lon="5.95800276909">
		<tag k="name" v="Bastlitjørna" />
		<tag k="natural" v="water" />
		<tag k="ssr:stedsnr" v="265816" />
	</node>
	<node id="-405202" lat="58.731633337" lon="5.90095555321">
		<tag k="name" v="Holmåna" />
		<tag k="ssr:stedsnr" v="265746" />
		<tag k="waterway" v="river" />
	</node>
	<node id="-405198" lat="58.6861694441" lon="5.95795833885">
		<tag k="name" v="Holmatjørna" />
		<tag k="natural" v="water" />
		<tag k="ssr:stedsnr" v="265360" />
	</node>
	<node id="-405197" lat="58.6753694426" lon="5.94681666021">
		<tag k="loc_name" v="Ytra Skiptestjørna" />
		<tag k="name" v="Skiftestjørna" />
		<tag k="natural" v="water" />
		<tag k="ssr:stedsnr" v="265359" />
	</node>
	<node id="-405187" lat="58.8088027788" lon="6.25844444313">
		<tag k="name" v="Monabekken" />
		<tag k="ssr:stedsnr" v="244852" />
		<tag k="waterway" v="stream" />
	</node>
	<node id="-405186" lat="58.8215111141" lon="6.45920000136">
		<tag k="name" v="Nonstjørna" />
		<tag k="natural" v="water" />
		<tag k="ssr:stedsnr" v="244847" />
	</node>
	<node id="-405183" lat="58.8951499959" lon="6.50398610368">
		<tag k="name" v="Ervatjørna" />
		<tag k="natural" v="water" />
		<tag k="ssr:stedsnr" v="244751" />
	</node>
	<node id="-405180" lat="58.8162499973" lon="6.13345000528">
		<tag k="alt_name" v="Krogavatnet" />
		<tag k="name" v="Krokavatnet" />
		<tag k="natural" v="water" />
		<tag k="ssr:stedsnr" v="244552" />
		<tag k="water" v="lake" />
	</node>
	<node id="-405178" lat="58.7814749981" lon="6.23787500193">
		<tag k="alt_name" v="Djubavatnet" />
		<tag k="name" v="Djupavatnet" />
		<tag k="natural" v="water" />
		<tag k="ssr:stedsnr" v="243861" />
		<tag k="water" v="lake" />
	</node>
	<node id="-405177" lat="58.7965638915" lon="6.48503334027">
		<tag k="name" v="Myrvik" />
		<tag k="natural" v="bay" />
		<tag k="ssr:stedsnr" v="243856" />
	</node>
	<node id="-405172" lat="58.8833833328" lon="6.37532500425">
		<tag k="name" v="Holmavatnet" />
		<tag k="natural" v="water" />
		<tag k="ssr:stedsnr" v="243642" />
	</node>
	<node id="-405168" lat="58.8007083299" lon="6.14336666217">
		<tag k="alt_name" v="Longatjørna" />
		<tag k="name" v="Longatjørn" />
		<tag k="natural" v="water" />
		<tag k="ssr:stedsnr" v="243557" />
	</node>
	<node id="-405165" lat="58.9744388899" lon="6.55516111616">
		<tag k="name" v="Litla Hoggarvatnet" />
		<tag k="natural" v="water" />
		<tag k="ssr:stedsnr" v="243542" />
	</node>
	<node id="-405163" lat="58.6944055597" lon="5.91054166484">
		<tag k="name" v="Holmaholvatnet" />
		<tag k="natural" v="water" />
		<tag k="old_name" v="Holmavatnet" />
		<tag k="ssr:stedsnr" v="243487" />
	</node>
	<node id="-405162" lat="58.7136416701" lon="5.96979167435">
		<tag k="alt_name" v="Lautjørna" />
		<tag k="name" v="Lauvtjørna" />
		<tag k="natural" v="water" />
		<tag k="ssr:stedsnr" v="243474" />
	</node>
	<node id="-405161" lat="58.7107166679" lon="5.8954750014">
		<tag k="alt_name" v="Fjellvatn" />
		<tag k="name" v="Fjellvatnet" />
		<tag k="natural" v="water" />
		<tag k="ssr:stedsnr" v="243466" />
	</node>
	<node id="-405155" lat="58.739827778" lon="5.89321944453">
		<tag k="alt_name" v="nordra Vatnet" />
		<tag k="name" v="Nordravatnet" />
		<tag k="natural" v="water" />
		<tag k="old_name" v="Nordavatnet" />
		<tag k="ssr:stedsnr" v="242361" />
	</node>
	<node id="-405154" lat="58.8841249997" lon="6.33612222716">
		<tag k="name" v="Grastjørn" />
		<tag k="natural" v="water" />
		<tag k="ssr:stedsnr" v="241990" />
	</node>
	<node id="-405153" lat="58.7843277804" lon="6.4169972176">
		<tag k="name" v="Holmen" />
		<tag k="place" v="islet" />
		<tag k="ssr:stedsnr" v="241940" />
	</node>
	<node id="-405152" lat="58.8820805584" lon="6.57573611646">
		<tag k="name" v="Fossetjørnene" />
		<tag k="natural" v="water" />
		<tag k="ssr:stedsnr" v="241904" />
	</node>
	<node id="-405151" lat="58.8634750003" lon="6.56396110249">
		<tag k="name" v="Veltebekk" />
		<tag k="ssr:stedsnr" v="241899" />
		<tag k="waterway" v="stream" />
	</node>
	<node id="-405150" lat="58.829505554" lon="6.03851667124">
		<tag k="name" v="Gjetlebekken" />
		<tag k="ssr:stedsnr" v="241819" />
		<tag k="waterway" v="stream" />
	</node>
	<node id="-405148" lat="58.8106611087" lon="6.13073333096">
		<tag k="name" v="Indretjørna" />
		<tag k="natural" v="water" />
		<tag k="ssr:stedsnr" v="241613" />
	</node>
	<node id="-405144" lat="58.8315222265" lon="6.47172777777">
		<tag k="name" v="Gaudøynvatnet" />
		<tag k="natural" v="water" />
		<tag k="ssr:stedsnr" v="241062" />
		<tag k="water" v="lake" />
	</node>
	<node id="-405136" lat="58.8483777821" lon="6.11358333487">
		<tag k="name" v="Bjørabekken" />
		<tag k="ssr:stedsnr" v="239917" />
		<tag k="waterway" v="stream" />
	</node>
	<node id="-405124" lat="58.7825194486" lon="6.31271111407">
		<tag k="name" v="Tangjen" />
		<tag k="natural" v="cape" />
		<tag k="ssr:stedsnr" v="223985" />
	</node>
	<node id="-405120" lat="58.7963361105" lon="6.0486694471">
		<tag k="name" v="Fjedlabekken" />
		<tag k="ssr:stedsnr" v="222735" />
		<tag k="waterway" v="stream" />
	</node>
	<node id="-405117" lat="58.7741750004" lon="6.30212777779">
		<tag k="name" v="Bjørketangen" />
		<tag k="natural" v="cape" />
		<tag k="ssr:stedsnr" v="222691" />
	</node>
	<node id="-405114" lat="58.7495861095" lon="6.02561110859">
		<tag k="name" v="Forabekken" />
		<tag k="ssr:stedsnr" v="222459" />
		<tag k="waterway" v="stream" />
	</node>
	<node id="-405105" lat="58.8674055521" lon="6.35059444877">
		<tag k="name" v="Såmtjørna" />
		<tag k="natural" v="water" />
		<tag k="ssr:stedsnr" v="222971" />
	</node>
	<node id="-405089" lat="58.6968472184" lon="5.9670222216">
		<tag k="name" v="Forabekken" />
		<tag k="ssr:stedsnr" v="205802" />
		<tag k="waterway" v="stream" />
	</node>
	<node id="-405084" lat="58.7326111121" lon="5.86934166038">
		<tag k="name" v="Evansblanstjørna" />
		<tag k="natural" v="water" />
		<tag k="ssr:stedsnr" v="205717" />
	</node>
	<node id="-405081" lat="58.7100277822" lon="5.93432778503">
		<tag k="name" v="Torkellstjørna" />
		<tag k="natural" v="water" />
		<tag k="ssr:stedsnr" v="205260" />
	</node>
	<node id="-405066" lat="58.845877778" lon="6.56897500376">
		<tag k="alt_name" v="Halsavatnet" />
		<tag k="name" v="Halsavatn" />
		<tag k="natural" v="water" />
		<tag k="ssr:stedsnr" v="183672" />
	</node>
	<node id="-405059" lat="58.8570250014" lon="6.32279444625">
		<tag k="alt_name" v="Krogtjørna" />
		<tag k="name" v="Kroktjørn" />
		<tag k="natural" v="water" />
		<tag k="ssr:stedsnr" v="183640" />
	</node>
	<node id="-405058" lat="58.7522611088" lon="6.04326388418">
		<tag k="alt_name" v="Hagatjørna, store" />
		<tag k="name" v="Store Hagatjørna" />
		<tag k="natural" v="water" />
		<tag k="ssr:stedsnr" v="183606" />
	</node>
	<node id="-404405" lat="58.8186722189" lon="6.47665000043">
		<tag k="name" v="Kvassebergtjørna" />
		<tag k="natural" v="water" />
		<tag k="ssr:stedsnr" v="344923" />
	</node>
	<node id="-405052" lat="58.7792361075" lon="5.8858722287">
		<tag k="alt_name" v="Tjødnakovtjørna" />
		<tag k="name" v="Tjørnakovtjørna" />
		<tag k="natural" v="water" />
		<tag k="ssr:stedsnr" v="183535" />
	</node>
	<node id="-405045" lat="58.7733249995" lon="6.29612499609">
		<tag k="name" v="Gloppedalsvatnet" />
		<tag k="natural" v="water" />
		<tag k="ssr:stedsnr" v="182833" />
	</node>
	<node id="-405044" lat="58.8719138901" lon="6.44042500771">
		<tag k="alt_name" v="Slettabekktjørnane" />
		<tag k="name" v="Slettabøtjørna" />
		<tag k="natural" v="water" />
		<tag k="ssr:stedsnr" v="182649" />
	</node>
	<node id="-405043" lat="58.8901222198" lon="6.37838334015">
		<tag k="name" v="Helradalsvatnet" />
		<tag k="natural" v="water" />
		<tag k="ssr:stedsnr" v="182634" />
	</node>
	<node id="-405041" lat="58.7001583362" lon="5.9681333364">
		<tag k="name" v="Fiskelitjørna" />
		<tag k="natural" v="water" />
		<tag k="ssr:stedsnr" v="182484" />
	</node>
	<node id="-405040" lat="58.6778138863" lon="5.96534167419">
		<tag k="name" v="Galtatjørna" />
		<tag k="natural" v="water" />
		<tag k="ssr:stedsnr" v="182466" />
	</node>
	<node id="-405038" lat="58.7335305587" lon="6.0006750019">
		<tag k="name" v="Melhusvatnet" />
		<tag k="natural" v="water" />
		<tag k="ssr:stedsnr" v="182395" />
	</node>
	<node id="-404402" lat="58.7482416639" lon="6.30512500198">
		<tag k="name" v="Stien" />
		<tag k="natural" v="beach" />
		<tag k="ssr:stedsnr" v="342455" />
	</node>
	<node id="-405032" lat="58.8176027822" lon="6.23673611631">
		<tag k="name" v="Egeberbekken" />
		<tag k="ssr:stedsnr" v="181572" />
		<tag k="waterway" v="stream" />
	</node>
	<node id="-405028" lat="58.865969444" lon="6.37394721648">
		<tag k="name" v="Midstøltjørna" />
		<tag k="natural" v="water" />
		<tag k="ssr:stedsnr" v="180971" />
	</node>
	<node id="-405023" lat="58.7469611073" lon="6.08091944478">
		<tag k="name" v="Svarta Tjødno" />
		<tag k="natural" v="water" />
		<tag k="ssr:stedsnr" v="180358" />
	</node>
	<node id="-405019" lat="58.7705111076" lon="6.01297221759">
		<tag k="name" v="Skittjørna" />
		<tag k="natural" v="water" />
		<tag k="ssr:stedsnr" v="180087" />
	</node>
	<node id="-405017" lat="58.7625805522" lon="6.02591667171">
		<tag k="name" v="Nordheiåna" />
		<tag k="ssr:stedsnr" v="180077" />
		<tag k="waterway" v="river" />
	</node>
	<node id="-405010" lat="58.8380194471" lon="6.1338611105">
		<tag k="name" v="Padlen" />
		<tag k="natural" v="water" />
		<tag k="ssr:stedsnr" v="178934" />
	</node>
	<node id="-405005" lat="58.8516861131" lon="6.11244167081">
		<tag k="name" v="Einertjørn" />
		<tag k="natural" v="water" />
		<tag k="ssr:stedsnr" v="178878" />
	</node>
	<node id="-404997" lat="58.8529666651" lon="6.36945277594">
		<tag k="name" v="Eigeskogfossen" />
		<tag k="natural" v="waterfall" />
		<tag k="ssr:stedsnr" v="178666" />
	</node>
	<node id="-404996" lat="58.7734222236" lon="6.36959166723">
		<tag k="name" v="Stora Tjønndalstjørna" />
		<tag k="natural" v="water" />
		<tag k="ssr:stedsnr" v="163519" />
	</node>
	<node id="-404990" lat="58.6913555542" lon="6.00047222206">
		<tag k="name" v="Svarta Tjødnå" />
		<tag k="natural" v="water" />
		<tag k="ssr:stedsnr" v="162461" />
	</node>
	<node id="-404989" lat="58.8105750036" lon="6.02393610259">
		<tag k="name" v="Litle Holmen" />
		<tag k="place" v="islet" />
		<tag k="ssr:stedsnr" v="162374" />
	</node>
	<node id="-404982" lat="58.8468916671" lon="6.36419166552">
		<tag k="name" v="Neshølen" />
		<tag k="natural" v="water" />
		<tag k="ssr:stedsnr" v="161673" />
		<tag k="water" v="lake" />
	</node>
	<node id="-404974" lat="58.7255972237" lon="6.01222778023">
		<tag k="name" v="Paddetjørna" />
		<tag k="natural" v="water" />
		<tag k="ssr:stedsnr" v="160069" />
	</node>
	<node id="-404972" lat="58.795694448" lon="6.25359166029">
		<tag k="name" v="Brekkebekken" />
		<tag k="ssr:stedsnr" v="159404" />
		<tag k="waterway" v="stream" />
	</node>
	<node id="-404969" lat="58.7362555542" lon="5.97737499285">
		<tag k="name" v="Litlatjørna" />
		<tag k="natural" v="water" />
		<tag k="ssr:stedsnr" v="144966" />
	</node>
	<node id="-404954" lat="58.6756750039" lon="5.9592944401">
		<tag k="name" v="Torstjørna" />
		<tag k="natural" v="water" />
		<tag k="ssr:stedsnr" v="144357" />
	</node>
	<node id="-404945" lat="58.742630556" lon="5.84657499841">
		<tag k="name" v="Budalstjørn" />
		<tag k="natural" v="water" />
		<tag k="ssr:stedsnr" v="143093" />
	</node>
	<node id="-404938" lat="58.824905559" lon="6.26012499745">
		<tag k="name" v="Tjørndalsvatnet" />
		<tag k="natural" v="water" />
		<tag k="ssr:stedsnr" v="142119" />
		<tag k="water" v="lake" />
	</node>
	<node id="-404928" lat="58.8283999963" lon="6.26288888415">
		<tag k="alt_name" v="Råsavatnet" />
		<tag k="name" v="Råssavatnet" />
		<tag k="natural" v="water" />
		<tag k="ssr:stedsnr" v="122670" />
	</node>
	<node id="-404927" lat="58.8283750018" lon="6.24367500523">
		<tag k="alt_name" v="Launesvatnet" />
		<tag k="name" v="Lauvnesvatnet" />
		<tag k="natural" v="water" />
		<tag k="ssr:stedsnr" v="122668" />
	</node>
	<node id="-404923" lat="58.7531388882" lon="6.03696111661">
		<tag k="alt_name" v="Hagatjørna, litle;Hagatjørna, litla" />
		<tag k="name" v="Litle Hagatjørna" />
		<tag k="natural" v="water" />
		<tag k="ssr:stedsnr" v="122613" />
	</node>
	<node id="-404922" lat="58.8372222234" lon="6.1149416733">
		<tag k="alt_name" v="Ragsvatn" />
		<tag k="name" v="Ragsvatnet" />
		<tag k="natural" v="water" />
		<tag k="ssr:stedsnr" v="122607" />
		<tag k="water" v="lake" />
	</node>
	<node id="-404911" lat="58.7975009016" lon="6.15476755301">
		<tag k="name" v="Hanklatjørna" />
		<tag k="natural" v="water" />
		<tag k="ssr:stedsnr" v="122526" />
	</node>
	<node id="-404910" lat="58.7978305577" lon="6.08253611554">
		<tag k="name" v="Syltratjørna" />
		<tag k="natural" v="water" />
		<tag k="ssr:stedsnr" v="122523" />
	</node>
	<node id="-404905" lat="58.7413722221" lon="6.34630277971">
		<tag k="alt_name" v="Litlatjørn" />
		<tag k="name" v="Litletjørn" />
		<tag k="natural" v="water" />
		<tag k="ssr:stedsnr" v="122128" />
	</node>
	<node id="-404902" lat="58.7014194468" lon="5.89335277867">
		<tag k="name" v="Bastlitjørna" />
		<tag k="natural" v="water" />
		<tag k="ssr:stedsnr" v="121461" />
	</node>
	<node id="-404901" lat="58.7058472201" lon="5.87953332703">
		<tag k="name" v="Nåselvatnet" />
		<tag k="natural" v="water" />
		<tag k="ssr:stedsnr" v="121459" />
	</node>
	<node id="-404899" lat="58.7439333321" lon="5.87236666051">
		<tag k="alt_name" v="Grunnetjørna" />
		<tag k="name" v="Grønnestjørna" />
		<tag k="natural" v="water" />
		<tag k="ssr:stedsnr" v="121389" />
	</node>
	<node id="-404896" lat="58.8804416656" lon="6.30657499409">
		<tag k="name" v="Ørestø" />
		<tag k="natural" v="cape" />
		<tag k="ssr:stedsnr" v="120984" />
	</node>
	<node id="-404890" lat="58.7841305569" lon="6.0627583381">
		<tag k="name" v="Mjåsundet" />
		<tag k="natural" v="strait" />
		<tag k="ssr:stedsnr" v="120619" />
	</node>
	<node id="-404884" lat="58.7875666672" lon="6.06928611153">
		<tag k="name" v="Øksbekken" />
		<tag k="ssr:stedsnr" v="120592" />
		<tag k="waterway" v="stream" />
	</node>
	<node id="-404883" lat="58.7883416672" lon="6.14592222882">
		<tag k="name" v="Litla Veltetjørna" />
		<tag k="natural" v="water" />
		<tag k="ssr:stedsnr" v="120585" />
	</node>
	<node id="-404882" lat="58.7898666683" lon="6.12673889594">
		<tag k="name" v="Midtre Fisketjørn" />
		<tag k="natural" v="water" />
		<tag k="ssr:stedsnr" v="120582" />
	</node>
	<node id="-404871" lat="58.844694441" lon="6.54623054893">
		<tag k="name" v="Longatjørna" />
		<tag k="natural" v="water" />
		<tag k="ssr:stedsnr" v="119084" />
	</node>
	<node id="-404864" lat="58.7866611087" lon="6.02974167147">
		<tag k="name" v="Spegeneset" />
		<tag k="natural" v="cape" />
		<tag k="ssr:stedsnr" v="118655" />
	</node>
	<node id="-404862" lat="58.8438944426" lon="6.2986833368">
		<tag k="name" v="Frafjordåna" />
		<tag k="ssr:stedsnr" v="117566" />
		<tag k="waterway" v="river" />
	</node>
	<node id="-404842" lat="58.828655551" lon="6.33286388439">
		<tag k="name" v="Longe Tjødnane" />
		<tag k="natural" v="water" />
		<tag k="ssr:stedsnr" v="101732" />
	</node>
	<node id="-404841" lat="58.8544444483" lon="6.28461111824">
		<tag k="name" v="Breidaltjørna" />
		<tag k="natural" v="water" />
		<tag k="ssr:stedsnr" v="101583" />
	</node>
	<node id="-404840" lat="58.7014527795" lon="6.00766665968">
		<tag k="name" v="Ånå" />
		<tag k="ssr:stedsnr" v="101486" />
		<tag k="waterway" v="river" />
	</node>
	<node id="-404839" lat="58.8578361079" lon="6.26275277706">
		<tag k="name" v="Kjelabekken" />
		<tag k="ssr:stedsnr" v="100977" />
		<tag k="waterway" v="stream" />
	</node>
	<node id="-404823" lat="58.7566267091" lon="6.06154929409">
		<tag k="name" v="Olsbekken" />
		<tag k="ssr:stedsnr" v="100452" />
		<tag k="waterway" v="stream" />
	</node>
	<node id="-404809" lat="58.798202256" lon="6.06285902894">
		<tag k="alt_name" v="Vølstadtjørna, ytre" />
		<tag k="fixme" v="multiple name tags, choose one and add the other to alt_name" />
		<tag k="name" v="Heimra Tjødnå;Ytre Vølstadtjørna" />
		<tag k="natural" v="water" />
		<tag k="ssr:stedsnr" v="83986" />
	</node>
	<node id="-404806" lat="58.7324194417" lon="5.9888722258">
		<tag k="name" v="Lammatjørn" />
		<tag k="natural" v="water" />
		<tag k="ssr:stedsnr" v="83787" />
	</node>
	<node id="-404805" lat="58.7197000001" lon="5.9761527819">
		<tag k="name" v="Oppsalåna" />
		<tag k="ssr:stedsnr" v="83783" />
		<tag k="waterway" v="river" />
	</node>
	<node id="-404794" lat="58.7569138876" lon="5.85682777083">
		<tag k="name" v="Grønse" />
		<tag k="natural" v="bay" />
		<tag k="ssr:stedsnr" v="83069" />
	</node>
	<node id="-404790" lat="58.9008861143" lon="6.49442500455">
		<tag k="name" v="Kvernavatnet" />
		<tag k="natural" v="water" />
		<tag k="ssr:stedsnr" v="62745" />
	</node>
	<node id="-404786" lat="58.759127782" lon="6.06653055972">
		<tag k="alt_name" v="Foretjørna, store;Stora Foretjørn" />
		<tag k="name" v="Store Foretjørna" />
		<tag k="natural" v="water" />
		<tag k="ssr:stedsnr" v="62611" />
	</node>
	<node id="-404783" lat="58.7669138922" lon="6.07691389383">
		<tag k="name" v="Brekkåna" />
		<tag k="ssr:stedsnr" v="62586" />
		<tag k="waterway" v="stream" />
	</node>
	<node id="-404359" lat="58.8581861137" lon="6.24290000239">
		<tag k="name" v="Fjorderòsa" />
		<tag k="ssr:stedsnr" v="304656" />
		<tag k="waterway" v="stream" />
	</node>
	<node id="-404776" lat="58.7390527789" lon="6.31630278284">
		<tag k="alt_name" v="Bleiavatnet, nedre;Nedra Bleievatnet" />
		<tag k="name" v="Nedre Bleiavatnet" />
		<tag k="natural" v="water" />
		<tag k="ssr:stedsnr" v="62129" />
	</node>
	<node id="-404772" lat="58.7773111145" lon="6.40050000359">
		<tag k="alt_name" v="Myrevatnet" />
		<tag k="name" v="Myrtjørna" />
		<tag k="natural" v="water" />
		<tag k="ssr:stedsnr" v="61842" />
	</node>
	<node id="-404768" lat="58.8437731563" lon="6.45948574446">
		<tag k="fixme" v="multiple name tags, choose one and add the other to alt_name" />
		<tag k="name" v="Angetetjørnene;Vinkeltjørnane" />
		<tag k="natural" v="water" />
		<tag k="ssr:stedsnr" v="61669" />
	</node>
	<node id="-404762" lat="58.8762611123" lon="6.36659999302">
		<tag k="alt_name" v="Øyevatnet" />
		<tag k="name" v="Øyavatnet" />
		<tag k="natural" v="water" />
		<tag k="ssr:stedsnr" v="61612" />
	</node>
	<node id="-404760" lat="58.7844166677" lon="6.11021667153">
		<tag k="name" v="Fossbekken" />
		<tag k="ssr:stedsnr" v="61535" />
		<tag k="waterway" v="stream" />
	</node>
	<node id="-406404" lat="58.8916305589" lon="6.44358889642">
		<tag k="name" v="Stølavika" />
		<tag k="natural" v="bay" />
		<tag k="ssr:stedsnr" v="938416" />
	</node>
	<node id="-404757" lat="58.8064305528" lon="6.1518388857">
		<tag k="alt_name" v="Svartatjørna" />
		<tag k="name" v="Svartatjørn" />
		<tag k="natural" v="water" />
		<tag k="ssr:stedsnr" v="61505" />
	</node>
	<node id="-404754" lat="58.7212194433" lon="6.02879166944">
		<tag k="alt_name" v="Grasdalsvatn" />
		<tag k="name" v="Grasdalsvatnet" />
		<tag k="natural" v="water" />
		<tag k="ssr:stedsnr" v="61464" />
		<tag k="water" v="lake" />
	</node>
	<node id="-404753" lat="58.6755305543" lon="5.9738805517">
		<tag k="name" v="Kyrtjørna" />
		<tag k="natural" v="water" />
		<tag k="ssr:stedsnr" v="61450" />
	</node>
	<node id="-404747" lat="58.8668833308" lon="6.42649166831">
		<tag k="name" v="Knudatjørnane" />
		<tag k="natural" v="water" />
		<tag k="ssr:stedsnr" v="59894" />
	</node>
	<node id="-404746" lat="58.8770944449" lon="6.60131388244">
		<tag k="name" v="Tveidebekken" />
		<tag k="ssr:stedsnr" v="59877" />
		<tag k="waterway" v="stream" />
	</node>
	<node id="-404741" lat="58.8107083349" lon="6.27216667463">
		<tag k="name" v="Kvitalandsbekken" />
		<tag k="ssr:stedsnr" v="59572" />
		<tag k="waterway" v="stream" />
	</node>
	<node id="-404739" lat="58.8020416697" lon="6.19612221974">
		<tag k="name" v="Litla Holmavatnet" />
		<tag k="natural" v="water" />
		<tag k="ssr:stedsnr" v="59553" />
		<tag k="water" v="lake" />
	</node>
	<node id="-404711" lat="58.8785944416" lon="6.34506944358">
		<tag k="name" v="Stora Sliravatnet" />
		<tag k="natural" v="water" />
		<tag k="ssr:stedsnr" v="40983" />
		<tag k="water" v="lake" />
	</node>
	<node id="-404706" lat="58.8059611068" lon="6.36712777187">
		<tag k="name" v="Fossen" />
		<tag k="ssr:stedsnr" v="40539" />
		<tag k="waterway" v="stream" />
	</node>
	<node id="-404702" lat="58.7528833338" lon="6.30142777374">
		<tag k="name" v="Røsetjønnbekken" />
		<tag k="ssr:stedsnr" v="40514" />
		<tag k="waterway" v="stream" />
	</node>
	<node id="-404697" lat="58.8428555555" lon="6.23524443849">
		<tag k="name" v="Slogbekk" />
		<tag k="ssr:stedsnr" v="39967" />
		<tag k="waterway" v="stream" />
	</node>
	<node id="-404692" lat="58.7746166711" lon="6.0866777841">
		<tag k="name" v="Grunnåna" />
		<tag k="ssr:stedsnr" v="39425" />
		<tag k="waterway" v="stream" />
	</node>
	<node id="-404691" lat="58.7646972188" lon="6.08242223089">
		<tag k="name" v="Lonå" />
		<tag k="natural" v="water" />
		<tag k="ssr:stedsnr" v="39422" />
		<tag k="water" v="lake" />
	</node>
	<node id="-404343" lat="58.7961000001" lon="6.21145000736">
		<tag k="alt_name" v="Skjeretjørna" />
		<tag k="name" v="Skjertja" />
		<tag k="natural" v="water" />
		<tag k="ssr:stedsnr" v="304570" />
	</node>
	<node id="-404680" lat="58.7413638859" lon="5.94747500407">
		<tag k="name" v="Tøgjeåna" />
		<tag k="ssr:stedsnr" v="23974" />
		<tag k="waterway" v="river" />
	</node>
	<node id="-404676" lat="58.7444388879" lon="5.97823333039">
		<tag k="name" v="Torkjeltjørna" />
		<tag k="natural" v="water" />
		<tag k="ssr:stedsnr" v="23952" />
		<tag k="water" v="lake" />
	</node>
	<node id="-404671" lat="58.7035138868" lon="5.96256667012">
		<tag k="name" v="Gulleggstjørna" />
		<tag k="natural" v="water" />
		<tag k="ssr:stedsnr" v="23808" />
	</node>
	<node id="-404669" lat="58.7168138877" lon="5.90233054791">
		<tag k="name" v="Baklitjørna" />
		<tag k="natural" v="water" />
		<tag k="ssr:stedsnr" v="23722" />
	</node>
	<node id="-404664" lat="58.7496527801" lon="5.89837221922">
		<tag k="name" v="Skurvetjørna" />
		<tag k="natural" v="water" />
		<tag k="ssr:stedsnr" v="23133" />
	</node>
	<node id="-404340" lat="58.7820250005" lon="5.88010554688">
		<tag k="name" v="Rotatjørn" />
		<tag k="natural" v="water" />
		<tag k="old_name" v="Tjodankovtjørn" />
		<tag k="ssr:stedsnr" v="304558" />
	</node>
	<node id="-404660" lat="58.7636527788" lon="5.85754167214">
		<tag k="name" v="Kadlaneset" />
		<tag k="natural" v="cape" />
		<tag k="ssr:stedsnr" v="23075" />
	</node>
	<node id="-404659" lat="58.7712244932" lon="5.84090031432">
		<tag k="name" v="Berlandshølen" />
		<tag k="place" v="locality" />
		<tag k="ssr:stedsnr" v="23072" />
	</node>
	<node id="-404654" lat="58.8950055554" lon="6.44689999656">
		<tag k="name" v="Fidjavatnet" />
		<tag k="natural" v="water" />
		<tag k="ssr:stedsnr" v="1740" />
		<tag k="water" v="lake" />
	</node>
	<node id="-404653" lat="58.8304361145" lon="6.4280611117">
		<tag k="name" v="Rindabekken" />
		<tag k="ssr:stedsnr" v="1676" />
		<tag k="waterway" v="stream" />
	</node>
	<node id="-404650" lat="58.7683750034" lon="6.106911107">
		<tag k="name" v="Gloppevatnet" />
		<tag k="natural" v="water" />
		<tag k="ssr:stedsnr" v="1599" />
		<tag k="water" v="lake" />
	</node>
	<node id="-404648" lat="58.7930916711" lon="6.09526111397">
		<tag k="name" v="Husåna" />
		<tag k="ssr:stedsnr" v="1567" />
		<tag k="waterway" v="river" />
	</node>
	<node id="-404646" lat="58.7870305563" lon="5.97920000108">
		<tag k="name" v="Sjurstjørna" />
		<tag k="natural" v="water" />
		<tag k="ssr:stedsnr" v="1560" />
	</node>
	<node id="-404643" lat="58.7394833361" lon="5.91734166623">
		<tag k="name" v="Langavatnet" />
		<tag k="natural" v="water" />
		<tag k="ssr:stedsnr" v="1196" />
		<tag k="water" v="lake" />
	</node>
	<node id="-404641" lat="58.7803750043" lon="6.47047500797">
		<tag k="name" v="Kaldavatnet" />
		<tag k="natural" v="water" />
		<tag k="ssr:stedsnr" v="850" />
	</node>
	<node id="-404639" lat="58.8717694455" lon="6.50942499555">
		<tag k="alt_name" v="Brådlandsvatnet, store;Store Brådlandsvatnet" />
		<tag k="name" v="Stora Brådlandsvatnet" />
		<tag k="natural" v="water" />
		<tag k="ssr:stedsnr" v="634" />
		<tag k="water" v="lake" />
	</node>
	<node id="-404638" lat="58.8018166704" lon="6.10549999876">
		<tag k="alt_name" v="Kvislavatnet" />
		<tag k="name" v="Kvitlavatnet" />
		<tag k="natural" v="water" />
		<tag k="ssr:stedsnr" v="535" />
		<tag k="water" v="lake" />
	</node>
	<node id="-404635" lat="58.6940611072" lon="5.88934999776">
		<tag k="name" v="Sikvalandsvatnet" />
		<tag k="natural" v="water" />
		<tag k="ssr:stedsnr" v="498" />
	</node>
	<node id="-404634" lat="58.700274786" lon="5.92453828836">
		<tag k="alt_name" v="Krokavatnet" />
		<tag k="name" v="Krokavatna" />
		<tag k="natural" v="water" />
		<tag k="ssr:stedsnr" v="494" />
	</node>
	<node id="-404633" lat="58.6764865656" lon="5.98588682688">
		<tag k="alt_name" v="Kydlandsvatnet, ytra;ytre Kydlandsvatnet" />
		<tag k="fixme" v="multiple name tags, choose one and add the other to alt_name" />
		<tag k="name" v="Buevatnet;Ytra Kydlandsvatnet" />
		<tag k="natural" v="water" />
		<tag k="ssr:stedsnr" v="470" />
		<tag k="water" v="lake" />
	</node>
	<node id="-404632" lat="58.7381277754" lon="6.04481944589">
		<tag k="alt_name" v="Dybingsvatnet" />
		<tag k="name" v="Dypingen" />
		<tag k="natural" v="water" />
		<tag k="ssr:stedsnr" v="410" />
	</node>
	<node id="-404631" lat="58.7343055514" lon="5.9022583359">
		<tag k="alt_name" v="Øystrevatnet;Øystrevatn" />
		<tag k="name" v="Øystravatnet" />
		<tag k="natural" v="water" />
		<tag k="ssr:stedsnr" v="384" />
	</node>
	<node id="-404630" lat="58.7308305574" lon="5.86246666689">
		<tag k="name" v="Røssetjørna" />
		<tag k="natural" v="water" />
		<tag k="ssr:stedsnr" v="382" />
	</node>
	<node id="-404629" lat="58.7409472214" lon="6.01002777785">
		<tag k="name" v="Storavatnet" />
		<tag k="natural" v="water" />
		<tag k="ssr:stedsnr" v="380" />
		<tag k="water" v="lake" />
	</node>
	<node id="-404615" lat="58.7899999972" lon="6.31209999661">
		<tag k="name" v="Rokleivtjørn" />
		<tag k="natural" v="water" />
		<tag k="ssr:stedsnr" v="891994" />
	</node>
	<node id="-404614" lat="58.7889944466" lon="6.37140554728">
		<tag k="name" v="Stølabekken" />
		<tag k="ssr:stedsnr" v="891980" />
		<tag k="waterway" v="stream" />
	</node>
	<node id="-404613" lat="58.8108527741" lon="6.39701389386">
		<tag k="name" v="Slibehølen" />
		<tag k="natural" v="water" />
		<tag k="ssr:stedsnr" v="891961" />
		<tag k="water" v="lake" />
	</node>
	<node id="-404612" lat="58.8117805532" lon="6.38639444032">
		<tag k="name" v="Torbjørnstobekken" />
		<tag k="ssr:stedsnr" v="891955" />
		<tag k="waterway" v="stream" />
	</node>
	<node id="-404601" lat="58.8435777777" lon="6.34057221841">
		<tag k="name" v="Molaugsneset" />
		<tag k="natural" v="cape" />
		<tag k="ssr:stedsnr" v="890602" />
	</node>
	<node id="-404600" lat="58.7400305581" lon="6.04926111393">
		<tag k="name" v="Langavassbekken" />
		<tag k="ssr:stedsnr" v="890520" />
		<tag k="waterway" v="stream" />
	</node>
	<node id="-404599" lat="58.736166669" lon="6.00950556273">
		<tag k="name" v="Store Dalen" />
		<tag k="natural" v="bay" />
		<tag k="ssr:stedsnr" v="890454" />
	</node>
	<node id="-404594" lat="58.8247777766" lon="6.26106388453">
		<tag k="name" v="StoraTjønndalsvatnet" />
		<tag k="natural" v="water" />
		<tag k="ssr:stedsnr" v="889526" />
	</node>
	<node id="-404593" lat="58.8133694455" lon="6.37664444179">
		<tag k="name" v="Kvednabekken" />
		<tag k="ssr:stedsnr" v="889514" />
		<tag k="waterway" v="stream" />
	</node>
	<node id="-404592" lat="58.8354055567" lon="6.18775832989">
		<tag k="name" v="Bruholmen" />
		<tag k="place" v="islet" />
		<tag k="ssr:stedsnr" v="889513" />
	</node>
	<node id="-404586" lat="58.7618724968" lon="6.09417793367">
		<tag k="name" v="Bekkene" />
		<tag k="ssr:stedsnr" v="889460" />
		<tag k="waterway" v="stream" />
	</node>
	<node id="-404581" lat="58.7550861153" lon="6.34611110502">
		<tag k="name" v="Brekkebekken" />
		<tag k="ssr:stedsnr" v="406555" />
		<tag k="waterway" v="stream" />
	</node>
	<node id="-404579" lat="58.8089416642" lon="6.38733611843">
		<tag k="name" v="Ormøyna" />
		<tag k="natural" v="cape" />
		<tag k="ssr:stedsnr" v="405962" />
	</node>
	<node id="-404574" lat="58.8087611222" lon="6.00285518592">
		<tag k="name" v="Tædeneset" />
		<tag k="natural" v="cape" />
		<tag k="ssr:stedsnr" v="405290" />
	</node>
	<node id="-404325" lat="58.7398722232" lon="5.99083332468">
		<tag k="name" v="Heiatjørna" />
		<tag k="natural" v="water" />
		<tag k="ssr:stedsnr" v="303374" />
	</node>
	<node id="-404561" lat="58.7422166638" lon="6.05011388252">
		<tag k="name" v="Olslia" />
		<tag k="ssr:stedsnr" v="404461" />
		<tag k="waterway" v="river" />
	</node>
	<node id="-404553" lat="58.7207583324" lon="6.02361389544">
		<tag k="name" v="Tangane" />
		<tag k="natural" v="cape" />
		<tag k="ssr:stedsnr" v="403101" />
	</node>
	<node id="-404546" lat="58.7532555564" lon="5.98469721952">
		<tag k="name" v="Indre Tjetlandsvatnet" />
		<tag k="natural" v="water" />
		<tag k="ssr:stedsnr" v="387939" />
		<tag k="water" v="lake" />
	</node>
	<node id="-404534" lat="58.7136638934" lon="5.92520556294">
		<tag k="name" v="Jerabekken" />
		<tag k="ssr:stedsnr" v="386706" />
		<tag k="waterway" v="stream" />
	</node>
	<node id="-404533" lat="58.6966777735" lon="5.8965694455">
		<tag k="name" v="Kvednatjørna" />
		<tag k="natural" v="water" />
		<tag k="ssr:stedsnr" v="386242" />
	</node>
	<node id="-404318" lat="58.8646472199" lon="6.56034166013">
		<tag k="name" v="Stølsbekken" />
		<tag k="ssr:stedsnr" v="302876" />
		<tag k="waterway" v="stream" />
	</node>
	<node id="-404524" lat="58.7454472229" lon="5.89041388086">
		<tag k="name" v="Tverråna" />
		<tag k="ssr:stedsnr" v="386097" />
		<tag k="waterway" v="river" />
	</node>
	<node id="-404523" lat="58.7631638901" lon="5.89882778298">
		<tag k="name" v="Kleivabekken" />
		<tag k="ssr:stedsnr" v="386087" />
		<tag k="waterway" v="stream" />
	</node>
	<node id="-404522" lat="58.7627638909" lon="5.83998054842">
		<tag k="name" v="Brunnvika" />
		<tag k="natural" v="bay" />
		<tag k="ssr:stedsnr" v="386073" />
	</node>
	<node id="-404516" lat="58.8095000006" lon="6.44233889693">
		<tag k="name" v="Krosstjørna" />
		<tag k="natural" v="water" />
		<tag k="ssr:stedsnr" v="365845" />
	</node>
	<node id="-404514" lat="58.9411222236" lon="6.61492499959">
		<tag k="name" v="Svartavatnet" />
		<tag k="natural" v="water" />
		<tag k="ssr:stedsnr" v="365813" />
	</node>
	<node id="-404511" lat="58.8434888927" lon="6.32882778116">
		<tag k="name" v="Molaugvatnet" />
		<tag k="natural" v="water" />
		<tag k="ssr:stedsnr" v="365695" />
	</node>
	<node id="-404506" lat="58.8294250031" lon="6.00388611342">
		<tag k="name" v="Tjoatjørna" />
		<tag k="natural" v="water" />
		<tag k="ssr:stedsnr" v="365630" />
	</node>
	<node id="-404491" lat="58.8623749968" lon="6.3848611184">
		<tag k="name" v="Månabekken" />
		<tag k="ssr:stedsnr" v="364654" />
		<tag k="waterway" v="stream" />
	</node>
	<node id="-404490" lat="58.8850805516" lon="6.4780527752">
		<tag k="name" v="Mørkatjørna" />
		<tag k="natural" v="water" />
		<tag k="ssr:stedsnr" v="364645" />
	</node>
	<node id="-404487" lat="58.7162527745" lon="5.92649444156">
		<tag k="alt_name" v="Kringlelivatn" />
		<tag k="name" v="Kringlelitjørna" />
		<tag k="natural" v="water" />
		<tag k="ssr:stedsnr" v="364475" />
	</node>
	<node id="-404486" lat="58.7115083326" lon="5.9473027845">
		<tag k="alt_name" v="Grimevatn" />
		<tag k="name" v="Grimevatnet" />
		<tag k="natural" v="water" />
		<tag k="ssr:stedsnr" v="364470" />
	</node>
	<node id="-404485" lat="58.7082361077" lon="5.91622500535">
		<tag k="alt_name" v="Jeravatnet" />
		<tag k="name" v="Gjeravatnet" />
		<tag k="natural" v="water" />
		<tag k="old_name" v="Gjiravatnet" />
		<tag k="ssr:stedsnr" v="364466" />
	</node>
	<node id="-404484" lat="58.6845361076" lon="5.99862499808">
		<tag k="alt_name" v="Kydlandsvatnet, in;indre Kydlandsvatnet" />
		<tag k="name" v="Indra Kydlandsvatnet" />
		<tag k="natural" v="water" />
		<tag k="ssr:stedsnr" v="364463" />
	</node>
	<node id="-404482" lat="58.7425222202" lon="5.95783888456">
		<tag k="name" v="Selstjørna" />
		<tag k="natural" v="water" />
		<tag k="ssr:stedsnr" v="364388" />
	</node>
	<node id="-404481" lat="58.7723055511" lon="6.44205277786">
		<tag k="alt_name" v="Krogevatnet" />
		<tag k="name" v="Krokavatnet" />
		<tag k="natural" v="water" />
		<tag k="ssr:stedsnr" v="364877" />
		<tag k="water" v="lake" />
	</node>
	<node id="-404479" lat="58.8903361109" lon="6.37748056042">
		<tag k="name" v="Heimra Hellravatnet" />
		<tag k="natural" v="water" />
		<tag k="ssr:stedsnr" v="362981" />
		<tag k="water" v="lake" />
	</node>
	<node id="-404478" lat="58.8651555575" lon="6.40167777905">
		<tag k="name" v="Månaåna" />
		<tag k="ssr:stedsnr" v="362898" />
		<tag k="waterway" v="river" />
	</node>
	<node id="-404475" lat="58.8671861152" lon="6.54786388775">
		<tag k="name" v="Bergebekken" />
		<tag k="ssr:stedsnr" v="362890" />
		<tag k="waterway" v="stream" />
	</node>
	<node id="-404466" lat="58.8244999966" lon="6.39203888351">
		<tag k="name" v="Bortra Tjødnå" />
		<tag k="natural" v="water" />
		<tag k="ssr:stedsnr" v="362415" />
	</node>
	<node id="-404461" lat="58.8597694462" lon="6.56659722746">
		<tag k="name" v="Veltebekken" />
		<tag k="ssr:stedsnr" v="362079" />
		<tag k="waterway" v="stream" />
	</node>
	<node id="-404460" lat="58.8466861107" lon="6.5168944423">
		<tag k="name" v="Åkrogholmen" />
		<tag k="place" v="islet" />
		<tag k="ssr:stedsnr" v="362075" />
	</node>
	<node id="-404458" lat="58.785805558" lon="6.13931110607">
		<tag k="name" v="Stora Veltetjørna" />
		<tag k="natural" v="water" />
		<tag k="ssr:stedsnr" v="362604" />
	</node>
	<node id="-404446" lat="58.8595111095" lon="6.36791667152">
		<tag k="name" v="Urbekk" />
		<tag k="ssr:stedsnr" v="360668" />
		<tag k="waterway" v="stream" />
	</node>
	<node id="-404442" lat="58.8474805585" lon="6.34644722123">
		<tag k="name" v="Nordalsåna" />
		<tag k="ssr:stedsnr" v="345669" />
		<tag k="waterway" v="river" />
	</node>
	<node id="-404303" lat="58.8288944402" lon="6.44369167301">
		<tag k="name" v="Rindabekken" />
		<tag k="ssr:stedsnr" v="302089" />
		<tag k="waterway" v="stream" />
	</node>
	<node id="-404438" lat="58.7726583359" lon="6.38110277435">
		<tag k="name" v="Tvillingtjørnene" />
		<tag k="natural" v="water" />
		<tag k="ssr:stedsnr" v="345509" />
	</node>
	<node id="-404437" lat="58.7649222253" lon="6.49364166904">
		<tag k="name" v="Feidepollen" />
		<tag k="natural" v="water" />
		<tag k="ssr:stedsnr" v="344506" />
		<tag k="water" v="lake" />
	</node>
	<node id="-404436" lat="58.7665694426" lon="6.46259723075">
		<tag k="name" v="Fjorungslona" />
		<tag k="natural" v="water" />
		<tag k="ssr:stedsnr" v="344507" />
		<tag k="water" v="lake" />
	</node>
	<node id="-404429" lat="58.8752500041" lon="6.3558916615">
		<tag k="name" v="Nordestølstjørna" />
		<tag k="natural" v="water" />
		<tag k="ssr:stedsnr" v="343987" />
	</node>
	<node id="-404426" lat="58.7589666695" lon="6.3113833311">
		<tag k="name" v="Råsabekken" />
		<tag k="ssr:stedsnr" v="343749" />
		<tag k="waterway" v="stream" />
	</node>
	<node id="-404425" lat="58.82405278" lon="6.25268333614">
		<tag k="name" v="Litla Tjønndalsvatnet" />
		<tag k="natural" v="water" />
		<tag k="ssr:stedsnr" v="343538" />
	</node>
	<node id="-406471" lat="58.8865388884" lon="6.35560277496">
		<tag k="name" v="Rundatjørna" />
		<tag k="natural" v="water" />
		<tag k="ssr:stedsnr" v="969983" />
	</node>
	<node id="-406470" lat="58.8709472198" lon="6.43566389411">
		<tag k="name" v="Slettabekktjørnane" />
		<tag k="natural" v="water" />
		<tag k="ssr:stedsnr" v="969890" />
	</node>
	<node id="-404421" lat="58.8037527761" lon="6.36812500046">
		<tag k="name" v="Taknes" />
		<tag k="natural" v="cape" />
		<tag k="ssr:stedsnr" v="343501" />
	</node>
	<node id="-404410" lat="58.7758972219" lon="6.13337777851">
		<tag k="name" v="Hiadalsbekken" />
		<tag k="ssr:stedsnr" v="343264" />
		<tag k="waterway" v="stream" />
	</node>
	<node id="-406457" lat="58.8360361069" lon="6.44129445277">
		<tag k="name" v="Ytra Rindabekktjørna" />
		<tag k="natural" v="water" />
		<tag k="ssr:stedsnr" v="969065" />
	</node>
	<node id="-406453" lat="58.8286611136" lon="6.13768333847">
		<tag k="name" v="Lamstjørna" />
		<tag k="natural" v="water" />
		<tag k="ssr:stedsnr" v="967923" />
	</node>
	<node id="-406450" lat="58.8318861137" lon="6.05893889639">
		<tag k="name" v="Oltedalsåna" />
		<tag k="ssr:stedsnr" v="967898" />
		<tag k="waterway" v="river" />
	</node>
	<node id="-404390" lat="58.7969333368" lon="5.94316111026">
		<tag k="name" v="Stølatjørna" />
		<tag k="natural" v="water" />
		<tag k="ssr:stedsnr" v="327869" />
	</node>
	<node id="-404389" lat="58.7483888864" lon="5.88815555227">
		<tag k="name" v="Neseåna" />
		<tag k="ssr:stedsnr" v="327103" />
		<tag k="waterway" v="river" />
	</node>
	<node id="-404385" lat="58.7898999986" lon="5.92746110318">
		<tag k="name" v="Bergebekken" />
		<tag k="ssr:stedsnr" v="327021" />
		<tag k="waterway" v="stream" />
	</node>
	<node id="-406432" lat="58.770394445" lon="6.48217499902">
		<tag k="name" v="Skarlibekken" />
		<tag k="ssr:stedsnr" v="951492" />
		<tag k="waterway" v="stream" />
	</node>
	<node id="-406431" lat="58.8133861149" lon="6.02619166962">
		<tag k="name" v="Store Holmen" />
		<tag k="place" v="islet" />
		<tag k="ssr:stedsnr" v="951357" />
	</node>
	<node id="-406425" lat="58.7830527775" lon="6.01125277329">
		<tag k="name" v="Vølstadåna" />
		<tag k="ssr:stedsnr" v="950719" />
		<tag k="waterway" v="river" />
	</node>
	<node id="-406423" lat="58.8335777806" lon="6.30643610278">
		<tag k="name" v="Middagstjørna" />
		<tag k="natural" v="water" />
		<tag k="ssr:stedsnr" v="950697" />
	</node>
	<node id="-406421" lat="58.8533722219" lon="6.31889166606">
		<tag k="name" v="Miarstjørna" />
		<tag k="natural" v="water" />
		<tag k="ssr:stedsnr" v="950563" />
	</node>
	<node id="-404372" lat="58.7910833329" lon="6.41747499352">
		<tag k="alt_name" v="Bjørnatjørna;Nera Bjødnatjødna" />
		<tag k="name" v="Nedra Bjørnatjørna" />
		<tag k="natural" v="water" />
		<tag k="ssr:stedsnr" v="304866" />
	</node>
	<node id="-404368" lat="58.818058329" lon="6.53790832809">
		<tag k="name" v="Heinshølen" />
		<tag k="natural" v="water" />
		<tag k="ssr:stedsnr" v="304831" />
	</node>
	<node id="-406415" lat="58.7717444462" lon="6.10314721486">
		<tag k="name" v="Gloppåna" />
		<tag k="ssr:stedsnr" v="950459" />
		<tag k="waterway" v="river" />
	</node>
	<node id="-404365" lat="58.9045027815" lon="6.42734999971">
		<tag k="name" v="Løyningstjørna" />
		<tag k="natural" v="water" />
		<tag k="ssr:stedsnr" v="304743" />
	</node>
	<node id="-404362" lat="58.8561500016" lon="6.42821667501">
		<tag k="alt_name" v="Midstølvatnet" />
		<tag k="name" v="Midtstølsvatnet" />
		<tag k="natural" v="water" />
		<tag k="ssr:stedsnr" v="304689" />
	</node>
	<node id="-404361" lat="58.8342249955" lon="6.41970277262">
		<tag k="alt_name" v="Dei longe tjødnane" />
		<tag k="name" v="Langatjørna" />
		<tag k="natural" v="water" />
		<tag k="ssr:stedsnr" v="304690" />
	</node>
	<node id="-406408" lat="58.7532555563" lon="6.3266777791">
		<tag k="name" v="Bleiefossen" />
		<tag k="natural" v="waterfall" />
		<tag k="ssr:stedsnr" v="949424" />
	</node>
	<node id="-406407" lat="58.732808332" lon="6.01508333531">
		<tag k="name" v="Ellitjørna" />
		<tag k="natural" v="water" />
		<tag k="ssr:stedsnr" v="949123" />
	</node>
	<node id="-404356" lat="58.7532527769" lon="6.1086555622">
		<tag k="alt_name" v="Gaupetjørna" />
		<tag k="name" v="Gaupatjørna" />
		<tag k="natural" v="water" />
		<tag k="ssr:stedsnr" v="304635" />
	</node>
	<node id="-404355" lat="58.7496472211" lon="5.86171111418">
		<tag k="name" v="Stemmen" />
		<tag k="natural" v="water" />
		<tag k="ssr:stedsnr" v="304622" />
	</node>
	<node id="-404353" lat="58.7555111084" lon="5.9506888807">
		<tag k="alt_name" v="Kartjørna" />
		<tag k="name" v="Kartatjørna" />
		<tag k="natural" v="water" />
		<tag k="ssr:stedsnr" v="304612" />
	</node>
	<node id="-406400" lat="58.7386527799" lon="5.94719166075">
		<tag k="name" v="Hødl" />
		<tag k="ssr:stedsnr" v="934959" />
		<tag k="waterway" v="river" />
	</node>
	<node id="-406397" lat="58.7932397897" lon="5.89683420658">
		<tag k="name" v="Litla Krosstjørna" />
		<tag k="natural" v="water" />
		<tag k="ssr:stedsnr" v="934857" />
	</node>
	<node id="-406395" lat="58.7287472235" lon="5.97326111372">
		<tag k="name" v="Hedlesåna" />
		<tag k="ssr:stedsnr" v="933820" />
		<tag k="waterway" v="river" />
	</node>
	<node id="-404344" lat="58.7929499997" lon="6.19811111708">
		<tag k="name" v="Langavatn" />
		<tag k="natural" v="water" />
		<tag k="ssr:stedsnr" v="304571" />
		<tag k="water" v="lake" />
	</node>
	<node id="-406391" lat="58.7223416709" lon="5.90546389714">
		<tag k="name" v="Middagstjørna" />
		<tag k="natural" v="water" />
		<tag k="ssr:stedsnr" v="933741" />
	</node>
	<node id="-404341" lat="58.786891666" lon="5.9695999946">
		<tag k="alt_name" v="Streidetjørna" />
		<tag k="name" v="Streitatjørna" />
		<tag k="natural" v="water" />
		<tag k="ssr:stedsnr" v="304562" />
	</node>
	<node id="-406388" lat="58.7286277754" lon="5.93574444384">
		<tag k="name" v="Fjelltjørna" />
		<tag k="natural" v="water" />
		<tag k="ssr:stedsnr" v="933721" />
	</node>
	<node id="-404339" lat="58.7962333324" lon="6.12831665815">
		<tag k="alt_name" v="Rundetjørna" />
		<tag k="name" v="Rundetjørn" />
		<tag k="natural" v="water" />
		<tag k="ssr:stedsnr" v="304553" />
	</node>
	<node id="-406386" lat="58.6826222241" lon="5.94387778586">
		<tag k="name" v="Mågatjørn" />
		<tag k="natural" v="water" />
		<tag k="ssr:stedsnr" v="933359" />
	</node>
	<node id="-406384" lat="58.6956638898" lon="5.92683056074">
		<tag k="name" v="Søstrane" />
		<tag k="natural" v="water" />
		<tag k="ssr:stedsnr" v="933242" />
		<tag k="water" v="lake" />
	</node>
	<node id="-404331" lat="58.814463892" lon="6.51212499886">
		<tag k="name" v="Mørkatjørna" />
		<tag k="natural" v="water" />
		<tag k="ssr:stedsnr" v="304202" />
	</node>
	<node id="-404329" lat="58.6918027793" lon="5.96757777883">
		<tag k="alt_name" v="store Tvitjørna;litle Tvitjørna" />
		<tag k="name" v="Tvivatna" />
		<tag k="natural" v="water" />
		<tag k="ssr:stedsnr" v="303446" />
	</node>
	<node id="-406376" lat="58.7710555522" lon="5.90317778009">
		<tag k="name" v="Tangjen" />
		<tag k="natural" v="cape" />
		<tag k="ssr:stedsnr" v="933078" />
	</node>
	<node id="-404327" lat="58.724430558" lon="5.88518332824">
		<tag k="name" v="Homslandsvatnet" />
		<tag k="natural" v="water" />
		<tag k="ssr:stedsnr" v="303376" />
		<tag k="water" v="lake" />
	</node>
	<node id="-404326" lat="58.7451194463" lon="5.9913750054">
		<tag k="alt_name" v="nedre Rånavatnet;øvre Rånavatnet" />
		<tag k="name" v="Rånavatna" />
		<tag k="natural" v="water" />
		<tag k="ssr:stedsnr" v="303375" />
	</node>
	<node id="-406373" lat="58.7622903974" lon="5.82684235289">
		<tag k="alt_name" v="Øygardsvatnet" />
		<tag k="name" v="Fjermestadvatnet" />
		<tag k="natural" v="water" />
		<tag k="ssr:stedsnr" v="911850" />
		<tag k="water" v="lake" />
	</node>
	<node id="-406372" lat="58.7911138879" lon="6.25348610607">
		<tag k="name" v="Brekkestølsvatnet" />
		<tag k="natural" v="water" />
		<tag k="ssr:stedsnr" v="911847" />
	</node>
	<node id="-406371" lat="58.7869138876" lon="6.50461111488">
		<tag k="name" v="Indrestølsvatnet" />
		<tag k="natural" v="water" />
		<tag k="ssr:stedsnr" v="911841" />
	</node>
	<node id="-404322" lat="58.8686222235" lon="6.36790000543">
		<tag k="name" v="Høgaskartjørna" />
		<tag k="natural" v="water" />
		<tag k="ssr:stedsnr" v="302966" />
	</node>
	<node id="-406366" lat="58.9755666658" lon="6.6168249983">
		<tag k="name" v="Blesevatnet" />
		<tag k="natural" v="water" />
		<tag k="old_name" v="Blesevatn" />
		<tag k="ssr:stedsnr" v="911810" />
		<tag k="water" v="lake" />
	</node>
	<node id="-406365" lat="58.9530583347" lon="6.64120277886">
		<tag k="name" v="Sørkilen" />
		<tag k="natural" v="bay" />
		<tag k="ssr:stedsnr" v="911794" />
	</node>
	<node id="-406364" lat="58.9613111125" lon="6.64477777782">
		<tag k="name" v="Øyni" />
		<tag k="place" v="islet" />
		<tag k="ssr:stedsnr" v="911792" />
	</node>
	<node id="-406363" lat="58.7603888883" lon="6.43309999715">
		<tag k="alt_name" v="Bergetjørn" />
		<tag k="name" v="Bergatjørna" />
		<tag k="natural" v="water" />
		<tag k="ssr:stedsnr" v="911779" />
	</node>
	<node id="-406357" lat="58.8336361128" lon="6.40018333903">
		<tag k="alt_name" v="Østabøtjørna" />
		<tag k="name" v="Øvstabøtjørna" />
		<tag k="natural" v="water" />
		<tag k="ssr:stedsnr" v="911681" />
	</node>
	<node id="-406355" lat="58.8639138916" lon="6.29256110712">
		<tag k="alt_name" v="Flæetjørna" />
		<tag k="name" v="Flæetjørn" />
		<tag k="natural" v="water" />
		<tag k="ssr:stedsnr" v="911667" />
	</node>
	<node id="-406351" lat="58.832208331" lon="6.07926945004">
		<tag k="name" v="Ragstjørna" />
		<tag k="natural" v="water" />
		<tag k="ssr:stedsnr" v="911633" />
	</node>
	<node id="-406349" lat="58.7537888901" lon="6.09378611539">
		<tag k="name" v="Kartatjørna" />
		<tag k="natural" v="water" />
		<tag k="ssr:stedsnr" v="911625" />
	</node>
	<node id="-406347" lat="58.7644499959" lon="6.05113611651">
		<tag k="alt_name" v="Stakkheitjørna" />
		<tag k="name" v="Stakksheitja" />
		<tag k="natural" v="water" />
		<tag k="ssr:stedsnr" v="911614" />
	</node>
	<node id="-406345" lat="58.7919055555" lon="6.13784999686">
		<tag k="alt_name" v="Indra Fisketjørn" />
		<tag k="name" v="Fisketjørna" />
		<tag k="natural" v="water" />
		<tag k="ssr:stedsnr" v="911579" />
	</node>
	<node id="-406343" lat="58.7975166694" lon="6.1912750013">
		<tag k="alt_name" v="Stora Holmavatnet" />
		<tag k="name" v="Holmavatnet" />
		<tag k="natural" v="water" />
		<tag k="old_name" v="Holmavnt" />
		<tag k="ssr:stedsnr" v="911561" />
		<tag k="water" v="lake" />
	</node>
	<node id="-404294" lat="58.823713892" lon="6.13623888769">
		<tag k="name" v="Stølstjørna" />
		<tag k="natural" v="water" />
		<tag k="ssr:stedsnr" v="300966" />
	</node>
	<node id="-406341" lat="58.799519446" lon="6.12854999622">
		<tag k="alt_name" v="Kvislabekken" />
		<tag k="name" v="Kvitlabekken" />
		<tag k="ssr:stedsnr" v="911555" />
		<tag k="waterway" v="stream" />
	</node>
	<node id="-406339" lat="58.8069111072" lon="6.18929999466">
		<tag k="alt_name" v="Dyratjørn" />
		<tag k="name" v="Dyratjørna" />
		<tag k="natural" v="water" />
		<tag k="ssr:stedsnr" v="911543" />
	</node>
	<node id="-406338" lat="58.8131026686" lon="6.17616706778">
		<tag k="alt_name" v="Krogatjørn" />
		<tag k="name" v="Krokatjørna" />
		<tag k="natural" v="water" />
		<tag k="ssr:stedsnr" v="911542" />
	</node>
	<node id="-406337" lat="58.8058318481" lon="6.07050648387">
		<tag k="alt_name" v="Vølstadtjørna, indre" />
		<tag k="fixme" v="multiple name tags, choose one and add the other to alt_name" />
		<tag k="name" v="Indra Tjødnå;Indre Vølstadtjørna" />
		<tag k="natural" v="water" />
		<tag k="ssr:stedsnr" v="911536" />
	</node>
	<node id="-404288" lat="58.8425888889" lon="6.11866111714">
		<tag k="name" v="Øygardsneset" />
		<tag k="natural" v="cape" />
		<tag k="ssr:stedsnr" v="300889" />
	</node>
	<node id="-406333" lat="58.7077972203" lon="6.02047221538">
		<tag k="alt_name" v="Noråsvatnet" />
		<tag k="name" v="Nordåsvatnet" />
		<tag k="natural" v="water" />
		<tag k="ssr:stedsnr" v="910518" />
		<tag k="water" v="lake" />
	</node>
	<node id="-404284" lat="58.8425388849" lon="6.06545554873">
		<tag k="name" v="Dammen" />
		<tag k="natural" v="water" />
		<tag k="ssr:stedsnr" v="298819" />
	</node>
	<node id="-406331" lat="58.6911916665" lon="5.9454750076">
		<tag k="name" v="Fosslivatnet" />
		<tag k="natural" v="water" />
		<tag k="ssr:stedsnr" v="910450" />
	</node>
	<node id="-406328" lat="58.7204555572" lon="5.98214165938">
		<tag k="name" v="Husavatnet" />
		<tag k="natural" v="water" />
		<tag k="ssr:stedsnr" v="910389" />
	</node>
	<node id="-404279" lat="58.7670416638" lon="6.35115000172">
		<tag k="name" v="Tjønndalsbekken" />
		<tag k="ssr:stedsnr" v="285538" />
		<tag k="waterway" v="stream" />
	</node>
	<node id="-404278" lat="58.7852777816" lon="6.27930277084">
		<tag k="name" v="Skredbekknuden" />
		<tag k="ssr:stedsnr" v="284983" />
		<tag k="waterway" v="stream" />
	</node>
	<node id="-406325" lat="58.864703754" lon="6.48180785364">
		<tag k="name" v="Jørgenstjørna" />
		<tag k="natural" v="water" />
		<tag k="ssr:stedsnr" v="909908" />
	</node>
	<node id="-404276" lat="58.7922055586" lon="6.37694443598">
		<tag k="name" v="Stølstjørna" />
		<tag k="natural" v="water" />
		<tag k="ssr:stedsnr" v="284974" />
	</node>
	<node id="-404271" lat="58.7747333348" lon="6.45596388922">
		<tag k="name" v="Gostholstjørna" />
		<tag k="natural" v="water" />
		<tag k="ssr:stedsnr" v="284404" />
	</node>
	<node id="-406314" lat="58.7964222221" lon="6.3942694495">
		<tag k="name" v="Longevasstronda" />
		<tag k="natural" v="beach" />
		<tag k="ssr:stedsnr" v="908960" />
	</node>
	<node id="-404264" lat="58.8633083345" lon="6.35236388431">
		<tag k="name" v="Nykkjatjørn" />
		<tag k="natural" v="water" />
		<tag k="ssr:stedsnr" v="283986" />
	</node>
	<node id="-406307" lat="58.8314250044" lon="6.07542778195">
		<tag k="name" v="Foren" />
		<tag k="place" v="island" />
		<tag k="ssr:stedsnr" v="907908" />
	</node>
	<node id="-404250" lat="58.7424388853" lon="6.00485277958">
		<tag k="name" v="Neset" />
		<tag k="place" v="islet" />
		<tag k="ssr:stedsnr" v="282452" />
	</node>
	<node id="-404249" lat="58.774727774" lon="6.10480278669">
		<tag k="name" v="Grydebekken" />
		<tag k="ssr:stedsnr" v="282439" />
		<tag k="waterway" v="stream" />
	</node>
	<node id="-406296" lat="58.8942499962" lon="6.43957778112">
		<tag k="name" v="Stakkvika" />
		<tag k="natural" v="bay" />
		<tag k="ssr:stedsnr" v="878480" />
	</node>
	<node id="-404245" lat="58.7114777763" lon="6.03818888764">
		<tag k="name" v="Nedre Tvitjørna" />
		<tag k="natural" v="water" />
		<tag k="ssr:stedsnr" v="282064" />
	</node>
	<node id="-404244" lat="58.7380194462" lon="6.29967499448">
		<tag k="name" v="Smaltjørn" />
		<tag k="natural" v="water" />
		<tag k="ssr:stedsnr" v="281531" />
	</node>
	<node id="-406291" lat="58.8148361119" lon="5.95983611257">
		<tag k="name" v="Longa Tjødna" />
		<tag k="natural" v="water" />
		<tag k="ssr:stedsnr" v="873919" />
	</node>
	<node id="-404242" lat="58.7639861075" lon="5.82814166367">
		<tag k="name" v="Raudviga" />
		<tag k="natural" v="bay" />
		<tag k="ssr:stedsnr" v="277086" />
	</node>
	<node id="-406286" lat="58.7038027813" lon="5.94842222153">
		<tag k="name" v="Jolivatnet" />
		<tag k="natural" v="water" />
		<tag k="ssr:stedsnr" v="872797" />
		<tag k="water" v="lake" />
	</node>
	<node id="-406277" lat="58.7561194471" lon="5.91547777867">
		<tag k="name" v="Måganeset" />
		<tag k="natural" v="cape" />
		<tag k="ssr:stedsnr" v="872080" />
	</node>
	<node id="-406272" lat="58.8004305557" lon="6.27758055144">
		<tag k="name" v="Giljabekken" />
		<tag k="ssr:stedsnr" v="851817" />
		<tag k="waterway" v="stream" />
	</node>
	<node id="-406270" lat="58.9639916691" lon="6.63163332736">
		<tag k="name" v="Sandvatnet" />
		<tag k="natural" v="water" />
		<tag k="ssr:stedsnr" v="851811" />
		<tag k="water" v="lake" />
	</node>
	<node id="-406268" lat="58.9318888904" lon="6.57573888754">
		<tag k="name" v="Langavatnet" />
		<tag k="natural" v="water" />
		<tag k="ssr:stedsnr" v="851681" />
	</node>
	<node id="-406267" lat="58.8361136745" lon="6.5383749152">
		<tag k="name" v="Øyavatnet" />
		<tag k="natural" v="water" />
		<tag k="ssr:stedsnr" v="851666" />
		<tag k="water" v="lake" />
	</node>
	<node id="-406262" lat="58.7693138891" lon="6.05991111167">
		<tag k="name" v="Kvelvatjørna" />
		<tag k="natural" v="water" />
		<tag k="ssr:stedsnr" v="851574" />
	</node>
	<node id="-406261" lat="58.7673416702" lon="5.9888000056">
		<tag k="alt_name" v="Gjesdalåna" />
		<tag k="name" v="Åna" />
		<tag k="ssr:stedsnr" v="851566" />
		<tag k="waterway" v="stream" />
	</node>
	<node id="-406259" lat="58.780275001" lon="6.13516944956">
		<tag k="alt_name" v="Radadalstjørna" />
		<tag k="name" v="Raddalstjørna" />
		<tag k="natural" v="water" />
		<tag k="ssr:stedsnr" v="851554" />
	</node>
	<node id="-406257" lat="58.8210111119" lon="6.11150556163">
		<tag k="alt_name" v="Rauåna" />
		<tag k="name" v="Raudåna" />
		<tag k="ssr:stedsnr" v="851493" />
		<tag k="waterway" v="stream" />
	</node>
	<node id="-406256" lat="58.8156702277" lon="6.03884947093">
		<tag k="alt_name" v="Langenes" />
		<tag k="name" v="Langnes" />
		<tag k="natural" v="cape" />
		<tag k="ssr:stedsnr" v="851484" />
	</node>
	<node id="-406246" lat="58.8555749972" lon="6.48273333962">
		<tag k="name" v="Skrubbtjørn" />
		<tag k="natural" v="water" />
		<tag k="ssr:stedsnr" v="850645" />
	</node>
	<node id="-406244" lat="58.7809138851" lon="5.86557777367">
		<tag k="alt_name" v="Flådåno" />
		<tag k="name" v="Flotåna" />
		<tag k="ssr:stedsnr" v="850552" />
		<tag k="waterway" v="stream" />
	</node>
	<node id="-406242" lat="58.6943499995" lon="5.97562777484">
		<tag k="alt_name" v="Strydesvatn" />
		<tag k="name" v="Strydesvatnet" />
		<tag k="natural" v="water" />
		<tag k="ssr:stedsnr" v="850503" />
	</node>
	<node id="-406231" lat="58.8091388895" lon="6.22343333261">
		<tag k="name" v="Lindlandsbekken" />
		<tag k="ssr:stedsnr" v="848580" />
		<tag k="waterway" v="stream" />
	</node>
	<node id="-406229" lat="58.8017583319" lon="6.20414443789">
		<tag k="name" v="Dueskogtjørn" />
		<tag k="natural" v="water" />
		<tag k="ssr:stedsnr" v="848568" />
	</node>
	<node id="-404259" lat="58.8451972236" lon="6.36746111935">
		<tag k="name" v="Brådlandsåna" />
		<tag k="ssr:stedsnr" v="283558" />
		<tag k="waterway" v="river" />
	</node>
	<node id="-406223" lat="58.75637778" lon="6.04102778192">
		<tag k="name" v="Smålibekken" />
		<tag k="ssr:stedsnr" v="848086" />
		<tag k="waterway" v="stream" />
	</node>
	<node id="-406221" lat="58.8326083322" lon="6.47625833043">
		<tag k="name" v="Tangaholmen" />
		<tag k="place" v="islet" />
		<tag k="ssr:stedsnr" v="848064" />
	</node>
	<node id="-406214" lat="58.8272555528" lon="6.06830833198">
		<tag k="name" v="Jylldalsbekken" />
		<tag k="ssr:stedsnr" v="846906" />
		<tag k="waterway" v="stream" />
	</node>
	<node id="-406210" lat="58.8444083308" lon="6.42632221727">
		<tag k="name" v="Urdalstjørna" />
		<tag k="natural" v="water" />
		<tag k="ssr:stedsnr" v="846756" />
	</node>
	<node id="-406209" lat="58.8474750009" lon="6.18369167208">
		<tag k="name" v="Osen" />
		<tag k="natural" v="bay" />
		<tag k="ssr:stedsnr" v="846746" />
	</node>
	<node id="-406200" lat="58.8116055516" lon="6.40450832856">
		<tag k="name" v="Mjålandslona" />
		<tag k="natural" v="water" />
		<tag k="ssr:stedsnr" v="830953" />
		<tag k="water" v="lake" />
	</node>
	<node id="-406199" lat="58.7959888908" lon="6.34660556344">
		<tag k="name" v="Floen" />
		<tag k="natural" v="water" />
		<tag k="ssr:stedsnr" v="830945" />
		<tag k="water" v="lake" />
	</node>
	<node id="-406195" lat="58.7616833366" lon="6.46179443634">
		<tag k="name" v="Bergetjørn" />
		<tag k="natural" v="water" />
		<tag k="ssr:stedsnr" v="830481" />
	</node>
	<node id="-404423" lat="58.8216555533" lon="6.20342499899">
		<tag k="name" v="Einerholmen" />
		<tag k="place" v="islet" />
		<tag k="ssr:stedsnr" v="343508" />
	</node>
	<node id="-406186" lat="58.8592111103" lon="6.31401666381">
		<tag k="name" v="Skrubbatjørna" />
		<tag k="natural" v="water" />
		<tag k="ssr:stedsnr" v="829586" />
	</node>
	<node id="-406165" lat="58.7824111128" lon="5.96602221663">
		<tag k="name" v="Bjønndalstjørna" />
		<tag k="natural" v="water" />
		<tag k="ssr:stedsnr" v="812943" />
	</node>
	<node id="-406163" lat="58.7861861106" lon="5.9362611074">
		<tag k="name" v="Åno" />
		<tag k="ssr:stedsnr" v="812039" />
		<tag k="waterway" v="river" />
	</node>
	<node id="-406162" lat="58.7880055535" lon="5.87228888468">
		<tag k="name" v="Risbergtangen" />
		<tag k="natural" v="cape" />
		<tag k="ssr:stedsnr" v="812023" />
	</node>
	<node id="-406161" lat="58.7857361146" lon="5.93928610737">
		<tag k="name" v="Honnatjørn" />
		<tag k="natural" v="water" />
		<tag k="ssr:stedsnr" v="812019" />
	</node>
	<node id="-406158" lat="58.7182416699" lon="5.94042777805">
		<tag k="name" v="Grimeåna" />
		<tag k="ssr:stedsnr" v="811693" />
		<tag k="waterway" v="river" />
	</node>
	<node id="-406146" lat="58.8396277746" lon="6.49814165925">
		<tag k="name" v="Lilona" />
		<tag k="natural" v="water" />
		<tag k="ssr:stedsnr" v="809107" />
		<tag k="water" v="lake" />
	</node>
	<node id="-406145" lat="58.787874999" lon="6.38073610843">
		<tag k="name" v="Svartatjørna" />
		<tag k="natural" v="water" />
		<tag k="ssr:stedsnr" v="809100" />
		<tag k="water" v="lake" />
	</node>
	<node id="-406143" lat="58.9259027809" lon="6.54373611297">
		<tag k="name" v="Leitesåna" />
		<tag k="ssr:stedsnr" v="790740" />
		<tag k="waterway" v="stream" />
	</node>
	<node id="-406135" lat="58.7771777788" lon="6.14307499164">
		<tag k="alt_name" v="Hiadalstjørna, øvre" />
		<tag k="name" v="Øvre Hiadalstjørna" />
		<tag k="natural" v="water" />
		<tag k="ssr:stedsnr" v="790626" />
	</node>
	<node id="-406133" lat="58.7769611076" lon="6.06778055268">
		<tag k="name" v="Sandvika" />
		<tag k="natural" v="bay" />
		<tag k="ssr:stedsnr" v="790608" />
	</node>
	<node id="-406132" lat="58.8142111107" lon="6.10283611815">
		<tag k="alt_name" v="Kjørkjestavatnet" />
		<tag k="name" v="Kyrkjestadvatnet" />
		<tag k="natural" v="water" />
		<tag k="ssr:stedsnr" v="790546" />
		<tag k="water" v="lake" />
	</node>
	<node id="-406130" lat="58.9161666692" lon="6.55625833329">
		<tag k="name" v="Leitesvatnet" />
		<tag k="natural" v="water" />
		<tag k="ssr:stedsnr" v="789738" />
	</node>
	<node id="-406129" lat="58.8281305576" lon="6.29462499595">
		<tag k="alt_name" v="Gilevatn" />
		<tag k="name" v="Giljastølsvatnet" />
		<tag k="natural" v="water" />
		<tag k="ssr:stedsnr" v="789681" />
		<tag k="water" v="lake" />
	</node>
	<node id="-406125" lat="58.8793861104" lon="6.56702778252">
		<tag k="alt_name" v="Djubavatnet" />
		<tag k="name" v="Djupavatnet" />
		<tag k="natural" v="water" />
		<tag k="ssr:stedsnr" v="789658" />
		<tag k="water" v="lake" />
	</node>
	<node id="-406123" lat="58.8645500037" lon="6.32939444215">
		<tag k="name" v="Stølsvatnet" />
		<tag k="natural" v="water" />
		<tag k="ssr:stedsnr" v="789654" />
	</node>
	<node id="-406117" lat="58.7880305584" lon="6.04882500447">
		<tag k="name" v="Madlandselva" />
		<tag k="ssr:stedsnr" v="789559" />
		<tag k="waterway" v="stream" />
	</node>
	<node id="-406115" lat="58.7812749964" lon="5.89987499817">
		<tag k="alt_name" v="Myratjørna" />
		<tag k="name" v="Tjørna" />
		<tag k="natural" v="water" />
		<tag k="ssr:stedsnr" v="789552" />
	</node>
	<node id="-406114" lat="58.7963722197" lon="5.95501110374">
		<tag k="alt_name" v="Bergsvatnet, nedre;nedre Bersvatnet" />
		<tag k="name" v="Nedre Bergsvatnet" />
		<tag k="natural" v="water" />
		<tag k="ssr:stedsnr" v="789543" />
		<tag k="water" v="lake" />
	</node>
	<node id="-406111" lat="58.7149916628" lon="6.0070916749">
		<tag k="name" v="Fossåna" />
		<tag k="ssr:stedsnr" v="789480" />
		<tag k="waterway" v="stream" />
	</node>
	<node id="-406099" lat="58.7526722214" lon="6.09709166957">
		<tag k="name" v="Longatjørna" />
		<tag k="natural" v="water" />
		<tag k="ssr:stedsnr" v="787373" />
	</node>
	<node id="-406098" lat="58.7416833333" lon="6.07766111285">
		<tag k="name" v="Støvlatjørna" />
		<tag k="natural" v="water" />
		<tag k="ssr:stedsnr" v="787369" />
	</node>
	<node id="-406093" lat="58.8449750032" lon="6.506458337">
		<tag k="name" v="Midstølbekken" />
		<tag k="ssr:stedsnr" v="787075" />
		<tag k="waterway" v="stream" />
	</node>
	<node id="-406072" lat="58.6937166624" lon="6.00774444995">
		<tag k="name" v="Vikleivtjørna" />
		<tag k="natural" v="water" />
		<tag k="ssr:stedsnr" v="769500" />
	</node>
	<node id="-406070" lat="58.800505558" lon="6.04165000608">
		<tag k="name" v="Skoratjørna" />
		<tag k="natural" v="water" />
		<tag k="ssr:stedsnr" v="769283" />
	</node>
	<node id="-406066" lat="58.8770777808" lon="6.33204999459">
		<tag k="name" v="Kjosåna" />
		<tag k="ssr:stedsnr" v="768980" />
		<tag k="waterway" v="river" />
	</node>
	<node id="-406065" lat="58.85176944" lon="6.27112222265">
		<tag k="name" v="Indre Ørestøbekken" />
		<tag k="ssr:stedsnr" v="768972" />
		<tag k="waterway" v="stream" />
	</node>
	<node id="-406053" lat="58.7462861066" lon="6.03640277053">
		<tag k="name" v="Risfjelltjørna" />
		<tag k="natural" v="water" />
		<tag k="ssr:stedsnr" v="768478" />
	</node>
	<node id="-406050" lat="58.7732527819" lon="6.082016666">
		<tag k="name" v="Sylvika" />
		<tag k="natural" v="bay" />
		<tag k="ssr:stedsnr" v="768461" />
	</node>
	<node id="-406042" lat="58.750644449" lon="6.30692778581">
		<tag k="name" v="Neset" />
		<tag k="natural" v="cape" />
		<tag k="ssr:stedsnr" v="766540" />
	</node>
	<node id="-406041" lat="58.7477916706" lon="6.32753055921">
		<tag k="name" v="Middagstjørn" />
		<tag k="natural" v="water" />
		<tag k="ssr:stedsnr" v="766524" />
	</node>
	<node id="-406030" lat="58.7025027735" lon="5.98720832644">
		<tag k="name" v="Anbjørbekken" />
		<tag k="ssr:stedsnr" v="751818" />
		<tag k="waterway" v="stream" />
	</node>
	<node id="-406027" lat="58.7047416625" lon="5.97595000838">
		<tag k="name" v="Kammatjørna" />
		<tag k="natural" v="water" />
		<tag k="ssr:stedsnr" v="751808" />
	</node>
	<node id="-406018" lat="58.690861109" lon="5.88796388576">
		<tag k="name" v="Middagstjørna" />
		<tag k="natural" v="water" />
		<tag k="ssr:stedsnr" v="751251" />
	</node>
	<node id="-406011" lat="58.7386805554" lon="5.88822777708">
		<tag k="name" v="Foren" />
		<tag k="natural" v="water" />
		<tag k="ssr:stedsnr" v="750075" />
	</node>
	<node id="-406009" lat="58.7596305523" lon="5.90686111975">
		<tag k="name" v="Lomstjørna" />
		<tag k="natural" v="water" />
		<tag k="ssr:stedsnr" v="750069" />
	</node>
	<node id="-406004" lat="58.8161388931" lon="6.32537500275">
		<tag k="alt_name" v="Mågavatnet" />
		<tag k="name" v="Måkavatnet" />
		<tag k="natural" v="water" />
		<tag k="ssr:stedsnr" v="729843" />
	</node>
	<node id="-406002" lat="58.8071500002" lon="6.50063332988">
		<tag k="alt_name" v="Myrvatnet, l;Litla Myravatnet" />
		<tag k="name" v="Litla Myrvatnet" />
		<tag k="natural" v="water" />
		<tag k="ssr:stedsnr" v="729836" />
	</node>
	<node id="-406001" lat="58.8160888867" lon="6.46910277375">
		<tag k="name" v="Berittjørna" />
		<tag k="natural" v="water" />
		<tag k="ssr:stedsnr" v="729826" />
	</node>
	<node id="-404360" lat="58.8496749994" lon="6.52610832619">
		<tag k="alt_name" v="Vondalona" />
		<tag k="name" v="Vondelona" />
		<tag k="natural" v="water" />
		<tag k="ssr:stedsnr" v="304675" />
	</node>
	<node id="-405994" lat="58.8663861112" lon="6.31259444224">
		<tag k="name" v="Murtedalstjørna" />
		<tag k="natural" v="water" />
		<tag k="ssr:stedsnr" v="729669" />
		<tag k="water" v="lake" />
	</node>
	<node id="-405991" lat="58.7501333358" lon="6.09267500475">
		<tag k="name" v="Kartavatnet" />
		<tag k="natural" v="water" />
		<tag k="ssr:stedsnr" v="729631" />
		<tag k="water" v="lake" />
	</node>
	<node id="-405988" lat="58.7667555571" lon="6.12576667487">
		<tag k="name" v="Gloppeåna" />
		<tag k="ssr:stedsnr" v="729621" />
		<tag k="waterway" v="river" />
	</node>
	<node id="-405985" lat="58.779005552" lon="5.92655278597">
		<tag k="name" v="Limavatnet" />
		<tag k="natural" v="water" />
		<tag k="ssr:stedsnr" v="729565" />
		<tag k="water" v="lake" />
	</node>
	<node id="-405982" lat="58.8003444479" lon="6.16940000199">
		<tag k="alt_name" v="Rolighedsvatnet" />
		<tag k="name" v="Rolighetsvatnet" />
		<tag k="natural" v="water" />
		<tag k="old_name" v="Rolighetsvnt" />
		<tag k="ssr:stedsnr" v="729546" />
		<tag k="water" v="lake" />
	</node>
	<node id="-405981" lat="58.7985916684" lon="6.0049388904">
		<tag k="alt_name" v="Gulltjørna" />
		<tag k="name" v="Gulltjørn" />
		<tag k="natural" v="water" />
		<tag k="ssr:stedsnr" v="729543" />
	</node>
	<node id="-405979" lat="58.7971305525" lon="5.96996110789">
		<tag k="name" v="Bjortjørna" />
		<tag k="natural" v="water" />
		<tag k="ssr:stedsnr" v="729541" />
	</node>
	<node id="-405972" lat="58.7583027765" lon="6.11954999307">
		<tag k="name" v="Storavatnet" />
		<tag k="natural" v="water" />
		<tag k="ssr:stedsnr" v="729229" />
		<tag k="water" v="lake" />
	</node>
	<node id="-405971" lat="58.7452833292" lon="6.42778611408">
		<tag k="name" v="Storavatnet" />
		<tag k="natural" v="water" />
		<tag k="ssr:stedsnr" v="729143" />
		<tag k="water" v="lake" />
	</node>
	<node id="-405969" lat="58.7104416624" lon="5.90799999456">
		<tag k="name" v="Øydestjørna" />
		<tag k="natural" v="water" />
		<tag k="ssr:stedsnr" v="728462" />
	</node>
	<node id="-405967" lat="58.7304138906" lon="5.96782499152">
		<tag k="alt_name" v="Hedlesvatnet" />
		<tag k="name" v="Hellesvatnet" />
		<tag k="natural" v="water" />
		<tag k="old_name" v="Hellevatnet" />
		<tag k="ssr:stedsnr" v="728370" />
	</node>
	<node id="-405963" lat="58.7977861102" lon="6.10598055025">
		<tag k="name" v="Sølvik" />
		<tag k="natural" v="bay" />
		<tag k="ssr:stedsnr" v="727598" />
	</node>
	<node id="-405961" lat="58.8119499999" lon="6.21496389318">
		<tag k="name" v="Dueskogbekken" />
		<tag k="ssr:stedsnr" v="727542" />
		<tag k="waterway" v="stream" />
	</node>
	<node id="-405953" lat="58.8438361089" lon="6.50193055713">
		<tag k="name" v="Storebekken" />
		<tag k="ssr:stedsnr" v="726072" />
		<tag k="waterway" v="stream" />
	</node>
	<node id="-405945" lat="58.8323666682" lon="6.09006110356">
		<tag k="name" v="Mågaåna" />
		<tag k="ssr:stedsnr" v="725923" />
		<tag k="waterway" v="river" />
	</node>
	<node id="-405941" lat="58.8593611134" lon="6.10238333853">
		<tag k="name" v="Indrebekk" />
		<tag k="ssr:stedsnr" v="725835" />
		<tag k="waterway" v="stream" />
	</node>
	<node id="-405932" lat="58.7893833371" lon="6.38081110855">
		<tag k="name" v="Moltetangen" />
		<tag k="natural" v="cape" />
		<tag k="ssr:stedsnr" v="709941" />
	</node>
	<node id="-405927" lat="58.7589805518" lon="6.40236388419">
		<tag k="name" v="Kroknudtjørn" />
		<tag k="natural" v="water" />
		<tag k="ssr:stedsnr" v="709281" />
	</node>
	<node id="-405922" lat="58.8343249992" lon="6.28207777748">
		<tag k="name" v="Skreetjørna" />
		<tag k="natural" v="water" />
		<tag k="ssr:stedsnr" v="708725" />
	</node>
	<node id="-405920" lat="58.8570277797" lon="6.30237499873">
		<tag k="name" v="Runda Tjødnå" />
		<tag k="natural" v="water" />
		<tag k="ssr:stedsnr" v="708592" />
	</node>
	<node id="-405919" lat="58.847905552" lon="6.30618889531">
		<tag k="name" v="Heltabekken" />
		<tag k="ssr:stedsnr" v="708585" />
		<tag k="waterway" v="stream" />
	</node>
	<node id="-405915" lat="58.856375004" lon="6.26796665994">
		<tag k="name" v="Ytra Ørestøbekken" />
		<tag k="ssr:stedsnr" v="707972" />
		<tag k="waterway" v="stream" />
	</node>
	<node id="-405914" lat="58.8795444476" lon="6.3832083377">
		<tag k="alt_name" v="Gottvaldtjørnane" />
		<tag k="name" v="Gottvaldtjørna" />
		<tag k="natural" v="water" />
		<tag k="ssr:stedsnr" v="707971" />
	</node>
	<node id="-405911" lat="58.7575111103" lon="6.28868610484">
		<tag k="name" v="Røsetjørna" />
		<tag k="natural" v="water" />
		<tag k="ssr:stedsnr" v="707699" />
	</node>
	<node id="-404277" lat="58.7837388895" lon="6.27744999963">
		<tag k="name" v="Skredbekktjørna" />
		<tag k="natural" v="water" />
		<tag k="ssr:stedsnr" v="284978" />
	</node>
	<node id="-405893" lat="58.7153972212" lon="6.03631943941">
		<tag k="name" v="Grytetjørna" />
		<tag k="natural" v="water" />
		<tag k="ssr:stedsnr" v="706078" />
	</node>
	<node id="-405878" lat="58.8086138861" lon="5.95324443992">
		<tag k="name" v="Sauaurstjørna" />
		<tag k="natural" v="water" />
		<tag k="ssr:stedsnr" v="691934" />
	</node>
	<node id="-405871" lat="58.7840361071" lon="5.86688888923">
		<tag k="name" v="Speketangen" />
		<tag k="natural" v="cape" />
		<tag k="ssr:stedsnr" v="691033" />
	</node>
	<node id="-405869" lat="58.7267500026" lon="5.99373333176">
		<tag k="name" v="Mismortjørna" />
		<tag k="natural" v="water" />
		<tag k="ssr:stedsnr" v="690812" />
	</node>
	<node id="-405860" lat="58.6984916685" lon="5.90690554725">
		<tag k="name" v="Stora Lonå" />
		<tag k="natural" v="water" />
		<tag k="ssr:stedsnr" v="690267" />
	</node>
	<node id="-405859" lat="58.6957666701" lon="5.90079444042">
		<tag k="name" v="Holmaåna" />
		<tag k="ssr:stedsnr" v="690266" />
		<tag k="waterway" v="river" />
	</node>
	<node id="-405858" lat="58.687122225" lon="5.93970000642">
		<tag k="name" v="Brekketjørna" />
		<tag k="natural" v="water" />
		<tag k="ssr:stedsnr" v="690249" />
	</node>
	<node id="-405855" lat="58.7353055527" lon="5.8732333403">
		<tag k="name" v="Stemmetjørna" />
		<tag k="natural" v="water" />
		<tag k="ssr:stedsnr" v="690095" />
	</node>
	<node id="-405854" lat="58.774386113" lon="5.9326027771">
		<tag k="loc_name" v="Kyrkjevika" />
		<tag k="name" v="Kjyrkjevika" />
		<tag k="natural" v="bay" />
		<tag k="ssr:stedsnr" v="690069" />
	</node>
	<node id="-405853" lat="58.7760305557" lon="5.92438888701">
		<tag k="name" v="Sannes" />
		<tag k="natural" v="cape" />
		<tag k="ssr:stedsnr" v="690067" />
	</node>
	<node id="-405852" lat="58.7578361096" lon="5.9019749984">
		<tag k="name" v="Straumåna" />
		<tag k="ssr:stedsnr" v="690051" />
		<tag k="waterway" v="river" />
	</node>
	<node id="-405850" lat="58.7954611078" lon="6.4521500005">
		<tag k="name" v="Mjålandsodden" />
		<tag k="natural" v="cape" />
		<tag k="ssr:stedsnr" v="668865" />
	</node>
	<node id="-405847" lat="58.8250277807" lon="6.53268333487">
		<tag k="name" v="Øyabekken" />
		<tag k="ssr:stedsnr" v="668840" />
		<tag k="waterway" v="stream" />
	</node>
	<node id="-405845" lat="58.8103500006" lon="6.51368611158">
		<tag k="alt_name" v="Grunnavatnet" />
		<tag k="name" v="Grunnetjørna" />
		<tag k="natural" v="water" />
		<tag k="ssr:stedsnr" v="668830" />
	</node>
	<node id="-405843" lat="58.9568499958" lon="6.60986388668">
		<tag k="name" v="Vestkilen" />
		<tag k="natural" v="bay" />
		<tag k="ssr:stedsnr" v="668798" />
	</node>
	<node id="-405842" lat="58.9814750002" lon="6.59748888121">
		<tag k="name" v="Rundavatnet" />
		<tag k="natural" v="water" />
		<tag k="ssr:stedsnr" v="668780" />
	</node>
	<node id="-405840" lat="58.8296611084" lon="6.33580278261">
		<tag k="name" v="Langavatnet" />
		<tag k="natural" v="water" />
		<tag k="ssr:stedsnr" v="668704" />
	</node>
	<node id="-405837" lat="58.874577774" lon="6.41357499848">
		<tag k="name" v="Månavatnet" />
		<tag k="natural" v="water" />
		<tag k="ssr:stedsnr" v="668654" />
	</node>
	<node id="-405828" lat="58.7883666677" lon="6.0949138845">
		<tag k="alt_name" v="Løgjen" />
		<tag k="name" v="Løken" />
		<tag k="natural" v="water" />
		<tag k="ssr:stedsnr" v="668574" />
	</node>
	<node id="-405823" lat="58.7972300539" lon="5.89239632575">
		<tag k="alt_name" v="stora Krosstjørna" />
		<tag k="name" v="Krossatjørna" />
		<tag k="natural" v="water" />
		<tag k="ssr:stedsnr" v="668548" />
	</node>
	<node id="-405821" lat="58.8150027795" lon="6.07309444642">
		<tag k="name" v="Torsteinsvatnet" />
		<tag k="natural" v="water" />
		<tag k="ssr:stedsnr" v="668521" />
		<tag k="water" v="lake" />
	</node>
	<node id="-405820" lat="58.7445666638" lon="6.36693055202">
		<tag k="name" v="Stølsvatna" />
		<tag k="natural" v="water" />
		<tag k="ssr:stedsnr" v="668134" />
	</node>
	<node id="-405819" lat="58.7364388849" lon="6.28602499975">
		<tag k="name" v="Dauremålstjørna" />
		<tag k="natural" v="water" />
		<tag k="ssr:stedsnr" v="668131" />
	</node>
	<node id="-405816" lat="58.7052666659" lon="5.95407778078">
		<tag k="name" v="Mjålivatnet" />
		<tag k="natural" v="water" />
		<tag k="ssr:stedsnr" v="667432" />
	</node>
	<node id="-405814" lat="58.740966664" lon="6.11856665851">
		<tag k="alt_name" v="Kråtjørna" />
		<tag k="name" v="Kråtjørni" />
		<tag k="natural" v="water" />
		<tag k="ssr:stedsnr" v="667364" />
	</node>
	<node id="-405804" lat="58.8530694422" lon="6.53360277634">
		<tag k="name" v="Holmane" />
		<tag k="place" v="islet" />
		<tag k="ssr:stedsnr" v="665086" />
	</node>
	<node id="-405802" lat="58.8346388883" lon="6.44607778348">
		<tag k="name" v="Indra Rindabekktjørna" />
		<tag k="natural" v="water" />
		<tag k="ssr:stedsnr" v="665070" />
	</node>
	<node id="-405785" lat="58.8144777802" lon="6.5109527719">
		<tag k="name" v="Bergetjørna" />
		<tag k="natural" v="water" />
		<tag k="ssr:stedsnr" v="648934" />
	</node>
	<node id="-405782" lat="58.7849444444" lon="6.51014444816">
		<tag k="name" v="Indrestølsstronda" />
		<tag k="natural" v="beach" />
		<tag k="ssr:stedsnr" v="648910" />
	</node>
	<node id="-405768" lat="58.8625666665" lon="6.33422500623">
		<tag k="name" v="Klubben" />
		<tag k="natural" v="cape" />
		<tag k="ssr:stedsnr" v="646974" />
	</node>
	<node id="-405764" lat="58.7497055596" lon="6.38218889046">
		<tag k="name" v="Krogetjørn" />
		<tag k="natural" v="water" />
		<tag k="ssr:stedsnr" v="646739" />
	</node>
	<node id="-405762" lat="58.7739361096" lon="6.29456944812">
		<tag k="name" v="Foretangen" />
		<tag k="natural" v="cape" />
		<tag k="ssr:stedsnr" v="646682" />
	</node>
	<node id="-405759" lat="58.8549472203" lon="6.33025000282">
		<tag k="name" v="Veratjørna" />
		<tag k="natural" v="water" />
		<tag k="ssr:stedsnr" v="646571" />
	</node>
	<node id="-405756" lat="58.748425002" lon="6.2859888921">
		<tag k="name" v="Maudalstronda" />
		<tag k="natural" v="beach" />
		<tag k="ssr:stedsnr" v="646490" />
	</node>
	<node id="-405751" lat="58.7652916692" lon="6.11115833206">
		<tag k="name" v="Opsene" />
		<tag k="ssr:stedsnr" v="646287" />
		<tag k="waterway" v="stream" />
	</node>
	<node id="-405744" lat="58.8765903323" lon="6.46707815379">
		<tag k="name" v="Dypingen" />
		<tag k="natural" v="water" />
		<tag k="ssr:stedsnr" v="634376" />
	</node>
	<node id="-405739" lat="58.7515583323" lon="5.97557222231">
		<tag k="name" v="Ytre Tjetlandsvatnet" />
		<tag k="natural" v="water" />
		<tag k="ssr:stedsnr" v="630925" />
		<tag k="water" v="lake" />
	</node>
	<node id="-405734" lat="58.7436500007" lon="5.93574166633">
		<tag k="name" v="Auestadåna" />
		<tag k="ssr:stedsnr" v="630114" />
		<tag k="waterway" v="river" />
	</node>
	<node id="-405731" lat="58.7231166681" lon="5.9515611116">
		<tag k="name" v="Nordlivatnet" />
		<tag k="natural" v="water" />
		<tag k="ssr:stedsnr" v="629790" />
		<tag k="water" v="lake" />
	</node>
	<node id="-405728" lat="58.7139194465" lon="5.90700554992">
		<tag k="name" v="Trøyetjørna" />
		<tag k="natural" v="water" />
		<tag k="ssr:stedsnr" v="629713" />
	</node>
	<node id="-405724" lat="58.7014361135" lon="5.91240554834">
		<tag k="name" v="Rondeknuttjørna" />
		<tag k="natural" v="water" />
		<tag k="ssr:stedsnr" v="629232" />
	</node>
	<node id="-405712" lat="58.7987527797" lon="6.39667778497">
		<tag k="alt_name" v="Longavatnet" />
		<tag k="name" v="Langavatnet" />
		<tag k="natural" v="water" />
		<tag k="ssr:stedsnr" v="607852" />
	</node>
	<node id="-405707" lat="58.7710500013" lon="6.49032500606">
		<tag k="name" v="Jensavatnet" />
		<tag k="natural" v="water" />
		<tag k="ssr:stedsnr" v="607777" />
		<tag k="water" v="lake" />
	</node>
	<node id="-405706" lat="58.7580666662" lon="6.34197500375">
		<tag k="name" v="Maudalsåna" />
		<tag k="ssr:stedsnr" v="607775" />
		<tag k="waterway" v="river" />
	</node>
	<node id="-405699" lat="58.8367250033" lon="6.02383333013">
		<tag k="alt_name" v="Udstitjørna" />
		<tag k="name" v="Utstigtjørna" />
		<tag k="natural" v="water" />
		<tag k="ssr:stedsnr" v="607621" />
	</node>
	<node id="-405698" lat="58.7529583333" lon="6.13216110479">
		<tag k="name" v="Steintjørna" />
		<tag k="natural" v="water" />
		<tag k="ssr:stedsnr" v="607616" />
	</node>
	<node id="-405697" lat="58.7553888922" lon="5.98610000532">
		<tag k="name" v="Tjetlandsvatnet" />
		<tag k="natural" v="water" />
		<tag k="ssr:stedsnr" v="607611" />
		<tag k="water" v="lake" />
	</node>
	<node id="-405696" lat="58.8444777813" lon="6.10775000443">
		<tag k="alt_name" v="Stegatjørna;Tangatjørn" />
		<tag k="name" v="Stigatjørna" />
		<tag k="natural" v="water" />
		<tag k="ssr:stedsnr" v="607602" />
	</node>
	<node id="-405695" lat="58.762974998" lon="6.07451111746">
		<tag k="alt_name" v="Foretjørna, litle;Litla Foretjørn" />
		<tag k="name" v="Litle Foretjørna" />
		<tag k="natural" v="water" />
		<tag k="ssr:stedsnr" v="607601" />
	</node>
	<node id="-405693" lat="58.760947224" lon="5.87337778156">
		<tag k="name" v="Edlandsvatnet" />
		<tag k="natural" v="water" />
		<tag k="ssr:stedsnr" v="607591" />
		<tag k="water" v="lake" />
	</node>
	<node id="-405691" lat="58.774472226" lon="6.12250000024">
		<tag k="alt_name" v="Hiadalstjørna, nedre" />
		<tag k="name" v="Nedre Hiadalstjørna" />
		<tag k="natural" v="water" />
		<tag k="ssr:stedsnr" v="607586" />
	</node>
	<node id="-405690" lat="58.7704805518" lon="6.14746388911">
		<tag k="name" v="Tverråna" />
		<tag k="ssr:stedsnr" v="607585" />
		<tag k="waterway" v="river" />
	</node>
	<node id="-405689" lat="58.7790805574" lon="6.07416666423">
		<tag k="name" v="Madlandsvatnet" />
		<tag k="natural" v="water" />
		<tag k="ssr:stedsnr" v="607576" />
		<tag k="water" v="lake" />
	</node>
	<node id="-405687" lat="58.7891472246" lon="5.86878610579">
		<tag k="name" v="Flassavatnet" />
		<tag k="natural" v="water" />
		<tag k="ssr:stedsnr" v="607539" />
		<tag k="water" v="lake" />
	</node>
	<node id="-405686" lat="58.8123527791" lon="6.15319444463">
		<tag k="alt_name" v="Sønneidstølvatn" />
		<tag k="name" v="Synnheistølvatnet" />
		<tag k="natural" v="water" />
		<tag k="old_name" v="Synnheistølvnt" />
		<tag k="ssr:stedsnr" v="607535" />
	</node>
	<node id="-405684" lat="58.8021638868" lon="5.94725277853">
		<tag k="alt_name" v="Bergsvatnet, øvre;øvre Bersvatnet" />
		<tag k="name" v="Øvre Bergsvatnet" />
		<tag k="natural" v="water" />
		<tag k="ssr:stedsnr" v="607529" />
		<tag k="water" v="lake" />
	</node>
	<node id="-405683" lat="58.8190361155" lon="6.08531111124">
		<tag k="alt_name" v="Grenatjørna" />
		<tag k="name" v="Grindatjørna" />
		<tag k="natural" v="water" />
		<tag k="ssr:stedsnr" v="607515" />
	</node>
	<node id="-405677" lat="58.8830750007" lon="6.47718055621">
		<tag k="name" v="Mørkatjørn" />
		<tag k="natural" v="water" />
		<tag k="ssr:stedsnr" v="605908" />
	</node>
	<node id="-405670" lat="58.7891361112" lon="6.11938888186">
		<tag k="name" v="Heimra Fisketjørn" />
		<tag k="natural" v="water" />
		<tag k="ssr:stedsnr" v="605602" />
	</node>
	<node id="-405668" lat="58.7703611084" lon="6.03369443664">
		<tag k="name" v="Pershagtjørna" />
		<tag k="natural" v="water" />
		<tag k="ssr:stedsnr" v="605110" />
	</node>
	<node id="-405667" lat="58.8345388877" lon="6.4775388891">
		<tag k="name" v="Tangjen" />
		<tag k="natural" v="cape" />
		<tag k="ssr:stedsnr" v="605075" />
	</node>
	<node id="-405665" lat="58.8383472187" lon="6.15596944644">
		<tag k="name" v="Røyrdalsåna" />
		<tag k="ssr:stedsnr" v="603951" />
		<tag k="waterway" v="river" />
	</node>
	<node id="-405662" lat="58.8485250034" lon="6.1237666672">
		<tag k="name" v="Holmen" />
		<tag k="place" v="islet" />
		<tag k="ssr:stedsnr" v="603902" />
	</node>
	<node id="-405643" lat="58.7448527812" lon="6.41066111054">
		<tag k="name" v="Litla Svartevatn" />
		<tag k="natural" v="water" />
		<tag k="ssr:stedsnr" v="587422" />
		<tag k="water" v="lake" />
	</node>
	<node id="-405640" lat="58.8125111141" lon="6.00885555382">
		<tag k="name" v="Langaneset" />
		<tag k="natural" v="cape" />
		<tag k="ssr:stedsnr" v="587383" />
	</node>
	<node id="-405634" lat="58.8722027803" lon="6.34705000327">
		<tag k="name" v="Litla Sliravatnet" />
		<tag k="natural" v="water" />
		<tag k="ssr:stedsnr" v="586982" />
		<tag k="water" v="lake" />
	</node>
	<node id="-405627" lat="58.7865805566" lon="6.04735277097">
		<tag k="name" v="Legåbekken" />
		<tag k="ssr:stedsnr" v="586712" />
		<tag k="waterway" v="stream" />
	</node>
	<node id="-405623" lat="58.8590805539" lon="6.34855832483">
		<tag k="name" v="Litlatjørna" />
		<tag k="natural" v="water" />
		<tag k="ssr:stedsnr" v="586567" />
	</node>
	<node id="-405622" lat="58.74083333" lon="6.03455278283">
		<tag k="name" v="Uråna" />
		<tag k="ssr:stedsnr" v="586498" />
		<tag k="waterway" v="river" />
	</node>
	<node id="-405613" lat="58.8037972228" lon="6.29724721754">
		<tag k="name" v="Litla Dybing" />
		<tag k="natural" v="water" />
		<tag k="ssr:stedsnr" v="585456" />
	</node>
	<node id="-405609" lat="58.7415111092" lon="6.01297222377">
		<tag k="name" v="Høgeholmen" />
		<tag k="place" v="islet" />
		<tag k="ssr:stedsnr" v="585424" />
	</node>
	<node id="-405597" lat="58.7432666655" lon="5.974416675">
		<tag k="name" v="Rodatjørna" />
		<tag k="natural" v="water" />
		<tag k="ssr:stedsnr" v="569926" />
	</node>
	<node id="-405591" lat="58.7910472182" lon="5.94921944257">
		<tag k="name" v="Tjødnå i Hommå" />
		<tag k="natural" v="water" />
		<tag k="ssr:stedsnr" v="569883" />
		<tag k="water" v="lake" />
	</node>
	<node id="-405588" lat="58.7897972261" lon="5.93710277933">
		<tag k="name" v="Vaskehølen" />
		<tag k="place" v="locality" />
		<tag k="ssr:stedsnr" v="569015" />
	</node>
	<node id="-405584" lat="58.6967277777" lon="5.94975276988">
		<tag k="name" v="Lonå" />
		<tag k="natural" v="water" />
		<tag k="ssr:stedsnr" v="568771" />
	</node>
	<node id="-405580" lat="58.7179222228" lon="5.87449999486">
		<tag k="name" v="Fossåna" />
		<tag k="ssr:stedsnr" v="568685" />
		<tag k="waterway" v="river" />
	</node>
	<node id="-405579" lat="58.7265694414" lon="5.90415554984">
		<tag k="name" v="Kjetiltjørna" />
		<tag k="natural" v="water" />
		<tag k="ssr:stedsnr" v="568673" />
	</node>
	<node id="-405572" lat="58.7946305586" lon="6.21887500208">
		<tag k="name" v="Hommatjørn" />
		<tag k="natural" v="water" />
		<tag k="ssr:stedsnr" v="547883" />
	</node>
	<node id="-405567" lat="58.8164166693" lon="6.40062499791">
		<tag k="name" v="Gardsbekken" />
		<tag k="ssr:stedsnr" v="547833" />
		<tag k="waterway" v="stream" />
	</node>
	<node id="-405562" lat="58.7507833346" lon="5.96624167184">
		<tag k="name" v="Selsåna" />
		<tag k="ssr:stedsnr" v="547664" />
		<tag k="waterway" v="stream" />
	</node>
	<node id="-405560" lat="58.846550004" lon="6.06098055396">
		<tag k="alt_name" v="Storatjørna" />
		<tag k="name" v="Storatjørn" />
		<tag k="natural" v="water" />
		<tag k="ssr:stedsnr" v="547655" />
	</node>
	<node id="-405550" lat="58.7896222248" lon="6.43437499913">
		<tag k="name" v="Stora Myrvatnet" />
		<tag k="natural" v="water" />
		<tag k="ssr:stedsnr" v="546854" />
		<tag k="water" v="lake" />
	</node>
	<node id="-405549" lat="58.7837666711" lon="6.30306388573">
		<tag k="alt_name" v="Byrkjedalslona" />
		<tag k="name" v="Byrkjedalsvatnet" />
		<tag k="natural" v="water" />
		<tag k="ssr:stedsnr" v="546833" />
		<tag k="water" v="lake" />
	</node>
	<node id="-405548" lat="58.7831138864" lon="6.37158055384">
		<tag k="name" v="Austdalstjørna" />
		<tag k="natural" v="water" />
		<tag k="ssr:stedsnr" v="546830" />
	</node>
	<node id="-405546" lat="58.8787500019" lon="6.34407499788">
		<tag k="name" v="Sliratjørna" />
		<tag k="natural" v="water" />
		<tag k="ssr:stedsnr" v="546592" />
	</node>
	<node id="-405543" lat="58.807963885" lon="6.20504443756">
		<tag k="name" v="Dokkelbekk" />
		<tag k="ssr:stedsnr" v="546494" />
		<tag k="waterway" v="stream" />
	</node>
	<node id="-405542" lat="58.8040416643" lon="5.97715832604">
		<tag k="name" v="Nebbetjørna" />
		<tag k="natural" v="water" />
		<tag k="ssr:stedsnr" v="546490" />
	</node>
	<node id="-405541" lat="58.7118803738" lon="5.99672342026">
		<tag k="name" v="Baualivatnet" />
		<tag k="natural" v="water" />
		<tag k="old_name" v="Bauaclivatnet" />
		<tag k="ssr:stedsnr" v="546463" />
	</node>
	<node id="-405539" lat="58.7371194429" lon="5.88130833121">
		<tag k="name" v="Myravatnet" />
		<tag k="natural" v="water" />
		<tag k="ssr:stedsnr" v="546354" />
	</node>
	<node id="-405537" lat="58.7285527814" lon="5.89895833421">
		<tag k="alt_name" v="Grasdalsvatn" />
		<tag k="name" v="Grasdalsvatnet" />
		<tag k="natural" v="water" />
		<tag k="ssr:stedsnr" v="546347" />
	</node>
	<node id="-405533" lat="58.8807023529" lon="6.60802808539">
		<tag k="name" v="Tverråna" />
		<tag k="ssr:stedsnr" v="544888" />
		<tag k="waterway" v="river" />
	</node>
	<node id="-405531" lat="58.829183331" lon="6.00351944656">
		<tag k="name" v="Stiatjørna" />
		<tag k="natural" v="water" />
		<tag k="ssr:stedsnr" v="544827" />
	</node>
	<node id="-405527" lat="58.7782166636" lon="6.09009722974">
		<tag k="name" v="Sandane" />
		<tag k="natural" v="bay" />
		<tag k="ssr:stedsnr" v="544641" />
	</node>
	<node id="-405514" lat="58.8315416641" lon="6.07188056216">
		<tag k="name" v="Sandane" />
		<tag k="natural" v="cape" />
		<tag k="ssr:stedsnr" v="543918" />
	</node>
</osm>
