<?xml version="1.0" encoding="UTF-8"?>
<<<<<<< HEAD
<osm version="0.6" generator="osmapis">
	<node lat="58.84519999706691" lon="6.147950006894596" id="-8">
		<tag k="alt_name" v="Urnes" />
		<tag k="name" v="Urdnes" />
		<tag k="natural" v="cape" />
		<tag k="ssr:stedsnr" v="1621" />
	</node>
	<node lat="58.846983329594806" lon="6.27850278460243" id="-31">
		<tag k="loc_name" v="Kvildevig" />
		<tag k="name" v="Kvildevik" />
		<tag k="natural" v="bay" />
		<tag k="ssr:stedsnr" v="24999" />
	</node>
	<node lat="58.85108610722697" lon="6.212616663295202" id="-75">
		<tag k="alt_name" v="Hellestøvika;Hedlestøvika" />
		<tag k="loc_name" v="Hellestøviga;Hellestøvig" />
		<tag k="name" v="Hellestøvik" />
		<tag k="natural" v="bay" />
		<tag k="ssr:stedsnr" v="62606" />
	</node>
	<node lat="58.95269166918816" lon="5.9253555620587255" id="-205">
		<tag k="name" v="Breivig" />
		<tag k="natural" v="bay" />
		<tag k="ssr:stedsnr" v="183214" />
	</node>
	<node lat="58.83883055609736" lon="6.165238892859663" id="-392">
		<tag k="name" v="Røyrdalsvika" />
		<tag k="natural" v="bay" />
		<tag k="ssr:stedsnr" v="343992" />
	</node>
	<node lat="58.8394638903988" lon="6.184758338470169" id="-415">
		<tag k="name" v="Hagen" />
		<tag k="natural" v="cape" />
		<tag k="ssr:stedsnr" v="481739" />
	</node>
	<node lat="58.85414999642199" lon="6.129816672052447" id="-476">
		<tag k="name" v="Vikaodden" />
		<tag k="natural" v="cape" />
		<tag k="ssr:stedsnr" v="486600" />
	</node>
	<node lat="58.85035555404019" lon="6.143344448014196" id="-477">
		<tag k="alt_name" v="Ivarsvik" />
		<tag k="name" v="Ivarsvika" />
		<tag k="natural" v="bay" />
		<tag k="ssr:stedsnr" v="486601" />
	</node>
	<node lat="58.85460277906236" lon="6.121061102468806" id="-920">
		<tag k="name" v="Indre Mollen" />
		<tag k="natural" v="bay" />
		<tag k="ssr:stedsnr" v="785756" />
	</node>
	<node lat="58.83980833126366" lon="6.265511118481981" id="-1257">
		<tag k="name" v="Gusthol" />
		<tag k="natural" v="bay" />
		<tag k="ssr:stedsnr" v="117764" />
	</node>
	<node lat="58.843038890654995" lon="6.224169445308717" id="-1359">
		<tag k="name" v="Skibaroren" />
=======
<osm generator="osmapis" version="0.6">
	<node id="-23679" lat="58.8537666638" lon="6.12550000711">
		<tag k="name" v="Erevik" />
>>>>>>> e1d4bc35ff8a6074a6f2e91616a996b547c36f15
		<tag k="natural" v="bay" />
		<tag k="ssr:stedsnr" v="178725" />
	</node>
<<<<<<< HEAD
	<node lat="58.85836111304366" lon="6.112302774561006" id="-1362">
		<tag k="alt_name" v="Ytra Mollen" />
		<tag k="name" v="Ytre Mollen" />
=======
	<node id="-23677" lat="58.841563887" lon="6.18498611274">
		<tag k="name" v="Seiakammerset" />
>>>>>>> e1d4bc35ff8a6074a6f2e91616a996b547c36f15
		<tag k="natural" v="bay" />
		<tag k="ssr:stedsnr" v="178745" />
	</node>
<<<<<<< HEAD
	<node lat="58.83693055273244" lon="6.172430554365308" id="-1459">
		<tag k="name" v="Suggevik" />
=======
	<node id="-23676" lat="58.8428499991" lon="6.19540555817">
		<tag k="name" v="Kjeringdråpane" />
>>>>>>> e1d4bc35ff8a6074a6f2e91616a996b547c36f15
		<tag k="natural" v="bay" />
		<tag k="ssr:stedsnr" v="283991" />
	</node>
<<<<<<< HEAD
	<node lat="58.84284999912124" lon="6.1954055581653735" id="-1574">
		<tag k="name" v="Kjeringdråpane" />
=======
	<node id="-23291" lat="58.8510861072" lon="6.2126166633">
		<tag k="alt_name" v="Hellestøvika;Hedlestøvika" />
		<tag k="loc_name" v="Hellestøviga;Hellestøvig" />
		<tag k="name" v="Hellestøvik" />
>>>>>>> e1d4bc35ff8a6074a6f2e91616a996b547c36f15
		<tag k="natural" v="bay" />
		<tag k="ssr:stedsnr" v="360737" />
	</node>
<<<<<<< HEAD
	<node lat="58.84156388704191" lon="6.184986112735168" id="-1575">
		<tag k="name" v="Seiakammerset" />
=======
	<node id="-23661" lat="58.8388305561" lon="6.16523889286">
		<tag k="name" v="Røyrdalsvika" />
>>>>>>> e1d4bc35ff8a6074a6f2e91616a996b547c36f15
		<tag k="natural" v="bay" />
		<tag k="ssr:stedsnr" v="360739" />
	</node>
<<<<<<< HEAD
	<node lat="58.850413888749436" lon="6.142027785280946" id="-1578">
		<tag k="name" v="Skagrau" />
=======
	<node id="-22114" lat="58.8451999971" lon="6.14795000689">
		<tag k="alt_name" v="Urnes" />
		<tag k="name" v="Urdnes" />
>>>>>>> e1d4bc35ff8a6074a6f2e91616a996b547c36f15
		<tag k="natural" v="cape" />
		<tag k="ssr:stedsnr" v="360922" />
	</node>
<<<<<<< HEAD
	<node lat="58.85376666382621" lon="6.125500007108005" id="-1579">
		<tag k="name" v="Erevik" />
		<tag k="natural" v="bay" />
		<tag k="ssr:stedsnr" v="360931" />
	</node>
	<node lat="58.99383611231074" lon="5.816247213448663" id="-1611">
=======
	<node id="-24161" lat="58.8468341085" lon="6.21375337562">
		<tag k="alt_name" v="Frafjorden" />
>>>>>>> e1d4bc35ff8a6074a6f2e91616a996b547c36f15
		<tag k="bay" v="fjord" />
		<tag k="name" v="Høgsfjorden" />
		<tag k="natural" v="bay" />
		<tag k="ssr:stedsnr" v="364128" />
	</node>
<<<<<<< HEAD
	<node lat="58.84788889031144" lon="6.144938896502739" id="-1671">
=======
	<node id="-23775" lat="58.8478888903" lon="6.1449388965">
>>>>>>> e1d4bc35ff8a6074a6f2e91616a996b547c36f15
		<tag k="name" v="Markholmneset" />
		<tag k="natural" v="cape" />
		<tag k="ssr:stedsnr" v="421777" />
	</node>
<<<<<<< HEAD
	<node lat="58.8001944437596" lon="5.993341674341797" id="-1817">
		<tag k="name" v="Havika" />
		<tag k="natural" v="bay" />
		<tag k="ssr:stedsnr" v="569932" />
	</node>
	<node lat="58.842936110322576" lon="6.229344437863748" id="-1935">
		<tag k="name" v="Røyshabn" />
=======
	<node id="-22490" lat="58.8504138887" lon="6.14202778528">
		<tag k="name" v="Skagrau" />
		<tag k="natural" v="cape" />
		<tag k="ssr:stedsnr" v="360922" />
	</node>
	<node id="-24274" lat="58.8492027763" lon="6.26858610546">
		<tag k="name" v="Ørestø" />
		<tag k="natural" v="cape" />
		<tag k="ssr:stedsnr" v="850657" />
	</node>
	<node id="-23505" lat="58.9526916692" lon="5.92535556206">
		<tag k="name" v="Breivig" />
		<tag k="natural" v="bay" />
		<tag k="ssr:stedsnr" v="183214" />
	</node>
	<node id="-24143" lat="58.8550805567" lon="6.1291888955">
		<tag k="name" v="Moltemyrodden" />
		<tag k="natural" v="cape" />
		<tag k="ssr:stedsnr" v="785939" />
	</node>
	<node id="-24142" lat="58.8565083324" lon="6.11823054707">
		<tag k="name" v="Mollane" />
		<tag k="natural" v="beach" />
		<tag k="place" v="locality" />
		<tag k="ssr:stedsnr" v="785937" />
	</node>
	<node id="-24139" lat="58.8546027791" lon="6.12106110247">
		<tag k="name" v="Indre Mollen" />
>>>>>>> e1d4bc35ff8a6074a6f2e91616a996b547c36f15
		<tag k="natural" v="bay" />
		<tag k="ssr:stedsnr" v="663752" />
	</node>
<<<<<<< HEAD
	<node lat="58.84286110905549" lon="6.243583337077548" id="-2010">
=======
	<node id="-22857" lat="58.8428611091" lon="6.24358333708">
>>>>>>> e1d4bc35ff8a6074a6f2e91616a996b547c36f15
		<tag k="alt_name" v="Launesodden" />
		<tag k="name" v="Lauvnes" />
		<tag k="natural" v="cape" />
		<tag k="ssr:stedsnr" v="729688" />
	</node>
<<<<<<< HEAD
	<node lat="58.77608610832299" lon="5.927833332290457" id="-2025">
		<tag k="name" v="Krossen" />
		<tag k="natural" v="strait" />
		<tag k="ssr:stedsnr" v="751082" />
	</node>
	<node lat="58.856508332378596" lon="6.11823054706914" id="-2068">
		<tag k="name" v="Mollane" />
		<tag k="natural" v="beach" />
		<tag k="ssr:stedsnr" v="785937" />
	</node>
	<node lat="58.85508055669437" lon="6.129188895500125" id="-2069">
		<tag k="name" v="Moltemyrodden" />
		<tag k="natural" v="cape" />
		<tag k="ssr:stedsnr" v="785939" />
	</node>
	<node lat="58.84683410845064" lon="6.213753375616496" id="-2093">
		<tag k="alt_name" v="Frafjorden" />
		<tag k="bay" v="fjord" />
		<tag k="name" v="Frafjord" />
=======
	<node id="-22472" lat="58.8541499964" lon="6.12981667205">
		<tag k="name" v="Vikaodden" />
		<tag k="natural" v="cape" />
		<tag k="ssr:stedsnr" v="486600" />
	</node>
	<node id="-22473" lat="58.850355554" lon="6.14334444801">
		<tag k="alt_name" v="Ivarsvik" />
		<tag k="name" v="Ivarsvika" />
		<tag k="natural" v="bay" />
		<tag k="ssr:stedsnr" v="486601" />
	</node>
	<node id="-23348" lat="58.8398083313" lon="6.26551111848">
		<tag k="name" v="Gusthol" />
>>>>>>> e1d4bc35ff8a6074a6f2e91616a996b547c36f15
		<tag k="natural" v="bay" />
		<tag k="ssr:stedsnr" v="789669" />
	</node>
<<<<<<< HEAD
	<node lat="58.85498055928806" lon="6.129233338828785" id="-2147">
=======
	<node id="-24243" lat="58.8549805593" lon="6.12923333883">
>>>>>>> e1d4bc35ff8a6074a6f2e91616a996b547c36f15
		<tag k="name" v="Vigaodden" />
		<tag k="natural" v="cape" />
		<tag k="ssr:stedsnr" v="846759" />
	</node>
<<<<<<< HEAD
	<node lat="58.84920277630913" lon="6.2685861054553635" id="-2170">
		<tag k="name" v="Ørestø" />
		<tag k="natural" v="cape" />
		<tag k="ssr:stedsnr" v="850657" />
=======
	<node id="-23469" lat="58.858361113" lon="6.11230277456">
		<tag k="alt_name" v="Ytra Mollen" />
		<tag k="name" v="Ytre Mollen" />
		<tag k="natural" v="bay" />
		<tag k="ssr:stedsnr" v="178745" />
	</node>
	<node id="-22571" lat="58.8429361103" lon="6.22934443786">
		<tag k="name" v="Røyshabn" />
		<tag k="natural" v="bay" />
		<tag k="ssr:stedsnr" v="663752" />
	</node>
	<node id="-23466" lat="58.8430388907" lon="6.22416944531">
		<tag k="name" v="Skibaroren" />
		<tag k="natural" v="bay" />
		<tag k="ssr:stedsnr" v="178725" />
	</node>
	<node id="-22293" lat="58.8369305527" lon="6.17243055437">
		<tag k="name" v="Suggevik" />
		<tag k="natural" v="bay" />
		<tag k="ssr:stedsnr" v="283991" />
	</node>
	<node id="-23204" lat="58.8469833296" lon="6.2785027846">
		<tag k="loc_name" v="Kvildevig" />
		<tag k="name" v="Kvildevik" />
		<tag k="natural" v="bay" />
		<tag k="ssr:stedsnr" v="24999" />
	</node>
	<node id="-22430" lat="58.8394638904" lon="6.18475833847">
		<tag k="name" v="Hagen" />
		<tag k="natural" v="cape" />
		<tag k="ssr:stedsnr" v="481739" />
	</node>
	<node id="-24085" lat="58.7760861083" lon="5.92783333229">
		<tag k="name" v="Krossen" />
		<tag k="natural" v="strait" />
		<tag k="ssr:stedsnr" v="751082" />
	</node>
	<node id="-23699" lat="58.9938361123" lon="5.81624721345">
		<tag k="bay" v="fjord" />
		<tag k="name" v="Høgsfjorden" />
		<tag k="natural" v="bay" />
		<tag k="ssr:stedsnr" v="364128" />
	</node>
	<node id="-23945" lat="58.8001944438" lon="5.99334167434">
		<tag k="name" v="Havika" />
		<tag k="natural" v="bay" />
		<tag k="ssr:stedsnr" v="569932" />
>>>>>>> e1d4bc35ff8a6074a6f2e91616a996b547c36f15
	</node>
</osm>
