<?xml version="1.0" encoding="UTF-8"?>
<<<<<<< HEAD
<osm version="0.6" generator="osmapis">
	<node lat="58.77108055278563" lon="5.8469055619958015" id="-1">
=======
<osm generator="osmapis" version="0.6">
	<node id="-24320" lat="58.7560277803" lon="5.90602777322">
		<tag k="bridge" v="yes" />
		<tag k="layer" v="1" />
		<tag k="name" v="Straume" />
		<tag k="ssr:stedsnr" v="957607" />
	</node>
	<node id="-23673" lat="58.7667777803" lon="5.86281110296">
		<tag k="bridge" v="yes" />
		<tag k="layer" v="1" />
		<tag k="name" v="Ålgård" />
		<tag k="ssr:stedsnr" v="350597" />
	</node>
	<node id="-23672" lat="58.686044441" lon="5.98879999895">
		<tag k="bridge" v="yes" />
		<tag k="layer" v="1" />
		<tag k="name" v="Søyland" />
		<tag k="ssr:stedsnr" v="350595" />
	</node>
	<node id="-23671" lat="58.7650944401" lon="5.85442222084">
		<tag k="bridge" v="yes" />
		<tag k="layer" v="1" />
		<tag k="name" v="Ålgård Kanal" />
		<tag k="ssr:stedsnr" v="350591" />
	</node>
	<node id="-22770" lat="58.7564138921" lon="6.32218055272">
		<tag k="junction" v="yes" />
		<tag k="name" v="Smihusbrotet" />
		<tag k="place" v="locality" />
		<tag k="ssr:stedsnr" v="585657" />
	</node>
	<node id="-23152" lat="58.772352778" lon="5.84583889544">
		<tag k="bridge" v="yes" />
		<tag k="layer" v="1" />
		<tag k="name" v="Skogbøbrua" />
		<tag k="ssr:stedsnr" v="961368" />
	</node>
	<node id="-22372" lat="58.781327778" lon="6.32224445154">
		<tag k="bridge" v="yes" />
		<tag k="layer" v="1" />
		<tag k="name" v="Byrkjedalsbekken" />
		<tag k="ssr:stedsnr" v="289706" />
	</node>
	<node id="-22371" lat="58.7459111123" lon="5.89426667105">
		<tag k="bridge" v="yes" />
		<tag k="layer" v="1" />
		<tag k="name" v="Langavatn" />
		<tag k="ssr:stedsnr" v="289703" />
	</node>
	<node id="-22370" lat="58.8199555585" lon="6.43282778023">
		<tag k="bridge" v="yes" />
		<tag k="layer" v="1" />
		<tag k="name" v="Ritland" />
		<tag k="ssr:stedsnr" v="289702" />
	</node>
	<node id="-22369" lat="58.7591722242" lon="5.89360277751">
		<tag k="bridge" v="yes" />
		<tag k="layer" v="1" />
		<tag k="name" v="Bollestad" />
		<tag k="ssr:stedsnr" v="289809" />
	</node>
	<node id="-24031" lat="58.7562805545" lon="5.83691666151">
		<tag k="bridge" v="yes" />
		<tag k="layer" v="1" />
		<tag k="name" v="Tjetlandsvaet" />
		<tag k="ssr:stedsnr" v="629083" />
	</node>
	<node id="-22153" lat="58.7708138916" lon="5.95697221723">
		<tag k="bridge" v="yes" />
		<tag k="layer" v="1" />
		<tag k="name" v="Gjesdal" />
		<tag k="ssr:stedsnr" v="229638" />
	</node>
	<node id="-23128" lat="58.7366444424" lon="5.89594443785">
		<tag k="bridge" v="yes" />
		<tag k="layer" v="1" />
		<tag k="name" v="Husåna" />
		<tag k="ssr:stedsnr" v="896704" />
	</node>
	<node id="-22214" lat="58.8346472204" lon="6.18022778636">
		<tag k="junction" v="yes" />
		<tag k="name" v="Krossen" />
		<tag k="place" v="locality" />
		<tag k="ssr:stedsnr" v="100509" />
	</node>
	<node id="-23236" lat="58.8213138862" lon="6.20104444974">
		<tag k="bridge" v="yes" />
		<tag k="layer" v="1" />
		<tag k="name" v="Frøyland" />
		<tag k="ssr:stedsnr" v="46700" />
	</node>
	<node id="-23235" lat="58.7850472203" lon="5.93765000431">
		<tag k="bridge" v="yes" />
		<tag k="layer" v="1" />
		<tag k="name" v="Lima (Indre)" />
		<tag k="ssr:stedsnr" v="46698" />
	</node>
	<node id="-23485" lat="58.8823527809" lon="6.50932221964">
		<tag k="highway" v="path" />
		<tag k="name" v="Driftaveien" />
		<tag k="ssr:stedsnr" v="180896" />
	</node>
	<node id="-22154" lat="58.773941665" lon="5.94602777651">
		<tag k="bridge" v="yes" />
		<tag k="layer" v="1" />
		<tag k="name" v="Gjesdal (Nedre)" />
		<tag k="ssr:stedsnr" v="229639" />
	</node>
	<node id="-23990" lat="58.8497250027" lon="6.12079444608">
		<tag k="bridge" v="yes" />
		<tag k="layer" v="1" />
		<tag k="name" v="Oltesvik" />
		<tag k="ssr:stedsnr" v="592687" />
	</node>
	<node id="-23989" lat="58.7835333313" lon="6.0145666731">
		<tag k="bridge" v="yes" />
		<tag k="layer" v="1" />
		<tag k="name" v="Nevland" />
		<tag k="ssr:stedsnr" v="592685" />
	</node>
	<node id="-23988" lat="58.8389972268" lon="6.15542778373">
		<tag k="bridge" v="yes" />
		<tag k="layer" v="1" />
		<tag k="name" v="Rørdal" />
		<tag k="ssr:stedsnr" v="592683" />
	</node>
	<node id="-23346" lat="58.8324777795" lon="6.09402499777">
>>>>>>> e1d4bc35ff8a6074a6f2e91616a996b547c36f15
		<tag k="bridge" v="yes" />
		<tag k="layer" v="1" />
		<tag k="name" v="Skokk" />
		<tag k="ssr:stedsnr" v="229628" />
	</node>
<<<<<<< HEAD
	<node lat="58.75581944272072" lon="5.809474999467502" id="-30">
		<tag k="junction" v="yes" />
		<tag k="name" v="Trollkirken" />
		<tag k="place" v="locality" />
		<tag k="ssr:stedsnr" v="24112" />
	</node>
	<node lat="58.83464722036169" lon="6.180227786355261" id="-131">
		<tag k="junction" v="yes" />
		<tag k="name" v="Krossen" />
		<tag k="place" v="locality" />
		<tag k="ssr:stedsnr" v="100509" />
	</node>
	<node lat="58.77505832948248" lon="5.837463880664555" id="-252">
		<tag k="bridge" v="yes" />
		<tag k="layer" v="1" />
		<tag k="name" v="Opstad" />
		<tag k="ssr:stedsnr" v="229629" />
	</node>
	<node lat="58.84418333749169" lon="6.356897217513321" id="-253">
		<tag k="bridge" v="yes" />
		<tag k="layer" v="1" />
		<tag k="name" v="Kommedal" />
		<tag k="ssr:stedsnr" v="229637" />
	</node>
	<node lat="58.77081389163314" lon="5.956972217230237" id="-254">
		<tag k="bridge" v="yes" />
		<tag k="layer" v="1" />
		<tag k="name" v="Gjesdal" />
		<tag k="ssr:stedsnr" v="229638" />
	</node>
	<node lat="58.77394166500294" lon="5.9460277765149545" id="-255">
		<tag k="bridge" v="yes" />
		<tag k="layer" v="1" />
		<tag k="name" v="Gjesdal (Nedre)" />
		<tag k="ssr:stedsnr" v="229639" />
	</node>
	<node lat="58.816980553860745" lon="6.311152772396913" id="-293">
=======
	<node id="-22152" lat="58.8441833375" lon="6.35689721751">
		<tag k="bridge" v="yes" />
		<tag k="layer" v="1" />
		<tag k="name" v="Kommedal" />
		<tag k="ssr:stedsnr" v="229637" />
	</node>
	<node id="-22447" lat="58.8061750003" lon="6.21683054736">
		<tag k="highway" v="path" />
		<tag k="name" v="Juaveien" />
		<tag k="ssr:stedsnr" v="484533" />
	</node>
	<node id="-23854" lat="58.7666888867" lon="5.86308055701">
		<tag k="bridge" v="yes" />
		<tag k="layer" v="1" />
		<tag k="name" v="Flotåna" />
		<tag k="ssr:stedsnr" v="532630" />
	</node>
	<node id="-23981" lat="58.8049500036" lon="6.38455554871">
		<tag k="highway" v="path" />
		<tag k="name" v="Stølsveien" />
		<tag k="ssr:stedsnr" v="587953" />
	</node>
	<node id="-23090" lat="58.716830559" lon="5.97525833258">
		<tag k="bridge" v="yes" />
		<tag k="layer" v="1" />
		<tag k="name" v="Laugen" />
		<tag k="ssr:stedsnr" v="836614" />
	</node>
	<node id="-23977" lat="58.7691055578" lon="6.4708694441">
		<tag k="highway" v="path" />
		<tag k="name" v="Stigane" />
		<tag k="ssr:stedsnr" v="587419" />
	</node>
	<node id="-23206" lat="58.7534805515" lon="6.3184638965">
>>>>>>> e1d4bc35ff8a6074a6f2e91616a996b547c36f15
		<tag k="highway" v="path" />
		<tag k="name" v="Motlandsveien" />
		<tag k="ssr:stedsnr" v="282472" />
	</node>
<<<<<<< HEAD
	<node lat="58.84645277393569" lon="6.341444450061808" id="-296">
=======
	<node id="-23458" lat="58.834997223" lon="6.17114999199">
>>>>>>> e1d4bc35ff8a6074a6f2e91616a996b547c36f15
		<tag k="highway" v="path" />
		<tag k="name" v="Molaugstegane" />
		<tag k="ssr:stedsnr" v="283521" />
	</node>
<<<<<<< HEAD
	<node lat="58.81995555852459" lon="6.432827780229297" id="-307">
=======
	<node id="-22943" lat="58.7262555599" lon="5.96930555146">
>>>>>>> e1d4bc35ff8a6074a6f2e91616a996b547c36f15
		<tag k="bridge" v="yes" />
		<tag k="layer" v="1" />
		<tag k="name" v="Ritland" />
		<tag k="ssr:stedsnr" v="289702" />
	</node>
<<<<<<< HEAD
	<node lat="58.74591111226551" lon="5.894266671051919" id="-308">
=======
	<node id="-22942" lat="58.8165833364" lon="6.21780000668">
>>>>>>> e1d4bc35ff8a6074a6f2e91616a996b547c36f15
		<tag k="bridge" v="yes" />
		<tag k="layer" v="1" />
		<tag k="name" v="Langavatn" />
		<tag k="ssr:stedsnr" v="289703" />
	</node>
<<<<<<< HEAD
	<node lat="58.781327777965814" lon="6.322244451535207" id="-309">
=======
	<node id="-22941" lat="58.84623611" lon="6.36511110857">
>>>>>>> e1d4bc35ff8a6074a6f2e91616a996b547c36f15
		<tag k="bridge" v="yes" />
		<tag k="layer" v="1" />
		<tag k="name" v="Byrkjedalsbekken" />
		<tag k="ssr:stedsnr" v="289706" />
	</node>
<<<<<<< HEAD
	<node lat="58.75917222424212" lon="5.893602777512969" id="-310">
		<tag k="bridge" v="yes" />
		<tag k="layer" v="1" />
		<tag k="name" v="Bollestad" />
		<tag k="ssr:stedsnr" v="289809" />
	</node>
	<node lat="58.779525002439996" lon="6.320438888404631" id="-382">
=======
	<node id="-22422" lat="58.7795250024" lon="6.3204388884">
		<tag k="bridge" v="yes" />
		<tag k="layer" v="1" />
		<tag k="name" v="Kvines" />
		<tag k="ssr:stedsnr" v="471645" />
	</node>
	<node id="-24238" lat="58.7652111072" lon="5.85479166768">
>>>>>>> e1d4bc35ff8a6074a6f2e91616a996b547c36f15
		<tag k="bridge" v="yes" />
		<tag k="layer" v="1" />
		<tag k="name" v="Ålgård" />
		<tag k="ssr:stedsnr" v="836600" />
	</node>
<<<<<<< HEAD
	<node lat="58.76509444012855" lon="5.854422220837383" id="-400">
		<tag k="bridge" v="yes" />
		<tag k="layer" v="1" />
		<tag k="name" v="Ålgård Kanal" />
		<tag k="ssr:stedsnr" v="350591" />
	</node>
	<node lat="58.80617500033953" lon="6.216830547359279" id="-446">
=======
	<node id="-24081" lat="58.8036027802" lon="6.43386666253">
		<tag k="highway" v="path" />
		<tag k="name" v="Kvida Kleivå" />
		<tag k="ssr:stedsnr" v="648965" />
	</node>
	<node id="-22798" lat="58.838594441" lon="6.25532778467">
		<tag k="highway" v="path" />
		<tag k="name" v="Tagveien" />
		<tag k="ssr:stedsnr" v="724751" />
	</node>
	<node id="-22285" lat="58.8464527739" lon="6.34144445006">
>>>>>>> e1d4bc35ff8a6074a6f2e91616a996b547c36f15
		<tag k="highway" v="path" />
		<tag k="name" v="Juaveien" />
		<tag k="ssr:stedsnr" v="484533" />
	</node>
<<<<<<< HEAD
	<node lat="58.731613887004414" lon="6.306980562959472" id="-499">
		<tag k="man_made" v="cairn" />
		<tag k="name" v="Piggsteinen" />
=======
	<node id="-24322" lat="58.7771055538" lon="6.30831944928">
		<tag k="bridge" v="yes" />
		<tag k="layer" v="1" />
		<tag k="name" v="Gloppedalsbekken" />
		<tag k="ssr:stedsnr" v="957613" />
	</node>
	<node id="-24074" lat="58.7644361102" lon="6.34067778351">
		<tag k="junction" v="yes" />
		<tag k="name" v="Krossen" />
>>>>>>> e1d4bc35ff8a6074a6f2e91616a996b547c36f15
		<tag k="place" v="locality" />
		<tag k="ssr:stedsnr" v="426241" />
	</node>
<<<<<<< HEAD
	<node lat="58.804950003647036" lon="6.384555548710926" id="-680">
		<tag k="highway" v="path" />
		<tag k="name" v="Stølsveien" />
		<tag k="ssr:stedsnr" v="587953" />
	</node>
	<node lat="58.72625555991267" lon="5.969305551456179" id="-819">
		<tag k="bridge" v="yes" />
		<tag k="layer" v="1" />
		<tag k="name" v="Kyllingstad" />
		<tag k="ssr:stedsnr" v="896702" />
	</node>
	<node lat="58.71683055902318" lon="5.975258332576572" id="-990">
=======
	<node id="-24073" lat="58.7646444439" lon="6.36831665819">
		<tag k="landuse" v="industrial" />
		<tag k="name" v="Maudal" />
		<tag k="power" v="plant" />
		<tag k="ssr:stedsnr" v="648557" />
	</node>
	<node id="-22280" lat="58.8169805539" lon="6.3111527724">
		<tag k="highway" v="path" />
		<tag k="name" v="Motlandsveien" />
		<tag k="ssr:stedsnr" v="282472" />
	</node>
	<node id="-22151" lat="58.7750583295" lon="5.83746388066">
>>>>>>> e1d4bc35ff8a6074a6f2e91616a996b547c36f15
		<tag k="bridge" v="yes" />
		<tag k="layer" v="1" />
		<tag k="name" v="Laugen" />
		<tag k="ssr:stedsnr" v="836614" />
	</node>
<<<<<<< HEAD
	<node lat="58.73664444241195" lon="5.895944437847732" id="-1054">
		<tag k="bridge" v="yes" />
		<tag k="layer" v="1" />
		<tag k="name" v="Husåna" />
		<tag k="ssr:stedsnr" v="896704" />
	</node>
	<node lat="58.75602778026753" lon="5.9060277732169" id="-1114">
=======
	<node id="-22150" lat="58.7710805528" lon="5.846905562">
		<tag k="bridge" v="yes" />
		<tag k="layer" v="1" />
		<tag k="name" v="Skokk" />
		<tag k="ssr:stedsnr" v="229628" />
	</node>
	<node id="-22149" lat="58.7558194427" lon="5.80947499947">
		<tag k="junction" v="yes" />
		<tag k="name" v="Trollkirken" />
		<tag k="place" v="locality" />
		<tag k="ssr:stedsnr" v="24112" />
	</node>
	<node id="-24323" lat="58.8134083307" lon="6.22219444689">
>>>>>>> e1d4bc35ff8a6074a6f2e91616a996b547c36f15
		<tag k="bridge" v="yes" />
		<tag k="layer" v="1" />
		<tag k="name" v="Straume" />
		<tag k="ssr:stedsnr" v="957607" />
	</node>
<<<<<<< HEAD
	<node lat="58.753480551457756" lon="6.318463896497354" id="-1163">
		<tag k="highway" v="path" />
		<tag k="name" v="Regje" />
		<tag k="ssr:stedsnr" v="38543" />
	</node>
	<node lat="58.78504722025988" lon="5.937650004313837" id="-1191">
=======
	<node id="-23810" lat="58.731613887" lon="6.30698056296">
		<tag k="man_made" v="cairn" />
		<tag k="name" v="Piggsteinen" />
		<tag k="place" v="locality" />
		<tag k="ssr:stedsnr" v="426241" />
	</node>
	<node id="-24321" lat="58.8106444455" lon="6.24183610249">
>>>>>>> e1d4bc35ff8a6074a6f2e91616a996b547c36f15
		<tag k="bridge" v="yes" />
		<tag k="layer" v="1" />
		<tag k="name" v="Lima (Indre)" />
		<tag k="ssr:stedsnr" v="46698" />
	</node>
<<<<<<< HEAD
	<node lat="58.821313886245306" lon="6.201044449737809" id="-1192">
		<tag k="bridge" v="yes" />
		<tag k="layer" v="1" />
		<tag k="name" v="Frøyland" />
		<tag k="ssr:stedsnr" v="46700" />
	</node>
	<node lat="58.832477779455374" lon="6.094024997767795" id="-1255">
		<tag k="bridge" v="yes" />
		<tag k="layer" v="1" />
		<tag k="name" v="Rage" />
		<tag k="ssr:stedsnr" v="107666" />
	</node>
	<node lat="58.834997222977336" lon="6.171149991989184" id="-1347">
		<tag k="highway" v="path" />
		<tag k="name" v="Stølsvegen" />
		<tag k="ssr:stedsnr" v="161971" />
	</node>
	<node lat="58.88235278090494" lon="6.50932221963849" id="-1379">
		<tag k="highway" v="path" />
		<tag k="name" v="Driftaveien" />
		<tag k="ssr:stedsnr" v="180896" />
	</node>
	<node lat="58.68604444097617" lon="5.988799998945922" id="-1570">
		<tag k="bridge" v="yes" />
		<tag k="layer" v="1" />
		<tag k="name" v="Søyland" />
		<tag k="ssr:stedsnr" v="350595" />
	</node>
	<node lat="58.766777780282005" lon="5.862811102960514" id="-1571">
		<tag k="bridge" v="yes" />
		<tag k="layer" v="1" />
		<tag k="name" v="Ålgård" />
		<tag k="ssr:stedsnr" v="350597" />
	</node>
	<node lat="58.7666888867331" lon="5.863080557011288" id="-1756">
		<tag k="bridge" v="yes" />
		<tag k="layer" v="1" />
		<tag k="name" v="Flotåna" />
		<tag k="ssr:stedsnr" v="532630" />
	</node>
	<node lat="58.75641389211031" lon="6.322180552715661" id="-1826">
		<tag k="junction" v="yes" />
		<tag k="name" v="Smihusbrotet" />
		<tag k="place" v="locality" />
		<tag k="ssr:stedsnr" v="585657" />
	</node>
	<node lat="58.76910555780538" lon="6.4708694440982" id="-1842">
		<tag k="highway" v="path" />
		<tag k="name" v="Stigane" />
		<tag k="ssr:stedsnr" v="587419" />
	</node>
	<node lat="58.83899722681901" lon="6.15542778373362" id="-1848">
		<tag k="bridge" v="yes" />
		<tag k="layer" v="1" />
		<tag k="name" v="Rørdal" />
		<tag k="ssr:stedsnr" v="592683" />
	</node>
	<node lat="58.78353333128515" lon="6.014566673100698" id="-1849">
		<tag k="bridge" v="yes" />
		<tag k="layer" v="1" />
		<tag k="name" v="Nevland" />
		<tag k="ssr:stedsnr" v="592685" />
	</node>
	<node lat="58.84972500266892" lon="6.12079444607544" id="-1850">
		<tag k="bridge" v="yes" />
		<tag k="layer" v="1" />
		<tag k="name" v="Oltesvik" />
		<tag k="ssr:stedsnr" v="592687" />
	</node>
	<node lat="58.7562805545448" lon="5.836916661513848" id="-1887">
		<tag k="bridge" v="yes" />
		<tag k="layer" v="1" />
		<tag k="name" v="Tjetlandsvaet" />
		<tag k="ssr:stedsnr" v="629083" />
	</node>
	<node lat="58.764644443876406" lon="6.368316658185739" id="-1922">
		<tag k="landuse" v="industrial" />
		<tag k="name" v="Maudal" />
		<tag k="power" v="plant" />
		<tag k="ssr:stedsnr" v="648557" />
	</node>
	<node lat="58.764436110210184" lon="6.340677783507882" id="-1923">
		<tag k="junction" v="yes" />
		<tag k="name" v="Krossen" />
		<tag k="place" v="locality" />
		<tag k="ssr:stedsnr" v="648561" />
	</node>
	<node lat="58.80360278020635" lon="6.433866662533898" id="-1934">
		<tag k="highway" v="path" />
		<tag k="name" v="Kvida Kleivå" />
		<tag k="ssr:stedsnr" v="648965" />
	</node>
	<node lat="58.84623611000032" lon="6.365111108569961" id="-1981">
		<tag k="bridge" v="yes" />
		<tag k="layer" v="1" />
		<tag k="name" v="Brådland" />
		<tag k="ssr:stedsnr" v="714615" />
	</node>
	<node lat="58.81658333636268" lon="6.217800006676579" id="-1982">
		<tag k="bridge" v="yes" />
		<tag k="layer" v="1" />
		<tag k="name" v="Dirdalsmoen" />
		<tag k="ssr:stedsnr" v="714616" />
	</node>
	<node lat="58.838594440991315" lon="6.255327784672631" id="-1985">
		<tag k="highway" v="path" />
		<tag k="name" v="Tagveien" />
		<tag k="ssr:stedsnr" v="724751" />
	</node>
	<node lat="58.76521110718055" lon="5.854791667680763" id="-2144">
		<tag k="bridge" v="yes" />
		<tag k="layer" v="1" />
		<tag k="name" v="Ålgård" />
		<tag k="ssr:stedsnr" v="836600" />
	</node>
	<node lat="58.810644445530315" lon="6.24183610249416" id="-2229">
		<tag k="bridge" v="yes" />
		<tag k="layer" v="1" />
		<tag k="name" v="Kvitaland" />
		<tag k="ssr:stedsnr" v="957612" />
	</node>
	<node lat="58.77710555379001" lon="6.308319449279327" id="-2230">
		<tag k="bridge" v="yes" />
		<tag k="layer" v="1" />
		<tag k="name" v="Gloppedalsbekken" />
		<tag k="ssr:stedsnr" v="957613" />
	</node>
	<node lat="58.81340833068948" lon="6.222194446885015" id="-2231">
		<tag k="bridge" v="yes" />
		<tag k="layer" v="1" />
		<tag k="name" v="Dyrkoll" />
		<tag k="ssr:stedsnr" v="957622" />
	</node>
	<node lat="58.77235277800601" lon="5.845838895439047" id="-2232">
		<tag k="bridge" v="yes" />
		<tag k="layer" v="1" />
		<tag k="name" v="Skogbøbrua" />
		<tag k="ssr:stedsnr" v="961368" />
	</node>
=======
>>>>>>> e1d4bc35ff8a6074a6f2e91616a996b547c36f15
</osm>
