<?xml version="1.0" encoding="UTF-8"?>
<osm generator="osmapis" version="0.6">
	<node id="-1536" lat="58.8310444451" lon="6.06535555915">
		<tag k="name" v="Storemyr" />
		<tag k="natural" v="wetland" />
		<tag k="ssr:stedsnr" v="239936" />
	</node>
	<node id="-2047" lat="58.6805527784" lon="5.97519722574">
		<tag k="name" v="Bronnmyra" />
		<tag k="natural" v="wetland" />
		<tag k="ssr:stedsnr" v="690375" />
	</node>
	<node id="-1532" lat="58.8591861144" lon="6.45666943917">
		<tag k="name" v="Kyrkjesteinen" />
		<tag k="natural" v="stone" />
		<tag k="ssr:stedsnr" v="239778" />
	</node>
	<node id="-1531" lat="58.7864166664" lon="6.01132777076">
		<tag k="name" v="Skogjen" />
		<tag k="place" v="locality" />
		<tag k="ssr:stedsnr" v="239687" />
	</node>
	<node id="-2553" lat="58.6836111114" lon="5.97637499287">
		<tag k="name" v="Hattamyra" />
		<tag k="natural" v="wetland" />
		<tag k="ssr:stedsnr" v="23388" />
	</node>
	<node id="-3572" lat="58.7382638847" lon="6.02555834212">
		<tag k="name" v="Rasmaskogen" />
		<tag k="place" v="locality" />
		<tag k="ssr:stedsnr" v="829479" />
	</node>
	<node id="-1522" lat="58.8074305537" lon="6.104449997">
		<tag k="name" v="Storelimyra" />
		<tag k="natural" v="wetland" />
		<tag k="ssr:stedsnr" v="40654" />
	</node>
	<node id="-2027" lat="58.8508222193" lon="6.2312972202">
		<tag k="name" v="Tormosteinen" />
		<tag k="natural" v="stone" />
		<tag k="ssr:stedsnr" v="525972" />
	</node>
	<node id="-2025" lat="58.7419777762" lon="6.28457221715">
		<tag k="name" v="Kjeringura" />
		<tag k="natural" v="scree" />
		<tag k="ssr:stedsnr" v="524423" />
	</node>
	<node id="-2015" lat="58.6795111144" lon="5.94463610221">
		<tag k="name" v="Ryggjamyra" />
		<tag k="natural" v="wetland" />
		<tag k="ssr:stedsnr" v="508350" />
	</node>
	<node id="-1502" lat="58.8788944434" lon="6.31660000329">
		<tag k="name" v="Fornastølen" />
		<tag k="place" v="locality" />
		<tag k="ssr:stedsnr" v="21112" />
	</node>
	<node id="-3548" lat="58.7479555515" lon="5.85984444788">
		<tag k="name" v="Uglemyr" />
		<tag k="natural" v="wetland" />
		<tag k="ssr:stedsnr" v="811110" />
	</node>
	<node id="-3034" lat="58.855702782" lon="6.38038055375">
		<tag k="name" v="Foreskogen" />
		<tag k="place" v="locality" />
		<tag k="ssr:stedsnr" v="360673" />
	</node>
	<node id="-3151" lat="58.7867083367" lon="6.06316111814">
		<tag k="name" v="Osheia" />
		<tag k="place" v="locality" />
		<tag k="ssr:stedsnr" v="423660" />
	</node>
	<node id="-1496" lat="58.8263083299" lon="6.02693889701">
		<tag k="name" v="Nybrot" />
		<tag k="place" v="locality" />
		<tag k="ssr:stedsnr" v="223006" />
	</node>
	<node id="-1529" lat="58.7368361144" lon="6.30844445081">
		<tag k="historic" v="shieling" />
		<tag k="name" v="Lanesstølen" />
		<tag k="place" v="locality" />
		<tag k="ssr:stedsnr" v="239646" />
	</node>
	<node id="-3028" lat="58.7809000039" lon="6.29935555589">
		<tag k="name" v="Indra Sveberget" />
		<tag k="place" v="locality" />
		<tag k="ssr:stedsnr" v="344996" />
	</node>
	<node id="-2514" lat="58.7837472185" lon="5.99971945139">
		<tag k="name" v="Heiå" />
		<tag k="place" v="locality" />
		<tag k="ssr:stedsnr" v="967622" />
	</node>
	<node id="-3022" lat="58.8141166671" lon="6.04696944481">
		<tag k="historic" v="shieling" />
		<tag k="name" v="Stølane" />
		<tag k="place" v="locality" />
		<tag k="ssr:stedsnr" v="344289" />
	</node>
	<node id="-1477" lat="58.7934166676" lon="6.25250833985">
		<tag k="historic" v="shieling" />
		<tag k="name" v="Brekkestølen" />
		<tag k="place" v="locality" />
		<tag k="ssr:stedsnr" v="220415" />
	</node>
	<node id="-3135" lat="58.8521000004" lon="6.10526111039">
		<tag k="historic" v="shieling" />
		<tag k="name" v="Stølen" />
		<tag k="place" v="locality" />
		<tag k="ssr:stedsnr" v="421866" />
	</node>
	<node id="-2491" lat="58.7769722212" lon="6.09068610836">
		<tag k="name" v="Storemyr" />
		<tag k="natural" v="wetland" />
		<tag k="ssr:stedsnr" v="909627" />
	</node>
	<node id="-3507" lat="58.8474749995" lon="6.52106667041">
		<tag k="name" v="Søyland" />
		<tag k="natural" v="stone" />
		<tag k="ssr:stedsnr" v="787079" />
	</node>
	<node id="-3305" lat="58.7743750005" lon="5.94337500338">
		<tag k="alt_name" v="Kjyrkjemyra" />
		<tag k="name" v="Kyrkjemyra" />
		<tag k="natural" v="wetland" />
		<tag k="ssr:stedsnr" v="569940" />
	</node>
	<node id="-2479" lat="58.7818444416" lon="5.8923055644">
		<tag k="name" v="Jubemyra" />
		<tag k="natural" v="wetland" />
		<tag k="ssr:stedsnr" v="873022" />
	</node>
	<node id="-1693" lat="58.7157916664" lon="5.89270833513">
		<tag k="name" v="Øvre Risdalsmyra" />
		<tag k="natural" v="wetland" />
		<tag k="ssr:stedsnr" v="447664" />
	</node>
	<node id="-3498" lat="58.8549416634" lon="6.10294443749">
		<tag k="name" v="Longemyr" />
		<tag k="natural" v="wetland" />
		<tag k="ssr:stedsnr" v="785852" />
	</node>
	<node id="-2983" lat="58.7039416627" lon="5.92567222171">
		<tag k="name" v="Blokkemyra" />
		<tag k="natural" v="wetland" />
		<tag k="ssr:stedsnr" v="326236" />
	</node>
	<node id="-2981" lat="58.7402527754" lon="5.90322221664">
		<tag k="name" v="Myrå" />
		<tag k="natural" v="wetland" />
		<tag k="ssr:stedsnr" v="326081" />
	</node>
	<node id="-1955" lat="58.7498611132" lon="6.01719999431">
		<tag k="name" v="Rodlemyra" />
		<tag k="natural" v="wetland" />
		<tag k="ssr:stedsnr" v="465475" />
	</node>
	<node id="-2978" lat="58.867725001" lon="6.28796111324">
		<tag k="name" v="Indre Frafjordstølen" />
		<tag k="place" v="locality" />
		<tag k="ssr:stedsnr" v="324083" />
	</node>
	<node id="-1950" lat="58.7645888914" lon="6.06291945055">
		<tag k="name" v="Radamyra" />
		<tag k="natural" v="wetland" />
		<tag k="ssr:stedsnr" v="464475" />
	</node>
	<node id="-2459" lat="58.8559888906" lon="6.09673333649">
		<tag k="name" v="Runda Myrå" />
		<tag k="natural" v="wetland" />
		<tag k="ssr:stedsnr" v="846854" />
	</node>
	<node id="-3480" lat="58.8271999974" lon="6.2159388947">
		<tag k="name" v="Stora Myrå" />
		<tag k="natural" v="wetland" />
		<tag k="ssr:stedsnr" v="768506" />
	</node>
	<node id="-2454" lat="58.852976928" lon="6.1310493684">
		<tag k="name" v="Moltemyr" />
		<tag k="natural" v="wetland" />
		<tag k="ssr:stedsnr" v="846923" />
	</node>
	<node id="-3470" lat="58.8597916683" lon="6.435027781">
		<tag k="historic" v="shieling" />
		<tag k="name" v="Midtstølen" />
		<tag k="place" v="locality" />
		<tag k="ssr:stedsnr" v="756432" />
	</node>
	<node id="-3468" lat="58.7757444451" lon="5.95772499336">
		<tag k="name" v="Roskomyr" />
		<tag k="natural" v="wetland" />
		<tag k="ssr:stedsnr" v="751968" />
	</node>
	<node id="-2443" lat="58.7722944457" lon="5.98510278067">
		<tag k="name" v="Doblemyr" />
		<tag k="natural" v="wetland" />
		<tag k="ssr:stedsnr" v="934953" />
	</node>
	<node id="-2439" lat="58.7879722193" lon="5.91607499879">
		<tag k="landuse" v="meadow" />
		<tag k="name" v="Montana" />
		<tag k="ssr:stedsnr" v="934035" />
	</node>
	<node id="-1926" lat="58.7982749972" lon="5.92420000133">
		<tag k="name" v="Lange myro" />
		<tag k="natural" v="wetland" />
		<tag k="ssr:stedsnr" v="448014" />
	</node>
	<node id="-3307" lat="58.7669416657" lon="5.97157499448">
		<tag k="name" v="Svartemyr" />
		<tag k="natural" v="wetland" />
		<tag k="ssr:stedsnr" v="569975" />
	</node>
	<node id="-2432" lat="58.6862332624" lon="5.95077085331">
		<tag k="name" v="Langamyra" />
		<tag k="natural" v="wetland" />
		<tag k="ssr:stedsnr" v="933328" />
	</node>
	<node id="-3452" lat="58.6942805583" lon="5.90247499738">
		<tag k="name" v="Moltemyra" />
		<tag k="natural" v="wetland" />
		<tag k="ssr:stedsnr" v="751265" />
	</node>
	<node id="-3451" lat="58.6986000041" lon="5.91654444892">
		<tag k="name" v="Blaudamyra" />
		<tag k="natural" v="wetland" />
		<tag k="ssr:stedsnr" v="751263" />
	</node>
	<node id="-3449" lat="58.7075027755" lon="5.90259722156">
		<tag k="name" v="Nordlimyra" />
		<tag k="natural" v="wetland" />
		<tag k="ssr:stedsnr" v="751257" />
	</node>
	<node id="-3448" lat="58.7064888871" lon="5.93782221995">
		<tag k="name" v="Heimre Legjå" />
		<tag k="place" v="locality" />
		<tag k="ssr:stedsnr" v="751255" />
	</node>
	<node id="-3446" lat="58.6984777819" lon="5.92881111743">
		<tag k="name" v="Oslihagen" />
		<tag k="place" v="locality" />
		<tag k="ssr:stedsnr" v="751250" />
	</node>
	<node id="-3561" lat="58.7471722195" lon="5.94548889447">
		<tag k="name" v="Surtemyra" />
		<tag k="natural" v="wetland" />
		<tag k="ssr:stedsnr" v="812955" />
	</node>
	<node id="-2931" lat="58.777825002" lon="6.06022778113">
		<tag k="name" v="Bronaheia" />
		<tag k="place" v="locality" />
		<tag k="ssr:stedsnr" v="302643" />
	</node>
	<node id="-2195" lat="58.830922225" lon="6.15366110743">
		<tag k="name" v="Yleskog" />
		<tag k="place" v="locality" />
		<tag k="ssr:stedsnr" v="729500" />
	</node>
	<node id="-1904" lat="58.7766666666" lon="5.82549444822">
		<tag k="name" v="Djupedal" />
		<tag k="place" v="locality" />
		<tag k="ssr:stedsnr" v="509576" />
	</node>
	<node id="-3438" lat="58.8160361095" lon="6.42160278222">
		<tag k="name" v="Mjålandsneset" />
		<tag k="natural" v="beach" />
		<tag k="ssr:stedsnr" v="648962" />
		<tag k="surface" v="sand" />
	</node>
	<node id="-1898" lat="58.7164944472" lon="5.95806944242">
		<tag k="name" v="Tuemyra" />
		<tag k="natural" v="wetland" />
		<tag k="ssr:stedsnr" v="508813" />
	</node>
	<node id="-2919" lat="58.8346138854" lon="6.06829444762">
		<tag k="name" v="Learøysa" />
		<tag k="natural" v="stone" />
		<tag k="ssr:stedsnr" v="300929" />
	</node>
	<node id="-3427" lat="58.7819861132" lon="6.29373332913">
		<tag k="name" v="Ytra Sveberget" />
		<tag k="place" v="locality" />
		<tag k="ssr:stedsnr" v="647981" />
	</node>
	<node id="-3424" lat="58.8548388935" lon="6.26501945142">
		<tag k="historic" v="shieling" />
		<tag k="name" v="Ytra Frafjordstølen" />
		<tag k="place" v="locality" />
		<tag k="ssr:stedsnr" v="646985" />
	</node>
	<node id="-1886" lat="58.6867749989" lon="5.97433888384">
		<tag k="name" v="Podlamyra" />
		<tag k="natural" v="wetland" />
		<tag k="ssr:stedsnr" v="508364" />
	</node>
	<node id="-2906" lat="58.7293277771" lon="5.92178888746">
		<tag k="name" v="Helmemyra" />
		<tag k="natural" v="wetland" />
		<tag k="ssr:stedsnr" v="205728" />
	</node>
	<node id="-2393" lat="58.7753805522" lon="6.08905278247">
		<tag k="name" v="Storemyr" />
		<tag k="natural" v="wetland" />
		<tag k="ssr:stedsnr" v="768469" />
	</node>
	<node id="-1879" lat="58.8462305516" lon="6.33463056451">
		<tag k="name" v="Nesura" />
		<tag k="natural" v="scree" />
		<tag k="ssr:stedsnr" v="404553" />
	</node>
	<node id="-3413" lat="58.7363111096" lon="5.99988333485">
		<tag k="name" v="Melhusheia" />
		<tag k="place" v="locality" />
		<tag k="ssr:stedsnr" v="646469" />
	</node>
	<node id="-3406" lat="58.7034916656" lon="5.99958333796">
		<tag k="landuse" v="meadow" />
		<tag k="name" v="Nybrotet" />
		<tag k="ssr:stedsnr" v="645040" />
	</node>
	<node id="-3405" lat="58.8563666626" lon="6.40173888108">
		<tag k="name" v="Månemyra" />
		<tag k="natural" v="wetland" />
		<tag k="ssr:stedsnr" v="634462" />
	</node>
	<node id="-3397" lat="58.7283861088" lon="5.91410555322">
		<tag k="name" v="Surtemyra" />
		<tag k="natural" v="wetland" />
		<tag k="ssr:stedsnr" v="629697" />
	</node>
	<node id="-1856" lat="58.8024250005" lon="6.21415277634">
		<tag k="historic" v="shieling" />
		<tag k="name" v="Dokkollstølen" />
		<tag k="place" v="locality" />
		<tag k="ssr:stedsnr" v="362556" />
	</node>
	<node id="-1589" lat="58.7686750018" lon="5.88719722648">
		<tag k="name" v="Hansakjelva" />
		<tag k="place" v="locality" />
		<tag k="ssr:stedsnr" v="265071" />
	</node>
	<node id="-2269" lat="58.7725999991" lon="6.08925276943">
		<tag k="name" v="Brekkemyra" />
		<tag k="natural" v="wetland" />
		<tag k="ssr:stedsnr" v="889471" />
	</node>
	<node id="-2610" lat="58.8007611146" lon="6.06498611363">
		<tag k="name" v="Paulane" />
		<tag k="natural" v="wetland" />
		<tag k="ssr:stedsnr" v="59635" />
	</node>
	<node id="-3365" lat="58.7361805523" lon="6.29678610572">
		<tag k="historic" v="shieling" />
		<tag k="name" v="Lanesstølen" />
		<tag k="place" v="locality" />
		<tag k="ssr:stedsnr" v="607136" />
	</node>
	<node id="-1826" lat="58.7681250026" lon="6.27884722122">
		<tag k="name" v="Gloppedalsura" />
		<tag k="natural" v="scree" />
		<tag k="ssr:stedsnr" v="486860" />
	</node>
	<node id="-2334" lat="58.7419916699" lon="6.1155805631">
		<tag k="name" v="Davehedleren" />
		<tag k="natural" v="stone" />
		<tag k="ssr:stedsnr" v="909348" />
	</node>
	<node id="-2328" lat="58.7825388861" lon="5.90945833374">
		<tag k="name" v="Høylandsdulda" />
		<tag k="place" v="locality" />
		<tag k="ssr:stedsnr" v="751018" />
	</node>
	<node id="-2839" lat="58.7761083369" lon="6.04054165837">
		<tag k="name" v="Vindskarmyra" />
		<tag k="natural" v="wetland" />
		<tag k="ssr:stedsnr" v="180089" />
	</node>
	<node id="-2323" lat="58.8311750018" lon="6.09215554725">
		<tag k="name" v="Ragsura" />
		<tag k="natural" v="scree" />
		<tag k="ssr:stedsnr" v="907902" />
	</node>
	<node id="-2833" lat="58.8228944456" lon="6.05947778314">
		<tag k="name" v="Kleivamyra" />
		<tag k="natural" v="wetland" />
		<tag k="ssr:stedsnr" v="178898" />
	</node>
	<node id="-3343" lat="58.7736861092" lon="6.34391389024">
		<tag k="name" v="Maramyra" />
		<tag k="natural" v="wetland" />
		<tag k="ssr:stedsnr" v="588552" />
	</node>
	<node id="-2317" lat="58.854611108" lon="6.27334445007">
		<tag k="historic" v="shieling" />
		<tag k="name" v="Ytre Frafjordstølen" />
		<tag k="place" v="locality" />
		<tag k="ssr:stedsnr" v="906579" />
	</node>
	<node id="-2821" lat="58.7769583293" lon="6.33611944457">
		<tag k="name" v="Daurmålsura" />
		<tag k="natural" v="scree" />
		<tag k="ssr:stedsnr" v="162979" />
	</node>
	<node id="-1493" lat="58.8767749977" lon="6.3521833315">
		<tag k="historic" v="shieling" />
		<tag k="name" v="Nordestøl" />
		<tag k="place" v="locality" />
		<tag k="ssr:stedsnr" v="222968" />
	</node>
	<node id="-1784" lat="58.7837999998" lon="5.90536665893">
		<tag k="name" v="Foren" />
		<tag k="natural" v="wetland" />
		<tag k="ssr:stedsnr" v="327023" />
	</node>
	<node id="-2290" lat="58.7223027799" lon="6.00967777831">
		<tag k="name" v="Skorlene" />
		<tag k="place" v="locality" />
		<tag k="ssr:stedsnr" v="706112" />
	</node>
	<node id="-2284" lat="58.8420277805" lon="6.341299995">
		<tag k="name" v="Vassholmen" />
		<tag k="place" v="locality" />
		<tag k="ssr:stedsnr" v="890622" />
	</node>
	<node id="-3026" lat="58.7935333346" lon="6.34260554698">
		<tag k="name" v="Slåttene" />
		<tag k="place" v="locality" />
		<tag k="ssr:stedsnr" v="344943" />
	</node>
	<node id="-2793" lat="58.7315527751" lon="5.85998332539">
		<tag k="name" v="Edlandsstølane" />
		<tag k="place" v="locality" />
		<tag k="ssr:stedsnr" v="144699" />
	</node>
	<node id="-1764" lat="58.8108027799" lon="6.2284972245">
		<tag k="name" v="Monane" />
		<tag k="natural" v="beach" />
		<tag k="ssr:stedsnr" v="302560" />
		<tag k="surface" v="sand" />
	</node>
	<node id="-2787" lat="58.7445749998" lon="5.93256110796">
		<tag k="name" v="Svartaskjer" />
		<tag k="natural" v="wetland" />
		<tag k="ssr:stedsnr" v="144111" />
	</node>
	<node id="-3297" lat="58.8094527747" lon="5.97374166963">
		<tag k="name" v="Nesjane" />
		<tag k="natural" v="wetland" />
		<tag k="ssr:stedsnr" v="569896" />
	</node>
	<node id="-3296" lat="58.7953083294" lon="5.97753889484">
		<tag k="name" v="Småskogen" />
		<tag k="place" v="locality" />
		<tag k="ssr:stedsnr" v="569887" />
	</node>
	<node id="-3293" lat="58.7818666695" lon="5.92542221694">
		<tag k="landuse" v="meadow" />
		<tag k="name" v="Slåtten" />
		<tag k="ssr:stedsnr" v="569054" />
	</node>
	<node id="-2262" lat="58.74637222" lon="6.36817777835">
		<tag k="historic" v="shieling" />
		<tag k="name" v="Nedremaudalstølen" />
		<tag k="place" v="locality" />
		<tag k="ssr:stedsnr" v="888562" />
	</node>
	<node id="-1738" lat="58.8305083301" lon="6.25962221912">
		<tag k="historic" v="shieling" />
		<tag k="name" v="Råsastølen" />
		<tag k="place" v="locality" />
		<tag k="ssr:stedsnr" v="464542" />
	</node>
	<node id="-2249" lat="58.8704750035" lon="6.40932777526">
		<tag k="name" v="Månaura" />
		<tag k="natural" v="scree" />
		<tag k="ssr:stedsnr" v="665919" />
	</node>
	<node id="-2248" lat="58.8456277745" lon="6.41789999477">
		<tag k="name" v="Groslåtta" />
		<tag k="natural" v="wetland" />
		<tag k="ssr:stedsnr" v="878494" />
	</node>
	<node id="-1735" lat="58.7663249958" lon="6.11797500054">
		<tag k="name" v="Gjetura" />
		<tag k="natural" v="scree" />
		<tag k="ssr:stedsnr" v="464330" />
	</node>
	<node id="-2240" lat="58.7793666663" lon="6.03836111505">
		<tag k="name" v="Tjelmaleitet" />
		<tag k="place" v="locality" />
		<tag k="ssr:stedsnr" v="664670" />
	</node>
	<node id="-2239" lat="58.7903194433" lon="5.9990472291">
		<tag k="landuse" v="meadow" />
		<tag k="name" v="Slåtten" />
		<tag k="ssr:stedsnr" v="664669" />
	</node>
	<node id="-2238" lat="58.7950249979" lon="6.04954443987">
		<tag k="name" v="Holane" />
		<tag k="place" v="locality" />
		<tag k="ssr:stedsnr" v="664655" />
	</node>
	<node id="-1718" lat="58.7036916669" lon="5.90881666777">
		<tag k="name" v="Langamyra" />
		<tag k="natural" v="wetland" />
		<tag k="ssr:stedsnr" v="448254" />
	</node>
	<node id="-1717" lat="58.6825444464" lon="5.96374721476">
		<tag k="name" v="Rodlemyra" />
		<tag k="natural" v="wetland" />
		<tag k="ssr:stedsnr" v="448358" />
	</node>
	<node id="-2227" lat="58.839783333" lon="6.20518889098">
		<tag k="name" v="Urgil" />
		<tag k="natural" v="scree" />
		<tag k="ssr:stedsnr" v="646504" />
	</node>
	<node id="-2785" lat="58.7527055546" lon="5.91613332517">
		<tag k="name" v="Måganesleitet" />
		<tag k="place" v="locality" />
		<tag k="ssr:stedsnr" v="143105" />
	</node>
	<node id="-1736" lat="58.747016669" lon="6.00585833866">
		<tag k="name" v="Heiane" />
		<tag k="place" v="locality" />
		<tag k="ssr:stedsnr" v="464485" />
	</node>
	<node id="-2733" lat="58.867316664" lon="6.38900833607">
		<tag k="historic" v="shieling" />
		<tag k="name" v="Indrestølen" />
		<tag k="place" v="locality" />
		<tag k="ssr:stedsnr" v="120972" />
	</node>
	<node id="-2729" lat="58.7992305529" lon="6.09784165871">
		<tag k="name" v="Orremyra" />
		<tag k="natural" v="wetland" />
		<tag k="ssr:stedsnr" v="120624" />
	</node>
	<node id="-3229" lat="58.7965000024" lon="6.06294167106">
		<tag k="name" v="Lundane" />
		<tag k="natural" v="wetland" />
		<tag k="ssr:stedsnr" v="544601" />
	</node>
	<node id="-2197" lat="58.8190166647" lon="6.15445278132">
		<tag k="name" v="Videmyr" />
		<tag k="natural" v="wetland" />
		<tag k="ssr:stedsnr" v="729515" />
	</node>
	<node id="-3219" lat="58.7821944461" lon="6.0105833305">
		<tag k="name" v="Løeheia" />
		<tag k="place" v="locality" />
		<tag k="ssr:stedsnr" v="543667" />
	</node>
	<node id="-3211" lat="58.789263887" lon="6.52020278098">
		<tag k="historic" v="shieling" />
		<tag k="name" v="Indrestølen" />
		<tag k="place" v="locality" />
		<tag k="ssr:stedsnr" v="526904" />
	</node>
	<node id="-2185" lat="58.7630500005" lon="5.95376667153">
		<tag k="name" v="Gomyr" />
		<tag k="natural" v="wetland" />
		<tag k="ssr:stedsnr" v="630963" />
	</node>
	<node id="-3205" lat="58.8374277765" lon="6.16930555985">
		<tag k="landuse" v="quarry" />
		<tag k="name" v="Kleppen" />
		<tag k="ssr:stedsnr" v="525980" />
	</node>
	<node id="-3203" lat="58.7978305561" lon="6.35003333714">
		<tag k="name" v="Dauesteinen" />
		<tag k="natural" v="stone" />
		<tag k="ssr:stedsnr" v="525507" />
	</node>
	<node id="-1661" lat="58.7855749997" lon="6.52269722293">
		<tag k="historic" v="shieling" />
		<tag k="name" v="Leidesbekken" />
		<tag k="place" v="locality" />
		<tag k="ssr:stedsnr" v="284915" />
	</node>
	<node id="-1660" lat="58.6993666687" lon="6.01223055332">
		<tag k="name" v="Åkroken" />
		<tag k="natural" v="wetland" />
		<tag k="ssr:stedsnr" v="284508" />
	</node>
	<node id="-1658" lat="58.7632888917" lon="6.4151000067">
		<tag k="historic" v="shieling" />
		<tag k="name" v="Hollastølen" />
		<tag k="place" v="locality" />
		<tag k="ssr:stedsnr" v="284282" />
	</node>
	<node id="-2679" lat="58.8307500028" lon="6.18901944795">
		<tag k="landuse" v="meadow" />
		<tag k="name" v="Samslått" />
		<tag k="ssr:stedsnr" v="100498" />
	</node>
	<node id="-2674" lat="58.7289500021" lon="6.0157083282">
		<tag k="name" v="Kaukræene" />
		<tag k="place" v="locality" />
		<tag k="ssr:stedsnr" v="100090" />
	</node>
	<node id="-2670" lat="58.7895055564" lon="5.95780832874">
		<tag k="name" v="Hommå" />
		<tag k="natural" v="wetland" />
		<tag k="ssr:stedsnr" v="84928" />
	</node>
	<node id="-2669" lat="58.7675722193" lon="5.98959722698">
		<tag k="name" v="Trongamyra" />
		<tag k="natural" v="wetland" />
		<tag k="ssr:stedsnr" v="84982" />
	</node>
	<node id="-1642" lat="58.7743444426" lon="6.32671666818">
		<tag k="landuse" v="meadow" />
		<tag k="name" v="Flekkjene" />
		<tag k="ssr:stedsnr" v="282648" />
	</node>
	<node id="-3686" lat="58.8329472192" lon="6.07633888089">
		<tag k="name" v="Smalarøysa" />
		<tag k="natural" v="stone" />
		<tag k="ssr:stedsnr" v="967908" />
	</node>
	<node id="-2659" lat="58.7060027767" lon="5.93246388441">
		<tag k="name" v="Ytre Legjå" />
		<tag k="place" v="locality" />
		<tag k="ssr:stedsnr" v="83225" />
	</node>
	<node id="-1606" lat="58.7111750032" lon="5.95905277493">
		<tag k="name" v="Stakkslåttå" />
		<tag k="place" v="locality" />
		<tag k="ssr:stedsnr" v="265819" />
	</node>
	<node id="-2139" lat="58.7865222234" lon="6.05575278478">
		<tag k="name" v="Sauaholen" />
		<tag k="place" v="locality" />
		<tag k="ssr:stedsnr" v="605624" />
	</node>
	<node id="-2134" lat="58.7953916709" lon="6.01084999973">
		<tag k="name" v="Grøneryggene" />
		<tag k="place" v="locality" />
		<tag k="ssr:stedsnr" v="603644" />
	</node>
	<node id="-1619" lat="58.7856944409" lon="5.91701944142">
		<tag k="name" v="Brekkeslåtten" />
		<tag k="place" v="locality" />
		<tag k="ssr:stedsnr" v="144046" />
	</node>
	<node id="-1618" lat="58.7873166701" lon="5.88938610496">
		<tag k="name" v="Jærbumyra" />
		<tag k="natural" v="wetland" />
		<tag k="ssr:stedsnr" v="144022" />
	</node>
	<node id="-3664" lat="58.8446416652" lon="6.327247226">
		<tag k="name" v="Klovsteinen" />
		<tag k="natural" v="stone" />
		<tag k="ssr:stedsnr" v="950548" />
	</node>
	<node id="-2639" lat="58.7968777772" lon="6.38785277496">
		<tag k="historic" v="shieling" />
		<tag k="name" v="Motlandstølen" />
		<tag k="place" v="locality" />
		<tag k="ssr:stedsnr" v="61850" />
	</node>
	<node id="-3662" lat="58.8323750019" lon="6.21084444056">
		<tag k="historic" v="shieling" />
		<tag k="name" v="Kjervollstøl" />
		<tag k="place" v="locality" />
		<tag k="ssr:stedsnr" v="950503" />
	</node>
	<node id="-3149" lat="58.7887000037" lon="6.05710833198">
		<tag k="name" v="Bakken" />
		<tag k="place" v="locality" />
		<tag k="ssr:stedsnr" v="423658" />
	</node>
	<node id="-2124" lat="58.7815361091" lon="6.33115000783">
		<tag k="name" v="Knudemyra" />
		<tag k="natural" v="wetland" />
		<tag k="ssr:stedsnr" v="709962" />
	</node>
	<node id="-1611" lat="58.745988891" lon="5.92325000452">
		<tag k="name" v="Skiftesmyra" />
		<tag k="natural" v="wetland" />
		<tag k="ssr:stedsnr" v="266132" />
	</node>
	<node id="-3142" lat="58.7818027734" lon="6.00345277265">
		<tag k="name" v="Bøheia" />
		<tag k="place" v="locality" />
		<tag k="ssr:stedsnr" v="422675" />
	</node>
	<node id="-3141" lat="58.7830916648" lon="6.03738611718">
		<tag k="alt_name" v="Heiå" />
		<tag k="name" v="Heia" />
		<tag k="place" v="locality" />
		<tag k="ssr:stedsnr" v="422671" />
	</node>
	<node id="-2115" lat="58.8369111097" lon="6.01436111021">
		<tag k="name" v="Kjellebakkslåtten" />
		<tag k="place" v="locality" />
		<tag k="ssr:stedsnr" v="709005" />
	</node>
	<node id="-3647" lat="58.7344083316" lon="5.92189167185">
		<tag k="name" v="Langevåssheia" />
		<tag k="place" v="locality" />
		<tag k="ssr:stedsnr" v="872089" />
	</node>
	<node id="-1597" lat="58.7330194441" lon="5.91333888113">
		<tag k="name" v="Pongemyra" />
		<tag k="natural" v="wetland" />
		<tag k="ssr:stedsnr" v="265724" />
	</node>
	<node id="-3129" lat="58.692802776" lon="6.00167500681">
		<tag k="name" v="Ståslåttmyra" />
		<tag k="natural" v="wetland" />
		<tag k="ssr:stedsnr" v="405520" />
	</node>
	<node id="-1591" lat="58.7621277785" lon="5.91081944758">
		<tag k="name" v="Kjeabergmyra" />
		<tag k="natural" v="wetland" />
		<tag k="ssr:stedsnr" v="265090" />
	</node>
	<node id="-2101" lat="58.8213555559" lon="6.24125276964">
		<tag k="historic" v="shieling" />
		<tag k="name" v="Heimre Nødlandstølen" />
		<tag k="place" v="locality" />
		<tag k="ssr:stedsnr" v="707546" />
	</node>
	<node id="-3122" lat="58.7281972215" lon="6.02283889134">
		<tag k="name" v="Rydlene" />
		<tag k="place" v="locality" />
		<tag k="ssr:stedsnr" v="403092" />
	</node>
	<node id="-1584" lat="58.8466333374" lon="6.13448333612">
		<tag k="name" v="Kråur" />
		<tag k="natural" v="scree" />
		<tag k="ssr:stedsnr" v="118875" />
	</node>
	<node id="-2056" lat="58.7434111089" lon="5.93808333609">
		<tag k="name" v="Myrå" />
		<tag k="natural" v="wetland" />
		<tag k="ssr:stedsnr" v="691126" />
	</node>
	<node id="-2094" lat="58.7352888929" lon="6.02129999765">
		<tag k="name" v="Grøne Tørne" />
		<tag k="place" v="locality" />
		<tag k="ssr:stedsnr" v="707485" />
	</node>
	<node id="-1580" lat="58.7522138911" lon="6.43269444956">
		<tag k="historic" v="shieling" />
		<tag k="name" v="Storevasslega" />
		<tag k="place" v="locality" />
		<tag k="ssr:stedsnr" v="102470" />
	</node>
	<node id="-2601" lat="58.8545194441" lon="6.53609999361">
		<tag k="name" v="Kodlungsmyra" />
		<tag k="natural" v="wetland" />
		<tag k="ssr:stedsnr" v="59065" />
	</node>
	<node id="-2599" lat="58.8342833357" lon="6.07026388607">
		<tag k="name" v="Leamyra" />
		<tag k="natural" v="wetland" />
		<tag k="ssr:stedsnr" v="57915" />
	</node>
	<node id="-1571" lat="58.7943472255" lon="6.30346944641">
		<tag k="historic" v="shieling" />
		<tag k="name" v="Rokleivstølen" />
		<tag k="place" v="locality" />
		<tag k="ssr:stedsnr" v="100504" />
	</node>
	<node id="-2079" lat="58.7296611071" lon="6.03914999724">
		<tag k="name" v="Fannaleget" />
		<tag k="place" v="locality" />
		<tag k="ssr:stedsnr" v="706070" />
	</node>
	<node id="-1566" lat="58.7230166708" lon="5.95979167024">
		<tag k="name" v="Voaheia" />
		<tag k="place" v="locality" />
		<tag k="ssr:stedsnr" v="83814" />
	</node>
	<node id="-2074" lat="58.8139111093" lon="6.18820000495">
		<tag k="historic" v="shieling" />
		<tag k="name" v="Nere Frøylandsstølen" />
		<tag k="place" v="locality" />
		<tag k="ssr:stedsnr" v="544552" />
	</node>
	<node id="-2585" lat="58.8020277763" lon="6.01646110742">
		<tag k="name" v="Skaramyra" />
		<tag k="natural" v="wetland" />
		<tag k="ssr:stedsnr" v="41291" />
	</node>
	<node id="-2579" lat="58.7924861105" lon="6.04228056057">
		<tag k="name" v="Nesjamyra" />
		<tag k="natural" v="wetland" />
		<tag k="ssr:stedsnr" v="40731" />
	</node>
	<node id="-2573" lat="58.851741664" lon="6.2402222251">
		<tag k="name" v="Gråa Urå" />
		<tag k="natural" v="scree" />
		<tag k="ssr:stedsnr" v="39979" />
	</node>
	<node id="-2570" lat="58.7500027796" lon="6.02839165831">
		<tag k="name" v="Sørehagen" />
		<tag k="place" v="locality" />
		<tag k="ssr:stedsnr" v="39432" />
	</node>
	<node id="-2568" lat="58.7170972259" lon="6.00188333702">
		<tag k="name" v="Jakobsslåtta" />
		<tag k="place" v="locality" />
		<tag k="ssr:stedsnr" v="39088" />
	</node>
	<node id="-1538" lat="58.8098888866" lon="6.18665555545">
		<tag k="historic" v="shieling" />
		<tag k="name" v="Øvre Frøylandsstølen" />
		<tag k="place" v="locality" />
		<tag k="ssr:stedsnr" v="241583" />
	</node>
</osm>
