<?xml version="1.0" encoding="UTF-8"?>
<osm generator="osmapis" version="0.6">
	<node id="-89087" lat="63.3755888856" lon="9.37139723146">
		<tag k="name" v="Villvangan" />
		<tag k="ssr:date" v="2019-12-27" />
		<tag k="ssr:gruppe" v="veg" />
		<tag k="ssr:hovedgruppe" v="infrastruktur" />
		<tag k="ssr:stedsnr" v="121749" />
		<tag k="ssr:type" v="adressenavn" />
	</node>
	<node id="-91379" lat="63.1933305569" lon="9.75627500352">
		<tag k="name" v="Brattlimarka" />
		<tag k="ssr:date" v="2019-12-27" />
		<tag k="ssr:gruppe" v="veg" />
		<tag k="ssr:hovedgruppe" v="infrastruktur" />
		<tag k="ssr:stedsnr" v="586819" />
		<tag k="ssr:type" v="vegstrekning" />
	</node>
	<node id="-85745" lat="63.3858833292" lon="9.43187221397">
		<tag k="name" v="Breivika" />
		<tag k="ssr:date" v="2019-12-27" />
		<tag k="ssr:gruppe" v="veg" />
		<tag k="ssr:hovedgruppe" v="infrastruktur" />
		<tag k="ssr:stedsnr" v="667710" />
		<tag k="ssr:type" v="adressenavn" />
	</node>
	<node id="-88045" lat="63.5668055568" lon="9.32194999635">
		<tag k="name" v="Neset lykt" />
		<tag k="ssr:date" v="2019-12-27" />
		<tag k="ssr:gruppe" v="navigasjon" />
		<tag k="ssr:hovedgruppe" v="infrastruktur" />
		<tag k="ssr:stedsnr" v="887977" />
		<tag k="ssr:type" v="fyrlykt" />
	</node>
	<node id="-91754" lat="63.1691666677" lon="9.74821943997">
		<tag k="name" v="Neråkervegen" />
		<tag k="ssr:date" v="2019-12-27" />
		<tag k="ssr:gruppe" v="veg" />
		<tag k="ssr:hovedgruppe" v="infrastruktur" />
		<tag k="ssr:stedsnr" v="642362" />
		<tag k="ssr:type" v="vegstrekning" />
	</node>
	<node id="-88806" lat="63.0603027784" lon="9.70078889871">
		<tag k="name" v="Gruvvegen" />
		<tag k="ssr:date" v="2019-12-27" />
		<tag k="ssr:gruppe" v="veg" />
		<tag k="ssr:hovedgruppe" v="infrastruktur" />
		<tag k="ssr:stedsnr" v="90544" />
		<tag k="ssr:type" v="vegstrekning" />
	</node>
	<node id="-86182" lat="63.3673666694" lon="9.86598056197">
		<tag k="name" v="Almenningsvegen" />
		<tag k="ssr:date" v="2019-12-27" />
		<tag k="ssr:gruppe" v="veg" />
		<tag k="ssr:hovedgruppe" v="infrastruktur" />
		<tag k="ssr:stedsnr" v="701671" />
		<tag k="ssr:type" v="vegstrekning" />
	</node>
	<node id="-85984" lat="63.2368750038" lon="9.77876944515">
		<tag k="name" v="Blåsmovegen" />
		<tag k="ssr:date" v="2019-12-27" />
		<tag k="ssr:gruppe" v="veg" />
		<tag k="ssr:hovedgruppe" v="infrastruktur" />
		<tag k="ssr:stedsnr" v="525433" />
		<tag k="ssr:type" v="vegstrekning" />
	</node>
	<node id="-92836" lat="63.5682463095" lon="9.27316481782">
		<tag k="name" v="Rognan" />
		<tag k="ssr:date" v="2020-09-15" />
		<tag k="ssr:gruppe" v="navigasjon" />
		<tag k="ssr:hovedgruppe" v="infrastruktur" />
		<tag k="ssr:stedsnr" v="863101" />
		<tag k="ssr:type" v="fyrlykt" />
	</node>
	<node id="-83747" lat="63.6475993455" lon="9.7567694994">
		<tag k="name" v="Ringflua fyr" />
		<tag k="ssr:date" v="2019-12-27" />
		<tag k="ssr:gruppe" v="navigasjon" />
		<tag k="ssr:hovedgruppe" v="infrastruktur" />
		<tag k="ssr:stedsnr" v="73818" />
		<tag k="ssr:type" v="fyrstasjon" />
	</node>
	<node id="-85438" lat="63.4271027811" lon="9.95433888443">
		<tag k="name" v="Bessmorvegen" />
		<tag k="ssr:date" v="2019-12-27" />
		<tag k="ssr:gruppe" v="veg" />
		<tag k="ssr:hovedgruppe" v="infrastruktur" />
		<tag k="ssr:stedsnr" v="519743" />
		<tag k="ssr:type" v="vegstrekning" />
	</node>
	<node id="-89149" lat="63.5667861582" lon="9.32192396575">
		<tag k="name" v="Sørleksa" />
		<tag k="ssr:date" v="2020-09-10" />
		<tag k="ssr:gruppe" v="navigasjon" />
		<tag k="ssr:hovedgruppe" v="infrastruktur" />
		<tag k="ssr:stedsnr" v="134150" />
		<tag k="ssr:type" v="fyrlykt" />
	</node>
	<node id="-92731" lat="63.3748361156" lon="9.3259083269">
		<tag k="name" v="Klungervika" />
		<tag k="ssr:date" v="2019-12-27" />
		<tag k="ssr:gruppe" v="veg" />
		<tag k="ssr:hovedgruppe" v="infrastruktur" />
		<tag k="ssr:stedsnr" v="849788" />
		<tag k="ssr:type" v="adressenavn" />
	</node>
	<node id="-87604" lat="63.3616944448" lon="9.88728611105">
		<tag k="name" v="Husdalsvegen" />
		<tag k="ssr:date" v="2019-12-27" />
		<tag k="ssr:gruppe" v="veg" />
		<tag k="ssr:hovedgruppe" v="infrastruktur" />
		<tag k="ssr:stedsnr" v="823369" />
		<tag k="ssr:type" v="vegstrekning" />
	</node>
	<node id="-92978" lat="63.445368225" lon="9.48495984947">
		<tag k="name" v="Åstfjordsveien" />
		<tag k="ssr:date" v="2020-04-29" />
		<tag k="ssr:gruppe" v="veg" />
		<tag k="ssr:hovedgruppe" v="infrastruktur" />
		<tag k="ssr:stedsnr" v="1076705" />
		<tag k="ssr:type" v="adressenavn" />
	</node>
	<node id="-92977" lat="63.0906378112" lon="9.93367431639">
		<tag k="name" v="Nævsvegen" />
		<tag k="ssr:date" v="2020-04-29" />
		<tag k="ssr:gruppe" v="veg" />
		<tag k="ssr:hovedgruppe" v="infrastruktur" />
		<tag k="ssr:stedsnr" v="1076704" />
		<tag k="ssr:type" v="adressenavn" />
	</node>
	<node id="-90542" lat="63.35015" lon="9.88939723103">
		<tag k="name" v="Åsavegen" />
		<tag k="ssr:date" v="2019-12-27" />
		<tag k="ssr:gruppe" v="veg" />
		<tag k="ssr:hovedgruppe" v="infrastruktur" />
		<tag k="ssr:stedsnr" v="397441" />
		<tag k="ssr:type" v="vegstrekning" />
	</node>
	<node id="-86557" lat="63.4743777801" lon="9.34419999258">
		<tag k="name" v="Bustlia" />
		<tag k="ssr:date" v="2019-12-27" />
		<tag k="ssr:gruppe" v="veg" />
		<tag k="ssr:hovedgruppe" v="infrastruktur" />
		<tag k="ssr:stedsnr" v="727885" />
		<tag k="ssr:type" v="adressenavn" />
	</node>
	<node id="-92972" lat="63.3336545045" lon="9.53049384133">
		<tag k="name" v="Geitfjellveien" />
		<tag k="ssr:date" v="2020-03-11" />
		<tag k="ssr:gruppe" v="veg" />
		<tag k="ssr:hovedgruppe" v="infrastruktur" />
		<tag k="ssr:stedsnr" v="1075960" />
		<tag k="ssr:type" v="adressenavn" />
	</node>
	<node id="-92971" lat="63.399700357" lon="9.51321569822">
		<tag k="name" v="Krokstadøra" />
		<tag k="ssr:date" v="2020-02-13" />
		<tag k="ssr:gruppe" v="veg" />
		<tag k="ssr:hovedgruppe" v="infrastruktur" />
		<tag k="ssr:stedsnr" v="1075105" />
		<tag k="ssr:type" v="adressenavn" />
	</node>
	<node id="-92969" lat="63.2475327353" lon="9.65995518822">
		<tag k="name" v="Hamranvegen" />
		<tag k="ssr:date" v="2019-12-27" />
		<tag k="ssr:gruppe" v="veg" />
		<tag k="ssr:hovedgruppe" v="infrastruktur" />
		<tag k="ssr:stedsnr" v="1074107" />
		<tag k="ssr:type" v="adressenavn" />
	</node>
	<node id="-92968" lat="63.2996204771" lon="9.84313334097">
		<tag k="name" v="Orkland kommune" />
		<tag k="ssr:date" v="2019-12-27" />
		<tag k="ssr:gruppe" v="administrativeIndelinger" />
		<tag k="ssr:hovedgruppe" v="offentligAdministrasjon" />
		<tag k="ssr:stedsnr" v="1073405" />
		<tag k="ssr:type" v="kommune" />
	</node>
	<node id="-92967" lat="63.2702676052" lon="9.68791235117">
		<tag k="name" v="Storhaugvegen" />
		<tag k="ssr:date" v="2019-12-27" />
		<tag k="ssr:gruppe" v="veg" />
		<tag k="ssr:hovedgruppe" v="infrastruktur" />
		<tag k="ssr:stedsnr" v="1072913" />
		<tag k="ssr:type" v="adressenavn" />
	</node>
	<node id="-92966" lat="63.2714326701" lon="9.67576593419">
		<tag k="name" v="Raudberget" />
		<tag k="ssr:date" v="2019-12-27" />
		<tag k="ssr:gruppe" v="veg" />
		<tag k="ssr:hovedgruppe" v="infrastruktur" />
		<tag k="ssr:stedsnr" v="1072912" />
		<tag k="ssr:type" v="adressenavn" />
	</node>
	<node id="-92965" lat="63.270560178" lon="9.68385593155">
		<tag k="name" v="Grasmyrbuktvegen" />
		<tag k="ssr:date" v="2019-12-27" />
		<tag k="ssr:gruppe" v="veg" />
		<tag k="ssr:hovedgruppe" v="infrastruktur" />
		<tag k="ssr:stedsnr" v="1072911" />
		<tag k="ssr:type" v="adressenavn" />
	</node>
	<node id="-92964" lat="63.3052331971" lon="9.66066223748">
		<tag k="name" v="Øveraunslættet" />
		<tag k="ssr:date" v="2019-12-27" />
		<tag k="ssr:gruppe" v="veg" />
		<tag k="ssr:hovedgruppe" v="infrastruktur" />
		<tag k="ssr:stedsnr" v="1072910" />
		<tag k="ssr:type" v="adressenavn" />
	</node>
	<node id="-92963" lat="63.3037864476" lon="9.58909055548">
		<tag k="name" v="Gjønnessætervegen" />
		<tag k="ssr:date" v="2019-12-27" />
		<tag k="ssr:gruppe" v="veg" />
		<tag k="ssr:hovedgruppe" v="infrastruktur" />
		<tag k="ssr:stedsnr" v="1072908" />
		<tag k="ssr:type" v="adressenavn" />
	</node>
	<node id="-92962" lat="63.2291768641" lon="9.40478834533">
		<tag k="name" v="Øvre Ellingsgardslia" />
		<tag k="ssr:date" v="2019-12-27" />
		<tag k="ssr:gruppe" v="veg" />
		<tag k="ssr:hovedgruppe" v="infrastruktur" />
		<tag k="ssr:stedsnr" v="1072907" />
		<tag k="ssr:type" v="adressenavn" />
	</node>
	<node id="-92961" lat="63.2302801955" lon="9.37655237869">
		<tag k="name" v="Leirvassdalsvegen" />
		<tag k="ssr:date" v="2019-12-27" />
		<tag k="ssr:gruppe" v="veg" />
		<tag k="ssr:hovedgruppe" v="infrastruktur" />
		<tag k="ssr:stedsnr" v="1072905" />
		<tag k="ssr:type" v="adressenavn" />
	</node>
	<node id="-92960" lat="63.2287485764" lon="9.40041579136">
		<tag k="name" v="Nedre Ellingsgardslia" />
		<tag k="ssr:date" v="2019-12-27" />
		<tag k="ssr:gruppe" v="veg" />
		<tag k="ssr:hovedgruppe" v="infrastruktur" />
		<tag k="ssr:stedsnr" v="1072906" />
		<tag k="ssr:type" v="adressenavn" />
	</node>
	<node id="-92959" lat="63.2548369059" lon="9.85370361521">
		<tag k="name" v="Straumtjønnvegen" />
		<tag k="ssr:date" v="2019-12-27" />
		<tag k="ssr:gruppe" v="veg" />
		<tag k="ssr:hovedgruppe" v="infrastruktur" />
		<tag k="ssr:stedsnr" v="1072899" />
		<tag k="ssr:type" v="adressenavn" />
	</node>
	<node id="-92958" lat="63.239172561" lon="9.52825748074">
		<tag k="name" v="Hosetkjølvegen" />
		<tag k="ssr:date" v="2019-12-27" />
		<tag k="ssr:gruppe" v="veg" />
		<tag k="ssr:hovedgruppe" v="infrastruktur" />
		<tag k="ssr:stedsnr" v="1072891" />
		<tag k="ssr:type" v="adressenavn" />
	</node>
	<node id="-92957" lat="63.2402308839" lon="9.48974626026">
		<tag k="name" v="Fellesbeitevegen" />
		<tag k="ssr:date" v="2019-12-27" />
		<tag k="ssr:gruppe" v="veg" />
		<tag k="ssr:hovedgruppe" v="infrastruktur" />
		<tag k="ssr:stedsnr" v="1072889" />
		<tag k="ssr:type" v="adressenavn" />
	</node>
	<node id="-92956" lat="63.2377011341" lon="9.49057950932">
		<tag k="name" v="Nedre Svorksjølivegen" />
		<tag k="ssr:date" v="2019-12-27" />
		<tag k="ssr:gruppe" v="veg" />
		<tag k="ssr:hovedgruppe" v="infrastruktur" />
		<tag k="ssr:stedsnr" v="1072888" />
		<tag k="ssr:type" v="adressenavn" />
	</node>
	<node id="-92955" lat="63.2383417642" lon="9.48930994798">
		<tag k="name" v="Øvre Svorksjølivegen" />
		<tag k="ssr:date" v="2019-12-27" />
		<tag k="ssr:gruppe" v="veg" />
		<tag k="ssr:hovedgruppe" v="infrastruktur" />
		<tag k="ssr:stedsnr" v="1072887" />
		<tag k="ssr:type" v="adressenavn" />
	</node>
	<node id="-92953" lat="63.0908738422" lon="9.60435906376">
		<tag k="name" v="Sørmoan" />
		<tag k="ssr:date" v="2019-12-27" />
		<tag k="ssr:gruppe" v="veg" />
		<tag k="ssr:hovedgruppe" v="infrastruktur" />
		<tag k="ssr:stedsnr" v="1028078" />
		<tag k="ssr:type" v="adressenavn" />
	</node>
	<node id="-92952" lat="63.0472059224" lon="9.71520702711">
		<tag k="name" v="Messråa" />
		<tag k="ssr:date" v="2019-12-27" />
		<tag k="ssr:gruppe" v="veg" />
		<tag k="ssr:hovedgruppe" v="infrastruktur" />
		<tag k="ssr:stedsnr" v="1028034" />
		<tag k="ssr:type" v="adressenavn" />
	</node>
	<node id="-92951" lat="63.3307821215" lon="9.78351533331">
		<tag k="name" v="Melandssætren" />
		<tag k="ssr:date" v="2019-12-27" />
		<tag k="ssr:gruppe" v="veg" />
		<tag k="ssr:hovedgruppe" v="infrastruktur" />
		<tag k="ssr:stedsnr" v="1023792" />
		<tag k="ssr:type" v="adressenavn" />
	</node>
	<node id="-92950" lat="63.3028672045" lon="9.84671444949">
		<tag k="name" v="Kari Gravroks gate" />
		<tag k="ssr:date" v="2019-12-27" />
		<tag k="ssr:gruppe" v="veg" />
		<tag k="ssr:hovedgruppe" v="infrastruktur" />
		<tag k="ssr:stedsnr" v="1021887" />
		<tag k="ssr:type" v="adressenavn" />
	</node>
	<node id="-92949" lat="63.3350790453" lon="9.73049298544">
		<tag k="name" v="Dyndalsslættet" />
		<tag k="ssr:date" v="2019-12-27" />
		<tag k="ssr:gruppe" v="veg" />
		<tag k="ssr:hovedgruppe" v="infrastruktur" />
		<tag k="ssr:stedsnr" v="1021083" />
		<tag k="ssr:type" v="adressenavn" />
	</node>
	<node id="-88212" lat="63.6197486788" lon="9.59744075119">
		<tag k="name" v="Røysaneset" />
		<tag k="ssr:date" v="2019-12-27" />
		<tag k="ssr:gruppe" v="navigasjon" />
		<tag k="ssr:hovedgruppe" v="infrastruktur" />
		<tag k="ssr:stedsnr" v="13080" />
		<tag k="ssr:type" v="fyrlykt" />
	</node>
	<node id="-92945" lat="64.0144468016" lon="11.4818866293">
		<tag k="name" v="Trøndelag fylke - Trööndelagen fylhke" />
		<tag k="name:no" v="Trøndelag fylke" />
		<tag k="name:sma" v="Trööndelagen fylhke" />
		<tag k="ssr:date" v="2020-01-13" />
		<tag k="ssr:gruppe" v="administrativeIndelinger" />
		<tag k="ssr:hovedgruppe" v="offentligAdministrasjon" />
		<tag k="ssr:stedsnr" v="980645" />
		<tag k="ssr:type" v="fylke" />
	</node>
	<node id="-84107" lat="63.3473222206" lon="9.77493610134">
		<tag k="name" v="Fjellkjøsvegen" />
		<tag k="ssr:date" v="2019-12-27" />
		<tag k="ssr:gruppe" v="veg" />
		<tag k="ssr:hovedgruppe" v="infrastruktur" />
		<tag k="ssr:stedsnr" v="276167" />
		<tag k="ssr:type" v="vegstrekning" />
	</node>
	<node id="-86916" lat="63.236700001" lon="9.86422222992">
		<tag k="name" v="Gammelbyvegen" />
		<tag k="ssr:date" v="2019-12-27" />
		<tag k="ssr:gruppe" v="veg" />
		<tag k="ssr:hovedgruppe" v="infrastruktur" />
		<tag k="ssr:stedsnr" v="883397" />
		<tag k="ssr:type" v="vegstrekning" />
	</node>
	<node id="-91395" lat="63.5261222229" lon="9.384833331">
		<tag k="name" v="Imsterfjorden" />
		<tag k="ssr:date" v="2019-12-27" />
		<tag k="ssr:gruppe" v="veg" />
		<tag k="ssr:hovedgruppe" v="infrastruktur" />
		<tag k="ssr:stedsnr" v="605900" />
		<tag k="ssr:type" v="adressenavn" />
	</node>
</osm>
