<?xml version="1.0" encoding="UTF-8"?>
<osm version="0.6" generator="osmapis">
	<node lat="60.8858805590281" lon="5.480911111665005" id="-36192">
		<tag k="alt_name" v="Solheimsøy" />
		<tag k="name" v="Solheimsøy lykt" />
		<tag k="ssr:date" v="2019-12-27" />
		<tag k="ssr:gruppe" v="navigasjon" />
		<tag k="ssr:hovedgruppe" v="infrastruktur" />
		<tag k="ssr:stedsnr" v="54666" />
		<tag k="ssr:type" v="fyrlykt" />
	</node>
	<node lat="60.779175475855475" lon="5.253565895545848" id="-36465">
		<tag k="name" v="Stavneset" />
		<tag k="ssr:date" v="2021-06-08" />
		<tag k="ssr:gruppe" v="navigasjon" />
		<tag k="ssr:hovedgruppe" v="infrastruktur" />
		<tag k="ssr:stedsnr" v="268040" />
		<tag k="ssr:type" v="fyrlykt" />
	</node>
	<node lat="60.82360278209551" lon="5.328952773691816" id="-36495">
		<tag k="name" v="Mollandsøyna" />
		<tag k="ssr:date" v="2019-12-27" />
		<tag k="ssr:gruppe" v="veg" />
		<tag k="ssr:hovedgruppe" v="infrastruktur" />
		<tag k="ssr:stedsnr" v="303304" />
		<tag k="ssr:type" v="adressenavn" />
	</node>
	<node lat="60.815058329813375" lon="5.330338892264575" id="-36874">
		<tag k="alt_name" v="Stavenes" />
		<tag k="name" v="Stavenes lykt" />
		<tag k="ssr:date" v="2019-12-27" />
		<tag k="ssr:gruppe" v="navigasjon" />
		<tag k="ssr:hovedgruppe" v="infrastruktur" />
		<tag k="ssr:stedsnr" v="693037" />
		<tag k="ssr:type" v="fyrlykt" />
	</node>
	<node lat="60.80026476318973" lon="5.188323661992723" id="-37373">
		<tag k="name" v="Terneskjeret" />
		<tag k="ssr:date" v="2021-06-08" />
		<tag k="ssr:gruppe" v="navigasjon" />
		<tag k="ssr:hovedgruppe" v="infrastruktur" />
		<tag k="ssr:stedsnr" v="69668" />
		<tag k="ssr:type" v="fyrlykt" />
	</node>
</osm>
