<?xml version="1.0" encoding="UTF-8"?>
<osm version="0.6" generator="osmapis">
	<node lat="60.74579999580723" lon="5.469483325691052" id="-74604">
		<tag k="name" v="Botnane" />
		<tag k="natural" v="valley" />
		<tag k="place" v="locality" />
		<tag k="ssr:date" v="2019-12-27" />
		<tag k="ssr:gruppe" v="senkninger" />
		<tag k="ssr:hovedgruppe" v="terreng" />
		<tag k="ssr:stedsnr" v="6490" />
		<tag k="ssr:type" v="botn" />
	</node>
	<node lat="60.92575833588152" lon="5.801469436186689" id="-74605">
		<tag k="name" v="Svartehola" />
		<tag k="natural" v="valley" />
		<tag k="place" v="locality" />
		<tag k="ssr:date" v="2019-12-27" />
		<tag k="ssr:gruppe" v="senkninger" />
		<tag k="ssr:hovedgruppe" v="terreng" />
		<tag k="ssr:stedsnr" v="8296" />
		<tag k="ssr:type" v="botn" />
	</node>
	<node lat="60.924225307538684" lon="5.73303090882876" id="-74606">
		<tag k="name" v="Fagerdalsvatnet" />
		<tag k="natural" v="water" />
		<tag k="ssr:date" v="2019-12-27" />
		<tag k="ssr:gruppe" v="stilleståendeVann" />
		<tag k="ssr:hovedgruppe" v="ferskvann" />
		<tag k="ssr:stedsnr" v="8298" />
		<tag k="ssr:type" v="tjern" />
	</node>
	<node lat="60.82350555448761" lon="5.5138861054339605" id="-74608">
		<tag k="fixme" v="consider natural=peak for the most distinct mountains in the district" />
		<tag k="name" v="Nipa" />
		<tag k="natural" v="hill" />
		<tag k="place" v="locality" />
		<tag k="ssr:date" v="2019-12-27" />
		<tag k="ssr:gruppe" v="høyder" />
		<tag k="ssr:hovedgruppe" v="terreng" />
		<tag k="ssr:stedsnr" v="8422" />
		<tag k="ssr:type" v="ås" />
	</node>
	<node lat="60.91425277911917" lon="5.6848250015573845" id="-74609">
		<tag k="name" v="Stølsbotnen" />
		<tag k="natural" v="valley" />
		<tag k="place" v="locality" />
		<tag k="ssr:date" v="2019-12-27" />
		<tag k="ssr:gruppe" v="senkninger" />
		<tag k="ssr:hovedgruppe" v="terreng" />
		<tag k="ssr:stedsnr" v="8399" />
		<tag k="ssr:type" v="botn" />
	</node>
	<node lat="60.794236112041986" lon="5.247647227192919" id="-74611">
		<tag k="fixme" v="consider seamark:type=rock or natural=shoal" />
		<tag k="name" v="Kjetteskjeret" />
		<tag k="place" v="islet" />
		<tag k="ssr:date" v="2019-12-27" />
		<tag k="ssr:gruppe" v="grunnerISjø" />
		<tag k="ssr:hovedgruppe" v="sjø" />
		<tag k="ssr:stedsnr" v="8693" />
		<tag k="ssr:type" v="skjærISjø" />
	</node>
	<node lat="60.9261611091558" lon="5.288586116226977" id="-74615">
		<tag k="name" v="Svartetjørnskaret" />
		<tag k="natural" v="valley" />
		<tag k="place" v="locality" />
		<tag k="ssr:date" v="2019-12-27" />
		<tag k="ssr:gruppe" v="senkninger" />
		<tag k="ssr:hovedgruppe" v="terreng" />
		<tag k="ssr:stedsnr" v="8901" />
		<tag k="ssr:type" v="skar" />
	</node>
	<node lat="60.94179999581233" lon="5.633488891328719" id="-74619">
		<tag k="name" v="Krokvatnet" />
		<tag k="natural" v="water" />
		<tag k="ssr:date" v="2019-12-27" />
		<tag k="ssr:gruppe" v="stilleståendeVann" />
		<tag k="ssr:hovedgruppe" v="ferskvann" />
		<tag k="ssr:stedsnr" v="9242" />
		<tag k="ssr:type" v="tjern" />
	</node>
	<node lat="60.7989555578578" lon="5.319988880434752" id="-74668">
		<tag k="name" v="Sandnestræet" />
		<tag k="place" v="locality" />
		<tag k="ssr:date" v="2019-12-27" />
		<tag k="ssr:gruppe" v="terrengdetaljer" />
		<tag k="ssr:hovedgruppe" v="terreng" />
		<tag k="ssr:stedsnr" v="25173" />
		<tag k="ssr:type" v="annenTerrengdetalj" />
	</node>
	<node lat="60.88490555351249" lon="5.532875005442837" id="-74669">
		<tag k="bridge" v="yes" />
		<tag k="layer" v="1" />
		<tag k="name" v="Trodalsleitet" />
		<tag k="ssr:date" v="2019-12-27" />
		<tag k="ssr:gruppe" v="samferdselsanlegg" />
		<tag k="ssr:hovedgruppe" v="infrastruktur" />
		<tag k="ssr:stedsnr" v="47078" />
		<tag k="ssr:type" v="bru" />
	</node>
	<node lat="60.81163889204927" lon="5.306125008432407" id="-74670">
		<tag k="bridge" v="yes" />
		<tag k="layer" v="1" />
		<tag k="name" v="Duesundet" />
		<tag k="ssr:date" v="2019-12-27" />
		<tag k="ssr:gruppe" v="samferdselsanlegg" />
		<tag k="ssr:hovedgruppe" v="infrastruktur" />
		<tag k="ssr:stedsnr" v="47108" />
		<tag k="ssr:type" v="bru" />
	</node>
	<node lat="60.95236944639864" lon="5.7745750064587105" id="-74680">
		<tag k="name" v="Gygrebotnen" />
		<tag k="natural" v="valley" />
		<tag k="place" v="locality" />
		<tag k="ssr:date" v="2019-12-27" />
		<tag k="ssr:gruppe" v="senkninger" />
		<tag k="ssr:hovedgruppe" v="terreng" />
		<tag k="ssr:stedsnr" v="69285" />
		<tag k="ssr:type" v="botn" />
	</node>
	<node lat="60.94118055258987" lon="5.579430558318703" id="-74681">
		<tag k="historic" v="shieling" />
		<tag k="name" v="Dukestølen" />
		<tag k="place" v="isolated_dwelling" />
		<tag k="ssr:date" v="2019-12-27" />
		<tag k="ssr:gruppe" v="gardsbebyggelse" />
		<tag k="ssr:hovedgruppe" v="bebyggelse" />
		<tag k="ssr:stedsnr" v="69292" />
		<tag k="ssr:type" v="seterStøl" />
	</node>
	<node lat="60.92637777515128" lon="5.475991675331859" id="-74682">
		<tag k="name" v="Håregilet" />
		<tag k="natural" v="valley" />
		<tag k="place" v="locality" />
		<tag k="ssr:date" v="2019-12-27" />
		<tag k="ssr:gruppe" v="senkninger" />
		<tag k="ssr:hovedgruppe" v="terreng" />
		<tag k="ssr:stedsnr" v="69298" />
		<tag k="ssr:type" v="skar" />
	</node>
	<node lat="60.92924999832634" lon="5.5244833304382235" id="-74683">
		<tag k="name" v="Smulmeshaugane" />
		<tag k="natural" v="hill" />
		<tag k="place" v="locality" />
		<tag k="ssr:date" v="2019-12-27" />
		<tag k="ssr:gruppe" v="høyder" />
		<tag k="ssr:hovedgruppe" v="terreng" />
		<tag k="ssr:stedsnr" v="69300" />
		<tag k="ssr:type" v="haug" />
	</node>
	<node lat="60.72844721828196" lon="5.4838694515783235" id="-74723">
		<tag k="name" v="Båtevassdalen" />
		<tag k="natural" v="valley" />
		<tag k="place" v="locality" />
		<tag k="ssr:date" v="2019-12-27" />
		<tag k="ssr:gruppe" v="senkninger" />
		<tag k="ssr:hovedgruppe" v="terreng" />
		<tag k="ssr:stedsnr" v="248287" />
		<tag k="ssr:type" v="dal" />
	</node>
	<node lat="60.75591944283099" lon="5.3247472222929995" id="-74726">
		<tag k="bridge" v="yes" />
		<tag k="layer" v="1" />
		<tag k="name" v="Hope" />
		<tag k="ssr:date" v="2019-12-27" />
		<tag k="ssr:gruppe" v="samferdselsanlegg" />
		<tag k="ssr:hovedgruppe" v="infrastruktur" />
		<tag k="ssr:stedsnr" v="108072" />
		<tag k="ssr:type" v="bru" />
	</node>
	<node lat="60.901836110998204" lon="5.614794439133814" id="-74727">
		<tag k="bridge" v="yes" />
		<tag k="layer" v="1" />
		<tag k="name" v="Tverrlida" />
		<tag k="ssr:date" v="2019-12-27" />
		<tag k="ssr:gruppe" v="samferdselsanlegg" />
		<tag k="ssr:hovedgruppe" v="infrastruktur" />
		<tag k="ssr:stedsnr" v="108085" />
		<tag k="ssr:type" v="bru" />
	</node>
	<node lat="60.78316362313342" lon="5.372316644763767" id="-74728">
		<tag k="name" v="Lometjørna" />
		<tag k="natural" v="water" />
		<tag k="ssr:date" v="2019-12-27" />
		<tag k="ssr:gruppe" v="stilleståendeVann" />
		<tag k="ssr:hovedgruppe" v="ferskvann" />
		<tag k="ssr:stedsnr" v="250033" />
		<tag k="ssr:type" v="tjern" />
	</node>
	<node lat="60.93576666224414" lon="5.702736108793816" id="-74732">
		<tag k="name" v="Endeløysa" />
		<tag k="natural" v="water" />
		<tag k="ssr:date" v="2019-12-27" />
		<tag k="ssr:gruppe" v="stilleståendeVann" />
		<tag k="ssr:hovedgruppe" v="ferskvann" />
		<tag k="ssr:stedsnr" v="251273" />
		<tag k="ssr:type" v="tjern" />
	</node>
	<node lat="60.94964195714673" lon="5.760456763990652" id="-74735">
		<tag k="name" v="Meinsperro" />
		<tag k="natural" v="water" />
		<tag k="ssr:date" v="2019-12-27" />
		<tag k="ssr:gruppe" v="stilleståendeVann" />
		<tag k="ssr:hovedgruppe" v="ferskvann" />
		<tag k="ssr:stedsnr" v="251303" />
		<tag k="ssr:type" v="tjern" />
	</node>
	<node lat="60.94220646537918" lon="5.801522501958503" id="-74736">
		<tag k="name" v="Langevatnet" />
		<tag k="natural" v="water" />
		<tag k="ssr:date" v="2019-12-27" />
		<tag k="ssr:gruppe" v="stilleståendeVann" />
		<tag k="ssr:hovedgruppe" v="ferskvann" />
		<tag k="ssr:stedsnr" v="251305" />
		<tag k="ssr:type" v="tjern" />
	</node>
	<node lat="60.87080818444991" lon="5.707886175619084" id="-74739">
		<tag k="name" v="Endeløysa" />
		<tag k="natural" v="water" />
		<tag k="ssr:date" v="2019-12-27" />
		<tag k="ssr:gruppe" v="stilleståendeVann" />
		<tag k="ssr:hovedgruppe" v="ferskvann" />
		<tag k="ssr:stedsnr" v="251352" />
		<tag k="ssr:type" v="tjern" />
	</node>
	<node lat="60.8867944479883" lon="5.673625007735308" id="-74741">
		<tag k="fixme" v="consider natural=peak for the most distinct mountains in the district" />
		<tag k="name" v="Brattgilfjellet" />
		<tag k="natural" v="hill" />
		<tag k="place" v="locality" />
		<tag k="ssr:date" v="2019-12-27" />
		<tag k="ssr:gruppe" v="høyder" />
		<tag k="ssr:hovedgruppe" v="terreng" />
		<tag k="ssr:stedsnr" v="251368" />
		<tag k="ssr:type" v="ås" />
	</node>
	<node lat="60.90483333521771" lon="5.688350003531245" id="-74742">
		<tag k="name" v="Lovatnet" />
		<tag k="natural" v="water" />
		<tag k="ssr:date" v="2019-12-27" />
		<tag k="ssr:gruppe" v="stilleståendeVann" />
		<tag k="ssr:hovedgruppe" v="ferskvann" />
		<tag k="ssr:stedsnr" v="251372" />
		<tag k="ssr:type" v="tjern" />
	</node>
	<node lat="60.8041250011495" lon="5.563505554152016" id="-74747">
		<tag k="fixme" v="consider natural=peak for the most distinct mountains in the district" />
		<tag k="name" v="Storevarden" />
		<tag k="natural" v="hill" />
		<tag k="place" v="locality" />
		<tag k="ssr:date" v="2019-12-27" />
		<tag k="ssr:gruppe" v="høyder" />
		<tag k="ssr:hovedgruppe" v="terreng" />
		<tag k="ssr:stedsnr" v="251515" />
		<tag k="ssr:type" v="ås" />
	</node>
	<node lat="60.80344722233818" lon="5.470455556918953" id="-74748">
		<tag k="name" v="Grasdalen" />
		<tag k="natural" v="valley" />
		<tag k="place" v="locality" />
		<tag k="ssr:date" v="2019-12-27" />
		<tag k="ssr:gruppe" v="senkninger" />
		<tag k="ssr:hovedgruppe" v="terreng" />
		<tag k="ssr:stedsnr" v="251517" />
		<tag k="ssr:type" v="dal" />
	</node>
	<node lat="60.85426388815139" lon="5.242827785621132" id="-74752">
		<tag k="name" v="Holmen" />
		<tag k="place" v="islet" />
		<tag k="ssr:date" v="2019-12-27" />
		<tag k="ssr:gruppe" v="ferskvannskontur" />
		<tag k="ssr:hovedgruppe" v="ferskvann" />
		<tag k="ssr:stedsnr" v="251548" />
		<tag k="ssr:type" v="holme" />
	</node>
	<node lat="60.92841110727675" lon="5.311055551404706" id="-74774">
		<tag k="alt_name" v="Gullifjellet" />
		<tag k="fixme" v="consider natural=peak for the most distinct mountains in the district" />
		<tag k="name" v="Gulelifjellet" />
		<tag k="natural" v="hill" />
		<tag k="place" v="locality" />
		<tag k="ssr:date" v="2019-12-27" />
		<tag k="ssr:gruppe" v="høyder" />
		<tag k="ssr:hovedgruppe" v="terreng" />
		<tag k="ssr:stedsnr" v="251881" />
		<tag k="ssr:type" v="ås" />
	</node>
	<node lat="60.935108329841505" lon="5.29934999903229" id="-74775">
		<tag k="name" v="Transdalen" />
		<tag k="natural" v="valley" />
		<tag k="place" v="locality" />
		<tag k="ssr:date" v="2019-12-27" />
		<tag k="ssr:gruppe" v="senkninger" />
		<tag k="ssr:hovedgruppe" v="terreng" />
		<tag k="ssr:stedsnr" v="251882" />
		<tag k="ssr:type" v="dal" />
	</node>
	<node lat="60.89329444763395" lon="5.41505000482285" id="-74783">
		<tag k="fixme" v="consider natural=peak for the most distinct mountains in the district" />
		<tag k="name" v="Litlefjellet" />
		<tag k="natural" v="hill" />
		<tag k="place" v="locality" />
		<tag k="ssr:date" v="2019-12-27" />
		<tag k="ssr:gruppe" v="høyder" />
		<tag k="ssr:hovedgruppe" v="terreng" />
		<tag k="ssr:stedsnr" v="251963" />
		<tag k="ssr:type" v="ås" />
	</node>
	<node lat="60.96143333129591" lon="5.626013890965283" id="-74790">
		<tag k="name" v="Hestevatnet" />
		<tag k="natural" v="water" />
		<tag k="ssr:date" v="2019-12-27" />
		<tag k="ssr:gruppe" v="stilleståendeVann" />
		<tag k="ssr:hovedgruppe" v="ferskvann" />
		<tag k="ssr:stedsnr" v="129295" />
		<tag k="ssr:type" v="tjern" />
	</node>
	<node lat="60.83888333532903" lon="5.522263885402856" id="-74792">
		<tag k="fixme" v="consider natural=peak for the most distinct mountains in the district" />
		<tag k="name" v="Hestfjellet" />
		<tag k="natural" v="hill" />
		<tag k="place" v="locality" />
		<tag k="ssr:date" v="2019-12-27" />
		<tag k="ssr:gruppe" v="høyder" />
		<tag k="ssr:hovedgruppe" v="terreng" />
		<tag k="ssr:stedsnr" v="129413" />
		<tag k="ssr:type" v="ås" />
	</node>
	<node lat="60.84740989934268" lon="5.565643367778176" id="-74793">
		<tag k="name" v="Langetjørna" />
		<tag k="natural" v="water" />
		<tag k="ssr:date" v="2019-12-27" />
		<tag k="ssr:gruppe" v="stilleståendeVann" />
		<tag k="ssr:hovedgruppe" v="ferskvann" />
		<tag k="ssr:stedsnr" v="129419" />
		<tag k="ssr:type" v="tjern" />
	</node>
	<node lat="60.87386111006357" lon="5.3607638949753" id="-74794">
		<tag k="name" v="Stallane" />
		<tag k="natural" v="cape" />
		<tag k="ssr:date" v="2019-12-27" />
		<tag k="ssr:gruppe" v="kystkontur" />
		<tag k="ssr:hovedgruppe" v="sjø" />
		<tag k="ssr:stedsnr" v="129504" />
		<tag k="ssr:type" v="nesISjø" />
	</node>
	<node lat="60.92189999956338" lon="5.23286110954571" id="-74795">
		<tag k="name" v="Grindebotnen" />
		<tag k="natural" v="valley" />
		<tag k="place" v="locality" />
		<tag k="ssr:date" v="2019-12-27" />
		<tag k="ssr:gruppe" v="senkninger" />
		<tag k="ssr:hovedgruppe" v="terreng" />
		<tag k="ssr:stedsnr" v="129903" />
		<tag k="ssr:type" v="botn" />
	</node>
	<node lat="60.86484166825823" lon="5.14438888275271" id="-74797">
		<tag k="alt_name" v="Vestrelifjellet" />
		<tag k="fixme" v="consider natural=peak for the most distinct mountains in the district" />
		<tag k="name" v="Svelikulten" />
		<tag k="natural" v="hill" />
		<tag k="place" v="locality" />
		<tag k="ssr:date" v="2019-12-27" />
		<tag k="ssr:gruppe" v="høyder" />
		<tag k="ssr:hovedgruppe" v="terreng" />
		<tag k="ssr:stedsnr" v="129983" />
		<tag k="ssr:type" v="ås" />
	</node>
	<node lat="60.88161388853456" lon="5.400686116402062" id="-74799">
		<tag k="name" v="Eikemodalen" />
		<tag k="natural" v="valley" />
		<tag k="place" v="locality" />
		<tag k="ssr:date" v="2019-12-27" />
		<tag k="ssr:gruppe" v="senkninger" />
		<tag k="ssr:hovedgruppe" v="terreng" />
		<tag k="ssr:stedsnr" v="129994" />
		<tag k="ssr:type" v="dal" />
	</node>
	<node lat="60.935911108149675" lon="5.563797213440323" id="-74800">
		<tag k="fixme" v="consider natural=peak for the most distinct mountains in the district" />
		<tag k="name" v="Kupa" />
		<tag k="natural" v="hill" />
		<tag k="place" v="locality" />
		<tag k="ssr:date" v="2019-12-27" />
		<tag k="ssr:gruppe" v="høyder" />
		<tag k="ssr:hovedgruppe" v="terreng" />
		<tag k="ssr:stedsnr" v="130230" />
		<tag k="ssr:type" v="fjell" />
	</node>
	<node lat="60.89465555300574" lon="5.589619443340122" id="-74803">
		<tag k="alt_name" v="Slottefjellet" />
		<tag k="fixme" v="consider natural=peak for the most distinct mountains in the district" />
		<tag k="name" v="Matresfjellet" />
		<tag k="natural" v="hill" />
		<tag k="place" v="locality" />
		<tag k="ssr:date" v="2021-06-08" />
		<tag k="ssr:gruppe" v="høyder" />
		<tag k="ssr:hovedgruppe" v="terreng" />
		<tag k="ssr:stedsnr" v="130323" />
		<tag k="ssr:type" v="fjell" />
	</node>
	<node lat="60.852341669336205" lon="5.250902782673007" id="-74805">
		<tag k="name" v="Bjørnestigfjellet" />
		<tag k="natural" v="hill" />
		<tag k="place" v="locality" />
		<tag k="ssr:date" v="2019-12-27" />
		<tag k="ssr:gruppe" v="høyder" />
		<tag k="ssr:hovedgruppe" v="terreng" />
		<tag k="ssr:stedsnr" v="130494" />
		<tag k="ssr:type" v="haug" />
	</node>
	<node lat="60.748113395817875" lon="5.386241953280221" id="-74824">
		<tag k="name" v="Hola" />
		<tag k="natural" v="bay" />
		<tag k="ssr:date" v="2019-12-27" />
		<tag k="ssr:gruppe" v="kystkontur" />
		<tag k="ssr:hovedgruppe" v="sjø" />
		<tag k="ssr:stedsnr" v="165163" />
		<tag k="ssr:type" v="vikISjø" />
	</node>
	<node lat="60.764630552562906" lon="5.353238889265613" id="-74825">
		<tag k="bridge" v="yes" />
		<tag k="layer" v="1" />
		<tag k="name" v="Mjåanger" />
		<tag k="ssr:date" v="2019-12-27" />
		<tag k="ssr:gruppe" v="samferdselsanlegg" />
		<tag k="ssr:hovedgruppe" v="infrastruktur" />
		<tag k="ssr:stedsnr" v="168078" />
		<tag k="ssr:type" v="bru" />
	</node>
	<node lat="60.861644448793676" lon="5.271186117371497" id="-74826">
		<tag k="bridge" v="yes" />
		<tag k="layer" v="1" />
		<tag k="name" v="Ostevatn" />
		<tag k="ssr:date" v="2019-12-27" />
		<tag k="ssr:gruppe" v="samferdselsanlegg" />
		<tag k="ssr:hovedgruppe" v="infrastruktur" />
		<tag k="ssr:stedsnr" v="168079" />
		<tag k="ssr:type" v="bru" />
	</node>
	<node lat="60.74828055350732" lon="5.431819448399209" id="-74828">
		<tag k="fixme" v="consider natural=peak for the most distinct mountains in the district" />
		<tag k="name" v="Nutefjellet" />
		<tag k="natural" v="hill" />
		<tag k="place" v="locality" />
		<tag k="ssr:date" v="2019-12-27" />
		<tag k="ssr:gruppe" v="høyder" />
		<tag k="ssr:hovedgruppe" v="terreng" />
		<tag k="ssr:stedsnr" v="188708" />
		<tag k="ssr:type" v="fjell" />
	</node>
	<node lat="60.83372777497836" lon="5.519274993475974" id="-74831">
		<tag k="name" v="Tverrbjørg" />
		<tag k="place" v="farm" />
		<tag k="ssr:date" v="2019-12-27" />
		<tag k="ssr:gruppe" v="gardsbebyggelse" />
		<tag k="ssr:hovedgruppe" v="bebyggelse" />
		<tag k="ssr:stedsnr" v="190430" />
		<tag k="ssr:type" v="bruk" />
	</node>
	<node lat="60.92710019292443" lon="5.838971371032901" id="-74835">
		<tag k="name" v="Harekupvatnet" />
		<tag k="natural" v="water" />
		<tag k="ssr:date" v="2019-12-27" />
		<tag k="ssr:gruppe" v="stilleståendeVann" />
		<tag k="ssr:hovedgruppe" v="ferskvann" />
		<tag k="ssr:stedsnr" v="190371" />
		<tag k="ssr:type" v="tjern" />
	</node>
	<node lat="60.842986108211434" lon="5.40027500006031" id="-74842">
		<tag k="fixme" v="consider natural=peak for the most distinct mountains in the district" />
		<tag k="name" v="Tverrfjellet" />
		<tag k="natural" v="hill" />
		<tag k="place" v="locality" />
		<tag k="ssr:date" v="2019-12-27" />
		<tag k="ssr:gruppe" v="høyder" />
		<tag k="ssr:hovedgruppe" v="terreng" />
		<tag k="ssr:stedsnr" v="190571" />
		<tag k="ssr:type" v="ås" />
	</node>
	<node lat="60.90853610668512" lon="5.195863889992771" id="-74845">
		<tag k="fixme" v="consider natural=peak for the most distinct mountains in the district" />
		<tag k="name" v="Storenova" />
		<tag k="natural" v="hill" />
		<tag k="place" v="locality" />
		<tag k="ssr:date" v="2019-12-27" />
		<tag k="ssr:gruppe" v="høyder" />
		<tag k="ssr:hovedgruppe" v="terreng" />
		<tag k="ssr:stedsnr" v="190959" />
		<tag k="ssr:type" v="fjell" />
	</node>
	<node lat="60.75617777499254" lon="5.459052777893199" id="-74854">
		<tag k="fixme" v="consider natural=peak for the most distinct mountains in the district" />
		<tag k="name" v="Klefjellet" />
		<tag k="natural" v="hill" />
		<tag k="place" v="locality" />
		<tag k="ssr:date" v="2019-12-27" />
		<tag k="ssr:gruppe" v="høyder" />
		<tag k="ssr:hovedgruppe" v="terreng" />
		<tag k="ssr:stedsnr" v="191667" />
		<tag k="ssr:type" v="fjell" />
	</node>
	<node lat="60.80063055855869" lon="5.265202772728676" id="-74980">
		<tag k="name" v="Kletten" />
		<tag k="natural" v="hill" />
		<tag k="place" v="locality" />
		<tag k="ssr:date" v="2019-12-27" />
		<tag k="ssr:gruppe" v="høyder" />
		<tag k="ssr:hovedgruppe" v="terreng" />
		<tag k="ssr:stedsnr" v="267138" />
		<tag k="ssr:type" v="haug" />
	</node>
	<node lat="60.87888888656698" lon="5.376724994342478" id="-74981">
		<tag k="bridge" v="yes" />
		<tag k="layer" v="1" />
		<tag k="name" v="Hatlekråna" />
		<tag k="ssr:date" v="2019-12-27" />
		<tag k="ssr:gruppe" v="samferdselsanlegg" />
		<tag k="ssr:hovedgruppe" v="infrastruktur" />
		<tag k="ssr:stedsnr" v="290075" />
		<tag k="ssr:type" v="bru" />
	</node>
	<node lat="60.91730277529006" lon="5.222069445649414" id="-75005">
		<tag k="name" v="Andershaugane" />
		<tag k="natural" v="hill" />
		<tag k="place" v="locality" />
		<tag k="ssr:date" v="2019-12-27" />
		<tag k="ssr:gruppe" v="høyder" />
		<tag k="ssr:hovedgruppe" v="terreng" />
		<tag k="ssr:stedsnr" v="312872" />
		<tag k="ssr:type" v="haug" />
	</node>
	<node lat="60.72582777575538" lon="5.471927783457837" id="-75030">
		<tag k="name" v="Gråsida" />
		<tag k="natural" v="slope" />
		<tag k="place" v="locality" />
		<tag k="ssr:date" v="2019-12-27" />
		<tag k="ssr:gruppe" v="skråninger" />
		<tag k="ssr:hovedgruppe" v="terreng" />
		<tag k="ssr:stedsnr" v="472401" />
		<tag k="ssr:type" v="li" />
	</node>
	<node lat="60.7412655542714" lon="5.388904115782575" id="-75031">
		<tag k="name" v="Åbakkevika" />
		<tag k="natural" v="bay" />
		<tag k="ssr:date" v="2019-12-27" />
		<tag k="ssr:gruppe" v="kystkontur" />
		<tag k="ssr:hovedgruppe" v="sjø" />
		<tag k="ssr:stedsnr" v="347170" />
		<tag k="ssr:type" v="vikISjø" />
	</node>
	<node lat="60.87679444783055" lon="5.368769450538796" id="-75032">
		<tag k="bridge" v="yes" />
		<tag k="layer" v="1" />
		<tag k="name" v="Ljosnavika" />
		<tag k="ssr:date" v="2019-12-27" />
		<tag k="ssr:gruppe" v="samferdselsanlegg" />
		<tag k="ssr:hovedgruppe" v="infrastruktur" />
		<tag k="ssr:stedsnr" v="350058" />
		<tag k="ssr:type" v="bru" />
	</node>
	<node lat="60.8821000014063" lon="5.386477780852907" id="-75033">
		<tag k="bridge" v="yes" />
		<tag k="layer" v="1" />
		<tag k="name" v="Fossheim" />
		<tag k="ssr:date" v="2019-12-27" />
		<tag k="ssr:gruppe" v="samferdselsanlegg" />
		<tag k="ssr:hovedgruppe" v="infrastruktur" />
		<tag k="ssr:stedsnr" v="350100" />
		<tag k="ssr:type" v="bru" />
	</node>
	<node lat="60.877755554750586" lon="5.378024999628374" id="-75034">
		<tag k="name" v="Hatlekråa" />
		<tag k="natural" v="bay" />
		<tag k="ssr:date" v="2019-12-27" />
		<tag k="ssr:gruppe" v="kystkontur" />
		<tag k="ssr:hovedgruppe" v="sjø" />
		<tag k="ssr:stedsnr" v="357198" />
		<tag k="ssr:type" v="vikISjø" />
	</node>
	<node lat="60.72561111448183" lon="5.488730556848193" id="-75036">
		<tag k="fixme" v="consider natural=peak for the most distinct mountains in the district" />
		<tag k="name" v="Steingardsnipa" />
		<tag k="natural" v="hill" />
		<tag k="place" v="locality" />
		<tag k="ssr:date" v="2019-12-27" />
		<tag k="ssr:gruppe" v="høyder" />
		<tag k="ssr:hovedgruppe" v="terreng" />
		<tag k="ssr:stedsnr" v="370361" />
		<tag k="ssr:type" v="ås" />
	</node>
	<node lat="60.73928611126247" lon="5.488102771572898" id="-75037">
		<tag k="alt_name" v="Båtevassfjellet" />
		<tag k="fixme" v="consider natural=peak for the most distinct mountains in the district" />
		<tag k="name" v="Grønestølane" />
		<tag k="natural" v="hill" />
		<tag k="place" v="locality" />
		<tag k="ssr:date" v="2021-06-08" />
		<tag k="ssr:gruppe" v="høyder" />
		<tag k="ssr:hovedgruppe" v="terreng" />
		<tag k="ssr:stedsnr" v="370505" />
		<tag k="ssr:type" v="ås" />
	</node>
	<node lat="60.931630554558765" lon="5.637277769723047" id="-75038">
		<tag k="name" v="Smådalane" />
		<tag k="natural" v="valley" />
		<tag k="place" v="locality" />
		<tag k="ssr:date" v="2019-12-27" />
		<tag k="ssr:gruppe" v="senkninger" />
		<tag k="ssr:hovedgruppe" v="terreng" />
		<tag k="ssr:stedsnr" v="372268" />
		<tag k="ssr:type" v="dal" />
	</node>
	<node lat="60.80703055788799" lon="5.523202772161085" id="-75040">
		<tag k="name" v="Steindalen" />
		<tag k="natural" v="valley" />
		<tag k="place" v="locality" />
		<tag k="ssr:date" v="2019-12-27" />
		<tag k="ssr:gruppe" v="senkninger" />
		<tag k="ssr:hovedgruppe" v="terreng" />
		<tag k="ssr:stedsnr" v="372518" />
		<tag k="ssr:type" v="dal" />
	</node>
	<node lat="60.82739722044168" lon="5.396702779152759" id="-75044">
		<tag k="name" v="Kringlevatnet" />
		<tag k="natural" v="water" />
		<tag k="ssr:date" v="2019-12-27" />
		<tag k="ssr:gruppe" v="stilleståendeVann" />
		<tag k="ssr:hovedgruppe" v="ferskvann" />
		<tag k="ssr:stedsnr" v="372609" />
		<tag k="ssr:type" v="vann" />
		<tag k="water" v="lake" />
	</node>
	<node lat="60.922370874032985" lon="5.273322499925315" id="-75053">
		<tag k="name" v="Svartetjørna" />
		<tag k="natural" v="water" />
		<tag k="ssr:date" v="2019-12-27" />
		<tag k="ssr:gruppe" v="stilleståendeVann" />
		<tag k="ssr:hovedgruppe" v="ferskvann" />
		<tag k="ssr:stedsnr" v="372914" />
		<tag k="ssr:type" v="tjern" />
	</node>
	<node lat="60.75050555927507" lon="5.347141662110739" id="-75055">
		<tag k="name" v="Vikane" />
		<tag k="natural" v="bay" />
		<tag k="ssr:date" v="2019-12-27" />
		<tag k="ssr:gruppe" v="kystkontur" />
		<tag k="ssr:hovedgruppe" v="sjø" />
		<tag k="ssr:stedsnr" v="372950" />
		<tag k="ssr:type" v="vikISjø" />
	</node>
	<node lat="60.83796111259777" lon="5.514741659139937" id="-75056">
		<tag k="fixme" v="consider natural=peak for the most distinct mountains in the district" />
		<tag k="name" v="Åsen" />
		<tag k="natural" v="hill" />
		<tag k="place" v="locality" />
		<tag k="ssr:date" v="2019-12-27" />
		<tag k="ssr:gruppe" v="høyder" />
		<tag k="ssr:hovedgruppe" v="terreng" />
		<tag k="ssr:stedsnr" v="372956" />
		<tag k="ssr:type" v="ås" />
	</node>
	<node lat="60.919538889817034" lon="5.260336117902596" id="-75094">
		<tag k="name" v="Holmane" />
		<tag k="place" v="locality" />
		<tag k="ssr:date" v="2019-12-27" />
		<tag k="ssr:gruppe" v="terrengdetaljer" />
		<tag k="ssr:hovedgruppe" v="terreng" />
		<tag k="ssr:stedsnr" v="494878" />
		<tag k="ssr:type" v="annenTerrengdetalj" />
	</node>
	<node lat="60.95319166351825" lon="5.65334723025527" id="-75103">
		<tag k="name" v="Mosedalen" />
		<tag k="natural" v="valley" />
		<tag k="place" v="locality" />
		<tag k="ssr:date" v="2019-12-27" />
		<tag k="ssr:gruppe" v="senkninger" />
		<tag k="ssr:hovedgruppe" v="terreng" />
		<tag k="ssr:stedsnr" v="433282" />
		<tag k="ssr:type" v="dal" />
	</node>
	<node lat="60.954950004655636" lon="5.610350006178612" id="-75104">
		<tag k="historic" v="shieling" />
		<tag k="name" v="Vågsetstølen" />
		<tag k="place" v="isolated_dwelling" />
		<tag k="ssr:date" v="2019-12-27" />
		<tag k="ssr:gruppe" v="gardsbebyggelse" />
		<tag k="ssr:hovedgruppe" v="bebyggelse" />
		<tag k="ssr:stedsnr" v="433293" />
		<tag k="ssr:type" v="seterStøl" />
	</node>
	<node lat="60.84103889029616" lon="5.469158338064646" id="-75106">
		<tag k="name" v="Kupevatnet" />
		<tag k="natural" v="water" />
		<tag k="ssr:date" v="2019-12-27" />
		<tag k="ssr:gruppe" v="stilleståendeVann" />
		<tag k="ssr:hovedgruppe" v="ferskvann" />
		<tag k="ssr:stedsnr" v="433390" />
		<tag k="ssr:type" v="tjern" />
	</node>
	<node lat="60.961691665260446" lon="5.638516661674803" id="-75110">
		<tag k="fixme" v="consider natural=peak for the most distinct mountains in the district" />
		<tag k="name" v="Bjørnshiklanten" />
		<tag k="natural" v="hill" />
		<tag k="place" v="locality" />
		<tag k="ssr:date" v="2019-12-27" />
		<tag k="ssr:gruppe" v="høyder" />
		<tag k="ssr:hovedgruppe" v="terreng" />
		<tag k="ssr:stedsnr" v="493294" />
		<tag k="ssr:type" v="ås" />
	</node>
	<node lat="60.84907221794527" lon="5.330541671880658" id="-75112">
		<tag k="name" v="Lauvvikdalen" />
		<tag k="natural" v="valley" />
		<tag k="place" v="locality" />
		<tag k="ssr:date" v="2019-12-27" />
		<tag k="ssr:gruppe" v="senkninger" />
		<tag k="ssr:hovedgruppe" v="terreng" />
		<tag k="ssr:stedsnr" v="493547" />
		<tag k="ssr:type" v="dal" />
	</node>
	<node lat="60.916671647929185" lon="5.716931241130232" id="-75138">
		<tag k="name" v="Grønlivatnet" />
		<tag k="natural" v="water" />
		<tag k="ssr:date" v="2019-12-27" />
		<tag k="ssr:gruppe" v="stilleståendeVann" />
		<tag k="ssr:hovedgruppe" v="ferskvann" />
		<tag k="ssr:stedsnr" v="494338" />
		<tag k="ssr:type" v="tjern" />
	</node>
	<node lat="60.78728333476907" lon="5.220936108015417" id="-75158">
		<tag k="name" v="Gamlegarden" />
		<tag k="place" v="isolated_dwelling" />
		<tag k="ssr:date" v="2019-12-27" />
		<tag k="ssr:gruppe" v="bolighus" />
		<tag k="ssr:hovedgruppe" v="bebyggelse" />
		<tag k="ssr:stedsnr" v="449179" />
		<tag k="ssr:type" v="fritidsbolig" />
	</node>
	<node lat="60.808475002304284" lon="5.260238891731217" id="-75159">
		<tag k="name" v="Åsen" />
		<tag k="natural" v="hill" />
		<tag k="place" v="locality" />
		<tag k="ssr:date" v="2019-12-27" />
		<tag k="ssr:gruppe" v="høyder" />
		<tag k="ssr:hovedgruppe" v="terreng" />
		<tag k="ssr:stedsnr" v="449181" />
		<tag k="ssr:type" v="haug" />
	</node>
	<node lat="60.87975092266817" lon="5.543591863051044" id="-75167">
		<tag k="layer" v="-1" />
		<tag k="name" v="Trodaltunnelen" />
		<tag k="ssr:date" v="2020-01-23" />
		<tag k="ssr:gruppe" v="samferdselsanlegg" />
		<tag k="ssr:hovedgruppe" v="infrastruktur" />
		<tag k="ssr:stedsnr" v="469704" />
		<tag k="ssr:type" v="tunnel" />
		<tag k="tunnel" v="yes" />
	</node>
	<node lat="60.8910500009225" lon="5.668994441459387" id="-75172">
		<tag k="name" v="Gilen" />
		<tag k="natural" v="valley" />
		<tag k="place" v="locality" />
		<tag k="ssr:date" v="2019-12-27" />
		<tag k="ssr:gruppe" v="senkninger" />
		<tag k="ssr:hovedgruppe" v="terreng" />
		<tag k="ssr:stedsnr" v="676341" />
		<tag k="ssr:type" v="skar" />
	</node>
	<node lat="60.79914444898539" lon="5.3192888947030506" id="-75173">
		<tag k="bridge" v="yes" />
		<tag k="layer" v="1" />
		<tag k="name" v="Sandneselva" />
		<tag k="ssr:date" v="2019-12-27" />
		<tag k="ssr:gruppe" v="samferdselsanlegg" />
		<tag k="ssr:hovedgruppe" v="infrastruktur" />
		<tag k="ssr:stedsnr" v="472060" />
		<tag k="ssr:type" v="bru" />
	</node>
	<node lat="60.75261944908963" lon="5.375716671268446" id="-75174">
		<tag k="bridge" v="yes" />
		<tag k="layer" v="1" />
		<tag k="name" v="Nordkvingo" />
		<tag k="ssr:date" v="2019-12-27" />
		<tag k="ssr:gruppe" v="samferdselsanlegg" />
		<tag k="ssr:hovedgruppe" v="infrastruktur" />
		<tag k="ssr:stedsnr" v="472061" />
		<tag k="ssr:type" v="bru" />
	</node>
	<node lat="60.78973888582503" lon="5.294502779327933" id="-75175">
		<tag k="bridge" v="yes" />
		<tag k="layer" v="1" />
		<tag k="name" v="Amundsbotn" />
		<tag k="ssr:date" v="2019-12-27" />
		<tag k="ssr:gruppe" v="samferdselsanlegg" />
		<tag k="ssr:hovedgruppe" v="infrastruktur" />
		<tag k="ssr:stedsnr" v="472111" />
		<tag k="ssr:type" v="bru" />
	</node>
	<node lat="60.93101944526181" lon="5.591619452120698" id="-75176">
		<tag k="name" v="Stemmevatnet" />
		<tag k="natural" v="water" />
		<tag k="ssr:date" v="2019-12-27" />
		<tag k="ssr:gruppe" v="stilleståendeVann" />
		<tag k="ssr:hovedgruppe" v="ferskvann" />
		<tag k="ssr:stedsnr" v="676242" />
		<tag k="ssr:type" v="tjern" />
	</node>
	<node lat="60.9310194438985" lon="5.733250003210492" id="-75177">
		<tag k="name" v="Fagerdalen" />
		<tag k="natural" v="valley" />
		<tag k="place" v="locality" />
		<tag k="ssr:date" v="2019-12-27" />
		<tag k="ssr:gruppe" v="senkninger" />
		<tag k="ssr:hovedgruppe" v="terreng" />
		<tag k="ssr:stedsnr" v="676251" />
		<tag k="ssr:type" v="dal" />
	</node>
	<node lat="60.94309166259268" lon="5.5734222141328695" id="-75179">
		<tag k="fixme" v="consider natural=peak for the most distinct mountains in the district" />
		<tag k="name" v="Dukefjellet" />
		<tag k="natural" v="hill" />
		<tag k="place" v="locality" />
		<tag k="ssr:date" v="2019-12-27" />
		<tag k="ssr:gruppe" v="høyder" />
		<tag k="ssr:hovedgruppe" v="terreng" />
		<tag k="ssr:stedsnr" v="676263" />
		<tag k="ssr:type" v="fjell" />
	</node>
	<node lat="60.96271110976151" lon="5.664288891406926" id="-75180">
		<tag k="fixme" v="consider natural=peak for the most distinct mountains in the district" />
		<tag k="name" v="Ulvedalseggene" />
		<tag k="natural" v="hill" />
		<tag k="place" v="locality" />
		<tag k="ssr:date" v="2019-12-27" />
		<tag k="ssr:gruppe" v="høyder" />
		<tag k="ssr:hovedgruppe" v="terreng" />
		<tag k="ssr:stedsnr" v="676276" />
		<tag k="ssr:type" v="fjell" />
	</node>
	<node lat="60.96385833175545" lon="5.749361103467125" id="-75181">
		<tag k="historic" v="shieling" />
		<tag k="name" v="Bukkedalsstølen" />
		<tag k="place" v="isolated_dwelling" />
		<tag k="ssr:date" v="2019-12-27" />
		<tag k="ssr:gruppe" v="gardsbebyggelse" />
		<tag k="ssr:hovedgruppe" v="bebyggelse" />
		<tag k="ssr:stedsnr" v="676283" />
		<tag k="ssr:type" v="seterStøl" />
	</node>
	<node lat="60.90939444169625" lon="5.688927782590823" id="-75185">
		<tag k="fixme" v="consider natural=peak for the most distinct mountains in the district" />
		<tag k="name" v="Nipetinden" />
		<tag k="natural" v="hill" />
		<tag k="place" v="locality" />
		<tag k="ssr:date" v="2019-12-27" />
		<tag k="ssr:gruppe" v="høyder" />
		<tag k="ssr:hovedgruppe" v="terreng" />
		<tag k="ssr:stedsnr" v="676348" />
		<tag k="ssr:type" v="ås" />
	</node>
	<node lat="60.79663967777119" lon="5.360798754276649" id="-75200">
		<tag k="name" v="Svartebotstjørnane" />
		<tag k="natural" v="water" />
		<tag k="ssr:date" v="2019-12-27" />
		<tag k="ssr:gruppe" v="stilleståendeVann" />
		<tag k="ssr:hovedgruppe" v="ferskvann" />
		<tag k="ssr:stedsnr" v="676645" />
		<tag k="ssr:type" v="gruppeAvTjern" />
		<tag k="water" v="lake" />
	</node>
	<node lat="60.78887499738098" lon="5.408791668040704" id="-75201">
		<tag k="name" v="Øvredalen" />
		<tag k="natural" v="valley" />
		<tag k="place" v="locality" />
		<tag k="ssr:date" v="2019-12-27" />
		<tag k="ssr:gruppe" v="senkninger" />
		<tag k="ssr:hovedgruppe" v="terreng" />
		<tag k="ssr:stedsnr" v="676653" />
		<tag k="ssr:type" v="dal" />
	</node>
	<node lat="60.81611389133075" lon="5.589783326810691" id="-75208">
		<tag k="fixme" v="consider natural=peak for the most distinct mountains in the district" />
		<tag k="name" v="Høgefjellet" />
		<tag k="natural" v="hill" />
		<tag k="place" v="locality" />
		<tag k="ssr:date" v="2019-12-27" />
		<tag k="ssr:gruppe" v="høyder" />
		<tag k="ssr:hovedgruppe" v="terreng" />
		<tag k="ssr:stedsnr" v="676952" />
		<tag k="ssr:type" v="fjell" />
	</node>
	<node lat="60.85633888723165" lon="5.561855553491717" id="-75217">
		<tag k="fixme" v="consider natural=peak for the most distinct mountains in the district" />
		<tag k="name" v="Trysdalsnipa" />
		<tag k="natural" v="hill" />
		<tag k="place" v="locality" />
		<tag k="ssr:date" v="2019-12-27" />
		<tag k="ssr:gruppe" v="høyder" />
		<tag k="ssr:hovedgruppe" v="terreng" />
		<tag k="ssr:stedsnr" v="493406" />
		<tag k="ssr:type" v="ås" />
	</node>
	<node lat="60.941791662755904" lon="5.287802781301298" id="-75222">
		<tag k="name" v="Nyliklantane" />
		<tag k="natural" v="slope" />
		<tag k="place" v="locality" />
		<tag k="ssr:date" v="2019-12-27" />
		<tag k="ssr:gruppe" v="skråninger" />
		<tag k="ssr:hovedgruppe" v="terreng" />
		<tag k="ssr:stedsnr" v="493874" />
		<tag k="ssr:type" v="li" />
	</node>
	<node lat="60.804000000704846" lon="5.477933331172878" id="-75227">
		<tag k="fixme" v="consider natural=peak for the most distinct mountains in the district" />
		<tag k="name" v="Austrefjellet" />
		<tag k="natural" v="hill" />
		<tag k="place" v="locality" />
		<tag k="ssr:date" v="2019-12-27" />
		<tag k="ssr:gruppe" v="høyder" />
		<tag k="ssr:hovedgruppe" v="terreng" />
		<tag k="ssr:stedsnr" v="494460" />
		<tag k="ssr:type" v="ås" />
	</node>
	<node lat="60.87314999586039" lon="5.333563892416983" id="-75228">
		<tag k="name" v="Botnen" />
		<tag k="natural" v="valley" />
		<tag k="place" v="locality" />
		<tag k="ssr:date" v="2019-12-27" />
		<tag k="ssr:gruppe" v="senkninger" />
		<tag k="ssr:hovedgruppe" v="terreng" />
		<tag k="ssr:stedsnr" v="494478" />
		<tag k="ssr:type" v="botn" />
	</node>
	<node lat="60.888172223595745" lon="5.412422224849308" id="-75270">
		<tag k="bridge" v="yes" />
		<tag k="layer" v="1" />
		<tag k="name" v="Steinane" />
		<tag k="ssr:date" v="2019-12-27" />
		<tag k="ssr:gruppe" v="samferdselsanlegg" />
		<tag k="ssr:hovedgruppe" v="infrastruktur" />
		<tag k="ssr:stedsnr" v="532077" />
		<tag k="ssr:type" v="bru" />
	</node>
	<node lat="60.82245000328073" lon="5.381577771230305" id="-75271">
		<tag k="bridge" v="yes" />
		<tag k="layer" v="1" />
		<tag k="name" v="Totland" />
		<tag k="ssr:date" v="2019-12-27" />
		<tag k="ssr:gruppe" v="samferdselsanlegg" />
		<tag k="ssr:hovedgruppe" v="infrastruktur" />
		<tag k="ssr:stedsnr" v="532079" />
		<tag k="ssr:type" v="bru" />
	</node>
	<node lat="60.7037277816588" lon="5.422380563228639" id="-75273">
		<tag k="bridge" v="yes" />
		<tag k="layer" v="1" />
		<tag k="name" v="Kjekallvågen" />
		<tag k="ssr:date" v="2019-12-27" />
		<tag k="ssr:gruppe" v="samferdselsanlegg" />
		<tag k="ssr:hovedgruppe" v="infrastruktur" />
		<tag k="ssr:stedsnr" v="533086" />
		<tag k="ssr:type" v="bru" />
	</node>
	<node lat="60.910875002653654" lon="5.550163886937138" id="-75277">
		<tag k="name" v="Nordgilen" />
		<tag k="natural" v="valley" />
		<tag k="place" v="locality" />
		<tag k="ssr:date" v="2019-12-27" />
		<tag k="ssr:gruppe" v="senkninger" />
		<tag k="ssr:hovedgruppe" v="terreng" />
		<tag k="ssr:stedsnr" v="554378" />
		<tag k="ssr:type" v="skar" />
	</node>
	<node lat="60.90773888759834" lon="5.558936112612787" id="-75278">
		<tag k="historic" v="shieling" />
		<tag k="name" v="Trommeluren" />
		<tag k="place" v="isolated_dwelling" />
		<tag k="ssr:date" v="2019-12-27" />
		<tag k="ssr:gruppe" v="gardsbebyggelse" />
		<tag k="ssr:hovedgruppe" v="bebyggelse" />
		<tag k="ssr:stedsnr" v="554380" />
		<tag k="ssr:type" v="seterStøl" />
	</node>
	<node lat="60.93373631783763" lon="5.825711343872427" id="-75281">
		<tag k="name" v="Krangledalsvatnet" />
		<tag k="natural" v="water" />
		<tag k="ssr:date" v="2019-12-27" />
		<tag k="ssr:gruppe" v="stilleståendeVann" />
		<tag k="ssr:hovedgruppe" v="ferskvann" />
		<tag k="ssr:stedsnr" v="554280" />
		<tag k="ssr:type" v="tjern" />
	</node>
	<node lat="60.82948611292576" lon="5.333155555621453" id="-75286">
		<tag k="name" v="Skjerjebu" />
		<tag k="place" v="isolated_dwelling" />
		<tag k="ssr:date" v="2019-12-27" />
		<tag k="ssr:gruppe" v="bolighus" />
		<tag k="ssr:hovedgruppe" v="bebyggelse" />
		<tag k="ssr:stedsnr" v="554629" />
		<tag k="ssr:type" v="fritidsbolig" />
	</node>
	<node lat="60.83846962369963" lon="5.587541215366783" id="-75374">
		<tag k="alt_name" v="Masfjord" />
		<tag k="layer" v="-1" />
		<tag k="name" v="Masfjordtunnelen" />
		<tag k="ssr:date" v="2021-04-22" />
		<tag k="ssr:gruppe" v="samferdselsanlegg" />
		<tag k="ssr:hovedgruppe" v="infrastruktur" />
		<tag k="ssr:stedsnr" v="695842" />
		<tag k="ssr:type" v="tunnel" />
		<tag k="tunnel" v="yes" />
	</node>
	<node lat="60.777005559195096" lon="5.282552783888135" id="-75375">
		<tag k="bridge" v="yes" />
		<tag k="layer" v="1" />
		<tag k="name" v="Kvamme" />
		<tag k="ssr:date" v="2019-12-27" />
		<tag k="ssr:gruppe" v="samferdselsanlegg" />
		<tag k="ssr:hovedgruppe" v="infrastruktur" />
		<tag k="ssr:stedsnr" v="593064" />
		<tag k="ssr:type" v="bru" />
	</node>
	<node lat="60.91279444535416" lon="5.338474991967984" id="-75378">
		<tag k="name" v="Gravene" />
		<tag k="place" v="locality" />
		<tag k="ssr:date" v="2019-12-27" />
		<tag k="ssr:gruppe" v="rennendeVann" />
		<tag k="ssr:hovedgruppe" v="ferskvann" />
		<tag k="ssr:stedsnr" v="614918" />
		<tag k="ssr:type" v="høl" />
	</node>
	<node lat="60.88632777878154" lon="5.6871527868440905" id="-75380">
		<tag k="name" v="Langevatnet" />
		<tag k="natural" v="water" />
		<tag k="ssr:date" v="2019-12-27" />
		<tag k="ssr:gruppe" v="stilleståendeVann" />
		<tag k="ssr:hovedgruppe" v="ferskvann" />
		<tag k="ssr:stedsnr" v="615295" />
		<tag k="ssr:type" v="tjern" />
	</node>
	<node lat="60.929802780229345" lon="5.473213886534674" id="-75381">
		<tag k="fixme" v="consider natural=peak for the most distinct mountains in the district" />
		<tag k="name" v="Geirsvadklumpen" />
		<tag k="natural" v="hill" />
		<tag k="place" v="locality" />
		<tag k="ssr:date" v="2019-12-27" />
		<tag k="ssr:gruppe" v="høyder" />
		<tag k="ssr:hovedgruppe" v="terreng" />
		<tag k="ssr:stedsnr" v="615250" />
		<tag k="ssr:type" v="fjell" />
	</node>
	<node lat="60.89699444683389" lon="5.690805554035999" id="-75388">
		<tag k="name" v="Klendalen" />
		<tag k="natural" v="valley" />
		<tag k="place" v="locality" />
		<tag k="ssr:date" v="2019-12-27" />
		<tag k="ssr:gruppe" v="senkninger" />
		<tag k="ssr:hovedgruppe" v="terreng" />
		<tag k="ssr:stedsnr" v="615327" />
		<tag k="ssr:type" v="dal" />
	</node>
	<node lat="60.81635277577945" lon="5.543850000443678" id="-75391">
		<tag k="name" v="Molddalen" />
		<tag k="natural" v="valley" />
		<tag k="place" v="locality" />
		<tag k="ssr:date" v="2019-12-27" />
		<tag k="ssr:gruppe" v="senkninger" />
		<tag k="ssr:hovedgruppe" v="terreng" />
		<tag k="ssr:stedsnr" v="615350" />
		<tag k="ssr:type" v="skar" />
	</node>
	<node lat="60.873180559958826" lon="5.334736115186741" id="-75396">
		<tag k="name" v="Merkesgjelet" />
		<tag k="natural" v="gorge" />
		<tag k="ssr:date" v="2019-12-27" />
		<tag k="ssr:gruppe" v="senkninger" />
		<tag k="ssr:hovedgruppe" v="terreng" />
		<tag k="ssr:stedsnr" v="615492" />
		<tag k="ssr:type" v="juv" />
	</node>
	<node lat="60.796894448160984" lon="5.17267500860291" id="-75398">
		<tag k="name" v="Breiflua" />
		<tag k="natural" v="shoal" />
		<tag k="place" v="locality" />
		<tag k="ssr:date" v="2019-12-27" />
		<tag k="ssr:gruppe" v="grunnerISjø" />
		<tag k="ssr:hovedgruppe" v="sjø" />
		<tag k="ssr:stedsnr" v="615605" />
		<tag k="ssr:type" v="grunneISjø" />
	</node>
	<node lat="60.852724988227486" lon="5.705212277166372" id="-75435">
		<tag k="name" v="Øvste Godbotsfossen" />
		<tag k="natural" v="waterfall" />
		<tag k="ssr:date" v="2020-06-05" />
		<tag k="ssr:gruppe" v="rennendeVann" />
		<tag k="ssr:hovedgruppe" v="ferskvann" />
		<tag k="ssr:stedsnr" v="651034" />
		<tag k="ssr:type" v="foss" />
	</node>
	<node lat="60.88510555872586" lon="5.714183327848029" id="-75441">
		<tag k="name" v="Meinsemdevatnet" />
		<tag k="natural" v="water" />
		<tag k="ssr:date" v="2019-12-27" />
		<tag k="ssr:gruppe" v="stilleståendeVann" />
		<tag k="ssr:hovedgruppe" v="ferskvann" />
		<tag k="ssr:stedsnr" v="676319" />
		<tag k="ssr:type" v="tjern" />
	</node>
	<node lat="60.83592033416417" lon="5.644124155588631" id="-75444">
		<tag k="name" v="Midtvatnet" />
		<tag k="natural" v="water" />
		<tag k="ssr:date" v="2019-12-27" />
		<tag k="ssr:gruppe" v="stilleståendeVann" />
		<tag k="ssr:hovedgruppe" v="ferskvann" />
		<tag k="ssr:stedsnr" v="676405" />
		<tag k="ssr:type" v="tjern" />
	</node>
	<node lat="60.87747500268325" lon="5.291005558827957" id="-75454">
		<tag k="fixme" v="consider natural=peak for the most distinct mountains in the district" />
		<tag k="name" v="Tausefjellet" />
		<tag k="natural" v="hill" />
		<tag k="place" v="locality" />
		<tag k="ssr:date" v="2019-12-27" />
		<tag k="ssr:gruppe" v="høyder" />
		<tag k="ssr:hovedgruppe" v="terreng" />
		<tag k="ssr:stedsnr" v="676988" />
		<tag k="ssr:type" v="fjell" />
	</node>
	<node lat="60.75011389316372" lon="5.328766665541378" id="-75476">
		<tag k="name" v="Årvikflua" />
		<tag k="natural" v="shoal" />
		<tag k="place" v="locality" />
		<tag k="ssr:date" v="2019-12-27" />
		<tag k="ssr:gruppe" v="grunnerISjø" />
		<tag k="ssr:hovedgruppe" v="sjø" />
		<tag k="ssr:stedsnr" v="693883" />
		<tag k="ssr:type" v="grunneISjø" />
	</node>
	<node lat="60.9680472184119" lon="5.720558333056754" id="-75477">
		<tag k="fixme" v="consider natural=peak for the most distinct mountains in the district" />
		<tag k="name" v="Dyrliholten" />
		<tag k="natural" v="hill" />
		<tag k="place" v="locality" />
		<tag k="ssr:date" v="2019-12-27" />
		<tag k="ssr:gruppe" v="høyder" />
		<tag k="ssr:hovedgruppe" v="terreng" />
		<tag k="ssr:stedsnr" v="700614" />
		<tag k="ssr:type" v="ås" />
	</node>
	<node lat="60.86608888462707" lon="5.549624991314447" id="-75478">
		<tag k="bridge" v="yes" />
		<tag k="layer" v="1" />
		<tag k="name" v="Smørdalen" />
		<tag k="ssr:date" v="2019-12-27" />
		<tag k="ssr:gruppe" v="samferdselsanlegg" />
		<tag k="ssr:hovedgruppe" v="infrastruktur" />
		<tag k="ssr:stedsnr" v="897081" />
		<tag k="ssr:type" v="bru" />
	</node>
	<node lat="60.87261181348629" lon="5.5904892909126875" id="-75479">
		<tag k="layer" v="-1" />
		<tag k="loc_name" v="Litlematrestunnelen" />
		<tag k="name" v="Lille-Matre" />
		<tag k="ssr:date" v="2020-01-15" />
		<tag k="ssr:gruppe" v="samferdselsanlegg" />
		<tag k="ssr:hovedgruppe" v="infrastruktur" />
		<tag k="ssr:stedsnr" v="711328" />
		<tag k="ssr:type" v="tunnel" />
		<tag k="tunnel" v="yes" />
	</node>
	<node lat="60.85811111131351" lon="5.3427166586697705" id="-75480">
		<tag k="bridge" v="yes" />
		<tag k="layer" v="1" />
		<tag k="name" v="Argjeta" />
		<tag k="ssr:date" v="2019-12-27" />
		<tag k="ssr:gruppe" v="samferdselsanlegg" />
		<tag k="ssr:hovedgruppe" v="infrastruktur" />
		<tag k="ssr:stedsnr" v="715108" />
		<tag k="ssr:type" v="bru" />
	</node>
	<node lat="60.8143527787982" lon="5.3816611097509925" id="-75481">
		<tag k="bridge" v="yes" />
		<tag k="layer" v="1" />
		<tag k="name" v="Anvik" />
		<tag k="ssr:date" v="2019-12-27" />
		<tag k="ssr:gruppe" v="samferdselsanlegg" />
		<tag k="ssr:hovedgruppe" v="infrastruktur" />
		<tag k="ssr:stedsnr" v="715110" />
		<tag k="ssr:type" v="bru" />
	</node>
	<node lat="60.86117499764911" lon="5.721175001945425" id="-75485">
		<tag k="alt_name" v="Langevatnet" />
		<tag k="name" v="Langavatnet" />
		<tag k="natural" v="water" />
		<tag k="ssr:date" v="2020-01-30" />
		<tag k="ssr:gruppe" v="stilleståendeVann" />
		<tag k="ssr:hovedgruppe" v="ferskvann" />
		<tag k="ssr:stedsnr" v="736421" />
		<tag k="ssr:type" v="vann" />
		<tag k="water" v="lake" />
	</node>
	<node lat="60.794113890302306" lon="5.266638897803729" id="-75489">
		<tag k="name" v="Areklettgrunnen" />
		<tag k="natural" v="shoal" />
		<tag k="place" v="locality" />
		<tag k="ssr:date" v="2019-12-27" />
		<tag k="ssr:gruppe" v="grunnerISjø" />
		<tag k="ssr:hovedgruppe" v="sjø" />
		<tag k="ssr:stedsnr" v="736676" />
		<tag k="ssr:type" v="grunneISjø" />
	</node>
	<node lat="60.90978889278306" lon="5.464597229726836" id="-75492">
		<tag k="name" v="Nystykket" />
		<tag k="place" v="farm" />
		<tag k="ssr:date" v="2019-12-27" />
		<tag k="ssr:gruppe" v="gardsbebyggelse" />
		<tag k="ssr:hovedgruppe" v="bebyggelse" />
		<tag k="ssr:stedsnr" v="736910" />
		<tag k="ssr:type" v="bruk" />
	</node>
	<node lat="60.857424997647385" lon="5.5877749975970294" id="-75499">
		<tag k="fixme" v="consider natural=peak for the most distinct mountains in the district" />
		<tag k="name" v="Kletten" />
		<tag k="natural" v="hill" />
		<tag k="place" v="locality" />
		<tag k="ssr:date" v="2019-12-27" />
		<tag k="ssr:gruppe" v="høyder" />
		<tag k="ssr:hovedgruppe" v="terreng" />
		<tag k="ssr:stedsnr" v="737404" />
		<tag k="ssr:type" v="ås" />
	</node>
	<node lat="60.84161944137688" lon="5.152591670475443" id="-75525">
		<tag k="name" v="Skvitneset" />
		<tag k="natural" v="cape" />
		<tag k="ssr:date" v="2019-12-27" />
		<tag k="ssr:gruppe" v="kystkontur" />
		<tag k="ssr:hovedgruppe" v="sjø" />
		<tag k="ssr:stedsnr" v="754669" />
		<tag k="ssr:type" v="nesISjø" />
	</node>
	<node lat="60.86349444030424" lon="5.31572499407637" id="-75529">
		<tag k="name" v="Trolldalen" />
		<tag k="natural" v="valley" />
		<tag k="place" v="locality" />
		<tag k="ssr:date" v="2019-12-27" />
		<tag k="ssr:gruppe" v="senkninger" />
		<tag k="ssr:hovedgruppe" v="terreng" />
		<tag k="ssr:stedsnr" v="797511" />
		<tag k="ssr:type" v="dal" />
	</node>
	<node lat="60.977158329399394" lon="5.620572223635769" id="-75533">
		<tag k="name" v="Porten" />
		<tag k="place" v="locality" />
		<tag k="ssr:date" v="2019-12-27" />
		<tag k="ssr:gruppe" v="terrengdetaljer" />
		<tag k="ssr:hovedgruppe" v="terreng" />
		<tag k="ssr:stedsnr" v="797298" />
		<tag k="ssr:type" v="annenTerrengdetalj" />
	</node>
	<node lat="60.7758055552973" lon="5.407408338962091" id="-75537">
		<tag k="fixme" v="consider natural=peak for the most distinct mountains in the district" />
		<tag k="name" v="Bergdropen" />
		<tag k="natural" v="hill" />
		<tag k="place" v="locality" />
		<tag k="ssr:date" v="2019-12-27" />
		<tag k="ssr:gruppe" v="høyder" />
		<tag k="ssr:hovedgruppe" v="terreng" />
		<tag k="ssr:stedsnr" v="797710" />
		<tag k="ssr:type" v="fjell" />
	</node>
	<node lat="60.80416666794986" lon="5.382750005819409" id="-75541">
		<tag k="name" v="Andvikedalen" />
		<tag k="natural" v="valley" />
		<tag k="place" v="locality" />
		<tag k="ssr:date" v="2019-12-27" />
		<tag k="ssr:gruppe" v="senkninger" />
		<tag k="ssr:hovedgruppe" v="terreng" />
		<tag k="ssr:stedsnr" v="797649" />
		<tag k="ssr:type" v="dal" />
	</node>
	<node lat="60.853991662414565" lon="5.288644448243784" id="-75547">
		<tag k="name" v="Breidskardet" />
		<tag k="natural" v="valley" />
		<tag k="place" v="locality" />
		<tag k="ssr:date" v="2019-12-27" />
		<tag k="ssr:gruppe" v="senkninger" />
		<tag k="ssr:hovedgruppe" v="terreng" />
		<tag k="ssr:stedsnr" v="798501" />
		<tag k="ssr:type" v="dal" />
	</node>
	<node lat="60.86703889074026" lon="5.681799998925596" id="-75586">
		<tag k="name" v="Kvitevassdalen" />
		<tag k="natural" v="valley" />
		<tag k="place" v="locality" />
		<tag k="ssr:date" v="2019-12-27" />
		<tag k="ssr:gruppe" v="senkninger" />
		<tag k="ssr:hovedgruppe" v="terreng" />
		<tag k="ssr:stedsnr" v="918490" />
		<tag k="ssr:type" v="dal" />
	</node>
	<node lat="60.82908611223718" lon="5.216366661672679" id="-75590">
		<tag k="name" v="Svartevika" />
		<tag k="natural" v="bay" />
		<tag k="ssr:date" v="2019-12-27" />
		<tag k="ssr:gruppe" v="kystkontur" />
		<tag k="ssr:hovedgruppe" v="sjø" />
		<tag k="ssr:stedsnr" v="813620" />
		<tag k="ssr:type" v="vikISjø" />
	</node>
	<node lat="60.90649166543872" lon="5.7053916719133175" id="-75598">
		<tag k="name" v="Skredlivatnet" />
		<tag k="natural" v="water" />
		<tag k="ssr:date" v="2019-12-27" />
		<tag k="ssr:gruppe" v="stilleståendeVann" />
		<tag k="ssr:hovedgruppe" v="ferskvann" />
		<tag k="ssr:stedsnr" v="919336" />
		<tag k="ssr:type" v="tjern" />
	</node>
	<node lat="60.911947222040254" lon="5.24000277697887" id="-75608">
		<tag k="fixme" v="consider natural=peak for the most distinct mountains in the district" />
		<tag k="name" v="Nordgardsleinane" />
		<tag k="natural" v="hill" />
		<tag k="place" v="locality" />
		<tag k="ssr:date" v="2019-12-27" />
		<tag k="ssr:gruppe" v="høyder" />
		<tag k="ssr:hovedgruppe" v="terreng" />
		<tag k="ssr:stedsnr" v="919877" />
		<tag k="ssr:type" v="ås" />
	</node>
	<node lat="60.719561107591126" lon="5.461566661775201" id="-75610">
		<tag k="name" v="Urdalen" />
		<tag k="natural" v="valley" />
		<tag k="place" v="locality" />
		<tag k="ssr:date" v="2019-12-27" />
		<tag k="ssr:gruppe" v="senkninger" />
		<tag k="ssr:hovedgruppe" v="terreng" />
		<tag k="ssr:stedsnr" v="837427" />
		<tag k="ssr:type" v="dal" />
	</node>
	<node lat="60.94730000068672" lon="5.626808324309514" id="-75618">
		<tag k="fixme" v="consider natural=peak for the most distinct mountains in the district" />
		<tag k="name" v="Vardane" />
		<tag k="natural" v="hill" />
		<tag k="place" v="locality" />
		<tag k="ssr:date" v="2019-12-27" />
		<tag k="ssr:gruppe" v="høyder" />
		<tag k="ssr:hovedgruppe" v="terreng" />
		<tag k="ssr:stedsnr" v="858279" />
		<tag k="ssr:type" v="fjell" />
	</node>
	<node lat="60.94067499999469" lon="5.309288883156362" id="-75625">
		<tag k="fixme" v="consider natural=peak for the most distinct mountains in the district" />
		<tag k="name" v="Middagsfjellet" />
		<tag k="natural" v="hill" />
		<tag k="place" v="locality" />
		<tag k="ssr:date" v="2019-12-27" />
		<tag k="ssr:gruppe" v="høyder" />
		<tag k="ssr:hovedgruppe" v="terreng" />
		<tag k="ssr:stedsnr" v="858869" />
		<tag k="ssr:type" v="ås" />
	</node>
	<node lat="60.83524166348391" lon="5.258305547399097" id="-75627">
		<tag k="name" v="Hosteland" />
		<tag k="place" v="hamlet" />
		<tag k="ssr:date" v="2019-12-27" />
		<tag k="ssr:gruppe" v="bebyggelsesområder" />
		<tag k="ssr:hovedgruppe" v="bebyggelse" />
		<tag k="ssr:stedsnr" v="858570" />
		<tag k="ssr:type" v="grend" />
	</node>
	<node lat="60.84535000076439" lon="5.246949997272856" id="-75628">
		<tag k="name" v="Gulbergvika" />
		<tag k="natural" v="bay" />
		<tag k="ssr:date" v="2019-12-27" />
		<tag k="ssr:gruppe" v="ferskvannskontur" />
		<tag k="ssr:hovedgruppe" v="ferskvann" />
		<tag k="ssr:stedsnr" v="858573" />
		<tag k="ssr:type" v="vik" />
	</node>
	<node lat="60.783719447081495" lon="5.280852778972327" id="-75702">
		<tag k="name" v="Storleitbenken" />
		<tag k="natural" v="cape" />
		<tag k="ssr:date" v="2019-12-27" />
		<tag k="ssr:gruppe" v="kystkontur" />
		<tag k="ssr:hovedgruppe" v="sjø" />
		<tag k="ssr:stedsnr" v="935166" />
		<tag k="ssr:type" v="nesISjø" />
	</node>
	<node lat="60.84821666275437" lon="5.672227783512825" id="-75703">
		<tag k="name" v="Bjørnahiet" />
		<tag k="place" v="locality" />
		<tag k="ssr:date" v="2019-12-27" />
		<tag k="ssr:gruppe" v="terrengdetaljer" />
		<tag k="ssr:hovedgruppe" v="terreng" />
		<tag k="ssr:stedsnr" v="894021" />
		<tag k="ssr:type" v="annenTerrengdetalj" />
	</node>
	<node lat="60.80760277521343" lon="5.308450004595892" id="-75704">
		<tag k="amenity" v="ferry_terminal" />
		<tag k="name" v="Duesundøy ferjekai" />
		<tag k="ssr:date" v="2019-12-27" />
		<tag k="ssr:gruppe" v="sjøfart" />
		<tag k="ssr:hovedgruppe" v="infrastruktur" />
		<tag k="ssr:stedsnr" v="897111" />
		<tag k="ssr:type" v="ferjekai" />
	</node>
	<node lat="60.93797460534064" lon="5.60737108274349" id="-75714">
		<tag k="name" v="Øyrevatnet" />
		<tag k="natural" v="water" />
		<tag k="ssr:date" v="2019-12-27" />
		<tag k="ssr:gruppe" v="stilleståendeVann" />
		<tag k="ssr:hovedgruppe" v="ferskvann" />
		<tag k="ssr:stedsnr" v="919245" />
		<tag k="ssr:type" v="tjern" />
	</node>
	<node lat="60.88666666248292" lon="5.758850007739606" id="-75716">
		<tag k="name" v="Storevassdalen" />
		<tag k="natural" v="valley" />
		<tag k="place" v="locality" />
		<tag k="ssr:date" v="2019-12-27" />
		<tag k="ssr:gruppe" v="senkninger" />
		<tag k="ssr:hovedgruppe" v="terreng" />
		<tag k="ssr:stedsnr" v="919308" />
		<tag k="ssr:type" v="dal" />
	</node>
	<node lat="60.92227777854486" lon="5.729641670982813" id="-75718">
		<tag k="fixme" v="consider natural=peak for the most distinct mountains in the district" />
		<tag k="name" v="Salen" />
		<tag k="natural" v="hill" />
		<tag k="place" v="locality" />
		<tag k="ssr:date" v="2019-12-27" />
		<tag k="ssr:gruppe" v="høyder" />
		<tag k="ssr:hovedgruppe" v="terreng" />
		<tag k="ssr:stedsnr" v="919363" />
		<tag k="ssr:type" v="ås" />
	</node>
	<node lat="60.71742222260689" lon="5.402583341663729" id="-75761">
		<tag k="name" v="Raudberget" />
		<tag k="natural" v="cape" />
		<tag k="ssr:date" v="2019-12-27" />
		<tag k="ssr:gruppe" v="kystkontur" />
		<tag k="ssr:hovedgruppe" v="sjø" />
		<tag k="ssr:stedsnr" v="954246" />
		<tag k="ssr:type" v="nesISjø" />
	</node>
	<node lat="60.873513889868775" lon="5.59066666862542" id="-75762">
		<tag k="bridge" v="yes" />
		<tag k="layer" v="1" />
		<tag k="name" v="Litle Matre" />
		<tag k="ssr:date" v="2019-12-27" />
		<tag k="ssr:gruppe" v="samferdselsanlegg" />
		<tag k="ssr:hovedgruppe" v="infrastruktur" />
		<tag k="ssr:stedsnr" v="229059" />
		<tag k="ssr:type" v="bru" />
	</node>
	<node lat="60.951349999245174" lon="5.682755547898402" id="-75765">
		<tag k="name" v="Persstova" />
		<tag k="place" v="isolated_dwelling" />
		<tag k="ssr:date" v="2019-12-27" />
		<tag k="ssr:gruppe" v="bolighus" />
		<tag k="ssr:hovedgruppe" v="bebyggelse" />
		<tag k="ssr:stedsnr" v="8323" />
		<tag k="ssr:type" v="fritidsbolig" />
	</node>
	<node lat="60.91042442022201" lon="5.562233549533064" id="-75769">
		<tag k="name" v="Eidavatnet" />
		<tag k="natural" v="water" />
		<tag k="ssr:date" v="2019-12-27" />
		<tag k="ssr:gruppe" v="stilleståendeVann" />
		<tag k="ssr:hovedgruppe" v="ferskvann" />
		<tag k="ssr:stedsnr" v="8379" />
		<tag k="ssr:type" v="tjern" />
	</node>
	<node lat="60.886327777444656" lon="5.201719452388382" id="-75782">
		<tag k="fixme" v="consider natural=peak for the most distinct mountains in the district" />
		<tag k="name" v="Hesthovden" />
		<tag k="natural" v="hill" />
		<tag k="place" v="locality" />
		<tag k="ssr:date" v="2019-12-27" />
		<tag k="ssr:gruppe" v="høyder" />
		<tag k="ssr:hovedgruppe" v="terreng" />
		<tag k="ssr:stedsnr" v="8949" />
		<tag k="ssr:type" v="ås" />
	</node>
	<node lat="60.82361389234289" lon="5.537488891661179" id="-75783">
		<tag k="fixme" v="consider natural=peak for the most distinct mountains in the district" />
		<tag k="name" v="Husefjellet" />
		<tag k="natural" v="hill" />
		<tag k="place" v="locality" />
		<tag k="ssr:date" v="2019-12-27" />
		<tag k="ssr:gruppe" v="høyder" />
		<tag k="ssr:hovedgruppe" v="terreng" />
		<tag k="ssr:stedsnr" v="8953" />
		<tag k="ssr:type" v="ås" />
	</node>
	<node lat="60.800218036494556" lon="5.302756299424862" id="-75788">
		<tag k="alt_name" v="Masfjorden" />
		<tag k="amenity" v="place_of_worship" />
		<tag k="denomination" v="lutheran" />
		<tag k="name" v="Sandnes kyrkje" />
		<tag k="religion" v="christian" />
		<tag k="ssr:date" v="2019-12-27" />
		<tag k="ssr:gruppe" v="kulturinstitusjoner" />
		<tag k="ssr:hovedgruppe" v="kultur" />
		<tag k="ssr:stedsnr" v="8667" />
		<tag k="ssr:type" v="kirke" />
	</node>
	<node lat="60.81386666590435" lon="5.513336114155624" id="-75801">
		<tag k="fixme" v="consider natural=peak for the most distinct mountains in the district" />
		<tag k="name" v="Furlifjellet" />
		<tag k="natural" v="hill" />
		<tag k="place" v="locality" />
		<tag k="ssr:date" v="2019-12-27" />
		<tag k="ssr:gruppe" v="høyder" />
		<tag k="ssr:hovedgruppe" v="terreng" />
		<tag k="ssr:stedsnr" v="9362" />
		<tag k="ssr:type" v="ås" />
	</node>
	<node lat="60.847711108587625" lon="5.255994442803917" id="-75802">
		<tag k="name" v="Heiane" />
		<tag k="place" v="locality" />
		<tag k="ssr:date" v="2019-12-27" />
		<tag k="ssr:gruppe" v="terrengdetaljer" />
		<tag k="ssr:hovedgruppe" v="terreng" />
		<tag k="ssr:stedsnr" v="9539" />
		<tag k="ssr:type" v="annenTerrengdetalj" />
	</node>
	<node lat="60.82195555179716" lon="5.613725008012811" id="-75845">
		<tag k="name" v="Steinareset" />
		<tag k="natural" v="hill" />
		<tag k="place" v="locality" />
		<tag k="ssr:date" v="2019-12-27" />
		<tag k="ssr:gruppe" v="høyder" />
		<tag k="ssr:hovedgruppe" v="terreng" />
		<tag k="ssr:stedsnr" v="45048" />
		<tag k="ssr:type" v="høyde" />
	</node>
	<node lat="60.87784722361082" lon="5.585577779112967" id="-75846">
		<tag k="bridge" v="yes" />
		<tag k="layer" v="1" />
		<tag k="name" v="Matre" />
		<tag k="ssr:date" v="2019-12-27" />
		<tag k="ssr:gruppe" v="samferdselsanlegg" />
		<tag k="ssr:hovedgruppe" v="infrastruktur" />
		<tag k="ssr:stedsnr" v="47062" />
		<tag k="ssr:type" v="bru" />
	</node>
	<node lat="60.80082777608048" lon="5.30438888939428" id="-75847">
		<tag k="amenity" v="ferry_terminal" />
		<tag k="name" v="Masfjordnes ferjekai" />
		<tag k="ssr:date" v="2019-12-27" />
		<tag k="ssr:gruppe" v="sjøfart" />
		<tag k="ssr:hovedgruppe" v="infrastruktur" />
		<tag k="ssr:stedsnr" v="47064" />
		<tag k="ssr:type" v="ferjekai" />
	</node>
	<node lat="60.89283610883115" lon="5.422927781332" id="-75848">
		<tag k="bridge" v="yes" />
		<tag k="layer" v="1" />
		<tag k="name" v="Lona" />
		<tag k="ssr:date" v="2019-12-27" />
		<tag k="ssr:gruppe" v="samferdselsanlegg" />
		<tag k="ssr:hovedgruppe" v="infrastruktur" />
		<tag k="ssr:stedsnr" v="47065" />
		<tag k="ssr:type" v="bru" />
	</node>
	<node lat="60.89842499581851" lon="5.501813881893692" id="-75849">
		<tag k="name" v="Grimnes" />
		<tag k="natural" v="cape" />
		<tag k="ssr:date" v="2019-12-27" />
		<tag k="ssr:gruppe" v="kystkontur" />
		<tag k="ssr:hovedgruppe" v="sjø" />
		<tag k="ssr:stedsnr" v="54413" />
		<tag k="ssr:type" v="nesISjø" />
	</node>
	<node lat="60.95058055261897" lon="5.793625005440598" id="-75850">
		<tag k="fixme" v="consider tourism=alpine_hut or tourism=chalet" />
		<tag k="name" v="Fjellvassbu" />
		<tag k="ssr:date" v="2019-12-27" />
		<tag k="ssr:gruppe" v="næring" />
		<tag k="ssr:hovedgruppe" v="bebyggelse" />
		<tag k="ssr:stedsnr" v="56081" />
		<tag k="ssr:type" v="turisthytte" />
		<tag k="tourism" v="wilderness_hut" />
	</node>
	<node lat="60.89986389022722" lon="5.467155552185728" id="-75873">
		<tag k="fixme" v="consider natural=peak for the most distinct mountains in the district" />
		<tag k="name" v="Åsen" />
		<tag k="natural" v="hill" />
		<tag k="place" v="locality" />
		<tag k="ssr:date" v="2019-12-27" />
		<tag k="ssr:gruppe" v="høyder" />
		<tag k="ssr:hovedgruppe" v="terreng" />
		<tag k="ssr:stedsnr" v="69958" />
		<tag k="ssr:type" v="ås" />
	</node>
	<node lat="60.90929166540102" lon="5.387855550490585" id="-75875">
		<tag k="name" v="Vardebotnen" />
		<tag k="natural" v="valley" />
		<tag k="place" v="locality" />
		<tag k="ssr:date" v="2019-12-27" />
		<tag k="ssr:gruppe" v="senkninger" />
		<tag k="ssr:hovedgruppe" v="terreng" />
		<tag k="ssr:stedsnr" v="69962" />
		<tag k="ssr:type" v="botn" />
	</node>
	<node lat="60.92389166693142" lon="5.664313883263238" id="-75929">
		<tag k="bridge" v="yes" />
		<tag k="layer" v="1" />
		<tag k="name" v="Haugahøl" />
		<tag k="ssr:date" v="2019-12-27" />
		<tag k="ssr:gruppe" v="samferdselsanlegg" />
		<tag k="ssr:hovedgruppe" v="infrastruktur" />
		<tag k="ssr:stedsnr" v="108068" />
		<tag k="ssr:type" v="bru" />
	</node>
	<node lat="60.85311666390781" lon="5.340780546784373" id="-75930">
		<tag k="name" v="Nesvika" />
		<tag k="natural" v="bay" />
		<tag k="ssr:date" v="2019-12-27" />
		<tag k="ssr:gruppe" v="kystkontur" />
		<tag k="ssr:hovedgruppe" v="sjø" />
		<tag k="ssr:stedsnr" v="117556" />
		<tag k="ssr:type" v="vikISjø" />
	</node>
	<node lat="60.726487142328416" lon="5.416822299057522" id="-75936">
		<tag k="name" v="Breiskartjørna" />
		<tag k="natural" v="water" />
		<tag k="ssr:date" v="2019-12-27" />
		<tag k="ssr:gruppe" v="stilleståendeVann" />
		<tag k="ssr:hovedgruppe" v="ferskvann" />
		<tag k="ssr:stedsnr" v="127174" />
		<tag k="ssr:type" v="tjern" />
	</node>
	<node lat="60.93042500388822" lon="5.558388890062136" id="-75939">
		<tag k="name" v="Buleitegilet" />
		<tag k="natural" v="valley" />
		<tag k="place" v="locality" />
		<tag k="ssr:date" v="2019-12-27" />
		<tag k="ssr:gruppe" v="senkninger" />
		<tag k="ssr:hovedgruppe" v="terreng" />
		<tag k="ssr:stedsnr" v="130258" />
		<tag k="ssr:type" v="skar" />
	</node>
	<node lat="60.81293611111594" lon="5.487327780214511" id="-75940">
		<tag k="historic" v="shieling" />
		<tag k="name" v="Kupa" />
		<tag k="place" v="isolated_dwelling" />
		<tag k="ssr:date" v="2019-12-27" />
		<tag k="ssr:gruppe" v="gardsbebyggelse" />
		<tag k="ssr:hovedgruppe" v="bebyggelse" />
		<tag k="ssr:stedsnr" v="130339" />
		<tag k="ssr:type" v="seterStøl" />
	</node>
	<node lat="60.84512221860155" lon="5.4001027708881235" id="-75945">
		<tag k="name" v="Nipene" />
		<tag k="natural" v="hill" />
		<tag k="place" v="locality" />
		<tag k="ssr:date" v="2019-12-27" />
		<tag k="ssr:gruppe" v="høyder" />
		<tag k="ssr:hovedgruppe" v="terreng" />
		<tag k="ssr:stedsnr" v="129566" />
		<tag k="ssr:type" v="haug" />
	</node>
	<node lat="60.800927643745204" lon="5.493925093582155" id="-75961">
		<tag k="name" v="Kupevatnet" />
		<tag k="natural" v="water" />
		<tag k="ssr:date" v="2019-12-27" />
		<tag k="ssr:gruppe" v="stilleståendeVann" />
		<tag k="ssr:hovedgruppe" v="ferskvann" />
		<tag k="ssr:stedsnr" v="130456" />
		<tag k="ssr:type" v="vann" />
		<tag k="water" v="lake" />
	</node>
	<node lat="60.82988333383797" lon="5.476908329923004" id="-75974">
		<tag k="name" v="Trolldalen" />
		<tag k="natural" v="valley" />
		<tag k="place" v="locality" />
		<tag k="ssr:date" v="2019-12-27" />
		<tag k="ssr:gruppe" v="senkninger" />
		<tag k="ssr:hovedgruppe" v="terreng" />
		<tag k="ssr:stedsnr" v="130943" />
		<tag k="ssr:type" v="dal" />
	</node>
	<node lat="60.87256666740684" lon="5.590447217713832" id="-76041">
		<tag k="bridge" v="yes" />
		<tag k="layer" v="1" />
		<tag k="name" v="Haugsdal Kanal" />
		<tag k="ssr:date" v="2019-12-27" />
		<tag k="ssr:gruppe" v="samferdselsanlegg" />
		<tag k="ssr:hovedgruppe" v="infrastruktur" />
		<tag k="ssr:stedsnr" v="168082" />
		<tag k="ssr:type" v="bru" />
	</node>
	<node lat="60.725671367913264" lon="5.488057123874777" id="-76042">
		<tag k="name" v="Steingardsnipa" />
		<tag k="natural" v="hill" />
		<tag k="place" v="locality" />
		<tag k="ssr:date" v="2019-12-27" />
		<tag k="ssr:gruppe" v="høyder" />
		<tag k="ssr:hovedgruppe" v="terreng" />
		<tag k="ssr:stedsnr" v="169424" />
		<tag k="ssr:type" v="haug" />
	</node>
	<node lat="60.843777781021224" lon="5.323058327676309" id="-76048">
		<tag k="fixme" v="consider natural=peak for the most distinct mountains in the district" />
		<tag k="name" v="Heiane" />
		<tag k="natural" v="hill" />
		<tag k="place" v="locality" />
		<tag k="ssr:date" v="2019-12-27" />
		<tag k="ssr:gruppe" v="høyder" />
		<tag k="ssr:hovedgruppe" v="terreng" />
		<tag k="ssr:stedsnr" v="190548" />
		<tag k="ssr:type" v="ås" />
	</node>
	<node lat="60.95141048691417" lon="5.739841277574216" id="-76052">
		<tag k="name" v="Røyrdalsvatnet" />
		<tag k="natural" v="water" />
		<tag k="ssr:date" v="2019-12-27" />
		<tag k="ssr:gruppe" v="stilleståendeVann" />
		<tag k="ssr:hovedgruppe" v="ferskvann" />
		<tag k="ssr:stedsnr" v="190272" />
		<tag k="ssr:type" v="tjern" />
	</node>
	<node lat="60.9359638881462" lon="5.54519166844694" id="-76053">
		<tag k="fixme" v="consider natural=peak for the most distinct mountains in the district" />
		<tag k="name" v="Grønefjellet" />
		<tag k="natural" v="hill" />
		<tag k="place" v="locality" />
		<tag k="ssr:date" v="2019-12-27" />
		<tag k="ssr:gruppe" v="høyder" />
		<tag k="ssr:hovedgruppe" v="terreng" />
		<tag k="ssr:stedsnr" v="190293" />
		<tag k="ssr:type" v="fjell" />
	</node>
	<node lat="60.92058611531973" lon="5.755086117568598" id="-76056">
		<tag k="name" v="Rundevatnet" />
		<tag k="natural" v="water" />
		<tag k="ssr:date" v="2019-12-27" />
		<tag k="ssr:gruppe" v="stilleståendeVann" />
		<tag k="ssr:hovedgruppe" v="ferskvann" />
		<tag k="ssr:stedsnr" v="190381" />
		<tag k="ssr:type" v="tjern" />
	</node>
	<node lat="60.82868333562749" lon="5.46128333858952" id="-76061">
		<tag k="name" v="Gavlevatnet" />
		<tag k="natural" v="water" />
		<tag k="ssr:date" v="2019-12-27" />
		<tag k="ssr:gruppe" v="stilleståendeVann" />
		<tag k="ssr:hovedgruppe" v="ferskvann" />
		<tag k="ssr:stedsnr" v="190599" />
		<tag k="ssr:type" v="tjern" />
	</node>
	<node lat="60.93380000253707" lon="5.858902782378186" id="-76068">
		<tag k="alt_name" v="Smalevatnet" />
		<tag k="fixme" v="multiple name tags, choose one and add the other to alt_name" />
		<tag k="name" v="Langavatnet;Smalavatnet" />
		<tag k="natural" v="water" />
		<tag k="ssr:date" v="2019-12-27" />
		<tag k="ssr:gruppe" v="stilleståendeVann" />
		<tag k="ssr:hovedgruppe" v="ferskvann" />
		<tag k="ssr:stedsnr" v="190833" />
		<tag k="ssr:type" v="vann" />
		<tag k="water" v="lake" />
	</node>
	<node lat="60.812394445852775" lon="5.408416666586848" id="-76078">
		<tag k="fixme" v="consider natural=peak for the most distinct mountains in the district" />
		<tag k="name" v="Ådneburen" />
		<tag k="natural" v="hill" />
		<tag k="place" v="locality" />
		<tag k="ssr:date" v="2019-12-27" />
		<tag k="ssr:gruppe" v="høyder" />
		<tag k="ssr:hovedgruppe" v="terreng" />
		<tag k="ssr:stedsnr" v="191584" />
		<tag k="ssr:type" v="fjell" />
	</node>
	<node lat="60.91952222302666" lon="5.242783339816477" id="-76082">
		<tag k="fixme" v="consider natural=peak for the most distinct mountains in the district" />
		<tag k="name" v="Bakkeleinane" />
		<tag k="natural" v="hill" />
		<tag k="place" v="locality" />
		<tag k="ssr:date" v="2019-12-27" />
		<tag k="ssr:gruppe" v="høyder" />
		<tag k="ssr:hovedgruppe" v="terreng" />
		<tag k="ssr:stedsnr" v="191845" />
		<tag k="ssr:type" v="ås" />
	</node>
	<node lat="60.83293333038317" lon="5.309072216801372" id="-76127">
		<tag k="bridge" v="yes" />
		<tag k="layer" v="1" />
		<tag k="name" v="Mollandseid" />
		<tag k="ssr:date" v="2019-12-27" />
		<tag k="ssr:gruppe" v="samferdselsanlegg" />
		<tag k="ssr:hovedgruppe" v="infrastruktur" />
		<tag k="ssr:stedsnr" v="290070" />
		<tag k="ssr:type" v="bru" />
	</node>
	<node lat="60.872244445459444" lon="5.354641666485087" id="-76128">
		<tag k="bridge" v="yes" />
		<tag k="layer" v="1" />
		<tag k="name" v="Bergsvik" />
		<tag k="ssr:date" v="2019-12-27" />
		<tag k="ssr:gruppe" v="samferdselsanlegg" />
		<tag k="ssr:hovedgruppe" v="infrastruktur" />
		<tag k="ssr:stedsnr" v="290121" />
		<tag k="ssr:type" v="bru" />
	</node>
	<node lat="60.88679722563594" lon="5.487413887716563" id="-76130">
		<tag k="name" v="Sundenes" />
		<tag k="natural" v="cape" />
		<tag k="ssr:date" v="2019-12-27" />
		<tag k="ssr:gruppe" v="kystkontur" />
		<tag k="ssr:hovedgruppe" v="sjø" />
		<tag k="ssr:stedsnr" v="297401" />
		<tag k="ssr:type" v="nesISjø" />
	</node>
	<node lat="60.83279372262795" lon="5.473917606501386" id="-76136">
		<tag k="name" v="Trolldalsvatnet" />
		<tag k="natural" v="water" />
		<tag k="ssr:date" v="2019-12-27" />
		<tag k="ssr:gruppe" v="stilleståendeVann" />
		<tag k="ssr:hovedgruppe" v="ferskvann" />
		<tag k="ssr:stedsnr" v="311457" />
		<tag k="ssr:type" v="tjern" />
	</node>
	<node lat="60.91223989714358" lon="5.364357684504506" id="-76139">
		<tag k="fixme" v="consider natural=peak for the most distinct mountains in the district" />
		<tag k="name" v="Vardebrekka" />
		<tag k="natural" v="hill" />
		<tag k="place" v="locality" />
		<tag k="ssr:date" v="2019-12-27" />
		<tag k="ssr:gruppe" v="høyder" />
		<tag k="ssr:hovedgruppe" v="terreng" />
		<tag k="ssr:stedsnr" v="311939" />
		<tag k="ssr:type" v="ås" />
	</node>
	<node lat="60.85817221848837" lon="5.139963887211446" id="-76146">
		<tag k="fixme" v="consider natural=peak for the most distinct mountains in the district" />
		<tag k="name" v="Vardefjellet" />
		<tag k="natural" v="hill" />
		<tag k="place" v="locality" />
		<tag k="ssr:date" v="2019-12-27" />
		<tag k="ssr:gruppe" v="høyder" />
		<tag k="ssr:hovedgruppe" v="terreng" />
		<tag k="ssr:stedsnr" v="312500" />
		<tag k="ssr:type" v="fjell" />
	</node>
	<node lat="60.81436388914239" lon="5.527300003961444" id="-76154">
		<tag k="fixme" v="consider natural=peak for the most distinct mountains in the district" />
		<tag k="name" v="Tverrfjellet" />
		<tag k="natural" v="hill" />
		<tag k="place" v="locality" />
		<tag k="ssr:date" v="2019-12-27" />
		<tag k="ssr:gruppe" v="høyder" />
		<tag k="ssr:hovedgruppe" v="terreng" />
		<tag k="ssr:stedsnr" v="312356" />
		<tag k="ssr:type" v="ås" />
	</node>
	<node lat="60.826791663024956" lon="5.226980556788071" id="-76164">
		<tag k="name" v="Baldersvågen" />
		<tag k="natural" v="bay" />
		<tag k="ssr:date" v="2019-12-27" />
		<tag k="ssr:gruppe" v="kystkontur" />
		<tag k="ssr:hovedgruppe" v="sjø" />
		<tag k="ssr:stedsnr" v="312586" />
		<tag k="ssr:type" v="vikISjø" />
	</node>
	<node lat="60.832836112560415" lon="5.4176666606264074" id="-76166">
		<tag k="name" v="Åsheim" />
		<tag k="place" v="farm" />
		<tag k="ssr:date" v="2019-12-27" />
		<tag k="ssr:gruppe" v="gardsbebyggelse" />
		<tag k="ssr:hovedgruppe" v="bebyggelse" />
		<tag k="ssr:stedsnr" v="312592" />
		<tag k="ssr:type" v="bruk" />
	</node>
	<node lat="60.83373670916426" lon="5.39794277041803" id="-76195">
		<tag k="alt_name" v="Klettane" />
		<tag k="fixme" v="consider natural=peak for the most distinct mountains in the district" />
		<tag k="name" v="Litlefjellet" />
		<tag k="natural" v="hill" />
		<tag k="place" v="locality" />
		<tag k="ssr:date" v="2021-06-08" />
		<tag k="ssr:gruppe" v="høyder" />
		<tag k="ssr:hovedgruppe" v="terreng" />
		<tag k="ssr:stedsnr" v="324456" />
		<tag k="ssr:type" v="fjell" />
	</node>
	<node lat="60.82833611489509" lon="5.26465555588353" id="-76222">
		<tag k="name" v="Hamneneset" />
		<tag k="natural" v="cape" />
		<tag k="ssr:date" v="2019-12-27" />
		<tag k="ssr:gruppe" v="kystkontur" />
		<tag k="ssr:hovedgruppe" v="sjø" />
		<tag k="ssr:stedsnr" v="328647" />
		<tag k="ssr:type" v="nesISjø" />
	</node>
	<node lat="60.76315833144744" lon="5.487941672671238" id="-76223">
		<tag k="name" v="Orfallet" />
		<tag k="place" v="locality" />
		<tag k="ssr:date" v="2019-12-27" />
		<tag k="ssr:gruppe" v="terrengdetaljer" />
		<tag k="ssr:hovedgruppe" v="terreng" />
		<tag k="ssr:stedsnr" v="348845" />
		<tag k="ssr:type" v="annenTerrengdetalj" />
	</node>
	<node lat="60.81286111163803" lon="5.305399995208452" id="-76224">
		<tag k="bridge" v="yes" />
		<tag k="layer" v="1" />
		<tag k="name" v="Klenevågen" />
		<tag k="ssr:date" v="2019-12-27" />
		<tag k="ssr:gruppe" v="samferdselsanlegg" />
		<tag k="ssr:hovedgruppe" v="infrastruktur" />
		<tag k="ssr:stedsnr" v="350065" />
		<tag k="ssr:type" v="bru" />
	</node>
	<node lat="60.96213888973217" lon="5.777669438025759" id="-76233">
		<tag k="fixme" v="consider natural=peak for the most distinct mountains in the district" />
		<tag k="name" v="Gygrefjellet" />
		<tag k="natural" v="hill" />
		<tag k="place" v="locality" />
		<tag k="ssr:date" v="2019-12-27" />
		<tag k="ssr:gruppe" v="høyder" />
		<tag k="ssr:hovedgruppe" v="terreng" />
		<tag k="ssr:stedsnr" v="372317" />
		<tag k="ssr:type" v="fjell" />
	</node>
	<node lat="60.82279444909438" lon="5.5020750083451935" id="-76245">
		<tag k="fixme" v="consider natural=peak for the most distinct mountains in the district" />
		<tag k="name" v="Skarpefjellet" />
		<tag k="natural" v="hill" />
		<tag k="place" v="locality" />
		<tag k="ssr:date" v="2019-12-27" />
		<tag k="ssr:gruppe" v="høyder" />
		<tag k="ssr:hovedgruppe" v="terreng" />
		<tag k="ssr:stedsnr" v="372414" />
		<tag k="ssr:type" v="ås" />
	</node>
	<node lat="60.797452523889184" lon="5.484430202233539" id="-76257">
		<tag k="name" v="Austrevatnet" />
		<tag k="natural" v="water" />
		<tag k="ssr:date" v="2019-12-27" />
		<tag k="ssr:gruppe" v="stilleståendeVann" />
		<tag k="ssr:hovedgruppe" v="ferskvann" />
		<tag k="ssr:stedsnr" v="373491" />
		<tag k="ssr:type" v="tjern" />
	</node>
	<node lat="60.75467777542552" lon="5.323469440403623" id="-76299">
		<tag k="name" v="Solberg" />
		<tag k="place" v="farm" />
		<tag k="ssr:date" v="2019-12-27" />
		<tag k="ssr:gruppe" v="gardsbebyggelse" />
		<tag k="ssr:hovedgruppe" v="bebyggelse" />
		<tag k="ssr:stedsnr" v="388155" />
		<tag k="ssr:type" v="bruk" />
	</node>
	<node lat="60.87373055383198" lon="5.583608327637733" id="-76301">
		<tag k="bridge" v="yes" />
		<tag k="layer" v="1" />
		<tag k="name" v="Matredalen" />
		<tag k="ssr:date" v="2019-12-27" />
		<tag k="ssr:gruppe" v="samferdselsanlegg" />
		<tag k="ssr:hovedgruppe" v="infrastruktur" />
		<tag k="ssr:stedsnr" v="411066" />
		<tag k="ssr:type" v="bru" />
	</node>
	<node lat="60.912515010681204" lon="5.557380484341147" id="-76315">
		<tag k="name" v="Hestefjellvatnet" />
		<tag k="natural" v="water" />
		<tag k="ssr:date" v="2019-12-27" />
		<tag k="ssr:gruppe" v="stilleståendeVann" />
		<tag k="ssr:hovedgruppe" v="ferskvann" />
		<tag k="ssr:stedsnr" v="433343" />
		<tag k="ssr:type" v="tjern" />
	</node>
	<node lat="60.916262303089624" lon="5.577629253568696" id="-76316">
		<tag k="name" v="Langavatnet" />
		<tag k="natural" v="water" />
		<tag k="ssr:date" v="2019-12-27" />
		<tag k="ssr:gruppe" v="stilleståendeVann" />
		<tag k="ssr:hovedgruppe" v="ferskvann" />
		<tag k="ssr:stedsnr" v="433344" />
		<tag k="ssr:type" v="tjern" />
	</node>
	<node lat="60.81254444090052" lon="5.598019439341662" id="-76318">
		<tag k="name" v="Høgefjelldalen" />
		<tag k="natural" v="valley" />
		<tag k="place" v="locality" />
		<tag k="ssr:date" v="2019-12-27" />
		<tag k="ssr:gruppe" v="senkninger" />
		<tag k="ssr:hovedgruppe" v="terreng" />
		<tag k="ssr:stedsnr" v="433358" />
		<tag k="ssr:type" v="dal" />
	</node>
	<node lat="60.924244448695774" lon="5.258566665543573" id="-76339">
		<tag k="name" v="Gulateigen" />
		<tag k="place" v="locality" />
		<tag k="ssr:date" v="2019-12-27" />
		<tag k="ssr:gruppe" v="terrengdetaljer" />
		<tag k="ssr:hovedgruppe" v="terreng" />
		<tag k="ssr:stedsnr" v="433900" />
		<tag k="ssr:type" v="annenTerrengdetalj" />
	</node>
	<node lat="60.80275000105395" lon="5.268100003172762" id="-76342">
		<tag k="name" v="Raudberget" />
		<tag k="natural" v="cape" />
		<tag k="ssr:date" v="2019-12-27" />
		<tag k="ssr:gruppe" v="kystkontur" />
		<tag k="ssr:hovedgruppe" v="sjø" />
		<tag k="ssr:stedsnr" v="433936" />
		<tag k="ssr:type" v="nesISjø" />
	</node>
	<node lat="60.887898680722415" lon="5.4646772785616475" id="-76350">
		<tag k="alt_name" v="Solheim" />
		<tag k="amenity" v="place_of_worship" />
		<tag k="denomination" v="lutheran" />
		<tag k="name" v="Solheim kyrkje" />
		<tag k="religion" v="christian" />
		<tag k="ssr:date" v="2021-02-08" />
		<tag k="ssr:gruppe" v="kulturinstitusjoner" />
		<tag k="ssr:hovedgruppe" v="kultur" />
		<tag k="ssr:stedsnr" v="433977" />
		<tag k="ssr:type" v="kirke" />
	</node>
	<node lat="60.78397970513479" lon="5.485089790372081" id="-76352">
		<tag k="fixme" v="consider natural=peak for the most distinct mountains in the district" />
		<tag k="name" v="Horga" />
		<tag k="natural" v="hill" />
		<tag k="place" v="locality" />
		<tag k="ssr:date" v="2019-12-27" />
		<tag k="ssr:gruppe" v="høyder" />
		<tag k="ssr:hovedgruppe" v="terreng" />
		<tag k="ssr:stedsnr" v="434435" />
		<tag k="ssr:type" v="fjell" />
	</node>
	<node lat="60.805435292478286" lon="5.563333011193007" id="-76353">
		<tag k="fixme" v="consider natural=peak for the most distinct mountains in the district" />
		<tag k="name" v="Storefjellet" />
		<tag k="natural" v="hill" />
		<tag k="place" v="locality" />
		<tag k="ssr:date" v="2019-12-27" />
		<tag k="ssr:gruppe" v="høyder" />
		<tag k="ssr:hovedgruppe" v="terreng" />
		<tag k="ssr:stedsnr" v="434444" />
		<tag k="ssr:type" v="ås" />
	</node>
	<node lat="60.91166317005555" lon="5.527890822792435" id="-76459">
		<tag k="layer" v="-1" />
		<tag k="name" v="Sandvik" />
		<tag k="ssr:date" v="2020-01-20" />
		<tag k="ssr:gruppe" v="samferdselsanlegg" />
		<tag k="ssr:hovedgruppe" v="infrastruktur" />
		<tag k="ssr:stedsnr" v="529773" />
		<tag k="ssr:type" v="tunnel" />
		<tag k="tunnel" v="yes" />
	</node>
	<node lat="60.863350003793954" lon="5.514386108853331" id="-76461">
		<tag k="historic" v="shieling" />
		<tag k="name" v="Solheim" />
		<tag k="place" v="isolated_dwelling" />
		<tag k="ssr:date" v="2019-12-27" />
		<tag k="ssr:gruppe" v="gardsbebyggelse" />
		<tag k="ssr:hovedgruppe" v="bebyggelse" />
		<tag k="ssr:stedsnr" v="554344" />
		<tag k="ssr:type" v="seterStøl" />
	</node>
	<node lat="60.88519444201794" lon="5.531994444616938" id="-76464">
		<tag k="name" v="Trodalsleitet" />
		<tag k="natural" v="valley" />
		<tag k="place" v="locality" />
		<tag k="ssr:date" v="2019-12-27" />
		<tag k="ssr:gruppe" v="senkninger" />
		<tag k="ssr:hovedgruppe" v="terreng" />
		<tag k="ssr:stedsnr" v="554358" />
		<tag k="ssr:type" v="dal" />
	</node>
	<node lat="60.91086055732804" lon="5.830043304163676" id="-76466">
		<tag k="name" v="Hjortevatnet" />
		<tag k="natural" v="water" />
		<tag k="ssr:date" v="2020-01-30" />
		<tag k="ssr:gruppe" v="stilleståendeVann" />
		<tag k="ssr:hovedgruppe" v="ferskvann" />
		<tag k="ssr:stedsnr" v="554365" />
		<tag k="ssr:type" v="vann" />
		<tag k="water" v="lake" />
	</node>
	<node lat="60.900175003732265" lon="5.6983527785892925" id="-76467">
		<tag k="fixme" v="consider natural=peak for the most distinct mountains in the district" />
		<tag k="name" v="Litlefjellet" />
		<tag k="natural" v="hill" />
		<tag k="place" v="locality" />
		<tag k="ssr:date" v="2019-12-27" />
		<tag k="ssr:gruppe" v="høyder" />
		<tag k="ssr:hovedgruppe" v="terreng" />
		<tag k="ssr:stedsnr" v="554371" />
		<tag k="ssr:type" v="ås" />
	</node>
	<node lat="60.934469443257065" lon="5.752544446781766" id="-76469">
		<tag k="name" v="Vierbotnen" />
		<tag k="natural" v="valley" />
		<tag k="place" v="locality" />
		<tag k="ssr:date" v="2019-12-27" />
		<tag k="ssr:gruppe" v="senkninger" />
		<tag k="ssr:hovedgruppe" v="terreng" />
		<tag k="ssr:stedsnr" v="554268" />
		<tag k="ssr:type" v="botn" />
	</node>
	<node lat="60.842155542229264" lon="5.641043792401047" id="-76471">
		<tag k="name" v="Nedstevatnet" />
		<tag k="natural" v="water" />
		<tag k="ssr:date" v="2019-12-27" />
		<tag k="ssr:gruppe" v="stilleståendeVann" />
		<tag k="ssr:hovedgruppe" v="ferskvann" />
		<tag k="ssr:stedsnr" v="554418" />
		<tag k="ssr:type" v="tjern" />
	</node>
	<node lat="60.76653105890314" lon="5.481527112992293" id="-76474">
		<tag k="name" v="Storevatnet" />
		<tag k="natural" v="water" />
		<tag k="ssr:date" v="2020-02-13" />
		<tag k="ssr:gruppe" v="stilleståendeVann" />
		<tag k="ssr:hovedgruppe" v="ferskvann" />
		<tag k="ssr:stedsnr" v="554464" />
		<tag k="ssr:type" v="vann" />
		<tag k="water" v="lake" />
	</node>
	<node lat="60.81604444045709" lon="5.203922223195011" id="-76540">
		<tag k="name" v="Skrubbholmen" />
		<tag k="place" v="islet" />
		<tag k="ssr:date" v="2019-12-27" />
		<tag k="ssr:gruppe" v="kystkontur" />
		<tag k="ssr:hovedgruppe" v="sjø" />
		<tag k="ssr:stedsnr" v="570153" />
		<tag k="ssr:type" v="holmeISjø" />
	</node>
	<node lat="60.83760555308913" lon="5.209944450460684" id="-76541">
		<tag k="name" v="Fagrevikbukta" />
		<tag k="natural" v="bay" />
		<tag k="ssr:date" v="2019-12-27" />
		<tag k="ssr:gruppe" v="kystkontur" />
		<tag k="ssr:hovedgruppe" v="sjø" />
		<tag k="ssr:stedsnr" v="570592" />
		<tag k="ssr:type" v="vikISjø" />
	</node>
	<node lat="60.839788892550594" lon="5.308013880885112" id="-76553">
		<tag k="name" v="Gildreneset" />
		<tag k="place" v="locality" />
		<tag k="ssr:date" v="2019-12-27" />
		<tag k="ssr:gruppe" v="gardsbebyggelse" />
		<tag k="ssr:hovedgruppe" v="bebyggelse" />
		<tag k="ssr:stedsnr" v="614586" />
		<tag k="ssr:type" v="eiendom" />
	</node>
	<node lat="60.80132437377649" lon="5.550621326264124" id="-76556">
		<tag k="name" v="Svartevatnet" />
		<tag k="natural" v="water" />
		<tag k="ssr:date" v="2019-12-27" />
		<tag k="ssr:gruppe" v="stilleståendeVann" />
		<tag k="ssr:hovedgruppe" v="ferskvann" />
		<tag k="ssr:stedsnr" v="615467" />
		<tag k="ssr:type" v="tjern" />
	</node>
	<node lat="60.93218611008207" lon="5.575630551478471" id="-76559">
		<tag k="historic" v="shieling" />
		<tag k="name" v="Røyrfiten" />
		<tag k="place" v="isolated_dwelling" />
		<tag k="ssr:date" v="2019-12-27" />
		<tag k="ssr:gruppe" v="gardsbebyggelse" />
		<tag k="ssr:hovedgruppe" v="bebyggelse" />
		<tag k="ssr:stedsnr" v="615230" />
		<tag k="ssr:type" v="seterStøl" />
	</node>
	<node lat="60.928436239500385" lon="5.613203488015345" id="-76562">
		<tag k="name" v="Hopsstølsvatnet" />
		<tag k="natural" v="water" />
		<tag k="ssr:date" v="2019-12-27" />
		<tag k="ssr:gruppe" v="stilleståendeVann" />
		<tag k="ssr:hovedgruppe" v="ferskvann" />
		<tag k="ssr:stedsnr" v="615236" />
		<tag k="ssr:type" v="tjern" />
	</node>
	<node lat="60.92892777657401" lon="5.607666663927124" id="-76563">
		<tag k="historic" v="shieling" />
		<tag k="name" v="Hopsstølen" />
		<tag k="place" v="isolated_dwelling" />
		<tag k="ssr:date" v="2019-12-27" />
		<tag k="ssr:gruppe" v="gardsbebyggelse" />
		<tag k="ssr:hovedgruppe" v="bebyggelse" />
		<tag k="ssr:stedsnr" v="615237" />
		<tag k="ssr:type" v="seterStøl" />
	</node>
	<node lat="60.9535944428794" lon="5.718575004799725" id="-76564">
		<tag k="fixme" v="consider tourism=alpine_hut or tourism=chalet" />
		<tag k="name" v="Stordalen Fjellstove" />
		<tag k="old_name" v="Stordalen fjellstue" />
		<tag k="ssr:date" v="2019-12-27" />
		<tag k="ssr:gruppe" v="næring" />
		<tag k="ssr:hovedgruppe" v="bebyggelse" />
		<tag k="ssr:stedsnr" v="615239" />
		<tag k="ssr:type" v="turisthytte" />
		<tag k="tourism" v="wilderness_hut" />
	</node>
	<node lat="60.874277779516774" lon="5.582633324168755" id="-76573">
		<tag k="name" v="Matre" />
		<tag k="place" v="hamlet" />
		<tag k="ssr:date" v="2019-12-27" />
		<tag k="ssr:gruppe" v="bebyggelsesområder" />
		<tag k="ssr:hovedgruppe" v="bebyggelse" />
		<tag k="ssr:stedsnr" v="615293" />
		<tag k="ssr:type" v="grend" />
	</node>
	<node lat="60.80730833083949" lon="5.236361104257225" id="-76588">
		<tag k="name" v="Herøyosen" />
		<tag k="natural" v="strait" />
		<tag k="ssr:date" v="2019-12-27" />
		<tag k="ssr:gruppe" v="kystkontur" />
		<tag k="ssr:hovedgruppe" v="sjø" />
		<tag k="ssr:stedsnr" v="615935" />
		<tag k="ssr:type" v="sundISjø" />
	</node>
	<node lat="60.775477781045275" lon="5.305769441774897" id="-76592">
		<tag k="fixme" v="consider natural=peak for the most distinct mountains in the district" />
		<tag k="name" v="Kvamsfjellet" />
		<tag k="natural" v="hill" />
		<tag k="place" v="locality" />
		<tag k="ssr:date" v="2019-12-27" />
		<tag k="ssr:gruppe" v="høyder" />
		<tag k="ssr:hovedgruppe" v="terreng" />
		<tag k="ssr:stedsnr" v="615944" />
		<tag k="ssr:type" v="fjell" />
	</node>
	<node lat="60.86178610698739" lon="5.319294444179037" id="-76593">
		<tag k="name" v="Såta" />
		<tag k="natural" v="hill" />
		<tag k="place" v="locality" />
		<tag k="ssr:date" v="2019-12-27" />
		<tag k="ssr:gruppe" v="høyder" />
		<tag k="ssr:hovedgruppe" v="terreng" />
		<tag k="ssr:stedsnr" v="615960" />
		<tag k="ssr:type" v="haug" />
	</node>
	<node lat="60.91953333702174" lon="5.7633472193485895" id="-76641">
		<tag k="name" v="Stølsheimen" />
		<tag k="natural" v="mountain_range" />
		<tag k="ssr:date" v="2019-12-27" />
		<tag k="ssr:gruppe" v="terrengområder" />
		<tag k="ssr:hovedgruppe" v="terreng" />
		<tag k="ssr:stedsnr" v="631207" />
		<tag k="ssr:type" v="fjellområde" />
	</node>
	<node lat="60.80048911753294" lon="5.305589294033149" id="-76642">
		<tag k="fixme" v="consider place=hamlet" />
		<tag k="name" v="Masfjordnes" />
		<tag k="place" v="village" />
		<tag k="ssr:date" v="2019-12-27" />
		<tag k="ssr:gruppe" v="bebyggelsesområder" />
		<tag k="ssr:hovedgruppe" v="bebyggelse" />
		<tag k="ssr:stedsnr" v="631165" />
		<tag k="ssr:type" v="bygdelagBygd" />
	</node>
	<node lat="60.84568333519626" lon="5.178722227794153" id="-76643">
		<tag k="name" v="Hellevika" />
		<tag k="place" v="farm" />
		<tag k="ssr:date" v="2019-12-27" />
		<tag k="ssr:gruppe" v="gardsbebyggelse" />
		<tag k="ssr:hovedgruppe" v="bebyggelse" />
		<tag k="ssr:stedsnr" v="631654" />
		<tag k="ssr:type" v="bruk" />
	</node>
	<node lat="60.778413887224715" lon="5.276247214154058" id="-76644">
		<tag k="name" v="Jetmundshammaren" />
		<tag k="natural" v="cape" />
		<tag k="ssr:date" v="2019-12-27" />
		<tag k="ssr:gruppe" v="kystkontur" />
		<tag k="ssr:hovedgruppe" v="sjø" />
		<tag k="ssr:stedsnr" v="631966" />
		<tag k="ssr:type" v="nesISjø" />
	</node>
	<node lat="60.933131387340204" lon="5.499523997114948" id="-76645">
		<tag k="alt_name" v="Jernfjell;Jernfjell 1" />
		<tag k="layer" v="-1" />
		<tag k="name" v="Jernfjelltunnelen" />
		<tag k="ssr:date" v="2020-01-13" />
		<tag k="ssr:gruppe" v="samferdselsanlegg" />
		<tag k="ssr:hovedgruppe" v="infrastruktur" />
		<tag k="ssr:stedsnr" v="634854" />
		<tag k="ssr:type" v="tunnel" />
		<tag k="tunnel" v="yes" />
	</node>
	<node lat="60.83493036619181" lon="5.249283167984772" id="-76646">
		<tag k="layer" v="-1" />
		<tag k="name" v="Hosteland" />
		<tag k="ssr:date" v="2020-01-10" />
		<tag k="ssr:gruppe" v="samferdselsanlegg" />
		<tag k="ssr:hovedgruppe" v="infrastruktur" />
		<tag k="ssr:stedsnr" v="651525" />
		<tag k="ssr:type" v="tunnel" />
		<tag k="tunnel" v="yes" />
	</node>
	<node lat="60.741586107206686" lon="5.396383333354191" id="-76647">
		<tag k="bridge" v="yes" />
		<tag k="layer" v="1" />
		<tag k="name" v="Kvingo" />
		<tag k="ssr:date" v="2019-12-27" />
		<tag k="ssr:gruppe" v="samferdselsanlegg" />
		<tag k="ssr:hovedgruppe" v="infrastruktur" />
		<tag k="ssr:stedsnr" v="654045" />
		<tag k="ssr:type" v="bru" />
	</node>
	<node lat="60.87246944034942" lon="5.590363885711079" id="-76648">
		<tag k="bridge" v="yes" />
		<tag k="layer" v="1" />
		<tag k="name" v="Matre Kanal" />
		<tag k="ssr:date" v="2019-12-27" />
		<tag k="ssr:gruppe" v="samferdselsanlegg" />
		<tag k="ssr:hovedgruppe" v="infrastruktur" />
		<tag k="ssr:stedsnr" v="654047" />
		<tag k="ssr:type" v="bru" />
	</node>
	<node lat="60.87503333317675" lon="5.587191665962107" id="-76649">
		<tag k="bridge" v="yes" />
		<tag k="layer" v="1" />
		<tag k="name" v="Matre Knuseverk" />
		<tag k="ssr:date" v="2019-12-27" />
		<tag k="ssr:gruppe" v="samferdselsanlegg" />
		<tag k="ssr:hovedgruppe" v="infrastruktur" />
		<tag k="ssr:stedsnr" v="654049" />
		<tag k="ssr:type" v="bru" />
	</node>
	<node lat="60.9152638910656" lon="5.531852782600238" id="-76650">
		<tag k="bridge" v="yes" />
		<tag k="layer" v="1" />
		<tag k="name" v="Juvik" />
		<tag k="ssr:date" v="2019-12-27" />
		<tag k="ssr:gruppe" v="samferdselsanlegg" />
		<tag k="ssr:hovedgruppe" v="infrastruktur" />
		<tag k="ssr:stedsnr" v="654057" />
		<tag k="ssr:type" v="bru" />
	</node>
	<node lat="60.876463877862584" lon="5.56327982623719" id="-76652">
		<tag k="layer" v="-1" />
		<tag k="name" v="Matrebergtunnelen" />
		<tag k="ssr:date" v="2020-01-16" />
		<tag k="ssr:gruppe" v="samferdselsanlegg" />
		<tag k="ssr:hovedgruppe" v="infrastruktur" />
		<tag k="ssr:stedsnr" v="711360" />
		<tag k="ssr:type" v="tunnel" />
		<tag k="tunnel" v="yes" />
	</node>
	<node lat="60.88418610937009" lon="5.236594450673159" id="-76653">
		<tag k="bridge" v="yes" />
		<tag k="layer" v="1" />
		<tag k="name" v="Sagelv" />
		<tag k="ssr:date" v="2019-12-27" />
		<tag k="ssr:gruppe" v="samferdselsanlegg" />
		<tag k="ssr:hovedgruppe" v="infrastruktur" />
		<tag k="ssr:stedsnr" v="715063" />
		<tag k="ssr:type" v="bru" />
	</node>
	<node lat="60.908061112018494" lon="5.526450002220669" id="-76654">
		<tag k="bridge" v="yes" />
		<tag k="layer" v="1" />
		<tag k="name" v="Haugsvær" />
		<tag k="ssr:date" v="2019-12-27" />
		<tag k="ssr:gruppe" v="samferdselsanlegg" />
		<tag k="ssr:hovedgruppe" v="infrastruktur" />
		<tag k="ssr:stedsnr" v="715065" />
		<tag k="ssr:type" v="bru" />
	</node>
	<node lat="60.88945278017925" lon="5.226597213524122" id="-76655">
		<tag k="bridge" v="yes" />
		<tag k="layer" v="1" />
		<tag k="name" v="Sleire" />
		<tag k="ssr:date" v="2019-12-27" />
		<tag k="ssr:gruppe" v="samferdselsanlegg" />
		<tag k="ssr:hovedgruppe" v="infrastruktur" />
		<tag k="ssr:stedsnr" v="715081" />
		<tag k="ssr:type" v="bru" />
	</node>
	<node lat="60.72767222200846" lon="5.473141662685397" id="-76656">
		<tag k="name" v="Rundehøyen" />
		<tag k="natural" v="hill" />
		<tag k="place" v="locality" />
		<tag k="ssr:date" v="2019-12-27" />
		<tag k="ssr:gruppe" v="høyder" />
		<tag k="ssr:hovedgruppe" v="terreng" />
		<tag k="ssr:stedsnr" v="715447" />
		<tag k="ssr:type" v="haug" />
	</node>
	<node lat="60.88780277665364" lon="5.6411555557201725" id="-76673">
		<tag k="fixme" v="consider natural=peak for the most distinct mountains in the district" />
		<tag k="name" v="Gråsida" />
		<tag k="natural" v="hill" />
		<tag k="place" v="locality" />
		<tag k="ssr:date" v="2019-12-27" />
		<tag k="ssr:gruppe" v="høyder" />
		<tag k="ssr:hovedgruppe" v="terreng" />
		<tag k="ssr:stedsnr" v="736946" />
		<tag k="ssr:type" v="fjell" />
	</node>
	<node lat="60.75546634202162" lon="5.4758165538180545" id="-76676">
		<tag k="name" v="Klefjellvatna" />
		<tag k="natural" v="water" />
		<tag k="ssr:date" v="2020-08-21" />
		<tag k="ssr:gruppe" v="stilleståendeVann" />
		<tag k="ssr:hovedgruppe" v="ferskvann" />
		<tag k="ssr:stedsnr" v="736055" />
		<tag k="ssr:type" v="gruppeAvVann" />
		<tag k="water" v="lake" />
	</node>
	<node lat="60.9595815889121" lon="5.5937834653523515" id="-76677">
		<tag k="name" v="Holmevatnet" />
		<tag k="natural" v="water" />
		<tag k="ssr:date" v="2020-02-27" />
		<tag k="ssr:gruppe" v="stilleståendeVann" />
		<tag k="ssr:hovedgruppe" v="ferskvann" />
		<tag k="ssr:stedsnr" v="736301" />
		<tag k="ssr:type" v="vann" />
		<tag k="water" v="lake" />
	</node>
	<node lat="60.86350870787431" lon="5.209988492859987" id="-76678">
		<tag k="alt_name" v="Frøyset" />
		<tag k="amenity" v="place_of_worship" />
		<tag k="denomination" v="lutheran" />
		<tag k="name" v="Frøyset kyrkje" />
		<tag k="religion" v="christian" />
		<tag k="ssr:date" v="2021-02-08" />
		<tag k="ssr:gruppe" v="kulturinstitusjoner" />
		<tag k="ssr:hovedgruppe" v="kultur" />
		<tag k="ssr:stedsnr" v="736492" />
		<tag k="ssr:type" v="kirke" />
	</node>
	<node lat="60.83336367319165" lon="5.4616296821120045" id="-76688">
		<tag k="name" v="Krokevatnet" />
		<tag k="natural" v="water" />
		<tag k="ssr:date" v="2019-12-27" />
		<tag k="ssr:gruppe" v="stilleståendeVann" />
		<tag k="ssr:hovedgruppe" v="ferskvann" />
		<tag k="ssr:stedsnr" v="736582" />
		<tag k="ssr:type" v="tjern" />
	</node>
	<node lat="60.81533611081782" lon="5.268822220364493" id="-76689">
		<tag k="name" v="Holsnøyni" />
		<tag k="place" v="isolated_dwelling" />
		<tag k="ssr:date" v="2019-12-27" />
		<tag k="ssr:gruppe" v="bolighus" />
		<tag k="ssr:hovedgruppe" v="bebyggelse" />
		<tag k="ssr:stedsnr" v="736587" />
		<tag k="ssr:type" v="eneboligMindreBoligbygg" />
	</node>
	<node lat="60.85156279680699" lon="5.699813504166893" id="-76772">
		<tag k="name" v="Nedste Godbotsfossen" />
		<tag k="natural" v="waterfall" />
		<tag k="ssr:date" v="2020-06-05" />
		<tag k="ssr:gruppe" v="rennendeVann" />
		<tag k="ssr:hovedgruppe" v="ferskvann" />
		<tag k="ssr:stedsnr" v="773034" />
		<tag k="ssr:type" v="foss" />
	</node>
	<node lat="60.8515722258952" lon="5.514463896732623" id="-76773">
		<tag k="bridge" v="yes" />
		<tag k="layer" v="1" />
		<tag k="name" v="Haugsdal" />
		<tag k="ssr:date" v="2019-12-27" />
		<tag k="ssr:gruppe" v="samferdselsanlegg" />
		<tag k="ssr:hovedgruppe" v="infrastruktur" />
		<tag k="ssr:stedsnr" v="775068" />
		<tag k="ssr:type" v="bru" />
	</node>
	<node lat="60.872411108610166" lon="5.210049995730275" id="-76775">
		<tag k="bridge" v="yes" />
		<tag k="layer" v="1" />
		<tag k="name" v="Kjærdalen" />
		<tag k="ssr:date" v="2019-12-27" />
		<tag k="ssr:gruppe" v="samferdselsanlegg" />
		<tag k="ssr:hovedgruppe" v="infrastruktur" />
		<tag k="ssr:stedsnr" v="775073" />
		<tag k="ssr:type" v="bru" />
	</node>
	<node lat="60.91359999717595" lon="5.220088889397131" id="-76776">
		<tag k="name" v="Dalen" />
		<tag k="place" v="isolated_dwelling" />
		<tag k="ssr:date" v="2019-12-27" />
		<tag k="ssr:gruppe" v="bolighus" />
		<tag k="ssr:hovedgruppe" v="bebyggelse" />
		<tag k="ssr:stedsnr" v="797878" />
		<tag k="ssr:type" v="fritidsbolig" />
	</node>
	<node lat="60.85123332896723" lon="5.342983331154677" id="-76779">
		<tag k="name" v="Lauvvikneset" />
		<tag k="natural" v="cape" />
		<tag k="ssr:date" v="2019-12-27" />
		<tag k="ssr:gruppe" v="kystkontur" />
		<tag k="ssr:hovedgruppe" v="sjø" />
		<tag k="ssr:stedsnr" v="797959" />
		<tag k="ssr:type" v="nesISjø" />
	</node>
	<node lat="60.94372777751741" lon="5.74373333771225" id="-76786">
		<tag k="fixme" v="consider natural=peak for the most distinct mountains in the district" />
		<tag k="name" v="Røyrdalsfjellet" />
		<tag k="natural" v="hill" />
		<tag k="place" v="locality" />
		<tag k="ssr:date" v="2019-12-27" />
		<tag k="ssr:gruppe" v="høyder" />
		<tag k="ssr:hovedgruppe" v="terreng" />
		<tag k="ssr:stedsnr" v="797264" />
		<tag k="ssr:type" v="fjell" />
	</node>
	<node lat="60.95600833033202" lon="5.63618056067658" id="-76789">
		<tag k="name" v="Bjørnshidalen" />
		<tag k="natural" v="valley" />
		<tag k="place" v="locality" />
		<tag k="ssr:date" v="2019-12-27" />
		<tag k="ssr:gruppe" v="senkninger" />
		<tag k="ssr:hovedgruppe" v="terreng" />
		<tag k="ssr:stedsnr" v="797288" />
		<tag k="ssr:type" v="dal" />
	</node>
	<node lat="60.97847777672839" lon="5.755727783822681" id="-76790">
		<tag k="name" v="Spongavatnet" />
		<tag k="natural" v="water" />
		<tag k="ssr:date" v="2020-06-05" />
		<tag k="ssr:gruppe" v="stilleståendeVann" />
		<tag k="ssr:hovedgruppe" v="ferskvann" />
		<tag k="ssr:stedsnr" v="797297" />
		<tag k="ssr:type" v="vann" />
		<tag k="water" v="lake" />
	</node>
	<node lat="60.888069443526625" lon="5.471649991968971" id="-76791">
		<tag k="name" v="Solheim" />
		<tag k="place" v="hamlet" />
		<tag k="ssr:date" v="2019-12-27" />
		<tag k="ssr:gruppe" v="bebyggelsesområder" />
		<tag k="ssr:hovedgruppe" v="bebyggelse" />
		<tag k="ssr:stedsnr" v="797323" />
		<tag k="ssr:type" v="grend" />
	</node>
	<node lat="60.76469444577069" lon="5.387944446559892" id="-76795">
		<tag k="name" v="Fredheim" />
		<tag k="place" v="farm" />
		<tag k="ssr:date" v="2019-12-27" />
		<tag k="ssr:gruppe" v="gardsbebyggelse" />
		<tag k="ssr:hovedgruppe" v="bebyggelse" />
		<tag k="ssr:stedsnr" v="797723" />
		<tag k="ssr:type" v="bruk" />
	</node>
	<node lat="60.890437157613356" lon="5.819413275451421" id="-76798">
		<tag k="name" v="Svartavatnet" />
		<tag k="natural" v="water" />
		<tag k="ssr:date" v="2020-01-30" />
		<tag k="ssr:gruppe" v="stilleståendeVann" />
		<tag k="ssr:hovedgruppe" v="ferskvann" />
		<tag k="ssr:stedsnr" v="797328" />
		<tag k="ssr:type" v="vann" />
		<tag k="water" v="lake" />
	</node>
	<node lat="60.907847785023144" lon="5.679410633468247" id="-76799">
		<tag k="fixme" v="consider place=hamlet" />
		<tag k="name" v="Kringlebotnen" />
		<tag k="place" v="farm" />
		<tag k="ssr:date" v="2019-12-27" />
		<tag k="ssr:gruppe" v="gardsbebyggelse" />
		<tag k="ssr:hovedgruppe" v="bebyggelse" />
		<tag k="ssr:stedsnr" v="797336" />
		<tag k="ssr:type" v="gard" />
	</node>
	<node lat="60.88785278129688" lon="5.164205559906644" id="-76809">
		<tag k="fixme" v="consider natural=peak for the most distinct mountains in the district" />
		<tag k="name" v="Hiskletten" />
		<tag k="natural" v="hill" />
		<tag k="place" v="locality" />
		<tag k="ssr:date" v="2019-12-27" />
		<tag k="ssr:gruppe" v="høyder" />
		<tag k="ssr:hovedgruppe" v="terreng" />
		<tag k="ssr:stedsnr" v="797937" />
		<tag k="ssr:type" v="ås" />
	</node>
	<node lat="60.78823888913302" lon="5.476669450979654" id="-76811">
		<tag k="name" v="Svartevatnet" />
		<tag k="natural" v="water" />
		<tag k="ssr:date" v="2019-12-27" />
		<tag k="ssr:gruppe" v="stilleståendeVann" />
		<tag k="ssr:hovedgruppe" v="ferskvann" />
		<tag k="ssr:stedsnr" v="798439" />
		<tag k="ssr:type" v="tjern" />
	</node>
	<node lat="60.78961944143261" lon="5.5002750085745555" id="-76812">
		<tag k="name" v="Hagekupkulten" />
		<tag k="natural" v="hill" />
		<tag k="place" v="locality" />
		<tag k="ssr:date" v="2019-12-27" />
		<tag k="ssr:gruppe" v="høyder" />
		<tag k="ssr:hovedgruppe" v="terreng" />
		<tag k="ssr:stedsnr" v="798440" />
		<tag k="ssr:type" v="haug" />
	</node>
	<node lat="60.812170821060484" lon="5.453673452863838" id="-76813">
		<tag k="name" v="Sørlivatnet" />
		<tag k="natural" v="water" />
		<tag k="ssr:date" v="2019-12-27" />
		<tag k="ssr:gruppe" v="stilleståendeVann" />
		<tag k="ssr:hovedgruppe" v="ferskvann" />
		<tag k="ssr:stedsnr" v="798588" />
		<tag k="ssr:type" v="tjern" />
	</node>
	<node lat="60.81298333168577" lon="5.436577778273478" id="-76814">
		<tag k="name" v="Raunebotnen" />
		<tag k="natural" v="valley" />
		<tag k="place" v="locality" />
		<tag k="ssr:date" v="2019-12-27" />
		<tag k="ssr:gruppe" v="senkninger" />
		<tag k="ssr:hovedgruppe" v="terreng" />
		<tag k="ssr:stedsnr" v="798589" />
		<tag k="ssr:type" v="botn" />
	</node>
	<node lat="60.90990000365165" lon="5.483886106220129" id="-76850">
		<tag k="bridge" v="yes" />
		<tag k="layer" v="1" />
		<tag k="name" v="Furubotn" />
		<tag k="ssr:date" v="2019-12-27" />
		<tag k="ssr:gruppe" v="samferdselsanlegg" />
		<tag k="ssr:hovedgruppe" v="infrastruktur" />
		<tag k="ssr:stedsnr" v="836051" />
		<tag k="ssr:type" v="bru" />
	</node>
	<node lat="60.94722777362525" lon="5.686716674138339" id="-76851">
		<tag k="bridge" v="yes" />
		<tag k="layer" v="1" />
		<tag k="name" v="Kleivhølen" />
		<tag k="ssr:date" v="2019-12-27" />
		<tag k="ssr:gruppe" v="samferdselsanlegg" />
		<tag k="ssr:hovedgruppe" v="infrastruktur" />
		<tag k="ssr:stedsnr" v="836054" />
		<tag k="ssr:type" v="bru" />
	</node>
	<node lat="60.93652500347534" lon="5.594686103107618" id="-76862">
		<tag k="name" v="Gavlen" />
		<tag k="natural" v="ridge" />
		<tag k="place" v="locality" />
		<tag k="ssr:date" v="2019-12-27" />
		<tag k="ssr:gruppe" v="høyder" />
		<tag k="ssr:hovedgruppe" v="terreng" />
		<tag k="ssr:stedsnr" v="858247" />
		<tag k="ssr:type" v="rygg" />
	</node>
	<node lat="60.91960555923266" lon="5.296038893225484" id="-76870">
		<tag k="fixme" v="consider natural=peak for the most distinct mountains in the district" />
		<tag k="name" v="Transnuten" />
		<tag k="natural" v="hill" />
		<tag k="place" v="locality" />
		<tag k="ssr:date" v="2019-12-27" />
		<tag k="ssr:gruppe" v="høyder" />
		<tag k="ssr:hovedgruppe" v="terreng" />
		<tag k="ssr:stedsnr" v="858898" />
		<tag k="ssr:type" v="fjell" />
	</node>
	<node lat="60.92813561686041" lon="5.691092402629605" id="-76874">
		<tag k="name" v="Skjerjevatnet" />
		<tag k="natural" v="water" />
		<tag k="ssr:date" v="2019-12-27" />
		<tag k="ssr:gruppe" v="stilleståendeVann" />
		<tag k="ssr:hovedgruppe" v="ferskvann" />
		<tag k="ssr:stedsnr" v="858265" />
		<tag k="ssr:type" v="tjern" />
	</node>
	<node lat="60.95933055879994" lon="5.76921111448389" id="-76875">
		<tag k="name" v="Gygrevatnet" />
		<tag k="natural" v="water" />
		<tag k="ssr:date" v="2019-12-27" />
		<tag k="ssr:gruppe" v="stilleståendeVann" />
		<tag k="ssr:hovedgruppe" v="ferskvann" />
		<tag k="ssr:stedsnr" v="858270" />
		<tag k="ssr:type" v="tjern" />
	</node>
	<node lat="60.86819043433291" lon="5.6440733109701915" id="-76876">
		<tag k="name" v="Kvernhusvatnet" />
		<tag k="natural" v="water" />
		<tag k="ssr:date" v="2019-12-27" />
		<tag k="ssr:gruppe" v="stilleståendeVann" />
		<tag k="ssr:hovedgruppe" v="ferskvann" />
		<tag k="ssr:stedsnr" v="858332" />
		<tag k="ssr:type" v="tjern" />
	</node>
	<node lat="60.898369441199044" lon="5.675461114820387" id="-76879">
		<tag k="name" v="Krokvatnet" />
		<tag k="natural" v="water" />
		<tag k="ssr:date" v="2019-12-27" />
		<tag k="ssr:gruppe" v="stilleståendeVann" />
		<tag k="ssr:hovedgruppe" v="ferskvann" />
		<tag k="ssr:stedsnr" v="858362" />
		<tag k="ssr:type" v="tjern" />
	</node>
	<node lat="60.86971574125441" lon="5.751655489226973" id="-76882">
		<tag k="name" v="Storavatnet" />
		<tag k="natural" v="water" />
		<tag k="ssr:date" v="2020-01-30" />
		<tag k="ssr:gruppe" v="stilleståendeVann" />
		<tag k="ssr:hovedgruppe" v="ferskvann" />
		<tag k="ssr:stedsnr" v="858454" />
		<tag k="ssr:type" v="vann" />
		<tag k="water" v="lake" />
	</node>
	<node lat="60.859958332993216" lon="5.313641659991089" id="-76885">
		<tag k="name" v="Kupa" />
		<tag k="natural" v="valley" />
		<tag k="place" v="locality" />
		<tag k="ssr:date" v="2019-12-27" />
		<tag k="ssr:gruppe" v="senkninger" />
		<tag k="ssr:hovedgruppe" v="terreng" />
		<tag k="ssr:stedsnr" v="858536" />
		<tag k="ssr:type" v="botn" />
	</node>
	<node lat="60.917825000471154" lon="5.267719445551536" id="-76892">
		<tag k="fixme" v="consider natural=peak for the most distinct mountains in the district" />
		<tag k="name" v="Tverrfjellet" />
		<tag k="natural" v="hill" />
		<tag k="place" v="locality" />
		<tag k="ssr:date" v="2019-12-27" />
		<tag k="ssr:gruppe" v="høyder" />
		<tag k="ssr:hovedgruppe" v="terreng" />
		<tag k="ssr:stedsnr" v="858955" />
		<tag k="ssr:type" v="ås" />
	</node>
	<node lat="60.81499722547171" lon="5.147069447634777" id="-76929">
		<tag k="fixme" v="consider seamark:type=rock or natural=shoal" />
		<tag k="name" v="Krabbeskjeret" />
		<tag k="place" v="islet" />
		<tag k="ssr:date" v="2019-12-27" />
		<tag k="ssr:gruppe" v="grunnerISjø" />
		<tag k="ssr:hovedgruppe" v="sjø" />
		<tag k="ssr:stedsnr" v="874960" />
		<tag k="ssr:type" v="skjærISjø" />
	</node>
	<node lat="60.74299722293175" lon="5.392391662787007" id="-76931">
		<tag k="fixme" v="consider place=hamlet" />
		<tag k="name" v="Kvingo" />
		<tag k="place" v="village" />
		<tag k="ssr:date" v="2019-12-27" />
		<tag k="ssr:gruppe" v="bebyggelsesområder" />
		<tag k="ssr:hovedgruppe" v="bebyggelse" />
		<tag k="ssr:stedsnr" v="954165" />
		<tag k="ssr:type" v="bygdelagBygd" />
	</node>
	<node lat="60.958383335846136" lon="5.697969445461252" id="-76933">
		<tag k="bridge" v="yes" />
		<tag k="layer" v="1" />
		<tag k="name" v="Hellebotn" />
		<tag k="ssr:date" v="2019-12-27" />
		<tag k="ssr:gruppe" v="samferdselsanlegg" />
		<tag k="ssr:hovedgruppe" v="infrastruktur" />
		<tag k="ssr:stedsnr" v="957068" />
		<tag k="ssr:type" v="bru" />
	</node>
	<node lat="60.91616944434543" lon="5.531488896627836" id="-76934">
		<tag k="bridge" v="yes" />
		<tag k="layer" v="1" />
		<tag k="name" v="Hopeelva" />
		<tag k="ssr:date" v="2019-12-27" />
		<tag k="ssr:gruppe" v="samferdselsanlegg" />
		<tag k="ssr:hovedgruppe" v="infrastruktur" />
		<tag k="ssr:stedsnr" v="957072" />
		<tag k="ssr:type" v="bru" />
	</node>
	<node lat="60.86223332900097" lon="5.526277780388649" id="-76935">
		<tag k="bridge" v="yes" />
		<tag k="layer" v="1" />
		<tag k="name" v="Kalvikneset" />
		<tag k="ssr:date" v="2019-12-27" />
		<tag k="ssr:gruppe" v="samferdselsanlegg" />
		<tag k="ssr:hovedgruppe" v="infrastruktur" />
		<tag k="ssr:stedsnr" v="957075" />
		<tag k="ssr:type" v="bru" />
	</node>
	<node lat="60.75379032917629" lon="5.469664761738347" id="-76938">
		<tag k="name" v="Ytre Klefjellvatnet" />
		<tag k="natural" v="water" />
		<tag k="ssr:date" v="2019-12-27" />
		<tag k="ssr:gruppe" v="stilleståendeVann" />
		<tag k="ssr:hovedgruppe" v="ferskvann" />
		<tag k="ssr:stedsnr" v="991074" />
		<tag k="ssr:type" v="vann" />
		<tag k="water" v="lake" />
	</node>
	<node lat="60.90833653724692" lon="5.227381276420944" id="-76939">
		<tag k="name" v="Gygra" />
		<tag k="natural" v="gorge" />
		<tag k="ssr:date" v="2019-12-27" />
		<tag k="ssr:gruppe" v="senkninger" />
		<tag k="ssr:hovedgruppe" v="terreng" />
		<tag k="ssr:stedsnr" v="1071944" />
		<tag k="ssr:type" v="juv" />
	</node>
	<node lat="60.81287569260568" lon="5.26191353901052" id="-76940">
		<tag k="name" v="Stemmetjørn" />
		<tag k="natural" v="water" />
		<tag k="ssr:date" v="2019-12-27" />
		<tag k="ssr:gruppe" v="stilleståendeVann" />
		<tag k="ssr:hovedgruppe" v="ferskvann" />
		<tag k="ssr:stedsnr" v="1071945" />
		<tag k="ssr:type" v="tjern" />
	</node>
	<node lat="60.72910653971096" lon="5.383307505547483" id="-76941">
		<tag k="name" v="Melshovdneset" />
		<tag k="natural" v="cape" />
		<tag k="ssr:date" v="2019-12-27" />
		<tag k="ssr:gruppe" v="kystkontur" />
		<tag k="ssr:hovedgruppe" v="sjø" />
		<tag k="ssr:stedsnr" v="1072201" />
		<tag k="ssr:type" v="nesISjø" />
	</node>
	<node lat="60.83256117563982" lon="5.309989200695286" id="-76942">
		<tag k="name" v="Mollandseidet" />
		<tag k="place" v="locality" />
		<tag k="ssr:date" v="2019-12-27" />
		<tag k="ssr:gruppe" v="ferskvannskontur" />
		<tag k="ssr:hovedgruppe" v="ferskvann" />
		<tag k="ssr:stedsnr" v="1072202" />
		<tag k="ssr:type" v="eid" />
	</node>
	<node lat="60.87868840149733" lon="5.378677743029151" id="-76944">
		<tag k="layer" v="-1" />
		<tag k="name" v="Eikemofosstunnelen" />
		<tag k="ssr:date" v="2020-12-22" />
		<tag k="ssr:gruppe" v="samferdselsanlegg" />
		<tag k="ssr:hovedgruppe" v="infrastruktur" />
		<tag k="ssr:stedsnr" v="1079461" />
		<tag k="ssr:type" v="tunnel" />
		<tag k="tunnel" v="yes" />
	</node>
</osm>
