<?xml version="1.0" encoding="UTF-8"?>
<osm version="0.6" generator="osmapis">
	<node lat="60.09451563194217" lon="11.041484717635461" id="-18846">
		<tag k="fixme" v="consider place=hamlet" />
		<tag k="name" v="Ljøreggen" />
		<tag k="place" v="farm" />
		<tag k="ssr:date" v="2020-10-05" />
		<tag k="ssr:gruppe" v="gardsbebyggelse" />
		<tag k="ssr:hovedgruppe" v="bebyggelse" />
		<tag k="ssr:stedsnr" v="5480" />
		<tag k="ssr:type" v="gard" />
	</node>
	<node lat="60.1079749987941" lon="11.0369805607424" id="-18847">
		<tag k="name" v="Oddeggen" />
		<tag k="place" v="farm" />
		<tag k="ssr:date" v="2019-12-27" />
		<tag k="ssr:gruppe" v="gardsbebyggelse" />
		<tag k="ssr:hovedgruppe" v="bebyggelse" />
		<tag k="ssr:stedsnr" v="6605" />
		<tag k="ssr:type" v="bruk" />
	</node>
	<node lat="60.10069999674229" lon="10.94603889290419" id="-18848">
		<tag k="name" v="Prestfossen" />
		<tag k="natural" v="waterfall" />
		<tag k="ssr:date" v="2019-12-27" />
		<tag k="ssr:gruppe" v="rennendeVann" />
		<tag k="ssr:hovedgruppe" v="ferskvann" />
		<tag k="ssr:stedsnr" v="6622" />
		<tag k="ssr:type" v="foss" />
	</node>
	<node lat="60.04206010645056" lon="11.04562678459895" id="-18849">
		<tag k="fixme" v="consider place=hamlet" />
		<tag k="name" v="Gauterud" />
		<tag k="place" v="farm" />
		<tag k="ssr:date" v="2020-10-05" />
		<tag k="ssr:gruppe" v="gardsbebyggelse" />
		<tag k="ssr:hovedgruppe" v="bebyggelse" />
		<tag k="ssr:stedsnr" v="66418" />
		<tag k="ssr:type" v="gard" />
	</node>
	<node lat="60.10549882533294" lon="10.989152332521524" id="-18850">
		<tag k="alt_name" v="Trolsnes" />
		<tag k="fixme" v="consider place=hamlet" />
		<tag k="name" v="Trollsnes" />
		<tag k="place" v="farm" />
		<tag k="ssr:date" v="2020-10-05" />
		<tag k="ssr:gruppe" v="gardsbebyggelse" />
		<tag k="ssr:hovedgruppe" v="bebyggelse" />
		<tag k="ssr:stedsnr" v="66560" />
		<tag k="ssr:type" v="gard" />
	</node>
	<node lat="60.10757364621982" lon="11.048930784517648" id="-18851">
		<tag k="fixme" v="consider place=hamlet" />
		<tag k="name" v="Kjærstad" />
		<tag k="place" v="farm" />
		<tag k="ssr:date" v="2020-10-05" />
		<tag k="ssr:gruppe" v="gardsbebyggelse" />
		<tag k="ssr:hovedgruppe" v="bebyggelse" />
		<tag k="ssr:stedsnr" v="66564" />
		<tag k="ssr:type" v="gard" />
	</node>
	<node lat="60.088750002781175" lon="11.104305555913076" id="-18852">
		<tag k="name" v="Østenga" />
		<tag k="place" v="farm" />
		<tag k="ssr:date" v="2019-12-27" />
		<tag k="ssr:gruppe" v="gardsbebyggelse" />
		<tag k="ssr:hovedgruppe" v="bebyggelse" />
		<tag k="ssr:stedsnr" v="84012" />
		<tag k="ssr:type" v="bruk" />
	</node>
	<node lat="60.095261719308134" lon="11.088078549258595" id="-18853">
		<tag k="name" v="Torshov" />
		<tag k="place" v="farm" />
		<tag k="ssr:date" v="2021-04-29" />
		<tag k="ssr:gruppe" v="gardsbebyggelse" />
		<tag k="ssr:hovedgruppe" v="bebyggelse" />
		<tag k="ssr:stedsnr" v="84137" />
		<tag k="ssr:type" v="bruk" />
	</node>
	<node lat="60.11026110734796" lon="11.066238887351327" id="-18854">
		<tag k="name" v="Mobekken" />
		<tag k="ssr:date" v="2019-12-27" />
		<tag k="ssr:gruppe" v="rennendeVann" />
		<tag k="ssr:hovedgruppe" v="ferskvann" />
		<tag k="ssr:stedsnr" v="84142" />
		<tag k="ssr:type" v="bekk" />
		<tag k="waterway" v="stream" />
	</node>
	<node lat="60.0807805580395" lon="11.011800000997201" id="-18855">
		<tag k="name" v="Kulsrudbekken" />
		<tag k="ssr:date" v="2019-12-27" />
		<tag k="ssr:gruppe" v="rennendeVann" />
		<tag k="ssr:hovedgruppe" v="ferskvann" />
		<tag k="ssr:stedsnr" v="84917" />
		<tag k="ssr:type" v="bekk" />
		<tag k="waterway" v="stream" />
	</node>
	<node lat="60.10167777406712" lon="11.049916674631303" id="-18856">
		<tag k="junction" v="yes" />
		<tag k="name" v="Korsmo" />
		<tag k="place" v="locality" />
		<tag k="ssr:date" v="2019-12-27" />
		<tag k="ssr:gruppe" v="veg" />
		<tag k="ssr:hovedgruppe" v="infrastruktur" />
		<tag k="ssr:stedsnr" v="84926" />
		<tag k="ssr:type" v="vegkryss" />
	</node>
	<node lat="60.10623611188086" lon="10.962475008310593" id="-18857">
		<tag k="name" v="Smedstadgruvene" />
		<tag k="place" v="locality" />
		<tag k="ssr:date" v="2019-12-27" />
		<tag k="ssr:gruppe" v="kulturminner" />
		<tag k="ssr:hovedgruppe" v="kultur" />
		<tag k="ssr:stedsnr" v="84927" />
		<tag k="ssr:type" v="annenKulturdetalj" />
	</node>
	<node lat="60.09521111035953" lon="11.055063886963236" id="-18858">
		<tag k="name" v="Årstad" />
		<tag k="place" v="farm" />
		<tag k="ssr:date" v="2019-12-27" />
		<tag k="ssr:gruppe" v="gardsbebyggelse" />
		<tag k="ssr:hovedgruppe" v="bebyggelse" />
		<tag k="ssr:stedsnr" v="84933" />
		<tag k="ssr:type" v="bruk" />
	</node>
	<node lat="60.04691667094598" lon="11.023188891231385" id="-18859">
		<tag k="name" v="Bråtamåsan" />
		<tag k="natural" v="wetland" />
		<tag k="ssr:date" v="2019-12-27" />
		<tag k="ssr:gruppe" v="våtmark" />
		<tag k="ssr:hovedgruppe" v="markslag" />
		<tag k="ssr:stedsnr" v="84936" />
		<tag k="ssr:type" v="myr" />
	</node>
	<node lat="60.0885222195257" lon="11.029497213447105" id="-18860">
		<tag k="name" v="Fossum" />
		<tag k="place" v="farm" />
		<tag k="ssr:date" v="2019-12-27" />
		<tag k="ssr:gruppe" v="gardsbebyggelse" />
		<tag k="ssr:hovedgruppe" v="bebyggelse" />
		<tag k="ssr:stedsnr" v="84890" />
		<tag k="ssr:type" v="bruk" />
	</node>
	<node lat="60.10698055434869" lon="11.094627777720007" id="-18861">
		<tag k="name" v="Søndre Rogstad" />
		<tag k="place" v="farm" />
		<tag k="ssr:date" v="2019-12-27" />
		<tag k="ssr:gruppe" v="gardsbebyggelse" />
		<tag k="ssr:hovedgruppe" v="bebyggelse" />
		<tag k="ssr:stedsnr" v="100364" />
		<tag k="ssr:type" v="bruk" />
	</node>
	<node lat="60.09145000091627" lon="11.020333334279766" id="-18862">
		<tag k="alt_name" v="Åmot vestre" />
		<tag k="name" v="Åmot" />
		<tag k="place" v="farm" />
		<tag k="ssr:date" v="2019-12-27" />
		<tag k="ssr:gruppe" v="gardsbebyggelse" />
		<tag k="ssr:hovedgruppe" v="bebyggelse" />
		<tag k="ssr:stedsnr" v="248398" />
		<tag k="ssr:type" v="bruk" />
	</node>
	<node lat="60.04445000200004" lon="11.054255557812937" id="-18863">
		<tag k="name" v="Holt" />
		<tag k="place" v="isolated_dwelling" />
		<tag k="ssr:date" v="2019-12-27" />
		<tag k="ssr:gruppe" v="bolighus" />
		<tag k="ssr:hovedgruppe" v="bebyggelse" />
		<tag k="ssr:stedsnr" v="248438" />
		<tag k="ssr:type" v="eneboligMindreBoligbygg" />
	</node>
	<node lat="60.04625398752384" lon="10.962950782581297" id="-18864">
		<tag k="alt_name" v="Skututjern" />
		<tag k="name" v="Skutetjerna" />
		<tag k="natural" v="water" />
		<tag k="ssr:date" v="2020-04-16" />
		<tag k="ssr:gruppe" v="stilleståendeVann" />
		<tag k="ssr:hovedgruppe" v="ferskvann" />
		<tag k="ssr:stedsnr" v="248443" />
		<tag k="ssr:type" v="gruppeAvTjern" />
		<tag k="water" v="lake" />
	</node>
	<node lat="60.09213653325433" lon="11.073169688594039" id="-18865">
		<tag k="name" v="Vang" />
		<tag k="place" v="hamlet" />
		<tag k="ssr:date" v="2020-10-05" />
		<tag k="ssr:gruppe" v="gardsbebyggelse" />
		<tag k="ssr:hovedgruppe" v="bebyggelse" />
		<tag k="ssr:stedsnr" v="248496" />
		<tag k="ssr:type" v="navnegard" />
	</node>
	<node lat="60.12023333482529" lon="11.081836111878191" id="-18866">
		<tag k="alt_name" v="Løvstad, nordre" />
		<tag k="name" v="Nordre Løvstad" />
		<tag k="place" v="farm" />
		<tag k="ssr:date" v="2019-12-27" />
		<tag k="ssr:gruppe" v="gardsbebyggelse" />
		<tag k="ssr:hovedgruppe" v="bebyggelse" />
		<tag k="ssr:stedsnr" v="248580" />
		<tag k="ssr:type" v="bruk" />
	</node>
	<node lat="60.08334722290094" lon="10.998844442439099" id="-18867">
		<tag k="amenity" v="school" />
		<tag k="name" v="Veståsen skole" />
		<tag k="ssr:date" v="2019-12-27" />
		<tag k="ssr:gruppe" v="institusjoner" />
		<tag k="ssr:hovedgruppe" v="bebyggelse" />
		<tag k="ssr:stedsnr" v="119715" />
		<tag k="ssr:type" v="skole" />
	</node>
	<node lat="60.085449998570304" lon="10.98986665934917" id="-18868">
		<tag k="name" v="Sørensmyra" />
		<tag k="natural" v="wetland" />
		<tag k="ssr:date" v="2019-12-27" />
		<tag k="ssr:gruppe" v="våtmark" />
		<tag k="ssr:hovedgruppe" v="markslag" />
		<tag k="ssr:stedsnr" v="126519" />
		<tag k="ssr:type" v="myr" />
	</node>
	<node lat="60.08394999884249" lon="10.931225008428044" id="-18869">
		<tag k="alt_name" v="Dretnetjern" />
		<tag k="name" v="Dretnetjernet" />
		<tag k="natural" v="water" />
		<tag k="ssr:date" v="2019-12-27" />
		<tag k="ssr:gruppe" v="stilleståendeVann" />
		<tag k="ssr:hovedgruppe" v="ferskvann" />
		<tag k="ssr:stedsnr" v="126523" />
		<tag k="ssr:type" v="tjern" />
	</node>
	<node lat="60.091780554697905" lon="10.928313884671022" id="-18870">
		<tag k="name" v="Dagrosputten" />
		<tag k="natural" v="water" />
		<tag k="ssr:date" v="2019-12-27" />
		<tag k="ssr:gruppe" v="stilleståendeVann" />
		<tag k="ssr:hovedgruppe" v="ferskvann" />
		<tag k="ssr:stedsnr" v="126604" />
		<tag k="ssr:type" v="tjern" />
	</node>
	<node lat="60.06683333165482" lon="10.985208336628512" id="-18871">
		<tag k="alt_name" v="Hønsivangen, nordre" />
		<tag k="historic" v="shieling" />
		<tag k="name" v="Nedre Hønsivangen" />
		<tag k="place" v="locality" />
		<tag k="ssr:date" v="2019-12-27" />
		<tag k="ssr:gruppe" v="dyrkamark" />
		<tag k="ssr:hovedgruppe" v="markslag" />
		<tag k="ssr:stedsnr" v="127543" />
		<tag k="ssr:type" v="setervoll" />
	</node>
	<node lat="60.107371555904294" lon="11.095000537659342" id="-18872">
		<tag k="name" v="Rogstad" />
		<tag k="place" v="hamlet" />
		<tag k="ssr:date" v="2020-10-05" />
		<tag k="ssr:gruppe" v="gardsbebyggelse" />
		<tag k="ssr:hovedgruppe" v="bebyggelse" />
		<tag k="ssr:stedsnr" v="187108" />
		<tag k="ssr:type" v="navnegard" />
	</node>
	<node lat="60.07539166958658" lon="10.956769447423792" id="-18873">
		<tag k="historic" v="shieling" />
		<tag k="name" v="Sørumsvangen" />
		<tag k="place" v="locality" />
		<tag k="ssr:date" v="2019-12-27" />
		<tag k="ssr:gruppe" v="dyrkamark" />
		<tag k="ssr:hovedgruppe" v="markslag" />
		<tag k="ssr:stedsnr" v="187512" />
		<tag k="ssr:type" v="setervoll" />
	</node>
	<node lat="60.122013891350065" lon="10.957011119954178" id="-18874">
		<tag k="alt_name" v="Delemyrene" />
		<tag k="name" v="Delemyra" />
		<tag k="natural" v="wetland" />
		<tag k="ssr:date" v="2019-12-27" />
		<tag k="ssr:gruppe" v="våtmark" />
		<tag k="ssr:hovedgruppe" v="markslag" />
		<tag k="ssr:stedsnr" v="187638" />
		<tag k="ssr:type" v="myr" />
	</node>
	<node lat="60.09997860782197" lon="11.02269511815317" id="-18875">
		<tag k="fixme" v="consider place=hamlet" />
		<tag k="name" v="Vestby" />
		<tag k="place" v="farm" />
		<tag k="ssr:date" v="2020-10-05" />
		<tag k="ssr:gruppe" v="gardsbebyggelse" />
		<tag k="ssr:hovedgruppe" v="bebyggelse" />
		<tag k="ssr:stedsnr" v="188645" />
		<tag k="ssr:type" v="gard" />
	</node>
	<node lat="60.085327780951474" lon="11.02197500566568" id="-18876">
		<tag k="name" v="Fossum" />
		<tag k="place" v="farm" />
		<tag k="ssr:date" v="2019-12-27" />
		<tag k="ssr:gruppe" v="gardsbebyggelse" />
		<tag k="ssr:hovedgruppe" v="bebyggelse" />
		<tag k="ssr:stedsnr" v="266900" />
		<tag k="ssr:type" v="bruk" />
	</node>
	<node lat="60.10874166390204" lon="10.928708331644984" id="-18877">
		<tag k="name" v="Sandumsvangslia" />
		<tag k="natural" v="slope" />
		<tag k="place" v="locality" />
		<tag k="ssr:date" v="2019-12-27" />
		<tag k="ssr:gruppe" v="skråninger" />
		<tag k="ssr:hovedgruppe" v="terreng" />
		<tag k="ssr:stedsnr" v="266956" />
		<tag k="ssr:type" v="li" />
	</node>
	<node lat="60.08165277326295" lon="11.007713893544048" id="-18878">
		<tag k="name" v="Møllerhaugen" />
		<tag k="natural" v="hill" />
		<tag k="place" v="locality" />
		<tag k="ssr:date" v="2019-12-27" />
		<tag k="ssr:gruppe" v="høyder" />
		<tag k="ssr:hovedgruppe" v="terreng" />
		<tag k="ssr:stedsnr" v="205911" />
		<tag k="ssr:type" v="haug" />
	</node>
	<node lat="60.056222446833495" lon="11.032285320084496" id="-18879">
		<tag k="alt_name" v="Flatby, nordre;Flatby nordre" />
		<tag k="fixme" v="consider place=hamlet" />
		<tag k="name" v="Nordre Flatby" />
		<tag k="place" v="farm" />
		<tag k="ssr:date" v="2020-10-05" />
		<tag k="ssr:gruppe" v="gardsbebyggelse" />
		<tag k="ssr:hovedgruppe" v="bebyggelse" />
		<tag k="ssr:stedsnr" v="248460" />
		<tag k="ssr:type" v="gard" />
	</node>
	<node lat="60.05076806967508" lon="11.042991334749072" id="-18880">
		<tag k="fixme" v="consider place=hamlet" />
		<tag k="name" v="Asmyr" />
		<tag k="place" v="farm" />
		<tag k="ssr:date" v="2020-10-05" />
		<tag k="ssr:gruppe" v="gardsbebyggelse" />
		<tag k="ssr:hovedgruppe" v="bebyggelse" />
		<tag k="ssr:stedsnr" v="248462" />
		<tag k="ssr:type" v="gard" />
	</node>
	<node lat="60.09627722493639" lon="11.003341415237024" id="-18881">
		<tag k="fixme" v="consider place=hamlet" />
		<tag k="name" v="Gisti" />
		<tag k="place" v="farm" />
		<tag k="ssr:date" v="2020-10-05" />
		<tag k="ssr:gruppe" v="gardsbebyggelse" />
		<tag k="ssr:hovedgruppe" v="bebyggelse" />
		<tag k="ssr:stedsnr" v="248616" />
		<tag k="ssr:type" v="gard" />
	</node>
	<node lat="60.08080000213714" lon="10.989441662461495" id="-18882">
		<tag k="name" v="Lysdammen" />
		<tag k="natural" v="water" />
		<tag k="ssr:date" v="2019-12-27" />
		<tag k="ssr:gruppe" v="stilleståendeVann" />
		<tag k="ssr:hovedgruppe" v="ferskvann" />
		<tag k="ssr:stedsnr" v="248515" />
		<tag k="ssr:type" v="tjern" />
	</node>
	<node lat="60.076018958439334" lon="11.031571766685191" id="-18883">
		<tag k="alt_name" v="Ask, nedre;Ask vesle;Ask lille" />
		<tag k="fixme" v="consider place=hamlet" />
		<tag k="name" v="Vesle Ask" />
		<tag k="place" v="farm" />
		<tag k="ssr:date" v="2020-10-05" />
		<tag k="ssr:gruppe" v="gardsbebyggelse" />
		<tag k="ssr:hovedgruppe" v="bebyggelse" />
		<tag k="ssr:stedsnr" v="248560" />
		<tag k="ssr:type" v="gard" />
	</node>
	<node lat="60.097450001462875" lon="11.057116668287504" id="-18884">
		<tag k="name" v="Heni" />
		<tag k="place" v="farm" />
		<tag k="ssr:date" v="2019-12-27" />
		<tag k="ssr:gruppe" v="gardsbebyggelse" />
		<tag k="ssr:hovedgruppe" v="bebyggelse" />
		<tag k="ssr:stedsnr" v="265917" />
		<tag k="ssr:type" v="bruk" />
	</node>
	<node lat="60.07291666881856" lon="11.082283332545268" id="-18885">
		<tag k="alt_name" v="Olstad søndre" />
		<tag k="name" v="Søndre Olstad" />
		<tag k="place" v="farm" />
		<tag k="ssr:date" v="2019-12-27" />
		<tag k="ssr:gruppe" v="gardsbebyggelse" />
		<tag k="ssr:hovedgruppe" v="bebyggelse" />
		<tag k="ssr:stedsnr" v="266117" />
		<tag k="ssr:type" v="bruk" />
	</node>
	<node lat="60.09666944077385" lon="11.031227774390286" id="-18886">
		<tag k="name" v="Kokstadhaugen" />
		<tag k="place" v="farm" />
		<tag k="ssr:date" v="2019-12-27" />
		<tag k="ssr:gruppe" v="gardsbebyggelse" />
		<tag k="ssr:hovedgruppe" v="bebyggelse" />
		<tag k="ssr:stedsnr" v="266905" />
		<tag k="ssr:type" v="bruk" />
	</node>
	<node lat="60.091075002005766" lon="10.976811118133352" id="-18887">
		<tag k="name" v="Gistisoten" />
		<tag k="natural" v="wetland" />
		<tag k="ssr:date" v="2019-12-27" />
		<tag k="ssr:gruppe" v="våtmark" />
		<tag k="ssr:hovedgruppe" v="markslag" />
		<tag k="ssr:stedsnr" v="266935" />
		<tag k="ssr:type" v="myr" />
	</node>
	<node lat="60.07617778168023" lon="11.061508339058316" id="-18888">
		<tag k="bridge" v="yes" />
		<tag k="layer" v="1" />
		<tag k="name" v="Svendsrud" />
		<tag k="ssr:date" v="2019-12-27" />
		<tag k="ssr:gruppe" v="samferdselsanlegg" />
		<tag k="ssr:hovedgruppe" v="infrastruktur" />
		<tag k="ssr:stedsnr" v="289832" />
		<tag k="ssr:type" v="bru" />
	</node>
	<node lat="60.10819444465533" lon="11.09283332810999" id="-18889">
		<tag k="name" v="Nordre Rogstad" />
		<tag k="place" v="farm" />
		<tag k="ssr:date" v="2019-12-27" />
		<tag k="ssr:gruppe" v="gardsbebyggelse" />
		<tag k="ssr:hovedgruppe" v="bebyggelse" />
		<tag k="ssr:stedsnr" v="464397" />
		<tag k="ssr:type" v="bruk" />
	</node>
	<node lat="60.04873333442485" lon="10.975250007175092" id="-18890">
		<tag k="alt_name" v="Hønsivangen, søndre" />
		<tag k="historic" v="shieling" />
		<tag k="name" v="Øvre Hønsivangen" />
		<tag k="place" v="locality" />
		<tag k="ssr:date" v="2019-12-27" />
		<tag k="ssr:gruppe" v="dyrkamark" />
		<tag k="ssr:hovedgruppe" v="markslag" />
		<tag k="ssr:stedsnr" v="308407" />
		<tag k="ssr:type" v="setervoll" />
	</node>
	<node lat="60.042925001559674" lon="11.058147219893632" id="-18891">
		<tag k="name" v="Skaugom" />
		<tag k="place" v="farm" />
		<tag k="ssr:date" v="2019-12-27" />
		<tag k="ssr:gruppe" v="gardsbebyggelse" />
		<tag k="ssr:hovedgruppe" v="bebyggelse" />
		<tag k="ssr:stedsnr" v="308398" />
		<tag k="ssr:type" v="bruk" />
	</node>
	<node lat="60.12193889032293" lon="10.992633327255364" id="-18892">
		<tag k="name" v="Rustadmåsan" />
		<tag k="natural" v="wetland" />
		<tag k="ssr:date" v="2019-12-27" />
		<tag k="ssr:gruppe" v="våtmark" />
		<tag k="ssr:hovedgruppe" v="markslag" />
		<tag k="ssr:stedsnr" v="309682" />
		<tag k="ssr:type" v="myr" />
	</node>
	<node lat="60.11838332980947" lon="10.932099999509509" id="-18893">
		<tag k="name" v="Stårrdalen" />
		<tag k="natural" v="valley" />
		<tag k="place" v="locality" />
		<tag k="ssr:date" v="2019-12-27" />
		<tag k="ssr:gruppe" v="senkninger" />
		<tag k="ssr:hovedgruppe" v="terreng" />
		<tag k="ssr:stedsnr" v="309685" />
		<tag k="ssr:type" v="dal" />
	</node>
	<node lat="60.1224138897633" lon="10.917169437610996" id="-18894">
		<tag k="name" v="Gjermenningsmåsan" />
		<tag k="natural" v="wetland" />
		<tag k="ssr:date" v="2019-12-27" />
		<tag k="ssr:gruppe" v="våtmark" />
		<tag k="ssr:hovedgruppe" v="markslag" />
		<tag k="ssr:stedsnr" v="327912" />
		<tag k="ssr:type" v="myr" />
	</node>
	<node lat="60.049166667105546" lon="11.028724999053855" id="-18895">
		<tag k="name" v="Tuterud" />
		<tag k="place" v="farm" />
		<tag k="ssr:date" v="2019-12-27" />
		<tag k="ssr:gruppe" v="gardsbebyggelse" />
		<tag k="ssr:hovedgruppe" v="bebyggelse" />
		<tag k="ssr:stedsnr" v="369404" />
		<tag k="ssr:type" v="bruk" />
	</node>
	<node lat="60.11171110854416" lon="10.96240832875402" id="-18896">
		<tag k="alt_name" v="Trolsnesfjellet" />
		<tag k="fixme" v="consider natural=peak for the most distinct mountains in the district" />
		<tag k="name" v="Trollsnesfjellet" />
		<tag k="natural" v="hill" />
		<tag k="place" v="locality" />
		<tag k="ssr:date" v="2019-12-27" />
		<tag k="ssr:gruppe" v="høyder" />
		<tag k="ssr:hovedgruppe" v="terreng" />
		<tag k="ssr:stedsnr" v="369519" />
		<tag k="ssr:type" v="ås" />
	</node>
	<node lat="60.0928555517195" lon="10.951163891511985" id="-18897">
		<tag k="historic" v="shieling" />
		<tag k="name" v="Henivangen" />
		<tag k="place" v="locality" />
		<tag k="ssr:date" v="2019-12-27" />
		<tag k="ssr:gruppe" v="dyrkamark" />
		<tag k="ssr:hovedgruppe" v="markslag" />
		<tag k="ssr:stedsnr" v="369565" />
		<tag k="ssr:type" v="setervoll" />
	</node>
	<node lat="60.0909611116315" lon="10.99980278192324" id="-18898">
		<tag k="name" v="Mellom" />
		<tag k="place" v="farm" />
		<tag k="ssr:date" v="2019-12-27" />
		<tag k="ssr:gruppe" v="gardsbebyggelse" />
		<tag k="ssr:hovedgruppe" v="bebyggelse" />
		<tag k="ssr:stedsnr" v="369568" />
		<tag k="ssr:type" v="bruk" />
	</node>
	<node lat="60.0946861110283" lon="11.021772219299638" id="-18899">
		<tag k="alt_name" v="Åmot østre" />
		<tag k="name" v="Åmot" />
		<tag k="place" v="farm" />
		<tag k="ssr:date" v="2019-12-27" />
		<tag k="ssr:gruppe" v="gardsbebyggelse" />
		<tag k="ssr:hovedgruppe" v="bebyggelse" />
		<tag k="ssr:stedsnr" v="369570" />
		<tag k="ssr:type" v="bruk" />
	</node>
	<node lat="60.07852222391476" lon="11.079933335645865" id="-18900">
		<tag k="name" v="Solheim" />
		<tag k="place" v="quarter" />
		<tag k="ssr:date" v="2021-06-08" />
		<tag k="ssr:gruppe" v="bebyggelsesområder" />
		<tag k="ssr:hovedgruppe" v="bebyggelse" />
		<tag k="ssr:stedsnr" v="384062" />
		<tag k="ssr:type" v="boligfelt" />
	</node>
	<node lat="60.088497219968794" lon="11.101391658085305" id="-18901">
		<tag k="name" v="Blånet" />
		<tag k="place" v="farm" />
		<tag k="ssr:date" v="2019-12-27" />
		<tag k="ssr:gruppe" v="gardsbebyggelse" />
		<tag k="ssr:hovedgruppe" v="bebyggelse" />
		<tag k="ssr:stedsnr" v="387011" />
		<tag k="ssr:type" v="bruk" />
	</node>
	<node lat="60.07655555668877" lon="11.074222215562985" id="-18902">
		<tag k="name" v="Nordli" />
		<tag k="place" v="isolated_dwelling" />
		<tag k="ssr:date" v="2019-12-27" />
		<tag k="ssr:gruppe" v="bolighus" />
		<tag k="ssr:hovedgruppe" v="bebyggelse" />
		<tag k="ssr:stedsnr" v="387132" />
		<tag k="ssr:type" v="eneboligMindreBoligbygg" />
	</node>
	<node lat="60.052100001755925" lon="11.051211109925466" id="-18903">
		<tag k="alt_name" v="Skjærhaugen" />
		<tag k="name" v="Verning" />
		<tag k="place" v="farm" />
		<tag k="ssr:date" v="2019-12-27" />
		<tag k="ssr:gruppe" v="gardsbebyggelse" />
		<tag k="ssr:hovedgruppe" v="bebyggelse" />
		<tag k="ssr:stedsnr" v="490453" />
		<tag k="ssr:type" v="bruk" />
	</node>
	<node lat="60.0900249975115" lon="11.086947226608038" id="-18904">
		<tag k="alt_name" v="Gjerdrum" />
		<tag k="amenity" v="place_of_worship" />
		<tag k="denomination" v="lutheran" />
		<tag k="name" v="Gjerdrum kirke" />
		<tag k="religion" v="christian" />
		<tag k="ssr:date" v="2019-12-27" />
		<tag k="ssr:gruppe" v="kulturinstitusjoner" />
		<tag k="ssr:hovedgruppe" v="kultur" />
		<tag k="ssr:stedsnr" v="490482" />
		<tag k="ssr:type" v="kirke" />
	</node>
	<node lat="60.048823314432695" lon="11.058280552724339" id="-18905">
		<tag k="fixme" v="consider place=hamlet" />
		<tag k="name" v="Rud" />
		<tag k="place" v="farm" />
		<tag k="ssr:date" v="2020-10-05" />
		<tag k="ssr:gruppe" v="gardsbebyggelse" />
		<tag k="ssr:hovedgruppe" v="bebyggelse" />
		<tag k="ssr:stedsnr" v="430424" />
		<tag k="ssr:type" v="gard" />
	</node>
	<node lat="60.05413055907256" lon="10.954480549886027" id="-18906">
		<tag k="fixme" v="consider natural=peak for the most distinct mountains in the district" />
		<tag k="name" v="Lalaåsen" />
		<tag k="natural" v="hill" />
		<tag k="place" v="locality" />
		<tag k="ssr:date" v="2019-12-27" />
		<tag k="ssr:gruppe" v="høyder" />
		<tag k="ssr:hovedgruppe" v="terreng" />
		<tag k="ssr:stedsnr" v="430455" />
		<tag k="ssr:type" v="ås" />
	</node>
	<node lat="60.066277511287694" lon="11.087786332551898" id="-18907">
		<tag k="name" v="Sørum" />
		<tag k="place" v="hamlet" />
		<tag k="ssr:date" v="2020-10-05" />
		<tag k="ssr:gruppe" v="gardsbebyggelse" />
		<tag k="ssr:hovedgruppe" v="bebyggelse" />
		<tag k="ssr:stedsnr" v="430466" />
		<tag k="ssr:type" v="navnegard" />
	</node>
	<node lat="60.10317777330118" lon="11.06115000619241" id="-18908">
		<tag k="name" v="Korsmo" />
		<tag k="place" v="farm" />
		<tag k="ssr:date" v="2019-12-27" />
		<tag k="ssr:gruppe" v="gardsbebyggelse" />
		<tag k="ssr:hovedgruppe" v="bebyggelse" />
		<tag k="ssr:stedsnr" v="430398" />
		<tag k="ssr:type" v="bruk" />
	</node>
	<node lat="60.07437499757372" lon="11.008288883134698" id="-18909">
		<tag k="name" v="Nygård" />
		<tag k="place" v="farm" />
		<tag k="ssr:date" v="2019-12-27" />
		<tag k="ssr:gruppe" v="gardsbebyggelse" />
		<tag k="ssr:hovedgruppe" v="bebyggelse" />
		<tag k="ssr:stedsnr" v="491566" />
		<tag k="ssr:type" v="bruk" />
	</node>
	<node lat="60.09000278032831" lon="11.093088894893397" id="-18910">
		<tag k="name" v="Gjerdrum" />
		<tag k="place" v="farm" />
		<tag k="ssr:date" v="2019-12-27" />
		<tag k="ssr:gruppe" v="gardsbebyggelse" />
		<tag k="ssr:hovedgruppe" v="bebyggelse" />
		<tag k="ssr:stedsnr" v="448009" />
		<tag k="ssr:type" v="bruk" />
	</node>
	<node lat="60.083191665153564" lon="10.991916673502352" id="-18911">
		<tag k="name" v="Åmotsfjellet" />
		<tag k="natural" v="hill" />
		<tag k="place" v="locality" />
		<tag k="ssr:date" v="2019-12-27" />
		<tag k="ssr:gruppe" v="høyder" />
		<tag k="ssr:hovedgruppe" v="terreng" />
		<tag k="ssr:stedsnr" v="448904" />
		<tag k="ssr:type" v="høyde" />
	</node>
	<node lat="60.07201111316375" lon="10.972227777266598" id="-18912">
		<tag k="name" v="Kråkvålsmåsan" />
		<tag k="natural" v="wetland" />
		<tag k="ssr:date" v="2019-12-27" />
		<tag k="ssr:gruppe" v="våtmark" />
		<tag k="ssr:hovedgruppe" v="markslag" />
		<tag k="ssr:stedsnr" v="448905" />
		<tag k="ssr:type" v="myr" />
	</node>
	<node lat="60.10535555707295" lon="11.05027500026186" id="-18913">
		<tag k="name" v="Hellerud" />
		<tag k="place" v="farm" />
		<tag k="ssr:date" v="2019-12-27" />
		<tag k="ssr:gruppe" v="gardsbebyggelse" />
		<tag k="ssr:hovedgruppe" v="bebyggelse" />
		<tag k="ssr:stedsnr" v="448913" />
		<tag k="ssr:type" v="bruk" />
	</node>
	<node lat="60.10503055282463" lon="11.051080554127028" id="-18914">
		<tag k="name" v="Flaen" />
		<tag k="place" v="farm" />
		<tag k="ssr:date" v="2019-12-27" />
		<tag k="ssr:gruppe" v="gardsbebyggelse" />
		<tag k="ssr:hovedgruppe" v="bebyggelse" />
		<tag k="ssr:stedsnr" v="448917" />
		<tag k="ssr:type" v="bruk" />
	</node>
	<node lat="60.07798610995897" lon="10.953844452251612" id="-18915">
		<tag k="name" v="Rogstaddalen" />
		<tag k="natural" v="valley" />
		<tag k="place" v="locality" />
		<tag k="ssr:date" v="2019-12-27" />
		<tag k="ssr:gruppe" v="senkninger" />
		<tag k="ssr:hovedgruppe" v="terreng" />
		<tag k="ssr:stedsnr" v="448925" />
		<tag k="ssr:type" v="dal" />
	</node>
	<node lat="60.08647499881222" lon="10.954927771848597" id="-18916">
		<tag k="historic" v="shieling" />
		<tag k="name" v="Skeisvangen" />
		<tag k="place" v="locality" />
		<tag k="ssr:date" v="2019-12-27" />
		<tag k="ssr:gruppe" v="dyrkamark" />
		<tag k="ssr:hovedgruppe" v="markslag" />
		<tag k="ssr:stedsnr" v="448933" />
		<tag k="ssr:type" v="setervoll" />
	</node>
	<node lat="60.05821944068043" lon="11.052877778462785" id="-18917">
		<tag k="name" v="Tangeelva" />
		<tag k="ssr:date" v="2019-12-27" />
		<tag k="ssr:gruppe" v="rennendeVann" />
		<tag k="ssr:hovedgruppe" v="ferskvann" />
		<tag k="ssr:stedsnr" v="448938" />
		<tag k="ssr:type" v="elv" />
		<tag k="waterway" v="river" />
	</node>
	<node lat="60.087847249314855" lon="11.065647573007434" id="-18918">
		<tag k="fixme" v="consider place=hamlet" />
		<tag k="name" v="Tveit" />
		<tag k="place" v="farm" />
		<tag k="ssr:date" v="2020-10-05" />
		<tag k="ssr:gruppe" v="gardsbebyggelse" />
		<tag k="ssr:hovedgruppe" v="bebyggelse" />
		<tag k="ssr:stedsnr" v="672464" />
		<tag k="ssr:type" v="gard" />
	</node>
	<node lat="60.0542898673447" lon="11.03189846424872" id="-18919">
		<tag k="alt_name" v="Flatby, søndre" />
		<tag k="fixme" v="consider place=hamlet" />
		<tag k="name" v="Søndre Flatby" />
		<tag k="place" v="farm" />
		<tag k="ssr:date" v="2020-10-05" />
		<tag k="ssr:gruppe" v="gardsbebyggelse" />
		<tag k="ssr:hovedgruppe" v="bebyggelse" />
		<tag k="ssr:stedsnr" v="672438" />
		<tag k="ssr:type" v="gard" />
	</node>
	<node lat="60.101698659498204" lon="11.065068533885944" id="-18920">
		<tag k="name" v="Tori" />
		<tag k="place" v="hamlet" />
		<tag k="ssr:date" v="2020-10-05" />
		<tag k="ssr:gruppe" v="gardsbebyggelse" />
		<tag k="ssr:hovedgruppe" v="bebyggelse" />
		<tag k="ssr:stedsnr" v="672582" />
		<tag k="ssr:type" v="navnegard" />
	</node>
	<node lat="60.03134166336569" lon="11.041169437336045" id="-18921">
		<tag k="alt_name" v="Flatner" />
		<tag k="name" v="Fløtten" />
		<tag k="place" v="farm" />
		<tag k="ssr:date" v="2019-12-27" />
		<tag k="ssr:gruppe" v="gardsbebyggelse" />
		<tag k="ssr:hovedgruppe" v="bebyggelse" />
		<tag k="ssr:stedsnr" v="673435" />
		<tag k="ssr:type" v="bruk" />
	</node>
	<node lat="60.08163888822763" lon="11.000777783026054" id="-18922">
		<tag k="name" v="Horka" />
		<tag k="place" v="isolated_dwelling" />
		<tag k="ssr:date" v="2019-12-27" />
		<tag k="ssr:gruppe" v="bolighus" />
		<tag k="ssr:hovedgruppe" v="bebyggelse" />
		<tag k="ssr:stedsnr" v="673537" />
		<tag k="ssr:type" v="eneboligMindreBoligbygg" />
	</node>
	<node lat="60.11316111232037" lon="10.936005548980592" id="-18923">
		<tag k="name" v="Årstadvangen" />
		<tag k="place" v="isolated_dwelling" />
		<tag k="ssr:date" v="2019-12-27" />
		<tag k="ssr:gruppe" v="bolighus" />
		<tag k="ssr:hovedgruppe" v="bebyggelse" />
		<tag k="ssr:stedsnr" v="673589" />
		<tag k="ssr:type" v="fritidsbolig" />
	</node>
	<node lat="60.1041027809872" lon="11.048358335890725" id="-18924">
		<tag k="name" v="Kjærstadsletta" />
		<tag k="place" v="locality" />
		<tag k="ssr:date" v="2019-12-27" />
		<tag k="ssr:gruppe" v="flater" />
		<tag k="ssr:hovedgruppe" v="terreng" />
		<tag k="ssr:stedsnr" v="673594" />
		<tag k="ssr:type" v="slette" />
	</node>
	<node lat="60.11889999845602" lon="10.984883337922907" id="-18925">
		<tag k="alt_name" v="Kulpemyrene" />
		<tag k="name" v="Kulpmyra" />
		<tag k="natural" v="wetland" />
		<tag k="ssr:date" v="2019-12-27" />
		<tag k="ssr:gruppe" v="våtmark" />
		<tag k="ssr:hovedgruppe" v="markslag" />
		<tag k="ssr:stedsnr" v="673677" />
		<tag k="ssr:type" v="myr" />
	</node>
	<node lat="60.04400833322708" lon="10.967169449083743" id="-18926">
		<tag k="alt_name" v="Rundtjern" />
		<tag k="name" v="Rundetjern" />
		<tag k="natural" v="water" />
		<tag k="ssr:date" v="2019-12-27" />
		<tag k="ssr:gruppe" v="stilleståendeVann" />
		<tag k="ssr:hovedgruppe" v="ferskvann" />
		<tag k="ssr:stedsnr" v="490436" />
		<tag k="ssr:type" v="tjern" />
	</node>
	<node lat="60.094188885820884" lon="10.999622214166186" id="-18927">
		<tag k="name" v="Gistihaugen" />
		<tag k="place" v="isolated_dwelling" />
		<tag k="ssr:date" v="2019-12-27" />
		<tag k="ssr:gruppe" v="bolighus" />
		<tag k="ssr:hovedgruppe" v="bebyggelse" />
		<tag k="ssr:stedsnr" v="490605" />
		<tag k="ssr:type" v="fritidsbolig" />
	</node>
	<node lat="60.09288888483557" lon="10.995891664195776" id="-18928">
		<tag k="name" v="Kleivmyra" />
		<tag k="natural" v="wetland" />
		<tag k="ssr:date" v="2019-12-27" />
		<tag k="ssr:gruppe" v="våtmark" />
		<tag k="ssr:hovedgruppe" v="markslag" />
		<tag k="ssr:stedsnr" v="490611" />
		<tag k="ssr:type" v="myr" />
	</node>
	<node lat="60.08083332908699" lon="11.027900008415646" id="-18929">
		<tag k="alt_name" v="Fossum, østre;Fossum" />
		<tag k="name" v="Østre Fossum" />
		<tag k="place" v="farm" />
		<tag k="ssr:date" v="2019-12-27" />
		<tag k="ssr:gruppe" v="gardsbebyggelse" />
		<tag k="ssr:hovedgruppe" v="bebyggelse" />
		<tag k="ssr:stedsnr" v="490516" />
		<tag k="ssr:type" v="bruk" />
	</node>
	<node lat="60.096525004079126" lon="11.059908333521369" id="-18930">
		<tag k="alt_name" v="Heni" />
		<tag k="amenity" v="place_of_worship" />
		<tag k="denomination" v="lutheran" />
		<tag k="name" v="Heni kirke" />
		<tag k="religion" v="christian" />
		<tag k="ssr:date" v="2019-12-27" />
		<tag k="ssr:gruppe" v="kulturinstitusjoner" />
		<tag k="ssr:hovedgruppe" v="kultur" />
		<tag k="ssr:stedsnr" v="490583" />
		<tag k="ssr:type" v="kirke" />
	</node>
	<node lat="60.06673888646109" lon="11.015713886290316" id="-18931">
		<tag k="name" v="Modalen" />
		<tag k="natural" v="valley" />
		<tag k="place" v="locality" />
		<tag k="ssr:date" v="2019-12-27" />
		<tag k="ssr:gruppe" v="senkninger" />
		<tag k="ssr:hovedgruppe" v="terreng" />
		<tag k="ssr:stedsnr" v="491530" />
		<tag k="ssr:type" v="dal" />
	</node>
	<node lat="60.07126666482208" lon="11.037724999685327" id="-18932">
		<tag k="amenity" v="school" />
		<tag k="name" v="Gjerdrum barneskole" />
		<tag k="old_name" v="Ask skole" />
		<tag k="ssr:date" v="2019-12-27" />
		<tag k="ssr:gruppe" v="institusjoner" />
		<tag k="ssr:hovedgruppe" v="bebyggelse" />
		<tag k="ssr:stedsnr" v="491576" />
		<tag k="ssr:type" v="skole" />
	</node>
	<node lat="60.074413887350325" lon="11.03834999829974" id="-18933">
		<tag k="alt_name" v="Ask, øvre;Ask store;Ask østre" />
		<tag k="name" v="Store Ask" />
		<tag k="place" v="farm" />
		<tag k="ssr:date" v="2019-12-27" />
		<tag k="ssr:gruppe" v="gardsbebyggelse" />
		<tag k="ssr:hovedgruppe" v="bebyggelse" />
		<tag k="ssr:stedsnr" v="491581" />
		<tag k="ssr:type" v="bruk" />
	</node>
	<node lat="60.114300004189424" lon="11.08722499301523" id="-18934">
		<tag k="name" v="Smedhaugen" />
		<tag k="place" v="isolated_dwelling" />
		<tag k="ssr:date" v="2019-12-27" />
		<tag k="ssr:gruppe" v="bolighus" />
		<tag k="ssr:hovedgruppe" v="bebyggelse" />
		<tag k="ssr:stedsnr" v="491591" />
		<tag k="ssr:type" v="eneboligMindreBoligbygg" />
	</node>
	<node lat="60.116624996192435" lon="10.926777781158522" id="-18935">
		<tag k="alt_name" v="Løvstadtjern" />
		<tag k="name" v="Løvstadtjernet" />
		<tag k="natural" v="water" />
		<tag k="ssr:date" v="2019-12-27" />
		<tag k="ssr:gruppe" v="stilleståendeVann" />
		<tag k="ssr:hovedgruppe" v="ferskvann" />
		<tag k="ssr:stedsnr" v="491679" />
		<tag k="ssr:type" v="tjern" />
	</node>
	<node lat="60.10939167110584" lon="11.089297227268395" id="-18936">
		<tag k="name" v="Grønvoll" />
		<tag k="place" v="farm" />
		<tag k="ssr:date" v="2019-12-27" />
		<tag k="ssr:gruppe" v="gardsbebyggelse" />
		<tag k="ssr:hovedgruppe" v="bebyggelse" />
		<tag k="ssr:stedsnr" v="508108" />
		<tag k="ssr:type" v="bruk" />
	</node>
	<node lat="60.07265169461138" lon="11.033965280188344" id="-18937">
		<tag k="alt_name" v="Ask vestre" />
		<tag k="fixme" v="consider place=hamlet" />
		<tag k="name" v="Vestre Ask" />
		<tag k="place" v="farm" />
		<tag k="ssr:date" v="2020-10-05" />
		<tag k="ssr:gruppe" v="gardsbebyggelse" />
		<tag k="ssr:hovedgruppe" v="bebyggelse" />
		<tag k="ssr:stedsnr" v="508896" />
		<tag k="ssr:type" v="gard" />
	</node>
	<node lat="60.07833719943595" lon="10.997608681695205" id="-18938">
		<tag k="fixme" v="consider place=hamlet" />
		<tag k="name" v="Hungerholt" />
		<tag k="place" v="farm" />
		<tag k="ssr:date" v="2020-10-05" />
		<tag k="ssr:gruppe" v="gardsbebyggelse" />
		<tag k="ssr:hovedgruppe" v="bebyggelse" />
		<tag k="ssr:stedsnr" v="508907" />
		<tag k="ssr:type" v="gard" />
	</node>
	<node lat="60.08320555639807" lon="11.019297214166821" id="-18939">
		<tag k="name" v="Seop" />
		<tag k="place" v="isolated_dwelling" />
		<tag k="ssr:date" v="2019-12-27" />
		<tag k="ssr:gruppe" v="bolighus" />
		<tag k="ssr:hovedgruppe" v="bebyggelse" />
		<tag k="ssr:stedsnr" v="508910" />
		<tag k="ssr:type" v="eneboligMindreBoligbygg" />
	</node>
	<node lat="60.081286113503985" lon="10.95063332498767" id="-18940">
		<tag k="name" v="Rogstadlia" />
		<tag k="natural" v="slope" />
		<tag k="place" v="locality" />
		<tag k="ssr:date" v="2019-12-27" />
		<tag k="ssr:gruppe" v="skråninger" />
		<tag k="ssr:hovedgruppe" v="terreng" />
		<tag k="ssr:stedsnr" v="508925" />
		<tag k="ssr:type" v="li" />
	</node>
	<node lat="60.10882222248107" lon="10.989752778298469" id="-18941">
		<tag k="name" v="Steinbråtan" />
		<tag k="place" v="locality" />
		<tag k="ssr:date" v="2019-12-27" />
		<tag k="ssr:gruppe" v="dyrkamark" />
		<tag k="ssr:hovedgruppe" v="markslag" />
		<tag k="ssr:stedsnr" v="509908" />
		<tag k="ssr:type" v="jorde" />
	</node>
	<node lat="60.05725555799931" lon="11.024502784010938" id="-18942">
		<tag k="name" v="Flatbydammen" />
		<tag k="natural" v="water" />
		<tag k="ssr:date" v="2019-12-27" />
		<tag k="ssr:gruppe" v="stilleståendeVann" />
		<tag k="ssr:hovedgruppe" v="ferskvann" />
		<tag k="ssr:stedsnr" v="509934" />
		<tag k="ssr:type" v="vann" />
		<tag k="water" v="lake" />
	</node>
	<node lat="60.08050833759058" lon="11.052436109631515" id="-18943">
		<tag k="name" v="Askenga" />
		<tag k="place" v="farm" />
		<tag k="ssr:date" v="2019-12-27" />
		<tag k="ssr:gruppe" v="gardsbebyggelse" />
		<tag k="ssr:hovedgruppe" v="bebyggelse" />
		<tag k="ssr:stedsnr" v="551507" />
		<tag k="ssr:type" v="bruk" />
	</node>
	<node lat="60.07910555936705" lon="11.073961108133608" id="-18944">
		<tag k="alt_name" v="Smedstad søndre" />
		<tag k="name" v="Søndre Smedstad" />
		<tag k="place" v="farm" />
		<tag k="ssr:date" v="2019-12-27" />
		<tag k="ssr:gruppe" v="gardsbebyggelse" />
		<tag k="ssr:hovedgruppe" v="bebyggelse" />
		<tag k="ssr:stedsnr" v="551509" />
		<tag k="ssr:type" v="bruk" />
	</node>
	<node lat="60.08733565663607" lon="11.02514756020871" id="-18945">
		<tag k="name" v="Fossum" />
		<tag k="place" v="hamlet" />
		<tag k="ssr:date" v="2020-10-05" />
		<tag k="ssr:gruppe" v="gardsbebyggelse" />
		<tag k="ssr:hovedgruppe" v="bebyggelse" />
		<tag k="ssr:stedsnr" v="551492" />
		<tag k="ssr:type" v="navnegard" />
	</node>
	<node lat="60.06426111158583" lon="11.009302773144896" id="-18946">
		<tag k="landuse" v="winter_sports" />
		<tag k="name" v="Kniplia" />
		<tag k="piste:type" v="downhill" />
		<tag k="ssr:date" v="2021-06-08" />
		<tag k="ssr:gruppe" v="fritidsanlegg" />
		<tag k="ssr:hovedgruppe" v="bebyggelse" />
		<tag k="ssr:stedsnr" v="688047" />
		<tag k="ssr:type" v="alpinanlegg" />
	</node>
	<node lat="60.052569444397975" lon="11.008752776223048" id="-18947">
		<tag k="historic" v="shieling" />
		<tag k="name" v="Øvre Asmyrvangen" />
		<tag k="place" v="locality" />
		<tag k="ssr:date" v="2019-12-27" />
		<tag k="ssr:gruppe" v="dyrkamark" />
		<tag k="ssr:hovedgruppe" v="markslag" />
		<tag k="ssr:stedsnr" v="691938" />
		<tag k="ssr:type" v="setervoll" />
	</node>
	<node lat="60.05116666276503" lon="10.944733339812426" id="-18948">
		<tag k="name" v="Svartputten" />
		<tag k="natural" v="water" />
		<tag k="ssr:date" v="2019-12-27" />
		<tag k="ssr:gruppe" v="stilleståendeVann" />
		<tag k="ssr:hovedgruppe" v="ferskvann" />
		<tag k="ssr:stedsnr" v="691957" />
		<tag k="ssr:type" v="tjern" />
	</node>
	<node lat="60.0751527745395" lon="11.028527782427298" id="-18949">
		<tag k="name" v="Bjørklund" />
		<tag k="place" v="isolated_dwelling" />
		<tag k="ssr:date" v="2019-12-27" />
		<tag k="ssr:gruppe" v="bolighus" />
		<tag k="ssr:hovedgruppe" v="bebyggelse" />
		<tag k="ssr:stedsnr" v="568864" />
		<tag k="ssr:type" v="eneboligMindreBoligbygg" />
	</node>
	<node lat="60.08987777362147" lon="11.029905560441415" id="-18950">
		<tag k="name" v="Kvernstufossen" />
		<tag k="natural" v="waterfall" />
		<tag k="ssr:date" v="2019-12-27" />
		<tag k="ssr:gruppe" v="rennendeVann" />
		<tag k="ssr:hovedgruppe" v="ferskvann" />
		<tag k="ssr:stedsnr" v="568866" />
		<tag k="ssr:type" v="foss" />
	</node>
	<node lat="60.09488610901227" lon="10.983688888768286" id="-18951">
		<tag k="name" v="Gistifjellet" />
		<tag k="natural" v="hill" />
		<tag k="place" v="locality" />
		<tag k="ssr:date" v="2019-12-27" />
		<tag k="ssr:gruppe" v="høyder" />
		<tag k="ssr:hovedgruppe" v="terreng" />
		<tag k="ssr:stedsnr" v="569901" />
		<tag k="ssr:type" v="høyde" />
	</node>
	<node lat="60.0804277749715" lon="11.000361105673804" id="-18952">
		<tag k="bridge" v="yes" />
		<tag k="layer" v="1" />
		<tag k="name" v="Horka" />
		<tag k="ssr:date" v="2019-12-27" />
		<tag k="ssr:gruppe" v="samferdselsanlegg" />
		<tag k="ssr:hovedgruppe" v="infrastruktur" />
		<tag k="ssr:stedsnr" v="592820" />
		<tag k="ssr:type" v="bru" />
	</node>
	<node lat="60.08627532645412" lon="11.017625555798288" id="-18953">
		<tag k="alt_name" v="Rud, østre" />
		<tag k="name" v="Østre Rud" />
		<tag k="place" v="farm" />
		<tag k="ssr:date" v="2021-03-24" />
		<tag k="ssr:gruppe" v="gardsbebyggelse" />
		<tag k="ssr:hovedgruppe" v="bebyggelse" />
		<tag k="ssr:stedsnr" v="611502" />
		<tag k="ssr:type" v="bruk" />
	</node>
	<node lat="60.09409167066045" lon="11.102724994061804" id="-18954">
		<tag k="name" v="Leirud" />
		<tag k="place" v="farm" />
		<tag k="ssr:date" v="2019-12-27" />
		<tag k="ssr:gruppe" v="gardsbebyggelse" />
		<tag k="ssr:hovedgruppe" v="bebyggelse" />
		<tag k="ssr:stedsnr" v="612078" />
		<tag k="ssr:type" v="bruk" />
	</node>
	<node lat="60.087450003391474" lon="11.07189165991939" id="-18955">
		<tag k="name" v="Vangsbekken" />
		<tag k="ssr:date" v="2019-12-27" />
		<tag k="ssr:gruppe" v="rennendeVann" />
		<tag k="ssr:hovedgruppe" v="ferskvann" />
		<tag k="ssr:stedsnr" v="612530" />
		<tag k="ssr:type" v="bekk" />
		<tag k="waterway" v="stream" />
	</node>
	<node lat="60.104388885320766" lon="10.927180563089804" id="-18956">
		<tag k="name" v="Mårratjern" />
		<tag k="natural" v="water" />
		<tag k="ssr:date" v="2019-12-27" />
		<tag k="ssr:gruppe" v="stilleståendeVann" />
		<tag k="ssr:hovedgruppe" v="ferskvann" />
		<tag k="ssr:stedsnr" v="612612" />
		<tag k="ssr:type" v="tjern" />
	</node>
	<node lat="60.12384999982181" lon="10.921999998004681" id="-18957">
		<tag k="name" v="Gjerdrumsgjermenningen" />
		<tag k="natural" v="water" />
		<tag k="ssr:date" v="2019-12-27" />
		<tag k="ssr:gruppe" v="stilleståendeVann" />
		<tag k="ssr:hovedgruppe" v="ferskvann" />
		<tag k="ssr:stedsnr" v="612665" />
		<tag k="ssr:type" v="tjern" />
	</node>
	<node lat="60.07611666567564" lon="11.00877500341959" id="-18958">
		<tag k="alt_name" v="Kulsrud, nordre" />
		<tag k="name" v="Kulsrud" />
		<tag k="place" v="farm" />
		<tag k="ssr:date" v="2019-12-27" />
		<tag k="ssr:gruppe" v="gardsbebyggelse" />
		<tag k="ssr:hovedgruppe" v="bebyggelse" />
		<tag k="ssr:stedsnr" v="612561" />
		<tag k="ssr:type" v="bruk" />
	</node>
	<node lat="60.075230552943815" lon="10.995783329093648" id="-18959">
		<tag k="name" v="Grønlundfjellet" />
		<tag k="place" v="quarter" />
		<tag k="ssr:date" v="2021-06-08" />
		<tag k="ssr:gruppe" v="bebyggelsesområder" />
		<tag k="ssr:hovedgruppe" v="bebyggelse" />
		<tag k="ssr:stedsnr" v="627057" />
		<tag k="ssr:type" v="boligfelt" />
	</node>
	<node lat="60.11799444205539" lon="10.975474993400415" id="-18960">
		<tag k="name" v="Kulpemyrlia" />
		<tag k="natural" v="slope" />
		<tag k="place" v="locality" />
		<tag k="ssr:date" v="2019-12-27" />
		<tag k="ssr:gruppe" v="skråninger" />
		<tag k="ssr:hovedgruppe" v="terreng" />
		<tag k="ssr:stedsnr" v="629095" />
		<tag k="ssr:type" v="li" />
	</node>
	<node lat="60.07050278092354" lon="11.020277780638114" id="-18961">
		<tag k="name" v="Berger" />
		<tag k="place" v="isolated_dwelling" />
		<tag k="ssr:date" v="2019-12-27" />
		<tag k="ssr:gruppe" v="bolighus" />
		<tag k="ssr:hovedgruppe" v="bebyggelse" />
		<tag k="ssr:stedsnr" v="629890" />
		<tag k="ssr:type" v="eneboligMindreBoligbygg" />
	</node>
	<node lat="60.107338892143844" lon="11.09292221747485" id="-18962">
		<tag k="name" v="Søndre Rogstad" />
		<tag k="place" v="farm" />
		<tag k="ssr:date" v="2019-12-27" />
		<tag k="ssr:gruppe" v="gardsbebyggelse" />
		<tag k="ssr:hovedgruppe" v="bebyggelse" />
		<tag k="ssr:stedsnr" v="646375" />
		<tag k="ssr:type" v="bruk" />
	</node>
	<node lat="60.04577499996861" lon="10.993530560457845" id="-18963">
		<tag k="alt_name" v="Ringdalshytta" />
		<tag k="name" v="Ringdalskoia" />
		<tag k="place" v="isolated_dwelling" />
		<tag k="ssr:date" v="2019-12-27" />
		<tag k="ssr:gruppe" v="bolighus" />
		<tag k="ssr:hovedgruppe" v="bebyggelse" />
		<tag k="ssr:stedsnr" v="673467" />
		<tag k="ssr:type" v="fritidsbolig" />
	</node>
	<node lat="60.045941662529096" lon="10.992838893317332" id="-18964">
		<tag k="name" v="Ringdalen" />
		<tag k="natural" v="valley" />
		<tag k="place" v="locality" />
		<tag k="ssr:date" v="2019-12-27" />
		<tag k="ssr:gruppe" v="senkninger" />
		<tag k="ssr:hovedgruppe" v="terreng" />
		<tag k="ssr:stedsnr" v="673469" />
		<tag k="ssr:type" v="dal" />
	</node>
	<node lat="60.1015805513804" lon="10.99967500806036" id="-18965">
		<tag k="name" v="Mikkelsbekken" />
		<tag k="ssr:date" v="2019-12-27" />
		<tag k="ssr:gruppe" v="rennendeVann" />
		<tag k="ssr:hovedgruppe" v="ferskvann" />
		<tag k="ssr:stedsnr" v="673612" />
		<tag k="ssr:type" v="bekk" />
		<tag k="waterway" v="stream" />
	</node>
	<node lat="60.10584444409514" lon="10.955013880657456" id="-18966">
		<tag k="historic" v="shieling" />
		<tag k="name" v="Vangsvangen" />
		<tag k="place" v="locality" />
		<tag k="ssr:date" v="2019-12-27" />
		<tag k="ssr:gruppe" v="dyrkamark" />
		<tag k="ssr:hovedgruppe" v="markslag" />
		<tag k="ssr:stedsnr" v="673617" />
		<tag k="ssr:type" v="setervoll" />
	</node>
	<node lat="60.09772499872327" lon="11.041833342148502" id="-18967">
		<tag k="name" v="Kankedalen" />
		<tag k="natural" v="valley" />
		<tag k="place" v="locality" />
		<tag k="ssr:date" v="2019-12-27" />
		<tag k="ssr:gruppe" v="senkninger" />
		<tag k="ssr:hovedgruppe" v="terreng" />
		<tag k="ssr:stedsnr" v="673620" />
		<tag k="ssr:type" v="dal" />
	</node>
	<node lat="60.062225002342515" lon="11.03024444291669" id="-18968">
		<tag k="alt_name" v="Brådal, søndre;Brådal søndre" />
		<tag k="name" v="Søndre Brådal" />
		<tag k="place" v="farm" />
		<tag k="ssr:date" v="2019-12-27" />
		<tag k="ssr:gruppe" v="gardsbebyggelse" />
		<tag k="ssr:hovedgruppe" v="bebyggelse" />
		<tag k="ssr:stedsnr" v="673511" />
		<tag k="ssr:type" v="bruk" />
	</node>
	<node lat="60.08266111465626" lon="10.969902782785644" id="-18969">
		<tag k="name" v="Sørlåbekken" />
		<tag k="place" v="isolated_dwelling" />
		<tag k="ssr:date" v="2019-12-27" />
		<tag k="ssr:gruppe" v="bolighus" />
		<tag k="ssr:hovedgruppe" v="bebyggelse" />
		<tag k="ssr:stedsnr" v="690928" />
		<tag k="ssr:type" v="fritidsbolig" />
	</node>
	<node lat="60.12229166652166" lon="10.912999992504409" id="-18970">
		<tag k="name" v="Vestre Gjermenningen" />
		<tag k="natural" v="water" />
		<tag k="ssr:date" v="2019-12-27" />
		<tag k="ssr:gruppe" v="stilleståendeVann" />
		<tag k="ssr:hovedgruppe" v="ferskvann" />
		<tag k="ssr:stedsnr" v="691923" />
		<tag k="ssr:type" v="tjern" />
	</node>
	<node lat="60.10173333089501" lon="11.009755556199442" id="-18971">
		<tag k="name" v="Skeismoen" />
		<tag k="place" v="locality" />
		<tag k="ssr:date" v="2019-12-27" />
		<tag k="ssr:gruppe" v="flater" />
		<tag k="ssr:hovedgruppe" v="terreng" />
		<tag k="ssr:stedsnr" v="691891" />
		<tag k="ssr:type" v="mo" />
	</node>
	<node lat="60.04541509646128" lon="10.950670108954323" id="-18972">
		<tag k="name" v="Nordre Ryggevann" />
		<tag k="natural" v="water" />
		<tag k="ssr:date" v="2021-06-08" />
		<tag k="ssr:gruppe" v="stilleståendeVann" />
		<tag k="ssr:hovedgruppe" v="ferskvann" />
		<tag k="ssr:stedsnr" v="733419" />
		<tag k="ssr:type" v="vann" />
		<tag k="water" v="lake" />
	</node>
	<node lat="60.08879388678277" lon="10.936539474095314" id="-18973">
		<tag k="alt_name" v="Spikertjern" />
		<tag k="name" v="Spikertjernet" />
		<tag k="natural" v="water" />
		<tag k="ssr:date" v="2019-12-27" />
		<tag k="ssr:gruppe" v="stilleståendeVann" />
		<tag k="ssr:hovedgruppe" v="ferskvann" />
		<tag k="ssr:stedsnr" v="733586" />
		<tag k="ssr:type" v="tjern" />
	</node>
	<node lat="60.102830551351325" lon="10.950241667469388" id="-18974">
		<tag k="alt_name" v="Langmyrene" />
		<tag k="name" v="Langmyra" />
		<tag k="natural" v="wetland" />
		<tag k="ssr:date" v="2019-12-27" />
		<tag k="ssr:gruppe" v="våtmark" />
		<tag k="ssr:hovedgruppe" v="markslag" />
		<tag k="ssr:stedsnr" v="734635" />
		<tag k="ssr:type" v="myr" />
	</node>
	<node lat="60.061897220849424" lon="11.038405561070627" id="-18975">
		<tag k="name" v="Holmen" />
		<tag k="place" v="isolated_dwelling" />
		<tag k="ssr:date" v="2019-12-27" />
		<tag k="ssr:gruppe" v="bolighus" />
		<tag k="ssr:hovedgruppe" v="bebyggelse" />
		<tag k="ssr:stedsnr" v="734541" />
		<tag k="ssr:type" v="eneboligMindreBoligbygg" />
	</node>
	<node lat="60.07879721943157" lon="10.98092222284678" id="-18976">
		<tag k="name" v="Sørumsmåsan" />
		<tag k="natural" v="wetland" />
		<tag k="ssr:date" v="2019-12-27" />
		<tag k="ssr:gruppe" v="våtmark" />
		<tag k="ssr:hovedgruppe" v="markslag" />
		<tag k="ssr:stedsnr" v="751919" />
		<tag k="ssr:type" v="myr" />
	</node>
	<node lat="60.05700555750806" lon="10.966658325724481" id="-18977">
		<tag k="name" v="Kalverabben" />
		<tag k="natural" v="hill" />
		<tag k="place" v="locality" />
		<tag k="ssr:date" v="2019-12-27" />
		<tag k="ssr:gruppe" v="høyder" />
		<tag k="ssr:hovedgruppe" v="terreng" />
		<tag k="ssr:stedsnr" v="751956" />
		<tag k="ssr:type" v="haug" />
	</node>
	<node lat="60.058213892381445" lon="11.016916663607908" id="-18978">
		<tag k="name" v="Gartelarsmyra" />
		<tag k="natural" v="wetland" />
		<tag k="ssr:date" v="2019-12-27" />
		<tag k="ssr:gruppe" v="våtmark" />
		<tag k="ssr:hovedgruppe" v="markslag" />
		<tag k="ssr:stedsnr" v="751959" />
		<tag k="ssr:type" v="myr" />
	</node>
	<node lat="60.06323888957265" lon="11.04078888096923" id="-18979">
		<tag k="landuse" v="meadow" />
		<tag k="name" v="Fjelstadenga" />
		<tag k="ssr:date" v="2019-12-27" />
		<tag k="ssr:gruppe" v="dyrkamark" />
		<tag k="ssr:hovedgruppe" v="markslag" />
		<tag k="ssr:stedsnr" v="751963" />
		<tag k="ssr:type" v="eng" />
	</node>
	<node lat="60.05430555756471" lon="11.026397219631002" id="-18980">
		<tag k="name" v="Møkkamyra" />
		<tag k="natural" v="wetland" />
		<tag k="ssr:date" v="2019-12-27" />
		<tag k="ssr:gruppe" v="våtmark" />
		<tag k="ssr:hovedgruppe" v="markslag" />
		<tag k="ssr:stedsnr" v="751966" />
		<tag k="ssr:type" v="myr" />
	</node>
	<node lat="60.105599997075466" lon="10.941524998705955" id="-18981">
		<tag k="name" v="Myrgruvefløyten" />
		<tag k="natural" v="water" />
		<tag k="ssr:date" v="2019-12-27" />
		<tag k="ssr:gruppe" v="rennendeVann" />
		<tag k="ssr:hovedgruppe" v="ferskvann" />
		<tag k="ssr:stedsnr" v="751970" />
		<tag k="ssr:type" v="lon" />
		<tag k="water" v="lake" />
	</node>
	<node lat="60.03413611180297" lon="11.04185832581799" id="-18982">
		<tag k="name" v="Flaen" />
		<tag k="place" v="farm" />
		<tag k="ssr:date" v="2019-12-27" />
		<tag k="ssr:gruppe" v="gardsbebyggelse" />
		<tag k="ssr:hovedgruppe" v="bebyggelse" />
		<tag k="ssr:stedsnr" v="794410" />
		<tag k="ssr:type" v="bruk" />
	</node>
	<node lat="60.09477778174968" lon="10.947627771908678" id="-18983">
		<tag k="alt_name" v="Buvannet" />
		<tag k="name" v="Buvatnet" />
		<tag k="natural" v="water" />
		<tag k="ssr:date" v="2019-12-27" />
		<tag k="ssr:gruppe" v="stilleståendeVann" />
		<tag k="ssr:hovedgruppe" v="ferskvann" />
		<tag k="ssr:stedsnr" v="794617" />
		<tag k="ssr:type" v="vann" />
		<tag k="water" v="lake" />
	</node>
	<node lat="60.07673611483484" lon="11.06625834222585" id="-18984">
		<tag k="fixme" v="multiple name tags, choose one and add the other to alt_name" />
		<tag k="name" v="Olstad;Olstadhaugen" />
		<tag k="place" v="farm" />
		<tag k="ssr:date" v="2019-12-27" />
		<tag k="ssr:gruppe" v="gardsbebyggelse" />
		<tag k="ssr:hovedgruppe" v="bebyggelse" />
		<tag k="ssr:stedsnr" v="794507" />
		<tag k="ssr:type" v="bruk" />
	</node>
	<node lat="60.112616662838846" lon="10.944269436532162" id="-18985">
		<tag k="alt_name" v="Krustjern" />
		<tag k="name" v="Krustjernet" />
		<tag k="natural" v="water" />
		<tag k="ssr:date" v="2019-12-27" />
		<tag k="ssr:gruppe" v="stilleståendeVann" />
		<tag k="ssr:hovedgruppe" v="ferskvann" />
		<tag k="ssr:stedsnr" v="794569" />
		<tag k="ssr:type" v="tjern" />
	</node>
	<node lat="60.05717499686097" lon="11.044066668397278" id="-18986">
		<tag k="alt_name" v="Fjelstadtangen" />
		<tag k="name" v="Tangen" />
		<tag k="place" v="isolated_dwelling" />
		<tag k="ssr:date" v="2019-12-27" />
		<tag k="ssr:gruppe" v="bolighus" />
		<tag k="ssr:hovedgruppe" v="bebyggelse" />
		<tag k="ssr:stedsnr" v="915455" />
		<tag k="ssr:type" v="eneboligMindreBoligbygg" />
	</node>
	<node lat="60.05654722322307" lon="10.953638893076844" id="-18987">
		<tag k="alt_name" v="Langvatn" />
		<tag k="name" v="Langvatnet" />
		<tag k="natural" v="water" />
		<tag k="ssr:date" v="2019-12-27" />
		<tag k="ssr:gruppe" v="stilleståendeVann" />
		<tag k="ssr:hovedgruppe" v="ferskvann" />
		<tag k="ssr:stedsnr" v="915459" />
		<tag k="ssr:type" v="tjern" />
	</node>
	<node lat="60.08694999762798" lon="11.000188882890873" id="-18988">
		<tag k="name" v="Spenningen" />
		<tag k="place" v="farm" />
		<tag k="ssr:date" v="2019-12-27" />
		<tag k="ssr:gruppe" v="gardsbebyggelse" />
		<tag k="ssr:hovedgruppe" v="bebyggelse" />
		<tag k="ssr:stedsnr" v="915501" />
		<tag k="ssr:type" v="bruk" />
	</node>
	<node lat="60.10376111032244" lon="11.026466671882446" id="-18989">
		<tag k="name" v="Kokstadhagan" />
		<tag k="place" v="farm" />
		<tag k="ssr:date" v="2021-06-08" />
		<tag k="ssr:gruppe" v="gardsbebyggelse" />
		<tag k="ssr:hovedgruppe" v="bebyggelse" />
		<tag k="ssr:stedsnr" v="916630" />
		<tag k="ssr:type" v="bruk" />
	</node>
	<node lat="60.10152777760431" lon="11.020841661078592" id="-18990">
		<tag k="name" v="Gran" />
		<tag k="place" v="farm" />
		<tag k="ssr:date" v="2019-12-27" />
		<tag k="ssr:gruppe" v="gardsbebyggelse" />
		<tag k="ssr:hovedgruppe" v="bebyggelse" />
		<tag k="ssr:stedsnr" v="916632" />
		<tag k="ssr:type" v="bruk" />
	</node>
	<node lat="60.09937402332179" lon="11.014456560725872" id="-18991">
		<tag k="fixme" v="consider place=hamlet" />
		<tag k="name" v="Skei" />
		<tag k="place" v="farm" />
		<tag k="ssr:date" v="2020-10-05" />
		<tag k="ssr:gruppe" v="gardsbebyggelse" />
		<tag k="ssr:hovedgruppe" v="bebyggelse" />
		<tag k="ssr:stedsnr" v="916633" />
		<tag k="ssr:type" v="gard" />
	</node>
	<node lat="60.11721388827461" lon="11.079738891824455" id="-18992">
		<tag k="alt_name" v="Løvstad, søndre;Løvstad" />
		<tag k="name" v="Søndre Løvstad" />
		<tag k="place" v="farm" />
		<tag k="ssr:date" v="2019-12-27" />
		<tag k="ssr:gruppe" v="gardsbebyggelse" />
		<tag k="ssr:hovedgruppe" v="bebyggelse" />
		<tag k="ssr:stedsnr" v="916598" />
		<tag k="ssr:type" v="bruk" />
	</node>
	<node lat="60.12082777683347" lon="10.939163883222646" id="-18993">
		<tag k="name" v="Gjerimåsan" />
		<tag k="natural" v="wetland" />
		<tag k="ssr:date" v="2019-12-27" />
		<tag k="ssr:gruppe" v="våtmark" />
		<tag k="ssr:hovedgruppe" v="markslag" />
		<tag k="ssr:stedsnr" v="916702" />
		<tag k="ssr:type" v="myr" />
	</node>
	<node lat="60.08236944381546" lon="10.981488896660132" id="-18994">
		<tag k="historic" v="shieling" />
		<tag k="name" v="Åmotsvangen" />
		<tag k="place" v="locality" />
		<tag k="ssr:date" v="2019-12-27" />
		<tag k="ssr:gruppe" v="dyrkamark" />
		<tag k="ssr:hovedgruppe" v="markslag" />
		<tag k="ssr:stedsnr" v="812904" />
		<tag k="ssr:type" v="setervoll" />
	</node>
	<node lat="60.03873055123494" lon="11.023255550639108" id="-18995">
		<tag k="fixme" v="consider natural=peak for the most distinct mountains in the district" />
		<tag k="name" v="Flatnerfjellet" />
		<tag k="natural" v="hill" />
		<tag k="place" v="locality" />
		<tag k="ssr:date" v="2019-12-27" />
		<tag k="ssr:gruppe" v="høyder" />
		<tag k="ssr:hovedgruppe" v="terreng" />
		<tag k="ssr:stedsnr" v="812929" />
		<tag k="ssr:type" v="ås" />
	</node>
	<node lat="60.099391658718595" lon="11.085469643487063" id="-18996">
		<tag k="alt_name" v="Torshaug" />
		<tag k="name" v="Torshov" />
		<tag k="place" v="hamlet" />
		<tag k="ssr:date" v="2021-04-29" />
		<tag k="ssr:gruppe" v="gardsbebyggelse" />
		<tag k="ssr:hovedgruppe" v="bebyggelse" />
		<tag k="ssr:stedsnr" v="843614" />
		<tag k="ssr:type" v="navnegard" />
	</node>
	<node lat="60.07947500146297" lon="11.019277772407786" id="-18997">
		<tag k="alt_name" v="Fossum, vestre" />
		<tag k="name" v="Vestre Fossum" />
		<tag k="place" v="farm" />
		<tag k="ssr:date" v="2019-12-27" />
		<tag k="ssr:gruppe" v="gardsbebyggelse" />
		<tag k="ssr:hovedgruppe" v="bebyggelse" />
		<tag k="ssr:stedsnr" v="855515" />
		<tag k="ssr:type" v="bruk" />
	</node>
	<node lat="60.035786110822535" lon="11.035858333152378" id="-18998">
		<tag k="alt_name" v="Flatner, store" />
		<tag k="name" v="Store Flatner" />
		<tag k="place" v="farm" />
		<tag k="ssr:date" v="2019-12-27" />
		<tag k="ssr:gruppe" v="gardsbebyggelse" />
		<tag k="ssr:hovedgruppe" v="bebyggelse" />
		<tag k="ssr:stedsnr" v="855410" />
		<tag k="ssr:type" v="bruk" />
	</node>
	<node lat="60.08886110691865" lon="11.041522230771266" id="-18999">
		<tag k="name" v="Hellen" />
		<tag k="place" v="locality" />
		<tag k="ssr:date" v="2019-12-27" />
		<tag k="ssr:gruppe" v="terrengdetaljer" />
		<tag k="ssr:hovedgruppe" v="terreng" />
		<tag k="ssr:stedsnr" v="855485" />
		<tag k="ssr:type" v="annenTerrengdetalj" />
	</node>
	<node lat="60.08656525740893" lon="11.013922223737913" id="-19000">
		<tag k="alt_name" v="Rud, søndre" />
		<tag k="fixme" v="consider place=hamlet" />
		<tag k="name" v="Søndre Rud" />
		<tag k="place" v="farm" />
		<tag k="ssr:date" v="2020-10-05" />
		<tag k="ssr:gruppe" v="gardsbebyggelse" />
		<tag k="ssr:hovedgruppe" v="bebyggelse" />
		<tag k="ssr:stedsnr" v="855487" />
		<tag k="ssr:type" v="gard" />
	</node>
	<node lat="60.08248333655029" lon="11.003424999822785" id="-19001">
		<tag k="fixme" v="multiple name tags, choose one and add the other to alt_name" />
		<tag k="name" v="Haga;Øvre Bråtan" />
		<tag k="place" v="farm" />
		<tag k="ssr:date" v="2021-12-14" />
		<tag k="ssr:gruppe" v="gardsbebyggelse" />
		<tag k="ssr:hovedgruppe" v="bebyggelse" />
		<tag k="ssr:stedsnr" v="855500" />
		<tag k="ssr:type" v="bruk" />
	</node>
	<node lat="60.099652438007" lon="11.006015661644344" id="-19002">
		<tag k="fixme" v="consider place=hamlet" />
		<tag k="name" v="Eikeberg" />
		<tag k="place" v="farm" />
		<tag k="ssr:date" v="2020-10-05" />
		<tag k="ssr:gruppe" v="gardsbebyggelse" />
		<tag k="ssr:hovedgruppe" v="bebyggelse" />
		<tag k="ssr:stedsnr" v="855603" />
		<tag k="ssr:type" v="gard" />
	</node>
	<node lat="60.09996666590303" lon="10.9802555623598" id="-19003">
		<tag k="name" v="Slurka" />
		<tag k="ssr:date" v="2019-12-27" />
		<tag k="ssr:gruppe" v="rennendeVann" />
		<tag k="ssr:hovedgruppe" v="ferskvann" />
		<tag k="ssr:stedsnr" v="855606" />
		<tag k="ssr:type" v="bekk" />
		<tag k="waterway" v="stream" />
	</node>
	<node lat="60.11388109530846" lon="10.995258408441988" id="-19004">
		<tag k="fixme" v="consider place=hamlet" />
		<tag k="name" v="Rustad" />
		<tag k="place" v="farm" />
		<tag k="ssr:date" v="2020-10-05" />
		<tag k="ssr:gruppe" v="gardsbebyggelse" />
		<tag k="ssr:hovedgruppe" v="bebyggelse" />
		<tag k="ssr:stedsnr" v="855694" />
		<tag k="ssr:type" v="gard" />
	</node>
	<node lat="60.09167500102896" lon="10.96302221410403" id="-19005">
		<tag k="name" v="Stormåsan" />
		<tag k="natural" v="wetland" />
		<tag k="ssr:date" v="2021-06-08" />
		<tag k="ssr:gruppe" v="våtmark" />
		<tag k="ssr:hovedgruppe" v="markslag" />
		<tag k="ssr:stedsnr" v="870067" />
		<tag k="ssr:type" v="myr" />
	</node>
	<node lat="60.10181944678303" lon="11.003286110514257" id="-19006">
		<tag k="name" v="Eikeberg" />
		<tag k="place" v="farm" />
		<tag k="ssr:date" v="2019-12-27" />
		<tag k="ssr:gruppe" v="gardsbebyggelse" />
		<tag k="ssr:hovedgruppe" v="bebyggelse" />
		<tag k="ssr:stedsnr" v="934897" />
		<tag k="ssr:type" v="bruk" />
	</node>
	<node lat="60.085925002280135" lon="11.101200000581802" id="-19007">
		<tag k="name" v="Hvam" />
		<tag k="place" v="farm" />
		<tag k="ssr:date" v="2019-12-27" />
		<tag k="ssr:gruppe" v="gardsbebyggelse" />
		<tag k="ssr:hovedgruppe" v="bebyggelse" />
		<tag k="ssr:stedsnr" v="915080" />
		<tag k="ssr:type" v="bruk" />
	</node>
	<node lat="60.08772500191253" lon="10.999019442493049" id="-19008">
		<tag k="alt_name" v="Bekkeberget" />
		<tag k="name" v="Bekkeberga" />
		<tag k="place" v="hamlet" />
		<tag k="ssr:date" v="2019-12-27" />
		<tag k="ssr:gruppe" v="bebyggelsesområder" />
		<tag k="ssr:hovedgruppe" v="bebyggelse" />
		<tag k="ssr:stedsnr" v="915598" />
		<tag k="ssr:type" v="grend" />
	</node>
	<node lat="60.06512599408803" lon="10.935223745051866" id="-19009">
		<tag k="fixme" v="multiple name tags, choose one and add the other to alt_name" />
		<tag k="name" v="Flabben;Mastutjern" />
		<tag k="natural" v="water" />
		<tag k="ssr:date" v="2020-06-05" />
		<tag k="ssr:gruppe" v="stilleståendeVann" />
		<tag k="ssr:hovedgruppe" v="ferskvann" />
		<tag k="ssr:stedsnr" v="916527" />
		<tag k="ssr:type" v="tjern" />
	</node>
	<node lat="60.07006388853355" lon="11.055725002826506" id="-19010">
		<tag k="name" v="Kyken" />
		<tag k="place" v="farm" />
		<tag k="ssr:date" v="2019-12-27" />
		<tag k="ssr:gruppe" v="gardsbebyggelse" />
		<tag k="ssr:hovedgruppe" v="bebyggelse" />
		<tag k="ssr:stedsnr" v="916574" />
		<tag k="ssr:type" v="bruk" />
	</node>
	<node lat="60.0914916670848" lon="11.100005559111338" id="-19011">
		<tag k="name" v="Leirenga" />
		<tag k="place" v="farm" />
		<tag k="ssr:date" v="2019-12-27" />
		<tag k="ssr:gruppe" v="gardsbebyggelse" />
		<tag k="ssr:hovedgruppe" v="bebyggelse" />
		<tag k="ssr:stedsnr" v="933114" />
		<tag k="ssr:type" v="bruk" />
	</node>
	<node lat="60.059279850177894" lon="11.035136000085819" id="-19012">
		<tag k="fixme" v="multiple name tags, choose one and add the other to alt_name; consider place=hamlet" />
		<tag k="name" v="Fjelstadkroken;Kroken" />
		<tag k="place" v="farm" />
		<tag k="ssr:date" v="2021-12-14" />
		<tag k="ssr:gruppe" v="gardsbebyggelse" />
		<tag k="ssr:hovedgruppe" v="bebyggelse" />
		<tag k="ssr:stedsnr" v="934917" />
		<tag k="ssr:type" v="gard" />
	</node>
	<node lat="60.08978721305549" lon="10.937699207071677" id="-19013">
		<tag k="alt_name" v="Spiketjernhytta" />
		<tag k="fixme" v="consider tourism=alpine_hut or tourism=chalet" />
		<tag k="name" v="Spikertjernhytta" />
		<tag k="ssr:date" v="2019-12-27" />
		<tag k="ssr:gruppe" v="næring" />
		<tag k="ssr:hovedgruppe" v="bebyggelse" />
		<tag k="ssr:stedsnr" v="946945" />
		<tag k="ssr:type" v="turisthytte" />
		<tag k="tourism" v="wilderness_hut" />
	</node>
	<node lat="60.11676667928386" lon="10.945301266181657" id="-19014">
		<tag k="fixme" v="consider boundary=protected_area and relevant protect_class if not nature reserve" />
		<tag k="leisure" v="nature_reserve" />
		<tag k="name" v="Gjerimåsan naturreservat" />
		<tag k="ssr:date" v="2021-06-08" />
		<tag k="ssr:gruppe" v="verne-OgBruksområder" />
		<tag k="ssr:hovedgruppe" v="offentligAdministrasjon" />
		<tag k="ssr:stedsnr" v="971492" />
		<tag k="ssr:type" v="verneområde" />
	</node>
	<node lat="60.04717819265479" lon="11.045925395358099" id="-19015">
		<tag k="fixme" v="consider place=hamlet" />
		<tag k="name" v="Bråta" />
		<tag k="place" v="farm" />
		<tag k="ssr:date" v="2020-10-05" />
		<tag k="ssr:gruppe" v="gardsbebyggelse" />
		<tag k="ssr:hovedgruppe" v="bebyggelse" />
		<tag k="ssr:stedsnr" v="5434" />
		<tag k="ssr:type" v="gard" />
	</node>
	<node lat="60.078012229532646" lon="11.057058470678946" id="-19016">
		<tag k="fixme" v="consider place=hamlet" />
		<tag k="name" v="Svensrud" />
		<tag k="place" v="farm" />
		<tag k="ssr:date" v="2020-10-05" />
		<tag k="ssr:gruppe" v="gardsbebyggelse" />
		<tag k="ssr:hovedgruppe" v="bebyggelse" />
		<tag k="ssr:stedsnr" v="5500" />
		<tag k="ssr:type" v="gard" />
	</node>
	<node lat="60.09463611268799" lon="10.970122231068853" id="-19017">
		<tag k="historic" v="shieling" />
		<tag k="name" v="Movangen" />
		<tag k="place" v="locality" />
		<tag k="ssr:date" v="2019-12-27" />
		<tag k="ssr:gruppe" v="dyrkamark" />
		<tag k="ssr:hovedgruppe" v="markslag" />
		<tag k="ssr:stedsnr" v="5600" />
		<tag k="ssr:type" v="setervoll" />
	</node>
	<node lat="60.06651666720088" lon="11.028100008513155" id="-19018">
		<tag k="alt_name" v="Brådal, nordre" />
		<tag k="name" v="Nordre Brådal" />
		<tag k="place" v="farm" />
		<tag k="ssr:date" v="2019-12-27" />
		<tag k="ssr:gruppe" v="gardsbebyggelse" />
		<tag k="ssr:hovedgruppe" v="bebyggelse" />
		<tag k="ssr:stedsnr" v="6539" />
		<tag k="ssr:type" v="bruk" />
	</node>
	<node lat="60.06392221996881" lon="11.082311104839695" id="-19019">
		<tag k="name" v="Sørum" />
		<tag k="place" v="farm" />
		<tag k="ssr:date" v="2019-12-27" />
		<tag k="ssr:gruppe" v="gardsbebyggelse" />
		<tag k="ssr:hovedgruppe" v="bebyggelse" />
		<tag k="ssr:stedsnr" v="23129" />
		<tag k="ssr:type" v="bruk" />
	</node>
	<node lat="60.08682777999368" lon="11.037600006048939" id="-19021">
		<tag k="name" v="Gullhaug" />
		<tag k="place" v="isolated_dwelling" />
		<tag k="ssr:date" v="2019-12-27" />
		<tag k="ssr:gruppe" v="bolighus" />
		<tag k="ssr:hovedgruppe" v="bebyggelse" />
		<tag k="ssr:stedsnr" v="66476" />
		<tag k="ssr:type" v="eneboligMindreBoligbygg" />
	</node>
	<node lat="60.03715833493216" lon="11.064919443738997" id="-19022">
		<tag k="fixme" v="multiple name tags, choose one and add the other to alt_name; consider natural=peak for the most distinct mountains in the district" />
		<tag k="name" v="Heksebergfjellet;Vardåsen;Vardfjellet" />
		<tag k="natural" v="hill" />
		<tag k="old_name" v="Heksebergfjeldet" />
		<tag k="place" v="locality" />
		<tag k="ssr:date" v="2021-06-08" />
		<tag k="ssr:gruppe" v="høyder" />
		<tag k="ssr:hovedgruppe" v="terreng" />
		<tag k="ssr:stedsnr" v="66374" />
		<tag k="ssr:type" v="ås" />
	</node>
	<node lat="60.061216670180315" lon="11.015016662874595" id="-19023">
		<tag k="name" v="Ulvedalshøgda" />
		<tag k="natural" v="hill" />
		<tag k="place" v="locality" />
		<tag k="ssr:date" v="2019-12-27" />
		<tag k="ssr:gruppe" v="høyder" />
		<tag k="ssr:hovedgruppe" v="terreng" />
		<tag k="ssr:stedsnr" v="66466" />
		<tag k="ssr:type" v="haug" />
	</node>
	<node lat="60.069869440693566" lon="10.9765527798745" id="-19024">
		<tag k="alt_name" v="Breidmåsan" />
		<tag k="name" v="Breimåsan" />
		<tag k="natural" v="wetland" />
		<tag k="ssr:date" v="2019-12-27" />
		<tag k="ssr:gruppe" v="våtmark" />
		<tag k="ssr:hovedgruppe" v="markslag" />
		<tag k="ssr:stedsnr" v="66467" />
		<tag k="ssr:type" v="myr" />
	</node>
	<node lat="60.08911666351111" lon="11.101636105047326" id="-19025">
		<tag k="name" v="Enger" />
		<tag k="place" v="farm" />
		<tag k="ssr:date" v="2019-12-27" />
		<tag k="ssr:gruppe" v="gardsbebyggelse" />
		<tag k="ssr:hovedgruppe" v="bebyggelse" />
		<tag k="ssr:stedsnr" v="66083" />
		<tag k="ssr:type" v="bruk" />
	</node>
	<node lat="60.054786108367324" lon="10.976325007434978" id="-19026">
		<tag k="alt_name" v="Jordmyrene" />
		<tag k="name" v="Jordmyrane" />
		<tag k="natural" v="wetland" />
		<tag k="ssr:date" v="2019-12-27" />
		<tag k="ssr:gruppe" v="våtmark" />
		<tag k="ssr:hovedgruppe" v="markslag" />
		<tag k="ssr:stedsnr" v="66440" />
		<tag k="ssr:type" v="myr" />
	</node>
	<node lat="60.06045555743446" lon="10.956505547210053" id="-19027">
		<tag k="name" v="Busterudvangen" />
		<tag k="place" v="isolated_dwelling" />
		<tag k="ssr:date" v="2019-12-27" />
		<tag k="ssr:gruppe" v="bolighus" />
		<tag k="ssr:hovedgruppe" v="bebyggelse" />
		<tag k="ssr:stedsnr" v="66442" />
		<tag k="ssr:type" v="fritidsbolig" />
	</node>
	<node lat="60.090958334098744" lon="10.94512223032274" id="-19028">
		<tag k="name" v="Henimåsan" />
		<tag k="natural" v="wetland" />
		<tag k="ssr:date" v="2019-12-27" />
		<tag k="ssr:gruppe" v="våtmark" />
		<tag k="ssr:hovedgruppe" v="markslag" />
		<tag k="ssr:stedsnr" v="66592" />
		<tag k="ssr:type" v="myr" />
	</node>
	<node lat="60.07816944156525" lon="10.948675005506058" id="-19029">
		<tag k="alt_name" v="Rokstadvangen" />
		<tag k="historic" v="shieling" />
		<tag k="name" v="Rogstadvangen" />
		<tag k="place" v="locality" />
		<tag k="ssr:date" v="2019-12-27" />
		<tag k="ssr:gruppe" v="dyrkamark" />
		<tag k="ssr:hovedgruppe" v="markslag" />
		<tag k="ssr:stedsnr" v="66489" />
		<tag k="ssr:type" v="setervoll" />
	</node>
	<node lat="60.06938888525263" lon="11.020716660371479" id="-19030">
		<tag k="junction" v="yes" />
		<tag k="name" v="Fjellgrinda" />
		<tag k="place" v="locality" />
		<tag k="ssr:date" v="2019-12-27" />
		<tag k="ssr:gruppe" v="veg" />
		<tag k="ssr:hovedgruppe" v="infrastruktur" />
		<tag k="ssr:stedsnr" v="66528" />
		<tag k="ssr:type" v="vegkryss" />
	</node>
	<node lat="60.12813611248389" lon="10.918411110253622" id="-19031">
		<tag k="name" v="Midtelva" />
		<tag k="ssr:date" v="2019-12-27" />
		<tag k="ssr:gruppe" v="rennendeVann" />
		<tag k="ssr:hovedgruppe" v="ferskvann" />
		<tag k="ssr:stedsnr" v="83943" />
		<tag k="ssr:type" v="elv" />
		<tag k="waterway" v="river" />
	</node>
	<node lat="60.08134999819418" lon="11.08981388576692" id="-19032">
		<tag k="name" v="Østvoll" />
		<tag k="place" v="farm" />
		<tag k="ssr:date" v="2019-12-27" />
		<tag k="ssr:gruppe" v="gardsbebyggelse" />
		<tag k="ssr:hovedgruppe" v="bebyggelse" />
		<tag k="ssr:stedsnr" v="84015" />
		<tag k="ssr:type" v="bruk" />
	</node>
	<node lat="60.08611666351915" lon="11.09252499105958" id="-19033">
		<tag k="name" v="Prestegarden" />
		<tag k="place" v="farm" />
		<tag k="ssr:date" v="2019-12-27" />
		<tag k="ssr:gruppe" v="gardsbebyggelse" />
		<tag k="ssr:hovedgruppe" v="bebyggelse" />
		<tag k="ssr:stedsnr" v="84017" />
		<tag k="ssr:type" v="bruk" />
	</node>
	<node lat="60.06596944403753" lon="11.03981111599462" id="-19034">
		<tag k="amenity" v="nursing_home" />
		<tag k="name" v="Gjerdrum aldershjem" />
		<tag k="ssr:date" v="2019-12-27" />
		<tag k="ssr:gruppe" v="institusjoner" />
		<tag k="ssr:hovedgruppe" v="bebyggelse" />
		<tag k="ssr:stedsnr" v="84968" />
		<tag k="ssr:type" v="helseinstitusjon" />
	</node>
	<node lat="60.05001666808459" lon="11.025638884620212" id="-19035">
		<tag k="name" v="Kjestinamyra" />
		<tag k="natural" v="wetland" />
		<tag k="ssr:date" v="2019-12-27" />
		<tag k="ssr:gruppe" v="våtmark" />
		<tag k="ssr:hovedgruppe" v="markslag" />
		<tag k="ssr:stedsnr" v="84970" />
		<tag k="ssr:type" v="myr" />
	</node>
	<node lat="60.037324997049424" lon="11.003800003114767" id="-19036">
		<tag k="name" v="Høgsmåsan" />
		<tag k="natural" v="wetland" />
		<tag k="ssr:date" v="2019-12-27" />
		<tag k="ssr:gruppe" v="våtmark" />
		<tag k="ssr:hovedgruppe" v="markslag" />
		<tag k="ssr:stedsnr" v="126432" />
		<tag k="ssr:type" v="myr" />
	</node>
	<node lat="60.07356909765749" lon="11.077419320591911" id="-19037">
		<tag k="name" v="Olstad" />
		<tag k="place" v="hamlet" />
		<tag k="ssr:date" v="2020-10-05" />
		<tag k="ssr:gruppe" v="gardsbebyggelse" />
		<tag k="ssr:hovedgruppe" v="bebyggelse" />
		<tag k="ssr:stedsnr" v="126553" />
		<tag k="ssr:type" v="navnegard" />
	</node>
	<node lat="60.07163338183153" lon="11.034688392135825" id="-19038">
		<tag k="name" v="Ask" />
		<tag k="place" v="village" />
		<tag k="ssr:date" v="2020-10-05" />
		<tag k="ssr:gruppe" v="bebyggelsesområder" />
		<tag k="ssr:hovedgruppe" v="bebyggelse" />
		<tag k="ssr:stedsnr" v="126555" />
		<tag k="ssr:type" v="tettsted" />
	</node>
	<node lat="60.07160798523678" lon="11.016135305750405" id="-19039">
		<tag k="alt_name" v="Kulsrud, søndre" />
		<tag k="fixme" v="consider place=hamlet" />
		<tag k="name" v="Kulsrud" />
		<tag k="place" v="farm" />
		<tag k="ssr:date" v="2020-10-05" />
		<tag k="ssr:gruppe" v="gardsbebyggelse" />
		<tag k="ssr:hovedgruppe" v="bebyggelse" />
		<tag k="ssr:stedsnr" v="126535" />
		<tag k="ssr:type" v="gard" />
	</node>
	<node lat="60.100811672603456" lon="11.05257143325059" id="-19040">
		<tag k="fixme" v="consider place=hamlet" />
		<tag k="name" v="Korsmo" />
		<tag k="place" v="farm" />
		<tag k="ssr:date" v="2020-10-05" />
		<tag k="ssr:gruppe" v="gardsbebyggelse" />
		<tag k="ssr:hovedgruppe" v="bebyggelse" />
		<tag k="ssr:stedsnr" v="126592" />
		<tag k="ssr:type" v="gard" />
	</node>
	<node lat="60.09492778039662" lon="11.069486120108618" id="-19041">
		<tag k="name" v="Munkeli" />
		<tag k="place" v="isolated_dwelling" />
		<tag k="ssr:date" v="2019-12-27" />
		<tag k="ssr:gruppe" v="bolighus" />
		<tag k="ssr:hovedgruppe" v="bebyggelse" />
		<tag k="ssr:stedsnr" v="126594" />
		<tag k="ssr:type" v="eneboligMindreBoligbygg" />
	</node>
	<node lat="60.10277222227092" lon="11.073724996936894" id="-19042">
		<tag k="name" v="Sandummåsan" />
		<tag k="natural" v="wetland" />
		<tag k="ssr:date" v="2019-12-27" />
		<tag k="ssr:gruppe" v="våtmark" />
		<tag k="ssr:hovedgruppe" v="markslag" />
		<tag k="ssr:stedsnr" v="126595" />
		<tag k="ssr:type" v="myr" />
	</node>
	<node lat="60.115555556677734" lon="10.964663883965589" id="-19043">
		<tag k="historic" v="shieling" />
		<tag k="name" v="Tveitvangen" />
		<tag k="place" v="locality" />
		<tag k="ssr:date" v="2019-12-27" />
		<tag k="ssr:gruppe" v="dyrkamark" />
		<tag k="ssr:hovedgruppe" v="markslag" />
		<tag k="ssr:stedsnr" v="126661" />
		<tag k="ssr:type" v="setervoll" />
	</node>
	<node lat="60.075066670156204" lon="11.034741672494036" id="-19044">
		<tag k="name" v="Askjordet" />
		<tag k="place" v="quarter" />
		<tag k="ssr:date" v="2019-12-27" />
		<tag k="ssr:gruppe" v="bebyggelsesområder" />
		<tag k="ssr:hovedgruppe" v="bebyggelse" />
		<tag k="ssr:stedsnr" v="144872" />
		<tag k="ssr:type" v="boligfelt" />
	</node>
	<node lat="60.07685832902815" lon="11.007922226393497" id="-19045">
		<tag k="name" v="Grønlund" />
		<tag k="place" v="isolated_dwelling" />
		<tag k="ssr:date" v="2019-12-27" />
		<tag k="ssr:gruppe" v="bolighus" />
		<tag k="ssr:hovedgruppe" v="bebyggelse" />
		<tag k="ssr:stedsnr" v="144896" />
		<tag k="ssr:type" v="fritidsbolig" />
	</node>
	<node lat="60.075486110296104" lon="10.966758329874557" id="-19046">
		<tag k="name" v="Olstadbekken" />
		<tag k="ssr:date" v="2019-12-27" />
		<tag k="ssr:gruppe" v="rennendeVann" />
		<tag k="ssr:hovedgruppe" v="ferskvann" />
		<tag k="ssr:stedsnr" v="144914" />
		<tag k="ssr:type" v="bekk" />
		<tag k="waterway" v="stream" />
	</node>
	<node lat="60.08869999785449" lon="10.974816660870054" id="-19047">
		<tag k="name" v="Åmotsoten" />
		<tag k="natural" v="wetland" />
		<tag k="ssr:date" v="2019-12-27" />
		<tag k="ssr:gruppe" v="våtmark" />
		<tag k="ssr:hovedgruppe" v="markslag" />
		<tag k="ssr:stedsnr" v="144918" />
		<tag k="ssr:type" v="myr" />
	</node>
	<node lat="60.05843611329804" lon="11.002036109669826" id="-19048">
		<tag k="name" v="Maurholet" />
		<tag k="natural" v="valley" />
		<tag k="place" v="locality" />
		<tag k="ssr:date" v="2019-12-27" />
		<tag k="ssr:gruppe" v="senkninger" />
		<tag k="ssr:hovedgruppe" v="terreng" />
		<tag k="ssr:stedsnr" v="144948" />
		<tag k="ssr:type" v="søkk" />
	</node>
	<node lat="60.089758337870805" lon="11.028674994451238" id="-19049">
		<tag k="bridge" v="yes" />
		<tag k="layer" v="1" />
		<tag k="name" v="Sag" />
		<tag k="ssr:date" v="2019-12-27" />
		<tag k="ssr:gruppe" v="samferdselsanlegg" />
		<tag k="ssr:hovedgruppe" v="infrastruktur" />
		<tag k="ssr:stedsnr" v="167789" />
		<tag k="ssr:type" v="bru" />
	</node>
	<node lat="60.04364167069231" lon="11.033719448915635" id="-19050">
		<tag k="alt_name" v="Flatner, lille;Flatner vesle;Flatner lille" />
		<tag k="name" v="Lille Flatner" />
		<tag k="place" v="farm" />
		<tag k="ssr:date" v="2019-12-27" />
		<tag k="ssr:gruppe" v="gardsbebyggelse" />
		<tag k="ssr:hovedgruppe" v="bebyggelse" />
		<tag k="ssr:stedsnr" v="187400" />
		<tag k="ssr:type" v="bruk" />
	</node>
	<node lat="60.07800833575887" lon="10.9873861078322" id="-19051">
		<tag k="name" v="Harasletta" />
		<tag k="place" v="isolated_dwelling" />
		<tag k="ssr:date" v="2019-12-27" />
		<tag k="ssr:gruppe" v="bolighus" />
		<tag k="ssr:hovedgruppe" v="bebyggelse" />
		<tag k="ssr:stedsnr" v="187490" />
		<tag k="ssr:type" v="eneboligMindreBoligbygg" />
	</node>
	<node lat="60.08582777815354" lon="10.951419450984728" id="-19052">
		<tag k="alt_name" v="Kokstadvangen" />
		<tag k="historic" v="shieling" />
		<tag k="name" v="Nedre Kokstadvangen" />
		<tag k="place" v="locality" />
		<tag k="ssr:date" v="2019-12-27" />
		<tag k="ssr:gruppe" v="dyrkamark" />
		<tag k="ssr:hovedgruppe" v="markslag" />
		<tag k="ssr:stedsnr" v="187495" />
		<tag k="ssr:type" v="setervoll" />
	</node>
	<node lat="60.08422777374534" lon="11.00552500383284" id="-19053">
		<tag k="fixme" v="multiple name tags, choose one and add the other to alt_name" />
		<tag k="name" v="Bråtan;Åmotsbråtan;Nedre Bråtan" />
		<tag k="place" v="farm" />
		<tag k="ssr:date" v="2021-12-14" />
		<tag k="ssr:gruppe" v="gardsbebyggelse" />
		<tag k="ssr:hovedgruppe" v="bebyggelse" />
		<tag k="ssr:stedsnr" v="187500" />
		<tag k="ssr:type" v="bruk" />
	</node>
	<node lat="60.07746388496336" lon="11.024474998788154" id="-19054">
		<tag k="name" v="Bjørkely" />
		<tag k="place" v="farm" />
		<tag k="ssr:date" v="2019-12-27" />
		<tag k="ssr:gruppe" v="gardsbebyggelse" />
		<tag k="ssr:hovedgruppe" v="bebyggelse" />
		<tag k="ssr:stedsnr" v="187501" />
		<tag k="ssr:type" v="bruk" />
	</node>
	<node lat="60.05689166746678" lon="11.002650007326778" id="-19055">
		<tag k="fixme" v="consider natural=peak for the most distinct mountains in the district" />
		<tag k="name" v="Klintehøgda" />
		<tag k="natural" v="hill" />
		<tag k="place" v="locality" />
		<tag k="ssr:date" v="2021-06-08" />
		<tag k="ssr:gruppe" v="høyder" />
		<tag k="ssr:hovedgruppe" v="terreng" />
		<tag k="ssr:stedsnr" v="187440" />
		<tag k="ssr:type" v="ås" />
	</node>
	<node lat="60.05348888470083" lon="10.981847214975565" id="-19056">
		<tag k="historic" v="shieling" />
		<tag k="name" v="Askvangen" />
		<tag k="place" v="locality" />
		<tag k="ssr:date" v="2019-12-27" />
		<tag k="ssr:gruppe" v="dyrkamark" />
		<tag k="ssr:hovedgruppe" v="markslag" />
		<tag k="ssr:stedsnr" v="187441" />
		<tag k="ssr:type" v="setervoll" />
	</node>
	<node lat="60.060125002195655" lon="10.933436118532669" id="-19057">
		<tag k="name" v="Haugsputten" />
		<tag k="natural" v="water" />
		<tag k="ssr:date" v="2019-12-27" />
		<tag k="ssr:gruppe" v="stilleståendeVann" />
		<tag k="ssr:hovedgruppe" v="ferskvann" />
		<tag k="ssr:stedsnr" v="187444" />
		<tag k="ssr:type" v="tjern" />
	</node>
	<node lat="60.071350001601736" lon="11.02368610445466" id="-19058">
		<tag k="name" v="Åsgård" />
		<tag k="place" v="farm" />
		<tag k="ssr:date" v="2019-12-27" />
		<tag k="ssr:gruppe" v="gardsbebyggelse" />
		<tag k="ssr:hovedgruppe" v="bebyggelse" />
		<tag k="ssr:stedsnr" v="187521" />
		<tag k="ssr:type" v="bruk" />
	</node>
	<node lat="60.05389722540357" lon="11.094891665317746" id="-19059">
		<tag k="name" v="Smedstuen" />
		<tag k="place" v="farm" />
		<tag k="ssr:date" v="2019-12-27" />
		<tag k="ssr:gruppe" v="gardsbebyggelse" />
		<tag k="ssr:hovedgruppe" v="bebyggelse" />
		<tag k="ssr:stedsnr" v="205126" />
		<tag k="ssr:type" v="bruk" />
	</node>
	<node lat="60.08095555885656" lon="10.974705553547631" id="-19060">
		<tag k="name" v="Elvesvingen" />
		<tag k="place" v="locality" />
		<tag k="ssr:date" v="2019-12-27" />
		<tag k="ssr:gruppe" v="terrengdetaljer" />
		<tag k="ssr:hovedgruppe" v="terreng" />
		<tag k="ssr:stedsnr" v="205928" />
		<tag k="ssr:type" v="annenTerrengdetalj" />
	</node>
	<node lat="60.051280557852" lon="11.01421666097384" id="-19061">
		<tag k="historic" v="shieling" />
		<tag k="name" v="Nedre Asmyrvangen" />
		<tag k="place" v="locality" />
		<tag k="ssr:date" v="2019-12-27" />
		<tag k="ssr:gruppe" v="dyrkamark" />
		<tag k="ssr:hovedgruppe" v="markslag" />
		<tag k="ssr:stedsnr" v="206913" />
		<tag k="ssr:type" v="setervoll" />
	</node>
	<node lat="60.10356111513782" lon="10.962400006491196" id="-19062">
		<tag k="historic" v="shieling" />
		<tag k="name" v="Smedstadvangen" />
		<tag k="place" v="locality" />
		<tag k="ssr:date" v="2019-12-27" />
		<tag k="ssr:gruppe" v="dyrkamark" />
		<tag k="ssr:hovedgruppe" v="markslag" />
		<tag k="ssr:stedsnr" v="206919" />
		<tag k="ssr:type" v="setervoll" />
	</node>
	<node lat="60.10250833284395" lon="10.954374999616908" id="-19063">
		<tag k="name" v="Vangslia" />
		<tag k="natural" v="slope" />
		<tag k="place" v="locality" />
		<tag k="ssr:date" v="2019-12-27" />
		<tag k="ssr:gruppe" v="skråninger" />
		<tag k="ssr:hovedgruppe" v="terreng" />
		<tag k="ssr:stedsnr" v="206929" />
		<tag k="ssr:type" v="li" />
	</node>
	<node lat="60.059130555246796" lon="10.943013889729569" id="-19064">
		<tag k="name" v="Busterudmåsan" />
		<tag k="natural" v="wetland" />
		<tag k="ssr:date" v="2019-12-27" />
		<tag k="ssr:gruppe" v="våtmark" />
		<tag k="ssr:hovedgruppe" v="markslag" />
		<tag k="ssr:stedsnr" v="206951" />
		<tag k="ssr:type" v="myr" />
	</node>
	<node lat="60.04182399801395" lon="11.052898841398529" id="-19065">
		<tag k="alt_name" v="Skauen;Bråta" />
		<tag k="name" v="Skogen" />
		<tag k="place" v="farm" />
		<tag k="ssr:date" v="2021-12-06" />
		<tag k="ssr:gruppe" v="gardsbebyggelse" />
		<tag k="ssr:hovedgruppe" v="bebyggelse" />
		<tag k="ssr:stedsnr" v="308401" />
		<tag k="ssr:type" v="bruk" />
	</node>
	<node lat="60.053099996156575" lon="11.0410333265601" id="-19066">
		<tag k="name" v="Høyenhall" />
		<tag k="place" v="farm" />
		<tag k="ssr:date" v="2019-12-27" />
		<tag k="ssr:gruppe" v="gardsbebyggelse" />
		<tag k="ssr:hovedgruppe" v="bebyggelse" />
		<tag k="ssr:stedsnr" v="308432" />
		<tag k="ssr:type" v="bruk" />
	</node>
	<node lat="60.106805559657644" lon="10.940675001663154" id="-19067">
		<tag k="name" v="Myrgruvefossen" />
		<tag k="natural" v="waterfall" />
		<tag k="ssr:date" v="2019-12-27" />
		<tag k="ssr:gruppe" v="rennendeVann" />
		<tag k="ssr:hovedgruppe" v="ferskvann" />
		<tag k="ssr:stedsnr" v="309613" />
		<tag k="ssr:type" v="foss" />
	</node>
	<node lat="60.10957500211726" lon="11.086886115782006" id="-19068">
		<tag k="name" v="Trulsrud" />
		<tag k="place" v="farm" />
		<tag k="ssr:date" v="2019-12-27" />
		<tag k="ssr:gruppe" v="gardsbebyggelse" />
		<tag k="ssr:hovedgruppe" v="bebyggelse" />
		<tag k="ssr:stedsnr" v="309620" />
		<tag k="ssr:type" v="bruk" />
	</node>
	<node lat="60.10498582283537" lon="11.083867912970838" id="-19069">
		<tag k="name" v="Sandum" />
		<tag k="place" v="hamlet" />
		<tag k="ssr:date" v="2020-10-05" />
		<tag k="ssr:gruppe" v="gardsbebyggelse" />
		<tag k="ssr:hovedgruppe" v="bebyggelse" />
		<tag k="ssr:stedsnr" v="309621" />
		<tag k="ssr:type" v="navnegard" />
	</node>
	<node lat="60.07878610699299" lon="11.098208331366434" id="-19070">
		<tag k="name" v="Prestegardshagen" />
		<tag k="place" v="locality" />
		<tag k="ssr:date" v="2019-12-27" />
		<tag k="ssr:gruppe" v="gardsbebyggelse" />
		<tag k="ssr:hovedgruppe" v="bebyggelse" />
		<tag k="ssr:stedsnr" v="326012" />
		<tag k="ssr:type" v="eiendom" />
	</node>
	<node lat="60.098849998818125" lon="11.063819445181048" id="-19071">
		<tag k="name" v="Henau" />
		<tag k="place" v="farm" />
		<tag k="ssr:date" v="2019-12-27" />
		<tag k="ssr:gruppe" v="gardsbebyggelse" />
		<tag k="ssr:hovedgruppe" v="bebyggelse" />
		<tag k="ssr:stedsnr" v="326092" />
		<tag k="ssr:type" v="bruk" />
	</node>
	<node lat="60.07915833361592" lon="11.018630562440373" id="-19072">
		<tag k="junction" v="yes" />
		<tag k="name" v="Leirdalen" />
		<tag k="place" v="locality" />
		<tag k="ssr:date" v="2019-12-27" />
		<tag k="ssr:gruppe" v="veg" />
		<tag k="ssr:hovedgruppe" v="infrastruktur" />
		<tag k="ssr:stedsnr" v="326880" />
		<tag k="ssr:type" v="vegkryss" />
	</node>
	<node lat="60.07158888937718" lon="11.035966665350104" id="-19073">
		<tag k="amenity" v="townhall" />
		<tag k="name" v="Herredshus" />
		<tag k="ssr:date" v="2019-12-27" />
		<tag k="ssr:gruppe" v="institusjoner" />
		<tag k="ssr:hovedgruppe" v="bebyggelse" />
		<tag k="ssr:stedsnr" v="326892" />
		<tag k="ssr:type" v="rådhus" />
	</node>
	<node lat="60.080783335854534" lon="11.059983331517456" id="-19074">
		<tag k="name" v="Svensrudfossen" />
		<tag k="natural" v="waterfall" />
		<tag k="ssr:date" v="2019-12-27" />
		<tag k="ssr:gruppe" v="rennendeVann" />
		<tag k="ssr:hovedgruppe" v="ferskvann" />
		<tag k="ssr:stedsnr" v="326895" />
		<tag k="ssr:type" v="foss" />
	</node>
	<node lat="60.0728694452392" lon="11.03292499337006" id="-19075">
		<tag k="junction" v="yes" />
		<tag k="name" v="Smedstuen" />
		<tag k="place" v="locality" />
		<tag k="ssr:date" v="2019-12-27" />
		<tag k="ssr:gruppe" v="veg" />
		<tag k="ssr:hovedgruppe" v="infrastruktur" />
		<tag k="ssr:stedsnr" v="326897" />
		<tag k="ssr:type" v="vegkryss" />
	</node>
	<node lat="60.09012777994052" lon="10.970802785789386" id="-19076">
		<tag k="name" v="Nordlåbekken" />
		<tag k="ssr:date" v="2019-12-27" />
		<tag k="ssr:gruppe" v="rennendeVann" />
		<tag k="ssr:hovedgruppe" v="ferskvann" />
		<tag k="ssr:stedsnr" v="326933" />
		<tag k="ssr:type" v="bekk" />
		<tag k="waterway" v="stream" />
	</node>
	<node lat="60.06810833681451" lon="11.038933342499567" id="-19077">
		<tag k="name" v="Hønsisletta" />
		<tag k="place" v="locality" />
		<tag k="ssr:date" v="2019-12-27" />
		<tag k="ssr:gruppe" v="flater" />
		<tag k="ssr:hovedgruppe" v="terreng" />
		<tag k="ssr:stedsnr" v="327931" />
		<tag k="ssr:type" v="slette" />
	</node>
	<node lat="60.07131944861305" lon="10.943533336817481" id="-19078">
		<tag k="name" v="Fossummåsan" />
		<tag k="natural" v="wetland" />
		<tag k="ssr:date" v="2019-12-27" />
		<tag k="ssr:gruppe" v="våtmark" />
		<tag k="ssr:hovedgruppe" v="markslag" />
		<tag k="ssr:stedsnr" v="327947" />
		<tag k="ssr:type" v="myr" />
	</node>
	<node lat="60.062702754229335" lon="11.034944060261118" id="-19079">
		<tag k="alt_name" v="Fjelstadbekken" />
		<tag k="name" v="Tistilbekken" />
		<tag k="ssr:date" v="2019-12-27" />
		<tag k="ssr:gruppe" v="rennendeVann" />
		<tag k="ssr:hovedgruppe" v="ferskvann" />
		<tag k="ssr:stedsnr" v="369432" />
		<tag k="ssr:type" v="bekk" />
		<tag k="waterway" v="stream" />
	</node>
	<node lat="60.08841388659693" lon="11.085152780302362" id="-19080">
		<tag k="name" v="Gjerdrum" />
		<tag k="place" v="farm" />
		<tag k="ssr:date" v="2019-12-27" />
		<tag k="ssr:gruppe" v="gardsbebyggelse" />
		<tag k="ssr:hovedgruppe" v="bebyggelse" />
		<tag k="ssr:stedsnr" v="369439" />
		<tag k="ssr:type" v="bruk" />
	</node>
	<node lat="60.10311388500165" lon="11.02106944428552" id="-19081">
		<tag k="name" v="Vestbyhagan" />
		<tag k="place" v="farm" />
		<tag k="ssr:date" v="2021-06-08" />
		<tag k="ssr:gruppe" v="gardsbebyggelse" />
		<tag k="ssr:hovedgruppe" v="bebyggelse" />
		<tag k="ssr:stedsnr" v="384593" />
		<tag k="ssr:type" v="bruk" />
	</node>
	<node lat="60.096330554187396" lon="10.97070555888447" id="-19082">
		<tag k="name" v="Molia" />
		<tag k="natural" v="slope" />
		<tag k="place" v="locality" />
		<tag k="ssr:date" v="2019-12-27" />
		<tag k="ssr:gruppe" v="skråninger" />
		<tag k="ssr:hovedgruppe" v="terreng" />
		<tag k="ssr:stedsnr" v="387925" />
		<tag k="ssr:type" v="li" />
	</node>
	<node lat="60.03516667034673" lon="11.047066675771179" id="-19083">
		<tag k="name" v="Fjeldly" />
		<tag k="place" v="farm" />
		<tag k="ssr:date" v="2019-12-27" />
		<tag k="ssr:gruppe" v="gardsbebyggelse" />
		<tag k="ssr:hovedgruppe" v="bebyggelse" />
		<tag k="ssr:stedsnr" v="387928" />
		<tag k="ssr:type" v="bruk" />
	</node>
	<node lat="60.07823055245115" lon="11.035941660715261" id="-19084">
		<tag k="name" v="Klokkerenga" />
		<tag k="place" v="farm" />
		<tag k="ssr:date" v="2019-12-27" />
		<tag k="ssr:gruppe" v="gardsbebyggelse" />
		<tag k="ssr:hovedgruppe" v="bebyggelse" />
		<tag k="ssr:stedsnr" v="387872" />
		<tag k="ssr:type" v="bruk" />
	</node>
	<node lat="60.07265833571846" lon="11.020297222092504" id="-19085">
		<tag k="name" v="Vestli" />
		<tag k="place" v="isolated_dwelling" />
		<tag k="ssr:date" v="2019-12-27" />
		<tag k="ssr:gruppe" v="bolighus" />
		<tag k="ssr:hovedgruppe" v="bebyggelse" />
		<tag k="ssr:stedsnr" v="387879" />
		<tag k="ssr:type" v="eneboligMindreBoligbygg" />
	</node>
	<node lat="60.06365555899203" lon="11.048700005166495" id="-19086">
		<tag k="fixme" v="consider place=hamlet" />
		<tag k="name" v="Nedre Fjelstad" />
		<tag k="place" v="farm" />
		<tag k="ssr:date" v="2021-12-14" />
		<tag k="ssr:gruppe" v="gardsbebyggelse" />
		<tag k="ssr:hovedgruppe" v="bebyggelse" />
		<tag k="ssr:stedsnr" v="404034" />
		<tag k="ssr:type" v="gard" />
	</node>
	<node lat="60.05396111501595" lon="11.046516668870597" id="-19087">
		<tag k="landuse" v="meadow" />
		<tag k="name" v="Asmyrenga" />
		<tag k="ssr:date" v="2019-12-27" />
		<tag k="ssr:gruppe" v="dyrkamark" />
		<tag k="ssr:hovedgruppe" v="markslag" />
		<tag k="ssr:stedsnr" v="448940" />
		<tag k="ssr:type" v="eng" />
	</node>
	<node lat="60.11025555839077" lon="10.919511105246754" id="-19088">
		<tag k="name" v="Trappemyrene" />
		<tag k="natural" v="wetland" />
		<tag k="ssr:date" v="2019-12-27" />
		<tag k="ssr:gruppe" v="våtmark" />
		<tag k="ssr:hovedgruppe" v="markslag" />
		<tag k="ssr:stedsnr" v="448970" />
		<tag k="ssr:type" v="myr" />
	</node>
	<node lat="60.07145555490151" lon="10.946666671090318" id="-19089">
		<tag k="historic" v="shieling" />
		<tag k="name" v="Fossumvangen" />
		<tag k="place" v="locality" />
		<tag k="ssr:date" v="2019-12-27" />
		<tag k="ssr:gruppe" v="dyrkamark" />
		<tag k="ssr:hovedgruppe" v="markslag" />
		<tag k="ssr:stedsnr" v="448972" />
		<tag k="ssr:type" v="setervoll" />
	</node>
	<node lat="60.09873055108064" lon="11.004819450864677" id="-19090">
		<tag k="bridge" v="yes" />
		<tag k="layer" v="1" />
		<tag k="name" v="Eikeberg" />
		<tag k="ssr:date" v="2019-12-27" />
		<tag k="ssr:gruppe" v="samferdselsanlegg" />
		<tag k="ssr:hovedgruppe" v="infrastruktur" />
		<tag k="ssr:stedsnr" v="410774" />
		<tag k="ssr:type" v="bru" />
	</node>
	<node lat="60.09393888716141" lon="10.930877785875646" id="-19091">
		<tag k="historic" v="shieling" />
		<tag k="loc_name" v="Nebergsvangen" />
		<tag k="name" v="Nittebergvangen" />
		<tag k="place" v="locality" />
		<tag k="ssr:date" v="2019-12-27" />
		<tag k="ssr:gruppe" v="dyrkamark" />
		<tag k="ssr:hovedgruppe" v="markslag" />
		<tag k="ssr:stedsnr" v="430618" />
		<tag k="ssr:type" v="setervoll" />
	</node>
	<node lat="60.08762778074072" lon="11.103125000399896" id="-19092">
		<tag k="name" v="Elverud" />
		<tag k="place" v="farm" />
		<tag k="ssr:date" v="2019-12-27" />
		<tag k="ssr:gruppe" v="gardsbebyggelse" />
		<tag k="ssr:hovedgruppe" v="bebyggelse" />
		<tag k="ssr:stedsnr" v="430081" />
		<tag k="ssr:type" v="bruk" />
	</node>
	<node lat="60.06870962527726" lon="11.041164468695033" id="-19093">
		<tag k="fixme" v="consider place=hamlet" />
		<tag k="name" v="Hønsi" />
		<tag k="place" v="farm" />
		<tag k="ssr:date" v="2020-10-05" />
		<tag k="ssr:gruppe" v="gardsbebyggelse" />
		<tag k="ssr:hovedgruppe" v="bebyggelse" />
		<tag k="ssr:stedsnr" v="430472" />
		<tag k="ssr:type" v="gard" />
	</node>
	<node lat="60.06624444603889" lon="10.947044447078772" id="-19094">
		<tag k="alt_name" v="Hellemyrene" />
		<tag k="name" v="Hellemyrane" />
		<tag k="natural" v="wetland" />
		<tag k="ssr:date" v="2019-12-27" />
		<tag k="ssr:gruppe" v="våtmark" />
		<tag k="ssr:hovedgruppe" v="markslag" />
		<tag k="ssr:stedsnr" v="430476" />
		<tag k="ssr:type" v="myr" />
	</node>
	<node lat="60.043891663668035" lon="11.017463886403846" id="-19095">
		<tag k="alt_name" v="Ulvedalstjernet, søndre;Ulvedalstjern søndre" />
		<tag k="name" v="Søndre Ulvedalstjern" />
		<tag k="natural" v="water" />
		<tag k="ssr:date" v="2019-12-27" />
		<tag k="ssr:gruppe" v="stilleståendeVann" />
		<tag k="ssr:hovedgruppe" v="ferskvann" />
		<tag k="ssr:stedsnr" v="430430" />
		<tag k="ssr:type" v="tjern" />
	</node>
	<node lat="60.045191667894244" lon="11.003338896607813" id="-19096">
		<tag k="historic" v="shieling" />
		<tag k="name" v="Fjelstadvangen" />
		<tag k="place" v="locality" />
		<tag k="ssr:date" v="2019-12-27" />
		<tag k="ssr:gruppe" v="dyrkamark" />
		<tag k="ssr:hovedgruppe" v="markslag" />
		<tag k="ssr:stedsnr" v="430432" />
		<tag k="ssr:type" v="setervoll" />
	</node>
	<node lat="60.04717499980124" lon="11.032066665563136" id="-19097">
		<tag k="name" v="Sagholen" />
		<tag k="place" v="isolated_dwelling" />
		<tag k="ssr:date" v="2019-12-27" />
		<tag k="ssr:gruppe" v="bolighus" />
		<tag k="ssr:hovedgruppe" v="bebyggelse" />
		<tag k="ssr:stedsnr" v="430434" />
		<tag k="ssr:type" v="eneboligMindreBoligbygg" />
	</node>
	<node lat="60.085300000997414" lon="11.079130553808364" id="-19098">
		<tag k="name" v="Smedstad" />
		<tag k="place" v="farm" />
		<tag k="ssr:date" v="2019-12-27" />
		<tag k="ssr:gruppe" v="gardsbebyggelse" />
		<tag k="ssr:hovedgruppe" v="bebyggelse" />
		<tag k="ssr:stedsnr" v="430514" />
		<tag k="ssr:type" v="bruk" />
	</node>
	<node lat="60.07754999573284" lon="11.051066663555119" id="-19099">
		<tag k="name" v="Løken" />
		<tag k="place" v="farm" />
		<tag k="ssr:date" v="2019-12-27" />
		<tag k="ssr:gruppe" v="gardsbebyggelse" />
		<tag k="ssr:hovedgruppe" v="bebyggelse" />
		<tag k="ssr:stedsnr" v="430524" />
		<tag k="ssr:type" v="bruk" />
	</node>
	<node lat="60.07113889017358" lon="10.965030562327627" id="-19100">
		<tag k="name" v="Steindalen" />
		<tag k="natural" v="valley" />
		<tag k="place" v="locality" />
		<tag k="ssr:date" v="2019-12-27" />
		<tag k="ssr:gruppe" v="senkninger" />
		<tag k="ssr:hovedgruppe" v="terreng" />
		<tag k="ssr:stedsnr" v="430540" />
		<tag k="ssr:type" v="dal" />
	</node>
	<node lat="60.07255555211534" lon="10.997452774862868" id="-19101">
		<tag k="name" v="Kulsrudfjellet" />
		<tag k="place" v="quarter" />
		<tag k="ssr:date" v="2021-06-08" />
		<tag k="ssr:gruppe" v="bebyggelsesområder" />
		<tag k="ssr:hovedgruppe" v="bebyggelse" />
		<tag k="ssr:stedsnr" v="445054" />
		<tag k="ssr:type" v="boligfelt" />
	</node>
	<node lat="60.08207777954965" lon="11.086300002135095" id="-19102">
		<tag k="name" v="Gjeri" />
		<tag k="place" v="isolated_dwelling" />
		<tag k="ssr:date" v="2019-12-27" />
		<tag k="ssr:gruppe" v="bolighus" />
		<tag k="ssr:hovedgruppe" v="bebyggelse" />
		<tag k="ssr:stedsnr" v="508020" />
		<tag k="ssr:type" v="eneboligMindreBoligbygg" />
	</node>
	<node lat="60.073611111807715" lon="11.027508342007536" id="-19103">
		<tag k="name" v="Grønnvoll" />
		<tag k="place" v="isolated_dwelling" />
		<tag k="ssr:date" v="2019-12-27" />
		<tag k="ssr:gruppe" v="bolighus" />
		<tag k="ssr:hovedgruppe" v="bebyggelse" />
		<tag k="ssr:stedsnr" v="508881" />
		<tag k="ssr:type" v="eneboligMindreBoligbygg" />
	</node>
	<node lat="60.05083055549253" lon="11.046574998615755" id="-19104">
		<tag k="name" v="Svingen" />
		<tag k="place" v="farm" />
		<tag k="ssr:date" v="2019-12-27" />
		<tag k="ssr:gruppe" v="gardsbebyggelse" />
		<tag k="ssr:hovedgruppe" v="bebyggelse" />
		<tag k="ssr:stedsnr" v="509899" />
		<tag k="ssr:type" v="bruk" />
	</node>
	<node lat="60.04279898094048" lon="10.953123465369169" id="-19105">
		<tag k="fixme" v="consider boundary=protected_area and relevant protect_class if not nature reserve" />
		<tag k="leisure" v="nature_reserve" />
		<tag k="name" v="Prekestolen og Ryggevanna naturreservat" />
		<tag k="ssr:date" v="2021-06-08" />
		<tag k="ssr:gruppe" v="verne-OgBruksområder" />
		<tag k="ssr:hovedgruppe" v="offentligAdministrasjon" />
		<tag k="ssr:stedsnr" v="545993" />
		<tag k="ssr:type" v="verneområde" />
	</node>
	<node lat="60.02568055146978" lon="11.018055551680145" id="-19106">
		<tag k="name" v="Ulvedalsbekken" />
		<tag k="ssr:date" v="2019-12-27" />
		<tag k="ssr:gruppe" v="rennendeVann" />
		<tag k="ssr:hovedgruppe" v="ferskvann" />
		<tag k="ssr:stedsnr" v="551387" />
		<tag k="ssr:type" v="bekk" />
		<tag k="waterway" v="stream" />
	</node>
	<node lat="60.05363055380109" lon="10.940225003586022" id="-19107">
		<tag k="fixme" v="consider natural=peak for the most distinct mountains in the district" />
		<tag k="name" v="Prekestolen" />
		<tag k="natural" v="hill" />
		<tag k="place" v="locality" />
		<tag k="ssr:date" v="2019-12-27" />
		<tag k="ssr:gruppe" v="høyder" />
		<tag k="ssr:hovedgruppe" v="terreng" />
		<tag k="ssr:stedsnr" v="551465" />
		<tag k="ssr:type" v="ås" />
	</node>
	<node lat="60.11072499607454" lon="10.971202769568102" id="-19108">
		<tag k="name" v="Gruvbakken" />
		<tag k="place" v="locality" />
		<tag k="ssr:date" v="2019-12-27" />
		<tag k="ssr:gruppe" v="kulturminner" />
		<tag k="ssr:hovedgruppe" v="kultur" />
		<tag k="ssr:stedsnr" v="551570" />
		<tag k="ssr:type" v="annenKulturdetalj" />
	</node>
	<node lat="60.04619444099326" lon="11.066277781039835" id="-19109">
		<tag k="alt_name" v="Ramdal" />
		<tag k="name" v="Ramdalen" />
		<tag k="place" v="farm" />
		<tag k="ssr:date" v="2019-12-27" />
		<tag k="ssr:gruppe" v="gardsbebyggelse" />
		<tag k="ssr:hovedgruppe" v="bebyggelse" />
		<tag k="ssr:stedsnr" v="551428" />
		<tag k="ssr:type" v="bruk" />
	</node>
	<node lat="60.04664999693106" lon="11.01734445280283" id="-19110">
		<tag k="alt_name" v="Ulvedalstjernet, nordre;Ulvedalstjern nordre" />
		<tag k="name" v="Nordre Ulvedalstjern" />
		<tag k="natural" v="water" />
		<tag k="ssr:date" v="2019-12-27" />
		<tag k="ssr:gruppe" v="stilleståendeVann" />
		<tag k="ssr:hovedgruppe" v="ferskvann" />
		<tag k="ssr:stedsnr" v="551431" />
		<tag k="ssr:type" v="tjern" />
	</node>
	<node lat="60.10276944052158" lon="10.972119437299368" id="-19111">
		<tag k="alt_name" v="Torshaugvangen" />
		<tag k="historic" v="shieling" />
		<tag k="loc_name" v="Tosovangen" />
		<tag k="name" v="Torshovvangen" />
		<tag k="place" v="locality" />
		<tag k="ssr:date" v="2019-12-27" />
		<tag k="ssr:gruppe" v="dyrkamark" />
		<tag k="ssr:hovedgruppe" v="markslag" />
		<tag k="ssr:stedsnr" v="551596" />
		<tag k="ssr:type" v="setervoll" />
	</node>
	<node lat="60.12091666259226" lon="10.947963880855294" id="-19112">
		<tag k="alt_name" v="Stråtjern;Stråtjernet" />
		<tag k="name" v="Stråsjøen" />
		<tag k="natural" v="water" />
		<tag k="ssr:date" v="2019-12-27" />
		<tag k="ssr:gruppe" v="stilleståendeVann" />
		<tag k="ssr:hovedgruppe" v="ferskvann" />
		<tag k="ssr:stedsnr" v="551669" />
		<tag k="ssr:type" v="tjern" />
	</node>
	<node lat="60.0913666558261" lon="11.026841657605384" id="-19113">
		<tag k="alt_name" v="Åmot østre" />
		<tag k="fixme" v="consider place=hamlet" />
		<tag k="name" v="Østre Åmot" />
		<tag k="place" v="farm" />
		<tag k="ssr:date" v="2020-10-05" />
		<tag k="ssr:gruppe" v="gardsbebyggelse" />
		<tag k="ssr:hovedgruppe" v="bebyggelse" />
		<tag k="ssr:stedsnr" v="569873" />
		<tag k="ssr:type" v="gard" />
	</node>
	<node lat="60.10628333733515" lon="11.052191667818162" id="-19114">
		<tag k="name" v="Ramsli" />
		<tag k="place" v="isolated_dwelling" />
		<tag k="ssr:date" v="2019-12-27" />
		<tag k="ssr:gruppe" v="bolighus" />
		<tag k="ssr:hovedgruppe" v="bebyggelse" />
		<tag k="ssr:stedsnr" v="569880" />
		<tag k="ssr:type" v="eneboligMindreBoligbygg" />
	</node>
	<node lat="60.108413884882296" lon="11.055177785738106" id="-19115">
		<tag k="name" v="Kjærstad" />
		<tag k="place" v="farm" />
		<tag k="ssr:date" v="2019-12-27" />
		<tag k="ssr:gruppe" v="gardsbebyggelse" />
		<tag k="ssr:hovedgruppe" v="bebyggelse" />
		<tag k="ssr:stedsnr" v="569882" />
		<tag k="ssr:type" v="bruk" />
	</node>
	<node lat="60.10920000400407" lon="11.0562472252706" id="-19116">
		<tag k="name" v="Lundby" />
		<tag k="place" v="farm" />
		<tag k="ssr:date" v="2019-12-27" />
		<tag k="ssr:gruppe" v="gardsbebyggelse" />
		<tag k="ssr:hovedgruppe" v="bebyggelse" />
		<tag k="ssr:stedsnr" v="569888" />
		<tag k="ssr:type" v="bruk" />
	</node>
	<node lat="60.07317777818847" lon="10.981666670580926" id="-19117">
		<tag k="historic" v="shieling" />
		<tag k="name" v="Rudsvangen" />
		<tag k="place" v="locality" />
		<tag k="ssr:date" v="2019-12-27" />
		<tag k="ssr:gruppe" v="dyrkamark" />
		<tag k="ssr:hovedgruppe" v="markslag" />
		<tag k="ssr:stedsnr" v="568889" />
		<tag k="ssr:type" v="setervoll" />
	</node>
	<node lat="60.105613889657064" lon="10.937875003057314" id="-19118">
		<tag k="name" v="Myrgruva" />
		<tag k="place" v="locality" />
		<tag k="ssr:date" v="2019-12-27" />
		<tag k="ssr:gruppe" v="kulturminner" />
		<tag k="ssr:hovedgruppe" v="kultur" />
		<tag k="ssr:stedsnr" v="569944" />
		<tag k="ssr:type" v="annenKulturdetalj" />
	</node>
	<node lat="60.08517777827705" lon="10.937544441574913" id="-19119">
		<tag k="historic" v="shieling" />
		<tag k="name" v="Øvre Kokstadvangen" />
		<tag k="place" v="locality" />
		<tag k="ssr:date" v="2019-12-27" />
		<tag k="ssr:gruppe" v="dyrkamark" />
		<tag k="ssr:hovedgruppe" v="markslag" />
		<tag k="ssr:stedsnr" v="569946" />
		<tag k="ssr:type" v="setervoll" />
	</node>
	<node lat="60.082811110504366" lon="10.9414805621024" id="-19120">
		<tag k="name" v="Jenselia" />
		<tag k="natural" v="slope" />
		<tag k="place" v="locality" />
		<tag k="ssr:date" v="2019-12-27" />
		<tag k="ssr:gruppe" v="skråninger" />
		<tag k="ssr:hovedgruppe" v="terreng" />
		<tag k="ssr:stedsnr" v="569947" />
		<tag k="ssr:type" v="li" />
	</node>
	<node lat="60.05059166430283" lon="11.09074167214582" id="-19121">
		<tag k="alt_name" v="Sørumstangen" />
		<tag k="name" v="Tangen" />
		<tag k="place" v="farm" />
		<tag k="ssr:date" v="2019-12-27" />
		<tag k="ssr:gruppe" v="gardsbebyggelse" />
		<tag k="ssr:hovedgruppe" v="bebyggelse" />
		<tag k="ssr:stedsnr" v="611471" />
		<tag k="ssr:type" v="bruk" />
	</node>
	<node lat="60.0936694315314" lon="11.01039204111435" id="-19122">
		<tag k="alt_name" v="Åmot;Åmot vestre" />
		<tag k="fixme" v="consider place=hamlet" />
		<tag k="name" v="Vestre Åmot" />
		<tag k="place" v="farm" />
		<tag k="ssr:date" v="2020-10-05" />
		<tag k="ssr:gruppe" v="gardsbebyggelse" />
		<tag k="ssr:hovedgruppe" v="bebyggelse" />
		<tag k="ssr:stedsnr" v="611630" />
		<tag k="ssr:type" v="gard" />
	</node>
	<node lat="60.03323888748152" lon="11.022330554501409" id="-19123">
		<tag k="name" v="Bakkemåsan" />
		<tag k="natural" v="wetland" />
		<tag k="ssr:date" v="2019-12-27" />
		<tag k="ssr:gruppe" v="våtmark" />
		<tag k="ssr:hovedgruppe" v="markslag" />
		<tag k="ssr:stedsnr" v="612439" />
		<tag k="ssr:type" v="myr" />
	</node>
	<node lat="60.08564713408463" lon="11.085787107158554" id="-19124">
		<tag k="name" v="Gjerdrum" />
		<tag k="place" v="hamlet" />
		<tag k="ssr:date" v="2020-10-05" />
		<tag k="ssr:gruppe" v="gardsbebyggelse" />
		<tag k="ssr:hovedgruppe" v="bebyggelse" />
		<tag k="ssr:stedsnr" v="612554" />
		<tag k="ssr:type" v="navnegard" />
	</node>
	<node lat="60.07966111442324" lon="11.077875006059088" id="-19125">
		<tag k="name" v="Hol" />
		<tag k="place" v="isolated_dwelling" />
		<tag k="ssr:date" v="2019-12-27" />
		<tag k="ssr:gruppe" v="bolighus" />
		<tag k="ssr:hovedgruppe" v="bebyggelse" />
		<tag k="ssr:stedsnr" v="612555" />
		<tag k="ssr:type" v="eneboligMindreBoligbygg" />
	</node>
	<node lat="60.11098055406598" lon="10.962827780071342" id="-19126">
		<tag k="historic" v="shieling" />
		<tag k="name" v="Kjærstadvangen" />
		<tag k="place" v="locality" />
		<tag k="ssr:date" v="2019-12-27" />
		<tag k="ssr:gruppe" v="dyrkamark" />
		<tag k="ssr:hovedgruppe" v="markslag" />
		<tag k="ssr:stedsnr" v="612593" />
		<tag k="ssr:type" v="setervoll" />
	</node>
	<node lat="60.0836000027306" lon="11.042458332513563" id="-19127">
		<tag k="name" v="Kråkvål" />
		<tag k="place" v="farm" />
		<tag k="ssr:date" v="2019-12-27" />
		<tag k="ssr:gruppe" v="gardsbebyggelse" />
		<tag k="ssr:hovedgruppe" v="bebyggelse" />
		<tag k="ssr:stedsnr" v="629898" />
		<tag k="ssr:type" v="bruk" />
	</node>
	<node lat="60.07893889248293" lon="10.963513888769615" id="-19128">
		<tag k="junction" v="yes" />
		<tag k="name" v="Prestlykkja" />
		<tag k="place" v="locality" />
		<tag k="ssr:date" v="2019-12-27" />
		<tag k="ssr:gruppe" v="veg" />
		<tag k="ssr:hovedgruppe" v="infrastruktur" />
		<tag k="ssr:stedsnr" v="629927" />
		<tag k="ssr:type" v="vegkryss" />
	</node>
	<node lat="60.078780551337566" lon="10.971758329563096" id="-19129">
		<tag k="historic" v="shieling" />
		<tag k="name" v="Jørnsvangen" />
		<tag k="place" v="locality" />
		<tag k="ssr:date" v="2019-12-27" />
		<tag k="ssr:gruppe" v="dyrkamark" />
		<tag k="ssr:hovedgruppe" v="markslag" />
		<tag k="ssr:stedsnr" v="629929" />
		<tag k="ssr:type" v="setervoll" />
	</node>
	<node lat="60.10390277899764" lon="11.019841673915135" id="-19130">
		<tag k="name" v="Nøysom" />
		<tag k="place" v="farm" />
		<tag k="ssr:date" v="2019-12-27" />
		<tag k="ssr:gruppe" v="gardsbebyggelse" />
		<tag k="ssr:hovedgruppe" v="bebyggelse" />
		<tag k="ssr:stedsnr" v="630881" />
		<tag k="ssr:type" v="bruk" />
	</node>
	<node lat="60.05560519873087" lon="11.051067806882548" id="-19131">
		<tag k="fixme" v="multiple name tags, choose one and add the other to alt_name" />
		<tag k="name" v="Hesthagan;Nordre Fjelstad" />
		<tag k="place" v="farm" />
		<tag k="ssr:date" v="2021-12-09" />
		<tag k="ssr:gruppe" v="gardsbebyggelse" />
		<tag k="ssr:hovedgruppe" v="bebyggelse" />
		<tag k="ssr:stedsnr" v="646443" />
		<tag k="ssr:type" v="bruk" />
	</node>
	<node lat="60.08135278228018" lon="11.017519439603884" id="-19132">
		<tag k="junction" v="yes" />
		<tag k="name" v="Rønnegrinda" />
		<tag k="place" v="locality" />
		<tag k="ssr:date" v="2019-12-27" />
		<tag k="ssr:gruppe" v="veg" />
		<tag k="ssr:hovedgruppe" v="infrastruktur" />
		<tag k="ssr:stedsnr" v="733497" />
		<tag k="ssr:type" v="vegkryss" />
	</node>
	<node lat="60.09264877980831" lon="11.053410014305287" id="-19133">
		<tag k="fixme" v="consider place=hamlet" />
		<tag k="name" v="Årstad" />
		<tag k="place" v="farm" />
		<tag k="ssr:date" v="2020-10-05" />
		<tag k="ssr:gruppe" v="gardsbebyggelse" />
		<tag k="ssr:hovedgruppe" v="bebyggelse" />
		<tag k="ssr:stedsnr" v="733464" />
		<tag k="ssr:type" v="gard" />
	</node>
	<node lat="60.08065000059201" lon="10.984291667303854" id="-19134">
		<tag k="alt_name" v="Grytefossen" />
		<tag k="name" v="Grytfossen" />
		<tag k="natural" v="waterfall" />
		<tag k="ssr:date" v="2019-12-27" />
		<tag k="ssr:gruppe" v="rennendeVann" />
		<tag k="ssr:hovedgruppe" v="ferskvann" />
		<tag k="ssr:stedsnr" v="733482" />
		<tag k="ssr:type" v="foss" />
	</node>
	<node lat="60.097836775165256" lon="11.05957217918252" id="-19135">
		<tag k="name" v="Heni" />
		<tag k="place" v="hamlet" />
		<tag k="ssr:date" v="2020-10-05" />
		<tag k="ssr:gruppe" v="gardsbebyggelse" />
		<tag k="ssr:hovedgruppe" v="bebyggelse" />
		<tag k="ssr:stedsnr" v="733572" />
		<tag k="ssr:type" v="navnegard" />
	</node>
	<node lat="59.98788888984426" lon="11.084655560632108" id="-19136">
		<tag k="alt_name" v="Leirelva" />
		<tag k="name" v="Leira" />
		<tag k="ssr:date" v="2019-12-27" />
		<tag k="ssr:gruppe" v="rennendeVann" />
		<tag k="ssr:hovedgruppe" v="ferskvann" />
		<tag k="ssr:stedsnr" v="733534" />
		<tag k="ssr:type" v="elv" />
		<tag k="waterway" v="river" />
	</node>
	<node lat="60.099850030588534" lon="11.032146453532837" id="-19137">
		<tag k="name" v="Kokstad" />
		<tag k="place" v="hamlet" />
		<tag k="ssr:date" v="2020-10-05" />
		<tag k="ssr:gruppe" v="gardsbebyggelse" />
		<tag k="ssr:hovedgruppe" v="bebyggelse" />
		<tag k="ssr:stedsnr" v="734644" />
		<tag k="ssr:type" v="navnegard" />
	</node>
	<node lat="60.06640833125912" lon="11.06157500624347" id="-19138">
		<tag k="alt_name" v="Hammer" />
		<tag k="name" v="Hammar" />
		<tag k="place" v="farm" />
		<tag k="ssr:date" v="2019-12-27" />
		<tag k="ssr:gruppe" v="gardsbebyggelse" />
		<tag k="ssr:hovedgruppe" v="bebyggelse" />
		<tag k="ssr:stedsnr" v="734543" />
		<tag k="ssr:type" v="bruk" />
	</node>
	<node lat="60.06019501334955" lon="11.06691266914718" id="-19139">
		<tag k="fixme" v="consider place=hamlet" />
		<tag k="name" v="Hval" />
		<tag k="place" v="farm" />
		<tag k="ssr:date" v="2020-10-05" />
		<tag k="ssr:gruppe" v="gardsbebyggelse" />
		<tag k="ssr:hovedgruppe" v="bebyggelse" />
		<tag k="ssr:stedsnr" v="734546" />
		<tag k="ssr:type" v="gard" />
	</node>
	<node lat="60.060849997509884" lon="10.993416662906867" id="-19140">
		<tag k="name" v="Overholsmåsan" />
		<tag k="natural" v="wetland" />
		<tag k="ssr:date" v="2019-12-27" />
		<tag k="ssr:gruppe" v="våtmark" />
		<tag k="ssr:hovedgruppe" v="markslag" />
		<tag k="ssr:stedsnr" v="734552" />
		<tag k="ssr:type" v="myr" />
	</node>
	<node lat="60.06258610981787" lon="11.06511388842282" id="-19141">
		<tag k="name" v="Hvalstad" />
		<tag k="place" v="locality" />
		<tag k="ssr:date" v="2019-12-27" />
		<tag k="ssr:gruppe" v="gardsbebyggelse" />
		<tag k="ssr:hovedgruppe" v="bebyggelse" />
		<tag k="ssr:stedsnr" v="751117" />
		<tag k="ssr:type" v="eiendom" />
	</node>
	<node lat="60.10251666679917" lon="11.004261103623017" id="-19142">
		<tag k="junction" v="yes" />
		<tag k="name" v="Eikebergstajet" />
		<tag k="place" v="locality" />
		<tag k="ssr:date" v="2019-12-27" />
		<tag k="ssr:gruppe" v="veg" />
		<tag k="ssr:hovedgruppe" v="infrastruktur" />
		<tag k="ssr:stedsnr" v="751948" />
		<tag k="ssr:type" v="vegkryss" />
	</node>
	<node lat="60.074155559961035" lon="11.024586112372283" id="-19143">
		<tag k="name" v="Nyland" />
		<tag k="place" v="farm" />
		<tag k="ssr:date" v="2019-12-27" />
		<tag k="ssr:gruppe" v="gardsbebyggelse" />
		<tag k="ssr:hovedgruppe" v="bebyggelse" />
		<tag k="ssr:stedsnr" v="751898" />
		<tag k="ssr:type" v="bruk" />
	</node>
	<node lat="60.10441342136662" lon="11.060090652876783" id="-19144">
		<tag k="fixme" v="consider place=hamlet" />
		<tag k="name" v="Mo" />
		<tag k="place" v="farm" />
		<tag k="ssr:date" v="2020-10-05" />
		<tag k="ssr:gruppe" v="gardsbebyggelse" />
		<tag k="ssr:hovedgruppe" v="bebyggelse" />
		<tag k="ssr:stedsnr" v="794577" />
		<tag k="ssr:type" v="gard" />
	</node>
	<node lat="60.10483333116249" lon="11.065105547591507" id="-19145">
		<tag k="name" v="Sandvoll" />
		<tag k="place" v="farm" />
		<tag k="ssr:date" v="2019-12-27" />
		<tag k="ssr:gruppe" v="gardsbebyggelse" />
		<tag k="ssr:hovedgruppe" v="bebyggelse" />
		<tag k="ssr:stedsnr" v="794578" />
		<tag k="ssr:type" v="bruk" />
	</node>
	<node lat="60.109128526788616" lon="11.077052876330987" id="-19146">
		<tag k="fixme" v="consider place=hamlet" />
		<tag k="name" v="Berg" />
		<tag k="place" v="farm" />
		<tag k="ssr:date" v="2020-10-05" />
		<tag k="ssr:gruppe" v="gardsbebyggelse" />
		<tag k="ssr:hovedgruppe" v="bebyggelse" />
		<tag k="ssr:stedsnr" v="794580" />
		<tag k="ssr:type" v="gard" />
	</node>
	<node lat="60.09947777556352" lon="10.985441672892843" id="-19147">
		<tag k="fixme" v="consider natural=peak for the most distinct mountains in the district" />
		<tag k="name" v="Eikebergsfjellet" />
		<tag k="natural" v="hill" />
		<tag k="place" v="locality" />
		<tag k="ssr:date" v="2019-12-27" />
		<tag k="ssr:gruppe" v="høyder" />
		<tag k="ssr:hovedgruppe" v="terreng" />
		<tag k="ssr:stedsnr" v="794597" />
		<tag k="ssr:type" v="ås" />
	</node>
	<node lat="60.056552780022926" lon="11.051883332137145" id="-19148">
		<tag k="name" v="Tangendalen" />
		<tag k="natural" v="valley" />
		<tag k="place" v="locality" />
		<tag k="ssr:date" v="2019-12-27" />
		<tag k="ssr:gruppe" v="senkninger" />
		<tag k="ssr:hovedgruppe" v="terreng" />
		<tag k="ssr:stedsnr" v="794453" />
		<tag k="ssr:type" v="dal" />
	</node>
	<node lat="60.0583555596781" lon="10.970775002015518" id="-19149">
		<tag k="alt_name" v="Askvangen, vesle" />
		<tag k="historic" v="shieling" />
		<tag k="name" v="Vesleaskvangen" />
		<tag k="place" v="locality" />
		<tag k="ssr:date" v="2019-12-27" />
		<tag k="ssr:gruppe" v="dyrkamark" />
		<tag k="ssr:hovedgruppe" v="markslag" />
		<tag k="ssr:stedsnr" v="794456" />
		<tag k="ssr:type" v="setervoll" />
	</node>
	<node lat="60.1145843935814" lon="11.078820665341526" id="-19150">
		<tag k="fixme" v="consider place=hamlet" />
		<tag k="name" v="Nitteberg" />
		<tag k="place" v="farm" />
		<tag k="ssr:date" v="2020-10-05" />
		<tag k="ssr:gruppe" v="gardsbebyggelse" />
		<tag k="ssr:hovedgruppe" v="bebyggelse" />
		<tag k="ssr:stedsnr" v="794560" />
		<tag k="ssr:type" v="gard" />
	</node>
	<node lat="60.11848888515329" lon="10.990858338322953" id="-19151">
		<tag k="name" v="Rustadfjellet" />
		<tag k="natural" v="hill" />
		<tag k="place" v="locality" />
		<tag k="ssr:date" v="2019-12-27" />
		<tag k="ssr:gruppe" v="høyder" />
		<tag k="ssr:hovedgruppe" v="terreng" />
		<tag k="ssr:stedsnr" v="812093" />
		<tag k="ssr:type" v="høyde" />
	</node>
	<node lat="60.10097778005635" lon="11.07778889071868" id="-19152">
		<tag k="name" v="Belstad" />
		<tag k="place" v="isolated_dwelling" />
		<tag k="ssr:date" v="2019-12-27" />
		<tag k="ssr:gruppe" v="bolighus" />
		<tag k="ssr:hovedgruppe" v="bebyggelse" />
		<tag k="ssr:stedsnr" v="812122" />
		<tag k="ssr:type" v="eneboligMindreBoligbygg" />
	</node>
	<node lat="60.10659722510757" lon="10.955499997278569" id="-19153">
		<tag k="name" v="Brenna" />
		<tag k="natural" v="slope" />
		<tag k="place" v="locality" />
		<tag k="ssr:date" v="2019-12-27" />
		<tag k="ssr:gruppe" v="skråninger" />
		<tag k="ssr:hovedgruppe" v="terreng" />
		<tag k="ssr:stedsnr" v="812946" />
		<tag k="ssr:type" v="li" />
	</node>
	<node lat="60.11256944840603" lon="10.932255548067184" id="-19154">
		<tag k="name" v="Harahoppet" />
		<tag k="natural" v="wetland" />
		<tag k="ssr:date" v="2019-12-27" />
		<tag k="ssr:gruppe" v="våtmark" />
		<tag k="ssr:hovedgruppe" v="markslag" />
		<tag k="ssr:stedsnr" v="812950" />
		<tag k="ssr:type" v="myr" />
	</node>
	<node lat="60.06471666291136" lon="11.006705558691873" id="-19155">
		<tag k="name" v="Kniplia" />
		<tag k="natural" v="slope" />
		<tag k="place" v="locality" />
		<tag k="ssr:date" v="2019-12-27" />
		<tag k="ssr:gruppe" v="skråninger" />
		<tag k="ssr:hovedgruppe" v="terreng" />
		<tag k="ssr:stedsnr" v="812959" />
		<tag k="ssr:type" v="li" />
	</node>
	<node lat="60.06261585033885" lon="11.049073232593411" id="-19156">
		<tag k="name" v="Fjelstad" />
		<tag k="place" v="hamlet" />
		<tag k="ssr:date" v="2020-10-05" />
		<tag k="ssr:gruppe" v="gardsbebyggelse" />
		<tag k="ssr:hovedgruppe" v="bebyggelse" />
		<tag k="ssr:stedsnr" v="829485" />
		<tag k="ssr:type" v="navnegard" />
	</node>
	<node lat="60.0795805568069" lon="11.036863888842369" id="-19157">
		<tag k="name" v="Sørli" />
		<tag k="place" v="farm" />
		<tag k="ssr:date" v="2019-12-27" />
		<tag k="ssr:gruppe" v="gardsbebyggelse" />
		<tag k="ssr:hovedgruppe" v="bebyggelse" />
		<tag k="ssr:stedsnr" v="855519" />
		<tag k="ssr:type" v="bruk" />
	</node>
	<node lat="60.08374397535098" lon="11.037983407924324" id="-19158">
		<tag k="name" v="Kråkvål" />
		<tag k="place" v="hamlet" />
		<tag k="ssr:date" v="2020-10-05" />
		<tag k="ssr:gruppe" v="gardsbebyggelse" />
		<tag k="ssr:hovedgruppe" v="bebyggelse" />
		<tag k="ssr:stedsnr" v="855522" />
		<tag k="ssr:type" v="navnegard" />
	</node>
	<node lat="60.03966111423532" lon="11.017172223738902" id="-19159">
		<tag k="name" v="Ulvedalen" />
		<tag k="natural" v="valley" />
		<tag k="place" v="locality" />
		<tag k="ssr:date" v="2019-12-27" />
		<tag k="ssr:gruppe" v="senkninger" />
		<tag k="ssr:hovedgruppe" v="terreng" />
		<tag k="ssr:stedsnr" v="855430" />
		<tag k="ssr:type" v="dal" />
	</node>
	<node lat="60.05330000003887" lon="11.015272215619671" id="-19160">
		<tag k="historic" v="shieling" />
		<tag k="name" v="Asmyrvangen" />
		<tag k="place" v="locality" />
		<tag k="ssr:date" v="2019-12-27" />
		<tag k="ssr:gruppe" v="dyrkamark" />
		<tag k="ssr:hovedgruppe" v="markslag" />
		<tag k="ssr:stedsnr" v="855459" />
		<tag k="ssr:type" v="setervoll" />
	</node>
	<node lat="60.1155472247969" lon="10.92789167316452" id="-19161">
		<tag k="name" v="Gjermåa" />
		<tag k="ssr:date" v="2019-12-27" />
		<tag k="ssr:gruppe" v="rennendeVann" />
		<tag k="ssr:hovedgruppe" v="ferskvann" />
		<tag k="ssr:stedsnr" v="855575" />
		<tag k="ssr:type" v="elv" />
		<tag k="waterway" v="river" />
	</node>
	<node lat="60.10759999695798" lon="10.995430557194112" id="-19162">
		<tag k="name" v="Dølienga" />
		<tag k="place" v="farm" />
		<tag k="ssr:date" v="2019-12-27" />
		<tag k="ssr:gruppe" v="gardsbebyggelse" />
		<tag k="ssr:hovedgruppe" v="bebyggelse" />
		<tag k="ssr:stedsnr" v="855582" />
		<tag k="ssr:type" v="bruk" />
	</node>
	<node lat="60.08725555804117" lon="11.01552777928932" id="-19163">
		<tag k="alt_name" v="Rud, vestre;Rud" />
		<tag k="name" v="Vestre Rud" />
		<tag k="place" v="farm" />
		<tag k="ssr:date" v="2019-12-27" />
		<tag k="ssr:gruppe" v="gardsbebyggelse" />
		<tag k="ssr:hovedgruppe" v="bebyggelse" />
		<tag k="ssr:stedsnr" v="855630" />
		<tag k="ssr:type" v="bruk" />
	</node>
	<node lat="60.08225277846997" lon="11.035116665375234" id="-19164">
		<tag k="name" v="Nordvoll" />
		<tag k="place" v="farm" />
		<tag k="ssr:date" v="2019-12-27" />
		<tag k="ssr:gruppe" v="gardsbebyggelse" />
		<tag k="ssr:hovedgruppe" v="bebyggelse" />
		<tag k="ssr:stedsnr" v="872880" />
		<tag k="ssr:type" v="bruk" />
	</node>
	<node lat="60.07385833563123" lon="11.017327783904221" id="-19165">
		<tag k="name" v="Kulsrud" />
		<tag k="place" v="farm" />
		<tag k="ssr:date" v="2019-12-27" />
		<tag k="ssr:gruppe" v="gardsbebyggelse" />
		<tag k="ssr:hovedgruppe" v="bebyggelse" />
		<tag k="ssr:stedsnr" v="872890" />
		<tag k="ssr:type" v="bruk" />
	</node>
	<node lat="60.08269444331533" lon="10.956141660680204" id="-19166">
		<tag k="name" v="Skeisfløyten" />
		<tag k="natural" v="water" />
		<tag k="ssr:date" v="2019-12-27" />
		<tag k="ssr:gruppe" v="rennendeVann" />
		<tag k="ssr:hovedgruppe" v="ferskvann" />
		<tag k="ssr:stedsnr" v="872928" />
		<tag k="ssr:type" v="lon" />
		<tag k="water" v="lake" />
	</node>
	<node lat="60.08677222574367" lon="10.997533333812912" id="-19167">
		<tag k="name" v="Spenningsmyrene" />
		<tag k="natural" v="wetland" />
		<tag k="ssr:date" v="2019-12-27" />
		<tag k="ssr:gruppe" v="våtmark" />
		<tag k="ssr:hovedgruppe" v="markslag" />
		<tag k="ssr:stedsnr" v="872932" />
		<tag k="ssr:type" v="myr" />
	</node>
	<node lat="60.04265277980176" lon="11.027402772099851" id="-19168">
		<tag k="name" v="Bjønndalen" />
		<tag k="natural" v="valley" />
		<tag k="place" v="locality" />
		<tag k="ssr:date" v="2019-12-27" />
		<tag k="ssr:gruppe" v="senkninger" />
		<tag k="ssr:hovedgruppe" v="terreng" />
		<tag k="ssr:stedsnr" v="873918" />
		<tag k="ssr:type" v="dal" />
	</node>
	<node lat="60.032555554732774" lon="11.061997228128492" id="-19169">
		<tag k="name" v="Vardemåsan" />
		<tag k="natural" v="wetland" />
		<tag k="ssr:date" v="2019-12-27" />
		<tag k="ssr:gruppe" v="våtmark" />
		<tag k="ssr:hovedgruppe" v="markslag" />
		<tag k="ssr:stedsnr" v="873924" />
		<tag k="ssr:type" v="myr" />
	</node>
	<node lat="60.05537222422001" lon="11.019961110815066" id="-19170">
		<tag k="name" v="Flatbyfjellet" />
		<tag k="natural" v="hill" />
		<tag k="place" v="locality" />
		<tag k="ssr:date" v="2019-12-27" />
		<tag k="ssr:gruppe" v="høyder" />
		<tag k="ssr:hovedgruppe" v="terreng" />
		<tag k="ssr:stedsnr" v="873941" />
		<tag k="ssr:type" v="berg" />
	</node>
	<node lat="60.06124999607797" lon="11.020516669740095" id="-19171">
		<tag k="name" v="Brådalsfjellet" />
		<tag k="natural" v="hill" />
		<tag k="place" v="locality" />
		<tag k="ssr:date" v="2019-12-27" />
		<tag k="ssr:gruppe" v="høyder" />
		<tag k="ssr:hovedgruppe" v="terreng" />
		<tag k="ssr:stedsnr" v="873943" />
		<tag k="ssr:type" v="berg" />
	</node>
	<node lat="60.06371944296799" lon="11.019461116482734" id="-19172">
		<tag k="name" v="Askdammen" />
		<tag k="natural" v="water" />
		<tag k="ssr:date" v="2019-12-27" />
		<tag k="ssr:gruppe" v="stilleståendeVann" />
		<tag k="ssr:hovedgruppe" v="ferskvann" />
		<tag k="ssr:stedsnr" v="873946" />
		<tag k="ssr:type" v="vann" />
		<tag k="water" v="lake" />
	</node>
	<node lat="60.05739999925425" lon="10.941436110204323" id="-19173">
		<tag k="fixme" v="consider natural=peak for the most distinct mountains in the district" />
		<tag k="name" v="Lauvhaugen" />
		<tag k="natural" v="hill" />
		<tag k="place" v="locality" />
		<tag k="ssr:date" v="2019-12-27" />
		<tag k="ssr:gruppe" v="høyder" />
		<tag k="ssr:hovedgruppe" v="terreng" />
		<tag k="ssr:stedsnr" v="873959" />
		<tag k="ssr:type" v="ås" />
	</node>
	<node lat="60.08935000054382" lon="11.040819451317606" id="-19174">
		<tag k="bridge" v="yes" />
		<tag k="layer" v="1" />
		<tag k="name" v="Hellen" />
		<tag k="ssr:date" v="2019-12-27" />
		<tag k="ssr:gruppe" v="samferdselsanlegg" />
		<tag k="ssr:hovedgruppe" v="infrastruktur" />
		<tag k="ssr:stedsnr" v="956783" />
		<tag k="ssr:type" v="bru" />
	</node>
	<node lat="60.05686666822863" lon="11.042811109591911" id="-19175">
		<tag k="bridge" v="yes" />
		<tag k="layer" v="1" />
		<tag k="name" v="Ulvedal" />
		<tag k="ssr:date" v="2019-12-27" />
		<tag k="ssr:gruppe" v="samferdselsanlegg" />
		<tag k="ssr:hovedgruppe" v="infrastruktur" />
		<tag k="ssr:stedsnr" v="956786" />
		<tag k="ssr:type" v="bru" />
	</node>
	<node lat="60.064941064648984" lon="11.042981578999754" id="-19178">
		<tag k="fixme" v="consider place=hamlet" />
		<tag k="name" v="Nordre Fjelstad" />
		<tag k="place" v="farm" />
		<tag k="ssr:date" v="2021-12-09" />
		<tag k="ssr:gruppe" v="gardsbebyggelse" />
		<tag k="ssr:hovedgruppe" v="bebyggelse" />
		<tag k="ssr:stedsnr" v="978286" />
		<tag k="ssr:type" v="gard" />
	</node>
	<node lat="60.11869093873775" lon="11.082344391311715" id="-19186">
		<tag k="fixme" v="consider place=hamlet" />
		<tag k="name" v="Løvstad" />
		<tag k="place" v="farm" />
		<tag k="ssr:date" v="2020-10-05" />
		<tag k="ssr:gruppe" v="gardsbebyggelse" />
		<tag k="ssr:hovedgruppe" v="bebyggelse" />
		<tag k="ssr:stedsnr" v="1078453" />
		<tag k="ssr:type" v="gard" />
	</node>
	<node lat="60.08581578460733" lon="11.092448574653375" id="-19187">
		<tag k="fixme" v="consider place=hamlet" />
		<tag k="name" v="Gjerdrum prestegård" />
		<tag k="place" v="farm" />
		<tag k="ssr:date" v="2020-10-05" />
		<tag k="ssr:gruppe" v="gardsbebyggelse" />
		<tag k="ssr:hovedgruppe" v="bebyggelse" />
		<tag k="ssr:stedsnr" v="1078454" />
		<tag k="ssr:type" v="gard" />
	</node>
	<node lat="60.08252806364473" lon="11.084475338463854" id="-19188">
		<tag k="name" v="Gjerdrum søndre" />
		<tag k="place" v="farm" />
		<tag k="ssr:date" v="2020-10-05" />
		<tag k="ssr:gruppe" v="gardsbebyggelse" />
		<tag k="ssr:hovedgruppe" v="bebyggelse" />
		<tag k="ssr:stedsnr" v="1078455" />
		<tag k="ssr:type" v="bruk" />
	</node>
	<node lat="60.08482839819064" lon="11.076584883158663" id="-19189">
		<tag k="name" v="Smedstad" />
		<tag k="place" v="hamlet" />
		<tag k="ssr:date" v="2020-10-05" />
		<tag k="ssr:gruppe" v="gardsbebyggelse" />
		<tag k="ssr:hovedgruppe" v="bebyggelse" />
		<tag k="ssr:stedsnr" v="1078458" />
		<tag k="ssr:type" v="navnegard" />
	</node>
	<node lat="60.039574803917766" lon="11.03348457544312" id="-19190">
		<tag k="name" v="Flatner" />
		<tag k="place" v="hamlet" />
		<tag k="ssr:date" v="2020-10-05" />
		<tag k="ssr:gruppe" v="gardsbebyggelse" />
		<tag k="ssr:hovedgruppe" v="bebyggelse" />
		<tag k="ssr:stedsnr" v="1078459" />
		<tag k="ssr:type" v="navnegard" />
	</node>
	<node lat="60.06493083627783" lon="11.028921736641578" id="-19191">
		<tag k="fixme" v="consider place=hamlet" />
		<tag k="name" v="Brådal" />
		<tag k="place" v="farm" />
		<tag k="ssr:date" v="2020-10-05" />
		<tag k="ssr:gruppe" v="gardsbebyggelse" />
		<tag k="ssr:hovedgruppe" v="bebyggelse" />
		<tag k="ssr:stedsnr" v="1078460" />
		<tag k="ssr:type" v="gard" />
	</node>
	<node lat="60.0870228109205" lon="11.016716270777803" id="-19192">
		<tag k="fixme" v="consider place=hamlet" />
		<tag k="name" v="Nordre Rud" />
		<tag k="place" v="farm" />
		<tag k="ssr:date" v="2021-03-24" />
		<tag k="ssr:gruppe" v="gardsbebyggelse" />
		<tag k="ssr:hovedgruppe" v="bebyggelse" />
		<tag k="ssr:stedsnr" v="1080606" />
		<tag k="ssr:type" v="gard" />
	</node>
	<node lat="60.08634155140466" lon="11.015726734796564" id="-19193">
		<tag k="name" v="Rud" />
		<tag k="place" v="hamlet" />
		<tag k="ssr:date" v="2021-03-24" />
		<tag k="ssr:gruppe" v="gardsbebyggelse" />
		<tag k="ssr:hovedgruppe" v="bebyggelse" />
		<tag k="ssr:stedsnr" v="1080607" />
		<tag k="ssr:type" v="navnegard" />
	</node>
	<node lat="60.061699168134645" lon="11.045223937550796" id="-19194">
		<tag k="fixme" v="consider place=hamlet" />
		<tag k="name" v="Søndre Fjelstad" />
		<tag k="place" v="farm" />
		<tag k="ssr:date" v="2021-12-14" />
		<tag k="ssr:gruppe" v="gardsbebyggelse" />
		<tag k="ssr:hovedgruppe" v="bebyggelse" />
		<tag k="ssr:stedsnr" v="1083218" />
		<tag k="ssr:type" v="gard" />
	</node>
</osm>
