<?xml version="1.0" encoding="UTF-8"?>
<osm generator="osmapis" version="0.6">
	<node id="-43005" lat="60.1149916682" lon="11.0296361079">
		<tag k="name" v="Østre Brotno" />
		<tag k="place" v="farm" />
		<tag k="ssr:stedsnr" v="205127" />
	</node>
	<node id="-43004" lat="60.1392083375" lon="11.0175361105">
		<tag k="building" v="industrial" />
		<tag k="industrial" v="factory" />
		<tag k="name" v="Holter alm.sag" />
		<tag k="ssr:stedsnr" v="205103" />
	</node>
	<node id="-43003" lat="60.1406944452" lon="11.0531472155">
		<tag k="amenity" v="school" />
		<tag k="name" v="Løken skole" />
		<tag k="ssr:stedsnr" v="205085" />
	</node>
	<node id="-43000" lat="60.1988361154" lon="10.9244750033">
		<tag k="name" v="Storheia" />
		<tag k="place" v="isolated_dwelling" />
		<tag k="ssr:stedsnr" v="205055" />
	</node>
	<node id="-42996" lat="60.1819722202" lon="10.8842222234">
		<tag k="name" v="Knepphaughytta" />
		<tag k="place" v="isolated_dwelling" />
		<tag k="ssr:stedsnr" v="205032" />
	</node>
	<node id="-42992" lat="60.2212499969" lon="10.9688805479">
		<tag k="name" v="Rud" />
		<tag k="place" v="farm" />
		<tag k="ssr:stedsnr" v="188892" />
	</node>
	<node id="-42991" lat="60.2168388862" lon="10.9826416696">
		<tag k="alt_name" v="Kaksrud" />
		<tag k="name" v="Kakserud" />
		<tag k="place" v="farm" />
		<tag k="ssr:stedsnr" v="188888" />
	</node>
	<node id="-42990" lat="60.2131777813" lon="10.9555694516">
		<tag k="name" v="Melbybyen" />
		<tag k="place" v="hamlet" />
		<tag k="ssr:stedsnr" v="188885" />
	</node>
	<node id="-42988" lat="60.1574361133" lon="11.0534305615">
		<tag k="name" v="Hylli" />
		<tag k="place" v="farm" />
		<tag k="ssr:stedsnr" v="188762" />
	</node>
	<node id="-42987" lat="60.1717344058" lon="11.0420834642">
		<tag k="fixme" v="consider place=hamlet" />
		<tag k="name" v="Rud" />
		<tag k="place" v="farm" />
		<tag k="ssr:stedsnr" v="188742" />
	</node>
	<node id="-42984" lat="60.3395555586" lon="11.02308612">
		<tag k="name" v="Sandsnessætra" />
		<tag k="place" v="farm" />
		<tag k="ssr:stedsnr" v="188560" />
	</node>
	<node id="-42983" lat="60.2593000007" lon="10.9961499952">
		<tag k="alt_name" v="Vollaug" />
		<tag k="name" v="Vålaug" />
		<tag k="old_name" v="Volloug;Vaalaug" />
		<tag k="place" v="hamlet" />
		<tag k="ssr:stedsnr" v="188401" />
	</node>
	<node id="-42982" lat="60.2593493029" lon="11.0709363991">
		<tag k="name" v="Myrhaugflaen" />
		<tag k="place" v="farm" />
		<tag k="ssr:stedsnr" v="188394" />
	</node>
	<node id="-42981" lat="60.2859500008" lon="11.0826750033">
		<tag k="name" v="Nordbyvik" />
		<tag k="place" v="farm" />
		<tag k="ssr:stedsnr" v="188379" />
	</node>
	<node id="-42980" lat="60.2758500041" lon="11.064658332">
		<tag k="name" v="Østli" />
		<tag k="place" v="farm" />
		<tag k="ssr:stedsnr" v="188367" />
	</node>
	<node id="-42979" lat="60.2704500037" lon="10.8803999943">
		<tag k="name" v="Damstua" />
		<tag k="place" v="isolated_dwelling" />
		<tag k="ssr:stedsnr" v="188360" />
	</node>
	<node id="-42976" lat="60.3270749974" lon="10.9897527808">
		<tag k="alt_name" v="Skjennumseter" />
		<tag k="name" v="Skjennumsætra" />
		<tag k="place" v="locality" />
		<tag k="ssr:stedsnr" v="188287" />
	</node>
	<node id="-42975" lat="60.2408750006" lon="11.0475777761">
		<tag k="name" v="Hærut" />
		<tag k="place" v="locality" />
		<tag k="ssr:stedsnr" v="187899" />
	</node>
	<node id="-42974" lat="60.2257000013" lon="10.9379638917">
		<tag k="name" v="Søgardshytta" />
		<tag k="place" v="isolated_dwelling" />
		<tag k="ssr:stedsnr" v="187795" />
	</node>
	<node id="-42973" lat="60.1842416666" lon="11.0585722206">
		<tag k="name" v="Rutholen" />
		<tag k="place" v="farm" />
		<tag k="ssr:stedsnr" v="187791" />
	</node>
	<node id="-42972" lat="60.1916138912" lon="11.020894443">
		<tag k="alt_name" v="Nygård" />
		<tag k="name" v="Nygard" />
		<tag k="place" v="farm" />
		<tag k="ssr:stedsnr" v="187787" />
	</node>
	<node id="-42971" lat="60.1946166653" lon="11.0029666643">
		<tag k="name" v="Hynne" />
		<tag k="place" v="farm" />
		<tag k="ssr:stedsnr" v="187780" />
	</node>
	<node id="-42970" lat="60.1849805589" lon="11.0071777787">
		<tag k="alt_name" v="Ånåsruddalen" />
		<tag k="name" v="Ånesruddalen" />
		<tag k="place" v="farm" />
		<tag k="ssr:stedsnr" v="187777" />
	</node>
	<node id="-42969" lat="60.1814305575" lon="10.998288891">
		<tag k="name" v="Lerberghaugen" />
		<tag k="place" v="locality" />
		<tag k="ssr:stedsnr" v="187775" />
	</node>
	<node id="-42968" lat="60.2027158405" lon="11.045076821">
		<tag k="alt_name" v="Breivoll" />
		<tag k="name" v="Breidvoll" />
		<tag k="place" v="farm" />
		<tag k="ssr:stedsnr" v="187750" />
	</node>
	<node id="-42967" lat="60.206605555" lon="11.0743888875">
		<tag k="alt_name" v="Nygård" />
		<tag k="name" v="Nygard" />
		<tag k="place" v="farm" />
		<tag k="ssr:stedsnr" v="187749" />
	</node>
	<node id="-42965" lat="60.1511999996" lon="10.926522226">
		<tag k="fixme" v="consider tourism=alpine_hut or tourism=chalet" />
		<tag k="name" v="Bekkestua" />
		<tag k="ssr:stedsnr" v="187721" />
		<tag k="tourism" v="wilderness_hut" />
	</node>
	<node id="-42964" lat="60.1651500011" lon="11.000111105">
		<tag k="name" v="Ramstad" />
		<tag k="place" v="farm" />
		<tag k="ssr:stedsnr" v="187699" />
	</node>
	<node id="-42963" lat="60.2219140459" lon="11.0812116721">
		<tag k="name" v="Møllerstad" />
		<tag k="place" v="farm" />
		<tag k="ssr:stedsnr" v="187849" />
	</node>
	<node id="-42961" lat="60.2422999991" lon="10.8672833375">
		<tag k="name" v="Nordbyvangen" />
		<tag k="place" v="locality" />
		<tag k="ssr:stedsnr" v="187820" />
	</node>
	<node id="-42959" lat="60.1754305583" lon="10.9923333401">
		<tag k="name" v="Haug" />
		<tag k="place" v="farm" />
		<tag k="ssr:stedsnr" v="187655" />
	</node>
	<node id="-42958" lat="60.1572194456" lon="11.0355500049">
		<tag k="fixme" v="consider place=hamlet" />
		<tag k="name" v="Eik" />
		<tag k="place" v="farm" />
		<tag k="ssr:stedsnr" v="177828" />
	</node>
	<node id="-42957" lat="60.1849083314" lon="10.9339055553">
		<tag k="name" v="Huldrehøgda" />
		<tag k="place" v="isolated_dwelling" />
		<tag k="ssr:stedsnr" v="177773" />
	</node>
	<node id="-42955" lat="60.2449111095" lon="10.9918611065">
		<tag k="name" v="Økri" />
		<tag k="place" v="hamlet" />
		<tag k="ssr:stedsnr" v="164771" />
	</node>
	<node id="-42953" lat="60.2123555563" lon="10.9717249938">
		<tag k="name" v="Søndre Nordby" />
		<tag k="place" v="farm" />
		<tag k="ssr:stedsnr" v="145271" />
	</node>
	<node id="-42952" lat="60.2166027737" lon="11.0065916704">
		<tag k="name" v="Nannestad prestegård" />
		<tag k="place" v="farm" />
		<tag k="ssr:stedsnr" v="145269" />
	</node>
	<node id="-42951" lat="60.2138083352" lon="10.9563666643">
		<tag k="name" v="Skomakerstua" />
		<tag k="place" v="isolated_dwelling" />
		<tag k="ssr:stedsnr" v="145260" />
	</node>
	<node id="-42945" lat="60.2958083372" lon="11.0570194453">
		<tag k="name" v="Engerhaugen" />
		<tag k="place" v="isolated_dwelling" />
		<tag k="ssr:stedsnr" v="144502" />
	</node>
	<node id="-42942" lat="60.3362083317" lon="11.0269750005">
		<tag k="name" v="Granli" />
		<tag k="place" v="farm" />
		<tag k="ssr:stedsnr" v="144423" />
	</node>
	<node id="-42939" lat="60.2531333359" lon="11.083405547">
		<tag k="name" v="Snathaugen" />
		<tag k="place" v="isolated_dwelling" />
		<tag k="ssr:stedsnr" v="144407" />
	</node>
	<node id="-42927" lat="60.2325555517" lon="10.9832388893">
		<tag k="name" v="Hokringler" />
		<tag k="place" v="farm" />
		<tag k="ssr:stedsnr" v="144284" />
	</node>
	<node id="-42925" lat="60.3191083344" lon="10.9238222166">
		<tag k="name" v="Marifjellhytta" />
		<tag k="place" v="isolated_dwelling" />
		<tag k="ssr:stedsnr" v="144256" />
	</node>
	<node id="-42919" lat="60.1886444462" lon="10.9797111043">
		<tag k="name" v="Bakken" />
		<tag k="place" v="locality" />
		<tag k="ssr:stedsnr" v="144204" />
	</node>
	<node id="-42915" lat="60.2555527779" lon="11.0543027833">
		<tag k="name" v="Kopperudmoen" />
		<tag k="place" v="quarter" />
		<tag k="ssr:stedsnr" v="144157" />
	</node>
	<node id="-42913" lat="60.1204222241" lon="11.0295444526">
		<tag k="name" v="Granrud" />
		<tag k="place" v="isolated_dwelling" />
		<tag k="ssr:stedsnr" v="144135" />
	</node>
	<node id="-42912" lat="60.1125249983" lon="11.0397194382">
		<tag k="name" v="Fredrikstua" />
		<tag k="place" v="isolated_dwelling" />
		<tag k="ssr:stedsnr" v="144128" />
	</node>
	<node id="-42911" lat="60.1150527791" lon="11.0523138915">
		<tag k="name" v="Øvre Låvegg" />
		<tag k="place" v="farm" />
		<tag k="ssr:stedsnr" v="144122" />
	</node>
	<node id="-42910" lat="60.116427777" lon="11.0553500036">
		<tag k="name" v="Låveggshaugen" />
		<tag k="place" v="farm" />
		<tag k="ssr:stedsnr" v="144123" />
	</node>
	<node id="-42909" lat="60.1382583306" lon="11.0159611185">
		<tag k="name" v="Lyngås" />
		<tag k="place" v="farm" />
		<tag k="ssr:stedsnr" v="144088" />
	</node>
	<node id="-42908" lat="60.1473444408" lon="11.0497583387">
		<tag k="name" v="Nordrum" />
		<tag k="place" v="farm" />
		<tag k="ssr:stedsnr" v="144085" />
	</node>
	<node id="-42905" lat="60.1432805564" lon="11.0264277749">
		<tag k="name" v="Nordre Harstad" />
		<tag k="place" v="farm" />
		<tag k="ssr:stedsnr" v="144071" />
	</node>
	<node id="-42903" lat="60.1759222244" lon="10.8784805471">
		<tag k="name" v="Gruvelihytta" />
		<tag k="place" v="isolated_dwelling" />
		<tag k="ssr:stedsnr" v="144050" />
	</node>
	<node id="-42898" lat="60.1317027742" lon="11.0661555628">
		<tag k="name" v="Nordjordet" />
		<tag k="place" v="farm" />
		<tag k="ssr:stedsnr" v="144004" />
	</node>
	<node id="-42896" lat="60.2158305548" lon="11.0725749933">
		<tag k="alt_name" v="Børke, søndre" />
		<tag k="fixme" v="consider place=hamlet" />
		<tag k="name" v="Søndre Børke" />
		<tag k="old_name" v="Bjørke søndre;S Børke" />
		<tag k="place" v="farm" />
		<tag k="ssr:stedsnr" v="127856" />
	</node>
	<node id="-42895" lat="60.2175138869" lon="11.0147277832">
		<tag k="alt_name" v="Skivulstad" />
		<tag k="name" v="Skivelstad" />
		<tag k="place" v="farm" />
		<tag k="ssr:stedsnr" v="127852" />
	</node>
	<node id="-42894" lat="60.1503527746" lon="11.0407749996">
		<tag k="name" v="Grøndal" />
		<tag k="place" v="farm" />
		<tag k="ssr:stedsnr" v="127777" />
	</node>
	<node id="-42892" lat="60.2679611117" lon="11.0734138881">
		<tag k="name" v="Dal" />
		<tag k="place" v="farm" />
		<tag k="ssr:stedsnr" v="127691" />
	</node>
	<node id="-42889" lat="60.2586021276" lon="11.0303379089">
		<tag k="name" v="Maura" />
		<tag k="place" v="village" />
		<tag k="ssr:stedsnr" v="127387" />
	</node>
	<node id="-42888" lat="60.2632500022" lon="11.0480750044">
		<tag k="name" v="Lauvås" />
		<tag k="place" v="farm" />
		<tag k="ssr:stedsnr" v="127384" />
	</node>
	<node id="-42885" lat="60.3092583314" lon="11.0084555642">
		<tag k="name" v="Dansehella" />
		<tag k="place" v="isolated_dwelling" />
		<tag k="ssr:stedsnr" v="127325" />
	</node>
	<node id="-42884" lat="60.2769055528" lon="11.0953472134">
		<tag k="name" v="Limset" />
		<tag k="place" v="farm" />
		<tag k="ssr:stedsnr" v="127204" />
	</node>
	<node id="-42880" lat="60.2056555542" lon="11.0208388927">
		<tag k="name" v="Kabberud" />
		<tag k="place" v="farm" />
		<tag k="ssr:stedsnr" v="126744" />
	</node>
	<node id="-42879" lat="60.1623999964" lon="11.0496305463">
		<tag k="name" v="Hveim" />
		<tag k="place" v="farm" />
		<tag k="ssr:stedsnr" v="126699" />
	</node>
	<node id="-42878" lat="60.1641249977" lon="11.0243833342">
		<tag k="alt_name" v="Eik, nordre" />
		<tag k="name" v="Nordre Eik" />
		<tag k="place" v="farm" />
		<tag k="ssr:stedsnr" v="126698" />
	</node>
	<node id="-42877" lat="60.2080888929" lon="10.9814638812">
		<tag k="name" v="Logna" />
		<tag k="place" v="farm" />
		<tag k="ssr:stedsnr" v="126855" />
	</node>
	<node id="-42876" lat="60.212124998" lon="10.9716361194">
		<tag k="name" v="Nordby" />
		<tag k="place" v="farm" />
		<tag k="ssr:stedsnr" v="126852" />
	</node>
	<node id="-42871" lat="60.195263886" lon="11.0301749915">
		<tag k="name" v="Østre Engelstad" />
		<tag k="place" v="farm" />
		<tag k="ssr:stedsnr" v="126773" />
	</node>
	<node id="-42867" lat="60.1366250012" lon="10.9380333274">
		<tag k="name" v="Grøsåkervangen" />
		<tag k="place" v="isolated_dwelling" />
		<tag k="ssr:stedsnr" v="126636" />
	</node>
	<node id="-42863" lat="60.1113388863" lon="11.029619453">
		<tag k="name" v="Skogly" />
		<tag k="place" v="farm" />
		<tag k="ssr:stedsnr" v="84931" />
	</node>
	<node id="-42862" lat="60.3030083325" lon="10.9891972311">
		<tag k="name" v="Sjøheim" />
		<tag k="place" v="isolated_dwelling" />
		<tag k="ssr:stedsnr" v="84514" />
	</node>
	<node id="-42844" lat="60.1586388905" lon="11.0341666722">
		<tag k="alt_name" v="Mellom Eik" />
		<tag k="fixme" v="consider place=hamlet" />
		<tag k="name" v="Mellom-Eik" />
		<tag k="old_name" v="Eik mellem" />
		<tag k="place" v="farm" />
		<tag k="ssr:stedsnr" v="84225" />
	</node>
	<node id="-42841" lat="60.2034499991" lon="10.8296749985">
		<tag k="name" v="Tangen" />
		<tag k="place" v="isolated_dwelling" />
		<tag k="ssr:stedsnr" v="84333" />
	</node>
	<node id="-42837" lat="60.2101331763" lon="11.0246125831">
		<tag k="name" v="Engelsrud" />
		<tag k="place" v="farm" />
		<tag k="ssr:stedsnr" v="84307" />
	</node>
	<node id="-42835" lat="60.2340888847" lon="11.0048805485">
		<tag k="name" v="Søndre Bjørke" />
		<tag k="place" v="farm" />
		<tag k="ssr:stedsnr" v="84288" />
	</node>
	<node id="-42833" lat="60.1185833311" lon="11.024600005">
		<tag k="name" v="Østre Nordby" />
		<tag k="place" v="farm" />
		<tag k="ssr:stedsnr" v="84150" />
	</node>
	<node id="-42831" lat="60.2464027744" lon="11.0215972297">
		<tag k="name" v="Østre Hol" />
		<tag k="place" v="farm" />
		<tag k="ssr:stedsnr" v="84170" />
	</node>
	<node id="-42830" lat="60.2563555538" lon="11.0319777845">
		<tag k="name" v="Solheimfeltet" />
		<tag k="place" v="quarter" />
		<tag k="ssr:stedsnr" v="84166" />
	</node>
	<node id="-42829" lat="60.1532833319" lon="10.9997277706">
		<tag k="name" v="Trettestykket" />
		<tag k="place" v="locality" />
		<tag k="ssr:stedsnr" v="84098" />
	</node>
	<node id="-42827" lat="60.1447805532" lon="11.0517666738">
		<tag k="name" v="Søndre Holter" />
		<tag k="place" v="farm" />
		<tag k="ssr:stedsnr" v="84090" />
	</node>
	<node id="-42825" lat="60.2065027756" lon="10.898716661">
		<tag k="name" v="Steinbekkhytta" />
		<tag k="place" v="isolated_dwelling" />
		<tag k="ssr:stedsnr" v="84072" />
	</node>
	<node id="-42822" lat="60.1925083352" lon="10.9243638925">
		<tag k="name" v="Furusethytta" />
		<tag k="place" v="isolated_dwelling" />
		<tag k="ssr:stedsnr" v="84031" />
	</node>
	<node id="-42817" lat="60.1333749988" lon="10.972786118">
		<tag k="name" v="Nybergshytta" />
		<tag k="place" v="isolated_dwelling" />
		<tag k="ssr:stedsnr" v="84130" />
	</node>
	<node id="-42815" lat="60.2493555537" lon="10.8891472192">
		<tag k="name" v="Økrisætra" />
		<tag k="place" v="isolated_dwelling" />
		<tag k="ssr:stedsnr" v="81926" />
	</node>
	<node id="-42814" lat="60.2609250032" lon="11.084555547">
		<tag k="name" v="Grindvoll" />
		<tag k="place" v="farm" />
		<tag k="ssr:stedsnr" v="67380" />
	</node>
	<node id="-42813" lat="60.2558333307" lon="11.045650004">
		<tag k="name" v="Enga" />
		<tag k="place" v="farm" />
		<tag k="ssr:stedsnr" v="67374" />
	</node>
	<node id="-42812" lat="60.2529000014" lon="10.9133944436">
		<tag k="alt_name" v="Lauumseter" />
		<tag k="historic" v="shieling" />
		<tag k="name" v="Lauumsætra" />
		<tag k="place" v="locality" />
		<tag k="ssr:stedsnr" v="67371" />
	</node>
	<node id="-42811" lat="60.2659750012" lon="11.0276249989">
		<tag k="alt_name" v="Røtnes, nedre" />
		<tag k="name" v="Nedre Røtnes" />
		<tag k="place" v="farm" />
		<tag k="ssr:stedsnr" v="67340" />
	</node>
	<node id="-42810" lat="60.2737499983" lon="10.9914750087">
		<tag k="name" v="Lieker" />
		<tag k="place" v="farm" />
		<tag k="ssr:stedsnr" v="67337" />
	</node>
	<node id="-42807" lat="60.3009499958" lon="10.9864805626">
		<tag k="name" v="Honsjøstua" />
		<tag k="old_name" v="Hornsjøstua" />
		<tag k="place" v="isolated_dwelling" />
		<tag k="ssr:stedsnr" v="67313" />
	</node>
	<node id="-42804" lat="60.3201777816" lon="11.0677277717">
		<tag k="name" v="Sandsnes" />
		<tag k="place" v="farm" />
		<tag k="ssr:stedsnr" v="67291" />
	</node>
	<node id="-42800" lat="60.2439583316" lon="11.0139111049">
		<tag k="alt_name" v="Åmål" />
		<tag k="name" v="Øvre Åmål" />
		<tag k="place" v="farm" />
		<tag k="ssr:stedsnr" v="66905" />
	</node>
	<node id="-42799" lat="60.2453000015" lon="11.0200277704">
		<tag k="name" v="Holli" />
		<tag k="place" v="farm" />
		<tag k="ssr:stedsnr" v="66898" />
	</node>
	<node id="-42798" lat="60.2206055545" lon="10.9969194388">
		<tag k="alt_name" v="Vestby, nordre" />
		<tag k="name" v="Nordre Vestby" />
		<tag k="place" v="farm" />
		<tag k="ssr:stedsnr" v="66865" />
	</node>
	<node id="-42797" lat="60.2237472199" lon="11.0808944491">
		<tag k="alt_name" v="Børke, nordre;Børke nordre" />
		<tag k="fixme" v="consider place=hamlet" />
		<tag k="name" v="Nordre Børke" />
		<tag k="old_name" v="N Børke" />
		<tag k="place" v="farm" />
		<tag k="ssr:stedsnr" v="66855" />
	</node>
	<node id="-42795" lat="60.1802055557" lon="11.035702779">
		<tag k="name" v="Solbakken" />
		<tag k="place" v="farm" />
		<tag k="ssr:stedsnr" v="66787" />
	</node>
	<node id="-42793" lat="60.1686055555" lon="11.0564333305">
		<tag k="name" v="Lyshaug" />
		<tag k="place" v="farm" />
		<tag k="ssr:stedsnr" v="66706" />
	</node>
	<node id="-42791" lat="60.1205333376" lon="11.0194361146">
		<tag k="alt_name" v="Vestre Nordby" />
		<tag k="name" v="Nordby" />
		<tag k="place" v="farm" />
		<tag k="ssr:stedsnr" v="66658" />
	</node>
	<node id="-42789" lat="60.1262111134" lon="11.0746777752">
		<tag k="alt_name" v="Foss, øvre;Foss østre" />
		<tag k="name" v="Øvre Foss" />
		<tag k="place" v="farm" />
		<tag k="ssr:stedsnr" v="66642" />
	</node>
	<node id="-42788" lat="60.2417249995" lon="11.103149991">
		<tag k="leisure" v="pitch" />
		<tag k="name" v="Ridebane" />
		<tag k="ssr:stedsnr" v="66332" />
	</node>
	<node id="-42787" lat="60.3380749986" lon="10.9454249909">
		<tag k="name" v="Greinen" />
		<tag k="place" v="isolated_dwelling" />
		<tag k="ssr:stedsnr" v="66268" />
	</node>
	<node id="-42784" lat="60.2121500038" lon="10.9563027773">
		<tag k="name" v="Melbystua" />
		<tag k="place" v="farm" />
		<tag k="ssr:stedsnr" v="24257" />
	</node>
	<node id="-42776" lat="60.2830166632" lon="11.0428638876">
		<tag k="name" v="Høgås" />
		<tag k="place" v="isolated_dwelling" />
		<tag k="ssr:stedsnr" v="23525" />
	</node>
	<node id="-42768" lat="60.2816944415" lon="10.9349888957">
		<tag k="name" v="Hanstusæter" />
		<tag k="place" v="isolated_dwelling" />
		<tag k="ssr:stedsnr" v="23403" />
	</node>
	<node id="-42761" lat="60.2328166632" lon="10.9818416664">
		<tag k="name" v="Fjellberg" />
		<tag k="place" v="farm" />
		<tag k="ssr:stedsnr" v="23311" />
	</node>
	<node id="-42755" lat="60.1867805593" lon="10.9872138968">
		<tag k="name" v="Rønvoll" />
		<tag k="place" v="farm" />
		<tag k="ssr:stedsnr" v="23222" />
	</node>
	<node id="-42745" lat="60.3165163038" lon="11.0696924383">
		<tag k="name" v="Solvang" />
		<tag k="place" v="farm" />
		<tag k="ssr:stedsnr" v="23187" />
	</node>
	<node id="-42744" lat="60.2652638907" lon="11.0844583256">
		<tag k="name" v="Gulliksrud" />
		<tag k="place" v="locality" />
		<tag k="ssr:stedsnr" v="23185" />
	</node>
	<node id="-42741" lat="60.270613892" lon="11.0810111029">
		<tag k="name" v="Nedre Dal" />
		<tag k="place" v="farm" />
		<tag k="ssr:stedsnr" v="23176" />
	</node>
	<node id="-42740" lat="60.2101777764" lon="11.0755777769">
		<tag k="name" v="Kneppefeltet" />
		<tag k="place" v="quarter" />
		<tag k="ssr:stedsnr" v="23172" />
	</node>
	<node id="-42739" lat="60.2561416684" lon="11.0174416612">
		<tag k="name" v="Morud" />
		<tag k="place" v="farm" />
		<tag k="ssr:stedsnr" v="23156" />
	</node>
	<node id="-42738" lat="60.1292472248" lon="11.0242472273">
		<tag k="name" v="Løvås" />
		<tag k="place" v="farm" />
		<tag k="ssr:stedsnr" v="23142" />
	</node>
	<node id="-42737" lat="60.1307916636" lon="11.0609277715">
		<tag k="name" v="Esetmoen" />
		<tag k="place" v="farm" />
		<tag k="ssr:stedsnr" v="23139" />
	</node>
	<node id="-42735" lat="60.1456722209" lon="11.0475277805">
		<tag k="name" v="Voll" />
		<tag k="place" v="farm" />
		<tag k="ssr:stedsnr" v="23101" />
	</node>
	<node id="-42734" lat="60.1376222233" lon="11.0546277849">
		<tag k="name" v="Holter meieri" />
		<tag k="place" v="locality" />
		<tag k="ssr:stedsnr" v="23091" />
	</node>
	<node id="-42727" lat="60.1332027801" lon="11.0664416637">
		<tag k="name" v="Østre Gutu" />
		<tag k="place" v="farm" />
		<tag k="ssr:stedsnr" v="23005" />
	</node>
	<node id="-42726" lat="60.1523166638" lon="11.0275499912">
		<tag k="name" v="Erpestad" />
		<tag k="place" v="farm" />
		<tag k="ssr:stedsnr" v="6752" />
	</node>
	<node id="-42724" lat="60.1487250021" lon="11.0078138907">
		<tag k="name" v="Trugstadberget" />
		<tag k="place" v="farm" />
		<tag k="ssr:stedsnr" v="6656" />
	</node>
	<node id="-42723" lat="60.3388749962" lon="11.0243999961">
		<tag k="name" v="Bjørkelund" />
		<tag k="place" v="farm" />
		<tag k="ssr:stedsnr" v="6547" />
	</node>
	<node id="-42722" lat="60.2515999969" lon="11.0580749953">
		<tag k="name" v="Lund" />
		<tag k="place" v="farm" />
		<tag k="ssr:stedsnr" v="6428" />
	</node>
	<node id="-42721" lat="60.2737249999" lon="11.0797750058">
		<tag k="name" v="Dal" />
		<tag k="place" v="farm" />
		<tag k="ssr:stedsnr" v="6400" />
	</node>
	<node id="-42720" lat="60.250625002" lon="10.8978138836">
		<tag k="name" v="Losbyhytta" />
		<tag k="place" v="isolated_dwelling" />
		<tag k="ssr:stedsnr" v="6384" />
	</node>
	<node id="-42718" lat="60.3075805558" lon="10.9946138954">
		<tag k="name" v="Honsjøhytta" />
		<tag k="old_name" v="Hornsjøhytta" />
		<tag k="place" v="isolated_dwelling" />
		<tag k="ssr:stedsnr" v="6322" />
	</node>
	<node id="-42717" lat="60.3080888877" lon="11.0176388964">
		<tag k="name" v="Bjørkesæter" />
		<tag k="place" v="isolated_dwelling" />
		<tag k="ssr:stedsnr" v="6317" />
	</node>
	<node id="-42716" lat="60.247219448" lon="10.9923833289">
		<tag k="name" v="Østre Økri" />
		<tag k="old_name" v="Øvre Økri" />
		<tag k="place" v="farm" />
		<tag k="ssr:stedsnr" v="5899" />
	</node>
	<node id="-42714" lat="60.2213194434" lon="11.0769861088">
		<tag k="alt_name" v="Kabberudseter;Kabberudsetermoen" />
		<tag k="name" v="Kabberudsætra" />
		<tag k="place" v="farm" />
		<tag k="ssr:stedsnr" v="5832" />
	</node>
	<node id="-42713" lat="60.2252250028" lon="11.0856749994">
		<tag k="name" v="Granvoll" />
		<tag k="place" v="farm" />
		<tag k="ssr:stedsnr" v="5831" />
	</node>
	<node id="-42711" lat="60.228006865" lon="10.9924467683">
		<tag k="name" v="Skjennum" />
		<tag k="place" v="hamlet" />
		<tag k="ssr:stedsnr" v="5796" />
	</node>
	<node id="-42709" lat="60.2096750024" lon="11.0132166636">
		<tag k="alt_name" v="Heggli" />
		<tag k="name" v="Øvre Heggeli" />
		<tag k="place" v="farm" />
		<tag k="ssr:stedsnr" v="5760" />
	</node>
	<node id="-42707" lat="60.1961749977" lon="11.0041805585">
		<tag k="name" v="Færstad" />
		<tag k="place" v="farm" />
		<tag k="ssr:stedsnr" v="5745" />
	</node>
	<node id="-42706" lat="60.1996416636" lon="10.9979333421">
		<tag k="name" v="Homle" />
		<tag k="place" v="farm" />
		<tag k="ssr:stedsnr" v="5744" />
	</node>
	<node id="-42704" lat="60.1696805527" lon="11.0020499914">
		<tag k="name" v="Fevik" />
		<tag k="place" v="farm" />
		<tag k="ssr:stedsnr" v="5673" />
	</node>
	<node id="-42700" lat="60.1140999992" lon="11.0588472292">
		<tag k="name" v="Låvegg" />
		<tag k="place" v="farm" />
		<tag k="ssr:stedsnr" v="5555" />
	</node>
	<node id="-42699" lat="60.1586305567" lon="11.0059527752">
		<tag k="alt_name" v="Bjørkeiksletta" />
		<tag k="name" v="Bjørkeik" />
		<tag k="place" v="farm" />
		<tag k="ssr:stedsnr" v="5401" />
	</node>
	<node id="-42693" lat="60.2484329525" lon="11.0327961701">
		<tag k="name" v="Åmålteiet" />
		<tag k="place" v="quarter" />
		<tag k="ssr:stedsnr" v="981683" />
	</node>
	<node id="-42670" lat="60.1354111106" lon="11.0621611136">
		<tag k="alt_name" v="Brustad" />
		<tag k="name" v="Brøstad" />
		<tag k="place" v="farm" />
		<tag k="ssr:stedsnr" v="478662" />
	</node>
	<node id="-42663" lat="60.2643416694" lon="11.0359444461">
		<tag k="name" v="Holkebylia" />
		<tag k="place" v="quarter" />
		<tag k="ssr:stedsnr" v="387473" />
	</node>
	<node id="-42662" lat="60.2703361148" lon="10.9861499957">
		<tag k="name" v="Skogheim" />
		<tag k="place" v="farm" />
		<tag k="ssr:stedsnr" v="387468" />
	</node>
	<node id="-42655" lat="60.1583277779" lon="11.0357305528">
		<tag k="name" v="Lille Eik" />
		<tag k="place" v="farm" />
		<tag k="ssr:stedsnr" v="387397" />
	</node>
	<node id="-42649" lat="60.203799997" lon="10.8333166719">
		<tag k="name" v="Gamle villaen" />
		<tag k="place" v="isolated_dwelling" />
		<tag k="ssr:stedsnr" v="387348" />
	</node>
	<node id="-42646" lat="60.2292833312" lon="10.9118111167">
		<tag k="name" v="Låkestykket" />
		<tag k="place" v="locality" />
		<tag k="ssr:stedsnr" v="387333" />
	</node>
	<node id="-42644" lat="60.2035722221" lon="11.0448861121">
		<tag k="name" v="Norvoll" />
		<tag k="place" v="farm" />
		<tag k="ssr:stedsnr" v="387301" />
	</node>
	<node id="-42643" lat="60.2278132902" lon="10.9896713317">
		<tag k="name" v="Vestre Skjennum" />
		<tag k="place" v="farm" />
		<tag k="ssr:stedsnr" v="387290" />
	</node>
	<node id="-42642" lat="60.2233666646" lon="10.9722222271">
		<tag k="amenity" v="school" />
		<tag k="name" v="Kringler skole" />
		<tag k="ssr:stedsnr" v="387276" />
	</node>
	<node id="-42641" lat="60.2237444465" lon="11.0269333378">
		<tag k="amenity" v="school" />
		<tag k="name" v="Preståsen skole" />
		<tag k="ssr:stedsnr" v="387269" />
	</node>
	<node id="-42637" lat="60.2528083313" lon="10.9197666578">
		<tag k="historic" v="shieling" />
		<tag k="name" v="Breensæter" />
		<tag k="place" v="locality" />
		<tag k="ssr:stedsnr" v="387234" />
	</node>
	<node id="-42636" lat="60.1735222217" lon="10.9917722262">
		<tag k="name" v="Slattumsflaen" />
		<tag k="place" v="farm" />
		<tag k="ssr:stedsnr" v="387217" />
	</node>
	<node id="-42635" lat="60.1593472207" lon="10.9974749991">
		<tag k="name" v="Berget" />
		<tag k="place" v="isolated_dwelling" />
		<tag k="ssr:stedsnr" v="387215" />
	</node>
	<node id="-42632" lat="60.1709166688" lon="10.9840777766">
		<tag k="name" v="Slattumhagen" />
		<tag k="place" v="isolated_dwelling" />
		<tag k="ssr:stedsnr" v="387208" />
	</node>
	<node id="-42627" lat="60.1363777754" lon="11.0344972266">
		<tag k="name" v="Vestre Elton" />
		<tag k="place" v="farm" />
		<tag k="ssr:stedsnr" v="387099" />
	</node>
	<node id="-42626" lat="60.1443194453" lon="11.0428333408">
		<tag k="name" v="Myrhaug" />
		<tag k="place" v="farm" />
		<tag k="ssr:stedsnr" v="387098" />
	</node>
	<node id="-42624" lat="60.1533833325" lon="11.0275472276">
		<tag k="name" v="Søndre Erpestad" />
		<tag k="place" v="farm" />
		<tag k="ssr:stedsnr" v="387080" />
	</node>
	<node id="-42620" lat="60.2191194435" lon="11.0793333246">
		<tag k="name" v="Moholt" />
		<tag k="place" v="farm" />
		<tag k="ssr:stedsnr" v="387169" />
	</node>
	<node id="-42616" lat="60.265200004" lon="10.9716750047">
		<tag k="name" v="Flod" />
		<tag k="place" v="farm" />
		<tag k="ssr:stedsnr" v="370411" />
	</node>
	<node id="-42615" lat="60.2532287194" lon="10.8434298348">
		<tag k="alt_name" v="Engelsrudseter" />
		<tag k="historic" v="shieling" />
		<tag k="name" v="Ingelsrudsætra" />
		<tag k="place" v="locality" />
		<tag k="ssr:stedsnr" v="370408" />
	</node>
	<node id="-42614" lat="60.2792000033" lon="10.8716000076">
		<tag k="name" v="Stråtjernstua" />
		<tag k="place" v="isolated_dwelling" />
		<tag k="ssr:stedsnr" v="370385" />
	</node>
	<node id="-42612" lat="60.2664749999" lon="11.0339500025">
		<tag k="name" v="Holkeby" />
		<tag k="place" v="farm" />
		<tag k="ssr:stedsnr" v="370373" />
	</node>
	<node id="-42611" lat="60.2670500009" lon="10.9821000064">
		<tag k="name" v="Bakken" />
		<tag k="place" v="farm" />
		<tag k="ssr:stedsnr" v="370371" />
	</node>
	<node id="-42609" lat="60.3057750028" lon="11.0747750087">
		<tag k="alt_name" v="Huldraheim" />
		<tag k="name" v="Hulderheim" />
		<tag k="place" v="isolated_dwelling" />
		<tag k="ssr:stedsnr" v="370354" />
	</node>
	<node id="-42605" lat="60.2998500037" lon="10.996169449">
		<tag k="name" v="Honvangen" />
		<tag k="old_name" v="Hornvangen" />
		<tag k="place" v="isolated_dwelling" />
		<tag k="ssr:stedsnr" v="370339" />
	</node>
	<node id="-42603" lat="60.3333499994" lon="11.0201361159">
		<tag k="name" v="Bjørkeli" />
		<tag k="place" v="isolated_dwelling" />
		<tag k="ssr:stedsnr" v="370324" />
	</node>
	<node id="-42599" lat="60.2216777818" lon="10.9713805541">
		<tag k="name" v="Rudsanden" />
		<tag k="place" v="farm" />
		<tag k="ssr:stedsnr" v="369868" />
	</node>
	<node id="-42592" lat="60.234288885" lon="11.0541916686">
		<tag k="name" v="Gunhildrud" />
		<tag k="place" v="farm" />
		<tag k="ssr:stedsnr" v="369794" />
	</node>
	<node id="-42587" lat="60.2076611079" lon="11.0533027758">
		<tag k="name" v="Langset" />
		<tag k="place" v="farm" />
		<tag k="ssr:stedsnr" v="369756" />
	</node>
	<node id="-42583" lat="60.1694749992" lon="10.9961555628">
		<tag k="alt_name" v="Feviksflaen" />
		<tag k="name" v="Fevikflaen" />
		<tag k="place" v="farm" />
		<tag k="ssr:stedsnr" v="369646" />
	</node>
	<node id="-42581" lat="60.1227311177" lon="11.0339013565">
		<tag k="name" v="Søndre Grani" />
		<tag k="place" v="farm" />
		<tag k="ssr:stedsnr" v="369612" />
	</node>
	<node id="-42579" lat="60.1365978991" lon="11.0370014623">
		<tag k="fixme" v="consider place=hamlet" />
		<tag k="name" v="Elton" />
		<tag k="place" v="farm" />
		<tag k="ssr:stedsnr" v="369604" />
	</node>
	<node id="-42577" lat="60.1327277745" lon="11.0709777828">
		<tag k="name" v="Eset" />
		<tag k="place" v="farm" />
		<tag k="ssr:stedsnr" v="369597" />
	</node>
	<node id="-42574" lat="60.1471583327" lon="11.0081861026">
		<tag k="name" v="Trugstadsletta" />
		<tag k="place" v="farm" />
		<tag k="ssr:stedsnr" v="369584" />
	</node>
	<node id="-42573" lat="60.1141277766" lon="11.0473555538">
		<tag k="name" v="Døli" />
		<tag k="place" v="isolated_dwelling" />
		<tag k="ssr:stedsnr" v="369526" />
	</node>
	<node id="-42572" lat="60.1156000035" lon="11.0369666655">
		<tag k="name" v="Finstad" />
		<tag k="place" v="farm" />
		<tag k="ssr:stedsnr" v="369507" />
	</node>
	<node id="-42570" lat="60.2490249962" lon="11.0624166711">
		<tag k="alt_name" v="Lundgård" />
		<tag k="name" v="Lundgard" />
		<tag k="place" v="farm" />
		<tag k="ssr:stedsnr" v="369907" />
	</node>
	<node id="-42548" lat="60.2281249976" lon="10.918158332">
		<tag k="name" v="Lundehytta" />
		<tag k="place" v="isolated_dwelling" />
		<tag k="ssr:stedsnr" v="326328" />
	</node>
	<node id="-42543" lat="60.2332861123" lon="10.9669361029">
		<tag k="name" v="Jutulhytta" />
		<tag k="place" v="isolated_dwelling" />
		<tag k="ssr:stedsnr" v="326272" />
	</node>
	<node id="-42542" lat="60.1770611075" lon="11.0389527736">
		<tag k="alt_name" v="Ukustad vestre" />
		<tag k="name" v="Vestre Ukustad" />
		<tag k="place" v="farm" />
		<tag k="ssr:stedsnr" v="326270" />
	</node>
	<node id="-42538" lat="60.1701166698" lon="11.0193055636">
		<tag k="name" v="Vestre Austad" />
		<tag k="place" v="farm" />
		<tag k="ssr:stedsnr" v="326217" />
	</node>
	<node id="-42536" lat="60.1551805538" lon="11.0185777758">
		<tag k="name" v="Trugstad" />
		<tag k="place" v="farm" />
		<tag k="ssr:stedsnr" v="326214" />
	</node>
	<node id="-42533" lat="60.1612749963" lon="10.9520888797">
		<tag k="name" v="Ramstadhytta" />
		<tag k="place" v="isolated_dwelling" />
		<tag k="ssr:stedsnr" v="326196" />
	</node>
	<node id="-42530" lat="60.2879356037" lon="11.0838601282">
		<tag k="name" v="Nordheim" />
		<tag k="place" v="farm" />
		<tag k="ssr:stedsnr" v="326158" />
	</node>
	<node id="-42529" lat="60.218441668" lon="11.0769444413">
		<tag k="building" v="industrial" />
		<tag k="industrial" v="factory" />
		<tag k="name" v="Seter meieri" />
		<tag k="ssr:stedsnr" v="326140" />
	</node>
	<node id="-42520" lat="60.1237972267" lon="11.0731444441">
		<tag k="name" v="Sydvoll" />
		<tag k="place" v="farm" />
		<tag k="ssr:stedsnr" v="326001" />
	</node>
	<node id="-42519" lat="60.1849083314" lon="10.9339055553">
		<tag k="historic" v="shieling" />
		<tag k="loc_name" v="Putsetra" />
		<tag k="name" v="Puttsæter" />
		<tag k="place" v="locality" />
		<tag k="ssr:stedsnr" v="326025" />
	</node>
	<node id="-42518" lat="60.1485166672" lon="11.0656999938">
		<tag k="name" v="Skogheim" />
		<tag k="place" v="isolated_dwelling" />
		<tag k="ssr:stedsnr" v="326018" />
	</node>
	<node id="-42516" lat="60.2500250002" lon="11.0246500057">
		<tag k="name" v="Senstad" />
		<tag k="place" v="farm" />
		<tag k="ssr:stedsnr" v="310353" />
	</node>
	<node id="-42515" lat="60.2537250041" lon="11.0399500003">
		<tag k="name" v="Sørli" />
		<tag k="place" v="farm" />
		<tag k="ssr:stedsnr" v="310351" />
	</node>
	<node id="-42511" lat="60.220202779" lon="11.0107277756">
		<tag k="name" v="Eker" />
		<tag k="place" v="isolated_dwelling" />
		<tag k="ssr:stedsnr" v="309845" />
	</node>
	<node id="-42508" lat="60.1444303768" lon="11.0424347404">
		<tag k="name" v="Vestlykkja" />
		<tag k="place" v="hamlet" />
		<tag k="ssr:stedsnr" v="309654" />
	</node>
	<node id="-42505" lat="60.1497916638" lon="11.045750005">
		<tag k="name" v="Holterhaugen" />
		<tag k="place" v="isolated_dwelling" />
		<tag k="ssr:stedsnr" v="309735" />
	</node>
	<node id="-42503" lat="60.3030083343" lon="10.9964333274">
		<tag k="alt_name" v="Åmotseter" />
		<tag k="historic" v="shieling" />
		<tag k="name" v="Åmotsætra" />
		<tag k="place" v="locality" />
		<tag k="ssr:stedsnr" v="309342" />
	</node>
	<node id="-42500" lat="60.3343250009" lon="11.0187833321">
		<tag k="alt_name" v="Seterløkka" />
		<tag k="name" v="Sæterlykkja" />
		<tag k="place" v="farm" />
		<tag k="ssr:stedsnr" v="309314" />
	</node>
	<node id="-42496" lat="60.2442333361" lon="10.9841777819">
		<tag k="name" v="Vestre Økri" />
		<tag k="old_name" v="Økrisletta" />
		<tag k="place" v="farm" />
		<tag k="ssr:stedsnr" v="308913" />
	</node>
	<node id="-42495" lat="60.2102583355" lon="10.9507027794">
		<tag k="name" v="Rustadmoen" />
		<tag k="place" v="hamlet" />
		<tag k="ssr:stedsnr" v="308849" />
	</node>
	<node id="-42494" lat="60.2054472201" lon="10.9103833283">
		<tag k="historic" v="shieling" />
		<tag k="name" v="Rustadvangen" />
		<tag k="place" v="locality" />
		<tag k="ssr:stedsnr" v="308846" />
	</node>
	<node id="-42489" lat="60.1912416701" lon="10.9814249945">
		<tag k="name" v="Langerud" />
		<tag k="place" v="farm" />
		<tag k="ssr:stedsnr" v="308799" />
	</node>
	<node id="-42488" lat="60.2025416637" lon="10.9528749935">
		<tag k="name" v="Røtterudmoen" />
		<tag k="place" v="farm" />
		<tag k="ssr:stedsnr" v="308771" />
	</node>
	<node id="-42487" lat="60.2108370737" lon="11.0292148406">
		<tag k="fixme" v="consider place=hamlet" />
		<tag k="name" v="Ingelsrud" />
		<tag k="place" v="farm" />
		<tag k="ssr:stedsnr" v="308761" />
	</node>
	<node id="-42486" lat="60.2036138933" lon="11.0702888893">
		<tag k="leisure" v="pitch" />
		<tag k="name" v="Ridebane" />
		<tag k="ssr:stedsnr" v="308757" />
	</node>
	<node id="-42485" lat="60.1964333316" lon="10.9987666687">
		<tag k="alt_name" v="Megarden Homle" />
		<tag k="name" v="Megard" />
		<tag k="place" v="farm" />
		<tag k="ssr:stedsnr" v="308740" />
	</node>
	<node id="-43985" lat="60.2998250004" lon="10.973177781">
		<tag k="fixme" v="consider tourism=alpine_hut or tourism=chalet" />
		<tag k="name" v="Vikkelihytta" />
		<tag k="ssr:stedsnr" v="965877" />
		<tag k="tourism" v="wilderness_hut" />
	</node>
	<node id="-43979" lat="60.323047218" lon="11.0496055597">
		<tag k="name" v="Sandsnesmarka" />
		<tag k="place" v="locality" />
		<tag k="ssr:stedsnr" v="933520" />
	</node>
	<node id="-43975" lat="60.2461111088" lon="10.9617972147">
		<tag k="name" v="Østgardshytta" />
		<tag k="place" v="isolated_dwelling" />
		<tag k="ssr:stedsnr" v="933476" />
	</node>
	<node id="-43974" lat="60.3360416663" lon="11.027774993">
		<tag k="name" v="Jordet" />
		<tag k="place" v="farm" />
		<tag k="ssr:stedsnr" v="933433" />
	</node>
	<node id="-43973" lat="60.3386388855" lon="11.0266222217">
		<tag k="name" v="Vangen" />
		<tag k="place" v="farm" />
		<tag k="ssr:stedsnr" v="933431" />
	</node>
	<node id="-43972" lat="60.3420388896" lon="11.023883338">
		<tag k="name" v="Nyengen" />
		<tag k="place" v="isolated_dwelling" />
		<tag k="ssr:stedsnr" v="933429" />
	</node>
	<node id="-43968" lat="60.2705388917" lon="10.9132416749">
		<tag k="name" v="Velaugstykket" />
		<tag k="place" v="locality" />
		<tag k="ssr:stedsnr" v="933390" />
	</node>
	<node id="-43966" lat="60.2744194435" lon="10.9195138888">
		<tag k="historic" v="shieling" />
		<tag k="name" v="Gammelsæter" />
		<tag k="place" v="locality" />
		<tag k="ssr:stedsnr" v="933385" />
	</node>
	<node id="-43955" lat="60.2228944456" lon="10.9330305527">
		<tag k="name" v="Kjærstadhytta" />
		<tag k="place" v="isolated_dwelling" />
		<tag k="ssr:stedsnr" v="933330" />
	</node>
	<node id="-43952" lat="60.1984027739" lon="11.0052972267">
		<tag k="name" v="Homle" />
		<tag k="place" v="farm" />
		<tag k="ssr:stedsnr" v="933297" />
	</node>
	<node id="-43951" lat="60.2367194465" lon="10.9918166664">
		<tag k="name" v="Kringler meier" />
		<tag k="place" v="farm" />
		<tag k="ssr:stedsnr" v="933261" />
	</node>
	<node id="-43948" lat="60.1603472246" lon="10.9774749998">
		<tag k="name" v="Hagahytta" />
		<tag k="place" v="isolated_dwelling" />
		<tag k="ssr:stedsnr" v="933191" />
	</node>
	<node id="-43943" lat="60.2500499984" lon="11.020402771">
		<tag k="name" v="Stanger" />
		<tag k="place" v="farm" />
		<tag k="ssr:stedsnr" v="933132" />
	</node>
	<node id="-43940" lat="60.1139895173" lon="11.0247108927">
		<tag k="name" v="Vestre Brotno" />
		<tag k="place" v="farm" />
		<tag k="ssr:stedsnr" v="933098" />
	</node>
	<node id="-43937" lat="60.1430638915" lon="10.9987972171">
		<tag k="name" v="Høgkollhytta" />
		<tag k="place" v="isolated_dwelling" />
		<tag k="ssr:stedsnr" v="933071" />
	</node>
	<node id="-43934" lat="60.1926888861" lon="10.9418333309">
		<tag k="name" v="Homlehytta" />
		<tag k="place" v="isolated_dwelling" />
		<tag k="ssr:stedsnr" v="933042" />
	</node>
	<node id="-43931" lat="60.1905638912" lon="10.9031916615">
		<tag k="name" v="Fossli" />
		<tag k="place" v="isolated_dwelling" />
		<tag k="ssr:stedsnr" v="933019" />
	</node>
	<node id="-43929" lat="60.1745749998" lon="11.0506388947">
		<tag k="name" v="Østre Ukustad" />
		<tag k="place" v="farm" />
		<tag k="ssr:stedsnr" v="933213" />
	</node>
	<node id="-43926" lat="60.2573999957" lon="11.0143305607">
		<tag k="name" v="Mjælvoll" />
		<tag k="place" v="farm" />
		<tag k="ssr:stedsnr" v="917318" />
	</node>
	<node id="-43925" lat="60.2706055586" lon="11.0983249995">
		<tag k="name" v="Sundby" />
		<tag k="place" v="farm" />
		<tag k="ssr:stedsnr" v="917161" />
	</node>
	<node id="-43924" lat="60.2257249961" lon="11.0659527719">
		<tag k="name" v="Stubberud" />
		<tag k="place" v="farm" />
		<tag k="ssr:stedsnr" v="916873" />
	</node>
	<node id="-43922" lat="60.1798000005" lon="11.0759972189">
		<tag k="name" v="Lyshaughagen" />
		<tag k="place" v="farm" />
		<tag k="ssr:stedsnr" v="916804" />
	</node>
	<node id="-43921" lat="60.1734555578" lon="11.0354638903">
		<tag k="alt_name" v="Ukustadengen" />
		<tag k="name" v="Enga" />
		<tag k="place" v="farm" />
		<tag k="ssr:stedsnr" v="916743" />
	</node>
	<node id="-43919" lat="60.1137540358" lon="11.0241978407">
		<tag k="fixme" v="consider place=hamlet" />
		<tag k="name" v="Brotnu" />
		<tag k="place" v="farm" />
		<tag k="ssr:stedsnr" v="916592" />
	</node>
	<node id="-43918" lat="60.2690750034" lon="11.0706499938">
		<tag k="name" v="Fjelldal" />
		<tag k="place" v="farm" />
		<tag k="ssr:stedsnr" v="916391" />
	</node>
	<node id="-43917" lat="60.2655833298" lon="10.9673999982">
		<tag k="name" v="Vålaugmoen" />
		<tag k="place" v="isolated_dwelling" />
		<tag k="ssr:stedsnr" v="916382" />
	</node>
	<node id="-43916" lat="60.2636194474" lon="10.9945138972">
		<tag k="alt_name" v="Lille Vollaug" />
		<tag k="name" v="Lille Vålaug" />
		<tag k="place" v="farm" />
		<tag k="ssr:stedsnr" v="916383" />
	</node>
	<node id="-43913" lat="60.2768249995" lon="11.0290750039">
		<tag k="name" v="Åmundrud" />
		<tag k="place" v="isolated_dwelling" />
		<tag k="ssr:stedsnr" v="916363" />
	</node>
	<node id="-43911" lat="60.2838000034" lon="11.0823750042">
		<tag k="name" v="Steinsvoll" />
		<tag k="place" v="farm" />
		<tag k="ssr:stedsnr" v="916350" />
	</node>
	<node id="-43910" lat="60.3096500032" lon="10.88995834">
		<tag k="name" v="Kvernsjøstua" />
		<tag k="place" v="isolated_dwelling" />
		<tag k="ssr:stedsnr" v="916335" />
	</node>
	<node id="-43905" lat="60.3160749984" lon="11.0100333287">
		<tag k="alt_name" v="Holseter" />
		<tag k="historic" v="shieling" />
		<tag k="name" v="Holssætra" />
		<tag k="place" v="locality" />
		<tag k="ssr:stedsnr" v="916265" />
	</node>
	<node id="-43904" lat="60.2438777813" lon="10.9918888816">
		<tag k="name" v="Østre Økri" />
		<tag k="old_name" v="Nedre Økri" />
		<tag k="place" v="farm" />
		<tag k="ssr:stedsnr" v="915904" />
	</node>
	<node id="-43903" lat="60.2078861153" lon="10.9817666598">
		<tag k="name" v="Låkedalen" />
		<tag k="place" v="hamlet" />
		<tag k="ssr:stedsnr" v="915856" />
	</node>
	<node id="-43902" lat="60.207758332" lon="10.958958332">
		<tag k="name" v="Rustaden" />
		<tag k="place" v="farm" />
		<tag k="ssr:stedsnr" v="915853" />
	</node>
	<node id="-43901" lat="60.2067111074" lon="10.9466777811">
		<tag k="name" v="Rustadtangen" />
		<tag k="place" v="isolated_dwelling" />
		<tag k="ssr:stedsnr" v="915850" />
	</node>
	<node id="-43898" lat="60.2071305531" lon="10.998774991">
		<tag k="name" v="Låke" />
		<tag k="place" v="farm" />
		<tag k="ssr:stedsnr" v="915760" />
	</node>
	<node id="-43897" lat="60.2043750017" lon="10.9749055596">
		<tag k="name" v="Bjertnes" />
		<tag k="place" v="farm" />
		<tag k="ssr:stedsnr" v="915750" />
	</node>
	<node id="-43896" lat="60.1648000014" lon="11.0088305588">
		<tag k="name" v="Østby" />
		<tag k="place" v="farm" />
		<tag k="ssr:stedsnr" v="915711" />
	</node>
	<node id="-43895" lat="60.1251333306" lon="11.0795027783">
		<tag k="alt_name" v="Foss, nedre" />
		<tag k="name" v="Nedre Foss" />
		<tag k="place" v="farm" />
		<tag k="ssr:stedsnr" v="915637" />
	</node>
	<node id="-43894" lat="60.1270500028" lon="11.0646777747">
		<tag k="name" v="Haga" />
		<tag k="place" v="farm" />
		<tag k="ssr:stedsnr" v="915635" />
	</node>
	<node id="-43893" lat="60.1397361079" lon="11.0570083332">
		<tag k="alt_name" v="Holter prestegård" />
		<tag k="name" v="Prestegarden" />
		<tag k="place" v="farm" />
		<tag k="ssr:stedsnr" v="915629" />
	</node>
	<node id="-43888" lat="60.2938444461" lon="10.9696111122">
		<tag k="historic" v="shieling" />
		<tag k="name" v="Vikkeliflaen" />
		<tag k="place" v="locality" />
		<tag k="ssr:stedsnr" v="872524" />
	</node>
	<node id="-43883" lat="60.2654222227" lon="10.9823527775">
		<tag k="alt_name" v="Vollaugmoen" />
		<tag k="name" v="Vålaugmoen" />
		<tag k="old_name" v="Vaalaugmoen" />
		<tag k="place" v="hamlet" />
		<tag k="ssr:stedsnr" v="872493" />
	</node>
	<node id="-43882" lat="60.2471222206" lon="10.9537861196">
		<tag k="name" v="Sletthytta" />
		<tag k="place" v="isolated_dwelling" />
		<tag k="ssr:stedsnr" v="872483" />
	</node>
	<node id="-43880" lat="60.1844833346" lon="11.0682916631">
		<tag k="alt_name" v="Rutolen" />
		<tag k="name" v="Rutholen" />
		<tag k="place" v="isolated_dwelling" />
		<tag k="ssr:stedsnr" v="872446" />
	</node>
	<node id="-43879" lat="60.3344388932" lon="11.0300416728">
		<tag k="name" v="Larsbråtan" />
		<tag k="place" v="farm" />
		<tag k="ssr:stedsnr" v="872444" />
	</node>
	<node id="-43877" lat="60.2491083348" lon="11.0947000018">
		<tag k="name" v="Sørmoen" />
		<tag k="place" v="farm" />
		<tag k="ssr:stedsnr" v="872418" />
	</node>
	<node id="-43867" lat="60.2272081805" lon="10.9903290033">
		<tag k="fixme" v="consider place=hamlet" />
		<tag k="name" v="Søndre Skjennum" />
		<tag k="place" v="farm" />
		<tag k="ssr:stedsnr" v="872274" />
	</node>
	<node id="-43862" lat="60.1975555595" lon="10.9655750009">
		<tag k="name" v="Røtterud" />
		<tag k="place" v="farm" />
		<tag k="ssr:stedsnr" v="872200" />
	</node>
	<node id="-43858" lat="60.1154666666" lon="11.0453055569">
		<tag k="name" v="Søndre Døli" />
		<tag k="place" v="farm" />
		<tag k="ssr:stedsnr" v="872120" />
	</node>
	<node id="-43855" lat="60.1536444454" lon="11.0272972276">
		<tag k="name" v="Nordre Erpestad" />
		<tag k="place" v="farm" />
		<tag k="ssr:stedsnr" v="872083" />
	</node>
	<node id="-43854" lat="60.1382250007" lon="11.0460861059">
		<tag k="name" v="Myrvoll" />
		<tag k="place" v="farm" />
		<tag k="ssr:stedsnr" v="872076" />
	</node>
	<node id="-43848" lat="60.1280055537" lon="11.0795027823">
		<tag k="name" v="Fosshaug" />
		<tag k="place" v="farm" />
		<tag k="ssr:stedsnr" v="872007" />
	</node>
	<node id="-43845" lat="60.2466499975" lon="11.0346638968">
		<tag k="name" v="Haugen" />
		<tag k="place" v="farm" />
		<tag k="ssr:stedsnr" v="870907" />
	</node>
	<node id="-43844" lat="60.2531250011" lon="11.0642750064">
		<tag k="name" v="Kopperudhaugen" />
		<tag k="place" v="farm" />
		<tag k="ssr:stedsnr" v="856441" />
	</node>
	<node id="-43843" lat="60.2532499983" lon="11.083819451">
		<tag k="name" v="Snatet" />
		<tag k="place" v="isolated_dwelling" />
		<tag k="ssr:stedsnr" v="856439" />
	</node>
	<node id="-43842" lat="60.2646749972" lon="11.0047277736">
		<tag k="name" v="Totner" />
		<tag k="place" v="farm" />
		<tag k="ssr:stedsnr" v="856404" />
	</node>
	<node id="-43841" lat="60.2527583377" lon="11.0105777865">
		<tag k="alt_name" v="Breen, søndre" />
		<tag k="name" v="Søndre Breen" />
		<tag k="place" v="farm" />
		<tag k="ssr:stedsnr" v="856396" />
	</node>
	<node id="-43840" lat="60.2547527764" lon="10.9770666578">
		<tag k="name" v="Slettmoen" />
		<tag k="place" v="farm" />
		<tag k="ssr:stedsnr" v="856387" />
	</node>
	<node id="-43839" lat="60.2522500004" lon="10.989691663">
		<tag k="name" v="Korsmo" />
		<tag k="place" v="farm" />
		<tag k="ssr:stedsnr" v="856388" />
	</node>
	<node id="-43837" lat="60.2915999998" lon="11.0363027773">
		<tag k="alt_name" v="Fløtten" />
		<tag k="name" v="Nedre Fløtten" />
		<tag k="place" v="isolated_dwelling" />
		<tag k="ssr:stedsnr" v="856379" />
	</node>
	<node id="-43836" lat="60.2724500011" lon="10.9032555595">
		<tag k="name" v="Asakskogen" />
		<tag k="place" v="farm" />
		<tag k="ssr:stedsnr" v="856357" />
	</node>
	<node id="-43834" lat="60.3166583369" lon="11.0699499915">
		<tag k="name" v="Tangen" />
		<tag k="place" v="farm" />
		<tag k="ssr:stedsnr" v="856339" />
	</node>
	<node id="-43831" lat="60.2055500022" lon="10.9555249959">
		<tag k="name" v="Granås" />
		<tag k="place" v="farm" />
		<tag k="ssr:stedsnr" v="855870" />
	</node>
	<node id="-43829" lat="60.2331194466" lon="11.0800805628">
		<tag k="name" v="Granlund" />
		<tag k="place" v="farm" />
		<tag k="ssr:stedsnr" v="855843" />
	</node>
	<node id="-43826" lat="60.1890055558" lon="11.0099000054">
		<tag k="alt_name" v="Ånåsrud" />
		<tag k="name" v="Ånesrud" />
		<tag k="place" v="farm" />
		<tag k="ssr:stedsnr" v="855828" />
	</node>
	<node id="-43825" lat="60.199105559" lon="10.9636027811">
		<tag k="name" v="Røtterudhaugen" />
		<tag k="place" v="farm" />
		<tag k="ssr:stedsnr" v="855801" />
	</node>
	<node id="-43824" lat="60.2068000022" lon="11.0538277799">
		<tag k="name" v="Våler" />
		<tag k="place" v="farm" />
		<tag k="ssr:stedsnr" v="855793" />
	</node>
	<node id="-43823" lat="60.1981638928" lon="11.0092666582">
		<tag k="alt_name" v="Homle" />
		<tag k="name" v="Østre Homle" />
		<tag k="place" v="farm" />
		<tag k="ssr:stedsnr" v="855775" />
	</node>
	<node id="-43822" lat="60.1546305514" lon="11.020030556">
		<tag k="name" v="Trugstad" />
		<tag k="place" v="farm" />
		<tag k="ssr:stedsnr" v="855766" />
	</node>
	<node id="-43820" lat="60.1724055566" lon="11.0053638947">
		<tag k="alt_name" v="Jaer" />
		<tag k="name" v="Jar" />
		<tag k="place" v="farm" />
		<tag k="ssr:stedsnr" v="855715" />
	</node>
	<node id="-43818" lat="60.1358083306" lon="11.0482333361">
		<tag k="name" v="Eltonhaugen" />
		<tag k="place" v="isolated_dwelling" />
		<tag k="ssr:stedsnr" v="855671" />
	</node>
	<node id="-43817" lat="60.3299055527" lon="11.0579500083">
		<tag k="alt_name" v="Nordre Skjebindertangen" />
		<tag k="name" v="Tangen" />
		<tag k="place" v="farm" />
		<tag k="ssr:stedsnr" v="855278" />
	</node>
	<node id="-43808" lat="60.2723277776" lon="10.9817555592">
		<tag k="name" v="Borhaugstua" />
		<tag k="place" v="isolated_dwelling" />
		<tag k="ssr:stedsnr" v="812476" />
	</node>
	<node id="-43801" lat="60.180013891" lon="11.0644249974">
		<tag k="name" v="Skogbu" />
		<tag k="place" v="farm" />
		<tag k="ssr:stedsnr" v="812372" />
	</node>
	<node id="-43792" lat="60.215374998" lon="10.9586888828">
		<tag k="name" v="Nordbystua" />
		<tag k="place" v="isolated_dwelling" />
		<tag k="ssr:stedsnr" v="812305" />
	</node>
	<node id="-43786" lat="60.1722249987" lon="11.0427972148">
		<tag k="name" v="Nordre Rud" />
		<tag k="place" v="farm" />
		<tag k="ssr:stedsnr" v="812235" />
	</node>
	<node id="-43781" lat="60.1915972237" lon="10.9750305574">
		<tag k="name" v="Møllerstua" />
		<tag k="place" v="isolated_dwelling" />
		<tag k="ssr:stedsnr" v="812210" />
	</node>
	<node id="-43776" lat="60.184977782" lon="10.8122916731">
		<tag k="name" v="Tvekjellerkoia" />
		<tag k="place" v="isolated_dwelling" />
		<tag k="ssr:stedsnr" v="812191" />
	</node>
	<node id="-43774" lat="60.2755666647" lon="11.0651277855">
		<tag k="name" v="Østli" />
		<tag k="place" v="farm" />
		<tag k="ssr:stedsnr" v="812173" />
	</node>
	<node id="-43773" lat="60.2516083357" lon="11.0440194506">
		<tag k="name" v="Nordli" />
		<tag k="place" v="farm" />
		<tag k="ssr:stedsnr" v="812169" />
	</node>
	<node id="-43771" lat="60.132555556" lon="10.9596083423">
		<tag k="name" v="Stormåsahytta" />
		<tag k="place" v="isolated_dwelling" />
		<tag k="ssr:stedsnr" v="812120" />
	</node>
	<node id="-43762" lat="60.2044833361" lon="10.9247083337">
		<tag k="name" v="Erpestadhytta" />
		<tag k="place" v="isolated_dwelling" />
		<tag k="ssr:stedsnr" v="812054" />
	</node>
	<node id="-43757" lat="60.193002781" lon="10.9176611138">
		<tag k="name" v="Hafstadhytta" />
		<tag k="place" v="isolated_dwelling" />
		<tag k="ssr:stedsnr" v="812018" />
	</node>
	<node id="-43756" lat="60.3411499993" lon="11.0239749911">
		<tag k="alt_name" v="Hansbråten" />
		<tag k="name" v="Hansbråtan" />
		<tag k="place" v="farm" />
		<tag k="ssr:stedsnr" v="795564" />
	</node>
	<node id="-43755" lat="60.2591500024" lon="11.071052777">
		<tag k="name" v="Kopperudmoen" />
		<tag k="place" v="farm" />
		<tag k="ssr:stedsnr" v="795419" />
	</node>
	<node id="-43754" lat="60.2640805563" lon="11.0156277754">
		<tag k="name" v="Granås" />
		<tag k="place" v="farm" />
		<tag k="ssr:stedsnr" v="795416" />
	</node>
	<node id="-43752" lat="60.284774998" lon="11.0685138867">
		<tag k="name" v="Bjørkeland" />
		<tag k="place" v="isolated_dwelling" />
		<tag k="ssr:stedsnr" v="795387" />
	</node>
	<node id="-43751" lat="60.2852249995" lon="10.8481555598">
		<tag k="alt_name" v="Hellern" />
		<tag k="name" v="Helleren" />
		<tag k="place" v="farm" />
		<tag k="ssr:stedsnr" v="795374" />
	</node>
	<node id="-43745" lat="60.2538999987" lon="11.1031111054">
		<tag k="name" v="Nordmoen" />
		<tag k="place" v="farm" />
		<tag k="ssr:stedsnr" v="795257" />
	</node>
	<node id="-43742" lat="60.2430499978" lon="11.0061777831">
		<tag k="name" v="Nedre Åmål" />
		<tag k="place" v="farm" />
		<tag k="ssr:stedsnr" v="794912" />
	</node>
	<node id="-43741" lat="60.247105559" lon="11.0424916633">
		<tag k="alt_name" v="Jæleberg" />
		<tag k="name" v="Jælberg" />
		<tag k="place" v="farm" />
		<tag k="ssr:stedsnr" v="794910" />
	</node>
	<node id="-43740" lat="60.2398166624" lon="11.0217333248">
		<tag k="alt_name" v="Stuelykkje" />
		<tag k="name" v="Stuelykkja" />
		<tag k="place" v="isolated_dwelling" />
		<tag k="ssr:stedsnr" v="794908" />
	</node>
	<node id="-43739" lat="60.2160927269" lon="10.8638419854">
		<tag k="name" v="Rudsvangen" />
		<tag k="place" v="locality" />
		<tag k="ssr:stedsnr" v="794862" />
	</node>
	<node id="-43738" lat="60.2283055595" lon="11.0652861143">
		<tag k="name" v="Rud" />
		<tag k="place" v="farm" />
		<tag k="ssr:stedsnr" v="794849" />
	</node>
	<node id="-43737" lat="60.2105494573" lon="10.9704344355">
		<tag k="fixme" v="consider place=hamlet" />
		<tag k="name" v="Melby" />
		<tag k="place" v="farm" />
		<tag k="ssr:stedsnr" v="794846" />
	</node>
	<node id="-43736" lat="60.2347777769" lon="11.0855083317">
		<tag k="name" v="Grasmohaugen" />
		<tag k="place" v="farm" />
		<tag k="ssr:stedsnr" v="794808" />
	</node>
	<node id="-43735" lat="60.188177776" lon="11.0336000024">
		<tag k="name" v="Rus" />
		<tag k="place" v="farm" />
		<tag k="ssr:stedsnr" v="794803" />
	</node>
	<node id="-43734" lat="60.1782861099" lon="11.0002250055">
		<tag k="name" v="Øvre Nordby" />
		<tag k="place" v="farm" />
		<tag k="ssr:stedsnr" v="794791" />
	</node>
	<node id="-43732" lat="60.1860750032" lon="10.9834916636">
		<tag k="name" v="Fjellberg" />
		<tag k="place" v="farm" />
		<tag k="ssr:stedsnr" v="794777" />
	</node>
	<node id="-43727" lat="60.163199996" lon="11.0307388911">
		<tag k="name" v="Eikstua" />
		<tag k="place" v="farm" />
		<tag k="ssr:stedsnr" v="794730" />
	</node>
	<node id="-43726" lat="60.1727527795" lon="10.9990388943">
		<tag k="name" v="Slattum" />
		<tag k="place" v="farm" />
		<tag k="ssr:stedsnr" v="794702" />
	</node>
	<node id="-43725" lat="60.1443861147" lon="11.0526166652">
		<tag k="name" v="Holter" />
		<tag k="place" v="farm" />
		<tag k="ssr:stedsnr" v="794642" />
	</node>
	<node id="-43722" lat="60.1375027763" lon="11.0223888814">
		<tag k="name" v="Eltonåsen" />
		<tag k="place" v="farm" />
		<tag k="ssr:stedsnr" v="764809" />
	</node>
	<node id="-43719" lat="60.2282235366" lon="10.9913840076">
		<tag k="fixme" v="consider place=hamlet" />
		<tag k="name" v="Nordre Skjennum" />
		<tag k="place" v="farm" />
		<tag k="ssr:stedsnr" v="751944" />
	</node>
	<node id="-43718" lat="60.1098305567" lon="11.022233326">
		<tag k="name" v="Brotno" />
		<tag k="place" v="farm" />
		<tag k="ssr:stedsnr" v="751924" />
	</node>
	<node id="-43712" lat="60.2667666638" lon="11.0094444378">
		<tag k="name" v="Totnerstua" />
		<tag k="place" v="farm" />
		<tag k="ssr:stedsnr" v="751458" />
	</node>
	<node id="-43701" lat="60.2284666677" lon="10.8977861136">
		<tag k="name" v="Gåsetjernhytta" />
		<tag k="place" v="isolated_dwelling" />
		<tag k="ssr:stedsnr" v="751343" />
	</node>
	<node id="-43700" lat="60.2257249981" lon="10.9376305611">
		<tag k="name" v="Nordbyhytta" />
		<tag k="place" v="isolated_dwelling" />
		<tag k="ssr:stedsnr" v="751329" />
	</node>
	<node id="-43699" lat="60.2141972227" lon="10.9499305509">
		<tag k="name" v="Solberg" />
		<tag k="place" v="farm" />
		<tag k="ssr:stedsnr" v="751324" />
	</node>
	<node id="-43698" lat="60.214641663" lon="10.9568777791">
		<tag k="name" v="Skredderstua" />
		<tag k="place" v="isolated_dwelling" />
		<tag k="ssr:stedsnr" v="751315" />
	</node>
	<node id="-43697" lat="60.2108527809" lon="10.9687027816">
		<tag k="name" v="Vestre Melby" />
		<tag k="place" v="farm" />
		<tag k="ssr:stedsnr" v="751313" />
	</node>
	<node id="-43696" lat="60.2052388854" lon="10.9553527811">
		<tag k="name" v="Fjellhaug" />
		<tag k="place" v="farm" />
		<tag k="ssr:stedsnr" v="751310" />
	</node>
	<node id="-43692" lat="60.1768777786" lon="11.0224472144">
		<tag k="name" v="Midtre Vassengen" />
		<tag k="place" v="farm" />
		<tag k="ssr:stedsnr" v="751297" />
	</node>
	<node id="-43689" lat="60.2264305557" lon="10.9509888818">
		<tag k="name" v="Rudshytta" />
		<tag k="place" v="isolated_dwelling" />
		<tag k="ssr:stedsnr" v="751275" />
	</node>
	<node id="-43683" lat="60.2869944446" lon="11.0804666702">
		<tag k="name" v="Hansedalen" />
		<tag k="place" v="locality" />
		<tag k="ssr:stedsnr" v="751174" />
	</node>
	<node id="-43681" lat="60.2693944401" lon="11.0938083354">
		<tag k="name" v="Sundby" />
		<tag k="place" v="farm" />
		<tag k="ssr:stedsnr" v="751162" />
	</node>
	<node id="-43674" lat="60.1138888852" lon="11.0512777715">
		<tag k="name" v="Steingrimen" />
		<tag k="place" v="farm" />
		<tag k="ssr:stedsnr" v="751116" />
	</node>
	<node id="-43672" lat="60.1405388866" lon="11.0446027721">
		<tag k="name" v="Løkenfeltet" />
		<tag k="place" v="quarter" />
		<tag k="ssr:stedsnr" v="751086" />
	</node>
	<node id="-43668" lat="60.2189305518" lon="10.9198361055">
		<tag k="name" v="Rønninghytta" />
		<tag k="place" v="isolated_dwelling" />
		<tag k="ssr:stedsnr" v="751059" />
	</node>
	<node id="-43664" lat="60.1333333373" lon="11.0643749958">
		<tag k="name" v="Vestre Gutu" />
		<tag k="place" v="farm" />
		<tag k="ssr:stedsnr" v="751002" />
	</node>
	<node id="-43663" lat="60.2152861119" lon="10.9963250009">
		<tag k="name" v="Vestby" />
		<tag k="place" v="farm" />
		<tag k="ssr:stedsnr" v="734868" />
	</node>
	<node id="-43662" lat="60.2127305529" lon="11.0048555549">
		<tag k="name" v="Nannestad" />
		<tag k="place" v="farm" />
		<tag k="ssr:stedsnr" v="734866" />
	</node>
	<node id="-43660" lat="60.1468250043" lon="11.0207750092">
		<tag k="name" v="Rovol" />
		<tag k="place" v="farm" />
		<tag k="ssr:stedsnr" v="734671" />
	</node>
	<node id="-43659" lat="60.1493861144" lon="11.011836119">
		<tag k="name" v="Grønlia" />
		<tag k="place" v="farm" />
		<tag k="ssr:stedsnr" v="734668" />
	</node>
	<node id="-43658" lat="60.2547250023" lon="11.088950001">
		<tag k="name" v="Vestli" />
		<tag k="place" v="isolated_dwelling" />
		<tag k="ssr:stedsnr" v="734440" />
	</node>
	<node id="-43657" lat="60.2544749959" lon="11.0696555602">
		<tag k="name" v="Herstua" />
		<tag k="place" v="farm" />
		<tag k="ssr:stedsnr" v="734441" />
	</node>
	<node id="-43656" lat="60.2536805545" lon="11.0436527757">
		<tag k="name" v="Kjøsdølen" />
		<tag k="place" v="farm" />
		<tag k="ssr:stedsnr" v="734438" />
	</node>
	<node id="-43654" lat="60.2594499988" lon="11.0217749967">
		<tag k="alt_name" v="Mjæleberg" />
		<tag k="name" v="Mjælaberg" />
		<tag k="place" v="farm" />
		<tag k="ssr:stedsnr" v="734399" />
	</node>
	<node id="-43653" lat="60.2534333292" lon="11.0210833289">
		<tag k="name" v="Molstad" />
		<tag k="place" v="farm" />
		<tag k="ssr:stedsnr" v="734384" />
	</node>
	<node id="-43652" lat="60.2761083346" lon="11.0295999923">
		<tag k="name" v="Fagerås" />
		<tag k="place" v="isolated_dwelling" />
		<tag k="ssr:stedsnr" v="734374" />
	</node>
	<node id="-43651" lat="60.2819305579" lon="10.9211472235">
		<tag k="name" v="Flaenstua" />
		<tag k="place" v="locality" />
		<tag k="ssr:stedsnr" v="734369" />
	</node>
	<node id="-43650" lat="60.2763750009" lon="11.0710749994">
		<tag k="name" v="Østlibråten" />
		<tag k="place" v="farm" />
		<tag k="ssr:stedsnr" v="734358" />
	</node>
	<node id="-43649" lat="60.3080250001" lon="11.0599999945">
		<tag k="alt_name" v="Tømtebråtan" />
		<tag k="name" v="Tømtebråten" />
		<tag k="place" v="locality" />
		<tag k="ssr:stedsnr" v="734342" />
	</node>
	<node id="-43647" lat="60.3329055572" lon="10.9628249984">
		<tag k="alt_name" v="Dalsseter" />
		<tag k="historic" v="shieling" />
		<tag k="name" v="Dalssætra" />
		<tag k="place" v="locality" />
		<tag k="ssr:stedsnr" v="734314" />
	</node>
	<node id="-43644" lat="60.2349611121" lon="10.9910583279">
		<tag k="alt_name" v="Kringledalen" />
		<tag k="name" v="Kringlerdalen" />
		<tag k="place" v="farm" />
		<tag k="ssr:stedsnr" v="733838" />
	</node>
	<node id="-43643" lat="60.2307138914" lon="11.0132083329">
		<tag k="name" v="Linderud" />
		<tag k="place" v="isolated_dwelling" />
		<tag k="ssr:stedsnr" v="733836" />
	</node>
	<node id="-43642" lat="60.2393333365" lon="11.0122361185">
		<tag k="alt_name" v="Hetaker" />
		<tag k="name" v="Hetåker" />
		<tag k="place" v="farm" />
		<tag k="ssr:stedsnr" v="733835" />
	</node>
	<node id="-43640" lat="60.2337611068" lon="10.9081527778">
		<tag k="name" v="Kringlevangen" />
		<tag k="place" v="isolated_dwelling" />
		<tag k="ssr:stedsnr" v="733828" />
	</node>
	<node id="-43638" lat="60.2337527742" lon="11.063913889">
		<tag k="alt_name" v="Rud" />
		<tag k="name" v="Øde Rud" />
		<tag k="place" v="farm" />
		<tag k="ssr:stedsnr" v="733794" />
	</node>
	<node id="-43635" lat="60.1932333367" lon="10.9941333366">
		<tag k="name" v="Homledalen" />
		<tag k="place" v="farm" />
		<tag k="ssr:stedsnr" v="733784" />
	</node>
	<node id="-43634" lat="60.1747150718" lon="11.0264088658">
		<tag k="alt_name" v="Vassengen" />
		<tag k="name" v="Vassenga" />
		<tag k="place" v="farm" />
		<tag k="ssr:stedsnr" v="733782" />
	</node>
	<node id="-43633" lat="60.1790250013" lon="10.9905333261">
		<tag k="name" v="Åsjordet" />
		<tag k="place" v="farm" />
		<tag k="ssr:stedsnr" v="733763" />
	</node>
	<node id="-43632" lat="60.2075888897" lon="11.0671777712">
		<tag k="name" v="Kneppe" />
		<tag k="place" v="farm" />
		<tag k="ssr:stedsnr" v="733750" />
	</node>
	<node id="-43630" lat="60.2020908704" lon="10.9975804335">
		<tag k="name" v="Hafstad" />
		<tag k="place" v="farm" />
		<tag k="ssr:stedsnr" v="733741" />
	</node>
	<node id="-43629" lat="60.2002555536" lon="11.0214805569">
		<tag k="alt_name" v="Engelstadflaen" />
		<tag k="name" v="Engelstad" />
		<tag k="place" v="farm" />
		<tag k="ssr:stedsnr" v="733740" />
	</node>
	<node id="-43627" lat="60.1679138933" lon="10.9940583251">
		<tag k="alt_name" v="Fevikshagan" />
		<tag k="name" v="Fevikhagen" />
		<tag k="place" v="farm" />
		<tag k="ssr:stedsnr" v="733699" />
	</node>
	<node id="-43625" lat="60.1251277821" lon="11.0705166693">
		<tag k="name" v="Grøsåker" />
		<tag k="place" v="farm" />
		<tag k="ssr:stedsnr" v="733631" />
	</node>
	<node id="-43624" lat="60.1232138865" lon="11.0589833296">
		<tag k="name" v="Slemdal" />
		<tag k="place" v="isolated_dwelling" />
		<tag k="ssr:stedsnr" v="733629" />
	</node>
	<node id="-43623" lat="60.1371694402" lon="11.0204749964">
		<tag k="name" v="Eltonåsen" />
		<tag k="place" v="quarter" />
		<tag k="ssr:stedsnr" v="733615" />
	</node>
	<node id="-43612" lat="60.2425583327" lon="10.9802944409">
		<tag k="name" v="Grindakerhytta" />
		<tag k="place" v="isolated_dwelling" />
		<tag k="ssr:stedsnr" v="690487" />
	</node>
	<node id="-43610" lat="60.2577548929" lon="11.069732792">
		<tag k="name" v="Myrhaug" />
		<tag k="place" v="farm" />
		<tag k="ssr:stedsnr" v="690424" />
	</node>
	<node id="-43609" lat="60.2323444429" lon="11.0868583354">
		<tag k="name" v="Fredheim" />
		<tag k="place" v="isolated_dwelling" />
		<tag k="ssr:stedsnr" v="690418" />
	</node>
	<node id="-43603" lat="60.2035583351" lon="11.0280805526">
		<tag k="name" v="Myreng" />
		<tag k="place" v="locality" />
		<tag k="ssr:stedsnr" v="690323" />
	</node>
	<node id="-43596" lat="60.1710777772" lon="11.0421555491">
		<tag k="name" v="Søndre Rud" />
		<tag k="place" v="farm" />
		<tag k="ssr:stedsnr" v="690248" />
	</node>
	<node id="-43594" lat="60.1737944446" lon="10.9854499927">
		<tag k="name" v="Fossum" />
		<tag k="place" v="farm" />
		<tag k="ssr:stedsnr" v="690221" />
	</node>
	<node id="-43592" lat="60.2939277812" lon="11.0761305588">
		<tag k="name" v="Tangensvingen" />
		<tag k="place" v="farm" />
		<tag k="ssr:stedsnr" v="690171" />
	</node>
	<node id="-43580" lat="60.1457249976" lon="11.012355555">
		<tag k="name" v="Rovolsteiet" />
		<tag k="place" v="locality" />
		<tag k="ssr:stedsnr" v="690049" />
	</node>
	<node id="-43578" lat="60.1586388878" lon="10.8967305589">
		<tag k="name" v="Øyungshytta" />
		<tag k="place" v="isolated_dwelling" />
		<tag k="ssr:stedsnr" v="690036" />
	</node>
	<node id="-43575" lat="60.1933333362" lon="10.9129944427">
		<tag k="name" v="Færstadhytta" />
		<tag k="place" v="isolated_dwelling" />
		<tag k="ssr:stedsnr" v="690017" />
	</node>
	<node id="-43574" lat="60.1415777809" lon="11.0727194466">
		<tag k="name" v="Ødegarden" />
		<tag k="place" v="locality" />
		<tag k="ssr:stedsnr" v="690014" />
	</node>
	<node id="-43573" lat="60.177886108" lon="10.9029888831">
		<tag k="name" v="Sørsætra" />
		<tag k="place" v="locality" />
		<tag k="ssr:stedsnr" v="688696" />
	</node>
	<node id="-43572" lat="60.2510499976" lon="11.0426555594">
		<tag k="name" v="Grønli" />
		<tag k="place" v="farm" />
		<tag k="ssr:stedsnr" v="674374" />
	</node>
	<node id="-43571" lat="60.2621500043" lon="11.0200277868">
		<tag k="name" v="Ås" />
		<tag k="place" v="farm" />
		<tag k="ssr:stedsnr" v="674349" />
	</node>
	<node id="-43570" lat="60.2651916623" lon="11.013308342">
		<tag k="name" v="Grani" />
		<tag k="old_name" v="Granli" />
		<tag k="place" v="farm" />
		<tag k="ssr:stedsnr" v="674346" />
	</node>
	<node id="-43569" lat="60.2605333352" lon="11.080774993">
		<tag k="name" v="Grønvoll" />
		<tag k="place" v="farm" />
		<tag k="ssr:stedsnr" v="674339" />
	</node>
	<node id="-43568" lat="60.2541500018" lon="11.0105250078">
		<tag k="alt_name" v="Breen, nordre" />
		<tag k="name" v="Nordre Breen" />
		<tag k="place" v="farm" />
		<tag k="ssr:stedsnr" v="674333" />
	</node>
	<node id="-43567" lat="60.2924000043" lon="11.0472083424">
		<tag k="name" v="Viksvangen" />
		<tag k="place" v="isolated_dwelling" />
		<tag k="ssr:stedsnr" v="674276" />
	</node>
	<node id="-43565" lat="60.2400916688" lon="10.989827783">
		<tag k="alt_name" v="Grindaker" />
		<tag k="name" v="Grindåker" />
		<tag k="place" v="farm" />
		<tag k="ssr:stedsnr" v="673927" />
	</node>
	<node id="-43563" lat="60.2150138864" lon="10.9244583328">
		<tag k="name" v="Melbysætra" />
		<tag k="place" v="farm" />
		<tag k="ssr:stedsnr" v="673876" />
	</node>
	<node id="-43562" lat="60.2140638868" lon="11.0076916688">
		<tag k="name" v="Ile" />
		<tag k="place" v="farm" />
		<tag k="ssr:stedsnr" v="673851" />
	</node>
	<node id="-43559" lat="60.1837333373" lon="10.9874083272">
		<tag k="name" v="Kåråsen" />
		<tag k="place" v="farm" />
		<tag k="ssr:stedsnr" v="673770" />
	</node>
	<node id="-43557" lat="60.1523055564" lon="11.0041055476">
		<tag k="name" v="Trugstadholtet" />
		<tag k="place" v="isolated_dwelling" />
		<tag k="ssr:stedsnr" v="673736" />
	</node>
	<node id="-43555" lat="60.125113887" lon="11.0607583314">
		<tag k="name" v="Hagahaugen" />
		<tag k="place" v="isolated_dwelling" />
		<tag k="ssr:stedsnr" v="673669" />
	</node>
	<node id="-43553" lat="60.143124996" lon="11.0230888973">
		<tag k="name" v="Harstad" />
		<tag k="place" v="farm" />
		<tag k="ssr:stedsnr" v="673650" />
	</node>
	<node id="-43552" lat="60.1111105509" lon="11.0274452486">
		<tag k="name" v="Sundby" />
		<tag k="place" v="farm" />
		<tag k="ssr:stedsnr" v="673593" />
	</node>
	<node id="-43551" lat="60.1090999967" lon="11.0155749994">
		<tag k="name" v="Finstad" />
		<tag k="place" v="farm" />
		<tag k="ssr:stedsnr" v="673590" />
	</node>
	<node id="-43550" lat="60.2886999993" lon="11.0858999991">
		<tag k="name" v="Sjøvoll" />
		<tag k="place" v="farm" />
		<tag k="ssr:stedsnr" v="673365" />
	</node>
	<node id="-43549" lat="60.2803555594" lon="10.991777776">
		<tag k="name" v="Buråsstua" />
		<tag k="place" v="isolated_dwelling" />
		<tag k="ssr:stedsnr" v="673358" />
	</node>
	<node id="-43548" lat="60.269674999" lon="11.0249777839">
		<tag k="name" v="Solbakken" />
		<tag k="place" v="farm" />
		<tag k="ssr:stedsnr" v="673348" />
	</node>
	<node id="-43547" lat="60.2709500031" lon="10.998625002">
		<tag k="name" v="Orli" />
		<tag k="place" v="farm" />
		<tag k="ssr:stedsnr" v="673340" />
	</node>
	<node id="-43546" lat="60.3105250037" lon="10.889075008">
		<tag k="name" v="Damstua" />
		<tag k="place" v="locality" />
		<tag k="ssr:stedsnr" v="673335" />
	</node>
	<node id="-43543" lat="60.3212250032" lon="10.9838555608">
		<tag k="name" v="Kjønstadlistua" />
		<tag k="place" v="isolated_dwelling" />
		<tag k="ssr:stedsnr" v="673293" />
	</node>
	<node id="-43542" lat="60.3345555591" lon="11.0358999968">
		<tag k="name" v="Holtet" />
		<tag k="place" v="farm" />
		<tag k="ssr:stedsnr" v="673294" />
	</node>
	<node id="-43540" lat="60.204866668" lon="10.8335916713">
		<tag k="alt_name" v="Råsjøplassen" />
		<tag k="name" v="Råsjøen" />
		<tag k="place" v="isolated_dwelling" />
		<tag k="ssr:stedsnr" v="672772" />
	</node>
	<node id="-43539" lat="60.2000166697" lon="10.965641675">
		<tag k="name" v="Røtterud" />
		<tag k="place" v="farm" />
		<tag k="ssr:stedsnr" v="672770" />
	</node>
	<node id="-43538" lat="60.2097666651" lon="11.0409277702">
		<tag k="alt_name" v="Bislergropa" />
		<tag k="name" v="Bidslergropa" />
		<tag k="place" v="farm" />
		<tag k="ssr:stedsnr" v="672764" />
	</node>
	<node id="-43537" lat="60.1999749974" lon="11.0353916649">
		<tag k="name" v="Enger" />
		<tag k="place" v="farm" />
		<tag k="ssr:stedsnr" v="672746" />
	</node>
	<node id="-43534" lat="60.1528083357" lon="10.9098166679">
		<tag k="name" v="Erpestadvangen" />
		<tag k="place" v="isolated_dwelling" />
		<tag k="ssr:stedsnr" v="672712" />
	</node>
	<node id="-43532" lat="60.1326333328" lon="11.0343277784">
		<tag k="alt_name" v="Gangfløt" />
		<tag k="name" v="Gangfløtt" />
		<tag k="place" v="farm" />
		<tag k="ssr:stedsnr" v="672624" />
	</node>
	<node id="-43530" lat="60.1251315611" lon="11.0315469195">
		<tag k="fixme" v="consider place=hamlet" />
		<tag k="name" v="Grani" />
		<tag k="place" v="farm" />
		<tag k="ssr:stedsnr" v="662874" />
	</node>
	<node id="-43526" lat="60.2310944464" lon="11.0469972207">
		<tag k="name" v="Bråtan" />
		<tag k="place" v="locality" />
		<tag k="ssr:stedsnr" v="630281" />
	</node>
	<node id="-43525" lat="60.2001083312" lon="10.9585611189">
		<tag k="name" v="Perslykkja" />
		<tag k="place" v="farm" />
		<tag k="ssr:stedsnr" v="630274" />
	</node>
	<node id="-43513" lat="60.2156305537" lon="11.0111444487">
		<tag k="name" v="Sandvang" />
		<tag k="place" v="farm" />
		<tag k="ssr:stedsnr" v="629286" />
	</node>
	<node id="-43511" lat="60.2172166627" lon="11.0120250081">
		<tag k="amenity" v="school" />
		<tag k="name" v="Eker skole" />
		<tag k="ssr:stedsnr" v="629280" />
	</node>
	<node id="-43509" lat="60.1896805589" lon="11.0200944469">
		<tag k="name" v="Senepsrud" />
		<tag k="place" v="farm" />
		<tag k="ssr:stedsnr" v="629268" />
	</node>
	<node id="-43506" lat="60.2548055528" lon="10.9422111173">
		<tag k="name" v="Midtskigarden" />
		<tag k="place" v="locality" />
		<tag k="ssr:stedsnr" v="629220" />
	</node>
	<node id="-43505" lat="60.1727416654" lon="11.0286055465">
		<tag k="name" v="Ukustad meieri" />
		<tag k="place" v="locality" />
		<tag k="ssr:stedsnr" v="629207" />
	</node>
	<node id="-43502" lat="60.1741722194" lon="10.9850583383">
		<tag k="name" v="Haug meieri" />
		<tag k="place" v="locality" />
		<tag k="ssr:stedsnr" v="629192" />
	</node>
	<node id="-43495" lat="60.1193527784" lon="11.0291222269">
		<tag k="name" v="Ødegården" />
		<tag k="place" v="farm" />
		<tag k="ssr:stedsnr" v="629108" />
	</node>
	<node id="-43493" lat="60.1377805592" lon="11.0451166613">
		<tag k="name" v="Løkenfeltet" />
		<tag k="place" v="quarter" />
		<tag k="ssr:stedsnr" v="629091" />
	</node>
	<node id="-43483" lat="60.1258499995" lon="11.074047216">
		<tag k="name" v="Vestre Foss" />
		<tag k="place" v="farm" />
		<tag k="ssr:stedsnr" v="629004" />
	</node>
	<node id="-43482" lat="60.1876027739" lon="10.8682444394">
		<tag k="name" v="Knepphaugen" />
		<tag k="place" v="locality" />
		<tag k="ssr:stedsnr" v="627799" />
	</node>
	<node id="-43481" lat="60.2636055521" lon="11.0272749918">
		<tag k="name" v="Vilberg" />
		<tag k="place" v="farm" />
		<tag k="ssr:stedsnr" v="613378" />
	</node>
	<node id="-43480" lat="60.2644777797" lon="11.0715333369">
		<tag k="name" v="Myrhaug" />
		<tag k="place" v="farm" />
		<tag k="ssr:stedsnr" v="613376" />
	</node>
	<node id="-43478" lat="60.253199996" lon="10.9899249973">
		<tag k="name" v="Lauum" />
		<tag k="place" v="farm" />
		<tag k="ssr:stedsnr" v="613350" />
	</node>
	<node id="-43477" lat="60.2507805531" lon="11.0000499987">
		<tag k="name" v="Breen" />
		<tag k="place" v="farm" />
		<tag k="ssr:stedsnr" v="613346" />
	</node>
	<node id="-43476" lat="60.3009555598" lon="10.969124999">
		<tag k="alt_name" v="Engerseter" />
		<tag k="historic" v="shieling" />
		<tag k="name" v="Engersætra" />
		<tag k="place" v="locality" />
		<tag k="ssr:stedsnr" v="613296" />
	</node>
	<node id="-43475" lat="60.2995083341" lon="11.0140749965">
		<tag k="alt_name" v="Mjælbergseter" />
		<tag k="historic" v="shieling" />
		<tag k="name" v="Mjælabergsætra" />
		<tag k="place" v="locality" />
		<tag k="ssr:stedsnr" v="613290" />
	</node>
	<node id="-43472" lat="60.2125861079" lon="11.0705249947">
		<tag k="name" v="Vigstein" />
		<tag k="place" v="farm" />
		<tag k="ssr:stedsnr" v="612841" />
	</node>
	<node id="-43471" lat="60.2206916675" lon="11.0175999986">
		<tag k="alt_name" v="Teiebyen" />
		<tag k="fixme" v="consider place=suburb, village or hamlet" />
		<tag k="name" v="Teigebyen" />
		<tag k="place" v="quarter" />
		<tag k="ssr:stedsnr" v="612839" />
	</node>
	<node id="-43470" lat="60.2446000025" lon="11.0724888882">
		<tag k="name" v="Lybekk" />
		<tag k="place" v="farm" />
		<tag k="ssr:stedsnr" v="612829" />
	</node>
	<node id="-43468" lat="60.229049999" lon="11.0355000087">
		<tag k="name" v="Fjellet" />
		<tag k="place" v="farm" />
		<tag k="ssr:stedsnr" v="612821" />
	</node>
	<node id="-43466" lat="60.1876027752" lon="11.0358888867">
		<tag k="name" v="Rognan" />
		<tag k="place" v="isolated_dwelling" />
		<tag k="ssr:stedsnr" v="612804" />
	</node>
	<node id="-43465" lat="60.1940750001" lon="10.9723027861">
		<tag k="name" v="Kopperud" />
		<tag k="place" v="farm" />
		<tag k="ssr:stedsnr" v="612797" />
	</node>
	<node id="-43463" lat="60.1974916688" lon="11.0324250087">
		<tag k="name" v="Engerhaugen" />
		<tag k="place" v="farm" />
		<tag k="ssr:stedsnr" v="612752" />
	</node>
	<node id="-43462" lat="60.1680249964" lon="11.0258083342">
		<tag k="name" v="Romedal" />
		<tag k="place" v="farm" />
		<tag k="ssr:stedsnr" v="612723" />
	</node>
	<node id="-43458" lat="60.2724999991" lon="11.0385527757">
		<tag k="name" v="Holkebyenga" />
		<tag k="place" v="isolated_dwelling" />
		<tag k="ssr:stedsnr" v="612389" />
	</node>
	<node id="-43456" lat="60.2733500034" lon="10.9954222177">
		<tag k="name" v="Bunes" />
		<tag k="place" v="farm" />
		<tag k="ssr:stedsnr" v="612338" />
	</node>
	<node id="-43455" lat="60.3001249984" lon="10.9090499986">
		<tag k="name" v="Kjagdalstua" />
		<tag k="place" v="isolated_dwelling" />
		<tag k="ssr:stedsnr" v="612315" />
	</node>
	<node id="-43450" lat="60.1570277788" lon="11.0313777772">
		<tag k="alt_name" v="Fagerli sykehjem" />
		<tag k="amenity" v="nursing_home" />
		<tag k="name" v="Fagerli" />
		<tag k="ssr:stedsnr" v="611747" />
	</node>
	<node id="-43449" lat="60.1625388915" lon="11.0061749922">
		<tag k="name" v="Knevelsrud" />
		<tag k="place" v="farm" />
		<tag k="ssr:stedsnr" v="611740" />
	</node>
	<node id="-43445" lat="60.1352166679" lon="11.011497231">
		<tag k="alt_name" v="Kjensbekk" />
		<tag k="name" v="Tjernsbekk" />
		<tag k="place" v="quarter" />
		<tag k="ssr:stedsnr" v="611673" />
	</node>
	<node id="-43444" lat="60.1337025281" lon="11.0657983477">
		<tag k="fixme" v="consider place=hamlet" />
		<tag k="name" v="Gutu" />
		<tag k="place" v="farm" />
		<tag k="ssr:stedsnr" v="611664" />
	</node>
	<node id="-43441" lat="60.1101999998" lon="11.047374997">
		<tag k="name" v="Kjærstad" />
		<tag k="place" v="farm" />
		<tag k="ssr:stedsnr" v="569889" />
	</node>
	<node id="-43440" lat="60.109200004" lon="11.0562472253">
		<tag k="name" v="Lundby" />
		<tag k="place" v="farm" />
		<tag k="ssr:stedsnr" v="569888" />
	</node>
	<node id="-43439" lat="60.3010361147" lon="10.9962694461">
		<tag k="name" v="Honheim" />
		<tag k="place" v="isolated_dwelling" />
		<tag k="ssr:stedsnr" v="569488" />
	</node>
	<node id="-43435" lat="60.273508336" lon="11.0477027831">
		<tag k="name" v="Holkebyhytta" />
		<tag k="place" v="isolated_dwelling" />
		<tag k="ssr:stedsnr" v="569447" />
	</node>
	<node id="-43428" lat="60.2600944431" lon="11.0816388912">
		<tag k="name" v="Snekkerstua" />
		<tag k="place" v="locality" />
		<tag k="ssr:stedsnr" v="569365" />
	</node>
	<node id="-43425" lat="60.1809694488" lon="11.0667944533">
		<tag k="name" v="Solbu" />
		<tag k="place" v="isolated_dwelling" />
		<tag k="ssr:stedsnr" v="569356" />
	</node>
	<node id="-43424" lat="60.2119666647" lon="11.0317472219">
		<tag k="name" v="Oppengelsrud" />
		<tag k="place" v="farm" />
		<tag k="ssr:stedsnr" v="569283" />
	</node>
	<node id="-43423" lat="60.2181138863" lon="11.0128277809">
		<tag k="amenity" v="school" />
		<tag k="name" v="Nannestad ungdomsskole" />
		<tag k="ssr:stedsnr" v="569281" />
	</node>
	<node id="-43405" lat="60.1642888911" lon="10.9943805506">
		<tag k="name" v="Jonsborg" />
		<tag k="place" v="farm" />
		<tag k="ssr:stedsnr" v="568210" />
	</node>
	<node id="-43401" lat="60.2581249988" lon="11.0401277697">
		<tag k="amenity" v="school" />
		<tag k="name" v="Maura skole" />
		<tag k="ssr:stedsnr" v="568137" />
	</node>
	<node id="-43399" lat="60.1136166697" lon="11.0381305549">
		<tag k="name" v="Kjølberg" />
		<tag k="place" v="farm" />
		<tag k="ssr:stedsnr" v="568110" />
	</node>
	<node id="-43396" lat="60.1534083376" lon="11.0364944512">
		<tag k="name" v="Dalheim" />
		<tag k="place" v="farm" />
		<tag k="ssr:stedsnr" v="568082" />
	</node>
	<node id="-43395" lat="60.1467027736" lon="11.0519111187">
		<tag k="name" v="Nordre Holter" />
		<tag k="place" v="farm" />
		<tag k="ssr:stedsnr" v="568074" />
	</node>
	<node id="-43393" lat="60.134313893" lon="10.9704527813">
		<tag k="name" v="Ramstadvillaen" />
		<tag k="place" v="isolated_dwelling" />
		<tag k="ssr:stedsnr" v="568068" />
	</node>
	<node id="-43392" lat="60.152036114" lon="11.0040916662">
		<tag k="name" v="Bekkevar" />
		<tag k="place" v="isolated_dwelling" />
		<tag k="ssr:stedsnr" v="568061" />
	</node>
	<node id="-43382" lat="60.2630250021" lon="10.8920416609">
		<tag k="name" v="Vombakkhytta" />
		<tag k="place" v="isolated_dwelling" />
		<tag k="ssr:stedsnr" v="552408" />
	</node>
	<node id="-43380" lat="60.2506055536" lon="10.993080555">
		<tag k="name" v="Moen" />
		<tag k="place" v="farm" />
		<tag k="ssr:stedsnr" v="552386" />
	</node>
	<node id="-43379" lat="60.2760250029" lon="10.9936000064">
		<tag k="name" v="Burås" />
		<tag k="place" v="farm" />
		<tag k="ssr:stedsnr" v="552354" />
	</node>
	<node id="-43378" lat="60.2692500008" lon="10.980544437">
		<tag k="alt_name" v="Borhaug" />
		<tag k="name" v="Bårhaug" />
		<tag k="place" v="farm" />
		<tag k="ssr:stedsnr" v="552350" />
	</node>
	<node id="-43376" lat="60.3027750028" lon="11.0756583386">
		<tag k="name" v="Berntsbråten" />
		<tag k="place" v="isolated_dwelling" />
		<tag k="ssr:stedsnr" v="552334" />
	</node>
	<node id="-43374" lat="60.3004500034" lon="11.041305554">
		<tag k="name" v="Sollia" />
		<tag k="place" v="isolated_dwelling" />
		<tag k="ssr:stedsnr" v="552327" />
	</node>
	<node id="-43366" lat="60.2082305558" lon="10.9357083284">
		<tag k="name" v="Rustadholet" />
		<tag k="place" v="isolated_dwelling" />
		<tag k="ssr:stedsnr" v="551864" />
	</node>
	<node id="-43365" lat="60.2301999985" lon="10.9820472209">
		<tag k="alt_name" v="Hakringler" />
		<tag k="name" v="Hokringler" />
		<tag k="place" v="farm" />
		<tag k="ssr:stedsnr" v="551857" />
	</node>
	<node id="-43364" lat="60.2358277782" lon="11.0111361024">
		<tag k="name" v="Bjørke" />
		<tag k="place" v="farm" />
		<tag k="ssr:stedsnr" v="551853" />
	</node>
	<node id="-43361" lat="60.2318750011" lon="11.0668833309">
		<tag k="name" v="Løvli" />
		<tag k="place" v="isolated_dwelling" />
		<tag k="ssr:stedsnr" v="551830" />
	</node>
	<node id="-43360" lat="60.1856611089" lon="11.0001305627">
		<tag k="alt_name" v="Lerbergsenga" />
		<tag k="name" v="Lerbergenga" />
		<tag k="place" v="farm" />
		<tag k="ssr:stedsnr" v="551813" />
	</node>
	<node id="-43358" lat="60.2112000031" lon="11.016933328">
		<tag k="alt_name" v="Hegglisletta" />
		<tag k="name" v="Heggelisletta" />
		<tag k="place" v="farm" />
		<tag k="ssr:stedsnr" v="551793" />
	</node>
	<node id="-43357" lat="60.2054500011" lon="11.0117861124">
		<tag k="alt_name" v="Nerheggli" />
		<tag k="name" v="Nedre Heggeli" />
		<tag k="place" v="farm" />
		<tag k="ssr:stedsnr" v="551794" />
	</node>
	<node id="-43356" lat="60.2042777786" lon="11.0345777841">
		<tag k="alt_name" v="Bisler" />
		<tag k="name" v="Bidsler" />
		<tag k="place" v="farm" />
		<tag k="ssr:stedsnr" v="551790" />
	</node>
	<node id="-43354" lat="60.1603111081" lon="11.0097277785">
		<tag k="name" v="Bjørkeik" />
		<tag k="place" v="farm" />
		<tag k="ssr:stedsnr" v="551741" />
	</node>
	<node id="-43353" lat="60.1568055537" lon="11.0362972211">
		<tag k="alt_name" v="Eik, søndre" />
		<tag k="name" v="Søndre Eik" />
		<tag k="place" v="farm" />
		<tag k="ssr:stedsnr" v="551739" />
	</node>
	<node id="-43352" lat="60.1747410917" lon="11.0510765991">
		<tag k="fixme" v="consider place=hamlet" />
		<tag k="name" v="Ukkestad" />
		<tag k="place" v="farm" />
		<tag k="ssr:stedsnr" v="551724" />
	</node>
	<node id="-43350" lat="60.1764666676" lon="10.865613893">
		<tag k="name" v="Engelstadvangen" />
		<tag k="place" v="isolated_dwelling" />
		<tag k="ssr:stedsnr" v="551708" />
	</node>
	<node id="-43349" lat="60.1698805589" lon="11.0190194471">
		<tag k="name" v="Austad" />
		<tag k="place" v="farm" />
		<tag k="ssr:stedsnr" v="551700" />
	</node>
	<node id="-43347" lat="60.1299361125" lon="11.0593194498">
		<tag k="name" v="Hagamoen" />
		<tag k="place" v="quarter" />
		<tag k="ssr:stedsnr" v="551652" />
	</node>
	<node id="-43346" lat="60.1362944419" lon="11.0120916713">
		<tag k="name" v="Bråten" />
		<tag k="place" v="isolated_dwelling" />
		<tag k="ssr:stedsnr" v="551647" />
	</node>
	<node id="-43345" lat="60.1187277764" lon="11.0654444401">
		<tag k="name" v="Låverud" />
		<tag k="place" v="farm" />
		<tag k="ssr:stedsnr" v="551560" />
	</node>
	<node id="-43344" lat="60.1119166675" lon="11.0513138952">
		<tag k="name" v="Kjærstad" />
		<tag k="place" v="farm" />
		<tag k="ssr:stedsnr" v="551402" />
	</node>
	<node id="-43343" lat="60.2454805525" lon="10.9922222151">
		<tag k="name" v="Østre Økri" />
		<tag k="place" v="farm" />
		<tag k="ssr:stedsnr" v="528079" />
	</node>
	<node id="-43340" lat="60.2245277733" lon="11.0631000008">
		<tag k="name" v="Myrvoll" />
		<tag k="place" v="isolated_dwelling" />
		<tag k="ssr:stedsnr" v="509278" />
	</node>
	<node id="-43333" lat="60.2326444406" lon="10.9877055515">
		<tag k="alt_name" v="Kringler" />
		<tag k="name" v="Østre Kringler" />
		<tag k="place" v="farm" />
		<tag k="ssr:stedsnr" v="508465" />
	</node>
	<node id="-43332" lat="60.3389166672" lon="11.0230583339">
		<tag k="name" v="Granvoll" />
		<tag k="place" v="farm" />
		<tag k="ssr:stedsnr" v="508434" />
	</node>
	<node id="-43326" lat="60.2352666697" lon="11.0857000062">
		<tag k="name" v="Lybekkbotn" />
		<tag k="place" v="farm" />
		<tag k="ssr:stedsnr" v="508400" />
	</node>
	<node id="-43318" lat="60.2033083327" lon="11.0304944409">
		<tag k="name" v="Bjørk" />
		<tag k="place" v="farm" />
		<tag k="ssr:stedsnr" v="508289" />
	</node>
	<node id="-43315" lat="60.1950333359" lon="11.0224138912">
		<tag k="name" v="Vestenga" />
		<tag k="place" v="farm" />
		<tag k="ssr:stedsnr" v="508275" />
	</node>
	<node id="-43310" lat="60.192833331" lon="10.9666916706">
		<tag k="name" v="Gjerdingen" />
		<tag k="place" v="isolated_dwelling" />
		<tag k="ssr:stedsnr" v="508186" />
	</node>
	<node id="-43306" lat="60.2689249992" lon="11.0913111162">
		<tag k="name" v="Surpedalen" />
		<tag k="place" v="farm" />
		<tag k="ssr:stedsnr" v="508154" />
	</node>
	<node id="-43305" lat="60.2689722193" lon="11.0939499961">
		<tag k="name" v="Øvre Sundby" />
		<tag k="place" v="farm" />
		<tag k="ssr:stedsnr" v="508148" />
	</node>
	<node id="-43302" lat="60.1142666692" lon="11.0586555578">
		<tag k="name" v="Nedre Låvegg" />
		<tag k="place" v="farm" />
		<tag k="ssr:stedsnr" v="508087" />
	</node>
	<node id="-43301" lat="60.1517916707" lon="11.0331305634">
		<tag k="name" v="Sandberg" />
		<tag k="place" v="farm" />
		<tag k="ssr:stedsnr" v="508084" />
	</node>
	<node id="-43296" lat="60.1989277735" lon="10.9123583394">
		<tag k="name" v="Brushorn" />
		<tag k="place" v="isolated_dwelling" />
		<tag k="ssr:stedsnr" v="508050" />
	</node>
	<node id="-43295" lat="60.2194833373" lon="10.9166277694">
		<tag k="name" v="Kaksrudhytta" />
		<tag k="place" v="isolated_dwelling" />
		<tag k="ssr:stedsnr" v="508051" />
	</node>
	<node id="-43293" lat="60.1808361104" lon="10.9266361039">
		<tag k="name" v="Kjoshytta" />
		<tag k="place" v="isolated_dwelling" />
		<tag k="ssr:stedsnr" v="508040" />
	</node>
	<node id="-43291" lat="60.2601250001" lon="11.0425250018">
		<tag k="alt_name" v="Stenset" />
		<tag k="name" v="Steinset" />
		<tag k="place" v="farm" />
		<tag k="ssr:stedsnr" v="492350" />
	</node>
	<node id="-43290" lat="60.254874999" lon="11.0467999926">
		<tag k="name" v="Årvoll" />
		<tag k="place" v="farm" />
		<tag k="ssr:stedsnr" v="492332" />
	</node>
	<node id="-43288" lat="60.2072638849" lon="10.8909916614">
		<tag k="name" v="Låkesæter" />
		<tag k="place" v="isolated_dwelling" />
		<tag k="ssr:stedsnr" v="491848" />
	</node>
	<node id="-43287" lat="60.2115250008" lon="10.7978472284">
		<tag k="name" v="Vestenden" />
		<tag k="place" v="isolated_dwelling" />
		<tag k="ssr:stedsnr" v="491846" />
	</node>
	<node id="-43286" lat="60.2214678803" lon="11.0805541448">
		<tag k="name" v="Moreppen" />
		<tag k="place" v="hamlet" />
		<tag k="ssr:stedsnr" v="491838" />
	</node>
	<node id="-43285" lat="60.2170808464" lon="11.0344846023">
		<tag k="alt_name" v="Engelsrudhagan" />
		<tag k="name" v="Ingelsrudhagen" />
		<tag k="place" v="farm" />
		<tag k="ssr:stedsnr" v="491835" />
	</node>
	<node id="-43284" lat="60.2329777787" lon="10.9862277723">
		<tag k="alt_name" v="Kringler, nordre" />
		<tag k="name" v="Nordre Kringler" />
		<tag k="place" v="farm" />
		<tag k="ssr:stedsnr" v="491832" />
	</node>
	<node id="-43283" lat="60.2276361079" lon="10.978474998">
		<tag k="alt_name" v="Kringler, søndre" />
		<tag k="name" v="Søndre Kringler" />
		<tag k="place" v="farm" />
		<tag k="ssr:stedsnr" v="491816" />
	</node>
	<node id="-43281" lat="60.1817500044" lon="11.0669277715">
		<tag k="name" v="Hagen" />
		<tag k="place" v="farm" />
		<tag k="ssr:stedsnr" v="491777" />
	</node>
	<node id="-43280" lat="60.1827083365" lon="11.0435999973">
		<tag k="name" v="Haugen" />
		<tag k="place" v="farm" />
		<tag k="ssr:stedsnr" v="491776" />
	</node>
	<node id="-43279" lat="60.1521138866" lon="11.0564138965">
		<tag k="name" v="Døli" />
		<tag k="place" v="farm" />
		<tag k="ssr:stedsnr" v="491734" />
	</node>
	<node id="-43277" lat="60.1570249959" lon="11.0466666722">
		<tag k="name" v="Søberg" />
		<tag k="place" v="isolated_dwelling" />
		<tag k="ssr:stedsnr" v="491729" />
	</node>
	<node id="-43276" lat="60.2943250046" lon="11.0296694368">
		<tag k="alt_name" v="Fløtten, øvre" />
		<tag k="name" v="Øvre Fløtten" />
		<tag k="place" v="isolated_dwelling" />
		<tag k="ssr:stedsnr" v="491363" />
	</node>
	<node id="-43273" lat="60.2769083338" lon="10.846249994">
		<tag k="name" v="Vestrehytta" />
		<tag k="place" v="isolated_dwelling" />
		<tag k="ssr:stedsnr" v="491349" />
	</node>
	<node id="-43272" lat="60.2693" lon="10.8688083377">
		<tag k="alt_name" v="Bislerseter" />
		<tag k="historic" v="shieling" />
		<tag k="name" v="Bidslersætra" />
		<tag k="place" v="locality" />
		<tag k="ssr:stedsnr" v="491347" />
	</node>
	<node id="-43270" lat="60.2698250019" lon="10.9963750079">
		<tag k="name" v="Åmot" />
		<tag k="place" v="farm" />
		<tag k="ssr:stedsnr" v="491333" />
	</node>
	<node id="-43269" lat="60.2965000019" lon="11.0635888956">
		<tag k="name" v="Tømte" />
		<tag k="place" v="isolated_dwelling" />
		<tag k="ssr:stedsnr" v="491303" />
	</node>
	<node id="-43266" lat="60.3333499974" lon="11.0291027788">
		<tag k="name" v="Østvoll" />
		<tag k="place" v="isolated_dwelling" />
		<tag k="ssr:stedsnr" v="491287" />
	</node>
	<node id="-43265" lat="60.2421999998" lon="11.0049888914">
		<tag k="name" v="Hol" />
		<tag k="place" v="farm" />
		<tag k="ssr:stedsnr" v="490900" />
	</node>
	<node id="-43263" lat="60.2105000004" lon="10.9946416613">
		<tag k="name" v="Kjønstad" />
		<tag k="place" v="farm" />
		<tag k="ssr:stedsnr" v="490857" />
	</node>
	<node id="-43258" lat="60.1882055534" lon="10.9898472241">
		<tag k="name" v="Årstad" />
		<tag k="place" v="farm" />
		<tag k="ssr:stedsnr" v="490799" />
	</node>
	<node id="-43257" lat="60.1602749981" lon="11.0198166618">
		<tag k="alt_name" v="Østre Trugstad" />
		<tag k="name" v="Trugstadlykkja" />
		<tag k="place" v="farm" />
		<tag k="ssr:stedsnr" v="490746" />
	</node>
	<node id="-43252" lat="60.3210249995" lon="11.0609722165">
		<tag k="name" v="Sandsnesplassen" />
		<tag k="place" v="isolated_dwelling" />
		<tag k="ssr:stedsnr" v="491270" />
	</node>
	<node id="-43248" lat="60.2434611085" lon="10.936219443">
		<tag k="name" v="Hokringlesætra" />
		<tag k="place" v="locality" />
		<tag k="ssr:stedsnr" v="451919" />
	</node>
	<node id="-43245" lat="60.2997805569" lon="10.9731277755">
		<tag k="name" v="Eivindshytta" />
		<tag k="place" v="isolated_dwelling" />
		<tag k="ssr:stedsnr" v="448526" />
	</node>
	<node id="-43230" lat="60.2361611084" lon="10.854941669">
		<tag k="fixme" v="consider tourism=alpine_hut or tourism=chalet" />
		<tag k="name" v="Råbjørnhytta" />
		<tag k="ssr:stedsnr" v="448354" />
		<tag k="tourism" v="wilderness_hut" />
	</node>
	<node id="-43227" lat="60.2314083313" lon="10.9305222177">
		<tag k="name" v="Elbekkhytta" />
		<tag k="place" v="isolated_dwelling" />
		<tag k="ssr:stedsnr" v="448342" />
	</node>
	<node id="-43226" lat="60.2254138882" lon="10.9412555628">
		<tag k="name" v="Eskerudhytta" />
		<tag k="place" v="isolated_dwelling" />
		<tag k="ssr:stedsnr" v="448339" />
	</node>
	<node id="-43224" lat="60.2107944478" lon="10.9703777705">
		<tag k="name" v="Østre Melby" />
		<tag k="place" v="farm" />
		<tag k="ssr:stedsnr" v="448326" />
	</node>
	<node id="-43223" lat="60.1984750045" lon="11.0093916625">
		<tag k="name" v="Homle" />
		<tag k="place" v="farm" />
		<tag k="ssr:stedsnr" v="448296" />
	</node>
	<node id="-43221" lat="60.3096083364" lon="10.9426666595">
		<tag k="name" v="Hegglistua" />
		<tag k="place" v="isolated_dwelling" />
		<tag k="ssr:stedsnr" v="448258" />
	</node>
	<node id="-43215" lat="60.2454416627" lon="10.9325055576">
		<tag k="name" v="Eggumhytta" />
		<tag k="place" v="isolated_dwelling" />
		<tag k="ssr:stedsnr" v="448237" />
	</node>
	<node id="-43212" lat="60.1709611074" lon="11.0529638823">
		<tag k="name" v="Lyshaug" />
		<tag k="place" v="farm" />
		<tag k="ssr:stedsnr" v="448221" />
	</node>
	<node id="-43211" lat="60.1717000015" lon="10.9922083262">
		<tag k="name" v="Slattum" />
		<tag k="place" v="farm" />
		<tag k="ssr:stedsnr" v="448214" />
	</node>
	<node id="-43208" lat="60.2700694459" lon="11.0967249945">
		<tag k="name" v="Nedre Sundby" />
		<tag k="place" v="farm" />
		<tag k="ssr:stedsnr" v="448169" />
	</node>
	<node id="-43207" lat="60.2696472258" lon="11.0962333248">
		<tag k="name" v="Midtre Sundby" />
		<tag k="place" v="farm" />
		<tag k="ssr:stedsnr" v="448163" />
	</node>
	<node id="-43206" lat="60.2543749961" lon="11.0242888903">
		<tag k="name" v="Solheim" />
		<tag k="place" v="locality" />
		<tag k="ssr:stedsnr" v="448155" />
	</node>
	<node id="-43205" lat="60.252936113" lon="11.0369722202">
		<tag k="name" v="Sameia" />
		<tag k="place" v="locality" />
		<tag k="ssr:stedsnr" v="448153" />
	</node>
	<node id="-43204" lat="60.2479722204" lon="11.0188305531">
		<tag k="name" v="Åmål" />
		<tag k="place" v="farm" />
		<tag k="ssr:stedsnr" v="448149" />
	</node>
	<node id="-43203" lat="60.2570027796" lon="11.0128277807">
		<tag k="name" v="Morud" />
		<tag k="place" v="farm" />
		<tag k="ssr:stedsnr" v="448147" />
	</node>
	<node id="-43197" lat="60.1365333365" lon="11.0405638862">
		<tag k="name" v="Østre Elton" />
		<tag k="place" v="farm" />
		<tag k="ssr:stedsnr" v="448074" />
	</node>
	<node id="-43193" lat="60.1805638895" lon="10.918147224">
		<tag k="name" v="Grimstjernhytta" />
		<tag k="place" v="isolated_dwelling" />
		<tag k="ssr:stedsnr" v="448055" />
	</node>
	<node id="-43186" lat="60.2518417785" lon="11.059949157">
		<tag k="name" v="Granholt" />
		<tag k="place" v="farm" />
		<tag k="ssr:stedsnr" v="431426" />
	</node>
	<node id="-43184" lat="60.2644027814" lon="11.048475">
		<tag k="name" v="Fjellhaug" />
		<tag k="place" v="farm" />
		<tag k="ssr:stedsnr" v="431393" />
	</node>
	<node id="-43182" lat="60.2582749967" lon="10.8713000023">
		<tag k="name" v="Steinmyrhytta" />
		<tag k="place" v="locality" />
		<tag k="ssr:stedsnr" v="431388" />
	</node>
	<node id="-43181" lat="60.285383329" lon="11.0323361082">
		<tag k="name" v="Røtnesholtet" />
		<tag k="place" v="isolated_dwelling" />
		<tag k="ssr:stedsnr" v="431364" />
	</node>
	<node id="-43180" lat="60.2806055551" lon="11.068749999">
		<tag k="name" v="Østli" />
		<tag k="place" v="farm" />
		<tag k="ssr:stedsnr" v="431362" />
	</node>
	<node id="-43179" lat="60.2932749969" lon="11.0097000047">
		<tag k="alt_name" v="Totnerseter" />
		<tag k="historic" v="shieling" />
		<tag k="name" v="Totnersætra" />
		<tag k="place" v="locality" />
		<tag k="ssr:stedsnr" v="431363" />
	</node>
	<node id="-43178" lat="60.2831055557" lon="11.0431499922">
		<tag k="name" v="Holtet" />
		<tag k="place" v="isolated_dwelling" />
		<tag k="ssr:stedsnr" v="431360" />
	</node>
	<node id="-43177" lat="60.2742027741" lon="11.0227250067">
		<tag k="name" v="Lilykkja" />
		<tag k="place" v="isolated_dwelling" />
		<tag k="ssr:stedsnr" v="431344" />
	</node>
	<node id="-43176" lat="60.2692805593" lon="11.0031500003">
		<tag k="name" v="Bergerud" />
		<tag k="place" v="farm" />
		<tag k="ssr:stedsnr" v="431341" />
	</node>
	<node id="-43171" lat="60.2460083332" lon="11.0115499952">
		<tag k="name" v="Rud" />
		<tag k="place" v="farm" />
		<tag k="ssr:stedsnr" v="430917" />
	</node>
	<node id="-43170" lat="60.2474277777" lon="10.9951944468">
		<tag k="name" v="Vestre Økri" />
		<tag k="old_name" v="Låverud" />
		<tag k="place" v="farm" />
		<tag k="ssr:stedsnr" v="430913" />
	</node>
	<node id="-43168" lat="60.2253611091" lon="11.0325888928">
		<tag k="name" v="Preståsen" />
		<tag k="place" v="quarter" />
		<tag k="ssr:stedsnr" v="430852" />
	</node>
	<node id="-43167" lat="60.2033277803" lon="10.9474583276">
		<tag k="name" v="Røtterudmoen" />
		<tag k="place" v="hamlet" />
		<tag k="ssr:stedsnr" v="430847" />
	</node>
	<node id="-43166" lat="60.2475027765" lon="11.0834805518">
		<tag k="alt_name" v="Lybekkbråten" />
		<tag k="name" v="Lybekkbråtan" />
		<tag k="place" v="isolated_dwelling" />
		<tag k="ssr:stedsnr" v="430825" />
	</node>
	<node id="-43165" lat="60.2246999988" lon="11.00581388">
		<tag k="alt_name" v="Bahus" />
		<tag k="name" v="Båhus" />
		<tag k="place" v="farm" />
		<tag k="ssr:stedsnr" v="430817" />
	</node>
	<node id="-43163" lat="60.2304416707" lon="11.0664000068">
		<tag k="name" v="Steinsrud" />
		<tag k="place" v="farm" />
		<tag k="ssr:stedsnr" v="430805" />
	</node>
	<node id="-43161" lat="60.1773666628" lon="10.99209167">
		<tag k="name" v="Trondrud" />
		<tag k="place" v="farm" />
		<tag k="ssr:stedsnr" v="430783" />
	</node>
	<node id="-43159" lat="60.2057027802" lon="11.0440861198">
		<tag k="name" v="Østbråtan" />
		<tag k="place" v="farm" />
		<tag k="ssr:stedsnr" v="430762" />
	</node>
	<node id="-43157" lat="60.157683337" lon="11.011369444">
		<tag k="name" v="Ånum" />
		<tag k="place" v="farm" />
		<tag k="ssr:stedsnr" v="430736" />
	</node>
	<node id="-43155" lat="60.1713305584" lon="10.9868805476">
		<tag k="name" v="Løvstad" />
		<tag k="place" v="farm" />
		<tag k="ssr:stedsnr" v="430681" />
	</node>
	<node id="-43154" lat="60.1182666677" lon="11.0484527796">
		<tag k="name" v="Haugerud" />
		<tag k="place" v="farm" />
		<tag k="ssr:stedsnr" v="430571" />
	</node>
	<node id="-43153" lat="60.1387611114" lon="11.0551111074">
		<tag k="name" v="Løken" />
		<tag k="place" v="farm" />
		<tag k="ssr:stedsnr" v="430644" />
	</node>
	<node id="-43152" lat="60.1777750022" lon="10.9870805489">
		<tag k="fixme" v="consider place=hamlet" />
		<tag k="name" v="Åsgreina" />
		<tag k="old_name" v="Åsgrenda" />
		<tag k="place" v="village" />
		<tag k="ssr:stedsnr" v="427750" />
	</node>
	<node id="-43150" lat="60.2856277762" lon="11.0326583273">
		<tag k="name" v="Larsbakkenga" />
		<tag k="place" v="isolated_dwelling" />
		<tag k="ssr:stedsnr" v="266462" />
	</node>
	<node id="-43148" lat="60.2677305591" lon="11.0285138969">
		<tag k="name" v="Røtnes" />
		<tag k="place" v="farm" />
		<tag k="ssr:stedsnr" v="266441" />
	</node>
	<node id="-43147" lat="60.2630750004" lon="11.0231583399">
		<tag k="landuse" v="winter_sports" />
		<tag k="name" v="Nannestad Skisenter" />
		<tag k="old_name" v="Åslia skisenter" />
		<tag k="piste:type" v="downhill" />
		<tag k="ssr:stedsnr" v="266440" />
	</node>
	<node id="-43146" lat="60.2600083344" lon="10.9836444394">
		<tag k="name" v="Evjebråten" />
		<tag k="place" v="farm" />
		<tag k="ssr:stedsnr" v="266412" />
	</node>
	<node id="-43145" lat="60.3281111095" lon="11.0604277753">
		<tag k="name" v="Skjebindertangen" />
		<tag k="place" v="farm" />
		<tag k="ssr:stedsnr" v="266377" />
	</node>
	<node id="-43144" lat="60.3342027813" lon="11.0318138938">
		<tag k="name" v="Rotestua" />
		<tag k="place" v="farm" />
		<tag k="ssr:stedsnr" v="266375" />
	</node>
	<node id="-43142" lat="60.2618638893" lon="11.0706750043">
		<tag k="name" v="Myrhaug" />
		<tag k="place" v="farm" />
		<tag k="ssr:stedsnr" v="266361" />
	</node>
	<node id="-43141" lat="60.2319722236" lon="11.0804777781">
		<tag k="name" v="Grasmogrenda" />
		<tag k="place" v="hamlet" />
		<tag k="ssr:stedsnr" v="266357" />
	</node>
	<node id="-43140" lat="60.2267694404" lon="11.0846666622">
		<tag k="name" v="Lillemo" />
		<tag k="place" v="isolated_dwelling" />
		<tag k="ssr:stedsnr" v="266355" />
	</node>
	<node id="-43136" lat="60.1765055548" lon="11.0394888937">
		<tag k="name" v="Vestre Ukustad" />
		<tag k="place" v="farm" />
		<tag k="ssr:stedsnr" v="266215" />
	</node>
	<node id="-43134" lat="60.1696972218" lon="11.0212138978">
		<tag k="name" v="Østre Austad" />
		<tag k="place" v="farm" />
		<tag k="ssr:stedsnr" v="266207" />
	</node>
	<node id="-43132" lat="60.2503834214" lon="11.0596747608">
		<tag k="name" v="Kopperud" />
		<tag k="place" v="farm" />
		<tag k="ssr:stedsnr" v="266158" />
	</node>
	<node id="-43123" lat="60.1770527742" lon="11.020161104">
		<tag k="name" v="Vassengen" />
		<tag k="place" v="farm" />
		<tag k="ssr:stedsnr" v="265301" />
	</node>
	<node id="-43121" lat="60.2208166662" lon="10.9674055521">
		<tag k="name" v="Furuheim" />
		<tag k="place" v="locality" />
		<tag k="ssr:stedsnr" v="265277" />
	</node>
	<node id="-43114" lat="60.2888333318" lon="11.0681416718">
		<tag k="name" v="Viksmarka" />
		<tag k="place" v="locality" />
		<tag k="ssr:stedsnr" v="265173" />
	</node>
	<node id="-43113" lat="60.2833750016" lon="11.0714277774">
		<tag k="name" v="Pettersbråtan" />
		<tag k="place" v="farm" />
		<tag k="ssr:stedsnr" v="265163" />
	</node>
	<node id="-43112" lat="60.2828583354" lon="11.0835138917">
		<tag k="name" v="Løvstad" />
		<tag k="place" v="farm" />
		<tag k="ssr:stedsnr" v="265161" />
	</node>
	<node id="-43111" lat="60.2804388934" lon="11.0686833265">
		<tag k="name" v="Østlihaugen" />
		<tag k="place" v="farm" />
		<tag k="ssr:stedsnr" v="265162" />
	</node>
	<node id="-43107" lat="60.140402781" lon="11.0205694362">
		<tag k="name" v="Søndre Harstad" />
		<tag k="place" v="farm" />
		<tag k="ssr:stedsnr" v="265092" />
	</node>
	<node id="-43106" lat="60.1392527801" lon="11.0516222272">
		<tag k="name" v="Dalbu" />
		<tag k="place" v="farm" />
		<tag k="ssr:stedsnr" v="265076" />
	</node>
	<node id="-43105" lat="60.142461113" lon="11.0506805481">
		<tag k="name" v="Sand" />
		<tag k="place" v="farm" />
		<tag k="ssr:stedsnr" v="265073" />
	</node>
	<node id="-43104" lat="60.2012944402" lon="10.8806111192">
		<tag k="name" v="Bjertnessætra" />
		<tag k="place" v="isolated_dwelling" />
		<tag k="ssr:stedsnr" v="263777" />
	</node>
	<node id="-43102" lat="60.2657499977" lon="11.0003749991">
		<tag k="name" v="Åmot" />
		<tag k="place" v="farm" />
		<tag k="ssr:stedsnr" v="249654" />
	</node>
	<node id="-43099" lat="60.2642000043" lon="10.9197249969">
		<tag k="alt_name" v="Vollaugseter" />
		<tag k="name" v="Vålaugsætra" />
		<tag k="place" v="isolated_dwelling" />
		<tag k="ssr:stedsnr" v="249373" />
	</node>
	<node id="-43098" lat="60.2500583336" lon="11.0315250038">
		<tag k="name" v="Lystad" />
		<tag k="place" v="farm" />
		<tag k="ssr:stedsnr" v="249349" />
	</node>
	<node id="-43097" lat="60.2924083337" lon="11.0832249925">
		<tag k="name" v="Tangen" />
		<tag k="place" v="farm" />
		<tag k="ssr:stedsnr" v="249343" />
	</node>
	<node id="-43096" lat="60.2853249999" lon="11.0256555468">
		<tag k="alt_name" v="Åsseter" />
		<tag k="historic" v="shieling" />
		<tag k="name" v="Åssætra" />
		<tag k="place" v="locality" />
		<tag k="ssr:stedsnr" v="249338" />
	</node>
	<node id="-43095" lat="60.281830557" lon="10.935163887">
		<tag k="name" v="Vålaugsætra" />
		<tag k="place" v="isolated_dwelling" />
		<tag k="ssr:stedsnr" v="249332" />
	</node>
	<node id="-43094" lat="60.2807777798" lon="11.0879749935">
		<tag k="name" v="Steinsgård" />
		<tag k="place" v="farm" />
		<tag k="ssr:stedsnr" v="249320" />
	</node>
	<node id="-43093" lat="60.2682555551" lon="11.0055527846">
		<tag k="name" v="Åsheim" />
		<tag k="place" v="farm" />
		<tag k="ssr:stedsnr" v="249315" />
	</node>
	<node id="-43092" lat="60.269497226" lon="10.987858336">
		<tag k="name" v="Bekkedal" />
		<tag k="place" v="farm" />
		<tag k="ssr:stedsnr" v="249316" />
	</node>
	<node id="-43088" lat="60.3139333336" lon="10.9757555518">
		<tag k="alt_name" v="Kjønstadseter" />
		<tag k="name" v="Kjønstadsætra" />
		<tag k="place" v="isolated_dwelling" />
		<tag k="ssr:stedsnr" v="249236" />
	</node>
	<node id="-43084" lat="60.2463861118" lon="11.0587805476">
		<tag k="name" v="Kopperudstua" />
		<tag k="place" v="isolated_dwelling" />
		<tag k="ssr:stedsnr" v="248921" />
	</node>
	<node id="-43083" lat="60.2173805561" lon="10.9673500028">
		<tag k="name" v="Eskerud" />
		<tag k="place" v="farm" />
		<tag k="ssr:stedsnr" v="248879" />
	</node>
	<node id="-43081" lat="60.2249305586" lon="11.0517277742">
		<tag k="alt_name" v="Rydding" />
		<tag k="name" v="Rydningen" />
		<tag k="place" v="farm" />
		<tag k="ssr:stedsnr" v="248871" />
	</node>
	<node id="-43080" lat="60.2131361104" lon="11.0431583381">
		<tag k="name" v="Bjørnsrud" />
		<tag k="place" v="farm" />
		<tag k="ssr:stedsnr" v="248862" />
	</node>
	<node id="-43077" lat="60.2320611144" lon="11.077663885">
		<tag k="name" v="Grasmo" />
		<tag k="place" v="farm" />
		<tag k="ssr:stedsnr" v="248831" />
	</node>
	<node id="-43076" lat="60.1938611154" lon="11.0337888802">
		<tag k="name" v="Nedre Engelstad" />
		<tag k="place" v="farm" />
		<tag k="ssr:stedsnr" v="248816" />
	</node>
	<node id="-43075" lat="60.1924666628" lon="11.0302416593">
		<tag k="name" v="Vestre Engelstad" />
		<tag k="place" v="farm" />
		<tag k="ssr:stedsnr" v="248815" />
	</node>
	<node id="-43074" lat="60.1832000037" lon="11.0082583405">
		<tag k="alt_name" v="Hafsenga" />
		<tag k="name" v="Hovsenga" />
		<tag k="place" v="farm" />
		<tag k="ssr:stedsnr" v="248808" />
	</node>
	<node id="-43073" lat="60.1790249955" lon="11.0091416751">
		<tag k="name" v="Lerberg" />
		<tag k="place" v="farm" />
		<tag k="ssr:stedsnr" v="248805" />
	</node>
	<node id="-43072" lat="60.1767916677" lon="11.0034333336">
		<tag k="name" v="Nedre Nordby" />
		<tag k="place" v="farm" />
		<tag k="ssr:stedsnr" v="248802" />
	</node>
	<node id="-43068" lat="60.195488888" lon="10.9724416583">
		<tag k="alt_name" v="Oserud" />
		<tag k="name" v="Osrud" />
		<tag k="place" v="farm" />
		<tag k="ssr:stedsnr" v="248768" />
	</node>
	<node id="-43067" lat="60.1560888853" lon="11.0027500049">
		<tag k="alt_name" v="Høybråten" />
		<tag k="name" v="Høgbråtan" />
		<tag k="place" v="isolated_dwelling" />
		<tag k="ssr:stedsnr" v="248761" />
	</node>
	<node id="-43063" lat="60.1699527759" lon="11.0342027698">
		<tag k="alt_name" v="Rudsletta" />
		<tag k="name" v="Sletta" />
		<tag k="place" v="farm" />
		<tag k="ssr:stedsnr" v="248724" />
	</node>
	<node id="-43062" lat="60.12604969" lon="11.0324506844">
		<tag k="name" v="Nordre Grani" />
		<tag k="place" v="farm" />
		<tag k="ssr:stedsnr" v="248669" />
	</node>
	<node id="-43061" lat="60.1281027748" lon="11.0179722179">
		<tag k="name" v="Solheim" />
		<tag k="place" v="isolated_dwelling" />
		<tag k="ssr:stedsnr" v="248668" />
	</node>
	<node id="-43059" lat="60.3426249993" lon="11.0214527784">
		<tag k="alt_name" v="Engen" />
		<tag k="name" v="Enga" />
		<tag k="place" v="farm" />
		<tag k="ssr:stedsnr" v="248495" />
	</node>
	<node id="-43058" lat="60.3372750024" lon="11.0249249943">
		<tag k="name" v="Nystua" />
		<tag k="place" v="farm" />
		<tag k="ssr:stedsnr" v="248266" />
	</node>
	<node id="-43057" lat="60.3370805559" lon="11.0264555483">
		<tag k="name" v="Sørstua" />
		<tag k="place" v="farm" />
		<tag k="ssr:stedsnr" v="248267" />
	</node>
	<node id="-43050" lat="60.2154166645" lon="10.9508222153">
		<tag k="name" v="Snekkerstua" />
		<tag k="place" v="isolated_dwelling" />
		<tag k="ssr:stedsnr" v="206283" />
	</node>
	<node id="-43049" lat="60.225091663" lon="11.0464333329">
		<tag k="name" v="Piperud" />
		<tag k="place" v="locality" />
		<tag k="ssr:stedsnr" v="206280" />
	</node>
	<node id="-43048" lat="60.2134944471" lon="10.9712472181">
		<tag k="name" v="Nordre Nordby" />
		<tag k="place" v="farm" />
		<tag k="ssr:stedsnr" v="206271" />
	</node>
	<node id="-43040" lat="60.2519472193" lon="10.9974694387">
		<tag k="name" v="Lauum" />
		<tag k="place" v="farm" />
		<tag k="ssr:stedsnr" v="205498" />
	</node>
	<node id="-43039" lat="60.2487583321" lon="10.9993388975">
		<tag k="name" v="Døli" />
		<tag k="place" v="farm" />
		<tag k="ssr:stedsnr" v="205496" />
	</node>
	<node id="-43037" lat="60.2200083332" lon="11.0788388817">
		<tag k="name" v="Furubråten" />
		<tag k="place" v="isolated_dwelling" />
		<tag k="ssr:stedsnr" v="205413" />
	</node>
	<node id="-43036" lat="60.2403972231" lon="10.9390277762">
		<tag k="name" v="Låverudshytta" />
		<tag k="place" v="isolated_dwelling" />
		<tag k="ssr:stedsnr" v="205407" />
	</node>
	<node id="-43032" lat="60.2097249975" lon="10.9981083383">
		<tag k="building" v="commercial" />
		<tag k="name" v="Felleskjøpet" />
		<tag k="ssr:stedsnr" v="205332" />
	</node>
	<node id="-43030" lat="60.2027916708" lon="10.9968416712">
		<tag k="name" v="Vestre Hafstad" />
		<tag k="place" v="farm" />
		<tag k="ssr:stedsnr" v="205331" />
	</node>
	<node id="-43028" lat="60.2163499991" lon="11.0108638899">
		<tag k="amenity" v="townhall" />
		<tag k="name" v="Kommunehus" />
		<tag k="ssr:stedsnr" v="205314" />
	</node>
	<node id="-43026" lat="60.238549997" lon="11.0179000041">
		<tag k="name" v="Bjørkås" />
		<tag k="place" v="farm" />
		<tag k="ssr:stedsnr" v="205286" />
	</node>
	<node id="-43025" lat="60.2239777745" lon="10.9722277818">
		<tag k="name" v="Lunås" />
		<tag k="place" v="locality" />
		<tag k="ssr:stedsnr" v="205284" />
	</node>
	<node id="-43016" lat="60.1714944448" lon="10.9952861142">
		<tag k="amenity" v="school" />
		<tag k="name" v="Kringler-Slattum skole" />
		<tag k="ssr:stedsnr" v="205213" />
	</node>
	<node id="-43012" lat="60.19279722" lon="10.9934250048">
		<tag k="building" v="industrial" />
		<tag k="industrial" v="factory" />
		<tag k="name" v="Homledal mølle" />
		<tag k="ssr:stedsnr" v="205190" />
	</node>
</osm>
