<?xml version="1.0" encoding="UTF-8"?>
<osm generator="osmapis" version="0.6">
	<node id="-905216" lat="64.8947640532" lon="10.7199242373">
		<tag k="name" v="Hellesøya" />
		<tag k="ssr:date" v="2019-05-31" />
		<tag k="ssr:gruppe" v="veg" />
		<tag k="ssr:hovedgruppe" v="infrastruktur" />
		<tag k="ssr:stedsnr" v="1045114" />
		<tag k="ssr:type" v="adressenavn" />
	</node>
	<node id="-905215" lat="64.8648011535" lon="10.694849804">
		<tag k="name" v="Langøya" />
		<tag k="ssr:date" v="2019-05-31" />
		<tag k="ssr:gruppe" v="veg" />
		<tag k="ssr:hovedgruppe" v="infrastruktur" />
		<tag k="ssr:stedsnr" v="1045113" />
		<tag k="ssr:type" v="adressenavn" />
	</node>
	<node id="-905214" lat="64.8459616289" lon="10.5886417364">
		<tag k="name" v="Skjærværet" />
		<tag k="ssr:date" v="2019-05-31" />
		<tag k="ssr:gruppe" v="veg" />
		<tag k="ssr:hovedgruppe" v="infrastruktur" />
		<tag k="ssr:stedsnr" v="1045112" />
		<tag k="ssr:type" v="adressenavn" />
	</node>
	<node id="-905213" lat="64.7659916484" lon="10.5972910081">
		<tag k="name" v="Sørøyan" />
		<tag k="ssr:date" v="2019-05-31" />
		<tag k="ssr:gruppe" v="veg" />
		<tag k="ssr:hovedgruppe" v="infrastruktur" />
		<tag k="ssr:stedsnr" v="1045111" />
		<tag k="ssr:type" v="adressenavn" />
	</node>
	<node id="-905212" lat="64.8499015797" lon="10.616969971">
		<tag k="name" v="Henrikøya" />
		<tag k="ssr:date" v="2019-05-31" />
		<tag k="ssr:gruppe" v="veg" />
		<tag k="ssr:hovedgruppe" v="infrastruktur" />
		<tag k="ssr:stedsnr" v="1045110" />
		<tag k="ssr:type" v="adressenavn" />
	</node>
	<node id="-905211" lat="64.8261619668" lon="10.7013830955">
		<tag k="name" v="Gåsværet" />
		<tag k="ssr:date" v="2019-05-31" />
		<tag k="ssr:gruppe" v="veg" />
		<tag k="ssr:hovedgruppe" v="infrastruktur" />
		<tag k="ssr:stedsnr" v="1045109" />
		<tag k="ssr:type" v="adressenavn" />
	</node>
	<node id="-905210" lat="64.8228524413" lon="10.7253022508">
		<tag k="name" v="Bondøya" />
		<tag k="ssr:date" v="2019-05-31" />
		<tag k="ssr:gruppe" v="veg" />
		<tag k="ssr:hovedgruppe" v="infrastruktur" />
		<tag k="ssr:stedsnr" v="1045108" />
		<tag k="ssr:type" v="adressenavn" />
	</node>
	<node id="-905209" lat="64.804020426" lon="10.5437951095">
		<tag k="name" v="Nordøyan" />
		<tag k="ssr:date" v="2019-05-31" />
		<tag k="ssr:gruppe" v="veg" />
		<tag k="ssr:hovedgruppe" v="infrastruktur" />
		<tag k="ssr:stedsnr" v="1045107" />
		<tag k="ssr:type" v="adressenavn" />
	</node>
	<node id="-905208" lat="64.8299536048" lon="10.7202978277">
		<tag k="name" v="Småholman" />
		<tag k="ssr:date" v="2019-05-31" />
		<tag k="ssr:gruppe" v="veg" />
		<tag k="ssr:hovedgruppe" v="infrastruktur" />
		<tag k="ssr:stedsnr" v="1045106" />
		<tag k="ssr:type" v="adressenavn" />
	</node>
	<node id="-905207" lat="64.7422381334" lon="10.7750590962">
		<tag k="name" v="Sør-Gjæslingan" />
		<tag k="ssr:date" v="2019-05-31" />
		<tag k="ssr:gruppe" v="veg" />
		<tag k="ssr:hovedgruppe" v="infrastruktur" />
		<tag k="ssr:stedsnr" v="1045105" />
		<tag k="ssr:type" v="adressenavn" />
	</node>
	<node id="-905206" lat="64.8657090401" lon="10.991994977">
		<tag k="name" v="Svinøya" />
		<tag k="ssr:date" v="2019-05-31" />
		<tag k="ssr:gruppe" v="veg" />
		<tag k="ssr:hovedgruppe" v="infrastruktur" />
		<tag k="ssr:stedsnr" v="1045104" />
		<tag k="ssr:type" v="adressenavn" />
	</node>
	<node id="-905205" lat="64.8659159653" lon="11.0448872848">
		<tag k="name" v="Vågøya" />
		<tag k="ssr:date" v="2019-05-31" />
		<tag k="ssr:gruppe" v="veg" />
		<tag k="ssr:hovedgruppe" v="infrastruktur" />
		<tag k="ssr:stedsnr" v="1045103" />
		<tag k="ssr:type" v="adressenavn" />
	</node>
	<node id="-905204" lat="64.8344678171" lon="11.0695543687">
		<tag k="name" v="Slåtterøya" />
		<tag k="ssr:date" v="2019-05-31" />
		<tag k="ssr:gruppe" v="veg" />
		<tag k="ssr:hovedgruppe" v="infrastruktur" />
		<tag k="ssr:stedsnr" v="1045102" />
		<tag k="ssr:type" v="adressenavn" />
	</node>
	<node id="-905203" lat="65.0035786746" lon="11.1348084667">
		<tag k="name" v="Kvaløya" />
		<tag k="ssr:date" v="2019-05-31" />
		<tag k="ssr:gruppe" v="veg" />
		<tag k="ssr:hovedgruppe" v="infrastruktur" />
		<tag k="ssr:stedsnr" v="1045128" />
		<tag k="ssr:type" v="adressenavn" />
	</node>
	<node id="-905202" lat="64.9970112983" lon="10.8318957574">
		<tag k="name" v="Måsøya" />
		<tag k="ssr:date" v="2019-05-31" />
		<tag k="ssr:gruppe" v="veg" />
		<tag k="ssr:hovedgruppe" v="infrastruktur" />
		<tag k="ssr:stedsnr" v="1045127" />
		<tag k="ssr:type" v="adressenavn" />
	</node>
	<node id="-905201" lat="64.991967158" lon="10.8346405349">
		<tag k="name" v="Emådraget" />
		<tag k="ssr:date" v="2019-05-31" />
		<tag k="ssr:gruppe" v="veg" />
		<tag k="ssr:hovedgruppe" v="infrastruktur" />
		<tag k="ssr:stedsnr" v="1045126" />
		<tag k="ssr:type" v="adressenavn" />
	</node>
	<node id="-905200" lat="65.0023285581" lon="10.8741323103">
		<tag k="name" v="Liss-Bremøya" />
		<tag k="ssr:date" v="2019-05-31" />
		<tag k="ssr:gruppe" v="veg" />
		<tag k="ssr:hovedgruppe" v="infrastruktur" />
		<tag k="ssr:stedsnr" v="1045125" />
		<tag k="ssr:type" v="adressenavn" />
	</node>
	<node id="-905199" lat="65.0048112581" lon="10.8419505799">
		<tag k="name" v="Frelsøya" />
		<tag k="ssr:date" v="2019-05-31" />
		<tag k="ssr:gruppe" v="veg" />
		<tag k="ssr:hovedgruppe" v="infrastruktur" />
		<tag k="ssr:stedsnr" v="1045124" />
		<tag k="ssr:type" v="adressenavn" />
	</node>
	<node id="-905198" lat="64.9943052149" lon="10.9311098812">
		<tag k="name" v="Borgan-Sandøya" />
		<tag k="ssr:date" v="2019-05-31" />
		<tag k="ssr:gruppe" v="veg" />
		<tag k="ssr:hovedgruppe" v="infrastruktur" />
		<tag k="ssr:stedsnr" v="1045123" />
		<tag k="ssr:type" v="adressenavn" />
	</node>
	<node id="-905197" lat="64.9885964078" lon="10.9345782459">
		<tag k="name" v="Risøyholmen" />
		<tag k="ssr:date" v="2019-05-31" />
		<tag k="ssr:gruppe" v="veg" />
		<tag k="ssr:hovedgruppe" v="infrastruktur" />
		<tag k="ssr:stedsnr" v="1045122" />
		<tag k="ssr:type" v="adressenavn" />
	</node>
	<node id="-905196" lat="64.9942668314" lon="10.8670602066">
		<tag k="name" v="Barøya" />
		<tag k="ssr:date" v="2019-05-31" />
		<tag k="ssr:gruppe" v="veg" />
		<tag k="ssr:hovedgruppe" v="infrastruktur" />
		<tag k="ssr:stedsnr" v="1045121" />
		<tag k="ssr:type" v="adressenavn" />
	</node>
	<node id="-905195" lat="64.997564832" lon="10.8924432373">
		<tag k="name" v="Brossøya" />
		<tag k="ssr:date" v="2019-05-31" />
		<tag k="ssr:gruppe" v="veg" />
		<tag k="ssr:hovedgruppe" v="infrastruktur" />
		<tag k="ssr:stedsnr" v="1045120" />
		<tag k="ssr:type" v="adressenavn" />
	</node>
	<node id="-905194" lat="64.8929832304" lon="10.7675364228">
		<tag k="name" v="Børsøya" />
		<tag k="ssr:date" v="2019-05-31" />
		<tag k="ssr:gruppe" v="veg" />
		<tag k="ssr:hovedgruppe" v="infrastruktur" />
		<tag k="ssr:stedsnr" v="1045119" />
		<tag k="ssr:type" v="adressenavn" />
	</node>
	<node id="-905193" lat="64.8333923591" lon="10.755743395">
		<tag k="name" v="Myrbærholmen" />
		<tag k="ssr:date" v="2019-05-31" />
		<tag k="ssr:gruppe" v="veg" />
		<tag k="ssr:hovedgruppe" v="infrastruktur" />
		<tag k="ssr:stedsnr" v="1045118" />
		<tag k="ssr:type" v="adressenavn" />
	</node>
	<node id="-905192" lat="64.853327012" lon="10.7948700031">
		<tag k="name" v="Karstenøysundet" />
		<tag k="ssr:date" v="2019-05-31" />
		<tag k="ssr:gruppe" v="veg" />
		<tag k="ssr:hovedgruppe" v="infrastruktur" />
		<tag k="ssr:stedsnr" v="1044986" />
		<tag k="ssr:type" v="adressenavn" />
	</node>
	<node id="-905191" lat="64.9067016808" lon="11.1652005749">
		<tag k="name" v="Ole Skavhaugs vei" />
		<tag k="ssr:date" v="2019-05-31" />
		<tag k="ssr:gruppe" v="veg" />
		<tag k="ssr:hovedgruppe" v="infrastruktur" />
		<tag k="ssr:stedsnr" v="1044947" />
		<tag k="ssr:type" v="adressenavn" />
	</node>
	<node id="-906722" lat="64.9045444418" lon="10.9434444384">
		<tag k="name" v="Skipskjærgrunnen" />
		<tag k="ssr:date" v="2018-01-09" />
		<tag k="ssr:gruppe" v="navigasjon" />
		<tag k="ssr:hovedgruppe" v="infrastruktur" />
		<tag k="ssr:stedsnr" v="529206" />
		<tag k="ssr:type" v="lanterne" />
	</node>
	<node id="-906209" lat="65.0061722217" lon="10.9693749994">
		<tag k="name" v="Øvre Måholmen" />
		<tag k="ssr:date" v="2018-01-09" />
		<tag k="ssr:gruppe" v="navigasjon" />
		<tag k="ssr:hovedgruppe" v="infrastruktur" />
		<tag k="ssr:stedsnr" v="136678" />
		<tag k="ssr:type" v="fyrlykt" />
	</node>
	<node id="-907741" lat="64.7977416709" lon="10.7671083375">
		<tag k="name" v="Skarvskjæret" />
		<tag k="ssr:date" v="2018-01-09" />
		<tag k="ssr:gruppe" v="navigasjon" />
		<tag k="ssr:hovedgruppe" v="infrastruktur" />
		<tag k="ssr:stedsnr" v="197869" />
		<tag k="ssr:type" v="fyrlykt" />
	</node>
	<node id="-907738" lat="64.965075004" lon="10.9479583435">
		<tag k="name" v="Mefjordsholmen" />
		<tag k="ssr:date" v="2018-01-09" />
		<tag k="ssr:gruppe" v="navigasjon" />
		<tag k="ssr:hovedgruppe" v="infrastruktur" />
		<tag k="ssr:stedsnr" v="560564" />
		<tag k="ssr:type" v="fyrlykt" />
	</node>
	<node id="-907222" lat="64.8199611079" lon="10.7394194502">
		<tag k="name" v="Purkholmen" />
		<tag k="ssr:date" v="2018-01-09" />
		<tag k="ssr:gruppe" v="navigasjon" />
		<tag k="ssr:hovedgruppe" v="infrastruktur" />
		<tag k="ssr:stedsnr" v="500817" />
		<tag k="ssr:type" v="fyrlykt" />
	</node>
	<node id="-905682" lat="64.9103583297" lon="11.1225944386">
		<tag k="name" v="Søraunet" />
		<tag k="ssr:date" v="2018-01-09" />
		<tag k="ssr:gruppe" v="veg" />
		<tag k="ssr:hovedgruppe" v="infrastruktur" />
		<tag k="ssr:stedsnr" v="585208" />
		<tag k="ssr:type" v="adressetilleggsnavn" />
	</node>
	<node id="-907213" lat="64.8894972195" lon="11.312986119">
		<tag k="name" v="Kråkøya" />
		<tag k="ssr:date" v="2018-01-09" />
		<tag k="ssr:gruppe" v="navigasjon" />
		<tag k="ssr:hovedgruppe" v="infrastruktur" />
		<tag k="ssr:stedsnr" v="468193" />
		<tag k="ssr:type" v="lanterne" />
	</node>
	<node id="-906188" lat="64.9070111088" lon="10.8361055487">
		<tag k="name" v="Vonheim" />
		<tag k="ssr:date" v="2018-01-09" />
		<tag k="ssr:gruppe" v="veg" />
		<tag k="ssr:hovedgruppe" v="infrastruktur" />
		<tag k="ssr:stedsnr" v="222217" />
		<tag k="ssr:type" v="adressetilleggsnavn" />
	</node>
	<node id="-905669" lat="64.965911115" lon="11.1354916661">
		<tag k="name" v="Hannaholmflaket" />
		<tag k="ssr:date" v="2018-01-09" />
		<tag k="ssr:gruppe" v="navigasjon" />
		<tag k="ssr:hovedgruppe" v="infrastruktur" />
		<tag k="ssr:stedsnr" v="270651" />
		<tag k="ssr:type" v="fyrlykt" />
	</node>
	<node id="-905668" lat="64.8636194401" lon="11.2419861173">
		<tag k="name" v="Vikna kommune" />
		<tag k="ssr:date" v="2018-01-09" />
		<tag k="ssr:gruppe" v="administrativeIndelinger" />
		<tag k="ssr:hovedgruppe" v="offentligAdministrasjon" />
		<tag k="ssr:stedsnr" v="754767" />
		<tag k="ssr:type" v="kommune" />
	</node>
	<node id="-907711" lat="64.8449305534" lon="11.1367555557">
		<tag k="name" v="Åkvika" />
		<tag k="ssr:date" v="2018-01-09" />
		<tag k="ssr:gruppe" v="veg" />
		<tag k="ssr:hovedgruppe" v="infrastruktur" />
		<tag k="ssr:stedsnr" v="726131" />
		<tag k="ssr:type" v="adressetilleggsnavn" />
	</node>
	<node id="-906172" lat="64.7543472212" lon="10.7704722229">
		<tag k="name" v="Kvitingen" />
		<tag k="ssr:date" v="2018-01-09" />
		<tag k="ssr:gruppe" v="navigasjon" />
		<tag k="ssr:hovedgruppe" v="infrastruktur" />
		<tag k="ssr:stedsnr" v="257867" />
		<tag k="ssr:type" v="fyrlykt" />
	</node>
	<node id="-905654" lat="64.9582361142" lon="11.0859499906">
		<tag k="name" v="Østhatlandskjæret" />
		<tag k="ssr:date" v="2018-01-09" />
		<tag k="ssr:gruppe" v="navigasjon" />
		<tag k="ssr:hovedgruppe" v="infrastruktur" />
		<tag k="ssr:stedsnr" v="270650" />
		<tag k="ssr:type" v="lanterne" />
	</node>
	<node id="-907690" lat="64.9342611112" lon="11.0541611142">
		<tag k="name" v="Vesthunnesøya" />
		<tag k="ssr:date" v="2018-01-09" />
		<tag k="ssr:gruppe" v="navigasjon" />
		<tag k="ssr:hovedgruppe" v="infrastruktur" />
		<tag k="ssr:stedsnr" v="331645" />
		<tag k="ssr:type" v="lanterne" />
	</node>
	<node id="-907170" lat="64.9615000034" lon="10.900783328">
		<tag k="name" v="Hamnholmen sør" />
		<tag k="ssr:date" v="2018-01-09" />
		<tag k="ssr:gruppe" v="navigasjon" />
		<tag k="ssr:hovedgruppe" v="infrastruktur" />
		<tag k="ssr:stedsnr" v="651215" />
		<tag k="ssr:type" v="lanterne" />
	</node>
	<node id="-905611" lat="64.9043805553" lon="11.2962555647">
		<tag k="name" v="Storvika" />
		<tag k="ssr:date" v="2018-01-09" />
		<tag k="ssr:gruppe" v="veg" />
		<tag k="ssr:hovedgruppe" v="infrastruktur" />
		<tag k="ssr:stedsnr" v="222148" />
		<tag k="ssr:type" v="adressetilleggsnavn" />
	</node>
	<node id="-906627" lat="64.8103694415" lon="10.5432000056">
		<tag k="name" v="Veirskaftet" />
		<tag k="old_name" v="Værskaftet" />
		<tag k="ssr:date" v="2018-01-09" />
		<tag k="ssr:gruppe" v="navigasjon" />
		<tag k="ssr:hovedgruppe" v="infrastruktur" />
		<tag k="ssr:stedsnr" v="682701" />
		<tag k="ssr:type" v="fyrlykt" />
	</node>
	<node id="-907134" lat="64.9128527819" lon="10.9965972258">
		<tag k="name" v="Gravsetmoen" />
		<tag k="ssr:date" v="2018-01-09" />
		<tag k="ssr:gruppe" v="veg" />
		<tag k="ssr:hovedgruppe" v="infrastruktur" />
		<tag k="ssr:stedsnr" v="646167" />
		<tag k="ssr:type" v="adressetilleggsnavn" />
	</node>
	<node id="-905587" lat="65.0218249986" lon="11.13000277">
		<tag k="name" v="Fruflesa" />
		<tag k="ssr:date" v="2018-01-09" />
		<tag k="ssr:gruppe" v="navigasjon" />
		<tag k="ssr:hovedgruppe" v="infrastruktur" />
		<tag k="ssr:stedsnr" v="136605" />
		<tag k="ssr:type" v="fyrlykt" />
	</node>
	<node id="-907116" lat="64.842511113" lon="10.8712916709">
		<tag k="name" v="Bergsnova" />
		<tag k="ssr:date" v="2018-01-09" />
		<tag k="ssr:gruppe" v="veg" />
		<tag k="ssr:hovedgruppe" v="infrastruktur" />
		<tag k="ssr:stedsnr" v="707190" />
		<tag k="ssr:type" v="adressetilleggsnavn" />
	</node>
	<node id="-906601" lat="64.7330305561" lon="10.7764499935">
		<tag k="name" v="Sør-Gjæslingan" />
		<tag k="ssr:date" v="2018-01-09" />
		<tag k="ssr:gruppe" v="navigasjon" />
		<tag k="ssr:hovedgruppe" v="infrastruktur" />
		<tag k="ssr:stedsnr" v="450208" />
		<tag k="ssr:type" v="fyrlykt" />
	</node>
	<node id="-905576" lat="64.7986944453" lon="10.5479194453">
		<tag k="name" v="Nordøyan fyr" />
		<tag k="old_name" v="Nordøyan" />
		<tag k="ssr:date" v="2018-01-09" />
		<tag k="ssr:gruppe" v="navigasjon" />
		<tag k="ssr:hovedgruppe" v="infrastruktur" />
		<tag k="ssr:stedsnr" v="197669" />
		<tag k="ssr:type" v="fyrstasjon" />
	</node>
	<node id="-905531" lat="64.9218500041" lon="11.2213861194">
		<tag k="name" v="Sandhalsan" />
		<tag k="ssr:date" v="2018-01-09" />
		<tag k="ssr:gruppe" v="veg" />
		<tag k="ssr:hovedgruppe" v="infrastruktur" />
		<tag k="ssr:stedsnr" v="848136" />
		<tag k="ssr:type" v="adressetilleggsnavn" />
	</node>
	<node id="-905565" lat="64.8114833312" lon="10.6497972244">
		<tag k="name" v="Bendøyskjæret" />
		<tag k="old_name" v="Bendskjeret" />
		<tag k="ssr:date" v="2018-01-09" />
		<tag k="ssr:gruppe" v="navigasjon" />
		<tag k="ssr:hovedgruppe" v="infrastruktur" />
		<tag k="ssr:stedsnr" v="560643" />
		<tag k="ssr:type" v="fyrlykt" />
	</node>
	<node id="-907097" lat="64.9960833375" lon="11.1199305521">
		<tag k="name" v="Ternholmen" />
		<tag k="ssr:date" v="2018-01-09" />
		<tag k="ssr:gruppe" v="navigasjon" />
		<tag k="ssr:hovedgruppe" v="infrastruktur" />
		<tag k="ssr:stedsnr" v="196708" />
		<tag k="ssr:type" v="fyrlykt" />
	</node>
	<node id="-906568" lat="64.8582777813" lon="10.841913889">
		<tag k="name" v="Langholmen" />
		<tag k="ssr:date" v="2018-01-09" />
		<tag k="ssr:gruppe" v="navigasjon" />
		<tag k="ssr:hovedgruppe" v="infrastruktur" />
		<tag k="ssr:stedsnr" v="864984" />
		<tag k="ssr:type" v="fyrlykt" />
	</node>
	<node id="-906635" lat="64.8670972256" lon="11.0932222198">
		<tag k="name" v="Kleivan" />
		<tag k="ssr:date" v="2018-01-09" />
		<tag k="ssr:gruppe" v="veg" />
		<tag k="ssr:hovedgruppe" v="infrastruktur" />
		<tag k="ssr:stedsnr" v="544185" />
		<tag k="ssr:type" v="adressetilleggsnavn" />
	</node>
	<node id="-906047" lat="64.9288250018" lon="11.0394611114">
		<tag k="name" v="Kråkhammerflaket" />
		<tag k="ssr:date" v="2018-01-09" />
		<tag k="ssr:gruppe" v="navigasjon" />
		<tag k="ssr:hovedgruppe" v="infrastruktur" />
		<tag k="ssr:stedsnr" v="695646" />
		<tag k="ssr:type" v="fyrlykt" />
	</node>
	<node id="-905533" lat="64.8420249997" lon="11.1931555642">
		<tag k="name" v="Nærøysundet" />
		<tag k="ssr:date" v="2018-01-09" />
		<tag k="ssr:gruppe" v="navigasjon" />
		<tag k="ssr:hovedgruppe" v="infrastruktur" />
		<tag k="ssr:stedsnr" v="318817" />
		<tag k="ssr:type" v="fyrlykt" />
	</node>
	<node id="-907067" lat="64.8200833313" lon="10.622830559">
		<tag k="name" v="Håskjær" />
		<tag k="ssr:date" v="2018-01-09" />
		<tag k="ssr:gruppe" v="navigasjon" />
		<tag k="ssr:hovedgruppe" v="infrastruktur" />
		<tag k="ssr:stedsnr" v="318677" />
		<tag k="ssr:type" v="fyrlykt" />
	</node>
	<node id="-906035" lat="64.9505527764" lon="11.0751027823">
		<tag k="alt_name" v="Vestre Farøyskjær" />
		<tag k="name" v="Vestfarøyskjæret" />
		<tag k="ssr:date" v="2018-01-09" />
		<tag k="ssr:gruppe" v="navigasjon" />
		<tag k="ssr:hovedgruppe" v="infrastruktur" />
		<tag k="ssr:stedsnr" v="817637" />
		<tag k="ssr:type" v="lanterne" />
	</node>
	<node id="-906543" lat="64.9358361115" lon="11.2373611096">
		<tag k="name" v="Ramnholmen" />
		<tag k="ssr:date" v="2018-01-09" />
		<tag k="ssr:gruppe" v="navigasjon" />
		<tag k="ssr:hovedgruppe" v="infrastruktur" />
		<tag k="ssr:stedsnr" v="864188" />
		<tag k="ssr:type" v="fyrlykt" />
	</node>
	<node id="-906527" lat="64.8017361094" lon="10.5265027764">
		<tag k="name" v="Gullfrøholmnakken" />
		<tag k="ssr:date" v="2018-01-09" />
		<tag k="ssr:gruppe" v="navigasjon" />
		<tag k="ssr:hovedgruppe" v="infrastruktur" />
		<tag k="ssr:stedsnr" v="75681" />
		<tag k="ssr:type" v="fyrlykt" />
	</node>
	<node id="-906012" lat="64.9048527785" lon="10.9431916755">
		<tag k="name" v="Skipeskjærgrunnen" />
		<tag k="ssr:date" v="2018-01-09" />
		<tag k="ssr:gruppe" v="navigasjon" />
		<tag k="ssr:hovedgruppe" v="infrastruktur" />
		<tag k="ssr:stedsnr" v="661544" />
		<tag k="ssr:type" v="lanterne" />
	</node>
	<node id="-905690" lat="64.8482166624" lon="11.1491472243">
		<tag k="name" v="Åkvika" />
		<tag k="ssr:date" v="2018-01-09" />
		<tag k="ssr:gruppe" v="veg" />
		<tag k="ssr:hovedgruppe" v="infrastruktur" />
		<tag k="ssr:stedsnr" v="585207" />
		<tag k="ssr:type" v="adressetilleggsnavn" />
	</node>
	<node id="-907031" lat="64.9239833313" lon="11.3302111061">
		<tag k="name" v="Påssavika" />
		<tag k="ssr:date" v="2018-01-09" />
		<tag k="ssr:gruppe" v="veg" />
		<tag k="ssr:hovedgruppe" v="infrastruktur" />
		<tag k="ssr:stedsnr" v="766024" />
		<tag k="ssr:type" v="adressetilleggsnavn" />
	</node>
	<node id="-906005" lat="64.8292111126" lon="10.5953138952">
		<tag k="name" v="Råholmen" />
		<tag k="ssr:date" v="2018-01-09" />
		<tag k="ssr:gruppe" v="navigasjon" />
		<tag k="ssr:hovedgruppe" v="infrastruktur" />
		<tag k="ssr:stedsnr" v="196633" />
		<tag k="ssr:type" v="fyrlykt" />
	</node>
	<node id="-907023" lat="64.7622222235" lon="10.8504444362">
		<tag k="name" v="Nord-Blikkøya" />
		<tag k="ssr:date" v="2018-01-09" />
		<tag k="ssr:gruppe" v="navigasjon" />
		<tag k="ssr:hovedgruppe" v="infrastruktur" />
		<tag k="ssr:stedsnr" v="560837" />
		<tag k="ssr:type" v="fyrlykt" />
	</node>
	<node id="-907002" lat="64.87404722" lon="11.237175003">
		<tag k="name" v="Flintslagerveien" />
		<tag k="ssr:date" v="2019-05-30" />
		<tag k="ssr:gruppe" v="veg" />
		<tag k="ssr:hovedgruppe" v="infrastruktur" />
		<tag k="ssr:stedsnr" v="706064" />
		<tag k="ssr:type" v="adressenavn" />
	</node>
	<node id="-906999" lat="64.8975694423" lon="10.9961111047">
		<tag k="name" v="Vikna" />
		<tag k="ssr:date" v="2018-01-09" />
		<tag k="ssr:gruppe" v="terrengområder" />
		<tag k="ssr:hovedgruppe" v="terreng" />
		<tag k="ssr:stedsnr" v="634789" />
		<tag k="ssr:type" v="landskapsområde" />
	</node>
	<node id="-906110" lat="64.7971027758" lon="10.54479722">
		<tag k="name" v="Surnøya" />
		<tag k="ssr:date" v="2018-01-09" />
		<tag k="ssr:gruppe" v="navigasjon" />
		<tag k="ssr:hovedgruppe" v="infrastruktur" />
		<tag k="ssr:stedsnr" v="136655" />
		<tag k="ssr:type" v="fyrlykt" />
	</node>
	<node id="-907501" lat="64.7594888847" lon="10.5963777789">
		<tag k="name" v="Sørøyan" />
		<tag k="ssr:date" v="2018-01-09" />
		<tag k="ssr:gruppe" v="navigasjon" />
		<tag k="ssr:hovedgruppe" v="infrastruktur" />
		<tag k="ssr:stedsnr" v="136770" />
		<tag k="ssr:type" v="fyrlykt" />
	</node>
	<node id="-905964" lat="65.0038499969" lon="10.8756361164">
		<tag k="name" v="Litlbremøy" />
		<tag k="old_name" v="Bremøy, l;Litle Bremøy" />
		<tag k="ssr:date" v="2018-01-09" />
		<tag k="ssr:gruppe" v="navigasjon" />
		<tag k="ssr:hovedgruppe" v="infrastruktur" />
		<tag k="ssr:stedsnr" v="75626" />
		<tag k="ssr:type" v="fyrlykt" />
	</node>
	<node id="-905447" lat="64.9023527782" lon="11.2662111155">
		<tag k="name" v="Klasmoen" />
		<tag k="ssr:date" v="2018-01-09" />
		<tag k="ssr:gruppe" v="veg" />
		<tag k="ssr:hovedgruppe" v="infrastruktur" />
		<tag k="ssr:stedsnr" v="950715" />
		<tag k="ssr:type" v="adressetilleggsnavn" />
	</node>
	<node id="-906981" lat="64.8465361156" lon="10.8267527773">
		<tag k="name" v="Svinøya" />
		<tag k="ssr:date" v="2018-01-09" />
		<tag k="ssr:gruppe" v="navigasjon" />
		<tag k="ssr:hovedgruppe" v="infrastruktur" />
		<tag k="ssr:stedsnr" v="136805" />
		<tag k="ssr:type" v="fyrlykt" />
	</node>
	<node id="-905433" lat="64.8491215493" lon="11.1471132904">
		<tag k="name" v="Åkvika" />
		<tag k="ssr:date" v="2019-02-13" />
		<tag k="ssr:gruppe" v="veg" />
		<tag k="ssr:hovedgruppe" v="infrastruktur" />
		<tag k="ssr:stedsnr" v="665138" />
		<tag k="ssr:type" v="adressetilleggsnavn" />
	</node>
	<node id="-907967" lat="64.8615004447" lon="11.2375042948">
		<tag k="name" v="Konrad Anzjøns gate" />
		<tag k="ssr:date" v="2019-05-30" />
		<tag k="ssr:gruppe" v="veg" />
		<tag k="ssr:hovedgruppe" v="infrastruktur" />
		<tag k="ssr:stedsnr" v="1029754" />
		<tag k="ssr:type" v="adressenavn" />
	</node>
	<node id="-907966" lat="64.8618144887" lon="11.2369183008">
		<tag k="name" v="Kløvertunet" />
		<tag k="ssr:date" v="2019-05-30" />
		<tag k="ssr:gruppe" v="veg" />
		<tag k="ssr:hovedgruppe" v="infrastruktur" />
		<tag k="ssr:stedsnr" v="1029699" />
		<tag k="ssr:type" v="adressenavn" />
	</node>
	<node id="-907965" lat="64.860397063" lon="11.2380457242">
		<tag k="name" v="Fjordgata" />
		<tag k="ssr:date" v="2019-05-30" />
		<tag k="ssr:gruppe" v="veg" />
		<tag k="ssr:hovedgruppe" v="infrastruktur" />
		<tag k="ssr:stedsnr" v="1027010" />
		<tag k="ssr:type" v="adressenavn" />
	</node>
	<node id="-907964" lat="64.0144468016" lon="11.4818866293">
		<tag k="fixme" v="multiple name tags, choose one and add the other to alt_name" />
		<tag k="name" v="Trøndelag fylke - Trööndelage;Trööndelagen fylhke" />
		<tag k="name:no" v="Trøndelag fylke" />
		<tag k="name:sma" v="Trööndelage;Trööndelagen fylhke" />
		<tag k="ssr:date" v="2019-11-14" />
		<tag k="ssr:gruppe" v="administrativeIndelinger" />
		<tag k="ssr:hovedgruppe" v="offentligAdministrasjon" />
		<tag k="ssr:stedsnr" v="980645" />
		<tag k="ssr:type" v="fylke" />
	</node>
	<node id="-905503" lat="64.8360833353" lon="11.0941555568">
		<tag k="name" v="Breivika" />
		<tag k="ssr:date" v="2018-01-09" />
		<tag k="ssr:gruppe" v="veg" />
		<tag k="ssr:hovedgruppe" v="infrastruktur" />
		<tag k="ssr:stedsnr" v="464183" />
		<tag k="ssr:type" v="adressetilleggsnavn" />
	</node>
	<node id="-907444" lat="64.9809166704" lon="11.1297527867">
		<tag k="name" v="Auren" />
		<tag k="ssr:date" v="2018-01-09" />
		<tag k="ssr:gruppe" v="navigasjon" />
		<tag k="ssr:hovedgruppe" v="infrastruktur" />
		<tag k="ssr:stedsnr" v="722759" />
		<tag k="ssr:type" v="lanterne" />
	</node>
	<node id="-907443" lat="64.7269824728" lon="10.8542528026">
		<tag k="name" v="Gjæslingan fyr" />
		<tag k="ssr:date" v="2019-02-12" />
		<tag k="ssr:gruppe" v="navigasjon" />
		<tag k="ssr:hovedgruppe" v="infrastruktur" />
		<tag k="ssr:stedsnr" v="135954" />
		<tag k="ssr:type" v="fyrstasjon" />
	</node>
	<node id="-905906" lat="64.8347777811" lon="10.8624694487">
		<tag k="name" v="Sleipskjæret" />
		<tag k="ssr:date" v="2018-01-09" />
		<tag k="ssr:gruppe" v="navigasjon" />
		<tag k="ssr:hovedgruppe" v="infrastruktur" />
		<tag k="ssr:stedsnr" v="742787" />
		<tag k="ssr:type" v="fyrlykt" />
	</node>
	<node id="-905388" lat="64.7541666633" lon="10.9762666592">
		<tag k="name" v="Grinna" />
		<tag k="ssr:date" v="2018-01-09" />
		<tag k="ssr:gruppe" v="navigasjon" />
		<tag k="ssr:hovedgruppe" v="infrastruktur" />
		<tag k="ssr:stedsnr" v="196836" />
		<tag k="ssr:type" v="fyrlykt" />
	</node>
	<node id="-905387" lat="64.9505027745" lon="10.7127222224">
		<tag k="name" v="Søndre Granskjær" />
		<tag k="ssr:date" v="2018-01-09" />
		<tag k="ssr:gruppe" v="navigasjon" />
		<tag k="ssr:hovedgruppe" v="infrastruktur" />
		<tag k="ssr:stedsnr" v="175542" />
		<tag k="ssr:type" v="lanterne" />
	</node>
	<node id="-905892" lat="64.8493444428" lon="11.2038777749">
		<tag k="name" v="Indianna Haraldsøs vei" />
		<tag k="ssr:date" v="2019-05-30" />
		<tag k="ssr:gruppe" v="veg" />
		<tag k="ssr:hovedgruppe" v="infrastruktur" />
		<tag k="ssr:stedsnr" v="220096" />
		<tag k="ssr:type" v="adressenavn" />
	</node>
	<node id="-905891" lat="64.993088889" lon="10.9827694407">
		<tag k="name" v="Barlaupskjærflu" />
		<tag k="ssr:date" v="2018-01-09" />
		<tag k="ssr:gruppe" v="navigasjon" />
		<tag k="ssr:hovedgruppe" v="infrastruktur" />
		<tag k="ssr:stedsnr" v="833206" />
		<tag k="ssr:type" v="lanterne" />
	</node>
	<node id="-907424" lat="64.873622224" lon="11.2385555518">
		<tag k="name" v="Margit Moes vei" />
		<tag k="ssr:date" v="2019-05-30" />
		<tag k="ssr:gruppe" v="veg" />
		<tag k="ssr:hovedgruppe" v="infrastruktur" />
		<tag k="ssr:stedsnr" v="888053" />
		<tag k="ssr:type" v="adressenavn" />
	</node>
	<node id="-907935" lat="64.8006472206" lon="11.0540472223">
		<tag k="name" v="Vardeholman" />
		<tag k="ssr:date" v="2018-01-09" />
		<tag k="ssr:gruppe" v="navigasjon" />
		<tag k="ssr:hovedgruppe" v="infrastruktur" />
		<tag k="ssr:stedsnr" v="28757" />
		<tag k="ssr:type" v="fyrlykt" />
	</node>
	<node id="-907421" lat="65.0088472258" lon="10.9483944396">
		<tag k="name" v="Måholmen, Nedre" />
		<tag k="ssr:date" v="2018-01-09" />
		<tag k="ssr:gruppe" v="navigasjon" />
		<tag k="ssr:hovedgruppe" v="infrastruktur" />
		<tag k="ssr:stedsnr" v="631999" />
		<tag k="ssr:type" v="fyrlykt" />
	</node>
	<node id="-905880" lat="64.9588444431" lon="10.7109472227">
		<tag k="name" v="Nordre Granskjær" />
		<tag k="ssr:date" v="2018-01-09" />
		<tag k="ssr:gruppe" v="navigasjon" />
		<tag k="ssr:hovedgruppe" v="infrastruktur" />
		<tag k="ssr:stedsnr" v="599552" />
		<tag k="ssr:type" v="lanterne" />
	</node>
	<node id="-907410" lat="64.8501861104" lon="11.1967111211">
		<tag k="name" v="Nordtun" />
		<tag k="ssr:date" v="2018-01-09" />
		<tag k="ssr:gruppe" v="veg" />
		<tag k="ssr:hovedgruppe" v="infrastruktur" />
		<tag k="ssr:stedsnr" v="483214" />
		<tag k="ssr:type" v="adressetilleggsnavn" />
	</node>
	<node id="-905861" lat="64.803288889" lon="10.5520999908">
		<tag k="name" v="Purkholmen" />
		<tag k="ssr:date" v="2018-01-09" />
		<tag k="ssr:gruppe" v="navigasjon" />
		<tag k="ssr:hovedgruppe" v="infrastruktur" />
		<tag k="ssr:stedsnr" v="500706" />
		<tag k="ssr:type" v="fyrlykt" />
	</node>
	<node id="-906853" lat="64.8582527775" lon="11.0993638799">
		<tag k="name" v="Revstrandhaugveien" />
		<tag k="ssr:date" v="2019-05-30" />
		<tag k="ssr:gruppe" v="veg" />
		<tag k="ssr:hovedgruppe" v="infrastruktur" />
		<tag k="ssr:stedsnr" v="848301" />
		<tag k="ssr:type" v="adressenavn" />
	</node>
	<node id="-906879" lat="64.8849499992" lon="10.9107888792">
		<tag k="name" v="Purkholmgrunnen" />
		<tag k="ssr:date" v="2018-01-09" />
		<tag k="ssr:gruppe" v="navigasjon" />
		<tag k="ssr:hovedgruppe" v="infrastruktur" />
		<tag k="ssr:stedsnr" v="88547" />
		<tag k="ssr:type" v="fyrlykt" />
	</node>
	<node id="-907902" lat="64.8492916651" lon="11.1503916712">
		<tag k="name" v="Åkvika" />
		<tag k="ssr:date" v="2018-01-09" />
		<tag k="ssr:gruppe" v="veg" />
		<tag k="ssr:hovedgruppe" v="infrastruktur" />
		<tag k="ssr:stedsnr" v="969150" />
		<tag k="ssr:type" v="adressetilleggsnavn" />
	</node>
	<node id="-907384" lat="64.9535944486" lon="11.0320499902">
		<tag k="name" v="Hasfjord" />
		<tag k="ssr:date" v="2018-01-09" />
		<tag k="ssr:gruppe" v="veg" />
		<tag k="ssr:hovedgruppe" v="infrastruktur" />
		<tag k="ssr:stedsnr" v="483218" />
		<tag k="ssr:type" v="adressetilleggsnavn" />
	</node>
	<node id="-905333" lat="64.858286113" lon="11.2291750065">
		<tag k="name" v="Vestrørvik Molo" />
		<tag k="ssr:date" v="2018-01-09" />
		<tag k="ssr:gruppe" v="navigasjon" />
		<tag k="ssr:hovedgruppe" v="infrastruktur" />
		<tag k="ssr:stedsnr" v="267995" />
		<tag k="ssr:type" v="fyrlykt" />
	</node>
	<node id="-905844" lat="64.8160222189" lon="11.0682388982">
		<tag k="name" v="Stamnesskjærflua" />
		<tag k="ssr:date" v="2018-01-09" />
		<tag k="ssr:gruppe" v="navigasjon" />
		<tag k="ssr:hovedgruppe" v="infrastruktur" />
		<tag k="ssr:stedsnr" v="135828" />
		<tag k="ssr:type" v="fyrlykt" />
	</node>
	<node id="-907375" lat="64.6801777764" lon="10.5482222224">
		<tag k="name" v="Nylandskjæret" />
		<tag k="ssr:date" v="2018-01-09" />
		<tag k="ssr:gruppe" v="navigasjon" />
		<tag k="ssr:hovedgruppe" v="infrastruktur" />
		<tag k="ssr:stedsnr" v="84468" />
		<tag k="ssr:type" v="fyrlykt" />
	</node>
	<node id="-907370" lat="64.9180750035" lon="11.0201555475">
		<tag k="name" v="Lauvlia" />
		<tag k="ssr:date" v="2018-01-09" />
		<tag k="ssr:gruppe" v="veg" />
		<tag k="ssr:hovedgruppe" v="infrastruktur" />
		<tag k="ssr:stedsnr" v="55158" />
		<tag k="ssr:type" v="adressetilleggsnavn" />
	</node>
	<node id="-907366" lat="64.8961194401" lon="10.8401583347">
		<tag k="name" v="Vestre" />
		<tag k="ssr:date" v="2018-01-09" />
		<tag k="ssr:gruppe" v="veg" />
		<tag k="ssr:hovedgruppe" v="infrastruktur" />
		<tag k="ssr:stedsnr" v="362190" />
		<tag k="ssr:type" v="adressetilleggsnavn" />
	</node>
	<node id="-906341" lat="64.9058583364" lon="10.9698805643">
		<tag k="name" v="Kvernvika" />
		<tag k="ssr:date" v="2018-01-09" />
		<tag k="ssr:gruppe" v="veg" />
		<tag k="ssr:hovedgruppe" v="infrastruktur" />
		<tag k="ssr:stedsnr" v="59115" />
		<tag k="ssr:type" v="adressetilleggsnavn" />
	</node>
	<node id="-906333" lat="64.7394138923" lon="10.7769027798">
		<tag k="name" v="Heimværet" />
		<tag k="ssr:date" v="2018-01-09" />
		<tag k="ssr:gruppe" v="navigasjon" />
		<tag k="ssr:hovedgruppe" v="infrastruktur" />
		<tag k="ssr:stedsnr" v="870408" />
		<tag k="ssr:type" v="fyrlykt" />
	</node>
	<node id="-907855" lat="64.827752782" lon="10.8140916596">
		<tag k="name" v="Sør-Hysskjæret" />
		<tag k="ssr:date" v="2018-01-09" />
		<tag k="ssr:gruppe" v="navigasjon" />
		<tag k="ssr:hovedgruppe" v="infrastruktur" />
		<tag k="ssr:stedsnr" v="682814" />
		<tag k="ssr:type" v="fyrlykt" />
	</node>
	<node id="-905294" lat="64.9584638925" lon="10.9590444484">
		<tag k="name" v="Råbandsholmen" />
		<tag k="ssr:date" v="2018-01-09" />
		<tag k="ssr:gruppe" v="navigasjon" />
		<tag k="ssr:hovedgruppe" v="infrastruktur" />
		<tag k="ssr:stedsnr" v="844779" />
		<tag k="ssr:type" v="lanterne" />
	</node>
	<node id="-907849" lat="64.9400722203" lon="10.820649993">
		<tag k="name" v="Masterskjæret" />
		<tag k="ssr:date" v="2018-01-09" />
		<tag k="ssr:gruppe" v="navigasjon" />
		<tag k="ssr:hovedgruppe" v="infrastruktur" />
		<tag k="ssr:stedsnr" v="75550" />
		<tag k="ssr:type" v="fyrlykt" />
	</node>
	<node id="-905228" lat="64.9259783284" lon="11.0139009906">
		<tag k="name" v="Aurstad" />
		<tag k="ssr:date" v="2019-05-31" />
		<tag k="ssr:gruppe" v="veg" />
		<tag k="ssr:hovedgruppe" v="infrastruktur" />
		<tag k="ssr:stedsnr" v="1045137" />
		<tag k="ssr:type" v="adressenavn" />
	</node>
	<node id="-905796" lat="64.9647638913" lon="10.9003777674">
		<tag k="name" v="Hamnholmen nord" />
		<tag k="ssr:date" v="2018-01-09" />
		<tag k="ssr:gruppe" v="navigasjon" />
		<tag k="ssr:hovedgruppe" v="infrastruktur" />
		<tag k="ssr:stedsnr" v="833205" />
		<tag k="ssr:type" v="lanterne" />
	</node>
	<node id="-905791" lat="64.8728111151" lon="11.2376000017">
		<tag k="name" v="Nylandsveien" />
		<tag k="ssr:date" v="2019-05-30" />
		<tag k="ssr:gruppe" v="veg" />
		<tag k="ssr:hovedgruppe" v="infrastruktur" />
		<tag k="ssr:stedsnr" v="220099" />
		<tag k="ssr:type" v="adressenavn" />
	</node>
	<node id="-907835" lat="64.7274694404" lon="10.7314638954">
		<tag k="name" v="Tronflesa" />
		<tag k="ssr:date" v="2018-01-09" />
		<tag k="ssr:gruppe" v="navigasjon" />
		<tag k="ssr:hovedgruppe" v="infrastruktur" />
		<tag k="ssr:stedsnr" v="317948" />
		<tag k="ssr:type" v="fyrlykt" />
	</node>
	<node id="-905786" lat="65.1266638858" lon="10.9786583396">
		<tag k="name" v="Jakobsflesa" />
		<tag k="ssr:date" v="2018-01-09" />
		<tag k="ssr:gruppe" v="navigasjon" />
		<tag k="ssr:hovedgruppe" v="infrastruktur" />
		<tag k="ssr:stedsnr" v="439589" />
		<tag k="ssr:type" v="fyrlykt" />
	</node>
	<node id="-905272" lat="64.8800666631" lon="10.8045305472">
		<tag k="name" v="Lonmoen" />
		<tag k="ssr:date" v="2018-01-09" />
		<tag k="ssr:gruppe" v="veg" />
		<tag k="ssr:hovedgruppe" v="infrastruktur" />
		<tag k="ssr:stedsnr" v="585163" />
		<tag k="ssr:type" v="adressetilleggsnavn" />
	</node>
	<node id="-907306" lat="64.9751083371" lon="11.1624861014">
		<tag k="name" v="Mantalbyen" />
		<tag k="old_name" v="Manntalbyen" />
		<tag k="ssr:date" v="2018-01-09" />
		<tag k="ssr:gruppe" v="navigasjon" />
		<tag k="ssr:hovedgruppe" v="infrastruktur" />
		<tag k="ssr:stedsnr" v="682745" />
		<tag k="ssr:type" v="fyrlykt" />
	</node>
	<node id="-907304" lat="64.9414861105" lon="11.0640277825">
		<tag k="name" v="Vestskarvholmen" />
		<tag k="ssr:date" v="2018-01-09" />
		<tag k="ssr:gruppe" v="navigasjon" />
		<tag k="ssr:hovedgruppe" v="infrastruktur" />
		<tag k="ssr:stedsnr" v="573614" />
		<tag k="ssr:type" v="fyrlykt" />
	</node>
	<node id="-906786" lat="64.8935833311" lon="10.9166194535">
		<tag k="name" v="Dalaneset" />
		<tag k="old_name" v="Daleneset" />
		<tag k="ssr:date" v="2018-01-09" />
		<tag k="ssr:gruppe" v="navigasjon" />
		<tag k="ssr:hovedgruppe" v="infrastruktur" />
		<tag k="ssr:stedsnr" v="88551" />
		<tag k="ssr:type" v="fyrlykt" />
	</node>
	<node id="-905752" lat="64.811216663" lon="10.9752361119">
		<tag k="name" v="Husvedøya" />
		<tag k="ssr:date" v="2018-01-09" />
		<tag k="ssr:gruppe" v="navigasjon" />
		<tag k="ssr:hovedgruppe" v="infrastruktur" />
		<tag k="ssr:stedsnr" v="682885" />
		<tag k="ssr:type" v="fyrlykt" />
	</node>
	<node id="-905220" lat="65.0005894031" lon="10.8653552493">
		<tag k="name" v="Bremøya" />
		<tag k="ssr:date" v="2019-05-31" />
		<tag k="ssr:gruppe" v="veg" />
		<tag k="ssr:hovedgruppe" v="infrastruktur" />
		<tag k="ssr:stedsnr" v="1045129" />
		<tag k="ssr:type" v="adressenavn" />
	</node>
	<node id="-905233" lat="64.8672277785" lon="11.2595777746">
		<tag k="name" v="Strømøyhauet" />
		<tag k="ssr:date" v="2018-01-09" />
		<tag k="ssr:gruppe" v="navigasjon" />
		<tag k="ssr:hovedgruppe" v="infrastruktur" />
		<tag k="ssr:stedsnr" v="453082" />
		<tag k="ssr:type" v="fyrlykt" />
	</node>
	<node id="-905231" lat="64.8635530227" lon="11.2416992247">
		<tag k="name" v="Nærøysund kommune" />
		<tag k="ssr:date" v="2019-11-20" />
		<tag k="ssr:gruppe" v="administrativeIndelinger" />
		<tag k="ssr:hovedgruppe" v="offentligAdministrasjon" />
		<tag k="ssr:stedsnr" v="1073406" />
		<tag k="ssr:type" v="kommune" />
	</node>
	<node id="-905230" lat="64.8586722903" lon="10.704389949">
		<tag k="name" v="Omnholman" />
		<tag k="ssr:date" v="2019-05-31" />
		<tag k="ssr:gruppe" v="veg" />
		<tag k="ssr:hovedgruppe" v="infrastruktur" />
		<tag k="ssr:stedsnr" v="1045139" />
		<tag k="ssr:type" v="adressenavn" />
	</node>
	<node id="-905229" lat="64.8858130202" lon="10.8190485718">
		<tag k="name" v="Timannslonet" />
		<tag k="ssr:date" v="2019-05-31" />
		<tag k="ssr:gruppe" v="veg" />
		<tag k="ssr:hovedgruppe" v="infrastruktur" />
		<tag k="ssr:stedsnr" v="1045138" />
		<tag k="ssr:type" v="adressenavn" />
	</node>
	<node id="-905740" lat="64.8584249993" lon="11.2306222121">
		<tag k="name" v="Østrørvik Molo" />
		<tag k="ssr:date" v="2018-01-09" />
		<tag k="ssr:gruppe" v="navigasjon" />
		<tag k="ssr:hovedgruppe" v="infrastruktur" />
		<tag k="ssr:stedsnr" v="756057" />
		<tag k="ssr:type" v="fyrlykt" />
	</node>
	<node id="-905227" lat="64.856245246" lon="10.7549130196">
		<tag k="name" v="Kjørsenget" />
		<tag k="ssr:date" v="2019-05-31" />
		<tag k="ssr:gruppe" v="veg" />
		<tag k="ssr:hovedgruppe" v="infrastruktur" />
		<tag k="ssr:stedsnr" v="1045136" />
		<tag k="ssr:type" v="adressenavn" />
	</node>
	<node id="-905226" lat="64.9772768188" lon="10.9449938206">
		<tag k="name" v="Mjønesa" />
		<tag k="ssr:date" v="2019-05-31" />
		<tag k="ssr:gruppe" v="veg" />
		<tag k="ssr:hovedgruppe" v="infrastruktur" />
		<tag k="ssr:stedsnr" v="1045135" />
		<tag k="ssr:type" v="adressenavn" />
	</node>
	<node id="-905225" lat="64.9495873919" lon="10.9667412715">
		<tag k="name" v="Ramstad-Hestøya" />
		<tag k="ssr:date" v="2019-05-31" />
		<tag k="ssr:gruppe" v="veg" />
		<tag k="ssr:hovedgruppe" v="infrastruktur" />
		<tag k="ssr:stedsnr" v="1045134" />
		<tag k="ssr:type" v="adressenavn" />
	</node>
	<node id="-905224" lat="64.7451544569" lon="10.8629155712">
		<tag k="name" v="Haraldsøya" />
		<tag k="ssr:date" v="2019-05-31" />
		<tag k="ssr:gruppe" v="veg" />
		<tag k="ssr:hovedgruppe" v="infrastruktur" />
		<tag k="ssr:stedsnr" v="1045133" />
		<tag k="ssr:type" v="adressenavn" />
	</node>
	<node id="-905223" lat="64.9194955452" lon="11.2771833367">
		<tag k="name" v="Lauvøy-Hestøya" />
		<tag k="ssr:date" v="2019-05-31" />
		<tag k="ssr:gruppe" v="veg" />
		<tag k="ssr:hovedgruppe" v="infrastruktur" />
		<tag k="ssr:stedsnr" v="1045132" />
		<tag k="ssr:type" v="adressenavn" />
	</node>
	<node id="-905222" lat="64.8352370973" lon="10.7153643996">
		<tag k="name" v="Tjeldsøya" />
		<tag k="ssr:date" v="2019-05-31" />
		<tag k="ssr:gruppe" v="veg" />
		<tag k="ssr:hovedgruppe" v="infrastruktur" />
		<tag k="ssr:stedsnr" v="1045131" />
		<tag k="ssr:type" v="adressenavn" />
	</node>
	<node id="-905221" lat="65.0116094171" lon="11.0622050078">
		<tag k="name" v="Raudøya" />
		<tag k="ssr:date" v="2019-05-31" />
		<tag k="ssr:gruppe" v="veg" />
		<tag k="ssr:hovedgruppe" v="infrastruktur" />
		<tag k="ssr:stedsnr" v="1045130" />
		<tag k="ssr:type" v="adressenavn" />
	</node>
	<node id="-906756" lat="64.9592111089" lon="10.9836083238">
		<tag k="name" v="Tverrøya" />
		<tag k="ssr:date" v="2018-01-09" />
		<tag k="ssr:gruppe" v="navigasjon" />
		<tag k="ssr:hovedgruppe" v="infrastruktur" />
		<tag k="ssr:stedsnr" v="347202" />
		<tag k="ssr:type" v="lanterne" />
	</node>
	<node id="-905219" lat="64.95915636" lon="10.8832482411">
		<tag k="name" v="Borgan-Hestøya" />
		<tag k="ssr:date" v="2019-05-31" />
		<tag k="ssr:gruppe" v="veg" />
		<tag k="ssr:hovedgruppe" v="infrastruktur" />
		<tag k="ssr:stedsnr" v="1045117" />
		<tag k="ssr:type" v="adressenavn" />
	</node>
	<node id="-905218" lat="64.8706121411" lon="10.6863809146">
		<tag k="name" v="Binderøya" />
		<tag k="ssr:date" v="2019-05-31" />
		<tag k="ssr:gruppe" v="veg" />
		<tag k="ssr:hovedgruppe" v="infrastruktur" />
		<tag k="ssr:stedsnr" v="1045116" />
		<tag k="ssr:type" v="adressenavn" />
	</node>
	<node id="-905217" lat="64.8449088931" lon="10.6270671586">
		<tag k="name" v="Vandsøya" />
		<tag k="ssr:date" v="2019-05-31" />
		<tag k="ssr:gruppe" v="veg" />
		<tag k="ssr:hovedgruppe" v="infrastruktur" />
		<tag k="ssr:stedsnr" v="1045115" />
		<tag k="ssr:type" v="adressenavn" />
	</node>
</osm>
