<?xml version="1.0" encoding="UTF-8"?>
<osm generator="osmapis" version="0.6">
	<node id="-337023" lat="58.0294083316" lon="7.36408054753">
		<tag k="name" v="Hovstjønna" />
		<tag k="natural" v="water" />
		<tag k="ssr:stedsnr" v="815875" />
	</node>
	<node id="-334331" lat="58.1539527813" lon="7.51977499538">
		<tag k="name" v="Breivika" />
		<tag k="natural" v="bay" />
		<tag k="ssr:stedsnr" v="328596" />
	</node>
	<node id="-334840" lat="58.0789750025" lon="7.48441110952">
		<tag k="name" v="Tollakstjønn" />
		<tag k="natural" v="water" />
		<tag k="ssr:stedsnr" v="24684" />
	</node>
	<node id="-334839" lat="58.0816888893" lon="7.48736111671">
		<tag k="name" v="Skalletjønn" />
		<tag k="natural" v="water" />
		<tag k="ssr:stedsnr" v="24681" />
	</node>
	<node id="-336886" lat="58.0513555529" lon="7.5837611044">
		<tag k="name" v="Skeiebukta" />
		<tag k="natural" v="bay" />
		<tag k="ssr:stedsnr" v="813289" />
	</node>
	<node id="-337321" lat="58.1124555546" lon="7.53517221552">
		<tag k="name" v="Pålshola" />
		<tag k="natural" v="bay" />
		<tag k="ssr:stedsnr" v="935876" />
	</node>
	<node id="-336467" lat="58.0488611134" lon="7.52759444957">
		<tag k="name" v="Nordkilen" />
		<tag k="natural" v="bay" />
		<tag k="ssr:stedsnr" v="633521" />
	</node>
	<node id="-337392" lat="58.0386666662" lon="7.38132500536">
		<tag k="name" v="Tørnes" />
		<tag k="natural" v="cape" />
		<tag k="ssr:stedsnr" v="936993" />
	</node>
	<node id="-336879" lat="58.0201666648" lon="7.60904722648">
		<tag k="name" v="Igletjønn" />
		<tag k="natural" v="water" />
		<tag k="ssr:stedsnr" v="813224" />
	</node>
	<node id="-334825" lat="58.0747055592" lon="7.56484999934">
		<tag k="name" v="Hellerlona" />
		<tag k="natural" v="water" />
		<tag k="ssr:stedsnr" v="24588" />
	</node>
	<node id="-337382" lat="58.0383888893" lon="7.36785555579">
		<tag k="name" v="Hogganvikstjønna" />
		<tag k="natural" v="water" />
		<tag k="ssr:stedsnr" v="936829" />
	</node>
	<node id="-335842" lat="58.0254555592" lon="7.5578555623">
		<tag k="name" v="Tjønna" />
		<tag k="natural" v="water" />
		<tag k="ssr:stedsnr" v="451487" />
	</node>
	<node id="-336715" lat="58.1040055589" lon="7.50604722461">
		<tag k="name" v="Lomsbekken" />
		<tag k="ssr:stedsnr" v="752501" />
		<tag k="waterway" v="stream" />
	</node>
	<node id="-336860" lat="58.1207413416" lon="7.4640638195">
		<tag k="alt_name" v="Dalstøtjønna" />
		<tag k="name" v="Dalstøtjørna" />
		<tag k="natural" v="water" />
		<tag k="ssr:stedsnr" v="789867" />
	</node>
	<node id="-335835" lat="58.0801388868" lon="7.42280277139">
		<tag k="name" v="Storebekken" />
		<tag k="ssr:stedsnr" v="451221" />
		<tag k="waterway" v="stream" />
	</node>
	<node id="-335322" lat="58.0475555585" lon="7.52701388265">
		<tag k="name" v="Smikilen" />
		<tag k="natural" v="bay" />
		<tag k="ssr:stedsnr" v="147472" />
	</node>
	<node id="-335321" lat="58.0243638868" lon="7.56245277215">
		<tag k="name" v="Mattiasholmen" />
		<tag k="place" v="islet" />
		<tag k="ssr:stedsnr" v="147465" />
	</node>
	<node id="-336856" lat="58.1412166634" lon="7.51295555647">
		<tag k="alt_name" v="Svinestadvannet" />
		<tag k="name" v="Svinstadvatnet" />
		<tag k="natural" v="water" />
		<tag k="ssr:stedsnr" v="789753" />
	</node>
	<node id="-334807" lat="58.014161107" lon="7.55781388273">
		<tag k="name" v="Tjønna" />
		<tag k="natural" v="water" />
		<tag k="ssr:stedsnr" v="24385" />
	</node>
	<node id="-335829" lat="58.0347277739" lon="7.34481666087">
		<tag k="name" v="Myrtjønna" />
		<tag k="natural" v="water" />
		<tag k="ssr:stedsnr" v="450929" />
	</node>
	<node id="-335315" lat="58.058013889" lon="7.60026389611">
		<tag k="name" v="Torstjønna" />
		<tag k="natural" v="water" />
		<tag k="ssr:stedsnr" v="147352" />
	</node>
	<node id="-334290" lat="58.0211472191" lon="7.56091667158">
		<tag k="name" v="Neset" />
		<tag k="natural" v="cape" />
		<tag k="ssr:stedsnr" v="327379" />
	</node>
	<node id="-334243" lat="58.031086112" lon="7.5629222195">
		<tag k="name" v="Djubovannet" />
		<tag k="natural" v="water" />
		<tag k="ssr:stedsnr" v="297954" />
		<tag k="water" v="lake" />
	</node>
	<node id="-335312" lat="58.02726111" lon="7.60175277392">
		<tag k="name" v="Skottjønna" />
		<tag k="natural" v="water" />
		<tag k="ssr:stedsnr" v="147337" />
	</node>
	<node id="-334328" lat="58.0902277761" lon="7.47351388978">
		<tag k="name" v="Kleppstjønna" />
		<tag k="natural" v="water" />
		<tag k="ssr:stedsnr" v="328490" />
	</node>
	<node id="-335309" lat="58.0372847771" lon="7.61362181548">
		<tag k="name" v="Myranstjønna" />
		<tag k="natural" v="water" />
		<tag k="ssr:stedsnr" v="147313" />
	</node>
	<node id="-335820" lat="58.020686112" lon="7.55072500184">
		<tag k="name" v="Kringletjønna" />
		<tag k="natural" v="water" />
		<tag k="ssr:stedsnr" v="450463" />
	</node>
	<node id="-337355" lat="58.0415833329" lon="7.55948054905">
		<tag k="name" v="Fantemed" />
		<tag k="natural" v="cape" />
		<tag k="ssr:stedsnr" v="936248" />
	</node>
	<node id="-335818" lat="58.0356749989" lon="7.56356388202">
		<tag k="name" v="Dyboholmen" />
		<tag k="place" v="islet" />
		<tag k="ssr:stedsnr" v="450451" />
	</node>
	<node id="-335817" lat="58.0392222192" lon="7.57353889352">
		<tag k="name" v="Andersodden" />
		<tag k="natural" v="cape" />
		<tag k="ssr:stedsnr" v="450450" />
	</node>
	<node id="-335816" lat="58.0345777817" lon="7.56890277901">
		<tag k="name" v="Ramsdalsbukta" />
		<tag k="natural" v="bay" />
		<tag k="ssr:stedsnr" v="450446" />
	</node>
	<node id="-335692" lat="58.0695388878" lon="7.44543333">
		<tag k="alt_name" v="Skadbergvannet" />
		<tag k="name" v="Skadbergvatnet" />
		<tag k="natural" v="water" />
		<tag k="ssr:stedsnr" v="425902" />
	</node>
	<node id="-334278" lat="58.093312474" lon="7.51186566996">
		<tag k="alt_name" v="Mannetjønna" />
		<tag k="name" v="Mantjørna" />
		<tag k="natural" v="water" />
		<tag k="ssr:stedsnr" v="304855" />
	</node>
	<node id="-335813" lat="58.0336722188" lon="7.52812778456">
		<tag k="name" v="Storakertjønna" />
		<tag k="natural" v="water" />
		<tag k="ssr:stedsnr" v="450442" />
	</node>
	<node id="-335298" lat="58.0761500009" lon="7.42496111823">
		<tag k="name" v="Langeneset" />
		<tag k="natural" v="cape" />
		<tag k="ssr:stedsnr" v="147182" />
	</node>
	<node id="-334785" lat="58.1166694401" lon="7.45198055793">
		<tag k="name" v="Mjåvannet" />
		<tag k="natural" v="water" />
		<tag k="ssr:stedsnr" v="21196" />
		<tag k="water" v="lake" />
	</node>
	<node id="-336319" lat="58.0517611085" lon="7.62788889668">
		<tag k="name" v="Pottjønn" />
		<tag k="natural" v="water" />
		<tag k="ssr:stedsnr" v="630566" />
	</node>
	<node id="-336830" lat="58.0161499975" lon="7.35034722355">
		<tag k="name" v="Hillesundtjønna" />
		<tag k="natural" v="water" />
		<tag k="ssr:stedsnr" v="754919" />
	</node>
	<node id="-337341" lat="58.0657888912" lon="7.43450833956">
		<tag k="name" v="Skadbergbekken" />
		<tag k="ssr:stedsnr" v="936145" />
		<tag k="waterway" v="stream" />
	</node>
	<node id="-335905" lat="58.0702805516" lon="7.51916666224">
		<tag k="name" v="Lindlandstjønna" />
		<tag k="natural" v="water" />
		<tag k="ssr:stedsnr" v="509532" />
	</node>
	<node id="-337338" lat="58.0552250027" lon="7.42904999382">
		<tag k="name" v="Lille Heslandstjønna" />
		<tag k="natural" v="water" />
		<tag k="ssr:stedsnr" v="936123" />
	</node>
	<node id="-335801" lat="58.0116499997" lon="7.52082222578">
		<tag k="name" v="Kigevannet" />
		<tag k="natural" v="water" />
		<tag k="ssr:stedsnr" v="450217" />
		<tag k="water" v="lake" />
	</node>
	<node id="-336824" lat="58.0272166696" lon="7.40412499685">
		<tag k="name" v="Store Rona" />
		<tag k="natural" v="bay" />
		<tag k="ssr:stedsnr" v="754853" />
	</node>
	<node id="-334774" lat="58.0769611099" lon="7.42570556394">
		<tag k="alt_name" v="Ommundsvannet" />
		<tag k="name" v="Ommundsvatnet" />
		<tag k="natural" v="water" />
		<tag k="ssr:stedsnr" v="933" />
	</node>
	<node id="-335797" lat="58.047669447" lon="7.51202499733">
		<tag k="name" v="Paulen" />
		<tag k="natural" v="water" />
		<tag k="ssr:stedsnr" v="450166" />
		<tag k="water" v="pond" />
	</node>
	<node id="-335796" lat="58.0457416678" lon="7.51650833961">
		<tag k="name" v="Svånes" />
		<tag k="natural" v="cape" />
		<tag k="ssr:stedsnr" v="450165" />
	</node>
	<node id="-334429" lat="58.039872226" lon="7.37832778362">
		<tag k="name" v="Lille Rona" />
		<tag k="natural" v="strait" />
		<tag k="ssr:stedsnr" v="329841" />
	</node>
	<node id="-335489" lat="58.063111108" lon="7.58969722466">
		<tag k="name" v="Ingridsholmen" />
		<tag k="place" v="islet" />
		<tag k="ssr:stedsnr" v="208333" />
	</node>
	<node id="-335792" lat="58.0467222248" lon="7.49596389654">
		<tag k="name" v="Nodeodden" />
		<tag k="natural" v="cape" />
		<tag k="ssr:stedsnr" v="450150" />
	</node>
	<node id="-335791" lat="58.0457861092" lon="7.48694445088">
		<tag k="name" v="Årekjerrsbekken" />
		<tag k="ssr:stedsnr" v="450148" />
		<tag k="waterway" v="stream" />
	</node>
	<node id="-334766" lat="58.0870277816" lon="7.59046667092">
		<tag k="alt_name" v="Grasstjønn" />
		<tag k="name" v="Grastjørna" />
		<tag k="natural" v="water" />
		<tag k="ssr:stedsnr" v="822" />
	</node>
	<node id="-334765" lat="58.0509499977" lon="7.33670277522">
		<tag k="name" v="Haddelandsvatnet" />
		<tag k="natural" v="water" />
		<tag k="ssr:stedsnr" v="582" />
	</node>
	<node id="-337322" lat="58.1345250012" lon="7.57750556196">
		<tag k="name" v="Holmen" />
		<tag k="place" v="islet" />
		<tag k="ssr:stedsnr" v="935890" />
	</node>
	<node id="-336297" lat="58.0961222252" lon="7.62860556">
		<tag k="alt_name" v="Mjåvann" />
		<tag k="name" v="Mjåvatnet" />
		<tag k="natural" v="water" />
		<tag k="ssr:stedsnr" v="607800" />
	</node>
	<node id="-336805" lat="58.0619611069" lon="7.58404722403">
		<tag k="name" v="Hobdesundet" />
		<tag k="natural" v="strait" />
		<tag k="ssr:stedsnr" v="754387" />
	</node>
	<node id="-334755" lat="58.054666666" lon="7.63311111789">
		<tag k="name" v="Røyselandstjønna" />
		<tag k="natural" v="water" />
		<tag k="ssr:stedsnr" v="267593" />
	</node>
	<node id="-336288" lat="58.1399055598" lon="7.47072777075">
		<tag k="alt_name" v="Laufallsvann" />
		<tag k="name" v="Lauvfallsvatnet" />
		<tag k="natural" v="water" />
		<tag k="ssr:stedsnr" v="606765" />
	</node>
	<node id="-335773" lat="58.0662083336" lon="7.59532222677">
		<tag k="name" v="Savbekken" />
		<tag k="ssr:stedsnr" v="449939" />
		<tag k="waterway" v="stream" />
	</node>
	<node id="-334748" lat="58.1000472233" lon="7.47434722701">
		<tag k="name" v="Grøssbrokktjønna" />
		<tag k="natural" v="water" />
		<tag k="ssr:stedsnr" v="267482" />
	</node>
	<node id="-335257" lat="58.1282666708" lon="7.57785277646">
		<tag k="name" v="Dalansbekken" />
		<tag k="ssr:stedsnr" v="145895" />
		<tag k="waterway" v="stream" />
	</node>
	<node id="-335256" lat="58.1431638908" lon="7.52435000802">
		<tag k="name" v="Ytre Åsevann" />
		<tag k="natural" v="water" />
		<tag k="ssr:stedsnr" v="145893" />
		<tag k="water" v="lake" />
	</node>
	<node id="-335684" lat="58.0974555553" lon="7.61141666279">
		<tag k="alt_name" v="Systadvannet" />
		<tag k="name" v="Systadvatnet" />
		<tag k="natural" v="water" />
		<tag k="ssr:stedsnr" v="425827" />
	</node>
	<node id="-334745" lat="58.1301888867" lon="7.50095278419">
		<tag k="name" v="Surtetjønn" />
		<tag k="natural" v="water" />
		<tag k="ssr:stedsnr" v="267461" />
	</node>
	<node id="-336273" lat="58.1107782111" lon="7.45717392808">
		<tag k="alt_name" v="Aurebekksvannet" />
		<tag k="name" v="Aurebekkvatnet" />
		<tag k="natural" v="water" />
		<tag k="ssr:stedsnr" v="606863" />
	</node>
	<node id="-337296" lat="58.0892722243" lon="7.4267111085">
		<tag k="name" v="Tjorekilen" />
		<tag k="natural" v="bay" />
		<tag k="ssr:stedsnr" v="935733" />
	</node>
	<node id="-335758" lat="58.0686666664" lon="7.44966666075">
		<tag k="name" v="Spettelandsvika" />
		<tag k="natural" v="bay" />
		<tag k="ssr:stedsnr" v="449786" />
	</node>
	<node id="-334221" lat="58.0585861141" lon="7.57577222845">
		<tag k="name" v="Teinelagsneset" />
		<tag k="natural" v="cape" />
		<tag k="ssr:stedsnr" v="269351" />
	</node>
	<node id="-336268" lat="58.0500277811" lon="7.3457750015">
		<tag k="name" v="Båtstø" />
		<tag k="natural" v="bay" />
		<tag k="ssr:stedsnr" v="572987" />
	</node>
	<node id="-337343" lat="58.045027775" lon="7.49380556224">
		<tag k="name" v="Bryggeodden" />
		<tag k="natural" v="cape" />
		<tag k="ssr:stedsnr" v="936166" />
	</node>
	<node id="-335753" lat="58.0405138858" lon="7.32466666842">
		<tag k="name" v="Vaddervika" />
		<tag k="natural" v="bay" />
		<tag k="ssr:stedsnr" v="449759" />
	</node>
	<node id="-337288" lat="58.1114277791" lon="7.48240278554">
		<tag k="name" v="Lonan" />
		<tag k="natural" v="water" />
		<tag k="ssr:stedsnr" v="935499" />
		<tag k="water" v="lake" />
	</node>
	<node id="-336772" lat="58.1570611154" lon="7.52403055554">
		<tag k="name" v="Indre Åsevann" />
		<tag k="natural" v="water" />
		<tag k="ssr:stedsnr" v="752986" />
		<tag k="water" v="lake" />
	</node>
	<node id="-335746" lat="58.0956833373" lon="7.43498333868">
		<tag k="name" v="Eibukta" />
		<tag k="natural" v="bay" />
		<tag k="ssr:stedsnr" v="449694" />
	</node>
	<node id="-336769" lat="58.0651388845" lon="7.5853333324">
		<tag k="name" v="Rebustangen" />
		<tag k="natural" v="cape" />
		<tag k="ssr:stedsnr" v="752960" />
	</node>
	<node id="-336768" lat="58.0709805586" lon="7.59596111597">
		<tag k="name" v="Andersholmen" />
		<tag k="natural" v="cape" />
		<tag k="ssr:stedsnr" v="752953" />
	</node>
	<node id="-335741" lat="58.0715472198" lon="7.5023750074">
		<tag k="name" v="Lilletjønna" />
		<tag k="natural" v="water" />
		<tag k="ssr:stedsnr" v="449654" />
	</node>
	<node id="-335228" lat="58.1033777777" lon="7.43715277734">
		<tag k="name" v="Hålandstjønna" />
		<tag k="natural" v="water" />
		<tag k="ssr:stedsnr" v="145700" />
	</node>
	<node id="-336759" lat="58.1243750042" lon="7.56716388253">
		<tag k="name" v="Igletjønna" />
		<tag k="natural" v="water" />
		<tag k="ssr:stedsnr" v="752856" />
	</node>
	<node id="-337262" lat="58.0562027795" lon="7.36568889609">
		<tag k="name" v="Kjerringodden" />
		<tag k="natural" v="cape" />
		<tag k="ssr:stedsnr" v="934792" />
	</node>
	<node id="-336749" lat="58.0563111084" lon="7.36463334003">
		<tag k="name" v="Ramsetroa" />
		<tag k="natural" v="bay" />
		<tag k="ssr:stedsnr" v="752808" />
	</node>
	<node id="-336747" lat="58.0906861135" lon="7.59557500482">
		<tag k="name" v="Råmyrtjønn" />
		<tag k="natural" v="water" />
		<tag k="ssr:stedsnr" v="752779" />
	</node>
	<node id="-335719" lat="58.0120888881" lon="7.52030278318">
		<tag k="name" v="Oddervika" />
		<tag k="natural" v="bay" />
		<tag k="ssr:stedsnr" v="449391" />
	</node>
	<node id="-336230" lat="58.0350666637" lon="7.38372777812">
		<tag k="name" v="Sånumsneset" />
		<tag k="natural" v="cape" />
		<tag k="ssr:stedsnr" v="571839" />
	</node>
	<node id="-336741" lat="58.0452972257" lon="7.38638889354">
		<tag k="name" v="Lauvneset" />
		<tag k="natural" v="cape" />
		<tag k="ssr:stedsnr" v="752748" />
	</node>
	<node id="-336737" lat="58.0307249975" lon="7.47853611202">
		<tag k="name" v="Høybakken" />
		<tag k="natural" v="cape" />
		<tag k="ssr:stedsnr" v="752721" />
	</node>
	<node id="-336014" lat="58.0811249962" lon="7.43701666932">
		<tag k="name" v="Lonebekken" />
		<tag k="ssr:stedsnr" v="511190" />
		<tag k="waterway" v="stream" />
	</node>
	<node id="-335708" lat="58.0740638897" lon="7.54344443928">
		<tag k="name" v="Spangtjønna" />
		<tag k="natural" v="water" />
		<tag k="ssr:stedsnr" v="448621" />
	</node>
	<node id="-335195" lat="58.0185694476" lon="7.56180555542">
		<tag k="name" v="Østre Vassbotten" />
		<tag k="natural" v="bay" />
		<tag k="ssr:stedsnr" v="145379" />
	</node>
	<node id="-334767" lat="58.0858361138" lon="7.40619999919">
		<tag k="alt_name" v="Vråvannet" />
		<tag k="name" v="Vråvatnet" />
		<tag k="natural" v="water" />
		<tag k="ssr:stedsnr" v="821" />
	</node>
	<node id="-336216" lat="58.0384861073" lon="7.55956944043">
		<tag k="name" v="Torjusskjæret" />
		<tag k="place" v="islet" />
		<tag k="ssr:stedsnr" v="571461" />
	</node>
	<node id="-334468" lat="58.0421388932" lon="7.35981666217">
		<tag k="name" v="Kroktjønna" />
		<tag k="natural" v="water" />
		<tag k="ssr:stedsnr" v="364990" />
	</node>
	<node id="-336211" lat="58.0444694438" lon="7.56143055208">
		<tag k="name" v="Robukta" />
		<tag k="natural" v="bay" />
		<tag k="ssr:stedsnr" v="571233" />
	</node>
	<node id="-336099" lat="58.0782611138" lon="7.49764999373">
		<tag k="name" v="Moslandsbekken" />
		<tag k="ssr:stedsnr" v="546912" />
		<tag k="waterway" v="stream" />
	</node>
	<node id="-335696" lat="58.0881638889" lon="7.61938333775">
		<tag k="alt_name" v="Suvannet" />
		<tag k="name" v="Suvatnet" />
		<tag k="natural" v="water" />
		<tag k="ssr:stedsnr" v="425931" />
	</node>
	<node id="-335183" lat="58.052975004" lon="7.61192499476">
		<tag k="alt_name" v="Glubetjønna" />
		<tag k="name" v="Stødalstjørna" />
		<tag k="natural" v="water" />
		<tag k="ssr:stedsnr" v="121994" />
	</node>
	<node id="-337230" lat="58.0730257991" lon="7.50020801351">
		<tag k="alt_name" v="Undalstjønna" />
		<tag k="name" v="Unndalstjørna" />
		<tag k="natural" v="water" />
		<tag k="ssr:stedsnr" v="910912" />
	</node>
	<node id="-335180" lat="58.0392972249" lon="7.56535833428">
		<tag k="alt_name" v="Dybovannet" />
		<tag k="name" v="Djubovatnet" />
		<tag k="natural" v="water" />
		<tag k="ssr:stedsnr" v="121980" />
		<tag k="water" v="lake" />
	</node>
	<node id="-334818" lat="58.1087250001" lon="7.4849805474">
		<tag k="name" v="Igletjønna" />
		<tag k="natural" v="water" />
		<tag k="ssr:stedsnr" v="24514" />
	</node>
	<node id="-336202" lat="58.0430611077" lon="7.49145000227">
		<tag k="name" v="Kleivodden" />
		<tag k="natural" v="cape" />
		<tag k="ssr:stedsnr" v="571175" />
	</node>
	<node id="-335177" lat="58.0361031373" lon="7.60938131199">
		<tag k="alt_name" v="Osnesvannet" />
		<tag k="name" v="Osnesvatnet" />
		<tag k="natural" v="water" />
		<tag k="ssr:stedsnr" v="121968" />
	</node>
	<node id="-335176" lat="58.0242072663" lon="7.6111878632">
		<tag k="alt_name" v="Stormyrtjønna" />
		<tag k="name" v="Lillestøltjørna" />
		<tag k="natural" v="water" />
		<tag k="ssr:stedsnr" v="121947" />
	</node>
	<node id="-335687" lat="58.082130559" lon="7.58954166758">
		<tag k="alt_name" v="Maurtjønna" />
		<tag k="name" v="Maurtjørna" />
		<tag k="natural" v="water" />
		<tag k="ssr:stedsnr" v="425843" />
	</node>
	<node id="-334561" lat="58.0667583329" lon="7.58717777112">
		<tag k="name" v="Hepteodden" />
		<tag k="natural" v="cape" />
		<tag k="ssr:stedsnr" v="388952" />
	</node>
	<node id="-335172" lat="58.0648249982" lon="7.48724999855">
		<tag k="name" v="Sodelandsbekken" />
		<tag k="ssr:stedsnr" v="121907" />
		<tag k="waterway" v="stream" />
	</node>
	<node id="-335171" lat="58.1194277761" lon="7.48118055059">
		<tag k="alt_name" v="Furevannet" />
		<tag k="name" v="Furevatnet" />
		<tag k="natural" v="water" />
		<tag k="ssr:stedsnr" v="121862" />
	</node>
	<node id="-337218" lat="57.9910111121" lon="7.51722777406">
		<tag k="alt_name" v="Farestadtjønna" />
		<tag k="name" v="Farestadtjernet" />
		<tag k="natural" v="water" />
		<tag k="ssr:stedsnr" v="910048" />
	</node>
	<node id="-335168" lat="58.100991668" lon="7.53655278359">
		<tag k="name" v="Røyselandsbekken" />
		<tag k="ssr:stedsnr" v="121840" />
		<tag k="waterway" v="stream" />
	</node>
	<node id="-334394" lat="58.080455559" lon="7.43623611072">
		<tag k="name" v="Surtetjønna" />
		<tag k="natural" v="water" />
		<tag k="ssr:stedsnr" v="329188" />
	</node>
	<node id="-335175" lat="58.0900611147" lon="7.58846388443">
		<tag k="alt_name" v="Knibbstjønna" />
		<tag k="name" v="Knipstjørna" />
		<tag k="natural" v="water" />
		<tag k="ssr:stedsnr" v="121936" />
	</node>
	<node id="-334645" lat="58.0328141216" lon="7.66486568008">
		<tag k="name" v="Ronevannet" />
		<tag k="natural" v="water" />
		<tag k="ssr:stedsnr" v="546948" />
		<tag k="water" v="lake" />
	</node>
	<node id="-336179" lat="58.1010361085" lon="7.53257778044">
		<tag k="name" v="Dæliodden" />
		<tag k="natural" v="cape" />
		<tag k="ssr:stedsnr" v="570904" />
	</node>
	<node id="-337202" lat="58.0494861072" lon="7.39504443926">
		<tag k="name" v="Storebekken" />
		<tag k="ssr:stedsnr" v="875992" />
		<tag k="waterway" v="stream" />
	</node>
	<node id="-334984" lat="58.0699916648" lon="7.59315277083">
		<tag k="alt_name" v="Skagestadvannet" />
		<tag k="name" v="Skagestadvatnet" />
		<tag k="natural" v="water" />
		<tag k="ssr:stedsnr" v="61897" />
		<tag k="water" v="lake" />
	</node>
	<node id="-336686" lat="58.0360166668" lon="7.63982221542">
		<tag k="alt_name" v="Dostadtjønna" />
		<tag k="name" v="Dostadtjørna" />
		<tag k="natural" v="water" />
		<tag k="ssr:stedsnr" v="728966" />
	</node>
	<node id="-337195" lat="58.0637944467" lon="7.5914944373">
		<tag k="name" v="Midtstøholmen" />
		<tag k="natural" v="cape" />
		<tag k="ssr:stedsnr" v="875883" />
	</node>
	<node id="-335144" lat="58.0381527794" lon="7.63469444924">
		<tag k="name" v="Kvernebekken" />
		<tag k="ssr:stedsnr" v="87648" />
		<tag k="waterway" v="stream" />
	</node>
	<node id="-334629" lat="58.0896083318" lon="7.5224944387">
		<tag k="name" v="Tuan" />
		<tag k="natural" v="cape" />
		<tag k="ssr:stedsnr" v="390900" />
	</node>
	<node id="-335652" lat="58.0347833339" lon="7.55887777014">
		<tag k="name" v="Florsbukta" />
		<tag k="natural" v="bay" />
		<tag k="ssr:stedsnr" v="268446" />
	</node>
	<node id="-334982" lat="58.0624777804" lon="7.56240278178">
		<tag k="alt_name" v="Drivartjønn" />
		<tag k="name" v="Drivartjørna" />
		<tag k="natural" v="water" />
		<tag k="ssr:stedsnr" v="61880" />
	</node>
	<node id="-336674" lat="58.0887583356" lon="7.56432777971">
		<tag k="name" v="Djupdalsbekken" />
		<tag k="ssr:stedsnr" v="728813" />
		<tag k="waterway" v="stream" />
	</node>
	<node id="-336161" lat="58.0508555542" lon="7.33828333755">
		<tag k="name" v="Randiholmen" />
		<tag k="place" v="islet" />
		<tag k="ssr:stedsnr" v="570771" />
	</node>
	<node id="-334624" lat="58.0304138901" lon="7.37336388912">
		<tag k="name" v="Kvernhusbekken" />
		<tag k="ssr:stedsnr" v="390853" />
		<tag k="waterway" v="stream" />
	</node>
	<node id="-336670" lat="58.139858336" lon="7.48169721727">
		<tag k="alt_name" v="Eikelandsvann" />
		<tag k="name" v="Eikelandsvatnet" />
		<tag k="natural" v="water" />
		<tag k="ssr:stedsnr" v="728721" />
	</node>
	<node id="-335877" lat="58.0260611132" lon="7.50345277037">
		<tag k="alt_name" v="Jåbekkvannet" />
		<tag k="name" v="Jåbekkvatnet" />
		<tag k="natural" v="water" />
		<tag k="ssr:stedsnr" v="485972" />
	</node>
	<node id="-336090" lat="58.0991055567" lon="7.5040527793">
		<tag k="alt_name" v="Holumstjønna" />
		<tag k="name" v="Holmetjørna" />
		<tag k="natural" v="water" />
		<tag k="ssr:stedsnr" v="546819" />
	</node>
	<node id="-336153" lat="58.0876694483" lon="7.63131111168">
		<tag k="name" v="Igletjønn" />
		<tag k="natural" v="water" />
		<tag k="ssr:stedsnr" v="570709" />
	</node>
	<node id="-336151" lat="58.0911361152" lon="7.4284416589">
		<tag k="name" v="Nesan" />
		<tag k="natural" v="cape" />
		<tag k="ssr:stedsnr" v="570702" />
	</node>
	<node id="-336265" lat="58.0206249986" lon="7.55905278551">
		<tag k="name" v="Vestre Vassbotten" />
		<tag k="natural" v="bay" />
		<tag k="ssr:stedsnr" v="572942" />
	</node>
	<node id="-336145" lat="58.1243000032" lon="7.4641194447">
		<tag k="name" v="Lille Hellertjønn" />
		<tag k="natural" v="water" />
		<tag k="ssr:stedsnr" v="570659" />
	</node>
	<node id="-335119" lat="58.0219972217" lon="7.43230833936">
		<tag k="name" v="Langestranda" />
		<tag k="natural" v="beach" />
		<tag k="ssr:stedsnr" v="87144" />
	</node>
	<node id="-334603" lat="58.0209777767" lon="7.58073889665">
		<tag k="name" v="Tretjønn" />
		<tag k="natural" v="water" />
		<tag k="ssr:stedsnr" v="390313" />
	</node>
	<node id="-335626" lat="58.0022416699" lon="7.5104444469">
		<tag k="name" v="Nordre Tjønna" />
		<tag k="natural" v="water" />
		<tag k="ssr:stedsnr" v="268021" />
	</node>
	<node id="-336649" lat="58.0594916676" lon="7.56291111692">
		<tag k="name" v="Jordtjønn" />
		<tag k="natural" v="water" />
		<tag k="ssr:stedsnr" v="694494" />
	</node>
	<node id="-336648" lat="58.0599555522" lon="7.52976667118">
		<tag k="name" v="Smalsund" />
		<tag k="natural" v="bay" />
		<tag k="ssr:stedsnr" v="694482" />
	</node>
	<node id="-334598" lat="58.0547361072" lon="7.43102777709">
		<tag k="name" v="Store Heslandstjønna" />
		<tag k="natural" v="water" />
		<tag k="ssr:stedsnr" v="390143" />
	</node>
	<node id="-335621" lat="58.0761861153" lon="7.60023611163">
		<tag k="name" v="Ørja" />
		<tag k="natural" v="bay" />
		<tag k="ssr:stedsnr" v="267992" />
	</node>
	<node id="-334595" lat="58.1118416672" lon="7.58991389129">
		<tag k="name" v="Tjønna" />
		<tag k="natural" v="water" />
		<tag k="ssr:stedsnr" v="389893" />
	</node>
	<node id="-335618" lat="58.1308194414" lon="7.52454722936">
		<tag k="name" v="Smelandsstemmen" />
		<tag k="natural" v="water" />
		<tag k="ssr:stedsnr" v="267970" />
	</node>
	<node id="-334891" lat="58.0424777744" lon="7.56420277186">
		<tag k="name" v="Roholmen" />
		<tag k="place" v="islet" />
		<tag k="ssr:stedsnr" v="25271" />
	</node>
	<node id="-335614" lat="58.0919833321" lon="7.47296110381">
		<tag k="name" v="Nordtjønna" />
		<tag k="natural" v="water" />
		<tag k="ssr:stedsnr" v="267954" />
	</node>
	<node id="-336633" lat="58.036769445" lon="7.38324166296">
		<tag k="name" v="Eikenesholmen" />
		<tag k="place" v="islet" />
		<tag k="ssr:stedsnr" v="693852" />
	</node>
	<node id="-335096" lat="58.0408222252" lon="7.55557221666">
		<tag k="name" v="Dybobukta" />
		<tag k="natural" v="bay" />
		<tag k="ssr:stedsnr" v="86436" />
	</node>
	<node id="-335607" lat="58.1175805529" lon="7.52549722212">
		<tag k="name" v="Fuskelandshøllen" />
		<tag k="place" v="locality" />
		<tag k="ssr:stedsnr" v="267885" />
	</node>
	<node id="-335092" lat="58.044261113" lon="7.52433332985">
		<tag k="name" v="Trettekjerrbukta" />
		<tag k="natural" v="bay" />
		<tag k="ssr:stedsnr" v="86260" />
	</node>
	<node id="-336680" lat="58.0598055574" lon="7.40142777144">
		<tag k="alt_name" v="Isungstadvatnet" />
		<tag k="name" v="Isumstadvatnet" />
		<tag k="natural" v="water" />
		<tag k="ssr:stedsnr" v="728886" />
	</node>
	<node id="-335229" lat="58.0959583343" lon="7.43816389165">
		<tag k="name" v="Furehovet" />
		<tag k="natural" v="cape" />
		<tag k="ssr:stedsnr" v="145701" />
	</node>
	<node id="-336108" lat="58.0436611083" lon="7.376811107">
		<tag k="alt_name" v="Rægevannet" />
		<tag k="name" v="Hoggandvikvatna" />
		<tag k="natural" v="water" />
		<tag k="old_name" v="Hogganvikvatna" />
		<tag k="ssr:stedsnr" v="546984" />
		<tag k="water" v="lake" />
	</node>
	<node id="-335595" lat="58.0588694443" lon="7.37345556079">
		<tag k="name" v="Hegrestadbekken" />
		<tag k="ssr:stedsnr" v="267809" />
		<tag k="waterway" v="stream" />
	</node>
	<node id="-337130" lat="58.1179333377" lon="7.56400277604">
		<tag k="name" v="Stemtjønna" />
		<tag k="natural" v="water" />
		<tag k="ssr:stedsnr" v="874874" />
	</node>
	<node id="-336616" lat="58.0532805552" lon="7.52925000697">
		<tag k="name" v="Epleneset" />
		<tag k="natural" v="cape" />
		<tag k="ssr:stedsnr" v="693283" />
	</node>
	<node id="-335079" lat="57.9749861081" lon="7.52807778281">
		<tag k="name" v="Ferskvannet" />
		<tag k="natural" v="water" />
		<tag k="ssr:stedsnr" v="86049" />
	</node>
	<node id="-335590" lat="58.0405083348" lon="7.35219999177">
		<tag k="name" v="Lundetjønna" />
		<tag k="natural" v="water" />
		<tag k="ssr:stedsnr" v="267766" />
	</node>
	<node id="-337125" lat="58.0529055581" lon="7.36412221696">
		<tag k="name" v="Storetjønn" />
		<tag k="natural" v="water" />
		<tag k="ssr:stedsnr" v="874836" />
	</node>
	<node id="-336611" lat="58.0329722216" lon="7.48264166396">
		<tag k="name" v="Årøy" />
		<tag k="place" v="island" />
		<tag k="ssr:stedsnr" v="693233" />
	</node>
	<node id="-337122" lat="58.0523777812" lon="7.38038055753">
		<tag k="name" v="Lille Torsketjønna" />
		<tag k="natural" v="water" />
		<tag k="ssr:stedsnr" v="874814" />
	</node>
	<node id="-335585" lat="58.0440527781" lon="7.37446666834">
		<tag k="name" v="Prestehov" />
		<tag k="natural" v="cape" />
		<tag k="ssr:stedsnr" v="267752" />
	</node>
	<node id="-335584" lat="58.0788805521" lon="7.63753056273">
		<tag k="name" v="Naudevaet" />
		<tag k="place" v="locality" />
		<tag k="ssr:stedsnr" v="267747" />
	</node>
	<node id="-335583" lat="58.1038916668" lon="7.62788056115">
		<tag k="name" v="Hellersheitjønn" />
		<tag k="natural" v="water" />
		<tag k="ssr:stedsnr" v="267744" />
	</node>
	<node id="-337118" lat="58.060002777" lon="7.379469438">
		<tag k="name" v="Hegrestadvatnet" />
		<tag k="natural" v="water" />
		<tag k="ssr:stedsnr" v="874805" />
		<tag k="water" v="lake" />
	</node>
	<node id="-336093" lat="58.1034250021" lon="7.41581666988">
		<tag k="alt_name" v="Hålandsvannet" />
		<tag k="name" v="Hålandsvatnet" />
		<tag k="natural" v="water" />
		<tag k="ssr:stedsnr" v="546841" />
	</node>
	<node id="-336603" lat="58.0788694402" lon="7.45141388235">
		<tag k="name" v="Hagelandstjønna" />
		<tag k="natural" v="water" />
		<tag k="ssr:stedsnr" v="693183" />
	</node>
	<node id="-335066" lat="58.0663944404" lon="7.59225000824">
		<tag k="name" v="Eigeneset" />
		<tag k="natural" v="cape" />
		<tag k="ssr:stedsnr" v="85922" />
	</node>
	<node id="-335064" lat="58.1243000035" lon="7.53251110311">
		<tag k="name" v="Øya" />
		<tag k="place" v="island" />
		<tag k="ssr:stedsnr" v="85914" />
	</node>
	<node id="-335574" lat="58.1023360217" lon="7.45337725599">
		<tag k="name" v="Skrøvjetjønna" />
		<tag k="natural" v="water" />
		<tag k="ssr:stedsnr" v="267697" />
	</node>
	<node id="-334548" lat="58.1087472192" lon="7.53519166403">
		<tag k="name" v="Nødingsfossen" />
		<tag k="natural" v="waterfall" />
		<tag k="ssr:stedsnr" v="388858" />
	</node>
	<node id="-337107" lat="58.0900583326" lon="7.64506111712">
		<tag k="name" v="Paristjønn" />
		<tag k="natural" v="water" />
		<tag k="ssr:stedsnr" v="874749" />
	</node>
	<node id="-337104" lat="58.08608616" lon="7.45049613412">
		<tag k="name" v="Stampetjønna" />
		<tag k="natural" v="water" />
		<tag k="ssr:stedsnr" v="874719" />
	</node>
	<node id="-337103" lat="58.098086111" lon="7.44034445017">
		<tag k="name" v="Nesan" />
		<tag k="natural" v="cape" />
		<tag k="ssr:stedsnr" v="874717" />
	</node>
	<node id="-337100" lat="58.0717805562" lon="7.51392778285">
		<tag k="name" v="Lindland bom" />
		<tag k="place" v="locality" />
		<tag k="ssr:stedsnr" v="874704" />
	</node>
	<node id="-336162" lat="58.0505000008" lon="7.34005555019">
		<tag k="name" v="Haddelandsvannet" />
		<tag k="natural" v="water" />
		<tag k="ssr:stedsnr" v="570775" />
		<tag k="water" v="lake" />
	</node>
	<node id="-334535" lat="58.0315055539" lon="7.47235833851">
		<tag k="name" v="Skarvøy" />
		<tag k="place" v="island" />
		<tag k="ssr:stedsnr" v="388731" />
	</node>
	<node id="-335045" lat="58.0430000016" lon="7.37994999892">
		<tag k="name" v="Torsneset" />
		<tag k="natural" v="cape" />
		<tag k="ssr:stedsnr" v="85736" />
	</node>
	<node id="-334454" lat="58.1061666624" lon="7.4637583288">
		<tag k="alt_name" v="Upsåkervann" />
		<tag k="name" v="Upsåkervatnet" />
		<tag k="natural" v="water" />
		<tag k="ssr:stedsnr" v="364879" />
	</node>
	<node id="-336578" lat="58.073874998" lon="7.59682777799">
		<tag k="name" v="Lyngneset" />
		<tag k="natural" v="cape" />
		<tag k="ssr:stedsnr" v="692944" />
	</node>
	<node id="-337089" lat="58.0971638874" lon="7.50062223044">
		<tag k="name" v="Gullbekken" />
		<tag k="ssr:stedsnr" v="874539" />
		<tag k="waterway" v="stream" />
	</node>
	<node id="-336064" lat="58.061666663" lon="7.53063889439">
		<tag k="name" v="Vatnedalstjønna" />
		<tag k="natural" v="water" />
		<tag k="ssr:stedsnr" v="512502" />
	</node>
	<node id="-336672" lat="58.0828000041" lon="7.44457778355">
		<tag k="alt_name" v="Homsvannet" />
		<tag k="name" v="Homsvatnet" />
		<tag k="natural" v="water" />
		<tag k="ssr:stedsnr" v="728804" />
	</node>
	<node id="-337086" lat="58.1151000011" lon="7.49651110308">
		<tag k="name" v="Fodnebøstemmen" />
		<tag k="ssr:stedsnr" v="874513" />
		<tag k="waterway" v="dam" />
	</node>
	<node id="-337084" lat="58.1445722177" lon="7.46524165953">
		<tag k="name" v="Lomstjønn" />
		<tag k="natural" v="water" />
		<tag k="ssr:stedsnr" v="874495" />
	</node>
	<node id="-335034" lat="58.0932555549" lon="7.43448888696">
		<tag k="name" v="Lille Furehovet" />
		<tag k="natural" v="cape" />
		<tag k="ssr:stedsnr" v="85668" />
	</node>
	<node id="-335033" lat="58.1166888903" lon="7.45131943975">
		<tag k="name" v="Mjåvannet" />
		<tag k="natural" v="water" />
		<tag k="ssr:stedsnr" v="85662" />
		<tag k="water" v="lake" />
	</node>
	<node id="-335543" lat="58.0812055575" lon="7.61388332506">
		<tag k="alt_name" v="Suvassbekken" />
		<tag k="name" v="Suvatnebekken" />
		<tag k="ssr:stedsnr" v="243936" />
		<tag k="waterway" v="stream" />
	</node>
	<node id="-336329" lat="58.0979916629" lon="7.56975556001">
		<tag k="name" v="Rundetjønna" />
		<tag k="natural" v="water" />
		<tag k="ssr:stedsnr" v="630888" />
	</node>
	<node id="-334515" lat="58.1273055585" lon="7.50199166642">
		<tag k="name" v="Svartetjønn" />
		<tag k="natural" v="water" />
		<tag k="ssr:stedsnr" v="388475" />
	</node>
	<node id="-335537" lat="58.0938499974" lon="7.4381999995">
		<tag k="alt_name" v="Møglandsvannet" />
		<tag k="name" v="Møglandsvatnet" />
		<tag k="natural" v="water" />
		<tag k="ssr:stedsnr" v="243829" />
		<tag k="water" v="lake" />
	</node>
	<node id="-335023" lat="58.1496888855" lon="7.50175833377">
		<tag k="name" v="Listadlonan" />
		<tag k="natural" v="water" />
		<tag k="ssr:stedsnr" v="85519" />
		<tag k="water" v="lake" />
	</node>
	<node id="-335534" lat="58.0251055534" lon="7.49450000815">
		<tag k="alt_name" v="Stovetjønna" />
		<tag k="name" v="Jordtjørna" />
		<tag k="natural" v="water" />
		<tag k="ssr:stedsnr" v="243961" />
	</node>
	<node id="-335021" lat="58.0794416694" lon="7.56689166201">
		<tag k="name" v="Kolbjørnstjønna" />
		<tag k="natural" v="water" />
		<tag k="ssr:stedsnr" v="85502" />
	</node>
	<node id="-336043" lat="58.0253416669" lon="7.4682833384">
		<tag k="name" v="Kvisla" />
		<tag k="ssr:stedsnr" v="511745" />
		<tag k="waterway" v="stream" />
	</node>
	<node id="-337065" lat="58.0916277739" lon="7.52490278603">
		<tag k="alt_name" v="Marna" />
		<tag k="fixme" v="multiple name tags, choose one and add the other to alt_name" />
		<tag k="name" v="Mandalsåni;Mandalselva" />
		<tag k="ssr:stedsnr" v="850990" />
		<tag k="waterway" v="river" />
	</node>
	<node id="-335085" lat="58.0647388875" lon="7.42865833208">
		<tag k="name" v="Holtetjønna" />
		<tag k="natural" v="water" />
		<tag k="ssr:stedsnr" v="86164" />
	</node>
	<node id="-337060" lat="58.0806638905" lon="7.4709916667">
		<tag k="alt_name" v="Moslandsvannet" />
		<tag k="name" v="Moslandsvatnet" />
		<tag k="natural" v="water" />
		<tag k="ssr:stedsnr" v="850914" />
	</node>
	<node id="-336326" lat="58.0549833359" lon="7.34786944278">
		<tag k="name" v="Igletjønna" />
		<tag k="natural" v="water" />
		<tag k="ssr:stedsnr" v="630747" />
	</node>
	<node id="-335520" lat="58.097950003" lon="7.51976388379">
		<tag k="name" v="Holumsbekken" />
		<tag k="ssr:stedsnr" v="209913" />
		<tag k="waterway" v="stream" />
	</node>
	<node id="-335519" lat="58.0341194444" lon="7.38304444195">
		<tag k="name" v="Bongstøvannet" />
		<tag k="natural" v="water" />
		<tag k="ssr:stedsnr" v="208996" />
		<tag k="water" v="lake" />
	</node>
	<node id="-336325" lat="58.0464249996" lon="7.39401110273">
		<tag k="name" v="Judetjønna" />
		<tag k="natural" v="water" />
		<tag k="ssr:stedsnr" v="630735" />
	</node>
	<node id="-335515" lat="58.0137000008" lon="7.35163610484">
		<tag k="name" v="Hilletjønna" />
		<tag k="natural" v="water" />
		<tag k="ssr:stedsnr" v="208928" />
	</node>
	<node id="-337352" lat="58.0557305548" lon="7.52483610625">
		<tag k="name" v="Båtstøkilen" />
		<tag k="natural" v="bay" />
		<tag k="ssr:stedsnr" v="936225" />
	</node>
	<node id="-337048" lat="58.0922749977" lon="7.62715555697">
		<tag k="alt_name" v="Hanevann" />
		<tag k="name" v="Hanevatnet" />
		<tag k="natural" v="water" />
		<tag k="ssr:stedsnr" v="850807" />
	</node>
	<node id="-335511" lat="58.0338611135" lon="7.39151666668">
		<tag k="name" v="Rona" />
		<tag k="natural" v="water" />
		<tag k="ssr:stedsnr" v="208871" />
		<tag k="water" v="lake" />
	</node>
	<node id="-335510" lat="58.0316638864" lon="7.37353333081">
		<tag k="name" v="Uvannshola" />
		<tag k="natural" v="bay" />
		<tag k="ssr:stedsnr" v="208869" />
	</node>
	<node id="-336018" lat="58.0457249973" lon="7.56935833347">
		<tag k="name" v="Askedalsbukta" />
		<tag k="natural" v="bay" />
		<tag k="ssr:stedsnr" v="511275" />
	</node>
	<node id="-335016" lat="58.1120388866" lon="7.5015388964">
		<tag k="name" v="Furomstjønn" />
		<tag k="natural" v="water" />
		<tag k="ssr:stedsnr" v="85405" />
	</node>
	<node id="-334990" lat="58.0500499973" lon="7.52706389375">
		<tag k="alt_name" v="Aurebekkvannet" />
		<tag k="name" v="Aurebekkvatnet" />
		<tag k="natural" v="water" />
		<tag k="ssr:stedsnr" v="61992" />
		<tag k="water" v="lake" />
	</node>
	<node id="-334989" lat="58.0537000027" lon="7.59261667302">
		<tag k="alt_name" v="Glubekilen" />
		<tag k="name" v="Glupekilen" />
		<tag k="natural" v="water" />
		<tag k="ssr:stedsnr" v="61989" />
	</node>
	<node id="-335500" lat="58.0571833331" lon="7.53157778351">
		<tag k="name" v="Bulebukta" />
		<tag k="natural" v="bay" />
		<tag k="ssr:stedsnr" v="208483" />
	</node>
	<node id="-334274" lat="58.0370277818" lon="7.59728610328">
		<tag k="alt_name" v="Jusvannet" />
		<tag k="name" v="Ljosvatnet" />
		<tag k="natural" v="water" />
		<tag k="old_name" v="Jusvatnet" />
		<tag k="ssr:stedsnr" v="303981" />
	</node>
	<node id="-336809" lat="58.0356361097" lon="7.56011110519">
		<tag k="name" v="Naudodden" />
		<tag k="natural" v="cape" />
		<tag k="ssr:stedsnr" v="754495" />
	</node>
	<node id="-335494" lat="58.0375944441" lon="7.57012221678">
		<tag k="name" v="Langodden" />
		<tag k="natural" v="cape" />
		<tag k="ssr:stedsnr" v="208467" />
	</node>
	<node id="-334469" lat="58.0398944419" lon="7.46294999508">
		<tag k="name" v="Stemmen" />
		<tag k="natural" v="water" />
		<tag k="ssr:stedsnr" v="364993" />
	</node>
	<node id="-336516" lat="58.0842694461" lon="7.56917222167">
		<tag k="name" v="Helletjønna" />
		<tag k="natural" v="water" />
		<tag k="ssr:stedsnr" v="691579" />
	</node>
	<node id="-334979" lat="58.0986702933" lon="7.46214419025">
		<tag k="alt_name" v="Ljosevannet" />
		<tag k="name" v="Ljosevatnet" />
		<tag k="natural" v="water" />
		<tag k="ssr:stedsnr" v="61825" />
	</node>
	<node id="-336567" lat="58.0550499986" lon="7.40388332642">
		<tag k="name" v="Lysetjønna" />
		<tag k="natural" v="water" />
		<tag k="ssr:stedsnr" v="692813" />
	</node>
	<node id="-334977" lat="58.1470611143" lon="7.47825554839">
		<tag k="alt_name" v="Holdalstjønn" />
		<tag k="name" v="Fiddingsvatnet" />
		<tag k="natural" v="water" />
		<tag k="ssr:stedsnr" v="61766" />
	</node>
	<node id="-334975" lat="58.138274998" lon="7.52277500452">
		<tag k="alt_name" v="Auretjønna" />
		<tag k="name" v="Auretjørna" />
		<tag k="natural" v="water" />
		<tag k="ssr:stedsnr" v="61748" />
	</node>
	<node id="-337021" lat="58.0370194451" lon="7.35724443854">
		<tag k="name" v="Lindtjønna" />
		<tag k="natural" v="water" />
		<tag k="ssr:stedsnr" v="815867" />
	</node>
	<node id="-335483" lat="58.0268333308" lon="7.49846944073">
		<tag k="name" v="Hundetjønn" />
		<tag k="natural" v="water" />
		<tag k="ssr:stedsnr" v="208242" />
	</node>
	<node id="-336505" lat="58.0485527771" lon="7.57654166809">
		<tag k="name" v="Marsundet" />
		<tag k="natural" v="strait" />
		<tag k="ssr:stedsnr" v="667986" />
	</node>
	<node id="-337015" lat="58.0382000031" lon="7.46089444979">
		<tag k="name" v="Frøyslandstjønna" />
		<tag k="natural" v="water" />
		<tag k="ssr:stedsnr" v="815776" />
	</node>
	<node id="-335478" lat="58.0434388876" lon="7.45984444114">
		<tag k="name" v="Slåttetjønna" />
		<tag k="natural" v="water" />
		<tag k="ssr:stedsnr" v="208186" />
	</node>
	<node id="-334453" lat="58.1108138896" lon="7.48570833315">
		<tag k="alt_name" v="Mjåvannet" />
		<tag k="name" v="Mjåvatnet" />
		<tag k="natural" v="water" />
		<tag k="ssr:stedsnr" v="364869" />
	</node>
	<node id="-335988" lat="58.0740611143" lon="7.5979083306">
		<tag k="name" v="Bormyrbukta" />
		<tag k="natural" v="bay" />
		<tag k="ssr:stedsnr" v="510953" />
	</node>
	<node id="-334299" lat="58.1121111123" lon="7.45763333324">
		<tag k="name" v="Nesan" />
		<tag k="natural" v="cape" />
		<tag k="ssr:stedsnr" v="327651" />
	</node>
	<node id="-335986" lat="58.0647999964" lon="7.59399721509">
		<tag k="name" v="Vetnesbukta" />
		<tag k="natural" v="bay" />
		<tag k="ssr:stedsnr" v="510940" />
	</node>
	<node id="-335985" lat="58.1264583314" lon="7.52359999174">
		<tag k="name" v="Bjørkenesstemmen" />
		<tag k="natural" v="water" />
		<tag k="ssr:stedsnr" v="510938" />
	</node>
	<node id="-335977" lat="58.0995333329" lon="7.6076555587">
		<tag k="name" v="Neset" />
		<tag k="natural" v="cape" />
		<tag k="ssr:stedsnr" v="510830" />
	</node>
	<node id="-336060" lat="58.0398805596" lon="7.55705000405">
		<tag k="name" v="Kobbernaglen" />
		<tag k="natural" v="cape" />
		<tag k="ssr:stedsnr" v="511963" />
	</node>
	<node id="-335462" lat="58.0131111153" lon="7.61233055711">
		<tag k="name" v="Kalsnestjønna" />
		<tag k="natural" v="water" />
		<tag k="ssr:stedsnr" v="207278" />
	</node>
	<node id="-335972" lat="58.0720888894" lon="7.6114249919">
		<tag k="name" v="Vaet" />
		<tag k="place" v="locality" />
		<tag k="ssr:stedsnr" v="510804" />
	</node>
	<node id="-335886" lat="58.041874996" lon="7.58315000498">
		<tag k="alt_name" v="Lonan" />
		<tag k="name" v="Lona" />
		<tag k="natural" v="bay" />
		<tag k="ssr:stedsnr" v="485988" />
	</node>
	<node id="-336600" lat="58.0548305581" lon="7.41742222213">
		<tag k="name" v="Rodevannstjønna" />
		<tag k="natural" v="water" />
		<tag k="ssr:stedsnr" v="693152" />
	</node>
	<node id="-336229" lat="58.0329055571" lon="7.36609999545">
		<tag k="name" v="Uvannet" />
		<tag k="natural" v="water" />
		<tag k="ssr:stedsnr" v="571829" />
		<tag k="water" v="lake" />
	</node>
	<node id="-334427" lat="58.0280083331" lon="7.39986944885">
		<tag k="name" v="Sandvika" />
		<tag k="natural" v="bay" />
		<tag k="ssr:stedsnr" v="329828" />
	</node>
	<node id="-334436" lat="58.0580083301" lon="7.57663333341">
		<tag k="name" v="Båtodden" />
		<tag k="natural" v="cape" />
		<tag k="ssr:stedsnr" v="330522" />
	</node>
	<node id="-334934" lat="58.0351000004" lon="7.64850554815">
		<tag k="name" v="Ramsetjønn" />
		<tag k="natural" v="water" />
		<tag k="ssr:stedsnr" v="26625" />
	</node>
	<node id="-335445" lat="58.0668888844" lon="7.57502499524">
		<tag k="name" v="Krokkleivbekken" />
		<tag k="ssr:stedsnr" v="206960" />
		<tag k="waterway" v="stream" />
	</node>
	<node id="-335444" lat="58.0424611131" lon="7.58861665892">
		<tag k="name" v="Auremed" />
		<tag k="natural" v="bay" />
		<tag k="ssr:stedsnr" v="206959" />
	</node>
	<node id="-334931" lat="58.0469166655" lon="7.52681111024">
		<tag k="name" v="Teinela" />
		<tag k="natural" v="bay" />
		<tag k="ssr:stedsnr" v="26502" />
	</node>
	<node id="-334928" lat="58.0577138893" lon="7.53031111042">
		<tag k="name" v="Ramsodden" />
		<tag k="natural" v="cape" />
		<tag k="ssr:stedsnr" v="26494" />
	</node>
	<node id="-334927" lat="58.0289750008" lon="7.56471667215">
		<tag k="name" v="Slåteodden" />
		<tag k="natural" v="cape" />
		<tag k="ssr:stedsnr" v="26492" />
	</node>
	<node id="-334414" lat="58.0259666702" lon="7.60320278261">
		<tag k="name" v="Teinelabekken" />
		<tag k="ssr:stedsnr" v="329322" />
		<tag k="waterway" v="stream" />
	</node>
	<node id="-334527" lat="58.1139611092" lon="7.4442166596">
		<tag k="name" v="Svoltjønna" />
		<tag k="natural" v="water" />
		<tag k="ssr:stedsnr" v="388656" />
	</node>
	<node id="-334921" lat="58.0241611112" lon="7.61459721888">
		<tag k="name" v="Randelsvikbekken" />
		<tag k="ssr:stedsnr" v="26354" />
		<tag k="waterway" v="stream" />
	</node>
	<node id="-335943" lat="58.109477774" lon="7.49478334075">
		<tag k="name" v="Slåttetjønn" />
		<tag k="natural" v="water" />
		<tag k="ssr:stedsnr" v="510505" />
	</node>
	<node id="-336454" lat="58.0285805564" lon="7.3764305636">
		<tag k="name" v="Kvernhustjønna" />
		<tag k="natural" v="water" />
		<tag k="ssr:stedsnr" v="632840" />
	</node>
	<node id="-335428" lat="58.0452666636" lon="7.39045278201">
		<tag k="name" v="Fiskebekk" />
		<tag k="ssr:stedsnr" v="206771" />
		<tag k="waterway" v="stream" />
	</node>
	<node id="-336328" lat="58.0483416702" lon="7.3750583342">
		<tag k="name" v="Røllandstjønna" />
		<tag k="natural" v="water" />
		<tag k="ssr:stedsnr" v="630790" />
	</node>
	<node id="-335425" lat="58.0793333304" lon="7.636436119">
		<tag k="name" v="Eskedalstjønn" />
		<tag k="natural" v="water" />
		<tag k="ssr:stedsnr" v="206758" />
	</node>
	<node id="-336448" lat="58.0313833364" lon="7.36063888538">
		<tag k="name" v="Torvmyrstjønna" />
		<tag k="natural" v="water" />
		<tag k="ssr:stedsnr" v="632783" />
	</node>
	<node id="-335422" lat="58.0904388885" lon="7.42876388929">
		<tag k="name" v="Nesetjønna" />
		<tag k="natural" v="bay" />
		<tag k="ssr:stedsnr" v="206726" />
	</node>
	<node id="-335419" lat="58.0986305516" lon="7.43520833375">
		<tag k="name" v="Neverkilen" />
		<tag k="natural" v="bay" />
		<tag k="ssr:stedsnr" v="206694" />
	</node>
	<node id="-334906" lat="58.0195444486" lon="7.42007221926">
		<tag k="name" v="Langestranda" />
		<tag k="natural" v="beach" />
		<tag k="ssr:stedsnr" v="26187" />
	</node>
	<node id="-334260" lat="58.1512083372" lon="7.51634444117">
		<tag k="alt_name" v="Gåsevannet" />
		<tag k="name" v="Gåsevatnet" />
		<tag k="natural" v="water" />
		<tag k="ssr:stedsnr" v="303765" />
	</node>
	<node id="-336949" lat="58.1182888932" lon="7.52912777093">
		<tag k="name" v="Grimefossen" />
		<tag k="natural" v="waterfall" />
		<tag k="ssr:stedsnr" v="813848" />
	</node>
	<node id="-337144" lat="58.0760416631" lon="7.59854445147">
		<tag k="name" v="Kjerreneset" />
		<tag k="natural" v="cape" />
		<tag k="ssr:stedsnr" v="874985" />
	</node>
	<node id="-336563" lat="58.096916666" lon="7.61743055104">
		<tag k="name" v="Byttingsholmen" />
		<tag k="natural" v="cape" />
		<tag k="ssr:stedsnr" v="692772" />
	</node>
	<node id="-335405" lat="58.1438805524" lon="7.47035278537">
		<tag k="name" v="Fiddingsvann" />
		<tag k="natural" v="water" />
		<tag k="ssr:stedsnr" v="206444" />
	</node>
	<node id="-335403" lat="58.0194555573" lon="7.55456111151">
		<tag k="name" v="Skottetjønna" />
		<tag k="natural" v="water" />
		<tag k="ssr:stedsnr" v="206370" />
	</node>
	<node id="-334890" lat="58.0448861122" lon="7.57428889054">
		<tag k="name" v="Ekornstangen" />
		<tag k="natural" v="cape" />
		<tag k="ssr:stedsnr" v="25268" />
	</node>
	<node id="-335913" lat="58.0581861072" lon="7.3710861134">
		<tag k="name" v="Støodden" />
		<tag k="natural" v="cape" />
		<tag k="ssr:stedsnr" v="509778" />
	</node>
	<node id="-334888" lat="58.0550333371" lon="7.52565000386">
		<tag k="name" v="Nesan" />
		<tag k="natural" v="cape" />
		<tag k="ssr:stedsnr" v="25245" />
	</node>
	<node id="-335911" lat="58.1086055564" lon="7.44014999797">
		<tag k="name" v="Smelitjønna" />
		<tag k="natural" v="water" />
		<tag k="ssr:stedsnr" v="509671" />
	</node>
	<node id="-336418" lat="58.0628805577" lon="7.44324444689">
		<tag k="name" v="Dåletjønna" />
		<tag k="natural" v="water" />
		<tag k="ssr:stedsnr" v="632190" />
	</node>
	<node id="-336417" lat="58.0743222236" lon="7.41965554838">
		<tag k="name" v="Yttervannet" />
		<tag k="natural" v="bay" />
		<tag k="ssr:stedsnr" v="632188" />
	</node>
	<node id="-334880" lat="58.0791194455" lon="7.59954444375">
		<tag k="name" v="Storbekken" />
		<tag k="ssr:stedsnr" v="24995" />
		<tag k="waterway" v="stream" />
	</node>
	<node id="-337328" lat="58.0748250001" lon="7.62143055208">
		<tag k="name" v="Gåsemyrtjønnan" />
		<tag k="natural" v="water" />
		<tag k="ssr:stedsnr" v="935953" />
	</node>
	<node id="-334366" lat="58.0738000033" lon="7.59490000709">
		<tag k="name" v="Liodden" />
		<tag k="natural" v="cape" />
		<tag k="ssr:stedsnr" v="328945" />
	</node>
	<node id="-337157" lat="58.0720777793" lon="7.45952499773">
		<tag k="name" v="Tjønna" />
		<tag k="natural" v="water" />
		<tag k="ssr:stedsnr" v="875169" />
	</node>
	<node id="-336376" lat="58.0984111135" lon="7.61214166231">
		<tag k="name" v="Tvillingholman" />
		<tag k="place" v="islet" />
		<tag k="ssr:stedsnr" v="631809" />
	</node>
	<node id="-335535" lat="58.0978916684" lon="7.58919167257">
		<tag k="alt_name" v="Krogevannet" />
		<tag k="name" v="Krokvatnet" />
		<tag k="natural" v="water" />
		<tag k="ssr:stedsnr" v="243812" />
	</node>
	<node id="-334870" lat="58.1270361081" lon="7.53470278558">
		<tag k="name" v="Mikkelshola" />
		<tag k="natural" v="bay" />
		<tag k="ssr:stedsnr" v="24930" />
	</node>
	<node id="-334347" lat="58.0737305562" lon="7.63052222208">
		<tag k="name" v="Mortenkrotjønn" />
		<tag k="natural" v="water" />
		<tag k="ssr:stedsnr" v="328752" />
	</node>
	<node id="-334903" lat="58.0615416707" lon="7.4192388887">
		<tag k="name" v="Bjørkelundbekken" />
		<tag k="ssr:stedsnr" v="26161" />
		<tag k="waterway" v="stream" />
	</node>
	<node id="-337155" lat="58.0597333291" lon="7.46099723083">
		<tag k="name" v="Lille Haddelandstjønna" />
		<tag k="natural" v="water" />
		<tag k="ssr:stedsnr" v="875152" />
	</node>
	<node id="-334864" lat="58.1485472192" lon="7.55103332819">
		<tag k="name" v="Skarprøyshølen" />
		<tag k="place" v="locality" />
		<tag k="ssr:stedsnr" v="24890" />
	</node>
	<node id="-336398" lat="58.0006500033" lon="7.51391666867">
		<tag k="name" v="Østre Tjønna" />
		<tag k="natural" v="water" />
		<tag k="ssr:stedsnr" v="632029" />
	</node>
	<node id="-337069" lat="58.1494194419" lon="7.52024166025">
		<tag k="name" v="Osebekken" />
		<tag k="ssr:stedsnr" v="873895" />
		<tag k="waterway" v="stream" />
	</node>
	<node id="-335371" lat="58.0580305584" lon="7.46398889069">
		<tag k="alt_name" v="Hålandstjønna" />
		<tag k="name" v="Hålandstjørna" />
		<tag k="natural" v="water" />
		<tag k="ssr:stedsnr" v="182894" />
	</node>
	<node id="-334346" lat="58.0565972254" lon="7.36886111457">
		<tag k="name" v="Fasselandsvatnet" />
		<tag k="natural" v="water" />
		<tag k="ssr:stedsnr" v="328744" />
		<tag k="water" v="lake" />
	</node>
	<node id="-335447" lat="58.0673083317" lon="7.59038333612">
		<tag k="name" v="Galtholmen" />
		<tag k="place" v="islet" />
		<tag k="ssr:stedsnr" v="206966" />
	</node>
	<node id="-335368" lat="58.1183416645" lon="7.46282500759">
		<tag k="alt_name" v="Holbekkstjønn" />
		<tag k="name" v="Holbekktjørna" />
		<tag k="natural" v="water" />
		<tag k="ssr:stedsnr" v="182854" />
	</node>
	<node id="-334854" lat="58.0585166711" lon="7.39118333422">
		<tag k="name" v="Lammetjønna" />
		<tag k="natural" v="water" />
		<tag k="ssr:stedsnr" v="24816" />
	</node>
	<node id="-334341" lat="58.0898944418" lon="7.63407776987">
		<tag k="name" v="Trystjønn" />
		<tag k="natural" v="water" />
		<tag k="ssr:stedsnr" v="328725" />
	</node>
</osm>
