<?xml version="1.0" encoding="UTF-8"?>
<osm generator="osmapis" version="0.6">
	<node id="-335872" lat="58.0751444468" lon="7.4698499987">
		<tag k="alt_name" v="Stiland" />
		<tag k="name" v="Stigland" />
		<tag k="place" v="farm" />
		<tag k="ssr:stedsnr" v="485926" />
	</node>
	<node id="-335871" lat="58.0728861135" lon="7.47602499914">
		<tag k="alt_name" v="Vestre Kjerr" />
		<tag k="name" v="Kjerr" />
		<tag k="place" v="farm" />
		<tag k="ssr:stedsnr" v="485925" />
	</node>
	<node id="-337406" lat="58.0453807123" lon="7.63803882587">
		<tag k="fixme" v="consider place=hamlet" />
		<tag k="name" v="Kjørvedal" />
		<tag k="place" v="farm" />
		<tag k="ssr:stedsnr" v="977786" />
	</node>
	<node id="-334333" lat="58.0188777748" lon="7.63971944241">
		<tag k="name" v="Audevika" />
		<tag k="place" v="farm" />
		<tag k="ssr:stedsnr" v="328641" />
	</node>
	<node id="-335868" lat="57.9904388888" lon="7.50925277816">
		<tag k="name" v="Valvik" />
		<tag k="place" v="hamlet" />
		<tag k="ssr:stedsnr" v="485043" />
	</node>
	<node id="-335355" lat="58.0099527802" lon="7.55788055457">
		<tag k="fixme" v="consider place=suburb, village or hamlet" />
		<tag k="name" v="Tregde" />
		<tag k="place" v="quarter" />
		<tag k="ssr:stedsnr" v="182053" />
	</node>
	<node id="-335354" lat="58.0089138872" lon="7.5147583294">
		<tag k="fixme" v="consider place=hamlet" />
		<tag k="name" v="Frivoll" />
		<tag k="place" v="farm" />
		<tag k="ssr:stedsnr" v="182051" />
	</node>
	<node id="-337407" lat="58.0444042336" lon="7.6493250679">
		<tag k="fixme" v="consider place=hamlet" />
		<tag k="name" v="Vestre Eid" />
		<tag k="place" v="farm" />
		<tag k="ssr:stedsnr" v="977787" />
	</node>
	<node id="-334325" lat="58.1061805571" lon="7.5009722177">
		<tag k="name" v="Almelia" />
		<tag k="place" v="farm" />
		<tag k="ssr:stedsnr" v="328467" />
	</node>
	<node id="-335348" lat="58.0290444426" lon="7.66243888114">
		<tag k="name" v="Fuviga" />
		<tag k="place" v="farm" />
		<tag k="ssr:stedsnr" v="176479" />
	</node>
	<node id="-336382" lat="58.1248805547" lon="7.52536944293">
		<tag k="name" v="Bakken" />
		<tag k="place" v="farm" />
		<tag k="ssr:stedsnr" v="631933" />
	</node>
	<node id="-337235" lat="58.0546055517" lon="7.63948056329">
		<tag k="fixme" v="consider place=hamlet" />
		<tag k="name" v="Røyseland" />
		<tag k="place" v="farm" />
		<tag k="ssr:stedsnr" v="910990" />
	</node>
	<node id="-335853" lat="58.0287083369" lon="7.38024999162">
		<tag k="name" v="Myrvang" />
		<tag k="place" v="farm" />
		<tag k="ssr:stedsnr" v="451886" />
	</node>
	<node id="-336876" lat="57.9853166676" lon="7.53221388351">
		<tag k="name" v="Ytre Farestad" />
		<tag k="place" v="hamlet" />
		<tag k="ssr:stedsnr" v="813087" />
	</node>
	<node id="-337234" lat="58.0346666636" lon="7.34768888497">
		<tag k="alt_name" v="Myra" />
		<tag k="name" v="Nygård" />
		<tag k="place" v="farm" />
		<tag k="ssr:stedsnr" v="910976" />
	</node>
	<node id="-337423" lat="58.0460844782" lon="7.43414114166">
		<tag k="fixme" v="consider place=hamlet" />
		<tag k="name" v="Rugland" />
		<tag k="place" v="farm" />
		<tag k="ssr:stedsnr" v="977823" />
	</node>
	<node id="-337381" lat="58.036547221" lon="7.37693333906">
		<tag k="name" v="Bongstø" />
		<tag k="place" v="farm" />
		<tag k="ssr:stedsnr" v="936826" />
	</node>
	<node id="-336866" lat="58.0355138919" lon="7.50189444518">
		<tag k="name" v="Øvre Ime" />
		<tag k="place" v="farm" />
		<tag k="ssr:stedsnr" v="789975" />
	</node>
	<node id="-336865" lat="58.0277194426" lon="7.43810555911">
		<tag k="name" v="Vestnes" />
		<tag k="place" v="suburb" />
		<tag k="ssr:stedsnr" v="789957" />
	</node>
	<node id="-334304" lat="58.0553666635" lon="7.39279722539">
		<tag k="name" v="Frostestad mølle" />
		<tag k="place" v="locality" />
		<tag k="ssr:stedsnr" v="327764" />
	</node>
	<node id="-337232" lat="58.0220226753" lon="7.4765200253">
		<tag k="fixme" v="consider place=suburb, village or hamlet" />
		<tag k="name" v="Kleven" />
		<tag k="place" v="quarter" />
		<tag k="ssr:stedsnr" v="910962" />
	</node>
	<node id="-336862" lat="58.0554083379" lon="7.43566667292">
		<tag k="fixme" v="consider place=hamlet" />
		<tag k="name" v="Rosseland" />
		<tag k="place" v="farm" />
		<tag k="ssr:stedsnr" v="789883" />
	</node>
	<node id="-336861" lat="58.0471138883" lon="7.49942500442">
		<tag k="fixme" v="consider place=hamlet" />
		<tag k="name" v="Vik" />
		<tag k="place" v="farm" />
		<tag k="ssr:stedsnr" v="789878" />
	</node>
	<node id="-336859" lat="58.1057861147" lon="7.52395000533">
		<tag k="fixme" v="consider place=hamlet" />
		<tag k="name" v="Bakken" />
		<tag k="place" v="farm" />
		<tag k="ssr:stedsnr" v="789857" />
	</node>
	<node id="-336858" lat="58.1059499969" lon="7.5277000009">
		<tag k="fixme" v="consider place=hamlet" />
		<tag k="name" v="Slettan" />
		<tag k="place" v="farm" />
		<tag k="ssr:stedsnr" v="789856" />
	</node>
	<node id="-336857" lat="58.1286361146" lon="7.53609999813">
		<tag k="name" v="Nøding" />
		<tag k="place" v="farm" />
		<tag k="ssr:stedsnr" v="789760" />
	</node>
	<node id="-337368" lat="58.0365805582" lon="7.51986388346">
		<tag k="name" v="Østre Berge" />
		<tag k="place" v="farm" />
		<tag k="ssr:stedsnr" v="936453" />
	</node>
	<node id="-334805" lat="58.0188638877" lon="7.54273056162">
		<tag k="name" v="Lille Fidja" />
		<tag k="place" v="farm" />
		<tag k="ssr:stedsnr" v="24376" />
	</node>
	<node id="-336852" lat="58.0751249991" lon="7.51993055898">
		<tag k="fixme" v="consider place=hamlet" />
		<tag k="name" v="Lindland" />
		<tag k="place" v="farm" />
		<tag k="ssr:stedsnr" v="788917" />
	</node>
	<node id="-335182" lat="58.0559944434" lon="7.62710278314">
		<tag k="fixme" v="multiple name tags, choose one and add the other to alt_name; consider place=hamlet" />
		<tag k="name" v="Ormestrengen;Ormestreng" />
		<tag k="place" v="farm" />
		<tag k="ssr:stedsnr" v="121993" />
	</node>
	<node id="-337226" lat="58.1014249991" lon="7.53057776985">
		<tag k="name" v="Vådne" />
		<tag k="place" v="farm" />
		<tag k="ssr:stedsnr" v="910861" />
	</node>
	<node id="-336925" lat="58.1234499977" lon="7.52807778421">
		<tag k="alt_name" v="Prestegården" />
		<tag k="name" v="Prestegarden" />
		<tag k="place" v="farm" />
		<tag k="ssr:stedsnr" v="813699" />
	</node>
	<node id="-335693" lat="58.0656194435" lon="7.44081665872">
		<tag k="fixme" v="consider place=hamlet" />
		<tag k="name" v="Skadberg" />
		<tag k="place" v="farm" />
		<tag k="ssr:stedsnr" v="425906" />
	</node>
	<node id="-336844" lat="58.124277775" lon="7.52667500389">
		<tag k="name" v="Moen" />
		<tag k="place" v="farm" />
		<tag k="ssr:stedsnr" v="782928" />
	</node>
	<node id="-335960" lat="58.0147916704" lon="7.44019721588">
		<tag k="fixme" v="consider natural=beach + surface=sand" />
		<tag k="leisure" v="swimming_area" />
		<tag k="name" v="Stumpestrendene" />
		<tag k="place" v="locality" />
		<tag k="ssr:stedsnr" v="510761" />
	</node>
	<node id="-334279" lat="58.09620278" lon="7.52496389464">
		<tag k="fixme" v="consider place=hamlet" />
		<tag k="name" v="Krossen" />
		<tag k="place" v="village" />
		<tag k="ssr:stedsnr" v="304861" />
	</node>
	<node id="-337433" lat="58.0965874284" lon="7.4899653682">
		<tag k="fixme" v="consider place=hamlet" />
		<tag k="name" v="Ytre Li" />
		<tag k="place" v="farm" />
		<tag k="ssr:stedsnr" v="977854" />
	</node>
	<node id="-334276" lat="58.0372416673" lon="7.45583055895">
		<tag k="name" v="Frøysland" />
		<tag k="place" v="village" />
		<tag k="ssr:stedsnr" v="303995" />
	</node>
	<node id="-334275" lat="58.0420833311" lon="7.49497500471">
		<tag k="fixme" v="consider place=hamlet" />
		<tag k="name" v="Sandnes" />
		<tag k="place" v="farm" />
		<tag k="ssr:stedsnr" v="303991" />
	</node>
	<node id="-337227" lat="58.0464555521" lon="7.53425556148">
		<tag k="fixme" v="consider place=hamlet" />
		<tag k="name" v="Aurebekk" />
		<tag k="place" v="farm" />
		<tag k="ssr:stedsnr" v="910888" />
	</node>
	<node id="-336320" lat="58.0746166658" lon="7.49931666586">
		<tag k="name" v="Haven" />
		<tag k="place" v="farm" />
		<tag k="ssr:stedsnr" v="630617" />
	</node>
	<node id="-336032" lat="58.0878944476" lon="7.62655833153">
		<tag k="name" v="Suvatne" />
		<tag k="place" v="farm" />
		<tag k="ssr:stedsnr" v="511455" />
	</node>
	<node id="-334782" lat="58.0476805572" lon="7.58478889377">
		<tag k="fixme" v="consider place=hamlet" />
		<tag k="name" v="Skeie" />
		<tag k="place" v="farm" />
		<tag k="ssr:stedsnr" v="994" />
	</node>
	<node id="-334781" lat="58.0179722255" lon="7.35400277039">
		<tag k="fixme" v="consider place=hamlet" />
		<tag k="name" v="Hillesund" />
		<tag k="place" v="village" />
		<tag k="ssr:stedsnr" v="973" />
	</node>
	<node id="-334268" lat="58.0189138896" lon="7.53506389371">
		<tag k="alt_name" v="Tofte" />
		<tag k="fixme" v="consider place=hamlet" />
		<tag k="name" v="Tufte" />
		<tag k="place" v="farm" />
		<tag k="ssr:stedsnr" v="303950" />
	</node>
	<node id="-334267" lat="58.0771750036" lon="7.44115000226">
		<tag k="name" v="Jordet" />
		<tag k="place" v="farm" />
		<tag k="ssr:stedsnr" v="303930" />
	</node>
	<node id="-334266" lat="58.0639500009" lon="7.42171666389">
		<tag k="alt_name" v="Skjerpta" />
		<tag k="name" v="Skjerpla" />
		<tag k="place" v="farm" />
		<tag k="ssr:stedsnr" v="303907" />
	</node>
	<node id="-334777" lat="58.0129027767" lon="7.50882499553">
		<tag k="alt_name" v="Homsvik" />
		<tag k="fixme" v="consider place=hamlet" />
		<tag k="name" v="Homsvika" />
		<tag k="place" v="farm" />
		<tag k="ssr:stedsnr" v="950" />
	</node>
	<node id="-334776" lat="58.0171746057" lon="7.42993913473">
		<tag k="fixme" v="consider natural=beach + surface=sand" />
		<tag k="leisure" v="swimming_area" />
		<tag k="name" v="Banken" />
		<tag k="place" v="locality" />
		<tag k="ssr:stedsnr" v="949" />
	</node>
	<node id="-336823" lat="58.0370611075" lon="7.36909722132">
		<tag k="name" v="Langåkeren" />
		<tag k="place" v="farm" />
		<tag k="ssr:stedsnr" v="754846" />
	</node>
	<node id="-334262" lat="58.1136750044" lon="7.4714027695">
		<tag k="fixme" v="consider place=hamlet" />
		<tag k="name" v="Aurebekk" />
		<tag k="place" v="farm" />
		<tag k="ssr:stedsnr" v="303866" />
	</node>
	<node id="-334773" lat="58.0665916693" lon="7.47964999938">
		<tag k="alt_name" v="Haddeland" />
		<tag k="fixme" v="consider place=hamlet" />
		<tag k="name" v="Helland" />
		<tag k="place" v="farm" />
		<tag k="ssr:stedsnr" v="914" />
	</node>
	<node id="-334772" lat="58.058541664" lon="7.44736110968">
		<tag k="name" v="Løkke" />
		<tag k="place" v="farm" />
		<tag k="ssr:stedsnr" v="903" />
	</node>
	<node id="-334771" lat="58.0627749994" lon="7.57481389722">
		<tag k="name" v="Skagestad" />
		<tag k="place" v="farm" />
		<tag k="ssr:stedsnr" v="893" />
	</node>
	<node id="-334770" lat="58.0547611092" lon="7.42410555309">
		<tag k="name" v="Hesland" />
		<tag k="place" v="farm" />
		<tag k="ssr:stedsnr" v="881" />
	</node>
	<node id="-334768" lat="58.0936222189" lon="7.41161945224">
		<tag k="fixme" v="consider place=hamlet" />
		<tag k="name" v="Møgland" />
		<tag k="place" v="farm" />
		<tag k="ssr:stedsnr" v="834" />
	</node>
	<node id="-335878" lat="58.0383138919" lon="7.37147499827">
		<tag k="name" v="Hoggandvik" />
		<tag k="place" v="farm" />
		<tag k="ssr:stedsnr" v="485683" />
	</node>
	<node id="-336299" lat="58.0882027764" lon="7.44065000089">
		<tag k="alt_name" v="Kolstad" />
		<tag k="fixme" v="consider place=hamlet" />
		<tag k="name" v="Kollstad" />
		<tag k="place" v="farm" />
		<tag k="ssr:stedsnr" v="607812" />
	</node>
	<node id="-336298" lat="58.0855611128" lon="7.41358888551">
		<tag k="fixme" v="consider place=hamlet" />
		<tag k="name" v="Vrå" />
		<tag k="place" v="farm" />
		<tag k="ssr:stedsnr" v="607806" />
	</node>
	<node id="-334249" lat="57.9834749981" lon="7.53315000661">
		<tag k="name" v="Stølen" />
		<tag k="place" v="farm" />
		<tag k="ssr:stedsnr" v="303038" />
	</node>
	<node id="-336296" lat="58.0455444455" lon="7.60457778085">
		<tag k="name" v="Harkmark" />
		<tag k="place" v="hamlet" />
		<tag k="ssr:stedsnr" v="606976" />
	</node>
	<node id="-336295" lat="58.0218555531" lon="7.63461389053">
		<tag k="name" v="Dammen" />
		<tag k="place" v="farm" />
		<tag k="ssr:stedsnr" v="606951" />
	</node>
	<node id="-336293" lat="58.0118388917" lon="7.5298888868">
		<tag k="fixme" v="consider place=hamlet" />
		<tag k="name" v="Kige" />
		<tag k="place" v="farm" />
		<tag k="ssr:stedsnr" v="606941" />
	</node>
	<node id="-335267" lat="58.0895055555" lon="7.51261110684">
		<tag k="name" v="Sudermonen" />
		<tag k="place" v="farm" />
		<tag k="ssr:stedsnr" v="145951" />
	</node>
	<node id="-336290" lat="58.0749999955" lon="7.4755055475">
		<tag k="alt_name" v="Ytre Laustø" />
		<tag k="fixme" v="multiple name tags, choose one and add the other to alt_name; consider place=hamlet" />
		<tag k="name" v="Lauvstøl;Ytre Lauvstø" />
		<tag k="place" v="farm" />
		<tag k="ssr:stedsnr" v="606917" />
	</node>
	<node id="-336289" lat="58.0611916676" lon="7.39801110687">
		<tag k="alt_name" v="Rosshaven" />
		<tag k="fixme" v="consider place=hamlet" />
		<tag k="name" v="Rosshagen" />
		<tag k="place" v="farm" />
		<tag k="ssr:stedsnr" v="606894" />
	</node>
	<node id="-336287" lat="58.1416999991" lon="7.47932499159">
		<tag k="fixme" v="consider place=hamlet" />
		<tag k="name" v="Eikeland" />
		<tag k="place" v="farm" />
		<tag k="ssr:stedsnr" v="606742" />
	</node>
	<node id="-336285" lat="58.0192194464" lon="7.66108334132">
		<tag k="name" v="Tånes" />
		<tag k="place" v="farm" />
		<tag k="ssr:stedsnr" v="606073" />
	</node>
	<node id="-335770" lat="58.0776222254" lon="7.60778611536">
		<tag k="name" v="Austre Vatne" />
		<tag k="place" v="hamlet" />
		<tag k="ssr:stedsnr" v="449921" />
	</node>
	<node id="-336508" lat="58.0886916661" lon="7.50850832858">
		<tag k="alt_name" v="Kaddeland" />
		<tag k="name" v="Kalland" />
		<tag k="place" v="farm" />
		<tag k="ssr:stedsnr" v="668828" />
	</node>
	<node id="-336275" lat="58.0477361153" lon="7.41212221696">
		<tag k="fixme" v="consider place=hamlet" />
		<tag k="name" v="Vestre Skogsfjord" />
		<tag k="place" v="village" />
		<tag k="ssr:stedsnr" v="606874" />
	</node>
	<node id="-336274" lat="58.0468722208" lon="7.43511667431">
		<tag k="fixme" v="consider place=hamlet" />
		<tag k="name" v="Rugland" />
		<tag k="place" v="village" />
		<tag k="ssr:stedsnr" v="606872" />
	</node>
	<node id="-337219" lat="57.9907527816" lon="7.59370000482">
		<tag k="name" v="Landøy" />
		<tag k="place" v="hamlet" />
		<tag k="ssr:stedsnr" v="910063" />
	</node>
	<node id="-337411" lat="57.9906826232" lon="7.59327272466">
		<tag k="fixme" v="consider place=hamlet" />
		<tag k="name" v="Landøy" />
		<tag k="place" v="farm" />
		<tag k="ssr:stedsnr" v="977795" />
	</node>
	<node id="-335982" lat="58.1083111146" lon="7.54800832904">
		<tag k="name" v="Myran" />
		<tag k="place" v="farm" />
		<tag k="ssr:stedsnr" v="510900" />
	</node>
	<node id="-337428" lat="58.0198479501" lon="7.41473881021">
		<tag k="fixme" v="consider place=hamlet" />
		<tag k="name" v="Sånum" />
		<tag k="place" v="farm" />
		<tag k="ssr:stedsnr" v="977833" />
	</node>
	<node id="-336488" lat="58.1402083309" lon="7.53878610385">
		<tag k="fixme" v="consider place=hamlet" />
		<tag k="name" v="Holmesland" />
		<tag k="place" v="farm" />
		<tag k="ssr:stedsnr" v="667704" />
	</node>
	<node id="-336106" lat="58.0314638865" lon="7.5111166649">
		<tag k="fixme" v="consider place=hamlet" />
		<tag k="name" v="Jåbekk" />
		<tag k="place" v="farm" />
		<tag k="ssr:stedsnr" v="546962" />
	</node>
	<node id="-335225" lat="58.0722638872" lon="7.48041389277">
		<tag k="name" v="Østre Kjerr" />
		<tag k="place" v="farm" />
		<tag k="ssr:stedsnr" v="145667" />
	</node>
	<node id="-337412" lat="57.9863852534" lon="7.53562810498">
		<tag k="fixme" v="consider place=hamlet" />
		<tag k="name" v="Rosnes" />
		<tag k="place" v="farm" />
		<tag k="ssr:stedsnr" v="977799" />
	</node>
	<node id="-337214" lat="58.024422226" lon="7.46237777726">
		<tag k="name" v="Sande" />
		<tag k="place" v="suburb" />
		<tag k="ssr:stedsnr" v="905126" />
	</node>
	<node id="-336752" lat="58.0482805575" lon="7.37321389559">
		<tag k="name" v="Bjorneset" />
		<tag k="place" v="farm" />
		<tag k="ssr:stedsnr" v="752817" />
	</node>
	<node id="-336750" lat="58.0610749995" lon="7.39339999904">
		<tag k="name" v="Heimatt" />
		<tag k="place" v="farm" />
		<tag k="ssr:stedsnr" v="752813" />
	</node>
	<node id="-335725" lat="58.0891305545" lon="7.5156722151">
		<tag k="name" v="Hovmonen" />
		<tag k="place" v="farm" />
		<tag k="ssr:stedsnr" v="449490" />
	</node>
	<node id="-337258" lat="58.0440972225" lon="7.38904721391">
		<tag k="name" v="Øygarden" />
		<tag k="place" v="locality" />
		<tag k="ssr:stedsnr" v="934745" />
	</node>
	<node id="-336103" lat="58.0256083365" lon="7.38661666362">
		<tag k="alt_name" v="Nodeland" />
		<tag k="fixme" v="consider place=hamlet" />
		<tag k="name" v="Nådeland" />
		<tag k="place" v="farm" />
		<tag k="ssr:stedsnr" v="546942" />
	</node>
	<node id="-337427" lat="58.0326058081" lon="7.42362858453">
		<tag k="fixme" v="consider place=hamlet" />
		<tag k="name" v="Skjeipstad" />
		<tag k="place" v="farm" />
		<tag k="ssr:stedsnr" v="977831" />
	</node>
	<node id="-337252" lat="58.0725888903" lon="7.4917583321">
		<tag k="name" v="Nedre Undal" />
		<tag k="place" v="farm" />
		<tag k="ssr:stedsnr" v="934644" />
	</node>
	<node id="-336226" lat="58.0358861139" lon="7.44868054704">
		<tag k="name" v="Hald" />
		<tag k="ssr:stedsnr" v="571734" />
		<tag k="tourism" v="hotel" />
	</node>
	<node id="-337249" lat="58.0235277752" lon="7.6548194448">
		<tag k="name" v="Fladen" />
		<tag k="place" v="farm" />
		<tag k="ssr:stedsnr" v="934571" />
	</node>
	<node id="-336489" lat="58.1307277798" lon="7.52988055776">
		<tag k="alt_name" v="Smeland" />
		<tag k="fixme" v="consider place=hamlet" />
		<tag k="name" v="Smedland" />
		<tag k="place" v="farm" />
		<tag k="ssr:stedsnr" v="667716" />
	</node>
	<node id="-337243" lat="58.0163083322" lon="7.53886389026">
		<tag k="name" v="Tjømdalen" />
		<tag k="place" v="farm" />
		<tag k="ssr:stedsnr" v="934355" />
	</node>
	<node id="-335703" lat="58.1038249984" lon="7.53068056374">
		<tag k="name" v="Vådnebakken" />
		<tag k="place" v="farm" />
		<tag k="ssr:stedsnr" v="448586" />
	</node>
	<node id="-335702" lat="58.0386388897" lon="7.42915555209">
		<tag k="name" v="Mones" />
		<tag k="place" v="isolated_dwelling" />
		<tag k="ssr:stedsnr" v="425985" />
	</node>
	<node id="-335701" lat="58.0444222178" lon="7.54730832596">
		<tag k="alt_name" v="Håland østre" />
		<tag k="fixme" v="consider place=hamlet" />
		<tag k="name" v="Håland" />
		<tag k="place" v="farm" />
		<tag k="ssr:stedsnr" v="425975" />
	</node>
	<node id="-335699" lat="58.0203916645" lon="7.49029166566">
		<tag k="alt_name" v="Regevik" />
		<tag k="name" v="Rekevik" />
		<tag k="place" v="farm" />
		<tag k="ssr:stedsnr" v="425963" />
	</node>
	<node id="-335698" lat="58.023236111" lon="7.3988833311">
		<tag k="alt_name" v="Tuftenes" />
		<tag k="name" v="Toftenes" />
		<tag k="place" v="hamlet" />
		<tag k="ssr:stedsnr" v="425949" />
	</node>
	<node id="-335697" lat="58.0166694435" lon="7.39894722047">
		<tag k="fixme" v="consider place=hamlet" />
		<tag k="name" v="Lande" />
		<tag k="place" v="farm" />
		<tag k="ssr:stedsnr" v="425935" />
	</node>
	<node id="-335184" lat="58.0565805518" lon="7.57068611688">
		<tag k="fixme" v="consider place=hamlet" />
		<tag k="name" v="Valand" />
		<tag k="place" v="farm" />
		<tag k="ssr:stedsnr" v="121998" />
	</node>
	<node id="-337231" lat="58.0801472191" lon="7.52026388283">
		<tag k="alt_name" v="Møll, yt" />
		<tag k="fixme" v="consider place=hamlet" />
		<tag k="name" v="Ytre Møll" />
		<tag k="place" v="farm" />
		<tag k="ssr:stedsnr" v="910929" />
	</node>
	<node id="-335694" lat="58.0630416687" lon="7.43274166028">
		<tag k="fixme" v="consider place=hamlet" />
		<tag k="name" v="Lia" />
		<tag k="place" v="farm" />
		<tag k="ssr:stedsnr" v="425907" />
	</node>
	<node id="-335181" lat="58.0459083295" lon="7.63429444018">
		<tag k="fixme" v="consider place=hamlet" />
		<tag k="name" v="Lian" />
		<tag k="place" v="farm" />
		<tag k="ssr:stedsnr" v="121987" />
	</node>
	<node id="-337228" lat="58.0607583378" lon="7.53566111889">
		<tag k="fixme" v="consider place=hamlet" />
		<tag k="name" v="Vatnedal" />
		<tag k="place" v="farm" />
		<tag k="ssr:stedsnr" v="910898" />
	</node>
	<node id="-335179" lat="58.0336305542" lon="7.47711110681">
		<tag k="building" v="industrial" />
		<tag k="name" v="Buøya" />
		<tag k="ssr:stedsnr" v="121976" />
	</node>
	<node id="-335690" lat="58.0514166664" lon="7.49837500467">
		<tag k="alt_name" v="Nyvollshaven" />
		<tag k="fixme" v="consider place=hamlet" />
		<tag k="name" v="Nyvoll" />
		<tag k="place" v="farm" />
		<tag k="ssr:stedsnr" v="425881" />
	</node>
	<node id="-337225" lat="58.1059250009" lon="7.44248610439">
		<tag k="alt_name" v="Bjølland" />
		<tag k="fixme" v="consider place=hamlet" />
		<tag k="name" v="Bjelland" />
		<tag k="place" v="farm" />
		<tag k="ssr:stedsnr" v="910852" />
	</node>
	<node id="-337224" lat="58.1396055574" lon="7.5044194379">
		<tag k="alt_name" v="Kvidbergskår" />
		<tag k="fixme" v="multiple name tags, choose one and add the other to alt_name; consider place=hamlet" />
		<tag k="name" v="Kvitbergsskor;Kvitbergskår" />
		<tag k="place" v="farm" />
		<tag k="ssr:stedsnr" v="910740" />
	</node>
	<node id="-337426" lat="58.0497088274" lon="7.37650073351">
		<tag k="fixme" v="consider place=hamlet" />
		<tag k="name" v="Rødland" />
		<tag k="place" v="farm" />
		<tag k="ssr:stedsnr" v="977830" />
	</node>
	<node id="-335686" lat="58.0897749999" lon="7.46208611919">
		<tag k="name" v="Engedalen" />
		<tag k="place" v="farm" />
		<tag k="ssr:stedsnr" v="425839" />
	</node>
	<node id="-335683" lat="58.1483444437" lon="7.51271111947">
		<tag k="alt_name" v="Svinestad" />
		<tag k="fixme" v="consider place=hamlet" />
		<tag k="name" v="Svinstad" />
		<tag k="place" v="farm" />
		<tag k="ssr:stedsnr" v="425790" />
	</node>
	<node id="-335170" lat="58.103925001" lon="7.5365444438">
		<tag k="alt_name" v="Nedre Nøding" />
		<tag k="name" v="Nøding" />
		<tag k="place" v="farm" />
		<tag k="ssr:stedsnr" v="121854" />
	</node>
	<node id="-334987" lat="58.0208027762" lon="7.41346944469">
		<tag k="fixme" v="consider place=suburb, village or hamlet" />
		<tag k="name" v="Sånum" />
		<tag k="place" v="quarter" />
		<tag k="ssr:stedsnr" v="61949" />
	</node>
	<node id="-335166" lat="58.0903722178" lon="7.46981388719">
		<tag k="fixme" v="consider place=hamlet" />
		<tag k="name" v="Klepp" />
		<tag k="place" v="farm" />
		<tag k="ssr:stedsnr" v="121831" />
	</node>
	<node id="-335164" lat="58.0194111098" lon="7.64471667366">
		<tag k="name" v="Dalan" />
		<tag k="place" v="farm" />
		<tag k="ssr:stedsnr" v="121087" />
	</node>
	<node id="-335673" lat="57.9883666663" lon="7.53124443697">
		<tag k="alt_name" v="Indre Farestad" />
		<tag k="name" v="Farestad" />
		<tag k="place" v="hamlet" />
		<tag k="ssr:stedsnr" v="425034" />
	</node>
	<node id="-335159" lat="57.9939472257" lon="7.50279722303">
		<tag k="alt_name" v="Dyrestad" />
		<tag k="name" v="Dyrstad" />
		<tag k="place" v="hamlet" />
		<tag k="ssr:stedsnr" v="121045" />
	</node>
	<node id="-336687" lat="58.037522224" lon="7.62372222212">
		<tag k="fixme" v="consider place=hamlet" />
		<tag k="name" v="Frydnes" />
		<tag k="place" v="farm" />
		<tag k="ssr:stedsnr" v="728967" />
	</node>
	<node id="-336685" lat="58.0091361121" lon="7.5364638972">
		<tag k="fixme" v="consider place=hamlet" />
		<tag k="name" v="Åmland" />
		<tag k="place" v="farm" />
		<tag k="ssr:stedsnr" v="728939" />
	</node>
	<node id="-336684" lat="58.0802972246" lon="7.44756388497">
		<tag k="fixme" v="consider place=hamlet" />
		<tag k="name" v="Hageland" />
		<tag k="place" v="farm" />
		<tag k="ssr:stedsnr" v="728918" />
	</node>
	<node id="-335147" lat="58.0203027762" lon="7.40284167108">
		<tag k="name" v="Nesehaven" />
		<tag k="place" v="quarter" />
		<tag k="ssr:stedsnr" v="87812" />
	</node>
	<node id="-337408" lat="58.02266914" lon="7.57276730509">
		<tag k="fixme" v="consider place=hamlet" />
		<tag k="name" v="Kvistedal" />
		<tag k="place" v="farm" />
		<tag k="ssr:stedsnr" v="977793" />
	</node>
	<node id="-336681" lat="58.0632749974" lon="7.50329167416">
		<tag k="alt_name" v="Sodeland" />
		<tag k="fixme" v="consider place=hamlet" />
		<tag k="name" v="Sodland" />
		<tag k="place" v="farm" />
		<tag k="ssr:stedsnr" v="728888" />
	</node>
	<node id="-334631" lat="58.0992472213" lon="7.52990833554">
		<tag k="name" v="Nødbekk" />
		<tag k="place" v="farm" />
		<tag k="ssr:stedsnr" v="390908" />
	</node>
	<node id="-336677" lat="58.1167611128" lon="7.5372388916">
		<tag k="alt_name" v="Brinsdal, nedre;Nedre Bringsdal" />
		<tag k="name" v="Nedre Brinsdal" />
		<tag k="place" v="farm" />
		<tag k="ssr:stedsnr" v="728837" />
	</node>
	<node id="-336676" lat="58.1098138892" lon="7.57796111204">
		<tag k="fixme" v="consider place=hamlet" />
		<tag k="name" v="Nomedal" />
		<tag k="place" v="farm" />
		<tag k="ssr:stedsnr" v="728835" />
	</node>
	<node id="-336675" lat="58.0997805561" lon="7.56490554772">
		<tag k="fixme" v="consider place=hamlet" />
		<tag k="name" v="Røyseland" />
		<tag k="place" v="farm" />
		<tag k="ssr:stedsnr" v="728831" />
	</node>
	<node id="-334462" lat="58.0621999966" lon="7.41908611456">
		<tag k="name" v="Bjørklund" />
		<tag k="place" v="farm" />
		<tag k="ssr:stedsnr" v="364912" />
	</node>
	<node id="-336666" lat="57.9938805532" lon="7.53331943789">
		<tag k="name" v="Berge" />
		<tag k="place" v="hamlet" />
		<tag k="ssr:stedsnr" v="728037" />
	</node>
	<node id="-335174" lat="58.0787944468" lon="7.60251666813">
		<tag k="alt_name" v="Vestre Vatne" />
		<tag k="fixme" v="consider place=hamlet" />
		<tag k="name" v="Vatne" />
		<tag k="place" v="farm" />
		<tag k="ssr:stedsnr" v="121916" />
	</node>
	<node id="-336663" lat="58.0341138861" lon="7.49090556178">
		<tag k="name" v="Nedre Ime" />
		<tag k="place" v="farm" />
		<tag k="ssr:stedsnr" v="725276" />
	</node>
	<node id="-337171" lat="58.016152782" lon="7.44088889532">
		<tag k="fixme" v="consider natural=beach + surface=sand" />
		<tag k="leisure" v="swimming_area" />
		<tag k="name" v="Lordens" />
		<tag k="place" v="locality" />
		<tag k="ssr:stedsnr" v="875740" />
	</node>
	<node id="-337170" lat="58.0148416701" lon="7.43725276964">
		<tag k="fixme" v="consider natural=beach + surface=sand" />
		<tag k="leisure" v="swimming_area" />
		<tag k="name" v="Kanelstranda" />
		<tag k="place" v="locality" />
		<tag k="ssr:stedsnr" v="875738" />
	</node>
	<node id="-337169" lat="58.0169750027" lon="7.60808611384">
		<tag k="name" v="Fuglekjerr" />
		<tag k="place" v="farm" />
		<tag k="ssr:stedsnr" v="875282" />
	</node>
	<node id="-335120" lat="58.0433222252" lon="7.42135832858">
		<tag k="name" v="Mones" />
		<tag k="place" v="farm" />
		<tag k="ssr:stedsnr" v="87176" />
	</node>
	<node id="-335116" lat="58.0574111073" lon="7.44052500562">
		<tag k="leisure" v="pitch" />
		<tag k="name" v="Løkkebakken" />
		<tag k="ssr:stedsnr" v="87130" />
	</node>
	<node id="-334978" lat="58.0858583371" lon="7.52173611151">
		<tag k="alt_name" v="Møll, midtre" />
		<tag k="name" v="Midtre Møll" />
		<tag k="place" v="farm" />
		<tag k="ssr:stedsnr" v="61815" />
	</node>
	<node id="-336509" lat="57.9935527734" lon="7.54117777366">
		<tag k="name" v="Bergenes" />
		<tag k="place" v="farm" />
		<tag k="ssr:stedsnr" v="691333" />
	</node>
	<node id="-335109" lat="58.0319666698" lon="7.33970000237">
		<tag k="fixme" v="consider place=hamlet" />
		<tag k="name" v="Brattestø" />
		<tag k="place" v="farm" />
		<tag k="ssr:stedsnr" v="86875" />
	</node>
	<node id="-336683" lat="58.0702000041" lon="7.45928611755">
		<tag k="fixme" v="consider place=hamlet" />
		<tag k="name" v="Spetteland" />
		<tag k="place" v="farm" />
		<tag k="ssr:stedsnr" v="728897" />
	</node>
	<node id="-336853" lat="58.0730527797" lon="7.47153888732">
		<tag k="fixme" v="consider place=hamlet" />
		<tag k="name" v="Lian" />
		<tag k="place" v="farm" />
		<tag k="ssr:stedsnr" v="788924" />
	</node>
	<node id="-336682" lat="58.0564111147" lon="7.38726110571">
		<tag k="fixme" v="consider place=hamlet" />
		<tag k="name" v="Frostestad" />
		<tag k="place" v="farm" />
		<tag k="ssr:stedsnr" v="728895" />
	</node>
	<node id="-335605" lat="58.1201472235" lon="7.52641943947">
		<tag k="name" v="Kjølemonen" />
		<tag k="place" v="farm" />
		<tag k="ssr:stedsnr" v="267884" />
	</node>
	<node id="-336204" lat="58.0370444471" lon="7.47593889379">
		<tag k="name" v="Vang" />
		<tag k="place" v="farm" />
		<tag k="ssr:stedsnr" v="571182" />
	</node>
	<node id="-335912" lat="58.0455000009" lon="7.36799166413">
		<tag k="name" v="Nord Skogen" />
		<tag k="place" v="farm" />
		<tag k="ssr:stedsnr" v="509728" />
	</node>
	<node id="-336109" lat="58.0372333328" lon="7.51153888177">
		<tag k="fixme" v="consider place=hamlet" />
		<tag k="name" v="Berge" />
		<tag k="place" v="farm" />
		<tag k="ssr:stedsnr" v="546987" />
	</node>
	<node id="-336107" lat="58.0366111071" lon="7.42302777454">
		<tag k="fixme" v="consider place=hamlet" />
		<tag k="name" v="Valle" />
		<tag k="place" v="farm" />
		<tag k="ssr:stedsnr" v="546982" />
	</node>
	<node id="-335360" lat="58.01135" lon="7.63002500174">
		<tag k="name" v="Kåløy" />
		<tag k="place" v="farm" />
		<tag k="ssr:stedsnr" v="182060" />
	</node>
	<node id="-336679" lat="58.0442042359" lon="7.35817050821">
		<tag k="fixme" v="consider place=hamlet" />
		<tag k="name" v="Haddeland" />
		<tag k="place" v="farm" />
		<tag k="ssr:stedsnr" v="728878" />
	</node>
	<node id="-336104" lat="58.0258222203" lon="7.36259166117">
		<tag k="name" v="Hoven" />
		<tag k="place" v="farm" />
		<tag k="ssr:stedsnr" v="546951" />
	</node>
	<node id="-335591" lat="58.0561138845" lon="7.33892500804">
		<tag k="fixme" v="consider place=hamlet" />
		<tag k="name" v="Bjermundshaven" />
		<tag k="place" v="farm" />
		<tag k="ssr:stedsnr" v="267778" />
	</node>
	<node id="-336102" lat="58.0247000016" lon="7.61673056332">
		<tag k="alt_name" v="Lillestøl" />
		<tag k="name" v="Lillestølen" />
		<tag k="place" v="farm" />
		<tag k="ssr:stedsnr" v="546937" />
	</node>
	<node id="-336101" lat="58.0248833356" lon="7.55008610608">
		<tag k="fixme" v="consider place=hamlet" />
		<tag k="name" v="Ausland" />
		<tag k="place" v="farm" />
		<tag k="ssr:stedsnr" v="546934" />
	</node>
	<node id="-336100" lat="58.009311114" lon="7.35380000595">
		<tag k="fixme" v="consider place=hamlet" />
		<tag k="name" v="Hille" />
		<tag k="place" v="farm" />
		<tag k="ssr:stedsnr" v="546927" />
	</node>
	<node id="-335586" lat="58.0457805525" lon="7.37479166113">
		<tag k="name" v="Røllandstø" />
		<tag k="place" v="farm" />
		<tag k="ssr:stedsnr" v="267751" />
	</node>
	<node id="-336097" lat="58.0595555591" lon="7.47360555482">
		<tag k="name" v="Skogen" />
		<tag k="place" v="farm" />
		<tag k="ssr:stedsnr" v="546887" />
	</node>
	<node id="-336096" lat="58.045302774" lon="7.44850277038">
		<tag k="alt_name" v="Skogsfjord, Austre;Østre Skogsfjord" />
		<tag k="fixme" v="consider place=suburb, village or hamlet" />
		<tag k="name" v="Austre Skogsfjord" />
		<tag k="place" v="quarter" />
		<tag k="ssr:stedsnr" v="546870" />
	</node>
	<node id="-336095" lat="58.053399999" lon="7.50387777305">
		<tag k="name" v="Støa" />
		<tag k="place" v="farm" />
		<tag k="ssr:stedsnr" v="546863" />
	</node>
	<node id="-336094" lat="58.1204249976" lon="7.51684167044">
		<tag k="fixme" v="consider place=hamlet" />
		<tag k="name" v="Fodnebø" />
		<tag k="place" v="farm" />
		<tag k="ssr:stedsnr" v="546848" />
	</node>
	<node id="-336092" lat="58.1037611117" lon="7.43077499747">
		<tag k="fixme" v="consider place=hamlet" />
		<tag k="name" v="Håland" />
		<tag k="place" v="farm" />
		<tag k="ssr:stedsnr" v="546838" />
	</node>
	<node id="-336506" lat="58.0404250015" lon="7.34843889194">
		<tag k="fixme" v="consider place=hamlet" />
		<tag k="name" v="Lunde" />
		<tag k="place" v="farm" />
		<tag k="ssr:stedsnr" v="667989" />
	</node>
	<node id="-336089" lat="58.0979861127" lon="7.45089165923">
		<tag k="fixme" v="consider place=hamlet" />
		<tag k="name" v="Skrøvje" />
		<tag k="place" v="farm" />
		<tag k="ssr:stedsnr" v="546815" />
	</node>
	<node id="-336088" lat="58.0848333362" lon="7.44496665957">
		<tag k="fixme" v="consider place=hamlet" />
		<tag k="name" v="Hommen" />
		<tag k="place" v="farm" />
		<tag k="ssr:stedsnr" v="546798" />
	</node>
	<node id="-336087" lat="58.1310944425" lon="7.48295554892">
		<tag k="name" v="Solås" />
		<tag k="place" v="farm" />
		<tag k="ssr:stedsnr" v="546731" />
	</node>
	<node id="-336085" lat="58.1002805586" lon="7.4879749921">
		<tag k="name" v="Li" />
		<tag k="place" v="farm" />
		<tag k="ssr:stedsnr" v="546696" />
	</node>
	<node id="-335874" lat="58.0226250026" lon="7.56825278166">
		<tag k="name" v="Kvistedal" />
		<tag k="place" v="farm" />
		<tag k="ssr:stedsnr" v="485958" />
	</node>
	<node id="-337405" lat="58.043419844" lon="7.60760370488">
		<tag k="fixme" v="consider place=hamlet" />
		<tag k="name" v="Hartmark" />
		<tag k="place" v="farm" />
		<tag k="ssr:stedsnr" v="977783" />
	</node>
	<node id="-337357" lat="58.0824972201" lon="7.51911945166">
		<tag k="name" v="Midtre Møll" />
		<tag k="place" v="hamlet" />
		<tag k="ssr:stedsnr" v="936284" />
	</node>
	<node id="-337442" lat="58.0844159004" lon="7.51932660736">
		<tag k="fixme" v="consider place=hamlet" />
		<tag k="name" v="Midmøll" />
		<tag k="place" v="farm" />
		<tag k="ssr:stedsnr" v="977868" />
	</node>
	<node id="-336073" lat="58.0265722182" lon="7.62693889644">
		<tag k="name" v="Rørvig" />
		<tag k="place" v="farm" />
		<tag k="ssr:stedsnr" v="540535" />
	</node>
	<node id="-335047" lat="58.0487750001" lon="7.33668332848">
		<tag k="name" v="Aukland" />
		<tag k="place" v="locality" />
		<tag k="ssr:stedsnr" v="85750" />
	</node>
	<node id="-335873" lat="58.0888222259" lon="7.62284444924">
		<tag k="alt_name" v="Suvatne" />
		<tag k="fixme" v="multiple name tags, choose one and add the other to alt_name; consider place=hamlet" />
		<tag k="name" v="Suvatnet;Suvann" />
		<tag k="place" v="farm" />
		<tag k="ssr:stedsnr" v="485944" />
	</node>
	<node id="-336066" lat="58.0584277788" lon="7.53479999428">
		<tag k="name" v="Øygarden" />
		<tag k="place" v="locality" />
		<tag k="ssr:stedsnr" v="512516" />
	</node>
	<node id="-337124" lat="58.0487416625" lon="7.3577555593">
		<tag k="name" v="Brekka" />
		<tag k="place" v="farm" />
		<tag k="ssr:stedsnr" v="874830" />
	</node>
	<node id="-336061" lat="58.043572219" lon="7.44023333174">
		<tag k="name" v="Kirkevollen" />
		<tag k="place" v="farm" />
		<tag k="ssr:stedsnr" v="511985" />
	</node>
	<node id="-335548" lat="58.040094443" lon="7.48051944585">
		<tag k="fixme" v="consider place=hamlet" />
		<tag k="name" v="Ormestad" />
		<tag k="place" v="farm" />
		<tag k="ssr:stedsnr" v="243990" />
	</node>
	<node id="-335547" lat="58.0391000031" lon="7.36337499153">
		<tag k="alt_name" v="Hogganvik" />
		<tag k="fixme" v="consider place=hamlet" />
		<tag k="name" v="Hoggandvik" />
		<tag k="place" v="farm" />
		<tag k="ssr:stedsnr" v="243987" />
	</node>
	<node id="-335546" lat="58.0346250043" lon="7.49903055185">
		<tag k="fixme" v="consider place=hamlet" />
		<tag k="name" v="Ime" />
		<tag k="place" v="farm" />
		<tag k="ssr:stedsnr" v="243979" />
	</node>
	<node id="-335545" lat="58.0348833304" lon="7.61918888342">
		<tag k="fixme" v="consider place=hamlet" />
		<tag k="name" v="Osnes" />
		<tag k="place" v="farm" />
		<tag k="ssr:stedsnr" v="243972" />
	</node>
	<node id="-335542" lat="58.0663472251" lon="7.42183889256">
		<tag k="fixme" v="consider place=hamlet" />
		<tag k="name" v="Holte" />
		<tag k="place" v="farm" />
		<tag k="ssr:stedsnr" v="243899" />
	</node>
	<node id="-335541" lat="58.0558416696" lon="7.42655833145">
		<tag k="fixme" v="consider place=hamlet" />
		<tag k="name" v="Hesland" />
		<tag k="place" v="farm" />
		<tag k="ssr:stedsnr" v="243883" />
	</node>
	<node id="-335540" lat="58.06437778" lon="7.5957333371">
		<tag k="alt_name" v="Vetnes" />
		<tag k="fixme" v="consider place=hamlet" />
		<tag k="name" v="Vætnes" />
		<tag k="place" v="farm" />
		<tag k="ssr:stedsnr" v="243880" />
	</node>
	<node id="-335539" lat="58.0965805539" lon="7.51308610364">
		<tag k="fixme" v="multiple name tags, choose one and add the other to alt_name" />
		<tag k="name" v="Holmegård;Holum" />
		<tag k="place" v="farm" />
		<tag k="ssr:stedsnr" v="243836" />
	</node>
	<node id="-335538" lat="58.0960555523" lon="7.48705000042">
		<tag k="name" v="Li" />
		<tag k="place" v="farm" />
		<tag k="ssr:stedsnr" v="243833" />
	</node>
	<node id="-335536" lat="58.0819138888" lon="7.42676111642">
		<tag k="alt_name" v="Gjervoldstad" />
		<tag k="fixme" v="consider place=hamlet" />
		<tag k="name" v="Gjervollstad" />
		<tag k="place" v="farm" />
		<tag k="ssr:stedsnr" v="243815" />
	</node>
	<node id="-336559" lat="58.0028111088" lon="7.51320555676">
		<tag k="name" v="Skjernøysund" />
		<tag k="place" v="hamlet" />
		<tag k="ssr:stedsnr" v="692755" />
	</node>
	<node id="-335533" lat="58.0227833332" lon="7.37507500258">
		<tag k="fixme" v="consider place=hamlet" />
		<tag k="name" v="Høksås" />
		<tag k="place" v="farm" />
		<tag k="ssr:stedsnr" v="243955" />
	</node>
	<node id="-335532" lat="58.0390749996" lon="7.33602500207">
		<tag k="alt_name" v="Lundevig" />
		<tag k="name" v="Lundevik" />
		<tag k="place" v="hamlet" />
		<tag k="ssr:stedsnr" v="243673" />
	</node>
	<node id="-334450" lat="58.0864555535" lon="7.57385000153">
		<tag k="fixme" v="consider place=hamlet" />
		<tag k="name" v="Helle" />
		<tag k="place" v="farm" />
		<tag k="ssr:stedsnr" v="364851" />
	</node>
	<node id="-335530" lat="58.0104111146" lon="7.59359722659">
		<tag k="name" v="Sandvika" />
		<tag k="place" v="farm" />
		<tag k="ssr:stedsnr" v="243051" />
	</node>
	<node id="-337064" lat="58.0330611096" lon="7.45170832929">
		<tag k="alt_name" v="Halshaug" />
		<tag k="name" v="Halse" />
		<tag k="place" v="village" />
		<tag k="ssr:stedsnr" v="850978" />
	</node>
	<node id="-337063" lat="58.0259583321" lon="7.64788055549">
		<tag k="fixme" v="consider place=hamlet" />
		<tag k="name" v="Dal" />
		<tag k="place" v="farm" />
		<tag k="ssr:stedsnr" v="850941" />
	</node>
	<node id="-336497" lat="58.0800416636" lon="7.57762499169">
		<tag k="alt_name" v="Fjell" />
		<tag k="fixme" v="consider place=hamlet" />
		<tag k="name" v="Fjellet" />
		<tag k="place" v="farm" />
		<tag k="ssr:stedsnr" v="667905" />
	</node>
	<node id="-337059" lat="58.0778583317" lon="7.51556389474">
		<tag k="fixme" v="consider place=hamlet" />
		<tag k="name" v="Langeland" />
		<tag k="place" v="village" />
		<tag k="ssr:stedsnr" v="850912" />
	</node>
	<node id="-337435" lat="58.0983683144" lon="7.48697080374">
		<tag k="fixme" v="consider place=hamlet" />
		<tag k="name" v="Midli" />
		<tag k="place" v="farm" />
		<tag k="ssr:stedsnr" v="977856" />
	</node>
	<node id="-337056" lat="58.049724997" lon="7.37745000015">
		<tag k="alt_name" v="Rølland" />
		<tag k="name" v="Rydland" />
		<tag k="place" v="farm" />
		<tag k="ssr:stedsnr" v="850887" />
	</node>
	<node id="-337055" lat="58.0525416653" lon="7.37628056371">
		<tag k="alt_name" v="Klev" />
		<tag k="fixme" v="consider place=hamlet" />
		<tag k="name" v="Kleiv" />
		<tag k="place" v="farm" />
		<tag k="ssr:stedsnr" v="850886" />
	</node>
	<node id="-337054" lat="58.124277775" lon="7.52667500389">
		<tag k="name" v="Kloster" />
		<tag k="old_name" v="Moen" />
		<tag k="place" v="farm" />
		<tag k="ssr:stedsnr" v="850863" />
	</node>
	<node id="-337053" lat="58.1012861098" lon="7.47730278009">
		<tag k="alt_name" v="Grøssbrokk" />
		<tag k="fixme" v="multiple name tags, choose one and add the other to alt_name; consider place=hamlet" />
		<tag k="name" v="Grøsbrokka;Grøsbrokken" />
		<tag k="place" v="farm" />
		<tag k="ssr:stedsnr" v="850860" />
	</node>
	<node id="-337052" lat="58.1113777805" lon="7.55126111263">
		<tag k="alt_name" v="Øvre Bringsdal" />
		<tag k="name" v="Brinsdal" />
		<tag k="place" v="farm" />
		<tag k="ssr:stedsnr" v="850847" />
	</node>
	<node id="-337051" lat="58.0949916663" lon="7.52984166181">
		<tag k="alt_name" v="Møll, øvre" />
		<tag k="name" v="Øvre Møll" />
		<tag k="place" v="farm" />
		<tag k="ssr:stedsnr" v="850845" />
	</node>
	<node id="-337050" lat="58.0921277802" lon="7.52052778162">
		<tag k="name" v="Monen" />
		<tag k="place" v="farm" />
		<tag k="ssr:stedsnr" v="850842" />
	</node>
	<node id="-336391" lat="58.0745861106" lon="7.57966389576">
		<tag k="name" v="Øygarden" />
		<tag k="place" v="locality" />
		<tag k="ssr:stedsnr" v="631985" />
	</node>
	<node id="-337047" lat="58.0185834656" lon="7.5358578294">
		<tag k="name" v="Tufte" />
		<tag k="place" v="farm" />
		<tag k="ssr:stedsnr" v="850725" />
	</node>
	<node id="-337046" lat="58.0197305517" lon="7.6363027803">
		<tag k="fixme" v="consider place=hamlet" />
		<tag k="name" v="Ås" />
		<tag k="place" v="farm" />
		<tag k="ssr:stedsnr" v="850069" />
	</node>
	<node id="-337045" lat="58.0133777786" lon="7.60720000053">
		<tag k="alt_name" v="Eikebrekk" />
		<tag k="fixme" v="consider place=hamlet" />
		<tag k="name" v="Eigebrekk" />
		<tag k="place" v="farm" />
		<tag k="ssr:stedsnr" v="850068" />
	</node>
	<node id="-337043" lat="57.9843527818" lon="7.59284999517">
		<tag k="alt_name" v="Utøy;Utø" />
		<tag k="fixme" v="consider place=hamlet" />
		<tag k="name" v="Udøy" />
		<tag k="place" v="farm" />
		<tag k="ssr:stedsnr" v="850054" />
	</node>
	<node id="-336323" lat="58.0963000025" lon="7.44917777615">
		<tag k="name" v="Skaret" />
		<tag k="place" v="farm" />
		<tag k="ssr:stedsnr" v="630668" />
	</node>
	<node id="-336493" lat="58.0494083378" lon="7.35199166266">
		<tag k="name" v="Haddeland" />
		<tag k="place" v="farm" />
		<tag k="ssr:stedsnr" v="667864" />
	</node>
	<node id="-334988" lat="58.0215361091" lon="7.52481389677">
		<tag k="alt_name" v="Sti" />
		<tag k="name" v="Stig" />
		<tag k="place" v="farm" />
		<tag k="ssr:stedsnr" v="61952" />
	</node>
	<node id="-334475" lat="58.0620444425" lon="7.42495276951">
		<tag k="amenity" v="nursing_home" />
		<tag k="name" v="Heslandsheimen" />
		<tag k="ssr:stedsnr" v="389153" />
	</node>
	<node id="-334986" lat="58.0214833374" lon="7.63051111512">
		<tag k="alt_name" v="Ærekjær" />
		<tag k="name" v="Ærekjerr" />
		<tag k="place" v="farm" />
		<tag k="ssr:stedsnr" v="61939" />
	</node>
	<node id="-335876" lat="58.0249583311" lon="7.45840834018">
		<tag k="alt_name" v="Malmøy" />
		<tag k="name" v="Malmø" />
		<tag k="place" v="suburb" />
		<tag k="ssr:stedsnr" v="485970" />
	</node>
	<node id="-334981" lat="58.0487833299" lon="7.4443277778">
		<tag k="alt_name" v="Vestre Håland" />
		<tag k="name" v="Håland" />
		<tag k="place" v="farm" />
		<tag k="ssr:stedsnr" v="61871" />
	</node>
	<node id="-334467" lat="58.040886115" lon="7.63093888423">
		<tag k="fixme" v="consider place=hamlet" />
		<tag k="name" v="Dostad" />
		<tag k="place" v="farm" />
		<tag k="ssr:stedsnr" v="364986" />
	</node>
	<node id="-334466" lat="58.0251499988" lon="7.55635833441">
		<tag k="fixme" v="consider place=hamlet" />
		<tag k="name" v="Mønnesland" />
		<tag k="place" v="farm" />
		<tag k="ssr:stedsnr" v="364955" />
	</node>
	<node id="-334465" lat="58.0153000002" lon="7.52648610946">
		<tag k="fixme" v="consider place=hamlet" />
		<tag k="name" v="Eskeland" />
		<tag k="place" v="farm" />
		<tag k="ssr:stedsnr" v="364953" />
	</node>
	<node id="-334464" lat="58.026819446" lon="7.4534694414">
		<tag k="name" v="Mandal" />
		<tag k="place" v="town" />
		<tag k="ssr:stedsnr" v="364950" />
	</node>
	<node id="-336725" lat="58.0808500025" lon="7.47812777125">
		<tag k="fixme" v="consider place=hamlet" />
		<tag k="name" v="Mosland" />
		<tag k="place" v="farm" />
		<tag k="ssr:stedsnr" v="752645" />
	</node>
	<node id="-334974" lat="58.0271944452" lon="7.62777777524">
		<tag k="alt_name" v="Rørvik" />
		<tag k="name" v="Røyrvik" />
		<tag k="place" v="farm" />
		<tag k="ssr:stedsnr" v="61736" />
	</node>
	<node id="-334461" lat="58.0489777779" lon="7.49557499691">
		<tag k="name" v="Leirkjerr" />
		<tag k="place" v="farm" />
		<tag k="ssr:stedsnr" v="364891" />
	</node>
	<node id="-334460" lat="58.0522888919" lon="7.48175000759">
		<tag k="alt_name" v="Tjortedal" />
		<tag k="fixme" v="consider place=hamlet" />
		<tag k="name" v="Tjortdal" />
		<tag k="place" v="farm" />
		<tag k="ssr:stedsnr" v="364890" />
	</node>
	<node id="-336507" lat="58.0994055566" lon="7.60023056115">
		<tag k="fixme" v="consider place=hamlet" />
		<tag k="name" v="Systad" />
		<tag k="place" v="farm" />
		<tag k="ssr:stedsnr" v="668820" />
	</node>
	<node id="-337018" lat="58.0192583339" lon="7.37152777501">
		<tag k="name" v="Persneset" />
		<tag k="place" v="locality" />
		<tag k="ssr:stedsnr" v="815819" />
	</node>
	<node id="-337233" lat="58.0308777758" lon="7.63170833122">
		<tag k="alt_name" v="Fidjan" />
		<tag k="fixme" v="consider place=hamlet" />
		<tag k="name" v="Røyrvik" />
		<tag k="place" v="farm" />
		<tag k="ssr:stedsnr" v="910970" />
	</node>
	<node id="-336503" lat="58.0281694408" lon="7.47444166043">
		<tag k="alt_name" v="Skinsnes" />
		<tag k="name" v="Skinnsnes" />
		<tag k="place" v="village" />
		<tag k="ssr:stedsnr" v="667978" />
	</node>
	<node id="-336502" lat="58.0268611119" lon="7.41115000591">
		<tag k="name" v="Rennes" />
		<tag k="place" v="farm" />
		<tag k="ssr:stedsnr" v="667974" />
	</node>
	<node id="-336501" lat="58.0266972227" lon="7.67071389731">
		<tag k="alt_name" v="Fuvika" />
		<tag k="fixme" v="consider place=hamlet" />
		<tag k="name" v="Fuvik" />
		<tag k="place" v="farm" />
		<tag k="ssr:stedsnr" v="667950" />
	</node>
	<node id="-336499" lat="58.0764055582" lon="7.44931666802">
		<tag k="name" v="Kleivan" />
		<tag k="place" v="farm" />
		<tag k="ssr:stedsnr" v="667913" />
	</node>
	<node id="-335474" lat="58.0256444457" lon="7.43348055215">
		<tag k="name" v="Lysthuset" />
		<tag k="place" v="isolated_dwelling" />
		<tag k="ssr:stedsnr" v="208146" />
	</node>
	<node id="-335473" lat="58.0305027774" lon="7.45115833472">
		<tag k="name" v="Oksevollen" />
		<tag k="place" v="quarter" />
		<tag k="ssr:stedsnr" v="208141" />
	</node>
	<node id="-336496" lat="58.0683972186" lon="7.41624165853">
		<tag k="name" v="Holtebakken" />
		<tag k="place" v="farm" />
		<tag k="ssr:stedsnr" v="667899" />
	</node>
	<node id="-336495" lat="58.0607777766" lon="7.5097055638">
		<tag k="name" v="Øya" />
		<tag k="place" v="farm" />
		<tag k="ssr:stedsnr" v="667877" />
	</node>
	<node id="-336494" lat="58.0527638906" lon="7.35229999785">
		<tag k="name" v="Engedalen" />
		<tag k="place" v="farm" />
		<tag k="ssr:stedsnr" v="667866" />
	</node>
	<node id="-334269" lat="58.0243250021" lon="7.66631666455">
		<tag k="alt_name" v="Lauvnes" />
		<tag k="fixme" v="consider place=hamlet" />
		<tag k="name" v="Launes" />
		<tag k="place" v="farm" />
		<tag k="ssr:stedsnr" v="303958" />
	</node>
	<node id="-336492" lat="58.110061107" lon="7.45237500116">
		<tag k="alt_name" v="Bjøllandslian" />
		<tag k="name" v="Lian" />
		<tag k="place" v="farm" />
		<tag k="ssr:stedsnr" v="667845" />
	</node>
	<node id="-336491" lat="58.1074916678" lon="7.47418888684">
		<tag k="fixme" v="multiple name tags, choose one and add the other to alt_name; consider place=hamlet" />
		<tag k="name" v="Upsåker;Opsåker" />
		<tag k="place" v="farm" />
		<tag k="ssr:stedsnr" v="667828" />
	</node>
	<node id="-336490" lat="58.1161777781" lon="7.52247500336">
		<tag k="fixme" v="consider place=hamlet" />
		<tag k="name" v="Fuskeland" />
		<tag k="place" v="farm" />
		<tag k="ssr:stedsnr" v="667813" />
	</node>
	<node id="-334441" lat="58.0478305552" lon="7.36741388469">
		<tag k="fixme" v="multiple name tags, choose one and add the other to alt_name; consider place=hamlet" />
		<tag k="name" v="Ræge;Ræke" />
		<tag k="place" v="farm" />
		<tag k="ssr:stedsnr" v="121887" />
	</node>
	<node id="-334440" lat="58.0464499985" lon="7.49336111291">
		<tag k="name" v="Årekjerr" />
		<tag k="place" v="farm" />
		<tag k="ssr:stedsnr" v="121882" />
	</node>
	<node id="-337425" lat="58.0461913888" lon="7.4037563914">
		<tag k="fixme" v="consider place=hamlet" />
		<tag k="name" v="Vestre Skogsfjord" />
		<tag k="place" v="farm" />
		<tag k="ssr:stedsnr" v="977829" />
	</node>
	<node id="-335884" lat="58.051016669" lon="7.51597499416">
		<tag k="fixme" v="consider place=hamlet" />
		<tag k="name" v="Greipsland" />
		<tag k="place" v="farm" />
		<tag k="ssr:stedsnr" v="485869" />
	</node>
	<node id="-336481" lat="57.9879250021" lon="7.53638610899">
		<tag k="alt_name" v="Rosnes" />
		<tag k="name" v="Rossnes" />
		<tag k="place" v="hamlet" />
		<tag k="ssr:stedsnr" v="667059" />
	</node>
	<node id="-335888" lat="58.0431500012" lon="7.47039999737">
		<tag k="fixme" v="consider place=hamlet" />
		<tag k="name" v="Hjorteland" />
		<tag k="place" v="village" />
		<tag k="ssr:stedsnr" v="485997" />
	</node>
	<node id="-336477" lat="58.024941664" lon="7.45844444586">
		<tag k="fixme" v="consider place=suburb, village or hamlet" />
		<tag k="name" v="Nedre Malmø" />
		<tag k="place" v="quarter" />
		<tag k="ssr:stedsnr" v="663874" />
	</node>
	<node id="-336985" lat="58.0445083333" lon="7.49169999576">
		<tag k="name" v="Ytre Årekjerr" />
		<tag k="place" v="farm" />
		<tag k="ssr:stedsnr" v="814229" />
	</node>
	<node id="-337401" lat="58.0640861125" lon="7.59564999989">
		<tag k="name" v="Vettnes" />
		<tag k="place" v="farm" />
		<tag k="ssr:stedsnr" v="964910" />
	</node>
	<node id="-336740" lat="58.041055558" lon="7.36459721711">
		<tag k="name" v="Staurhola" />
		<tag k="place" v="farm" />
		<tag k="ssr:stedsnr" v="752740" />
	</node>
	<node id="-334265" lat="58.0647416658" lon="7.51349444048">
		<tag k="fixme" v="consider place=hamlet" />
		<tag k="name" v="Stusvik" />
		<tag k="place" v="farm" />
		<tag k="ssr:stedsnr" v="303899" />
	</node>
	<node id="-334264" lat="58.061574997" lon="7.43731389495">
		<tag k="alt_name" v="Haven" />
		<tag k="fixme" v="consider place=hamlet" />
		<tag k="name" v="Hagen" />
		<tag k="place" v="farm" />
		<tag k="ssr:stedsnr" v="303887" />
	</node>
	<node id="-336903" lat="58.1254972179" lon="7.49259999694">
		<tag k="name" v="Solberg" />
		<tag k="place" v="farm" />
		<tag k="ssr:stedsnr" v="813458" />
	</node>
	<node id="-337420" lat="58.0337574289" lon="7.47022815532">
		<tag k="fixme" v="consider place=hamlet" />
		<tag k="name" v="Frøisland" />
		<tag k="place" v="farm" />
		<tag k="ssr:stedsnr" v="977818" />
	</node>
	<node id="-336450" lat="58.0378611077" lon="7.37142778518">
		<tag k="name" v="Bruvollen" />
		<tag k="place" v="farm" />
		<tag k="ssr:stedsnr" v="632820" />
	</node>
	<node id="-335883" lat="58.124116663" lon="7.5347111161">
		<tag k="fixme" v="consider place=hamlet" />
		<tag k="name" v="Stoveland" />
		<tag k="place" v="village" />
		<tag k="ssr:stedsnr" v="485853" />
	</node>
	<node id="-336906" lat="58.1021361109" lon="7.51594722148">
		<tag k="name" v="Kjørkelia" />
		<tag k="place" v="farm" />
		<tag k="ssr:stedsnr" v="813476" />
	</node>
	<node id="-334905" lat="58.0243722226" lon="7.45013611217">
		<tag k="name" v="Sanden" />
		<tag k="place" v="suburb" />
		<tag k="ssr:stedsnr" v="26176" />
	</node>
	<node id="-335881" lat="58.1278361098" lon="7.53190277009">
		<tag k="fixme" v="consider place=hamlet" />
		<tag k="name" v="Bjørkenes" />
		<tag k="place" v="farm" />
		<tag k="ssr:stedsnr" v="485710" />
	</node>
	<node id="-334259" lat="58.1316916661" lon="7.53839444035">
		<tag k="alt_name" v="Øvre Nøding" />
		<tag k="fixme" v="consider place=hamlet" />
		<tag k="name" v="Nøding" />
		<tag k="place" v="farm" />
		<tag k="ssr:stedsnr" v="303719" />
	</node>
	<node id="-335880" lat="58.1341472214" lon="7.53903333145">
		<tag k="fixme" v="consider place=hamlet" />
		<tag k="name" v="Hauge" />
		<tag k="place" v="farm" />
		<tag k="ssr:stedsnr" v="485708" />
	</node>
	<node id="-336430" lat="58.0212083335" lon="7.62761943841">
		<tag k="name" v="Strømmen" />
		<tag k="place" v="hamlet" />
		<tag k="ssr:stedsnr" v="632309" />
	</node>
	<node id="-335957" lat="58.0435750006" lon="7.64501111461">
		<tag k="name" v="Eid" />
		<tag k="place" v="farm" />
		<tag k="ssr:stedsnr" v="510745" />
	</node>
	<node id="-336428" lat="58.0432972195" lon="7.55099166175">
		<tag k="fixme" v="consider place=hamlet" />
		<tag k="name" v="Ro" />
		<tag k="place" v="farm" />
		<tag k="ssr:stedsnr" v="632269" />
	</node>
	<node id="-337229" lat="58.0691499977" lon="7.55048611838">
		<tag k="alt_name" v="Skoie" />
		<tag k="fixme" v="consider place=hamlet" />
		<tag k="name" v="Skoge" />
		<tag k="place" v="farm" />
		<tag k="ssr:stedsnr" v="910909" />
	</node>
	<node id="-337449" lat="58.0646583817" lon="7.57476440823">
		<tag k="fixme" v="consider place=hamlet" />
		<tag k="name" v="Vestre Skagestad" />
		<tag k="place" v="farm" />
		<tag k="ssr:stedsnr" v="977932" />
	</node>
	<node id="-337448" lat="58.0641016211" lon="7.57941529632">
		<tag k="fixme" v="consider place=hamlet" />
		<tag k="name" v="Østre Skagestad" />
		<tag k="place" v="farm" />
		<tag k="ssr:stedsnr" v="977931" />
	</node>
	<node id="-337447" lat="58.0784931125" lon="7.60919427454">
		<tag k="fixme" v="consider place=hamlet" />
		<tag k="name" v="Østre Vatne" />
		<tag k="place" v="farm" />
		<tag k="ssr:stedsnr" v="977930" />
	</node>
	<node id="-337446" lat="58.123157372" lon="7.53433871796">
		<tag k="fixme" v="consider place=hamlet" />
		<tag k="name" v="Stoveland" />
		<tag k="place" v="farm" />
		<tag k="ssr:stedsnr" v="977927" />
	</node>
	<node id="-337445" lat="58.1159547259" lon="7.53387455167">
		<tag k="fixme" v="consider place=hamlet" />
		<tag k="name" v="Brinsdal" />
		<tag k="place" v="farm" />
		<tag k="ssr:stedsnr" v="977925" />
	</node>
	<node id="-337444" lat="58.1047679885" lon="7.53569930319">
		<tag k="fixme" v="consider place=hamlet" />
		<tag k="name" v="Ytre Nøding" />
		<tag k="place" v="farm" />
		<tag k="ssr:stedsnr" v="977918" />
	</node>
	<node id="-337443" lat="58.0981178835" lon="7.54313145822">
		<tag k="fixme" v="consider place=hamlet" />
		<tag k="name" v="Heien" />
		<tag k="place" v="farm" />
		<tag k="ssr:stedsnr" v="977916" />
	</node>
	<node id="-335394" lat="58.0715861129" lon="7.51557499383">
		<tag k="name" v="Haven" />
		<tag k="place" v="farm" />
		<tag k="ssr:stedsnr" v="206667" />
	</node>
	<node id="-337441" lat="58.0589773102" lon="7.4746951396">
		<tag k="fixme" v="consider place=hamlet" />
		<tag k="name" v="Ytre Haddeland" />
		<tag k="place" v="farm" />
		<tag k="ssr:stedsnr" v="977866" />
	</node>
	<node id="-337440" lat="58.0769863375" lon="7.51600751749">
		<tag k="fixme" v="consider place=hamlet" />
		<tag k="name" v="Langeland" />
		<tag k="place" v="farm" />
		<tag k="ssr:stedsnr" v="977864" />
	</node>
	<node id="-337439" lat="58.0732983554" lon="7.48828722167">
		<tag k="fixme" v="consider place=hamlet" />
		<tag k="name" v="Undal" />
		<tag k="place" v="farm" />
		<tag k="ssr:stedsnr" v="977865" />
	</node>
	<node id="-337438" lat="58.0801811" lon="7.48692065751">
		<tag k="fixme" v="consider place=hamlet" />
		<tag k="name" v="Rudjord" />
		<tag k="place" v="farm" />
		<tag k="ssr:stedsnr" v="977862" />
	</node>
	<node id="-337437" lat="58.0724867378" lon="7.47745134841">
		<tag k="fixme" v="consider place=hamlet" />
		<tag k="name" v="Vestre Kjær" />
		<tag k="place" v="farm" />
		<tag k="ssr:stedsnr" v="977860" />
	</node>
	<node id="-337436" lat="58.1005796776" lon="7.48888028496">
		<tag k="fixme" v="consider place=hamlet" />
		<tag k="name" v="Nordre Li" />
		<tag k="place" v="farm" />
		<tag k="ssr:stedsnr" v="977857" />
	</node>
	<node id="-334363" lat="58.1271444429" lon="7.53083054807">
		<tag k="name" v="Kringla" />
		<tag k="place" v="farm" />
		<tag k="ssr:stedsnr" v="328923" />
	</node>
	<node id="-337434" lat="58.0999441951" lon="7.52955497829">
		<tag k="fixme" v="consider place=hamlet" />
		<tag k="name" v="Holmegård" />
		<tag k="place" v="farm" />
		<tag k="ssr:stedsnr" v="977853" />
	</node>
	<node id="-334361" lat="58.1176444461" lon="7.52961666589">
		<tag k="name" v="Nodebumonen" />
		<tag k="place" v="farm" />
		<tag k="ssr:stedsnr" v="328871" />
	</node>
	<node id="-337432" lat="58.1286306636" lon="7.48098673357">
		<tag k="fixme" v="consider place=hamlet" />
		<tag k="name" v="Østre Solås" />
		<tag k="place" v="farm" />
		<tag k="ssr:stedsnr" v="977847" />
	</node>
	<node id="-337431" lat="58.0395521498" lon="7.33560930216">
		<tag k="fixme" v="consider place=hamlet" />
		<tag k="name" v="Lundevik" />
		<tag k="place" v="farm" />
		<tag k="ssr:stedsnr" v="977840" />
	</node>
	<node id="-337430" lat="58.1313537443" lon="7.4841837845">
		<tag k="fixme" v="consider place=hamlet" />
		<tag k="name" v="Øvre Solås" />
		<tag k="place" v="farm" />
		<tag k="ssr:stedsnr" v="977845" />
	</node>
	<node id="-337429" lat="58.0231289723" lon="7.39834779594">
		<tag k="fixme" v="consider place=hamlet" />
		<tag k="name" v="Tuftenes" />
		<tag k="place" v="farm" />
		<tag k="ssr:stedsnr" v="977838" />
	</node>
	<node id="-335380" lat="58.0400444439" lon="7.5397083268">
		<tag k="alt_name" v="Storaker" />
		<tag k="fixme" v="consider place=hamlet" />
		<tag k="name" v="Storåker" />
		<tag k="place" v="farm" />
		<tag k="ssr:stedsnr" v="182984" />
	</node>
	<node id="-335379" lat="58.0382722227" lon="7.44491110929">
		<tag k="name" v="Ulvegjelet" />
		<tag k="place" v="isolated_dwelling" />
		<tag k="ssr:stedsnr" v="182979" />
	</node>
	<node id="-335378" lat="58.0403611143" lon="7.55380277678">
		<tag k="alt_name" v="Dybo" />
		<tag k="fixme" v="consider place=hamlet" />
		<tag k="name" v="Djubo" />
		<tag k="place" v="farm" />
		<tag k="ssr:stedsnr" v="182972" />
	</node>
	<node id="-334851" lat="58.0891666685" lon="7.61715556107">
		<tag k="name" v="Klemma" />
		<tag k="place" v="farm" />
		<tag k="ssr:stedsnr" v="24790" />
	</node>
	<node id="-337424" lat="58.0577938227" lon="7.44691037682">
		<tag k="fixme" v="consider place=hamlet" />
		<tag k="name" v="Nordmannsheia" />
		<tag k="place" v="farm" />
		<tag k="ssr:stedsnr" v="977824" />
	</node>
	<node id="-335375" lat="58.0333527798" lon="7.42285277459">
		<tag k="alt_name" v="Skeipstad" />
		<tag k="name" v="Skjebstad" />
		<tag k="place" v="suburb" />
		<tag k="ssr:stedsnr" v="182962" />
	</node>
	<node id="-337422" lat="58.0444043232" lon="7.44873065723">
		<tag k="fixme" v="consider place=hamlet" />
		<tag k="name" v="Østre Skogsfjord" />
		<tag k="place" v="farm" />
		<tag k="ssr:stedsnr" v="977822" />
	</node>
	<node id="-337421" lat="58.0328394363" lon="7.45308141704">
		<tag k="name" v="Halså" />
		<tag k="place" v="locality" />
		<tag k="ssr:stedsnr" v="977820" />
	</node>
	<node id="-335372" lat="58.0733138932" lon="7.48650000573">
		<tag k="alt_name" v="Undal" />
		<tag k="name" v="Unndal" />
		<tag k="place" v="farm" />
		<tag k="ssr:stedsnr" v="182913" />
	</node>
	<node id="-337419" lat="58.0454324135" lon="7.47005906968">
		<tag k="fixme" v="consider place=hamlet" />
		<tag k="name" v="Hjorteland" />
		<tag k="place" v="farm" />
		<tag k="ssr:stedsnr" v="977816" />
	</node>
	<node id="-337418" lat="58.0094368713" lon="7.55724510603">
		<tag k="fixme" v="consider place=hamlet" />
		<tag k="name" v="Tregde" />
		<tag k="place" v="farm" />
		<tag k="ssr:stedsnr" v="977808" />
	</node>
	<node id="-337417" lat="58.0280909083" lon="7.47327737302">
		<tag k="fixme" v="consider place=hamlet" />
		<tag k="name" v="Skinsnes" />
		<tag k="place" v="farm" />
		<tag k="ssr:stedsnr" v="977813" />
	</node>
	<node id="-337416" lat="58.0066047666" lon="7.4858503017">
		<tag k="fixme" v="consider place=hamlet" />
		<tag k="name" v="Stusøy" />
		<tag k="place" v="farm" />
		<tag k="ssr:stedsnr" v="977805" />
	</node>
	<node id="-337415" lat="57.9946667088" lon="7.502524928">
		<tag k="fixme" v="consider place=hamlet" />
		<tag k="name" v="Dyrstad" />
		<tag k="place" v="farm" />
		<tag k="ssr:stedsnr" v="977803" />
	</node>
	<node id="-337414" lat="58.0026180908" lon="7.51298406955">
		<tag k="fixme" v="consider place=hamlet" />
		<tag k="name" v="Skjernøysund" />
		<tag k="place" v="farm" />
		<tag k="ssr:stedsnr" v="977804" />
	</node>
	<node id="-337413" lat="57.985571978" lon="7.53121259836">
		<tag k="fixme" v="consider place=hamlet" />
		<tag k="name" v="Farestad" />
		<tag k="place" v="farm" />
		<tag k="ssr:stedsnr" v="977801" />
	</node>
	<node id="-334852" lat="58.0449222222" lon="7.35403611117">
		<tag k="name" v="Solvang" />
		<tag k="place" v="farm" />
		<tag k="ssr:stedsnr" v="24796" />
	</node>
	<node id="-335363" lat="58.1370805553" lon="7.550274993">
		<tag k="fixme" v="consider place=hamlet" />
		<tag k="name" v="Skreppestad" />
		<tag k="place" v="farm" />
		<tag k="ssr:stedsnr" v="182733" />
	</node>
	<node id="-337410" lat="57.9953489454" lon="7.53740736668">
		<tag k="fixme" v="consider place=hamlet" />
		<tag k="name" v="Berge" />
		<tag k="place" v="farm" />
		<tag k="ssr:stedsnr" v="977798" />
	</node>
	<node id="-337409" lat="58.0058051449" lon="7.58686775404">
		<tag k="fixme" v="consider place=hamlet" />
		<tag k="name" v="Skogsøy" />
		<tag k="place" v="farm" />
		<tag k="ssr:stedsnr" v="977794" />
	</node>
</osm>
