<?xml version="1.0" encoding="UTF-8"?>
<osm generator="osmapis" version="0.6">
	<node id="-335872" lat="58.1477194402" lon="7.53964166773">
		<tag k="name" v="Kringlemyra" />
		<tag k="natural" v="wetland" />
		<tag k="ssr:stedsnr" v="206880" />
	</node>
	<node id="-335360" lat="58.0321111081" lon="7.55675556281">
		<tag k="name" v="Studemyra" />
		<tag k="natural" v="wetland" />
		<tag k="ssr:stedsnr" v="26469" />
	</node>
	<node id="-334846" lat="58.0366333354" lon="7.53853610351">
		<tag k="name" v="Stemmyra" />
		<tag k="natural" v="wetland" />
		<tag k="ssr:stedsnr" v="329440" />
	</node>
	<node id="-335865" lat="58.0879416667" lon="7.58615833147">
		<tag k="name" v="Sauvollsmyra" />
		<tag k="natural" v="wetland" />
		<tag k="ssr:stedsnr" v="206787" />
	</node>
	<node id="-336376" lat="58.1335277753" lon="7.47540834007">
		<tag k="name" v="Mikkelsmyra" />
		<tag k="natural" v="wetland" />
		<tag k="ssr:stedsnr" v="510477" />
	</node>
	<node id="-335348" lat="58.0552722199" lon="7.47716944994">
		<tag k="name" v="Stemkjerr" />
		<tag k="natural" v="wetland" />
		<tag k="ssr:stedsnr" v="26243" />
	</node>
	<node id="-335347" lat="58.0604777821" lon="7.4782055562">
		<tag k="name" v="Saumyra" />
		<tag k="natural" v="wetland" />
		<tag k="ssr:stedsnr" v="26237" />
	</node>
	<node id="-335858" lat="58.1245305534" lon="7.58307778568">
		<tag k="name" v="Kjøvekjerr" />
		<tag k="natural" v="wetland" />
		<tag k="ssr:stedsnr" v="206734" />
	</node>
	<node id="-336211" lat="58.0633388868" lon="7.61517222034">
		<tag k="name" v="Slåttan" />
		<tag k="natural" v="wetland" />
		<tag k="ssr:stedsnr" v="449993" />
	</node>
	<node id="-337392" lat="58.1201972183" lon="7.55999721989">
		<tag k="name" v="Harekjerran" />
		<tag k="natural" v="wetland" />
		<tag k="ssr:stedsnr" v="813906" />
	</node>
	<node id="-336367" lat="58.0476361097" lon="7.62125277212">
		<tag k="name" v="Ramsdalsmyra" />
		<tag k="natural" v="wetland" />
		<tag k="ssr:stedsnr" v="510322" />
	</node>
	<node id="-336187" lat="58.0951444472" lon="7.62116389489">
		<tag k="name" v="Lyngmonen" />
		<tag k="place" v="locality" />
		<tag k="ssr:stedsnr" v="449755" />
	</node>
	<node id="-334828" lat="58.0783916657" lon="7.43407221602">
		<tag k="name" v="Breimyra" />
		<tag k="natural" v="wetland" />
		<tag k="ssr:stedsnr" v="329185" />
	</node>
	<node id="-337387" lat="58.098227777" lon="7.54644999613">
		<tag k="name" v="Gåsemyra" />
		<tag k="natural" v="wetland" />
		<tag k="ssr:stedsnr" v="813877" />
	</node>
	<node id="-337386" lat="58.138291668" lon="7.56135833316">
		<tag k="name" v="Uførmyra" />
		<tag k="natural" v="wetland" />
		<tag k="ssr:stedsnr" v="813869" />
	</node>
	<node id="-335849" lat="58.1296888886" lon="7.46459166033">
		<tag k="name" v="Slåtemyra" />
		<tag k="natural" v="wetland" />
		<tag k="ssr:stedsnr" v="206562" />
	</node>
	<node id="-335843" lat="58.0988777746" lon="7.49790000452">
		<tag k="name" v="Porsmyr" />
		<tag k="natural" v="wetland" />
		<tag k="ssr:stedsnr" v="206501" />
	</node>
	<node id="-337378" lat="58.0577555548" lon="7.38356666727">
		<tag k="name" v="Frosestadmyran" />
		<tag k="natural" v="wetland" />
		<tag k="ssr:stedsnr" v="813806" />
	</node>
	<node id="-335841" lat="58.1239555579" lon="7.46884722714">
		<tag k="name" v="Djubemyra" />
		<tag k="natural" v="wetland" />
		<tag k="ssr:stedsnr" v="206476" />
	</node>
	<node id="-336350" lat="58.054416669" lon="7.37366667201">
		<tag k="name" v="Vassland" />
		<tag k="natural" v="wetland" />
		<tag k="ssr:stedsnr" v="509783" />
	</node>
	<node id="-337373" lat="58.0415666628" lon="7.36684999579">
		<tag k="name" v="Hamyra" />
		<tag k="place" v="locality" />
		<tag k="ssr:stedsnr" v="813760" />
	</node>
	<node id="-335324" lat="58.0556666645" lon="7.54509722096">
		<tag k="name" v="Trolldalsmyra" />
		<tag k="natural" v="wetland" />
		<tag k="ssr:stedsnr" v="25258" />
	</node>
	<node id="-337371" lat="58.0896833328" lon="7.62721666082">
		<tag k="name" v="Høgevollkjerr" />
		<tag k="natural" v="wetland" />
		<tag k="ssr:stedsnr" v="813739" />
	</node>
	<node id="-334810" lat="57.9844972185" lon="7.51806388867">
		<tag k="name" v="Myran" />
		<tag k="natural" v="wetland" />
		<tag k="ssr:stedsnr" v="329002" />
	</node>
	<node id="-335833" lat="57.9993694468" lon="7.6584416626">
		<tag k="name" v="Bukkura" />
		<tag k="natural" v="scree" />
		<tag k="ssr:stedsnr" v="206304" />
	</node>
	<node id="-336344" lat="58.119677777" lon="7.46688610388">
		<tag k="name" v="Saumyra" />
		<tag k="natural" v="wetland" />
		<tag k="ssr:stedsnr" v="509660" />
	</node>
	<node id="-335831" lat="58.1107944474" lon="7.46652221945">
		<tag k="name" v="Surtemyra" />
		<tag k="natural" v="wetland" />
		<tag k="ssr:stedsnr" v="206677" />
	</node>
	<node id="-334806" lat="58.1302555539" lon="7.53554444134">
		<tag k="name" v="Ære" />
		<tag k="place" v="locality" />
		<tag k="ssr:stedsnr" v="328976" />
	</node>
	<node id="-334841" lat="58.0560416637" lon="7.54995000255">
		<tag k="name" v="Storemyra" />
		<tag k="natural" v="wetland" />
		<tag k="ssr:stedsnr" v="329268" />
	</node>
	<node id="-337230" lat="58.0519222182" lon="7.44141665997">
		<tag k="name" v="Myran" />
		<tag k="natural" v="wetland" />
		<tag k="ssr:stedsnr" v="754212" />
	</node>
	<node id="-335314" lat="58.1502277819" lon="7.54165555612">
		<tag k="name" v="Hestekjerret" />
		<tag k="natural" v="wetland" />
		<tag k="ssr:stedsnr" v="24989" />
	</node>
	<node id="-335313" lat="58.1523444416" lon="7.54243611418">
		<tag k="name" v="Snømyr" />
		<tag k="natural" v="wetland" />
		<tag k="ssr:stedsnr" v="24988" />
	</node>
	<node id="-335312" lat="58.1539805516" lon="7.53884722474">
		<tag k="name" v="Langekjerran" />
		<tag k="natural" v="wetland" />
		<tag k="ssr:stedsnr" v="24977" />
	</node>
	<node id="-335311" lat="58.1328527822" lon="7.55230277983">
		<tag k="name" v="Svomyra" />
		<tag k="natural" v="wetland" />
		<tag k="ssr:stedsnr" v="24976" />
	</node>
	<node id="-337358" lat="58.1094055548" lon="7.44871389203">
		<tag k="name" v="Stormyra" />
		<tag k="natural" v="wetland" />
		<tag k="ssr:stedsnr" v="813693" />
	</node>
	<node id="-337741" lat="57.9814722241" lon="7.51409721398">
		<tag k="name" v="Fablemyra" />
		<tag k="natural" v="wetland" />
		<tag k="ssr:stedsnr" v="936009" />
	</node>
	<node id="-335307" lat="58.0719944443" lon="7.60053055668">
		<tag k="name" v="Bormyra" />
		<tag k="place" v="locality" />
		<tag k="ssr:stedsnr" v="24950" />
	</node>
	<node id="-335816" lat="58.0719138905" lon="7.54583332614">
		<tag k="name" v="Sokkemyra" />
		<tag k="natural" v="wetland" />
		<tag k="ssr:stedsnr" v="205614" />
	</node>
	<node id="-337569" lat="58.0216111109" lon="7.59251944337">
		<tag k="name" v="Rørmyra" />
		<tag k="natural" v="wetland" />
		<tag k="ssr:stedsnr" v="875320" />
	</node>
	<node id="-335300" lat="58.0971388873" lon="7.54593332711">
		<tag k="name" v="Tjønnmyra" />
		<tag k="natural" v="wetland" />
		<tag k="ssr:stedsnr" v="24898" />
	</node>
	<node id="-334786" lat="58.101755558" lon="7.57663888643">
		<tag k="name" v="Torjusmyra" />
		<tag k="natural" v="wetland" />
		<tag k="ssr:stedsnr" v="328766" />
	</node>
	<node id="-334785" lat="58.1051388873" lon="7.61258888798">
		<tag k="name" v="Høgeheimyr" />
		<tag k="natural" v="wetland" />
		<tag k="ssr:stedsnr" v="328758" />
	</node>
	<node id="-337344" lat="58.0664361102" lon="7.56485278571">
		<tag k="name" v="Lonan" />
		<tag k="place" v="locality" />
		<tag k="ssr:stedsnr" v="813522" />
	</node>
	<node id="-337342" lat="58.1032777762" lon="7.49314167492">
		<tag k="name" v="Stormyra" />
		<tag k="natural" v="wetland" />
		<tag k="ssr:stedsnr" v="813485" />
	</node>
	<node id="-335804" lat="58.123722222" lon="7.55779444972">
		<tag k="alt_name" v="Stovelandsslåtter" />
		<tag k="name" v="Slåttan" />
		<tag k="natural" v="wetland" />
		<tag k="ssr:stedsnr" v="182860" />
	</node>
	<node id="-336827" lat="58.0828083345" lon="7.58808888813">
		<tag k="name" v="Stedjan" />
		<tag k="natural" v="wetland" />
		<tag k="ssr:stedsnr" v="631986" />
	</node>
	<node id="-335288" lat="58.0986972201" lon="7.59576944741">
		<tag k="name" v="Haumyra" />
		<tag k="natural" v="wetland" />
		<tag k="ssr:stedsnr" v="24802" />
	</node>
	<node id="-336822" lat="58.1331805577" lon="7.53255277494">
		<tag k="name" v="Rødjordet" />
		<tag k="place" v="locality" />
		<tag k="ssr:stedsnr" v="631963" />
	</node>
	<node id="-337737" lat="58.1060694423" lon="7.61794445272">
		<tag k="name" v="Store Hessmyr" />
		<tag k="natural" v="wetland" />
		<tag k="ssr:stedsnr" v="935770" />
	</node>
	<node id="-334835" lat="58.0573527806" lon="7.50493055122">
		<tag k="name" v="Lagmannssteinen" />
		<tag k="natural" v="stone" />
		<tag k="ssr:stedsnr" v="329225" />
	</node>
	<node id="-334937" lat="58.0199444416" lon="7.55131667183">
		<tag k="name" v="Myrvang" />
		<tag k="natural" v="wetland" />
		<tag k="ssr:stedsnr" v="388365" />
	</node>
	<node id="-334765" lat="58.1312138892" lon="7.46560555495">
		<tag k="name" v="Torvmyra" />
		<tag k="natural" v="wetland" />
		<tag k="ssr:stedsnr" v="328592" />
	</node>
	<node id="-335276" lat="58.1173333337" lon="7.4668638849">
		<tag k="name" v="Gonilsteinen" />
		<tag k="natural" v="stone" />
		<tag k="ssr:stedsnr" v="24696" />
	</node>
	<node id="-337394" lat="58.0856249962" lon="7.60461945163">
		<tag k="name" v="Flegemyran" />
		<tag k="natural" v="wetland" />
		<tag k="ssr:stedsnr" v="813926" />
	</node>
	<node id="-336809" lat="58.0977472238" lon="7.59624999876">
		<tag k="name" v="Limyra" />
		<tag k="natural" v="wetland" />
		<tag k="ssr:stedsnr" v="631800" />
	</node>
	<node id="-336808" lat="58.0981944427" lon="7.571836119">
		<tag k="name" v="Kjørkemonen" />
		<tag k="place" v="locality" />
		<tag k="ssr:stedsnr" v="631797" />
	</node>
	<node id="-336806" lat="58.0800444446" lon="7.62794721485">
		<tag k="name" v="Kjellingmyra" />
		<tag k="natural" v="wetland" />
		<tag k="ssr:stedsnr" v="631763" />
	</node>
	<node id="-337829" lat="58.0551527803" lon="7.5777638888">
		<tag k="name" v="Monen" />
		<tag k="natural" v="beach" />
		<tag k="ssr:stedsnr" v="937528" />
		<tag k="surface" v="sand" />
	</node>
	<node id="-335780" lat="58.0337361111" lon="7.63445000356">
		<tag k="name" v="Blautmyra" />
		<tag k="natural" v="wetland" />
		<tag k="ssr:stedsnr" v="268630" />
	</node>
	<node id="-336291" lat="58.0552916662" lon="7.51333055977">
		<tag k="name" v="Sodelandsmyra" />
		<tag k="natural" v="wetland" />
		<tag k="ssr:stedsnr" v="451976" />
	</node>
	<node id="-337770" lat="58.0635027762" lon="7.61835278602">
		<tag k="name" v="Pilemyra" />
		<tag k="natural" v="wetland" />
		<tag k="ssr:stedsnr" v="935998" />
	</node>
	<node id="-337310" lat="57.9780138893" lon="7.52300278261">
		<tag k="name" v="Sto" />
		<tag k="place" v="locality" />
		<tag k="ssr:stedsnr" v="813086" />
	</node>
	<node id="-337307" lat="58.0727249956" lon="7.55440555514">
		<tag k="name" v="Stemmen" />
		<tag k="natural" v="wetland" />
		<tag k="ssr:stedsnr" v="812612" />
	</node>
	<node id="-335770" lat="58.0822222219" lon="7.60198333864">
		<tag k="name" v="Blåbærkjerret" />
		<tag k="natural" v="wetland" />
		<tag k="ssr:stedsnr" v="147884" />
	</node>
	<node id="-335257" lat="58.0649916641" lon="7.56239444302">
		<tag k="name" v="Skiftingsmyra" />
		<tag k="natural" v="wetland" />
		<tag k="ssr:stedsnr" v="24548" />
	</node>
	<node id="-336792" lat="58.1165333316" lon="7.49343610933">
		<tag k="name" v="Djubemyra" />
		<tag k="natural" v="wetland" />
		<tag k="ssr:stedsnr" v="631491" />
	</node>
	<node id="-336791" lat="58.1172388849" lon="7.47388888431">
		<tag k="name" v="Trogemyra" />
		<tag k="natural" v="wetland" />
		<tag k="ssr:stedsnr" v="631489" />
	</node>
	<node id="-336278" lat="58.0278972201" lon="7.55629444757">
		<tag k="name" v="Karten" />
		<tag k="natural" v="wetland" />
		<tag k="ssr:stedsnr" v="451498" />
	</node>
	<node id="-337305" lat="58.0714027821" lon="7.55109721472">
		<tag k="name" v="Skogsmyr" />
		<tag k="natural" v="wetland" />
		<tag k="ssr:stedsnr" v="812595" />
	</node>
	<node id="-335252" lat="58.1238333371" lon="7.48308888488">
		<tag k="name" v="Smaldalsmyra" />
		<tag k="natural" v="wetland" />
		<tag k="ssr:stedsnr" v="24501" />
	</node>
	<node id="-336787" lat="58.1475694446" lon="7.47365555795">
		<tag k="name" v="Kartemyr" />
		<tag k="natural" v="wetland" />
		<tag k="ssr:stedsnr" v="631468" />
	</node>
	<node id="-337298" lat="58.0658277766" lon="7.61684722737">
		<tag k="alt_name" v="Digermyra" />
		<tag k="name" v="Digremyra" />
		<tag k="natural" v="wetland" />
		<tag k="ssr:stedsnr" v="789911" />
	</node>
	<node id="-335249" lat="58.1428194418" lon="7.5044583298">
		<tag k="name" v="Kvidbergskårmyra" />
		<tag k="natural" v="wetland" />
		<tag k="ssr:stedsnr" v="24479" />
	</node>
	<node id="-336271" lat="58.048572226" lon="7.56675556118">
		<tag k="name" v="Solmyra" />
		<tag k="natural" v="wetland" />
		<tag k="ssr:stedsnr" v="451288" />
	</node>
	<node id="-335246" lat="58.1377194414" lon="7.48249722907">
		<tag k="name" v="Stormyra" />
		<tag k="natural" v="wetland" />
		<tag k="ssr:stedsnr" v="24464" />
	</node>
	<node id="-336781" lat="58.0166861114" lon="7.66276389142">
		<tag k="name" v="Nesemyra" />
		<tag k="natural" v="wetland" />
		<tag k="ssr:stedsnr" v="631315" />
	</node>
	<node id="-336779" lat="58.0448305536" lon="7.60116389511">
		<tag k="name" v="Dugan" />
		<tag k="place" v="locality" />
		<tag k="ssr:stedsnr" v="631310" />
	</node>
	<node id="-334730" lat="58.0749111073" lon="7.55081388832">
		<tag k="name" v="Svartmyr" />
		<tag k="natural" v="wetland" />
		<tag k="ssr:stedsnr" v="327559" />
	</node>
	<node id="-337020" lat="58.082900004" lon="7.59266389018">
		<tag k="name" v="Stedjan" />
		<tag k="natural" v="wetland" />
		<tag k="ssr:stedsnr" v="692988" />
	</node>
	<node id="-337798" lat="58.0603972256" lon="7.59378889212">
		<tag k="name" v="Kringlemyr" />
		<tag k="natural" v="wetland" />
		<tag k="ssr:stedsnr" v="936309" />
	</node>
	<node id="-335235" lat="58.0473638866" lon="7.60139444856">
		<tag k="name" v="Husbondmyra" />
		<tag k="natural" v="wetland" />
		<tag k="ssr:stedsnr" v="24317" />
	</node>
	<node id="-337794" lat="58.0225472262" lon="7.61040000104">
		<tag k="name" v="Stormyra" />
		<tag k="natural" v="wetland" />
		<tag k="ssr:stedsnr" v="936288" />
	</node>
	<node id="-337789" lat="58.049280552" lon="7.54473889306">
		<tag k="name" v="Torvmyra" />
		<tag k="natural" v="wetland" />
		<tag k="ssr:stedsnr" v="936231" />
	</node>
	<node id="-335739" lat="58.0479527793" lon="7.47224166838">
		<tag k="name" v="Dalemyra" />
		<tag k="natural" v="wetland" />
		<tag k="ssr:stedsnr" v="147204" />
	</node>
	<node id="-336250" lat="58.0337083334" lon="7.5539250075">
		<tag k="name" v="Stemmyra" />
		<tag k="natural" v="wetland" />
		<tag k="ssr:stedsnr" v="450445" />
	</node>
	<node id="-335225" lat="58.0713055595" lon="7.52437778277">
		<tag k="name" v="Heldalsmyra" />
		<tag k="natural" v="wetland" />
		<tag k="ssr:stedsnr" v="23622" />
	</node>
	<node id="-337272" lat="58.0881805518" lon="7.57003055894">
		<tag k="name" v="Djubemyr" />
		<tag k="natural" v="wetland" />
		<tag k="ssr:stedsnr" v="755933" />
	</node>
	<node id="-337271" lat="58.0914250014" lon="7.57024444479">
		<tag k="name" v="Kjerran" />
		<tag k="natural" v="wetland" />
		<tag k="ssr:stedsnr" v="755930" />
	</node>
	<node id="-337385" lat="58.1444611123" lon="7.55629166805">
		<tag k="name" v="Gullmyra" />
		<tag k="natural" v="wetland" />
		<tag k="ssr:stedsnr" v="813867" />
	</node>
	<node id="-336446" lat="58.0637722261" lon="7.44969166701">
		<tag k="name" v="Myra" />
		<tag k="natural" v="wetland" />
		<tag k="ssr:stedsnr" v="511177" />
	</node>
	<node id="-336241" lat="58.0461750032" lon="7.53961388325">
		<tag k="name" v="Arekjerran" />
		<tag k="natural" v="wetland" />
		<tag k="ssr:stedsnr" v="450243" />
	</node>
	<node id="-336609" lat="58.1384972248" lon="7.52602499798">
		<tag k="name" v="Skiftingsmyra" />
		<tag k="natural" v="wetland" />
		<tag k="ssr:stedsnr" v="570871" />
	</node>
	<node id="-336239" lat="58.0416833318" lon="7.52957777698">
		<tag k="name" v="Torvmyra" />
		<tag k="natural" v="wetland" />
		<tag k="ssr:stedsnr" v="450235" />
	</node>
	<node id="-337325" lat="57.9743472196" lon="7.61200278054">
		<tag k="name" v="Uran" />
		<tag k="natural" v="scree" />
		<tag k="ssr:stedsnr" v="813315" />
	</node>
	<node id="-336749" lat="58.0763694446" lon="7.5553888965">
		<tag k="name" v="Galtemyr" />
		<tag k="natural" v="wetland" />
		<tag k="ssr:stedsnr" v="630525" />
	</node>
	<node id="-336747" lat="58.0711972246" lon="7.56091388059">
		<tag k="name" v="Andersmyran" />
		<tag k="natural" v="wetland" />
		<tag k="ssr:stedsnr" v="630515" />
	</node>
	<node id="-336234" lat="58.0578000037" lon="7.50337777662">
		<tag k="name" v="Folemyra" />
		<tag k="natural" v="wetland" />
		<tag k="ssr:stedsnr" v="450192" />
	</node>
	<node id="-337768" lat="58.1518666652" lon="7.53295278352">
		<tag k="name" v="Rossemyr" />
		<tag k="natural" v="wetland" />
		<tag k="ssr:stedsnr" v="935986" />
	</node>
	<node id="-337767" lat="58.1308777812" lon="7.54160555483">
		<tag k="name" v="Govollen" />
		<tag k="place" v="locality" />
		<tag k="ssr:stedsnr" v="935985" />
	</node>
	<node id="-335505" lat="58.0679111134" lon="7.58767499596">
		<tag k="name" v="Ormura" />
		<tag k="natural" v="scree" />
		<tag k="ssr:stedsnr" v="85956" />
	</node>
	<node id="-335716" lat="58.047380552" lon="7.54498610481">
		<tag k="name" v="Kringlemyra" />
		<tag k="natural" v="wetland" />
		<tag k="ssr:stedsnr" v="146229" />
	</node>
	<node id="-337762" lat="58.0801111089" lon="7.62413056005">
		<tag k="name" v="Heptemyra" />
		<tag k="natural" v="wetland" />
		<tag k="ssr:stedsnr" v="935947" />
	</node>
	<node id="-335713" lat="58.0182055541" lon="7.51017222531">
		<tag k="name" v="Brennevinsmyra" />
		<tag k="natural" v="wetland" />
		<tag k="ssr:stedsnr" v="146191" />
	</node>
	<node id="-337247" lat="58.0205083362" lon="7.53194444637">
		<tag k="name" v="Kirkemyra" />
		<tag k="place" v="locality" />
		<tag k="ssr:stedsnr" v="754504" />
	</node>
	<node id="-337722" lat="58.1428833379" lon="7.49944722979">
		<tag k="name" v="Djubemyr" />
		<tag k="natural" v="wetland" />
		<tag k="ssr:stedsnr" v="935498" />
	</node>
	<node id="-337551" lat="58.0986777745" lon="7.579913884">
		<tag k="name" v="Trysmyr" />
		<tag k="natural" v="wetland" />
		<tag k="ssr:stedsnr" v="874794" />
	</node>
	<node id="-335188" lat="58.0796388887" lon="7.54634443623">
		<tag k="name" v="Stølslona" />
		<tag k="natural" v="wetland" />
		<tag k="ssr:stedsnr" v="267559" />
	</node>
	<node id="-335699" lat="58.0811527788" lon="7.61039723033">
		<tag k="name" v="Nordjordet" />
		<tag k="place" v="locality" />
		<tag k="ssr:stedsnr" v="145940" />
	</node>
	<node id="-337745" lat="57.9942027748" lon="7.48571666963">
		<tag k="name" v="Odderura" />
		<tag k="natural" v="scree" />
		<tag k="ssr:stedsnr" v="936029" />
	</node>
	<node id="-335184" lat="58.1031472231" lon="7.55321943806">
		<tag k="name" v="Hølmemyra" />
		<tag k="natural" v="wetland" />
		<tag k="ssr:stedsnr" v="267496" />
	</node>
	<node id="-337231" lat="58.0509027776" lon="7.4252694386">
		<tag k="name" v="Torvmyra" />
		<tag k="natural" v="wetland" />
		<tag k="ssr:stedsnr" v="754217" />
	</node>
	<node id="-335182" lat="58.1039083326" lon="7.47043332659">
		<tag k="name" v="Skinnfellsteinan" />
		<tag k="natural" v="stone" />
		<tag k="ssr:stedsnr" v="267483" />
	</node>
	<node id="-335693" lat="58.0978222227" lon="7.54235555466">
		<tag k="name" v="Pålsmyra" />
		<tag k="natural" v="wetland" />
		<tag k="ssr:stedsnr" v="145899" />
	</node>
	<node id="-336204" lat="58.0763805536" lon="7.61722777487">
		<tag k="name" v="Rossmyra" />
		<tag k="natural" v="wetland" />
		<tag k="ssr:stedsnr" v="449918" />
	</node>
	<node id="-337227" lat="58.0484583352" lon="7.45775000116">
		<tag k="name" v="Bjøllandsmyra" />
		<tag k="natural" v="wetland" />
		<tag k="ssr:stedsnr" v="754172" />
	</node>
	<node id="-335177" lat="58.1144249965" lon="7.48451388083">
		<tag k="name" v="Slåtta" />
		<tag k="natural" v="wetland" />
		<tag k="ssr:stedsnr" v="267439" />
	</node>
	<node id="-337735" lat="58.106255554" lon="7.61475277129">
		<tag k="name" v="Bordåsmyra" />
		<tag k="natural" v="wetland" />
		<tag k="ssr:stedsnr" v="935768" />
	</node>
	<node id="-335174" lat="58.1276027798" lon="7.48413055849">
		<tag k="name" v="Torvmyr" />
		<tag k="natural" v="wetland" />
		<tag k="ssr:stedsnr" v="267422" />
	</node>
	<node id="-335173" lat="58.1477083322" lon="7.48701666251">
		<tag k="name" v="Bjørnekjerr" />
		<tag k="natural" v="wetland" />
		<tag k="ssr:stedsnr" v="267415" />
	</node>
	<node id="-337220" lat="58.0459388854" lon="7.57783888667">
		<tag k="name" v="Årekjerr" />
		<tag k="natural" v="wetland" />
		<tag k="ssr:stedsnr" v="753220" />
	</node>
	<node id="-336950" lat="58.0799972253" lon="7.56093055958">
		<tag k="name" v="Hegdekjerr" />
		<tag k="natural" v="wetland" />
		<tag k="ssr:stedsnr" v="691577" />
	</node>
	<node id="-335682" lat="58.0552666689" lon="7.3518749964">
		<tag k="name" v="Langekjerr" />
		<tag k="natural" v="wetland" />
		<tag k="ssr:stedsnr" v="145793" />
	</node>
	<node id="-337728" lat="58.0816333371" lon="7.514397219">
		<tag k="name" v="Fiskersteinen" />
		<tag k="natural" v="stone" />
		<tag k="ssr:stedsnr" v="935813" />
	</node>
	<node id="-336191" lat="58.0918666625" lon="7.60082221553">
		<tag k="name" v="Råmyra" />
		<tag k="natural" v="wetland" />
		<tag k="ssr:stedsnr" v="449766" />
	</node>
	<node id="-336437" lat="57.9892972235" lon="7.54134722834">
		<tag k="name" v="Kjerringa" />
		<tag k="natural" v="stone" />
		<tag k="ssr:stedsnr" v="511120" />
	</node>
	<node id="-336699" lat="58.0876083372" lon="7.54149443859">
		<tag k="name" v="Langemyr" />
		<tag k="natural" v="wetland" />
		<tag k="ssr:stedsnr" v="572929" />
	</node>
	<node id="-335674" lat="58.1073833314" lon="7.59961388823">
		<tag k="name" v="Kringlemyr" />
		<tag k="natural" v="wetland" />
		<tag k="ssr:stedsnr" v="145762" />
	</node>
	<node id="-335670" lat="58.1219000031" lon="7.58161111666">
		<tag k="name" v="Bumyr" />
		<tag k="natural" v="wetland" />
		<tag k="ssr:stedsnr" v="145728" />
	</node>
	<node id="-336179" lat="58.1229888858" lon="7.45441389187">
		<tag k="name" v="Ustadmyra" />
		<tag k="natural" v="wetland" />
		<tag k="ssr:stedsnr" v="449680" />
	</node>
	<node id="-335665" lat="58.0856055575" lon="7.42867500691">
		<tag k="name" v="Spanstøl" />
		<tag k="place" v="locality" />
		<tag k="ssr:stedsnr" v="145717" />
	</node>
	<node id="-336175" lat="58.071638892" lon="7.4783777857">
		<tag k="name" v="Flegemyra" />
		<tag k="natural" v="wetland" />
		<tag k="ssr:stedsnr" v="449655" />
	</node>
	<node id="-337197" lat="58.1078944483" lon="7.53250000678">
		<tag k="name" v="Haveplass" />
		<tag k="place" v="locality" />
		<tag k="ssr:stedsnr" v="752877" />
	</node>
	<node id="-334936" lat="58.0142472218" lon="7.55046944806">
		<tag k="name" v="Stemmyra" />
		<tag k="natural" v="wetland" />
		<tag k="ssr:stedsnr" v="388364" />
	</node>
	<node id="-337703" lat="58.1025138849" lon="7.50718610448">
		<tag k="name" v="Holemyr" />
		<tag k="natural" v="wetland" />
		<tag k="ssr:stedsnr" v="934946" />
	</node>
	<node id="-336166" lat="58.0640805566" lon="7.55033611817">
		<tag k="name" v="Langemyr" />
		<tag k="natural" v="wetland" />
		<tag k="ssr:stedsnr" v="449539" />
	</node>
	<node id="-336677" lat="58.0469361112" lon="7.42654444918">
		<tag k="name" v="Leiningsmyra" />
		<tag k="natural" v="wetland" />
		<tag k="ssr:stedsnr" v="572220" />
	</node>
	<node id="-336091" lat="58.0241750035" lon="7.40799721991">
		<tag k="name" v="Heimre Torvmyr" />
		<tag k="natural" v="wetland" />
		<tag k="ssr:stedsnr" v="268847" />
	</node>
	<node id="-336894" lat="58.0141055551" lon="7.34507499487">
		<tag k="name" v="Hestemyra" />
		<tag k="natural" v="wetland" />
		<tag k="ssr:stedsnr" v="632912" />
	</node>
	<node id="-335646" lat="58.0964722201" lon="7.47162499756">
		<tag k="name" v="Døblemyra" />
		<tag k="natural" v="wetland" />
		<tag k="ssr:stedsnr" v="145514" />
	</node>
	<node id="-335645" lat="58.1184388861" lon="7.48831666494">
		<tag k="name" v="Stormyra" />
		<tag k="natural" v="wetland" />
		<tag k="ssr:stedsnr" v="145512" />
	</node>
	<node id="-335643" lat="58.1226138869" lon="7.49613611758">
		<tag k="name" v="Sillemyra" />
		<tag k="natural" v="wetland" />
		<tag k="ssr:stedsnr" v="145497" />
	</node>
	<node id="-335642" lat="58.1062805557" lon="7.51026666879">
		<tag k="name" v="Lomsmyra" />
		<tag k="natural" v="wetland" />
		<tag k="ssr:stedsnr" v="145486" />
	</node>
	<node id="-337199" lat="58.094666667" lon="7.55270555199">
		<tag k="name" v="Vrangkjerran" />
		<tag k="natural" v="wetland" />
		<tag k="ssr:stedsnr" v="752895" />
	</node>
	<node id="-335637" lat="58.1392611133" lon="7.48843611073">
		<tag k="name" v="Lampemyra" />
		<tag k="natural" v="wetland" />
		<tag k="ssr:stedsnr" v="145463" />
	</node>
	<node id="-335635" lat="58.0009916628" lon="7.52057222766">
		<tag k="name" v="Kalvehaven" />
		<tag k="place" v="locality" />
		<tag k="ssr:stedsnr" v="145412" />
	</node>
	<node id="-337680" lat="58.1012305578" lon="7.50866111872">
		<tag k="name" v="Suggemyr" />
		<tag k="natural" v="wetland" />
		<tag k="ssr:stedsnr" v="934496" />
	</node>
	<node id="-336139" lat="58.0658111141" lon="7.52879722921">
		<tag k="name" v="Langmyra" />
		<tag k="natural" v="wetland" />
		<tag k="ssr:stedsnr" v="448588" />
	</node>
	<node id="-335319" lat="57.971969447" lon="7.49820554954">
		<tag k="name" v="Aserura" />
		<tag k="natural" v="scree" />
		<tag k="ssr:stedsnr" v="25041" />
	</node>
	<node id="-337156" lat="58.0746111132" lon="7.55858055511">
		<tag k="name" v="Djubemyra" />
		<tag k="natural" v="wetland" />
		<tag k="ssr:stedsnr" v="752557" />
	</node>
	<node id="-337366" lat="58.1029333345" lon="7.4535305534">
		<tag k="name" v="Myra" />
		<tag k="natural" v="wetland" />
		<tag k="ssr:stedsnr" v="813714" />
	</node>
	<node id="-336427" lat="58.1507805527" lon="7.53569721413">
		<tag k="name" v="Langemyr" />
		<tag k="natural" v="wetland" />
		<tag k="ssr:stedsnr" v="510984" />
	</node>
	<node id="-337149" lat="58.092908336" lon="7.46800277922">
		<tag k="name" v="Skrøvjejordet" />
		<tag k="natural" v="wetland" />
		<tag k="ssr:stedsnr" v="752485" />
	</node>
	<node id="-336635" lat="58.072827777" lon="7.45865555453">
		<tag k="name" v="Nordjordet" />
		<tag k="place" v="locality" />
		<tag k="ssr:stedsnr" v="571151" />
	</node>
	<node id="-335923" lat="58.0597999988" lon="7.60323888919">
		<tag k="name" v="Røyremyr" />
		<tag k="natural" v="wetland" />
		<tag k="ssr:stedsnr" v="208330" />
	</node>
	<node id="-336281" lat="58.0576944421" lon="7.55031666029">
		<tag k="name" v="Knibemyr" />
		<tag k="natural" v="wetland" />
		<tag k="ssr:stedsnr" v="451512" />
	</node>
	<node id="-337140" lat="58.0148749961" lon="7.57109444573">
		<tag k="name" v="Øygardskjerran" />
		<tag k="natural" v="wetland" />
		<tag k="ssr:stedsnr" v="752367" />
	</node>
	<node id="-337022" lat="58.0789999995" lon="7.60812221419">
		<tag k="name" v="Stean" />
		<tag k="place" v="locality" />
		<tag k="ssr:stedsnr" v="692998" />
	</node>
	<node id="-336851" lat="58.0764583369" lon="7.43725833514">
		<tag k="name" v="Losmyra" />
		<tag k="natural" v="wetland" />
		<tag k="ssr:stedsnr" v="632182" />
	</node>
	<node id="-337136" lat="57.9934194416" lon="7.58455278073">
		<tag k="name" v="Revura" />
		<tag k="natural" v="scree" />
		<tag k="ssr:stedsnr" v="752327" />
	</node>
	<node id="-337643" lat="58.0853916707" lon="7.56929722666">
		<tag k="name" v="Myran" />
		<tag k="natural" v="wetland" />
		<tag k="ssr:stedsnr" v="876917" />
	</node>
	<node id="-337129" lat="58.0678722208" lon="7.51871667367">
		<tag k="name" v="Stemmen" />
		<tag k="natural" v="wetland" />
		<tag k="ssr:stedsnr" v="751596" />
	</node>
	<node id="-336615" lat="58.0709111115" lon="7.61833054757">
		<tag k="name" v="Breimyr" />
		<tag k="natural" v="wetland" />
		<tag k="ssr:stedsnr" v="570918" />
	</node>
	<node id="-337126" lat="58.0758583364" lon="7.52736943746">
		<tag k="name" v="Kjellingkjerr" />
		<tag k="natural" v="wetland" />
		<tag k="ssr:stedsnr" v="751607" />
	</node>
	<node id="-336613" lat="58.0805111103" lon="7.55466388547">
		<tag k="name" v="Porsmyr" />
		<tag k="natural" v="wetland" />
		<tag k="ssr:stedsnr" v="570900" />
	</node>
	<node id="-336612" lat="58.1048000003" lon="7.5683611136">
		<tag k="name" v="Tjosmyr" />
		<tag k="natural" v="wetland" />
		<tag k="ssr:stedsnr" v="570896" />
	</node>
	<node id="-336611" lat="58.0959777797" lon="7.56340833935">
		<tag k="name" v="Langmyra" />
		<tag k="natural" v="wetland" />
		<tag k="ssr:stedsnr" v="570890" />
	</node>
	<node id="-336502" lat="58.0598444479" lon="7.55219721818">
		<tag k="name" v="Motjønnsmyr" />
		<tag k="natural" v="wetland" />
		<tag k="ssr:stedsnr" v="512518" />
	</node>
	<node id="-335585" lat="58.0348416696" lon="7.36318055508">
		<tag k="name" v="Ålestø" />
		<tag k="natural" v="wetland" />
		<tag k="ssr:stedsnr" v="87854" />
	</node>
	<node id="-334780" lat="58.1091499966" lon="7.60641111803">
		<tag k="name" v="Stedjan" />
		<tag k="natural" v="wetland" />
		<tag k="ssr:stedsnr" v="328743" />
	</node>
	<node id="-336606" lat="58.1181944442" lon="7.55417221738">
		<tag k="name" v="Bergemyra" />
		<tag k="natural" v="wetland" />
		<tag k="ssr:stedsnr" v="570858" />
	</node>
	<node id="-336165" lat="58.0652027821" lon="7.54802499624">
		<tag k="name" v="Porsmyr" />
		<tag k="place" v="locality" />
		<tag k="ssr:stedsnr" v="449533" />
	</node>
	<node id="-336092" lat="58.0294499968" lon="7.3913000063">
		<tag k="name" v="Lakjerran" />
		<tag k="natural" v="wetland" />
		<tag k="ssr:stedsnr" v="268857" />
	</node>
	<node id="-337627" lat="58.0386277785" lon="7.40291388764">
		<tag k="name" v="Torvmyra" />
		<tag k="natural" v="wetland" />
		<tag k="ssr:stedsnr" v="875836" />
	</node>
	<node id="-335578" lat="58.0602777783" lon="7.54703888417">
		<tag k="name" v="Vatnedalsmyra" />
		<tag k="natural" v="wetland" />
		<tag k="ssr:stedsnr" v="87494" />
	</node>
	<node id="-334799" lat="58.0726277758" lon="7.61419167026">
		<tag k="name" v="Langemyra" />
		<tag k="natural" v="wetland" />
		<tag k="ssr:stedsnr" v="328942" />
	</node>
	<node id="-336804" lat="58.1086388863" lon="7.62116388188">
		<tag k="name" v="Skrubbemyr" />
		<tag k="natural" v="wetland" />
		<tag k="ssr:stedsnr" v="631748" />
	</node>
	<node id="-336598" lat="58.0913694458" lon="7.57458610487">
		<tag k="name" v="Bjørnemyr" />
		<tag k="natural" v="wetland" />
		<tag k="ssr:stedsnr" v="570780" />
	</node>
	<node id="-336591" lat="58.0781694401" lon="7.63246110544">
		<tag k="name" v="Vinterkjerran" />
		<tag k="natural" v="wetland" />
		<tag k="ssr:stedsnr" v="570748" />
	</node>
	<node id="-337614" lat="58.0277916687" lon="7.522852786">
		<tag k="name" v="Kvitmyra" />
		<tag k="place" v="locality" />
		<tag k="ssr:stedsnr" v="875452" />
	</node>
	<node id="-334660" lat="58.0269305552" lon="7.55536944656">
		<tag k="name" v="Storemyra" />
		<tag k="natural" v="wetland" />
		<tag k="ssr:stedsnr" v="269483" />
	</node>
	<node id="-335991" lat="57.9799388874" lon="7.53963888696">
		<tag k="name" v="Hammersteinan" />
		<tag k="natural" v="stone" />
		<tag k="ssr:stedsnr" v="267066" />
	</node>
	<node id="-336584" lat="58.1013611119" lon="7.44739723022">
		<tag k="name" v="Revura" />
		<tag k="natural" v="scree" />
		<tag k="ssr:stedsnr" v="570683" />
	</node>
	<node id="-335559" lat="58.0403333328" lon="7.60757778313">
		<tag k="name" v="Møllemyra" />
		<tag k="natural" v="wetland" />
		<tag k="ssr:stedsnr" v="87281" />
	</node>
	<node id="-335558" lat="58.0483500024" lon="7.55742778577">
		<tag k="name" v="Romyra" />
		<tag k="natural" v="wetland" />
		<tag k="ssr:stedsnr" v="87251" />
	</node>
	<node id="-335873" lat="58.1309083313" lon="7.57086666562">
		<tag k="name" v="Graskjerran" />
		<tag k="natural" v="wetland" />
		<tag k="ssr:stedsnr" v="206879" />
	</node>
	<node id="-335461" lat="58.0276916656" lon="7.63752222815">
		<tag k="name" v="Gjellersmyr" />
		<tag k="natural" v="wetland" />
		<tag k="ssr:stedsnr" v="85555" />
	</node>
	<node id="-337526" lat="58.151866664" lon="7.51277777353">
		<tag k="name" v="Hestemyr" />
		<tag k="natural" v="wetland" />
		<tag k="ssr:stedsnr" v="874607" />
	</node>
	<node id="-336177" lat="58.0721388902" lon="7.49438055974">
		<tag k="name" v="Fidjan" />
		<tag k="natural" v="wetland" />
		<tag k="ssr:stedsnr" v="449666" />
	</node>
	<node id="-337089" lat="58.0146305557" lon="7.39428332606">
		<tag k="name" v="Landemyra" />
		<tag k="natural" v="wetland" />
		<tag k="ssr:stedsnr" v="694847" />
	</node>
	<node id="-335040" lat="58.057352777" lon="7.59067221626">
		<tag k="name" v="Storemyr" />
		<tag k="natural" v="wetland" />
		<tag k="ssr:stedsnr" v="390326" />
	</node>
	<node id="-336575" lat="58.1279666694" lon="7.4962388956">
		<tag k="name" v="Storemyr" />
		<tag k="natural" v="wetland" />
		<tag k="ssr:stedsnr" v="570556" />
	</node>
	<node id="-336573" lat="58.0844222233" lon="7.53373888482">
		<tag k="name" v="Stemmen" />
		<tag k="natural" v="wetland" />
		<tag k="ssr:stedsnr" v="570544" />
	</node>
	<node id="-336060" lat="57.9830305523" lon="7.51745555746">
		<tag k="name" v="Tullemyra" />
		<tag k="natural" v="wetland" />
		<tag k="ssr:stedsnr" v="268003" />
	</node>
	<node id="-335546" lat="58.0850861068" lon="7.5760861043">
		<tag k="landuse" v="meadow" />
		<tag k="name" v="Rødjordet" />
		<tag k="ssr:stedsnr" v="86896" />
	</node>
	<node id="-336569" lat="58.1226055511" lon="7.47948888292">
		<tag k="name" v="Slåttemyr" />
		<tag k="natural" v="wetland" />
		<tag k="ssr:stedsnr" v="570458" />
	</node>
	<node id="-336567" lat="58.1361750009" lon="7.4954916687">
		<tag k="name" v="Gardsmyra" />
		<tag k="natural" v="wetland" />
		<tag k="ssr:stedsnr" v="570415" />
	</node>
	<node id="-336566" lat="58.1433388858" lon="7.49115000777">
		<tag k="name" v="Rispermyra" />
		<tag k="natural" v="wetland" />
		<tag k="ssr:stedsnr" v="570416" />
	</node>
	<node id="-337370" lat="58.0989222228" lon="7.41929444412">
		<tag k="name" v="Hellingsmyra" />
		<tag k="natural" v="wetland" />
		<tag k="ssr:stedsnr" v="813732" />
	</node>
	<node id="-336564" lat="58.0138722185" lon="7.5330333332">
		<tag k="name" v="Spanskfidja" />
		<tag k="place" v="locality" />
		<tag k="ssr:stedsnr" v="570344" />
	</node>
	<node id="-336158" lat="58.1234500007" lon="7.50670278078">
		<tag k="name" v="Babrokjerran" />
		<tag k="natural" v="wetland" />
		<tag k="ssr:stedsnr" v="449480" />
	</node>
	<node id="-336669" lat="57.9958694444" lon="7.34744722372">
		<tag k="name" v="Nisseura" />
		<tag k="natural" v="scree" />
		<tag k="ssr:stedsnr" v="571919" />
	</node>
	<node id="-337578" lat="58.0825388851" lon="7.57641388811">
		<tag k="name" v="Krokmyra" />
		<tag k="natural" v="wetland" />
		<tag k="ssr:stedsnr" v="874982" />
	</node>
	<node id="-337576" lat="58.0780694448" lon="7.58829444559">
		<tag k="name" v="Viksmyra" />
		<tag k="natural" v="wetland" />
		<tag k="ssr:stedsnr" v="874935" />
	</node>
	<node id="-336551" lat="58.0748833328" lon="7.53974722984">
		<tag k="name" v="Spangmyra" />
		<tag k="natural" v="wetland" />
		<tag k="ssr:stedsnr" v="569586" />
	</node>
	<node id="-335014" lat="58.0518305547" lon="7.5419194425">
		<tag k="name" v="Blåmyra" />
		<tag k="natural" v="wetland" />
		<tag k="ssr:stedsnr" v="389250" />
	</node>
	<node id="-337572" lat="58.021702781" lon="7.61786389424">
		<tag k="name" v="Storestøl" />
		<tag k="place" v="locality" />
		<tag k="ssr:stedsnr" v="875341" />
	</node>
	<node id="-335523" lat="58.0089249961" lon="7.50691389704">
		<tag k="name" v="Geitemyra" />
		<tag k="natural" v="wetland" />
		<tag k="ssr:stedsnr" v="86227" />
	</node>
	<node id="-336546" lat="58.0672694485" lon="7.54546944603">
		<tag k="name" v="Skottemyra" />
		<tag k="place" v="locality" />
		<tag k="ssr:stedsnr" v="569565" />
	</node>
	<node id="-335521" lat="58.057794442" lon="7.47717221606">
		<tag k="name" v="Torvmyra" />
		<tag k="natural" v="wetland" />
		<tag k="ssr:stedsnr" v="86199" />
	</node>
	<node id="-337568" lat="58.1129166641" lon="7.53550000376">
		<tag k="name" v="Katteneset" />
		<tag k="place" v="locality" />
		<tag k="ssr:stedsnr" v="874899" />
	</node>
	<node id="-336031" lat="58.0489083304" lon="7.36057777983">
		<tag k="name" v="Haddelandsmyra" />
		<tag k="natural" v="wetland" />
		<tag k="ssr:stedsnr" v="267826" />
	</node>
	<node id="-336325" lat="58.0679527786" lon="7.53183055246">
		<tag k="name" v="Lindlandslåtter" />
		<tag k="place" v="locality" />
		<tag k="ssr:stedsnr" v="508620" />
	</node>
	<node id="-335898" lat="58.0389333368" lon="7.59303055538">
		<tag k="name" v="Langemyra" />
		<tag k="natural" v="wetland" />
		<tag k="ssr:stedsnr" v="207290" />
	</node>
	<node id="-337369" lat="58.0880666661" lon="7.41329722009">
		<tag k="name" v="Gullringsteinen" />
		<tag k="natural" v="stone" />
		<tag k="ssr:stedsnr" v="813730" />
	</node>
	<node id="-336687" lat="58.0551750045" lon="7.56599166742">
		<tag k="name" v="Bjåmyr" />
		<tag k="natural" v="wetland" />
		<tag k="ssr:stedsnr" v="572514" />
	</node>
	<node id="-337177" lat="58.103927774" lon="7.59258333299">
		<tag k="name" v="Systadmyran" />
		<tag k="natural" v="wetland" />
		<tag k="ssr:stedsnr" v="752749" />
	</node>
	<node id="-336039" lat="58.1273777736" lon="7.56105277283">
		<tag k="name" v="Bladkjerran" />
		<tag k="natural" v="wetland" />
		<tag k="ssr:stedsnr" v="267878" />
	</node>
	<node id="-334993" lat="58.0705166642" lon="7.62296389198">
		<tag k="name" v="Sedan" />
		<tag k="natural" v="wetland" />
		<tag k="ssr:stedsnr" v="388917" />
	</node>
	<node id="-334992" lat="58.1255027756" lon="7.52983611744">
		<tag k="name" v="Trettekjerr" />
		<tag k="natural" v="wetland" />
		<tag k="ssr:stedsnr" v="388914" />
	</node>
	<node id="-336067" lat="58.0797666653" lon="7.4404250044">
		<tag k="name" v="Nesan" />
		<tag k="place" v="locality" />
		<tag k="ssr:stedsnr" v="268152" />
	</node>
	<node id="-336014" lat="58.100141667" lon="7.41408888726">
		<tag k="name" v="Pallemyra" />
		<tag k="natural" v="wetland" />
		<tag k="ssr:stedsnr" v="267711" />
	</node>
	<node id="-336012" lat="58.0951111109" lon="7.41380277814">
		<tag k="name" v="Nordjordet" />
		<tag k="place" v="locality" />
		<tag k="ssr:stedsnr" v="267709" />
	</node>
	<node id="-337346" lat="58.0863027804" lon="7.52755833115">
		<tag k="name" v="Torvmyra" />
		<tag k="natural" v="wetland" />
		<tag k="ssr:stedsnr" v="813565" />
	</node>
	<node id="-337543" lat="58.0823555533" lon="7.63306666624">
		<tag k="name" v="Eskedalsmyra" />
		<tag k="natural" v="wetland" />
		<tag k="ssr:stedsnr" v="874756" />
	</node>
	<node id="-335494" lat="58.1326083321" lon="7.56846666814">
		<tag k="name" v="Tjødnemyra" />
		<tag k="natural" v="wetland" />
		<tag k="ssr:stedsnr" v="85865" />
	</node>
	<node id="-337541" lat="58.0892861134" lon="7.4143333358">
		<tag k="name" v="Døblemyra" />
		<tag k="natural" v="wetland" />
		<tag k="ssr:stedsnr" v="874743" />
	</node>
	<node id="-337003" lat="57.9997805549" lon="7.37006667126">
		<tag k="name" v="Gullvikmyra" />
		<tag k="natural" v="wetland" />
		<tag k="ssr:stedsnr" v="692852" />
	</node>
	<node id="-336601" lat="58.0504805552" lon="7.37101667119">
		<tag k="name" v="Vesterjordet" />
		<tag k="place" v="locality" />
		<tag k="ssr:stedsnr" v="570807" />
	</node>
	<node id="-334974" lat="58.0429638858" lon="7.36730277636">
		<tag k="name" v="Stegemyra" />
		<tag k="natural" v="wetland" />
		<tag k="ssr:stedsnr" v="388748" />
	</node>
	<node id="-335484" lat="58.0558638931" lon="7.37499722899">
		<tag k="name" v="Rompa" />
		<tag k="natural" v="wetland" />
		<tag k="ssr:stedsnr" v="85771" />
	</node>
	<node id="-335483" lat="58.0954694406" lon="7.60971111262">
		<tag k="name" v="Myran" />
		<tag k="natural" v="wetland" />
		<tag k="ssr:stedsnr" v="85763" />
	</node>
	<node id="-337016" lat="58.068119442" lon="7.60839444909">
		<tag k="name" v="Haugeråsmyra" />
		<tag k="natural" v="wetland" />
		<tag k="ssr:stedsnr" v="692960" />
	</node>
	<node id="-337015" lat="58.070408332" lon="7.5752666645">
		<tag k="name" v="Skrekkmyra" />
		<tag k="natural" v="wetland" />
		<tag k="ssr:stedsnr" v="692952" />
	</node>
	<node id="-335478" lat="58.0734972185" lon="7.62773055964">
		<tag k="name" v="Grimsmyra" />
		<tag k="natural" v="wetland" />
		<tag k="ssr:stedsnr" v="85712" />
	</node>
	<node id="-336500" lat="58.0511000028" lon="7.53070555455">
		<tag k="name" v="Gunnarskjerran" />
		<tag k="natural" v="wetland" />
		<tag k="ssr:stedsnr" v="512508" />
	</node>
	<node id="-337523" lat="58.0962583294" lon="7.47795555634">
		<tag k="name" v="Vollmyra" />
		<tag k="natural" v="wetland" />
		<tag k="ssr:stedsnr" v="874536" />
	</node>
	<node id="-335985" lat="58.0779305595" lon="7.52574166362">
		<tag k="name" v="Grokjerr" />
		<tag k="natural" v="wetland" />
		<tag k="ssr:stedsnr" v="266573" />
	</node>
	<node id="-337828" lat="58.026427774" lon="7.55675000699">
		<tag k="name" v="Nesemyra" />
		<tag k="natural" v="wetland" />
		<tag k="ssr:stedsnr" v="937521" />
	</node>
	<node id="-336901" lat="58.0605527784" lon="7.52380554978">
		<tag k="name" v="Venselmyra" />
		<tag k="natural" v="wetland" />
		<tag k="ssr:stedsnr" v="633517" />
	</node>
	<node id="-337006" lat="58.1107555579" lon="7.54277778434">
		<tag k="name" v="Krossmyra" />
		<tag k="natural" v="wetland" />
		<tag k="ssr:stedsnr" v="692884" />
	</node>
	<node id="-334955" lat="58.0804833311" lon="7.53944444141">
		<tag k="name" v="Stemsmyra" />
		<tag k="natural" v="wetland" />
		<tag k="ssr:stedsnr" v="388572" />
	</node>
	<node id="-334954" lat="58.0673444454" lon="7.55791944386">
		<tag k="name" v="Fidjan" />
		<tag k="place" v="locality" />
		<tag k="ssr:stedsnr" v="388535" />
	</node>
	<node id="-337001" lat="58.0535527772" lon="7.38131389723">
		<tag k="name" v="Haugeråsmyra" />
		<tag k="natural" v="wetland" />
		<tag k="ssr:stedsnr" v="692808" />
	</node>
	<node id="-335528" lat="58.0485888904" lon="7.57908333827">
		<tag k="name" v="Stedjan" />
		<tag k="place" v="locality" />
		<tag k="ssr:stedsnr" v="86279" />
	</node>
	<node id="-334949" lat="58.1251194464" lon="7.47323055567">
		<tag k="name" v="Torvemyr" />
		<tag k="natural" v="wetland" />
		<tag k="ssr:stedsnr" v="388472" />
	</node>
	<node id="-334948" lat="58.1150416672" lon="7.47545555714">
		<tag k="name" v="Hestemyra" />
		<tag k="natural" v="wetland" />
		<tag k="ssr:stedsnr" v="388454" />
	</node>
	<node id="-334944" lat="58.1400333341" lon="7.49369721799">
		<tag k="name" v="Folemyra" />
		<tag k="natural" v="wetland" />
		<tag k="ssr:stedsnr" v="388427" />
	</node>
	<node id="-337503" lat="58.0794388885" lon="7.53782500514">
		<tag k="name" v="Skotmyra" />
		<tag k="natural" v="wetland" />
		<tag k="ssr:stedsnr" v="873574" />
	</node>
	<node id="-337040" lat="58.0495388911" lon="7.42893054713">
		<tag k="name" v="Elishola" />
		<tag k="place" v="locality" />
		<tag k="ssr:stedsnr" v="693199" />
	</node>
	<node id="-336477" lat="57.9993916686" lon="7.42290832687">
		<tag k="name" v="Odderura" />
		<tag k="natural" v="scree" />
		<tag k="ssr:stedsnr" v="511740" />
	</node>
	<node id="-336189" lat="58.0935305544" lon="7.60676945196">
		<tag k="name" v="Gudbrandskjerr" />
		<tag k="natural" v="wetland" />
		<tag k="ssr:stedsnr" v="449761" />
	</node>
	<node id="-337082" lat="58.0290944473" lon="7.55132500741">
		<tag k="name" v="Glovemyra" />
		<tag k="natural" v="wetland" />
		<tag k="ssr:stedsnr" v="694476" />
	</node>
	<node id="-336985" lat="58.1342750024" lon="7.48161667083">
		<tag k="name" v="Håmyra" />
		<tag k="natural" v="wetland" />
		<tag k="ssr:stedsnr" v="692570" />
	</node>
	<node id="-337401" lat="58.1389472234" lon="7.55472222747">
		<tag k="name" v="Vallåsmyra" />
		<tag k="natural" v="wetland" />
		<tag k="ssr:stedsnr" v="813965" />
	</node>
	<node id="-336228" lat="58.0431694424" lon="7.50270277755">
		<tag k="name" v="Koppermyra" />
		<tag k="natural" v="wetland" />
		<tag k="ssr:stedsnr" v="450162" />
	</node>
	<node id="-336981" lat="58.1226666687" lon="7.48318611234">
		<tag k="name" v="Rusta" />
		<tag k="natural" v="wetland" />
		<tag k="ssr:stedsnr" v="692477" />
	</node>
	<node id="-337492" lat="58.0637361153" lon="7.60659165941">
		<tag k="alt_name" v="Holemyra" />
		<tag k="name" v="Pilmyra" />
		<tag k="natural" v="wetland" />
		<tag k="ssr:stedsnr" v="850891" />
	</node>
	<node id="-336465" lat="58.0246111118" lon="7.52656666261">
		<tag k="name" v="Stormyra" />
		<tag k="natural" v="wetland" />
		<tag k="ssr:stedsnr" v="511428" />
	</node>
	<node id="-334928" lat="58.0484833292" lon="7.60685833791">
		<tag k="name" v="Hestemyra" />
		<tag k="natural" v="wetland" />
		<tag k="ssr:stedsnr" v="388303" />
	</node>
	<node id="-336824" lat="58.133652775" lon="7.52289999537">
		<tag k="name" v="Fjellbakksmyra" />
		<tag k="natural" v="wetland" />
		<tag k="ssr:stedsnr" v="631972" />
	</node>
	<node id="-335949" lat="58.1009055534" lon="7.57314721503">
		<tag k="name" v="Moltemyr" />
		<tag k="natural" v="wetland" />
		<tag k="ssr:stedsnr" v="208912" />
	</node>
	<node id="-336971" lat="58.0170333298" lon="7.5278999996">
		<tag k="name" v="Offersmyra" />
		<tag k="natural" v="wetland" />
		<tag k="ssr:stedsnr" v="692371" />
	</node>
	<node id="-337571" lat="58.0395027809" lon="7.61096388883">
		<tag k="name" v="Rissvika" />
		<tag k="place" v="locality" />
		<tag k="ssr:stedsnr" v="875340" />
	</node>
	<node id="-336548" lat="58.0689194477" lon="7.52770555099">
		<tag k="name" v="Stean" />
		<tag k="natural" v="wetland" />
		<tag k="ssr:stedsnr" v="569571" />
	</node>
	<node id="-335427" lat="58.0649861074" lon="7.53818611054">
		<tag k="name" v="Karten" />
		<tag k="place" v="locality" />
		<tag k="ssr:stedsnr" v="84584" />
	</node>
	<node id="-334913" lat="58.0494000026" lon="7.50791944038">
		<tag k="name" v="Viksmyra" />
		<tag k="place" v="locality" />
		<tag k="ssr:stedsnr" v="389196" />
	</node>
	<node id="-334911" lat="58.0431944447" lon="7.51284721645">
		<tag k="name" v="Torvmyra" />
		<tag k="natural" v="wetland" />
		<tag k="ssr:stedsnr" v="389188" />
	</node>
	<node id="-336570" lat="58.0774000013" lon="7.56488888131">
		<tag k="name" v="Stormyra" />
		<tag k="natural" v="wetland" />
		<tag k="ssr:stedsnr" v="570534" />
	</node>
	<node id="-334909" lat="58.0734333351" lon="7.43744167432">
		<tag k="name" v="Arbersmyra" />
		<tag k="natural" v="wetland" />
		<tag k="ssr:stedsnr" v="389148" />
	</node>
	<node id="-336956" lat="57.9781916652" lon="7.55781667449">
		<tag k="name" v="Ura" />
		<tag k="natural" v="scree" />
		<tag k="ssr:stedsnr" v="692097" />
	</node>
	<node id="-334906" lat="58.0719138859" lon="7.53502222282">
		<tag k="name" v="Varsheimyra" />
		<tag k="natural" v="wetland" />
		<tag k="ssr:stedsnr" v="387593" />
	</node>
	<node id="-336991" lat="58.0725527776" lon="7.47054444556">
		<tag k="name" v="Timmerkjerr" />
		<tag k="natural" v="wetland" />
		<tag k="ssr:stedsnr" v="692664" />
	</node>
	<node id="-337464" lat="58.0911472241" lon="7.52164167244">
		<tag k="name" v="Monelandet" />
		<tag k="place" v="locality" />
		<tag k="ssr:stedsnr" v="816926" />
	</node>
	<node id="-337462" lat="57.9900611117" lon="7.59146111511">
		<tag k="name" v="Kirkesteinen" />
		<tag k="natural" v="stone" />
		<tag k="ssr:stedsnr" v="815948" />
	</node>
	<node id="-337673" lat="57.9810444414" lon="7.53848056184">
		<tag k="name" v="Slupsura" />
		<tag k="natural" v="scree" />
		<tag k="ssr:stedsnr" v="934098" />
	</node>
	<node id="-335411" lat="58.1478666665" lon="7.47446667423">
		<tag k="name" v="Kartemyra" />
		<tag k="natural" v="wetland" />
		<tag k="ssr:stedsnr" v="61757" />
	</node>
	<node id="-337161" lat="58.079525003" lon="7.50412778166">
		<tag k="name" v="Tvitjønnemyra" />
		<tag k="natural" v="wetland" />
		<tag k="ssr:stedsnr" v="752648" />
	</node>
	<node id="-337348" lat="58.0282472188" lon="7.64932222186">
		<tag k="name" v="Launesmyra" />
		<tag k="place" v="locality" />
		<tag k="ssr:stedsnr" v="813586" />
	</node>
	<node id="-337455" lat="58.0295916625" lon="7.36834444268">
		<tag k="name" v="Høksåsmyra" />
		<tag k="natural" v="wetland" />
		<tag k="ssr:stedsnr" v="815825" />
	</node>
	<node id="-335453" lat="58.1003138914" lon="7.51353333813">
		<tag k="name" v="Nordvollen" />
		<tag k="place" v="locality" />
		<tag k="ssr:stedsnr" v="85440" />
	</node>
	<node id="-337451" lat="58.0339722238" lon="7.45983611497">
		<tag k="name" v="Asermyra" />
		<tag k="natural" v="wetland" />
		<tag k="ssr:stedsnr" v="815777" />
	</node>
	<node id="-336426" lat="58.1359277768" lon="7.55832499928">
		<tag k="name" v="Veddemyra" />
		<tag k="natural" v="wetland" />
		<tag k="ssr:stedsnr" v="510979" />
	</node>
	<node id="-335401" lat="58.11128333" lon="7.61026667069">
		<tag k="name" v="Blimyr" />
		<tag k="natural" v="wetland" />
		<tag k="ssr:stedsnr" v="267724" />
	</node>
	<node id="-336424" lat="58.1334472209" lon="7.53512778476">
		<tag k="name" v="Mjævollen" />
		<tag k="place" v="locality" />
		<tag k="ssr:stedsnr" v="510965" />
	</node>
	<node id="-334886" lat="58.106191664" lon="7.56008611421">
		<tag k="name" v="Bjørnemyra" />
		<tag k="natural" v="wetland" />
		<tag k="ssr:stedsnr" v="364854" />
	</node>
	<node id="-335396" lat="58.0495416626" lon="7.46847499678">
		<tag k="name" v="Fanteura" />
		<tag k="natural" v="scree" />
		<tag k="ssr:stedsnr" v="26982" />
	</node>
	<node id="-336987" lat="58.0557194469" lon="7.63801666004">
		<tag k="landuse" v="meadow" />
		<tag k="name" v="Nordjordet" />
		<tag k="ssr:stedsnr" v="692595" />
	</node>
	<node id="-336416" lat="58.1221888928" lon="7.55155278205">
		<tag k="name" v="Staksmyr" />
		<tag k="natural" v="wetland" />
		<tag k="ssr:stedsnr" v="510896" />
	</node>
	<node id="-337439" lat="58.0296416641" lon="7.55533888976">
		<tag k="name" v="Lillemyra" />
		<tag k="natural" v="wetland" />
		<tag k="ssr:stedsnr" v="815463" />
	</node>
	<node id="-336342" lat="58.0833277774" lon="7.47557222119">
		<tag k="name" v="Kleppsalan" />
		<tag k="place" v="locality" />
		<tag k="ssr:stedsnr" v="509641" />
	</node>
	<node id="-336984" lat="58.1207583331" lon="7.48901943784">
		<tag k="name" v="Søkkingsmyra" />
		<tag k="natural" v="wetland" />
		<tag k="ssr:stedsnr" v="692486" />
	</node>
	<node id="-334874" lat="58.0916861108" lon="7.53907499858">
		<tag k="name" v="Brandimyr" />
		<tag k="natural" v="wetland" />
		<tag k="ssr:stedsnr" v="330948" />
	</node>
	<node id="-335382" lat="58.0236611117" lon="7.38479166731">
		<tag k="name" v="Stormyr" />
		<tag k="natural" v="wetland" />
		<tag k="ssr:stedsnr" v="26823" />
	</node>
	<node id="-336405" lat="58.1048861132" lon="7.59468333222">
		<tag k="name" v="Florsmyran" />
		<tag k="natural" v="wetland" />
		<tag k="ssr:stedsnr" v="510794" />
	</node>
	<node id="-336404" lat="58.1047750037" lon="7.6238916623">
		<tag k="name" v="Tryheislåtta" />
		<tag k="natural" v="wetland" />
		<tag k="ssr:stedsnr" v="510791" />
	</node>
	<node id="-337426" lat="58.0406444485" lon="7.53969444353">
		<tag k="name" v="Damman" />
		<tag k="natural" v="wetland" />
		<tag k="ssr:stedsnr" v="814466" />
	</node>
	<node id="-334851" lat="58.0309777805" lon="7.59457778338">
		<tag k="name" v="Timmeråsmyra" />
		<tag k="natural" v="wetland" />
		<tag k="ssr:stedsnr" v="329324" />
	</node>
	<node id="-335448" lat="58.009388889" lon="7.53033333629">
		<tag k="name" v="Fagerli" />
		<tag k="place" v="locality" />
		<tag k="ssr:stedsnr" v="85335" />
	</node>
	<node id="-334861" lat="58.0291083329" lon="7.35703056363">
		<tag k="name" v="Ramsemyra" />
		<tag k="natural" v="wetland" />
		<tag k="ssr:stedsnr" v="329792" />
	</node>
	<node id="-336908" lat="58.0898750008" lon="7.55161388692">
		<tag k="name" v="Gullkjerran" />
		<tag k="natural" v="wetland" />
		<tag k="ssr:stedsnr" v="633944" />
	</node>
	<node id="-334859" lat="58.0392000025" lon="7.45014999914">
		<tag k="name" v="Spansmyra" />
		<tag k="natural" v="wetland" />
		<tag k="ssr:stedsnr" v="329742" />
	</node>
	<node id="-335915" lat="58.0487333325" lon="7.50510555323">
		<tag k="name" v="Slåttekjerr" />
		<tag k="natural" v="wetland" />
		<tag k="ssr:stedsnr" v="208215" />
	</node>
	<node id="-335365" lat="58.0496611117" lon="7.52893056193">
		<tag k="name" v="Nordjordet" />
		<tag k="place" v="locality" />
		<tag k="ssr:stedsnr" v="26497" />
	</node>
	<node id="-336086" lat="58.0269055536" lon="7.53243611033">
		<tag k="name" v="Torsmyra" />
		<tag k="natural" v="wetland" />
		<tag k="ssr:stedsnr" v="268441" />
	</node>
	<node id="-337410" lat="57.9675888871" lon="7.565311106">
		<tag k="name" v="Smørsteinen" />
		<tag k="natural" v="stone" />
		<tag k="ssr:stedsnr" v="814034" />
	</node>
	<node id="-336385" lat="58.015527777" lon="7.65329166864">
		<tag k="name" v="Hundsura" />
		<tag k="natural" v="scree" />
		<tag k="ssr:stedsnr" v="510683" />
	</node>
</osm>
