<?xml version="1.0" encoding="UTF-8"?>
<osm generator="osmapis" version="0.6">
	<node id="-335870" lat="58.0009083364" lon="7.61543332615">
		<tag k="name" v="Lindholman" />
		<tag k="place" v="islet" />
		<tag k="ssr:stedsnr" v="485076" />
	</node>
	<node id="-335869" lat="57.9867694478" lon="7.55163334086">
		<tag k="alt_name" v="Hellersøyfjorden" />
		<tag k="bay" v="fjord" />
		<tag k="name" v="Hellefjorden" />
		<tag k="natural" v="bay" />
		<tag k="ssr:stedsnr" v="485060" />
	</node>
	<node id="-335867" lat="57.9838222256" lon="7.4311000069">
		<tag k="alt_name" v="Svartskjær" />
		<tag k="fixme" v="consider seamark:type=rock or natural=shoal" />
		<tag k="name" v="Svarteskjer" />
		<tag k="place" v="islet" />
		<tag k="ssr:stedsnr" v="485040" />
	</node>
	<node id="-335865" lat="58.0208861084" lon="7.32563888333">
		<tag k="name" v="Klauholmen" />
		<tag k="place" v="islet" />
		<tag k="ssr:stedsnr" v="481831" />
	</node>
	<node id="-335864" lat="57.9730305542" lon="7.41948610606">
		<tag k="alt_name" v="Steinsbåane" />
		<tag k="name" v="Steinsboan" />
		<tag k="place" v="locality" />
		<tag k="seamark:type" v="rock" />
		<tag k="ssr:stedsnr" v="481828" />
	</node>
	<node id="-335863" lat="57.991177781" lon="7.33378611873">
		<tag k="name" v="Åskod" />
		<tag k="place" v="island" />
		<tag k="ssr:stedsnr" v="481823" />
	</node>
	<node id="-335857" lat="58.0124611081" lon="7.42378055879">
		<tag k="name" v="Marvika" />
		<tag k="natural" v="bay" />
		<tag k="ssr:stedsnr" v="451982" />
	</node>
	<node id="-335855" lat="57.9787861096" lon="7.53694722751">
		<tag k="name" v="Jyvika" />
		<tag k="natural" v="bay" />
		<tag k="ssr:stedsnr" v="451942" />
	</node>
	<node id="-335854" lat="58.0307888877" lon="7.33218332523">
		<tag k="name" v="Smørholmen" />
		<tag k="place" v="islet" />
		<tag k="ssr:stedsnr" v="451894" />
	</node>
	<node id="-335851" lat="58.0136444487" lon="7.4023472276">
		<tag k="name" v="Kalvehaven" />
		<tag k="natural" v="cape" />
		<tag k="ssr:stedsnr" v="451860" />
	</node>
	<node id="-335850" lat="58.0122833365" lon="7.48398888529">
		<tag k="alt_name" v="Moldeskjæran" />
		<tag k="fixme" v="consider seamark:type=rock or natural=shoal" />
		<tag k="name" v="Moldskjeran" />
		<tag k="place" v="islet" />
		<tag k="ssr:stedsnr" v="451712" />
	</node>
	<node id="-335848" lat="57.9894222199" lon="7.58960833518">
		<tag k="name" v="Meodden" />
		<tag k="natural" v="cape" />
		<tag k="ssr:stedsnr" v="451654" />
	</node>
	<node id="-335847" lat="58.0207805542" lon="7.42836666529">
		<tag k="name" v="Svineholman" />
		<tag k="place" v="islet" />
		<tag k="ssr:stedsnr" v="451646" />
	</node>
	<node id="-335845" lat="57.980208332" lon="7.42228056353">
		<tag k="name" v="Fjeldet" />
		<tag k="natural" v="shoal" />
		<tag k="place" v="locality" />
		<tag k="ssr:stedsnr" v="451510" />
	</node>
	<node id="-335844" lat="57.9983777743" lon="7.46237777937">
		<tag k="name" v="Hattholmboen" />
		<tag k="place" v="locality" />
		<tag k="seamark:type" v="rock" />
		<tag k="ssr:stedsnr" v="451504" />
	</node>
	<node id="-335841" lat="58.0129916633" lon="7.32740277475">
		<tag k="name" v="Søndre Klauholmsboen" />
		<tag k="place" v="locality" />
		<tag k="seamark:type" v="rock" />
		<tag k="ssr:stedsnr" v="451486" />
	</node>
	<node id="-335840" lat="57.984458335" lon="7.60899443993">
		<tag k="name" v="Gillerøysundet" />
		<tag k="natural" v="strait" />
		<tag k="ssr:stedsnr" v="451415" />
	</node>
	<node id="-335839" lat="57.9813083346" lon="7.59332499182">
		<tag k="name" v="Brattholmsundet" />
		<tag k="natural" v="strait" />
		<tag k="ssr:stedsnr" v="451410" />
	</node>
	<node id="-335838" lat="58.0205777739" lon="7.62499722395">
		<tag k="name" v="Skjellholmen" />
		<tag k="natural" v="cape" />
		<tag k="ssr:stedsnr" v="451358" />
	</node>
	<node id="-336408" lat="57.9613083343" lon="7.49384166666">
		<tag k="fixme" v="consider seamark:type=rock or natural=shoal" />
		<tag k="name" v="Sankt Helena" />
		<tag k="place" v="islet" />
		<tag k="ssr:stedsnr" v="632085" />
	</node>
	<node id="-335830" lat="57.9921611072" lon="7.33653055753">
		<tag k="fixme" v="consider seamark:type=rock or natural=shoal" />
		<tag k="name" v="Skipperskjær" />
		<tag k="place" v="islet" />
		<tag k="ssr:stedsnr" v="450940" />
	</node>
	<node id="-335826" lat="58.0210694426" lon="7.3458388873">
		<tag k="name" v="Lille Nakøy" />
		<tag k="place" v="islet" />
		<tag k="ssr:stedsnr" v="450869" />
	</node>
	<node id="-335825" lat="57.9915277756" lon="7.43380555789">
		<tag k="fixme" v="consider seamark:type=rock or natural=shoal" />
		<tag k="name" v="Daleren" />
		<tag k="place" v="islet" />
		<tag k="ssr:stedsnr" v="450795" />
	</node>
	<node id="-335824" lat="58.00318611" lon="7.44765554967">
		<tag k="name" v="Hattholmsundet" />
		<tag k="natural" v="strait" />
		<tag k="ssr:stedsnr" v="450761" />
	</node>
	<node id="-335822" lat="57.9822388883" lon="7.60111943847">
		<tag k="name" v="Strømflakket" />
		<tag k="place" v="locality" />
		<tag k="seamark:type" v="rock" />
		<tag k="ssr:stedsnr" v="450603" />
	</node>
	<node id="-335812" lat="58.0000083342" lon="7.55776944327">
		<tag k="name" v="Buøysundet" />
		<tag k="natural" v="strait" />
		<tag k="ssr:stedsnr" v="450434" />
	</node>
	<node id="-336339" lat="58.001383333" lon="7.59445555185">
		<tag k="name" v="Skjervika" />
		<tag k="natural" v="bay" />
		<tag k="ssr:stedsnr" v="631242" />
	</node>
	<node id="-335810" lat="57.978366665" lon="7.69244722978">
		<tag k="fixme" v="consider seamark:type=rock or natural=shoal" />
		<tag k="name" v="Midtboen" />
		<tag k="place" v="islet" />
		<tag k="ssr:stedsnr" v="450393" />
	</node>
	<node id="-335809" lat="57.996674997" lon="7.6663361063">
		<tag k="name" v="Hærholmboen" />
		<tag k="place" v="locality" />
		<tag k="seamark:type" v="rock" />
		<tag k="ssr:stedsnr" v="450371" />
	</node>
	<node id="-335808" lat="57.9622416629" lon="7.51179166313">
		<tag k="fixme" v="consider seamark:type=rock or natural=shoal" />
		<tag k="name" v="Saltboen" />
		<tag k="place" v="islet" />
		<tag k="ssr:stedsnr" v="450363" />
	</node>
	<node id="-335805" lat="58.0381305541" lon="7.32707499452">
		<tag k="alt_name" v="Klådervik" />
		<tag k="name" v="Klådervig" />
		<tag k="natural" v="bay" />
		<tag k="ssr:stedsnr" v="450238" />
	</node>
	<node id="-335803" lat="58.013313885" lon="7.47982221845">
		<tag k="name" v="Moldodden" />
		<tag k="natural" v="cape" />
		<tag k="ssr:stedsnr" v="450222" />
	</node>
	<node id="-336543" lat="58.0020722224" lon="7.52634723016">
		<tag k="name" v="Masseholmen" />
		<tag k="place" v="islet" />
		<tag k="ssr:stedsnr" v="692408" />
	</node>
	<node id="-336884" lat="58.0452027778" lon="7.61973055337">
		<tag k="name" v="Kavika" />
		<tag k="natural" v="bay" />
		<tag k="ssr:stedsnr" v="813284" />
	</node>
	<node id="-336542" lat="58.0028194409" lon="7.54550832707">
		<tag k="name" v="Magelausodden" />
		<tag k="natural" v="cape" />
		<tag k="ssr:stedsnr" v="692405" />
	</node>
	<node id="-336883" lat="58.0003666624" lon="7.64634722561">
		<tag k="name" v="Mergelbukta" />
		<tag k="natural" v="bay" />
		<tag k="ssr:stedsnr" v="813281" />
	</node>
	<node id="-336882" lat="58.0012555562" lon="7.58819999669">
		<tag k="name" v="Breivika" />
		<tag k="natural" v="bay" />
		<tag k="ssr:stedsnr" v="813249" />
	</node>
	<node id="-335785" lat="57.9623583329" lon="7.56301388144">
		<tag k="name" v="Smakkeraua" />
		<tag k="natural" v="bay" />
		<tag k="ssr:stedsnr" v="450075" />
	</node>
	<node id="-335784" lat="57.9957861113" lon="7.55989722842">
		<tag k="name" v="Ytre Galtevik" />
		<tag k="natural" v="bay" />
		<tag k="ssr:stedsnr" v="450051" />
	</node>
	<node id="-335783" lat="57.969466669" lon="7.54051111088">
		<tag k="name" v="Lille Vengelsholmen" />
		<tag k="place" v="island" />
		<tag k="ssr:stedsnr" v="450032" />
	</node>
	<node id="-335782" lat="57.9653083375" lon="7.56505832658">
		<tag k="name" v="Svartodd" />
		<tag k="natural" v="cape" />
		<tag k="ssr:stedsnr" v="450026" />
	</node>
	<node id="-335781" lat="57.9716805559" lon="7.56178610459">
		<tag k="name" v="Eidbukta" />
		<tag k="natural" v="bay" />
		<tag k="ssr:stedsnr" v="450023" />
	</node>
	<node id="-335780" lat="57.9992416682" lon="7.49849444681">
		<tag k="name" v="Skarnesodden" />
		<tag k="natural" v="cape" />
		<tag k="ssr:stedsnr" v="450012" />
	</node>
	<node id="-335778" lat="57.9875750005" lon="7.51251111566">
		<tag k="name" v="Bagstøvåg" />
		<tag k="natural" v="bay" />
		<tag k="ssr:stedsnr" v="450001" />
	</node>
	<node id="-336880" lat="58.0099944408" lon="7.62523888454">
		<tag k="name" v="Gulholmen" />
		<tag k="place" v="islet" />
		<tag k="ssr:stedsnr" v="813227" />
	</node>
	<node id="-336537" lat="58.0145444403" lon="7.67430278306">
		<tag k="fixme" v="consider seamark:type=rock or natural=shoal" />
		<tag k="name" v="Tåna" />
		<tag k="place" v="islet" />
		<tag k="ssr:stedsnr" v="692372" />
	</node>
	<node id="-335762" lat="58.0057388923" lon="7.37077499683">
		<tag k="name" v="Varmekroa" />
		<tag k="natural" v="bay" />
		<tag k="ssr:stedsnr" v="449825" />
	</node>
	<node id="-335759" lat="57.9979833373" lon="7.32822777525">
		<tag k="name" v="Leistebukta" />
		<tag k="natural" v="bay" />
		<tag k="ssr:stedsnr" v="449788" />
	</node>
	<node id="-336529" lat="57.9883277758" lon="7.64213333033">
		<tag k="name" v="Breibukta" />
		<tag k="natural" v="bay" />
		<tag k="ssr:stedsnr" v="692307" />
	</node>
	<node id="-336337" lat="58.0053361103" lon="7.60948889262">
		<tag k="fixme" v="consider seamark:type=rock or natural=shoal" />
		<tag k="name" v="Knubben" />
		<tag k="place" v="islet" />
		<tag k="ssr:stedsnr" v="631236" />
	</node>
	<node id="-335739" lat="58.0132611107" lon="7.64003889283">
		<tag k="name" v="Ufredsundholmen" />
		<tag k="place" v="islet" />
		<tag k="ssr:stedsnr" v="449649" />
	</node>
	<node id="-335738" lat="58.0135027812" lon="7.66798333498">
		<tag k="name" v="Vrengen" />
		<tag k="natural" v="strait" />
		<tag k="ssr:stedsnr" v="449644" />
	</node>
	<node id="-335736" lat="58.0164749973" lon="7.62936388214">
		<tag k="name" v="Langetangen" />
		<tag k="natural" v="cape" />
		<tag k="ssr:stedsnr" v="449630" />
	</node>
	<node id="-335734" lat="58.0312638874" lon="7.67288889142">
		<tag k="name" v="Fugløyholmen" />
		<tag k="place" v="islet" />
		<tag k="ssr:stedsnr" v="449596" />
	</node>
	<node id="-336531" lat="57.9951361132" lon="7.59770556027">
		<tag k="fixme" v="consider seamark:type=rock or natural=shoal" />
		<tag k="name" v="Brønnesheiskjæran" />
		<tag k="place" v="islet" />
		<tag k="ssr:stedsnr" v="692329" />
	</node>
	<node id="-337213" lat="58.0192194488" lon="7.46461388759">
		<tag k="name" v="Geitevika" />
		<tag k="natural" v="bay" />
		<tag k="ssr:stedsnr" v="905123" />
	</node>
	<node id="-336530" lat="57.9731305596" lon="7.61243611859">
		<tag k="name" v="Ravnevika" />
		<tag k="natural" v="bay" />
		<tag k="ssr:stedsnr" v="692321" />
	</node>
	<node id="-335717" lat="58.0195444413" lon="7.66300555011">
		<tag k="name" v="Skudvardodden" />
		<tag k="natural" v="cape" />
		<tag k="ssr:stedsnr" v="449320" />
	</node>
	<node id="-335716" lat="58.0218083366" lon="7.65856110827">
		<tag k="name" v="Svineholmen" />
		<tag k="place" v="islet" />
		<tag k="ssr:stedsnr" v="449318" />
	</node>
	<node id="-336404" lat="57.9705444439" lon="7.50251666549">
		<tag k="fixme" v="consider seamark:type=rock or natural=shoal" />
		<tag k="name" v="Jåskjær" />
		<tag k="place" v="islet" />
		<tag k="ssr:stedsnr" v="632066" />
	</node>
	<node id="-335712" lat="58.0111583329" lon="7.61898889512">
		<tag k="name" v="Kalsneset" />
		<tag k="natural" v="cape" />
		<tag k="ssr:stedsnr" v="449264" />
	</node>
	<node id="-335711" lat="58.0074444439" lon="7.58303889009">
		<tag k="name" v="Meet" />
		<tag k="natural" v="cape" />
		<tag k="ssr:stedsnr" v="449251" />
	</node>
	<node id="-335709" lat="57.9971777784" lon="7.54618333992">
		<tag k="name" v="Lyngholmen" />
		<tag k="place" v="islet" />
		<tag k="ssr:stedsnr" v="449065" />
	</node>
	<node id="-336527" lat="58.0189138895" lon="7.36000278357">
		<tag k="name" v="Bastholmen" />
		<tag k="place" v="islet" />
		<tag k="ssr:stedsnr" v="692248" />
	</node>
	<node id="-336540" lat="58.0055861156" lon="7.5485222204">
		<tag k="fixme" v="consider seamark:type=rock or natural=shoal" />
		<tag k="name" v="Hvalen" />
		<tag k="place" v="islet" />
		<tag k="ssr:stedsnr" v="692388" />
	</node>
	<node id="-336403" lat="57.9691638897" lon="7.54776945238">
		<tag k="name" v="Teistebukta" />
		<tag k="natural" v="bay" />
		<tag k="ssr:stedsnr" v="632063" />
	</node>
	<node id="-337206" lat="58.0152694432" lon="7.36918610569">
		<tag k="fixme" v="consider seamark:type=rock or natural=shoal" />
		<tag k="name" v="Østre Røysa" />
		<tag k="place" v="islet" />
		<tag k="ssr:stedsnr" v="876886" />
	</node>
	<node id="-335681" lat="58.000175332" lon="7.56122383472">
		<tag k="name" v="Grasholman" />
		<tag k="place" v="island" />
		<tag k="ssr:stedsnr" v="425077" />
	</node>
	<node id="-335680" lat="58.0060361145" lon="7.6110916711">
		<tag k="alt_name" v="Torskholman" />
		<tag k="name" v="Torskeholman" />
		<tag k="place" v="islet" />
		<tag k="ssr:stedsnr" v="425062" />
	</node>
	<node id="-335679" lat="58.0040055536" lon="7.54515554827">
		<tag k="alt_name" v="Lyngøy" />
		<tag k="name" v="Lyngøya" />
		<tag k="place" v="island" />
		<tag k="ssr:stedsnr" v="425059" />
	</node>
	<node id="-335678" lat="57.9601194473" lon="7.56948055821">
		<tag k="alt_name" v="Ytre Odd" />
		<tag k="name" v="Litleodd" />
		<tag k="place" v="islet" />
		<tag k="ssr:stedsnr" v="425055" />
	</node>
	<node id="-335677" lat="57.9660222183" lon="7.52905278297">
		<tag k="alt_name" v="Store Vengelsholmen" />
		<tag k="name" v="Vengelsholmane" />
		<tag k="old_name" v="Vengels-holmane" />
		<tag k="place" v="islet" />
		<tag k="ssr:stedsnr" v="425051" />
	</node>
	<node id="-335676" lat="57.9681916708" lon="7.54809166537">
		<tag k="alt_name" v="Skjøringen" />
		<tag k="name" v="Skjøringa" />
		<tag k="place" v="island" />
		<tag k="ssr:stedsnr" v="425049" />
	</node>
	<node id="-335675" lat="57.977561114" lon="7.51209444316">
		<tag k="alt_name" v="Gillerodden" />
		<tag k="name" v="Gilderodden" />
		<tag k="natural" v="cape" />
		<tag k="ssr:stedsnr" v="425044" />
	</node>
	<node id="-335674" lat="57.9774944403" lon="7.55446945189">
		<tag k="name" v="Hellersøy" />
		<tag k="place" v="island" />
		<tag k="ssr:stedsnr" v="425042" />
	</node>
	<node id="-335672" lat="57.9994861146" lon="7.64786944198">
		<tag k="alt_name" v="Herholman;Vestre Hærholmen" />
		<tag k="loc_name" v="Hærholmane" />
		<tag k="name" v="Hærholman" />
		<tag k="place" v="islet" />
		<tag k="ssr:stedsnr" v="425031" />
	</node>
	<node id="-335671" lat="57.9939861132" lon="7.40409999903">
		<tag k="name" v="Disken" />
		<tag k="place" v="islet" />
		<tag k="ssr:stedsnr" v="425025" />
	</node>
	<node id="-335670" lat="57.9936472235" lon="7.37681667319">
		<tag k="alt_name" v="Hilletunga" />
		<tag k="name" v="Tunga" />
		<tag k="natural" v="cape" />
		<tag k="ssr:stedsnr" v="425022" />
	</node>
	<node id="-335669" lat="58.0005944489" lon="7.38525833635">
		<tag k="fixme" v="consider seamark:type=rock or natural=shoal" />
		<tag k="name" v="Steinsøyskjeran" />
		<tag k="place" v="islet" />
		<tag k="ssr:stedsnr" v="425020" />
	</node>
	<node id="-335668" lat="57.981874998" lon="7.30790833426">
		<tag k="name" v="Tvisteinen" />
		<tag k="place" v="islet" />
		<tag k="ssr:stedsnr" v="425008" />
	</node>
	<node id="-335665" lat="58.0145666676" lon="7.61748055796">
		<tag k="name" v="Selvågen" />
		<tag k="natural" v="bay" />
		<tag k="ssr:stedsnr" v="479999" />
	</node>
	<node id="-335663" lat="57.9918444416" lon="7.38724999805">
		<tag k="name" v="Tungeodden" />
		<tag k="natural" v="cape" />
		<tag k="ssr:stedsnr" v="268895" />
	</node>
	<node id="-335662" lat="57.9932999982" lon="7.3736805588">
		<tag k="name" v="Vraklandet" />
		<tag k="natural" v="cape" />
		<tag k="ssr:stedsnr" v="268891" />
	</node>
	<node id="-335661" lat="57.995336113" lon="7.3748416691">
		<tag k="name" v="Tungebukta" />
		<tag k="natural" v="bay" />
		<tag k="ssr:stedsnr" v="268880" />
	</node>
	<node id="-335660" lat="58.0239305528" lon="7.35096666441">
		<tag k="fixme" v="consider seamark:type=rock or natural=shoal" />
		<tag k="name" v="Dyna" />
		<tag k="place" v="islet" />
		<tag k="ssr:stedsnr" v="268867" />
	</node>
	<node id="-335659" lat="58.0260250015" lon="7.33909445101">
		<tag k="name" v="Vestre Gjallaråsholmen" />
		<tag k="place" v="islet" />
		<tag k="ssr:stedsnr" v="268865" />
	</node>
	<node id="-335658" lat="58.026072226" lon="7.33599443771">
		<tag k="name" v="Gulholmen" />
		<tag k="place" v="islet" />
		<tag k="ssr:stedsnr" v="268860" />
	</node>
	<node id="-335650" lat="57.9743027778" lon="7.58384444081">
		<tag k="name" v="Lasseboen" />
		<tag k="natural" v="shoal" />
		<tag k="place" v="locality" />
		<tag k="ssr:stedsnr" v="268398" />
	</node>
	<node id="-335649" lat="57.985286114" lon="7.55464166888">
		<tag k="fixme" v="consider seamark:type=rock or natural=shoal" />
		<tag k="name" v="Vestre Hellersøyboen" />
		<tag k="place" v="islet" />
		<tag k="ssr:stedsnr" v="268397" />
	</node>
	<node id="-335648" lat="57.9582361096" lon="7.57145000173">
		<tag k="name" v="Oddhausen" />
		<tag k="place" v="locality" />
		<tag k="seamark:type" v="rock" />
		<tag k="ssr:stedsnr" v="268393" />
	</node>
	<node id="-335647" lat="58.0089777786" lon="7.666150003">
		<tag k="name" v="Gjeideryggen" />
		<tag k="place" v="locality" />
		<tag k="seamark:type" v="rock" />
		<tag k="ssr:stedsnr" v="268379" />
	</node>
	<node id="-335646" lat="57.9976611128" lon="7.63246110839">
		<tag k="name" v="Nordre Valløyboen" />
		<tag k="natural" v="shoal" />
		<tag k="place" v="locality" />
		<tag k="ssr:stedsnr" v="268350" />
	</node>
	<node id="-335645" lat="58.0179111134" lon="7.47720277111">
		<tag k="name" v="Sauholman" />
		<tag k="place" v="island" />
		<tag k="ssr:stedsnr" v="268226" />
	</node>
	<node id="-335640" lat="58.0136999976" lon="7.50256944293">
		<tag k="name" v="Homsvika" />
		<tag k="natural" v="bay" />
		<tag k="ssr:stedsnr" v="268205" />
	</node>
	<node id="-335630" lat="57.9667722238" lon="7.49191388783">
		<tag k="name" v="Krågehola" />
		<tag k="natural" v="bay" />
		<tag k="ssr:stedsnr" v="268057" />
	</node>
	<node id="-337197" lat="58.0065361115" lon="7.53853889238">
		<tag k="name" v="Gillerholmen" />
		<tag k="place" v="islet" />
		<tag k="ssr:stedsnr" v="875932" />
	</node>
	<node id="-335628" lat="57.9635111104" lon="7.56609722231">
		<tag k="name" v="Indre Odd" />
		<tag k="natural" v="cape" />
		<tag k="ssr:stedsnr" v="268045" />
	</node>
	<node id="-335627" lat="57.9950888892" lon="7.4878250005">
		<tag k="name" v="Steinevika" />
		<tag k="natural" v="bay" />
		<tag k="ssr:stedsnr" v="268024" />
	</node>
	<node id="-335624" lat="57.9828777778" lon="7.49661667404">
		<tag k="fixme" v="consider seamark:type=rock or natural=shoal" />
		<tag k="name" v="Guleskjær" />
		<tag k="place" v="islet" />
		<tag k="ssr:stedsnr" v="268004" />
	</node>
	<node id="-337151" lat="57.9607833329" lon="7.56389444616">
		<tag k="name" v="Pengeberge" />
		<tag k="natural" v="cape" />
		<tag k="ssr:stedsnr" v="875101" />
	</node>
	<node id="-335617" lat="58.0196972247" lon="7.62239444501">
		<tag k="name" v="Strømsneset" />
		<tag k="natural" v="cape" />
		<tag k="ssr:stedsnr" v="267963" />
	</node>
	<node id="-337194" lat="58.0308416666" lon="7.33630555244">
		<tag k="name" v="Breivika" />
		<tag k="natural" v="bay" />
		<tag k="ssr:stedsnr" v="875867" />
	</node>
	<node id="-336528" lat="58.0071500041" lon="7.59766110416">
		<tag k="name" v="Laksodden" />
		<tag k="natural" v="cape" />
		<tag k="ssr:stedsnr" v="692250" />
	</node>
	<node id="-335602" lat="58.0031944452" lon="7.37044166334">
		<tag k="name" v="Kammershammeren" />
		<tag k="natural" v="cape" />
		<tag k="ssr:stedsnr" v="267873" />
	</node>
	<node id="-335600" lat="58.0023138915" lon="7.33917778498">
		<tag k="fixme" v="consider seamark:type=rock or natural=shoal" />
		<tag k="name" v="Selskjær" />
		<tag k="place" v="islet" />
		<tag k="ssr:stedsnr" v="267834" />
	</node>
	<node id="-335599" lat="58.0017472184" lon="7.34037777674">
		<tag k="name" v="Selskjærbukta" />
		<tag k="natural" v="bay" />
		<tag k="ssr:stedsnr" v="267835" />
	</node>
	<node id="-335598" lat="58.0049388914" lon="7.33962499764">
		<tag k="fixme" v="consider seamark:type=rock or natural=shoal" />
		<tag k="name" v="Meavraskjær" />
		<tag k="place" v="islet" />
		<tag k="ssr:stedsnr" v="267832" />
	</node>
	<node id="-335593" lat="57.9970166669" lon="7.35488888838">
		<tag k="name" v="Ysteholmen" />
		<tag k="place" v="islet" />
		<tag k="ssr:stedsnr" v="267801" />
	</node>
	<node id="-335592" lat="57.9992027797" lon="7.3552833255">
		<tag k="name" v="Insteholmen" />
		<tag k="place" v="islet" />
		<tag k="ssr:stedsnr" v="267799" />
	</node>
	<node id="-336849" lat="57.9657111087" lon="7.61203889726">
		<tag k="name" v="Fora" />
		<tag k="place" v="islet" />
		<tag k="ssr:stedsnr" v="788059" />
	</node>
	<node id="-336127" lat="57.9976916637" lon="7.66177222942">
		<tag k="name" v="Østre Hærholmen" />
		<tag k="place" v="islet" />
		<tag k="ssr:stedsnr" v="570299" />
	</node>
	<node id="-336847" lat="57.978599999" lon="7.59214722848">
		<tag k="alt_name" v="Udøy Brattholmen" />
		<tag k="name" v="Brattholmen" />
		<tag k="place" v="islet" />
		<tag k="ssr:stedsnr" v="788047" />
	</node>
	<node id="-335576" lat="58.0432583329" lon="7.63082777837">
		<tag k="name" v="Holmesundet" />
		<tag k="natural" v="strait" />
		<tag k="ssr:stedsnr" v="267703" />
	</node>
	<node id="-337188" lat="58.0288111074" lon="7.41653611648">
		<tag k="bay" v="fjord" />
		<tag k="name" v="Skjebstadkilen" />
		<tag k="natural" v="bay" />
		<tag k="ssr:stedsnr" v="875816" />
	</node>
	<node id="-335572" lat="58.0131916633" lon="7.62840277139">
		<tag k="name" v="Kisteholmen" />
		<tag k="place" v="islet" />
		<tag k="ssr:stedsnr" v="267660" />
	</node>
	<node id="-335571" lat="58.0034305535" lon="7.66055832656">
		<tag k="fixme" v="consider seamark:type=rock or natural=shoal" />
		<tag k="name" v="Østre Stolen" />
		<tag k="place" v="islet" />
		<tag k="ssr:stedsnr" v="267651" />
	</node>
	<node id="-335569" lat="58.0183027812" lon="7.62874999445">
		<tag k="fixme" v="consider seamark:type=rock or natural=shoal" />
		<tag k="name" v="Gryteskjæran" />
		<tag k="place" v="islet" />
		<tag k="ssr:stedsnr" v="267623" />
	</node>
	<node id="-335568" lat="58.0153416631" lon="7.63502222595">
		<tag k="name" v="Sandsundet" />
		<tag k="natural" v="strait" />
		<tag k="ssr:stedsnr" v="267620" />
	</node>
	<node id="-335567" lat="58.0150027795" lon="7.64797222013">
		<tag k="name" v="Grasdalsodden" />
		<tag k="natural" v="cape" />
		<tag k="ssr:stedsnr" v="267616" />
	</node>
	<node id="-335564" lat="58.0079777747" lon="7.54217500729">
		<tag k="name" v="Neset" />
		<tag k="natural" v="cape" />
		<tag k="ssr:stedsnr" v="267364" />
	</node>
	<node id="-335563" lat="57.9894555584" lon="7.60400000384">
		<tag k="name" v="Strømsund" />
		<tag k="natural" v="strait" />
		<tag k="ssr:stedsnr" v="267327" />
	</node>
	<node id="-335562" lat="57.9757166648" lon="7.60398054758">
		<tag k="name" v="Breivika" />
		<tag k="natural" v="bay" />
		<tag k="ssr:stedsnr" v="267320" />
	</node>
	<node id="-335561" lat="58.0183111126" lon="7.66565277751">
		<tag k="name" v="Sandvaholmen" />
		<tag k="natural" v="cape" />
		<tag k="ssr:stedsnr" v="267305" />
	</node>
	<node id="-335558" lat="58.0093722218" lon="7.59713888109">
		<tag k="name" v="Gulholmen" />
		<tag k="place" v="islet" />
		<tag k="ssr:stedsnr" v="267234" />
	</node>
	<node id="-335557" lat="58.0106555547" lon="7.62160556008">
		<tag k="name" v="Mikkelshola" />
		<tag k="natural" v="bay" />
		<tag k="ssr:stedsnr" v="267221" />
	</node>
	<node id="-335555" lat="57.9672055557" lon="7.54779722947">
		<tag k="fixme" v="consider seamark:type=rock or natural=shoal" />
		<tag k="name" v="Pepperskjær" />
		<tag k="place" v="islet" />
		<tag k="ssr:stedsnr" v="267055" />
	</node>
	<node id="-335554" lat="57.965386108" lon="7.54817778203">
		<tag k="name" v="Kongshavnsodden" />
		<tag k="natural" v="cape" />
		<tag k="ssr:stedsnr" v="267053" />
	</node>
	<node id="-335552" lat="57.9943972184" lon="7.54418611027">
		<tag k="name" v="Nordre Nesestranda" />
		<tag k="natural" v="bay" />
		<tag k="ssr:stedsnr" v="267045" />
	</node>
	<node id="-336944" lat="57.9974972238" lon="7.34978055656">
		<tag k="name" v="Persodden" />
		<tag k="natural" v="cape" />
		<tag k="ssr:stedsnr" v="813809" />
	</node>
	<node id="-335544" lat="58.0226944447" lon="7.65901944698">
		<tag k="bay" v="fjord" />
		<tag k="name" v="Dalskilen" />
		<tag k="natural" v="bay" />
		<tag k="ssr:stedsnr" v="243951" />
	</node>
	<node id="-337182" lat="58.015036108" lon="7.67240833334">
		<tag k="name" v="Boyerten" />
		<tag k="place" v="islet" />
		<tag k="ssr:stedsnr" v="875602" />
	</node>
	<node id="-335531" lat="58.0006416704" lon="7.30578610446">
		<tag k="name" v="Kjorten" />
		<tag k="place" v="islet" />
		<tag k="ssr:stedsnr" v="243636" />
	</node>
	<node id="-335529" lat="57.9745527808" lon="7.4989361145">
		<tag k="bay" v="fjord" />
		<tag k="name" v="Eigelandsrenna" />
		<tag k="natural" v="bay" />
		<tag k="ssr:stedsnr" v="243044" />
	</node>
	<node id="-335528" lat="57.9935666628" lon="7.54502221731">
		<tag k="name" v="Bergeneset" />
		<tag k="natural" v="cape" />
		<tag k="ssr:stedsnr" v="242038" />
	</node>
	<node id="-335527" lat="57.9960722178" lon="7.38819722063">
		<tag k="bay" v="fjord" />
		<tag k="name" v="Tungefjorden" />
		<tag k="natural" v="bay" />
		<tag k="ssr:stedsnr" v="242028" />
	</node>
	<node id="-335526" lat="57.9696611156" lon="7.5402944523">
		<tag k="name" v="Lille Vengelsholman" />
		<tag k="place" v="islet" />
		<tag k="ssr:stedsnr" v="238840" />
	</node>
	<node id="-335513" lat="58.0184333309" lon="7.32667499236">
		<tag k="fixme" v="consider seamark:type=rock or natural=shoal" />
		<tag k="name" v="Ruskjær" />
		<tag k="place" v="islet" />
		<tag k="ssr:stedsnr" v="208897" />
	</node>
	<node id="-335507" lat="58.0003694415" lon="7.50588055811">
		<tag k="alt_name" v="Kirkevika" />
		<tag k="name" v="Kirkeviga" />
		<tag k="natural" v="bay" />
		<tag k="ssr:stedsnr" v="208668" />
	</node>
	<node id="-335505" lat="57.9825444474" lon="7.63518611366">
		<tag k="alt_name" v="Storskjær" />
		<tag k="fixme" v="consider seamark:type=rock or natural=shoal" />
		<tag k="name" v="Storskjer" />
		<tag k="place" v="islet" />
		<tag k="ssr:stedsnr" v="208650" />
	</node>
	<node id="-335504" lat="57.9759222195" lon="7.63491388794">
		<tag k="fixme" v="consider seamark:type=rock or natural=shoal" />
		<tag k="name" v="Klubba" />
		<tag k="place" v="islet" />
		<tag k="ssr:stedsnr" v="208640" />
	</node>
	<node id="-335503" lat="57.9916555517" lon="7.54856667064">
		<tag k="name" v="Rennes" />
		<tag k="natural" v="cape" />
		<tag k="ssr:stedsnr" v="208615" />
	</node>
	<node id="-335497" lat="57.9841861118" lon="7.41628888371">
		<tag k="name" v="Saltskjerboen" />
		<tag k="place" v="locality" />
		<tag k="seamark:type" v="rock" />
		<tag k="ssr:stedsnr" v="208475" />
	</node>
	<node id="-335496" lat="57.9804777746" lon="7.41435556117">
		<tag k="name" v="Tolleboen" />
		<tag k="natural" v="shoal" />
		<tag k="place" v="locality" />
		<tag k="ssr:stedsnr" v="208474" />
	</node>
	<node id="-335492" lat="57.979880556" lon="7.60946666304">
		<tag k="name" v="Høllen" />
		<tag k="natural" v="bay" />
		<tag k="ssr:stedsnr" v="208404" />
	</node>
	<node id="-335491" lat="57.9822083297" lon="7.58798056105">
		<tag k="name" v="Søndre Trevika" />
		<tag k="natural" v="bay" />
		<tag k="ssr:stedsnr" v="208392" />
	</node>
	<node id="-335490" lat="57.9827722189" lon="7.60218611955">
		<tag k="fixme" v="consider seamark:type=rock or natural=shoal" />
		<tag k="name" v="Snellungen" />
		<tag k="place" v="islet" />
		<tag k="ssr:stedsnr" v="208388" />
	</node>
	<node id="-335487" lat="58.0300916636" lon="7.61995277793">
		<tag k="name" v="Fureholmen" />
		<tag k="place" v="islet" />
		<tag k="ssr:stedsnr" v="208308" />
	</node>
	<node id="-335485" lat="58.037722221" lon="7.62095833203">
		<tag k="name" v="Kanelsholmen" />
		<tag k="place" v="islet" />
		<tag k="ssr:stedsnr" v="208301" />
	</node>
	<node id="-335484" lat="58.0364027769" lon="7.61961388943">
		<tag k="name" v="Harkmarksvika" />
		<tag k="natural" v="bay" />
		<tag k="ssr:stedsnr" v="208296" />
	</node>
	<node id="-335482" lat="58.0042250032" lon="7.50758888951">
		<tag k="name" v="Skotholmen" />
		<tag k="place" v="islet" />
		<tag k="ssr:stedsnr" v="208227" />
	</node>
	<node id="-335475" lat="58.0223472225" lon="7.43079167114">
		<tag k="name" v="Bankebukta" />
		<tag k="natural" v="bay" />
		<tag k="ssr:stedsnr" v="208149" />
	</node>
	<node id="-335470" lat="58.0074861137" lon="7.42585555705">
		<tag k="name" v="Vestre Leisundet" />
		<tag k="natural" v="strait" />
		<tag k="ssr:stedsnr" v="207732" />
	</node>
	<node id="-335469" lat="58.0184194435" lon="7.45726110362">
		<tag k="name" v="Bakmed" />
		<tag k="natural" v="bay" />
		<tag k="ssr:stedsnr" v="207719" />
	</node>
	<node id="-335467" lat="57.958308333" lon="7.59069444327">
		<tag k="name" v="Midtfjordboen" />
		<tag k="natural" v="shoal" />
		<tag k="place" v="locality" />
		<tag k="ssr:stedsnr" v="207380" />
	</node>
	<node id="-335466" lat="57.9633444469" lon="7.60672499888">
		<tag k="fixme" v="consider seamark:type=rock or natural=shoal" />
		<tag k="name" v="Foraboan" />
		<tag k="place" v="islet" />
		<tag k="ssr:stedsnr" v="207377" />
	</node>
	<node id="-335465" lat="57.9591166696" lon="7.50026111193">
		<tag k="fixme" v="consider seamark:type=rock or natural=shoal" />
		<tag k="name" v="Makrellboen" />
		<tag k="place" v="islet" />
		<tag k="ssr:stedsnr" v="207350" />
	</node>
	<node id="-335464" lat="57.991463886" lon="7.63241111613">
		<tag k="name" v="Steinsboan" />
		<tag k="place" v="locality" />
		<tag k="seamark:type" v="rock" />
		<tag k="ssr:stedsnr" v="207347" />
	</node>
	<node id="-335461" lat="58.0113361094" lon="7.59795832802">
		<tag k="name" v="Indre Dyvika" />
		<tag k="natural" v="bay" />
		<tag k="ssr:stedsnr" v="207271" />
	</node>
	<node id="-335460" lat="58.0094333288" lon="7.62014165839">
		<tag k="name" v="Kallhola" />
		<tag k="natural" v="bay" />
		<tag k="ssr:stedsnr" v="207263" />
	</node>
	<node id="-335456" lat="57.9635166666" lon="7.56011666082">
		<tag k="fixme" v="consider seamark:type=rock or natural=shoal" />
		<tag k="name" v="Helgeskjær" />
		<tag k="place" v="islet" />
		<tag k="ssr:stedsnr" v="207072" />
	</node>
	<node id="-335455" lat="57.9706027819" lon="7.54146666468">
		<tag k="name" v="Nordostebukta" />
		<tag k="natural" v="bay" />
		<tag k="ssr:stedsnr" v="207038" />
	</node>
	<node id="-335454" lat="57.9627166628" lon="7.5682083306">
		<tag k="name" v="Odden" />
		<tag k="natural" v="cape" />
		<tag k="ssr:stedsnr" v="207024" />
	</node>
	<node id="-335453" lat="57.9625111152" lon="7.56703056208">
		<tag k="name" v="Teistebukta" />
		<tag k="natural" v="cape" />
		<tag k="ssr:stedsnr" v="207022" />
	</node>
	<node id="-335452" lat="58.0100805591" lon="7.48741388373">
		<tag k="name" v="Lille Brattholmen" />
		<tag k="place" v="islet" />
		<tag k="ssr:stedsnr" v="207016" />
	</node>
	<node id="-335451" lat="57.9857249984" lon="7.51223333302">
		<tag k="name" v="Torjusodden" />
		<tag k="natural" v="cape" />
		<tag k="ssr:stedsnr" v="207004" />
	</node>
	<node id="-335449" lat="58.0165166653" lon="7.38286111386">
		<tag k="name" v="Gillerholmen" />
		<tag k="place" v="islet" />
		<tag k="ssr:stedsnr" v="206999" />
	</node>
	<node id="-336431" lat="58.0404805512" lon="7.61876665848">
		<tag k="name" v="Rissholmen" />
		<tag k="place" v="islet" />
		<tag k="ssr:stedsnr" v="632321" />
	</node>
	<node id="-335435" lat="57.9988500032" lon="7.37836110349">
		<tag k="bay" v="fjord" />
		<tag k="name" v="Tungefjorden" />
		<tag k="natural" v="bay" />
		<tag k="ssr:stedsnr" v="206843" />
	</node>
	<node id="-335434" lat="58.0013222229" lon="7.33978055396">
		<tag k="name" v="Drasvikholmen" />
		<tag k="natural" v="cape" />
		<tag k="ssr:stedsnr" v="206832" />
	</node>
	<node id="-335433" lat="58.011955553" lon="7.3446805493">
		<tag k="name" v="Vestvågsholmen" />
		<tag k="natural" v="cape" />
		<tag k="ssr:stedsnr" v="206833" />
	</node>
	<node id="-336480" lat="57.9952500041" lon="7.6237944413">
		<tag k="alt_name" v="Bruse" />
		<tag k="name" v="Brusøy" />
		<tag k="place" v="islet" />
		<tag k="ssr:stedsnr" v="667056" />
	</node>
	<node id="-335629" lat="57.9684638908" lon="7.53293333926">
		<tag k="name" v="Old Harbour" />
		<tag k="natural" v="bay" />
		<tag k="ssr:stedsnr" v="268047" />
	</node>
	<node id="-335418" lat="58.022555556" lon="7.67472222652">
		<tag k="name" v="Stokksbukta" />
		<tag k="natural" v="bay" />
		<tag k="ssr:stedsnr" v="206592" />
	</node>
	<node id="-335417" lat="58.0205916683" lon="7.67051388237">
		<tag k="name" v="Rennodden" />
		<tag k="natural" v="cape" />
		<tag k="ssr:stedsnr" v="206591" />
	</node>
	<node id="-335416" lat="58.0459694441" lon="7.6278583375">
		<tag k="name" v="Varvika" />
		<tag k="natural" v="bay" />
		<tag k="ssr:stedsnr" v="206585" />
	</node>
	<node id="-335402" lat="57.9907444488" lon="7.60508611044">
		<tag k="name" v="Dragodden" />
		<tag k="natural" v="cape" />
		<tag k="ssr:stedsnr" v="206348" />
	</node>
	<node id="-335399" lat="57.9878166632" lon="7.64526944668">
		<tag k="name" v="Vrakebukta" />
		<tag k="natural" v="bay" />
		<tag k="ssr:stedsnr" v="206319" />
	</node>
	<node id="-335393" lat="58.0127694418" lon="7.64691944205">
		<tag k="fixme" v="consider seamark:type=rock or natural=shoal" />
		<tag k="name" v="Ladderudskjæran" />
		<tag k="place" v="islet" />
		<tag k="ssr:stedsnr" v="206645" />
	</node>
	<node id="-335392" lat="58.0136833344" lon="7.64317778128">
		<tag k="fixme" v="consider seamark:type=rock or natural=shoal" />
		<tag k="name" v="Skarveskjær" />
		<tag k="place" v="islet" />
		<tag k="ssr:stedsnr" v="206646" />
	</node>
	<node id="-335391" lat="58.0128916656" lon="7.66813055108">
		<tag k="fixme" v="consider seamark:type=rock or natural=shoal" />
		<tag k="name" v="Bjønneraua" />
		<tag k="place" v="islet" />
		<tag k="ssr:stedsnr" v="206637" />
	</node>
	<node id="-335389" lat="57.9664277765" lon="7.53750833811">
		<tag k="fixme" v="consider seamark:type=rock or natural=shoal" />
		<tag k="name" v="Ullskjæran" />
		<tag k="place" v="islet" />
		<tag k="ssr:stedsnr" v="206089" />
	</node>
	<node id="-335388" lat="57.9668722228" lon="7.52600834089">
		<tag k="name" v="Indre Kvelerodden" />
		<tag k="natural" v="cape" />
		<tag k="ssr:stedsnr" v="206084" />
	</node>
	<node id="-335386" lat="57.9917138926" lon="7.54172778338">
		<tag k="name" v="Søndre Nesestranda" />
		<tag k="natural" v="bay" />
		<tag k="ssr:stedsnr" v="206075" />
	</node>
	<node id="-335385" lat="57.9874444449" lon="7.53266666191">
		<tag k="name" v="Ankerodden" />
		<tag k="natural" v="cape" />
		<tag k="ssr:stedsnr" v="206118" />
	</node>
	<node id="-335384" lat="57.9830138879" lon="7.54020833933">
		<tag k="name" v="Matodden" />
		<tag k="natural" v="cape" />
		<tag k="ssr:stedsnr" v="206116" />
	</node>
	<node id="-335383" lat="57.9703666706" lon="7.61014722838">
		<tag k="name" v="Sjurstøholmen" />
		<tag k="place" v="islet" />
		<tag k="ssr:stedsnr" v="206103" />
	</node>
	<node id="-335374" lat="58.0205694432" lon="7.45045278275">
		<tag k="name" v="Sjøsanden" />
		<tag k="natural" v="beach" />
		<tag k="place" v="locality" />
		<tag k="ssr:stedsnr" v="182944" />
	</node>
	<node id="-335373" lat="58.0127305514" lon="7.47448610972">
		<tag k="name" v="Gismerøya" />
		<tag k="place" v="island" />
		<tag k="ssr:stedsnr" v="182933" />
	</node>
	<node id="-335361" lat="58.0081555515" lon="7.43163056327">
		<tag k="alt_name" v="Risøy" />
		<tag k="name" v="Risøya" />
		<tag k="place" v="islet" />
		<tag k="ssr:stedsnr" v="182066" />
	</node>
	<node id="-335358" lat="57.9749527762" lon="7.68181944084">
		<tag k="fixme" v="consider seamark:type=rock or natural=shoal" />
		<tag k="name" v="Vestre Ballastskjeran" />
		<tag k="place" v="islet" />
		<tag k="ssr:stedsnr" v="182057" />
	</node>
	<node id="-334619" lat="57.9621083368" lon="7.53808055983">
		<tag k="alt_name" v="Timannsskjær" />
		<tag k="fixme" v="consider seamark:type=rock or natural=shoal" />
		<tag k="name" v="Timannsskjer" />
		<tag k="place" v="islet" />
		<tag k="ssr:stedsnr" v="390651" />
	</node>
	<node id="-335356" lat="58.0024500005" lon="7.55638054993">
		<tag k="alt_name" v="Tregde Buøy;Buøy" />
		<tag k="name" v="Buøya" />
		<tag k="place" v="island" />
		<tag k="ssr:stedsnr" v="182056" />
	</node>
	<node id="-337403" lat="57.9866777753" lon="7.51248889264">
		<tag k="name" v="Bakstøvågen" />
		<tag k="natural" v="bay" />
		<tag k="ssr:stedsnr" v="966863" />
	</node>
	<node id="-337402" lat="58.0178582441" lon="7.47633197793">
		<tag k="name" v="Sauholmen" />
		<tag k="natural" v="cape" />
		<tag k="ssr:stedsnr" v="965102" />
	</node>
	<node id="-335353" lat="58.0058250036" lon="7.48709999153">
		<tag k="alt_name" v="Stussøy" />
		<tag k="name" v="Stusøy" />
		<tag k="place" v="island" />
		<tag k="ssr:stedsnr" v="182050" />
	</node>
	<node id="-335352" lat="57.9631194488" lon="7.54748611854">
		<tag k="bay" v="fjord" />
		<tag k="name" v="Skjøringrenna" />
		<tag k="natural" v="bay" />
		<tag k="ssr:stedsnr" v="182048" />
	</node>
	<node id="-335351" lat="57.9898000008" lon="7.64241944867">
		<tag k="name" v="Valløy" />
		<tag k="place" v="island" />
		<tag k="ssr:stedsnr" v="182039" />
	</node>
	<node id="-337150" lat="57.9640194461" lon="7.48880556158">
		<tag k="name" v="Klubbodden" />
		<tag k="natural" v="cape" />
		<tag k="ssr:stedsnr" v="875050" />
	</node>
	<node id="-335346" lat="58.0008138867" lon="7.32986389488">
		<tag k="alt_name" v="Vrageviga" />
		<tag k="name" v="Vragvika" />
		<tag k="natural" v="bay" />
		<tag k="ssr:stedsnr" v="162278" />
	</node>
	<node id="-335344" lat="58.0151805598" lon="7.40994166133">
		<tag k="name" v="Øya" />
		<tag k="place" v="island" />
		<tag k="ssr:stedsnr" v="268585" />
	</node>
	<node id="-336808" lat="58.0381138862" lon="7.24964722417">
		<tag k="name" v="Kongsboen" />
		<tag k="place" v="locality" />
		<tag k="seamark:type" v="rock" />
		<tag k="ssr:stedsnr" v="754494" />
	</node>
	<node id="-337390" lat="57.9894277792" lon="7.35023889495">
		<tag k="name" v="Åskotodden" />
		<tag k="natural" v="cape" />
		<tag k="ssr:stedsnr" v="936918" />
	</node>
	<node id="-337389" lat="57.9942305541" lon="7.33829166396">
		<tag k="name" v="Taraldsbukta" />
		<tag k="natural" v="bay" />
		<tag k="ssr:stedsnr" v="936912" />
	</node>
	<node id="-335339" lat="57.9744694489" lon="7.52200555326">
		<tag k="name" v="Bestefarshola" />
		<tag k="natural" v="bay" />
		<tag k="ssr:stedsnr" v="147936" />
	</node>
	<node id="-335338" lat="57.9858777805" lon="7.58748056221">
		<tag k="name" v="Laugholmen" />
		<tag k="place" v="islet" />
		<tag k="ssr:stedsnr" v="147933" />
	</node>
	<node id="-335337" lat="58.0357555529" lon="7.33425554765">
		<tag k="alt_name" v="Melkevig" />
		<tag k="name" v="Melkevika" />
		<tag k="natural" v="bay" />
		<tag k="ssr:stedsnr" v="147917" />
	</node>
	<node id="-335336" lat="58.0333694478" lon="7.33249722304">
		<tag k="name" v="Flatodden" />
		<tag k="natural" v="cape" />
		<tag k="ssr:stedsnr" v="147915" />
	</node>
	<node id="-337148" lat="57.9684222256" lon="7.52541388248">
		<tag k="fixme" v="consider seamark:type=rock or natural=shoal" />
		<tag k="name" v="Brannan" />
		<tag k="place" v="islet" />
		<tag k="ssr:stedsnr" v="875034" />
	</node>
	<node id="-335334" lat="57.9938138912" lon="7.37282222475">
		<tag k="name" v="Vestre bukta" />
		<tag k="natural" v="bay" />
		<tag k="ssr:stedsnr" v="147881" />
	</node>
	<node id="-335333" lat="58.0183944437" lon="7.33480000249">
		<tag k="fixme" v="consider seamark:type=rock or natural=shoal" />
		<tag k="name" v="Skarveskjær" />
		<tag k="place" v="islet" />
		<tag k="ssr:stedsnr" v="147872" />
	</node>
	<node id="-335332" lat="58.0208361135" lon="7.32824721418">
		<tag k="name" v="Runkelbukta" />
		<tag k="natural" v="bay" />
		<tag k="ssr:stedsnr" v="147853" />
	</node>
	<node id="-336664" lat="57.9902888863" lon="7.34461666587">
		<tag k="alt_name" v="Store Åskot" />
		<tag k="name" v="Åskot" />
		<tag k="place" v="islet" />
		<tag k="ssr:stedsnr" v="728012" />
	</node>
	<node id="-335330" lat="58.0231944429" lon="7.36312221861">
		<tag k="name" v="Hovsholmen" />
		<tag k="place" v="islet" />
		<tag k="ssr:stedsnr" v="147801" />
	</node>
	<node id="-337377" lat="58.0194222201" lon="7.45779166277">
		<tag k="name" v="Østerland" />
		<tag k="natural" v="cape" />
		<tag k="ssr:stedsnr" v="936741" />
	</node>
	<node id="-337376" lat="58.004716668" lon="7.43045833604">
		<tag k="name" v="Teistholman" />
		<tag k="place" v="islet" />
		<tag k="ssr:stedsnr" v="936699" />
	</node>
	<node id="-335327" lat="58.0064222244" lon="7.52884721392">
		<tag k="name" v="Store Kigeholmen" />
		<tag k="place" v="islet" />
		<tag k="ssr:stedsnr" v="147645" />
	</node>
	<node id="-337374" lat="58.0143138874" lon="7.48994444526">
		<tag k="fixme" v="consider seamark:type=rock or natural=shoal" />
		<tag k="name" v="Ellingstønnan" />
		<tag k="place" v="islet" />
		<tag k="ssr:stedsnr" v="936665" />
	</node>
	<node id="-335325" lat="58.0256722178" lon="7.6531166584">
		<tag k="name" v="Skjevika" />
		<tag k="natural" v="bay" />
		<tag k="ssr:stedsnr" v="147623" />
	</node>
	<node id="-335324" lat="57.97304722" lon="7.60340555653">
		<tag k="alt_name" v="Syskjær" />
		<tag k="fixme" v="consider seamark:type=rock or natural=shoal" />
		<tag k="name" v="Syvskjer" />
		<tag k="place" v="islet" />
		<tag k="ssr:stedsnr" v="147621" />
	</node>
	<node id="-337371" lat="58.0003972232" lon="7.61037777836">
		<tag k="name" v="Vestre Lindholmen" />
		<tag k="place" v="islet" />
		<tag k="ssr:stedsnr" v="936620" />
	</node>
	<node id="-337370" lat="57.9875777815" lon="7.56840276944">
		<tag k="name" v="Kattholmen" />
		<tag k="place" v="islet" />
		<tag k="ssr:stedsnr" v="936618" />
	</node>
	<node id="-335319" lat="57.9844250006" lon="7.60801667407">
		<tag k="name" v="Gillerholmen" />
		<tag k="place" v="islet" />
		<tag k="ssr:stedsnr" v="147401" />
	</node>
	<node id="-335318" lat="57.9827416688" lon="7.60418056306">
		<tag k="name" v="Rultholmen" />
		<tag k="place" v="islet" />
		<tag k="ssr:stedsnr" v="147398" />
	</node>
	<node id="-337365" lat="57.9858472232" lon="7.49239443869">
		<tag k="fixme" v="consider seamark:type=rock or natural=shoal" />
		<tag k="name" v="Færøyboan" />
		<tag k="place" v="islet" />
		<tag k="ssr:stedsnr" v="936374" />
	</node>
	<node id="-335316" lat="58.0259666643" lon="7.62525277855">
		<tag k="name" v="Støa" />
		<tag k="natural" v="bay" />
		<tag k="ssr:stedsnr" v="147357" />
	</node>
	<node id="-335308" lat="58.0068416662" lon="7.51860277712">
		<tag k="name" v="Langodden" />
		<tag k="natural" v="cape" />
		<tag k="ssr:stedsnr" v="147237" />
	</node>
	<node id="-335307" lat="58.0089888869" lon="7.50302221601">
		<tag k="name" v="Sodevika" />
		<tag k="natural" v="bay" />
		<tag k="ssr:stedsnr" v="147233" />
	</node>
	<node id="-337351" lat="58.0146444439" lon="7.47139722867">
		<tag k="fixme" v="consider seamark:type=rock or natural=shoal" />
		<tag k="name" v="Ånenskjær" />
		<tag k="place" v="islet" />
		<tag k="ssr:stedsnr" v="936216" />
	</node>
	<node id="-337349" lat="58.004822218" lon="7.51782778101">
		<tag k="name" v="Smeodden" />
		<tag k="natural" v="cape" />
		<tag k="ssr:stedsnr" v="936199" />
	</node>
	<node id="-337348" lat="58.0049250027" lon="7.51159721454">
		<tag k="name" v="Langvika" />
		<tag k="natural" v="bay" />
		<tag k="ssr:stedsnr" v="936200" />
	</node>
	<node id="-337347" lat="58.0135305562" lon="7.50164167383">
		<tag k="name" v="Standholmen" />
		<tag k="place" v="islet" />
		<tag k="ssr:stedsnr" v="936190" />
	</node>
	<node id="-335295" lat="58.0202805517" lon="7.42238610677">
		<tag k="name" v="Oddan" />
		<tag k="natural" v="cape" />
		<tag k="ssr:stedsnr" v="147156" />
	</node>
	<node id="-335293" lat="57.9880305558" lon="7.43516389092">
		<tag k="name" v="Storøytåa" />
		<tag k="natural" v="cape" />
		<tag k="ssr:stedsnr" v="146776" />
	</node>
	<node id="-335292" lat="57.990294442" lon="7.44209166466">
		<tag k="name" v="Havren" />
		<tag k="place" v="islet" />
		<tag k="ssr:stedsnr" v="146770" />
	</node>
	<node id="-335291" lat="58.0167888917" lon="7.41320833733">
		<tag k="name" v="Laugholmen" />
		<tag k="natural" v="cape" />
		<tag k="ssr:stedsnr" v="146735" />
	</node>
	<node id="-335290" lat="58.0148388854" lon="7.4342249994">
		<tag k="name" v="Spindsbo" />
		<tag k="natural" v="beach" />
		<tag k="place" v="locality" />
		<tag k="ssr:stedsnr" v="146728" />
	</node>
	<node id="-335289" lat="58.0116527775" lon="7.37458610731">
		<tag k="alt_name" v="Hegreskjær" />
		<tag k="fixme" v="consider seamark:type=rock or natural=shoal" />
		<tag k="name" v="Hegreskjeran" />
		<tag k="place" v="islet" />
		<tag k="ssr:stedsnr" v="146721" />
	</node>
	<node id="-337336" lat="57.9869777808" lon="7.54498610641">
		<tag k="fixme" v="consider seamark:type=rock or natural=shoal" />
		<tag k="name" v="Kollaskjær" />
		<tag k="place" v="islet" />
		<tag k="ssr:stedsnr" v="936109" />
	</node>
	<node id="-335286" lat="58.0084861102" lon="7.59451943795">
		<tag k="name" v="Nodefjellsodden" />
		<tag k="natural" v="cape" />
		<tag k="ssr:stedsnr" v="146256" />
	</node>
	<node id="-336457" lat="58.028147219" lon="7.33835556388">
		<tag k="name" v="Vestre Stingnebb" />
		<tag k="natural" v="cape" />
		<tag k="ssr:stedsnr" v="632863" />
	</node>
	<node id="-335284" lat="58.0156222262" lon="7.61310555302">
		<tag k="name" v="Brattestø" />
		<tag k="natural" v="bay" />
		<tag k="ssr:stedsnr" v="146243" />
	</node>
	<node id="-335283" lat="58.0063500006" lon="7.58044166494">
		<tag k="name" v="Lillenes" />
		<tag k="natural" v="cape" />
		<tag k="ssr:stedsnr" v="146238" />
	</node>
	<node id="-335279" lat="58.0190944402" lon="7.48827222494">
		<tag k="fixme" v="consider seamark:type=rock or natural=shoal" />
		<tag k="name" v="Regevikskjær" />
		<tag k="place" v="islet" />
		<tag k="ssr:stedsnr" v="146199" />
	</node>
	<node id="-335277" lat="57.9619166692" lon="7.49858888078">
		<tag k="name" v="Lille Slettingen" />
		<tag k="place" v="islet" />
		<tag k="ssr:stedsnr" v="146046" />
	</node>
	<node id="-335276" lat="57.9666472256" lon="7.50001111547">
		<tag k="name" v="Fiskodden" />
		<tag k="natural" v="cape" />
		<tag k="ssr:stedsnr" v="146045" />
	</node>
	<node id="-335275" lat="57.9605472238" lon="7.50715556209">
		<tag k="name" v="Krågekroa" />
		<tag k="natural" v="bay" />
		<tag k="ssr:stedsnr" v="146042" />
	</node>
	<node id="-335274" lat="57.9965583303" lon="7.4937750026">
		<tag k="name" v="Færøybukta" />
		<tag k="natural" v="bay" />
		<tag k="ssr:stedsnr" v="146016" />
	</node>
	<node id="-335273" lat="57.9933472262" lon="7.49542777354">
		<tag k="name" v="Færøysundet" />
		<tag k="natural" v="strait" />
		<tag k="ssr:stedsnr" v="146010" />
	</node>
	<node id="-337319" lat="58.0034111086" lon="7.36821944315">
		<tag k="name" v="Kammershammersvika" />
		<tag k="natural" v="bay" />
		<tag k="ssr:stedsnr" v="935865" />
	</node>
	<node id="-337318" lat="57.9982916686" lon="7.40475832871">
		<tag k="name" v="Griserompa" />
		<tag k="natural" v="cape" />
		<tag k="ssr:stedsnr" v="935859" />
	</node>
	<node id="-337317" lat="57.9983916633" lon="7.36374721671">
		<tag k="name" v="Røyren" />
		<tag k="natural" v="bay" />
		<tag k="ssr:stedsnr" v="935858" />
	</node>
	<node id="-337316" lat="57.9998555552" lon="7.40366666992">
		<tag k="name" v="Steinsøysundet" />
		<tag k="natural" v="strait" />
		<tag k="ssr:stedsnr" v="935850" />
	</node>
	<node id="-337314" lat="57.994969444" lon="7.56865832762">
		<tag k="alt_name" v="Hårsøysundet" />
		<tag k="name" v="Horsøysundet" />
		<tag k="natural" v="strait" />
		<tag k="ssr:stedsnr" v="936065" />
	</node>
	<node id="-337313" lat="57.9819083337" lon="7.49564445189">
		<tag k="fixme" v="consider seamark:type=rock or natural=shoal" />
		<tag k="name" v="Hjelmeskjæran" />
		<tag k="place" v="islet" />
		<tag k="ssr:stedsnr" v="936062" />
	</node>
	<node id="-337312" lat="57.9697222252" lon="7.5383944415">
		<tag k="name" v="Rompa" />
		<tag k="natural" v="cape" />
		<tag k="ssr:stedsnr" v="936056" />
	</node>
	<node id="-337307" lat="57.9896083332" lon="7.50001667055">
		<tag k="fixme" v="consider seamark:type=rock or natural=shoal" />
		<tag k="name" v="Vågskjeftboen" />
		<tag k="place" v="islet" />
		<tag k="ssr:stedsnr" v="936017" />
	</node>
	<node id="-337304" lat="57.9923777802" lon="7.43951667373">
		<tag k="name" v="Østre Dalersbukta" />
		<tag k="natural" v="bay" />
		<tag k="ssr:stedsnr" v="935789" />
	</node>
	<node id="-335255" lat="58.0056694465" lon="7.38244999514">
		<tag k="fixme" v="consider seamark:type=rock or natural=shoal" />
		<tag k="name" v="Lorten" />
		<tag k="place" v="islet" />
		<tag k="ssr:stedsnr" v="145865" />
	</node>
	<node id="-335254" lat="58.0069916662" lon="7.37236388628">
		<tag k="alt_name" v="Hillenes" />
		<tag k="name" v="Hilleneset" />
		<tag k="natural" v="cape" />
		<tag k="ssr:stedsnr" v="145861" />
	</node>
	<node id="-335253" lat="58.0063638849" lon="7.36690278356">
		<tag k="name" v="Sølvkanna" />
		<tag k="natural" v="bay" />
		<tag k="ssr:stedsnr" v="145859" />
	</node>
	<node id="-335252" lat="58.0026111076" lon="7.39997222931">
		<tag k="name" v="Gunningssundet" />
		<tag k="natural" v="strait" />
		<tag k="ssr:stedsnr" v="145855" />
	</node>
	<node id="-335251" lat="58.0030055567" lon="7.32643889103">
		<tag k="fixme" v="consider seamark:type=rock or natural=shoal" />
		<tag k="name" v="Maurskjær" />
		<tag k="place" v="islet" />
		<tag k="ssr:stedsnr" v="145852" />
	</node>
	<node id="-335250" lat="58.0032750032" lon="7.34911111553">
		<tag k="name" v="Vestre Dansvik" />
		<tag k="natural" v="bay" />
		<tag k="ssr:stedsnr" v="145845" />
	</node>
	<node id="-337295" lat="58.0139805512" lon="7.39029167504">
		<tag k="fixme" v="consider seamark:type=rock or natural=shoal" />
		<tag k="name" v="Juvigskjer" />
		<tag k="place" v="islet" />
		<tag k="ssr:stedsnr" v="935729" />
	</node>
	<node id="-337292" lat="57.9996194462" lon="7.34856667141">
		<tag k="name" v="Letterkilen" />
		<tag k="natural" v="bay" />
		<tag k="ssr:stedsnr" v="935806" />
	</node>
	<node id="-337285" lat="58.0020416631" lon="7.54341389586">
		<tag k="name" v="Tjeldholmen" />
		<tag k="place" v="islet" />
		<tag k="ssr:stedsnr" v="935437" />
	</node>
	<node id="-337284" lat="58.0027527811" lon="7.52213610801">
		<tag k="name" v="Sundsholmen" />
		<tag k="place" v="islet" />
		<tag k="ssr:stedsnr" v="935434" />
	</node>
	<node id="-337283" lat="57.9651027796" lon="7.51128611444">
		<tag k="name" v="Midtfjær" />
		<tag k="natural" v="shoal" />
		<tag k="place" v="locality" />
		<tag k="ssr:stedsnr" v="935361" />
	</node>
	<node id="-337282" lat="57.9528777784" lon="7.47882499307">
		<tag k="name" v="Ryvinggrunnen" />
		<tag k="natural" v="shoal" />
		<tag k="place" v="locality" />
		<tag k="ssr:stedsnr" v="935359" />
	</node>
	<node id="-337281" lat="58.0004638871" lon="7.65858889037">
		<tag k="name" v="Østre Sauodden" />
		<tag k="natural" v="cape" />
		<tag k="ssr:stedsnr" v="935309" />
	</node>
	<node id="-337275" lat="58.0166166626" lon="7.61421945206">
		<tag k="name" v="Buvika" />
		<tag k="natural" v="bay" />
		<tag k="ssr:stedsnr" v="935233" />
	</node>
	<node id="-337274" lat="58.0144611117" lon="7.62164166907">
		<tag k="name" v="Kretturholmen" />
		<tag k="place" v="islet" />
		<tag k="ssr:stedsnr" v="935223" />
	</node>
	<node id="-337273" lat="57.9674888919" lon="7.54184166863">
		<tag k="name" v="Sydostebukta" />
		<tag k="natural" v="bay" />
		<tag k="ssr:stedsnr" v="935071" />
	</node>
	<node id="-337272" lat="57.9653749988" lon="7.53979722157">
		<tag k="fixme" v="consider seamark:type=rock or natural=shoal" />
		<tag k="name" v="Mikkelskjær" />
		<tag k="place" v="islet" />
		<tag k="ssr:stedsnr" v="935063" />
	</node>
	<node id="-335223" lat="58.0142249993" lon="7.63944443637">
		<tag k="name" v="Stangholmsundet" />
		<tag k="natural" v="strait" />
		<tag k="ssr:stedsnr" v="145658" />
	</node>
	<node id="-335222" lat="58.0177305568" lon="7.63223054899">
		<tag k="name" v="Årvika" />
		<tag k="natural" v="bay" />
		<tag k="ssr:stedsnr" v="145656" />
	</node>
	<node id="-335221" lat="58.0168861095" lon="7.63849167216">
		<tag k="name" v="Audevikboen" />
		<tag k="place" v="locality" />
		<tag k="seamark:type" v="rock" />
		<tag k="ssr:stedsnr" v="145654" />
	</node>
	<node id="-335220" lat="58.0112527739" lon="7.63908333881">
		<tag k="name" v="Ufredsundboen" />
		<tag k="place" v="locality" />
		<tag k="seamark:type" v="rock" />
		<tag k="ssr:stedsnr" v="145648" />
	</node>
	<node id="-335217" lat="58.0236166656" lon="7.6657833253">
		<tag k="name" v="Østerstranda" />
		<tag k="natural" v="bay" />
		<tag k="ssr:stedsnr" v="145611" />
	</node>
	<node id="-337257" lat="58.0443416692" lon="7.63175277586">
		<tag k="name" v="Storeholmen" />
		<tag k="place" v="islet" />
		<tag k="ssr:stedsnr" v="934695" />
	</node>
	<node id="-337126" lat="58.0043166624" lon="7.33923611952">
		<tag k="name" v="Meavrasundet" />
		<tag k="natural" v="strait" />
		<tag k="ssr:stedsnr" v="874838" />
	</node>
	<node id="-335201" lat="58.0011361144" lon="7.52868611815">
		<tag k="name" v="Grundsholmen" />
		<tag k="place" v="islet" />
		<tag k="ssr:stedsnr" v="145415" />
	</node>
	<node id="-337248" lat="58.0301583333" lon="7.67274166169">
		<tag k="name" v="Kaste" />
		<tag k="natural" v="bay" />
		<tag k="ssr:stedsnr" v="934564" />
	</node>
	<node id="-335199" lat="58.00019167" lon="7.53777500649">
		<tag k="fixme" v="consider seamark:type=rock or natural=shoal" />
		<tag k="name" v="Glukkskjær" />
		<tag k="place" v="islet" />
		<tag k="ssr:stedsnr" v="145410" />
	</node>
	<node id="-335196" lat="58.0057388901" lon="7.55261388635">
		<tag k="name" v="Kverna" />
		<tag k="natural" v="shoal" />
		<tag k="place" v="locality" />
		<tag k="ssr:stedsnr" v="145384" />
	</node>
	<node id="-334303" lat="58.0440250035" lon="7.63748332829">
		<tag k="name" v="Karisholmen" />
		<tag k="place" v="islet" />
		<tag k="ssr:stedsnr" v="327684" />
	</node>
	<node id="-335194" lat="57.9868583349" lon="7.59790556087">
		<tag k="name" v="Frygdesundet" />
		<tag k="natural" v="strait" />
		<tag k="ssr:stedsnr" v="145347" />
	</node>
	<node id="-335193" lat="57.975955556" lon="7.61340555994">
		<tag k="name" v="Flatodden" />
		<tag k="natural" v="cape" />
		<tag k="ssr:stedsnr" v="145329" />
	</node>
	<node id="-335192" lat="57.9864333312" lon="7.6448583288">
		<tag k="name" v="Svartodden" />
		<tag k="natural" v="cape" />
		<tag k="ssr:stedsnr" v="145325" />
	</node>
	<node id="-335190" lat="57.985005552" lon="7.54144721977">
		<tag k="name" v="Hellesdalsodden" />
		<tag k="natural" v="cape" />
		<tag k="ssr:stedsnr" v="145113" />
	</node>
	<node id="-335189" lat="57.9811666642" lon="7.53677222056">
		<tag k="name" v="Kommodeskuffa" />
		<tag k="natural" v="bay" />
		<tag k="ssr:stedsnr" v="145111" />
	</node>
	<node id="-335188" lat="57.9802194483" lon="7.55755000172">
		<tag k="name" v="Havnen" />
		<tag k="natural" v="bay" />
		<tag k="ssr:stedsnr" v="145104" />
	</node>
	<node id="-335187" lat="57.9641861098" lon="7.52992500188">
		<tag k="name" v="Fiskodden" />
		<tag k="natural" v="cape" />
		<tag k="ssr:stedsnr" v="145076" />
	</node>
	<node id="-335186" lat="57.9921111149" lon="7.57237499811">
		<tag k="name" v="Andholmen" />
		<tag k="natural" v="cape" />
		<tag k="ssr:stedsnr" v="145062" />
	</node>
	<node id="-335178" lat="58.0198194417" lon="7.35191665962">
		<tag k="alt_name" v="Nakøy" />
		<tag k="name" v="Nakkøya" />
		<tag k="place" v="island" />
		<tag k="ssr:stedsnr" v="121972" />
	</node>
	<node id="-337223" lat="58.0043805552" lon="7.3694333377">
		<tag k="alt_name" v="Hillevåa" />
		<tag k="name" v="Hillevågen" />
		<tag k="natural" v="bay" />
		<tag k="ssr:stedsnr" v="910089" />
	</node>
	<node id="-337222" lat="58.0062222252" lon="7.60298888782">
		<tag k="alt_name" v="Orpholmen" />
		<tag k="name" v="Søndre, lille Ørpholmen" />
		<tag k="place" v="islet" />
		<tag k="ssr:stedsnr" v="910082" />
	</node>
	<node id="-337221" lat="57.9710500002" lon="7.45823333282">
		<tag k="name" v="Klevehausen" />
		<tag k="natural" v="shoal" />
		<tag k="place" v="locality" />
		<tag k="ssr:stedsnr" v="910075" />
	</node>
	<node id="-337220" lat="57.9788453232" lon="7.63211849653">
		<tag k="alt_name" v="Kniblingen" />
		<tag k="name" v="Kneblingen" />
		<tag k="place" v="island" />
		<tag k="ssr:stedsnr" v="910071" />
	</node>
	<node id="-337217" lat="57.9990555518" lon="7.57701944477">
		<tag k="name" v="Langøy" />
		<tag k="place" v="island" />
		<tag k="ssr:stedsnr" v="910046" />
	</node>
	<node id="-337216" lat="57.9984611073" lon="7.42242500189">
		<tag k="alt_name" v="Mannevær, indre" />
		<tag k="name" v="Indre Mannevær" />
		<tag k="place" v="island" />
		<tag k="ssr:stedsnr" v="910043" />
	</node>
	<node id="-337215" lat="57.991177781" lon="7.33378611873">
		<tag k="name" v="Klubba" />
		<tag k="place" v="islet" />
		<tag k="ssr:stedsnr" v="910010" />
	</node>
	<node id="-335165" lat="58.016224996" lon="7.33002500475">
		<tag k="alt_name" v="Klauholman" />
		<tag k="name" v="Klovholmen" />
		<tag k="place" v="islet" />
		<tag k="ssr:stedsnr" v="121640" />
	</node>
	<node id="-335163" lat="57.9669555584" lon="7.64497500702">
		<tag k="fixme" v="consider seamark:type=rock or natural=shoal" />
		<tag k="name" v="Gåseskjeran" />
		<tag k="place" v="islet" />
		<tag k="ssr:stedsnr" v="121082" />
	</node>
	<node id="-335162" lat="57.961497221" lon="7.61444444943">
		<tag k="alt_name" v="Ytterskjær" />
		<tag k="fixme" v="consider seamark:type=rock or natural=shoal" />
		<tag k="name" v="Ytsteskjer" />
		<tag k="place" v="islet" />
		<tag k="ssr:stedsnr" v="121078" />
	</node>
	<node id="-335161" lat="57.9897805548" lon="7.5630111194">
		<tag k="name" v="Risøy" />
		<tag k="place" v="islet" />
		<tag k="ssr:stedsnr" v="121052" />
	</node>
	<node id="-335160" lat="57.9869000035" lon="7.41934722444">
		<tag k="alt_name" v="Saltskjær" />
		<tag k="fixme" v="consider seamark:type=rock or natural=shoal" />
		<tag k="name" v="Saltskjer" />
		<tag k="place" v="islet" />
		<tag k="ssr:stedsnr" v="121049" />
	</node>
	<node id="-337207" lat="58.0179666702" lon="7.38546110924">
		<tag k="name" v="Nodelandsstranda" />
		<tag k="natural" v="bay" />
		<tag k="ssr:stedsnr" v="876890" />
	</node>
	<node id="-335158" lat="57.9976527817" lon="7.32454721992">
		<tag k="name" v="Kubramsholmen" />
		<tag k="place" v="islet" />
		<tag k="ssr:stedsnr" v="121014" />
	</node>
	<node id="-335157" lat="58.0376083372" lon="7.3351277859">
		<tag k="name" v="Lundevig" />
		<tag k="natural" v="bay" />
		<tag k="ssr:stedsnr" v="117177" />
	</node>
	<node id="-337203" lat="57.9815194438" lon="7.58279167072">
		<tag k="name" v="Naudskjærsundet" />
		<tag k="natural" v="strait" />
		<tag k="ssr:stedsnr" v="876405" />
	</node>
	<node id="-337201" lat="58.0089166711" lon="7.42722222961">
		<tag k="name" v="Hummerodden" />
		<tag k="natural" v="cape" />
		<tag k="ssr:stedsnr" v="875987" />
	</node>
	<node id="-337200" lat="58.007869447" lon="7.4336611194">
		<tag k="name" v="Eid" />
		<tag k="place" v="locality" />
		<tag k="ssr:stedsnr" v="875985" />
	</node>
	<node id="-337198" lat="57.9770861132" lon="7.53352221496">
		<tag k="name" v="Ytre Nodevika" />
		<tag k="natural" v="bay" />
		<tag k="ssr:stedsnr" v="875941" />
	</node>
	<node id="-335149" lat="58.0238805591" lon="7.36445832769">
		<tag k="name" v="Hovskilen" />
		<tag k="natural" v="bay" />
		<tag k="ssr:stedsnr" v="87816" />
	</node>
	<node id="-335146" lat="58.0043500021" lon="7.41754722498">
		<tag k="bay" v="fjord" />
		<tag k="name" v="Baufjorden" />
		<tag k="natural" v="bay" />
		<tag k="ssr:stedsnr" v="87742" />
	</node>
	<node id="-335145" lat="57.9985777763" lon="7.49935555456">
		<tag k="name" v="Skarnes" />
		<tag k="natural" v="cape" />
		<tag k="ssr:stedsnr" v="87691" />
	</node>
	<node id="-335142" lat="57.9575999968" lon="7.40809722731">
		<tag k="name" v="Tungegrunnen" />
		<tag k="natural" v="shoal" />
		<tag k="place" v="locality" />
		<tag k="ssr:stedsnr" v="87493" />
	</node>
	<node id="-335141" lat="57.9820500038" lon="7.42309722685">
		<tag k="name" v="Svartskjerflakket" />
		<tag k="place" v="locality" />
		<tag k="seamark:type" v="rock" />
		<tag k="ssr:stedsnr" v="87491" />
	</node>
	<node id="-335140" lat="58.0103527797" lon="7.45123333917">
		<tag k="name" v="Buskeboen" />
		<tag k="place" v="locality" />
		<tag k="seamark:type" v="rock" />
		<tag k="ssr:stedsnr" v="87489" />
	</node>
	<node id="-337187" lat="58.0123777744" lon="7.38850832986">
		<tag k="name" v="Lande Kvistholman" />
		<tag k="place" v="islet" />
		<tag k="ssr:stedsnr" v="875808" />
	</node>
	<node id="-335138" lat="57.9826388868" lon="7.42915834186">
		<tag k="fixme" v="consider seamark:type=rock or natural=shoal" />
		<tag k="name" v="Bryden" />
		<tag k="place" v="islet" />
		<tag k="ssr:stedsnr" v="87482" />
	</node>
	<node id="-335137" lat="57.9842083362" lon="7.38241110769">
		<tag k="name" v="Tungeskjerboen" />
		<tag k="natural" v="shoal" />
		<tag k="place" v="locality" />
		<tag k="ssr:stedsnr" v="87476" />
	</node>
	<node id="-337184" lat="57.9652111151" lon="7.53694167447">
		<tag k="alt_name" v="Terneskjæran" />
		<tag k="fixme" v="consider seamark:type=rock or natural=shoal" />
		<tag k="name" v="Terneskjer" />
		<tag k="place" v="islet" />
		<tag k="ssr:stedsnr" v="875618" />
	</node>
	<node id="-337183" lat="58.0138166703" lon="7.42882500795">
		<tag k="bay" v="fjord" />
		<tag k="name" v="Bankefjorden" />
		<tag k="natural" v="bay" />
		<tag k="ssr:stedsnr" v="875605" />
	</node>
	<node id="-335134" lat="57.9840694488" lon="7.5742472282">
		<tag k="name" v="Sekkebukta" />
		<tag k="natural" v="bay" />
		<tag k="ssr:stedsnr" v="87386" />
	</node>
	<node id="-337177" lat="57.9800972211" lon="7.58069166243">
		<tag k="name" v="Fjordboen" />
		<tag k="place" v="locality" />
		<tag k="seamark:type" v="rock" />
		<tag k="ssr:stedsnr" v="875407" />
	</node>
	<node id="-335127" lat="58.0286694407" lon="7.62081389165">
		<tag k="name" v="Navarodden" />
		<tag k="natural" v="cape" />
		<tag k="ssr:stedsnr" v="87287" />
	</node>
	<node id="-335126" lat="58.0412999981" lon="7.62626389039">
		<tag k="name" v="Nordneset" />
		<tag k="natural" v="cape" />
		<tag k="ssr:stedsnr" v="87284" />
	</node>
	<node id="-335125" lat="58.0397222249" lon="7.62353889593">
		<tag k="name" v="Dostadneset" />
		<tag k="natural" v="cape" />
		<tag k="ssr:stedsnr" v="87283" />
	</node>
	<node id="-337172" lat="58.0079472246" lon="7.42384721894">
		<tag k="name" v="Bringebærholmen" />
		<tag k="place" v="islet" />
		<tag k="ssr:stedsnr" v="875749" />
	</node>
	<node id="-337167" lat="58.0166249967" lon="7.47813054738">
		<tag k="name" v="Annisbukt" />
		<tag k="natural" v="bay" />
		<tag k="ssr:stedsnr" v="875243" />
	</node>
	<node id="-337166" lat="58.0217583329" lon="7.4799305483">
		<tag k="name" v="Nodevika" />
		<tag k="natural" v="bay" />
		<tag k="ssr:stedsnr" v="875234" />
	</node>
	<node id="-337164" lat="58.0064527776" lon="7.50132500304">
		<tag k="name" v="Bjørnesvika" />
		<tag k="natural" v="bay" />
		<tag k="ssr:stedsnr" v="875225" />
	</node>
	<node id="-337163" lat="58.0161027769" lon="7.49085000044">
		<tag k="name" v="Kalvvika" />
		<tag k="natural" v="bay" />
		<tag k="ssr:stedsnr" v="875221" />
	</node>
	<node id="-335114" lat="57.990397219" lon="7.33700555618">
		<tag k="name" v="Klubbesundet" />
		<tag k="natural" v="strait" />
		<tag k="ssr:stedsnr" v="86942" />
	</node>
	<node id="-335110" lat="57.9954388922" lon="7.37747777838">
		<tag k="fixme" v="consider seamark:type=rock or natural=shoal" />
		<tag k="name" v="Guleskjær" />
		<tag k="place" v="islet" />
		<tag k="ssr:stedsnr" v="86894" />
	</node>
	<node id="-335108" lat="58.0208861084" lon="7.32563888333">
		<tag k="name" v="Runkelholmen" />
		<tag k="place" v="islet" />
		<tag k="ssr:stedsnr" v="86868" />
	</node>
	<node id="-335106" lat="57.9935611109" lon="7.42230555924">
		<tag k="name" v="Sydvestkroa" />
		<tag k="natural" v="bay" />
		<tag k="ssr:stedsnr" v="86800" />
	</node>
	<node id="-335105" lat="57.9903166627" lon="7.4414305524">
		<tag k="name" v="Havrehavnen" />
		<tag k="natural" v="strait" />
		<tag k="ssr:stedsnr" v="86796" />
	</node>
	<node id="-337152" lat="58.0198916661" lon="7.45718888346">
		<tag k="name" v="Suggevika" />
		<tag k="natural" v="bay" />
		<tag k="ssr:stedsnr" v="875144" />
	</node>
	<node id="-335103" lat="58.0149777799" lon="7.41603334099">
		<tag k="name" v="Egerodden" />
		<tag k="natural" v="cape" />
		<tag k="ssr:stedsnr" v="86742" />
	</node>
	<node id="-335102" lat="58.0045777757" lon="7.40127500296">
		<tag k="fixme" v="consider seamark:type=rock or natural=shoal" />
		<tag k="name" v="Galten" />
		<tag k="place" v="islet" />
		<tag k="ssr:stedsnr" v="86720" />
	</node>
	<node id="-337149" lat="57.9746750027" lon="7.51938332703">
		<tag k="fixme" v="consider seamark:type=rock or natural=shoal" />
		<tag k="name" v="Moldupsskjær" />
		<tag k="place" v="islet" />
		<tag k="ssr:stedsnr" v="875048" />
	</node>
	<node id="-335100" lat="57.9726000013" lon="7.55689445206">
		<tag k="bay" v="fjord" />
		<tag k="name" v="Sandøyfjorden" />
		<tag k="natural" v="bay" />
		<tag k="ssr:stedsnr" v="86617" />
	</node>
	<node id="-337147" lat="58.0063583301" lon="7.49175278293">
		<tag k="name" v="Abalholmen" />
		<tag k="place" v="islet" />
		<tag k="ssr:stedsnr" v="875018" />
	</node>
	<node id="-337146" lat="57.9967222229" lon="7.49799722198">
		<tag k="name" v="Nordstranda" />
		<tag k="natural" v="bay" />
		<tag k="ssr:stedsnr" v="875008" />
	</node>
	<node id="-337145" lat="58.0119305599" lon="7.34693332526">
		<tag k="name" v="Vestvåa" />
		<tag k="natural" v="bay" />
		<tag k="ssr:stedsnr" v="875000" />
	</node>
	<node id="-335094" lat="58.0109666674" lon="7.68704443987">
		<tag k="fixme" v="consider seamark:type=rock or natural=shoal" />
		<tag k="name" v="Knuppeboen" />
		<tag k="place" v="islet" />
		<tag k="ssr:stedsnr" v="86404" />
	</node>
	<node id="-337138" lat="58.0069361137" lon="7.59489167386">
		<tag k="name" v="Indre Ørpegapet" />
		<tag k="natural" v="strait" />
		<tag k="ssr:stedsnr" v="875343" />
	</node>
	<node id="-335089" lat="58.0137638891" lon="7.47976110299">
		<tag k="name" v="Fjellmannsbukta" />
		<tag k="natural" v="bay" />
		<tag k="ssr:stedsnr" v="86243" />
	</node>
	<node id="-337129" lat="58.0009194442" lon="7.37225000107">
		<tag k="name" v="Skjærvika" />
		<tag k="natural" v="bay" />
		<tag k="ssr:stedsnr" v="874859" />
	</node>
	<node id="-335080" lat="57.9706222188" lon="7.50192221746">
		<tag k="name" v="Jåskjærsundet" />
		<tag k="natural" v="strait" />
		<tag k="ssr:stedsnr" v="86052" />
	</node>
	<node id="-337127" lat="58.0109305525" lon="7.34445833616">
		<tag k="name" v="Vestvågsvika" />
		<tag k="natural" v="bay" />
		<tag k="ssr:stedsnr" v="874840" />
	</node>
	<node id="-335078" lat="57.9646861097" lon="7.56348333858">
		<tag k="name" v="Oddsundet" />
		<tag k="natural" v="strait" />
		<tag k="ssr:stedsnr" v="86039" />
	</node>
	<node id="-335077" lat="58.0059611128" lon="7.48366111493">
		<tag k="name" v="Laksegra" />
		<tag k="natural" v="bay" />
		<tag k="ssr:stedsnr" v="86036" />
	</node>
	<node id="-335076" lat="57.9692499972" lon="7.56511944531">
		<tag k="fixme" v="consider seamark:type=rock or natural=shoal" />
		<tag k="name" v="Innvåskjær" />
		<tag k="place" v="islet" />
		<tag k="ssr:stedsnr" v="86037" />
	</node>
	<node id="-337120" lat="58.0144750026" lon="7.41364444061">
		<tag k="name" v="Løbukta" />
		<tag k="natural" v="bay" />
		<tag k="ssr:stedsnr" v="874809" />
	</node>
	<node id="-337119" lat="57.9982944485" lon="7.34832500272">
		<tag k="name" v="Perssundet" />
		<tag k="natural" v="strait" />
		<tag k="ssr:stedsnr" v="874804" />
	</node>
	<node id="-335068" lat="58.0082972255" lon="7.5789444514">
		<tag k="name" v="Jensesbukta" />
		<tag k="natural" v="bay" />
		<tag k="ssr:stedsnr" v="85953" />
	</node>
	<node id="-337110" lat="58.0111805528" lon="7.40554444951">
		<tag k="name" v="Svinørsbukta" />
		<tag k="natural" v="bay" />
		<tag k="ssr:stedsnr" v="874761" />
	</node>
	<node id="-336996" lat="57.9847416641" lon="7.430486103">
		<tag k="fixme" v="consider seamark:type=rock or natural=shoal" />
		<tag k="name" v="Slottet" />
		<tag k="place" v="islet" />
		<tag k="ssr:stedsnr" v="814805" />
	</node>
	<node id="-335054" lat="57.9986527777" lon="7.37283610744">
		<tag k="name" v="Sandvika" />
		<tag k="natural" v="bay" />
		<tag k="ssr:stedsnr" v="85813" />
	</node>
	<node id="-335053" lat="58.0006527764" lon="7.33337500206">
		<tag k="name" v="Grunnesund" />
		<tag k="natural" v="strait" />
		<tag k="ssr:stedsnr" v="85802" />
	</node>
	<node id="-335052" lat="58.0031444475" lon="7.33706667061">
		<tag k="name" v="Meavraodden" />
		<tag k="natural" v="cape" />
		<tag k="ssr:stedsnr" v="85801" />
	</node>
	<node id="-335050" lat="57.9987916633" lon="7.33364721407">
		<tag k="name" v="Yste Avra" />
		<tag k="natural" v="cape" />
		<tag k="ssr:stedsnr" v="85776" />
	</node>
	<node id="-337096" lat="58.015374996" lon="7.64094444042">
		<tag k="name" v="Stangholmen" />
		<tag k="place" v="islet" />
		<tag k="ssr:stedsnr" v="874683" />
	</node>
	<node id="-337095" lat="58.0136527818" lon="7.66114444612">
		<tag k="name" v="Jonsprong" />
		<tag k="natural" v="cape" />
		<tag k="ssr:stedsnr" v="874667" />
	</node>
	<node id="-336306" lat="57.992025002" lon="7.57426943869">
		<tag k="name" v="Østre Andholmbukta" />
		<tag k="natural" v="bay" />
		<tag k="ssr:stedsnr" v="630339" />
	</node>
	<node id="-337081" lat="58.0081111075" lon="7.53378055656">
		<tag k="name" v="Habne" />
		<tag k="natural" v="bay" />
		<tag k="ssr:stedsnr" v="874426" />
	</node>
	<node id="-335031" lat="58.0041583352" lon="7.6543361081">
		<tag k="fixme" v="consider seamark:type=rock or natural=shoal" />
		<tag k="name" v="Selbryden" />
		<tag k="place" v="islet" />
		<tag k="ssr:stedsnr" v="85606" />
	</node>
	<node id="-335030" lat="58.0087083293" lon="7.66033332684">
		<tag k="name" v="Stolsboen" />
		<tag k="place" v="locality" />
		<tag k="seamark:type" v="rock" />
		<tag k="ssr:stedsnr" v="85592" />
	</node>
	<node id="-335029" lat="58.0193972188" lon="7.63001389334">
		<tag k="bay" v="fjord" />
		<tag k="name" v="Havnefjorden" />
		<tag k="natural" v="bay" />
		<tag k="ssr:stedsnr" v="85579" />
	</node>
	<node id="-335028" lat="57.975438891" lon="7.52600555288">
		<tag k="alt_name" v="Nodeviga" />
		<tag k="fixme" v="multiple name tags, choose one and add the other to alt_name" />
		<tag k="name" v="Skiftenesvika;Nodevika" />
		<tag k="natural" v="bay" />
		<tag k="ssr:stedsnr" v="85577" />
	</node>
	<node id="-335027" lat="58.0231055555" lon="7.66432221925">
		<tag k="name" v="Kråkeholmen" />
		<tag k="place" v="islet" />
		<tag k="ssr:stedsnr" v="85562" />
	</node>
	<node id="-337074" lat="58.0451805561" lon="7.6116194505">
		<tag k="name" v="Lervika" />
		<tag k="natural" v="bay" />
		<tag k="ssr:stedsnr" v="874342" />
	</node>
	<node id="-337072" lat="58.00525278" lon="7.59996943639">
		<tag k="name" v="Hestevika" />
		<tag k="natural" v="bay" />
		<tag k="ssr:stedsnr" v="874280" />
	</node>
	<node id="-337071" lat="57.9810333377" lon="7.54215000475">
		<tag k="name" v="Hammeren" />
		<tag k="natural" v="cape" />
		<tag k="ssr:stedsnr" v="874113" />
	</node>
	<node id="-337070" lat="57.9690083322" lon="7.60637500743">
		<tag k="name" v="Vrangelbukta" />
		<tag k="natural" v="bay" />
		<tag k="ssr:stedsnr" v="874108" />
	</node>
	<node id="-337067" lat="57.9792361068" lon="7.58561110385">
		<tag k="name" v="Naudskjer" />
		<tag k="place" v="islet" />
		<tag k="ssr:stedsnr" v="872964" />
	</node>
	<node id="-335014" lat="58.0017527751" lon="7.5578138916">
		<tag k="name" v="Østre Buvika" />
		<tag k="natural" v="bay" />
		<tag k="ssr:stedsnr" v="85351" />
	</node>
	<node id="-337061" lat="58.0119694452" lon="7.44226111233">
		<tag k="name" v="Aspholmen" />
		<tag k="place" v="islet" />
		<tag k="ssr:stedsnr" v="850934" />
	</node>
	<node id="-335011" lat="57.9921222229" lon="7.57957778344">
		<tag k="name" v="Breivika" />
		<tag k="natural" v="bay" />
		<tag k="ssr:stedsnr" v="85286" />
	</node>
	<node id="-335010" lat="57.998913891" lon="7.64969166085">
		<tag k="name" v="Mortehola" />
		<tag k="natural" v="bay" />
		<tag k="ssr:stedsnr" v="85261" />
	</node>
	<node id="-335009" lat="57.9996916686" lon="7.66163054938">
		<tag k="name" v="Makrellbukta" />
		<tag k="natural" v="bay" />
		<tag k="ssr:stedsnr" v="85256" />
	</node>
	<node id="-335007" lat="58.0069777809" lon="7.6018916701">
		<tag k="name" v="Kjettesundet" />
		<tag k="natural" v="strait" />
		<tag k="ssr:stedsnr" v="85217" />
	</node>
	<node id="-335006" lat="58.0079111149" lon="7.58583611494">
		<tag k="name" v="Skogøysundet" />
		<tag k="natural" v="strait" />
		<tag k="ssr:stedsnr" v="85205" />
	</node>
	<node id="-335003" lat="57.9585055581" lon="7.56452499719">
		<tag k="fixme" v="consider seamark:type=rock or natural=shoal" />
		<tag k="name" v="Pysen" />
		<tag k="place" v="islet" />
		<tag k="ssr:stedsnr" v="85089" />
	</node>
	<node id="-335001" lat="57.9781749985" lon="7.53914166833">
		<tag k="name" v="Jyvikodden" />
		<tag k="natural" v="cape" />
		<tag k="ssr:stedsnr" v="85078" />
	</node>
	<node id="-335000" lat="57.9788777737" lon="7.52616110443">
		<tag k="name" v="Torjushola" />
		<tag k="natural" v="bay" />
		<tag k="ssr:stedsnr" v="85079" />
	</node>
	<node id="-334999" lat="57.9653111144" lon="7.54892221745">
		<tag k="name" v="Kongshavnsbukta" />
		<tag k="natural" v="bay" />
		<tag k="ssr:stedsnr" v="85060" />
	</node>
	<node id="-334998" lat="57.9954472239" lon="7.55782499314">
		<tag k="fixme" v="consider seamark:type=rock or natural=shoal" />
		<tag k="name" v="Gulholmen" />
		<tag k="place" v="islet" />
		<tag k="ssr:stedsnr" v="268072" />
	</node>
	<node id="-334997" lat="57.9665861123" lon="7.49504444929">
		<tag k="name" v="Bomullshola" />
		<tag k="natural" v="bay" />
		<tag k="ssr:stedsnr" v="268068" />
	</node>
	<node id="-334996" lat="57.9635333291" lon="7.49990000249">
		<tag k="name" v="Hegermannsodden" />
		<tag k="natural" v="cape" />
		<tag k="ssr:stedsnr" v="268061" />
	</node>
	<node id="-337042" lat="57.9795305598" lon="7.52827499835">
		<tag k="alt_name" v="Ystevågen" />
		<tag k="name" v="Rossnesvågen" />
		<tag k="natural" v="bay" />
		<tag k="ssr:stedsnr" v="850047" />
	</node>
	<node id="-337041" lat="57.9885611133" lon="7.3365361079">
		<tag k="fixme" v="consider seamark:type=rock or natural=shoal" />
		<tag k="name" v="Musa" />
		<tag k="place" v="islet" />
		<tag k="ssr:stedsnr" v="850008" />
	</node>
	<node id="-337039" lat="58.0166999959" lon="7.31657500388">
		<tag k="fixme" v="consider seamark:type=rock or natural=shoal" />
		<tag k="name" v="Kråka, store" />
		<tag k="place" v="islet" />
		<tag k="ssr:stedsnr" v="849707" />
	</node>
	<node id="-337038" lat="57.9803333345" lon="7.49454999607">
		<tag k="name" v="Hjelmen" />
		<tag k="place" v="islet" />
		<tag k="ssr:stedsnr" v="849077" />
	</node>
	<node id="-337037" lat="57.9833361114" lon="7.57721111597">
		<tag k="alt_name" v="Utøy;Ødøy" />
		<tag k="name" v="Udøy" />
		<tag k="place" v="island" />
		<tag k="ssr:stedsnr" v="849067" />
	</node>
	<node id="-337036" lat="57.9940044147" lon="7.51556965963">
		<tag k="alt_name" v="Skjernøy" />
		<tag k="name" v="Skjernøya" />
		<tag k="place" v="island" />
		<tag k="ssr:stedsnr" v="849059" />
	</node>
	<node id="-337035" lat="57.9896833368" lon="7.41631666717">
		<tag k="name" v="Langskjeran" />
		<tag k="place" v="islet" />
		<tag k="ssr:stedsnr" v="849046" />
	</node>
	<node id="-337034" lat="58.0124527768" lon="7.34201666441">
		<tag k="name" v="Vestvågen" />
		<tag k="natural" v="bay" />
		<tag k="ssr:stedsnr" v="845852" />
	</node>
	<node id="-336407" lat="57.9648277744" lon="7.49253611355">
		<tag k="name" v="Slettingsundet" />
		<tag k="natural" v="strait" />
		<tag k="ssr:stedsnr" v="632083" />
	</node>
	<node id="-337026" lat="57.9901583301" lon="7.34839167154">
		<tag k="name" v="Åskothola" />
		<tag k="natural" v="bay" />
		<tag k="ssr:stedsnr" v="815945" />
	</node>
	<node id="-337025" lat="58.0161444476" lon="7.33095554868">
		<tag k="name" v="Klauholmsundet" />
		<tag k="natural" v="strait" />
		<tag k="ssr:stedsnr" v="815943" />
	</node>
	<node id="-337024" lat="57.9876805532" lon="7.38886944798">
		<tag k="name" v="Tungeskjer Midtre" />
		<tag k="place" v="islet" />
		<tag k="ssr:stedsnr" v="815909" />
	</node>
	<node id="-334973" lat="58.0018666637" lon="7.34280833099">
		<tag k="alt_name" v="Meavra" />
		<tag k="fixme" v="consider seamark:type=rock or natural=shoal" />
		<tag k="name" v="Meavraskjer" />
		<tag k="place" v="islet" />
		<tag k="ssr:stedsnr" v="61615" />
	</node>
	<node id="-334972" lat="57.9628333344" lon="7.49355832899">
		<tag k="name" v="Slettingen" />
		<tag k="place" v="islet" />
		<tag k="ssr:stedsnr" v="61058" />
	</node>
	<node id="-334971" lat="57.979338889" lon="7.67940277972">
		<tag k="alt_name" v="Bryden" />
		<tag k="name" v="Bryten" />
		<tag k="natural" v="shoal" />
		<tag k="place" v="locality" />
		<tag k="ssr:stedsnr" v="61049" />
	</node>
	<node id="-334970" lat="57.9847249991" lon="7.61069721904">
		<tag k="alt_name" v="Gjederøy" />
		<tag k="name" v="Geiterøy" />
		<tag k="place" v="islet" />
		<tag k="ssr:stedsnr" v="61042" />
	</node>
	<node id="-334969" lat="58.0013861089" lon="7.40225277808">
		<tag k="name" v="Østre Gunningsholmen" />
		<tag k="place" v="islet" />
		<tag k="ssr:stedsnr" v="60095" />
	</node>
	<node id="-334968" lat="57.9946499958" lon="7.56348888187">
		<tag k="alt_name" v="Hårsøy" />
		<tag k="name" v="Horsøy" />
		<tag k="place" v="islet" />
		<tag k="ssr:stedsnr" v="60046" />
	</node>
	<node id="-334967" lat="57.9914944455" lon="7.36445000773">
		<tag k="name" v="Bjørnen" />
		<tag k="place" v="islet" />
		<tag k="ssr:stedsnr" v="60037" />
	</node>
	<node id="-337014" lat="58.0053999975" lon="7.44350276987">
		<tag k="name" v="Hårkniba" />
		<tag k="place" v="islet" />
		<tag k="ssr:stedsnr" v="815772" />
	</node>
	<node id="-337013" lat="58.0028805545" lon="7.38630555067">
		<tag k="name" v="Ballastholmen" />
		<tag k="place" v="islet" />
		<tag k="ssr:stedsnr" v="815683" />
	</node>
	<node id="-337009" lat="57.9899277734" lon="7.65606665905">
		<tag k="fixme" v="consider seamark:type=rock or natural=shoal" />
		<tag k="name" v="Valløytaklan" />
		<tag k="place" v="islet" />
		<tag k="ssr:stedsnr" v="815610" />
	</node>
	<node id="-337008" lat="58.0008861127" lon="7.61983611412">
		<tag k="name" v="Østre Lindholmen" />
		<tag k="place" v="islet" />
		<tag k="ssr:stedsnr" v="815590" />
	</node>
	<node id="-337007" lat="58.0008888886" lon="7.61431944416">
		<tag k="name" v="Midtre Lindholmen" />
		<tag k="place" v="islet" />
		<tag k="ssr:stedsnr" v="815589" />
	</node>
	<node id="-334958" lat="58.0010277771" lon="7.57222221384">
		<tag k="name" v="Langøyholmen" />
		<tag k="place" v="islet" />
		<tag k="ssr:stedsnr" v="26921" />
	</node>
	<node id="-334957" lat="58.006808336" lon="7.55544721908">
		<tag k="name" v="Bjørholmen" />
		<tag k="place" v="islet" />
		<tag k="ssr:stedsnr" v="26919" />
	</node>
	<node id="-334956" lat="58.0010555513" lon="7.53685832927">
		<tag k="name" v="Raunholmen" />
		<tag k="place" v="islet" />
		<tag k="ssr:stedsnr" v="26920" />
	</node>
	<node id="-334955" lat="57.9904166689" lon="7.34906111933">
		<tag k="fixme" v="consider seamark:type=rock or natural=shoal" />
		<tag k="name" v="Hålet" />
		<tag k="place" v="islet" />
		<tag k="ssr:stedsnr" v="26913" />
	</node>
	<node id="-334954" lat="57.9910916625" lon="7.3828222286">
		<tag k="name" v="Naudsundet" />
		<tag k="natural" v="strait" />
		<tag k="ssr:stedsnr" v="26870" />
	</node>
	<node id="-334953" lat="57.9886500044" lon="7.38634166337">
		<tag k="name" v="Tungeskjer Vestre" />
		<tag k="place" v="islet" />
		<tag k="ssr:stedsnr" v="26865" />
	</node>
	<node id="-334952" lat="57.9866194464" lon="7.39189167157">
		<tag k="name" v="Tungeskjer Østre" />
		<tag k="place" v="islet" />
		<tag k="ssr:stedsnr" v="26862" />
	</node>
	<node id="-334951" lat="58.0193361114" lon="7.33054166136">
		<tag k="name" v="Ærebukta" />
		<tag k="natural" v="bay" />
		<tag k="ssr:stedsnr" v="26858" />
	</node>
	<node id="-334950" lat="58.0163416677" lon="7.36516389196">
		<tag k="fixme" v="consider seamark:type=rock or natural=shoal" />
		<tag k="name" v="Vestre Røysa" />
		<tag k="place" v="islet" />
		<tag k="ssr:stedsnr" v="26855" />
	</node>
	<node id="-336997" lat="58.0204027807" lon="7.45565277891">
		<tag k="name" v="Piren" />
		<tag k="natural" v="cape" />
		<tag k="ssr:stedsnr" v="815133" />
	</node>
	<node id="-334948" lat="58.022216663" lon="7.34998611498">
		<tag k="name" v="Gillerholmen" />
		<tag k="place" v="islet" />
		<tag k="ssr:stedsnr" v="26837" />
	</node>
	<node id="-336995" lat="58.0109222262" lon="7.41389166687">
		<tag k="name" v="Skjølvåg" />
		<tag k="natural" v="bay" />
		<tag k="ssr:stedsnr" v="814765" />
	</node>
	<node id="-336994" lat="58.0183166663" lon="7.42885277267">
		<tag k="name" v="Reveholmen" />
		<tag k="natural" v="cape" />
		<tag k="ssr:stedsnr" v="814762" />
	</node>
	<node id="-336993" lat="58.0169194457" lon="7.44484722949">
		<tag k="name" v="Hobdeodden" />
		<tag k="natural" v="cape" />
		<tag k="ssr:stedsnr" v="814752" />
	</node>
	<node id="-334942" lat="58.0036388907" lon="7.42868055849">
		<tag k="name" v="Ytre Teisholman" />
		<tag k="place" v="island" />
		<tag k="ssr:stedsnr" v="26735" />
	</node>
	<node id="-334941" lat="58.0083638904" lon="7.4338333362">
		<tag k="name" v="Østre Holevika" />
		<tag k="natural" v="bay" />
		<tag k="ssr:stedsnr" v="26734" />
	</node>
	<node id="-334940" lat="58.0039999975" lon="7.45463889258">
		<tag k="alt_name" v="Bjørneskjær" />
		<tag k="fixme" v="consider seamark:type=rock or natural=shoal" />
		<tag k="name" v="Bjørneskjer" />
		<tag k="place" v="islet" />
		<tag k="ssr:stedsnr" v="26655" />
	</node>
	<node id="-334939" lat="57.9684888924" lon="7.52595555042">
		<tag k="fixme" v="consider seamark:type=rock or natural=shoal" />
		<tag k="name" v="Seilbaren" />
		<tag k="place" v="islet" />
		<tag k="ssr:stedsnr" v="26647" />
	</node>
	<node id="-334936" lat="58.0109416622" lon="7.59956110386">
		<tag k="name" v="Dyviga" />
		<tag k="natural" v="bay" />
		<tag k="ssr:stedsnr" v="26633" />
	</node>
	<node id="-334933" lat="57.984555552" lon="7.63236943669">
		<tag k="alt_name" v="Nordreskjæran" />
		<tag k="name" v="Nordreskjeran" />
		<tag k="place" v="islet" />
		<tag k="ssr:stedsnr" v="26621" />
	</node>
	<node id="-334932" lat="57.9904583361" lon="7.5569222215">
		<tag k="name" v="Aspholmen" />
		<tag k="place" v="islet" />
		<tag k="ssr:stedsnr" v="26618" />
	</node>
	<node id="-336979" lat="57.9633000026" lon="7.55474721977">
		<tag k="name" v="Finnehola" />
		<tag k="natural" v="bay" />
		<tag k="ssr:stedsnr" v="814099" />
	</node>
	<node id="-336978" lat="57.9920527818" lon="7.56182500074">
		<tag k="name" v="Risøysundet" />
		<tag k="natural" v="strait" />
		<tag k="ssr:stedsnr" v="814070" />
	</node>
	<node id="-336977" lat="57.9971027804" lon="7.55981666631">
		<tag k="name" v="Indre Galtevik" />
		<tag k="natural" v="bay" />
		<tag k="ssr:stedsnr" v="814065" />
	</node>
	<node id="-336976" lat="57.9738472187" lon="7.56249721823">
		<tag k="name" v="Kapelbukta" />
		<tag k="natural" v="bay" />
		<tag k="ssr:stedsnr" v="814045" />
	</node>
	<node id="-336974" lat="58.0037111098" lon="7.50729721961">
		<tag k="fixme" v="consider seamark:type=rock or natural=shoal" />
		<tag k="name" v="Tjelden" />
		<tag k="place" v="islet" />
		<tag k="ssr:stedsnr" v="814028" />
	</node>
	<node id="-336973" lat="57.9958388885" lon="7.48849999689">
		<tag k="name" v="Drammen" />
		<tag k="natural" v="bay" />
		<tag k="ssr:stedsnr" v="814025" />
	</node>
	<node id="-334924" lat="57.9847055599" lon="7.69725833752">
		<tag k="fixme" v="consider seamark:type=rock or natural=shoal" />
		<tag k="name" v="Østre Ballastskjeran" />
		<tag k="place" v="islet" />
		<tag k="ssr:stedsnr" v="26461" />
	</node>
	<node id="-334923" lat="57.9858444417" lon="7.59630277045">
		<tag k="name" v="Prestholmsundet" />
		<tag k="natural" v="strait" />
		<tag k="ssr:stedsnr" v="26422" />
	</node>
	<node id="-334922" lat="57.9802250036" lon="7.60415277628">
		<tag k="name" v="Strømodden" />
		<tag k="natural" v="cape" />
		<tag k="ssr:stedsnr" v="26419" />
	</node>
	<node id="-337079" lat="58.0079472205" lon="7.57025555677">
		<tag k="name" v="Krossan" />
		<tag k="natural" v="cape" />
		<tag k="ssr:stedsnr" v="874414" />
	</node>
	<node id="-334920" lat="58.0311999972" lon="7.62504166837">
		<tag k="name" v="Rones" />
		<tag k="natural" v="cape" />
		<tag k="ssr:stedsnr" v="26345" />
	</node>
	<node id="-334917" lat="58.0115138921" lon="7.4730333282">
		<tag k="name" v="Hummerhola" />
		<tag k="natural" v="bay" />
		<tag k="ssr:stedsnr" v="26268" />
	</node>
	<node id="-334916" lat="58.012422225" lon="7.47686666624">
		<tag k="name" v="Tjuhola" />
		<tag k="natural" v="bay" />
		<tag k="ssr:stedsnr" v="26264" />
	</node>
	<node id="-334915" lat="58.0090388862" lon="7.51834722242">
		<tag k="name" v="Leirkilen" />
		<tag k="natural" v="bay" />
		<tag k="ssr:stedsnr" v="26254" />
	</node>
	<node id="-336962" lat="58.0004777799" lon="7.64837222857">
		<tag k="name" v="Merrevika" />
		<tag k="natural" v="bay" />
		<tag k="ssr:stedsnr" v="813945" />
	</node>
	<node id="-337077" lat="57.9927527795" lon="7.60015832686">
		<tag k="name" v="Homvikholmen" />
		<tag k="old_name" v="Homvikolmen" />
		<tag k="place" v="islet" />
		<tag k="ssr:stedsnr" v="874380" />
	</node>
	<node id="-337076" lat="57.9891472215" lon="7.65023054949">
		<tag k="name" v="Teistebukta" />
		<tag k="natural" v="bay" />
		<tag k="ssr:stedsnr" v="874360" />
	</node>
	<node id="-334902" lat="58.0191972219" lon="7.45659722892">
		<tag k="name" v="Ystenot" />
		<tag k="natural" v="cape" />
		<tag k="ssr:stedsnr" v="26157" />
	</node>
	<node id="-334901" lat="58.021733337" lon="7.45961110918">
		<tag k="name" v="Kirkeodden" />
		<tag k="natural" v="cape" />
		<tag k="ssr:stedsnr" v="26155" />
	</node>
	<node id="-334899" lat="58.0033222245" lon="7.50443055545">
		<tag k="name" v="Breibyggodden" />
		<tag k="natural" v="cape" />
		<tag k="ssr:stedsnr" v="26025" />
	</node>
	<node id="-334898" lat="57.9840861109" lon="7.44883055965">
		<tag k="fixme" v="consider seamark:type=rock or natural=shoal" />
		<tag k="name" v="Springen" />
		<tag k="place" v="islet" />
		<tag k="ssr:stedsnr" v="25806" />
	</node>
	<node id="-334897" lat="57.9957611129" lon="7.42474722745">
		<tag k="fixme" v="consider seamark:type=rock or natural=shoal" />
		<tag k="name" v="Manneværskjæran" />
		<tag k="place" v="islet" />
		<tag k="ssr:stedsnr" v="25801" />
	</node>
	<node id="-335081" lat="57.9627777785" lon="7.50005556064">
		<tag k="name" v="Makrellhola" />
		<tag k="natural" v="bay" />
		<tag k="ssr:stedsnr" v="86057" />
	</node>
	<node id="-334894" lat="57.9972805573" lon="7.62122499871">
		<tag k="name" v="Brusøyboen" />
		<tag k="place" v="locality" />
		<tag k="seamark:type" v="rock" />
		<tag k="ssr:stedsnr" v="25367" />
	</node>
	<node id="-334893" lat="58.0028694463" lon="7.57375277179">
		<tag k="name" v="Gulholmen" />
		<tag k="place" v="islet" />
		<tag k="ssr:stedsnr" v="25299" />
	</node>
	<node id="-334892" lat="58.0072555544" lon="7.60258055582">
		<tag k="name" v="Nordre, lille Ørpholmen" />
		<tag k="place" v="islet" />
		<tag k="ssr:stedsnr" v="25289" />
	</node>
	<node id="-336937" lat="57.9956888899" lon="7.33017222461">
		<tag k="name" v="Skjærviknobben" />
		<tag k="natural" v="cape" />
		<tag k="ssr:stedsnr" v="813752" />
	</node>
	<node id="-334887" lat="57.9840527797" lon="7.57132222781">
		<tag k="fixme" v="consider seamark:type=rock or natural=shoal" />
		<tag k="name" v="Blankeraua" />
		<tag k="place" v="islet" />
		<tag k="ssr:stedsnr" v="25108" />
	</node>
	<node id="-334886" lat="57.9877138896" lon="7.57250833751">
		<tag k="name" v="Krossvika" />
		<tag k="natural" v="bay" />
		<tag k="ssr:stedsnr" v="25106" />
	</node>
	<node id="-334885" lat="57.9898861095" lon="7.53933610686">
		<tag k="name" v="Indre Kopperholmen" />
		<tag k="place" v="islet" />
		<tag k="ssr:stedsnr" v="25096" />
	</node>
	<node id="-334882" lat="57.968550003" lon="7.54063611005">
		<tag k="name" v="Sydvestebukta" />
		<tag k="natural" v="bay" />
		<tag k="ssr:stedsnr" v="25034" />
	</node>
	<node id="-334881" lat="58.007972222" lon="7.48486388356">
		<tag k="name" v="Stusøysundet" />
		<tag k="natural" v="strait" />
		<tag k="ssr:stedsnr" v="25022" />
	</node>
	<node id="-334874" lat="58.0030111145" lon="7.59636389709">
		<tag k="name" v="Nordvika" />
		<tag k="natural" v="bay" />
		<tag k="ssr:stedsnr" v="24955" />
	</node>
	<node id="-336920" lat="58.0172583323" lon="7.63579444763">
		<tag k="name" v="Åssundet" />
		<tag k="natural" v="strait" />
		<tag k="ssr:stedsnr" v="813660" />
	</node>
	<node id="-336919" lat="58.0177583355" lon="7.63371945282">
		<tag k="fixme" v="consider seamark:type=rock or natural=shoal" />
		<tag k="name" v="Åsskjær" />
		<tag k="place" v="islet" />
		<tag k="ssr:stedsnr" v="813661" />
	</node>
	<node id="-336918" lat="58.0141166686" lon="7.668750008">
		<tag k="name" v="Ormsholet" />
		<tag k="natural" v="bay" />
		<tag k="ssr:stedsnr" v="813655" />
	</node>
	<node id="-336917" lat="58.0053166683" lon="7.64996388743">
		<tag k="fixme" v="consider seamark:type=rock or natural=shoal" />
		<tag k="name" v="Leiholmskjær" />
		<tag k="place" v="islet" />
		<tag k="ssr:stedsnr" v="813645" />
	</node>
	<node id="-336916" lat="58.0137972189" lon="7.65811388411">
		<tag k="name" v="Olavsholmen" />
		<tag k="natural" v="cape" />
		<tag k="ssr:stedsnr" v="813642" />
	</node>
	<node id="-336915" lat="58.0160472188" lon="7.6559694396">
		<tag k="name" v="Søndre Melkevika" />
		<tag k="natural" v="bay" />
		<tag k="ssr:stedsnr" v="813636" />
	</node>
	<node id="-334861" lat="58.0064638906" lon="7.36588611111">
		<tag k="name" v="Skårodden" />
		<tag k="natural" v="cape" />
		<tag k="ssr:stedsnr" v="24861" />
	</node>
	<node id="-334860" lat="58.007827781" lon="7.40919999977">
		<tag k="name" v="Krappe kast" />
		<tag k="natural" v="bay" />
		<tag k="ssr:stedsnr" v="24857" />
	</node>
	<node id="-336895" lat="58.0055250034" lon="7.54581666963">
		<tag k="name" v="Vrengen" />
		<tag k="natural" v="strait" />
		<tag k="ssr:stedsnr" v="813360" />
	</node>
	<node id="-334846" lat="57.9833194488" lon="7.69478888485">
		<tag k="fixme" v="consider seamark:type=rock or natural=shoal" />
		<tag k="name" v="Midtskjæret" />
		<tag k="place" v="islet" />
		<tag k="ssr:stedsnr" v="24762" />
	</node>
	<node id="-336891" lat="57.9892027775" lon="7.60453611408">
		<tag k="name" v="Strømsundholmen" />
		<tag k="place" v="islet" />
		<tag k="ssr:stedsnr" v="813326" />
	</node>
	<node id="-334842" lat="58.0252083359" lon="7.36005277809">
		<tag k="alt_name" v="Sjøbodvik" />
		<tag k="name" v="Sjøbuvika" />
		<tag k="natural" v="bay" />
		<tag k="ssr:stedsnr" v="24702" />
	</node>
	<node id="-336888" lat="57.991491663" lon="7.64259166457">
		<tag k="name" v="Ravnebukta" />
		<tag k="natural" v="bay" />
		<tag k="ssr:stedsnr" v="813303" />
	</node>
	<node id="-334837" lat="58.0133749963" lon="7.63841388436">
		<tag k="name" v="Ufredsundet" />
		<tag k="natural" v="strait" />
		<tag k="ssr:stedsnr" v="24667" />
	</node>
	<node id="-334836" lat="58.015438892" lon="7.63667778068">
		<tag k="name" v="Skjevikholmen" />
		<tag k="place" v="islet" />
		<tag k="ssr:stedsnr" v="24664" />
	</node>
	<node id="-334835" lat="58.0112444456" lon="7.64524166161">
		<tag k="name" v="Brydan" />
		<tag k="place" v="locality" />
		<tag k="seamark:type" v="rock" />
		<tag k="ssr:stedsnr" v="24655" />
	</node>
	<node id="-334834" lat="58.0158000019" lon="7.66793611632">
		<tag k="name" v="Godtholet" />
		<tag k="natural" v="bay" />
		<tag k="ssr:stedsnr" v="24648" />
	</node>
	<node id="-334833" lat="58.0160472192" lon="7.62837499968">
		<tag k="name" v="Melkevika" />
		<tag k="natural" v="bay" />
		<tag k="ssr:stedsnr" v="24645" />
	</node>
	<node id="-334832" lat="58.0185472206" lon="7.62778056304">
		<tag k="name" v="Rørskjærodden" />
		<tag k="natural" v="cape" />
		<tag k="ssr:stedsnr" v="24642" />
	</node>
	<node id="-334830" lat="58.0166861105" lon="7.65152499923">
		<tag k="name" v="Grasdalsbukta" />
		<tag k="natural" v="bay" />
		<tag k="ssr:stedsnr" v="24636" />
	</node>
	<node id="-334829" lat="58.0221194476" lon="7.66432499786">
		<tag k="name" v="Lammeholmen" />
		<tag k="place" v="islet" />
		<tag k="ssr:stedsnr" v="24627" />
	</node>
	<node id="-334828" lat="58.0316861138" lon="7.67139167362">
		<tag k="name" v="Rona" />
		<tag k="natural" v="bay" />
		<tag k="ssr:stedsnr" v="24607" />
	</node>
	<node id="-334827" lat="58.0268611083" lon="7.67243611835">
		<tag k="name" v="Fuvikbukta" />
		<tag k="natural" v="bay" />
		<tag k="ssr:stedsnr" v="24605" />
	</node>
	<node id="-336873" lat="57.9663138888" lon="7.54202221621">
		<tag k="fixme" v="consider seamark:type=rock or natural=shoal" />
		<tag k="name" v="Hummerskjær" />
		<tag k="place" v="islet" />
		<tag k="ssr:stedsnr" v="813072" />
	</node>
	<node id="-336868" lat="58.017024997" lon="7.31650277038">
		<tag k="name" v="Store Kråga" />
		<tag k="place" v="islet" />
		<tag k="ssr:stedsnr" v="810302" />
	</node>
	<node id="-336867" lat="58.028675003" lon="7.61842499965">
		<tag k="alt_name" v="Harkmarksfjorden" />
		<tag k="bay" v="fjord" />
		<tag k="name" v="Harkmarkfjorden" />
		<tag k="natural" v="bay" />
		<tag k="ssr:stedsnr" v="789985" />
	</node>
	<node id="-336864" lat="58.0094083366" lon="7.38343611358">
		<tag k="alt_name" v="Hille Kvistholman" />
		<tag k="name" v="Kvistholman" />
		<tag k="place" v="islet" />
		<tag k="ssr:stedsnr" v="789935" />
	</node>
	<node id="-336037" lat="57.9845277782" lon="7.61983888227">
		<tag k="alt_name" v="Svartskjær" />
		<tag k="fixme" v="consider seamark:type=rock or natural=shoal" />
		<tag k="name" v="Svartskjer" />
		<tag k="place" v="islet" />
		<tag k="ssr:stedsnr" v="511609" />
	</node>
	<node id="-334810" lat="58.0002833353" lon="7.54084999971">
		<tag k="name" v="Høgeholmen" />
		<tag k="place" v="islet" />
		<tag k="ssr:stedsnr" v="24413" />
	</node>
	<node id="-334809" lat="58.0005027758" lon="7.53325277245">
		<tag k="name" v="Bergstøholmen" />
		<tag k="place" v="islet" />
		<tag k="ssr:stedsnr" v="24406" />
	</node>
	<node id="-336855" lat="58.0051361073" lon="7.58891389156">
		<tag k="name" v="Skogsøy" />
		<tag k="place" v="island" />
		<tag k="ssr:stedsnr" v="789060" />
	</node>
	<node id="-336854" lat="58.0039611122" lon="7.515136111">
		<tag k="name" v="Skjernøysundet" />
		<tag k="natural" v="strait" />
		<tag k="old_name" v="Skjerøysundet" />
		<tag k="ssr:stedsnr" v="789057" />
	</node>
	<node id="-334804" lat="57.9931638884" lon="7.59691944221">
		<tag k="name" v="Nodevika" />
		<tag k="natural" v="bay" />
		<tag k="ssr:stedsnr" v="24349" />
	</node>
	<node id="-334803" lat="57.9927638847" lon="7.64038333843">
		<tag k="name" v="Valløyodden" />
		<tag k="natural" v="cape" />
		<tag k="ssr:stedsnr" v="24329" />
	</node>
	<node id="-334802" lat="57.9878138855" lon="7.64929444395">
		<tag k="fixme" v="consider seamark:type=rock or natural=shoal" />
		<tag k="name" v="Evertskjær" />
		<tag k="place" v="islet" />
		<tag k="ssr:stedsnr" v="24326" />
	</node>
	<node id="-334801" lat="57.9899944432" lon="7.65384722696">
		<tag k="fixme" v="consider seamark:type=rock or natural=shoal" />
		<tag k="name" v="Klubba" />
		<tag k="place" v="islet" />
		<tag k="ssr:stedsnr" v="24325" />
	</node>
	<node id="-336848" lat="57.9622750016" lon="7.54066389281">
		<tag k="alt_name" v="Østre Kråka" />
		<tag k="name" v="Kråka" />
		<tag k="place" v="islet" />
		<tag k="ssr:stedsnr" v="788057" />
	</node>
	<node id="-334799" lat="57.9968527738" lon="7.64880277485">
		<tag k="fixme" v="consider seamark:type=rock or natural=shoal" />
		<tag k="name" v="Skomakerskjær" />
		<tag k="place" v="islet" />
		<tag k="ssr:stedsnr" v="24307" />
	</node>
	<node id="-334798" lat="57.9978277823" lon="7.65918333957">
		<tag k="name" v="Sandkilen" />
		<tag k="natural" v="bay" />
		<tag k="ssr:stedsnr" v="24304" />
	</node>
	<node id="-336845" lat="57.9938417676" lon="7.48921948919">
		<tag k="alt_name" v="Ferøy" />
		<tag k="name" v="Færøy" />
		<tag k="place" v="island" />
		<tag k="ssr:stedsnr" v="788030" />
	</node>
	<node id="-334795" lat="57.9774861108" lon="7.55862778386">
		<tag k="name" v="Maurholmsundet" />
		<tag k="natural" v="strait" />
		<tag k="ssr:stedsnr" v="24086" />
	</node>
	<node id="-334793" lat="57.9658277739" lon="7.53639165977">
		<tag k="name" v="Salve Nilsens hola" />
		<tag k="natural" v="bay" />
		<tag k="ssr:stedsnr" v="24070" />
	</node>
	<node id="-334792" lat="57.99074722" lon="7.55032499637">
		<tag k="name" v="Ellingsodden" />
		<tag k="natural" v="cape" />
		<tag k="ssr:stedsnr" v="24051" />
	</node>
	<node id="-334791" lat="57.9912361111" lon="7.5519861062">
		<tag k="name" v="Rennesodden" />
		<tag k="natural" v="cape" />
		<tag k="ssr:stedsnr" v="24049" />
	</node>
	<node id="-335974" lat="57.994858336" lon="7.43348056186">
		<tag k="name" v="Storøyhavnen" />
		<tag k="natural" v="bay" />
		<tag k="ssr:stedsnr" v="510820" />
	</node>
	<node id="-336833" lat="57.9783416634" lon="7.55208333809">
		<tag k="name" v="Seilskjærbukta" />
		<tag k="natural" v="bay" />
		<tag k="ssr:stedsnr" v="754935" />
	</node>
	<node id="-336831" lat="58.036486114" lon="7.33377778285">
		<tag k="name" v="Bugdeåsodden" />
		<tag k="natural" v="cape" />
		<tag k="ssr:stedsnr" v="754926" />
	</node>
	<node id="-336828" lat="58.0274000015" lon="7.34479167385">
		<tag k="name" v="Fjellansbukta" />
		<tag k="natural" v="bay" />
		<tag k="ssr:stedsnr" v="754881" />
	</node>
	<node id="-334779" lat="58.0247500008" lon="7.42341388054">
		<tag k="name" v="Sponga" />
		<tag k="natural" v="strait" />
		<tag k="ssr:stedsnr" v="964" />
	</node>
	<node id="-336822" lat="58.0149944448" lon="7.39126111363">
		<tag k="name" v="Juvika" />
		<tag k="natural" v="bay" />
		<tag k="ssr:stedsnr" v="754844" />
	</node>
	<node id="-336820" lat="58.021044443" lon="7.36587500144">
		<tag k="name" v="Høksåsneset" />
		<tag k="natural" v="cape" />
		<tag k="ssr:stedsnr" v="754809" />
	</node>
	<node id="-336819" lat="58.0054416677" lon="7.49796666816">
		<tag k="name" v="Havneholman" />
		<tag k="place" v="islet" />
		<tag k="ssr:stedsnr" v="754683" />
	</node>
	<node id="-336818" lat="58.0244249958" lon="7.65786388998">
		<tag k="name" v="Launesodden" />
		<tag k="natural" v="cape" />
		<tag k="ssr:stedsnr" v="754659" />
	</node>
	<node id="-336816" lat="57.9836888929" lon="7.5624555577">
		<tag k="fixme" v="multiple name tags, choose one and add the other to alt_name" />
		<tag k="name" v="Vedeskjer;Vendeskjær" />
		<tag k="place" v="islet" />
		<tag k="ssr:stedsnr" v="754635" />
	</node>
	<node id="-336815" lat="57.9902833335" lon="7.61802778287">
		<tag k="name" v="Nordre Eggvær" />
		<tag k="place" v="islet" />
		<tag k="ssr:stedsnr" v="754629" />
	</node>
	<node id="-336814" lat="58.0006888892" lon="7.29809166765">
		<tag k="fixme" v="consider seamark:type=rock or natural=shoal" />
		<tag k="name" v="Kjorteskjeret" />
		<tag k="place" v="islet" />
		<tag k="ssr:stedsnr" v="754511" />
	</node>
	<node id="-334764" lat="57.9618972204" lon="7.56506945225">
		<tag k="name" v="Odd" />
		<tag k="place" v="islet" />
		<tag k="ssr:stedsnr" v="65" />
	</node>
	<node id="-334760" lat="57.9857527744" lon="7.60491945197">
		<tag k="name" v="Brattholmen" />
		<tag k="place" v="islet" />
		<tag k="ssr:stedsnr" v="50" />
	</node>
	<node id="-334759" lat="57.98879167" lon="7.37355555389">
		<tag k="alt_name" v="Måkeskjær" />
		<tag k="fixme" v="consider seamark:type=rock or natural=shoal" />
		<tag k="name" v="Måkeskjer" />
		<tag k="place" v="islet" />
		<tag k="ssr:stedsnr" v="43" />
	</node>
	<node id="-334758" lat="57.9982861111" lon="7.3523861094">
		<tag k="alt_name" v="Letterkilsholmen" />
		<tag k="name" v="Letterkilholmen" />
		<tag k="place" v="islet" />
		<tag k="ssr:stedsnr" v="29" />
	</node>
	<node id="-334756" lat="58.0241888845" lon="7.67616110873">
		<tag k="name" v="Benkan" />
		<tag k="natural" v="cape" />
		<tag k="ssr:stedsnr" v="267597" />
	</node>
	<node id="-336803" lat="58.035122225" lon="7.62301111586">
		<tag k="name" v="Osnesodden" />
		<tag k="natural" v="cape" />
		<tag k="ssr:stedsnr" v="754347" />
	</node>
	<node id="-336802" lat="58.0165833334" lon="7.48244721531">
		<tag k="fixme" v="consider seamark:type=rock or natural=shoal" />
		<tag k="name" v="Greteskjær" />
		<tag k="place" v="islet" />
		<tag k="ssr:stedsnr" v="754294" />
	</node>
	<node id="-336801" lat="58.0192722258" lon="7.48313333463">
		<tag k="name" v="Kuodden" />
		<tag k="natural" v="cape" />
		<tag k="ssr:stedsnr" v="754283" />
	</node>
	<node id="-336799" lat="58.0064138856" lon="7.51765000017">
		<tag k="name" v="Frivolls Breivik" />
		<tag k="natural" v="bay" />
		<tag k="ssr:stedsnr" v="754276" />
	</node>
	<node id="-336793" lat="58.0257472237" lon="7.41849999947">
		<tag k="name" v="Rennesodden" />
		<tag k="natural" v="cape" />
		<tag k="ssr:stedsnr" v="754183" />
	</node>
	<node id="-336790" lat="58.0184750027" lon="7.42839166701">
		<tag k="name" v="Torkelshola" />
		<tag k="natural" v="bay" />
		<tag k="ssr:stedsnr" v="753716" />
	</node>
	<node id="-336789" lat="58.0072805599" lon="7.38187778467">
		<tag k="name" v="Gressholmen" />
		<tag k="place" v="islet" />
		<tag k="ssr:stedsnr" v="753705" />
	</node>
	<node id="-336788" lat="57.9948277806" lon="7.41742500587">
		<tag k="fixme" v="consider seamark:type=rock or natural=shoal" />
		<tag k="name" v="Dreda" />
		<tag k="place" v="islet" />
		<tag k="ssr:stedsnr" v="753643" />
	</node>
	<node id="-336787" lat="58.0066583368" lon="7.66253056236">
		<tag k="name" v="Stolsboen" />
		<tag k="place" v="locality" />
		<tag k="seamark:type" v="rock" />
		<tag k="ssr:stedsnr" v="753336" />
	</node>
	<node id="-334736" lat="58.0446805547" lon="7.62084166027">
		<tag k="name" v="Storenåva" />
		<tag k="natural" v="cape" />
		<tag k="ssr:stedsnr" v="267288" />
	</node>
	<node id="-336458" lat="57.9946055537" lon="7.37095554916">
		<tag k="name" v="Hestehola" />
		<tag k="natural" v="bay" />
		<tag k="ssr:stedsnr" v="632868" />
	</node>
	<node id="-334734" lat="57.9984527809" lon="7.66319444273">
		<tag k="name" v="Andershol" />
		<tag k="natural" v="bay" />
		<tag k="ssr:stedsnr" v="267284" />
	</node>
	<node id="-336780" lat="57.9958749968" lon="7.56557500203">
		<tag k="alt_name" v="Hårsøybukta" />
		<tag k="name" v="Horsøybukta" />
		<tag k="natural" v="bay" />
		<tag k="ssr:stedsnr" v="753042" />
	</node>
	<node id="-336779" lat="57.9807805538" lon="7.50103056141">
		<tag k="fixme" v="consider seamark:type=rock or natural=shoal" />
		<tag k="name" v="Galiotten" />
		<tag k="place" v="islet" />
		<tag k="ssr:stedsnr" v="753038" />
	</node>
	<node id="-336778" lat="57.971841664" lon="7.49168611633">
		<tag k="name" v="Glubekilen" />
		<tag k="natural" v="bay" />
		<tag k="ssr:stedsnr" v="753031" />
	</node>
	<node id="-336777" lat="57.9729027753" lon="7.56071111585">
		<tag k="name" v="Terneodden" />
		<tag k="natural" v="cape" />
		<tag k="ssr:stedsnr" v="753019" />
	</node>
	<node id="-336776" lat="57.9910527739" lon="7.49983055512">
		<tag k="name" v="Tjønnevika" />
		<tag k="natural" v="bay" />
		<tag k="ssr:stedsnr" v="753005" />
	</node>
	<node id="-336775" lat="57.9927972191" lon="7.50394445229">
		<tag k="alt_name" v="Dyrestadvågen" />
		<tag k="name" v="Dyrstadvågen" />
		<tag k="natural" v="bay" />
		<tag k="ssr:stedsnr" v="753006" />
	</node>
	<node id="-334725" lat="57.9993622599" lon="7.56015158597">
		<tag k="alt_name" v="Store Gressholmen" />
		<tag k="name" v="Store Grasholmen" />
		<tag k="place" v="islet" />
		<tag k="ssr:stedsnr" v="985206" />
	</node>
	<node id="-337387" lat="58.0166555595" lon="7.35556944784">
		<tag k="name" v="Grønnvika" />
		<tag k="natural" v="bay" />
		<tag k="ssr:stedsnr" v="936903" />
	</node>
	<node id="-336703" lat="57.9872194438" lon="7.60541943907">
		<tag k="name" v="Brattholmbukta" />
		<tag k="natural" v="bay" />
		<tag k="ssr:stedsnr" v="752337" />
	</node>
	<node id="-337044" lat="58.007080557" lon="7.54750555481">
		<tag k="alt_name" v="Ramsøy" />
		<tag k="name" v="Ramsøya" />
		<tag k="place" v="islet" />
		<tag k="ssr:stedsnr" v="850062" />
	</node>
	<node id="-336758" lat="58.0052388854" lon="7.3951111152">
		<tag k="alt_name" v="Kråkøy" />
		<tag k="name" v="Krågøy" />
		<tag k="place" v="island" />
		<tag k="ssr:stedsnr" v="752851" />
	</node>
	<node id="-336757" lat="58.0025777794" lon="7.32903888521">
		<tag k="fixme" v="consider seamark:type=rock or natural=shoal" />
		<tag k="name" v="Lundevikskjæret" />
		<tag k="place" v="islet" />
		<tag k="ssr:stedsnr" v="752834" />
	</node>
	<node id="-336756" lat="58.0015749987" lon="7.33375555373">
		<tag k="name" v="Grunnesundholmen" />
		<tag k="place" v="islet" />
		<tag k="ssr:stedsnr" v="752833" />
	</node>
	<node id="-336755" lat="58.010116667" lon="7.37380000292">
		<tag k="name" v="Olasraua" />
		<tag k="natural" v="cape" />
		<tag k="ssr:stedsnr" v="752829" />
	</node>
	<node id="-336754" lat="58.001527781" lon="7.35296389619">
		<tag k="name" v="Østre Dansvik" />
		<tag k="natural" v="bay" />
		<tag k="ssr:stedsnr" v="752826" />
	</node>
	<node id="-336753" lat="58.0038499989" lon="7.34151667028">
		<tag k="fixme" v="consider seamark:type=rock or natural=shoal" />
		<tag k="name" v="Tjoren" />
		<tag k="place" v="islet" />
		<tag k="ssr:stedsnr" v="752824" />
	</node>
	<node id="-336302" lat="57.9800472205" lon="7.56015834165">
		<tag k="name" v="Nordodden" />
		<tag k="natural" v="cape" />
		<tag k="ssr:stedsnr" v="630106" />
	</node>
	<node id="-336359" lat="58.0196777805" lon="7.67264721781">
		<tag k="fixme" v="consider seamark:type=rock or natural=shoal" />
		<tag k="name" v="Smørleskjær" />
		<tag k="place" v="islet" />
		<tag k="ssr:stedsnr" v="631653" />
	</node>
	<node id="-336700" lat="57.9918138882" lon="7.64378333726">
		<tag k="fixme" v="consider seamark:type=rock or natural=shoal" />
		<tag k="name" v="Skarveskjæran" />
		<tag k="place" v="islet" />
		<tag k="ssr:stedsnr" v="752318" />
	</node>
	<node id="-336739" lat="57.9869361072" lon="7.69772777509">
		<tag k="fixme" v="consider seamark:type=rock or natural=shoal" />
		<tag k="name" v="Øster Tønna" />
		<tag k="place" v="islet" />
		<tag k="ssr:stedsnr" v="752726" />
	</node>
	<node id="-336738" lat="58.0090888929" lon="7.40292499793">
		<tag k="name" v="Vika" />
		<tag k="natural" v="bay" />
		<tag k="ssr:stedsnr" v="752723" />
	</node>
	<node id="-336732" lat="58.0449361142" lon="7.63219722721">
		<tag k="name" v="Liansundet" />
		<tag k="natural" v="strait" />
		<tag k="ssr:stedsnr" v="752696" />
	</node>
	<node id="-336730" lat="58.0147611106" lon="7.4327111107">
		<tag k="alt_name" v="Hukkan" />
		<tag k="name" v="Hugan" />
		<tag k="natural" v="cape" />
		<tag k="ssr:stedsnr" v="752669" />
	</node>
	<node id="-337380" lat="58.0169277747" lon="7.40217223029">
		<tag k="name" v="Lindestø" />
		<tag k="natural" v="beach" />
		<tag k="place" v="locality" />
		<tag k="ssr:stedsnr" v="936818" />
	</node>
	<node id="-334674" lat="58.0099571726" lon="7.43918677793">
		<tag k="name" v="Risøybanken" />
		<tag k="place" v="locality" />
		<tag k="ssr:stedsnr" v="984579" />
	</node>
	<node id="-334667" lat="58.0229681824" lon="7.45509509748">
		<tag k="name" v="Kastellodden" />
		<tag k="natural" v="cape" />
		<tag k="ssr:stedsnr" v="984497" />
	</node>
	<node id="-336709" lat="58.0027499995" lon="7.55388333137">
		<tag k="name" v="Lortebukta" />
		<tag k="natural" v="bay" />
		<tag k="ssr:stedsnr" v="752401" />
	</node>
	<node id="-336708" lat="58.004472222" lon="7.52925000005">
		<tag k="bay" v="fjord" />
		<tag k="name" v="Nordfjorden" />
		<tag k="natural" v="bay" />
		<tag k="ssr:stedsnr" v="752384" />
	</node>
	<node id="-336706" lat="58.0090361136" lon="7.5444111079">
		<tag k="name" v="Ramsvågen" />
		<tag k="natural" v="bay" />
		<tag k="ssr:stedsnr" v="752369" />
	</node>
	<node id="-334657" lat="57.9935152855" lon="7.40799820062">
		<tag k="name" v="Diskeboen" />
		<tag k="place" v="locality" />
		<tag k="seamark:type" v="rock" />
		<tag k="ssr:stedsnr" v="984404" />
	</node>
	<node id="-334656" lat="57.989503242" lon="7.44413549697">
		<tag k="name" v="Storøyskjerboen" />
		<tag k="place" v="locality" />
		<tag k="seamark:type" v="rock" />
		<tag k="ssr:stedsnr" v="984403" />
	</node>
	<node id="-334655" lat="57.9869207826" lon="7.49898259794">
		<tag k="name" v="Torkjellsboen" />
		<tag k="place" v="locality" />
		<tag k="seamark:type" v="rock" />
		<tag k="ssr:stedsnr" v="984402" />
	</node>
	<node id="-336702" lat="57.9954583354" lon="7.58465277097">
		<tag k="name" v="Espevika" />
		<tag k="natural" v="bay" />
		<tag k="ssr:stedsnr" v="752331" />
	</node>
	<node id="-334653" lat="57.9675818303" lon="7.55600468523">
		<tag k="name" v="Sandøyhavn" />
		<tag k="natural" v="bay" />
		<tag k="ssr:stedsnr" v="984363" />
	</node>
	<node id="-334652" lat="57.9797361211" lon="7.60728093274">
		<tag k="name" v="Sæsøyhavn" />
		<tag k="natural" v="bay" />
		<tag k="ssr:stedsnr" v="984360" />
	</node>
	<node id="-336699" lat="57.9918111123" lon="7.36163056195">
		<tag k="fixme" v="consider seamark:type=rock or natural=shoal" />
		<tag k="name" v="Kvelpen" />
		<tag k="place" v="islet" />
		<tag k="ssr:stedsnr" v="752232" />
	</node>
	<node id="-336698" lat="57.9775916624" lon="7.53523333287">
		<tag k="name" v="Sildodden" />
		<tag k="natural" v="cape" />
		<tag k="ssr:stedsnr" v="752086" />
	</node>
	<node id="-336697" lat="57.9775861129" lon="7.5574416676">
		<tag k="name" v="Havna" />
		<tag k="natural" v="bay" />
		<tag k="ssr:stedsnr" v="752083" />
	</node>
	<node id="-336695" lat="57.9966611078" lon="7.55368610914">
		<tag k="fixme" v="consider seamark:type=rock or natural=shoal" />
		<tag k="name" v="Mittinga" />
		<tag k="place" v="islet" />
		<tag k="ssr:stedsnr" v="752054" />
	</node>
	<node id="-337373" lat="58.00588333" lon="7.56340834027">
		<tag k="bay" v="fjord" />
		<tag k="name" v="Tregdefjorden" />
		<tag k="natural" v="bay" />
		<tag k="ssr:stedsnr" v="936638" />
	</node>
	<node id="-334635" lat="58.0092833333" lon="7.42354167326">
		<tag k="name" v="Hobdebukta" />
		<tag k="natural" v="bay" />
		<tag k="ssr:stedsnr" v="390981" />
	</node>
	<node id="-334634" lat="57.9861750034" lon="7.5074722243">
		<tag k="name" v="Rossevika" />
		<tag k="natural" v="bay" />
		<tag k="ssr:stedsnr" v="390951" />
	</node>
	<node id="-334633" lat="57.9661972226" lon="7.53229444284">
		<tag k="name" v="Tåa" />
		<tag k="natural" v="cape" />
		<tag k="ssr:stedsnr" v="390945" />
	</node>
	<node id="-337372" lat="57.9749214606" lon="7.63571140527">
		<tag k="alt_name" v="Kneblingskjæran" />
		<tag k="fixme" v="consider seamark:type=rock or natural=shoal" />
		<tag k="name" v="Kneblingskjeran" />
		<tag k="place" v="islet" />
		<tag k="ssr:stedsnr" v="936634" />
	</node>
	<node id="-334628" lat="58.0124444437" lon="7.36708332766">
		<tag k="name" v="Svolestø" />
		<tag k="natural" v="bay" />
		<tag k="ssr:stedsnr" v="390878" />
	</node>
	<node id="-334627" lat="57.9949277759" lon="7.36969444813">
		<tag k="name" v="Ravneglova" />
		<tag k="natural" v="bay" />
		<tag k="ssr:stedsnr" v="390874" />
	</node>
	<node id="-337186" lat="57.9924583345" lon="7.43729999875">
		<tag k="name" v="Vestre Dalersbukta" />
		<tag k="natural" v="bay" />
		<tag k="ssr:stedsnr" v="875793" />
	</node>
	<node id="-334621" lat="57.990494442" lon="7.42878055135">
		<tag k="fixme" v="consider seamark:type=rock or natural=shoal" />
		<tag k="name" v="Fua" />
		<tag k="place" v="islet" />
		<tag k="ssr:stedsnr" v="390678" />
	</node>
	<node id="-336668" lat="57.959841665" lon="7.50593889661">
		<tag k="alt_name" v="Vestre Kråga" />
		<tag k="name" v="Kråka" />
		<tag k="place" v="islet" />
		<tag k="ssr:stedsnr" v="728058" />
	</node>
	<node id="-336667" lat="57.9749833353" lon="7.53443056368">
		<tag k="alt_name" v="Ellingsholmen;Ellingsholmene" />
		<tag k="name" v="Ellingsholman" />
		<tag k="place" v="islet" />
		<tag k="ssr:stedsnr" v="728043" />
	</node>
	<node id="-334618" lat="58.0203638895" lon="7.62599166383">
		<tag k="name" v="Strømmen" />
		<tag k="natural" v="strait" />
		<tag k="ssr:stedsnr" v="390637" />
	</node>
	<node id="-336665" lat="57.993494447" lon="7.43528055106">
		<tag k="name" v="Storøy" />
		<tag k="place" v="island" />
		<tag k="ssr:stedsnr" v="728030" />
	</node>
	<node id="-334616" lat="57.9780583313" lon="7.42203889712">
		<tag k="name" v="Jacobsboan" />
		<tag k="natural" v="shoal" />
		<tag k="place" v="locality" />
		<tag k="ssr:stedsnr" v="390462" />
	</node>
	<node id="-334613" lat="58.0045138863" lon="7.29657499541">
		<tag k="name" v="Persflua" />
		<tag k="place" v="locality" />
		<tag k="seamark:type" v="rock" />
		<tag k="ssr:stedsnr" v="390452" />
	</node>
	<node id="-334611" lat="57.9773527792" lon="7.41224445273">
		<tag k="name" v="Steinan" />
		<tag k="natural" v="shoal" />
		<tag k="place" v="locality" />
		<tag k="ssr:stedsnr" v="390448" />
	</node>
	<node id="-334610" lat="57.9948416707" lon="7.32323888456">
		<tag k="fixme" v="consider seamark:type=rock or natural=shoal" />
		<tag k="name" v="Smelflua" />
		<tag k="place" v="islet" />
		<tag k="ssr:stedsnr" v="390445" />
	</node>
	<node id="-334609" lat="57.9787277739" lon="7.60729444041">
		<tag k="name" v="Eggevika" />
		<tag k="natural" v="bay" />
		<tag k="ssr:stedsnr" v="390378" />
	</node>
	<node id="-336656" lat="58.0178083346" lon="7.3881555478">
		<tag k="name" v="Sævika" />
		<tag k="natural" v="bay" />
		<tag k="ssr:stedsnr" v="694896" />
	</node>
	<node id="-334607" lat="57.9708944441" lon="7.52198333963">
		<tag k="name" v="Stolsboen" />
		<tag k="natural" v="shoal" />
		<tag k="place" v="locality" />
		<tag k="ssr:stedsnr" v="390368" />
	</node>
	<node id="-334601" lat="58.0381916703" lon="7.62731389429">
		<tag k="name" v="Dostadkilen" />
		<tag k="natural" v="bay" />
		<tag k="ssr:stedsnr" v="390299" />
	</node>
	<node id="-336646" lat="57.9785138886" lon="7.61791389155">
		<tag k="name" v="Sydosterbukta" />
		<tag k="natural" v="bay" />
		<tag k="ssr:stedsnr" v="694411" />
	</node>
	<node id="-336645" lat="57.9782250041" lon="7.61196389362">
		<tag k="name" v="Snerpesundet" />
		<tag k="natural" v="strait" />
		<tag k="ssr:stedsnr" v="694409" />
	</node>
	<node id="-334596" lat="57.9950722219" lon="7.348519441">
		<tag k="name" v="Brysvikholmen" />
		<tag k="place" v="islet" />
		<tag k="ssr:stedsnr" v="389931" />
	</node>
	<node id="-334594" lat="57.9943916663" lon="7.38349167512">
		<tag k="name" v="Knutsmed" />
		<tag k="natural" v="cape" />
		<tag k="ssr:stedsnr" v="389885" />
	</node>
	<node id="-336640" lat="57.9767027739" lon="7.61097221561">
		<tag k="name" v="Grønvika" />
		<tag k="natural" v="bay" />
		<tag k="ssr:stedsnr" v="693948" />
	</node>
	<node id="-334590" lat="58.002283331" lon="7.44688334134">
		<tag k="name" v="Ytre Hattholmen" />
		<tag k="place" v="islet" />
		<tag k="ssr:stedsnr" v="389753" />
	</node>
	<node id="-334589" lat="58.0081055555" lon="7.41288055192">
		<tag k="fixme" v="consider seamark:type=rock or natural=shoal" />
		<tag k="name" v="Segill" />
		<tag k="place" v="islet" />
		<tag k="ssr:stedsnr" v="389746" />
	</node>
	<node id="-334588" lat="58.0062083318" lon="7.4093249972">
		<tag k="name" v="Bauholmen" />
		<tag k="place" v="islet" />
		<tag k="ssr:stedsnr" v="389726" />
	</node>
	<node id="-334587" lat="58.0130638872" lon="7.38178610655">
		<tag k="alt_name" v="Skarveskjæret" />
		<tag k="fixme" v="consider seamark:type=rock or natural=shoal" />
		<tag k="name" v="Skarveskjer" />
		<tag k="place" v="islet" />
		<tag k="ssr:stedsnr" v="389723" />
	</node>
	<node id="-336634" lat="58.0199611081" lon="7.34399166877">
		<tag k="fixme" v="consider seamark:type=rock or natural=shoal" />
		<tag k="name" v="Store Bordstolen" />
		<tag k="place" v="islet" />
		<tag k="ssr:stedsnr" v="693862" />
	</node>
	<node id="-334583" lat="57.9911722263" lon="7.62781944743">
		<tag k="name" v="Rubben" />
		<tag k="place" v="locality" />
		<tag k="seamark:type" v="rock" />
		<tag k="ssr:stedsnr" v="389389" />
	</node>
	<node id="-334582" lat="57.9986694414" lon="7.6003777791">
		<tag k="fixme" v="consider seamark:type=rock or natural=shoal" />
		<tag k="name" v="Hellaren" />
		<tag k="place" v="islet" />
		<tag k="ssr:stedsnr" v="389387" />
	</node>
	<node id="-334581" lat="58.009247225" lon="7.65498611694">
		<tag k="name" v="Tomasboen" />
		<tag k="place" v="locality" />
		<tag k="seamark:type" v="rock" />
		<tag k="ssr:stedsnr" v="389384" />
	</node>
	<node id="-336628" lat="58.0177333349" lon="7.45521666349">
		<tag k="fixme" v="consider seamark:type=rock or natural=shoal" />
		<tag k="name" v="Nua" />
		<tag k="place" v="islet" />
		<tag k="ssr:stedsnr" v="693695" />
	</node>
	<node id="-336627" lat="58.0030388882" lon="7.49145277894">
		<tag k="alt_name" v="Kalkskjær" />
		<tag k="fixme" v="consider seamark:type=rock or natural=shoal" />
		<tag k="name" v="Kalkskjer" />
		<tag k="place" v="islet" />
		<tag k="ssr:stedsnr" v="693694" />
	</node>
	<node id="-334578" lat="58.0133416706" lon="7.47115833054">
		<tag k="fixme" v="consider seamark:type=rock or natural=shoal" />
		<tag k="name" v="Lakseskjær" />
		<tag k="place" v="islet" />
		<tag k="ssr:stedsnr" v="389227" />
	</node>
	<node id="-336625" lat="57.9801916693" lon="7.62587221634">
		<tag k="name" v="Kjellingøy" />
		<tag k="place" v="islet" />
		<tag k="ssr:stedsnr" v="693650" />
	</node>
	<node id="-334576" lat="58.0184277772" lon="7.47794999247">
		<tag k="name" v="Nordholmen" />
		<tag k="place" v="islet" />
		<tag k="ssr:stedsnr" v="389219" />
	</node>
	<node id="-334575" lat="58.0121277766" lon="7.49996667306">
		<tag k="name" v="Melkevika" />
		<tag k="natural" v="bay" />
		<tag k="ssr:stedsnr" v="389204" />
	</node>
	<node id="-336622" lat="58.0012305548" lon="7.5579111045">
		<tag k="name" v="Ospodden" />
		<tag k="natural" v="cape" />
		<tag k="ssr:stedsnr" v="693451" />
	</node>
	<node id="-334573" lat="57.9815583352" lon="7.49920278171">
		<tag k="fixme" v="consider seamark:type=rock or natural=shoal" />
		<tag k="name" v="Havneskjær" />
		<tag k="place" v="islet" />
		<tag k="ssr:stedsnr" v="389046" />
	</node>
	<node id="-334572" lat="57.9781222244" lon="7.51527500491">
		<tag k="name" v="Holmen" />
		<tag k="place" v="islet" />
		<tag k="ssr:stedsnr" v="389045" />
	</node>
	<node id="-334571" lat="57.9697861148" lon="7.50059166305">
		<tag k="name" v="Nedvika" />
		<tag k="natural" v="bay" />
		<tag k="ssr:stedsnr" v="389040" />
	</node>
	<node id="-334570" lat="57.9737805574" lon="7.55218888695">
		<tag k="name" v="Sørodden" />
		<tag k="natural" v="cape" />
		<tag k="ssr:stedsnr" v="389037" />
	</node>
	<node id="-334569" lat="57.9685361111" lon="7.52906110477">
		<tag k="name" v="Malla" />
		<tag k="natural" v="cape" />
		<tag k="ssr:stedsnr" v="389034" />
	</node>
	<node id="-334567" lat="57.9972750035" lon="7.49106665958">
		<tag k="name" v="Tjønnevika" />
		<tag k="natural" v="bay" />
		<tag k="ssr:stedsnr" v="389017" />
	</node>
	<node id="-334566" lat="57.9836694425" lon="7.49957221518">
		<tag k="fixme" v="consider seamark:type=rock or natural=shoal" />
		<tag k="name" v="Flaseskjær" />
		<tag k="place" v="islet" />
		<tag k="ssr:stedsnr" v="389006" />
	</node>
	<node id="-334565" lat="58.0168638932" lon="7.40902777038">
		<tag k="name" v="Sundet" />
		<tag k="natural" v="strait" />
		<tag k="ssr:stedsnr" v="388999" />
	</node>
	<node id="-334388" lat="57.960147218" lon="7.56269444469">
		<tag k="fixme" v="consider seamark:type=rock or natural=shoal" />
		<tag k="name" v="Oddskjær" />
		<tag k="place" v="islet" />
		<tag k="ssr:stedsnr" v="329108" />
	</node>
	<node id="-334560" lat="58.0314638886" lon="7.67021111776">
		<tag k="name" v="Bertelsodden" />
		<tag k="natural" v="cape" />
		<tag k="ssr:stedsnr" v="388947" />
	</node>
	<node id="-336336" lat="58.009311112" lon="7.61483333954">
		<tag k="fixme" v="consider seamark:type=rock or natural=shoal" />
		<tag k="name" v="Gjesberskjær" />
		<tag k="place" v="islet" />
		<tag k="ssr:stedsnr" v="631231" />
	</node>
	<node id="-336599" lat="57.9869388866" lon="7.55842499569">
		<tag k="fixme" v="consider seamark:type=rock or natural=shoal" />
		<tag k="name" v="Gjevekolla" />
		<tag k="place" v="islet" />
		<tag k="ssr:stedsnr" v="693149" />
	</node>
	<node id="-336598" lat="57.9843000023" lon="7.56120833419">
		<tag k="fixme" v="consider seamark:type=rock or natural=shoal" />
		<tag k="name" v="Juden" />
		<tag k="place" v="islet" />
		<tag k="ssr:stedsnr" v="693148" />
	</node>
	<node id="-336596" lat="57.9872250024" lon="7.54284999936">
		<tag k="name" v="Eldebrandshola" />
		<tag k="natural" v="bay" />
		<tag k="ssr:stedsnr" v="693139" />
	</node>
	<node id="-336595" lat="57.9899638881" lon="7.54718054751">
		<tag k="fixme" v="consider seamark:type=rock or natural=shoal" />
		<tag k="name" v="Rasmusskjær" />
		<tag k="place" v="islet" />
		<tag k="ssr:stedsnr" v="693133" />
	</node>
	<node id="-336594" lat="57.9943638859" lon="7.56946944215">
		<tag k="name" v="Lille Andholmen" />
		<tag k="place" v="islet" />
		<tag k="ssr:stedsnr" v="693078" />
	</node>
	<node id="-334545" lat="58.0050805535" lon="7.34720000613">
		<tag k="fixme" v="consider seamark:type=rock or natural=shoal" />
		<tag k="name" v="Båtstøskjæran" />
		<tag k="place" v="islet" />
		<tag k="ssr:stedsnr" v="388827" />
	</node>
	<node id="-336592" lat="57.9688361133" lon="7.52978055619">
		<tag k="name" v="Nordvestebukta" />
		<tag k="natural" v="bay" />
		<tag k="ssr:stedsnr" v="693047" />
	</node>
	<node id="-336591" lat="57.9718500004" lon="7.56431667009">
		<tag k="name" v="Studehola" />
		<tag k="natural" v="bay" />
		<tag k="ssr:stedsnr" v="693040" />
	</node>
	<node id="-336590" lat="58.0032972222" lon="7.48446944792">
		<tag k="name" v="Svartebukta" />
		<tag k="natural" v="bay" />
		<tag k="ssr:stedsnr" v="693033" />
	</node>
	<node id="-336588" lat="57.9893333368" lon="7.49148611413">
		<tag k="name" v="Færøyraua" />
		<tag k="natural" v="cape" />
		<tag k="ssr:stedsnr" v="693008" />
	</node>
	<node id="-336586" lat="58.0267694463" lon="7.33790555485">
		<tag k="fixme" v="consider seamark:type=rock or natural=shoal" />
		<tag k="name" v="Røysa" />
		<tag k="place" v="islet" />
		<tag k="ssr:stedsnr" v="692997" />
	</node>
	<node id="-337356" lat="58.0269444431" lon="7.62504721808">
		<tag k="name" v="Rørviksbukta" />
		<tag k="natural" v="bay" />
		<tag k="ssr:stedsnr" v="936273" />
	</node>
	<node id="-334533" lat="58.0429805525" lon="7.62965000766">
		<tag k="name" v="Elgjarnes" />
		<tag k="natural" v="cape" />
		<tag k="ssr:stedsnr" v="388704" />
	</node>
	<node id="-334526" lat="58.0124472192" lon="7.62851944032">
		<tag k="name" v="Kåløysundet" />
		<tag k="natural" v="strait" />
		<tag k="ssr:stedsnr" v="388642" />
	</node>
	<node id="-334525" lat="58.0170388893" lon="7.64276943966">
		<tag k="name" v="Staksvika" />
		<tag k="natural" v="bay" />
		<tag k="ssr:stedsnr" v="388618" />
	</node>
	<node id="-334524" lat="58.0218166707" lon="7.67580277674">
		<tag k="name" v="Stokken" />
		<tag k="natural" v="cape" />
		<tag k="ssr:stedsnr" v="388597" />
	</node>
	<node id="-334521" lat="58.0264083352" lon="7.6768111154">
		<tag k="fixme" v="consider seamark:type=rock or natural=shoal" />
		<tag k="name" v="Svarteskjær" />
		<tag k="place" v="islet" />
		<tag k="ssr:stedsnr" v="388584" />
	</node>
	<node id="-336637" lat="57.9924583359" lon="7.38535554881">
		<tag k="name" v="Tunga" />
		<tag k="natural" v="cape" />
		<tag k="ssr:stedsnr" v="693892" />
	</node>
	<node id="-336364" lat="58.016288891" lon="7.37244722768">
		<tag k="name" v="Fartøyholman" />
		<tag k="place" v="islet" />
		<tag k="ssr:stedsnr" v="631737" />
	</node>
	<node id="-336558" lat="57.9982888879" lon="7.34664999844">
		<tag k="name" v="Persneset" />
		<tag k="natural" v="cape" />
		<tag k="ssr:stedsnr" v="692740" />
	</node>
	<node id="-336669" lat="58.0057371246" lon="7.5752437144">
		<tag k="alt_name" v="Skogsøy Buøy" />
		<tag k="name" v="Buøy" />
		<tag k="place" v="island" />
		<tag k="ssr:stedsnr" v="728699" />
	</node>
	<node id="-334508" lat="57.9996027763" lon="7.53043056124">
		<tag k="name" v="Grønvika" />
		<tag k="natural" v="bay" />
		<tag k="ssr:stedsnr" v="388390" />
	</node>
	<node id="-334507" lat="58.000844448" lon="7.53872222386">
		<tag k="name" v="Sauholman" />
		<tag k="place" v="island" />
		<tag k="ssr:stedsnr" v="388386" />
	</node>
	<node id="-336554" lat="58.016002774" lon="7.66859166006">
		<tag k="name" v="Tånessundet" />
		<tag k="natural" v="strait" />
		<tag k="ssr:stedsnr" v="692635" />
	</node>
	<node id="-334503" lat="58.0064694401" lon="7.53393889294">
		<tag k="name" v="Revsnes" />
		<tag k="natural" v="cape" />
		<tag k="ssr:stedsnr" v="388375" />
	</node>
	<node id="-334499" lat="57.9958499982" lon="7.59415555527">
		<tag k="fixme" v="consider seamark:type=rock or natural=shoal" />
		<tag k="name" v="Buanskjær" />
		<tag k="place" v="islet" />
		<tag k="ssr:stedsnr" v="388333" />
	</node>
	<node id="-334498" lat="57.9731666641" lon="7.60545556308">
		<tag k="name" v="Båsen" />
		<tag k="natural" v="bay" />
		<tag k="ssr:stedsnr" v="388325" />
	</node>
	<node id="-334497" lat="57.9905361096" lon="7.64490832563">
		<tag k="name" v="Valløyvåa" />
		<tag k="natural" v="bay" />
		<tag k="ssr:stedsnr" v="388321" />
	</node>
	<node id="-334496" lat="57.9892777799" lon="7.65234166654">
		<tag k="name" v="Kollholman" />
		<tag k="place" v="island" />
		<tag k="ssr:stedsnr" v="388317" />
	</node>
	<node id="-334495" lat="57.9800527784" lon="7.63660834096">
		<tag k="fixme" v="multiple name tags, choose one and add the other to alt_name" />
		<tag k="name" v="Fiskeodden;Østre Fiskeodden" />
		<tag k="natural" v="cape" />
		<tag k="ssr:stedsnr" v="388312" />
	</node>
	<node id="-334494" lat="58.0218138879" lon="7.65798332771">
		<tag k="name" v="Svineholmsundet" />
		<tag k="natural" v="strait" />
		<tag k="ssr:stedsnr" v="388305" />
	</node>
	<node id="-336541" lat="58.0039111077" lon="7.54363888108">
		<tag k="name" v="Lyngøybukta" />
		<tag k="natural" v="bay" />
		<tag k="ssr:stedsnr" v="692402" />
	</node>
	<node id="-334492" lat="57.976536107" lon="7.63110555656">
		<tag k="name" v="Vestre Fiskeodden" />
		<tag k="natural" v="cape" />
		<tag k="ssr:stedsnr" v="388298" />
	</node>
	<node id="-334491" lat="57.9978611075" lon="7.647530555">
		<tag k="name" v="Steinbukta" />
		<tag k="natural" v="bay" />
		<tag k="ssr:stedsnr" v="388290" />
	</node>
	<node id="-336636" lat="57.9946666662" lon="7.37621389339">
		<tag k="name" v="Østre Glova" />
		<tag k="natural" v="bay" />
		<tag k="ssr:stedsnr" v="693875" />
	</node>
	<node id="-334959" lat="57.982811115" lon="7.50770833052">
		<tag k="fixme" v="consider seamark:type=rock or natural=shoal" />
		<tag k="name" v="Nettskjær" />
		<tag k="place" v="islet" />
		<tag k="ssr:stedsnr" v="26929" />
	</node>
	<node id="-334488" lat="57.9913361139" lon="7.36995833693">
		<tag k="alt_name" v="Svartskjær" />
		<tag k="fixme" v="consider seamark:type=rock or natural=shoal" />
		<tag k="name" v="Svartskjer" />
		<tag k="place" v="islet" />
		<tag k="ssr:stedsnr" v="388233" />
	</node>
	<node id="-336535" lat="58.0052444465" lon="7.65875832925">
		<tag k="name" v="Stolsknatten" />
		<tag k="place" v="locality" />
		<tag k="seamark:type" v="rock" />
		<tag k="ssr:stedsnr" v="692362" />
	</node>
	<node id="-334486" lat="58.0193749986" lon="7.62659443633">
		<tag k="name" v="Strømsodden" />
		<tag k="natural" v="cape" />
		<tag k="ssr:stedsnr" v="388216" />
	</node>
	<node id="-336533" lat="57.9690000007" lon="7.51648333881">
		<tag k="fixme" v="consider seamark:type=rock or natural=shoal" />
		<tag k="name" v="Troneboen" />
		<tag k="place" v="islet" />
		<tag k="ssr:stedsnr" v="692332" />
	</node>
	<node id="-334484" lat="57.9826305538" lon="7.53776945215">
		<tag k="name" v="Indre Nodevika" />
		<tag k="natural" v="bay" />
		<tag k="ssr:stedsnr" v="388090" />
	</node>
	<node id="-334483" lat="57.9789444452" lon="7.52803333638">
		<tag k="name" v="Nebeholmen" />
		<tag k="place" v="islet" />
		<tag k="ssr:stedsnr" v="388086" />
	</node>
	<node id="-334482" lat="57.9702472239" lon="7.60666943626">
		<tag k="name" v="Årsholmbukta" />
		<tag k="natural" v="bay" />
		<tag k="ssr:stedsnr" v="388080" />
	</node>
	<node id="-334481" lat="57.9975527758" lon="7.5765472197">
		<tag k="name" v="Langøysundet" />
		<tag k="natural" v="strait" />
		<tag k="ssr:stedsnr" v="388066" />
	</node>
	<node id="-334480" lat="57.9646555585" lon="7.53038611782">
		<tag k="name" v="Fiskoddbukta" />
		<tag k="natural" v="bay" />
		<tag k="ssr:stedsnr" v="388062" />
	</node>
	<node id="-334479" lat="57.9966388923" lon="7.54749722522">
		<tag k="fixme" v="consider seamark:type=rock or natural=shoal" />
		<tag k="name" v="Flateskjær" />
		<tag k="place" v="islet" />
		<tag k="ssr:stedsnr" v="388058" />
	</node>
	<node id="-336526" lat="58.0112805531" lon="7.60372777068">
		<tag k="name" v="Rivenes" />
		<tag k="natural" v="cape" />
		<tag k="ssr:stedsnr" v="692249" />
	</node>
	<node id="-336525" lat="58.0121138917" lon="7.60746389684">
		<tag k="alt_name" v="Eikebrekksbukta" />
		<tag k="name" v="Eigebrekksbukta" />
		<tag k="natural" v="bay" />
		<tag k="ssr:stedsnr" v="692247" />
	</node>
	<node id="-334473" lat="57.9873055517" lon="7.54517500746">
		<tag k="fixme" v="consider seamark:type=rock or natural=shoal" />
		<tag k="name" v="Katteryggen" />
		<tag k="place" v="islet" />
		<tag k="ssr:stedsnr" v="389115" />
	</node>
	<node id="-336520" lat="57.9655027815" lon="7.61488055823">
		<tag k="fixme" v="consider seamark:type=rock or natural=shoal" />
		<tag k="name" v="Innerskjær" />
		<tag k="place" v="islet" />
		<tag k="ssr:stedsnr" v="692095" />
	</node>
	<node id="-336519" lat="57.9624638886" lon="7.53963055391">
		<tag k="fixme" v="consider seamark:type=rock or natural=shoal" />
		<tag k="name" v="Enmannsskjær" />
		<tag k="place" v="islet" />
		<tag k="ssr:stedsnr" v="692070" />
	</node>
	<node id="-337003" lat="57.9861694446" lon="7.60739444268">
		<tag k="name" v="Kvistholmen" />
		<tag k="place" v="islet" />
		<tag k="ssr:stedsnr" v="815390" />
	</node>
	<node id="-336661" lat="57.9858611149" lon="7.60554722462">
		<tag k="name" v="Brattholmen" />
		<tag k="place" v="islet" />
		<tag k="ssr:stedsnr" v="723228" />
	</node>
	<node id="-334456" lat="57.9756694485" lon="7.5010388959">
		<tag k="alt_name" v="Eigelandsskjæran" />
		<tag k="name" v="Eigeland" />
		<tag k="place" v="islet" />
		<tag k="ssr:stedsnr" v="364050" />
	</node>
	<node id="-334455" lat="57.9957749973" lon="7.36329722257">
		<tag k="name" v="Røyrholmen" />
		<tag k="place" v="islet" />
		<tag k="ssr:stedsnr" v="364026" />
	</node>
	<node id="-334379" lat="57.9853333331" lon="7.5059972189">
		<tag k="name" v="Rossvikodden" />
		<tag k="natural" v="cape" />
		<tag k="ssr:stedsnr" v="329019" />
	</node>
	<node id="-336318" lat="58.0239027769" lon="7.65274722989">
		<tag k="name" v="Vedderstø" />
		<tag k="natural" v="bay" />
		<tag k="ssr:stedsnr" v="630562" />
	</node>
	<node id="-334449" lat="57.9915638896" lon="7.49866666455">
		<tag k="name" v="Madodden" />
		<tag k="natural" v="cape" />
		<tag k="ssr:stedsnr" v="359845" />
	</node>
	<node id="-334448" lat="57.9689888924" lon="7.49413332658">
		<tag k="name" v="Ryvingen" />
		<tag k="place" v="island" />
		<tag k="ssr:stedsnr" v="359801" />
	</node>
	<node id="-334447" lat="57.979338889" lon="7.67940277972">
		<tag k="name" v="Valløyboen" />
		<tag k="natural" v="shoal" />
		<tag k="place" v="locality" />
		<tag k="ssr:stedsnr" v="358951" />
	</node>
	<node id="-334446" lat="58.0035111131" lon="7.5132472148">
		<tag k="name" v="Elsesodden" />
		<tag k="natural" v="cape" />
		<tag k="ssr:stedsnr" v="352864" />
	</node>
	<node id="-334445" lat="58.035561112" lon="7.62019166113">
		<tag k="name" v="Leiran" />
		<tag k="natural" v="bay" />
		<tag k="ssr:stedsnr" v="147307" />
	</node>
	<node id="-336999" lat="58.0206750039" lon="7.4584527779">
		<tag k="name" v="Svege" />
		<tag k="natural" v="bay" />
		<tag k="ssr:stedsnr" v="815136" />
	</node>
	<node id="-337340" lat="58.0305583341" lon="7.43085277771">
		<tag k="name" v="Smalsund" />
		<tag k="natural" v="strait" />
		<tag k="ssr:stedsnr" v="936133" />
	</node>
	<node id="-334438" lat="58.0324694428" lon="7.33543611677">
		<tag k="name" v="Leirkilen" />
		<tag k="natural" v="bay" />
		<tag k="ssr:stedsnr" v="330919" />
	</node>
	<node id="-336485" lat="58.0093138914" lon="7.48420277626">
		<tag k="alt_name" v="Vestre Brattholmen" />
		<tag k="name" v="Brattholman" />
		<tag k="place" v="islet" />
		<tag k="ssr:stedsnr" v="667086" />
	</node>
	<node id="-336484" lat="57.9795500025" lon="7.61199167458">
		<tag k="alt_name" v="Sæsøy, litle;Lille Sæsøy" />
		<tag k="name" v="Litle Sæsøy" />
		<tag k="place" v="island" />
		<tag k="ssr:stedsnr" v="667077" />
	</node>
	<node id="-336483" lat="57.9785305583" lon="7.66096944931">
		<tag k="name" v="Valløybåen" />
		<tag k="natural" v="shoal" />
		<tag k="place" v="locality" />
		<tag k="ssr:stedsnr" v="667074" />
	</node>
	<node id="-336482" lat="57.9861166687" lon="7.56221945079">
		<tag k="name" v="Gjeve" />
		<tag k="place" v="islet" />
		<tag k="ssr:stedsnr" v="667069" />
	</node>
	<node id="-334433" lat="58.0343194403" lon="7.33219722062">
		<tag k="name" v="Notodden" />
		<tag k="natural" v="cape" />
		<tag k="ssr:stedsnr" v="329926" />
	</node>
	<node id="-334432" lat="58.0270972267" lon="7.34925278111">
		<tag k="name" v="Skodbukta" />
		<tag k="natural" v="bay" />
		<tag k="ssr:stedsnr" v="329867" />
	</node>
	<node id="-334608" lat="57.9894361144" lon="7.47096388323">
		<tag k="name" v="Fjordboen" />
		<tag k="natural" v="shoal" />
		<tag k="place" v="locality" />
		<tag k="ssr:stedsnr" v="390373" />
	</node>
	<node id="-336478" lat="57.9933499965" lon="7.42457500661">
		<tag k="alt_name" v="Mannevær, ytre" />
		<tag k="name" v="Ytre Mannevær" />
		<tag k="place" v="island" />
		<tag k="ssr:stedsnr" v="667041" />
	</node>
	<node id="-334929" lat="57.998561112" lon="7.48810555189">
		<tag k="name" v="Nordre Færøyboen" />
		<tag k="place" v="locality" />
		<tag k="seamark:type" v="rock" />
		<tag k="ssr:stedsnr" v="26496" />
	</node>
	<node id="-336655" lat="58.0323305533" lon="7.33291666643">
		<tag k="name" v="Leirkiltangen" />
		<tag k="natural" v="cape" />
		<tag k="ssr:stedsnr" v="694870" />
	</node>
	<node id="-336361" lat="58.0133500031" lon="7.62770556237">
		<tag k="name" v="Skudevika" />
		<tag k="natural" v="bay" />
		<tag k="ssr:stedsnr" v="631673" />
	</node>
	<node id="-334423" lat="58.0007194487" lon="7.52430833385">
		<tag k="alt_name" v="Juvika" />
		<tag k="name" v="Juviga" />
		<tag k="natural" v="bay" />
		<tag k="ssr:stedsnr" v="329632" />
	</node>
	<node id="-334421" lat="58.0022166702" lon="7.52869721707">
		<tag k="name" v="Brattholmen" />
		<tag k="place" v="islet" />
		<tag k="ssr:stedsnr" v="329625" />
	</node>
	<node id="-334420" lat="58.0279653602" lon="7.67511398233">
		<tag k="name" v="Gillerneset" />
		<tag k="natural" v="cape" />
		<tag k="ssr:stedsnr" v="329603" />
	</node>
	<node id="-334419" lat="58.0224055528" lon="7.61955833774">
		<tag k="name" v="Kråkeholmen" />
		<tag k="place" v="islet" />
		<tag k="ssr:stedsnr" v="329345" />
	</node>
	<node id="-334418" lat="58.0228805562" lon="7.62421943602">
		<tag k="name" v="Skudevika" />
		<tag k="natural" v="bay" />
		<tag k="ssr:stedsnr" v="329343" />
	</node>
	<node id="-336464" lat="57.9910111123" lon="7.50153888152">
		<tag k="name" v="Ramshola" />
		<tag k="natural" v="bay" />
		<tag k="ssr:stedsnr" v="632936" />
	</node>
	<node id="-336463" lat="57.9822833309" lon="7.59983055713">
		<tag k="name" v="Stangfjellsodden" />
		<tag k="natural" v="cape" />
		<tag k="ssr:stedsnr" v="632934" />
	</node>
	<node id="-336461" lat="58.0164305575" lon="7.34285833189">
		<tag k="name" v="Ramsdalsvika" />
		<tag k="natural" v="bay" />
		<tag k="ssr:stedsnr" v="632925" />
	</node>
	<node id="-334412" lat="58.042905557" lon="7.32127777587">
		<tag k="fixme" v="consider seamark:type=rock or natural=shoal" />
		<tag k="name" v="Sugga" />
		<tag k="place" v="islet" />
		<tag k="ssr:stedsnr" v="329439" />
	</node>
	<node id="-334410" lat="58.0030083338" lon="7.56319722382">
		<tag k="name" v="Trelsborg" />
		<tag k="place" v="island" />
		<tag k="ssr:stedsnr" v="329433" />
	</node>
	<node id="-334409" lat="58.0007648004" lon="7.56197573779">
		<tag k="alt_name" v="Lille Gressholmen" />
		<tag k="name" v="Lille Grasholmen" />
		<tag k="place" v="islet" />
		<tag k="ssr:stedsnr" v="329428" />
	</node>
	<node id="-336456" lat="58.025044446" lon="7.34308333419">
		<tag k="name" v="Østre Gjallaråsholmen" />
		<tag k="place" v="islet" />
		<tag k="ssr:stedsnr" v="632852" />
	</node>
	<node id="-334401" lat="58.0088194472" lon="7.51749167081">
		<tag k="name" v="Frivollstranda" />
		<tag k="natural" v="bay" />
		<tag k="ssr:stedsnr" v="329238" />
	</node>
	<node id="-336292" lat="58.0193111071" lon="7.39914722008">
		<tag k="bay" v="fjord" />
		<tag k="name" v="Landekilen" />
		<tag k="natural" v="bay" />
		<tag k="ssr:stedsnr" v="606938" />
	</node>
	<node id="-336447" lat="58.0341555541" lon="7.44540832695">
		<tag k="name" v="Budokka" />
		<tag k="natural" v="bay" />
		<tag k="ssr:stedsnr" v="632746" />
	</node>
	<node id="-336446" lat="58.0091222185" lon="7.43201945105">
		<tag k="name" v="Vestre Holevika" />
		<tag k="natural" v="bay" />
		<tag k="ssr:stedsnr" v="632737" />
	</node>
	<node id="-336445" lat="58.001494446" lon="7.40667499967">
		<tag k="name" v="Brattholmen" />
		<tag k="place" v="islet" />
		<tag k="ssr:stedsnr" v="632699" />
	</node>
	<node id="-336444" lat="58.0095000022" lon="7.46899167167">
		<tag k="alt_name" v="Villingskjæran" />
		<tag k="fixme" v="consider seamark:type=rock or natural=shoal" />
		<tag k="name" v="Villingskjeran" />
		<tag k="place" v="islet" />
		<tag k="ssr:stedsnr" v="632665" />
	</node>
	<node id="-336443" lat="58.0181666628" lon="7.50127777093">
		<tag k="alt_name" v="Strømsvika" />
		<tag k="name" v="Strømsviga" />
		<tag k="natural" v="bay" />
		<tag k="ssr:stedsnr" v="632655" />
	</node>
	<node id="-336442" lat="57.9809416674" lon="7.50213888425">
		<tag k="alt_name" v="Østreskjær" />
		<tag k="fixme" v="consider seamark:type=rock or natural=shoal" />
		<tag k="name" v="Østreskjeret" />
		<tag k="place" v="islet" />
		<tag k="ssr:stedsnr" v="632628" />
	</node>
	<node id="-336441" lat="57.9871944449" lon="7.59832222898">
		<tag k="fixme" v="consider seamark:type=rock or natural=shoal" />
		<tag k="name" v="Frygda" />
		<tag k="place" v="islet" />
		<tag k="ssr:stedsnr" v="632615" />
	</node>
	<node id="-336440" lat="58.0052333352" lon="7.64838610368">
		<tag k="name" v="Leiholmen" />
		<tag k="place" v="islet" />
		<tag k="ssr:stedsnr" v="632600" />
	</node>
	<node id="-336439" lat="57.9552750024" lon="7.38398334072">
		<tag k="name" v="Bjørnegrunnen" />
		<tag k="natural" v="shoal" />
		<tag k="place" v="locality" />
		<tag k="ssr:stedsnr" v="632498" />
	</node>
	<node id="-334390" lat="58.0293000043" lon="7.42656111131">
		<tag k="name" v="Leirvika" />
		<tag k="natural" v="bay" />
		<tag k="ssr:stedsnr" v="329149" />
	</node>
	<node id="-334389" lat="57.9893166643" lon="7.53603611121">
		<tag k="name" v="Austerodden" />
		<tag k="natural" v="cape" />
		<tag k="ssr:stedsnr" v="329123" />
	</node>
	<node id="-336436" lat="57.982141669" lon="7.58440000642">
		<tag k="name" v="Vestre Trevika" />
		<tag k="natural" v="bay" />
		<tag k="ssr:stedsnr" v="632413" />
	</node>
	<node id="-334387" lat="57.9930333362" lon="7.57193054951">
		<tag k="name" v="Vestre Andholmbukta" />
		<tag k="natural" v="bay" />
		<tag k="ssr:stedsnr" v="329080" />
	</node>
	<node id="-336434" lat="58.0254333304" lon="7.61986667248">
		<tag k="name" v="Gillernes" />
		<tag k="natural" v="cape" />
		<tag k="ssr:stedsnr" v="632377" />
	</node>
	<node id="-334385" lat="57.9639583321" lon="7.49538055358">
		<tag k="name" v="Teistebukta" />
		<tag k="natural" v="bay" />
		<tag k="ssr:stedsnr" v="329074" />
	</node>
	<node id="-334384" lat="57.9719527756" lon="7.49585555931">
		<tag k="name" v="Rossneshola" />
		<tag k="natural" v="bay" />
		<tag k="ssr:stedsnr" v="329056" />
	</node>
	<node id="-334383" lat="57.9720972187" lon="7.5460777831">
		<tag k="fixme" v="consider seamark:type=rock or natural=shoal" />
		<tag k="name" v="Svartskjær" />
		<tag k="place" v="islet" />
		<tag k="ssr:stedsnr" v="329054" />
	</node>
	<node id="-334382" lat="57.9641527735" lon="7.56560833467">
		<tag k="name" v="Innvåa" />
		<tag k="natural" v="bay" />
		<tag k="ssr:stedsnr" v="329045" />
	</node>
	<node id="-334381" lat="58.0034416627" lon="7.50102777309">
		<tag k="name" v="Østre Havneholmen" />
		<tag k="place" v="islet" />
		<tag k="ssr:stedsnr" v="329028" />
	</node>
	<node id="-334380" lat="58.0024222215" lon="7.5040972238">
		<tag k="name" v="Breivika" />
		<tag k="natural" v="bay" />
		<tag k="ssr:stedsnr" v="329021" />
	</node>
	<node id="-336427" lat="58.0162138848" lon="7.47480832513">
		<tag k="name" v="Nyeverven" />
		<tag k="natural" v="bay" />
		<tag k="ssr:stedsnr" v="632258" />
	</node>
	<node id="-334378" lat="57.9914694432" lon="7.49256666724">
		<tag k="name" v="Lammevika" />
		<tag k="natural" v="bay" />
		<tag k="ssr:stedsnr" v="329014" />
	</node>
	<node id="-334377" lat="57.9850777779" lon="7.49786388648">
		<tag k="fixme" v="consider seamark:type=rock or natural=shoal" />
		<tag k="name" v="Insteskjær" />
		<tag k="place" v="islet" />
		<tag k="ssr:stedsnr" v="329008" />
	</node>
	<node id="-334376" lat="57.9842361089" lon="7.49851111477">
		<tag k="fixme" v="consider seamark:type=rock or natural=shoal" />
		<tag k="name" v="Sokkeleggen" />
		<tag k="place" v="islet" />
		<tag k="ssr:stedsnr" v="329006" />
	</node>
	<node id="-336423" lat="58.0069777742" lon="7.50836666934">
		<tag k="name" v="Kilen" />
		<tag k="natural" v="bay" />
		<tag k="ssr:stedsnr" v="632247" />
	</node>
	<node id="-336422" lat="58.0180666658" lon="7.49924444041">
		<tag k="name" v="Gulodden" />
		<tag k="natural" v="cape" />
		<tag k="ssr:stedsnr" v="632244" />
	</node>
	<node id="-336304" lat="57.9826805572" lon="7.53225556094">
		<tag k="name" v="Stølsholmen" />
		<tag k="place" v="islet" />
		<tag k="ssr:stedsnr" v="630117" />
	</node>
	<node id="-336411" lat="57.9848166684" lon="7.57159443851">
		<tag k="name" v="Dublingvika" />
		<tag k="natural" v="bay" />
		<tag k="ssr:stedsnr" v="632146" />
	</node>
	<node id="-336410" lat="57.9888750006" lon="7.57307222678">
		<tag k="fixme" v="consider seamark:type=rock or natural=shoal" />
		<tag k="name" v="Krossvikskjæran" />
		<tag k="place" v="islet" />
		<tag k="ssr:stedsnr" v="632145" />
	</node>
	<node id="-336409" lat="57.9674305594" lon="7.55738888452">
		<tag k="name" v="Sandøybukta" />
		<tag k="natural" v="bay" />
		<tag k="ssr:stedsnr" v="632115" />
	</node>
	<node id="-334360" lat="58.0020138852" lon="7.37193055245">
		<tag k="name" v="Kammershammersbukta" />
		<tag k="natural" v="bay" />
		<tag k="ssr:stedsnr" v="328867" />
	</node>
	<node id="-334359" lat="57.9975361104" lon="7.37466111938">
		<tag k="fixme" v="consider seamark:type=rock or natural=shoal" />
		<tag k="name" v="Jakobskjæran" />
		<tag k="place" v="islet" />
		<tag k="ssr:stedsnr" v="328865" />
	</node>
	<node id="-334358" lat="58.011227775" lon="7.3259416591">
		<tag k="bay" v="fjord" />
		<tag k="name" v="Vesterfjorden" />
		<tag k="natural" v="bay" />
		<tag k="ssr:stedsnr" v="328852" />
	</node>
	<node id="-334357" lat="58.0050722236" lon="7.34843333813">
		<tag k="name" v="Båtstø" />
		<tag k="natural" v="bay" />
		<tag k="ssr:stedsnr" v="328844" />
	</node>
	<node id="-334356" lat="58.0028916679" lon="7.34398054795">
		<tag k="name" v="Kjellen" />
		<tag k="natural" v="cape" />
		<tag k="ssr:stedsnr" v="328842" />
	</node>
	<node id="-334355" lat="58.0037722194" lon="7.44818055696">
		<tag k="name" v="Indre Hattholmen" />
		<tag k="place" v="islet" />
		<tag k="ssr:stedsnr" v="328835" />
	</node>
	<node id="-336402" lat="57.96806111" lon="7.54956945163">
		<tag k="name" v="Skjøringsbukta" />
		<tag k="natural" v="bay" />
		<tag k="ssr:stedsnr" v="632060" />
	</node>
	<node id="-336401" lat="57.9696166669" lon="7.56348888099">
		<tag k="name" v="Innvåa" />
		<tag k="natural" v="bay" />
		<tag k="ssr:stedsnr" v="632044" />
	</node>
	<node id="-336400" lat="58.0103833321" lon="7.48805000803">
		<tag k="fixme" v="consider seamark:type=rock or natural=shoal" />
		<tag k="name" v="Guleskjær" />
		<tag k="place" v="islet" />
		<tag k="ssr:stedsnr" v="632042" />
	</node>
	<node id="-336399" lat="58.0084472186" lon="7.4862555587">
		<tag k="name" v="Stusøybukta" />
		<tag k="natural" v="bay" />
		<tag k="ssr:stedsnr" v="632040" />
	</node>
	<node id="-336397" lat="57.989330559" lon="7.50550278003">
		<tag k="name" v="Valvikstranda" />
		<tag k="natural" v="bay" />
		<tag k="ssr:stedsnr" v="632022" />
	</node>
	<node id="-336396" lat="57.9934694423" lon="7.49349722001">
		<tag k="name" v="Benkehola" />
		<tag k="natural" v="bay" />
		<tag k="ssr:stedsnr" v="632011" />
	</node>
	<node id="-334342" lat="58.0186250001" lon="7.43026667487">
		<tag k="name" v="Lillebanken" />
		<tag k="natural" v="beach" />
		<tag k="place" v="locality" />
		<tag k="ssr:stedsnr" v="328728" />
	</node>
	<node id="-334340" lat="58.0164777812" lon="7.46368333436">
		<tag k="name" v="Hengestabben" />
		<tag k="natural" v="cape" />
		<tag k="ssr:stedsnr" v="328721" />
	</node>
	<node id="-334338" lat="58.0143333307" lon="7.63346944688">
		<tag k="name" v="Brødøysundet" />
		<tag k="natural" v="strait" />
		<tag k="ssr:stedsnr" v="328672" />
	</node>
	<node id="-334336" lat="58.0152611096" lon="7.65997777896">
		<tag k="name" v="Langvika" />
		<tag k="natural" v="bay" />
		<tag k="ssr:stedsnr" v="328654" />
	</node>
	<node id="-334334" lat="58.0159083311" lon="7.63181667515">
		<tag k="name" v="Brødøy" />
		<tag k="place" v="island" />
		<tag k="ssr:stedsnr" v="328645" />
	</node>
	<node id="-336426" lat="58.0168805539" lon="7.47751667083">
		<tag k="name" v="Port Arthur" />
		<tag k="natural" v="cape" />
		<tag k="ssr:stedsnr" v="632257" />
	</node>
	<node id="-336370" lat="58.0123444428" lon="7.41564721521">
		<tag k="name" v="Landehobde" />
		<tag k="natural" v="cape" />
		<tag k="ssr:stedsnr" v="631747" />
	</node>
	<node id="-334320" lat="58.0024250013" lon="7.55058333944">
		<tag k="name" v="Tregde Gillerholmen" />
		<tag k="place" v="islet" />
		<tag k="ssr:stedsnr" v="328393" />
	</node>
	<node id="-334319" lat="57.9622055516" lon="7.57528056069">
		<tag k="name" v="Småboan" />
		<tag k="place" v="locality" />
		<tag k="seamark:type" v="rock" />
		<tag k="ssr:stedsnr" v="328371" />
	</node>
	<node id="-334318" lat="57.9768583334" lon="7.68452221819">
		<tag k="fixme" v="consider seamark:type=rock or natural=shoal" />
		<tag k="name" v="Langøyboen" />
		<tag k="place" v="islet" />
		<tag k="ssr:stedsnr" v="328368" />
	</node>
	<node id="-334317" lat="57.9329166701" lon="7.42057500281">
		<tag k="name" v="Moden" />
		<tag k="natural" v="shoal" />
		<tag k="place" v="locality" />
		<tag k="ssr:stedsnr" v="328337" />
	</node>
	<node id="-334316" lat="58.0198916648" lon="7.67532499692">
		<tag k="fixme" v="consider seamark:type=rock or natural=shoal" />
		<tag k="name" v="Stokkeboen" />
		<tag k="place" v="islet" />
		<tag k="ssr:stedsnr" v="328328" />
	</node>
	<node id="-334315" lat="57.9809250006" lon="7.63204444283">
		<tag k="name" v="Nordvestbukta" />
		<tag k="natural" v="bay" />
		<tag k="ssr:stedsnr" v="328313" />
	</node>
	<node id="-334313" lat="58.0062805547" lon="7.59522778415">
		<tag k="name" v="Lortebukta" />
		<tag k="natural" v="bay" />
		<tag k="ssr:stedsnr" v="328244" />
	</node>
	<node id="-334312" lat="58.0113194463" lon="7.61001944738">
		<tag k="name" v="Lillevika" />
		<tag k="natural" v="bay" />
		<tag k="ssr:stedsnr" v="328227" />
	</node>
	<node id="-334311" lat="58.0161555515" lon="7.62114722078">
		<tag k="fixme" v="consider seamark:type=rock or natural=shoal" />
		<tag k="name" v="Monseskjæran" />
		<tag k="place" v="islet" />
		<tag k="ssr:stedsnr" v="328215" />
	</node>
	<node id="-334310" lat="57.9645444464" lon="7.52427223013">
		<tag k="name" v="Flateskjærrompa" />
		<tag k="natural" v="cape" />
		<tag k="ssr:stedsnr" v="328071" />
	</node>
	<node id="-334309" lat="57.9944166698" lon="7.33436944318">
		<tag k="name" v="Skarvedreda" />
		<tag k="natural" v="cape" />
		<tag k="ssr:stedsnr" v="327959" />
	</node>
	<node id="-334308" lat="57.9960611128" lon="7.34018889001">
		<tag k="name" v="Yste Avra" />
		<tag k="natural" v="cape" />
		<tag k="ssr:stedsnr" v="327957" />
	</node>
	<node id="-336635" lat="58.0278138895" lon="7.34048055645">
		<tag k="name" v="Bukta" />
		<tag k="natural" v="bay" />
		<tag k="ssr:stedsnr" v="693868" />
	</node>
	<node id="-336351" lat="58.0024166657" lon="7.66734166638">
		<tag k="name" v="Gåseskjerboen" />
		<tag k="place" v="locality" />
		<tag k="seamark:type" v="rock" />
		<tag k="ssr:stedsnr" v="631354" />
	</node>
	<node id="-336350" lat="57.9725833363" lon="7.63847222368">
		<tag k="name" v="Gjeirolboen" />
		<tag k="natural" v="shoal" />
		<tag k="place" v="locality" />
		<tag k="ssr:stedsnr" v="631350" />
	</node>
	<node id="-336349" lat="57.9911000026" lon="7.64624999293">
		<tag k="name" v="Jøden" />
		<tag k="place" v="islet" />
		<tag k="ssr:stedsnr" v="631332" />
	</node>
	<node id="-336348" lat="57.9912611101" lon="7.63831666414">
		<tag k="fixme" v="consider seamark:type=rock or natural=shoal" />
		<tag k="name" v="Galten" />
		<tag k="place" v="islet" />
		<tag k="ssr:stedsnr" v="631329" />
	</node>
	<node id="-336347" lat="57.9899777814" lon="7.64637500201">
		<tag k="name" v="Valløyholmen" />
		<tag k="place" v="islet" />
		<tag k="ssr:stedsnr" v="631323" />
	</node>
	<node id="-336345" lat="58.0174138851" lon="7.6659916666">
		<tag k="name" v="Hellingsvika" />
		<tag k="natural" v="bay" />
		<tag k="ssr:stedsnr" v="631316" />
	</node>
	<node id="-336343" lat="57.9977499956" lon="7.65338333118">
		<tag k="name" v="Soverholmen" />
		<tag k="place" v="islet" />
		<tag k="ssr:stedsnr" v="631297" />
	</node>
	<node id="-336342" lat="57.9992500033" lon="7.65199999458">
		<tag k="name" v="Soverholmen" />
		<tag k="place" v="islet" />
		<tag k="ssr:stedsnr" v="631296" />
	</node>
	<node id="-336341" lat="57.9969416667" lon="7.66116389329">
		<tag k="name" v="Vrakebukta" />
		<tag k="natural" v="bay" />
		<tag k="ssr:stedsnr" v="631293" />
	</node>
	<node id="-336340" lat="58.0042694479" lon="7.57512499304">
		<tag k="name" v="Buøy Breivik" />
		<tag k="natural" v="bay" />
		<tag k="ssr:stedsnr" v="631252" />
	</node>
	<node id="-334291" lat="58.0046833361" lon="7.55306111069">
		<tag k="name" v="Jaktholman" />
		<tag k="place" v="island" />
		<tag k="ssr:stedsnr" v="327389" />
	</node>
	<node id="-336338" lat="58.0043055515" lon="7.59943056252">
		<tag k="name" v="Paltoskbukta" />
		<tag k="natural" v="bay" />
		<tag k="ssr:stedsnr" v="631243" />
	</node>
	<node id="-334289" lat="57.9893027821" lon="7.59815555703">
		<tag k="name" v="Engervik" />
		<tag k="natural" v="bay" />
		<tag k="ssr:stedsnr" v="327353" />
	</node>
	<node id="-334288" lat="57.9967777793" lon="7.58469722576">
		<tag k="fixme" v="consider seamark:type=rock or natural=shoal" />
		<tag k="name" v="Langøyholman" />
		<tag k="place" v="islet" />
		<tag k="ssr:stedsnr" v="327334" />
	</node>
	<node id="-334287" lat="57.9932416694" lon="7.35401943928">
		<tag k="alt_name" v="Flatskjær" />
		<tag k="fixme" v="consider seamark:type=rock or natural=shoal" />
		<tag k="name" v="Fladskjer" />
		<tag k="place" v="islet" />
		<tag k="ssr:stedsnr" v="327265" />
	</node>
	<node id="-334286" lat="57.9788249987" lon="7.55195277366">
		<tag k="name" v="Seilskjær" />
		<tag k="natural" v="cape" />
		<tag k="ssr:stedsnr" v="327102" />
	</node>
	<node id="-334285" lat="57.9685277791" lon="7.60603055203">
		<tag k="name" v="Drambukta" />
		<tag k="natural" v="bay" />
		<tag k="ssr:stedsnr" v="327100" />
	</node>
	<node id="-336332" lat="57.9914166675" lon="7.54005000556">
		<tag k="name" v="Pålshola" />
		<tag k="natural" v="bay" />
		<tag k="old_name" v="Påskehola" />
		<tag k="ssr:stedsnr" v="631069" />
	</node>
	<node id="-334283" lat="57.9964361103" lon="7.53894444708">
		<tag k="name" v="Bergekilen" />
		<tag k="natural" v="bay" />
		<tag k="ssr:stedsnr" v="328063" />
	</node>
	<node id="-334282" lat="57.9902777785" lon="7.53087499339">
		<tag k="name" v="Tjusdalsbukta" />
		<tag k="natural" v="bay" />
		<tag k="ssr:stedsnr" v="328062" />
	</node>
	<node id="-334281" lat="57.9915499971" lon="7.55074443944">
		<tag k="name" v="Olashola" />
		<tag k="natural" v="bay" />
		<tag k="ssr:stedsnr" v="328055" />
	</node>
	<node id="-336972" lat="57.9911527742" lon="7.50375000083">
		<tag k="name" v="Våodden" />
		<tag k="natural" v="cape" />
		<tag k="ssr:stedsnr" v="814008" />
	</node>
	<node id="-336630" lat="58.017763891" lon="7.41516111915">
		<tag k="name" v="Laugeberget" />
		<tag k="natural" v="cape" />
		<tag k="ssr:stedsnr" v="693771" />
	</node>
	<node id="-336971" lat="57.9907888848" lon="7.48904722123">
		<tag k="name" v="Styggevika" />
		<tag k="natural" v="bay" />
		<tag k="ssr:stedsnr" v="814006" />
	</node>
	<node id="-334270" lat="58.0262888904" lon="7.40658055071">
		<tag k="alt_name" v="Ronekilen" />
		<tag k="name" v="Runekilen" />
		<tag k="natural" v="strait" />
		<tag k="ssr:stedsnr" v="303961" />
	</node>
	<node id="-336629" lat="58.0162111072" lon="7.38132222459">
		<tag k="alt_name" v="Lammeskjæret" />
		<tag k="fixme" v="consider seamark:type=rock or natural=shoal" />
		<tag k="name" v="Lammeskjeret" />
		<tag k="place" v="islet" />
		<tag k="ssr:stedsnr" v="693751" />
	</node>
	<node id="-336316" lat="58.0300972242" lon="7.67640000114">
		<tag k="alt_name" v="Fugløya" />
		<tag k="name" v="Fugløy" />
		<tag k="place" v="island" />
		<tag k="ssr:stedsnr" v="630555" />
	</node>
	<node id="-336083" lat="57.967569444" lon="7.56020833258">
		<tag k="name" v="Sandøy" />
		<tag k="place" v="island" />
		<tag k="ssr:stedsnr" v="546072" />
	</node>
	<node id="-337174" lat="58.0334972187" lon="7.42842777399">
		<tag k="name" v="Rugdeneset" />
		<tag k="natural" v="cape" />
		<tag k="ssr:stedsnr" v="875755" />
	</node>
	<node id="-336310" lat="58.0079777748" lon="7.5624555576">
		<tag k="name" v="Havndalsodden" />
		<tag k="natural" v="cape" />
		<tag k="ssr:stedsnr" v="630378" />
	</node>
	<node id="-336309" lat="57.9924305534" lon="7.6002500021">
		<tag k="name" v="Homvika" />
		<tag k="natural" v="strait" />
		<tag k="ssr:stedsnr" v="630352" />
	</node>
	<node id="-336308" lat="57.9908499964" lon="7.6043583352">
		<tag k="name" v="Djubovika" />
		<tag k="natural" v="bay" />
		<tag k="ssr:stedsnr" v="630348" />
	</node>
	<node id="-336307" lat="57.9945027741" lon="7.59127777509">
		<tag k="name" v="Skaftenes" />
		<tag k="natural" v="cape" />
		<tag k="ssr:stedsnr" v="630345" />
	</node>
	<node id="-334258" lat="58.0101944453" lon="7.3408861159">
		<tag k="alt_name" v="Krokenes;Kråkenes" />
		<tag k="name" v="Krågenes" />
		<tag k="natural" v="cape" />
		<tag k="ssr:stedsnr" v="303638" />
	</node>
	<node id="-334257" lat="58.0044916656" lon="7.3822555483">
		<tag k="alt_name" v="Langøy" />
		<tag k="name" v="Langøya" />
		<tag k="place" v="islet" />
		<tag k="ssr:stedsnr" v="303073" />
	</node>
	<node id="-334256" lat="58.010761111" lon="7.63364722365">
		<tag k="name" v="Kåløy" />
		<tag k="place" v="island" />
		<tag k="ssr:stedsnr" v="303066" />
	</node>
	<node id="-336303" lat="57.9674138915" lon="7.60879165814">
		<tag k="name" v="Sildehola" />
		<tag k="natural" v="bay" />
		<tag k="ssr:stedsnr" v="630105" />
	</node>
	<node id="-334254" lat="57.9717500017" lon="7.60757777392">
		<tag k="alt_name" v="Sæsøy, store" />
		<tag k="name" v="Store Sæsøy" />
		<tag k="place" v="island" />
		<tag k="ssr:stedsnr" v="303064" />
	</node>
	<node id="-334253" lat="57.9680055563" lon="7.6085166652">
		<tag k="alt_name" v="Årsholman" />
		<tag k="name" v="Årsholmane" />
		<tag k="place" v="islet" />
		<tag k="ssr:stedsnr" v="303063" />
	</node>
	<node id="-334252" lat="57.9777555525" lon="7.51836111616">
		<tag k="alt_name" v="Båtvika;Båtviga" />
		<tag k="name" v="Båtevika" />
		<tag k="natural" v="bay" />
		<tag k="ssr:stedsnr" v="303049" />
	</node>
	<node id="-334251" lat="57.9862083313" lon="7.597225005">
		<tag k="name" v="Prestholmen" />
		<tag k="place" v="islet" />
		<tag k="ssr:stedsnr" v="303046" />
	</node>
	<node id="-334250" lat="57.9884805554" lon="7.62085277192">
		<tag k="name" v="Eggvær" />
		<tag k="place" v="island" />
		<tag k="ssr:stedsnr" v="303044" />
	</node>
	<node id="-334248" lat="58.0032111107" lon="7.39889167322">
		<tag k="name" v="Vestre Gunningsholmen" />
		<tag k="place" v="islet" />
		<tag k="ssr:stedsnr" v="302102" />
	</node>
	<node id="-334247" lat="57.9839388908" lon="7.43116666811">
		<tag k="fixme" v="consider seamark:type=rock or natural=shoal" />
		<tag k="name" v="Svartskjer" />
		<tag k="place" v="islet" />
		<tag k="ssr:stedsnr" v="299803" />
	</node>
	<node id="-334246" lat="58.019516667" lon="7.34909722714">
		<tag k="name" v="Hillesund" />
		<tag k="natural" v="strait" />
		<tag k="ssr:stedsnr" v="298209" />
	</node>
	<node id="-334244" lat="57.9867972179" lon="7.71828888553">
		<tag k="name" v="Seiboen" />
		<tag k="place" v="locality" />
		<tag k="seamark:type" v="rock" />
		<tag k="ssr:stedsnr" v="297959" />
	</node>
	<node id="-334240" lat="58.0080472209" lon="7.42886944647">
		<tag k="name" v="Østre Leisundet" />
		<tag k="natural" v="strait" />
		<tag k="ssr:stedsnr" v="269985" />
	</node>
	<node id="-334239" lat="58.0163222264" lon="7.49493888533">
		<tag k="name" v="Saltnes" />
		<tag k="natural" v="cape" />
		<tag k="ssr:stedsnr" v="269947" />
	</node>
	<node id="-334238" lat="58.0177138901" lon="7.3616222166">
		<tag k="name" v="Husholmen" />
		<tag k="place" v="islet" />
		<tag k="ssr:stedsnr" v="269893" />
	</node>
	<node id="-334237" lat="58.0330222226" lon="7.33284722685">
		<tag k="name" v="Hagansbukta" />
		<tag k="natural" v="bay" />
		<tag k="ssr:stedsnr" v="269889" />
	</node>
	<node id="-334236" lat="58.0143861107" lon="7.39061944248">
		<tag k="name" v="Juviksodden" />
		<tag k="natural" v="cape" />
		<tag k="ssr:stedsnr" v="269864" />
	</node>
	<node id="-336282" lat="57.9891861105" lon="7.50375554734">
		<tag k="name" v="Matodden" />
		<tag k="natural" v="cape" />
		<tag k="ssr:stedsnr" v="606047" />
	</node>
	<node id="-334234" lat="57.9978333293" lon="7.44108333693">
		<tag k="fixme" v="consider seamark:type=rock or natural=shoal" />
		<tag k="name" v="Bjørnen" />
		<tag k="place" v="islet" />
		<tag k="ssr:stedsnr" v="269701" />
	</node>
	<node id="-334233" lat="57.9640222201" lon="7.52498889017">
		<tag k="alt_name" v="Flateskjær" />
		<tag k="fixme" v="consider seamark:type=rock or natural=shoal" />
		<tag k="name" v="Fladskjer" />
		<tag k="place" v="islet" />
		<tag k="ssr:stedsnr" v="269686" />
	</node>
	<node id="-334232" lat="58.0258083364" lon="7.65925556071">
		<tag k="name" v="Søylekilen" />
		<tag k="natural" v="bay" />
		<tag k="ssr:stedsnr" v="269674" />
	</node>
	<node id="-334231" lat="58.0220833365" lon="7.62201389432">
		<tag k="name" v="Prikkmannsholmen" />
		<tag k="place" v="islet" />
		<tag k="ssr:stedsnr" v="269673" />
	</node>
	<node id="-334230" lat="58.0246083355" lon="7.65855277102">
		<tag k="name" v="Launeskilen" />
		<tag k="natural" v="bay" />
		<tag k="ssr:stedsnr" v="269672" />
	</node>
	<node id="-336281" lat="58.001961107" lon="7.46899166539">
		<tag k="bay" v="fjord" />
		<tag k="name" v="Mannefjorden" />
		<tag k="natural" v="bay" />
		<tag k="ssr:stedsnr" v="606043" />
	</node>
	<node id="-334574" lat="57.9648944421" lon="7.55381667275">
		<tag k="name" v="Skjøringsundet" />
		<tag k="natural" v="strait" />
		<tag k="ssr:stedsnr" v="389080" />
	</node>
	<node id="-334224" lat="57.9943444412" lon="7.30868055794">
		<tag k="name" v="Ånensboen" />
		<tag k="natural" v="shoal" />
		<tag k="place" v="locality" />
		<tag k="ssr:stedsnr" v="269484" />
	</node>
	<node id="-334223" lat="58.0165666666" lon="7.42100277611">
		<tag k="name" v="Hekkholmen" />
		<tag k="place" v="islet" />
		<tag k="ssr:stedsnr" v="269752" />
	</node>
	<node id="-334222" lat="57.9840583369" lon="7.58640278496">
		<tag k="name" v="Trevika" />
		<tag k="natural" v="bay" />
		<tag k="ssr:stedsnr" v="269412" />
	</node>
	<node id="-336267" lat="58.0082833325" lon="7.42207777152">
		<tag k="name" v="Skreddersundet" />
		<tag k="natural" v="strait" />
		<tag k="ssr:stedsnr" v="572985" />
	</node>
	<node id="-336266" lat="57.9711611152" lon="7.49937500803">
		<tag k="name" v="Sandvika" />
		<tag k="natural" v="bay" />
		<tag k="ssr:stedsnr" v="572950" />
	</node>
	<node id="-336279" lat="57.9963694437" lon="7.39977221878">
		<tag k="name" v="Steinsøy" />
		<tag k="place" v="island" />
		<tag k="ssr:stedsnr" v="606026" />
	</node>
	<node id="-336620" lat="57.965588889" lon="7.60232778511">
		<tag k="name" v="Brenneboan" />
		<tag k="place" v="locality" />
		<tag k="seamark:type" v="rock" />
		<tag k="ssr:stedsnr" v="693419" />
	</node>
	<node id="-336278" lat="57.998863889" lon="7.44353888202">
		<tag k="alt_name" v="Guleholmen" />
		<tag k="name" v="Guleskjer" />
		<tag k="place" v="islet" />
		<tag k="ssr:stedsnr" v="606024" />
	</node>
	<node id="-336619" lat="58.0318277745" lon="7.62189722687">
		<tag k="name" v="Krossholmen" />
		<tag k="place" v="islet" />
		<tag k="ssr:stedsnr" v="693363" />
	</node>
	<node id="-336256" lat="58.0187583355" lon="7.37912500346">
		<tag k="name" v="Høksåsstranda" />
		<tag k="natural" v="bay" />
		<tag k="ssr:stedsnr" v="572830" />
	</node>
	<node id="-336255" lat="57.98679167" lon="7.6191249974">
		<tag k="name" v="Søndre Eggvær" />
		<tag k="place" v="islet" />
		<tag k="ssr:stedsnr" v="572653" />
	</node>
	<node id="-336277" lat="57.9949388869" lon="7.3423861129">
		<tag k="name" v="Hille" />
		<tag k="place" v="island" />
		<tag k="ssr:stedsnr" v="606003" />
	</node>
	<node id="-336251" lat="57.9983722188" lon="7.31358334095">
		<tag k="name" v="Kjorteboan" />
		<tag k="place" v="locality" />
		<tag k="seamark:type" v="rock" />
		<tag k="ssr:stedsnr" v="572508" />
	</node>
	<node id="-336846" lat="57.995869446" lon="7.57981389272">
		<tag k="name" v="Landøy" />
		<tag k="place" v="island" />
		<tag k="ssr:stedsnr" v="788034" />
	</node>
	<node id="-337337" lat="58.0197361077" lon="7.45676943983">
		<tag k="name" v="Torkelsnot" />
		<tag k="natural" v="cape" />
		<tag k="ssr:stedsnr" v="936115" />
	</node>
	<node id="-336246" lat="57.9831138886" lon="7.60664167422">
		<tag k="name" v="Hansholmen" />
		<tag k="place" v="islet" />
		<tag k="ssr:stedsnr" v="572419" />
	</node>
	<node id="-336245" lat="57.9735305573" lon="7.53786945023">
		<tag k="fixme" v="consider seamark:type=rock or natural=shoal" />
		<tag k="name" v="Huseboan" />
		<tag k="place" v="islet" />
		<tag k="ssr:stedsnr" v="572409" />
	</node>
	<node id="-334227" lat="58.0113166687" lon="7.42568610635">
		<tag k="name" v="Hobdeodden" />
		<tag k="natural" v="cape" />
		<tag k="ssr:stedsnr" v="269656" />
	</node>
	<node id="-336626" lat="57.9894444424" lon="7.57531389201">
		<tag k="fixme" v="consider seamark:type=rock or natural=shoal" />
		<tag k="name" v="Gulholmen" />
		<tag k="place" v="islet" />
		<tag k="ssr:stedsnr" v="693656" />
	</node>
	<node id="-337298" lat="58.0144138909" lon="7.44237499622">
		<tag k="name" v="Stumpodden" />
		<tag k="natural" v="cape" />
		<tag k="ssr:stedsnr" v="935742" />
	</node>
	<node id="-336615" lat="58.0166055541" lon="7.50342778064">
		<tag k="name" v="Lille Strømsvika" />
		<tag k="natural" v="bay" />
		<tag k="ssr:stedsnr" v="693252" />
	</node>
	<node id="-336232" lat="57.996452781" lon="7.37278055082">
		<tag k="name" v="Vestre Glova" />
		<tag k="natural" v="bay" />
		<tag k="ssr:stedsnr" v="571879" />
	</node>
	<node id="-336231" lat="58.0208888859" lon="7.33800832708">
		<tag k="name" v="Stræterodden" />
		<tag k="natural" v="cape" />
		<tag k="ssr:stedsnr" v="571862" />
	</node>
	<node id="-336228" lat="57.9920805577" lon="7.42623332971">
		<tag k="name" v="Ytre Vrakkroa" />
		<tag k="natural" v="bay" />
		<tag k="ssr:stedsnr" v="571776" />
	</node>
	<node id="-336225" lat="58.0054999998" lon="7.43013611303">
		<tag k="fixme" v="consider seamark:type=rock or natural=shoal" />
		<tag k="name" v="Stolan" />
		<tag k="place" v="islet" />
		<tag k="ssr:stedsnr" v="571722" />
	</node>
	<node id="-336224" lat="58.0168844814" lon="7.43106583116">
		<tag k="name" v="Banken" />
		<tag k="natural" v="beach" />
		<tag k="place" v="locality" />
		<tag k="ssr:stedsnr" v="571716" />
	</node>
	<node id="-336272" lat="57.9668416638" lon="7.52957221742">
		<tag k="name" v="Store Vengelsholman" />
		<tag k="place" v="islet" />
		<tag k="ssr:stedsnr" v="602847" />
	</node>
	<node id="-336222" lat="58.0138861108" lon="7.43780277262">
		<tag k="name" v="Finkelholmen" />
		<tag k="place" v="islet" />
		<tag k="ssr:stedsnr" v="571714" />
	</node>
	<node id="-336221" lat="58.013194444" lon="7.44144166508">
		<tag k="name" v="Aspholmsundet" />
		<tag k="natural" v="strait" />
		<tag k="ssr:stedsnr" v="571711" />
	</node>
	<node id="-336220" lat="58.0157805593" lon="7.36718888989">
		<tag k="fixme" v="consider seamark:type=rock or natural=shoal" />
		<tag k="name" v="Røysa" />
		<tag k="place" v="islet" />
		<tag k="ssr:stedsnr" v="571701" />
	</node>
	<node id="-336218" lat="58.0065777745" lon="7.52200278055">
		<tag k="name" v="Lille Kigeholmen" />
		<tag k="place" v="islet" />
		<tag k="ssr:stedsnr" v="571629" />
	</node>
	<node id="-336214" lat="57.9677861068" lon="7.61284166592">
		<tag k="fixme" v="consider seamark:type=rock or natural=shoal" />
		<tag k="name" v="Årsholmflaket" />
		<tag k="place" v="islet" />
		<tag k="ssr:stedsnr" v="571411" />
	</node>
	<node id="-336213" lat="58.0043555588" lon="7.66291944285">
		<tag k="name" v="Langeboen" />
		<tag k="place" v="locality" />
		<tag k="seamark:type" v="rock" />
		<tag k="ssr:stedsnr" v="571397" />
	</node>
	<node id="-336270" lat="58.009425002" lon="7.50120278083">
		<tag k="name" v="Søteviga" />
		<tag k="natural" v="bay" />
		<tag k="ssr:stedsnr" v="600916" />
	</node>
	<node id="-336210" lat="58.0156916666" lon="7.48081111148">
		<tag k="name" v="Mittingan" />
		<tag k="natural" v="bay" />
		<tag k="ssr:stedsnr" v="571231" />
	</node>
	<node id="-336209" lat="58.0191583378" lon="7.4699833382">
		<tag k="name" v="Aspevika" />
		<tag k="natural" v="bay" />
		<tag k="ssr:stedsnr" v="571221" />
	</node>
	<node id="-336208" lat="58.0052222241" lon="7.50786943968">
		<tag k="name" v="Steihi" />
		<tag k="natural" v="cape" />
		<tag k="ssr:stedsnr" v="571216" />
	</node>
	<node id="-336284" lat="57.9773861154" lon="7.56114722503">
		<tag k="name" v="Maurholmen" />
		<tag k="place" v="islet" />
		<tag k="ssr:stedsnr" v="606057" />
	</node>
	<node id="-337375" lat="57.9967333366" lon="7.43429444762">
		<tag k="name" v="Skudeholmen" />
		<tag k="place" v="islet" />
		<tag k="ssr:stedsnr" v="936673" />
	</node>
	<node id="-336199" lat="57.9897555539" lon="7.54028611415">
		<tag k="name" v="Ytre Kopperholmen" />
		<tag k="place" v="islet" />
		<tag k="ssr:stedsnr" v="571109" />
	</node>
	<node id="-336198" lat="57.9889472198" lon="7.53322222898">
		<tag k="name" v="Stangeodden" />
		<tag k="natural" v="cape" />
		<tag k="ssr:stedsnr" v="571103" />
	</node>
	<node id="-336197" lat="57.9628111091" lon="7.55551945109">
		<tag k="name" v="Sandøyrompa" />
		<tag k="natural" v="cape" />
		<tag k="ssr:stedsnr" v="571084" />
	</node>
	<node id="-336196" lat="57.990913887" lon="7.546686107">
		<tag k="name" v="Knutsvika" />
		<tag k="natural" v="bay" />
		<tag k="ssr:stedsnr" v="571064" />
	</node>
	<node id="-336195" lat="57.9788916669" lon="7.51622221838">
		<tag k="name" v="Skjøllvika" />
		<tag k="natural" v="bay" />
		<tag k="ssr:stedsnr" v="571053" />
	</node>
	<node id="-336194" lat="57.973983331" lon="7.5462194402">
		<tag k="fixme" v="consider seamark:type=rock or natural=shoal" />
		<tag k="name" v="Hundeskjær" />
		<tag k="place" v="islet" />
		<tag k="ssr:stedsnr" v="571044" />
	</node>
	<node id="-336193" lat="58.0099361115" lon="7.48601389102">
		<tag k="name" v="Østre Brattholmen" />
		<tag k="place" v="islet" />
		<tag k="ssr:stedsnr" v="571028" />
	</node>
	<node id="-336192" lat="58.004022221" lon="7.48144444833">
		<tag k="name" v="Ytterhalsen" />
		<tag k="natural" v="cape" />
		<tag k="ssr:stedsnr" v="571024" />
	</node>
	<node id="-336191" lat="58.0054499993" lon="7.49800277118">
		<tag k="name" v="Vestre Havneholmen" />
		<tag k="place" v="islet" />
		<tag k="ssr:stedsnr" v="571019" />
	</node>
	<node id="-336190" lat="58.0038500025" lon="7.51329723046">
		<tag k="name" v="Odden" />
		<tag k="natural" v="cape" />
		<tag k="ssr:stedsnr" v="571017" />
	</node>
	<node id="-336189" lat="57.9822083338" lon="7.5011638901">
		<tag k="fixme" v="consider seamark:type=rock or natural=shoal" />
		<tag k="name" v="Vrageskjær" />
		<tag k="place" v="islet" />
		<tag k="ssr:stedsnr" v="571004" />
	</node>
	<node id="-336183" lat="58.0337777805" lon="7.62510554913">
		<tag k="name" v="Eigenes" />
		<tag k="natural" v="cape" />
		<tag k="ssr:stedsnr" v="570943" />
	</node>
	<node id="-336334" lat="57.9645027796" lon="7.53829722204">
		<tag k="name" v="Sør Terneskjærrompa" />
		<tag k="natural" v="cape" />
		<tag k="ssr:stedsnr" v="631075" />
	</node>
	<node id="-336624" lat="57.9885861098" lon="7.58382222168">
		<tag k="alt_name" v="Ødøyfjorden" />
		<tag k="bay" v="fjord" />
		<tag k="name" v="Udøyfjorden" />
		<tag k="natural" v="bay" />
		<tag k="ssr:stedsnr" v="693610" />
	</node>
	<node id="-336946" lat="58.0070388929" lon="7.40837776944">
		<tag k="name" v="Bauholmsundet" />
		<tag k="natural" v="strait" />
		<tag k="ssr:stedsnr" v="813833" />
	</node>
	<node id="-336169" lat="58.0054666649" lon="7.37388056038">
		<tag k="name" v="Rasmusvika" />
		<tag k="natural" v="bay" />
		<tag k="ssr:stedsnr" v="570841" />
	</node>
	<node id="-336164" lat="57.9990999989" lon="7.34167222095">
		<tag k="name" v="Vestre Drasvik" />
		<tag k="natural" v="bay" />
		<tag k="ssr:stedsnr" v="570798" />
	</node>
	<node id="-336487" lat="58.0206555548" lon="7.3320666635">
		<tag k="alt_name" v="Ramsøy" />
		<tag k="name" v="Ramsøya" />
		<tag k="place" v="islet" />
		<tag k="ssr:stedsnr" v="667627" />
	</node>
	<node id="-334896" lat="58.0026333357" lon="7.40090277491">
		<tag k="name" v="Gunningsholman" />
		<tag k="place" v="islet" />
		<tag k="ssr:stedsnr" v="25730" />
	</node>
	<node id="-337237" lat="58.018250002" lon="7.64592499523">
		<tag k="name" v="Homvika" />
		<tag k="natural" v="bay" />
		<tag k="ssr:stedsnr" v="935651" />
	</node>
	<node id="-336555" lat="58.0145277784" lon="7.67180276964">
		<tag k="fixme" v="consider seamark:type=rock or natural=shoal" />
		<tag k="name" v="Svarteskjær" />
		<tag k="place" v="islet" />
		<tag k="ssr:stedsnr" v="692654" />
	</node>
	<node id="-336942" lat="57.9982861093" lon="7.34416665909">
		<tag k="name" v="Østre Drasvik" />
		<tag k="natural" v="bay" />
		<tag k="ssr:stedsnr" v="813807" />
	</node>
	<node id="-336259" lat="58.0310222209" lon="7.33434443761">
		<tag k="name" v="Furneset" />
		<tag k="natural" v="cape" />
		<tag k="ssr:stedsnr" v="572882" />
	</node>
	<node id="-336143" lat="58.0139333322" lon="7.62933332996">
		<tag k="name" v="Veikeholmen" />
		<tag k="place" v="islet" />
		<tag k="ssr:stedsnr" v="570637" />
	</node>
	<node id="-336142" lat="58.0251999981" lon="7.67730832564">
		<tag k="name" v="Brydodden" />
		<tag k="natural" v="cape" />
		<tag k="ssr:stedsnr" v="570562" />
	</node>
	<node id="-336257" lat="58.0119694454" lon="7.41005833095">
		<tag k="name" v="Indre Skjølvåg" />
		<tag k="natural" v="bay" />
		<tag k="ssr:stedsnr" v="572854" />
	</node>
	<node id="-336128" lat="57.9947194426" lon="7.66031111916">
		<tag k="fixme" v="consider seamark:type=rock or natural=shoal" />
		<tag k="name" v="Makrellskjær" />
		<tag k="place" v="islet" />
		<tag k="ssr:stedsnr" v="570301" />
	</node>
	<node id="-336286" lat="58.0033222213" lon="7.65876110348">
		<tag k="alt_name" v="Vestre Stolen" />
		<tag k="name" v="Stolen" />
		<tag k="place" v="islet" />
		<tag k="ssr:stedsnr" v="606084" />
	</node>
	<node id="-336126" lat="57.9782027806" lon="7.63331666668">
		<tag k="name" v="Kuggen" />
		<tag k="natural" v="cape" />
		<tag k="ssr:stedsnr" v="570295" />
	</node>
	<node id="-336125" lat="57.9796694487" lon="7.63392778086">
		<tag k="name" v="Lysebukta" />
		<tag k="natural" v="bay" />
		<tag k="ssr:stedsnr" v="570293" />
	</node>
	<node id="-336124" lat="58.0004305521" lon="7.65108054751">
		<tag k="name" v="Vestre Sauodden" />
		<tag k="natural" v="cape" />
		<tag k="ssr:stedsnr" v="570275" />
	</node>
	<node id="-336121" lat="58.0054027741" lon="7.58232500617">
		<tag k="name" v="Kilen" />
		<tag k="natural" v="bay" />
		<tag k="ssr:stedsnr" v="570241" />
	</node>
	<node id="-336120" lat="58.010716669" lon="7.61261944194">
		<tag k="name" v="Daubukta" />
		<tag k="natural" v="bay" />
		<tag k="ssr:stedsnr" v="570220" />
	</node>
	<node id="-336119" lat="57.9776027807" lon="7.53269721851">
		<tag k="name" v="Minebukta" />
		<tag k="natural" v="bay" />
		<tag k="ssr:stedsnr" v="570097" />
	</node>
	<node id="-336118" lat="57.970391664" lon="7.60823611237">
		<tag k="name" v="Sjurstø" />
		<tag k="natural" v="beach" />
		<tag k="place" v="locality" />
		<tag k="ssr:stedsnr" v="570083" />
	</node>
	<node id="-336117" lat="57.9933722204" lon="7.55081943701">
		<tag k="name" v="Falskholmen" />
		<tag k="place" v="islet" />
		<tag k="ssr:stedsnr" v="570054" />
	</node>
	<node id="-334431" lat="58.0253277786" lon="7.3538222195">
		<tag k="fixme" v="consider seamark:type=rock or natural=shoal" />
		<tag k="name" v="Rottesteinen" />
		<tag k="place" v="islet" />
		<tag k="ssr:stedsnr" v="329862" />
	</node>
	<node id="-336253" lat="57.9594555561" lon="7.3396138834">
		<tag k="name" v="Åsgargrunnen" />
		<tag k="natural" v="shoal" />
		<tag k="place" v="locality" />
		<tag k="ssr:stedsnr" v="572516" />
	</node>
	<node id="-334546" lat="58.0020166676" lon="7.32729443955">
		<tag k="name" v="Maursundet" />
		<tag k="natural" v="strait" />
		<tag k="ssr:stedsnr" v="388831" />
	</node>
	<node id="-336933" lat="58.0434444482" lon="7.63507500738">
		<tag k="name" v="Eidskilen" />
		<tag k="natural" v="bay" />
		<tag k="ssr:stedsnr" v="813726" />
	</node>
	<node id="-336280" lat="57.9900000028" lon="7.38324166461">
		<tag k="name" v="Naudholmen" />
		<tag k="place" v="islet" />
		<tag k="ssr:stedsnr" v="606033" />
	</node>
	<node id="-336631" lat="58.0067333307" lon="7.42697499992">
		<tag k="name" v="Leisundholmen" />
		<tag k="place" v="islet" />
		<tag k="ssr:stedsnr" v="693775" />
	</node>
	<node id="-336249" lat="57.9796611116" lon="7.61733056101">
		<tag k="name" v="Mergelbukta" />
		<tag k="natural" v="bay" />
		<tag k="ssr:stedsnr" v="572432" />
	</node>
	<node id="-336084" lat="58.0023777808" lon="7.32589999766">
		<tag k="name" v="Mauren" />
		<tag k="place" v="islet" />
		<tag k="ssr:stedsnr" v="546593" />
	</node>
	<node id="-334542" lat="57.9978694422" lon="7.32628611811">
		<tag k="name" v="Kubramssundet" />
		<tag k="natural" v="strait" />
		<tag k="ssr:stedsnr" v="388798" />
	</node>
	<node id="-336082" lat="57.98060278" lon="7.68889166423">
		<tag k="fixme" v="consider seamark:type=rock or natural=shoal" />
		<tag k="name" v="Ballastskjeran" />
		<tag k="place" v="islet" />
		<tag k="ssr:stedsnr" v="546068" />
	</node>
	<node id="-336081" lat="57.9793916663" lon="7.58545000698">
		<tag k="alt_name" v="Naudskjær" />
		<tag k="fixme" v="consider seamark:type=rock or natural=shoal" />
		<tag k="name" v="Nautskjer" />
		<tag k="place" v="islet" />
		<tag k="ssr:stedsnr" v="546060" />
	</node>
	<node id="-336079" lat="57.9756250002" lon="7.50075554989">
		<tag k="fixme" v="consider seamark:type=rock or natural=shoal" />
		<tag k="name" v="Eigelandsskjeran" />
		<tag k="place" v="islet" />
		<tag k="ssr:stedsnr" v="541860" />
	</node>
	<node id="-336078" lat="57.9621972216" lon="7.54051111146">
		<tag k="fixme" v="consider seamark:type=rock or natural=shoal" />
		<tag k="name" v="Østre Kråga" />
		<tag k="place" v="islet" />
		<tag k="ssr:stedsnr" v="541851" />
	</node>
	<node id="-336077" lat="57.9721333328" lon="7.54589166136">
		<tag k="fixme" v="consider seamark:type=rock or natural=shoal" />
		<tag k="name" v="Svartskjer" />
		<tag k="place" v="islet" />
		<tag k="ssr:stedsnr" v="541849" />
	</node>
	<node id="-336076" lat="58.0212472215" lon="7.4801388893">
		<tag k="name" v="Smiodden" />
		<tag k="natural" v="cape" />
		<tag k="ssr:stedsnr" v="541088" />
	</node>
	<node id="-336074" lat="58.0126194465" lon="7.64690555459">
		<tag k="fixme" v="consider seamark:type=rock or natural=shoal" />
		<tag k="name" v="Ladderøyskjera" />
		<tag k="place" v="islet" />
		<tag k="ssr:stedsnr" v="540957" />
	</node>
	<node id="-336247" lat="57.9804722183" lon="7.60198332707">
		<tag k="name" v="Steinholmen" />
		<tag k="place" v="islet" />
		<tag k="ssr:stedsnr" v="572426" />
	</node>
	<node id="-336069" lat="58.0168166672" lon="7.38544166664">
		<tag k="name" v="Kasseholmen" />
		<tag k="place" v="islet" />
		<tag k="ssr:stedsnr" v="512915" />
	</node>
	<node id="-336068" lat="58.0170722248" lon="7.35981110657">
		<tag k="name" v="Småholman" />
		<tag k="place" v="island" />
		<tag k="ssr:stedsnr" v="512912" />
	</node>
	<node id="-337269" lat="58.0182666633" lon="7.40577500855">
		<tag k="name" v="Nesodden" />
		<tag k="natural" v="cape" />
		<tag k="ssr:stedsnr" v="934999" />
	</node>
	<node id="-334506" lat="58.0008083331" lon="7.54411944445">
		<tag k="name" v="Trettholmen" />
		<tag k="place" v="islet" />
		<tag k="ssr:stedsnr" v="388385" />
	</node>
	<node id="-336058" lat="57.9916416671" lon="7.33989445262">
		<tag k="name" v="Lille Åskot" />
		<tag k="place" v="islet" />
		<tag k="ssr:stedsnr" v="511925" />
	</node>
	<node id="-336057" lat="58.0339583352" lon="7.33315832715">
		<tag k="name" v="Flatebukta" />
		<tag k="natural" v="bay" />
		<tag k="ssr:stedsnr" v="511915" />
	</node>
	<node id="-336056" lat="58.0387999959" lon="7.32478610973">
		<tag k="name" v="Skråodden" />
		<tag k="natural" v="cape" />
		<tag k="ssr:stedsnr" v="511910" />
	</node>
	<node id="-336053" lat="57.9927083347" lon="7.37736666321">
		<tag k="name" v="Østre bukta" />
		<tag k="natural" v="bay" />
		<tag k="ssr:stedsnr" v="511890" />
	</node>
	<node id="-336052" lat="58.0270638927" lon="7.34307500331">
		<tag k="name" v="Østre Stingnebb" />
		<tag k="natural" v="cape" />
		<tag k="ssr:stedsnr" v="511878" />
	</node>
	<node id="-336050" lat="58.0200472263" lon="7.33663888978">
		<tag k="name" v="Ramsøysundet" />
		<tag k="natural" v="strait" />
		<tag k="ssr:stedsnr" v="511868" />
	</node>
	<node id="-336049" lat="58.0206750017" lon="7.34126388271">
		<tag k="fixme" v="consider seamark:type=rock or natural=shoal" />
		<tag k="name" v="Lille Bordstolen" />
		<tag k="place" v="islet" />
		<tag k="ssr:stedsnr" v="511860" />
	</node>
	<node id="-336047" lat="58.0133527754" lon="7.40644999904">
		<tag k="bay" v="fjord" />
		<tag k="name" v="Søndrekilen" />
		<tag k="natural" v="bay" />
		<tag k="ssr:stedsnr" v="511825" />
	</node>
	<node id="-336046" lat="58.0208222194" lon="7.40483333734">
		<tag k="name" v="Søylekilen" />
		<tag k="natural" v="bay" />
		<tag k="ssr:stedsnr" v="511802" />
	</node>
	<node id="-336041" lat="58.0364444478" lon="7.42945833724">
		<tag k="name" v="Furuholmen" />
		<tag k="place" v="islet" />
		<tag k="ssr:stedsnr" v="511659" />
	</node>
	<node id="-336040" lat="57.9895555546" lon="7.44154444066">
		<tag k="alt_name" v="Storøyskjæran" />
		<tag k="fixme" v="consider seamark:type=rock or natural=shoal" />
		<tag k="name" v="Storøyskjeran" />
		<tag k="place" v="islet" />
		<tag k="ssr:stedsnr" v="511630" />
	</node>
	<node id="-336241" lat="58.0406416662" lon="7.41841667119">
		<tag k="name" v="Lille Valleholmen" />
		<tag k="place" v="islet" />
		<tag k="ssr:stedsnr" v="572216" />
	</node>
	<node id="-336036" lat="58.0161749992" lon="7.67041943853">
		<tag k="name" v="Tånesholmen" />
		<tag k="place" v="islet" />
		<tag k="ssr:stedsnr" v="511606" />
	</node>
	<node id="-336035" lat="57.9739527792" lon="7.54319721515">
		<tag k="name" v="Småholman" />
		<tag k="place" v="islet" />
		<tag k="ssr:stedsnr" v="511600" />
	</node>
	<node id="-336034" lat="58.0111805594" lon="7.60584722799">
		<tag k="name" v="Rivenesholmen" />
		<tag k="place" v="islet" />
		<tag k="ssr:stedsnr" v="511589" />
	</node>
	<node id="-336449" lat="58.0163749962" lon="7.4059277697">
		<tag k="name" v="Øyodden" />
		<tag k="natural" v="cape" />
		<tag k="ssr:stedsnr" v="632811" />
	</node>
	<node id="-336029" lat="57.9783555524" lon="7.60089721625">
		<tag k="fixme" v="consider seamark:type=rock or natural=shoal" />
		<tag k="name" v="Knutskjæran" />
		<tag k="place" v="islet" />
		<tag k="ssr:stedsnr" v="511393" />
	</node>
	<node id="-336027" lat="57.9868083327" lon="7.58131944859">
		<tag k="name" v="Kasterfjellholmen" />
		<tag k="place" v="islet" />
		<tag k="ssr:stedsnr" v="511390" />
	</node>
	<node id="-336026" lat="57.9850638876" lon="7.60668333346">
		<tag k="name" v="Brattholmsundet" />
		<tag k="natural" v="strait" />
		<tag k="ssr:stedsnr" v="511387" />
	</node>
	<node id="-336025" lat="58.02266389" lon="7.62087500613">
		<tag k="name" v="Hattholmen" />
		<tag k="place" v="islet" />
		<tag k="ssr:stedsnr" v="511330" />
	</node>
	<node id="-336017" lat="58.0120861151" lon="7.48020832608">
		<tag k="name" v="Karisodden" />
		<tag k="natural" v="cape" />
		<tag k="ssr:stedsnr" v="511244" />
	</node>
	<node id="-336004" lat="57.9914305555" lon="7.56011389333">
		<tag k="name" v="Løbukta" />
		<tag k="natural" v="bay" />
		<tag k="ssr:stedsnr" v="511130" />
	</node>
	<node id="-336003" lat="57.9880611096" lon="7.54440278458">
		<tag k="name" v="Flatemed" />
		<tag k="natural" v="cape" />
		<tag k="ssr:stedsnr" v="511122" />
	</node>
	<node id="-336235" lat="58.0157194457" lon="7.33919167122">
		<tag k="name" v="Teistholmen" />
		<tag k="place" v="islet" />
		<tag k="ssr:stedsnr" v="571923" />
	</node>
	<node id="-335999" lat="57.9690972258" lon="7.54190556328">
		<tag k="name" v="Hesteraua" />
		<tag k="natural" v="cape" />
		<tag k="ssr:stedsnr" v="511049" />
	</node>
	<node id="-335998" lat="57.9601666697" lon="7.56558055953">
		<tag k="fixme" v="consider seamark:type=rock or natural=shoal" />
		<tag k="name" v="Kraslesteinan" />
		<tag k="place" v="islet" />
		<tag k="ssr:stedsnr" v="511045" />
	</node>
	<node id="-335997" lat="57.9682277765" lon="7.57882778059">
		<tag k="bay" v="fjord" />
		<tag k="name" v="Oddfjorden" />
		<tag k="natural" v="bay" />
		<tag k="ssr:stedsnr" v="511038" />
	</node>
	<node id="-335995" lat="57.9926805516" lon="7.49381944451">
		<tag k="name" v="Gillerodden" />
		<tag k="natural" v="cape" />
		<tag k="ssr:stedsnr" v="511013" />
	</node>
	<node id="-335994" lat="57.984586113" lon="7.51130000055">
		<tag k="name" v="Englevika" />
		<tag k="natural" v="bay" />
		<tag k="ssr:stedsnr" v="511002" />
	</node>
	<node id="-336233" lat="57.9941388856" lon="7.3356777695">
		<tag k="name" v="Smellen" />
		<tag k="place" v="locality" />
		<tag k="ssr:stedsnr" v="571920" />
	</node>
	<node id="-335980" lat="58.0088194463" lon="7.34318332651">
		<tag k="name" v="Kråkenesbukta" />
		<tag k="natural" v="bay" />
		<tag k="ssr:stedsnr" v="510878" />
	</node>
	<node id="-335979" lat="58.001802781" lon="7.30932222772">
		<tag k="name" v="Lillekjorten" />
		<tag k="place" v="islet" />
		<tag k="ssr:stedsnr" v="510876" />
	</node>
	<node id="-335976" lat="57.9929750015" lon="7.42693611531">
		<tag k="name" v="Indre Vrakkroa" />
		<tag k="natural" v="bay" />
		<tag k="ssr:stedsnr" v="510825" />
	</node>
	<node id="-335975" lat="57.9904222214" lon="7.43632221886">
		<tag k="name" v="Kongshavn" />
		<tag k="natural" v="bay" />
		<tag k="ssr:stedsnr" v="510826" />
	</node>
	<node id="-336435" lat="58.001916667" lon="7.5369333341">
		<tag k="fixme" v="consider seamark:type=rock or natural=shoal" />
		<tag k="name" v="Torsteinholmboen" />
		<tag k="place" v="islet" />
		<tag k="ssr:stedsnr" v="632404" />
	</node>
	<node id="-335966" lat="58.0049750015" lon="7.37526388849">
		<tag k="name" v="Holmen i Våa" />
		<tag k="place" v="islet" />
		<tag k="ssr:stedsnr" v="510783" />
	</node>
	<node id="-335964" lat="58.0098722217" lon="7.4021083325">
		<tag k="name" v="Jentevika" />
		<tag k="natural" v="bay" />
		<tag k="ssr:stedsnr" v="510780" />
	</node>
	<node id="-335963" lat="58.0139444483" lon="7.41220278379">
		<tag k="name" v="Rona" />
		<tag k="natural" v="bay" />
		<tag k="ssr:stedsnr" v="510770" />
	</node>
	<node id="-335959" lat="58.0130472265" lon="7.37682500732">
		<tag k="fixme" v="consider seamark:type=rock or natural=shoal" />
		<tag k="name" v="Glåna" />
		<tag k="place" v="islet" />
		<tag k="ssr:stedsnr" v="510756" />
	</node>
	<node id="-335958" lat="58.0110611103" lon="7.40090000425">
		<tag k="name" v="Dørje" />
		<tag k="natural" v="beach" />
		<tag k="place" v="locality" />
		<tag k="ssr:stedsnr" v="510751" />
	</node>
	<node id="-336569" lat="57.9980999996" lon="7.39710278158">
		<tag k="name" v="Steinsøyhavnen" />
		<tag k="natural" v="bay" />
		<tag k="ssr:stedsnr" v="692854" />
	</node>
	<node id="-337185" lat="57.9625055535" lon="7.50123333489">
		<tag k="alt_name" v="Makrelskjer" />
		<tag k="fixme" v="consider seamark:type=rock or natural=shoal" />
		<tag k="name" v="Makrellskjær" />
		<tag k="place" v="islet" />
		<tag k="ssr:stedsnr" v="875632" />
	</node>
	<node id="-335954" lat="57.9986583293" lon="7.4090666703">
		<tag k="name" v="Fudeholmen" />
		<tag k="place" v="islet" />
		<tag k="ssr:stedsnr" v="510705" />
	</node>
	<node id="-335953" lat="58.0024527754" lon="7.65929165912">
		<tag k="fixme" v="consider seamark:type=rock or natural=shoal" />
		<tag k="name" v="Stolskjær" />
		<tag k="place" v="islet" />
		<tag k="ssr:stedsnr" v="510690" />
	</node>
	<node id="-335952" lat="58.0063666677" lon="7.64979165948">
		<tag k="name" v="Leiholmsboen" />
		<tag k="place" v="locality" />
		<tag k="seamark:type" v="rock" />
		<tag k="ssr:stedsnr" v="510687" />
	</node>
	<node id="-335951" lat="58.0145416701" lon="7.66121111129">
		<tag k="name" v="Løkkevika" />
		<tag k="natural" v="bay" />
		<tag k="ssr:stedsnr" v="510686" />
	</node>
	<node id="-335949" lat="58.0160361117" lon="7.62974721484">
		<tag k="name" v="Smalsundet" />
		<tag k="natural" v="strait" />
		<tag k="ssr:stedsnr" v="510673" />
	</node>
	<node id="-335940" lat="58.0019972205" lon="7.52453889423">
		<tag k="name" v="Juvikholmen" />
		<tag k="place" v="islet" />
		<tag k="ssr:stedsnr" v="510423" />
	</node>
	<node id="-335939" lat="58.0033361084" lon="7.54203054933">
		<tag k="name" v="Lyngholmen" />
		<tag k="place" v="islet" />
		<tag k="ssr:stedsnr" v="510416" />
	</node>
	<node id="-335936" lat="57.9602527758" lon="7.61555000042">
		<tag k="name" v="Sydostboen" />
		<tag k="place" v="locality" />
		<tag k="seamark:type" v="rock" />
		<tag k="ssr:stedsnr" v="510391" />
	</node>
	<node id="-335935" lat="57.9635583308" lon="7.61219166826">
		<tag k="name" v="Langeboen" />
		<tag k="place" v="locality" />
		<tag k="seamark:type" v="rock" />
		<tag k="ssr:stedsnr" v="510390" />
	</node>
	<node id="-335933" lat="57.9757805582" lon="7.68226110943">
		<tag k="fixme" v="consider seamark:type=rock or natural=shoal" />
		<tag k="name" v="Naudskjær" />
		<tag k="place" v="islet" />
		<tag k="ssr:stedsnr" v="510325" />
	</node>
	<node id="-335931" lat="58.0001166706" lon="7.64354444487">
		<tag k="name" v="Glefsa" />
		<tag k="natural" v="cape" />
		<tag k="ssr:stedsnr" v="510312" />
	</node>
	<node id="-335930" lat="57.9956055585" lon="7.66120555871">
		<tag k="fixme" v="consider seamark:type=rock or natural=shoal" />
		<tag k="name" v="Morteskjær" />
		<tag k="place" v="islet" />
		<tag k="ssr:stedsnr" v="510310" />
	</node>
	<node id="-336223" lat="58.0183027817" lon="7.46052500636">
		<tag k="name" v="Ulvsvika" />
		<tag k="natural" v="bay" />
		<tag k="ssr:stedsnr" v="571715" />
	</node>
	<node id="-335928" lat="58.0095888869" lon="7.59415555052">
		<tag k="name" v="Langholman" />
		<tag k="place" v="island" />
		<tag k="ssr:stedsnr" v="510259" />
	</node>
	<node id="-335924" lat="57.9660416669" lon="7.54261943981">
		<tag k="fixme" v="consider seamark:type=rock or natural=shoal" />
		<tag k="name" v="Skjæran i renna" />
		<tag k="place" v="islet" />
		<tag k="ssr:stedsnr" v="510084" />
	</node>
	<node id="-335923" lat="57.9677250002" lon="7.54753055818">
		<tag k="name" v="Pepperskjærbukta" />
		<tag k="natural" v="bay" />
		<tag k="ssr:stedsnr" v="510076" />
	</node>
	<node id="-335922" lat="57.9656805586" lon="7.52507500762">
		<tag k="name" v="Ytre Kvelerodden" />
		<tag k="natural" v="cape" />
		<tag k="ssr:stedsnr" v="510074" />
	</node>
	<node id="-335920" lat="58.0161305587" lon="7.62593611769">
		<tag k="name" v="Østre Søylekilen" />
		<tag k="natural" v="bay" />
		<tag k="ssr:stedsnr" v="509950" />
	</node>
	<node id="-336479" lat="57.9873972208" lon="7.38876111179">
		<tag k="fixme" v="consider seamark:type=rock or natural=shoal" />
		<tag k="name" v="Tungeskjeran" />
		<tag k="place" v="islet" />
		<tag k="ssr:stedsnr" v="667049" />
	</node>
	<node id="-335906" lat="58.0234805585" lon="7.65586944743">
		<tag k="fixme" v="consider seamark:type=rock or natural=shoal" />
		<tag k="name" v="Svartskjær" />
		<tag k="place" v="islet" />
		<tag k="ssr:stedsnr" v="509582" />
	</node>
	<node id="-336001" lat="57.9899638864" lon="7.53500833566">
		<tag k="name" v="Rosnesvågen" />
		<tag k="natural" v="bay" />
		<tag k="ssr:stedsnr" v="511111" />
	</node>
	<node id="-337242" lat="57.9882611096" lon="7.62018889154">
		<tag k="name" v="Eggværsund" />
		<tag k="natural" v="strait" />
		<tag k="ssr:stedsnr" v="934350" />
	</node>
	<node id="-335898" lat="57.9757138865" lon="7.61239721947">
		<tag k="name" v="Langevika" />
		<tag k="natural" v="bay" />
		<tag k="ssr:stedsnr" v="509338" />
	</node>
	<node id="-335897" lat="57.9707166683" lon="7.60566110536">
		<tag k="name" v="Langodden" />
		<tag k="natural" v="cape" />
		<tag k="ssr:stedsnr" v="509337" />
	</node>
	<node id="-335896" lat="57.9713722229" lon="7.6113916595">
		<tag k="name" v="Sør Pershola" />
		<tag k="natural" v="bay" />
		<tag k="ssr:stedsnr" v="509332" />
	</node>
	<node id="-335895" lat="57.9981500041" lon="7.54382499732">
		<tag k="name" v="Spegelaksen" />
		<tag k="natural" v="cape" />
		<tag k="ssr:stedsnr" v="509289" />
	</node>
	<node id="-335894" lat="57.9805555592" lon="7.53384444247">
		<tag k="name" v="Slyhola" />
		<tag k="natural" v="bay" />
		<tag k="ssr:stedsnr" v="509098" />
	</node>
	<node id="-335891" lat="57.978894444" lon="7.5540138847">
		<tag k="name" v="Radebukta" />
		<tag k="natural" v="bay" />
		<tag k="ssr:stedsnr" v="509086" />
	</node>
	<node id="-335887" lat="58.0440694421" lon="7.41451388298">
		<tag k="bay" v="fjord" />
		<tag k="name" v="Skogsfjorden" />
		<tag k="natural" v="bay" />
		<tag k="ssr:stedsnr" v="485993" />
	</node>
	<node id="-337173" lat="58.0055888879" lon="7.43121666323">
		<tag k="name" v="Indre Teisholman" />
		<tag k="place" v="island" />
		<tag k="ssr:stedsnr" v="875751" />
	</node>
	<node id="-335879" lat="58.0051250038" lon="7.59780278163">
		<tag k="name" v="Ørpeholmen" />
		<tag k="old_name" v="Skogsøy" />
		<tag k="place" v="island" />
		<tag k="ssr:stedsnr" v="485686" />
	</node>
	<node id="-337364" lat="58.0042638913" lon="7.59564443823">
		<tag k="name" v="Ytre Ørpegapet" />
		<tag k="natural" v="strait" />
		<tag k="ssr:stedsnr" v="936319" />
	</node>
</osm>
