<?xml version="1.0" encoding="UTF-8"?>
<osm generator="osmapis" version="0.6">
	<node id="-336639" lat="57.9986527742" lon="7.53343056016">
		<tag k="man_made" v="quay" />
		<tag k="name" v="Bergstøbrygga" />
		<tag k="place" v="locality" />
		<tag k="ssr:stedsnr" v="693943" />
	</node>
	<node id="-334843" lat="58.1016305591" lon="7.43650277694">
		<tag k="bridge" v="yes" />
		<tag k="layer" v="1" />
		<tag k="name" v="Ronebrua" />
		<tag k="ssr:stedsnr" v="24705" />
	</node>
	<node id="-337400" lat="58.0337999966" lon="7.47314445228">
		<tag k="bridge" v="yes" />
		<tag k="layer" v="1" />
		<tag k="name" v="Buøy" />
		<tag k="ssr:stedsnr" v="955165" />
	</node>
	<node id="-335862" lat="58.0272333342" lon="7.45961111109">
		<tag k="bridge" v="yes" />
		<tag k="layer" v="1" />
		<tag k="name" v="Mandal" />
		<tag k="ssr:stedsnr" v="470138" />
	</node>
	<node id="-335861" lat="58.024719445" lon="7.46556388177">
		<tag k="bridge" v="yes" />
		<tag k="layer" v="1" />
		<tag k="name" v="Fiskåbekk kulvert" />
		<tag k="ssr:stedsnr" v="470136" />
	</node>
	<node id="-335860" lat="58.0191972177" lon="7.47609444216">
		<tag k="bridge" v="yes" />
		<tag k="layer" v="1" />
		<tag k="name" v="Gismerøy" />
		<tag k="ssr:stedsnr" v="470134" />
	</node>
	<node id="-335859" lat="58.029827776" lon="7.47595554853">
		<tag k="bridge" v="yes" />
		<tag k="layer" v="1" />
		<tag k="name" v="Skinsnes" />
		<tag k="ssr:stedsnr" v="470125" />
	</node>
	<node id="-335728" lat="58.0998611118" lon="7.55185555411">
		<tag k="alt_name" v="Røyseland" />
		<tag k="bridge" v="yes" />
		<tag k="layer" v="1" />
		<tag k="name" v="Kvernebrua" />
		<tag k="ssr:stedsnr" v="449518" />
	</node>
	<node id="-336367" lat="58.015211109" lon="7.43126944664">
		<tag k="man_made" v="quay" />
		<tag k="name" v="Verksbrygga" />
		<tag k="place" v="locality" />
		<tag k="ssr:stedsnr" v="631742" />
	</node>
	<node id="-334444" lat="58.048786108" lon="7.39921111426">
		<tag k="bridge" v="yes" />
		<tag k="layer" v="1" />
		<tag k="name" v="Ålegard" />
		<tag k="ssr:stedsnr" v="349166" />
	</node>
	<node id="-334443" lat="58.1011111115" lon="7.53542222435">
		<tag k="bridge" v="yes" />
		<tag k="layer" v="1" />
		<tag k="name" v="Nøding" />
		<tag k="ssr:stedsnr" v="348168" />
	</node>
	<node id="-335082" lat="58.0277222237" lon="7.45706945244">
		<tag k="man_made" v="quay" />
		<tag k="name" v="Fiskebrygga" />
		<tag k="place" v="locality" />
		<tag k="ssr:stedsnr" v="86141" />
	</node>
	<node id="-336608" lat="58.0437861071" lon="7.4318444431">
		<tag k="fixme" v="consider highway=path" />
		<tag k="highway" v="track" />
		<tag k="name" v="Stavvollveien" />
		<tag k="ssr:stedsnr" v="693214" />
	</node>
	<node id="-335326" lat="57.9934666677" lon="7.58958611268">
		<tag k="man_made" v="quay" />
		<tag k="name" v="Nordstranda" />
		<tag k="place" v="locality" />
		<tag k="ssr:stedsnr" v="147630" />
	</node>
	<node id="-334556" lat="58.1212361111" lon="7.52968332516">
		<tag k="bridge" v="yes" />
		<tag k="layer" v="1" />
		<tag k="name" v="Stoveland bru" />
		<tag k="ssr:stedsnr" v="388911" />
	</node>
	<node id="-335323" lat="58.0547666628" lon="7.56124166382">
		<tag k="fixme" v="consider highway=path" />
		<tag k="highway" v="track" />
		<tag k="name" v="Tjønndalsveien" />
		<tag k="ssr:stedsnr" v="147478" />
	</node>
	<node id="-336474" lat="58.0933361152" lon="7.62453333831">
		<tag k="bridge" v="yes" />
		<tag k="layer" v="1" />
		<tag k="name" v="Døle" />
		<tag k="ssr:stedsnr" v="652124" />
	</node>
	<node id="-336601" lat="58.0202638872" lon="7.42971389394">
		<tag k="alt_name" v="Banke bru" />
		<tag k="bridge" v="yes" />
		<tag k="layer" v="1" />
		<tag k="name" v="Bankebroa" />
		<tag k="ssr:stedsnr" v="693176" />
	</node>
	<node id="-334808" lat="58.0081638929" lon="7.53630000605">
		<tag k="leisure" v="marina" />
		<tag k="name" v="Åmlandsstranda" />
		<tag k="ssr:stedsnr" v="24391" />
	</node>
	<node id="-334678" lat="57.9941275586" lon="7.42500085206">
		<tag k="landuse" v="harbour" />
		<tag k="name" v="Havnen" />
		<tag k="seamark:type" v="harbour" />
		<tag k="ssr:stedsnr" v="984659" />
	</node>
	<node id="-335061" lat="58.1469888858" lon="7.54188333887">
		<tag k="highway" v="path" />
		<tag k="name" v="Aksteveien" />
		<tag k="ssr:stedsnr" v="85877" />
	</node>
	<node id="-334673" lat="58.0125318749" lon="7.42954912902">
		<tag k="name" v="Bankefjorden" />
		<tag k="place" v="locality" />
		<tag k="ssr:stedsnr" v="984578" />
	</node>
	<node id="-335565" lat="58.0078055594" lon="7.52683610346">
		<tag k="leisure" v="marina" />
		<tag k="name" v="Kigestranda" />
		<tag k="ssr:stedsnr" v="267369" />
	</node>
	<node id="-334666" lat="58.0232290371" lon="7.45719483513">
		<tag k="man_made" v="quay" />
		<tag k="name" v="Lohnes brygge" />
		<tag k="place" v="locality" />
		<tag k="ssr:stedsnr" v="984486" />
	</node>
	<node id="-336841" lat="58.0651166708" lon="7.48487778266">
		<tag k="bridge" v="yes" />
		<tag k="layer" v="1" />
		<tag k="name" v="Haddeland" />
		<tag k="ssr:stedsnr" v="773181" />
	</node>
	<node id="-336072" lat="58.1307305526" lon="7.48354721683">
		<tag k="bridge" v="yes" />
		<tag k="layer" v="1" />
		<tag k="name" v="Solås" />
		<tag k="ssr:stedsnr" v="530186" />
	</node>
	<node id="-336839" lat="58.0727416622" lon="7.51347221466">
		<tag k="bridge" v="yes" />
		<tag k="layer" v="1" />
		<tag k="name" v="Unndalsvassbekk" />
		<tag k="ssr:stedsnr" v="773173" />
	</node>
	<node id="-336838" lat="58.0305138854" lon="7.46960556243">
		<tag k="bridge" v="yes" />
		<tag k="layer" v="1" />
		<tag k="name" v="Skarvøy" />
		<tag k="ssr:stedsnr" v="773166" />
	</node>
	<node id="-335821" lat="57.9895000043" lon="7.59501945253">
		<tag k="man_made" v="quay" />
		<tag k="name" v="Sørstranda" />
		<tag k="place" v="locality" />
		<tag k="ssr:stedsnr" v="450604" />
	</node>
	<node id="-336748" lat="58.0968166708" lon="7.60385000151">
		<tag k="highway" v="path" />
		<tag k="name" v="Smalekleiva" />
		<tag k="ssr:stedsnr" v="752786" />
	</node>
	<node id="-336829" lat="58.1505250031" lon="7.52298332931">
		<tag k="bridge" v="yes" />
		<tag k="layer" v="1" />
		<tag k="name" v="Ronebru" />
		<tag k="ssr:stedsnr" v="754906" />
	</node>
	<node id="-336842" lat="58.0274055572" lon="7.40353611313">
		<tag k="bridge" v="yes" />
		<tag k="layer" v="1" />
		<tag k="name" v="Rennes" />
		<tag k="ssr:stedsnr" v="773183" />
	</node>
	<node id="-336239" lat="58.0222500026" lon="7.42395833991">
		<tag k="leisure" v="marina" />
		<tag k="name" v="Nordstranda" />
		<tag k="ssr:stedsnr" v="572184" />
	</node>
	<node id="-336475" lat="58.037072219" lon="7.48239722481">
		<tag k="bridge" v="yes" />
		<tag k="layer" v="1" />
		<tag k="name" v="Ormestad Armcorør" />
		<tag k="ssr:stedsnr" v="652128" />
	</node>
	<node id="-334644" lat="58.0620499987" lon="7.50663611545">
		<tag k="bridge" v="yes" />
		<tag k="layer" v="1" />
		<tag k="name" v="Sodeland" />
		<tag k="ssr:stedsnr" v="895144" />
	</node>
	<node id="-335155" lat="58.0614499974" lon="7.39461666388">
		<tag k="bridge" v="yes" />
		<tag k="layer" v="1" />
		<tag k="name" v="Rossehagen" />
		<tag k="ssr:stedsnr" v="106147" />
	</node>
	<node id="-337073" lat="58.0554333334" lon="7.58246666232">
		<tag k="alt_name" v="Røyrsund" />
		<tag k="bridge" v="yes" />
		<tag k="layer" v="1" />
		<tag k="name" v="Rørsundbrua" />
		<tag k="ssr:stedsnr" v="874309" />
	</node>
	<node id="-334640" lat="58.122222219" lon="7.51730000265">
		<tag k="bridge" v="yes" />
		<tag k="layer" v="1" />
		<tag k="name" v="Fodnebø" />
		<tag k="ssr:stedsnr" v="409185" />
	</node>
	<node id="-336840" lat="58.116255552" lon="7.53827221826">
		<tag k="bridge" v="yes" />
		<tag k="layer" v="1" />
		<tag k="name" v="Bringsdal" />
		<tag k="ssr:stedsnr" v="773177" />
	</node>
	<node id="-334638" lat="58.036263893" lon="7.50908889245">
		<tag k="bridge" v="yes" />
		<tag k="layer" v="1" />
		<tag k="name" v="Berge" />
		<tag k="ssr:stedsnr" v="409172" />
	</node>
	<node id="-334637" lat="58.030799999" lon="7.46788056241">
		<tag k="layer" v="-1" />
		<tag k="name" v="Kirkeheitunnelen" />
		<tag k="ssr:stedsnr" v="408279" />
		<tag k="tunnel" v="yes" />
	</node>
	<node id="-336327" lat="58.0536083296" lon="7.39413334193">
		<tag k="alt_name" v="Frostestad" />
		<tag k="bridge" v="yes" />
		<tag k="layer" v="1" />
		<tag k="name" v="Grautebrua" />
		<tag k="ssr:stedsnr" v="630783" />
	</node>
	<node id="-335524" lat="58.0362444476" lon="7.51973333291">
		<tag k="bridge" v="yes" />
		<tag k="layer" v="1" />
		<tag k="name" v="Storbekken" />
		<tag k="ssr:stedsnr" v="227160" />
	</node>
	<node id="-334242" lat="58.0567083354" lon="7.36528332989">
		<tag k="bridge" v="yes" />
		<tag k="layer" v="1" />
		<tag k="name" v="Fasselandsvannet" />
		<tag k="ssr:stedsnr" v="288155" />
	</node>
	<node id="-334241" lat="58.1296500012" lon="7.53011943851">
		<tag k="bridge" v="yes" />
		<tag k="layer" v="1" />
		<tag k="name" v="Smeland Armcorør" />
		<tag k="ssr:stedsnr" v="288151" />
	</node>
	<node id="-336414" lat="58.0249527819" lon="7.45177500508">
		<tag k="man_made" v="quay" />
		<tag k="name" v="Nybrygga" />
		<tag k="place" v="locality" />
		<tag k="ssr:stedsnr" v="632172" />
	</node>
	<node id="-335002" lat="58.0930472254" lon="7.62499166374">
		<tag k="junction" v="yes" />
		<tag k="name" v="Døle bru" />
		<tag k="place" v="locality" />
		<tag k="ssr:stedsnr" v="85086" />
	</node>
	<node id="-335642" lat="58.0182277809" lon="7.48011944691">
		<tag k="man_made" v="quay" />
		<tag k="name" v="Brygga" />
		<tag k="place" v="locality" />
		<tag k="ssr:stedsnr" v="268216" />
	</node>
	<node id="-334639" lat="58.0298500024" lon="7.46933889243">
		<tag k="bridge" v="yes" />
		<tag k="layer" v="1" />
		<tag k="name" v="Skåran" />
		<tag k="ssr:stedsnr" v="409180" />
	</node>
	<node id="-337011" lat="58.0255527771" lon="7.65557221745">
		<tag k="fixme" v="verify maritime location" />
		<tag k="mooring" v="yes" />
		<tag k="name" v="Tømmerstø" />
		<tag k="place" v="locality" />
		<tag k="ssr:stedsnr" v="815628" />
	</node>
	<node id="-334965" lat="58.0483861148" lon="7.40050555103">
		<tag k="bridge" v="yes" />
		<tag k="layer" v="1" />
		<tag k="name" v="Skogsfjord" />
		<tag k="ssr:stedsnr" v="45147" />
	</node>
	<node id="-336659" lat="58.0776972239" lon="7.51555834068">
		<tag k="bridge" v="yes" />
		<tag k="layer" v="1" />
		<tag k="name" v="Langeland" />
		<tag k="ssr:stedsnr" v="713155" />
	</node>
	<node id="-336658" lat="58.0606027748" lon="7.50654999945">
		<tag k="bridge" v="yes" />
		<tag k="layer" v="1" />
		<tag k="name" v="Sodeland" />
		<tag k="ssr:stedsnr" v="713146" />
	</node>
	<node id="-336472" lat="58.0974888879" lon="7.53118888587">
		<tag k="alt_name" v="Møll" />
		<tag k="bridge" v="yes" />
		<tag k="layer" v="1" />
		<tag k="name" v="Møll bru" />
		<tag k="ssr:stedsnr" v="633936" />
	</node>
	<node id="-336269" lat="58.0522277764" lon="7.57977499579">
		<tag k="bridge" v="yes" />
		<tag k="layer" v="1" />
		<tag k="name" v="Glubekilen" />
		<tag k="ssr:stedsnr" v="591133" />
	</node>
	<node id="-334658" lat="58.0084332751" lon="7.44888849298">
		<tag k="name" v="Orlogsreden" />
		<tag k="place" v="locality" />
		<tag k="ssr:stedsnr" v="984415" />
	</node>
	<node id="-337032" lat="58.097861107" lon="7.52997499379">
		<tag k="bridge" v="yes" />
		<tag k="layer" v="1" />
		<tag k="name" v="Nødbekk" />
		<tag k="ssr:stedsnr" v="834182" />
	</node>
	<node id="-337031" lat="58.0524138894" lon="7.49951666409">
		<tag k="bridge" v="yes" />
		<tag k="layer" v="1" />
		<tag k="name" v="Leirkjær" />
		<tag k="ssr:stedsnr" v="834177" />
	</node>
	<node id="-337030" lat="58.1270750043" lon="7.53139444239">
		<tag k="bridge" v="yes" />
		<tag k="layer" v="1" />
		<tag k="name" v="Bjørkenes" />
		<tag k="ssr:stedsnr" v="834153" />
	</node>
	<node id="-336005" lat="58.0235833322" lon="7.45606110704">
		<tag k="man_made" v="quay" />
		<tag k="name" v="Ballastbrygga" />
		<tag k="place" v="locality" />
		<tag k="ssr:stedsnr" v="511133" />
	</node>
	<node id="-335236" lat="58.1084249989" lon="7.58508888261">
		<tag k="fixme" v="consider highway=path" />
		<tag k="highway" v="track" />
		<tag k="name" v="Kleivan" />
		<tag k="ssr:stedsnr" v="145734" />
	</node>
</osm>
