<?xml version="1.0" encoding="UTF-8"?>
<osm generator="osmapis" version="0.6">
	<node id="-337210" lat="57.9778473056" lon="7.63192377051">
		<tag k="alt_name" v="Savonmaamonumentet" />
		<tag k="name" v="Savonmaamonument" />
		<tag k="place" v="locality" />
		<tag k="ssr:stedsnr" v="904969" />
	</node>
	<node id="-336504" lat="58.0440555526" lon="7.60676666739">
		<tag k="amenity" v="place_of_worship" />
		<tag k="denomination" v="lutheran" />
		<tag k="name" v="Harkmark" />
		<tag k="religion" v="christian" />
		<tag k="ssr:stedsnr" v="667983" />
	</node>
	<node id="-334769" lat="58.0980305535" lon="7.5159055528">
		<tag k="amenity" v="place_of_worship" />
		<tag k="denomination" v="lutheran" />
		<tag k="name" v="Holum" />
		<tag k="religion" v="christian" />
		<tag k="ssr:stedsnr" v="838" />
	</node>
	<node id="-336843" lat="58.0171805586" lon="7.43873332559">
		<tag k="amenity" v="community_centre" />
		<tag k="name" v="RisÃ¸bank" />
		<tag k="ssr:stedsnr" v="775804" />
	</node>
	<node id="-334314" lat="57.9777899755" lon="7.63180275313">
		<tag k="name" v="Savonmaa monument" />
		<tag k="ssr:stedsnr" v="328304" />
		<tag k="tourism" v="attraction" />
	</node>
	<node id="-334599" lat="58.0262166642" lon="7.4490027848">
		<tag k="name" v="Skriverhaven" />
		<tag k="place" v="locality" />
		<tag k="ssr:stedsnr" v="390152" />
	</node>
	<node id="-335377" lat="58.0274472232" lon="7.45284445138">
		<tag k="amenity" v="place_of_worship" />
		<tag k="denomination" v="lutheran" />
		<tag k="name" v="Mandal" />
		<tag k="religion" v="christian" />
		<tag k="ssr:stedsnr" v="182970" />
	</node>
</osm>
