<?xml version="1.0" encoding="UTF-8"?>
<<<<<<< HEAD
<osm version="0.6" generator="osmapis">
	<node lat="62.242724999945914" lon="11.503694444615565" id="-19802">
		<tag k="alt_name" v="Gravskardbekken, vesle" />
		<tag k="name" v="Vesle Gravskarbekken" />
		<tag k="ssr:stedsnr" v="11440" />
		<tag k="waterway" v="stream" />
	</node>
	<node lat="62.17159444165062" lon="11.428597220944066" id="-19805">
		<tag k="name" v="Orvtjønna" />
		<tag k="natural" v="water" />
		<tag k="ssr:stedsnr" v="11376" />
	</node>
	<node lat="62.43303333139616" lon="10.640280558617834" id="-19808">
		<tag k="name" v="Letjønna" />
		<tag k="natural" v="water" />
		<tag k="ssr:stedsnr" v="11827" />
	</node>
	<node lat="62.446516663652034" lon="11.082994447644813" id="-19810">
		<tag k="name" v="Hørta" />
		<tag k="ssr:stedsnr" v="12084" />
		<tag k="waterway" v="stream" />
	</node>
	<node lat="62.39728611207154" lon="10.7757666757792" id="-19815">
		<tag k="name" v="Bratteggbekken" />
		<tag k="ssr:stedsnr" v="24693" />
		<tag k="waterway" v="stream" />
	</node>
	<node lat="62.26091111096867" lon="11.447297228169703" id="-19820">
		<tag k="name" v="Stenbekken" />
		<tag k="ssr:stedsnr" v="235863" />
		<tag k="waterway" v="stream" />
	</node>
	<node lat="62.35039722024982" lon="11.193091669712606" id="-19830">
		<tag k="name" v="Luråa" />
		<tag k="ssr:stedsnr" v="236394" />
		<tag k="waterway" v="stream" />
	</node>
	<node lat="62.36419167062216" lon="11.123444437522535" id="-19831">
		<tag k="name" v="Sæterbekken" />
		<tag k="ssr:stedsnr" v="236428" />
		<tag k="waterway" v="stream" />
	</node>
	<node lat="62.38354999984511" lon="11.125152769804131" id="-19832">
		<tag k="name" v="Veslebjøra" />
		<tag k="ssr:stedsnr" v="236435" />
		<tag k="waterway" v="stream" />
	</node>
	<node lat="62.33917222407317" lon="11.213819450599997" id="-19838">
		<tag k="name" v="Loken" />
		<tag k="natural" v="water" />
		<tag k="ssr:stedsnr" v="236591" />
	</node>
	<node lat="62.32238888586299" lon="11.360644441481451" id="-19840">
		<tag k="name" v="Storkroken" />
		<tag k="natural" v="water" />
		<tag k="ssr:stedsnr" v="236624" />
		<tag k="water" v="lake" />
	</node>
	<node lat="62.30053889277423" lon="11.453686118363823" id="-19853">
		<tag k="name" v="Grishustjønna" />
		<tag k="natural" v="water" />
		<tag k="ssr:stedsnr" v="237693" />
	</node>
	<node lat="62.400183333679315" lon="10.896905554308699" id="-19854">
		<tag k="name" v="Rørtjønnbekken" />
		<tag k="ssr:stedsnr" v="237720" />
		<tag k="waterway" v="stream" />
	</node>
	<node lat="62.213811111316744" lon="11.464388892193547" id="-19856">
		<tag k="name" v="Svarttjønna" />
		<tag k="natural" v="water" />
		<tag k="ssr:stedsnr" v="237771" />
	</node>
	<node lat="62.431430557598375" lon="10.980563889984307" id="-19859">
		<tag k="name" v="Kottjennsbekken" />
		<tag k="ssr:stedsnr" v="54178" />
		<tag k="waterway" v="stream" />
	</node>
	<node lat="62.38027777915384" lon="11.133050009447393" id="-19862">
		<tag k="name" v="Veslebjørtjønna" />
		<tag k="natural" v="water" />
		<tag k="ssr:stedsnr" v="54473" />
	</node>
	<node lat="62.243099998455776" lon="11.401002770209974" id="-19869">
		<tag k="name" v="Gjerdinghølen" />
		<tag k="place" v="locality" />
		<tag k="ssr:stedsnr" v="54822" />
	</node>
	<node lat="62.29810277482493" lon="11.31917222298849" id="-19879">
		<tag k="name" v="Langodden" />
		<tag k="natural" v="cape" />
		<tag k="ssr:stedsnr" v="55613" />
	</node>
	<node lat="62.29716944505144" lon="11.276366675452058" id="-19880">
		<tag k="name" v="Letningsdalen" />
		<tag k="natural" v="bay" />
		<tag k="ssr:stedsnr" v="55614" />
	</node>
	<node lat="62.195366662337605" lon="11.517902786342606" id="-19889">
		<tag k="name" v="Stræthåen" />
		<tag k="natural" v="bay" />
		<tag k="ssr:stedsnr" v="71515" />
	</node>
	<node lat="62.44772221837373" lon="11.02182222301833" id="-19891">
		<tag k="name" v="Øvre Kottjønna" />
		<tag k="natural" v="water" />
		<tag k="ssr:stedsnr" v="72078" />
	</node>
	<node lat="62.371558332399836" lon="11.201924991252886" id="-19893">
		<tag k="name" v="Bjørbekken" />
		<tag k="ssr:stedsnr" v="72191" />
		<tag k="waterway" v="stream" />
	</node>
	<node lat="62.488183336755256" lon="10.549138883942755" id="-19894">
		<tag k="alt_name" v="Magnillsjøen, nørdre;Nordre Magnilsjøen" />
		<tag k="name" v="Nørdre Magnillsjøen" />
		<tag k="natural" v="water" />
		<tag k="ssr:stedsnr" v="72618" />
	</node>
	<node lat="62.467436112558595" lon="10.693755555199328" id="-19896">
		<tag k="name" v="Esskrokettjønn" />
		<tag k="natural" v="water" />
		<tag k="ssr:stedsnr" v="72825" />
	</node>
	<node lat="62.54228055951726" lon="10.66699722837058" id="-19901">
		<tag k="name" v="Eventjønnloken" />
		<tag k="natural" v="water" />
		<tag k="ssr:stedsnr" v="89518" />
	</node>
	<node lat="62.4181861072605" lon="11.070641656772658" id="-19909">
		<tag k="name" v="Lensmannsfossen" />
		<tag k="natural" v="waterfall" />
		<tag k="ssr:stedsnr" v="115221" />
	</node>
	<node lat="62.25097222511685" lon="11.05546944152632" id="-19910">
		<tag k="name" v="Bjørkløvtjønnbekken" />
		<tag k="ssr:stedsnr" v="115313" />
		<tag k="waterway" v="stream" />
	</node>
	<node lat="62.29971111433537" lon="11.317083326190067" id="-19917">
		<tag k="name" v="Smålokan" />
		<tag k="natural" v="water" />
		<tag k="ssr:stedsnr" v="115614" />
	</node>
	<node lat="62.463133336774476" lon="10.929036109387155" id="-19942">
		<tag k="name" v="Kløftet" />
		<tag k="natural" v="water" />
		<tag k="ssr:stedsnr" v="115888" />
		<tag k="water" v="lake" />
	</node>
	<node lat="62.232952779163966" lon="11.342116674573564" id="-19946">
		<tag k="alt_name" v="Nedervollbekkan" />
		<tag k="name" v="Nervollbekken" />
		<tag k="ssr:stedsnr" v="132437" />
		<tag k="waterway" v="stream" />
	</node>
	<node lat="62.21789444311571" lon="11.538519439519069" id="-19948">
		<tag k="name" v="Håbekken" />
		<tag k="ssr:stedsnr" v="132443" />
		<tag k="waterway" v="stream" />
	</node>
	<node lat="62.4643750038405" lon="11.039997227871437" id="-19951">
		<tag k="name" v="Båttjønna" />
		<tag k="natural" v="water" />
		<tag k="ssr:stedsnr" v="133072" />
	</node>
	<node lat="62.43828055434759" lon="11.1989249931754" id="-19953">
		<tag k="name" v="Håmmåla" />
		<tag k="ssr:stedsnr" v="133079" />
		<tag k="waterway" v="river" />
	</node>
	<node lat="62.23653305009838" lon="11.220804790772249" id="-19962">
		<tag k="name" v="Raudsjøen" />
		<tag k="natural" v="water" />
		<tag k="ssr:stedsnr" v="254191" />
		<tag k="water" v="lake" />
	</node>
	<node lat="62.35118333739319" lon="11.148530547760021" id="-19963">
		<tag k="name" v="Storrøstbekken" />
		<tag k="ssr:stedsnr" v="254195" />
		<tag k="waterway" v="stream" />
	</node>
	<node lat="62.46503888524122" lon="10.949700002286956" id="-19965">
		<tag k="name" v="Storrtjønnan" />
		<tag k="natural" v="water" />
		<tag k="ssr:stedsnr" v="254059" />
		<tag k="water" v="lake" />
	</node>
	<node lat="62.33510949067718" lon="11.110793013430117" id="-19967">
		<tag k="name" v="Telsjøen" />
		<tag k="natural" v="water" />
		<tag k="ssr:stedsnr" v="254206" />
		<tag k="water" v="lake" />
	</node>
	<node lat="62.499247219008126" lon="10.821455558126049" id="-19970">
		<tag k="name" v="Fremre Tangtjønna" />
		<tag k="natural" v="water" />
		<tag k="ssr:stedsnr" v="254733" />
	</node>
	<node lat="62.38658611361511" lon="11.107505565137854" id="-19982">
		<tag k="name" v="Skarvtjønna" />
		<tag k="natural" v="water" />
		<tag k="ssr:stedsnr" v="175463" />
	</node>
	<node lat="62.47430278012206" lon="10.882916660038417" id="-19985">
		<tag k="name" v="Knausloken" />
		<tag k="natural" v="water" />
		<tag k="ssr:stedsnr" v="175921" />
	</node>
	<node lat="62.38418888884937" lon="11.044733330194239" id="-19990">
		<tag k="name" v="Loken" />
		<tag k="natural" v="water" />
		<tag k="ssr:stedsnr" v="176311" />
	</node>
	<node lat="62.43331246533653" lon="10.97503619671665" id="-20005">
		<tag k="name" v="Jetrutjønna" />
		<tag k="natural" v="water" />
		<tag k="ssr:stedsnr" v="236191" />
	</node>
	<node lat="62.36708889147706" lon="10.99815000871453" id="-20008">
		<tag k="name" v="Brennhaugtjønna" />
		<tag k="natural" v="water" />
		<tag k="ssr:stedsnr" v="236309" />
	</node>
	<node lat="62.37517500066879" lon="11.014299999929076" id="-20010">
		<tag k="name" v="Svartåstjønna" />
		<tag k="natural" v="water" />
		<tag k="ssr:stedsnr" v="236331" />
	</node>
	<node lat="62.349033330530666" lon="11.205852771399384" id="-20012">
		<tag k="name" v="Engåodden" />
		<tag k="natural" v="cape" />
		<tag k="ssr:stedsnr" v="236379" />
	</node>
	<node lat="62.35645555288048" lon="10.907405546779827" id="-20013">
		<tag k="name" v="Øran" />
		<tag k="place" v="islet" />
		<tag k="ssr:stedsnr" v="236736" />
	</node>
	<node lat="62.35714999970832" lon="10.903780564981645" id="-20014">
		<tag k="name" v="Utistuholman" />
		<tag k="place" v="islet" />
		<tag k="ssr:stedsnr" v="236738" />
	</node>
	<node lat="62.18448889222651" lon="11.568702781908751" id="-20023">
		<tag k="name" v="Gammevollvika" />
		<tag k="natural" v="bay" />
		<tag k="ssr:stedsnr" v="236999" />
	</node>
	<node lat="62.27675833702222" lon="11.465533333117575" id="-20025">
		<tag k="name" v="Vassflobekken" />
		<tag k="ssr:stedsnr" v="237294" />
		<tag k="waterway" v="stream" />
	</node>
	<node lat="62.35426944392306" lon="11.163802775833519" id="-20030">
		<tag k="name" v="Bjønnvika" />
		<tag k="natural" v="bay" />
		<tag k="ssr:stedsnr" v="237480" />
	</node>
	<node lat="62.19710833408343" lon="11.504683323964635" id="-20041">
		<tag k="name" v="Håmohåen" />
		<tag k="natural" v="water" />
		<tag k="ssr:stedsnr" v="253521" />
	</node>
	<node lat="62.16969444266119" lon="11.388352771062792" id="-20042">
		<tag k="name" v="Elgpiggbekken" />
		<tag k="ssr:stedsnr" v="253429" />
		<tag k="waterway" v="stream" />
	</node>
	<node lat="62.356325845397734" lon="11.166152129649186" id="-20055">
		<tag k="alt_name" v="Nordersjøen" />
		<tag k="name" v="Nørdersjøen" />
		<tag k="natural" v="water" />
		<tag k="ssr:stedsnr" v="254181" />
		<tag k="water" v="lake" />
	</node>
	<node lat="62.3526194473238" lon="10.836325007568057" id="-20056">
		<tag k="name" v="Storbekken" />
		<tag k="ssr:stedsnr" v="254182" />
		<tag k="waterway" v="stream" />
	</node>
	<node lat="62.326748298766" lon="11.242236469403617" id="-20059">
		<tag k="name" v="Stikkelen" />
		<tag k="natural" v="water" />
		<tag k="ssr:stedsnr" v="254411" />
		<tag k="water" v="lake" />
	</node>
	<node lat="62.54575833225463" lon="10.735655564674483" id="-20062">
		<tag k="name" v="Storbekken" />
		<tag k="ssr:stedsnr" v="254820" />
		<tag k="waterway" v="stream" />
	</node>
	<node lat="62.43055278038619" lon="10.798258340339256" id="-20069">
		<tag k="name" v="Litjønna" />
		<tag k="natural" v="water" />
		<tag k="ssr:stedsnr" v="296621" />
	</node>
	<node lat="62.36283888654675" lon="11.050316667850314" id="-20071">
		<tag k="name" v="Sumundsbekken" />
		<tag k="ssr:stedsnr" v="297328" />
		<tag k="waterway" v="stream" />
	</node>
	<node lat="62.28323611111966" lon="11.47239723006206" id="-20072">
		<tag k="name" v="Sætretjønna" />
		<tag k="natural" v="water" />
		<tag k="ssr:stedsnr" v="297304" />
	</node>
	<node lat="62.32868085620295" lon="11.243781518199002" id="-20075">
		<tag k="name" v="Ørsandsnippen" />
		<tag k="natural" v="cape" />
		<tag k="ssr:stedsnr" v="297608" />
	</node>
	<node lat="62.327266662584314" lon="11.23795277586193" id="-20076">
		<tag k="name" v="Kristenodden" />
		<tag k="natural" v="cape" />
		<tag k="ssr:stedsnr" v="297609" />
	</node>
	<node lat="62.31639444698618" lon="11.258766672377254" id="-20077">
		<tag k="name" v="Rundholmen" />
		<tag k="place" v="island" />
		<tag k="ssr:stedsnr" v="297610" />
	</node>
	<node lat="62.3314055561198" lon="11.227563893789629" id="-20078">
		<tag k="name" v="Asmarloken" />
		<tag k="natural" v="bay" />
		<tag k="ssr:stedsnr" v="297619" />
	</node>
	<node lat="62.411519443696385" lon="10.850561110759129" id="-20084">
		<tag k="name" v="Kvennbekken" />
		<tag k="ssr:stedsnr" v="297676" />
		<tag k="waterway" v="stream" />
	</node>
	<node lat="62.26644722127274" lon="11.386144445684087" id="-20091">
		<tag k="name" v="Tuvrybekken" />
		<tag k="ssr:stedsnr" v="297831" />
		<tag k="waterway" v="stream" />
	</node>
	<node lat="62.1505222239546" lon="11.58632222288914" id="-20094">
		<tag k="name" v="Jotsæterbekken" />
		<tag k="ssr:stedsnr" v="297881" />
		<tag k="waterway" v="stream" />
	</node>
	<node lat="62.451911112838836" lon="10.908697213063915" id="-20095">
		<tag k="name" v="Tallsjøloken" />
		<tag k="natural" v="water" />
		<tag k="ssr:stedsnr" v="297883" />
	</node>
	<node lat="62.225394443861596" lon="11.073424997041375" id="-20100">
		<tag k="name" v="Klettbekken" />
		<tag k="ssr:stedsnr" v="314213" />
		<tag k="waterway" v="stream" />
	</node>
	<node lat="62.31740555617675" lon="11.0482444395844" id="-20107">
		<tag k="name" v="Krokbekken" />
		<tag k="ssr:stedsnr" v="314311" />
		<tag k="waterway" v="stream" />
	</node>
	<node lat="62.37374444580539" lon="11.162250006700065" id="-20112">
		<tag k="alt_name" v="Vesle Harrbekken;Harrbekken, vesle" />
		<tag k="name" v="Veslharrbekken" />
		<tag k="ssr:stedsnr" v="315168" />
		<tag k="waterway" v="stream" />
	</node>
	<node lat="62.37530832949633" lon="10.997355555507735" id="-20113">
		<tag k="name" v="Lomtjønna" />
		<tag k="natural" v="water" />
		<tag k="ssr:stedsnr" v="315171" />
	</node>
	<node lat="62.48309166626884" lon="10.58611110430457" id="-20118">
		<tag k="alt_name" v="Stabbstubekken" />
		<tag k="name" v="Stabbstøbekken" />
		<tag k="ssr:stedsnr" v="315629" />
		<tag k="waterway" v="stream" />
	</node>
	<node lat="62.38705277672011" lon="10.814925004907519" id="-20124">
		<tag k="name" v="Øster Storbekken" />
		<tag k="ssr:stedsnr" v="355222" />
		<tag k="waterway" v="stream" />
	</node>
	<node lat="62.47647500085352" lon="10.577738887916558" id="-20125">
		<tag k="name" v="Dipillen" />
		<tag k="natural" v="water" />
		<tag k="ssr:stedsnr" v="355326" />
	</node>
	<node lat="62.46733055380848" lon="10.979827780540482" id="-20127">
		<tag k="name" v="Letjønnbekken" />
		<tag k="ssr:stedsnr" v="357060" />
		<tag k="waterway" v="stream" />
	</node>
	<node lat="62.4443250006477" lon="10.983677770470786" id="-20129">
		<tag k="name" v="Sikkelbekken" />
		<tag k="ssr:stedsnr" v="357163" />
		<tag k="waterway" v="stream" />
	</node>
	<node lat="62.36851667063331" lon="10.998122224644986" id="-20131">
		<tag k="name" v="Olaloken" />
		<tag k="natural" v="water" />
		<tag k="ssr:stedsnr" v="357298" />
	</node>
	<node lat="62.47012500095183" lon="10.789230551333821" id="-20133">
		<tag k="name" v="Trøomodden" />
		<tag k="natural" v="cape" />
		<tag k="ssr:stedsnr" v="357500" />
	</node>
	<node lat="62.34592777631363" lon="11.211341671885075" id="-20134">
		<tag k="name" v="Strømmen" />
		<tag k="natural" v="strait" />
		<tag k="ssr:stedsnr" v="357400" />
	</node>
	<node lat="62.42815277786675" lon="10.791263879304156" id="-20135">
		<tag k="name" v="Litjønnbekken" />
		<tag k="ssr:stedsnr" v="357599" />
		<tag k="waterway" v="stream" />
	</node>
	<node lat="62.43166944156242" lon="10.960761110261751" id="-20138">
		<tag k="name" v="Vesleholmen" />
		<tag k="place" v="islet" />
		<tag k="ssr:stedsnr" v="357804" />
	</node>
	<node lat="62.416513884830565" lon="10.909461106477801" id="-20139">
		<tag k="name" v="Rørtjønna" />
		<tag k="natural" v="water" />
		<tag k="ssr:stedsnr" v="357823" />
	</node>
	<node lat="62.4336249993159" lon="10.772188885028598" id="-20149">
		<tag k="name" v="Sætersodden" />
		<tag k="natural" v="cape" />
		<tag k="ssr:stedsnr" v="358348" />
	</node>
	<node lat="62.35782777505353" lon="11.168450009263651" id="-20151">
		<tag k="name" v="Låkåsundet" />
		<tag k="natural" v="strait" />
		<tag k="ssr:stedsnr" v="358459" />
	</node>
	<node lat="62.293497221671075" lon="11.292313889342392" id="-20152">
		<tag k="name" v="Letningsåa" />
		<tag k="ssr:stedsnr" v="358659" />
		<tag k="waterway" v="stream" />
	</node>
	<node lat="62.17406944884084" lon="11.438363886403089" id="-20157">
		<tag k="name" v="Fallet" />
		<tag k="natural" v="waterfall" />
		<tag k="ssr:stedsnr" v="358759" />
	</node>
	<node lat="62.42149722361375" lon="10.877927776751607" id="-20159">
		<tag k="name" v="Båntjønnbekken" />
		<tag k="ssr:stedsnr" v="358848" />
		<tag k="waterway" v="stream" />
	</node>
	<node lat="62.2456388891155" lon="11.042269448462017" id="-20189">
		<tag k="name" v="Blåkjerrbekkbekken" />
		<tag k="ssr:stedsnr" v="479293" />
		<tag k="waterway" v="stream" />
	</node>
	<node lat="62.425391665382975" lon="11.091708326007808" id="-20194">
		<tag k="name" v="Erlineset" />
		<tag k="natural" v="cape" />
		<tag k="ssr:stedsnr" v="479516" />
	</node>
	<node lat="62.424936115040026" lon="10.883811111191275" id="-20206">
		<tag k="name" v="Båntjønna" />
=======
<osm generator="osmapis" version="0.6">
	<node id="-350200" lat="62.2021999986" lon="11.3836694413">
		<tag k="name" v="Heggeråa" />
		<tag k="ssr:stedsnr" v="314530" />
		<tag k="waterway" v="stream" />
	</node>
	<node id="-350197" lat="62.2330861137" lon="11.0819777848">
		<tag k="alt_name" v="Skrebekken" />
		<tag k="name" v="Skredbekken" />
		<tag k="ssr:stedsnr" v="314237" />
		<tag k="waterway" v="stream" />
	</node>
	<node id="-350196" lat="62.3613722231" lon="10.9358166629">
		<tag k="alt_name" v="Vesletela" />
		<tag k="name" v="Vesltela" />
		<tag k="ssr:stedsnr" v="314234" />
		<tag k="waterway" v="river" />
	</node>
	<node id="-350195" lat="62.2444500044" lon="11.1033249975">
		<tag k="name" v="Storkosbekken" />
		<tag k="ssr:stedsnr" v="314227" />
		<tag k="waterway" v="stream" />
	</node>
	<node id="-350180" lat="62.3754583329" lon="11.1886944433">
		<tag k="alt_name" v="Harrbekken, store;Harrbekken" />
		<tag k="name" v="Store Harrbekken" />
		<tag k="ssr:stedsnr" v="194171" />
		<tag k="waterway" v="stream" />
	</node>
	<node id="-350179" lat="62.3863194446" lon="11.1020638907">
		<tag k="name" v="Langtjønna" />
		<tag k="natural" v="water" />
		<tag k="ssr:stedsnr" v="194166" />
	</node>
	<node id="-350176" lat="62.312255554" lon="11.3773500047">
		<tag k="name" v="Galåa" />
		<tag k="ssr:stedsnr" v="193498" />
		<tag k="waterway" v="river" />
	</node>
	<node id="-350174" lat="62.3514277819" lon="11.2213361057">
		<tag k="name" v="Høyåstjønna" />
		<tag k="natural" v="water" />
		<tag k="ssr:stedsnr" v="193470" />
	</node>
	<node id="-350885" lat="62.362963885" lon="11.169686107">
		<tag k="name" v="Svartlandtjønna" />
		<tag k="natural" v="water" />
		<tag k="ssr:stedsnr" v="965490" />
	</node>
	<node id="-348836" lat="62.3511833374" lon="11.1485305478">
		<tag k="name" v="Storrøstbekken" />
		<tag k="ssr:stedsnr" v="254195" />
		<tag k="waterway" v="stream" />
	</node>
	<node id="-350161" lat="62.229774999" lon="11.4821638965">
		<tag k="name" v="Nøsterodden" />
		<tag k="natural" v="cape" />
		<tag k="ssr:stedsnr" v="176801" />
	</node>
	<node id="-350159" lat="62.2294055531" lon="11.4874638906">
		<tag k="name" v="Andersvika" />
		<tag k="natural" v="bay" />
		<tag k="ssr:stedsnr" v="176792" />
	</node>
	<node id="-348834" lat="62.3526194473" lon="10.8363250076">
		<tag k="name" v="Storbekken" />
		<tag k="ssr:stedsnr" v="254182" />
		<tag k="waterway" v="stream" />
	</node>
	<node id="-350154" lat="62.3926194417" lon="10.9295555625">
		<tag k="name" v="Vesletjønna" />
		<tag k="natural" v="water" />
		<tag k="ssr:stedsnr" v="176776" />
	</node>
	<node id="-350144" lat="62.3042222227" lon="11.2696138853">
		<tag k="name" v="Bakkvika" />
		<tag k="natural" v="bay" />
		<tag k="ssr:stedsnr" v="176661" />
	</node>
	<node id="-350143" lat="62.3058861103" lon="11.2610666599">
		<tag k="name" v="Gammelvollvika" />
		<tag k="natural" v="bay" />
		<tag k="ssr:stedsnr" v="176660" />
	</node>
	<node id="-350142" lat="62.4111805575" lon="10.8254472144">
		<tag k="name" v="Gammelsæterbekken" />
		<tag k="ssr:stedsnr" v="176659" />
		<tag k="waterway" v="stream" />
	</node>
	<node id="-350139" lat="62.3123222211" lon="11.2511555474">
		<tag k="name" v="Loken" />
		<tag k="natural" v="water" />
		<tag k="ssr:stedsnr" v="176634" />
	</node>
	<node id="-350135" lat="62.3606222205" lon="11.1754638813">
		<tag k="name" v="Bjørbekkvika" />
		<tag k="natural" v="bay" />
		<tag k="ssr:stedsnr" v="176434" />
	</node>
	<node id="-350134" lat="62.3564388902" lon="11.1729694441">
		<tag k="name" v="Storholmen" />
		<tag k="place" v="islet" />
		<tag k="ssr:stedsnr" v="176430" />
	</node>
	<node id="-350128" lat="62.3841888888" lon="11.0447333302">
		<tag k="name" v="Loken" />
		<tag k="natural" v="water" />
		<tag k="ssr:stedsnr" v="176311" />
	</node>
	<node id="-350126" lat="62.4551444487" lon="10.7557166618">
		<tag k="name" v="Gammelvangbekken" />
		<tag k="ssr:stedsnr" v="176289" />
		<tag k="waterway" v="stream" />
	</node>
	<node id="-350114" lat="62.4743027801" lon="10.88291666">
		<tag k="name" v="Knausloken" />
		<tag k="natural" v="water" />
		<tag k="ssr:stedsnr" v="175921" />
	</node>
	<node id="-350113" lat="62.4528472218" lon="10.9484361055">
		<tag k="name" v="Jensbekken" />
		<tag k="ssr:stedsnr" v="175890" />
		<tag k="waterway" v="stream" />
	</node>
	<node id="-350110" lat="62.4324972209" lon="10.937750007">
		<tag k="name" v="Løvmyrbekken" />
		<tag k="ssr:stedsnr" v="175814" />
		<tag k="waterway" v="stream" />
	</node>
	<node id="-350108" lat="62.4219833304" lon="10.8283305546">
		<tag k="name" v="Djuptjønna" />
		<tag k="natural" v="water" />
		<tag k="ssr:stedsnr" v="175620" />
	</node>
	<node id="-350102" lat="62.3865861136" lon="11.1075055651">
		<tag k="name" v="Skarvtjønna" />
		<tag k="natural" v="water" />
		<tag k="ssr:stedsnr" v="175463" />
	</node>
	<node id="-350098" lat="62.3744444451" lon="11.0082638934">
		<tag k="name" v="Sætertjønna" />
		<tag k="natural" v="water" />
		<tag k="ssr:stedsnr" v="175343" />
	</node>
	<node id="-350097" lat="62.3584027772" lon="10.9987250067">
		<tag k="name" v="Svarttjønna" />
		<tag k="natural" v="water" />
		<tag k="ssr:stedsnr" v="175334" />
	</node>
	<node id="-350096" lat="62.4656111091" lon="10.7269472255">
		<tag k="name" v="Båtjønnbekken" />
		<tag k="ssr:stedsnr" v="175253" />
		<tag k="waterway" v="stream" />
	</node>
	<node id="-350089" lat="62.4392083306" lon="10.9663611066">
		<tag k="name" v="Jamtgjeltodden" />
		<tag k="natural" v="cape" />
		<tag k="ssr:stedsnr" v="175149" />
	</node>
	<node id="-350074" lat="62.2722416674" lon="11.4539305573">
		<tag k="alt_name" v="Halleråa" />
		<tag k="name" v="Hallaråa" />
		<tag k="ssr:stedsnr" v="133494" />
		<tag k="waterway" v="river" />
	</node>
	<node id="-350071" lat="62.4253166683" lon="11.0344888976">
		<tag k="name" v="Storbekken" />
		<tag k="ssr:stedsnr" v="133096" />
		<tag k="waterway" v="stream" />
	</node>
	<node id="-350068" lat="62.4382805543" lon="11.1989249932">
		<tag k="name" v="Håmmåla" />
		<tag k="ssr:stedsnr" v="133079" />
		<tag k="waterway" v="river" />
	</node>
	<node id="-350066" lat="62.4643750038" lon="11.0399972279">
		<tag k="name" v="Båttjønna" />
		<tag k="natural" v="water" />
		<tag k="ssr:stedsnr" v="133072" />
	</node>
	<node id="-348817" lat="62.4674361126" lon="10.6937555552">
		<tag k="name" v="Esskrokettjønn" />
		<tag k="natural" v="water" />
		<tag k="ssr:stedsnr" v="72825" />
	</node>
	<node id="-350040" lat="62.4328944423" lon="10.9643722173">
		<tag k="name" v="Håen" />
		<tag k="natural" v="bay" />
		<tag k="ssr:stedsnr" v="115793" />
	</node>
	<node id="-350030" lat="62.4631333368" lon="10.9290361094">
		<tag k="name" v="Kløftet" />
		<tag k="natural" v="water" />
		<tag k="ssr:stedsnr" v="115888" />
		<tag k="water" v="lake" />
	</node>
	<node id="-350024" lat="62.2051055558" lon="11.4249555573">
		<tag k="name" v="Bukroken" />
		<tag k="natural" v="cape" />
		<tag k="ssr:stedsnr" v="115859" />
	</node>
	<node id="-350019" lat="62.2067333373" lon="11.4077583357">
		<tag k="name" v="Bekkelytjønna" />
		<tag k="natural" v="water" />
		<tag k="ssr:stedsnr" v="115844" />
	</node>
	<node id="-350009" lat="62.3435166641" lon="11.2162055644">
		<tag k="name" v="Håen" />
		<tag k="natural" v="bay" />
		<tag k="ssr:stedsnr" v="115592" />
	</node>
	<node id="-350008" lat="62.3290499996" lon="11.2316138972">
		<tag k="name" v="Hølåsvika" />
		<tag k="natural" v="bay" />
		<tag k="ssr:stedsnr" v="115591" />
	</node>
	<node id="-349998" lat="62.3331416664" lon="11.3418666674">
		<tag k="name" v="Svartbekken" />
		<tag k="ssr:stedsnr" v="115624" />
		<tag k="waterway" v="stream" />
	</node>
	<node id="-349994" lat="62.4389722218" lon="10.7929166671">
		<tag k="name" v="Moloken" />
		<tag k="natural" v="water" />
		<tag k="ssr:stedsnr" v="115566" />
	</node>
	<node id="-349993" lat="62.4131777804" lon="11.1718888895">
		<tag k="name" v="Engloken" />
		<tag k="natural" v="water" />
		<tag k="ssr:stedsnr" v="115550" />
	</node>
	<node id="-349992" lat="62.4139583352" lon="11.1665583258">
		<tag k="name" v="Flobekken" />
		<tag k="ssr:stedsnr" v="115548" />
		<tag k="waterway" v="stream" />
	</node>
	<node id="-349986" lat="62.3960888931" lon="11.0068083416">
		<tag k="name" v="Storbekken" />
		<tag k="ssr:stedsnr" v="115288" />
		<tag k="waterway" v="stream" />
	</node>
	<node id="-349984" lat="62.4181861073" lon="11.0706416568">
		<tag k="name" v="Lensmannsfossen" />
		<tag k="natural" v="waterfall" />
		<tag k="ssr:stedsnr" v="115221" />
	</node>
	<node id="-349978" lat="62.2509722251" lon="11.0554694415">
		<tag k="name" v="Bjørkløvtjønnbekken" />
		<tag k="ssr:stedsnr" v="115313" />
		<tag k="waterway" v="stream" />
	</node>
	<node id="-349976" lat="62.4585416645" lon="10.9672166739">
		<tag k="name" v="Skjetdike" />
		<tag k="ssr:stedsnr" v="115191" />
		<tag k="waterway" v="stream" />
	</node>
	<node id="-348803" lat="62.2138111113" lon="11.4643888922">
		<tag k="name" v="Svarttjønna" />
		<tag k="natural" v="water" />
		<tag k="ssr:stedsnr" v="237771" />
	</node>
	<node id="-349968" lat="62.4194222219" lon="10.7831777789">
		<tag k="name" v="Sjusjøen" />
		<tag k="natural" v="water" />
		<tag k="ssr:stedsnr" v="89784" />
	</node>
	<node id="-349967" lat="62.5422805595" lon="10.6669972284">
		<tag k="name" v="Eventjønnloken" />
		<tag k="natural" v="water" />
		<tag k="ssr:stedsnr" v="89518" />
	</node>
	<node id="-349963" lat="62.254238891" lon="11.2296805652">
		<tag k="name" v="Firkanttjønna" />
		<tag k="natural" v="water" />
		<tag k="ssr:stedsnr" v="73549" />
	</node>
	<node id="-349960" lat="62.4705722194" lon="10.5882222178">
		<tag k="name" v="Langtjønna" />
		<tag k="natural" v="water" />
		<tag k="ssr:stedsnr" v="72858" />
	</node>
	<node id="-349955" lat="62.276622219" lon="11.4348194476">
		<tag k="name" v="Langtjønna" />
		<tag k="natural" v="water" />
		<tag k="ssr:stedsnr" v="72458" />
	</node>
	<node id="-349954" lat="62.4881833368" lon="10.5491388839">
		<tag k="alt_name" v="Magnillsjøen, nørdre;Nordre Magnilsjøen" />
		<tag k="name" v="Nørdre Magnillsjøen" />
		<tag k="natural" v="water" />
		<tag k="ssr:stedsnr" v="72618" />
	</node>
	<node id="-349952" lat="62.1690361085" lon="11.5163833337">
		<tag k="alt_name" v="Sandnesrobekken" />
		<tag k="name" v="Sandnesbekken" />
		<tag k="ssr:stedsnr" v="72355" />
		<tag k="waterway" v="stream" />
	</node>
	<node id="-349951" lat="62.3715583324" lon="11.2019249913">
		<tag k="name" v="Bjørbekken" />
		<tag k="ssr:stedsnr" v="72191" />
		<tag k="waterway" v="stream" />
	</node>
	<node id="-349950" lat="62.3923666634" lon="11.1647222177">
		<tag k="alt_name" v="Krokbekken" />
		<tag k="name" v="Kroketbekken" />
		<tag k="ssr:stedsnr" v="72157" />
		<tag k="waterway" v="stream" />
	</node>
	<node id="-349944" lat="62.4245388875" lon="11.1125722178">
		<tag k="name" v="Bjøra" />
		<tag k="ssr:stedsnr" v="72111" />
		<tag k="waterway" v="river" />
	</node>
	<node id="-349940" lat="62.4477222184" lon="11.021822223">
		<tag k="name" v="Øvre Kottjønna" />
		<tag k="natural" v="water" />
		<tag k="ssr:stedsnr" v="72078" />
	</node>
	<node id="-349939" lat="62.4689694421" lon="10.8671111153">
		<tag k="alt_name" v="Hundsjøen, vesle;Vesle Hundsjøen" />
		<tag k="name" v="Veslhundsjøen" />
		<tag k="natural" v="water" />
		<tag k="ssr:stedsnr" v="72059" />
	</node>
	<node id="-349935" lat="62.4935694475" lon="10.8388888834">
		<tag k="alt_name" v="Orvilla" />
		<tag k="name" v="Ørvilla" />
		<tag k="ssr:stedsnr" v="72049" />
		<tag k="waterway" v="river" />
	</node>
	<node id="-349931" lat="62.2336638891" lon="11.3812111035">
		<tag k="name" v="Svartbekken" />
		<tag k="ssr:stedsnr" v="71476" />
		<tag k="waterway" v="stream" />
	</node>
	<node id="-349929" lat="62.200697222" lon="11.1814166709">
		<tag k="name" v="Storbekken" />
		<tag k="ssr:stedsnr" v="71260" />
		<tag k="waterway" v="stream" />
	</node>
	<node id="-349928" lat="62.2168944442" lon="11.3851916687">
		<tag k="name" v="Hestbekken" />
		<tag k="ssr:stedsnr" v="63855" />
		<tag k="waterway" v="stream" />
	</node>
	<node id="-349926" lat="62.3687138923" lon="10.9579222182">
		<tag k="name" v="Tjønna" />
		<tag k="natural" v="water" />
		<tag k="ssr:stedsnr" v="55782" />
	</node>
	<node id="-349918" lat="62.1810694468" lon="11.4188694449">
		<tag k="name" v="Fallet" />
		<tag k="natural" v="waterfall" />
		<tag k="ssr:stedsnr" v="55741" />
	</node>
	<node id="-349912" lat="62.2878361136" lon="11.3698722179">
		<tag k="name" v="Langkåsbekken" />
		<tag k="ssr:stedsnr" v="55656" />
		<tag k="waterway" v="stream" />
	</node>
	<node id="-349906" lat="62.2971694451" lon="11.2763666755">
		<tag k="name" v="Letningsdalen" />
		<tag k="natural" v="bay" />
		<tag k="ssr:stedsnr" v="55614" />
	</node>
	<node id="-349905" lat="62.2981027748" lon="11.319172223">
		<tag k="name" v="Langodden" />
		<tag k="natural" v="cape" />
		<tag k="ssr:stedsnr" v="55613" />
	</node>
	<node id="-349893" lat="62.2713500038" lon="11.366802775">
		<tag k="name" v="Kvanntrøbekken" />
		<tag k="ssr:stedsnr" v="54848" />
		<tag k="waterway" v="stream" />
	</node>
	<node id="-349889" lat="62.3265638868" lon="11.3794666694">
		<tag k="name" v="Ormbekken" />
		<tag k="ssr:stedsnr" v="54659" />
		<tag k="waterway" v="stream" />
	</node>
	<node id="-349888" lat="62.4408416657" lon="10.782869452">
		<tag k="name" v="Fisktjønna" />
		<tag k="natural" v="water" />
		<tag k="ssr:stedsnr" v="54599" />
	</node>
	<node id="-349879" lat="62.3712444467" lon="10.9980527728">
		<tag k="name" v="Nøstertjønna" />
		<tag k="natural" v="water" />
		<tag k="ssr:stedsnr" v="54328" />
	</node>
	<node id="-349876" lat="62.4314305576" lon="10.98056389">
		<tag k="name" v="Kottjennsbekken" />
		<tag k="ssr:stedsnr" v="54178" />
		<tag k="waterway" v="stream" />
	</node>
	<node id="-349872" lat="62.2664250029" lon="10.9933944453">
		<tag k="name" v="Klettbekken" />
		<tag k="ssr:stedsnr" v="52331" />
		<tag k="waterway" v="stream" />
	</node>
	<node id="-349870" lat="62.3972861121" lon="10.7757666758">
		<tag k="name" v="Bratteggbekken" />
		<tag k="ssr:stedsnr" v="24693" />
		<tag k="waterway" v="stream" />
	</node>
	<node id="-349869" lat="62.4934194437" lon="10.5384250093">
		<tag k="alt_name" v="Hullbekken" />
		<tag k="name" v="Holbekken" />
		<tag k="ssr:stedsnr" v="12649" />
		<tag k="waterway" v="stream" />
	</node>
	<node id="-349861" lat="62.4465166637" lon="11.0829944476">
		<tag k="name" v="Hørta" />
		<tag k="ssr:stedsnr" v="12084" />
		<tag k="waterway" v="stream" />
	</node>
	<node id="-349859" lat="62.509408332" lon="10.511691658">
		<tag k="name" v="Trolltjønn" />
		<tag k="natural" v="water" />
		<tag k="ssr:stedsnr" v="12067" />
	</node>
	<node id="-349856" lat="62.4364777743" lon="10.6113111176">
		<tag k="name" v="Butjønna" />
		<tag k="natural" v="water" />
		<tag k="ssr:stedsnr" v="11849" />
	</node>
	<node id="-349848" lat="62.2176277735" lon="11.2402749977">
		<tag k="name" v="Steinhusbekken" />
		<tag k="ssr:stedsnr" v="11471" />
		<tag k="waterway" v="stream" />
	</node>
	<node id="-349845" lat="62.2427249999" lon="11.5036944446">
		<tag k="alt_name" v="Gravskardbekken, vesle" />
		<tag k="name" v="Vesle Gravskarbekken" />
		<tag k="ssr:stedsnr" v="11440" />
		<tag k="waterway" v="stream" />
	</node>
	<node id="-349843" lat="62.1715944417" lon="11.4285972209">
		<tag k="name" v="Orvtjønna" />
		<tag k="natural" v="water" />
		<tag k="ssr:stedsnr" v="11376" />
	</node>
	<node id="-349842" lat="62.423072224" lon="11.1913194473">
		<tag k="fixme" v="multiple name tags, choose one and add the other to alt_name" />
		<tag k="name" v="Bubekken;Gammelløbekken" />
		<tag k="ssr:stedsnr" v="11094" />
		<tag k="waterway" v="stream" />
	</node>
	<node id="-349833" lat="62.361294448" lon="10.9409833266">
		<tag k="name" v="Telkroken" />
		<tag k="natural" v="water" />
		<tag k="ssr:stedsnr" v="965806" />
		<tag k="water" v="lake" />
	</node>
	<node id="-349832" lat="62.2290611129" lon="11.4878583372">
		<tag k="name" v="Andersodden" />
		<tag k="natural" v="cape" />
		<tag k="ssr:stedsnr" v="965803" />
	</node>
	<node id="-349831" lat="62.2990611098" lon="11.3046972171">
		<tag k="name" v="Oksholmen" />
		<tag k="place" v="islet" />
		<tag k="ssr:stedsnr" v="965666" />
	</node>
	<node id="-349830" lat="62.2964749979" lon="11.3202583305">
		<tag k="name" v="Håen" />
		<tag k="place" v="locality" />
		<tag k="ssr:stedsnr" v="965664" />
	</node>
	<node id="-349828" lat="62.1897944479" lon="11.41294444">
		<tag k="name" v="Loken" />
>>>>>>> e1d4bc35ff8a6074a6f2e91616a996b547c36f15
		<tag k="natural" v="water" />
		<tag k="ssr:stedsnr" v="965764" />
	</node>
<<<<<<< HEAD
	<node lat="62.38251110993346" lon="10.979149995530129" id="-20211">
		<tag k="name" v="Granrøstbekken" />
		<tag k="ssr:stedsnr" v="375141" />
		<tag k="waterway" v="stream" />
	</node>
	<node lat="62.34742222583502" lon="11.279913891203874" id="-20221">
		<tag k="name" v="Rabbtjønna" />
		<tag k="natural" v="water" />
		<tag k="ssr:stedsnr" v="375411" />
	</node>
	<node lat="62.158247223793666" lon="11.59507777040895" id="-20223">
		<tag k="name" v="Vesle Sandnesvika" />
		<tag k="natural" v="bay" />
		<tag k="ssr:stedsnr" v="479989" />
	</node>
	<node lat="62.460308337252336" lon="10.598319452303778" id="-20224">
		<tag k="name" v="Busjøen" />
		<tag k="natural" v="water" />
		<tag k="ssr:stedsnr" v="375834" />
	</node>
	<node lat="62.44396944731299" lon="11.031124999298743" id="-20228">
		<tag k="name" v="Nedre Kottjønna" />
		<tag k="natural" v="water" />
		<tag k="ssr:stedsnr" v="376081" />
	</node>
	<node lat="62.19129722570035" lon="11.519322215008465" id="-20230">
		<tag k="name" v="Smørbekkhåen" />
		<tag k="natural" v="bay" />
		<tag k="ssr:stedsnr" v="384098" />
	</node>
	<node lat="62.38277222262749" lon="10.828363888266152" id="-20234">
		<tag k="name" v="Gammelvangmyrbekken" />
		<tag k="ssr:stedsnr" v="416198" />
		<tag k="waterway" v="stream" />
	</node>
	<node lat="62.3707472201501" lon="11.15473333238031" id="-20242">
		<tag k="name" v="Sløa" />
		<tag k="ssr:stedsnr" v="418443" />
		<tag k="waterway" v="stream" />
	</node>
	<node lat="62.37207222665263" lon="11.119741658801416" id="-20243">
		<tag k="name" v="Bjørsjøtjønna" />
		<tag k="natural" v="water" />
		<tag k="ssr:stedsnr" v="418446" />
	</node>
	<node lat="62.36487777383994" lon="11.000486108007387" id="-20244">
		<tag k="name" v="Floloken" />
		<tag k="natural" v="water" />
		<tag k="ssr:stedsnr" v="418304" />
	</node>
	<node lat="62.33354166497552" lon="11.227369438527704" id="-20247">
		<tag k="name" v="Storholmen" />
		<tag k="place" v="island" />
		<tag k="ssr:stedsnr" v="418611" />
	</node>
	<node lat="62.44999166710862" lon="10.833486108323713" id="-20251">
		<tag k="name" v="Grønvolloken" />
		<tag k="natural" v="water" />
		<tag k="ssr:stedsnr" v="418584" />
	</node>
	<node lat="62.432647224317556" lon="10.950838882572604" id="-20255">
		<tag k="name" v="Bergevika" />
		<tag k="natural" v="bay" />
		<tag k="ssr:stedsnr" v="418807" />
	</node>
	<node lat="62.42480555735088" lon="10.9562166693383" id="-20256">
		<tag k="name" v="Slåbakkvika" />
		<tag k="natural" v="bay" />
		<tag k="ssr:stedsnr" v="418809" />
	</node>
	<node lat="62.37692630588454" lon="11.114956242354816" id="-20274">
		<tag k="name" v="Bjørsjøen" />
		<tag k="natural" v="water" />
		<tag k="ssr:stedsnr" v="436157" />
		<tag k="water" v="lake" />
	</node>
	<node lat="62.34354722261891" lon="11.163730556858074" id="-20276">
		<tag k="name" v="Risbekken" />
		<tag k="ssr:stedsnr" v="436209" />
		<tag k="waterway" v="stream" />
	</node>
	<node lat="62.32993610816305" lon="11.068002768178888" id="-20278">
		<tag k="name" v="Klettdalstjønna" />
		<tag k="natural" v="water" />
		<tag k="ssr:stedsnr" v="436224" />
	</node>
	<node lat="62.32926944244977" lon="11.264033339207556" id="-20280">
		<tag k="name" v="Kronbekken" />
		<tag k="ssr:stedsnr" v="436411" />
		<tag k="waterway" v="stream" />
	</node>
	<node lat="62.49522500226816" lon="10.68339167118336" id="-20283">
		<tag k="name" v="Langvika" />
		<tag k="natural" v="bay" />
		<tag k="ssr:stedsnr" v="436620" />
	</node>
	<node lat="62.38116666228651" lon="10.815100001862506" id="-20290">
		<tag k="name" v="Vester Storbekken" />
		<tag k="ssr:stedsnr" v="476208" />
		<tag k="waterway" v="stream" />
	</node>
	<node lat="62.23875277992334" lon="11.399769435791054" id="-20301">
		<tag k="name" v="Kalvhuetjønna" />
		<tag k="natural" v="water" />
		<tag k="ssr:stedsnr" v="478812" />
	</node>
	<node lat="62.485705558012434" lon="10.813605550256858" id="-20303">
		<tag k="name" v="Tangbekken" />
		<tag k="ssr:stedsnr" v="478575" />
		<tag k="waterway" v="stream" />
	</node>
	<node lat="62.36461389046064" lon="11.167122219558463" id="-20306">
		<tag k="name" v="Harrbekkvika" />
		<tag k="natural" v="bay" />
		<tag k="ssr:stedsnr" v="479455" />
	</node>
	<node lat="62.44747222512439" lon="11.095680563182896" id="-20308">
		<tag k="name" v="Tjønnjuvlan" />
		<tag k="natural" v="water" />
		<tag k="ssr:stedsnr" v="479705" />
	</node>
	<node lat="62.478522220414035" lon="10.579177770477791" id="-20323">
		<tag k="name" v="Gammelstutjønna" />
		<tag k="natural" v="water" />
		<tag k="ssr:stedsnr" v="678851" />
	</node>
	<node lat="62.448275003612075" lon="10.844905558829963" id="-20325">
		<tag k="alt_name" v="Hundsjøen, store;Hundsjøen" />
		<tag k="name" v="Storhundsjøen" />
		<tag k="natural" v="water" />
		<tag k="ssr:stedsnr" v="679097" />
		<tag k="water" v="lake" />
	</node>
	<node lat="62.469175000836884" lon="10.72267777988293" id="-20329">
		<tag k="name" v="Båtjønna" />
		<tag k="natural" v="water" />
		<tag k="ssr:stedsnr" v="679055" />
	</node>
	<node lat="62.37891944419993" lon="10.9399333277109" id="-20337">
		<tag k="name" v="Eidsfossen" />
		<tag k="natural" v="waterfall" />
		<tag k="ssr:stedsnr" v="679155" />
	</node>
	<node lat="62.36674722626219" lon="11.250641673949906" id="-20339">
		<tag k="name" v="Tomlebekken" />
		<tag k="ssr:stedsnr" v="679370" />
		<tag k="waterway" v="stream" />
	</node>
	<node lat="62.403555557606666" lon="11.230366668337068" id="-20340">
		<tag k="alt_name" v="Harbekken, store" />
		<tag k="name" v="Store Harbekken" />
		<tag k="ssr:stedsnr" v="679350" />
		<tag k="waterway" v="stream" />
	</node>
	<node lat="62.27657777390887" lon="11.287950004110403" id="-20342">
		<tag k="name" v="Lettingsåa" />
		<tag k="ssr:stedsnr" v="679430" />
		<tag k="waterway" v="river" />
	</node>
	<node lat="62.251545354427115" lon="11.399685539925622" id="-20344">
		<tag k="name" v="Stortjønna" />
		<tag k="natural" v="water" />
		<tag k="ssr:stedsnr" v="679496" />
	</node>
	<node lat="62.26091388861684" lon="11.432161102059627" id="-20346">
		<tag k="name" v="Vangsbekken" />
		<tag k="ssr:stedsnr" v="679502" />
		<tag k="waterway" v="stream" />
	</node>
	<node lat="62.265677778496546" lon="11.304600003831439" id="-20348">
		<tag k="name" v="Loken" />
		<tag k="natural" v="water" />
		<tag k="ssr:stedsnr" v="679438" />
	</node>
	<node lat="62.48083333454331" lon="10.550502774849063" id="-20351">
		<tag k="alt_name" v="Magnillsjøen, syndre;Søndre Magnilsjøen;Søndre Magnillsjøen" />
		<tag k="name" v="Syndre Magnillsjøen" />
		<tag k="natural" v="water" />
		<tag k="ssr:stedsnr" v="679850" />
	</node>
	<node lat="62.39517222187149" lon="10.97396667007618" id="-20356">
		<tag k="alt_name" v="Kåbekken" />
		<tag k="name" v="Kåsbekken" />
		<tag k="ssr:stedsnr" v="497148" />
		<tag k="waterway" v="stream" />
	</node>
	<node lat="62.47651211829667" lon="10.97240003420628" id="-20358">
		<tag k="name" v="Milskifttjønna" />
		<tag k="natural" v="water" />
		<tag k="ssr:stedsnr" v="497051" />
	</node>
	<node lat="62.4495527737077" lon="11.04171944180066" id="-20373">
		<tag k="name" v="Totjønnan" />
		<tag k="natural" v="water" />
		<tag k="ssr:stedsnr" v="539129" />
		<tag k="water" v="lake" />
	</node>
	<node lat="62.4406000000957" lon="10.984652768650074" id="-20375">
		<tag k="loc_name" v="Kottjønnsbekken" />
		<tag k="name" v="Kottjennsbekken" />
		<tag k="ssr:stedsnr" v="539135" />
		<tag k="waterway" v="stream" />
	</node>
	<node lat="62.47205278207153" lon="10.793577784222357" id="-20378">
		<tag k="name" v="Lonodden" />
		<tag k="natural" v="cape" />
		<tag k="ssr:stedsnr" v="539507" />
	</node>
	<node lat="62.453697223941845" lon="10.789077779820145" id="-20382">
		<tag k="name" v="Mobekken" />
		<tag k="ssr:stedsnr" v="539530" />
		<tag k="waterway" v="stream" />
	</node>
	<node lat="62.424763885788096" lon="10.817347213719135" id="-20389">
		<tag k="name" v="Sandtjønna" />
		<tag k="natural" v="water" />
		<tag k="ssr:stedsnr" v="539620" />
	</node>
	<node lat="62.40050278059922" lon="10.958869446826055" id="-20393">
		<tag k="name" v="Bjønnbekken" />
		<tag k="ssr:stedsnr" v="539823" />
		<tag k="waterway" v="stream" />
	</node>
	<node lat="62.28009721805758" lon="11.063630560250491" id="-20395">
		<tag k="name" v="Fiskebekken" />
		<tag k="ssr:stedsnr" v="540312" />
		<tag k="waterway" v="stream" />
	</node>
	<node lat="62.41458333704747" lon="11.050788897208855" id="-20397">
		<tag k="name" v="Øvre Tamnesbekken" />
		<tag k="ssr:stedsnr" v="540210" />
		<tag k="waterway" v="stream" />
	</node>
	<node lat="62.20602499586269" lon="11.478819440653108" id="-20404">
		<tag k="name" v="Andersbekken" />
		<tag k="ssr:stedsnr" v="540778" />
		<tag k="waterway" v="stream" />
	</node>
	<node lat="62.317305558507336" lon="11.001627773858848" id="-20409">
		<tag k="name" v="Teldalstjønna" />
		<tag k="natural" v="water" />
		<tag k="ssr:stedsnr" v="557266" />
	</node>
	<node lat="62.315299999477745" lon="11.281819448254662" id="-20410">
		<tag k="name" v="Røsvikbekken" />
		<tag k="ssr:stedsnr" v="557429" />
		<tag k="waterway" v="stream" />
	</node>
	<node lat="62.48809999738751" lon="10.581525000193466" id="-20412">
		<tag k="name" v="Fjellbekken" />
		<tag k="ssr:stedsnr" v="557599" />
		<tag k="waterway" v="stream" />
	</node>
	<node lat="62.371872221276796" lon="11.039952781355153" id="-20413">
		<tag k="name" v="Storbekken" />
		<tag k="ssr:stedsnr" v="557705" />
		<tag k="waterway" v="stream" />
	</node>
	<node lat="62.272972220370704" lon="11.422824998216225" id="-20414">
		<tag k="name" v="Håmmårtjønna" />
		<tag k="natural" v="water" />
		<tag k="ssr:stedsnr" v="557450" />
	</node>
	<node lat="62.431694440129625" lon="10.752852783268175" id="-20418">
		<tag k="name" v="Ulvåsbekken" />
		<tag k="ssr:stedsnr" v="570613" />
		<tag k="waterway" v="stream" />
	</node>
	<node lat="62.47797222387556" lon="10.88750278208333" id="-20419">
		<tag k="name" v="Ørdbekken" />
		<tag k="ssr:stedsnr" v="570655" />
		<tag k="waterway" v="stream" />
	</node>
	<node lat="62.24123055504945" lon="11.066097226652962" id="-20421">
		<tag k="name" v="Storhåen" />
		<tag k="natural" v="water" />
		<tag k="ssr:stedsnr" v="783276" />
		<tag k="water" v="lake" />
	</node>
	<node lat="62.480480557402664" lon="10.99512499219358" id="-20429">
		<tag k="name" v="Olorsaloken" />
		<tag k="natural" v="water" />
		<tag k="ssr:stedsnr" v="600054" />
	</node>
	<node lat="62.380855554182276" lon="11.03903611224365" id="-20432">
		<tag k="name" v="Svartbekken" />
		<tag k="ssr:stedsnr" v="600324" />
		<tag k="waterway" v="stream" />
	</node>
	<node lat="62.26012222391086" lon="11.452033329494615" id="-20441">
		<tag k="name" v="Oddan" />
		<tag k="natural" v="cape" />
		<tag k="ssr:stedsnr" v="600802" />
	</node>
	<node lat="62.190491664492164" lon="11.527866657482617" id="-20453">
		<tag k="name" v="Holøset" />
		<tag k="natural" v="bay" />
		<tag k="ssr:stedsnr" v="600999" />
	</node>
	<node lat="62.20623333746194" lon="11.414627770921639" id="-20458">
		<tag k="name" v="Orvtjønna" />
		<tag k="natural" v="water" />
		<tag k="ssr:stedsnr" v="617503" />
	</node>
	<node lat="62.1998833331969" lon="11.617308342845554" id="-20459">
		<tag k="name" v="Storbekken" />
		<tag k="ssr:stedsnr" v="617512" />
		<tag k="waterway" v="stream" />
	</node>
	<node lat="62.3214722252238" lon="10.945891670365567" id="-20462">
		<tag k="alt_name" v="Tela" />
		<tag k="name" v="Stortela" />
		<tag k="ssr:stedsnr" v="618238" />
		<tag k="waterway" v="river" />
	</node>
	<node lat="62.338694442572276" lon="11.204675000123471" id="-20467">
		<tag k="name" v="Abbortjønnan" />
		<tag k="natural" v="water" />
		<tag k="ssr:stedsnr" v="618182" />
		<tag k="water" v="lake" />
	</node>
	<node lat="62.46979999601664" lon="10.990961115537967" id="-20472">
		<tag k="name" v="Letjønna" />
		<tag k="natural" v="water" />
		<tag k="ssr:stedsnr" v="630592" />
	</node>
	<node lat="62.48648055739925" lon="10.7946583417973" id="-20479">
		<tag k="name" v="Jakobsbekken" />
		<tag k="ssr:stedsnr" v="660951" />
		<tag k="waterway" v="stream" />
	</node>
	<node lat="62.42120555285692" lon="10.771219448306132" id="-20487">
		<tag k="name" v="Skarstjønnbekken" />
		<tag k="ssr:stedsnr" v="661339" />
		<tag k="waterway" v="stream" />
	</node>
	<node lat="62.26996944784598" lon="11.058566669702305" id="-20492">
		<tag k="name" v="Strypbekken" />
		<tag k="ssr:stedsnr" v="661296" />
		<tag k="waterway" v="stream" />
	</node>
	<node lat="62.2182111128379" lon="11.058866669503718" id="-20506">
		<tag k="alt_name" v="Vesla" />
		<tag k="name" v="Veslbekken" />
		<tag k="ssr:stedsnr" v="678210" />
		<tag k="waterway" v="stream" />
	</node>
	<node lat="62.22780555699328" lon="11.583966660065446" id="-20511">
		<tag k="name" v="Løvbekktjønna" />
		<tag k="natural" v="water" />
		<tag k="ssr:stedsnr" v="678484" />
	</node>
	<node lat="62.21576944859912" lon="11.480663883972817" id="-20512">
		<tag k="name" v="Øversjøåa" />
		<tag k="ssr:stedsnr" v="678486" />
		<tag k="waterway" v="stream" />
	</node>
	<node lat="62.200558330343966" lon="11.447688883163211" id="-20513">
		<tag k="name" v="Søndmørtjønna" />
		<tag k="natural" v="water" />
		<tag k="ssr:stedsnr" v="678491" />
	</node>
	<node lat="62.455947218022544" lon="10.853211107276493" id="-20521">
		<tag k="name" v="Hundsjøtjønna" />
		<tag k="natural" v="water" />
		<tag k="ssr:stedsnr" v="679074" />
	</node>
	<node lat="62.49571666753391" lon="10.56614165734235" id="-20526">
		<tag k="name" v="Storbekken" />
		<tag k="ssr:stedsnr" v="679621" />
		<tag k="waterway" v="stream" />
	</node>
	<node lat="62.34968055153596" lon="11.18221110585532" id="-20535">
		<tag k="name" v="Gresjan" />
		<tag k="natural" v="bay" />
		<tag k="ssr:stedsnr" v="721404" />
	</node>
	<node lat="62.334977781414295" lon="11.21033333861293" id="-20536">
		<tag k="name" v="Presthallbakktjønna" />
		<tag k="natural" v="water" />
		<tag k="ssr:stedsnr" v="721409" />
	</node>
	<node lat="62.47321389329849" lon="10.796180553131578" id="-20538">
		<tag k="alt_name" v="Øyanvollen" />
		<tag k="name" v="Øyan" />
		<tag k="place" v="island" />
		<tag k="ssr:stedsnr" v="721519" />
	</node>
	<node lat="62.33413889309644" lon="11.223886102090438" id="-20543">
		<tag k="name" v="Fjorføllet" />
		<tag k="place" v="islet" />
		<tag k="ssr:stedsnr" v="721620" />
	</node>
	<node lat="62.33254166396882" lon="11.22601944598776" id="-20544">
		<tag k="name" v="Asmarstrømmen" />
		<tag k="natural" v="strait" />
		<tag k="ssr:stedsnr" v="721622" />
	</node>
	<node lat="62.15901110870587" lon="11.652755562052706" id="-20548">
=======
	<node id="-349821" lat="62.4427750035" lon="10.7743722172">
		<tag k="name" v="Fisktjønnloken" />
		<tag k="natural" v="water" />
		<tag k="ssr:stedsnr" v="965377" />
	</node>
	<node id="-349814" lat="62.4698333356" lon="10.7847722296">
		<tag k="name" v="Nordistuodden" />
		<tag k="natural" v="cape" />
		<tag k="ssr:stedsnr" v="964517" />
	</node>
	<node id="-349809" lat="62.4923472189" lon="10.5542305467">
		<tag k="name" v="Brattåsbekken" />
		<tag k="ssr:stedsnr" v="964355" />
		<tag k="waterway" v="stream" />
	</node>
	<node id="-349794" lat="62.3682000001" lon="11.1350361171">
		<tag k="alt_name" v="Gjøddtjønna" />
		<tag k="name" v="Gjeddetjønna" />
		<tag k="natural" v="water" />
		<tag k="ssr:stedsnr" v="922179" />
	</node>
	<node id="-349791" lat="62.3869083312" lon="11.1494055581">
		<tag k="name" v="Stortjønn" />
		<tag k="natural" v="water" />
		<tag k="ssr:stedsnr" v="922161" />
	</node>
	<node id="-349788" lat="62.20196111" lon="11.5324194467">
		<tag k="name" v="Bulibekken" />
		<tag k="ssr:stedsnr" v="904960" />
		<tag k="waterway" v="stream" />
	</node>
	<node id="-349787" lat="62.2094250003" lon="11.4635888975">
		<tag k="name" v="Sjurloken" />
		<tag k="natural" v="water" />
		<tag k="ssr:stedsnr" v="904771" />
	</node>
	<node id="-349786" lat="62.3723666663" lon="10.8464305568">
		<tag k="name" v="Stortjønna" />
		<tag k="natural" v="water" />
		<tag k="ssr:stedsnr" v="904766" />
	</node>
	<node id="-349784" lat="62.3636555538" lon="10.9026805478">
		<tag k="name" v="Trulsneset" />
		<tag k="natural" v="cape" />
		<tag k="ssr:stedsnr" v="904756" />
	</node>
	<node id="-349779" lat="62.4342638903" lon="10.9073666655">
		<tag k="name" v="Veslesæterbekken" />
		<tag k="ssr:stedsnr" v="904816" />
		<tag k="waterway" v="stream" />
	</node>
	<node id="-349772" lat="62.4569527786" lon="10.7415361073">
		<tag k="name" v="Båtjønnbekken" />
		<tag k="ssr:stedsnr" v="904319" />
		<tag k="waterway" v="stream" />
	</node>
	<node id="-349758" lat="62.3563111101" lon="11.2699361141">
		<tag k="name" v="Storbekken" />
		<tag k="ssr:stedsnr" v="861387" />
		<tag k="waterway" v="stream" />
	</node>
	<node id="-349754" lat="62.3727386296" lon="10.8496769446">
		<tag k="name" v="Knappåstjønnan" />
		<tag k="natural" v="water" />
		<tag k="ssr:stedsnr" v="861168" />
		<tag k="water" v="lake" />
	</node>
	<node id="-349753" lat="62.3729166695" lon="11.0020499928">
		<tag k="name" v="Langtjønna" />
		<tag k="natural" v="water" />
		<tag k="ssr:stedsnr" v="861165" />
	</node>
	<node id="-349751" lat="62.380363891" lon="11.1405638913">
		<tag k="name" v="Langtjønna" />
		<tag k="natural" v="water" />
		<tag k="ssr:stedsnr" v="861157" />
	</node>
	<node id="-349750" lat="62.4553944442" lon="10.8366194495">
		<tag k="name" v="Slåbakktjønna" />
		<tag k="natural" v="water" />
		<tag k="ssr:stedsnr" v="861069" />
	</node>
	<node id="-349747" lat="62.1827250022" lon="11.614863884">
		<tag k="name" v="Persbekken" />
		<tag k="ssr:stedsnr" v="860528" />
		<tag k="waterway" v="stream" />
	</node>
	<node id="-349745" lat="62.1999916659" lon="11.4863111094">
		<tag k="name" v="Vintertjønna" />
		<tag k="natural" v="water" />
		<tag k="ssr:stedsnr" v="860514" />
	</node>
	<node id="-349744" lat="62.2389972203" lon="11.0728416742">
		<tag k="name" v="Storkåsbekken" />
		<tag k="ssr:stedsnr" v="965331" />
		<tag k="waterway" v="stream" />
	</node>
	<node id="-349733" lat="62.4365722253" lon="10.80205">
		<tag k="name" v="Kringltjønna" />
		<tag k="natural" v="water" />
		<tag k="ssr:stedsnr" v="843635" />
	</node>
	<node id="-349714" lat="62.4533888883" lon="10.9920694521">
		<tag k="fixme" v="multiple name tags, choose one and add the other to alt_name" />
		<tag k="name" v="Mergeltjønna;Vangstjønna" />
		<tag k="natural" v="water" />
		<tag k="ssr:stedsnr" v="935649" />
	</node>
	<node id="-349709" lat="62.3931888879" lon="11.1086916614">
		<tag k="name" v="Tangtjønna" />
		<tag k="natural" v="water" />
		<tag k="ssr:stedsnr" v="801161" />
	</node>
	<node id="-349708" lat="62.3841527744" lon="10.8946361056">
		<tag k="fixme" v="multiple name tags, choose one and add the other to alt_name" />
		<tag k="name" v="Møkkelbekken;Stormyrbekken" />
		<tag k="ssr:stedsnr" v="801159" />
		<tag k="waterway" v="stream" />
	</node>
	<node id="-349707" lat="62.5282749972" lon="10.7302083411">
		<tag k="alt_name" v="Ravaldbekken" />
		<tag k="name" v="Ravallbekken" />
		<tag k="ssr:stedsnr" v="800845" />
		<tag k="waterway" v="stream" />
	</node>
	<node id="-349706" lat="62.542230556" lon="10.7577916621">
		<tag k="name" v="Utstuloken" />
		<tag k="natural" v="water" />
		<tag k="ssr:stedsnr" v="800833" />
	</node>
	<node id="-349702" lat="62.362336115" lon="11.3526277707">
		<tag k="name" v="Galåa" />
		<tag k="ssr:stedsnr" v="800413" />
		<tag k="waterway" v="stream" />
	</node>
	<node id="-349694" lat="62.2555111122" lon="11.0561194403">
		<tag k="name" v="Vaskåstjønna" />
		<tag k="natural" v="water" />
		<tag k="ssr:stedsnr" v="922305" />
	</node>
	<node id="-349685" lat="62.4491783107" lon="10.918816531">
		<tag k="alt_name" v="Tallsjøen, øvre;Øver Tallsjøen" />
		<tag k="name" v="Øvre Tallsjøen" />
		<tag k="natural" v="water" />
		<tag k="ssr:stedsnr" v="922093" />
		<tag k="water" v="lake" />
	</node>
	<node id="-349674" lat="62.2362555512" lon="11.503138896">
		<tag k="alt_name" v="Gravskardbekken, store" />
		<tag k="name" v="Store Gravskarbekken" />
		<tag k="ssr:stedsnr" v="921488" />
		<tag k="waterway" v="stream" />
	</node>
	<node id="-349673" lat="62.2404638904" lon="11.3059833326">
		<tag k="name" v="Jonasbekken" />
		<tag k="ssr:stedsnr" v="921478" />
		<tag k="waterway" v="stream" />
	</node>
	<node id="-349672" lat="62.3624999985" lon="11.2628638802">
		<tag k="name" v="Sigarbekken" />
		<tag k="ssr:stedsnr" v="921455" />
		<tag k="waterway" v="river" />
	</node>
	<node id="-349668" lat="62.2172000009" lon="11.044852784">
		<tag k="alt_name" v="Trettbekken" />
		<tag k="name" v="Trettebekken" />
		<tag k="ssr:stedsnr" v="920185" />
		<tag k="waterway" v="stream" />
	</node>
	<node id="-349664" lat="62.560630556" lon="10.740316672">
		<tag k="name" v="Bratthøbekken" />
		<tag k="ssr:stedsnr" v="740813" />
		<tag k="waterway" v="stream" />
	</node>
	<node id="-349657" lat="62.4550444473" lon="11.0178194516">
		<tag k="name" v="Butjønna" />
		<tag k="natural" v="water" />
		<tag k="ssr:stedsnr" v="740061" />
	</node>
	<node id="-349654" lat="62.4704222716" lon="10.6924357489">
		<tag k="loc_name" v="Koversjøen" />
		<tag k="name" v="Kovertjønnan" />
		<tag k="natural" v="water" />
		<tag k="ssr:stedsnr" v="739854" />
		<tag k="water" v="lake" />
	</node>
	<node id="-349651" lat="62.2108805599" lon="11.3615638843">
		<tag k="name" v="Kvitbekken" />
		<tag k="ssr:stedsnr" v="739477" />
		<tag k="waterway" v="stream" />
	</node>
	<node id="-349648" lat="62.3453194415" lon="11.3259444407">
		<tag k="alt_name" v="Svartbekken" />
		<tag k="name" v="Svartåsbekken" />
		<tag k="ssr:stedsnr" v="739463" />
		<tag k="waterway" v="stream" />
	</node>
	<node id="-349641" lat="62.4702027812" lon="10.9633194388">
		<tag k="alt_name" v="Åssåtjønnbekken" />
		<tag k="name" v="Ossortjønnbekken" />
		<tag k="ssr:stedsnr" v="904880" />
		<tag k="waterway" v="stream" />
	</node>
	<node id="-349639" lat="62.1987666702" lon="11.4768694385">
		<tag k="name" v="Tomtlokan" />
		<tag k="natural" v="water" />
		<tag k="ssr:stedsnr" v="904992" />
	</node>
	<node id="-349629" lat="62.2676583359" lon="11.3972805522">
		<tag k="name" v="Volltjønna" />
		<tag k="natural" v="water" />
		<tag k="ssr:stedsnr" v="904830" />
	</node>
	<node id="-349628" lat="62.4133388858" lon="10.9565333316">
		<tag k="name" v="Finntjønna" />
		<tag k="natural" v="water" />
		<tag k="ssr:stedsnr" v="904829" />
	</node>
	<node id="-349625" lat="62.2115305534" lon="11.470886106">
		<tag k="name" v="Sandtangtjønna" />
		<tag k="natural" v="water" />
		<tag k="ssr:stedsnr" v="904782" />
	</node>
	<node id="-349624" lat="62.3897972216" lon="10.9318749905">
		<tag k="name" v="Tjønnegga" />
		<tag k="natural" v="water" />
		<tag k="ssr:stedsnr" v="904780" />
	</node>
	<node id="-349622" lat="62.3904722185" lon="10.9314722146">
		<tag k="name" v="Høysnartjønna" />
		<tag k="natural" v="water" />
		<tag k="ssr:stedsnr" v="904777" />
	</node>
	<node id="-349617" lat="62.2878166694" lon="11.31168612">
		<tag k="name" v="Finnrøstbekken" />
		<tag k="ssr:stedsnr" v="904609" />
		<tag k="waterway" v="stream" />
	</node>
	<node id="-349616" lat="62.3350277782" lon="11.2237861097">
		<tag k="name" v="Føllet" />
		<tag k="place" v="islet" />
		<tag k="ssr:stedsnr" v="904598" />
	</node>
	<node id="-349615" lat="62.3231861108" lon="11.2495527747">
		<tag k="name" v="Storvika" />
		<tag k="natural" v="bay" />
		<tag k="ssr:stedsnr" v="904594" />
	</node>
	<node id="-349609" lat="62.3710666674" lon="11.1130055475">
		<tag k="name" v="Bjørsjøloken" />
		<tag k="natural" v="water" />
		<tag k="ssr:stedsnr" v="904446" />
	</node>
	<node id="-349582" lat="62.4503999979" lon="10.7567194534">
		<tag k="name" v="Storbekken" />
		<tag k="ssr:stedsnr" v="722362" />
		<tag k="waterway" v="stream" />
	</node>
	<node id="-349578" lat="62.1565416707" lon="11.5923638856">
		<tag k="name" v="Mellombekken" />
		<tag k="ssr:stedsnr" v="721963" />
		<tag k="waterway" v="stream" />
	</node>
	<node id="-349574" lat="62.332541664" lon="11.226019446">
		<tag k="name" v="Asmarstrømmen" />
		<tag k="natural" v="strait" />
		<tag k="ssr:stedsnr" v="721622" />
	</node>
	<node id="-349573" lat="62.3341388931" lon="11.2238861021">
		<tag k="name" v="Fjorføllet" />
		<tag k="place" v="islet" />
		<tag k="ssr:stedsnr" v="721620" />
	</node>
	<node id="-349564" lat="62.4957166675" lon="10.5661416573">
		<tag k="name" v="Storbekken" />
		<tag k="ssr:stedsnr" v="679621" />
		<tag k="waterway" v="stream" />
	</node>
	<node id="-349558" lat="62.3789194442" lon="10.9399333277">
		<tag k="name" v="Eidsfossen" />
		<tag k="natural" v="waterfall" />
		<tag k="ssr:stedsnr" v="679155" />
	</node>
	<node id="-349551" lat="62.455947218" lon="10.8532111073">
		<tag k="name" v="Hundsjøtjønna" />
		<tag k="natural" v="water" />
		<tag k="ssr:stedsnr" v="679074" />
	</node>
	<node id="-349548" lat="62.4691750008" lon="10.7226777799">
		<tag k="name" v="Båtjønna" />
		<tag k="natural" v="water" />
		<tag k="ssr:stedsnr" v="679055" />
	</node>
	<node id="-349544" lat="62.2182111128" lon="11.0588666695">
		<tag k="alt_name" v="Vesla" />
		<tag k="name" v="Veslbekken" />
		<tag k="ssr:stedsnr" v="678210" />
		<tag k="waterway" v="stream" />
	</node>
	<node id="-349542" lat="62.3707975184" lon="11.297717666">
		<tag k="name" v="Kvannåstjønnan" />
		<tag k="natural" v="water" />
		<tag k="ssr:stedsnr" v="661712" />
		<tag k="water" v="lake" />
	</node>
	<node id="-349536" lat="62.4212055529" lon="10.7712194483">
		<tag k="name" v="Skarstjønnbekken" />
		<tag k="ssr:stedsnr" v="661339" />
		<tag k="waterway" v="stream" />
	</node>
	<node id="-349528" lat="62.2699694478" lon="11.0585666697">
		<tag k="name" v="Strypbekken" />
		<tag k="ssr:stedsnr" v="661296" />
		<tag k="waterway" v="stream" />
	</node>
	<node id="-349503" lat="62.2247333339" lon="11.4854972318">
		<tag k="name" v="Bukta" />
		<tag k="natural" v="bay" />
		<tag k="ssr:stedsnr" v="722824" />
	</node>
	<node id="-349499" lat="62.3678777736" lon="10.8585249919">
		<tag k="name" v="Vesletjønna" />
		<tag k="natural" v="water" />
		<tag k="ssr:stedsnr" v="722798" />
	</node>
	<node id="-349491" lat="62.2899055535" lon="11.3269666729">
		<tag k="name" v="Robekken" />
		<tag k="ssr:stedsnr" v="722661" />
		<tag k="waterway" v="stream" />
	</node>
	<node id="-349487" lat="62.358936114" lon="11.1780277852">
		<tag k="name" v="Movika" />
		<tag k="natural" v="bay" />
		<tag k="ssr:stedsnr" v="722479" />
	</node>
	<node id="-349483" lat="62.4306222247" lon="10.6559555497">
		<tag k="name" v="Gjera" />
		<tag k="ssr:stedsnr" v="618786" />
		<tag k="waterway" v="river" />
	</node>
	<node id="-349482" lat="62.5020583294" lon="10.7615611092">
		<tag k="alt_name" v="Bjønnbekken" />
		<tag k="name" v="Bjørnbekken" />
		<tag k="old_name" v="Bjørnåsbekken" />
		<tag k="ssr:stedsnr" v="618756" />
		<tag k="waterway" v="stream" />
	</node>
	<node id="-349481" lat="62.2563083373" lon="11.078066662">
		<tag k="name" v="Tynsetkåsbekken" />
		<tag k="ssr:stedsnr" v="722312" />
		<tag k="waterway" v="stream" />
	</node>
	<node id="-349471" lat="62.3214722252" lon="10.9458916704">
		<tag k="alt_name" v="Tela" />
		<tag k="name" v="Stortela" />
		<tag k="ssr:stedsnr" v="618238" />
		<tag k="waterway" v="river" />
	</node>
	<node id="-349469" lat="62.1590111087" lon="11.6527555621">
>>>>>>> e1d4bc35ff8a6074a6f2e91616a996b547c36f15
		<tag k="name" v="Litlåkroken" />
		<tag k="place" v="locality" />
		<tag k="ssr:stedsnr" v="721888" />
	</node>
<<<<<<< HEAD
	<node lat="62.2247333338517" lon="11.485497231825143" id="-20555">
		<tag k="name" v="Bukta" />
		<tag k="natural" v="bay" />
		<tag k="ssr:stedsnr" v="722824" />
	</node>
	<node lat="62.337357047083934" lon="11.220128730777738" id="-20570">
		<tag k="name" v="Asmaren" />
		<tag k="natural" v="water" />
		<tag k="ssr:stedsnr" v="739215" />
	</node>
	<node lat="62.31217499726226" lon="11.263230553291068" id="-20576">
		<tag k="name" v="Langodden" />
		<tag k="natural" v="cape" />
		<tag k="ssr:stedsnr" v="739726" />
	</node>
	<node lat="62.50535833136817" lon="10.774344445492892" id="-20577">
		<tag k="name" v="Måsådalstjønna" />
		<tag k="natural" v="water" />
		<tag k="ssr:stedsnr" v="739792" />
	</node>
	<node lat="62.38785277580412" lon="10.993005553644533" id="-20579">
		<tag k="alt_name" v="Veslebekken" />
		<tag k="name" v="Veslbekken" />
		<tag k="ssr:stedsnr" v="740152" />
		<tag k="waterway" v="stream" />
	</node>
	<node lat="62.37106666738461" lon="11.113005547471355" id="-20599">
		<tag k="name" v="Bjørsjøloken" />
		<tag k="natural" v="water" />
		<tag k="ssr:stedsnr" v="904446" />
	</node>
	<node lat="62.3231861107902" lon="11.249552774670173" id="-20603">
		<tag k="name" v="Storvika" />
		<tag k="natural" v="bay" />
		<tag k="ssr:stedsnr" v="904594" />
	</node>
	<node lat="62.335027778158576" lon="11.22378610966625" id="-20604">
		<tag k="name" v="Føllet" />
		<tag k="place" v="islet" />
		<tag k="ssr:stedsnr" v="904598" />
	</node>
	<node lat="62.36365555382602" lon="10.902680547818878" id="-20613">
		<tag k="name" v="Trulsneset" />
		<tag k="natural" v="cape" />
		<tag k="ssr:stedsnr" v="904756" />
	</node>
	<node lat="62.413338885769676" lon="10.956533331628043" id="-20618">
		<tag k="name" v="Finntjønna" />
		<tag k="natural" v="water" />
		<tag k="ssr:stedsnr" v="904829" />
	</node>
	<node lat="62.267658335881684" lon="11.397280552217639" id="-20619">
		<tag k="name" v="Volltjønna" />
		<tag k="natural" v="water" />
		<tag k="ssr:stedsnr" v="904830" />
	</node>
	<node lat="62.372366666298085" lon="10.84643055683099" id="-20624">
		<tag k="name" v="Stortjønna" />
		<tag k="natural" v="water" />
		<tag k="ssr:stedsnr" v="904766" />
	</node>
	<node lat="62.20942500028289" lon="11.463588897545682" id="-20625">
		<tag k="name" v="Sjurloken" />
		<tag k="natural" v="water" />
		<tag k="ssr:stedsnr" v="904771" />
	</node>
	<node lat="62.390472218458974" lon="10.931472214636381" id="-20626">
		<tag k="name" v="Høysnartjønna" />
		<tag k="natural" v="water" />
		<tag k="ssr:stedsnr" v="904777" />
	</node>
	<node lat="62.3897972216353" lon="10.931874990496325" id="-20628">
		<tag k="name" v="Tjønnegga" />
		<tag k="natural" v="water" />
		<tag k="ssr:stedsnr" v="904780" />
	</node>
	<node lat="62.211530553416914" lon="11.470886106015769" id="-20629">
		<tag k="name" v="Sandtangtjønna" />
		<tag k="natural" v="water" />
		<tag k="ssr:stedsnr" v="904782" />
	</node>
	<node lat="62.470202781182" lon="10.963319438833581" id="-20633">
		<tag k="alt_name" v="Åssåtjønnbekken" />
		<tag k="name" v="Ossortjønnbekken" />
		<tag k="ssr:stedsnr" v="904880" />
		<tag k="waterway" v="stream" />
	</node>
	<node lat="62.198766670218546" lon="11.476869438475845" id="-20637">
		<tag k="name" v="Tomtlokan" />
		<tag k="natural" v="water" />
		<tag k="ssr:stedsnr" v="904992" />
	</node>
	<node lat="62.3456305535424" lon="10.88826666070343" id="-20641">
		<tag k="name" v="Storholmen" />
		<tag k="place" v="islet" />
		<tag k="ssr:stedsnr" v="780254" />
	</node>
	<node lat="62.347763885741706" lon="10.85713889772909" id="-20644">
		<tag k="name" v="Veslebekken" />
		<tag k="ssr:stedsnr" v="780260" />
		<tag k="waterway" v="stream" />
	</node>
	<node lat="62.3330972251673" lon="11.218947231406975" id="-20654">
		<tag k="name" v="Nyvollvika" />
		<tag k="natural" v="bay" />
		<tag k="ssr:stedsnr" v="782606" />
	</node>
	<node lat="62.361466668479146" lon="10.916611105044653" id="-20659">
		<tag k="name" v="Varmbekken" />
		<tag k="ssr:stedsnr" v="783753" />
		<tag k="waterway" v="stream" />
	</node>
	<node lat="62.2167694451331" lon="11.491161117209066" id="-20664">
		<tag k="name" v="Kristoffertjønna" />
		<tag k="natural" v="water" />
		<tag k="ssr:stedsnr" v="783809" />
	</node>
	<node lat="62.26679444052255" lon="11.410722215630612" id="-20665">
		<tag k="name" v="Loken" />
		<tag k="natural" v="water" />
		<tag k="ssr:stedsnr" v="783829" />
	</node>
	<node lat="62.22788707937068" lon="11.485406055749165" id="-20673">
		<tag k="name" v="Øversjøen" />
		<tag k="natural" v="water" />
		<tag k="ssr:stedsnr" v="800453" />
	</node>
	<node lat="62.30242499642493" lon="11.291163892593328" id="-20674">
		<tag k="name" v="Storholmen" />
		<tag k="place" v="islet" />
		<tag k="ssr:stedsnr" v="800476" />
	</node>
	<node lat="62.54223055595993" lon="10.757791662058938" id="-20676">
		<tag k="name" v="Utstuloken" />
		<tag k="natural" v="water" />
		<tag k="ssr:stedsnr" v="800833" />
	</node>
	<node lat="62.51463055336403" lon="10.827866674765804" id="-20677">
		<tag k="name" v="Skjerbekken" />
		<tag k="ssr:stedsnr" v="800733" />
		<tag k="waterway" v="stream" />
	</node>
	<node lat="62.174791665988906" lon="11.562386108819105" id="-20681">
		<tag k="name" v="Sandneset" />
		<tag k="natural" v="cape" />
		<tag k="ssr:stedsnr" v="809088" />
	</node>
	<node lat="62.217200000902544" lon="11.044852783994443" id="-20682">
		<tag k="alt_name" v="Trettbekken" />
		<tag k="name" v="Trettebekken" />
		<tag k="ssr:stedsnr" v="920185" />
		<tag k="waterway" v="stream" />
	</node>
	<node lat="62.36249999848102" lon="11.262863880236443" id="-20686">
		<tag k="name" v="Sigarbekken" />
		<tag k="ssr:stedsnr" v="921455" />
		<tag k="waterway" v="river" />
	</node>
	<node lat="62.240463890403504" lon="11.30598333263245" id="-20687">
		<tag k="name" v="Jonasbekken" />
		<tag k="ssr:stedsnr" v="921478" />
		<tag k="waterway" v="stream" />
	</node>
	<node lat="62.38690833122536" lon="11.14940555808222" id="-20698">
		<tag k="name" v="Stortjønn" />
		<tag k="natural" v="water" />
		<tag k="ssr:stedsnr" v="922161" />
	</node>
	<node lat="62.1999916659128" lon="11.486311109389888" id="-20739">
		<tag k="name" v="Vintertjønna" />
		<tag k="natural" v="water" />
		<tag k="ssr:stedsnr" v="860514" />
	</node>
	<node lat="62.18272500218531" lon="11.614863883971234" id="-20741">
		<tag k="name" v="Persbekken" />
		<tag k="ssr:stedsnr" v="860528" />
		<tag k="waterway" v="stream" />
	</node>
	<node lat="62.45539444423059" lon="10.83661944953899" id="-20744">
		<tag k="name" v="Slåbakktjønna" />
		<tag k="natural" v="water" />
		<tag k="ssr:stedsnr" v="861069" />
	</node>
	<node lat="62.380363891045434" lon="11.140563891338223" id="-20745">
		<tag k="name" v="Langtjønna" />
		<tag k="natural" v="water" />
		<tag k="ssr:stedsnr" v="861157" />
	</node>
	<node lat="62.372916669506736" lon="11.002049992804581" id="-20747">
		<tag k="name" v="Langtjønna" />
		<tag k="natural" v="water" />
		<tag k="ssr:stedsnr" v="861165" />
	</node>
	<node lat="62.372738629628635" lon="10.849676944641816" id="-20748">
		<tag k="name" v="Knappåstjønnan" />
		<tag k="natural" v="water" />
		<tag k="ssr:stedsnr" v="861168" />
		<tag k="water" v="lake" />
	</node>
	<node lat="62.396469443720896" lon="10.694875006947477" id="-20754">
		<tag k="name" v="Lona" />
		<tag k="ssr:stedsnr" v="861700" />
		<tag k="waterway" v="river" />
	</node>
	<node lat="62.403074997323976" lon="10.671750004205123" id="-20755">
		<tag k="name" v="Storsteinbekken" />
		<tag k="ssr:stedsnr" v="861800" />
		<tag k="waterway" v="stream" />
	</node>
	<node lat="62.23056134075219" lon="11.238892710284166" id="-20756">
		<tag k="name" v="Vesle Raudsjøen" />
		<tag k="natural" v="water" />
		<tag k="ssr:stedsnr" v="870095" />
		<tag k="water" v="lake" />
	</node>
	<node lat="62.456952778633564" lon="10.741536107312527" id="-20771">
		<tag k="name" v="Båtjønnbekken" />
		<tag k="ssr:stedsnr" v="904319" />
		<tag k="waterway" v="stream" />
	</node>
	<node lat="62.287816669435244" lon="11.311686119979028" id="-20776">
		<tag k="name" v="Finnrøstbekken" />
		<tag k="ssr:stedsnr" v="904609" />
		<tag k="waterway" v="stream" />
	</node>
	<node lat="62.4342638902828" lon="10.907366665481709" id="-20779">
		<tag k="name" v="Veslesæterbekken" />
		<tag k="ssr:stedsnr" v="904816" />
		<tag k="waterway" v="stream" />
	</node>
	<node lat="62.20196110996347" lon="11.532419446654208" id="-20782">
		<tag k="name" v="Bulibekken" />
		<tag k="ssr:stedsnr" v="904960" />
		<tag k="waterway" v="stream" />
	</node>
	<node lat="62.23625555124179" lon="11.50313889595155" id="-20787">
		<tag k="alt_name" v="Gravskardbekken, store" />
		<tag k="name" v="Store Gravskarbekken" />
		<tag k="ssr:stedsnr" v="921488" />
		<tag k="waterway" v="stream" />
	</node>
	<node lat="62.449178310696" lon="10.918816530985353" id="-20790">
		<tag k="alt_name" v="Tallsjøen, øvre;Øver Tallsjøen" />
		<tag k="name" v="Øvre Tallsjøen" />
		<tag k="natural" v="water" />
		<tag k="ssr:stedsnr" v="922093" />
		<tag k="water" v="lake" />
	</node>
	<node lat="62.36820000008793" lon="11.135036117098794" id="-20793">
		<tag k="alt_name" v="Gjøddtjønna" />
		<tag k="name" v="Gjeddetjønna" />
		<tag k="natural" v="water" />
		<tag k="ssr:stedsnr" v="922179" />
	</node>
	<node lat="62.25551111219328" lon="11.056119440329487" id="-20795">
		<tag k="name" v="Vaskåstjønna" />
		<tag k="natural" v="water" />
		<tag k="ssr:stedsnr" v="922305" />
	</node>
	<node lat="62.420711106955906" lon="10.823138896651297" id="-20806">
		<tag k="name" v="Sorgentjønna" />
		<tag k="natural" v="water" />
		<tag k="ssr:stedsnr" v="964590" />
	</node>
	<node lat="62.185611112324544" lon="11.562588887843479" id="-20809">
		<tag k="name" v="Myrodden" />
		<tag k="natural" v="cape" />
		<tag k="ssr:stedsnr" v="964994" />
	</node>
	<node lat="62.35711666501827" lon="11.169038886750949" id="-20818">
		<tag k="name" v="Andersodden" />
		<tag k="place" v="islet" />
		<tag k="ssr:stedsnr" v="965485" />
	</node>
	<node lat="62.362963884984744" lon="11.169686106989001" id="-20819">
		<tag k="name" v="Svartlandtjønna" />
		<tag k="natural" v="water" />
		<tag k="ssr:stedsnr" v="965490" />
	</node>
	<node lat="62.252777778141365" lon="11.481416674463395" id="-20824">
		<tag k="name" v="Okshølbekken" />
		<tag k="ssr:stedsnr" v="965795" />
		<tag k="waterway" v="stream" />
	</node>
	<node lat="62.229061112900176" lon="11.487858337229403" id="-20829">
		<tag k="name" v="Andersodden" />
		<tag k="natural" v="cape" />
		<tag k="ssr:stedsnr" v="965803" />
	</node>
	<node lat="62.36129444797957" lon="10.940983326592706" id="-20830">
		<tag k="name" v="Telkroken" />
		<tag k="natural" v="water" />
		<tag k="ssr:stedsnr" v="965806" />
		<tag k="water" v="lake" />
	</node>
	<node lat="62.42307222400123" lon="11.19131944725326" id="-20839">
		<tag k="fixme" v="multiple name tags, choose one and add the other to alt_name" />
		<tag k="name" v="Bubekken;Gammelløbekken" />
		<tag k="ssr:stedsnr" v="11094" />
		<tag k="waterway" v="stream" />
	</node>
	<node lat="62.21762777354118" lon="11.240274997661745" id="-20843">
		<tag k="name" v="Steinhusbekken" />
		<tag k="ssr:stedsnr" v="11471" />
		<tag k="waterway" v="stream" />
	</node>
	<node lat="62.43647777429307" lon="10.611311117576113" id="-20848">
		<tag k="name" v="Butjønna" />
		<tag k="natural" v="water" />
		<tag k="ssr:stedsnr" v="11849" />
	</node>
	<node lat="62.50940833197147" lon="10.511691657968756" id="-20852">
		<tag k="name" v="Trolltjønn" />
		<tag k="natural" v="water" />
		<tag k="ssr:stedsnr" v="12067" />
	</node>
	<node lat="62.49341944374072" lon="10.538425009269204" id="-20857">
		<tag k="alt_name" v="Hullbekken" />
		<tag k="name" v="Holbekken" />
		<tag k="ssr:stedsnr" v="12649" />
		<tag k="waterway" v="stream" />
	</node>
	<node lat="62.26642500285318" lon="10.993394445324634" id="-20863">
		<tag k="name" v="Klettbekken" />
		<tag k="ssr:stedsnr" v="52331" />
		<tag k="waterway" v="stream" />
	</node>
	<node lat="62.44084166566712" lon="10.782869451970779" id="-20864">
		<tag k="name" v="Fisktjønna" />
		<tag k="natural" v="water" />
		<tag k="ssr:stedsnr" v="54599" />
	</node>
	<node lat="62.37124444672533" lon="10.998052772833107" id="-20874">
		<tag k="name" v="Nøstertjønna" />
		<tag k="natural" v="water" />
		<tag k="ssr:stedsnr" v="54328" />
	</node>
	<node lat="62.36699722086608" lon="11.159972213101012" id="-20885">
		<tag k="name" v="Sløhåen" />
		<tag k="natural" v="water" />
		<tag k="ssr:stedsnr" v="54463" />
	</node>
	<node lat="62.326563886817475" lon="11.379466669440301" id="-20889">
		<tag k="name" v="Ormbekken" />
		<tag k="ssr:stedsnr" v="54659" />
		<tag k="waterway" v="stream" />
	</node>
	<node lat="62.27135000375813" lon="11.366802774980991" id="-20897">
		<tag k="name" v="Kvanntrøbekken" />
		<tag k="ssr:stedsnr" v="54848" />
		<tag k="waterway" v="stream" />
	</node>
	<node lat="62.36871389232371" lon="10.957922218170838" id="-20910">
		<tag k="name" v="Tjønna" />
		<tag k="natural" v="water" />
		<tag k="ssr:stedsnr" v="55782" />
	</node>
	<node lat="62.28783611363824" lon="11.36987221785224" id="-20914">
		<tag k="name" v="Langkåsbekken" />
		<tag k="ssr:stedsnr" v="55656" />
		<tag k="waterway" v="stream" />
	</node>
	<node lat="62.18106944684087" lon="11.418869444937394" id="-20919">
		<tag k="name" v="Fallet" />
		<tag k="natural" v="waterfall" />
		<tag k="ssr:stedsnr" v="55741" />
	</node>
	<node lat="62.216894444231045" lon="11.385191668665462" id="-20926">
		<tag k="name" v="Hestbekken" />
		<tag k="ssr:stedsnr" v="63855" />
		<tag k="waterway" v="stream" />
	</node>
	<node lat="62.20069722198594" lon="11.181416670937077" id="-20927">
		<tag k="name" v="Storbekken" />
		<tag k="ssr:stedsnr" v="71260" />
		<tag k="waterway" v="stream" />
	</node>
	<node lat="62.233663889114624" lon="11.381211103545006" id="-20928">
		<tag k="name" v="Svartbekken" />
		<tag k="ssr:stedsnr" v="71476" />
		<tag k="waterway" v="stream" />
	</node>
	<node lat="62.49356944749824" lon="10.83888888336161" id="-20934">
		<tag k="alt_name" v="Orvilla" />
		<tag k="name" v="Ørvilla" />
		<tag k="ssr:stedsnr" v="72049" />
		<tag k="waterway" v="river" />
	</node>
	<node lat="62.46896944205032" lon="10.86711111526087" id="-20938">
		<tag k="alt_name" v="Hundsjøen, vesle;Vesle Hundsjøen" />
		<tag k="name" v="Veslhundsjøen" />
		<tag k="natural" v="water" />
		<tag k="ssr:stedsnr" v="72059" />
	</node>
	<node lat="62.39236666340804" lon="11.164722217715934" id="-20944">
		<tag k="alt_name" v="Krokbekken" />
		<tag k="name" v="Kroketbekken" />
		<tag k="ssr:stedsnr" v="72157" />
		<tag k="waterway" v="stream" />
	</node>
	<node lat="62.42453888754611" lon="11.112572217758599" id="-20949">
		<tag k="name" v="Bjøra" />
		<tag k="ssr:stedsnr" v="72111" />
		<tag k="waterway" v="river" />
	</node>
	<node lat="62.169036108458016" lon="11.516383333656503" id="-20950">
		<tag k="alt_name" v="Sandnesrobekken" />
		<tag k="name" v="Sandnesbekken" />
		<tag k="ssr:stedsnr" v="72355" />
		<tag k="waterway" v="stream" />
	</node>
	<node lat="62.33439261087726" lon="11.241044319493403" id="-20952">
		<tag k="name" v="Stortjønna" />
		<tag k="natural" v="water" />
		<tag k="ssr:stedsnr" v="72416" />
	</node>
	<node lat="62.27662221898303" lon="11.434819447627698" id="-20954">
		<tag k="name" v="Langtjønna" />
		<tag k="natural" v="water" />
		<tag k="ssr:stedsnr" v="72458" />
	</node>
	<node lat="62.470572219350025" lon="10.58822221776449" id="-20958">
		<tag k="name" v="Langtjønna" />
		<tag k="natural" v="water" />
		<tag k="ssr:stedsnr" v="72858" />
	</node>
	<node lat="62.26067078873611" lon="11.065045332524353" id="-20960">
		<tag k="name" v="Stryptjønnan" />
		<tag k="natural" v="water" />
		<tag k="ssr:stedsnr" v="73331" />
		<tag k="water" v="lake" />
	</node>
	<node lat="62.254238890997364" lon="11.229680565242516" id="-20961">
		<tag k="name" v="Firkanttjønna" />
		<tag k="natural" v="water" />
		<tag k="ssr:stedsnr" v="73549" />
	</node>
	<node lat="62.419422221896184" lon="10.783177778863944" id="-20962">
		<tag k="name" v="Sjusjøen" />
		<tag k="natural" v="water" />
		<tag k="ssr:stedsnr" v="89784" />
	</node>
	<node lat="62.41395833524675" lon="11.166558325794085" id="-20977">
		<tag k="name" v="Flobekken" />
		<tag k="ssr:stedsnr" v="115548" />
		<tag k="waterway" v="stream" />
	</node>
	<node lat="62.413177780442396" lon="11.171888889468624" id="-20978">
		<tag k="name" v="Engloken" />
		<tag k="natural" v="water" />
		<tag k="ssr:stedsnr" v="115550" />
	</node>
	<node lat="62.43897222182084" lon="10.792916667132454" id="-20979">
		<tag k="name" v="Moloken" />
		<tag k="natural" v="water" />
		<tag k="ssr:stedsnr" v="115566" />
	</node>
	<node lat="62.43289444231249" lon="10.964372217315569" id="-20982">
		<tag k="name" v="Håen" />
		<tag k="natural" v="bay" />
		<tag k="ssr:stedsnr" v="115793" />
	</node>
	<node lat="62.4585416644715" lon="10.967216673879868" id="-20984">
		<tag k="name" v="Skjetdike" />
		<tag k="ssr:stedsnr" v="115191" />
		<tag k="waterway" v="stream" />
	</node>
	<node lat="62.396088893137055" lon="11.006808341562527" id="-20986">
		<tag k="name" v="Storbekken" />
		<tag k="ssr:stedsnr" v="115288" />
		<tag k="waterway" v="stream" />
	</node>
	<node lat="62.32904999959165" lon="11.231613897207698" id="-20991">
		<tag k="name" v="Hølåsvika" />
		<tag k="natural" v="bay" />
		<tag k="ssr:stedsnr" v="115591" />
	</node>
	<node lat="62.34351666413063" lon="11.216205564427918" id="-20992">
		<tag k="name" v="Håen" />
		<tag k="natural" v="bay" />
		<tag k="ssr:stedsnr" v="115592" />
	</node>
	<node lat="62.33314166644739" lon="11.341866667383862" id="-20993">
		<tag k="name" v="Svartbekken" />
		<tag k="ssr:stedsnr" v="115624" />
		<tag k="waterway" v="stream" />
	</node>
	<node lat="62.428458334789916" lon="11.095927784586744" id="-21001">
		<tag k="name" v="Erliøyan" />
		<tag k="place" v="island" />
		<tag k="ssr:stedsnr" v="115509" />
	</node>
	<node lat="62.43781944498727" lon="10.876463891731513" id="-21004">
		<tag k="name" v="Gammelsæterbekken" />
		<tag k="ssr:stedsnr" v="115827" />
		<tag k="waterway" v="stream" />
	</node>
	<node lat="62.20673333734363" lon="11.407758335681951" id="-21008">
		<tag k="name" v="Bekkelytjønna" />
		<tag k="natural" v="water" />
		<tag k="ssr:stedsnr" v="115844" />
	</node>
	<node lat="62.20510555580568" lon="11.424955557335611" id="-21013">
		<tag k="name" v="Bukroken" />
		<tag k="natural" v="cape" />
		<tag k="ssr:stedsnr" v="115859" />
	</node>
	<node lat="62.41432499633125" lon="10.805002776916343" id="-21024">
		<tag k="name" v="Skardstjønna" />
		<tag k="natural" v="water" />
		<tag k="ssr:stedsnr" v="132125" />
	</node>
	<node lat="62.20661111163534" lon="11.569402785363778" id="-21029">
		<tag k="name" v="Løvbekken" />
		<tag k="ssr:stedsnr" v="132448" />
		<tag k="waterway" v="stream" />
	</node>
	<node lat="62.425316668321074" lon="11.034488897557758" id="-21042">
		<tag k="name" v="Storbekken" />
		<tag k="ssr:stedsnr" v="133096" />
		<tag k="waterway" v="stream" />
	</node>
	<node lat="62.272241667384705" lon="11.453930557335822" id="-21044">
		<tag k="alt_name" v="Halleråa" />
		<tag k="name" v="Hallaråa" />
		<tag k="ssr:stedsnr" v="133494" />
		<tag k="waterway" v="river" />
	</node>
	<node lat="62.494344447385316" lon="10.674491667892621" id="-21047">
		<tag k="name" v="Gjersjøen" />
		<tag k="natural" v="water" />
		<tag k="ssr:stedsnr" v="133614" />
		<tag k="water" v="lake" />
	</node>
	<node lat="62.35643889019678" lon="11.172969444050668" id="-21060">
		<tag k="name" v="Storholmen" />
		<tag k="place" v="islet" />
		<tag k="ssr:stedsnr" v="176430" />
	</node>
	<node lat="62.360622220464755" lon="11.175463881307158" id="-21061">
		<tag k="name" v="Bjørbekkvika" />
		<tag k="natural" v="bay" />
		<tag k="ssr:stedsnr" v="176434" />
	</node>
	<node lat="62.43920833060195" lon="10.96636110662091" id="-21064">
		<tag k="name" v="Jamtgjeltodden" />
		<tag k="natural" v="cape" />
		<tag k="ssr:stedsnr" v="175149" />
	</node>
	<node lat="62.465611109065605" lon="10.726947225545487" id="-21068">
		<tag k="name" v="Båtjønnbekken" />
		<tag k="ssr:stedsnr" v="175253" />
		<tag k="waterway" v="stream" />
	</node>
	<node lat="62.35840277718877" lon="10.998725006682026" id="-21069">
		<tag k="name" v="Svarttjønna" />
		<tag k="natural" v="water" />
		<tag k="ssr:stedsnr" v="175334" />
	</node>
	<node lat="62.374444445097446" lon="11.008263893373742" id="-21070">
		<tag k="name" v="Sætertjønna" />
		<tag k="natural" v="water" />
		<tag k="ssr:stedsnr" v="175343" />
	</node>
	<node lat="62.421983330416744" lon="10.828330554645065" id="-21075">
		<tag k="name" v="Djuptjønna" />
		<tag k="natural" v="water" />
		<tag k="ssr:stedsnr" v="175620" />
	</node>
	<node lat="62.43249722088592" lon="10.937750007037286" id="-21077">
		<tag k="name" v="Løvmyrbekken" />
		<tag k="ssr:stedsnr" v="175814" />
		<tag k="waterway" v="stream" />
	</node>
	<node lat="62.45284722177657" lon="10.948436105507342" id="-21080">
		<tag k="name" v="Jensbekken" />
		<tag k="ssr:stedsnr" v="175890" />
		<tag k="waterway" v="stream" />
	</node>
	<node lat="62.4551444487026" lon="10.755716661843804" id="-21090">
		<tag k="name" v="Gammelvangbekken" />
		<tag k="ssr:stedsnr" v="176289" />
		<tag k="waterway" v="stream" />
	</node>
	<node lat="62.31232222112412" lon="11.251155547389398" id="-21093">
		<tag k="name" v="Loken" />
		<tag k="natural" v="water" />
		<tag k="ssr:stedsnr" v="176634" />
	</node>
	<node lat="62.41118055752678" lon="10.825447214371113" id="-21096">
		<tag k="name" v="Gammelsæterbekken" />
		<tag k="ssr:stedsnr" v="176659" />
		<tag k="waterway" v="stream" />
	</node>
	<node lat="62.30588611029835" lon="11.261066659925769" id="-21097">
		<tag k="name" v="Gammelvollvika" />
		<tag k="natural" v="bay" />
		<tag k="ssr:stedsnr" v="176660" />
	</node>
	<node lat="62.304222222660236" lon="11.269613885337538" id="-21098">
		<tag k="name" v="Bakkvika" />
		<tag k="natural" v="bay" />
		<tag k="ssr:stedsnr" v="176661" />
	</node>
	<node lat="62.39261944165883" lon="10.929555562508108" id="-21104">
		<tag k="name" v="Vesletjønna" />
		<tag k="natural" v="water" />
		<tag k="ssr:stedsnr" v="176776" />
	</node>
	<node lat="62.22940555313976" lon="11.48746389060934" id="-21113">
		<tag k="name" v="Andersvika" />
		<tag k="natural" v="bay" />
		<tag k="ssr:stedsnr" v="176792" />
	</node>
	<node lat="62.22977499900755" lon="11.482163896467414" id="-21115">
		<tag k="name" v="Nøsterodden" />
		<tag k="natural" v="cape" />
		<tag k="ssr:stedsnr" v="176801" />
	</node>
	<node lat="62.24716944778379" lon="11.083602768984122" id="-21130">
		<tag k="alt_name" v="Veslkosbekken" />
		<tag k="name" v="Veslekåsbekken" />
		<tag k="ssr:stedsnr" v="193204" />
		<tag k="waterway" v="stream" />
	</node>
	<node lat="62.351427781900775" lon="11.221336105698276" id="-21136">
		<tag k="name" v="Høyåstjønna" />
		<tag k="natural" v="water" />
		<tag k="ssr:stedsnr" v="193470" />
	</node>
	<node lat="62.137925001267426" lon="11.688911119953989" id="-21140">
		<tag k="name" v="Litlåa" />
		<tag k="ssr:stedsnr" v="193419" />
		<tag k="waterway" v="stream" />
	</node>
	<node lat="62.31225555397178" lon="11.377350004653481" id="-21141">
		<tag k="name" v="Galåa" />
		<tag k="ssr:stedsnr" v="193498" />
		<tag k="waterway" v="river" />
	</node>
	<node lat="62.29424166527674" lon="11.463283340245122" id="-21142">
		<tag k="name" v="Håkåtjønna" />
		<tag k="natural" v="water" />
		<tag k="ssr:stedsnr" v="193511" />
	</node>
	<node lat="62.185775000675825" lon="11.48875556355344" id="-21143">
		<tag k="name" v="Smørbekken" />
		<tag k="ssr:stedsnr" v="193512" />
		<tag k="waterway" v="stream" />
	</node>
	<node lat="62.38631944464306" lon="11.102063890711344" id="-21152">
		<tag k="name" v="Langtjønna" />
		<tag k="natural" v="water" />
		<tag k="ssr:stedsnr" v="194166" />
	</node>
	<node lat="62.375458332921234" lon="11.188694443295978" id="-21153">
		<tag k="alt_name" v="Harrbekken, store;Harrbekken" />
		<tag k="name" v="Store Harrbekken" />
		<tag k="ssr:stedsnr" v="194171" />
		<tag k="waterway" v="stream" />
	</node>
	<node lat="62.4231333353165" lon="10.54833332920897" id="-21160">
		<tag k="name" v="Magnilla" />
		<tag k="ssr:stedsnr" v="194809" />
		<tag k="waterway" v="river" />
	</node>
	<node lat="62.19879721958791" lon="11.454261103368523" id="-21165">
		<tag k="name" v="Jamttjønna" />
		<tag k="natural" v="water" />
		<tag k="ssr:stedsnr" v="297849" />
	</node>
	<node lat="62.406894447232204" lon="10.730111120469907" id="-21170">
		<tag k="name" v="Elgslettloken" />
		<tag k="natural" v="water" />
		<tag k="ssr:stedsnr" v="294264" />
	</node>
	<node lat="62.343838889239784" lon="10.985716664206123" id="-21172">
		<tag k="name" v="Volsvangbekken" />
		<tag k="ssr:stedsnr" v="295350" />
		<tag k="waterway" v="stream" />
	</node>
	<node lat="62.47097500161395" lon="10.796230549791407" id="-21182">
		<tag k="name" v="Ørvillodden" />
		<tag k="natural" v="cape" />
		<tag k="ssr:stedsnr" v="296507" />
	</node>
	<node lat="62.41943055997568" lon="10.822941672007037" id="-21183">
		<tag k="name" v="Brøttbekken" />
		<tag k="ssr:stedsnr" v="296598" />
		<tag k="waterway" v="stream" />
	</node>
	<node lat="62.45376666435943" lon="10.776561116912708" id="-21191">
		<tag k="name" v="Eriksøya" />
		<tag k="natural" v="cape" />
		<tag k="ssr:stedsnr" v="297350" />
	</node>
	<node lat="62.36244444714606" lon="11.172788884624595" id="-21192">
		<tag k="name" v="Langvika" />
		<tag k="natural" v="bay" />
		<tag k="ssr:stedsnr" v="297456" />
	</node>
	<node lat="62.1741416625774" lon="11.441627769288054" id="-21202">
		<tag k="name" v="Sæterbekken" />
		<tag k="ssr:stedsnr" v="297751" />
		<tag k="waterway" v="stream" />
	</node>
	<node lat="62.2396638849423" lon="11.404330552955013" id="-21210">
		<tag k="name" v="Omfløttodden" />
		<tag k="natural" v="cape" />
		<tag k="ssr:stedsnr" v="297812" />
	</node>
	<node lat="62.233872219739204" lon="11.405219439315124" id="-21211">
		<tag k="name" v="Sponga" />
		<tag k="natural" v="water" />
		<tag k="ssr:stedsnr" v="297815" />
		<tag k="water" v="lake" />
	</node>
	<node lat="62.244450004378564" lon="11.103324997497394" id="-21217">
		<tag k="name" v="Storkosbekken" />
		<tag k="ssr:stedsnr" v="314227" />
		<tag k="waterway" v="stream" />
	</node>
	<node lat="62.36137222305144" lon="10.935816662862926" id="-21218">
		<tag k="alt_name" v="Vesletela" />
		<tag k="name" v="Vesltela" />
		<tag k="ssr:stedsnr" v="314234" />
		<tag k="waterway" v="river" />
	</node>
	<node lat="62.23308611373554" lon="11.081977784771281" id="-21219">
		<tag k="alt_name" v="Skrebekken" />
		<tag k="name" v="Skredbekken" />
		<tag k="ssr:stedsnr" v="314237" />
		<tag k="waterway" v="stream" />
	</node>
	<node lat="62.3469102263437" lon="11.200487138307361" id="-21222">
		<tag k="name" v="Drengen" />
		<tag k="natural" v="water" />
		<tag k="ssr:stedsnr" v="314252" />
		<tag k="water" v="lake" />
	</node>
	<node lat="62.24203611134437" lon="11.437477779587438" id="-21231">
		<tag k="name" v="Gloptjønna" />
		<tag k="natural" v="water" />
		<tag k="ssr:stedsnr" v="314514" />
	</node>
	<node lat="62.20219999860579" lon="11.38366944128033" id="-21235">
		<tag k="name" v="Heggeråa" />
		<tag k="ssr:stedsnr" v="314530" />
		<tag k="waterway" v="stream" />
	</node>
	<node lat="62.52307222519485" lon="10.801047217867936" id="-21238">
		<tag k="name" v="Nørdre Tangtjønna" />
		<tag k="natural" v="water" />
		<tag k="ssr:stedsnr" v="314763" />
	</node>
	<node lat="62.2816166699246" lon="11.483008327057998" id="-21244">
		<tag k="name" v="Tynsetbekken" />
		<tag k="ssr:stedsnr" v="315468" />
		<tag k="waterway" v="stream" />
	</node>
	<node lat="62.295449999964" lon="11.229511102523025" id="-21245">
		<tag k="name" v="Klettbekken" />
		<tag k="ssr:stedsnr" v="315477" />
		<tag k="waterway" v="stream" />
	</node>
	<node lat="62.25211944507263" lon="11.053538889202331" id="-21247">
		<tag k="name" v="Bjørklauvtjønna" />
		<tag k="natural" v="water" />
		<tag k="ssr:stedsnr" v="315301" />
	</node>
	<node lat="62.477854708181496" lon="10.938486578165113" id="-21253">
		<tag k="fixme" v="multiple name tags, choose one and add the other to alt_name" />
		<tag k="name" v="Vesle Olåa;Storolåa" />
		<tag k="ssr:stedsnr" v="328690" />
		<tag k="waterway" v="stream" />
	</node>
	<node lat="62.412905555724166" lon="11.10039444660948" id="-21267">
		<tag k="name" v="Rabbåstjønnan" />
		<tag k="natural" v="water" />
		<tag k="ssr:stedsnr" v="356449" />
	</node>
	<node lat="62.434486110435934" lon="10.82057222042093" id="-21275">
		<tag k="name" v="Hemmestbekken" />
		<tag k="ssr:stedsnr" v="357582" />
		<tag k="waterway" v="stream" />
	</node>
	<node lat="62.44954999622099" lon="10.880902777105918" id="-21285">
		<tag k="name" v="Veslesæterbekken" />
		<tag k="ssr:stedsnr" v="357843" />
		<tag k="waterway" v="stream" />
	</node>
	<node lat="62.355577777376396" lon="11.235116670810251" id="-21299">
		<tag k="name" v="Hølbekken" />
		<tag k="ssr:stedsnr" v="358722" />
		<tag k="waterway" v="stream" />
	</node>
	<node lat="62.37900833553708" lon="10.863272224553224" id="-21300">
		<tag k="name" v="Brøttbekken" />
		<tag k="ssr:stedsnr" v="358727" />
		<tag k="waterway" v="stream" />
	</node>
	<node lat="62.40580277584342" lon="10.789819449694505" id="-21304">
		<tag k="name" v="Bratteggbekken" />
		<tag k="ssr:stedsnr" v="358693" />
		<tag k="waterway" v="stream" />
	</node>
	<node lat="62.19918889335726" lon="11.413102776626534" id="-21320">
		<tag k="alt_name" v="Orva;Orva, nordre" />
		<tag k="name" v="Nordre Orva" />
		<tag k="ssr:stedsnr" v="374477" />
		<tag k="waterway" v="stream" />
	</node>
	<node lat="62.22727500199209" lon="11.45656944546241" id="-21322">
		<tag k="name" v="Svartbekken" />
		<tag k="ssr:stedsnr" v="374677" />
		<tag k="waterway" v="stream" />
	</node>
	<node lat="62.5026444408908" lon="10.653536102977075" id="-21325">
		<tag k="name" v="Storgjera" />
		<tag k="ssr:stedsnr" v="375029" />
		<tag k="waterway" v="stream" />
	</node>
	<node lat="62.38356388610237" lon="11.270566676091303" id="-21336">
		<tag k="alt_name" v="Storeengåa;Engåa, store" />
		<tag k="name" v="Store Engåa" />
		<tag k="ssr:stedsnr" v="375379" />
		<tag k="waterway" v="river" />
	</node>
	<node lat="62.19536111076789" lon="11.601344442317016" id="-21337">
		<tag k="name" v="Veslebekken" />
		<tag k="ssr:stedsnr" v="375446" />
		<tag k="waterway" v="stream" />
	</node>
	<node lat="62.52032499718251" lon="10.852891662036473" id="-21339">
		<tag k="name" v="Budalsbekken" />
		<tag k="ssr:stedsnr" v="375743" />
		<tag k="waterway" v="stream" />
	</node>
	<node lat="62.47016944561733" lon="10.581488880643366" id="-21340">
		<tag k="name" v="Jakobsbekken" />
		<tag k="ssr:stedsnr" v="375861" />
		<tag k="waterway" v="stream" />
	</node>
	<node lat="62.43477221877623" lon="10.953483332730563" id="-21343">
		<tag k="alt_name" v="Store Tallsjøen" />
		<tag k="name" v="Nedre Tallsjøen" />
		<tag k="natural" v="water" />
		<tag k="ssr:stedsnr" v="376110" />
		<tag k="water" v="lake" />
	</node>
	<node lat="62.48394444552789" lon="10.77435555041239" id="-21345">
		<tag k="name" v="Tomastjønna" />
		<tag k="natural" v="water" />
		<tag k="ssr:stedsnr" v="388636" />
	</node>
	<node lat="62.46127500336234" lon="10.75058888208892" id="-21351">
		<tag k="name" v="Storbekktjønna" />
		<tag k="natural" v="water" />
		<tag k="ssr:stedsnr" v="417545" />
	</node>
	<node lat="62.207430553810624" lon="11.517863889334146" id="-21358">
		<tag k="name" v="Jopålsaloken" />
		<tag k="natural" v="water" />
		<tag k="ssr:stedsnr" v="418927" />
		<tag k="water" v="pond" />
	</node>
	<node lat="62.4648416637323" lon="10.789780554034653" id="-21360">
		<tag k="name" v="Lertjønna" />
		<tag k="natural" v="water" />
		<tag k="ssr:stedsnr" v="418532" />
	</node>
	<node lat="62.357361108442795" lon="11.192699998529195" id="-21376">
		<tag k="name" v="Vesleengåa" />
		<tag k="ssr:stedsnr" v="419463" />
		<tag k="waterway" v="stream" />
	</node>
	<node lat="62.41388055364691" lon="11.04420278421788" id="-21378">
		<tag k="name" v="Nedre Tamnesbekken" />
		<tag k="ssr:stedsnr" v="419219" />
		<tag k="waterway" v="stream" />
	</node>
	<node lat="62.32710833568289" lon="11.234766669092576" id="-21380">
		<tag k="name" v="Veslevollvika" />
		<tag k="natural" v="bay" />
		<tag k="ssr:stedsnr" v="419629" />
	</node>
	<node lat="62.30085555876042" lon="11.302880561394609" id="-21381">
		<tag k="name" v="Langodden" />
		<tag k="natural" v="cape" />
		<tag k="ssr:stedsnr" v="419645" />
	</node>
	<node lat="62.312311107953086" lon="11.274911112269791" id="-21382">
		<tag k="name" v="Røsviktjønna" />
		<tag k="natural" v="water" />
		<tag k="ssr:stedsnr" v="419650" />
	</node>
	<node lat="62.26280277917892" lon="11.464400001133724" id="-21404">
		<tag k="name" v="Sløa" />
		<tag k="natural" v="water" />
		<tag k="ssr:stedsnr" v="419766" />
		<tag k="water" v="lake" />
	</node>
	<node lat="62.17633055753215" lon="11.42457499146292" id="-21407">
		<tag k="name" v="Orvosen" />
		<tag k="natural" v="bay" />
		<tag k="ssr:stedsnr" v="419775" />
	</node>
	<node lat="62.39361388813646" lon="10.958583342710673" id="-21409">
		<tag k="name" v="Nordfjordbekken" />
		<tag k="ssr:stedsnr" v="419781" />
		<tag k="waterway" v="stream" />
	</node>
	<node lat="62.20279722434753" lon="11.46842221539207" id="-21411">
		<tag k="name" v="Sagfossen" />
		<tag k="natural" v="waterfall" />
		<tag k="ssr:stedsnr" v="419783" />
	</node>
	<node lat="60.93943888528743" lon="11.516244438964907" id="-21412">
		<tag k="fixme" v="multiple name tags, choose one and add the other to alt_name" />
		<tag k="name" v="Glåma;Glomma" />
		<tag k="ssr:stedsnr" v="426301" />
		<tag k="waterway" v="river" />
	</node>
	<node lat="62.51020278238984" lon="10.688838880793455" id="-21413">
		<tag k="alt_name" v="Gjersjøen, l" />
		<tag k="name" v="Litlgjersjøen" />
		<tag k="natural" v="water" />
		<tag k="ssr:stedsnr" v="436063" />
	</node>
	<node lat="62.50638892146823" lon="10.708345248183756" id="-21414">
		<tag k="name" v="Bjørntjønnan" />
		<tag k="natural" v="water" />
		<tag k="ssr:stedsnr" v="436033" />
		<tag k="water" v="lake" />
	</node>
	<node lat="62.46989166586764" lon="10.90842778424759" id="-21417">
		<tag k="alt_name" v="Olaåa, vesle" />
		<tag k="fixme" v="multiple name tags, choose one and add the other to alt_name" />
		<tag k="name" v="Store Olåa;Veslolåa" />
		<tag k="ssr:stedsnr" v="436050" />
		<tag k="waterway" v="stream" />
	</node>
	<node lat="62.47370278042506" lon="10.980375008029153" id="-21418">
		<tag k="alt_name" v="Åssåtjønna" />
		<tag k="name" v="Ossortjønna" />
		<tag k="natural" v="water" />
		<tag k="ssr:stedsnr" v="436052" />
	</node>
	<node lat="62.23370833305198" lon="11.171500007921873" id="-21421">
		<tag k="name" v="Kvannbekken" />
		<tag k="ssr:stedsnr" v="436197" />
		<tag k="waterway" v="stream" />
	</node>
	<node lat="62.24065555306793" lon="11.403305553293235" id="-21424">
		<tag k="name" v="Hola" />
		<tag k="ssr:stedsnr" v="436435" />
		<tag k="waterway" v="river" />
	</node>
	<node lat="62.314427777355775" lon="11.202608335158674" id="-21433">
		<tag k="name" v="Strømbekken" />
		<tag k="ssr:stedsnr" v="496291" />
		<tag k="waterway" v="stream" />
	</node>
	<node lat="62.34659444207857" lon="11.245052784298194" id="-21436">
		<tag k="name" v="Bjørnbekken" />
		<tag k="ssr:stedsnr" v="496493" />
		<tag k="waterway" v="stream" />
	</node>
	<node lat="62.275766669399815" lon="11.063111118401197" id="-21441">
		<tag k="alt_name" v="Vesletela" />
		<tag k="fixme" v="multiple name tags, choose one and add the other to alt_name" />
		<tag k="loc_name" v="Ørdbekken" />
		<tag k="name" v="Aurbekken;Vesltela" />
		<tag k="ssr:stedsnr" v="497272" />
		<tag k="waterway" v="stream" />
	</node>
	<node lat="62.56458055216574" lon="10.776136103681539" id="-21456">
		<tag k="loc_name" v="Austelva" />
		<tag k="name" v="Østelva" />
		<tag k="ssr:stedsnr" v="497817" />
		<tag k="waterway" v="stream" />
	</node>
	<node lat="62.31297500413831" lon="11.339774993274787" id="-21459">
		<tag k="name" v="Voltjønna" />
		<tag k="natural" v="water" />
		<tag k="ssr:stedsnr" v="497465" />
	</node>
	<node lat="62.30629603059549" lon="11.274164263738884" id="-21460">
		<tag k="name" v="Storsjøen" />
		<tag k="natural" v="water" />
		<tag k="ssr:stedsnr" v="497469" />
		<tag k="water" v="lake" />
	</node>
	<node lat="62.376508332855565" lon="11.230405561092784" id="-21462">
		<tag k="alt_name" v="Vesleengåa;Engåa, l" />
		<tag k="name" v="Lille Engåa" />
		<tag k="ssr:stedsnr" v="497412" />
		<tag k="waterway" v="stream" />
	</node>
	<node lat="62.41934999632426" lon="10.669830553811622" id="-21464">
		<tag k="name" v="Kvitsjøen" />
		<tag k="natural" v="water" />
		<tag k="ssr:stedsnr" v="505451" />
		<tag k="water" v="lake" />
	</node>
	<node lat="62.270555558210575" lon="11.465997223691195" id="-21465">
		<tag k="name" v="Haugtjønna" />
		<tag k="natural" v="water" />
		<tag k="ssr:stedsnr" v="540297" />
	</node>
	<node lat="62.32468333395783" lon="11.223516664964778" id="-21489">
		<tag k="name" v="Vesleengbekken" />
		<tag k="ssr:stedsnr" v="539642" />
		<tag k="waterway" v="stream" />
	</node>
	<node lat="62.335427776154624" lon="11.222383341424441" id="-21490">
		<tag k="name" v="Merra" />
		<tag k="place" v="islet" />
		<tag k="ssr:stedsnr" v="539644" />
	</node>
	<node lat="62.168952781796705" lon="11.595041658535429" id="-21494">
		<tag k="name" v="Vollsoddan" />
		<tag k="natural" v="cape" />
		<tag k="ssr:stedsnr" v="539974" />
	</node>
	<node lat="62.159724996373654" lon="11.633380559430957" id="-21495">
		<tag k="name" v="Hølbekken" />
		<tag k="ssr:stedsnr" v="539978" />
		<tag k="waterway" v="stream" />
	</node>
	<node lat="62.21456389191133" lon="11.406994451337257" id="-21497">
		<tag k="name" v="Bjørnhølen" />
		<tag k="place" v="locality" />
		<tag k="ssr:stedsnr" v="540853" />
	</node>
	<node lat="62.469236109894325" lon="10.956158325596814" id="-21499">
		<tag k="name" v="Milskiftbekken" />
		<tag k="ssr:stedsnr" v="540859" />
		<tag k="waterway" v="stream" />
	</node>
	<node lat="62.37941111204875" lon="10.941927769594082" id="-21513">
		<tag k="name" v="Fosshue" />
		<tag k="natural" v="cape" />
		<tag k="ssr:stedsnr" v="540789" />
	</node>
	<node lat="62.291563891057564" lon="11.422366667014357" id="-21514">
		<tag k="name" v="Knaustjønna" />
		<tag k="natural" v="water" />
		<tag k="ssr:stedsnr" v="540801" />
	</node>
	<node lat="62.456375282799705" lon="11.064983942419731" id="-21528">
		<tag k="name" v="Hørttjønnan" />
		<tag k="natural" v="water" />
		<tag k="ssr:stedsnr" v="557081" />
	</node>
	<node lat="62.47294444757933" lon="10.697075005475348" id="-21547">
		<tag k="name" v="Koietjønna" />
		<tag k="natural" v="water" />
		<tag k="ssr:stedsnr" v="557859" />
	</node>
	<node lat="62.34517777522574" lon="11.192141663596162" id="-21554">
		<tag k="name" v="Vikan" />
		<tag k="natural" v="bay" />
		<tag k="ssr:stedsnr" v="599397" />
	</node>
	<node lat="62.47654722420463" lon="10.837308325762415" id="-21558">
		<tag k="alt_name" v="Vesle Hundsjøbekken" />
		<tag k="name" v="Veslehundsjøbekken" />
		<tag k="ssr:stedsnr" v="599547" />
		<tag k="waterway" v="stream" />
	</node>
	<node lat="62.431861110307246" lon="11.012394439544714" id="-21565">
		<tag k="name" v="Kuloken" />
		<tag k="natural" v="water" />
		<tag k="ssr:stedsnr" v="600145" />
	</node>
	<node lat="62.15166944121775" lon="11.612211109772339" id="-21571">
		<tag k="name" v="Langodden" />
		<tag k="natural" v="cape" />
		<tag k="ssr:stedsnr" v="600889" />
	</node>
	<node lat="62.41090555776576" lon="10.99215832784438" id="-21576">
		<tag k="name" v="Malmplassen" />
		<tag k="natural" v="beach" />
		<tag k="ssr:stedsnr" v="600277" />
	</node>
	<node lat="62.43640000312055" lon="10.659175001761763" id="-21580">
		<tag k="name" v="Volbekken" />
		<tag k="ssr:stedsnr" v="600329" />
		<tag k="waterway" v="stream" />
	</node>
	<node lat="62.4049388861867" lon="11.134511107555323" id="-21587">
		<tag k="name" v="Gravtjønna" />
		<tag k="natural" v="water" />
		<tag k="ssr:stedsnr" v="600411" />
	</node>
	<node lat="62.31825555673816" lon="11.250563887490772" id="-21593">
		<tag k="name" v="Tangvika" />
		<tag k="natural" v="bay" />
		<tag k="ssr:stedsnr" v="600595" />
	</node>
	<node lat="62.46191666946986" lon="10.860874990743072" id="-21604">
		<tag k="name" v="Lortdikjet" />
		<tag k="ssr:stedsnr" v="600931" />
		<tag k="waterway" v="stream" />
	</node>
	<node lat="62.514761115307756" lon="10.853305550285087" id="-21618">
		<tag k="name" v="Storbekken" />
		<tag k="ssr:stedsnr" v="618344" />
		<tag k="waterway" v="stream" />
	</node>
	<node lat="62.285544439926404" lon="11.20335000914173" id="-21625">
		<tag k="name" v="Stortjønna" />
		<tag k="natural" v="water" />
		<tag k="ssr:stedsnr" v="618267" />
	</node>
	<node lat="62.43062222470381" lon="10.655955549717667" id="-21628">
		<tag k="name" v="Gjera" />
		<tag k="ssr:stedsnr" v="618786" />
		<tag k="waterway" v="river" />
	</node>
	<node lat="62.50205832940061" lon="10.761561109208937" id="-21630">
		<tag k="alt_name" v="Bjønnbekken" />
		<tag k="name" v="Bjørnbekken" />
		<tag k="old_name" v="Bjørnåsbekken" />
		<tag k="ssr:stedsnr" v="618756" />
		<tag k="waterway" v="stream" />
	</node>
	<node lat="62.44393333765248" lon="10.621024998787792" id="-21636">
		<tag k="name" v="Gubbengtjønna" />
		<tag k="natural" v="water" />
		<tag k="ssr:stedsnr" v="658424" />
	</node>
	<node lat="62.44691666775124" lon="10.97980834048879" id="-21649">
		<tag k="name" v="Vangsbekken" />
		<tag k="ssr:stedsnr" v="660168" />
		<tag k="waterway" v="stream" />
	</node>
	<node lat="62.4246416664222" lon="10.982905556691142" id="-21650">
		<tag k="name" v="Hulbekken" />
		<tag k="ssr:stedsnr" v="660175" />
		<tag k="waterway" v="stream" />
	</node>
	<node lat="62.49787222201027" lon="10.757355554647024" id="-21656">
		<tag k="name" v="Merkråbekken" />
		<tag k="ssr:stedsnr" v="660543" />
		<tag k="waterway" v="stream" />
	</node>
	<node lat="62.32085555564612" lon="11.24873887941939" id="-21675">
		<tag k="name" v="Sundet" />
		<tag k="natural" v="strait" />
		<tag k="ssr:stedsnr" v="661597" />
	</node>
	<node lat="62.3707975184356" lon="11.297717665960473" id="-21677">
		<tag k="name" v="Kvannåstjønnan" />
		<tag k="natural" v="water" />
		<tag k="ssr:stedsnr" v="661712" />
		<tag k="water" v="lake" />
	</node>
	<node lat="62.3475833331579" lon="10.884263891593744" id="-21696">
		<tag k="name" v="Kvisla" />
		<tag k="place" v="island" />
		<tag k="ssr:stedsnr" v="720259" />
	</node>
	<node lat="62.34738610824908" lon="10.890227768955512" id="-21697">
		<tag k="name" v="Vesleholmen" />
		<tag k="place" v="islet" />
		<tag k="ssr:stedsnr" v="720262" />
	</node>
	<node lat="62.464436107429776" lon="11.030191664255746" id="-21698">
		<tag k="name" v="Butjønnbekken" />
		<tag k="ssr:stedsnr" v="721035" />
		<tag k="waterway" v="stream" />
	</node>
	<node lat="62.44430833358272" lon="10.81220000198073" id="-21708">
		<tag k="name" v="Bergloken" />
		<tag k="natural" v="water" />
		<tag k="ssr:stedsnr" v="721591" />
	</node>
	<node lat="62.41875555330095" lon="10.836233332698013" id="-21709">
		<tag k="name" v="Hemmestjønna" />
		<tag k="natural" v="water" />
		<tag k="ssr:stedsnr" v="721597" />
	</node>
	<node lat="62.33653055378763" lon="11.2249111105199" id="-21711">
		<tag k="name" v="Hølet" />
		<tag k="natural" v="strait" />
		<tag k="ssr:stedsnr" v="721631" />
	</node>
	<node lat="62.15654167072657" lon="11.592363885622847" id="-21718">
		<tag k="name" v="Mellombekken" />
		<tag k="ssr:stedsnr" v="721963" />
		<tag k="waterway" v="stream" />
	</node>
	<node lat="62.256308337264684" lon="11.078066662032116" id="-21725">
		<tag k="name" v="Tynsetkåsbekken" />
		<tag k="ssr:stedsnr" v="722312" />
		<tag k="waterway" v="stream" />
	</node>
	<node lat="62.45039999792742" lon="10.756719453437322" id="-21730">
		<tag k="name" v="Storbekken" />
		<tag k="ssr:stedsnr" v="722362" />
		<tag k="waterway" v="stream" />
	</node>
	<node lat="62.358936113955934" lon="11.178027785187295" id="-21732">
		<tag k="name" v="Movika" />
		<tag k="natural" v="bay" />
		<tag k="ssr:stedsnr" v="722479" />
	</node>
	<node lat="62.28990555347145" lon="11.326966672921618" id="-21739">
		<tag k="name" v="Robekken" />
		<tag k="ssr:stedsnr" v="722661" />
		<tag k="waterway" v="stream" />
	</node>
	<node lat="62.36787777356231" lon="10.85852499185567" id="-21744">
		<tag k="name" v="Vesletjønna" />
		<tag k="natural" v="water" />
		<tag k="ssr:stedsnr" v="722798" />
	</node>
	<node lat="62.345319441476654" lon="11.325944440729742" id="-21756">
		<tag k="alt_name" v="Svartbekken" />
		<tag k="name" v="Svartåsbekken" />
		<tag k="ssr:stedsnr" v="739463" />
		<tag k="waterway" v="stream" />
	</node>
	<node lat="62.21088055988424" lon="11.361563884316325" id="-21759">
		<tag k="name" v="Kvitbekken" />
		<tag k="ssr:stedsnr" v="739477" />
		<tag k="waterway" v="stream" />
	</node>
	<node lat="62.47042227160457" lon="10.692435748944007" id="-21766">
		<tag k="loc_name" v="Koversjøen" />
		<tag k="name" v="Kovertjønnan" />
		<tag k="natural" v="water" />
		<tag k="ssr:stedsnr" v="739854" />
		<tag k="water" v="lake" />
	</node>
	<node lat="62.45504444726464" lon="11.017819451568108" id="-21769">
		<tag k="name" v="Butjønna" />
		<tag k="natural" v="water" />
		<tag k="ssr:stedsnr" v="740061" />
	</node>
	<node lat="62.36363333608756" lon="11.14940276902928" id="-21776">
		<tag k="name" v="Harrtjønna" />
		<tag k="natural" v="water" />
		<tag k="ssr:stedsnr" v="740186" />
	</node>
	<node lat="62.283341668904924" lon="11.021697218165773" id="-21777">
		<tag k="name" v="Kløftet" />
		<tag k="natural" v="cape" />
		<tag k="ssr:stedsnr" v="740270" />
	</node>
	<node lat="62.56063055598474" lon="10.740316672005505" id="-21779">
		<tag k="name" v="Bratthøbekken" />
		<tag k="ssr:stedsnr" v="740813" />
		<tag k="waterway" v="stream" />
	</node>
	<node lat="62.40699721812324" lon="10.678211109237976" id="-21784">
		<tag k="name" v="Skarvdalsbekken" />
		<tag k="ssr:stedsnr" v="780002" />
		<tag k="waterway" v="stream" />
	</node>
	<node lat="62.37069444660594" lon="11.09483889166181" id="-21799">
		<tag k="name" v="Engebekken" />
		<tag k="ssr:stedsnr" v="782423" />
		<tag k="waterway" v="stream" />
	</node>
	<node lat="62.336455555689916" lon="11.22054722039039" id="-21800">
		<tag k="name" v="Hesten" />
		<tag k="place" v="islet" />
		<tag k="ssr:stedsnr" v="782608" />
	</node>
	<node lat="62.479852775405156" lon="10.81983054582608" id="-21803">
		<tag k="name" v="Vesleengbekken" />
		<tag k="ssr:stedsnr" v="782530" />
		<tag k="waterway" v="stream" />
	</node>
	<node lat="62.45064444060359" lon="10.922036105411719" id="-21805">
		<tag k="name" v="Kongsodden" />
		<tag k="natural" v="cape" />
		<tag k="ssr:stedsnr" v="782867" />
	</node>
	<node lat="62.19010556004158" lon="11.478863881148142" id="-21810">
		<tag k="name" v="Lomloken" />
		<tag k="natural" v="water" />
		<tag k="ssr:stedsnr" v="782983" />
	</node>
	<node lat="62.28500833022871" lon="11.474983328340345" id="-21813">
		<tag k="name" v="Kvannhølen" />
		<tag k="natural" v="water" />
		<tag k="ssr:stedsnr" v="783264" />
		<tag k="water" v="pond" />
	</node>
	<node lat="62.36380278109074" lon="11.156816669708762" id="-21824">
		<tag k="name" v="Sløhåsundet" />
		<tag k="natural" v="strait" />
		<tag k="ssr:stedsnr" v="783468" />
	</node>
	<node lat="62.3275611099465" lon="11.248047225564731" id="-21827">
		<tag k="name" v="Kronbekkvika" />
		<tag k="natural" v="bay" />
		<tag k="ssr:stedsnr" v="783634" />
	</node>
	<node lat="62.295308330481475" lon="11.279049991796422" id="-21828">
		<tag k="name" v="Letningsbekken" />
		<tag k="ssr:stedsnr" v="783644" />
		<tag k="waterway" v="stream" />
	</node>
	<node lat="62.373899997807776" lon="10.847113896556806" id="-21833">
		<tag k="name" v="Stortjønna" />
		<tag k="natural" v="water" />
		<tag k="ssr:stedsnr" v="783722" />
	</node>
	<node lat="62.301441664225145" lon="11.276041660851146" id="-21835">
		<tag k="name" v="Letningsloken" />
		<tag k="natural" v="bay" />
		<tag k="ssr:stedsnr" v="783648" />
	</node>
	<node lat="62.30355833517846" lon="11.405374998811252" id="-21838">
		<tag k="name" v="Sæterbekken" />
		<tag k="ssr:stedsnr" v="783681" />
		<tag k="waterway" v="stream" />
	</node>
	<node lat="62.419320858568746" lon="10.975453889822097" id="-21844">
		<tag k="name" v="Tolja" />
		<tag k="ssr:stedsnr" v="783894" />
		<tag k="waterway" v="stream" />
	</node>
	<node lat="62.36949166515034" lon="10.852119450322665" id="-21846">
		<tag k="name" v="Midttjønna" />
		<tag k="natural" v="water" />
		<tag k="ssr:stedsnr" v="783781" />
	</node>
	<node lat="62.21876389129159" lon="11.264808331219186" id="-21850">
		<tag k="name" v="Skredbekken" />
		<tag k="ssr:stedsnr" v="799469" />
		<tag k="waterway" v="stream" />
	</node>
	<node lat="62.173338884862254" lon="11.572974997400623" id="-21852">
		<tag k="name" v="Langsjøen" />
		<tag k="natural" v="water" />
		<tag k="ssr:stedsnr" v="800478" />
		<tag k="water" v="lake" />
	</node>
	<node lat="62.38415277438996" lon="10.894636105578872" id="-21854">
		<tag k="fixme" v="multiple name tags, choose one and add the other to alt_name" />
		<tag k="name" v="Stormyrbekken;Møkkelbekken" />
		<tag k="ssr:stedsnr" v="801159" />
		<tag k="waterway" v="stream" />
	</node>
	<node lat="62.39318888785689" lon="11.108691661412028" id="-21855">
		<tag k="name" v="Tangtjønna" />
		<tag k="natural" v="water" />
		<tag k="ssr:stedsnr" v="801161" />
	</node>
	<node lat="62.24659167004146" lon="11.21169167356625" id="-21862">
		<tag k="name" v="Raudsjøåa" />
		<tag k="ssr:stedsnr" v="800212" />
		<tag k="waterway" v="river" />
	</node>
	<node lat="62.36233611504563" lon="11.352627770739382" id="-21866">
		<tag k="name" v="Galåa" />
		<tag k="ssr:stedsnr" v="800413" />
		<tag k="waterway" v="stream" />
	</node>
	<node lat="62.52827499719002" lon="10.730208341055945" id="-21867">
		<tag k="alt_name" v="Ravaldbekken" />
		<tag k="name" v="Ravallbekken" />
		<tag k="ssr:stedsnr" v="800845" />
		<tag k="waterway" v="stream" />
	</node>
	<node lat="62.45433332970638" lon="10.928605545677057" id="-21868">
		<tag k="alt_name" v="Olaåa" />
		<tag k="name" v="Olåa" />
		<tag k="ssr:stedsnr" v="801060" />
		<tag k="waterway" v="river" />
	</node>
	<node lat="62.28137499982243" lon="11.313738894925757" id="-21871">
		<tag k="alt_name" v="Bormyrbekken" />
		<tag k="name" v="Borrmyrbekken" />
		<tag k="ssr:stedsnr" v="801461" />
		<tag k="waterway" v="stream" />
	</node>
	<node lat="62.392536112899386" lon="11.18403056037841" id="-21888">
		<tag k="name" v="Fallet" />
		<tag k="natural" v="waterfall" />
		<tag k="ssr:stedsnr" v="843471" />
=======
	<node id="-349462" lat="62.3365305538" lon="11.2249111105">
		<tag k="name" v="Hølet" />
		<tag k="natural" v="strait" />
		<tag k="ssr:stedsnr" v="721631" />
	</node>
	<node id="-349460" lat="62.4187555533" lon="10.8362333327">
		<tag k="name" v="Hemmestjønna" />
		<tag k="natural" v="water" />
		<tag k="ssr:stedsnr" v="721597" />
	</node>
	<node id="-349459" lat="62.4443083336" lon="10.812200002">
		<tag k="name" v="Bergloken" />
		<tag k="natural" v="water" />
		<tag k="ssr:stedsnr" v="721591" />
	</node>
	<node id="-349450" lat="62.3349777814" lon="11.2103333386">
		<tag k="name" v="Presthallbakktjønna" />
		<tag k="natural" v="water" />
		<tag k="ssr:stedsnr" v="721409" />
	</node>
	<node id="-349449" lat="62.3496805515" lon="11.1822111059">
		<tag k="name" v="Gresjan" />
		<tag k="natural" v="bay" />
		<tag k="ssr:stedsnr" v="721404" />
	</node>
	<node id="-349444" lat="62.4644361074" lon="11.0301916643">
		<tag k="name" v="Butjønnbekken" />
		<tag k="ssr:stedsnr" v="721035" />
		<tag k="waterway" v="stream" />
	</node>
	<node id="-349441" lat="62.3473861082" lon="10.890227769">
		<tag k="name" v="Vesleholmen" />
		<tag k="place" v="islet" />
		<tag k="ssr:stedsnr" v="720262" />
	</node>
	<node id="-349440" lat="62.3475833332" lon="10.8842638916">
		<tag k="name" v="Kvisla" />
		<tag k="place" v="island" />
		<tag k="ssr:stedsnr" v="720259" />
	</node>
	<node id="-349423" lat="62.2601222239" lon="11.4520333295">
		<tag k="name" v="Oddan" />
		<tag k="natural" v="cape" />
		<tag k="ssr:stedsnr" v="600802" />
	</node>
	<node id="-349418" lat="62.4049388862" lon="11.1345111076">
		<tag k="name" v="Gravtjønna" />
		<tag k="natural" v="water" />
		<tag k="ssr:stedsnr" v="600411" />
	</node>
	<node id="-349409" lat="62.3451777752" lon="11.1921416636">
		<tag k="name" v="Vikan" />
		<tag k="natural" v="bay" />
		<tag k="ssr:stedsnr" v="599397" />
	</node>
	<node id="-349404" lat="62.4779722239" lon="10.8875027821">
		<tag k="name" v="Ørdbekken" />
		<tag k="ssr:stedsnr" v="570655" />
		<tag k="waterway" v="stream" />
	</node>
	<node id="-349403" lat="62.4729444476" lon="10.6970750055">
		<tag k="name" v="Koietjønna" />
		<tag k="natural" v="water" />
		<tag k="ssr:stedsnr" v="557859" />
	</node>
	<node id="-349402" lat="62.3718722213" lon="11.0399527814">
		<tag k="name" v="Storbekken" />
		<tag k="ssr:stedsnr" v="557705" />
		<tag k="waterway" v="stream" />
	</node>
	<node id="-349398" lat="62.3173055585" lon="11.0016277739">
		<tag k="name" v="Teldalstjønna" />
		<tag k="natural" v="water" />
		<tag k="ssr:stedsnr" v="557266" />
	</node>
	<node id="-348706" lat="62.3670888915" lon="10.9981500087">
		<tag k="name" v="Brennhaugtjønna" />
		<tag k="natural" v="water" />
		<tag k="ssr:stedsnr" v="236309" />
	</node>
	<node id="-349384" lat="62.414583337" lon="11.0507888972">
		<tag k="name" v="Øvre Tamnesbekken" />
		<tag k="ssr:stedsnr" v="540210" />
		<tag k="waterway" v="stream" />
	</node>
	<node id="-349379" lat="62.4005027806" lon="10.9588694468">
		<tag k="name" v="Bjønnbekken" />
		<tag k="ssr:stedsnr" v="539823" />
		<tag k="waterway" v="stream" />
	</node>
	<node id="-349377" lat="62.4247638858" lon="10.8173472137">
		<tag k="name" v="Sandtjønna" />
		<tag k="natural" v="water" />
		<tag k="ssr:stedsnr" v="539620" />
	</node>
	<node id="-349358" lat="62.3062960306" lon="11.2741642637">
		<tag k="name" v="Storsjøen" />
		<tag k="natural" v="water" />
		<tag k="ssr:stedsnr" v="497469" />
		<tag k="water" v="lake" />
	</node>
	<node id="-349357" lat="62.3129750041" lon="11.3397749933">
		<tag k="name" v="Voltjønna" />
		<tag k="natural" v="water" />
		<tag k="ssr:stedsnr" v="497465" />
	</node>
	<node id="-349353" lat="62.2757666694" lon="11.0631111184">
		<tag k="alt_name" v="Vesletela" />
		<tag k="fixme" v="multiple name tags, choose one and add the other to alt_name" />
		<tag k="loc_name" v="Ørdbekken" />
		<tag k="name" v="Aurbekken;Vesltela" />
		<tag k="ssr:stedsnr" v="497272" />
		<tag k="waterway" v="stream" />
	</node>
	<node id="-349346" lat="62.3144277774" lon="11.2026083352">
		<tag k="name" v="Strømbekken" />
		<tag k="ssr:stedsnr" v="496291" />
		<tag k="waterway" v="stream" />
	</node>
	<node id="-349341" lat="62.4808333345" lon="10.5505027748">
		<tag k="alt_name" v="Magnillsjøen, syndre;Søndre Magnilsjøen;Søndre Magnillsjøen" />
		<tag k="name" v="Syndre Magnillsjøen" />
		<tag k="natural" v="water" />
		<tag k="ssr:stedsnr" v="679850" />
	</node>
	<node id="-349339" lat="62.2609138886" lon="11.4321611021">
		<tag k="name" v="Vangsbekken" />
		<tag k="ssr:stedsnr" v="679502" />
		<tag k="waterway" v="stream" />
	</node>
	<node id="-349337" lat="62.2515453544" lon="11.3996855399">
		<tag k="name" v="Stortjønna" />
		<tag k="natural" v="water" />
		<tag k="ssr:stedsnr" v="679496" />
	</node>
	<node id="-349335" lat="62.2656777785" lon="11.3046000038">
		<tag k="name" v="Loken" />
		<tag k="natural" v="water" />
		<tag k="ssr:stedsnr" v="679438" />
	</node>
	<node id="-349333" lat="62.2765777739" lon="11.2879500041">
		<tag k="name" v="Lettingsåa" />
		<tag k="ssr:stedsnr" v="679430" />
		<tag k="waterway" v="river" />
	</node>
	<node id="-349331" lat="62.3667472263" lon="11.2506416739">
		<tag k="name" v="Tomlebekken" />
		<tag k="ssr:stedsnr" v="679370" />
		<tag k="waterway" v="stream" />
	</node>
	<node id="-349330" lat="62.4035555576" lon="11.2303666683">
		<tag k="alt_name" v="Harbekken, store" />
		<tag k="name" v="Store Harbekken" />
		<tag k="ssr:stedsnr" v="679350" />
		<tag k="waterway" v="stream" />
	</node>
	<node id="-349324" lat="62.4482750036" lon="10.8449055588">
		<tag k="alt_name" v="Hundsjøen, store;Hundsjøen" />
		<tag k="name" v="Storhundsjøen" />
		<tag k="natural" v="water" />
		<tag k="ssr:stedsnr" v="679097" />
		<tag k="water" v="lake" />
	</node>
	<node id="-349319" lat="62.4785222204" lon="10.5791777705">
		<tag k="name" v="Gammelstutjønna" />
		<tag k="natural" v="water" />
		<tag k="ssr:stedsnr" v="678851" />
	</node>
	<node id="-349316" lat="62.2005583303" lon="11.4476888832">
		<tag k="name" v="Søndmørtjønna" />
		<tag k="natural" v="water" />
		<tag k="ssr:stedsnr" v="678491" />
	</node>
	<node id="-349315" lat="62.2157694486" lon="11.480663884">
		<tag k="name" v="Øversjøåa" />
		<tag k="ssr:stedsnr" v="678486" />
		<tag k="waterway" v="stream" />
	</node>
	<node id="-349314" lat="62.227805557" lon="11.5839666601">
		<tag k="name" v="Løvbekktjønna" />
		<tag k="natural" v="water" />
		<tag k="ssr:stedsnr" v="678484" />
	</node>
	<node id="-349304" lat="62.4474722251" lon="11.0956805632">
		<tag k="name" v="Tjønnjuvlan" />
		<tag k="natural" v="water" />
		<tag k="ssr:stedsnr" v="479705" />
	</node>
	<node id="-349295" lat="62.3646138905" lon="11.1671222196">
		<tag k="name" v="Harrbekkvika" />
		<tag k="natural" v="bay" />
		<tag k="ssr:stedsnr" v="479455" />
	</node>
	<node id="-349285" lat="62.485705558" lon="10.8136055503">
		<tag k="name" v="Tangbekken" />
		<tag k="ssr:stedsnr" v="478575" />
		<tag k="waterway" v="stream" />
	</node>
	<node id="-349254" lat="62.3208555556" lon="11.2487388794">
		<tag k="name" v="Sundet" />
		<tag k="natural" v="strait" />
		<tag k="ssr:stedsnr" v="661597" />
	</node>
	<node id="-349248" lat="62.4864805574" lon="10.7946583418">
		<tag k="name" v="Jakobsbekken" />
		<tag k="ssr:stedsnr" v="660951" />
		<tag k="waterway" v="stream" />
	</node>
	<node id="-349233" lat="62.497872222" lon="10.7573555546">
		<tag k="name" v="Merkråbekken" />
		<tag k="ssr:stedsnr" v="660543" />
		<tag k="waterway" v="stream" />
	</node>
	<node id="-349231" lat="62.4246416664" lon="10.9829055567">
		<tag k="name" v="Hulbekken" />
		<tag k="ssr:stedsnr" v="660175" />
		<tag k="waterway" v="stream" />
	</node>
	<node id="-349230" lat="62.4469166678" lon="10.9798083405">
		<tag k="name" v="Vangsbekken" />
		<tag k="ssr:stedsnr" v="660168" />
		<tag k="waterway" v="stream" />
	</node>
	<node id="-349225" lat="62.4439333377" lon="10.6210249988">
		<tag k="name" v="Gubbengtjønna" />
		<tag k="natural" v="water" />
		<tag k="ssr:stedsnr" v="658424" />
	</node>
	<node id="-349218" lat="62.4952250023" lon="10.6833916712">
		<tag k="name" v="Langvika" />
		<tag k="natural" v="bay" />
		<tag k="ssr:stedsnr" v="436620" />
	</node>
	<node id="-349214" lat="62.3292694424" lon="11.2640333392">
		<tag k="name" v="Kronbekken" />
		<tag k="ssr:stedsnr" v="436411" />
		<tag k="waterway" v="stream" />
	</node>
	<node id="-349212" lat="62.3299361082" lon="11.0680027682">
		<tag k="name" v="Klettdalstjønna" />
		<tag k="natural" v="water" />
		<tag k="ssr:stedsnr" v="436224" />
	</node>
	<node id="-349210" lat="62.3435472226" lon="11.1637305569">
		<tag k="name" v="Risbekken" />
		<tag k="ssr:stedsnr" v="436209" />
		<tag k="waterway" v="stream" />
	</node>
	<node id="-349204" lat="62.3008555588" lon="11.3028805614">
		<tag k="name" v="Langodden" />
		<tag k="natural" v="cape" />
		<tag k="ssr:stedsnr" v="419645" />
	</node>
	<node id="-349203" lat="62.3271083357" lon="11.2347666691">
		<tag k="name" v="Veslevollvika" />
		<tag k="natural" v="bay" />
		<tag k="ssr:stedsnr" v="419629" />
	</node>
	<node id="-349202" lat="62.4138805536" lon="11.0442027842">
		<tag k="name" v="Nedre Tamnesbekken" />
		<tag k="ssr:stedsnr" v="419219" />
		<tag k="waterway" v="stream" />
	</node>
	<node id="-349196" lat="62.2074305538" lon="11.5178638893">
		<tag k="name" v="Jopålsaloken" />
		<tag k="natural" v="water" />
		<tag k="ssr:stedsnr" v="418927" />
		<tag k="water" v="pond" />
	</node>
	<node id="-349190" lat="62.4248055574" lon="10.9562166693">
		<tag k="name" v="Slåbakkvika" />
		<tag k="natural" v="bay" />
		<tag k="ssr:stedsnr" v="418809" />
	</node>
	<node id="-349189" lat="62.4326472243" lon="10.9508388826">
		<tag k="name" v="Bergevika" />
		<tag k="natural" v="bay" />
		<tag k="ssr:stedsnr" v="418807" />
	</node>
	<node id="-349184" lat="62.333541665" lon="11.2273694385">
		<tag k="name" v="Storholmen" />
		<tag k="place" v="island" />
		<tag k="ssr:stedsnr" v="418611" />
	</node>
	<node id="-349183" lat="62.4648416637" lon="10.789780554">
		<tag k="name" v="Lertjønna" />
		<tag k="natural" v="water" />
		<tag k="ssr:stedsnr" v="418532" />
	</node>
	<node id="-349182" lat="62.3720722267" lon="11.1197416588">
		<tag k="name" v="Bjørsjøtjønna" />
		<tag k="natural" v="water" />
		<tag k="ssr:stedsnr" v="418446" />
	</node>
	<node id="-349181" lat="62.3707472202" lon="11.1547333324">
		<tag k="name" v="Sløa" />
		<tag k="ssr:stedsnr" v="418443" />
		<tag k="waterway" v="stream" />
	</node>
	<node id="-349175" lat="62.3648777738" lon="11.000486108">
		<tag k="name" v="Floloken" />
		<tag k="natural" v="water" />
		<tag k="ssr:stedsnr" v="418304" />
	</node>
	<node id="-349172" lat="62.4612750034" lon="10.7505888821">
		<tag k="name" v="Storbekktjønna" />
		<tag k="natural" v="water" />
		<tag k="ssr:stedsnr" v="417545" />
	</node>
	<node id="-349168" lat="62.4193499963" lon="10.6698305538">
		<tag k="name" v="Kvitsjøen" />
		<tag k="natural" v="water" />
		<tag k="ssr:stedsnr" v="505451" />
		<tag k="water" v="lake" />
	</node>
	<node id="-349166" lat="62.4880999974" lon="10.5815250002">
		<tag k="name" v="Fjellbekken" />
		<tag k="ssr:stedsnr" v="557599" />
		<tag k="waterway" v="stream" />
	</node>
	<node id="-349163" lat="62.4347722188" lon="10.9534833327">
		<tag k="alt_name" v="Store Tallsjøen" />
		<tag k="name" v="Nedre Tallsjøen" />
		<tag k="natural" v="water" />
		<tag k="ssr:stedsnr" v="376110" />
		<tag k="water" v="lake" />
	</node>
	<node id="-349160" lat="62.4701694456" lon="10.5814888806">
		<tag k="name" v="Jakobsbekken" />
		<tag k="ssr:stedsnr" v="375861" />
		<tag k="waterway" v="stream" />
	</node>
	<node id="-349155" lat="62.3474222258" lon="11.2799138912">
		<tag k="name" v="Rabbtjønna" />
		<tag k="natural" v="water" />
		<tag k="ssr:stedsnr" v="375411" />
	</node>
	<node id="-349146" lat="62.1991888934" lon="11.4131027766">
		<tag k="alt_name" v="Orva;Orva, nordre" />
		<tag k="name" v="Nordre Orva" />
		<tag k="ssr:stedsnr" v="374477" />
		<tag k="waterway" v="stream" />
	</node>
	<node id="-349142" lat="62.5645805522" lon="10.7761361037">
		<tag k="loc_name" v="Austelva" />
		<tag k="name" v="Østelva" />
		<tag k="ssr:stedsnr" v="497817" />
		<tag k="waterway" v="stream" />
	</node>
	<node id="-349139" lat="62.3765083329" lon="11.2304055611">
		<tag k="alt_name" v="Vesleengåa;Engåa, l" />
		<tag k="name" v="Lille Engåa" />
		<tag k="ssr:stedsnr" v="497412" />
		<tag k="waterway" v="stream" />
	</node>
	<node id="-349130" lat="62.3951722219" lon="10.9739666701">
		<tag k="alt_name" v="Kåbekken" />
		<tag k="name" v="Kåsbekken" />
		<tag k="ssr:stedsnr" v="497148" />
		<tag k="waterway" v="stream" />
	</node>
	<node id="-349129" lat="62.4765121183" lon="10.9724000342">
		<tag k="name" v="Milskifttjønna" />
		<tag k="natural" v="water" />
		<tag k="ssr:stedsnr" v="497051" />
	</node>
	<node id="-349122" lat="62.3465944421" lon="11.2450527843">
		<tag k="name" v="Bjørnbekken" />
		<tag k="ssr:stedsnr" v="496493" />
		<tag k="waterway" v="stream" />
	</node>
	<node id="-349116" lat="62.1740694488" lon="11.4383638864">
		<tag k="name" v="Fallet" />
		<tag k="natural" v="waterfall" />
		<tag k="ssr:stedsnr" v="358759" />
	</node>
	<node id="-349112" lat="62.2934972217" lon="11.2923138893">
		<tag k="name" v="Letningsåa" />
		<tag k="ssr:stedsnr" v="358659" />
		<tag k="waterway" v="stream" />
	</node>
	<node id="-349106" lat="62.3578277751" lon="11.1684500093">
		<tag k="name" v="Låkåsundet" />
		<tag k="natural" v="strait" />
		<tag k="ssr:stedsnr" v="358459" />
	</node>
	<node id="-349098" lat="62.4316694416" lon="10.9607611103">
		<tag k="name" v="Vesleholmen" />
		<tag k="place" v="islet" />
		<tag k="ssr:stedsnr" v="357804" />
	</node>
	<node id="-349096" lat="62.1582472238" lon="11.5950777704">
		<tag k="name" v="Vesle Sandnesvika" />
		<tag k="natural" v="bay" />
		<tag k="ssr:stedsnr" v="479989" />
	</node>
	<node id="-349091" lat="62.424936115" lon="10.8838111112">
		<tag k="name" v="Båntjønna" />
		<tag k="natural" v="water" />
		<tag k="ssr:stedsnr" v="479876" />
	</node>
	<node id="-349080" lat="62.4253916654" lon="11.091708326">
		<tag k="name" v="Erlineset" />
		<tag k="natural" v="cape" />
		<tag k="ssr:stedsnr" v="479516" />
	</node>
	<node id="-349075" lat="62.2456388891" lon="11.0422694485">
		<tag k="name" v="Blåkjerrbekkbekken" />
		<tag k="ssr:stedsnr" v="479293" />
		<tag k="waterway" v="stream" />
	</node>
	<node id="-349068" lat="62.2387527799" lon="11.3997694358">
		<tag k="name" v="Kalvhuetjønna" />
		<tag k="natural" v="water" />
		<tag k="ssr:stedsnr" v="478812" />
	</node>
	<node id="-349046" lat="62.3811666623" lon="10.8151000019">
		<tag k="name" v="Vester Storbekken" />
		<tag k="ssr:stedsnr" v="476208" />
		<tag k="waterway" v="stream" />
	</node>
	<node id="-349039" lat="62.2816166699" lon="11.4830083271">
		<tag k="name" v="Tynsetbekken" />
		<tag k="ssr:stedsnr" v="315468" />
		<tag k="waterway" v="stream" />
	</node>
	<node id="-349037" lat="62.3753083295" lon="10.9973555555">
		<tag k="name" v="Lomtjønna" />
		<tag k="natural" v="water" />
		<tag k="ssr:stedsnr" v="315171" />
	</node>
	<node id="-349036" lat="62.3737444458" lon="11.1622500067">
		<tag k="alt_name" v="Vesle Harrbekken;Harrbekken, vesle" />
		<tag k="name" v="Veslharrbekken" />
		<tag k="ssr:stedsnr" v="315168" />
		<tag k="waterway" v="stream" />
	</node>
	<node id="-349027" lat="62.5230722252" lon="10.8010472179">
		<tag k="name" v="Nørdre Tangtjønna" />
		<tag k="natural" v="water" />
		<tag k="ssr:stedsnr" v="314763" />
	</node>
	<node id="-349023" lat="62.2420361113" lon="11.4374777796">
		<tag k="name" v="Gloptjønna" />
		<tag k="natural" v="water" />
		<tag k="ssr:stedsnr" v="314514" />
	</node>
	<node id="-349020" lat="62.3469102263" lon="11.2004871383">
		<tag k="name" v="Drengen" />
		<tag k="natural" v="water" />
		<tag k="ssr:stedsnr" v="314252" />
		<tag k="water" v="lake" />
	</node>
	<node id="-349018" lat="62.2253944439" lon="11.073424997">
		<tag k="name" v="Klettbekken" />
		<tag k="ssr:stedsnr" v="314213" />
		<tag k="waterway" v="stream" />
	</node>
	<node id="-349017" lat="62.3174055562" lon="11.0482444396">
		<tag k="name" v="Krokbekken" />
		<tag k="ssr:stedsnr" v="314311" />
		<tag k="waterway" v="stream" />
	</node>
	<node id="-349009" lat="62.3314055561" lon="11.2275638938">
		<tag k="name" v="Asmarloken" />
		<tag k="natural" v="bay" />
		<tag k="ssr:stedsnr" v="297619" />
	</node>
	<node id="-349008" lat="62.316394447" lon="11.2587666724">
		<tag k="name" v="Rundholmen" />
		<tag k="place" v="island" />
		<tag k="ssr:stedsnr" v="297610" />
	</node>
	<node id="-349007" lat="62.3272666626" lon="11.2379527759">
		<tag k="name" v="Kristenodden" />
		<tag k="natural" v="cape" />
		<tag k="ssr:stedsnr" v="297609" />
	</node>
	<node id="-349006" lat="62.3286808562" lon="11.2437815182">
		<tag k="name" v="Ørsandsnippen" />
		<tag k="natural" v="cape" />
		<tag k="ssr:stedsnr" v="297608" />
	</node>
	<node id="-349001" lat="62.3351094907" lon="11.1107930134">
		<tag k="name" v="Telsjøen" />
		<tag k="natural" v="water" />
		<tag k="ssr:stedsnr" v="254206" />
		<tag k="water" v="lake" />
	</node>
	<node id="-348999" lat="62.4650388852" lon="10.9497000023">
		<tag k="name" v="Storrtjønnan" />
		<tag k="natural" v="water" />
		<tag k="ssr:stedsnr" v="254059" />
		<tag k="water" v="lake" />
	</node>
	<node id="-348979" lat="62.4519111128" lon="10.9086972131">
		<tag k="name" v="Tallsjøloken" />
		<tag k="natural" v="water" />
		<tag k="ssr:stedsnr" v="297883" />
	</node>
	<node id="-348978" lat="62.150522224" lon="11.5863222229">
		<tag k="name" v="Jotsæterbekken" />
		<tag k="ssr:stedsnr" v="297881" />
		<tag k="waterway" v="stream" />
	</node>
	<node id="-348975" lat="62.1987972196" lon="11.4542611034">
		<tag k="name" v="Jamttjønna" />
		<tag k="natural" v="water" />
		<tag k="ssr:stedsnr" v="297849" />
	</node>
	<node id="-348972" lat="62.2664472213" lon="11.3861444457">
		<tag k="name" v="Tuvrybekken" />
		<tag k="ssr:stedsnr" v="297831" />
		<tag k="waterway" v="stream" />
	</node>
	<node id="-348967" lat="62.2338722197" lon="11.4052194393">
		<tag k="name" v="Sponga" />
		<tag k="natural" v="water" />
		<tag k="ssr:stedsnr" v="297815" />
		<tag k="water" v="lake" />
	</node>
	<node id="-348966" lat="62.2396638849" lon="11.404330553">
		<tag k="name" v="Omfløttodden" />
		<tag k="natural" v="cape" />
		<tag k="ssr:stedsnr" v="297812" />
	</node>
	<node id="-348955" lat="62.1741416626" lon="11.4416277693">
		<tag k="name" v="Sæterbekken" />
		<tag k="ssr:stedsnr" v="297751" />
		<tag k="waterway" v="stream" />
	</node>
	<node id="-348949" lat="62.4115194437" lon="10.8505611108">
		<tag k="name" v="Kvennbekken" />
		<tag k="ssr:stedsnr" v="297676" />
		<tag k="waterway" v="stream" />
	</node>
	<node id="-348939" lat="62.3624444471" lon="11.1727888846">
		<tag k="name" v="Langvika" />
		<tag k="natural" v="bay" />
		<tag k="ssr:stedsnr" v="297456" />
	</node>
	<node id="-348934" lat="62.4537666644" lon="10.7765611169">
		<tag k="name" v="Eriksøya" />
		<tag k="natural" v="cape" />
		<tag k="ssr:stedsnr" v="297350" />
	</node>
	<node id="-348931" lat="62.3628388865" lon="11.0503166679">
		<tag k="name" v="Sumundsbekken" />
		<tag k="ssr:stedsnr" v="297328" />
		<tag k="waterway" v="stream" />
	</node>
	<node id="-348928" lat="62.2832361111" lon="11.4723972301">
		<tag k="name" v="Sætretjønna" />
		<tag k="natural" v="water" />
		<tag k="ssr:stedsnr" v="297304" />
	</node>
	<node id="-348920" lat="62.4305527804" lon="10.7982583403">
		<tag k="name" v="Litjønna" />
		<tag k="natural" v="water" />
		<tag k="ssr:stedsnr" v="296621" />
	</node>
	<node id="-348917" lat="62.41943056" lon="10.822941672">
		<tag k="name" v="Brøttbekken" />
		<tag k="ssr:stedsnr" v="296598" />
		<tag k="waterway" v="stream" />
	</node>
	<node id="-348916" lat="62.4709750016" lon="10.7962305498">
		<tag k="name" v="Ørvillodden" />
		<tag k="natural" v="cape" />
		<tag k="ssr:stedsnr" v="296507" />
	</node>
	<node id="-348909" lat="62.3438388892" lon="10.9857166642">
		<tag k="name" v="Volsvangbekken" />
		<tag k="ssr:stedsnr" v="295350" />
		<tag k="waterway" v="stream" />
	</node>
	<node id="-348907" lat="62.4068944472" lon="10.7301111205">
		<tag k="name" v="Elgslettloken" />
		<tag k="natural" v="water" />
		<tag k="ssr:stedsnr" v="294264" />
	</node>
	<node id="-348900" lat="62.4231333353" lon="10.5483333292">
		<tag k="name" v="Magnilla" />
		<tag k="ssr:stedsnr" v="194809" />
		<tag k="waterway" v="river" />
	</node>
	<node id="-348896" lat="62.1857750007" lon="11.4887555636">
		<tag k="name" v="Smørbekken" />
		<tag k="ssr:stedsnr" v="193512" />
		<tag k="waterway" v="stream" />
	</node>
	<node id="-348895" lat="62.2942416653" lon="11.4632833402">
		<tag k="name" v="Håkåtjønna" />
		<tag k="natural" v="water" />
		<tag k="ssr:stedsnr" v="193511" />
	</node>
	<node id="-348894" lat="62.1379250013" lon="11.68891112">
		<tag k="name" v="Litlåa" />
		<tag k="ssr:stedsnr" v="193419" />
		<tag k="waterway" v="stream" />
	</node>
	<node id="-348890" lat="62.2471694478" lon="11.083602769">
		<tag k="alt_name" v="Veslkosbekken" />
		<tag k="name" v="Veslekåsbekken" />
		<tag k="ssr:stedsnr" v="193204" />
		<tag k="waterway" v="stream" />
	</node>
	<node id="-350929" lat="62.4563752828" lon="11.0649839424">
		<tag k="name" v="Hørttjønnan" />
		<tag k="natural" v="water" />
		<tag k="ssr:stedsnr" v="557081" />
	</node>
	<node id="-348876" lat="62.4943444474" lon="10.6744916679">
		<tag k="name" v="Gjersjøen" />
		<tag k="natural" v="water" />
		<tag k="ssr:stedsnr" v="133614" />
		<tag k="water" v="lake" />
	</node>
	<node id="-348871" lat="62.2066111116" lon="11.5694027854">
		<tag k="name" v="Løvbekken" />
		<tag k="ssr:stedsnr" v="132448" />
		<tag k="waterway" v="stream" />
	</node>
	<node id="-348869" lat="62.2178944431" lon="11.5385194395">
		<tag k="name" v="Håbekken" />
		<tag k="ssr:stedsnr" v="132443" />
		<tag k="waterway" v="stream" />
	</node>
	<node id="-348867" lat="62.2329527792" lon="11.3421166746">
		<tag k="alt_name" v="Nedervollbekkan" />
		<tag k="name" v="Nervollbekken" />
		<tag k="ssr:stedsnr" v="132437" />
		<tag k="waterway" v="stream" />
	</node>
	<node id="-348863" lat="62.4143249963" lon="10.8050027769">
		<tag k="name" v="Skardstjønna" />
		<tag k="natural" v="water" />
		<tag k="ssr:stedsnr" v="132125" />
	</node>
	<node id="-348857" lat="62.437819445" lon="10.8764638917">
		<tag k="name" v="Gammelsæterbekken" />
		<tag k="ssr:stedsnr" v="115827" />
		<tag k="waterway" v="stream" />
	</node>
	<node id="-348851" lat="62.2997111143" lon="11.3170833262">
		<tag k="name" v="Smålokan" />
		<tag k="natural" v="water" />
		<tag k="ssr:stedsnr" v="115614" />
	</node>
	<node id="-350897" lat="62.2527777781" lon="11.4814166745">
		<tag k="name" v="Okshølbekken" />
		<tag k="ssr:stedsnr" v="965795" />
		<tag k="waterway" v="stream" />
	</node>
	<node id="-350892" lat="62.3174277802" lon="11.2587861124">
		<tag k="name" v="Røsvika" />
		<tag k="natural" v="bay" />
		<tag k="ssr:stedsnr" v="965644" />
	</node>
	<node id="-348838" lat="62.5457583323" lon="10.7356555647">
		<tag k="name" v="Storbekken" />
		<tag k="ssr:stedsnr" v="254820" />
		<tag k="waterway" v="stream" />
	</node>
	<node id="-348837" lat="62.499247219" lon="10.8214555581">
		<tag k="name" v="Fremre Tangtjønna" />
		<tag k="natural" v="water" />
		<tag k="ssr:stedsnr" v="254733" />
	</node>
	<node id="-350884" lat="62.357116665" lon="11.1690388868">
		<tag k="name" v="Andersodden" />
		<tag k="place" v="islet" />
		<tag k="ssr:stedsnr" v="965485" />
	</node>
	<node id="-348835" lat="62.2365330501" lon="11.2208047908">
		<tag k="name" v="Raudsjøen" />
		<tag k="natural" v="water" />
		<tag k="ssr:stedsnr" v="254191" />
		<tag k="water" v="lake" />
	</node>
	<node id="-350882" lat="62.2242361091" lon="11.0582694373">
		<tag k="name" v="Vesla" />
		<tag k="ssr:stedsnr" v="965429" />
		<tag k="waterway" v="stream" />
	</node>
	<node id="-348833" lat="62.3563258454" lon="11.1661521296">
		<tag k="alt_name" v="Nordersjøen" />
		<tag k="name" v="Nørdersjøen" />
		<tag k="natural" v="water" />
		<tag k="ssr:stedsnr" v="254181" />
		<tag k="water" v="lake" />
	</node>
	<node id="-348826" lat="62.3267482988" lon="11.2422364694">
		<tag k="name" v="Stikkelen" />
		<tag k="natural" v="water" />
		<tag k="ssr:stedsnr" v="254411" />
		<tag k="water" v="lake" />
	</node>
	<node id="-350873" lat="62.1856111123" lon="11.5625888878">
		<tag k="name" v="Myrodden" />
		<tag k="natural" v="cape" />
		<tag k="ssr:stedsnr" v="964994" />
	</node>
	<node id="-348823" lat="62.1971083341" lon="11.504683324">
		<tag k="name" v="Håmohåen" />
		<tag k="natural" v="water" />
		<tag k="ssr:stedsnr" v="253521" />
	</node>
	<node id="-350869" lat="62.420711107" lon="10.8231388967">
		<tag k="name" v="Sorgentjønna" />
		<tag k="natural" v="water" />
		<tag k="ssr:stedsnr" v="964590" />
	</node>
	<node id="-348819" lat="62.1696944427" lon="11.3883527711">
		<tag k="name" v="Elgpiggbekken" />
		<tag k="ssr:stedsnr" v="253429" />
		<tag k="waterway" v="stream" />
	</node>
	<node id="-348818" lat="62.2606707887" lon="11.0650453325">
		<tag k="name" v="Stryptjønnan" />
		<tag k="natural" v="water" />
		<tag k="ssr:stedsnr" v="73331" />
		<tag k="water" v="lake" />
	</node>
	<node id="-350865" lat="62.4335055549" lon="10.7010972201">
		<tag k="name" v="Veslevangbekken" />
		<tag k="ssr:stedsnr" v="964351" />
		<tag k="waterway" v="stream" />
	</node>
	<node id="-350864" lat="62.4187333372" lon="10.6831305502">
		<tag k="name" v="Sætersloken" />
		<tag k="natural" v="water" />
		<tag k="ssr:stedsnr" v="964349" />
	</node>
	<node id="-350863" lat="62.3667527772" lon="11.0857694408">
		<tag k="name" v="Engebekken" />
		<tag k="ssr:stedsnr" v="964348" />
		<tag k="waterway" v="stream" />
	</node>
	<node id="-348814" lat="62.3343926109" lon="11.2410443195">
		<tag k="name" v="Stortjønna" />
		<tag k="natural" v="water" />
		<tag k="ssr:stedsnr" v="72416" />
	</node>
	<node id="-348810" lat="62.1953666623" lon="11.5179027863">
		<tag k="name" v="Stræthåen" />
		<tag k="natural" v="bay" />
		<tag k="ssr:stedsnr" v="71515" />
	</node>
	<node id="-350853" lat="62.2767555575" lon="11.0654138961">
		<tag k="name" v="Skårdalstela" />
		<tag k="ssr:stedsnr" v="955283" />
		<tag k="waterway" v="stream" />
	</node>
	<node id="-350851" lat="62.2305613408" lon="11.2388927103">
		<tag k="name" v="Vesle Raudsjøen" />
		<tag k="natural" v="water" />
		<tag k="ssr:stedsnr" v="870095" />
		<tag k="water" v="lake" />
	</node>
	<node id="-350848" lat="62.3964694437" lon="10.6948750069">
		<tag k="name" v="Lona" />
		<tag k="ssr:stedsnr" v="861700" />
		<tag k="waterway" v="river" />
	</node>
	<node id="-350847" lat="62.4030749973" lon="10.6717500042">
		<tag k="name" v="Storsteinbekken" />
		<tag k="ssr:stedsnr" v="861800" />
		<tag k="waterway" v="stream" />
	</node>
	<node id="-348798" lat="62.4001833337" lon="10.8969055543">
		<tag k="name" v="Rørtjønnbekken" />
		<tag k="ssr:stedsnr" v="237720" />
		<tag k="waterway" v="stream" />
	</node>
	<node id="-348796" lat="62.3005388928" lon="11.4536861184">
		<tag k="name" v="Grishustjønna" />
		<tag k="natural" v="water" />
		<tag k="ssr:stedsnr" v="237693" />
	</node>
	<node id="-348787" lat="62.3542694439" lon="11.1638027758">
		<tag k="name" v="Bjønnvika" />
		<tag k="natural" v="bay" />
		<tag k="ssr:stedsnr" v="237480" />
	</node>
	<node id="-350825" lat="62.2494472192" lon="11.4735972302">
		<tag k="name" v="Okshølen" />
		<tag k="place" v="locality" />
		<tag k="ssr:stedsnr" v="844802" />
	</node>
	<node id="-348769" lat="62.2430999985" lon="11.4010027702">
		<tag k="name" v="Gjerdinghølen" />
		<tag k="place" v="locality" />
		<tag k="ssr:stedsnr" v="54822" />
	</node>
	<node id="-350810" lat="62.304752782" lon="11.2916777801">
		<tag k="name" v="Kuodden" />
		<tag k="natural" v="cape" />
		<tag k="ssr:stedsnr" v="844671" />
	</node>
	<node id="-350809" lat="62.2986361123" lon="11.318450008">
		<tag k="name" v="Langvika" />
		<tag k="natural" v="bay" />
		<tag k="ssr:stedsnr" v="844666" />
	</node>
	<node id="-348759" lat="62.3802777792" lon="11.1330500094">
		<tag k="name" v="Veslebjørtjønna" />
		<tag k="natural" v="water" />
		<tag k="ssr:stedsnr" v="54473" />
	</node>
	<node id="-348758" lat="62.3669972209" lon="11.1599722131">
		<tag k="name" v="Sløhåen" />
		<tag k="natural" v="water" />
		<tag k="ssr:stedsnr" v="54463" />
	</node>
	<node id="-348749" lat="62.276758337" lon="11.4655333331">
		<tag k="name" v="Vassflobekken" />
		<tag k="ssr:stedsnr" v="237294" />
		<tag k="waterway" v="stream" />
	</node>
	<node id="-348743" lat="62.1844888922" lon="11.5687027819">
		<tag k="name" v="Gammevollvika" />
		<tag k="natural" v="bay" />
		<tag k="ssr:stedsnr" v="236999" />
	</node>
	<node id="-350784" lat="62.4322972195" lon="10.9620833428">
		<tag k="name" v="Storholmen" />
		<tag k="place" v="islet" />
		<tag k="ssr:stedsnr" v="843836" />
	</node>
	<node id="-350780" lat="62.3925361129" lon="11.1840305604">
		<tag k="name" v="Fallet" />
		<tag k="natural" v="waterfall" />
		<tag k="ssr:stedsnr" v="843471" />
	</node>
	<node id="-348731" lat="62.3571499997" lon="10.903780565">
		<tag k="name" v="Utistuholman" />
		<tag k="place" v="islet" />
		<tag k="ssr:stedsnr" v="236738" />
	</node>
	<node id="-348730" lat="62.3564555529" lon="10.9074055468">
		<tag k="name" v="Øran" />
		<tag k="place" v="islet" />
		<tag k="ssr:stedsnr" v="236736" />
	</node>
	<node id="-350776" lat="62.4669888856" lon="10.800230561">
		<tag k="alt_name" v="Hundsjøbekken" />
		<tag k="name" v="Storhundsjøbekken" />
		<tag k="ssr:stedsnr" v="843564" />
		<tag k="waterway" v="stream" />
	</node>
	<node id="-348725" lat="62.3223888859" lon="11.3606444415">
		<tag k="name" v="Storkroken" />
		<tag k="natural" v="water" />
		<tag k="ssr:stedsnr" v="236624" />
		<tag k="water" v="lake" />
	</node>
	<node id="-348724" lat="62.3391722241" lon="11.2138194506">
		<tag k="name" v="Loken" />
		<tag k="natural" v="water" />
		<tag k="ssr:stedsnr" v="236591" />
	</node>
	<node id="-350766" lat="62.174791666" lon="11.5623861088">
		<tag k="name" v="Sandneset" />
		<tag k="natural" v="cape" />
		<tag k="ssr:stedsnr" v="809088" />
	</node>
	<node id="-348717" lat="62.3641916706" lon="11.1234444375">
		<tag k="name" v="Sæterbekken" />
		<tag k="ssr:stedsnr" v="236428" />
		<tag k="waterway" v="stream" />
	</node>
	<node id="-350764" lat="62.2813749998" lon="11.3137388949">
		<tag k="alt_name" v="Bormyrbekken" />
		<tag k="name" v="Borrmyrbekken" />
		<tag k="ssr:stedsnr" v="801461" />
		<tag k="waterway" v="stream" />
	</node>
	<node id="-348715" lat="62.3503972202" lon="11.1930916697">
		<tag k="name" v="Luråa" />
		<tag k="ssr:stedsnr" v="236394" />
		<tag k="waterway" v="stream" />
	</node>
	<node id="-348714" lat="62.3490333305" lon="11.2058527714">
		<tag k="name" v="Engåodden" />
		<tag k="natural" v="cape" />
		<tag k="ssr:stedsnr" v="236379" />
	</node>
	<node id="-350760" lat="62.4543333297" lon="10.9286055457">
		<tag k="alt_name" v="Olaåa" />
		<tag k="name" v="Olåa" />
		<tag k="ssr:stedsnr" v="801060" />
		<tag k="waterway" v="river" />
	</node>
	<node id="-350759" lat="62.5146305534" lon="10.8278666748">
		<tag k="name" v="Skjerbekken" />
		<tag k="ssr:stedsnr" v="800733" />
		<tag k="waterway" v="stream" />
	</node>
	<node id="-348709" lat="62.3751750007" lon="11.0142999999">
		<tag k="name" v="Svartåstjønna" />
		<tag k="natural" v="water" />
		<tag k="ssr:stedsnr" v="236331" />
	</node>
	<node id="-350754" lat="62.1733388849" lon="11.5729749974">
		<tag k="name" v="Langsjøen" />
		<tag k="natural" v="water" />
		<tag k="ssr:stedsnr" v="800478" />
		<tag k="water" v="lake" />
	</node>
	<node id="-350753" lat="62.3024249964" lon="11.2911638926">
		<tag k="name" v="Storholmen" />
		<tag k="place" v="islet" />
		<tag k="ssr:stedsnr" v="800476" />
	</node>
	<node id="-350751" lat="62.2278870794" lon="11.4854060557">
		<tag k="name" v="Øversjøen" />
		<tag k="natural" v="water" />
		<tag k="ssr:stedsnr" v="800453" />
	</node>
	<node id="-348701" lat="62.4333124653" lon="10.9750361967">
		<tag k="name" v="Jetrutjønna" />
		<tag k="natural" v="water" />
		<tag k="ssr:stedsnr" v="236191" />
	</node>
	<node id="-350746" lat="62.24659167" lon="11.2116916736">
		<tag k="name" v="Raudsjøåa" />
		<tag k="ssr:stedsnr" v="800212" />
		<tag k="waterway" v="river" />
	</node>
	<node id="-348695" lat="62.260911111" lon="11.4472972282">
		<tag k="name" v="Stenbekken" />
		<tag k="ssr:stedsnr" v="235863" />
		<tag k="waterway" v="stream" />
	</node>
	<node id="-350742" lat="62.2187638913" lon="11.2648083312">
		<tag k="name" v="Skredbekken" />
		<tag k="ssr:stedsnr" v="799469" />
		<tag k="waterway" v="stream" />
	</node>
	<node id="-350740" lat="62.4455333358" lon="10.9505888928">
		<tag k="name" v="Tolja" />
		<tag k="ssr:stedsnr" v="783894" />
		<tag k="waterway" v="stream" />
	</node>
	<node id="-348685" lat="62.4330333314" lon="10.6402805586">
		<tag k="name" v="Letjønna" />
		<tag k="natural" v="water" />
		<tag k="ssr:stedsnr" v="11827" />
	</node>
	<node id="-350732" lat="62.2667944405" lon="11.4107222156">
		<tag k="name" v="Loken" />
		<tag k="natural" v="water" />
		<tag k="ssr:stedsnr" v="783829" />
	</node>
	<node id="-350731" lat="62.2167694451" lon="11.4911611172">
		<tag k="name" v="Kristoffertjønna" />
		<tag k="natural" v="water" />
		<tag k="ssr:stedsnr" v="783809" />
	</node>
	<node id="-350726" lat="62.3694916652" lon="10.8521194503">
		<tag k="name" v="Midttjønna" />
		<tag k="natural" v="water" />
		<tag k="ssr:stedsnr" v="783781" />
	</node>
	<node id="-350722" lat="62.3614666685" lon="10.916611105">
		<tag k="name" v="Varmbekken" />
		<tag k="ssr:stedsnr" v="783753" />
		<tag k="waterway" v="stream" />
	</node>
	<node id="-350719" lat="62.3738999978" lon="10.8471138966">
		<tag k="name" v="Stortjønna" />
		<tag k="natural" v="water" />
		<tag k="ssr:stedsnr" v="783722" />
	</node>
	<node id="-350710" lat="62.3035583352" lon="11.4053749988">
		<tag k="name" v="Sæterbekken" />
		<tag k="ssr:stedsnr" v="783681" />
		<tag k="waterway" v="stream" />
	</node>
	<node id="-350707" lat="62.3014416642" lon="11.2760416609">
		<tag k="name" v="Letningsloken" />
		<tag k="natural" v="bay" />
		<tag k="ssr:stedsnr" v="783648" />
	</node>
	<node id="-350706" lat="62.2953083305" lon="11.2790499918">
		<tag k="name" v="Letningsbekken" />
		<tag k="ssr:stedsnr" v="783644" />
		<tag k="waterway" v="stream" />
	</node>
	<node id="-350705" lat="62.3275611099" lon="11.2480472256">
		<tag k="name" v="Kronbekkvika" />
		<tag k="natural" v="bay" />
		<tag k="ssr:stedsnr" v="783634" />
	</node>
	<node id="-350701" lat="62.3638027811" lon="11.1568166697">
		<tag k="name" v="Sløhåsundet" />
		<tag k="natural" v="strait" />
		<tag k="ssr:stedsnr" v="783468" />
	</node>
	<node id="-350691" lat="62.241230555" lon="11.0660972267">
		<tag k="name" v="Storhåen" />
		<tag k="natural" v="water" />
		<tag k="ssr:stedsnr" v="783276" />
		<tag k="water" v="lake" />
	</node>
	<node id="-350689" lat="62.2850083302" lon="11.4749833283">
		<tag k="name" v="Kvannhølen" />
		<tag k="natural" v="water" />
		<tag k="ssr:stedsnr" v="783264" />
		<tag k="water" v="pond" />
	</node>
	<node id="-350686" lat="62.19010556" lon="11.4788638811">
		<tag k="name" v="Lomloken" />
		<tag k="natural" v="water" />
		<tag k="ssr:stedsnr" v="782983" />
	</node>
	<node id="-350683" lat="62.4506444406" lon="10.9220361054">
		<tag k="name" v="Kongsodden" />
		<tag k="natural" v="cape" />
		<tag k="ssr:stedsnr" v="782867" />
	</node>
	<node id="-350675" lat="62.3364555557" lon="11.2205472204">
		<tag k="name" v="Hesten" />
		<tag k="place" v="islet" />
		<tag k="ssr:stedsnr" v="782608" />
	</node>
	<node id="-350674" lat="62.3330972252" lon="11.2189472314">
		<tag k="name" v="Nyvollvika" />
		<tag k="natural" v="bay" />
		<tag k="ssr:stedsnr" v="782606" />
	</node>
	<node id="-350671" lat="62.4798527754" lon="10.8198305458">
		<tag k="name" v="Vesleengbekken" />
		<tag k="ssr:stedsnr" v="782530" />
		<tag k="waterway" v="stream" />
	</node>
	<node id="-350668" lat="62.3706944466" lon="11.0948388917">
		<tag k="name" v="Engebekken" />
		<tag k="ssr:stedsnr" v="782423" />
		<tag k="waterway" v="stream" />
	</node>
	<node id="-350652" lat="62.3477638857" lon="10.8571388977">
		<tag k="name" v="Veslebekken" />
		<tag k="ssr:stedsnr" v="780260" />
		<tag k="waterway" v="stream" />
	</node>
	<node id="-350649" lat="62.3456305535" lon="10.8882666607">
		<tag k="name" v="Storholmen" />
		<tag k="place" v="islet" />
		<tag k="ssr:stedsnr" v="780254" />
	</node>
	<node id="-350647" lat="62.4069972181" lon="10.6782111092">
		<tag k="name" v="Skarvdalsbekken" />
		<tag k="ssr:stedsnr" v="780002" />
		<tag k="waterway" v="stream" />
	</node>
	<node id="-350639" lat="62.2833416689" lon="11.0216972182">
		<tag k="name" v="Kløftet" />
		<tag k="natural" v="cape" />
		<tag k="ssr:stedsnr" v="740270" />
	</node>
	<node id="-350638" lat="62.3878527758" lon="10.9930055536">
		<tag k="alt_name" v="Veslebekken" />
		<tag k="name" v="Veslbekken" />
		<tag k="ssr:stedsnr" v="740152" />
		<tag k="waterway" v="stream" />
	</node>
	<node id="-350637" lat="62.3636333361" lon="11.149402769">
		<tag k="name" v="Harrtjønna" />
		<tag k="natural" v="water" />
		<tag k="ssr:stedsnr" v="740186" />
	</node>
	<node id="-350635" lat="62.5053583314" lon="10.7743444455">
		<tag k="name" v="Måsådalstjønna" />
		<tag k="natural" v="water" />
		<tag k="ssr:stedsnr" v="739792" />
	</node>
	<node id="-350634" lat="62.3121749973" lon="11.2632305533">
		<tag k="name" v="Langodden" />
		<tag k="natural" v="cape" />
		<tag k="ssr:stedsnr" v="739726" />
	</node>
	<node id="-350624" lat="62.3373570471" lon="11.2201287308">
		<tag k="name" v="Asmaren" />
		<tag k="natural" v="water" />
		<tag k="ssr:stedsnr" v="739215" />
	</node>
	<node id="-350613" lat="62.469799996" lon="10.9909611155">
		<tag k="name" v="Letjønna" />
		<tag k="natural" v="water" />
		<tag k="ssr:stedsnr" v="630592" />
	</node>
	<node id="-350607" lat="62.5147611153" lon="10.8533055503">
		<tag k="name" v="Storbekken" />
		<tag k="ssr:stedsnr" v="618344" />
		<tag k="waterway" v="stream" />
	</node>
	<node id="-350606" lat="62.2855444399" lon="11.2033500091">
		<tag k="name" v="Stortjønna" />
		<tag k="natural" v="water" />
		<tag k="ssr:stedsnr" v="618267" />
	</node>
	<node id="-350589" lat="62.3386944426" lon="11.2046750001">
		<tag k="name" v="Abbortjønnan" />
		<tag k="natural" v="water" />
		<tag k="ssr:stedsnr" v="618182" />
		<tag k="water" v="lake" />
	</node>
	<node id="-350584" lat="62.1998833332" lon="11.6173083428">
		<tag k="name" v="Storbekken" />
		<tag k="ssr:stedsnr" v="617512" />
		<tag k="waterway" v="stream" />
	</node>
	<node id="-350583" lat="62.2062333375" lon="11.4146277709">
		<tag k="name" v="Orvtjønna" />
		<tag k="natural" v="water" />
		<tag k="ssr:stedsnr" v="617503" />
	</node>
	<node id="-350575" lat="62.4619166695" lon="10.8608749907">
		<tag k="name" v="Lortdikjet" />
		<tag k="ssr:stedsnr" v="600931" />
		<tag k="waterway" v="stream" />
	</node>
	<node id="-350574" lat="62.1904916645" lon="11.5278666575">
		<tag k="name" v="Holøset" />
		<tag k="natural" v="bay" />
		<tag k="ssr:stedsnr" v="600999" />
	</node>
	<node id="-350562" lat="62.1516694412" lon="11.6122111098">
		<tag k="name" v="Langodden" />
		<tag k="natural" v="cape" />
		<tag k="ssr:stedsnr" v="600889" />
	</node>
	<node id="-350548" lat="62.3182555567" lon="11.2505638875">
		<tag k="name" v="Tangvika" />
		<tag k="natural" v="bay" />
		<tag k="ssr:stedsnr" v="600595" />
	</node>
	<node id="-350542" lat="62.4364000031" lon="10.6591750018">
		<tag k="name" v="Volbekken" />
		<tag k="ssr:stedsnr" v="600329" />
		<tag k="waterway" v="stream" />
	</node>
	<node id="-350539" lat="62.3808555542" lon="11.0390361122">
		<tag k="name" v="Svartbekken" />
		<tag k="ssr:stedsnr" v="600324" />
		<tag k="waterway" v="stream" />
	</node>
	<node id="-350534" lat="62.4109055578" lon="10.9921583278">
		<tag k="name" v="Malmplassen" />
		<tag k="natural" v="beach" />
		<tag k="ssr:stedsnr" v="600277" />
	</node>
	<node id="-350532" lat="62.4318611103" lon="11.0123944395">
		<tag k="name" v="Kuloken" />
		<tag k="natural" v="water" />
		<tag k="ssr:stedsnr" v="600145" />
	</node>
	<node id="-350530" lat="62.4804805574" lon="10.9951249922">
		<tag k="name" v="Olorsaloken" />
		<tag k="natural" v="water" />
		<tag k="ssr:stedsnr" v="600054" />
	</node>
	<node id="-350523" lat="62.4765472242" lon="10.8373083258">
		<tag k="alt_name" v="Vesle Hundsjøbekken" />
		<tag k="name" v="Veslehundsjøbekken" />
		<tag k="ssr:stedsnr" v="599547" />
		<tag k="waterway" v="stream" />
	</node>
	<node id="-350511" lat="62.4316944401" lon="10.7528527833">
		<tag k="name" v="Ulvåsbekken" />
		<tag k="ssr:stedsnr" v="570613" />
		<tag k="waterway" v="stream" />
	</node>
	<node id="-350505" lat="62.2729722204" lon="11.4228249982">
		<tag k="name" v="Håmmårtjønna" />
		<tag k="natural" v="water" />
		<tag k="ssr:stedsnr" v="557450" />
	</node>
	<node id="-350504" lat="62.3152999995" lon="11.2818194483">
		<tag k="name" v="Røsvikbekken" />
		<tag k="ssr:stedsnr" v="557429" />
		<tag k="waterway" v="stream" />
	</node>
	<node id="-348718" lat="62.3835499998" lon="11.1251527698">
		<tag k="name" v="Veslebjøra" />
		<tag k="ssr:stedsnr" v="236435" />
		<tag k="waterway" v="stream" />
	</node>
	<node id="-350484" lat="62.4692361099" lon="10.9561583256">
		<tag k="name" v="Milskiftbekken" />
		<tag k="ssr:stedsnr" v="540859" />
		<tag k="waterway" v="stream" />
	</node>
	<node id="-350482" lat="62.2145638919" lon="11.4069944513">
		<tag k="name" v="Bjørnhølen" />
		<tag k="place" v="locality" />
		<tag k="ssr:stedsnr" v="540853" />
	</node>
	<node id="-350479" lat="62.2915638911" lon="11.422366667">
		<tag k="name" v="Knaustjønna" />
		<tag k="natural" v="water" />
		<tag k="ssr:stedsnr" v="540801" />
	</node>
	<node id="-350478" lat="62.379411112" lon="10.9419277696">
		<tag k="name" v="Fosshue" />
		<tag k="natural" v="cape" />
		<tag k="ssr:stedsnr" v="540789" />
	</node>
	<node id="-350468" lat="62.2060249959" lon="11.4788194407">
		<tag k="name" v="Andersbekken" />
		<tag k="ssr:stedsnr" v="540778" />
		<tag k="waterway" v="stream" />
	</node>
	<node id="-350459" lat="62.2800972181" lon="11.0636305603">
		<tag k="name" v="Fiskebekken" />
		<tag k="ssr:stedsnr" v="540312" />
		<tag k="waterway" v="stream" />
	</node>
	<node id="-350456" lat="62.2705555582" lon="11.4659972237">
		<tag k="name" v="Haugtjønna" />
		<tag k="natural" v="water" />
		<tag k="ssr:stedsnr" v="540297" />
	</node>
	<node id="-350453" lat="62.1597249964" lon="11.6333805594">
		<tag k="name" v="Hølbekken" />
		<tag k="ssr:stedsnr" v="539978" />
		<tag k="waterway" v="stream" />
	</node>
	<node id="-350452" lat="62.1689527818" lon="11.5950416585">
		<tag k="name" v="Vollsoddan" />
		<tag k="natural" v="cape" />
		<tag k="ssr:stedsnr" v="539974" />
	</node>
	<node id="-350447" lat="62.3354277762" lon="11.2223833414">
		<tag k="name" v="Merra" />
		<tag k="place" v="islet" />
		<tag k="ssr:stedsnr" v="539644" />
	</node>
	<node id="-350446" lat="62.324683334" lon="11.223516665">
		<tag k="name" v="Vesleengbekken" />
		<tag k="ssr:stedsnr" v="539642" />
		<tag k="waterway" v="stream" />
	</node>
	<node id="-350444" lat="62.4536972239" lon="10.7890777798">
		<tag k="name" v="Mobekken" />
		<tag k="ssr:stedsnr" v="539530" />
		<tag k="waterway" v="stream" />
	</node>
	<node id="-350440" lat="62.4720527821" lon="10.7935777842">
		<tag k="name" v="Lonodden" />
		<tag k="natural" v="cape" />
		<tag k="ssr:stedsnr" v="539507" />
	</node>
	<node id="-350429" lat="62.4406000001" lon="10.9846527687">
		<tag k="loc_name" v="Kottjønnsbekken" />
		<tag k="name" v="Kottjennsbekken" />
		<tag k="ssr:stedsnr" v="539135" />
		<tag k="waterway" v="stream" />
	</node>
	<node id="-350427" lat="62.4495527737" lon="11.0417194418">
		<tag k="name" v="Totjønnan" />
		<tag k="natural" v="water" />
		<tag k="ssr:stedsnr" v="539129" />
		<tag k="water" v="lake" />
	</node>
	<node id="-350412" lat="62.2337083331" lon="11.1715000079">
		<tag k="name" v="Kvannbekken" />
		<tag k="ssr:stedsnr" v="436197" />
		<tag k="waterway" v="stream" />
	</node>
	<node id="-350410" lat="62.3769263059" lon="11.1149562424">
		<tag k="name" v="Bjørsjøen" />
		<tag k="natural" v="water" />
		<tag k="ssr:stedsnr" v="436157" />
		<tag k="water" v="lake" />
	</node>
	<node id="-350407" lat="62.5102027824" lon="10.6888388808">
		<tag k="alt_name" v="Gjersjøen, l" />
		<tag k="name" v="Litlgjersjøen" />
		<tag k="natural" v="water" />
		<tag k="ssr:stedsnr" v="436063" />
	</node>
	<node id="-350406" lat="62.4737027804" lon="10.980375008">
		<tag k="alt_name" v="Åssåtjønna" />
		<tag k="name" v="Ossortjønna" />
		<tag k="natural" v="water" />
		<tag k="ssr:stedsnr" v="436052" />
	</node>
	<node id="-350405" lat="62.4698916659" lon="10.9084277842">
		<tag k="alt_name" v="Olaåa, vesle" />
		<tag k="fixme" v="multiple name tags, choose one and add the other to alt_name" />
		<tag k="name" v="Store Olåa;Veslolåa" />
		<tag k="ssr:stedsnr" v="436050" />
		<tag k="waterway" v="stream" />
	</node>
	<node id="-350400" lat="62.2406555531" lon="11.4033055533">
		<tag k="name" v="Hola" />
		<tag k="ssr:stedsnr" v="436435" />
		<tag k="waterway" v="river" />
	</node>
	<node id="-350397" lat="62.5063889215" lon="10.7083452482">
		<tag k="name" v="Bjørntjønnan" />
		<tag k="natural" v="water" />
		<tag k="ssr:stedsnr" v="436033" />
		<tag k="water" v="lake" />
	</node>
	<node id="-350395" lat="60.9394388853" lon="11.516244439">
		<tag k="fixme" v="multiple name tags, choose one and add the other to alt_name" />
		<tag k="name" v="Glomma;Glåma" />
		<tag k="ssr:stedsnr" v="426301" />
		<tag k="waterway" v="river" />
	</node>
	<node id="-350390" lat="62.2027972243" lon="11.4684222154">
		<tag k="name" v="Sagfossen" />
		<tag k="natural" v="waterfall" />
		<tag k="ssr:stedsnr" v="419783" />
	</node>
	<node id="-350388" lat="62.3936138881" lon="10.9585833427">
		<tag k="name" v="Nordfjordbekken" />
		<tag k="ssr:stedsnr" v="419781" />
		<tag k="waterway" v="stream" />
	</node>
	<node id="-350386" lat="62.1763305575" lon="11.4245749915">
		<tag k="name" v="Orvosen" />
		<tag k="natural" v="bay" />
		<tag k="ssr:stedsnr" v="419775" />
	</node>
	<node id="-350383" lat="62.2628027792" lon="11.4644000011">
		<tag k="name" v="Sløa" />
		<tag k="natural" v="water" />
		<tag k="ssr:stedsnr" v="419766" />
		<tag k="water" v="lake" />
	</node>
	<node id="-350366" lat="62.3573611084" lon="11.1926999985">
		<tag k="name" v="Vesleengåa" />
		<tag k="ssr:stedsnr" v="419463" />
		<tag k="waterway" v="stream" />
	</node>
	<node id="-350364" lat="62.312311108" lon="11.2749111123">
		<tag k="name" v="Røsviktjønna" />
		<tag k="natural" v="water" />
		<tag k="ssr:stedsnr" v="419650" />
	</node>
	<node id="-350343" lat="62.4499916671" lon="10.8334861083">
		<tag k="name" v="Grønvolloken" />
		<tag k="natural" v="water" />
		<tag k="ssr:stedsnr" v="418584" />
	</node>
	<node id="-350330" lat="62.3827722226" lon="10.8283638883">
		<tag k="name" v="Gammelvangmyrbekken" />
		<tag k="ssr:stedsnr" v="416198" />
		<tag k="waterway" v="stream" />
	</node>
	<node id="-350324" lat="62.4839444455" lon="10.7743555504">
		<tag k="name" v="Tomastjønna" />
		<tag k="natural" v="water" />
		<tag k="ssr:stedsnr" v="388636" />
	</node>
	<node id="-350323" lat="62.1912972257" lon="11.519322215">
		<tag k="name" v="Smørbekkhåen" />
		<tag k="natural" v="bay" />
		<tag k="ssr:stedsnr" v="384098" />
	</node>
	<node id="-350322" lat="62.4439694473" lon="11.0311249993">
		<tag k="name" v="Nedre Kottjønna" />
		<tag k="natural" v="water" />
		<tag k="ssr:stedsnr" v="376081" />
	</node>
	<node id="-350318" lat="62.4603083373" lon="10.5983194523">
		<tag k="name" v="Busjøen" />
		<tag k="natural" v="water" />
		<tag k="ssr:stedsnr" v="375834" />
	</node>
	<node id="-350317" lat="62.5203249972" lon="10.852891662">
		<tag k="name" v="Budalsbekken" />
		<tag k="ssr:stedsnr" v="375743" />
		<tag k="waterway" v="stream" />
	</node>
	<node id="-350316" lat="62.1953611108" lon="11.6013444423">
		<tag k="name" v="Veslebekken" />
		<tag k="ssr:stedsnr" v="375446" />
		<tag k="waterway" v="stream" />
	</node>
	<node id="-350313" lat="62.3835638861" lon="11.2705666761">
		<tag k="alt_name" v="Storeengåa;Engåa, store" />
		<tag k="name" v="Store Engåa" />
		<tag k="ssr:stedsnr" v="375379" />
		<tag k="waterway" v="river" />
	</node>
	<node id="-350307" lat="62.3825111099" lon="10.9791499955">
		<tag k="name" v="Granrøstbekken" />
		<tag k="ssr:stedsnr" v="375141" />
		<tag k="waterway" v="stream" />
	</node>
	<node id="-350303" lat="62.5026444409" lon="10.653536103">
		<tag k="name" v="Storgjera" />
		<tag k="ssr:stedsnr" v="375029" />
		<tag k="waterway" v="stream" />
	</node>
	<node id="-350302" lat="62.227275002" lon="11.4565694455">
		<tag k="name" v="Svartbekken" />
		<tag k="ssr:stedsnr" v="374677" />
		<tag k="waterway" v="stream" />
	</node>
	<node id="-350298" lat="62.4214972236" lon="10.8779277768">
		<tag k="name" v="Båntjønnbekken" />
		<tag k="ssr:stedsnr" v="358848" />
		<tag k="waterway" v="stream" />
	</node>
	<node id="-350290" lat="62.3790083355" lon="10.8632722246">
		<tag k="name" v="Brøttbekken" />
		<tag k="ssr:stedsnr" v="358727" />
		<tag k="waterway" v="stream" />
	</node>
	<node id="-350289" lat="62.3555777774" lon="11.2351166708">
		<tag k="name" v="Hølbekken" />
		<tag k="ssr:stedsnr" v="358722" />
		<tag k="waterway" v="stream" />
	</node>
	<node id="-350281" lat="62.4058027758" lon="10.7898194497">
		<tag k="name" v="Bratteggbekken" />
		<tag k="ssr:stedsnr" v="358693" />
		<tag k="waterway" v="stream" />
	</node>
	<node id="-350278" lat="62.4336249993" lon="10.772188885">
		<tag k="name" v="Sætersodden" />
		<tag k="natural" v="cape" />
		<tag k="ssr:stedsnr" v="358348" />
	</node>
	<node id="-350263" lat="62.4495499962" lon="10.8809027771">
		<tag k="name" v="Veslesæterbekken" />
		<tag k="ssr:stedsnr" v="357843" />
		<tag k="waterway" v="stream" />
	</node>
	<node id="-350260" lat="62.4281527779" lon="10.7912638793">
		<tag k="name" v="Litjønnbekken" />
		<tag k="ssr:stedsnr" v="357599" />
		<tag k="waterway" v="stream" />
	</node>
	<node id="-350259" lat="62.4344861104" lon="10.8205722204">
		<tag k="name" v="Hemmestbekken" />
		<tag k="ssr:stedsnr" v="357582" />
		<tag k="waterway" v="stream" />
	</node>
	<node id="-350252" lat="62.470125001" lon="10.7892305513">
		<tag k="name" v="Trøomodden" />
		<tag k="natural" v="cape" />
		<tag k="ssr:stedsnr" v="357500" />
	</node>
	<node id="-350247" lat="62.3459277763" lon="11.2113416719">
		<tag k="name" v="Strømmen" />
		<tag k="natural" v="strait" />
		<tag k="ssr:stedsnr" v="357400" />
	</node>
	<node id="-348849" lat="62.4284583348" lon="11.0959277846">
		<tag k="name" v="Erliøyan" />
		<tag k="place" v="island" />
		<tag k="ssr:stedsnr" v="115509" />
	</node>
	<node id="-350244" lat="62.3685166706" lon="10.9981222246">
		<tag k="name" v="Olaloken" />
		<tag k="natural" v="water" />
		<tag k="ssr:stedsnr" v="357298" />
	</node>
	<node id="-350242" lat="62.4443250006" lon="10.9836777705">
		<tag k="name" v="Sikkelbekken" />
		<tag k="ssr:stedsnr" v="357163" />
		<tag k="waterway" v="stream" />
	</node>
	<node id="-350239" lat="62.4673305538" lon="10.9798277805">
		<tag k="name" v="Letjønnbekken" />
		<tag k="ssr:stedsnr" v="357060" />
		<tag k="waterway" v="stream" />
	</node>
	<node id="-350234" lat="62.4129055557" lon="11.1003944466">
		<tag k="name" v="Rabbåstjønnan" />
		<tag k="natural" v="water" />
		<tag k="ssr:stedsnr" v="356449" />
	</node>
	<node id="-350232" lat="62.4165138848" lon="10.9094611065">
		<tag k="name" v="Rørtjønna" />
		<tag k="natural" v="water" />
		<tag k="ssr:stedsnr" v="357823" />
	</node>
	<node id="-350226" lat="62.4764750009" lon="10.5777388879">
		<tag k="name" v="Dipillen" />
		<tag k="natural" v="water" />
		<tag k="ssr:stedsnr" v="355326" />
	</node>
	<node id="-350222" lat="62.3870527767" lon="10.8149250049">
		<tag k="name" v="Øster Storbekken" />
		<tag k="ssr:stedsnr" v="355222" />
		<tag k="waterway" v="stream" />
	</node>
	<node id="-350219" lat="62.4778547082" lon="10.9384865782">
		<tag k="fixme" v="multiple name tags, choose one and add the other to alt_name" />
		<tag k="name" v="Storolåa;Vesle Olåa" />
		<tag k="ssr:stedsnr" v="328690" />
		<tag k="waterway" v="stream" />
	</node>
	<node id="-350215" lat="62.4830916663" lon="10.5861111043">
		<tag k="alt_name" v="Stabbstubekken" />
		<tag k="name" v="Stabbstøbekken" />
		<tag k="ssr:stedsnr" v="315629" />
		<tag k="waterway" v="stream" />
	</node>
	<node id="-350214" lat="62.29545" lon="11.2295111025">
		<tag k="name" v="Klettbekken" />
		<tag k="ssr:stedsnr" v="315477" />
		<tag k="waterway" v="stream" />
	</node>
	<node id="-350213" lat="62.2521194451" lon="11.0535388892">
		<tag k="name" v="Bjørklauvtjønna" />
		<tag k="natural" v="water" />
		<tag k="ssr:stedsnr" v="315301" />
>>>>>>> e1d4bc35ff8a6074a6f2e91616a996b547c36f15
	</node>
</osm>
