<?xml version="1.0" encoding="UTF-8"?>
<osm generator="osmapis" version="0.6">
	<node id="-309241" lat="62.263874996" lon="11.4551861193">
		<tag k="name" v="Skjera" />
		<tag k="natural" v="valley" />
		<tag k="place" v="locality" />
		<tag k="ssr:stedsnr" v="660821" />
	</node>
	<node id="-309240" lat="62.262677777" lon="11.4545194353">
		<tag k="name" v="Høgrabben" />
		<tag k="natural" v="hill" />
		<tag k="place" v="locality" />
		<tag k="ssr:stedsnr" v="660819" />
	</node>
	<node id="-309235" lat="62.3686138903" lon="11.1760500019">
		<tag k="name" v="Brentegga" />
		<tag k="natural" v="hill" />
		<tag k="place" v="locality" />
		<tag k="ssr:stedsnr" v="660450" />
	</node>
	<node id="-309234" lat="62.3856277747" lon="11.2074472215">
		<tag k="name" v="Bjørbekkåsen" />
		<tag k="natural" v="hill" />
		<tag k="place" v="locality" />
		<tag k="ssr:stedsnr" v="660432" />
	</node>
	<node id="-309232" lat="62.3889472187" lon="11.0116305496">
		<tag k="name" v="Tollbakken" />
		<tag k="natural" v="hill" />
		<tag k="place" v="locality" />
		<tag k="ssr:stedsnr" v="660367" />
	</node>
	<node id="-309231" lat="62.3833777797" lon="11.0177416595">
		<tag k="name" v="Blåbærknausan" />
		<tag k="natural" v="hill" />
		<tag k="place" v="locality" />
		<tag k="ssr:stedsnr" v="660356" />
	</node>
	<node id="-309229" lat="62.4799638889" lon="10.7979583405">
		<tag k="name" v="Langegga" />
		<tag k="natural" v="ridge" />
		<tag k="place" v="locality" />
		<tag k="ssr:stedsnr" v="660542" />
	</node>
	<node id="-309226" lat="62.4484333292" lon="10.9693027743">
		<tag k="name" v="Skaret" />
		<tag k="natural" v="valley" />
		<tag k="place" v="locality" />
		<tag k="ssr:stedsnr" v="660164" />
	</node>
	<node id="-309225" lat="62.4570000016" lon="11.0300388849">
		<tag k="name" v="Pellementhaugen" />
		<tag k="natural" v="hill" />
		<tag k="place" v="locality" />
		<tag k="ssr:stedsnr" v="660160" />
	</node>
	<node id="-309224" lat="62.4174361152" lon="11.0111527811">
		<tag k="name" v="Røråsbakken" />
		<tag k="natural" v="slope" />
		<tag k="place" v="locality" />
		<tag k="ssr:stedsnr" v="660125" />
	</node>
	<node id="-309223" lat="62.4628388855" lon="11.0225611178">
		<tag k="name" v="Allmannhaugen" />
		<tag k="natural" v="hill" />
		<tag k="place" v="locality" />
		<tag k="ssr:stedsnr" v="660048" />
	</node>
	<node id="-309221" lat="62.3947722246" lon="10.8256611143">
		<tag k="name" v="Stenengvola" />
		<tag k="natural" v="hill" />
		<tag k="place" v="locality" />
		<tag k="ssr:stedsnr" v="658225" />
	</node>
	<node id="-309217" lat="62.466058329" lon="10.6251777772">
		<tag k="alt_name" v="Busjødalsrabbene" />
		<tag k="fixme" v="consider natural=peak for the most distinct mountains in the district" />
		<tag k="name" v="Busjødalsrabban" />
		<tag k="natural" v="hill" />
		<tag k="place" v="locality" />
		<tag k="ssr:stedsnr" v="436854" />
	</node>
	<node id="-309216" lat="62.5294833325" lon="10.7965750042">
		<tag k="fixme" v="consider natural=peak for the most distinct mountains in the district" />
		<tag k="name" v="Tangen" />
		<tag k="natural" v="hill" />
		<tag k="place" v="locality" />
		<tag k="ssr:stedsnr" v="436852" />
	</node>
	<node id="-309213" lat="62.2452138877" lon="11.5482888842">
		<tag k="fixme" v="consider natural=peak for the most distinct mountains in the district" />
		<tag k="name" v="Sålekinna" />
		<tag k="natural" v="hill" />
		<tag k="place" v="locality" />
		<tag k="ssr:stedsnr" v="436423" />
	</node>
	<node id="-309212" lat="62.3227777781" lon="11.2702083419">
		<tag k="alt_name" v="Yter Røsvikåsen;Røsvikåsen, nedre;Røsvikåsen" />
		<tag k="name" v="Nedre Røsvikåsen" />
		<tag k="natural" v="hill" />
		<tag k="place" v="locality" />
		<tag k="ssr:stedsnr" v="436417" />
	</node>
	<node id="-309210" lat="62.2723805553" lon="11.1393444493">
		<tag k="alt_name" v="Skittenklettauren" />
		<tag k="name" v="Skittenklettørdet" />
		<tag k="place" v="locality" />
		<tag k="ssr:stedsnr" v="436257" />
	</node>
	<node id="-309204" lat="62.5629250036" lon="10.7708638959">
		<tag k="loc_name" v="Austelvdalen" />
		<tag k="name" v="Østelvdalen" />
		<tag k="natural" v="valley" />
		<tag k="place" v="locality" />
		<tag k="ssr:stedsnr" v="436115" />
	</node>
	<node id="-309197" lat="62.2628722235" lon="11.0665749928">
		<tag k="name" v="Stryppiggan" />
		<tag k="natural" v="hill" />
		<tag k="place" v="locality" />
		<tag k="ssr:stedsnr" v="419319" />
	</node>
	<node id="-309196" lat="62.2706000005" lon="11.072091669">
		<tag k="name" v="Finntrøan" />
		<tag k="place" v="locality" />
		<tag k="ssr:stedsnr" v="419318" />
	</node>
	<node id="-309190" lat="62.4160583367" lon="10.9217638857">
		<tag k="fixme" v="consider natural=peak for the most distinct mountains in the district" />
		<tag k="name" v="Våttåsen" />
		<tag k="natural" v="hill" />
		<tag k="place" v="locality" />
		<tag k="ssr:stedsnr" v="418826" />
	</node>
	<node id="-309189" lat="62.4089444447" lon="10.9442138918">
		<tag k="name" v="Fransishaugan" />
		<tag k="natural" v="hill" />
		<tag k="place" v="locality" />
		<tag k="ssr:stedsnr" v="418823" />
	</node>
	<node id="-309188" lat="62.2289555589" lon="11.3902833262">
		<tag k="name" v="Åkereggan" />
		<tag k="natural" v="hill" />
		<tag k="place" v="locality" />
		<tag k="ssr:stedsnr" v="418810" />
	</node>
	<node id="-309185" lat="62.434377778" lon="10.9339500027">
		<tag k="name" v="Skuddhammeren" />
		<tag k="natural" v="hill" />
		<tag k="place" v="locality" />
		<tag k="ssr:stedsnr" v="418802" />
	</node>
	<node id="-309177" lat="62.3938777778" lon="10.9953222196">
		<tag k="name" v="Volljordbakken" />
		<tag k="natural" v="slope" />
		<tag k="place" v="locality" />
		<tag k="ssr:stedsnr" v="418334" />
	</node>
	<node id="-309175" lat="62.3588833295" lon="11.0643916597">
		<tag k="name" v="Gråhørøstan" />
		<tag k="natural" v="slope" />
		<tag k="place" v="locality" />
		<tag k="ssr:stedsnr" v="418316" />
	</node>
	<node id="-309173" lat="62.3697638852" lon="11.002519444">
		<tag k="name" v="Brennhaugen" />
		<tag k="natural" v="hill" />
		<tag k="place" v="locality" />
		<tag k="ssr:stedsnr" v="418308" />
	</node>
	<node id="-309170" lat="62.4624888906" lon="11.000813897">
		<tag k="name" v="Storrya" />
		<tag k="place" v="locality" />
		<tag k="ssr:stedsnr" v="418041" />
	</node>
	<node id="-309164" lat="62.3975666654" lon="11.0798250087">
		<tag k="alt_name" v="Kvølvet" />
		<tag k="name" v="Kvolvet" />
		<tag k="natural" v="slope" />
		<tag k="place" v="locality" />
		<tag k="ssr:stedsnr" v="392814" />
	</node>
	<node id="-309158" lat="62.4280777799" lon="10.925347213">
		<tag k="fixme" v="consider natural=peak for the most distinct mountains in the district" />
		<tag k="name" v="Vangsåsen" />
		<tag k="natural" v="hill" />
		<tag k="place" v="locality" />
		<tag k="ssr:stedsnr" v="376104" />
	</node>
	<node id="-309156" lat="62.5000861072" lon="10.4734388835">
		<tag k="fixme" v="consider natural=peak for the most distinct mountains in the district" />
		<tag k="name" v="Eidsfjellet" />
		<tag k="natural" v="hill" />
		<tag k="place" v="locality" />
		<tag k="ssr:stedsnr" v="375617" />
	</node>
	<node id="-309155" lat="62.2593500018" lon="11.373177787">
		<tag k="name" v="Veslehøgda" />
		<tag k="natural" v="hill" />
		<tag k="place" v="locality" />
		<tag k="ssr:stedsnr" v="375508" />
	</node>
	<node id="-309154" lat="62.4296722248" lon="11.274472225">
		<tag k="fixme" v="consider natural=peak for the most distinct mountains in the district" />
		<tag k="name" v="Gråhøgda" />
		<tag k="natural" v="hill" />
		<tag k="ssr:stedsnr" v="375369" />
	</node>
	<node id="-309153" lat="62.2249249972" lon="11.3118194362">
		<tag k="name" v="Storbekkdalen" />
		<tag k="natural" v="valley" />
		<tag k="place" v="locality" />
		<tag k="ssr:stedsnr" v="375425" />
	</node>
	<node id="-309151" lat="62.2269083313" lon="11.5287694415">
		<tag k="fixme" v="consider natural=peak for the most distinct mountains in the district" />
		<tag k="name" v="Hammaren" />
		<tag k="natural" v="hill" />
		<tag k="place" v="locality" />
		<tag k="ssr:stedsnr" v="375410" />
	</node>
	<node id="-309147" lat="62.2226527806" lon="11.1268944418">
		<tag k="fixme" v="consider natural=peak for the most distinct mountains in the district" />
		<tag k="name" v="Raudsjøtangen" />
		<tag k="natural" v="hill" />
		<tag k="place" v="locality" />
		<tag k="ssr:stedsnr" v="375156" />
	</node>
	<node id="-309138" lat="62.4853305568" lon="10.6340555615">
		<tag k="alt_name" v="Gjersjøhøgda" />
		<tag k="fixme" v="consider natural=peak for the most distinct mountains in the district" />
		<tag k="name" v="Gjersjøhøa" />
		<tag k="natural" v="hill" />
		<tag k="place" v="locality" />
		<tag k="ssr:stedsnr" v="497619" />
	</node>
	<node id="-309129" lat="62.3643972256" lon="10.8381499966">
		<tag k="fixme" v="consider natural=peak for the most distinct mountains in the district" />
		<tag k="name" v="Knappåsen" />
		<tag k="natural" v="hill" />
		<tag k="place" v="locality" />
		<tag k="ssr:stedsnr" v="497154" />
	</node>
	<node id="-309122" lat="62.4436750036" lon="10.6113666693">
		<tag k="alt_name" v="Gubbenghaugene" />
		<tag k="name" v="Gubbenghaugan" />
		<tag k="natural" v="hill" />
		<tag k="place" v="locality" />
		<tag k="ssr:stedsnr" v="496848" />
	</node>
	<node id="-309121" lat="62.4411666683" lon="10.6432027707">
		<tag k="name" v="Trettenget" />
		<tag k="natural" v="slope" />
		<tag k="place" v="locality" />
		<tag k="ssr:stedsnr" v="496829" />
	</node>
	<node id="-309120" lat="62.5031666701" lon="10.8663749939">
		<tag k="alt_name" v="Grårabben, n" />
		<tag k="name" v="Nordre Grårabben" />
		<tag k="natural" v="hill" />
		<tag k="place" v="locality" />
		<tag k="ssr:stedsnr" v="496777" />
	</node>
	<node id="-309115" lat="62.3451277765" lon="11.1184055586">
		<tag k="alt_name" v="Bjørsjøkletten, store;Bjørsjøklettan" />
		<tag k="fixme" v="consider natural=peak for the most distinct mountains in the district" />
		<tag k="name" v="Store Bjørsjøkletten" />
		<tag k="natural" v="hill" />
		<tag k="place" v="locality" />
		<tag k="ssr:stedsnr" v="496225" />
	</node>
	<node id="-309112" lat="62.1729333349" lon="11.446608333">
		<tag k="name" v="Søndre Rundhaugen" />
		<tag k="natural" v="hill" />
		<tag k="place" v="locality" />
		<tag k="ssr:stedsnr" v="358757" />
	</node>
	<node id="-309111" lat="62.2709694412" lon="11.4066194435">
		<tag k="name" v="Vintervegsundet" />
		<tag k="natural" v="slope" />
		<tag k="place" v="locality" />
		<tag k="ssr:stedsnr" v="358810" />
	</node>
	<node id="-309110" lat="62.3181027817" lon="11.3319527691">
		<tag k="name" v="Skårdalen" />
		<tag k="natural" v="valley" />
		<tag k="place" v="locality" />
		<tag k="ssr:stedsnr" v="358666" />
	</node>
	<node id="-309107" lat="62.4152999986" lon="10.89850278">
		<tag k="name" v="Måssågrubba" />
		<tag k="natural" v="valley" />
		<tag k="place" v="locality" />
		<tag k="ssr:stedsnr" v="358713" />
	</node>
	<node id="-309102" lat="62.3980166712" lon="11.0245972138">
		<tag k="name" v="Dugurdshaugen" />
		<tag k="natural" v="hill" />
		<tag k="place" v="locality" />
		<tag k="ssr:stedsnr" v="358266" />
	</node>
	<node id="-309097" lat="62.4286388911" lon="10.8845277781">
		<tag k="name" v="Blåbærbakken" />
		<tag k="natural" v="hill" />
		<tag k="place" v="locality" />
		<tag k="ssr:stedsnr" v="357852" />
	</node>
	<node id="-309096" lat="62.2094388926" lon="11.5515472275">
		<tag k="name" v="Bulia" />
		<tag k="natural" v="slope" />
		<tag k="place" v="locality" />
		<tag k="ssr:stedsnr" v="357915" />
	</node>
	<node id="-309094" lat="62.3527972262" lon="10.8953833291">
		<tag k="name" v="Forlotten" />
		<tag k="place" v="locality" />
		<tag k="ssr:stedsnr" v="348269" />
	</node>
	<node id="-309087" lat="62.2061722238" lon="11.3962722276">
		<tag k="name" v="Heggerådalen" />
		<tag k="natural" v="valley" />
		<tag k="place" v="locality" />
		<tag k="ssr:stedsnr" v="479873" />
	</node>
	<node id="-309086" lat="62.3485277772" lon="11.3327222199">
		<tag k="name" v="Kampen" />
		<tag k="natural" v="hill" />
		<tag k="place" v="locality" />
		<tag k="ssr:stedsnr" v="479739" />
	</node>
	<node id="-309084" lat="62.3931083338" lon="10.9438277697">
		<tag k="name" v="Strype" />
		<tag k="natural" v="valley" />
		<tag k="place" v="locality" />
		<tag k="ssr:stedsnr" v="479783" />
	</node>
	<node id="-309081" lat="62.3874722179" lon="10.860372219">
		<tag k="name" v="Ånessletta" />
		<tag k="place" v="locality" />
		<tag k="ssr:stedsnr" v="479699" />
	</node>
	<node id="-309079" lat="62.4139111135" lon="10.8460249982">
		<tag k="name" v="Gråvsdalen" />
		<tag k="natural" v="valley" />
		<tag k="place" v="locality" />
		<tag k="ssr:stedsnr" v="479681" />
	</node>
	<node id="-309078" lat="62.419661113" lon="11.1039055488">
		<tag k="name" v="Langgrubba" />
		<tag k="natural" v="valley" />
		<tag k="place" v="locality" />
		<tag k="ssr:stedsnr" v="479523" />
	</node>
	<node id="-309073" lat="62.2397722184" lon="11.0782750043">
		<tag k="name" v="Langgrubba" />
		<tag k="natural" v="valley" />
		<tag k="place" v="locality" />
		<tag k="ssr:stedsnr" v="479299" />
	</node>
	<node id="-309070" lat="62.4078138918" lon="11.0710250097">
		<tag k="fixme" v="consider natural=peak for the most distinct mountains in the district" />
		<tag k="name" v="Flatåsen" />
		<tag k="natural" v="hill" />
		<tag k="place" v="locality" />
		<tag k="ssr:stedsnr" v="479277" />
	</node>
	<node id="-309069" lat="62.4137333316" lon="11.0218361185">
		<tag k="alt_name" v="Garmakerdalen" />
		<tag k="name" v="Garmåkerdalen" />
		<tag k="natural" v="valley" />
		<tag k="place" v="locality" />
		<tag k="ssr:stedsnr" v="479271" />
	</node>
	<node id="-309062" lat="62.4508361146" lon="10.9084555643">
		<tag k="name" v="Vester Tallsjøhaugen" />
		<tag k="natural" v="hill" />
		<tag k="place" v="locality" />
		<tag k="ssr:stedsnr" v="478885" />
	</node>
	<node id="-309059" lat="62.423794443" lon="11.1820916615">
		<tag k="name" v="Rabbhaugen" />
		<tag k="natural" v="hill" />
		<tag k="place" v="locality" />
		<tag k="ssr:stedsnr" v="478519" />
	</node>
	<node id="-309058" lat="62.4810666633" lon="10.757083335">
		<tag k="fixme" v="consider natural=peak for the most distinct mountains in the district" />
		<tag k="name" v="Nordre Svartåsrabben" />
		<tag k="natural" v="hill" />
		<tag k="place" v="locality" />
		<tag k="ssr:stedsnr" v="478515" />
	</node>
	<node id="-309057" lat="62.4745305547" lon="10.7706666753">
		<tag k="fixme" v="consider natural=peak for the most distinct mountains in the district" />
		<tag k="name" v="Fremmer Svartåsrabben" />
		<tag k="natural" v="hill" />
		<tag k="place" v="locality" />
		<tag k="ssr:stedsnr" v="478512" />
	</node>
	<node id="-309053" lat="62.3791666664" lon="11.1894083366">
		<tag k="name" v="Vesle Harrbekkåsen" />
		<tag k="natural" v="hill" />
		<tag k="place" v="locality" />
		<tag k="ssr:stedsnr" v="478469" />
	</node>
	<node id="-309052" lat="62.3545916649" lon="11.0801000054">
		<tag k="name" v="Skårdalen" />
		<tag k="natural" v="valley" />
		<tag k="place" v="locality" />
		<tag k="ssr:stedsnr" v="478333" />
	</node>
	<node id="-309051" lat="62.3550555557" lon="11.0560638882">
		<tag k="name" v="Revhiegga" />
		<tag k="natural" v="hill" />
		<tag k="place" v="locality" />
		<tag k="ssr:stedsnr" v="478332" />
	</node>
	<node id="-309050" lat="62.4464500011" lon="11.016661111">
		<tag k="name" v="Rognstryåsen" />
		<tag k="natural" v="hill" />
		<tag k="place" v="locality" />
		<tag k="ssr:stedsnr" v="478139" />
	</node>
	<node id="-309049" lat="62.4259305519" lon="11.0118722269">
		<tag k="name" v="Gråknausen" />
		<tag k="natural" v="hill" />
		<tag k="place" v="locality" />
		<tag k="ssr:stedsnr" v="478116" />
	</node>
	<node id="-309046" lat="62.4343888847" lon="11.0085472181">
		<tag k="name" v="Linjhaugen" />
		<tag k="natural" v="hill" />
		<tag k="place" v="locality" />
		<tag k="ssr:stedsnr" v="478168" />
	</node>
	<node id="-309038" lat="62.4865361111" lon="10.5227194479">
		<tag k="name" v="Eidskampen" />
		<tag k="natural" v="hill" />
		<tag k="place" v="locality" />
		<tag k="ssr:stedsnr" v="315625" />
	</node>
	<node id="-309037" lat="62.2534833294" lon="11.2602111067">
		<tag k="name" v="Lettingshøgda" />
		<tag k="natural" v="hill" />
		<tag k="place" v="locality" />
		<tag k="ssr:stedsnr" v="315520" />
	</node>
	<node id="-309031" lat="62.3908305547" lon="10.8735250061">
		<tag k="alt_name" v="Kvenndalen" />
		<tag k="name" v="Kverndalen" />
		<tag k="natural" v="valley" />
		<tag k="place" v="locality" />
		<tag k="ssr:stedsnr" v="315159" />
	</node>
	<node id="-309025" lat="62.5077083333" lon="10.908355547">
		<tag k="name" v="Storbekkfatet" />
		<tag k="natural" v="valley" />
		<tag k="place" v="locality" />
		<tag k="ssr:stedsnr" v="314768" />
	</node>
	<node id="-309019" lat="62.2352277742" lon="11.4320027799">
		<tag k="alt_name" v="Glophøgda, store" />
		<tag k="fixme" v="consider natural=peak for the most distinct mountains in the district" />
		<tag k="name" v="Store Glophøgda" />
		<tag k="natural" v="hill" />
		<tag k="place" v="locality" />
		<tag k="ssr:stedsnr" v="314512" />
	</node>
	<node id="-309016" lat="62.218088888" lon="11.2024499962">
		<tag k="alt_name" v="Raudsjøtangen, østre" />
		<tag k="fixme" v="consider natural=peak for the most distinct mountains in the district" />
		<tag k="name" v="Østre Raudsjøtangen" />
		<tag k="natural" v="hill" />
		<tag k="place" v="locality" />
		<tag k="ssr:stedsnr" v="314220" />
	</node>
	<node id="-309000" lat="62.3005833353" lon="11.1362972139">
		<tag k="alt_name" v="Aurdalen, nordre" />
		<tag k="fixme" v="multiple name tags, choose one and add the other to alt_name" />
		<tag k="name" v="Nørdre Ørddalen;Nordre Aurdalen" />
		<tag k="natural" v="valley" />
		<tag k="place" v="locality" />
		<tag k="ssr:stedsnr" v="254224" />
	</node>
	<node id="-308999" lat="62.3284972237" lon="11.0414888892">
		<tag k="fixme" v="consider natural=peak for the most distinct mountains in the district" />
		<tag k="name" v="Bannarhøa" />
		<tag k="natural" v="hill" />
		<tag k="place" v="locality" />
		<tag k="ssr:stedsnr" v="254214" />
	</node>
	<node id="-308994" lat="62.3655277767" lon="10.8684277798">
		<tag k="fixme" v="consider natural=peak for the most distinct mountains in the district" />
		<tag k="name" v="Snurruegga" />
		<tag k="natural" v="hill" />
		<tag k="old_name" v="Bjørkvislåsen" />
		<tag k="place" v="locality" />
		<tag k="ssr:stedsnr" v="254174" />
	</node>
	<node id="-308991" lat="62.5878638893" lon="10.7386194425">
		<tag k="alt_name" v="Bratthøa, nordre" />
		<tag k="fixme" v="consider natural=peak for the most distinct mountains in the district" />
		<tag k="name" v="Nordre Bratthøa" />
		<tag k="natural" v="hill" />
		<tag k="place" v="locality" />
		<tag k="ssr:stedsnr" v="254132" />
	</node>
	<node id="-308989" lat="62.3989305591" lon="11.043999997">
		<tag k="fixme" v="consider natural=peak for the most distinct mountains in the district" />
		<tag k="name" v="Månknausen" />
		<tag k="natural" v="hill" />
		<tag k="place" v="locality" />
		<tag k="ssr:stedsnr" v="254126" />
	</node>
	<node id="-308988" lat="62.3993333362" lon="10.8235083365">
		<tag k="fixme" v="consider natural=peak for the most distinct mountains in the district" />
		<tag k="name" v="Nonsvola" />
		<tag k="natural" v="hill" />
		<tag k="place" v="locality" />
		<tag k="ssr:stedsnr" v="254110" />
	</node>
	<node id="-308982" lat="62.4023083364" lon="10.7031111185">
		<tag k="name" v="Myrengdalen" />
		<tag k="natural" v="valley" />
		<tag k="place" v="locality" />
		<tag k="ssr:stedsnr" v="234015" />
	</node>
	<node id="-308980" lat="62.4893472264" lon="10.7832805625">
		<tag k="name" v="Mosedalsbakken" />
		<tag k="natural" v="slope" />
		<tag k="place" v="locality" />
		<tag k="ssr:stedsnr" v="297964" />
	</node>
	<node id="-308977" lat="62.4568027736" lon="10.8866972152">
		<tag k="fixme" v="consider natural=peak for the most distinct mountains in the district" />
		<tag k="name" v="Vingelssætervola" />
		<tag k="natural" v="hill" />
		<tag k="place" v="locality" />
		<tag k="ssr:stedsnr" v="297885" />
	</node>
	<node id="-308968" lat="62.4074805561" lon="10.9213222275">
		<tag k="name" v="Tjønnhaugan" />
		<tag k="natural" v="hill" />
		<tag k="place" v="locality" />
		<tag k="ssr:stedsnr" v="297830" />
	</node>
	<node id="-308965" lat="62.4204194421" lon="10.914516665">
		<tag k="fixme" v="consider natural=peak for the most distinct mountains in the district" />
		<tag k="name" v="Rytjønnåsen" />
		<tag k="natural" v="hill" />
		<tag k="place" v="locality" />
		<tag k="ssr:stedsnr" v="297820" />
	</node>
	<node id="-308960" lat="62.2311055588" lon="11.5026611035">
		<tag k="name" v="Svenshåmmåren" />
		<tag k="natural" v="hill" />
		<tag k="place" v="locality" />
		<tag k="ssr:stedsnr" v="297801" />
	</node>
	<node id="-308959" lat="62.2570361095" lon="11.4591194445">
		<tag k="name" v="Storberget" />
		<tag k="natural" v="hill" />
		<tag k="place" v="locality" />
		<tag k="ssr:stedsnr" v="297794" />
	</node>
	<node id="-308958" lat="62.3535999988" lon="10.9327416745">
		<tag k="name" v="Høyeggan" />
		<tag k="natural" v="hill" />
		<tag k="place" v="locality" />
		<tag k="ssr:stedsnr" v="297791" />
	</node>
	<node id="-308957" lat="62.3583416661" lon="10.9356333404">
		<tag k="name" v="Vesletelmoen" />
		<tag k="place" v="locality" />
		<tag k="ssr:stedsnr" v="297790" />
	</node>
	<node id="-308954" lat="62.1877055592" lon="11.4287583399">
		<tag k="name" v="Salen" />
		<tag k="natural" v="valley" />
		<tag k="place" v="locality" />
		<tag k="ssr:stedsnr" v="297766" />
	</node>
	<node id="-308953" lat="62.2655000042" lon="11.4719361209">
		<tag k="name" v="Bjønnrøsta" />
		<tag k="natural" v="slope" />
		<tag k="place" v="locality" />
		<tag k="ssr:stedsnr" v="297762" />
	</node>
	<node id="-308951" lat="62.3745694487" lon="10.9001166694">
		<tag k="name" v="Møkkelbekkøya" />
		<tag k="place" v="locality" />
		<tag k="ssr:stedsnr" v="297714" />
	</node>
	<node id="-308948" lat="62.4132388923" lon="10.8950861124">
		<tag k="name" v="Vesleåsen" />
		<tag k="natural" v="hill" />
		<tag k="place" v="locality" />
		<tag k="ssr:stedsnr" v="297688" />
	</node>
	<node id="-308945" lat="62.2980527819" lon="11.4116666741">
		<tag k="name" v="Gammelvollhaugen" />
		<tag k="natural" v="hill" />
		<tag k="place" v="locality" />
		<tag k="ssr:stedsnr" v="297667" />
	</node>
	<node id="-308944" lat="62.4034138905" lon="10.8087500068">
		<tag k="name" v="Rundtuva" />
		<tag k="natural" v="hill" />
		<tag k="place" v="locality" />
		<tag k="ssr:stedsnr" v="297665" />
	</node>
	<node id="-308939" lat="62.4149666664" lon="11.1327333285">
		<tag k="name" v="Langegga" />
		<tag k="natural" v="hill" />
		<tag k="place" v="locality" />
		<tag k="ssr:stedsnr" v="297558" />
	</node>
	<node id="-308938" lat="62.4295055515" lon="11.194511115">
		<tag k="name" v="Smådalen" />
		<tag k="natural" v="valley" />
		<tag k="place" v="locality" />
		<tag k="ssr:stedsnr" v="297484" />
	</node>
	<node id="-308927" lat="62.3663722243" lon="10.9925777781">
		<tag k="name" v="Lisbethaugen" />
		<tag k="natural" v="hill" />
		<tag k="place" v="locality" />
		<tag k="ssr:stedsnr" v="297320" />
	</node>
	<node id="-308924" lat="62.4086194461" lon="11.0134083262">
		<tag k="name" v="Voll-lia" />
		<tag k="natural" v="slope" />
		<tag k="place" v="locality" />
		<tag k="ssr:stedsnr" v="297279" />
	</node>
	<node id="-308922" lat="62.4229416704" lon="11.029108325">
		<tag k="name" v="Korsgrubba" />
		<tag k="natural" v="valley" />
		<tag k="place" v="locality" />
		<tag k="ssr:stedsnr" v="297158" />
	</node>
	<node id="-308920" lat="62.4546166673" lon="11.0596361055">
		<tag k="name" v="Langhaugen" />
		<tag k="natural" v="hill" />
		<tag k="place" v="locality" />
		<tag k="ssr:stedsnr" v="297114" />
	</node>
	<node id="-308918" lat="62.4743638884" lon="10.755583338">
		<tag k="name" v="Veslerabben" />
		<tag k="natural" v="hill" />
		<tag k="place" v="locality" />
		<tag k="ssr:stedsnr" v="296984" />
	</node>
	<node id="-308911" lat="62.4810138915" lon="10.7768250067">
		<tag k="fixme" v="consider natural=peak for the most distinct mountains in the district" />
		<tag k="name" v="Nystuåsen" />
		<tag k="natural" v="hill" />
		<tag k="place" v="locality" />
		<tag k="ssr:stedsnr" v="296469" />
	</node>
	<node id="-308908" lat="62.4622833319" lon="10.7330527733">
		<tag k="name" v="Båbakken" />
		<tag k="natural" v="slope" />
		<tag k="place" v="locality" />
		<tag k="ssr:stedsnr" v="296223" />
	</node>
	<node id="-308898" lat="62.4279305555" lon="10.6464083422">
		<tag k="fixme" v="consider natural=peak for the most distinct mountains in the district" />
		<tag k="name" v="Gjeråsen" />
		<tag k="natural" v="hill" />
		<tag k="place" v="locality" />
		<tag k="ssr:stedsnr" v="194812" />
	</node>
	<node id="-308896" lat="62.5577749989" lon="10.8243277773">
		<tag k="alt_name" v="Skjeret, nordre" />
		<tag k="fixme" v="consider natural=peak for the most distinct mountains in the district" />
		<tag k="name" v="Nordre Skjeret" />
		<tag k="natural" v="hill" />
		<tag k="place" v="locality" />
		<tag k="ssr:stedsnr" v="194803" />
	</node>
	<node id="-308895" lat="62.2794777789" lon="11.3305000009">
		<tag k="name" v="Borren" />
		<tag k="natural" v="hill" />
		<tag k="place" v="locality" />
		<tag k="ssr:stedsnr" v="194420" />
	</node>
	<node id="-308889" lat="62.1650916669" lon="11.4468166671">
		<tag k="alt_name" v="Kletten, nordre" />
		<tag k="fixme" v="consider natural=peak for the most distinct mountains in the district" />
		<tag k="name" v="Nordre Kletten" />
		<tag k="natural" v="hill" />
		<tag k="place" v="locality" />
		<tag k="ssr:stedsnr" v="193402" />
	</node>
	<node id="-308778" lat="62.385500002" lon="11.0807972197">
		<tag k="name" v="Livollåsen" />
		<tag k="natural" v="hill" />
		<tag k="place" v="locality" />
		<tag k="ssr:stedsnr" v="55325" />
	</node>
	<node id="-308884" lat="62.3928527754" lon="11.0981694493">
		<tag k="fixme" v="consider natural=peak for the most distinct mountains in the district" />
		<tag k="name" v="Tangen" />
		<tag k="natural" v="hill" />
		<tag k="place" v="locality" />
		<tag k="ssr:stedsnr" v="193142" />
	</node>
	<node id="-308872" lat="62.2671749996" lon="11.5227027868">
		<tag k="name" v="Styggroa" />
		<tag k="natural" v="slope" />
		<tag k="place" v="locality" />
		<tag k="ssr:stedsnr" v="133502" />
	</node>
	<node id="-308844" lat="62.4258222203" lon="10.9941611127">
		<tag k="name" v="Brattola" />
		<tag k="natural" v="slope" />
		<tag k="place" v="locality" />
		<tag k="ssr:stedsnr" v="115209" />
	</node>
	<node id="-308867" lat="62.3410611101" lon="11.2785027819">
		<tag k="name" v="Rabban" />
		<tag k="natural" v="hill" />
		<tag k="place" v="locality" />
		<tag k="ssr:stedsnr" v="132444" />
	</node>
	<node id="-308850" lat="62.4131333296" lon="10.9147222203">
		<tag k="name" v="Våttåsdalen" />
		<tag k="natural" v="valley" />
		<tag k="place" v="locality" />
		<tag k="ssr:stedsnr" v="115809" />
	</node>
	<node id="-310896" lat="62.2501222218" lon="11.4666472243">
		<tag k="name" v="Hølet" />
		<tag k="natural" v="valley" />
		<tag k="place" v="locality" />
		<tag k="ssr:stedsnr" v="965797" />
	</node>
	<node id="-310892" lat="62.3795888933" lon="10.9308166606">
		<tag k="name" v="Fosshamran" />
		<tag k="natural" v="hill" />
		<tag k="place" v="locality" />
		<tag k="ssr:stedsnr" v="965784" />
	</node>
	<node id="-308841" lat="62.407022226" lon="10.7271499934">
		<tag k="name" v="Elgslettet" />
		<tag k="place" v="locality" />
		<tag k="ssr:stedsnr" v="112310" />
	</node>
	<node id="-310887" lat="62.4139666632" lon="11.1311916676">
		<tag k="name" v="Stallbakken" />
		<tag k="natural" v="slope" />
		<tag k="place" v="locality" />
		<tag k="ssr:stedsnr" v="965591" />
	</node>
	<node id="-308836" lat="62.4556055598" lon="10.7047583245">
		<tag k="alt_name" v="Båvorda" />
		<tag k="fixme" v="consider natural=peak for the most distinct mountains in the district" />
		<tag k="name" v="Båvola" />
		<tag k="natural" v="hill" />
		<tag k="place" v="locality" />
		<tag k="ssr:stedsnr" v="254838" />
	</node>
	<node id="-310883" lat="62.4245388853" lon="11.1116527756">
		<tag k="name" v="Bjørfallet" />
		<tag k="natural" v="valley" />
		<tag k="place" v="locality" />
		<tag k="ssr:stedsnr" v="965545" />
	</node>
	<node id="-310880" lat="62.2619416649" lon="11.0652166696">
		<tag k="name" v="Strypet" />
		<tag k="natural" v="valley" />
		<tag k="place" v="locality" />
		<tag k="ssr:stedsnr" v="965340" />
	</node>
	<node id="-310876" lat="62.2654888918" lon="11.4720527775">
		<tag k="name" v="Brennrøsta" />
		<tag k="natural" v="hill" />
		<tag k="place" v="locality" />
		<tag k="ssr:stedsnr" v="965315" />
	</node>
	<node id="-308824" lat="62.3111833323" lon="11.3318361136">
		<tag k="fixme" v="consider natural=peak for the most distinct mountains in the district" />
		<tag k="name" v="Volfjellet" />
		<tag k="natural" v="hill" />
		<tag k="place" v="locality" />
		<tag k="ssr:stedsnr" v="254415" />
	</node>
	<node id="-308822" lat="62.4159027759" lon="11.2650194446">
		<tag k="name" v="Mosebuhøgda" />
		<tag k="natural" v="hill" />
		<tag k="place" v="locality" />
		<tag k="ssr:stedsnr" v="254344" />
	</node>
	<node id="-310869" lat="62.2229527792" lon="11.3775750052">
		<tag k="name" v="Holøytalet" />
		<tag k="natural" v="slope" />
		<tag k="place" v="locality" />
		<tag k="ssr:stedsnr" v="964792" />
	</node>
	<node id="-310868" lat="62.41442778" lon="10.8165972224">
		<tag k="name" v="Kråkhaugen" />
		<tag k="natural" v="hill" />
		<tag k="place" v="locality" />
		<tag k="ssr:stedsnr" v="964633" />
	</node>
	<node id="-308819" lat="62.216394446" lon="11.3952583292">
		<tag k="name" v="Holøydalen" />
		<tag k="natural" v="valley" />
		<tag k="place" v="locality" />
		<tag k="ssr:stedsnr" v="253514" />
	</node>
	<node id="-308818" lat="62.2058638918" lon="11.6516416746">
		<tag k="loc_name" v="Vardhøgda" />
		<tag k="name" v="Vardehøgda" />
		<tag k="natural" v="hill" />
		<tag k="place" v="locality" />
		<tag k="ssr:stedsnr" v="253506" />
	</node>
	<node id="-308817" lat="62.1694111073" lon="11.4161250014">
		<tag k="name" v="Orvdalen" />
		<tag k="natural" v="valley" />
		<tag k="place" v="locality" />
		<tag k="ssr:stedsnr" v="253433" />
	</node>
	<node id="-308813" lat="62.5168611144" lon="10.7928999948">
		<tag k="name" v="Skreda" />
		<tag k="place" v="locality" />
		<tag k="ssr:stedsnr" v="72740" />
	</node>
	<node id="-310857" lat="62.4333250016" lon="10.9891972317">
		<tag k="name" v="Nyvolldalen" />
		<tag k="natural" v="valley" />
		<tag k="place" v="locality" />
		<tag k="ssr:stedsnr" v="964224" />
	</node>
	<node id="-310856" lat="62.4409638899" lon="10.977219453">
		<tag k="name" v="Sjøbakken" />
		<tag k="natural" v="slope" />
		<tag k="place" v="locality" />
		<tag k="ssr:stedsnr" v="964199" />
	</node>
	<node id="-308802" lat="62.2473472195" lon="11.4633638796">
		<tag k="name" v="Halvtakberget" />
		<tag k="natural" v="hill" />
		<tag k="place" v="locality" />
		<tag k="ssr:stedsnr" v="237786" />
	</node>
	<node id="-310849" lat="62.2368638849" lon="11.3539611018">
		<tag k="name" v="Svartdalen" />
		<tag k="natural" v="valley" />
		<tag k="place" v="locality" />
		<tag k="ssr:stedsnr" v="870097" />
	</node>
	<node id="-310847" lat="62.5398500004" lon="10.8192249995">
		<tag k="name" v="Bøtnet" />
		<tag k="natural" v="valley" />
		<tag k="place" v="locality" />
		<tag k="ssr:stedsnr" v="861857" />
	</node>
	<node id="-310846" lat="62.4617666679" lon="10.6812750041">
		<tag k="name" v="Starrbakken" />
		<tag k="natural" v="slope" />
		<tag k="place" v="locality" />
		<tag k="ssr:stedsnr" v="861854" />
	</node>
	<node id="-310843" lat="62.5031138911" lon="10.8146555469">
		<tag k="name" v="Tanghaugan" />
		<tag k="natural" v="hill" />
		<tag k="place" v="locality" />
		<tag k="ssr:stedsnr" v="861770" />
	</node>
	<node id="-310842" lat="62.2756333322" lon="11.3662694505">
		<tag k="name" v="Røstknausen" />
		<tag k="natural" v="hill" />
		<tag k="place" v="locality" />
		<tag k="ssr:stedsnr" v="861448" />
	</node>
	<node id="-308792" lat="62.4101055512" lon="10.8365666742">
		<tag k="name" v="Skræa" />
		<tag k="natural" v="slope" />
		<tag k="place" v="locality" />
		<tag k="ssr:stedsnr" v="237688" />
	</node>
	<node id="-308791" lat="62.3186111132" lon="11.2277166667">
		<tag k="name" v="Berget" />
		<tag k="natural" v="hill" />
		<tag k="place" v="locality" />
		<tag k="ssr:stedsnr" v="237647" />
	</node>
	<node id="-310838" lat="62.264719443" lon="11.0865722238">
		<tag k="fixme" v="consider natural=peak for the most distinct mountains in the district" />
		<tag k="name" v="Skittenkletten" />
		<tag k="natural" v="hill" />
		<tag k="place" v="locality" />
		<tag k="ssr:stedsnr" v="861312" />
	</node>
	<node id="-310834" lat="62.4928805521" lon="10.8851055637">
		<tag k="fixme" v="consider natural=peak for the most distinct mountains in the district" />
		<tag k="name" v="Grårabben" />
		<tag k="natural" v="hill" />
		<tag k="place" v="locality" />
		<tag k="ssr:stedsnr" v="861044" />
	</node>
	<node id="-308783" lat="62.4042555585" lon="11.0110833324">
		<tag k="name" v="Nylia" />
		<tag k="natural" v="slope" />
		<tag k="place" v="locality" />
		<tag k="ssr:stedsnr" v="55272" />
	</node>
	<node id="-308782" lat="62.4083750023" lon="10.9825500085">
		<tag k="fixme" v="consider natural=peak for the most distinct mountains in the district" />
		<tag k="name" v="Hamran" />
		<tag k="natural" v="hill" />
		<tag k="place" v="locality" />
		<tag k="ssr:stedsnr" v="55266" />
	</node>
	<node id="-308780" lat="62.405475004" lon="10.9688694358">
		<tag k="fixme" v="consider natural=peak for the most distinct mountains in the district" />
		<tag k="name" v="Åkeråsen" />
		<tag k="natural" v="hill" />
		<tag k="place" v="locality" />
		<tag k="ssr:stedsnr" v="55260" />
	</node>
	<node id="-308779" lat="62.417416667" lon="11.0875083343">
		<tag k="name" v="Bjøreggan" />
		<tag k="natural" v="hill" />
		<tag k="place" v="locality" />
		<tag k="ssr:stedsnr" v="55203" />
	</node>
	<node id="-310826" lat="62.4768333367" lon="10.9182361208">
		<tag k="fixme" v="consider natural=peak for the most distinct mountains in the district" />
		<tag k="name" v="Olaberget" />
		<tag k="natural" v="hill" />
		<tag k="place" v="locality" />
		<tag k="ssr:stedsnr" v="844876" />
	</node>
	<node id="-308777" lat="62.2576249995" lon="11.0539055575">
		<tag k="name" v="Storrya" />
		<tag k="place" v="locality" />
		<tag k="ssr:stedsnr" v="55303" />
	</node>
	<node id="-310824" lat="62.2043805578" lon="11.4175027786">
		<tag k="name" v="Vesleengegga" />
		<tag k="natural" v="slope" />
		<tag k="place" v="locality" />
		<tag k="ssr:stedsnr" v="844867" />
	</node>
	<node id="-310823" lat="62.4245166629" lon="10.8878166648">
		<tag k="name" v="Møkkelbekkåsen" />
		<tag k="natural" v="hill" />
		<tag k="place" v="locality" />
		<tag k="ssr:stedsnr" v="844864" />
	</node>
	<node id="-308773" lat="62.4396027774" lon="10.9449472252">
		<tag k="name" v="Fantsletta" />
		<tag k="place" v="locality" />
		<tag k="ssr:stedsnr" v="54904" />
	</node>
	<node id="-310820" lat="62.2447416638" lon="11.4855999939">
		<tag k="name" v="Høgrabban" />
		<tag k="natural" v="hill" />
		<tag k="place" v="locality" />
		<tag k="ssr:stedsnr" v="844794" />
	</node>
	<node id="-310816" lat="62.2592861139" lon="11.4777305511">
		<tag k="name" v="Smårøstan" />
		<tag k="natural" v="slope" />
		<tag k="place" v="locality" />
		<tag k="ssr:stedsnr" v="844768" />
	</node>
	<node id="-310815" lat="62.1677555561" lon="11.4307111116">
		<tag k="name" v="Flatrabben" />
		<tag k="place" v="locality" />
		<tag k="ssr:stedsnr" v="844767" />
	</node>
	<node id="-310814" lat="62.3895611139" lon="11.226919444">
		<tag k="name" v="Binganryan" />
		<tag k="place" v="locality" />
		<tag k="ssr:stedsnr" v="844732" />
	</node>
	<node id="-310810" lat="62.2942750027" lon="11.453497217">
		<tag k="name" v="Håkkåtjønnrabben" />
		<tag k="natural" v="hill" />
		<tag k="place" v="locality" />
		<tag k="ssr:stedsnr" v="844695" />
	</node>
	<node id="-310809" lat="62.2915111127" lon="11.2259694481">
		<tag k="name" v="Klettkvølvet" />
		<tag k="natural" v="slope" />
		<tag k="place" v="locality" />
		<tag k="ssr:stedsnr" v="844691" />
	</node>
	<node id="-308760" lat="62.4180666669" lon="10.809449998">
		<tag k="name" v="Skarstjønnhaugan" />
		<tag k="natural" v="hill" />
		<tag k="place" v="locality" />
		<tag k="ssr:stedsnr" v="54622" />
	</node>
	<node id="-310802" lat="62.4229416668" lon="11.0987222237">
		<tag k="name" v="Nesegga" />
		<tag k="place" v="locality" />
		<tag k="ssr:stedsnr" v="844530" />
	</node>
	<node id="-310800" lat="62.2854361134" lon="11.4620861131">
		<tag k="name" v="Mattiseggan" />
		<tag k="natural" v="hill" />
		<tag k="place" v="locality" />
		<tag k="ssr:stedsnr" v="844284" />
	</node>
	<node id="-310799" lat="62.2685083375" lon="11.4745722144">
		<tag k="name" v="Stenrabben" />
		<tag k="natural" v="slope" />
		<tag k="place" v="locality" />
		<tag k="ssr:stedsnr" v="844275" />
	</node>
	<node id="-308750" lat="62.3811333361" lon="10.9879583374">
		<tag k="name" v="Nedre Skjæran" />
		<tag k="natural" v="hill" />
		<tag k="place" v="locality" />
		<tag k="ssr:stedsnr" v="237353" />
	</node>
	<node id="-308749" lat="62.2854722262" lon="11.0813388832">
		<tag k="name" v="Skittenklettauret" />
		<tag k="place" v="locality" />
		<tag k="ssr:stedsnr" v="237315" />
	</node>
	<node id="-310796" lat="62.4021944435" lon="10.9662916592">
		<tag k="fixme" v="consider natural=peak for the most distinct mountains in the district" />
		<tag k="name" v="Floåsen" />
		<tag k="natural" v="hill" />
		<tag k="place" v="locality" />
		<tag k="ssr:stedsnr" v="844251" />
	</node>
	<node id="-310791" lat="62.1876666638" lon="11.5885722289">
		<tag k="name" v="Finntrøgrubba" />
		<tag k="natural" v="valley" />
		<tag k="place" v="locality" />
		<tag k="ssr:stedsnr" v="843968" />
	</node>
	<node id="-308742" lat="62.3864888918" lon="10.7792416624">
		<tag k="name" v="Kokkhaugen" />
		<tag k="natural" v="hill" />
		<tag k="place" v="locality" />
		<tag k="ssr:stedsnr" v="52251" />
	</node>
	<node id="-310786" lat="62.339958329" lon="11.219736107">
		<tag k="name" v="Brentegga" />
		<tag k="natural" v="hill" />
		<tag k="place" v="locality" />
		<tag k="ssr:stedsnr" v="843641" />
	</node>
	<node id="-310785" lat="62.4727694469" lon="10.8895750026">
		<tag k="name" v="Ørdet" />
		<tag k="natural" v="valley" />
		<tag k="place" v="locality" />
		<tag k="ssr:stedsnr" v="843895" />
	</node>
	<node id="-308734" lat="62.3958083336" lon="10.9138194541">
		<tag k="name" v="Storstenberget" />
		<tag k="natural" v="hill" />
		<tag k="place" v="locality" />
		<tag k="ssr:stedsnr" v="236825" />
	</node>
	<node id="-308821" lat="62.5148138916" lon="10.6078194526">
		<tag k="alt_name" v="Gjersjøhøgda, nordre;Nordre Gjersjøhøgda" />
		<tag k="fixme" v="consider natural=peak for the most distinct mountains in the district" />
		<tag k="name" v="Nordre Gjersjøhøa" />
		<tag k="natural" v="hill" />
		<tag k="place" v="locality" />
		<tag k="ssr:stedsnr" v="254047" />
	</node>
	<node id="-308731" lat="62.4318111075" lon="10.9457777872">
		<tag k="name" v="Kottberget" />
		<tag k="natural" v="hill" />
		<tag k="place" v="locality" />
		<tag k="ssr:stedsnr" v="236799" />
	</node>
	<node id="-308729" lat="62.3589555576" lon="10.950430547">
		<tag k="fixme" v="consider natural=peak for the most distinct mountains in the district" />
		<tag k="name" v="Dalsvangåsen" />
		<tag k="natural" v="hill" />
		<tag k="place" v="locality" />
		<tag k="ssr:stedsnr" v="236777" />
	</node>
	<node id="-310770" lat="62.4197416647" lon="11.1707222154">
		<tag k="alt_name" v="Hummeldalen" />
		<tag k="name" v="Håmmåldalen" />
		<tag k="natural" v="valley" />
		<tag k="place" v="locality" />
		<tag k="ssr:stedsnr" v="843512" />
	</node>
	<node id="-310767" lat="62.425208334" lon="11.0187555496">
		<tag k="name" v="Ytre Gråknausen" />
		<tag k="natural" v="hill" />
		<tag k="place" v="locality" />
		<tag k="ssr:stedsnr" v="843128" />
	</node>
	<node id="-308718" lat="62.4313361122" lon="10.833608324">
		<tag k="fixme" v="consider natural=peak for the most distinct mountains in the district" />
		<tag k="name" v="Nordre Kletten" />
		<tag k="natural" v="hill" />
		<tag k="place" v="locality" />
		<tag k="ssr:stedsnr" v="236567" />
	</node>
	<node id="-310764" lat="62.3948638877" lon="10.8076027851">
		<tag k="name" v="Sæterskvolve" />
		<tag k="place" v="locality" />
		<tag k="ssr:stedsnr" v="841231" />
	</node>
	<node id="-310760" lat="62.2873249981" lon="11.4350666708">
		<tag k="name" v="Brennrabben" />
		<tag k="natural" v="hill" />
		<tag k="place" v="locality" />
		<tag k="ssr:stedsnr" v="801455" />
	</node>
	<node id="-310759" lat="62.439550004" lon="10.8288638895">
		<tag k="fixme" v="consider natural=peak for the most distinct mountains in the district" />
		<tag k="name" v="Grønvola" />
		<tag k="natural" v="hill" />
		<tag k="place" v="locality" />
		<tag k="ssr:stedsnr" v="801102" />
	</node>
	<node id="-308710" lat="62.4283583354" lon="10.7705722198">
		<tag k="name" v="Tuvrya" />
		<tag k="place" v="locality" />
		<tag k="ssr:stedsnr" v="236345" />
	</node>
	<node id="-310755" lat="62.2848222209" lon="11.0124277806">
		<tag k="fixme" v="consider natural=peak for the most distinct mountains in the district" />
		<tag k="name" v="Bjørkkjølen" />
		<tag k="natural" v="hill" />
		<tag k="place" v="locality" />
		<tag k="ssr:stedsnr" v="800302" />
	</node>
	<node id="-310754" lat="62.3218944438" lon="10.9922638844">
		<tag k="alt_name" v="Telgardsvola" />
		<tag k="fixme" v="consider natural=peak for the most distinct mountains in the district" />
		<tag k="name" v="Teldalsvola" />
		<tag k="natural" v="hill" />
		<tag k="place" v="locality" />
		<tag k="ssr:stedsnr" v="800278" />
	</node>
	<node id="-308705" lat="62.4190250043" lon="10.6969083255">
		<tag k="name" v="Eggeslette" />
		<tag k="place" v="locality" />
		<tag k="ssr:stedsnr" v="236328" />
	</node>
	<node id="-310752" lat="62.1713194462" lon="11.4914277806">
		<tag k="fixme" v="consider natural=peak for the most distinct mountains in the district" />
		<tag k="name" v="Dirkletten" />
		<tag k="natural" v="hill" />
		<tag k="place" v="locality" />
		<tag k="ssr:stedsnr" v="800482" />
	</node>
	<node id="-310749" lat="62.3457638928" lon="11.3132666718">
		<tag k="name" v="Brenna" />
		<tag k="natural" v="hill" />
		<tag k="place" v="locality" />
		<tag k="ssr:stedsnr" v="800463" />
	</node>
	<node id="-308693" lat="62.2635027736" lon="11.4354416664">
		<tag k="name" v="Brattangen" />
		<tag k="natural" v="hill" />
		<tag k="place" v="locality" />
		<tag k="ssr:stedsnr" v="235865" />
	</node>
	<node id="-310740" lat="62.2103361124" lon="11.6002277833">
		<tag k="fixme" v="consider natural=peak for the most distinct mountains in the district" />
		<tag k="name" v="Blåkletten" />
		<tag k="natural" v="hill" />
		<tag k="place" v="locality" />
		<tag k="ssr:stedsnr" v="799476" />
	</node>
	<node id="-308690" lat="62.2437500038" lon="11.4059055527">
		<tag k="name" v="Stormoen" />
		<tag k="place" v="locality" />
		<tag k="ssr:stedsnr" v="235830" />
	</node>
	<node id="-310736" lat="62.4455305534" lon="10.962033342">
		<tag k="name" v="Veslehaugåsen" />
		<tag k="natural" v="hill" />
		<tag k="place" v="locality" />
		<tag k="ssr:stedsnr" v="783893" />
	</node>
	<node id="-310735" lat="62.4668638863" lon="10.9531555502">
		<tag k="name" v="Yter Halvorshaugen" />
		<tag k="natural" v="hill" />
		<tag k="place" v="locality" />
		<tag k="ssr:stedsnr" v="783889" />
	</node>
	<node id="-310734" lat="62.2086749959" lon="11.4164111018">
		<tag k="name" v="Brattegga" />
		<tag k="natural" v="hill" />
		<tag k="place" v="locality" />
		<tag k="ssr:stedsnr" v="783862" />
	</node>
	<node id="-310730" lat="62.4171138871" lon="10.8466166581">
		<tag k="name" v="Kutbakken" />
		<tag k="natural" v="slope" />
		<tag k="place" v="locality" />
		<tag k="ssr:stedsnr" v="783843" />
	</node>
	<node id="-308680" lat="62.4140388851" lon="11.1188222237">
		<tag k="name" v="Bjørsletta" />
		<tag k="place" v="locality" />
		<tag k="ssr:stedsnr" v="11111" />
	</node>
	<node id="-308679" lat="62.3423416656" lon="11.0719277854">
		<tag k="fixme" v="consider natural=peak for the most distinct mountains in the district" />
		<tag k="name" v="Gråhøa" />
		<tag k="natural" v="hill" />
		<tag k="place" v="locality" />
		<tag k="ssr:stedsnr" v="11212" />
	</node>
	<node id="-310726" lat="62.3849611141" lon="10.9315500088">
		<tag k="name" v="Rokkhølet" />
		<tag k="natural" v="valley" />
		<tag k="place" v="locality" />
		<tag k="ssr:stedsnr" v="783798" />
	</node>
	<node id="-310722" lat="62.1816861137" lon="11.4210916736">
		<tag k="name" v="Stenbakken" />
		<tag k="natural" v="slope" />
		<tag k="place" v="locality" />
		<tag k="ssr:stedsnr" v="783772" />
	</node>
	<node id="-310718" lat="62.2705444437" lon="11.4425611137">
		<tag k="name" v="Brattangen" />
		<tag k="natural" v="hill" />
		<tag k="place" v="locality" />
		<tag k="ssr:stedsnr" v="783830" />
	</node>
	<node id="-310717" lat="62.3875277744" lon="10.8913611026">
		<tag k="name" v="Odden" />
		<tag k="natural" v="ridge" />
		<tag k="place" v="locality" />
		<tag k="ssr:stedsnr" v="783724" />
	</node>
	<node id="-310715" lat="62.3875777807" lon="11.2245277793">
		<tag k="name" v="Bruengåsen" />
		<tag k="natural" v="hill" />
		<tag k="place" v="locality" />
		<tag k="ssr:stedsnr" v="783719" />
	</node>
	<node id="-310706" lat="62.2959416676" lon="11.374999998">
		<tag k="name" v="Matstuegga" />
		<tag k="natural" v="hill" />
		<tag k="place" v="locality" />
		<tag k="ssr:stedsnr" v="783676" />
	</node>
	<node id="-310700" lat="62.4134972207" lon="11.1265805501">
		<tag k="name" v="Jervåsmoen" />
		<tag k="place" v="locality" />
		<tag k="ssr:stedsnr" v="783577" />
	</node>
	<node id="-310696" lat="62.4530305599" lon="10.7341527818">
		<tag k="name" v="Simadalen" />
		<tag k="natural" v="valley" />
		<tag k="place" v="locality" />
		<tag k="ssr:stedsnr" v="783336" />
	</node>
	<node id="-310695" lat="62.4946750039" lon="10.5502194406">
		<tag k="fixme" v="consider natural=peak for the most distinct mountains in the district" />
		<tag k="name" v="Brattåsen" />
		<tag k="natural" v="hill" />
		<tag k="place" v="locality" />
		<tag k="ssr:stedsnr" v="783327" />
	</node>
	<node id="-310694" lat="62.3887222261" lon="11.0322944378">
		<tag k="name" v="Eggan" />
		<tag k="natural" v="hill" />
		<tag k="place" v="locality" />
		<tag k="ssr:stedsnr" v="783326" />
	</node>
	<node id="-310693" lat="62.4953388882" lon="10.5659111089">
		<tag k="name" v="Storbekkdalen" />
		<tag k="natural" v="valley" />
		<tag k="place" v="locality" />
		<tag k="ssr:stedsnr" v="783324" />
	</node>
	<node id="-310690" lat="62.2789944418" lon="11.0449166608">
		<tag k="name" v="Teleggan" />
		<tag k="natural" v="hill" />
		<tag k="place" v="locality" />
		<tag k="ssr:stedsnr" v="783286" />
	</node>
	<node id="-310689" lat="62.2302527793" lon="11.0852388985">
		<tag k="name" v="Østre Talet" />
		<tag k="natural" v="slope" />
		<tag k="place" v="locality" />
		<tag k="ssr:stedsnr" v="783279" />
	</node>
	<node id="-310684" lat="62.3974222222" lon="10.9766361079">
		<tag k="name" v="Kåsdalen" />
		<tag k="natural" v="valley" />
		<tag k="place" v="locality" />
		<tag k="ssr:stedsnr" v="783229" />
	</node>
	<node id="-310681" lat="62.2097444468" lon="11.53039723">
		<tag k="name" v="Kletten" />
		<tag k="natural" v="hill" />
		<tag k="place" v="locality" />
		<tag k="ssr:stedsnr" v="782931" />
	</node>
	<node id="-310678" lat="62.1967194406" lon="11.4330027734">
		<tag k="name" v="Kvennhusbekken" />
		<tag k="natural" v="slope" />
		<tag k="place" v="locality" />
		<tag k="ssr:stedsnr" v="782826" />
	</node>
	<node id="-310673" lat="62.334638893" lon="11.3091694511">
		<tag k="name" v="Stordalen" />
		<tag k="natural" v="valley" />
		<tag k="place" v="locality" />
		<tag k="ssr:stedsnr" v="782610" />
	</node>
	<node id="-310670" lat="62.4392361148" lon="10.7848611133">
		<tag k="name" v="Hamran" />
		<tag k="natural" v="hill" />
		<tag k="place" v="locality" />
		<tag k="ssr:stedsnr" v="782579" />
	</node>
	<node id="-310669" lat="62.4414444421" lon="10.8019861179">
		<tag k="name" v="Kleva" />
		<tag k="natural" v="slope" />
		<tag k="place" v="locality" />
		<tag k="ssr:stedsnr" v="782574" />
	</node>
	<node id="-310667" lat="62.4845999982" lon="10.7651361111">
		<tag k="name" v="Londalslia" />
		<tag k="natural" v="slope" />
		<tag k="place" v="locality" />
		<tag k="ssr:stedsnr" v="782501" />
	</node>
	<node id="-310660" lat="62.4577416689" lon="10.7737000071">
		<tag k="name" v="Eggan" />
		<tag k="natural" v="hill" />
		<tag k="place" v="locality" />
		<tag k="ssr:stedsnr" v="782293" />
	</node>
	<node id="-310657" lat="62.4491444408" lon="11.0473138807">
		<tag k="name" v="Veslpiken" />
		<tag k="natural" v="hill" />
		<tag k="place" v="locality" />
		<tag k="ssr:stedsnr" v="782142" />
	</node>
	<node id="-310656" lat="62.4242916686" lon="11.0307861162">
		<tag k="name" v="Stenbakken" />
		<tag k="natural" v="slope" />
		<tag k="place" v="locality" />
		<tag k="ssr:stedsnr" v="782107" />
	</node>
	<node id="-310653" lat="62.4582194474" lon="10.8330694443">
		<tag k="name" v="Slåbakkhaugan" />
		<tag k="natural" v="hill" />
		<tag k="place" v="locality" />
		<tag k="ssr:stedsnr" v="781583" />
	</node>
	<node id="-310650" lat="62.2163805545" lon="11.0642749914">
		<tag k="name" v="Sandegga" />
		<tag k="place" v="locality" />
		<tag k="ssr:stedsnr" v="781141" />
	</node>
	<node id="-310642" lat="62.3936944446" lon="10.8001444431">
		<tag k="fixme" v="consider natural=peak for the most distinct mountains in the district" />
		<tag k="name" v="Kolletvola" />
		<tag k="natural" v="hill" />
		<tag k="place" v="locality" />
		<tag k="ssr:stedsnr" v="773291" />
	</node>
	<node id="-310640" lat="62.4377333328" lon="10.9082194496">
		<tag k="alt_name" v="Veslesæteråsen" />
		<tag k="fixme" v="consider natural=peak for the most distinct mountains in the district" />
		<tag k="name" v="Veslsæteråsen" />
		<tag k="natural" v="hill" />
		<tag k="place" v="locality" />
		<tag k="ssr:stedsnr" v="752620" />
	</node>
	<node id="-310630" lat="62.2443583309" lon="11.4451166741">
		<tag k="alt_name" v="Glophøgda, vesle" />
		<tag k="name" v="Vesle Glophøgda" />
		<tag k="natural" v="hill" />
		<tag k="place" v="locality" />
		<tag k="ssr:stedsnr" v="739438" />
	</node>
	<node id="-310625" lat="62.2090333371" lon="11.2787555651">
		<tag k="name" v="Storbekkfatet" />
		<tag k="place" v="locality" />
		<tag k="ssr:stedsnr" v="739489" />
	</node>
	<node id="-308794" lat="62.4286722212" lon="11.1124222221">
		<tag k="name" v="Fosseggan" />
		<tag k="natural" v="hill" />
		<tag k="place" v="locality" />
		<tag k="ssr:stedsnr" v="237702" />
	</node>
	<node id="-310617" lat="62.3624027784" lon="10.8975166674">
		<tag k="name" v="Slettmoen" />
		<tag k="place" v="locality" />
		<tag k="ssr:stedsnr" v="739198" />
	</node>
	<node id="-310611" lat="62.2736694406" lon="11.1584805547">
		<tag k="alt_name" v="Aurdalen, søndre" />
		<tag k="name" v="Syndre Ørddalen" />
		<tag k="natural" v="valley" />
		<tag k="place" v="locality" />
		<tag k="ssr:stedsnr" v="631232" />
	</node>
	<node id="-310607" lat="62.507700004" lon="10.7986611055">
		<tag k="name" v="Hølrabben" />
		<tag k="natural" v="hill" />
		<tag k="place" v="locality" />
		<tag k="ssr:stedsnr" v="618738" />
	</node>
	<node id="-310606" lat="62.3022111121" lon="11.2421305575">
		<tag k="name" v="Rabben" />
		<tag k="natural" v="hill" />
		<tag k="place" v="locality" />
		<tag k="ssr:stedsnr" v="618477" />
	</node>
	<node id="-310605" lat="62.2683805601" lon="11.3411277712">
		<tag k="fixme" v="consider natural=peak for the most distinct mountains in the district" />
		<tag k="name" v="Skjæran" />
		<tag k="natural" v="hill" />
		<tag k="place" v="locality" />
		<tag k="ssr:stedsnr" v="618467" />
	</node>
	<node id="-310602" lat="62.3820000024" lon="11.0166583388">
		<tag k="fixme" v="consider natural=peak for the most distinct mountains in the district" />
		<tag k="name" v="Svartåsen" />
		<tag k="natural" v="hill" />
		<tag k="place" v="locality" />
		<tag k="ssr:stedsnr" v="618147" />
	</node>
	<node id="-310595" lat="62.4181305545" lon="11.1125083429">
		<tag k="alt_name" v="Bjøreggene" />
		<tag k="fixme" v="consider natural=peak for the most distinct mountains in the district" />
		<tag k="name" v="Bjøreggan" />
		<tag k="natural" v="hill" />
		<tag k="place" v="locality" />
		<tag k="ssr:stedsnr" v="618112" />
	</node>
	<node id="-310593" lat="62.4453694463" lon="10.8018361085">
		<tag k="alt_name" v="Berghammaren;Bergehåmmåren" />
		<tag k="fixme" v="consider natural=peak for the most distinct mountains in the district" />
		<tag k="name" v="Berghåmmåren" />
		<tag k="natural" v="hill" />
		<tag k="place" v="locality" />
		<tag k="ssr:stedsnr" v="618086" />
	</node>
	<node id="-310591" lat="62.4653472233" lon="10.8841055469">
		<tag k="alt_name" v="Knausen" />
		<tag k="fixme" v="consider natural=peak for the most distinct mountains in the district" />
		<tag k="name" v="Knausvola" />
		<tag k="natural" v="hill" />
		<tag k="place" v="locality" />
		<tag k="ssr:stedsnr" v="618064" />
	</node>
	<node id="-310589" lat="62.4927055592" lon="10.9227138805">
		<tag k="alt_name" v="Langfjellshogna, s" />
		<tag k="fixme" v="consider natural=peak for the most distinct mountains in the district" />
		<tag k="name" v="Langsfjellhogna" />
		<tag k="natural" v="hill" />
		<tag k="place" v="locality" />
		<tag k="ssr:stedsnr" v="618018" />
	</node>
	<node id="-310588" lat="62.3317833325" lon="11.0893305465">
		<tag k="fixme" v="consider natural=peak for the most distinct mountains in the district" />
		<tag k="name" v="Tverrhøa" />
		<tag k="natural" v="hill" />
		<tag k="place" v="locality" />
		<tag k="ssr:stedsnr" v="618197" />
	</node>
	<node id="-310584" lat="62.3576305519" lon="11.0325499941">
		<tag k="fixme" v="consider natural=peak for the most distinct mountains in the district" />
		<tag k="name" v="Kolletvola" />
		<tag k="natural" v="hill" />
		<tag k="place" v="locality" />
		<tag k="ssr:stedsnr" v="618175" />
	</node>
	<node id="-310577" lat="62.2344999993" lon="11.5508111123">
		<tag k="fixme" v="consider natural=peak for the most distinct mountains in the district" />
		<tag k="name" v="Sålekinntoppen" />
		<tag k="natural" v="hill" />
		<tag k="place" v="locality" />
		<tag k="ssr:stedsnr" v="617481" />
	</node>
	<node id="-310576" lat="62.2385694445" lon="11.3856194515">
		<tag k="fixme" v="consider natural=peak for the most distinct mountains in the district" />
		<tag k="name" v="Stortjønnknausen" />
		<tag k="natural" v="hill" />
		<tag k="place" v="locality" />
		<tag k="ssr:stedsnr" v="617477" />
	</node>
	<node id="-310573" lat="62.194436108" lon="11.5529222177">
		<tag k="name" v="Mussmørbakken" />
		<tag k="natural" v="slope" />
		<tag k="place" v="locality" />
		<tag k="ssr:stedsnr" v="600945" />
	</node>
	<node id="-308786" lat="62.2868138923" lon="11.3155194497">
		<tag k="name" v="Finnrøstan" />
		<tag k="natural" v="slope" />
		<tag k="place" v="locality" />
		<tag k="ssr:stedsnr" v="55608" />
	</node>
	<node id="-310566" lat="62.4418861129" lon="11.0937138911">
		<tag k="name" v="Okshaugan" />
		<tag k="natural" v="hill" />
		<tag k="place" v="locality" />
		<tag k="ssr:stedsnr" v="600689" />
	</node>
	<node id="-310565" lat="62.378791668" lon="10.8554638889">
		<tag k="name" v="Tovåsen" />
		<tag k="natural" v="hill" />
		<tag k="place" v="locality" />
		<tag k="ssr:stedsnr" v="600688" />
	</node>
	<node id="-310564" lat="62.3548277741" lon="11.2168361075">
		<tag k="name" v="Høyåsen" />
		<tag k="natural" v="hill" />
		<tag k="place" v="locality" />
		<tag k="ssr:stedsnr" v="600684" />
	</node>
	<node id="-310555" lat="62.2200555552" lon="11.3903722157">
		<tag k="name" v="Kvennhusdalen" />
		<tag k="natural" v="valley" />
		<tag k="place" v="locality" />
		<tag k="ssr:stedsnr" v="600858" />
	</node>
	<node id="-310553" lat="62.4361194458" lon="10.9447666604">
		<tag k="name" v="Vesleberget" />
		<tag k="natural" v="hill" />
		<tag k="place" v="locality" />
		<tag k="ssr:stedsnr" v="600800" />
	</node>
	<node id="-310552" lat="62.253197219" lon="11.4600638977">
		<tag k="name" v="Høgste Åsen" />
		<tag k="natural" v="hill" />
		<tag k="place" v="locality" />
		<tag k="ssr:stedsnr" v="600785" />
	</node>
	<node id="-310549" lat="62.4069888878" lon="10.802241674">
		<tag k="name" v="Skarstjønnåsen" />
		<tag k="natural" v="hill" />
		<tag k="place" v="locality" />
		<tag k="ssr:stedsnr" v="600649" />
	</node>
	<node id="-310547" lat="62.3161305565" lon="11.3958222269">
		<tag k="name" v="Veslehøgda" />
		<tag k="natural" v="hill" />
		<tag k="place" v="locality" />
		<tag k="ssr:stedsnr" v="600635" />
	</node>
	<node id="-310546" lat="62.2979666644" lon="11.2807000046">
		<tag k="name" v="Letningsmoen" />
		<tag k="place" v="locality" />
		<tag k="ssr:stedsnr" v="600622" />
	</node>
	<node id="-310544" lat="62.3811027737" lon="10.9944694377">
		<tag k="name" v="Veslebekknausen" />
		<tag k="natural" v="hill" />
		<tag k="place" v="locality" />
		<tag k="ssr:stedsnr" v="600339" />
	</node>
	<node id="-310543" lat="62.3785944481" lon="10.9917416678">
		<tag k="name" v="Øvre Skjæran" />
		<tag k="natural" v="hill" />
		<tag k="place" v="locality" />
		<tag k="ssr:stedsnr" v="600338" />
	</node>
	<node id="-310542" lat="62.3784638851" lon="10.9804749938">
		<tag k="name" v="Berghåmmåren" />
		<tag k="natural" v="hill" />
		<tag k="place" v="locality" />
		<tag k="ssr:stedsnr" v="600337" />
	</node>
	<node id="-310535" lat="62.4219694487" lon="10.7168583358">
		<tag k="name" v="Båvoldalen" />
		<tag k="natural" v="valley" />
		<tag k="place" v="locality" />
		<tag k="ssr:stedsnr" v="600323" />
	</node>
	<node id="-310533" lat="62.2313500028" lon="11.0510999966">
		<tag k="name" v="Vestre Talet" />
		<tag k="natural" v="slope" />
		<tag k="place" v="locality" />
		<tag k="ssr:stedsnr" v="600299" />
	</node>
	<node id="-310523" lat="62.4530361086" lon="10.8757888792">
		<tag k="name" v="Storsletta" />
		<tag k="place" v="locality" />
		<tag k="ssr:stedsnr" v="599851" />
	</node>
	<node id="-310522" lat="62.2602194427" lon="11.3996944376">
		<tag k="name" v="Strømsegga" />
		<tag k="natural" v="hill" />
		<tag k="place" v="locality" />
		<tag k="ssr:stedsnr" v="599835" />
	</node>
	<node id="-310521" lat="62.2531138919" lon="11.4227638855">
		<tag k="name" v="Gloprabben" />
		<tag k="natural" v="hill" />
		<tag k="place" v="locality" />
		<tag k="ssr:stedsnr" v="599818" />
	</node>
	<node id="-310519" lat="62.4652027736" lon="10.8385027864">
		<tag k="fixme" v="consider natural=peak for the most distinct mountains in the district" />
		<tag k="name" v="Slåbakkåsen" />
		<tag k="natural" v="hill" />
		<tag k="place" v="locality" />
		<tag k="ssr:stedsnr" v="599543" />
	</node>
	<node id="-310517" lat="62.4110138924" lon="11.089652777">
		<tag k="name" v="Rabbåsen" />
		<tag k="natural" v="slope" />
		<tag k="place" v="locality" />
		<tag k="ssr:stedsnr" v="599432" />
	</node>
	<node id="-310512" lat="62.3888777747" lon="10.7939944507">
		<tag k="name" v="Inner Kvolve" />
		<tag k="place" v="locality" />
		<tag k="ssr:stedsnr" v="597238" />
	</node>
	<node id="-308776" lat="62.4853972184" lon="10.7888388836">
		<tag k="name" v="Mæløya" />
		<tag k="place" v="locality" />
		<tag k="ssr:stedsnr" v="54966" />
	</node>
	<node id="-310507" lat="62.3416944475" lon="11.1674611163">
		<tag k="name" v="Letningslia" />
		<tag k="natural" v="slope" />
		<tag k="place" v="locality" />
		<tag k="ssr:stedsnr" v="570607" />
	</node>
	<node id="-310504" lat="62.2585527812" lon="11.319466662">
		<tag k="name" v="Svartdalen" />
		<tag k="natural" v="valley" />
		<tag k="place" v="locality" />
		<tag k="ssr:stedsnr" v="557522" />
	</node>
	<node id="-310496" lat="62.2246999965" lon="11.171563897">
		<tag k="name" v="Steinhyllhøa" />
		<tag k="natural" v="hill" />
		<tag k="place" v="locality" />
		<tag k="ssr:stedsnr" v="557184" />
	</node>
	<node id="-310495" lat="62.4815861074" lon="10.9473444475">
		<tag k="alt_name" v="Milskifteåsen" />
		<tag k="name" v="Milskiftåsen" />
		<tag k="natural" v="hill" />
		<tag k="place" v="locality" />
		<tag k="ssr:stedsnr" v="557027" />
	</node>
	<node id="-310494" lat="62.2906694428" lon="11.130947214">
		<tag k="fixme" v="consider natural=peak for the most distinct mountains in the district" />
		<tag k="name" v="Sletthøa" />
		<tag k="natural" v="hill" />
		<tag k="place" v="locality" />
		<tag k="ssr:stedsnr" v="557283" />
	</node>
	<node id="-310492" lat="62.4041333374" lon="10.9181000082">
		<tag k="alt_name" v="Skomakarkletten" />
		<tag k="fixme" v="consider natural=peak for the most distinct mountains in the district" />
		<tag k="name" v="Skomakaråskletten" />
		<tag k="natural" v="hill" />
		<tag k="place" v="locality" />
		<tag k="ssr:stedsnr" v="557143" />
	</node>
	<node id="-310488" lat="62.4297611143" lon="10.8454305595">
		<tag k="fixme" v="consider natural=peak for the most distinct mountains in the district" />
		<tag k="name" v="Kletten" />
		<tag k="natural" v="hill" />
		<tag k="place" v="locality" />
		<tag k="ssr:stedsnr" v="557094" />
	</node>
	<node id="-310487" lat="62.1782385001" lon="11.6957889213">
		<tag k="alt_name" v="Kvernvikhøgda" />
		<tag k="fixme" v="consider natural=peak for the most distinct mountains in the district" />
		<tag k="name" v="Kvennvikhøgda" />
		<tag k="natural" v="hill" />
		<tag k="place" v="locality" />
		<tag k="ssr:stedsnr" v="556533" />
	</node>
	<node id="-310473" lat="62.1836777808" lon="11.4195444414">
		<tag k="name" v="Berget" />
		<tag k="natural" v="hill" />
		<tag k="place" v="locality" />
		<tag k="ssr:stedsnr" v="540751" />
	</node>
	<node id="-310472" lat="62.2632166679" lon="11.4826027819">
		<tag k="name" v="Kåsberget" />
		<tag k="natural" v="hill" />
		<tag k="place" v="locality" />
		<tag k="ssr:stedsnr" v="540742" />
	</node>
	<node id="-310471" lat="62.3920416676" lon="10.8767888847">
		<tag k="name" v="Hallrøsta" />
		<tag k="place" v="locality" />
		<tag k="ssr:stedsnr" v="540698" />
	</node>
	<node id="-310469" lat="62.3684388925" lon="11.2291916719">
		<tag k="name" v="Stormyrhaugan" />
		<tag k="natural" v="hill" />
		<tag k="place" v="locality" />
		<tag k="ssr:stedsnr" v="540694" />
	</node>
	<node id="-310461" lat="62.3012944416" lon="11.4167722263">
		<tag k="name" v="Tjukkåsrabban" />
		<tag k="natural" v="hill" />
		<tag k="place" v="locality" />
		<tag k="ssr:stedsnr" v="540666" />
	</node>
	<node id="-310460" lat="62.4469833373" lon="10.7433500068">
		<tag k="name" v="Båvolhaugan" />
		<tag k="natural" v="hill" />
		<tag k="place" v="locality" />
		<tag k="ssr:stedsnr" v="540349" />
	</node>
	<node id="-310459" lat="62.4533722221" lon="10.7424638814">
		<tag k="name" v="Trøomhaugan" />
		<tag k="natural" v="hill" />
		<tag k="place" v="locality" />
		<tag k="ssr:stedsnr" v="540347" />
	</node>
	<node id="-310457" lat="62.4870611092" lon="10.5878305594">
		<tag k="name" v="Veslelia" />
		<tag k="natural" v="slope" />
		<tag k="place" v="locality" />
		<tag k="ssr:stedsnr" v="540337" />
	</node>
	<node id="-310455" lat="62.3728694458" lon="10.9832083377">
		<tag k="name" v="Helgesknausen" />
		<tag k="natural" v="hill" />
		<tag k="place" v="locality" />
		<tag k="ssr:stedsnr" v="540309" />
	</node>
	<node id="-310447" lat="62.1961305572" lon="11.4146638841">
		<tag k="name" v="Sandgrubba" />
		<tag k="natural" v="valley" />
		<tag k="place" v="locality" />
		<tag k="ssr:stedsnr" v="539750" />
	</node>
	<node id="-310446" lat="62.3611777798" lon="11.2994694535">
		<tag k="name" v="Langegga" />
		<tag k="natural" v="hill" />
		<tag k="place" v="locality" />
		<tag k="ssr:stedsnr" v="539715" />
	</node>
	<node id="-310435" lat="62.4406166703" lon="10.8042083303">
		<tag k="name" v="Storvangbrøttet" />
		<tag k="natural" v="slope" />
		<tag k="place" v="locality" />
		<tag k="ssr:stedsnr" v="539598" />
	</node>
	<node id="-310434" lat="62.4325805571" lon="10.824824999">
		<tag k="fixme" v="consider natural=peak for the most distinct mountains in the district" />
		<tag k="name" v="Åsen" />
		<tag k="natural" v="hill" />
		<tag k="place" v="locality" />
		<tag k="ssr:stedsnr" v="539592" />
	</node>
	<node id="-310432" lat="62.4309916705" lon="10.8127777782">
		<tag k="name" v="Brøttet" />
		<tag k="natural" v="slope" />
		<tag k="place" v="locality" />
		<tag k="ssr:stedsnr" v="539583" />
	</node>
	<node id="-310428" lat="62.4345444401" lon="10.9936222234">
		<tag k="name" v="Låvikhamran" />
		<tag k="natural" v="hill" />
		<tag k="place" v="locality" />
		<tag k="ssr:stedsnr" v="539147" />
	</node>
	<node id="-308762" lat="62.3869416624" lon="11.0089250026">
		<tag k="name" v="Skjæran" />
		<tag k="natural" v="hill" />
		<tag k="place" v="locality" />
		<tag k="ssr:stedsnr" v="54352" />
	</node>
	<node id="-310423" lat="62.4588333376" lon="10.9800444497">
		<tag k="name" v="Prestknausen" />
		<tag k="natural" v="hill" />
		<tag k="place" v="locality" />
		<tag k="ssr:stedsnr" v="539127" />
	</node>
	<node id="-310418" lat="62.3895944404" lon="10.83753333">
		<tag k="name" v="Kåsåsen" />
		<tag k="natural" v="hill" />
		<tag k="place" v="locality" />
		<tag k="ssr:stedsnr" v="537193" />
	</node>
	<node id="-310412" lat="62.5345361122" lon="10.8573944424">
		<tag k="fixme" v="consider natural=peak for the most distinct mountains in the district" />
		<tag k="name" v="Midthøa" />
		<tag k="natural" v="hill" />
		<tag k="place" v="locality" />
		<tag k="ssr:stedsnr" v="436843" />
	</node>
	<node id="-310410" lat="62.2375499961" lon="11.0569333377">
		<tag k="name" v="Klettdalen" />
		<tag k="natural" v="valley" />
		<tag k="place" v="locality" />
		<tag k="ssr:stedsnr" v="436199" />
	</node>
	<node id="-310396" lat="62.3949333314" lon="11.3054861206">
		<tag k="fixme" v="consider natural=peak for the most distinct mountains in the district" />
		<tag k="name" v="Brattangen" />
		<tag k="natural" v="hill" />
		<tag k="place" v="locality" />
		<tag k="ssr:stedsnr" v="436400" />
	</node>
	<node id="-310393" lat="62.2114555594" lon="11.0523611131">
		<tag k="alt_name" v="Spekehogget, nordre;Nordre Spekehogget" />
		<tag k="name" v="Øver Spekehogget" />
		<tag k="natural" v="gorge" />
		<tag k="ssr:stedsnr" v="435268" />
	</node>
	<node id="-310390" lat="62.2293249984" lon="11.5019805496">
		<tag k="name" v="Blåberget" />
		<tag k="natural" v="hill" />
		<tag k="place" v="locality" />
		<tag k="ssr:stedsnr" v="419794" />
	</node>
	<node id="-310389" lat="62.2548833306" lon="11.4671305601">
		<tag k="name" v="Åsen" />
		<tag k="natural" v="hill" />
		<tag k="place" v="locality" />
		<tag k="ssr:stedsnr" v="419791" />
	</node>
	<node id="-310386" lat="62.2126111091" lon="11.4719111046">
		<tag k="name" v="Rørosbakken" />
		<tag k="natural" v="hill" />
		<tag k="place" v="locality" />
		<tag k="ssr:stedsnr" v="419782" />
	</node>
	<node id="-310382" lat="62.3555055567" lon="10.8771416684">
		<tag k="fixme" v="consider natural=peak for the most distinct mountains in the district" />
		<tag k="name" v="Bjørkvilåsen" />
		<tag k="natural" v="hill" />
		<tag k="place" v="locality" />
		<tag k="ssr:stedsnr" v="419773" />
	</node>
	<node id="-310379" lat="62.2613333372" lon="11.4838638848">
		<tag k="name" v="Langberget" />
		<tag k="natural" v="hill" />
		<tag k="place" v="locality" />
		<tag k="ssr:stedsnr" v="419765" />
	</node>
	<node id="-310378" lat="62.2588777738" lon="11.4848416705">
		<tag k="name" v="Storsnøfonna" />
		<tag k="natural" v="valley" />
		<tag k="place" v="locality" />
		<tag k="ssr:stedsnr" v="419763" />
	</node>
	<node id="-310376" lat="62.1634861109" lon="11.430611107">
		<tag k="name" v="Skranglerabben" />
		<tag k="place" v="locality" />
		<tag k="ssr:stedsnr" v="419757" />
	</node>
	<node id="-310374" lat="62.3847833334" lon="10.8975888961">
		<tag k="name" v="Veslevangmoen" />
		<tag k="place" v="locality" />
		<tag k="ssr:stedsnr" v="419729" />
	</node>
	<node id="-310373" lat="62.3781083294" lon="10.8899944529">
		<tag k="name" v="Bleimoen" />
		<tag k="place" v="locality" />
		<tag k="ssr:stedsnr" v="419728" />
	</node>
	<node id="-310367" lat="62.2975555578" lon="11.2115194434">
		<tag k="name" v="Veslehøa" />
		<tag k="natural" v="hill" />
		<tag k="place" v="locality" />
		<tag k="ssr:stedsnr" v="419662" />
	</node>
	<node id="-310364" lat="62.3651583337" lon="11.1878583329">
		<tag k="name" v="Kjerklehaugan" />
		<tag k="natural" v="hill" />
		<tag k="place" v="locality" />
		<tag k="ssr:stedsnr" v="419464" />
	</node>
	<node id="-308751" lat="62.4469111117" lon="11.0141111139">
		<tag k="name" v="Rognstrya" />
		<tag k="place" v="locality" />
		<tag k="ssr:stedsnr" v="54154" />
	</node>
	<node id="-310360" lat="62.429466663" lon="10.7787416667">
		<tag k="name" v="Lonbrøttet" />
		<tag k="natural" v="slope" />
		<tag k="place" v="locality" />
		<tag k="ssr:stedsnr" v="419359" />
	</node>
	<node id="-310354" lat="62.2660333359" lon="11.4646916741">
		<tag k="name" v="Haugen" />
		<tag k="natural" v="hill" />
		<tag k="place" v="locality" />
		<tag k="ssr:stedsnr" v="419300" />
	</node>
	<node id="-310353" lat="62.2737416663" lon="11.4611833389">
		<tag k="name" v="Veltbrentrabben" />
		<tag k="natural" v="hill" />
		<tag k="place" v="locality" />
		<tag k="ssr:stedsnr" v="419298" />
	</node>
	<node id="-310351" lat="62.4329527773" lon="11.0606305599">
		<tag k="name" v="Slettolbakkan" />
		<tag k="natural" v="slope" />
		<tag k="place" v="locality" />
		<tag k="ssr:stedsnr" v="419192" />
	</node>
	<node id="-310350" lat="62.1700722181" lon="11.6081444394">
		<tag k="name" v="Granrøsta" />
		<tag k="place" v="locality" />
		<tag k="ssr:stedsnr" v="418971" />
	</node>
	<node id="-310344" lat="62.2333083345" lon="11.4069388942">
		<tag k="name" v="Simastallroa" />
		<tag k="natural" v="valley" />
		<tag k="place" v="locality" />
		<tag k="ssr:stedsnr" v="418799" />
	</node>
	<node id="-310339" lat="62.4389277793" lon="10.8074194523">
		<tag k="name" v="Semmingsbakken" />
		<tag k="natural" v="slope" />
		<tag k="place" v="locality" />
		<tag k="ssr:stedsnr" v="418582" />
	</node>
	<node id="-310336" lat="62.3925611128" lon="11.1711333409">
		<tag k="name" v="Bjønnkåshaugan" />
		<tag k="natural" v="hill" />
		<tag k="place" v="locality" />
		<tag k="ssr:stedsnr" v="418449" />
	</node>
	<node id="-310334" lat="62.4806750004" lon="10.7201638976">
		<tag k="name" v="Fjellroa" />
		<tag k="natural" v="valley" />
		<tag k="place" v="locality" />
		<tag k="ssr:stedsnr" v="418240" />
	</node>
	<node id="-310329" lat="62.4609638917" lon="10.7703555531">
		<tag k="name" v="Storegga" />
		<tag k="natural" v="hill" />
		<tag k="place" v="locality" />
		<tag k="ssr:stedsnr" v="417548" />
	</node>
	<node id="-310317" lat="62.365444445" lon="10.9127083342">
		<tag k="name" v="Eidsmoen" />
		<tag k="place" v="locality" />
		<tag k="ssr:stedsnr" v="376198" />
	</node>
	<node id="-310316" lat="62.3658499995" lon="10.9756944467">
		<tag k="alt_name" v="Geiteryggen" />
		<tag k="fixme" v="consider natural=peak for the most distinct mountains in the district" />
		<tag k="name" v="Geitryggen" />
		<tag k="natural" v="hill" />
		<tag k="place" v="locality" />
		<tag k="ssr:stedsnr" v="376196" />
	</node>
	<node id="-310312" lat="62.508761112" lon="10.7540916582">
		<tag k="fixme" v="consider natural=peak for the most distinct mountains in the district" />
		<tag k="name" v="Bjørnåsen" />
		<tag k="natural" v="hill" />
		<tag k="place" v="locality" />
		<tag k="ssr:stedsnr" v="375330" />
	</node>
	<node id="-310311" lat="62.3224361079" lon="11.3926138959">
		<tag k="name" v="Kula" />
		<tag k="natural" v="hill" />
		<tag k="place" v="locality" />
		<tag k="ssr:stedsnr" v="375399" />
	</node>
	<node id="-310309" lat="62.3571250038" lon="11.3331416643">
		<tag k="fixme" v="consider natural=peak for the most distinct mountains in the district" />
		<tag k="name" v="Svartåsen" />
		<tag k="natural" v="hill" />
		<tag k="place" v="locality" />
		<tag k="ssr:stedsnr" v="375377" />
	</node>
	<node id="-310307" lat="62.4241111146" lon="10.7273888986">
		<tag k="fixme" v="multiple name tags, choose one and add the other to alt_name; consider natural=peak for the most distinct mountains in the district" />
		<tag k="name" v="Langsæteråsen;Rysæteråsen" />
		<tag k="natural" v="hill" />
		<tag k="place" v="locality" />
		<tag k="ssr:stedsnr" v="375096" />
	</node>
	<node id="-310303" lat="62.3901055596" lon="11.1754833412">
		<tag k="name" v="Storrya" />
		<tag k="place" v="locality" />
		<tag k="ssr:stedsnr" v="375137" />
	</node>
	<node id="-310302" lat="62.4917444446" lon="10.7257444487">
		<tag k="fixme" v="consider natural=peak for the most distinct mountains in the district" />
		<tag k="name" v="Svartåsfjellet" />
		<tag k="natural" v="hill" />
		<tag k="place" v="locality" />
		<tag k="ssr:stedsnr" v="375036" />
	</node>
	<node id="-310294" lat="62.4630750036" lon="10.9600055636">
		<tag k="name" v="Øver Halvorshaugen" />
		<tag k="natural" v="hill" />
		<tag k="place" v="locality" />
		<tag k="ssr:stedsnr" v="358887" />
	</node>
	<node id="-310291" lat="62.250841665" lon="11.4744000036">
		<tag k="name" v="Okshøltrangen" />
		<tag k="natural" v="valley" />
		<tag k="place" v="locality" />
		<tag k="ssr:stedsnr" v="358791" />
	</node>
	<node id="-310285" lat="62.4035111067" lon="10.8812777772">
		<tag k="name" v="Blesterbakken" />
		<tag k="natural" v="slope" />
		<tag k="place" v="locality" />
		<tag k="ssr:stedsnr" v="358718" />
	</node>
	<node id="-308738" lat="62.276044442" lon="10.9967111041">
		<tag k="name" v="Kløftet" />
		<tag k="natural" v="gorge" />
		<tag k="ssr:stedsnr" v="236922" />
	</node>
	<node id="-310282" lat="62.1841194483" lon="11.4247194507">
		<tag k="name" v="Stenola" />
		<tag k="place" v="locality" />
		<tag k="ssr:stedsnr" v="358771" />
	</node>
	<node id="-310272" lat="62.3765611072" lon="10.9811166703">
		<tag k="name" v="Spennarknausen" />
		<tag k="natural" v="hill" />
		<tag k="place" v="locality" />
		<tag k="ssr:stedsnr" v="358334" />
	</node>
	<node id="-310269" lat="62.2697305598" lon="11.4626444433">
		<tag k="name" v="Finntrøan" />
		<tag k="place" v="locality" />
		<tag k="ssr:stedsnr" v="358286" />
	</node>
	<node id="-310268" lat="62.2651833303" lon="11.4823833416">
		<tag k="name" v="Veltberget" />
		<tag k="natural" v="hill" />
		<tag k="place" v="locality" />
		<tag k="ssr:stedsnr" v="358283" />
	</node>
	<node id="-310265" lat="62.4843638849" lon="10.7936250045">
		<tag k="name" v="Kjillaran" />
		<tag k="natural" v="valley" />
		<tag k="place" v="locality" />
		<tag k="ssr:stedsnr" v="357961" />
	</node>
	<node id="-310262" lat="62.1545638893" lon="11.6184722262">
		<tag k="name" v="Brentrabben" />
		<tag k="natural" v="hill" />
		<tag k="place" v="locality" />
		<tag k="ssr:stedsnr" v="357879" />
	</node>
	<node id="-310255" lat="62.430991665" lon="10.8164361078">
		<tag k="name" v="Gammelvangsten" />
		<tag k="place" v="locality" />
		<tag k="ssr:stedsnr" v="357577" />
	</node>
	<node id="-310253" lat="62.4742361104" lon="10.8180861107">
		<tag k="name" v="Mosæterlia" />
		<tag k="natural" v="slope" />
		<tag k="place" v="locality" />
		<tag k="ssr:stedsnr" v="357534" />
	</node>
	<node id="-310251" lat="62.4662333293" lon="10.8164527798">
		<tag k="name" v="Markusrabben" />
		<tag k="natural" v="hill" />
		<tag k="place" v="locality" />
		<tag k="ssr:stedsnr" v="357531" />
	</node>
	<node id="-310250" lat="62.4674972258" lon="10.7919361107">
		<tag k="name" v="Øysletta" />
		<tag k="place" v="locality" />
		<tag k="ssr:stedsnr" v="357526" />
	</node>
	<node id="-310248" lat="62.4986833312" lon="10.7700277845">
		<tag k="name" v="Hemrabben" />
		<tag k="natural" v="slope" />
		<tag k="place" v="locality" />
		<tag k="ssr:stedsnr" v="357497" />
	</node>
	<node id="-310246" lat="62.369955558" lon="11.1636277833">
		<tag k="name" v="Sløhåhaugen" />
		<tag k="natural" v="hill" />
		<tag k="place" v="locality" />
		<tag k="ssr:stedsnr" v="357441" />
	</node>
	<node id="-310242" lat="62.3688777784" lon="10.9968333325">
		<tag k="name" v="Olahaugen" />
		<tag k="natural" v="hill" />
		<tag k="place" v="locality" />
		<tag k="ssr:stedsnr" v="357299" />
	</node>
	<node id="-310232" lat="62.4522916629" lon="10.8379888855">
		<tag k="name" v="Hundsjøhaugan" />
		<tag k="natural" v="hill" />
		<tag k="place" v="locality" />
		<tag k="ssr:stedsnr" v="356587" />
	</node>
	<node id="-310228" lat="62.3115916656" lon="11.3495027754">
		<tag k="name" v="Midtvola" />
		<tag k="natural" v="hill" />
		<tag k="place" v="locality" />
		<tag k="ssr:stedsnr" v="357650" />
	</node>
	<node id="-310227" lat="62.3199527785" lon="11.3634472189">
		<tag k="name" v="Søndre Galådalen" />
		<tag k="natural" v="valley" />
		<tag k="place" v="locality" />
		<tag k="ssr:stedsnr" v="357648" />
	</node>
	<node id="-310226" lat="62.4564611121" lon="10.5929472136">
		<tag k="name" v="Brøgndalen" />
		<tag k="natural" v="valley" />
		<tag k="place" v="locality" />
		<tag k="ssr:stedsnr" v="355386" />
	</node>
	<node id="-310222" lat="62.4077999996" lon="10.7773277743">
		<tag k="name" v="Rønningsbakken" />
		<tag k="natural" v="slope" />
		<tag k="place" v="locality" />
		<tag k="ssr:stedsnr" v="355271" />
	</node>
	<node id="-310221" lat="62.4114583319" lon="10.7606972238">
		<tag k="name" v="Brattegga" />
		<tag k="natural" v="slope" />
		<tag k="place" v="locality" />
		<tag k="ssr:stedsnr" v="355270" />
	</node>
	<node id="-310217" lat="62.4189083315" lon="11.0979027706">
		<tag k="name" v="Kvislan" />
		<tag k="natural" v="valley" />
		<tag k="place" v="locality" />
		<tag k="ssr:stedsnr" v="331788" />
	</node>
	<node id="-310214" lat="62.4379388875" lon="10.7022805572">
		<tag k="alt_name" v="Trettengvorda" />
		<tag k="fixme" v="consider natural=peak for the most distinct mountains in the district" />
		<tag k="name" v="Trettengvola" />
		<tag k="natural" v="hill" />
		<tag k="place" v="locality" />
		<tag k="ssr:stedsnr" v="315832" />
	</node>
	<node id="-310198" lat="62.1989333307" lon="11.5910166633">
		<tag k="fixme" v="consider natural=peak for the most distinct mountains in the district" />
		<tag k="name" v="Digerkletten" />
		<tag k="natural" v="hill" />
		<tag k="place" v="locality" />
		<tag k="ssr:stedsnr" v="314532" />
	</node>
	<node id="-308767" lat="62.2348388876" lon="11.3874694369">
		<tag k="name" v="Knauseggan" />
		<tag k="natural" v="hill" />
		<tag k="place" v="locality" />
		<tag k="ssr:stedsnr" v="54823" />
	</node>
	<node id="-310186" lat="62.3773916677" lon="11.1011305463">
		<tag k="name" v="Bjørsjølia" />
		<tag k="natural" v="slope" />
		<tag k="place" v="locality" />
		<tag k="ssr:stedsnr" v="206630" />
	</node>
	<node id="-310185" lat="62.3801749973" lon="11.2933083259">
		<tag k="name" v="Veslehøgda" />
		<tag k="natural" v="hill" />
		<tag k="place" v="locality" />
		<tag k="ssr:stedsnr" v="194384" />
	</node>
	<node id="-310184" lat="62.4217194482" lon="11.2333638915">
		<tag k="name" v="Skarvhøgda" />
		<tag k="natural" v="hill" />
		<tag k="place" v="locality" />
		<tag k="ssr:stedsnr" v="194342" />
	</node>
	<node id="-310174" lat="62.3897500015" lon="11.0667083377">
		<tag k="fixme" v="consider natural=peak for the most distinct mountains in the district" />
		<tag k="name" v="Bjørkåsen" />
		<tag k="natural" v="hill" />
		<tag k="place" v="locality" />
		<tag k="ssr:stedsnr" v="194159" />
	</node>
	<node id="-310172" lat="62.2246305599" lon="11.6076555607">
		<tag k="fixme" v="consider natural=peak for the most distinct mountains in the district" />
		<tag k="name" v="Blåkletten" />
		<tag k="natural" v="hill" />
		<tag k="place" v="locality" />
		<tag k="ssr:stedsnr" v="193483" />
	</node>
	<node id="-310170" lat="62.2465083342" lon="11.3076777768">
		<tag k="name" v="Jonashøgda" />
		<tag k="natural" v="hill" />
		<tag k="place" v="locality" />
		<tag k="ssr:stedsnr" v="193466" />
	</node>
	<node id="-310168" lat="62.2361805586" lon="11.0185750057">
		<tag k="fixme" v="consider natural=peak for the most distinct mountains in the district" />
		<tag k="name" v="Langkletten" />
		<tag k="natural" v="hill" />
		<tag k="place" v="locality" />
		<tag k="ssr:stedsnr" v="193212" />
	</node>
	<node id="-310167" lat="62.2280527787" lon="11.1918777833">
		<tag k="fixme" v="consider natural=peak for the most distinct mountains in the district" />
		<tag k="name" v="Raudsjøpiggen" />
		<tag k="natural" v="hill" />
		<tag k="place" v="locality" />
		<tag k="ssr:stedsnr" v="193187" />
	</node>
	<node id="-310165" lat="62.3961222208" lon="11.1088472221">
		<tag k="name" v="Tanggrubban" />
		<tag k="natural" v="valley" />
		<tag k="place" v="locality" />
		<tag k="ssr:stedsnr" v="186500" />
	</node>
	<node id="-310162" lat="62.4645916687" lon="10.9135222214">
		<tag k="name" v="Simashåmmåren" />
		<tag k="natural" v="hill" />
		<tag k="place" v="locality" />
		<tag k="ssr:stedsnr" v="176851" />
	</node>
	<node id="-310160" lat="62.2121222195" lon="11.4105694467">
		<tag k="name" v="Renseldalen" />
		<tag k="natural" v="valley" />
		<tag k="place" v="locality" />
		<tag k="ssr:stedsnr" v="176846" />
	</node>
	<node id="-310148" lat="62.2635611138" lon="11.462069436">
		<tag k="name" v="Brurabben" />
		<tag k="place" v="locality" />
		<tag k="ssr:stedsnr" v="176758" />
	</node>
	<node id="-310142" lat="62.3017055529" lon="11.3685333258">
		<tag k="name" v="Voltangen" />
		<tag k="natural" v="slope" />
		<tag k="place" v="locality" />
		<tag k="ssr:stedsnr" v="176686" />
	</node>
	<node id="-310138" lat="62.4150916687" lon="10.8381527755">
		<tag k="name" v="Petteregga" />
		<tag k="natural" v="hill" />
		<tag k="place" v="locality" />
		<tag k="ssr:stedsnr" v="176654" />
	</node>
	<node id="-310133" lat="62.4266555549" lon="11.1020222293">
		<tag k="name" v="Nesvollan" />
		<tag k="place" v="locality" />
		<tag k="ssr:stedsnr" v="176497" />
	</node>
	<node id="-310122" lat="62.2719111104" lon="11.0573194517">
		<tag k="name" v="Nørdre Dalen" />
		<tag k="natural" v="valley" />
		<tag k="place" v="locality" />
		<tag k="ssr:stedsnr" v="176287" />
	</node>
	<node id="-310121" lat="62.399233333" lon="11.0098166731">
		<tag k="name" v="Gammellia" />
		<tag k="natural" v="slope" />
		<tag k="place" v="locality" />
		<tag k="ssr:stedsnr" v="176256" />
	</node>
	<node id="-310119" lat="62.3976222193" lon="10.988683331">
		<tag k="name" v="Tynsetdalen" />
		<tag k="natural" v="valley" />
		<tag k="place" v="locality" />
		<tag k="ssr:stedsnr" v="176248" />
	</node>
	<node id="-310102" lat="62.4936750031" lon="10.7766722173">
		<tag k="name" v="Brentrabben" />
		<tag k="natural" v="slope" />
		<tag k="place" v="locality" />
		<tag k="ssr:stedsnr" v="175522" />
	</node>
	<node id="-310097" lat="62.3679138847" lon="11.1565277748">
		<tag k="name" v="Sløhåhaugen" />
		<tag k="natural" v="hill" />
		<tag k="place" v="locality" />
		<tag k="ssr:stedsnr" v="175452" />
	</node>
	<node id="-310091" lat="62.4211916694" lon="10.9991694502">
		<tag k="name" v="Røbakken" />
		<tag k="natural" v="slope" />
		<tag k="place" v="locality" />
		<tag k="ssr:stedsnr" v="175177" />
	</node>
	<node id="-310090" lat="62.4333527802" lon="10.9975222317">
		<tag k="name" v="Låvikdalen" />
		<tag k="natural" v="valley" />
		<tag k="place" v="locality" />
		<tag k="ssr:stedsnr" v="175172" />
	</node>
	<node id="-310084" lat="62.4292027819" lon="11.0083611173">
		<tag k="name" v="Ola" />
		<tag k="natural" v="hill" />
		<tag k="place" v="locality" />
		<tag k="ssr:stedsnr" v="175117" />
	</node>
	<node id="-310083" lat="62.4192166654" lon="11.0413194383">
		<tag k="name" v="Gjelteggan" />
		<tag k="natural" v="hill" />
		<tag k="place" v="locality" />
		<tag k="ssr:stedsnr" v="175108" />
	</node>
	<node id="-310079" lat="62.2132166708" lon="11.0509388912">
		<tag k="name" v="Øver Hoggmoen" />
		<tag k="place" v="locality" />
		<tag k="ssr:stedsnr" v="174158" />
	</node>
	<node id="-310077" lat="62.4772027756" lon="10.563833327">
		<tag k="name" v="Sjåfrembakken" />
		<tag k="natural" v="slope" />
		<tag k="place" v="locality" />
		<tag k="ssr:stedsnr" v="173313" />
	</node>
	<node id="-310064" lat="62.4588854862" lon="10.9754435974">
		<tag k="fixme" v="multiple name tags, choose one and add the other to alt_name" />
		<tag k="name" v="Lekingberget;Letjønnberget" />
		<tag k="natural" v="hill" />
		<tag k="place" v="locality" />
		<tag k="ssr:stedsnr" v="133074" />
	</node>
	<node id="-310062" lat="62.468613887" lon="10.7526111072">
		<tag k="fixme" v="consider natural=peak for the most distinct mountains in the district" />
		<tag k="name" v="Svartåsen" />
		<tag k="natural" v="hill" />
		<tag k="place" v="locality" />
		<tag k="ssr:stedsnr" v="133067" />
	</node>
	<node id="-310057" lat="62.3929611094" lon="11.1324638944">
		<tag k="alt_name" v="Elgsmyrhaugen" />
		<tag k="name" v="Elgsmyrhaugan" />
		<tag k="natural" v="hill" />
		<tag k="place" v="locality" />
		<tag k="ssr:stedsnr" v="133158" />
	</node>
	<node id="-310056" lat="62.3986416703" lon="11.16987222">
		<tag k="name" v="Knappåsberget" />
		<tag k="natural" v="hill" />
		<tag k="place" v="locality" />
		<tag k="ssr:stedsnr" v="133149" />
	</node>
	<node id="-310055" lat="62.5029055589" lon="10.797944448">
		<tag k="fixme" v="consider natural=peak for the most distinct mountains in the district" />
		<tag k="name" v="Hamran" />
		<tag k="natural" v="hill" />
		<tag k="place" v="locality" />
		<tag k="ssr:stedsnr" v="132769" />
	</node>
	<node id="-310054" lat="62.1827194418" lon="11.3710277685">
		<tag k="name" v="Gråhøgda" />
		<tag k="natural" v="hill" />
		<tag k="place" v="locality" />
		<tag k="ssr:stedsnr" v="132488" />
	</node>
	<node id="-310052" lat="62.1751249961" lon="11.5149888886">
		<tag k="alt_name" v="Vargkletten" />
		<tag k="fixme" v="consider natural=peak for the most distinct mountains in the district" />
		<tag k="name" v="Vargekletten" />
		<tag k="natural" v="hill" />
		<tag k="place" v="locality" />
		<tag k="ssr:stedsnr" v="132482" />
	</node>
	<node id="-310051" lat="62.3084000007" lon="11.3610861145">
		<tag k="name" v="Vola" />
		<tag k="natural" v="hill" />
		<tag k="place" v="locality" />
		<tag k="ssr:stedsnr" v="132481" />
	</node>
	<node id="-310046" lat="62.550911111" lon="10.7016305579">
		<tag k="fixme" v="consider natural=peak for the most distinct mountains in the district" />
		<tag k="name" v="Sletthøa" />
		<tag k="natural" v="hill" />
		<tag k="place" v="locality" />
		<tag k="ssr:stedsnr" v="132057" />
	</node>
	<node id="-310044" lat="62.4873305575" lon="10.8271666603">
		<tag k="name" v="Råvållåsen" />
		<tag k="natural" v="hill" />
		<tag k="place" v="locality" />
		<tag k="ssr:stedsnr" v="127958" />
	</node>
	<node id="-310043" lat="62.1897361122" lon="11.5558472303">
		<tag k="name" v="Tovbakken" />
		<tag k="natural" v="slope" />
		<tag k="place" v="locality" />
		<tag k="ssr:stedsnr" v="115990" />
	</node>
	<node id="-310041" lat="62.165463891" lon="11.6020222291">
		<tag k="name" v="Granhølet" />
		<tag k="natural" v="valley" />
		<tag k="place" v="locality" />
		<tag k="ssr:stedsnr" v="115973" />
	</node>
	<node id="-310031" lat="62.3596583358" lon="10.9541833271">
		<tag k="name" v="Flatåsen" />
		<tag k="natural" v="hill" />
		<tag k="place" v="locality" />
		<tag k="ssr:stedsnr" v="115773" />
	</node>
	<node id="-310029" lat="62.3534638888" lon="10.934594445">
		<tag k="name" v="Stenborkgrubban" />
		<tag k="natural" v="valley" />
		<tag k="place" v="locality" />
		<tag k="ssr:stedsnr" v="115769" />
	</node>
	<node id="-310028" lat="62.3794861103" lon="10.9215416738">
		<tag k="name" v="Lergrubban" />
		<tag k="natural" v="valley" />
		<tag k="place" v="locality" />
		<tag k="ssr:stedsnr" v="115767" />
	</node>
	<node id="-310026" lat="62.4507333297" lon="10.9359250013">
		<tag k="name" v="Olahaugen" />
		<tag k="natural" v="hill" />
		<tag k="place" v="locality" />
		<tag k="ssr:stedsnr" v="115878" />
	</node>
	<node id="-310024" lat="62.4547166681" lon="10.8657222174">
		<tag k="name" v="Volan" />
		<tag k="natural" v="hill" />
		<tag k="place" v="locality" />
		<tag k="ssr:stedsnr" v="115873" />
	</node>
	<node id="-310020" lat="62.2005500001" lon="11.4172416719">
		<tag k="name" v="Tangen" />
		<tag k="place" v="locality" />
		<tag k="ssr:stedsnr" v="115858" />
	</node>
	<node id="-310018" lat="62.2130777795" lon="11.411380557">
		<tag k="name" v="Skogøydalen" />
		<tag k="natural" v="valley" />
		<tag k="place" v="locality" />
		<tag k="ssr:stedsnr" v="115852" />
	</node>
	<node id="-310011" lat="62.3886250025" lon="10.8562805605">
		<tag k="name" v="Brøttbekklia" />
		<tag k="natural" v="slope" />
		<tag k="place" v="locality" />
		<tag k="ssr:stedsnr" v="115675" />
	</node>
	<node id="-310008" lat="62.2072583377" lon="11.4679750022">
		<tag k="name" v="Sjurshaugen" />
		<tag k="natural" v="hill" />
		<tag k="place" v="locality" />
		<tag k="ssr:stedsnr" v="115756" />
	</node>
	<node id="-310002" lat="62.4221416638" lon="10.8204722282">
		<tag k="name" v="Eggan" />
		<tag k="natural" v="hill" />
		<tag k="place" v="locality" />
		<tag k="ssr:stedsnr" v="115576" />
	</node>
	<node id="-309997" lat="62.4572055552" lon="11.0052388845">
		<tag k="name" v="Ryan" />
		<tag k="place" v="locality" />
		<tag k="ssr:stedsnr" v="115641" />
	</node>
	<node id="-309994" lat="62.4185500028" lon="11.1640333358">
		<tag k="name" v="Reppan" />
		<tag k="place" v="locality" />
		<tag k="ssr:stedsnr" v="115497" />
	</node>
	<node id="-309992" lat="62.4445749999" lon="10.8144666749">
		<tag k="name" v="Mitthaugen" />
		<tag k="natural" v="hill" />
		<tag k="place" v="locality" />
		<tag k="ssr:stedsnr" v="115568" />
	</node>
	<node id="-309985" lat="62.3620361118" lon="11.0246027841">
		<tag k="name" v="Volknausen" />
		<tag k="natural" v="hill" />
		<tag k="place" v="locality" />
		<tag k="ssr:stedsnr" v="115341" />
	</node>
	<node id="-308688" lat="62.4449777769" lon="10.6046944414">
		<tag k="name" v="Busjødalen" />
		<tag k="natural" v="valley" />
		<tag k="place" v="locality" />
		<tag k="ssr:stedsnr" v="234401" />
	</node>
	<node id="-308687" lat="62.2935722253" lon="11.0081694472">
		<tag k="name" v="Bjørkkjølen" />
		<tag k="place" v="locality" />
		<tag k="ssr:stedsnr" v="234363" />
	</node>
	<node id="-309976" lat="62.2424138892" lon="11.0768833376">
		<tag k="name" v="Veslerya" />
		<tag k="place" v="locality" />
		<tag k="ssr:stedsnr" v="115317" />
	</node>
	<node id="-309970" lat="62.4673888899" lon="10.7299722194">
		<tag k="name" v="Båtjønnhaugan" />
		<tag k="natural" v="hill" />
		<tag k="place" v="locality" />
		<tag k="ssr:stedsnr" v="114258" />
	</node>
	<node id="-309968" lat="62.379663889" lon="10.8083722265">
		<tag k="name" v="Øver Vardtjønnlia" />
		<tag k="natural" v="slope" />
		<tag k="place" v="locality" />
		<tag k="ssr:stedsnr" v="112244" />
	</node>
	<node id="-309966" lat="62.4362111127" lon="10.6405694508">
		<tag k="name" v="Trøbusjødalen" />
		<tag k="natural" v="valley" />
		<tag k="place" v="locality" />
		<tag k="ssr:stedsnr" v="112049" />
	</node>
	<node id="-309963" lat="62.4321777801" lon="10.7585388821">
		<tag k="fixme" v="consider natural=peak for the most distinct mountains in the district" />
		<tag k="name" v="Ulvåsen" />
		<tag k="natural" v="hill" />
		<tag k="place" v="locality" />
		<tag k="ssr:stedsnr" v="85587" />
	</node>
	<node id="-309962" lat="62.3826138915" lon="11.0624055636">
		<tag k="loc_name" v="Storslættet" />
		<tag k="name" v="Storslette" />
		<tag k="place" v="locality" />
		<tag k="ssr:stedsnr" v="85583" />
	</node>
	<node id="-309961" lat="62.2307250022" lon="11.397750009">
		<tag k="name" v="Brennmoen" />
		<tag k="place" v="locality" />
		<tag k="ssr:stedsnr" v="81085" />
	</node>
	<node id="-309959" lat="62.3686249987" lon="11.2895444424">
		<tag k="fixme" v="consider natural=peak for the most distinct mountains in the district" />
		<tag k="name" v="Kvannåsen" />
		<tag k="natural" v="hill" />
		<tag k="place" v="locality" />
		<tag k="ssr:stedsnr" v="73421" />
	</node>
	<node id="-309955" lat="62.253874996" lon="11.4337888858">
		<tag k="name" v="Skjerhøgda" />
		<tag k="natural" v="hill" />
		<tag k="place" v="locality" />
		<tag k="ssr:stedsnr" v="72514" />
	</node>
	<node id="-309954" lat="62.295536115" lon="11.3501638839">
		<tag k="name" v="Trangdalen" />
		<tag k="natural" v="valley" />
		<tag k="place" v="locality" />
		<tag k="ssr:stedsnr" v="72472" />
	</node>
	<node id="-309953" lat="62.2999472246" lon="11.2554833303">
		<tag k="fixme" v="consider natural=peak for the most distinct mountains in the district" />
		<tag k="name" v="Bakkletten" />
		<tag k="natural" v="hill" />
		<tag k="place" v="locality" />
		<tag k="ssr:stedsnr" v="72470" />
	</node>
	<node id="-309950" lat="62.4299111092" lon="11.2746083415">
		<tag k="fixme" v="consider natural=peak for the most distinct mountains in the district" />
		<tag k="name" v="Håmmålsfjellet" />
		<tag k="natural" v="hill" />
		<tag k="place" v="locality" />
		<tag k="ssr:stedsnr" v="72359" />
	</node>
	<node id="-309945" lat="62.5819000007" lon="10.7654888911">
		<tag k="fixme" v="consider natural=peak for the most distinct mountains in the district" />
		<tag k="name" v="Bratthøtangen" />
		<tag k="natural" v="hill" />
		<tag k="place" v="locality" />
		<tag k="ssr:stedsnr" v="72143" />
	</node>
	<node id="-309938" lat="62.592736115" lon="10.7136250085">
		<tag k="fixme" v="consider natural=peak for the most distinct mountains in the district" />
		<tag k="name" v="Bratthøa" />
		<tag k="natural" v="hill" />
		<tag k="place" v="locality" />
		<tag k="ssr:stedsnr" v="72096" />
	</node>
	<node id="-309930" lat="62.206463888" lon="11.6293805514">
		<tag k="name" v="Bekkengroa" />
		<tag k="place" v="locality" />
		<tag k="ssr:stedsnr" v="71490" />
	</node>
	<node id="-309929" lat="62.2158750021" lon="11.3430805614">
		<tag k="name" v="Styggroa" />
		<tag k="place" v="locality" />
		<tag k="ssr:stedsnr" v="71486" />
	</node>
	<node id="-309927" lat="62.2414333367" lon="11.25420833">
		<tag k="fixme" v="consider natural=peak for the most distinct mountains in the district" />
		<tag k="name" v="Raudsjøhøa" />
		<tag k="natural" v="hill" />
		<tag k="place" v="locality" />
		<tag k="ssr:stedsnr" v="71473" />
	</node>
	<node id="-309922" lat="62.3542333348" lon="10.9478083335">
		<tag k="name" v="Brennhaugen" />
		<tag k="natural" v="hill" />
		<tag k="place" v="locality" />
		<tag k="ssr:stedsnr" v="55780" />
	</node>
	<node id="-309919" lat="62.3540666657" lon="10.9617666686">
		<tag k="name" v="Bråttet" />
		<tag k="natural" v="slope" />
		<tag k="place" v="locality" />
		<tag k="ssr:stedsnr" v="55776" />
	</node>
	<node id="-309917" lat="62.2088055544" lon="11.4771416636">
		<tag k="name" v="Vangsmoen" />
		<tag k="place" v="locality" />
		<tag k="ssr:stedsnr" v="55753" />
	</node>
	<node id="-309916" lat="62.1753166701" lon="11.4436916701">
		<tag k="name" v="Midtre Rundhaugen" />
		<tag k="natural" v="hill" />
		<tag k="place" v="locality" />
		<tag k="ssr:stedsnr" v="55745" />
	</node>
	<node id="-309914" lat="62.2556638866" lon="11.4852999969">
		<tag k="name" v="Svarthåmmåren" />
		<tag k="natural" v="hill" />
		<tag k="place" v="locality" />
		<tag k="ssr:stedsnr" v="55735" />
	</node>
	<node id="-309913" lat="62.3687805521" lon="10.9347222187">
		<tag k="name" v="Sletteeidet" />
		<tag k="place" v="locality" />
		<tag k="ssr:stedsnr" v="55721" />
	</node>
	<node id="-309908" lat="62.2987277798" lon="11.4497888826">
		<tag k="name" v="Grishusrabben" />
		<tag k="natural" v="hill" />
		<tag k="place" v="locality" />
		<tag k="ssr:stedsnr" v="55642" />
	</node>
	<node id="-309907" lat="62.4176527798" lon="11.1131888853">
		<tag k="name" v="Øver Bjørmoen" />
		<tag k="place" v="locality" />
		<tag k="ssr:stedsnr" v="55507" />
	</node>
	<node id="-309906" lat="62.3619055599" lon="11.1665805633">
		<tag k="name" v="Nordersjøhaugen" />
		<tag k="natural" v="hill" />
		<tag k="place" v="locality" />
		<tag k="ssr:stedsnr" v="55452" />
	</node>
	<node id="-309905" lat="62.412033331" lon="10.8005333237">
		<tag k="name" v="Storrya" />
		<tag k="place" v="locality" />
		<tag k="ssr:stedsnr" v="55629" />
	</node>
	<node id="-309904" lat="62.3108833317" lon="11.2778166605">
		<tag k="name" v="Brentegga" />
		<tag k="natural" v="hill" />
		<tag k="place" v="locality" />
		<tag k="ssr:stedsnr" v="55618" />
	</node>
	<node id="-309900" lat="62.4409916693" lon="10.7719083257">
		<tag k="name" v="Trieggan" />
		<tag k="natural" v="hill" />
		<tag k="place" v="locality" />
		<tag k="ssr:stedsnr" v="55343" />
	</node>
	<node id="-309899" lat="62.3887944478" lon="11.047430558">
		<tag k="name" v="Flatan" />
		<tag k="place" v="locality" />
		<tag k="ssr:stedsnr" v="55330" />
	</node>
	<node id="-309897" lat="62.2765527748" lon="11.4638722253">
		<tag k="name" v="Vassfloen" />
		<tag k="natural" v="hill" />
		<tag k="place" v="locality" />
		<tag k="ssr:stedsnr" v="55289" />
	</node>
	<node id="-309894" lat="62.2032611097" lon="11.5402333367">
		<tag k="name" v="Bulimoen" />
		<tag k="place" v="locality" />
		<tag k="ssr:stedsnr" v="54950" />
	</node>
	<node id="-309888" lat="62.4034388862" lon="10.9587972215">
		<tag k="name" v="Bjønnbekkhaugen" />
		<tag k="natural" v="hill" />
		<tag k="place" v="locality" />
		<tag k="ssr:stedsnr" v="54842" />
	</node>
	<node id="-309884" lat="62.1989416667" lon="11.412230565">
		<tag k="name" v="Okskvisla" />
		<tag k="place" v="locality" />
		<tag k="ssr:stedsnr" v="54773" />
	</node>
	<node id="-309883" lat="62.4935666628" lon="10.7422194415">
		<tag k="name" v="Lunnarabben" />
		<tag k="natural" v="slope" />
		<tag k="place" v="locality" />
		<tag k="ssr:stedsnr" v="54543" />
	</node>
	<node id="-309882" lat="62.3542027746" lon="11.1983277863">
		<tag k="name" v="Drengeggan" />
		<tag k="natural" v="hill" />
		<tag k="place" v="locality" />
		<tag k="ssr:stedsnr" v="54441" />
	</node>
	<node id="-309880" lat="62.3673472229" lon="11.067463882">
		<tag k="name" v="Kverva" />
		<tag k="place" v="locality" />
		<tag k="ssr:stedsnr" v="54347" />
	</node>
	<node id="-309879" lat="62.3524861117" lon="11.049644437">
		<tag k="name" v="Gammelrabben" />
		<tag k="natural" v="slope" />
		<tag k="place" v="locality" />
		<tag k="ssr:stedsnr" v="54345" />
	</node>
	<node id="-309878" lat="62.3571055538" lon="11.0866194348">
		<tag k="name" v="Brattegga" />
		<tag k="natural" v="hill" />
		<tag k="place" v="locality" />
		<tag k="ssr:stedsnr" v="54342" />
	</node>
	<node id="-309855" lat="62.5318249963" lon="10.6563611098">
		<tag k="fixme" v="consider natural=peak for the most distinct mountains in the district" />
		<tag k="name" v="Ravaldslettfjellet" />
		<tag k="natural" v="hill" />
		<tag k="place" v="locality" />
		<tag k="ssr:stedsnr" v="12057" />
	</node>
	<node id="-309852" lat="62.4363527734" lon="10.6702027797">
		<tag k="alt_name" v="Vorddalen" />
		<tag k="name" v="Voldalen" />
		<tag k="natural" v="valley" />
		<tag k="place" v="locality" />
		<tag k="ssr:stedsnr" v="11848" />
	</node>
	<node id="-309851" lat="62.5037388874" lon="10.8933611099">
		<tag k="name" v="Storbekkhøgda" />
		<tag k="natural" v="hill" />
		<tag k="place" v="locality" />
		<tag k="ssr:stedsnr" v="11771" />
	</node>
	<node id="-309850" lat="62.5152527816" lon="10.7613111147">
		<tag k="alt_name" v="Mosedalen" />
		<tag k="name" v="Måsådalen" />
		<tag k="natural" v="valley" />
		<tag k="place" v="locality" />
		<tag k="ssr:stedsnr" v="11751" />
	</node>
	<node id="-309849" lat="62.3832694486" lon="10.7801722184">
		<tag k="fixme" v="consider natural=peak for the most distinct mountains in the district" />
		<tag k="name" v="Gråvola" />
		<tag k="natural" v="hill" />
		<tag k="place" v="locality" />
		<tag k="ssr:stedsnr" v="11734" />
	</node>
	<node id="-309848" lat="62.1922583306" lon="11.5939833265">
		<tag k="name" v="Langkletten" />
		<tag k="natural" v="hill" />
		<tag k="place" v="locality" />
		<tag k="ssr:stedsnr" v="11491" />
	</node>
	<node id="-309843" lat="62.2954166696" lon="11.1856138924">
		<tag k="fixme" v="consider natural=peak for the most distinct mountains in the district" />
		<tag k="name" v="Stortjønnhøa" />
		<tag k="natural" v="hill" />
		<tag k="place" v="locality" />
		<tag k="ssr:stedsnr" v="11243" />
	</node>
	<node id="-309841" lat="62.3286777799" lon="11.2848416599">
		<tag k="alt_name" v="Røsvikåsen, øvre" />
		<tag k="fixme" v="consider natural=peak for the most distinct mountains in the district" />
		<tag k="name" v="Øver Røsvikåsen" />
		<tag k="natural" v="hill" />
		<tag k="place" v="locality" />
		<tag k="ssr:stedsnr" v="11437" />
	</node>
	<node id="-309834" lat="62.2204694417" lon="11.1489083364">
		<tag k="name" v="Raudsjødalen" />
		<tag k="natural" v="valley" />
		<tag k="place" v="locality" />
		<tag k="ssr:stedsnr" v="11179" />
	</node>
	<node id="-309821" lat="62.3860000004" lon="10.8431833396">
		<tag k="fixme" v="consider natural=peak for the most distinct mountains in the district" />
		<tag k="loc_name" v="Veslknappåsen" />
		<tag k="name" v="Vesleknappåsen" />
		<tag k="natural" v="hill" />
		<tag k="place" v="locality" />
		<tag k="ssr:stedsnr" v="965706" />
	</node>
	<node id="-309819" lat="62.4462972182" lon="10.7651000047">
		<tag k="name" v="Lonfætten" />
		<tag k="place" v="locality" />
		<tag k="ssr:stedsnr" v="965378" />
	</node>
	<node id="-309817" lat="62.4230583329" lon="11.0883694383">
		<tag k="name" v="Hujaregga" />
		<tag k="natural" v="hill" />
		<tag k="place" v="locality" />
		<tag k="ssr:stedsnr" v="965207" />
	</node>
	<node id="-309815" lat="62.4321083369" lon="10.8890777871">
		<tag k="name" v="Kringlethaugen" />
		<tag k="natural" v="hill" />
		<tag k="place" v="locality" />
		<tag k="ssr:stedsnr" v="964821" />
	</node>
	<node id="-309812" lat="62.4474166627" lon="10.8932499917">
		<tag k="name" v="Berget" />
		<tag k="natural" v="slope" />
		<tag k="place" v="locality" />
		<tag k="ssr:stedsnr" v="964812" />
	</node>
	<node id="-309807" lat="62.3811638845" lon="11.0172388952">
		<tag k="fixme" v="consider natural=peak for the most distinct mountains in the district" />
		<tag k="name" v="Svartåsknausen" />
		<tag k="natural" v="hill" />
		<tag k="ssr:stedsnr" v="964356" />
	</node>
	<node id="-309804" lat="62.4430416691" lon="10.9791361199">
		<tag k="name" v="Kattuggelmoen" />
		<tag k="place" v="locality" />
		<tag k="ssr:stedsnr" v="964211" />
	</node>
	<node id="-309803" lat="62.4461888879" lon="10.9993638894">
		<tag k="fixme" v="consider natural=peak for the most distinct mountains in the district" />
		<tag k="name" v="Gammelvollåsen" />
		<tag k="natural" v="hill" />
		<tag k="place" v="locality" />
		<tag k="ssr:stedsnr" v="964208" />
	</node>
	<node id="-309801" lat="62.4742944459" lon="10.969088887">
		<tag k="name" v="Milskiftet" />
		<tag k="natural" v="valley" />
		<tag k="place" v="locality" />
		<tag k="ssr:stedsnr" v="964069" />
	</node>
	<node id="-309800" lat="62.4612638905" lon="10.9756083383">
		<tag k="name" v="Schjeldrupdalen" />
		<tag k="natural" v="valley" />
		<tag k="place" v="locality" />
		<tag k="ssr:stedsnr" v="964068" />
	</node>
	<node id="-309797" lat="62.2635777795" lon="11.4224305608">
		<tag k="name" v="Vangsbekkdalen" />
		<tag k="natural" v="valley" />
		<tag k="place" v="locality" />
		<tag k="ssr:stedsnr" v="963865" />
	</node>
	<node id="-309793" lat="62.3749388923" lon="10.8176527732">
		<tag k="name" v="Ytter Vardtjønnlia" />
		<tag k="natural" v="slope" />
		<tag k="place" v="locality" />
		<tag k="ssr:stedsnr" v="962205" />
	</node>
	<node id="-309780" lat="62.1814638913" lon="11.4084527816">
		<tag k="name" v="Øver Rubakken" />
		<tag k="natural" v="slope" />
		<tag k="place" v="locality" />
		<tag k="ssr:stedsnr" v="904753" />
	</node>
	<node id="-309779" lat="62.235938885" lon="11.3495444352">
		<tag k="name" v="Raset" />
		<tag k="natural" v="valley" />
		<tag k="place" v="locality" />
		<tag k="ssr:stedsnr" v="904826" />
	</node>
	<node id="-309778" lat="62.4267416676" lon="10.9348833246">
		<tag k="name" v="Vesleåsen" />
		<tag k="natural" v="hill" />
		<tag k="place" v="locality" />
		<tag k="ssr:stedsnr" v="904824" />
	</node>
	<node id="-309775" lat="62.2337166681" lon="11.4653972208">
		<tag k="fixme" v="consider natural=peak for the most distinct mountains in the district" />
		<tag k="name" v="Jopålshåmmåren" />
		<tag k="natural" v="hill" />
		<tag k="place" v="locality" />
		<tag k="ssr:stedsnr" v="904810" />
	</node>
	<node id="-309772" lat="62.3611472256" lon="11.0854305607">
		<tag k="name" v="Grøndalen" />
		<tag k="natural" v="valley" />
		<tag k="place" v="locality" />
		<tag k="ssr:stedsnr" v="904328" />
	</node>
	<node id="-309771" lat="62.3635416658" lon="10.976791673">
		<tag k="name" v="Bjøllkubakkbotn" />
		<tag k="natural" v="valley" />
		<tag k="place" v="locality" />
		<tag k="ssr:stedsnr" v="904327" />
	</node>
	<node id="-309770" lat="62.3526583352" lon="10.970249996">
		<tag k="name" v="Mælan" />
		<tag k="natural" v="slope" />
		<tag k="place" v="locality" />
		<tag k="ssr:stedsnr" v="904322" />
	</node>
	<node id="-309766" lat="62.4291333301" lon="11.06699444">
		<tag k="fixme" v="consider natural=peak for the most distinct mountains in the district" />
		<tag k="name" v="Erliåsen" />
		<tag k="natural" v="hill" />
		<tag k="place" v="locality" />
		<tag k="ssr:stedsnr" v="904203" />
	</node>
	<node id="-309765" lat="62.4374583297" lon="10.8058277788">
		<tag k="name" v="Storkåsdalene" />
		<tag k="natural" v="valley" />
		<tag k="place" v="locality" />
		<tag k="ssr:stedsnr" v="903616" />
	</node>
	<node id="-309762" lat="62.346263891" lon="10.8762250031">
		<tag k="name" v="Eggengsvingen" />
		<tag k="place" v="locality" />
		<tag k="ssr:stedsnr" v="902276" />
	</node>
	<node id="-309757" lat="62.4859861138" lon="10.7053055648">
		<tag k="fixme" v="consider natural=peak for the most distinct mountains in the district" />
		<tag k="name" v="Steinskardhøa" />
		<tag k="natural" v="hill" />
		<tag k="place" v="locality" />
		<tag k="ssr:stedsnr" v="861608" />
	</node>
	<node id="-309756" lat="62.2889416691" lon="11.4121305529">
		<tag k="name" v="Prestliknausen" />
		<tag k="natural" v="hill" />
		<tag k="place" v="locality" />
		<tag k="ssr:stedsnr" v="861471" />
	</node>
	<node id="-309754" lat="62.2763722184" lon="11.0767000076">
		<tag k="name" v="Skårdalen" />
		<tag k="natural" v="valley" />
		<tag k="place" v="locality" />
		<tag k="ssr:stedsnr" v="861263" />
	</node>
	<node id="-309753" lat="62.2529138879" lon="11.3471333407">
		<tag k="fixme" v="consider natural=peak for the most distinct mountains in the district" />
		<tag k="name" v="Vollfjell" />
		<tag k="natural" v="hill" />
		<tag k="place" v="locality" />
		<tag k="ssr:stedsnr" v="861511" />
	</node>
	<node id="-309752" lat="62.2507083367" lon="11.5411638881">
		<tag k="alt_name" v="Sålekinna, nordre" />
		<tag k="fixme" v="consider natural=peak for the most distinct mountains in the district" />
		<tag k="name" v="Nordre Sålekinna" />
		<tag k="natural" v="hill" />
		<tag k="place" v="locality" />
		<tag k="ssr:stedsnr" v="861507" />
	</node>
	<node id="-309749" lat="62.3746888867" lon="10.9854027699">
		<tag k="name" v="Helgesknausen" />
		<tag k="natural" v="hill" />
		<tag k="place" v="locality" />
		<tag k="ssr:stedsnr" v="861161" />
	</node>
	<node id="-309746" lat="62.4679750044" lon="10.8576222195">
		<tag k="fixme" v="consider natural=peak for the most distinct mountains in the district" />
		<tag k="name" v="Sæteråsen" />
		<tag k="natural" v="hill" />
		<tag k="place" v="locality" />
		<tag k="ssr:stedsnr" v="861063" />
	</node>
	<node id="-309739" lat="62.3851583338" lon="10.8499833389">
		<tag k="name" v="Gruvåsen" />
		<tag k="natural" v="hill" />
		<tag k="place" v="locality" />
		<tag k="ssr:stedsnr" v="844721" />
	</node>
	<node id="-309738" lat="62.4689916634" lon="11.0113416687">
		<tag k="name" v="Holle" />
		<tag k="natural" v="valley" />
		<tag k="place" v="locality" />
		<tag k="ssr:stedsnr" v="844705" />
	</node>
	<node id="-309728" lat="62.4397555519" lon="10.8034333398">
		<tag k="name" v="Storkåssletta" />
		<tag k="place" v="locality" />
		<tag k="ssr:stedsnr" v="843607" />
	</node>
	<node id="-309726" lat="62.3637583307" lon="11.012547231">
		<tag k="name" v="Djupdalan" />
		<tag k="natural" v="valley" />
		<tag k="place" v="locality" />
		<tag k="ssr:stedsnr" v="843304" />
	</node>
	<node id="-309724" lat="62.4481166668" lon="11.0295194489">
		<tag k="name" v="Stenkletten" />
		<tag k="natural" v="hill" />
		<tag k="place" v="locality" />
		<tag k="ssr:stedsnr" v="843163" />
	</node>
	<node id="-309719" lat="62.4154083334" lon="10.7763166718">
		<tag k="fixme" v="consider natural=peak for the most distinct mountains in the district" />
		<tag k="name" v="Sjusjøåsen" />
		<tag k="natural" v="hill" />
		<tag k="place" v="locality" />
		<tag k="ssr:stedsnr" v="841271" />
	</node>
	<node id="-309712" lat="62.3976138872" lon="10.6886305594">
		<tag k="name" v="Skarvdalsmoan" />
		<tag k="place" v="locality" />
		<tag k="ssr:stedsnr" v="841010" />
	</node>
	<node id="-309700" lat="62.3215416699" lon="11.3745805551">
		<tag k="name" v="Galådalen" />
		<tag k="natural" v="valley" />
		<tag k="place" v="locality" />
		<tag k="ssr:stedsnr" v="800446" />
	</node>
	<node id="-309698" lat="62.4082694433" lon="10.6576777754">
		<tag k="fixme" v="consider natural=peak for the most distinct mountains in the district" />
		<tag k="name" v="Svartåsen" />
		<tag k="natural" v="hill" />
		<tag k="place" v="locality" />
		<tag k="ssr:stedsnr" v="922766" />
	</node>
	<node id="-309696" lat="62.271833329" lon="11.2245277846">
		<tag k="name" v="Østre Stortjønnhøgda" />
		<tag k="natural" v="hill" />
		<tag k="place" v="locality" />
		<tag k="ssr:stedsnr" v="922438" />
	</node>
	<node id="-309695" lat="62.2820138884" lon="11.2293499999">
		<tag k="loc_name" v="Koiehøa" />
		<tag k="name" v="Kojehøgda" />
		<tag k="natural" v="hill" />
		<tag k="place" v="locality" />
		<tag k="ssr:stedsnr" v="922434" />
	</node>
	<node id="-309694" lat="62.3743916701" lon="11.3262444389">
		<tag k="name" v="Sigarbekkhøgda" />
		<tag k="natural" v="hill" />
		<tag k="place" v="locality" />
		<tag k="ssr:stedsnr" v="922394" />
	</node>
	<node id="-309692" lat="62.2661711142" lon="11.0395827029">
		<tag k="fixme" v="consider natural=peak for the most distinct mountains in the district" />
		<tag k="name" v="Blåkletten" />
		<tag k="natural" v="hill" />
		<tag k="place" v="locality" />
		<tag k="ssr:stedsnr" v="922318" />
	</node>
	<node id="-309677" lat="62.5424166706" lon="10.8025249945">
		<tag k="alt_name" v="Skjeret, s" />
		<tag k="fixme" v="consider natural=peak for the most distinct mountains in the district" />
		<tag k="name" v="Søndre Skjeret" />
		<tag k="natural" v="hill" />
		<tag k="place" v="locality" />
		<tag k="ssr:stedsnr" v="921856" />
	</node>
	<node id="-309672" lat="62.2221583324" lon="11.3511500003">
		<tag k="name" v="Svartdalshøgda" />
		<tag k="natural" v="hill" />
		<tag k="place" v="locality" />
		<tag k="ssr:stedsnr" v="921494" />
	</node>
	<node id="-309668" lat="62.3552527769" lon="11.1079694443">
		<tag k="alt_name" v="Bjørsjøkletten, vesle;Bjørsjøklettan" />
		<tag k="fixme" v="consider natural=peak for the most distinct mountains in the district" />
		<tag k="name" v="Vesle Bjørsjøkletten" />
		<tag k="natural" v="hill" />
		<tag k="place" v="locality" />
		<tag k="ssr:stedsnr" v="921224" />
	</node>
	<node id="-309666" lat="62.4612666638" lon="10.774522219">
		<tag k="name" v="Storrya" />
		<tag k="place" v="locality" />
		<tag k="ssr:stedsnr" v="781516" />
	</node>
	<node id="-309662" lat="62.4113250018" lon="10.6681083336">
		<tag k="name" v="Fugllekåsen" />
		<tag k="natural" v="hill" />
		<tag k="place" v="locality" />
		<tag k="ssr:stedsnr" v="780005" />
	</node>
	<node id="-309660" lat="62.3896638913" lon="11.1972944534">
		<tag k="fixme" v="consider natural=peak for the most distinct mountains in the district" />
		<tag k="name" v="Harrbekkåsen" />
		<tag k="natural" v="hill" />
		<tag k="place" v="locality" />
		<tag k="ssr:stedsnr" v="740165" />
	</node>
	<node id="-309652" lat="62.5264527741" lon="10.756705547">
		<tag k="name" v="Smådalan" />
		<tag k="natural" v="valley" />
		<tag k="place" v="locality" />
		<tag k="ssr:stedsnr" v="739855" />
	</node>
	<node id="-309650" lat="62.5245888872" lon="10.8311999997">
		<tag k="name" v="Ørvilldalen" />
		<tag k="natural" v="valley" />
		<tag k="place" v="locality" />
		<tag k="ssr:stedsnr" v="739853" />
	</node>
	<node id="-309642" lat="62.3185555573" lon="11.1586111188">
		<tag k="fixme" v="consider natural=peak for the most distinct mountains in the district" />
		<tag k="name" v="Vanghøa" />
		<tag k="natural" v="hill" />
		<tag k="place" v="locality" />
		<tag k="ssr:stedsnr" v="739262" />
	</node>
	<node id="-309640" lat="62.1601972196" lon="11.6434277861">
		<tag k="name" v="Rompa" />
		<tag k="natural" v="valley" />
		<tag k="place" v="locality" />
		<tag k="ssr:stedsnr" v="904901" />
	</node>
	<node id="-309634" lat="62.4869111156" lon="10.7932249916">
		<tag k="alt_name" v="Oustutrøkvannberget" />
		<tag k="name" v="Austutrøkvannberget" />
		<tag k="natural" v="hill" />
		<tag k="place" v="locality" />
		<tag k="ssr:stedsnr" v="904976" />
	</node>
	<node id="-309633" lat="62.4934000019" lon="10.8191388858">
		<tag k="name" v="Norderåsen" />
		<tag k="natural" v="hill" />
		<tag k="place" v="locality" />
		<tag k="ssr:stedsnr" v="904972" />
	</node>
	<node id="-309627" lat="62.4102222237" lon="10.9579027714">
		<tag k="name" v="Finnåsen" />
		<tag k="natural" v="hill" />
		<tag k="place" v="locality" />
		<tag k="ssr:stedsnr" v="904832" />
	</node>
	<node id="-309620" lat="62.2118305576" lon="11.4951277781">
		<tag k="name" v="Pikegga" />
		<tag k="natural" v="hill" />
		<tag k="place" v="locality" />
		<tag k="ssr:stedsnr" v="904779" />
	</node>
	<node id="-309618" lat="62.2872194472" lon="11.2407527829">
		<tag k="name" v="Ytre Kojehøgda" />
		<tag k="natural" v="hill" />
		<tag k="place" v="locality" />
		<tag k="ssr:stedsnr" v="904643" />
	</node>
	<node id="-309617" lat="62.4129388915" lon="10.827408334">
		<tag k="name" v="Blåbærlia" />
		<tag k="natural" v="slope" />
		<tag k="place" v="locality" />
		<tag k="ssr:stedsnr" v="904641" />
	</node>
	<node id="-309616" lat="62.4162111096" lon="10.8040833287">
		<tag k="name" v="Kvennhustomta" />
		<tag k="place" v="locality" />
		<tag k="ssr:stedsnr" v="904635" />
	</node>
	<node id="-309610" lat="62.3881222264" lon="10.8739277779">
		<tag k="name" v="Kvenndalshamran" />
		<tag k="natural" v="hill" />
		<tag k="place" v="locality" />
		<tag k="ssr:stedsnr" v="904695" />
	</node>
	<node id="-309609" lat="62.3786249968" lon="10.8525833281">
		<tag k="name" v="Tjønnvanggrubba" />
		<tag k="natural" v="valley" />
		<tag k="place" v="locality" />
		<tag k="ssr:stedsnr" v="904692" />
	</node>
	<node id="-309605" lat="62.3665638869" lon="11.1429277814">
		<tag k="name" v="Gjøddtjønnhaugan" />
		<tag k="natural" v="hill" />
		<tag k="place" v="locality" />
		<tag k="ssr:stedsnr" v="904443" />
	</node>
	<node id="-309596" lat="62.4336222191" lon="10.6980944348">
		<tag k="name" v="Veslevangåsen" />
		<tag k="natural" v="hill" />
		<tag k="place" v="locality" />
		<tag k="ssr:stedsnr" v="904335" />
	</node>
	<node id="-309589" lat="62.4153527745" lon="11.1077583356">
		<tag k="name" v="Rybakken" />
		<tag k="natural" v="slope" />
		<tag k="place" v="locality" />
		<tag k="ssr:stedsnr" v="903546" />
	</node>
	<node id="-309586" lat="62.2183999975" lon="11.0676416705">
		<tag k="name" v="Heljesegga" />
		<tag k="natural" v="hill" />
		<tag k="place" v="locality" />
		<tag k="ssr:stedsnr" v="902135" />
	</node>
	<node id="-309585" lat="62.4008555535" lon="10.719916667">
		<tag k="name" v="Lonsjølimoan" />
		<tag k="place" v="locality" />
		<tag k="ssr:stedsnr" v="901247" />
	</node>
	<node id="-309584" lat="62.3848666643" lon="10.8222833379">
		<tag k="name" v="Stenenglia" />
		<tag k="natural" v="slope" />
		<tag k="place" v="locality" />
		<tag k="ssr:stedsnr" v="901200" />
	</node>
	<node id="-309583" lat="62.4050750006" lon="10.6751777721">
		<tag k="name" v="Skarvdalen" />
		<tag k="natural" v="valley" />
		<tag k="place" v="locality" />
		<tag k="ssr:stedsnr" v="901002" />
	</node>
	<node id="-309582" lat="62.3894222214" lon="10.9247194411">
		<tag k="name" v="Storbrentegga" />
		<tag k="natural" v="hill" />
		<tag k="place" v="locality" />
		<tag k="ssr:stedsnr" v="722806" />
	</node>
	<node id="-309581" lat="62.4201305564" lon="11.1091166659">
		<tag k="name" v="Yter Bjørmoen" />
		<tag k="place" v="locality" />
		<tag k="ssr:stedsnr" v="722556" />
	</node>
	<node id="-309580" lat="62.4208722192" lon="10.7778361171">
		<tag k="name" v="Jordvangbakkan" />
		<tag k="natural" v="slope" />
		<tag k="place" v="locality" />
		<tag k="ssr:stedsnr" v="722372" />
	</node>
	<node id="-309574" lat="62.1991027757" lon="11.4248944476">
		<tag k="name" v="Kjøllbakken" />
		<tag k="natural" v="slope" />
		<tag k="place" v="locality" />
		<tag k="ssr:stedsnr" v="721838" />
	</node>
	<node id="-309573" lat="62.4398972187" lon="10.8635777734">
		<tag k="fixme" v="consider natural=peak for the most distinct mountains in the district" />
		<tag k="name" v="Gruvvola" />
		<tag k="natural" v="hill" />
		<tag k="place" v="locality" />
		<tag k="ssr:stedsnr" v="721835" />
	</node>
	<node id="-309567" lat="62.4350777766" lon="10.79428056">
		<tag k="fixme" v="consider natural=peak for the most distinct mountains in the district" />
		<tag k="name" v="Gjethushåmmåren" />
		<tag k="natural" v="hill" />
		<tag k="place" v="locality" />
		<tag k="ssr:stedsnr" v="721612" />
	</node>
	<node id="-309547" lat="62.5233972255" lon="10.6996916651">
		<tag k="fixme" v="consider natural=peak for the most distinct mountains in the district" />
		<tag k="name" v="Bjørnåsfjellet" />
		<tag k="natural" v="hill" />
		<tag k="place" v="locality" />
		<tag k="ssr:stedsnr" v="679061" />
	</node>
	<node id="-309544" lat="62.5380194453" lon="10.5852250078">
		<tag k="alt_name" v="Rundhøgda" />
		<tag k="name" v="Rundhøa" />
		<tag k="natural" v="hill" />
		<tag k="place" v="locality" />
		<tag k="ssr:stedsnr" v="679054" />
	</node>
	<node id="-309543" lat="62.4627527765" lon="10.6459805616">
		<tag k="name" v="Storhaugroa" />
		<tag k="natural" v="valley" />
		<tag k="place" v="locality" />
		<tag k="ssr:stedsnr" v="678853" />
	</node>
	<node id="-309542" lat="62.153194447" lon="11.497424998">
		<tag k="name" v="Sandnesrohøgda" />
		<tag k="natural" v="hill" />
		<tag k="place" v="locality" />
		<tag k="ssr:stedsnr" v="678411" />
	</node>
	<node id="-309540" lat="62.461988885" lon="10.8697305645">
		<tag k="name" v="Smådalene" />
		<tag k="natural" v="valley" />
		<tag k="place" v="locality" />
		<tag k="ssr:stedsnr" v="661930" />
	</node>
	<node id="-309532" lat="62.4237805555" lon="10.7726361086">
		<tag k="name" v="Veslerya" />
		<tag k="place" v="locality" />
		<tag k="ssr:stedsnr" v="661338" />
	</node>
	<node id="-309528" lat="62.4366888882" lon="10.7561999914">
		<tag k="name" v="Ulvåsrya" />
		<tag k="place" v="locality" />
		<tag k="ssr:stedsnr" v="661313" />
	</node>
	<node id="-309526" lat="62.3607472234" lon="10.9680972271">
		<tag k="name" v="Løvrøstan" />
		<tag k="natural" v="slope" />
		<tag k="place" v="locality" />
		<tag k="ssr:stedsnr" v="661305" />
	</node>
	<node id="-309522" lat="62.2346305536" lon="11.0814250066">
		<tag k="name" v="Stabbstøet" />
		<tag k="natural" v="hill" />
		<tag k="place" v="locality" />
		<tag k="ssr:stedsnr" v="661286" />
	</node>
	<node id="-309518" lat="62.4543861129" lon="10.9170611156">
		<tag k="name" v="Øster Tallsjøhaugen" />
		<tag k="natural" v="hill" />
		<tag k="place" v="locality" />
		<tag k="ssr:stedsnr" v="660868" />
	</node>
	<node id="-309516" lat="62.4268333346" lon="11.1987861018">
		<tag k="name" v="Torvhaugen" />
		<tag k="natural" v="hill" />
		<tag k="place" v="locality" />
		<tag k="ssr:stedsnr" v="660518" />
	</node>
	<node id="-309513" lat="62.4755000035" lon="10.9811583301">
		<tag k="alt_name" v="Åssåtjønnegga" />
		<tag k="name" v="Ossortjønnegga" />
		<tag k="natural" v="hill" />
		<tag k="place" v="locality" />
		<tag k="ssr:stedsnr" v="660060" />
	</node>
	<node id="-309509" lat="62.4713361068" lon="10.8621000037">
		<tag k="name" v="Hundsjørabben" />
		<tag k="natural" v="hill" />
		<tag k="place" v="locality" />
		<tag k="ssr:stedsnr" v="722934" />
	</node>
	<node id="-309501" lat="62.2675194459" lon="11.4202500039">
		<tag k="name" v="Stenrabben" />
		<tag k="natural" v="hill" />
		<tag k="place" v="locality" />
		<tag k="ssr:stedsnr" v="722842" />
	</node>
	<node id="-309495" lat="62.3783138864" lon="11.2210500058">
		<tag k="name" v="Lamslettåsen" />
		<tag k="natural" v="hill" />
		<tag k="place" v="locality" />
		<tag k="ssr:stedsnr" v="722737" />
	</node>
	<node id="-309490" lat="62.3228833314" lon="11.3199722216">
		<tag k="name" v="Talet" />
		<tag k="place" v="locality" />
		<tag k="ssr:stedsnr" v="722670" />
	</node>
	<node id="-309487" lat="62.4108277738" lon="11.1599361173">
		<tag k="name" v="Lundrabben" />
		<tag k="place" v="locality" />
		<tag k="ssr:stedsnr" v="722603" />
	</node>
	<node id="-309486" lat="62.3585027756" lon="10.8980527823">
		<tag k="name" v="Nessvingen" />
		<tag k="place" v="locality" />
		<tag k="ssr:stedsnr" v="722790" />
	</node>
	<node id="-309485" lat="62.4368555579" lon="11.1128583295">
		<tag k="name" v="Hummelgrubba" />
		<tag k="place" v="locality" />
		<tag k="ssr:stedsnr" v="722545" />
	</node>
	<node id="-309483" lat="62.3933166624" lon="11.051561115">
		<tag k="name" v="Hyllan" />
		<tag k="place" v="locality" />
		<tag k="ssr:stedsnr" v="722346" />
	</node>
	<node id="-309481" lat="62.3670055534" lon="10.9708722274">
		<tag k="name" v="Trihaugan" />
		<tag k="natural" v="hill" />
		<tag k="place" v="locality" />
		<tag k="ssr:stedsnr" v="722333" />
	</node>
	<node id="-309475" lat="62.4065500004" lon="11.0874916592">
		<tag k="name" v="Knausan" />
		<tag k="natural" v="hill" />
		<tag k="place" v="locality" />
		<tag k="ssr:stedsnr" v="722291" />
	</node>
	<node id="-309469" lat="62.4095111115" lon="10.9701611074">
		<tag k="name" v="Maurtuvbakken" />
		<tag k="natural" v="hill" />
		<tag k="place" v="locality" />
		<tag k="ssr:stedsnr" v="722270" />
	</node>
	<node id="-309467" lat="62.1593333295" lon="11.3582305471">
		<tag k="fixme" v="consider natural=peak for the most distinct mountains in the district" />
		<tag k="name" v="Elgspiggen" />
		<tag k="natural" v="hill" />
		<tag k="place" v="locality" />
		<tag k="ssr:stedsnr" v="617410" />
	</node>
	<node id="-309464" lat="62.1978166662" lon="11.4198111019">
		<tag k="name" v="Tangen" />
		<tag k="natural" v="slope" />
		<tag k="place" v="locality" />
		<tag k="ssr:stedsnr" v="721842" />
	</node>
	<node id="-309462" lat="62.1940805541" lon="11.4065111091">
		<tag k="name" v="Yter Rubakken" />
		<tag k="natural" v="slope" />
		<tag k="place" v="locality" />
		<tag k="ssr:stedsnr" v="721740" />
	</node>
	<node id="-309460" lat="62.3129583374" lon="11.3546027852">
		<tag k="name" v="Skårdalen" />
		<tag k="natural" v="valley" />
		<tag k="place" v="locality" />
		<tag k="ssr:stedsnr" v="721643" />
	</node>
	<node id="-309458" lat="62.3418166657" lon="11.2654166623">
		<tag k="name" v="Bjønnbekkåsen" />
		<tag k="natural" v="hill" />
		<tag k="place" v="locality" />
		<tag k="ssr:stedsnr" v="721629" />
	</node>
	<node id="-309452" lat="62.4748694428" lon="10.7967638962">
		<tag k="name" v="Hogget" />
		<tag k="natural" v="valley" />
		<tag k="place" v="locality" />
		<tag k="ssr:stedsnr" v="721523" />
	</node>
	<node id="-309450" lat="62.3537555587" lon="11.062905556">
		<tag k="name" v="Kalvkippegga" />
		<tag k="natural" v="hill" />
		<tag k="place" v="locality" />
		<tag k="ssr:stedsnr" v="721320" />
	</node>
	<node id="-309442" lat="62.4636138881" lon="10.9747194519">
		<tag k="fixme" v="consider natural=peak for the most distinct mountains in the district" />
		<tag k="name" v="Skjetdikåsen" />
		<tag k="natural" v="hill" />
		<tag k="place" v="locality" />
		<tag k="ssr:stedsnr" v="721037" />
	</node>
	<node id="-309439" lat="62.4858972206" lon="10.8347833423">
		<tag k="name" v="Kåsåsen" />
		<tag k="natural" v="hill" />
		<tag k="place" v="locality" />
		<tag k="ssr:stedsnr" v="612958" />
	</node>
	<node id="-309435" lat="62.3983694409" lon="10.7440694432">
		<tag k="fixme" v="consider natural=peak for the most distinct mountains in the district" />
		<tag k="name" v="Lonsjøliberget" />
		<tag k="natural" v="hill" />
		<tag k="place" v="locality" />
		<tag k="ssr:stedsnr" v="719268" />
	</node>
	<node id="-309434" lat="62.4154277779" lon="10.7290861069">
		<tag k="name" v="Langsæterlia" />
		<tag k="natural" v="slope" />
		<tag k="place" v="locality" />
		<tag k="ssr:stedsnr" v="719263" />
	</node>
	<node id="-309430" lat="62.3781111111" lon="10.9092416654">
		<tag k="name" v="Seksmannsmoan" />
		<tag k="place" v="locality" />
		<tag k="ssr:stedsnr" v="600775" />
	</node>
	<node id="-309429" lat="62.3907666686" lon="10.9434611039">
		<tag k="fixme" v="consider natural=peak for the most distinct mountains in the district" />
		<tag k="name" v="Høyåsen" />
		<tag k="natural" v="hill" />
		<tag k="place" v="locality" />
		<tag k="ssr:stedsnr" v="600769" />
	</node>
	<node id="-309426" lat="62.2697055517" lon="11.4225527745">
		<tag k="name" v="Håmmåren" />
		<tag k="natural" v="hill" />
		<tag k="place" v="locality" />
		<tag k="ssr:stedsnr" v="600823" />
	</node>
	<node id="-309423" lat="62.4172833365" lon="10.918425007">
		<tag k="name" v="Rybakken" />
		<tag k="natural" v="slope" />
		<tag k="place" v="locality" />
		<tag k="ssr:stedsnr" v="600812" />
	</node>
	<node id="-309422" lat="62.428233337" lon="10.914374994">
		<tag k="name" v="Øver Kølbotnan" />
		<tag k="place" v="locality" />
		<tag k="ssr:stedsnr" v="600811" />
	</node>
	<node id="-309418" lat="62.3901055523" lon="11.189094437">
		<tag k="name" v="Stenrya" />
		<tag k="place" v="locality" />
		<tag k="ssr:stedsnr" v="600430" />
	</node>
	<node id="-309411" lat="62.4296583352" lon="10.9773555512">
		<tag k="name" v="Kvennhusbakkan" />
		<tag k="natural" v="slope" />
		<tag k="place" v="locality" />
		<tag k="ssr:stedsnr" v="600186" />
	</node>
	<node id="-309408" lat="62.4650583366" lon="10.7866999926">
		<tag k="name" v="Bukta" />
		<tag k="place" v="locality" />
		<tag k="ssr:stedsnr" v="599553" />
	</node>
	<node id="-309397" lat="62.3076861094" lon="11.3068666752">
		<tag k="name" v="Volknollen" />
		<tag k="natural" v="hill" />
		<tag k="place" v="locality" />
		<tag k="ssr:stedsnr" v="557471" />
	</node>
	<node id="-309393" lat="62.4520805595" lon="10.8072027831">
		<tag k="alt_name" v="Litlvola;Veslvola" />
		<tag k="fixme" v="consider natural=peak for the most distinct mountains in the district" />
		<tag k="name" v="Veslevola" />
		<tag k="natural" v="hill" />
		<tag k="place" v="locality" />
		<tag k="ssr:stedsnr" v="557065" />
	</node>
	<node id="-309392" lat="62.5123972257" lon="10.4874472148">
		<tag k="name" v="Trolltjønndalen" />
		<tag k="natural" v="valley" />
		<tag k="place" v="locality" />
		<tag k="ssr:stedsnr" v="557061" />
	</node>
	<node id="-309387" lat="62.1702749977" lon="11.434741673">
		<tag k="name" v="Brattbakken" />
		<tag k="natural" v="slope" />
		<tag k="place" v="locality" />
		<tag k="ssr:stedsnr" v="540760" />
	</node>
	<node id="-309386" lat="62.1765833291" lon="11.441783327">
		<tag k="name" v="Nordre Rundhaugen" />
		<tag k="natural" v="hill" />
		<tag k="place" v="locality" />
		<tag k="ssr:stedsnr" v="540756" />
	</node>
	<node id="-309380" lat="62.4138111147" lon="11.0694305629">
		<tag k="name" v="Rokkmyrmoen" />
		<tag k="place" v="locality" />
		<tag k="ssr:stedsnr" v="540207" />
	</node>
	<node id="-309371" lat="62.4401444473" lon="10.8378249988">
		<tag k="name" v="Grønvoldalen" />
		<tag k="natural" v="valley" />
		<tag k="place" v="locality" />
		<tag k="ssr:stedsnr" v="539608" />
	</node>
	<node id="-309366" lat="62.3806805566" lon="11.1178861064">
		<tag k="name" v="Sjøhaugen" />
		<tag k="natural" v="hill" />
		<tag k="place" v="locality" />
		<tag k="ssr:stedsnr" v="539419" />
	</node>
	<node id="-309365" lat="62.3518666689" lon="11.1316972144">
		<tag k="fixme" v="consider natural=peak for the most distinct mountains in the district" />
		<tag k="name" v="Grånhåmmåren" />
		<tag k="natural" v="hill" />
		<tag k="place" v="locality" />
		<tag k="ssr:stedsnr" v="539412" />
	</node>
	<node id="-309362" lat="62.4701916691" lon="10.984272218">
		<tag k="name" v="Letjønnegga" />
		<tag k="natural" v="hill" />
		<tag k="place" v="locality" />
		<tag k="ssr:stedsnr" v="539042" />
	</node>
	<node id="-309361" lat="62.4802666697" lon="10.9800166669">
		<tag k="name" v="Buhaugen" />
		<tag k="natural" v="hill" />
		<tag k="place" v="locality" />
		<tag k="ssr:stedsnr" v="539035" />
	</node>
	<node id="-309360" lat="62.4882277766" lon="10.9939166612">
		<tag k="name" v="Naustegga" />
		<tag k="natural" v="hill" />
		<tag k="place" v="locality" />
		<tag k="ssr:stedsnr" v="539030" />
	</node>
	<node id="-309359" lat="62.4450416676" lon="10.6290416623">
		<tag k="name" v="Gubbengdalen" />
		<tag k="natural" v="valley" />
		<tag k="place" v="locality" />
		<tag k="ssr:stedsnr" v="537404" />
	</node>
	<node id="-309358" lat="62.3981944476" lon="10.680061104">
		<tag k="name" v="Djupskarvdalen" />
		<tag k="natural" v="valley" />
		<tag k="place" v="locality" />
		<tag k="ssr:stedsnr" v="537009" />
	</node>
	<node id="-309357" lat="62.451861115" lon="10.9746000034">
		<tag k="alt_name" v="Øver-Skaret" />
		<tag k="name" v="Skardet" />
		<tag k="natural" v="valley" />
		<tag k="place" v="locality" />
		<tag k="ssr:stedsnr" v="510664" />
	</node>
	<node id="-309353" lat="62.2689527818" lon="11.2593277725">
		<tag k="name" v="Lettingskvolvet" />
		<tag k="natural" v="slope" />
		<tag k="place" v="locality" />
		<tag k="ssr:stedsnr" v="497458" />
	</node>
	<node id="-309348" lat="62.5681000016" lon="10.7392555549">
		<tag k="name" v="Bratthødalen" />
		<tag k="natural" v="valley" />
		<tag k="place" v="locality" />
		<tag k="ssr:stedsnr" v="497127" />
	</node>
	<node id="-309347" lat="62.4356277781" lon="10.793480558">
		<tag k="alt_name" v="Treeggen" />
		<tag k="fixme" v="consider natural=peak for the most distinct mountains in the district" />
		<tag k="name" v="Trieggan" />
		<tag k="natural" v="hill" />
		<tag k="place" v="locality" />
		<tag k="ssr:stedsnr" v="497085" />
	</node>
	<node id="-309346" lat="62.444636474" lon="11.0459901436">
		<tag k="alt_name" v="Tolgekletten" />
		<tag k="fixme" v="multiple name tags, choose one and add the other to alt_name; consider natural=peak for the most distinct mountains in the district" />
		<tag k="name" v="Bjørkkletten;Toljekletten" />
		<tag k="natural" v="hill" />
		<tag k="place" v="locality" />
		<tag k="ssr:stedsnr" v="497081" />
	</node>
	<node id="-309345" lat="62.4770805582" lon="10.6416277719">
		<tag k="name" v="Klimpen" />
		<tag k="natural" v="hill" />
		<tag k="place" v="locality" />
		<tag k="ssr:stedsnr" v="496856" />
	</node>
	<node id="-309322" lat="62.4420027738" lon="10.789269436">
		<tag k="name" v="Gjeldalen" />
		<tag k="natural" v="valley" />
		<tag k="place" v="locality" />
		<tag k="ssr:stedsnr" v="679100" />
	</node>
	<node id="-309315" lat="62.5203750015" lon="10.8761333385">
		<tag k="loc_name" v="Farrkjerringhøa" />
		<tag k="name" v="Færrkjerringhøa" />
		<tag k="natural" v="hill" />
		<tag k="place" v="locality" />
		<tag k="ssr:stedsnr" v="678750" />
	</node>
	<node id="-309310" lat="62.229708332" lon="11.4707027805">
		<tag k="name" v="Øversjødalen" />
		<tag k="natural" v="valley" />
		<tag k="place" v="locality" />
		<tag k="ssr:stedsnr" v="678482" />
	</node>
	<node id="-309309" lat="62.2193027737" lon="11.0207000024">
		<tag k="alt_name" v="Kvitkua" />
		<tag k="fixme" v="consider natural=peak for the most distinct mountains in the district" />
		<tag k="name" v="Kvitkuven" />
		<tag k="natural" v="hill" />
		<tag k="place" v="locality" />
		<tag k="ssr:stedsnr" v="678216" />
	</node>
	<node id="-309307" lat="62.1731138863" lon="11.432525009">
		<tag k="name" v="Granegga" />
		<tag k="natural" v="hill" />
		<tag k="place" v="locality" />
		<tag k="ssr:stedsnr" v="479773" />
	</node>
	<node id="-309304" lat="62.375583334" lon="10.8784833247">
		<tag k="name" v="Såttålia" />
		<tag k="natural" v="slope" />
		<tag k="place" v="locality" />
		<tag k="ssr:stedsnr" v="479717" />
	</node>
	<node id="-309303" lat="62.3814805587" lon="11.2306694479">
		<tag k="name" v="Gråbensundegga" />
		<tag k="natural" v="hill" />
		<tag k="place" v="locality" />
		<tag k="ssr:stedsnr" v="479709" />
	</node>
	<node id="-309299" lat="62.2948999971" lon="11.4263583325">
		<tag k="name" v="Hauksaksrabben" />
		<tag k="natural" v="hill" />
		<tag k="place" v="locality" />
		<tag k="ssr:stedsnr" v="479822" />
	</node>
	<node id="-309298" lat="62.2929666632" lon="11.4291833246">
		<tag k="name" v="Langryan" />
		<tag k="place" v="locality" />
		<tag k="ssr:stedsnr" v="479821" />
	</node>
	<node id="-309296" lat="62.2321138929" lon="11.4597416622">
		<tag k="fixme" v="consider natural=peak for the most distinct mountains in the district" />
		<tag k="name" v="Kuvstongåsen" />
		<tag k="natural" v="hill" />
		<tag k="place" v="locality" />
		<tag k="ssr:stedsnr" v="479808" />
	</node>
	<node id="-309293" lat="62.3551055548" lon="11.1800555486">
		<tag k="name" v="Rognlihaugan" />
		<tag k="natural" v="hill" />
		<tag k="place" v="locality" />
		<tag k="ssr:stedsnr" v="479461" />
	</node>
	<node id="-309290" lat="62.2882500045" lon="11.0502166619">
		<tag k="name" v="Hollet" />
		<tag k="place" v="locality" />
		<tag k="ssr:stedsnr" v="479305" />
	</node>
	<node id="-309289" lat="62.1957416627" lon="11.47347223">
		<tag k="name" v="Skomakerdalen" />
		<tag k="natural" v="valley" />
		<tag k="place" v="locality" />
		<tag k="ssr:stedsnr" v="478988" />
	</node>
	<node id="-309284" lat="62.441963888" lon="10.7851972216">
		<tag k="name" v="Fisktjønnbrøttet" />
		<tag k="natural" v="slope" />
		<tag k="place" v="locality" />
		<tag k="ssr:stedsnr" v="478616" />
	</node>
	<node id="-309272" lat="62.1957472263" lon="11.4385305612">
		<tag k="name" v="Bjønnbakken" />
		<tag k="natural" v="slope" />
		<tag k="place" v="locality" />
		<tag k="ssr:stedsnr" v="661852" />
	</node>
	<node id="-309269" lat="62.4291861099" lon="10.9069861174">
		<tag k="name" v="Yter Kølbotnan" />
		<tag k="place" v="locality" />
		<tag k="ssr:stedsnr" v="661805" />
	</node>
	<node id="-309267" lat="62.4321833353" lon="10.9061916644">
		<tag k="name" v="Midthaugen" />
		<tag k="natural" v="hill" />
		<tag k="place" v="locality" />
		<tag k="ssr:stedsnr" v="661792" />
	</node>
	<node id="-309266" lat="62.2295722262" lon="11.4752750027">
		<tag k="name" v="Dalhafella" />
		<tag k="place" v="locality" />
		<tag k="ssr:stedsnr" v="661790" />
	</node>
	<node id="-309265" lat="62.2283138905" lon="11.4952027706">
		<tag k="name" v="Brattbakken" />
		<tag k="natural" v="slope" />
		<tag k="place" v="locality" />
		<tag k="ssr:stedsnr" v="661785" />
	</node>
	<node id="-309259" lat="62.1818083356" lon="11.4004722271">
		<tag k="name" v="Orvdalstalet" />
		<tag k="natural" v="slope" />
		<tag k="place" v="locality" />
		<tag k="ssr:stedsnr" v="661758" />
	</node>
	<node id="-309257" lat="62.2585249979" lon="11.465774995">
		<tag k="name" v="Kroken" />
		<tag k="place" v="locality" />
		<tag k="ssr:stedsnr" v="661740" />
	</node>
	<node id="-309256" lat="62.374944447" lon="10.8627888841">
		<tag k="name" v="Bjørkhaugen" />
		<tag k="natural" v="hill" />
		<tag k="place" v="locality" />
		<tag k="ssr:stedsnr" v="661694" />
	</node>
	<node id="-309255" lat="62.4051944453" lon="10.8595666687">
		<tag k="name" v="Karidalen" />
		<tag k="natural" v="valley" />
		<tag k="place" v="locality" />
		<tag k="ssr:stedsnr" v="661642" />
	</node>
	<node id="-309253" lat="62.3061499975" lon="11.3218583337">
		<tag k="name" v="Klimpen" />
		<tag k="natural" v="hill" />
		<tag k="place" v="locality" />
		<tag k="ssr:stedsnr" v="661614" />
	</node>
	<node id="-309252" lat="62.3424916656" lon="11.3113305567">
		<tag k="name" v="Holldalen" />
		<tag k="natural" v="valley" />
		<tag k="place" v="locality" />
		<tag k="ssr:stedsnr" v="661607" />
	</node>
</osm>
