<?xml version="1.0" encoding="UTF-8"?>
<osm version="0.6" generator="osmapis">
	<node lat="62.40898888846826" lon="10.998766658992494" id="-21717">
		<tag k="name" v="Tolga" />
		<tag k="place" v="village" />
		<tag k="ssr:stedsnr" v="11131" />
	</node>
	<node lat="62.40237222533294" lon="11.128991674913545" id="-21718">
		<tag k="alt_name" v="Dølgardsvangen" />
		<tag k="historic" v="shieling" />
		<tag k="name" v="Dølvollen" />
		<tag k="place" v="isolated_dwelling" />
		<tag k="ssr:stedsnr" v="11137" />
	</node>
	<node lat="62.42114244511991" lon="11.076965315946675" id="-21719">
		<tag k="fixme" v="consider place=hamlet" />
		<tag k="name" v="Erlia" />
		<tag k="place" v="farm" />
		<tag k="ssr:stedsnr" v="11080" />
	</node>
	<node lat="62.36243574039938" lon="11.210368684095345" id="-21723">
		<tag k="alt_name" v="Øyan" />
		<tag k="fixme" v="consider place=hamlet" />
		<tag k="name" v="Øya" />
		<tag k="place" v="farm" />
		<tag k="ssr:stedsnr" v="11189" />
	</node>
	<node lat="62.20926389016279" lon="11.466858327923582" id="-21725">
		<tag k="name" v="Lillemoen" />
		<tag k="place" v="farm" />
		<tag k="ssr:stedsnr" v="11480" />
	</node>
	<node lat="62.40828746681959" lon="10.698803210575413" id="-21726">
		<tag k="historic" v="shieling" />
		<tag k="name" v="Stortrøvollen" />
		<tag k="place" v="isolated_dwelling" />
		<tag k="ssr:stedsnr" v="11816" />
	</node>
	<node lat="62.44929953572021" lon="10.983066512621935" id="-21728">
		<tag k="historic" v="shieling" />
		<tag k="name" v="Pauran" />
		<tag k="place" v="isolated_dwelling" />
		<tag k="ssr:stedsnr" v="12074" />
	</node>
	<node lat="62.44410277726294" lon="11.005725005343017" id="-21730">
		<tag k="historic" v="shieling" />
		<tag k="name" v="Nessvollen" />
		<tag k="place" v="isolated_dwelling" />
		<tag k="ssr:stedsnr" v="12087" />
	</node>
	<node lat="62.427958330069764" lon="10.883169434776761" id="-21731">
		<tag k="name" v="Dalseng" />
		<tag k="place" v="farm" />
		<tag k="ssr:stedsnr" v="12109" />
	</node>
	<node lat="62.42504452221622" lon="10.97805250038357" id="-21732">
		<tag k="fixme" v="consider place=hamlet" />
		<tag k="name" v="Moen" />
		<tag k="place" v="farm" />
		<tag k="ssr:stedsnr" v="12110" />
	</node>
	<node lat="62.43488611281405" lon="10.982980549758325" id="-21733">
		<tag k="alt_name" v="Leirvollen" />
		<tag k="name" v="Lervollen" />
		<tag k="place" v="isolated_dwelling" />
		<tag k="ssr:stedsnr" v="12119" />
	</node>
	<node lat="62.417163890973974" lon="10.979358335168904" id="-21742">
		<tag k="name" v="Flatgård" />
		<tag k="place" v="farm" />
		<tag k="ssr:stedsnr" v="236200" />
	</node>
	<node lat="62.41996111364543" lon="11.008447218022816" id="-21743">
		<tag k="name" v="Høgtun" />
		<tag k="place" v="farm" />
		<tag k="ssr:stedsnr" v="236201" />
	</node>
	<node lat="62.45232222460765" lon="10.983244452481681" id="-21744">
		<tag k="historic" v="shieling" />
		<tag k="name" v="Simavollen" />
		<tag k="place" v="isolated_dwelling" />
		<tag k="ssr:stedsnr" v="236161" />
	</node>
	<node lat="62.36272499609243" lon="11.196105550485646" id="-21752">
		<tag k="name" v="Ryen" />
		<tag k="place" v="farm" />
		<tag k="ssr:stedsnr" v="236449" />
	</node>
	<node lat="62.434669445480424" lon="10.816836120333706" id="-21755">
		<tag k="historic" v="shieling" />
		<tag k="name" v="Myrstadvollen" />
		<tag k="place" v="isolated_dwelling" />
		<tag k="ssr:stedsnr" v="236569" />
	</node>
	<node lat="62.38025833296105" lon="10.842580548609124" id="-21758">
		<tag k="historic" v="shieling" />
		<tag k="name" v="Åshaugvollen" />
		<tag k="place" v="isolated_dwelling" />
		<tag k="ssr:stedsnr" v="236689" />
	</node>
	<node lat="62.41513055690884" lon="10.864466662462872" id="-21760">
		<tag k="name" v="Eriksa" />
		<tag k="place" v="farm" />
		<tag k="ssr:stedsnr" v="236658" />
	</node>
	<node lat="62.41288945256224" lon="10.868138186960662" id="-21761">
		<tag k="fixme" v="consider place=hamlet" />
		<tag k="name" v="Fremmermoen" />
		<tag k="old_name" v="Fremmer Moen" />
		<tag k="place" v="farm" />
		<tag k="ssr:stedsnr" v="236661" />
	</node>
	<node lat="62.205286113470635" lon="11.457605553767273" id="-21776">
		<tag k="amenity" v="school" />
		<tag k="name" v="Åstun skole" />
		<tag k="ssr:stedsnr" v="237773" />
	</node>
	<node lat="62.417280552047174" lon="10.858363892935067" id="-21777">
		<tag k="alt_name" v="Ousta" />
		<tag k="name" v="Austa" />
		<tag k="place" v="locality" />
		<tag k="ssr:stedsnr" v="237837" />
	</node>
	<node lat="62.423347223549385" lon="10.753688881503775" id="-21792">
		<tag k="historic" v="shieling" />
		<tag k="name" v="Nordstadvollen" />
		<tag k="place" v="isolated_dwelling" />
		<tag k="ssr:stedsnr" v="55349" />
	</node>
	<node lat="62.4091027768515" lon="10.999066670787178" id="-21805">
		<tag k="name" v="Stasjonsbakken" />
		<tag k="place" v="quarter" />
		<tag k="ssr:stedsnr" v="241489" />
	</node>
	<node lat="62.16963611184553" lon="11.551244444282792" id="-21809">
		<tag k="alt_name" v="Røstbakkvollen" />
		<tag k="historic" v="shieling" />
		<tag k="name" v="Røstbakksætra" />
		<tag k="place" v="isolated_dwelling" />
		<tag k="ssr:stedsnr" v="71522" />
	</node>
	<node lat="62.35441944223089" lon="11.193827772307511" id="-21811">
		<tag k="name" v="Tangen" />
		<tag k="place" v="farm" />
		<tag k="ssr:stedsnr" v="72214" />
	</node>
	<node lat="62.40974722643751" lon="10.70679999418249" id="-21822">
		<tag k="historic" v="shieling" />
		<tag k="name" v="Sumundsvollen" />
		<tag k="place" v="isolated_dwelling" />
		<tag k="ssr:stedsnr" v="112007" />
	</node>
	<node lat="62.4779888902547" lon="10.97548055894853" id="-21824">
		<tag k="historic" v="shieling" />
		<tag k="name" v="Perflatvollen" />
		<tag k="place" v="isolated_dwelling" />
		<tag k="ssr:stedsnr" v="115070" />
	</node>
	<node lat="62.420788885573195" lon="10.970466658870183" id="-21825">
		<tag k="name" v="Perslien" />
		<tag k="place" v="farm" />
		<tag k="ssr:stedsnr" v="115202" />
	</node>
	<node lat="62.29598611134575" lon="11.045483338403498" id="-21832">
		<tag k="name" v="Pershytta" />
		<tag k="place" v="isolated_dwelling" />
		<tag k="ssr:stedsnr" v="115324" />
	</node>
	<node lat="62.400803123083605" lon="10.997298935000991" id="-21835">
		<tag k="fixme" v="consider place=hamlet" />
		<tag k="name" v="Viksmoen" />
		<tag k="place" v="farm" />
		<tag k="ssr:stedsnr" v="115277" />
	</node>
	<node lat="62.385297218709475" lon="10.888197223821171" id="-21850">
		<tag k="name" v="Skulemestergjelta" />
		<tag k="place" v="locality" />
		<tag k="ssr:stedsnr" v="115679" />
	</node>
	<node lat="62.415061109021714" lon="10.940852774312608" id="-21853">
		<tag k="name" v="Grantevet" />
		<tag k="place" v="hamlet" />
		<tag k="ssr:stedsnr" v="115804" />
	</node>
	<node lat="62.450949998874414" lon="10.894741672590959" id="-21856">
		<tag k="historic" v="shieling" />
		<tag k="name" v="Bankvollen" />
		<tag k="place" v="isolated_dwelling" />
		<tag k="ssr:stedsnr" v="115819" />
	</node>
	<node lat="62.44996666683642" lon="10.893419438039542" id="-21857">
		<tag k="historic" v="shieling" />
		<tag k="name" v="Simasvollen" />
		<tag k="place" v="isolated_dwelling" />
		<tag k="ssr:stedsnr" v="115821" />
	</node>
	<node lat="62.45556389087477" lon="10.90798334196492" id="-21859">
		<tag k="historic" v="shieling" />
		<tag k="name" v="Nygardsvollen" />
		<tag k="place" v="isolated_dwelling" />
		<tag k="ssr:stedsnr" v="115877" />
	</node>
	<node lat="62.3338555561113" lon="11.339638882633908" id="-21864">
		<tag k="historic" v="shieling" />
		<tag k="name" v="Engåvollen" />
		<tag k="place" v="isolated_dwelling" />
		<tag k="ssr:stedsnr" v="132420" />
	</node>
	<node lat="62.23006388915729" lon="11.399805561560246" id="-21866">
		<tag k="name" v="Holøymoen" />
		<tag k="place" v="farm" />
		<tag k="ssr:stedsnr" v="132438" />
	</node>
	<node lat="62.20200588017256" lon="11.439087541602424" id="-21868">
		<tag k="name" v="Søndmør" />
		<tag k="place" v="locality" />
		<tag k="ssr:stedsnr" v="132460" />
	</node>
	<node lat="62.27391666224007" lon="11.389880558063286" id="-21874">
		<tag k="name" v="Moen" />
		<tag k="place" v="farm" />
		<tag k="ssr:stedsnr" v="133422" />
	</node>
	<node lat="62.55410000148365" lon="10.751391661781975" id="-21875">
		<tag k="historic" v="shieling" />
		<tag k="name" v="Bratthøvollen" />
		<tag k="place" v="isolated_dwelling" />
		<tag k="ssr:stedsnr" v="133821" />
	</node>
	<node lat="62.42818333484252" lon="10.875388888515207" id="-21877">
		<tag k="name" v="Østeberg" />
		<tag k="place" v="farm" />
		<tag k="ssr:stedsnr" v="254071" />
	</node>
	<node lat="62.415927775801364" lon="10.979519437981356" id="-21878">
		<tag k="name" v="Haugan" />
		<tag k="place" v="hamlet" />
		<tag k="ssr:stedsnr" v="254089" />
	</node>
	<node lat="62.421444448931354" lon="10.984347215895296" id="-21879">
		<tag k="name" v="Dalsgjelta" />
		<tag k="place" v="farm" />
		<tag k="ssr:stedsnr" v="254090" />
	</node>
	<node lat="62.41573055697803" lon="11.080327773162189" id="-21880">
		<tag k="historic" v="shieling" />
		<tag k="name" v="Vollvollen" />
		<tag k="place" v="isolated_dwelling" />
		<tag k="ssr:stedsnr" v="254100" />
	</node>
	<node lat="62.45274167016308" lon="10.969138889929065" id="-21883">
		<tag k="historic" v="shieling" />
		<tag k="name" v="Ryttervollen" />
		<tag k="place" v="isolated_dwelling" />
		<tag k="ssr:stedsnr" v="254057" />
	</node>
	<node lat="62.3811777783211" lon="11.042347214466025" id="-21885">
		<tag k="alt_name" v="Mosætra" />
		<tag k="historic" v="shieling" />
		<tag k="name" v="Movollen" />
		<tag k="place" v="isolated_dwelling" />
		<tag k="ssr:stedsnr" v="254159" />
	</node>
	<node lat="62.450766664014374" lon="10.67102500403379" id="-21891">
		<tag k="historic" v="shieling" />
		<tag k="name" v="Gjerbua" />
		<tag k="place" v="isolated_dwelling" />
		<tag k="ssr:stedsnr" v="254844" />
	</node>
	<node lat="62.19800555129534" lon="11.368238897409434" id="-21892">
		<tag k="historic" v="shieling" />
		<tag k="name" v="Heggeråsætra" />
		<tag k="place" v="isolated_dwelling" />
		<tag k="ssr:stedsnr" v="142109" />
	</node>
	<node lat="62.419278010392674" lon="10.967185506843578" id="-21897">
		<tag k="fixme" v="consider place=hamlet" />
		<tag k="name" v="Lien" />
		<tag k="place" v="farm" />
		<tag k="ssr:stedsnr" v="175159" />
	</node>
	<node lat="62.41749999592632" lon="11.186000009375237" id="-21902">
		<tag k="name" v="Østigardsbua" />
		<tag k="place" v="locality" />
		<tag k="ssr:stedsnr" v="175505" />
	</node>
	<node lat="62.38648888533474" lon="11.080152771634985" id="-21910">
		<tag k="name" v="Åsstua" />
		<tag k="place" v="isolated_dwelling" />
		<tag k="ssr:stedsnr" v="176319" />
	</node>
	<node lat="62.408586112394204" lon="11.195708334407994" id="-21913">
		<tag k="name" v="Kloppmoløa" />
		<tag k="place" v="locality" />
		<tag k="ssr:stedsnr" v="176574" />
	</node>
	<node lat="62.45537500147691" lon="11.049783341844055" id="-21921">
		<tag k="historic" v="shieling" />
		<tag k="name" v="Jensjovollen" />
		<tag k="place" v="isolated_dwelling" />
		<tag k="ssr:stedsnr" v="236083" />
	</node>
	<node lat="62.416816669077946" lon="11.043111115518439" id="-21922">
		<tag k="loc_name" v="Ellensgarden" />
		<tag k="name" v="Ellensan" />
		<tag k="place" v="farm" />
		<tag k="ssr:stedsnr" v="236129" />
	</node>
	<node lat="62.48653333687197" lon="10.555424992592856" id="-21930">
		<tag k="historic" v="shieling" />
		<tag k="name" v="Nygårdsvangen" />
		<tag k="place" v="isolated_dwelling" />
		<tag k="ssr:stedsnr" v="236334" />
	</node>
	<node lat="62.41835555259819" lon="10.921005552772623" id="-21934">
		<tag k="name" v="Rytrøa" />
		<tag k="place" v="isolated_dwelling" />
		<tag k="ssr:stedsnr" v="236808" />
	</node>
	<node lat="62.42259166371754" lon="10.943580560792403" id="-21935">
		<tag k="name" v="Bergtun" />
		<tag k="place" v="isolated_dwelling" />
		<tag k="ssr:stedsnr" v="236812" />
	</node>
	<node lat="62.4436111135144" lon="10.88846388255197" id="-21936">
		<tag k="historic" v="shieling" />
		<tag k="name" v="Veslevollen" />
		<tag k="place" v="isolated_dwelling" />
		<tag k="ssr:stedsnr" v="236834" />
	</node>
	<node lat="62.44268333100247" lon="10.890880554476766" id="-21937">
		<tag k="name" v="Røstad" />
		<tag k="place" v="isolated_dwelling" />
		<tag k="ssr:stedsnr" v="236835" />
	</node>
	<node lat="62.16187777409062" lon="11.641388888391534" id="-21938">
		<tag k="name" v="Malmtekløa" />
		<tag k="place" v="locality" />
		<tag k="ssr:stedsnr" v="236891" />
	</node>
	<node lat="62.46081667062285" lon="11.035969453930226" id="-21939">
		<tag k="historic" v="shieling" />
		<tag k="name" v="Tollvollen" />
		<tag k="place" v="isolated_dwelling" />
		<tag k="ssr:stedsnr" v="237005" />
	</node>
	<node lat="62.36646257512494" lon="11.211872643998598" id="-21953">
		<tag k="fixme" v="consider place=hamlet" />
		<tag k="name" v="Veslegjelta" />
		<tag k="place" v="farm" />
		<tag k="ssr:stedsnr" v="237729" />
	</node>
	<node lat="62.41886944608173" lon="11.058963888765424" id="-21963">
		<tag k="name" v="Mojordet" />
		<tag k="place" v="farm" />
		<tag k="ssr:stedsnr" v="254103" />
	</node>
	<node lat="62.412538891458155" lon="10.939927776844684" id="-21964">
		<tag k="name" v="Granås" />
		<tag k="place" v="farm" />
		<tag k="ssr:stedsnr" v="254104" />
	</node>
	<node lat="62.4118333376785" lon="10.878847229279671" id="-21965">
		<tag k="name" v="Myklebu" />
		<tag k="place" v="farm" />
		<tag k="ssr:stedsnr" v="254106" />
	</node>
	<node lat="62.40280277379558" lon="11.000038883721595" id="-21968">
		<tag k="alt_name" v="Viksmoen" />
		<tag k="name" v="Vika" />
		<tag k="place" v="farm" />
		<tag k="ssr:stedsnr" v="254127" />
	</node>
	<node lat="62.39448430310723" lon="10.878777961686513" id="-21970">
		<tag k="alt_name" v="Fjordungsgjelta" />
		<tag k="name" v="Fjerdingsgjelta" />
		<tag k="place" v="farm" />
		<tag k="ssr:stedsnr" v="254133" />
	</node>
	<node lat="62.35653611173967" lon="11.194947216994205" id="-21972">
		<tag k="alt_name" v="Hodalen" />
		<tag k="name" v="Nordre Hodalen" />
		<tag k="place" v="farm" />
		<tag k="ssr:stedsnr" v="254178" />
	</node>
	<node lat="62.3637250027561" lon="11.202263886169487" id="-21973">
		<tag k="name" v="Bakken" />
		<tag k="place" v="farm" />
		<tag k="ssr:stedsnr" v="254179" />
	</node>
	<node lat="62.32522499936303" lon="11.231505550428048" id="-21977">
		<tag k="historic" v="shieling" />
		<tag k="name" v="Jovollen" />
		<tag k="place" v="isolated_dwelling" />
		<tag k="ssr:stedsnr" v="254408" />
	</node>
	<node lat="62.26090844251274" lon="11.469836143381379" id="-21980">
		<tag k="fixme" v="consider place=hamlet" />
		<tag k="name" v="Svarthaugen" />
		<tag k="place" v="farm" />
		<tag k="ssr:stedsnr" v="254507" />
	</node>
	<node lat="62.480588889525414" lon="10.976511116945696" id="-21982">
		<tag k="historic" v="shieling" />
		<tag k="name" v="Innervollan" />
		<tag k="place" v="isolated_dwelling" />
		<tag k="ssr:stedsnr" v="267624" />
	</node>
	<node lat="62.36626666726499" lon="11.207444450899633" id="-21993">
		<tag k="name" v="Gjelta" />
		<tag k="place" v="farm" />
		<tag k="ssr:stedsnr" v="297423" />
	</node>
	<node lat="62.4161666644526" lon="10.877805551140355" id="-22006">
		<tag k="name" v="Øver Kroken" />
		<tag k="place" v="farm" />
		<tag k="ssr:stedsnr" v="297691" />
	</node>
	<node lat="62.419608334271516" lon="10.956755556895047" id="-22007">
		<tag k="name" v="Soltun" />
		<tag k="place" v="farm" />
		<tag k="ssr:stedsnr" v="297823" />
	</node>
	<node lat="62.21298888959041" lon="11.45364166659701" id="-22012">
		<tag k="historic" v="shieling" />
		<tag k="name" v="Litleenget" />
		<tag k="place" v="isolated_dwelling" />
		<tag k="ssr:stedsnr" v="297836" />
	</node>
	<node lat="62.182549999658285" lon="11.614444438417884" id="-22018">
		<tag k="name" v="Storløa" />
		<tag k="place" v="locality" />
		<tag k="ssr:stedsnr" v="297977" />
	</node>
	<node lat="62.41573888538512" lon="10.941983337244935" id="-22021">
		<tag k="name" v="Vangsåkeren" />
		<tag k="place" v="farm" />
		<tag k="ssr:stedsnr" v="314115" />
	</node>
	<node lat="62.421405551295585" lon="11.074547230887871" id="-22022">
		<tag k="alt_name" v="Østre Erlia" />
		<tag k="name" v="Øvensgarden Erlia" />
		<tag k="old_name" v="Østigard" />
		<tag k="place" v="farm" />
		<tag k="ssr:stedsnr" v="314120" />
	</node>
	<node lat="62.42174166782181" lon="10.753880561317162" id="-22023">
		<tag k="historic" v="shieling" />
		<tag k="name" v="Rysæteråsen" />
		<tag k="place" v="isolated_dwelling" />
		<tag k="ssr:stedsnr" v="314124" />
	</node>
	<node lat="62.41993611266456" lon="10.82979443512647" id="-22024">
		<tag k="name" v="Bjørkly" />
		<tag k="place" v="farm" />
		<tag k="ssr:stedsnr" v="314128" />
	</node>
	<node lat="62.31473332887475" lon="11.045555559149717" id="-22025">
		<tag k="name" v="Kronborg" />
		<tag k="place" v="isolated_dwelling" />
		<tag k="ssr:stedsnr" v="314307" />
	</node>
	<node lat="62.43464627994339" lon="11.0981305325912" id="-22027">
		<tag k="fixme" v="multiple name tags, choose one and add the other to alt_name" />
		<tag k="name" v="Erlivollen;Nyvollen" />
		<tag k="place" v="locality" />
		<tag k="ssr:stedsnr" v="315103" />
	</node>
	<node lat="62.42589722191979" lon="10.820263884086968" id="-22028">
		<tag k="fixme" v="multiple name tags, choose one and add the other to alt_name" />
		<tag k="name" v="Nordvang;Sanna" />
		<tag k="place" v="farm" />
		<tag k="ssr:stedsnr" v="315104" />
	</node>
	<node lat="62.37941110826221" lon="11.098699998056826" id="-22030">
		<tag k="historic" v="shieling" />
		<tag k="name" v="Ivarsvollen" />
		<tag k="place" v="isolated_dwelling" />
		<tag k="ssr:stedsnr" v="315167" />
	</node>
	<node lat="62.472722222433475" lon="10.785658325118336" id="-22034">
		<tag k="alt_name" v="Oustutrøvollen" />
		<tag k="fixme" v="multiple name tags, choose one and add the other to alt_name" />
		<tag k="historic" v="shieling" />
		<tag k="name" v="Østuvollen;Auststutrøvollen" />
		<tag k="place" v="isolated_dwelling" />
		<tag k="ssr:stedsnr" v="315052" />
	</node>
	<node lat="62.338738106126875" lon="10.86611063016241" id="-22035">
		<tag k="fixme" v="consider place=hamlet" />
		<tag k="name" v="Åseng" />
		<tag k="place" v="farm" />
		<tag k="ssr:stedsnr" v="315207" />
	</node>
	<node lat="62.53219166390175" lon="10.74996943537091" id="-22038">
		<tag k="historic" v="shieling" />
		<tag k="name" v="Storøyvollan" />
		<tag k="place" v="isolated_dwelling" />
		<tag k="ssr:stedsnr" v="315864" />
	</node>
	<node lat="62.3729722233673" lon="11.010794441489823" id="-22039">
		<tag k="alt_name" v="Storbekksætra" />
		<tag k="historic" v="shieling" />
		<tag k="name" v="Storbekkvollen" />
		<tag k="place" v="isolated_dwelling" />
		<tag k="ssr:stedsnr" v="327174" />
	</node>
	<node lat="62.475727780593196" lon="10.984572231631459" id="-22047">
		<tag k="historic" v="shieling" />
		<tag k="name" v="Åsgjeltvollen" />
		<tag k="place" v="isolated_dwelling" />
		<tag k="ssr:stedsnr" v="357069" />
	</node>
	<node lat="62.4142333319926" lon="10.989861108538292" id="-22063">
		<tag k="name" v="Bakkagata" />
		<tag k="place" v="quarter" />
		<tag k="ssr:stedsnr" v="358254" />
	</node>
	<node lat="62.41235833296139" lon="11.00994999522522" id="-22064">
		<tag k="name" v="Stasjonsbakken" />
		<tag k="place" v="quarter" />
		<tag k="ssr:stedsnr" v="358260" />
	</node>
	<node lat="62.41224166640043" lon="10.709508331259276" id="-22079">
		<tag k="historic" v="shieling" />
		<tag k="name" v="Rønningsvollen" />
		<tag k="place" v="isolated_dwelling" />
		<tag k="ssr:stedsnr" v="476010" />
	</node>
	<node lat="62.37941667088537" lon="10.840449994839167" id="-22080">
		<tag k="historic" v="shieling" />
		<tag k="name" v="Åstrøvollen" />
		<tag k="place" v="isolated_dwelling" />
		<tag k="ssr:stedsnr" v="476203" />
	</node>
	<node lat="62.41740891764631" lon="10.970855585351421" id="-22083">
		<tag k="fixme" v="consider place=hamlet" />
		<tag k="name" v="Jonsplass" />
		<tag k="place" v="farm" />
		<tag k="ssr:stedsnr" v="478161" />
	</node>
	<node lat="62.46644166265576" lon="11.012286106758005" id="-22085">
		<tag k="alt_name" v="Opstuvollen" />
		<tag k="historic" v="shieling" />
		<tag k="name" v="Oppstuvollen" />
		<tag k="place" v="isolated_dwelling" />
		<tag k="ssr:stedsnr" v="478049" />
	</node>
	<node lat="62.48058055772665" lon="10.97528889823069" id="-22086">
		<tag k="historic" v="shieling" />
		<tag k="name" v="Helbladvollen" />
		<tag k="place" v="isolated_dwelling" />
		<tag k="ssr:stedsnr" v="478050" />
	</node>
	<node lat="62.41695277925884" lon="11.006000006614096" id="-22087">
		<tag k="name" v="Vesljørngarden" />
		<tag k="place" v="farm" />
		<tag k="ssr:stedsnr" v="478171" />
	</node>
	<node lat="62.36541944823887" lon="11.200302778142472" id="-22088">
		<tag k="name" v="Selbyggarden" />
		<tag k="place" v="farm" />
		<tag k="ssr:stedsnr" v="478489" />
	</node>
	<node lat="62.36139444525753" lon="11.201974991641961" id="-22089">
		<tag k="name" v="Gammeltrøan" />
		<tag k="place" v="farm" />
		<tag k="ssr:stedsnr" v="478493" />
	</node>
	<node lat="62.44533610864552" lon="10.893547213879408" id="-22097">
		<tag k="historic" v="shieling" />
		<tag k="name" v="Veslenorstuvollen" />
		<tag k="place" v="isolated_dwelling" />
		<tag k="ssr:stedsnr" v="478840" />
	</node>
	<node lat="62.427830557090935" lon="10.879277772837241" id="-22098">
		<tag k="name" v="Enget" />
		<tag k="place" v="farm" />
		<tag k="ssr:stedsnr" v="478853" />
	</node>
	<node lat="62.40497222264244" lon="10.993063897126552" id="-22102">
		<tag k="name" v="Gjelten" />
		<tag k="place" v="farm" />
		<tag k="ssr:stedsnr" v="479260" />
	</node>
	<node lat="62.412244444259116" lon="10.990941664985224" id="-22103">
		<tag k="name" v="Gata" />
		<tag k="place" v="quarter" />
		<tag k="ssr:stedsnr" v="479264" />
	</node>
	<node lat="62.41253212263867" lon="10.975479819538448" id="-22106">
		<tag k="fixme" v="consider place=hamlet" />
		<tag k="name" v="Stenkloppen" />
		<tag k="place" v="farm" />
		<tag k="ssr:stedsnr" v="479254" />
	</node>
	<node lat="62.41426111533707" lon="10.794580552436603" id="-22115">
		<tag k="historic" v="shieling" />
		<tag k="name" v="Movollen" />
		<tag k="place" v="isolated_dwelling" />
		<tag k="ssr:stedsnr" v="479659" />
	</node>
	<node lat="62.3866249983519" lon="10.963650008312978" id="-22120">
		<tag k="name" v="Kløftet" />
		<tag k="place" v="farm" />
		<tag k="ssr:stedsnr" v="479780" />
	</node>
	<node lat="62.419638885776656" lon="10.876913885216974" id="-22126">
		<tag k="name" v="Vangsgjelta" />
		<tag k="place" v="locality" />
		<tag k="ssr:stedsnr" v="479878" />
	</node>
	<node lat="62.40824444428782" lon="10.850797216754986" id="-22128">
		<tag k="alt_name" v="Lien" />
		<tag k="name" v="Lia" />
		<tag k="place" v="farm" />
		<tag k="ssr:stedsnr" v="375112" />
	</node>
	<node lat="62.422330559942" lon="11.078799999545586" id="-22132">
		<tag k="name" v="Nordli" />
		<tag k="place" v="farm" />
		<tag k="ssr:stedsnr" v="375095" />
	</node>
	<node lat="62.30842777341628" lon="11.091625007660038" id="-22134">
		<tag k="name" v="Kløftet" />
		<tag k="place" v="isolated_dwelling" />
		<tag k="ssr:stedsnr" v="375215" />
	</node>
	<node lat="62.352877775831296" lon="11.194600003719994" id="-22135">
		<tag k="name" v="Tangmoen" />
		<tag k="place" v="farm" />
		<tag k="ssr:stedsnr" v="375180" />
	</node>
	<node lat="62.18265555352705" lon="11.61072222780615" id="-22141">
		<tag k="name" v="Storbekkbua" />
		<tag k="place" v="locality" />
		<tag k="ssr:stedsnr" v="479984" />
	</node>
	<node lat="62.365777775666075" lon="10.941183336933376" id="-22144">
		<tag k="fixme" v="multiple name tags, choose one and add the other to alt_name" />
		<tag k="name" v="Jordet;Eidsvollen" />
		<tag k="place" v="farm" />
		<tag k="ssr:stedsnr" v="376195" />
	</node>
	<node lat="62.37587222015633" lon="10.839761111628496" id="-22151">
		<tag k="historic" v="shieling" />
		<tag k="name" v="Stortrøvollen" />
		<tag k="place" v="isolated_dwelling" />
		<tag k="ssr:stedsnr" v="416194" />
	</node>
	<node lat="62.37716388546911" lon="10.841233323677255" id="-22152">
		<tag k="historic" v="shieling" />
		<tag k="name" v="Utistuvollen" />
		<tag k="place" v="isolated_dwelling" />
		<tag k="ssr:stedsnr" v="416196" />
	</node>
	<node lat="62.41895295008701" lon="11.058460889684362" id="-22179">
		<tag k="name" v="Kloppmoen" />
		<tag k="place" v="locality" />
		<tag k="ssr:stedsnr" v="419204" />
	</node>
	<node lat="62.20136667117588" lon="11.43810555521292" id="-22187">
		<tag k="name" v="Søndre Søndmør" />
		<tag k="place" v="farm" />
		<tag k="ssr:stedsnr" v="419818" />
	</node>
	<node lat="62.37670278173804" lon="10.934700003252923" id="-22188">
		<tag k="name" v="Bjørnstad" />
		<tag k="place" v="farm" />
		<tag k="ssr:stedsnr" v="419787" />
	</node>
	<node lat="62.34451666581001" lon="10.971741670336868" id="-22194">
		<tag k="historic" v="shieling" />
		<tag k="name" v="Støvangen" />
		<tag k="place" v="isolated_dwelling" />
		<tag k="ssr:stedsnr" v="436207" />
	</node>
	<node lat="62.340452779865984" lon="10.985922215848317" id="-22196">
		<tag k="historic" v="shieling" />
		<tag k="name" v="Volsvangen" />
		<tag k="place" v="isolated_dwelling" />
		<tag k="ssr:stedsnr" v="436216" />
	</node>
	<node lat="62.447141663942766" lon="10.971522222210936" id="-22205">
		<tag k="alt_name" v="Gammelskrivarvollen" />
		<tag k="historic" v="shieling" />
		<tag k="name" v="Skrivarvollen" />
		<tag k="place" v="isolated_dwelling" />
		<tag k="ssr:stedsnr" v="437106" />
	</node>
	<node lat="62.370364335727736" lon="10.897088093456452" id="-22206">
		<tag k="alt_name" v="Storkvernan" />
		<tag k="fixme" v="multiple name tags, choose one and add the other to alt_name" />
		<tag k="name" v="Storkvennan;Kvennan" />
		<tag k="place" v="hamlet" />
		<tag k="ssr:stedsnr" v="437211" />
	</node>
	<node lat="62.421944445403824" lon="11.076908337156485" id="-22207">
		<tag k="alt_name" v="Nordre Erlia" />
		<tag k="name" v="Østigarden Erlia" />
		<tag k="place" v="farm" />
		<tag k="ssr:stedsnr" v="471019" />
	</node>
	<node lat="62.42256862688591" lon="10.927274114522028" id="-22208">
		<tag k="alt_name" v="Øvre Østvang" />
		<tag k="name" v="Øvre Østvangen" />
		<tag k="place" v="farm" />
		<tag k="ssr:stedsnr" v="472572" />
	</node>
	<node lat="62.46321389264364" lon="10.74332223155403" id="-22216">
		<tag k="historic" v="shieling" />
		<tag k="name" v="Gråtarkjerren" />
		<tag k="place" v="isolated_dwelling" />
		<tag k="ssr:stedsnr" v="478272" />
	</node>
	<node lat="62.477547226407395" lon="10.83077777997716" id="-22221">
		<tag k="historic" v="shieling" />
		<tag k="name" v="Gammelgjeltvollen" />
		<tag k="place" v="isolated_dwelling" />
		<tag k="ssr:stedsnr" v="478569" />
	</node>
	<node lat="62.419911113853566" lon="10.752483330640189" id="-22224">
		<tag k="historic" v="shieling" />
		<tag k="name" v="Åsengvollene" />
		<tag k="place" v="isolated_dwelling" />
		<tag k="ssr:stedsnr" v="479355" />
	</node>
	<node lat="62.4163388890564" lon="10.868266661867624" id="-22234">
		<tag k="alt_name" v="Nygarn" />
		<tag k="name" v="Nygarden" />
		<tag k="place" v="farm" />
		<tag k="ssr:stedsnr" v="479690" />
	</node>
	<node lat="62.267419442837046" lon="11.3988166758324" id="-22239">
		<tag k="name" v="Vollen" />
		<tag k="place" v="farm" />
		<tag k="ssr:stedsnr" v="479825" />
	</node>
	<node lat="62.483527777936054" lon="10.803361104558965" id="-22246">
		<tag k="alt_name" v="Kvannbergvollane" />
		<tag k="name" v="Kvannbergvollan" />
		<tag k="place" v="hamlet" />
		<tag k="ssr:stedsnr" v="679043" />
	</node>
	<node lat="62.4759583364821" lon="10.83904722121024" id="-22249">
		<tag k="historic" v="shieling" />
		<tag k="name" v="Smedåsvollen" />
		<tag k="place" v="isolated_dwelling" />
		<tag k="ssr:stedsnr" v="679059" />
	</node>
	<node lat="62.41455000099572" lon="11.056727778380155" id="-22251">
		<tag k="name" v="Egga" />
		<tag k="place" v="farm" />
		<tag k="ssr:stedsnr" v="679126" />
	</node>
	<node lat="62.40929166659932" lon="11.00896389843928" id="-22252">
		<tag k="name" v="Vollen" />
		<tag k="place" v="farm" />
		<tag k="ssr:stedsnr" v="679137" />
	</node>
	<node lat="62.407355551991905" lon="10.950508331917343" id="-22253">
		<tag k="alt_name" v="Rasmusgjelta" />
		<tag k="name" v="Nygjelta" />
		<tag k="place" v="farm" />
		<tag k="ssr:stedsnr" v="679140" />
	</node>
	<node lat="62.39876861601647" lon="10.990852979802952" id="-22254">
		<tag k="fixme" v="consider place=hamlet" />
		<tag k="name" v="Urset" />
		<tag k="place" v="farm" />
		<tag k="ssr:stedsnr" v="679145" />
	</node>
	<node lat="62.39016022448407" lon="10.745465987301932" id="-22255">
		<tag k="fixme" v="multiple name tags, choose one and add the other to alt_name" />
		<tag k="historic" v="shieling" />
		<tag k="name" v="Eggavollen;Dalheimvollen" />
		<tag k="place" v="isolated_dwelling" />
		<tag k="ssr:stedsnr" v="679154" />
	</node>
	<node lat="62.386331168164965" lon="10.964765149999602" id="-22257">
		<tag k="alt_name" v="Eid, nordre" />
		<tag k="fixme" v="multiple name tags, choose one and add the other to alt_name" />
		<tag k="name" v="Smedgarden;Nordre Eid" />
		<tag k="place" v="farm" />
		<tag k="ssr:stedsnr" v="679156" />
	</node>
	<node lat="62.28611005072443" lon="11.382552037645096" id="-22260">
		<tag k="alt_name" v="Lilleenget" />
		<tag k="name" v="Litleenget" />
		<tag k="place" v="locality" />
		<tag k="ssr:stedsnr" v="679427" />
	</node>
	<node lat="62.26998016291617" lon="11.394405588608295" id="-22264">
		<tag k="fixme" v="consider place=hamlet" />
		<tag k="name" v="Malmåsen" />
		<tag k="place" v="farm" />
		<tag k="ssr:stedsnr" v="679500" />
	</node>
	<node lat="62.27361944257655" lon="11.385552770037362" id="-22266">
		<tag k="name" v="Røsta" />
		<tag k="place" v="farm" />
		<tag k="ssr:stedsnr" v="679435" />
	</node>
	<node lat="62.29659444394032" lon="11.326288883527427" id="-22268">
		<tag k="historic" v="shieling" />
		<tag k="name" v="Olasvollen" />
		<tag k="place" v="isolated_dwelling" />
		<tag k="ssr:stedsnr" v="679452" />
	</node>
	<node lat="62.41759999796321" lon="10.707666657634018" id="-22269">
		<tag k="historic" v="shieling" />
		<tag k="name" v="Trøvollen" />
		<tag k="place" v="isolated_dwelling" />
		<tag k="ssr:stedsnr" v="679800" />
	</node>
	<node lat="62.3977583300397" lon="11.156861108443248" id="-22276">
		<tag k="alt_name" v="Tollvollane;Tollvollen" />
		<tag k="historic" v="shieling" />
		<tag k="name" v="Tollvollan" />
		<tag k="place" v="isolated_dwelling" />
		<tag k="ssr:stedsnr" v="497152" />
	</node>
	<node lat="62.427208331463646" lon="10.977933324134943" id="-22278">
		<tag k="name" v="Nordshaug" />
		<tag k="place" v="farm" />
		<tag k="ssr:stedsnr" v="497100" />
	</node>
	<node lat="62.43039722451107" lon="10.949252782000952" id="-22279">
		<tag k="name" v="Granbakken" />
		<tag k="place" v="farm" />
		<tag k="ssr:stedsnr" v="497101" />
	</node>
	<node lat="62.26632499568849" lon="11.40159166215013" id="-22280">
		<tag k="name" v="Bakken" />
		<tag k="place" v="farm" />
		<tag k="ssr:stedsnr" v="497515" />
	</node>
	<node lat="62.275116664799164" lon="11.400991669734644" id="-22281">
		<tag k="name" v="Hovland" />
		<tag k="place" v="farm" />
		<tag k="ssr:stedsnr" v="497452" />
	</node>
	<node lat="62.41545277793704" lon="10.745899997141489" id="-22287">
		<tag k="historic" v="shieling" />
		<tag k="name" v="Tøllefsvollen" />
		<tag k="place" v="isolated_dwelling" />
		<tag k="ssr:stedsnr" v="537067" />
	</node>
	<node lat="62.42106388435001" lon="10.981925005986785" id="-22295">
		<tag k="name" v="Hulbekkdal" />
		<tag k="place" v="farm" />
		<tag k="ssr:stedsnr" v="539143" />
	</node>
	<node lat="62.44435277415014" lon="10.781016658376824" id="-22304">
		<tag k="name" v="Eriksvollen" />
		<tag k="place" v="isolated_dwelling" />
		<tag k="ssr:stedsnr" v="539606" />
	</node>
	<node lat="62.417563885471985" lon="10.821463886661743" id="-22306">
		<tag k="name" v="Nordre Sætra" />
		<tag k="place" v="farm" />
		<tag k="ssr:stedsnr" v="539611" />
	</node>
	<node lat="62.42215277920213" lon="10.838277776159506" id="-22307">
		<tag k="name" v="Vestgård" />
		<tag k="place" v="farm" />
		<tag k="ssr:stedsnr" v="539612" />
	</node>
	<node lat="62.3770638932283" lon="10.894741658906728" id="-22318">
		<tag k="name" v="Åskvennan" />
		<tag k="place" v="locality" />
		<tag k="ssr:stedsnr" v="540703" />
	</node>
	<node lat="62.416552780100986" lon="10.851741666386165" id="-22320">
		<tag k="name" v="Storhaugen" />
		<tag k="place" v="farm" />
		<tag k="ssr:stedsnr" v="540678" />
	</node>
	<node lat="62.41603889329236" lon="10.880319453122064" id="-22321">
		<tag k="name" v="Yter Kroken" />
		<tag k="place" v="farm" />
		<tag k="ssr:stedsnr" v="540682" />
	</node>
	<node lat="62.202083333411075" lon="11.438336109279847" id="-22322">
		<tag k="name" v="Nordre Søndmør" />
		<tag k="place" v="farm" />
		<tag k="ssr:stedsnr" v="540817" />
	</node>
	<node lat="62.387686114509684" lon="10.914347213531006" id="-22324">
		<tag k="name" v="Utistu" />
		<tag k="place" v="farm" />
		<tag k="ssr:stedsnr" v="540779" />
	</node>
	<node lat="62.22555370530521" lon="11.4020165890346" id="-22326">
		<tag k="name" v="Holøyen" />
		<tag k="place" v="hamlet" />
		<tag k="ssr:stedsnr" v="556502" />
	</node>
	<node lat="62.47475000097913" lon="10.785344450149063" id="-22327">
		<tag k="historic" v="shieling" />
		<tag k="name" v="Vangstrøvollen" />
		<tag k="place" v="isolated_dwelling" />
		<tag k="ssr:stedsnr" v="557052" />
	</node>
	<node lat="62.379763395189585" lon="11.062042115475359" id="-22330">
		<tag k="fixme" v="multiple name tags, choose one and add the other to alt_name" />
		<tag k="historic" v="shieling" />
		<tag k="name" v="Storsletta;Sætersvollen" />
		<tag k="place" v="isolated_dwelling" />
		<tag k="ssr:stedsnr" v="557171" />
	</node>
	<node lat="62.415363890615545" lon="10.750330559151557" id="-22334">
		<tag k="alt_name" v="Garsvollen;Vingelsgardvollen" />
		<tag k="historic" v="shieling" />
		<tag k="name" v="Gardsvollen" />
		<tag k="place" v="isolated_dwelling" />
		<tag k="ssr:stedsnr" v="692118" />
	</node>
	<node lat="62.41602778188595" lon="10.872888886573719" id="-22357">
		<tag k="name" v="Veslegjelta" />
		<tag k="place" v="farm" />
		<tag k="ssr:stedsnr" v="600664" />
	</node>
	<node lat="62.17664444678477" lon="11.640588890225212" id="-22365">
		<tag k="name" v="Getshytta" />
		<tag k="place" v="isolated_dwelling" />
		<tag k="ssr:stedsnr" v="600897" />
	</node>
	<node lat="62.46666111331705" lon="10.934449996341657" id="-22367">
		<tag k="historic" v="shieling" />
		<tag k="name" v="Nedre Vangsvollen" />
		<tag k="place" v="isolated_dwelling" />
		<tag k="ssr:stedsnr" v="600899" />
	</node>
	<node lat="62.4194083327695" lon="10.867602773049201" id="-22368">
		<tag k="name" v="Stornorsa" />
		<tag k="place" v="farm" />
		<tag k="ssr:stedsnr" v="600857" />
	</node>
	<node lat="62.42152499721054" lon="10.883580559955922" id="-22370">
		<tag k="name" v="Vesletrøa" />
		<tag k="place" v="farm" />
		<tag k="ssr:stedsnr" v="600860" />
	</node>
	<node lat="62.22747221789438" lon="11.396594453435794" id="-22375">
		<tag k="name" v="Holstad" />
		<tag k="place" v="farm" />
		<tag k="ssr:stedsnr" v="617489" />
	</node>
	<node lat="62.21053564673553" lon="11.467561235476719" id="-22376">
		<tag k="name" v="Gjeltan" />
		<tag k="place" v="farm" />
		<tag k="ssr:stedsnr" v="617494" />
	</node>
	<node lat="62.469619445293" lon="10.934199997686743" id="-22379">
		<tag k="historic" v="shieling" />
		<tag k="name" v="Ryttervollen" />
		<tag k="place" v="isolated_dwelling" />
		<tag k="ssr:stedsnr" v="618045" />
	</node>
	<node lat="62.419829335458644" lon="10.844534244168539" id="-22382">
		<tag k="fixme" v="consider place=hamlet" />
		<tag k="name" v="Rønningen" />
		<tag k="place" v="farm" />
		<tag k="ssr:stedsnr" v="618108" />
	</node>
	<node lat="62.40530833707379" lon="10.852197224434443" id="-22383">
		<tag k="name" v="Heggstad" />
		<tag k="place" v="farm" />
		<tag k="ssr:stedsnr" v="618134" />
	</node>
	<node lat="62.3871000020648" lon="10.918111108326128" id="-22384">
		<tag k="name" v="Åshaugen" />
		<tag k="place" v="farm" />
		<tag k="ssr:stedsnr" v="618135" />
	</node>
	<node lat="62.34570555654942" lon="10.980261111865463" id="-22385">
		<tag k="historic" v="shieling" />
		<tag k="name" v="Ryvangen" />
		<tag k="place" v="isolated_dwelling" />
		<tag k="ssr:stedsnr" v="618180" />
	</node>
	<node lat="62.3372138879935" lon="10.992002781847878" id="-22387">
		<tag k="historic" v="shieling" />
		<tag k="name" v="Nesvangen" />
		<tag k="place" v="isolated_dwelling" />
		<tag k="ssr:stedsnr" v="618194" />
	</node>
	<node lat="62.48592499589257" lon="10.55790833109721" id="-22389">
		<tag k="historic" v="shieling" />
		<tag k="name" v="Magnillsætra" />
		<tag k="place" v="isolated_dwelling" />
		<tag k="ssr:stedsnr" v="618623" />
	</node>
	<node lat="62.36760833026822" lon="11.028819442619751" id="-22390">
		<tag k="alt_name" v="Viksmosætra" />
		<tag k="historic" v="shieling" />
		<tag k="name" v="Vikevollen" />
		<tag k="place" v="isolated_dwelling" />
		<tag k="ssr:stedsnr" v="630194" />
	</node>
	<node lat="62.43722778182488" lon="11.03167499133944" id="-22393">
		<tag k="historic" v="shieling" />
		<tag k="name" v="Nymovollen" />
		<tag k="place" v="isolated_dwelling" />
		<tag k="ssr:stedsnr" v="722209" />
	</node>
	<node lat="62.37801111436786" lon="10.836541659224107" id="-22394">
		<tag k="historic" v="shieling" />
		<tag k="name" v="Østeråsvollen" />
		<tag k="place" v="isolated_dwelling" />
		<tag k="ssr:stedsnr" v="658218" />
	</node>
	<node lat="62.43639167018363" lon="11.028394451251483" id="-22401">
		<tag k="historic" v="shieling" />
		<tag k="name" v="Snekkarvollen" />
		<tag k="place" v="isolated_dwelling" />
		<tag k="ssr:stedsnr" v="661186" />
	</node>
	<node lat="62.215936115433855" lon="11.076380547730137" id="-22426">
		<tag k="historic" v="shieling" />
		<tag k="name" v="Hårsetvollen" />
		<tag k="place" v="isolated_dwelling" />
		<tag k="ssr:stedsnr" v="678213" />
	</node>
	<node lat="62.419122678882154" lon="10.867407394222827" id="-22433">
		<tag k="alt_name" v="Røden" />
		<tag k="fixme" v="consider place=hamlet" />
		<tag k="loc_name" v="Røesgardan" />
		<tag k="name" v="Rød" />
		<tag k="place" v="farm" />
		<tag k="ssr:stedsnr" v="679106" />
	</node>
	<node lat="62.420180556978494" lon="10.847572218229992" id="-22434">
		<tag k="alt_name" v="Vingelen" />
		<tag k="name" v="Vingill" />
		<tag k="place" v="farm" />
		<tag k="ssr:stedsnr" v="679119" />
	</node>
	<node lat="62.414222221079505" lon="10.767686114906166" id="-22435">
		<tag k="historic" v="shieling" />
		<tag k="name" v="Engsetvollen" />
		<tag k="place" v="isolated_dwelling" />
		<tag k="ssr:stedsnr" v="679121" />
	</node>
	<node lat="62.377594445533276" lon="10.949258327878672" id="-22436">
		<tag k="name" v="Bergli" />
		<tag k="place" v="farm" />
		<tag k="ssr:stedsnr" v="679171" />
	</node>
	<node lat="62.36878333152051" lon="11.208566672377323" id="-22437">
		<tag k="name" v="Nygjelta" />
		<tag k="place" v="farm" />
		<tag k="ssr:stedsnr" v="679174" />
	</node>
	<node lat="62.36210555905646" lon="11.13264999966857" id="-22438">
		<tag k="historic" v="shieling" />
		<tag k="name" v="Ursetvollen" />
		<tag k="place" v="isolated_dwelling" />
		<tag k="ssr:stedsnr" v="679176" />
	</node>
	<node lat="62.34568005255244" lon="10.891627536921716" id="-22439">
		<tag k="fixme" v="multiple name tags, choose one and add the other to alt_name" />
		<tag k="name" v="Telnesplass;Åshaug" />
		<tag k="place" v="farm" />
		<tag k="ssr:stedsnr" v="679186" />
	</node>
	<node lat="62.45744721815407" lon="11.087069446767666" id="-22441">
		<tag k="historic" v="shieling" />
		<tag k="name" v="Massingsmedvollen" />
		<tag k="place" v="isolated_dwelling" />
		<tag k="ssr:stedsnr" v="679081" />
	</node>
	<node lat="62.45877778084334" lon="11.042116669204287" id="-22442">
		<tag k="alt_name" v="Tolgenslia" />
		<tag k="name" v="Toljelia" />
		<tag k="place" v="hamlet" />
		<tag k="ssr:stedsnr" v="679082" />
	</node>
	<node lat="62.446166664937536" lon="11.114680555949432" id="-22443">
		<tag k="alt_name" v="Skjølsvoldvollen" />
		<tag k="historic" v="shieling" />
		<tag k="name" v="Sjølsvollsætra" />
		<tag k="place" v="isolated_dwelling" />
		<tag k="ssr:stedsnr" v="679088" />
	</node>
	<node lat="62.33094444375318" lon="11.215866665630756" id="-22444">
		<tag k="fixme" v="multiple name tags, choose one and add the other to alt_name" />
		<tag k="historic" v="shieling" />
		<tag k="name" v="Nyvollen;Slettvollen" />
		<tag k="place" v="isolated_dwelling" />
		<tag k="ssr:stedsnr" v="679210" />
	</node>
	<node lat="62.478394447949796" lon="10.800547219670255" id="-22446">
		<tag k="alt_name" v="Ustuvollen" />
		<tag k="historic" v="shieling" />
		<tag k="name" v="Utstuvollen" />
		<tag k="place" v="isolated_dwelling" />
		<tag k="ssr:stedsnr" v="692026" />
	</node>
	<node lat="62.48679166428091" lon="10.989558324768101" id="-22452">
		<tag k="historic" v="shieling" />
		<tag k="name" v="Henriksvollen" />
		<tag k="place" v="isolated_dwelling" />
		<tag k="ssr:stedsnr" v="721030" />
	</node>
	<node lat="62.43661944819724" lon="11.027002768872052" id="-22453">
		<tag k="historic" v="shieling" />
		<tag k="name" v="Hjemvollen" />
		<tag k="place" v="isolated_dwelling" />
		<tag k="ssr:stedsnr" v="721112" />
	</node>
	<node lat="62.35875555738441" lon="10.997105555193036" id="-22456">
		<tag k="historic" v="shieling" />
		<tag k="name" v="Svarttjønnrøstvollen" />
		<tag k="place" v="isolated_dwelling" />
		<tag k="ssr:stedsnr" v="721315" />
	</node>
	<node lat="62.41732500107315" lon="10.816238886998741" id="-22461">
		<tag k="name" v="Skaret" />
		<tag k="place" v="isolated_dwelling" />
		<tag k="ssr:stedsnr" v="721615" />
	</node>
	<node lat="62.38780555167913" lon="10.920299995589083" id="-22472">
		<tag k="name" v="Nesteby" />
		<tag k="place" v="farm" />
		<tag k="ssr:stedsnr" v="722811" />
	</node>
	<node lat="62.38066388487346" lon="10.948874993229408" id="-22473">
		<tag k="name" v="Jordgarden" />
		<tag k="place" v="farm" />
		<tag k="ssr:stedsnr" v="722815" />
	</node>
	<node lat="62.42150278050609" lon="10.84050833594968" id="-22482">
		<tag k="alt_name" v="Austa;Østa;Oustutrøa;Søndre Vingelen" />
		<tag k="name" v="Austutrøa" />
		<tag k="place" v="farm" />
		<tag k="ssr:stedsnr" v="739103" />
	</node>
	<node lat="62.41653983591851" lon="11.070196254056798" id="-22483">
		<tag k="fixme" v="consider place=hamlet" />
		<tag k="name" v="Brennmoen" />
		<tag k="place" v="farm" />
		<tag k="ssr:stedsnr" v="739111" />
	</node>
	<node lat="62.41718801885734" lon="11.044690418764892" id="-22484">
		<tag k="alt_name" v="Erlimoen" />
		<tag k="fixme" v="consider place=hamlet" />
		<tag k="name" v="Erlimo" />
		<tag k="place" v="farm" />
		<tag k="ssr:stedsnr" v="739115" />
	</node>
	<node lat="62.40632847082839" lon="10.905302687952096" id="-22485">
		<tag k="fixme" v="consider place=hamlet" />
		<tag k="name" v="Østerås" />
		<tag k="place" v="farm" />
		<tag k="ssr:stedsnr" v="739117" />
	</node>
	<node lat="62.3547318697235" lon="10.955147177982552" id="-22486">
		<tag k="fixme" v="multiple name tags, choose one and add the other to alt_name" />
		<tag k="historic" v="shieling" />
		<tag k="name" v="Dalsvangen;Sundmovollen" />
		<tag k="place" v="isolated_dwelling" />
		<tag k="ssr:stedsnr" v="739206" />
	</node>
	<node lat="62.237524999393244" lon="11.082533333082388" id="-22487">
		<tag k="fixme" v="multiple name tags, choose one and add the other to alt_name" />
		<tag k="historic" v="shieling" />
		<tag k="name" v="Klettsætra;Ummundsvollen" />
		<tag k="place" v="isolated_dwelling" />
		<tag k="ssr:stedsnr" v="739208" />
	</node>
	<node lat="62.34647222117734" lon="10.980216658846672" id="-22488">
		<tag k="alt_name" v="Eidsvangen" />
		<tag k="historic" v="shieling" />
		<tag k="name" v="Eidevangen" />
		<tag k="place" v="isolated_dwelling" />
		<tag k="ssr:stedsnr" v="739212" />
	</node>
	<node lat="62.175600003721634" lon="11.640075001899298" id="-22492">
		<tag k="historic" v="shieling" />
		<tag k="name" v="Andersvollen" />
		<tag k="place" v="isolated_dwelling" />
		<tag k="ssr:stedsnr" v="739494" />
	</node>
	<node lat="62.18556110936446" lon="11.56388611764162" id="-22494">
		<tag k="historic" v="shieling" />
		<tag k="name" v="Misætra" />
		<tag k="place" v="isolated_dwelling" />
		<tag k="ssr:stedsnr" v="739497" />
	</node>
	<node lat="62.43866388894716" lon="10.99253054753711" id="-22497">
		<tag k="historic" v="shieling" />
		<tag k="name" v="Gjeltvollen" />
		<tag k="place" v="isolated_dwelling" />
		<tag k="ssr:stedsnr" v="740108" />
	</node>
	<node lat="62.39123055347668" lon="10.99042499567559" id="-22499">
		<tag k="alt_name" v="Veslebekken" />
		<tag k="name" v="Veslbekken" />
		<tag k="place" v="farm" />
		<tag k="ssr:stedsnr" v="740154" />
	</node>
	<node lat="62.28722778087282" lon="11.284155563458203" id="-22500">
		<tag k="name" v="Nyslette" />
		<tag k="place" v="isolated_dwelling" />
		<tag k="ssr:stedsnr" v="740449" />
	</node>
	<node lat="62.466922222419875" lon="10.772883336190121" id="-22501">
		<tag k="historic" v="shieling" />
		<tag k="name" v="Movollen" />
		<tag k="place" v="isolated_dwelling" />
		<tag k="ssr:stedsnr" v="903490" />
	</node>
	<node lat="62.48351666826086" lon="10.99765555642029" id="-22505">
		<tag k="historic" v="shieling" />
		<tag k="name" v="Fredriksvollen" />
		<tag k="place" v="isolated_dwelling" />
		<tag k="ssr:stedsnr" v="904031" />
	</node>
	<node lat="62.48409444020466" lon="10.996283337702234" id="-22506">
		<tag k="historic" v="shieling" />
		<tag k="name" v="Simavollen" />
		<tag k="place" v="isolated_dwelling" />
		<tag k="ssr:stedsnr" v="904033" />
	</node>
	<node lat="62.41815820695627" lon="11.008309744810255" id="-22507">
		<tag k="name" v="Ummundsgjelta" />
		<tag k="place" v="farm" />
		<tag k="ssr:stedsnr" v="904140" />
	</node>
	<node lat="62.40089166610537" lon="11.000608328392726" id="-22509">
		<tag k="name" v="Sætersegga" />
		<tag k="place" v="farm" />
		<tag k="ssr:stedsnr" v="904276" />
	</node>
	<node lat="62.41525833359917" lon="10.981566669372944" id="-22510">
		<tag k="name" v="Haugland" />
		<tag k="place" v="isolated_dwelling" />
		<tag k="ssr:stedsnr" v="904282" />
	</node>
	<node lat="62.44971111049922" lon="10.777852781415499" id="-22515">
		<tag k="name" v="Skomakeråsvollen" />
		<tag k="place" v="isolated_dwelling" />
		<tag k="ssr:stedsnr" v="904344" />
	</node>
	<node lat="62.42210833141984" lon="10.753783333519229" id="-22519">
		<tag k="historic" v="shieling" />
		<tag k="name" v="Vangsvollen" />
		<tag k="place" v="isolated_dwelling" />
		<tag k="ssr:stedsnr" v="904353" />
	</node>
	<node lat="62.41639166260142" lon="11.190549994932502" id="-22520">
		<tag k="name" v="Øvenskuven" />
		<tag k="place" v="locality" />
		<tag k="ssr:stedsnr" v="904485" />
	</node>
	<node lat="62.42078611381182" lon="11.18276111528453" id="-22521">
		<tag k="name" v="Midtgardsløa" />
		<tag k="place" v="locality" />
		<tag k="ssr:stedsnr" v="904496" />
	</node>
	<node lat="62.442447223229934" lon="10.885766658285224" id="-22542">
		<tag k="historic" v="shieling" />
		<tag k="name" v="Ustuvollen" />
		<tag k="place" v="isolated_dwelling" />
		<tag k="ssr:stedsnr" v="904841" />
	</node>
	<node lat="62.38757222331769" lon="10.912355548729918" id="-22549">
		<tag k="name" v="Bakken" />
		<tag k="place" v="farm" />
		<tag k="ssr:stedsnr" v="904788" />
	</node>
	<node lat="62.33660833105919" lon="10.869286103787234" id="-22562">
		<tag k="alt_name" v="Åseng Ytre" />
		<tag k="name" v="Ytre Åseng" />
		<tag k="place" v="farm" />
		<tag k="ssr:stedsnr" v="780258" />
	</node>
	<node lat="62.35586389033872" lon="11.195302783804243" id="-22577">
		<tag k="name" v="Vestre Hodalen" />
		<tag k="place" v="farm" />
		<tag k="ssr:stedsnr" v="783457" />
	</node>
	<node lat="62.417702773546246" lon="10.858461104976941" id="-22586">
		<tag k="name" v="Tollefsa" />
		<tag k="place" v="farm" />
		<tag k="ssr:stedsnr" v="783847" />
	</node>
	<node lat="62.41870833537236" lon="10.86701943818636" id="-22587">
		<tag k="name" v="Nystu" />
		<tag k="place" v="farm" />
		<tag k="ssr:stedsnr" v="783856" />
	</node>
	<node lat="62.45946110776744" lon="10.669999995369688" id="-22594">
		<tag k="name" v="Olsethytta" />
		<tag k="place" v="isolated_dwelling" />
		<tag k="ssr:stedsnr" v="800832" />
	</node>
	<node lat="62.45190833163218" lon="11.019236114239863" id="-22597">
		<tag k="historic" v="shieling" />
		<tag k="name" v="Flatvollen" />
		<tag k="place" v="isolated_dwelling" />
		<tag k="ssr:stedsnr" v="801084" />
	</node>
	<node lat="62.36727777760957" lon="11.108349997575159" id="-22598">
		<tag k="fixme" v="multiple name tags, choose one and add the other to alt_name" />
		<tag k="name" v="Bjørlia;Vikevollen" />
		<tag k="place" v="isolated_dwelling" />
		<tag k="ssr:stedsnr" v="801172" />
	</node>
	<node lat="62.358956361924164" lon="10.911267098451898" id="-22599">
		<tag k="alt_name" v="Nesgardan;Telnes" />
		<tag k="fixme" v="consider place=hamlet" />
		<tag k="loc_name" v="Vesltelneset" />
		<tag k="name" v="Neset" />
		<tag k="place" v="farm" />
		<tag k="ssr:stedsnr" v="801180" />
	</node>
	<node lat="62.410038886938864" lon="11.132730558404738" id="-22603">
		<tag k="fixme" v="multiple name tags, choose one and add the other to alt_name" />
		<tag k="historic" v="shieling" />
		<tag k="name" v="Innimovollen;Ellensvollen" />
		<tag k="place" v="isolated_dwelling" />
		<tag k="ssr:stedsnr" v="921127" />
	</node>
	<node lat="62.205666664503354" lon="11.551900005162432" id="-22607">
		<tag k="historic" v="shieling" />
		<tag k="name" v="Trøvollen" />
		<tag k="place" v="isolated_dwelling" />
		<tag k="ssr:stedsnr" v="921515" />
	</node>
	<node lat="62.43446944801614" lon="10.815050007335799" id="-22609">
		<tag k="historic" v="shieling" />
		<tag k="name" v="Rønningsvollen" />
		<tag k="place" v="isolated_dwelling" />
		<tag k="ssr:stedsnr" v="922105" />
	</node>
	<node lat="62.48269722652839" lon="10.834611107127875" id="-22610">
		<tag k="historic" v="shieling" />
		<tag k="name" v="Klokkarvollen" />
		<tag k="place" v="isolated_dwelling" />
		<tag k="ssr:stedsnr" v="922035" />
	</node>
	<node lat="62.47097777934647" lon="11.011466666095483" id="-22611">
		<tag k="alt_name" v="Holet" />
		<tag k="fixme" v="multiple name tags, choose one and add the other to alt_name" />
		<tag k="historic" v="shieling" />
		<tag k="name" v="Hammervollen;Hollet" />
		<tag k="place" v="isolated_dwelling" />
		<tag k="ssr:stedsnr" v="922054" />
	</node>
	<node lat="62.45392777488845" lon="11.035525006424843" id="-22612">
		<tag k="historic" v="shieling" />
		<tag k="name" v="Rasmusvollen" />
		<tag k="place" v="isolated_dwelling" />
		<tag k="ssr:stedsnr" v="922071" />
	</node>
	<node lat="62.41125833054096" lon="10.97526387985128" id="-22614">
		<tag k="name" v="Åsgjelta" />
		<tag k="place" v="farm" />
		<tag k="ssr:stedsnr" v="922145" />
	</node>
	<node lat="62.39995833625786" lon="11.138766675767547" id="-22615">
		<tag k="alt_name" v="Heskestøvollen" />
		<tag k="historic" v="shieling" />
		<tag k="name" v="Hesjestøvollen" />
		<tag k="place" v="isolated_dwelling" />
		<tag k="ssr:stedsnr" v="922146" />
	</node>
	<node lat="62.40409722547352" lon="10.900894443762727" id="-22616">
		<tag k="name" v="Vesterås" />
		<tag k="place" v="farm" />
		<tag k="ssr:stedsnr" v="922149" />
	</node>
	<node lat="62.374008336809034" lon="11.169986106439183" id="-22619">
		<tag k="name" v="Myrstad" />
		<tag k="place" v="farm" />
		<tag k="ssr:stedsnr" v="922167" />
	</node>
	<node lat="62.423772224812474" lon="10.79470834099761" id="-22620">
		<tag k="alt_name" v="Livollane" />
		<tag k="historic" v="shieling" />
		<tag k="name" v="Livollan" />
		<tag k="place" v="isolated_dwelling" />
		<tag k="ssr:stedsnr" v="922118" />
	</node>
	<node lat="62.4013138882038" lon="11.24591667409027" id="-22622">
		<tag k="name" v="Mosebua" />
		<tag k="place" v="isolated_dwelling" />
		<tag k="ssr:stedsnr" v="922360" />
	</node>
	<node lat="62.30848611282328" lon="11.254752780578135" id="-22625">
		<tag k="historic" v="shieling" />
		<tag k="name" v="Oldervikvollen" />
		<tag k="place" v="isolated_dwelling" />
		<tag k="ssr:stedsnr" v="922447" />
	</node>
	<node lat="62.437013891718586" lon="10.947483337371507" id="-22635">
		<tag k="historic" v="shieling" />
		<tag k="name" v="Sjøvollan" />
		<tag k="place" v="isolated_dwelling" />
		<tag k="ssr:stedsnr" v="843832" />
	</node>
	<node lat="62.46853611435001" lon="10.940955552984908" id="-22656">
		<tag k="historic" v="shieling" />
		<tag k="name" v="Øver Vangsvollen" />
		<tag k="place" v="isolated_dwelling" />
		<tag k="ssr:stedsnr" v="844873" />
	</node>
	<node lat="62.19878055871428" lon="11.572641661552744" id="-22659">
		<tag k="historic" v="shieling" />
		<tag k="name" v="Øysætra" />
		<tag k="place" v="isolated_dwelling" />
		<tag k="ssr:stedsnr" v="860522" />
	</node>
	<node lat="62.4739166636195" lon="10.961277779745796" id="-22661">
		<tag k="historic" v="shieling" />
		<tag k="name" v="Milskiftet" />
		<tag k="place" v="isolated_dwelling" />
		<tag k="ssr:stedsnr" v="861055" />
	</node>
	<node lat="62.323444445188684" lon="11.233902780074944" id="-22669">
		<tag k="historic" v="shieling" />
		<tag k="name" v="Utistuvollen" />
		<tag k="place" v="isolated_dwelling" />
		<tag k="ssr:stedsnr" v="861409" />
	</node>
	<node lat="62.362961114223204" lon="11.226219452856752" id="-22677">
		<tag k="historic" v="shieling" />
		<tag k="name" v="Øverhusa" />
		<tag k="place" v="isolated_dwelling" />
		<tag k="ssr:stedsnr" v="930587" />
	</node>
	<node lat="62.36980833609204" lon="10.898119445658779" id="-22678">
		<tag k="name" v="Kvennan Camp" />
		<tag k="ssr:stedsnr" v="965768" />
		<tag k="tourism" v="camp_site" />
	</node>
	<node lat="62.33498888674734" lon="11.000652784839705" id="-22682">
		<tag k="name" v="Bjørnstadhytta" />
		<tag k="place" v="isolated_dwelling" />
		<tag k="ssr:stedsnr" v="901355" />
	</node>
	<node lat="62.44901499663488" lon="10.982369986325764" id="-22687">
		<tag k="historic" v="shieling" />
		<tag k="name" v="Perflatvollen" />
		<tag k="place" v="isolated_dwelling" />
		<tag k="ssr:stedsnr" v="904166" />
	</node>
	<node lat="62.416329423323866" lon="10.98025227514618" id="-22696">
		<tag k="name" v="Eggestua" />
		<tag k="place" v="farm" />
		<tag k="ssr:stedsnr" v="904656" />
	</node>
	<node lat="62.42438611384954" lon="10.943941674865316" id="-22699">
		<tag k="name" v="Vangberg" />
		<tag k="place" v="isolated_dwelling" />
		<tag k="ssr:stedsnr" v="904821" />
	</node>
	<node lat="62.47741944423126" lon="10.85427500357228" id="-22700">
		<tag k="historic" v="shieling" />
		<tag k="name" v="Nystuvollen" />
		<tag k="place" v="isolated_dwelling" />
		<tag k="ssr:stedsnr" v="904950" />
	</node>
	<node lat="62.417938886460256" lon="10.88691667001037" id="-22703">
		<tag k="alt_name" v="Veslehaug" />
		<tag k="name" v="Veslhaugen" />
		<tag k="place" v="farm" />
		<tag k="ssr:stedsnr" v="921107" />
	</node>
	<node lat="62.20641944724444" lon="11.43630555414243" id="-22704">
		<tag k="alt_name" v="Jamtmoen" />
		<tag k="name" v="Jordmoen" />
		<tag k="place" v="farm" />
		<tag k="ssr:stedsnr" v="921505" />
	</node>
	<node lat="62.204438893037725" lon="11.427341672579935" id="-22705">
		<tag k="name" v="Flatmotrøa" />
		<tag k="place" v="farm" />
		<tag k="ssr:stedsnr" v="921507" />
	</node>
	<node lat="62.210666669352754" lon="11.479977771439046" id="-22707">
		<tag k="name" v="Nygard" />
		<tag k="place" v="farm" />
		<tag k="ssr:stedsnr" v="921693" />
	</node>
	<node lat="62.46303611229137" lon="10.792819442222818" id="-22708">
		<tag k="historic" v="shieling" />
		<tag k="name" v="Granslettvollen" />
		<tag k="place" v="isolated_dwelling" />
		<tag k="ssr:stedsnr" v="922077" />
	</node>
	<node lat="62.42331388720001" lon="10.983261113108012" id="-22710">
		<tag k="name" v="Dalhaug" />
		<tag k="place" v="farm" />
		<tag k="ssr:stedsnr" v="922100" />
	</node>
	<node lat="62.427044442589896" lon="10.986413884150068" id="-22711">
		<tag k="alt_name" v="Lademyra" />
		<tag k="name" v="Lømyra" />
		<tag k="place" v="farm" />
		<tag k="ssr:stedsnr" v="922102" />
	</node>
	<node lat="62.372605553816385" lon="11.19303055232983" id="-22719">
		<tag k="name" v="Kverntrømyra" />
		<tag k="place" v="isolated_dwelling" />
		<tag k="ssr:stedsnr" v="964444" />
	</node>
	<node lat="62.4424333367963" lon="10.889658330011237" id="-22721">
		<tag k="historic" v="shieling" />
		<tag k="name" v="Nystuvollen" />
		<tag k="place" v="isolated_dwelling" />
		<tag k="ssr:stedsnr" v="964815" />
	</node>
	<node lat="62.44603888496661" lon="10.883188885249051" id="-22722">
		<tag k="historic" v="shieling" />
		<tag k="name" v="Vangstrøvollen" />
		<tag k="place" v="isolated_dwelling" />
		<tag k="ssr:stedsnr" v="964819" />
	</node>
	<node lat="62.42432777925486" lon="10.79328888901122" id="-22726">
		<tag k="historic" v="shieling" />
		<tag k="name" v="Nordistuvollen" />
		<tag k="place" v="isolated_dwelling" />
		<tag k="ssr:stedsnr" v="964594" />
	</node>
	<node lat="62.41546666498948" lon="11.074636107083794" id="-22730">
		<tag k="historic" v="shieling" />
		<tag k="name" v="Dølmovollen" />
		<tag k="place" v="isolated_dwelling" />
		<tag k="ssr:stedsnr" v="965206" />
	</node>
	<node lat="62.401691666749876" lon="10.992027780812322" id="-22735">
		<tag k="name" v="Olsgard" />
		<tag k="place" v="farm" />
		<tag k="ssr:stedsnr" v="965286" />
	</node>
	<node lat="62.413455554455645" lon="11.000724997423866" id="-22736">
		<tag k="name" v="Katmoen" />
		<tag k="place" v="isolated_dwelling" />
		<tag k="ssr:stedsnr" v="965292" />
	</node>
	<node lat="62.211102778557084" lon="11.478772230714503" id="-22739">
		<tag k="name" v="Nytrøgardan" />
		<tag k="place" v="farm" />
		<tag k="ssr:stedsnr" v="965781" />
	</node>
	<node lat="62.37719444796175" lon="10.930202770315644" id="-22740">
		<tag k="name" v="Hornset" />
		<tag k="place" v="farm" />
		<tag k="ssr:stedsnr" v="965782" />
	</node>
	<node lat="62.41611666602654" lon="10.865594453057842" id="-22746">
		<tag k="name" v="Trøa" />
		<tag k="place" v="farm" />
		<tag k="ssr:stedsnr" v="965692" />
	</node>
	<node lat="62.413128192896366" lon="10.994689463074998" id="-22751">
		<tag k="name" v="Dølgarden" />
		<tag k="place" v="farm" />
		<tag k="ssr:stedsnr" v="987577" />
	</node>
	<node lat="62.38131526585241" lon="10.951783491681182" id="-22752">
		<tag k="alt_name" v="Mittgar'n" />
		<tag k="name" v="Midtgarden" />
		<tag k="place" v="farm" />
		<tag k="ssr:stedsnr" v="987579" />
	</node>
	<node lat="62.41437144430342" lon="10.99987642559061" id="-22753">
		<tag k="name" v="Stenmo" />
		<tag k="place" v="farm" />
		<tag k="ssr:stedsnr" v="987587" />
	</node>
	<node lat="62.42163427762748" lon="11.075944773607393" id="-22754">
		<tag k="alt_name" v="Midtre Erlia" />
		<tag k="name" v="Midtgarden Erlia" />
		<tag k="place" v="farm" />
		<tag k="ssr:stedsnr" v="987589" />
	</node>
	<node lat="62.416068358775675" lon="11.034640701020479" id="-22755">
		<tag k="fixme" v="consider place=hamlet" />
		<tag k="name" v="Storbækken" />
		<tag k="place" v="farm" />
		<tag k="ssr:stedsnr" v="988048" />
	</node>
	<node lat="62.4220416705688" lon="10.872666674375392" id="-22756">
		<tag k="alt_name" v="Utistuhaugen" />
		<tag k="name" v="Haugen" />
		<tag k="place" v="farm" />
		<tag k="ssr:stedsnr" v="11087" />
	</node>
	<node lat="62.41544477010119" lon="10.970846255747535" id="-22757">
		<tag k="alt_name" v="Leren" />
		<tag k="fixme" v="consider place=hamlet" />
		<tag k="name" v="Lera" />
		<tag k="place" v="farm" />
		<tag k="ssr:stedsnr" v="11089" />
	</node>
	<node lat="62.229391665351855" lon="11.586049995153049" id="-22763">
		<tag k="name" v="Kinnbua" />
		<tag k="place" v="isolated_dwelling" />
		<tag k="ssr:stedsnr" v="11473" />
	</node>
	<node lat="62.380630554173315" lon="10.842138884272641" id="-22773">
		<tag k="alt_name" v="Åsvangane;Åsan" />
		<tag k="historic" v="shieling" />
		<tag k="loc_name" v="Åsvollan" />
		<tag k="name" v="Åsvangan" />
		<tag k="place" v="isolated_dwelling" />
		<tag k="ssr:stedsnr" v="12166" />
	</node>
	<node lat="62.3838111148007" lon="10.920661103373194" id="-22774">
		<tag k="name" v="Åstrøa" />
		<tag k="place" v="farm" />
		<tag k="ssr:stedsnr" v="12167" />
	</node>
	<node lat="62.36041944072102" lon="10.993311116525035" id="-22775">
		<tag k="fixme" v="multiple name tags, choose one and add the other to alt_name" />
		<tag k="historic" v="shieling" />
		<tag k="name" v="Veslebekksætra;Bekkvollen" />
		<tag k="place" v="isolated_dwelling" />
		<tag k="ssr:stedsnr" v="12198" />
	</node>
	<node lat="62.26836003189189" lon="11.40188807684769" id="-22777">
		<tag k="fixme" v="consider place=hamlet" />
		<tag k="name" v="Kåsa" />
		<tag k="place" v="farm" />
		<tag k="ssr:stedsnr" v="12537" />
	</node>
	<node lat="62.267136113780644" lon="11.390222223592852" id="-22778">
		<tag k="name" v="Egga" />
		<tag k="place" v="farm" />
		<tag k="ssr:stedsnr" v="12538" />
	</node>
	<node lat="62.29722222001192" lon="11.04274722249153" id="-22779">
		<tag k="alt_name" v="Veslebekkvollen;Veslebekkvangen" />
		<tag k="historic" v="shieling" />
		<tag k="name" v="Bekkvollen" />
		<tag k="place" v="isolated_dwelling" />
		<tag k="ssr:stedsnr" v="24221" />
	</node>
	<node lat="62.311880551697506" lon="11.38360000466495" id="-22784">
		<tag k="name" v="Småløan" />
		<tag k="place" v="locality" />
		<tag k="ssr:stedsnr" v="54682" />
	</node>
	<node lat="62.44185833341036" lon="11.031644447887015" id="-22791">
		<tag k="historic" v="shieling" />
		<tag k="name" v="Kottvollen" />
		<tag k="place" v="isolated_dwelling" />
		<tag k="ssr:stedsnr" v="54163" />
	</node>
	<node lat="62.43870555977171" lon="10.99090833561267" id="-22792">
		<tag k="historic" v="shieling" />
		<tag k="name" v="Nyvollan" />
		<tag k="place" v="isolated_dwelling" />
		<tag k="ssr:stedsnr" v="54165" />
	</node>
	<node lat="62.1960694399842" lon="11.510150004132813" id="-22813">
		<tag k="name" v="Neset" />
		<tag k="place" v="locality" />
		<tag k="ssr:stedsnr" v="54988" />
	</node>
	<node lat="62.414941662964175" lon="10.941416672666227" id="-22815">
		<tag k="name" v="Granheim" />
		<tag k="place" v="farm" />
		<tag k="ssr:stedsnr" v="54844" />
	</node>
	<node lat="62.44386111109056" lon="10.882055556316656" id="-22818">
		<tag k="historic" v="shieling" />
		<tag k="name" v="Gammelstuvollen" />
		<tag k="place" v="isolated_dwelling" />
		<tag k="ssr:stedsnr" v="54865" />
	</node>
	<node lat="62.41113611125298" lon="10.997838887191039" id="-22822">
		<tag k="amenity" v="school" />
		<tag k="name" v="Tolga skole" />
		<tag k="ssr:stedsnr" v="55263" />
	</node>
	<node lat="62.411444441156696" lon="10.865030555141955" id="-22834">
		<tag k="name" v="Motrøa" />
		<tag k="place" v="farm" />
		<tag k="ssr:stedsnr" v="55662" />
	</node>
	<node lat="62.4092805540032" lon="10.87459721617055" id="-22835">
		<tag k="name" v="Bakken" />
		<tag k="place" v="farm" />
		<tag k="ssr:stedsnr" v="55664" />
	</node>
	<node lat="62.208616668565284" lon="11.47404166905753" id="-22841">
		<tag k="name" v="Eliasbakken" />
		<tag k="place" v="farm" />
		<tag k="ssr:stedsnr" v="55762" />
	</node>
	<node lat="62.46099999789069" lon="10.914836119080494" id="-22843">
		<tag k="historic" v="shieling" />
		<tag k="name" v="Gammelstuvollen" />
		<tag k="place" v="isolated_dwelling" />
		<tag k="ssr:stedsnr" v="55855" />
	</node>
	<node lat="62.4761277796369" lon="10.956872228133715" id="-22844">
		<tag k="historic" v="shieling" />
		<tag k="name" v="Skreddarvollen" />
		<tag k="place" v="isolated_dwelling" />
		<tag k="ssr:stedsnr" v="55856" />
	</node>
	<node lat="62.21043888915864" lon="11.480249991869556" id="-22850">
		<tag k="name" v="Nytrøa" />
		<tag k="place" v="farm" />
		<tag k="ssr:stedsnr" v="71493" />
	</node>
	<node lat="62.41303596450326" lon="10.700527772295274" id="-22851">
		<tag k="alt_name" v="Nyhusvollen" />
		<tag k="historic" v="shieling" />
		<tag k="name" v="Jordevollen" />
		<tag k="place" v="isolated_dwelling" />
		<tag k="ssr:stedsnr" v="72778" />
	</node>
	<node lat="62.47138055630164" lon="10.940880559281116" id="-22854">
		<tag k="historic" v="shieling" />
		<tag k="name" v="Haugvollen" />
		<tag k="place" v="isolated_dwelling" />
		<tag k="ssr:stedsnr" v="72052" />
	</node>
	<node lat="62.47029166224746" lon="10.94979166822557" id="-22855">
		<tag k="alt_name" v="Snekkervollen" />
		<tag k="historic" v="shieling" />
		<tag k="name" v="Snekkarvollen" />
		<tag k="place" v="isolated_dwelling" />
		<tag k="ssr:stedsnr" v="72054" />
	</node>
	<node lat="62.4773249963474" lon="10.85875555642194" id="-22856">
		<tag k="alt_name" v="Reinsvollen" />
		<tag k="historic" v="shieling" />
		<tag k="name" v="Reinshytta" />
		<tag k="place" v="isolated_dwelling" />
		<tag k="ssr:stedsnr" v="72057" />
	</node>
	<node lat="62.41515833609512" lon="10.907866660407274" id="-22858">
		<tag k="alt_name" v="Rørset" />
		<tag k="name" v="Rya" />
		<tag k="place" v="farm" />
		<tag k="ssr:stedsnr" v="72128" />
	</node>
	<node lat="62.40593333122253" lon="11.200255558842324" id="-22859">
		<tag k="fixme" v="multiple name tags, choose one and add the other to alt_name" />
		<tag k="name" v="Erlienget;Lensmannsenget" />
		<tag k="place" v="isolated_dwelling" />
		<tag k="ssr:stedsnr" v="72133" />
	</node>
	<node lat="62.4000611102388" lon="11.091861110724354" id="-22862">
		<tag k="fixme" v="multiple name tags, choose one and add the other to alt_name" />
		<tag k="historic" v="shieling" />
		<tag k="name" v="Tangvollen;Bruvollen" />
		<tag k="place" v="isolated_dwelling" />
		<tag k="ssr:stedsnr" v="72144" />
	</node>
	<node lat="62.43600833674885" lon="10.947905564184156" id="-22865">
		<tag k="historic" v="shieling" />
		<tag k="name" v="Tallsjøvollen" />
		<tag k="place" v="isolated_dwelling" />
		<tag k="ssr:stedsnr" v="72100" />
	</node>
	<node lat="62.41813888486886" lon="10.908077783577307" id="-22866">
		<tag k="name" v="Åsheim" />
		<tag k="place" v="farm" />
		<tag k="ssr:stedsnr" v="72104" />
	</node>
	<node lat="62.419277774339804" lon="11.011344438702217" id="-22867">
		<tag k="alt_name" v="Tolgegjelta" />
		<tag k="name" v="Tollgjelta" />
		<tag k="place" v="farm" />
		<tag k="ssr:stedsnr" v="72108" />
	</node>
	<node lat="62.21598333625691" lon="11.241383331357529" id="-22872">
		<tag k="historic" v="shieling" />
		<tag k="name" v="Steinhussætra" />
		<tag k="place" v="isolated_dwelling" />
		<tag k="ssr:stedsnr" v="72437" />
	</node>
	<node lat="62.36466051808912" lon="11.210209535462784" id="-22878">
		<tag k="fixme" v="consider place=hamlet" />
		<tag k="name" v="Slettan" />
		<tag k="place" v="farm" />
		<tag k="ssr:stedsnr" v="73195" />
	</node>
	<node lat="62.408330559334175" lon="10.70660834278981" id="-22882">
		<tag k="historic" v="shieling" />
		<tag k="name" v="Fellessætra" />
		<tag k="place" v="isolated_dwelling" />
		<tag k="ssr:stedsnr" v="112015" />
	</node>
	<node lat="62.38358888925281" lon="10.838455563016096" id="-22884">
		<tag k="historic" v="shieling" />
		<tag k="name" v="Åsgårvollen" />
		<tag k="place" v="isolated_dwelling" />
		<tag k="ssr:stedsnr" v="112238" />
	</node>
	<node lat="62.46133610837782" lon="10.760858327200951" id="-22891">
		<tag k="historic" v="shieling" />
		<tag k="name" v="Yter Tøllefsvollen" />
		<tag k="place" v="isolated_dwelling" />
		<tag k="ssr:stedsnr" v="114536" />
	</node>
	<node lat="62.48424999708928" lon="10.55795833248326" id="-22895">
		<tag k="historic" v="shieling" />
		<tag k="name" v="Nordigardsvangen" />
		<tag k="place" v="isolated_dwelling" />
		<tag k="ssr:stedsnr" v="115360" />
	</node>
	<node lat="62.44585000009347" lon="10.838952776481854" id="-22900">
		<tag k="name" v="Nordvangshytta" />
		<tag k="place" v="isolated_dwelling" />
		<tag k="ssr:stedsnr" v="115571" />
	</node>
	<node lat="62.420513888367296" lon="10.977916669788936" id="-22904">
		<tag k="name" v="Paulsolagård" />
		<tag k="place" v="farm" />
		<tag k="ssr:stedsnr" v="115198" />
	</node>
	<node lat="62.432722226172444" lon="10.799927779423507" id="-22908">
		<tag k="historic" v="shieling" />
		<tag k="name" v="Sumundsvollen" />
		<tag k="place" v="isolated_dwelling" />
		<tag k="ssr:stedsnr" v="115579" />
	</node>
	<node lat="62.29871663807837" lon="11.354973724119725" id="-22915">
		<tag k="name" v="Tvillingløan" />
		<tag k="place" v="locality" />
		<tag k="ssr:stedsnr" v="115644" />
	</node>
	<node lat="62.408825004257636" lon="10.872272213989636" id="-22916">
		<tag k="alt_name" v="Løkken" />
		<tag k="name" v="Løkka" />
		<tag k="place" v="farm" />
		<tag k="ssr:stedsnr" v="115653" />
	</node>
	<node lat="62.20973333360829" lon="11.47812499102391" id="-22921">
		<tag k="name" v="Sørå" />
		<tag k="place" v="farm" />
		<tag k="ssr:stedsnr" v="115760" />
	</node>
	<node lat="62.21136389317351" lon="11.475513879856969" id="-22922">
		<tag k="name" v="Gjertrudgarden" />
		<tag k="place" v="farm" />
		<tag k="ssr:stedsnr" v="115762" />
	</node>
	<node lat="62.41859722365744" lon="10.85239166043812" id="-22924">
		<tag k="name" v="Sumundsa" />
		<tag k="place" v="isolated_dwelling" />
		<tag k="ssr:stedsnr" v="115829" />
	</node>
	<node lat="62.41945833382334" lon="10.877408326535857" id="-22925">
		<tag k="name" v="Åsan" />
		<tag k="place" v="hamlet" />
		<tag k="ssr:stedsnr" v="115832" />
	</node>
	<node lat="62.41745555406984" lon="10.856158330100754" id="-22926">
		<tag k="name" v="Åkeren" />
		<tag k="place" v="farm" />
		<tag k="ssr:stedsnr" v="115836" />
	</node>
	<node lat="62.42483333293976" lon="10.878508331342754" id="-22928">
		<tag k="name" v="Simashaugen" />
		<tag k="place" v="farm" />
		<tag k="ssr:stedsnr" v="115849" />
	</node>
	<node lat="62.46897500032237" lon="11.025258333987335" id="-22940">
		<tag k="alt_name" v="Dølvollsætra" />
		<tag k="historic" v="shieling" />
		<tag k="name" v="Dølvollen" />
		<tag k="place" v="isolated_dwelling" />
		<tag k="ssr:stedsnr" v="132044" />
	</node>
	<node lat="62.40767777471264" lon="10.894530561415591" id="-22942">
		<tag k="name" v="Nordset" />
		<tag k="place" v="farm" />
		<tag k="ssr:stedsnr" v="132119" />
	</node>
	<node lat="62.40353889321879" lon="10.731463890918596" id="-22944">
		<tag k="historic" v="shieling" />
		<tag k="name" v="Furuholtvollen" />
		<tag k="place" v="isolated_dwelling" />
		<tag k="ssr:stedsnr" v="132131" />
	</node>
	<node lat="62.40168332902075" lon="10.87045832360853" id="-22945">
		<tag k="name" v="Hallrøsta" />
		<tag k="place" v="farm" />
		<tag k="ssr:stedsnr" v="132145" />
	</node>
	<node lat="62.32652176977813" lon="11.204903491714152" id="-22946">
		<tag k="name" v="Småenget" />
		<tag k="place" v="locality" />
		<tag k="ssr:stedsnr" v="132231" />
	</node>
	<node lat="62.20923365158428" lon="11.482754284995893" id="-22949">
		<tag k="fixme" v="consider place=hamlet" />
		<tag k="name" v="Vestgård" />
		<tag k="place" v="farm" />
		<tag k="ssr:stedsnr" v="132451" />
	</node>
	<node lat="62.20795278051271" lon="11.431783330791564" id="-22950">
		<tag k="name" v="Lund" />
		<tag k="place" v="farm" />
		<tag k="ssr:stedsnr" v="132452" />
	</node>
	<node lat="62.20146389061005" lon="11.561080564440882" id="-22951">
		<tag k="historic" v="shieling" />
		<tag k="name" v="Løvbekkvollen" />
		<tag k="place" v="isolated_dwelling" />
		<tag k="ssr:stedsnr" v="132475" />
	</node>
	<node lat="62.17570833184671" lon="11.434533334852278" id="-22952">
		<tag k="historic" v="shieling" />
		<tag k="name" v="Orvdalssætran" />
		<tag k="place" v="isolated_dwelling" />
		<tag k="ssr:stedsnr" v="132480" />
	</node>
	<node lat="62.188863884627004" lon="11.61660832538036" id="-22955">
		<tag k="historic" v="shieling" />
		<tag k="name" v="Bekkengvollen" />
		<tag k="place" v="isolated_dwelling" />
		<tag k="ssr:stedsnr" v="132485" />
	</node>
	<node lat="62.425366465325745" lon="10.83409449881789" id="-22959">
		<tag k="fixme" v="consider place=hamlet" />
		<tag k="name" v="Nordvangen" />
		<tag k="place" v="farm" />
		<tag k="ssr:stedsnr" v="133091" />
	</node>
	<node lat="62.43071389168935" lon="10.882894440761852" id="-22960">
		<tag k="name" v="Nygjelta" />
		<tag k="place" v="farm" />
		<tag k="ssr:stedsnr" v="133094" />
	</node>
	<node lat="62.253636108976515" lon="11.400369444631407" id="-22962">
		<tag k="name" v="Stortjønnvollen" />
		<tag k="place" v="isolated_dwelling" />
		<tag k="ssr:stedsnr" v="133489" />
	</node>
	<node lat="62.26945277605066" lon="11.391833329710296" id="-22964">
		<tag k="name" v="Vestmo" />
		<tag k="place" v="farm" />
		<tag k="ssr:stedsnr" v="133499" />
	</node>
	<node lat="62.38308610796618" lon="10.960316669749512" id="-22967">
		<tag k="name" v="Nyeidet" />
		<tag k="place" v="farm" />
		<tag k="ssr:stedsnr" v="133163" />
	</node>
	<node lat="62.36520037596364" lon="11.202295327443837" id="-22969">
		<tag k="fixme" v="consider place=hamlet" />
		<tag k="name" v="Ryalen" />
		<tag k="place" v="farm" />
		<tag k="ssr:stedsnr" v="133174" />
	</node>
	<node lat="62.368083334733896" lon="11.192886114566207" id="-22970">
		<tag k="name" v="Ryhaug" />
		<tag k="place" v="farm" />
		<tag k="ssr:stedsnr" v="133177" />
	</node>
	<node lat="62.36131389170035" lon="11.046619452188525" id="-22971">
		<tag k="name" v="Sumundshytta" />
		<tag k="place" v="isolated_dwelling" />
		<tag k="ssr:stedsnr" v="133182" />
	</node>
	<node lat="62.34036666936751" lon="10.868763888975595" id="-22975">
		<tag k="alt_name" v="Østby" />
		<tag k="name" v="Furuheim" />
		<tag k="place" v="locality" />
		<tag k="ssr:stedsnr" v="173252" />
	</node>
	<node lat="62.35667777568556" lon="11.195875000002308" id="-22978">
		<tag k="name" v="Østre Hodalen" />
		<tag k="place" v="farm" />
		<tag k="ssr:stedsnr" v="176428" />
	</node>
	<node lat="62.45582222113458" lon="10.981725002166687" id="-22982">
		<tag k="historic" v="shieling" />
		<tag k="name" v="Bergevollen" />
		<tag k="place" v="isolated_dwelling" />
		<tag k="ssr:stedsnr" v="175136" />
	</node>
	<node lat="62.22620000167014" lon="11.401566669548439" id="-22998">
		<tag k="name" v="Nordigarden" />
		<tag k="place" v="farm" />
		<tag k="ssr:stedsnr" v="175822" />
	</node>
	<node lat="62.17636111186325" lon="11.638833331628023" id="-23000">
		<tag k="historic" v="shieling" />
		<tag k="name" v="Jordmovollen" />
		<tag k="place" v="isolated_dwelling" />
		<tag k="ssr:stedsnr" v="175976" />
	</node>
	<node lat="62.414749997827265" lon="10.828052782217608" id="-23013">
		<tag k="historic" v="shieling" />
		<tag k="name" v="Gammelsætra" />
		<tag k="place" v="isolated_dwelling" />
		<tag k="ssr:stedsnr" v="176652" />
	</node>
	<node lat="62.17993992885118" lon="11.41813767437519" id="-23021">
		<tag k="name" v="Djupdalsengløa" />
		<tag k="place" v="locality" />
		<tag k="ssr:stedsnr" v="176760" />
	</node>
	<node lat="62.20732777674573" lon="11.497722231739333" id="-23024">
		<tag k="name" v="Storgjelten" />
		<tag k="place" v="isolated_dwelling" />
		<tag k="ssr:stedsnr" v="176779" />
	</node>
	<node lat="62.200688888875405" lon="11.502547217945322" id="-23027">
		<tag k="name" v="Hånes" />
		<tag k="place" v="isolated_dwelling" />
		<tag k="ssr:stedsnr" v="176786" />
	</node>
	<node lat="62.419230553026956" lon="10.865591672461896" id="-23028">
		<tag k="name" v="Veslenorsa" />
		<tag k="place" v="farm" />
		<tag k="ssr:stedsnr" v="176838" />
	</node>
	<node lat="62.47773055746662" lon="10.953322229058207" id="-23039">
		<tag k="alt_name" v="Bakkvollen" />
		<tag k="historic" v="shieling" />
		<tag k="name" v="Bakkavollen" />
		<tag k="place" v="isolated_dwelling" />
		<tag k="ssr:stedsnr" v="193029" />
	</node>
	<node lat="62.47799166299461" lon="10.840277777969993" id="-23040">
		<tag k="alt_name" v="Nordstuvollen, vesle" />
		<tag k="historic" v="shieling" />
		<tag k="name" v="Veslnordstuvollen" />
		<tag k="place" v="isolated_dwelling" />
		<tag k="ssr:stedsnr" v="193030" />
	</node>
	<node lat="62.42052499890573" lon="10.888683328483502" id="-23041">
		<tag k="name" v="Gransletta" />
		<tag k="place" v="farm" />
		<tag k="ssr:stedsnr" v="193103" />
	</node>
	<node lat="62.41965833704236" lon="10.98543888200704" id="-23042">
		<tag k="alt_name" v="Døljugard" />
		<tag k="name" v="Døljogarden" />
		<tag k="old_name" v="Døljoågard" />
		<tag k="place" v="farm" />
		<tag k="ssr:stedsnr" v="193107" />
	</node>
	<node lat="62.42365556005743" lon="10.823477775195116" id="-23043">
		<tag k="name" v="Trøan" />
		<tag k="place" v="farm" />
		<tag k="ssr:stedsnr" v="193117" />
	</node>
	<node lat="62.422461112960605" lon="10.835822213134295" id="-23044">
		<tag k="name" v="Engset" />
		<tag k="place" v="farm" />
		<tag k="ssr:stedsnr" v="193118" />
	</node>
	<node lat="62.412108330724635" lon="11.186238887598345" id="-23045">
		<tag k="historic" v="shieling" />
		<tag k="name" v="Erlienget" />
		<tag k="place" v="isolated_dwelling" />
		<tag k="ssr:stedsnr" v="193122" />
	</node>
	<node lat="62.40886666955226" lon="10.857066662032326" id="-23046">
		<tag k="name" v="Dalheim" />
		<tag k="place" v="farm" />
		<tag k="ssr:stedsnr" v="193127" />
	</node>
	<node lat="62.413183336153665" lon="10.836522218189797" id="-23047">
		<tag k="name" v="Lia" />
		<tag k="place" v="farm" />
		<tag k="ssr:stedsnr" v="193130" />
	</node>
	<node lat="62.40436666506365" lon="11.153988889253858" id="-23048">
		<tag k="alt_name" v="Knappåsvollan;Knappåssætrane" />
		<tag k="name" v="Knappåssætran" />
		<tag k="place" v="hamlet" />
		<tag k="ssr:stedsnr" v="193134" />
	</node>
	<node lat="62.35108889065726" lon="10.983941672513694" id="-23050">
		<tag k="alt_name" v="Telvangen" />
		<tag k="historic" v="shieling" />
		<tag k="name" v="Televangen" />
		<tag k="place" v="isolated_dwelling" />
		<tag k="ssr:stedsnr" v="193207" />
	</node>
	<node lat="62.169175001456075" lon="11.654861109683697" id="-23056">
		<tag k="historic" v="shieling" />
		<tag k="name" v="Åsvollen" />
		<tag k="place" v="isolated_dwelling" />
		<tag k="ssr:stedsnr" v="193400" />
	</node>
	<node lat="62.15554999943955" lon="11.567049998411662" id="-23058">
		<tag k="historic" v="shieling" />
		<tag k="name" v="Langsjøsætra" />
		<tag k="place" v="isolated_dwelling" />
		<tag k="ssr:stedsnr" v="193407" />
	</node>
	<node lat="62.459424997693006" lon="10.748661114358262" id="-23064">
		<tag k="historic" v="shieling" />
		<tag k="name" v="Storhaugvollen" />
		<tag k="place" v="isolated_dwelling" />
		<tag k="ssr:stedsnr" v="194061" />
	</node>
	<node lat="62.45414721867141" lon="10.970141668500448" id="-23065">
		<tag k="historic" v="shieling" />
		<tag k="name" v="Gammeljovollen" />
		<tag k="place" v="isolated_dwelling" />
		<tag k="ssr:stedsnr" v="194068" />
	</node>
	<node lat="62.439544441806255" lon="11.033033329551879" id="-23066">
		<tag k="alt_name" v="Klettsætrane;Klettvollan" />
		<tag k="name" v="Klettsætran" />
		<tag k="place" v="hamlet" />
		<tag k="ssr:stedsnr" v="194076" />
	</node>
	<node lat="62.4422529154048" lon="11.080385376365498" id="-23067">
		<tag k="fixme" v="multiple name tags, choose one and add the other to alt_name" />
		<tag k="historic" v="shieling" />
		<tag k="name" v="Rønningsvollen;Myrvollen" />
		<tag k="place" v="isolated_dwelling" />
		<tag k="ssr:stedsnr" v="194081" />
	</node>
	<node lat="62.44606110948426" lon="11.061777777353399" id="-23068">
		<tag k="alt_name" v="Bjørnkuvsætrane;Bjønnkuvvollan" />
		<tag k="name" v="Bjørnkuvsætran" />
		<tag k="place" v="hamlet" />
		<tag k="ssr:stedsnr" v="194084" />
	</node>
	<node lat="62.3863666694343" lon="10.924469452523091" id="-23070">
		<tag k="alt_name" v="Åsgård" />
		<tag k="name" v="Åsgard" />
		<tag k="place" v="farm" />
		<tag k="ssr:stedsnr" v="194164" />
	</node>
	<node lat="62.36047778235624" lon="11.123894435305301" id="-23073">
		<tag k="historic" v="shieling" />
		<tag k="name" v="Movollen" />
		<tag k="place" v="isolated_dwelling" />
		<tag k="ssr:stedsnr" v="194182" />
	</node>
	<node lat="62.29153611049272" lon="11.289258336094878" id="-23077">
		<tag k="historic" v="shieling" />
		<tag k="name" v="Letningsvollan" />
		<tag k="place" v="isolated_dwelling" />
		<tag k="ssr:stedsnr" v="194413" />
	</node>
	<node lat="62.36210833031654" lon="11.197077775365702" id="-23082">
		<tag k="fixme" v="consider place=hamlet" />
		<tag k="name" v="Hodalen" />
		<tag k="place" v="village" />
		<tag k="ssr:stedsnr" v="207204" />
	</node>
	<node lat="62.204461114282445" lon="11.448219436344266" id="-23083">
		<tag k="fixme" v="consider tourism=alpine_hut or tourism=chalet" />
		<tag k="name" v="Ellefsplass" />
		<tag k="ssr:stedsnr" v="207745" />
		<tag k="tourism" v="wilderness_hut" />
	</node>
	<node lat="62.21266111398904" lon="11.403452780460135" id="-23085">
		<tag k="name" v="Nøsterløa" />
		<tag k="place" v="locality" />
		<tag k="ssr:stedsnr" v="297861" />
	</node>
	<node lat="62.47396666571684" lon="10.955108323721126" id="-23086">
		<tag k="historic" v="shieling" />
		<tag k="name" v="Nilsjovollen" />
		<tag k="place" v="isolated_dwelling" />
		<tag k="ssr:stedsnr" v="297868" />
	</node>
	<node lat="62.42377777342488" lon="10.825725006398592" id="-23103">
		<tag k="name" v="Haugseng" />
		<tag k="place" v="farm" />
		<tag k="ssr:stedsnr" v="296605" />
	</node>
	<node lat="62.43557222427632" lon="10.80704166457986" id="-23104">
		<tag k="name" v="Bakkvollen" />
		<tag k="place" v="isolated_dwelling" />
		<tag k="ssr:stedsnr" v="296614" />
	</node>
	<node lat="62.482488885942324" lon="10.995763893442954" id="-23105">
		<tag k="historic" v="shieling" />
		<tag k="name" v="Ol-Olsavollen" />
		<tag k="place" v="isolated_dwelling" />
		<tag k="ssr:stedsnr" v="297051" />
	</node>
	<node lat="62.352819446652255" lon="11.016747213036515" id="-23108">
		<tag k="name" v="Volheim" />
		<tag k="place" v="isolated_dwelling" />
		<tag k="ssr:stedsnr" v="297335" />
	</node>
	<node lat="62.38093611268601" lon="11.058672228430902" id="-23109">
		<tag k="historic" v="shieling" />
		<tag k="name" v="Eggevollen" />
		<tag k="place" v="isolated_dwelling" />
		<tag k="ssr:stedsnr" v="297338" />
	</node>
	<node lat="62.36228610823576" lon="11.201255547253428" id="-23112">
		<tag k="name" v="Fjellstua" />
		<tag k="place" v="isolated_dwelling" />
		<tag k="ssr:stedsnr" v="297461" />
	</node>
	<node lat="62.40333610924757" lon="11.20844999677896" id="-23118">
		<tag k="name" v="Heskestøbua" />
		<tag k="place" v="isolated_dwelling" />
		<tag k="ssr:stedsnr" v="297586" />
	</node>
	<node lat="62.408666669928465" lon="10.757488891172791" id="-23134">
		<tag k="alt_name" v="Hagavollen;Hagenvollen" />
		<tag k="historic" v="shieling" />
		<tag k="name" v="Hågåvollen" />
		<tag k="place" v="isolated_dwelling" />
		<tag k="ssr:stedsnr" v="314133" />
	</node>
	<node lat="62.41675382280462" lon="11.029184485246272" id="-23135">
		<tag k="fixme" v="consider place=hamlet" />
		<tag k="name" v="Tollan" />
		<tag k="place" v="farm" />
		<tag k="ssr:stedsnr" v="314144" />
	</node>
	<node lat="62.344466667261976" lon="10.870655557993748" id="-23139">
		<tag k="name" v="Eggenget" />
		<tag k="place" v="farm" />
		<tag k="ssr:stedsnr" v="314240" />
	</node>
	<node lat="62.34968962027327" lon="10.98336221608035" id="-23140">
		<tag k="historic" v="shieling" />
		<tag k="name" v="Telvangen" />
		<tag k="place" v="isolated_dwelling" />
		<tag k="ssr:stedsnr" v="314248" />
	</node>
	<node lat="62.24564444388036" lon="11.397730549177131" id="-23142">
		<tag k="name" v="Skogmo" />
		<tag k="place" v="farm" />
		<tag k="ssr:stedsnr" v="314500" />
	</node>
	<node lat="62.44514444564784" lon="10.77114166327132" id="-23143">
		<tag k="historic" v="shieling" />
		<tag k="name" v="Eriksvollen" />
		<tag k="place" v="isolated_dwelling" />
		<tag k="ssr:stedsnr" v="315092" />
	</node>
	<node lat="62.423947221481455" lon="10.839563888825674" id="-23144">
		<tag k="alt_name" v="Trøeng" />
		<tag k="name" v="Trøenget" />
		<tag k="place" v="farm" />
		<tag k="ssr:stedsnr" v="315094" />
	</node>
	<node lat="62.43742222640443" lon="10.886008332354036" id="-23145">
		<tag k="alt_name" v="Lienget" />
		<tag k="name" v="Lieng" />
		<tag k="place" v="farm" />
		<tag k="ssr:stedsnr" v="315100" />
	</node>
	<node lat="62.36461389242803" lon="11.111933343093808" id="-23147">
		<tag k="alt_name" v="Engvollen;Viketrøvollen" />
		<tag k="historic" v="shieling" />
		<tag k="name" v="Eggvollen" />
		<tag k="place" v="isolated_dwelling" />
		<tag k="ssr:stedsnr" v="315184" />
	</node>
	<node lat="62.23440920651674" lon="11.483102398847825" id="-23148">
		<tag k="fixme" v="consider place=hamlet" />
		<tag k="name" v="Øversjøen" />
		<tag k="place" v="farm" />
		<tag k="ssr:stedsnr" v="314511" />
	</node>
	<node lat="62.20971435219221" lon="11.430252648583904" id="-23151">
		<tag k="fixme" v="consider place=hamlet" />
		<tag k="name" v="Jordet" />
		<tag k="place" v="farm" />
		<tag k="ssr:stedsnr" v="314520" />
	</node>
	<node lat="62.20508055702208" lon="11.464191664360627" id="-23153">
		<tag k="name" v="Jensåsen" />
		<tag k="place" v="farm" />
		<tag k="ssr:stedsnr" v="314527" />
	</node>
	<node lat="62.19981388541392" lon="11.505002775050995" id="-23156">
		<tag k="name" v="Nesmoen" />
		<tag k="place" v="farm" />
		<tag k="ssr:stedsnr" v="314533" />
	</node>
	<node lat="62.42653332954456" lon="10.824319438060137" id="-23159">
		<tag k="name" v="Hagen" />
		<tag k="place" v="farm" />
		<tag k="ssr:stedsnr" v="315105" />
	</node>
	<node lat="62.410613885973234" lon="10.900486101831527" id="-23160">
		<tag k="name" v="Nyås" />
		<tag k="place" v="farm" />
		<tag k="ssr:stedsnr" v="315131" />
	</node>
	<node lat="62.41085555157788" lon="10.861294443952568" id="-23161">
		<tag k="name" v="Motun" />
		<tag k="place" v="farm" />
		<tag k="ssr:stedsnr" v="315134" />
	</node>
	<node lat="62.39073611473283" lon="10.962116673261889" id="-23162">
		<tag k="alt_name" v="Kleven" />
		<tag k="name" v="Kleiva" />
		<tag k="place" v="farm" />
		<tag k="ssr:stedsnr" v="315147" />
	</node>
	<node lat="62.31557740648444" lon="11.064892374780216" id="-23165">
		<tag k="name" v="Håengbua" />
		<tag k="place" v="locality" />
		<tag k="ssr:stedsnr" v="315242" />
	</node>
	<node lat="62.47589166368428" lon="10.804550001635642" id="-23168">
		<tag k="fixme" v="multiple name tags, choose one and add the other to alt_name" />
		<tag k="historic" v="shieling" />
		<tag k="name" v="Øyanvollen;Jordvollen" />
		<tag k="place" v="isolated_dwelling" />
		<tag k="ssr:stedsnr" v="315724" />
	</node>
	<node lat="62.4135959178743" lon="10.707395780935075" id="-23170">
		<tag k="alt_name" v="Langsætra" />
		<tag k="historic" v="shieling" />
		<tag k="name" v="Langsætran" />
		<tag k="place" v="isolated_dwelling" />
		<tag k="ssr:stedsnr" v="315795" />
	</node>
	<node lat="62.40751666873419" lon="10.990880551256149" id="-23171">
		<tag k="name" v="Røsebygda" />
		<tag k="old_name" v="Røseplassen" />
		<tag k="place" v="hamlet" />
		<tag k="ssr:stedsnr" v="328125" />
	</node>
	<node lat="62.486897222910144" lon="10.557983340798136" id="-23183">
		<tag k="historic" v="shieling" />
		<tag k="name" v="Stømsøyvangen" />
		<tag k="place" v="isolated_dwelling" />
		<tag k="ssr:stedsnr" v="358342" />
	</node>
	<node lat="62.48353888498172" lon="10.98225555272765" id="-23189">
		<tag k="historic" v="shieling" />
		<tag k="name" v="Døljovollen" />
		<tag k="place" v="isolated_dwelling" />
		<tag k="ssr:stedsnr" v="357047" />
	</node>
	<node lat="62.419347220848735" lon="10.969158328491181" id="-23190">
		<tag k="name" v="Løvtun" />
		<tag k="place" v="isolated_dwelling" />
		<tag k="ssr:stedsnr" v="357178" />
	</node>
	<node lat="62.41138610819427" lon="11.133302781809325" id="-23195">
		<tag k="historic" v="shieling" />
		<tag k="name" v="Dølmovollen" />
		<tag k="place" v="isolated_dwelling" />
		<tag k="ssr:stedsnr" v="357434" />
	</node>
	<node lat="62.44650000018999" lon="10.888130547512203" id="-23205">
		<tag k="historic" v="shieling" />
		<tag k="name" v="Gjeltvollen" />
		<tag k="place" v="isolated_dwelling" />
		<tag k="ssr:stedsnr" v="357846" />
	</node>
	<node lat="62.15681666278568" lon="11.574088895648739" id="-23209">
		<tag k="historic" v="shieling" />
		<tag k="name" v="Jakobvollen" />
		<tag k="place" v="isolated_dwelling" />
		<tag k="ssr:stedsnr" v="357990" />
	</node>
	<node lat="62.47026666260677" lon="10.77641666049782" id="-23212">
		<tag k="name" v="Trøomhytta" />
		<tag k="place" v="isolated_dwelling" />
		<tag k="ssr:stedsnr" v="358562" />
	</node>
	<node lat="62.41647499565497" lon="10.84789166787952" id="-23213">
		<tag k="name" v="Yter Hagen" />
		<tag k="place" v="farm" />
		<tag k="ssr:stedsnr" v="358706" />
	</node>
	<node lat="62.415205558325226" lon="10.862166667554135" id="-23214">
		<tag k="name" v="Jordet" />
		<tag k="place" v="farm" />
		<tag k="ssr:stedsnr" v="358708" />
	</node>
	<node lat="62.37314722322925" lon="10.897094441484876" id="-23226">
		<tag k="name" v="Trikvennan" />
		<tag k="place" v="isolated_dwelling" />
		<tag k="ssr:stedsnr" v="358768" />
	</node>
	<node lat="62.387566662739374" lon="10.909802786509713" id="-23230">
		<tag k="name" v="Stortrøa" />
		<tag k="place" v="farm" />
		<tag k="ssr:stedsnr" v="358789" />
	</node>
	<node lat="62.42093888532697" lon="10.843594440270252" id="-23235">
		<tag k="name" v="Myrstad" />
		<tag k="place" v="farm" />
		<tag k="ssr:stedsnr" v="358838" />
	</node>
	<node lat="62.20409721937465" lon="11.488088893616068" id="-23236">
		<tag k="name" v="Røstbakken" />
		<tag k="place" v="farm" />
		<tag k="ssr:stedsnr" v="374466" />
	</node>
	<node lat="62.20211944182064" lon="11.426391667238843" id="-23238">
		<tag k="name" v="Øverli" />
		<tag k="place" v="farm" />
		<tag k="ssr:stedsnr" v="374473" />
	</node>
	<node lat="62.20360277539556" lon="11.556627783272786" id="-23240">
		<tag k="historic" v="shieling" />
		<tag k="name" v="Ellefsvollen" />
		<tag k="place" v="isolated_dwelling" />
		<tag k="ssr:stedsnr" v="374483" />
	</node>
	<node lat="62.50000555689752" lon="10.756649991411773" id="-23243">
		<tag k="alt_name" v="Londalsvollan" />
		<tag k="historic" v="shieling" />
		<tag k="name" v="Londalen" />
		<tag k="place" v="isolated_dwelling" />
		<tag k="ssr:stedsnr" v="375017" />
	</node>
	<node lat="62.482494440091486" lon="10.836461113081805" id="-23245">
		<tag k="alt_name" v="Nordstuvollen, store" />
		<tag k="historic" v="shieling" />
		<tag k="name" v="Stornordstuvollen" />
		<tag k="place" v="isolated_dwelling" />
		<tag k="ssr:stedsnr" v="375030" />
	</node>
	<node lat="62.412461393376304" lon="10.973317822905917" id="-23246">
		<tag k="fixme" v="consider place=hamlet" />
		<tag k="name" v="Florhaug" />
		<tag k="place" v="farm" />
		<tag k="ssr:stedsnr" v="375122" />
	</node>
	<node lat="62.38488888631176" lon="11.026544446665257" id="-23247">
		<tag k="historic" v="shieling" />
		<tag k="name" v="Storvollen" />
		<tag k="place" v="isolated_dwelling" />
		<tag k="ssr:stedsnr" v="375146" />
	</node>
	<node lat="62.463266665361054" lon="10.763699997807539" id="-23248">
		<tag k="historic" v="shieling" />
		<tag k="name" v="Nestebyvollen" />
		<tag k="place" v="isolated_dwelling" />
		<tag k="ssr:stedsnr" v="375067" />
	</node>
	<node lat="62.446138885276866" lon="10.88576666805671" id="-23249">
		<tag k="alt_name" v="Vingelsætra" />
		<tag k="name" v="Vingelssætra" />
		<tag k="place" v="hamlet" />
		<tag k="ssr:stedsnr" v="375074" />
	</node>
	<node lat="62.4246138914704" lon="10.96709722638034" id="-23261">
		<tag k="alt_name" v="Øyan;Øyen" />
		<tag k="name" v="Øya" />
		<tag k="place" v="farm" />
		<tag k="ssr:stedsnr" v="376107" />
	</node>
	<node lat="62.21333055852358" lon="11.149441659416928" id="-23263">
		<tag k="fixme" v="consider tourism=alpine_hut or tourism=chalet" />
		<tag k="name" v="Raudsjødalen" />
		<tag k="ssr:stedsnr" v="388161" />
		<tag k="tourism" v="wilderness_hut" />
	</node>
	<node lat="62.41393888681985" lon="10.710591663080404" id="-23268">
		<tag k="historic" v="shieling" />
		<tag k="name" v="Åkervollen" />
		<tag k="place" v="isolated_dwelling" />
		<tag k="ssr:stedsnr" v="416010" />
	</node>
	<node lat="62.24644722346528" lon="11.34324166687505" id="-23272">
		<tag k="name" v="Høghyttan" />
		<tag k="place" v="isolated_dwelling" />
		<tag k="ssr:stedsnr" v="417863" />
	</node>
	<node lat="62.4201561052551" lon="10.98092409455223" id="-23273">
		<tag k="fixme" v="consider place=hamlet" />
		<tag k="name" v="Lillehaug" />
		<tag k="place" v="farm" />
		<tag k="ssr:stedsnr" v="418164" />
	</node>
	<node lat="62.471833337395815" lon="10.783922223855669" id="-23280">
		<tag k="historic" v="shieling" />
		<tag k="name" v="Trøengvollen" />
		<tag k="place" v="isolated_dwelling" />
		<tag k="ssr:stedsnr" v="418533" />
	</node>
	<node lat="62.42047500291598" lon="10.841174997941298" id="-23284">
		<tag k="name" v="Myrstad" />
		<tag k="place" v="farm" />
		<tag k="ssr:stedsnr" v="418590" />
	</node>
	<node lat="62.42574166991901" lon="10.82731666322218" id="-23285">
		<tag k="name" v="Nordstad" />
		<tag k="place" v="farm" />
		<tag k="ssr:stedsnr" v="418591" />
	</node>
	<node lat="62.483127782069815" lon="10.805277782051832" id="-23289">
		<tag k="historic" v="shieling" />
		<tag k="name" v="Simasvollen" />
		<tag k="place" v="isolated_dwelling" />
		<tag k="ssr:stedsnr" v="418957" />
	</node>
	<node lat="62.44586666951794" lon="10.885958337018252" id="-23293">
		<tag k="historic" v="shieling" />
		<tag k="name" v="Smedåsvollen" />
		<tag k="place" v="isolated_dwelling" />
		<tag k="ssr:stedsnr" v="418832" />
	</node>
	<node lat="62.35591388996122" lon="11.196480553914386" id="-23294">
		<tag k="name" v="Søndre Hodalen" />
		<tag k="place" v="farm" />
		<tag k="ssr:stedsnr" v="419460" />
	</node>
	<node lat="62.41052222026093" lon="10.999516658288766" id="-23298">
		<tag k="name" v="Dølmotunet" />
		<tag k="place" v="isolated_dwelling" />
		<tag k="ssr:stedsnr" v="419273" />
	</node>
	<node lat="62.42405555598702" lon="10.876916676336874" id="-23318">
		<tag k="name" v="Banken" />
		<tag k="place" v="farm" />
		<tag k="ssr:stedsnr" v="419854" />
	</node>
	<node lat="62.35831944200088" lon="10.895194447849061" id="-23324">
		<tag k="name" v="Findalsrommet" />
		<tag k="place" v="locality" />
		<tag k="ssr:stedsnr" v="419769" />
	</node>
	<node lat="62.38328055587282" lon="10.956066661288682" id="-23327">
		<tag k="name" v="Gjelta" />
		<tag k="place" v="farm" />
		<tag k="ssr:stedsnr" v="419780" />
	</node>
	<node lat="62.479049998656855" lon="10.976266675861151" id="-23334">
		<tag k="fixme" v="multiple name tags, choose one and add the other to alt_name" />
		<tag k="historic" v="shieling" />
		<tag k="name" v="Buhaugen;Flatvollen" />
		<tag k="place" v="isolated_dwelling" />
		<tag k="ssr:stedsnr" v="436034" />
	</node>
	<node lat="62.46329166340015" lon="10.730930553684782" id="-23335">
		<tag k="alt_name" v="Tollefshagenvollen" />
		<tag k="historic" v="shieling" />
		<tag k="loc_name" v="Tollefshågåvollen" />
		<tag k="name" v="Tollevshågåvollen" />
		<tag k="old_name" v="Tollevshagen" />
		<tag k="place" v="isolated_dwelling" />
		<tag k="ssr:stedsnr" v="436049" />
	</node>
	<node lat="62.388769447960435" lon="10.972733337613068" id="-23338">
		<tag k="name" v="Granum" />
		<tag k="place" v="isolated_dwelling" />
		<tag k="ssr:stedsnr" v="436139" />
	</node>
	<node lat="62.24764444632581" lon="11.164588884235553" id="-23339">
		<tag k="alt_name" v="Raudsjødalen, nordre" />
		<tag k="fixme" v="multiple name tags, choose one and add the other to alt_name" />
		<tag k="historic" v="shieling" />
		<tag k="name" v="Eidsætra;Nordre Raudsjødalen" />
		<tag k="place" v="isolated_dwelling" />
		<tag k="ssr:stedsnr" v="436191" />
	</node>
	<node lat="62.31460833497206" lon="11.24880278288776" id="-23342">
		<tag k="historic" v="shieling" />
		<tag k="name" v="Tangvollen" />
		<tag k="place" v="isolated_dwelling" />
		<tag k="ssr:stedsnr" v="436429" />
	</node>
	<node lat="62.46007777503037" lon="10.914966665785053" id="-23344">
		<tag k="name" v="Røset" />
		<tag k="place" v="farm" />
		<tag k="ssr:stedsnr" v="436069" />
	</node>
	<node lat="62.4631694407562" lon="10.745880554808947" id="-23345">
		<tag k="historic" v="shieling" />
		<tag k="name" v="Persvollen" />
		<tag k="place" v="isolated_dwelling" />
		<tag k="ssr:stedsnr" v="436073" />
	</node>
	<node lat="62.30325555265718" lon="11.264430564524783" id="-23347">
		<tag k="historic" v="shieling" />
		<tag k="name" v="Bakkvollen" />
		<tag k="place" v="isolated_dwelling" />
		<tag k="ssr:stedsnr" v="436465" />
	</node>
	<node lat="62.30642778240525" lon="11.256163881077136" id="-23348">
		<tag k="historic" v="shieling" />
		<tag k="name" v="Gjeltvollen" />
		<tag k="place" v="isolated_dwelling" />
		<tag k="ssr:stedsnr" v="436469" />
	</node>
	<node lat="62.30484444341295" lon="11.400438882982389" id="-23349">
		<tag k="historic" v="shieling" />
		<tag k="name" v="Kåsvollen" />
		<tag k="place" v="isolated_dwelling" />
		<tag k="ssr:stedsnr" v="436474" />
	</node>
	<node lat="62.415380559322394" lon="10.712766668945918" id="-23350">
		<tag k="alt_name" v="Nytrøvollen" />
		<tag k="historic" v="shieling" />
		<tag k="name" v="Nytrøa" />
		<tag k="place" v="isolated_dwelling" />
		<tag k="ssr:stedsnr" v="436799" />
	</node>
	<node lat="62.34498889235562" lon="11.35095834230118" id="-23353">
		<tag k="historic" v="shieling" />
		<tag k="name" v="Øyvollen" />
		<tag k="place" v="isolated_dwelling" />
		<tag k="ssr:stedsnr" v="496487" />
	</node>
	<node lat="62.224555555859226" lon="11.39658611016932" id="-23354">
		<tag k="name" v="Utheim" />
		<tag k="place" v="farm" />
		<tag k="ssr:stedsnr" v="496490" />
	</node>
	<node lat="62.42280278159172" lon="10.94569167600722" id="-23356">
		<tag k="name" v="Hagen" />
		<tag k="place" v="farm" />
		<tag k="ssr:stedsnr" v="496110" />
	</node>
	<node lat="62.41638567870776" lon="10.824960822970267" id="-23357">
		<tag k="alt_name" v="Sætra" />
		<tag k="fixme" v="consider place=hamlet" />
		<tag k="name" v="Sæter" />
		<tag k="place" v="farm" />
		<tag k="ssr:stedsnr" v="496116" />
	</node>
	<node lat="62.417233329895744" lon="10.86191111116664" id="-23358">
		<tag k="fixme" v="consider place=hamlet" />
		<tag k="name" v="Vingelen" />
		<tag k="place" v="village" />
		<tag k="ssr:stedsnr" v="496120" />
	</node>
	<node lat="62.410197225414244" lon="10.733555557869408" id="-23359">
		<tag k="historic" v="shieling" />
		<tag k="name" v="Movollen" />
		<tag k="place" v="isolated_dwelling" />
		<tag k="ssr:stedsnr" v="496121" />
	</node>
	<node lat="62.38226944071486" lon="11.109808335224221" id="-23367">
		<tag k="historic" v="shieling" />
		<tag k="name" v="Brennmovollen" />
		<tag k="place" v="isolated_dwelling" />
		<tag k="ssr:stedsnr" v="497164" />
	</node>
	<node lat="62.38082584722322" lon="10.951026066884229" id="-23368">
		<tag k="alt_name" v="Eid" />
		<tag k="fixme" v="consider place=hamlet" />
		<tag k="name" v="Eidet" />
		<tag k="place" v="farm" />
		<tag k="ssr:stedsnr" v="497167" />
	</node>
	<node lat="62.41358671755828" lon="10.874429686624794" id="-23371">
		<tag k="alt_name" v="Moen;Øster Moen" />
		<tag k="fixme" v="consider place=hamlet" />
		<tag k="name" v="Østermoen" />
		<tag k="place" v="farm" />
		<tag k="ssr:stedsnr" v="497132" />
	</node>
	<node lat="62.406997225199895" lon="11.137811116182965" id="-23372">
		<tag k="historic" v="shieling" />
		<tag k="name" v="Klokkarvollen" />
		<tag k="place" v="isolated_dwelling" />
		<tag k="ssr:stedsnr" v="497140" />
	</node>
	<node lat="62.372605553816385" lon="11.19303055232983" id="-23373">
		<tag k="name" v="Kverntrømyra" />
		<tag k="place" v="isolated_dwelling" />
		<tag k="ssr:stedsnr" v="497178" />
	</node>
	<node lat="62.369194447588704" lon="11.203974999051992" id="-23374">
		<tag k="name" v="Rønningen" />
		<tag k="place" v="farm" />
		<tag k="ssr:stedsnr" v="497179" />
	</node>
	<node lat="62.280712128221246" lon="11.394587123739093" id="-23376">
		<tag k="fixme" v="consider place=hamlet" />
		<tag k="name" v="Prestlia" />
		<tag k="place" v="farm" />
		<tag k="ssr:stedsnr" v="497453" />
	</node>
	<node lat="62.29124166309401" lon="11.37667499120454" id="-23380">
		<tag k="name" v="Borvollen" />
		<tag k="place" v="isolated_dwelling" />
		<tag k="ssr:stedsnr" v="497482" />
	</node>
	<node lat="62.312413893038574" lon="11.247344445759843" id="-23382">
		<tag k="historic" v="shieling" />
		<tag k="name" v="Vollvollen" />
		<tag k="place" v="isolated_dwelling" />
		<tag k="ssr:stedsnr" v="497423" />
	</node>
	<node lat="62.45738889316222" lon="11.044361115687577" id="-23395">
		<tag k="historic" v="shieling" />
		<tag k="name" v="Freksvollen" />
		<tag k="place" v="isolated_dwelling" />
		<tag k="ssr:stedsnr" v="539067" />
	</node>
	<node lat="62.41774166289944" lon="10.87328612035935" id="-23415">
		<tag k="name" v="Storgjelta" />
		<tag k="place" v="farm" />
		<tag k="ssr:stedsnr" v="540845" />
	</node>
	<node lat="62.48679166918217" lon="10.554494444739731" id="-23421">
		<tag k="historic" v="shieling" />
		<tag k="name" v="Evensmovangen" />
		<tag k="place" v="isolated_dwelling" />
		<tag k="ssr:stedsnr" v="540340" />
	</node>
	<node lat="62.42054721926096" lon="10.753047221230796" id="-23424">
		<tag k="historic" v="shieling" />
		<tag k="name" v="Bakkvollen" />
		<tag k="place" v="isolated_dwelling" />
		<tag k="ssr:stedsnr" v="540353" />
	</node>
	<node lat="62.40394999628897" lon="10.897605562646522" id="-23427">
		<tag k="name" v="Furuholt" />
		<tag k="place" v="farm" />
		<tag k="ssr:stedsnr" v="540688" />
	</node>
	<node lat="62.38885578581668" lon="10.912691083287795" id="-23431">
		<tag k="alt_name" v="Åsen" />
		<tag k="name" v="Vingelsåsen" />
		<tag k="place" v="hamlet" />
		<tag k="ssr:stedsnr" v="540773" />
	</node>
	<node lat="62.47552778040168" lon="10.955624995706888" id="-23434">
		<tag k="historic" v="shieling" />
		<tag k="name" v="Hallvollen" />
		<tag k="place" v="isolated_dwelling" />
		<tag k="ssr:stedsnr" v="540872" />
	</node>
	<node lat="62.4723916688535" lon="10.953855553152643" id="-23435">
		<tag k="historic" v="shieling" />
		<tag k="name" v="Simagjeltvollen" />
		<tag k="place" v="isolated_dwelling" />
		<tag k="ssr:stedsnr" v="540874" />
	</node>
	<node lat="62.45839722633113" lon="10.94649999256793" id="-23436">
		<tag k="historic" v="shieling" />
		<tag k="name" v="Pålsolavollen" />
		<tag k="place" v="isolated_dwelling" />
		<tag k="ssr:stedsnr" v="540888" />
	</node>
</osm>
