<?xml version="1.0" encoding="UTF-8"?>
<<<<<<< HEAD
<osm version="0.6" generator="osmapis">
	<node lat="62.4137861136611" lon="10.73401943804275" id="-19817">
		<tag k="name" v="Veiskilløy" />
		<tag k="place" v="locality" />
		<tag k="ssr:stedsnr" v="234256" />
	</node>
	<node lat="62.43492777827948" lon="11.037052786790287" id="-19822">
		<tag k="name" v="Kåsan" />
		<tag k="place" v="locality" />
		<tag k="ssr:stedsnr" v="236126" />
	</node>
	<node lat="62.4522222242481" lon="10.775588888279234" id="-19826">
		<tag k="landuse" v="meadow" />
		<tag k="name" v="Vesleenget" />
		<tag k="ssr:stedsnr" v="236339" />
	</node>
	<node lat="62.39408055734909" lon="10.972933326431024" id="-19827">
		<tag k="name" v="Kåsa" />
		<tag k="place" v="locality" />
		<tag k="ssr:stedsnr" v="236342" />
	</node>
	<node lat="62.370474996680784" lon="11.054013887486354" id="-19829">
		<tag k="landuse" v="meadow" />
		<tag k="name" v="Åsengene" />
		<tag k="ssr:stedsnr" v="236326" />
	</node>
	<node lat="62.4174694431252" lon="10.786363890854087" id="-19837">
		<tag k="name" v="Simamyra" />
		<tag k="natural" v="wetland" />
		<tag k="ssr:stedsnr" v="236586" />
	</node>
	<node lat="62.384305558097665" lon="10.860513887881881" id="-19843">
		<tag k="historic" v="shieling" />
		<tag k="name" v="Høstvollan" />
		<tag k="place" v="locality" />
		<tag k="ssr:stedsnr" v="236673" />
	</node>
	<node lat="62.48239721792759" lon="10.825152785137542" id="-19847">
		<tag k="landuse" v="meadow" />
		<tag k="name" v="Veslenget" />
		<tag k="ssr:stedsnr" v="236957" />
	</node>
	<node lat="62.2248111102937" lon="11.035261110007278" id="-19848">
		<tag k="name" v="Granslette" />
		<tag k="place" v="locality" />
		<tag k="ssr:stedsnr" v="237420" />
	</node>
	<node lat="62.22521111407029" lon="11.063433326507015" id="-19849">
		<tag k="landuse" v="meadow" />
		<tag k="name" v="Framkåsa" />
		<tag k="ssr:stedsnr" v="237421" />
	</node>
	<node lat="62.409494440393836" lon="11.1870388878674" id="-19851">
		<tag k="name" v="Dølmoenget" />
		<tag k="place" v="locality" />
		<tag k="ssr:stedsnr" v="237618" />
	</node>
	<node lat="62.4297333290016" lon="10.984847229613713" id="-19860">
		<tag k="name" v="Lømyra" />
		<tag k="natural" v="wetland" />
		<tag k="ssr:stedsnr" v="54184" />
	</node>
	<node lat="62.42821944238604" lon="11.002216673321728" id="-19861">
		<tag k="name" v="Smeltarmyra" />
		<tag k="natural" v="wetland" />
		<tag k="ssr:stedsnr" v="54187" />
	</node>
	<node lat="62.4403416622628" lon="10.797780560269358" id="-19863">
		<tag k="historic" v="shieling" />
		<tag k="name" v="Vangsvollen" />
		<tag k="place" v="locality" />
		<tag k="ssr:stedsnr" v="54603" />
	</node>
	<node lat="62.449669442896756" lon="10.803983332984528" id="-19864">
		<tag k="name" v="Veslevolmyran" />
		<tag k="natural" v="wetland" />
		<tag k="ssr:stedsnr" v="54606" />
	</node>
	<node lat="62.45003333157429" lon="10.810241674250097" id="-19865">
		<tag k="name" v="Vangslått" />
		<tag k="place" v="locality" />
		<tag k="ssr:stedsnr" v="54608" />
	</node>
	<node lat="62.44898333333374" lon="10.897441674771537" id="-19871">
		<tag k="name" v="Olderlunna" />
		<tag k="place" v="locality" />
		<tag k="ssr:stedsnr" v="54856" />
	</node>
	<node lat="62.402383336431306" lon="11.071947219416948" id="-19876">
		<tag k="name" v="Stormyra" />
		<tag k="natural" v="wetland" />
		<tag k="ssr:stedsnr" v="55281" />
	</node>
	<node lat="62.37967777959905" lon="10.883605552271389" id="-19882">
		<tag k="name" v="Bleien" />
		<tag k="place" v="locality" />
		<tag k="ssr:stedsnr" v="55680" />
	</node>
	<node lat="62.23585277955219" lon="11.50291665995497" id="-19884">
		<tag k="name" v="Finnteltbakken" />
		<tag k="place" v="locality" />
		<tag k="ssr:stedsnr" v="55777" />
	</node>
	<node lat="62.244361112149996" lon="11.468391674162623" id="-19885">
		<tag k="historic" v="shieling" />
		<tag k="name" v="Gjertrudvollen" />
		<tag k="place" v="locality" />
		<tag k="ssr:stedsnr" v="55778" />
	</node>
	<node lat="62.2138361137945" lon="11.418408333844798" id="-19888">
		<tag k="name" v="Jordfloen" />
		<tag k="natural" v="wetland" />
		<tag k="ssr:stedsnr" v="71501" />
	</node>
	<node lat="62.26012222391086" lon="11.452033329494615" id="-19904">
		<tag k="name" v="Kløvmyran" />
		<tag k="natural" v="wetland" />
		<tag k="ssr:stedsnr" v="114824" />
	</node>
	<node lat="62.42146944715377" lon="10.99466388987749" id="-19908">
		<tag k="historic" v="shieling" />
		<tag k="name" v="Kringlettmyra" />
		<tag k="place" v="locality" />
		<tag k="ssr:stedsnr" v="115215" />
	</node>
	<node lat="62.282755558987354" lon="11.044088886519534" id="-19914">
		<tag k="historic" v="shieling" />
		<tag k="name" v="Gammelvollen" />
		<tag k="place" v="locality" />
		<tag k="ssr:stedsnr" v="115326" />
	</node>
	<node lat="62.4763388920342" lon="10.83821666169649" id="-19915">
		<tag k="historic" v="shieling" />
		<tag k="name" v="Gamle Stornorstuvollen" />
		<tag k="place" v="locality" />
		<tag k="ssr:stedsnr" v="115528" />
	</node>
	<node lat="62.18620555581892" lon="11.418047219647029" id="-19918">
		<tag k="name" v="Rundhesjestøet" />
		<tag k="place" v="locality" />
		<tag k="ssr:stedsnr" v="115734" />
	</node>
	<node lat="62.23694444236635" lon="11.488750007053454" id="-19921">
		<tag k="name" v="Småmyran" />
		<tag k="natural" v="wetland" />
		<tag k="ssr:stedsnr" v="115772" />
	</node>
	<node lat="62.239508336724164" lon="11.479388880938766" id="-19923">
		<tag k="historic" v="shieling" />
		<tag k="name" v="Elvebakken" />
		<tag k="place" v="locality" />
		<tag k="ssr:stedsnr" v="115774" />
	</node>
	<node lat="62.36127500171713" lon="10.953924995702236" id="-19924">
		<tag k="name" v="Åsmåssåmyra" />
		<tag k="natural" v="wetland" />
		<tag k="ssr:stedsnr" v="115777" />
	</node>
	<node lat="62.379383333512244" lon="10.936247231465625" id="-19925">
		<tag k="name" v="Fossmyra" />
		<tag k="natural" v="wetland" />
		<tag k="ssr:stedsnr" v="115778" />
	</node>
	<node lat="62.43441944527865" lon="10.912033332417616" id="-19927">
		<tag k="name" v="Veslesætermyra" />
		<tag k="natural" v="wetland" />
		<tag k="ssr:stedsnr" v="115788" />
	</node>
	<node lat="62.39510555850354" lon="10.89550277074913" id="-19928">
		<tag k="name" v="Kloppmyra" />
		<tag k="natural" v="wetland" />
		<tag k="ssr:stedsnr" v="115670" />
	</node>
	<node lat="62.375086114307784" lon="10.857186102719602" id="-19930">
		<tag k="name" v="Brøttbekkfloen" />
		<tag k="natural" v="wetland" />
		<tag k="ssr:stedsnr" v="115677" />
	</node>
	<node lat="62.37603332999391" lon="11.2410305525275" id="-19932">
		<tag k="landuse" v="meadow" />
		<tag k="name" v="Kåsan" />
		<tag k="ssr:stedsnr" v="115681" />
	</node>
	<node lat="62.38686111262262" lon="10.900827779460759" id="-19933">
		<tag k="landuse" v="meadow" />
		<tag k="name" v="Veslevangan" />
		<tag k="ssr:stedsnr" v="115682" />
	</node>
	<node lat="62.45137777639529" lon="11.070138896542252" id="-19975">
		<tag k="name" v="Torvfloen" />
		<tag k="natural" v="wetland" />
		<tag k="ssr:stedsnr" v="175075" />
	</node>
	<node lat="62.42903611397267" lon="10.96885278556663" id="-19979">
		<tag k="name" v="Håmyra" />
		<tag k="natural" v="wetland" />
		<tag k="ssr:stedsnr" v="175162" />
	</node>
	<node lat="62.36925555214411" lon="11.12254444251763" id="-19981">
		<tag k="name" v="Bjørsjøfloen" />
		<tag k="natural" v="wetland" />
		<tag k="ssr:stedsnr" v="175459" />
	</node>
	<node lat="62.199602775649595" lon="11.531913882414804" id="-19986">
		<tag k="name" v="Kåsan" />
		<tag k="place" v="locality" />
		<tag k="ssr:stedsnr" v="175926" />
	</node>
	<node lat="62.49137500426788" lon="10.78433054810499" id="-19987">
		<tag k="landuse" v="meadow" />
		<tag k="name" v="Storbukta" />
		<tag k="ssr:stedsnr" v="175954" />
	</node>
	<node lat="62.37559999576328" lon="11.041549999006476" id="-19989">
		<tag k="name" v="Åsengfloan" />
		<tag k="natural" v="wetland" />
		<tag k="ssr:stedsnr" v="176308" />
	</node>
	<node lat="62.488177777872" lon="10.55656111329121" id="-19992">
		<tag k="name" v="Haugtrøa" />
		<tag k="place" v="locality" />
		<tag k="ssr:stedsnr" v="176325" />
	</node>
	<node lat="62.31928889183859" lon="11.214013887310765" id="-19993">
		<tag k="name" v="Nyvollmyra" />
		<tag k="natural" v="wetland" />
		<tag k="ssr:stedsnr" v="176611" />
	</node>
	<node lat="62.372677781093074" lon="11.233166674643261" id="-19995">
		<tag k="name" v="Sunda" />
		<tag k="natural" v="wetland" />
		<tag k="ssr:stedsnr" v="176708" />
	</node>
	<node lat="62.38216389321922" lon="10.857777775284065" id="-19996">
		<tag k="historic" v="shieling" />
		<tag k="name" v="Åshaugvollen" />
		<tag k="place" v="locality" />
		<tag k="ssr:stedsnr" v="176709" />
	</node>
	<node lat="62.161758332791884" lon="11.427730549750839" id="-19998">
		<tag k="name" v="Vasskillet" />
		<tag k="natural" v="wetland" />
		<tag k="ssr:stedsnr" v="176754" />
	</node>
	<node lat="62.47017222679457" lon="10.765502771904632" id="-20000">
		<tag k="name" v="Trøomslått" />
		<tag k="place" v="locality" />
		<tag k="ssr:stedsnr" v="235554" />
	</node>
	<node lat="62.45143889035364" lon="11.00811111597037" id="-20004">
		<tag k="name" v="Skreddarmyran" />
		<tag k="natural" v="wetland" />
		<tag k="ssr:stedsnr" v="236179" />
	</node>
	<node lat="62.42338611348806" lon="11.006216665335685" id="-20006">
		<tag k="historic" v="shieling" />
		<tag k="name" v="Olvollen" />
		<tag k="place" v="locality" />
		<tag k="ssr:stedsnr" v="236196" />
	</node>
	<node lat="62.45653888564515" lon="10.733727785999148" id="-20007">
		<tag k="landuse" v="meadow" />
		<tag k="name" v="Bakenget" />
		<tag k="ssr:stedsnr" v="236303" />
	</node>
	<node lat="62.363552776142754" lon="10.93723332879832" id="-20022">
		<tag k="name" v="Tovrya" />
		<tag k="natural" v="wetland" />
		<tag k="ssr:stedsnr" v="236787" />
	</node>
	<node lat="62.40405000427775" lon="11.058505554301352" id="-20024">
		<tag k="name" v="Vintervegmyra" />
		<tag k="natural" v="wetland" />
		<tag k="ssr:stedsnr" v="237284" />
	</node>
	<node lat="62.28437777924387" lon="11.473774991373455" id="-20026">
		<tag k="historic" v="shieling" />
		<tag k="name" v="Sætre" />
		<tag k="place" v="locality" />
		<tag k="ssr:stedsnr" v="237300" />
	</node>
	<node lat="62.43590833486483" lon="11.074063880008552" id="-20027">
		<tag k="name" v="Tjukkåsmyran" />
		<tag k="natural" v="wetland" />
		<tag k="ssr:stedsnr" v="237197" />
	</node>
	<node lat="62.29214166447862" lon="11.039274996934093" id="-20028">
		<tag k="name" v="Ivarkåsa" />
		<tag k="place" v="locality" />
		<tag k="ssr:stedsnr" v="237313" />
	</node>
	<node lat="62.3522138852526" lon="11.189588885358555" id="-20031">
		<tag k="name" v="Ratet" />
		<tag k="natural" v="wetland" />
		<tag k="ssr:stedsnr" v="237489" />
	</node>
	<node lat="62.3672000015845" lon="11.23730556238828" id="-20035">
		<tag k="name" v="Nylandet" />
		<tag k="place" v="locality" />
		<tag k="ssr:stedsnr" v="237730" />
	</node>
	<node lat="62.38824444728856" lon="11.214197229651928" id="-20036">
		<tag k="name" v="Bruengmyran" />
		<tag k="natural" v="wetland" />
		<tag k="ssr:stedsnr" v="237735" />
	</node>
	<node lat="62.230483336824825" lon="11.479297227097458" id="-20038">
		<tag k="name" v="Tjønnløbakken" />
		<tag k="place" v="locality" />
		<tag k="ssr:stedsnr" v="237794" />
	</node>
	<node lat="62.41349167075796" lon="10.675241671504233" id="-20064">
		<tag k="name" v="Tølleslåtten" />
		<tag k="natural" v="wetland" />
		<tag k="ssr:stedsnr" v="294002" />
	</node>
	<node lat="62.410977782289564" lon="10.708674999269391" id="-20065">
		<tag k="historic" v="shieling" />
		<tag k="name" v="Langsætra" />
		<tag k="place" v="locality" />
		<tag k="ssr:stedsnr" v="294012" />
	</node>
	<node lat="62.475777780583705" lon="10.723422231226895" id="-20068">
		<tag k="landuse" v="meadow" />
		<tag k="name" v="Persenga" />
		<tag k="ssr:stedsnr" v="296228" />
	</node>
	<node lat="62.40707777581286" lon="10.926541659027006" id="-20089">
		<tag k="name" v="Høyåsfloen" />
		<tag k="natural" v="wetland" />
		<tag k="ssr:stedsnr" v="297827" />
	</node>
	<node lat="62.40179166416837" lon="10.926388896370563" id="-20092">
		<tag k="name" v="Forlotten" />
		<tag k="place" v="locality" />
		<tag k="ssr:stedsnr" v="297832" />
	</node>
	<node lat="62.441858334658015" lon="10.91868332617351" id="-20097">
		<tag k="name" v="Veslesætermyran" />
		<tag k="natural" v="wetland" />
		<tag k="ssr:stedsnr" v="297888" />
	</node>
	<node lat="62.47798888892625" lon="10.850013895846484" id="-20098">
		<tag k="historic" v="shieling" />
		<tag k="name" v="Ustuvollen" />
		<tag k="place" v="locality" />
		<tag k="ssr:stedsnr" v="297899" />
	</node>
	<node lat="62.36870000130089" lon="11.083063891208647" id="-20114">
		<tag k="alt_name" v="Engefloen" />
		<tag k="name" v="Engfloen" />
		<tag k="natural" v="wetland" />
		<tag k="ssr:stedsnr" v="315174" />
	</node>
	<node lat="62.38019166370572" lon="10.824877780970958" id="-20123">
		<tag k="name" v="Gammelvangmyra" />
		<tag k="natural" v="wetland" />
		<tag k="ssr:stedsnr" v="355218" />
	</node>
	<node lat="62.46143611077948" lon="11.019019435001509" id="-20126">
		<tag k="name" v="Karlsfloen" />
		<tag k="natural" v="wetland" />
		<tag k="ssr:stedsnr" v="357057" />
	</node>
	<node lat="62.49901388961273" lon="10.793972224830798" id="-20142">
		<tag k="landuse" v="meadow" />
		<tag k="name" v="Nygardsenga" />
		<tag k="ssr:stedsnr" v="357956" />
	</node>
	<node lat="62.41060555216784" lon="11.024627768991085" id="-20146">
		<tag k="alt_name" v="Garmakervollen" />
		<tag k="name" v="Garmåkervollen" />
		<tag k="old_name" v="Garmaakervollen" />
=======
<osm generator="osmapis" version="0.6">
	<node id="-350169" lat="62.3574166697" lon="11.2076666752">
		<tag k="name" v="Nykloppmoen" />
		<tag k="place" v="locality" />
		<tag k="ssr:stedsnr" v="186547" />
	</node>
	<node id="-350167" lat="62.462011113" lon="10.9536611208">
		<tag k="name" v="Langmyra" />
		<tag k="natural" v="wetland" />
		<tag k="ssr:stedsnr" v="176884" />
	</node>
	<node id="-350166" lat="62.4642222202" lon="10.9273583356">
		<tag k="name" v="Olamyra" />
		<tag k="natural" v="wetland" />
		<tag k="ssr:stedsnr" v="176878" />
	</node>
	<node id="-350164" lat="62.2174277772" lon="11.4049250084">
		<tag k="name" v="Storøyodden" />
		<tag k="place" v="locality" />
		<tag k="ssr:stedsnr" v="176848" />
	</node>
	<node id="-350160" lat="62.2200861153" lon="11.4755194444">
		<tag k="name" v="Myran" />
		<tag k="natural" v="wetland" />
		<tag k="ssr:stedsnr" v="176796" />
	</node>
	<node id="-350157" lat="62.384516671" lon="10.9285722262">
		<tag k="name" v="Blestermyra" />
		<tag k="natural" v="wetland" />
		<tag k="ssr:stedsnr" v="176785" />
	</node>
	<node id="-350153" lat="62.3885666666" lon="10.9546583366">
		<tag k="name" v="Granrøsta" />
		<tag k="place" v="locality" />
		<tag k="ssr:stedsnr" v="176772" />
	</node>
	<node id="-350150" lat="62.1617583328" lon="11.4277305498">
		<tag k="name" v="Vasskillet" />
		<tag k="natural" v="wetland" />
		<tag k="ssr:stedsnr" v="176754" />
	</node>
	<node id="-350149" lat="62.1664111147" lon="11.4289333418">
		<tag k="name" v="Floan" />
		<tag k="natural" v="wetland" />
		<tag k="ssr:stedsnr" v="176751" />
	</node>
	<node id="-350148" lat="62.3821638932" lon="10.8577777753">
		<tag k="historic" v="shieling" />
		<tag k="name" v="Åshaugvollen" />
		<tag k="place" v="locality" />
		<tag k="ssr:stedsnr" v="176709" />
	</node>
	<node id="-350147" lat="62.3726777811" lon="11.2331666746">
		<tag k="name" v="Sunda" />
		<tag k="natural" v="wetland" />
		<tag k="ssr:stedsnr" v="176708" />
	</node>
	<node id="-350138" lat="62.3192888918" lon="11.2140138873">
		<tag k="name" v="Nyvollmyra" />
		<tag k="natural" v="wetland" />
		<tag k="ssr:stedsnr" v="176611" />
	</node>
	<node id="-350132" lat="62.4404333369" lon="10.7261499934">
		<tag k="alt_name" v="Oustutrøbåvolvollen" />
		<tag k="name" v="Austutrøbåvolvollen" />
		<tag k="place" v="locality" />
		<tag k="ssr:stedsnr" v="176335" />
	</node>
	<node id="-350130" lat="62.4881777779" lon="10.5565611133">
		<tag k="name" v="Haugtrøa" />
		<tag k="place" v="locality" />
		<tag k="ssr:stedsnr" v="176325" />
	</node>
	<node id="-350127" lat="62.3755999958" lon="11.041549999">
		<tag k="name" v="Åsengfloan" />
		<tag k="natural" v="wetland" />
		<tag k="ssr:stedsnr" v="176308" />
	</node>
	<node id="-350123" lat="62.399205557" lon="10.972241668">
		<tag k="name" v="Rokkhesjestøet" />
		<tag k="place" v="locality" />
		<tag k="ssr:stedsnr" v="176250" />
	</node>
	<node id="-350121" lat="62.4103249973" lon="10.9661638934">
		<tag k="name" v="Gurimyra" />
		<tag k="natural" v="wetland" />
		<tag k="ssr:stedsnr" v="176241" />
	</node>
	<node id="-350120" lat="62.4250916632" lon="11.0500527692">
		<tag k="name" v="Granrøsta" />
		<tag k="place" v="locality" />
		<tag k="ssr:stedsnr" v="176198" />
	</node>
	<node id="-350119" lat="62.1802361072" lon="11.5076833348">
		<tag k="name" v="Brynhildsbotnmyran" />
		<tag k="natural" v="wetland" />
		<tag k="ssr:stedsnr" v="176000" />
	</node>
	<node id="-350116" lat="62.4913750043" lon="10.7843305481">
		<tag k="landuse" v="meadow" />
		<tag k="name" v="Storbukta" />
		<tag k="ssr:stedsnr" v="175954" />
	</node>
	<node id="-350115" lat="62.1996027756" lon="11.5319138824">
		<tag k="name" v="Kåsan" />
		<tag k="place" v="locality" />
		<tag k="ssr:stedsnr" v="175926" />
	</node>
	<node id="-350111" lat="62.43428611" lon="10.9366583391">
		<tag k="name" v="Løvmyra" />
		<tag k="natural" v="wetland" />
		<tag k="ssr:stedsnr" v="175817" />
	</node>
	<node id="-350109" lat="62.4356277781" lon="10.8036333356">
		<tag k="landuse" v="meadow" />
		<tag k="name" v="Eriksenget" />
		<tag k="ssr:stedsnr" v="175627" />
	</node>
	<node id="-350107" lat="62.4366666707" lon="10.82218612">
		<tag k="name" v="Myran" />
		<tag k="natural" v="wetland" />
		<tag k="ssr:stedsnr" v="175600" />
	</node>
	<node id="-350106" lat="62.4519333307" lon="10.7820027872">
		<tag k="historic" v="shieling" />
		<tag k="name" v="Movollen" />
		<tag k="place" v="locality" />
		<tag k="ssr:stedsnr" v="175541" />
	</node>
	<node id="-350101" lat="62.3692555521" lon="11.1225444425">
		<tag k="name" v="Bjørsjøfloen" />
		<tag k="natural" v="wetland" />
		<tag k="ssr:stedsnr" v="175459" />
	</node>
	<node id="-350099" lat="62.3689805553" lon="11.1708194454">
		<tag k="name" v="Jonsvollen" />
		<tag k="place" v="locality" />
		<tag k="ssr:stedsnr" v="175451" />
	</node>
	<node id="-350095" lat="62.4782611088" lon="10.7270861171">
		<tag k="name" v="Åshaugslått" />
		<tag k="place" v="locality" />
		<tag k="ssr:stedsnr" v="175251" />
	</node>
	<node id="-350092" lat="62.429036114" lon="10.9688527856">
		<tag k="name" v="Håmyra" />
		<tag k="natural" v="wetland" />
		<tag k="ssr:stedsnr" v="175162" />
	</node>
	<node id="-350090" lat="62.448647219" lon="10.9946611193">
		<tag k="name" v="Jamntmyran" />
		<tag k="natural" v="wetland" />
		<tag k="ssr:stedsnr" v="175153" />
	</node>
	<node id="-350085" lat="62.4513777764" lon="11.0701388965">
		<tag k="name" v="Torvfloen" />
		<tag k="natural" v="wetland" />
		<tag k="ssr:stedsnr" v="175075" />
	</node>
	<node id="-350084" lat="62.4792972259" lon="10.9859611161">
		<tag k="name" v="Vonfloen" />
		<tag k="natural" v="wetland" />
		<tag k="ssr:stedsnr" v="175038" />
	</node>
	<node id="-350081" lat="62.4424027804" lon="10.6157833356">
		<tag k="name" v="Nystumoengan" />
		<tag k="place" v="locality" />
		<tag k="ssr:stedsnr" v="173378" />
	</node>
	<node id="-350078" lat="62.4121305533" lon="10.6587805606">
		<tag k="name" v="Paulsslåtten" />
		<tag k="natural" v="wetland" />
		<tag k="ssr:stedsnr" v="173001" />
	</node>
	<node id="-350062" lat="62.3808861132" lon="11.0751861016">
		<tag k="name" v="Storfloen" />
		<tag k="natural" v="wetland" />
		<tag k="ssr:stedsnr" v="133164" />
	</node>
	<node id="-350043" lat="62.4947055558" lon="10.7831166629">
		<tag k="landuse" v="meadow" />
		<tag k="name" v="Freksenga" />
		<tag k="ssr:stedsnr" v="115955" />
	</node>
	<node id="-350042" lat="62.2687249968" lon="11.4034277684">
		<tag k="name" v="Heggkåsa" />
		<tag k="place" v="locality" />
		<tag k="ssr:stedsnr" v="115801" />
	</node>
	<node id="-350041" lat="62.272591663" lon="11.4123361074">
		<tag k="name" v="Vintervegfloen" />
		<tag k="natural" v="wetland" />
		<tag k="ssr:stedsnr" v="115798" />
	</node>
	<node id="-350039" lat="62.4344194453" lon="10.9120333324">
		<tag k="name" v="Veslesætermyra" />
		<tag k="natural" v="wetland" />
		<tag k="ssr:stedsnr" v="115788" />
	</node>
	<node id="-350037" lat="62.3793833335" lon="10.9362472315">
		<tag k="name" v="Fossmyra" />
		<tag k="natural" v="wetland" />
		<tag k="ssr:stedsnr" v="115778" />
	</node>
	<node id="-350036" lat="62.3612750017" lon="10.9539249957">
		<tag k="name" v="Åsmåssåmyra" />
		<tag k="natural" v="wetland" />
		<tag k="ssr:stedsnr" v="115777" />
	</node>
	<node id="-350035" lat="62.2395083367" lon="11.4793888809">
		<tag k="historic" v="shieling" />
		<tag k="name" v="Elvebakken" />
		<tag k="place" v="locality" />
		<tag k="ssr:stedsnr" v="115774" />
	</node>
	<node id="-350033" lat="62.2369444424" lon="11.4887500071">
		<tag k="name" v="Småmyran" />
		<tag k="natural" v="wetland" />
		<tag k="ssr:stedsnr" v="115772" />
	</node>
	<node id="-350025" lat="62.4698944428" lon="10.9544972267">
		<tag k="name" v="Milskiftmyran" />
		<tag k="natural" v="wetland" />
		<tag k="ssr:stedsnr" v="115860" />
	</node>
	<node id="-350018" lat="62.3868611126" lon="10.9008277795">
		<tag k="landuse" v="meadow" />
		<tag k="name" v="Veslevangan" />
		<tag k="ssr:stedsnr" v="115682" />
	</node>
	<node id="-350017" lat="62.37603333" lon="11.2410305525">
		<tag k="landuse" v="meadow" />
		<tag k="name" v="Kåsan" />
		<tag k="ssr:stedsnr" v="115681" />
	</node>
	<node id="-350015" lat="62.3750861143" lon="10.8571861027">
		<tag k="name" v="Brøttbekkfloen" />
		<tag k="natural" v="wetland" />
		<tag k="ssr:stedsnr" v="115677" />
	</node>
	<node id="-350010" lat="62.1862055558" lon="11.4180472196">
		<tag k="name" v="Rundhesjestøet" />
		<tag k="place" v="locality" />
		<tag k="ssr:stedsnr" v="115734" />
	</node>
	<node id="-350007" lat="62.4173944446" lon="10.7927861094">
		<tag k="name" v="Helbladmyra" />
		<tag k="natural" v="wetland" />
		<tag k="ssr:stedsnr" v="115584" />
	</node>
	<node id="-350003" lat="62.3951055585" lon="10.8955027707">
		<tag k="name" v="Kloppmyra" />
		<tag k="natural" v="wetland" />
		<tag k="ssr:stedsnr" v="115670" />
	</node>
	<node id="-349999" lat="62.414058337" lon="10.8184138904">
		<tag k="name" v="Kråkhaugfloen" />
		<tag k="natural" v="wetland" />
		<tag k="ssr:stedsnr" v="115627" />
	</node>
	<node id="-349996" lat="62.4234083293" lon="11.1854333235">
		<tag k="name" v="Østre Flågåen" />
		<tag k="natural" v="wetland" />
		<tag k="ssr:stedsnr" v="115496" />
	</node>
	<node id="-349990" lat="62.3854333294" lon="11.0715944413">
		<tag k="name" v="Lyskåsa" />
		<tag k="place" v="locality" />
		<tag k="ssr:stedsnr" v="115354" />
	</node>
	<node id="-349989" lat="62.435983333" lon="10.7230888913">
		<tag k="name" v="Storstenenget" />
		<tag k="place" v="locality" />
		<tag k="ssr:stedsnr" v="115347" />
	</node>
	<node id="-349987" lat="62.2706111132" lon="11.4758749959">
		<tag k="name" v="Andersolakåsa" />
		<tag k="place" v="locality" />
		<tag k="ssr:stedsnr" v="115301" />
	</node>
	<node id="-349982" lat="62.282755559" lon="11.0440888865">
		<tag k="historic" v="shieling" />
		<tag k="name" v="Gammelvollen" />
		<tag k="place" v="locality" />
		<tag k="ssr:stedsnr" v="115326" />
	</node>
	<node id="-349975" lat="62.4539027771" lon="10.8066861198">
		<tag k="name" v="Sannomslått" />
		<tag k="place" v="locality" />
		<tag k="ssr:stedsnr" v="114596" />
	</node>
	<node id="-349972" lat="62.4134888932" lon="10.7439833318">
		<tag k="name" v="Øver Stenbakken" />
		<tag k="place" v="locality" />
		<tag k="ssr:stedsnr" v="112300" />
	</node>
	<node id="-349947" lat="62.4100750025" lon="11.1674666682">
		<tag k="alt_name" v="Floen" />
		<tag k="name" v="Storfloen" />
		<tag k="natural" v="wetland" />
		<tag k="ssr:stedsnr" v="72134" />
	</node>
	<node id="-349927" lat="62.2184444447" lon="11.4039861017">
		<tag k="name" v="Vesleøyodden" />
		<tag k="place" v="locality" />
		<tag k="ssr:stedsnr" v="55846" />
	</node>
	<node id="-349924" lat="62.2443611121" lon="11.4683916742">
		<tag k="historic" v="shieling" />
		<tag k="name" v="Gjertrudvollen" />
		<tag k="place" v="locality" />
		<tag k="ssr:stedsnr" v="55778" />
	</node>
	<node id="-349923" lat="62.2358527796" lon="11.50291666">
		<tag k="name" v="Finnteltbakken" />
		<tag k="place" v="locality" />
		<tag k="ssr:stedsnr" v="55777" />
	</node>
	<node id="-349915" lat="62.3796777796" lon="10.8836055523">
		<tag k="name" v="Bleien" />
		<tag k="place" v="locality" />
		<tag k="ssr:stedsnr" v="55680" />
	</node>
	<node id="-349901" lat="62.4879861153" lon="10.561972221">
		<tag k="name" v="Vingelsmoen" />
		<tag k="place" v="locality" />
		<tag k="ssr:stedsnr" v="55328" />
	</node>
	<node id="-349899" lat="62.4023833364" lon="11.0719472194">
		<tag k="name" v="Stormyra" />
		<tag k="natural" v="wetland" />
		<tag k="ssr:stedsnr" v="55281" />
	</node>
	<node id="-349895" lat="62.1560861068" lon="11.6214916615">
		<tag k="name" v="Sengformyra" />
		<tag k="natural" v="wetland" />
		<tag k="ssr:stedsnr" v="54986" />
	</node>
	<node id="-349894" lat="62.4023027822" lon="10.961263889">
		<tag k="name" v="Storfloen" />
		<tag k="natural" v="wetland" />
		<tag k="ssr:stedsnr" v="54978" />
	</node>
	<node id="-348742" lat="62.4823972179" lon="10.8251527851">
		<tag k="landuse" v="meadow" />
		<tag k="name" v="Veslenget" />
		<tag k="ssr:stedsnr" v="236957" />
	</node>
	<node id="-349884" lat="62.4271361086" lon="10.696319444">
		<tag k="historic" v="shieling" />
		<tag k="name" v="Storhaugveslevangan" />
		<tag k="place" v="locality" />
		<tag k="ssr:stedsnr" v="54349" />
	</node>
	<node id="-349878" lat="62.4282194424" lon="11.0022166733">
		<tag k="name" v="Smeltarmyra" />
		<tag k="natural" v="wetland" />
		<tag k="ssr:stedsnr" v="54187" />
	</node>
	<node id="-349877" lat="62.429733329" lon="10.9848472296">
		<tag k="name" v="Lømyra" />
		<tag k="natural" v="wetland" />
		<tag k="ssr:stedsnr" v="54184" />
	</node>
	<node id="-349875" lat="62.249380559" lon="11.4068611018">
		<tag k="name" v="Storfloen" />
		<tag k="natural" v="wetland" />
		<tag k="ssr:stedsnr" v="53842" />
	</node>
	<node id="-349874" lat="62.4540472227" lon="10.792313898">
		<tag k="landuse" v="meadow" />
		<tag k="name" v="Smedåsenga" />
		<tag k="ssr:stedsnr" v="53565" />
	</node>
	<node id="-349873" lat="62.4711194415" lon="10.7315249916">
		<tag k="name" v="Fjellrofloen" />
		<tag k="natural" v="wetland" />
		<tag k="ssr:stedsnr" v="53245" />
	</node>
	<node id="-349871" lat="62.4507666669" lon="10.6180194467">
		<tag k="name" v="Fjellenget" />
		<tag k="place" v="locality" />
		<tag k="ssr:stedsnr" v="52381" />
	</node>
	<node id="-349863" lat="62.394966667" lon="11.1991750037">
		<tag k="name" v="Hesjestøenget" />
		<tag k="place" v="locality" />
		<tag k="ssr:stedsnr" v="12165" />
	</node>
	<node id="-349847" lat="62.3195527749" lon="11.1100805545">
		<tag k="name" v="Telsjøfloen" />
		<tag k="natural" v="wetland" />
		<tag k="ssr:stedsnr" v="11266" />
	</node>
	<node id="-349826" lat="62.3739972249" lon="11.2550444516">
		<tag k="name" v="Jenssunda" />
		<tag k="natural" v="wetland" />
		<tag k="ssr:stedsnr" v="965713" />
	</node>
	<node id="-349825" lat="62.3913916703" lon="10.8428555618">
		<tag k="historic" v="shieling" />
		<tag k="name" v="Grønnkåsa" />
		<tag k="place" v="locality" />
		<tag k="ssr:stedsnr" v="965710" />
	</node>
	<node id="-349813" lat="62.3947388878" lon="11.0089222151">
		<tag k="name" v="Stamphusmyra" />
		<tag k="natural" v="wetland" />
		<tag k="ssr:stedsnr" v="964369" />
	</node>
	<node id="-349812" lat="62.3906500005" lon="11.01626944">
		<tag k="name" v="Langmyra" />
		<tag k="natural" v="wetland" />
		<tag k="ssr:stedsnr" v="964368" />
	</node>
	<node id="-349811" lat="62.4535638916" lon="10.7612361188">
		<tag k="name" v="Trøvollen" />
		<tag k="place" v="locality" />
		<tag k="ssr:stedsnr" v="964366" />
	</node>
	<node id="-349805" lat="62.4709194425" lon="10.9885250037">
		<tag k="name" v="Letjønnfloen" />
		<tag k="natural" v="wetland" />
		<tag k="ssr:stedsnr" v="964073" />
	</node>
	<node id="-349801" lat="62.2454305581" lon="11.3438722258">
		<tag k="name" v="Stenbakkfloen" />
		<tag k="natural" v="wetland" />
		<tag k="ssr:stedsnr" v="963866" />
	</node>
	<node id="-349799" lat="62.4694500039" lon="10.7774416636">
		<tag k="historic" v="shieling" />
		<tag k="name" v="Mostorkåsa" />
		<tag k="place" v="locality" />
		<tag k="ssr:stedsnr" v="963559" />
	</node>
	<node id="-349798" lat="62.3996111125" lon="10.7643944419">
		<tag k="name" v="Storhaugenga" />
		<tag k="place" v="locality" />
		<tag k="ssr:stedsnr" v="962260" />
	</node>
	<node id="-349797" lat="62.4764750009" lon="10.5777388879">
		<tag k="name" v="Storåsfloen" />
		<tag k="natural" v="wetland" />
		<tag k="ssr:stedsnr" v="962311" />
	</node>
	<node id="-350822" lat="62.3908222244" lon="10.9360972217">
		<tag k="name" v="Høyåsmyran" />
		<tag k="natural" v="wetland" />
		<tag k="ssr:stedsnr" v="844790" />
	</node>
	<node id="-349792" lat="62.3889861147" lon="11.2127833277">
		<tag k="name" v="Bruenget" />
		<tag k="place" v="locality" />
		<tag k="ssr:stedsnr" v="922164" />
	</node>
	<node id="-349785" lat="62.1805611147" lon="11.4344666698">
		<tag k="name" v="Bakarkåsa" />
>>>>>>> e1d4bc35ff8a6074a6f2e91616a996b547c36f15
		<tag k="place" v="locality" />
		<tag k="ssr:stedsnr" v="904758" />
	</node>
<<<<<<< HEAD
	<node lat="62.36870833513714" lon="10.96638333694889" id="-20148">
		<tag k="name" v="Bergevollfloen" />
=======
	<node id="-349795" lat="62.3668666656" lon="10.8289805506">
		<tag k="name" v="Trøfloen" />
>>>>>>> e1d4bc35ff8a6074a6f2e91616a996b547c36f15
		<tag k="natural" v="wetland" />
		<tag k="ssr:stedsnr" v="922180" />
	</node>
<<<<<<< HEAD
	<node lat="62.4561666703214" lon="10.757927778392608" id="-20150">
		<tag k="landuse" v="meadow" />
		<tag k="name" v="Fremmer Moslått" />
		<tag k="ssr:stedsnr" v="358300" />
	</node>
	<node lat="62.29595555451838" lon="11.364305558999856" id="-20154">
		<tag k="historic" v="shieling" />
		<tag k="name" v="Stenvollen" />
		<tag k="place" v="locality" />
		<tag k="ssr:stedsnr" v="358701" />
	</node>
	<node lat="62.235083336028104" lon="11.489413895622697" id="-20158">
		<tag k="historic" v="shieling" />
		<tag k="name" v="Gjertrudvollen" />
		<tag k="place" v="locality" />
		<tag k="ssr:stedsnr" v="358798" />
	</node>
	<node lat="62.449061114639974" lon="10.999119435190527" id="-20163">
		<tag k="historic" v="shieling" />
		<tag k="name" v="Jamntmyrvollen" />
		<tag k="place" v="locality" />
		<tag k="ssr:stedsnr" v="478152" />
	</node>
	<node lat="62.42756388890131" lon="11.198216669463005" id="-20173">
		<tag k="name" v="Storstenen" />
		<tag k="natural" v="stone" />
		<tag k="ssr:stedsnr" v="478520" />
	</node>
	<node lat="62.493455556807845" lon="10.761619441439228" id="-20174">
=======
	<node id="-349771" lat="62.4595861137" lon="10.7626972263">
		<tag k="landuse" v="meadow" />
		<tag k="name" v="Tøllefsslått" />
		<tag k="ssr:stedsnr" v="904317" />
	</node>
	<node id="-349770" lat="62.2567500038" lon="11.0843833258">
		<tag k="name" v="Storkjærren" />
		<tag k="place" v="locality" />
		<tag k="ssr:stedsnr" v="904303" />
	</node>
	<node id="-349767" lat="62.4231055597" lon="10.8132194534">
		<tag k="name" v="Eggvetlkåsa" />
		<tag k="place" v="locality" />
		<tag k="ssr:stedsnr" v="903613" />
	</node>
	<node id="-349766" lat="62.4290805532" lon="10.8005194421">
		<tag k="historic" v="shieling" />
		<tag k="name" v="Gammelvangen" />
		<tag k="place" v="locality" />
		<tag k="ssr:stedsnr" v="903612" />
	</node>
	<node id="-349764" lat="62.3483333307" lon="10.8781861072">
		<tag k="name" v="Nedre Follstadtrøa" />
		<tag k="place" v="locality" />
		<tag k="ssr:stedsnr" v="902275" />
	</node>
	<node id="-348806" lat="62.2304833368" lon="11.4792972271">
		<tag k="name" v="Tjønnløbakken" />
		<tag k="place" v="locality" />
		<tag k="ssr:stedsnr" v="237794" />
	</node>
	<node id="-349762" lat="62.4134000044" lon="10.7093722257">
		<tag k="historic" v="shieling" />
		<tag k="name" v="Grubbvollen" />
		<tag k="place" v="locality" />
		<tag k="ssr:stedsnr" v="901016" />
	</node>
	<node id="-349761" lat="62.4022722209" lon="10.6906555465">
		<tag k="name" v="Mostukåsa" />
		<tag k="place" v="locality" />
		<tag k="ssr:stedsnr" v="901005" />
	</node>
	<node id="-348768" lat="62.4742194413" lon="10.8300472307">
>>>>>>> e1d4bc35ff8a6074a6f2e91616a996b547c36f15
		<tag k="landuse" v="meadow" />
		<tag k="name" v="Nystuenga" />
		<tag k="ssr:stedsnr" v="54559" />
	</node>
<<<<<<< HEAD
	<node lat="62.421833332582466" lon="10.796397226340174" id="-20176">
		<tag k="name" v="Limyran" />
=======
	<node id="-349743" lat="62.3871500044" lon="11.2529388955">
		<tag k="landuse" v="meadow" />
		<tag k="name" v="Øver Kåsan" />
		<tag k="ssr:stedsnr" v="844722" />
	</node>
	<node id="-349740" lat="62.3004083332" lon="11.4072500008">
		<tag k="name" v="Gammelvollmyran" />
>>>>>>> e1d4bc35ff8a6074a6f2e91616a996b547c36f15
		<tag k="natural" v="wetland" />
		<tag k="ssr:stedsnr" v="844703" />
	</node>
<<<<<<< HEAD
	<node lat="62.45010555688733" lon="10.904480564566303" id="-20181">
		<tag k="name" v="Skremyra" />
		<tag k="natural" v="wetland" />
		<tag k="ssr:stedsnr" v="478892" />
	</node>
	<node lat="62.424647218899516" lon="10.755102773538198" id="-20191">
		<tag k="name" v="Åkervollen" />
		<tag k="place" v="locality" />
		<tag k="ssr:stedsnr" v="479337" />
	</node>
	<node lat="62.44689166956338" lon="10.751369435285183" id="-20192">
		<tag k="name" v="Kroketmyra" />
		<tag k="natural" v="wetland" />
		<tag k="ssr:stedsnr" v="479349" />
	</node>
	<node lat="62.40740000274164" lon="11.108933337691806" id="-20193">
		<tag k="name" v="Brenna" />
		<tag k="place" v="locality" />
		<tag k="ssr:stedsnr" v="479436" />
	</node>
	<node lat="62.401405551922295" lon="10.93924722653724" id="-20204">
		<tag k="name" v="Slettan" />
		<tag k="place" v="locality" />
		<tag k="ssr:stedsnr" v="479840" />
	</node>
	<node lat="62.19714167023687" lon="11.562736120526962" id="-20212">
		<tag k="name" v="Toljemyran" />
		<tag k="natural" v="wetland" />
		<tag k="ssr:stedsnr" v="479948" />
	</node>
	<node lat="62.403852780098106" lon="10.735988883467577" id="-20231">
		<tag k="alt_name" v="Oustuvollen" />
		<tag k="historic" v="shieling" />
		<tag k="name" v="Austuvollen" />
		<tag k="place" v="locality" />
		<tag k="ssr:stedsnr" v="416251" />
	</node>
	<node lat="62.476036112893084" lon="10.735130548923008" id="-20235">
		<tag k="alt_name" v="Oustuenga" />
		<tag k="landuse" v="meadow" />
		<tag k="name" v="Austuenga" />
		<tag k="ssr:stedsnr" v="417291" />
	</node>
	<node lat="62.45905555363434" lon="10.787866672377344" id="-20236">
		<tag k="landuse" v="meadow" />
		<tag k="name" v="Vangsenga" />
		<tag k="ssr:stedsnr" v="417599" />
	</node>
	<node lat="62.25398333480548" lon="11.406561109351825" id="-20237">
		<tag k="name" v="Myra" />
		<tag k="place" v="locality" />
		<tag k="ssr:stedsnr" v="417846" />
	</node>
	<node lat="62.25894166648621" lon="11.441108333644555" id="-20238">
		<tag k="name" v="Brenna" />
		<tag k="place" v="locality" />
		<tag k="ssr:stedsnr" v="417848" />
	</node>
	<node lat="62.467802773555675" lon="11.000047229485325" id="-20240">
		<tag k="name" v="Saurya" />
		<tag k="natural" v="wetland" />
		<tag k="ssr:stedsnr" v="418044" />
	</node>
	<node lat="62.340247222746" lon="11.325838889752383" id="-20249">
		<tag k="name" v="Holla" />
		<tag k="place" v="locality" />
		<tag k="ssr:stedsnr" v="418617" />
	</node>
	<node lat="62.33373611233667" lon="11.291397231715104" id="-20250">
		<tag k="landuse" v="meadow" />
		<tag k="name" v="Øver Røsvikenget" />
		<tag k="ssr:stedsnr" v="418618" />
	</node>
	<node lat="62.434286110353135" lon="10.930133330018917" id="-20252">
		<tag k="name" v="Skuddhammermyra" />
		<tag k="natural" v="wetland" />
		<tag k="ssr:stedsnr" v="418797" />
	</node>
	<node lat="62.255563890955315" lon="11.067605563997336" id="-20262">
		<tag k="landuse" v="meadow" />
		<tag k="name" v="Tynsetkåsa" />
		<tag k="ssr:stedsnr" v="419304" />
	</node>
	<node lat="62.29369444161473" lon="11.38125278438572" id="-20267">
		<tag k="historic" v="shieling" />
		<tag k="name" v="Hardvollen" />
		<tag k="place" v="locality" />
		<tag k="ssr:stedsnr" v="419688" />
	</node>
	<node lat="62.34982777762817" lon="10.942349991828216" id="-20291">
		<tag k="name" v="Jordvangen" />
		<tag k="place" v="locality" />
		<tag k="ssr:stedsnr" v="476267" />
	</node>
	<node lat="62.41949444445746" lon="11.017461103512215" id="-20292">
		<tag k="name" v="Matiasgjelta" />
		<tag k="place" v="locality" />
		<tag k="ssr:stedsnr" v="478114" />
	</node>
	<node lat="62.39086111001122" lon="11.14023334280885" id="-20298">
		<tag k="name" v="Elgsmyrstrypet" />
		<tag k="natural" v="wetland" />
		<tag k="ssr:stedsnr" v="478466" />
	</node>
	<node lat="62.24595555743216" lon="11.41318889451412" id="-20300">
		<tag k="name" v="Storstenen" />
		<tag k="natural" v="stone" />
		<tag k="ssr:stedsnr" v="478810" />
	</node>
	<node lat="62.43962777747388" lon="11.10654167473872" id="-20309">
		<tag k="name" v="Snødrevmyra" />
		<tag k="natural" v="wetland" />
		<tag k="ssr:stedsnr" v="479708" />
	</node>
	<node lat="62.35431666606457" lon="10.927725005128078" id="-20312">
		<tag k="name" v="Borkgrubban" />
		<tag k="place" v="locality" />
		<tag k="ssr:stedsnr" v="479762" />
	</node>
	<node lat="62.19091110712335" lon="11.421130560218476" id="-20313">
		<tag k="name" v="Hesjemyran" />
		<tag k="natural" v="wetland" />
		<tag k="ssr:stedsnr" v="479770" />
	</node>
	<node lat="62.427055551110456" lon="10.962816667413845" id="-20317">
		<tag k="name" v="Løvlia" />
		<tag k="place" v="locality" />
		<tag k="ssr:stedsnr" v="479817" />
	</node>
	<node lat="62.17348055846701" lon="11.626150007859149" id="-20321">
		<tag k="name" v="Nyvollfloen" />
		<tag k="natural" v="wetland" />
		<tag k="ssr:stedsnr" v="678501" />
	</node>
	<node lat="62.378183331184395" lon="11.239738889701448" id="-20343">
		<tag k="name" v="Gjeltfloen" />
		<tag k="natural" v="wetland" />
		<tag k="ssr:stedsnr" v="679396" />
	</node>
	<node lat="62.35398611146125" lon="10.987822221226804" id="-20353">
		<tag k="name" v="Storfloen" />
		<tag k="natural" v="wetland" />
		<tag k="ssr:stedsnr" v="496227" />
	</node>
	<node lat="62.35700833670974" lon="10.902122220082562" id="-20364">
		<tag k="name" v="Bjørkvisla" />
		<tag k="place" v="locality" />
		<tag k="ssr:stedsnr" v="510716" />
	</node>
	<node lat="62.410730555481706" lon="10.683894446060103" id="-20367">
		<tag k="name" v="Moslåtten" />
		<tag k="natural" v="wetland" />
		<tag k="ssr:stedsnr" v="537025" />
	</node>
	<node lat="62.46853611231941" lon="10.718400007134004" id="-20370">
		<tag k="landuse" v="meadow" />
		<tag k="name" v="Rabbenget" />
		<tag k="ssr:stedsnr" v="539220" />
	</node>
	<node lat="62.46825000111932" lon="10.718574997700825" id="-20371">
		<tag k="name" v="Hagenslått" />
		<tag k="place" v="locality" />
		<tag k="ssr:stedsnr" v="539221" />
	</node>
	<node lat="62.44322221900847" lon="11.073394453229595" id="-20374">
		<tag k="name" v="Tjukkåsmyran" />
		<tag k="natural" v="wetland" />
		<tag k="ssr:stedsnr" v="539131" />
	</node>
	<node lat="62.478561112945826" lon="10.831633329459407" id="-20379">
		<tag k="historic" v="shieling" />
		<tag k="name" v="Gamle Klokkarvollen" />
		<tag k="place" v="locality" />
		<tag k="ssr:stedsnr" v="539522" />
	</node>
	<node lat="62.47863888473279" lon="10.835958331547525" id="-20380">
		<tag k="historic" v="shieling" />
		<tag k="name" v="Gamle Nygardsvollen" />
		<tag k="place" v="locality" />
		<tag k="ssr:stedsnr" v="539526" />
	</node>
	<node lat="62.456050002527384" lon="10.787997215627732" id="-20381">
		<tag k="landuse" v="meadow" />
		<tag k="name" v="Rønningsenget" />
		<tag k="ssr:stedsnr" v="539529" />
	</node>
	<node lat="62.433033334876356" lon="10.807111107216482" id="-20383">
		<tag k="landuse" v="meadow" />
		<tag k="name" v="Nyhusenget" />
		<tag k="ssr:stedsnr" v="539580" />
	</node>
	<node lat="62.410058337665305" lon="11.141816663780443" id="-20384">
		<tag k="name" v="Nordfjordmyra" />
		<tag k="natural" v="wetland" />
		<tag k="ssr:stedsnr" v="539403" />
	</node>
	<node lat="62.42766944505213" lon="10.819930556952032" id="-20390">
		<tag k="name" v="Rabben" />
		<tag k="place" v="locality" />
		<tag k="ssr:stedsnr" v="539622" />
	</node>
	<node lat="62.42168889223703" lon="10.957391659169515" id="-20392">
		<tag k="name" v="Slåbakkfloen" />
		<tag k="natural" v="wetland" />
		<tag k="ssr:stedsnr" v="539812" />
	</node>
	<node lat="62.444169445640114" lon="10.739533324749567" id="-20416">
		<tag k="name" v="Storfloen" />
		<tag k="natural" v="wetland" />
		<tag k="ssr:stedsnr" v="692639" />
	</node>
	<node lat="62.374255551810556" lon="11.037766669158158" id="-20420">
		<tag k="name" v="Måssåbufloen" />
		<tag k="natural" v="wetland" />
		<tag k="ssr:stedsnr" v="783312" />
	</node>
	<node lat="62.47754721802083" lon="11.000216673979594" id="-20428">
		<tag k="name" v="Røstengan" />
		<tag k="place" v="locality" />
		<tag k="ssr:stedsnr" v="600050" />
	</node>
	<node lat="62.456886107199324" lon="10.758527780990356" id="-20430">
		<tag k="landuse" v="meadow" />
		<tag k="name" v="Gammelvangenget" />
		<tag k="ssr:stedsnr" v="600306" />
	</node>
	<node lat="62.290272219022256" lon="11.305913881909142" id="-20435">
		<tag k="name" v="Bormyran" />
		<tag k="natural" v="wetland" />
		<tag k="ssr:stedsnr" v="600612" />
	</node>
	<node lat="62.36110000143803" lon="10.880511115704165" id="-20440">
		<tag k="name" v="Såttån" />
		<tag k="place" v="locality" />
		<tag k="ssr:stedsnr" v="600753" />
	</node>
	<node lat="62.240155559207885" lon="11.365600007166634" id="-20442">
		<tag k="name" v="Oddan" />
		<tag k="place" v="locality" />
		<tag k="ssr:stedsnr" v="600806" />
	</node>
	<node lat="62.417838885179854" lon="10.959316671939975" id="-20445">
		<tag k="name" v="Slåbakken" />
		<tag k="place" v="locality" />
		<tag k="ssr:stedsnr" v="600816" />
	</node>
	<node lat="62.457486108491736" lon="10.949788897113558" id="-20447">
		<tag k="name" v="Pålsolamyra" />
		<tag k="natural" v="wetland" />
		<tag k="ssr:stedsnr" v="600898" />
	</node>
	<node lat="62.49102221889978" lon="10.831116657172899" id="-20452">
		<tag k="landuse" v="meadow" />
		<tag k="name" v="Smeåsenga" />
		<tag k="ssr:stedsnr" v="600948" />
	</node>
	<node lat="62.45422500463483" lon="10.83487776903139" id="-20478">
		<tag k="name" v="Slåbakkslått" />
		<tag k="place" v="locality" />
		<tag k="ssr:stedsnr" v="660580" />
	</node>
	<node lat="62.19324444238181" lon="11.509808326221988" id="-20480">
		<tag k="landuse" v="meadow" />
		<tag k="name" v="Smørbekkengan" />
		<tag k="ssr:stedsnr" v="660982" />
	</node>
	<node lat="62.19884166863084" lon="11.472702777663516" id="-20481">
		<tag k="landuse" v="meadow" />
		<tag k="name" v="Øversjøenget" />
		<tag k="ssr:stedsnr" v="660988" />
	</node>
	<node lat="62.37003055152946" lon="10.965949998246577" id="-20484">
		<tag k="historic" v="shieling" />
		<tag k="name" v="Bergevollen" />
		<tag k="place" v="locality" />
		<tag k="ssr:stedsnr" v="661308" />
	</node>
	<node lat="62.44518333341062" lon="10.761380547589027" id="-20485">
		<tag k="name" v="Lonfættmyra" />
		<tag k="natural" v="wetland" />
		<tag k="ssr:stedsnr" v="661335" />
	</node>
	<node lat="62.24786110923893" lon="11.069961109801275" id="-20488">
		<tag k="landuse" v="meadow" />
		<tag k="name" v="Stabbstøenget" />
		<tag k="ssr:stedsnr" v="661284" />
	</node>
	<node lat="62.455730557189675" lon="10.73632500414428" id="-20490">
		<tag k="landuse" v="meadow" />
		<tag k="name" v="Simaenget" />
		<tag k="ssr:stedsnr" v="661289" />
	</node>
	<node lat="62.458005552036" lon="10.760952776567699" id="-20491">
		<tag k="landuse" v="meadow" />
		<tag k="name" v="Åshaugslått" />
		<tag k="ssr:stedsnr" v="661295" />
	</node>
	<node lat="62.41181666354508" lon="10.781263894773977" id="-20494">
		<tag k="name" v="Størrmyra" />
		<tag k="natural" v="wetland" />
		<tag k="ssr:stedsnr" v="661631" />
	</node>
	<node lat="62.44355555693748" lon="11.116955558506026" id="-20495">
		<tag k="name" v="Hummelmyra" />
		<tag k="natural" v="wetland" />
		<tag k="ssr:stedsnr" v="661684" />
	</node>
	<node lat="62.41965000205607" lon="10.925891661349924" id="-20498">
		<tag k="name" v="Nygjelta" />
		<tag k="place" v="locality" />
		<tag k="ssr:stedsnr" v="661806" />
	</node>
	<node lat="62.246433336477544" lon="11.400269453122865" id="-20504">
		<tag k="name" v="Gjerdinga" />
		<tag k="place" v="locality" />
		<tag k="ssr:stedsnr" v="661797" />
	</node>
	<node lat="62.38717499942885" lon="10.831877771305518" id="-20531">
		<tag k="name" v="Stenenget" />
		<tag k="place" v="locality" />
		<tag k="ssr:stedsnr" v="719206" />
	</node>
	<node lat="62.43786388681084" lon="10.799824990953253" id="-20541">
		<tag k="name" v="Storkåsa" />
		<tag k="place" v="locality" />
		<tag k="ssr:stedsnr" v="721614" />
	</node>
	<node lat="62.456463889195575" lon="10.926258325973025" id="-20547">
		<tag k="name" v="Olafloen" />
		<tag k="natural" v="wetland" />
		<tag k="ssr:stedsnr" v="721878" />
	</node>
	<node lat="62.45305277506011" lon="10.961261110531527" id="-20558">
		<tag k="name" v="Småmyran" />
		<tag k="natural" v="wetland" />
		<tag k="ssr:stedsnr" v="722906" />
	</node>
	<node lat="62.3483333306933" lon="10.878186107239296" id="-20561">
		<tag k="name" v="Nedre Follstadtrøa" />
		<tag k="place" v="locality" />
		<tag k="ssr:stedsnr" v="902275" />
	</node>
	<node lat="62.3041111071772" lon="11.41826666988469" id="-20574">
		<tag k="name" v="Kåsmyra" />
		<tag k="natural" v="wetland" />
		<tag k="ssr:stedsnr" v="739495" />
	</node>
	<node lat="62.46229166860306" lon="10.792583338792108" id="-20583">
		<tag k="historic" v="shieling" />
		<tag k="name" v="Gardsvollen" />
		<tag k="place" v="locality" />
		<tag k="ssr:stedsnr" v="903534" />
	</node>
	<node lat="62.45081666453703" lon="10.769891670778149" id="-20585">
		<tag k="name" v="Skrivarbakken" />
		<tag k="place" v="locality" />
		<tag k="ssr:stedsnr" v="903986" />
	</node>
	<node lat="62.46714444093072" lon="10.598291670494959" id="-20595">
		<tag k="landuse" v="meadow" />
		<tag k="name" v="Frisenga" />
		<tag k="ssr:stedsnr" v="904338" />
	</node>
	<node lat="62.444275000978024" lon="10.729849999469304" id="-20597">
		<tag k="name" v="Båvolvollan" />
		<tag k="place" v="locality" />
		<tag k="ssr:stedsnr" v="904346" />
	</node>
	<node lat="62.29206944790226" lon="11.31600832768062" id="-20605">
		<tag k="name" v="Robekkmyran" />
		<tag k="natural" v="wetland" />
		<tag k="ssr:stedsnr" v="904616" />
	</node>
	<node lat="62.38348055932056" lon="10.859638883988634" id="-20609">
		<tag k="historic" v="shieling" />
		<tag k="name" v="Nordistuvollen" />
		<tag k="place" v="locality" />
		<tag k="ssr:stedsnr" v="904687" />
	</node>
	<node lat="62.18056111465388" lon="11.434466669798516" id="-20614">
		<tag k="name" v="Bakarkåsa" />
		<tag k="place" v="locality" />
		<tag k="ssr:stedsnr" v="904758" />
	</node>
	<node lat="62.252763892306234" lon="11.473872230559795" id="-20615">
		<tag k="name" v="Okshølmyran" />
		<tag k="natural" v="wetland" />
		<tag k="ssr:stedsnr" v="904740" />
	</node>
	<node lat="62.406511107995335" lon="10.914388891149802" id="-20621">
		<tag k="landuse" v="quarry" />
		<tag k="name" v="Stenbruddet" />
		<tag k="ssr:stedsnr" v="904835" />
	</node>
	<node lat="62.209086112400556" lon="11.451377785818254" id="-20622">
		<tag k="name" v="Bortaterrøsta" />
		<tag k="place" v="locality" />
		<tag k="ssr:stedsnr" v="904839" />
	</node>
	<node lat="62.20414166976218" lon="11.502522226235387" id="-20631">
		<tag k="name" v="Koiepermyra" />
		<tag k="natural" v="wetland" />
		<tag k="ssr:stedsnr" v="904793" />
	</node>
	<node lat="62.43219166679203" lon="10.893588897238565" id="-20632">
		<tag k="name" v="Gråkjerren" />
		<tag k="place" v="locality" />
		<tag k="ssr:stedsnr" v="904852" />
	</node>
	<node lat="62.18119166494664" lon="11.474511119432739" id="-20638">
		<tag k="historic" v="shieling" />
		<tag k="name" v="Sønmørsætran" />
		<tag k="place" v="locality" />
		<tag k="ssr:stedsnr" v="904994" />
	</node>
	<node lat="62.43206388562691" lon="10.650316670400464" id="-20640">
		<tag k="name" v="Rønningsenga" />
		<tag k="place" v="locality" />
		<tag k="ssr:stedsnr" v="780059" />
	</node>
	<node lat="62.412602774081016" lon="10.72693889349057" id="-20642">
		<tag k="name" v="Rønningsenga" />
		<tag k="place" v="locality" />
		<tag k="ssr:stedsnr" v="780255" />
	</node>
	<node lat="62.47777777641464" lon="10.733833334145592" id="-20645">
		<tag k="name" v="Øster Moslått" />
		<tag k="place" v="locality" />
		<tag k="ssr:stedsnr" v="781253" />
	</node>
	<node lat="62.4627527758948" lon="10.754813892958948" id="-20646">
		<tag k="name" v="Storhaugslått" />
		<tag k="place" v="locality" />
		<tag k="ssr:stedsnr" v="781269" />
	</node>
	<node lat="62.36057222625888" lon="11.05295832961929" id="-20649">
		<tag k="name" v="Gammelrabbfloan" />
		<tag k="natural" v="wetland" />
		<tag k="ssr:stedsnr" v="782301" />
	</node>
	<node lat="62.426191669362886" lon="10.690436103343256" id="-20650">
		<tag k="historic" v="shieling" />
		<tag k="name" v="Nyhusveslevangan" />
		<tag k="place" v="locality" />
		<tag k="ssr:stedsnr" v="782309" />
	</node>
	<node lat="62.43091110991763" lon="10.660366657344763" id="-20651">
		<tag k="name" v="Persgjerenga" />
		<tag k="place" v="locality" />
		<tag k="ssr:stedsnr" v="782313" />
	</node>
	<node lat="62.494138885390456" lon="10.753569437410887" id="-20652">
		<tag k="name" v="Storfloen" />
		<tag k="natural" v="wetland" />
		<tag k="ssr:stedsnr" v="782497" />
	</node>
	<node lat="62.350249999830815" lon="11.31804722233253" id="-20655">
		<tag k="name" v="Svartåsfloan" />
		<tag k="natural" v="wetland" />
		<tag k="ssr:stedsnr" v="782699" />
	</node>
	<node lat="62.44458888830785" lon="10.872975004715538" id="-20656">
		<tag k="landuse" v="quarry" />
		<tag k="name" v="Gammelgruva" />
		<tag k="ssr:stedsnr" v="782825" />
	</node>
	<node lat="62.43277500207994" lon="11.105177773613642" id="-20657">
		<tag k="name" v="Småvollan" />
		<tag k="place" v="locality" />
		<tag k="ssr:stedsnr" v="783516" />
	</node>
	<node lat="62.41526944416741" lon="10.886466665855725" id="-20663">
		<tag k="name" v="Beggtjønnmyran" />
		<tag k="natural" v="wetland" />
		<tag k="ssr:stedsnr" v="783698" />
	</node>
	<node lat="62.40378333373201" lon="11.089102786201314" id="-20694">
		<tag k="alt_name" v="Enkefloen" />
		<tag k="name" v="Enkjefloen" />
		<tag k="natural" v="wetland" />
		<tag k="ssr:stedsnr" v="922143" />
	</node>
	<node lat="62.38898611473669" lon="11.212783327679103" id="-20699">
		<tag k="name" v="Bruenget" />
		<tag k="place" v="locality" />
		<tag k="ssr:stedsnr" v="922164" />
	</node>
	<node lat="62.41606944644116" lon="10.686305554380294" id="-20709">
		<tag k="name" v="Nordistuslåtten" />
		<tag k="natural" v="wetland" />
		<tag k="ssr:stedsnr" v="841012" />
	</node>
	<node lat="62.46257222053585" lon="10.768302770734955" id="-20712">
		<tag k="name" v="Åshaugslått" />
		<tag k="place" v="locality" />
		<tag k="ssr:stedsnr" v="842509" />
	</node>
	<node lat="62.43533055968022" lon="10.97660834147823" id="-20713">
		<tag k="name" v="Vintermyra" />
		<tag k="natural" v="wetland" />
		<tag k="ssr:stedsnr" v="843180" />
	</node>
	<node lat="62.47602778215226" lon="10.86406110173192" id="-20717">
		<tag k="historic" v="shieling" />
		<tag k="name" v="Haugsvollen" />
		<tag k="place" v="locality" />
		<tag k="ssr:stedsnr" v="843925" />
	</node>
	<node lat="62.20597222045984" lon="11.538366672195512" id="-20718">
		<tag k="name" v="Storfloen" />
		<tag k="natural" v="wetland" />
		<tag k="ssr:stedsnr" v="843930" />
	</node>
	<node lat="62.198919448979474" lon="11.458183330423187" id="-20719">
		<tag k="landuse" v="meadow" />
		<tag k="name" v="Jamtenga" />
		<tag k="ssr:stedsnr" v="843981" />
	</node>
	<node lat="62.17140277411287" lon="11.533097222230738" id="-20720">
		<tag k="landuse" v="meadow" />
		<tag k="name" v="Langsjølåttan" />
		<tag k="ssr:stedsnr" v="843982" />
	</node>
	<node lat="62.18977777663913" lon="11.496044453773381" id="-20721">
		<tag k="name" v="Smørbekkfloen" />
		<tag k="natural" v="wetland" />
		<tag k="ssr:stedsnr" v="843997" />
	</node>
	<node lat="62.26713333034458" lon="11.463274997521903" id="-20723">
		<tag k="name" v="Stabbestøe" />
		<tag k="place" v="locality" />
		<tag k="ssr:stedsnr" v="844274" />
	</node>
	<node lat="62.41460278100069" lon="11.183711114501275" id="-20726">
		<tag k="name" v="Snekkarenget" />
		<tag k="place" v="locality" />
		<tag k="ssr:stedsnr" v="844618" />
	</node>
	<node lat="62.30040833320496" lon="11.407250000780985" id="-20727">
		<tag k="name" v="Gammelvollmyran" />
		<tag k="natural" v="wetland" />
		<tag k="ssr:stedsnr" v="844703" />
	</node>
	<node lat="62.391497219143616" lon="10.86601943600318" id="-20729">
		<tag k="landuse" v="meadow" />
		<tag k="name" v="Trøenget" />
		<tag k="ssr:stedsnr" v="844728" />
	</node>
	<node lat="62.37521111303191" lon="10.848183325760477" id="-20730">
		<tag k="name" v="Tjønnvangen" />
		<tag k="place" v="locality" />
		<tag k="ssr:stedsnr" v="844730" />
	</node>
	<node lat="62.39082222438965" lon="10.93609722174786" id="-20733">
		<tag k="name" v="Høyåsmyran" />
		<tag k="natural" v="wetland" />
		<tag k="ssr:stedsnr" v="844790" />
	</node>
	<node lat="62.4022722208976" lon="10.690655546483804" id="-20761">
		<tag k="name" v="Mostukåsa" />
		<tag k="place" v="locality" />
		<tag k="ssr:stedsnr" v="901005" />
	</node>
	<node lat="62.413400004444554" lon="10.709372225745062" id="-20762">
		<tag k="historic" v="shieling" />
		<tag k="name" v="Grubbvollen" />
		<tag k="place" v="locality" />
		<tag k="ssr:stedsnr" v="901016" />
	</node>
	<node lat="62.429080553193124" lon="10.800519442088326" id="-20765">
		<tag k="historic" v="shieling" />
		<tag k="name" v="Gammelvangen" />
		<tag k="place" v="locality" />
		<tag k="ssr:stedsnr" v="903612" />
	</node>
	<node lat="62.423105559741494" lon="10.81321945339159" id="-20766">
		<tag k="name" v="Eggvetlkåsa" />
		<tag k="place" v="locality" />
		<tag k="ssr:stedsnr" v="903613" />
	</node>
	<node lat="62.25675000381083" lon="11.08438332575367" id="-20769">
		<tag k="name" v="Storkjærren" />
		<tag k="place" v="locality" />
		<tag k="ssr:stedsnr" v="904303" />
	</node>
	<node lat="62.45958611368412" lon="10.762697226276543" id="-20770">
		<tag k="landuse" v="meadow" />
		<tag k="name" v="Tøllefsslått" />
		<tag k="ssr:stedsnr" v="904317" />
	</node>
	<node lat="62.41202500443913" lon="11.186652774000644" id="-20775">
		<tag k="name" v="Øvensenget" />
		<tag k="place" v="locality" />
		<tag k="ssr:stedsnr" v="904566" />
	</node>
	<node lat="62.36686666555512" lon="10.828980550626019" id="-20794">
		<tag k="name" v="Trøfloen" />
		<tag k="natural" v="wetland" />
		<tag k="ssr:stedsnr" v="922180" />
	</node>
	<node lat="62.47394721881205" lon="10.72376945246203" id="-20798">
		<tag k="landuse" v="meadow" />
		<tag k="name" v="Sumundsenga" />
		<tag k="ssr:stedsnr" v="963286" />
	</node>
	<node lat="62.46673888803472" lon="10.755033325957264" id="-20799">
		<tag k="name" v="Tøllefsslått" />
		<tag k="place" v="locality" />
		<tag k="ssr:stedsnr" v="963293" />
	</node>
	<node lat="62.46721111364111" lon="10.788777769359152" id="-20805">
		<tag k="historic" v="shieling" />
		<tag k="name" v="Gammeløyvollen" />
		<tag k="place" v="locality" />
		<tag k="ssr:stedsnr" v="964540" />
	</node>
	<node lat="62.17846944590933" lon="11.522919451019265" id="-20810">
		<tag k="name" v="Vargklettvollan" />
		<tag k="place" v="locality" />
		<tag k="ssr:stedsnr" v="964997" />
	</node>
	<node lat="62.41152500038146" lon="11.038063879368215" id="-20813">
		<tag k="name" v="Tverrmyra" />
		<tag k="natural" v="wetland" />
		<tag k="ssr:stedsnr" v="965312" />
	</node>
	<node lat="62.375330557786704" lon="10.916122222881175" id="-20823">
		<tag k="landuse" v="meadow" />
		<tag k="name" v="Vesleenget" />
		<tag k="ssr:stedsnr" v="965786" />
	</node>
	<node lat="62.36111111207834" lon="10.932986103840358" id="-20826">
		<tag k="landuse" v="meadow" />
		<tag k="name" v="Nesenget" />
		<tag k="ssr:stedsnr" v="965802" />
	</node>
	<node lat="62.40052777856448" lon="10.885575001256376" id="-20828">
		<tag k="name" v="Brenna" />
		<tag k="place" v="locality" />
		<tag k="ssr:stedsnr" v="965700" />
	</node>
	<node lat="62.447136111908456" lon="10.888775000217661" id="-20831">
		<tag k="historic" v="shieling" />
		<tag k="name" v="Haugsvollen" />
		<tag k="place" v="locality" />
		<tag k="ssr:stedsnr" v="965993" />
	</node>
	<node lat="62.319552774929235" lon="11.110080554513434" id="-20842">
		<tag k="name" v="Telsjøfloen" />
		<tag k="natural" v="wetland" />
		<tag k="ssr:stedsnr" v="11266" />
	</node>
	<node lat="62.3949666670219" lon="11.19917500374691" id="-20853">
		<tag k="name" v="Hesjestøenget" />
		<tag k="place" v="locality" />
		<tag k="ssr:stedsnr" v="12165" />
	</node>
	<node lat="62.45076666692258" lon="10.61801944666732" id="-20861">
		<tag k="name" v="Fjellenget" />
		<tag k="place" v="locality" />
		<tag k="ssr:stedsnr" v="52381" />
	</node>
	<node lat="62.22135277898064" lon="11.059236113343571" id="-20866">
		<tag k="name" v="Framkåsa" />
		<tag k="place" v="locality" />
		<tag k="ssr:stedsnr" v="53155" />
	</node>
	<node lat="62.47111944152691" lon="10.731524991598006" id="-20867">
		<tag k="name" v="Fjellrofloen" />
		<tag k="natural" v="wetland" />
		<tag k="ssr:stedsnr" v="53245" />
	</node>
	<node lat="62.454047222689255" lon="10.792313898035482" id="-20868">
		<tag k="landuse" v="meadow" />
		<tag k="name" v="Smedåsenga" />
		<tag k="ssr:stedsnr" v="53565" />
	</node>
	<node lat="62.249380559044546" lon="11.406861101811682" id="-20869">
		<tag k="name" v="Storfloen" />
		<tag k="natural" v="wetland" />
		<tag k="ssr:stedsnr" v="53842" />
	</node>
	<node lat="62.44621667051263" lon="11.002947216925774" id="-20871">
		<tag k="name" v="Andersnilsafloen" />
		<tag k="natural" v="wetland" />
		<tag k="ssr:stedsnr" v="54156" />
	</node>
	<node lat="62.42713610864316" lon="10.696319444020451" id="-20879">
		<tag k="historic" v="shieling" />
		<tag k="name" v="Storhaugveslevangan" />
		<tag k="place" v="locality" />
		<tag k="ssr:stedsnr" v="54349" />
	</node>
	<node lat="62.39020833290247" lon="11.025080556018672" id="-20882">
		<tag k="name" v="Storodden" />
		<tag k="place" v="locality" />
		<tag k="ssr:stedsnr" v="54358" />
	</node>
	<node lat="62.4742194412987" lon="10.830047230706507" id="-20887">
		<tag k="landuse" v="meadow" />
		<tag k="name" v="Nystuenga" />
		<tag k="ssr:stedsnr" v="54559" />
	</node>
	<node lat="62.40230278219122" lon="10.961263888967443" id="-20892">
		<tag k="name" v="Storfloen" />
		<tag k="natural" v="wetland" />
		<tag k="ssr:stedsnr" v="54978" />
	</node>
	<node lat="62.156086106778865" lon="11.621491661542894" id="-20893">
		<tag k="name" v="Sengformyra" />
		<tag k="natural" v="wetland" />
		<tag k="ssr:stedsnr" v="54986" />
	</node>
	<node lat="62.43969166769767" lon="10.893552768462063" id="-20898">
		<tag k="name" v="Møkkelbekkenget" />
		<tag k="place" v="locality" />
		<tag k="ssr:stedsnr" v="54862" />
	</node>
	<node lat="62.487986115340455" lon="10.561972220965718" id="-20905">
		<tag k="name" v="Vingelsmoen" />
		<tag k="place" v="locality" />
		<tag k="ssr:stedsnr" v="55328" />
	</node>
	<node lat="62.39515278005797" lon="11.166280559186186" id="-20908">
		<tag k="name" v="Bjønnkåsa" />
		<tag k="place" v="locality" />
		<tag k="ssr:stedsnr" v="55563" />
	</node>
	<node lat="62.21844444470364" lon="11.403986101656711" id="-20923">
		<tag k="name" v="Vesleøyodden" />
		<tag k="place" v="locality" />
		<tag k="ssr:stedsnr" v="55846" />
	</node>
	<node lat="62.41007500250226" lon="11.167466668186572" id="-20941">
		<tag k="alt_name" v="Floen" />
		<tag k="name" v="Storfloen" />
		<tag k="natural" v="wetland" />
		<tag k="ssr:stedsnr" v="72134" />
	</node>
	<node lat="62.41348889322166" lon="10.743983331762708" id="-20967">
		<tag k="name" v="Øver Stenbakken" />
		<tag k="place" v="locality" />
		<tag k="ssr:stedsnr" v="112300" />
	</node>
	<node lat="62.409558334873054" lon="10.74589722787091" id="-20968">
		<tag k="name" v="Trøomslått" />
		<tag k="place" v="locality" />
		<tag k="ssr:stedsnr" v="112305" />
	</node>
	<node lat="62.453902777110976" lon="10.8066861197534" id="-20970">
		<tag k="name" v="Sannomslått" />
		<tag k="place" v="locality" />
		<tag k="ssr:stedsnr" v="114596" />
	</node>
	<node lat="62.43598333297301" lon="10.723088891325483" id="-20974">
		<tag k="name" v="Storstenenget" />
		<tag k="place" v="locality" />
		<tag k="ssr:stedsnr" v="115347" />
	</node>
	<node lat="62.385433329412436" lon="11.07159444125316" id="-20975">
		<tag k="name" v="Lyskåsa" />
		<tag k="place" v="locality" />
		<tag k="ssr:stedsnr" v="115354" />
	</node>
	<node lat="62.272591663040004" lon="11.412336107372502" id="-20983">
		<tag k="name" v="Vintervegfloen" />
		<tag k="natural" v="wetland" />
		<tag k="ssr:stedsnr" v="115798" />
	</node>
	<node lat="62.27061111323509" lon="11.475874995920863" id="-20987">
		<tag k="name" v="Andersolakåsa" />
		<tag k="place" v="locality" />
		<tag k="ssr:stedsnr" v="115301" />
	</node>
	<node lat="62.41739444457657" lon="10.792786109448034" id="-20990">
		<tag k="name" v="Helbladmyra" />
		<tag k="natural" v="wetland" />
		<tag k="ssr:stedsnr" v="115584" />
	</node>
	<node lat="62.41405833700972" lon="10.818413890381558" id="-20994">
		<tag k="name" v="Kråkhaugfloen" />
		<tag k="natural" v="wetland" />
		<tag k="ssr:stedsnr" v="115627" />
	</node>
	<node lat="62.423408329287994" lon="11.185433323500728" id="-20999">
		<tag k="name" v="Østre Flågåen" />
		<tag k="natural" v="wetland" />
		<tag k="ssr:stedsnr" v="115496" />
	</node>
	<node lat="62.469894442830046" lon="10.954497226707039" id="-21014">
		<tag k="name" v="Milskiftmyran" />
		<tag k="natural" v="wetland" />
		<tag k="ssr:stedsnr" v="115860" />
	</node>
	<node lat="62.47581666814093" lon="10.860686102754249" id="-21015">
		<tag k="historic" v="shieling" />
		<tag k="name" v="Gammelstuvollen" />
		<tag k="place" v="locality" />
		<tag k="ssr:stedsnr" v="115926" />
	</node>
	<node lat="62.268724996750684" lon="11.403427768365514" id="-21016">
		<tag k="name" v="Heggkåsa" />
		<tag k="place" v="locality" />
		<tag k="ssr:stedsnr" v="115801" />
	</node>
	<node lat="62.49470555583272" lon="10.783116662949615" id="-21019">
		<tag k="landuse" v="meadow" />
		<tag k="name" v="Freksenga" />
		<tag k="ssr:stedsnr" v="115955" />
	</node>
	<node lat="62.380886113153835" lon="11.075186101598446" id="-21049">
		<tag k="name" v="Storfloen" />
		<tag k="natural" v="wetland" />
		<tag k="ssr:stedsnr" v="133164" />
	</node>
	<node lat="62.412130553273464" lon="10.658780560554263" id="-21054">
		<tag k="name" v="Paulsslåtten" />
		<tag k="natural" v="wetland" />
		<tag k="ssr:stedsnr" v="173001" />
	</node>
	<node lat="62.4424027804137" lon="10.615783335619536" id="-21055">
		<tag k="name" v="Nystumoengan" />
		<tag k="place" v="locality" />
		<tag k="ssr:stedsnr" v="173378" />
	</node>
	<node lat="62.4792972258804" lon="10.985961116050484" id="-21062">
		<tag k="name" v="Vonfloen" />
		<tag k="natural" v="wetland" />
		<tag k="ssr:stedsnr" v="175038" />
	</node>
	<node lat="62.448647219046556" lon="10.994661119250905" id="-21065">
		<tag k="name" v="Jamntmyran" />
		<tag k="natural" v="wetland" />
		<tag k="ssr:stedsnr" v="175153" />
	</node>
	<node lat="62.47826110877968" lon="10.72708611705369" id="-21067">
		<tag k="name" v="Åshaugslått" />
		<tag k="place" v="locality" />
		<tag k="ssr:stedsnr" v="175251" />
	</node>
	<node lat="62.368980555293284" lon="11.170819445448753" id="-21071">
		<tag k="name" v="Jonsvollen" />
		<tag k="place" v="locality" />
		<tag k="ssr:stedsnr" v="175451" />
	</node>
	<node lat="62.451933330732516" lon="10.782002787225418" id="-21073">
		<tag k="historic" v="shieling" />
		<tag k="name" v="Movollen" />
		<tag k="place" v="locality" />
		<tag k="ssr:stedsnr" v="175541" />
	</node>
	<node lat="62.43666667074011" lon="10.822186119992201" id="-21074">
		<tag k="name" v="Myran" />
		<tag k="natural" v="wetland" />
		<tag k="ssr:stedsnr" v="175600" />
	</node>
	<node lat="62.43562777805719" lon="10.803633335576848" id="-21076">
		<tag k="landuse" v="meadow" />
		<tag k="name" v="Eriksenget" />
		<tag k="ssr:stedsnr" v="175627" />
	</node>
	<node lat="62.43428610997709" lon="10.936658339148899" id="-21078">
		<tag k="name" v="Løvmyra" />
		<tag k="natural" v="wetland" />
		<tag k="ssr:stedsnr" v="175817" />
	</node>
	<node lat="62.180236107151096" lon="11.507683334782557" id="-21083">
		<tag k="name" v="Brynhildsbotnmyran" />
		<tag k="natural" v="wetland" />
		<tag k="ssr:stedsnr" v="176000" />
	</node>
	<node lat="62.41032499726546" lon="10.966163893358814" id="-21084">
		<tag k="name" v="Gurimyra" />
		<tag k="natural" v="wetland" />
		<tag k="ssr:stedsnr" v="176241" />
	</node>
	<node lat="62.39920555704722" lon="10.972241668011186" id="-21086">
		<tag k="name" v="Rokkhesjestøet" />
		<tag k="place" v="locality" />
		<tag k="ssr:stedsnr" v="176250" />
	</node>
	<node lat="62.42509166317448" lon="11.050052769190499" id="-21088">
		<tag k="name" v="Granrøsta" />
		<tag k="place" v="locality" />
		<tag k="ssr:stedsnr" v="176198" />
	</node>
	<node lat="62.44043333688961" lon="10.726149993403155" id="-21092">
		<tag k="alt_name" v="Oustutrøbåvolvollen" />
		<tag k="name" v="Austutrøbåvolvollen" />
		<tag k="place" v="locality" />
		<tag k="ssr:stedsnr" v="176335" />
	</node>
	<node lat="62.16641111468894" lon="11.428933341780985" id="-21095">
		<tag k="name" v="Floan" />
		<tag k="natural" v="wetland" />
		<tag k="ssr:stedsnr" v="176751" />
	</node>
	<node lat="62.38856666662544" lon="10.954658336610828" id="-21103">
		<tag k="name" v="Granrøsta" />
		<tag k="place" v="locality" />
		<tag k="ssr:stedsnr" v="176772" />
	</node>
	<node lat="62.38451667100603" lon="10.928572226186057" id="-21107">
		<tag k="name" v="Blestermyra" />
		<tag k="natural" v="wetland" />
		<tag k="ssr:stedsnr" v="176785" />
	</node>
	<node lat="62.21742777717406" lon="11.404925008442586" id="-21111">
		<tag k="name" v="Storøyodden" />
		<tag k="place" v="locality" />
		<tag k="ssr:stedsnr" v="176848" />
	</node>
	<node lat="62.220086115345644" lon="11.475519444382895" id="-21114">
		<tag k="name" v="Myran" />
		<tag k="natural" v="wetland" />
		<tag k="ssr:stedsnr" v="176796" />
	</node>
	<node lat="62.464222220241346" lon="10.927358335587627" id="-21116">
		<tag k="name" v="Olamyra" />
		<tag k="natural" v="wetland" />
		<tag k="ssr:stedsnr" v="176878" />
	</node>
	<node lat="62.46201111304257" lon="10.953661120767762" id="-21117">
		<tag k="name" v="Langmyra" />
		<tag k="natural" v="wetland" />
		<tag k="ssr:stedsnr" v="176884" />
	</node>
	<node lat="62.35741666968982" lon="11.20766667516306" id="-21118">
		<tag k="name" v="Nykloppmoen" />
		<tag k="place" v="locality" />
		<tag k="ssr:stedsnr" v="186547" />
	</node>
	<node lat="62.427074998210664" lon="10.653252778021736" id="-21168">
		<tag k="name" v="Fjerdingslåtten" />
		<tag k="place" v="locality" />
		<tag k="ssr:stedsnr" v="294047" />
	</node>
	<node lat="62.41453332946826" lon="10.762538896245909" id="-21169">
		<tag k="name" v="Persvollen" />
		<tag k="place" v="locality" />
		<tag k="ssr:stedsnr" v="294257" />
	</node>
	<node lat="62.21994166954116" lon="11.034000001446138" id="-21171">
		<tag k="name" v="Trettbekkfloen" />
		<tag k="natural" v="wetland" />
		<tag k="ssr:stedsnr" v="295149" />
	</node>
	<node lat="62.47985833553976" lon="10.725766671502441" id="-21174">
		<tag k="historic" v="shieling" />
		<tag k="name" v="Fjellrovollen" />
		<tag k="place" v="locality" />
		<tag k="ssr:stedsnr" v="296216" />
	</node>
	<node lat="62.37076666934684" lon="11.044125009523743" id="-21175">
		<tag k="historic" v="shieling" />
		<tag k="name" v="Måssåbudalen" />
		<tag k="place" v="locality" />
		<tag k="ssr:stedsnr" v="296307" />
	</node>
	<node lat="62.23510000218224" lon="11.077738895084048" id="-21176">
		<tag k="landuse" v="meadow" />
		<tag k="name" v="Heggkåsa" />
		<tag k="ssr:stedsnr" v="297313" />
	</node>
	<node lat="62.32790277968223" lon="11.203833336457171" id="-21180">
		<tag k="landuse" v="meadow" />
		<tag k="name" v="Åsengan" />
		<tag k="ssr:stedsnr" v="297408" />
	</node>
	<node lat="62.49509722551949" lon="10.762669440867919" id="-21181">
		<tag k="landuse" v="meadow" />
		<tag k="name" v="Buenget" />
		<tag k="ssr:stedsnr" v="296501" />
	</node>
	<node lat="62.427516667981784" lon="10.999324999942381" id="-21188">
		<tag k="name" v="Mannstenen" />
		<tag k="natural" v="stone" />
		<tag k="ssr:stedsnr" v="297202" />
	</node>
	<node lat="62.40768888569002" lon="11.165094442863548" id="-21196">
		<tag k="name" v="Tollenget" />
		<tag k="place" v="locality" />
		<tag k="ssr:stedsnr" v="297561" />
	</node>
	<node lat="62.4159666685181" lon="11.196755560591908" id="-21198">
		<tag k="name" v="Masingsmedenget" />
		<tag k="place" v="locality" />
		<tag k="ssr:stedsnr" v="297580" />
	</node>
	<node lat="62.36092221990824" lon="10.852622223199916" id="-21207">
		<tag k="name" v="Lauvkvervmyra" />
		<tag k="natural" v="wetland" />
		<tag k="ssr:stedsnr" v="297767" />
	</node>
	<node lat="62.436697223743856" lon="10.91226111069591" id="-21208">
		<tag k="historic" v="shieling" />
		<tag k="name" v="Veslesætra" />
		<tag k="place" v="locality" />
		<tag k="ssr:stedsnr" v="297804" />
	</node>
	<node lat="62.23329722392211" lon="11.412802784685244" id="-21209">
		<tag k="name" v="Sønmørgjerdinga" />
		<tag k="place" v="locality" />
		<tag k="ssr:stedsnr" v="297809" />
	</node>
	<node lat="62.47586944528332" lon="10.850722222142839" id="-21213">
		<tag k="historic" v="shieling" />
		<tag k="name" v="Veslegjeltvollen" />
		<tag k="place" v="locality" />
		<tag k="ssr:stedsnr" v="297931" />
	</node>
	<node lat="62.364399999982695" lon="10.998466659254145" id="-21227">
		<tag k="alt_name" v="Veslefloen" />
		<tag k="name" v="Veslfloen" />
		<tag k="natural" v="wetland" />
		<tag k="ssr:stedsnr" v="315182" />
	</node>
	<node lat="62.41333610836326" lon="10.749691673623195" id="-21255">
		<tag k="name" v="Ytter Stenbakken" />
		<tag k="place" v="locality" />
		<tag k="ssr:stedsnr" v="355268" />
	</node>
	<node lat="62.45076666692258" lon="10.61801944666732" id="-21258">
		<tag k="name" v="Roenget" />
		<tag k="place" v="locality" />
		<tag k="ssr:stedsnr" v="355383" />
	</node>
	<node lat="62.45458185564723" lon="10.594379538667383" id="-21259">
		<tag k="name" v="Nyutstumoengan" />
		<tag k="place" v="locality" />
		<tag k="ssr:stedsnr" v="355385" />
	</node>
	<node lat="62.434972219782445" lon="11.029597223981629" id="-21261">
		<tag k="name" v="Rønningen" />
		<tag k="place" v="locality" />
		<tag k="ssr:stedsnr" v="357118" />
	</node>
	<node lat="62.48576944837425" lon="10.56239165776148" id="-21262">
		<tag k="name" v="Jamtenga" />
		<tag k="place" v="locality" />
		<tag k="ssr:stedsnr" v="358333" />
	</node>
	<node lat="62.448263893300904" lon="10.758344437159291" id="-21265">
		<tag k="landuse" v="meadow" />
		<tag k="name" v="Hageneng" />
		<tag k="ssr:stedsnr" v="358346" />
	</node>
	<node lat="62.469405554525366" lon="10.743677769507814" id="-21266">
		<tag k="name" v="Garstorkåsa" />
		<tag k="place" v="locality" />
		<tag k="ssr:stedsnr" v="356281" />
	</node>
	<node lat="62.42132777841113" lon="10.803013898285036" id="-21269">
		<tag k="name" v="Eriksmyra" />
		<tag k="natural" v="wetland" />
		<tag k="ssr:stedsnr" v="356947" />
	</node>
	<node lat="62.43050277947871" lon="10.808691658839336" id="-21273">
		<tag k="landuse" v="meadow" />
		<tag k="name" v="Sumundsenget" />
		<tag k="ssr:stedsnr" v="357575" />
	</node>
	<node lat="62.43080535234235" lon="10.818868155878553" id="-21274">
		<tag k="name" v="Gammelvangsten" />
		<tag k="natural" v="stone" />
		<tag k="ssr:stedsnr" v="357577" />
	</node>
	<node lat="62.375399997508296" lon="11.175263891813742" id="-21278">
		<tag k="name" v="Stormyra" />
		<tag k="natural" v="wetland" />
		<tag k="ssr:stedsnr" v="357447" />
	</node>
	<node lat="62.46365833184604" lon="10.818052786870918" id="-21281">
		<tag k="historic" v="shieling" />
		<tag k="name" v="Markusvollen" />
		<tag k="place" v="locality" />
		<tag k="ssr:stedsnr" v="357532" />
	</node>
	<node lat="62.39812778166469" lon="10.916908337636627" id="-21283">
		<tag k="name" v="Betmyra" />
		<tag k="natural" v="wetland" />
		<tag k="ssr:stedsnr" v="357830" />
	</node>
	<node lat="62.39627500345887" lon="10.907613897393498" id="-21284">
		<tag k="name" v="Rundmyra" />
		<tag k="natural" v="wetland" />
		<tag k="ssr:stedsnr" v="357832" />
	</node>
	<node lat="62.16758888461156" lon="11.629949998576468" id="-21289">
		<tag k="name" v="Femundsmyran" />
		<tag k="natural" v="wetland" />
		<tag k="ssr:stedsnr" v="357977" />
	</node>
	<node lat="62.4099583343007" lon="10.878158342273585" id="-21297">
		<tag k="name" v="Sagmoen" />
		<tag k="place" v="locality" />
		<tag k="ssr:stedsnr" v="358716" />
	</node>
	<node lat="62.411705556604105" lon="10.81966388437895" id="-21302">
		<tag k="name" v="Blåbærfloen" />
		<tag k="natural" v="wetland" />
		<tag k="ssr:stedsnr" v="358680" />
	</node>
	<node lat="62.414586111049246" lon="10.831941670285739" id="-21303">
		<tag k="name" v="Sætermyra" />
		<tag k="natural" v="wetland" />
		<tag k="ssr:stedsnr" v="358683" />
	</node>
	<node lat="62.18024166488936" lon="11.417525005356008" id="-21306">
		<tag k="landuse" v="meadow" />
		<tag k="name" v="Djupdalsenget" />
		<tag k="ssr:stedsnr" v="358767" />
	</node>
	<node lat="62.39676944792839" lon="10.949016667334401" id="-21309">
		<tag k="name" v="Høyåsfloen" />
		<tag k="natural" v="wetland" />
		<tag k="ssr:stedsnr" v="358778" />
	</node>
	<node lat="62.20555833089954" lon="11.478730551995945" id="-21312">
		<tag k="name" v="Langmyra" />
		<tag k="natural" v="wetland" />
		<tag k="ssr:stedsnr" v="358790" />
	</node>
	<node lat="62.206094448493246" lon="11.422847218567778" id="-21315">
		<tag k="name" v="Vesleenget" />
		<tag k="place" v="locality" />
		<tag k="ssr:stedsnr" v="358850" />
	</node>
	<node lat="62.2349583348362" lon="11.113305556479155" id="-21332">
		<tag k="name" v="Fjellslættet" />
		<tag k="natural" v="wetland" />
		<tag k="ssr:stedsnr" v="375178" />
	</node>
	<node lat="62.46459999723077" lon="10.582505551565696" id="-21350">
		<tag k="name" v="Storåsfloen" />
		<tag k="natural" v="wetland" />
		<tag k="ssr:stedsnr" v="416722" />
	</node>
	<node lat="62.363277780603646" lon="11.039602785776315" id="-21355">
		<tag k="historic" v="shieling" />
		<tag k="name" v="Viketrøvollen" />
		<tag k="place" v="locality" />
		<tag k="ssr:stedsnr" v="418313" />
	</node>
	<node lat="62.353305557457055" lon="11.0031000004033" id="-21357">
		<tag k="historic" v="shieling" />
		<tag k="name" v="Volvollen" />
		<tag k="place" v="locality" />
		<tag k="ssr:stedsnr" v="418320" />
	</node>
	<node lat="62.49181388769613" lon="10.817658331996663" id="-21359">
		<tag k="landuse" v="meadow" />
		<tag k="name" v="Storkåsa" />
		<tag k="ssr:stedsnr" v="418929" />
	</node>
	<node lat="62.31901111066104" lon="11.374788886442682" id="-21367">
		<tag k="name" v="Galådalsmyran" />
		<tag k="natural" v="wetland" />
		<tag k="ssr:stedsnr" v="418632" />
	</node>
	<node lat="62.443833328954405" lon="10.946625000805394" id="-21368">
		<tag k="name" v="Toljemyran" />
		<tag k="natural" v="wetland" />
		<tag k="ssr:stedsnr" v="418875" />
	</node>
	<node lat="62.42926389299363" lon="10.731955563711338" id="-21384">
		<tag k="name" v="Oppstuslått" />
		<tag k="place" v="locality" />
		<tag k="ssr:stedsnr" v="419339" />
	</node>
	<node lat="62.454863888229525" lon="10.77115832486499" id="-21385">
		<tag k="alt_name" v="Oustuvollen" />
		<tag k="name" v="Austuvollen" />
		<tag k="place" v="locality" />
		<tag k="ssr:stedsnr" v="419349" />
	</node>
	<node lat="62.44813610833706" lon="10.764638885256323" id="-21386">
		<tag k="name" v="Storenget" />
		<tag k="place" v="locality" />
		<tag k="ssr:stedsnr" v="419350" />
	</node>
	<node lat="62.448580557531365" lon="10.771555547545738" id="-21387">
		<tag k="name" v="Fossenget" />
		<tag k="place" v="locality" />
		<tag k="ssr:stedsnr" v="419351" />
	</node>
	<node lat="62.29628610851119" lon="11.25216389242682" id="-21390">
		<tag k="landuse" v="meadow" />
		<tag k="name" v="Skreengsletta" />
		<tag k="ssr:stedsnr" v="419665" />
	</node>
	<node lat="62.298966670070264" lon="11.268902781391803" id="-21391">
		<tag k="name" v="Stabbstøfloen" />
		<tag k="natural" v="wetland" />
		<tag k="ssr:stedsnr" v="419674" />
	</node>
	<node lat="62.385666663223255" lon="10.863013891259532" id="-21392">
		<tag k="historic" v="shieling" />
		<tag k="name" v="Utistuvollen" />
		<tag k="place" v="locality" />
		<tag k="ssr:stedsnr" v="419721" />
	</node>
	<node lat="62.226580558107464" lon="11.492005554872849" id="-21398">
		<tag k="name" v="Vasskåsan" />
		<tag k="natural" v="wetland" />
		<tag k="ssr:stedsnr" v="419795" />
	</node>
	<node lat="62.262963890516666" lon="11.47780278086876" id="-21401">
		<tag k="name" v="Kåsa" />
		<tag k="place" v="locality" />
		<tag k="ssr:stedsnr" v="419761" />
	</node>
	<node lat="62.1837638846203" lon="11.601558339963924" id="-21442">
		<tag k="name" v="Kumyra" />
		<tag k="natural" v="wetland" />
		<tag k="ssr:stedsnr" v="496516" />
	</node>
	<node lat="62.382305553897105" lon="11.207163882557483" id="-21450">
		<tag k="name" v="Harrbekkenget" />
		<tag k="place" v="locality" />
		<tag k="ssr:stedsnr" v="497175" />
	</node>
	<node lat="62.25078611234615" lon="11.073094453357523" id="-21466">
		<tag k="landuse" v="meadow" />
		<tag k="name" v="Veslekåsa" />
		<tag k="ssr:stedsnr" v="540300" />
	</node>
	<node lat="62.43066111138585" lon="10.644802781431105" id="-21469">
		<tag k="name" v="Nordistuslåtten" />
		<tag k="place" v="locality" />
		<tag k="ssr:stedsnr" v="537060" />
	</node>
	<node lat="62.35193888740027" lon="10.880636116363426" id="-21471">
		<tag k="landuse" v="meadow" />
		<tag k="name" v="Øvre Follstadtrøa" />
		<tag k="ssr:stedsnr" v="538251" />
	</node>
	<node lat="62.43050555461989" lon="10.877125004599991" id="-21477">
		<tag k="historic" v="shieling" />
		<tag k="name" v="Brøttsætra" />
		<tag k="place" v="locality" />
		<tag k="ssr:stedsnr" v="539833" />
	</node>
	<node lat="62.19766110731737" lon="11.417213895487953" id="-21478">
		<tag k="name" v="Rundmyra" />
		<tag k="natural" v="wetland" />
		<tag k="ssr:stedsnr" v="539841" />
	</node>
	<node lat="62.38539722443569" lon="11.204197223125124" id="-21479">
		<tag k="name" v="Øver Harrbekkenget" />
		<tag k="place" v="locality" />
		<tag k="ssr:stedsnr" v="539382" />
	</node>
	<node lat="62.39398889076276" lon="11.20294167413825" id="-21480">
		<tag k="name" v="Floenget" />
		<tag k="place" v="locality" />
		<tag k="ssr:stedsnr" v="539384" />
	</node>
	<node lat="62.429972221497785" lon="10.835694452516856" id="-21484">
		<tag k="landuse" v="meadow" />
		<tag k="name" v="Grønjota" />
		<tag k="ssr:stedsnr" v="539589" />
	</node>
	<node lat="62.35742777881873" lon="11.283813888925833" id="-21487">
		<tag k="name" v="Gammeltrøomfloen" />
		<tag k="natural" v="wetland" />
		<tag k="ssr:stedsnr" v="539712" />
	</node>
	<node lat="62.238569449068585" lon="11.415405548607662" id="-21488">
		<tag k="name" v="Svenshammermyra" />
		<tag k="natural" v="wetland" />
		<tag k="ssr:stedsnr" v="539794" />
	</node>
	<node lat="62.47554166310682" lon="10.865686107051364" id="-21492">
		<tag k="historic" v="shieling" />
		<tag k="name" v="Simasvollen" />
		<tag k="place" v="locality" />
		<tag k="ssr:stedsnr" v="539923" />
	</node>
	<node lat="62.183930551413404" lon="11.631113879209396" id="-21493">
		<tag k="landuse" v="meadow" />
		<tag k="name" v="Fjelløenget" />
		<tag k="ssr:stedsnr" v="539969" />
	</node>
	<node lat="62.40352499600375" lon="10.975119447366234" id="-21500">
		<tag k="name" v="Bergeåkeren" />
		<tag k="place" v="locality" />
		<tag k="ssr:stedsnr" v="540261" />
	</node>
	<node lat="62.3534388890774" lon="11.26230554992722" id="-21510">
		<tag k="name" v="Storbekkfloen" />
		<tag k="natural" v="wetland" />
		<tag k="ssr:stedsnr" v="540696" />
	</node>
	<node lat="62.456725002473995" lon="10.964797229437433" id="-21518">
		<tag k="historic" v="shieling" />
		<tag k="name" v="Felvollen" />
		<tag k="place" v="locality" />
		<tag k="ssr:stedsnr" v="540890" />
	</node>
	<node lat="62.393305964076916" lon="10.740625565686972" id="-21550">
		<tag k="name" v="Tollefshagenvollen" />
		<tag k="place" v="locality" />
		<tag k="ssr:stedsnr" v="597281" />
	</node>
	<node lat="62.464599996747594" lon="10.763363886271446" id="-21556">
		<tag k="historic" v="shieling" />
		<tag k="name" v="Rakkestad" />
		<tag k="place" v="locality" />
		<tag k="ssr:stedsnr" v="599519" />
	</node>
	<node lat="62.42959166618126" lon="10.801391662566333" id="-21559">
=======
	<node id="-349723" lat="62.4625722205" lon="10.7683027707">
		<tag k="name" v="Åshaugslått" />
		<tag k="place" v="locality" />
		<tag k="ssr:stedsnr" v="842509" />
	</node>
	<node id="-349719" lat="62.436250001" lon="10.6452750092">
		<tag k="historic" v="shieling" />
		<tag k="name" v="Gjersætra" />
		<tag k="place" v="locality" />
		<tag k="ssr:stedsnr" v="841059" />
	</node>
	<node id="-349716" lat="62.4160694464" lon="10.6863055544">
		<tag k="name" v="Nordistuslåtten" />
		<tag k="natural" v="wetland" />
		<tag k="ssr:stedsnr" v="841012" />
	</node>
	<node id="-348760" lat="62.4403416623" lon="10.7977805603">
		<tag k="historic" v="shieling" />
		<tag k="name" v="Vangsvollen" />
		<tag k="place" v="locality" />
		<tag k="ssr:stedsnr" v="54603" />
	</node>
	<node id="-348747" lat="62.221352779" lon="11.0592361133">
		<tag k="name" v="Framkåsa" />
		<tag k="place" v="locality" />
		<tag k="ssr:stedsnr" v="53155" />
	</node>
	<node id="-349690" lat="62.4037833337" lon="11.0891027862">
		<tag k="alt_name" v="Enkefloen" />
		<tag k="name" v="Enkjefloen" />
		<tag k="natural" v="wetland" />
		<tag k="ssr:stedsnr" v="922143" />
	</node>
	<node id="-348750" lat="62.2843777792" lon="11.4737749914">
		<tag k="historic" v="shieling" />
		<tag k="name" v="Sætre" />
		<tag k="place" v="locality" />
		<tag k="ssr:stedsnr" v="237300" />
	</node>
	<node id="-349646" lat="62.3614833362" lon="11.2304888949">
		<tag k="name" v="Måssåmyra" />
		<tag k="natural" v="wetland" />
		<tag k="ssr:stedsnr" v="739412" />
	</node>
	<node id="-349640" lat="62.1811916649" lon="11.4745111194">
		<tag k="historic" v="shieling" />
		<tag k="name" v="Sønmørsætran" />
		<tag k="place" v="locality" />
		<tag k="ssr:stedsnr" v="904994" />
	</node>
	<node id="-348748" lat="62.4040500043" lon="11.0585055543">
		<tag k="name" v="Vintervegmyra" />
		<tag k="natural" v="wetland" />
		<tag k="ssr:stedsnr" v="237284" />
	</node>
	<node id="-349635" lat="62.4321916668" lon="10.8935888972">
		<tag k="name" v="Gråkjerren" />
		<tag k="place" v="locality" />
		<tag k="ssr:stedsnr" v="904852" />
	</node>
	<node id="-349633" lat="62.2090861124" lon="11.4513777858">
		<tag k="name" v="Bortaterrøsta" />
		<tag k="place" v="locality" />
		<tag k="ssr:stedsnr" v="904839" />
	</node>
	<node id="-349631" lat="62.406511108" lon="10.9143888911">
		<tag k="landuse" v="quarry" />
		<tag k="name" v="Stenbruddet" />
		<tag k="ssr:stedsnr" v="904835" />
	</node>
	<node id="-349627" lat="62.2041416698" lon="11.5025222262">
		<tag k="name" v="Koiepermyra" />
		<tag k="natural" v="wetland" />
		<tag k="ssr:stedsnr" v="904793" />
	</node>
	<node id="-349618" lat="62.2920694479" lon="11.3160083277">
		<tag k="name" v="Robekkmyran" />
		<tag k="natural" v="wetland" />
		<tag k="ssr:stedsnr" v="904616" />
	</node>
	<node id="-349614" lat="62.2527638923" lon="11.4738722306">
		<tag k="name" v="Okshølmyran" />
		<tag k="natural" v="wetland" />
		<tag k="ssr:stedsnr" v="904740" />
	</node>
	<node id="-349611" lat="62.3834805593" lon="10.859638884">
		<tag k="historic" v="shieling" />
		<tag k="name" v="Nordistuvollen" />
		<tag k="place" v="locality" />
		<tag k="ssr:stedsnr" v="904687" />
	</node>
	<node id="-349610" lat="62.4120250044" lon="11.186652774">
		<tag k="name" v="Øvensenget" />
		<tag k="place" v="locality" />
		<tag k="ssr:stedsnr" v="904566" />
	</node>
	<node id="-349603" lat="62.444275001" lon="10.7298499995">
		<tag k="name" v="Båvolvollan" />
		<tag k="place" v="locality" />
		<tag k="ssr:stedsnr" v="904346" />
	</node>
	<node id="-349601" lat="62.4671444409" lon="10.5982916705">
		<tag k="landuse" v="meadow" />
		<tag k="name" v="Frisenga" />
		<tag k="ssr:stedsnr" v="904338" />
	</node>
	<node id="-349593" lat="62.4508166645" lon="10.7698916708">
		<tag k="name" v="Skrivarbakken" />
		<tag k="place" v="locality" />
		<tag k="ssr:stedsnr" v="903986" />
	</node>
	<node id="-349591" lat="62.4622916686" lon="10.7925833388">
		<tag k="historic" v="shieling" />
		<tag k="name" v="Gardsvollen" />
		<tag k="place" v="locality" />
		<tag k="ssr:stedsnr" v="903534" />
	</node>
	<node id="-349581" lat="62.4490583308" lon="10.7658027692">
		<tag k="landuse" v="meadow" />
		<tag k="name" v="Åshaugslått" />
		<tag k="ssr:stedsnr" v="722358" />
	</node>
	<node id="-349571" lat="62.4378638868" lon="10.799824991">
		<tag k="name" v="Storkåsa" />
		<tag k="place" v="locality" />
		<tag k="ssr:stedsnr" v="721614" />
	</node>
	<node id="-349567" lat="62.2159805582" lon="11.0318638832">
		<tag k="name" v="Granslette" />
		<tag k="place" v="locality" />
		<tag k="ssr:stedsnr" v="720161" />
	</node>
	<node id="-349566" lat="62.3871749994" lon="10.8318777713">
		<tag k="name" v="Stenenget" />
		<tag k="place" v="locality" />
		<tag k="ssr:stedsnr" v="719206" />
	</node>
	<node id="-349565" lat="62.4342638927" lon="10.6252027848">
		<tag k="name" v="Åkerbuvollen" />
		<tag k="place" v="locality" />
		<tag k="ssr:stedsnr" v="719037" />
	</node>
	<node id="-349537" lat="62.4113083292" lon="10.8737944355">
		<tag k="name" v="Hjertmoen" />
		<tag k="place" v="locality" />
		<tag k="ssr:stedsnr" v="661656" />
	</node>
	<node id="-349534" lat="62.4451833334" lon="10.7613805476">
		<tag k="name" v="Lonfættmyra" />
		<tag k="natural" v="wetland" />
		<tag k="ssr:stedsnr" v="661335" />
	</node>
	<node id="-349533" lat="62.3848666677" lon="10.9775138838">
		<tag k="name" v="Granrøsta" />
		<tag k="place" v="locality" />
		<tag k="ssr:stedsnr" v="661327" />
	</node>
	<node id="-349532" lat="62.4354638859" lon="10.7374749999">
		<tag k="name" v="Vangsbåvolvollen" />
		<tag k="place" v="locality" />
		<tag k="ssr:stedsnr" v="661315" />
	</node>
	<node id="-349530" lat="62.3700305515" lon="10.9659499982">
		<tag k="historic" v="shieling" />
		<tag k="name" v="Bergevollen" />
		<tag k="place" v="locality" />
		<tag k="ssr:stedsnr" v="661308" />
	</node>
	<node id="-349527" lat="62.458005552" lon="10.7609527766">
		<tag k="landuse" v="meadow" />
		<tag k="name" v="Åshaugslått" />
		<tag k="ssr:stedsnr" v="661295" />
	</node>
	<node id="-349526" lat="62.4557305572" lon="10.7363250041">
		<tag k="landuse" v="meadow" />
		<tag k="name" v="Simaenget" />
		<tag k="ssr:stedsnr" v="661289" />
	</node>
	<node id="-349524" lat="62.2478611092" lon="11.0699611098">
		<tag k="landuse" v="meadow" />
		<tag k="name" v="Stabbstøenget" />
		<tag k="ssr:stedsnr" v="661284" />
	</node>
	<node id="-349520" lat="62.4663611136" lon="10.7588694353">
		<tag k="name" v="Fremmer Moslått" />
		<tag k="place" v="locality" />
		<tag k="ssr:stedsnr" v="660527" />
	</node>
	<node id="-349518" lat="62.4749055522" lon="10.7217722135">
		<tag k="landuse" v="meadow" />
		<tag k="name" v="Blaenget" />
		<tag k="ssr:stedsnr" v="660263" />
	</node>
	<node id="-349515" lat="62.4619250023" lon="10.9867194396">
		<tag k="name" v="Mofloen" />
		<tag k="natural" v="wetland" />
		<tag k="ssr:stedsnr" v="660054" />
	</node>
	<node id="-349511" lat="62.4689500041" lon="10.8528805645">
		<tag k="historic" v="shieling" />
		<tag k="name" v="Mussmørenga" />
		<tag k="place" v="locality" />
		<tag k="ssr:stedsnr" v="722932" />
	</node>
	<node id="-349510" lat="62.4530527751" lon="10.9612611105">
		<tag k="name" v="Småmyran" />
		<tag k="natural" v="wetland" />
		<tag k="ssr:stedsnr" v="722906" />
	</node>
	<node id="-349509" lat="62.474163886" lon="10.9611222263">
		<tag k="historic" v="shieling" />
		<tag k="name" v="Jensjovollen" />
		<tag k="place" v="locality" />
		<tag k="ssr:stedsnr" v="722891" />
	</node>
	<node id="-349508" lat="62.4639972264" lon="10.915399994">
		<tag k="historic" v="shieling" />
		<tag k="name" v="Simasvollen" />
		<tag k="place" v="locality" />
		<tag k="ssr:stedsnr" v="722887" />
	</node>
	<node id="-349507" lat="62.2178750041" lon="11.4033388903">
		<tag k="name" v="Krokøyodden" />
		<tag k="place" v="locality" />
		<tag k="ssr:stedsnr" v="722882" />
	</node>
	<node id="-349497" lat="62.2884694461" lon="11.3531805569">
		<tag k="name" v="Langkåsmyran" />
		<tag k="natural" v="wetland" />
		<tag k="ssr:stedsnr" v="722696" />
	</node>
	<node id="-349492" lat="62.3105333322" lon="11.2154333318">
		<tag k="name" v="Rugkåsfloen" />
		<tag k="natural" v="wetland" />
		<tag k="ssr:stedsnr" v="722666" />
	</node>
	<node id="-349485" lat="62.4252694444" lon="10.743916675">
		<tag k="name" v="Pålsslått" />
		<tag k="place" v="locality" />
		<tag k="ssr:stedsnr" v="722341" />
	</node>
	<node id="-349468" lat="62.4564638892" lon="10.926258326">
		<tag k="name" v="Olafloen" />
		<tag k="natural" v="wetland" />
		<tag k="ssr:stedsnr" v="721878" />
	</node>
	<node id="-349466" lat="62.2412638903" lon="11.3642555584">
		<tag k="name" v="Oddfloan" />
		<tag k="natural" v="wetland" />
		<tag k="ssr:stedsnr" v="721785" />
	</node>
	<node id="-349458" lat="62.4459444423" lon="10.7924083301">
		<tag k="name" v="Storslette" />
		<tag k="place" v="locality" />
		<tag k="ssr:stedsnr" v="721588" />
	</node>
	<node id="-349457" lat="62.4496472182" lon="10.7807194531">
		<tag k="historic" v="shieling" />
		<tag k="name" v="Persvollen" />
		<tag k="place" v="locality" />
		<tag k="ssr:stedsnr" v="721585" />
	</node>
	<node id="-349456" lat="62.4412249988" lon="10.7936194413">
		<tag k="historic" v="shieling" />
		<tag k="name" v="Engevollen" />
		<tag k="place" v="locality" />
		<tag k="ssr:stedsnr" v="721584" />
	</node>
	<node id="-349454" lat="62.3719194463" lon="11.1831722215">
		<tag k="name" v="Kvenntrømyra" />
		<tag k="natural" v="wetland" />
		<tag k="ssr:stedsnr" v="721439" />
	</node>
	<node id="-349451" lat="62.4677166637" lon="10.7519916692">
		<tag k="historic" v="shieling" />
		<tag k="name" v="Jordvollen" />
		<tag k="place" v="locality" />
		<tag k="ssr:stedsnr" v="721246" />
	</node>
	<node id="-349446" lat="62.4647694404" lon="10.9855611176">
		<tag k="name" v="Stenkåsa" />
		<tag k="place" v="locality" />
		<tag k="ssr:stedsnr" v="721038" />
	</node>
	<node id="-349439" lat="62.4796111147" lon="10.5828999912">
		<tag k="name" v="Gammelstuenget" />
		<tag k="place" v="locality" />
		<tag k="ssr:stedsnr" v="719326" />
	</node>
	<node id="-349436" lat="62.408788892" lon="10.7260472317">
		<tag k="name" v="Storrya" />
		<tag k="place" v="locality" />
		<tag k="ssr:stedsnr" v="719262" />
	</node>
	<node id="-349435" lat="62.4129083337" lon="10.7202055622">
		<tag k="name" v="Gammelvangenget" />
		<tag k="place" v="locality" />
		<tag k="ssr:stedsnr" v="719261" />
	</node>
	<node id="-349431" lat="62.3611000014" lon="10.8805111157">
		<tag k="name" v="Såttån" />
		<tag k="place" v="locality" />
		<tag k="ssr:stedsnr" v="600753" />
	</node>
	<node id="-349428" lat="62.4061083363" lon="10.9607888807">
		<tag k="name" v="Gørrfloen" />
		<tag k="natural" v="wetland" />
		<tag k="ssr:stedsnr" v="600820" />
	</node>
	<node id="-349427" lat="62.4178388852" lon="10.9593166719">
		<tag k="name" v="Slåbakken" />
		<tag k="place" v="locality" />
		<tag k="ssr:stedsnr" v="600816" />
	</node>
	<node id="-349424" lat="62.2401555592" lon="11.3656000072">
		<tag k="name" v="Oddan" />
		<tag k="place" v="locality" />
		<tag k="ssr:stedsnr" v="600806" />
	</node>
	<node id="-349422" lat="62.290272219" lon="11.3059138819">
		<tag k="name" v="Bormyran" />
		<tag k="natural" v="wetland" />
		<tag k="ssr:stedsnr" v="600612" />
	</node>
	<node id="-349420" lat="62.3703499972" lon="11.1059444492">
		<tag k="historic" v="shieling" />
		<tag k="name" v="Klettvollen" />
		<tag k="place" v="locality" />
		<tag k="ssr:stedsnr" v="600424" />
	</node>
	<node id="-349419" lat="62.3703499989" lon="11.1832833408">
		<tag k="name" v="Malmtakmyra" />
		<tag k="natural" v="wetland" />
		<tag k="ssr:stedsnr" v="600414" />
	</node>
	<node id="-349415" lat="62.4187416649" lon="10.9904777841">
		<tag k="name" v="Rabben" />
		<tag k="place" v="locality" />
		<tag k="ssr:stedsnr" v="600194" />
	</node>
	<node id="-349391" lat="62.4441694456" lon="10.7395333247">
		<tag k="name" v="Storfloen" />
		<tag k="natural" v="wetland" />
		<tag k="ssr:stedsnr" v="692639" />
	</node>
	<node id="-349381" lat="62.1976611073" lon="11.4172138955">
		<tag k="name" v="Rundmyra" />
		<tag k="natural" v="wetland" />
		<tag k="ssr:stedsnr" v="539841" />
	</node>
	<node id="-349380" lat="62.4305055546" lon="10.8771250046">
		<tag k="historic" v="shieling" />
		<tag k="name" v="Brøttsætra" />
		<tag k="place" v="locality" />
		<tag k="ssr:stedsnr" v="539833" />
	</node>
	<node id="-349378" lat="62.4216888922" lon="10.9573916592">
		<tag k="name" v="Slåbakkfloen" />
		<tag k="natural" v="wetland" />
		<tag k="ssr:stedsnr" v="539812" />
	</node>
	<node id="-349372" lat="62.3939888908" lon="11.2029416741">
		<tag k="name" v="Floenget" />
		<tag k="place" v="locality" />
		<tag k="ssr:stedsnr" v="539384" />
	</node>
	<node id="-349371" lat="62.3853972244" lon="11.2041972231">
		<tag k="name" v="Øver Harrbekkenget" />
		<tag k="place" v="locality" />
		<tag k="ssr:stedsnr" v="539382" />
	</node>
	<node id="-349367" lat="62.4100583377" lon="11.1418166638">
		<tag k="name" v="Nordfjordmyra" />
		<tag k="natural" v="wetland" />
		<tag k="ssr:stedsnr" v="539403" />
	</node>
	<node id="-349347" lat="62.1837638846" lon="11.60155834">
		<tag k="name" v="Kumyra" />
		<tag k="natural" v="wetland" />
		<tag k="ssr:stedsnr" v="496516" />
	</node>
	<node id="-349332" lat="62.3781833312" lon="11.2397388897">
		<tag k="name" v="Gjeltfloen" />
		<tag k="natural" v="wetland" />
		<tag k="ssr:stedsnr" v="679396" />
	</node>
	<node id="-349317" lat="62.1734805585" lon="11.6261500079">
		<tag k="name" v="Nyvollfloen" />
		<tag k="natural" v="wetland" />
		<tag k="ssr:stedsnr" v="678501" />
	</node>
	<node id="-349309" lat="62.1909111071" lon="11.4211305602">
		<tag k="name" v="Hesjemyran" />
		<tag k="natural" v="wetland" />
		<tag k="ssr:stedsnr" v="479770" />
	</node>
	<node id="-349308" lat="62.3543166661" lon="10.9277250051">
		<tag k="name" v="Borkgrubban" />
		<tag k="place" v="locality" />
		<tag k="ssr:stedsnr" v="479762" />
	</node>
	<node id="-349305" lat="62.4396277775" lon="11.1065416747">
		<tag k="name" v="Snødrevmyra" />
		<tag k="natural" v="wetland" />
		<tag k="ssr:stedsnr" v="479708" />
	</node>
	<node id="-349300" lat="62.4270555511" lon="10.9628166674">
		<tag k="name" v="Løvlia" />
		<tag k="place" v="locality" />
		<tag k="ssr:stedsnr" v="479817" />
	</node>
	<node id="-349286" lat="62.39086111" lon="11.1402333428">
		<tag k="name" v="Elgsmyrstrypet" />
		<tag k="natural" v="wetland" />
		<tag k="ssr:stedsnr" v="478466" />
	</node>
	<node id="-349282" lat="62.4490611146" lon="10.9991194352">
		<tag k="historic" v="shieling" />
		<tag k="name" v="Jamntmyrvollen" />
		<tag k="place" v="locality" />
		<tag k="ssr:stedsnr" v="478152" />
	</node>
	<node id="-349280" lat="62.3498277776" lon="10.9423499918">
		<tag k="name" v="Jordvangen" />
		<tag k="place" v="locality" />
		<tag k="ssr:stedsnr" v="476267" />
	</node>
	<node id="-349276" lat="62.4538916637" lon="10.9462166639">
		<tag k="name" v="Hansmortenmyran" />
		<tag k="natural" v="wetland" />
		<tag k="ssr:stedsnr" v="661900" />
	</node>
	<node id="-349273" lat="62.4196500021" lon="10.9258916613">
		<tag k="name" v="Nygjelta" />
		<tag k="place" v="locality" />
		<tag k="ssr:stedsnr" v="661806" />
	</node>
	<node id="-349271" lat="62.2464333365" lon="11.4002694531">
		<tag k="name" v="Gjerdinga" />
		<tag k="place" v="locality" />
		<tag k="ssr:stedsnr" v="661797" />
	</node>
	<node id="-349267" lat="62.3753388914" lon="10.9454916685">
		<tag k="name" v="Blestermyra" />
		<tag k="place" v="locality" />
		<tag k="ssr:stedsnr" v="661777" />
	</node>
	<node id="-349266" lat="62.3821444404" lon="10.9431083419">
		<tag k="name" v="Eidsåkran" />
		<tag k="place" v="locality" />
		<tag k="ssr:stedsnr" v="661773" />
	</node>
	<node id="-349265" lat="62.2062166706" lon="11.4878361066">
		<tag k="name" v="Rundmyra" />
		<tag k="natural" v="wetland" />
		<tag k="ssr:stedsnr" v="661772" />
	</node>
	<node id="-349264" lat="62.3805388926" lon="10.9128111073">
		<tag k="name" v="Stormyra" />
		<tag k="natural" v="wetland" />
		<tag k="ssr:stedsnr" v="661768" />
	</node>
	<node id="-349261" lat="62.3590305559" lon="10.860222213">
		<tag k="name" v="Veslebekkmyran" />
		<tag k="natural" v="wetland" />
		<tag k="ssr:stedsnr" v="661750" />
	</node>
	<node id="-349257" lat="62.4118166635" lon="10.7812638948">
		<tag k="name" v="Størrmyra" />
		<tag k="natural" v="wetland" />
		<tag k="ssr:stedsnr" v="661631" />
	</node>
	<node id="-349253" lat="62.4435555569" lon="11.1169555585">
		<tag k="name" v="Hummelmyra" />
		<tag k="natural" v="wetland" />
		<tag k="ssr:stedsnr" v="661684" />
	</node>
	<node id="-349250" lat="62.1988416686" lon="11.4727027777">
		<tag k="landuse" v="meadow" />
		<tag k="name" v="Øversjøenget" />
		<tag k="ssr:stedsnr" v="660988" />
	</node>
	<node id="-349249" lat="62.1932444424" lon="11.5098083262">
		<tag k="landuse" v="meadow" />
		<tag k="name" v="Smørbekkengan" />
		<tag k="ssr:stedsnr" v="660982" />
	</node>
	<node id="-349247" lat="62.4323138894" lon="10.8805805643">
		<tag k="name" v="Heggrøsta" />
		<tag k="place" v="locality" />
		<tag k="ssr:stedsnr" v="660832" />
	</node>
	<node id="-349239" lat="62.4542250046" lon="10.834877769">
		<tag k="name" v="Slåbakkslått" />
		<tag k="place" v="locality" />
		<tag k="ssr:stedsnr" v="660580" />
	</node>
	<node id="-349236" lat="62.3451166678" lon="11.1868333305">
		<tag k="name" v="Myra" />
		<tag k="place" v="locality" />
		<tag k="ssr:stedsnr" v="660421" />
	</node>
	<node id="-349223" lat="62.3823666699" lon="10.8175777725">
		<tag k="name" v="Slettenget" />
		<tag k="place" v="locality" />
		<tag k="ssr:stedsnr" v="658223" />
	</node>
	<node id="-349198" lat="62.255563891" lon="11.067605564">
		<tag k="landuse" v="meadow" />
		<tag k="name" v="Tynsetkåsa" />
		<tag k="ssr:stedsnr" v="419304" />
	</node>
	<node id="-349197" lat="62.4918138877" lon="10.817658332">
		<tag k="landuse" v="meadow" />
		<tag k="name" v="Storkåsa" />
		<tag k="ssr:stedsnr" v="418929" />
	</node>
	<node id="-349187" lat="62.3337361123" lon="11.2913972317">
		<tag k="landuse" v="meadow" />
		<tag k="name" v="Øver Røsvikenget" />
		<tag k="ssr:stedsnr" v="418618" />
	</node>
	<node id="-349186" lat="62.3402472227" lon="11.3258388898">
		<tag k="name" v="Holla" />
		<tag k="place" v="locality" />
		<tag k="ssr:stedsnr" v="418617" />
	</node>
	<node id="-349179" lat="62.3533055575" lon="11.0031000004">
		<tag k="historic" v="shieling" />
		<tag k="name" v="Volvollen" />
		<tag k="place" v="locality" />
		<tag k="ssr:stedsnr" v="418320" />
	</node>
	<node id="-349177" lat="62.3632777806" lon="11.0396027858">
		<tag k="historic" v="shieling" />
		<tag k="name" v="Viketrøvollen" />
		<tag k="place" v="locality" />
		<tag k="ssr:stedsnr" v="418313" />
	</node>
	<node id="-349174" lat="62.4678027736" lon="11.0000472295">
		<tag k="name" v="Saurya" />
		<tag k="natural" v="wetland" />
		<tag k="ssr:stedsnr" v="418044" />
	</node>
	<node id="-349171" lat="62.4645999972" lon="10.5825055516">
		<tag k="name" v="Storåsfloen" />
		<tag k="natural" v="wetland" />
		<tag k="ssr:stedsnr" v="416722" />
	</node>
	<node id="-349169" lat="62.3570083367" lon="10.9021222201">
		<tag k="name" v="Bjørkvisla" />
		<tag k="place" v="locality" />
		<tag k="ssr:stedsnr" v="510716" />
	</node>
	<node id="-349151" lat="62.2349583348" lon="11.1133055565">
		<tag k="name" v="Fjellslættet" />
		<tag k="natural" v="wetland" />
		<tag k="ssr:stedsnr" v="375178" />
	</node>
	<node id="-349135" lat="62.3823055539" lon="11.2071638826">
		<tag k="name" v="Harrbekkenget" />
		<tag k="place" v="locality" />
		<tag k="ssr:stedsnr" v="497175" />
	</node>
	<node id="-349119" lat="62.3539861115" lon="10.9878222212">
		<tag k="name" v="Storfloen" />
		<tag k="natural" v="wetland" />
		<tag k="ssr:stedsnr" v="496227" />
	</node>
	<node id="-349117" lat="62.1802416649" lon="11.4175250054">
		<tag k="landuse" v="meadow" />
		<tag k="name" v="Djupdalsenget" />
		<tag k="ssr:stedsnr" v="358767" />
	</node>
	<node id="-349111" lat="62.4099583343" lon="10.8781583423">
		<tag k="name" v="Sagmoen" />
		<tag k="place" v="locality" />
		<tag k="ssr:stedsnr" v="358716" />
	</node>
	<node id="-349104" lat="62.4106055522" lon="11.024627769">
		<tag k="alt_name" v="Garmakervollen" />
		<tag k="name" v="Garmåkervollen" />
		<tag k="old_name" v="Garmaakervollen" />
		<tag k="place" v="locality" />
		<tag k="ssr:stedsnr" v="358263" />
	</node>
	<node id="-349101" lat="62.3687083351" lon="10.9663833369">
		<tag k="name" v="Bergevollfloen" />
		<tag k="natural" v="wetland" />
		<tag k="ssr:stedsnr" v="358309" />
	</node>
	<node id="-349094" lat="62.1971416702" lon="11.5627361205">
		<tag k="name" v="Toljemyran" />
		<tag k="natural" v="wetland" />
		<tag k="ssr:stedsnr" v="479948" />
	</node>
	<node id="-349093" lat="62.4014055519" lon="10.9392472265">
		<tag k="name" v="Slettan" />
		<tag k="place" v="locality" />
		<tag k="ssr:stedsnr" v="479840" />
	</node>
	<node id="-349079" lat="62.4074000027" lon="11.1089333377">
		<tag k="name" v="Brenna" />
		<tag k="place" v="locality" />
		<tag k="ssr:stedsnr" v="479436" />
	</node>
	<node id="-349078" lat="62.4468916696" lon="10.7513694353">
		<tag k="name" v="Kroketmyra" />
		<tag k="natural" v="wetland" />
		<tag k="ssr:stedsnr" v="479349" />
	</node>
	<node id="-349077" lat="62.4246472189" lon="10.7551027735">
		<tag k="name" v="Åkervollen" />
		<tag k="place" v="locality" />
		<tag k="ssr:stedsnr" v="479337" />
	</node>
	<node id="-349067" lat="62.2459555574" lon="11.4131888945">
		<tag k="name" v="Storstenen" />
		<tag k="natural" v="stone" />
		<tag k="ssr:stedsnr" v="478810" />
	</node>
	<node id="-349066" lat="62.4501055569" lon="10.9044805646">
		<tag k="name" v="Skremyra" />
		<tag k="natural" v="wetland" />
		<tag k="ssr:stedsnr" v="478892" />
	</node>
	<node id="-349064" lat="62.4934555568" lon="10.7616194414">
		<tag k="landuse" v="meadow" />
		<tag k="name" v="Nyløenget" />
		<tag k="ssr:stedsnr" v="478541" />
	</node>
	<node id="-349063" lat="62.4275638889" lon="11.1982166695">
		<tag k="name" v="Storstenen" />
		<tag k="natural" v="stone" />
		<tag k="ssr:stedsnr" v="478520" />
	</node>
	<node id="-349057" lat="62.4218333326" lon="10.7963972263">
		<tag k="name" v="Limyran" />
		<tag k="natural" v="wetland" />
		<tag k="ssr:stedsnr" v="478644" />
	</node>
	<node id="-349051" lat="62.4194944445" lon="11.0174611035">
		<tag k="name" v="Matiasgjelta" />
		<tag k="place" v="locality" />
		<tag k="ssr:stedsnr" v="478114" />
	</node>
	<node id="-349038" lat="62.3687000013" lon="11.0830638912">
		<tag k="alt_name" v="Engefloen" />
		<tag k="name" v="Engfloen" />
		<tag k="natural" v="wetland" />
		<tag k="ssr:stedsnr" v="315174" />
	</node>
	<node id="-349010" lat="62.4758694453" lon="10.8507222221">
		<tag k="historic" v="shieling" />
		<tag k="name" v="Veslegjeltvollen" />
		<tag k="place" v="locality" />
		<tag k="ssr:stedsnr" v="297931" />
	</node>
	<node id="-348986" lat="62.4349277783" lon="11.0370527868">
		<tag k="name" v="Kåsan" />
		<tag k="place" v="locality" />
		<tag k="ssr:stedsnr" v="236126" />
	</node>
	<node id="-348982" lat="62.4779888889" lon="10.8500138958">
		<tag k="historic" v="shieling" />
		<tag k="name" v="Ustuvollen" />
		<tag k="place" v="locality" />
		<tag k="ssr:stedsnr" v="297899" />
	</node>
	<node id="-348981" lat="62.4418583347" lon="10.9186833262">
		<tag k="name" v="Veslesætermyran" />
		<tag k="natural" v="wetland" />
		<tag k="ssr:stedsnr" v="297888" />
	</node>
	<node id="-348973" lat="62.4017916642" lon="10.9263888964">
		<tag k="name" v="Forlotten" />
		<tag k="place" v="locality" />
		<tag k="ssr:stedsnr" v="297832" />
	</node>
	<node id="-348970" lat="62.4070777758" lon="10.926541659">
		<tag k="name" v="Høyåsfloen" />
		<tag k="natural" v="wetland" />
		<tag k="ssr:stedsnr" v="297827" />
	</node>
	<node id="-348965" lat="62.2332972239" lon="11.4128027847">
		<tag k="name" v="Sønmørgjerdinga" />
		<tag k="place" v="locality" />
		<tag k="ssr:stedsnr" v="297809" />
	</node>
	<node id="-348964" lat="62.4366972237" lon="10.9122611107">
		<tag k="historic" v="shieling" />
		<tag k="name" v="Veslesætra" />
		<tag k="place" v="locality" />
		<tag k="ssr:stedsnr" v="297804" />
	</node>
	<node id="-348958" lat="62.3609222199" lon="10.8526222232">
		<tag k="name" v="Lauvkvervmyra" />
		<tag k="natural" v="wetland" />
		<tag k="ssr:stedsnr" v="297767" />
	</node>
	<node id="-348945" lat="62.4159666685" lon="11.1967555606">
		<tag k="name" v="Masingsmedenget" />
		<tag k="place" v="locality" />
		<tag k="ssr:stedsnr" v="297580" />
	</node>
	<node id="-348943" lat="62.4076888857" lon="11.1650944429">
		<tag k="name" v="Tollenget" />
		<tag k="place" v="locality" />
		<tag k="ssr:stedsnr" v="297561" />
	</node>
	<node id="-348937" lat="62.3279027797" lon="11.2038333365">
		<tag k="landuse" v="meadow" />
		<tag k="name" v="Åsengan" />
		<tag k="ssr:stedsnr" v="297408" />
	</node>
	<node id="-348929" lat="62.2351000022" lon="11.0777388951">
		<tag k="landuse" v="meadow" />
		<tag k="name" v="Heggkåsa" />
		<tag k="ssr:stedsnr" v="297313" />
	</node>
	<node id="-348926" lat="62.427516668" lon="10.9993249999">
		<tag k="name" v="Mannstenen" />
		<tag k="natural" v="stone" />
		<tag k="ssr:stedsnr" v="297202" />
	</node>
	<node id="-348915" lat="62.4950972255" lon="10.7626694409">
		<tag k="landuse" v="meadow" />
		<tag k="name" v="Buenget" />
		<tag k="ssr:stedsnr" v="296501" />
	</node>
	<node id="-348913" lat="62.3707666693" lon="11.0441250095">
		<tag k="historic" v="shieling" />
		<tag k="name" v="Måssåbudalen" />
		<tag k="place" v="locality" />
		<tag k="ssr:stedsnr" v="296307" />
	</node>
	<node id="-348912" lat="62.4757777806" lon="10.7234222312">
		<tag k="landuse" v="meadow" />
		<tag k="name" v="Persenga" />
		<tag k="ssr:stedsnr" v="296228" />
	</node>
	<node id="-348910" lat="62.4798583355" lon="10.7257666715">
		<tag k="historic" v="shieling" />
		<tag k="name" v="Fjellrovollen" />
		<tag k="place" v="locality" />
		<tag k="ssr:stedsnr" v="296216" />
	</node>
	<node id="-348908" lat="62.2199416695" lon="11.0340000014">
		<tag k="name" v="Trettbekkfloen" />
		<tag k="natural" v="wetland" />
		<tag k="ssr:stedsnr" v="295149" />
	</node>
	<node id="-348906" lat="62.4145333295" lon="10.7625388962">
		<tag k="name" v="Persvollen" />
		<tag k="place" v="locality" />
		<tag k="ssr:stedsnr" v="294257" />
	</node>
	<node id="-348904" lat="62.4270749982" lon="10.653252778">
		<tag k="name" v="Fjerdingslåtten" />
		<tag k="place" v="locality" />
		<tag k="ssr:stedsnr" v="294047" />
	</node>
	<node id="-348903" lat="62.4109777823" lon="10.7086749993">
		<tag k="historic" v="shieling" />
		<tag k="name" v="Langsætra" />
		<tag k="place" v="locality" />
		<tag k="ssr:stedsnr" v="294012" />
	</node>
	<node id="-348902" lat="62.4134916708" lon="10.6752416715">
		<tag k="name" v="Tølleslåtten" />
		<tag k="natural" v="wetland" />
		<tag k="ssr:stedsnr" v="294002" />
	</node>
	<node id="-348861" lat="62.4758166681" lon="10.8606861028">
		<tag k="historic" v="shieling" />
		<tag k="name" v="Gammelstuvollen" />
		<tag k="place" v="locality" />
		<tag k="ssr:stedsnr" v="115926" />
	</node>
	<node id="-350902" lat="62.4471361119" lon="10.8887750002">
		<tag k="historic" v="shieling" />
		<tag k="name" v="Haugsvollen" />
		<tag k="place" v="locality" />
		<tag k="ssr:stedsnr" v="965993" />
	</node>
	<node id="-350900" lat="62.3611111121" lon="10.9329861038">
		<tag k="landuse" v="meadow" />
		<tag k="name" v="Nesenget" />
		<tag k="ssr:stedsnr" v="965802" />
	</node>
	<node id="-348850" lat="62.476338892" lon="10.8382166617">
		<tag k="historic" v="shieling" />
		<tag k="name" v="Gamle Stornorstuvollen" />
		<tag k="place" v="locality" />
		<tag k="ssr:stedsnr" v="115528" />
	</node>
	<node id="-350896" lat="62.3753305578" lon="10.9161222229">
		<tag k="landuse" v="meadow" />
		<tag k="name" v="Vesleenget" />
		<tag k="ssr:stedsnr" v="965786" />
	</node>
	<node id="-348845" lat="62.2601222239" lon="11.4520333295">
		<tag k="name" v="Kløvmyran" />
		<tag k="natural" v="wetland" />
		<tag k="ssr:stedsnr" v="114824" />
	</node>
	<node id="-348843" lat="62.4095583349" lon="10.7458972279">
		<tag k="name" v="Trøomslått" />
		<tag k="place" v="locality" />
		<tag k="ssr:stedsnr" v="112305" />
	</node>
	<node id="-350889" lat="62.4005277786" lon="10.8855750013">
		<tag k="name" v="Brenna" />
		<tag k="place" v="locality" />
		<tag k="ssr:stedsnr" v="965700" />
	</node>
	<node id="-350887" lat="62.2951416709" lon="11.2579638811">
		<tag k="landuse" v="meadow" />
		<tag k="name" v="Skreenget" />
		<tag k="ssr:stedsnr" v="965676" />
	</node>
	<node id="-350881" lat="62.2516527748" lon="11.063463881">
		<tag k="name" v="Storsteinen" />
		<tag k="natural" v="stone" />
		<tag k="ssr:stedsnr" v="965325" />
	</node>
	<node id="-350880" lat="62.2664027818" lon="11.4741722284">
		<tag k="name" v="Brestet" />
		<tag k="place" v="locality" />
		<tag k="ssr:stedsnr" v="965316" />
	</node>
	<node id="-350878" lat="62.4115250004" lon="11.0380638794">
		<tag k="name" v="Tverrmyra" />
		<tag k="natural" v="wetland" />
		<tag k="ssr:stedsnr" v="965312" />
	</node>
	<node id="-350875" lat="62.450774999" lon="10.9130083257">
		<tag k="landuse" v="meadow" />
		<tag k="name" v="Sjøenget" />
		<tag k="ssr:stedsnr" v="964862" />
	</node>
	<node id="-350874" lat="62.1784694459" lon="11.522919451">
		<tag k="name" v="Vargklettvollan" />
		<tag k="place" v="locality" />
		<tag k="ssr:stedsnr" v="964997" />
	</node>
	<node id="-350867" lat="62.4714805533" lon="10.7889027692">
		<tag k="historic" v="shieling" />
		<tag k="name" v="Trøomvollen" />
		<tag k="place" v="locality" />
		<tag k="ssr:stedsnr" v="964542" />
	</node>
	<node id="-350866" lat="62.4672111136" lon="10.7887777694">
		<tag k="historic" v="shieling" />
		<tag k="name" v="Gammeløyvollen" />
		<tag k="place" v="locality" />
		<tag k="ssr:stedsnr" v="964540" />
	</node>
	<node id="-348809" lat="62.2138361138" lon="11.4184083338">
		<tag k="name" v="Jordfloen" />
		<tag k="natural" v="wetland" />
		<tag k="ssr:stedsnr" v="71501" />
	</node>
	<node id="-350856" lat="62.466738888" lon="10.755033326">
		<tag k="name" v="Tøllefsslått" />
		<tag k="place" v="locality" />
		<tag k="ssr:stedsnr" v="963293" />
	</node>
	<node id="-350855" lat="62.4739472188" lon="10.7237694525">
		<tag k="landuse" v="meadow" />
		<tag k="name" v="Sumundsenga" />
		<tag k="ssr:stedsnr" v="963286" />
	</node>
	<node id="-350854" lat="62.4007416682" lon="10.7709527785">
		<tag k="name" v="Jordenga" />
		<tag k="place" v="locality" />
		<tag k="ssr:stedsnr" v="962251" />
	</node>
	<node id="-348802" lat="62.3882444473" lon="11.2141972297">
		<tag k="name" v="Bruengmyran" />
		<tag k="natural" v="wetland" />
		<tag k="ssr:stedsnr" v="237735" />
	</node>
	<node id="-348801" lat="62.3672000016" lon="11.2373055624">
		<tag k="name" v="Nylandet" />
		<tag k="place" v="locality" />
		<tag k="ssr:stedsnr" v="237730" />
	</node>
	<node id="-348793" lat="62.4094944404" lon="11.1870388879">
		<tag k="name" v="Dølmoenget" />
		<tag k="place" v="locality" />
		<tag k="ssr:stedsnr" v="237618" />
	</node>
	<node id="-348792" lat="62.3951527801" lon="11.1662805592">
		<tag k="name" v="Bjønnkåsa" />
		<tag k="place" v="locality" />
		<tag k="ssr:stedsnr" v="55563" />
	</node>
	<node id="-348788" lat="62.3522138853" lon="11.1895888854">
		<tag k="name" v="Ratet" />
		<tag k="natural" v="wetland" />
		<tag k="ssr:stedsnr" v="237489" />
	</node>
	<node id="-350834" lat="62.4254055597" lon="10.8976111071">
		<tag k="name" v="Stormyra" />
		<tag k="natural" v="wetland" />
		<tag k="ssr:stedsnr" v="861095" />
	</node>
	<node id="-350824" lat="62.2481722241" lon="11.4722361195">
		<tag k="name" v="Halvtakmyra" />
		<tag k="natural" v="wetland" />
		<tag k="ssr:stedsnr" v="844799" />
	</node>
	<node id="-348775" lat="62.2252111141" lon="11.0634333265">
		<tag k="landuse" v="meadow" />
		<tag k="name" v="Framkåsa" />
		<tag k="ssr:stedsnr" v="237421" />
	</node>
	<node id="-348774" lat="62.2248111103" lon="11.03526111">
		<tag k="name" v="Granslette" />
		<tag k="place" v="locality" />
		<tag k="ssr:stedsnr" v="237420" />
	</node>
	<node id="-348772" lat="62.4396916677" lon="10.8935527685">
		<tag k="name" v="Møkkelbekkenget" />
		<tag k="place" v="locality" />
		<tag k="ssr:stedsnr" v="54862" />
	</node>
	<node id="-348771" lat="62.4489833333" lon="10.8974416748">
		<tag k="name" v="Olderlunna" />
		<tag k="place" v="locality" />
		<tag k="ssr:stedsnr" v="54856" />
	</node>
	<node id="-350816" lat="62.375211113" lon="10.8481833258">
		<tag k="name" v="Tjønnvangen" />
		<tag k="place" v="locality" />
		<tag k="ssr:stedsnr" v="844730" />
	</node>
	<node id="-350815" lat="62.3914972191" lon="10.866019436">
		<tag k="landuse" v="meadow" />
		<tag k="name" v="Trøenget" />
		<tag k="ssr:stedsnr" v="844728" />
	</node>
	<node id="-348766" lat="62.3902083329" lon="11.025080556">
		<tag k="name" v="Storodden" />
		<tag k="place" v="locality" />
		<tag k="ssr:stedsnr" v="54358" />
	</node>
	<node id="-350811" lat="62.3115305519" lon="11.2499444525">
		<tag k="historic" v="shieling" />
		<tag k="name" v="Bruvollen" />
		<tag k="place" v="locality" />
		<tag k="ssr:stedsnr" v="844672" />
	</node>
	<node id="-348762" lat="62.4500333316" lon="10.8102416743">
		<tag k="name" v="Vangslått" />
		<tag k="place" v="locality" />
		<tag k="ssr:stedsnr" v="54608" />
	</node>
	<node id="-348761" lat="62.4496694429" lon="10.803983333">
		<tag k="name" v="Veslevolmyran" />
		<tag k="natural" v="wetland" />
		<tag k="ssr:stedsnr" v="54606" />
	</node>
	<node id="-350808" lat="62.414602781" lon="11.1837111145">
		<tag k="name" v="Snekkarenget" />
		<tag k="place" v="locality" />
		<tag k="ssr:stedsnr" v="844618" />
	</node>
	<node id="-350806" lat="62.3973083366" lon="11.1537249969">
		<tag k="name" v="Vesltjønnenget" />
		<tag k="place" v="locality" />
		<tag k="ssr:stedsnr" v="844598" />
	</node>
	<node id="-350804" lat="62.4412611106" lon="10.7273305465">
		<tag k="name" v="Persbåvolvollen" />
		<tag k="place" v="locality" />
		<tag k="ssr:stedsnr" v="844341" />
	</node>
	<node id="-348755" lat="62.4462166705" lon="11.0029472169">
		<tag k="name" v="Andersnilsafloen" />
		<tag k="natural" v="wetland" />
		<tag k="ssr:stedsnr" v="54156" />
	</node>
	<node id="-350801" lat="62.2671333303" lon="11.4632749975">
		<tag k="name" v="Stabbestøe" />
		<tag k="place" v="locality" />
		<tag k="ssr:stedsnr" v="844274" />
	</node>
	<node id="-350800" lat="62.4018611122" lon="11.0831194496">
		<tag k="name" v="Granrøsta" />
		<tag k="place" v="locality" />
		<tag k="ssr:stedsnr" v="844268" />
	</node>
	<node id="-348751" lat="62.2921416645" lon="11.0392749969">
		<tag k="name" v="Ivarkåsa" />
		<tag k="place" v="locality" />
		<tag k="ssr:stedsnr" v="237313" />
	</node>
	<node id="-350798" lat="62.4298611104" lon="11.0557583287">
		<tag k="name" v="Karøsta" />
		<tag k="place" v="locality" />
		<tag k="ssr:stedsnr" v="844186" />
	</node>
	<node id="-350797" lat="62.1897777766" lon="11.4960444538">
		<tag k="name" v="Smørbekkfloen" />
		<tag k="natural" v="wetland" />
		<tag k="ssr:stedsnr" v="843997" />
	</node>
	<node id="-350796" lat="62.1714027741" lon="11.5330972222">
		<tag k="landuse" v="meadow" />
		<tag k="name" v="Langsjølåttan" />
		<tag k="ssr:stedsnr" v="843982" />
	</node>
	<node id="-350795" lat="62.198919449" lon="11.4581833304">
		<tag k="landuse" v="meadow" />
		<tag k="name" v="Jamtenga" />
		<tag k="ssr:stedsnr" v="843981" />
	</node>
	<node id="-348746" lat="62.4359083349" lon="11.07406388">
		<tag k="name" v="Tjukkåsmyran" />
		<tag k="natural" v="wetland" />
		<tag k="ssr:stedsnr" v="237197" />
	</node>
	<node id="-350793" lat="62.4977555583" lon="10.7994777774">
		<tag k="name" v="Gjortmyra" />
		<tag k="natural" v="wetland" />
		<tag k="ssr:stedsnr" v="843952" />
	</node>
	<node id="-350792" lat="62.2059722205" lon="11.5383666722">
		<tag k="name" v="Storfloen" />
		<tag k="natural" v="wetland" />
		<tag k="ssr:stedsnr" v="843930" />
	</node>
	<node id="-350791" lat="62.4760277822" lon="10.8640611017">
		<tag k="historic" v="shieling" />
		<tag k="name" v="Haugsvollen" />
		<tag k="place" v="locality" />
		<tag k="ssr:stedsnr" v="843925" />
	</node>
	<node id="-350790" lat="62.3508416695" lon="11.2834583415">
		<tag k="landuse" v="meadow" />
		<tag k="name" v="Rabbenget" />
		<tag k="ssr:stedsnr" v="843757" />
	</node>
	<node id="-350787" lat="62.4422305539" lon="10.9273055559">
		<tag k="name" v="Vintervegrya" />
		<tag k="natural" v="wetland" />
		<tag k="ssr:stedsnr" v="843889" />
	</node>
	<node id="-350786" lat="62.433908337" lon="10.8899972211">
		<tag k="name" v="Bankmyra" />
		<tag k="place" v="locality" />
		<tag k="ssr:stedsnr" v="843861" />
	</node>
	<node id="-350785" lat="62.4183805527" lon="10.9513277833">
		<tag k="name" v="Langkloppfloen" />
		<tag k="natural" v="wetland" />
		<tag k="ssr:stedsnr" v="843841" />
	</node>
	<node id="-348733" lat="62.3635527761" lon="10.9372333288">
		<tag k="name" v="Tovrya" />
		<tag k="natural" v="wetland" />
		<tag k="ssr:stedsnr" v="236787" />
	</node>
	<node id="-350779" lat="62.3737388891" lon="11.19711112">
		<tag k="name" v="Langmyra" />
		<tag k="natural" v="wetland" />
		<tag k="ssr:stedsnr" v="843468" />
	</node>
	<node id="-350777" lat="62.4801694402" lon="10.8380777836">
		<tag k="landuse" v="meadow" />
		<tag k="name" v="Fætten" />
		<tag k="ssr:stedsnr" v="843567" />
	</node>
	<node id="-348728" lat="62.3843055581" lon="10.8605138879">
		<tag k="historic" v="shieling" />
		<tag k="name" v="Høstvollan" />
		<tag k="place" v="locality" />
		<tag k="ssr:stedsnr" v="236673" />
	</node>
	<node id="-350775" lat="62.4720305581" lon="10.8389194394">
		<tag k="name" v="Stormyra" />
		<tag k="natural" v="wetland" />
		<tag k="ssr:stedsnr" v="843559" />
	</node>
	<node id="-350772" lat="62.4353305597" lon="10.9766083415">
		<tag k="name" v="Vintermyra" />
		<tag k="natural" v="wetland" />
		<tag k="ssr:stedsnr" v="843180" />
	</node>
	<node id="-348723" lat="62.4174694431" lon="10.7863638909">
		<tag k="name" v="Simamyra" />
		<tag k="natural" v="wetland" />
		<tag k="ssr:stedsnr" v="236586" />
	</node>
	<node id="-350769" lat="62.429775002" lon="11.0384305535">
		<tag k="name" v="Langmyra" />
		<tag k="natural" v="wetland" />
		<tag k="ssr:stedsnr" v="843123" />
	</node>
	<node id="-348712" lat="62.3940805573" lon="10.9729333264">
		<tag k="name" v="Kåsa" />
		<tag k="place" v="locality" />
		<tag k="ssr:stedsnr" v="236342" />
	</node>
	<node id="-348711" lat="62.4522222242" lon="10.7755888883">
		<tag k="landuse" v="meadow" />
		<tag k="name" v="Vesleenget" />
		<tag k="ssr:stedsnr" v="236339" />
	</node>
	<node id="-348707" lat="62.3704749967" lon="11.0540138875">
		<tag k="landuse" v="meadow" />
		<tag k="name" v="Åsengene" />
		<tag k="ssr:stedsnr" v="236326" />
	</node>
	<node id="-348705" lat="62.4565388856" lon="10.733727786">
		<tag k="landuse" v="meadow" />
		<tag k="name" v="Bakenget" />
		<tag k="ssr:stedsnr" v="236303" />
	</node>
	<node id="-348702" lat="62.4233861135" lon="11.0062166653">
		<tag k="historic" v="shieling" />
		<tag k="name" v="Olvollen" />
		<tag k="place" v="locality" />
		<tag k="ssr:stedsnr" v="236196" />
	</node>
	<node id="-348700" lat="62.4514388904" lon="11.008111116">
		<tag k="name" v="Skreddarmyran" />
		<tag k="natural" v="wetland" />
		<tag k="ssr:stedsnr" v="236179" />
	</node>
	<node id="-348692" lat="62.4701722268" lon="10.7655027719">
		<tag k="name" v="Trøomslått" />
		<tag k="place" v="locality" />
		<tag k="ssr:stedsnr" v="235554" />
	</node>
	<node id="-348689" lat="62.4137861137" lon="10.734019438">
		<tag k="name" v="Veiskilløy" />
		<tag k="place" v="locality" />
		<tag k="ssr:stedsnr" v="234256" />
	</node>
	<node id="-350717" lat="62.3658138905" lon="11.2238749984">
		<tag k="name" v="Stormyra" />
		<tag k="place" v="locality" />
		<tag k="ssr:stedsnr" v="783715" />
	</node>
	<node id="-350716" lat="62.3604444466" lon="11.2292888822">
		<tag k="name" v="Måssåmyra" />
		<tag k="natural" v="wetland" />
		<tag k="ssr:stedsnr" v="783714" />
	</node>
	<node id="-350714" lat="62.4152694442" lon="10.8864666659">
		<tag k="name" v="Beggtjønnmyran" />
		<tag k="natural" v="wetland" />
		<tag k="ssr:stedsnr" v="783698" />
	</node>
	<node id="-350704" lat="62.4143111114" lon="11.1873249946">
		<tag k="name" v="Langkåsenget" />
		<tag k="place" v="locality" />
		<tag k="ssr:stedsnr" v="783596" />
	</node>
	<node id="-350702" lat="62.4327750021" lon="11.1051777736">
		<tag k="name" v="Småvollan" />
		<tag k="place" v="locality" />
		<tag k="ssr:stedsnr" v="783516" />
	</node>
	<node id="-350695" lat="62.3742555518" lon="11.0377666692">
		<tag k="name" v="Måssåbufloen" />
		<tag k="natural" v="wetland" />
		<tag k="ssr:stedsnr" v="783312" />
	</node>
	<node id="-350694" lat="62.2592999998" lon="11.0731166629">
		<tag k="landuse" v="meadow" />
		<tag k="name" v="Strypenget" />
		<tag k="ssr:stedsnr" v="783291" />
	</node>
	<node id="-350690" lat="62.2671444472" lon="11.4578638835">
		<tag k="name" v="Kuhølen" />
		<tag k="natural" v="wetland" />
		<tag k="ssr:stedsnr" v="783266" />
	</node>
	<node id="-350682" lat="62.195933335" lon="11.4267611141">
		<tag k="name" v="Veslehesja" />
		<tag k="place" v="locality" />
		<tag k="ssr:stedsnr" v="782828" />
	</node>
	<node id="-350680" lat="62.4445888883" lon="10.8729750047">
		<tag k="landuse" v="quarry" />
		<tag k="name" v="Gammelgruva" />
		<tag k="ssr:stedsnr" v="782825" />
	</node>
	<node id="-350679" lat="62.4278027777" lon="10.9332638817">
		<tag k="name" v="Engemyra" />
		<tag k="natural" v="wetland" />
		<tag k="ssr:stedsnr" v="782794" />
	</node>
	<node id="-350678" lat="62.3502499998" lon="11.3180472223">
		<tag k="name" v="Svartåsfloan" />
		<tag k="natural" v="wetland" />
		<tag k="ssr:stedsnr" v="782699" />
	</node>
	<node id="-350677" lat="62.3232055587" lon="11.3626111151">
		<tag k="name" v="Eidsengan" />
		<tag k="place" v="locality" />
		<tag k="ssr:stedsnr" v="782627" />
	</node>
	<node id="-350669" lat="62.4941388854" lon="10.7535694374">
		<tag k="name" v="Storfloen" />
		<tag k="natural" v="wetland" />
		<tag k="ssr:stedsnr" v="782497" />
	</node>
	<node id="-350667" lat="62.4309111099" lon="10.6603666573">
		<tag k="name" v="Persgjerenga" />
		<tag k="place" v="locality" />
		<tag k="ssr:stedsnr" v="782313" />
	</node>
	<node id="-350666" lat="62.4261916694" lon="10.6904361033">
		<tag k="historic" v="shieling" />
		<tag k="name" v="Nyhusveslevangan" />
		<tag k="place" v="locality" />
		<tag k="ssr:stedsnr" v="782309" />
	</node>
	<node id="-350665" lat="62.3605722263" lon="11.0529583296">
		<tag k="name" v="Gammelrabbfloan" />
		<tag k="natural" v="wetland" />
		<tag k="ssr:stedsnr" v="782301" />
	</node>
	<node id="-350664" lat="62.4578583334" lon="10.7416722189">
		<tag k="landuse" v="meadow" />
		<tag k="name" v="Storbakken" />
		<tag k="ssr:stedsnr" v="782294" />
	</node>
	<node id="-350658" lat="62.4358749965" lon="10.9675138838">
		<tag k="name" v="Jamtgjeltan" />
		<tag k="place" v="locality" />
		<tag k="ssr:stedsnr" v="782152" />
	</node>
	<node id="-350655" lat="62.4627527759" lon="10.754813893">
		<tag k="name" v="Storhaugslått" />
		<tag k="place" v="locality" />
		<tag k="ssr:stedsnr" v="781269" />
	</node>
	<node id="-350654" lat="62.4777777764" lon="10.7338333341">
		<tag k="name" v="Øster Moslått" />
		<tag k="place" v="locality" />
		<tag k="ssr:stedsnr" v="781253" />
	</node>
	<node id="-350650" lat="62.4126027741" lon="10.7269388935">
		<tag k="name" v="Rønningsenga" />
		<tag k="place" v="locality" />
		<tag k="ssr:stedsnr" v="780255" />
	</node>
	<node id="-350648" lat="62.4320638856" lon="10.6503166704">
		<tag k="name" v="Rønningsenga" />
		<tag k="place" v="locality" />
		<tag k="ssr:stedsnr" v="780059" />
	</node>
	<node id="-350644" lat="62.4232888903" lon="11.1009805526">
		<tag k="name" v="Jervåsmoen" />
		<tag k="place" v="locality" />
		<tag k="ssr:stedsnr" v="756790" />
	</node>
	<node id="-350631" lat="62.3041111072" lon="11.4182666699">
		<tag k="name" v="Kåsmyra" />
		<tag k="natural" v="wetland" />
		<tag k="ssr:stedsnr" v="739495" />
	</node>
	<node id="-350577" lat="62.4910222189" lon="10.8311166572">
		<tag k="landuse" v="meadow" />
		<tag k="name" v="Smeåsenga" />
		<tag k="ssr:stedsnr" v="600948" />
	</node>
	<node id="-350571" lat="62.3790916705" lon="11.2286972143">
		<tag k="name" v="Gråbensundet" />
		<tag k="natural" v="wetland" />
		<tag k="ssr:stedsnr" v="600694" />
	</node>
	<node id="-350564" lat="62.4574861085" lon="10.9497888971">
		<tag k="name" v="Pålsolamyra" />
		<tag k="natural" v="wetland" />
		<tag k="ssr:stedsnr" v="600898" />
	</node>
	<node id="-350561" lat="62.2739583378" lon="11.4558916666">
		<tag k="name" v="Floen" />
		<tag k="natural" v="wetland" />
		<tag k="ssr:stedsnr" v="600886" />
	</node>
	<node id="-350543" lat="62.3812527751" lon="11.0086972139">
		<tag k="name" v="Hammerkåsa" />
		<tag k="place" v="locality" />
		<tag k="ssr:stedsnr" v="600332" />
	</node>
	<node id="-350541" lat="62.3767055588" lon="11.0255999998">
		<tag k="name" v="Svartåsfloen" />
		<tag k="natural" v="wetland" />
		<tag k="ssr:stedsnr" v="600328" />
	</node>
	<node id="-350540" lat="62.4241027795" lon="10.6952583393">
		<tag k="alt_name" v="Oustutrøveslevangan" />
		<tag k="historic" v="shieling" />
		<tag k="name" v="Austutrøveslevangan" />
		<tag k="place" v="locality" />
		<tag k="ssr:stedsnr" v="600326" />
	</node>
	<node id="-350537" lat="62.4568861072" lon="10.758527781">
		<tag k="landuse" v="meadow" />
		<tag k="name" v="Gammelvangenget" />
		<tag k="ssr:stedsnr" v="600306" />
	</node>
	<node id="-350533" lat="62.416977782" lon="11.0770916765">
		<tag k="name" v="Stevollen" />
		<tag k="place" v="locality" />
		<tag k="ssr:stedsnr" v="600209" />
	</node>
	<node id="-350529" lat="62.477547218" lon="11.000216674">
		<tag k="name" v="Røstengan" />
		<tag k="place" v="locality" />
		<tag k="ssr:stedsnr" v="600050" />
	</node>
	<node id="-350527" lat="62.4295916662" lon="10.8013916626">
>>>>>>> e1d4bc35ff8a6074a6f2e91616a996b547c36f15
		<tag k="name" v="Nyhusvollen" />
		<tag k="place" v="locality" />
		<tag k="ssr:stedsnr" v="599638" />
	</node>
<<<<<<< HEAD
	<node lat="62.41697778195743" lon="11.077091676548632" id="-21563">
		<tag k="name" v="Stevollen" />
		<tag k="place" v="locality" />
		<tag k="ssr:stedsnr" v="600209" />
	</node>
	<node lat="62.406108336251854" lon="10.96078888070075" id="-21566">
		<tag k="name" v="Gørrfloen" />
		<tag k="natural" v="wetland" />
		<tag k="ssr:stedsnr" v="600820" />
	</node>
	<node lat="62.27395833778613" lon="11.45589166660657" id="-21570">
		<tag k="name" v="Floen" />
		<tag k="natural" v="wetland" />
		<tag k="ssr:stedsnr" v="600886" />
	</node>
	<node lat="62.41874166486145" lon="10.990477784087822" id="-21575">
		<tag k="name" v="Rabben" />
		<tag k="place" v="locality" />
		<tag k="ssr:stedsnr" v="600194" />
	</node>
	<node lat="62.42410277950866" lon="10.695258339251676" id="-21578">
		<tag k="alt_name" v="Oustutrøveslevangan" />
		<tag k="historic" v="shieling" />
		<tag k="name" v="Austutrøveslevangan" />
		<tag k="place" v="locality" />
		<tag k="ssr:stedsnr" v="600326" />
	</node>
	<node lat="62.37670555879136" lon="11.025599999832723" id="-21579">
		<tag k="name" v="Svartåsfloen" />
		<tag k="natural" v="wetland" />
		<tag k="ssr:stedsnr" v="600328" />
	</node>
	<node lat="62.38125277508858" lon="11.008697213865526" id="-21581">
		<tag k="name" v="Hammerkåsa" />
		<tag k="place" v="locality" />
		<tag k="ssr:stedsnr" v="600332" />
	</node>
	<node lat="62.370349998898" lon="11.18328334083645" id="-21588">
		<tag k="name" v="Malmtakmyra" />
		<tag k="natural" v="wetland" />
		<tag k="ssr:stedsnr" v="600414" />
	</node>
	<node lat="62.37034999720734" lon="11.10594444919712" id="-21591">
		<tag k="historic" v="shieling" />
		<tag k="name" v="Klettvollen" />
		<tag k="place" v="locality" />
		<tag k="ssr:stedsnr" v="600424" />
	</node>
	<node lat="62.37909167050773" lon="11.228697214338476" id="-21598">
		<tag k="name" v="Gråbensundet" />
		<tag k="natural" v="wetland" />
		<tag k="ssr:stedsnr" v="600694" />
	</node>
	<node lat="62.382366669879154" lon="10.817577772534442" id="-21633">
		<tag k="name" v="Slettenget" />
		<tag k="place" v="locality" />
		<tag k="ssr:stedsnr" v="658223" />
	</node>
	<node lat="62.345116667773794" lon="11.186833330508053" id="-21638">
		<tag k="name" v="Myra" />
		<tag k="place" v="locality" />
		<tag k="ssr:stedsnr" v="660421" />
	</node>
	<node lat="62.4663611135895" lon="10.758869435271832" id="-21639">
		<tag k="name" v="Fremmer Moslått" />
		<tag k="place" v="locality" />
		<tag k="ssr:stedsnr" v="660527" />
	</node>
	<node lat="62.461925002303055" lon="10.986719439592914" id="-21644">
		<tag k="name" v="Mofloen" />
		<tag k="natural" v="wetland" />
		<tag k="ssr:stedsnr" v="660054" />
	</node>
	<node lat="62.47490555224555" lon="10.721772213536052" id="-21651">
		<tag k="landuse" v="meadow" />
		<tag k="name" v="Blaenget" />
		<tag k="ssr:stedsnr" v="660263" />
	</node>
	<node lat="62.43231388941649" lon="10.880580564289305" id="-21662">
		<tag k="name" v="Heggrøsta" />
		<tag k="place" v="locality" />
		<tag k="ssr:stedsnr" v="660832" />
	</node>
	<node lat="62.43546388594385" lon="10.737474999924764" id="-21667">
		<tag k="name" v="Vangsbåvolvollen" />
		<tag k="place" v="locality" />
		<tag k="ssr:stedsnr" v="661315" />
	</node>
	<node lat="62.38486666770536" lon="10.977513883836203" id="-21668">
		<tag k="name" v="Granrøsta" />
		<tag k="place" v="locality" />
		<tag k="ssr:stedsnr" v="661327" />
	</node>
	<node lat="62.41130832916897" lon="10.873794435521994" id="-21671">
		<tag k="name" v="Hjertmoen" />
		<tag k="place" v="locality" />
		<tag k="ssr:stedsnr" v="661656" />
	</node>
	<node lat="62.35903055586485" lon="10.860222213040693" id="-21673">
		<tag k="name" v="Veslebekkmyran" />
		<tag k="natural" v="wetland" />
		<tag k="ssr:stedsnr" v="661750" />
	</node>
	<node lat="62.45389166371825" lon="10.946216663871352" id="-21678">
		<tag k="name" v="Hansmortenmyran" />
		<tag k="natural" v="wetland" />
		<tag k="ssr:stedsnr" v="661900" />
	</node>
	<node lat="62.38053889261363" lon="10.912811107265926" id="-21679">
		<tag k="name" v="Stormyra" />
		<tag k="natural" v="wetland" />
		<tag k="ssr:stedsnr" v="661768" />
	</node>
	<node lat="62.206216670572076" lon="11.487836106562023" id="-21680">
		<tag k="name" v="Rundmyra" />
		<tag k="natural" v="wetland" />
		<tag k="ssr:stedsnr" v="661772" />
	</node>
	<node lat="62.38214444040523" lon="10.943108341911683" id="-21681">
		<tag k="name" v="Eidsåkran" />
		<tag k="place" v="locality" />
		<tag k="ssr:stedsnr" v="661773" />
	</node>
	<node lat="62.37533889138002" lon="10.945491668525897" id="-21682">
		<tag k="name" v="Blestermyra" />
		<tag k="place" v="locality" />
		<tag k="ssr:stedsnr" v="661777" />
	</node>
	<node lat="62.43426389272885" lon="10.625202784828431" id="-21689">
		<tag k="name" v="Åkerbuvollen" />
		<tag k="place" v="locality" />
		<tag k="ssr:stedsnr" v="719037" />
	</node>
	<node lat="62.41290833370237" lon="10.720205562185901" id="-21690">
		<tag k="name" v="Gammelvangenget" />
		<tag k="place" v="locality" />
		<tag k="ssr:stedsnr" v="719261" />
	</node>
	<node lat="62.408788892049934" lon="10.726047231749371" id="-21691">
		<tag k="name" v="Storrya" />
		<tag k="place" v="locality" />
		<tag k="ssr:stedsnr" v="719262" />
	</node>
	<node lat="62.47961111471016" lon="10.582899991207642" id="-21693">
		<tag k="name" v="Gammelstuenget" />
		<tag k="place" v="locality" />
		<tag k="ssr:stedsnr" v="719326" />
	</node>
	<node lat="62.21598055822595" lon="11.03186388317575" id="-21695">
		<tag k="name" v="Granslette" />
		<tag k="place" v="locality" />
		<tag k="ssr:stedsnr" v="720161" />
	</node>
	<node lat="62.464769440380785" lon="10.985561117649429" id="-21700">
		<tag k="name" v="Stenkåsa" />
		<tag k="place" v="locality" />
		<tag k="ssr:stedsnr" v="721038" />
	</node>
	<node lat="62.46771666369596" lon="10.751991669152144" id="-21702">
		<tag k="historic" v="shieling" />
		<tag k="name" v="Jordvollen" />
		<tag k="place" v="locality" />
		<tag k="ssr:stedsnr" v="721246" />
	</node>
	<node lat="62.371919446273814" lon="11.18317222153835" id="-21704">
		<tag k="name" v="Kvenntrømyra" />
		<tag k="natural" v="wetland" />
		<tag k="ssr:stedsnr" v="721439" />
	</node>
	<node lat="62.44122499882615" lon="10.793619441336709" id="-21705">
		<tag k="historic" v="shieling" />
		<tag k="name" v="Engevollen" />
		<tag k="place" v="locality" />
		<tag k="ssr:stedsnr" v="721584" />
	</node>
	<node lat="62.44964721823007" lon="10.780719453052274" id="-21706">
		<tag k="historic" v="shieling" />
		<tag k="name" v="Persvollen" />
		<tag k="place" v="locality" />
		<tag k="ssr:stedsnr" v="721585" />
	</node>
	<node lat="62.44594444227992" lon="10.79240833013314" id="-21707">
		<tag k="name" v="Storslette" />
		<tag k="place" v="locality" />
		<tag k="ssr:stedsnr" v="721588" />
	</node>
	<node lat="62.241263890340534" lon="11.36425555838919" id="-21714">
		<tag k="name" v="Oddfloan" />
		<tag k="natural" v="wetland" />
		<tag k="ssr:stedsnr" v="721785" />
	</node>
	<node lat="62.42526944437409" lon="10.743916674968435" id="-21727">
		<tag k="name" v="Pålsslått" />
		<tag k="place" v="locality" />
		<tag k="ssr:stedsnr" v="722341" />
	</node>
	<node lat="62.44905833078046" lon="10.7658027692373" id="-21729">
		<tag k="landuse" v="meadow" />
		<tag k="name" v="Åshaugslått" />
		<tag k="ssr:stedsnr" v="722358" />
	</node>
	<node lat="62.28846944607871" lon="11.353180556922792" id="-21738">
		<tag k="name" v="Langkåsmyran" />
		<tag k="natural" v="wetland" />
		<tag k="ssr:stedsnr" v="722696" />
	</node>
	<node lat="62.31053333217019" lon="11.21543333177758" id="-21740">
		<tag k="name" v="Rugkåsfloen" />
		<tag k="natural" v="wetland" />
		<tag k="ssr:stedsnr" v="722666" />
	</node>
	<node lat="62.468950004131464" lon="10.852880564490862" id="-21741">
		<tag k="historic" v="shieling" />
		<tag k="name" v="Mussmørenga" />
		<tag k="place" v="locality" />
		<tag k="ssr:stedsnr" v="722932" />
	</node>
	<node lat="62.21787500414826" lon="11.40333889026792" id="-21748">
		<tag k="name" v="Krokøyodden" />
		<tag k="place" v="locality" />
		<tag k="ssr:stedsnr" v="722882" />
	</node>
	<node lat="62.463997226443446" lon="10.915399993986604" id="-21749">
		<tag k="historic" v="shieling" />
		<tag k="name" v="Simasvollen" />
		<tag k="place" v="locality" />
		<tag k="ssr:stedsnr" v="722887" />
	</node>
	<node lat="62.474163886016065" lon="10.961122226348516" id="-21750">
		<tag k="historic" v="shieling" />
		<tag k="name" v="Jensjovollen" />
		<tag k="place" v="locality" />
		<tag k="ssr:stedsnr" v="722891" />
	</node>
	<node lat="62.36148333615117" lon="11.230488894855775" id="-21753">
		<tag k="name" v="Måssåmyra" />
		<tag k="natural" v="wetland" />
		<tag k="ssr:stedsnr" v="739412" />
	</node>
	<node lat="62.423288890310076" lon="11.10098055256073" id="-21781">
		<tag k="name" v="Jervåsmoen" />
		<tag k="place" v="locality" />
		<tag k="ssr:stedsnr" v="756790" />
	</node>
	<node lat="62.43587499651577" lon="10.96751388375343" id="-21793">
		<tag k="name" v="Jamtgjeltan" />
		<tag k="place" v="locality" />
		<tag k="ssr:stedsnr" v="782152" />
	</node>
	<node lat="62.457858333388565" lon="10.741672218871603" id="-21797">
		<tag k="landuse" v="meadow" />
		<tag k="name" v="Storbakken" />
		<tag k="ssr:stedsnr" v="782294" />
	</node>
	<node lat="62.32320555867525" lon="11.362611115099353" id="-21802">
		<tag k="name" v="Eidsengan" />
		<tag k="place" v="locality" />
		<tag k="ssr:stedsnr" v="782627" />
	</node>
	<node lat="62.42780277768489" lon="10.933263881732016" id="-21804">
		<tag k="name" v="Engemyra" />
		<tag k="natural" v="wetland" />
		<tag k="ssr:stedsnr" v="782794" />
	</node>
	<node lat="62.19593333500623" lon="11.426761114124405" id="-21807">
		<tag k="name" v="Veslehesja" />
		<tag k="place" v="locality" />
		<tag k="ssr:stedsnr" v="782828" />
	</node>
	<node lat="62.26714444719474" lon="11.45786388353238" id="-21814">
		<tag k="name" v="Kuhølen" />
		<tag k="natural" v="wetland" />
		<tag k="ssr:stedsnr" v="783266" />
	</node>
	<node lat="62.259299999810466" lon="11.073116662910131" id="-21823">
		<tag k="landuse" v="meadow" />
		<tag k="name" v="Strypenget" />
		<tag k="ssr:stedsnr" v="783291" />
	</node>
	<node lat="62.41431111139255" lon="11.18732499461192" id="-21826">
		<tag k="name" v="Langkåsenget" />
		<tag k="place" v="locality" />
		<tag k="ssr:stedsnr" v="783596" />
	</node>
	<node lat="62.36044444664124" lon="11.229288882242566" id="-21830">
		<tag k="name" v="Måssåmyra" />
		<tag k="natural" v="wetland" />
		<tag k="ssr:stedsnr" v="783714" />
	</node>
	<node lat="62.36581389053675" lon="11.223874998418959" id="-21831">
		<tag k="name" v="Stormyra" />
		<tag k="place" v="locality" />
		<tag k="ssr:stedsnr" v="783715" />
	</node>
	<node lat="62.43625000097958" lon="10.645275009154862" id="-21874">
		<tag k="historic" v="shieling" />
		<tag k="name" v="Gjersætra" />
		<tag k="place" v="locality" />
		<tag k="ssr:stedsnr" v="841059" />
	</node>
	<node lat="62.42977500197838" lon="11.038430553483376" id="-21883">
		<tag k="name" v="Langmyra" />
		<tag k="natural" v="wetland" />
		<tag k="ssr:stedsnr" v="843123" />
	</node>
	<node lat="62.4977555583281" lon="10.799477777400753" id="-21885">
		<tag k="name" v="Gjortmyra" />
		<tag k="natural" v="wetland" />
		<tag k="ssr:stedsnr" v="843952" />
	</node>
	<node lat="62.37373888909915" lon="11.197111119962484" id="-21887">
		<tag k="name" v="Langmyra" />
		<tag k="natural" v="wetland" />
		<tag k="ssr:stedsnr" v="843468" />
=======
	<node id="-350521" lat="62.4645999967" lon="10.7633638863">
		<tag k="historic" v="shieling" />
		<tag k="name" v="Rakkestad" />
		<tag k="place" v="locality" />
		<tag k="ssr:stedsnr" v="599519" />
	</node>
	<node id="-350516" lat="62.3933059641" lon="10.7406255657">
		<tag k="name" v="Tollefshagenvollen" />
		<tag k="place" v="locality" />
		<tag k="ssr:stedsnr" v="597281" />
	</node>
	<node id="-350488" lat="62.4567250025" lon="10.9647972294">
		<tag k="historic" v="shieling" />
		<tag k="name" v="Felvollen" />
		<tag k="place" v="locality" />
		<tag k="ssr:stedsnr" v="540890" />
	</node>
	<node id="-350473" lat="62.3534388891" lon="11.2623055499">
		<tag k="name" v="Storbekkfloen" />
		<tag k="natural" v="wetland" />
		<tag k="ssr:stedsnr" v="540696" />
	</node>
	<node id="-350457" lat="62.2507861123" lon="11.0730944534">
		<tag k="landuse" v="meadow" />
		<tag k="name" v="Veslekåsa" />
		<tag k="ssr:stedsnr" v="540300" />
	</node>
	<node id="-350455" lat="62.403524996" lon="10.9751194474">
		<tag k="name" v="Bergeåkeren" />
		<tag k="place" v="locality" />
		<tag k="ssr:stedsnr" v="540261" />
	</node>
	<node id="-350454" lat="62.4755416631" lon="10.8656861071">
		<tag k="historic" v="shieling" />
		<tag k="name" v="Simasvollen" />
		<tag k="place" v="locality" />
		<tag k="ssr:stedsnr" v="539923" />
	</node>
	<node id="-350451" lat="62.1839305514" lon="11.6311138792">
		<tag k="landuse" v="meadow" />
		<tag k="name" v="Fjelløenget" />
		<tag k="ssr:stedsnr" v="539969" />
	</node>
	<node id="-350448" lat="62.3574277788" lon="11.2838138889">
		<tag k="name" v="Gammeltrøomfloen" />
		<tag k="natural" v="wetland" />
		<tag k="ssr:stedsnr" v="539712" />
	</node>
	<node id="-350445" lat="62.2385694491" lon="11.4154055486">
		<tag k="name" v="Svenshammermyra" />
		<tag k="natural" v="wetland" />
		<tag k="ssr:stedsnr" v="539794" />
	</node>
	<node id="-350443" lat="62.4560500025" lon="10.7879972156">
		<tag k="landuse" v="meadow" />
		<tag k="name" v="Rønningsenget" />
		<tag k="ssr:stedsnr" v="539529" />
	</node>
	<node id="-350442" lat="62.4786388847" lon="10.8359583315">
		<tag k="historic" v="shieling" />
		<tag k="name" v="Gamle Nygardsvollen" />
		<tag k="place" v="locality" />
		<tag k="ssr:stedsnr" v="539526" />
	</node>
	<node id="-350441" lat="62.4785611129" lon="10.8316333295">
		<tag k="historic" v="shieling" />
		<tag k="name" v="Gamle Klokkarvollen" />
		<tag k="place" v="locality" />
		<tag k="ssr:stedsnr" v="539522" />
	</node>
	<node id="-350439" lat="62.4276694451" lon="10.819930557">
		<tag k="name" v="Rabben" />
		<tag k="place" v="locality" />
		<tag k="ssr:stedsnr" v="539622" />
	</node>
	<node id="-350436" lat="62.4299722215" lon="10.8356944525">
		<tag k="landuse" v="meadow" />
		<tag k="name" v="Grønjota" />
		<tag k="ssr:stedsnr" v="539589" />
	</node>
	<node id="-350434" lat="62.4330333349" lon="10.8071111072">
		<tag k="landuse" v="meadow" />
		<tag k="name" v="Nyhusenget" />
		<tag k="ssr:stedsnr" v="539580" />
	</node>
	<node id="-350433" lat="62.4682500011" lon="10.7185749977">
		<tag k="name" v="Hagenslått" />
		<tag k="place" v="locality" />
		<tag k="ssr:stedsnr" v="539221" />
	</node>
	<node id="-350432" lat="62.4685361123" lon="10.7184000071">
		<tag k="landuse" v="meadow" />
		<tag k="name" v="Rabbenget" />
		<tag k="ssr:stedsnr" v="539220" />
	</node>
	<node id="-350428" lat="62.443222219" lon="11.0733944532">
		<tag k="name" v="Tjukkåsmyran" />
		<tag k="natural" v="wetland" />
		<tag k="ssr:stedsnr" v="539131" />
	</node>
	<node id="-350424" lat="62.3519388874" lon="10.8806361164">
		<tag k="landuse" v="meadow" />
		<tag k="name" v="Øvre Follstadtrøa" />
		<tag k="ssr:stedsnr" v="538251" />
	</node>
	<node id="-350422" lat="62.4306611114" lon="10.6448027814">
		<tag k="name" v="Nordistuslåtten" />
		<tag k="place" v="locality" />
		<tag k="ssr:stedsnr" v="537060" />
	</node>
	<node id="-350420" lat="62.4107305555" lon="10.6838944461">
		<tag k="name" v="Moslåtten" />
		<tag k="natural" v="wetland" />
		<tag k="ssr:stedsnr" v="537025" />
	</node>
	<node id="-350394" lat="62.2265805581" lon="11.4920055549">
		<tag k="name" v="Vasskåsan" />
		<tag k="natural" v="wetland" />
		<tag k="ssr:stedsnr" v="419795" />
	</node>
	<node id="-350380" lat="62.2629638905" lon="11.4778027809">
		<tag k="name" v="Kåsa" />
		<tag k="place" v="locality" />
		<tag k="ssr:stedsnr" v="419761" />
	</node>
	<node id="-350374" lat="62.3856666632" lon="10.8630138913">
		<tag k="historic" v="shieling" />
		<tag k="name" v="Utistuvollen" />
		<tag k="place" v="locality" />
		<tag k="ssr:stedsnr" v="419721" />
	</node>
	<node id="-350373" lat="62.2936944416" lon="11.3812527844">
		<tag k="historic" v="shieling" />
		<tag k="name" v="Hardvollen" />
		<tag k="place" v="locality" />
		<tag k="ssr:stedsnr" v="419688" />
	</node>
	<node id="-350372" lat="62.2989666701" lon="11.2689027814">
		<tag k="name" v="Stabbstøfloen" />
		<tag k="natural" v="wetland" />
		<tag k="ssr:stedsnr" v="419674" />
	</node>
	<node id="-350371" lat="62.2962861085" lon="11.2521638924">
		<tag k="landuse" v="meadow" />
		<tag k="name" v="Skreengsletta" />
		<tag k="ssr:stedsnr" v="419665" />
	</node>
	<node id="-350362" lat="62.4485805575" lon="10.7715555475">
		<tag k="name" v="Fossenget" />
		<tag k="place" v="locality" />
		<tag k="ssr:stedsnr" v="419351" />
	</node>
	<node id="-350361" lat="62.4481361083" lon="10.7646388853">
		<tag k="name" v="Storenget" />
		<tag k="place" v="locality" />
		<tag k="ssr:stedsnr" v="419350" />
	</node>
	<node id="-350360" lat="62.4548638882" lon="10.7711583249">
		<tag k="alt_name" v="Oustuvollen" />
		<tag k="name" v="Austuvollen" />
		<tag k="place" v="locality" />
		<tag k="ssr:stedsnr" v="419349" />
	</node>
	<node id="-350359" lat="62.429263893" lon="10.7319555637">
		<tag k="name" v="Oppstuslått" />
		<tag k="place" v="locality" />
		<tag k="ssr:stedsnr" v="419339" />
	</node>
	<node id="-350350" lat="62.443833329" lon="10.9466250008">
		<tag k="name" v="Toljemyran" />
		<tag k="natural" v="wetland" />
		<tag k="ssr:stedsnr" v="418875" />
	</node>
	<node id="-350346" lat="62.4342861104" lon="10.93013333">
		<tag k="name" v="Skuddhammermyra" />
		<tag k="natural" v="wetland" />
		<tag k="ssr:stedsnr" v="418797" />
	</node>
	<node id="-350340" lat="62.3190111107" lon="11.3747888864">
		<tag k="name" v="Galådalsmyran" />
		<tag k="natural" v="wetland" />
		<tag k="ssr:stedsnr" v="418632" />
	</node>
	<node id="-350335" lat="62.2589416665" lon="11.4411083336">
		<tag k="name" v="Brenna" />
		<tag k="place" v="locality" />
		<tag k="ssr:stedsnr" v="417848" />
	</node>
	<node id="-350334" lat="62.2539833348" lon="11.4065611094">
		<tag k="name" v="Myra" />
		<tag k="place" v="locality" />
		<tag k="ssr:stedsnr" v="417846" />
	</node>
	<node id="-350333" lat="62.4590555536" lon="10.7878666724">
		<tag k="landuse" v="meadow" />
		<tag k="name" v="Vangsenga" />
		<tag k="ssr:stedsnr" v="417599" />
	</node>
	<node id="-350331" lat="62.4760361129" lon="10.7351305489">
		<tag k="alt_name" v="Oustuenga" />
		<tag k="landuse" v="meadow" />
		<tag k="name" v="Austuenga" />
		<tag k="ssr:stedsnr" v="417291" />
	</node>
	<node id="-350327" lat="62.4038527801" lon="10.7359888835">
		<tag k="alt_name" v="Oustuvollen" />
		<tag k="historic" v="shieling" />
		<tag k="name" v="Austuvollen" />
		<tag k="place" v="locality" />
		<tag k="ssr:stedsnr" v="416251" />
	</node>
	<node id="-350299" lat="62.2060944485" lon="11.4228472186">
		<tag k="name" v="Vesleenget" />
		<tag k="place" v="locality" />
		<tag k="ssr:stedsnr" v="358850" />
	</node>
	<node id="-350296" lat="62.235083336" lon="11.4894138956">
		<tag k="historic" v="shieling" />
		<tag k="name" v="Gjertrudvollen" />
		<tag k="place" v="locality" />
		<tag k="ssr:stedsnr" v="358798" />
	</node>
	<node id="-350293" lat="62.2055583309" lon="11.478730552">
		<tag k="name" v="Langmyra" />
		<tag k="natural" v="wetland" />
		<tag k="ssr:stedsnr" v="358790" />
	</node>
	<node id="-350286" lat="62.3967694479" lon="10.9490166673">
		<tag k="name" v="Høyåsfloen" />
		<tag k="natural" v="wetland" />
		<tag k="ssr:stedsnr" v="358778" />
	</node>
	<node id="-350283" lat="62.2959555545" lon="11.364305559">
		<tag k="historic" v="shieling" />
		<tag k="name" v="Stenvollen" />
		<tag k="place" v="locality" />
		<tag k="ssr:stedsnr" v="358701" />
	</node>
	<node id="-350280" lat="62.414586111" lon="10.8319416703">
		<tag k="name" v="Sætermyra" />
		<tag k="natural" v="wetland" />
		<tag k="ssr:stedsnr" v="358683" />
	</node>
	<node id="-350279" lat="62.4117055566" lon="10.8196638844">
		<tag k="name" v="Blåbærfloen" />
		<tag k="natural" v="wetland" />
		<tag k="ssr:stedsnr" v="358680" />
	</node>
	<node id="-350277" lat="62.4482638933" lon="10.7583444372">
		<tag k="landuse" v="meadow" />
		<tag k="name" v="Hageneng" />
		<tag k="ssr:stedsnr" v="358346" />
	</node>
	<node id="-350274" lat="62.4857694484" lon="10.5623916578">
		<tag k="name" v="Jamtenga" />
		<tag k="place" v="locality" />
		<tag k="ssr:stedsnr" v="358333" />
	</node>
	<node id="-350273" lat="62.4561666703" lon="10.7579277784">
		<tag k="landuse" v="meadow" />
		<tag k="name" v="Fremmer Moslått" />
		<tag k="ssr:stedsnr" v="358300" />
	</node>
	<node id="-350269" lat="62.1675888846" lon="11.6299499986">
		<tag k="name" v="Femundsmyran" />
		<tag k="natural" v="wetland" />
		<tag k="ssr:stedsnr" v="357977" />
	</node>
	<node id="-350267" lat="62.4990138896" lon="10.7939722248">
		<tag k="landuse" v="meadow" />
		<tag k="name" v="Nygardsenga" />
		<tag k="ssr:stedsnr" v="357956" />
	</node>
	<node id="-350262" lat="62.3962750035" lon="10.9076138974">
		<tag k="name" v="Rundmyra" />
		<tag k="natural" v="wetland" />
		<tag k="ssr:stedsnr" v="357832" />
	</node>
	<node id="-350261" lat="62.3981277817" lon="10.9169083376">
		<tag k="name" v="Betmyra" />
		<tag k="natural" v="wetland" />
		<tag k="ssr:stedsnr" v="357830" />
	</node>
	<node id="-350257" lat="62.4305027795" lon="10.8086916588">
		<tag k="landuse" v="meadow" />
		<tag k="name" v="Sumundsenget" />
		<tag k="ssr:stedsnr" v="357575" />
	</node>
	<node id="-350255" lat="62.4636583318" lon="10.8180527869">
		<tag k="historic" v="shieling" />
		<tag k="name" v="Markusvollen" />
		<tag k="place" v="locality" />
		<tag k="ssr:stedsnr" v="357532" />
	</node>
	<node id="-350250" lat="62.3753999975" lon="11.1752638918">
		<tag k="name" v="Stormyra" />
		<tag k="natural" v="wetland" />
		<tag k="ssr:stedsnr" v="357447" />
	</node>
	<node id="-350241" lat="62.4349722198" lon="11.029597224">
		<tag k="name" v="Rønningen" />
		<tag k="place" v="locality" />
		<tag k="ssr:stedsnr" v="357118" />
	</node>
	<node id="-348848" lat="62.4214694472" lon="10.9946638899">
		<tag k="historic" v="shieling" />
		<tag k="name" v="Kringlettmyra" />
		<tag k="place" v="locality" />
		<tag k="ssr:stedsnr" v="115215" />
	</node>
	<node id="-350238" lat="62.4614361108" lon="11.019019435">
		<tag k="name" v="Karlsfloen" />
		<tag k="natural" v="wetland" />
		<tag k="ssr:stedsnr" v="357057" />
	</node>
	<node id="-350236" lat="62.4213277784" lon="10.8030138983">
		<tag k="name" v="Eriksmyra" />
		<tag k="natural" v="wetland" />
		<tag k="ssr:stedsnr" v="356947" />
	</node>
	<node id="-350233" lat="62.4694055545" lon="10.7436777695">
		<tag k="name" v="Garstorkåsa" />
		<tag k="place" v="locality" />
		<tag k="ssr:stedsnr" v="356281" />
	</node>
	<node id="-350228" lat="62.4545818556" lon="10.5943795387">
		<tag k="name" v="Nyutstumoengan" />
		<tag k="place" v="locality" />
		<tag k="ssr:stedsnr" v="355385" />
	</node>
	<node id="-350227" lat="62.4507666669" lon="10.6180194467">
		<tag k="name" v="Roenget" />
		<tag k="place" v="locality" />
		<tag k="ssr:stedsnr" v="355383" />
	</node>
	<node id="-350223" lat="62.4133361084" lon="10.7496916736">
		<tag k="name" v="Ytter Stenbakken" />
		<tag k="place" v="locality" />
		<tag k="ssr:stedsnr" v="355268" />
	</node>
	<node id="-350221" lat="62.3801916637" lon="10.824877781">
		<tag k="name" v="Gammelvangmyra" />
		<tag k="natural" v="wetland" />
		<tag k="ssr:stedsnr" v="355218" />
	</node>
	<node id="-350210" lat="62.3644" lon="10.9984666593">
		<tag k="alt_name" v="Veslefloen" />
		<tag k="name" v="Veslfloen" />
		<tag k="natural" v="wetland" />
		<tag k="ssr:stedsnr" v="315182" />
>>>>>>> e1d4bc35ff8a6074a6f2e91616a996b547c36f15
	</node>
</osm>
