<?xml version="1.0" encoding="UTF-8"?>
<osm version="0.6" generator="osmapis">
	<node lat="62.26600555727222" lon="11.392219449854402" id="-39786">
		<tag k="amenity" v="community_centre" />
		<tag k="name" v="Fjelltun" />
		<tag k="ssr:stedsnr" v="115812" />
	</node>
	<node lat="62.20509166522448" lon="11.440499991529936" id="-40086">
		<tag k="amenity" v="place_of_worship" />
		<tag k="denomination" v="lutheran" />
		<tag k="name" v="Holøydalen kirke" />
		<tag k="old_name" v="Holøydal" />
		<tag k="religion" v="christian" />
		<tag k="ssr:stedsnr" v="374469" />
	</node>
	<node lat="62.36215832991956" lon="11.199130558600585" id="-40100">
		<tag k="amenity" v="place_of_worship" />
		<tag k="denomination" v="lutheran" />
		<tag k="name" v="Hodalen kirke" />
		<tag k="old_name" v="Hodal" />
		<tag k="religion" v="christian" />
		<tag k="ssr:stedsnr" v="376207" />
	</node>
	<node lat="62.41505277998244" lon="10.994138889851927" id="-40154">
		<tag k="amenity" v="place_of_worship" />
		<tag k="denomination" v="lutheran" />
		<tag k="name" v="Tolga kirke" />
		<tag k="religion" v="christian" />
		<tag k="ssr:stedsnr" v="436107" />
	</node>
	<node lat="62.41735278120003" lon="10.866391675799731" id="-40594">
		<tag k="amenity" v="place_of_worship" />
		<tag k="denomination" v="lutheran" />
		<tag k="name" v="Vingelen kirke" />
		<tag k="religion" v="christian" />
		<tag k="ssr:stedsnr" v="800093" />
	</node>
	<node lat="62.16330277589307" lon="11.64438610199992" id="-41234">
		<tag k="name" v="Jernvinna" />
		<tag k="place" v="locality" />
		<tag k="ssr:stedsnr" v="357882" />
	</node>
	<node lat="62.200138892022764" lon="11.470277780014976" id="-41265">
		<tag k="name" v="Tomta" />
		<tag k="place" v="locality" />
		<tag k="ssr:stedsnr" v="358787" />
	</node>
	<node lat="62.24369166494686" lon="11.475666671788836" id="-41405">
		<tag k="name" v="Nordre Elvbakken" />
		<tag k="place" v="locality" />
		<tag k="ssr:stedsnr" v="479794" />
	</node>
	<node lat="62.215288885073555" lon="11.403338896466654" id="-41482">
		<tag k="name" v="Utistuløa" />
		<tag k="place" v="locality" />
		<tag k="ssr:stedsnr" v="540851" />
	</node>
	<node lat="62.41459166487699" lon="10.866652772171339" id="-41769">
		<tag k="amenity" v="community_centre" />
		<tag k="name" v="Fjellheim" />
		<tag k="ssr:stedsnr" v="783684" />
	</node>
</osm>
