<?xml version="1.0" encoding="UTF-8"?>
<osm version="0.6" generator="osmapis">
	<node id="24935671" lat="59.5602422" lon="7.356017" version="12" timestamp="2021-10-29T06:11:26Z" changeset="113107708" uid="3497659" user="NKA">
		<tag k="alt_name" v="Hovden i Setesdal" />
		<tag k="name" v="Hovden" />
		<tag k="name:ru" v="Ховден" />
		<tag k="place" v="village" />
		<tag k="population" v="403" />
		<tag k="population:date" v="2021-01-01" />
		<tag k="ref:ssb_tettsted" v="3641" />
		<tag k="source:population" v="SSB - befolkning i tettstedet" />
		<tag k="ssr:stedsnr" v="629348" />
		<tag k="ssr:type" v="bygdelagBygd" />
	</node>
	<node id="672151539" lat="59.4479085" lon="7.4287111" version="3" timestamp="2018-04-10T18:40:01Z" changeset="57982147" uid="3497659" user="NKA">
		<tag k="name" v="Berdalen" />
		<tag k="place" v="hamlet" />
		<tag k="ssr:stedsnr" v="245373" />
		<tag k="ssr:type" v="bruk" />
	</node>
	<node id="730978655" lat="59.3245773" lon="7.3475903" version="3" timestamp="2018-04-10T18:40:01Z" changeset="57982147" uid="3497659" user="NKA">
		<tag k="name" v="Trydal" />
		<tag k="place" v="hamlet" />
		<tag k="ssr:stedsnr" v="306507" />
		<tag k="ssr:type" v="bruk" />
	</node>
	<node id="784360945" lat="59.5553791" lon="7.3363354" version="3" timestamp="2018-04-10T18:40:01Z" changeset="57982147" uid="3497659" user="NKA">
		<tag k="name" v="Hovden" />
		<tag k="place" v="hamlet" />
		<tag k="ssr:stedsnr" v="670270" />
		<tag k="ssr:type" v="bruk" />
	</node>
	<node id="784360948" lat="59.5557553" lon="7.3408183" version="3" timestamp="2018-04-10T18:40:01Z" changeset="57982147" uid="3497659" user="NKA">
		<tag k="name" v="Plassen" />
		<tag k="place" v="farm" />
		<tag k="ssr:stedsnr" v="933382" />
		<tag k="ssr:type" v="bruk" />
	</node>
	<node id="784746303" lat="59.5721799" lon="7.3569224" version="4" timestamp="2018-04-28T08:03:00Z" changeset="58497758" uid="3497659" user="NKA">
		<tag k="building" v="cabin" />
		<tag k="historic" v="shieling" />
		<tag k="name" v="Finnstøyl" />
		<tag k="place" v="isolated_dwelling" />
		<tag k="ssr:stedsnr" v="488678" />
		<tag k="ssr:type" v="seterStøl" />
	</node>
	<node id="1229034316" lat="59.6126781" lon="7.3889627" version="5" timestamp="2021-03-18T20:31:30Z" changeset="101284391" uid="3497659" user="NKA">
		<tag k="alt_name" v="Kloppestøylane" />
		<tag k="ele" v="914" />
		<tag k="historic" v="shieling" />
		<tag k="name" v="Breivestøylane" />
		<tag k="place" v="isolated_dwelling" />
		<tag k="ssr:stedsnr" v="153659" />
		<tag k="ssr:type" v="seterStøl" />
	</node>
	<node id="1438271703" lat="59.4682486" lon="7.3809268" version="3" timestamp="2018-04-10T18:40:03Z" changeset="57982147" uid="3497659" user="NKA">
		<tag k="name" v="Dalen" />
		<tag k="place" v="hamlet" />
		<tag k="ssr:stedsnr" v="852379" />
		<tag k="ssr:type" v="bruk" />
	</node>
	<node id="1438271704" lat="59.4563814" lon="7.3920005" version="3" timestamp="2018-04-10T18:40:03Z" changeset="57982147" uid="3497659" user="NKA">
		<tag k="name" v="Åsheim" />
		<tag k="place" v="hamlet" />
		<tag k="ssr:stedsnr" v="852384" />
		<tag k="ssr:type" v="bruk" />
	</node>
	<node id="1438274002" lat="59.4611674" lon="7.3757801" version="3" timestamp="2018-04-10T18:40:03Z" changeset="57982147" uid="3497659" user="NKA">
		<tag k="name" v="Løyning" />
		<tag k="place" v="farm" />
		<tag k="ssr:stedsnr" v="670381" />
		<tag k="ssr:type" v="bruk" />
	</node>
	<node id="1438321689" lat="59.4345719" lon="7.3621998" version="5" timestamp="2021-03-18T20:31:30Z" changeset="101284391" uid="3497659" user="NKA">
		<tag k="historic" v="shieling" />
		<tag k="name" v="Listøyl" />
		<tag k="place" v="isolated_dwelling" />
		<tag k="ssr:stedsnr" v="124359" />
		<tag k="ssr:type" v="fritidsbolig" />
	</node>
	<node id="1439274378" lat="59.4919516" lon="7.440471" version="3" timestamp="2018-04-10T18:40:04Z" changeset="57982147" uid="3497659" user="NKA">
		<tag k="alt_name" v="Geiskeliskogen" />
		<tag k="name" v="Geiskeli" />
		<tag k="place" v="farm" />
		<tag k="ssr:stedsnr" v="63512" />
		<tag k="ssr:type" v="bruk" />
	</node>
	<node id="2525069142" lat="59.2905831" lon="7.3952533" version="3" timestamp="2018-04-10T18:40:06Z" changeset="57982147" uid="3497659" user="NKA">
		<tag k="name" v="Bjørnarå" />
		<tag k="place" v="hamlet" />
		<tag k="ssr:stedsnr" v="791701" />
		<tag k="ssr:type" v="bruk" />
	</node>
	<node id="2525069143" lat="59.3553582" lon="7.3582929" version="5" timestamp="2020-10-07T14:45:54Z" changeset="92119551" uid="3497659" user="NKA">
		<tag k="name" v="Bykle" />
		<tag k="place" v="village" />
		<tag k="population" v="243" />
		<tag k="population:date" v="2020-01-01" />
		<tag k="ref:ssb_tettsted" v="3642" />
		<tag k="source:population" v="SSB - befolkning i tettstedet" />
		<tag k="ssr:stedsnr" v="669268" />
		<tag k="ssr:type" v="bygdelagBygd" />
	</node>
	<node id="3782072639" lat="59.355519" lon="7.3822158" version="3" timestamp="2018-04-10T18:40:11Z" changeset="57982147" uid="3497659" user="NKA">
		<tag k="alt_name" v="Stavnes" />
		<tag k="name" v="Stavenes" />
		<tag k="place" v="hamlet" />
		<tag k="source" v="N50 map" />
		<tag k="ssr:stedsnr" v="852561" />
		<tag k="ssr:type" v="bruk" />
	</node>
	<node id="4489249105" lat="59.4007836" lon="7.0888462" version="3" timestamp="2021-03-18T20:31:30Z" changeset="101284391" uid="3497659" user="NKA">
		<tag k="building" v="cabin" />
		<tag k="name" v="Krokevasshytta" />
		<tag k="place" v="isolated_dwelling" />
		<tag k="ssr:stedsnr" v="452846" />
		<tag k="ssr:type" v="fritidsbolig" />
	</node>
	<node id="4489249107" lat="59.4090485" lon="7.4513455" version="4" timestamp="2021-03-18T20:31:30Z" changeset="101284391" uid="3497659" user="NKA">
		<tag k="historic" v="shieling" />
		<tag k="name" v="Tykkelunden" />
		<tag k="place" v="isolated_dwelling" />
		<tag k="ssr:stedsnr" v="245596" />
		<tag k="ssr:type" v="seterStøl" />
	</node>
	<node id="4489249108" lat="59.413466" lon="7.0939475" version="2" timestamp="2018-04-10T18:54:26Z" changeset="57982147" uid="3497659" user="NKA">
		<tag k="historic" v="ruins" />
		<tag k="name" v="Krokevasskvæven" />
		<tag k="place" v="locality" />
		<tag k="ssr:stedsnr" v="634913" />
		<tag k="ssr:type" v="fritidsbolig" />
	</node>
	<node id="4489249109" lat="59.3188994" lon="7.3275359" version="2" timestamp="2018-04-10T18:54:26Z" changeset="57982147" uid="3497659" user="NKA">
		<tag k="name" v="Moen" />
		<tag k="place" v="farm" />
		<tag k="ssr:stedsnr" v="913294" />
		<tag k="ssr:type" v="bruk" />
	</node>
	<node id="4489249110" lat="59.305255" lon="7.3994641" version="3" timestamp="2018-04-28T08:08:18Z" changeset="58497758" uid="3497659" user="NKA">
		<tag k="historic" v="shieling" />
		<tag k="name" v="Løyningsstøylen" />
		<tag k="place" v="locality" />
		<tag k="ssr:stedsnr" v="245711" />
		<tag k="ssr:type" v="seterStøl" />
	</node>
	<node id="4489249111" lat="59.437513" lon="7.372754" version="3" timestamp="2018-04-28T08:08:18Z" changeset="58497758" uid="3497659" user="NKA">
		<tag k="historic" v="shieling" />
		<tag k="name" v="Lognestøyl" />
		<tag k="place" v="locality" />
		<tag k="ssr:stedsnr" v="31583" />
		<tag k="ssr:type" v="seterStøl" />
	</node>
	<node id="4489249112" lat="59.5405574" lon="7.3334754" version="3" timestamp="2018-04-28T08:08:19Z" changeset="58497758" uid="3497659" user="NKA">
		<tag k="historic" v="shieling" />
		<tag k="name" v="Myklestøyl" />
		<tag k="place" v="locality" />
		<tag k="ssr:stedsnr" v="933356" />
		<tag k="ssr:type" v="seterStøl" />
	</node>
	<node id="4489249113" lat="59.547751" lon="7.3668356" version="4" timestamp="2021-03-18T20:31:30Z" changeset="101284391" uid="3497659" user="NKA">
		<tag k="historic" v="shieling" />
		<tag k="name" v="Hartevasstøylen" />
		<tag k="place" v="isolated_dwelling" />
		<tag k="ssr:stedsnr" v="933357" />
		<tag k="ssr:type" v="seterStøl" />
	</node>
	<node id="4489249115" lat="59.4386355" lon="7.0329514" version="3" timestamp="2021-03-18T20:31:30Z" changeset="101284391" uid="3497659" user="NKA">
		<tag k="name" v="Blåbergåskilen" />
		<tag k="place" v="isolated_dwelling" />
		<tag k="ssr:stedsnr" v="210909" />
		<tag k="ssr:type" v="fritidsbolig" />
	</node>
	<node id="4489249116" lat="59.4084967" lon="7.4158582" version="2" timestamp="2018-04-10T18:54:27Z" changeset="57982147" uid="3497659" user="NKA">
		<tag k="alt_name" v="Moen" />
		<tag k="name" v="Smylemoen" />
		<tag k="place" v="farm" />
		<tag k="ssr:stedsnr" v="366621" />
		<tag k="ssr:type" v="bruk" />
	</node>
	<node id="4489249117" lat="59.4533369" lon="7.4453332" version="3" timestamp="2018-04-28T08:08:19Z" changeset="58497758" uid="3497659" user="NKA">
		<tag k="historic" v="shieling" />
		<tag k="name" v="Listøyl" />
		<tag k="place" v="locality" />
		<tag k="ssr:stedsnr" v="335574" />
		<tag k="ssr:type" v="seterStøl" />
	</node>
	<node id="4489249118" lat="59.3216079" lon="7.3325504" version="2" timestamp="2018-04-10T18:54:28Z" changeset="57982147" uid="3497659" user="NKA">
		<tag k="name" v="Kroni" />
		<tag k="place" v="farm" />
		<tag k="ssr:stedsnr" v="759821" />
		<tag k="ssr:type" v="bruk" />
	</node>
	<node id="4489249119" lat="59.4008368" lon="7.3744908" version="2" timestamp="2018-04-10T18:54:28Z" changeset="57982147" uid="3497659" user="NKA">
		<tag k="building" v="cabin" />
		<tag k="name" v="Hestekvæven" />
		<tag k="place" v="isolated_dwelling" />
		<tag k="ssr:stedsnr" v="63457" />
		<tag k="ssr:type" v="fritidsbolig" />
	</node>
	<node id="4489249120" lat="59.3014625" lon="7.4059932" version="3" timestamp="2018-04-28T08:08:19Z" changeset="58497758" uid="3497659" user="NKA">
		<tag k="historic" v="shieling" />
		<tag k="name" v="Nedre Løken" />
		<tag k="place" v="locality" />
		<tag k="ssr:stedsnr" v="31967" />
		<tag k="ssr:type" v="seterStøl" />
	</node>
	<node id="4489249121" lat="59.5750747" lon="7.3605162" version="3" timestamp="2021-03-18T20:31:30Z" changeset="101284391" uid="3497659" user="NKA">
		<tag k="name" v="Lundebuteigen" />
		<tag k="place" v="isolated_dwelling" />
		<tag k="ssr:stedsnr" v="367675" />
		<tag k="ssr:type" v="fritidsbolig" />
	</node>
	<node id="4489249122" lat="59.3122281" lon="7.1134469" version="3" timestamp="2018-04-28T08:08:19Z" changeset="58497758" uid="3497659" user="NKA">
		<tag k="historic" v="shieling" />
		<tag k="name" v="Sandbekkstøylen" />
		<tag k="place" v="locality" />
		<tag k="ssr:stedsnr" v="609286" />
		<tag k="ssr:type" v="seterStøl" />
	</node>
	<node id="4489249123" lat="59.3241768" lon="7.3530592" version="2" timestamp="2018-04-10T18:54:28Z" changeset="57982147" uid="3497659" user="NKA">
		<tag k="name" v="Strandestøyl" />
		<tag k="place" v="farm" />
		<tag k="ssr:stedsnr" v="213853" />
		<tag k="ssr:type" v="eneboligMindreBoligbygg" />
	</node>
	<node id="4489249124" lat="59.3129129" lon="7.0597476" version="3" timestamp="2021-03-18T20:31:30Z" changeset="101284391" uid="3497659" user="NKA">
		<tag k="name" v="Bratteli" />
		<tag k="place" v="isolated_dwelling" />
		<tag k="ssr:stedsnr" v="730313" />
		<tag k="ssr:type" v="fritidsbolig" />
	</node>
	<node id="4489249125" lat="59.3223495" lon="7.3538587" version="2" timestamp="2018-04-10T18:54:29Z" changeset="57982147" uid="3497659" user="NKA">
		<tag k="name" v="Tykkholt" />
		<tag k="place" v="farm" />
		<tag k="ssr:stedsnr" v="942826" />
		<tag k="ssr:type" v="eneboligMindreBoligbygg" />
	</node>
	<node id="4489249126" lat="59.3210645" lon="7.3541178" version="2" timestamp="2018-04-10T18:54:29Z" changeset="57982147" uid="3497659" user="NKA">
		<tag k="name" v="Strondi" />
		<tag k="place" v="farm" />
		<tag k="ssr:stedsnr" v="759824" />
		<tag k="ssr:type" v="bruk" />
	</node>
	<node id="4489249127" lat="59.3226628" lon="7.356876" version="2" timestamp="2018-04-10T18:54:29Z" changeset="57982147" uid="3497659" user="NKA">
		<tag k="name" v="Storstein" />
		<tag k="place" v="farm" />
		<tag k="ssr:stedsnr" v="274801" />
		<tag k="ssr:type" v="bruk" />
	</node>
	<node id="4489249128" lat="59.4120021" lon="7.4330729" version="2" timestamp="2018-04-10T18:54:29Z" changeset="57982147" uid="3497659" user="NKA">
		<tag k="name" v="Glidbjørg" />
		<tag k="place" v="farm" />
		<tag k="ssr:stedsnr" v="124377" />
		<tag k="ssr:type" v="bruk" />
	</node>
	<node id="4489249129" lat="59.3042477" lon="7.4021238" version="3" timestamp="2018-04-28T08:08:19Z" changeset="58497758" uid="3497659" user="NKA">
		<tag k="historic" v="shieling" />
		<tag k="name" v="Øvre Løken" />
		<tag k="place" v="locality" />
		<tag k="ssr:stedsnr" v="577966" />
		<tag k="ssr:type" v="seterStøl" />
	</node>
	<node id="4489249130" lat="59.4120641" lon="7.398798" version="3" timestamp="2021-03-18T20:31:30Z" changeset="101284391" uid="3497659" user="NKA">
		<tag k="building" v="cabin" />
		<tag k="name" v="Skardgil" />
		<tag k="place" v="isolated_dwelling" />
		<tag k="ssr:stedsnr" v="306416" />
		<tag k="ssr:type" v="fritidsbolig" />
	</node>
	<node id="4489249131" lat="59.321479" lon="7.334542" version="2" timestamp="2018-04-10T18:54:29Z" changeset="57982147" uid="3497659" user="NKA">
		<tag k="name" v="Skardberg" />
		<tag k="place" v="farm" />
		<tag k="ssr:stedsnr" v="548325" />
		<tag k="ssr:type" v="bruk" />
	</node>
	<node id="4489249132" lat="59.3276432" lon="7.3199938" version="2" timestamp="2018-04-10T18:54:29Z" changeset="57982147" uid="3497659" user="NKA">
		<tag k="name" v="Sanden" />
		<tag k="place" v="farm" />
		<tag k="ssr:stedsnr" v="245291" />
		<tag k="ssr:type" v="bruk" />
	</node>
	<node id="4489249133" lat="59.3277571" lon="7.3712386" version="3" timestamp="2018-04-28T08:08:19Z" changeset="58497758" uid="3497659" user="NKA">
		<tag k="fixme" v="check position" />
		<tag k="historic" v="shieling" />
		<tag k="name" v="Slipestellet" />
		<tag k="place" v="locality" />
		<tag k="ssr:stedsnr" v="820816" />
		<tag k="ssr:type" v="seterStøl" />
	</node>
	<node id="4489249134" lat="59.3296124" lon="7.3672118" version="3" timestamp="2018-04-28T08:08:19Z" changeset="58497758" uid="3497659" user="NKA">
		<tag k="historic" v="shieling" />
		<tag k="name" v="Myrstøyl" />
		<tag k="place" v="locality" />
		<tag k="ssr:stedsnr" v="31825" />
		<tag k="ssr:type" v="seterStøl" />
	</node>
	<node id="4489249135" lat="59.6098309" lon="7.4205367" version="3" timestamp="2018-04-28T08:08:20Z" changeset="58497758" uid="3497659" user="NKA">
		<tag k="alt_name" v="Lislefjøddstølen" />
		<tag k="historic" v="shieling" />
		<tag k="name" v="Lislefjøddstøylen" />
		<tag k="place" v="locality" />
		<tag k="ssr:stedsnr" v="64719" />
		<tag k="ssr:type" v="seterStøl" />
	</node>
	<node id="4489249136" lat="59.5739926" lon="7.2934434" version="2" timestamp="2018-04-10T18:54:30Z" changeset="57982147" uid="3497659" user="NKA">
		<tag k="name" v="Haugen" />
		<tag k="place" v="farm" />
		<tag k="ssr:stedsnr" v="456594" />
		<tag k="ssr:type" v="bruk" />
	</node>
	<node id="4489249137" lat="59.3202282" lon="7.2009587" version="3" timestamp="2021-03-18T20:31:30Z" changeset="101284391" uid="3497659" user="NKA">
		<tag k="name" v="Ljosland" />
		<tag k="place" v="isolated_dwelling" />
		<tag k="ssr:stedsnr" v="245275" />
		<tag k="ssr:type" v="fritidsbolig" />
	</node>
	<node id="4489249138" lat="59.3227734" lon="7.1863376" version="3" timestamp="2021-03-18T20:31:30Z" changeset="101284391" uid="3497659" user="NKA">
		<tag k="building" v="cabin" />
		<tag k="name" v="Åsane" />
		<tag k="place" v="isolated_dwelling" />
		<tag k="ssr:stedsnr" v="427314" />
		<tag k="ssr:type" v="fritidsbolig" />
	</node>
	<node id="4489249139" lat="59.5742953" lon="7.2887356" version="2" timestamp="2018-04-10T18:54:30Z" changeset="57982147" uid="3497659" user="NKA">
		<tag k="name" v="Solbakken" />
		<tag k="place" v="farm" />
		<tag k="ssr:stedsnr" v="153607" />
		<tag k="ssr:type" v="bruk" />
	</node>
	<node id="4489249140" lat="59.3168992" lon="7.3766141" version="3" timestamp="2018-04-28T08:08:20Z" changeset="58497758" uid="3497659" user="NKA">
		<tag k="fixme" v="check position" />
		<tag k="historic" v="shieling" />
		<tag k="name" v="Øybøstøylen" />
		<tag k="place" v="locality" />
		<tag k="ssr:stedsnr" v="274930" />
		<tag k="ssr:type" v="seterStøl" />
	</node>
	<node id="4489249141" lat="59.3148155" lon="7.3938384" version="3" timestamp="2018-04-28T08:08:20Z" changeset="58497758" uid="3497659" user="NKA">
		<tag k="historic" v="shieling" />
		<tag k="name" v="Finnfloti" />
		<tag k="place" v="locality" />
		<tag k="ssr:stedsnr" v="245503" />
		<tag k="ssr:type" v="seterStøl" />
	</node>
	<node id="4489249142" lat="59.4258961" lon="7.3759124" version="3" timestamp="2021-03-18T20:31:30Z" changeset="101284391" uid="3497659" user="NKA">
		<tag k="name" v="Stedjan" />
		<tag k="place" v="isolated_dwelling" />
		<tag k="ssr:stedsnr" v="306412" />
		<tag k="ssr:type" v="fritidsbolig" />
	</node>
	<node id="4489249143" lat="59.4223593" lon="7.3603541" version="4" timestamp="2021-03-18T20:31:30Z" changeset="101284391" uid="3497659" user="NKA">
		<tag k="historic" v="shieling" />
		<tag k="name" v="Nystøyl" />
		<tag k="place" v="isolated_dwelling" />
		<tag k="ssr:stedsnr" v="670413" />
		<tag k="ssr:type" v="fritidsbolig" />
	</node>
	<node id="4489249144" lat="59.3208815" lon="7.4006492" version="3" timestamp="2018-04-28T08:08:20Z" changeset="58497758" uid="3497659" user="NKA">
		<tag k="historic" v="shieling" />
		<tag k="name" v="Nystøyl" />
		<tag k="place" v="locality" />
		<tag k="ssr:stedsnr" v="395941" />
		<tag k="ssr:type" v="seterStøl" />
	</node>
	<node id="4489249145" lat="59.3133204" lon="7.3651255" version="2" timestamp="2018-04-10T18:54:31Z" changeset="57982147" uid="3497659" user="NKA">
		<tag k="name" v="Optestøyl" />
		<tag k="place" v="farm" />
		<tag k="ssr:stedsnr" v="2540" />
		<tag k="ssr:type" v="bruk" />
	</node>
	<node id="4489249146" lat="59.5757172" lon="7.2702038" version="3" timestamp="2018-04-28T08:08:20Z" changeset="58497758" uid="3497659" user="NKA">
		<tag k="historic" v="shieling" />
		<tag k="name" v="Nystøyl" />
		<tag k="place" v="locality" />
		<tag k="ssr:stedsnr" v="699550" />
		<tag k="ssr:type" v="seterStøl" />
	</node>
	<node id="4489249147" lat="59.5279474" lon="7.3963113" version="3" timestamp="2018-04-28T08:08:20Z" changeset="58497758" uid="3497659" user="NKA">
		<tag k="fixme" v="check position" />
		<tag k="historic" v="shieling" />
		<tag k="name" v="Gamalstøyl" />
		<tag k="place" v="locality" />
		<tag k="ssr:stedsnr" v="690400" />
		<tag k="ssr:type" v="setervoll" />
	</node>
	<node id="4489249148" lat="59.4276512" lon="7.3556021" version="3" timestamp="2021-03-18T20:31:30Z" changeset="101284391" uid="3497659" user="NKA">
		<tag k="name" v="Lundan" />
		<tag k="place" v="isolated_dwelling" />
		<tag k="ssr:stedsnr" v="63442" />
		<tag k="ssr:type" v="fritidsbolig" />
	</node>
	<node id="4489249149" lat="59.3179522" lon="7.1149464" version="3" timestamp="2021-03-18T20:31:30Z" changeset="101284391" uid="3497659" user="NKA">
		<tag k="name" v="Bratteland" />
		<tag k="place" v="isolated_dwelling" />
		<tag k="ssr:stedsnr" v="184279" />
		<tag k="ssr:type" v="fritidsbolig" />
	</node>
	<node id="4489249150" lat="59.3146507" lon="7.3611017" version="2" timestamp="2018-04-10T18:54:32Z" changeset="57982147" uid="3497659" user="NKA">
		<tag k="name" v="Svingen" />
		<tag k="place" v="farm" />
		<tag k="ssr:stedsnr" v="487558" />
		<tag k="ssr:type" v="eneboligMindreBoligbygg" />
	</node>
	<node id="4489249151" lat="59.3170893" lon="7.0959383" version="3" timestamp="2021-03-18T20:31:30Z" changeset="101284391" uid="3497659" user="NKA">
		<tag k="name" v="Dysje" />
		<tag k="place" v="isolated_dwelling" />
		<tag k="ssr:stedsnr" v="184275" />
		<tag k="ssr:type" v="fritidsbolig" />
	</node>
	<node id="4489249152" lat="59.3175732" lon="7.3595547" version="2" timestamp="2018-04-10T18:54:32Z" changeset="57982147" uid="3497659" user="NKA">
		<tag k="name" v="Grasbrokke" />
		<tag k="place" v="farm" />
		<tag k="ssr:stedsnr" v="366539" />
		<tag k="ssr:type" v="bruk" />
	</node>
	<node id="4489249153" lat="59.4915027" lon="7.1933344" version="2" timestamp="2018-04-10T18:54:32Z" changeset="57982147" uid="3497659" user="NKA">
		<tag k="historic" v="ruins" />
		<tag k="name" v="Heggli" />
		<tag k="place" v="locality" />
		<tag k="ssr:stedsnr" v="31817" />
		<tag k="ssr:type" v="gammelBosettingsplass" />
	</node>
	<node id="4489249154" lat="59.5760914" lon="7.2797018" version="3" timestamp="2018-04-28T08:08:20Z" changeset="58497758" uid="3497659" user="NKA">
		<tag k="historic" v="shieling" />
		<tag k="name" v="Listøyl" />
		<tag k="place" v="locality" />
		<tag k="ssr:stedsnr" v="456581" />
		<tag k="ssr:type" v="seterStøl" />
	</node>
	<node id="4489249155" lat="59.5768952" lon="7.3071492" version="3" timestamp="2018-04-28T08:08:21Z" changeset="58497758" uid="3497659" user="NKA">
		<tag k="fixme" v="check position" />
		<tag k="historic" v="shieling" />
		<tag k="name" v="Kvernlistøylen" />
		<tag k="place" v="locality" />
		<tag k="ssr:stedsnr" v="395608" />
		<tag k="ssr:type" v="seterStøl" />
	</node>
	<node id="4489249156" lat="59.3161248" lon="7.3582638" version="2" timestamp="2018-04-10T18:54:33Z" changeset="57982147" uid="3497659" user="NKA">
		<tag k="name" v="Åstog" />
		<tag k="place" v="farm" />
		<tag k="ssr:stedsnr" v="123565" />
		<tag k="ssr:type" v="bruk" />
	</node>
	<node id="4489249157" lat="59.323756" lon="7.3923102" version="3" timestamp="2018-04-28T08:08:21Z" changeset="58497758" uid="3497659" user="NKA">
		<tag k="historic" v="shieling" />
		<tag k="name" v="Dakkene" />
		<tag k="place" v="locality" />
		<tag k="ssr:stedsnr" v="881944" />
		<tag k="ssr:type" v="melkeplass" />
	</node>
	<node id="4489249158" lat="59.4327345" lon="7.3934064" version="2" timestamp="2018-04-10T18:54:33Z" changeset="57982147" uid="3497659" user="NKA">
		<tag k="name" v="Hoslemo" />
		<tag k="place" v="hamlet" />
		<tag k="ssr:stedsnr" v="2438" />
		<tag k="ssr:type" v="bruk" />
	</node>
	<node id="4489249159" lat="59.3333129" lon="7.3249355" version="2" timestamp="2018-04-10T18:54:33Z" changeset="57982147" uid="3497659" user="NKA">
		<tag k="name" v="Bjones" />
		<tag k="place" v="farm" />
		<tag k="ssr:stedsnr" v="305305" />
		<tag k="ssr:type" v="bruk" />
	</node>
	<node id="4489249160" lat="59.4290331" lon="7.3561931" version="3" timestamp="2021-03-18T20:31:30Z" changeset="101284391" uid="3497659" user="NKA">
		<tag k="alt_name" v="Heistøl" />
		<tag k="name" v="Heistøyl" />
		<tag k="place" v="isolated_dwelling" />
		<tag k="ssr:stedsnr" v="609403" />
		<tag k="ssr:type" v="fritidsbolig" />
	</node>
	<node id="4489249161" lat="59.4595382" lon="7.1376424" version="2" timestamp="2018-04-10T18:54:33Z" changeset="57982147" uid="3497659" user="NKA">
		<tag k="historic" v="yes" />
		<tag k="name" v="Nøre Pråmstoni" />
		<tag k="place" v="locality" />
		<tag k="ssr:stedsnr" v="759808" />
		<tag k="ssr:type" v="stø" />
	</node>
	<node id="4489249162" lat="59.432805" lon="7.3568537" version="2" timestamp="2018-04-10T18:54:33Z" changeset="57982147" uid="3497659" user="NKA">
		<tag k="historic" v="ruins" />
		<tag k="name" v="Seten" />
		<tag k="place" v="locality" />
		<tag k="ssr:stedsnr" v="609408" />
		<tag k="ssr:type" v="fritidsbolig" />
	</node>
	<node id="4489249163" lat="59.6398535" lon="7.440624" version="2" timestamp="2018-04-10T18:54:33Z" changeset="57982147" uid="3497659" user="NKA">
		<tag k="alt_name" v="Bjåen" />
		<tag k="name" v="Bjåi" />
		<tag k="place" v="farm" />
		<tag k="ssr:stedsnr" v="64554" />
		<tag k="ssr:type" v="bruk" />
	</node>
	<node id="4489249164" lat="59.4448932" lon="7.5053869" version="3" timestamp="2018-04-28T08:08:21Z" changeset="58497758" uid="3497659" user="NKA">
		<tag k="historic" v="shieling" />
		<tag k="name" v="Krenkjarsmo" />
		<tag k="place" v="locality" />
		<tag k="ssr:stedsnr" v="670399" />
		<tag k="ssr:type" v="seterStøl" />
	</node>
	<node id="4489249165" lat="59.4408821" lon="7.4855616" version="3" timestamp="2018-04-28T08:08:21Z" changeset="58497758" uid="3497659" user="NKA">
		<tag k="historic" v="shieling" />
		<tag k="name" v="Rjodet" />
		<tag k="place" v="locality" />
		<tag k="ssr:stedsnr" v="852403" />
		<tag k="ssr:type" v="seterStøl" />
	</node>
	<node id="4489249166" lat="59.6395851" lon="7.4285771" version="2" timestamp="2018-04-10T18:54:34Z" changeset="57982147" uid="3497659" user="NKA">
		<tag k="name" v="Bjåland" />
		<tag k="place" v="farm" />
		<tag k="ssr:stedsnr" v="367498" />
		<tag k="ssr:type" v="bruk" />
	</node>
	<node id="4489249167" lat="59.4450106" lon="7.4639865" version="4" timestamp="2021-03-18T20:31:30Z" changeset="101284391" uid="3497659" user="NKA">
		<tag k="historic" v="shieling" />
		<tag k="name" v="Hovden" />
		<tag k="place" v="isolated_dwelling" />
		<tag k="ssr:stedsnr" v="731371" />
		<tag k="ssr:type" v="seterStøl" />
	</node>
	<node id="4489249168" lat="59.3883459" lon="7.4716011" version="2" timestamp="2018-04-10T18:54:34Z" changeset="57982147" uid="3497659" user="NKA">
		<tag k="name" v="Glidbjørg" />
		<tag k="place" v="farm" />
		<tag k="ssr:stedsnr" v="424022" />
		<tag k="ssr:type" v="bruk" />
	</node>
	<node id="4489249169" lat="59.3381024" lon="7.3114221" version="2" timestamp="2018-04-10T18:54:34Z" changeset="57982147" uid="3497659" user="NKA">
		<tag k="name" v="Solli" />
		<tag k="place" v="farm" />
		<tag k="ssr:stedsnr" v="366286" />
		<tag k="ssr:type" v="bruk" />
	</node>
	<node id="4489249170" lat="59.3207697" lon="7.4155211" version="4" timestamp="2021-03-18T20:31:30Z" changeset="101284391" uid="3497659" user="NKA">
		<tag k="historic" v="shieling" />
		<tag k="name" v="Strond" />
		<tag k="place" v="isolated_dwelling" />
		<tag k="ssr:stedsnr" v="852522" />
		<tag k="ssr:type" v="seterStøl" />
	</node>
	<node id="4489249171" lat="59.3280595" lon="7.4148225" version="3" timestamp="2021-03-18T20:31:30Z" changeset="101284391" uid="3497659" user="NKA">
		<tag k="name" v="Troddedalen" />
		<tag k="place" v="isolated_dwelling" />
		<tag k="ssr:stedsnr" v="2552" />
		<tag k="ssr:type" v="fritidsbolig" />
	</node>
	<node id="4489249172" lat="59.3414959" lon="7.2661429" version="2" timestamp="2018-04-10T18:54:35Z" changeset="57982147" uid="3497659" user="NKA">
		<tag k="name" v="Viki" />
		<tag k="place" v="farm" />
		<tag k="ssr:stedsnr" v="791270" />
		<tag k="ssr:type" v="bruk" />
	</node>
	<node id="4489249173" lat="59.4607151" lon="7.1505357" version="2" timestamp="2018-04-10T18:54:35Z" changeset="57982147" uid="3497659" user="NKA">
		<tag k="historic" v="yes" />
		<tag k="name" v="Pråmstoni" />
		<tag k="place" v="locality" />
		<tag k="ssr:stedsnr" v="123201" />
		<tag k="ssr:type" v="stø" />
	</node>
	<node id="4489249174" lat="59.3311325" lon="7.421755" version="2" timestamp="2018-04-10T18:54:35Z" changeset="57982147" uid="3497659" user="NKA">
		<tag k="building" v="cabin" />
		<tag k="name" v="Fitjan" />
		<tag k="place" v="isolated_dwelling" />
		<tag k="ssr:stedsnr" v="266138" />
		<tag k="ssr:type" v="fritidsbolig" />
	</node>
	<node id="4489249175" lat="59.3415214" lon="7.2166866" version="3" timestamp="2021-03-18T20:31:30Z" changeset="101284391" uid="3497659" user="NKA">
		<tag k="name" v="Trogumstøylen" />
		<tag k="place" v="isolated_dwelling" />
		<tag k="ssr:stedsnr" v="912288" />
		<tag k="ssr:type" v="fritidsbolig" />
	</node>
	<node id="4489249176" lat="59.3410146" lon="7.20896" version="2" timestamp="2018-04-10T18:54:35Z" changeset="57982147" uid="3497659" user="NKA">
		<tag k="building" v="cabin" />
		<tag k="name" v="Myrstøyl" />
		<tag k="place" v="isolated_dwelling" />
		<tag k="ssr:stedsnr" v="305273" />
		<tag k="ssr:type" v="fritidsbolig" />
	</node>
	<node id="4489249177" lat="59.3375808" lon="7.2036963" version="3" timestamp="2018-04-28T08:08:21Z" changeset="58497758" uid="3497659" user="NKA">
		<tag k="historic" v="shieling" />
		<tag k="name" v="Furestøyl" />
		<tag k="place" v="locality" />
		<tag k="ssr:stedsnr" v="123293" />
		<tag k="ssr:type" v="seterStøl" />
	</node>
	<node id="4489249179" lat="59.3252787" lon="7.1322203" version="3" timestamp="2018-04-28T08:08:22Z" changeset="58497758" uid="3497659" user="NKA">
		<tag k="fixme" v="check position" />
		<tag k="historic" v="shieling" />
		<tag k="name" v="Ånaråstøylen" />
		<tag k="place" v="locality" />
		<tag k="ssr:stedsnr" v="427291" />
		<tag k="ssr:type" v="seterStøl" />
	</node>
	<node id="4489249180" lat="59.3289426" lon="7.3657189" version="3" timestamp="2018-04-28T08:08:22Z" changeset="58497758" uid="3497659" user="NKA">
		<tag k="historic" v="shieling" />
		<tag k="name" v="Borkebu" />
		<tag k="place" v="locality" />
		<tag k="ssr:stedsnr" v="2550" />
		<tag k="ssr:type" v="seterStøl" />
	</node>
	<node id="4489249181" lat="59.5064236" lon="7.1674499" version="3" timestamp="2021-03-18T20:31:30Z" changeset="101284391" uid="3497659" user="NKA">
		<tag k="name" v="Ormsaosen" />
		<tag k="place" v="isolated_dwelling" />
		<tag k="ssr:stedsnr" v="610396" />
		<tag k="ssr:type" v="fritidsbolig" />
	</node>
	<node id="4489249182" lat="59.3547278" lon="7.3540634" version="2" timestamp="2018-04-10T18:54:36Z" changeset="57982147" uid="3497659" user="NKA">
		<tag k="name" v="Jarehaugen" />
		<tag k="place" v="farm" />
		<tag k="ssr:stedsnr" v="235351" />
		<tag k="ssr:type" v="bruk" />
	</node>
	<node id="4489249183" lat="59.3203507" lon="7.3546807" version="2" timestamp="2018-04-10T18:54:36Z" changeset="57982147" uid="3497659" user="NKA">
		<tag k="name" v="Hagen" />
		<tag k="place" v="farm" />
		<tag k="ssr:stedsnr" v="184541" />
		<tag k="ssr:type" v="bruk" />
	</node>
	<node id="4489249184" lat="59.3236459" lon="7.3553481" version="2" timestamp="2018-04-10T18:54:36Z" changeset="57982147" uid="3497659" user="NKA">
		<tag k="name" v="Støylan" />
		<tag k="place" v="farm" />
		<tag k="ssr:stedsnr" v="548543" />
		<tag k="ssr:type" v="bruk" />
	</node>
	<node id="4489249185" lat="59.6373554" lon="7.4039072" version="3" timestamp="2018-04-28T08:08:22Z" changeset="58497758" uid="3497659" user="NKA">
		<tag k="fixme" v="check position" />
		<tag k="historic" v="shieling" />
		<tag k="name" v="Hyttevodden" />
		<tag k="place" v="locality" />
		<tag k="ssr:stedsnr" v="335698" />
		<tag k="ssr:type" v="setervoll" />
	</node>
	<node id="4489249186" lat="59.4522615" lon="7.3983719" version="4" timestamp="2021-03-18T20:31:30Z" changeset="101284391" uid="3497659" user="NKA">
		<tag k="name" v="Flæmoen" />
		<tag k="place" v="isolated_dwelling" />
		<tag k="ssr:stedsnr" v="569145" />
		<tag k="ssr:type" v="fritidsbolig" />
	</node>
	<node id="4489249187" lat="59.4472343" lon="7.4326109" version="2" timestamp="2018-04-10T18:54:37Z" changeset="57982147" uid="3497659" user="NKA">
		<tag k="name" v="Haugen" />
		<tag k="place" v="farm" />
		<tag k="ssr:stedsnr" v="548414" />
		<tag k="ssr:type" v="bruk" />
	</node>
	<node id="4489249188" lat="59.4746183" lon="7.4194747" version="2" timestamp="2018-04-10T18:54:37Z" changeset="57982147" uid="3497659" user="NKA">
		<tag k="alt_name" v="Steinsland hyttefelt" />
		<tag k="name" v="Steinsland" />
		<tag k="place" v="neighbourhood" />
		<tag k="ssr:stedsnr" v="84164" />
		<tag k="ssr:type" v="hyttefelt" />
	</node>
	<node id="4489249189" lat="59.4469076" lon="7.4177842" version="2" timestamp="2018-04-10T18:54:37Z" changeset="57982147" uid="3497659" user="NKA">
		<tag k="name" v="Åsland" />
		<tag k="place" v="farm" />
		<tag k="ssr:stedsnr" v="245371" />
		<tag k="ssr:type" v="eneboligMindreBoligbygg" />
	</node>
	<node id="4489249190" lat="59.3281552" lon="7.050081" version="3" timestamp="2018-04-28T08:08:22Z" changeset="58497758" uid="3497659" user="NKA">
		<tag k="historic" v="shieling" />
		<tag k="name" v="Brattelistøyl" />
		<tag k="place" v="locality" />
		<tag k="ssr:stedsnr" v="366276" />
		<tag k="ssr:type" v="seterStøl" />
	</node>
	<node id="4489249191" lat="59.4477613" lon="7.4227955" version="2" timestamp="2018-04-10T18:54:37Z" changeset="57982147" uid="3497659" user="NKA">
		<tag k="alt_name" v="Hagamo" />
		<tag k="name" v="Hagemo" />
		<tag k="place" v="farm" />
		<tag k="ssr:stedsnr" v="609383" />
		<tag k="ssr:type" v="bruk" />
	</node>
	<node id="4489249192" lat="59.3536825" lon="7.362139" version="2" timestamp="2018-04-10T18:54:37Z" changeset="57982147" uid="3497659" user="NKA">
		<tag k="name" v="Kroni" />
		<tag k="place" v="farm" />
		<tag k="ssr:stedsnr" v="638928" />
		<tag k="ssr:type" v="bruk" />
	</node>
	<node id="4489249193" lat="59.3535005" lon="7.3576104" version="2" timestamp="2018-04-10T18:54:37Z" changeset="57982147" uid="3497659" user="NKA">
		<tag k="name" v="Haugebakk" />
		<tag k="place" v="farm" />
		<tag k="ssr:stedsnr" v="759929" />
		<tag k="ssr:type" v="bruk" />
	</node>
	<node id="4489249194" lat="59.3515787" lon="7.3493371" version="2" timestamp="2018-04-10T18:54:38Z" changeset="57982147" uid="3497659" user="NKA">
		<tag k="name" v="Fådapen" />
		<tag k="place" v="farm" />
		<tag k="ssr:stedsnr" v="92910" />
		<tag k="ssr:type" v="bruk" />
	</node>
	<node id="4489249195" lat="59.4508924" lon="7.4143718" version="2" timestamp="2018-04-10T18:54:38Z" changeset="57982147" uid="3497659" user="NKA">
		<tag k="name" v="Nordheim" />
		<tag k="place" v="farm" />
		<tag k="ssr:stedsnr" v="852391" />
		<tag k="ssr:type" v="bruk" />
	</node>
	<node id="4489249196" lat="59.3511588" lon="7.3452844" version="2" timestamp="2018-04-10T18:54:38Z" changeset="57982147" uid="3497659" user="NKA">
		<tag k="name" v="Kultrane" />
		<tag k="place" v="farm" />
		<tag k="ssr:stedsnr" v="335948" />
		<tag k="ssr:type" v="bruk" />
	</node>
	<node id="4489249197" lat="59.6372687" lon="7.4647336" version="3" timestamp="2018-04-28T08:08:22Z" changeset="58497758" uid="3497659" user="NKA">
		<tag k="fixme" v="check position" />
		<tag k="historic" v="shieling" />
		<tag k="name" v="Buskarstøylen" />
		<tag k="place" v="locality" />
		<tag k="ssr:stedsnr" v="31684" />
		<tag k="ssr:type" v="seterStøl" />
	</node>
	<node id="4489249198" lat="59.3507282" lon="7.3443154" version="2" timestamp="2018-04-10T18:54:38Z" changeset="57982147" uid="3497659" user="NKA">
		<tag k="name" v="Torsbu" />
		<tag k="place" v="farm" />
		<tag k="ssr:stedsnr" v="759908" />
		<tag k="ssr:type" v="bruk" />
	</node>
	<node id="4489249199" lat="59.3501748" lon="7.3407495" version="2" timestamp="2018-04-10T18:54:38Z" changeset="57982147" uid="3497659" user="NKA">
		<tag k="name" v="Vodden" />
		<tag k="place" v="farm" />
		<tag k="ssr:stedsnr" v="577925" />
		<tag k="ssr:type" v="bruk" />
	</node>
	<node id="4489249200" lat="59.348828" lon="7.337556" version="2" timestamp="2018-04-10T18:54:38Z" changeset="57982147" uid="3497659" user="NKA">
		<tag k="name" v="Berget" />
		<tag k="place" v="farm" />
		<tag k="ssr:stedsnr" v="92892" />
		<tag k="ssr:type" v="bruk" />
	</node>
	<node id="4489249201" lat="59.3509468" lon="7.3387025" version="2" timestamp="2018-04-10T18:54:38Z" changeset="57982147" uid="3497659" user="NKA">
		<tag k="name" v="Austistog" />
		<tag k="place" v="farm" />
		<tag k="ssr:stedsnr" v="213912" />
		<tag k="ssr:type" v="bruk" />
	</node>
	<node id="4489249202" lat="59.3528805" lon="7.3384586" version="2" timestamp="2018-04-10T18:54:38Z" changeset="57982147" uid="3497659" user="NKA">
		<tag k="name" v="Oppistog" />
		<tag k="place" v="farm" />
		<tag k="ssr:stedsnr" v="638906" />
		<tag k="ssr:type" v="bruk" />
	</node>
	<node id="4489249203" lat="59.3491607" lon="7.3352615" version="2" timestamp="2018-04-10T18:54:39Z" changeset="57982147" uid="3497659" user="NKA">
		<tag k="name" v="Mosdøl" />
		<tag k="place" v="hamlet" />
		<tag k="ssr:stedsnr" v="487257" />
		<tag k="ssr:type" v="bruk" />
	</node>
	<node id="4489249204" lat="59.3357662" lon="7.3054918" version="3" timestamp="2018-04-28T08:08:22Z" changeset="58497758" uid="3497659" user="NKA">
		<tag k="historic" v="shieling" />
		<tag k="name" v="Mostøyl" />
		<tag k="place" v="locality" />
		<tag k="ssr:stedsnr" v="820912" />
		<tag k="ssr:type" v="seterStøl" />
	</node>
	<node id="4489249205" lat="59.3515101" lon="7.3392581" version="2" timestamp="2018-04-10T18:54:39Z" changeset="57982147" uid="3497659" user="NKA">
		<tag k="name" v="Byklum" />
		<tag k="place" v="hamlet" />
		<tag k="ssr:stedsnr" v="366253" />
		<tag k="ssr:type" v="bruk" />
	</node>
	<node id="4489249206" lat="59.3540992" lon="7.3420505" version="2" timestamp="2018-04-10T18:54:39Z" changeset="57982147" uid="3497659" user="NKA">
		<tag k="name" v="Jåro" />
		<tag k="place" v="hamlet" />
		<tag k="ssr:stedsnr" v="791253" />
		<tag k="ssr:type" v="gard" />
	</node>
	<node id="4489249207" lat="59.3358282" lon="7.3023732" version="4" timestamp="2021-03-18T20:31:30Z" changeset="101284391" uid="3497659" user="NKA">
		<tag k="historic" v="shieling" />
		<tag k="name" v="Husfjøddstøylen" />
		<tag k="place" v="isolated_dwelling" />
		<tag k="ssr:stedsnr" v="638902" />
		<tag k="ssr:type" v="seterStøl" />
	</node>
	<node id="4489249208" lat="59.3317835" lon="7.3769418" version="4" timestamp="2021-03-18T20:31:30Z" changeset="101284391" uid="3497659" user="NKA">
		<tag k="historic" v="shieling" />
		<tag k="name" v="Fosstøyl" />
		<tag k="place" v="isolated_dwelling" />
		<tag k="ssr:stedsnr" v="670511" />
		<tag k="ssr:type" v="seterStøl" />
	</node>
	<node id="4489249209" lat="59.3453873" lon="7.3077273" version="2" timestamp="2018-04-10T18:54:39Z" changeset="57982147" uid="3497659" user="NKA">
		<tag k="alt_name" v="Nygård" />
		<tag k="name" v="Nygard" />
		<tag k="place" v="farm" />
		<tag k="ssr:stedsnr" v="912269" />
		<tag k="ssr:type" v="bruk" />
	</node>
	<node id="4489249210" lat="59.4497271" lon="7.4240746" version="2" timestamp="2018-04-10T18:54:39Z" changeset="57982147" uid="3497659" user="NKA">
		<tag k="historic" v="ruins" />
		<tag k="name" v="Hagen" />
		<tag k="place" v="locality" />
		<tag k="ssr:stedsnr" v="456546" />
		<tag k="ssr:type" v="gammelBosettingsplass" />
	</node>
	<node id="4489249211" lat="59.5288489" lon="7.0877359" version="3" timestamp="2021-03-18T20:31:30Z" changeset="101284391" uid="3497659" user="NKA">
		<tag k="name" v="Odden" />
		<tag k="place" v="isolated_dwelling" />
		<tag k="ssr:stedsnr" v="913241" />
		<tag k="ssr:type" v="fritidsbolig" />
	</node>
	<node id="4489249212" lat="59.465738" lon="7.4133119" version="2" timestamp="2018-04-10T18:54:40Z" changeset="57982147" uid="3497659" user="NKA">
		<tag k="name" v="Steinsland" />
		<tag k="place" v="farm" />
		<tag k="ssr:stedsnr" v="184396" />
		<tag k="ssr:type" v="bruk" />
	</node>
	<node id="4489249213" lat="59.3514317" lon="7.289227" version="2" timestamp="2018-04-10T18:54:40Z" changeset="57982147" uid="3497659" user="NKA">
		<tag k="name" v="Skarg" />
		<tag k="place" v="farm" />
		<tag k="ssr:stedsnr" v="63266" />
		<tag k="ssr:type" v="bruk" />
	</node>
	<node id="4489249214" lat="59.3510021" lon="7.2805075" version="2" timestamp="2018-04-10T18:54:40Z" changeset="57982147" uid="3497659" user="NKA">
		<tag k="alt_name" v="Tveiten" />
		<tag k="name" v="Tveiti" />
		<tag k="place" v="farm" />
		<tag k="ssr:stedsnr" v="548251" />
		<tag k="ssr:type" v="bruk" />
	</node>
	<node id="4489249215" lat="59.3526395" lon="7.270557" version="4" timestamp="2021-03-18T20:31:30Z" changeset="101284391" uid="3497659" user="NKA">
		<tag k="historic" v="shieling" />
		<tag k="name" v="Skard" />
		<tag k="place" v="isolated_dwelling" />
		<tag k="ssr:stedsnr" v="2256" />
		<tag k="ssr:type" v="seterStøl" />
	</node>
	<node id="4489249216" lat="59.3485527" lon="7.2584816" version="2" timestamp="2018-04-10T18:54:40Z" changeset="57982147" uid="3497659" user="NKA">
		<tag k="name" v="Nordbygdi" />
		<tag k="place" v="hamlet" />
		<tag k="ssr:stedsnr" v="245235" />
		<tag k="ssr:type" v="grend" />
	</node>
	<node id="4489249217" lat="59.3464715" lon="7.2529358" version="2" timestamp="2018-04-10T18:54:40Z" changeset="57982147" uid="3497659" user="NKA">
		<tag k="name" v="Nesland" />
		<tag k="place" v="farm" />
		<tag k="ssr:stedsnr" v="608240" />
		<tag k="ssr:type" v="bruk" />
	</node>
	<node id="4489249218" lat="59.547493" lon="7.311762" version="3" timestamp="2018-04-28T08:08:23Z" changeset="58497758" uid="3497659" user="NKA">
		<tag k="alt_name" v="Brattlistølen" />
		<tag k="historic" v="shieling" />
		<tag k="name" v="Brattlistøylen" />
		<tag k="place" v="locality" />
		<tag k="ssr:stedsnr" v="367227" />
		<tag k="ssr:type" v="seterStøl" />
	</node>
	<node id="4489249219" lat="59.3492877" lon="7.2279373" version="4" timestamp="2021-03-18T20:31:30Z" changeset="101284391" uid="3497659" user="NKA">
		<tag k="historic" v="shieling" />
		<tag k="name" v="Hisbekk" />
		<tag k="place" v="isolated_dwelling" />
		<tag k="ssr:stedsnr" v="730268" />
		<tag k="ssr:type" v="seterStøl" />
	</node>
	<node id="4489249220" lat="59.3835771" lon="7.3858853" version="3" timestamp="2018-04-28T08:08:23Z" changeset="58497758" uid="3497659" user="NKA">
		<tag k="historic" v="shieling" />
		<tag k="name" v="Høymyr" />
		<tag k="place" v="locality" />
		<tag k="ssr:stedsnr" v="577513" />
		<tag k="ssr:type" v="seterStøl" />
	</node>
	<node id="4489249221" lat="59.3852719" lon="7.3865364" version="3" timestamp="2021-03-18T20:31:30Z" changeset="101284391" uid="3497659" user="NKA">
		<tag k="name" v="Libu" />
		<tag k="place" v="isolated_dwelling" />
		<tag k="ssr:stedsnr" v="638460" />
		<tag k="ssr:type" v="fritidsbolig" />
	</node>
	<node id="4489249222" lat="59.3545161" lon="7.3528125" version="2" timestamp="2018-04-10T18:54:41Z" changeset="57982147" uid="3497659" user="NKA">
		<tag k="name" v="Haugen" />
		<tag k="place" v="farm" />
		<tag k="ssr:stedsnr" v="152916" />
		<tag k="ssr:type" v="bruk" />
	</node>
	<node id="4489249223" lat="59.3853903" lon="7.3810765" version="3" timestamp="2018-04-28T08:08:23Z" changeset="58497758" uid="3497659" user="NKA">
		<tag k="historic" v="shieling" />
		<tag k="name" v="Seten" />
		<tag k="place" v="locality" />
		<tag k="ssr:stedsnr" v="456509" />
		<tag k="ssr:type" v="seterStøl" />
	</node>
	<node id="4489249224" lat="59.3545966" lon="7.3459827" version="2" timestamp="2018-04-10T18:54:41Z" changeset="57982147" uid="3497659" user="NKA">
		<tag k="name" v="Myri" />
		<tag k="place" v="farm" />
		<tag k="ssr:stedsnr" v="881889" />
		<tag k="ssr:type" v="bruk" />
	</node>
	<node id="4489249225" lat="59.609992" lon="7.4176109" version="3" timestamp="2018-04-28T08:08:23Z" changeset="58497758" uid="3497659" user="NKA">
		<tag k="historic" v="shieling" />
		<tag k="name" v="Lislefjødd" />
		<tag k="place" v="locality" />
		<tag k="ssr:stedsnr" v="517635" />
		<tag k="ssr:type" v="seterStøl" />
	</node>
	<node id="4489249226" lat="59.3732577" lon="7.3447021" version="3" timestamp="2018-04-28T08:08:23Z" changeset="58497758" uid="3497659" user="NKA">
		<tag k="historic" v="shieling" />
		<tag k="name" v="Blomstøylrjodet" />
		<tag k="place" v="locality" />
		<tag k="ssr:stedsnr" v="881887" />
		<tag k="ssr:type" v="seterStøl" />
	</node>
	<node id="4489249227" lat="59.4842678" lon="7.4212951" version="2" timestamp="2018-04-10T18:54:42Z" changeset="57982147" uid="3497659" user="NKA">
		<tag k="name" v="Nylund" />
		<tag k="place" v="farm" />
		<tag k="ssr:stedsnr" v="487535" />
		<tag k="ssr:type" v="bruk" />
	</node>
	<node id="4489249228" lat="59.6110953" lon="7.4156342" version="4" timestamp="2021-03-18T20:31:30Z" changeset="101284391" uid="3497659" user="NKA">
		<tag k="historic" v="shieling" />
		<tag k="name" v="Heimre Løbakken" />
		<tag k="place" v="isolated_dwelling" />
		<tag k="ssr:stedsnr" v="153650" />
		<tag k="ssr:type" v="seterStøl" />
	</node>
	<node id="4489249229" lat="59.3896557" lon="7.3903174" version="3" timestamp="2021-03-18T20:31:30Z" changeset="101284391" uid="3497659" user="NKA">
		<tag k="name" v="Hagabu" />
		<tag k="place" v="isolated_dwelling" />
		<tag k="ssr:stedsnr" v="577514" />
		<tag k="ssr:type" v="fritidsbolig" />
	</node>
	<node id="4489249230" lat="59.3549676" lon="7.341165" version="3" timestamp="2021-03-18T20:31:30Z" changeset="101284391" uid="3497659" user="NKA">
		<tag k="name" v="Huldreheimen" />
		<tag k="place" v="isolated_dwelling" />
		<tag k="ssr:stedsnr" v="730256" />
		<tag k="ssr:type" v="fritidsbolig" />
	</node>
	<node id="4489249231" lat="59.6121457" lon="7.4033747" version="4" timestamp="2021-03-18T20:31:30Z" changeset="101284391" uid="3497659" user="NKA">
		<tag k="historic" v="shieling" />
		<tag k="name" v="Nørdre Løbakken" />
		<tag k="place" v="isolated_dwelling" />
		<tag k="ssr:stedsnr" v="517646" />
		<tag k="ssr:type" v="seterStøl" />
	</node>
	<node id="4489249232" lat="59.3592102" lon="7.3028417" version="4" timestamp="2021-03-18T20:31:30Z" changeset="101284391" uid="3497659" user="NKA">
		<tag k="historic" v="shieling" />
		<tag k="name" v="Løyning" />
		<tag k="place" v="isolated_dwelling" />
		<tag k="ssr:stedsnr" v="123282" />
		<tag k="ssr:type" v="setervoll" />
	</node>
	<node id="4489249233" lat="59.4952104" lon="7.1898829" version="3" timestamp="2018-04-28T08:08:24Z" changeset="58497758" uid="3497659" user="NKA">
		<tag k="historic" v="shieling" />
		<tag k="name" v="Listøyl" />
		<tag k="place" v="locality" />
		<tag k="ssr:stedsnr" v="913129" />
		<tag k="ssr:type" v="seterStøl" />
	</node>
	<node id="4489249234" lat="59.3932619" lon="7.4001389" version="3" timestamp="2021-03-18T20:31:30Z" changeset="101284391" uid="3497659" user="NKA">
		<tag k="name" v="Nybu" />
		<tag k="place" v="isolated_dwelling" />
		<tag k="ssr:stedsnr" v="699492" />
		<tag k="ssr:type" v="fritidsbolig" />
	</node>
	<node id="4489249235" lat="59.3930783" lon="7.3801036" version="3" timestamp="2018-04-28T08:08:24Z" changeset="58497758" uid="3497659" user="NKA">
		<tag k="fixme" v="check position" />
		<tag k="historic" v="shieling" />
		<tag k="name" v="Stokkestøyl" />
		<tag k="place" v="locality" />
		<tag k="ssr:stedsnr" v="152543" />
		<tag k="ssr:type" v="seterStøl" />
	</node>
	<node id="4489249236" lat="59.3672623" lon="7.3173234" version="3" timestamp="2018-04-28T08:08:24Z" changeset="58497758" uid="3497659" user="NKA">
		<tag k="historic" v="shieling" />
		<tag k="name" v="Lislestøyl" />
		<tag k="place" v="locality" />
		<tag k="ssr:stedsnr" v="152896" />
		<tag k="ssr:type" v="seterStøl" />
	</node>
	<node id="4489249237" lat="59.4948603" lon="7.3869109" version="2" timestamp="2018-04-10T18:54:43Z" changeset="57982147" uid="3497659" user="NKA">
		<tag k="alt_name" v="Ørnefjødd" />
		<tag k="name" v="Ørnefjell" />
		<tag k="place" v="farm" />
		<tag k="ssr:stedsnr" v="123537" />
		<tag k="ssr:type" v="bruk" />
	</node>
	<node id="4489249238" lat="59.3585024" lon="7.2989125" version="3" timestamp="2018-04-28T08:08:24Z" changeset="58497758" uid="3497659" user="NKA">
		<tag k="historic" v="shieling" />
		<tag k="name" v="Listøyl" />
		<tag k="place" v="locality" />
		<tag k="ssr:stedsnr" v="214921" />
		<tag k="ssr:type" v="seterStøl" />
	</node>
	<node id="4489249239" lat="59.3552312" lon="7.4096421" version="4" timestamp="2021-03-18T20:31:30Z" changeset="101284391" uid="3497659" user="NKA">
		<tag k="historic" v="shieling" />
		<tag k="name" v="Rota" />
		<tag k="place" v="isolated_dwelling" />
		<tag k="ssr:stedsnr" v="366582" />
		<tag k="ssr:type" v="seterStøl" />
	</node>
	<node id="4489249240" lat="59.3671349" lon="7.3252885" version="4" timestamp="2021-03-18T20:31:30Z" changeset="101284391" uid="3497659" user="NKA">
		<tag k="historic" v="shieling" />
		<tag k="name" v="Nyveltjønn" />
		<tag k="place" v="isolated_dwelling" />
		<tag k="ssr:stedsnr" v="123391" />
		<tag k="ssr:type" v="seterStøl" />
	</node>
	<node id="4489249241" lat="59.4003474" lon="7.3790604" version="3" timestamp="2018-04-28T08:08:25Z" changeset="58497758" uid="3497659" user="NKA">
		<tag k="building" v="cabin" />
		<tag k="historic" v="shieling" />
		<tag k="name" v="Steibuskardet" />
		<tag k="place" v="isolated_dwelling" />
		<tag k="ssr:stedsnr" v="820524" />
		<tag k="ssr:type" v="seterStøl" />
	</node>
	<node id="4489249242" lat="59.3673576" lon="7.3109545" version="4" timestamp="2021-03-18T20:31:30Z" changeset="101284391" uid="3497659" user="NKA">
		<tag k="alt_name" v="Vedhus" />
		<tag k="historic" v="shieling" />
		<tag k="name" v="Vehus" />
		<tag k="place" v="isolated_dwelling" />
		<tag k="ssr:stedsnr" v="669354" />
		<tag k="ssr:type" v="seterStøl" />
	</node>
	<node id="4489249243" lat="59.3663402" lon="7.3194161" version="4" timestamp="2021-03-18T20:31:30Z" changeset="101284391" uid="3497659" user="NKA">
		<tag k="historic" v="shieling" />
		<tag k="name" v="Kilane" />
		<tag k="place" v="isolated_dwelling" />
		<tag k="ssr:stedsnr" v="427394" />
		<tag k="ssr:type" v="seterStøl" />
	</node>
	<node id="4489249244" lat="59.3662603" lon="7.3028595" version="3" timestamp="2018-04-28T08:08:25Z" changeset="58497758" uid="3497659" user="NKA">
		<tag k="alt_name" v="Fit" />
		<tag k="building" v="cabin" />
		<tag k="historic" v="shieling" />
		<tag k="name" v="Fet" />
		<tag k="place" v="isolated_dwelling" />
		<tag k="ssr:stedsnr" v="670370" />
		<tag k="ssr:type" v="seterStøl" />
	</node>
	<node id="4489249246" lat="59.3513566" lon="7.354505" version="2" timestamp="2018-04-10T18:54:44Z" changeset="57982147" uid="3497659" user="NKA">
		<tag k="name" v="Lii" />
		<tag k="place" v="farm" />
		<tag k="ssr:stedsnr" v="427582" />
		<tag k="ssr:type" v="bruk" />
	</node>
	<node id="4489249247" lat="59.3508515" lon="7.3476254" version="2" timestamp="2018-04-10T18:54:44Z" changeset="57982147" uid="3497659" user="NKA">
		<tag k="name" v="Gjuvi" />
		<tag k="place" v="farm" />
		<tag k="ssr:stedsnr" v="63593" />
		<tag k="ssr:type" v="bruk" />
	</node>
	<node id="4489249248" lat="59.3730553" lon="7.2921162" version="4" timestamp="2021-03-18T20:31:30Z" changeset="101284391" uid="3497659" user="NKA">
		<tag k="historic" v="shieling" />
		<tag k="name" v="Finnstøyl" />
		<tag k="place" v="isolated_dwelling" />
		<tag k="ssr:stedsnr" v="942872" />
		<tag k="ssr:type" v="seterStøl" />
	</node>
	<node id="4489249249" lat="59.3750785" lon="7.2837643" version="4" timestamp="2021-03-18T20:31:30Z" changeset="101284391" uid="3497659" user="NKA">
		<tag k="historic" v="shieling" />
		<tag k="name" v="Ljoråsen" />
		<tag k="place" v="isolated_dwelling" />
		<tag k="ssr:stedsnr" v="609365" />
		<tag k="ssr:type" v="seterStøl" />
	</node>
	<node id="4489249250" lat="59.5735136" lon="7.2986341" version="2" timestamp="2018-04-10T18:54:45Z" changeset="57982147" uid="3497659" user="NKA">
		<tag k="name" v="Flaten" />
		<tag k="place" v="farm" />
		<tag k="ssr:stedsnr" v="853275" />
		<tag k="ssr:type" v="bruk" />
	</node>
	<node id="4489249251" lat="59.5743094" lon="7.2909403" version="2" timestamp="2018-04-10T18:54:45Z" changeset="57982147" uid="3497659" user="NKA">
		<tag k="alt_name" v="Midtbø" />
		<tag k="name" v="Midbø" />
		<tag k="place" v="farm" />
		<tag k="ssr:stedsnr" v="488255" />
		<tag k="ssr:type" v="bruk" />
	</node>
	<node id="4489249252" lat="59.5742428" lon="7.286102" version="2" timestamp="2018-04-10T18:54:45Z" changeset="57982147" uid="3497659" user="NKA">
		<tag k="name" v="Nordgarden" />
		<tag k="place" v="farm" />
		<tag k="ssr:stedsnr" v="367235" />
		<tag k="ssr:type" v="bruk" />
	</node>
	<node id="4489249253" lat="59.5747408" lon="7.2907836" version="2" timestamp="2018-04-10T18:54:45Z" changeset="57982147" uid="3497659" user="NKA">
		<tag k="name" v="Breive" />
		<tag k="place" v="hamlet" />
		<tag k="ssr:stedsnr" v="246287" />
		<tag k="ssr:type" v="grend" />
	</node>
	<node id="4489249254" lat="59.3606568" lon="7.4265266" version="4" timestamp="2021-03-18T20:31:30Z" changeset="101284391" uid="3497659" user="NKA">
		<tag k="alt_name" v="Reidalstølen;Reindalsstøylen" />
		<tag k="historic" v="shieling" />
		<tag k="name" v="Reidalsstøylen" />
		<tag k="place" v="isolated_dwelling" />
		<tag k="ssr:stedsnr" v="123638" />
		<tag k="ssr:type" v="seterStøl" />
	</node>
	<node id="4489249255" lat="59.5713853" lon="7.1391766" version="3" timestamp="2021-03-18T20:31:30Z" changeset="101284391" uid="3497659" user="NKA">
		<tag k="name" v="Grøningshylkvelven" />
		<tag k="place" v="isolated_dwelling" />
		<tag k="ssr:stedsnr" v="853272" />
		<tag k="ssr:type" v="fritidsbolig" />
	</node>
	<node id="4489249256" lat="59.3620253" lon="7.4091936" version="4" timestamp="2021-03-18T20:31:30Z" changeset="101284391" uid="3497659" user="NKA">
		<tag k="alt_name" v="Solavodden" />
		<tag k="historic" v="shieling" />
		<tag k="name" v="Solavollen" />
		<tag k="place" v="isolated_dwelling" />
		<tag k="ssr:stedsnr" v="305643" />
		<tag k="ssr:type" v="seterStøl" />
	</node>
	<node id="4489249257" lat="59.4679457" lon="7.3836797" version="2" timestamp="2018-04-10T18:54:46Z" changeset="57982147" uid="3497659" user="NKA">
		<tag k="name" v="Systog" />
		<tag k="place" v="farm" />
		<tag k="ssr:stedsnr" v="577607" />
		<tag k="ssr:type" v="bruk" />
	</node>
	<node id="4489249258" lat="59.3854908" lon="7.2846664" version="4" timestamp="2021-03-18T20:31:30Z" changeset="101284391" uid="3497659" user="NKA">
		<tag k="historic" v="shieling" />
		<tag k="name" v="Kaupmannsbui" />
		<tag k="place" v="isolated_dwelling" />
		<tag k="ssr:stedsnr" v="366356" />
		<tag k="ssr:type" v="seterStøl" />
	</node>
	<node id="4489249259" lat="59.4683145" lon="7.3748443" version="2" timestamp="2018-04-10T18:54:46Z" changeset="57982147" uid="3497659" user="NKA">
		<tag k="name" v="Nordstog" />
		<tag k="place" v="farm" />
		<tag k="ssr:stedsnr" v="638597" />
		<tag k="ssr:type" v="bruk" />
	</node>
	<node id="4489249260" lat="59.386582" lon="7.2819352" version="4" timestamp="2021-03-18T20:31:30Z" changeset="101284391" uid="3497659" user="NKA">
		<tag k="historic" v="shieling" />
		<tag k="name" v="Råsi" />
		<tag k="place" v="isolated_dwelling" />
		<tag k="ssr:stedsnr" v="913342" />
		<tag k="ssr:type" v="seterStøl" />
	</node>
	<node id="4489249261" lat="59.3593425" lon="7.3614605" version="2" timestamp="2018-04-10T18:54:46Z" changeset="57982147" uid="3497659" user="NKA">
		<tag k="name" v="Berg" />
		<tag k="place" v="farm" />
		<tag k="ssr:stedsnr" v="487642" />
		<tag k="ssr:type" v="bruk" />
	</node>
	<node id="4489249262" lat="59.3880053" lon="7.2822585" version="4" timestamp="2021-03-18T20:31:30Z" changeset="101284391" uid="3497659" user="NKA">
		<tag k="historic" v="shieling" />
		<tag k="name" v="Tykkholt" />
		<tag k="place" v="isolated_dwelling" />
		<tag k="ssr:stedsnr" v="670357" />
		<tag k="ssr:type" v="seterStøl" />
	</node>
	<node id="4489249263" lat="59.3877493" lon="7.2778222" version="4" timestamp="2021-03-18T20:31:30Z" changeset="101284391" uid="3497659" user="NKA">
		<tag k="historic" v="shieling" />
		<tag k="name" v="Øystøyl" />
		<tag k="place" v="isolated_dwelling" />
		<tag k="ssr:stedsnr" v="366353" />
		<tag k="ssr:type" v="seterStøl" />
	</node>
	<node id="4489249264" lat="59.5430714" lon="7.3665237" version="3" timestamp="2021-03-18T20:31:30Z" changeset="101284391" uid="3497659" user="NKA">
		<tag k="name" v="Hartholt" />
		<tag k="place" v="isolated_dwelling" />
		<tag k="ssr:stedsnr" v="873363" />
		<tag k="ssr:type" v="fritidsbolig" />
	</node>
	<node id="4489249265" lat="59.387192" lon="7.2750614" version="4" timestamp="2021-03-18T20:31:30Z" changeset="101284391" uid="3497659" user="NKA">
		<tag k="historic" v="shieling" />
		<tag k="name" v="Fosstøyl" />
		<tag k="place" v="isolated_dwelling" />
		<tag k="ssr:stedsnr" v="791332" />
		<tag k="ssr:type" v="seterStøl" />
	</node>
	<node id="4489249266" lat="59.3575256" lon="7.3595513" version="2" timestamp="2018-04-10T18:54:47Z" changeset="57982147" uid="3497659" user="NKA">
		<tag k="name" v="Sarv" />
		<tag k="place" v="neighbourhood" />
		<tag k="ssr:stedsnr" v="148645" />
		<tag k="ssr:type" v="boligfelt" />
	</node>
	<node id="4489249267" lat="59.4894567" lon="7.4276193" version="3" timestamp="2021-03-18T20:31:30Z" changeset="101284391" uid="3497659" user="NKA">
		<tag k="name" v="Solhaugen" />
		<tag k="place" v="isolated_dwelling" />
		<tag k="ssr:stedsnr" v="92609" />
		<tag k="ssr:type" v="fritidsbolig" />
	</node>
	<node id="4489249268" lat="59.3535441" lon="7.2585603" version="3" timestamp="2018-04-28T08:08:26Z" changeset="58497758" uid="3497659" user="NKA">
		<tag k="historic" v="shieling" />
		<tag k="name" v="Voddeskard" />
		<tag k="place" v="locality" />
		<tag k="ssr:stedsnr" v="694659" />
		<tag k="ssr:type" v="seterStøl" />
	</node>
	<node id="4489249269" lat="59.489709" lon="7.4287034" version="3" timestamp="2021-03-18T20:31:30Z" changeset="101284391" uid="3497659" user="NKA">
		<tag k="name" v="Persbu" />
		<tag k="place" v="isolated_dwelling" />
		<tag k="ssr:stedsnr" v="699569" />
		<tag k="ssr:type" v="fritidsbolig" />
	</node>
	<node id="4489249270" lat="59.3512189" lon="7.2820374" version="2" timestamp="2018-04-10T18:54:47Z" changeset="57982147" uid="3497659" user="NKA">
		<tag k="name" v="Heimtveiti" />
		<tag k="place" v="farm" />
		<tag k="ssr:stedsnr" v="452676" />
		<tag k="ssr:type" v="bruk" />
	</node>
	<node id="4489249271" lat="59.3704957" lon="7.414616" version="3" timestamp="2021-03-18T20:31:30Z" changeset="101284391" uid="3497659" user="NKA">
		<tag k="name" v="Fitjan" />
		<tag k="place" v="isolated_dwelling" />
		<tag k="ssr:stedsnr" v="427603" />
		<tag k="ssr:type" v="fritidsbolig" />
	</node>
	<node id="4489249272" lat="59.4904856" lon="7.4304981" version="3" timestamp="2019-12-25T20:34:55Z" changeset="78856058" uid="7589857" user="Marius Geitle_import">
		<tag k="name" v="Agdertun" />
		<tag k="place" v="isolated_dwelling" />
		<tag k="ssr:stedsnr" v="153611" />
		<tag k="ssr:type" v="fritidsbolig" />
	</node>
	<node id="4489249273" lat="59.3504465" lon="7.2778087" version="2" timestamp="2018-04-10T18:54:48Z" changeset="57982147" uid="3497659" user="NKA">
		<tag k="name" v="Nordtveiti" />
		<tag k="place" v="farm" />
		<tag k="ssr:stedsnr" v="27697" />
		<tag k="ssr:type" v="bruk" />
	</node>
	<node id="4489249274" lat="59.3721513" lon="7.3812926" version="3" timestamp="2021-03-18T20:31:30Z" changeset="101284391" uid="3497659" user="NKA">
		<tag k="name" v="Kvæven" />
		<tag k="place" v="isolated_dwelling" />
		<tag k="ssr:stedsnr" v="791579" />
		<tag k="ssr:type" v="fritidsbolig" />
	</node>
	<node id="4489249275" lat="59.4971212" lon="7.4396103" version="2" timestamp="2018-04-10T18:54:48Z" changeset="57982147" uid="3497659" user="NKA">
		<tag k="historic" v="ruins" />
		<tag k="name" v="Øygarden" />
		<tag k="place" v="locality" />
		<tag k="ssr:stedsnr" v="699575" />
		<tag k="ssr:type" v="gammelBosettingsplass" />
	</node>
	<node id="4489249276" lat="59.3838099" lon="7.050059" version="2" timestamp="2018-04-10T18:54:48Z" changeset="57982147" uid="3497659" user="NKA">
		<tag k="historic" v="ruins" />
		<tag k="name" v="Den flå dokki" />
		<tag k="place" v="locality" />
		<tag k="ssr:stedsnr" v="633691" />
		<tag k="ssr:type" v="fritidsbolig" />
	</node>
	<node id="4489249277" lat="59.4623144" lon="7.0202147" version="3" timestamp="2021-03-18T20:31:30Z" changeset="101284391" uid="3497659" user="NKA">
		<tag k="building" v="cabin" />
		<tag k="name" v="Grjotdokki" />
		<tag k="place" v="isolated_dwelling" />
		<tag k="ssr:stedsnr" v="573649" />
		<tag k="ssr:type" v="fritidsbolig" />
	</node>
	<node id="4489249278" lat="59.5969814" lon="7.2240865" version="3" timestamp="2021-03-18T20:31:30Z" changeset="101284391" uid="3497659" user="NKA">
		<tag k="name" v="Væringsstølen" />
		<tag k="place" v="isolated_dwelling" />
		<tag k="ssr:stedsnr" v="63331" />
		<tag k="ssr:type" v="fritidsbolig" />
	</node>
	<node id="4489249279" lat="59.5693554" lon="7.3672771" version="3" timestamp="2018-04-28T08:08:27Z" changeset="58497758" uid="3497659" user="NKA">
		<tag k="historic" v="shieling" />
		<tag k="name" v="Remestøyl" />
		<tag k="place" v="locality" />
		<tag k="ssr:stedsnr" v="508378" />
		<tag k="ssr:type" v="setervoll" />
	</node>
	<node id="4489249280" lat="59.5693001" lon="7.3642249" version="3" timestamp="2018-04-28T08:08:27Z" changeset="58497758" uid="3497659" user="NKA">
		<tag k="historic" v="shieling" />
		<tag k="name" v="Nystøyl" />
		<tag k="place" v="locality" />
		<tag k="ssr:stedsnr" v="691371" />
		<tag k="ssr:type" v="setervoll" />
	</node>
	<node id="4489249281" lat="59.3896128" lon="7.2793797" version="3" timestamp="2021-03-18T20:31:30Z" changeset="101284391" uid="3497659" user="NKA">
		<tag k="name" v="Blomstøyl" />
		<tag k="place" v="isolated_dwelling" />
		<tag k="ssr:stedsnr" v="548353" />
		<tag k="ssr:type" v="fritidsbolig" />
	</node>
	<node id="4489249282" lat="59.3049773" lon="7.35704" version="3" timestamp="2018-04-28T08:08:27Z" changeset="58497758" uid="3497659" user="NKA">
		<tag k="fixme" v="check position" />
		<tag k="historic" v="shieling" />
		<tag k="name" v="Lomskrostøylen" />
		<tag k="place" v="locality" />
		<tag k="ssr:stedsnr" v="942863" />
		<tag k="ssr:type" v="seterStøl" />
	</node>
	<node id="4489249283" lat="59.5669888" lon="7.367827" version="3" timestamp="2018-04-28T08:08:27Z" changeset="58497758" uid="3497659" user="NKA">
		<tag k="historic" v="shieling" />
		<tag k="name" v="Plassestøylen" />
		<tag k="place" v="locality" />
		<tag k="ssr:stedsnr" v="873348" />
		<tag k="ssr:type" v="setervoll" />
	</node>
	<node id="4489249284" lat="59.2809723" lon="7.0555229" version="3" timestamp="2021-03-18T20:31:30Z" changeset="101284391" uid="3497659" user="NKA">
		<tag k="building" v="cabin" />
		<tag k="name" v="Sandvasshytta" />
		<tag k="place" v="isolated_dwelling" />
		<tag k="ssr:stedsnr" v="816870" />
		<tag k="ssr:type" v="fritidsbolig" />
	</node>
	<node id="4489249285" lat="59.5450251" lon="7.4127791" version="3" timestamp="2018-04-28T08:08:27Z" changeset="58497758" uid="3497659" user="NKA">
		<tag k="fixme" v="check position" />
		<tag k="historic" v="shieling" />
		<tag k="name" v="Hartevasstøylen" />
		<tag k="place" v="locality" />
		<tag k="ssr:stedsnr" v="508381" />
		<tag k="ssr:type" v="setervoll" />
	</node>
	<node id="4489249286" lat="59.315963" lon="7.0850422" version="3" timestamp="2021-03-18T20:31:30Z" changeset="101284391" uid="3497659" user="NKA">
		<tag k="name" v="Stakkslåtta" />
		<tag k="place" v="isolated_dwelling" />
		<tag k="ssr:stedsnr" v="148855" />
		<tag k="ssr:type" v="fritidsbolig" />
	</node>
	<node id="4489249287" lat="59.5037358" lon="7.3962197" version="3" timestamp="2018-04-28T08:08:27Z" changeset="58497758" uid="3497659" user="NKA">
		<tag k="fixme" v="check position" />
		<tag k="historic" v="shieling" />
		<tag k="name" v="Gamalstøyl" />
		<tag k="place" v="locality" />
		<tag k="ssr:stedsnr" v="942620" />
		<tag k="ssr:type" v="seterStøl" />
	</node>
	<node id="4489249288" lat="59.3744273" lon="7.3810286" version="3" timestamp="2021-03-18T20:31:30Z" changeset="101284391" uid="3497659" user="NKA">
		<tag k="name" v="Rota" />
		<tag k="place" v="isolated_dwelling" />
		<tag k="ssr:stedsnr" v="487651" />
		<tag k="ssr:type" v="fritidsbolig" />
	</node>
	<node id="4489249289" lat="59.3039884" lon="7.2802944" version="2" timestamp="2018-04-10T18:54:50Z" changeset="57982147" uid="3497659" user="NKA">
		<tag k="name" v="Hisdal" />
		<tag k="place" v="farm" />
		<tag k="ssr:stedsnr" v="488426" />
		<tag k="ssr:type" v="bruk" />
	</node>
	<node id="4489249290" lat="59.3098754" lon="7.3281401" version="3" timestamp="2018-04-28T08:08:27Z" changeset="58497758" uid="3497659" user="NKA">
		<tag k="historic" v="shieling" />
		<tag k="name" v="Ytre Støylen" />
		<tag k="place" v="locality" />
		<tag k="ssr:stedsnr" v="638856" />
		<tag k="ssr:type" v="seterStøl" />
	</node>
	<node id="4489249291" lat="59.3514327" lon="7.2892444" version="2" timestamp="2018-04-10T18:54:50Z" changeset="57982147" uid="3497659" user="NKA">
		<tag k="name" v="Ryningen" />
		<tag k="place" v="farm" />
		<tag k="ssr:stedsnr" v="572838" />
		<tag k="ssr:type" v="bruk" />
	</node>
	<node id="4489249292" lat="59.3140036" lon="7.3261932" version="2" timestamp="2018-04-10T18:54:50Z" changeset="57982147" uid="3497659" user="NKA">
		<tag k="name" v="Olavshus" />
		<tag k="place" v="farm" />
		<tag k="ssr:stedsnr" v="699844" />
		<tag k="ssr:type" v="bruk" />
	</node>
	<node id="4489249293" lat="59.6290957" lon="7.3157426" version="3" timestamp="2021-03-18T20:31:30Z" changeset="101284391" uid="3497659" user="NKA">
		<tag k="name" v="Myrekvæven" />
		<tag k="place" v="isolated_dwelling" />
		<tag k="ssr:stedsnr" v="428408" />
		<tag k="ssr:type" v="fritidsbolig" />
	</node>
	<node id="4489249294" lat="59.3892002" lon="7.3923781" version="3" timestamp="2018-04-28T08:08:27Z" changeset="58497758" uid="3497659" user="NKA">
		<tag k="alt_name" v="Byklestøylane" />
		<tag k="historic" v="shieling" />
		<tag k="name" v="Bygdestøylan" />
		<tag k="place" v="hamlet" />
		<tag k="ssr:stedsnr" v="245588" />
		<tag k="ssr:type" v="seterStøl" />
	</node>
	<node id="4489249296" lat="59.3048801" lon="7.1655218" version="2" timestamp="2018-04-10T18:54:51Z" changeset="57982147" uid="3497659" user="NKA">
		<tag k="name" v="Bekkimillom" />
		<tag k="place" v="locality" />
		<tag k="ssr:stedsnr" v="2464" />
		<tag k="ssr:type" v="fritidsbolig" />
	</node>
	<node id="4489249297" lat="59.3171628" lon="7.3666923" version="3" timestamp="2018-04-28T08:08:28Z" changeset="58497758" uid="3497659" user="NKA">
		<tag k="fixme" v="check position" />
		<tag k="historic" v="shieling" />
		<tag k="name" v="Øybø" />
		<tag k="place" v="locality" />
		<tag k="ssr:stedsnr" v="942841" />
		<tag k="ssr:type" v="seterStøl" />
	</node>
	<node id="4489249298" lat="59.394851" lon="7.3972354" version="4" timestamp="2021-03-18T20:31:30Z" changeset="101284391" uid="3497659" user="NKA">
		<tag k="historic" v="shieling" />
		<tag k="name" v="Dvolo" />
		<tag k="place" v="isolated_dwelling" />
		<tag k="ssr:stedsnr" v="2637" />
		<tag k="ssr:type" v="seterStøl" />
	</node>
	<node id="4489249299" lat="59.2928184" lon="6.9585263" version="3" timestamp="2021-03-18T20:31:30Z" changeset="101284391" uid="3497659" user="NKA">
		<tag k="name" v="Gyvasshytta" />
		<tag k="place" v="isolated_dwelling" />
		<tag k="ssr:stedsnr" v="330442" />
		<tag k="ssr:type" v="fritidsbolig" />
	</node>
	<node id="8533708862" lat="59.351958" lon="7.3442439" version="1" timestamp="2021-03-18T20:31:30Z" changeset="101284391" uid="3497659" user="NKA" />
	<node id="8533708863" lat="59.351955" lon="7.3443764" version="1" timestamp="2021-03-18T20:31:30Z" changeset="101284391" uid="3497659" user="NKA" />
	<node id="8533708864" lat="59.3519469" lon="7.3443756" version="1" timestamp="2021-03-18T20:31:30Z" changeset="101284391" uid="3497659" user="NKA" />
	<node id="8533708865" lat="59.3519451" lon="7.344453" version="1" timestamp="2021-03-18T20:31:30Z" changeset="101284391" uid="3497659" user="NKA" />
	<node id="8533708866" lat="59.3518891" lon="7.344448" version="1" timestamp="2021-03-18T20:31:30Z" changeset="101284391" uid="3497659" user="NKA" />
	<node id="8533708867" lat="59.3518909" lon="7.3443709" version="1" timestamp="2021-03-18T20:31:30Z" changeset="101284391" uid="3497659" user="NKA" />
	<node id="8533708868" lat="59.351882" lon="7.3443701" version="1" timestamp="2021-03-18T20:31:30Z" changeset="101284391" uid="3497659" user="NKA" />
	<node id="8533708869" lat="59.351885" lon="7.3442377" version="1" timestamp="2021-03-18T20:31:30Z" changeset="101284391" uid="3497659" user="NKA" />
	<node id="8533708870" lat="59.351902" lon="7.3442393" version="1" timestamp="2021-03-18T20:31:30Z" changeset="101284391" uid="3497659" user="NKA" />
	<node id="8533708871" lat="59.351903" lon="7.3441998" version="1" timestamp="2021-03-18T20:31:30Z" changeset="101284391" uid="3497659" user="NKA" />
	<node id="8533708872" lat="59.3519399" lon="7.3442031" version="1" timestamp="2021-03-18T20:31:30Z" changeset="101284391" uid="3497659" user="NKA" />
	<node id="8533708873" lat="59.351939" lon="7.3442422" version="1" timestamp="2021-03-18T20:31:30Z" changeset="101284391" uid="3497659" user="NKA" />
	<node id="8533710442" lat="59.5615518" lon="7.3542133" version="1" timestamp="2021-03-18T20:31:30Z" changeset="101284391" uid="3497659" user="NKA" />
	<node id="8533710443" lat="59.5615896" lon="7.3543431" version="1" timestamp="2021-03-18T20:31:30Z" changeset="101284391" uid="3497659" user="NKA" />
	<node id="8533710444" lat="59.5615206" lon="7.3544216" version="1" timestamp="2021-03-18T20:31:30Z" changeset="101284391" uid="3497659" user="NKA" />
	<node id="8533710445" lat="59.561493" lon="7.3543269" version="1" timestamp="2021-03-18T20:31:30Z" changeset="101284391" uid="3497659" user="NKA" />
	<node id="8533710446" lat="59.5614771" lon="7.3543449" version="1" timestamp="2021-03-18T20:31:30Z" changeset="101284391" uid="3497659" user="NKA" />
	<node id="8533710447" lat="59.5614351" lon="7.3542007" version="1" timestamp="2021-03-18T20:31:30Z" changeset="101284391" uid="3497659" user="NKA" />
	<node id="8533710448" lat="59.5614017" lon="7.3542386" version="1" timestamp="2021-03-18T20:31:30Z" changeset="101284391" uid="3497659" user="NKA" />
	<node id="8533710449" lat="59.5613801" lon="7.3541646" version="1" timestamp="2021-03-18T20:31:30Z" changeset="101284391" uid="3497659" user="NKA" />
	<node id="8533710450" lat="59.5614132" lon="7.354127" version="1" timestamp="2021-03-18T20:31:30Z" changeset="101284391" uid="3497659" user="NKA" />
	<node id="8533710451" lat="59.5614097" lon="7.3541148" version="1" timestamp="2021-03-18T20:31:30Z" changeset="101284391" uid="3497659" user="NKA" />
	<node id="8533710452" lat="59.5614234" lon="7.3540992" version="1" timestamp="2021-03-18T20:31:30Z" changeset="101284391" uid="3497659" user="NKA" />
	<node id="8533710453" lat="59.5614089" lon="7.3540496" version="1" timestamp="2021-03-18T20:31:30Z" changeset="101284391" uid="3497659" user="NKA" />
	<node id="8533710454" lat="59.5614589" lon="7.3539927" version="1" timestamp="2021-03-18T20:31:30Z" changeset="101284391" uid="3497659" user="NKA" />
	<node id="8533710455" lat="59.5614731" lon="7.3540414" version="1" timestamp="2021-03-18T20:31:30Z" changeset="101284391" uid="3497659" user="NKA" />
	<node id="8533710456" lat="59.5614808" lon="7.3540327" version="1" timestamp="2021-03-18T20:31:30Z" changeset="101284391" uid="3497659" user="NKA" />
	<node id="8533710457" lat="59.5615381" lon="7.3542289" version="1" timestamp="2021-03-18T20:31:30Z" changeset="101284391" uid="3497659" user="NKA" />
	<way id="63223423" version="6" timestamp="2021-03-18T20:31:30Z" changeset="101284391" uid="3497659" user="NKA">
		<tag k="alt_name" v="Fjellgardane kyrkje" />
		<tag k="amenity" v="place_of_worship" />
		<tag k="architect" v="Torjus Bjåen" />
		<tag k="building" v="church" />
		<tag k="capacity" v="110" />
		<tag k="deanery" v="Otredal" />
		<tag k="denomination" v="lutheran" />
		<tag k="diocese" v="Agder og Telemark" />
		<tag k="hearing_aids" v="yes" />
		<tag k="image" v="https://www.kirkebyggdatabasen.no/KBDBweb/getPublicImage.aspx?vedleggId=7D3BECAC-3EE3-42B1-95CC-C7F67FE87B44" />
		<tag k="name" v="Hovden kapell" />
		<tag k="note" v="Soknekirke/arbeidskirke" />
		<tag k="operator" v="Bykle sokneråd" />
		<tag k="parish" v="Bykle" />
		<tag k="ref:bygningsnr" v="168019904" />
		<tag k="religion" v="christian" />
		<tag k="ssr:stedsnr" v="549716" />
		<tag k="ssr:type" v="kirke" />
		<tag k="start_date" v="1955" />
		<tag k="toilets" v="yes" />
		<tag k="toilets:wheelchair" v="yes" />
		<tag k="wheelchair" v="yes" />
		<tag k="wikidata" v="Q14912949" />
		<nd ref="8533710457" />
		<nd ref="8533710456" />
		<nd ref="8533710455" />
		<nd ref="8533710454" />
		<nd ref="8533710453" />
		<nd ref="8533710452" />
		<nd ref="8533710451" />
		<nd ref="8533710450" />
		<nd ref="8533710449" />
		<nd ref="8533710448" />
		<nd ref="8533710447" />
		<nd ref="8533710446" />
		<nd ref="8533710445" />
		<nd ref="8533710444" />
		<nd ref="8533710443" />
		<nd ref="8533710442" />
		<nd ref="8533710457" />
	</way>
	<way id="452122065" version="6" timestamp="2021-03-18T20:31:30Z" changeset="101284391" uid="3497659" user="NKA">
		<tag k="alt_name" v="Bykle kyrkje" />
		<tag k="amenity" v="place_of_worship" />
		<tag k="building" v="church" />
		<tag k="capacity" v="140" />
		<tag k="deanery" v="Otredal" />
		<tag k="denomination" v="lutheran" />
		<tag k="diocese" v="Agder og Telemark" />
		<tag k="hearing_aids" v="yes" />
		<tag k="heritage" v="yes" />
		<tag k="image" v="https://www.kirkebyggdatabasen.no/KBDBweb/getPublicImage.aspx?vedleggId=4C43E5C3-F7D0-4BDF-A507-96F722071A3D" />
		<tag k="name" v="Bykle gamle kyrkje" />
		<tag k="operator" v="Bykle sokneråd" />
		<tag k="parish" v="Bykle" />
		<tag k="ref:bygningsnr" v="168015542" />
		<tag k="religion" v="christian" />
		<tag k="ssr:stedsnr" v="913549" />
		<tag k="ssr:type" v="kirke" />
		<tag k="start_date" v="1619" />
		<tag k="toilets" v="yes" />
		<tag k="toilets:wheelchair" v="yes" />
		<tag k="wheelchair" v="no" />
		<tag k="wikidata" v="Q14911973" />
		<nd ref="8533708873" />
		<nd ref="8533708872" />
		<nd ref="8533708871" />
		<nd ref="8533708870" />
		<nd ref="8533708869" />
		<nd ref="8533708868" />
		<nd ref="8533708867" />
		<nd ref="8533708866" />
		<nd ref="8533708865" />
		<nd ref="8533708864" />
		<nd ref="8533708863" />
		<nd ref="8533708862" />
		<nd ref="8533708873" />
	</way>
</osm>
