<?xml version="1.0" encoding="UTF-8"?>
<osm generator="osmapis" version="0.6">
	<node id="-688127" lat="68.0816305541" lon="15.6982722287">
		<tag k="highway" v="path" />
		<tag k="name" v="Kallvågvegen" />
		<tag k="ssr:stedsnr" v="109077" />
	</node>
	<node id="-688509" lat="68.0765916655" lon="15.5047722239">
		<tag k="ford" v="yes" />
		<tag k="name" v="Åsmundvaet" />
		<tag k="place" v="locality" />
		<tag k="ssr:stedsnr" v="231018" />
	</node>
	<node id="-687736" lat="68.1810111084" lon="15.6718833272">
		<tag k="man_made" v="quay" />
		<tag k="name" v="Tranøykaia" />
		<tag k="place" v="locality" />
		<tag k="ssr:stedsnr" v="898181" />
	</node>
	<node id="-687350" lat="68.0025500037" lon="15.3944833231">
		<tag k="alt_name" v="Olstøa" />
		<tag k="leisure" v="marina" />
		<tag k="name" v="Olstø" />
		<tag k="ssr:stedsnr" v="320863" />
	</node>
	<node id="-689139" lat="67.8083250014" lon="16.0080333438">
		<tag k="highway" v="path" />
		<tag k="name" v="Lappvegen" />
		<tag k="ssr:stedsnr" v="594477" />
	</node>
	<node id="-689722" lat="68.0607638867" lon="15.4649083322">
		<tag k="highway" v="path" />
		<tag k="name" v="Skottestadvegen" />
		<tag k="ssr:stedsnr" v="777320" />
	</node>
	<node id="-687573" lat="67.8640611146" lon="15.9465416659">
		<tag k="highway" v="path" />
		<tag k="name" v="Vegskiftet" />
		<tag k="ssr:stedsnr" v="412090" />
	</node>
	<node id="-689359" lat="68.1401444421" lon="15.8897444342">
		<tag k="junction" v="yes" />
		<tag k="name" v="Orvikhalsen" />
		<tag k="place" v="locality" />
		<tag k="ssr:stedsnr" v="655684" />
	</node>
	<node id="-687685" lat="67.9915472238" lon="15.9993277779">
		<tag k="fixme" v="consider highway=path" />
		<tag k="highway" v="track" />
		<tag k="name" v="Svartdalsvegen" />
		<tag k="ssr:stedsnr" v="473707" />
	</node>
	<node id="-687937" lat="68.0232472229" lon="15.3525638899">
		<tag k="ford" v="yes" />
		<tag k="name" v="Vaet" />
		<tag k="place" v="locality" />
		<tag k="ssr:stedsnr" v="49081" />
	</node>
	<node id="-687931" lat="68.0149388874" lon="15.7549472096">
		<tag k="highway" v="path" />
		<tag k="name" v="Geitstien" />
		<tag k="ssr:stedsnr" v="49012" />
	</node>
	<node id="-690234" lat="68.1517861083" lon="15.6754777655">
		<tag k="fixme" v="consider highway=path" />
		<tag k="highway" v="track" />
		<tag k="name" v="Jøssvågvegen" />
		<tag k="ssr:stedsnr" v="959668" />
	</node>
	<node id="-687416" lat="67.8355527783" lon="15.9794388868">
		<tag k="highway" v="path" />
		<tag k="name" v="Vintervegen" />
		<tag k="ssr:stedsnr" v="352238" />
	</node>
	<node id="-688182" lat="68.066794449" lon="15.4831972173">
		<tag k="highway" v="path" />
		<tag k="name" v="Åsvegen" />
		<tag k="ssr:stedsnr" v="110336" />
	</node>
	<node id="-689333" lat="68.1127055532" lon="15.6923166615">
		<tag k="fixme" v="consider highway=path" />
		<tag k="highway" v="track" />
		<tag k="name" v="Tømmeråsvegen" />
		<tag k="ssr:stedsnr" v="655348" />
	</node>
	<node id="-688180" lat="68.0581666668" lon="15.4092972217">
		<tag k="fixme" v="consider highway=path" />
		<tag k="highway" v="track" />
		<tag k="name" v="Tømmermelen" />
		<tag k="ssr:stedsnr" v="110308" />
	</node>
	<node id="-688945" lat="68.1299555599" lon="15.6725638929">
		<tag k="man_made" v="cairn" />
		<tag k="name" v="Varden" />
		<tag k="place" v="locality" />
		<tag k="ssr:stedsnr" v="534425" />
	</node>
	<node id="-687918" lat="68.1428250035" lon="15.9324583343">
		<tag k="highway" v="path" />
		<tag k="name" v="Snevegen" />
		<tag k="ssr:stedsnr" v="48658" />
	</node>
	<node id="-689965" lat="67.904986111" lon="15.8428083356">
		<tag k="highway" v="path" />
		<tag k="name" v="Fjellvegen" />
		<tag k="ssr:stedsnr" v="838973" />
	</node>
	<node id="-689144" lat="68.0283444419" lon="15.8303611205">
		<tag k="highway" v="path" />
		<tag k="name" v="Stien" />
		<tag k="ssr:stedsnr" v="594496" />
	</node>
	<node id="-688922" lat="68.0805611079" lon="15.4716305642">
		<tag k="highway" v="path" />
		<tag k="name" v="Buvegen" />
		<tag k="ssr:stedsnr" v="534205" />
	</node>
	<node id="-687640" lat="68.0480027815" lon="15.4410333305">
		<tag k="highway" v="path" />
		<tag k="name" v="Røsvikvegen" />
		<tag k="ssr:stedsnr" v="473196" />
	</node>
	<node id="-688278" lat="68.0638666652" lon="15.4889166659">
		<tag k="highway" v="path" />
		<tag k="name" v="Bjønskogvegen" />
		<tag k="ssr:stedsnr" v="170355" />
	</node>
	<node id="-689109" lat="67.8647250039" lon="15.9670555465">
		<tag k="highway" v="path" />
		<tag k="name" v="Mellavegen" />
		<tag k="ssr:stedsnr" v="594126" />
	</node>
	<node id="-687246" lat="68.0600944443" lon="15.4851638999">
		<tag k="highway" v="path" />
		<tag k="name" v="Sjyvegen" />
		<tag k="ssr:stedsnr" v="291350" />
	</node>
	<node id="-689933" lat="67.8076666709" lon="15.9957277668">
		<tag k="highway" v="path" />
		<tag k="name" v="Brattbakkvegen" />
		<tag k="ssr:stedsnr" v="838542" />
	</node>
	<node id="-689155" lat="68.1566500009" lon="15.6373444441">
		<tag k="man_made" v="cairn" />
		<tag k="name" v="Varden" />
		<tag k="place" v="locality" />
		<tag k="ssr:stedsnr" v="594627" />
	</node>
	<node id="-687746" lat="67.8597138899" lon="15.9997472142">
		<tag k="highway" v="path" />
		<tag k="name" v="Buvegen" />
		<tag k="ssr:stedsnr" v="898235" />
	</node>
</osm>
