<?xml version="1.0" encoding="UTF-8"?>
<osm generator="osmapis" version="0.6">
	<node id="-690555" lat="68.01690556" lon="15.419236101">
		<tag k="fixme" v="consider boundary=protected_area and relevant protect_class if not nature reserve" />
		<tag k="leisure" v="nature_reserve" />
		<tag k="name" v="Steinslandsvatnet naturreservat" />
		<tag k="ssr:stedsnr" v="655076" />
	</node>
	<node id="-691160" lat="67.6471944437" lon="16.5562888845">
		<tag k="alt_name" v="Sautasrøysa" />
		<tag k="historic" v="boundary_stone" />
		<tag k="man_made" v="cairn" />
		<tag k="name" v="Savzzasrøysa" />
		<tag k="old_name" v="Sautas Røset;Savzas røys" />
		<tag k="place" v="locality" />
		<tag k="ssr:stedsnr" v="838207" />
	</node>
	<node id="-688535" lat="67.5944583344" lon="16.4948750066">
		<tag k="historic" v="boundary_stone" />
		<tag k="man_made" v="cairn" />
		<tag k="name" v="Numirrøysa" />
		<tag k="old_name" v="Njoammeljavrre røys;Numir Røset" />
		<tag k="place" v="locality" />
		<tag k="ssr:stedsnr" v="292149" />
	</node>
	<node id="-691156" lat="68.0339638859" lon="15.9686861097">
		<tag k="fixme" v="consider boundary=protected_area and relevant protect_class if not nature reserve" />
		<tag k="leisure" v="nature_reserve" />
		<tag k="name" v="Kvannskogen naturreservat" />
		<tag k="ssr:stedsnr" v="838133" />
	</node>
	<node id="-691312" lat="68.0008222202" lon="16.0016027855">
		<tag k="fixme" v="consider boundary=protected_area and relevant protect_class if not nature reserve" />
		<tag k="leisure" v="nature_reserve" />
		<tag k="name" v="Trollpollen naturreservat" />
		<tag k="ssr:stedsnr" v="899713" />
	</node>
	<node id="-690757" lat="68.2037333337" lon="15.9640333255">
		<tag k="fixme" v="consider boundary=protected_area and relevant protect_class if not nature reserve" />
		<tag k="leisure" v="nature_reserve" />
		<tag k="name" v="Tiltvika naturreservat" />
		<tag k="ssr:stedsnr" v="715389" />
	</node>
	<node id="-688994" lat="68.1701083367" lon="15.677111106">
		<tag k="fixme" v="consider boundary=protected_area and relevant protect_class if not nature reserve" />
		<tag k="leisure" v="nature_reserve" />
		<tag k="name" v="Steinosen/Sjømyrpollen naturreservat" />
		<tag k="ssr:stedsnr" v="898189" />
	</node>
	<node id="-690209" lat="68.0035277778" lon="15.3680583412">
		<tag k="fixme" v="consider boundary=protected_area and relevant protect_class if not nature reserve" />
		<tag k="leisure" v="nature_reserve" />
		<tag k="name" v="Steinlandsosen naturreservat" />
		<tag k="ssr:stedsnr" v="534606" />
	</node>
</osm>
