<?xml version="1.0" encoding="UTF-8"?>
<osm generator="osmapis" version="0.6">
	<node id="-689150" lat="68.0631583315" lon="15.4846666766">
		<tag k="alt_name" v="Bjørnskogen" />
		<tag k="name" v="Bjønskogan" />
		<tag k="place" v="locality" />
		<tag k="ssr:stedsnr" v="17966" />
	</node>
	<node id="-690173" lat="68.0449777804" lon="15.7355749976">
		<tag k="name" v="Vasletta" />
		<tag k="place" v="locality" />
		<tag k="ssr:stedsnr" v="534134" />
	</node>
	<node id="-690684" lat="68.0895277761" lon="15.639549997">
		<tag k="name" v="Olderskogen" />
		<tag k="place" v="locality" />
		<tag k="ssr:stedsnr" v="684608" />
	</node>
	<node id="-691187" lat="68.1306388894" lon="15.937052775">
		<tag k="name" v="Salen" />
		<tag k="natural" v="wetland" />
		<tag k="ssr:stedsnr" v="838522" />
	</node>
	<node id="-690161" lat="68.0174138922" lon="15.6161583248">
		<tag k="name" v="Storskogen" />
		<tag k="place" v="locality" />
		<tag k="ssr:stedsnr" v="534018" />
	</node>
	<node id="-688978" lat="68.0179500043" lon="15.3157916655">
		<tag k="name" v="Nylendet" />
		<tag k="place" v="locality" />
		<tag k="ssr:stedsnr" v="898056" />
	</node>
	<node id="-690666" lat="67.8246777765" lon="15.9484388981">
		<tag k="name" v="Fjellmyran" />
		<tag k="natural" v="wetland" />
		<tag k="ssr:stedsnr" v="684465" />
	</node>
	<node id="-689637" lat="68.1228472222" lon="15.5867250053">
		<tag k="name" v="Reinmyra" />
		<tag k="natural" v="wetland" />
		<tag k="ssr:stedsnr" v="199027" />
	</node>
	<node id="-691170" lat="67.8529527754" lon="16.0147138881">
		<tag k="name" v="Rønnelvmyra" />
		<tag k="natural" v="wetland" />
		<tag k="ssr:stedsnr" v="838263" />
	</node>
	<node id="-691280" lat="68.0614777769" lon="15.4417972305">
		<tag k="alt_name" v="Stensmyr" />
		<tag k="name" v="Stenmyra" />
		<tag k="natural" v="wetland" />
		<tag k="ssr:stedsnr" v="866968" />
	</node>
	<node id="-691157" lat="68.0255805522" lon="15.3154388776">
		<tag k="name" v="Rørvikmarka" />
		<tag k="place" v="locality" />
		<tag k="ssr:stedsnr" v="838139" />
	</node>
	<node id="-688974" lat="68.0250666712" lon="15.6894999942">
		<tag k="name" v="Lappstakkmyra" />
		<tag k="natural" v="wetland" />
		<tag k="ssr:stedsnr" v="898014" />
	</node>
	<node id="-691153" lat="68.0215944438" lon="15.3549500065">
		<tag k="name" v="Stenslandsmyran" />
		<tag k="natural" v="wetland" />
		<tag k="ssr:stedsnr" v="838084" />
	</node>
	<node id="-688638" lat="67.8632166702" lon="15.9891305467">
		<tag k="name" v="Reinsvaet" />
		<tag k="place" v="locality" />
		<tag k="ssr:stedsnr" v="351099" />
	</node>
	<node id="-689613" lat="67.7798277823" lon="15.962511111">
		<tag k="name" v="Andreasslåtta" />
		<tag k="natural" v="wetland" />
		<tag k="ssr:stedsnr" v="170885" />
	</node>
	<node id="-688689" lat="68.1389861145" lon="15.8971805456">
		<tag k="name" v="Ospeskogen" />
		<tag k="place" v="locality" />
		<tag k="ssr:stedsnr" v="352380" />
	</node>
	<node id="-689608" lat="67.8139333317" lon="15.9713138915">
		<tag k="name" v="Kvernsteinan" />
		<tag k="natural" v="stone" />
		<tag k="ssr:stedsnr" v="170526" />
	</node>
	<node id="-688716" lat="68.1455722193" lon="15.9455333395">
		<tag k="name" v="Olamyra" />
		<tag k="natural" v="wetland" />
		<tag k="ssr:stedsnr" v="352706" />
	</node>
	<node id="-690117" lat="68.0623027801" lon="15.498577775">
		<tag k="name" v="Myran" />
		<tag k="natural" v="wetland" />
		<tag k="ssr:stedsnr" v="502956" />
	</node>
	<node id="-690626" lat="67.7688555523" lon="15.980797227">
		<tag k="name" v="Johanslåtta" />
		<tag k="natural" v="wetland" />
		<tag k="ssr:stedsnr" v="655807" />
	</node>
	<node id="-689601" lat="68.0002305579" lon="15.412905567">
		<tag k="name" v="Kvitmyra" />
		<tag k="natural" v="wetland" />
		<tag k="ssr:stedsnr" v="170588" />
	</node>
	<node id="-690623" lat="67.9783722264" lon="15.8950222233">
		<tag k="name" v="Stormyra" />
		<tag k="natural" v="wetland" />
		<tag k="ssr:stedsnr" v="655739" />
	</node>
	<node id="-691126" lat="68.1677388918" lon="15.6536527821">
		<tag k="name" v="Stormyra" />
		<tag k="natural" v="wetland" />
		<tag k="ssr:stedsnr" v="837192" />
	</node>
	<node id="-689139" lat="68.0191777813" lon="15.3843972306">
		<tag k="name" v="Valan" />
		<tag k="natural" v="wetland" />
		<tag k="ssr:stedsnr" v="17899" />
	</node>
	<node id="-688559" lat="67.8715777781" lon="15.8371250114">
		<tag k="name" v="Tjukkskogen" />
		<tag k="place" v="locality" />
		<tag k="ssr:stedsnr" v="320434" />
	</node>
	<node id="-689580" lat="67.8531277813" lon="15.9491694346">
		<tag k="name" v="Båtlottmyra" />
		<tag k="natural" v="wetland" />
		<tag k="ssr:stedsnr" v="170272" />
	</node>
	<node id="-689065" lat="67.9596527746" lon="15.9352388797">
		<tag k="name" v="Middagsmyra" />
		<tag k="natural" v="wetland" />
		<tag k="ssr:stedsnr" v="413778" />
	</node>
	<node id="-690600" lat="67.8041888917" lon="15.9795916688">
		<tag k="name" v="Langmyra" />
		<tag k="natural" v="wetland" />
		<tag k="ssr:stedsnr" v="655488" />
	</node>
	<node id="-689052" lat="68.1415527789" lon="15.5016111045">
		<tag k="name" v="Gullkistmyra" />
		<tag k="natural" v="wetland" />
		<tag k="ssr:stedsnr" v="413678" />
	</node>
	<node id="-690598" lat="67.8049999962" lon="15.9853944383">
		<tag k="name" v="Stormyra" />
		<tag k="natural" v="wetland" />
		<tag k="ssr:stedsnr" v="655482" />
	</node>
	<node id="-689058" lat="68.1567166681" lon="15.7150166674">
		<tag k="name" v="Hestvikmyra" />
		<tag k="natural" v="wetland" />
		<tag k="ssr:stedsnr" v="413702" />
	</node>
	<node id="-689568" lat="68.0744916708" lon="15.4918222251">
		<tag k="name" v="Løngsmyran" />
		<tag k="natural" v="wetland" />
		<tag k="ssr:stedsnr" v="170222" />
	</node>
	<node id="-690591" lat="68.0686972263" lon="15.417522229">
		<tag k="name" v="Skarmyra" />
		<tag k="natural" v="wetland" />
		<tag k="ssr:stedsnr" v="655355" />
	</node>
	<node id="-688542" lat="68.0997166664" lon="15.4951694348">
		<tag k="name" v="Hamsundmyra" />
		<tag k="natural" v="wetland" />
		<tag k="ssr:stedsnr" v="320030" />
	</node>
	<node id="-689053" lat="68.1388472217" lon="15.6817166678">
		<tag k="name" v="Dikmyra" />
		<tag k="natural" v="wetland" />
		<tag k="ssr:stedsnr" v="413683" />
	</node>
	<node id="-689564" lat="68.0821805549" lon="15.5857777734">
		<tag k="name" v="Nakkmyra" />
		<tag k="natural" v="wetland" />
		<tag k="ssr:stedsnr" v="170116" />
	</node>
	<node id="-689050" lat="68.0522638909" lon="15.4221416753">
		<tag k="name" v="Storsteinekra" />
		<tag k="place" v="locality" />
		<tag k="ssr:stedsnr" v="899317" />
	</node>
	<node id="-689559" lat="68.0221833318" lon="15.6465611096">
		<tag k="landuse" v="quarry" />
		<tag k="name" v="Grunnargruva" />
		<tag k="ssr:stedsnr" v="170045" />
	</node>
	<node id="-690582" lat="68.0590194443" lon="15.6020222332">
		<tag k="name" v="Spanna" />
		<tag k="place" v="locality" />
		<tag k="ssr:stedsnr" v="655293" />
	</node>
	<node id="-689557" lat="68.0183611098" lon="15.7569583334">
		<tag k="name" v="Kjerkmyra" />
		<tag k="natural" v="wetland" />
		<tag k="ssr:stedsnr" v="170022" />
	</node>
	<node id="-689043" lat="67.9312305565" lon="15.8978722115">
		<tag k="name" v="Storhola" />
		<tag k="natural" v="wetland" />
		<tag k="ssr:stedsnr" v="898861" />
	</node>
	<node id="-689554" lat="68.1412805573" lon="15.4304000082">
		<tag k="name" v="Sørsjyåkran" />
		<tag k="place" v="locality" />
		<tag k="ssr:stedsnr" v="169855" />
	</node>
	<node id="-689040" lat="67.9928611076" lon="15.796122232">
		<tag k="name" v="Kolskogen" />
		<tag k="place" v="locality" />
		<tag k="ssr:stedsnr" v="898724" />
	</node>
	<node id="-690575" lat="67.8422027754" lon="15.9739305603">
		<tag k="name" v="Brennmyra" />
		<tag k="natural" v="wetland" />
		<tag k="ssr:stedsnr" v="655230" />
	</node>
	<node id="-688526" lat="68.1319277757" lon="15.4304388849">
		<tag k="name" v="Stormyra" />
		<tag k="natural" v="wetland" />
		<tag k="ssr:stedsnr" v="291722" />
	</node>
	<node id="-689548" lat="68.1224722222" lon="15.9884055441">
		<tag k="name" v="Ingerura" />
		<tag k="natural" v="scree" />
		<tag k="ssr:stedsnr" v="169438" />
	</node>
	<node id="-689035" lat="68.1567999973" lon="15.6576111192">
		<tag k="name" v="Skråmyra" />
		<tag k="natural" v="wetland" />
		<tag k="ssr:stedsnr" v="898673" />
	</node>
	<node id="-691082" lat="67.9742833356" lon="15.973833329">
		<tag k="name" v="Grønskogen" />
		<tag k="place" v="locality" />
		<tag k="ssr:stedsnr" v="806652" />
	</node>
	<node id="-690051" lat="67.8665333339" lon="15.9601861122">
		<tag k="alt_name" v="Stongsethaugen" />
		<tag k="name" v="Stongsethågan" />
		<tag k="place" v="locality" />
		<tag k="ssr:stedsnr" v="502456" />
	</node>
	<node id="-688514" lat="67.9946277804" lon="15.5529000025">
		<tag k="name" v="Moan" />
		<tag k="place" v="locality" />
		<tag k="ssr:stedsnr" v="291568" />
	</node>
	<node id="-690561" lat="68.0858722238" lon="15.7182888808">
		<tag k="name" v="Hestmarka" />
		<tag k="place" v="locality" />
		<tag k="ssr:stedsnr" v="655089" />
	</node>
	<node id="-688704" lat="68.0050416638" lon="15.6591555521">
		<tag k="name" v="Håkonhals-storskogen" />
		<tag k="place" v="locality" />
		<tag k="ssr:stedsnr" v="352636" />
	</node>
	<node id="-690558" lat="68.010180556" lon="15.3844666625">
		<tag k="name" v="Brennskogen" />
		<tag k="place" v="locality" />
		<tag k="ssr:stedsnr" v="655083" />
	</node>
	<node id="-690554" lat="68.017897224" lon="15.5304722292">
		<tag k="name" v="Ramnesmyra" />
		<tag k="natural" v="wetland" />
		<tag k="ssr:stedsnr" v="655034" />
	</node>
	<node id="-689017" lat="68.1259000012" lon="15.6868694546">
		<tag k="name" v="Stormyra" />
		<tag k="natural" v="wetland" />
		<tag k="ssr:stedsnr" v="898413" />
	</node>
	<node id="-690551" lat="68.0227333357" lon="15.6590749958">
		<tag k="landuse" v="quarry" />
		<tag k="name" v="Svenskgruva" />
		<tag k="ssr:stedsnr" v="655005" />
	</node>
	<node id="-689014" lat="68.0672194453" lon="15.4087916681">
		<tag k="name" v="Åsmyran" />
		<tag k="natural" v="wetland" />
		<tag k="ssr:stedsnr" v="898349" />
	</node>
	<node id="-688873" lat="68.0709416663" lon="15.4699666587">
		<tag k="name" v="Gropdalsmyra" />
		<tag k="natural" v="wetland" />
		<tag k="ssr:stedsnr" v="413344" />
	</node>
	<node id="-689012" lat="68.115594441" lon="15.8769194478">
		<tag k="name" v="Krengelmyra" />
		<tag k="natural" v="wetland" />
		<tag k="ssr:stedsnr" v="898310" />
	</node>
	<node id="-690035" lat="67.7586999985" lon="16.2766916757">
		<tag k="name" v="Livsejuovva" />
		<tag k="name:smj" v="Livsejuovva" />
		<tag k="natural" v="scree" />
		<tag k="old_name:smj" v="Livssejuovva" />
		<tag k="ssr:stedsnr" v="502150" />
	</node>
	<node id="-688872" lat="68.0712472216" lon="15.4351138809">
		<tag k="name" v="Holten" />
		<tag k="place" v="locality" />
		<tag k="ssr:stedsnr" v="413336" />
	</node>
	<node id="-689005" lat="67.8328000027" lon="15.9729222216">
		<tag k="name" v="Skjellmyra" />
		<tag k="natural" v="wetland" />
		<tag k="ssr:stedsnr" v="898254" />
	</node>
	<node id="-691052" lat="68.1347166638" lon="15.4565999961">
		<tag k="name" v="Svartmyra" />
		<tag k="natural" v="wetland" />
		<tag k="ssr:stedsnr" v="806093" />
	</node>
	<node id="-689042" lat="67.921263893" lon="15.8004638892">
		<tag k="name" v="Reinloftet" />
		<tag k="place" v="locality" />
		<tag k="ssr:stedsnr" v="898859" />
	</node>
	<node id="-690537" lat="68.1060583295" lon="15.5059833303">
		<tag k="name" v="Nålnesmyren" />
		<tag k="natural" v="wetland" />
		<tag k="ssr:stedsnr" v="654288" />
	</node>
	<node id="-688484" lat="68.0803777738" lon="15.6738111092">
		<tag k="name" v="Stengningsmyra" />
		<tag k="natural" v="wetland" />
		<tag k="ssr:stedsnr" v="291072" />
	</node>
	<node id="-690530" lat="68.0368694487" lon="15.9723888816">
		<tag k="name" v="Kvannskogan" />
		<tag k="place" v="locality" />
		<tag k="ssr:stedsnr" v="627820" />
	</node>
	<node id="-689503" lat="68.0044749994" lon="15.6103611069">
		<tag k="name" v="Stimyra" />
		<tag k="natural" v="wetland" />
		<tag k="ssr:stedsnr" v="138847" />
	</node>
	<node id="-688613" lat="68.018711114" lon="15.5523722244">
		<tag k="alt_name" v="Byggholmurda" />
		<tag k="name" v="Byggholmura" />
		<tag k="natural" v="scree" />
		<tag k="ssr:stedsnr" v="320898" />
	</node>
	<node id="-690005" lat="68.0163611071" lon="15.732575005">
		<tag k="name" v="Småmyran" />
		<tag k="natural" v="wetland" />
		<tag k="ssr:stedsnr" v="473040" />
	</node>
	<node id="-690004" lat="68.0179083323" lon="15.7052138842">
		<tag k="name" v="Ura" />
		<tag k="natural" v="scree" />
		<tag k="ssr:stedsnr" v="473031" />
	</node>
	<node id="-690002" lat="68.0753861113" lon="15.5053972334">
		<tag k="name" v="Lilandsmyran" />
		<tag k="natural" v="wetland" />
		<tag k="ssr:stedsnr" v="473020" />
	</node>
	<node id="-690001" lat="68.0148888882" lon="15.7489916735">
		<tag k="name" v="Kusletta" />
		<tag k="natural" v="wetland" />
		<tag k="ssr:stedsnr" v="473012" />
	</node>
	<node id="-689998" lat="68.1086166666" lon="15.5301222332">
		<tag k="name" v="Hamsundmyren" />
		<tag k="natural" v="wetland" />
		<tag k="ssr:stedsnr" v="472441" />
	</node>
	<node id="-688695" lat="68.1311583346" lon="15.9135111025">
		<tag k="name" v="Smakarmyra" />
		<tag k="natural" v="wetland" />
		<tag k="ssr:stedsnr" v="352484" />
	</node>
	<node id="-691012" lat="67.7797916668" lon="15.9862472247">
		<tag k="name" v="Krestianslåtta" />
		<tag k="natural" v="wetland" />
		<tag k="ssr:stedsnr" v="777837" />
	</node>
	<node id="-688961" lat="68.1248833356" lon="15.6475194365">
		<tag k="name" v="Forskog" />
		<tag k="place" v="locality" />
		<tag k="ssr:stedsnr" v="885450" />
	</node>
	<node id="-689546" lat="68.160969444" lon="15.711813887">
		<tag k="name" v="Gårdsmyran" />
		<tag k="natural" v="wetland" />
		<tag k="ssr:stedsnr" v="169194" />
	</node>
	<node id="-688948" lat="67.9889888871" lon="15.8704750104">
		<tag k="name" v="Stormyra" />
		<tag k="natural" v="wetland" />
		<tag k="ssr:stedsnr" v="473817" />
	</node>
	<node id="-688946" lat="68.1320694441" lon="15.4190027886">
		<tag k="name" v="Slåttmyra" />
		<tag k="natural" v="wetland" />
		<tag k="ssr:stedsnr" v="473737" />
	</node>
	<node id="-688945" lat="68.0014916629" lon="15.8212083342">
		<tag k="name" v="Hegghola" />
		<tag k="natural" v="wetland" />
		<tag k="ssr:stedsnr" v="473732" />
	</node>
	<node id="-690992" lat="68.0027999995" lon="15.4860777844">
		<tag k="name" v="Stormyra" />
		<tag k="natural" v="wetland" />
		<tag k="ssr:stedsnr" v="777596" />
	</node>
	<node id="-691501" lat="67.761822223" lon="16.0381638873">
		<tag k="name" v="Larsslåtta" />
		<tag k="natural" v="wetland" />
		<tag k="ssr:stedsnr" v="959812" />
	</node>
	<node id="-691496" lat="68.0009083374" lon="15.8577777879">
		<tag k="name" v="Sennmyra" />
		<tag k="natural" v="wetland" />
		<tag k="ssr:stedsnr" v="959714" />
	</node>
	<node id="-690983" lat="68.1382222186" lon="15.9071972179">
		<tag k="name" v="Flåtmyra" />
		<tag k="natural" v="wetland" />
		<tag k="ssr:stedsnr" v="777383" />
	</node>
	<node id="-690993" lat="68.1268055601" lon="15.7143805492">
		<tag k="name" v="Røddan" />
		<tag k="place" v="locality" />
		<tag k="ssr:stedsnr" v="777621" />
	</node>
	<node id="-689951" lat="68.0196833299" lon="15.7934416574">
		<tag k="alt_name" v="Vassurda" />
		<tag k="name" v="Vassura" />
		<tag k="natural" v="scree" />
		<tag k="ssr:stedsnr" v="442585" />
	</node>
	<node id="-689438" lat="68.055555558" lon="15.408050002">
		<tag k="name" v="Brennsteinen" />
		<tag k="natural" v="stone" />
		<tag k="ssr:stedsnr" v="110310" />
	</node>
	<node id="-688925" lat="68.1273861095" lon="15.4629055608">
		<tag k="name" v="Vassåsmyra" />
		<tag k="natural" v="wetland" />
		<tag k="ssr:stedsnr" v="473519" />
	</node>
	<node id="-688924" lat="67.7963666704" lon="15.9488666779">
		<tag k="name" v="Johannesmyra" />
		<tag k="natural" v="wetland" />
		<tag k="ssr:stedsnr" v="473513" />
	</node>
	<node id="-691481" lat="67.9902333326" lon="15.627788891">
		<tag k="name" v="Nattmålsmyra" />
		<tag k="natural" v="wetland" />
		<tag k="ssr:stedsnr" v="959624" />
	</node>
	<node id="-689430" lat="68.0856861116" lon="15.7326277804">
		<tag k="name" v="Pollora" />
		<tag k="natural" v="scree" />
		<tag k="ssr:stedsnr" v="109962" />
	</node>
	<node id="-689429" lat="67.8460972198" lon="15.9778888875">
		<tag k="name" v="Kjerkfjelloran" />
		<tag k="natural" v="scree" />
		<tag k="ssr:stedsnr" v="110202" />
	</node>
	<node id="-690964" lat="67.8582083316" lon="15.9010944499">
		<tag k="name" v="Likkjmyra" />
		<tag k="natural" v="wetland" />
		<tag k="ssr:stedsnr" v="777171" />
	</node>
	<node id="-688911" lat="67.8269749994" lon="15.9945611039">
		<tag k="name" v="Skreddarora" />
		<tag k="natural" v="scree" />
		<tag k="ssr:stedsnr" v="473284" />
	</node>
	<node id="-690989" lat="68.128905556" lon="15.9571555516">
		<tag k="name" v="Heimerura" />
		<tag k="natural" v="scree" />
		<tag k="ssr:stedsnr" v="777490" />
	</node>
	<node id="-690444" lat="68.1237472212" lon="15.6067972324">
		<tag k="name" v="Tverråsskogan" />
		<tag k="place" v="locality" />
		<tag k="ssr:stedsnr" v="623001" />
	</node>
	<node id="-689026" lat="68.0129972226" lon="15.8035222279">
		<tag k="name" v="Sennskarmyra" />
		<tag k="natural" v="wetland" />
		<tag k="ssr:stedsnr" v="898524" />
	</node>
	<node id="-691466" lat="68.1292777764" lon="15.6939805657">
		<tag k="name" v="Grønmyra" />
		<tag k="natural" v="wetland" />
		<tag k="ssr:stedsnr" v="959376" />
	</node>
	<node id="-690953" lat="68.0104222239" lon="15.6364500091">
		<tag k="name" v="Vannskjellmyra" />
		<tag k="natural" v="wetland" />
		<tag k="ssr:stedsnr" v="777023" />
	</node>
	<node id="-689416" lat="68.0066638928" lon="15.7591805598">
		<tag k="name" v="Hamnmyran" />
		<tag k="natural" v="wetland" />
		<tag k="ssr:stedsnr" v="109573" />
	</node>
	<node id="-689927" lat="68.0455500035" lon="15.4469388942">
		<tag k="alt_name" v="Skjøråsen" />
		<tag k="name" v="Sjyråsen" />
		<tag k="place" v="locality" />
		<tag k="ssr:stedsnr" v="441935" />
	</node>
	<node id="-688513" lat="68.1366055588" lon="15.6916750062">
		<tag k="name" v="Gulskogen" />
		<tag k="place" v="locality" />
		<tag k="ssr:stedsnr" v="291566" />
	</node>
	<node id="-690948" lat="67.9986416655" lon="15.5780666717">
		<tag k="name" v="Storbakkmyra" />
		<tag k="natural" v="wetland" />
		<tag k="ssr:stedsnr" v="776533" />
	</node>
	<node id="-691458" lat="68.0645472193" lon="15.7144527663">
		<tag k="name" v="Ånemyran" />
		<tag k="natural" v="wetland" />
		<tag k="ssr:stedsnr" v="959224" />
	</node>
	<node id="-689405" lat="68.113858333" lon="15.6139083423">
		<tag k="name" v="Sjurnesskogen" />
		<tag k="place" v="locality" />
		<tag k="ssr:stedsnr" v="109298" />
	</node>
	<node id="-690938" lat="68.1800555575" lon="15.6590388965">
		<tag k="name" v="Stormyra" />
		<tag k="natural" v="wetland" />
		<tag k="ssr:stedsnr" v="776186" />
	</node>
	<node id="-688886" lat="68.1376944446" lon="15.6945527876">
		<tag k="name" v="Leirvågmyra" />
		<tag k="natural" v="wetland" />
		<tag k="ssr:stedsnr" v="413591" />
	</node>
	<node id="-688883" lat="68.126436115" lon="15.4453833371">
		<tag k="name" v="Hopmyran" />
		<tag k="natural" v="wetland" />
		<tag k="ssr:stedsnr" v="413550" />
	</node>
	<node id="-690415" lat="68.1582416652" lon="15.9068000023">
		<tag k="name" v="Hamnsteinen" />
		<tag k="natural" v="stone" />
		<tag k="ssr:stedsnr" v="594642" />
	</node>
	<node id="-691437" lat="68.0889944454" lon="15.596963894">
		<tag k="name" v="Vakkerjorda" />
		<tag k="natural" v="wetland" />
		<tag k="ssr:stedsnr" v="959015" />
	</node>
	<node id="-691410" lat="68.0819000025" lon="15.4597444567">
		<tag k="name" v="Tortenåsmyra" />
		<tag k="natural" v="wetland" />
		<tag k="ssr:stedsnr" v="928000" />
	</node>
	<node id="-689385" lat="68.0833277773" lon="15.6700305591">
		<tag k="name" v="Hestbakkmyra" />
		<tag k="natural" v="wetland" />
		<tag k="ssr:stedsnr" v="109080" />
	</node>
	<node id="-690408" lat="68.0071666701" lon="15.7708305523">
		<tag k="landuse" v="quarry" />
		<tag k="name" v="Kartsøygruva" />
		<tag k="ssr:stedsnr" v="594606" />
	</node>
	<node id="-688869" lat="68.0646027809" lon="15.4545027816">
		<tag k="name" v="Tersmyra" />
		<tag k="natural" v="wetland" />
		<tag k="ssr:stedsnr" v="413296" />
	</node>
	<node id="-689380" lat="68.0894249971" lon="15.5696666563">
		<tag k="name" v="Skjellmyra" />
		<tag k="natural" v="wetland" />
		<tag k="ssr:stedsnr" v="109042" />
	</node>
	<node id="-688867" lat="67.8520499999" lon="15.9487611024">
		<tag k="name" v="Ospmyra" />
		<tag k="natural" v="wetland" />
		<tag k="ssr:stedsnr" v="413271" />
	</node>
	<node id="-689376" lat="68.1251472235" lon="15.426419446">
		<tag k="name" v="Kirksteinan" />
		<tag k="natural" v="stone" />
		<tag k="ssr:stedsnr" v="109468" />
	</node>
	<node id="-689445" lat="68.0062416682" lon="15.6746388932">
		<tag k="name" v="Tortenhola" />
		<tag k="natural" v="wetland" />
		<tag k="ssr:stedsnr" v="110665" />
	</node>
	<node id="-691415" lat="67.8931277771" lon="15.8463888781">
		<tag k="name" v="Kumyra" />
		<tag k="natural" v="wetland" />
		<tag k="ssr:stedsnr" v="958025" />
	</node>
	<node id="-689073" lat="67.9247694416" lon="15.8403694518">
		<tag k="name" v="Flatsteinen" />
		<tag k="natural" v="stone" />
		<tag k="ssr:stedsnr" v="413861" />
	</node>
	<node id="-689877" lat="68.1057999961" lon="15.8929944309">
		<tag k="name" v="Sennmyran" />
		<tag k="natural" v="wetland" />
		<tag k="ssr:stedsnr" v="260709" />
	</node>
	<node id="-688851" lat="68.0804833316" lon="15.6038000035">
		<tag k="name" v="Oppeidmyran" />
		<tag k="natural" v="wetland" />
		<tag k="ssr:stedsnr" v="413124" />
	</node>
	<node id="-690386" lat="68.1060777741" lon="15.5178500017">
		<tag k="name" v="Skarvoll" />
		<tag k="place" v="locality" />
		<tag k="ssr:stedsnr" v="594292" />
	</node>
	<node id="-688848" lat="68.0184222242" lon="15.4013555638">
		<tag k="name" v="Gronnmyra" />
		<tag k="place" v="locality" />
		<tag k="ssr:stedsnr" v="413074" />
	</node>
	<node id="-689358" lat="68.0890083319" lon="15.6114416588">
		<tag k="name" v="Vassmyra" />
		<tag k="natural" v="wetland" />
		<tag k="ssr:stedsnr" v="109011" />
	</node>
	<node id="-689357" lat="68.0140472187" lon="15.7633916763">
		<tag k="name" v="Botnbrenna" />
		<tag k="place" v="locality" />
		<tag k="ssr:stedsnr" v="109009" />
	</node>
	<node id="-688838" lat="68.1370777744" lon="15.6813055538">
		<tag k="name" v="Engmyra" />
		<tag k="natural" v="wetland" />
		<tag k="ssr:stedsnr" v="412524" />
	</node>
	<node id="-691395" lat="67.9992166662" lon="15.5712194495">
		<tag k="alt_name" v="Ringvoll" />
		<tag k="name" v="Ringvollen" />
		<tag k="place" v="locality" />
		<tag k="ssr:stedsnr" v="927905" />
	</node>
	<node id="-689346" lat="68.1136277765" lon="15.6237749944">
		<tag k="name" v="Skoglund" />
		<tag k="place" v="locality" />
		<tag k="ssr:stedsnr" v="96459" />
	</node>
	<node id="-688501" lat="68.0535277817" lon="15.3980416669">
		<tag k="name" v="Rødlimarka" />
		<tag k="place" v="locality" />
		<tag k="ssr:stedsnr" v="291329" />
	</node>
	<node id="-690363" lat="68.0451416643" lon="15.9509749931">
		<tag k="name" v="Kvannskogen" />
		<tag k="place" v="locality" />
		<tag k="ssr:stedsnr" v="594105" />
	</node>
	<node id="-688697" lat="67.9965166695" lon="15.8077138853">
		<tag k="landuse" v="quarry" />
		<tag k="name" v="Litlgjotenåggruva" />
		<tag k="ssr:stedsnr" v="352610" />
	</node>
	<node id="-689337" lat="68.0235805525" lon="15.3789055512">
		<tag k="name" v="Driplan" />
		<tag k="natural" v="wetland" />
		<tag k="ssr:stedsnr" v="78899" />
	</node>
	<node id="-689199" lat="68.0804111102" lon="15.59804445">
		<tag k="name" v="Uteidmyran" />
		<tag k="natural" v="wetland" />
		<tag k="ssr:stedsnr" v="49143" />
	</node>
	<node id="-689334" lat="68.0092972261" lon="15.5152527771">
		<tag k="name" v="Lunden" />
		<tag k="place" v="locality" />
		<tag k="ssr:stedsnr" v="78878" />
	</node>
	<node id="-689096" lat="68.0883027762" lon="15.3388194548">
		<tag k="name" v="Ballsteinurda" />
		<tag k="natural" v="scree" />
		<tag k="ssr:stedsnr" v="17078" />
	</node>
	<node id="-689311" lat="67.9672722233" lon="15.7640750029">
		<tag k="name" v="Steinnesbenken" />
		<tag k="natural" v="stone" />
		<tag k="ssr:stedsnr" v="78634" />
	</node>
	<node id="-689809" lat="68.0910333299" lon="15.4960416754">
		<tag k="name" v="Lilandsmarka" />
		<tag k="place" v="locality" />
		<tag k="ssr:stedsnr" v="259036" />
	</node>
	<node id="-688492" lat="68.0369305597" lon="15.3953750075">
		<tag k="name" v="Åmundsteinen" />
		<tag k="natural" v="stone" />
		<tag k="ssr:stedsnr" v="291229" />
	</node>
	<node id="-689796" lat="68.115069442" lon="15.6994750106">
		<tag k="name" v="Kausholet" />
		<tag k="natural" v="wetland" />
		<tag k="ssr:stedsnr" v="231394" />
	</node>
	<node id="-688491" lat="68.0729638921" lon="15.4883639014">
		<tag k="name" v="Asmyran" />
		<tag k="natural" v="wetland" />
		<tag k="ssr:stedsnr" v="291217" />
	</node>
	<node id="-688977" lat="68.0255694469" lon="15.599238878">
		<tag k="name" v="Hellmyra" />
		<tag k="natural" v="wetland" />
		<tag k="ssr:stedsnr" v="898037" />
	</node>
	<node id="-689785" lat="67.8593777746" lon="15.9877083238">
		<tag k="name" v="Myra" />
		<tag k="natural" v="wetland" />
		<tag k="ssr:stedsnr" v="231267" />
	</node>
	<node id="-689781" lat="67.8354888889" lon="15.9679249964">
		<tag k="name" v="Gjerdsvaet" />
		<tag k="place" v="locality" />
		<tag k="ssr:stedsnr" v="231239" />
	</node>
	<node id="-689780" lat="68.0937027746" lon="15.5486499942">
		<tag k="name" v="Gurendalsmarka" />
		<tag k="place" v="locality" />
		<tag k="ssr:stedsnr" v="231224" />
	</node>
	<node id="-689223" lat="68.0920888872" lon="15.9602305535">
		<tag k="name" v="Stormyra" />
		<tag k="natural" v="wetland" />
		<tag k="ssr:stedsnr" v="49439" />
	</node>
	<node id="-690793" lat="68.1188222192" lon="15.7150749999">
		<tag k="name" v="Småmyren" />
		<tag k="natural" v="wetland" />
		<tag k="ssr:stedsnr" v="716456" />
	</node>
	<node id="-690792" lat="68.1313250003" lon="15.6625111025">
		<tag k="name" v="Åsmyra" />
		<tag k="natural" v="wetland" />
		<tag k="ssr:stedsnr" v="716445" />
	</node>
	<node id="-690791" lat="68.1306972235" lon="15.6696138937">
		<tag k="name" v="Vardmyra" />
		<tag k="natural" v="wetland" />
		<tag k="ssr:stedsnr" v="716443" />
	</node>
	<node id="-689765" lat="68.0160555527" lon="15.7622638813">
		<tag k="name" v="Blomdalsmyra" />
		<tag k="natural" v="wetland" />
		<tag k="ssr:stedsnr" v="231007" />
	</node>
	<node id="-690787" lat="68.0836277811" lon="15.8900805455">
		<tag k="name" v="Skogteigen" />
		<tag k="place" v="locality" />
		<tag k="ssr:stedsnr" v="716364" />
	</node>
	<node id="-689760" lat="68.1459722263" lon="15.4480805451">
		<tag k="name" v="Buvågleira" />
		<tag k="place" v="locality" />
		<tag k="ssr:stedsnr" v="230924" />
	</node>
	<node id="-690782" lat="68.1069555581" lon="15.6004027811">
		<tag k="name" v="Kulsjømyra" />
		<tag k="natural" v="wetland" />
		<tag k="ssr:stedsnr" v="716277" />
	</node>
	<node id="-691292" lat="67.8039750003" lon="16.0062055483">
		<tag k="name" v="Fjellmyran" />
		<tag k="natural" v="wetland" />
		<tag k="ssr:stedsnr" v="867499" />
	</node>
	<node id="-688729" lat="68.0862611083" lon="15.7431138822">
		<tag k="name" v="Pollmyra" />
		<tag k="natural" v="wetland" />
		<tag k="ssr:stedsnr" v="352958" />
	</node>
	<node id="-689238" lat="68.1542638877" lon="15.655411104">
		<tag k="name" v="Grønndiket" />
		<tag k="natural" v="wetland" />
		<tag k="ssr:stedsnr" v="49710" />
	</node>
	<node id="-688725" lat="67.9276027758" lon="15.8391916569">
		<tag k="name" v="Storsteinan" />
		<tag k="natural" v="stone" />
		<tag k="ssr:stedsnr" v="352830" />
	</node>
	<node id="-689748" lat="67.9984166678" lon="15.5151861161">
		<tag k="name" v="Tranmyra" />
		<tag k="place" v="locality" />
		<tag k="ssr:stedsnr" v="230652" />
	</node>
	<node id="-688523" lat="68.1520833348" lon="15.7167722102">
		<tag k="name" v="Gullevikmyra" />
		<tag k="natural" v="wetland" />
		<tag k="ssr:stedsnr" v="291685" />
	</node>
	<node id="-690768" lat="68.080630554" lon="15.6874527745">
		<tag k="name" v="Suggamyra" />
		<tag k="natural" v="wetland" />
		<tag k="ssr:stedsnr" v="716083" />
	</node>
	<node id="-689740" lat="68.133013885" lon="15.6544583429">
		<tag k="name" v="Tuvmyra" />
		<tag k="natural" v="wetland" />
		<tag k="ssr:stedsnr" v="230555" />
	</node>
	<node id="-689227" lat="68.1351805599" lon="15.950094443">
		<tag k="name" v="Langåsmyra" />
		<tag k="natural" v="wetland" />
		<tag k="ssr:stedsnr" v="49518" />
	</node>
	<node id="-690762" lat="68.1371333315" lon="15.4543833354">
		<tag k="name" v="Hamnesmyra" />
		<tag k="natural" v="wetland" />
		<tag k="ssr:stedsnr" v="715639" />
	</node>
	<node id="-689225" lat="68.1277916649" lon="15.6757333334">
		<tag k="name" v="Kuskarmyra" />
		<tag k="natural" v="wetland" />
		<tag k="ssr:stedsnr" v="49467" />
	</node>
	<node id="-689420" lat="68.1591722259" lon="15.6987583432">
		<tag k="name" v="Elskovbakkmyra" />
		<tag k="natural" v="wetland" />
		<tag k="ssr:stedsnr" v="109623" />
	</node>
	<node id="-690246" lat="68.1096222209" lon="15.3884527683">
		<tag k="name" v="Vikmyra" />
		<tag k="natural" v="wetland" />
		<tag k="ssr:stedsnr" v="562021" />
	</node>
	<node id="-688709" lat="68.1572916681" lon="15.7015527894">
		<tag k="name" v="Langåsmyra" />
		<tag k="natural" v="wetland" />
		<tag k="ssr:stedsnr" v="352664" />
	</node>
	<node id="-689732" lat="68.1323499991" lon="15.981500006">
		<tag k="name" v="Småmyran" />
		<tag k="natural" v="wetland" />
		<tag k="ssr:stedsnr" v="230427" />
	</node>
	<node id="-689218" lat="68.067233332" lon="15.4673638931">
		<tag k="name" v="Steinura" />
		<tag k="natural" v="scree" />
		<tag k="ssr:stedsnr" v="49374" />
	</node>
	<node id="-691467" lat="68.1178361091" lon="15.7063527701">
		<tag k="name" v="Litlskjåmyra" />
		<tag k="natural" v="wetland" />
		<tag k="ssr:stedsnr" v="959394" />
	</node>
	<node id="-689216" lat="68.0544388929" lon="15.590649989">
		<tag k="name" v="Herset" />
		<tag k="place" v="locality" />
		<tag k="ssr:stedsnr" v="49355" />
	</node>
	<node id="-689210" lat="67.8375444425" lon="15.9810944549">
		<tag k="name" v="Lomtjønnmyra" />
		<tag k="natural" v="wetland" />
		<tag k="ssr:stedsnr" v="49302" />
	</node>
	<node id="-689209" lat="67.8533805574" lon="15.9543638889">
		<tag k="name" v="Stormyra" />
		<tag k="natural" v="wetland" />
		<tag k="ssr:stedsnr" v="49292" />
	</node>
	<node id="-690231" lat="68.0040166666" lon="15.845800003">
		<tag k="name" v="Langdalsmyra" />
		<tag k="natural" v="wetland" />
		<tag k="ssr:stedsnr" v="534736" />
	</node>
	<node id="-689201" lat="68.0891527789" lon="15.5460111046">
		<tag k="name" v="Stormyra" />
		<tag k="natural" v="wetland" />
		<tag k="ssr:stedsnr" v="49234" />
	</node>
	<node id="-690736" lat="68.0077527819" lon="15.3908972186">
		<tag k="name" v="Johaugmyra" />
		<tag k="natural" v="wetland" />
		<tag k="ssr:stedsnr" v="685871" />
	</node>
	<node id="-691464" lat="68.0617638861" lon="15.4769333203">
		<tag k="name" v="Nermarka" />
		<tag k="place" v="locality" />
		<tag k="ssr:stedsnr" v="959296" />
	</node>
	<node id="-688684" lat="68.0806249992" lon="15.9126250109">
		<tag k="name" v="Laksvikmyra" />
		<tag k="natural" v="wetland" />
		<tag k="ssr:stedsnr" v="352329" />
	</node>
	<node id="-689195" lat="68.015591668" lon="15.4017055644">
		<tag k="name" v="Lønnskogen" />
		<tag k="place" v="locality" />
		<tag k="ssr:stedsnr" v="49094" />
	</node>
	<node id="-689193" lat="68.0113527741" lon="15.5484916715">
		<tag k="name" v="Drippelskogmyra" />
		<tag k="natural" v="wetland" />
		<tag k="ssr:stedsnr" v="49056" />
	</node>
	<node id="-690268" lat="68.0482249975" lon="15.6767861058">
		<tag k="name" v="Hestmarka" />
		<tag k="place" v="locality" />
		<tag k="ssr:stedsnr" v="562609" />
	</node>
	<node id="-690214" lat="67.9916888898" lon="15.665122232">
		<tag k="name" v="Stormyra" />
		<tag k="natural" v="wetland" />
		<tag k="ssr:stedsnr" v="534642" />
	</node>
	<node id="-691471" lat="67.8069472241" lon="16.0050749985">
		<tag k="name" v="Tømmermyra" />
		<tag k="natural" v="wetland" />
		<tag k="ssr:stedsnr" v="959475" />
	</node>
	<node id="-690210" lat="68.1283722203" lon="15.6989083276">
		<tag k="name" v="Langmyra" />
		<tag k="natural" v="wetland" />
		<tag k="ssr:stedsnr" v="534617" />
	</node>
	<node id="-688672" lat="67.8502555552" lon="15.9316555436">
		<tag k="name" v="Sveinelvmyra" />
		<tag k="natural" v="wetland" />
		<tag k="ssr:stedsnr" v="352215" />
	</node>
	<node id="-690693" lat="68.119722223" lon="15.9679861051">
		<tag k="alt_name" v="Middagsurda" />
		<tag k="name" v="Middagsura" />
		<tag k="natural" v="scree" />
		<tag k="ssr:stedsnr" v="684646" />
	</node>
	<node id="-689691" lat="68.0104055592" lon="15.5288861235">
		<tag k="name" v="Gullskogen" />
		<tag k="place" v="locality" />
		<tag k="ssr:stedsnr" v="199854" />
	</node>
	<node id="-689690" lat="68.0110777813" lon="15.6120361053">
		<tag k="name" v="Langblåmyra" />
		<tag k="natural" v="wetland" />
		<tag k="ssr:stedsnr" v="199853" />
	</node>
	<node id="-690201" lat="68.1386277782" lon="15.9228416753">
		<tag k="name" v="Stormyra" />
		<tag k="natural" v="wetland" />
		<tag k="ssr:stedsnr" v="534406" />
	</node>
	<node id="-689241" lat="68.1578194486" lon="15.9564666706">
		<tag k="name" v="Lysvollmyra" />
		<tag k="natural" v="wetland" />
		<tag k="ssr:stedsnr" v="49731" />
	</node>
	<node id="-688658" lat="68.0829694417" lon="15.7024027742">
		<tag k="name" v="Matismyra" />
		<tag k="natural" v="wetland" />
		<tag k="ssr:stedsnr" v="352081" />
	</node>
	<node id="-689168" lat="67.805669442" lon="15.9750277753">
		<tag k="name" v="Forrhågmyra" />
		<tag k="natural" v="wetland" />
		<tag k="ssr:stedsnr" v="48461" />
	</node>
	<node id="-690191" lat="68.067824998" lon="15.4820555569">
		<tag k="name" v="Nordmarka" />
		<tag k="place" v="locality" />
		<tag k="ssr:stedsnr" v="534323" />
	</node>
	<node id="-690190" lat="68.0649083317" lon="15.438247233">
		<tag k="name" v="Sjettdikmyra" />
		<tag k="natural" v="wetland" />
		<tag k="ssr:stedsnr" v="534308" />
	</node>
	<node id="-689154" lat="68.0404277765" lon="15.9658277651">
		<tag k="name" v="Stormyra" />
		<tag k="natural" v="wetland" />
		<tag k="ssr:stedsnr" v="21765" />
	</node>
	<node id="-690185" lat="67.8518833298" lon="15.9310194499">
		<tag k="name" v="Vanskeliora" />
		<tag k="natural" v="scree" />
		<tag k="ssr:stedsnr" v="534236" />
	</node>
	<node id="-690184" lat="67.8447277796" lon="16.0143333285">
		<tag k="name" v="Gamsletta" />
		<tag k="place" v="locality" />
		<tag k="ssr:stedsnr" v="534226" />
	</node>
	<node id="-689373" lat="67.8147277806" lon="15.9967138913">
		<tag k="name" v="Kjerksteinen" />
		<tag k="natural" v="stone" />
		<tag k="ssr:stedsnr" v="109453" />
	</node>
	<node id="-690181" lat="67.8464583297" lon="15.9782777865">
		<tag k="name" v="Krambusteinen" />
		<tag k="natural" v="stone" />
		<tag k="ssr:stedsnr" v="534222" />
	</node>
	<node id="-688479" lat="68.0172361139" lon="15.6482166552">
		<tag k="name" v="Skjellsteinen" />
		<tag k="natural" v="stone" />
		<tag k="ssr:stedsnr" v="291040" />
	</node>
	<node id="-691202" lat="68.1398194415" lon="15.7008416553">
		<tag k="name" v="Leirvågmyran" />
		<tag k="natural" v="wetland" />
		<tag k="ssr:stedsnr" v="838684" />
	</node>
	<node id="-690177" lat="68.0909416701" lon="15.4911388889">
		<tag k="name" v="Storsletta" />
		<tag k="natural" v="wetland" />
		<tag k="ssr:stedsnr" v="534203" />
	</node>
</osm>
