<?xml version="1.0" encoding="UTF-8"?>
<osm generator="osmapis" version="0.6">
	<node id="-690168" lat="68.0752138878" lon="15.6414527698">
		<tag k="name" v="Saraholmen" />
		<tag k="place" v="islet" />
		<tag k="ssr:stedsnr" v="534109" />
	</node>
	<node id="-690166" lat="68.1818250018" lon="15.6262111057">
		<tag k="name" v="Storleira" />
		<tag k="natural" v="bay" />
		<tag k="ssr:stedsnr" v="534071" />
	</node>
	<node id="-688466" lat="68.2035916628" lon="15.7314333267">
		<tag k="name" v="Mortenskallen" />
		<tag k="natural" v="shoal" />
		<tag k="place" v="locality" />
		<tag k="ssr:stedsnr" v="279410" />
	</node>
	<node id="-690155" lat="67.9925083323" lon="15.5434111023">
		<tag k="name" v="Småholman" />
		<tag k="place" v="islet" />
		<tag k="ssr:stedsnr" v="533703" />
	</node>
	<node id="-690153" lat="68.1521749981" lon="15.5043888927">
		<tag k="name" v="Åkervika" />
		<tag k="natural" v="bay" />
		<tag k="ssr:stedsnr" v="533655" />
	</node>
	<node id="-690149" lat="67.9864027777" lon="15.4443083428">
		<tag k="name" v="Lundinga" />
		<tag k="natural" v="cape" />
		<tag k="ssr:stedsnr" v="533555" />
	</node>
	<node id="-688806" lat="68.1683166634" lon="15.7967861061">
		<tag k="name" v="Nordnes" />
		<tag k="natural" v="cape" />
		<tag k="ssr:stedsnr" v="381810" />
	</node>
	<node id="-690146" lat="68.1662194467" lon="15.6859166614">
		<tag k="name" v="Strauman" />
		<tag k="natural" v="strait" />
		<tag k="ssr:stedsnr" v="533201" />
	</node>
	<node id="-690145" lat="68.1715833355" lon="15.6715166574">
		<tag k="name" v="Steinsosen" />
		<tag k="natural" v="bay" />
		<tag k="ssr:stedsnr" v="533198" />
	</node>
	<node id="-690144" lat="68.161733333" lon="15.6195611123">
		<tag k="name" v="Hellviken" />
		<tag k="natural" v="bay" />
		<tag k="ssr:stedsnr" v="533189" />
	</node>
	<node id="-688464" lat="68.2230055569" lon="15.8841333301">
		<tag k="name" v="Ystebåen" />
		<tag k="natural" v="shoal" />
		<tag k="place" v="locality" />
		<tag k="ssr:stedsnr" v="279158" />
	</node>
	<node id="-690138" lat="68.1633416671" lon="15.5063888991">
		<tag k="name" v="Selsøybåen" />
		<tag k="natural" v="shoal" />
		<tag k="place" v="locality" />
		<tag k="ssr:stedsnr" v="521997" />
	</node>
	<node id="-690137" lat="68.0044138843" lon="15.7155666765">
		<tag k="name" v="Sildhola" />
		<tag k="natural" v="bay" />
		<tag k="ssr:stedsnr" v="521583" />
	</node>
	<node id="-690136" lat="68.0337611096" lon="15.8047111049">
		<tag k="fixme" v="multiple name tags, choose one and add the other to alt_name" />
		<tag k="name" v="Litl Kaldvågstraumen;Litlstraumen" />
		<tag k="natural" v="strait" />
		<tag k="ssr:stedsnr" v="521545" />
	</node>
	<node id="-690135" lat="68.1866944489" lon="15.8424194423">
		<tag k="name" v="Støvikskallen" />
		<tag k="place" v="locality" />
		<tag k="seamark:type" v="rock" />
		<tag k="ssr:stedsnr" v="521540" />
	</node>
	<node id="-690134" lat="68.1809027767" lon="15.7985555534">
		<tag k="name" v="Ytre Farbåen" />
		<tag k="natural" v="shoal" />
		<tag k="place" v="locality" />
		<tag k="ssr:stedsnr" v="521511" />
	</node>
	<node id="-690131" lat="68.1618027743" lon="15.7850583235">
		<tag k="name" v="Steingrunnen" />
		<tag k="natural" v="shoal" />
		<tag k="place" v="locality" />
		<tag k="ssr:stedsnr" v="520483" />
	</node>
	<node id="-690130" lat="68.1274249961" lon="15.7860666732">
		<tag k="name" v="Ospvikgrunnen" />
		<tag k="natural" v="shoal" />
		<tag k="place" v="locality" />
		<tag k="ssr:stedsnr" v="520481" />
	</node>
	<node id="-690127" lat="68.0274055531" lon="15.5220222324">
		<tag k="name" v="Kalvskjærflua" />
		<tag k="natural" v="shoal" />
		<tag k="place" v="locality" />
		<tag k="ssr:stedsnr" v="520028" />
	</node>
	<node id="-690124" lat="68.0740583314" lon="15.2911916696">
		<tag k="alt_name" v="Kråka" />
		<tag k="fixme" v="consider seamark:type=rock or natural=shoal" />
		<tag k="name" v="Storkråka" />
		<tag k="place" v="islet" />
		<tag k="ssr:stedsnr" v="502992" />
	</node>
	<node id="-690122" lat="68.0645277789" lon="15.3161222162">
		<tag k="name" v="Kjerkdørvika" />
		<tag k="natural" v="bay" />
		<tag k="ssr:stedsnr" v="502969" />
	</node>
	<node id="-688459" lat="68.1738361097" lon="15.7753083407">
		<tag k="name" v="Tenndraget" />
		<tag k="place" v="islet" />
		<tag k="ssr:stedsnr" v="278554" />
	</node>
	<node id="-690112" lat="68.051700003" lon="15.2744388864">
		<tag k="name" v="Lendinga" />
		<tag k="natural" v="bay" />
		<tag k="ssr:stedsnr" v="502946" />
	</node>
	<node id="-690110" lat="68.0284805551" lon="15.6024277732">
		<tag k="alt_name" v="Ervika, l;Litlervika" />
		<tag k="name" v="Litl Ervika" />
		<tag k="natural" v="bay" />
		<tag k="ssr:stedsnr" v="502912" />
	</node>
	<node id="-690109" lat="68.0269972256" lon="15.408913896">
		<tag k="name" v="Laksosen" />
		<tag k="natural" v="bay" />
		<tag k="ssr:stedsnr" v="502908" />
	</node>
	<node id="-690108" lat="68.0213805569" lon="15.3059583411">
		<tag k="name" v="Horsvågen" />
		<tag k="natural" v="bay" />
		<tag k="ssr:stedsnr" v="502904" />
	</node>
	<node id="-690107" lat="67.9903333359" lon="15.5254666604">
		<tag k="name" v="Lendinga" />
		<tag k="place" v="islet" />
		<tag k="ssr:stedsnr" v="502903" />
	</node>
	<node id="-690106" lat="67.9918972241" lon="15.4187194506">
		<tag k="name" v="Straumøya" />
		<tag k="place" v="islet" />
		<tag k="ssr:stedsnr" v="502898" />
	</node>
	<node id="-690105" lat="67.9939027783" lon="15.4150527709">
		<tag k="name" v="Nesstraumen" />
		<tag k="natural" v="strait" />
		<tag k="ssr:stedsnr" v="502897" />
	</node>
	<node id="-690104" lat="68.0109472184" lon="15.4380138892">
		<tag k="fixme" v="consider seamark:type=rock or natural=shoal" />
		<tag k="name" v="Tennskjeret" />
		<tag k="place" v="islet" />
		<tag k="ssr:stedsnr" v="502877" />
	</node>
	<node id="-690103" lat="68.016574997" lon="15.5090194431">
		<tag k="alt_name" v="Amundskjeret" />
		<tag k="fixme" v="multiple name tags, choose one and add the other to alt_name; consider seamark:type=rock or natural=shoal" />
		<tag k="name" v="Tausbøen;Åmundskjæret" />
		<tag k="place" v="islet" />
		<tag k="ssr:stedsnr" v="502873" />
	</node>
	<node id="-690102" lat="68.0143527807" lon="15.3316833421">
		<tag k="name" v="Rørvikholmen" />
		<tag k="place" v="islet" />
		<tag k="ssr:stedsnr" v="502867" />
	</node>
	<node id="-690101" lat="68.0031833311" lon="15.3789138956">
		<tag k="name" v="Silsanden" />
		<tag k="natural" v="bay" />
		<tag k="ssr:stedsnr" v="502860" />
	</node>
	<node id="-690098" lat="68.2236555568" lon="15.961152766">
		<tag k="alt_name" v="Tunvika" />
		<tag k="name" v="Tonvika" />
		<tag k="natural" v="bay" />
		<tag k="ssr:stedsnr" v="502831" />
	</node>
	<node id="-690097" lat="68.199388889" lon="15.8992722273">
		<tag k="name" v="Bogen" />
		<tag k="natural" v="bay" />
		<tag k="ssr:stedsnr" v="502813" />
	</node>
	<node id="-690095" lat="68.1787333321" lon="15.855891658">
		<tag k="alt_name" v="Litlskardvika" />
		<tag k="name" v="Litlskarvika" />
		<tag k="natural" v="bay" />
		<tag k="ssr:stedsnr" v="502779" />
	</node>
	<node id="-690086" lat="68.1515999961" lon="15.9294222153">
		<tag k="name" v="Nordkilpollen" />
		<tag k="natural" v="bay" />
		<tag k="ssr:stedsnr" v="502735" />
	</node>
	<node id="-690080" lat="68.0235277809" lon="15.9175472111">
		<tag k="bay" v="fjord" />
		<tag k="loc_name" v="Sismerra" />
		<tag k="name" v="Innhavet" />
		<tag k="natural" v="bay" />
		<tag k="ssr:stedsnr" v="502674" />
	</node>
	<node id="-690079" lat="68.1143305582" lon="15.737411101">
		<tag k="name" v="Bergsvikgrunnen" />
		<tag k="natural" v="shoal" />
		<tag k="place" v="locality" />
		<tag k="ssr:stedsnr" v="502672" />
	</node>
	<node id="-690077" lat="68.1081166705" lon="15.6362500101">
		<tag k="fixme" v="consider seamark:type=rock or natural=shoal" />
		<tag k="name" v="Måseskjer" />
		<tag k="place" v="islet" />
		<tag k="ssr:stedsnr" v="502669" />
	</node>
	<node id="-690076" lat="67.9690750022" lon="15.8669722271">
		<tag k="name" v="Røttangskallen" />
		<tag k="natural" v="shoal" />
		<tag k="place" v="locality" />
		<tag k="ssr:stedsnr" v="502654" />
	</node>
	<node id="-690075" lat="67.9676916666" lon="15.8841444366">
		<tag k="name" v="Koknesskallen" />
		<tag k="natural" v="shoal" />
		<tag k="place" v="locality" />
		<tag k="ssr:stedsnr" v="502652" />
	</node>
	<node id="-689135" lat="68.0281611123" lon="15.4700111129">
		<tag k="alt_name" v="Leiskjeret" />
		<tag k="fixme" v="consider seamark:type=rock or natural=shoal" />
		<tag k="name" v="Leiskjæret" />
		<tag k="place" v="islet" />
		<tag k="ssr:stedsnr" v="17853" />
	</node>
	<node id="-690072" lat="68.0891055581" lon="15.7355777706">
		<tag k="name" v="Finnvikpollen" />
		<tag k="natural" v="bay" />
		<tag k="ssr:stedsnr" v="502642" />
	</node>
	<node id="-690070" lat="67.9358083332" lon="15.832099999">
		<tag k="fixme" v="multiple name tags, choose one and add the other to alt_name" />
		<tag k="name" v="Dønsågan;Dønsågneset" />
		<tag k="natural" v="cape" />
		<tag k="ssr:stedsnr" v="502636" />
	</node>
	<node id="-690066" lat="67.9903083327" lon="15.4489666579">
		<tag k="name" v="Husøystraumen" />
		<tag k="natural" v="strait" />
		<tag k="ssr:stedsnr" v="502626" />
	</node>
	<node id="-690064" lat="67.9764361143" lon="15.4849777743">
		<tag k="alt_name" v="Lamøya, l" />
		<tag k="fixme" v="multiple name tags, choose one and add the other to alt_name" />
		<tag k="name" v="Langskjeret;Litl Lamøya" />
		<tag k="place" v="islet" />
		<tag k="ssr:stedsnr" v="502608" />
	</node>
	<node id="-690063" lat="67.9781888924" lon="15.4541833424">
		<tag k="name" v="Stokkosbukta" />
		<tag k="natural" v="bay" />
		<tag k="ssr:stedsnr" v="502605" />
	</node>
	<node id="-690058" lat="68.0208000006" lon="15.9498083283">
		<tag k="name" v="Varpvågen" />
		<tag k="natural" v="bay" />
		<tag k="ssr:stedsnr" v="502582" />
	</node>
	<node id="-690057" lat="68.0310083363" lon="15.7902083294">
		<tag k="alt_name" v="Kallvågstraumen" />
		<tag k="fixme" v="multiple name tags, choose one and add the other to alt_name" />
		<tag k="name" v="Kaldvågstraumen;Store Kaldvågstraumen" />
		<tag k="natural" v="strait" />
		<tag k="ssr:stedsnr" v="502579" />
	</node>
	<node id="-690056" lat="68.0369333359" lon="15.8110194515">
		<tag k="name" v="Hopen" />
		<tag k="natural" v="cape" />
		<tag k="ssr:stedsnr" v="502555" />
	</node>
	<node id="-690055" lat="67.9993444432" lon="15.7090305547">
		<tag k="name" v="Finnvika" />
		<tag k="natural" v="bay" />
		<tag k="ssr:stedsnr" v="502545" />
	</node>
	<node id="-690039" lat="67.9165138934" lon="15.8700111084">
		<tag k="fixme" v="multiple name tags, choose one and add the other to alt_name" />
		<tag k="name" v="Hopnesstraumen;Straumen" />
		<tag k="natural" v="strait" />
		<tag k="ssr:stedsnr" v="502407" />
	</node>
	<node id="-690033" lat="68.1317805568" lon="15.525961119">
		<tag k="name" v="Risholmen" />
		<tag k="place" v="islet" />
		<tag k="ssr:stedsnr" v="502111" />
	</node>
	<node id="-690028" lat="68.080483329" lon="15.3160944482">
		<tag k="name" v="Salttønneset" />
		<tag k="natural" v="cape" />
		<tag k="ssr:stedsnr" v="502057" />
	</node>
	<node id="-690020" lat="68.1153527744" lon="15.5236527791">
		<tag k="name" v="Ytterøya" />
		<tag k="place" v="islet" />
		<tag k="ssr:stedsnr" v="502021" />
	</node>
	<node id="-690018" lat="68.1171388884" lon="15.5242833432">
		<tag k="name" v="Flåøya" />
		<tag k="place" v="island" />
		<tag k="ssr:stedsnr" v="502011" />
	</node>
	<node id="-690017" lat="68.1068361096" lon="15.5077611191">
		<tag k="name" v="Hamarøya" />
		<tag k="old_name" v="Hamarøy" />
		<tag k="place" v="island" />
		<tag k="ssr:stedsnr" v="502002" />
	</node>
	<node id="-690011" lat="68.0870555557" lon="15.6869027829">
		<tag k="name" v="Kallkråga" />
		<tag k="natural" v="bay" />
		<tag k="ssr:stedsnr" v="473109" />
	</node>
	<node id="-689992" lat="68.1522555537" lon="15.4405777858">
		<tag k="name" v="Hamnesbåan" />
		<tag k="natural" v="shoal" />
		<tag k="place" v="locality" />
		<tag k="ssr:stedsnr" v="460975" />
	</node>
	<node id="-689991" lat="68.1498138932" lon="15.7456694339">
		<tag k="name" v="Brannbåen" />
		<tag k="place" v="locality" />
		<tag k="seamark:type" v="rock" />
		<tag k="ssr:stedsnr" v="460733" />
	</node>
	<node id="-689990" lat="68.1987972216" lon="15.7377111086">
		<tag k="name" v="Vesterskallan" />
		<tag k="natural" v="shoal" />
		<tag k="place" v="locality" />
		<tag k="ssr:stedsnr" v="460683" />
	</node>
	<node id="-689989" lat="68.1717249973" lon="15.5657416607">
		<tag k="name" v="Meskjærflua" />
		<tag k="natural" v="shoal" />
		<tag k="place" v="locality" />
		<tag k="ssr:stedsnr" v="460674" />
	</node>
	<node id="-689988" lat="68.1281000022" lon="15.8543777763">
		<tag k="name" v="Ulsvåggrunnen" />
		<tag k="natural" v="shoal" />
		<tag k="place" v="locality" />
		<tag k="ssr:stedsnr" v="460623" />
	</node>
	<node id="-689986" lat="68.0988111146" lon="15.6398138964">
		<tag k="name" v="Djupvikneset" />
		<tag k="natural" v="cape" />
		<tag k="ssr:stedsnr" v="460490" />
	</node>
	<node id="-689985" lat="68.1651305546" lon="15.5505916607">
		<tag k="name" v="Pollskallen" />
		<tag k="natural" v="shoal" />
		<tag k="place" v="locality" />
		<tag k="ssr:stedsnr" v="460318" />
	</node>
	<node id="-689984" lat="68.0476194464" lon="15.7688249993">
		<tag k="name" v="Langneset" />
		<tag k="natural" v="cape" />
		<tag k="ssr:stedsnr" v="460142" />
	</node>
	<node id="-689980" lat="68.0343749987" lon="15.4682666687">
		<tag k="name" v="Presthella" />
		<tag k="natural" v="shoal" />
		<tag k="place" v="locality" />
		<tag k="ssr:stedsnr" v="442933" />
	</node>
	<node id="-689978" lat="68.0200583352" lon="15.3072222113">
		<tag k="name" v="Jektvika" />
		<tag k="natural" v="bay" />
		<tag k="ssr:stedsnr" v="442914" />
	</node>
	<node id="-689974" lat="68.2071861072" lon="15.7784249954">
		<tag k="name" v="Masbåen" />
		<tag k="natural" v="shoal" />
		<tag k="place" v="locality" />
		<tag k="ssr:stedsnr" v="442844" />
	</node>
	<node id="-689972" lat="68.1811277751" lon="15.6394666613">
		<tag k="name" v="Nordneset" />
		<tag k="natural" v="cape" />
		<tag k="ssr:stedsnr" v="442819" />
	</node>
	<node id="-689971" lat="68.194644446" lon="15.7595472195">
		<tag k="fixme" v="consider seamark:type=rock or natural=shoal" />
		<tag k="name" v="Pundan" />
		<tag k="place" v="islet" />
		<tag k="ssr:stedsnr" v="442808" />
	</node>
	<node id="-689969" lat="68.1469944449" lon="15.8725361138">
		<tag k="alt_name" v="Orvikholmen" />
		<tag k="name" v="Urdvikholmen" />
		<tag k="place" v="islet" />
		<tag k="ssr:stedsnr" v="442784" />
	</node>
	<node id="-689967" lat="68.1194027794" lon="15.7274722323">
		<tag k="alt_name" v="Jekteneset" />
		<tag k="name" v="Jektneset" />
		<tag k="natural" v="cape" />
		<tag k="ssr:stedsnr" v="442728" />
	</node>
	<node id="-689961" lat="67.9804249963" lon="15.8444472278">
		<tag k="alt_name" v="Kjellneset" />
		<tag k="name" v="Kjelneset" />
		<tag k="natural" v="cape" />
		<tag k="ssr:stedsnr" v="442677" />
	</node>
	<node id="-689955" lat="67.9627861095" lon="15.899413889">
		<tag k="alt_name" v="Strømsnesvika" />
		<tag k="name" v="Straumsnesvika" />
		<tag k="natural" v="bay" />
		<tag k="ssr:stedsnr" v="442644" />
	</node>
	<node id="-689953" lat="67.9805277797" lon="15.4172861226">
		<tag k="name" v="Fagerholmen" />
		<tag k="place" v="islet" />
		<tag k="ssr:stedsnr" v="442606" />
	</node>
	<node id="-689113" lat="68.0900444399" lon="15.6434083362">
		<tag k="name" v="Olderskogskallen" />
		<tag k="natural" v="shoal" />
		<tag k="place" v="locality" />
		<tag k="ssr:stedsnr" v="17657" />
	</node>
	<node id="-688700" lat="68.1411555596" lon="15.6188194461">
		<tag k="name" v="Sjystranda" />
		<tag k="natural" v="beach" />
		<tag k="place" v="locality" />
		<tag k="ssr:stedsnr" v="352619" />
	</node>
	<node id="-689936" lat="68.1108277804" lon="15.5102194485">
		<tag k="alt_name" v="Nålneset" />
		<tag k="fixme" v="multiple name tags, choose one and add the other to alt_name" />
		<tag k="name" v="Nålnesneset;Sjybuneset" />
		<tag k="natural" v="cape" />
		<tag k="ssr:stedsnr" v="442035" />
	</node>
	<node id="-689935" lat="68.1075666652" lon="15.3581888928">
		<tag k="name" v="Svartoksneset" />
		<tag k="natural" v="cape" />
		<tag k="ssr:stedsnr" v="442030" />
	</node>
	<node id="-689932" lat="68.0844055586" lon="15.5370805513">
		<tag k="fixme" v="multiple name tags, choose one and add the other to alt_name" />
		<tag k="name" v="Lilandspollen;Sørpollen" />
		<tag k="natural" v="bay" />
		<tag k="ssr:stedsnr" v="441995" />
	</node>
	<node id="-690543" lat="68.1363444436" lon="15.5149638991">
		<tag k="name" v="Falkholmen" />
		<tag k="place" v="islet" />
		<tag k="ssr:stedsnr" v="654508" />
	</node>
	<node id="-689928" lat="68.046936115" lon="15.2800499889">
		<tag k="name" v="Mulen" />
		<tag k="natural" v="cape" />
		<tag k="ssr:stedsnr" v="441950" />
	</node>
	<node id="-689926" lat="67.9954666693" lon="15.6984277752">
		<tag k="name" v="Sauøya" />
		<tag k="place" v="islet" />
		<tag k="ssr:stedsnr" v="441911" />
	</node>
	<node id="-689924" lat="67.9928111108" lon="15.4900583221">
		<tag k="alt_name" v="Trættskjeret;Trættskjæret" />
		<tag k="fixme" v="consider seamark:type=rock or natural=shoal" />
		<tag k="name" v="Trottskjeret" />
		<tag k="place" v="islet" />
		<tag k="ssr:stedsnr" v="441899" />
	</node>
	<node id="-689923" lat="68.022747225" lon="15.5595194375">
		<tag k="fixme" v="multiple name tags, choose one and add the other to alt_name" />
		<tag k="name" v="Byggholmodden;Slåttneset" />
		<tag k="natural" v="cape" />
		<tag k="ssr:stedsnr" v="441860" />
	</node>
	<node id="-689922" lat="68.0010249956" lon="15.4368388922">
		<tag k="name" v="Båtsteinen" />
		<tag k="natural" v="shoal" />
		<tag k="place" v="locality" />
		<tag k="ssr:stedsnr" v="441853" />
	</node>
	<node id="-689916" lat="68.0932222211" lon="15.6797805522">
		<tag k="name" v="Hammarskallen" />
		<tag k="natural" v="shoal" />
		<tag k="place" v="locality" />
		<tag k="ssr:stedsnr" v="441646" />
	</node>
	<node id="-689908" lat="67.9849111081" lon="15.5281972101">
		<tag k="name" v="Sirøya" />
		<tag k="place" v="islet" />
		<tag k="ssr:stedsnr" v="441624" />
	</node>
	<node id="-689907" lat="67.9811555525" lon="15.4751583432">
		<tag k="name" v="Osen" />
		<tag k="natural" v="bay" />
		<tag k="ssr:stedsnr" v="441622" />
	</node>
	<node id="-689898" lat="68.1244222216" lon="15.5018555492">
		<tag k="name" v="Ole Nilsøya" />
		<tag k="place" v="islet" />
		<tag k="ssr:stedsnr" v="441115" />
	</node>
	<node id="-689447" lat="68.1600055572" lon="15.4819777772">
		<tag k="name" v="Klekksøya" />
		<tag k="place" v="islet" />
		<tag k="ssr:stedsnr" v="137053" />
	</node>
	<node id="-689895" lat="68.1458333326" lon="15.570527779">
		<tag k="fixme" v="multiple name tags, choose one and add the other to alt_name" />
		<tag k="name" v="Landfastøya;Røssnesøya" />
		<tag k="place" v="island" />
		<tag k="ssr:stedsnr" v="441091" />
	</node>
	<node id="-689893" lat="68.1589444435" lon="15.4805638765">
		<tag k="name" v="Jekthamn" />
		<tag k="natural" v="bay" />
		<tag k="ssr:stedsnr" v="441073" />
	</node>
	<node id="-689891" lat="68.0317694419" lon="15.450497226">
		<tag k="alt_name" v="Forøyhamn, store;Storforrøyhamn" />
		<tag k="name" v="Store Forøyhamn" />
		<tag k="natural" v="bay" />
		<tag k="ssr:stedsnr" v="421912" />
	</node>
	<node id="-689886" lat="68.0130500033" lon="15.3553944571">
		<tag k="alt_name" v="Revet" />
		<tag k="fixme" v="consider seamark:type=rock or natural=shoal" />
		<tag k="name" v="Reve" />
		<tag k="place" v="islet" />
		<tag k="ssr:stedsnr" v="260897" />
	</node>
	<node id="-689879" lat="68.1205750005" lon="15.7385472114">
		<tag k="name" v="Hamlotholmen" />
		<tag k="place" v="islet" />
		<tag k="ssr:stedsnr" v="260736" />
	</node>
	<node id="-689876" lat="68.0999750032" lon="15.788211119">
		<tag k="alt_name" v="Jørenvik" />
		<tag k="name" v="Jørenvika" />
		<tag k="natural" v="bay" />
		<tag k="ssr:stedsnr" v="260700" />
	</node>
	<node id="-689875" lat="68.0994527754" lon="15.7200555482">
		<tag k="alt_name" v="Durmålskjeran" />
		<tag k="fixme" v="consider seamark:type=rock or natural=shoal" />
		<tag k="name" v="Durmålskjæran" />
		<tag k="place" v="islet" />
		<tag k="ssr:stedsnr" v="260696" />
	</node>
	<node id="-689871" lat="68.1756083334" lon="15.5597055542">
		<tag k="alt_name" v="Meskjerskallen" />
		<tag k="name" v="Meskjærskallen" />
		<tag k="natural" v="shoal" />
		<tag k="place" v="locality" />
		<tag k="ssr:stedsnr" v="260115" />
	</node>
	<node id="-689865" lat="68.0621999981" lon="15.5219472194">
		<tag k="fixme" v="multiple name tags, choose one and add the other to alt_name" />
		<tag k="name" v="Gardøystraumen;Gardøysundet" />
		<tag k="natural" v="strait" />
		<tag k="ssr:stedsnr" v="259957" />
	</node>
	<node id="-689864" lat="68.0629555576" lon="15.5824277764">
		<tag k="name" v="Lendstøbukta" />
		<tag k="natural" v="bay" />
		<tag k="ssr:stedsnr" v="259956" />
	</node>
	<node id="-689243" lat="67.9915499989" lon="15.8039277782">
		<tag k="name" v="Litlgjotenågtjønna" />
		<tag k="natural" v="bay" />
		<tag k="ssr:stedsnr" v="49748" />
	</node>
	<node id="-689862" lat="67.9913722212" lon="15.5643194382">
		<tag k="name" v="Osneset" />
		<tag k="natural" v="cape" />
		<tag k="ssr:stedsnr" v="259894" />
	</node>
	<node id="-689858" lat="68.1462444471" lon="15.7357944493">
		<tag k="name" v="Sundøya" />
		<tag k="place" v="island" />
		<tag k="ssr:stedsnr" v="259741" />
	</node>
	<node id="-688970" lat="68.1589916666" lon="15.4763055527">
		<tag k="name" v="Gunnarsbåen" />
		<tag k="natural" v="shoal" />
		<tag k="place" v="locality" />
		<tag k="ssr:stedsnr" v="885969" />
	</node>
	<node id="-689850" lat="67.993272224" lon="15.7163222212">
		<tag k="name" v="Brannøya" />
		<tag k="place" v="islet" />
		<tag k="ssr:stedsnr" v="259908" />
	</node>
	<node id="-689847" lat="67.9770916711" lon="15.4959638867">
		<tag k="alt_name" v="Lamøya, store" />
		<tag k="fixme" v="multiple name tags, choose one and add the other to alt_name" />
		<tag k="name" v="Lamøya;Store Lamøya" />
		<tag k="place" v="islet" />
		<tag k="ssr:stedsnr" v="259590" />
	</node>
	<node id="-689846" lat="67.9723361135" lon="15.4315916787">
		<tag k="name" v="Brattholmen" />
		<tag k="place" v="islet" />
		<tag k="ssr:stedsnr" v="259587" />
	</node>
	<node id="-689842" lat="67.9603555517" lon="15.4288416539">
		<tag k="alt_name" v="Svartskjeret" />
		<tag k="fixme" v="consider seamark:type=rock or natural=shoal" />
		<tag k="name" v="Svartskjæret" />
		<tag k="place" v="islet" />
		<tag k="ssr:stedsnr" v="259575" />
	</node>
	<node id="-689841" lat="68.0236944454" lon="15.9375722206">
		<tag k="name" v="Mattisgrunnen" />
		<tag k="natural" v="shoal" />
		<tag k="place" v="locality" />
		<tag k="ssr:stedsnr" v="259567" />
	</node>
	<node id="-689835" lat="67.9740305518" lon="15.9358416536">
		<tag k="name" v="Karpollen" />
		<tag k="natural" v="bay" />
		<tag k="ssr:stedsnr" v="259616" />
	</node>
	<node id="-689833" lat="67.9856083299" lon="15.4714638878">
		<tag k="alt_name" v="Husøya" />
		<tag k="name" v="Husøy" />
		<tag k="place" v="island" />
		<tag k="ssr:stedsnr" v="259608" />
	</node>
	<node id="-689831" lat="67.9824388875" lon="15.5250111013">
		<tag k="fixme" v="multiple name tags, choose one and add the other to alt_name" />
		<tag k="name" v="Sirstraumen;Sirøystraumen" />
		<tag k="natural" v="strait" />
		<tag k="ssr:stedsnr" v="259604" />
	</node>
	<node id="-689823" lat="67.9153416701" lon="15.8541166626">
		<tag k="name" v="Keiravika" />
		<tag k="natural" v="bay" />
		<tag k="ssr:stedsnr" v="259396" />
	</node>
	<node id="-689820" lat="67.9146499971" lon="15.8684388757">
		<tag k="name" v="Elvneset" />
		<tag k="natural" v="cape" />
		<tag k="ssr:stedsnr" v="259368" />
	</node>
	<node id="-689818" lat="67.9724805559" lon="15.3915083369">
		<tag k="name" v="Engøya" />
		<tag k="place" v="island" />
		<tag k="ssr:stedsnr" v="259170" />
	</node>
	<node id="-689817" lat="67.9743527778" lon="15.4977166554">
		<tag k="name" v="Langskjeret" />
		<tag k="place" v="islet" />
		<tag k="ssr:stedsnr" v="259171" />
	</node>
	<node id="-689816" lat="67.9563999993" lon="15.501641678">
		<tag k="bay" v="fjord" />
		<tag k="name" v="Sagfjorden - Rivtakvuodna" />
		<tag k="name:no" v="Sagfjorden" />
		<tag k="name:smj" v="Rivtakvuodna" />
		<tag k="natural" v="bay" />
		<tag k="old_name:smj" v="Rivttagvuotna;Rivttagvuotna;Rivtagvuodna" />
		<tag k="ssr:stedsnr" v="259166" />
	</node>
	<node id="-689815" lat="68.1288194474" lon="15.384747229">
		<tag k="name" v="Ungsmaløya" />
		<tag k="place" v="islet" />
		<tag k="ssr:stedsnr" v="259103" />
	</node>
	<node id="-689814" lat="68.1391277761" lon="15.5216083396">
		<tag k="name" v="Storøya" />
		<tag k="place" v="island" />
		<tag k="ssr:stedsnr" v="259091" />
	</node>
	<node id="-689813" lat="68.1564861071" lon="15.4869111185">
		<tag k="name" v="Selsøya" />
		<tag k="place" v="island" />
		<tag k="ssr:stedsnr" v="259067" />
	</node>
	<node id="-689812" lat="68.0838527757" lon="15.3100055592">
		<tag k="alt_name" v="Nordskjeran" />
		<tag k="fixme" v="consider seamark:type=rock or natural=shoal" />
		<tag k="name" v="Nordskjæran" />
		<tag k="place" v="islet" />
		<tag k="ssr:stedsnr" v="259046" />
	</node>
	<node id="-689803" lat="68.0030277799" lon="15.6961194391">
		<tag k="name" v="Barholt" />
		<tag k="natural" v="cape" />
		<tag k="ssr:stedsnr" v="231700" />
	</node>
	<node id="-689801" lat="67.9983805593" lon="15.4075222211">
		<tag k="name" v="Storstranda" />
		<tag k="natural" v="beach" />
		<tag k="place" v="locality" />
		<tag k="ssr:stedsnr" v="231659" />
	</node>
	<node id="-689798" lat="68.0015555516" lon="15.4055500088">
		<tag k="name" v="Litlstranda" />
		<tag k="natural" v="beach" />
		<tag k="place" v="locality" />
		<tag k="ssr:stedsnr" v="231650" />
	</node>
	<node id="-689086" lat="68.1546555575" lon="15.4785250015">
		<tag k="name" v="Sandvika" />
		<tag k="natural" v="bay" />
		<tag k="ssr:stedsnr" v="16062" />
	</node>
	<node id="-689775" lat="68.0893194426" lon="15.675380565">
		<tag k="name" v="Annehola" />
		<tag k="natural" v="bay" />
		<tag k="ssr:stedsnr" v="231102" />
	</node>
	<node id="-689774" lat="68.0156861155" lon="15.3163527743">
		<tag k="name" v="Hestvik" />
		<tag k="natural" v="bay" />
		<tag k="ssr:stedsnr" v="231081" />
	</node>
	<node id="-689769" lat="68.0128444457" lon="15.4716388834">
		<tag k="name" v="Skagstraumen" />
		<tag k="natural" v="strait" />
		<tag k="ssr:stedsnr" v="231036" />
	</node>
	<node id="-689767" lat="68.0185583366" lon="15.7146333242">
		<tag k="name" v="Naustvika" />
		<tag k="natural" v="bay" />
		<tag k="ssr:stedsnr" v="231025" />
	</node>
	<node id="-689763" lat="67.9160083359" lon="15.8531305486">
		<tag k="name" v="Keiravika" />
		<tag k="natural" v="bay" />
		<tag k="ssr:stedsnr" v="230980" />
	</node>
	<node id="-689758" lat="67.9184916661" lon="15.8630277692">
		<tag k="fixme" v="consider seamark:type=rock or natural=shoal" />
		<tag k="name" v="Småskjæret" />
		<tag k="place" v="islet" />
		<tag k="ssr:stedsnr" v="230858" />
	</node>
	<node id="-689756" lat="67.9805194441" lon="15.8622444506">
		<tag k="name" v="Silsanden" />
		<tag k="natural" v="beach" />
		<tag k="place" v="locality" />
		<tag k="ssr:stedsnr" v="230783" />
	</node>
	<node id="-689755" lat="67.980013891" lon="15.5247833366">
		<tag k="fixme" v="consider seamark:type=rock or natural=shoal" />
		<tag k="name" v="Sandskjeret" />
		<tag k="place" v="islet" />
		<tag k="ssr:stedsnr" v="230773" />
	</node>
	<node id="-689747" lat="68.1497416684" lon="15.7241833302">
		<tag k="name" v="Gullevika" />
		<tag k="natural" v="bay" />
		<tag k="ssr:stedsnr" v="230648" />
	</node>
	<node id="-689744" lat="68.1384555592" lon="15.5120472231">
		<tag k="name" v="Falkholmen" />
		<tag k="place" v="islet" />
		<tag k="ssr:stedsnr" v="230627" />
	</node>
	<node id="-689741" lat="68.1288222183" lon="15.7242555481">
		<tag k="fixme" v="consider seamark:type=rock or natural=shoal" />
		<tag k="name" v="Hamlotskjeran" />
		<tag k="place" v="islet" />
		<tag k="ssr:stedsnr" v="230589" />
	</node>
	<node id="-689714" lat="68.0931083353" lon="15.6314305537">
		<tag k="name" v="Nordsjyen" />
		<tag k="natural" v="bay" />
		<tag k="ssr:stedsnr" v="230015" />
	</node>
	<node id="-689711" lat="68.0303638893" lon="15.7139777764">
		<tag k="name" v="Årnvika" />
		<tag k="natural" v="cape" />
		<tag k="ssr:stedsnr" v="218002" />
	</node>
	<node id="-689710" lat="67.957263886" lon="15.9115194403">
		<tag k="name" v="Beintollen" />
		<tag k="natural" v="bay" />
		<tag k="ssr:stedsnr" v="217487" />
	</node>
	<node id="-689709" lat="67.9819138882" lon="15.541244442">
		<tag k="name" v="Flua" />
		<tag k="natural" v="shoal" />
		<tag k="place" v="locality" />
		<tag k="ssr:stedsnr" v="217095" />
	</node>
	<node id="-689705" lat="68.0731111107" lon="15.529433333">
		<tag k="name" v="Lilandsholmen" />
		<tag k="place" v="islet" />
		<tag k="ssr:stedsnr" v="199978" />
	</node>
	<node id="-689703" lat="68.0705583321" lon="15.2967416646">
		<tag k="name" v="Skaftholmen" />
		<tag k="place" v="islet" />
		<tag k="ssr:stedsnr" v="199972" />
	</node>
	<node id="-689702" lat="68.0616083357" lon="15.2808027866">
		<tag k="name" v="Dalshammaren" />
		<tag k="natural" v="cape" />
		<tag k="ssr:stedsnr" v="199969" />
	</node>
	<node id="-689698" lat="68.0353500036" lon="15.4933805645">
		<tag k="fixme" v="multiple name tags, choose one and add the other to alt_name" />
		<tag k="name" v="Hamnholmen;Skottestadøyan" />
		<tag k="place" v="island" />
		<tag k="ssr:stedsnr" v="199919" />
	</node>
	<node id="-689697" lat="68.0307111113" lon="15.4769111163">
		<tag k="fixme" v="consider seamark:type=rock or natural=shoal" />
		<tag k="name" v="Skarvsteinen" />
		<tag k="place" v="islet" />
		<tag k="ssr:stedsnr" v="199906" />
	</node>
	<node id="-689072" lat="67.9278888887" lon="15.8391555659">
		<tag k="name" v="Storsteinklubben" />
		<tag k="natural" v="cape" />
		<tag k="ssr:stedsnr" v="413859" />
	</node>
	<node id="-689693" lat="68.0145111095" lon="15.4705083334">
		<tag k="name" v="Skagen" />
		<tag k="place" v="islet" />
		<tag k="ssr:stedsnr" v="199872" />
	</node>
	<node id="-690874" lat="67.9802777781" lon="15.5131777888">
		<tag k="name" v="Risøyan" />
		<tag k="place" v="island" />
		<tag k="ssr:stedsnr" v="745606" />
	</node>
	<node id="-689689" lat="68.0285416705" lon="15.2934694341">
		<tag k="alt_name" v="Naustneset;Naustnesodden" />
		<tag k="name" v="Naustnes" />
		<tag k="natural" v="cape" />
		<tag k="ssr:stedsnr" v="199848" />
	</node>
	<node id="-689688" lat="68.0488555569" lon="15.5517805592">
		<tag k="name" v="Engøya" />
		<tag k="place" v="island" />
		<tag k="ssr:stedsnr" v="199846" />
	</node>
	<node id="-689686" lat="68.0059166646" lon="15.5018694507">
		<tag k="fixme" v="multiple name tags, choose one and add the other to alt_name" />
		<tag k="name" v="Finnøyholmen;Holmen" />
		<tag k="place" v="islet" />
		<tag k="ssr:stedsnr" v="199840" />
	</node>
	<node id="-689681" lat="68.1725333363" lon="15.884191679">
		<tag k="alt_name" v="Skardvika" />
		<tag k="name" v="Skarvika" />
		<tag k="natural" v="bay" />
		<tag k="ssr:stedsnr" v="199793" />
	</node>
	<node id="-688728" lat="68.1480472255" lon="15.4482388966">
		<tag k="name" v="Kufiskholmen" />
		<tag k="place" v="islet" />
		<tag k="ssr:stedsnr" v="352910" />
	</node>
	<node id="-689677" lat="68.157436114" lon="15.8303749918">
		<tag k="name" v="Buøya" />
		<tag k="natural" v="cape" />
		<tag k="ssr:stedsnr" v="199743" />
	</node>
	<node id="-689676" lat="68.1500833343" lon="15.8801916756">
		<tag k="name" v="Kvalvikneset" />
		<tag k="natural" v="cape" />
		<tag k="ssr:stedsnr" v="199742" />
	</node>
	<node id="-689674" lat="68.1249833336" lon="15.8737416615">
		<tag k="alt_name" v="Kilneset" />
		<tag k="name" v="Kilnesodden" />
		<tag k="natural" v="cape" />
		<tag k="ssr:stedsnr" v="199732" />
	</node>
	<node id="-689068" lat="67.9783888922" lon="15.5094888949">
		<tag k="alt_name" v="Draglan" />
		<tag k="name" v="Dranglan" />
		<tag k="place" v="islet" />
		<tag k="ssr:stedsnr" v="413808" />
	</node>
	<node id="-689670" lat="68.043272221" lon="15.6325777653">
		<tag k="name" v="Bardholmen" />
		<tag k="place" v="islet" />
		<tag k="ssr:stedsnr" v="199565" />
	</node>
	<node id="-689655" lat="67.9781944415" lon="15.9679222211">
		<tag k="name" v="Sagpollen" />
		<tag k="natural" v="bay" />
		<tag k="ssr:stedsnr" v="199207" />
	</node>
	<node id="-689654" lat="68.0934472179" lon="15.6967750103">
		<tag k="alt_name" v="Presteidvika;Presteid-fjorden" />
		<tag k="bay" v="fjord" />
		<tag k="name" v="Presteidfjorden" />
		<tag k="natural" v="bay" />
		<tag k="ssr:stedsnr" v="199689" />
	</node>
	<node id="-689653" lat="68.1091055545" lon="15.6519444556">
		<tag k="name" v="Oterholet" />
		<tag k="natural" v="bay" />
		<tag k="ssr:stedsnr" v="199673" />
	</node>
	<node id="-689647" lat="67.9779861145" lon="15.501216659">
		<tag k="fixme" v="multiple name tags, choose one and add the other to alt_name" />
		<tag k="name" v="Lamøystraumen;Litllamøystraumen" />
		<tag k="natural" v="strait" />
		<tag k="ssr:stedsnr" v="199635" />
	</node>
	<node id="-689644" lat="67.978277775" lon="15.4598999901">
		<tag k="name" v="Sørneset" />
		<tag k="natural" v="cape" />
		<tag k="ssr:stedsnr" v="199623" />
	</node>
	<node id="-689062" lat="68.1288472262" lon="15.4117527843">
		<tag k="name" v="Øyneset" />
		<tag k="natural" v="cape" />
		<tag k="ssr:stedsnr" v="413721" />
	</node>
	<node id="-689634" lat="68.1486583376" lon="15.5709027736">
		<tag k="name" v="Melkpollen" />
		<tag k="natural" v="bay" />
		<tag k="ssr:stedsnr" v="199124" />
	</node>
	<node id="-689633" lat="68.1492416682" lon="15.5196416632">
		<tag k="fixme" v="consider seamark:type=rock or natural=shoal" />
		<tag k="name" v="Vikskjeran" />
		<tag k="place" v="islet" />
		<tag k="ssr:stedsnr" v="199118" />
	</node>
	<node id="-689631" lat="68.01711111" lon="15.8961000041">
		<tag k="fixme" v="multiple name tags, choose one and add the other to alt_name" />
		<tag k="name" v="Karpollen;Storvika" />
		<tag k="natural" v="bay" />
		<tag k="ssr:stedsnr" v="198817" />
	</node>
	<node id="-689630" lat="68.0119055584" lon="15.5174222249">
		<tag k="name" v="Storvika" />
		<tag k="natural" v="bay" />
		<tag k="ssr:stedsnr" v="198805" />
	</node>
	<node id="-689626" lat="68.1499222226" lon="15.4588583257">
		<tag k="name" v="Bukta" />
		<tag k="natural" v="bay" />
		<tag k="ssr:stedsnr" v="170931" />
	</node>
	<node id="-689060" lat="68.1290111116" lon="15.3790333433">
		<tag k="fixme" v="consider seamark:type=rock or natural=shoal" />
		<tag k="name" v="Hopskjeran" />
		<tag k="place" v="islet" />
		<tag k="ssr:stedsnr" v="413716" />
	</node>
	<node id="-689622" lat="68.1622444493" lon="15.8718527691">
		<tag k="name" v="Klubbvikneset" />
		<tag k="natural" v="cape" />
		<tag k="ssr:stedsnr" v="170904" />
	</node>
	<node id="-689620" lat="67.983511115" lon="15.9616888813">
		<tag k="name" v="Langstranda" />
		<tag k="natural" v="beach" />
		<tag k="place" v="locality" />
		<tag k="ssr:stedsnr" v="170764" />
	</node>
	<node id="-689619" lat="67.9953333365" lon="15.7743194332">
		<tag k="fixme" v="consider seamark:type=rock or natural=shoal" />
		<tag k="name" v="Langskjeret" />
		<tag k="place" v="islet" />
		<tag k="ssr:stedsnr" v="170745" />
	</node>
	<node id="-689609" lat="67.9996805564" lon="15.7259944464">
		<tag k="name" v="Ospstranda" />
		<tag k="natural" v="beach" />
		<tag k="place" v="locality" />
		<tag k="ssr:stedsnr" v="170637" />
	</node>
	<node id="-689396" lat="68.1733777775" lon="15.6764333299">
		<tag k="name" v="Ytterkvannholmen" />
		<tag k="natural" v="cape" />
		<tag k="ssr:stedsnr" v="109195" />
	</node>
	<node id="-689054" lat="68.1588416692" lon="15.908313901">
		<tag k="name" v="Hamnhola" />
		<tag k="natural" v="bay" />
		<tag k="ssr:stedsnr" v="413688" />
	</node>
	<node id="-689581" lat="68.1083444399" lon="15.6364138985">
		<tag k="name" v="Sulåneset" />
		<tag k="natural" v="cape" />
		<tag k="ssr:stedsnr" v="170284" />
	</node>
	<node id="-689051" lat="68.155036112" lon="15.625683326">
		<tag k="name" v="Nakkan" />
		<tag k="natural" v="cape" />
		<tag k="ssr:stedsnr" v="413673" />
	</node>
	<node id="-689558" lat="68.0754805534" lon="15.5256416752">
		<tag k="name" v="Lilandsjyen" />
		<tag k="natural" v="bay" />
		<tag k="ssr:stedsnr" v="170024" />
	</node>
	<node id="-689545" lat="68.1731027776" lon="15.6732416591">
		<tag k="name" v="Innerkvannholmen" />
		<tag k="natural" v="cape" />
		<tag k="ssr:stedsnr" v="169188" />
	</node>
	<node id="-689543" lat="68.1840583304" lon="15.6731694391">
		<tag k="name" v="Nordneset" />
		<tag k="natural" v="cape" />
		<tag k="ssr:stedsnr" v="169073" />
	</node>
	<node id="-688590" lat="68.1514000032" lon="15.8768583314">
		<tag k="name" v="Kvalvikholmen" />
		<tag k="place" v="islet" />
		<tag k="ssr:stedsnr" v="320730" />
	</node>
	<node id="-689533" lat="68.1858527809" lon="15.5918444544">
		<tag k="name" v="Stangholmskallen" />
		<tag k="natural" v="shoal" />
		<tag k="place" v="locality" />
		<tag k="ssr:stedsnr" v="157622" />
	</node>
	<node id="-689532" lat="68.159111111" lon="15.8322972265">
		<tag k="name" v="Tannøyvågen" />
		<tag k="natural" v="bay" />
		<tag k="ssr:stedsnr" v="157524" />
	</node>
	<node id="-689531" lat="68.1918638854" lon="15.8495777879">
		<tag k="name" v="Kvalvikneset" />
		<tag k="natural" v="cape" />
		<tag k="ssr:stedsnr" v="157511" />
	</node>
	<node id="-689530" lat="68.2120000006" lon="15.8755972165">
		<tag k="name" v="Tindskallen" />
		<tag k="natural" v="shoal" />
		<tag k="place" v="locality" />
		<tag k="ssr:stedsnr" v="157172" />
	</node>
	<node id="-689529" lat="68.032974997" lon="15.9045111208">
		<tag k="name" v="Skilneset" />
		<tag k="natural" v="cape" />
		<tag k="ssr:stedsnr" v="157161" />
	</node>
	<node id="-689528" lat="68.2235416676" lon="15.9094472318">
		<tag k="name" v="Torbåen" />
		<tag k="natural" v="shoal" />
		<tag k="place" v="locality" />
		<tag k="ssr:stedsnr" v="157141" />
	</node>
	<node id="-689527" lat="68.0852444433" lon="15.6516138893">
		<tag k="name" v="Skautneset" />
		<tag k="natural" v="cape" />
		<tag k="ssr:stedsnr" v="157100" />
	</node>
	<node id="-689526" lat="68.1301277781" lon="15.7244305458">
		<tag k="name" v="Hamlotgrunnen" />
		<tag k="natural" v="shoal" />
		<tag k="place" v="locality" />
		<tag k="ssr:stedsnr" v="156679" />
	</node>
	<node id="-689524" lat="68.088677779" lon="15.7037027873">
		<tag k="fixme" v="multiple name tags, choose one and add the other to alt_name" />
		<tag k="name" v="Finnvikholmen;Holmen" />
		<tag k="place" v="islet" />
		<tag k="ssr:stedsnr" v="157019" />
	</node>
	<node id="-688702" lat="68.1453472221" lon="15.578924995">
		<tag k="name" v="Gåsneset" />
		<tag k="natural" v="cape" />
		<tag k="ssr:stedsnr" v="352627" />
	</node>
	<node id="-689518" lat="68.0774361086" lon="15.2938027693">
		<tag k="fixme" v="consider seamark:type=rock or natural=shoal" />
		<tag k="name" v="Litlkråka" />
		<tag k="place" v="islet" />
		<tag k="ssr:stedsnr" v="138990" />
	</node>
	<node id="-689514" lat="68.0541777806" lon="15.5803333382">
		<tag k="name" v="Kallstadsjøen" />
		<tag k="natural" v="bay" />
		<tag k="ssr:stedsnr" v="138945" />
	</node>
	<node id="-689513" lat="68.0660166682" lon="15.3045333427">
		<tag k="name" v="Rossmålvika" />
		<tag k="natural" v="bay" />
		<tag k="ssr:stedsnr" v="138962" />
	</node>
	<node id="-689512" lat="68.0641555575" lon="15.3295138831">
		<tag k="name" v="Sauvika" />
		<tag k="natural" v="bay" />
		<tag k="ssr:stedsnr" v="138956" />
	</node>
	<node id="-689511" lat="68.0583388908" lon="15.2775000033">
		<tag k="name" v="Jensvika" />
		<tag k="natural" v="bay" />
		<tag k="ssr:stedsnr" v="138953" />
	</node>
	<node id="-689509" lat="68.0119055516" lon="15.7851861203">
		<tag k="alt_name:no" v="Finnøy" />
		<tag k="name" v="Finnøya - Dirvik" />
		<tag k="name:no" v="Finnøya" />
		<tag k="name:smj" v="Dirvik" />
		<tag k="old_name:smj" v="Dirvvek" />
		<tag k="place" v="island" />
		<tag k="ssr:stedsnr" v="138901" />
	</node>
	<node id="-689508" lat="67.9998666709" lon="15.4248027753">
		<tag k="name" v="Kubergodden" />
		<tag k="natural" v="cape" />
		<tag k="ssr:stedsnr" v="138892" />
	</node>
	<node id="-689382" lat="68.1824027752" lon="15.6033749928">
		<tag k="name" v="Fyrvika" />
		<tag k="natural" v="bay" />
		<tag k="ssr:stedsnr" v="109070" />
	</node>
	<node id="-689506" lat="68.0099222187" lon="15.4641000074">
		<tag k="fixme" v="multiple name tags, choose one and add the other to alt_name; consider seamark:type=rock or natural=shoal" />
		<tag k="name" v="Littøya;Sandskjeret" />
		<tag k="place" v="islet" />
		<tag k="ssr:stedsnr" v="138877" />
	</node>
	<node id="-689505" lat="68.0121111075" lon="15.3733527846">
		<tag k="name" v="Trollholmen" />
		<tag k="place" v="islet" />
		<tag k="ssr:stedsnr" v="138871" />
	</node>
	<node id="-689504" lat="68.0182499993" lon="15.3762777724">
		<tag k="name" v="Trollosen" />
		<tag k="natural" v="bay" />
		<tag k="ssr:stedsnr" v="138867" />
	</node>
	<node id="-688549" lat="68.1424222213" lon="15.596827781">
		<tag k="name" v="Bogen" />
		<tag k="natural" v="bay" />
		<tag k="ssr:stedsnr" v="320102" />
	</node>
	<node id="-689501" lat="68.1981555513" lon="15.9283194514">
		<tag k="name" v="Sørvika" />
		<tag k="natural" v="bay" />
		<tag k="ssr:stedsnr" v="138812" />
	</node>
	<node id="-689498" lat="68.1635222215" lon="15.8196972122">
		<tag k="name" v="Sisselholmen" />
		<tag k="place" v="islet" />
		<tag k="ssr:stedsnr" v="138768" />
	</node>
	<node id="-689497" lat="68.1421500036" lon="15.7882555541">
		<tag k="loc_name:smj" v="Dattajsuoloj" />
		<tag k="name" v="Tannøya" />
		<tag k="name:no" v="Tannøya" />
		<tag k="place" v="island" />
		<tag k="ssr:stedsnr" v="138754" />
	</node>
	<node id="-689492" lat="67.9535444414" lon="15.8153861167">
		<tag k="name" v="Håkjerringvika" />
		<tag k="natural" v="bay" />
		<tag k="ssr:stedsnr" v="138664" />
	</node>
	<node id="-689488" lat="68.04076111" lon="15.5112777707">
		<tag k="fixme" v="consider seamark:type=rock or natural=shoal" />
		<tag k="name" v="Øra" />
		<tag k="place" v="islet" />
		<tag k="ssr:stedsnr" v="138922" />
	</node>
	<node id="-689487" lat="68.0427500033" lon="15.564327784">
		<tag k="name" v="Forøya" />
		<tag k="place" v="island" />
		<tag k="ssr:stedsnr" v="138919" />
	</node>
	<node id="-689485" lat="68.0303277812" lon="15.6136166699">
		<tag k="name" v="Hestvikodden" />
		<tag k="natural" v="cape" />
		<tag k="ssr:stedsnr" v="138906" />
	</node>
	<node id="-689484" lat="68.119197223" lon="15.8036583388">
		<tag k="alt_name" v="Porsnessundet" />
		<tag k="name" v="Postnessundet" />
		<tag k="natural" v="strait" />
		<tag k="ssr:stedsnr" v="138722" />
	</node>
	<node id="-689483" lat="68.1310138908" lon="15.8588749962">
		<tag k="alt_name" v="Stordjupet" />
		<tag k="bay" v="fjord" />
		<tag k="name" v="Stordjupna" />
		<tag k="natural" v="bay" />
		<tag k="ssr:stedsnr" v="138712" />
	</node>
	<node id="-689308" lat="67.9400333288" lon="15.8724305632">
		<tag k="alt_name" v="Tørrfornes;Tørrforneset" />
		<tag k="name" v="Tørrforrneset" />
		<tag k="natural" v="cape" />
		<tag k="ssr:stedsnr" v="78616" />
	</node>
	<node id="-689480" lat="67.951044443" lon="15.8460805472">
		<tag k="name" v="Bjørsvikskallen" />
		<tag k="natural" v="shoal" />
		<tag k="place" v="locality" />
		<tag k="ssr:stedsnr" v="138640" />
	</node>
	<node id="-689479" lat="67.9454361106" lon="15.8728361047">
		<tag k="name" v="Steinbakkøya" />
		<tag k="place" v="island" />
		<tag k="ssr:stedsnr" v="138638" />
	</node>
	<node id="-689475" lat="68.0328638893" lon="15.6356944536">
		<tag k="alt_name" v="Skagskjeret" />
		<tag k="fixme" v="consider seamark:type=rock or natural=shoal" />
		<tag k="name" v="Skagskjæret" />
		<tag k="place" v="islet" />
		<tag k="ssr:stedsnr" v="138577" />
	</node>
	<node id="-689474" lat="68.0309999975" lon="15.8127805503">
		<tag k="name" v="Straumøya" />
		<tag k="place" v="island" />
		<tag k="ssr:stedsnr" v="138568" />
	</node>
	<node id="-689457" lat="68.1217083309" lon="15.5755250064">
		<tag k="name" v="Storstranda" />
		<tag k="natural" v="beach" />
		<tag k="place" v="locality" />
		<tag k="ssr:stedsnr" v="138030" />
	</node>
	<node id="-689456" lat="68.1230222262" lon="15.3971000011">
		<tag k="name" v="Litlholmen" />
		<tag k="place" v="islet" />
		<tag k="ssr:stedsnr" v="138003" />
	</node>
	<node id="-689455" lat="68.0390111148" lon="15.8272138934">
		<tag k="name" v="Lappneset" />
		<tag k="natural" v="cape" />
		<tag k="ssr:stedsnr" v="137805" />
	</node>
	<node id="-689454" lat="68.0098416693" lon="15.4718694511">
		<tag k="name" v="Storøya" />
		<tag k="natural" v="cape" />
		<tag k="ssr:stedsnr" v="137791" />
	</node>
	<node id="-691500" lat="67.9757277771" lon="15.879177773">
		<tag k="name" v="Kokneset" />
		<tag k="natural" v="cape" />
		<tag k="ssr:stedsnr" v="959806" />
	</node>
	<node id="-691499" lat="67.978294442" lon="15.4896388803">
		<tag k="name" v="Storlamøystraumen" />
		<tag k="natural" v="strait" />
		<tag k="ssr:stedsnr" v="959797" />
	</node>
	<node id="-691497" lat="67.9976500007" lon="15.7667222287">
		<tag k="fixme" v="consider seamark:type=rock or natural=shoal" />
		<tag k="name" v="Skarvskjeret" />
		<tag k="place" v="islet" />
		<tag k="ssr:stedsnr" v="959719" />
	</node>
	<node id="-691495" lat="68.1523500027" lon="15.8962916661">
		<tag k="name" v="Kvalvikodden" />
		<tag k="natural" v="cape" />
		<tag k="ssr:stedsnr" v="959703" />
	</node>
	<node id="-691493" lat="68.1322999984" lon="15.4097055455">
		<tag k="name" v="Hophamn" />
		<tag k="natural" v="strait" />
		<tag k="ssr:stedsnr" v="959687" />
	</node>
	<node id="-689440" lat="68.0580499953" lon="15.4957416736">
		<tag k="name" v="Sjybuosen" />
		<tag k="natural" v="bay" />
		<tag k="ssr:stedsnr" v="110341" />
	</node>
	<node id="-691485" lat="68.1383055511" lon="15.713838894">
		<tag k="name" v="Brannhusfjæra" />
		<tag k="natural" v="beach" />
		<tag k="place" v="locality" />
		<tag k="ssr:stedsnr" v="959637" />
	</node>
	<node id="-691480" lat="68.0086194404" lon="15.6880083274">
		<tag k="name" v="Fornesodden" />
		<tag k="natural" v="cape" />
		<tag k="ssr:stedsnr" v="959620" />
	</node>
	<node id="-691476" lat="68.0072916672" lon="15.3824527885">
		<tag k="name" v="Leirosen" />
		<tag k="natural" v="bay" />
		<tag k="ssr:stedsnr" v="959589" />
	</node>
	<node id="-689427" lat="68.1747472238" lon="15.8750833374">
		<tag k="name" v="Båtvika" />
		<tag k="natural" v="bay" />
		<tag k="ssr:stedsnr" v="109872" />
	</node>
	<node id="-689425" lat="67.9166944419" lon="15.8481666659">
		<tag k="name" v="Langodden" />
		<tag k="natural" v="cape" />
		<tag k="ssr:stedsnr" v="109847" />
	</node>
	<node id="-689422" lat="68.1287638874" lon="15.387516668">
		<tag k="name" v="Ungsmalsundet" />
		<tag k="natural" v="strait" />
		<tag k="ssr:stedsnr" v="109655" />
	</node>
	<node id="-689418" lat="68.1535444439" lon="15.6298583298">
		<tag k="name" v="Nokkvika" />
		<tag k="natural" v="bay" />
		<tag k="ssr:stedsnr" v="109598" />
	</node>
	<node id="-689415" lat="68.1492805521" lon="15.5969472148">
		<tag k="name" v="Klubben" />
		<tag k="natural" v="cape" />
		<tag k="ssr:stedsnr" v="109567" />
	</node>
	<node id="-689025" lat="68.1190749985" lon="15.616141669">
		<tag k="name" v="Mjøsundet" />
		<tag k="natural" v="strait" />
		<tag k="ssr:stedsnr" v="898514" />
	</node>
	<node id="-689411" lat="67.9923555559" lon="15.4604361033">
		<tag k="fixme" v="consider seamark:type=rock or natural=shoal" />
		<tag k="name" v="Skarvskjeret" />
		<tag k="place" v="islet" />
		<tag k="ssr:stedsnr" v="109509" />
	</node>
	<node id="-689407" lat="68.1008277791" lon="15.7268000022">
		<tag k="name" v="Nygårdshaugen" />
		<tag k="natural" v="cape" />
		<tag k="ssr:stedsnr" v="109355" />
	</node>
	<node id="-689365" lat="68.1471111152" lon="15.5221194494">
		<tag k="fixme" v="consider seamark:type=rock or natural=shoal" />
		<tag k="name" v="Svartskjeret" />
		<tag k="place" v="islet" />
		<tag k="ssr:stedsnr" v="108638" />
	</node>
	<node id="-691452" lat="68.0350972264" lon="15.404619447">
		<tag k="fixme" v="consider seamark:type=rock or natural=shoal" />
		<tag k="name" v="Kjeskjeret" />
		<tag k="place" v="islet" />
		<tag k="ssr:stedsnr" v="959186" />
	</node>
	<node id="-689023" lat="68.1337833374" lon="15.5692166559">
		<tag k="name" v="Djuposen" />
		<tag k="natural" v="strait" />
		<tag k="ssr:stedsnr" v="898490" />
	</node>
	<node id="-691447" lat="68.031258331" lon="15.5166361143">
		<tag k="name" v="Kalven" />
		<tag k="place" v="islet" />
		<tag k="ssr:stedsnr" v="959128" />
	</node>
	<node id="-691446" lat="68.0291972221" lon="15.5069861159">
		<tag k="name" v="Storøya" />
		<tag k="place" v="islet" />
		<tag k="ssr:stedsnr" v="959127" />
	</node>
	<node id="-691445" lat="68.042611114" lon="15.7188499892">
		<tag k="name" v="Orneset" />
		<tag k="natural" v="cape" />
		<tag k="ssr:stedsnr" v="959125" />
	</node>
	<node id="-691444" lat="68.0775416659" lon="15.5784583256">
		<tag k="name" v="Uteidsjyen" />
		<tag k="natural" v="bay" />
		<tag k="ssr:stedsnr" v="959104" />
	</node>
	<node id="-689395" lat="68.1718722214" lon="15.693980562">
		<tag k="name" v="Tægerbærstrenden" />
		<tag k="natural" v="beach" />
		<tag k="place" v="locality" />
		<tag k="ssr:stedsnr" v="109193" />
	</node>
	<node id="-689393" lat="68.0441833302" lon="15.6328944356">
		<tag k="name" v="Barholmen" />
		<tag k="natural" v="cape" />
		<tag k="ssr:stedsnr" v="109138" />
	</node>
	<node id="-691436" lat="68.0294111085" lon="15.7919055504">
		<tag k="name" v="Hamn" />
		<tag k="natural" v="bay" />
		<tag k="ssr:stedsnr" v="959004" />
	</node>
	<node id="-691435" lat="67.8976222238" lon="15.8568055662">
		<tag k="name" v="Sagelvodden" />
		<tag k="natural" v="cape" />
		<tag k="ssr:stedsnr" v="958971" />
	</node>
	<node id="-691433" lat="68.1256305548" lon="15.402099994">
		<tag k="name" v="Rotvika" />
		<tag k="natural" v="bay" />
		<tag k="ssr:stedsnr" v="958746" />
	</node>
	<node id="-691431" lat="68.1284305533" lon="15.6255805534">
		<tag k="name" v="Stranda" />
		<tag k="natural" v="beach" />
		<tag k="place" v="locality" />
		<tag k="ssr:stedsnr" v="958559" />
	</node>
	<node id="-691430" lat="68.1266833347" lon="15.6141111221">
		<tag k="name" v="Vassholmen" />
		<tag k="place" v="islet" />
		<tag k="ssr:stedsnr" v="958558" />
	</node>
	<node id="-689381" lat="68.0146555516" lon="15.3229305441">
		<tag k="name" v="Rørvikholmen" />
		<tag k="place" v="islet" />
		<tag k="ssr:stedsnr" v="109067" />
	</node>
	<node id="-689379" lat="68.1195944404" lon="15.6137111185">
		<tag k="name" v="Mjøsundneset" />
		<tag k="natural" v="cape" />
		<tag k="ssr:stedsnr" v="109489" />
	</node>
	<node id="-691421" lat="68.1711499991" lon="15.6822111018">
		<tag k="name" v="Steinsosøya" />
		<tag k="place" v="island" />
		<tag k="ssr:stedsnr" v="958211" />
	</node>
	<node id="-691420" lat="68.1695666708" lon="15.7011833314">
		<tag k="name" v="Båtstranda" />
		<tag k="natural" v="beach" />
		<tag k="place" v="locality" />
		<tag k="ssr:stedsnr" v="958207" />
	</node>
	<node id="-691419" lat="68.1721138927" lon="15.6890527838">
		<tag k="name" v="Karvika" />
		<tag k="natural" v="bay" />
		<tag k="ssr:stedsnr" v="958208" />
	</node>
	<node id="-691413" lat="68.1896472232" lon="15.6359083289">
		<tag k="fixme" v="consider seamark:type=rock or natural=shoal" />
		<tag k="name" v="Eggløysa" />
		<tag k="place" v="islet" />
		<tag k="ssr:stedsnr" v="946617" />
	</node>
	<node id="-691409" lat="68.0699861147" lon="15.526205554">
		<tag k="fixme" v="multiple name tags, choose one and add the other to alt_name" />
		<tag k="name" v="Brannøya;Piaholmen" />
		<tag k="place" v="islet" />
		<tag k="ssr:stedsnr" v="927992" />
	</node>
	<node id="-691408" lat="68.0717444479" lon="15.5883583236">
		<tag k="name" v="Dragsbukta" />
		<tag k="natural" v="bay" />
		<tag k="ssr:stedsnr" v="927991" />
	</node>
	<node id="-689359" lat="68.0743388894" lon="15.5337472331">
		<tag k="fixme" v="consider seamark:type=rock or natural=shoal" />
		<tag k="name" v="Flesa" />
		<tag k="place" v="islet" />
		<tag k="ssr:stedsnr" v="109017" />
	</node>
	<node id="-691406" lat="68.0541750006" lon="15.5042472264">
		<tag k="alt_name" v="Buøya, l" />
		<tag k="name" v="Litlbuøya" />
		<tag k="place" v="islet" />
		<tag k="ssr:stedsnr" v="927962" />
	</node>
	<node id="-689355" lat="68.087808336" lon="15.6209166569">
		<tag k="name" v="Vassvika" />
		<tag k="natural" v="bay" />
		<tag k="ssr:stedsnr" v="109007" />
	</node>
	<node id="-691402" lat="68.0515138909" lon="15.4742166578">
		<tag k="name" v="Arnes" />
		<tag k="natural" v="cape" />
		<tag k="ssr:stedsnr" v="927951" />
	</node>
	<node id="-691401" lat="68.0254555539" lon="15.2950222308">
		<tag k="fixme" v="multiple name tags, choose one and add the other to alt_name" />
		<tag k="name" v="Kvalbakken;Kvalbakkodden" />
		<tag k="natural" v="cape" />
		<tag k="ssr:stedsnr" v="927927" />
	</node>
	<node id="-689352" lat="68.1987055596" lon="15.7585694516">
		<tag k="name" v="Ljøsskallan" />
		<tag k="natural" v="shoal" />
		<tag k="place" v="locality" />
		<tag k="ssr:stedsnr" v="96648" />
	</node>
	<node id="-689351" lat="68.1853055531" lon="15.5991361023">
		<tag k="alt_name" v="Brosmskjæret" />
		<tag k="fixme" v="consider seamark:type=rock or natural=shoal" />
		<tag k="name" v="Brosmskjeret" />
		<tag k="place" v="islet" />
		<tag k="ssr:stedsnr" v="96640" />
	</node>
	<node id="-689350" lat="67.9927277774" lon="15.7126916768">
		<tag k="fixme" v="consider seamark:type=rock or natural=shoal" />
		<tag k="name" v="Skarvskjæret" />
		<tag k="place" v="islet" />
		<tag k="ssr:stedsnr" v="96581" />
	</node>
	<node id="-689349" lat="68.1545444415" lon="15.8396055562">
		<tag k="name" v="Langneset" />
		<tag k="natural" v="cape" />
		<tag k="ssr:stedsnr" v="96558" />
	</node>
	<node id="-689348" lat="68.1800944451" lon="15.67250834">
		<tag k="fixme" v="consider seamark:type=rock or natural=shoal" />
		<tag k="name" v="Silsandskjæret" />
		<tag k="place" v="islet" />
		<tag k="ssr:stedsnr" v="96710" />
	</node>
	<node id="-689347" lat="68.1579138881" lon="15.7209277718">
		<tag k="name" v="Hestvika" />
		<tag k="natural" v="bay" />
		<tag k="ssr:stedsnr" v="96705" />
	</node>
	<node id="-691394" lat="68.0215527796" lon="15.5501360995">
		<tag k="name" v="Byggholmbukta" />
		<tag k="natural" v="bay" />
		<tag k="ssr:stedsnr" v="927902" />
	</node>
	<node id="-691393" lat="68.0144222213" lon="15.3210277825">
		<tag k="name" v="Rørvika" />
		<tag k="natural" v="bay" />
		<tag k="ssr:stedsnr" v="927878" />
	</node>
	<node id="-691392" lat="68.0113888917" lon="15.359691662">
		<tag k="name" v="Steinslandsholmen" />
		<tag k="place" v="islet" />
		<tag k="ssr:stedsnr" v="927873" />
	</node>
	<node id="-691388" lat="68.1878555563" lon="15.8347194458">
		<tag k="name" v="Tysnesskallen" />
		<tag k="natural" v="shoal" />
		<tag k="place" v="locality" />
		<tag k="ssr:stedsnr" v="927781" />
	</node>
	<node id="-689339" lat="68.0161972185" lon="15.5175888861">
		<tag k="alt_name" v="Ramsnes;Ramsnesodden" />
		<tag k="name" v="Ramnesodden" />
		<tag k="natural" v="cape" />
		<tag k="ssr:stedsnr" v="78905" />
	</node>
	<node id="-689338" lat="68.019041671" lon="15.4721416667">
		<tag k="alt_name" v="Øllegårdskjeret" />
		<tag k="fixme" v="consider seamark:type=rock or natural=shoal" />
		<tag k="name" v="Øllegårdskjæret" />
		<tag k="place" v="islet" />
		<tag k="ssr:stedsnr" v="78903" />
	</node>
	<node id="-691385" lat="68.1749222184" lon="15.6755555638">
		<tag k="name" v="Engelsholmen" />
		<tag k="place" v="islet" />
		<tag k="ssr:stedsnr" v="927775" />
	</node>
	<node id="-689336" lat="68.0094249983" lon="15.4324694482">
		<tag k="name" v="Storstrandholmen" />
		<tag k="place" v="islet" />
		<tag k="ssr:stedsnr" v="78891" />
	</node>
	<node id="-689335" lat="68.0094333314" lon="15.5092444501">
		<tag k="alt_name" v="Kobbskjeret;Kobbskjæret" />
		<tag k="fixme" v="consider seamark:type=rock or natural=shoal" />
		<tag k="name" v="Kobbskjeran" />
		<tag k="place" v="islet" />
		<tag k="ssr:stedsnr" v="78890" />
	</node>
	<node id="-689333" lat="68.2118666711" lon="15.9292888882">
		<tag k="name" v="Tiltvikholmen" />
		<tag k="place" v="islet" />
		<tag k="ssr:stedsnr" v="78835" />
	</node>
	<node id="-691380" lat="68.1295944436" lon="15.7648194376">
		<tag k="alt_name" v="Tennholmen" />
		<tag k="name" v="Tinnholmen" />
		<tag k="place" v="island" />
		<tag k="ssr:stedsnr" v="927717" />
	</node>
	<node id="-691379" lat="68.1312888855" lon="15.7580194438">
		<tag k="name" v="Innerøya" />
		<tag k="place" v="island" />
		<tag k="ssr:stedsnr" v="927712" />
	</node>
	<node id="-689329" lat="68.1675611136" lon="15.8863833303">
		<tag k="name" v="Ramnvika" />
		<tag k="natural" v="bay" />
		<tag k="ssr:stedsnr" v="78779" />
	</node>
	<node id="-691376" lat="68.1155805601" lon="15.7195916584">
		<tag k="alt_name" v="Bergsvika" />
		<tag k="name" v="Bersvika" />
		<tag k="natural" v="bay" />
		<tag k="ssr:stedsnr" v="927701" />
	</node>
	<node id="-689327" lat="68.1467277757" lon="15.725050001">
		<tag k="name" v="Litleøya" />
		<tag k="place" v="islet" />
		<tag k="ssr:stedsnr" v="78749" />
	</node>
	<node id="-691373" lat="68.1038333306" lon="15.6704111044">
		<tag k="name" v="Kobbsteingrunnen" />
		<tag k="natural" v="shoal" />
		<tag k="place" v="locality" />
		<tag k="ssr:stedsnr" v="927682" />
	</node>
	<node id="-691372" lat="67.9990361109" lon="15.7244916587">
		<tag k="fixme" v="multiple name tags, choose one and add the other to alt_name" />
		<tag k="name" v="Hysneset;Slåttnesodden" />
		<tag k="natural" v="cape" />
		<tag k="ssr:stedsnr" v="927679" />
	</node>
	<node id="-691369" lat="67.9799027773" lon="15.8577861033">
		<tag k="name" v="Silsandbukta" />
		<tag k="natural" v="bay" />
		<tag k="ssr:stedsnr" v="927660" />
	</node>
	<node id="-689320" lat="68.1343888908" lon="15.7450527846">
		<tag k="name" v="Småtannøyan" />
		<tag k="place" v="island" />
		<tag k="ssr:stedsnr" v="78703" />
	</node>
	<node id="-691367" lat="67.9883805589" lon="15.9256416564">
		<tag k="alt_name" v="Røttangsholman" />
		<tag k="name" v="Rødtangholman" />
		<tag k="place" v="islet" />
		<tag k="ssr:stedsnr" v="927653" />
	</node>
	<node id="-689318" lat="68.1363472261" lon="15.8345111212">
		<tag k="name" v="Kilneset" />
		<tag k="natural" v="cape" />
		<tag k="ssr:stedsnr" v="78695" />
	</node>
	<node id="-689315" lat="67.9758722207" lon="15.8806083342">
		<tag k="fixme" v="multiple name tags, choose one and add the other to alt_name" />
		<tag k="name" v="Skjåneset;Skjånesodden" />
		<tag k="natural" v="cape" />
		<tag k="ssr:stedsnr" v="78668" />
	</node>
	<node id="-691357" lat="67.9897416697" lon="15.4507472288">
		<tag k="name" v="Kuholmen" />
		<tag k="place" v="islet" />
		<tag k="ssr:stedsnr" v="927620" />
	</node>
	<node id="-691356" lat="67.9883277819" lon="15.648352777">
		<tag k="name" v="Innerodden" />
		<tag k="natural" v="cape" />
		<tag k="ssr:stedsnr" v="927614" />
	</node>
	<node id="-691355" lat="67.9662194406" lon="15.4547833218">
		<tag k="alt_name" v="Mellomskjeret;Mellomskjæret" />
		<tag k="fixme" v="consider seamark:type=rock or natural=shoal" />
		<tag k="name" v="Mellaskjeret" />
		<tag k="place" v="islet" />
		<tag k="ssr:stedsnr" v="927603" />
	</node>
	<node id="-691352" lat="68.0276250018" lon="15.7597138994">
		<tag k="alt_name" v="Mølnbukta;Møllebukta" />
		<tag k="name" v="Møllnbukta" />
		<tag k="natural" v="bay" />
		<tag k="ssr:stedsnr" v="927575" />
	</node>
	<node id="-691350" lat="68.0024222261" lon="15.7648861045">
		<tag k="name" v="Hamna" />
		<tag k="natural" v="bay" />
		<tag k="ssr:stedsnr" v="927553" />
	</node>
	<node id="-691349" lat="68.0046694433" lon="15.7262305629">
		<tag k="fixme" v="multiple name tags, choose one and add the other to alt_name" />
		<tag k="name" v="Botnneset;Botnnesodden;Håkonhalsneset" />
		<tag k="natural" v="cape" />
		<tag k="ssr:stedsnr" v="927550" />
	</node>
	<node id="-689290" lat="68.1652388893" lon="15.5740611016">
		<tag k="alt_name" v="Tollefskallen" />
		<tag k="name" v="Tollevskallen" />
		<tag k="natural" v="shoal" />
		<tag k="place" v="locality" />
		<tag k="ssr:stedsnr" v="78082" />
	</node>
	<node id="-689289" lat="68.1724555541" lon="15.5890666542">
		<tag k="name" v="Bullholmen" />
		<tag k="place" v="islet" />
		<tag k="ssr:stedsnr" v="78079" />
	</node>
	<node id="-691333" lat="68.1365166677" lon="15.5635972301">
		<tag k="name" v="Hovøya" />
		<tag k="place" v="island" />
		<tag k="ssr:stedsnr" v="927120" />
	</node>
	<node id="-689284" lat="68.1024361132" lon="15.3438305484">
		<tag k="name" v="Rødegga" />
		<tag k="natural" v="cape" />
		<tag k="ssr:stedsnr" v="78024" />
	</node>
	<node id="-691331" lat="68.1334999993" lon="15.5832555495">
		<tag k="name" v="Djuposen" />
		<tag k="natural" v="bay" />
		<tag k="ssr:stedsnr" v="927118" />
	</node>
	<node id="-691329" lat="68.1323249971" lon="15.5061111175">
		<tag k="alt_name" v="Heimulneset" />
		<tag k="name" v="Høymulneset" />
		<tag k="natural" v="cape" />
		<tag k="ssr:stedsnr" v="927115" />
	</node>
	<node id="-691328" lat="68.1502888881" lon="15.4499111192">
		<tag k="name" v="Skagan" />
		<tag k="natural" v="cape" />
		<tag k="ssr:stedsnr" v="927093" />
	</node>
	<node id="-691327" lat="68.1735694454" lon="15.5735777809">
		<tag k="alt_name" v="Meskjeran" />
		<tag k="fixme" v="consider seamark:type=rock or natural=shoal" />
		<tag k="name" v="Meskjæran" />
		<tag k="place" v="islet" />
		<tag k="ssr:stedsnr" v="927085" />
	</node>
	<node id="-691326" lat="68.0738527803" lon="15.3021027838">
		<tag k="name" v="Dalsvær" />
		<tag k="place" v="island" />
		<tag k="ssr:stedsnr" v="927068" />
	</node>
	<node id="-689277" lat="67.991649999" lon="15.4658027885">
		<tag k="alt_name" v="Eholmen" />
		<tag k="fixme" v="consider seamark:type=rock or natural=shoal" />
		<tag k="name" v="Eskjeret" />
		<tag k="place" v="islet" />
		<tag k="ssr:stedsnr" v="77883" />
	</node>
	<node id="-689275" lat="68.0092999988" lon="15.6876722139">
		<tag k="alt_name" v="Fornes" />
		<tag k="name" v="Forneset" />
		<tag k="natural" v="cape" />
		<tag k="ssr:stedsnr" v="77825" />
	</node>
	<node id="-689274" lat="68.1507083327" lon="15.8882944423">
		<tag k="name" v="Kvalvika" />
		<tag k="natural" v="bay" />
		<tag k="ssr:stedsnr" v="77822" />
	</node>
	<node id="-689273" lat="68.1416888906" lon="15.8706527696">
		<tag k="alt_name" v="Kråkneset" />
		<tag k="name" v="Kråknesodden" />
		<tag k="natural" v="cape" />
		<tag k="ssr:stedsnr" v="77819" />
	</node>
	<node id="-691320" lat="68.1187833313" lon="15.4952888859">
		<tag k="alt_name" v="Hamnsundpollen" />
		<tag k="name" v="Hamsundpollen" />
		<tag k="natural" v="bay" />
		<tag k="ssr:stedsnr" v="927017" />
	</node>
	<node id="-691317" lat="68.0061611088" lon="15.4806416661">
		<tag k="fixme" v="multiple name tags, choose one and add the other to alt_name" />
		<tag k="name" v="Kleppfiskholmen;Klippfiskbergan" />
		<tag k="place" v="islet" />
		<tag k="ssr:stedsnr" v="927856" />
	</node>
	<node id="-691315" lat="68.2083361131" lon="15.8753333321">
		<tag k="name" v="Hornneset" />
		<tag k="natural" v="cape" />
		<tag k="ssr:stedsnr" v="927835" />
	</node>
	<node id="-691314" lat="68.1601305522" lon="15.8432999922">
		<tag k="name" v="Buøyneset" />
		<tag k="natural" v="cape" />
		<tag k="ssr:stedsnr" v="927832" />
	</node>
	<node id="-689265" lat="67.9866694458" lon="15.4822277757">
		<tag k="name" v="Bollingvika" />
		<tag k="natural" v="bay" />
		<tag k="ssr:stedsnr" v="77634" />
	</node>
	<node id="-691306" lat="68.0137055561" lon="15.4411888786">
		<tag k="fixme" v="consider seamark:type=rock or natural=shoal" />
		<tag k="name" v="Bergskjeret" />
		<tag k="place" v="islet" />
		<tag k="ssr:stedsnr" v="867887" />
	</node>
	<node id="-691305" lat="68.0077750044" lon="15.4874888835">
		<tag k="name" v="Finnøyvika" />
		<tag k="natural" v="bay" />
		<tag k="ssr:stedsnr" v="867867" />
	</node>
	<node id="-691304" lat="68.050475004" lon="15.4940666585">
		<tag k="name" v="Buøya" />
		<tag k="place" v="island" />
		<tag k="ssr:stedsnr" v="867850" />
	</node>
	<node id="-691303" lat="68.1936888911" lon="15.8514749938">
		<tag k="name" v="Kvalvika" />
		<tag k="natural" v="bay" />
		<tag k="ssr:stedsnr" v="867803" />
	</node>
	<node id="-689254" lat="68.1461555554" lon="15.5521416546">
		<tag k="name" v="Buøya" />
		<tag k="place" v="island" />
		<tag k="ssr:stedsnr" v="77091" />
	</node>
	<node id="-691301" lat="68.1629305532" lon="15.7769527833">
		<tag k="alt_name" v="Trinnøya, l" />
		<tag k="name" v="Litl Trinnøya" />
		<tag k="place" v="island" />
		<tag k="ssr:stedsnr" v="867774" />
	</node>
	<node id="-689252" lat="68.1546194491" lon="15.4979944357">
		<tag k="name" v="Selsøyvika" />
		<tag k="natural" v="bay" />
		<tag k="ssr:stedsnr" v="77081" />
	</node>
	<node id="-691299" lat="68.0998249977" lon="15.7671250078">
		<tag k="name" v="Finnhamna" />
		<tag k="natural" v="bay" />
		<tag k="ssr:stedsnr" v="867683" />
	</node>
	<node id="-689249" lat="67.9171861144" lon="15.8723555577">
		<tag k="name" v="Nesodden" />
		<tag k="natural" v="cape" />
		<tag k="ssr:stedsnr" v="49979" />
	</node>
	<node id="-688656" lat="68.0174833371" lon="15.4699416601">
		<tag k="fixme" v="consider seamark:type=rock or natural=shoal" />
		<tag k="name" v="Øllegårdsundet" />
		<tag k="place" v="islet" />
		<tag k="ssr:stedsnr" v="352035" />
	</node>
	<node id="-691386" lat="68.1680722202" lon="15.7759833214">
		<tag k="alt_name" v="Store Trinnøya" />
		<tag k="name" v="Trinnøya" />
		<tag k="place" v="island" />
		<tag k="ssr:stedsnr" v="927776" />
	</node>
	<node id="-689242" lat="68.1511611073" lon="15.9043111196">
		<tag k="name" v="Moltbærmyrstranda" />
		<tag k="natural" v="beach" />
		<tag k="place" v="locality" />
		<tag k="ssr:stedsnr" v="49736" />
	</node>
	<node id="-691289" lat="68.1728444469" lon="15.6162472257">
		<tag k="name" v="Langneset" />
		<tag k="natural" v="cape" />
		<tag k="ssr:stedsnr" v="867103" />
	</node>
	<node id="-691284" lat="68.1233194482" lon="15.5615694385">
		<tag k="name" v="Kulvågen" />
		<tag k="natural" v="bay" />
		<tag k="ssr:stedsnr" v="867010" />
	</node>
	<node id="-689233" lat="67.9942944478" lon="15.6912361084">
		<tag k="name" v="Lundstrandholmen" />
		<tag k="natural" v="cape" />
		<tag k="ssr:stedsnr" v="49670" />
	</node>
	<node id="-688540" lat="68.1239055575" lon="15.5193222139">
		<tag k="name" v="Spannholmen" />
		<tag k="place" v="islet" />
		<tag k="ssr:stedsnr" v="320012" />
	</node>
	<node id="-691277" lat="68.0342055569" lon="15.4353805668">
		<tag k="alt_name" v="Forøyhamn, l;Litlforrøyhamn" />
		<tag k="name" v="Litle Forøyhamn" />
		<tag k="natural" v="bay" />
		<tag k="ssr:stedsnr" v="866898" />
	</node>
	<node id="-691274" lat="68.0064333305" lon="15.5128194511">
		<tag k="name" v="Litlvika" />
		<tag k="natural" v="bay" />
		<tag k="ssr:stedsnr" v="866831" />
	</node>
	<node id="-691383" lat="68.1669388917" lon="15.8067916691">
		<tag k="alt_name" v="Krokskjeran" />
		<tag k="fixme" v="consider seamark:type=rock or natural=shoal" />
		<tag k="name" v="Krokskjæran" />
		<tag k="place" v="islet" />
		<tag k="ssr:stedsnr" v="927764" />
	</node>
	<node id="-691272" lat="68.2053249983" lon="15.8947222217">
		<tag k="name" v="Hysvika" />
		<tag k="natural" v="bay" />
		<tag k="ssr:stedsnr" v="866825" />
	</node>
	<node id="-691267" lat="68.1536749984" lon="15.8236611085">
		<tag k="alt_name" v="Naversvågen" />
		<tag k="name" v="Navarsvågen" />
		<tag k="natural" v="bay" />
		<tag k="ssr:stedsnr" v="866708" />
	</node>
	<node id="-691264" lat="67.9959249978" lon="15.7822527805">
		<tag k="name" v="Kråkvika" />
		<tag k="natural" v="bay" />
		<tag k="ssr:stedsnr" v="866666" />
	</node>
	<node id="-691262" lat="67.9865111114" lon="15.821744435">
		<tag k="name" v="Oterågskallen" />
		<tag k="natural" v="shoal" />
		<tag k="place" v="locality" />
		<tag k="ssr:stedsnr" v="866639" />
	</node>
	<node id="-689213" lat="68.0555611125" lon="15.4994888975">
		<tag k="name" v="Laksosen" />
		<tag k="natural" v="bay" />
		<tag k="ssr:stedsnr" v="49335" />
	</node>
	<node id="-688991" lat="68.0449805578" lon="15.7816777673">
		<tag k="name" v="Kallvågøya" />
		<tag k="place" v="islet" />
		<tag k="ssr:stedsnr" v="898132" />
	</node>
	<node id="-691254" lat="67.9867611138" lon="15.3869916595">
		<tag k="name" v="Hundsøya" />
		<tag k="place" v="island" />
		<tag k="ssr:stedsnr" v="866602" />
	</node>
	<node id="-691251" lat="68.0374222211" lon="15.8613166674">
		<tag k="name" v="Kløtterneset" />
		<tag k="natural" v="cape" />
		<tag k="ssr:stedsnr" v="866542" />
	</node>
	<node id="-688465" lat="68.2214250014" lon="15.91436111">
		<tag k="name" v="Åsphaugflua" />
		<tag k="natural" v="shoal" />
		<tag k="place" v="locality" />
		<tag k="ssr:stedsnr" v="279162" />
	</node>
	<node id="-689197" lat="68.0145138894" lon="15.330552767">
		<tag k="name" v="Sandan" />
		<tag k="natural" v="beach" />
		<tag k="place" v="locality" />
		<tag k="ssr:stedsnr" v="49114" />
	</node>
	<node id="-691243" lat="67.9142250027" lon="15.8634305516">
		<tag k="name" v="Langosen" />
		<tag k="natural" v="bay" />
		<tag k="ssr:stedsnr" v="866376" />
	</node>
	<node id="-691232" lat="68.1460999985" lon="15.6121916638">
		<tag k="alt_name" v="Brennvika" />
		<tag k="name" v="Brennvik" />
		<tag k="natural" v="bay" />
		<tag k="ssr:stedsnr" v="866066" />
	</node>
	<node id="-689183" lat="68.1624555566" lon="15.8739861051">
		<tag k="name" v="Klubbvik" />
		<tag k="natural" v="bay" />
		<tag k="ssr:stedsnr" v="48886" />
	</node>
	<node id="-691230" lat="68.1519333323" lon="15.5670666663">
		<tag k="name" v="Buøyodden" />
		<tag k="natural" v="cape" />
		<tag k="ssr:stedsnr" v="866053" />
	</node>
	<node id="-691226" lat="68.0476916675" lon="15.6069944413">
		<tag k="name" v="Rødsanden" />
		<tag k="natural" v="bay" />
		<tag k="ssr:stedsnr" v="866927" />
	</node>
	<node id="-691225" lat="68.0357027797" lon="15.4183139007">
		<tag k="name" v="Slettneset" />
		<tag k="natural" v="cape" />
		<tag k="ssr:stedsnr" v="866915" />
	</node>
	<node id="-691219" lat="68.1482805531" lon="15.4596111218">
		<tag k="name" v="Gammelbukta" />
		<tag k="natural" v="bay" />
		<tag k="ssr:stedsnr" v="838930" />
	</node>
	<node id="-691214" lat="67.9642666673" lon="15.9190027778">
		<tag k="fixme" v="consider seamark:type=rock or natural=shoal" />
		<tag k="name" v="Storskjeret" />
		<tag k="place" v="islet" />
		<tag k="ssr:stedsnr" v="838796" />
	</node>
	<node id="-689163" lat="68.1688277769" lon="15.7248972278">
		<tag k="fixme" v="consider seamark:type=rock or natural=shoal" />
		<tag k="name" v="Sommarselskjæran" />
		<tag k="place" v="islet" />
		<tag k="ssr:stedsnr" v="35722" />
	</node>
	<node id="-689162" lat="67.9843555554" lon="15.8380555484">
		<tag k="alt_name" v="Korsstrand" />
		<tag k="name" v="Korsstranda" />
		<tag k="natural" v="beach" />
		<tag k="place" v="locality" />
		<tag k="ssr:stedsnr" v="35606" />
	</node>
	<node id="-691209" lat="67.9940722183" lon="15.9281083387">
		<tag k="name" v="Rødlangsbukta" />
		<tag k="natural" v="bay" />
		<tag k="ssr:stedsnr" v="838744" />
	</node>
	<node id="-689160" lat="67.9192527805" lon="15.8502888935">
		<tag k="name" v="Liskallen" />
		<tag k="natural" v="shoal" />
		<tag k="place" v="locality" />
		<tag k="ssr:stedsnr" v="35576" />
	</node>
	<node id="-689159" lat="67.9705583325" lon="15.9097583295">
		<tag k="alt_name" v="Litlestraumen" />
		<tag k="name" v="Litlstraumen" />
		<tag k="natural" v="strait" />
		<tag k="ssr:stedsnr" v="35557" />
	</node>
	<node id="-691206" lat="68.1356416652" lon="15.41336389">
		<tag k="name" v="Kristenhamn" />
		<tag k="natural" v="strait" />
		<tag k="ssr:stedsnr" v="838727" />
	</node>
	<node id="-689157" lat="67.9821916652" lon="15.5310111217">
		<tag k="alt_name" v="Tjeldskjæret" />
		<tag k="fixme" v="consider seamark:type=rock or natural=shoal" />
		<tag k="name" v="Tjeldskjeret" />
		<tag k="place" v="islet" />
		<tag k="ssr:stedsnr" v="35110" />
	</node>
	<node id="-689156" lat="67.9941666685" lon="15.4387805614">
		<tag k="name" v="Kattholmen" />
		<tag k="place" v="islet" />
		<tag k="ssr:stedsnr" v="35104" />
	</node>
	<node id="-689155" lat="68.0588805559" lon="15.5473638796">
		<tag k="name" v="Leistraumen" />
		<tag k="natural" v="strait" />
		<tag k="ssr:stedsnr" v="35036" />
	</node>
	<node id="-691200" lat="68.141483337" lon="15.6207027664">
		<tag k="name" v="Naustbergan" />
		<tag k="natural" v="cape" />
		<tag k="ssr:stedsnr" v="838650" />
	</node>
	<node id="-691195" lat="67.9908583342" lon="15.4400638992">
		<tag k="name" v="Sørøya" />
		<tag k="place" v="island" />
		<tag k="ssr:stedsnr" v="838602" />
	</node>
	<node id="-689145" lat="68.0328972206" lon="15.2968638995">
		<tag k="name" v="Utåkervika" />
		<tag k="natural" v="bay" />
		<tag k="ssr:stedsnr" v="17921" />
	</node>
	<node id="-689144" lat="67.9929527784" lon="15.6775861">
		<tag k="name" v="Heststranda" />
		<tag k="natural" v="cape" />
		<tag k="ssr:stedsnr" v="17916" />
	</node>
	<node id="-689141" lat="68.0191944404" lon="15.3063222139">
		<tag k="alt_name" v="Jektvikklubben" />
		<tag k="name" v="Jektvikhammaren" />
		<tag k="natural" v="cape" />
		<tag k="ssr:stedsnr" v="17911" />
	</node>
	<node id="-689140" lat="67.990936108" lon="15.4467277721">
		<tag k="alt_name" v="Ungsmaløyan" />
		<tag k="name" v="Ungsmaløya" />
		<tag k="place" v="island" />
		<tag k="ssr:stedsnr" v="17902" />
	</node>
	<node id="-689138" lat="67.9902388859" lon="15.4230833218">
		<tag k="name" v="Svarvstraumen" />
		<tag k="natural" v="strait" />
		<tag k="ssr:stedsnr" v="17900" />
	</node>
	<node id="-689136" lat="68.010663891" lon="15.3390361097">
		<tag k="alt_name" v="Brorskjeret" />
		<tag k="fixme" v="consider seamark:type=rock or natural=shoal" />
		<tag k="name" v="Brorskjæret" />
		<tag k="place" v="islet" />
		<tag k="ssr:stedsnr" v="17875" />
	</node>
	<node id="-691368" lat="67.9744722192" lon="15.9025722116">
		<tag k="alt_name" v="Strømsnesøya" />
		<tag k="name" v="Straumsnesøya" />
		<tag k="place" v="island" />
		<tag k="ssr:stedsnr" v="927659" />
	</node>
	<node id="-689134" lat="68.0481499999" lon="15.5609749938">
		<tag k="fixme" v="multiple name tags, choose one and add the other to alt_name" />
		<tag k="name" v="Jektholmen;Leiholmen" />
		<tag k="place" v="islet" />
		<tag k="ssr:stedsnr" v="17848" />
	</node>
	<node id="-689132" lat="68.2014694459" lon="15.8575444406">
		<tag k="name" v="Hellneset" />
		<tag k="natural" v="cape" />
		<tag k="ssr:stedsnr" v="17828" />
	</node>
	<node id="-691178" lat="68.0602499973" lon="15.6287611057">
		<tag k="name" v="Glimsjøen" />
		<tag k="natural" v="bay" />
		<tag k="ssr:stedsnr" v="838330" />
	</node>
	<node id="-691177" lat="68.0579277775" lon="15.5099194477">
		<tag k="name" v="Naustholmen" />
		<tag k="natural" v="cape" />
		<tag k="ssr:stedsnr" v="838323" />
	</node>
	<node id="-689126" lat="68.1621833365" lon="15.8337055659">
		<tag k="fixme" v="consider seamark:type=rock or natural=shoal" />
		<tag k="name" v="Langskjer" />
		<tag k="place" v="islet" />
		<tag k="ssr:stedsnr" v="17785" />
	</node>
	<node id="-689123" lat="68.1270916704" lon="15.752211113">
		<tag k="name" v="Holmgrunnen" />
		<tag k="natural" v="shoal" />
		<tag k="place" v="locality" />
		<tag k="ssr:stedsnr" v="17749" />
	</node>
	<node id="-691169" lat="68.0386722186" lon="15.2882916761">
		<tag k="name" v="Kvithella" />
		<tag k="natural" v="cape" />
		<tag k="ssr:stedsnr" v="838261" />
	</node>
	<node id="-689120" lat="68.134558332" lon="15.7445972279">
		<tag k="name" v="Brannøya" />
		<tag k="place" v="island" />
		<tag k="ssr:stedsnr" v="17734" />
	</node>
	<node id="-689119" lat="67.9969777757" lon="15.7620638769">
		<tag k="fixme" v="multiple name tags, choose one and add the other to alt_name" />
		<tag k="name" v="Karlsøyholmen;Klingenbergøya" />
		<tag k="place" v="islet" />
		<tag k="ssr:stedsnr" v="17723" />
	</node>
	<node id="-689118" lat="68.1058027781" lon="15.7065610993">
		<tag k="alt_name" v="Mulen" />
		<tag k="name" v="Tømmeråsmulen" />
		<tag k="natural" v="cape" />
		<tag k="ssr:stedsnr" v="17694" />
	</node>
	<node id="-691161" lat="68.0487277754" lon="15.4783999878">
		<tag k="fixme" v="consider seamark:type=rock or natural=shoal" />
		<tag k="name" v="Kråknesskjeran" />
		<tag k="place" v="islet" />
		<tag k="ssr:stedsnr" v="838211" />
	</node>
	<node id="-691159" lat="68.0406333318" lon="15.5309805478">
		<tag k="name" v="Nesstraumen" />
		<tag k="place" v="locality" />
		<tag k="ssr:stedsnr" v="838172" />
	</node>
	<node id="-691158" lat="68.0508611132" lon="15.8137972267">
		<tag k="name" v="Skipvågneset" />
		<tag k="natural" v="cape" />
		<tag k="ssr:stedsnr" v="838144" />
	</node>
	<node id="-689109" lat="67.9697249996" lon="15.4448361074">
		<tag k="fixme" v="multiple name tags, choose one and add the other to alt_name; consider seamark:type=rock or natural=shoal" />
		<tag k="name" v="Kvamskjeret;Kvannskjeret" />
		<tag k="place" v="islet" />
		<tag k="ssr:stedsnr" v="17619" />
	</node>
	<node id="-688632" lat="68.1753583333" lon="15.6260916579">
		<tag k="name" v="Osan" />
		<tag k="natural" v="bay" />
		<tag k="ssr:stedsnr" v="339611" />
	</node>
	<node id="-688631" lat="67.9944749959" lon="15.785266664">
		<tag k="name" v="Silsandvika" />
		<tag k="natural" v="bay" />
		<tag k="ssr:stedsnr" v="339541" />
	</node>
	<node id="-688972" lat="68.215450001" lon="15.9275027693">
		<tag k="name" v="Sørflua" />
		<tag k="natural" v="shoal" />
		<tag k="place" v="locality" />
		<tag k="ssr:stedsnr" v="886193" />
	</node>
	<node id="-689093" lat="68.0180750024" lon="15.9082027765">
		<tag k="name" v="Klubben" />
		<tag k="natural" v="cape" />
		<tag k="ssr:stedsnr" v="16817" />
	</node>
	<node id="-691140" lat="67.9945583337" lon="15.787027771">
		<tag k="name" v="Silsanden" />
		<tag k="natural" v="beach" />
		<tag k="place" v="locality" />
		<tag k="ssr:stedsnr" v="837729" />
	</node>
	<node id="-691137" lat="67.9888916625" lon="15.5257888841">
		<tag k="name" v="Sirøyvalen" />
		<tag k="natural" v="strait" />
		<tag k="ssr:stedsnr" v="837684" />
	</node>
	<node id="-691134" lat="68.1319500003" lon="15.5487555447">
		<tag k="name" v="Alkpollen" />
		<tag k="natural" v="bay" />
		<tag k="ssr:stedsnr" v="837508" />
	</node>
	<node id="-691133" lat="68.0253750017" lon="15.864466666">
		<tag k="name" v="Storvika" />
		<tag k="natural" v="bay" />
		<tag k="ssr:stedsnr" v="837497" />
	</node>
	<node id="-691132" lat="68.0262416632" lon="15.873908321">
		<tag k="name" v="Klubben" />
		<tag k="natural" v="cape" />
		<tag k="ssr:stedsnr" v="837491" />
	</node>
	<node id="-691131" lat="68.1231472188" lon="15.5227000025">
		<tag k="name" v="Trollbukta" />
		<tag k="natural" v="bay" />
		<tag k="ssr:stedsnr" v="837488" />
	</node>
	<node id="-691130" lat="68.0287000015" lon="15.8104472213">
		<tag k="name" v="Ytterbakken" />
		<tag k="natural" v="strait" />
		<tag k="ssr:stedsnr" v="837479" />
	</node>
	<node id="-691121" lat="68.1618194448" lon="15.8727333279">
		<tag k="name" v="Nordkilklubben" />
		<tag k="natural" v="cape" />
		<tag k="ssr:stedsnr" v="825510" />
	</node>
	<node id="-691120" lat="68.1806499962" lon="15.6351805461">
		<tag k="name" v="Tranøy" />
		<tag k="natural" v="cape" />
		<tag k="ssr:stedsnr" v="825354" />
	</node>
	<node id="-689353" lat="68.205897226" lon="15.9030499924">
		<tag k="name" v="Hysvikskallen" />
		<tag k="natural" v="shoal" />
		<tag k="place" v="locality" />
		<tag k="ssr:stedsnr" v="97204" />
	</node>
	<node id="-691118" lat="68.0733555553" lon="15.3042083218">
		<tag k="name" v="Dalsøya" />
		<tag k="place" v="island" />
		<tag k="ssr:stedsnr" v="825143" />
	</node>
	<node id="-691117" lat="68.126622222" lon="15.8725361116">
		<tag k="fixme" v="consider seamark:type=rock or natural=shoal" />
		<tag k="name" v="Kobbskjæret" />
		<tag k="place" v="islet" />
		<tag k="ssr:stedsnr" v="824582" />
	</node>
	<node id="-691116" lat="68.1449361104" lon="15.7430694376">
		<tag k="name" v="Tannøysundet" />
		<tag k="natural" v="strait" />
		<tag k="ssr:stedsnr" v="824503" />
	</node>
	<node id="-691115" lat="67.9868416669" lon="15.3548305528">
		<tag k="name" v="Monskallen" />
		<tag k="natural" v="shoal" />
		<tag k="place" v="locality" />
		<tag k="ssr:stedsnr" v="824155" />
	</node>
	<node id="-691112" lat="68.0615055521" lon="15.5293694548">
		<tag k="name" v="Gardøya" />
		<tag k="place" v="island" />
		<tag k="ssr:stedsnr" v="806960" />
	</node>
	<node id="-689063" lat="68.1356027784" lon="15.4090833243">
		<tag k="name" v="Revet" />
		<tag k="natural" v="cape" />
		<tag k="ssr:stedsnr" v="413723" />
	</node>
	<node id="-691110" lat="68.0682611151" lon="15.5807111072">
		<tag k="name" v="Kvernneset" />
		<tag k="natural" v="cape" />
		<tag k="ssr:stedsnr" v="806957" />
	</node>
	<node id="-691108" lat="68.0592611129" lon="15.579038885">
		<tag k="name" v="Nautøya" />
		<tag k="place" v="island" />
		<tag k="ssr:stedsnr" v="806950" />
	</node>
	<node id="-688966" lat="68.1843861123" lon="15.6001499941">
		<tag k="name" v="Stangholmen" />
		<tag k="place" v="islet" />
		<tag k="ssr:stedsnr" v="885627" />
	</node>
	<node id="-688807" lat="68.192633333" lon="15.7750027786">
		<tag k="alt_name" v="Pundsgrunnen" />
		<tag k="name" v="Pundgrunnen" />
		<tag k="natural" v="shoal" />
		<tag k="place" v="locality" />
		<tag k="ssr:stedsnr" v="381820" />
	</node>
	<node id="-691105" lat="68.0433305575" lon="15.4911999888">
		<tag k="alt_name" v="Leiskjeret" />
		<tag k="fixme" v="consider seamark:type=rock or natural=shoal" />
		<tag k="name" v="Leiskjæret" />
		<tag k="place" v="islet" />
		<tag k="ssr:stedsnr" v="806922" />
	</node>
	<node id="-691104" lat="67.9991666676" lon="15.7058999881">
		<tag k="name" v="Klingenbergøya" />
		<tag k="place" v="islet" />
		<tag k="ssr:stedsnr" v="806913" />
	</node>
	<node id="-691102" lat="68.0377805535" lon="15.6588555666">
		<tag k="alt_name" v="Kallvågfjorden" />
		<tag k="bay" v="fjord" />
		<tag k="name" v="Kaldvågfjorden" />
		<tag k="natural" v="bay" />
		<tag k="ssr:stedsnr" v="806910" />
	</node>
	<node id="-691099" lat="68.0298055587" lon="15.4180194496">
		<tag k="alt_name" v="Oksholmstraumen" />
		<tag k="name" v="Forøystraumen" />
		<tag k="natural" v="strait" />
		<tag k="ssr:stedsnr" v="806907" />
	</node>
	<node id="-691098" lat="68.2105138901" lon="15.9466888785">
		<tag k="name" v="Tiltvika" />
		<tag k="natural" v="bay" />
		<tag k="ssr:stedsnr" v="806844" />
	</node>
	<node id="-691095" lat="68.1888694485" lon="15.8489861089">
		<tag k="name" v="Støvika" />
		<tag k="natural" v="bay" />
		<tag k="ssr:stedsnr" v="806796" />
	</node>
	<node id="-688963" lat="67.9927111073" lon="15.7788194472">
		<tag k="alt_name" v="Skallskjæran" />
		<tag k="fixme" v="consider seamark:type=rock or natural=shoal" />
		<tag k="name" v="Skallskjeret" />
		<tag k="place" v="islet" />
		<tag k="ssr:stedsnr" v="885568" />
	</node>
	<node id="-689036" lat="68.1342666629" lon="15.4151833258">
		<tag k="name" v="Stongvalen" />
		<tag k="natural" v="strait" />
		<tag k="ssr:stedsnr" v="898696" />
	</node>
	<node id="-689031" lat="67.9972916694" lon="15.7027999887">
		<tag k="name" v="Sauøysteinen" />
		<tag k="natural" v="cape" />
		<tag k="ssr:stedsnr" v="898621" />
	</node>
	<node id="-691077" lat="67.9910833358" lon="15.6440444517">
		<tag k="name" v="Mølnstranda" />
		<tag k="natural" v="beach" />
		<tag k="place" v="locality" />
		<tag k="ssr:stedsnr" v="806602" />
	</node>
	<node id="-691076" lat="68.051905557" lon="15.7765750033">
		<tag k="name" v="Grunnvågen" />
		<tag k="natural" v="bay" />
		<tag k="ssr:stedsnr" v="806589" />
	</node>
	<node id="-689027" lat="68.134611109" lon="15.7100111126">
		<tag k="name" v="Kleksbergan" />
		<tag k="natural" v="cape" />
		<tag k="ssr:stedsnr" v="898541" />
	</node>
	<node id="-691073" lat="68.0222833321" lon="15.8916777859">
		<tag k="alt_name" v="Fugleskjer" />
		<tag k="fixme" v="consider seamark:type=rock or natural=shoal" />
		<tag k="name" v="Fugleskjæret" />
		<tag k="place" v="islet" />
		<tag k="ssr:stedsnr" v="806572" />
	</node>
	<node id="-691072" lat="68.0347222207" lon="15.889383328">
		<tag k="name" v="Spjutneset" />
		<tag k="natural" v="cape" />
		<tag k="ssr:stedsnr" v="806545" />
	</node>
	<node id="-691071" lat="68.0075083379" lon="15.7490444374">
		<tag k="alt_name" v="Kjelbergvika" />
		<tag k="name" v="Tjeldbergvika" />
		<tag k="natural" v="bay" />
		<tag k="ssr:stedsnr" v="806524" />
	</node>
	<node id="-689019" lat="68.130513888" lon="15.88848055">
		<tag k="name" v="Hamnneset" />
		<tag k="natural" v="cape" />
		<tag k="ssr:stedsnr" v="898461" />
	</node>
	<node id="-688959" lat="67.9725138879" lon="15.3814444534">
		<tag k="name" v="Husøyvær" />
		<tag k="place" v="island" />
		<tag k="ssr:stedsnr" v="885091" />
	</node>
	<node id="-689015" lat="68.1370916673" lon="15.8846583273">
		<tag k="name" v="Stranda" />
		<tag k="natural" v="beach" />
		<tag k="place" v="locality" />
		<tag k="ssr:stedsnr" v="898380" />
	</node>
	<node id="-691056" lat="68.1316472219" lon="15.5138972277">
		<tag k="name" v="Straumholmen" />
		<tag k="place" v="islet" />
		<tag k="ssr:stedsnr" v="806111" />
	</node>
	<node id="-691055" lat="68.1378666626" lon="15.5160638989">
		<tag k="name" v="Litløya" />
		<tag k="place" v="islet" />
		<tag k="ssr:stedsnr" v="806102" />
	</node>
	<node id="-691051" lat="68.1659361131" lon="15.6018166746">
		<tag k="name" v="Flatholmen" />
		<tag k="place" v="islet" />
		<tag k="ssr:stedsnr" v="806076" />
	</node>
	<node id="-691048" lat="68.0878305564" lon="15.3307277707">
		<tag k="name" v="Nordlandsvika" />
		<tag k="natural" v="bay" />
		<tag k="ssr:stedsnr" v="806046" />
	</node>
	<node id="-691047" lat="68.1080305529" lon="15.6103861036">
		<tag k="bay" v="fjord" />
		<tag k="fixme" v="multiple name tags, choose one and add the other to alt_name" />
		<tag k="name" v="Kulfjorden;Kulpollen" />
		<tag k="natural" v="bay" />
		<tag k="ssr:stedsnr" v="806032" />
	</node>
	<node id="-691046" lat="68.1079972247" lon="15.3726694532">
		<tag k="name" v="Straumhamn" />
		<tag k="natural" v="bay" />
		<tag k="ssr:stedsnr" v="806029" />
	</node>
	<node id="-688995" lat="68.1625944397" lon="15.693066676">
		<tag k="name" v="Kalvneset" />
		<tag k="natural" v="cape" />
		<tag k="ssr:stedsnr" v="898196" />
	</node>
	<node id="-691042" lat="68.1177166688" lon="15.3978805646">
		<tag k="fixme" v="consider seamark:type=rock or natural=shoal" />
		<tag k="name" v="Lendingskjeret" />
		<tag k="place" v="islet" />
		<tag k="ssr:stedsnr" v="806003" />
	</node>
	<node id="-691040" lat="67.9919111072" lon="15.4308305456">
		<tag k="alt_name" v="Langskjeret" />
		<tag k="name" v="Langskjæret" />
		<tag k="place" v="islet" />
		<tag k="ssr:stedsnr" v="805879" />
	</node>
	<node id="-691039" lat="67.9910166655" lon="15.353580555">
		<tag k="name" v="Langgrunnen" />
		<tag k="natural" v="shoal" />
		<tag k="place" v="locality" />
		<tag k="ssr:stedsnr" v="805875" />
	</node>
	<node id="-691038" lat="68.001863892" lon="15.4117833328">
		<tag k="name" v="Neset" />
		<tag k="natural" v="cape" />
		<tag k="ssr:stedsnr" v="805810" />
	</node>
	<node id="-691037" lat="68.0060277792" lon="15.4668777737">
		<tag k="name" v="Litløya" />
		<tag k="place" v="islet" />
		<tag k="ssr:stedsnr" v="805809" />
	</node>
	<node id="-691036" lat="68.1653944455" lon="15.84563612">
		<tag k="alt_name" v="Revskjeret" />
		<tag k="fixme" v="consider seamark:type=rock or natural=shoal" />
		<tag k="name" v="Revskjæran" />
		<tag k="place" v="islet" />
		<tag k="ssr:stedsnr" v="805744" />
	</node>
	<node id="-691035" lat="68.1579138861" lon="15.6300944355">
		<tag k="fixme" v="multiple name tags, choose one and add the other to alt_name" />
		<tag k="name" v="Hellevika;Nokkvikhellvika" />
		<tag k="natural" v="bay" />
		<tag k="ssr:stedsnr" v="805717" />
	</node>
	<node id="-691034" lat="68.1484555591" lon="15.8972055667">
		<tag k="alt_name" v="Nesset" />
		<tag k="name" v="Neset" />
		<tag k="natural" v="cape" />
		<tag k="ssr:stedsnr" v="805712" />
	</node>
	<node id="-688600" lat="68.0745361132" lon="15.6361138881">
		<tag k="name" v="Svinøya" />
		<tag k="place" v="island" />
		<tag k="ssr:stedsnr" v="320832" />
	</node>
	<node id="-691029" lat="67.9199499998" lon="15.8470944517">
		<tag k="name" v="Skurkskallen" />
		<tag k="natural" v="shoal" />
		<tag k="place" v="locality" />
		<tag k="ssr:stedsnr" v="805399" />
	</node>
	<node id="-691025" lat="68.1475027817" lon="15.519363891">
		<tag k="name" v="Holmneset" />
		<tag k="natural" v="cape" />
		<tag k="ssr:stedsnr" v="805096" />
	</node>
	<node id="-688976" lat="68.0184000021" lon="15.7202666646">
		<tag k="name" v="Pålnesodden" />
		<tag k="natural" v="cape" />
		<tag k="ssr:stedsnr" v="898027" />
	</node>
	<node id="-691020" lat="67.9068999963" lon="15.8665166633">
		<tag k="name" v="Sagneset" />
		<tag k="natural" v="cape" />
		<tag k="ssr:stedsnr" v="777994" />
	</node>
	<node id="-688971" lat="68.2235027814" lon="15.9407277717">
		<tag k="name" v="Tunvikflua" />
		<tag k="natural" v="shoal" />
		<tag k="place" v="locality" />
		<tag k="ssr:stedsnr" v="886140" />
	</node>
	<node id="-691018" lat="67.9147611074" lon="15.8430111088">
		<tag k="name" v="Liosen" />
		<tag k="natural" v="bay" />
		<tag k="ssr:stedsnr" v="777965" />
	</node>
	<node id="-688969" lat="68.1395027796" lon="15.5288472292">
		<tag k="fixme" v="consider seamark:type=rock or natural=shoal" />
		<tag k="name" v="Rørskjæret" />
		<tag k="place" v="islet" />
		<tag k="ssr:stedsnr" v="885965" />
	</node>
	<node id="-688968" lat="68.1371305516" lon="15.5224416716">
		<tag k="fixme" v="consider seamark:type=rock or natural=shoal" />
		<tag k="name" v="Russeskjæret" />
		<tag k="place" v="islet" />
		<tag k="ssr:stedsnr" v="885966" />
	</node>
	<node id="-688967" lat="68.1364249979" lon="15.7218972096">
		<tag k="fixme" v="multiple name tags, choose one and add the other to alt_name" />
		<tag k="name" v="Leirvågøya;Storøya" />
		<tag k="place" v="island" />
		<tag k="ssr:stedsnr" v="885681" />
	</node>
	<node id="-691014" lat="68.1738166636" lon="15.8801111098">
		<tag k="name" v="Skarvika" />
		<tag k="natural" v="bay" />
		<tag k="ssr:stedsnr" v="777865" />
	</node>
	<node id="-688965" lat="68.1321805552" lon="15.8796916681">
		<tag k="name" v="Hamngrunnen" />
		<tag k="natural" v="shoal" />
		<tag k="place" v="locality" />
		<tag k="ssr:stedsnr" v="885581" />
	</node>
	<node id="-688964" lat="67.999033337" lon="15.7245166679">
		<tag k="name" v="Slottneset" />
		<tag k="natural" v="cape" />
		<tag k="ssr:stedsnr" v="885576" />
	</node>
	<node id="-691011" lat="67.927136114" lon="15.8762361206">
		<tag k="name" v="Telvikodden" />
		<tag k="natural" v="cape" />
		<tag k="ssr:stedsnr" v="777822" />
	</node>
	<node id="-688962" lat="68.1302388877" lon="15.561063877">
		<tag k="name" v="Skjelstraumen" />
		<tag k="natural" v="bay" />
		<tag k="ssr:stedsnr" v="885453" />
	</node>
	<node id="-691007" lat="68.1533666694" lon="15.941361102">
		<tag k="name" v="Løneset" />
		<tag k="natural" v="cape" />
		<tag k="ssr:stedsnr" v="777720" />
	</node>
	<node id="-691005" lat="68.1481611151" lon="15.7199805594">
		<tag k="name" v="Jøssvågneset" />
		<tag k="natural" v="cape" />
		<tag k="ssr:stedsnr" v="777680" />
	</node>
	<node id="-691002" lat="68.1578999971" lon="15.8933555645">
		<tag k="name" v="Ytstdalneset" />
		<tag k="natural" v="cape" />
		<tag k="ssr:stedsnr" v="777672" />
	</node>
	<node id="-688952" lat="68.0872111094" lon="15.7389361159">
		<tag k="name" v="Pollstranda" />
		<tag k="natural" v="beach" />
		<tag k="place" v="locality" />
		<tag k="ssr:stedsnr" v="473954" />
	</node>
	<node id="-690999" lat="67.9875722258" lon="15.6128749891">
		<tag k="name" v="Heilågvika" />
		<tag k="natural" v="bay" />
		<tag k="ssr:stedsnr" v="777660" />
	</node>
	<node id="-688943" lat="67.9992916666" lon="15.9406833429">
		<tag k="name" v="Hillingansundet" />
		<tag k="natural" v="strait" />
		<tag k="ssr:stedsnr" v="473710" />
	</node>
	<node id="-688938" lat="68.1593027822" lon="15.8819277714">
		<tag k="name" v="Litlvika" />
		<tag k="natural" v="bay" />
		<tag k="ssr:stedsnr" v="473665" />
	</node>
	<node id="-688935" lat="68.0013777798" lon="15.7298777713">
		<tag k="name" v="Brattneset" />
		<tag k="natural" v="cape" />
		<tag k="ssr:stedsnr" v="473631" />
	</node>
	<node id="-690982" lat="68.1199500038" lon="15.7261472277">
		<tag k="name" v="Kleivika" />
		<tag k="natural" v="bay" />
		<tag k="ssr:stedsnr" v="777368" />
	</node>
	<node id="-688932" lat="68.1490583296" lon="15.62721667">
		<tag k="name" v="Snorken" />
		<tag k="natural" v="cape" />
		<tag k="ssr:stedsnr" v="473620" />
	</node>
	<node id="-688929" lat="68.006611112" lon="15.3766611088">
		<tag k="name" v="Stortrollosen" />
		<tag k="natural" v="bay" />
		<tag k="ssr:stedsnr" v="473593" />
	</node>
	<node id="-688926" lat="67.9920833309" lon="15.4465861193">
		<tag k="name" v="Nordøya" />
		<tag k="place" v="island" />
		<tag k="ssr:stedsnr" v="473558" />
	</node>
	<node id="-688601" lat="68.2063583334" lon="15.8780861166">
		<tag k="name" v="Horneshola" />
		<tag k="natural" v="bay" />
		<tag k="ssr:stedsnr" v="320835" />
	</node>
	<node id="-690963" lat="68.0494166632" lon="15.5712083347">
		<tag k="name" v="Buskholmen" />
		<tag k="place" v="islet" />
		<tag k="ssr:stedsnr" v="777135" />
	</node>
	<node id="-690959" lat="68.1884499961" lon="15.6225416653">
		<tag k="name" v="Kjærvikodden" />
		<tag k="natural" v="cape" />
		<tag k="ssr:stedsnr" v="777082" />
	</node>
	<node id="-690957" lat="68.0850944453" lon="15.6630500089">
		<tag k="name" v="Bleiora" />
		<tag k="natural" v="bay" />
		<tag k="ssr:stedsnr" v="777079" />
	</node>
	<node id="-690956" lat="68.186913886" lon="15.6639277749">
		<tag k="name" v="Galten" />
		<tag k="natural" v="cape" />
		<tag k="ssr:stedsnr" v="777076" />
	</node>
	<node id="-688906" lat="68.0351638884" lon="15.2945944329">
		<tag k="name" v="Vikhammeren" />
		<tag k="natural" v="cape" />
		<tag k="ssr:stedsnr" v="473246" />
	</node>
	<node id="-688804" lat="68.1615444448" lon="15.7906833268">
		<tag k="name" v="Trinnøysundet" />
		<tag k="natural" v="strait" />
		<tag k="ssr:stedsnr" v="381792" />
	</node>
	<node id="-688895" lat="68.1422749987" lon="15.6210444452">
		<tag k="fixme" v="consider seamark:type=rock or natural=shoal" />
		<tag k="name" v="Svartskjeret" />
		<tag k="place" v="islet" />
		<tag k="ssr:stedsnr" v="413650" />
	</node>
	<node id="-688894" lat="67.9971638856" lon="15.7088305625">
		<tag k="name" v="Innerøya" />
		<tag k="place" v="island" />
		<tag k="ssr:stedsnr" v="413651" />
	</node>
	<node id="-688892" lat="68.0035527741" lon="15.7605777676">
		<tag k="name" v="Hamna" />
		<tag k="natural" v="bay" />
		<tag k="ssr:stedsnr" v="413643" />
	</node>
	<node id="-688890" lat="67.9986194458" lon="15.4997249964">
		<tag k="name" v="Sandan" />
		<tag k="natural" v="beach" />
		<tag k="place" v="locality" />
		<tag k="ssr:stedsnr" v="413609" />
	</node>
	<node id="-688888" lat="68.0050888866" lon="15.4884277734">
		<tag k="name" v="Kjerkvika" />
		<tag k="natural" v="bay" />
		<tag k="ssr:stedsnr" v="413599" />
	</node>
	<node id="-690933" lat="68.1058361148" lon="15.6445083403">
		<tag k="name" v="Litleøya" />
		<tag k="place" v="islet" />
		<tag k="ssr:stedsnr" v="764443" />
	</node>
	<node id="-688884" lat="67.9992805522" lon="15.4720861096">
		<tag k="fixme" v="consider seamark:type=rock or natural=shoal" />
		<tag k="name" v="Litlbøsmaren" />
		<tag k="place" v="islet" />
		<tag k="ssr:stedsnr" v="413586" />
	</node>
	<node id="-690931" lat="68.1673388874" lon="15.5360416657">
		<tag k="name" v="Grunnskallen" />
		<tag k="natural" v="shoal" />
		<tag k="place" v="locality" />
		<tag k="ssr:stedsnr" v="764235" />
	</node>
	<node id="-690929" lat="68.2149388926" lon="15.9526194418">
		<tag k="name" v="Storøra" />
		<tag k="natural" v="shoal" />
		<tag k="place" v="locality" />
		<tag k="ssr:stedsnr" v="764174" />
	</node>
	<node id="-690928" lat="68.2241777819" lon="15.8994472149">
		<tag k="name" v="Mebåen" />
		<tag k="natural" v="shoal" />
		<tag k="place" v="locality" />
		<tag k="ssr:stedsnr" v="764145" />
	</node>
	<node id="-690927" lat="68.1133388884" lon="15.3705055645">
		<tag k="name" v="Straumbåen" />
		<tag k="natural" v="shoal" />
		<tag k="place" v="locality" />
		<tag k="ssr:stedsnr" v="763869" />
	</node>
	<node id="-690926" lat="68.1227750033" lon="15.3625027818">
		<tag k="name" v="Nygrunnen" />
		<tag k="natural" v="shoal" />
		<tag k="place" v="locality" />
		<tag k="ssr:stedsnr" v="763866" />
	</node>
	<node id="-690925" lat="68.0461055576" lon="15.6936805658">
		<tag k="name" v="Juvikneset" />
		<tag k="natural" v="cape" />
		<tag k="ssr:stedsnr" v="763571" />
	</node>
	<node id="-690924" lat="68.0242861107" lon="15.9153555532">
		<tag k="name" v="Mattisgrunnen" />
		<tag k="natural" v="shoal" />
		<tag k="place" v="locality" />
		<tag k="ssr:stedsnr" v="763566" />
	</node>
	<node id="-690923" lat="68.0730166638" lon="15.3270361126">
		<tag k="name" v="Humpen" />
		<tag k="natural" v="cape" />
		<tag k="ssr:stedsnr" v="745988" />
	</node>
	<node id="-690920" lat="68.0611027775" lon="15.5361083395">
		<tag k="alt_name" v="Gardøya, l" />
		<tag k="name" v="Litlgardøya" />
		<tag k="place" v="islet" />
		<tag k="ssr:stedsnr" v="745955" />
	</node>
	<node id="-690918" lat="68.0485944412" lon="15.4771749942">
		<tag k="name" v="Hamnholmen" />
		<tag k="place" v="islet" />
		<tag k="ssr:stedsnr" v="745947" />
	</node>
	<node id="-688593" lat="68.145480554" lon="15.7050027888">
		<tag k="name" v="Jøssvågen" />
		<tag k="natural" v="bay" />
		<tag k="ssr:stedsnr" v="320748" />
	</node>
	<node id="-690916" lat="68.0477194464" lon="15.4714638816">
		<tag k="alt_name" v="Kråknesodden;Krokneset" />
		<tag k="name" v="Kråkneset" />
		<tag k="natural" v="cape" />
		<tag k="ssr:stedsnr" v="745938" />
	</node>
	<node id="-690915" lat="68.027233334" lon="15.2904333398">
		<tag k="name" v="Kvalbakkhola" />
		<tag k="natural" v="bay" />
		<tag k="ssr:stedsnr" v="745923" />
	</node>
	<node id="-689278" lat="67.9942277763" lon="15.4812416749">
		<tag k="name" v="Øyra" />
		<tag k="place" v="islet" />
		<tag k="ssr:stedsnr" v="77884" />
	</node>
	<node id="-690913" lat="68.0293666672" lon="15.4833666657">
		<tag k="name" v="Gåsholman" />
		<tag k="place" v="islet" />
		<tag k="ssr:stedsnr" v="745919" />
	</node>
	<node id="-690912" lat="68.0293972231" lon="15.4500499942">
		<tag k="alt_name" v="Forøyodden, store" />
		<tag k="name" v="Store Forøyodden" />
		<tag k="natural" v="cape" />
		<tag k="ssr:stedsnr" v="745917" />
	</node>
	<node id="-690909" lat="68.0188527773" lon="15.4398111016">
		<tag k="name" v="Litløya" />
		<tag k="natural" v="cape" />
		<tag k="ssr:stedsnr" v="745910" />
	</node>
	<node id="-691119" lat="68.1668861111" lon="15.5874999939">
		<tag k="name" v="Grønholmskallen" />
		<tag k="natural" v="shoal" />
		<tag k="place" v="locality" />
		<tag k="ssr:stedsnr" v="825190" />
	</node>
	<node id="-690905" lat="68.0049083334" lon="15.3688166648">
		<tag k="fixme" v="consider seamark:type=rock or natural=shoal" />
		<tag k="name" v="Storskjeret" />
		<tag k="place" v="islet" />
		<tag k="ssr:stedsnr" v="745881" />
	</node>
	<node id="-690902" lat="68.1470861128" lon="15.601763878">
		<tag k="name" v="Sandvika" />
		<tag k="natural" v="bay" />
		<tag k="ssr:stedsnr" v="745861" />
	</node>
	<node id="-690901" lat="68.2010222216" lon="15.9098305629">
		<tag k="alt_name" v="Bergskjeran" />
		<tag k="fixme" v="consider seamark:type=rock or natural=shoal" />
		<tag k="name" v="Bogskjæran" />
		<tag k="place" v="islet" />
		<tag k="ssr:stedsnr" v="745832" />
	</node>
	<node id="-688852" lat="68.0358305589" lon="15.4719055519">
		<tag k="name" v="Skottestadsundet" />
		<tag k="place" v="locality" />
		<tag k="ssr:stedsnr" v="413188" />
	</node>
	<node id="-690899" lat="68.176524998" lon="15.6668583279">
		<tag k="fixme" v="multiple name tags, choose one and add the other to alt_name" />
		<tag k="name" v="Osen;Tranøyosen" />
		<tag k="natural" v="bay" />
		<tag k="ssr:stedsnr" v="745815" />
	</node>
	<node id="-688850" lat="68.0512194396" lon="15.8126083424">
		<tag k="name" v="Ragnarodden" />
		<tag k="natural" v="cape" />
		<tag k="ssr:stedsnr" v="413123" />
	</node>
	<node id="-690893" lat="68.1441750015" lon="15.8910222181">
		<tag k="alt_name" v="Orvika" />
		<tag k="name" v="Urdvika" />
		<tag k="natural" v="bay" />
		<tag k="ssr:stedsnr" v="745788" />
	</node>
	<node id="-688844" lat="67.9169666711" lon="15.8573777749">
		<tag k="name" v="Hopnes" />
		<tag k="natural" v="cape" />
		<tag k="ssr:stedsnr" v="412844" />
	</node>
	<node id="-688842" lat="67.9931583313" lon="15.7853499987">
		<tag k="name" v="Silsandodden" />
		<tag k="natural" v="cape" />
		<tag k="ssr:stedsnr" v="412677" />
	</node>
	<node id="-690888" lat="68.1176472224" lon="15.8142611111">
		<tag k="alt_name" v="Porsneset" />
		<tag k="name" v="Postneset" />
		<tag k="natural" v="cape" />
		<tag k="ssr:stedsnr" v="745734" />
	</node>
	<node id="-688839" lat="68.0169444434" lon="15.9514944489">
		<tag k="name" v="Djupvikodden" />
		<tag k="natural" v="cape" />
		<tag k="ssr:stedsnr" v="412560" />
	</node>
	<node id="-688835" lat="68.1244000003" lon="15.5190666592">
		<tag k="name" v="Røyrstrenden" />
		<tag k="natural" v="beach" />
		<tag k="place" v="locality" />
		<tag k="ssr:stedsnr" v="412456" />
	</node>
	<node id="-690881" lat="67.9947277784" lon="15.9778583214">
		<tag k="fixme" v="multiple name tags, choose one and add the other to alt_name" />
		<tag k="name" v="Hillingspollen;Sagpollen" />
		<tag k="natural" v="bay" />
		<tag k="ssr:stedsnr" v="745665" />
	</node>
	<node id="-688831" lat="68.1730055579" lon="15.6847166667">
		<tag k="name" v="Tennholman" />
		<tag k="place" v="islet" />
		<tag k="ssr:stedsnr" v="412182" />
	</node>
	<node id="-690877" lat="68.080030553" lon="15.6440944337">
		<tag k="name" v="Presteidstraumen" />
		<tag k="natural" v="strait" />
		<tag k="ssr:stedsnr" v="745622" />
	</node>
	<node id="-690875" lat="67.979652775" lon="15.3864083283">
		<tag k="name" v="Vardholmen" />
		<tag k="place" v="islet" />
		<tag k="ssr:stedsnr" v="745607" />
	</node>
	<node id="-688826" lat="68.2192777764" lon="15.9212333351">
		<tag k="name" v="Rasmusflua" />
		<tag k="natural" v="shoal" />
		<tag k="place" v="locality" />
		<tag k="ssr:stedsnr" v="400190" />
	</node>
	<node id="-690873" lat="67.9795805559" lon="15.4430749948">
		<tag k="name" v="Silsand" />
		<tag k="natural" v="beach" />
		<tag k="place" v="locality" />
		<tag k="ssr:stedsnr" v="745602" />
	</node>
	<node id="-690872" lat="68.0524055532" lon="15.8240444413">
		<tag k="fixme" v="multiple name tags, choose one and add the other to alt_name" />
		<tag k="name" v="Skipvågen;Skjevågen" />
		<tag k="natural" v="bay" />
		<tag k="ssr:stedsnr" v="745598" />
	</node>
	<node id="-690871" lat="68.0687888916" lon="15.6601250027">
		<tag k="name" v="Bøbukta" />
		<tag k="natural" v="bay" />
		<tag k="ssr:stedsnr" v="745593" />
	</node>
	<node id="-688822" lat="67.9892888889" lon="15.772658344">
		<tag k="name" v="Karlsøyskallen" />
		<tag k="natural" v="shoal" />
		<tag k="place" v="locality" />
		<tag k="ssr:stedsnr" v="399586" />
	</node>
	<node id="-688821" lat="67.9936277815" lon="15.7842805516">
		<tag k="fixme" v="consider seamark:type=rock or natural=shoal" />
		<tag k="name" v="Silsandskjæret" />
		<tag k="place" v="islet" />
		<tag k="ssr:stedsnr" v="399583" />
	</node>
	<node id="-688820" lat="68.1751027776" lon="15.7797833313">
		<tag k="fixme" v="consider seamark:type=rock or natural=shoal" />
		<tag k="name" v="Tjernvikskjæran" />
		<tag k="place" v="islet" />
		<tag k="ssr:stedsnr" v="399539" />
	</node>
	<node id="-688819" lat="68.1669111144" lon="15.7594166776">
		<tag k="name" v="Tuvholmen" />
		<tag k="place" v="islet" />
		<tag k="ssr:stedsnr" v="399535" />
	</node>
	<node id="-688817" lat="67.9807583311" lon="15.5072055546">
		<tag k="fixme" v="multiple name tags, choose one and add the other to alt_name" />
		<tag k="name" v="Andsa;Ausa" />
		<tag k="place" v="islet" />
		<tag k="ssr:stedsnr" v="399099" />
	</node>
	<node id="-688816" lat="68.0281777817" lon="15.8480138912">
		<tag k="alt_name" v="Ropaneset" />
		<tag k="name" v="Roparnes" />
		<tag k="natural" v="cape" />
		<tag k="ssr:stedsnr" v="390704" />
	</node>
	<node id="-690863" lat="68.0090111105" lon="15.9480666595">
		<tag k="alt_name" v="Trollpollskjeran" />
		<tag k="fixme" v="consider seamark:type=rock or natural=shoal" />
		<tag k="name" v="Trollpollskjæran" />
		<tag k="place" v="islet" />
		<tag k="ssr:stedsnr" v="745525" />
	</node>
	<node id="-688813" lat="68.0406638924" lon="15.4708722116">
		<tag k="alt_name" v="Åmundskjeret" />
		<tag k="name" v="Åmundskjæret" />
		<tag k="natural" v="shoal" />
		<tag k="place" v="locality" />
		<tag k="ssr:stedsnr" v="381931" />
	</node>
	<node id="-688812" lat="68.0285333355" lon="15.6113805572">
		<tag k="alt_name" v="Ervika, store" />
		<tag k="fixme" v="multiple name tags, choose one and add the other to alt_name" />
		<tag k="name" v="Ærvika;Store Ervika" />
		<tag k="natural" v="bay" />
		<tag k="ssr:stedsnr" v="381914" />
	</node>
	<node id="-689266" lat="67.9832833318" lon="15.4221333337">
		<tag k="name" v="Taska" />
		<tag k="place" v="islet" />
		<tag k="ssr:stedsnr" v="77637" />
	</node>
	<node id="-688809" lat="68.1778972265" lon="15.8256833328">
		<tag k="fixme" v="consider seamark:type=rock or natural=shoal" />
		<tag k="name" v="Bollen" />
		<tag k="place" v="islet" />
		<tag k="ssr:stedsnr" v="381824" />
	</node>
	<node id="-688808" lat="68.1866694493" lon="15.6563222128">
		<tag k="name" v="Buøyneset" />
		<tag k="natural" v="cape" />
		<tag k="ssr:stedsnr" v="381821" />
	</node>
	<node id="-690855" lat="68.1263888849" lon="15.383072227">
		<tag k="name" v="Skarvhammarøya" />
		<tag k="place" v="island" />
		<tag k="ssr:stedsnr" v="745138" />
	</node>
	<node id="-690854" lat="68.1404472209" lon="15.5821555586">
		<tag k="alt_name" v="Forøya, l" />
		<tag k="name" v="Litl Forøya" />
		<tag k="place" v="island" />
		<tag k="ssr:stedsnr" v="745135" />
	</node>
	<node id="-690853" lat="68.1370277805" lon="15.405766662">
		<tag k="name" v="Bjørnvågen" />
		<tag k="natural" v="bay" />
		<tag k="ssr:stedsnr" v="745122" />
	</node>
	<node id="-690852" lat="68.1451999977" lon="15.4334000076">
		<tag k="alt_name" v="Skokkelvågen" />
		<tag k="name" v="Skokkelvågbukta" />
		<tag k="natural" v="bay" />
		<tag k="ssr:stedsnr" v="745104" />
	</node>
	<node id="-690851" lat="68.1447638889" lon="15.4310166693">
		<tag k="name" v="Skokkelvågodden" />
		<tag k="natural" v="cape" />
		<tag k="ssr:stedsnr" v="745102" />
	</node>
	<node id="-690850" lat="68.1531916663" lon="15.5151999977">
		<tag k="alt_name" v="Svartskjeran" />
		<tag k="fixme" v="consider seamark:type=rock or natural=shoal" />
		<tag k="name" v="Svartskjæran" />
		<tag k="place" v="islet" />
		<tag k="ssr:stedsnr" v="745099" />
	</node>
	<node id="-690849" lat="68.1580166702" lon="15.4949889014">
		<tag k="name" v="Storsanden" />
		<tag k="natural" v="bay" />
		<tag k="ssr:stedsnr" v="745098" />
	</node>
	<node id="-690848" lat="68.1528277762" lon="15.4506027806">
		<tag k="alt_name" v="Storskringen" />
		<tag k="name" v="Storskreingen" />
		<tag k="place" v="islet" />
		<tag k="ssr:stedsnr" v="745096" />
	</node>
	<node id="-690847" lat="68.151050003" lon="15.5474749926">
		<tag k="alt_name" v="Lossiholmen" />
		<tag k="name" v="Lossøyholmen" />
		<tag k="place" v="islet" />
		<tag k="ssr:stedsnr" v="745095" />
	</node>
	<node id="-688797" lat="68.1114638888" lon="15.7975444347">
		<tag k="name" v="Nygårdsskjeran" />
		<tag k="natural" v="shoal" />
		<tag k="place" v="locality" />
		<tag k="ssr:stedsnr" v="381681" />
	</node>
	<node id="-688793" lat="67.9436305565" lon="15.8753027828">
		<tag k="name" v="Steinbakksundet" />
		<tag k="natural" v="strait" />
		<tag k="ssr:stedsnr" v="381644" />
	</node>
	<node id="-688792" lat="67.9635305583" lon="15.4353111069">
		<tag k="fixme" v="consider seamark:type=rock or natural=shoal" />
		<tag k="name" v="Steinklakkøya" />
		<tag k="place" v="islet" />
		<tag k="ssr:stedsnr" v="381598" />
	</node>
	<node id="-688791" lat="68.0258833368" lon="15.9113166723">
		<tag k="name" v="Litlegrunnen" />
		<tag k="natural" v="shoal" />
		<tag k="place" v="locality" />
		<tag k="ssr:stedsnr" v="381587" />
	</node>
	<node id="-688776" lat="68.1177694436" lon="15.5122750067">
		<tag k="name" v="Nålnesøya" />
		<tag k="place" v="islet" />
		<tag k="ssr:stedsnr" v="381021" />
	</node>
	<node id="-690821" lat="67.9191611078" lon="15.8584944427">
		<tag k="fixme" v="consider seamark:type=rock or natural=shoal" />
		<tag k="name" v="Storskjæret" />
		<tag k="place" v="islet" />
		<tag k="ssr:stedsnr" v="716857" />
	</node>
	<node id="-688770" lat="68.0768111075" lon="15.3197638821">
		<tag k="name" v="Risholmen" />
		<tag k="place" v="islet" />
		<tag k="ssr:stedsnr" v="380988" />
	</node>
	<node id="-690811" lat="68.1355666697" lon="15.4008583225">
		<tag k="name" v="Rundhumpen" />
		<tag k="place" v="islet" />
		<tag k="ssr:stedsnr" v="716715" />
	</node>
	<node id="-690809" lat="67.979491665" lon="15.4744666653">
		<tag k="name" v="Sørnesbukta" />
		<tag k="natural" v="bay" />
		<tag k="ssr:stedsnr" v="716708" />
	</node>
	<node id="-690805" lat="68.1538361098" lon="15.6259416574">
		<tag k="fixme" v="consider seamark:type=rock or natural=shoal" />
		<tag k="name" v="Nokkvikskjeran" />
		<tag k="place" v="islet" />
		<tag k="ssr:stedsnr" v="716672" />
	</node>
	<node id="-690801" lat="68.0025694473" lon="15.3996472214">
		<tag k="name" v="Litløya" />
		<tag k="natural" v="cape" />
		<tag k="ssr:stedsnr" v="716591" />
	</node>
	<node id="-688746" lat="67.987069445" lon="15.624469437">
		<tag k="name" v="Molvika" />
		<tag k="natural" v="bay" />
		<tag k="ssr:stedsnr" v="380654" />
	</node>
	<node id="-689255" lat="68.1390388929" lon="15.5112249913">
		<tag k="name" v="Kvalsundet" />
		<tag k="natural" v="strait" />
		<tag k="ssr:stedsnr" v="77105" />
	</node>
	<node id="-688736" lat="68.1248583292" lon="15.5314555497">
		<tag k="fixme" v="multiple name tags, choose one and add the other to alt_name" />
		<tag k="name" v="Grunnvågen;Ørnleira" />
		<tag k="natural" v="bay" />
		<tag k="ssr:stedsnr" v="380121" />
	</node>
	<node id="-688735" lat="68.1322694454" lon="15.3953444491">
		<tag k="name" v="Hopøya" />
		<tag k="place" v="island" />
		<tag k="ssr:stedsnr" v="380114" />
	</node>
	<node id="-690779" lat="68.0374638863" lon="15.4176416664">
		<tag k="fixme" v="consider seamark:type=rock or natural=shoal" />
		<tag k="name" v="Finsetskjeret" />
		<tag k="place" v="islet" />
		<tag k="ssr:stedsnr" v="716240" />
	</node>
	<node id="-690778" lat="68.0387527765" lon="15.3965250054">
		<tag k="name" v="Svinhola" />
		<tag k="natural" v="bay" />
		<tag k="ssr:stedsnr" v="716235" />
	</node>
	<node id="-690777" lat="68.0342638884" lon="15.408888891">
		<tag k="name" v="Litlforrøya" />
		<tag k="natural" v="cape" />
		<tag k="ssr:stedsnr" v="716233" />
	</node>
	<node id="-690776" lat="68.1627805553" lon="15.7179361036">
		<tag k="name" v="Sanden" />
		<tag k="natural" v="beach" />
		<tag k="place" v="locality" />
		<tag k="ssr:stedsnr" v="716226" />
	</node>
	<node id="-688726" lat="68.1773138853" lon="15.8579805546">
		<tag k="name" v="Hankamrønna" />
		<tag k="natural" v="cape" />
		<tag k="ssr:stedsnr" v="352873" />
	</node>
	<node id="-688722" lat="67.9809583349" lon="15.8809805647">
		<tag k="name" v="Stranda" />
		<tag k="natural" v="beach" />
		<tag k="place" v="locality" />
		<tag k="ssr:stedsnr" v="352794" />
	</node>
	<node id="-688721" lat="67.9797361088" lon="15.8735555518">
		<tag k="name" v="Mellafjæra" />
		<tag k="natural" v="shoal" />
		<tag k="place" v="locality" />
		<tag k="ssr:stedsnr" v="352791" />
	</node>
	<node id="-688720" lat="67.9746499996" lon="15.5030000091">
		<tag k="fixme" v="consider seamark:type=rock or natural=shoal" />
		<tag k="name" v="Trollbåten" />
		<tag k="place" v="islet" />
		<tag k="ssr:stedsnr" v="352781" />
	</node>
	<node id="-690766" lat="68.0246055555" lon="15.5736999951">
		<tag k="name" v="Eskjellvika" />
		<tag k="natural" v="bay" />
		<tag k="ssr:stedsnr" v="716031" />
	</node>
	<node id="-688712" lat="68.1345555529" lon="15.410088898">
		<tag k="name" v="Stonga" />
		<tag k="place" v="islet" />
		<tag k="ssr:stedsnr" v="352690" />
	</node>
	<node id="-688711" lat="68.1346888893" lon="15.39307223">
		<tag k="name" v="Nordøyhumpen" />
		<tag k="natural" v="cape" />
		<tag k="ssr:stedsnr" v="352682" />
	</node>
	<node id="-688707" lat="68.1588166674" lon="15.8859472151">
		<tag k="name" v="Storsteinvika" />
		<tag k="natural" v="bay" />
		<tag k="ssr:stedsnr" v="352658" />
	</node>
	<node id="-688703" lat="68.0031416647" lon="15.6897500025">
		<tag k="name" v="Engstykkneset" />
		<tag k="natural" v="cape" />
		<tag k="ssr:stedsnr" v="352629" />
	</node>
	<node id="-690750" lat="68.1803666697" lon="15.6698694532">
		<tag k="name" v="Silsanden" />
		<tag k="natural" v="beach" />
		<tag k="place" v="locality" />
		<tag k="ssr:stedsnr" v="715197" />
	</node>
	<node id="-688701" lat="68.0005000003" lon="15.7274361221">
		<tag k="name" v="Oksstranda" />
		<tag k="natural" v="beach" />
		<tag k="place" v="locality" />
		<tag k="ssr:stedsnr" v="352625" />
	</node>
	<node id="-690748" lat="68.1259555534" lon="15.6103527775">
		<tag k="name" v="Tverrutskogneset" />
		<tag k="natural" v="cape" />
		<tag k="ssr:stedsnr" v="715551" />
	</node>
	<node id="-690747" lat="68.1191777773" lon="15.5208916644">
		<tag k="name" v="Bakskjærvika" />
		<tag k="natural" v="bay" />
		<tag k="ssr:stedsnr" v="715512" />
	</node>
	<node id="-690746" lat="68.1252972253" lon="15.5213944399">
		<tag k="name" v="Bryggpollen" />
		<tag k="natural" v="bay" />
		<tag k="ssr:stedsnr" v="715510" />
	</node>
	<node id="-690744" lat="67.9903944436" lon="15.6742500111">
		<tag k="fixme" v="consider seamark:type=rock or natural=shoal" />
		<tag k="name" v="Hysneset" />
		<tag k="place" v="islet" />
		<tag k="ssr:stedsnr" v="703605" />
	</node>
	<node id="-690743" lat="68.218569448" lon="15.9372388838">
		<tag k="name" v="Nordflua" />
		<tag k="natural" v="shoal" />
		<tag k="place" v="locality" />
		<tag k="ssr:stedsnr" v="703232" />
	</node>
	<node id="-690741" lat="67.9930638877" lon="15.9710194515">
		<tag k="fixme" v="multiple name tags, choose one and add the other to alt_name" />
		<tag k="name" v="Hillingsodden;Nesodden" />
		<tag k="natural" v="cape" />
		<tag k="ssr:stedsnr" v="703529" />
	</node>
	<node id="-690740" lat="67.9879000017" lon="15.90421111">
		<tag k="fixme" v="multiple name tags, choose one and add the other to alt_name" />
		<tag k="name" v="Mølnklubben;Mølnodden" />
		<tag k="natural" v="cape" />
		<tag k="ssr:stedsnr" v="703528" />
	</node>
	<node id="-688563" lat="68.02915833" lon="15.660888886">
		<tag k="name" v="Storvika" />
		<tag k="natural" v="bay" />
		<tag k="ssr:stedsnr" v="320557" />
	</node>
	<node id="-690735" lat="67.9296861082" lon="15.8441499898">
		<tag k="name" v="Storsteinskallen" />
		<tag k="natural" v="shoal" />
		<tag k="place" v="locality" />
		<tag k="ssr:stedsnr" v="685363" />
	</node>
	<node id="-690733" lat="68.0711638856" lon="15.3145472315">
		<tag k="name" v="Kattholmen" />
		<tag k="place" v="islet" />
		<tag k="ssr:stedsnr" v="684990" />
	</node>
	<node id="-688682" lat="68.1144388881" lon="15.8116249897">
		<tag k="name" v="Hestvika" />
		<tag k="natural" v="bay" />
		<tag k="ssr:stedsnr" v="352300" />
	</node>
	<node id="-690729" lat="68.0684694467" lon="15.3442916568">
		<tag k="name" v="Einvikneset" />
		<tag k="natural" v="cape" />
		<tag k="ssr:stedsnr" v="684968" />
	</node>
	<node id="-688999" lat="68.1624694468" lon="15.7245972212">
		<tag k="fixme" v="consider seamark:type=rock or natural=shoal" />
		<tag k="name" v="Skreddarskjeran" />
		<tag k="place" v="islet" />
		<tag k="ssr:stedsnr" v="898204" />
	</node>
	<node id="-688561" lat="68.0112111108" lon="15.7383361016">
		<tag k="name" v="Kvalvika" />
		<tag k="natural" v="bay" />
		<tag k="ssr:stedsnr" v="320520" />
	</node>
	<node id="-690721" lat="68.042602776" lon="15.4780888968">
		<tag k="name" v="Gåsholmen" />
		<tag k="place" v="islet" />
		<tag k="ssr:stedsnr" v="684925" />
	</node>
	<node id="-690720" lat="67.991991666" lon="15.5616361018">
		<tag k="name" v="Ososen" />
		<tag k="natural" v="bay" />
		<tag k="ssr:stedsnr" v="684901" />
	</node>
	<node id="-690719" lat="67.9931194438" lon="15.5501111043">
		<tag k="name" v="Sirøyleira" />
		<tag k="natural" v="bay" />
		<tag k="ssr:stedsnr" v="684900" />
	</node>
	<node id="-690718" lat="67.9976611108" lon="15.4793083372">
		<tag k="fixme" v="consider seamark:type=rock or natural=shoal" />
		<tag k="name" v="Gangstadskjeret" />
		<tag k="place" v="islet" />
		<tag k="ssr:stedsnr" v="684899" />
	</node>
	<node id="-690716" lat="67.9951416698" lon="15.5345555645">
		<tag k="alt_name" v="Djuposen" />
		<tag k="name" v="Djuposan" />
		<tag k="natural" v="bay" />
		<tag k="ssr:stedsnr" v="684896" />
	</node>
	<node id="-690712" lat="68.0060611081" lon="15.371433325">
		<tag k="alt_name" v="Frammundneset" />
		<tag k="name" v="Framundneset" />
		<tag k="natural" v="cape" />
		<tag k="ssr:stedsnr" v="684863" />
	</node>
	<node id="-690711" lat="68.0439500003" lon="15.4415111135">
		<tag k="name" v="Klubben" />
		<tag k="natural" v="cape" />
		<tag k="ssr:stedsnr" v="684852" />
	</node>
	<node id="-690710" lat="68.0743666674" lon="15.3263722318">
		<tag k="name" v="Sandvika" />
		<tag k="natural" v="bay" />
		<tag k="ssr:stedsnr" v="684848" />
	</node>
	<node id="-688659" lat="68.0872500034" lon="15.7103916591">
		<tag k="name" v="Hamn" />
		<tag k="natural" v="bay" />
		<tag k="ssr:stedsnr" v="352093" />
	</node>
	<node id="-690706" lat="68.1785722218" lon="15.8368138843">
		<tag k="alt_name" v="Hornskjeran" />
		<tag k="fixme" v="consider seamark:type=rock or natural=shoal" />
		<tag k="name" v="Hornskjæran" />
		<tag k="place" v="islet" />
		<tag k="ssr:stedsnr" v="684795" />
	</node>
	<node id="-690704" lat="68.1674527766" lon="15.7142027742">
		<tag k="alt_name" v="Sommarselvågen" />
		<tag k="name" v="Sommerselvågen" />
		<tag k="natural" v="bay" />
		<tag k="ssr:stedsnr" v="684756" />
	</node>
	<node id="-690700" lat="68.1484444422" lon="15.9105333216">
		<tag k="name" v="Kilhamn" />
		<tag k="natural" v="bay" />
		<tag k="ssr:stedsnr" v="684717" />
	</node>
	<node id="-688998" lat="68.1653194479" lon="15.7183111072">
		<tag k="name" v="Harrhågneset" />
		<tag k="natural" v="cape" />
		<tag k="ssr:stedsnr" v="898202" />
	</node>
	<node id="-690696" lat="68.0999333299" lon="15.6901361179">
		<tag k="name" v="Tømmeråsskallen" />
		<tag k="natural" v="shoal" />
		<tag k="place" v="locality" />
		<tag k="ssr:stedsnr" v="684672" />
	</node>
	<node id="-690692" lat="67.979138887" lon="15.8846083415">
		<tag k="fixme" v="multiple name tags, choose one and add the other to alt_name" />
		<tag k="name" v="Rødtangskeila;Røttangsstraumen" />
		<tag k="natural" v="strait" />
		<tag k="ssr:stedsnr" v="684644" />
	</node>
	<node id="-690839" lat="68.1295944485" lon="15.5710194567">
		<tag k="fixme" v="multiple name tags, choose one and add the other to alt_name" />
		<tag k="name" v="Skjelpollen;Skjelvika" />
		<tag k="natural" v="bay" />
		<tag k="ssr:stedsnr" v="745007" />
	</node>
	<node id="-690687" lat="68.0663055543" lon="15.6398222328">
		<tag k="alt_name" v="Glimmøya" />
		<tag k="fixme" v="multiple name tags, choose one and add the other to alt_name" />
		<tag k="name" v="Smedøya;Glimøya" />
		<tag k="place" v="island" />
		<tag k="ssr:stedsnr" v="684624" />
	</node>
	<node id="-688554" lat="68.1264999999" lon="15.5088222242">
		<tag k="name" v="Orøya" />
		<tag k="place" v="island" />
		<tag k="ssr:stedsnr" v="320128" />
	</node>
	<node id="-690682" lat="67.9820305519" lon="15.3836333253">
		<tag k="name" v="Engsundet" />
		<tag k="natural" v="strait" />
		<tag k="ssr:stedsnr" v="684601" />
	</node>
	<node id="-690681" lat="67.9836555547" lon="15.5107055479">
		<tag k="name" v="Andholmen" />
		<tag k="place" v="islet" />
		<tag k="ssr:stedsnr" v="684598" />
	</node>
	<node id="-690680" lat="67.9873361112" lon="15.6010777873">
		<tag k="alt_name" v="Ørnhaugneset" />
		<tag k="name" v="Ørnhågneset" />
		<tag k="natural" v="cape" />
		<tag k="ssr:stedsnr" v="684592" />
	</node>
	<node id="-690679" lat="68.0467250035" lon="15.7071888792">
		<tag k="name" v="Bjørnvika" />
		<tag k="natural" v="bay" />
		<tag k="ssr:stedsnr" v="684590" />
	</node>
	<node id="-688630" lat="68.1763472196" lon="15.6846972319">
		<tag k="fixme" v="consider seamark:type=rock or natural=shoal" />
		<tag k="name" v="Engelsholmskjæret" />
		<tag k="place" v="islet" />
		<tag k="ssr:stedsnr" v="338663" />
	</node>
	<node id="-688629" lat="68.1330166677" lon="15.7414055648">
		<tag k="fixme" v="consider seamark:type=rock or natural=shoal" />
		<tag k="name" v="Brannøyskjæret" />
		<tag k="place" v="islet" />
		<tag k="ssr:stedsnr" v="338659" />
	</node>
	<node id="-688628" lat="68.117877774" lon="15.8374166554">
		<tag k="fixme" v="consider seamark:type=rock or natural=shoal" />
		<tag k="name" v="Grimsosskjæran" />
		<tag k="place" v="islet" />
		<tag k="ssr:stedsnr" v="338428" />
	</node>
	<node id="-688627" lat="68.1223722213" lon="15.8242111091">
		<tag k="name" v="Ansnesholmen" />
		<tag k="place" v="islet" />
		<tag k="ssr:stedsnr" v="338427" />
	</node>
	<node id="-690674" lat="68.0124416642" lon="15.9685944393">
		<tag k="name" v="Trollpollen" />
		<tag k="natural" v="bay" />
		<tag k="ssr:stedsnr" v="684535" />
	</node>
	<node id="-690673" lat="68.0134194462" lon="15.7120722335">
		<tag k="name" v="Karlsøybotn" />
		<tag k="natural" v="bay" />
		<tag k="ssr:stedsnr" v="684528" />
	</node>
	<node id="-688623" lat="68.076336111" lon="15.5270194518">
		<tag k="fixme" v="multiple name tags, choose one and add the other to alt_name" />
		<tag k="name" v="Naustneset;Naustnesodden" />
		<tag k="natural" v="cape" />
		<tag k="ssr:stedsnr" v="320976" />
	</node>
	<node id="-688621" lat="68.0461611148" lon="15.492502785">
		<tag k="name" v="Lundøya" />
		<tag k="place" v="islet" />
		<tag k="ssr:stedsnr" v="320944" />
	</node>
	<node id="-688619" lat="68.0451166639" lon="15.4294388989">
		<tag k="fixme" v="multiple name tags, choose one and add the other to alt_name" />
		<tag k="name" v="Røssvika;Røsviksjyen" />
		<tag k="natural" v="bay" />
		<tag k="ssr:stedsnr" v="320938" />
	</node>
	<node id="-688617" lat="68.0252472218" lon="15.4804277859">
		<tag k="name" v="Røssvikøya" />
		<tag k="place" v="island" />
		<tag k="ssr:stedsnr" v="320908" />
	</node>
	<node id="-688612" lat="68.0242916676" lon="15.5505666709">
		<tag k="name" v="Byggholmen" />
		<tag k="place" v="islet" />
		<tag k="ssr:stedsnr" v="320894" />
	</node>
	<node id="-688611" lat="67.9961277761" lon="15.4056749953">
		<tag k="name" v="Nesodden" />
		<tag k="natural" v="cape" />
		<tag k="ssr:stedsnr" v="320891" />
	</node>
	<node id="-688609" lat="67.9931166627" lon="15.3854166675">
		<tag k="alt_name" v="Seiskjeret" />
		<tag k="fixme" v="consider seamark:type=rock or natural=shoal" />
		<tag k="name" v="Seiskjæret" />
		<tag k="place" v="islet" />
		<tag k="ssr:stedsnr" v="320885" />
	</node>
	<node id="-688608" lat="68.0018500005" lon="15.386955551">
		<tag k="name" v="Sørlandet" />
		<tag k="natural" v="cape" />
		<tag k="ssr:stedsnr" v="320865" />
	</node>
	<node id="-688605" lat="68.0310805537" lon="15.4364000034">
		<tag k="alt_name" v="Forrøya" />
		<tag k="name" v="Forøya" />
		<tag k="place" v="island" />
		<tag k="ssr:stedsnr" v="320851" />
	</node>
	<node id="-688604" lat="68.1413472236" lon="15.5660000057">
		<tag k="name" v="Flatholmen" />
		<tag k="place" v="islet" />
		<tag k="ssr:stedsnr" v="320846" />
	</node>
	<node id="-688603" lat="68.0032750029" lon="15.4711555475">
		<tag k="name" v="Kjosholmen" />
		<tag k="place" v="islet" />
		<tag k="ssr:stedsnr" v="320844" />
	</node>
	<node id="-690649" lat="68.1401" lon="15.4073749989">
		<tag k="name" v="Bremneset" />
		<tag k="natural" v="cape" />
		<tag k="ssr:stedsnr" v="684095" />
	</node>
	<node id="-690648" lat="68.1430888868" lon="15.5591222287">
		<tag k="name" v="Buøysundet" />
		<tag k="natural" v="strait" />
		<tag k="ssr:stedsnr" v="684094" />
	</node>
	<node id="-690647" lat="68.1467249969" lon="15.5646861201">
		<tag k="name" v="Kalven" />
		<tag k="natural" v="cape" />
		<tag k="ssr:stedsnr" v="684093" />
	</node>
	<node id="-690646" lat="68.1489722218" lon="15.4483749901">
		<tag k="name" v="Buvågen" />
		<tag k="natural" v="bay" />
		<tag k="ssr:stedsnr" v="684084" />
	</node>
	<node id="-690645" lat="68.1424166656" lon="15.4056222181">
		<tag k="name" v="Bremnesodden" />
		<tag k="natural" v="cape" />
		<tag k="ssr:stedsnr" v="684083" />
	</node>
	<node id="-690644" lat="68.1651416653" lon="15.609019455">
		<tag k="alt_name" v="Steinskjeret" />
		<tag k="fixme" v="consider seamark:type=rock or natural=shoal" />
		<tag k="name" v="Steinskjæret" />
		<tag k="place" v="islet" />
		<tag k="ssr:stedsnr" v="684077" />
	</node>
	<node id="-690643" lat="68.181672226" lon="15.5948111058">
		<tag k="alt_name" v="Galiodden" />
		<tag k="name" v="Galgodden" />
		<tag k="natural" v="cape" />
		<tag k="ssr:stedsnr" v="684070" />
	</node>
	<node id="-690641" lat="68.0931472241" lon="15.5186722143">
		<tag k="fixme" v="consider seamark:type=rock or natural=shoal" />
		<tag k="name" v="Langskjeran" />
		<tag k="place" v="islet" />
		<tag k="ssr:stedsnr" v="684049" />
	</node>
	<node id="-690638" lat="68.095413885" lon="15.3368722126">
		<tag k="name" v="Mølnvika" />
		<tag k="natural" v="bay" />
		<tag k="ssr:stedsnr" v="684038" />
	</node>
	<node id="-688588" lat="68.1315527809" lon="15.7915138924">
		<tag k="name" v="Ospvika" />
		<tag k="natural" v="bay" />
		<tag k="ssr:stedsnr" v="320714" />
	</node>
	<node id="-688586" lat="68.1330166641" lon="15.8857722099">
		<tag k="name" v="Kilvika" />
		<tag k="natural" v="bay" />
		<tag k="ssr:stedsnr" v="320686" />
	</node>
	<node id="-690633" lat="67.914433337" lon="15.8467916652">
		<tag k="name" v="Osen" />
		<tag k="natural" v="bay" />
		<tag k="ssr:stedsnr" v="655970" />
	</node>
	<node id="-690630" lat="68.1457194421" lon="15.4436916774">
		<tag k="name" v="Korsøybukta" />
		<tag k="natural" v="bay" />
		<tag k="ssr:stedsnr" v="655912" />
	</node>
	<node id="-690629" lat="67.9169666711" lon="15.8573777749">
		<tag k="name" v="Keiravikodden" />
		<tag k="natural" v="cape" />
		<tag k="ssr:stedsnr" v="655862" />
	</node>
	<node id="-688579" lat="67.9801444444" lon="15.9370944388">
		<tag k="name" v="Klubben" />
		<tag k="natural" v="cape" />
		<tag k="ssr:stedsnr" v="320647" />
	</node>
	<node id="-688578" lat="68.1078805576" lon="15.7522972264">
		<tag k="name" v="Gunnarboren" />
		<tag k="natural" v="shoal" />
		<tag k="place" v="locality" />
		<tag k="ssr:stedsnr" v="320640" />
	</node>
	<node id="-690625" lat="67.9862472244" lon="15.5268777841">
		<tag k="name" v="Dranglan" />
		<tag k="natural" v="cape" />
		<tag k="ssr:stedsnr" v="655787" />
	</node>
	<node id="-688885" lat="68.1360416641" lon="15.7179499881">
		<tag k="name" v="Litløya" />
		<tag k="natural" v="cape" />
		<tag k="ssr:stedsnr" v="413587" />
	</node>
	<node id="-688570" lat="67.959044448" lon="15.9072666747">
		<tag k="name" v="Beintolskallen" />
		<tag k="natural" v="shoal" />
		<tag k="place" v="locality" />
		<tag k="ssr:stedsnr" v="320616" />
	</node>
	<node id="-688569" lat="68.0498222242" lon="15.8233000068">
		<tag k="name" v="Grønvikneset" />
		<tag k="natural" v="cape" />
		<tag k="ssr:stedsnr" v="320611" />
	</node>
	<node id="-688568" lat="67.9830555539" lon="15.4938222123">
		<tag k="alt_name" v="Nordnes" />
		<tag k="name" v="Nordneset" />
		<tag k="natural" v="cape" />
		<tag k="ssr:stedsnr" v="320606" />
	</node>
	<node id="-688566" lat="68.0716361128" lon="15.6366666603">
		<tag k="alt_name" v="Glimmen" />
		<tag k="name" v="Glimma" />
		<tag k="natural" v="bay" />
		<tag k="ssr:stedsnr" v="320593" />
	</node>
	<node id="-688565" lat="67.9618638858" lon="15.3994666578">
		<tag k="alt_name" v="Bolsøya, l" />
		<tag k="name" v="Litl Bolsøya" />
		<tag k="place" v="islet" />
		<tag k="ssr:stedsnr" v="320584" />
	</node>
	<node id="-690612" lat="68.1483583358" lon="15.8795444409">
		<tag k="name" v="Festninga" />
		<tag k="natural" v="cape" />
		<tag k="ssr:stedsnr" v="655664" />
	</node>
	<node id="-690611" lat="68.1416888864" lon="15.710441661">
		<tag k="name" v="Buskholmen" />
		<tag k="place" v="islet" />
		<tag k="ssr:stedsnr" v="655653" />
	</node>
	<node id="-688562" lat="68.0357333307" lon="15.6768277798">
		<tag k="name" v="Krokneset" />
		<tag k="natural" v="cape" />
		<tag k="ssr:stedsnr" v="320551" />
	</node>
	<node id="-690609" lat="68.0056777799" lon="15.7131111061">
		<tag k="name" v="Sildholman" />
		<tag k="place" v="islet" />
		<tag k="ssr:stedsnr" v="655632" />
	</node>
	<node id="-690608" lat="68.149622218" lon="15.6283416653">
		<tag k="name" v="Beinhusvika" />
		<tag k="natural" v="bay" />
		<tag k="ssr:stedsnr" v="655626" />
	</node>
	<node id="-688556" lat="67.9336194467" lon="15.8745472242">
		<tag k="alt_name" v="Lagmannsvika, l;Likkjlagmannsvika" />
		<tag k="name" v="Litl Lagmannsvika" />
		<tag k="natural" v="bay" />
		<tag k="ssr:stedsnr" v="320392" />
	</node>
	<node id="-690602" lat="68.1347583299" lon="15.7205166736">
		<tag k="fixme" v="consider seamark:type=rock or natural=shoal" />
		<tag k="name" v="Langskjeran" />
		<tag k="place" v="islet" />
		<tag k="ssr:stedsnr" v="655556" />
	</node>
	<node id="-688553" lat="68.1292138861" lon="15.5170361042">
		<tag k="name" v="Bårøya" />
		<tag k="place" v="islet" />
		<tag k="ssr:stedsnr" v="320127" />
	</node>
	<node id="-688551" lat="68.135363888" lon="15.5790194448">
		<tag k="alt_name" v="Forøya, store;Store Fårøya" />
		<tag k="name" v="Store Forøya" />
		<tag k="place" v="island" />
		<tag k="ssr:stedsnr" v="320114" />
	</node>
	<node id="-688550" lat="68.1357611147" lon="15.4046944505">
		<tag k="name" v="Hamnholmen" />
		<tag k="place" v="islet" />
		<tag k="ssr:stedsnr" v="320104" />
	</node>
	<node id="-690597" lat="68.1976583333" lon="15.9145916572">
		<tag k="name" v="Vikan" />
		<tag k="natural" v="bay" />
		<tag k="ssr:stedsnr" v="655479" />
	</node>
	<node id="-688548" lat="68.1559833354" lon="15.4776472171">
		<tag k="name" v="Selsøyvalen" />
		<tag k="natural" v="strait" />
		<tag k="ssr:stedsnr" v="320087" />
	</node>
	<node id="-688546" lat="68.1683500032" lon="15.6089555592">
		<tag k="alt_name" v="Grønholmen" />
		<tag k="name" v="Grønnholmen" />
		<tag k="place" v="islet" />
		<tag k="ssr:stedsnr" v="320071" />
	</node>
	<node id="-690588" lat="68.1056750028" lon="15.6824722115">
		<tag k="name" v="Langneset" />
		<tag k="natural" v="cape" />
		<tag k="ssr:stedsnr" v="655346" />
	</node>
	<node id="-688539" lat="68.1316972226" lon="15.5330888947">
		<tag k="alt_name" v="Skrattneset" />
		<tag k="name" v="Skratneset" />
		<tag k="natural" v="cape" />
		<tag k="ssr:stedsnr" v="320004" />
	</node>
	<node id="-688538" lat="68.1206916658" lon="15.4003749958">
		<tag k="alt_name" v="Sørsjøen" />
		<tag k="name" v="Sørsundet" />
		<tag k="natural" v="strait" />
		<tag k="ssr:stedsnr" v="320001" />
	</node>
	<node id="-688536" lat="68.067224997" lon="15.6345444469">
		<tag k="name" v="Botnnes" />
		<tag k="natural" v="cape" />
		<tag k="ssr:stedsnr" v="292273" />
	</node>
	<node id="-690583" lat="68.0634416678" lon="15.650266667">
		<tag k="name" v="Oddan" />
		<tag k="natural" v="cape" />
		<tag k="ssr:stedsnr" v="655296" />
	</node>
	<node id="-688533" lat="67.9123777757" lon="15.8619888868">
		<tag k="name" v="Oldervika" />
		<tag k="natural" v="bay" />
		<tag k="ssr:stedsnr" v="291972" />
	</node>
	<node id="-690571" lat="68.0380222184" lon="15.4078805509">
		<tag k="name" v="Finsetholmen" />
		<tag k="place" v="islet" />
		<tag k="ssr:stedsnr" v="655217" />
	</node>
	<node id="-688522" lat="67.9901361143" lon="15.5640138871">
		<tag k="name" v="Gammelnaustvika" />
		<tag k="natural" v="bay" />
		<tag k="ssr:stedsnr" v="291676" />
	</node>
	<node id="-690564" lat="68.0150888884" lon="15.3259194381">
		<tag k="name" v="Vedneset" />
		<tag k="natural" v="cape" />
		<tag k="ssr:stedsnr" v="655109" />
	</node>
	<node id="-690563" lat="68.0878638925" lon="15.6650138777">
		<tag k="name" v="Kovneset" />
		<tag k="natural" v="cape" />
		<tag k="ssr:stedsnr" v="655094" />
	</node>
	<node id="-688507" lat="68.0311416712" lon="15.8204611058">
		<tag k="name" v="Innerbakken" />
		<tag k="natural" v="strait" />
		<tag k="ssr:stedsnr" v="291512" />
	</node>
	<node id="-690548" lat="68.1468416633" lon="15.5156111006">
		<tag k="name" v="Holmneset" />
		<tag k="natural" v="cape" />
		<tag k="ssr:stedsnr" v="654631" />
	</node>
	<node id="-689214" lat="68.0588055567" lon="15.5545833367">
		<tag k="name" v="Leistraumen" />
		<tag k="place" v="locality" />
		<tag k="ssr:stedsnr" v="49336" />
	</node>
	<node id="-690546" lat="68.1220888886" lon="15.6136194494">
		<tag k="name" v="Elineset" />
		<tag k="natural" v="cape" />
		<tag k="ssr:stedsnr" v="654532" />
	</node>
	<node id="-688496" lat="68.1079055589" lon="15.6210361127">
		<tag k="name" v="Sjurnesøya" />
		<tag k="place" v="islet" />
		<tag k="ssr:stedsnr" v="291268" />
	</node>
	<node id="-688495" lat="68.1069694453" lon="15.6384111117">
		<tag k="name" v="Litløya" />
		<tag k="place" v="islet" />
		<tag k="ssr:stedsnr" v="291266" />
	</node>
	<node id="-688487" lat="68.1851916667" lon="15.6626222144">
		<tag k="name" v="Skjeret" />
		<tag k="natural" v="cape" />
		<tag k="ssr:stedsnr" v="291084" />
	</node>
	<node id="-690534" lat="68.0891333341" lon="15.6817277797">
		<tag k="name" v="Hammarneset" />
		<tag k="natural" v="cape" />
		<tag k="ssr:stedsnr" v="642937" />
	</node>
	<node id="-690533" lat="68.1042" lon="15.6339722162">
		<tag k="name" v="Storøya" />
		<tag k="place" v="island" />
		<tag k="ssr:stedsnr" v="642436" />
	</node>
	<node id="-690532" lat="67.9551999988" lon="15.4006166651">
		<tag k="name" v="Galten" />
		<tag k="natural" v="shoal" />
		<tag k="place" v="locality" />
		<tag k="ssr:stedsnr" v="641086" />
	</node>
	<node id="-688870" lat="68.0712888877" lon="15.5186944389">
		<tag k="name" v="Lakselvosen" />
		<tag k="natural" v="bay" />
		<tag k="ssr:stedsnr" v="413304" />
	</node>
	<node id="-688478" lat="68.0845972258" lon="15.5185750065">
		<tag k="name" v="Nakkvollsjyen" />
		<tag k="natural" v="bay" />
		<tag k="ssr:stedsnr" v="291034" />
	</node>
	<node id="-690522" lat="68.0728166677" lon="15.6012222274">
		<tag k="fixme" v="multiple name tags, choose one and add the other to alt_name" />
		<tag k="name" v="Draget;Dragseidet" />
		<tag k="place" v="locality" />
		<tag k="ssr:stedsnr" v="623970" />
	</node>
	<node id="-688473" lat="68.1458916669" lon="15.515452777">
		<tag k="name" v="Osen" />
		<tag k="natural" v="bay" />
		<tag k="ssr:stedsnr" v="290567" />
	</node>
	<node id="-690520" lat="68.068374999" lon="15.3135416768">
		<tag k="name" v="Teistholmen" />
		<tag k="place" v="islet" />
		<tag k="ssr:stedsnr" v="623966" />
	</node>
	<node id="-690518" lat="68.0547916672" lon="15.5210527696">
		<tag k="name" v="Vedholmen" />
		<tag k="place" v="islet" />
		<tag k="ssr:stedsnr" v="623951" />
	</node>
	<node id="-688469" lat="68.1222694436" lon="15.7209333408">
		<tag k="name" v="Kleiberget" />
		<tag k="natural" v="cape" />
		<tag k="ssr:stedsnr" v="291448" />
	</node>
	<node id="-690514" lat="68.0392222263" lon="15.4370805546">
		<tag k="alt_name" v="Røssviksundet" />
		<tag k="name" v="Røsviksundet" />
		<tag k="natural" v="strait" />
		<tag k="ssr:stedsnr" v="623927" />
	</node>
	<node id="-690513" lat="68.041822226" lon="15.4216777679">
		<tag k="name" v="Stranda" />
		<tag k="natural" v="beach" />
		<tag k="place" v="locality" />
		<tag k="ssr:stedsnr" v="623925" />
	</node>
	<node id="-690512" lat="68.0347527823" lon="15.4409861026">
		<tag k="alt_name" v="Forøyodden, l" />
		<tag k="name" v="Litl Forøyodden" />
		<tag k="natural" v="cape" />
		<tag k="ssr:stedsnr" v="623924" />
	</node>
	<node id="-688463" lat="68.1850861142" lon="15.6139999962">
		<tag k="name" v="Søfthamn" />
		<tag k="natural" v="bay" />
		<tag k="ssr:stedsnr" v="278669" />
	</node>
	<node id="-690510" lat="67.9909166708" lon="15.4767805569">
		<tag k="name" v="Svinholmen" />
		<tag k="place" v="islet" />
		<tag k="ssr:stedsnr" v="623900" />
	</node>
	<node id="-690509" lat="68.0225888905" lon="15.4384527802">
		<tag k="name" v="Storøya" />
		<tag k="natural" v="cape" />
		<tag k="ssr:stedsnr" v="623895" />
	</node>
	<node id="-690507" lat="67.9974944474" lon="15.3689305544">
		<tag k="name" v="Vidgrunnen" />
		<tag k="natural" v="shoal" />
		<tag k="place" v="locality" />
		<tag k="ssr:stedsnr" v="623892" />
	</node>
	<node id="-690506" lat="68.2128555514" lon="15.9572500023">
		<tag k="name" v="Forbardneset" />
		<tag k="natural" v="cape" />
		<tag k="ssr:stedsnr" v="623842" />
	</node>
	<node id="-690505" lat="68.2049361086" lon="15.9403500092">
		<tag k="name" v="Gressøyra" />
		<tag k="natural" v="cape" />
		<tag k="ssr:stedsnr" v="623840" />
	</node>
	<node id="-690504" lat="68.170236112" lon="15.7146638907">
		<tag k="name" v="Sandneset" />
		<tag k="natural" v="cape" />
		<tag k="ssr:stedsnr" v="623794" />
	</node>
	<node id="-690492" lat="67.9717611134" lon="15.8861333277">
		<tag k="fixme" v="multiple name tags, choose one and add the other to alt_name" />
		<tag k="name" v="Kokneset;Litlstraumsnes" />
		<tag k="natural" v="cape" />
		<tag k="ssr:stedsnr" v="623662" />
	</node>
	<node id="-690491" lat="68.0887777757" lon="15.7437416661">
		<tag k="name" v="Pollstranda" />
		<tag k="natural" v="beach" />
		<tag k="place" v="locality" />
		<tag k="ssr:stedsnr" v="623652" />
	</node>
	<node id="-690482" lat="67.9775694481" lon="15.3929388972">
		<tag k="name" v="Dragan" />
		<tag k="place" v="islet" />
		<tag k="ssr:stedsnr" v="623631" />
	</node>
	<node id="-688718" lat="67.9675722199" lon="15.9050138815">
		<tag k="name" v="Litlstraumneset" />
		<tag k="natural" v="cape" />
		<tag k="ssr:stedsnr" v="352742" />
	</node>
	<node id="-690478" lat="67.9700277757" lon="15.4731083246">
		<tag k="alt_name" v="Vasskjeret;Vasskjæret" />
		<tag k="fixme" v="consider seamark:type=rock or natural=shoal" />
		<tag k="name" v="Vaskjeret" />
		<tag k="place" v="islet" />
		<tag k="ssr:stedsnr" v="623617" />
	</node>
	<node id="-691024" lat="68.1461138878" lon="15.5166694458">
		<tag k="name" v="Kobbvika" />
		<tag k="natural" v="bay" />
		<tag k="ssr:stedsnr" v="805095" />
	</node>
	<node id="-690900" lat="68.2021750014" lon="15.9395833441">
		<tag k="loc_name" v="Karviholmen" />
		<tag k="name" v="Karveodden" />
		<tag k="natural" v="cape" />
		<tag k="ssr:stedsnr" v="745833" />
	</node>
	<node id="-690466" lat="67.9235500011" lon="15.8867111067">
		<tag k="alt_name" v="Lagmannsvika, store" />
		<tag k="name" v="Storlagmannsvika" />
		<tag k="natural" v="bay" />
		<tag k="ssr:stedsnr" v="623397" />
	</node>
	<node id="-690465" lat="67.9209277788" lon="15.8559138776">
		<tag k="name" v="Hopen" />
		<tag k="natural" v="bay" />
		<tag k="ssr:stedsnr" v="623379" />
	</node>
	<node id="-690906" lat="68.0111638899" lon="15.4485055483">
		<tag k="name" v="Leiholmen" />
		<tag k="place" v="islet" />
		<tag k="ssr:stedsnr" v="745896" />
	</node>
	<node id="-690457" lat="68.1405999994" lon="15.5759416779">
		<tag k="name" v="Bryggholmen" />
		<tag k="place" v="islet" />
		<tag k="ssr:stedsnr" v="623132" />
	</node>
	<node id="-690455" lat="68.1422666637" lon="15.5250777728">
		<tag k="alt_name" v="Brannøya" />
		<tag k="name" v="Brandøya" />
		<tag k="natural" v="cape" />
		<tag k="ssr:stedsnr" v="623119" />
	</node>
	<node id="-690454" lat="68.1417972224" lon="15.5505555661">
		<tag k="alt_name" v="Kattskjeret" />
		<tag k="fixme" v="consider seamark:type=rock or natural=shoal" />
		<tag k="name" v="Kattskjæret" />
		<tag k="place" v="islet" />
		<tag k="ssr:stedsnr" v="623116" />
	</node>
	<node id="-688857" lat="68.0338944421" lon="15.4015583395">
		<tag k="name" v="Husnes" />
		<tag k="natural" v="cape" />
		<tag k="ssr:stedsnr" v="413227" />
	</node>
	<node id="-690452" lat="68.1620805577" lon="15.4952472213">
		<tag k="fixme" v="multiple name tags, choose one and add the other to alt_name" />
		<tag k="name" v="Kaldganen;Kulgarden" />
		<tag k="natural" v="shoal" />
		<tag k="place" v="locality" />
		<tag k="ssr:stedsnr" v="623098" />
	</node>
	<node id="-690451" lat="68.1613499981" lon="15.5030277835">
		<tag k="name" v="Selsøyodden" />
		<tag k="natural" v="cape" />
		<tag k="ssr:stedsnr" v="623096" />
	</node>
	<node id="-690442" lat="68.0083694396" lon="15.9291638985">
		<tag k="name" v="Ytterodden" />
		<tag k="natural" v="cape" />
		<tag k="ssr:stedsnr" v="595706" />
	</node>
	<node id="-690440" lat="67.9797055514" lon="15.4333027725">
		<tag k="name" v="Silsandskjeret" />
		<tag k="natural" v="cape" />
		<tag k="ssr:stedsnr" v="595672" />
	</node>
	<node id="-688989" lat="68.0839805547" lon="15.6579722162">
		<tag k="name" v="Presteidvika" />
		<tag k="natural" v="bay" />
		<tag k="ssr:stedsnr" v="898119" />
	</node>
	<node id="-690424" lat="67.9885444418" lon="15.8186249974">
		<tag k="name" v="Oteråklubben" />
		<tag k="natural" v="cape" />
		<tag k="ssr:stedsnr" v="594790" />
	</node>
	<node id="-690423" lat="67.9787694426" lon="15.5141749979">
		<tag k="name" v="Kalven" />
		<tag k="place" v="islet" />
		<tag k="ssr:stedsnr" v="594778" />
	</node>
	<node id="-690419" lat="68.1241444406" lon="15.396402787">
		<tag k="name" v="Nordsundet" />
		<tag k="natural" v="strait" />
		<tag k="ssr:stedsnr" v="594698" />
	</node>
	<node id="-690411" lat="68.0042808988" lon="15.7009136755">
		<tag k="name" v="Håkvik" />
		<tag k="natural" v="bay" />
		<tag k="ssr:stedsnr" v="594620" />
	</node>
	<node id="-690410" lat="68.1421361151" lon="15.6143611209">
		<tag k="name" v="Jektvika" />
		<tag k="natural" v="bay" />
		<tag k="ssr:stedsnr" v="594617" />
	</node>
	<node id="-690409" lat="67.9966916681" lon="15.6930250052">
		<tag k="name" v="Lundstranda" />
		<tag k="natural" v="beach" />
		<tag k="place" v="locality" />
		<tag k="ssr:stedsnr" v="594609" />
	</node>
	<node id="-690406" lat="68.0169444453" lon="15.9610666583">
		<tag k="name" v="Djupvika" />
		<tag k="natural" v="bay" />
		<tag k="ssr:stedsnr" v="594588" />
	</node>
	<node id="-690405" lat="68.025477774" lon="15.9477749998">
		<tag k="name" v="Varpvågodden" />
		<tag k="natural" v="cape" />
		<tag k="ssr:stedsnr" v="594586" />
	</node>
	<node id="-690402" lat="67.9977666667" lon="15.4998222262">
		<tag k="name" v="Sandanberget" />
		<tag k="natural" v="cape" />
		<tag k="ssr:stedsnr" v="594556" />
	</node>
	<node id="-690400" lat="68.0282305551" lon="15.8391999976">
		<tag k="name" v="Roparnesbukta" />
		<tag k="natural" v="bay" />
		<tag k="ssr:stedsnr" v="594494" />
	</node>
	<node id="-688845" lat="67.8996333354" lon="15.8529555563">
		<tag k="name" v="Tømmerlendinga" />
		<tag k="natural" v="bay" />
		<tag k="ssr:stedsnr" v="412948" />
	</node>
	<node id="-690374" lat="68.0369916635" lon="15.4030611015">
		<tag k="fixme" v="consider seamark:type=rock or natural=shoal" />
		<tag k="name" v="Litlskjeret" />
		<tag k="place" v="islet" />
		<tag k="ssr:stedsnr" v="594210" />
	</node>
	<node id="-690370" lat="68.1795194449" lon="15.6715277812">
		<tag k="name" v="Slipodden" />
		<tag k="natural" v="cape" />
		<tag k="ssr:stedsnr" v="594191" />
	</node>
	<node id="-690368" lat="68.1753972247" lon="15.6708083412">
		<tag k="name" v="Flatholmen" />
		<tag k="place" v="islet" />
		<tag k="ssr:stedsnr" v="594187" />
	</node>
	<node id="-690367" lat="68.040822223" lon="15.7387777817">
		<tag k="name" v="Havnesodden" />
		<tag k="natural" v="cape" />
		<tag k="ssr:stedsnr" v="594136" />
	</node>
	<node id="-690361" lat="68.1855499964" lon="15.6685083329">
		<tag k="name" v="Eggholmen" />
		<tag k="place" v="islet" />
		<tag k="ssr:stedsnr" v="594090" />
	</node>
	<node id="-690359" lat="68.1846694453" lon="15.6031999969">
		<tag k="name" v="Stangholmen" />
		<tag k="place" v="islet" />
		<tag k="ssr:stedsnr" v="594079" />
	</node>
	<node id="-690354" lat="68.0184666693" lon="15.7082722163">
		<tag k="name" v="Orrvika" />
		<tag k="natural" v="bay" />
		<tag k="ssr:stedsnr" v="594027" />
	</node>
	<node id="-690350" lat="68.0039555573" lon="15.4703416687">
		<tag k="fixme" v="consider seamark:type=rock or natural=shoal" />
		<tag k="name" v="Storbøsmaren" />
		<tag k="place" v="islet" />
		<tag k="ssr:stedsnr" v="594546" />
	</node>
	<node id="-690349" lat="68.1358611072" lon="15.7078777741">
		<tag k="name" v="Stranda" />
		<tag k="natural" v="beach" />
		<tag k="place" v="locality" />
		<tag k="ssr:stedsnr" v="594543" />
	</node>
	<node id="-690345" lat="68.1282972177" lon="15.4899277793">
		<tag k="name" v="Fåbærneset" />
		<tag k="natural" v="cape" />
		<tag k="ssr:stedsnr" v="594505" />
	</node>
	<node id="-690340" lat="68.2072805523" lon="15.9313611016">
		<tag k="name" v="Langøra" />
		<tag k="natural" v="shoal" />
		<tag k="place" v="locality" />
		<tag k="ssr:stedsnr" v="582213" />
	</node>
	<node id="-690339" lat="68.1306555545" lon="15.8367722256">
		<tag k="name" v="Snekkerjoholmen" />
		<tag k="place" v="islet" />
		<tag k="ssr:stedsnr" v="581611" />
	</node>
	<node id="-690336" lat="68.1096833369" lon="15.8001916553">
		<tag k="alt_name" v="Hestneset" />
		<tag k="name" v="Hestnes" />
		<tag k="natural" v="cape" />
		<tag k="ssr:stedsnr" v="581024" />
	</node>
	<node id="-690330" lat="68.0088194474" lon="15.4236500061">
		<tag k="alt_name" v="Kjerkneset" />
		<tag k="name" v="Kirknes" />
		<tag k="natural" v="cape" />
		<tag k="ssr:stedsnr" v="563889" />
	</node>
	<node id="-690329" lat="68.0123083321" lon="15.4297138934">
		<tag k="name" v="Storstranda" />
		<tag k="natural" v="beach" />
		<tag k="place" v="locality" />
		<tag k="ssr:stedsnr" v="563888" />
	</node>
	<node id="-690327" lat="68.1827499972" lon="15.6792388917">
		<tag k="alt_name" v="Svartskjeret" />
		<tag k="fixme" v="consider seamark:type=rock or natural=shoal" />
		<tag k="name" v="Svartskjæret" />
		<tag k="place" v="islet" />
		<tag k="ssr:stedsnr" v="563816" />
	</node>
	<node id="-690321" lat="68.1248" lon="15.8260388838">
		<tag k="alt_name" v="Ansneset" />
		<tag k="name" v="Andsneset" />
		<tag k="natural" v="cape" />
		<tag k="ssr:stedsnr" v="563744" />
	</node>
	<node id="-690310" lat="68.1795361148" lon="15.611900001">
		<tag k="name" v="Bjørnerøya" />
		<tag k="place" v="islet" />
		<tag k="ssr:stedsnr" v="563082" />
	</node>
	<node id="-690306" lat="68.0886722207" lon="15.5154222156">
		<tag k="fixme" v="multiple name tags, choose one and add the other to alt_name" />
		<tag k="name" v="Djupviknakkan;Juviknakken" />
		<tag k="natural" v="cape" />
		<tag k="ssr:stedsnr" v="562994" />
	</node>
	<node id="-690305" lat="68.0839611073" lon="15.5208444366">
		<tag k="name" v="Nakkvollholmen" />
		<tag k="place" v="islet" />
		<tag k="ssr:stedsnr" v="562992" />
	</node>
	<node id="-690304" lat="68.0734888903" lon="15.3034722129">
		<tag k="name" v="Nordlandsøya" />
		<tag k="place" v="island" />
		<tag k="ssr:stedsnr" v="562982" />
	</node>
	<node id="-690302" lat="68.0791722211" lon="15.5583083305">
		<tag k="bay" v="fjord" />
		<tag k="name" v="Uteidsjøen" />
		<tag k="natural" v="bay" />
		<tag k="ssr:stedsnr" v="562966" />
	</node>
	<node id="-690300" lat="68.0552999976" lon="15.5359916685">
		<tag k="name" v="Leiholmen" />
		<tag k="place" v="islet" />
		<tag k="ssr:stedsnr" v="562946" />
	</node>
	<node id="-690296" lat="68.0434194492" lon="15.5099944382">
		<tag k="alt_name" v="Ørskjeran;Ørskjæran" />
		<tag k="fixme" v="consider seamark:type=rock or natural=shoal" />
		<tag k="name" v="Røyrskjeran" />
		<tag k="place" v="islet" />
		<tag k="ssr:stedsnr" v="562927" />
	</node>
	<node id="-690295" lat="68.0503666698" lon="15.4992055531">
		<tag k="fixme" v="consider seamark:type=rock or natural=shoal" />
		<tag k="name" v="Jektskjeret" />
		<tag k="place" v="islet" />
		<tag k="ssr:stedsnr" v="562926" />
	</node>
	<node id="-690291" lat="68.0398222226" lon="15.4203777721">
		<tag k="name" v="Oppsetodden" />
		<tag k="natural" v="cape" />
		<tag k="ssr:stedsnr" v="562902" />
	</node>
	<node id="-690287" lat="68.1421749961" lon="15.7232194528">
		<tag k="name" v="Storøya" />
		<tag k="place" v="island" />
		<tag k="ssr:stedsnr" v="562821" />
	</node>
	<node id="-690285" lat="68.1602472209" lon="15.8436611107">
		<tag k="name" v="Buøyodden" />
		<tag k="natural" v="cape" />
		<tag k="ssr:stedsnr" v="562816" />
	</node>
	<node id="-689236" lat="68.1586694475" lon="15.6270499979">
		<tag k="fixme" v="consider seamark:type=rock or natural=shoal" />
		<tag k="name" v="Hellvikskjeran" />
		<tag k="place" v="islet" />
		<tag k="ssr:stedsnr" v="49690" />
	</node>
	<node id="-690281" lat="67.995036114" lon="15.935455552">
		<tag k="name" v="Roparneset" />
		<tag k="natural" v="cape" />
		<tag k="ssr:stedsnr" v="562653" />
	</node>
	<node id="-690280" lat="67.9878805546" lon="15.9345638891">
		<tag k="name" v="Holmgrunnen" />
		<tag k="natural" v="shoal" />
		<tag k="place" v="locality" />
		<tag k="ssr:stedsnr" v="562651" />
	</node>
	<node id="-690274" lat="68.0485861093" lon="15.8059472222">
		<tag k="fixme" v="multiple name tags, choose one and add the other to alt_name" />
		<tag k="name" v="Skipvågneset;Skjevågneset" />
		<tag k="natural" v="cape" />
		<tag k="ssr:stedsnr" v="562627" />
	</node>
	<node id="-690273" lat="68.0441027782" lon="15.8035472147">
		<tag k="name" v="Silsandneset" />
		<tag k="natural" v="cape" />
		<tag k="ssr:stedsnr" v="562625" />
	</node>
	<node id="-690272" lat="67.9840805553" lon="15.5820833435">
		<tag k="name" v="Gamalhausskallen" />
		<tag k="natural" v="shoal" />
		<tag k="place" v="locality" />
		<tag k="ssr:stedsnr" v="562622" />
	</node>
	<node id="-690271" lat="67.9896888926" lon="15.6566000097">
		<tag k="fixme" v="multiple name tags, choose one and add the other to alt_name" />
		<tag k="name" v="Fikkestadvika;Fitjestadvika" />
		<tag k="natural" v="bay" />
		<tag k="ssr:stedsnr" v="562619" />
	</node>
	<node id="-690269" lat="67.9863999967" lon="15.6419583368">
		<tag k="name" v="Fitjestadbukta" />
		<tag k="natural" v="bay" />
		<tag k="ssr:stedsnr" v="562611" />
	</node>
	<node id="-690267" lat="67.9667611085" lon="15.3942000012">
		<tag k="alt_name" v="Store Bolsøya" />
		<tag k="name" v="Bolsøya" />
		<tag k="place" v="island" />
		<tag k="ssr:stedsnr" v="562596" />
	</node>
	<node id="-690265" lat="68.0327305567" lon="15.6978194471">
		<tag k="name" v="Melåtodden" />
		<tag k="natural" v="cape" />
		<tag k="ssr:stedsnr" v="562575" />
	</node>
	<node id="-688825" lat="68.2214249968" lon="15.9045555598">
		<tag k="name" v="Trinøybåen" />
		<tag k="natural" v="shoal" />
		<tag k="place" v="locality" />
		<tag k="ssr:stedsnr" v="400155" />
	</node>
	<node id="-689166" lat="68.1742805525" lon="15.6834444323">
		<tag k="name" v="Eholmen" />
		<tag k="place" v="islet" />
		<tag k="ssr:stedsnr" v="48169" />
	</node>
	<node id="-688824" lat="68.1870638893" lon="15.670716666">
		<tag k="name" v="Tranøygalten" />
		<tag k="natural" v="shoal" />
		<tag k="place" v="locality" />
		<tag k="ssr:stedsnr" v="399696" />
	</node>
	<node id="-690250" lat="68.1267972184" lon="15.4917277686">
		<tag k="name" v="Vågen" />
		<tag k="natural" v="bay" />
		<tag k="ssr:stedsnr" v="562105" />
	</node>
	<node id="-688823" lat="68.1773388876" lon="15.6732694429">
		<tag k="name" v="Orionsbåen" />
		<tag k="place" v="locality" />
		<tag k="seamark:type" v="rock" />
		<tag k="ssr:stedsnr" v="399687" />
	</node>
	<node id="-690248" lat="68.1467194476" lon="15.4429805655">
		<tag k="name" v="Korsøya" />
		<tag k="place" v="island" />
		<tag k="ssr:stedsnr" v="562064" />
	</node>
	<node id="-690241" lat="68.1431750028" lon="15.4315777877">
		<tag k="name" v="Mellastrenden" />
		<tag k="natural" v="beach" />
		<tag k="place" v="locality" />
		<tag k="ssr:stedsnr" v="534915" />
	</node>
	<node id="-690234" lat="67.9890777769" lon="15.9709083344">
		<tag k="name" v="Fjordbotn" />
		<tag k="natural" v="bay" />
		<tag k="ssr:stedsnr" v="534761" />
	</node>
	<node id="-690233" lat="67.9779805531" lon="15.913674989">
		<tag k="name" v="Melkarnes" />
		<tag k="natural" v="cape" />
		<tag k="ssr:stedsnr" v="534753" />
	</node>
	<node id="-690232" lat="68.1264083307" lon="15.4098916773">
		<tag k="name" v="Hopørsjyen" />
		<tag k="natural" v="bay" />
		<tag k="ssr:stedsnr" v="534741" />
	</node>
	<node id="-689161" lat="68.1725333339" lon="15.8089888913">
		<tag k="name" v="Indre Farbåen" />
		<tag k="natural" v="shoal" />
		<tag k="place" v="locality" />
		<tag k="ssr:stedsnr" v="35592" />
	</node>
	<node id="-688731" lat="68.1499500033" lon="15.4424138937">
		<tag k="alt_name" v="Litlskringen" />
		<tag k="fixme" v="consider seamark:type=rock or natural=shoal" />
		<tag k="name" v="Litlskreingen" />
		<tag k="place" v="islet" />
		<tag k="ssr:stedsnr" v="380087" />
	</node>
	<node id="-690222" lat="68.1545944458" lon="15.721866663">
		<tag k="name" v="Breistranda" />
		<tag k="natural" v="beach" />
		<tag k="place" v="locality" />
		<tag k="ssr:stedsnr" v="534695" />
	</node>
	<node id="-690218" lat="68.1562694441" lon="15.6273027738">
		<tag k="name" v="Rugvika" />
		<tag k="natural" v="bay" />
		<tag k="ssr:stedsnr" v="534659" />
	</node>
	<node id="-688641" lat="68.1639527785" lon="15.6901277724">
		<tag k="name" v="Sommerselosen" />
		<tag k="natural" v="bay" />
		<tag k="ssr:stedsnr" v="351220" />
	</node>
	<node id="-690216" lat="68.0072972205" lon="15.6849916591">
		<tag k="name" v="Fornesbukta" />
		<tag k="natural" v="bay" />
		<tag k="ssr:stedsnr" v="534650" />
	</node>
	<node id="-690215" lat="68.0012194463" lon="15.7138861184">
		<tag k="name" v="Neset" />
		<tag k="natural" v="cape" />
		<tag k="ssr:stedsnr" v="534644" />
	</node>
	<node id="-690212" lat="68.1436749965" lon="15.6269111082">
		<tag k="name" v="Bjørndalsneset" />
		<tag k="natural" v="cape" />
		<tag k="ssr:stedsnr" v="534627" />
	</node>
	<node id="-689158" lat="68.0700222234" lon="15.5441250005">
		<tag k="fixme" v="consider seamark:type=rock or natural=shoal" />
		<tag k="name" v="Langskjæret" />
		<tag k="place" v="islet" />
		<tag k="ssr:stedsnr" v="35519" />
	</node>
	<node id="-688474" lat="68.1410250011" lon="15.4249277723">
		<tag k="name" v="Sørsjyen" />
		<tag k="natural" v="bay" />
		<tag k="ssr:stedsnr" v="290850" />
	</node>
	<node id="-690199" lat="68.1229027769" lon="15.8736889001">
		<tag k="name" v="Vågen" />
		<tag k="natural" v="bay" />
		<tag k="ssr:stedsnr" v="534386" />
	</node>
	<node id="-688458" lat="67.9894861159" lon="15.3756722136">
		<tag k="name" v="Steingrunnen" />
		<tag k="natural" v="shoal" />
		<tag k="place" v="locality" />
		<tag k="ssr:stedsnr" v="278152" />
	</node>
	<node id="-690618" lat="68.1497805583" lon="15.9209527806">
		<tag k="name" v="Øyra" />
		<tag k="natural" v="cape" />
		<tag k="ssr:stedsnr" v="655714" />
	</node>
	<node id="-690195" lat="68.0982083329" lon="15.6335777709">
		<tag k="name" v="Møllosen" />
		<tag k="natural" v="bay" />
		<tag k="ssr:stedsnr" v="534364" />
	</node>
	<node id="-690180" lat="68.0393222188" lon="15.4059055502">
		<tag k="name" v="Maritneset" />
		<tag k="natural" v="cape" />
		<tag k="ssr:stedsnr" v="534219" />
	</node>
</osm>
