<?xml version="1.0" encoding="UTF-8"?>
<osm generator="osmapis" version="0.6">
	<node id="-690168" lat="68.1038583324" lon="15.5404444363">
		<tag k="name" v="Nordmark" />
		<tag k="place" v="farm" />
		<tag k="ssr:stedsnr" v="958481" />
	</node>
	<node id="-690167" lat="68.1136222201" lon="15.4937527877">
		<tag k="name" v="Haugen" />
		<tag k="place" v="farm" />
		<tag k="ssr:stedsnr" v="958472" />
	</node>
	<node id="-690165" lat="68.1068916633" lon="15.5175388923">
		<tag k="name" v="Nordåsen" />
		<tag k="place" v="farm" />
		<tag k="ssr:stedsnr" v="958301" />
	</node>
	<node id="-688110" lat="68.1040999968" lon="15.5228694392">
		<tag k="name" v="Skarheim" />
		<tag k="place" v="farm" />
		<tag k="ssr:stedsnr" v="109421" />
	</node>
	<node id="-688107" lat="68.1145024606" lon="15.4938892111">
		<tag k="name" v="Dalen" />
		<tag k="place" v="farm" />
		<tag k="ssr:stedsnr" v="108457" />
	</node>
	<node id="-688104" lat="68.0888666659" lon="15.5797111219">
		<tag k="name" v="Ytterstad" />
		<tag k="place" v="farm" />
		<tag k="ssr:stedsnr" v="109021" />
	</node>
	<node id="-690150" lat="68.0559166648" lon="15.4304555577">
		<tag k="alt_name" v="Nævernesvoll" />
		<tag k="name" v="Vollan" />
		<tag k="place" v="isolated_dwelling" />
		<tag k="ssr:stedsnr" v="927968" />
	</node>
	<node id="-690143" lat="67.9915277788" lon="15.6111194428">
		<tag k="name" v="Myrland" />
		<tag k="place" v="farm" />
		<tag k="ssr:stedsnr" v="927914" />
	</node>
	<node id="-690139" lat="68.0200666652" lon="15.3642666675">
		<tag k="name" v="Steinsland" />
		<tag k="place" v="farm" />
		<tag k="ssr:stedsnr" v="927909" />
	</node>
	<node id="-688086" lat="68.0731527815" lon="15.4569222258">
		<tag k="alt_name" v="Eidislia" />
		<tag k="name" v="Eideslia" />
		<tag k="place" v="farm" />
		<tag k="ssr:stedsnr" v="78980" />
	</node>
	<node id="-690117" lat="68.1390777755" lon="15.8837555477">
		<tag k="name" v="Solstad" />
		<tag k="place" v="farm" />
		<tag k="ssr:stedsnr" v="927690" />
	</node>
	<node id="-688065" lat="68.1489166697" lon="15.8845833312">
		<tag k="name" v="Frydenlund" />
		<tag k="place" v="farm" />
		<tag k="ssr:stedsnr" v="78736" />
	</node>
	<node id="-688064" lat="68.1333833293" lon="15.7049027675">
		<tag k="alt_name" v="Leirvågen" />
		<tag k="name" v="Leirvåg" />
		<tag k="place" v="farm" />
		<tag k="ssr:stedsnr" v="78704" />
	</node>
	<node id="-690106" lat="67.9728472208" lon="15.9234222244">
		<tag k="alt_name" v="Strømsnes" />
		<tag k="fixme" v="consider place=hamlet" />
		<tag k="name" v="Straumsnes" />
		<tag k="place" v="farm" />
		<tag k="ssr:stedsnr" v="927638" />
	</node>
	<node id="-690096" lat="68.0160444465" lon="15.7346972134">
		<tag k="alt_name" v="Karlsøybotn, in" />
		<tag k="fixme" v="multiple name tags, choose one and add the other to alt_name" />
		<tag k="name" v="Østre Karlsøybotn;Indre Karlsøybotn" />
		<tag k="place" v="farm" />
		<tag k="ssr:stedsnr" v="927595" />
	</node>
	<node id="-688047" lat="68.060844442" lon="15.661411105">
		<tag k="name" v="Tuva" />
		<tag k="place" v="isolated_dwelling" />
		<tag k="ssr:stedsnr" v="78594" />
	</node>
	<node id="-688043" lat="67.833794448" lon="15.8446583312">
		<tag k="name" v="Makkvatnet" />
		<tag k="place" v="farm" />
		<tag k="ssr:stedsnr" v="78484" />
	</node>
	<node id="-688023" lat="68.0379944464" lon="15.3869444545">
		<tag k="name" v="Sørvåg" />
		<tag k="place" v="farm" />
		<tag k="ssr:stedsnr" v="77924" />
	</node>
	<node id="-688019" lat="68.007202779" lon="15.4008638981">
		<tag k="name" v="Ryen" />
		<tag k="place" v="farm" />
		<tag k="ssr:stedsnr" v="77829" />
	</node>
	<node id="-690059" lat="68.0026444466" lon="15.4948694437">
		<tag k="alt_name" v="Finnøya" />
		<tag k="name" v="Finnøy" />
		<tag k="place" v="hamlet" />
		<tag k="ssr:stedsnr" v="927844" />
	</node>
	<node id="-688005" lat="67.8501861075" lon="15.962613898">
		<tag k="name" v="Kjerkfjell - Girkkovárre" />
		<tag k="name:no" v="Kjerkfjell" />
		<tag k="name:smj" v="Girkkovárre" />
		<tag k="old_name:smj" v="Girkovárri" />
		<tag k="place" v="farm" />
		<tag k="ssr:stedsnr" v="77472" />
	</node>
	<node id="-690050" lat="68.0234416644" lon="15.3031083229">
		<tag k="name" v="Utvåg" />
		<tag k="place" v="isolated_dwelling" />
		<tag k="ssr:stedsnr" v="867905" />
	</node>
	<node id="-687996" lat="68.1498000037" lon="15.4905805593">
		<tag k="name" v="Moa" />
		<tag k="place" v="farm" />
		<tag k="ssr:stedsnr" v="77083" />
	</node>
	<node id="-687994" lat="68.0892166715" lon="15.5592833231">
		<tag k="alt_name" v="Elsbakken" />
		<tag k="name" v="Elsbakk" />
		<tag k="place" v="isolated_dwelling" />
		<tag k="ssr:stedsnr" v="77045" />
	</node>
	<node id="-690040" lat="68.1098527783" lon="15.8416416771">
		<tag k="name" v="Grimsosen" />
		<tag k="place" v="farm" />
		<tag k="ssr:stedsnr" v="867673" />
	</node>
	<node id="-687991" lat="68.0895888895" lon="15.8533083379">
		<tag k="name" v="Heimdal" />
		<tag k="place" v="farm" />
		<tag k="ssr:stedsnr" v="49965" />
	</node>
	<node id="-690037" lat="68.0302555567" lon="15.8234972116">
		<tag k="alt_name" v="Kallvågstraumen" />
		<tag k="name" v="Kaldvågstraumen" />
		<tag k="place" v="isolated_dwelling" />
		<tag k="ssr:stedsnr" v="867600" />
	</node>
	<node id="-687988" lat="68.1628166693" lon="15.9539277882">
		<tag k="name" v="Åsgård" />
		<tag k="place" v="farm" />
		<tag k="ssr:stedsnr" v="49892" />
	</node>
	<node id="-690025" lat="68.0756888872" lon="15.3545055531">
		<tag k="name" v="Dalsmælen" />
		<tag k="place" v="locality" />
		<tag k="ssr:stedsnr" v="866991" />
	</node>
	<node id="-690019" lat="67.9945888848" lon="15.5735611161">
		<tag k="name" v="Øverås" />
		<tag k="place" v="farm" />
		<tag k="ssr:stedsnr" v="866892" />
	</node>
	<node id="-690018" lat="67.9969194417" lon="15.5490277763">
		<tag k="name" v="Nylenda" />
		<tag k="place" v="farm" />
		<tag k="ssr:stedsnr" v="866890" />
	</node>
	<node id="-690016" lat="68.0002555559" lon="15.6085972177">
		<tag k="name" v="Tronstad" />
		<tag k="place" v="farm" />
		<tag k="ssr:stedsnr" v="866829" />
	</node>
	<node id="-689999" lat="68.0865672637" lon="15.6950333998">
		<tag k="alt_name" v="Finnvik" />
		<tag k="fixme" v="consider place=hamlet" />
		<tag k="name" v="Finnvika" />
		<tag k="place" v="farm" />
		<tag k="ssr:stedsnr" v="866611" />
	</node>
	<node id="-689995" lat="68.0553555543" lon="15.7696500025">
		<tag k="name" v="Solli" />
		<tag k="place" v="farm" />
		<tag k="ssr:stedsnr" v="866582" />
	</node>
	<node id="-687939" lat="68.0274583332" lon="15.333869434">
		<tag k="name" v="Uthaug" />
		<tag k="place" v="farm" />
		<tag k="ssr:stedsnr" v="49099" />
	</node>
	<node id="-689985" lat="67.8940527804" lon="15.8608444494">
		<tag k="alt_name" v="Vassmo" />
		<tag k="name" v="Vassmoa" />
		<tag k="place" v="farm" />
		<tag k="ssr:stedsnr" v="866366" />
	</node>
	<node id="-689976" lat="68.1400583348" lon="15.4393555628">
		<tag k="alt_name" v="Fitje" />
		<tag k="name" v="Fikke" />
		<tag k="place" v="farm" />
		<tag k="ssr:stedsnr" v="866071" />
	</node>
	<node id="-689970" lat="68.0498166659" lon="15.4547027696">
		<tag k="name" v="Skottestad" />
		<tag k="place" v="farm" />
		<tag k="ssr:stedsnr" v="866932" />
	</node>
	<node id="-689967" lat="68.0262638928" lon="15.3310055497">
		<tag k="name" v="Øvereng" />
		<tag k="place" v="farm" />
		<tag k="ssr:stedsnr" v="866911" />
	</node>
	<node id="-689963" lat="68.0888555524" lon="15.8591277878">
		<tag k="name" v="Skogvang" />
		<tag k="place" v="farm" />
		<tag k="ssr:stedsnr" v="838958" />
	</node>
	<node id="-689960" lat="67.7641916681" lon="16.0302166626">
		<tag k="name" v="Sjuendevasstua" />
		<tag k="place" v="locality" />
		<tag k="ssr:stedsnr" v="838843" />
	</node>
	<node id="-687896" lat="68.0831361087" lon="15.5932833436">
		<tag k="name" v="Uteid" />
		<tag k="place" v="farm" />
		<tag k="ssr:stedsnr" v="17992" />
	</node>
	<node id="-687894" lat="68.0688777778" lon="15.4526888913">
		<tag k="name" v="Bjørkli" />
		<tag k="place" v="farm" />
		<tag k="ssr:stedsnr" v="17970" />
	</node>
	<node id="-689940" lat="67.998727778" lon="15.5039972294">
		<tag k="amenity" v="school" />
		<tag k="name" v="Finnøy skole" />
		<tag k="ssr:stedsnr" v="838618" />
	</node>
	<node id="-687886" lat="67.9936805594" lon="15.6156277728">
		<tag k="name" v="Lynghaug" />
		<tag k="place" v="farm" />
		<tag k="ssr:stedsnr" v="17913" />
	</node>
	<node id="-687885" lat="67.9921333308" lon="15.5838138992">
		<tag k="alt_name" v="Austgård" />
		<tag k="name" v="Østgård" />
		<tag k="place" v="farm" />
		<tag k="ssr:stedsnr" v="17912" />
	</node>
	<node id="-689925" lat="68.0978222223" lon="15.6183722305">
		<tag k="name" v="Haugly" />
		<tag k="place" v="farm" />
		<tag k="ssr:stedsnr" v="838396" />
	</node>
	<node id="-687876" lat="68.201366671" lon="15.9477972191">
		<tag k="name" v="Tiltvika" />
		<tag k="place" v="isolated_dwelling" />
		<tag k="ssr:stedsnr" v="17832" />
	</node>
	<node id="-687874" lat="68.1835388863" lon="15.6622166689">
		<tag k="alt_name" v="Tranøya" />
		<tag k="fixme" v="consider place=hamlet" />
		<tag k="name" v="Tranøy" />
		<tag k="place" v="village" />
		<tag k="ssr:stedsnr" v="17819" />
	</node>
	<node id="-687870" lat="68.1588472207" lon="15.9004305632">
		<tag k="fixme" v="multiple name tags, choose one and add the other to alt_name" />
		<tag k="name" v="Skogly;Ytstedal" />
		<tag k="place" v="farm" />
		<tag k="ssr:stedsnr" v="17786" />
	</node>
	<node id="-687868" lat="68.1656277743" lon="15.7034833433">
		<tag k="alt_name" v="Sommarsel" />
		<tag k="name" v="Sommersel" />
		<tag k="place" v="farm" />
		<tag k="ssr:stedsnr" v="17782" />
	</node>
	<node id="-687853" lat="68.044852776" lon="15.7315666758">
		<tag k="alt_name" v="Kaldvåg, vestre" />
		<tag k="fixme" v="multiple name tags, choose one and add the other to alt_name" />
		<tag k="name" v="Rolfsbo;Vestre Kaldvåg" />
		<tag k="place" v="farm" />
		<tag k="ssr:stedsnr" v="17631" />
	</node>
	<node id="-689897" lat="68.0101972236" lon="15.4192805671">
		<tag k="name" v="Kirknes" />
		<tag k="place" v="farm" />
		<tag k="ssr:stedsnr" v="838091" />
	</node>
	<node id="-687848" lat="67.8395999986" lon="15.9913944328">
		<tag k="alt_name" v="Mellelvene" />
		<tag k="name" v="Mellelven" />
		<tag k="place" v="locality" />
		<tag k="ssr:stedsnr" v="17505" />
	</node>
	<node id="-689895" lat="68.0240138922" lon="15.3547638831">
		<tag k="name" v="Solheim" />
		<tag k="place" v="farm" />
		<tag k="ssr:stedsnr" v="838079" />
	</node>
	<node id="-689872" lat="68.11284722" lon="15.495313895">
		<tag k="name" v="Elvegård" />
		<tag k="place" v="farm" />
		<tag k="ssr:stedsnr" v="837452" />
	</node>
	<node id="-687823" lat="68.0875111075" lon="15.8635083339">
		<tag k="name" v="Fredheim" />
		<tag k="place" v="farm" />
		<tag k="ssr:stedsnr" v="413954" />
	</node>
	<node id="-689870" lat="68.0686055534" lon="15.8674666712">
		<tag k="name" v="Losbua" />
		<tag k="place" v="isolated_dwelling" />
		<tag k="ssr:stedsnr" v="837258" />
	</node>
	<node id="-687821" lat="68.165702964" lon="15.9599626918">
		<tag k="name" v="Tortenås" />
		<tag k="place" v="farm" />
		<tag k="ssr:stedsnr" v="990201" />
	</node>
	<node id="-687820" lat="68.1652210697" lon="15.9589944665">
		<tag k="name" v="Tortenås" />
		<tag k="place" v="farm" />
		<tag k="ssr:stedsnr" v="990200" />
	</node>
	<node id="-687819" lat="68.0860047827" lon="15.6945419204">
		<tag k="name" v="Finvik" />
		<tag k="place" v="farm" />
		<tag k="ssr:stedsnr" v="990146" />
	</node>
	<node id="-687818" lat="68.0853903168" lon="15.6088111664">
		<tag k="name" v="Oppeid" />
		<tag k="place" v="hamlet" />
		<tag k="ssr:stedsnr" v="990143" />
	</node>
	<node id="-687817" lat="68.0871125441" lon="15.5850863911">
		<tag k="name" v="Hjelseng" />
		<tag k="place" v="farm" />
		<tag k="ssr:stedsnr" v="990139" />
	</node>
	<node id="-687814" lat="67.9202467443" lon="15.8783328059">
		<tag k="name" v="Tømmerneset" />
		<tag k="place" v="farm" />
		<tag k="ssr:stedsnr" v="985364" />
	</node>
	<node id="-689854" lat="68.0660611102" lon="15.4729527834">
		<tag k="name" v="Haukås" />
		<tag k="place" v="farm" />
		<tag k="ssr:stedsnr" v="806961" />
	</node>
	<node id="-689850" lat="68.0445472243" lon="15.4014722197">
		<tag k="name" v="Stensrud" />
		<tag k="place" v="farm" />
		<tag k="ssr:stedsnr" v="806944" />
	</node>
	<node id="-687800" lat="68.1537138861" lon="15.6586194376">
		<tag k="name" v="Leite" />
		<tag k="place" v="isolated_dwelling" />
		<tag k="ssr:stedsnr" v="413695" />
	</node>
	<node id="-687791" lat="67.9122361118" lon="15.8665444342">
		<tag k="name" v="Elvenes" />
		<tag k="place" v="farm" />
		<tag k="ssr:stedsnr" v="898990" />
	</node>
	<node id="-689836" lat="68.1652249979" lon="15.6272916623">
		<tag k="alt_name" v="Hellevik" />
		<tag k="name" v="Hellevika" />
		<tag k="place" v="farm" />
		<tag k="ssr:stedsnr" v="806779" />
	</node>
	<node id="-689835" lat="68.1657027801" lon="15.7008944458">
		<tag k="name" v="Sjømyr" />
		<tag k="place" v="farm" />
		<tag k="ssr:stedsnr" v="806780" />
	</node>
	<node id="-689830" lat="68.1004055586" lon="15.7395527869">
		<tag k="name" v="Nygård" />
		<tag k="place" v="isolated_dwelling" />
		<tag k="ssr:stedsnr" v="806686" />
	</node>
	<node id="-689829" lat="68.1071916639" lon="15.8162333231">
		<tag k="name" v="Gjertrudslottet" />
		<tag k="place" v="farm" />
		<tag k="ssr:stedsnr" v="806673" />
	</node>
	<node id="-689828" lat="67.9910749982" lon="15.9527333236">
		<tag k="name" v="Hillingan" />
		<tag k="place" v="farm" />
		<tag k="ssr:stedsnr" v="806669" />
	</node>
	<node id="-689434" lat="68.11888056" lon="15.8634527689">
		<tag k="name" v="Stranda" />
		<tag k="place" v="farm" />
		<tag k="ssr:stedsnr" v="684642" />
	</node>
	<node id="-689818" lat="68.0553916687" lon="15.7693277706">
		<tag k="name" v="Grunnvåg" />
		<tag k="place" v="farm" />
		<tag k="ssr:stedsnr" v="806587" />
	</node>
	<node id="-689809" lat="67.8580166701" lon="15.9108249919">
		<tag k="alt_name:no" v="Strindneset" />
		<tag k="name" v="Strindnes - Gilda" />
		<tag k="name:no" v="Strindnes" />
		<tag k="name:smj" v="Gilda" />
		<tag k="place" v="farm" />
		<tag k="ssr:stedsnr" v="806449" />
	</node>
	<node id="-689803" lat="67.9321111125" lon="15.8758999902">
		<tag k="alt_name" v="Lagmannsvika" />
		<tag k="name" v="Lagmannsvik" />
		<tag k="place" v="farm" />
		<tag k="ssr:stedsnr" v="806382" />
	</node>
	<node id="-687752" lat="68.105775004" lon="15.5170527667">
		<tag k="name" v="Nystad" />
		<tag k="place" v="farm" />
		<tag k="ssr:stedsnr" v="898283" />
	</node>
	<node id="-687750" lat="68.0658500043" lon="15.8626472166">
		<tag k="name" v="Strandbua" />
		<tag k="place" v="isolated_dwelling" />
		<tag k="ssr:stedsnr" v="898271" />
	</node>
	<node id="-687739" lat="68.1632138924" lon="15.7070499986">
		<tag k="name" v="Fjøshågen" />
		<tag k="place" v="farm" />
		<tag k="ssr:stedsnr" v="898198" />
	</node>
	<node id="-689786" lat="68.1210444474" lon="15.4906472108">
		<tag k="alt_name" v="Børvika" />
		<tag k="name" v="Børvik" />
		<tag k="place" v="farm" />
		<tag k="ssr:stedsnr" v="806018" />
	</node>
	<node id="-689784" lat="68.0859833338" lon="15.4765805466">
		<tag k="alt_name" v="Hansbakkan" />
		<tag k="name" v="Hansbakk" />
		<tag k="place" v="farm" />
		<tag k="ssr:stedsnr" v="805996" />
	</node>
	<node id="-689769" lat="68.1434138884" lon="15.5805999892">
		<tag k="alt_name" v="Røssnes" />
		<tag k="name" v="Røsnes" />
		<tag k="place" v="locality" />
		<tag k="ssr:stedsnr" v="805097" />
	</node>
	<node id="-689766" lat="68.1444055566" lon="15.4657388937">
		<tag k="name" v="Åsan" />
		<tag k="place" v="farm" />
		<tag k="ssr:stedsnr" v="805086" />
	</node>
	<node id="-689758" lat="68.165399998" lon="15.9539916702">
		<tag k="name" v="Ranheim" />
		<tag k="place" v="isolated_dwelling" />
		<tag k="ssr:stedsnr" v="777873" />
	</node>
	<node id="-687703" lat="68.0813611106" lon="15.6254722159">
		<tag k="name" v="Herset" />
		<tag k="place" v="farm" />
		<tag k="ssr:stedsnr" v="885116" />
	</node>
	<node id="-689747" lat="68.1530499995" lon="15.6510472253">
		<tag k="amenity" v="school" />
		<tag k="name" v="Helland skole" />
		<tag k="ssr:stedsnr" v="777679" />
	</node>
	<node id="-687694" lat="68.0887805592" lon="15.8644833238">
		<tag k="name" v="Fjellstad" />
		<tag k="place" v="farm" />
		<tag k="ssr:stedsnr" v="473950" />
	</node>
	<node id="-689741" lat="68.1377499977" lon="15.710019435">
		<tag k="name" v="Nymoen" />
		<tag k="place" v="farm" />
		<tag k="ssr:stedsnr" v="777659" />
	</node>
	<node id="-687682" lat="67.9982472231" lon="15.518566662">
		<tag k="name" v="Bjørklund" />
		<tag k="place" v="farm" />
		<tag k="ssr:stedsnr" v="473686" />
	</node>
	<node id="-687680" lat="68.1542749958" lon="15.6386777835">
		<tag k="name" v="Sørvoll" />
		<tag k="place" v="farm" />
		<tag k="ssr:stedsnr" v="473644" />
	</node>
	<node id="-689719" lat="68.112758337" lon="15.5957999906">
		<tag k="name" v="Hopland" />
		<tag k="place" v="farm" />
		<tag k="ssr:stedsnr" v="777283" />
	</node>
	<node id="-687670" lat="68.1311222246" lon="15.7110333438">
		<tag k="name" v="Elveland" />
		<tag k="place" v="farm" />
		<tag k="ssr:stedsnr" v="473562" />
	</node>
	<node id="-687666" lat="67.8104999974" lon="15.9893083393">
		<tag k="name" v="Skogly" />
		<tag k="place" v="farm" />
		<tag k="ssr:stedsnr" v="473512" />
	</node>
	<node id="-687660" lat="68.1085277786" lon="15.5893583295">
		<tag k="name" v="Nerkulen" />
		<tag k="place" v="farm" />
		<tag k="ssr:stedsnr" v="473403" />
	</node>
	<node id="-687655" lat="68.0662194425" lon="15.8178083251">
		<tag k="name" v="Glennbua" />
		<tag k="place" v="isolated_dwelling" />
		<tag k="ssr:stedsnr" v="473289" />
	</node>
	<node id="-689701" lat="68.0085777798" lon="15.4037361098">
		<tag k="name" v="Øvergården" />
		<tag k="place" v="farm" />
		<tag k="ssr:stedsnr" v="777081" />
	</node>
	<node id="-687648" lat="68.0402777809" lon="15.4084777803">
		<tag k="name" v="Gården" />
		<tag k="place" v="locality" />
		<tag k="ssr:stedsnr" v="473242" />
	</node>
	<node id="-687647" lat="68.0472333337" lon="15.4168777741">
		<tag k="name" v="Thune" />
		<tag k="place" v="farm" />
		<tag k="ssr:stedsnr" v="473234" />
	</node>
	<node id="-689693" lat="67.9080611119" lon="15.801511116">
		<tag k="name" v="Gjetarhytta" />
		<tag k="place" v="locality" />
		<tag k="ssr:stedsnr" v="776857" />
	</node>
	<node id="-689692" lat="67.9933222216" lon="15.5666527725">
		<tag k="name" v="Teinvoll" />
		<tag k="place" v="farm" />
		<tag k="ssr:stedsnr" v="776541" />
	</node>
	<node id="-687641" lat="68.0473222237" lon="15.4300527738">
		<tag k="name" v="Solstad" />
		<tag k="place" v="farm" />
		<tag k="ssr:stedsnr" v="473198" />
	</node>
	<node id="-689685" lat="68.111069445" lon="15.4907111049">
		<tag k="name" v="Heim" />
		<tag k="place" v="farm" />
		<tag k="ssr:stedsnr" v="776434" />
	</node>
	<node id="-689683" lat="68.1074055571" lon="15.5190444453">
		<tag k="name" v="Langmark" />
		<tag k="place" v="farm" />
		<tag k="ssr:stedsnr" v="776257" />
	</node>
	<node id="-687634" lat="68.0021583304" lon="15.501352788">
		<tag k="name" v="Bringa" />
		<tag k="place" v="farm" />
		<tag k="ssr:stedsnr" v="413613" />
	</node>
	<node id="-687630" lat="68.0047277757" lon="15.4904111136">
		<tag k="name" v="Nordsjyen" />
		<tag k="place" v="locality" />
		<tag k="ssr:stedsnr" v="413598" />
	</node>
	<node id="-689675" lat="68.1509861117" lon="15.6237888894">
		<tag k="name" v="Bennesvikskallen" />
		<tag k="place" v="farm" />
		<tag k="ssr:stedsnr" v="764255" />
	</node>
	<node id="-689673" lat="68.0740944475" lon="15.3807944438">
		<tag k="name" v="Vasseng" />
		<tag k="place" v="isolated_dwelling" />
		<tag k="ssr:stedsnr" v="764183" />
	</node>
	<node id="-689662" lat="68.0567611115" lon="15.5976416621">
		<tag k="name" v="Kallstad" />
		<tag k="place" v="farm" />
		<tag k="ssr:stedsnr" v="745953" />
	</node>
	<node id="-689660" lat="68.0496305543" lon="15.4200305576">
		<tag k="name" v="Lian" />
		<tag k="place" v="farm" />
		<tag k="ssr:stedsnr" v="745943" />
	</node>
	<node id="-689657" lat="68.0303250021" lon="15.3412444511">
		<tag k="fixme" v="multiple name tags, choose one and add the other to alt_name" />
		<tag k="name" v="Hjelman;Hjemgan" />
		<tag k="place" v="farm" />
		<tag k="ssr:stedsnr" v="745924" />
	</node>
	<node id="-689654" lat="67.9929972264" lon="15.6095388837">
		<tag k="alt_name" v="Troskog" />
		<tag k="name" v="Troskogen" />
		<tag k="place" v="farm" />
		<tag k="ssr:stedsnr" v="745916" />
	</node>
	<node id="-689653" lat="67.9988666647" lon="15.5294583399">
		<tag k="name" v="Einsletta" />
		<tag k="place" v="farm" />
		<tag k="ssr:stedsnr" v="745913" />
	</node>
	<node id="-687602" lat="68.0469249977" lon="15.4207555439">
		<tag k="name" v="Bjørkheim" />
		<tag k="place" v="farm" />
		<tag k="ssr:stedsnr" v="413238" />
	</node>
	<node id="-687601" lat="68.0482361087" lon="15.4237861124">
		<tag k="name" v="Øldran" />
		<tag k="place" v="farm" />
		<tag k="ssr:stedsnr" v="413236" />
	</node>
	<node id="-689646" lat="68.0060694404" lon="15.41181389">
		<tag k="name" v="Karlsberg" />
		<tag k="place" v="farm" />
		<tag k="ssr:stedsnr" v="745860" />
	</node>
	<node id="-689641" lat="68.1734972199" lon="15.6662194405">
		<tag k="alt_name" v="Steinosen" />
		<tag k="name" v="Steinsos" />
		<tag k="place" v="farm" />
		<tag k="ssr:stedsnr" v="745814" />
	</node>
	<node id="-689640" lat="68.1594138924" lon="15.9199944354">
		<tag k="name" v="Nordkil" />
		<tag k="place" v="farm" />
		<tag k="ssr:stedsnr" v="745808" />
	</node>
	<node id="-689638" lat="68.1424527763" lon="15.6738222186">
		<tag k="name" v="Hellandsåsen" />
		<tag k="place" v="farm" />
		<tag k="ssr:stedsnr" v="745792" />
	</node>
	<node id="-689633" lat="68.1257500045" lon="15.7145055482">
		<tag k="name" v="Hamlot" />
		<tag k="place" v="farm" />
		<tag k="ssr:stedsnr" v="745751" />
	</node>
	<node id="-689630" lat="68.1368194469" lon="15.8945083274">
		<tag k="name" v="Sørkil" />
		<tag k="place" v="farm" />
		<tag k="ssr:stedsnr" v="745713" />
	</node>
	<node id="-689628" lat="68.1150277769" lon="15.8682916549">
		<tag k="name" v="Solhaug" />
		<tag k="place" v="farm" />
		<tag k="ssr:stedsnr" v="745686" />
	</node>
	<node id="-689627" lat="68.1156750038" lon="15.8691888971">
		<tag k="name" v="Skogmo" />
		<tag k="place" v="farm" />
		<tag k="ssr:stedsnr" v="745683" />
	</node>
	<node id="-689626" lat="68.1205805533" lon="15.8818833419">
		<tag k="alt_name" v="Ulsvåg" />
		<tag k="name" v="Ulvsvåg" />
		<tag k="place" v="farm" />
		<tag k="ssr:stedsnr" v="745678" />
	</node>
	<node id="-689621" lat="67.9491166664" lon="15.8972305542">
		<tag k="name" v="Steinbakken" />
		<tag k="place" v="farm" />
		<tag k="ssr:stedsnr" v="745629" />
	</node>
	<node id="-689619" lat="68.0436388918" lon="15.7473249937">
		<tag k="alt_name" v="Kaldvåg, austre" />
		<tag k="fixme" v="multiple name tags, choose one and add the other to alt_name" />
		<tag k="name" v="Brobakk;Austre Kaldvåg" />
		<tag k="place" v="farm" />
		<tag k="ssr:stedsnr" v="745617" />
	</node>
	<node id="-689611" lat="68.030177779" lon="15.7077555614">
		<tag k="fixme" v="multiple name tags, choose one and add the other to alt_name" />
		<tag k="name" v="Heia;Nyheim" />
		<tag k="place" v="isolated_dwelling" />
		<tag k="ssr:stedsnr" v="745562" />
	</node>
	<node id="-687561" lat="68.0841444487" lon="15.6050305596">
		<tag k="name" v="Teigen" />
		<tag k="place" v="isolated_dwelling" />
		<tag k="ssr:stedsnr" v="399478" />
	</node>
	<node id="-689608" lat="68.0024277794" lon="15.6953555636">
		<tag k="name" v="Håkonhals" />
		<tag k="place" v="hamlet" />
		<tag k="ssr:stedsnr" v="745531" />
	</node>
	<node id="-687548" lat="68.1728138892" lon="15.6621666667">
		<tag k="name" v="Myrvoll" />
		<tag k="place" v="farm" />
		<tag k="ssr:stedsnr" v="381803" />
	</node>
	<node id="-687546" lat="68.1617138859" lon="15.6334805491">
		<tag k="name" v="Skogvoll" />
		<tag k="place" v="farm" />
		<tag k="ssr:stedsnr" v="381788" />
	</node>
	<node id="-687541" lat="67.9837936006" lon="15.8870203041">
		<tag k="alt_name" v="Rødtangen" />
		<tag k="fixme" v="consider place=hamlet" />
		<tag k="name" v="Røttangan" />
		<tag k="place" v="farm" />
		<tag k="ssr:stedsnr" v="381688" />
	</node>
	<node id="-689588" lat="68.0864027788" lon="15.3982277765">
		<tag k="name" v="Sand" />
		<tag k="place" v="locality" />
		<tag k="ssr:stedsnr" v="745078" />
	</node>
	<node id="-687538" lat="67.9563833313" lon="15.8114972253">
		<tag k="name" v="Fornesveggen" />
		<tag k="place" v="farm" />
		<tag k="ssr:stedsnr" v="381668" />
	</node>
	<node id="-687532" lat="68.0008749994" lon="15.7654916761">
		<tag k="name" v="Karlsøy" />
		<tag k="place" v="hamlet" />
		<tag k="ssr:stedsnr" v="381541" />
	</node>
	<node id="-689575" lat="67.8639460231" lon="15.9341922865">
		<tag k="name" v="Strinda - Tjoalmme" />
		<tag k="name:no" v="Strinda" />
		<tag k="name:smj" v="Tjoalmme" />
		<tag k="old_name:smj" v="Čoalmi" />
		<tag k="place" v="farm" />
		<tag k="ssr:stedsnr" v="745452" />
	</node>
	<node id="-687525" lat="67.7926250001" lon="16.0878805576">
		<tag k="name" v="Bannetlægeret" />
		<tag k="place" v="locality" />
		<tag k="ssr:stedsnr" v="381299" />
	</node>
	<node id="-689572" lat="67.8936861102" lon="15.7811611064">
		<tag k="alt_name" v="Lapplægeret" />
		<tag k="name" v="Lapplægret" />
		<tag k="place" v="locality" />
		<tag k="ssr:stedsnr" v="745430" />
	</node>
	<node id="-687515" lat="68.1242499966" lon="15.4182055527">
		<tag k="alt_name" v="Bjørnvågen" />
		<tag k="name" v="Bjørnvåg" />
		<tag k="place" v="farm" />
		<tag k="ssr:stedsnr" v="381004" />
	</node>
	<node id="-687514" lat="68.0875527754" lon="15.567866676">
		<tag k="fixme" v="multiple name tags, choose one and add the other to alt_name" />
		<tag k="name" v="Reset;Vesterli" />
		<tag k="place" v="farm" />
		<tag k="ssr:stedsnr" v="380992" />
	</node>
	<node id="-687512" lat="68.072105553" lon="15.347705561">
		<tag k="name" v="Sørdal" />
		<tag k="place" v="isolated_dwelling" />
		<tag k="ssr:stedsnr" v="380985" />
	</node>
	<node id="-687511" lat="68.0726111124" lon="15.4059722278">
		<tag k="alt_name" v="Frulia" />
		<tag k="name" v="Fruli" />
		<tag k="place" v="farm" />
		<tag k="ssr:stedsnr" v="380980" />
	</node>
	<node id="-687507" lat="68.0472305584" lon="15.450308339">
		<tag k="name" v="Haugen" />
		<tag k="place" v="farm" />
		<tag k="ssr:stedsnr" v="380922" />
	</node>
	<node id="-687506" lat="68.0403888916" lon="15.3907666573">
		<tag k="name" v="Nordvåg" />
		<tag k="place" v="farm" />
		<tag k="ssr:stedsnr" v="380913" />
	</node>
	<node id="-689541" lat="68.1307111151" lon="15.7138916563">
		<tag k="name" v="Buneset" />
		<tag k="place" v="farm" />
		<tag k="ssr:stedsnr" v="716639" />
	</node>
	<node id="-689529" lat="68.1067916661" lon="15.6686944387">
		<tag k="name" v="Stranden" />
		<tag k="place" v="locality" />
		<tag k="ssr:stedsnr" v="716334" />
	</node>
	<node id="-689514" lat="68.0803805559" lon="15.6251666656">
		<tag k="name" v="Presteidskogen" />
		<tag k="place" v="quarter" />
		<tag k="ssr:stedsnr" v="716131" />
	</node>
	<node id="-687335" lat="68.1415250006" lon="15.9284055447">
		<tag k="name" v="Åsheim" />
		<tag k="place" v="locality" />
		<tag k="ssr:stedsnr" v="320742" />
	</node>
	<node id="-689512" lat="68.1832027817" lon="15.6591111189">
		<tag k="name" v="Loshågen" />
		<tag k="place" v="farm" />
		<tag k="ssr:stedsnr" v="716089" />
	</node>
	<node id="-689382" lat="68.0915777823" lon="15.5719222187">
		<tag k="alt_name" v="Langvollen" />
		<tag k="name" v="Langvoll" />
		<tag k="place" v="isolated_dwelling" />
		<tag k="ssr:stedsnr" v="684046" />
	</node>
	<node id="-689499" lat="68.1040833327" lon="15.5130444394">
		<tag k="name" v="Åsen" />
		<tag k="place" v="farm" />
		<tag k="ssr:stedsnr" v="715316" />
	</node>
	<node id="-689488" lat="68.0016916695" lon="15.6965861173">
		<tag k="name" v="Klingenberg" />
		<tag k="place" v="farm" />
		<tag k="ssr:stedsnr" v="703607" />
	</node>
	<node id="-689485" lat="68.1067916667" lon="15.6813777725">
		<tag k="name" v="Store Tømmerås" />
		<tag k="place" v="isolated_dwelling" />
		<tag k="ssr:stedsnr" v="703027" />
	</node>
	<node id="-689480" lat="68.0086888867" lon="15.3989944433">
		<tag k="name" v="Frydenlund" />
		<tag k="place" v="farm" />
		<tag k="ssr:stedsnr" v="685873" />
	</node>
	<node id="-687428" lat="68.0791722217" lon="15.9109583368">
		<tag k="name" v="Nyheim" />
		<tag k="place" v="farm" />
		<tag k="ssr:stedsnr" v="352336" />
	</node>
	<node id="-689474" lat="68.071547227" lon="15.4452027687">
		<tag k="alt_name" v="Hoffmannsfjellet" />
		<tag k="fixme" v="multiple name tags, choose one and add the other to alt_name" />
		<tag k="name" v="Fjell;Hoffmannsfjell" />
		<tag k="place" v="farm" />
		<tag k="ssr:stedsnr" v="684984" />
	</node>
	<node id="-689473" lat="68.0715527784" lon="15.4641666674">
		<tag k="name" v="Nymoen" />
		<tag k="place" v="farm" />
		<tag k="ssr:stedsnr" v="684980" />
	</node>
	<node id="-689467" lat="68.0463611128" lon="15.4188250106">
		<tag k="name" v="Ekra" />
		<tag k="place" v="farm" />
		<tag k="ssr:stedsnr" v="684938" />
	</node>
	<node id="-689466" lat="68.0391666705" lon="15.4124805554">
		<tag k="alt_name" v="Søre Finnset;Finset" />
		<tag k="name" v="Finnset" />
		<tag k="place" v="farm" />
		<tag k="ssr:stedsnr" v="684934" />
	</node>
	<node id="-689460" lat="67.9965527803" lon="15.5132861051">
		<tag k="alt_name" v="Dønshaugen" />
		<tag k="name" v="Dønshågen" />
		<tag k="place" v="farm" />
		<tag k="ssr:stedsnr" v="684898" />
	</node>
	<node id="-689452" lat="68.0034194418" lon="15.4204027798">
		<tag k="name" v="Nes" />
		<tag k="place" v="farm" />
		<tag k="ssr:stedsnr" v="684845" />
	</node>
	<node id="-689448" lat="68.1608111144" lon="15.9168611152">
		<tag k="name" v="Høgtun" />
		<tag k="place" v="farm" />
		<tag k="ssr:stedsnr" v="684765" />
	</node>
	<node id="-689438" lat="67.9890083342" lon="15.8334083409">
		<tag k="alt_name" v="Oterågan" />
		<tag k="name" v="Oteråga" />
		<tag k="place" v="locality" />
		<tag k="ssr:stedsnr" v="684670" />
	</node>
	<node id="-689437" lat="68.1069611144" lon="15.81173334">
		<tag k="alt_name" v="Jørenvik;Jørnvik" />
		<tag k="fixme" v="consider place=hamlet" />
		<tag k="name" v="Jørenvika" />
		<tag k="place" v="farm" />
		<tag k="ssr:stedsnr" v="684652" />
	</node>
	<node id="-687388" lat="67.8062666663" lon="15.9792499881">
		<tag k="name" v="Høgda" />
		<tag k="place" v="farm" />
		<tag k="ssr:stedsnr" v="351489" />
	</node>
	<node id="-687387" lat="68.1111472227" lon="15.5054611061">
		<tag k="name" v="Heim" />
		<tag k="place" v="farm" />
		<tag k="ssr:stedsnr" v="351457" />
	</node>
	<node id="-687386" lat="68.1024750001" lon="15.5225333358">
		<tag k="name" v="Nyheim" />
		<tag k="place" v="farm" />
		<tag k="ssr:stedsnr" v="351452" />
	</node>
	<node id="-687376" lat="68.1483111146" lon="15.4535027667">
		<tag k="name" v="Buvåg" />
		<tag k="place" v="locality" />
		<tag k="ssr:stedsnr" v="339973" />
	</node>
	<node id="-687369" lat="68.081580557" lon="15.4501777831">
		<tag k="alt_name" v="Pålan, øvre" />
		<tag k="name" v="Øvre Pålan" />
		<tag k="place" v="locality" />
		<tag k="ssr:stedsnr" v="321000" />
	</node>
	<node id="-687359" lat="67.9926194475" lon="15.6029027834">
		<tag k="name" v="Nygårdvoll" />
		<tag k="place" v="farm" />
		<tag k="ssr:stedsnr" v="320906" />
	</node>
	<node id="-687357" lat="67.9948333343" lon="15.5647249923">
		<tag k="name" v="Teinvollen" />
		<tag k="place" v="farm" />
		<tag k="ssr:stedsnr" v="320905" />
	</node>
	<node id="-689402" lat="67.8739361142" lon="15.8864444494">
		<tag k="name" v="Strindberg" />
		<tag k="place" v="farm" />
		<tag k="ssr:stedsnr" v="684407" />
	</node>
	<node id="-689393" lat="68.1349138857" lon="15.4252555631">
		<tag k="alt_name" v="Trondhamn" />
		<tag k="name" v="Tronhamn" />
		<tag k="place" v="farm" />
		<tag k="ssr:stedsnr" v="684099" />
	</node>
	<node id="-687340" lat="68.1732333301" lon="15.6662861047">
		<tag k="name" v="Nordvoll" />
		<tag k="place" v="isolated_dwelling" />
		<tag k="ssr:stedsnr" v="320783" />
	</node>
	<node id="-687338" lat="68.1597666649" lon="15.9116777875">
		<tag k="name" v="Vangen" />
		<tag k="place" v="farm" />
		<tag k="ssr:stedsnr" v="320769" />
	</node>
	<node id="-689383" lat="68.0922138904" lon="15.5550527778">
		<tag k="alt_name" v="Guradalen;Gurdal" />
		<tag k="name" v="Guradal" />
		<tag k="place" v="farm" />
		<tag k="ssr:stedsnr" v="684047" />
	</node>
	<node id="-687334" lat="68.1563972188" lon="15.6338444508">
		<tag k="alt_name" v="Nokkvika" />
		<tag k="name" v="Nokkvik" />
		<tag k="place" v="farm" />
		<tag k="ssr:stedsnr" v="320738" />
	</node>
	<node id="-689379" lat="68.1086611076" lon="15.5103444321">
		<tag k="name" v="Nålnes" />
		<tag k="place" v="farm" />
		<tag k="ssr:stedsnr" v="684026" />
	</node>
	<node id="-689378" lat="68.1064222225" lon="15.5847916701">
		<tag k="alt_name" v="Kulveslett" />
		<tag k="name" v="Kulverslett" />
		<tag k="place" v="farm" />
		<tag k="ssr:stedsnr" v="684022" />
	</node>
	<node id="-689377" lat="68.12952778" lon="15.6120916554">
		<tag k="name" v="Formo" />
		<tag k="place" v="farm" />
		<tag k="ssr:stedsnr" v="684009" />
	</node>
	<node id="-689374" lat="68.0872833348" lon="15.8734083445">
		<tag k="name" v="Gamhaugan" />
		<tag k="place" v="farm" />
		<tag k="ssr:stedsnr" v="655955" />
	</node>
	<node id="-687316" lat="68.0696777788" lon="15.8639499931">
		<tag k="name" v="Tverråsen" />
		<tag k="place" v="farm" />
		<tag k="ssr:stedsnr" v="320624" />
	</node>
	<node id="-687301" lat="67.8712888915" lon="15.8416777863">
		<tag k="name" v="Rota" />
		<tag k="place" v="farm" />
		<tag k="ssr:stedsnr" v="320408" />
	</node>
	<node id="-690036" lat="68.0029416639" lon="15.9299861192">
		<tag k="name" v="Sommarset" />
		<tag k="place" v="locality" />
		<tag k="ssr:stedsnr" v="867562" />
	</node>
	<node id="-689324" lat="68.0515055573" lon="15.4563000046">
		<tag k="name" v="Leite" />
		<tag k="place" v="farm" />
		<tag k="ssr:stedsnr" v="655287" />
	</node>
	<node id="-689349" lat="68.0049055584" lon="15.3990916791">
		<tag k="name" v="Olstø" />
		<tag k="place" v="locality" />
		<tag k="ssr:stedsnr" v="655579" />
	</node>
	<node id="-687260" lat="68.0046388883" lon="15.405327783">
		<tag k="name" v="Sjøvoll" />
		<tag k="place" v="farm" />
		<tag k="ssr:stedsnr" v="291579" />
	</node>
	<node id="-687259" lat="68.0049722255" lon="15.4136083406">
		<tag k="name" v="Haugen" />
		<tag k="place" v="farm" />
		<tag k="ssr:stedsnr" v="291577" />
	</node>
	<node id="-687258" lat="68.0059999972" lon="15.4082777654">
		<tag k="name" v="Fredlund" />
		<tag k="place" v="farm" />
		<tag k="ssr:stedsnr" v="291576" />
	</node>
	<node id="-687255" lat="68.13612222" lon="15.6242055609">
		<tag k="alt_name" v="Lunngård" />
		<tag k="name" v="Lundgård" />
		<tag k="place" v="farm" />
		<tag k="ssr:stedsnr" v="291554" />
	</node>
	<node id="-689302" lat="68.0076138882" lon="15.4080805454">
		<tag k="name" v="Borg" />
		<tag k="place" v="farm" />
		<tag k="ssr:stedsnr" v="655086" />
	</node>
	<node id="-689295" lat="68.0877194415" lon="15.5807833236">
		<tag k="name" v="Skogstad" />
		<tag k="place" v="farm" />
		<tag k="ssr:stedsnr" v="655022" />
	</node>
	<node id="-689287" lat="68.116069443" lon="15.4944916616">
		<tag k="name" v="Strand" />
		<tag k="place" v="farm" />
		<tag k="ssr:stedsnr" v="654511" />
	</node>
	<node id="-689285" lat="68.1137027786" lon="15.4955500103">
		<tag k="name" v="Nergården" />
		<tag k="place" v="farm" />
		<tag k="ssr:stedsnr" v="654460" />
	</node>
	<node id="-689278" lat="68.1681194452" lon="15.7022694406">
		<tag k="name" v="Nesteigen" />
		<tag k="place" v="isolated_dwelling" />
		<tag k="ssr:stedsnr" v="654195" />
	</node>
	<node id="-687225" lat="68.1816805517" lon="15.6084305465">
		<tag k="name" v="Fyrvika" />
		<tag k="place" v="locality" />
		<tag k="ssr:stedsnr" v="291063" />
	</node>
	<node id="-689269" lat="68.0850027779" lon="15.4842083305">
		<tag k="name" v="Moa" />
		<tag k="place" v="farm" />
		<tag k="ssr:stedsnr" v="623997" />
	</node>
	<node id="-689268" lat="68.0852222213" lon="15.609419436">
		<tag k="alt_name" v="Oppeid" />
		<tag k="fixme" v="consider place=suburb, village or hamlet" />
		<tag k="name" v="Oppeide" />
		<tag k="place" v="quarter" />
		<tag k="ssr:stedsnr" v="623987" />
	</node>
	<node id="-689267" lat="68.0712194432" lon="15.3998000031">
		<tag k="name" v="Halsen" />
		<tag k="place" v="farm" />
		<tag k="ssr:stedsnr" v="623983" />
	</node>
	<node id="-687215" lat="68.1108083346" lon="15.4885138779">
		<tag k="name" v="Fjelli" />
		<tag k="place" v="farm" />
		<tag k="ssr:stedsnr" v="290406" />
	</node>
	<node id="-689262" lat="68.0664472181" lon="15.4856027834">
		<tag k="name" v="Skogan" />
		<tag k="place" v="farm" />
		<tag k="ssr:stedsnr" v="623959" />
	</node>
	<node id="-689259" lat="68.0359166636" lon="15.3482250013">
		<tag k="alt_name" v="Steinslandsfjellet" />
		<tag k="name" v="Steinslandsfjell" />
		<tag k="place" v="farm" />
		<tag k="ssr:stedsnr" v="623937" />
	</node>
	<node id="-687205" lat="68.0440722211" lon="15.7406444387">
		<tag k="alt_name" v="Kallvåg" />
		<tag k="name" v="Kaldvågen" />
		<tag k="place" v="farm" />
		<tag k="ssr:stedsnr" v="278640" />
	</node>
	<node id="-687204" lat="68.004386115" lon="15.7017388965">
		<tag k="name" v="Litlneset" />
		<tag k="place" v="farm" />
		<tag k="ssr:stedsnr" v="278618" />
	</node>
	<node id="-687203" lat="68.1507083327" lon="15.8882944423">
		<tag k="name" v="Kvalvik" />
		<tag k="place" v="farm" />
		<tag k="ssr:stedsnr" v="278611" />
	</node>
	<node id="-689241" lat="68.1375388852" lon="15.8873805659">
		<tag k="name" v="Steinholt" />
		<tag k="place" v="farm" />
		<tag k="ssr:stedsnr" v="623709" />
	</node>
	<node id="-689240" lat="68.098719447" lon="15.6192277882">
		<tag k="alt_name" v="Dypvik" />
		<tag k="name" v="Djupvika" />
		<tag k="place" v="farm" />
		<tag k="ssr:stedsnr" v="623700" />
	</node>
	<node id="-689238" lat="68.119355557" lon="16.0131305558">
		<tag k="name" v="Åmo" />
		<tag k="place" v="locality" />
		<tag k="ssr:stedsnr" v="623679" />
	</node>
	<node id="-689335" lat="68.108238887" lon="15.5877166702">
		<tag k="name" v="Mellomkulen" />
		<tag k="place" v="farm" />
		<tag k="ssr:stedsnr" v="655362" />
	</node>
	<node id="-689216" lat="67.8203472206" lon="16.1085944472">
		<tag k="name" v="Rikandersjorda" />
		<tag k="place" v="locality" />
		<tag k="ssr:stedsnr" v="623480" />
	</node>
	<node id="-689196" lat="68.1486055557" lon="15.5032555448">
		<tag k="alt_name" v="Kyllingmark" />
		<tag k="fixme" v="consider place=hamlet" />
		<tag k="name" v="Kjukkelmarka" />
		<tag k="old_name" v="Kjakkelmarka;Kjyllingmark" />
		<tag k="place" v="farm" />
		<tag k="ssr:stedsnr" v="623110" />
	</node>
	<node id="-689191" lat="68.1043333322" lon="15.5896416609">
		<tag k="alt_name" v="Brulten" />
		<tag k="name" v="Brattli" />
		<tag k="place" v="farm" />
		<tag k="ssr:stedsnr" v="623054" />
	</node>
	<node id="-689189" lat="68.1028194435" lon="15.5195833257">
		<tag k="fixme" v="consider place=hamlet" />
		<tag k="name" v="Hamsund" />
		<tag k="place" v="village" />
		<tag k="ssr:stedsnr" v="623040" />
	</node>
	<node id="-689181" lat="68.078013889" lon="15.9137666637">
		<tag k="name" v="Solvang" />
		<tag k="place" v="farm" />
		<tag k="ssr:stedsnr" v="595322" />
	</node>
	<node id="-689180" lat="68.0819027822" lon="15.8940666632">
		<tag k="name" v="Skogheim" />
		<tag k="place" v="farm" />
		<tag k="ssr:stedsnr" v="595319" />
	</node>
	<node id="-689178" lat="68.0845722212" lon="15.8872805574">
		<tag k="name" v="Karenjord" />
		<tag k="place" v="farm" />
		<tag k="ssr:stedsnr" v="595315" />
	</node>
	<node id="-689171" lat="68.0874555519" lon="15.8709027725">
		<tag k="name" v="Heggli" />
		<tag k="place" v="farm" />
		<tag k="ssr:stedsnr" v="594951" />
	</node>
	<node id="-689170" lat="68.1461722259" lon="15.4618833452">
		<tag k="name" v="Einan" />
		<tag k="place" v="farm" />
		<tag k="ssr:stedsnr" v="594911" />
	</node>
	<node id="-689121" lat="68.0284694472" lon="15.3374916742">
		<tag k="name" v="Haugen" />
		<tag k="place" v="farm" />
		<tag k="ssr:stedsnr" v="594228" />
	</node>
	<node id="-689118" lat="68.0360472184" lon="15.3868805628">
		<tag k="name" v="Toftan" />
		<tag k="place" v="farm" />
		<tag k="ssr:stedsnr" v="594217" />
	</node>
	<node id="-689085" lat="68.1387972199" lon="15.4666722142">
		<tag k="name" v="Nordgård" />
		<tag k="place" v="farm" />
		<tag k="ssr:stedsnr" v="593584" />
	</node>
	<node id="-689081" lat="68.0779666713" lon="15.578947219">
		<tag k="name" v="Uteidsjøen" />
		<tag k="place" v="isolated_dwelling" />
		<tag k="ssr:stedsnr" v="581479" />
	</node>
	<node id="-689080" lat="68.0566055597" lon="15.7805444476">
		<tag k="name" v="Grunnvågen" />
		<tag k="place" v="locality" />
		<tag k="ssr:stedsnr" v="581137" />
	</node>
	<node id="-689077" lat="68.1651888865" lon="15.9594000073">
		<tag k="name" v="Borterstua" />
		<tag k="place" v="farm" />
		<tag k="ssr:stedsnr" v="567697" />
	</node>
	<node id="-689076" lat="68.0178416643" lon="15.3213527781">
		<tag k="alt_name" v="Rørvika" />
		<tag k="name" v="Rørvik" />
		<tag k="place" v="farm" />
		<tag k="ssr:stedsnr" v="563920" />
	</node>
	<node id="-689068" lat="68.1631777777" lon="15.6404777811">
		<tag k="name" v="Solvoll" />
		<tag k="place" v="farm" />
		<tag k="ssr:stedsnr" v="563783" />
	</node>
	<node id="-689046" lat="68.0793805546" lon="15.5112777678">
		<tag k="name" v="Liland" />
		<tag k="place" v="farm" />
		<tag k="ssr:stedsnr" v="562972" />
	</node>
	<node id="-689044" lat="68.0628805548" lon="15.5932360993">
		<tag k="name" v="Lendstø" />
		<tag k="place" v="locality" />
		<tag k="ssr:stedsnr" v="562951" />
	</node>
	<node id="-689033" lat="68.031183336" lon="15.3002333335">
		<tag k="name" v="Utåker" />
		<tag k="place" v="isolated_dwelling" />
		<tag k="ssr:stedsnr" v="562898" />
	</node>
	<node id="-689027" lat="68.1462472217" lon="15.9076194451">
		<tag k="name" v="Veum" />
		<tag k="place" v="farm" />
		<tag k="ssr:stedsnr" v="562715" />
	</node>
	<node id="-689009" lat="68.0181555568" lon="15.7284333283">
		<tag k="alt_name" v="Karlsøybotn, yt" />
		<tag k="fixme" v="multiple name tags, choose one and add the other to alt_name" />
		<tag k="name" v="Vestre Karlsøybotn;Ytre Karlsøybotn" />
		<tag k="place" v="farm" />
		<tag k="ssr:stedsnr" v="562590" />
	</node>
	<node id="-688997" lat="67.9241833376" lon="15.89083889">
		<tag k="name" v="Storlagmannnsvika" />
		<tag k="place" v="farm" />
		<tag k="ssr:stedsnr" v="562389" />
	</node>
	<node id="-688985" lat="68.1444666694" lon="15.4500527882">
		<tag k="name" v="Stranda" />
		<tag k="place" v="quarter" />
		<tag k="ssr:stedsnr" v="534920" />
	</node>
	<node id="-688973" lat="67.9917749978" lon="15.9124194537">
		<tag k="name" v="Buktelva Hytteområde" />
		<tag k="place" v="neighbourhood" />
		<tag k="ssr:stedsnr" v="534725" />
	</node>
	<node id="-688967" lat="68.1482055548" lon="15.9804416764">
		<tag k="name" v="Lelljorda" />
		<tag k="place" v="locality" />
		<tag k="ssr:stedsnr" v="534699" />
	</node>
	<node id="-688936" lat="68.0852222203" lon="15.885427772">
		<tag k="name" v="Skarvold" />
		<tag k="place" v="farm" />
		<tag k="ssr:stedsnr" v="534338" />
	</node>
	<node id="-688931" lat="68.0564833333" lon="15.6030999888">
		<tag k="name" v="Mellomgarden" />
		<tag k="place" v="farm" />
		<tag k="ssr:stedsnr" v="534290" />
	</node>
	<node id="-688930" lat="68.0585722203" lon="15.6067222103">
		<tag k="name" v="Nordmark" />
		<tag k="place" v="farm" />
		<tag k="ssr:stedsnr" v="534278" />
	</node>
	<node id="-688890" lat="68.104822222" lon="15.5146583236">
		<tag k="name" v="Elvegård" />
		<tag k="place" v="farm" />
		<tag k="ssr:stedsnr" v="533290" />
	</node>
	<node id="-688876" lat="67.9903472248" lon="15.6500722322">
		<tag k="name" v="Stormyrvik" />
		<tag k="place" v="locality" />
		<tag k="ssr:stedsnr" v="521452" />
	</node>
	<node id="-688875" lat="68.0364361103" lon="15.8747444326">
		<tag k="name" v="Kløtter" />
		<tag k="place" v="locality" />
		<tag k="ssr:stedsnr" v="521181" />
	</node>
	<node id="-688872" lat="68.0446722219" lon="15.4154111118">
		<tag k="alt_name" v="Sletten" />
		<tag k="name" v="Sletta" />
		<tag k="place" v="farm" />
		<tag k="ssr:stedsnr" v="520047" />
	</node>
	<node id="-688871" lat="68.0455944473" lon="15.4081138886">
		<tag k="alt_name" v="Nordre Finset" />
		<tag k="name" v="Nordre Finnset" />
		<tag k="place" v="farm" />
		<tag k="ssr:stedsnr" v="520045" />
	</node>
	<node id="-688868" lat="68.0885483143" lon="15.5794309972">
		<tag k="fixme" v="multiple name tags, choose one and add the other to alt_name" />
		<tag k="name" v="Gjelseng;Hjelsenga" />
		<tag k="place" v="farm" />
		<tag k="ssr:stedsnr" v="502997" />
	</node>
	<node id="-688856" lat="68.0594333335" lon="15.4276805623">
		<tag k="alt_name" v="Langbakkan" />
		<tag k="name" v="Langbakken" />
		<tag k="place" v="farm" />
		<tag k="ssr:stedsnr" v="502950" />
	</node>
	<node id="-688854" lat="68.0490611101" lon="15.4290555591">
		<tag k="alt_name" v="Røsvik" />
		<tag k="fixme" v="consider place=hamlet" />
		<tag k="name" v="Røssvika" />
		<tag k="place" v="farm" />
		<tag k="ssr:stedsnr" v="502937" />
	</node>
	<node id="-688843" lat="68.002622219" lon="15.4210055576">
		<tag k="name" v="Nesberg" />
		<tag k="place" v="farm" />
		<tag k="ssr:stedsnr" v="502845" />
	</node>
	<node id="-688837" lat="68.1619166649" lon="15.6337472282">
		<tag k="name" v="Fredheim" />
		<tag k="place" v="farm" />
		<tag k="ssr:stedsnr" v="502772" />
	</node>
	<node id="-688836" lat="68.1644138882" lon="15.6550000029">
		<tag k="name" v="Varhaug" />
		<tag k="place" v="farm" />
		<tag k="ssr:stedsnr" v="502773" />
	</node>
	<node id="-688835" lat="68.1480527757" lon="15.8925277854">
		<tag k="name" v="Skoglund" />
		<tag k="place" v="farm" />
		<tag k="ssr:stedsnr" v="502760" />
	</node>
	<node id="-688833" lat="68.1468333353" lon="15.8984055476">
		<tag k="name" v="Formo" />
		<tag k="place" v="isolated_dwelling" />
		<tag k="ssr:stedsnr" v="502751" />
	</node>
	<node id="-688831" lat="68.1545722225" lon="15.665363887">
		<tag k="name" v="Helland" />
		<tag k="place" v="farm" />
		<tag k="ssr:stedsnr" v="502744" />
	</node>
	<node id="-688821" lat="67.9970499986" lon="15.9547388999">
		<tag k="name" v="Sommarset" />
		<tag k="place" v="farm" />
		<tag k="ssr:stedsnr" v="502671" />
	</node>
	<node id="-688814" lat="68.0949722197" lon="15.7309083302">
		<tag k="name" v="Nordheim" />
		<tag k="place" v="farm" />
		<tag k="ssr:stedsnr" v="502640" />
	</node>
	<node id="-688810" lat="67.9860027773" lon="15.4713583218">
		<tag k="name" v="Husøya" />
		<tag k="place" v="hamlet" />
		<tag k="ssr:stedsnr" v="502627" />
	</node>
	<node id="-688795" lat="67.8515611112" lon="15.9612805497">
		<tag k="name" v="Sørsandøyra" />
		<tag k="place" v="farm" />
		<tag k="ssr:stedsnr" v="502464" />
	</node>
	<node id="-688791" lat="67.8586718362" lon="15.9771222496">
		<tag k="name" v="Sandnes - Sáttonjárgga" />
		<tag k="name:no" v="Sandnes" />
		<tag k="name:smj" v="Sáttonjárgga" />
		<tag k="old_name:smj" v="Sáttonjárga" />
		<tag k="place" v="farm" />
		<tag k="ssr:stedsnr" v="502443" />
	</node>
	<node id="-687214" lat="68.1831194459" lon="15.6635750057">
		<tag k="name" v="Vollen" />
		<tag k="place" v="farm" />
		<tag k="ssr:stedsnr" v="290090" />
	</node>
	<node id="-688773" lat="68.1298944466" lon="15.4093249967">
		<tag k="name" v="Bjørnvågen" />
		<tag k="place" v="farm" />
		<tag k="ssr:stedsnr" v="502102" />
	</node>
	<node id="-688768" lat="68.0892861147" lon="15.407208335">
		<tag k="name" v="Kopparstraumen" />
		<tag k="place" v="isolated_dwelling" />
		<tag k="ssr:stedsnr" v="502044" />
	</node>
	<node id="-688759" lat="68.1363997904" lon="15.6246770188">
		<tag k="loc_name" v="Rossvoll" />
		<tag k="name" v="Rosvoll" />
		<tag k="place" v="farm" />
		<tag k="ssr:stedsnr" v="484192" />
	</node>
	<node id="-688746" lat="68.087361112" lon="15.5886527675">
		<tag k="name" v="Brubrekka" />
		<tag k="place" v="isolated_dwelling" />
		<tag k="ssr:stedsnr" v="473024" />
	</node>
	<node id="-688739" lat="68.1130749999" lon="15.4990472163">
		<tag k="name" v="Ura" />
		<tag k="place" v="farm" />
		<tag k="ssr:stedsnr" v="472426" />
	</node>
	<node id="-688736" lat="68.078422223" lon="15.4880610995">
		<tag k="name" v="Dalland" />
		<tag k="place" v="farm" />
		<tag k="ssr:stedsnr" v="460986" />
	</node>
	<node id="-688730" lat="67.9566944439" lon="15.8104749951">
		<tag k="name" v="Veggen" />
		<tag k="place" v="isolated_dwelling" />
		<tag k="ssr:stedsnr" v="460570" />
	</node>
	<node id="-688719" lat="68.0092749967" lon="15.4142416665">
		<tag k="name" v="Moa" />
		<tag k="place" v="farm" />
		<tag k="ssr:stedsnr" v="442894" />
	</node>
	<node id="-688703" lat="68.1114055539" lon="15.8522027795">
		<tag k="name" v="Grimstad" />
		<tag k="place" v="farm" />
		<tag k="ssr:stedsnr" v="442674" />
	</node>
	<node id="-688702" lat="68.1108999978" lon="15.6447833244">
		<tag k="alt_name" v="Litl Tømmerås;Tømmerås" />
		<tag k="name" v="Lille Tømmerås" />
		<tag k="place" v="farm" />
		<tag k="ssr:stedsnr" v="442669" />
	</node>
	<node id="-689589" lat="68.0819166688" lon="15.3301611201">
		<tag k="name" v="Nordland" />
		<tag k="place" v="isolated_dwelling" />
		<tag k="ssr:stedsnr" v="745081" />
	</node>
	<node id="-689586" lat="68.1140979783" lon="15.4936180839">
		<tag k="fixme" v="consider place=hamlet" />
		<tag k="name" v="Egedalen" />
		<tag k="place" v="farm" />
		<tag k="ssr:stedsnr" v="745024" />
	</node>
	<node id="-688674" lat="68.0849416682" lon="15.5877333385">
		<tag k="name" v="Nakken" />
		<tag k="place" v="farm" />
		<tag k="ssr:stedsnr" v="441994" />
	</node>
	<node id="-688672" lat="68.072363889" lon="15.4528944521">
		<tag k="alt_name" v="Hestbakkan" />
		<tag k="name" v="Hestbakken" />
		<tag k="place" v="farm" />
		<tag k="ssr:stedsnr" v="441985" />
	</node>
	<node id="-688668" lat="67.9930694439" lon="15.6095916709">
		<tag k="name" v="Grønning" />
		<tag k="place" v="farm" />
		<tag k="ssr:stedsnr" v="441907" />
	</node>
	<node id="-688655" lat="68.0947777753" lon="15.6256861195">
		<tag k="fixme" v="multiple name tags, choose one and add the other to alt_name" />
		<tag k="name" v="Bakken;Kleiva" />
		<tag k="place" v="farm" />
		<tag k="ssr:stedsnr" v="441638" />
	</node>
	<node id="-688644" lat="67.9194377963" lon="15.8865012654">
		<tag k="fixme" v="consider place=hamlet" />
		<tag k="name" v="Tømmerneset - Vuohppe" />
		<tag k="name:no" v="Tømmerneset" />
		<tag k="name:smj" v="Vuohppe" />
		<tag k="old_name:smj" v="Vuohppi" />
		<tag k="place" v="farm" />
		<tag k="ssr:stedsnr" v="441390" />
	</node>
	<node id="-688621" lat="68.1008722255" lon="15.6279333396">
		<tag k="alt_name" v="Myrset" />
		<tag k="name" v="Myrneset" />
		<tag k="place" v="farm" />
		<tag k="ssr:stedsnr" v="260717" />
	</node>
	<node id="-688617" lat="68.1157055549" lon="15.8658055467">
		<tag k="alt_name:no" v="Ulsvåg" />
		<tag k="fixme" v="consider place=hamlet" />
		<tag k="name" v="Ulvsvåg - Ulsváhke" />
		<tag k="name:no" v="Ulvsvåg" />
		<tag k="name:smj" v="Ulsváhke" />
		<tag k="place" v="village" />
		<tag k="ssr:stedsnr" v="260684" />
	</node>
	<node id="-688603" lat="68.1654500033" lon="15.9594388865">
		<tag k="fixme" v="consider place=hamlet" />
		<tag k="name" v="Tortenåsen" />
		<tag k="place" v="farm" />
		<tag k="ssr:stedsnr" v="259766" />
	</node>
	<node id="-688598" lat="68.1583083345" lon="15.8184111097">
		<tag k="name" v="Tannøya" />
		<tag k="place" v="farm" />
		<tag k="ssr:stedsnr" v="259717" />
	</node>
	<node id="-688594" lat="68.049955555" lon="15.4064694392">
		<tag k="alt_name" v="Rødlia" />
		<tag k="name" v="Rødli" />
		<tag k="place" v="farm" />
		<tag k="ssr:stedsnr" v="259937" />
	</node>
	<node id="-688592" lat="67.9910611148" lon="15.6340277817">
		<tag k="fixme" v="multiple name tags, choose one and add the other to alt_name" />
		<tag k="name" v="Fikkestad;Fitjestad" />
		<tag k="place" v="farm" />
		<tag k="ssr:stedsnr" v="259903" />
	</node>
	<node id="-688580" lat="68.0868666668" lon="15.8798777654">
		<tag k="fixme" v="multiple name tags, choose one and add the other to alt_name" />
		<tag k="name" v="Skilvassbakk;Østre Skilvassbakk" />
		<tag k="place" v="farm" />
		<tag k="ssr:stedsnr" v="259632" />
	</node>
	<node id="-688573" lat="67.8386527744" lon="16.0035888972">
		<tag k="alt_name" v="Falkelva" />
		<tag k="name" v="Falkelv" />
		<tag k="place" v="farm" />
		<tag k="ssr:stedsnr" v="259475" />
	</node>
	<node id="-688571" lat="67.8603805544" lon="15.9366111006">
		<tag k="name" v="Litlsandnes" />
		<tag k="place" v="isolated_dwelling" />
		<tag k="ssr:stedsnr" v="259457" />
	</node>
	<node id="-688569" lat="67.8564250021" lon="16.0086416618">
		<tag k="name" v="Lappjorda" />
		<tag k="place" v="farm" />
		<tag k="ssr:stedsnr" v="259440" />
	</node>
	<node id="-689609" lat="68.0353222207" lon="15.9272305665">
		<tag k="alt_name" v="Korsvika" />
		<tag k="name" v="Korsvik" />
		<tag k="place" v="isolated_dwelling" />
		<tag k="ssr:stedsnr" v="745552" />
	</node>
	<node id="-688565" lat="67.9109833302" lon="15.8471611169">
		<tag k="name" v="Lia" />
		<tag k="place" v="farm" />
		<tag k="ssr:stedsnr" v="259395" />
	</node>
	<node id="-688542" lat="68.0056444475" lon="15.413588878">
		<tag k="name" v="Solheim" />
		<tag k="place" v="farm" />
		<tag k="ssr:stedsnr" v="231651" />
	</node>
	<node id="-688527" lat="68.0480666691" lon="15.410808334">
		<tag k="name" v="Åsheim" />
		<tag k="place" v="farm" />
		<tag k="ssr:stedsnr" v="231257" />
	</node>
	<node id="-688520" lat="68.0464000027" lon="15.7182277842">
		<tag k="name" v="Lysjord" />
		<tag k="place" v="farm" />
		<tag k="ssr:stedsnr" v="231152" />
	</node>
	<node id="-688513" lat="68.0822333313" lon="15.5146361207">
		<tag k="name" v="Hyttebo" />
		<tag k="place" v="isolated_dwelling" />
		<tag k="ssr:stedsnr" v="231039" />
	</node>
	<node id="-688504" lat="68.0870527763" lon="15.8767305522">
		<tag k="name" v="Vestre Skilvassbakk" />
		<tag k="place" v="farm" />
		<tag k="ssr:stedsnr" v="230961" />
	</node>
	<node id="-688502" lat="68.1651083338" lon="15.9564361105">
		<tag k="name" v="Nerstua" />
		<tag k="place" v="farm" />
		<tag k="ssr:stedsnr" v="230896" />
	</node>
	<node id="-689555" lat="68.1328638914" lon="15.4024527832">
		<tag k="name" v="Ramnevika" />
		<tag k="place" v="locality" />
		<tag k="ssr:stedsnr" v="716720" />
	</node>
	<node id="-688477" lat="68.1004250016" lon="15.537066661">
		<tag k="name" v="Brattheim" />
		<tag k="place" v="farm" />
		<tag k="ssr:stedsnr" v="230446" />
	</node>
	<node id="-688476" lat="68.0993416693" lon="15.5222138832">
		<tag k="name" v="Solhaug" />
		<tag k="place" v="farm" />
		<tag k="ssr:stedsnr" v="230437" />
	</node>
	<node id="-688473" lat="68.104294448" lon="15.5190138776">
		<tag k="name" v="Steinseth" />
		<tag k="place" v="farm" />
		<tag k="ssr:stedsnr" v="230278" />
	</node>
	<node id="-688470" lat="68.0810500014" lon="15.4901055646">
		<tag k="name" v="Høgtun" />
		<tag k="place" v="farm" />
		<tag k="ssr:stedsnr" v="230214" />
	</node>
	<node id="-688466" lat="68.0851027808" lon="15.6402694446">
		<tag k="name" v="Prestegården" />
		<tag k="place" v="farm" />
		<tag k="ssr:stedsnr" v="230128" />
	</node>
	<node id="-688455" lat="68.1207666644" lon="15.561747214">
		<tag k="name" v="Kulvåg" />
		<tag k="place" v="locality" />
		<tag k="ssr:stedsnr" v="218435" />
	</node>
	<node id="-688451" lat="67.8989083375" lon="15.8594083275">
		<tag k="loc_name:smj" v="Vuohppe" />
		<tag k="name" v="Tømmerneset" />
		<tag k="name:no" v="Tømmerneset" />
		<tag k="place" v="hamlet" />
		<tag k="ssr:stedsnr" v="207400" />
	</node>
	<node id="-688449" lat="68.0790777808" lon="15.4492333413">
		<tag k="alt_name" v="Pålan, nedre" />
		<tag k="name" v="Nedre Pålan" />
		<tag k="place" v="locality" />
		<tag k="ssr:stedsnr" v="199999" />
	</node>
	<node id="-688444" lat="68.0698611127" lon="15.4046861119">
		<tag k="name" v="Fredhaug" />
		<tag k="place" v="farm" />
		<tag k="ssr:stedsnr" v="199967" />
	</node>
	<node id="-688443" lat="68.0523999973" lon="15.5867388794">
		<tag k="alt_name" v="Nausthaugen" />
		<tag k="name" v="Nausthågen" />
		<tag k="place" v="isolated_dwelling" />
		<tag k="ssr:stedsnr" v="199948" />
	</node>
	<node id="-688438" lat="67.994816667" lon="15.5943500071">
		<tag k="name" v="Fagerheim" />
		<tag k="place" v="farm" />
		<tag k="ssr:stedsnr" v="199900" />
	</node>
	<node id="-688435" lat="68.0154277771" lon="15.3319083221">
		<tag k="alt_name" v="Skutvika" />
		<tag k="name" v="Skutvik" />
		<tag k="place" v="village" />
		<tag k="ssr:stedsnr" v="199859" />
	</node>
	<node id="-688425" lat="68.1740027817" lon="15.8959805509">
		<tag k="alt_name" v="Skardvika" />
		<tag k="name" v="Skarvika" />
		<tag k="place" v="farm" />
		<tag k="ssr:stedsnr" v="199795" />
	</node>
	<node id="-688422" lat="68.1462833312" lon="15.9117666688">
		<tag k="name" v="Skogvoll" />
		<tag k="place" v="farm" />
		<tag k="ssr:stedsnr" v="199755" />
	</node>
	<node id="-688418" lat="68.1227805522" lon="15.6677083438">
		<tag k="name" v="Vassbotn" />
		<tag k="place" v="farm" />
		<tag k="ssr:stedsnr" v="199735" />
	</node>
	<node id="-688416" lat="68.1391277775" lon="15.6346916663">
		<tag k="name" v="Brennvik" />
		<tag k="place" v="farm" />
		<tag k="ssr:stedsnr" v="199716" />
	</node>
	<node id="-688415" lat="68.133063886" lon="15.9922972166">
		<tag k="alt_name" v="Kilneset" />
		<tag k="name" v="Kilnes" />
		<tag k="place" v="farm" />
		<tag k="ssr:stedsnr" v="199708" />
	</node>
	<node id="-688406" lat="67.8079500037" lon="15.985183324">
		<tag k="alt_name:no" v="Kråkmoen" />
		<tag k="fixme" v="consider place=hamlet" />
		<tag k="name" v="Kråkmo - Skilggá" />
		<tag k="name:no" v="Kråkmo" />
		<tag k="name:smj" v="Skilggá" />
		<tag k="old_name:smj" v="Skilga" />
		<tag k="place" v="farm" />
		<tag k="ssr:stedsnr" v="199471" />
	</node>
	<node id="-688383" lat="68.1006416634" lon="15.5381083247">
		<tag k="alt_name" v="Slettbakk" />
		<tag k="name" v="Slettbakken" />
		<tag k="place" v="farm" />
		<tag k="ssr:stedsnr" v="199049" />
	</node>
	<node id="-688381" lat="68.1147805578" lon="15.6023194383">
		<tag k="alt_name" v="Hesskogen" />
		<tag k="name" v="Hesskog" />
		<tag k="place" v="farm" />
		<tag k="ssr:stedsnr" v="199032" />
	</node>
	<node id="-688361" lat="67.9095111106" lon="15.8651166559">
		<tag k="name" v="Sagmoa" />
		<tag k="place" v="farm" />
		<tag k="ssr:stedsnr" v="170980" />
	</node>
	<node id="-688350" lat="67.8143888869" lon="15.9884250035">
		<tag k="name" v="Solvoll" />
		<tag k="place" v="isolated_dwelling" />
		<tag k="ssr:stedsnr" v="170516" />
	</node>
	<node id="-687822" lat="68.1651575611" lon="15.9561475623">
		<tag k="name" v="Tortenås" />
		<tag k="place" v="farm" />
		<tag k="ssr:stedsnr" v="990203" />
	</node>
	<node id="-688328" lat="68.0579333306" lon="15.5981750059">
		<tag k="name" v="Vollen" />
		<tag k="place" v="farm" />
		<tag k="ssr:stedsnr" v="170319" />
	</node>
	<node id="-688327" lat="68.1101999981" lon="15.5979138783">
		<tag k="name" v="Risskaråsen" />
		<tag k="place" v="farm" />
		<tag k="ssr:stedsnr" v="170318" />
	</node>
	<node id="-688318" lat="68.0436805561" lon="15.3998277687">
		<tag k="name" v="Lilleås" />
		<tag k="place" v="locality" />
		<tag k="ssr:stedsnr" v="170253" />
	</node>
	<node id="-688312" lat="68.0869277792" lon="15.5702416549">
		<tag k="name" v="Brennmo" />
		<tag k="place" v="isolated_dwelling" />
		<tag k="ssr:stedsnr" v="170223" />
	</node>
	<node id="-688306" lat="68.0099027827" lon="15.4162833246">
		<tag k="name" v="Vestre Moen" />
		<tag k="place" v="farm" />
		<tag k="ssr:stedsnr" v="170075" />
	</node>
	<node id="-688304" lat="68.0220083317" lon="15.3824277878">
		<tag k="name" v="Mølna" />
		<tag k="place" v="locality" />
		<tag k="ssr:stedsnr" v="170070" />
	</node>
	<node id="-688295" lat="68.1174333366" lon="15.4923916596">
		<tag k="name" v="Åsli" />
		<tag k="place" v="farm" />
		<tag k="ssr:stedsnr" v="169517" />
	</node>
	<node id="-688290" lat="68.1079361157" lon="15.5129333281">
		<tag k="name" v="Åsheim" />
		<tag k="place" v="farm" />
		<tag k="ssr:stedsnr" v="169264" />
	</node>
	<node id="-688281" lat="68.12098611" lon="15.8814888902">
		<tag k="name" v="Ulvsvåg Hovedgård" />
		<tag k="place" v="farm" />
		<tag k="ssr:stedsnr" v="170404" />
	</node>
	<node id="-688279" lat="68.1047138858" lon="15.5830611218">
		<tag k="alt_name" v="Urdahl" />
		<tag k="name" v="Urdal" />
		<tag k="place" v="farm" />
		<tag k="ssr:stedsnr" v="170383" />
	</node>
	<node id="-688268" lat="68.0863583333" lon="15.9659388794">
		<tag k="name" v="Tørpelvatnet" />
		<tag k="place" v="isolated_dwelling" />
		<tag k="ssr:stedsnr" v="157023" />
	</node>
	<node id="-688266" lat="68.0433083348" lon="15.7430861092">
		<tag k="fixme" v="consider place=hamlet" />
		<tag k="name" v="Kaldvåg" />
		<tag k="place" v="village" />
		<tag k="ssr:stedsnr" v="146777" />
	</node>
	<node id="-688260" lat="68.0765722253" lon="15.4846888929">
		<tag k="alt_name" v="Lilandsåsen" />
		<tag k="name" v="Lilandsås" />
		<tag k="place" v="farm" />
		<tag k="ssr:stedsnr" v="138975" />
	</node>
	<node id="-688259" lat="68.0784638845" lon="15.4971027789">
		<tag k="name" v="Løding" />
		<tag k="place" v="farm" />
		<tag k="ssr:stedsnr" v="138973" />
	</node>
	<node id="-688233" lat="67.9634277822" lon="15.9309222165">
		<tag k="fixme" v="consider place=hamlet" />
		<tag k="name" v="Innhavet - Strávnjunnje" />
		<tag k="name:no" v="Innhavet" />
		<tag k="name:smj" v="Strávnjunnje" />
		<tag k="place" v="village" />
		<tag k="ssr:stedsnr" v="138654" />
	</node>
	<node id="-688224" lat="68.0937888926" lon="15.6238555671">
		<tag k="alt_name" v="Moen" />
		<tag k="name" v="Moa" />
		<tag k="place" v="farm" />
		<tag k="ssr:stedsnr" v="138643" />
	</node>
	<node id="-688221" lat="68.0842472241" lon="15.649958345">
		<tag k="fixme" v="consider place=hamlet" />
		<tag k="name" v="Presteid" />
		<tag k="place" v="village" />
		<tag k="ssr:stedsnr" v="138635" />
	</node>
	<node id="-688214" lat="67.839355557" lon="15.994691673">
		<tag k="alt_name:no" v="Hofmannselva;Hofmandselv" />
		<tag k="name" v="Hoffmannselva - Jåhkågasska" />
		<tag k="name:no" v="Hoffmannselva" />
		<tag k="name:smj" v="Jåhkågasska" />
		<tag k="old_name:smj" v="Johkagaska" />
		<tag k="place" v="farm" />
		<tag k="ssr:stedsnr" v="138487" />
	</node>
	<node id="-688203" lat="68.1371555556" lon="15.4643916641">
		<tag k="name" v="Hamnes" />
		<tag k="place" v="farm" />
		<tag k="ssr:stedsnr" v="138112" />
	</node>
	<node id="-688196" lat="68.1608861123" lon="15.9479277834">
		<tag k="name" v="Lundås" />
		<tag k="place" v="farm" />
		<tag k="ssr:stedsnr" v="137727" />
	</node>
	<node id="-688191" lat="68.1483361095" lon="15.4698222295">
		<tag k="name" v="Buvåg" />
		<tag k="place" v="farm" />
		<tag k="ssr:stedsnr" v="137063" />
	</node>
	<node id="-688184" lat="68.0813000047" lon="15.9178277701">
		<tag k="name" v="Østgård" />
		<tag k="place" v="farm" />
		<tag k="ssr:stedsnr" v="110352" />
	</node>
	<node id="-688179" lat="67.8240638918" lon="15.9952888818">
		<tag k="name" v="Borkhøtta" />
		<tag k="place" v="locality" />
		<tag k="ssr:stedsnr" v="110254" />
	</node>
	<node id="-690217" lat="68.1335111071" lon="15.710141672">
		<tag k="name" v="Berg" />
		<tag k="place" v="farm" />
		<tag k="ssr:stedsnr" v="959553" />
	</node>
	<node id="-690205" lat="68.051905554" lon="15.4252333423">
		<tag k="name" v="Bjørshaug" />
		<tag k="place" v="farm" />
		<tag k="ssr:stedsnr" v="959273" />
	</node>
	<node id="-690198" lat="68.0476027789" lon="15.4122527822">
		<tag k="name" v="Gammelgården" />
		<tag k="place" v="locality" />
		<tag k="ssr:stedsnr" v="959205" />
	</node>
	<node id="-690194" lat="68.0797666676" lon="15.4941666768">
		<tag k="name" v="Solbakk" />
		<tag k="place" v="farm" />
		<tag k="ssr:stedsnr" v="959183" />
	</node>
	<node id="-688137" lat="68.177452778" lon="15.6637083358">
		<tag k="name" v="Vikran" />
		<tag k="place" v="farm" />
		<tag k="ssr:stedsnr" v="109186" />
	</node>
</osm>
