<?xml version="1.0" encoding="UTF-8"?>
<osm generator="osmapis" version="0.6">
	<node id="-690176" lat="68.0336500037" lon="15.3610472247">
		<tag k="name" v="Grisholmen" />
		<tag k="place" v="islet" />
		<tag k="ssr:stedsnr" v="534195" />
	</node>
	<node id="-690175" lat="68.0315527815" lon="15.3679888777">
		<tag k="name" v="Perodden" />
		<tag k="natural" v="cape" />
		<tag k="ssr:stedsnr" v="534191" />
	</node>
	<node id="-690169" lat="68.086436107" lon="15.5907694399">
		<tag k="name" v="Stokklandselva" />
		<tag k="ssr:stedsnr" v="534112" />
		<tag k="waterway" v="stream" />
	</node>
	<node id="-690160" lat="68.0147527789" lon="15.7881972317">
		<tag k="name" v="Svartvatnet" />
		<tag k="natural" v="water" />
		<tag k="ssr:stedsnr" v="534013" />
		<tag k="water" v="lake" />
	</node>
	<node id="-690158" lat="67.8966361111" lon="15.8485166691">
		<tag k="name" v="Sandvika" />
		<tag k="natural" v="bay" />
		<tag k="ssr:stedsnr" v="533963" />
	</node>
	<node id="-690157" lat="68.1396194473" lon="15.4310833397">
		<tag k="name" v="Fikkeelva" />
		<tag k="ssr:stedsnr" v="533882" />
		<tag k="waterway" v="river" />
	</node>
	<node id="-690142" lat="67.8695333343" lon="15.8588805462">
		<tag k="name" v="Rokkvikodden" />
		<tag k="natural" v="cape" />
		<tag k="ssr:stedsnr" v="533075" />
	</node>
	<node id="-690140" lat="67.9999416638" lon="16.0205166746">
		<tag k="name" v="Merkforrtjønna" />
		<tag k="natural" v="water" />
		<tag k="ssr:stedsnr" v="524938" />
	</node>
	<node id="-690123" lat="68.0743222185" lon="15.3675055587">
		<tag k="name" v="Buksvatnet" />
		<tag k="natural" v="water" />
		<tag k="ssr:stedsnr" v="502987" />
	</node>
	<node id="-690121" lat="68.0648111123" lon="15.3419805567">
		<tag k="name" v="Innerleira" />
		<tag k="natural" v="bay" />
		<tag k="ssr:stedsnr" v="502963" />
	</node>
	<node id="-690120" lat="68.067675004" lon="15.4440111113">
		<tag k="name" v="Hoffmannsfjellvatnet" />
		<tag k="natural" v="water" />
		<tag k="ssr:stedsnr" v="502962" />
	</node>
	<node id="-690119" lat="68.0683277793" lon="15.4372527866">
		<tag k="name" v="Rundvatnet" />
		<tag k="natural" v="water" />
		<tag k="ssr:stedsnr" v="502959" />
	</node>
	<node id="-690096" lat="68.1939583309" lon="15.8999805558">
		<tag k="name" v="Mølnvatnet" />
		<tag k="natural" v="water" />
		<tag k="ssr:stedsnr" v="502798" />
	</node>
	<node id="-690091" lat="67.5817861103" lon="16.2942750015">
		<tag k="name" v="Vestrelva - Alemusjåhkå" />
		<tag k="name:no" v="Vestrelva" />
		<tag k="name:smj" v="Alemusjåhkå" />
		<tag k="old_name:smj" v="Alimusjohka" />
		<tag k="ssr:stedsnr" v="502754" />
		<tag k="waterway" v="stream" />
	</node>
	<node id="-690089" lat="67.5831444422" lon="16.4775666579">
		<tag k="name" v="Gáiccasjávri" />
		<tag k="natural" v="water" />
		<tag k="ssr:stedsnr" v="502752" />
	</node>
	<node id="-690085" lat="68.1299666633" lon="15.8172527718">
		<tag k="name" v="Hundosen" />
		<tag k="natural" v="bay" />
		<tag k="ssr:stedsnr" v="502730" />
	</node>
	<node id="-690083" lat="68.1444833345" lon="16.0107583314">
		<tag k="name" v="Smånesodden" />
		<tag k="natural" v="cape" />
		<tag k="ssr:stedsnr" v="502710" />
	</node>
	<node id="-690082" lat="67.9795000017" lon="15.9835444465">
		<tag k="name" v="Notvatnet" />
		<tag k="natural" v="water" />
		<tag k="ssr:stedsnr" v="502682" />
	</node>
	<node id="-690081" lat="67.9765694459" lon="16.0532944457">
		<tag k="name" v="Svartvatnet" />
		<tag k="natural" v="water" />
		<tag k="ssr:stedsnr" v="502677" />
		<tag k="water" v="lake" />
	</node>
	<node id="-688794" lat="67.9638472219" lon="15.958416659">
		<tag k="name" v="Litlvatnet" />
		<tag k="natural" v="water" />
		<tag k="ssr:stedsnr" v="381666" />
	</node>
	<node id="-690073" lat="67.9694694419" lon="16.0859111052">
		<tag k="alt_name" v="Gevaelva" />
		<tag k="name" v="Gievaelva" />
		<tag k="ssr:stedsnr" v="502646" />
		<tag k="waterway" v="stream" />
	</node>
	<node id="-690061" lat="68.0683888902" lon="15.8843999879">
		<tag k="alt_name" v="Støtlappneset" />
		<tag k="name" v="Støttlappneset" />
		<tag k="natural" v="cape" />
		<tag k="ssr:stedsnr" v="502594" />
	</node>
	<node id="-690053" lat="67.8359638926" lon="16.0921611006">
		<tag k="alt_name:no" v="Rekvatnet, l" />
		<tag k="name" v="Litle Rekvatnet - Unnagåjvusj" />
		<tag k="name:no" v="Litle Rekvatnet" />
		<tag k="name:smj" v="Unnagåjvusj" />
		<tag k="natural" v="water" />
		<tag k="old_name:smj" v="unna Goivvoš" />
		<tag k="ssr:stedsnr" v="502483" />
		<tag k="water" v="lake" />
	</node>
	<node id="-690047" lat="67.8742083309" lon="15.7681694463">
		<tag k="name" v="Lysverkvatnet" />
		<tag k="natural" v="water" />
		<tag k="ssr:stedsnr" v="502436" />
		<tag k="water" v="lake" />
	</node>
	<node id="-690046" lat="67.8822055541" lon="15.9953638812">
		<tag k="name" v="Rundvatnet" />
		<tag k="natural" v="water" />
		<tag k="ssr:stedsnr" v="502432" />
	</node>
	<node id="-690045" lat="67.8830861102" lon="15.8752249991">
		<tag k="name" v="Hellarvika" />
		<tag k="natural" v="bay" />
		<tag k="ssr:stedsnr" v="502429" />
	</node>
	<node id="-690044" lat="67.8684000014" lon="15.8640444562">
		<tag k="name" v="Rokkvika" />
		<tag k="natural" v="bay" />
		<tag k="ssr:stedsnr" v="502420" />
	</node>
	<node id="-690043" lat="67.8589500018" lon="15.8372472174">
		<tag k="name" v="Makkvasselva - Suoksavuomjåhkå" />
		<tag k="name:no" v="Makkvasselva" />
		<tag k="name:smj" v="Suoksavuomjåhkå" />
		<tag k="old_name:smj" v="Suoksavuomejohka" />
		<tag k="ssr:stedsnr" v="502419" />
		<tag k="waterway" v="river" />
	</node>
	<node id="-690042" lat="67.8725444476" lon="15.8060138903">
		<tag k="alt_name" v="Gråorelva" />
		<tag k="name" v="Gråurdelva" />
		<tag k="ssr:stedsnr" v="502416" />
		<tag k="waterway" v="stream" />
	</node>
	<node id="-690041" lat="67.8719250009" lon="15.8904555449">
		<tag k="alt_name" v="Tjørna" />
		<tag k="name" v="Tjønna" />
		<tag k="natural" v="bay" />
		<tag k="ssr:stedsnr" v="502415" />
	</node>
	<node id="-690040" lat="67.8750388857" lon="15.8464194433">
		<tag k="fixme" v="multiple name tags, choose one and add the other to alt_name" />
		<tag k="name" v="Holmen;Holmodden" />
		<tag k="natural" v="cape" />
		<tag k="ssr:stedsnr" v="502410" />
	</node>
	<node id="-690038" lat="67.8963833312" lon="15.7240722309">
		<tag k="name" v="Trollvatnet" />
		<tag k="natural" v="water" />
		<tag k="ssr:stedsnr" v="502382" />
		<tag k="water" v="lake" />
	</node>
	<node id="-690037" lat="67.9129138901" lon="16.0849083287">
		<tag k="alt_name:no" v="Stolovatnet, øvre" />
		<tag k="name" v="Øvre Stolovatnet - Bajep Stuollo" />
		<tag k="name:no" v="Øvre Stolovatnet" />
		<tag k="name:smj" v="Bajep Stuollo" />
		<tag k="natural" v="water" />
		<tag k="old_name:smj" v="Stuollu bajit" />
		<tag k="ssr:stedsnr" v="502378" />
	</node>
	<node id="-690036" lat="67.8118694426" lon="16.117288897">
		<tag k="name" v="Kvitsteinelva - Vielggisgiergejåhkå" />
		<tag k="name:no" v="Kvitsteinelva" />
		<tag k="name:smj" v="Vielggisgiergejåhkå" />
		<tag k="old_name:smj" v="Vilgesgeađggejohka" />
		<tag k="ssr:stedsnr" v="502182" />
		<tag k="waterway" v="river" />
	</node>
	<node id="-690032" lat="68.1293166644" lon="15.464372226">
		<tag k="name" v="Vassåsvatnet" />
		<tag k="natural" v="water" />
		<tag k="ssr:stedsnr" v="502107" />
	</node>
	<node id="-688785" lat="67.8093555572" lon="15.9736277739">
		<tag k="fixme" v="multiple name tags, choose one and add the other to alt_name" />
		<tag k="name" v="Knutbekken;Knutelva" />
		<tag k="ssr:stedsnr" v="381478" />
		<tag k="waterway" v="stream" />
	</node>
	<node id="-690019" lat="68.1215027798" lon="15.4618499977">
		<tag k="name" v="Storvatnet" />
		<tag k="natural" v="water" />
		<tag k="ssr:stedsnr" v="502016" />
		<tag k="water" v="lake" />
	</node>
	<node id="-689124" lat="68.1583027751" lon="15.9128333333">
		<tag k="name" v="Osen" />
		<tag k="natural" v="bay" />
		<tag k="ssr:stedsnr" v="17752" />
	</node>
	<node id="-689997" lat="68.1096416694" lon="15.5066083228">
		<tag k="name" v="Knokelva" />
		<tag k="ssr:stedsnr" v="472440" />
		<tag k="waterway" v="stream" />
	</node>
	<node id="-689995" lat="68.0912333301" lon="15.9045861004">
		<tag k="name" v="Skjelltjønna" />
		<tag k="natural" v="water" />
		<tag k="ssr:stedsnr" v="463954" />
	</node>
	<node id="-689994" lat="67.7203416657" lon="16.3499722278">
		<tag k="name" v="Vuolep Slædovágjávrre" />
		<tag k="name:smj" v="Vuolep Slædovágjávrre" />
		<tag k="natural" v="water" />
		<tag k="ssr:stedsnr" v="463768" />
	</node>
	<node id="-689982" lat="68.0649944423" lon="15.5133361207">
		<tag k="alt_name" v="Lapptjørna" />
		<tag k="name" v="Lapptjønna" />
		<tag k="natural" v="water" />
		<tag k="ssr:stedsnr" v="442960" />
	</node>
	<node id="-689461" lat="67.7952055519" lon="16.1566888833">
		<tag k="name" v="Sluŋkásuoloj" />
		<tag k="name:smj" v="Sluŋkásuoloj" />
		<tag k="old_name:smj" v="Šluŋkkasuolui" />
		<tag k="place" v="island" />
		<tag k="ssr:stedsnr" v="138303" />
	</node>
	<node id="-689979" lat="68.0267027748" lon="15.3683555499">
		<tag k="alt_name" v="Stenslandsvatnet" />
		<tag k="name" v="Steinslandsvatnet" />
		<tag k="natural" v="water" />
		<tag k="ssr:stedsnr" v="442926" />
	</node>
	<node id="-689973" lat="68.1961888886" lon="15.8882610988">
		<tag k="name" v="Mellomvatnet" />
		<tag k="natural" v="water" />
		<tag k="ssr:stedsnr" v="442824" />
	</node>
	<node id="-689970" lat="67.5966861083" lon="16.4278416557">
		<tag k="name" v="Tjåhkkuljávrre" />
		<tag k="name:smj" v="Tjåhkkuljávrre" />
		<tag k="natural" v="water" />
		<tag k="old_name:smj" v="Čohkuljávri;Tjohkoljávrre" />
		<tag k="ssr:stedsnr" v="442789" />
	</node>
	<node id="-689964" lat="68.1393055524" lon="15.9209833244">
		<tag k="alt_name" v="Gårdselva" />
		<tag k="name" v="Gardselva" />
		<tag k="ssr:stedsnr" v="442703" />
		<tag k="waterway" v="river" />
	</node>
	<node id="-689958" lat="68.0757555547" lon="15.697083333">
		<tag k="name" v="Finnvikvatnet" />
		<tag k="natural" v="water" />
		<tag k="ssr:stedsnr" v="442660" />
	</node>
	<node id="-689957" lat="68.0727055582" lon="15.8338833219">
		<tag k="name" v="Øysundet" />
		<tag k="natural" v="strait" />
		<tag k="ssr:stedsnr" v="442655" />
	</node>
	<node id="-689952" lat="68.0635999962" lon="15.8366972268">
		<tag k="name" v="Revet" />
		<tag k="natural" v="cape" />
		<tag k="ssr:stedsnr" v="442599" />
	</node>
	<node id="-689950" lat="68.0230166709" lon="15.9578055524">
		<tag k="name" v="Varpelva" />
		<tag k="ssr:stedsnr" v="442582" />
		<tag k="waterway" v="stream" />
	</node>
	<node id="-689949" lat="68.0252583329" lon="16.0183777761">
		<tag k="name" v="Dragsvatnan" />
		<tag k="natural" v="water" />
		<tag k="ssr:stedsnr" v="442574" />
		<tag k="water" v="lake" />
	</node>
	<node id="-689946" lat="68.0065388913" lon="15.8085888962">
		<tag k="name" v="Vassdalselva" />
		<tag k="ssr:stedsnr" v="442543" />
		<tag k="waterway" v="stream" />
	</node>
	<node id="-689945" lat="68.0096388889" lon="16.0351138794">
		<tag k="name" v="Botelvatnet" />
		<tag k="natural" v="water" />
		<tag k="ssr:stedsnr" v="442544" />
	</node>
	<node id="-689944" lat="67.8154111146" lon="15.9505444521">
		<tag k="name" v="Nattmålselva" />
		<tag k="ssr:stedsnr" v="442491" />
		<tag k="waterway" v="stream" />
	</node>
	<node id="-689942" lat="67.7953527809" lon="16.067872217">
		<tag k="name" v="Grunnen" />
		<tag k="natural" v="shoal" />
		<tag k="place" v="locality" />
		<tag k="ssr:stedsnr" v="442322" />
	</node>
	<node id="-689941" lat="67.7855222214" lon="15.9591333381">
		<tag k="name" v="Sjettvasselva" />
		<tag k="ssr:stedsnr" v="442314" />
		<tag k="waterway" v="river" />
	</node>
	<node id="-689940" lat="67.8692361096" lon="15.9188916554">
		<tag k="alt_name" v="Forneset" />
		<tag k="name" v="Forrneset" />
		<tag k="natural" v="cape" />
		<tag k="ssr:stedsnr" v="442224" />
	</node>
	<node id="-689930" lat="68.0724611119" lon="15.3776416661">
		<tag k="name" v="Kollvatnet" />
		<tag k="natural" v="water" />
		<tag k="ssr:stedsnr" v="441990" />
	</node>
	<node id="-689920" lat="68.1548388928" lon="15.7840472216">
		<tag k="name" v="Markosen" />
		<tag k="natural" v="bay" />
		<tag k="ssr:stedsnr" v="441734" />
	</node>
	<node id="-689918" lat="68.1483194409" lon="15.9902944335">
		<tag k="name" v="Kjosen" />
		<tag k="natural" v="bay" />
		<tag k="ssr:stedsnr" v="441729" />
	</node>
	<node id="-689917" lat="68.0942638891" lon="15.9422388764">
		<tag k="name" v="Djupdalselva" />
		<tag k="ssr:stedsnr" v="441685" />
		<tag k="waterway" v="stream" />
	</node>
	<node id="-689914" lat="67.6586583317" lon="16.2466083421">
		<tag k="name" v="Gasskajávrrit" />
		<tag k="name:smj" v="Gasskajávrrit" />
		<tag k="natural" v="water" />
		<tag k="old_name:smj" v="Gaskajávrrit" />
		<tag k="ssr:stedsnr" v="441640" />
		<tag k="water" v="lake" />
	</node>
	<node id="-689910" lat="67.6353055565" lon="16.4955583294">
		<tag k="name" v="Sjnasjkasluoppar" />
		<tag k="name:smj" v="Sjnasjkasluoppar" />
		<tag k="natural" v="water" />
		<tag k="old_name:smj" v="Njaskasluoppal" />
		<tag k="ssr:stedsnr" v="441631" />
	</node>
	<node id="-689909" lat="67.6198611095" lon="16.368647213">
		<tag k="name" v="Linnajávrásj" />
		<tag k="name:smj" v="Linnajávrásj" />
		<tag k="natural" v="water" />
		<tag k="old_name:smj" v="Linájávrráš" />
		<tag k="ssr:stedsnr" v="441630" />
	</node>
	<node id="-689906" lat="67.8554027794" lon="15.8283249901">
		<tag k="alt_name" v="Tømmertjørna" />
		<tag k="name" v="Tømmertjønna" />
		<tag k="natural" v="water" />
		<tag k="ssr:stedsnr" v="441461" />
	</node>
	<node id="-689905" lat="67.8538444407" lon="15.9034416649">
		<tag k="alt_name" v="Småvasselvene" />
		<tag k="name" v="Småvasselva" />
		<tag k="ssr:stedsnr" v="441457" />
		<tag k="waterway" v="stream" />
	</node>
	<node id="-689900" lat="67.9004972254" lon="15.816983329">
		<tag k="name" v="Lielvvatnet" />
		<tag k="natural" v="water" />
		<tag k="ssr:stedsnr" v="441375" />
	</node>
	<node id="-689899" lat="67.9070055526" lon="15.8804472194">
		<tag k="name" v="Kjerringvatnet" />
		<tag k="natural" v="water" />
		<tag k="ssr:stedsnr" v="441374" />
		<tag k="water" v="lake" />
	</node>
	<node id="-689890" lat="68.1621499994" lon="15.9634388999">
		<tag k="name" v="Tortenåsvatnet" />
		<tag k="natural" v="water" />
		<tag k="ssr:stedsnr" v="264699" />
	</node>
	<node id="-689887" lat="68.0166194431" lon="15.3746249997">
		<tag k="name" v="Steinslandsosen" />
		<tag k="natural" v="bay" />
		<tag k="ssr:stedsnr" v="260900" />
	</node>
	<node id="-689885" lat="68.0488694457" lon="15.2883999946">
		<tag k="name" v="Storelva" />
		<tag k="ssr:stedsnr" v="260867" />
		<tag k="waterway" v="stream" />
	</node>
	<node id="-689884" lat="67.5944499972" lon="16.4726249936">
		<tag k="name" v="Elvkjosen - Luoppar" />
		<tag k="name:no" v="Elvkjosen" />
		<tag k="name:smj" v="Luoppar" />
		<tag k="natural" v="water" />
		<tag k="old_name:smj" v="Luoppal" />
		<tag k="ssr:stedsnr" v="260792" />
	</node>
	<node id="-689883" lat="67.6013500042" lon="16.3626499972">
		<tag k="name" v="Ridoalgejávrre" />
		<tag k="name:smj" v="Ridoalgejávrre" />
		<tag k="natural" v="water" />
		<tag k="old_name:smj" v="Ridoalggijávri" />
		<tag k="ssr:stedsnr" v="260791" />
		<tag k="water" v="lake" />
	</node>
	<node id="-689881" lat="67.5883888901" lon="16.3793277757">
		<tag k="name" v="Mellomelva - Gasskajåhkå" />
		<tag k="name:no" v="Mellomelva" />
		<tag k="name:smj" v="Gasskajåhkå" />
		<tag k="old_name:smj" v="Gaskajohka" />
		<tag k="ssr:stedsnr" v="260777" />
		<tag k="waterway" v="stream" />
	</node>
	<node id="-689880" lat="68.126747223" lon="15.978802788">
		<tag k="name" v="Knutholmen" />
		<tag k="place" v="islet" />
		<tag k="ssr:stedsnr" v="260750" />
	</node>
	<node id="-689873" lat="67.9348222228" lon="15.9651777842">
		<tag k="name" v="Steinbakkvatnet" />
		<tag k="natural" v="water" />
		<tag k="ssr:stedsnr" v="260657" />
	</node>
	<node id="-689872" lat="68.0143999969" lon="15.670738883">
		<tag k="name" v="Forneselva" />
		<tag k="ssr:stedsnr" v="260553" />
		<tag k="waterway" v="stream" />
	</node>
	<node id="-689869" lat="68.1127861114" lon="15.6077472178">
		<tag k="name" v="Hesskogosen" />
		<tag k="natural" v="bay" />
		<tag k="ssr:stedsnr" v="260042" />
	</node>
	<node id="-689868" lat="68.1238583331" lon="15.5991194416">
		<tag k="alt_name" v="Lomtjørna" />
		<tag k="name" v="Lomtjønna" />
		<tag k="natural" v="water" />
		<tag k="ssr:stedsnr" v="260033" />
	</node>
	<node id="-689867" lat="68.1175583344" lon="15.5941444383">
		<tag k="name" v="Øyjordskogvatnet" />
		<tag k="natural" v="water" />
		<tag k="ssr:stedsnr" v="260018" />
	</node>
	<node id="-689866" lat="68.0656527806" lon="15.3297333397">
		<tag k="name" v="Dalsosen" />
		<tag k="natural" v="bay" />
		<tag k="ssr:stedsnr" v="259960" />
	</node>
	<node id="-689861" lat="68.092322219" lon="15.9643638894">
		<tag k="name" v="Krokelva" />
		<tag k="ssr:stedsnr" v="259831" />
		<tag k="waterway" v="stream" />
	</node>
	<node id="-689853" lat="68.1013583333" lon="15.9820916587">
		<tag k="alt_name" v="Lomtjørna" />
		<tag k="name" v="Lomtjønna" />
		<tag k="natural" v="water" />
		<tag k="ssr:stedsnr" v="259668" />
	</node>
	<node id="-689852" lat="68.0639500042" lon="15.6038583384">
		<tag k="fixme" v="multiple name tags, choose one and add the other to alt_name" />
		<tag k="name" v="Kallstadvatnet;Storvatnet" />
		<tag k="natural" v="water" />
		<tag k="ssr:stedsnr" v="259950" />
	</node>
	<node id="-689844" lat="68.0577444405" lon="15.8309555639">
		<tag k="name" v="Skjevågelva" />
		<tag k="ssr:stedsnr" v="259583" />
		<tag k="waterway" v="stream" />
	</node>
	<node id="-689843" lat="68.0649277808" lon="15.7072388913">
		<tag k="alt_name" v="Hansvatnan" />
		<tag k="name" v="Hansvatnet" />
		<tag k="natural" v="water" />
		<tag k="ssr:stedsnr" v="259578" />
	</node>
	<node id="-689839" lat="67.997022226" lon="15.9117500036">
		<tag k="alt_name" v="Buktelva" />
		<tag k="name" v="Buktaelva" />
		<tag k="ssr:stedsnr" v="259642" />
		<tag k="waterway" v="stream" />
	</node>
	<node id="-689838" lat="67.9877222241" lon="15.856811106">
		<tag k="name" v="Mølnvatnet" />
		<tag k="natural" v="water" />
		<tag k="ssr:stedsnr" v="259639" />
	</node>
	<node id="-689836" lat="68.0704750038" lon="15.8322777822">
		<tag k="name" v="Vassøya" />
		<tag k="place" v="island" />
		<tag k="ssr:stedsnr" v="259633" />
	</node>
	<node id="-689834" lat="68.0959722212" lon="15.6271638999">
		<tag k="fixme" v="multiple name tags, choose one and add the other to alt_name" />
		<tag k="name" v="Djupvika;Djupvikosen" />
		<tag k="natural" v="bay" />
		<tag k="ssr:stedsnr" v="259611" />
	</node>
	<node id="-689832" lat="67.6424500034" lon="16.3363777859">
		<tag k="name" v="Boartejávrre" />
		<tag k="name:smj" v="Boartejávrre" />
		<tag k="natural" v="water" />
		<tag k="old_name:smj" v="Boartajávri" />
		<tag k="ssr:stedsnr" v="259609" />
		<tag k="water" v="lake" />
	</node>
	<node id="-689829" lat="67.8223638914" lon="16.0313972323">
		<tag k="name" v="Lusspe" />
		<tag k="name:smj" v="Lusspe" />
		<tag k="old_name:smj" v="Luspi" />
		<tag k="place" v="locality" />
		<tag k="ssr:stedsnr" v="259464" />
	</node>
	<node id="-689827" lat="67.8656249956" lon="15.9061305611">
		<tag k="name" v="Strindvatnet - Tjoalmejávrre" />
		<tag k="name:no" v="Strindvatnet" />
		<tag k="name:smj" v="Tjoalmejávrre" />
		<tag k="natural" v="water" />
		<tag k="old_name:smj" v="Čoalmejávri" />
		<tag k="ssr:stedsnr" v="259453" />
		<tag k="water" v="lake" />
	</node>
	<node id="-689825" lat="67.888444448" lon="15.8520249946">
		<tag k="alt_name" v="Liholmen" />
		<tag k="name" v="Liholman" />
		<tag k="place" v="islet" />
		<tag k="ssr:stedsnr" v="259423" />
	</node>
	<node id="-689824" lat="67.879877778" lon="15.8616555457">
		<tag k="fixme" v="multiple name tags, choose one and add the other to alt_name" />
		<tag k="name" v="Nervatnet;Rotvatnet - Ruohtsajávrre" />
		<tag k="name:no" v="Nervatnet;Rotvatnet" />
		<tag k="name:smj" v="Ruohtsajávrre" />
		<tag k="natural" v="water" />
		<tag k="old_name:smj" v="Ruohcajávri" />
		<tag k="ssr:stedsnr" v="259420" />
		<tag k="water" v="lake" />
	</node>
	<node id="-689819" lat="67.7525555528" lon="16.0399194318">
		<tag k="name" v="Daudmannselva" />
		<tag k="ssr:stedsnr" v="259231" />
		<tag k="waterway" v="river" />
	</node>
	<node id="-688751" lat="68.0997388903" lon="15.9410944343">
		<tag k="name" v="Djupdalsvatnan" />
		<tag k="natural" v="water" />
		<tag k="ssr:stedsnr" v="380705" />
	</node>
	<node id="-689808" lat="68.1265111129" lon="15.5499305513">
		<tag k="name" v="Trollvatnet" />
		<tag k="natural" v="water" />
		<tag k="ssr:stedsnr" v="259003" />
	</node>
	<node id="-689807" lat="67.9710083345" lon="15.9799833269">
		<tag k="name" v="Bjørntjønna" />
		<tag k="natural" v="water" />
		<tag k="ssr:stedsnr" v="231799" />
	</node>
	<node id="-689802" lat="67.9986694442" lon="15.803572219">
		<tag k="name" v="Lomtjønnen" />
		<tag k="natural" v="water" />
		<tag k="ssr:stedsnr" v="231685" />
	</node>
	<node id="-689795" lat="68.0578388865" lon="15.4752805644">
		<tag k="name" v="Teinhola" />
		<tag k="place" v="locality" />
		<tag k="ssr:stedsnr" v="231365" />
	</node>
	<node id="-689793" lat="68.0965805535" lon="15.5341472112">
		<tag k="name" v="Skjellelva" />
		<tag k="ssr:stedsnr" v="231342" />
		<tag k="waterway" v="stream" />
	</node>
	<node id="-689789" lat="67.8321416628" lon="15.9818749912">
		<tag k="name" v="Likkjholmen" />
		<tag k="place" v="islet" />
		<tag k="ssr:stedsnr" v="231289" />
	</node>
	<node id="-689788" lat="67.8284361122" lon="15.9687972311">
		<tag k="name" v="Leirelva" />
		<tag k="ssr:stedsnr" v="231284" />
		<tag k="waterway" v="stream" />
	</node>
	<node id="-689779" lat="67.8493138883" lon="15.8339000001">
		<tag k="name" v="Storbukta" />
		<tag k="natural" v="bay" />
		<tag k="ssr:stedsnr" v="231215" />
	</node>
	<node id="-689764" lat="68.0167166704" lon="15.7801805453">
		<tag k="name" v="Svartvasselva" />
		<tag k="ssr:stedsnr" v="231001" />
		<tag k="waterway" v="stream" />
	</node>
	<node id="-689749" lat="68.1407527811" lon="15.996255545">
		<tag k="name" v="Kjosholmen" />
		<tag k="place" v="islet" />
		<tag k="ssr:stedsnr" v="230661" />
	</node>
	<node id="-689736" lat="68.1204999998" lon="15.4527527696">
		<tag k="name" v="Røyrstø" />
		<tag k="natural" v="bay" />
		<tag k="ssr:stedsnr" v="230486" />
	</node>
	<node id="-688737" lat="67.9118888916" lon="15.9586416588">
		<tag k="name" v="Lagmannsvikvatnet" />
		<tag k="natural" v="water" />
		<tag k="ssr:stedsnr" v="380383" />
	</node>
	<node id="-689729" lat="68.067641667" lon="15.8680833418">
		<tag k="name" v="Tverråssanden" />
		<tag k="natural" v="beach" />
		<tag k="ssr:stedsnr" v="230258" />
	</node>
	<node id="-689728" lat="68.0746972191" lon="15.877991654">
		<tag k="name" v="Roparneset" />
		<tag k="natural" v="cape" />
		<tag k="ssr:stedsnr" v="230251" />
	</node>
	<node id="-689725" lat="68.0804305519" lon="15.4870944434">
		<tag k="fixme" v="multiple name tags, choose one and add the other to alt_name" />
		<tag k="name" v="Hansbakkelva;Mølnhågelva" />
		<tag k="ssr:stedsnr" v="230208" />
		<tag k="waterway" v="stream" />
	</node>
	<node id="-689170" lat="67.9964138927" lon="15.5529888819">
		<tag k="name" v="Ytterelva" />
		<tag k="ssr:stedsnr" v="48518" />
		<tag k="waterway" v="stream" />
	</node>
	<node id="-689718" lat="68.1827472224" lon="15.6353444559">
		<tag k="name" v="Langtjønna" />
		<tag k="natural" v="water" />
		<tag k="ssr:stedsnr" v="230075" />
	</node>
	<node id="-689716" lat="67.884563889" lon="15.8523166781">
		<tag k="name" v="Bergsnes" />
		<tag k="natural" v="cape" />
		<tag k="ssr:stedsnr" v="230033" />
	</node>
	<node id="-689713" lat="67.7161416707" lon="16.3747611052">
		<tag k="name" v="Bajep Slædovágjávrre" />
		<tag k="name:smj" v="Bajep Slædovágjávrre" />
		<tag k="natural" v="water" />
		<tag k="ssr:stedsnr" v="220822" />
	</node>
	<node id="-689707" lat="68.2025694418" lon="15.9691472258">
		<tag k="name" v="Vasslivatnet" />
		<tag k="natural" v="water" />
		<tag k="ssr:stedsnr" v="204632" />
	</node>
	<node id="-689704" lat="68.0702000004" lon="15.5035333273">
		<tag k="name" v="Rundholmen" />
		<tag k="place" v="islet" />
		<tag k="ssr:stedsnr" v="199976" />
	</node>
	<node id="-689696" lat="67.9943944415" lon="15.6447666766">
		<tag k="name" v="Mølnelva" />
		<tag k="ssr:stedsnr" v="199903" />
		<tag k="waterway" v="stream" />
	</node>
	<node id="-689678" lat="68.1405805576" lon="15.9473722323">
		<tag k="alt_name" v="Nøkkvatn" />
		<tag k="name" v="Nøkkvatnet" />
		<tag k="natural" v="water" />
		<tag k="ssr:stedsnr" v="199756" />
	</node>
	<node id="-689671" lat="68.0279388889" lon="15.9846972209">
		<tag k="alt_name" v="Varpvatn" />
		<tag k="name" v="Varpvatnet" />
		<tag k="natural" v="water" />
		<tag k="ssr:stedsnr" v="199591" />
		<tag k="water" v="lake" />
	</node>
	<node id="-689668" lat="67.7422666652" lon="16.1497388774">
		<tag k="name" v="Oksereindalvatnet - Hierggegåpjávrre" />
		<tag k="name:no" v="Oksereindalvatnet" />
		<tag k="name:smj" v="Hierggegåpjávrre" />
		<tag k="natural" v="water" />
		<tag k="old_name:smj" v="Heargegobejávri" />
		<tag k="ssr:stedsnr" v="199563" />
	</node>
	<node id="-689665" lat="67.8295666653" lon="16.1019805539">
		<tag k="name" v="Osen" />
		<tag k="natural" v="bay" />
		<tag k="ssr:stedsnr" v="199484" />
	</node>
	<node id="-689662" lat="67.8262555598" lon="15.9291944512">
		<tag k="name" v="Krokelva" />
		<tag k="ssr:stedsnr" v="199456" />
		<tag k="waterway" v="stream" />
	</node>
	<node id="-689659" lat="67.8738194399" lon="15.8648055617">
		<tag k="name" v="Storholmen" />
		<tag k="place" v="islet" />
		<tag k="ssr:stedsnr" v="199411" />
	</node>
	<node id="-689658" lat="67.8726388887" lon="15.8884027718">
		<tag k="alt_name" v="Ingebrigtodden" />
		<tag k="name" v="Ingebregtodden" />
		<tag k="natural" v="cape" />
		<tag k="ssr:stedsnr" v="199412" />
	</node>
	<node id="-689657" lat="67.7948583288" lon="15.9660166728">
		<tag k="fixme" v="multiple name tags, choose one and add the other to alt_name" />
		<tag k="name" v="Femtvasselva;Storelva - Skilggajåhkå" />
		<tag k="name:no" v="Femtvasselva;Storelva" />
		<tag k="name:smj" v="Skilggajåhkå" />
		<tag k="old_name:smj" v="Skilggajohka" />
		<tag k="ssr:stedsnr" v="199298" />
		<tag k="waterway" v="river" />
	</node>
	<node id="-689656" lat="67.7899166658" lon="15.9440305449">
		<tag k="name" v="Slåttelva" />
		<tag k="ssr:stedsnr" v="199295" />
		<tag k="waterway" v="stream" />
	</node>
	<node id="-688724" lat="67.772655554" lon="15.9932249873">
		<tag k="name" v="Lomtjønna" />
		<tag k="natural" v="water" />
		<tag k="ssr:stedsnr" v="352798" />
	</node>
	<node id="-689652" lat="67.9501250029" lon="15.7952333455">
		<tag k="name" v="Pissarelva" />
		<tag k="ssr:stedsnr" v="199668" />
		<tag k="waterway" v="stream" />
	</node>
	<node id="-689650" lat="67.6809500007" lon="16.2301777687">
		<tag k="name" v="Jierddajåhkå" />
		<tag k="name:smj" v="Jierddajåhkå" />
		<tag k="old_name:smj" v="Jierdájohka" />
		<tag k="ssr:stedsnr" v="199656" />
		<tag k="waterway" v="stream" />
	</node>
	<node id="-689649" lat="67.9452916667" lon="16.0025944404">
		<tag k="name" v="Langodden" />
		<tag k="natural" v="cape" />
		<tag k="ssr:stedsnr" v="199653" />
	</node>
	<node id="-689648" lat="67.9496916665" lon="15.7600111145">
		<tag k="name" v="Kvitsteinvatnet" />
		<tag k="natural" v="water" />
		<tag k="ssr:stedsnr" v="199642" />
	</node>
	<node id="-689635" lat="68.117786112" lon="15.57444722">
		<tag k="name" v="Kulvågtjørna" />
		<tag k="natural" v="water" />
		<tag k="ssr:stedsnr" v="199016" />
	</node>
	<node id="-689628" lat="67.781930554" lon="16.1453944348">
		<tag k="name" v="Sluŋkajávrre" />
		<tag k="name:smj" v="Sluŋkajávrre" />
		<tag k="natural" v="water" />
		<tag k="old_name:smj" v="Šluŋkkajávri" />
		<tag k="ssr:stedsnr" v="198233" />
		<tag k="water" v="lake" />
	</node>
	<node id="-689627" lat="67.9095222222" lon="15.8770249949">
		<tag k="name" v="Kjerringvasselva" />
		<tag k="ssr:stedsnr" v="170985" />
		<tag k="waterway" v="river" />
	</node>
	<node id="-689616" lat="68.0794500021" lon="15.8737527772">
		<tag k="name" v="Djupvikodden" />
		<tag k="natural" v="cape" />
		<tag k="ssr:stedsnr" v="170959" />
	</node>
	<node id="-689604" lat="68.0004277806" lon="15.6194361136">
		<tag k="name" v="Djupbekkan" />
		<tag k="ssr:stedsnr" v="170668" />
		<tag k="waterway" v="stream" />
	</node>
	<node id="-689599" lat="68.0968222186" lon="15.9376833257">
		<tag k="name" v="Djupdalstjønna" />
		<tag k="natural" v="water" />
		<tag k="ssr:stedsnr" v="170415" />
	</node>
	<node id="-689597" lat="68.1281611137" lon="16.0060972104">
		<tag k="name" v="Sundodden" />
		<tag k="natural" v="cape" />
		<tag k="ssr:stedsnr" v="170469" />
	</node>
	<node id="-689595" lat="68.1340777738" lon="16.0106083327">
		<tag k="name" v="Tennsteinskjeran" />
		<tag k="place" v="islet" />
		<tag k="ssr:stedsnr" v="170461" />
	</node>
	<node id="-689588" lat="68.1149166674" lon="15.8800722175">
		<tag k="name" v="Trolltjønna" />
		<tag k="natural" v="water" />
		<tag k="ssr:stedsnr" v="170336" />
	</node>
	<node id="-689583" lat="68.0543027804" lon="15.4695750107">
		<tag k="name" v="Damman" />
		<tag k="natural" v="water" />
		<tag k="ssr:stedsnr" v="170315" />
		<tag k="water" v="pond" />
	</node>
	<node id="-689582" lat="68.0738305554" lon="15.8343444379">
		<tag k="name" v="Kvellro" />
		<tag k="natural" v="cape" />
		<tag k="ssr:stedsnr" v="170291" />
	</node>
	<node id="-689579" lat="67.8522111075" lon="15.9614916663">
		<tag k="name" v="Gardsnes" />
		<tag k="natural" v="cape" />
		<tag k="ssr:stedsnr" v="170267" />
	</node>
	<node id="-689578" lat="67.851133333" lon="15.9360138915">
		<tag k="name" v="Lamelva" />
		<tag k="ssr:stedsnr" v="170265" />
		<tag k="waterway" v="stream" />
	</node>
	<node id="-690529" lat="68.0146944403" lon="15.5534416692">
		<tag k="alt_name" v="Lomtjørna" />
		<tag k="name" v="Lomtjønnen" />
		<tag k="natural" v="water" />
		<tag k="ssr:stedsnr" v="624837" />
	</node>
	<node id="-689570" lat="67.8543861134" lon="15.8305583427">
		<tag k="name" v="Hundtjønna" />
		<tag k="natural" v="water" />
		<tag k="ssr:stedsnr" v="170224" />
	</node>
	<node id="-689567" lat="67.8394555528" lon="15.8361277668">
		<tag k="name" v="Langodden" />
		<tag k="natural" v="cape" />
		<tag k="ssr:stedsnr" v="170219" />
	</node>
	<node id="-689550" lat="68.0176944433" lon="15.8450860993">
		<tag k="name" v="Kløttervatnet" />
		<tag k="natural" v="water" />
		<tag k="ssr:stedsnr" v="169497" />
	</node>
	<node id="-689549" lat="68.1250694476" lon="16.0163388896">
		<tag k="name" v="Steinklubben" />
		<tag k="natural" v="cape" />
		<tag k="ssr:stedsnr" v="169442" />
	</node>
	<node id="-689046" lat="68.0812361083" lon="15.8728583235">
		<tag k="name" v="Olaodden" />
		<tag k="natural" v="cape" />
		<tag k="ssr:stedsnr" v="898959" />
	</node>
	<node id="-689495" lat="68.1010666642" lon="15.8901722137">
		<tag k="name" v="Eriktjørna" />
		<tag k="natural" v="water" />
		<tag k="ssr:stedsnr" v="138697" />
	</node>
	<node id="-689493" lat="68.0742583324" lon="15.6222999888">
		<tag k="name" v="Sandøysjøen" />
		<tag k="natural" v="water" />
		<tag k="ssr:stedsnr" v="138667" />
		<tag k="water" v="lake" />
	</node>
	<node id="-689489" lat="68.0440749993" lon="15.3112583427">
		<tag k="alt_name" v="Kvanndalsvatnet, l" />
		<tag k="name" v="Litl Kvanndalsvatnet" />
		<tag k="natural" v="water" />
		<tag k="ssr:stedsnr" v="138932" />
	</node>
	<node id="-689486" lat="68.0301083301" lon="15.3850222204">
		<tag k="fixme" v="multiple name tags, choose one and add the other to alt_name" />
		<tag k="name" v="Lanstøvatnet;Vågsvatnet" />
		<tag k="natural" v="water" />
		<tag k="ssr:stedsnr" v="138911" />
	</node>
	<node id="-689477" lat="68.0501444424" lon="15.8896833211">
		<tag k="name" v="Kløttervatnet" />
		<tag k="natural" v="water" />
		<tag k="ssr:stedsnr" v="138633" />
		<tag k="water" v="lake" />
	</node>
	<node id="-689476" lat="68.0548166674" lon="15.8566444501">
		<tag k="name" v="Skarpheivatnet" />
		<tag k="natural" v="water" />
		<tag k="ssr:stedsnr" v="138607" />
	</node>
	<node id="-689472" lat="68.0059694478" lon="15.7783361075">
		<tag k="name" v="Kroken" />
		<tag k="natural" v="bay" />
		<tag k="ssr:stedsnr" v="138554" />
	</node>
	<node id="-689469" lat="67.8558666655" lon="15.8127611023">
		<tag k="name" v="Djupelva" />
		<tag k="ssr:stedsnr" v="138466" />
		<tag k="waterway" v="stream" />
	</node>
	<node id="-689468" lat="67.8536972207" lon="15.9481805462">
		<tag k="name" v="Lappneset" />
		<tag k="natural" v="cape" />
		<tag k="ssr:stedsnr" v="138462" />
	</node>
	<node id="-689465" lat="67.8831999996" lon="15.8502388806">
		<tag k="fixme" v="multiple name tags, choose one and add the other to alt_name" />
		<tag k="name" v="Oddan;Øverodden" />
		<tag k="natural" v="cape" />
		<tag k="ssr:stedsnr" v="138427" />
	</node>
	<node id="-689464" lat="67.8636000006" lon="15.8479694324">
		<tag k="name" v="Kjerringvatnet" />
		<tag k="natural" v="water" />
		<tag k="ssr:stedsnr" v="138422" />
	</node>
	<node id="-689462" lat="67.9060333359" lon="15.8642333397">
		<tag k="name" v="Sagforsen" />
		<tag k="natural" v="waterfall" />
		<tag k="ssr:stedsnr" v="138398" />
	</node>
	<node id="-691081" lat="67.9503416667" lon="15.9968749916">
		<tag k="name" v="Storvatnet" />
		<tag k="natural" v="water" />
		<tag k="ssr:stedsnr" v="806642" />
		<tag k="water" v="lake" />
	</node>
	<node id="-689459" lat="68.0915916666" lon="15.4162694539">
		<tag k="name" v="Storelva" />
		<tag k="ssr:stedsnr" v="138063" />
		<tag k="waterway" v="stream" />
	</node>
	<node id="-689458" lat="68.1001888898" lon="15.3656055456">
		<tag k="alt_name" v="Røykfjellvatnet" />
		<tag k="name" v="Røykvatnet" />
		<tag k="natural" v="water" />
		<tag k="ssr:stedsnr" v="138051" />
	</node>
	<node id="-691503" lat="67.9063194447" lon="15.8623499983">
		<tag k="name" v="Sagtjønna" />
		<tag k="natural" v="water" />
		<tag k="ssr:stedsnr" v="959995" />
	</node>
	<node id="-689450" lat="67.7626166646" lon="16.0149611029">
		<tag k="name" v="Sjuendvatnet - Skuhtjamjávrre" />
		<tag k="name:no" v="Sjuendvatnet" />
		<tag k="name:smj" v="Skuhtjamjávrre" />
		<tag k="natural" v="water" />
		<tag k="old_name:smj" v="Skuhččamjávri" />
		<tag k="ssr:stedsnr" v="137225" />
		<tag k="water" v="lake" />
	</node>
	<node id="-691492" lat="68.1476833345" lon="15.9845777755">
		<tag k="name" v="Innerkjosen" />
		<tag k="natural" v="bay" />
		<tag k="ssr:stedsnr" v="959678" />
	</node>
	<node id="-691489" lat="68.005163886" lon="15.6560611168">
		<tag k="name" v="Kjoselva" />
		<tag k="ssr:stedsnr" v="959654" />
		<tag k="waterway" v="stream" />
	</node>
	<node id="-689433" lat="67.9897805553" lon="15.8973555613">
		<tag k="name" v="Innerjordselva" />
		<tag k="ssr:stedsnr" v="110736" />
		<tag k="waterway" v="stream" />
	</node>
	<node id="-691477" lat="68.1295583348" lon="15.7053166612">
		<tag k="name" v="Slettelva" />
		<tag k="ssr:stedsnr" v="959599" />
		<tag k="waterway" v="stream" />
	</node>
	<node id="-691473" lat="68.1230277804" lon="15.4903916758">
		<tag k="name" v="Mølnelva" />
		<tag k="ssr:stedsnr" v="959505" />
		<tag k="waterway" v="stream" />
	</node>
	<node id="-689368" lat="68.1116250007" lon="15.5350638965">
		<tag k="name" v="Mølnbekken" />
		<tag k="ssr:stedsnr" v="109426" />
		<tag k="waterway" v="stream" />
	</node>
	<node id="-691469" lat="68.1343555537" lon="15.9566000063">
		<tag k="name" v="Vasskråa" />
		<tag k="natural" v="bay" />
		<tag k="ssr:stedsnr" v="959445" />
	</node>
	<node id="-691463" lat="68.0681861072" lon="15.5079166622">
		<tag k="name" v="Åsvatnet" />
		<tag k="natural" v="water" />
		<tag k="ssr:stedsnr" v="959284" />
		<tag k="water" v="lake" />
	</node>
	<node id="-691457" lat="67.854930556" lon="15.9539222334">
		<tag k="name" v="Sandøyra" />
		<tag k="natural" v="cape" />
		<tag k="ssr:stedsnr" v="959220" />
	</node>
	<node id="-689406" lat="68.1070611137" lon="15.848150004">
		<tag k="name" v="Grimsoselva" />
		<tag k="ssr:stedsnr" v="109304" />
		<tag k="waterway" v="stream" />
	</node>
	<node id="-691443" lat="68.0825722222" lon="15.5852750068">
		<tag k="name" v="Nakkelva" />
		<tag k="ssr:stedsnr" v="959105" />
		<tag k="waterway" v="stream" />
	</node>
	<node id="-691429" lat="68.1191277739" lon="15.6405888836">
		<tag k="name" v="Lappkonneset" />
		<tag k="natural" v="cape" />
		<tag k="ssr:stedsnr" v="958548" />
	</node>
	<node id="-691427" lat="68.123077782" lon="15.6374888778">
		<tag k="name" v="Lomholmen" />
		<tag k="place" v="islet" />
		<tag k="ssr:stedsnr" v="958544" />
	</node>
	<node id="-689377" lat="68.1233194432" lon="15.478038892">
		<tag k="name" v="Mjåsundelva" />
		<tag k="ssr:stedsnr" v="109472" />
		<tag k="waterway" v="river" />
	</node>
	<node id="-689370" lat="68.1353611086" lon="15.9618277667">
		<tag k="name" v="Sanden" />
		<tag k="natural" v="beach" />
		<tag k="ssr:stedsnr" v="109435" />
	</node>
	<node id="-691417" lat="67.869997226" lon="15.8978361108">
		<tag k="name" v="Tyttebærneset" />
		<tag k="natural" v="cape" />
		<tag k="ssr:stedsnr" v="958064" />
	</node>
	<node id="-691416" lat="67.8848555571" lon="15.8290305637">
		<tag k="name" v="Skjellelva" />
		<tag k="ssr:stedsnr" v="958028" />
		<tag k="waterway" v="stream" />
	</node>
	<node id="-691414" lat="67.8926333377" lon="15.8592166665">
		<tag k="name" v="Eliasneset" />
		<tag k="natural" v="cape" />
		<tag k="ssr:stedsnr" v="958021" />
	</node>
	<node id="-689356" lat="67.8862750006" lon="15.8619000035">
		<tag k="name" v="Nersandnesodden" />
		<tag k="natural" v="cape" />
		<tag k="ssr:stedsnr" v="109008" />
	</node>
	<node id="-689354" lat="67.6520749966" lon="16.2339305558">
		<tag k="name" v="Vuolep Gasskajávrre" />
		<tag k="name:smj" v="Vuolep Gasskajávrre" />
		<tag k="natural" v="water" />
		<tag k="ssr:stedsnr" v="105327" />
		<tag k="water" v="lake" />
	</node>
	<node id="-691399" lat="68.0260833379" lon="15.4046416565">
		<tag k="name" v="Mølndammen" />
		<tag k="natural" v="water" />
		<tag k="ssr:stedsnr" v="927915" />
	</node>
	<node id="-689342" lat="68.0752861083" lon="15.4617916644">
		<tag k="name" v="Nordelva" />
		<tag k="ssr:stedsnr" v="78978" />
		<tag k="waterway" v="stream" />
	</node>
	<node id="-689341" lat="68.0681722227" lon="15.3841638797">
		<tag k="name" v="Bjørndalsvatnet" />
		<tag k="natural" v="water" />
		<tag k="ssr:stedsnr" v="78975" />
	</node>
	<node id="-689340" lat="68.0660444415" lon="15.4078166643">
		<tag k="name" v="Kalvåselva" />
		<tag k="ssr:stedsnr" v="78970" />
		<tag k="waterway" v="stream" />
	</node>
	<node id="-691387" lat="68.1717055543" lon="15.9629722331">
		<tag k="name" v="Fjellvatnet" />
		<tag k="natural" v="water" />
		<tag k="ssr:stedsnr" v="927778" />
	</node>
	<node id="-691375" lat="68.1395833363" lon="15.7696583281">
		<tag k="name" v="Støvikvatnan" />
		<tag k="natural" v="water" />
		<tag k="ssr:stedsnr" v="927696" />
	</node>
	<node id="-691371" lat="68.1102750041" lon="15.9433666575">
		<tag k="name" v="Tuvvatnet" />
		<tag k="natural" v="water" />
		<tag k="ssr:stedsnr" v="927677" />
	</node>
	<node id="-691370" lat="68.1022749968" lon="15.8462888875">
		<tag k="name" v="Mølnvatnet" />
		<tag k="natural" v="water" />
		<tag k="ssr:stedsnr" v="927665" />
	</node>
	<node id="-689319" lat="68.1355333295" lon="15.7997555609">
		<tag k="name" v="Ospvikvatnet" />
		<tag k="natural" v="water" />
		<tag k="ssr:stedsnr" v="78699" />
	</node>
	<node id="-691366" lat="67.9872111116" lon="15.8426833359">
		<tag k="name" v="Oterågvatnet" />
		<tag k="natural" v="water" />
		<tag k="ssr:stedsnr" v="927651" />
	</node>
	<node id="-691365" lat="67.9712277767" lon="16.0005138889">
		<tag k="alt_name" v="Krokvasselva" />
		<tag k="name" v="Krokelva" />
		<tag k="ssr:stedsnr" v="927647" />
		<tag k="waterway" v="stream" />
	</node>
	<node id="-691362" lat="67.9334500004" lon="15.821116676">
		<tag k="fixme" v="multiple name tags, choose one and add the other to alt_name" />
		<tag k="name" v="Dønselva;Dønsåga" />
		<tag k="ssr:stedsnr" v="927635" />
		<tag k="waterway" v="stream" />
	</node>
	<node id="-689312" lat="67.9906611075" lon="15.8426222279">
		<tag k="name" v="Oterågelva" />
		<tag k="ssr:stedsnr" v="78649" />
		<tag k="waterway" v="stream" />
	</node>
	<node id="-691359" lat="68.0791499999" lon="15.6780777739">
		<tag k="name" v="Bleivatnet" />
		<tag k="natural" v="water" />
		<tag k="ssr:stedsnr" v="927630" />
	</node>
	<node id="-689310" lat="68.069736115" lon="15.8941472344">
		<tag k="name" v="Helmerøya" />
		<tag k="place" v="island" />
		<tag k="ssr:stedsnr" v="78628" />
	</node>
	<node id="-689309" lat="67.9401083358" lon="16.0757027681">
		<tag k="alt_name:no" v="Stolovatnet, nedre" />
		<tag k="loc_name:no" v="Stolovatnet" />
		<tag k="name" v="Nedre Stuollovatnet - Vuolep Stuollo" />
		<tag k="name:no" v="Nedre Stuollovatnet" />
		<tag k="name:smj" v="Vuolep Stuollo" />
		<tag k="natural" v="water" />
		<tag k="old_name:smj" v="Stuollu vuolit;Stuollo" />
		<tag k="ssr:stedsnr" v="78621" />
		<tag k="water" v="lake" />
	</node>
	<node id="-691354" lat="68.0680944471" lon="15.8289444448">
		<tag k="alt_name" v="Kallvågvatnet" />
		<tag k="name" v="Kaldvågvatnet" />
		<tag k="natural" v="water" />
		<tag k="ssr:stedsnr" v="927604" />
		<tag k="water" v="lake" />
	</node>
	<node id="-689305" lat="67.9565361077" lon="16.045780546">
		<tag k="name" v="Krokvatnet" />
		<tag k="natural" v="water" />
		<tag k="ssr:stedsnr" v="78611" />
	</node>
	<node id="-691351" lat="68.0049361089" lon="15.7846194315">
		<tag k="name" v="Karlsøyvatnet" />
		<tag k="natural" v="water" />
		<tag k="ssr:stedsnr" v="927555" />
		<tag k="water" v="lake" />
	</node>
	<node id="-689302" lat="68.0226972238" lon="15.7856638988">
		<tag k="alt_name" v="Mølnvatnet;Møllevatnet" />
		<tag k="name" v="Møllnvatnet" />
		<tag k="natural" v="water" />
		<tag k="ssr:stedsnr" v="78575" />
	</node>
	<node id="-689299" lat="67.8087555586" lon="16.0816694353">
		<tag k="name" v="Rekvatnet - Goajvojávrre" />
		<tag k="name:no" v="Rekvatnet" />
		<tag k="name:smj" v="Goajvojávrre" />
		<tag k="natural" v="water" />
		<tag k="old_name:smj" v="Goaivojávri" />
		<tag k="ssr:stedsnr" v="78481" />
		<tag k="water" v="lake" />
	</node>
	<node id="-689298" lat="67.8237944404" lon="16.0201944496">
		<tag k="alt_name" v="Rekvasstjørnane" />
		<tag k="name" v="Rekvasstjønnen" />
		<tag k="natural" v="water" />
		<tag k="ssr:stedsnr" v="78474" />
	</node>
	<node id="-691345" lat="67.8456499976" lon="16.0204000062">
		<tag k="name" v="Durmålselva" />
		<tag k="ssr:stedsnr" v="927455" />
		<tag k="waterway" v="stream" />
	</node>
	<node id="-691344" lat="67.851552782" lon="16.0176666585">
		<tag k="name" v="Rønnelva" />
		<tag k="ssr:stedsnr" v="927454" />
		<tag k="waterway" v="stream" />
	</node>
	<node id="-689295" lat="67.8708916632" lon="15.8977527724">
		<tag k="name" v="Nerstraumhalsen" />
		<tag k="natural" v="cape" />
		<tag k="ssr:stedsnr" v="78406" />
	</node>
	<node id="-691341" lat="67.8834361101" lon="15.86266945">
		<tag k="name" v="Bergodden" />
		<tag k="natural" v="cape" />
		<tag k="ssr:stedsnr" v="927440" />
	</node>
	<node id="-691340" lat="67.8672027756" lon="15.9018944363">
		<tag k="name" v="Nerstraumen" />
		<tag k="natural" v="strait" />
		<tag k="ssr:stedsnr" v="927431" />
	</node>
	<node id="-689291" lat="68.1294361108" lon="15.4878083275">
		<tag k="fixme" v="multiple name tags, choose one and add the other to alt_name" />
		<tag k="name" v="Forbergnesvatnet;Fårbærnesvatnet" />
		<tag k="natural" v="water" />
		<tag k="ssr:stedsnr" v="78119" />
	</node>
	<node id="-691336" lat="67.8209749975" lon="16.0422666708">
		<tag k="name" v="Langodden" />
		<tag k="natural" v="cape" />
		<tag k="ssr:stedsnr" v="927210" />
	</node>
	<node id="-689287" lat="68.0949638852" lon="15.390936099">
		<tag k="alt_name" v="Straumsvatnet" />
		<tag k="name" v="Straumvatnet" />
		<tag k="natural" v="water" />
		<tag k="ssr:stedsnr" v="78039" />
		<tag k="water" v="lake" />
	</node>
	<node id="-689286" lat="68.0966555597" lon="15.4948833354">
		<tag k="alt_name" v="Hamsumpelva" />
		<tag k="name" v="Hamsundelva" />
		<tag k="ssr:stedsnr" v="78033" />
		<tag k="waterway" v="stream" />
	</node>
	<node id="-689283" lat="68.1162583361" lon="15.5356805522">
		<tag k="name" v="Per Olsavatnet" />
		<tag k="natural" v="water" />
		<tag k="ssr:stedsnr" v="78011" />
	</node>
	<node id="-689282" lat="68.1190333355" lon="15.6628277891">
		<tag k="name" v="Brennvikvatnet" />
		<tag k="natural" v="water" />
		<tag k="ssr:stedsnr" v="78001" />
		<tag k="water" v="lake" />
	</node>
	<node id="-689281" lat="68.0745666627" lon="15.3918944512">
		<tag k="name" v="Skjellivatnet" />
		<tag k="natural" v="water" />
		<tag k="ssr:stedsnr" v="77987" />
	</node>
	<node id="-689279" lat="68.0395638866" lon="15.3819138951">
		<tag k="name" v="Mørkvatnet" />
		<tag k="natural" v="water" />
		<tag k="ssr:stedsnr" v="77906" />
	</node>
	<node id="-691323" lat="68.0929694404" lon="15.3806111156">
		<tag k="name" v="Vedvika" />
		<tag k="natural" v="bay" />
		<tag k="ssr:stedsnr" v="927045" />
	</node>
	<node id="-691319" lat="68.1192611146" lon="15.587144438">
		<tag k="name" v="Dikmyrtjørna" />
		<tag k="natural" v="water" />
		<tag k="ssr:stedsnr" v="927013" />
	</node>
	<node id="-691390" lat="68.1877833296" lon="15.9656500073">
		<tag k="name" v="Saulivatnet" />
		<tag k="natural" v="water" />
		<tag k="ssr:stedsnr" v="927784" />
	</node>
	<node id="-691311" lat="68.0049666668" lon="15.997019441">
		<tag k="name" v="Litltjønna" />
		<tag k="natural" v="water" />
		<tag k="ssr:stedsnr" v="899710" />
	</node>
	<node id="-691310" lat="68.0042333318" lon="16.0104416591">
		<tag k="name" v="Hillingspolltjønna" />
		<tag k="natural" v="water" />
		<tag k="ssr:stedsnr" v="899707" />
	</node>
	<node id="-691309" lat="68.2033861091" lon="15.9681388825">
		<tag k="name" v="Vasslielva" />
		<tag k="ssr:stedsnr" v="871634" />
		<tag k="waterway" v="stream" />
	</node>
	<node id="-689259" lat="67.8897611106" lon="15.8071472211">
		<tag k="alt_name" v="Raudhellvatnet" />
		<tag k="name" v="Rødhellvatnet" />
		<tag k="natural" v="water" />
		<tag k="ssr:stedsnr" v="77402" />
	</node>
	<node id="-689258" lat="67.9011388877" lon="15.8599833207">
		<tag k="name" v="Sagelva" />
		<tag k="ssr:stedsnr" v="77394" />
		<tag k="waterway" v="stream" />
	</node>
	<node id="-689257" lat="67.7714527821" lon="15.9895527815">
		<tag k="name" v="Sjuendvasselva" />
		<tag k="ssr:stedsnr" v="77262" />
		<tag k="waterway" v="river" />
	</node>
	<node id="-689256" lat="67.7560999983" lon="16.0243138898">
		<tag k="alt_name" v="Fiskgrunnen" />
		<tag k="name" v="Feskgrunnen" />
		<tag k="natural" v="shoal" />
		<tag k="place" v="locality" />
		<tag k="ssr:stedsnr" v="77254" />
	</node>
	<node id="-691300" lat="68.1132999983" lon="15.8738166577">
		<tag k="name" v="Krokelva" />
		<tag k="ssr:stedsnr" v="867688" />
		<tag k="waterway" v="stream" />
	</node>
	<node id="-691296" lat="68.1187999967" lon="16.0240555536">
		<tag k="name" v="Kvannkjosen" />
		<tag k="natural" v="bay" />
		<tag k="ssr:stedsnr" v="867667" />
	</node>
	<node id="-691295" lat="67.9584472198" lon="15.743277779">
		<tag k="name" v="Steinnesvatnet" />
		<tag k="natural" v="water" />
		<tag k="ssr:stedsnr" v="867665" />
	</node>
	<node id="-689246" lat="68.1440694435" lon="15.4510166666">
		<tag k="name" v="Kommelelva" />
		<tag k="ssr:stedsnr" v="49917" />
		<tag k="waterway" v="stream" />
	</node>
	<node id="-691290" lat="67.9594361088" lon="15.9774999949">
		<tag k="name" v="Storvasselva" />
		<tag k="ssr:stedsnr" v="867217" />
		<tag k="waterway" v="river" />
	</node>
	<node id="-691287" lat="68.1102694404" lon="15.6021444374">
		<tag k="name" v="Kulpollen" />
		<tag k="natural" v="bay" />
		<tag k="ssr:stedsnr" v="867034" />
	</node>
	<node id="-691285" lat="68.1154999973" lon="15.5524388843">
		<tag k="name" v="Hølkesvatnet" />
		<tag k="natural" v="water" />
		<tag k="ssr:stedsnr" v="867013" />
	</node>
	<node id="-691283" lat="68.0869583363" lon="15.6159972162">
		<tag k="name" v="Oppeidvatnet" />
		<tag k="natural" v="water" />
		<tag k="ssr:stedsnr" v="866992" />
	</node>
	<node id="-691281" lat="68.0761138908" lon="15.4943333271">
		<tag k="name" v="Mølnhaugelva" />
		<tag k="ssr:stedsnr" v="866982" />
		<tag k="waterway" v="stream" />
	</node>
	<node id="-689229" lat="68.1356499958" lon="15.701058342">
		<tag k="name" v="Steinelva" />
		<tag k="ssr:stedsnr" v="49609" />
		<tag k="waterway" v="stream" />
	</node>
	<node id="-689224" lat="68.0951388911" lon="15.8999333302">
		<tag k="name" v="Jakobtjønna" />
		<tag k="natural" v="water" />
		<tag k="ssr:stedsnr" v="49443" />
	</node>
	<node id="-691266" lat="68.1555999996" lon="15.9793027786">
		<tag k="name" v="Trollvatnet" />
		<tag k="natural" v="water" />
		<tag k="ssr:stedsnr" v="866702" />
	</node>
	<node id="-691265" lat="68.1340555554" lon="15.8163166681">
		<tag k="name" v="Hundosvatnet" />
		<tag k="natural" v="water" />
		<tag k="ssr:stedsnr" v="866674" />
	</node>
	<node id="-691261" lat="68.0798972184" lon="15.929308339">
		<tag k="alt_name" v="Figentjørna" />
		<tag k="name" v="Figentjønna" />
		<tag k="natural" v="water" />
		<tag k="ssr:stedsnr" v="866634" />
	</node>
	<node id="-689211" lat="67.8306888905" lon="15.9788694546">
		<tag k="name" v="Storholmen" />
		<tag k="place" v="islet" />
		<tag k="ssr:stedsnr" v="49309" />
	</node>
	<node id="-691258" lat="68.0818527777" lon="15.6636666713">
		<tag k="name" v="Bleielva" />
		<tag k="ssr:stedsnr" v="866614" />
		<tag k="waterway" v="stream" />
	</node>
	<node id="-691257" lat="67.6493111114" lon="16.5010777787">
		<tag k="name" v="Sávtsasjávrre" />
		<tag k="name:smj" v="Sávtsasjávrre" />
		<tag k="natural" v="water" />
		<tag k="old_name:smj" v="Sávzzasjávrrit" />
		<tag k="ssr:stedsnr" v="866612" />
	</node>
	<node id="-689208" lat="67.8540388897" lon="15.9578055492">
		<tag k="name" v="Neroddan" />
		<tag k="natural" v="cape" />
		<tag k="ssr:stedsnr" v="49289" />
	</node>
	<node id="-691255" lat="67.6187750044" lon="16.3815361058">
		<tag k="name" v="Boartejávrre" />
		<tag k="name:smj" v="Boartejávrre" />
		<tag k="natural" v="water" />
		<tag k="old_name:smj" v="Boartajávri" />
		<tag k="ssr:stedsnr" v="866606" />
	</node>
	<node id="-689206" lat="68.0596861075" lon="15.9494000043">
		<tag k="name" v="Langodden" />
		<tag k="natural" v="cape" />
		<tag k="ssr:stedsnr" v="49278" />
	</node>
	<node id="-691253" lat="68.0580972201" lon="15.7070055531">
		<tag k="name" v="Tuvvatnet" />
		<tag k="natural" v="water" />
		<tag k="ssr:stedsnr" v="866587" />
	</node>
	<node id="-689204" lat="67.8570111126" lon="16.0075749943">
		<tag k="name" v="Løelva" />
		<tag k="ssr:stedsnr" v="49270" />
		<tag k="waterway" v="stream" />
	</node>
	<node id="-689200" lat="68.0316250016" lon="15.3613972125">
		<tag k="name" v="Storholmen" />
		<tag k="place" v="islet" />
		<tag k="ssr:stedsnr" v="49220" />
	</node>
	<node id="-691244" lat="67.8798527765" lon="15.8419305607">
		<tag k="fixme" v="multiple name tags, choose one and add the other to alt_name" />
		<tag k="name" v="Bukta;Storbukta" />
		<tag k="natural" v="bay" />
		<tag k="ssr:stedsnr" v="866382" />
	</node>
	<node id="-689191" lat="68.0180499983" lon="15.6253638824">
		<tag k="name" v="Fekovvasselva" />
		<tag k="ssr:stedsnr" v="49045" />
		<tag k="waterway" v="stream" />
	</node>
	<node id="-691238" lat="67.754074999" lon="16.1232472175">
		<tag k="name" v="Ájajåhkå" />
		<tag k="name:smj" v="Ájajåhkå" />
		<tag k="old_name:smj" v="Ájajohka" />
		<tag k="ssr:stedsnr" v="866226" />
		<tag k="waterway" v="river" />
	</node>
	<node id="-691235" lat="68.136972226" lon="15.604086101">
		<tag k="alt_name" v="Røssnesvatnet" />
		<tag k="name" v="Røsnesvatnet" />
		<tag k="natural" v="water" />
		<tag k="ssr:stedsnr" v="866085" />
		<tag k="water" v="lake" />
	</node>
	<node id="-691234" lat="68.1372444485" lon="15.4991833238">
		<tag k="name" v="Mosevatnet" />
		<tag k="natural" v="water" />
		<tag k="ssr:stedsnr" v="866074" />
	</node>
	<node id="-689180" lat="67.910691667" lon="15.7569111147">
		<tag k="name" v="Forsanvassboten" />
		<tag k="natural" v="bay" />
		<tag k="ssr:stedsnr" v="48857" />
	</node>
	<node id="-689177" lat="67.760897224" lon="16.033061101">
		<tag k="name" v="Nerholmen" />
		<tag k="place" v="islet" />
		<tag k="ssr:stedsnr" v="48806" />
	</node>
	<node id="-691223" lat="67.9115888914" lon="15.8776500033">
		<tag k="name" v="Kjerringvasstjønna" />
		<tag k="natural" v="water" />
		<tag k="ssr:stedsnr" v="838984" />
	</node>
	<node id="-688985" lat="68.0854583296" lon="15.7043638881">
		<tag k="name" v="Hamneelva" />
		<tag k="ssr:stedsnr" v="898076" />
		<tag k="waterway" v="stream" />
	</node>
	<node id="-691218" lat="67.7832805601" lon="15.9689833284">
		<tag k="name" v="Sjettvassanden" />
		<tag k="natural" v="beach" />
		<tag k="ssr:stedsnr" v="838892" />
	</node>
	<node id="-691216" lat="67.7718694464" lon="15.993988897">
		<tag k="name" v="Sjuendevasseidet" />
		<tag k="natural" v="strait" />
		<tag k="ssr:stedsnr" v="838841" />
	</node>
	<node id="-691061" lat="67.876580554" lon="15.8848083235">
		<tag k="name" v="Slåttvika" />
		<tag k="natural" v="bay" />
		<tag k="ssr:stedsnr" v="806399" />
	</node>
	<node id="-691210" lat="68.0083638919" lon="15.8639527864">
		<tag k="name" v="Olavvatnet" />
		<tag k="natural" v="water" />
		<tag k="ssr:stedsnr" v="838756" />
	</node>
	<node id="-688983" lat="68.0226277803" lon="15.4112611079">
		<tag k="name" v="Maristats" />
		<tag k="natural" v="water" />
		<tag k="ssr:stedsnr" v="898070" />
	</node>
	<node id="-691205" lat="68.1445250045" lon="15.9713472193">
		<tag k="name" v="Kjostjønna" />
		<tag k="natural" v="water" />
		<tag k="ssr:stedsnr" v="838716" />
	</node>
	<node id="-691203" lat="68.0075416686" lon="15.6000027812">
		<tag k="name" v="Stielva" />
		<tag k="ssr:stedsnr" v="838697" />
		<tag k="waterway" v="stream" />
	</node>
	<node id="-689149" lat="68.062288892" lon="15.6117444483">
		<tag k="name" v="Litlvatnet" />
		<tag k="natural" v="water" />
		<tag k="ssr:stedsnr" v="17961" />
	</node>
	<node id="-689148" lat="68.0581222199" lon="15.4723166657">
		<tag k="name" v="Haukåselva" />
		<tag k="ssr:stedsnr" v="17957" />
		<tag k="waterway" v="stream" />
	</node>
	<node id="-689147" lat="68.0366305538" lon="15.3631972152">
		<tag k="name" v="Digerneset" />
		<tag k="natural" v="cape" />
		<tag k="ssr:stedsnr" v="17933" />
	</node>
	<node id="-691194" lat="67.7993194454" lon="15.9668361206">
		<tag k="name" v="Dammen" />
		<tag k="place" v="locality" />
		<tag k="ssr:stedsnr" v="838558" />
	</node>
	<node id="-691193" lat="67.8126194482" lon="15.9961305568">
		<tag k="name" v="Oddbekken" />
		<tag k="ssr:stedsnr" v="838555" />
		<tag k="waterway" v="stream" />
	</node>
	<node id="-691192" lat="67.802436114" lon="15.9835972223">
		<tag k="name" v="Myrbekken" />
		<tag k="ssr:stedsnr" v="838548" />
		<tag k="waterway" v="stream" />
	</node>
	<node id="-691191" lat="67.8093638869" lon="15.993147221">
		<tag k="name" v="Bikkjebekken" />
		<tag k="ssr:stedsnr" v="838541" />
		<tag k="waterway" v="stream" />
	</node>
	<node id="-691185" lat="68.1217166709" lon="15.6631194395">
		<tag k="name" v="Krokholmen" />
		<tag k="place" v="islet" />
		<tag k="ssr:stedsnr" v="838465" />
	</node>
	<node id="-691180" lat="68.0788888858" lon="15.9013472155">
		<tag k="name" v="Laksvikodden" />
		<tag k="natural" v="cape" />
		<tag k="ssr:stedsnr" v="838378" />
	</node>
	<node id="-691175" lat="67.8274166707" lon="15.9721833426">
		<tag k="name" v="Gammelskjåodden" />
		<tag k="natural" v="cape" />
		<tag k="ssr:stedsnr" v="838303" />
	</node>
	<node id="-691174" lat="68.0683333348" lon="15.7194416581">
		<tag k="name" v="Småtjønnan" />
		<tag k="natural" v="water" />
		<tag k="ssr:stedsnr" v="838286" />
	</node>
	<node id="-691173" lat="67.8248722254" lon="15.9570694507">
		<tag k="name" v="Krokelva" />
		<tag k="ssr:stedsnr" v="838279" />
		<tag k="waterway" v="river" />
	</node>
	<node id="-691172" lat="67.8525611064" lon="15.9559555649">
		<tag k="name" v="Jordbruelva" />
		<tag k="ssr:stedsnr" v="838274" />
		<tag k="waterway" v="stream" />
	</node>
	<node id="-689122" lat="67.6995611143" lon="16.1650194434">
		<tag k="name" v="Stillelva" />
		<tag k="ssr:stedsnr" v="17744" />
		<tag k="waterway" v="river" />
	</node>
	<node id="-689121" lat="68.1350138872" lon="15.6841083227">
		<tag k="name" v="Storvatnet" />
		<tag k="natural" v="water" />
		<tag k="ssr:stedsnr" v="17736" />
	</node>
	<node id="-691168" lat="67.842808334" lon="15.9859666612">
		<tag k="name" v="Roparnesodden" />
		<tag k="natural" v="cape" />
		<tag k="ssr:stedsnr" v="838259" />
	</node>
	<node id="-691166" lat="67.8588194481" lon="15.8884472236">
		<tag k="name" v="Sørbukta" />
		<tag k="natural" v="bay" />
		<tag k="ssr:stedsnr" v="838238" />
	</node>
	<node id="-689115" lat="67.6821805558" lon="16.4167500048">
		<tag k="name" v="Reinoksvatnet - Hierggejávrre" />
		<tag k="name:no" v="Reinoksvatnet" />
		<tag k="name:smj" v="Hierggejávrre" />
		<tag k="natural" v="water" />
		<tag k="old_name:smj" v="Heargejávri" />
		<tag k="ssr:stedsnr" v="17661" />
		<tag k="water" v="lake" />
	</node>
	<node id="-689114" lat="67.9332083343" lon="15.9211583328">
		<tag k="name" v="Djupvatnet" />
		<tag k="natural" v="water" />
		<tag k="ssr:stedsnr" v="17660" />
	</node>
	<node id="-689108" lat="68.068538886" lon="15.8860361">
		<tag k="name" v="Smørvika" />
		<tag k="natural" v="bay" />
		<tag k="ssr:stedsnr" v="17608" />
	</node>
	<node id="-691151" lat="68.0208416641" lon="15.6350972322">
		<tag k="name" v="Storskogelva" />
		<tag k="ssr:stedsnr" v="838052" />
		<tag k="waterway" v="stream" />
	</node>
	<node id="-691149" lat="68.0156916671" lon="15.6266638819">
		<tag k="name" v="Fekovvatnet" />
		<tag k="natural" v="water" />
		<tag k="ssr:stedsnr" v="838045" />
	</node>
	<node id="-691147" lat="68.0179027762" lon="15.5421027769">
		<tag k="name" v="Skagkrikla" />
		<tag k="ssr:stedsnr" v="838032" />
		<tag k="waterway" v="stream" />
	</node>
	<node id="-689098" lat="67.757766668" lon="16.0598388967">
		<tag k="name" v="Slunkaelva - Sluŋkájåhkå" />
		<tag k="name:no" v="Slunkaelva" />
		<tag k="name:smj" v="Sluŋkájåhkå" />
		<tag k="old_name:smj" v="Šluŋkkajohka" />
		<tag k="ssr:stedsnr" v="17294" />
		<tag k="waterway" v="river" />
	</node>
	<node id="-691143" lat="68.016288886" lon="15.7967138941">
		<tag k="name" v="Djupdalselva" />
		<tag k="ssr:stedsnr" v="838002" />
		<tag k="waterway" v="stream" />
	</node>
	<node id="-689092" lat="68.1218972216" lon="15.4849749963">
		<tag k="name" v="Åslivatnet" />
		<tag k="natural" v="water" />
		<tag k="ssr:stedsnr" v="17012" />
	</node>
	<node id="-689090" lat="67.7406611078" lon="16.2778861111">
		<tag k="name" v="Livsejávrre" />
		<tag k="name:smj" v="Livsejávrre" />
		<tag k="natural" v="water" />
		<tag k="old_name:smj" v="Livssejávri" />
		<tag k="ssr:stedsnr" v="16613" />
		<tag k="water" v="lake" />
	</node>
	<node id="-689089" lat="67.7766861119" lon="15.9804555445">
		<tag k="name" v="Sjettvatnet - Gudátjávrre" />
		<tag k="name:no" v="Sjettvatnet" />
		<tag k="name:smj" v="Gudátjávrre" />
		<tag k="natural" v="water" />
		<tag k="old_name:smj" v="Gudatjávri" />
		<tag k="ssr:stedsnr" v="16223" />
		<tag k="water" v="lake" />
	</node>
	<node id="-691135" lat="68.1220111118" lon="15.6458638863">
		<tag k="name" v="Forrbarneset" />
		<tag k="natural" v="cape" />
		<tag k="ssr:stedsnr" v="837524" />
	</node>
	<node id="-691125" lat="67.8713638887" lon="15.8491444456">
		<tag k="name" v="Græsholmen" />
		<tag k="place" v="islet" />
		<tag k="ssr:stedsnr" v="837077" />
	</node>
	<node id="-691124" lat="67.86926389" lon="15.8866444544">
		<tag k="name" v="Nerstraumen" />
		<tag k="natural" v="strait" />
		<tag k="ssr:stedsnr" v="837075" />
	</node>
	<node id="-691123" lat="67.86435" lon="15.9268694456">
		<tag k="name" v="Stranda" />
		<tag k="natural" v="beach" />
		<tag k="ssr:stedsnr" v="837068" />
	</node>
	<node id="-691122" lat="67.8896472184" lon="15.84054721">
		<tag k="name" v="Falkforrelva" />
		<tag k="ssr:stedsnr" v="837026" />
		<tag k="waterway" v="stream" />
	</node>
	<node id="-689070" lat="67.7724777795" lon="16.005097215">
		<tag k="name" v="Jonasbekken" />
		<tag k="ssr:stedsnr" v="413826" />
		<tag k="waterway" v="stream" />
	</node>
	<node id="-691109" lat="68.0683583346" lon="15.5955777817">
		<tag k="alt_name" v="Digerelva" />
		<tag k="name" v="Digerelv" />
		<tag k="ssr:stedsnr" v="806954" />
		<tag k="waterway" v="stream" />
	</node>
	<node id="-691106" lat="68.0404083289" lon="15.326980564">
		<tag k="alt_name" v="Kvanndalsvatnet, øvre" />
		<tag k="fixme" v="multiple name tags, choose one and add the other to alt_name" />
		<tag k="name" v="Øvre Kvanndalsvatnet;Øvstvatnet" />
		<tag k="natural" v="water" />
		<tag k="ssr:stedsnr" v="806927" />
	</node>
	<node id="-691103" lat="67.9994583304" lon="15.6657166579">
		<tag k="fixme" v="multiple name tags, choose one and add the other to alt_name" />
		<tag k="name" v="Håkonhalsvatnet;Møllnvatnet" />
		<tag k="natural" v="water" />
		<tag k="ssr:stedsnr" v="806912" />
	</node>
	<node id="-691101" lat="67.9993805564" lon="15.6501222105">
		<tag k="name" v="Mølnvatnet" />
		<tag k="natural" v="water" />
		<tag k="ssr:stedsnr" v="806911" />
	</node>
	<node id="-689306" lat="67.9439861085" lon="15.9304416635">
		<tag k="name" v="Steinbakkelva" />
		<tag k="ssr:stedsnr" v="78612" />
		<tag k="waterway" v="stream" />
	</node>
	<node id="-691097" lat="68.1999638858" lon="15.9537555512">
		<tag k="name" v="Storelva" />
		<tag k="ssr:stedsnr" v="806824" />
		<tag k="waterway" v="stream" />
	</node>
	<node id="-691094" lat="68.1702916704" lon="15.7699805449">
		<tag k="name" v="Langosen" />
		<tag k="natural" v="bay" />
		<tag k="ssr:stedsnr" v="806791" />
	</node>
	<node id="-688622" lat="68.0687194455" lon="15.4256500044">
		<tag k="name" v="Øvstvatnet" />
		<tag k="natural" v="water" />
		<tag k="ssr:stedsnr" v="320962" />
	</node>
	<node id="-691089" lat="68.1373694416" lon="15.8167972283">
		<tag k="name" v="Langosen" />
		<tag k="natural" v="bay" />
		<tag k="ssr:stedsnr" v="806712" />
	</node>
	<node id="-689037" lat="68.1493444467" lon="15.9920222327">
		<tag k="name" v="Kjosbotn" />
		<tag k="natural" v="bay" />
		<tag k="ssr:stedsnr" v="898695" />
	</node>
	<node id="-688914" lat="68.0697944487" lon="15.4689583266">
		<tag k="name" v="Bremmerelva" />
		<tag k="ssr:stedsnr" v="473346" />
		<tag k="waterway" v="stream" />
	</node>
	<node id="-689303" lat="68.0608083317" lon="15.6682694501">
		<tag k="name" v="Tuvelva" />
		<tag k="ssr:stedsnr" v="78583" />
		<tag k="waterway" v="stream" />
	</node>
	<node id="-691079" lat="67.9415277741" lon="15.8018277876">
		<tag k="name" v="Sølvelva" />
		<tag k="ssr:stedsnr" v="806632" />
		<tag k="waterway" v="stream" />
	</node>
	<node id="-689024" lat="68.1231277793" lon="15.4755277667">
		<tag k="name" v="Mjåsundet" />
		<tag k="natural" v="bay" />
		<tag k="ssr:stedsnr" v="898500" />
	</node>
	<node id="-689018" lat="68.1359805532" lon="15.9505444391">
		<tag k="name" v="Langåstjønna" />
		<tag k="natural" v="water" />
		<tag k="ssr:stedsnr" v="898458" />
	</node>
	<node id="-691064" lat="67.8503638886" lon="15.9120722301">
		<tag k="name" v="Rapelva" />
		<tag k="ssr:stedsnr" v="806421" />
		<tag k="waterway" v="stream" />
	</node>
	<node id="-689013" lat="68.0800916655" lon="15.8985361191">
		<tag k="name" v="Langbergan" />
		<tag k="natural" v="cape" />
		<tag k="ssr:stedsnr" v="898336" />
	</node>
	<node id="-691059" lat="67.8906555582" lon="15.970458335">
		<tag k="name" v="Bjørnvatnet" />
		<tag k="natural" v="water" />
		<tag k="ssr:stedsnr" v="806376" />
	</node>
	<node id="-689006" lat="68.0618583339" lon="15.7712749926">
		<tag k="name" v="Grunnvågelva" />
		<tag k="ssr:stedsnr" v="898257" />
		<tag k="waterway" v="stream" />
	</node>
	<node id="-691053" lat="68.1386805572" lon="15.4990833256">
		<tag k="name" v="Mølnvatnet" />
		<tag k="natural" v="water" />
		<tag k="ssr:stedsnr" v="806099" />
	</node>
	<node id="-689001" lat="67.8396666669" lon="15.9837666694">
		<tag k="name" v="Fjerdvasseidet" />
		<tag k="natural" v="strait" />
		<tag k="ssr:stedsnr" v="898219" />
	</node>
	<node id="-689000" lat="67.8433361144" lon="16.0138388962">
		<tag k="name" v="Hammarelva" />
		<tag k="ssr:stedsnr" v="898216" />
		<tag k="waterway" v="stream" />
	</node>
	<node id="-688997" lat="68.0808999958" lon="15.498994445">
		<tag k="name" v="Nordelva" />
		<tag k="ssr:stedsnr" v="898201" />
		<tag k="waterway" v="stream" />
	</node>
	<node id="-688992" lat="68.0334694426" lon="15.3522222209">
		<tag k="name" v="Vasshågen" />
		<tag k="natural" v="cape" />
		<tag k="ssr:stedsnr" v="898174" />
	</node>
	<node id="-691033" lat="68.0812638932" lon="15.9406499963">
		<tag k="alt_name" v="Langtjørna" />
		<tag k="name" v="Langtjønna" />
		<tag k="natural" v="water" />
		<tag k="ssr:stedsnr" v="805640" />
	</node>
	<node id="-691031" lat="68.0929277775" lon="15.8771444473">
		<tag k="alt_name" v="Jenstjørna" />
		<tag k="name" v="Jenstjønna" />
		<tag k="natural" v="water" />
		<tag k="ssr:stedsnr" v="805630" />
	</node>
	<node id="-691021" lat="68.0947527778" lon="15.5786638954">
		<tag k="name" v="Lomtjørna" />
		<tag k="natural" v="water" />
		<tag k="ssr:stedsnr" v="805043" />
	</node>
	<node id="-689292" lat="67.764580553" lon="16.0373277823">
		<tag k="name" v="Slåttelva" />
		<tag k="ssr:stedsnr" v="78216" />
		<tag k="waterway" v="stream" />
	</node>
	<node id="-691000" lat="67.9887000016" lon="15.6150833435">
		<tag k="name" v="Heilågelva" />
		<tag k="ssr:stedsnr" v="777661" />
		<tag k="waterway" v="stream" />
	</node>
	<node id="-688950" lat="67.787802782" lon="15.9597555448">
		<tag k="name" v="Femtvasstjønna" />
		<tag k="natural" v="water" />
		<tag k="ssr:stedsnr" v="473881" />
	</node>
	<node id="-688949" lat="67.7692166684" lon="15.9892833325">
		<tag k="name" v="Sjuendevasselva" />
		<tag k="ssr:stedsnr" v="473830" />
		<tag k="waterway" v="stream" />
	</node>
	<node id="-690994" lat="68.0245944445" lon="15.9649416754">
		<tag k="name" v="Revet" />
		<tag k="natural" v="cape" />
		<tag k="ssr:stedsnr" v="777623" />
	</node>
	<node id="-690987" lat="68.13269167" lon="16.0096527839">
		<tag k="name" v="Huskestuodden" />
		<tag k="natural" v="cape" />
		<tag k="ssr:stedsnr" v="777461" />
	</node>
	<node id="-690986" lat="68.1300916682" lon="16.0013833323">
		<tag k="name" v="Innersanden" />
		<tag k="natural" v="beach" />
		<tag k="ssr:stedsnr" v="777459" />
	</node>
	<node id="-691335" lat="67.8227555538" lon="15.9676444382">
		<tag k="name" v="Storbukta" />
		<tag k="natural" v="bay" />
		<tag k="ssr:stedsnr" v="927202" />
	</node>
	<node id="-690984" lat="68.1262333295" lon="16.0143944395">
		<tag k="name" v="Kjeldodden" />
		<tag k="natural" v="cape" />
		<tag k="ssr:stedsnr" v="777453" />
	</node>
	<node id="-691334" lat="67.9664749991" lon="15.9775805588">
		<tag k="name" v="Sagelva" />
		<tag k="ssr:stedsnr" v="927197" />
		<tag k="waterway" v="river" />
	</node>
	<node id="-690970" lat="68.0384499966" lon="15.3700722329">
		<tag k="name" v="Hellodden" />
		<tag k="natural" v="cape" />
		<tag k="ssr:stedsnr" v="777194" />
	</node>
	<node id="-688921" lat="68.1305250042" lon="16.006872227">
		<tag k="name" v="Kilnesodden" />
		<tag k="natural" v="cape" />
		<tag k="ssr:stedsnr" v="473473" />
	</node>
	<node id="-690968" lat="68.0338777817" lon="15.3556416754">
		<tag k="name" v="Soløya" />
		<tag k="place" v="islet" />
		<tag k="ssr:stedsnr" v="777184" />
	</node>
	<node id="-690967" lat="68.0329416663" lon="15.368974995">
		<tag k="name" v="Rognholmen" />
		<tag k="place" v="islet" />
		<tag k="ssr:stedsnr" v="777181" />
	</node>
	<node id="-690965" lat="67.8543416708" lon="15.9483833226">
		<tag k="name" v="Eggneset" />
		<tag k="natural" v="cape" />
		<tag k="ssr:stedsnr" v="777172" />
	</node>
	<node id="-688915" lat="68.0691055508" lon="15.4109000083">
		<tag k="name" v="Småvatnan" />
		<tag k="natural" v="water" />
		<tag k="ssr:stedsnr" v="473391" />
	</node>
	<node id="-690962" lat="68.0225833368" lon="15.3237361122">
		<tag k="name" v="Vannbassenget" />
		<tag k="natural" v="water" />
		<tag k="ssr:stedsnr" v="777110" />
	</node>
	<node id="-690961" lat="68.0798111144" lon="15.688430545">
		<tag k="name" v="Elvkrokan" />
		<tag k="ssr:stedsnr" v="777086" />
		<tag k="waterway" v="stream" />
	</node>
	<node id="-688908" lat="68.0646722193" lon="15.6991472212">
		<tag k="name" v="Olsbuvatnet" />
		<tag k="natural" v="water" />
		<tag k="ssr:stedsnr" v="473263" />
		<tag k="water" v="lake" />
	</node>
	<node id="-690954" lat="68.0112694452" lon="15.633580562">
		<tag k="name" v="Vannskjelltjønna" />
		<tag k="natural" v="water" />
		<tag k="ssr:stedsnr" v="777026" />
	</node>
	<node id="-690952" lat="68.0248944442" lon="15.7656166557">
		<tag k="name" v="Møllnelva" />
		<tag k="ssr:stedsnr" v="777013" />
		<tag k="waterway" v="river" />
	</node>
	<node id="-690951" lat="68.0219972261" lon="15.6683805574">
		<tag k="name" v="Vettvatntjønna" />
		<tag k="natural" v="water" />
		<tag k="ssr:stedsnr" v="777010" />
	</node>
	<node id="-688901" lat="67.8524361068" lon="15.795619442">
		<tag k="name" v="Snyholelva" />
		<tag k="ssr:stedsnr" v="473222" />
		<tag k="waterway" v="stream" />
	</node>
	<node id="-688900" lat="67.8587416671" lon="15.9168083339">
		<tag k="name" v="Strindnes" />
		<tag k="natural" v="cape" />
		<tag k="ssr:stedsnr" v="473206" />
	</node>
	<node id="-690946" lat="68.1231833362" lon="15.6408722324">
		<tag k="name" v="Langneset" />
		<tag k="natural" v="cape" />
		<tag k="ssr:stedsnr" v="776498" />
	</node>
	<node id="-690936" lat="67.8623638851" lon="15.8260361032">
		<tag k="name" v="Langtjønnelva" />
		<tag k="ssr:stedsnr" v="776085" />
		<tag k="waterway" v="stream" />
	</node>
	<node id="-690935" lat="67.8663833302" lon="15.9235027671">
		<tag k="name" v="Forrnesbukta" />
		<tag k="natural" v="bay" />
		<tag k="ssr:stedsnr" v="776069" />
	</node>
	<node id="-688881" lat="68.1227500035" lon="15.6607305556">
		<tag k="name" v="Litlholmen" />
		<tag k="place" v="islet" />
		<tag k="ssr:stedsnr" v="413456" />
	</node>
	<node id="-688875" lat="68.0769277808" lon="15.9104527832">
		<tag k="name" v="Flåttvika" />
		<tag k="natural" v="bay" />
		<tag k="ssr:stedsnr" v="413372" />
	</node>
	<node id="-690922" lat="68.0721555589" lon="15.4979138953">
		<tag k="name" v="Lilandsvatnet" />
		<tag k="natural" v="water" />
		<tag k="ssr:stedsnr" v="745975" />
		<tag k="water" v="lake" />
	</node>
	<node id="-688865" lat="67.8478972257" lon="15.9673888795">
		<tag k="name" v="Innerelva" />
		<tag k="ssr:stedsnr" v="413268" />
		<tag k="waterway" v="stream" />
	</node>
	<node id="-688863" lat="67.8434388924" lon="15.9835750104">
		<tag k="name" v="Roparnesbukta" />
		<tag k="natural" v="bay" />
		<tag k="ssr:stedsnr" v="413248" />
	</node>
	<node id="-690907" lat="68.0175388922" lon="15.6113888881">
		<tag k="alt_name" v="Grønåsvatnan" />
		<tag k="name" v="Grønåsvatnene" />
		<tag k="natural" v="water" />
		<tag k="ssr:stedsnr" v="745901" />
	</node>
	<node id="-688856" lat="67.8451277781" lon="15.8065333445">
		<tag k="name" v="Litlrundtjønna" />
		<tag k="natural" v="water" />
		<tag k="ssr:stedsnr" v="413224" />
	</node>
	<node id="-688854" lat="68.0334583355" lon="15.3637916644">
		<tag k="name" v="Brattholmen" />
		<tag k="place" v="islet" />
		<tag k="ssr:stedsnr" v="413212" />
	</node>
	<node id="-690896" lat="68.1584638889" lon="15.7932555542">
		<tag k="name" v="Mølnosen" />
		<tag k="natural" v="bay" />
		<tag k="ssr:stedsnr" v="745802" />
	</node>
	<node id="-690891" lat="68.1584749989" lon="15.6810360997">
		<tag k="name" v="Sommerselvatnet" />
		<tag k="natural" v="water" />
		<tag k="ssr:stedsnr" v="745775" />
	</node>
	<node id="-688840" lat="67.9940166662" lon="15.5230249953">
		<tag k="name" v="Dønshågvatnet" />
		<tag k="natural" v="water" />
		<tag k="ssr:stedsnr" v="412635" />
		<tag k="water" v="lake" />
	</node>
	<node id="-688834" lat="68.1122833333" lon="15.492124988">
		<tag k="name" v="Egerdalselva" />
		<tag k="ssr:stedsnr" v="412415" />
		<tag k="waterway" v="stream" />
	</node>
	<node id="-690880" lat="68.0676138892" lon="15.6229916593">
		<tag k="name" v="Skjelosen" />
		<tag k="natural" v="bay" />
		<tag k="ssr:stedsnr" v="745648" />
	</node>
	<node id="-688829" lat="67.8939444448" lon="15.8579916549">
		<tag k="name" v="Klubben" />
		<tag k="natural" v="cape" />
		<tag k="ssr:stedsnr" v="412025" />
	</node>
	<node id="-688827" lat="67.5553916704" lon="16.387094452">
		<tag k="name" v="Niennajávrre" />
		<tag k="name:smj" v="Niennajávrre" />
		<tag k="natural" v="water" />
		<tag k="ssr:stedsnr" v="402820" />
		<tag k="water" v="lake" />
	</node>
	<node id="-690870" lat="68.0644166649" lon="15.928413876">
		<tag k="fixme" v="multiple name tags, choose one and add the other to alt_name" />
		<tag k="name" v="Mellomelva;Mellomvasselva" />
		<tag k="ssr:stedsnr" v="745589" />
		<tag k="waterway" v="stream" />
	</node>
	<node id="-690867" lat="68.0319305598" lon="15.9740194467">
		<tag k="name" v="Kvannelva" />
		<tag k="ssr:stedsnr" v="745554" />
		<tag k="waterway" v="river" />
	</node>
	<node id="-689267" lat="68.0872250001" lon="15.7477472115">
		<tag k="name" v="Pollelva" />
		<tag k="ssr:stedsnr" v="77643" />
		<tag k="waterway" v="stream" />
	</node>
	<node id="-690862" lat="67.6682499994" lon="16.1699583258">
		<tag k="name" v="Jårbbåjávrre" />
		<tag k="name:smj" v="Jårbbåjávrre" />
		<tag k="natural" v="water" />
		<tag k="old_name:smj" v="Jorbajávri" />
		<tag k="ssr:stedsnr" v="745489" />
		<tag k="water" v="lake" />
	</node>
	<node id="-690859" lat="67.7986861087" lon="16.1058916662">
		<tag k="name" v="Steffenelva" />
		<tag k="ssr:stedsnr" v="745310" />
		<tag k="waterway" v="stream" />
	</node>
	<node id="-688802" lat="67.6048361158" lon="16.2643972197">
		<tag k="name" v="Forsvatnet - Gårttjejávrre" />
		<tag k="name:no" v="Forsvatnet" />
		<tag k="name:smj" v="Gårttjejávrre" />
		<tag k="natural" v="water" />
		<tag k="old_name:smj" v="Goržejávri" />
		<tag k="ssr:stedsnr" v="381783" />
		<tag k="water" v="lake" />
	</node>
	<node id="-688800" lat="68.1144722196" lon="15.8391388961">
		<tag k="name" v="Grimsosen" />
		<tag k="natural" v="bay" />
		<tag k="ssr:stedsnr" v="381729" />
	</node>
	<node id="-688799" lat="68.1470750031" lon="15.991561117">
		<tag k="name" v="Kjosneset" />
		<tag k="natural" v="cape" />
		<tag k="ssr:stedsnr" v="381727" />
	</node>
	<node id="-688796" lat="68.0736027783" lon="15.7186694553">
		<tag k="fixme" v="multiple name tags, choose one and add the other to alt_name" />
		<tag k="name" v="Litlvatnet;Nordtuvvatnet" />
		<tag k="natural" v="water" />
		<tag k="ssr:stedsnr" v="381674" />
	</node>
	<node id="-690842" lat="68.1102138855" lon="15.4594333376">
		<tag k="name" v="Drakvatnet" />
		<tag k="natural" v="water" />
		<tag k="ssr:stedsnr" v="745022" />
	</node>
	<node id="-689263" lat="67.8552305545" lon="15.9733888806">
		<tag k="name" v="Sandnesvatnet - Sáttonjárgjávrre" />
		<tag k="name:no" v="Sandnesvatnet" />
		<tag k="name:smj" v="Sáttonjárgjávrre" />
		<tag k="natural" v="water" />
		<tag k="old_name:smj" v="Sáttonjárggjávri" />
		<tag k="ssr:stedsnr" v="77474" />
		<tag k="water" v="lake" />
	</node>
	<node id="-690840" lat="68.1274222213" lon="15.5974360991">
		<tag k="alt_name" v="Tverrutskogvatnet" />
		<tag k="name" v="Tverråsskogvatnet" />
		<tag k="natural" v="water" />
		<tag k="ssr:stedsnr" v="745006" />
	</node>
	<node id="-688580" lat="68.1138500044" lon="15.9362083317">
		<tag k="name" v="Pinholtjørna" />
		<tag k="natural" v="water" />
		<tag k="ssr:stedsnr" v="320649" />
	</node>
	<node id="-690969" lat="67.8584638927" lon="15.8916000045">
		<tag k="name" v="Hømmerodden" />
		<tag k="natural" v="cape" />
		<tag k="ssr:stedsnr" v="777188" />
	</node>
	<node id="-690835" lat="67.8242027776" lon="15.9779138961">
		<tag k="fixme" v="multiple name tags, choose one and add the other to alt_name" />
		<tag k="name" v="Fjerdvatnet;Kråkmovatnet" />
		<tag k="natural" v="water" />
		<tag k="ssr:stedsnr" v="745463" />
		<tag k="water" v="lake" />
	</node>
	<node id="-690834" lat="67.8546944401" lon="15.9163111181">
		<tag k="name" v="Sørbukta" />
		<tag k="natural" v="bay" />
		<tag k="ssr:stedsnr" v="745458" />
	</node>
	<node id="-690833" lat="67.8608055532" lon="15.9605805454">
		<tag k="name" v="Ediasneset" />
		<tag k="natural" v="cape" />
		<tag k="ssr:stedsnr" v="745455" />
	</node>
	<node id="-688784" lat="67.8671472254" lon="15.9530277879">
		<tag k="name" v="Strindelva" />
		<tag k="ssr:stedsnr" v="381458" />
		<tag k="waterway" v="stream" />
	</node>
	<node id="-688783" lat="67.8646055585" lon="15.9790833435">
		<tag k="alt_name" v="Skilelva" />
		<tag k="name" v="Skjellelva" />
		<tag k="ssr:stedsnr" v="381457" />
		<tag k="waterway" v="stream" />
	</node>
	<node id="-688781" lat="67.7798666624" lon="15.9270277746">
		<tag k="name" v="Telegrafelva" />
		<tag k="ssr:stedsnr" v="381292" />
		<tag k="waterway" v="stream" />
	</node>
	<node id="-688780" lat="68.1017583372" lon="15.5790527693">
		<tag k="name" v="Kulbekken" />
		<tag k="ssr:stedsnr" v="381064" />
		<tag k="waterway" v="stream" />
	</node>
	<node id="-690827" lat="67.9104833319" lon="15.8615944352">
		<tag k="name" v="Lomtjønna" />
		<tag k="natural" v="water" />
		<tag k="ssr:stedsnr" v="716974" />
	</node>
	<node id="-688778" lat="68.1121333342" lon="15.5889611046">
		<tag k="name" v="Kulvatnet" />
		<tag k="natural" v="water" />
		<tag k="ssr:stedsnr" v="381041" />
	</node>
	<node id="-688777" lat="68.1120638848" lon="15.5266305466">
		<tag k="name" v="Lapposen" />
		<tag k="natural" v="bay" />
		<tag k="ssr:stedsnr" v="381038" />
	</node>
	<node id="-688775" lat="68.1158500029" lon="15.6000972134">
		<tag k="name" v="Gårdsvatnet" />
		<tag k="natural" v="water" />
		<tag k="ssr:stedsnr" v="381013" />
	</node>
	<node id="-688774" lat="68.1197472245" lon="15.5365000024">
		<tag k="name" v="Rotlivatnet" />
		<tag k="natural" v="water" />
		<tag k="ssr:stedsnr" v="381011" />
	</node>
	<node id="-690820" lat="67.9259250027" lon="15.7593861006">
		<tag k="name" v="Litltjønnan" />
		<tag k="natural" v="water" />
		<tag k="ssr:stedsnr" v="716855" />
	</node>
	<node id="-688766" lat="68.0701916634" lon="15.5047527849">
		<tag k="name" v="Langholmen" />
		<tag k="place" v="islet" />
		<tag k="ssr:stedsnr" v="380970" />
	</node>
	<node id="-688765" lat="68.0761666679" lon="15.5173972278">
		<tag k="alt_name" v="Sjøbuosen" />
		<tag k="name" v="Sjybuosen" />
		<tag k="natural" v="bay" />
		<tag k="ssr:stedsnr" v="380966" />
	</node>
	<node id="-688761" lat="67.9966472207" lon="15.5858860998">
		<tag k="name" v="Innerelva" />
		<tag k="ssr:stedsnr" v="380889" />
		<tag k="waterway" v="stream" />
	</node>
	<node id="-688760" lat="68.0038083322" lon="15.389252783">
		<tag k="fixme" v="multiple name tags, choose one and add the other to alt_name" />
		<tag k="name" v="Litltrollosen;Sørlandsosen" />
		<tag k="natural" v="bay" />
		<tag k="ssr:stedsnr" v="380854" />
	</node>
	<node id="-688759" lat="68.1259138871" lon="15.9719222112">
		<tag k="name" v="Langodden" />
		<tag k="natural" v="cape" />
		<tag k="ssr:stedsnr" v="380832" />
	</node>
	<node id="-690804" lat="68.0047861134" lon="15.6716055659">
		<tag k="name" v="Lomtjønnen" />
		<tag k="natural" v="water" />
		<tag k="ssr:stedsnr" v="716665" />
	</node>
	<node id="-688755" lat="68.1461055587" lon="15.6481055603">
		<tag k="name" v="Trollvatnet" />
		<tag k="natural" v="water" />
		<tag k="ssr:stedsnr" v="380761" />
	</node>
	<node id="-688754" lat="68.1606694467" lon="15.9898027763">
		<tag k="name" v="Småvatnan" />
		<tag k="natural" v="water" />
		<tag k="ssr:stedsnr" v="380758" />
		<tag k="water" v="lake" />
	</node>
	<node id="-688752" lat="68.1536444459" lon="15.8021111228">
		<tag k="name" v="Mølnvatnet" />
		<tag k="natural" v="water" />
		<tag k="ssr:stedsnr" v="380751" />
		<tag k="water" v="lake" />
	</node>
	<node id="-690799" lat="68.0311638851" lon="16.0031916724">
		<tag k="name" v="Triumselva" />
		<tag k="ssr:stedsnr" v="716640" />
		<tag k="waterway" v="river" />
	</node>
	<node id="-688750" lat="67.6677222211" lon="16.2494805614">
		<tag k="name" v="Juoksajávrre" />
		<tag k="name:smj" v="Juoksajávrre" />
		<tag k="natural" v="water" />
		<tag k="old_name:smj" v="Juoksajávri" />
		<tag k="ssr:stedsnr" v="380674" />
	</node>
	<node id="-688749" lat="67.6286805601" lon="16.3046444334">
		<tag k="name" v="Linnajávrre" />
		<tag k="name:smj" v="Linnajávrre" />
		<tag k="natural" v="water" />
		<tag k="old_name:smj" v="Linájávri;Linnájávrre;Linajávri" />
		<tag k="ssr:stedsnr" v="380670" />
		<tag k="water" v="lake" />
	</node>
	<node id="-688748" lat="68.0828972204" lon="15.8026999953">
		<tag k="name" v="Svartvatnet" />
		<tag k="natural" v="water" />
		<tag k="ssr:stedsnr" v="380669" />
	</node>
	<node id="-688747" lat="67.629538892" lon="16.4786027881">
		<tag k="name" v="Sjnasjkasjávrre" />
		<tag k="name:smj" v="Sjnasjkasjávrre" />
		<tag k="natural" v="water" />
		<tag k="old_name:smj" v="Njaskasjávri;Njasskasjávrre" />
		<tag k="ssr:stedsnr" v="380666" />
		<tag k="water" v="lake" />
	</node>
	<node id="-688744" lat="67.861333335" lon="15.9263277732">
		<tag k="name" v="Strindstraumen" />
		<tag k="natural" v="strait" />
		<tag k="ssr:stedsnr" v="380485" />
	</node>
	<node id="-688742" lat="67.8483777745" lon="15.8087527755">
		<tag k="fixme" v="multiple name tags, choose one and add the other to alt_name" />
		<tag k="name" v="Rundtjørnene;Storrundtjønna" />
		<tag k="natural" v="water" />
		<tag k="ssr:stedsnr" v="380462" />
	</node>
	<node id="-688740" lat="67.8988583374" lon="15.9289638778">
		<tag k="name" v="Tennvatnet" />
		<tag k="natural" v="water" />
		<tag k="ssr:stedsnr" v="380399" />
		<tag k="water" v="lake" />
	</node>
	<node id="-688739" lat="67.9034277765" lon="15.9000388877">
		<tag k="name" v="Tennvasselva" />
		<tag k="ssr:stedsnr" v="380397" />
		<tag k="waterway" v="stream" />
	</node>
	<node id="-690785" lat="67.8307611121" lon="15.9900944556">
		<tag k="name" v="Vinterlendinga" />
		<tag k="natural" v="cape" />
		<tag k="ssr:stedsnr" v="716288" />
	</node>
	<node id="-690780" lat="67.8400694409" lon="15.9788833414">
		<tag k="name" v="Roparneselva" />
		<tag k="ssr:stedsnr" v="716247" />
		<tag k="waterway" v="stream" />
	</node>
	<node id="-689137" lat="68.0165333336" lon="15.428825009">
		<tag k="name" v="Litlvatnet" />
		<tag k="natural" v="water" />
		<tag k="ssr:stedsnr" v="17889" />
	</node>
	<node id="-690775" lat="67.839658334" lon="15.7906111092">
		<tag k="name" v="Skjellelva" />
		<tag k="ssr:stedsnr" v="716222" />
		<tag k="waterway" v="river" />
	</node>
	<node id="-690774" lat="68.0330805595" lon="15.3566527786">
		<tag k="name" v="Månen" />
		<tag k="place" v="islet" />
		<tag k="ssr:stedsnr" v="716221" />
	</node>
	<node id="-690773" lat="68.0339861134" lon="15.3655527862">
		<tag k="name" v="Tennholmen" />
		<tag k="place" v="islet" />
		<tag k="ssr:stedsnr" v="716218" />
	</node>
	<node id="-690772" lat="67.8567527771" lon="15.896166673">
		<tag k="name" v="Likkjelva" />
		<tag k="ssr:stedsnr" v="716209" />
		<tag k="waterway" v="stream" />
	</node>
	<node id="-688723" lat="67.983491669" lon="15.8629250112">
		<tag k="name" v="Mølnelva" />
		<tag k="ssr:stedsnr" v="352795" />
		<tag k="waterway" v="stream" />
	</node>
	<node id="-690767" lat="67.8750138874" lon="15.8519555564">
		<tag k="name" v="Kvitberget" />
		<tag k="natural" v="cape" />
		<tag k="ssr:stedsnr" v="716034" />
	</node>
	<node id="-690763" lat="68.1319999983" lon="15.4644222241">
		<tag k="name" v="Hamnestjønna" />
		<tag k="natural" v="water" />
		<tag k="ssr:stedsnr" v="715734" />
	</node>
	<node id="-690759" lat="68.1314555582" lon="15.9720611157">
		<tag k="name" v="Mikkjelneset" />
		<tag k="natural" v="cape" />
		<tag k="ssr:stedsnr" v="715470" />
	</node>
	<node id="-690754" lat="68.0717361091" lon="15.8420194338">
		<tag k="name" v="Furulund" />
		<tag k="natural" v="cape" />
		<tag k="ssr:stedsnr" v="715288" />
	</node>
	<node id="-690753" lat="68.0701527735" lon="15.8826777857">
		<tag k="name" v="Smørvikodden" />
		<tag k="natural" v="cape" />
		<tag k="ssr:stedsnr" v="715282" />
	</node>
	<node id="-688691" lat="68.1224277806" lon="15.6586333344">
		<tag k="name" v="Langholmen" />
		<tag k="place" v="islet" />
		<tag k="ssr:stedsnr" v="352423" />
	</node>
	<node id="-690734" lat="68.0852944465" lon="15.5753999951">
		<tag k="fixme" v="multiple name tags, choose one and add the other to alt_name" />
		<tag k="name" v="Hjellsengelva;Mølnelva" />
		<tag k="ssr:stedsnr" v="684992" />
		<tag k="waterway" v="stream" />
	</node>
	<node id="-688681" lat="68.1167833331" lon="15.8774666627">
		<tag k="name" v="Krengelmyrelva" />
		<tag k="ssr:stedsnr" v="352299" />
		<tag k="waterway" v="stream" />
	</node>
	<node id="-690722" lat="68.0449222239" lon="15.3032833406">
		<tag k="alt_name" v="Kvandalsvatnet;Kvanndalsvatnet, nedre" />
		<tag k="fixme" v="multiple name tags, choose one and add the other to alt_name" />
		<tag k="name" v="Kvanndalsvatnet;Nedre Kvanndalsvatnet" />
		<tag k="natural" v="water" />
		<tag k="ssr:stedsnr" v="684927" />
	</node>
	<node id="-690715" lat="68.0208666634" lon="15.4223861168">
		<tag k="name" v="Storvatnet" />
		<tag k="natural" v="water" />
		<tag k="ssr:stedsnr" v="684890" />
	</node>
	<node id="-688664" lat="67.8388111121" lon="15.7938583337">
		<tag k="name" v="Skjellelvforsen" />
		<tag k="natural" v="waterfall" />
		<tag k="ssr:stedsnr" v="352183" />
	</node>
	<node id="-688661" lat="68.0293472176" lon="15.4066638958">
		<tag k="name" v="Storholmen" />
		<tag k="place" v="islet" />
		<tag k="ssr:stedsnr" v="352170" />
	</node>
	<node id="-690707" lat="68.1970083309" lon="15.8732055513">
		<tag k="alt_name" v="Ytrevatnet" />
		<tag k="name" v="Yttervatnet" />
		<tag k="natural" v="water" />
		<tag k="ssr:stedsnr" v="684812" />
	</node>
	<node id="-688657" lat="68.0225666683" lon="15.3944583278">
		<tag k="name" v="Kronbergholmen" />
		<tag k="natural" v="cape" />
		<tag k="ssr:stedsnr" v="352071" />
	</node>
	<node id="-688651" lat="68.0235250023" lon="15.7375055493">
		<tag k="name" v="Lomtjønnen" />
		<tag k="natural" v="water" />
		<tag k="ssr:stedsnr" v="352014" />
	</node>
	<node id="-689239" lat="68.1557583358" lon="15.9393111173">
		<tag k="name" v="Mølnelva" />
		<tag k="ssr:stedsnr" v="49726" />
		<tag k="waterway" v="stream" />
	</node>
	<node id="-688648" lat="68.1347388923" lon="15.695258343">
		<tag k="name" v="Litlvatnet" />
		<tag k="natural" v="water" />
		<tag k="ssr:stedsnr" v="351543" />
	</node>
	<node id="-690689" lat="67.9586472234" lon="15.7883277692">
		<tag k="alt_name" v="Kvitsteinelva" />
		<tag k="name" v="Kvitsteinselva" />
		<tag k="ssr:stedsnr" v="684629" />
		<tag k="waterway" v="stream" />
	</node>
	<node id="-690688" lat="67.9596194481" lon="16.0685611183">
		<tag k="alt_name" v="Stoloelva;Stuolloelva" />
		<tag k="name" v="Stolloelva" />
		<tag k="ssr:stedsnr" v="684627" />
		<tag k="waterway" v="stream" />
	</node>
	<node id="-688636" lat="67.8610638876" lon="15.9322111089">
		<tag k="name" v="Kilodden" />
		<tag k="natural" v="cape" />
		<tag k="ssr:stedsnr" v="351071" />
	</node>
	<node id="-688635" lat="67.8888388882" lon="15.8618361167">
		<tag k="name" v="Johannesberget" />
		<tag k="natural" v="cape" />
		<tag k="ssr:stedsnr" v="351027" />
	</node>
	<node id="-688634" lat="67.6586166655" lon="16.2465361195">
		<tag k="name" v="Bajep Gasskajávrre" />
		<tag k="name:smj" v="Bajep Gasskajávrre" />
		<tag k="natural" v="water" />
		<tag k="ssr:stedsnr" v="348275" />
		<tag k="water" v="lake" />
	</node>
	<node id="-690677" lat="68.0213055538" lon="15.6597749902">
		<tag k="alt_name" v="Vetvatnet" />
		<tag k="name" v="Vettvatnet" />
		<tag k="natural" v="water" />
		<tag k="ssr:stedsnr" v="684578" />
	</node>
	<node id="-690676" lat="68.0395944429" lon="15.7558722144">
		<tag k="alt_name" v="Hoptjørn" />
		<tag k="name" v="Hoptjønna" />
		<tag k="natural" v="water" />
		<tag k="ssr:stedsnr" v="684554" />
	</node>
	<node id="-690675" lat="67.7172083344" lon="16.2050777765">
		<tag k="name" v="Livsejåhkå" />
		<tag k="name:smj" v="Livsejåhkå" />
		<tag k="old_name:smj" v="Livssejohka" />
		<tag k="ssr:stedsnr" v="684539" />
		<tag k="waterway" v="river" />
	</node>
	<node id="-690671" lat="67.7046333305" lon="16.2038416702">
		<tag k="name" v="Reinokselva - Hierggejåhkå" />
		<tag k="name:no" v="Reinokselva" />
		<tag k="name:smj" v="Hierggejåhkå" />
		<tag k="old_name:smj" v="Heargejohka" />
		<tag k="ssr:stedsnr" v="684508" />
		<tag k="waterway" v="river" />
	</node>
	<node id="-690670" lat="67.8295611109" lon="16.0017749995">
		<tag k="name" v="Falkelva" />
		<tag k="ssr:stedsnr" v="684493" />
		<tag k="waterway" v="river" />
	</node>
	<node id="-690667" lat="67.8081666639" lon="16.0025638764">
		<tag k="name" v="Bikkjebekken" />
		<tag k="ssr:stedsnr" v="684474" />
		<tag k="waterway" v="stream" />
	</node>
	<node id="-690662" lat="67.8493249994" lon="15.9197888986">
		<tag k="name" v="Storelva" />
		<tag k="ssr:stedsnr" v="684426" />
		<tag k="waterway" v="stream" />
	</node>
	<node id="-690661" lat="67.8848722208" lon="15.7523027774">
		<tag k="name" v="Gjetarholvatnet" />
		<tag k="natural" v="water" />
		<tag k="ssr:stedsnr" v="684421" />
		<tag k="water" v="lake" />
	</node>
	<node id="-690660" lat="67.8753944464" lon="16.0097194408">
		<tag k="name" v="Kvannelva" />
		<tag k="ssr:stedsnr" v="684413" />
		<tag k="waterway" v="stream" />
	</node>
	<node id="-688610" lat="68.0239111086" lon="15.3935805457">
		<tag k="alt_name" v="Nesvatnan" />
		<tag k="name" v="Nesvatnet" />
		<tag k="natural" v="water" />
		<tag k="ssr:stedsnr" v="320889" />
	</node>
	<node id="-690657" lat="67.9252694453" lon="16.0876138992">
		<tag k="name" v="Stuolojåhkå" />
		<tag k="name:smj" v="Stuolojåhkå" />
		<tag k="old_name:smj" v="Stuollojohka" />
		<tag k="ssr:stedsnr" v="684398" />
		<tag k="waterway" v="stream" />
	</node>
	<node id="-690654" lat="67.9914416686" lon="15.9960805643">
		<tag k="name" v="Svartvasselva" />
		<tag k="ssr:stedsnr" v="684199" />
		<tag k="waterway" v="river" />
	</node>
	<node id="-690653" lat="68.1332777781" lon="15.6107083432">
		<tag k="name" v="Blomstervatnet" />
		<tag k="natural" v="water" />
		<tag k="ssr:stedsnr" v="684114" />
	</node>
	<node id="-690652" lat="68.1308527761" lon="15.4213416718">
		<tag k="name" v="Langosen" />
		<tag k="natural" v="bay" />
		<tag k="ssr:stedsnr" v="684110" />
	</node>
	<node id="-690651" lat="68.1377694436" lon="15.4912527879">
		<tag k="alt_name" v="Tørrisvatnet" />
		<tag k="name" v="Torrisvatnet" />
		<tag k="natural" v="water" />
		<tag k="ssr:stedsnr" v="684106" />
	</node>
	<node id="-688602" lat="68.0048083333" lon="15.4726916613">
		<tag k="name" v="Kjosen" />
		<tag k="natural" v="bay" />
		<tag k="ssr:stedsnr" v="320841" />
	</node>
	<node id="-688594" lat="67.5945416641" lon="16.3982888807">
		<tag k="name" v="Tjåhkkuljåhkå" />
		<tag k="name:smj" v="Tjåhkkuljåhkå" />
		<tag k="old_name:smj" v="Čohkuljohka" />
		<tag k="ssr:stedsnr" v="320750" />
		<tag k="waterway" v="river" />
	</node>
	<node id="-690637" lat="68.1082638916" lon="15.5419694338">
		<tag k="name" v="Slettbakkvatnet" />
		<tag k="natural" v="water" />
		<tag k="ssr:stedsnr" v="684027" />
	</node>
	<node id="-688585" lat="68.13381111" lon="15.907519444">
		<tag k="name" v="Anderselva" />
		<tag k="ssr:stedsnr" v="320684" />
		<tag k="waterway" v="stream" />
	</node>
	<node id="-688583" lat="68.1064444424" lon="15.9249083245">
		<tag k="name" v="Roaldvatnet" />
		<tag k="natural" v="water" />
		<tag k="ssr:stedsnr" v="320664" />
	</node>
	<node id="-690837" lat="67.8375388848" lon="15.9322944429">
		<tag k="name" v="Skogholvatnet" />
		<tag k="natural" v="water" />
		<tag k="ssr:stedsnr" v="745480" />
	</node>
	<node id="-690628" lat="67.7929666651" lon="15.9611388885">
		<tag k="name" v="Sennodden" />
		<tag k="natural" v="cape" />
		<tag k="ssr:stedsnr" v="655845" />
	</node>
	<node id="-690627" lat="67.7603694435" lon="16.0398250068">
		<tag k="name" v="Øverholmen" />
		<tag k="place" v="islet" />
		<tag k="ssr:stedsnr" v="655833" />
	</node>
	<node id="-688575" lat="67.9582194448" lon="15.9572027743">
		<tag k="name" v="Mølnelva" />
		<tag k="ssr:stedsnr" v="320628" />
		<tag k="waterway" v="stream" />
	</node>
	<node id="-688574" lat="67.9741194432" lon="15.9865694348">
		<tag k="name" v="Krokan" />
		<tag k="place" v="locality" />
		<tag k="ssr:stedsnr" v="320625" />
	</node>
	<node id="-688572" lat="67.6567305582" lon="16.3148611032">
		<tag k="name" v="Linnavágjávrre" />
		<tag k="name:smj" v="Linnavágjávrre" />
		<tag k="natural" v="water" />
		<tag k="old_name:smj" v="Linávákkejávrrit" />
		<tag k="ssr:stedsnr" v="320617" />
	</node>
	<node id="-690619" lat="67.991983329" lon="15.8816972252">
		<tag k="name" v="Buktelva" />
		<tag k="ssr:stedsnr" v="655717" />
		<tag k="waterway" v="stream" />
	</node>
	<node id="-688567" lat="67.6500111077" lon="16.1683416747">
		<tag k="name" v="Gasskajávrre" />
		<tag k="name:smj" v="Gasskajávrre" />
		<tag k="natural" v="water" />
		<tag k="old_name:smj" v="Gaskajávri" />
		<tag k="ssr:stedsnr" v="320596" />
	</node>
	<node id="-690614" lat="68.0079472182" lon="15.6071805651">
		<tag k="name" v="Ådalselva" />
		<tag k="ssr:stedsnr" v="655668" />
		<tag k="waterway" v="stream" />
	</node>
	<node id="-690605" lat="67.9956277742" lon="15.5743638787">
		<tag k="name" v="Medalselva" />
		<tag k="ssr:stedsnr" v="655568" />
		<tag k="waterway" v="stream" />
	</node>
	<node id="-690604" lat="67.9987083304" lon="15.5729944399">
		<tag k="name" v="Ringvollelva" />
		<tag k="ssr:stedsnr" v="655567" />
		<tag k="waterway" v="stream" />
	</node>
	<node id="-688552" lat="68.1263055519" lon="15.4170194531">
		<tag k="fixme" v="multiple name tags, choose one and add the other to alt_name" />
		<tag k="name" v="Hopleira;Leira" />
		<tag k="natural" v="bay" />
		<tag k="ssr:stedsnr" v="320123" />
	</node>
	<node id="-690596" lat="68.1392194485" lon="15.9913833405">
		<tag k="name" v="Kilneskjosen" />
		<tag k="natural" v="bay" />
		<tag k="ssr:stedsnr" v="655423" />
	</node>
	<node id="-688547" lat="68.1614888899" lon="15.6109166553">
		<tag k="name" v="Fartøyosen" />
		<tag k="natural" v="bay" />
		<tag k="ssr:stedsnr" v="320078" />
	</node>
	<node id="-690594" lat="68.1201416685" lon="15.6730111203">
		<tag k="name" v="Sigridskjeran" />
		<tag k="place" v="islet" />
		<tag k="ssr:stedsnr" v="655411" />
	</node>
	<node id="-690580" lat="67.8372833345" lon="16.0071083239">
		<tag k="name" v="Djupelva" />
		<tag k="ssr:stedsnr" v="655267" />
		<tag k="waterway" v="stream" />
	</node>
	<node id="-688531" lat="68.0823638886" lon="15.8650333331">
		<tag k="name" v="Svarttjønna" />
		<tag k="natural" v="water" />
		<tag k="ssr:stedsnr" v="291949" />
	</node>
	<node id="-690576" lat="67.8547194484" lon="16.0096805676">
		<tag k="name" v="Hesbukta" />
		<tag k="natural" v="bay" />
		<tag k="ssr:stedsnr" v="655239" />
	</node>
	<node id="-690573" lat="67.8288750039" lon="15.8529111035">
		<tag k="name" v="Austerkrågelva" />
		<tag k="ssr:stedsnr" v="655228" />
		<tag k="waterway" v="river" />
	</node>
	<node id="-688524" lat="68.1492055516" lon="15.8893499969">
		<tag k="name" v="Kvalviktjønna" />
		<tag k="natural" v="water" />
		<tag k="ssr:stedsnr" v="291688" />
	</node>
	<node id="-688520" lat="68.0045999997" lon="15.6360000018">
		<tag k="name" v="Fekovelva" />
		<tag k="ssr:stedsnr" v="291662" />
		<tag k="waterway" v="stream" />
	</node>
	<node id="-690560" lat="67.8706722215" lon="15.9225638768">
		<tag k="name" v="Forrneselva" />
		<tag k="ssr:stedsnr" v="655087" />
		<tag k="waterway" v="stream" />
	</node>
	<node id="-688510" lat="68.1227388862" lon="15.6426749933">
		<tag k="name" v="Langnesholmen" />
		<tag k="place" v="islet" />
		<tag k="ssr:stedsnr" v="291540" />
	</node>
	<node id="-688509" lat="68.1179250017" lon="15.468080563">
		<tag k="name" v="Storfosselva" />
		<tag k="ssr:stedsnr" v="291531" />
		<tag k="waterway" v="stream" />
	</node>
	<node id="-690556" lat="68.0228444441" lon="15.3827333262">
		<tag k="name" v="Mølnvatnet" />
		<tag k="natural" v="water" />
		<tag k="ssr:stedsnr" v="655077" />
	</node>
	<node id="-688874" lat="68.0804583351" lon="15.8923555456">
		<tag k="name" v="Karenoddan" />
		<tag k="natural" v="cape" />
		<tag k="ssr:stedsnr" v="413370" />
	</node>
	<node id="-688504" lat="68.0592833342" lon="15.4657916596">
		<tag k="name" v="Sjylaksforsen" />
		<tag k="natural" v="waterfall" />
		<tag k="ssr:stedsnr" v="291357" />
	</node>
	<node id="-690549" lat="68.1297999998" lon="15.4650388766">
		<tag k="name" v="Ospneset" />
		<tag k="natural" v="cape" />
		<tag k="ssr:stedsnr" v="654734" />
	</node>
	<node id="-690540" lat="68.1247416649" lon="15.9888444531">
		<tag k="name" v="Storvika" />
		<tag k="natural" v="bay" />
		<tag k="ssr:stedsnr" v="654449" />
	</node>
	<node id="-688490" lat="67.8596055548" lon="15.9114000042">
		<tag k="name" v="Strindnes-Sørbukta" />
		<tag k="natural" v="bay" />
		<tag k="ssr:stedsnr" v="291215" />
	</node>
	<node id="-688489" lat="68.0445277816" lon="15.7377555592">
		<tag k="name" v="Vatnet" />
		<tag k="natural" v="water" />
		<tag k="ssr:stedsnr" v="291121" />
	</node>
	<node id="-688486" lat="67.8703000009" lon="15.8903583326">
		<tag k="name" v="Smalhalsen" />
		<tag k="natural" v="cape" />
		<tag k="ssr:stedsnr" v="291080" />
	</node>
	<node id="-688485" lat="68.1850694427" lon="15.6447638894">
		<tag k="name" v="Steinsosen" />
		<tag k="natural" v="bay" />
		<tag k="ssr:stedsnr" v="291076" />
	</node>
	<node id="-688483" lat="67.8614416652" lon="15.9280333398">
		<tag k="name" v="Straumodden" />
		<tag k="natural" v="cape" />
		<tag k="ssr:stedsnr" v="291069" />
	</node>
	<node id="-688481" lat="68.0261999995" lon="15.6170416731">
		<tag k="name" v="Ervikelva" />
		<tag k="ssr:stedsnr" v="291044" />
		<tag k="waterway" v="stream" />
	</node>
	<node id="-688480" lat="68.0147694408" lon="15.6538527665">
		<tag k="name" v="Halltjønna" />
		<tag k="natural" v="water" />
		<tag k="ssr:stedsnr" v="291041" />
	</node>
	<node id="-688477" lat="68.0185722181" lon="15.6696361038">
		<tag k="name" v="Senntjønnen" />
		<tag k="natural" v="water" />
		<tag k="ssr:stedsnr" v="291029" />
	</node>
	<node id="-688470" lat="68.1333333324" lon="16.012200008">
		<tag k="name" v="Tennsteinan" />
		<tag k="place" v="islet" />
		<tag k="ssr:stedsnr" v="291461" />
	</node>
	<node id="-690517" lat="68.0530027751" lon="15.4843000083">
		<tag k="name" v="Arnesosen" />
		<tag k="natural" v="bay" />
		<tag k="ssr:stedsnr" v="623948" />
	</node>
	<node id="-690511" lat="68.0327444466" lon="15.3583944541">
		<tag k="name" v="Fjellvatnet" />
		<tag k="natural" v="water" />
		<tag k="ssr:stedsnr" v="623917" />
		<tag k="water" v="lake" />
	</node>
	<node id="-690503" lat="67.5994194447" lon="16.3430805629">
		<tag k="name" v="Øyvatnet - Suolojjávrre" />
		<tag k="name:no" v="Øyvatnet" />
		<tag k="name:smj" v="Suolojjávrre" />
		<tag k="natural" v="water" />
		<tag k="old_name:smj" v="Suolojávri" />
		<tag k="ssr:stedsnr" v="623769" />
	</node>
	<node id="-690502" lat="67.6143861071" lon="16.3935083382">
		<tag k="name" v="Kvitbergvatnet - Vielggisbáktejávrre" />
		<tag k="name:no" v="Kvitbergvatnet" />
		<tag k="name:smj" v="Vielggisbáktejávrre" />
		<tag k="natural" v="water" />
		<tag k="old_name:smj" v="Vilgesbáktjávri" />
		<tag k="ssr:stedsnr" v="623768" />
	</node>
	<node id="-690494" lat="68.1100333306" lon="15.6227472236">
		<tag k="alt_name" v="Bjørnosen" />
		<tag k="name" v="Bjøllosen" />
		<tag k="natural" v="bay" />
		<tag k="ssr:stedsnr" v="623670" />
	</node>
	<node id="-690493" lat="68.0791694442" lon="15.8475555542">
		<tag k="name" v="Svanvatnet" />
		<tag k="natural" v="water" />
		<tag k="ssr:stedsnr" v="623666" />
	</node>
	<node id="-690490" lat="67.6786027808" lon="16.4872472332">
		<tag k="name" v="Steinvatnet - Gierggejávrre" />
		<tag k="name:no" v="Steinvatnet" />
		<tag k="name:smj" v="Gierggejávrre" />
		<tag k="natural" v="water" />
		<tag k="old_name:smj" v="Geađgejávri" />
		<tag k="ssr:stedsnr" v="623651" />
		<tag k="water" v="lake" />
	</node>
	<node id="-690489" lat="67.6726861072" lon="16.2339861122">
		<tag k="name" v="Jierddajávrre" />
		<tag k="name:smj" v="Jierddajávrre" />
		<tag k="natural" v="water" />
		<tag k="old_name:smj" v="Jierdájávri" />
		<tag k="ssr:stedsnr" v="623649" />
		<tag k="water" v="lake" />
	</node>
	<node id="-690487" lat="67.6372527743" lon="16.342736105">
		<tag k="name" v="Boartejåhkå" />
		<tag k="name:smj" v="Boartejåhkå" />
		<tag k="old_name:smj" v="Boartajohka" />
		<tag k="ssr:stedsnr" v="623644" />
		<tag k="waterway" v="river" />
	</node>
	<node id="-690485" lat="68.0911666653" lon="15.9019194415">
		<tag k="name" v="Skiltjørnan" />
		<tag k="natural" v="water" />
		<tag k="ssr:stedsnr" v="623643" />
		<tag k="water" v="lake" />
	</node>
	<node id="-690484" lat="67.6307166638" lon="16.5253861028">
		<tag k="name" v="Sjnasjkasjåhkå" />
		<tag k="name:smj" v="Sjnasjkasjåhkå" />
		<tag k="old_name:smj" v="Njaskasjohka" />
		<tag k="ssr:stedsnr" v="623640" />
		<tag k="waterway" v="river" />
	</node>
	<node id="-690481" lat="67.6521388922" lon="16.1986861035">
		<tag k="name" v="Hálljejávrre" />
		<tag k="name:smj" v="Hálljejávrre" />
		<tag k="natural" v="water" />
		<tag k="old_name:smj" v="Háljejávri" />
		<tag k="ssr:stedsnr" v="623629" />
	</node>
	<node id="-690480" lat="68.0640833338" lon="15.7838944523">
		<tag k="name" v="Tealøken" />
		<tag k="natural" v="water" />
		<tag k="ssr:stedsnr" v="623619" />
		<tag k="water" v="lake" />
	</node>
	<node id="-690479" lat="68.0625388924" lon="15.8042694483">
		<tag k="fixme" v="multiple name tags, choose one and add the other to alt_name" />
		<tag k="name" v="Tealauken;Tealøkelva" />
		<tag k="ssr:stedsnr" v="623618" />
		<tag k="waterway" v="stream" />
	</node>
	<node id="-690477" lat="68.0182027799" lon="15.6839861044">
		<tag k="alt_name" v="Skilelva" />
		<tag k="name" v="Skjellelva" />
		<tag k="ssr:stedsnr" v="623610" />
		<tag k="waterway" v="stream" />
	</node>
	<node id="-690476" lat="68.0072499964" lon="15.8393444324">
		<tag k="alt_name" v="Karlsøyvatnet, øvre;Øverkarlsøyvatnet" />
		<tag k="name" v="Øvre Karlsøyvatnet" />
		<tag k="natural" v="water" />
		<tag k="ssr:stedsnr" v="623559" />
	</node>
	<node id="-690474" lat="67.8198166679" lon="15.9773638987">
		<tag k="name" v="Skilgájávrre" />
		<tag k="name:smj" v="Skilgájávrre" />
		<tag k="natural" v="water" />
		<tag k="old_name:smj" v="Skilggajávri" />
		<tag k="ssr:stedsnr" v="623486" />
		<tag k="water" v="lake" />
	</node>
	<node id="-690471" lat="67.8586388881" lon="15.7716388945">
		<tag k="name" v="Løelvvatnet" />
		<tag k="natural" v="water" />
		<tag k="ssr:stedsnr" v="623464" />
	</node>
	<node id="-690470" lat="67.8602583365" lon="15.801574997">
		<tag k="name" v="Løelva" />
		<tag k="ssr:stedsnr" v="623460" />
		<tag k="waterway" v="stream" />
	</node>
	<node id="-690469" lat="67.8570666684" lon="15.8191361203">
		<tag k="alt_name" v="Langtjønna" />
		<tag k="name" v="Langtjørna" />
		<tag k="natural" v="water" />
		<tag k="ssr:stedsnr" v="623459" />
	</node>
	<node id="-690468" lat="67.8572055579" lon="16.0933666616">
		<tag k="name" v="Skorrelva" />
		<tag k="ssr:stedsnr" v="623450" />
		<tag k="waterway" v="stream" />
	</node>
	<node id="-690467" lat="67.8692194423" lon="15.8363527685">
		<tag k="fixme" v="multiple name tags, choose one and add the other to alt_name" />
		<tag k="name" v="Fjellelva;Røtelva" />
		<tag k="ssr:stedsnr" v="623429" />
		<tag k="waterway" v="stream" />
	</node>
	<node id="-690463" lat="67.8066277753" lon="15.990927778">
		<tag k="name" v="Mølnelva" />
		<tag k="ssr:stedsnr" v="623274" />
		<tag k="waterway" v="stream" />
	</node>
	<node id="-690458" lat="68.1313722243" lon="15.4928777777">
		<tag k="name" v="Tennvatnet" />
		<tag k="natural" v="water" />
		<tag k="ssr:stedsnr" v="623139" />
	</node>
	<node id="-690447" lat="68.0965527807" lon="15.3790249906">
		<tag k="name" v="Mølnosen" />
		<tag k="natural" v="bay" />
		<tag k="ssr:stedsnr" v="623052" />
	</node>
	<node id="-690433" lat="68.0884972181" lon="15.8493000092">
		<tag k="name" v="Ivartjønna" />
		<tag k="natural" v="water" />
		<tag k="ssr:stedsnr" v="594985" />
	</node>
	<node id="-690431" lat="68.080516671" lon="15.8072555548">
		<tag k="name" v="Svartvasselva" />
		<tag k="ssr:stedsnr" v="594961" />
		<tag k="waterway" v="stream" />
	</node>
	<node id="-690430" lat="68.078041663" lon="15.7668694356">
		<tag k="name" v="Pollfjelltjønnan" />
		<tag k="natural" v="water" />
		<tag k="ssr:stedsnr" v="594960" />
	</node>
	<node id="-690429" lat="67.8968777775" lon="15.8313638847">
		<tag k="name" v="Liforsen" />
		<tag k="natural" v="waterfall" />
		<tag k="ssr:stedsnr" v="594953" />
	</node>
	<node id="-690418" lat="68.1415666676" lon="16.0012277798">
		<tag k="name" v="Helenaholmen" />
		<tag k="place" v="islet" />
		<tag k="ssr:stedsnr" v="594674" />
	</node>
	<node id="-688508" lat="68.0218972255" lon="15.881761111">
		<tag k="name" v="Mølnvatnet" />
		<tag k="natural" v="water" />
		<tag k="ssr:stedsnr" v="291518" />
	</node>
	<node id="-690398" lat="67.8074250003" lon="15.9746277763">
		<tag k="name" v="Holmen" />
		<tag k="place" v="islet" />
		<tag k="ssr:stedsnr" v="594484" />
	</node>
	<node id="-690395" lat="68.1367749981" lon="15.948274995">
		<tag k="name" v="Okselva" />
		<tag k="ssr:stedsnr" v="594463" />
		<tag k="waterway" v="stream" />
	</node>
	<node id="-690392" lat="68.1290222213" lon="16.0011111035">
		<tag k="name" v="Sundet" />
		<tag k="natural" v="strait" />
		<tag k="ssr:stedsnr" v="594439" />
	</node>
	<node id="-690391" lat="68.1257083315" lon="15.9783499943">
		<tag k="name" v="Knutholmsundet" />
		<tag k="natural" v="strait" />
		<tag k="ssr:stedsnr" v="594437" />
	</node>
	<node id="-690390" lat="68.1210388922" lon="15.6658222337">
		<tag k="name" v="Småskjeran" />
		<tag k="place" v="islet" />
		<tag k="ssr:stedsnr" v="594421" />
	</node>
	<node id="-690385" lat="68.0608444479" lon="15.8637333287">
		<tag k="name" v="Lomtjønna" />
		<tag k="natural" v="water" />
		<tag k="ssr:stedsnr" v="594281" />
	</node>
	<node id="-690383" lat="67.8385666656" lon="16.0006249876">
		<tag k="name" v="Dammen" />
		<tag k="natural" v="water" />
		<tag k="ssr:stedsnr" v="594271" />
		<tag k="water" v="pond" />
	</node>
	<node id="-690382" lat="68.0680138865" lon="15.8530777842">
		<tag k="name" v="Tverråsvatnet" />
		<tag k="natural" v="water" />
		<tag k="ssr:stedsnr" v="594265" />
		<tag k="water" v="lake" />
	</node>
	<node id="-690381" lat="68.0588361089" lon="15.8298750071">
		<tag k="name" v="Stenginga" />
		<tag k="ssr:stedsnr" v="594254" />
		<tag k="waterway" v="dam" />
	</node>
	<node id="-690380" lat="68.054813886" lon="15.9521638807">
		<tag k="name" v="Skjelldalselva" />
		<tag k="ssr:stedsnr" v="594248" />
		<tag k="waterway" v="stream" />
	</node>
	<node id="-690371" lat="67.8569638857" lon="15.8244750033">
		<tag k="name" v="Roaldtjønna" />
		<tag k="natural" v="water" />
		<tag k="ssr:stedsnr" v="594198" />
	</node>
	<node id="-690369" lat="68.0303555516" lon="15.3833222167">
		<tag k="name" v="Bjørnholmen" />
		<tag k="natural" v="cape" />
		<tag k="ssr:stedsnr" v="594186" />
	</node>
	<node id="-690360" lat="67.8681472194" lon="15.8510472266">
		<tag k="name" v="Tømmerbukta" />
		<tag k="natural" v="bay" />
		<tag k="ssr:stedsnr" v="594088" />
	</node>
	<node id="-690356" lat="67.877747219" lon="15.8677472315">
		<tag k="name" v="Småholman" />
		<tag k="place" v="islet" />
		<tag k="ssr:stedsnr" v="594053" />
	</node>
	<node id="-690355" lat="68.0183972227" lon="15.7286194508">
		<tag k="name" v="Botnelva" />
		<tag k="ssr:stedsnr" v="594035" />
		<tag k="waterway" v="stream" />
	</node>
	<node id="-690351" lat="68.1359805592" lon="15.6822055459">
		<tag k="name" v="Åselva" />
		<tag k="ssr:stedsnr" v="594548" />
		<tag k="waterway" v="stream" />
	</node>
	<node id="-690324" lat="67.6003805556" lon="16.3249083305">
		<tag k="name" v="Litlevatnet - Unnajávrásj" />
		<tag k="name:no" v="Litlevatnet" />
		<tag k="name:smj" v="Unnajávrásj" />
		<tag k="natural" v="water" />
		<tag k="old_name:smj" v="Unnajávrráš" />
		<tag k="ssr:stedsnr" v="563778" />
	</node>
	<node id="-690322" lat="67.5843166649" lon="16.441222219">
		<tag k="name" v="Austrelva - Lulemusjåhkå" />
		<tag k="name:no" v="Austrelva" />
		<tag k="name:smj" v="Lulemusjåhkå" />
		<tag k="old_name:smj" v="Lulimusjohka" />
		<tag k="ssr:stedsnr" v="563766" />
		<tag k="waterway" v="stream" />
	</node>
	<node id="-690320" lat="68.1293166675" lon="16.0194888966">
		<tag k="name" v="Kilvatnet - Ráhpukjávrre" />
		<tag k="name:no" v="Kilvatnet" />
		<tag k="name:smj" v="Ráhpukjávrre" />
		<tag k="natural" v="water" />
		<tag k="ssr:stedsnr" v="563738" />
		<tag k="water" v="lake" />
	</node>
	<node id="-690318" lat="68.1149583301" lon="15.8979722171">
		<tag k="name" v="Orendalselva" />
		<tag k="ssr:stedsnr" v="563689" />
		<tag k="waterway" v="stream" />
	</node>
	<node id="-690316" lat="67.9314222199" lon="15.7921444439">
		<tag k="alt_name" v="Dønsågvatnet" />
		<tag k="name" v="Dønselvvatnet" />
		<tag k="natural" v="water" />
		<tag k="ssr:stedsnr" v="563642" />
		<tag k="water" v="lake" />
	</node>
	<node id="-690315" lat="68.0164527758" lon="16.0103361039">
		<tag k="alt_name" v="Småtjørnan" />
		<tag k="name" v="Småtjønnan" />
		<tag k="natural" v="water" />
		<tag k="ssr:stedsnr" v="563569" />
		<tag k="water" v="lake" />
	</node>
	<node id="-690312" lat="67.7992333305" lon="15.9484666621">
		<tag k="name" v="Kvannelva" />
		<tag k="ssr:stedsnr" v="563463" />
		<tag k="waterway" v="stream" />
	</node>
	<node id="-690311" lat="67.7909527824" lon="15.9590194359">
		<tag k="name" v="Femtvatnet - Vidátjávrre" />
		<tag k="name:no" v="Femtvatnet" />
		<tag k="name:smj" v="Vidátjávrre" />
		<tag k="natural" v="water" />
		<tag k="old_name:smj" v="Vidatjávri" />
		<tag k="ssr:stedsnr" v="563277" />
	</node>
	<node id="-690299" lat="68.0570111142" lon="15.4929638816">
		<tag k="name" v="Haukåssjøen" />
		<tag k="natural" v="bay" />
		<tag k="ssr:stedsnr" v="562944" />
	</node>
	<node id="-690297" lat="68.0492999965" lon="15.4723416722">
		<tag k="name" v="Osen" />
		<tag k="natural" v="bay" />
		<tag k="ssr:stedsnr" v="562931" />
	</node>
	<node id="-690294" lat="68.0508333348" lon="15.5927444332">
		<tag k="name" v="Mølnvatnet" />
		<tag k="natural" v="water" />
		<tag k="ssr:stedsnr" v="562925" />
	</node>
	<node id="-690286" lat="68.1523527764" lon="15.7796305483">
		<tag k="name" v="Langosen" />
		<tag k="natural" v="bay" />
		<tag k="ssr:stedsnr" v="562819" />
	</node>
	<node id="-690283" lat="67.9939444433" lon="15.812058338">
		<tag k="alt_name" v="Oteråga, l;Litl Oteråga" />
		<tag k="name" v="Litloteråga" />
		<tag k="ssr:stedsnr" v="562672" />
		<tag k="waterway" v="stream" />
	</node>
	<node id="-690282" lat="68.0976388892" lon="15.8981749989">
		<tag k="name" v="Jensvatnet" />
		<tag k="natural" v="water" />
		<tag k="ssr:stedsnr" v="562665" />
	</node>
	<node id="-690279" lat="67.7346777814" lon="16.2358416559">
		<tag k="name" v="Jávrregasska" />
		<tag k="name:smj" v="Jávrregasska" />
		<tag k="natural" v="water" />
		<tag k="old_name:smj" v="Jávregaska" />
		<tag k="ssr:stedsnr" v="562642" />
	</node>
	<node id="-690278" lat="68.0639249995" lon="15.8953222214">
		<tag k="name" v="Skilvatnet" />
		<tag k="natural" v="water" />
		<tag k="ssr:stedsnr" v="562638" />
		<tag k="water" v="lake" />
	</node>
	<node id="-690275" lat="68.0442111151" lon="15.9371416581">
		<tag k="alt_name" v="Småtjørnan" />
		<tag k="name" v="Småtjønnen" />
		<tag k="natural" v="water" />
		<tag k="ssr:stedsnr" v="562629" />
		<tag k="water" v="lake" />
	</node>
	<node id="-690264" lat="67.8246083298" lon="16.1161527682">
		<tag k="name" v="Rikanderstjørna" />
		<tag k="natural" v="water" />
		<tag k="ssr:stedsnr" v="562488" />
	</node>
	<node id="-690262" lat="67.8607777798" lon="15.9362444546">
		<tag k="name" v="Gilldanjárgga" />
		<tag k="name:smj" v="Gilldanjárgga" />
		<tag k="natural" v="cape" />
		<tag k="old_name:smj" v="Gildanjarga" />
		<tag k="ssr:stedsnr" v="562465" />
	</node>
	<node id="-690261" lat="67.7800861133" lon="15.9754750034">
		<tag k="name" v="Sagvatnan" />
		<tag k="natural" v="water" />
		<tag k="ssr:stedsnr" v="562463" />
		<tag k="water" v="lake" />
	</node>
	<node id="-690258" lat="67.8601166708" lon="16.0095027856">
		<tag k="name" v="Lappjordelva" />
		<tag k="ssr:stedsnr" v="562434" />
		<tag k="waterway" v="stream" />
	</node>
	<node id="-690255" lat="67.8765472258" lon="15.9303611168">
		<tag k="name" v="Revelva" />
		<tag k="ssr:stedsnr" v="562396" />
		<tag k="waterway" v="stream" />
	</node>
	<node id="-690251" lat="67.8968111136" lon="15.839175">
		<tag k="name" v="Lielva" />
		<tag k="ssr:stedsnr" v="562374" />
		<tag k="waterway" v="stream" />
	</node>
	<node id="-690249" lat="68.1320777804" lon="15.453558325">
		<tag k="name" v="Hamnesvatnet" />
		<tag k="natural" v="water" />
		<tag k="ssr:stedsnr" v="562101" />
	</node>
	<node id="-690245" lat="68.1329583354" lon="15.5380666787">
		<tag k="name" v="Skratnesvatnet" />
		<tag k="natural" v="water" />
		<tag k="ssr:stedsnr" v="562005" />
	</node>
	<node id="-690228" lat="68.0013166687" lon="15.9250805607">
		<tag k="name" v="Sommarsettjønna" />
		<tag k="natural" v="water" />
		<tag k="ssr:stedsnr" v="534723" />
	</node>
	<node id="-690223" lat="68.1405583348" lon="15.9358250014">
		<tag k="name" v="Nøkkvasselva" />
		<tag k="ssr:stedsnr" v="534696" />
		<tag k="waterway" v="stream" />
	</node>
	<node id="-690219" lat="68.0008388917" lon="15.6367277669">
		<tag k="name" v="Litlvatnet" />
		<tag k="natural" v="water" />
		<tag k="ssr:stedsnr" v="534673" />
	</node>
	<node id="-690206" lat="68.1215527764" lon="15.4447277724">
		<tag k="name" v="Vesterelva" />
		<tag k="ssr:stedsnr" v="534530" />
		<tag k="waterway" v="stream" />
	</node>
	<node id="-690194" lat="68.07977222" lon="15.90639722">
		<tag k="name" v="Laksvika" />
		<tag k="natural" v="bay" />
		<tag k="ssr:stedsnr" v="534343" />
	</node>
</osm>
