<?xml version="1.0" encoding="UTF-8"?>
<osm generator="osmapis" version="0.6">
	<node id="-688828" lat="67.8961694405" lon="15.8610833277">
		<tag k="cemetery" v="grave" />
		<tag k="loc_name:smj" v="Vuohpe hávddádimsadje" />
		<tag k="name" v="Tømmerneset kirkegård" />
		<tag k="name:no" v="Tømmerneset kirkegård" />
		<tag k="place" v="locality" />
		<tag k="ssr:stedsnr" v="412017" />
	</node>
	<node id="-691030" lat="68.0837694469" lon="15.6381166765">
		<tag k="amenity" v="place_of_worship" />
		<tag k="denomination" v="lutheran" />
		<tag k="name" v="Hamarøy kirke" />
		<tag k="religion" v="christian" />
		<tag k="ssr:stedsnr" v="805619" />
	</node>
	<node id="-691378" lat="68.1285333346" lon="15.885180561">
		<tag k="name" v="Utsikten" />
		<tag k="ssr:stedsnr" v="927708" />
		<tag k="tourism" v="attraction" />
	</node>
	<node id="-690220" lat="68.1544777812" lon="15.6526083409">
		<tag k="amenity" v="community_centre" />
		<tag k="name" v="Lyngheim" />
		<tag k="ssr:stedsnr" v="534682" />
	</node>
	<node id="-690314" lat="67.9997972198" lon="15.7677694528">
		<tag k="amenity" v="place_of_worship" />
		<tag k="denomination" v="lutheran" />
		<tag k="fixme" v="multiple name tags, choose one and add the other to alt_name" />
		<tag k="name" v="Karlsøy kapell;Sagfjord kirke" />
		<tag k="religion" v="christian" />
		<tag k="ssr:stedsnr" v="563524" />
	</node>
	<node id="-690252" lat="67.8968555553" lon="15.863100008">
		<tag k="alt_name" v="Tømmerneset" />
		<tag k="amenity" v="place_of_worship" />
		<tag k="denomination" v="lutheran" />
		<tag k="name" v="Tømmerneset kirke" />
		<tag k="religion" v="christian" />
		<tag k="ssr:stedsnr" v="562375" />
	</node>
	<node id="-690373" lat="68.162941663" lon="15.7103416596">
		<tag k="name" v="Tjærmila" />
		<tag k="place" v="locality" />
		<tag k="ssr:stedsnr" v="594202" />
	</node>
</osm>
