<?xml version="1.0" encoding="UTF-8"?>
<osm version="0.6" generator="osmapis">
	<node id="126452464" lat="61.3635884" lon="5.4002921" version="10" timestamp="2022-08-22T16:09:52Z" changeset="125234565" uid="3497659" user="NKA">
		<tag k="alt_name" v="Dale i Sunnfjord" />
		<tag k="name" v="Dale" />
		<tag k="place" v="village" />
		<tag k="population" v="1184" />
		<tag k="population:date" v="2021-01-01" />
		<tag k="ref:ssb_tettsted" v="5622" />
		<tag k="source:population" v="SSB - befolkning i tettstedet" />
		<tag k="ssr:stedsnr" v="796326" />
		<tag k="wikidata" v="Q1783017" />
		<tag k="wikipedia" v="en:Dale, Fjaler" />
	</node>
	<node id="126468189" lat="61.3187823" lon="5.36109" version="5" timestamp="2022-08-22T16:09:52Z" changeset="125234565" uid="3497659" user="NKA">
		<tag k="name" v="Flekke" />
		<tag k="place" v="village" />
		<tag k="population" v="280" />
		<tag k="population:date" v="2021-01-01" />
		<tag k="ref:ssb_tettsted" v="5623" />
		<tag k="source:population" v="SSB - befolkning i tettstedet" />
		<tag k="ssr:stedsnr" v="311490" />
	</node>
	<node id="126477714" lat="61.3450845" lon="5.2663885" version="3" timestamp="2022-08-22T16:09:52Z" changeset="125234565" uid="3497659" user="NKA">
		<tag k="name" v="Tysse" />
		<tag k="place" v="hamlet" />
		<tag k="ssr:stedsnr" v="250343" />
	</node>
	<node id="126485262" lat="61.3011375" lon="5.1729222" version="5" timestamp="2022-08-22T16:09:52Z" changeset="125234565" uid="3497659" user="NKA">
		<tag k="alt_name" v="Hellevik;Hellevik i Fjaler" />
		<tag k="name" v="Hellevika" />
		<tag k="place" v="hamlet" />
		<tag k="population" v="150" />
		<tag k="ssr:stedsnr" v="614483" />
	</node>
	<node id="1547313625" lat="61.3534751" lon="5.4205286" version="3" timestamp="2022-08-22T16:09:52Z" changeset="125234565" uid="3497659" user="NKA">
		<tag k="name" v="Torset" />
		<tag k="place" v="farm" />
		<tag k="ssr:stedsnr" v="372372" />
	</node>
	<node id="4032558229" lat="61.3023777" lon="5.158215" version="2" timestamp="2022-08-22T16:09:52Z" changeset="125234565" uid="3497659" user="NKA">
		<tag k="name" v="Høgtun" />
		<tag k="place" v="farm" />
		<tag k="ssr:stedsnr" v="94756" />
	</node>
	<node id="5783442047" lat="61.2479501" lon="5.397028" version="2" timestamp="2022-08-22T16:09:52Z" changeset="125234565" uid="3497659" user="NKA">
		<tag k="alt_name" v="Nautsund" />
		<tag k="name" v="Nautsundet" />
		<tag k="place" v="hamlet" />
		<tag k="ssr:stedsnr" v="858409" />
	</node>
	<node id="6214191496" lat="61.3450477" lon="5.203979" version="2" timestamp="2022-08-22T16:09:52Z" changeset="125234565" uid="3497659" user="NKA">
		<tag k="alt_name" v="Straumsnes" />
		<tag k="name" v="Straumsneset" />
		<tag k="place" v="hamlet" />
		<tag k="ssr:stedsnr" v="553320" />
	</node>
	<node id="6216715408" lat="61.2540531" lon="4.9937578" version="2" timestamp="2022-08-22T16:09:52Z" changeset="125234565" uid="3497659" user="NKA">
		<tag k="alt_name" v="Korssund" />
		<tag k="name" v="Korssundet" />
		<tag k="place" v="hamlet" />
		<tag k="ssr:stedsnr" v="190014" />
	</node>
	<node id="8164938094" lat="61.2943834" lon="5.1125445" version="2" timestamp="2022-08-22T16:09:52Z" changeset="125234565" uid="3497659" user="NKA">
		<tag k="alt_name" v="Håvåg" />
		<tag k="name" v="Håvågen" />
		<tag k="place" v="hamlet" />
		<tag k="population" v="50" />
		<tag k="ssr:stedsnr" v="7371" />
	</node>
	<node id="8164938095" lat="61.2970199" lon="5.0717711" version="2" timestamp="2022-08-22T16:09:52Z" changeset="125234565" uid="3497659" user="NKA">
		<tag k="name" v="Fure" />
		<tag k="place" v="hamlet" />
		<tag k="population" v="100" />
		<tag k="ssr:stedsnr" v="493076" />
	</node>
	<node id="8164938096" lat="61.2867357" lon="5.0245415" version="2" timestamp="2022-08-22T16:09:52Z" changeset="125234565" uid="3497659" user="NKA">
		<tag k="name" v="Grytøyra" />
		<tag k="place" v="hamlet" />
		<tag k="population" v="100" />
		<tag k="ssr:stedsnr" v="614080" />
	</node>
	<node id="8164938097" lat="61.274314" lon="5.0262532" version="2" timestamp="2022-08-22T16:09:52Z" changeset="125234565" uid="3497659" user="NKA">
		<tag k="name" v="Våge" />
		<tag k="place" v="hamlet" />
		<tag k="ssr:stedsnr" v="918132" />
	</node>
	<node id="8164938098" lat="61.259851" lon="5.0315949" version="2" timestamp="2022-08-22T16:09:52Z" changeset="125234565" uid="3497659" user="NKA">
		<tag k="name" v="Folkestad" />
		<tag k="place" v="hamlet" />
		<tag k="population" v="150" />
		<tag k="ssr:stedsnr" v="971431" />
	</node>
	<node id="8164938099" lat="61.3368718" lon="5.2031236" version="2" timestamp="2022-08-22T16:09:52Z" changeset="125234565" uid="3497659" user="NKA">
		<tag k="name" v="Åsnes" />
		<tag k="place" v="hamlet" />
		<tag k="population" v="200" />
		<tag k="ssr:stedsnr" v="111365" />
	</node>
	<node id="8164938101" lat="61.286322" lon="5.1874955" version="2" timestamp="2022-08-22T16:09:52Z" changeset="125234565" uid="3497659" user="NKA">
		<tag k="name" v="Lone" />
		<tag k="place" v="hamlet" />
		<tag k="population" v="40" />
		<tag k="ssr:stedsnr" v="8468" />
	</node>
	<node id="8164938102" lat="61.3068898" lon="5.2316805" version="2" timestamp="2022-08-22T16:09:52Z" changeset="125234565" uid="3497659" user="NKA">
		<tag k="name" v="Gjølanger" />
		<tag k="place" v="hamlet" />
		<tag k="population" v="30" />
		<tag k="ssr:stedsnr" v="796494" />
	</node>
	<node id="8164938103" lat="61.2940451" lon="5.1380508" version="2" timestamp="2022-08-22T16:09:52Z" changeset="125234565" uid="3497659" user="NKA">
		<tag k="alt_name" v="Hatlevik" />
		<tag k="name" v="Haslevika" />
		<tag k="place" v="hamlet" />
		<tag k="population" v="50" />
		<tag k="ssr:stedsnr" v="7370" />
	</node>
	<node id="8164938105" lat="61.3343463" lon="5.3356031" version="2" timestamp="2022-08-22T16:09:52Z" changeset="125234565" uid="3497659" user="NKA">
		<tag k="alt_name" v="Hovland" />
		<tag k="name" v="Haugland" />
		<tag k="place" v="hamlet" />
		<tag k="population" v="200" />
		<tag k="ssr:stedsnr" v="553240" />
	</node>
	<node id="8164938106" lat="61.3127465" lon="5.5510064" version="2" timestamp="2022-08-22T16:09:52Z" changeset="125234565" uid="3497659" user="NKA">
		<tag k="name" v="Steiestølen" />
		<tag k="place" v="farm" />
		<tag k="ssr:stedsnr" v="736150" />
	</node>
	<node id="8598921936" lat="61.3660155" lon="5.5400137" version="2" timestamp="2022-08-22T16:09:52Z" changeset="125234565" uid="3497659" user="NKA">
		<tag k="name" v="Nygard" />
		<tag k="place" v="farm" />
		<tag k="ssr:stedsnr" v="554940" />
	</node>
	<node id="9970335182" lat="61.3674778" lon="5.4217005" version="1" timestamp="2022-08-22T16:09:52Z" changeset="125234565" uid="3497659" user="NKA">
		<tag k="historic" v="shieling" />
		<tag k="name" v="Nitterstølen" />
		<tag k="place" v="isolated_dwelling" />
		<tag k="ssr:stedsnr" v="796166" />
	</node>
	<node id="9970335183" lat="61.2883111" lon="5.1329172" version="1" timestamp="2022-08-22T16:09:52Z" changeset="125234565" uid="3497659" user="NKA">
		<tag k="name" v="Saga" />
		<tag k="place" v="farm" />
		<tag k="ssr:stedsnr" v="371368" />
	</node>
	<node id="9970335184" lat="61.3465089" lon="5.4210547" version="1" timestamp="2022-08-22T16:09:52Z" changeset="125234565" uid="3497659" user="NKA">
		<tag k="alt_name" v="Rising;Risting" />
		<tag k="name" v="Ristinga" />
		<tag k="place" v="farm" />
		<tag k="ssr:stedsnr" v="68265" />
	</node>
	<node id="9970335185" lat="61.3141992" lon="5.5096338" version="1" timestamp="2022-08-22T16:09:52Z" changeset="125234565" uid="3497659" user="NKA">
		<tag k="alt_name" v="Sunndalen, nedre;Sunndalen" />
		<tag k="name" v="Nedre Sunndalen" />
		<tag k="place" v="farm" />
		<tag k="ssr:stedsnr" v="918072" />
	</node>
	<node id="9970335186" lat="61.255857" lon="5.5336515" version="1" timestamp="2022-08-22T16:09:52Z" changeset="125234565" uid="3497659" user="NKA">
		<tag k="name" v="Huseklepp" />
		<tag k="place" v="farm" />
		<tag k="ssr:stedsnr" v="796238" />
	</node>
	<node id="9970335187" lat="61.295825" lon="5.2048673" version="1" timestamp="2022-08-22T16:09:52Z" changeset="125234565" uid="3497659" user="NKA">
		<tag k="alt_name" v="Melkevik" />
		<tag k="name" v="Mekevika" />
		<tag k="place" v="farm" />
		<tag k="ssr:stedsnr" v="189462" />
	</node>
	<node id="9970335188" lat="61.3015792" lon="5.2051588" version="1" timestamp="2022-08-22T16:09:52Z" changeset="125234565" uid="3497659" user="NKA">
		<tag k="alt_name" v="Aurevåg" />
		<tag k="name" v="Aurevågen" />
		<tag k="place" v="farm" />
		<tag k="ssr:stedsnr" v="189463" />
	</node>
	<node id="9970335189" lat="61.3690083" lon="5.4346366" version="1" timestamp="2022-08-22T16:09:52Z" changeset="125234565" uid="3497659" user="NKA">
		<tag k="name" v="Lemmane" />
		<tag k="place" v="locality" />
		<tag k="ssr:stedsnr" v="68169" />
	</node>
	<node id="9970335190" lat="61.3346138" lon="5.4135588" version="1" timestamp="2022-08-22T16:09:52Z" changeset="125234565" uid="3497659" user="NKA">
		<tag k="name" v="Selbakken" />
		<tag k="place" v="farm" />
		<tag k="ssr:stedsnr" v="7291" />
	</node>
	<node id="9970335191" lat="61.2645083" lon="5.5868643" version="1" timestamp="2022-08-22T16:09:52Z" changeset="125234565" uid="3497659" user="NKA">
		<tag k="alt_name" v="Tulandstølane" />
		<tag k="historic" v="shieling" />
		<tag k="name" v="Tuvelandsstølen" />
		<tag k="place" v="isolated_dwelling" />
		<tag k="ssr:stedsnr" v="735191" />
	</node>
	<node id="9970335192" lat="61.2705861" lon="5.6059143" version="1" timestamp="2022-08-22T16:09:52Z" changeset="125234565" uid="3497659" user="NKA">
		<tag k="historic" v="shieling" />
		<tag k="name" v="Auvasstølen" />
		<tag k="place" v="isolated_dwelling" />
		<tag k="ssr:stedsnr" v="735189" />
	</node>
	<node id="9970335193" lat="61.3502784" lon="5.4111646" version="1" timestamp="2022-08-22T16:09:52Z" changeset="125234565" uid="3497659" user="NKA">
		<tag k="name" v="Haugen" />
		<tag k="place" v="hamlet" />
		<tag k="ssr:stedsnr" v="736336" />
	</node>
	<node id="9970335194" lat="61.3726631" lon="5.4786982" version="1" timestamp="2022-08-22T16:09:52Z" changeset="125234565" uid="3497659" user="NKA">
		<tag k="alt_name" v="Strandenes" />
		<tag k="name" v="Strandanes" />
		<tag k="place" v="farm" />
		<tag k="ssr:stedsnr" v="736966" />
	</node>
	<node id="9970335195" lat="61.2479719" lon="5.4361947" version="1" timestamp="2022-08-22T16:09:52Z" changeset="125234565" uid="3497659" user="NKA">
		<tag k="alt_name" v="Porsemyra" />
		<tag k="name" v="Myrane" />
		<tag k="place" v="farm" />
		<tag k="ssr:stedsnr" v="701558" />
	</node>
	<node id="9970335196" lat="61.3206398" lon="5.5097149" version="1" timestamp="2022-08-22T16:09:52Z" changeset="125234565" uid="3497659" user="NKA">
		<tag k="name" v="Åse" />
		<tag k="place" v="farm" />
		<tag k="ssr:stedsnr" v="250071" />
	</node>
	<node id="9970335197" lat="61.3735666" lon="5.4488393" version="1" timestamp="2022-08-22T16:09:52Z" changeset="125234565" uid="3497659" user="NKA">
		<tag k="name" v="Fløgarden" />
		<tag k="place" v="farm" />
		<tag k="ssr:stedsnr" v="858130" />
	</node>
	<node id="9970335198" lat="61.21015" lon="5.4542921" version="1" timestamp="2022-08-22T16:09:52Z" changeset="125234565" uid="3497659" user="NKA">
		<tag k="historic" v="shieling" />
		<tag k="name" v="Hovlandsdalsstølen" />
		<tag k="place" v="isolated_dwelling" />
		<tag k="ssr:stedsnr" v="130635" />
	</node>
	<node id="9970335199" lat="61.3616778" lon="5.4302672" version="1" timestamp="2022-08-22T16:09:52Z" changeset="125234565" uid="3497659" user="NKA">
		<tag k="name" v="Ysteinstad" />
		<tag k="place" v="locality" />
		<tag k="ssr:stedsnr" v="675350" />
	</node>
	<node id="9970335200" lat="61.3389591" lon="5.5129039" version="1" timestamp="2022-08-22T16:09:52Z" changeset="125234565" uid="3497659" user="NKA">
		<tag k="alt_name" v="Indre Nordal;Norddalen, in" />
		<tag k="name" v="Indre Norddalen" />
		<tag k="place" v="farm" />
		<tag k="ssr:stedsnr" v="675065" />
	</node>
	<node id="9970335201" lat="61.3459022" lon="5.4436911" version="1" timestamp="2022-08-22T16:09:52Z" changeset="125234565" uid="3497659" user="NKA">
		<tag k="alt_name" v="Løsetvollen" />
		<tag k="name" v="Vollen" />
		<tag k="place" v="farm" />
		<tag k="ssr:stedsnr" v="371252" />
	</node>
	<node id="9970335202" lat="61.2754389" lon="5.436206" version="1" timestamp="2022-08-22T16:09:52Z" changeset="125234565" uid="3497659" user="NKA">
		<tag k="alt_name" v="Øvre Bjordal;Bjørdalen, øvre" />
		<tag k="name" v="Øvre Bjordalen" />
		<tag k="place" v="farm" />
		<tag k="ssr:stedsnr" v="420614" />
	</node>
	<node id="9970335203" lat="61.32182" lon="5.4325844" version="1" timestamp="2022-08-22T16:09:52Z" changeset="125234565" uid="3497659" user="NKA">
		<tag k="name" v="Strand" />
		<tag k="place" v="hamlet" />
		<tag k="ssr:stedsnr" v="493437" />
	</node>
	<node id="9970335204" lat="61.3381015" lon="5.4170878" version="1" timestamp="2022-08-22T16:09:52Z" changeset="125234565" uid="3497659" user="NKA">
		<tag k="name" v="Håland" />
		<tag k="place" v="hamlet" />
		<tag k="ssr:stedsnr" v="311359" />
	</node>
	<node id="9970335205" lat="61.324059" lon="5.465322" version="1" timestamp="2022-08-22T16:09:52Z" changeset="125234565" uid="3497659" user="NKA">
		<tag k="alt_name" v="Myklebust" />
		<tag k="name" v="Myklebost" />
		<tag k="place" v="hamlet" />
		<tag k="ssr:stedsnr" v="190455" />
	</node>
	<node id="9970335206" lat="61.3421339" lon="5.4125891" version="1" timestamp="2022-08-22T16:09:52Z" changeset="125234565" uid="3497659" user="NKA">
		<tag k="alt_name" v="Haugsbakke" />
		<tag k="name" v="Gota" />
		<tag k="old_name" v="Haugsbakk" />
		<tag k="place" v="farm" />
		<tag k="ssr:stedsnr" v="371249" />
	</node>
	<node id="9970335207" lat="61.2782779" lon="5.1262395" version="1" timestamp="2022-08-22T16:09:52Z" changeset="125234565" uid="3497659" user="NKA">
		<tag k="alt_name" v="Kviteblik" />
		<tag k="name" v="Kvitebliket" />
		<tag k="place" v="farm" />
		<tag k="ssr:stedsnr" v="69435" />
	</node>
	<node id="9970335208" lat="61.3164128" lon="5.3455411" version="1" timestamp="2022-08-22T16:09:52Z" changeset="125234565" uid="3497659" user="NKA">
		<tag k="alt_name" v="Soleim" />
		<tag k="name" v="Solheim" />
		<tag k="place" v="hamlet" />
		<tag k="ssr:stedsnr" v="675484" />
	</node>
	<node id="9970335209" lat="61.3484176" lon="5.4294624" version="1" timestamp="2022-08-22T16:09:52Z" changeset="125234565" uid="3497659" user="NKA">
		<tag k="alt_name" v="Ormhaugen;Ormehaug;Ormehaugane" />
		<tag k="loc_name" v="Ormhaugane" />
		<tag k="name" v="Ormehaugen" />
		<tag k="place" v="farm" />
		<tag k="ssr:stedsnr" v="917216" />
	</node>
	<node id="9970335210" lat="61.3577589" lon="5.2999338" version="1" timestamp="2022-08-22T16:09:52Z" changeset="125234565" uid="3497659" user="NKA">
		<tag k="name" v="Hegreneset" />
		<tag k="natural" v="cape" />
		<tag k="ssr:stedsnr" v="973948" />
	</node>
	<node id="9970335211" lat="61.3624291" lon="5.5585099" version="1" timestamp="2022-08-22T16:09:52Z" changeset="125234565" uid="3497659" user="NKA">
		<tag k="alt_name" v="Sagevik" />
		<tag k="name" v="Sagevika" />
		<tag k="place" v="farm" />
		<tag k="ssr:stedsnr" v="918941" />
	</node>
	<node id="9970335212" lat="61.3419277" lon="5.4195819" version="1" timestamp="2022-08-22T16:09:52Z" changeset="125234565" uid="3497659" user="NKA">
		<tag k="name" v="Fristad" />
		<tag k="place" v="farm" />
		<tag k="ssr:stedsnr" v="189232" />
	</node>
	<node id="9970335213" lat="61.2666639" lon="5.4600643" version="1" timestamp="2022-08-22T16:09:52Z" changeset="125234565" uid="3497659" user="NKA">
		<tag k="alt_name" v="Bjordalstølen" />
		<tag k="historic" v="shieling" />
		<tag k="name" v="Bjordalsflorane" />
		<tag k="place" v="isolated_dwelling" />
		<tag k="ssr:stedsnr" v="857539" />
	</node>
	<node id="9970335214" lat="61.3043667" lon="5.4849311" version="1" timestamp="2022-08-22T16:09:52Z" changeset="125234565" uid="3497659" user="NKA">
		<tag k="historic" v="shieling" />
		<tag k="name" v="Haugsstølen" />
		<tag k="place" v="isolated_dwelling" />
		<tag k="ssr:stedsnr" v="857121" />
	</node>
	<node id="9970335215" lat="61.3248478" lon="5.5009522" version="1" timestamp="2022-08-22T16:09:52Z" changeset="125234565" uid="3497659" user="NKA">
		<tag k="name" v="Grønlia" />
		<tag k="place" v="farm" />
		<tag k="ssr:stedsnr" v="857090" />
	</node>
	<node id="9970335216" lat="61.3701195" lon="5.4250894" version="1" timestamp="2022-08-22T16:09:52Z" changeset="125234565" uid="3497659" user="NKA">
		<tag k="alt_name" v="Øststølen" />
		<tag k="historic" v="shieling" />
		<tag k="name" v="Øvstestølen" />
		<tag k="place" v="isolated_dwelling" />
		<tag k="ssr:stedsnr" v="857180" />
	</node>
	<node id="9970344517" lat="61.3039944" lon="5.2166617" version="1" timestamp="2022-08-22T16:09:52Z" changeset="125234565" uid="3497659" user="NKA">
		<tag k="alt_name" v="Nausta" />
		<tag k="name" v="Naustane" />
		<tag k="place" v="isolated_dwelling" />
		<tag k="ssr:stedsnr" v="371482" />
	</node>
	<node id="9970344518" lat="61.2702639" lon="5.4816144" version="1" timestamp="2022-08-22T16:09:52Z" changeset="125234565" uid="3497659" user="NKA">
		<tag k="historic" v="shieling" />
		<tag k="name" v="Brekkestølen" />
		<tag k="place" v="isolated_dwelling" />
		<tag k="ssr:stedsnr" v="8179" />
	</node>
	<node id="9970344519" lat="61.3246945" lon="5.2410005" version="1" timestamp="2022-08-22T16:09:52Z" changeset="125234565" uid="3497659" user="NKA">
		<tag k="alt_name" v="Nedgardstølane" />
		<tag k="historic" v="shieling" />
		<tag k="name" v="Nedgardsstølen" />
		<tag k="place" v="isolated_dwelling" />
		<tag k="ssr:stedsnr" v="371284" />
	</node>
	<node id="9970344520" lat="61.3709366" lon="5.4855581" version="1" timestamp="2022-08-22T16:09:52Z" changeset="125234565" uid="3497659" user="NKA">
		<tag k="name" v="Strand" />
		<tag k="place" v="farm" />
		<tag k="ssr:stedsnr" v="8970" />
	</node>
	<node id="9970344521" lat="61.3126669" lon="5.5141302" version="1" timestamp="2022-08-22T16:09:52Z" changeset="125234565" uid="3497659" user="NKA">
		<tag k="alt_name" v="Tømmerbakk" />
		<tag k="name" v="Timrebakken" />
		<tag k="place" v="farm" />
		<tag k="ssr:stedsnr" v="8153" />
	</node>
	<node id="9970344522" lat="61.3165997" lon="5.2586633" version="1" timestamp="2022-08-22T16:09:52Z" changeset="125234565" uid="3497659" user="NKA">
		<tag k="name" v="Stranda" />
		<tag k="place" v="farm" />
		<tag k="ssr:stedsnr" v="553285" />
	</node>
	<node id="9970344523" lat="61.2810861" lon="5.5168337" version="1" timestamp="2022-08-22T16:09:52Z" changeset="125234565" uid="3497659" user="NKA">
		<tag k="historic" v="shieling" />
		<tag k="name" v="Bogestølen" />
		<tag k="place" v="isolated_dwelling" />
		<tag k="ssr:stedsnr" v="8193" />
	</node>
	<node id="9970344524" lat="61.3615361" lon="5.3684254" version="1" timestamp="2022-08-22T16:09:52Z" changeset="125234565" uid="3497659" user="NKA">
		<tag k="alt_name" v="Bjerganeset" />
		<tag k="name" v="Bjergeneset" />
		<tag k="place" v="farm" />
		<tag k="ssr:stedsnr" v="311386" />
	</node>
	<node id="9970344525" lat="61.3761508" lon="5.4318943" version="1" timestamp="2022-08-22T16:09:52Z" changeset="125234565" uid="3497659" user="NKA">
		<tag k="alt_name" v="Setenes" />
		<tag k="name" v="Sætenes" />
		<tag k="place" v="farm" />
		<tag k="ssr:stedsnr" v="736137" />
	</node>
	<node id="9970344526" lat="61.3624528" lon="5.5271393" version="1" timestamp="2022-08-22T16:09:52Z" changeset="125234565" uid="3497659" user="NKA">
		<tag k="historic" v="shieling" />
		<tag k="name" v="Sundsstølen" />
		<tag k="place" v="isolated_dwelling" />
		<tag k="ssr:stedsnr" v="675933" />
	</node>
	<node id="9970344527" lat="61.294006" lon="5.0773284" version="1" timestamp="2022-08-22T16:09:52Z" changeset="125234565" uid="3497659" user="NKA">
		<tag k="name" v="Fureteigen" />
		<tag k="place" v="farm" />
		<tag k="ssr:stedsnr" v="356511" />
	</node>
	<node id="9970344528" lat="61.3339825" lon="5.2070146" version="1" timestamp="2022-08-22T16:09:52Z" changeset="125234565" uid="3497659" user="NKA">
		<tag k="name" v="Kalhagen" />
		<tag k="place" v="farm" />
		<tag k="ssr:stedsnr" v="337632" />
	</node>
	<node id="9970344529" lat="61.3027632" lon="5.1371604" version="1" timestamp="2022-08-22T16:09:52Z" changeset="125234565" uid="3497659" user="NKA">
		<tag k="name" v="Vågane" />
		<tag k="place" v="hamlet" />
		<tag k="ssr:stedsnr" v="857478" />
	</node>
	<node id="9970344530" lat="61.3222222" lon="5.492013" version="1" timestamp="2022-08-22T16:09:52Z" changeset="125234565" uid="3497659" user="NKA">
		<tag k="name" v="Brattelia" />
		<tag k="place" v="farm" />
		<tag k="ssr:stedsnr" v="493083" />
	</node>
	<node id="9970344531" lat="61.3696178" lon="5.539227" version="1" timestamp="2022-08-22T16:09:52Z" changeset="125234565" uid="3497659" user="NKA">
		<tag k="name" v="Nistadlia" />
		<tag k="place" v="farm" />
		<tag k="ssr:stedsnr" v="311974" />
	</node>
	<node id="9970344532" lat="61.2705886" lon="5.496655" version="1" timestamp="2022-08-22T16:09:52Z" changeset="125234565" uid="3497659" user="NKA">
		<tag k="alt_name" v="Ulvedal" />
		<tag k="name" v="Ulvdal" />
		<tag k="place" v="farm" />
		<tag k="ssr:stedsnr" v="736172" />
	</node>
	<node id="9970344533" lat="61.3277119" lon="5.4902626" version="1" timestamp="2022-08-22T16:09:52Z" changeset="125234565" uid="3497659" user="NKA">
		<tag k="name" v="Hauge" />
		<tag k="place" v="farm" />
		<tag k="ssr:stedsnr" v="189082" />
	</node>
	<node id="9970344534" lat="61.2530426" lon="5.560517" version="1" timestamp="2022-08-22T16:09:52Z" changeset="125234565" uid="3497659" user="NKA">
		<tag k="name" v="Kalstad" />
		<tag k="old_name" v="Karlstad" />
		<tag k="place" v="hamlet" />
		<tag k="ssr:stedsnr" v="432234" />
	</node>
	<node id="9970344535" lat="61.3667944" lon="5.4848837" version="1" timestamp="2022-08-22T16:09:52Z" changeset="125234565" uid="3497659" user="NKA">
		<tag k="alt_name" v="Rabbegjerdet" />
		<tag k="name" v="Rabbagjerdet" />
		<tag k="place" v="locality" />
		<tag k="ssr:stedsnr" v="858934" />
	</node>
	<node id="9970344536" lat="61.367184" lon="5.5584588" version="1" timestamp="2022-08-22T16:09:52Z" changeset="125234565" uid="3497659" user="NKA">
		<tag k="name" v="Nistad" />
		<tag k="place" v="farm" />
		<tag k="ssr:stedsnr" v="493936" />
	</node>
	<node id="9970344537" lat="61.2717527" lon="5.576556" version="1" timestamp="2022-08-22T16:09:52Z" changeset="125234565" uid="3497659" user="NKA">
		<tag k="alt_name" v="Fjellestølen" />
		<tag k="historic" v="shieling" />
		<tag k="name" v="Fjellsstølen" />
		<tag k="place" v="isolated_dwelling" />
		<tag k="ssr:stedsnr" v="8185" />
	</node>
	<node id="9970344538" lat="61.3455694" lon="5.5384894" version="1" timestamp="2022-08-22T16:09:52Z" changeset="125234565" uid="3497659" user="NKA">
		<tag k="historic" v="shieling" />
		<tag k="name" v="Nistadstølen" />
		<tag k="place" v="isolated_dwelling" />
		<tag k="ssr:stedsnr" v="68016" />
	</node>
	<node id="9970344539" lat="61.3709143" lon="5.5215119" version="1" timestamp="2022-08-22T16:09:52Z" changeset="125234565" uid="3497659" user="NKA">
		<tag k="name" v="Holmeli" />
		<tag k="place" v="farm" />
		<tag k="ssr:stedsnr" v="68955" />
	</node>
	<node id="9970344540" lat="61.3083" lon="5.2662756" version="1" timestamp="2022-08-22T16:09:52Z" changeset="125234565" uid="3497659" user="NKA">
		<tag k="name" v="Fagerhaug" />
		<tag k="place" v="farm" />
		<tag k="ssr:stedsnr" v="918527" />
	</node>
	<node id="9970344541" lat="61.3611" lon="5.5498671" version="1" timestamp="2022-08-22T16:09:52Z" changeset="125234565" uid="3497659" user="NKA">
		<tag k="name" v="Sagevikråsa" />
		<tag k="place" v="locality" />
		<tag k="ssr:stedsnr" v="8931" />
	</node>
	<node id="9970344542" lat="61.3143254" lon="5.2051688" version="1" timestamp="2022-08-22T16:09:52Z" changeset="125234565" uid="3497659" user="NKA">
		<tag k="alt_name" v="Langenes" />
		<tag k="name" v="Langeneset" />
		<tag k="place" v="farm" />
		<tag k="ssr:stedsnr" v="973947" />
	</node>
	<node id="9970344543" lat="61.3471288" lon="5.2705697" version="1" timestamp="2022-08-22T16:09:52Z" changeset="125234565" uid="3497659" user="NKA">
		<tag k="name" v="Leitet" />
		<tag k="place" v="farm" />
		<tag k="ssr:stedsnr" v="614336" />
	</node>
	<node id="9970344544" lat="61.3316803" lon="5.2205195" version="1" timestamp="2022-08-22T16:09:52Z" changeset="125234565" uid="3497659" user="NKA">
		<tag k="alt_name" v="Andalsvik" />
		<tag k="name" v="Agnalsvika" />
		<tag k="place" v="farm" />
		<tag k="ssr:stedsnr" v="675300" />
	</node>
	<node id="9970344545" lat="61.3342253" lon="5.2006958" version="1" timestamp="2022-08-22T16:09:52Z" changeset="125234565" uid="3497659" user="NKA">
		<tag k="alt_name" v="Åsnes Ytre" />
		<tag k="name" v="Ytre Åsnes" />
		<tag k="place" v="farm" />
		<tag k="ssr:stedsnr" v="840817" />
	</node>
	<node id="9970344546" lat="61.2820694" lon="5.2225755" version="1" timestamp="2022-08-22T16:09:52Z" changeset="125234565" uid="3497659" user="NKA">
		<tag k="name" v="Fremstemarka" />
		<tag k="place" v="locality" />
		<tag k="ssr:stedsnr" v="554454" />
	</node>
	<node id="9970344547" lat="61.3407944" lon="5.5004904" version="1" timestamp="2022-08-22T16:09:52Z" changeset="125234565" uid="3497659" user="NKA">
		<tag k="name" v="Norddalen" />
		<tag k="place" v="farm" />
		<tag k="ssr:stedsnr" v="974093" />
	</node>
	<node id="9970344548" lat="61.2777083" lon="5.2686033" version="1" timestamp="2022-08-22T16:09:52Z" changeset="125234565" uid="3497659" user="NKA">
		<tag k="historic" v="shieling" />
		<tag k="name" v="Gamlestølen" />
		<tag k="place" v="isolated_dwelling" />
		<tag k="ssr:stedsnr" v="554650" />
	</node>
	<node id="9970344549" lat="61.2336778" lon="5.485742" version="1" timestamp="2022-08-22T16:09:52Z" changeset="125234565" uid="3497659" user="NKA">
		<tag k="historic" v="shieling" />
		<tag k="name" v="Yndestadstølen" />
		<tag k="place" v="isolated_dwelling" />
		<tag k="ssr:stedsnr" v="859949" />
	</node>
	<node id="9970344550" lat="61.3403118" lon="5.2663549" version="1" timestamp="2022-08-22T16:09:52Z" changeset="125234565" uid="3497659" user="NKA">
		<tag k="name" v="Hauge" />
		<tag k="place" v="hamlet" />
		<tag k="ssr:stedsnr" v="69266" />
	</node>
	<node id="9970344551" lat="61.2826167" lon="5.6433977" version="1" timestamp="2022-08-22T16:09:52Z" changeset="125234565" uid="3497659" user="NKA">
		<tag k="alt_name" v="Stølen" />
		<tag k="historic" v="shieling" />
		<tag k="name" v="Steinsetstølen" />
		<tag k="place" v="isolated_dwelling" />
		<tag k="ssr:stedsnr" v="372193" />
	</node>
	<node id="9970344552" lat="61.3457139" lon="5.5385199" version="1" timestamp="2022-08-22T16:09:52Z" changeset="125234565" uid="3497659" user="NKA">
		<tag k="historic" v="shieling" />
		<tag k="name" v="Sagevikstølen" />
		<tag k="place" v="isolated_dwelling" />
		<tag k="ssr:stedsnr" v="8004" />
	</node>
	<node id="9970344553" lat="61.2322388" lon="5.4652671" version="1" timestamp="2022-08-22T16:09:52Z" changeset="125234565" uid="3497659" user="NKA">
		<tag k="name" v="Espenesstølen" />
		<tag k="place" v="locality" />
		<tag k="ssr:stedsnr" v="555602" />
	</node>
	<node id="9970344554" lat="61.3062528" lon="5.5306727" version="1" timestamp="2022-08-22T16:09:52Z" changeset="125234565" uid="3497659" user="NKA">
		<tag k="historic" v="shieling" />
		<tag k="name" v="Mykleboststølen" />
		<tag k="place" v="isolated_dwelling" />
		<tag k="ssr:stedsnr" v="129170" />
	</node>
	<node id="9970344555" lat="61.2720361" lon="5.5789338" version="1" timestamp="2022-08-22T16:09:52Z" changeset="125234565" uid="3497659" user="NKA">
		<tag k="historic" v="shieling" />
		<tag k="name" v="Øyrastølen" />
		<tag k="place" v="isolated_dwelling" />
		<tag k="ssr:stedsnr" v="372178" />
	</node>
	<node id="9970344556" lat="61.2286139" lon="5.4285199" version="1" timestamp="2022-08-22T16:09:52Z" changeset="125234565" uid="3497659" user="NKA">
		<tag k="name" v="Kviene" />
		<tag k="place" v="farm" />
		<tag k="ssr:stedsnr" v="555623" />
	</node>
	<node id="9970344557" lat="61.3697583" lon="5.5060865" version="1" timestamp="2022-08-22T16:09:52Z" changeset="125234565" uid="3497659" user="NKA">
		<tag k="name" v="Kviene" />
		<tag k="place" v="farm" />
		<tag k="ssr:stedsnr" v="493963" />
	</node>
	<node id="9970344558" lat="61.232027" lon="5.6055522" version="1" timestamp="2022-08-22T16:09:52Z" changeset="125234565" uid="3497659" user="NKA">
		<tag k="name" v="Langeland" />
		<tag k="place" v="hamlet" />
		<tag k="ssr:stedsnr" v="677000" />
	</node>
	<node id="9970344559" lat="61.2771445" lon="5.5285115" version="1" timestamp="2022-08-22T16:09:52Z" changeset="125234565" uid="3497659" user="NKA">
		<tag k="historic" v="shieling" />
		<tag k="name" v="Husekleppstølen" />
		<tag k="place" v="isolated_dwelling" />
		<tag k="ssr:stedsnr" v="129187" />
	</node>
	<node id="9970344560" lat="61.2280167" lon="5.5841838" version="1" timestamp="2022-08-22T16:09:52Z" changeset="125234565" uid="3497659" user="NKA">
		<tag k="name" v="Skogly" />
		<tag k="place" v="farm" />
		<tag k="ssr:stedsnr" v="312989" />
	</node>
	<node id="9970344561" lat="61.2415618" lon="5.5509371" version="1" timestamp="2022-08-22T16:09:52Z" changeset="125234565" uid="3497659" user="NKA">
		<tag k="name" v="Tuland" />
		<tag k="place" v="farm" />
		<tag k="ssr:stedsnr" v="252946" />
	</node>
	<node id="9970344562" lat="61.2613563" lon="5.4943234" version="1" timestamp="2022-08-22T16:09:52Z" changeset="125234565" uid="3497659" user="NKA">
		<tag k="alt_name" v="Løbrot" />
		<tag k="name" v="Løbrotet" />
		<tag k="place" v="farm" />
		<tag k="ssr:stedsnr" v="129233" />
	</node>
	<node id="9970344563" lat="61.3705694" lon="5.4302893" version="1" timestamp="2022-08-22T16:09:52Z" changeset="125234565" uid="3497659" user="NKA">
		<tag k="historic" v="shieling" />
		<tag k="name" v="Sætenesstølen" />
		<tag k="place" v="isolated_dwelling" />
		<tag k="ssr:stedsnr" v="822601" />
	</node>
	<node id="9970344564" lat="61.2649917" lon="5.6472781" version="1" timestamp="2022-08-22T16:09:52Z" changeset="125234565" uid="3497659" user="NKA">
		<tag k="name" v="Nordheim" />
		<tag k="place" v="isolated_dwelling" />
		<tag k="ssr:stedsnr" v="7187" />
	</node>
	<node id="9970344565" lat="61.2809695" lon="5.523881" version="1" timestamp="2022-08-22T16:09:52Z" changeset="125234565" uid="3497659" user="NKA">
		<tag k="name" v="Løyna" />
		<tag k="place" v="locality" />
		<tag k="ssr:stedsnr" v="858185" />
	</node>
	<node id="9970344566" lat="61.2990945" lon="5.1537005" version="1" timestamp="2022-08-22T16:09:52Z" changeset="125234565" uid="3497659" user="NKA">
		<tag k="alt_name" v="Breivåg" />
		<tag k="name" v="Breidvågen" />
		<tag k="place" v="farm" />
		<tag k="ssr:stedsnr" v="917451" />
	</node>
	<node id="9970344567" lat="61.2205806" lon="5.5397587" version="1" timestamp="2022-08-22T16:09:52Z" changeset="125234565" uid="3497659" user="NKA">
		<tag k="historic" v="shieling" />
		<tag k="name" v="Engjestølen" />
		<tag k="place" v="isolated_dwelling" />
		<tag k="ssr:stedsnr" v="373983" />
	</node>
	<node id="9970344568" lat="61.334208" lon="5.2731108" version="1" timestamp="2022-08-22T16:09:52Z" changeset="125234565" uid="3497659" user="NKA">
		<tag k="alt_name" v="Engebøhaug" />
		<tag k="name" v="Engjabøhaugane" />
		<tag k="place" v="farm" />
		<tag k="ssr:stedsnr" v="857300" />
	</node>
	<node id="9970344569" lat="61.2395664" lon="5.5683313" version="1" timestamp="2022-08-22T16:09:52Z" changeset="125234565" uid="3497659" user="NKA">
		<tag k="alt_name" v="Ødemark" />
		<tag k="name" v="Fjellet" />
		<tag k="place" v="farm" />
		<tag k="ssr:stedsnr" v="859941" />
	</node>
	<node id="9970344570" lat="61.2342668" lon="5.5808336" version="1" timestamp="2022-08-22T16:09:52Z" changeset="125234565" uid="3497659" user="NKA">
		<tag k="alt_name" v="Dingsøyr" />
		<tag k="name" v="Dyngsøyra" />
		<tag k="place" v="hamlet" />
		<tag k="ssr:stedsnr" v="191987" />
	</node>
	<node id="9970344571" lat="61.2501336" lon="5.5342044" version="1" timestamp="2022-08-22T16:09:52Z" changeset="125234565" uid="3497659" user="NKA">
		<tag k="name" v="Øyra" />
		<tag k="place" v="farm" />
		<tag k="ssr:stedsnr" v="857284" />
	</node>
	<node id="9970344572" lat="61.2642632" lon="5.0281324" version="1" timestamp="2022-08-22T16:09:52Z" changeset="125234565" uid="3497659" user="NKA">
		<tag k="alt_name" v="Skår" />
		<tag k="name" v="Skor" />
		<tag k="place" v="farm" />
		<tag k="ssr:stedsnr" v="796089" />
	</node>
	<node id="9970344573" lat="61.3271902" lon="5.3535709" version="1" timestamp="2022-08-22T16:09:52Z" changeset="125234565" uid="3497659" user="NKA">
		<tag k="alt_name" v="Igelkjøn" />
		<tag k="name" v="Igeltjern" />
		<tag k="place" v="hamlet" />
		<tag k="ssr:stedsnr" v="614293" />
	</node>
	<node id="9970344574" lat="61.3167417" lon="5.3730894" version="1" timestamp="2022-08-22T16:09:52Z" changeset="125234565" uid="3497659" user="NKA">
		<tag k="name" v="Vellene" />
		<tag k="place" v="farm" />
		<tag k="ssr:stedsnr" v="129465" />
	</node>
	<node id="9970344575" lat="61.3403372" lon="5.2171418" version="1" timestamp="2022-08-22T16:09:52Z" changeset="125234565" uid="3497659" user="NKA">
		<tag k="name" v="Storekleiva" />
		<tag k="place" v="isolated_dwelling" />
		<tag k="ssr:stedsnr" v="989593" />
	</node>
	<node id="9970344576" lat="61.2325697" lon="5.4374595" version="1" timestamp="2022-08-22T16:09:52Z" changeset="125234565" uid="3497659" user="NKA">
		<tag k="name" v="Bakkane" />
		<tag k="place" v="farm" />
		<tag k="ssr:stedsnr" v="312623" />
	</node>
	<node id="9970344577" lat="61.2752639" lon="5.5186171" version="1" timestamp="2022-08-22T16:09:52Z" changeset="125234565" uid="3497659" user="NKA">
		<tag k="historic" v="shieling" />
		<tag k="name" v="Novastølen" />
		<tag k="place" v="isolated_dwelling" />
		<tag k="ssr:stedsnr" v="311217" />
	</node>
	<node id="9970344578" lat="61.3114495" lon="5.5113279" version="1" timestamp="2022-08-22T16:09:52Z" changeset="125234565" uid="3497659" user="NKA">
		<tag k="name" v="Herstad" />
		<tag k="place" v="farm" />
		<tag k="ssr:stedsnr" v="675160" />
	</node>
	<node id="9970344579" lat="61.3237306" lon="5.4734837" version="1" timestamp="2022-08-22T16:09:52Z" changeset="125234565" uid="3497659" user="NKA">
		<tag k="name" v="Haugane" />
		<tag k="place" v="farm" />
		<tag k="ssr:stedsnr" v="311113" />
	</node>
	<node id="9970344580" lat="61.2041" lon="5.5831921" version="1" timestamp="2022-08-22T16:09:52Z" changeset="125234565" uid="3497659" user="NKA">
		<tag k="historic" v="shieling" />
		<tag k="name" v="Gamlestølen" />
		<tag k="place" v="isolated_dwelling" />
		<tag k="ssr:stedsnr" v="457865" />
	</node>
	<node id="9970344581" lat="61.232525" lon="5.6680004" version="1" timestamp="2022-08-22T16:09:52Z" changeset="125234565" uid="3497659" user="NKA">
		<tag k="historic" v="shieling" />
		<tag k="name" v="Sørebøstølen" />
		<tag k="place" v="isolated_dwelling" />
		<tag k="ssr:stedsnr" v="737996" />
	</node>
	<node id="9970344582" lat="61.2528472" lon="5.5146282" version="1" timestamp="2022-08-22T16:09:52Z" changeset="125234565" uid="3497659" user="NKA">
		<tag k="name" v="Solnes" />
		<tag k="place" v="farm" />
		<tag k="ssr:stedsnr" v="918268" />
	</node>
	<node id="9970344583" lat="61.3456445" lon="5.5549338" version="1" timestamp="2022-08-22T16:09:52Z" changeset="125234565" uid="3497659" user="NKA">
		<tag k="historic" v="shieling" />
		<tag k="name" v="Gamle Nistadstølen" />
		<tag k="place" v="isolated_dwelling" />
		<tag k="ssr:stedsnr" v="215981" />
	</node>
	<node id="9970344584" lat="61.2762694" lon="5.6032671" version="1" timestamp="2022-08-22T16:09:52Z" changeset="125234565" uid="3497659" user="NKA">
		<tag k="historic" v="shieling" />
		<tag k="name" v="Torestølen" />
		<tag k="place" v="isolated_dwelling" />
		<tag k="ssr:stedsnr" v="251227" />
	</node>
	<node id="9970344585" lat="61.3136522" lon="5.5609786" version="1" timestamp="2022-08-22T16:09:52Z" changeset="125234565" uid="3497659" user="NKA">
		<tag k="historic" v="shieling" />
		<tag k="name" v="Slettelandsstølen" />
		<tag k="old_name" v="Slottelandsstølen" />
		<tag k="place" v="hamlet" />
		<tag k="ssr:stedsnr" v="250152" />
	</node>
	<node id="9970344586" lat="61.2472833" lon="5.349581" version="1" timestamp="2022-08-22T16:09:52Z" changeset="125234565" uid="3497659" user="NKA">
		<tag k="historic" v="shieling" />
		<tag k="name" v="Gamlestølen" />
		<tag k="place" v="isolated_dwelling" />
		<tag k="ssr:stedsnr" v="215653" />
	</node>
	<node id="9970344587" lat="61.2960196" lon="5.215205" version="1" timestamp="2022-08-22T16:09:52Z" changeset="125234565" uid="3497659" user="NKA">
		<tag k="alt_name" v="Sørdal" />
		<tag k="name" v="Saurdalen" />
		<tag k="place" v="farm" />
		<tag k="ssr:stedsnr" v="190419" />
	</node>
	<node id="9970344588" lat="61.2568633" lon="5.5257116" version="1" timestamp="2022-08-22T16:09:52Z" changeset="125234565" uid="3497659" user="NKA">
		<tag k="alt_name" v="Boge" />
		<tag k="name" v="Boga" />
		<tag k="place" v="farm" />
		<tag k="ssr:stedsnr" v="918270" />
	</node>
	<node id="9970344589" lat="61.2955705" lon="5.2220775" version="1" timestamp="2022-08-22T16:09:52Z" changeset="125234565" uid="3497659" user="NKA">
		<tag k="alt_name" v="Kviene;Libø" />
		<tag k="name" v="Kvia" />
		<tag k="place" v="farm" />
		<tag k="ssr:stedsnr" v="796407" />
	</node>
	<node id="9970344590" lat="61.2877902" lon="5.142226" version="1" timestamp="2022-08-22T16:09:52Z" changeset="125234565" uid="3497659" user="NKA">
		<tag k="alt_name" v="Teinås" />
		<tag k="name" v="Teinåsen" />
		<tag k="place" v="farm" />
		<tag k="ssr:stedsnr" v="250379" />
	</node>
	<node id="9970344591" lat="61.2693683" lon="5.3449702" version="1" timestamp="2022-08-22T16:09:52Z" changeset="125234565" uid="3497659" user="NKA">
		<tag k="alt_name" v="Espedalen, nedre;Nedre Espedal" />
		<tag k="name" v="Nedre Espedalen" />
		<tag k="place" v="locality" />
		<tag k="ssr:stedsnr" v="311603" />
	</node>
	<node id="9970344592" lat="61.287925" lon="5.1769784" version="1" timestamp="2022-08-22T16:09:52Z" changeset="125234565" uid="3497659" user="NKA">
		<tag k="name" v="Myra" />
		<tag k="place" v="farm" />
		<tag k="ssr:stedsnr" v="796382" />
	</node>
	<node id="9970344593" lat="61.2826028" lon="5.4005088" version="1" timestamp="2022-08-22T16:09:52Z" changeset="125234565" uid="3497659" user="NKA">
		<tag k="historic" v="shieling" />
		<tag k="name" v="Vikastølen" />
		<tag k="place" v="isolated_dwelling" />
		<tag k="ssr:stedsnr" v="433562" />
	</node>
	<node id="9970344594" lat="61.3523619" lon="5.3669286" version="1" timestamp="2022-08-22T16:09:52Z" changeset="125234565" uid="3497659" user="NKA">
		<tag k="alt_name" v="Bortneim;Bortheim" />
		<tag k="name" v="Bortnheim" />
		<tag k="place" v="hamlet" />
		<tag k="ssr:stedsnr" v="796349" />
	</node>
	<node id="9970344595" lat="61.2545445" lon="5.3946822" version="1" timestamp="2022-08-22T16:09:52Z" changeset="125234565" uid="3497659" user="NKA">
		<tag k="name" v="Myrvang" />
		<tag k="place" v="farm" />
		<tag k="ssr:stedsnr" v="822649" />
	</node>
	<node id="9970344596" lat="61.2680408" lon="5.3262789" version="1" timestamp="2022-08-22T16:09:52Z" changeset="125234565" uid="3497659" user="NKA">
		<tag k="alt_name" v="Espedal" />
		<tag k="name" v="Espedalen" />
		<tag k="place" v="hamlet" />
		<tag k="ssr:stedsnr" v="553573" />
	</node>
	<node id="9970344597" lat="61.297942" lon="5.3612773" version="1" timestamp="2022-08-22T16:09:52Z" changeset="125234565" uid="3497659" user="NKA">
		<tag k="name" v="Kvia" />
		<tag k="place" v="farm" />
		<tag k="ssr:stedsnr" v="432399" />
	</node>
	<node id="9970344598" lat="61.2751691" lon="5.6502117" version="1" timestamp="2022-08-22T16:09:52Z" changeset="125234565" uid="3497659" user="NKA">
		<tag k="name" v="Steinset" />
		<tag k="place" v="farm" />
		<tag k="ssr:stedsnr" v="736223" />
	</node>
	<node id="9970344599" lat="61.3210278" lon="5.3219393" version="1" timestamp="2022-08-22T16:09:52Z" changeset="125234565" uid="3497659" user="NKA">
		<tag k="alt_name" v="Grottehaug;Kvia" />
		<tag k="name" v="Grottehaugkvia" />
		<tag k="place" v="isolated_dwelling" />
		<tag k="ssr:stedsnr" v="432292" />
	</node>
	<node id="9970344600" lat="61.2949358" lon="5.1020046" version="1" timestamp="2022-08-22T16:09:52Z" changeset="125234565" uid="3497659" user="NKA">
		<tag k="name" v="Svinevik" />
		<tag k="place" v="farm" />
		<tag k="ssr:stedsnr" v="53515" />
	</node>
	<node id="9970344601" lat="61.2897556" lon="5.3397088" version="1" timestamp="2022-08-22T16:09:52Z" changeset="125234565" uid="3497659" user="NKA">
		<tag k="name" v="Vassliåsen" />
		<tag k="place" v="farm" />
		<tag k="ssr:stedsnr" v="372443" />
	</node>
	<node id="9970344602" lat="61.3274904" lon="5.4117006" version="1" timestamp="2022-08-22T16:09:52Z" changeset="125234565" uid="3497659" user="NKA">
		<tag k="alt_name" v="Lyngje" />
		<tag k="name" v="Lynge" />
		<tag k="place" v="farm" />
		<tag k="ssr:stedsnr" v="250443" />
	</node>
	<node id="9970344603" lat="61.3602166" lon="5.3470838" version="1" timestamp="2022-08-22T16:09:52Z" changeset="125234565" uid="3497659" user="NKA">
		<tag k="name" v="Neset" />
		<tag k="place" v="farm" />
		<tag k="ssr:stedsnr" v="796321" />
	</node>
	<node id="9970344604" lat="61.257544" lon="5.5058679" version="1" timestamp="2022-08-22T16:09:52Z" changeset="125234565" uid="3497659" user="NKA">
		<tag k="name" v="Nova" />
		<tag k="place" v="farm" />
		<tag k="ssr:stedsnr" v="250255" />
	</node>
	<node id="9970344605" lat="61.2725154" lon="5.3106074" version="1" timestamp="2022-08-22T16:09:52Z" changeset="125234565" uid="3497659" user="NKA">
		<tag k="name" v="Kusælen" />
		<tag k="place" v="farm" />
		<tag k="ssr:stedsnr" v="311599" />
	</node>
	<node id="9970344606" lat="61.3428824" lon="5.4958772" version="1" timestamp="2022-08-22T16:09:52Z" changeset="125234565" uid="3497659" user="NKA">
		<tag k="alt_name" v="Norddalen, yt;Ytre Norddal" />
		<tag k="name" v="Ytre Norddalen" />
		<tag k="place" v="farm" />
		<tag k="ssr:stedsnr" v="433022" />
	</node>
	<node id="9970344607" lat="61.3009856" lon="5.3576901" version="1" timestamp="2022-08-22T16:09:52Z" changeset="125234565" uid="3497659" user="NKA">
		<tag k="name" v="Rennestraum" />
		<tag k="place" v="hamlet" />
		<tag k="ssr:stedsnr" v="311462" />
	</node>
	<node id="9970344608" lat="61.3494887" lon="5.4001278" version="1" timestamp="2022-08-22T16:09:52Z" changeset="125234565" uid="3497659" user="NKA">
		<tag k="alt_name" v="Refsnes" />
		<tag k="name" v="Revsneset" />
		<tag k="place" v="farm" />
		<tag k="ssr:stedsnr" v="250268" />
	</node>
	<node id="9970344609" lat="61.355775" lon="5.4218421" version="1" timestamp="2022-08-22T16:09:52Z" changeset="125234565" uid="3497659" user="NKA">
		<tag k="name" v="Torsetgjerdet" />
		<tag k="place" v="farm" />
		<tag k="ssr:stedsnr" v="372378" />
	</node>
	<node id="9970344610" lat="61.3718834" lon="5.4738119" version="1" timestamp="2022-08-22T16:09:52Z" changeset="125234565" uid="3497659" user="NKA">
		<tag k="name" v="Bakkane" />
		<tag k="place" v="farm" />
		<tag k="ssr:stedsnr" v="822984" />
	</node>
	<node id="9970344611" lat="61.3336655" lon="5.3370689" version="1" timestamp="2022-08-22T16:09:52Z" changeset="125234565" uid="3497659" user="NKA">
		<tag k="name" v="Ekra" />
		<tag k="place" v="farm" />
		<tag k="ssr:stedsnr" v="250280" />
	</node>
	<node id="9970344612" lat="61.3159866" lon="5.5052054" version="1" timestamp="2022-08-22T16:09:52Z" changeset="125234565" uid="3497659" user="NKA">
		<tag k="alt_name" v="Sunndalen, øvre;Sundal" />
		<tag k="name" v="Øvre Sunndalen" />
		<tag k="place" v="farm" />
		<tag k="ssr:stedsnr" v="250072" />
	</node>
	<node id="9970344613" lat="61.2973064" lon="5.2418328" version="1" timestamp="2022-08-22T16:09:52Z" changeset="125234565" uid="3497659" user="NKA">
		<tag k="name" v="Eika" />
		<tag k="place" v="farm" />
		<tag k="ssr:stedsnr" v="614397" />
	</node>
	<node id="9970344614" lat="61.3043361" lon="5.2230339" version="1" timestamp="2022-08-22T16:09:52Z" changeset="125234565" uid="3497659" user="NKA">
		<tag k="name" v="Bergheim" />
		<tag k="place" v="farm" />
		<tag k="ssr:stedsnr" v="356531" />
	</node>
	<node id="9970344615" lat="61.3606989" lon="5.3537236" version="1" timestamp="2022-08-22T16:09:52Z" changeset="125234565" uid="3497659" user="NKA">
		<tag k="name" v="Holmen" />
		<tag k="place" v="farm" />
		<tag k="ssr:stedsnr" v="250323" />
	</node>
	<node id="9970344616" lat="61.3387094" lon="5.3009309" version="1" timestamp="2022-08-22T16:09:52Z" changeset="125234565" uid="3497659" user="NKA">
		<tag k="name" v="Elde" />
		<tag k="place" v="hamlet" />
		<tag k="ssr:stedsnr" v="69267" />
	</node>
	<node id="9970344617" lat="61.2485333" lon="5.6527793" version="1" timestamp="2022-08-22T16:09:52Z" changeset="125234565" uid="3497659" user="NKA">
		<tag k="name" v="Indre Heggheim" />
		<tag k="place" v="farm" />
		<tag k="ssr:stedsnr" v="971482" />
	</node>
	<node id="9970344618" lat="61.3437918" lon="5.2069329" version="1" timestamp="2022-08-22T16:09:52Z" changeset="125234565" uid="3497659" user="NKA">
		<tag k="name" v="Arstein" />
		<tag k="place" v="farm" />
		<tag k="ssr:stedsnr" v="675363" />
	</node>
	<node id="9970344619" lat="61.1937321" lon="5.6217833" version="1" timestamp="2022-08-22T16:09:52Z" changeset="125234565" uid="3497659" user="NKA">
		<tag k="name" v="Røyrbotnen" />
		<tag k="place" v="farm" />
		<tag k="ssr:stedsnr" v="191760" />
	</node>
	<node id="9970344620" lat="61.2566137" lon="5.4117258" version="1" timestamp="2022-08-22T16:09:52Z" changeset="125234565" uid="3497659" user="NKA">
		<tag k="name" v="Naustet" />
		<tag k="place" v="locality" />
		<tag k="ssr:stedsnr" v="371505" />
	</node>
	<node id="9970344621" lat="61.2704877" lon="5.3790991" version="1" timestamp="2022-08-22T16:09:52Z" changeset="125234565" uid="3497659" user="NKA">
		<tag k="alt_name" v="Sande" />
		<tag k="name" v="Svinevika" />
		<tag k="place" v="hamlet" />
		<tag k="ssr:stedsnr" v="857594" />
	</node>
	<node id="9970344622" lat="61.2398092" lon="5.6216593" version="1" timestamp="2022-08-22T16:09:52Z" changeset="125234565" uid="3497659" user="NKA">
		<tag k="alt_name" v="Grøvlen" />
		<tag k="name" v="Gryvla" />
		<tag k="place" v="farm" />
		<tag k="ssr:stedsnr" v="191917" />
	</node>
	<node id="9970344623" lat="61.2707499" lon="5.428767" version="1" timestamp="2022-08-22T16:09:52Z" changeset="125234565" uid="3497659" user="NKA">
		<tag k="alt_name" v="Bjordalen, midtre;Midtre Bjordal" />
		<tag k="name" v="Midtre Bjordalen" />
		<tag k="place" v="farm" />
		<tag k="ssr:stedsnr" v="371531" />
	</node>
	<node id="9970344624" lat="61.2482555" lon="5.6906336" version="1" timestamp="2022-08-22T16:09:52Z" changeset="125234565" uid="3497659" user="NKA">
		<tag k="alt_name" v="Heggeimsstølen" />
		<tag k="historic" v="shieling" />
		<tag k="name" v="Heggheimsstølen" />
		<tag k="place" v="isolated_dwelling" />
		<tag k="ssr:stedsnr" v="9948" />
	</node>
	<node id="9970344625" lat="61.308375" lon="5.3526922" version="1" timestamp="2022-08-22T16:09:52Z" changeset="125234565" uid="3497659" user="NKA">
		<tag k="name" v="Eikeskogen" />
		<tag k="place" v="farm" />
		<tag k="ssr:stedsnr" v="68408" />
	</node>
	<node id="9970344626" lat="61.2601223" lon="5.4295338" version="1" timestamp="2022-08-22T16:09:52Z" changeset="125234565" uid="3497659" user="NKA">
		<tag k="alt_name" v="Nedre Bjordal;Bjordalen, nedre" />
		<tag k="name" v="Nedre Bjordalen" />
		<tag k="place" v="farm" />
		<tag k="ssr:stedsnr" v="359554" />
	</node>
	<node id="9970344627" lat="61.2747945" lon="5.6686699" version="1" timestamp="2022-08-22T16:09:52Z" changeset="125234565" uid="3497659" user="NKA">
		<tag k="name" v="Engjeneset" />
		<tag k="place" v="farm" />
		<tag k="ssr:stedsnr" v="69212" />
	</node>
	<node id="9970344628" lat="61.3554916" lon="5.3891339" version="1" timestamp="2022-08-22T16:09:52Z" changeset="125234565" uid="3497659" user="NKA">
		<tag k="name" v="Steiegjerdet" />
		<tag k="place" v="farm" />
		<tag k="ssr:stedsnr" v="68364" />
	</node>
	<node id="9970344629" lat="61.2938444" lon="5.3886449" version="1" timestamp="2022-08-22T16:09:52Z" changeset="125234565" uid="3497659" user="NKA">
		<tag k="historic" v="shieling" />
		<tag k="name" v="Rennestraumsstølen" />
		<tag k="place" v="isolated_dwelling" />
		<tag k="ssr:stedsnr" v="250408" />
	</node>
	<node id="9970344630" lat="61.3397611" lon="5.2755506" version="1" timestamp="2022-08-22T16:09:52Z" changeset="125234565" uid="3497659" user="NKA">
		<tag k="alt_name" v="Årevoll" />
		<tag k="name" v="Årevollen" />
		<tag k="place" v="farm" />
		<tag k="ssr:stedsnr" v="736267" />
	</node>
	<node id="9970344631" lat="61.2631889" lon="5.5305477" version="1" timestamp="2022-08-22T16:09:52Z" changeset="125234565" uid="3497659" user="NKA">
		<tag k="name" v="Gjerdet" />
		<tag k="place" v="locality" />
		<tag k="ssr:stedsnr" v="858219" />
	</node>
	<node id="9970344632" lat="61.3331083" lon="5.36377" version="1" timestamp="2022-08-22T16:09:52Z" changeset="125234565" uid="3497659" user="NKA">
		<tag k="name" v="Øvrestølen" />
		<tag k="place" v="locality" />
		<tag k="ssr:stedsnr" v="68282" />
	</node>
	<node id="9970344633" lat="61.2105475" lon="5.5895652" version="1" timestamp="2022-08-22T16:09:52Z" changeset="125234565" uid="3497659" user="NKA">
		<tag k="alt_name" v="Svartefoss" />
		<tag k="name" v="Svartefossen" />
		<tag k="place" v="farm" />
		<tag k="ssr:stedsnr" v="737753" />
	</node>
	<node id="9970344634" lat="61.3306711" lon="5.4007399" version="1" timestamp="2022-08-22T16:09:52Z" changeset="125234565" uid="3497659" user="NKA">
		<tag k="alt_name" v="Rakneberg" />
		<tag k="name" v="Rakneberget" />
		<tag k="place" v="farm" />
		<tag k="ssr:stedsnr" v="7282" />
	</node>
	<node id="9970344635" lat="61.3245873" lon="5.3326619" version="1" timestamp="2022-08-22T16:09:52Z" changeset="125234565" uid="3497659" user="NKA">
		<tag k="alt_name" v="Grottehaug" />
		<tag k="name" v="Grottehaugen" />
		<tag k="place" v="farm" />
		<tag k="ssr:stedsnr" v="857329" />
	</node>
	<node id="9970344636" lat="61.350442" lon="5.3933585" version="1" timestamp="2022-08-22T16:09:52Z" changeset="125234565" uid="3497659" user="NKA">
		<tag k="name" v="Jarstad" />
		<tag k="place" v="hamlet" />
		<tag k="ssr:stedsnr" v="736337" />
	</node>
	<node id="9970344637" lat="61.3579538" lon="5.3933382" version="1" timestamp="2022-08-22T16:09:52Z" changeset="125234565" uid="3497659" user="NKA">
		<tag k="alt_name" v="Steien" />
		<tag k="name" v="Steia" />
		<tag k="place" v="farm" />
		<tag k="ssr:stedsnr" v="7323" />
	</node>
	<node id="9970344638" lat="61.3241683" lon="5.3483471" version="1" timestamp="2022-08-22T16:09:52Z" changeset="125234565" uid="3497659" user="NKA">
		<tag k="name" v="Lendinga" />
		<tag k="place" v="farm" />
		<tag k="ssr:stedsnr" v="796307" />
	</node>
	<node id="9970344639" lat="61.1963555" lon="5.5789282" version="1" timestamp="2022-08-22T16:09:52Z" changeset="125234565" uid="3497659" user="NKA">
		<tag k="name" v="Svartefosstølen" />
		<tag k="place" v="locality" />
		<tag k="ssr:stedsnr" v="677808" />
	</node>
	<node id="9970344640" lat="61.34322" lon="5.4042329" version="1" timestamp="2022-08-22T16:09:52Z" changeset="125234565" uid="3497659" user="NKA">
		<tag k="name" v="Berge" />
		<tag k="place" v="farm" />
		<tag k="ssr:stedsnr" v="917213" />
	</node>
	<node id="9970344641" lat="61.2727027" lon="4.9512432" version="1" timestamp="2022-08-22T16:09:52Z" changeset="125234565" uid="3497659" user="NKA">
		<tag k="alt_name" v="Lammetu" />
		<tag k="name" v="Lammetun" />
		<tag k="place" v="hamlet" />
		<tag k="ssr:stedsnr" v="7113" />
	</node>
	<node id="9970344642" lat="61.2841136" lon="4.999368" version="1" timestamp="2022-08-22T16:09:52Z" changeset="125234565" uid="3497659" user="NKA">
		<tag k="name" v="Eina" />
		<tag k="place" v="hamlet" />
		<tag k="ssr:stedsnr" v="251084" />
	</node>
	<node id="9970344643" lat="61.3435926" lon="5.2140472" version="1" timestamp="2022-08-22T16:09:52Z" changeset="125234565" uid="3497659" user="NKA">
		<tag k="alt_name" v="Åsnes, in;Åsnes Indre;Åsnes" />
		<tag k="name" v="Indre Åsnes" />
		<tag k="place" v="farm" />
		<tag k="ssr:stedsnr" v="554381" />
	</node>
	<node id="9970344644" lat="61.342269" lon="5.4398786" version="1" timestamp="2022-08-22T16:09:52Z" changeset="125234565" uid="3497659" user="NKA">
		<tag k="alt_name" v="Løseth" />
		<tag k="name" v="Løset" />
		<tag k="place" v="hamlet" />
		<tag k="ssr:stedsnr" v="675304" />
	</node>
	<node id="9970344645" lat="61.3354999" lon="5.2727623" version="1" timestamp="2022-08-22T16:09:52Z" changeset="125234565" uid="3497659" user="NKA">
		<tag k="alt_name" v="Engeset" />
		<tag k="name" v="Engset" />
		<tag k="place" v="farm" />
		<tag k="ssr:stedsnr" v="614265" />
	</node>
	<node id="9970344646" lat="61.2720278" lon="5.6471976" version="1" timestamp="2022-08-22T16:09:52Z" changeset="125234565" uid="3497659" user="NKA">
		<tag k="name" v="Haugen" />
		<tag k="place" v="farm" />
		<tag k="ssr:stedsnr" v="614191" />
	</node>
	<node id="9970344647" lat="61.2151" lon="5.647892" version="1" timestamp="2022-08-22T16:09:52Z" changeset="125234565" uid="3497659" user="NKA">
		<tag k="historic" v="shieling" />
		<tag k="name" v="Langelandsstølen" />
		<tag k="place" v="isolated_dwelling" />
		<tag k="ssr:stedsnr" v="616765" />
	</node>
	<node id="9970344648" lat="61.3082805" lon="5.3233589" version="1" timestamp="2022-08-22T16:09:52Z" changeset="125234565" uid="3497659" user="NKA">
		<tag k="alt_name" v="Mjelltene" />
		<tag k="name" v="Mjeltene" />
		<tag k="place" v="locality" />
		<tag k="ssr:stedsnr" v="857499" />
	</node>
	<node id="9970344649" lat="61.3240812" lon="5.4046981" version="1" timestamp="2022-08-22T16:09:52Z" changeset="125234565" uid="3497659" user="NKA">
		<tag k="name" v="Stav" />
		<tag k="place" v="farm" />
		<tag k="ssr:stedsnr" v="371430" />
	</node>
	<node id="9970344650" lat="61.2968056" lon="5.0886895" version="1" timestamp="2022-08-22T16:09:52Z" changeset="125234565" uid="3497659" user="NKA">
		<tag k="alt_name" v="Snekkevåg" />
		<tag k="name" v="Snekkevågen" />
		<tag k="place" v="farm" />
		<tag k="ssr:stedsnr" v="69073" />
	</node>
	<node id="9970344651" lat="61.2526057" lon="4.9880347" version="1" timestamp="2022-08-22T16:09:52Z" changeset="125234565" uid="3497659" user="NKA">
		<tag k="name" v="Luten" />
		<tag k="place" v="farm" />
		<tag k="ssr:stedsnr" v="796016" />
	</node>
	<node id="9970344652" lat="61.3255397" lon="5.4966771" version="1" timestamp="2022-08-22T16:09:52Z" changeset="125234565" uid="3497659" user="NKA">
		<tag k="name" v="Øye" />
		<tag k="place" v="farm" />
		<tag k="ssr:stedsnr" v="796080" />
	</node>
	<node id="9970344653" lat="61.2508732" lon="4.9863945" version="1" timestamp="2022-08-22T16:09:52Z" changeset="125234565" uid="3497659" user="NKA">
		<tag k="name" v="Nybø" />
		<tag k="place" v="farm" />
		<tag k="ssr:stedsnr" v="841964" />
	</node>
	<node id="9970344654" lat="61.3563833" lon="5.3172811" version="1" timestamp="2022-08-22T16:09:52Z" changeset="125234565" uid="3497659" user="NKA">
		<tag k="name" v="Ytrøyna" />
		<tag k="place" v="farm" />
		<tag k="ssr:stedsnr" v="311382" />
	</node>
	<node id="9970344655" lat="61.2986" lon="5.351345" version="1" timestamp="2022-08-22T16:09:52Z" changeset="125234565" uid="3497659" user="NKA">
		<tag k="name" v="Hjellen" />
		<tag k="place" v="farm" />
		<tag k="ssr:stedsnr" v="371402" />
	</node>
	<node id="9970344656" lat="61.2834437" lon="5.0455427" version="1" timestamp="2022-08-22T16:09:52Z" changeset="125234565" uid="3497659" user="NKA">
		<tag k="name" v="Furset" />
		<tag k="place" v="hamlet" />
		<tag k="ssr:stedsnr" v="433087" />
	</node>
	<node id="9970344657" lat="61.2629776" lon="5.0347802" version="1" timestamp="2022-08-22T16:09:52Z" changeset="125234565" uid="3497659" user="NKA">
		<tag k="name" v="Hovland" />
		<tag k="place" v="farm" />
		<tag k="ssr:stedsnr" v="68101" />
	</node>
	<node id="9970344658" lat="61.3458506" lon="5.2608092" version="1" timestamp="2022-08-22T16:09:52Z" changeset="125234565" uid="3497659" user="NKA">
		<tag k="alt_name" v="Eikerol" />
		<tag k="name" v="Eikarol" />
		<tag k="place" v="farm" />
		<tag k="ssr:stedsnr" v="311402" />
	</node>
	<node id="9970344659" lat="61.2570722" lon="5.0317489" version="1" timestamp="2022-08-22T16:09:52Z" changeset="125234565" uid="3497659" user="NKA">
		<tag k="name" v="Haugen" />
		<tag k="place" v="farm" />
		<tag k="ssr:stedsnr" v="432095" />
	</node>
	<node id="9970344660" lat="61.2681761" lon="5.0118569" version="1" timestamp="2022-08-22T16:09:52Z" changeset="125234565" uid="3497659" user="NKA">
		<tag k="name" v="Holstad" />
		<tag k="place" v="farm" />
		<tag k="ssr:stedsnr" v="7110" />
	</node>
	<node id="9970344661" lat="61.3439278" lon="5.4031921" version="1" timestamp="2022-08-22T16:09:52Z" changeset="125234565" uid="3497659" user="NKA">
		<tag k="name" v="Haugen" />
		<tag k="place" v="farm" />
		<tag k="ssr:stedsnr" v="432243" />
	</node>
	<node id="9970344662" lat="61.2597218" lon="5.0039814" version="1" timestamp="2022-08-22T16:09:52Z" changeset="125234565" uid="3497659" user="NKA">
		<tag k="name" v="Stølsvik" />
		<tag k="place" v="locality" />
		<tag k="ssr:stedsnr" v="173959" />
	</node>
	<node id="9970344663" lat="61.3104593" lon="5.2687979" version="1" timestamp="2022-08-22T16:09:52Z" changeset="125234565" uid="3497659" user="NKA">
		<tag k="alt_name" v="Tyssekvam" />
		<tag k="name" v="Tyssekvammen" />
		<tag k="place" v="farm" />
		<tag k="ssr:stedsnr" v="433462" />
	</node>
	<node id="9970344664" lat="61.2920823" lon="5.1460798" version="1" timestamp="2022-08-22T16:09:52Z" changeset="125234565" uid="3497659" user="NKA">
		<tag k="alt_name" v="Brennehaugen;Brendehaug" />
		<tag k="name" v="Brendehaugen" />
		<tag k="place" v="farm" />
		<tag k="ssr:stedsnr" v="250378" />
	</node>
	<node id="9970344665" lat="61.3585123" lon="5.3436453" version="1" timestamp="2022-08-22T16:09:52Z" changeset="125234565" uid="3497659" user="NKA">
		<tag k="alt_name" v="Indre Øyna" />
		<tag k="name" v="Øyna" />
		<tag k="place" v="farm" />
		<tag k="ssr:stedsnr" v="311381" />
	</node>
	<node id="9970344666" lat="61.2478834" lon="4.9904591" version="1" timestamp="2022-08-22T16:09:52Z" changeset="125234565" uid="3497659" user="NKA">
		<tag k="alt_name" v="Dyrtopp" />
		<tag k="name" v="Dyrtoppen" />
		<tag k="place" v="farm" />
		<tag k="ssr:stedsnr" v="313986" />
	</node>
	<node id="9970344667" lat="61.2925111" lon="5.1386061" version="1" timestamp="2022-08-22T16:09:52Z" changeset="125234565" uid="3497659" user="NKA">
		<tag k="name" v="Kleiva" />
		<tag k="place" v="farm" />
		<tag k="ssr:stedsnr" v="68400" />
	</node>
	<node id="9970344668" lat="61.3479686" lon="5.4116697" version="1" timestamp="2022-08-22T16:09:52Z" changeset="125234565" uid="3497659" user="NKA">
		<tag k="alt_name" v="Sletteland" />
		<tag k="name" v="Slætteland" />
		<tag k="place" v="farm" />
		<tag k="ssr:stedsnr" v="129356" />
	</node>
	<node id="9970344669" lat="61.232375" lon="5.575117" version="1" timestamp="2022-08-22T16:09:52Z" changeset="125234565" uid="3497659" user="NKA">
		<tag k="name" v="Runnane" />
		<tag k="place" v="isolated_dwelling" />
		<tag k="ssr:stedsnr" v="434984" />
	</node>
	<node id="9970344670" lat="61.2371556" lon="5.6166281" version="1" timestamp="2022-08-22T16:09:52Z" changeset="125234565" uid="3497659" user="NKA">
		<tag k="name" v="Nyland" />
		<tag k="place" v="farm" />
		<tag k="ssr:stedsnr" v="434938" />
	</node>
	<node id="9970344671" lat="61.3156084" lon="5.3585839" version="1" timestamp="2022-08-22T16:09:52Z" changeset="125234565" uid="3497659" user="NKA">
		<tag k="name" v="Haugen" />
		<tag k="place" v="farm" />
		<tag k="ssr:stedsnr" v="8489" />
	</node>
	<node id="9970344672" lat="61.354822" lon="5.401842" version="1" timestamp="2022-08-22T16:09:52Z" changeset="125234565" uid="3497659" user="NKA">
		<tag k="name" v="Dingemoen" />
		<tag k="place" v="quarter" />
		<tag k="ssr:stedsnr" v="33589" />
	</node>
	<node id="9970344673" lat="61.2623432" lon="5.3727425" version="1" timestamp="2022-08-22T16:09:52Z" changeset="125234565" uid="3497659" user="NKA">
		<tag k="name" v="Loneland" />
		<tag k="place" v="farm" />
		<tag k="ssr:stedsnr" v="8542" />
	</node>
	<node id="9970344674" lat="61.2591649" lon="5.0469588" version="1" timestamp="2022-08-22T16:09:52Z" changeset="125234565" uid="3497659" user="NKA">
		<tag k="name" v="Søre Folkestad" />
		<tag k="place" v="farm" />
		<tag k="ssr:stedsnr" v="822948" />
	</node>
	<node id="9970344675" lat="61.2840991" lon="5.1794266" version="1" timestamp="2022-08-22T16:09:52Z" changeset="125234565" uid="3497659" user="NKA">
		<tag k="name" v="Holt" />
		<tag k="place" v="farm" />
		<tag k="ssr:stedsnr" v="433422" />
	</node>
	<node id="9970344676" lat="61.2545694" lon="5.3953783" version="1" timestamp="2022-08-22T16:09:52Z" changeset="125234565" uid="3497659" user="NKA">
		<tag k="name" v="Vårdal" />
		<tag k="place" v="farm" />
		<tag k="ssr:stedsnr" v="918578" />
	</node>
	<node id="9970344677" lat="61.2626254" lon="5.0479238" version="1" timestamp="2022-08-22T16:09:52Z" changeset="125234565" uid="3497659" user="NKA">
		<tag k="alt_name" v="Folkestad, nordre" />
		<tag k="name" v="Nordre Folkestad" />
		<tag k="place" v="farm" />
		<tag k="ssr:stedsnr" v="189093" />
	</node>
	<node id="9970344678" lat="61.3151135" lon="5.140119" version="1" timestamp="2022-08-22T16:09:52Z" changeset="125234565" uid="3497659" user="NKA">
		<tag k="name" v="Selvik" />
		<tag k="place" v="farm" />
		<tag k="ssr:stedsnr" v="579765" />
	</node>
	<node id="9970344679" lat="61.2575513" lon="5.4937957" version="1" timestamp="2022-08-22T16:09:52Z" changeset="125234565" uid="3497659" user="NKA">
		<tag k="alt_name" v="Floten;Maros" />
		<tag k="name" v="Marosen" />
		<tag k="place" v="farm" />
		<tag k="ssr:stedsnr" v="614247" />
	</node>
	<node id="9970344680" lat="61.2332626" lon="5.4294394" version="1" timestamp="2022-08-22T16:09:52Z" changeset="125234565" uid="3497659" user="NKA">
		<tag k="name" v="Nygård" />
		<tag k="place" v="farm" />
		<tag k="ssr:stedsnr" v="397625" />
	</node>
	<node id="9970344681" lat="61.2695584" lon="5.4659922" version="1" timestamp="2022-08-22T16:09:52Z" changeset="125234565" uid="3497659" user="NKA">
		<tag k="historic" v="shieling" />
		<tag k="name" v="Gygrestølen" />
		<tag k="place" v="isolated_dwelling" />
		<tag k="ssr:stedsnr" v="371528" />
	</node>
	<node id="9970344682" lat="61.2975658" lon="5.117268" version="1" timestamp="2022-08-22T16:09:52Z" changeset="125234565" uid="3497659" user="NKA">
		<tag k="name" v="Pollen" />
		<tag k="place" v="farm" />
		<tag k="ssr:stedsnr" v="114668" />
	</node>
	<node id="9970344683" lat="61.3081055" lon="5.4447366" version="1" timestamp="2022-08-22T16:09:52Z" changeset="125234565" uid="3497659" user="NKA">
		<tag k="historic" v="shieling" />
		<tag k="name" v="Buttedalsstølen" />
		<tag k="place" v="isolated_dwelling" />
		<tag k="ssr:stedsnr" v="493376" />
	</node>
	<node id="9970344684" lat="61.3304448" lon="5.3244192" version="1" timestamp="2022-08-22T16:09:52Z" changeset="125234565" uid="3497659" user="NKA">
		<tag k="name" v="Hernes" />
		<tag k="place" v="farm" />
		<tag k="ssr:stedsnr" v="493295" />
	</node>
	<node id="9970344685" lat="61.2632611" lon="5.0066812" version="1" timestamp="2022-08-22T16:09:52Z" changeset="125234565" uid="3497659" user="NKA">
		<tag k="name" v="Stølen" />
		<tag k="place" v="farm" />
		<tag k="ssr:stedsnr" v="477985" />
	</node>
	<node id="9970344686" lat="61.3340278" lon="5.4176088" version="1" timestamp="2022-08-22T16:09:52Z" changeset="125234565" uid="3497659" user="NKA">
		<tag k="name" v="Vollesteinen" />
		<tag k="place" v="farm" />
		<tag k="ssr:stedsnr" v="918340" />
	</node>
	<node id="9970344687" lat="61.2326343" lon="5.4340019" version="1" timestamp="2022-08-22T16:09:52Z" changeset="125234565" uid="3497659" user="NKA">
		<tag k="alt_name" v="Hovlandsdal" />
		<tag k="name" v="Hovlandsdalen" />
		<tag k="place" v="hamlet" />
		<tag k="ssr:stedsnr" v="737638" />
	</node>
	<node id="9970344688" lat="61.346261" lon="5.2842792" version="1" timestamp="2022-08-22T16:09:52Z" changeset="125234565" uid="3497659" user="NKA">
		<tag k="name" v="Bjellehaugen" />
		<tag k="place" v="farm" />
		<tag k="ssr:stedsnr" v="736326" />
	</node>
	<node id="9970344689" lat="61.2686771" lon="5.4318413" version="1" timestamp="2022-08-22T16:09:52Z" changeset="125234565" uid="3497659" user="NKA">
		<tag k="name" v="Bjordalen" />
		<tag k="place" v="hamlet" />
		<tag k="ssr:stedsnr" v="974131" />
	</node>
	<node id="9970344690" lat="61.2566984" lon="5.4753487" version="1" timestamp="2022-08-22T16:09:52Z" changeset="125234565" uid="3497659" user="NKA">
		<tag k="alt_name" v="Hatlebrekke" />
		<tag k="name" v="Hatlebrekka" />
		<tag k="place" v="farm" />
		<tag k="ssr:stedsnr" v="493248" />
	</node>
	<node id="9970344691" lat="61.2439588" lon="5.497224" version="1" timestamp="2022-08-22T16:09:52Z" changeset="125234565" uid="3497659" user="NKA">
		<tag k="name" v="Yndestad" />
		<tag k="place" v="hamlet" />
		<tag k="ssr:stedsnr" v="737927" />
	</node>
	<node id="9970344692" lat="61.3432861" lon="5.4093866" version="1" timestamp="2022-08-22T16:09:52Z" changeset="125234565" uid="3497659" user="NKA">
		<tag k="alt_name" v="Vosseteig" />
		<tag k="name" v="Vosseteigen" />
		<tag k="place" v="farm" />
		<tag k="ssr:stedsnr" v="492220" />
	</node>
	<node id="9970344693" lat="61.3737248" lon="5.5307737" version="1" timestamp="2022-08-22T16:09:52Z" changeset="125234565" uid="3497659" user="NKA">
		<tag k="name" v="Halsnes" />
		<tag k="place" v="farm" />
		<tag k="ssr:stedsnr" v="797956" />
	</node>
	<node id="9970344694" lat="61.2961194" lon="5.2796617" version="1" timestamp="2022-08-22T16:09:52Z" changeset="125234565" uid="3497659" user="NKA">
		<tag k="name" v="Eikevika" />
		<tag k="place" v="farm" />
		<tag k="ssr:stedsnr" v="432370" />
	</node>
	<node id="9970344695" lat="61.2588176" lon="5.4647176" version="1" timestamp="2022-08-22T16:09:52Z" changeset="125234565" uid="3497659" user="NKA">
		<tag k="alt_name" v="Eikeli" />
		<tag k="name" v="Eikelia" />
		<tag k="place" v="farm" />
		<tag k="ssr:stedsnr" v="918584" />
	</node>
	<node id="9970344696" lat="61.3661233" lon="5.4099613" version="1" timestamp="2022-08-22T16:09:52Z" changeset="125234565" uid="3497659" user="NKA">
		<tag k="alt_name" v="Øksenberg;Yksnebjørg" />
		<tag k="name" v="Yksnebjør" />
		<tag k="place" v="farm" />
		<tag k="ssr:stedsnr" v="735159" />
	</node>
	<node id="9970344697" lat="61.3280945" lon="5.2374673" version="1" timestamp="2022-08-22T16:09:52Z" changeset="125234565" uid="3497659" user="NKA">
		<tag k="historic" v="shieling" />
		<tag k="name" v="Stølen" />
		<tag k="place" v="isolated_dwelling" />
		<tag k="ssr:stedsnr" v="337647" />
	</node>
	<node id="9970344698" lat="61.254951" lon="4.9821567" version="1" timestamp="2022-08-22T16:09:52Z" changeset="125234565" uid="3497659" user="NKA">
		<tag k="name" v="Litletu" />
		<tag k="place" v="isolated_dwelling" />
		<tag k="ssr:stedsnr" v="659984" />
	</node>
	<node id="9970344699" lat="61.2957782" lon="5.122184" version="1" timestamp="2022-08-22T16:09:52Z" changeset="125234565" uid="3497659" user="NKA">
		<tag k="name" v="Stroka" />
		<tag k="place" v="farm" />
		<tag k="ssr:stedsnr" v="492439" />
	</node>
	<node id="9970344700" lat="61.2469754" lon="5.5263678" version="1" timestamp="2022-08-22T16:09:52Z" changeset="125234565" uid="3497659" user="NKA">
		<tag k="name" v="Engja" />
		<tag k="place" v="hamlet" />
		<tag k="ssr:stedsnr" v="919951" />
	</node>
	<node id="9970344701" lat="61.3178176" lon="5.3524267" version="1" timestamp="2022-08-22T16:09:52Z" changeset="125234565" uid="3497659" user="NKA">
		<tag k="name" v="Ytsteneset" />
		<tag k="place" v="farm" />
		<tag k="ssr:stedsnr" v="974046" />
	</node>
	<node id="9970344702" lat="61.2423916" lon="5.4543052" version="1" timestamp="2022-08-22T16:09:52Z" changeset="125234565" uid="3497659" user="NKA">
		<tag k="name" v="Espenes" />
		<tag k="place" v="farm" />
		<tag k="ssr:stedsnr" v="737375" />
	</node>
	<node id="9970344703" lat="61.3299361" lon="5.3694116" version="1" timestamp="2022-08-22T16:09:52Z" changeset="125234565" uid="3497659" user="NKA">
		<tag k="name" v="Stølen" />
		<tag k="place" v="locality" />
		<tag k="ssr:stedsnr" v="311350" />
	</node>
	<node id="9970344704" lat="61.2567972" lon="5.5025838" version="1" timestamp="2022-08-22T16:09:52Z" changeset="125234565" uid="3497659" user="NKA">
		<tag k="name" v="Åsane" />
		<tag k="place" v="farm" />
		<tag k="ssr:stedsnr" v="796242" />
	</node>
	<node id="9970344705" lat="61.3181288" lon="5.4677337" version="1" timestamp="2022-08-22T16:09:52Z" changeset="125234565" uid="3497659" user="NKA">
		<tag k="alt_name" v="Bottedal" />
		<tag k="name" v="Buttedalen" />
		<tag k="place" v="farm" />
		<tag k="ssr:stedsnr" v="614558" />
	</node>
	<node id="9970344706" lat="61.2063639" lon="5.518017" version="1" timestamp="2022-08-22T16:09:52Z" changeset="125234565" uid="3497659" user="NKA">
		<tag k="historic" v="shieling" />
		<tag k="name" v="Dyngsøyrstølen" />
		<tag k="place" v="isolated_dwelling" />
		<tag k="ssr:stedsnr" v="555753" />
	</node>
	<node id="9970344707" lat="61.3419991" lon="5.27132" version="1" timestamp="2022-08-22T16:09:52Z" changeset="125234565" uid="3497659" user="NKA">
		<tag k="name" v="Setane" />
		<tag k="place" v="locality" />
		<tag k="ssr:stedsnr" v="761221" />
	</node>
	<node id="9970344708" lat="61.2492633" lon="5.6473151" version="1" timestamp="2022-08-22T16:09:52Z" changeset="125234565" uid="3497659" user="NKA">
		<tag k="alt_name" v="Heggeim" />
		<tag k="name" v="Ytre Heggheim" />
		<tag k="place" v="farm" />
		<tag k="ssr:stedsnr" v="555931" />
	</node>
	<node id="9970344709" lat="61.3375241" lon="5.2039842" version="1" timestamp="2022-08-22T16:09:52Z" changeset="125234565" uid="3497659" user="NKA">
		<tag k="name" v="Bakkebø" />
		<tag k="place" v="farm" />
		<tag k="ssr:stedsnr" v="614362" />
	</node>
	<node id="9970344710" lat="61.2891583" lon="5.1825756" version="1" timestamp="2022-08-22T16:09:52Z" changeset="125234565" uid="3497659" user="NKA">
		<tag k="name" v="Smillhaugen" />
		<tag k="place" v="farm" />
		<tag k="ssr:stedsnr" v="250396" />
	</node>
	<node id="9970344711" lat="61.3124083" lon="5.3435504" version="1" timestamp="2022-08-22T16:09:52Z" changeset="125234565" uid="3497659" user="NKA">
		<tag k="name" v="Fossen" />
		<tag k="place" v="farm" />
		<tag k="ssr:stedsnr" v="797453" />
	</node>
	<node id="9970344712" lat="61.3534901" lon="5.2903979" version="1" timestamp="2022-08-22T16:09:52Z" changeset="125234565" uid="3497659" user="NKA">
		<tag k="name" v="Solbakken" />
		<tag k="place" v="farm" />
		<tag k="ssr:stedsnr" v="701673" />
	</node>
	<node id="9970344713" lat="61.2331322" lon="5.5945215" version="1" timestamp="2022-08-22T16:09:52Z" changeset="125234565" uid="3497659" user="NKA">
		<tag k="name" v="Gallefoss" />
		<tag k="place" v="hamlet" />
		<tag k="ssr:stedsnr" v="676989" />
	</node>
	<node id="9970344714" lat="61.3213091" lon="5.3332409" version="1" timestamp="2022-08-22T16:09:52Z" changeset="125234565" uid="3497659" user="NKA">
		<tag k="alt_name" v="Leirpoll" />
		<tag k="name" v="Leirpollen" />
		<tag k="place" v="farm" />
		<tag k="ssr:stedsnr" v="918362" />
	</node>
	<node id="9970344715" lat="61.3247667" lon="5.2151089" version="1" timestamp="2022-08-22T16:09:52Z" changeset="125234565" uid="3497659" user="NKA">
		<tag k="alt_name" v="Storevik" />
		<tag k="name" v="Storevika" />
		<tag k="place" v="farm" />
		<tag k="ssr:stedsnr" v="917235" />
	</node>
	<node id="9970344716" lat="61.2966611" lon="5.3525616" version="1" timestamp="2022-08-22T16:09:52Z" changeset="125234565" uid="3497659" user="NKA">
		<tag k="name" v="Sørum" />
		<tag k="place" v="farm" />
		<tag k="ssr:stedsnr" v="614423" />
	</node>
	<node id="9970344717" lat="61.3625768" lon="5.380671" version="1" timestamp="2022-08-22T16:09:52Z" changeset="125234565" uid="3497659" user="NKA">
		<tag k="name" v="Bjerga" />
		<tag k="place" v="farm" />
		<tag k="ssr:stedsnr" v="675346" />
	</node>
	<node id="9970344718" lat="61.3480044" lon="5.4518879" version="1" timestamp="2022-08-22T16:09:52Z" changeset="125234565" uid="3497659" user="NKA">
		<tag k="alt_name" v="Skadal" />
		<tag k="name" v="Skaddalen" />
		<tag k="place" v="hamlet" />
		<tag k="ssr:stedsnr" v="372381" />
	</node>
	<node id="9970344719" lat="61.3056361" lon="5.3984811" version="1" timestamp="2022-08-22T16:09:52Z" changeset="125234565" uid="3497659" user="NKA">
		<tag k="historic" v="shieling" />
		<tag k="name" v="Flekkestølen" />
		<tag k="place" v="isolated_dwelling" />
		<tag k="ssr:stedsnr" v="493382" />
	</node>
	<node id="9970344720" lat="61.2437972" lon="5.3454172" version="1" timestamp="2022-08-22T16:09:52Z" changeset="125234565" uid="3497659" user="NKA">
		<tag k="alt_name" v="Sveigen" />
		<tag k="name" v="Sveien" />
		<tag k="place" v="farm" />
		<tag k="ssr:stedsnr" v="494370" />
	</node>
	<node id="9970344721" lat="61.3621645" lon="5.3777799" version="1" timestamp="2022-08-22T16:09:52Z" changeset="125234565" uid="3497659" user="NKA">
		<tag k="name" v="Ytre Bjerga" />
		<tag k="place" v="farm" />
		<tag k="ssr:stedsnr" v="355323" />
	</node>
	<node id="9970344722" lat="61.3639099" lon="5.3370073" version="1" timestamp="2022-08-22T16:09:52Z" changeset="125234565" uid="3497659" user="NKA">
		<tag k="alt_name" v="Storevik" />
		<tag k="name" v="Storevika" />
		<tag k="place" v="farm" />
		<tag k="ssr:stedsnr" v="311383" />
	</node>
	<node id="9970344723" lat="61.205975" lon="5.596931" version="1" timestamp="2022-08-22T16:09:52Z" changeset="125234565" uid="3497659" user="NKA">
		<tag k="name" v="Lia" />
		<tag k="place" v="farm" />
		<tag k="ssr:stedsnr" v="495833" />
	</node>
	<node id="9970344724" lat="61.2443547" lon="5.6519337" version="1" timestamp="2022-08-22T16:09:52Z" changeset="125234565" uid="3497659" user="NKA">
		<tag k="alt_name" v="Sørebø" />
		<tag k="name" v="Sørebøen" />
		<tag k="place" v="farm" />
		<tag k="ssr:stedsnr" v="434934" />
	</node>
	<node id="9970344725" lat="61.2439055" lon="5.5920059" version="1" timestamp="2022-08-22T16:09:52Z" changeset="125234565" uid="3497659" user="NKA">
		<tag k="historic" v="shieling" />
		<tag k="name" v="Gamlestølen" />
		<tag k="place" v="isolated_dwelling" />
		<tag k="ssr:stedsnr" v="495950" />
	</node>
	<node id="9970344726" lat="61.3149737" lon="5.1497796" version="1" timestamp="2022-08-22T16:09:52Z" changeset="125234565" uid="3497659" user="NKA">
		<tag k="alt_name" v="Kjøsnes;Kjøssnes" />
		<tag k="name" v="Kysneset" />
		<tag k="place" v="hamlet" />
		<tag k="ssr:stedsnr" v="918331" />
	</node>
	<node id="9970344727" lat="61.3456194" lon="5.3357144" version="1" timestamp="2022-08-22T16:09:52Z" changeset="125234565" uid="3497659" user="NKA">
		<tag k="historic" v="shieling" />
		<tag k="name" v="Liastølen" />
		<tag k="place" v="isolated_dwelling" />
		<tag k="ssr:stedsnr" v="736329" />
	</node>
	<node id="9970344728" lat="61.2985083" lon="5.2244839" version="1" timestamp="2022-08-22T16:09:52Z" changeset="125234565" uid="3497659" user="NKA">
		<tag k="alt_name" v="Myrstad" />
		<tag k="name" v="Myra" />
		<tag k="place" v="farm" />
		<tag k="ssr:stedsnr" v="432473" />
	</node>
	<node id="9970344729" lat="61.3045028" lon="5.3466782" version="1" timestamp="2022-08-22T16:09:52Z" changeset="125234565" uid="3497659" user="NKA">
		<tag k="name" v="Trollefossen" />
		<tag k="place" v="farm" />
		<tag k="ssr:stedsnr" v="857415" />
	</node>
	<node id="9970344730" lat="61.3475843" lon="5.277625" version="1" timestamp="2022-08-22T16:09:52Z" changeset="125234565" uid="3497659" user="NKA">
		<tag k="name" v="Fagervik" />
		<tag k="place" v="farm" />
		<tag k="ssr:stedsnr" v="250344" />
	</node>
	<node id="9970344731" lat="61.2897049" lon="5.3032382" version="1" timestamp="2022-08-22T16:09:52Z" changeset="125234565" uid="3497659" user="NKA">
		<tag k="alt_name" v="Gytten;Jytten" />
		<tag k="name" v="Fuglevatn" />
		<tag k="place" v="farm" />
		<tag k="ssr:stedsnr" v="858442" />
	</node>
	<node id="9970344732" lat="61.3132528" lon="5.2170756" version="1" timestamp="2022-08-22T16:09:52Z" changeset="125234565" uid="3497659" user="NKA">
		<tag k="alt_name" v="Selvik" />
		<tag k="name" v="Solvika" />
		<tag k="place" v="farm" />
		<tag k="ssr:stedsnr" v="250459" />
	</node>
	<node id="9970344733" lat="61.2531611" lon="5.6213588" version="1" timestamp="2022-08-22T16:09:52Z" changeset="125234565" uid="3497659" user="NKA">
		<tag k="historic" v="shieling" />
		<tag k="name" v="Fosstølen" />
		<tag k="place" v="isolated_dwelling" />
		<tag k="ssr:stedsnr" v="371216" />
	</node>
	<node id="9970344734" lat="61.2588057" lon="5.3556094" version="1" timestamp="2022-08-22T16:09:52Z" changeset="125234565" uid="3497659" user="NKA">
		<tag k="name" v="Hovland" />
		<tag k="place" v="hamlet" />
		<tag k="ssr:stedsnr" v="857564" />
	</node>
	<node id="9970344735" lat="61.3380055" lon="5.2160144" version="1" timestamp="2022-08-22T16:09:52Z" changeset="125234565" uid="3497659" user="NKA">
		<tag k="name" v="Jonstad" />
		<tag k="place" v="farm" />
		<tag k="ssr:stedsnr" v="250368" />
	</node>
	<node id="9970344736" lat="61.3536133" lon="5.2914362" version="1" timestamp="2022-08-22T16:09:52Z" changeset="125234565" uid="3497659" user="NKA">
		<tag k="name" v="Kaldeklova" />
		<tag k="place" v="farm" />
		<tag k="ssr:stedsnr" v="735322" />
	</node>
	<node id="9970344737" lat="61.3568586" lon="5.3052413" version="1" timestamp="2022-08-22T16:09:52Z" changeset="125234565" uid="3497659" user="NKA">
		<tag k="alt_name" v="Hegreneset, indre;Indre Hegnes;Hegrenes" />
		<tag k="name" v="Indre Hegreneset" />
		<tag k="place" v="farm" />
		<tag k="ssr:stedsnr" v="614308" />
	</node>
	<node id="9970344738" lat="61.3407556" lon="5.2922506" version="1" timestamp="2022-08-22T16:09:52Z" changeset="125234565" uid="3497659" user="NKA">
		<tag k="alt_name" v="Indre Eldevik" />
		<tag k="name" v="Eldevika" />
		<tag k="place" v="farm" />
		<tag k="ssr:stedsnr" v="69271" />
	</node>
	<node id="9970344739" lat="61.2518833" lon="5.3964338" version="1" timestamp="2022-08-22T16:09:52Z" changeset="125234565" uid="3497659" user="NKA">
		<tag k="name" v="Sandneset" />
		<tag k="place" v="farm" />
		<tag k="ssr:stedsnr" v="493511" />
	</node>
	<node id="9970344740" lat="61.3135333" lon="5.1470284" version="1" timestamp="2022-08-22T16:09:52Z" changeset="125234565" uid="3497659" user="NKA">
		<tag k="name" v="Brunn" />
		<tag k="place" v="farm" />
		<tag k="ssr:stedsnr" v="215774" />
	</node>
	<node id="9970344741" lat="61.3298388" lon="5.2733256" version="1" timestamp="2022-08-22T16:09:52Z" changeset="125234565" uid="3497659" user="NKA">
		<tag k="name" v="Botnen" />
		<tag k="place" v="farm" />
		<tag k="ssr:stedsnr" v="68279" />
	</node>
	<node id="9970344742" lat="61.2797365" lon="5.3620045" version="1" timestamp="2022-08-22T16:09:52Z" changeset="125234565" uid="3497659" user="NKA">
		<tag k="alt_name" v="Hellebust" />
		<tag k="name" v="Hellebost" />
		<tag k="place" v="farm" />
		<tag k="ssr:stedsnr" v="493581" />
	</node>
	<node id="9970344743" lat="61.3235032" lon="5.2655925" version="1" timestamp="2022-08-22T16:09:52Z" changeset="125234565" uid="3497659" user="NKA">
		<tag k="alt_name" v="Tyssedal" />
		<tag k="name" v="Tyssedalen" />
		<tag k="place" v="farm" />
		<tag k="ssr:stedsnr" v="432277" />
	</node>
	<node id="9970344744" lat="61.2559639" lon="5.6245281" version="1" timestamp="2022-08-22T16:09:52Z" changeset="125234565" uid="3497659" user="NKA">
		<tag k="alt_name" v="Grøvlestølen" />
		<tag k="historic" v="shieling" />
		<tag k="name" v="Gryvlestølen" />
		<tag k="place" v="isolated_dwelling" />
		<tag k="ssr:stedsnr" v="7259" />
	</node>
	<node id="9970344745" lat="61.3118917" lon="5.3018728" version="1" timestamp="2022-08-22T16:09:52Z" changeset="125234565" uid="3497659" user="NKA">
		<tag k="alt_name" v="Svoene" />
		<tag k="name" v="Svodene" />
		<tag k="place" v="locality" />
		<tag k="ssr:stedsnr" v="554476" />
	</node>
	<node id="9970344746" lat="61.2477389" lon="5.6493921" version="1" timestamp="2022-08-22T16:09:52Z" changeset="125234565" uid="3497659" user="NKA">
		<tag k="name" v="Botnen" />
		<tag k="place" v="locality" />
		<tag k="ssr:stedsnr" v="737962" />
	</node>
	<node id="9970344747" lat="61.3570835" lon="5.29462" version="1" timestamp="2022-08-22T16:09:52Z" changeset="125234565" uid="3497659" user="NKA">
		<tag k="alt_name" v="Hegreneset, ytre;Ytre Hegnes" />
		<tag k="name" v="Ytre Hegreneset" />
		<tag k="place" v="farm" />
		<tag k="ssr:stedsnr" v="857334" />
	</node>
	<node id="9970344748" lat="61.269117" lon="5.6443794" version="1" timestamp="2022-08-22T16:09:52Z" changeset="125234565" uid="3497659" user="NKA">
		<tag k="name" v="Lia" />
		<tag k="place" v="isolated_dwelling" />
		<tag k="ssr:stedsnr" v="735185" />
	</node>
	<node id="9970344749" lat="61.3030188" lon="5.1782785" version="1" timestamp="2022-08-22T16:09:52Z" changeset="125234565" uid="3497659" user="NKA">
		<tag k="name" v="Nybø" />
		<tag k="place" v="farm" />
		<tag k="ssr:stedsnr" v="857484" />
	</node>
	<node id="9970344750" lat="61.2426317" lon="5.4846323" version="1" timestamp="2022-08-22T16:09:52Z" changeset="125234565" uid="3497659" user="NKA">
		<tag k="name" v="Nyborg" />
		<tag k="place" v="farm" />
		<tag k="ssr:stedsnr" v="373929" />
	</node>
	<node id="9970344751" lat="61.2487104" lon="5.6504704" version="1" timestamp="2022-08-22T16:09:52Z" changeset="125234565" uid="3497659" user="NKA">
		<tag k="alt_name" v="Heggeim" />
		<tag k="name" v="Heggheim" />
		<tag k="place" v="hamlet" />
		<tag k="ssr:stedsnr" v="554600" />
	</node>
	<node id="9970344752" lat="61.2554861" lon="5.4536171" version="1" timestamp="2022-08-22T16:09:52Z" changeset="125234565" uid="3497659" user="NKA">
		<tag k="name" v="Vågen" />
		<tag k="place" v="farm" />
		<tag k="ssr:stedsnr" v="553517" />
	</node>
	<node id="9970344753" lat="61.2708972" lon="5.5860781" version="1" timestamp="2022-08-22T16:09:52Z" changeset="125234565" uid="3497659" user="NKA">
		<tag k="historic" v="shieling" />
		<tag k="name" v="Kalstadstølen" />
		<tag k="place" v="isolated_dwelling" />
		<tag k="ssr:stedsnr" v="797172" />
	</node>
	<node id="9970344754" lat="61.3714293" lon="5.4925549" version="1" timestamp="2022-08-22T16:09:52Z" changeset="125234565" uid="3497659" user="NKA">
		<tag k="name" v="Heimtunet" />
		<tag k="place" v="farm" />
		<tag k="ssr:stedsnr" v="675975" />
	</node>
	<node id="9970344755" lat="61.3152267" lon="5.5076915" version="1" timestamp="2022-08-22T16:09:52Z" changeset="125234565" uid="3497659" user="NKA">
		<tag k="name" v="Sunndalen" />
		<tag k="place" v="hamlet" />
		<tag k="ssr:stedsnr" v="974094" />
	</node>
	<node id="9970344756" lat="61.3043389" lon="5.1558589" version="1" timestamp="2022-08-22T16:09:52Z" changeset="125234565" uid="3497659" user="NKA">
		<tag k="name" v="Vågen" />
		<tag k="place" v="farm" />
		<tag k="ssr:stedsnr" v="640737" />
	</node>
	<node id="9970344757" lat="61.2756" lon="5.4057921" version="1" timestamp="2022-08-22T16:09:52Z" changeset="125234565" uid="3497659" user="NKA">
		<tag k="alt_name" v="Selkråa" />
		<tag k="historic" v="shieling" />
		<tag k="name" v="Lonelandsstølen" />
		<tag k="place" v="isolated_dwelling" />
		<tag k="ssr:stedsnr" v="190574" />
	</node>
	<node id="9970344758" lat="61.3442327" lon="5.2879126" version="1" timestamp="2022-08-22T16:09:52Z" changeset="125234565" uid="3497659" user="NKA">
		<tag k="name" v="Ytre Eldevik" />
		<tag k="place" v="farm" />
		<tag k="ssr:stedsnr" v="417426" />
	</node>
	<node id="9970344759" lat="61.3649141" lon="5.4159937" version="1" timestamp="2022-08-22T16:09:52Z" changeset="125234565" uid="3497659" user="NKA">
		<tag k="name" v="Einehaugane" />
		<tag k="place" v="farm" />
		<tag k="ssr:stedsnr" v="971481" />
	</node>
	<node id="9970344760" lat="61.3214417" lon="5.3541283" version="1" timestamp="2022-08-22T16:09:52Z" changeset="125234565" uid="3497659" user="NKA">
		<tag k="name" v="Litlevika" />
		<tag k="place" v="farm" />
		<tag k="ssr:stedsnr" v="190315" />
	</node>
	<node id="9970344761" lat="61.2634564" lon="5.4079085" version="1" timestamp="2022-08-22T16:09:52Z" changeset="125234565" uid="3497659" user="NKA">
		<tag k="alt_name" v="Lindeli" />
		<tag k="name" v="Lindelia" />
		<tag k="place" v="farm" />
		<tag k="ssr:stedsnr" v="311559" />
	</node>
	<node id="9970344762" lat="61.369725" lon="5.5380727" version="1" timestamp="2022-08-22T16:09:52Z" changeset="125234565" uid="3497659" user="NKA">
		<tag k="name" v="Nybø" />
		<tag k="place" v="farm" />
		<tag k="ssr:stedsnr" v="918970" />
	</node>
	<node id="9970344763" lat="61.3615862" lon="5.3488339" version="1" timestamp="2022-08-22T16:09:52Z" changeset="125234565" uid="3497659" user="NKA">
		<tag k="name" v="Pollen" />
		<tag k="place" v="farm" />
		<tag k="ssr:stedsnr" v="129324" />
	</node>
	<node id="9970344764" lat="61.2881555" lon="5.1800172" version="1" timestamp="2022-08-22T16:09:52Z" changeset="125234565" uid="3497659" user="NKA">
		<tag k="alt_name" v="Leite" />
		<tag k="name" v="Leitet" />
		<tag k="place" v="farm" />
		<tag k="ssr:stedsnr" v="371381" />
	</node>
</osm>
