<?xml version="1.0" encoding="UTF-8"?>
<osm version="0.6" generator="osmapis">
	<node lat="60.411693289419865" lon="7.292814110492983" id="-70824">
		<tag k="name" v="Bjørkeholtet" />
		<tag k="ssr:date" v="2019-12-27" />
		<tag k="ssr:gruppe" v="veg" />
		<tag k="ssr:hovedgruppe" v="infrastruktur" />
		<tag k="ssr:stedsnr" v="60973" />
		<tag k="ssr:type" v="adressenavn" />
	</node>
	<node lat="60.42009124677748" lon="7.254805551412664" id="-70825">
		<tag k="name" v="Høl" />
		<tag k="ssr:date" v="2019-12-27" />
		<tag k="ssr:gruppe" v="veg" />
		<tag k="ssr:hovedgruppe" v="infrastruktur" />
		<tag k="ssr:stedsnr" v="60976" />
		<tag k="ssr:type" v="adressenavn" />
	</node>
	<node lat="60.43449295313491" lon="7.096375594034975" id="-70826">
		<tag k="name" v="Kvamsdalsvegen" />
		<tag k="ssr:date" v="2019-12-27" />
		<tag k="ssr:gruppe" v="veg" />
		<tag k="ssr:hovedgruppe" v="infrastruktur" />
		<tag k="ssr:stedsnr" v="60977" />
		<tag k="ssr:type" v="adressenavn" />
	</node>
	<node lat="60.40247026668283" lon="7.370389820325786" id="-70899">
		<tag k="name" v="Sjursløken" />
		<tag k="ssr:date" v="2019-12-27" />
		<tag k="ssr:gruppe" v="veg" />
		<tag k="ssr:hovedgruppe" v="infrastruktur" />
		<tag k="ssr:stedsnr" v="121966" />
		<tag k="ssr:type" v="adressenavn" />
	</node>
	<node lat="60.38140858352525" lon="7.436031418372158" id="-70900">
		<tag k="name" v="Krossdalen" />
		<tag k="ssr:date" v="2019-12-27" />
		<tag k="ssr:gruppe" v="veg" />
		<tag k="ssr:hovedgruppe" v="infrastruktur" />
		<tag k="ssr:stedsnr" v="121967" />
		<tag k="ssr:type" v="adressenavn" />
	</node>
	<node lat="60.41854795363801" lon="7.26087672869847" id="-71019">
		<tag k="name" v="Lisetvegen" />
		<tag k="ssr:date" v="2019-12-27" />
		<tag k="ssr:gruppe" v="veg" />
		<tag k="ssr:hovedgruppe" v="infrastruktur" />
		<tag k="ssr:stedsnr" v="303978" />
		<tag k="ssr:type" v="adressenavn" />
	</node>
	<node lat="60.467405558549544" lon="7.069716660580049" id="-71221">
		<tag k="alt_name" v="Eidfjord" />
		<tag k="name" v="Eidfjord kommune" />
		<tag k="ssr:date" v="2019-12-27" />
		<tag k="ssr:gruppe" v="administrativeIndelinger" />
		<tag k="ssr:hovedgruppe" v="offentligAdministrasjon" />
		<tag k="ssr:stedsnr" v="509212" />
		<tag k="ssr:type" v="kommune" />
	</node>
	<node lat="60.469842278922115" lon="6.854593991511105" id="-71383">
		<tag k="name" v="Haugane" />
		<tag k="ssr:date" v="2019-12-27" />
		<tag k="ssr:gruppe" v="veg" />
		<tag k="ssr:hovedgruppe" v="infrastruktur" />
		<tag k="ssr:stedsnr" v="910985" />
		<tag k="ssr:type" v="adressenavn" />
	</node>
	<node lat="60.407172965562275" lon="7.2820603063939515" id="-71384">
		<tag k="name" v="Fetavegen" />
		<tag k="ssr:date" v="2019-12-27" />
		<tag k="ssr:gruppe" v="veg" />
		<tag k="ssr:hovedgruppe" v="infrastruktur" />
		<tag k="ssr:stedsnr" v="788973" />
		<tag k="ssr:type" v="adressenavn" />
	</node>
	<node lat="60.40172672684559" lon="7.296330090267793" id="-71385">
		<tag k="name" v="Fetalia" />
		<tag k="ssr:date" v="2019-12-27" />
		<tag k="ssr:gruppe" v="veg" />
		<tag k="ssr:hovedgruppe" v="infrastruktur" />
		<tag k="ssr:stedsnr" v="788974" />
		<tag k="ssr:type" v="adressenavn" />
	</node>
	<node lat="60.465830556917496" lon="6.9255444357525375" id="-71441">
		<tag k="name" v="Hardanger" />
		<tag k="ssr:date" v="2019-12-27" />
		<tag k="ssr:gruppe" v="terrengområder" />
		<tag k="ssr:hovedgruppe" v="terreng" />
		<tag k="ssr:stedsnr" v="813334" />
		<tag k="ssr:type" v="landskapsområde" />
	</node>
	<node lat="60.4040429234943" lon="7.373304092671578" id="-71602">
		<tag k="name" v="Skinnvelten" />
		<tag k="ssr:date" v="2019-12-27" />
		<tag k="ssr:gruppe" v="veg" />
		<tag k="ssr:hovedgruppe" v="infrastruktur" />
		<tag k="ssr:stedsnr" v="60961" />
		<tag k="ssr:type" v="adressenavn" />
	</node>
	<node lat="60.406840005067316" lon="7.281914949445851" id="-71724">
		<tag k="name" v="Fetaleitet" />
		<tag k="ssr:date" v="2019-12-27" />
		<tag k="ssr:gruppe" v="veg" />
		<tag k="ssr:hovedgruppe" v="infrastruktur" />
		<tag k="ssr:stedsnr" v="182965" />
		<tag k="ssr:type" v="adressenavn" />
	</node>
	<node lat="60.42571869714587" lon="7.265426552088202" id="-71726">
		<tag k="name" v="Isdalsvegen" />
		<tag k="ssr:date" v="2019-12-27" />
		<tag k="ssr:gruppe" v="veg" />
		<tag k="ssr:hovedgruppe" v="infrastruktur" />
		<tag k="ssr:stedsnr" v="182968" />
		<tag k="ssr:type" v="adressenavn" />
	</node>
	<node lat="60.37934552872455" lon="7.162536172981645" id="-71727">
		<tag k="name" v="Hjølmavegen" />
		<tag k="ssr:date" v="2019-12-27" />
		<tag k="ssr:gruppe" v="veg" />
		<tag k="ssr:hovedgruppe" v="infrastruktur" />
		<tag k="ssr:stedsnr" v="182969" />
		<tag k="ssr:type" v="adressenavn" />
	</node>
	<node lat="60.41726436822486" lon="7.200125431934322" id="-71728">
		<tag k="name" v="Eidfjordvegen" />
		<tag k="ssr:date" v="2019-12-27" />
		<tag k="ssr:gruppe" v="veg" />
		<tag k="ssr:hovedgruppe" v="infrastruktur" />
		<tag k="ssr:stedsnr" v="182975" />
		<tag k="ssr:type" v="adressenavn" />
	</node>
	<node lat="60.41146305322193" lon="7.353304459125115" id="-71849">
		<tag k="name" v="Tverrlihaugen" />
		<tag k="ssr:date" v="2019-12-27" />
		<tag k="ssr:gruppe" v="veg" />
		<tag k="ssr:hovedgruppe" v="infrastruktur" />
		<tag k="ssr:stedsnr" v="363946" />
		<tag k="ssr:type" v="adressenavn" />
	</node>
	<node lat="60.50080407188495" lon="7.165968570012312" id="-71912">
		<tag k="name" v="Kjeåsvegen" />
		<tag k="ssr:date" v="2019-12-27" />
		<tag k="ssr:gruppe" v="veg" />
		<tag k="ssr:hovedgruppe" v="infrastruktur" />
		<tag k="ssr:stedsnr" v="425972" />
		<tag k="ssr:type" v="adressenavn" />
	</node>
	<node lat="60.477344739150944" lon="6.993682535495494" id="-71913">
		<tag k="name" v="Erdalsvegen" />
		<tag k="ssr:date" v="2019-12-27" />
		<tag k="ssr:gruppe" v="veg" />
		<tag k="ssr:hovedgruppe" v="infrastruktur" />
		<tag k="ssr:stedsnr" v="425974" />
		<tag k="ssr:type" v="adressenavn" />
	</node>
	<node lat="60.36830626151796" lon="7.502790207838138" id="-71914">
		<tag k="name" v="Hardangervidda" />
		<tag k="ssr:date" v="2019-12-27" />
		<tag k="ssr:gruppe" v="veg" />
		<tag k="ssr:hovedgruppe" v="infrastruktur" />
		<tag k="ssr:stedsnr" v="425977" />
		<tag k="ssr:type" v="adressenavn" />
	</node>
	<node lat="60.421705364023076" lon="7.182868500350885" id="-72036">
		<tag k="name" v="Tveito" />
		<tag k="ssr:date" v="2019-12-27" />
		<tag k="ssr:gruppe" v="veg" />
		<tag k="ssr:hovedgruppe" v="infrastruktur" />
		<tag k="ssr:stedsnr" v="606975" />
		<tag k="ssr:type" v="adressenavn" />
	</node>
	<node lat="60.46685262588601" lon="6.863810206564719" id="-72161">
		<tag k="name" v="Indre Bu" />
		<tag k="ssr:date" v="2019-12-27" />
		<tag k="ssr:gruppe" v="veg" />
		<tag k="ssr:hovedgruppe" v="infrastruktur" />
		<tag k="ssr:stedsnr" v="788980" />
		<tag k="ssr:type" v="adressenavn" />
	</node>
	<node lat="60.41968296332827" lon="7.260234152257435" id="-72225">
		<tag k="name" v="Fosslivegen" />
		<tag k="ssr:date" v="2019-12-27" />
		<tag k="ssr:gruppe" v="veg" />
		<tag k="ssr:hovedgruppe" v="infrastruktur" />
		<tag k="ssr:stedsnr" v="849977" />
		<tag k="ssr:type" v="adressenavn" />
	</node>
	<node lat="60.41410089621638" lon="7.287479016948035" id="-72309">
		<tag k="name" v="Lialeitet" />
		<tag k="ssr:date" v="2019-12-27" />
		<tag k="ssr:gruppe" v="veg" />
		<tag k="ssr:hovedgruppe" v="infrastruktur" />
		<tag k="ssr:stedsnr" v="990432" />
		<tag k="ssr:type" v="adressenavn" />
	</node>
	<node lat="60.41362474597448" lon="7.286069442379343" id="-72310">
		<tag k="name" v="Nedre Lialeitet" />
		<tag k="ssr:date" v="2019-12-27" />
		<tag k="ssr:gruppe" v="veg" />
		<tag k="ssr:hovedgruppe" v="infrastruktur" />
		<tag k="ssr:stedsnr" v="990433" />
		<tag k="ssr:type" v="adressenavn" />
	</node>
</osm>
