<?xml version="1.0" encoding="UTF-8"?>
<osm version="0.6" generator="osmapis">
	<node lat="63.55843055877826" lon="10.672380561699715" id="-36685">
		<tag k="name" v="Hernesmarka" />
		<tag k="place" v="farm" />
		<tag k="ssr:date" v="2018-01-09" />
		<tag k="ssr:gruppe" v="gardsbebyggelse" />
		<tag k="ssr:hovedgruppe" v="bebyggelse" />
		<tag k="ssr:stedsnr" v="229650" />
		<tag k="ssr:type" v="bruk" />
	</node>
	<node lat="63.66215278081473" lon="10.902299990863252" id="-36686">
		<tag k="name" v="Igltjønna" />
		<tag k="natural" v="water" />
		<tag k="ssr:date" v="2018-01-09" />
		<tag k="ssr:gruppe" v="stilleståendeVann" />
		<tag k="ssr:hovedgruppe" v="ferskvann" />
		<tag k="ssr:stedsnr" v="13069" />
		<tag k="ssr:type" v="tjern" />
	</node>
	<node lat="63.6036138866645" lon="10.819799990007782" id="-36687">
		<tag k="name" v="Husby" />
		<tag k="place" v="farm" />
		<tag k="ssr:date" v="2018-01-09" />
		<tag k="ssr:gruppe" v="gardsbebyggelse" />
		<tag k="ssr:hovedgruppe" v="bebyggelse" />
		<tag k="ssr:stedsnr" v="13878" />
		<tag k="ssr:type" v="bruk" />
	</node>
	<node lat="63.600797224104184" lon="10.836558326038723" id="-36688">
		<tag k="name" v="Skogtrøa" />
		<tag k="place" v="farm" />
		<tag k="ssr:date" v="2018-01-09" />
		<tag k="ssr:gruppe" v="gardsbebyggelse" />
		<tag k="ssr:hovedgruppe" v="bebyggelse" />
		<tag k="ssr:stedsnr" v="13883" />
		<tag k="ssr:type" v="bruk" />
	</node>
	<node lat="63.61512221995163" lon="10.806919437851821" id="-36689">
		<tag k="name" v="Høgset" />
		<tag k="place" v="farm" />
		<tag k="ssr:date" v="2018-01-09" />
		<tag k="ssr:gruppe" v="gardsbebyggelse" />
		<tag k="ssr:hovedgruppe" v="bebyggelse" />
		<tag k="ssr:stedsnr" v="13912" />
		<tag k="ssr:type" v="bruk" />
	</node>
	<node lat="63.61728889203454" lon="10.814519445168042" id="-36690">
		<tag k="name" v="Austre Kvamman" />
		<tag k="place" v="farm" />
		<tag k="ssr:date" v="2021-06-08" />
		<tag k="ssr:gruppe" v="gardsbebyggelse" />
		<tag k="ssr:hovedgruppe" v="bebyggelse" />
		<tag k="ssr:stedsnr" v="13914" />
		<tag k="ssr:type" v="bruk" />
	</node>
	<node lat="63.61450277489971" lon="10.770869451362351" id="-36691">
		<tag k="name" v="Stokkåsen" />
		<tag k="natural" v="hill" />
		<tag k="place" v="locality" />
		<tag k="ssr:date" v="2021-06-08" />
		<tag k="ssr:gruppe" v="høyder" />
		<tag k="ssr:hovedgruppe" v="terreng" />
		<tag k="ssr:stedsnr" v="13917" />
		<tag k="ssr:type" v="haug" />
	</node>
	<node lat="63.54356388757547" lon="10.674688892187392" id="-36692">
		<tag k="name" v="Hernesøra" />
		<tag k="natural" v="beach" />
		<tag k="ssr:date" v="2018-01-09" />
		<tag k="ssr:gruppe" v="kystkontur" />
		<tag k="ssr:hovedgruppe" v="sjø" />
		<tag k="ssr:stedsnr" v="44914" />
		<tag k="ssr:type" v="strandISjø" />
	</node>
	<node lat="63.556780558400014" lon="10.686797231271408" id="-36693">
		<tag k="name" v="Valtun" />
		<tag k="place" v="farm" />
		<tag k="ssr:date" v="2018-01-09" />
		<tag k="ssr:gruppe" v="gardsbebyggelse" />
		<tag k="ssr:hovedgruppe" v="bebyggelse" />
		<tag k="ssr:stedsnr" v="46135" />
		<tag k="ssr:type" v="bruk" />
	</node>
	<node lat="63.63684999553852" lon="10.841330559558946" id="-36694">
		<tag k="name" v="Gammelgården" />
		<tag k="place" v="isolated_dwelling" />
		<tag k="ssr:date" v="2018-01-09" />
		<tag k="ssr:gruppe" v="bolighus" />
		<tag k="ssr:hovedgruppe" v="bebyggelse" />
		<tag k="ssr:stedsnr" v="46204" />
		<tag k="ssr:type" v="eneboligMindreBoligbygg" />
	</node>
	<node lat="63.598397701893035" lon="10.856203317900464" id="-36695">
		<tag k="name" v="Bekken" />
		<tag k="natural" v="bay" />
		<tag k="ssr:date" v="2018-01-09" />
		<tag k="ssr:gruppe" v="kystkontur" />
		<tag k="ssr:hovedgruppe" v="sjø" />
		<tag k="ssr:stedsnr" v="46209" />
		<tag k="ssr:type" v="vikISjø" />
	</node>
	<node lat="63.61918610756539" lon="10.808569450674748" id="-36696">
		<tag k="name" v="Frøstad" />
		<tag k="place" v="farm" />
		<tag k="ssr:date" v="2018-01-09" />
		<tag k="ssr:gruppe" v="gardsbebyggelse" />
		<tag k="ssr:hovedgruppe" v="bebyggelse" />
		<tag k="ssr:stedsnr" v="46213" />
		<tag k="ssr:type" v="bruk" />
	</node>
	<node lat="63.62882873339266" lon="10.899695491265176" id="-36697">
		<tag k="name" v="Åsan" />
		<tag k="natural" v="hill" />
		<tag k="place" v="locality" />
		<tag k="ssr:date" v="2018-01-09" />
		<tag k="ssr:gruppe" v="høyder" />
		<tag k="ssr:hovedgruppe" v="terreng" />
		<tag k="ssr:stedsnr" v="46173" />
		<tag k="ssr:type" v="hei" />
	</node>
	<node lat="63.61698545009359" lon="10.860982954524413" id="-36698">
		<tag k="name" v="Brennestangen" />
		<tag k="natural" v="cape" />
		<tag k="ssr:date" v="2018-01-09" />
		<tag k="ssr:gruppe" v="ferskvannskontur" />
		<tag k="ssr:hovedgruppe" v="ferskvann" />
		<tag k="ssr:stedsnr" v="46178" />
		<tag k="ssr:type" v="nes" />
	</node>
	<node lat="63.589477547820536" lon="10.765057803576973" id="-36699">
		<tag k="name" v="Jubergshaugen" />
		<tag k="natural" v="hill" />
		<tag k="place" v="locality" />
		<tag k="ssr:date" v="2018-01-09" />
		<tag k="ssr:gruppe" v="høyder" />
		<tag k="ssr:hovedgruppe" v="terreng" />
		<tag k="ssr:stedsnr" v="46275" />
		<tag k="ssr:type" v="haug" />
	</node>
	<node lat="63.60930277697517" lon="10.716352773937636" id="-36700">
		<tag k="name" v="Breivikbekken" />
		<tag k="ssr:date" v="2018-01-09" />
		<tag k="ssr:gruppe" v="rennendeVann" />
		<tag k="ssr:hovedgruppe" v="ferskvann" />
		<tag k="ssr:stedsnr" v="46817" />
		<tag k="ssr:type" v="bekk" />
		<tag k="waterway" v="stream" />
	</node>
	<node lat="63.64933055526697" lon="10.920341667674645" id="-36701">
		<tag k="name" v="Sottjønna" />
		<tag k="natural" v="water" />
		<tag k="ssr:date" v="2021-06-08" />
		<tag k="ssr:gruppe" v="stilleståendeVann" />
		<tag k="ssr:hovedgruppe" v="ferskvann" />
		<tag k="ssr:stedsnr" v="74036" />
		<tag k="ssr:type" v="tjern" />
	</node>
	<node lat="63.583789808078485" lon="10.622971679988208" id="-36702">
		<tag k="alt_name" v="Tautra, nordre;Tautra nordre;Nord-Tautra" />
		<tag k="name" v="Nordre Tautra" />
		<tag k="place" v="farm" />
		<tag k="ssr:date" v="2019-02-14" />
		<tag k="ssr:gruppe" v="gardsbebyggelse" />
		<tag k="ssr:hovedgruppe" v="bebyggelse" />
		<tag k="ssr:stedsnr" v="74206" />
		<tag k="ssr:type" v="bruk" />
	</node>
	<node lat="63.582802253109584" lon="10.623459093402477" id="-36703">
		<tag k="alt_name" v="Tautra, midtre;Tautra midtre" />
		<tag k="name" v="Midtre Tautra" />
		<tag k="place" v="farm" />
		<tag k="ssr:date" v="2019-02-14" />
		<tag k="ssr:gruppe" v="gardsbebyggelse" />
		<tag k="ssr:hovedgruppe" v="bebyggelse" />
		<tag k="ssr:stedsnr" v="74207" />
		<tag k="ssr:type" v="bruk" />
	</node>
	<node lat="63.615134933481905" lon="10.778708385689963" id="-36704">
		<tag k="fixme" v="consider place=hamlet" />
		<tag k="name" v="Stokkan" />
		<tag k="place" v="farm" />
		<tag k="ssr:date" v="2018-01-09" />
		<tag k="ssr:gruppe" v="gardsbebyggelse" />
		<tag k="ssr:hovedgruppe" v="bebyggelse" />
		<tag k="ssr:stedsnr" v="74918" />
		<tag k="ssr:type" v="gard" />
	</node>
	<node lat="63.588263893338286" lon="10.70254721733178" id="-36705">
		<tag k="name" v="Risethøgda" />
		<tag k="natural" v="hill" />
		<tag k="place" v="locality" />
		<tag k="ssr:date" v="2018-01-09" />
		<tag k="ssr:gruppe" v="høyder" />
		<tag k="ssr:hovedgruppe" v="terreng" />
		<tag k="ssr:stedsnr" v="105777" />
		<tag k="ssr:type" v="høyde" />
	</node>
	<node lat="63.63415449102739" lon="10.893255546228678" id="-36706">
		<tag k="name" v="Storsvebekken" />
		<tag k="ssr:date" v="2018-01-09" />
		<tag k="ssr:gruppe" v="rennendeVann" />
		<tag k="ssr:hovedgruppe" v="ferskvann" />
		<tag k="ssr:stedsnr" v="107130" />
		<tag k="ssr:type" v="bekk" />
		<tag k="waterway" v="stream" />
	</node>
	<node lat="63.56087222225201" lon="10.670830547961263" id="-36707">
		<tag k="name" v="Nordfjæraleiret" />
		<tag k="natural" v="beach" />
		<tag k="ssr:date" v="2018-01-09" />
		<tag k="ssr:gruppe" v="kystkontur" />
		<tag k="ssr:hovedgruppe" v="sjø" />
		<tag k="ssr:stedsnr" v="107678" />
		<tag k="ssr:type" v="strandISjø" />
	</node>
	<node lat="63.56747777852175" lon="10.711941660736132" id="-36708">
		<tag k="name" v="Prestaunet" />
		<tag k="place" v="farm" />
		<tag k="ssr:date" v="2018-01-09" />
		<tag k="ssr:gruppe" v="gardsbebyggelse" />
		<tag k="ssr:hovedgruppe" v="bebyggelse" />
		<tag k="ssr:stedsnr" v="107685" />
		<tag k="ssr:type" v="bruk" />
	</node>
	<node lat="63.64688055982395" lon="10.923727776874248" id="-36709">
		<tag k="name" v="Øver Våbekken" />
		<tag k="ssr:date" v="2019-03-11" />
		<tag k="ssr:gruppe" v="rennendeVann" />
		<tag k="ssr:hovedgruppe" v="ferskvann" />
		<tag k="ssr:stedsnr" v="107830" />
		<tag k="ssr:type" v="bekk" />
		<tag k="waterway" v="stream" />
	</node>
	<node lat="63.551319361162925" lon="10.664680332693695" id="-36710">
		<tag k="name" v="Hernes" />
		<tag k="place" v="hamlet" />
		<tag k="ssr:date" v="2018-01-09" />
		<tag k="ssr:gruppe" v="gardsbebyggelse" />
		<tag k="ssr:hovedgruppe" v="bebyggelse" />
		<tag k="ssr:stedsnr" v="118828" />
		<tag k="ssr:type" v="navnegard" />
	</node>
	<node lat="63.640516664831054" lon="10.850855560884181" id="-36711">
		<tag k="alt_name" v="Åtlo" />
		<tag k="name" v="Åtlohaugen" />
		<tag k="place" v="farm" />
		<tag k="ssr:date" v="2018-01-09" />
		<tag k="ssr:gruppe" v="gardsbebyggelse" />
		<tag k="ssr:hovedgruppe" v="bebyggelse" />
		<tag k="ssr:stedsnr" v="134056" />
		<tag k="ssr:type" v="bruk" />
	</node>
	<node lat="63.58043610968948" lon="10.624044449593773" id="-36712">
		<tag k="name" v="Nordhamna" />
		<tag k="natural" v="bay" />
		<tag k="ssr:date" v="2018-01-09" />
		<tag k="ssr:gruppe" v="kystkontur" />
		<tag k="ssr:hovedgruppe" v="sjø" />
		<tag k="ssr:stedsnr" v="134254" />
		<tag k="ssr:type" v="vikISjø" />
	</node>
	<node lat="63.57968610803834" lon="10.584552781712544" id="-36713">
		<tag k="name" v="Gardsgrunnen" />
		<tag k="natural" v="shoal" />
		<tag k="place" v="locality" />
		<tag k="ssr:date" v="2018-01-09" />
		<tag k="ssr:gruppe" v="grunnerISjø" />
		<tag k="ssr:hovedgruppe" v="sjø" />
		<tag k="ssr:stedsnr" v="134255" />
		<tag k="ssr:type" v="grunneISjø" />
	</node>
	<node lat="63.583488887827265" lon="10.613116663221328" id="-36714">
		<tag k="name" v="Kviningen" />
		<tag k="natural" v="cape" />
		<tag k="ssr:date" v="2018-01-09" />
		<tag k="ssr:gruppe" v="kystkontur" />
		<tag k="ssr:hovedgruppe" v="sjø" />
		<tag k="ssr:stedsnr" v="134256" />
		<tag k="ssr:type" v="nesISjø" />
	</node>
	<node lat="63.61039166283619" lon="10.893858330936503" id="-36715">
		<tag k="name" v="Litlgjerdet" />
		<tag k="place" v="isolated_dwelling" />
		<tag k="ssr:date" v="2021-06-08" />
		<tag k="ssr:gruppe" v="bolighus" />
		<tag k="ssr:hovedgruppe" v="bebyggelse" />
		<tag k="ssr:stedsnr" v="134917" />
		<tag k="ssr:type" v="eneboligMindreBoligbygg" />
	</node>
	<node lat="63.61600642258853" lon="10.86502784345881" id="-36716">
		<tag k="fixme" v="consider place=hamlet" />
		<tag k="name" v="Brenne" />
		<tag k="place" v="farm" />
		<tag k="ssr:date" v="2018-01-09" />
		<tag k="ssr:gruppe" v="gardsbebyggelse" />
		<tag k="ssr:hovedgruppe" v="bebyggelse" />
		<tag k="ssr:stedsnr" v="134919" />
		<tag k="ssr:type" v="gard" />
	</node>
	<node lat="63.54932222073952" lon="10.721980561779462" id="-36717">
		<tag k="bay" v="fjord" />
		<tag k="name" v="Åsenfjorden" />
		<tag k="natural" v="bay" />
		<tag k="ssr:date" v="2019-12-27" />
		<tag k="ssr:gruppe" v="farvann" />
		<tag k="ssr:hovedgruppe" v="sjø" />
		<tag k="ssr:stedsnr" v="134806" />
		<tag k="ssr:type" v="fjord" />
	</node>
	<node lat="63.55344759952421" lon="10.670070244310045" id="-36718">
		<tag k="fixme" v="consider place=hamlet" />
		<tag k="name" v="Valberg" />
		<tag k="place" v="farm" />
		<tag k="ssr:date" v="2018-01-09" />
		<tag k="ssr:gruppe" v="gardsbebyggelse" />
		<tag k="ssr:hovedgruppe" v="bebyggelse" />
		<tag k="ssr:stedsnr" v="255227" />
		<tag k="ssr:type" v="gard" />
	</node>
	<node lat="63.56390263314557" lon="10.708537882553761" id="-36719">
		<tag k="fixme" v="consider place=hamlet" />
		<tag k="name" v="Logstein" />
		<tag k="place" v="farm" />
		<tag k="ssr:date" v="2018-01-09" />
		<tag k="ssr:gruppe" v="gardsbebyggelse" />
		<tag k="ssr:hovedgruppe" v="bebyggelse" />
		<tag k="ssr:stedsnr" v="255232" />
		<tag k="ssr:type" v="gard" />
	</node>
	<node lat="63.56016388813628" lon="10.696438882213165" id="-36720">
		<tag k="name" v="Mostad" />
		<tag k="place" v="farm" />
		<tag k="ssr:date" v="2018-01-09" />
		<tag k="ssr:gruppe" v="gardsbebyggelse" />
		<tag k="ssr:hovedgruppe" v="bebyggelse" />
		<tag k="ssr:stedsnr" v="255235" />
		<tag k="ssr:type" v="bruk" />
	</node>
	<node lat="63.57351944461999" lon="10.677797222153886" id="-36721">
		<tag k="name" v="Ryggafjæra" />
		<tag k="natural" v="beach" />
		<tag k="ssr:date" v="2019-10-22" />
		<tag k="ssr:gruppe" v="kystkontur" />
		<tag k="ssr:hovedgruppe" v="sjø" />
		<tag k="ssr:stedsnr" v="255193" />
		<tag k="ssr:type" v="strandISjø" />
	</node>
	<node lat="63.56037222267912" lon="10.679822230020005" id="-36722">
		<tag k="name" v="Sandstad" />
		<tag k="place" v="farm" />
		<tag k="ssr:date" v="2018-01-09" />
		<tag k="ssr:gruppe" v="gardsbebyggelse" />
		<tag k="ssr:hovedgruppe" v="bebyggelse" />
		<tag k="ssr:stedsnr" v="255252" />
		<tag k="ssr:type" v="bruk" />
	</node>
	<node lat="63.62973888672347" lon="10.854755565353782" id="-36723">
		<tag k="name" v="Staurset" />
		<tag k="place" v="isolated_dwelling" />
		<tag k="ssr:date" v="2018-01-09" />
		<tag k="ssr:gruppe" v="bolighus" />
		<tag k="ssr:hovedgruppe" v="bebyggelse" />
		<tag k="ssr:stedsnr" v="255987" />
		<tag k="ssr:type" v="eneboligMindreBoligbygg" />
	</node>
	<node lat="63.63246389013209" lon="10.811472224887687" id="-36724">
		<tag k="name" v="Hellberg" />
		<tag k="place" v="farm" />
		<tag k="ssr:date" v="2018-01-09" />
		<tag k="ssr:gruppe" v="gardsbebyggelse" />
		<tag k="ssr:hovedgruppe" v="bebyggelse" />
		<tag k="ssr:stedsnr" v="255990" />
		<tag k="ssr:type" v="bruk" />
	</node>
	<node lat="63.59763889207486" lon="10.705427780682133" id="-36725">
		<tag k="fixme" v="consider place=hamlet" />
		<tag k="name" v="Småland" />
		<tag k="place" v="village" />
		<tag k="ssr:date" v="2018-01-09" />
		<tag k="ssr:gruppe" v="bebyggelsesområder" />
		<tag k="ssr:hovedgruppe" v="bebyggelse" />
		<tag k="ssr:stedsnr" v="256280" />
		<tag k="ssr:type" v="bygdelagBygd" />
	</node>
	<node lat="63.58917222618597" lon="10.620855558106184" id="-36726">
		<tag k="name" v="Klosterflua" />
		<tag k="natural" v="shoal" />
		<tag k="place" v="locality" />
		<tag k="ssr:date" v="2018-01-09" />
		<tag k="ssr:gruppe" v="grunnerISjø" />
		<tag k="ssr:hovedgruppe" v="sjø" />
		<tag k="ssr:stedsnr" v="256283" />
		<tag k="ssr:type" v="grunneISjø" />
	</node>
	<node lat="63.58293695239141" lon="10.73621944899707" id="-36727">
		<tag k="fixme" v="consider place=hamlet" />
		<tag k="name" v="Vinnan" />
		<tag k="place" v="farm" />
		<tag k="ssr:date" v="2018-01-09" />
		<tag k="ssr:gruppe" v="gardsbebyggelse" />
		<tag k="ssr:hovedgruppe" v="bebyggelse" />
		<tag k="ssr:stedsnr" v="256781" />
		<tag k="ssr:type" v="gard" />
	</node>
	<node lat="63.58114795102513" lon="10.725611044026857" id="-36728">
		<tag k="name" v="Lein" />
		<tag k="place" v="hamlet" />
		<tag k="ssr:date" v="2018-01-09" />
		<tag k="ssr:gruppe" v="gardsbebyggelse" />
		<tag k="ssr:hovedgruppe" v="bebyggelse" />
		<tag k="ssr:stedsnr" v="256786" />
		<tag k="ssr:type" v="navnegard" />
	</node>
	<node lat="63.58252509612697" lon="10.7756438604578" id="-36729">
		<tag k="fixme" v="consider place=hamlet" />
		<tag k="name" v="Kvarme" />
		<tag k="place" v="farm" />
		<tag k="ssr:date" v="2018-01-09" />
		<tag k="ssr:gruppe" v="gardsbebyggelse" />
		<tag k="ssr:hovedgruppe" v="bebyggelse" />
		<tag k="ssr:stedsnr" v="256793" />
		<tag k="ssr:type" v="gard" />
	</node>
	<node lat="63.58792222638787" lon="10.76305000944781" id="-36730">
		<tag k="alt_name" v="Juberg, øvre" />
		<tag k="name" v="Øvre Juberg" />
		<tag k="place" v="farm" />
		<tag k="ssr:date" v="2018-01-09" />
		<tag k="ssr:gruppe" v="gardsbebyggelse" />
		<tag k="ssr:hovedgruppe" v="bebyggelse" />
		<tag k="ssr:stedsnr" v="256829" />
		<tag k="ssr:type" v="bruk" />
	</node>
	<node lat="63.58628055488138" lon="10.736930555354075" id="-36731">
		<tag k="amenity" v="school" />
		<tag k="name" v="Frosta skole" />
		<tag k="ssr:date" v="2018-01-09" />
		<tag k="ssr:gruppe" v="institusjoner" />
		<tag k="ssr:hovedgruppe" v="bebyggelse" />
		<tag k="ssr:stedsnr" v="167364" />
		<tag k="ssr:type" v="skole" />
	</node>
	<node lat="63.594963889006" lon="10.74350832946125" id="-36732">
		<tag k="name" v="Bergsåsen" />
		<tag k="natural" v="hill" />
		<tag k="place" v="locality" />
		<tag k="ssr:date" v="2018-01-09" />
		<tag k="ssr:gruppe" v="høyder" />
		<tag k="ssr:hovedgruppe" v="terreng" />
		<tag k="ssr:stedsnr" v="167909" />
		<tag k="ssr:type" v="høyde" />
	</node>
	<node lat="63.65303888962885" lon="10.92038055315206" id="-36733">
		<tag k="name" v="Stordalsbekken" />
		<tag k="ssr:date" v="2018-01-09" />
		<tag k="ssr:gruppe" v="rennendeVann" />
		<tag k="ssr:hovedgruppe" v="ferskvann" />
		<tag k="ssr:stedsnr" v="168123" />
		<tag k="ssr:type" v="bekk" />
		<tag k="waterway" v="stream" />
	</node>
	<node lat="63.57396195026201" lon="10.729007532330249" id="-36734">
		<tag k="name" v="Storsveet" />
		<tag k="place" v="farm" />
		<tag k="ssr:date" v="2018-01-09" />
		<tag k="ssr:gruppe" v="gardsbebyggelse" />
		<tag k="ssr:hovedgruppe" v="bebyggelse" />
		<tag k="ssr:stedsnr" v="168366" />
		<tag k="ssr:type" v="bruk" />
	</node>
	<node lat="63.646999998720034" lon="10.878977768048538" id="-36735">
		<tag k="name" v="Skardtjønna" />
		<tag k="natural" v="water" />
		<tag k="ssr:date" v="2021-06-08" />
		<tag k="ssr:gruppe" v="stilleståendeVann" />
		<tag k="ssr:hovedgruppe" v="ferskvann" />
		<tag k="ssr:stedsnr" v="263771" />
		<tag k="ssr:type" v="tjern" />
	</node>
	<node lat="63.60312716861251" lon="10.865642181425537" id="-36736">
		<tag k="fixme" v="consider place=hamlet" />
		<tag k="name" v="Aunet" />
		<tag k="place" v="farm" />
		<tag k="ssr:date" v="2018-01-09" />
		<tag k="ssr:gruppe" v="gardsbebyggelse" />
		<tag k="ssr:hovedgruppe" v="bebyggelse" />
		<tag k="ssr:stedsnr" v="195881" />
		<tag k="ssr:type" v="gard" />
	</node>
	<node lat="65.11002777597567" lon="13.085422216082504" id="-36737">
		<tag k="fixme" v="consider natural=peak for the most distinct mountains in the district" />
		<tag k="name" v="Kløftfjellet - Sloeptjenguevtele" />
		<tag k="name:no" v="Kløftfjellet" />
		<tag k="name:sma" v="Sloeptjenguevtele" />
		<tag k="natural" v="hill" />
		<tag k="place" v="locality" />
		<tag k="ssr:date" v="2021-10-07" />
		<tag k="ssr:gruppe" v="høyder" />
		<tag k="ssr:hovedgruppe" v="terreng" />
		<tag k="ssr:stedsnr" v="196523" />
		<tag k="ssr:type" v="fjell" />
	</node>
	<node lat="63.61738333054305" lon="10.814125003419475" id="-36738">
		<tag k="name" v="Kvamman" />
		<tag k="place" v="farm" />
		<tag k="ssr:date" v="2018-01-09" />
		<tag k="ssr:gruppe" v="gardsbebyggelse" />
		<tag k="ssr:hovedgruppe" v="bebyggelse" />
		<tag k="ssr:stedsnr" v="207026" />
		<tag k="ssr:type" v="bruk" />
	</node>
	<node lat="63.57300263907934" lon="10.689425435175764" id="-36739">
		<tag k="fixme" v="consider place=hamlet" />
		<tag k="name" v="Rygg" />
		<tag k="place" v="farm" />
		<tag k="ssr:date" v="2018-01-09" />
		<tag k="ssr:gruppe" v="gardsbebyggelse" />
		<tag k="ssr:hovedgruppe" v="bebyggelse" />
		<tag k="ssr:stedsnr" v="207392" />
		<tag k="ssr:type" v="gard" />
	</node>
	<node lat="63.58466388678586" lon="10.677344436649019" id="-36740">
		<tag k="fixme" v="consider seamark:type=rock or natural=shoal" />
		<tag k="name" v="Karihauet" />
		<tag k="place" v="islet" />
		<tag k="ssr:date" v="2018-01-09" />
		<tag k="ssr:gruppe" v="grunnerISjø" />
		<tag k="ssr:hovedgruppe" v="sjø" />
		<tag k="ssr:stedsnr" v="227781" />
		<tag k="ssr:type" v="skjærISjø" />
	</node>
	<node lat="63.60960110065719" lon="10.877955204919974" id="-36741">
		<tag k="name" v="Høglia" />
		<tag k="natural" v="hill" />
		<tag k="place" v="locality" />
		<tag k="ssr:date" v="2018-01-09" />
		<tag k="ssr:gruppe" v="høyder" />
		<tag k="ssr:hovedgruppe" v="terreng" />
		<tag k="ssr:stedsnr" v="228140" />
		<tag k="ssr:type" v="høyde" />
	</node>
	<node lat="63.599652778256846" lon="10.777688881913706" id="-36742">
		<tag k="name" v="Slættet" />
		<tag k="place" v="locality" />
		<tag k="ssr:date" v="2018-01-09" />
		<tag k="ssr:gruppe" v="flater" />
		<tag k="ssr:hovedgruppe" v="terreng" />
		<tag k="ssr:stedsnr" v="231004" />
		<tag k="ssr:type" v="slette" />
	</node>
	<node lat="63.60022499898581" lon="10.817266668168722" id="-36743">
		<tag k="name" v="Bjørkli" />
		<tag k="place" v="isolated_dwelling" />
		<tag k="ssr:date" v="2018-01-09" />
		<tag k="ssr:gruppe" v="bolighus" />
		<tag k="ssr:hovedgruppe" v="bebyggelse" />
		<tag k="ssr:stedsnr" v="255877" />
		<tag k="ssr:type" v="eneboligMindreBoligbygg" />
	</node>
	<node lat="63.60615277875168" lon="10.845999997159598" id="-36744">
		<tag k="name" v="Dalsveet" />
		<tag k="place" v="farm" />
		<tag k="ssr:date" v="2018-01-09" />
		<tag k="ssr:gruppe" v="gardsbebyggelse" />
		<tag k="ssr:hovedgruppe" v="bebyggelse" />
		<tag k="ssr:stedsnr" v="255910" />
		<tag k="ssr:type" v="bruk" />
	</node>
	<node lat="63.60028888572558" lon="10.75500276916049" id="-36745">
		<tag k="name" v="Remmavatnet" />
		<tag k="natural" v="water" />
		<tag k="ssr:date" v="2018-01-09" />
		<tag k="ssr:gruppe" v="stilleståendeVann" />
		<tag k="ssr:hovedgruppe" v="ferskvann" />
		<tag k="ssr:stedsnr" v="255918" />
		<tag k="ssr:type" v="tjern" />
	</node>
	<node lat="63.58136389186544" lon="10.629538895097104" id="-36746">
		<tag k="name" v="Sørhamna" />
		<tag k="natural" v="bay" />
		<tag k="ssr:date" v="2018-01-09" />
		<tag k="ssr:gruppe" v="kystkontur" />
		<tag k="ssr:hovedgruppe" v="sjø" />
		<tag k="ssr:stedsnr" v="256203" />
		<tag k="ssr:type" v="vikISjø" />
	</node>
	<node lat="63.58161110846782" lon="10.706341669805582" id="-36747">
		<tag k="alt_name" v="Hogstad, øvre" />
		<tag k="name" v="Øvre Hogstad" />
		<tag k="place" v="farm" />
		<tag k="ssr:date" v="2018-01-09" />
		<tag k="ssr:gruppe" v="gardsbebyggelse" />
		<tag k="ssr:hovedgruppe" v="bebyggelse" />
		<tag k="ssr:stedsnr" v="256206" />
		<tag k="ssr:type" v="bruk" />
	</node>
	<node lat="63.60731944446427" lon="10.746847231247202" id="-36748">
		<tag k="name" v="Austli" />
		<tag k="place" v="locality" />
		<tag k="ssr:date" v="2018-01-09" />
		<tag k="ssr:gruppe" v="dyrkamark" />
		<tag k="ssr:hovedgruppe" v="markslag" />
		<tag k="ssr:stedsnr" v="256907" />
		<tag k="ssr:type" v="jorde" />
	</node>
	<node lat="63.62093610688925" lon="10.795686110691754" id="-36749">
		<tag k="name" v="Solvang" />
		<tag k="place" v="farm" />
		<tag k="ssr:date" v="2018-01-09" />
		<tag k="ssr:gruppe" v="gardsbebyggelse" />
		<tag k="ssr:hovedgruppe" v="bebyggelse" />
		<tag k="ssr:stedsnr" v="256964" />
		<tag k="ssr:type" v="bruk" />
	</node>
	<node lat="63.571038890862845" lon="10.70615000418868" id="-36750">
		<tag k="name" v="Bolkan" />
		<tag k="place" v="isolated_dwelling" />
		<tag k="ssr:date" v="2018-01-09" />
		<tag k="ssr:gruppe" v="bolighus" />
		<tag k="ssr:hovedgruppe" v="bebyggelse" />
		<tag k="ssr:stedsnr" v="287791" />
		<tag k="ssr:type" v="eneboligMindreBoligbygg" />
	</node>
	<node lat="63.59511388847771" lon="10.707111103069959" id="-36751">
		<tag k="name" v="Steinhaugen" />
		<tag k="place" v="farm" />
		<tag k="ssr:date" v="2018-01-09" />
		<tag k="ssr:gruppe" v="gardsbebyggelse" />
		<tag k="ssr:hovedgruppe" v="bebyggelse" />
		<tag k="ssr:stedsnr" v="288791" />
		<tag k="ssr:type" v="bruk" />
	</node>
	<node lat="63.59301666749238" lon="10.749274998606296" id="-36752">
		<tag k="name" v="Bergsbekken" />
		<tag k="ssr:date" v="2018-01-09" />
		<tag k="ssr:gruppe" v="rennendeVann" />
		<tag k="ssr:hovedgruppe" v="ferskvann" />
		<tag k="ssr:stedsnr" v="288882" />
		<tag k="ssr:type" v="bekk" />
		<tag k="waterway" v="stream" />
	</node>
	<node lat="63.64515555376074" lon="10.917541664889958" id="-36753">
		<tag k="name" v="Ner Våbekken" />
		<tag k="ssr:date" v="2018-01-09" />
		<tag k="ssr:gruppe" v="rennendeVann" />
		<tag k="ssr:hovedgruppe" v="ferskvann" />
		<tag k="ssr:stedsnr" v="289096" />
		<tag k="ssr:type" v="bekk" />
		<tag k="waterway" v="stream" />
	</node>
	<node lat="63.62012777366927" lon="10.739644451276767" id="-36754">
		<tag k="name" v="Orsandbekken" />
		<tag k="ssr:date" v="2018-01-09" />
		<tag k="ssr:gruppe" v="rennendeVann" />
		<tag k="ssr:hovedgruppe" v="ferskvann" />
		<tag k="ssr:stedsnr" v="289995" />
		<tag k="ssr:type" v="bekk" />
		<tag k="waterway" v="stream" />
	</node>
	<node lat="63.574605555688514" lon="10.689886104257063" id="-36755">
		<tag k="alt_name" v="Rygg, øvre" />
		<tag k="name" v="Øvre Rygg" />
		<tag k="place" v="farm" />
		<tag k="ssr:date" v="2018-01-09" />
		<tag k="ssr:gruppe" v="gardsbebyggelse" />
		<tag k="ssr:hovedgruppe" v="bebyggelse" />
		<tag k="ssr:stedsnr" v="316209" />
		<tag k="ssr:type" v="bruk" />
	</node>
	<node lat="63.57559166984747" lon="10.696833326644175" id="-36756">
		<tag k="alt_name" v="Rygg, østre" />
		<tag k="name" v="Østre Rygg" />
		<tag k="place" v="farm" />
		<tag k="ssr:date" v="2018-01-09" />
		<tag k="ssr:gruppe" v="gardsbebyggelse" />
		<tag k="ssr:hovedgruppe" v="bebyggelse" />
		<tag k="ssr:stedsnr" v="316211" />
		<tag k="ssr:type" v="bruk" />
	</node>
	<node lat="63.571477780730504" lon="10.689580560758527" id="-36757">
		<tag k="alt_name" v="Rygg, nedre;Rygg" />
		<tag k="name" v="Nedre Rygg" />
		<tag k="place" v="farm" />
		<tag k="ssr:date" v="2018-01-09" />
		<tag k="ssr:gruppe" v="gardsbebyggelse" />
		<tag k="ssr:hovedgruppe" v="bebyggelse" />
		<tag k="ssr:stedsnr" v="316212" />
		<tag k="ssr:type" v="bruk" />
	</node>
	<node lat="63.54544166355358" lon="10.660591657785147" id="-36758">
		<tag k="alt_name" v="Hernes, nedre" />
		<tag k="name" v="Nedre Hernes" />
		<tag k="place" v="farm" />
		<tag k="ssr:date" v="2018-01-09" />
		<tag k="ssr:gruppe" v="gardsbebyggelse" />
		<tag k="ssr:hovedgruppe" v="bebyggelse" />
		<tag k="ssr:stedsnr" v="316250" />
		<tag k="ssr:type" v="bruk" />
	</node>
	<node lat="63.546666665676156" lon="10.628866666258869" id="-36759">
		<tag k="alt_name" v="Frostatangen" />
		<tag k="name" v="Hynne" />
		<tag k="natural" v="cape" />
		<tag k="ssr:date" v="2018-01-09" />
		<tag k="ssr:gruppe" v="kystkontur" />
		<tag k="ssr:hovedgruppe" v="sjø" />
		<tag k="ssr:stedsnr" v="316253" />
		<tag k="ssr:type" v="nesISjø" />
	</node>
	<node lat="63.55335833193359" lon="10.659883340189994" id="-36760">
		<tag k="alt_name" v="Hernes, øvre" />
		<tag k="name" v="Øvre Hernes" />
		<tag k="place" v="farm" />
		<tag k="ssr:date" v="2018-01-09" />
		<tag k="ssr:gruppe" v="gardsbebyggelse" />
		<tag k="ssr:hovedgruppe" v="bebyggelse" />
		<tag k="ssr:stedsnr" v="316259" />
		<tag k="ssr:type" v="bruk" />
	</node>
	<node lat="63.54945000276118" lon="10.633752785970588" id="-36761">
		<tag k="name" v="Ballsvik" />
		<tag k="place" v="farm" />
		<tag k="ssr:date" v="2018-01-09" />
		<tag k="ssr:gruppe" v="gardsbebyggelse" />
		<tag k="ssr:hovedgruppe" v="bebyggelse" />
		<tag k="ssr:stedsnr" v="316261" />
		<tag k="ssr:type" v="bruk" />
	</node>
	<node lat="63.614727778129954" lon="10.712180559334122" id="-36762">
		<tag k="alt_name" v="Furruneset" />
		<tag k="name" v="Furuneset" />
		<tag k="natural" v="cape" />
		<tag k="ssr:date" v="2018-01-09" />
		<tag k="ssr:gruppe" v="kystkontur" />
		<tag k="ssr:hovedgruppe" v="sjø" />
		<tag k="ssr:stedsnr" v="316301" />
		<tag k="ssr:type" v="nesISjø" />
	</node>
	<node lat="63.58464444217718" lon="10.691330547536799" id="-36763">
		<tag k="name" v="Aunan" />
		<tag k="place" v="farm" />
		<tag k="ssr:date" v="2018-01-09" />
		<tag k="ssr:gruppe" v="gardsbebyggelse" />
		<tag k="ssr:hovedgruppe" v="bebyggelse" />
		<tag k="ssr:stedsnr" v="316351" />
		<tag k="ssr:type" v="bruk" />
	</node>
	<node lat="63.58572221828072" lon="10.696694446286164" id="-36764">
		<tag k="name" v="Ådal" />
		<tag k="place" v="farm" />
		<tag k="ssr:date" v="2018-01-09" />
		<tag k="ssr:gruppe" v="gardsbebyggelse" />
		<tag k="ssr:hovedgruppe" v="bebyggelse" />
		<tag k="ssr:stedsnr" v="316357" />
		<tag k="ssr:type" v="bruk" />
	</node>
	<node lat="63.58733610704401" lon="10.689675006770626" id="-36765">
		<tag k="alt_name" v="Lenvik" />
		<tag k="name" v="Lenvika" />
		<tag k="place" v="farm" />
		<tag k="ssr:date" v="2018-05-22" />
		<tag k="ssr:gruppe" v="gardsbebyggelse" />
		<tag k="ssr:hovedgruppe" v="bebyggelse" />
		<tag k="ssr:stedsnr" v="316359" />
		<tag k="ssr:type" v="bruk" />
	</node>
	<node lat="63.66589721875019" lon="10.895436117582944" id="-36766">
		<tag k="name" v="Holmtjønna" />
		<tag k="natural" v="water" />
		<tag k="ssr:date" v="2021-06-08" />
		<tag k="ssr:gruppe" v="stilleståendeVann" />
		<tag k="ssr:hovedgruppe" v="ferskvann" />
		<tag k="ssr:stedsnr" v="317005" />
		<tag k="ssr:type" v="tjern" />
	</node>
	<node lat="63.67023888875753" lon="10.893000004661046" id="-36767">
		<tag k="name" v="Brurstidalen" />
		<tag k="natural" v="valley" />
		<tag k="place" v="locality" />
		<tag k="ssr:date" v="2018-01-09" />
		<tag k="ssr:gruppe" v="senkninger" />
		<tag k="ssr:hovedgruppe" v="terreng" />
		<tag k="ssr:stedsnr" v="317006" />
		<tag k="ssr:type" v="dal" />
	</node>
	<node lat="63.617000001050165" lon="10.75761110992203" id="-36768">
		<tag k="name" v="Åsen" />
		<tag k="place" v="farm" />
		<tag k="ssr:date" v="2018-01-09" />
		<tag k="ssr:gruppe" v="gardsbebyggelse" />
		<tag k="ssr:hovedgruppe" v="bebyggelse" />
		<tag k="ssr:stedsnr" v="316943" />
		<tag k="ssr:type" v="bruk" />
	</node>
	<node lat="63.62004199403173" lon="10.742401939759754" id="-36769">
		<tag k="fixme" v="consider place=hamlet" />
		<tag k="name" v="Orsanden" />
		<tag k="place" v="farm" />
		<tag k="ssr:date" v="2018-01-09" />
		<tag k="ssr:gruppe" v="gardsbebyggelse" />
		<tag k="ssr:hovedgruppe" v="bebyggelse" />
		<tag k="ssr:stedsnr" v="316944" />
		<tag k="ssr:type" v="gard" />
	</node>
	<node lat="63.608836113285875" lon="10.75430277298854" id="-36770">
		<tag k="name" v="Langdalen" />
		<tag k="natural" v="valley" />
		<tag k="place" v="locality" />
		<tag k="ssr:date" v="2018-01-09" />
		<tag k="ssr:gruppe" v="senkninger" />
		<tag k="ssr:hovedgruppe" v="terreng" />
		<tag k="ssr:stedsnr" v="469985" />
		<tag k="ssr:type" v="dal" />
	</node>
	<node lat="63.61124444877176" lon="10.711566676509932" id="-36771">
		<tag k="name" v="Breivikbukta" />
		<tag k="natural" v="bay" />
		<tag k="ssr:date" v="2018-01-09" />
		<tag k="ssr:gruppe" v="kystkontur" />
		<tag k="ssr:hovedgruppe" v="sjø" />
		<tag k="ssr:stedsnr" v="470800" />
		<tag k="ssr:type" v="vikISjø" />
	</node>
	<node lat="63.584455915876354" lon="10.786250958876874" id="-36772">
		<tag k="name" v="Kjøbenhavn" />
		<tag k="place" v="farm" />
		<tag k="ssr:date" v="2018-01-09" />
		<tag k="ssr:gruppe" v="gardsbebyggelse" />
		<tag k="ssr:hovedgruppe" v="bebyggelse" />
		<tag k="ssr:stedsnr" v="471253" />
		<tag k="ssr:type" v="bruk" />
	</node>
	<node lat="63.58906944400019" lon="10.831791675626354" id="-36773">
		<tag k="name" v="Geitberget" />
		<tag k="natural" v="hill" />
		<tag k="place" v="locality" />
		<tag k="ssr:date" v="2018-01-09" />
		<tag k="ssr:gruppe" v="høyder" />
		<tag k="ssr:hovedgruppe" v="terreng" />
		<tag k="ssr:stedsnr" v="471257" />
		<tag k="ssr:type" v="haug" />
	</node>
	<node lat="63.57014281779009" lon="10.718583067847444" id="-36774">
		<tag k="name" v="Midttun" />
		<tag k="place" v="farm" />
		<tag k="ssr:date" v="2018-01-09" />
		<tag k="ssr:gruppe" v="gardsbebyggelse" />
		<tag k="ssr:hovedgruppe" v="bebyggelse" />
		<tag k="ssr:stedsnr" v="471347" />
		<tag k="ssr:type" v="bruk" />
	</node>
	<node lat="63.63915832948698" lon="10.94036110947999" id="-36775">
		<tag k="name" v="Rasmustjønna" />
		<tag k="natural" v="water" />
		<tag k="ssr:date" v="2018-01-09" />
		<tag k="ssr:gruppe" v="stilleståendeVann" />
		<tag k="ssr:hovedgruppe" v="ferskvann" />
		<tag k="ssr:stedsnr" v="472097" />
		<tag k="ssr:type" v="tjern" />
	</node>
	<node lat="63.620041669647286" lon="10.722830554172853" id="-36776">
		<tag k="name" v="Brattvikneset" />
		<tag k="natural" v="cape" />
		<tag k="ssr:date" v="2018-01-09" />
		<tag k="ssr:gruppe" v="kystkontur" />
		<tag k="ssr:hovedgruppe" v="sjø" />
		<tag k="ssr:stedsnr" v="347121" />
		<tag k="ssr:type" v="nesISjø" />
	</node>
	<node lat="63.5670999957949" lon="10.690891675092479" id="-36777">
		<tag k="name" v="Tingstad" />
		<tag k="natural" v="hill" />
		<tag k="place" v="locality" />
		<tag k="ssr:date" v="2018-01-09" />
		<tag k="ssr:gruppe" v="høyder" />
		<tag k="ssr:hovedgruppe" v="terreng" />
		<tag k="ssr:stedsnr" v="350623" />
		<tag k="ssr:type" v="haug" />
	</node>
	<node lat="63.57508888591868" lon="10.625675006815285" id="-36778">
		<tag k="name" v="Kuøra" />
		<tag k="natural" v="beach" />
		<tag k="ssr:date" v="2018-01-09" />
		<tag k="ssr:gruppe" v="kystkontur" />
		<tag k="ssr:hovedgruppe" v="sjø" />
		<tag k="ssr:stedsnr" v="376190" />
		<tag k="ssr:type" v="strandISjø" />
	</node>
	<node lat="63.56477886383256" lon="10.692237631571706" id="-36779">
		<tag k="fixme" v="consider place=hamlet" />
		<tag k="name" v="Mo" />
		<tag k="place" v="farm" />
		<tag k="ssr:date" v="2018-01-09" />
		<tag k="ssr:gruppe" v="gardsbebyggelse" />
		<tag k="ssr:hovedgruppe" v="bebyggelse" />
		<tag k="ssr:stedsnr" v="482149" />
		<tag k="ssr:type" v="gard" />
	</node>
	<node lat="63.5868692204167" lon="10.759629724883153" id="-36780">
		<tag k="name" v="Juberg" />
		<tag k="place" v="hamlet" />
		<tag k="ssr:date" v="2018-01-09" />
		<tag k="ssr:gruppe" v="gardsbebyggelse" />
		<tag k="ssr:hovedgruppe" v="bebyggelse" />
		<tag k="ssr:stedsnr" v="408139" />
		<tag k="ssr:type" v="navnegard" />
	</node>
	<node lat="63.574658330769125" lon="10.656894453790754" id="-36781">
		<tag k="name" v="Litlegrunnen" />
		<tag k="natural" v="shoal" />
		<tag k="place" v="locality" />
		<tag k="ssr:date" v="2018-01-09" />
		<tag k="ssr:gruppe" v="grunnerISjø" />
		<tag k="ssr:hovedgruppe" v="sjø" />
		<tag k="ssr:stedsnr" v="408934" />
		<tag k="ssr:type" v="grunneISjø" />
	</node>
	<node lat="63.537530553383164" lon="10.6474972262772" id="-36782">
		<tag k="name" v="Slegga" />
		<tag k="place" v="islet" />
		<tag k="ssr:date" v="2018-01-09" />
		<tag k="ssr:gruppe" v="kystkontur" />
		<tag k="ssr:hovedgruppe" v="sjø" />
		<tag k="ssr:stedsnr" v="408938" />
		<tag k="ssr:type" v="holmeISjø" />
	</node>
	<node lat="63.59638332979295" lon="10.758072220572526" id="-36783">
		<tag k="name" v="Vagnåsen" />
		<tag k="natural" v="hill" />
		<tag k="place" v="locality" />
		<tag k="ssr:date" v="2018-01-09" />
		<tag k="ssr:gruppe" v="høyder" />
		<tag k="ssr:hovedgruppe" v="terreng" />
		<tag k="ssr:stedsnr" v="410896" />
		<tag k="ssr:type" v="høyde" />
	</node>
	<node lat="63.63547222407071" lon="10.921530551572346" id="-36784">
		<tag k="name" v="Ingebriktsbekken" />
		<tag k="ssr:date" v="2018-01-09" />
		<tag k="ssr:gruppe" v="rennendeVann" />
		<tag k="ssr:hovedgruppe" v="ferskvann" />
		<tag k="ssr:stedsnr" v="411105" />
		<tag k="ssr:type" v="bekk" />
		<tag k="waterway" v="stream" />
	</node>
	<node lat="63.63433055971861" lon="10.916355558360983" id="-36785">
		<tag k="name" v="Setermyra" />
		<tag k="natural" v="wetland" />
		<tag k="ssr:date" v="2018-01-09" />
		<tag k="ssr:gruppe" v="våtmark" />
		<tag k="ssr:hovedgruppe" v="markslag" />
		<tag k="ssr:stedsnr" v="411123" />
		<tag k="ssr:type" v="myr" />
	</node>
	<node lat="63.566352778016125" lon="10.722083335589405" id="-36786">
		<tag k="name" v="Hammeren" />
		<tag k="place" v="farm" />
		<tag k="ssr:date" v="2018-01-09" />
		<tag k="ssr:gruppe" v="gardsbebyggelse" />
		<tag k="ssr:hovedgruppe" v="bebyggelse" />
		<tag k="ssr:stedsnr" v="414237" />
		<tag k="ssr:type" v="bruk" />
	</node>
	<node lat="63.56040555900896" lon="10.68679166959196" id="-36787">
		<tag k="alt_name" v="Moholtan" />
		<tag k="name" v="Moholt" />
		<tag k="place" v="farm" />
		<tag k="ssr:date" v="2018-01-09" />
		<tag k="ssr:gruppe" v="gardsbebyggelse" />
		<tag k="ssr:hovedgruppe" v="bebyggelse" />
		<tag k="ssr:stedsnr" v="437256" />
		<tag k="ssr:type" v="bruk" />
	</node>
	<node lat="63.540291670216035" lon="10.650936118970128" id="-36788">
		<tag k="name" v="Gullberget" />
		<tag k="natural" v="hill" />
		<tag k="place" v="locality" />
		<tag k="ssr:date" v="2018-01-09" />
		<tag k="ssr:gruppe" v="høyder" />
		<tag k="ssr:hovedgruppe" v="terreng" />
		<tag k="ssr:stedsnr" v="438209" />
		<tag k="ssr:type" v="berg" />
	</node>
	<node lat="63.54197222373035" lon="10.662522230530348" id="-36789">
		<tag k="name" v="Sørli" />
		<tag k="place" v="isolated_dwelling" />
		<tag k="ssr:date" v="2018-01-09" />
		<tag k="ssr:gruppe" v="bolighus" />
		<tag k="ssr:hovedgruppe" v="bebyggelse" />
		<tag k="ssr:stedsnr" v="438210" />
		<tag k="ssr:type" v="eneboligMindreBoligbygg" />
	</node>
	<node lat="63.57422500108212" lon="10.731622227590638" id="-36790">
		<tag k="name" v="Holte" />
		<tag k="place" v="farm" />
		<tag k="ssr:date" v="2018-01-09" />
		<tag k="ssr:gruppe" v="gardsbebyggelse" />
		<tag k="ssr:hovedgruppe" v="bebyggelse" />
		<tag k="ssr:stedsnr" v="438811" />
		<tag k="ssr:type" v="bruk" />
	</node>
	<node lat="63.57801944456289" lon="10.753269439164601" id="-36791">
		<tag k="alt_name" v="Vika, austre" />
		<tag k="name" v="Austre Vika" />
		<tag k="place" v="farm" />
		<tag k="ssr:date" v="2018-01-09" />
		<tag k="ssr:gruppe" v="gardsbebyggelse" />
		<tag k="ssr:hovedgruppe" v="bebyggelse" />
		<tag k="ssr:stedsnr" v="438815" />
		<tag k="ssr:type" v="bruk" />
	</node>
	<node lat="63.59719742439922" lon="10.830333435358861" id="-36792">
		<tag k="fixme" v="consider place=hamlet" />
		<tag k="name" v="Banlia" />
		<tag k="place" v="farm" />
		<tag k="ssr:date" v="2018-01-09" />
		<tag k="ssr:gruppe" v="gardsbebyggelse" />
		<tag k="ssr:hovedgruppe" v="bebyggelse" />
		<tag k="ssr:stedsnr" v="438848" />
		<tag k="ssr:type" v="gard" />
	</node>
	<node lat="63.59204722204986" lon="10.738324999125524" id="-36793">
		<tag k="name" v="Borg" />
		<tag k="place" v="farm" />
		<tag k="ssr:date" v="2018-01-09" />
		<tag k="ssr:gruppe" v="gardsbebyggelse" />
		<tag k="ssr:hovedgruppe" v="bebyggelse" />
		<tag k="ssr:stedsnr" v="438859" />
		<tag k="ssr:type" v="bruk" />
	</node>
	<node lat="63.557752775111815" lon="10.675702768169112" id="-36794">
		<tag k="name" v="Hernesmarka" />
		<tag k="place" v="farm" />
		<tag k="ssr:date" v="2018-01-09" />
		<tag k="ssr:gruppe" v="gardsbebyggelse" />
		<tag k="ssr:hovedgruppe" v="bebyggelse" />
		<tag k="ssr:stedsnr" v="470322" />
		<tag k="ssr:type" v="bruk" />
	</node>
	<node lat="63.661317367943575" lon="10.902155287508913" id="-36795">
		<tag k="name" v="Igltjønnmyra" />
		<tag k="natural" v="wetland" />
		<tag k="ssr:date" v="2018-01-09" />
		<tag k="ssr:gruppe" v="våtmark" />
		<tag k="ssr:hovedgruppe" v="markslag" />
		<tag k="ssr:stedsnr" v="471067" />
		<tag k="ssr:type" v="myr" />
	</node>
	<node lat="63.6531607410219" lon="10.857927293998648" id="-36796">
		<tag k="name" v="Vikan" />
		<tag k="place" v="farm" />
		<tag k="ssr:date" v="2018-01-09" />
		<tag k="ssr:gruppe" v="gardsbebyggelse" />
		<tag k="ssr:hovedgruppe" v="bebyggelse" />
		<tag k="ssr:stedsnr" v="471072" />
		<tag k="ssr:type" v="bruk" />
	</node>
	<node lat="63.61197777539713" lon="10.700497222265954" id="-36797">
		<tag k="alt_name" v="Breidvikflua" />
		<tag k="name" v="Breivikflua" />
		<tag k="natural" v="shoal" />
		<tag k="place" v="locality" />
		<tag k="ssr:date" v="2018-01-09" />
		<tag k="ssr:gruppe" v="grunnerISjø" />
		<tag k="ssr:hovedgruppe" v="sjø" />
		<tag k="ssr:stedsnr" v="680300" />
		<tag k="ssr:type" v="grunneISjø" />
	</node>
	<node lat="63.54654722168901" lon="10.679833325874768" id="-36798">
		<tag k="name" v="Galtviksveet" />
		<tag k="place" v="farm" />
		<tag k="ssr:date" v="2018-01-09" />
		<tag k="ssr:gruppe" v="gardsbebyggelse" />
		<tag k="ssr:hovedgruppe" v="bebyggelse" />
		<tag k="ssr:stedsnr" v="680246" />
		<tag k="ssr:type" v="bruk" />
	</node>
	<node lat="63.5875527793224" lon="10.673705551986433" id="-36799">
		<tag k="alt_name" v="Karihovudgrunnen" />
		<tag k="name" v="Karihoveflua" />
		<tag k="natural" v="shoal" />
		<tag k="place" v="locality" />
		<tag k="ssr:date" v="2018-01-09" />
		<tag k="ssr:gruppe" v="grunnerISjø" />
		<tag k="ssr:hovedgruppe" v="sjø" />
		<tag k="ssr:stedsnr" v="680351" />
		<tag k="ssr:type" v="grunneISjø" />
	</node>
	<node lat="63.62077222075388" lon="10.805322213528733" id="-36800">
		<tag k="name" v="Voll" />
		<tag k="place" v="farm" />
		<tag k="ssr:date" v="2018-01-09" />
		<tag k="ssr:gruppe" v="gardsbebyggelse" />
		<tag k="ssr:hovedgruppe" v="bebyggelse" />
		<tag k="ssr:stedsnr" v="680981" />
		<tag k="ssr:type" v="bruk" />
	</node>
	<node lat="63.61154756346951" lon="10.897469258574398" id="-36801">
		<tag k="fixme" v="consider place=hamlet" />
		<tag k="name" v="Litlvika" />
		<tag k="place" v="farm" />
		<tag k="ssr:date" v="2021-06-08" />
		<tag k="ssr:gruppe" v="gardsbebyggelse" />
		<tag k="ssr:hovedgruppe" v="bebyggelse" />
		<tag k="ssr:stedsnr" v="680926" />
		<tag k="ssr:type" v="gard" />
	</node>
	<node lat="63.61189444261146" lon="10.740472212649793" id="-36802">
		<tag k="name" v="Søre Orsanden" />
		<tag k="place" v="farm" />
		<tag k="ssr:date" v="2021-06-08" />
		<tag k="ssr:gruppe" v="gardsbebyggelse" />
		<tag k="ssr:hovedgruppe" v="bebyggelse" />
		<tag k="ssr:stedsnr" v="680938" />
		<tag k="ssr:type" v="bruk" />
	</node>
	<node lat="63.635259429332315" lon="10.855195552576022" id="-36803">
		<tag k="fixme" v="consider place=hamlet" />
		<tag k="name" v="Feset" />
		<tag k="place" v="farm" />
		<tag k="ssr:date" v="2018-01-09" />
		<tag k="ssr:gruppe" v="gardsbebyggelse" />
		<tag k="ssr:hovedgruppe" v="bebyggelse" />
		<tag k="ssr:stedsnr" v="680990" />
		<tag k="ssr:type" v="gard" />
	</node>
	<node lat="63.63202468634175" lon="10.810119900341075" id="-36804">
		<tag k="fixme" v="consider place=hamlet" />
		<tag k="name" v="Skogen" />
		<tag k="place" v="farm" />
		<tag k="ssr:date" v="2018-01-09" />
		<tag k="ssr:gruppe" v="gardsbebyggelse" />
		<tag k="ssr:hovedgruppe" v="bebyggelse" />
		<tag k="ssr:stedsnr" v="680994" />
		<tag k="ssr:type" v="gard" />
	</node>
	<node lat="63.66460833748089" lon="10.873263887260505" id="-36805">
		<tag k="fixme" v="consider seamark:type=rock or natural=shoal" />
		<tag k="name" v="Garnskjæret" />
		<tag k="place" v="islet" />
		<tag k="ssr:date" v="2021-06-08" />
		<tag k="ssr:gruppe" v="grunnerISjø" />
		<tag k="ssr:hovedgruppe" v="sjø" />
		<tag k="ssr:stedsnr" v="498008" />
		<tag k="ssr:type" v="skjærISjø" />
	</node>
	<node lat="63.65021666362305" lon="10.859488897633335" id="-36806">
		<tag k="name" v="Leirvika" />
		<tag k="place" v="isolated_dwelling" />
		<tag k="ssr:date" v="2018-01-09" />
		<tag k="ssr:gruppe" v="bolighus" />
		<tag k="ssr:hovedgruppe" v="bebyggelse" />
		<tag k="ssr:stedsnr" v="498045" />
		<tag k="ssr:type" v="eneboligMindreBoligbygg" />
	</node>
	<node lat="63.572522219195065" lon="10.596705545896365" id="-36807">
		<tag k="name" v="Sandan" />
		<tag k="place" v="isolated_dwelling" />
		<tag k="ssr:date" v="2018-01-09" />
		<tag k="ssr:gruppe" v="bolighus" />
		<tag k="ssr:hovedgruppe" v="bebyggelse" />
		<tag k="ssr:stedsnr" v="498251" />
		<tag k="ssr:type" v="eneboligMindreBoligbygg" />
	</node>
	<node lat="63.60354166237969" lon="10.841594436458974" id="-36808">
		<tag k="name" v="Dalen" />
		<tag k="place" v="isolated_dwelling" />
		<tag k="ssr:date" v="2018-01-09" />
		<tag k="ssr:gruppe" v="bolighus" />
		<tag k="ssr:hovedgruppe" v="bebyggelse" />
		<tag k="ssr:stedsnr" v="498906" />
		<tag k="ssr:type" v="eneboligMindreBoligbygg" />
	</node>
	<node lat="63.61826388961561" lon="10.809719453561573" id="-36809">
		<tag k="name" v="Nordre Kvamman" />
		<tag k="place" v="farm" />
		<tag k="ssr:date" v="2021-06-08" />
		<tag k="ssr:gruppe" v="gardsbebyggelse" />
		<tag k="ssr:hovedgruppe" v="bebyggelse" />
		<tag k="ssr:stedsnr" v="498939" />
		<tag k="ssr:type" v="bruk" />
	</node>
	<node lat="63.6424199715699" lon="10.858488208875565" id="-36810">
		<tag k="name" v="Åtlo" />
		<tag k="place" v="hamlet" />
		<tag k="ssr:date" v="2018-01-09" />
		<tag k="ssr:gruppe" v="gardsbebyggelse" />
		<tag k="ssr:hovedgruppe" v="bebyggelse" />
		<tag k="ssr:stedsnr" v="498987" />
		<tag k="ssr:type" v="navnegard" />
	</node>
	<node lat="63.63338055973187" lon="10.777658338233485" id="-36811">
		<tag k="alt_name" v="Fånes, nedre;Fånes" />
		<tag k="name" v="Nedre Fånes" />
		<tag k="place" v="farm" />
		<tag k="ssr:date" v="2018-01-09" />
		<tag k="ssr:gruppe" v="gardsbebyggelse" />
		<tag k="ssr:hovedgruppe" v="bebyggelse" />
		<tag k="ssr:stedsnr" v="498996" />
		<tag k="ssr:type" v="bruk" />
	</node>
	<node lat="63.603233329088546" lon="10.87851943491953" id="-36812">
		<tag k="fixme" v="consider seamark:type=rock or natural=shoal" />
		<tag k="name" v="Kolvikskjæret" />
		<tag k="place" v="islet" />
		<tag k="ssr:date" v="2021-06-08" />
		<tag k="ssr:gruppe" v="grunnerISjø" />
		<tag k="ssr:hovedgruppe" v="sjø" />
		<tag k="ssr:stedsnr" v="498895" />
		<tag k="ssr:type" v="skjærISjø" />
	</node>
	<node lat="63.60819049682486" lon="10.813831271278831" id="-36813">
		<tag k="fixme" v="consider place=hamlet" />
		<tag k="name" v="Hojem" />
		<tag k="place" v="farm" />
		<tag k="ssr:date" v="2018-01-09" />
		<tag k="ssr:gruppe" v="gardsbebyggelse" />
		<tag k="ssr:hovedgruppe" v="bebyggelse" />
		<tag k="ssr:stedsnr" v="681893" />
		<tag k="ssr:type" v="gard" />
	</node>
	<node lat="63.55647222108485" lon="10.69535556293964" id="-36814">
		<tag k="name" v="Mostad" />
		<tag k="place" v="farm" />
		<tag k="ssr:date" v="2018-01-09" />
		<tag k="ssr:gruppe" v="gardsbebyggelse" />
		<tag k="ssr:hovedgruppe" v="bebyggelse" />
		<tag k="ssr:stedsnr" v="531122" />
		<tag k="ssr:type" v="bruk" />
	</node>
	<node lat="63.59994382321824" lon="10.785933261065637" id="-36815">
		<tag k="name" v="Mariaberget" />
		<tag k="natural" v="hill" />
		<tag k="place" v="locality" />
		<tag k="ssr:date" v="2018-01-09" />
		<tag k="ssr:gruppe" v="høyder" />
		<tag k="ssr:hovedgruppe" v="terreng" />
		<tag k="ssr:stedsnr" v="532232" />
		<tag k="ssr:type" v="haug" />
	</node>
	<node lat="63.61265555454498" lon="10.803313880412533" id="-36816">
		<tag k="name" v="Frøstadbekken" />
		<tag k="ssr:date" v="2018-01-09" />
		<tag k="ssr:gruppe" v="rennendeVann" />
		<tag k="ssr:hovedgruppe" v="ferskvann" />
		<tag k="ssr:stedsnr" v="532280" />
		<tag k="ssr:type" v="bekk" />
		<tag k="waterway" v="stream" />
	</node>
	<node lat="63.5677833321923" lon="10.61033333370529" id="-36817">
		<tag k="alt_name" v="Holmen, store;Storholmen" />
		<tag k="name" v="Store Holmen" />
		<tag k="natural" v="cape" />
		<tag k="ssr:date" v="2018-01-09" />
		<tag k="ssr:gruppe" v="kystkontur" />
		<tag k="ssr:hovedgruppe" v="sjø" />
		<tag k="ssr:stedsnr" v="558198" />
		<tag k="ssr:type" v="nesISjø" />
	</node>
	<node lat="63.60632499718951" lon="10.709355545664875" id="-36818">
		<tag k="alt_name" v="Skjeran" />
		<tag k="name" v="Skjæran" />
		<tag k="place" v="farm" />
		<tag k="ssr:date" v="2018-06-25" />
		<tag k="ssr:gruppe" v="gardsbebyggelse" />
		<tag k="ssr:hovedgruppe" v="bebyggelse" />
		<tag k="ssr:stedsnr" v="558302" />
		<tag k="ssr:type" v="bruk" />
	</node>
	<node lat="63.55594999863962" lon="10.653833333207617" id="-36819">
		<tag k="name" v="Øra" />
		<tag k="place" v="farm" />
		<tag k="ssr:date" v="2018-01-09" />
		<tag k="ssr:gruppe" v="gardsbebyggelse" />
		<tag k="ssr:hovedgruppe" v="bebyggelse" />
		<tag k="ssr:stedsnr" v="558246" />
		<tag k="ssr:type" v="bruk" />
	</node>
	<node lat="63.675197219410116" lon="10.872055555662511" id="-36820">
		<tag k="name" v="Åsholmflua" />
		<tag k="natural" v="shoal" />
		<tag k="place" v="locality" />
		<tag k="ssr:date" v="2018-01-09" />
		<tag k="ssr:gruppe" v="grunnerISjø" />
		<tag k="ssr:hovedgruppe" v="sjø" />
		<tag k="ssr:stedsnr" v="559091" />
		<tag k="ssr:type" v="grunneISjø" />
	</node>
	<node lat="63.63414821983193" lon="10.823332741485373" id="-36821">
		<tag k="fixme" v="consider place=hamlet" />
		<tag k="name" v="Stavset" />
		<tag k="place" v="farm" />
		<tag k="ssr:date" v="2018-01-09" />
		<tag k="ssr:gruppe" v="gardsbebyggelse" />
		<tag k="ssr:hovedgruppe" v="bebyggelse" />
		<tag k="ssr:stedsnr" v="558998" />
		<tag k="ssr:type" v="gard" />
	</node>
	<node lat="63.608085511039526" lon="10.801013444005033" id="-36822">
		<tag k="fixme" v="consider place=hamlet" />
		<tag k="name" v="Myraunet" />
		<tag k="place" v="farm" />
		<tag k="ssr:date" v="2018-01-09" />
		<tag k="ssr:gruppe" v="gardsbebyggelse" />
		<tag k="ssr:hovedgruppe" v="bebyggelse" />
		<tag k="ssr:stedsnr" v="559884" />
		<tag k="ssr:type" v="gard" />
	</node>
	<node lat="63.60499166581147" lon="10.808716674044472" id="-36823">
		<tag k="alt_name" v="Hojem, litle" />
		<tag k="name" v="Litle Hojem" />
		<tag k="place" v="farm" />
		<tag k="ssr:date" v="2018-01-09" />
		<tag k="ssr:gruppe" v="gardsbebyggelse" />
		<tag k="ssr:hovedgruppe" v="bebyggelse" />
		<tag k="ssr:stedsnr" v="559888" />
		<tag k="ssr:type" v="bruk" />
	</node>
	<node lat="63.60627777592822" lon="10.820030550539734" id="-36824">
		<tag k="name" v="Hojemsåsen" />
		<tag k="place" v="isolated_dwelling" />
		<tag k="ssr:date" v="2018-01-09" />
		<tag k="ssr:gruppe" v="bolighus" />
		<tag k="ssr:hovedgruppe" v="bebyggelse" />
		<tag k="ssr:stedsnr" v="559892" />
		<tag k="ssr:type" v="eneboligMindreBoligbygg" />
	</node>
	<node lat="63.59078332932673" lon="10.707394450465024" id="-36825">
		<tag k="name" v="Trøan" />
		<tag k="place" v="farm" />
		<tag k="ssr:date" v="2018-01-09" />
		<tag k="ssr:gruppe" v="gardsbebyggelse" />
		<tag k="ssr:hovedgruppe" v="bebyggelse" />
		<tag k="ssr:stedsnr" v="591804" />
		<tag k="ssr:type" v="bruk" />
	</node>
	<node lat="63.64944657238872" lon="10.904071750939332" id="-36826">
		<tag k="name" v="Krokvassbekken" />
		<tag k="ssr:date" v="2018-01-09" />
		<tag k="ssr:gruppe" v="rennendeVann" />
		<tag k="ssr:hovedgruppe" v="ferskvann" />
		<tag k="ssr:stedsnr" v="592062" />
		<tag k="ssr:type" v="bekk" />
		<tag k="waterway" v="stream" />
	</node>
	<node lat="63.633130559325025" lon="10.783941673637294" id="-36827">
		<tag k="name" v="Fånesbukta" />
		<tag k="natural" v="bay" />
		<tag k="ssr:date" v="2018-01-09" />
		<tag k="ssr:gruppe" v="kystkontur" />
		<tag k="ssr:hovedgruppe" v="sjø" />
		<tag k="ssr:stedsnr" v="592220" />
		<tag k="ssr:type" v="vikISjø" />
	</node>
	<node lat="63.617897218252416" lon="10.829530558245628" id="-36828">
		<tag k="fixme" v="consider natural=peak for the most distinct mountains in the district" />
		<tag k="name" v="Hovdalsåsen" />
		<tag k="natural" v="hill" />
		<tag k="place" v="locality" />
		<tag k="ssr:date" v="2018-01-09" />
		<tag k="ssr:gruppe" v="høyder" />
		<tag k="ssr:hovedgruppe" v="terreng" />
		<tag k="ssr:stedsnr" v="592222" />
		<tag k="ssr:type" v="ås" />
	</node>
	<node lat="63.53887777721706" lon="10.647433334830293" id="-36829">
		<tag k="name" v="Råttåvika" />
		<tag k="natural" v="bay" />
		<tag k="ssr:date" v="2018-01-09" />
		<tag k="ssr:gruppe" v="kystkontur" />
		<tag k="ssr:hovedgruppe" v="sjø" />
		<tag k="ssr:stedsnr" v="592253" />
		<tag k="ssr:type" v="vikISjø" />
	</node>
	<node lat="63.56726666953572" lon="10.67970555037135" id="-36830">
		<tag k="alt_name" v="Nordfjæra nordre" />
		<tag k="name" v="Nordre Nordfjæra" />
		<tag k="place" v="farm" />
		<tag k="ssr:date" v="2018-01-09" />
		<tag k="ssr:gruppe" v="gardsbebyggelse" />
		<tag k="ssr:hovedgruppe" v="bebyggelse" />
		<tag k="ssr:stedsnr" v="592704" />
		<tag k="ssr:type" v="bruk" />
	</node>
	<node lat="63.63869722219368" lon="10.917838879872326" id="-36831">
		<tag k="name" v="Høgmyran" />
		<tag k="natural" v="wetland" />
		<tag k="ssr:date" v="2018-01-09" />
		<tag k="ssr:gruppe" v="våtmark" />
		<tag k="ssr:hovedgruppe" v="markslag" />
		<tag k="ssr:stedsnr" v="593105" />
		<tag k="ssr:type" v="myr" />
	</node>
	<node lat="63.65258333516398" lon="10.886005560888385" id="-36832">
		<tag k="name" v="Bjønnbettet" />
		<tag k="natural" v="wetland" />
		<tag k="ssr:date" v="2018-01-09" />
		<tag k="ssr:gruppe" v="våtmark" />
		<tag k="ssr:hovedgruppe" v="markslag" />
		<tag k="ssr:stedsnr" v="595152" />
		<tag k="ssr:type" v="myr" />
	</node>
	<node lat="63.66496944416136" lon="10.876436102386172" id="-36833">
		<tag k="name" v="Åsholmen" />
		<tag k="natural" v="cape" />
		<tag k="ssr:date" v="2018-01-09" />
		<tag k="ssr:gruppe" v="kystkontur" />
		<tag k="ssr:hovedgruppe" v="sjø" />
		<tag k="ssr:stedsnr" v="620004" />
		<tag k="ssr:type" v="nesISjø" />
	</node>
	<node lat="63.64587500353068" lon="10.869099997301591" id="-36834">
		<tag k="name" v="Åstad" />
		<tag k="place" v="farm" />
		<tag k="ssr:date" v="2018-01-09" />
		<tag k="ssr:gruppe" v="gardsbebyggelse" />
		<tag k="ssr:hovedgruppe" v="bebyggelse" />
		<tag k="ssr:stedsnr" v="620033" />
		<tag k="ssr:type" v="bruk" />
	</node>
	<node lat="63.5527999997195" lon="10.680905561712144" id="-36835">
		<tag k="name" v="Valheim" />
		<tag k="place" v="farm" />
		<tag k="ssr:date" v="2018-01-09" />
		<tag k="ssr:gruppe" v="gardsbebyggelse" />
		<tag k="ssr:hovedgruppe" v="bebyggelse" />
		<tag k="ssr:stedsnr" v="652117" />
		<tag k="ssr:type" v="bruk" />
	</node>
	<node lat="63.63125790572647" lon="10.872276195016328" id="-36836">
		<tag k="name" v="Hesttjønnbekken" />
		<tag k="ssr:date" v="2018-01-09" />
		<tag k="ssr:gruppe" v="rennendeVann" />
		<tag k="ssr:hovedgruppe" v="ferskvann" />
		<tag k="ssr:stedsnr" v="652141" />
		<tag k="ssr:type" v="bekk" />
		<tag k="waterway" v="stream" />
	</node>
	<node lat="63.639784976177495" lon="10.87765083294356" id="-36837">
		<tag k="name" v="Krokmyra" />
		<tag k="natural" v="wetland" />
		<tag k="ssr:date" v="2018-01-09" />
		<tag k="ssr:gruppe" v="våtmark" />
		<tag k="ssr:hovedgruppe" v="markslag" />
		<tag k="ssr:stedsnr" v="652146" />
		<tag k="ssr:type" v="myr" />
	</node>
	<node lat="63.5930283520681" lon="10.704023971452134" id="-36838">
		<tag k="fixme" v="consider place=hamlet" />
		<tag k="name" v="Risetsveet" />
		<tag k="place" v="farm" />
		<tag k="ssr:date" v="2018-01-09" />
		<tag k="ssr:gruppe" v="gardsbebyggelse" />
		<tag k="ssr:hovedgruppe" v="bebyggelse" />
		<tag k="ssr:stedsnr" v="652788" />
		<tag k="ssr:type" v="gard" />
	</node>
	<node lat="63.59821666501902" lon="10.779716667679503" id="-36839">
		<tag k="name" v="Trollneset" />
		<tag k="natural" v="cape" />
		<tag k="ssr:date" v="2018-01-09" />
		<tag k="ssr:gruppe" v="ferskvannskontur" />
		<tag k="ssr:hovedgruppe" v="ferskvann" />
		<tag k="ssr:stedsnr" v="652999" />
		<tag k="ssr:type" v="nes" />
	</node>
	<node lat="63.610027774415705" lon="10.865636108814398" id="-36840">
		<tag k="name" v="Kammyra" />
		<tag k="natural" v="wetland" />
		<tag k="ssr:date" v="2018-01-09" />
		<tag k="ssr:gruppe" v="våtmark" />
		<tag k="ssr:hovedgruppe" v="markslag" />
		<tag k="ssr:stedsnr" v="654204" />
		<tag k="ssr:type" v="myr" />
	</node>
	<node lat="63.571038890862845" lon="10.70615000418868" id="-36841">
		<tag k="building" v="industrial" />
		<tag k="industrial" v="factory" />
		<tag k="name" v="Bolkan bruk" />
		<tag k="ssr:date" v="2018-01-09" />
		<tag k="ssr:gruppe" v="næring" />
		<tag k="ssr:hovedgruppe" v="bebyggelse" />
		<tag k="ssr:stedsnr" v="680266" />
		<tag k="ssr:type" v="fabrikk" />
	</node>
	<node lat="63.635368154291804" lon="10.781943545837768" id="-36842">
		<tag k="alt_name" v="Fåneshamn" />
		<tag k="name" v="Fåneshamna" />
		<tag k="place" v="locality" />
		<tag k="ssr:date" v="2020-02-14" />
		<tag k="ssr:gruppe" v="sjøfart" />
		<tag k="ssr:hovedgruppe" v="infrastruktur" />
		<tag k="ssr:stedsnr" v="893329" />
		<tag k="ssr:type" v="ankringsplass" />
	</node>
	<node lat="63.56283610702426" lon="10.68171944471444" id="-36843">
		<tag k="name" v="Rønning" />
		<tag k="place" v="farm" />
		<tag k="ssr:date" v="2018-01-09" />
		<tag k="ssr:gruppe" v="gardsbebyggelse" />
		<tag k="ssr:hovedgruppe" v="bebyggelse" />
		<tag k="ssr:stedsnr" v="894772" />
		<tag k="ssr:type" v="bruk" />
	</node>
	<node lat="63.60618611059531" lon="10.858102218518969" id="-36844">
		<tag k="fixme" v="consider natural=peak for the most distinct mountains in the district" />
		<tag k="name" v="Brennkammen" />
		<tag k="natural" v="hill" />
		<tag k="place" v="locality" />
		<tag k="ssr:date" v="2018-01-09" />
		<tag k="ssr:gruppe" v="høyder" />
		<tag k="ssr:hovedgruppe" v="terreng" />
		<tag k="ssr:stedsnr" v="896186" />
		<tag k="ssr:type" v="ås" />
	</node>
	<node lat="63.64552023602495" lon="10.861928313835477" id="-36845">
		<tag k="name" v="Åtlobekken" />
		<tag k="ssr:date" v="2018-01-09" />
		<tag k="ssr:gruppe" v="rennendeVann" />
		<tag k="ssr:hovedgruppe" v="ferskvann" />
		<tag k="ssr:stedsnr" v="896052" />
		<tag k="ssr:type" v="bekk" />
		<tag k="waterway" v="stream" />
	</node>
	<node lat="63.58052749569873" lon="10.795900696585758" id="-36846">
		<tag k="name" v="Steinan" />
		<tag k="place" v="farm" />
		<tag k="ssr:date" v="2018-01-09" />
		<tag k="ssr:gruppe" v="gardsbebyggelse" />
		<tag k="ssr:hovedgruppe" v="bebyggelse" />
		<tag k="ssr:stedsnr" v="896246" />
		<tag k="ssr:type" v="bruk" />
	</node>
	<node lat="63.577058172893906" lon="10.717544381869455" id="-36847">
		<tag k="name" v="Solbakken" />
		<tag k="place" v="farm" />
		<tag k="ssr:date" v="2018-01-09" />
		<tag k="ssr:gruppe" v="gardsbebyggelse" />
		<tag k="ssr:hovedgruppe" v="bebyggelse" />
		<tag k="ssr:stedsnr" v="896367" />
		<tag k="ssr:type" v="bruk" />
	</node>
	<node lat="63.56839977222827" lon="10.723355940288355" id="-36848">
		<tag k="name" v="Rognhaugen" />
		<tag k="natural" v="hill" />
		<tag k="place" v="locality" />
		<tag k="ssr:date" v="2018-01-09" />
		<tag k="ssr:gruppe" v="høyder" />
		<tag k="ssr:hovedgruppe" v="terreng" />
		<tag k="ssr:stedsnr" v="896382" />
		<tag k="ssr:type" v="haug" />
	</node>
	<node lat="63.642600002953905" lon="10.930013883694432" id="-36849">
		<tag k="name" v="Kudalsbekken" />
		<tag k="ssr:date" v="2018-01-09" />
		<tag k="ssr:gruppe" v="rennendeVann" />
		<tag k="ssr:hovedgruppe" v="ferskvann" />
		<tag k="ssr:stedsnr" v="897095" />
		<tag k="ssr:type" v="bekk" />
		<tag k="waterway" v="stream" />
	</node>
	<node lat="63.625797237535565" lon="10.868487085812516" id="-36850">
		<tag k="name" v="Lutdalstangen" />
		<tag k="natural" v="cape" />
		<tag k="ssr:date" v="2018-01-09" />
		<tag k="ssr:gruppe" v="ferskvannskontur" />
		<tag k="ssr:hovedgruppe" v="ferskvann" />
		<tag k="ssr:stedsnr" v="713076" />
		<tag k="ssr:type" v="nes" />
	</node>
	<node lat="63.581424824678884" lon="10.80170139897885" id="-36851">
		<tag k="name" v="Saltbuvollen" />
		<tag k="place" v="farm" />
		<tag k="ssr:date" v="2018-01-09" />
		<tag k="ssr:gruppe" v="gardsbebyggelse" />
		<tag k="ssr:hovedgruppe" v="bebyggelse" />
		<tag k="ssr:stedsnr" v="714216" />
		<tag k="ssr:type" v="bruk" />
	</node>
	<node lat="63.584957632489605" lon="10.792610750308452" id="-36852">
		<tag k="name" v="Bakkli" />
		<tag k="place" v="farm" />
		<tag k="ssr:date" v="2018-01-09" />
		<tag k="ssr:gruppe" v="gardsbebyggelse" />
		<tag k="ssr:hovedgruppe" v="bebyggelse" />
		<tag k="ssr:stedsnr" v="714219" />
		<tag k="ssr:type" v="bruk" />
	</node>
	<node lat="63.59816667079312" lon="10.842880552061624" id="-36853">
		<tag k="name" v="Ulvik" />
		<tag k="place" v="farm" />
		<tag k="ssr:date" v="2018-01-09" />
		<tag k="ssr:gruppe" v="gardsbebyggelse" />
		<tag k="ssr:hovedgruppe" v="bebyggelse" />
		<tag k="ssr:stedsnr" v="714227" />
		<tag k="ssr:type" v="bruk" />
	</node>
	<node lat="63.57879776497157" lon="10.745259822214384" id="-36854">
		<tag k="name" v="Nordvik" />
		<tag k="place" v="isolated_dwelling" />
		<tag k="ssr:date" v="2018-01-09" />
		<tag k="ssr:gruppe" v="bolighus" />
		<tag k="ssr:hovedgruppe" v="bebyggelse" />
		<tag k="ssr:stedsnr" v="714318" />
		<tag k="ssr:type" v="eneboligMindreBoligbygg" />
	</node>
	<node lat="63.57061710006158" lon="10.731667234626729" id="-36855">
		<tag k="name" v="Litlleiret" />
		<tag k="natural" v="bay" />
		<tag k="ssr:date" v="2018-01-09" />
		<tag k="ssr:gruppe" v="kystkontur" />
		<tag k="ssr:hovedgruppe" v="sjø" />
		<tag k="ssr:stedsnr" v="714320" />
		<tag k="ssr:type" v="vikISjø" />
	</node>
	<node lat="63.55380049222223" lon="10.662255213187425" id="-36856">
		<tag k="fixme" v="consider place=hamlet" />
		<tag k="name" v="Nygården" />
		<tag k="place" v="farm" />
		<tag k="ssr:date" v="2018-01-09" />
		<tag k="ssr:gruppe" v="gardsbebyggelse" />
		<tag k="ssr:hovedgruppe" v="bebyggelse" />
		<tag k="ssr:stedsnr" v="741292" />
		<tag k="ssr:type" v="gard" />
	</node>
	<node lat="63.58906944568615" lon="10.793475005117216" id="-36857">
		<tag k="name" v="Nytrøa" />
		<tag k="place" v="farm" />
		<tag k="ssr:date" v="2018-01-09" />
		<tag k="ssr:gruppe" v="gardsbebyggelse" />
		<tag k="ssr:hovedgruppe" v="bebyggelse" />
		<tag k="ssr:stedsnr" v="741893" />
		<tag k="ssr:type" v="bruk" />
	</node>
	<node lat="63.584438887259054" lon="10.818072227952515" id="-36858">
		<tag k="alt_name" v="Korsneset" />
		<tag k="name" v="Korsnes" />
		<tag k="natural" v="cape" />
		<tag k="ssr:date" v="2018-01-09" />
		<tag k="ssr:gruppe" v="kystkontur" />
		<tag k="ssr:hovedgruppe" v="sjø" />
		<tag k="ssr:stedsnr" v="741906" />
		<tag k="ssr:type" v="nesISjø" />
	</node>
	<node lat="63.641477775792524" lon="10.926500005933315" id="-36859">
		<tag k="fixme" v="consider natural=peak for the most distinct mountains in the district" />
		<tag k="name" v="Liahøgda" />
		<tag k="natural" v="hill" />
		<tag k="place" v="locality" />
		<tag k="ssr:date" v="2018-01-09" />
		<tag k="ssr:gruppe" v="høyder" />
		<tag k="ssr:hovedgruppe" v="terreng" />
		<tag k="ssr:stedsnr" v="741990" />
		<tag k="ssr:type" v="ås" />
	</node>
	<node lat="63.64276388536003" lon="10.889955558359397" id="-36860">
		<tag k="fixme" v="consider natural=peak for the most distinct mountains in the district" />
		<tag k="name" v="Brattåsen" />
		<tag k="natural" v="hill" />
		<tag k="place" v="locality" />
		<tag k="ssr:date" v="2018-01-09" />
		<tag k="ssr:gruppe" v="høyder" />
		<tag k="ssr:hovedgruppe" v="terreng" />
		<tag k="ssr:stedsnr" v="741992" />
		<tag k="ssr:type" v="ås" />
	</node>
	<node lat="63.642202773833915" lon="10.84607777844833" id="-36861">
		<tag k="name" v="Åtlosanden" />
		<tag k="natural" v="bay" />
		<tag k="ssr:date" v="2018-01-09" />
		<tag k="ssr:gruppe" v="kystkontur" />
		<tag k="ssr:hovedgruppe" v="sjø" />
		<tag k="ssr:stedsnr" v="741993" />
		<tag k="ssr:type" v="vikISjø" />
	</node>
	<node lat="63.64373611475585" lon="10.864294437626741" id="-36862">
		<tag k="name" v="Åtlohellan" />
		<tag k="place" v="farm" />
		<tag k="ssr:date" v="2018-01-09" />
		<tag k="ssr:gruppe" v="gardsbebyggelse" />
		<tag k="ssr:hovedgruppe" v="bebyggelse" />
		<tag k="ssr:stedsnr" v="741994" />
		<tag k="ssr:type" v="bruk" />
	</node>
	<node lat="63.58189722064488" lon="10.676052773209145" id="-36864">
		<tag k="name" v="Holmberget" />
		<tag k="place" v="farm" />
		<tag k="ssr:date" v="2018-01-09" />
		<tag k="ssr:gruppe" v="gardsbebyggelse" />
		<tag k="ssr:hovedgruppe" v="bebyggelse" />
		<tag k="ssr:stedsnr" v="753052" />
		<tag k="ssr:type" v="bruk" />
	</node>
	<node lat="63.63404999673865" lon="10.831538880859004" id="-36865">
		<tag k="name" v="Stavsetbekken" />
		<tag k="ssr:date" v="2018-01-09" />
		<tag k="ssr:gruppe" v="rennendeVann" />
		<tag k="ssr:hovedgruppe" v="ferskvann" />
		<tag k="ssr:stedsnr" v="774213" />
		<tag k="ssr:type" v="bekk" />
		<tag k="waterway" v="stream" />
	</node>
	<node lat="63.62376666512708" lon="10.765050008170716" id="-36866">
		<tag k="name" v="Romma" />
		<tag k="place" v="isolated_dwelling" />
		<tag k="ssr:date" v="2018-01-09" />
		<tag k="ssr:gruppe" v="bolighus" />
		<tag k="ssr:hovedgruppe" v="bebyggelse" />
		<tag k="ssr:stedsnr" v="774962" />
		<tag k="ssr:type" v="eneboligMindreBoligbygg" />
	</node>
	<node lat="63.630955559010474" lon="10.911008330807068" id="-36867">
		<tag k="name" v="Brannhaugen" />
		<tag k="natural" v="hill" />
		<tag k="place" v="locality" />
		<tag k="ssr:date" v="2018-01-09" />
		<tag k="ssr:gruppe" v="høyder" />
		<tag k="ssr:hovedgruppe" v="terreng" />
		<tag k="ssr:stedsnr" v="775103" />
		<tag k="ssr:type" v="høyde" />
	</node>
	<node lat="63.611797223280135" lon="10.785025000008723" id="-36868">
		<tag k="name" v="Brekkmyra" />
		<tag k="natural" v="wetland" />
		<tag k="ssr:date" v="2018-01-09" />
		<tag k="ssr:gruppe" v="våtmark" />
		<tag k="ssr:hovedgruppe" v="markslag" />
		<tag k="ssr:stedsnr" v="775271" />
		<tag k="ssr:type" v="myr" />
	</node>
	<node lat="63.56042479682055" lon="10.697595343904961" id="-36869">
		<tag k="name" v="Mostad" />
		<tag k="place" v="hamlet" />
		<tag k="ssr:date" v="2018-01-09" />
		<tag k="ssr:gruppe" v="gardsbebyggelse" />
		<tag k="ssr:hovedgruppe" v="bebyggelse" />
		<tag k="ssr:stedsnr" v="777059" />
		<tag k="ssr:type" v="navnegard" />
	</node>
	<node lat="63.56479722663252" lon="10.638600007006026" id="-36870">
		<tag k="alt_name" v="Tautersvaet" />
		<tag k="name" v="Svaet" />
		<tag k="natural" v="strait" />
		<tag k="ssr:date" v="2021-06-08" />
		<tag k="ssr:gruppe" v="kystkontur" />
		<tag k="ssr:hovedgruppe" v="sjø" />
		<tag k="ssr:stedsnr" v="802221" />
		<tag k="ssr:type" v="sundISjø" />
	</node>
	<node lat="63.609575000335816" lon="10.713808342960617" id="-36871">
		<tag k="alt_name" v="Breidvika" />
		<tag k="name" v="Breivika" />
		<tag k="place" v="farm" />
		<tag k="ssr:date" v="2018-01-09" />
		<tag k="ssr:gruppe" v="gardsbebyggelse" />
		<tag k="ssr:hovedgruppe" v="bebyggelse" />
		<tag k="ssr:stedsnr" v="802321" />
		<tag k="ssr:type" v="bruk" />
	</node>
	<node lat="63.59496944499055" lon="10.842208325440494" id="-36872">
		<tag k="name" v="Steinsvoll" />
		<tag k="place" v="isolated_dwelling" />
		<tag k="ssr:date" v="2018-01-09" />
		<tag k="ssr:gruppe" v="bolighus" />
		<tag k="ssr:hovedgruppe" v="bebyggelse" />
		<tag k="ssr:stedsnr" v="802879" />
		<tag k="ssr:type" v="eneboligMindreBoligbygg" />
	</node>
	<node lat="63.60615277572808" lon="10.883147222843645" id="-36873">
		<tag k="name" v="Aunsjøen" />
		<tag k="natural" v="bay" />
		<tag k="ssr:date" v="2018-01-09" />
		<tag k="ssr:gruppe" v="kystkontur" />
		<tag k="ssr:hovedgruppe" v="sjø" />
		<tag k="ssr:stedsnr" v="802904" />
		<tag k="ssr:type" v="vikISjø" />
	</node>
	<node lat="63.60204968305773" lon="10.82765197984513" id="-36874">
		<tag k="fixme" v="consider place=hamlet" />
		<tag k="name" v="Giset" />
		<tag k="place" v="farm" />
		<tag k="ssr:date" v="2018-01-09" />
		<tag k="ssr:gruppe" v="gardsbebyggelse" />
		<tag k="ssr:hovedgruppe" v="bebyggelse" />
		<tag k="ssr:stedsnr" v="802915" />
		<tag k="ssr:type" v="gard" />
	</node>
	<node lat="63.65625555794337" lon="10.865377773229234" id="-36876">
		<tag k="alt_name" v="Drauvika" />
		<tag k="name" v="Draugvika" />
		<tag k="natural" v="bay" />
		<tag k="ssr:date" v="2018-01-09" />
		<tag k="ssr:gruppe" v="kystkontur" />
		<tag k="ssr:hovedgruppe" v="sjø" />
		<tag k="ssr:stedsnr" v="923069" />
		<tag k="ssr:type" v="vikISjø" />
	</node>
	<node lat="63.54610277832534" lon="10.611325002227531" id="-36877">
		<tag k="name" v="Øksningen" />
		<tag k="place" v="islet" />
		<tag k="ssr:date" v="2018-01-09" />
		<tag k="ssr:gruppe" v="kystkontur" />
		<tag k="ssr:hovedgruppe" v="sjø" />
		<tag k="ssr:stedsnr" v="923262" />
		<tag k="ssr:type" v="holmeISjø" />
	</node>
	<node lat="63.56252499853525" lon="10.700386107227406" id="-36878">
		<tag k="name" v="Moum" />
		<tag k="place" v="farm" />
		<tag k="ssr:date" v="2018-01-09" />
		<tag k="ssr:gruppe" v="gardsbebyggelse" />
		<tag k="ssr:hovedgruppe" v="bebyggelse" />
		<tag k="ssr:stedsnr" v="923264" />
		<tag k="ssr:type" v="bruk" />
	</node>
	<node lat="63.55754722090699" lon="10.622358340951529" id="-36879">
		<tag k="alt_name" v="Bollsvikgrunnen" />
		<tag k="name" v="Ballsvikgrunnen" />
		<tag k="natural" v="shoal" />
		<tag k="place" v="locality" />
		<tag k="ssr:date" v="2018-01-09" />
		<tag k="ssr:gruppe" v="grunnerISjø" />
		<tag k="ssr:hovedgruppe" v="sjø" />
		<tag k="ssr:stedsnr" v="923266" />
		<tag k="ssr:type" v="grunneISjø" />
	</node>
	<node lat="63.62276110915113" lon="10.819752779434015" id="-36880">
		<tag k="name" v="Nyenget" />
		<tag k="place" v="farm" />
		<tag k="ssr:date" v="2018-01-09" />
		<tag k="ssr:gruppe" v="gardsbebyggelse" />
		<tag k="ssr:hovedgruppe" v="bebyggelse" />
		<tag k="ssr:stedsnr" v="923980" />
		<tag k="ssr:type" v="bruk" />
	</node>
	<node lat="63.63836944825038" lon="10.84806945392441" id="-36881">
		<tag k="name" v="Fossli" />
		<tag k="place" v="farm" />
		<tag k="ssr:date" v="2018-01-09" />
		<tag k="ssr:gruppe" v="gardsbebyggelse" />
		<tag k="ssr:hovedgruppe" v="bebyggelse" />
		<tag k="ssr:stedsnr" v="923985" />
		<tag k="ssr:type" v="bruk" />
	</node>
	<node lat="63.63063610790426" lon="10.856955552299521" id="-36882">
		<tag k="name" v="Eide" />
		<tag k="place" v="farm" />
		<tag k="ssr:date" v="2018-01-09" />
		<tag k="ssr:gruppe" v="gardsbebyggelse" />
		<tag k="ssr:hovedgruppe" v="bebyggelse" />
		<tag k="ssr:stedsnr" v="923993" />
		<tag k="ssr:type" v="bruk" />
	</node>
	<node lat="63.63203897600577" lon="10.827763998375277" id="-36883">
		<tag k="fixme" v="consider place=hamlet" />
		<tag k="name" v="Buset" />
		<tag k="place" v="farm" />
		<tag k="ssr:date" v="2018-01-09" />
		<tag k="ssr:gruppe" v="gardsbebyggelse" />
		<tag k="ssr:hovedgruppe" v="bebyggelse" />
		<tag k="ssr:stedsnr" v="923996" />
		<tag k="ssr:type" v="gard" />
	</node>
	<node lat="63.57950883597519" lon="10.741282294661401" id="-36884">
		<tag k="leisure" v="pitch" />
		<tag k="name" v="Vinnatrøa" />
		<tag k="ssr:date" v="2020-05-29" />
		<tag k="ssr:gruppe" v="fritidsanlegg" />
		<tag k="ssr:hovedgruppe" v="bebyggelse" />
		<tag k="ssr:stedsnr" v="923845" />
		<tag k="ssr:type" v="idrettsanlegg" />
	</node>
	<node lat="63.576683329806485" lon="10.758347215388104" id="-36885">
		<tag k="name" v="Sveet" />
		<tag k="place" v="isolated_dwelling" />
		<tag k="ssr:date" v="2018-01-09" />
		<tag k="ssr:gruppe" v="bolighus" />
		<tag k="ssr:hovedgruppe" v="bebyggelse" />
		<tag k="ssr:stedsnr" v="923846" />
		<tag k="ssr:type" v="eneboligMindreBoligbygg" />
	</node>
	<node lat="63.61653659414678" lon="10.8759214501198" id="-36886">
		<tag k="name" v="Brennesbekken" />
		<tag k="ssr:date" v="2018-01-09" />
		<tag k="ssr:gruppe" v="rennendeVann" />
		<tag k="ssr:hovedgruppe" v="ferskvann" />
		<tag k="ssr:stedsnr" v="835138" />
		<tag k="ssr:type" v="bekk" />
		<tag k="waterway" v="stream" />
	</node>
	<node lat="63.64375397895078" lon="10.904523804481778" id="-36887">
		<tag k="name" v="Fesetmyra" />
		<tag k="natural" v="wetland" />
		<tag k="ssr:date" v="2018-01-09" />
		<tag k="ssr:gruppe" v="våtmark" />
		<tag k="ssr:hovedgruppe" v="markslag" />
		<tag k="ssr:stedsnr" v="835180" />
		<tag k="ssr:type" v="myr" />
	</node>
	<node lat="63.62547221946084" lon="10.74816388953577" id="-36888">
		<tag k="name" v="Småtta" />
		<tag k="natural" v="bay" />
		<tag k="ssr:date" v="2018-01-09" />
		<tag k="ssr:gruppe" v="kystkontur" />
		<tag k="ssr:hovedgruppe" v="sjø" />
		<tag k="ssr:stedsnr" v="923955" />
		<tag k="ssr:type" v="vikISjø" />
	</node>
	<node lat="63.54344721780914" lon="10.643552776851962" id="-36889">
		<tag k="name" v="Haugsand" />
		<tag k="place" v="farm" />
		<tag k="ssr:date" v="2018-01-09" />
		<tag k="ssr:gruppe" v="gardsbebyggelse" />
		<tag k="ssr:hovedgruppe" v="bebyggelse" />
		<tag k="ssr:stedsnr" v="835223" />
		<tag k="ssr:type" v="bruk" />
	</node>
	<node lat="63.590436112965065" lon="10.762197222285833" id="-36890">
		<tag k="name" v="Jubergselva" />
		<tag k="ssr:date" v="2018-01-09" />
		<tag k="ssr:gruppe" v="rennendeVann" />
		<tag k="ssr:hovedgruppe" v="ferskvann" />
		<tag k="ssr:stedsnr" v="835907" />
		<tag k="ssr:type" v="bekk" />
		<tag k="waterway" v="stream" />
	</node>
	<node lat="63.58028743055784" lon="10.788544659543033" id="-36891">
		<tag k="name" v="Revelsvebakken" />
		<tag k="natural" v="slope" />
		<tag k="place" v="locality" />
		<tag k="ssr:date" v="2018-01-09" />
		<tag k="ssr:gruppe" v="skråninger" />
		<tag k="ssr:hovedgruppe" v="terreng" />
		<tag k="ssr:stedsnr" v="836207" />
		<tag k="ssr:type" v="bakke" />
	</node>
	<node lat="63.5793720990117" lon="10.761786818204042" id="-36892">
		<tag k="name" v="Bjørnstad" />
		<tag k="place" v="farm" />
		<tag k="ssr:date" v="2018-01-09" />
		<tag k="ssr:gruppe" v="gardsbebyggelse" />
		<tag k="ssr:hovedgruppe" v="bebyggelse" />
		<tag k="ssr:stedsnr" v="836209" />
		<tag k="ssr:type" v="bruk" />
	</node>
	<node lat="63.597595636690755" lon="10.785706136251797" id="-36893">
		<tag k="name" v="Slånnåvika" />
		<tag k="natural" v="bay" />
		<tag k="ssr:date" v="2018-01-09" />
		<tag k="ssr:gruppe" v="ferskvannskontur" />
		<tag k="ssr:hovedgruppe" v="ferskvann" />
		<tag k="ssr:stedsnr" v="836211" />
		<tag k="ssr:type" v="vik" />
	</node>
	<node lat="63.59096388726228" lon="10.836772222059572" id="-36894">
		<tag k="name" v="Geitbergfjæra" />
		<tag k="natural" v="beach" />
		<tag k="ssr:date" v="2018-01-09" />
		<tag k="ssr:gruppe" v="kystkontur" />
		<tag k="ssr:hovedgruppe" v="sjø" />
		<tag k="ssr:stedsnr" v="836214" />
		<tag k="ssr:type" v="strandISjø" />
	</node>
	<node lat="63.60043055933097" lon="10.848894436625418" id="-36895">
		<tag k="name" v="Åsgutu" />
		<tag k="place" v="farm" />
		<tag k="ssr:date" v="2018-01-09" />
		<tag k="ssr:gruppe" v="gardsbebyggelse" />
		<tag k="ssr:hovedgruppe" v="bebyggelse" />
		<tag k="ssr:stedsnr" v="838005" />
		<tag k="ssr:type" v="bruk" />
	</node>
	<node lat="63.56999166396942" lon="10.617347216296924" id="-36897">
		<tag k="alt_name" v="Holmen, l;Litlholmen" />
		<tag k="name" v="Litle Holmen" />
		<tag k="natural" v="cape" />
		<tag k="ssr:date" v="2018-01-09" />
		<tag k="ssr:gruppe" v="kystkontur" />
		<tag k="ssr:hovedgruppe" v="sjø" />
		<tag k="ssr:stedsnr" v="862220" />
		<tag k="ssr:type" v="nesISjø" />
	</node>
	<node lat="63.56124444638319" lon="10.693244453794946" id="-36898">
		<tag k="alt_name" v="Mo, vestre" />
		<tag k="fixme" v="multiple name tags, choose one and add the other to alt_name" />
		<tag k="name" v="Vestre Mo;Mo" />
		<tag k="place" v="farm" />
		<tag k="ssr:date" v="2018-01-09" />
		<tag k="ssr:gruppe" v="gardsbebyggelse" />
		<tag k="ssr:hovedgruppe" v="bebyggelse" />
		<tag k="ssr:stedsnr" v="862254" />
		<tag k="ssr:type" v="bruk" />
	</node>
	<node lat="63.59023888855647" lon="10.697827779053735" id="-36899">
		<tag k="name" v="Granheim" />
		<tag k="place" v="isolated_dwelling" />
		<tag k="ssr:date" v="2018-01-09" />
		<tag k="ssr:gruppe" v="bolighus" />
		<tag k="ssr:hovedgruppe" v="bebyggelse" />
		<tag k="ssr:stedsnr" v="863303" />
		<tag k="ssr:type" v="eneboligMindreBoligbygg" />
	</node>
	<node lat="63.586919440700754" lon="10.788686118910592" id="-36900">
		<tag k="name" v="Helltrøa" />
		<tag k="place" v="farm" />
		<tag k="ssr:date" v="2018-01-09" />
		<tag k="ssr:gruppe" v="gardsbebyggelse" />
		<tag k="ssr:hovedgruppe" v="bebyggelse" />
		<tag k="ssr:stedsnr" v="863841" />
		<tag k="ssr:type" v="bruk" />
	</node>
	<node lat="63.58782777977012" lon="10.72916388300257" id="-36901">
		<tag k="name" v="Asklundvatnet" />
		<tag k="natural" v="water" />
		<tag k="ssr:date" v="2021-06-08" />
		<tag k="ssr:gruppe" v="stilleståendeVann" />
		<tag k="ssr:hovedgruppe" v="ferskvann" />
		<tag k="ssr:stedsnr" v="863848" />
		<tag k="ssr:type" v="tjern" />
	</node>
	<node lat="63.597569445629595" lon="10.703527777488155" id="-36902">
		<tag k="man_made" v="quay" />
		<tag k="name" v="Småland kai" />
		<tag k="place" v="locality" />
		<tag k="ssr:date" v="2018-01-09" />
		<tag k="ssr:gruppe" v="sjøfart" />
		<tag k="ssr:hovedgruppe" v="infrastruktur" />
		<tag k="ssr:stedsnr" v="895793" />
		<tag k="ssr:type" v="kai" />
	</node>
	<node lat="63.57974722417044" lon="10.626424993346143" id="-36903">
		<tag k="name" v="Valen" />
		<tag k="place" v="locality" />
		<tag k="ssr:date" v="2018-01-09" />
		<tag k="ssr:gruppe" v="dyrkamark" />
		<tag k="ssr:hovedgruppe" v="markslag" />
		<tag k="ssr:stedsnr" v="896013" />
		<tag k="ssr:type" v="jorde" />
	</node>
	<node lat="63.65621467536775" lon="10.86935659898342" id="-36904">
		<tag k="name" v="Olderbakken" />
		<tag k="place" v="farm" />
		<tag k="ssr:date" v="2018-01-09" />
		<tag k="ssr:gruppe" v="gardsbebyggelse" />
		<tag k="ssr:hovedgruppe" v="bebyggelse" />
		<tag k="ssr:stedsnr" v="896063" />
		<tag k="ssr:type" v="bruk" />
	</node>
	<node lat="63.65329362079855" lon="10.90955929093383" id="-36905">
		<tag k="name" v="Fjellplassbekken" />
		<tag k="ssr:date" v="2018-01-09" />
		<tag k="ssr:gruppe" v="rennendeVann" />
		<tag k="ssr:hovedgruppe" v="ferskvann" />
		<tag k="ssr:stedsnr" v="896064" />
		<tag k="ssr:type" v="bekk" />
		<tag k="waterway" v="stream" />
	</node>
	<node lat="63.59294166298683" lon="10.832383328478723" id="-36906">
		<tag k="name" v="Steinsbekken" />
		<tag k="ssr:date" v="2018-01-09" />
		<tag k="ssr:gruppe" v="rennendeVann" />
		<tag k="ssr:hovedgruppe" v="ferskvann" />
		<tag k="ssr:stedsnr" v="896259" />
		<tag k="ssr:type" v="bekk" />
		<tag k="waterway" v="stream" />
	</node>
	<node lat="63.819172218288585" lon="11.107808335679117" id="-36907">
		<tag k="bay" v="fjord" />
		<tag k="name" v="Trondheimsfjorden" />
		<tag k="natural" v="bay" />
		<tag k="ssr:date" v="2021-06-08" />
		<tag k="ssr:gruppe" v="farvann" />
		<tag k="ssr:hovedgruppe" v="sjø" />
		<tag k="ssr:stedsnr" v="923078" />
		<tag k="ssr:type" v="fjord" />
	</node>
	<node lat="63.600691665291926" lon="10.848730563203805" id="-36908">
		<tag k="name" v="Ospguttu" />
		<tag k="place" v="farm" />
		<tag k="ssr:date" v="2021-06-08" />
		<tag k="ssr:gruppe" v="gardsbebyggelse" />
		<tag k="ssr:hovedgruppe" v="bebyggelse" />
		<tag k="ssr:stedsnr" v="923886" />
		<tag k="ssr:type" v="bruk" />
	</node>
	<node lat="63.57291944784858" lon="10.743127785113364" id="-36909">
		<tag k="name" v="Storleiret" />
		<tag k="natural" v="bay" />
		<tag k="ssr:date" v="2018-01-09" />
		<tag k="ssr:gruppe" v="kystkontur" />
		<tag k="ssr:hovedgruppe" v="sjø" />
		<tag k="ssr:stedsnr" v="924764" />
		<tag k="ssr:type" v="vikISjø" />
	</node>
	<node lat="63.57214752648917" lon="10.760435960672535" id="-36910">
		<tag k="name" v="Moksnes" />
		<tag k="place" v="hamlet" />
		<tag k="ssr:date" v="2018-08-20" />
		<tag k="ssr:gruppe" v="gardsbebyggelse" />
		<tag k="ssr:hovedgruppe" v="bebyggelse" />
		<tag k="ssr:stedsnr" v="924766" />
		<tag k="ssr:type" v="navnegard" />
	</node>
	<node lat="63.632274995978875" lon="10.923624997684218" id="-36911">
		<tag k="name" v="Stordalen" />
		<tag k="natural" v="valley" />
		<tag k="place" v="locality" />
		<tag k="ssr:date" v="2018-01-09" />
		<tag k="ssr:gruppe" v="senkninger" />
		<tag k="ssr:hovedgruppe" v="terreng" />
		<tag k="ssr:stedsnr" v="957108" />
		<tag k="ssr:type" v="dal" />
	</node>
	<node lat="63.6020111137546" lon="10.802355551350917" id="-36912">
		<tag k="name" v="Hogstadbekken" />
		<tag k="ssr:date" v="2018-01-09" />
		<tag k="ssr:gruppe" v="rennendeVann" />
		<tag k="ssr:hovedgruppe" v="ferskvann" />
		<tag k="ssr:stedsnr" v="957293" />
		<tag k="ssr:type" v="bekk" />
		<tag k="waterway" v="stream" />
	</node>
	<node lat="63.57272478336129" lon="10.718277026882232" id="-36913">
		<tag k="name" v="Nordtun" />
		<tag k="place" v="farm" />
		<tag k="ssr:date" v="2018-01-09" />
		<tag k="ssr:gruppe" v="gardsbebyggelse" />
		<tag k="ssr:hovedgruppe" v="bebyggelse" />
		<tag k="ssr:stedsnr" v="957340" />
		<tag k="ssr:type" v="bruk" />
	</node>
	<node lat="63.5769869500881" lon="10.747416363200092" id="-36914">
		<tag k="name" v="Vika" />
		<tag k="place" v="hamlet" />
		<tag k="ssr:date" v="2018-01-09" />
		<tag k="ssr:gruppe" v="gardsbebyggelse" />
		<tag k="ssr:hovedgruppe" v="bebyggelse" />
		<tag k="ssr:stedsnr" v="976232" />
		<tag k="ssr:type" v="navnegard" />
	</node>
	<node lat="63.570781720561826" lon="10.759683498425998" id="-36916">
		<tag k="name" v="Moksnes ytre" />
		<tag k="place" v="farm" />
		<tag k="ssr:date" v="2018-08-20" />
		<tag k="ssr:gruppe" v="gardsbebyggelse" />
		<tag k="ssr:hovedgruppe" v="bebyggelse" />
		<tag k="ssr:stedsnr" v="986100" />
		<tag k="ssr:type" v="bruk" />
	</node>
	<node lat="63.57712221926913" lon="10.70486388296693" id="-36917">
		<tag k="alt_name" v="Lein, litle" />
		<tag k="name" v="Litl-Lein" />
		<tag k="place" v="farm" />
		<tag k="ssr:date" v="2018-01-09" />
		<tag k="ssr:gruppe" v="gardsbebyggelse" />
		<tag k="ssr:hovedgruppe" v="bebyggelse" />
		<tag k="ssr:stedsnr" v="13226" />
		<tag k="ssr:type" v="bruk" />
	</node>
	<node lat="63.543019448818" lon="10.669666671136508" id="-36918">
		<tag k="name" v="Heggvik" />
		<tag k="place" v="isolated_dwelling" />
		<tag k="ssr:date" v="2018-01-09" />
		<tag k="ssr:gruppe" v="bolighus" />
		<tag k="ssr:hovedgruppe" v="bebyggelse" />
		<tag k="ssr:stedsnr" v="13242" />
		<tag k="ssr:type" v="eneboligMindreBoligbygg" />
	</node>
	<node lat="63.55309034529231" lon="10.676001756007388" id="-36919">
		<tag k="fixme" v="consider place=hamlet" />
		<tag k="name" v="Evenhus" />
		<tag k="place" v="farm" />
		<tag k="ssr:date" v="2018-01-09" />
		<tag k="ssr:gruppe" v="gardsbebyggelse" />
		<tag k="ssr:hovedgruppe" v="bebyggelse" />
		<tag k="ssr:stedsnr" v="13248" />
		<tag k="ssr:type" v="gard" />
	</node>
	<node lat="63.56722222142939" lon="10.59207778015885" id="-36920">
		<tag k="name" v="Skaget" />
		<tag k="natural" v="cape" />
		<tag k="ssr:date" v="2018-01-09" />
		<tag k="ssr:gruppe" v="kystkontur" />
		<tag k="ssr:hovedgruppe" v="sjø" />
		<tag k="ssr:stedsnr" v="13200" />
		<tag k="ssr:type" v="nesISjø" />
	</node>
	<node lat="63.56591666913427" lon="10.694569435444453" id="-36921">
		<tag k="name" v="Mo" />
		<tag k="place" v="farm" />
		<tag k="ssr:date" v="2018-01-09" />
		<tag k="ssr:gruppe" v="gardsbebyggelse" />
		<tag k="ssr:hovedgruppe" v="bebyggelse" />
		<tag k="ssr:stedsnr" v="13267" />
		<tag k="ssr:type" v="bruk" />
	</node>
	<node lat="63.56905000421767" lon="10.726797226007742" id="-36922">
		<tag k="name" v="Elverhaug" />
		<tag k="place" v="farm" />
		<tag k="ssr:date" v="2018-01-09" />
		<tag k="ssr:gruppe" v="gardsbebyggelse" />
		<tag k="ssr:hovedgruppe" v="bebyggelse" />
		<tag k="ssr:stedsnr" v="13835" />
		<tag k="ssr:type" v="bruk" />
	</node>
	<node lat="63.57113055285725" lon="10.724144445546415" id="-36923">
		<tag k="name" v="Svean" />
		<tag k="place" v="farm" />
		<tag k="ssr:date" v="2018-01-09" />
		<tag k="ssr:gruppe" v="gardsbebyggelse" />
		<tag k="ssr:hovedgruppe" v="bebyggelse" />
		<tag k="ssr:stedsnr" v="13836" />
		<tag k="ssr:type" v="bruk" />
	</node>
	<node lat="63.594477774109954" lon="10.808755563293966" id="-36924">
		<tag k="fixme" v="consider natural=peak for the most distinct mountains in the district" />
		<tag k="name" v="Hellåsen" />
		<tag k="natural" v="hill" />
		<tag k="place" v="locality" />
		<tag k="ssr:date" v="2018-01-09" />
		<tag k="ssr:gruppe" v="høyder" />
		<tag k="ssr:hovedgruppe" v="terreng" />
		<tag k="ssr:stedsnr" v="13847" />
		<tag k="ssr:type" v="ås" />
	</node>
	<node lat="63.61506973293288" lon="10.827575499177438" id="-36925">
		<tag k="fixme" v="multiple name tags, choose one and add the other to alt_name; consider place=hamlet" />
		<tag k="name" v="Ytre Hovdalen;Hovdalen" />
		<tag k="place" v="farm" />
		<tag k="ssr:date" v="2021-06-08" />
		<tag k="ssr:gruppe" v="gardsbebyggelse" />
		<tag k="ssr:hovedgruppe" v="bebyggelse" />
		<tag k="ssr:stedsnr" v="13899" />
		<tag k="ssr:type" v="gard" />
	</node>
	<node lat="63.62484999787631" lon="10.860688879227867" id="-36926">
		<tag k="name" v="Vang" />
		<tag k="place" v="isolated_dwelling" />
		<tag k="ssr:date" v="2018-01-09" />
		<tag k="ssr:gruppe" v="bolighus" />
		<tag k="ssr:hovedgruppe" v="bebyggelse" />
		<tag k="ssr:stedsnr" v="13964" />
		<tag k="ssr:type" v="eneboligMindreBoligbygg" />
	</node>
	<node lat="63.618594444321936" lon="10.861194445605976" id="-36927">
		<tag k="name" v="Hovdalsvatnet" />
		<tag k="natural" v="water" />
		<tag k="ssr:date" v="2018-01-09" />
		<tag k="ssr:gruppe" v="stilleståendeVann" />
		<tag k="ssr:hovedgruppe" v="ferskvann" />
		<tag k="ssr:stedsnr" v="13965" />
		<tag k="ssr:type" v="vann" />
		<tag k="water" v="lake" />
	</node>
	<node lat="63.62308611495751" lon="10.889738883038442" id="-36928">
		<tag k="name" v="Lågkastbekken" />
		<tag k="ssr:date" v="2021-06-08" />
		<tag k="ssr:gruppe" v="rennendeVann" />
		<tag k="ssr:hovedgruppe" v="ferskvann" />
		<tag k="ssr:stedsnr" v="13968" />
		<tag k="ssr:type" v="bekk" />
		<tag k="waterway" v="stream" />
	</node>
	<node lat="63.618839480562855" lon="10.799637204827" id="-36929">
		<tag k="fixme" v="consider place=hamlet" />
		<tag k="name" v="Frøstad" />
		<tag k="place" v="farm" />
		<tag k="ssr:date" v="2018-01-09" />
		<tag k="ssr:gruppe" v="gardsbebyggelse" />
		<tag k="ssr:hovedgruppe" v="bebyggelse" />
		<tag k="ssr:stedsnr" v="13969" />
		<tag k="ssr:type" v="gard" />
	</node>
	<node lat="63.6238669901955" lon="10.822191245330611" id="-36930">
		<tag k="name" v="Vestgård" />
		<tag k="place" v="farm" />
		<tag k="ssr:date" v="2018-11-19" />
		<tag k="ssr:gruppe" v="gardsbebyggelse" />
		<tag k="ssr:hovedgruppe" v="bebyggelse" />
		<tag k="ssr:stedsnr" v="13970" />
		<tag k="ssr:type" v="bruk" />
	</node>
	<node lat="63.56811044317891" lon="10.702530156163569" id="-36931">
		<tag k="fixme" v="consider place=hamlet" />
		<tag k="name" v="Logtun" />
		<tag k="place" v="farm" />
		<tag k="ssr:date" v="2018-01-09" />
		<tag k="ssr:gruppe" v="gardsbebyggelse" />
		<tag k="ssr:hovedgruppe" v="bebyggelse" />
		<tag k="ssr:stedsnr" v="25416" />
		<tag k="ssr:type" v="gard" />
	</node>
	<node lat="63.5815444441393" lon="10.831205562528693" id="-36933">
		<tag k="name" v="Steinsgrunnen" />
		<tag k="natural" v="shoal" />
		<tag k="place" v="locality" />
		<tag k="ssr:date" v="2019-12-27" />
		<tag k="ssr:gruppe" v="grunnerISjø" />
		<tag k="ssr:hovedgruppe" v="sjø" />
		<tag k="ssr:stedsnr" v="44927" />
		<tag k="ssr:type" v="grunneISjø" />
	</node>
	<node lat="63.61555587304222" lon="10.878246258037999" id="-36934">
		<tag k="name" v="Spendmyra" />
		<tag k="place" v="locality" />
		<tag k="ssr:date" v="2018-01-09" />
		<tag k="ssr:gruppe" v="dyrkamark" />
		<tag k="ssr:hovedgruppe" v="markslag" />
		<tag k="ssr:stedsnr" v="46141" />
		<tag k="ssr:type" v="jorde" />
	</node>
	<node lat="63.64747610816498" lon="10.88578292842526" id="-36935">
		<tag k="name" v="Skardet" />
		<tag k="natural" v="valley" />
		<tag k="place" v="locality" />
		<tag k="ssr:date" v="2018-01-09" />
		<tag k="ssr:gruppe" v="senkninger" />
		<tag k="ssr:hovedgruppe" v="terreng" />
		<tag k="ssr:stedsnr" v="46053" />
		<tag k="ssr:type" v="skar" />
	</node>
	<node lat="63.65701133693707" lon="10.90555861678521" id="-36936">
		<tag k="name" v="Krokvassmyra" />
		<tag k="natural" v="wetland" />
		<tag k="ssr:date" v="2018-01-09" />
		<tag k="ssr:gruppe" v="våtmark" />
		<tag k="ssr:hovedgruppe" v="markslag" />
		<tag k="ssr:stedsnr" v="46057" />
		<tag k="ssr:type" v="myr" />
	</node>
	<node lat="63.6073017145851" lon="10.885301369833186" id="-36937">
		<tag k="name" v="Raudberget" />
		<tag k="natural" v="hill" />
		<tag k="place" v="locality" />
		<tag k="ssr:date" v="2018-01-09" />
		<tag k="ssr:gruppe" v="høyder" />
		<tag k="ssr:hovedgruppe" v="terreng" />
		<tag k="ssr:stedsnr" v="46154" />
		<tag k="ssr:type" v="berg" />
	</node>
	<node lat="63.5487555528637" lon="10.636311120333394" id="-36938">
		<tag k="name" v="Håmmårhaugen" />
		<tag k="natural" v="hill" />
		<tag k="place" v="locality" />
		<tag k="ssr:date" v="2018-01-09" />
		<tag k="ssr:gruppe" v="høyder" />
		<tag k="ssr:hovedgruppe" v="terreng" />
		<tag k="ssr:stedsnr" v="46250" />
		<tag k="ssr:type" v="haug" />
	</node>
	<node lat="63.633825003669806" lon="10.912480557314284" id="-36939">
		<tag k="name" v="Setertjønna" />
		<tag k="natural" v="water" />
		<tag k="ssr:date" v="2018-01-09" />
		<tag k="ssr:gruppe" v="stilleståendeVann" />
		<tag k="ssr:hovedgruppe" v="ferskvann" />
		<tag k="ssr:stedsnr" v="47096" />
		<tag k="ssr:type" v="tjern" />
	</node>
	<node lat="63.592024738840294" lon="10.845217980978736" id="-36940">
		<tag k="fixme" v="consider seamark:type=rock or natural=shoal" />
		<tag k="name" v="Ulvikskjæret" />
		<tag k="place" v="islet" />
		<tag k="ssr:date" v="2018-01-09" />
		<tag k="ssr:gruppe" v="grunnerISjø" />
		<tag k="ssr:hovedgruppe" v="sjø" />
		<tag k="ssr:stedsnr" v="47276" />
		<tag k="ssr:type" v="skjærISjø" />
	</node>
	<node lat="63.57725696021913" lon="10.78054221806724" id="-36941">
		<tag k="fixme" v="consider natural=peak for the most distinct mountains in the district" />
		<tag k="name" v="Moksnesåsen" />
		<tag k="natural" v="hill" />
		<tag k="place" v="locality" />
		<tag k="ssr:date" v="2018-01-09" />
		<tag k="ssr:gruppe" v="høyder" />
		<tag k="ssr:hovedgruppe" v="terreng" />
		<tag k="ssr:stedsnr" v="47257" />
		<tag k="ssr:type" v="ås" />
	</node>
	<node lat="63.56359722605454" lon="10.551061119258417" id="-36942">
		<tag k="name" v="Kjerkeflua" />
		<tag k="natural" v="shoal" />
		<tag k="place" v="locality" />
		<tag k="ssr:date" v="2018-01-09" />
		<tag k="ssr:gruppe" v="grunnerISjø" />
		<tag k="ssr:hovedgruppe" v="sjø" />
		<tag k="ssr:stedsnr" v="73247" />
		<tag k="ssr:type" v="grunneISjø" />
	</node>
	<node lat="63.63840278095269" lon="10.897258336353515" id="-36943">
		<tag k="name" v="Storsvetjønna" />
		<tag k="natural" v="water" />
		<tag k="ssr:date" v="2018-01-09" />
		<tag k="ssr:gruppe" v="stilleståendeVann" />
		<tag k="ssr:hovedgruppe" v="ferskvann" />
		<tag k="ssr:stedsnr" v="73976" />
		<tag k="ssr:type" v="tjern" />
	</node>
	<node lat="63.63375278127172" lon="10.874580558253724" id="-36944">
		<tag k="name" v="Reitan" />
		<tag k="place" v="farm" />
		<tag k="ssr:date" v="2018-01-09" />
		<tag k="ssr:gruppe" v="gardsbebyggelse" />
		<tag k="ssr:hovedgruppe" v="bebyggelse" />
		<tag k="ssr:stedsnr" v="73989" />
		<tag k="ssr:type" v="bruk" />
	</node>
	<node lat="63.55349167106694" lon="10.68928055185064" id="-36945">
		<tag k="name" v="Austvik" />
		<tag k="place" v="farm" />
		<tag k="ssr:date" v="2018-01-09" />
		<tag k="ssr:gruppe" v="gardsbebyggelse" />
		<tag k="ssr:hovedgruppe" v="bebyggelse" />
		<tag k="ssr:stedsnr" v="74224" />
		<tag k="ssr:type" v="bruk" />
	</node>
	<node lat="63.60664999943519" lon="10.862891676637638" id="-36946">
		<tag k="fixme" v="consider natural=peak for the most distinct mountains in the district" />
		<tag k="name" v="Tronnobergskammen" />
		<tag k="natural" v="hill" />
		<tag k="place" v="locality" />
		<tag k="ssr:date" v="2021-06-08" />
		<tag k="ssr:gruppe" v="høyder" />
		<tag k="ssr:hovedgruppe" v="terreng" />
		<tag k="ssr:stedsnr" v="73868" />
		<tag k="ssr:type" v="ås" />
	</node>
	<node lat="63.57798055576626" lon="10.677838880576294" id="-36947">
		<tag k="name" v="Hogstadsveet" />
		<tag k="place" v="farm" />
		<tag k="ssr:date" v="2018-01-09" />
		<tag k="ssr:gruppe" v="gardsbebyggelse" />
		<tag k="ssr:hovedgruppe" v="bebyggelse" />
		<tag k="ssr:stedsnr" v="74189" />
		<tag k="ssr:type" v="bruk" />
	</node>
	<node lat="63.57282461025038" lon="10.727838348923125" id="-36948">
		<tag k="name" v="Austeng" />
		<tag k="place" v="farm" />
		<tag k="ssr:date" v="2018-08-07" />
		<tag k="ssr:gruppe" v="gardsbebyggelse" />
		<tag k="ssr:hovedgruppe" v="bebyggelse" />
		<tag k="ssr:stedsnr" v="74829" />
		<tag k="ssr:type" v="bruk" />
	</node>
	<node lat="63.6049333327219" lon="10.73492500128997" id="-36949">
		<tag k="name" v="Brattsvedalen" />
		<tag k="place" v="farm" />
		<tag k="ssr:date" v="2018-01-09" />
		<tag k="ssr:gruppe" v="gardsbebyggelse" />
		<tag k="ssr:hovedgruppe" v="bebyggelse" />
		<tag k="ssr:stedsnr" v="74922" />
		<tag k="ssr:type" v="bruk" />
	</node>
	<node lat="63.625988891904804" lon="10.728161115339446" id="-36950">
		<tag k="name" v="Orsandgrunnen" />
		<tag k="natural" v="shoal" />
		<tag k="place" v="locality" />
		<tag k="ssr:date" v="2018-01-09" />
		<tag k="ssr:gruppe" v="grunnerISjø" />
		<tag k="ssr:hovedgruppe" v="sjø" />
		<tag k="ssr:stedsnr" v="74937" />
		<tag k="ssr:type" v="grunneISjø" />
	</node>
	<node lat="63.604280551238766" lon="10.791730563989306" id="-36951">
		<tag k="alt_name" v="Jakobsminde" />
		<tag k="name" v="Minde" />
		<tag k="place" v="farm" />
		<tag k="ssr:date" v="2018-01-09" />
		<tag k="ssr:gruppe" v="gardsbebyggelse" />
		<tag k="ssr:hovedgruppe" v="bebyggelse" />
		<tag k="ssr:stedsnr" v="74874" />
		<tag k="ssr:type" v="bruk" />
	</node>
	<node lat="63.616010456200186" lon="10.889581747205089" id="-36952">
		<tag k="fixme" v="consider place=hamlet" />
		<tag k="name" v="Brannåsen" />
		<tag k="place" v="farm" />
		<tag k="ssr:date" v="2018-01-09" />
		<tag k="ssr:gruppe" v="gardsbebyggelse" />
		<tag k="ssr:hovedgruppe" v="bebyggelse" />
		<tag k="ssr:stedsnr" v="74899" />
		<tag k="ssr:type" v="gard" />
	</node>
	<node lat="63.61209381470039" lon="10.854748313964015" id="-36953">
		<tag k="fixme" v="consider place=hamlet" />
		<tag k="name" v="Gisetstaden" />
		<tag k="place" v="farm" />
		<tag k="ssr:date" v="2018-01-09" />
		<tag k="ssr:gruppe" v="gardsbebyggelse" />
		<tag k="ssr:hovedgruppe" v="bebyggelse" />
		<tag k="ssr:stedsnr" v="74900" />
		<tag k="ssr:type" v="gard" />
	</node>
	<node lat="63.62152222186122" lon="10.816991666372603" id="-36954">
		<tag k="name" v="Litl Kvamman" />
		<tag k="place" v="farm" />
		<tag k="ssr:date" v="2021-06-08" />
		<tag k="ssr:gruppe" v="gardsbebyggelse" />
		<tag k="ssr:hovedgruppe" v="bebyggelse" />
		<tag k="ssr:stedsnr" v="74971" />
		<tag k="ssr:type" v="bruk" />
	</node>
	<node lat="63.626677778221655" lon="10.906769444511221" id="-36955">
		<tag k="name" v="Lomtjønna" />
		<tag k="natural" v="water" />
		<tag k="ssr:date" v="2021-06-08" />
		<tag k="ssr:gruppe" v="stilleståendeVann" />
		<tag k="ssr:hovedgruppe" v="ferskvann" />
		<tag k="ssr:stedsnr" v="74981" />
		<tag k="ssr:type" v="tjern" />
	</node>
	<node lat="63.58210000443694" lon="10.721122215979124" id="-36956">
		<tag k="name" v="Grostad" />
		<tag k="place" v="farm" />
		<tag k="ssr:date" v="2018-01-09" />
		<tag k="ssr:gruppe" v="gardsbebyggelse" />
		<tag k="ssr:hovedgruppe" v="bebyggelse" />
		<tag k="ssr:stedsnr" v="229345" />
		<tag k="ssr:type" v="bruk" />
	</node>
	<node lat="63.575439384040635" lon="10.615031806915841" id="-36957">
		<tag k="fixme" v="consider place=hamlet" />
		<tag k="name" v="Tautra" />
		<tag k="place" v="farm" />
		<tag k="ssr:date" v="2018-01-09" />
		<tag k="ssr:gruppe" v="gardsbebyggelse" />
		<tag k="ssr:hovedgruppe" v="bebyggelse" />
		<tag k="ssr:stedsnr" v="105066" />
		<tag k="ssr:type" v="gard" />
	</node>
	<node lat="63.557619447614286" lon="10.678713892234429" id="-36958">
		<tag k="name" v="Nordstad" />
		<tag k="place" v="farm" />
		<tag k="ssr:date" v="2018-01-09" />
		<tag k="ssr:gruppe" v="gardsbebyggelse" />
		<tag k="ssr:hovedgruppe" v="bebyggelse" />
		<tag k="ssr:stedsnr" v="107101" />
		<tag k="ssr:type" v="bruk" />
	</node>
	<node lat="63.58412430591041" lon="10.812108491186722" id="-36959">
		<tag k="name" v="Haukberget" />
		<tag k="natural" v="hill" />
		<tag k="place" v="locality" />
		<tag k="ssr:date" v="2018-01-09" />
		<tag k="ssr:gruppe" v="høyder" />
		<tag k="ssr:hovedgruppe" v="terreng" />
		<tag k="ssr:stedsnr" v="107238" />
		<tag k="ssr:type" v="haug" />
	</node>
	<node lat="63.58340703048451" lon="10.803896925583393" id="-36960">
		<tag k="name" v="Vågsveet" />
		<tag k="place" v="farm" />
		<tag k="ssr:date" v="2018-01-09" />
		<tag k="ssr:gruppe" v="gardsbebyggelse" />
		<tag k="ssr:hovedgruppe" v="bebyggelse" />
		<tag k="ssr:stedsnr" v="107240" />
		<tag k="ssr:type" v="bruk" />
	</node>
	<node lat="63.628569442407716" lon="10.777477768054467" id="-36961">
		<tag k="name" v="Raudkleiva" />
		<tag k="natural" v="slope" />
		<tag k="place" v="locality" />
		<tag k="ssr:date" v="2018-01-09" />
		<tag k="ssr:gruppe" v="skråninger" />
		<tag k="ssr:hovedgruppe" v="terreng" />
		<tag k="ssr:stedsnr" v="106952" />
		<tag k="ssr:type" v="bakke" />
	</node>
	<node lat="63.63759104964348" lon="10.902755617127294" id="-36962">
		<tag k="name" v="Kopperdalen" />
		<tag k="natural" v="valley" />
		<tag k="place" v="locality" />
		<tag k="ssr:date" v="2018-01-09" />
		<tag k="ssr:gruppe" v="senkninger" />
		<tag k="ssr:hovedgruppe" v="terreng" />
		<tag k="ssr:stedsnr" v="107139" />
		<tag k="ssr:type" v="dal" />
	</node>
	<node lat="63.613556753043966" lon="10.848881064505235" id="-36963">
		<tag k="name" v="Botnan" />
		<tag k="natural" v="bay" />
		<tag k="ssr:date" v="2018-01-09" />
		<tag k="ssr:gruppe" v="ferskvannskontur" />
		<tag k="ssr:hovedgruppe" v="ferskvann" />
		<tag k="ssr:stedsnr" v="107141" />
		<tag k="ssr:type" v="vik" />
	</node>
	<node lat="63.56311644977059" lon="10.720055652866462" id="-36964">
		<tag k="name" v="Logsteinhåmmåren" />
		<tag k="natural" v="cape" />
		<tag k="ssr:date" v="2018-01-09" />
		<tag k="ssr:gruppe" v="kystkontur" />
		<tag k="ssr:hovedgruppe" v="sjø" />
		<tag k="ssr:stedsnr" v="107365" />
		<tag k="ssr:type" v="nesISjø" />
	</node>
	<node lat="63.57189606988666" lon="10.73790775758085" id="-36965">
		<tag k="name" v="Karlberget" />
		<tag k="place" v="isolated_dwelling" />
		<tag k="ssr:date" v="2018-01-09" />
		<tag k="ssr:gruppe" v="bolighus" />
		<tag k="ssr:hovedgruppe" v="bebyggelse" />
		<tag k="ssr:stedsnr" v="107374" />
		<tag k="ssr:type" v="eneboligMindreBoligbygg" />
	</node>
	<node lat="63.56845000197934" lon="10.704144451427206" id="-36966">
		<tag k="name" v="Tinghaugen" />
		<tag k="ssr:date" v="2018-01-09" />
		<tag k="ssr:gruppe" v="kulturminner" />
		<tag k="ssr:hovedgruppe" v="kultur" />
		<tag k="ssr:stedsnr" v="134229" />
		<tag k="ssr:type" v="severdighet" />
		<tag k="tourism" v="attraction" />
	</node>
	<node lat="63.54916388859131" lon="10.667772231557317" id="-36967">
		<tag k="name" v="Neset" />
		<tag k="natural" v="cape" />
		<tag k="ssr:date" v="2018-01-09" />
		<tag k="ssr:gruppe" v="kystkontur" />
		<tag k="ssr:hovedgruppe" v="sjø" />
		<tag k="ssr:stedsnr" v="134267" />
		<tag k="ssr:type" v="nesISjø" />
	</node>
	<node lat="63.54710833145972" lon="10.649961119276783" id="-36968">
		<tag k="name" v="Oldret" />
		<tag k="place" v="farm" />
		<tag k="ssr:date" v="2018-01-09" />
		<tag k="ssr:gruppe" v="gardsbebyggelse" />
		<tag k="ssr:hovedgruppe" v="bebyggelse" />
		<tag k="ssr:stedsnr" v="134274" />
		<tag k="ssr:type" v="bruk" />
	</node>
	<node lat="63.545252776008304" lon="10.673016666870986" id="-36969">
		<tag k="alt_name" v="Hernes, søre" />
		<tag k="name" v="Søre Hernes" />
		<tag k="place" v="farm" />
		<tag k="ssr:date" v="2018-01-09" />
		<tag k="ssr:gruppe" v="gardsbebyggelse" />
		<tag k="ssr:hovedgruppe" v="bebyggelse" />
		<tag k="ssr:stedsnr" v="134279" />
		<tag k="ssr:type" v="bruk" />
	</node>
	<node lat="63.54155278125696" lon="10.641066659888777" id="-36970">
		<tag k="alt_name" v="Hauganfjæra" />
		<tag k="name" v="Haugfjæra" />
		<tag k="natural" v="bay" />
		<tag k="ssr:date" v="2018-01-09" />
		<tag k="ssr:gruppe" v="kystkontur" />
		<tag k="ssr:hovedgruppe" v="sjø" />
		<tag k="ssr:stedsnr" v="134281" />
		<tag k="ssr:type" v="vikISjø" />
	</node>
	<node lat="63.55027222632406" lon="10.641688898309706" id="-36971">
		<tag k="alt_name" v="Skjulsvika" />
		<tag k="name" v="Skulsvikbukta" />
		<tag k="natural" v="bay" />
		<tag k="ssr:date" v="2018-01-09" />
		<tag k="ssr:gruppe" v="kystkontur" />
		<tag k="ssr:hovedgruppe" v="sjø" />
		<tag k="ssr:stedsnr" v="134287" />
		<tag k="ssr:type" v="vikISjø" />
	</node>
	<node lat="63.57573611359964" lon="10.678472212480656" id="-36972">
		<tag k="name" v="Bakken" />
		<tag k="place" v="farm" />
		<tag k="ssr:date" v="2018-01-09" />
		<tag k="ssr:gruppe" v="gardsbebyggelse" />
		<tag k="ssr:hovedgruppe" v="bebyggelse" />
		<tag k="ssr:stedsnr" v="134238" />
		<tag k="ssr:type" v="bruk" />
	</node>
	<node lat="63.5999222181961" lon="10.707902775759182" id="-36973">
		<tag k="name" v="Helsingplassen" />
		<tag k="place" v="farm" />
		<tag k="ssr:date" v="2018-01-09" />
		<tag k="ssr:gruppe" v="gardsbebyggelse" />
		<tag k="ssr:hovedgruppe" v="bebyggelse" />
		<tag k="ssr:stedsnr" v="134347" />
		<tag k="ssr:type" v="bruk" />
	</node>
	<node lat="63.56719142717034" lon="10.701818757698213" id="-36974">
		<tag k="alt_name" v="Logtun" />
		<tag k="amenity" v="place_of_worship" />
		<tag k="denomination" v="lutheran" />
		<tag k="name" v="Logtun kirke" />
		<tag k="religion" v="christian" />
		<tag k="ssr:date" v="2019-02-19" />
		<tag k="ssr:gruppe" v="kulturinstitusjoner" />
		<tag k="ssr:hovedgruppe" v="kultur" />
		<tag k="ssr:stedsnr" v="134293" />
		<tag k="ssr:type" v="kirke" />
	</node>
	<node lat="63.56188889150656" lon="10.675944439548026" id="-36975">
		<tag k="alt_name" v="Nordfjæra, søre" />
		<tag k="name" v="Søre Nordfjæra" />
		<tag k="place" v="farm" />
		<tag k="ssr:date" v="2018-01-09" />
		<tag k="ssr:gruppe" v="gardsbebyggelse" />
		<tag k="ssr:hovedgruppe" v="bebyggelse" />
		<tag k="ssr:stedsnr" v="134294" />
		<tag k="ssr:type" v="bruk" />
	</node>
	<node lat="63.56383888823185" lon="10.583952787620374" id="-36976">
		<tag k="name" v="Skagøra" />
		<tag k="natural" v="beach" />
		<tag k="ssr:date" v="2018-01-09" />
		<tag k="ssr:gruppe" v="kystkontur" />
		<tag k="ssr:hovedgruppe" v="sjø" />
		<tag k="ssr:stedsnr" v="134296" />
		<tag k="ssr:type" v="strandISjø" />
	</node>
	<node lat="63.5811833368924" lon="10.748547222667968" id="-36977">
		<tag k="name" v="Gorset" />
		<tag k="place" v="farm" />
		<tag k="ssr:date" v="2018-01-09" />
		<tag k="ssr:gruppe" v="gardsbebyggelse" />
		<tag k="ssr:hovedgruppe" v="bebyggelse" />
		<tag k="ssr:stedsnr" v="134838" />
		<tag k="ssr:type" v="bruk" />
	</node>
	<node lat="63.636773764395414" lon="10.837981771521385" id="-36978">
		<tag k="fixme" v="consider place=hamlet" />
		<tag k="name" v="Staur" />
		<tag k="place" v="farm" />
		<tag k="ssr:date" v="2018-01-09" />
		<tag k="ssr:gruppe" v="gardsbebyggelse" />
		<tag k="ssr:hovedgruppe" v="bebyggelse" />
		<tag k="ssr:stedsnr" v="134987" />
		<tag k="ssr:type" v="gard" />
	</node>
	<node lat="63.59300832919957" lon="10.607849998925744" id="-36980">
		<tag k="name" v="Indregrunnen" />
		<tag k="natural" v="shoal" />
		<tag k="place" v="locality" />
		<tag k="ssr:date" v="2018-01-09" />
		<tag k="ssr:gruppe" v="grunnerISjø" />
		<tag k="ssr:hovedgruppe" v="sjø" />
		<tag k="ssr:stedsnr" v="165054" />
		<tag k="ssr:type" v="grunneISjø" />
	</node>
	<node lat="63.5796735029301" lon="10.698544547074519" id="-36981">
		<tag k="name" v="Hogstad" />
		<tag k="place" v="hamlet" />
		<tag k="ssr:date" v="2018-01-09" />
		<tag k="ssr:gruppe" v="gardsbebyggelse" />
		<tag k="ssr:hovedgruppe" v="bebyggelse" />
		<tag k="ssr:stedsnr" v="165056" />
		<tag k="ssr:type" v="navnegard" />
	</node>
	<node lat="63.62431539317529" lon="10.868227593421041" id="-36982">
		<tag k="name" v="Åtloholman" />
		<tag k="place" v="islet" />
		<tag k="ssr:date" v="2018-01-09" />
		<tag k="ssr:gruppe" v="ferskvannskontur" />
		<tag k="ssr:hovedgruppe" v="ferskvann" />
		<tag k="ssr:stedsnr" v="167070" />
		<tag k="ssr:type" v="holme" />
	</node>
	<node lat="63.57136666372939" lon="10.675274997111984" id="-36983">
		<tag k="name" v="Ryggavika" />
		<tag k="natural" v="bay" />
		<tag k="ssr:date" v="2018-01-09" />
		<tag k="ssr:gruppe" v="kystkontur" />
		<tag k="ssr:hovedgruppe" v="sjø" />
		<tag k="ssr:stedsnr" v="166743" />
		<tag k="ssr:type" v="vikISjø" />
	</node>
	<node lat="63.607016669017995" lon="10.759916666619992" id="-36984">
		<tag k="name" v="Vangberghalla" />
		<tag k="natural" v="hill" />
		<tag k="place" v="locality" />
		<tag k="ssr:date" v="2018-01-09" />
		<tag k="ssr:gruppe" v="høyder" />
		<tag k="ssr:hovedgruppe" v="terreng" />
		<tag k="ssr:stedsnr" v="166985" />
		<tag k="ssr:type" v="høyde" />
	</node>
	<node lat="63.65462843417278" lon="10.887401560502138" id="-36985">
		<tag k="name" v="Rekbumyra" />
		<tag k="natural" v="wetland" />
		<tag k="ssr:date" v="2018-01-09" />
		<tag k="ssr:gruppe" v="våtmark" />
		<tag k="ssr:hovedgruppe" v="markslag" />
		<tag k="ssr:stedsnr" v="167054" />
		<tag k="ssr:type" v="myr" />
	</node>
	<node lat="63.61874528646091" lon="10.887050625184594" id="-36986">
		<tag k="name" v="Gjørismyra" />
		<tag k="natural" v="wetland" />
		<tag k="ssr:date" v="2018-01-09" />
		<tag k="ssr:gruppe" v="våtmark" />
		<tag k="ssr:hovedgruppe" v="markslag" />
		<tag k="ssr:stedsnr" v="167149" />
		<tag k="ssr:type" v="myr" />
	</node>
	<node lat="63.62975520540391" lon="10.885824476435571" id="-36987">
		<tag k="name" v="Lutdalsbekken" />
		<tag k="ssr:date" v="2018-01-09" />
		<tag k="ssr:gruppe" v="rennendeVann" />
		<tag k="ssr:hovedgruppe" v="ferskvann" />
		<tag k="ssr:stedsnr" v="167184" />
		<tag k="ssr:type" v="bekk" />
		<tag k="waterway" v="stream" />
	</node>
	<node lat="63.623739164633676" lon="10.849803778262443" id="-36988">
		<tag k="name" v="Hovdalsmyra" />
		<tag k="natural" v="wetland" />
		<tag k="ssr:date" v="2018-01-09" />
		<tag k="ssr:gruppe" v="våtmark" />
		<tag k="ssr:hovedgruppe" v="markslag" />
		<tag k="ssr:stedsnr" v="167185" />
		<tag k="ssr:type" v="myr" />
	</node>
	<node lat="63.6311607207405" lon="10.9002239642537" id="-36989">
		<tag k="name" v="Åsmyra" />
		<tag k="natural" v="wetland" />
		<tag k="ssr:date" v="2018-01-09" />
		<tag k="ssr:gruppe" v="våtmark" />
		<tag k="ssr:hovedgruppe" v="markslag" />
		<tag k="ssr:stedsnr" v="167186" />
		<tag k="ssr:type" v="myr" />
	</node>
	<node lat="63.64103715900478" lon="10.901293270114387" id="-36990">
		<tag k="name" v="Fesetmyrdalen" />
		<tag k="natural" v="valley" />
		<tag k="place" v="locality" />
		<tag k="ssr:date" v="2018-01-09" />
		<tag k="ssr:gruppe" v="senkninger" />
		<tag k="ssr:hovedgruppe" v="terreng" />
		<tag k="ssr:stedsnr" v="167187" />
		<tag k="ssr:type" v="dal" />
	</node>
	<node lat="63.619509683113506" lon="10.869565985562968" id="-36991">
		<tag k="name" v="Svartberget" />
		<tag k="natural" v="hill" />
		<tag k="place" v="locality" />
		<tag k="ssr:date" v="2018-01-09" />
		<tag k="ssr:gruppe" v="høyder" />
		<tag k="ssr:hovedgruppe" v="terreng" />
		<tag k="ssr:stedsnr" v="167190" />
		<tag k="ssr:type" v="berg" />
	</node>
	<node lat="63.627097218912496" lon="10.805499989815083" id="-36992">
		<tag k="name" v="Revskaftet" />
		<tag k="natural" v="hill" />
		<tag k="place" v="locality" />
		<tag k="ssr:date" v="2018-01-09" />
		<tag k="ssr:gruppe" v="høyder" />
		<tag k="ssr:hovedgruppe" v="terreng" />
		<tag k="ssr:stedsnr" v="168200" />
		<tag k="ssr:type" v="høyde" />
	</node>
	<node lat="63.606333333833454" lon="10.80059444940781" id="-36993">
		<tag k="name" v="Kvamsbekken" />
		<tag k="ssr:date" v="2018-01-09" />
		<tag k="ssr:gruppe" v="rennendeVann" />
		<tag k="ssr:hovedgruppe" v="ferskvann" />
		<tag k="ssr:stedsnr" v="168298" />
		<tag k="ssr:type" v="bekk" />
		<tag k="waterway" v="stream" />
	</node>
	<node lat="63.650933597088354" lon="10.911073648341366" id="-36994">
		<tag k="fixme" v="consider place=hamlet" />
		<tag k="name" v="Fjellplassen" />
		<tag k="place" v="farm" />
		<tag k="ssr:date" v="2018-01-09" />
		<tag k="ssr:gruppe" v="gardsbebyggelse" />
		<tag k="ssr:hovedgruppe" v="bebyggelse" />
		<tag k="ssr:stedsnr" v="195031" />
		<tag k="ssr:type" v="gard" />
	</node>
	<node lat="63.66205833009683" lon="10.873255563908906" id="-36995">
		<tag k="fixme" v="consider seamark:type=rock or natural=shoal" />
		<tag k="name" v="Naustskjæret" />
		<tag k="place" v="islet" />
		<tag k="ssr:date" v="2021-06-08" />
		<tag k="ssr:gruppe" v="grunnerISjø" />
		<tag k="ssr:hovedgruppe" v="sjø" />
		<tag k="ssr:stedsnr" v="195054" />
		<tag k="ssr:type" v="skjærISjø" />
	</node>
	<node lat="63.571255556601095" lon="10.680180549703921" id="-36996">
		<tag k="name" v="Rønningen" />
		<tag k="place" v="farm" />
		<tag k="ssr:date" v="2018-01-09" />
		<tag k="ssr:gruppe" v="gardsbebyggelse" />
		<tag k="ssr:hovedgruppe" v="bebyggelse" />
		<tag k="ssr:stedsnr" v="195213" />
		<tag k="ssr:type" v="bruk" />
	</node>
	<node lat="63.57289166233097" lon="10.685252787451635" id="-36997">
		<tag k="alt_name" v="Rygg, vestre" />
		<tag k="name" v="Vestre Rygg" />
		<tag k="place" v="farm" />
		<tag k="ssr:date" v="2018-01-09" />
		<tag k="ssr:gruppe" v="gardsbebyggelse" />
		<tag k="ssr:hovedgruppe" v="bebyggelse" />
		<tag k="ssr:stedsnr" v="195215" />
		<tag k="ssr:type" v="bruk" />
	</node>
	<node lat="63.57765833158971" lon="10.605413896001483" id="-36998">
		<tag k="alt_name" v="Bakken" />
		<tag k="name" v="Bakkan" />
		<tag k="place" v="farm" />
		<tag k="ssr:date" v="2018-01-09" />
		<tag k="ssr:gruppe" v="gardsbebyggelse" />
		<tag k="ssr:hovedgruppe" v="bebyggelse" />
		<tag k="ssr:stedsnr" v="195248" />
		<tag k="ssr:type" v="bruk" />
	</node>
	<node lat="63.53984444773875" lon="10.645458339401" id="-36999">
		<tag k="name" v="Kleiva" />
		<tag k="place" v="farm" />
		<tag k="ssr:date" v="2018-01-09" />
		<tag k="ssr:gruppe" v="gardsbebyggelse" />
		<tag k="ssr:hovedgruppe" v="bebyggelse" />
		<tag k="ssr:stedsnr" v="195251" />
		<tag k="ssr:type" v="bruk" />
	</node>
	<node lat="63.60354722506917" lon="10.703563879864285" id="-37000">
		<tag k="name" v="Hyllviktangen" />
		<tag k="natural" v="cape" />
		<tag k="ssr:date" v="2018-01-09" />
		<tag k="ssr:gruppe" v="kystkontur" />
		<tag k="ssr:hovedgruppe" v="sjø" />
		<tag k="ssr:stedsnr" v="195325" />
		<tag k="ssr:type" v="nesISjø" />
	</node>
	<node lat="63.5660777753133" lon="10.722227775701061" id="-37001">
		<tag k="name" v="Håmmåren" />
		<tag k="place" v="farm" />
		<tag k="ssr:date" v="2021-06-08" />
		<tag k="ssr:gruppe" v="gardsbebyggelse" />
		<tag k="ssr:hovedgruppe" v="bebyggelse" />
		<tag k="ssr:stedsnr" v="195809" />
		<tag k="ssr:type" v="bruk" />
	</node>
	<node lat="63.59832499571604" lon="10.747483335384947" id="-37002">
		<tag k="name" v="Bergsvatnet" />
		<tag k="natural" v="water" />
		<tag k="ssr:date" v="2021-06-08" />
		<tag k="ssr:gruppe" v="stilleståendeVann" />
		<tag k="ssr:hovedgruppe" v="ferskvann" />
		<tag k="ssr:stedsnr" v="195890" />
		<tag k="ssr:type" v="tjern" />
	</node>
	<node lat="63.57426110790448" lon="10.724352783729005" id="-37003">
		<tag k="name" v="Revhaug" />
		<tag k="place" v="farm" />
		<tag k="ssr:date" v="2018-01-09" />
		<tag k="ssr:gruppe" v="gardsbebyggelse" />
		<tag k="ssr:hovedgruppe" v="bebyggelse" />
		<tag k="ssr:stedsnr" v="195832" />
		<tag k="ssr:type" v="bruk" />
	</node>
	<node lat="63.59645597626696" lon="10.849307554230622" id="-37004">
		<tag k="fixme" v="consider place=hamlet" />
		<tag k="name" v="Ulvika" />
		<tag k="place" v="farm" />
		<tag k="ssr:date" v="2021-06-08" />
		<tag k="ssr:gruppe" v="gardsbebyggelse" />
		<tag k="ssr:hovedgruppe" v="bebyggelse" />
		<tag k="ssr:stedsnr" v="195857" />
		<tag k="ssr:type" v="gard" />
	</node>
	<node lat="63.5857180635856" lon="10.7439855477665" id="-37005">
		<tag k="name" v="Alstad" />
		<tag k="place" v="hamlet" />
		<tag k="ssr:date" v="2018-08-08" />
		<tag k="ssr:gruppe" v="gardsbebyggelse" />
		<tag k="ssr:hovedgruppe" v="bebyggelse" />
		<tag k="ssr:stedsnr" v="195869" />
		<tag k="ssr:type" v="navnegard" />
	</node>
	<node lat="63.60753055167033" lon="10.74131388913916" id="-37006">
		<tag k="name" v="Myrholt" />
		<tag k="place" v="farm" />
		<tag k="ssr:date" v="2018-01-09" />
		<tag k="ssr:gruppe" v="gardsbebyggelse" />
		<tag k="ssr:hovedgruppe" v="bebyggelse" />
		<tag k="ssr:stedsnr" v="195925" />
		<tag k="ssr:type" v="bruk" />
	</node>
	<node lat="63.620301331348834" lon="10.855956549825043" id="-37007">
		<tag k="fixme" v="consider place=hamlet" />
		<tag k="name" v="Indre Hovdalen" />
		<tag k="place" v="farm" />
		<tag k="ssr:date" v="2021-06-08" />
		<tag k="ssr:gruppe" v="gardsbebyggelse" />
		<tag k="ssr:hovedgruppe" v="bebyggelse" />
		<tag k="ssr:stedsnr" v="195973" />
		<tag k="ssr:type" v="gard" />
	</node>
	<node lat="63.652797224887316" lon="10.857152784755085" id="-37008">
		<tag k="name" v="Åtlotangen" />
		<tag k="natural" v="cape" />
		<tag k="ssr:date" v="2018-01-09" />
		<tag k="ssr:gruppe" v="kystkontur" />
		<tag k="ssr:hovedgruppe" v="sjø" />
		<tag k="ssr:stedsnr" v="195984" />
		<tag k="ssr:type" v="nesISjø" />
	</node>
	<node lat="63.63011389264392" lon="10.823352772194692" id="-37009">
		<tag k="alt_name" v="Stavset, søre" />
		<tag k="fixme" v="multiple name tags, choose one and add the other to alt_name" />
		<tag k="name" v="Stavset;Søre Stavset" />
		<tag k="place" v="farm" />
		<tag k="ssr:date" v="2018-01-09" />
		<tag k="ssr:gruppe" v="gardsbebyggelse" />
		<tag k="ssr:hovedgruppe" v="bebyggelse" />
		<tag k="ssr:stedsnr" v="195992" />
		<tag k="ssr:type" v="bruk" />
	</node>
	<node lat="63.57148888839182" lon="10.717419453159016" id="-37010">
		<tag k="name" v="Lund" />
		<tag k="place" v="farm" />
		<tag k="ssr:date" v="2018-01-09" />
		<tag k="ssr:gruppe" v="gardsbebyggelse" />
		<tag k="ssr:hovedgruppe" v="bebyggelse" />
		<tag k="ssr:stedsnr" v="227757" />
		<tag k="ssr:type" v="bruk" />
	</node>
	<node lat="63.6453615173411" lon="10.874078424013822" id="-37011">
		<tag k="name" v="Aunberget" />
		<tag k="natural" v="hill" />
		<tag k="place" v="locality" />
		<tag k="ssr:date" v="2018-01-09" />
		<tag k="ssr:gruppe" v="høyder" />
		<tag k="ssr:hovedgruppe" v="terreng" />
		<tag k="ssr:stedsnr" v="228060" />
		<tag k="ssr:type" v="berg" />
	</node>
	<node lat="63.64755733417738" lon="10.848931373184419" id="-37012">
		<tag k="name" v="Åtloøra" />
		<tag k="natural" v="beach" />
		<tag k="ssr:date" v="2018-01-09" />
		<tag k="ssr:gruppe" v="kystkontur" />
		<tag k="ssr:hovedgruppe" v="sjø" />
		<tag k="ssr:stedsnr" v="228065" />
		<tag k="ssr:type" v="strandISjø" />
	</node>
	<node lat="63.58094923989662" lon="10.749303389006643" id="-37013">
		<tag k="name" v="Vikamyran" />
		<tag k="place" v="locality" />
		<tag k="ssr:date" v="2018-01-09" />
		<tag k="ssr:gruppe" v="dyrkamark" />
		<tag k="ssr:hovedgruppe" v="markslag" />
		<tag k="ssr:stedsnr" v="228258" />
		<tag k="ssr:type" v="jorde" />
	</node>
	<node lat="63.59077221975397" lon="10.724002785330445" id="-37014">
		<tag k="name" v="Kjelsåsberga" />
		<tag k="natural" v="hill" />
		<tag k="place" v="locality" />
		<tag k="ssr:date" v="2018-01-09" />
		<tag k="ssr:gruppe" v="høyder" />
		<tag k="ssr:hovedgruppe" v="terreng" />
		<tag k="ssr:stedsnr" v="288067" />
		<tag k="ssr:type" v="høyde" />
	</node>
	<node lat="63.57371111003207" lon="10.597336112535363" id="-37015">
		<tag k="name" v="Nordstrand" />
		<tag k="place" v="farm" />
		<tag k="ssr:date" v="2018-01-09" />
		<tag k="ssr:gruppe" v="gardsbebyggelse" />
		<tag k="ssr:hovedgruppe" v="bebyggelse" />
		<tag k="ssr:stedsnr" v="289017" />
		<tag k="ssr:type" v="bruk" />
	</node>
	<node lat="63.64651222068903" lon="10.908804613341962" id="-37016">
		<tag k="name" v="Svartdalen" />
		<tag k="natural" v="valley" />
		<tag k="place" v="locality" />
		<tag k="ssr:date" v="2018-01-09" />
		<tag k="ssr:gruppe" v="senkninger" />
		<tag k="ssr:hovedgruppe" v="terreng" />
		<tag k="ssr:stedsnr" v="289055" />
		<tag k="ssr:type" v="dal" />
	</node>
	<node lat="63.62613272005136" lon="10.898472317534452" id="-37017">
		<tag k="name" v="Djupdalsmyra" />
		<tag k="natural" v="wetland" />
		<tag k="ssr:date" v="2018-01-09" />
		<tag k="ssr:gruppe" v="våtmark" />
		<tag k="ssr:hovedgruppe" v="markslag" />
		<tag k="ssr:stedsnr" v="289161" />
		<tag k="ssr:type" v="myr" />
	</node>
	<node lat="63.58607500028406" lon="10.806158326180903" id="-37018">
		<tag k="name" v="Vågen" />
		<tag k="place" v="farm" />
		<tag k="ssr:date" v="2018-01-09" />
		<tag k="ssr:gruppe" v="gardsbebyggelse" />
		<tag k="ssr:hovedgruppe" v="bebyggelse" />
		<tag k="ssr:stedsnr" v="316917" />
		<tag k="ssr:type" v="bruk" />
	</node>
	<node lat="63.58941666627684" lon="10.81576945298556" id="-37019">
		<tag k="name" v="Myrheim" />
		<tag k="place" v="isolated_dwelling" />
		<tag k="ssr:date" v="2018-01-09" />
		<tag k="ssr:gruppe" v="bolighus" />
		<tag k="ssr:hovedgruppe" v="bebyggelse" />
		<tag k="ssr:stedsnr" v="316918" />
		<tag k="ssr:type" v="eneboligMindreBoligbygg" />
	</node>
	<node lat="63.64701944825135" lon="10.879008340128308" id="-37020">
		<tag k="alt_name" v="Skardtjønna" />
		<tag k="name" v="Skardstjønna" />
		<tag k="natural" v="water" />
		<tag k="ssr:date" v="2018-01-09" />
		<tag k="ssr:gruppe" v="stilleståendeVann" />
		<tag k="ssr:hovedgruppe" v="ferskvann" />
		<tag k="ssr:stedsnr" v="316034" />
		<tag k="ssr:type" v="tjern" />
	</node>
	<node lat="63.566805558954115" lon="10.689202779380837" id="-37021">
		<tag k="alt_name" v="Mo, nordre;Mo nordre" />
		<tag k="name" v="Nordre Mo" />
		<tag k="place" v="farm" />
		<tag k="ssr:date" v="2018-01-09" />
		<tag k="ssr:gruppe" v="gardsbebyggelse" />
		<tag k="ssr:hovedgruppe" v="bebyggelse" />
		<tag k="ssr:stedsnr" v="316216" />
		<tag k="ssr:type" v="bruk" />
	</node>
	<node lat="63.58206110963163" lon="10.628166657896031" id="-37022">
		<tag k="name" v="Sørhamna" />
		<tag k="place" v="isolated_dwelling" />
		<tag k="ssr:date" v="2018-01-09" />
		<tag k="ssr:gruppe" v="bolighus" />
		<tag k="ssr:hovedgruppe" v="bebyggelse" />
		<tag k="ssr:stedsnr" v="316234" />
		<tag k="ssr:type" v="eneboligMindreBoligbygg" />
	</node>
	<node lat="63.52536111536166" lon="10.523847221402848" id="-37023">
		<tag k="name" v="Treungsgrunnen" />
		<tag k="natural" v="shoal" />
		<tag k="place" v="locality" />
		<tag k="ssr:date" v="2018-01-09" />
		<tag k="ssr:gruppe" v="grunnerISjø" />
		<tag k="ssr:hovedgruppe" v="sjø" />
		<tag k="ssr:stedsnr" v="316239" />
		<tag k="ssr:type" v="grunneISjø" />
	</node>
	<node lat="63.54365868166651" lon="10.65366289305917" id="-37024">
		<tag k="name" v="Haugan" />
		<tag k="place" v="hamlet" />
		<tag k="ssr:date" v="2018-01-09" />
		<tag k="ssr:gruppe" v="gardsbebyggelse" />
		<tag k="ssr:hovedgruppe" v="bebyggelse" />
		<tag k="ssr:stedsnr" v="316240" />
		<tag k="ssr:type" v="navnegard" />
	</node>
	<node lat="63.58082500197587" lon="10.804441661702942" id="-37025">
		<tag k="alt_name" v="Kvitlsandvika" />
		<tag k="name" v="Kvitsandvika" />
		<tag k="natural" v="bay" />
		<tag k="ssr:date" v="2018-01-09" />
		<tag k="ssr:gruppe" v="kystkontur" />
		<tag k="ssr:hovedgruppe" v="sjø" />
		<tag k="ssr:stedsnr" v="316875" />
		<tag k="ssr:type" v="vikISjø" />
	</node>
	<node lat="63.621658239562144" lon="10.781998669938604" id="-37026">
		<tag k="fixme" v="consider place=hamlet" />
		<tag k="name" v="Breiset" />
		<tag k="place" v="farm" />
		<tag k="ssr:date" v="2021-06-08" />
		<tag k="ssr:gruppe" v="gardsbebyggelse" />
		<tag k="ssr:hovedgruppe" v="bebyggelse" />
		<tag k="ssr:stedsnr" v="316970" />
		<tag k="ssr:type" v="gard" />
	</node>
	<node lat="63.62877221884968" lon="10.848983323635103" id="-37027">
		<tag k="fixme" v="consider natural=peak for the most distinct mountains in the district" />
		<tag k="name" v="Staurskammen" />
		<tag k="natural" v="hill" />
		<tag k="place" v="locality" />
		<tag k="ssr:date" v="2018-01-09" />
		<tag k="ssr:gruppe" v="høyder" />
		<tag k="ssr:hovedgruppe" v="terreng" />
		<tag k="ssr:stedsnr" v="316991" />
		<tag k="ssr:type" v="ås" />
	</node>
	<node lat="63.60050315944948" lon="10.792884737452592" id="-37028">
		<tag k="name" v="Hogstad" />
		<tag k="place" v="farm" />
		<tag k="ssr:date" v="2018-01-09" />
		<tag k="ssr:gruppe" v="gardsbebyggelse" />
		<tag k="ssr:hovedgruppe" v="bebyggelse" />
		<tag k="ssr:stedsnr" v="316929" />
		<tag k="ssr:type" v="bruk" />
	</node>
	<node lat="63.5925416084518" lon="10.74312349209945" id="-37029">
		<tag k="fixme" v="consider place=hamlet" />
		<tag k="name" v="Berg" />
		<tag k="place" v="farm" />
		<tag k="ssr:date" v="2018-01-09" />
		<tag k="ssr:gruppe" v="gardsbebyggelse" />
		<tag k="ssr:hovedgruppe" v="bebyggelse" />
		<tag k="ssr:stedsnr" v="316933" />
		<tag k="ssr:type" v="gard" />
	</node>
	<node lat="63.62865634335617" lon="10.880798143833497" id="-37030">
		<tag k="fixme" v="consider place=hamlet" />
		<tag k="name" v="Lutdalen" />
		<tag k="place" v="farm" />
		<tag k="ssr:date" v="2018-01-09" />
		<tag k="ssr:gruppe" v="gardsbebyggelse" />
		<tag k="ssr:hovedgruppe" v="bebyggelse" />
		<tag k="ssr:stedsnr" v="316993" />
		<tag k="ssr:type" v="gard" />
	</node>
	<node lat="63.63371666964716" lon="10.85812499019734" id="-37031">
		<tag k="name" v="Fossbakken" />
		<tag k="place" v="farm" />
		<tag k="ssr:date" v="2018-01-09" />
		<tag k="ssr:gruppe" v="gardsbebyggelse" />
		<tag k="ssr:hovedgruppe" v="bebyggelse" />
		<tag k="ssr:stedsnr" v="316994" />
		<tag k="ssr:type" v="bruk" />
	</node>
	<node lat="63.63001388849695" lon="10.771797216910098" id="-37032">
		<tag k="name" v="Fånes" />
		<tag k="place" v="farm" />
		<tag k="ssr:date" v="2018-01-09" />
		<tag k="ssr:gruppe" v="gardsbebyggelse" />
		<tag k="ssr:hovedgruppe" v="bebyggelse" />
		<tag k="ssr:stedsnr" v="316997" />
		<tag k="ssr:type" v="bruk" />
	</node>
	<node lat="63.66517222608187" lon="10.827522212884848" id="-37033">
		<tag k="name" v="Nordgrunnan" />
		<tag k="natural" v="shoal" />
		<tag k="place" v="locality" />
		<tag k="ssr:date" v="2021-06-08" />
		<tag k="ssr:gruppe" v="grunnerISjø" />
		<tag k="ssr:hovedgruppe" v="sjø" />
		<tag k="ssr:stedsnr" v="317027" />
		<tag k="ssr:type" v="grunneISjø" />
	</node>
	<node lat="63.585049999207364" lon="10.568672221821112" id="-37034">
		<tag k="name" v="Kvassgrunnen" />
		<tag k="natural" v="shoal" />
		<tag k="place" v="locality" />
		<tag k="ssr:date" v="2018-01-09" />
		<tag k="ssr:gruppe" v="grunnerISjø" />
		<tag k="ssr:hovedgruppe" v="sjø" />
		<tag k="ssr:stedsnr" v="347046" />
		<tag k="ssr:type" v="grunneISjø" />
	</node>
	<node lat="63.64735000377077" lon="10.828236117874567" id="-37035">
		<tag k="alt_name" v="Skjergrunnen" />
		<tag k="name" v="Skjærgrunnen" />
		<tag k="natural" v="shoal" />
		<tag k="place" v="locality" />
		<tag k="ssr:date" v="2018-01-09" />
		<tag k="ssr:gruppe" v="grunnerISjø" />
		<tag k="ssr:hovedgruppe" v="sjø" />
		<tag k="ssr:stedsnr" v="347372" />
		<tag k="ssr:type" v="grunneISjø" />
	</node>
	<node lat="63.584195089812766" lon="10.62210897434752" id="-37036">
		<tag k="amenity" v="place_of_worship" />
		<tag k="fixme" v="specify religion=*, denomination=*, building=* etc" />
		<tag k="name" v="Tautra kloster" />
		<tag k="ssr:date" v="2018-01-09" />
		<tag k="ssr:gruppe" v="kulturinstitusjoner" />
		<tag k="ssr:hovedgruppe" v="kultur" />
		<tag k="ssr:stedsnr" v="348034" />
		<tag k="ssr:type" v="annenBygningForReligionsutøvelse" />
	</node>
	<node lat="63.64642519174158" lon="10.868853965032903" id="-37037">
		<tag k="name" v="Åtloaunet" />
		<tag k="place" v="isolated_dwelling" />
		<tag k="ssr:date" v="2018-01-09" />
		<tag k="ssr:gruppe" v="bolighus" />
		<tag k="ssr:hovedgruppe" v="bebyggelse" />
		<tag k="ssr:stedsnr" v="349075" />
		<tag k="ssr:type" v="eneboligMindreBoligbygg" />
	</node>
	<node lat="63.67134444776329" lon="10.887594453003704" id="-37038">
		<tag k="name" v="Olsfestet" />
		<tag k="place" v="locality" />
		<tag k="ssr:date" v="2018-01-09" />
		<tag k="ssr:gruppe" v="kulturminner" />
		<tag k="ssr:hovedgruppe" v="kultur" />
		<tag k="ssr:stedsnr" v="349083" />
		<tag k="ssr:type" v="annenKulturdetalj" />
	</node>
	<node lat="63.62973055886323" lon="10.76263611213609" id="-37039">
		<tag k="name" v="Ohlen" />
		<tag k="place" v="farm" />
		<tag k="ssr:date" v="2018-01-09" />
		<tag k="ssr:gruppe" v="gardsbebyggelse" />
		<tag k="ssr:hovedgruppe" v="bebyggelse" />
		<tag k="ssr:stedsnr" v="348945" />
		<tag k="ssr:type" v="bruk" />
	</node>
	<node lat="63.64679444174688" lon="10.932547222599357" id="-37040">
		<tag k="name" v="Sandhøgda" />
		<tag k="natural" v="hill" />
		<tag k="place" v="locality" />
		<tag k="ssr:date" v="2018-01-09" />
		<tag k="ssr:gruppe" v="høyder" />
		<tag k="ssr:hovedgruppe" v="terreng" />
		<tag k="ssr:stedsnr" v="349133" />
		<tag k="ssr:type" v="høyde" />
	</node>
	<node lat="63.54747222005414" lon="10.672863881141303" id="-37041">
		<tag k="name" v="Otterstad" />
		<tag k="place" v="farm" />
		<tag k="ssr:date" v="2018-01-09" />
		<tag k="ssr:gruppe" v="gardsbebyggelse" />
		<tag k="ssr:hovedgruppe" v="bebyggelse" />
		<tag k="ssr:stedsnr" v="349148" />
		<tag k="ssr:type" v="bruk" />
	</node>
	<node lat="63.60758516438223" lon="10.852322748496018" id="-37042">
		<tag k="name" v="Aspmodal" />
		<tag k="place" v="farm" />
		<tag k="ssr:date" v="2018-01-09" />
		<tag k="ssr:gruppe" v="gardsbebyggelse" />
		<tag k="ssr:hovedgruppe" v="bebyggelse" />
		<tag k="ssr:stedsnr" v="349213" />
		<tag k="ssr:type" v="bruk" />
	</node>
	<node lat="63.600202080669945" lon="10.85893819086505" id="-37043">
		<tag k="name" v="Ulvikberga" />
		<tag k="natural" v="hill" />
		<tag k="place" v="locality" />
		<tag k="ssr:date" v="2018-01-09" />
		<tag k="ssr:gruppe" v="høyder" />
		<tag k="ssr:hovedgruppe" v="terreng" />
		<tag k="ssr:stedsnr" v="349223" />
		<tag k="ssr:type" v="berg" />
	</node>
	<node lat="63.59959166885831" lon="10.711047217861774" id="-37044">
		<tag k="name" v="Nåvikbekken" />
		<tag k="ssr:date" v="2018-01-09" />
		<tag k="ssr:gruppe" v="rennendeVann" />
		<tag k="ssr:hovedgruppe" v="ferskvann" />
		<tag k="ssr:stedsnr" v="349828" />
		<tag k="ssr:type" v="bekk" />
		<tag k="waterway" v="stream" />
	</node>
	<node lat="63.59555100718434" lon="10.712107313022297" id="-37045">
		<tag k="fixme" v="consider place=hamlet" />
		<tag k="name" v="Haugen" />
		<tag k="place" v="farm" />
		<tag k="ssr:date" v="2018-01-09" />
		<tag k="ssr:gruppe" v="gardsbebyggelse" />
		<tag k="ssr:hovedgruppe" v="bebyggelse" />
		<tag k="ssr:stedsnr" v="349833" />
		<tag k="ssr:type" v="gard" />
	</node>
	<node lat="63.6238000025596" lon="10.776897226746055" id="-37046">
		<tag k="name" v="Kalvhagan" />
		<tag k="place" v="farm" />
		<tag k="ssr:date" v="2018-01-09" />
		<tag k="ssr:gruppe" v="gardsbebyggelse" />
		<tag k="ssr:hovedgruppe" v="bebyggelse" />
		<tag k="ssr:stedsnr" v="349972" />
		<tag k="ssr:type" v="bruk" />
	</node>
	<node lat="63.64014166947079" lon="10.937602777094584" id="-37047">
		<tag k="name" v="Markhusheia" />
		<tag k="natural" v="hill" />
		<tag k="place" v="locality" />
		<tag k="ssr:date" v="2018-01-09" />
		<tag k="ssr:gruppe" v="høyder" />
		<tag k="ssr:hovedgruppe" v="terreng" />
		<tag k="ssr:stedsnr" v="350082" />
		<tag k="ssr:type" v="høyde" />
	</node>
	<node lat="63.60874047420148" lon="10.890736743032322" id="-37048">
		<tag k="fixme" v="consider place=hamlet" />
		<tag k="name" v="Kuvika" />
		<tag k="place" v="farm" />
		<tag k="ssr:date" v="2018-01-09" />
		<tag k="ssr:gruppe" v="gardsbebyggelse" />
		<tag k="ssr:hovedgruppe" v="bebyggelse" />
		<tag k="ssr:stedsnr" v="350183" />
		<tag k="ssr:type" v="gard" />
	</node>
	<node lat="63.63009444611255" lon="10.79483056025264" id="-37049">
		<tag k="name" v="Bakkbekken" />
		<tag k="ssr:date" v="2018-01-09" />
		<tag k="ssr:gruppe" v="rennendeVann" />
		<tag k="ssr:hovedgruppe" v="ferskvann" />
		<tag k="ssr:stedsnr" v="350262" />
		<tag k="ssr:type" v="bekk" />
		<tag k="waterway" v="stream" />
	</node>
	<node lat="63.56269444782899" lon="10.663811118388876" id="-37050">
		<tag k="name" v="Nordfjærabukta" />
		<tag k="natural" v="bay" />
		<tag k="ssr:date" v="2018-01-09" />
		<tag k="ssr:gruppe" v="kystkontur" />
		<tag k="ssr:hovedgruppe" v="sjø" />
		<tag k="ssr:stedsnr" v="376249" />
		<tag k="ssr:type" v="vikISjø" />
	</node>
	<node lat="63.59675277511558" lon="10.723155562397446" id="-37051">
		<tag k="name" v="Kjelstad" />
		<tag k="place" v="farm" />
		<tag k="ssr:date" v="2018-01-09" />
		<tag k="ssr:gruppe" v="gardsbebyggelse" />
		<tag k="ssr:hovedgruppe" v="bebyggelse" />
		<tag k="ssr:stedsnr" v="376905" />
		<tag k="ssr:type" v="bruk" />
	</node>
	<node lat="63.63653699602289" lon="10.887770427524442" id="-37052">
		<tag k="fixme" v="consider place=hamlet" />
		<tag k="name" v="Storsveet" />
		<tag k="place" v="farm" />
		<tag k="ssr:date" v="2018-01-09" />
		<tag k="ssr:gruppe" v="gardsbebyggelse" />
		<tag k="ssr:hovedgruppe" v="bebyggelse" />
		<tag k="ssr:stedsnr" v="376980" />
		<tag k="ssr:type" v="gard" />
	</node>
	<node lat="63.64182222031535" lon="10.865822223217354" id="-37053">
		<tag k="name" v="Sørenplassen" />
		<tag k="place" v="farm" />
		<tag k="ssr:date" v="2018-01-09" />
		<tag k="ssr:gruppe" v="gardsbebyggelse" />
		<tag k="ssr:hovedgruppe" v="bebyggelse" />
		<tag k="ssr:stedsnr" v="376982" />
		<tag k="ssr:type" v="bruk" />
	</node>
	<node lat="63.57871389126421" lon="10.694641669205762" id="-37054">
		<tag k="alt_name" v="Hogstad, nedre" />
		<tag k="name" v="Nedre Hogstad" />
		<tag k="place" v="farm" />
		<tag k="ssr:date" v="2018-01-09" />
		<tag k="ssr:gruppe" v="gardsbebyggelse" />
		<tag k="ssr:hovedgruppe" v="bebyggelse" />
		<tag k="ssr:stedsnr" v="377186" />
		<tag k="ssr:type" v="bruk" />
	</node>
	<node lat="63.58565000063484" lon="10.569525003200301" id="-37055">
		<tag k="name" v="Kristoffergrunnen" />
		<tag k="natural" v="shoal" />
		<tag k="place" v="locality" />
		<tag k="ssr:date" v="2018-01-09" />
		<tag k="ssr:gruppe" v="grunnerISjø" />
		<tag k="ssr:hovedgruppe" v="sjø" />
		<tag k="ssr:stedsnr" v="377289" />
		<tag k="ssr:type" v="grunneISjø" />
	</node>
	<node lat="63.56941388834834" lon="10.749377775474958" id="-37056">
		<tag k="name" v="Manneset" />
		<tag k="natural" v="cape" />
		<tag k="ssr:date" v="2018-01-09" />
		<tag k="ssr:gruppe" v="kystkontur" />
		<tag k="ssr:hovedgruppe" v="sjø" />
		<tag k="ssr:stedsnr" v="377751" />
		<tag k="ssr:type" v="nesISjø" />
	</node>
	<node lat="63.58160833260789" lon="10.80742777695602" id="-37057">
		<tag k="name" v="Kvitsandvika" />
		<tag k="place" v="farm" />
		<tag k="ssr:date" v="2018-01-09" />
		<tag k="ssr:gruppe" v="gardsbebyggelse" />
		<tag k="ssr:hovedgruppe" v="bebyggelse" />
		<tag k="ssr:stedsnr" v="377823" />
		<tag k="ssr:type" v="bruk" />
	</node>
	<node lat="63.59231944496813" lon="10.771022220137624" id="-37058">
		<tag k="name" v="Liberg" />
		<tag k="place" v="farm" />
		<tag k="ssr:date" v="2018-01-09" />
		<tag k="ssr:gruppe" v="gardsbebyggelse" />
		<tag k="ssr:hovedgruppe" v="bebyggelse" />
		<tag k="ssr:stedsnr" v="377840" />
		<tag k="ssr:type" v="bruk" />
	</node>
	<node lat="63.594819446749575" lon="10.79301111682006" id="-37059">
		<tag k="name" v="Stormyra" />
		<tag k="natural" v="wetland" />
		<tag k="ssr:date" v="2018-01-09" />
		<tag k="ssr:gruppe" v="våtmark" />
		<tag k="ssr:hovedgruppe" v="markslag" />
		<tag k="ssr:stedsnr" v="377842" />
		<tag k="ssr:type" v="myr" />
	</node>
	<node lat="63.59054882896016" lon="10.83071428564852" id="-37060">
		<tag k="fixme" v="consider place=hamlet" />
		<tag k="name" v="Steine" />
		<tag k="place" v="farm" />
		<tag k="ssr:date" v="2018-01-09" />
		<tag k="ssr:gruppe" v="gardsbebyggelse" />
		<tag k="ssr:hovedgruppe" v="bebyggelse" />
		<tag k="ssr:stedsnr" v="377865" />
		<tag k="ssr:type" v="gard" />
	</node>
	<node lat="63.58291281178806" lon="10.794652362476919" id="-37061">
		<tag k="alt_name" v="Hundøya" />
		<tag k="fixme" v="consider place=hamlet" />
		<tag k="name" v="Hyndøya" />
		<tag k="place" v="farm" />
		<tag k="ssr:date" v="2018-01-09" />
		<tag k="ssr:gruppe" v="gardsbebyggelse" />
		<tag k="ssr:hovedgruppe" v="bebyggelse" />
		<tag k="ssr:stedsnr" v="377866" />
		<tag k="ssr:type" v="gard" />
	</node>
	<node lat="63.59811667001728" lon="10.78410555117036" id="-37062">
		<tag k="name" v="Liavatnet" />
		<tag k="natural" v="water" />
		<tag k="ssr:date" v="2021-06-08" />
		<tag k="ssr:gruppe" v="stilleståendeVann" />
		<tag k="ssr:hovedgruppe" v="ferskvann" />
		<tag k="ssr:stedsnr" v="377889" />
		<tag k="ssr:type" v="vann" />
		<tag k="water" v="lake" />
	</node>
	<node lat="63.60899722646727" lon="10.832066662932448" id="-37063">
		<tag k="fixme" v="consider natural=peak for the most distinct mountains in the district" />
		<tag k="name" v="Hojemskammen" />
		<tag k="natural" v="hill" />
		<tag k="place" v="locality" />
		<tag k="ssr:date" v="2018-01-09" />
		<tag k="ssr:gruppe" v="høyder" />
		<tag k="ssr:hovedgruppe" v="terreng" />
		<tag k="ssr:stedsnr" v="377903" />
		<tag k="ssr:type" v="ås" />
	</node>
	<node lat="63.61661874943504" lon="10.750643967380949" id="-37064">
		<tag k="fixme" v="consider place=hamlet" />
		<tag k="name" v="Skågset" />
		<tag k="place" v="farm" />
		<tag k="ssr:date" v="2018-01-09" />
		<tag k="ssr:gruppe" v="gardsbebyggelse" />
		<tag k="ssr:hovedgruppe" v="bebyggelse" />
		<tag k="ssr:stedsnr" v="377913" />
		<tag k="ssr:type" v="gard" />
	</node>
	<node lat="63.61441489563715" lon="10.783196586748181" id="-37065">
		<tag k="fixme" v="consider place=hamlet" />
		<tag k="name" v="Brekka" />
		<tag k="place" v="farm" />
		<tag k="ssr:date" v="2018-01-09" />
		<tag k="ssr:gruppe" v="gardsbebyggelse" />
		<tag k="ssr:hovedgruppe" v="bebyggelse" />
		<tag k="ssr:stedsnr" v="377917" />
		<tag k="ssr:type" v="gard" />
	</node>
	<node lat="63.62110478829212" lon="10.835234583109388" id="-37066">
		<tag k="name" v="Stormyra" />
		<tag k="natural" v="wetland" />
		<tag k="ssr:date" v="2019-01-24" />
		<tag k="ssr:gruppe" v="våtmark" />
		<tag k="ssr:hovedgruppe" v="markslag" />
		<tag k="ssr:stedsnr" v="377955" />
		<tag k="ssr:type" v="myr" />
	</node>
	<node lat="63.62369166707925" lon="10.849599995793005" id="-37067">
		<tag k="name" v="Fjøsmyra" />
		<tag k="natural" v="wetland" />
		<tag k="ssr:date" v="2018-01-09" />
		<tag k="ssr:gruppe" v="våtmark" />
		<tag k="ssr:hovedgruppe" v="markslag" />
		<tag k="ssr:stedsnr" v="377965" />
		<tag k="ssr:type" v="myr" />
	</node>
	<node lat="63.56277995750156" lon="10.677220372545097" id="-37068">
		<tag k="fixme" v="consider place=hamlet" />
		<tag k="name" v="Nordfjæra" />
		<tag k="place" v="farm" />
		<tag k="ssr:date" v="2018-01-09" />
		<tag k="ssr:gruppe" v="gardsbebyggelse" />
		<tag k="ssr:hovedgruppe" v="bebyggelse" />
		<tag k="ssr:stedsnr" v="389073" />
		<tag k="ssr:type" v="gard" />
	</node>
	<node lat="63.57625277647412" lon="10.811869440308993" id="-37069">
		<tag k="name" v="Vollgrunnen" />
		<tag k="natural" v="shoal" />
		<tag k="place" v="locality" />
		<tag k="ssr:date" v="2019-12-27" />
		<tag k="ssr:gruppe" v="grunnerISjø" />
		<tag k="ssr:hovedgruppe" v="sjø" />
		<tag k="ssr:stedsnr" v="408950" />
		<tag k="ssr:type" v="grunneISjø" />
	</node>
	<node lat="63.62004592599608" lon="10.86423380478968" id="-37070">
		<tag k="name" v="Litlholmen" />
		<tag k="place" v="islet" />
		<tag k="ssr:date" v="2018-01-09" />
		<tag k="ssr:gruppe" v="ferskvannskontur" />
		<tag k="ssr:hovedgruppe" v="ferskvann" />
		<tag k="ssr:stedsnr" v="410171" />
		<tag k="ssr:type" v="holme" />
	</node>
	<node lat="63.582074998402064" lon="10.691438888820795" id="-37071">
		<tag k="name" v="Utsikten" />
		<tag k="natural" v="hill" />
		<tag k="place" v="locality" />
		<tag k="ssr:date" v="2018-01-09" />
		<tag k="ssr:gruppe" v="høyder" />
		<tag k="ssr:hovedgruppe" v="terreng" />
		<tag k="ssr:stedsnr" v="409782" />
		<tag k="ssr:type" v="haug" />
	</node>
	<node lat="63.63033737214956" lon="10.778417854152769" id="-37072">
		<tag k="name" v="Fånes" />
		<tag k="place" v="hamlet" />
		<tag k="ssr:date" v="2018-01-09" />
		<tag k="ssr:gruppe" v="gardsbebyggelse" />
		<tag k="ssr:hovedgruppe" v="bebyggelse" />
		<tag k="ssr:stedsnr" v="410200" />
		<tag k="ssr:type" v="navnegard" />
	</node>
	<node lat="63.666305556395706" lon="10.882208326750684" id="-37073">
		<tag k="name" v="Hendrikdalen" />
		<tag k="natural" v="valley" />
		<tag k="place" v="locality" />
		<tag k="ssr:date" v="2018-01-09" />
		<tag k="ssr:gruppe" v="senkninger" />
		<tag k="ssr:hovedgruppe" v="terreng" />
		<tag k="ssr:stedsnr" v="410062" />
		<tag k="ssr:type" v="dal" />
	</node>
	<node lat="63.66592728624899" lon="10.873998326501933" id="-37074">
		<tag k="fixme" v="consider seamark:type=rock or natural=shoal" />
		<tag k="name" v="Langskjæret" />
		<tag k="place" v="islet" />
		<tag k="ssr:date" v="2018-01-09" />
		<tag k="ssr:gruppe" v="grunnerISjø" />
		<tag k="ssr:hovedgruppe" v="sjø" />
		<tag k="ssr:stedsnr" v="410068" />
		<tag k="ssr:type" v="skjærISjø" />
	</node>
	<node lat="63.59507352746671" lon="10.717003359869839" id="-37075">
		<tag k="fixme" v="consider place=hamlet" />
		<tag k="name" v="Storlia" />
		<tag k="place" v="farm" />
		<tag k="ssr:date" v="2018-01-09" />
		<tag k="ssr:gruppe" v="gardsbebyggelse" />
		<tag k="ssr:hovedgruppe" v="bebyggelse" />
		<tag k="ssr:stedsnr" v="410810" />
		<tag k="ssr:type" v="gard" />
	</node>
	<node lat="63.59492222132135" lon="10.779813890069164" id="-37076">
		<tag k="name" v="Olahølet" />
		<tag k="natural" v="bay" />
		<tag k="ssr:date" v="2018-01-09" />
		<tag k="ssr:gruppe" v="ferskvannskontur" />
		<tag k="ssr:hovedgruppe" v="ferskvann" />
		<tag k="ssr:stedsnr" v="410999" />
		<tag k="ssr:type" v="vik" />
	</node>
	<node lat="63.615286107402255" lon="10.824522216454776" id="-37077">
		<tag k="name" v="Hovd" />
		<tag k="place" v="isolated_dwelling" />
		<tag k="ssr:date" v="2018-01-09" />
		<tag k="ssr:gruppe" v="bolighus" />
		<tag k="ssr:hovedgruppe" v="bebyggelse" />
		<tag k="ssr:stedsnr" v="411229" />
		<tag k="ssr:type" v="eneboligMindreBoligbygg" />
	</node>
	<node lat="63.56127499976345" lon="10.703655545923615" id="-37078">
		<tag k="name" v="Mostadtrøa" />
		<tag k="place" v="farm" />
		<tag k="ssr:date" v="2018-01-09" />
		<tag k="ssr:gruppe" v="gardsbebyggelse" />
		<tag k="ssr:hovedgruppe" v="bebyggelse" />
		<tag k="ssr:stedsnr" v="411637" />
		<tag k="ssr:type" v="bruk" />
	</node>
	<node lat="63.56868055459004" lon="10.673966672034917" id="-37079">
		<tag k="alt_name" v="Ryggvik" />
		<tag k="name" v="Ryggavika" />
		<tag k="place" v="farm" />
		<tag k="ssr:date" v="2018-01-09" />
		<tag k="ssr:gruppe" v="gardsbebyggelse" />
		<tag k="ssr:hovedgruppe" v="bebyggelse" />
		<tag k="ssr:stedsnr" v="437214" />
		<tag k="ssr:type" v="bruk" />
	</node>
	<node lat="63.659208332410415" lon="10.896244435565222" id="-37080">
		<tag k="fixme" v="consider natural=peak for the most distinct mountains in the district" />
		<tag k="name" v="Litlheia" />
		<tag k="natural" v="hill" />
		<tag k="place" v="locality" />
		<tag k="ssr:date" v="2021-06-08" />
		<tag k="ssr:gruppe" v="høyder" />
		<tag k="ssr:hovedgruppe" v="terreng" />
		<tag k="ssr:stedsnr" v="438045" />
		<tag k="ssr:type" v="ås" />
	</node>
	<node lat="63.630719447804125" lon="10.803711104355354" id="-37081">
		<tag k="name" v="Austgård" />
		<tag k="place" v="farm" />
		<tag k="ssr:date" v="2021-06-08" />
		<tag k="ssr:gruppe" v="gardsbebyggelse" />
		<tag k="ssr:hovedgruppe" v="bebyggelse" />
		<tag k="ssr:stedsnr" v="437991" />
		<tag k="ssr:type" v="bruk" />
	</node>
	<node lat="63.56978055207698" lon="10.671816658200672" id="-37082">
		<tag k="name" v="Tangen" />
		<tag k="natural" v="cape" />
		<tag k="ssr:date" v="2018-01-09" />
		<tag k="ssr:gruppe" v="kystkontur" />
		<tag k="ssr:hovedgruppe" v="sjø" />
		<tag k="ssr:stedsnr" v="438154" />
		<tag k="ssr:type" v="nesISjø" />
	</node>
	<node lat="63.59753333310296" lon="10.709633336739783" id="-37083">
		<tag k="name" v="Småland" />
		<tag k="place" v="farm" />
		<tag k="ssr:date" v="2018-01-09" />
		<tag k="ssr:gruppe" v="gardsbebyggelse" />
		<tag k="ssr:hovedgruppe" v="bebyggelse" />
		<tag k="ssr:stedsnr" v="438285" />
		<tag k="ssr:type" v="bruk" />
	</node>
	<node lat="63.60619999861638" lon="10.8018750046819" id="-37084">
		<tag k="name" v="Halset" />
		<tag k="place" v="farm" />
		<tag k="ssr:date" v="2018-01-09" />
		<tag k="ssr:gruppe" v="gardsbebyggelse" />
		<tag k="ssr:hovedgruppe" v="bebyggelse" />
		<tag k="ssr:stedsnr" v="438873" />
		<tag k="ssr:type" v="bruk" />
	</node>
	<node lat="63.60091690488406" lon="10.761142729899515" id="-37085">
		<tag k="fixme" v="consider place=hamlet" />
		<tag k="name" v="Remman" />
		<tag k="place" v="farm" />
		<tag k="ssr:date" v="2018-01-09" />
		<tag k="ssr:gruppe" v="gardsbebyggelse" />
		<tag k="ssr:hovedgruppe" v="bebyggelse" />
		<tag k="ssr:stedsnr" v="438884" />
		<tag k="ssr:type" v="gard" />
	</node>
	<node lat="63.61575555309525" lon="10.812144442420655" id="-37086">
		<tag k="name" v="Vestre Kvamman" />
		<tag k="place" v="farm" />
		<tag k="ssr:date" v="2021-06-08" />
		<tag k="ssr:gruppe" v="gardsbebyggelse" />
		<tag k="ssr:hovedgruppe" v="bebyggelse" />
		<tag k="ssr:stedsnr" v="438914" />
		<tag k="ssr:type" v="bruk" />
	</node>
	<node lat="63.63099166436369" lon="10.911136112246385" id="-37087">
		<tag k="name" v="Brannhaugen" />
		<tag k="natural" v="hill" />
		<tag k="place" v="locality" />
		<tag k="ssr:date" v="2018-01-09" />
		<tag k="ssr:gruppe" v="høyder" />
		<tag k="ssr:hovedgruppe" v="terreng" />
		<tag k="ssr:stedsnr" v="438983" />
		<tag k="ssr:type" v="haug" />
	</node>
	<node lat="63.58169722497391" lon="10.67293888678496" id="-37088">
		<tag k="name" v="Holmberget" />
		<tag k="natural" v="cape" />
		<tag k="ssr:date" v="2018-01-09" />
		<tag k="ssr:gruppe" v="kystkontur" />
		<tag k="ssr:hovedgruppe" v="sjø" />
		<tag k="ssr:stedsnr" v="498257" />
		<tag k="ssr:type" v="nesISjø" />
	</node>
	<node lat="63.57773443741922" lon="10.711053586790374" id="-37089">
		<tag k="alt_name" v="Lein, vestre;Lein" />
		<tag k="name" v="Vestre Lein" />
		<tag k="place" v="farm" />
		<tag k="ssr:date" v="2018-01-09" />
		<tag k="ssr:gruppe" v="gardsbebyggelse" />
		<tag k="ssr:hovedgruppe" v="bebyggelse" />
		<tag k="ssr:stedsnr" v="498265" />
		<tag k="ssr:type" v="bruk" />
	</node>
	<node lat="63.55036900027672" lon="10.686105676577158" id="-37090">
		<tag k="fixme" v="consider place=hamlet" />
		<tag k="name" v="Galtvik" />
		<tag k="place" v="farm" />
		<tag k="ssr:date" v="2018-01-09" />
		<tag k="ssr:gruppe" v="gardsbebyggelse" />
		<tag k="ssr:hovedgruppe" v="bebyggelse" />
		<tag k="ssr:stedsnr" v="498279" />
		<tag k="ssr:type" v="gard" />
	</node>
	<node lat="63.55672499800659" lon="10.67541945343205" id="-37091">
		<tag k="name" v="Sandvei" />
		<tag k="place" v="farm" />
		<tag k="ssr:date" v="2018-01-09" />
		<tag k="ssr:gruppe" v="gardsbebyggelse" />
		<tag k="ssr:hovedgruppe" v="bebyggelse" />
		<tag k="ssr:stedsnr" v="498281" />
		<tag k="ssr:type" v="bruk" />
	</node>
	<node lat="63.588804902891034" lon="10.756735667519095" id="-37092">
		<tag k="fixme" v="consider place=hamlet" />
		<tag k="name" v="Presthus" />
		<tag k="place" v="farm" />
		<tag k="ssr:date" v="2018-01-09" />
		<tag k="ssr:gruppe" v="gardsbebyggelse" />
		<tag k="ssr:hovedgruppe" v="bebyggelse" />
		<tag k="ssr:stedsnr" v="498885" />
		<tag k="ssr:type" v="gard" />
	</node>
	<node lat="63.62793359720599" lon="10.821769970795103" id="-37093">
		<tag k="fixme" v="consider place=hamlet" />
		<tag k="name" v="Flekkstad" />
		<tag k="place" v="farm" />
		<tag k="ssr:date" v="2021-06-08" />
		<tag k="ssr:gruppe" v="gardsbebyggelse" />
		<tag k="ssr:hovedgruppe" v="bebyggelse" />
		<tag k="ssr:stedsnr" v="498978" />
		<tag k="ssr:type" v="gard" />
	</node>
	<node lat="63.59642148953193" lon="10.766728424012937" id="-37094">
		<tag k="fixme" v="consider place=hamlet" />
		<tag k="name" v="Lian" />
		<tag k="place" v="farm" />
		<tag k="ssr:date" v="2018-01-09" />
		<tag k="ssr:gruppe" v="gardsbebyggelse" />
		<tag k="ssr:hovedgruppe" v="bebyggelse" />
		<tag k="ssr:stedsnr" v="498910" />
		<tag k="ssr:type" v="gard" />
	</node>
	<node lat="63.66266388682502" lon="10.903519437857907" id="-37095">
		<tag k="fixme" v="consider tourism=alpine_hut or tourism=chalet" />
		<tag k="name" v="Fjellhov" />
		<tag k="ssr:date" v="2018-06-22" />
		<tag k="ssr:gruppe" v="næring" />
		<tag k="ssr:hovedgruppe" v="bebyggelse" />
		<tag k="ssr:stedsnr" v="526159" />
		<tag k="ssr:type" v="turisthytte" />
		<tag k="tourism" v="wilderness_hut" />
	</node>
	<node lat="63.60212572425093" lon="10.727858618774892" id="-37096">
		<tag k="name" v="Nåvik" />
		<tag k="place" v="hamlet" />
		<tag k="ssr:date" v="2018-08-20" />
		<tag k="ssr:gruppe" v="gardsbebyggelse" />
		<tag k="ssr:hovedgruppe" v="bebyggelse" />
		<tag k="ssr:stedsnr" v="530954" />
		<tag k="ssr:type" v="navnegard" />
	</node>
	<node lat="63.643533153678" lon="10.873708837284466" id="-37097">
		<tag k="name" v="Åtlomyra" />
		<tag k="natural" v="wetland" />
		<tag k="ssr:date" v="2018-01-09" />
		<tag k="ssr:gruppe" v="våtmark" />
		<tag k="ssr:hovedgruppe" v="markslag" />
		<tag k="ssr:stedsnr" v="531079" />
		<tag k="ssr:type" v="myr" />
	</node>
	<node lat="63.660569164946146" lon="10.910084548322294" id="-37098">
		<tag k="name" v="Storheimyra" />
		<tag k="natural" v="wetland" />
		<tag k="ssr:date" v="2018-01-09" />
		<tag k="ssr:gruppe" v="våtmark" />
		<tag k="ssr:hovedgruppe" v="markslag" />
		<tag k="ssr:stedsnr" v="531055" />
		<tag k="ssr:type" v="myr" />
	</node>
	<node lat="63.6176862891792" lon="10.811523164422557" id="-37099">
		<tag k="fixme" v="consider place=hamlet" />
		<tag k="name" v="Kvamman" />
		<tag k="place" v="farm" />
		<tag k="ssr:date" v="2018-01-09" />
		<tag k="ssr:gruppe" v="gardsbebyggelse" />
		<tag k="ssr:hovedgruppe" v="bebyggelse" />
		<tag k="ssr:stedsnr" v="531211" />
		<tag k="ssr:type" v="gard" />
	</node>
	<node lat="63.54818889221746" lon="10.637888890455816" id="-37100">
		<tag k="name" v="Uthaug" />
		<tag k="place" v="farm" />
		<tag k="ssr:date" v="2018-01-09" />
		<tag k="ssr:gruppe" v="gardsbebyggelse" />
		<tag k="ssr:hovedgruppe" v="bebyggelse" />
		<tag k="ssr:stedsnr" v="531240" />
		<tag k="ssr:type" v="bruk" />
	</node>
	<node lat="63.59810832925668" lon="10.752150006543959" id="-37101">
		<tag k="name" v="Brannhaugen" />
		<tag k="natural" v="hill" />
		<tag k="place" v="locality" />
		<tag k="ssr:date" v="2018-01-09" />
		<tag k="ssr:gruppe" v="høyder" />
		<tag k="ssr:hovedgruppe" v="terreng" />
		<tag k="ssr:stedsnr" v="531909" />
		<tag k="ssr:type" v="haug" />
	</node>
	<node lat="63.624405556554116" lon="10.757725008797788" id="-37102">
		<tag k="name" v="Vigtil" />
		<tag k="place" v="farm" />
		<tag k="ssr:date" v="2018-01-09" />
		<tag k="ssr:gruppe" v="gardsbebyggelse" />
		<tag k="ssr:hovedgruppe" v="bebyggelse" />
		<tag k="ssr:stedsnr" v="531959" />
		<tag k="ssr:type" v="bruk" />
	</node>
	<node lat="63.57011225932478" lon="10.727308629764694" id="-37103">
		<tag k="name" v="Dunsplassen" />
		<tag k="place" v="farm" />
		<tag k="ssr:date" v="2018-01-09" />
		<tag k="ssr:gruppe" v="gardsbebyggelse" />
		<tag k="ssr:hovedgruppe" v="bebyggelse" />
		<tag k="ssr:stedsnr" v="532338" />
		<tag k="ssr:type" v="bruk" />
	</node>
	<node lat="63.62318611103631" lon="10.890552776838891" id="-37104">
		<tag k="name" v="Lågkastmyra" />
		<tag k="natural" v="wetland" />
		<tag k="ssr:date" v="2018-01-09" />
		<tag k="ssr:gruppe" v="våtmark" />
		<tag k="ssr:hovedgruppe" v="markslag" />
		<tag k="ssr:stedsnr" v="535170" />
		<tag k="ssr:type" v="myr" />
	</node>
	<node lat="63.574954578287866" lon="10.605486480300199" id="-37105">
		<tag k="name" v="Tautra" />
		<tag k="place" v="island" />
		<tag k="ssr:date" v="2019-12-09" />
		<tag k="ssr:gruppe" v="kystkontur" />
		<tag k="ssr:hovedgruppe" v="sjø" />
		<tag k="ssr:stedsnr" v="558206" />
		<tag k="ssr:type" v="øyISjø" />
	</node>
	<node lat="63.57652500323663" lon="10.613608325796477" id="-37106">
		<tag k="name" v="Nordvik" />
		<tag k="place" v="farm" />
		<tag k="ssr:date" v="2018-01-09" />
		<tag k="ssr:gruppe" v="gardsbebyggelse" />
		<tag k="ssr:hovedgruppe" v="bebyggelse" />
		<tag k="ssr:stedsnr" v="558208" />
		<tag k="ssr:type" v="bruk" />
	</node>
	<node lat="63.54482499698931" lon="10.657133331930549" id="-37107">
		<tag k="alt_name" v="Hernes;Hernes, vestre" />
		<tag k="name" v="Vestre Hernes" />
		<tag k="place" v="farm" />
		<tag k="ssr:date" v="2018-01-09" />
		<tag k="ssr:gruppe" v="gardsbebyggelse" />
		<tag k="ssr:hovedgruppe" v="bebyggelse" />
		<tag k="ssr:stedsnr" v="558237" />
		<tag k="ssr:type" v="bruk" />
	</node>
	<node lat="63.61345555939224" lon="10.724933327865283" id="-37108">
		<tag k="name" v="Storsveet" />
		<tag k="place" v="farm" />
		<tag k="ssr:date" v="2018-01-09" />
		<tag k="ssr:gruppe" v="gardsbebyggelse" />
		<tag k="ssr:hovedgruppe" v="bebyggelse" />
		<tag k="ssr:stedsnr" v="559915" />
		<tag k="ssr:type" v="bruk" />
	</node>
	<node lat="63.58666055766249" lon="10.732162579536146" id="-37109">
		<tag k="name" v="Asklund" />
		<tag k="place" v="hamlet" />
		<tag k="ssr:date" v="2018-01-09" />
		<tag k="ssr:gruppe" v="gardsbebyggelse" />
		<tag k="ssr:hovedgruppe" v="bebyggelse" />
		<tag k="ssr:stedsnr" v="559863" />
		<tag k="ssr:type" v="navnegard" />
	</node>
	<node lat="63.62751107621631" lon="10.788013028335167" id="-37110">
		<tag k="fixme" v="consider place=hamlet" />
		<tag k="name" v="Rekbu" />
		<tag k="place" v="farm" />
		<tag k="ssr:date" v="2018-01-09" />
		<tag k="ssr:gruppe" v="gardsbebyggelse" />
		<tag k="ssr:hovedgruppe" v="bebyggelse" />
		<tag k="ssr:stedsnr" v="559948" />
		<tag k="ssr:type" v="gard" />
	</node>
	<node lat="63.62297902619015" lon="10.759398854859032" id="-37111">
		<tag k="name" v="Vigtil" />
		<tag k="place" v="hamlet" />
		<tag k="ssr:date" v="2021-06-08" />
		<tag k="ssr:gruppe" v="gardsbebyggelse" />
		<tag k="ssr:hovedgruppe" v="bebyggelse" />
		<tag k="ssr:stedsnr" v="559951" />
		<tag k="ssr:type" v="navnegard" />
	</node>
	<node lat="63.620146083403945" lon="10.89290828996646" id="-37112">
		<tag k="fixme" v="consider place=hamlet" />
		<tag k="name" v="Svenskhalla" />
		<tag k="place" v="farm" />
		<tag k="ssr:date" v="2018-01-09" />
		<tag k="ssr:gruppe" v="gardsbebyggelse" />
		<tag k="ssr:hovedgruppe" v="bebyggelse" />
		<tag k="ssr:stedsnr" v="559970" />
		<tag k="ssr:type" v="gard" />
	</node>
	<node lat="63.599838888685674" lon="10.707594453109701" id="-37113">
		<tag k="name" v="Nåvikaunet" />
		<tag k="place" v="farm" />
		<tag k="ssr:date" v="2018-01-09" />
		<tag k="ssr:gruppe" v="gardsbebyggelse" />
		<tag k="ssr:hovedgruppe" v="bebyggelse" />
		<tag k="ssr:stedsnr" v="591795" />
		<tag k="ssr:type" v="bruk" />
	</node>
	<node lat="63.59579444648526" lon="10.736341670807779" id="-37114">
		<tag k="name" v="Skardet" />
		<tag k="place" v="quarter" />
		<tag k="ssr:date" v="2018-01-09" />
		<tag k="ssr:gruppe" v="bebyggelsesområder" />
		<tag k="ssr:hovedgruppe" v="bebyggelse" />
		<tag k="ssr:stedsnr" v="591878" />
		<tag k="ssr:type" v="boligfelt" />
	</node>
	<node lat="63.54293333292252" lon="10.651611113828956" id="-37115">
		<tag k="alt_name" v="Haugan nedre" />
		<tag k="name" v="Nedre Haugan" />
		<tag k="place" v="farm" />
		<tag k="ssr:date" v="2018-01-09" />
		<tag k="ssr:gruppe" v="gardsbebyggelse" />
		<tag k="ssr:hovedgruppe" v="bebyggelse" />
		<tag k="ssr:stedsnr" v="592236" />
		<tag k="ssr:type" v="bruk" />
	</node>
	<node lat="63.54353888916857" lon="10.651144444306643" id="-37116">
		<tag k="name" v="Kongshaugen" />
		<tag k="natural" v="hill" />
		<tag k="place" v="locality" />
		<tag k="ssr:date" v="2018-01-09" />
		<tag k="ssr:gruppe" v="høyder" />
		<tag k="ssr:hovedgruppe" v="terreng" />
		<tag k="ssr:stedsnr" v="592237" />
		<tag k="ssr:type" v="haug" />
	</node>
	<node lat="63.596707628559706" lon="10.834507286019669" id="-37117">
		<tag k="name" v="Bekkdalen" />
		<tag k="natural" v="valley" />
		<tag k="place" v="locality" />
		<tag k="ssr:date" v="2018-01-09" />
		<tag k="ssr:gruppe" v="senkninger" />
		<tag k="ssr:hovedgruppe" v="terreng" />
		<tag k="ssr:stedsnr" v="592286" />
		<tag k="ssr:type" v="dal" />
	</node>
	<node lat="63.546158335124936" lon="10.67685278180961" id="-37118">
		<tag k="name" v="Sørheim" />
		<tag k="place" v="farm" />
		<tag k="ssr:date" v="2018-01-09" />
		<tag k="ssr:gruppe" v="gardsbebyggelse" />
		<tag k="ssr:hovedgruppe" v="bebyggelse" />
		<tag k="ssr:stedsnr" v="592376" />
		<tag k="ssr:type" v="bruk" />
	</node>
	<node lat="63.59340000172836" lon="10.763369439295204" id="-37119">
		<tag k="name" v="Vassli" />
		<tag k="place" v="farm" />
		<tag k="ssr:date" v="2018-01-09" />
		<tag k="ssr:gruppe" v="gardsbebyggelse" />
		<tag k="ssr:hovedgruppe" v="bebyggelse" />
		<tag k="ssr:stedsnr" v="593000" />
		<tag k="ssr:type" v="bruk" />
	</node>
	<node lat="63.58453610759951" lon="10.557963889777549" id="-37120">
		<tag k="name" v="Nordgrunnen" />
		<tag k="natural" v="shoal" />
		<tag k="place" v="locality" />
		<tag k="ssr:date" v="2018-01-09" />
		<tag k="ssr:gruppe" v="grunnerISjø" />
		<tag k="ssr:hovedgruppe" v="sjø" />
		<tag k="ssr:stedsnr" v="711057" />
		<tag k="ssr:type" v="grunneISjø" />
	</node>
	<node lat="63.6612611144948" lon="10.847088895042372" id="-37121">
		<tag k="name" v="Holmgrunnen" />
		<tag k="natural" v="shoal" />
		<tag k="place" v="locality" />
		<tag k="ssr:date" v="2021-06-08" />
		<tag k="ssr:gruppe" v="grunnerISjø" />
		<tag k="ssr:hovedgruppe" v="sjø" />
		<tag k="ssr:stedsnr" v="619054" />
		<tag k="ssr:type" v="grunneISjø" />
	</node>
	<node lat="63.570522225693274" lon="10.602169442445474" id="-37122">
		<tag k="name" v="Skagbukta" />
		<tag k="natural" v="bay" />
		<tag k="ssr:date" v="2018-01-09" />
		<tag k="ssr:gruppe" v="kystkontur" />
		<tag k="ssr:hovedgruppe" v="sjø" />
		<tag k="ssr:stedsnr" v="619217" />
		<tag k="ssr:type" v="vikISjø" />
	</node>
	<node lat="63.54544999619162" lon="10.677736115069097" id="-37123">
		<tag k="name" v="Sørgrenda" />
		<tag k="place" v="hamlet" />
		<tag k="ssr:date" v="2018-01-09" />
		<tag k="ssr:gruppe" v="bebyggelsesområder" />
		<tag k="ssr:hovedgruppe" v="bebyggelse" />
		<tag k="ssr:stedsnr" v="619253" />
		<tag k="ssr:type" v="grend" />
	</node>
	<node lat="63.566157124807994" lon="10.700907519514738" id="-37124">
		<tag k="name" v="Kråklund" />
		<tag k="place" v="hamlet" />
		<tag k="ssr:date" v="2018-01-09" />
		<tag k="ssr:gruppe" v="gardsbebyggelse" />
		<tag k="ssr:hovedgruppe" v="bebyggelse" />
		<tag k="ssr:stedsnr" v="619268" />
		<tag k="ssr:type" v="navnegard" />
	</node>
	<node lat="63.58863821046539" lon="10.713563684877837" id="-37125">
		<tag k="name" v="Riset" />
		<tag k="place" v="hamlet" />
		<tag k="ssr:date" v="2018-01-09" />
		<tag k="ssr:gruppe" v="gardsbebyggelse" />
		<tag k="ssr:hovedgruppe" v="bebyggelse" />
		<tag k="ssr:stedsnr" v="619361" />
		<tag k="ssr:type" v="navnegard" />
	</node>
	<node lat="63.59330000086736" lon="10.844924991953569" id="-37126">
		<tag k="alt_name" v="Ulvviksveet" />
		<tag k="name" v="Ulviksveet" />
		<tag k="place" v="isolated_dwelling" />
		<tag k="ssr:date" v="2018-01-09" />
		<tag k="ssr:gruppe" v="bolighus" />
		<tag k="ssr:hovedgruppe" v="bebyggelse" />
		<tag k="ssr:stedsnr" v="619872" />
		<tag k="ssr:type" v="eneboligMindreBoligbygg" />
	</node>
	<node lat="63.58720088594446" lon="10.753954941752037" id="-37127">
		<tag k="alt_name" v="Frosta" />
		<tag k="amenity" v="place_of_worship" />
		<tag k="denomination" v="lutheran" />
		<tag k="name" v="Frosta kirke" />
		<tag k="religion" v="christian" />
		<tag k="ssr:date" v="2019-02-20" />
		<tag k="ssr:gruppe" v="kulturinstitusjoner" />
		<tag k="ssr:hovedgruppe" v="kultur" />
		<tag k="ssr:stedsnr" v="619883" />
		<tag k="ssr:type" v="kirke" />
	</node>
	<node lat="63.58583610911129" lon="10.812880559843267" id="-37128">
		<tag k="name" v="Hyndøyvågen" />
		<tag k="natural" v="bay" />
		<tag k="ssr:date" v="2018-01-09" />
		<tag k="ssr:gruppe" v="kystkontur" />
		<tag k="ssr:hovedgruppe" v="sjø" />
		<tag k="ssr:stedsnr" v="619901" />
		<tag k="ssr:type" v="vikISjø" />
	</node>
	<node lat="63.611958331628415" lon="10.80718332391476" id="-37129">
		<tag k="name" v="Rønningen" />
		<tag k="place" v="farm" />
		<tag k="ssr:date" v="2018-01-09" />
		<tag k="ssr:gruppe" v="gardsbebyggelse" />
		<tag k="ssr:hovedgruppe" v="bebyggelse" />
		<tag k="ssr:stedsnr" v="619934" />
		<tag k="ssr:type" v="bruk" />
	</node>
	<node lat="63.63512222267886" lon="10.7525111188291" id="-37130">
		<tag k="name" v="Sandgrunnen" />
		<tag k="natural" v="shoal" />
		<tag k="place" v="locality" />
		<tag k="ssr:date" v="2018-01-09" />
		<tag k="ssr:gruppe" v="grunnerISjø" />
		<tag k="ssr:hovedgruppe" v="sjø" />
		<tag k="ssr:stedsnr" v="620000" />
		<tag k="ssr:type" v="grunneISjø" />
	</node>
	<node lat="63.623126477658836" lon="10.76870063787254" id="-37131">
		<tag k="fixme" v="consider place=hamlet" />
		<tag k="name" v="Gristad" />
		<tag k="place" v="farm" />
		<tag k="ssr:date" v="2021-06-08" />
		<tag k="ssr:gruppe" v="gardsbebyggelse" />
		<tag k="ssr:hovedgruppe" v="bebyggelse" />
		<tag k="ssr:stedsnr" v="619963" />
		<tag k="ssr:type" v="gard" />
	</node>
	<node lat="63.57690196718896" lon="10.70168670659568" id="-37132">
		<tag k="name" v="Solli" />
		<tag k="place" v="farm" />
		<tag k="ssr:date" v="2018-05-22" />
		<tag k="ssr:gruppe" v="gardsbebyggelse" />
		<tag k="ssr:hovedgruppe" v="bebyggelse" />
		<tag k="ssr:stedsnr" v="620201" />
		<tag k="ssr:type" v="bruk" />
	</node>
	<node lat="63.57954722502673" lon="10.697049994571955" id="-37133">
		<tag k="alt_name" v="Hogstad, midtre" />
		<tag k="name" v="Midtre Hogstad" />
		<tag k="place" v="farm" />
		<tag k="ssr:date" v="2018-01-09" />
		<tag k="ssr:gruppe" v="gardsbebyggelse" />
		<tag k="ssr:hovedgruppe" v="bebyggelse" />
		<tag k="ssr:stedsnr" v="620204" />
		<tag k="ssr:type" v="bruk" />
	</node>
	<node lat="63.5780444431404" lon="10.566452770967814" id="-37134">
		<tag k="name" v="Storgrunnen" />
		<tag k="natural" v="shoal" />
		<tag k="place" v="locality" />
		<tag k="ssr:date" v="2018-01-09" />
		<tag k="ssr:gruppe" v="grunnerISjø" />
		<tag k="ssr:hovedgruppe" v="sjø" />
		<tag k="ssr:stedsnr" v="620210" />
		<tag k="ssr:type" v="grunneISjø" />
	</node>
	<node lat="63.56979444027238" lon="10.773188881616527" id="-37135">
		<tag k="name" v="Kniptangen" />
		<tag k="natural" v="cape" />
		<tag k="ssr:date" v="2018-01-09" />
		<tag k="ssr:gruppe" v="kystkontur" />
		<tag k="ssr:hovedgruppe" v="sjø" />
		<tag k="ssr:stedsnr" v="620757" />
		<tag k="ssr:type" v="nesISjø" />
	</node>
	<node lat="63.57736111147343" lon="10.74998610393363" id="-37136">
		<tag k="alt_name" v="Vika, midtre" />
		<tag k="fixme" v="multiple name tags, choose one and add the other to alt_name" />
		<tag k="name" v="Vika;Midtre Vika" />
		<tag k="place" v="farm" />
		<tag k="ssr:date" v="2018-01-09" />
		<tag k="ssr:gruppe" v="gardsbebyggelse" />
		<tag k="ssr:hovedgruppe" v="bebyggelse" />
		<tag k="ssr:stedsnr" v="620795" />
		<tag k="ssr:type" v="bruk" />
	</node>
	<node lat="63.592049996222165" lon="10.845166662740015" id="-37137">
		<tag k="fixme" v="consider seamark:type=rock or natural=shoal" />
		<tag k="name" v="Storskjæret" />
		<tag k="place" v="islet" />
		<tag k="ssr:date" v="2019-12-27" />
		<tag k="ssr:gruppe" v="grunnerISjø" />
		<tag k="ssr:hovedgruppe" v="sjø" />
		<tag k="ssr:stedsnr" v="650920" />
		<tag k="ssr:type" v="skjærISjø" />
	</node>
	<node lat="63.57920833377231" lon="10.529363896572763" id="-37138">
		<tag k="name" v="Langleitan" />
		<tag k="natural" v="shoal" />
		<tag k="place" v="locality" />
		<tag k="ssr:date" v="2018-01-09" />
		<tag k="ssr:gruppe" v="grunnerISjø" />
		<tag k="ssr:hovedgruppe" v="sjø" />
		<tag k="ssr:stedsnr" v="650050" />
		<tag k="ssr:type" v="grunneISjø" />
	</node>
	<node lat="63.57353055824152" lon="10.773058338252607" id="-37139">
		<tag k="name" v="Moksneslia" />
		<tag k="natural" v="slope" />
		<tag k="place" v="locality" />
		<tag k="ssr:date" v="2018-01-09" />
		<tag k="ssr:gruppe" v="skråninger" />
		<tag k="ssr:hovedgruppe" v="terreng" />
		<tag k="ssr:stedsnr" v="650115" />
		<tag k="ssr:type" v="li" />
	</node>
	<node lat="63.59270833026874" lon="10.76576667182411" id="-37141">
		<tag k="name" v="Oset" />
		<tag k="natural" v="bay" />
		<tag k="ssr:date" v="2018-01-09" />
		<tag k="ssr:gruppe" v="rennendeVann" />
		<tag k="ssr:hovedgruppe" v="ferskvann" />
		<tag k="ssr:stedsnr" v="652996" />
		<tag k="ssr:type" v="os" />
	</node>
	<node lat="63.57569722627378" lon="10.610580558116038" id="-37142">
		<tag k="name" v="Grande" />
		<tag k="place" v="farm" />
		<tag k="ssr:date" v="2018-01-09" />
		<tag k="ssr:gruppe" v="gardsbebyggelse" />
		<tag k="ssr:hovedgruppe" v="bebyggelse" />
		<tag k="ssr:stedsnr" v="653016" />
		<tag k="ssr:type" v="bruk" />
	</node>
	<node lat="63.62634494514584" lon="10.876551127258413" id="-37143">
		<tag k="name" v="Landfastholmen" />
		<tag k="place" v="islet" />
		<tag k="ssr:date" v="2018-01-09" />
		<tag k="ssr:gruppe" v="ferskvannskontur" />
		<tag k="ssr:hovedgruppe" v="ferskvann" />
		<tag k="ssr:stedsnr" v="653141" />
		<tag k="ssr:type" v="holme" />
	</node>
	<node lat="63.6028944473045" lon="10.78561388121677" id="-37144">
		<tag k="fixme" v="consider natural=peak for the most distinct mountains in the district" />
		<tag k="name" v="Gaupåsen" />
		<tag k="natural" v="hill" />
		<tag k="place" v="locality" />
		<tag k="ssr:date" v="2018-01-09" />
		<tag k="ssr:gruppe" v="høyder" />
		<tag k="ssr:hovedgruppe" v="terreng" />
		<tag k="ssr:stedsnr" v="653273" />
		<tag k="ssr:type" v="ås" />
	</node>
	<node lat="63.62445555118065" lon="10.80866388968999" id="-37145">
		<tag k="name" v="Ratvollmyra" />
		<tag k="natural" v="wetland" />
		<tag k="ssr:date" v="2018-01-09" />
		<tag k="ssr:gruppe" v="våtmark" />
		<tag k="ssr:hovedgruppe" v="markslag" />
		<tag k="ssr:stedsnr" v="653190" />
		<tag k="ssr:type" v="myr" />
	</node>
	<node lat="63.57389593530098" lon="10.723203664368327" id="-37146">
		<tag k="name" v="Løkstad" />
		<tag k="place" v="farm" />
		<tag k="ssr:date" v="2018-01-09" />
		<tag k="ssr:gruppe" v="gardsbebyggelse" />
		<tag k="ssr:hovedgruppe" v="bebyggelse" />
		<tag k="ssr:stedsnr" v="653351" />
		<tag k="ssr:type" v="bruk" />
	</node>
	<node lat="63.57052655743325" lon="10.755893290116282" id="-37147">
		<tag k="name" v="Moksneshaugen" />
		<tag k="natural" v="hill" />
		<tag k="place" v="locality" />
		<tag k="ssr:date" v="2018-01-09" />
		<tag k="ssr:gruppe" v="høyder" />
		<tag k="ssr:hovedgruppe" v="terreng" />
		<tag k="ssr:stedsnr" v="653356" />
		<tag k="ssr:type" v="haug" />
	</node>
	<node lat="63.56825555381204" lon="10.69720554996572" id="-37148">
		<tag k="name" v="Logtunmyra" />
		<tag k="place" v="locality" />
		<tag k="ssr:date" v="2018-01-09" />
		<tag k="ssr:gruppe" v="gardsbebyggelse" />
		<tag k="ssr:hovedgruppe" v="bebyggelse" />
		<tag k="ssr:stedsnr" v="712758" />
		<tag k="ssr:type" v="eiendom" />
	</node>
	<node lat="63.57148888839182" lon="10.717419453159016" id="-37149">
		<tag k="name" v="Solstad" />
		<tag k="place" v="farm" />
		<tag k="ssr:date" v="2018-01-09" />
		<tag k="ssr:gruppe" v="gardsbebyggelse" />
		<tag k="ssr:hovedgruppe" v="bebyggelse" />
		<tag k="ssr:stedsnr" v="712761" />
		<tag k="ssr:type" v="bruk" />
	</node>
	<node lat="63.604188890744446" lon="10.7758749987831" id="-37150">
		<tag k="name" v="Kleivan" />
		<tag k="natural" v="slope" />
		<tag k="place" v="locality" />
		<tag k="ssr:date" v="2018-01-09" />
		<tag k="ssr:gruppe" v="skråninger" />
		<tag k="ssr:hovedgruppe" v="terreng" />
		<tag k="ssr:stedsnr" v="712991" />
		<tag k="ssr:type" v="bakke" />
	</node>
	<node lat="63.55475278150198" lon="10.694972217106672" id="-37151">
		<tag k="name" v="Svendgård" />
		<tag k="place" v="farm" />
		<tag k="ssr:date" v="2018-01-09" />
		<tag k="ssr:gruppe" v="gardsbebyggelse" />
		<tag k="ssr:hovedgruppe" v="bebyggelse" />
		<tag k="ssr:stedsnr" v="713136" />
		<tag k="ssr:type" v="bruk" />
	</node>
	<node lat="63.63099444079625" lon="10.765741657908743" id="-37152">
		<tag k="name" v="Sandberga" />
		<tag k="place" v="quarter" />
		<tag k="ssr:date" v="2018-01-09" />
		<tag k="ssr:gruppe" v="bebyggelsesområder" />
		<tag k="ssr:hovedgruppe" v="bebyggelse" />
		<tag k="ssr:stedsnr" v="712965" />
		<tag k="ssr:type" v="boligfelt" />
	</node>
	<node lat="63.644838242246216" lon="10.879085699369876" id="-37153">
		<tag k="name" v="Brannskardet" />
		<tag k="natural" v="valley" />
		<tag k="place" v="locality" />
		<tag k="ssr:date" v="2018-01-09" />
		<tag k="ssr:gruppe" v="senkninger" />
		<tag k="ssr:hovedgruppe" v="terreng" />
		<tag k="ssr:stedsnr" v="713055" />
		<tag k="ssr:type" v="skar" />
	</node>
	<node lat="63.63214637638334" lon="10.879383465435199" id="-37154">
		<tag k="name" v="Hesttjønnåsen" />
		<tag k="place" v="isolated_dwelling" />
		<tag k="ssr:date" v="2018-01-09" />
		<tag k="ssr:gruppe" v="bolighus" />
		<tag k="ssr:hovedgruppe" v="bebyggelse" />
		<tag k="ssr:stedsnr" v="713159" />
		<tag k="ssr:type" v="eneboligMindreBoligbygg" />
	</node>
	<node lat="63.59338055982184" lon="10.731155549897137" id="-37155">
		<tag k="name" v="Skogbrynet" />
		<tag k="place" v="quarter" />
		<tag k="ssr:date" v="2018-01-09" />
		<tag k="ssr:gruppe" v="bebyggelsesområder" />
		<tag k="ssr:hovedgruppe" v="bebyggelse" />
		<tag k="ssr:stedsnr" v="713895" />
		<tag k="ssr:type" v="boligfelt" />
	</node>
	<node lat="63.676058335016876" lon="10.895086115265826" id="-37156">
		<tag k="historic" v="boundary_stone" />
		<tag k="man_made" v="cairn" />
		<tag k="name" v="Frosthornet" />
		<tag k="place" v="locality" />
		<tag k="ssr:date" v="2018-01-09" />
		<tag k="ssr:gruppe" v="administrativeIndelinger" />
		<tag k="ssr:hovedgruppe" v="offentligAdministrasjon" />
		<tag k="ssr:stedsnr" v="714064" />
		<tag k="ssr:type" v="grensemerke" />
	</node>
	<node lat="63.668205556495224" lon="10.888700008521083" id="-37157">
		<tag k="name" v="Holmtjønnbekken" />
		<tag k="ssr:date" v="2018-01-09" />
		<tag k="ssr:gruppe" v="rennendeVann" />
		<tag k="ssr:hovedgruppe" v="ferskvann" />
		<tag k="ssr:stedsnr" v="714065" />
		<tag k="ssr:type" v="bekk" />
		<tag k="waterway" v="stream" />
	</node>
	<node lat="63.63238888968571" lon="10.832927775578119" id="-37158">
		<tag k="name" v="Brubakken" />
		<tag k="natural" v="slope" />
		<tag k="place" v="locality" />
		<tag k="ssr:date" v="2018-01-09" />
		<tag k="ssr:gruppe" v="skråninger" />
		<tag k="ssr:hovedgruppe" v="terreng" />
		<tag k="ssr:stedsnr" v="714166" />
		<tag k="ssr:type" v="bakke" />
	</node>
	<node lat="63.63752777924455" lon="10.932780549333838" id="-37159">
		<tag k="name" v="Rasmustjønnbekken" />
		<tag k="ssr:date" v="2018-01-09" />
		<tag k="ssr:gruppe" v="rennendeVann" />
		<tag k="ssr:hovedgruppe" v="ferskvann" />
		<tag k="ssr:stedsnr" v="715089" />
		<tag k="ssr:type" v="bekk" />
		<tag k="waterway" v="stream" />
	</node>
	<node lat="63.57322913147487" lon="10.605650413727272" id="-37160">
		<tag k="alt_name" v="Tautra, s;Sør-Tautra;Tautra" />
		<tag k="name" v="Søre Tautra" />
		<tag k="place" v="farm" />
		<tag k="ssr:date" v="2019-12-09" />
		<tag k="ssr:gruppe" v="gardsbebyggelse" />
		<tag k="ssr:hovedgruppe" v="bebyggelse" />
		<tag k="ssr:stedsnr" v="741231" />
		<tag k="ssr:type" v="bruk" />
	</node>
	<node lat="63.60233888907915" lon="10.707038880608769" id="-37161">
		<tag k="alt_name" v="Oldervika" />
		<tag k="name" v="Oldervik" />
		<tag k="place" v="isolated_dwelling" />
		<tag k="ssr:date" v="2018-01-09" />
		<tag k="ssr:gruppe" v="bolighus" />
		<tag k="ssr:hovedgruppe" v="bebyggelse" />
		<tag k="ssr:stedsnr" v="741352" />
		<tag k="ssr:type" v="eneboligMindreBoligbygg" />
	</node>
	<node lat="63.56783610795606" lon="10.767427782068424" id="-37162">
		<tag k="name" v="Laberget" />
		<tag k="natural" v="cape" />
		<tag k="ssr:date" v="2018-01-09" />
		<tag k="ssr:gruppe" v="kystkontur" />
		<tag k="ssr:hovedgruppe" v="sjø" />
		<tag k="ssr:stedsnr" v="741815" />
		<tag k="ssr:type" v="nesISjø" />
	</node>
	<node lat="63.586034851647504" lon="10.774854256154107" id="-37163">
		<tag k="name" v="Hellan" />
		<tag k="place" v="hamlet" />
		<tag k="ssr:date" v="2018-01-09" />
		<tag k="ssr:gruppe" v="gardsbebyggelse" />
		<tag k="ssr:hovedgruppe" v="bebyggelse" />
		<tag k="ssr:stedsnr" v="741895" />
		<tag k="ssr:type" v="navnegard" />
	</node>
	<node lat="63.59123419178569" lon="10.78311354954937" id="-37164">
		<tag k="name" v="Hellan" />
		<tag k="place" v="farm" />
		<tag k="ssr:date" v="2018-01-09" />
		<tag k="ssr:gruppe" v="gardsbebyggelse" />
		<tag k="ssr:hovedgruppe" v="bebyggelse" />
		<tag k="ssr:stedsnr" v="741896" />
		<tag k="ssr:type" v="bruk" />
	</node>
	<node lat="63.58544444438307" lon="10.759027770953464" id="-37165">
		<tag k="alt_name" v="Juberg, ytre" />
		<tag k="name" v="Ytre Juberg" />
		<tag k="place" v="farm" />
		<tag k="ssr:date" v="2018-01-09" />
		<tag k="ssr:gruppe" v="gardsbebyggelse" />
		<tag k="ssr:hovedgruppe" v="bebyggelse" />
		<tag k="ssr:stedsnr" v="741897" />
		<tag k="ssr:type" v="bruk" />
	</node>
	<node lat="63.588918053803546" lon="10.751040447110826" id="-37166">
		<tag k="name" v="Vangberg" />
		<tag k="place" v="hamlet" />
		<tag k="ssr:date" v="2018-01-09" />
		<tag k="ssr:gruppe" v="gardsbebyggelse" />
		<tag k="ssr:hovedgruppe" v="bebyggelse" />
		<tag k="ssr:stedsnr" v="741898" />
		<tag k="ssr:type" v="navnegard" />
	</node>
	<node lat="63.6097833318854" lon="10.778663895236624" id="-37167">
		<tag k="historic" v="shieling" />
		<tag k="name" v="Brekksveet" />
		<tag k="place" v="isolated_dwelling" />
		<tag k="ssr:date" v="2018-01-09" />
		<tag k="ssr:gruppe" v="gardsbebyggelse" />
		<tag k="ssr:hovedgruppe" v="bebyggelse" />
		<tag k="ssr:stedsnr" v="741915" />
		<tag k="ssr:type" v="seterStøl" />
	</node>
	<node lat="63.60489166388297" lon="10.773675001468316" id="-37168">
		<tag k="name" v="Frosta" />
		<tag k="natural" v="cape" />
		<tag k="ssr:date" v="2018-01-09" />
		<tag k="ssr:gruppe" v="kystkontur" />
		<tag k="ssr:hovedgruppe" v="sjø" />
		<tag k="ssr:stedsnr" v="741917" />
		<tag k="ssr:type" v="halvøyISjø" />
	</node>
	<node lat="63.60178888699974" lon="10.788469436919943" id="-37169">
		<tag k="name" v="Solvang" />
		<tag k="place" v="isolated_dwelling" />
		<tag k="ssr:date" v="2018-01-09" />
		<tag k="ssr:gruppe" v="bolighus" />
		<tag k="ssr:hovedgruppe" v="bebyggelse" />
		<tag k="ssr:stedsnr" v="741918" />
		<tag k="ssr:type" v="eneboligMindreBoligbygg" />
	</node>
	<node lat="63.60054999914196" lon="10.723869437447501" id="-37170">
		<tag k="alt_name" v="Nåvik;Nåvikan;Nåvik nedre" />
		<tag k="name" v="Nedre Nåvik" />
		<tag k="place" v="farm" />
		<tag k="ssr:date" v="2018-01-09" />
		<tag k="ssr:gruppe" v="gardsbebyggelse" />
		<tag k="ssr:hovedgruppe" v="bebyggelse" />
		<tag k="ssr:stedsnr" v="741922" />
		<tag k="ssr:type" v="bruk" />
	</node>
	<node lat="63.57581944347459" lon="10.745316673656765" id="-37171">
		<tag k="alt_name" v="Vika, øvre" />
		<tag k="name" v="Øvre Vika" />
		<tag k="place" v="farm" />
		<tag k="ssr:date" v="2018-01-09" />
		<tag k="ssr:gruppe" v="gardsbebyggelse" />
		<tag k="ssr:hovedgruppe" v="bebyggelse" />
		<tag k="ssr:stedsnr" v="741855" />
		<tag k="ssr:type" v="bruk" />
	</node>
	<node lat="63.57811666609994" lon="10.788291664301791" id="-37172">
		<tag k="name" v="Sveplassen" />
		<tag k="place" v="farm" />
		<tag k="ssr:date" v="2018-01-09" />
		<tag k="ssr:gruppe" v="gardsbebyggelse" />
		<tag k="ssr:hovedgruppe" v="bebyggelse" />
		<tag k="ssr:stedsnr" v="741872" />
		<tag k="ssr:type" v="bruk" />
	</node>
	<node lat="63.568202775823" lon="10.723638884998177" id="-37173">
		<tag k="name" v="Vikaleiret" />
		<tag k="place" v="farm" />
		<tag k="ssr:date" v="2018-01-09" />
		<tag k="ssr:gruppe" v="gardsbebyggelse" />
		<tag k="ssr:hovedgruppe" v="bebyggelse" />
		<tag k="ssr:stedsnr" v="741876" />
		<tag k="ssr:type" v="bruk" />
	</node>
	<node lat="63.60831388558771" lon="10.737369448997647" id="-37174">
		<tag k="name" v="Tømret" />
		<tag k="place" v="farm" />
		<tag k="ssr:date" v="2018-01-09" />
		<tag k="ssr:gruppe" v="gardsbebyggelse" />
		<tag k="ssr:hovedgruppe" v="bebyggelse" />
		<tag k="ssr:stedsnr" v="741958" />
		<tag k="ssr:type" v="bruk" />
	</node>
	<node lat="63.664832819026905" lon="10.87741520659391" id="-37175">
		<tag k="fixme" v="consider place=hamlet" />
		<tag k="name" v="Åsholmen" />
		<tag k="place" v="farm" />
		<tag k="ssr:date" v="2018-01-09" />
		<tag k="ssr:gruppe" v="gardsbebyggelse" />
		<tag k="ssr:hovedgruppe" v="bebyggelse" />
		<tag k="ssr:stedsnr" v="753050" />
		<tag k="ssr:type" v="gard" />
	</node>
	<node lat="63.557094447187836" lon="10.655108324036279" id="-37176">
		<tag k="name" v="Hernesøra" />
		<tag k="natural" v="beach" />
		<tag k="ssr:date" v="2018-01-09" />
		<tag k="ssr:gruppe" v="kystkontur" />
		<tag k="ssr:hovedgruppe" v="sjø" />
		<tag k="ssr:stedsnr" v="774227" />
		<tag k="ssr:type" v="strandISjø" />
	</node>
	<node lat="63.57238332950445" lon="10.610030561207981" id="-37177">
		<tag k="name" v="Måsdammen" />
		<tag k="natural" v="water" />
		<tag k="ssr:date" v="2021-06-08" />
		<tag k="ssr:gruppe" v="stilleståendeVann" />
		<tag k="ssr:hovedgruppe" v="ferskvann" />
		<tag k="ssr:stedsnr" v="774028" />
		<tag k="ssr:type" v="pytt" />
		<tag k="water" v="pond" />
	</node>
	<node lat="63.646288123214184" lon="10.862495240741412" id="-37178">
		<tag k="name" v="Åvik" />
		<tag k="place" v="farm" />
		<tag k="ssr:date" v="2018-01-09" />
		<tag k="ssr:gruppe" v="gardsbebyggelse" />
		<tag k="ssr:hovedgruppe" v="bebyggelse" />
		<tag k="ssr:stedsnr" v="774075" />
		<tag k="ssr:type" v="bruk" />
	</node>
	<node lat="63.63001024042251" lon="10.855220562626254" id="-37179">
		<tag k="name" v="Svean" />
		<tag k="place" v="farm" />
		<tag k="ssr:date" v="2018-01-09" />
		<tag k="ssr:gruppe" v="gardsbebyggelse" />
		<tag k="ssr:hovedgruppe" v="bebyggelse" />
		<tag k="ssr:stedsnr" v="774090" />
		<tag k="ssr:type" v="bruk" />
	</node>
	<node lat="63.63243170855867" lon="10.875210700782723" id="-37180">
		<tag k="name" v="Hesttjønna" />
		<tag k="natural" v="water" />
		<tag k="ssr:date" v="2018-01-09" />
		<tag k="ssr:gruppe" v="stilleståendeVann" />
		<tag k="ssr:hovedgruppe" v="ferskvann" />
		<tag k="ssr:stedsnr" v="774183" />
		<tag k="ssr:type" v="tjern" />
	</node>
	<node lat="63.606933329854805" lon="10.824047226617171" id="-37181">
		<tag k="fixme" v="consider natural=peak for the most distinct mountains in the district" />
		<tag k="name" v="Hojemsåsen" />
		<tag k="natural" v="hill" />
		<tag k="place" v="locality" />
		<tag k="ssr:date" v="2018-01-09" />
		<tag k="ssr:gruppe" v="høyder" />
		<tag k="ssr:hovedgruppe" v="terreng" />
		<tag k="ssr:stedsnr" v="775276" />
		<tag k="ssr:type" v="ås" />
	</node>
	<node lat="63.620238887071544" lon="10.726716669173703" id="-37182">
		<tag k="name" v="Brattvika" />
		<tag k="natural" v="bay" />
		<tag k="ssr:date" v="2018-01-09" />
		<tag k="ssr:gruppe" v="kystkontur" />
		<tag k="ssr:hovedgruppe" v="sjø" />
		<tag k="ssr:stedsnr" v="774989" />
		<tag k="ssr:type" v="vikISjø" />
	</node>
	<node lat="63.588591664762774" lon="10.827830546271098" id="-37183">
		<tag k="name" v="Furruhaugen" />
		<tag k="natural" v="hill" />
		<tag k="place" v="locality" />
		<tag k="ssr:date" v="2018-01-09" />
		<tag k="ssr:gruppe" v="høyder" />
		<tag k="ssr:hovedgruppe" v="terreng" />
		<tag k="ssr:stedsnr" v="775242" />
		<tag k="ssr:type" v="haug" />
	</node>
	<node lat="63.58744722437936" lon="10.814597216370785" id="-37184">
		<tag k="man_made" v="quay" />
		<tag k="name" v="Vågen kai" />
		<tag k="place" v="locality" />
		<tag k="ssr:date" v="2018-01-09" />
		<tag k="ssr:gruppe" v="sjøfart" />
		<tag k="ssr:hovedgruppe" v="infrastruktur" />
		<tag k="ssr:stedsnr" v="775245" />
		<tag k="ssr:type" v="kai" />
	</node>
	<node lat="63.56500833581308" lon="10.675544450495108" id="-37185">
		<tag k="name" v="Nordfjæra" />
		<tag k="place" v="farm" />
		<tag k="ssr:date" v="2018-01-09" />
		<tag k="ssr:gruppe" v="gardsbebyggelse" />
		<tag k="ssr:hovedgruppe" v="bebyggelse" />
		<tag k="ssr:stedsnr" v="786832" />
		<tag k="ssr:type" v="bruk" />
	</node>
	<node lat="63.58539040581932" lon="10.717528310729502" id="-37186">
		<tag k="name" v="Risan" />
		<tag k="place" v="hamlet" />
		<tag k="ssr:date" v="2018-01-09" />
		<tag k="ssr:gruppe" v="gardsbebyggelse" />
		<tag k="ssr:hovedgruppe" v="bebyggelse" />
		<tag k="ssr:stedsnr" v="802198" />
		<tag k="ssr:type" v="navnegard" />
	</node>
	<node lat="63.55226666902872" lon="10.664972214807689" id="-37187">
		<tag k="alt_name" v="Hernes, østre" />
		<tag k="name" v="Østre Hernes" />
		<tag k="place" v="farm" />
		<tag k="ssr:date" v="2018-01-09" />
		<tag k="ssr:gruppe" v="gardsbebyggelse" />
		<tag k="ssr:hovedgruppe" v="bebyggelse" />
		<tag k="ssr:stedsnr" v="802255" />
		<tag k="ssr:type" v="bruk" />
	</node>
	<node lat="63.58566111135078" lon="10.598569447865001" id="-37188">
		<tag k="name" v="Kviningsgrunnen" />
		<tag k="natural" v="shoal" />
		<tag k="place" v="locality" />
		<tag k="ssr:date" v="2018-01-09" />
		<tag k="ssr:gruppe" v="grunnerISjø" />
		<tag k="ssr:hovedgruppe" v="sjø" />
		<tag k="ssr:stedsnr" v="802341" />
		<tag k="ssr:type" v="grunneISjø" />
	</node>
	<node lat="63.58884166473423" lon="10.690830548350023" id="-37189">
		<tag k="name" v="Huva" />
		<tag k="natural" v="cape" />
		<tag k="ssr:date" v="2018-01-09" />
		<tag k="ssr:gruppe" v="kystkontur" />
		<tag k="ssr:hovedgruppe" v="sjø" />
		<tag k="ssr:stedsnr" v="802353" />
		<tag k="ssr:type" v="nesISjø" />
	</node>
	<node lat="63.64466666436912" lon="10.796874991176544" id="-37190">
		<tag k="name" v="Flågrunnen" />
		<tag k="natural" v="shoal" />
		<tag k="place" v="locality" />
		<tag k="ssr:date" v="2018-01-09" />
		<tag k="ssr:gruppe" v="grunnerISjø" />
		<tag k="ssr:hovedgruppe" v="sjø" />
		<tag k="ssr:stedsnr" v="802989" />
		<tag k="ssr:type" v="grunneISjø" />
	</node>
	<node lat="63.60389722260752" lon="10.74710000015071" id="-37191">
		<tag k="fixme" v="consider natural=peak for the most distinct mountains in the district" />
		<tag k="name" v="Lauvåsen" />
		<tag k="natural" v="hill" />
		<tag k="place" v="locality" />
		<tag k="ssr:date" v="2018-01-09" />
		<tag k="ssr:gruppe" v="høyder" />
		<tag k="ssr:hovedgruppe" v="terreng" />
		<tag k="ssr:stedsnr" v="833990" />
		<tag k="ssr:type" v="ås" />
	</node>
	<node lat="63.5741444413033" lon="10.709138887055106" id="-37192">
		<tag k="name" v="Leinum" />
		<tag k="place" v="farm" />
		<tag k="ssr:date" v="2018-01-09" />
		<tag k="ssr:gruppe" v="gardsbebyggelse" />
		<tag k="ssr:hovedgruppe" v="bebyggelse" />
		<tag k="ssr:stedsnr" v="834760" />
		<tag k="ssr:type" v="bruk" />
	</node>
	<node lat="63.58960833736228" lon="10.693519441599138" id="-37193">
		<tag k="name" v="Kransarvika" />
		<tag k="natural" v="bay" />
		<tag k="ssr:date" v="2018-01-09" />
		<tag k="ssr:gruppe" v="kystkontur" />
		<tag k="ssr:hovedgruppe" v="sjø" />
		<tag k="ssr:stedsnr" v="834775" />
		<tag k="ssr:type" v="vikISjø" />
	</node>
	<node lat="63.63553751831315" lon="10.851903051189511" id="-37194">
		<tag k="name" v="Staurselva" />
		<tag k="ssr:date" v="2018-01-09" />
		<tag k="ssr:gruppe" v="rennendeVann" />
		<tag k="ssr:hovedgruppe" v="ferskvann" />
		<tag k="ssr:stedsnr" v="835079" />
		<tag k="ssr:type" v="bekk" />
		<tag k="waterway" v="stream" />
	</node>
	<node lat="63.62833982693325" lon="10.862317184184555" id="-37195">
		<tag k="name" v="Vangsmyra" />
		<tag k="natural" v="wetland" />
		<tag k="ssr:date" v="2018-01-09" />
		<tag k="ssr:gruppe" v="våtmark" />
		<tag k="ssr:hovedgruppe" v="markslag" />
		<tag k="ssr:stedsnr" v="835176" />
		<tag k="ssr:type" v="myr" />
	</node>
	<node lat="63.587929936988616" lon="10.753775997264302" id="-37196">
		<tag k="name" v="Presthushaugen" />
		<tag k="natural" v="hill" />
		<tag k="place" v="locality" />
		<tag k="ssr:date" v="2018-01-09" />
		<tag k="ssr:gruppe" v="høyder" />
		<tag k="ssr:hovedgruppe" v="terreng" />
		<tag k="ssr:stedsnr" v="835255" />
		<tag k="ssr:type" v="haug" />
	</node>
	<node lat="63.64047500306697" lon="10.93003888114909" id="-37197">
		<tag k="name" v="Liahøgda" />
		<tag k="natural" v="hill" />
		<tag k="place" v="locality" />
		<tag k="ssr:date" v="2018-01-09" />
		<tag k="ssr:gruppe" v="høyder" />
		<tag k="ssr:hovedgruppe" v="terreng" />
		<tag k="ssr:stedsnr" v="836071" />
		<tag k="ssr:type" v="høyde" />
	</node>
	<node lat="63.62974444861237" lon="10.917858334562595" id="-37198">
		<tag k="name" v="Galstomyra" />
		<tag k="natural" v="wetland" />
		<tag k="ssr:date" v="2018-01-09" />
		<tag k="ssr:gruppe" v="våtmark" />
		<tag k="ssr:hovedgruppe" v="markslag" />
		<tag k="ssr:stedsnr" v="836087" />
		<tag k="ssr:type" v="myr" />
	</node>
	<node lat="63.605394975420836" lon="10.795595005402431" id="-37199">
		<tag k="name" v="Raudmyra" />
		<tag k="natural" v="wetland" />
		<tag k="ssr:date" v="2019-12-05" />
		<tag k="ssr:gruppe" v="våtmark" />
		<tag k="ssr:hovedgruppe" v="markslag" />
		<tag k="ssr:stedsnr" v="836254" />
		<tag k="ssr:type" v="myr" />
	</node>
	<node lat="63.61082778218529" lon="10.787888888450516" id="-37200">
		<tag k="fixme" v="consider natural=peak for the most distinct mountains in the district" />
		<tag k="name" v="Ramnåsen" />
		<tag k="natural" v="hill" />
		<tag k="place" v="locality" />
		<tag k="ssr:date" v="2018-01-09" />
		<tag k="ssr:gruppe" v="høyder" />
		<tag k="ssr:hovedgruppe" v="terreng" />
		<tag k="ssr:stedsnr" v="836258" />
		<tag k="ssr:type" v="ås" />
	</node>
	<node lat="63.56822798187726" lon="10.726463401499267" id="-37201">
		<tag k="name" v="Vikaleiret" />
		<tag k="natural" v="beach" />
		<tag k="ssr:date" v="2018-01-09" />
		<tag k="ssr:gruppe" v="kystkontur" />
		<tag k="ssr:hovedgruppe" v="sjø" />
		<tag k="ssr:stedsnr" v="836302" />
		<tag k="ssr:type" v="strandISjø" />
	</node>
	<node lat="63.55133721209625" lon="10.654657913798584" id="-37202">
		<tag k="fixme" v="consider place=hamlet" />
		<tag k="name" v="Island" />
		<tag k="place" v="farm" />
		<tag k="ssr:date" v="2018-01-09" />
		<tag k="ssr:gruppe" v="gardsbebyggelse" />
		<tag k="ssr:hovedgruppe" v="bebyggelse" />
		<tag k="ssr:stedsnr" v="862248" />
		<tag k="ssr:type" v="gard" />
	</node>
	<node lat="63.62985833474728" lon="10.798691671644537" id="-37203">
		<tag k="name" v="Fredtun" />
		<tag k="place" v="farm" />
		<tag k="ssr:date" v="2018-01-09" />
		<tag k="ssr:gruppe" v="gardsbebyggelse" />
		<tag k="ssr:hovedgruppe" v="bebyggelse" />
		<tag k="ssr:stedsnr" v="862993" />
		<tag k="ssr:type" v="bruk" />
	</node>
	<node lat="63.656380556899386" lon="10.905024992576896" id="-37204">
		<tag k="name" v="Krokvatnet" />
		<tag k="natural" v="water" />
		<tag k="ssr:date" v="2021-06-08" />
		<tag k="ssr:gruppe" v="stilleståendeVann" />
		<tag k="ssr:hovedgruppe" v="ferskvann" />
		<tag k="ssr:stedsnr" v="863059" />
		<tag k="ssr:type" v="tjern" />
	</node>
	<node lat="63.66977222583177" lon="10.874472232303983" id="-37205">
		<tag k="fixme" v="multiple name tags, choose one and add the other to alt_name" />
		<tag k="name" v="Storholmen;Åsholmen" />
		<tag k="place" v="islet" />
		<tag k="ssr:date" v="2018-01-09" />
		<tag k="ssr:gruppe" v="kystkontur" />
		<tag k="ssr:hovedgruppe" v="sjø" />
		<tag k="ssr:stedsnr" v="863028" />
		<tag k="ssr:type" v="holmeISjø" />
	</node>
	<node lat="63.65190833749991" lon="10.884747231701656" id="-37206">
		<tag k="name" v="Bjørnbettet" />
		<tag k="natural" v="hill" />
		<tag k="place" v="locality" />
		<tag k="ssr:date" v="2021-06-08" />
		<tag k="ssr:gruppe" v="høyder" />
		<tag k="ssr:hovedgruppe" v="terreng" />
		<tag k="ssr:stedsnr" v="863038" />
		<tag k="ssr:type" v="berg" />
	</node>
	<node lat="63.58425555676174" lon="10.640525009578749" id="-37207">
		<tag k="name" v="Åbåten" />
		<tag k="natural" v="cape" />
		<tag k="ssr:date" v="2018-01-09" />
		<tag k="ssr:gruppe" v="kystkontur" />
		<tag k="ssr:hovedgruppe" v="sjø" />
		<tag k="ssr:stedsnr" v="863218" />
		<tag k="ssr:type" v="nesISjø" />
	</node>
	<node lat="63.58486944405355" lon="10.717055557215522" id="-37208">
		<tag k="alt_name" v="Vestre Risan;Risan vestre" />
		<tag k="name" v="Risan" />
		<tag k="place" v="farm" />
		<tag k="ssr:date" v="2018-01-09" />
		<tag k="ssr:gruppe" v="gardsbebyggelse" />
		<tag k="ssr:hovedgruppe" v="bebyggelse" />
		<tag k="ssr:stedsnr" v="863307" />
		<tag k="ssr:type" v="bruk" />
	</node>
	<node lat="63.63661388645632" lon="10.780241675349469" id="-37209">
		<tag k="name" v="Fånestangen" />
		<tag k="natural" v="cape" />
		<tag k="ssr:date" v="2018-01-09" />
		<tag k="ssr:gruppe" v="kystkontur" />
		<tag k="ssr:hovedgruppe" v="sjø" />
		<tag k="ssr:stedsnr" v="863983" />
		<tag k="ssr:type" v="nesISjø" />
	</node>
	<node lat="63.5797416663935" lon="10.779669443782915" id="-37210">
		<tag k="name" v="Myr" />
		<tag k="place" v="isolated_dwelling" />
		<tag k="ssr:date" v="2018-01-09" />
		<tag k="ssr:gruppe" v="bolighus" />
		<tag k="ssr:hovedgruppe" v="bebyggelse" />
		<tag k="ssr:stedsnr" v="863810" />
		<tag k="ssr:type" v="eneboligMindreBoligbygg" />
	</node>
	<node lat="63.57291666733599" lon="10.768447223855944" id="-37211">
		<tag k="alt_name" v="Moksnes, austre;Moksnes østre" />
		<tag k="name" v="Austre Moksnes" />
		<tag k="place" v="farm" />
		<tag k="ssr:date" v="2018-01-09" />
		<tag k="ssr:gruppe" v="gardsbebyggelse" />
		<tag k="ssr:hovedgruppe" v="bebyggelse" />
		<tag k="ssr:stedsnr" v="863811" />
		<tag k="ssr:type" v="bruk" />
	</node>
	<node lat="63.57985481022073" lon="10.771901326829378" id="-37212">
		<tag k="fixme" v="consider place=hamlet" />
		<tag k="name" v="Revlan" />
		<tag k="place" v="farm" />
		<tag k="ssr:date" v="2018-01-09" />
		<tag k="ssr:gruppe" v="gardsbebyggelse" />
		<tag k="ssr:hovedgruppe" v="bebyggelse" />
		<tag k="ssr:stedsnr" v="863815" />
		<tag k="ssr:type" v="gard" />
	</node>
	<node lat="63.605144444753854" lon="10.742416663926814" id="-37213">
		<tag k="name" v="Fagerheim" />
		<tag k="place" v="farm" />
		<tag k="ssr:date" v="2018-01-09" />
		<tag k="ssr:gruppe" v="gardsbebyggelse" />
		<tag k="ssr:hovedgruppe" v="bebyggelse" />
		<tag k="ssr:stedsnr" v="863862" />
		<tag k="ssr:type" v="bruk" />
	</node>
	<node lat="63.61347041399276" lon="10.879524752287132" id="-37214">
		<tag k="fixme" v="consider place=hamlet" />
		<tag k="name" v="Linsvekleiva" />
		<tag k="place" v="farm" />
		<tag k="ssr:date" v="2018-01-09" />
		<tag k="ssr:gruppe" v="gardsbebyggelse" />
		<tag k="ssr:hovedgruppe" v="bebyggelse" />
		<tag k="ssr:stedsnr" v="863893" />
		<tag k="ssr:type" v="gard" />
	</node>
	<node lat="63.612107947113444" lon="10.756834242743883" id="-37215">
		<tag k="fixme" v="consider place=hamlet" />
		<tag k="name" v="Solem" />
		<tag k="place" v="farm" />
		<tag k="ssr:date" v="2021-06-08" />
		<tag k="ssr:gruppe" v="gardsbebyggelse" />
		<tag k="ssr:hovedgruppe" v="bebyggelse" />
		<tag k="ssr:stedsnr" v="863902" />
		<tag k="ssr:type" v="gard" />
	</node>
	<node lat="63.64725306395989" lon="10.855972302381193" id="-37216">
		<tag k="name" v="Sandåsen" />
		<tag k="natural" v="hill" />
		<tag k="place" v="locality" />
		<tag k="ssr:date" v="2018-01-09" />
		<tag k="ssr:gruppe" v="høyder" />
		<tag k="ssr:hovedgruppe" v="terreng" />
		<tag k="ssr:stedsnr" v="956071" />
		<tag k="ssr:type" v="høyde" />
	</node>
	<node lat="63.6662722245494" lon="10.901930550448355" id="-37217">
		<tag k="name" v="Holmdalen" />
		<tag k="natural" v="valley" />
		<tag k="place" v="locality" />
		<tag k="ssr:date" v="2018-01-09" />
		<tag k="ssr:gruppe" v="senkninger" />
		<tag k="ssr:hovedgruppe" v="terreng" />
		<tag k="ssr:stedsnr" v="956077" />
		<tag k="ssr:type" v="dal" />
	</node>
	<node lat="63.65429444640926" lon="10.914847226953096" id="-37218">
		<tag k="name" v="Frosta statsallmenning" />
		<tag k="place" v="locality" />
		<tag k="ssr:date" v="2018-01-09" />
		<tag k="ssr:gruppe" v="verne-OgBruksområder" />
		<tag k="ssr:hovedgruppe" v="offentligAdministrasjon" />
		<tag k="ssr:stedsnr" v="956082" />
		<tag k="ssr:type" v="allmenning" />
	</node>
	<node lat="63.54825277541036" lon="10.668322231884426" id="-37219">
		<tag k="name" v="Nesvoll" />
		<tag k="place" v="isolated_dwelling" />
		<tag k="ssr:date" v="2018-01-09" />
		<tag k="ssr:gruppe" v="bolighus" />
		<tag k="ssr:hovedgruppe" v="bebyggelse" />
		<tag k="ssr:stedsnr" v="956136" />
		<tag k="ssr:type" v="eneboligMindreBoligbygg" />
	</node>
	<node lat="63.642963947489804" lon="10.892598220812209" id="-37220">
		<tag k="name" v="Brattåsmyran" />
		<tag k="natural" v="wetland" />
		<tag k="ssr:date" v="2018-01-09" />
		<tag k="ssr:gruppe" v="våtmark" />
		<tag k="ssr:hovedgruppe" v="markslag" />
		<tag k="ssr:stedsnr" v="956172" />
		<tag k="ssr:type" v="myr" />
	</node>
	<node lat="63.61089444488838" lon="10.873600004444622" id="-37221">
		<tag k="name" v="Badstumyra" />
		<tag k="natural" v="wetland" />
		<tag k="ssr:date" v="2018-01-09" />
		<tag k="ssr:gruppe" v="våtmark" />
		<tag k="ssr:hovedgruppe" v="markslag" />
		<tag k="ssr:stedsnr" v="957194" />
		<tag k="ssr:type" v="myr" />
	</node>
	<node lat="63.59561128245309" lon="10.851526991595964" id="-37222">
		<tag k="name" v="Hansfjæra" />
		<tag k="natural" v="beach" />
		<tag k="ssr:date" v="2018-01-09" />
		<tag k="ssr:gruppe" v="kystkontur" />
		<tag k="ssr:hovedgruppe" v="sjø" />
		<tag k="ssr:stedsnr" v="957198" />
		<tag k="ssr:type" v="strandISjø" />
	</node>
	<node lat="63.6016837588604" lon="10.796639825500048" id="-37223">
		<tag k="fixme" v="consider place=hamlet" />
		<tag k="name" v="Hogstad" />
		<tag k="place" v="farm" />
		<tag k="ssr:date" v="2018-08-28" />
		<tag k="ssr:gruppe" v="gardsbebyggelse" />
		<tag k="ssr:hovedgruppe" v="bebyggelse" />
		<tag k="ssr:stedsnr" v="957257" />
		<tag k="ssr:type" v="gard" />
	</node>
	<node lat="63.57169433056582" lon="10.76203906373314" id="-37224">
		<tag k="name" v="Moksnes" />
		<tag k="place" v="farm" />
		<tag k="ssr:date" v="2018-08-20" />
		<tag k="ssr:gruppe" v="gardsbebyggelse" />
		<tag k="ssr:hovedgruppe" v="bebyggelse" />
		<tag k="ssr:stedsnr" v="957350" />
		<tag k="ssr:type" v="bruk" />
	</node>
	<node lat="63.57445591936474" lon="10.754080339671145" id="-37225">
		<tag k="name" v="Vikaelva" />
		<tag k="ssr:date" v="2018-01-09" />
		<tag k="ssr:gruppe" v="rennendeVann" />
		<tag k="ssr:hovedgruppe" v="ferskvann" />
		<tag k="ssr:stedsnr" v="957352" />
		<tag k="ssr:type" v="bekk" />
		<tag k="waterway" v="stream" />
	</node>
	<node lat="63.56382499841457" lon="10.711941660846907" id="-37226">
		<tag k="name" v="Logsteinhaugen" />
		<tag k="natural" v="hill" />
		<tag k="place" v="locality" />
		<tag k="ssr:date" v="2018-01-09" />
		<tag k="ssr:gruppe" v="høyder" />
		<tag k="ssr:hovedgruppe" v="terreng" />
		<tag k="ssr:stedsnr" v="957642" />
		<tag k="ssr:type" v="haug" />
	</node>
	<node lat="63.578477778880675" lon="10.694408325968816" id="-37227">
		<tag k="name" v="Hogstad" />
		<tag k="place" v="farm" />
		<tag k="ssr:date" v="2018-01-09" />
		<tag k="ssr:gruppe" v="gardsbebyggelse" />
		<tag k="ssr:hovedgruppe" v="bebyggelse" />
		<tag k="ssr:stedsnr" v="959017" />
		<tag k="ssr:type" v="bruk" />
	</node>
	<node lat="63.63305436451655" lon="10.914264534345246" id="-37230">
		<tag k="fixme" v="consider tourism=alpine_hut or tourism=chalet" />
		<tag k="name" v="Rapphytta" />
		<tag k="ssr:date" v="2018-06-27" />
		<tag k="ssr:gruppe" v="næring" />
		<tag k="ssr:hovedgruppe" v="bebyggelse" />
		<tag k="ssr:stedsnr" v="985448" />
		<tag k="ssr:type" v="turisthytte" />
		<tag k="tourism" v="wilderness_hut" />
	</node>
	<node lat="63.58960033289772" lon="10.711509738447575" id="-37231">
		<tag k="name" v="Riset" />
		<tag k="place" v="farm" />
		<tag k="ssr:date" v="2018-07-03" />
		<tag k="ssr:gruppe" v="gardsbebyggelse" />
		<tag k="ssr:hovedgruppe" v="bebyggelse" />
		<tag k="ssr:stedsnr" v="985555" />
		<tag k="ssr:type" v="bruk" />
	</node>
	<node lat="63.58839356882361" lon="10.713987245886212" id="-37232">
		<tag k="name" v="Riset" />
		<tag k="place" v="farm" />
		<tag k="ssr:date" v="2018-07-03" />
		<tag k="ssr:gruppe" v="gardsbebyggelse" />
		<tag k="ssr:hovedgruppe" v="bebyggelse" />
		<tag k="ssr:stedsnr" v="985556" />
		<tag k="ssr:type" v="bruk" />
	</node>
	<node lat="63.584849628335384" lon="10.736993328169643" id="-37233">
		<tag k="name" v="Alstad østre" />
		<tag k="place" v="farm" />
		<tag k="ssr:date" v="2018-08-08" />
		<tag k="ssr:gruppe" v="gardsbebyggelse" />
		<tag k="ssr:hovedgruppe" v="bebyggelse" />
		<tag k="ssr:stedsnr" v="985856" />
		<tag k="ssr:type" v="bruk" />
	</node>
	<node lat="63.60145454490424" lon="10.730050170486676" id="-37236">
		<tag k="name" v="Nåvik søndre" />
		<tag k="place" v="farm" />
		<tag k="ssr:date" v="2018-08-20" />
		<tag k="ssr:gruppe" v="gardsbebyggelse" />
		<tag k="ssr:hovedgruppe" v="bebyggelse" />
		<tag k="ssr:stedsnr" v="986098" />
		<tag k="ssr:type" v="bruk" />
	</node>
	<node lat="63.60221624255721" lon="10.799942315783124" id="-37237">
		<tag k="name" v="Litjhogstad" />
		<tag k="place" v="farm" />
		<tag k="ssr:date" v="2018-08-28" />
		<tag k="ssr:gruppe" v="gardsbebyggelse" />
		<tag k="ssr:hovedgruppe" v="bebyggelse" />
		<tag k="ssr:stedsnr" v="986353" />
		<tag k="ssr:type" v="bruk" />
	</node>
	<node lat="63.585914145921" lon="10.730455521247453" id="-37239">
		<tag k="alt_name" v="Bjørkly" />
		<tag k="amenity" v="community_centre" />
		<tag k="name" v="Frosta bedehus" />
		<tag k="ssr:date" v="2021-08-19" />
		<tag k="ssr:gruppe" v="kulturinstitusjoner" />
		<tag k="ssr:hovedgruppe" v="kultur" />
		<tag k="ssr:stedsnr" v="1081995" />
		<tag k="ssr:type" v="forsamlingshusKulturhus" />
	</node>
</osm>
