<?xml version="1.0" encoding="UTF-8"?>
<osm generator="osmapis" version="0.6">
	<node id="-427675" lat="59.0275416687" lon="9.73041666559">
		<tag k="highway" v="bus_stop" />
		<tag k="loc_name" v="Asvall" />
		<tag k="ssr:date" v="2019-12-27" />
		<tag k="ssr:gruppe" v="veg" />
		<tag k="ssr:hovedgruppe" v="infrastruktur" />
		<tag k="ssr:stedsnr" v="902058" />
		<tag k="ssr:type" v="busstopp" />
	</node>
	<node id="-427380" lat="59.0044166703" lon="9.75370554864">
		<tag k="old_name" v="Langøya hovedgård" />
		<tag k="place" v="farm" />
		<tag k="ssr:date" v="2019-12-27" />
		<tag k="ssr:gruppe" v="gardsbebyggelse" />
		<tag k="ssr:hovedgruppe" v="bebyggelse" />
		<tag k="ssr:stedsnr" v="709209" />
		<tag k="ssr:type" v="bruk" />
	</node>
	<node id="-428751" lat="59.0840472219" lon="9.6183111198">
		<tag k="old_name" v="Asdalkås" />
		<tag k="place" v="locality" />
		<tag k="ssr:date" v="2019-12-27" />
		<tag k="ssr:gruppe" v="bolighus" />
		<tag k="ssr:hovedgruppe" v="bebyggelse" />
		<tag k="ssr:stedsnr" v="968949" />
		<tag k="ssr:type" v="gammelBosettingsplass" />
	</node>
	<node id="-428750" lat="59.0861583299" lon="9.61338055679">
		<tag k="old_name" v="Tvetenstrand" />
		<tag k="place" v="locality" />
		<tag k="ssr:date" v="2019-12-27" />
		<tag k="ssr:gruppe" v="bolighus" />
		<tag k="ssr:hovedgruppe" v="bebyggelse" />
		<tag k="ssr:stedsnr" v="968944" />
		<tag k="ssr:type" v="gammelBosettingsplass" />
	</node>
	<node id="-427946" lat="59.0816916633" lon="9.62707221835">
		<tag k="old_name" v="Tangen" />
		<tag k="place" v="locality" />
		<tag k="ssr:date" v="2019-12-27" />
		<tag k="ssr:gruppe" v="bolighus" />
		<tag k="ssr:hovedgruppe" v="bebyggelse" />
		<tag k="ssr:stedsnr" v="119957" />
		<tag k="ssr:type" v="gammelBosettingsplass" />
	</node>
	<node id="-428066" lat="58.9539861143" lon="9.59726110599">
		<tag k="old_name" v="Kjørstad, østre" />
		<tag k="place" v="farm" />
		<tag k="ssr:date" v="2019-12-27" />
		<tag k="ssr:gruppe" v="gardsbebyggelse" />
		<tag k="ssr:hovedgruppe" v="bebyggelse" />
		<tag k="ssr:stedsnr" v="183892" />
		<tag k="ssr:type" v="bruk" />
	</node>
</osm>
