<?xml version="1.0" encoding="UTF-8"?>
<osm generator="osmapis" version="0.6">
	<node id="-41984" lat="59.0539907236" lon="9.65574909281">
		<tag k="name" v="Midtfjordskjær" />
		<tag k="old_name" v="Midtfjordskjer" />
		<tag k="ssr:date" v="2020-09-03" />
		<tag k="ssr:gruppe" v="navigasjon" />
		<tag k="ssr:hovedgruppe" v="infrastruktur" />
		<tag k="ssr:stedsnr" v="62446" />
		<tag k="ssr:type" v="fyrlykt" />
	</node>
	<node id="-41183" lat="58.9265723015" lon="9.61317543186">
		<tag k="name" v="Vittenskjul" />
		<tag k="ssr:date" v="2020-09-03" />
		<tag k="ssr:gruppe" v="navigasjon" />
		<tag k="ssr:hovedgruppe" v="infrastruktur" />
		<tag k="ssr:stedsnr" v="243917" />
		<tag k="ssr:type" v="fyrlykt" />
	</node>
	<node id="-41884" lat="58.9632547821" lon="9.68861388478">
		<tag k="alt_name" v="Mejulen" />
		<tag k="name" v="Medulen" />
		<tag k="ssr:date" v="2020-09-03" />
		<tag k="ssr:gruppe" v="navigasjon" />
		<tag k="ssr:hovedgruppe" v="infrastruktur" />
		<tag k="ssr:stedsnr" v="1894" />
		<tag k="ssr:type" v="fyrlykt" />
	</node>
	<node id="-42937" lat="59.0429772019" lon="9.6684241657">
		<tag k="name" v="Hjortetråkket" />
		<tag k="ssr:date" v="2020-07-03" />
		<tag k="ssr:gruppe" v="veg" />
		<tag k="ssr:hovedgruppe" v="infrastruktur" />
		<tag k="ssr:stedsnr" v="1077563" />
		<tag k="ssr:type" v="adressenavn" />
	</node>
	<node id="-42936" lat="58.9370603024" lon="9.59653676918">
		<tag k="name" v="Tørreidveien" />
		<tag k="ssr:date" v="2020-04-27" />
		<tag k="ssr:gruppe" v="veg" />
		<tag k="ssr:hovedgruppe" v="infrastruktur" />
		<tag k="ssr:stedsnr" v="1076617" />
		<tag k="ssr:type" v="adressenavn" />
	</node>
	<node id="-42839" lat="58.9404204323" lon="9.63757538328">
		<tag k="name" v="Danholmen" />
		<tag k="ssr:date" v="2020-09-03" />
		<tag k="ssr:gruppe" v="navigasjon" />
		<tag k="ssr:hovedgruppe" v="infrastruktur" />
		<tag k="ssr:stedsnr" v="850925" />
		<tag k="ssr:type" v="fyrlykt" />
	</node>
	<node id="-42934" lat="58.938163284" lon="9.67478999854">
		<tag k="name" v="Rødskjær varde" />
		<tag k="ssr:date" v="2020-01-09" />
		<tag k="ssr:gruppe" v="navigasjon" />
		<tag k="ssr:hovedgruppe" v="infrastruktur" />
		<tag k="ssr:stedsnr" v="1074499" />
		<tag k="ssr:type" v="sjøvarde" />
	</node>
	<node id="-42932" lat="59.2161476784" lon="9.61110301692">
		<tag k="name" v="Vestfold og Telemark fylke" />
		<tag k="ssr:date" v="2020-01-13" />
		<tag k="ssr:gruppe" v="administrativeIndelinger" />
		<tag k="ssr:hovedgruppe" v="offentligAdministrasjon" />
		<tag k="ssr:stedsnr" v="1073927" />
		<tag k="ssr:type" v="fylke" />
	</node>
	<node id="-42931" lat="58.9923878348" lon="9.75717482985">
		<tag k="name" v="Langøytangen" />
		<tag k="ssr:date" v="2019-12-27" />
		<tag k="ssr:gruppe" v="veg" />
		<tag k="ssr:hovedgruppe" v="infrastruktur" />
		<tag k="ssr:stedsnr" v="1048069" />
		<tag k="ssr:type" v="adressenavn" />
	</node>
	<node id="-41266" lat="59.0015861105" lon="9.74600000542">
		<tag k="alt_name" v="Bamble" />
		<tag k="name" v="Bamble kommune" />
		<tag k="ssr:date" v="2019-12-27" />
		<tag k="ssr:gruppe" v="administrativeIndelinger" />
		<tag k="ssr:hovedgruppe" v="offentligAdministrasjon" />
		<tag k="ssr:stedsnr" v="328027" />
		<tag k="ssr:type" v="kommune" />
	</node>
	<node id="-41784" lat="59.0236249976" lon="9.69145556021">
		<tag k="name" v="Tangvallkleiva" />
		<tag k="ssr:date" v="2019-12-27" />
		<tag k="ssr:gruppe" v="veg" />
		<tag k="ssr:hovedgruppe" v="infrastruktur" />
		<tag k="ssr:stedsnr" v="949060" />
		<tag k="ssr:type" v="vegstrekning" />
	</node>
	<node id="-42189" lat="59.0140309758" lon="9.74887823514">
		<tag k="name" v="Figgeskjæret" />
		<tag k="ssr:date" v="2019-12-27" />
		<tag k="ssr:gruppe" v="navigasjon" />
		<tag k="ssr:hovedgruppe" v="infrastruktur" />
		<tag k="ssr:stedsnr" v="183232" />
		<tag k="ssr:type" v="fyrlykt" />
	</node>
	<node id="-42570" lat="58.9317472238" lon="9.563844445">
		<tag k="name" v="Eikvikåsen" />
		<tag k="ssr:date" v="2019-12-27" />
		<tag k="ssr:gruppe" v="veg" />
		<tag k="ssr:hovedgruppe" v="infrastruktur" />
		<tag k="ssr:stedsnr" v="605829" />
		<tag k="ssr:type" v="adressenavn" />
	</node>
	<node id="-42103" lat="59.0452675998" lon="9.70691458786">
		<tag k="alt_name" v="Gjermesholmen" />
		<tag k="name" v="Gjermundsholmen" />
		<tag k="ssr:date" v="2019-12-27" />
		<tag k="ssr:gruppe" v="navigasjon" />
		<tag k="ssr:hovedgruppe" v="infrastruktur" />
		<tag k="ssr:stedsnr" v="123540" />
		<tag k="ssr:type" v="fyrlykt" />
	</node>
	<node id="-42405" lat="58.9916879949" lon="9.75710151979">
		<tag k="alt_name" v="Langøytangen fyr" />
		<tag k="name" v="Langøytangen" />
		<tag k="ssr:date" v="2020-09-01" />
		<tag k="ssr:gruppe" v="navigasjon" />
		<tag k="ssr:hovedgruppe" v="infrastruktur" />
		<tag k="ssr:stedsnr" v="425548" />
		<tag k="ssr:type" v="fyrstasjon" />
	</node>
</osm>
