<?xml version="1.0" encoding="UTF-8"?>
<<<<<<< HEAD
<osm version="0.6" generator="osmapis">
	<node lat="59.89267777466255" lon="9.926799991988624" id="-16300">
		<tag k="junction" v="yes" />
		<tag k="loc_name" v="Engerkrysset" />
		<tag k="place" v="locality" />
		<tag k="ssr:date" v="2019-12-27" />
		<tag k="ssr:gruppe" v="veg" />
		<tag k="ssr:hovedgruppe" v="infrastruktur" />
		<tag k="ssr:stedsnr" v="59004" />
		<tag k="ssr:type" v="vegkryss" />
	</node>
	<node lat="60.01486111323812" lon="10.126438883315581" id="-16359">
=======
<osm generator="osmapis" version="0.6">
	<node id="-286240" lat="59.9035027734" lon="9.93583332563">
		<tag k="old_name" v="Steinbru" />
		<tag k="place" v="farm" />
		<tag k="ssr:date" v="2019-12-27" />
		<tag k="ssr:gruppe" v="gardsbebyggelse" />
		<tag k="ssr:hovedgruppe" v="bebyggelse" />
		<tag k="ssr:stedsnr" v="732823" />
		<tag k="ssr:type" v="bruk" />
	</node>
	<node id="-285823" lat="59.9310333299" lon="9.96063055658">
		<tag k="bridge" v="yes" />
		<tag k="layer" v="1" />
		<tag k="old_name" v="Kattefos" />
		<tag k="ssr:date" v="2019-12-27" />
		<tag k="ssr:gruppe" v="samferdselsanlegg" />
		<tag k="ssr:hovedgruppe" v="infrastruktur" />
		<tag k="ssr:stedsnr" v="234506" />
		<tag k="ssr:type" v="bru" />
	</node>
	<node id="-287065" lat="59.9973250017" lon="10.047694449">
>>>>>>> e1d4bc35ff8a6074a6f2e91616a996b547c36f15
		<tag k="amenity" v="school" />
		<tag k="old_name" v="Gulsrud skole" />
		<tag k="ssr:date" v="2019-12-27" />
		<tag k="ssr:gruppe" v="institusjoner" />
		<tag k="ssr:hovedgruppe" v="bebyggelse" />
		<tag k="ssr:stedsnr" v="101612" />
		<tag k="ssr:type" v="skole" />
	</node>
<<<<<<< HEAD
	<node lat="59.93103332992263" lon="9.960630556578044" id="-16494">
		<tag k="bridge" v="yes" />
		<tag k="layer" v="1" />
		<tag k="old_name" v="Kattefos" />
		<tag k="ssr:date" v="2019-12-27" />
		<tag k="ssr:gruppe" v="samferdselsanlegg" />
		<tag k="ssr:hovedgruppe" v="infrastruktur" />
		<tag k="ssr:stedsnr" v="234506" />
		<tag k="ssr:type" v="bru" />
	</node>
	<node lat="59.99013888676499" lon="9.918913897766846" id="-16671">
		<tag k="old_name" v="Sysletorget" />
		<tag k="place" v="square" />
=======
	<node id="-286721" lat="59.9154190102" lon="9.96715887908">
		<tag k="fixme" v="consider place=hamlet" />
		<tag k="old_name" v="Ilen" />
		<tag k="place" v="farm" />
>>>>>>> e1d4bc35ff8a6074a6f2e91616a996b547c36f15
		<tag k="ssr:date" v="2019-12-27" />
		<tag k="ssr:gruppe" v="gardsbebyggelse" />
		<tag k="ssr:hovedgruppe" v="bebyggelse" />
		<tag k="ssr:stedsnr" v="117897" />
		<tag k="ssr:type" v="gard" />
	</node>
<<<<<<< HEAD
	<node lat="59.997325001719844" lon="10.047694449022007" id="-16678">
		<tag k="amenity" v="school" />
		<tag k="old_name" v="Fure skole;Fure" />
		<tag k="ssr:date" v="2019-12-27" />
		<tag k="ssr:gruppe" v="institusjoner" />
		<tag k="ssr:hovedgruppe" v="bebyggelse" />
		<tag k="ssr:stedsnr" v="406994" />
		<tag k="ssr:type" v="skole" />
	</node>
	<node lat="59.96028610982755" lon="10.000874992635211" id="-16944">
=======
	<node id="-286162" lat="59.9602861098" lon="10.0008749926">
>>>>>>> e1d4bc35ff8a6074a6f2e91616a996b547c36f15
		<tag k="bridge" v="yes" />
		<tag k="layer" v="1" />
		<tag k="old_name" v="Lortbrua" />
		<tag k="ssr:date" v="2019-12-27" />
		<tag k="ssr:gruppe" v="samferdselsanlegg" />
		<tag k="ssr:hovedgruppe" v="infrastruktur" />
		<tag k="ssr:stedsnr" v="709993" />
		<tag k="ssr:type" v="bru" />
	</node>
<<<<<<< HEAD
	<node lat="59.9035027734134" lon="9.935833325628519" id="-17022">
		<tag k="old_name" v="Steinbru" />
		<tag k="place" v="farm" />
=======
	<node id="-286641" lat="59.8926777747" lon="9.92679999199">
		<tag k="junction" v="yes" />
		<tag k="loc_name" v="Engerkrysset" />
		<tag k="place" v="locality" />
		<tag k="ssr:date" v="2019-12-27" />
		<tag k="ssr:gruppe" v="veg" />
		<tag k="ssr:hovedgruppe" v="infrastruktur" />
		<tag k="ssr:stedsnr" v="59004" />
		<tag k="ssr:type" v="vegkryss" />
	</node>
	<node id="-287366" lat="59.9692000044" lon="9.9929055612">
		<tag k="old_name" v="Hovdeskogen" />
		<tag k="place" v="locality" />
		<tag k="ssr:date" v="2019-12-27" />
		<tag k="ssr:gruppe" v="vegetasjon" />
		<tag k="ssr:hovedgruppe" v="markslag" />
		<tag k="ssr:stedsnr" v="785541" />
		<tag k="ssr:type" v="skog" />
	</node>
	<node id="-285802" lat="59.9293249997" lon="9.9658055538">
		<tag k="building" v="industrial" />
		<tag k="industrial" v="factory" />
		<tag k="old_name" v="Drammenselven Papirfabrikk" />
		<tag k="ssr:date" v="2019-12-27" />
		<tag k="ssr:gruppe" v="næring" />
		<tag k="ssr:hovedgruppe" v="bebyggelse" />
		<tag k="ssr:stedsnr" v="285599" />
		<tag k="ssr:type" v="fabrikk" />
	</node>
	<node id="-286535" lat="59.9720985546" lon="10.1534680061">
		<tag k="loc_name" v="Vesle Utgravne" />
		<tag k="natural" v="water" />
		<tag k="ssr:date" v="2019-12-27" />
		<tag k="ssr:gruppe" v="stilleståendeVann" />
		<tag k="ssr:hovedgruppe" v="ferskvann" />
		<tag k="ssr:stedsnr" v="981143" />
		<tag k="ssr:type" v="tjern" />
	</node>
	<node id="-286022" lat="59.9758305586" lon="9.99835276954">
		<tag k="old_name" v="Solstad" />
		<tag k="place" v="farm" />
		<tag k="ssr:date" v="2019-12-27" />
		<tag k="ssr:gruppe" v="gardsbebyggelse" />
		<tag k="ssr:hovedgruppe" v="bebyggelse" />
		<tag k="ssr:stedsnr" v="663556" />
		<tag k="ssr:type" v="bruk" />
	</node>
	<node id="-285983" lat="59.9901388868" lon="9.91891389777">
		<tag k="old_name" v="Sysletorget" />
		<tag k="place" v="square" />
		<tag k="ssr:date" v="2019-12-27" />
		<tag k="ssr:gruppe" v="bebyggelsesområder" />
		<tag k="ssr:hovedgruppe" v="bebyggelse" />
		<tag k="ssr:stedsnr" v="406054" />
		<tag k="ssr:type" v="torg" />
	</node>
	<node id="-286534" lat="59.9728324767" lon="10.1569891205">
		<tag k="loc_name" v="Store Utgravne" />
		<tag k="natural" v="water" />
		<tag k="ssr:date" v="2019-12-27" />
		<tag k="ssr:gruppe" v="stilleståendeVann" />
		<tag k="ssr:hovedgruppe" v="ferskvann" />
		<tag k="ssr:stedsnr" v="981142" />
		<tag k="ssr:type" v="tjern" />
	</node>
	<node id="-286690" lat="60.0148611132" lon="10.1264388833">
		<tag k="amenity" v="school" />
		<tag k="old_name" v="Gulsrud skole" />
>>>>>>> e1d4bc35ff8a6074a6f2e91616a996b547c36f15
		<tag k="ssr:date" v="2019-12-27" />
		<tag k="ssr:gruppe" v="gardsbebyggelse" />
		<tag k="ssr:hovedgruppe" v="bebyggelse" />
		<tag k="ssr:stedsnr" v="732823" />
		<tag k="ssr:type" v="bruk" />
	</node>
<<<<<<< HEAD
	<node lat="59.91541901019377" lon="9.967158879077411" id="-17407">
		<tag k="fixme" v="consider place=hamlet" />
		<tag k="old_name" v="Ilen" />
		<tag k="place" v="farm" />
		<tag k="ssr:date" v="2019-12-27" />
		<tag k="ssr:gruppe" v="gardsbebyggelse" />
		<tag k="ssr:hovedgruppe" v="bebyggelse" />
		<tag k="ssr:stedsnr" v="117897" />
		<tag k="ssr:type" v="gard" />
	</node>
	<node lat="59.92932499969632" lon="9.9658055537969" id="-17577">
		<tag k="building" v="industrial" />
		<tag k="industrial" v="factory" />
		<tag k="old_name" v="Drammenselven Papirfabrikk" />
=======
	<node id="-287361" lat="59.9093861134" lon="9.89608333311">
		<tag k="amenity" v="nursing_home" />
		<tag k="old_name" v="Modum Kursted" />
>>>>>>> e1d4bc35ff8a6074a6f2e91616a996b547c36f15
		<tag k="ssr:date" v="2019-12-27" />
		<tag k="ssr:gruppe" v="næring" />
		<tag k="ssr:hovedgruppe" v="bebyggelse" />
		<tag k="ssr:stedsnr" v="285599" />
		<tag k="ssr:type" v="fabrikk" />
	</node>
<<<<<<< HEAD
	<node lat="59.97583055855018" lon="9.998352769544047" id="-17959">
		<tag k="old_name" v="Solstad" />
		<tag k="place" v="farm" />
		<tag k="ssr:date" v="2019-12-27" />
		<tag k="ssr:gruppe" v="gardsbebyggelse" />
		<tag k="ssr:hovedgruppe" v="bebyggelse" />
		<tag k="ssr:stedsnr" v="663556" />
		<tag k="ssr:type" v="bruk" />
	</node>
=======
>>>>>>> e1d4bc35ff8a6074a6f2e91616a996b547c36f15
</osm>
