<?xml version="1.0" encoding="UTF-8"?>
<osm version="0.6" generator="osmapis">
	<node lat="59.984538889261806" lon="9.880244439118337" id="-18870">
		<tag k="name" v="Skuterud" />
		<tag k="ssr:date" v="2021-06-08" />
		<tag k="ssr:gruppe" v="veg" />
		<tag k="ssr:hovedgruppe" v="infrastruktur" />
		<tag k="ssr:stedsnr" v="59214" />
		<tag k="ssr:type" v="adressetilleggsnavn" />
	</node>
	<node lat="59.99011944869103" lon="9.996972230815114" id="-18875">
		<tag k="name" v="Skåka" />
		<tag k="ssr:date" v="2021-06-08" />
		<tag k="ssr:gruppe" v="veg" />
		<tag k="ssr:hovedgruppe" v="infrastruktur" />
		<tag k="ssr:stedsnr" v="241204" />
		<tag k="ssr:type" v="adressetilleggsnavn" />
	</node>
	<node lat="59.982016667752525" lon="9.887955560304782" id="-18892">
		<tag k="name" v="Aslaksby" />
		<tag k="ssr:date" v="2021-06-08" />
		<tag k="ssr:gruppe" v="veg" />
		<tag k="ssr:hovedgruppe" v="infrastruktur" />
		<tag k="ssr:stedsnr" v="241966" />
		<tag k="ssr:type" v="adressetilleggsnavn" />
	</node>
	<node lat="60.02479722118827" lon="9.82825833720012" id="-18922">
		<tag k="name" v="Øgardslia" />
		<tag k="ssr:date" v="2019-12-27" />
		<tag k="ssr:gruppe" v="veg" />
		<tag k="ssr:hovedgruppe" v="infrastruktur" />
		<tag k="ssr:stedsnr" v="100724" />
		<tag k="ssr:type" v="adressenavn" />
	</node>
	<node lat="59.93529444457088" lon="9.903830550390891" id="-18948">
		<tag k="name" v="Jar" />
		<tag k="ssr:date" v="2021-06-08" />
		<tag k="ssr:gruppe" v="veg" />
		<tag k="ssr:hovedgruppe" v="infrastruktur" />
		<tag k="ssr:stedsnr" v="120203" />
		<tag k="ssr:type" v="adressetilleggsnavn" />
	</node>
	<node lat="59.96875277957132" lon="9.952694443404596" id="-18949">
		<tag k="name" v="Kongsrud" />
		<tag k="ssr:date" v="2021-06-08" />
		<tag k="ssr:gruppe" v="veg" />
		<tag k="ssr:hovedgruppe" v="infrastruktur" />
		<tag k="ssr:stedsnr" v="120204" />
		<tag k="ssr:type" v="adressetilleggsnavn" />
	</node>
	<node lat="59.883000002292846" lon="9.806486105851365" id="-18950">
		<tag k="name" v="Hovengplassen" />
		<tag k="ssr:date" v="2021-06-08" />
		<tag k="ssr:gruppe" v="veg" />
		<tag k="ssr:hovedgruppe" v="infrastruktur" />
		<tag k="ssr:stedsnr" v="120210" />
		<tag k="ssr:type" v="adressetilleggsnavn" />
	</node>
	<node lat="59.98969722064148" lon="9.97073610410594" id="-18951">
		<tag k="name" v="Åsmundrud" />
		<tag k="ssr:date" v="2021-06-08" />
		<tag k="ssr:gruppe" v="veg" />
		<tag k="ssr:hovedgruppe" v="infrastruktur" />
		<tag k="ssr:stedsnr" v="121238" />
		<tag k="ssr:type" v="adressetilleggsnavn" />
	</node>
	<node lat="59.98927221843212" lon="9.899925008358714" id="-19012">
		<tag k="name" v="Bjørnetangen" />
		<tag k="ssr:date" v="2021-06-08" />
		<tag k="ssr:gruppe" v="veg" />
		<tag k="ssr:hovedgruppe" v="infrastruktur" />
		<tag k="ssr:stedsnr" v="181207" />
		<tag k="ssr:type" v="adressetilleggsnavn" />
	</node>
	<node lat="59.97126111290209" lon="9.904738893308341" id="-19013">
		<tag k="name" v="Jarmoen" />
		<tag k="ssr:date" v="2021-06-08" />
		<tag k="ssr:gruppe" v="veg" />
		<tag k="ssr:hovedgruppe" v="infrastruktur" />
		<tag k="ssr:stedsnr" v="181211" />
		<tag k="ssr:type" v="adressetilleggsnavn" />
	</node>
	<node lat="60.049927778877944" lon="9.83759722112757" id="-19014">
		<tag k="name" v="Øvre Korsbøen" />
		<tag k="ssr:date" v="2021-06-08" />
		<tag k="ssr:gruppe" v="veg" />
		<tag k="ssr:hovedgruppe" v="infrastruktur" />
		<tag k="ssr:stedsnr" v="181255" />
		<tag k="ssr:type" v="adressetilleggsnavn" />
	</node>
	<node lat="59.868113889898574" lon="9.837788896831322" id="-19079">
		<tag k="name" v="Steinsrud" />
		<tag k="ssr:date" v="2021-06-08" />
		<tag k="ssr:gruppe" v="veg" />
		<tag k="ssr:hovedgruppe" v="infrastruktur" />
		<tag k="ssr:stedsnr" v="242203" />
		<tag k="ssr:type" v="adressetilleggsnavn" />
	</node>
	<node lat="59.93813333374006" lon="9.809722228923926" id="-19080">
		<tag k="name" v="Vestre Lobben" />
		<tag k="ssr:date" v="2021-06-08" />
		<tag k="ssr:gruppe" v="veg" />
		<tag k="ssr:hovedgruppe" v="infrastruktur" />
		<tag k="ssr:stedsnr" v="242209" />
		<tag k="ssr:type" v="adressetilleggsnavn" />
	</node>
	<node lat="59.92646666605083" lon="9.838850000061115" id="-19081">
		<tag k="name" v="Tangen" />
		<tag k="ssr:date" v="2021-06-08" />
		<tag k="ssr:gruppe" v="veg" />
		<tag k="ssr:hovedgruppe" v="infrastruktur" />
		<tag k="ssr:stedsnr" v="242212" />
		<tag k="ssr:type" v="adressetilleggsnavn" />
	</node>
	<node lat="59.99758333692859" lon="9.967794445661255" id="-19128">
		<tag k="name" v="Flannumshaugen" />
		<tag k="ssr:date" v="2021-06-08" />
		<tag k="ssr:gruppe" v="veg" />
		<tag k="ssr:hovedgruppe" v="infrastruktur" />
		<tag k="ssr:stedsnr" v="302225" />
		<tag k="ssr:type" v="adressetilleggsnavn" />
	</node>
	<node lat="60.00595833231548" lon="9.887663895244932" id="-19129">
		<tag k="name" v="Gunnhus" />
		<tag k="ssr:date" v="2021-06-08" />
		<tag k="ssr:gruppe" v="veg" />
		<tag k="ssr:hovedgruppe" v="infrastruktur" />
		<tag k="ssr:stedsnr" v="302227" />
		<tag k="ssr:type" v="adressetilleggsnavn" />
	</node>
	<node lat="59.92384722215669" lon="9.836958324860616" id="-19142">
		<tag k="name" v="Sterkabyveien" />
		<tag k="ssr:date" v="2019-12-27" />
		<tag k="ssr:gruppe" v="veg" />
		<tag k="ssr:hovedgruppe" v="infrastruktur" />
		<tag k="ssr:stedsnr" v="466553" />
		<tag k="ssr:type" v="adressenavn" />
	</node>
	<node lat="59.940666669287225" lon="9.82240277711972" id="-19178">
		<tag k="name" v="Hauge" />
		<tag k="ssr:date" v="2021-06-08" />
		<tag k="ssr:gruppe" v="veg" />
		<tag k="ssr:hovedgruppe" v="infrastruktur" />
		<tag k="ssr:stedsnr" v="545191" />
		<tag k="ssr:type" v="adressetilleggsnavn" />
	</node>
	<node lat="59.863991666950305" lon="9.873666672498535" id="-19228">
		<tag k="name" v="Kvisle" />
		<tag k="ssr:date" v="2021-06-08" />
		<tag k="ssr:gruppe" v="veg" />
		<tag k="ssr:hovedgruppe" v="infrastruktur" />
		<tag k="ssr:stedsnr" v="484194" />
		<tag k="ssr:type" v="adressetilleggsnavn" />
	</node>
	<node lat="60.033183330980656" lon="10.024777770369464" id="-19265">
		<tag k="name" v="Gunnestad" />
		<tag k="ssr:date" v="2021-06-08" />
		<tag k="ssr:gruppe" v="veg" />
		<tag k="ssr:hovedgruppe" v="infrastruktur" />
		<tag k="ssr:stedsnr" v="424202" />
		<tag k="ssr:type" v="adressetilleggsnavn" />
	</node>
	<node lat="59.98283055689755" lon="9.997972223914282" id="-19266">
		<tag k="name" v="Disen" />
		<tag k="ssr:date" v="2021-06-08" />
		<tag k="ssr:gruppe" v="veg" />
		<tag k="ssr:hovedgruppe" v="infrastruktur" />
		<tag k="ssr:stedsnr" v="424207" />
		<tag k="ssr:type" v="adressetilleggsnavn" />
	</node>
	<node lat="59.964158330234106" lon="10.000777785222015" id="-19267">
		<tag k="name" v="Strandgården Brygge" />
		<tag k="ssr:date" v="2021-06-08" />
		<tag k="ssr:gruppe" v="veg" />
		<tag k="ssr:hovedgruppe" v="infrastruktur" />
		<tag k="ssr:stedsnr" v="424224" />
		<tag k="ssr:type" v="adressetilleggsnavn" />
	</node>
	<node lat="60.00504721913266" lon="9.97496944169593" id="-19367">
		<tag k="name" v="Skredderud" />
		<tag k="ssr:date" v="2021-06-08" />
		<tag k="ssr:gruppe" v="veg" />
		<tag k="ssr:hovedgruppe" v="infrastruktur" />
		<tag k="ssr:stedsnr" v="484209" />
		<tag k="ssr:type" v="adressetilleggsnavn" />
	</node>
	<node lat="59.886986114773556" lon="9.952208331335354" id="-19430">
		<tag k="name" v="Dalavegen" />
		<tag k="ssr:date" v="2019-12-27" />
		<tag k="ssr:gruppe" v="veg" />
		<tag k="ssr:hovedgruppe" v="infrastruktur" />
		<tag k="ssr:stedsnr" v="550657" />
		<tag k="ssr:type" v="vegstrekning" />
	</node>
	<node lat="59.95493055754526" lon="9.907088881587356" id="-19447">
		<tag k="name" v="Amundrud" />
		<tag k="ssr:date" v="2021-06-08" />
		<tag k="ssr:gruppe" v="veg" />
		<tag k="ssr:hovedgruppe" v="infrastruktur" />
		<tag k="ssr:stedsnr" v="605961" />
		<tag k="ssr:type" v="adressetilleggsnavn" />
	</node>
	<node lat="59.906825002356044" lon="9.912069450460725" id="-19471">
		<tag k="name" v="Åslyveien" />
		<tag k="ssr:date" v="2019-12-27" />
		<tag k="ssr:gruppe" v="veg" />
		<tag k="ssr:hovedgruppe" v="infrastruktur" />
		<tag k="ssr:stedsnr" v="648337" />
		<tag k="ssr:type" v="adressenavn" />
	</node>
	<node lat="59.98212778130984" lon="10.025333334451542" id="-19506">
		<tag k="name" v="Engelstad" />
		<tag k="ssr:date" v="2021-06-08" />
		<tag k="ssr:gruppe" v="veg" />
		<tag k="ssr:hovedgruppe" v="infrastruktur" />
		<tag k="ssr:stedsnr" v="666210" />
		<tag k="ssr:type" v="adressetilleggsnavn" />
	</node>
	<node lat="59.93800833066741" lon="9.903511115052085" id="-19507">
		<tag k="name" v="Nordvestre Jar" />
		<tag k="ssr:date" v="2021-06-08" />
		<tag k="ssr:gruppe" v="veg" />
		<tag k="ssr:hovedgruppe" v="infrastruktur" />
		<tag k="ssr:stedsnr" v="666229" />
		<tag k="ssr:type" v="adressetilleggsnavn" />
	</node>
	<node lat="60.078036115348056" lon="9.857127776208017" id="-19508">
		<tag k="name" v="Lien" />
		<tag k="ssr:date" v="2021-06-08" />
		<tag k="ssr:gruppe" v="veg" />
		<tag k="ssr:hovedgruppe" v="infrastruktur" />
		<tag k="ssr:stedsnr" v="666235" />
		<tag k="ssr:type" v="adressetilleggsnavn" />
	</node>
	<node lat="59.867316670587606" lon="9.833072226090916" id="-19511">
		<tag k="name" v="Steinsrud" />
		<tag k="ssr:date" v="2021-06-08" />
		<tag k="ssr:gruppe" v="veg" />
		<tag k="ssr:hovedgruppe" v="infrastruktur" />
		<tag k="ssr:stedsnr" v="667218" />
		<tag k="ssr:type" v="adressetilleggsnavn" />
	</node>
	<node lat="59.90668888701502" lon="9.869836103759337" id="-19512">
		<tag k="name" v="Sør-Øgarden" />
		<tag k="ssr:date" v="2021-06-08" />
		<tag k="ssr:gruppe" v="veg" />
		<tag k="ssr:hovedgruppe" v="infrastruktur" />
		<tag k="ssr:stedsnr" v="667230" />
		<tag k="ssr:type" v="adressetilleggsnavn" />
	</node>
	<node lat="59.96875277957132" lon="9.952694443404596" id="-19584">
		<tag k="name" v="Kaggestadmoen" />
		<tag k="ssr:date" v="2021-06-08" />
		<tag k="ssr:gruppe" v="veg" />
		<tag k="ssr:hovedgruppe" v="infrastruktur" />
		<tag k="ssr:stedsnr" v="727217" />
		<tag k="ssr:type" v="adressetilleggsnavn" />
	</node>
	<node lat="59.98408888533819" lon="9.984747214093401" id="-19585">
		<tag k="name" v="Kongsrud" />
		<tag k="ssr:date" v="2021-06-08" />
		<tag k="ssr:gruppe" v="veg" />
		<tag k="ssr:hovedgruppe" v="infrastruktur" />
		<tag k="ssr:stedsnr" v="727220" />
		<tag k="ssr:type" v="adressetilleggsnavn" />
	</node>
	<node lat="59.872516669650345" lon="9.87839165836478" id="-19586">
		<tag k="name" v="Refsal" />
		<tag k="ssr:date" v="2021-06-08" />
		<tag k="ssr:gruppe" v="veg" />
		<tag k="ssr:hovedgruppe" v="infrastruktur" />
		<tag k="ssr:stedsnr" v="727226" />
		<tag k="ssr:type" v="adressetilleggsnavn" />
	</node>
	<node lat="59.886474996291305" lon="9.877899996456813" id="-19638">
		<tag k="name" v="Vestre Nyhus" />
		<tag k="ssr:date" v="2021-06-08" />
		<tag k="ssr:gruppe" v="veg" />
		<tag k="ssr:hovedgruppe" v="infrastruktur" />
		<tag k="ssr:stedsnr" v="910234" />
		<tag k="ssr:type" v="adressetilleggsnavn" />
	</node>
	<node lat="59.98889166377153" lon="9.971377782838056" id="-19639">
		<tag k="name" v="Åsmundrud" />
		<tag k="ssr:date" v="2021-06-08" />
		<tag k="ssr:gruppe" v="veg" />
		<tag k="ssr:hovedgruppe" v="infrastruktur" />
		<tag k="ssr:stedsnr" v="910238" />
		<tag k="ssr:type" v="adressetilleggsnavn" />
	</node>
	<node lat="59.97895000287626" lon="9.993402776361586" id="-19649">
		<tag k="name" v="Bottegarden" />
		<tag k="ssr:date" v="2021-06-08" />
		<tag k="ssr:gruppe" v="veg" />
		<tag k="ssr:hovedgruppe" v="infrastruktur" />
		<tag k="ssr:stedsnr" v="787198" />
		<tag k="ssr:type" v="adressetilleggsnavn" />
	</node>
	<node lat="59.94412499853607" lon="9.888577772680044" id="-19693">
		<tag k="name" v="Hellevegen" />
		<tag k="ssr:date" v="2019-12-27" />
		<tag k="ssr:gruppe" v="veg" />
		<tag k="ssr:hovedgruppe" v="infrastruktur" />
		<tag k="ssr:stedsnr" v="914867" />
		<tag k="ssr:type" v="vegstrekning" />
	</node>
	<node lat="59.9657111154473" lon="9.99606111836649" id="-19712">
		<tag k="name" v="Strandveien" />
		<tag k="ssr:date" v="2019-12-27" />
		<tag k="ssr:gruppe" v="veg" />
		<tag k="ssr:hovedgruppe" v="infrastruktur" />
		<tag k="ssr:stedsnr" v="829884" />
		<tag k="ssr:type" v="adressenavn" />
	</node>
	<node lat="59.987644440269015" lon="9.946569436196876" id="-19733">
		<tag k="name" v="Hære" />
		<tag k="ssr:date" v="2021-06-08" />
		<tag k="ssr:gruppe" v="veg" />
		<tag k="ssr:hovedgruppe" v="infrastruktur" />
		<tag k="ssr:stedsnr" v="849230" />
		<tag k="ssr:type" v="adressetilleggsnavn" />
	</node>
	<node lat="59.96296944562934" lon="9.897547226303278" id="-19781">
		<tag k="name" v="Sandakermyrveien" />
		<tag k="ssr:date" v="2019-12-27" />
		<tag k="ssr:gruppe" v="veg" />
		<tag k="ssr:hovedgruppe" v="infrastruktur" />
		<tag k="ssr:stedsnr" v="907811" />
		<tag k="ssr:type" v="adressenavn" />
	</node>
	<node lat="60.01839166705536" lon="9.8762111145996" id="-19784">
		<tag k="name" v="Hilsenveien" />
		<tag k="ssr:date" v="2019-12-27" />
		<tag k="ssr:gruppe" v="veg" />
		<tag k="ssr:hovedgruppe" v="infrastruktur" />
		<tag k="ssr:stedsnr" v="908008" />
		<tag k="ssr:type" v="adressenavn" />
	</node>
	<node lat="60.072263892428936" lon="9.847075006334254" id="-19790">
		<tag k="name" v="Kvernrud" />
		<tag k="ssr:date" v="2021-06-08" />
		<tag k="ssr:gruppe" v="veg" />
		<tag k="ssr:hovedgruppe" v="infrastruktur" />
		<tag k="ssr:stedsnr" v="909229" />
		<tag k="ssr:type" v="adressetilleggsnavn" />
	</node>
	<node lat="59.94088055663973" lon="10.000880564334999" id="-19791">
		<tag k="name" v="Heggen kirke" />
		<tag k="ssr:date" v="2021-06-08" />
		<tag k="ssr:gruppe" v="veg" />
		<tag k="ssr:hovedgruppe" v="infrastruktur" />
		<tag k="ssr:stedsnr" v="909230" />
		<tag k="ssr:type" v="adressetilleggsnavn" />
	</node>
	<node lat="59.94121453674026" lon="10.000331855969945" id="-19792">
		<tag k="name" v="Heggen prestegård" />
		<tag k="ssr:date" v="2021-06-08" />
		<tag k="ssr:gruppe" v="veg" />
		<tag k="ssr:hovedgruppe" v="infrastruktur" />
		<tag k="ssr:stedsnr" v="909233" />
		<tag k="ssr:type" v="adressetilleggsnavn" />
	</node>
	<node lat="60.04958888565325" lon="9.840119449769606" id="-19793">
		<tag k="name" v="Nedre Korsbøen" />
		<tag k="ssr:date" v="2021-06-08" />
		<tag k="ssr:gruppe" v="veg" />
		<tag k="ssr:hovedgruppe" v="infrastruktur" />
		<tag k="ssr:stedsnr" v="909248" />
		<tag k="ssr:type" v="adressetilleggsnavn" />
	</node>
	<node lat="59.98648888453847" lon="10.033533325685799" id="-19836">
		<tag k="name" v="Brekke" />
		<tag k="ssr:date" v="2021-06-08" />
		<tag k="ssr:gruppe" v="veg" />
		<tag k="ssr:hovedgruppe" v="infrastruktur" />
		<tag k="ssr:stedsnr" v="969210" />
		<tag k="ssr:type" v="adressetilleggsnavn" />
	</node>
	<node lat="59.98283055689755" lon="9.997972223914282" id="-19837">
		<tag k="name" v="Børgen" />
		<tag k="ssr:date" v="2021-06-08" />
		<tag k="ssr:gruppe" v="veg" />
		<tag k="ssr:hovedgruppe" v="infrastruktur" />
		<tag k="ssr:stedsnr" v="969212" />
		<tag k="ssr:type" v="adressetilleggsnavn" />
	</node>
	<node lat="59.92715833568057" lon="9.990163882285211" id="-19840">
		<tag k="name" v="Søndre Øren" />
		<tag k="ssr:date" v="2021-06-08" />
		<tag k="ssr:gruppe" v="veg" />
		<tag k="ssr:hovedgruppe" v="infrastruktur" />
		<tag k="ssr:stedsnr" v="970316" />
		<tag k="ssr:type" v="adressetilleggsnavn" />
	</node>
	<node lat="60.0078694422409" lon="10.07431943959437" id="-19841">
		<tag k="name" v="Sør-Tangerud" />
		<tag k="ssr:date" v="2021-06-08" />
		<tag k="ssr:gruppe" v="veg" />
		<tag k="ssr:hovedgruppe" v="infrastruktur" />
		<tag k="ssr:stedsnr" v="970336" />
		<tag k="ssr:type" v="adressetilleggsnavn" />
	</node>
	<node lat="60.00727762665136" lon="10.02557311887626" id="-19843">
		<tag k="name" v="Jarenhaugen" />
		<tag k="ssr:date" v="2019-12-27" />
		<tag k="ssr:gruppe" v="veg" />
		<tag k="ssr:hovedgruppe" v="infrastruktur" />
		<tag k="ssr:stedsnr" v="978126" />
		<tag k="ssr:type" v="adressenavn" />
	</node>
	<node lat="60.00233216943394" lon="10.026406223665811" id="-19844">
		<tag k="name" v="Jarentangen" />
		<tag k="ssr:date" v="2019-12-27" />
		<tag k="ssr:gruppe" v="veg" />
		<tag k="ssr:hovedgruppe" v="infrastruktur" />
		<tag k="ssr:stedsnr" v="978127" />
		<tag k="ssr:type" v="adressenavn" />
	</node>
	<node lat="59.939440559100355" lon="9.977339263289675" id="-19845">
		<tag k="name" v="Skinnerudstubben" />
		<tag k="ssr:date" v="2019-12-27" />
		<tag k="ssr:gruppe" v="veg" />
		<tag k="ssr:hovedgruppe" v="infrastruktur" />
		<tag k="ssr:stedsnr" v="980429" />
		<tag k="ssr:type" v="adressenavn" />
	</node>
	<node lat="59.92387402242813" lon="9.9607996807675" id="-19846">
		<tag k="name" v="Skredsvikkroken" />
		<tag k="ssr:date" v="2019-12-27" />
		<tag k="ssr:gruppe" v="veg" />
		<tag k="ssr:hovedgruppe" v="infrastruktur" />
		<tag k="ssr:stedsnr" v="980430" />
		<tag k="ssr:type" v="adressenavn" />
	</node>
	<node lat="59.92515421840743" lon="9.96257194331172" id="-19847">
		<tag k="name" v="Skredsvik allé" />
		<tag k="ssr:date" v="2019-12-27" />
		<tag k="ssr:gruppe" v="veg" />
		<tag k="ssr:hovedgruppe" v="infrastruktur" />
		<tag k="ssr:stedsnr" v="980431" />
		<tag k="ssr:type" v="adressenavn" />
	</node>
	<node lat="59.91490555298635" lon="9.941619452490885" id="-19919">
		<tag k="name" v="Linnerud" />
		<tag k="ssr:date" v="2021-06-08" />
		<tag k="ssr:gruppe" v="veg" />
		<tag k="ssr:hovedgruppe" v="infrastruktur" />
		<tag k="ssr:stedsnr" v="60212" />
		<tag k="ssr:type" v="adressetilleggsnavn" />
	</node>
	<node lat="59.984619441382755" lon="10.02689722889365" id="-19983">
		<tag k="name" v="Engelstad" />
		<tag k="ssr:date" v="2021-06-08" />
		<tag k="ssr:gruppe" v="veg" />
		<tag k="ssr:hovedgruppe" v="infrastruktur" />
		<tag k="ssr:stedsnr" v="120196" />
		<tag k="ssr:type" v="adressetilleggsnavn" />
	</node>
	<node lat="60.03264722452897" lon="9.993622218794092" id="-19984">
		<tag k="name" v="Øderud" />
		<tag k="ssr:date" v="2021-06-08" />
		<tag k="ssr:gruppe" v="veg" />
		<tag k="ssr:hovedgruppe" v="infrastruktur" />
		<tag k="ssr:stedsnr" v="121225" />
		<tag k="ssr:type" v="adressetilleggsnavn" />
	</node>
	<node lat="59.87835833190746" lon="9.817772217199991" id="-19985">
		<tag k="name" v="Øvre Hovenga" />
		<tag k="ssr:date" v="2021-06-08" />
		<tag k="ssr:gruppe" v="veg" />
		<tag k="ssr:hovedgruppe" v="infrastruktur" />
		<tag k="ssr:stedsnr" v="121247" />
		<tag k="ssr:type" v="adressetilleggsnavn" />
	</node>
	<node lat="59.88656389202254" lon="9.886105559467259" id="-20070">
		<tag k="name" v="Solli" />
		<tag k="ssr:date" v="2021-06-08" />
		<tag k="ssr:gruppe" v="veg" />
		<tag k="ssr:hovedgruppe" v="infrastruktur" />
		<tag k="ssr:stedsnr" v="181235" />
		<tag k="ssr:type" v="adressetilleggsnavn" />
	</node>
	<node lat="59.997986111733034" lon="10.025213891965889" id="-20071">
		<tag k="name" v="Tveiten" />
		<tag k="ssr:date" v="2021-06-08" />
		<tag k="ssr:gruppe" v="veg" />
		<tag k="ssr:hovedgruppe" v="infrastruktur" />
		<tag k="ssr:stedsnr" v="181239" />
		<tag k="ssr:type" v="adressetilleggsnavn" />
	</node>
	<node lat="60.002216663861105" lon="10.151455562129883" id="-20135">
		<tag k="name" v="Vindfallåsveien" />
		<tag k="ssr:date" v="2019-12-27" />
		<tag k="ssr:gruppe" v="veg" />
		<tag k="ssr:hovedgruppe" v="infrastruktur" />
		<tag k="ssr:stedsnr" v="283763" />
		<tag k="ssr:type" v="adressenavn" />
	</node>
	<node lat="59.987683333025764" lon="10.034933333275985" id="-20158">
		<tag k="name" v="Brekke" />
		<tag k="ssr:date" v="2021-06-08" />
		<tag k="ssr:gruppe" v="veg" />
		<tag k="ssr:hovedgruppe" v="infrastruktur" />
		<tag k="ssr:stedsnr" v="302232" />
		<tag k="ssr:type" v="adressetilleggsnavn" />
	</node>
	<node lat="59.862650003934434" lon="9.883772215677697" id="-20159">
		<tag k="name" v="Oksrud" />
		<tag k="ssr:date" v="2021-06-08" />
		<tag k="ssr:gruppe" v="veg" />
		<tag k="ssr:hovedgruppe" v="infrastruktur" />
		<tag k="ssr:stedsnr" v="302239" />
		<tag k="ssr:type" v="adressetilleggsnavn" />
	</node>
	<node lat="59.93485555142714" lon="9.997174992320266" id="-20160">
		<tag k="name" v="Nordre Hovland" />
		<tag k="ssr:date" v="2021-06-08" />
		<tag k="ssr:gruppe" v="veg" />
		<tag k="ssr:hovedgruppe" v="infrastruktur" />
		<tag k="ssr:stedsnr" v="302240" />
		<tag k="ssr:type" v="adressetilleggsnavn" />
	</node>
	<node lat="59.964877776401075" lon="9.939436112770851" id="-20162">
		<tag k="name" v="Bjølgerudmyra" />
		<tag k="ssr:date" v="2019-12-27" />
		<tag k="ssr:gruppe" v="veg" />
		<tag k="ssr:hovedgruppe" v="infrastruktur" />
		<tag k="ssr:stedsnr" v="303000" />
		<tag k="ssr:type" v="adressenavn" />
	</node>
	<node lat="59.930827776306074" lon="9.994297218812562" id="-20163">
		<tag k="name" v="Øren" />
		<tag k="ssr:date" v="2021-06-08" />
		<tag k="ssr:gruppe" v="veg" />
		<tag k="ssr:hovedgruppe" v="infrastruktur" />
		<tag k="ssr:stedsnr" v="303230" />
		<tag k="ssr:type" v="adressetilleggsnavn" />
	</node>
	<node lat="59.98355277448058" lon="10.033530556676364" id="-20234">
		<tag k="name" v="Brekkeplassen" />
		<tag k="ssr:date" v="2019-12-27" />
		<tag k="ssr:gruppe" v="veg" />
		<tag k="ssr:hovedgruppe" v="infrastruktur" />
		<tag k="ssr:stedsnr" v="362940" />
		<tag k="ssr:type" v="adressenavn" />
	</node>
	<node lat="59.979075003374454" lon="9.88900555679634" id="-20235">
		<tag k="name" v="Bergan" />
		<tag k="ssr:date" v="2021-06-08" />
		<tag k="ssr:gruppe" v="veg" />
		<tag k="ssr:hovedgruppe" v="infrastruktur" />
		<tag k="ssr:stedsnr" v="363959" />
		<tag k="ssr:type" v="adressetilleggsnavn" />
	</node>
	<node lat="59.97352499718815" lon="9.900716661753238" id="-20284">
		<tag k="name" v="Sponeveien" />
		<tag k="ssr:date" v="2019-12-27" />
		<tag k="ssr:gruppe" v="veg" />
		<tag k="ssr:hovedgruppe" v="infrastruktur" />
		<tag k="ssr:stedsnr" v="404870" />
		<tag k="ssr:type" v="vegstrekning" />
	</node>
	<node lat="59.93365277545923" lon="9.969474997176714" id="-20314">
		<tag k="name" v="Internatveien" />
		<tag k="ssr:date" v="2019-12-27" />
		<tag k="ssr:gruppe" v="veg" />
		<tag k="ssr:hovedgruppe" v="infrastruktur" />
		<tag k="ssr:stedsnr" v="423985" />
		<tag k="ssr:type" v="adressenavn" />
	</node>
	<node lat="59.92976944130731" lon="9.965138892981088" id="-20389">
		<tag k="name" v="Geithus næringspark" />
		<tag k="ssr:date" v="2021-06-08" />
		<tag k="ssr:gruppe" v="veg" />
		<tag k="ssr:hovedgruppe" v="infrastruktur" />
		<tag k="ssr:stedsnr" v="545189" />
		<tag k="ssr:type" v="adressetilleggsnavn" />
	</node>
	<node lat="59.98629721993316" lon="10.011877781544094" id="-20392">
		<tag k="name" v="Hervik" />
		<tag k="ssr:date" v="2021-06-08" />
		<tag k="ssr:gruppe" v="veg" />
		<tag k="ssr:hovedgruppe" v="infrastruktur" />
		<tag k="ssr:stedsnr" v="545200" />
		<tag k="ssr:type" v="adressetilleggsnavn" />
	</node>
	<node lat="59.93505555893056" lon="9.816500008620867" id="-20469">
		<tag k="name" v="Lobben" />
		<tag k="ssr:date" v="2021-06-08" />
		<tag k="ssr:gruppe" v="veg" />
		<tag k="ssr:hovedgruppe" v="infrastruktur" />
		<tag k="ssr:stedsnr" v="605249" />
		<tag k="ssr:type" v="adressetilleggsnavn" />
	</node>
	<node lat="59.93063888684384" lon="9.81770000444862" id="-20562">
		<tag k="name" v="Nordre Gunnerud" />
		<tag k="ssr:date" v="2021-06-08" />
		<tag k="ssr:gruppe" v="veg" />
		<tag k="ssr:hovedgruppe" v="infrastruktur" />
		<tag k="ssr:stedsnr" v="727232" />
		<tag k="ssr:type" v="adressetilleggsnavn" />
	</node>
	<node lat="60.03471666981738" lon="9.994224993358484" id="-20563">
		<tag k="name" v="Øderud" />
		<tag k="ssr:date" v="2021-06-08" />
		<tag k="ssr:gruppe" v="veg" />
		<tag k="ssr:hovedgruppe" v="infrastruktur" />
		<tag k="ssr:stedsnr" v="728196" />
		<tag k="ssr:type" v="adressetilleggsnavn" />
	</node>
</osm>
