<?xml version="1.0" encoding="UTF-8"?>
<osm version="0.6" generator="osmapis">
	<node lat="63.685727775958036" lon="10.620708341832222" id="-57108">
		<tag k="name" v="Rosvold vestre" />
		<tag k="ssr:date" v="2018-01-09" />
		<tag k="ssr:gruppe" v="veg" />
		<tag k="ssr:hovedgruppe" v="infrastruktur" />
		<tag k="ssr:stedsnr" v="60987" />
		<tag k="ssr:type" v="adressetilleggsnavn" />
	</node>
	<node lat="63.71457777901565" lon="10.65249999699556" id="-57884">
		<tag k="name" v="Åsbakken" />
		<tag k="ssr:date" v="2018-01-09" />
		<tag k="ssr:gruppe" v="veg" />
		<tag k="ssr:hovedgruppe" v="infrastruktur" />
		<tag k="ssr:stedsnr" v="303874" />
		<tag k="ssr:type" v="adressetilleggsnavn" />
	</node>
	<node lat="63.78305555595882" lon="10.437411101522644" id="-58218">
		<tag k="name" v="Skurvtjønna" />
		<tag k="ssr:date" v="2019-12-27" />
		<tag k="ssr:gruppe" v="veg" />
		<tag k="ssr:hovedgruppe" v="infrastruktur" />
		<tag k="ssr:stedsnr" v="363152" />
		<tag k="ssr:type" v="adressenavn" />
	</node>
	<node lat="63.795230555070134" lon="10.502322227939231" id="-58219">
		<tag k="name" v="Anderstjønna" />
		<tag k="ssr:date" v="2019-12-27" />
		<tag k="ssr:gruppe" v="veg" />
		<tag k="ssr:hovedgruppe" v="infrastruktur" />
		<tag k="ssr:stedsnr" v="363156" />
		<tag k="ssr:type" v="adressenavn" />
	</node>
	<node lat="63.87500000308966" lon="10.333333342769109" id="-58241">
		<tag k="name" v="Fosen" />
		<tag k="ssr:date" v="2019-12-27" />
		<tag k="ssr:gruppe" v="terrengområder" />
		<tag k="ssr:hovedgruppe" v="terreng" />
		<tag k="ssr:stedsnr" v="389100" />
		<tag k="ssr:type" v="landskapsområde" />
	</node>
	<node lat="63.78839722278493" lon="10.48233334034225" id="-58253">
		<tag k="name" v="Valtjønnin" />
		<tag k="ssr:date" v="2019-12-27" />
		<tag k="ssr:gruppe" v="veg" />
		<tag k="ssr:hovedgruppe" v="infrastruktur" />
		<tag k="ssr:stedsnr" v="484156" />
		<tag k="ssr:type" v="adressenavn" />
	</node>
	<node lat="63.69602499900254" lon="9.840080547960538" id="-58453">
		<tag k="name" v="Sjøflua" />
		<tag k="ssr:date" v="2018-01-09" />
		<tag k="ssr:gruppe" v="navigasjon" />
		<tag k="ssr:hovedgruppe" v="infrastruktur" />
		<tag k="ssr:stedsnr" v="469279" />
		<tag k="ssr:type" v="lanterne" />
	</node>
	<node lat="63.61176666420111" lon="9.822969449945665" id="-58697">
		<tag k="name" v="Sørvikbakken" />
		<tag k="ssr:date" v="2018-01-09" />
		<tag k="ssr:gruppe" v="sjøbunn" />
		<tag k="ssr:hovedgruppe" v="sjø" />
		<tag k="ssr:stedsnr" v="529521" />
		<tag k="ssr:type" v="ryggISjø" />
	</node>
	<node lat="63.617055552414676" lon="9.847169450663285" id="-59012">
		<tag k="name" v="Kleiva" />
		<tag k="ssr:date" v="2018-01-09" />
		<tag k="ssr:gruppe" v="veg" />
		<tag k="ssr:hovedgruppe" v="infrastruktur" />
		<tag k="ssr:stedsnr" v="648187" />
		<tag k="ssr:type" v="vegstrekning" />
	</node>
	<node lat="63.538819446439184" lon="10.041225005214743" id="-59157">
		<tag k="name" v="Vollkleiva" />
		<tag k="ssr:date" v="2018-01-09" />
		<tag k="ssr:gruppe" v="veg" />
		<tag k="ssr:hovedgruppe" v="infrastruktur" />
		<tag k="ssr:stedsnr" v="710102" />
		<tag k="ssr:type" v="vegstrekning" />
	</node>
	<node lat="63.578152781551424" lon="10.542402769621662" id="-59910">
		<tag k="name" v="Tauterryggen" />
		<tag k="ssr:date" v="2021-06-08" />
		<tag k="ssr:gruppe" v="sjøbunn" />
		<tag k="ssr:hovedgruppe" v="sjø" />
		<tag k="ssr:stedsnr" v="846292" />
		<tag k="ssr:type" v="ryggISjø" />
	</node>
	<node lat="63.50033055386611" lon="10.101936116774867" id="-60017">
		<tag k="name" v="Setervegen" />
		<tag k="ssr:date" v="2018-01-09" />
		<tag k="ssr:gruppe" v="veg" />
		<tag k="ssr:hovedgruppe" v="infrastruktur" />
		<tag k="ssr:stedsnr" v="892912" />
		<tag k="ssr:type" v="vegstrekning" />
	</node>
	<node lat="63.72369166479311" lon="9.992911108035896" id="-60098">
		<tag k="name" v="Stikkelsteinan" />
		<tag k="ssr:date" v="2021-06-08" />
		<tag k="ssr:gruppe" v="navigasjon" />
		<tag k="ssr:hovedgruppe" v="infrastruktur" />
		<tag k="ssr:stedsnr" v="935800" />
		<tag k="ssr:type" v="fyrlykt" />
	</node>
	<node lat="63.570844443638634" lon="10.419855552460563" id="-60107">
		<tag k="alt_name" v="Ambornes" />
		<tag k="name" v="Amborneset" />
		<tag k="ssr:date" v="2018-01-09" />
		<tag k="ssr:gruppe" v="navigasjon" />
		<tag k="ssr:hovedgruppe" v="infrastruktur" />
		<tag k="ssr:stedsnr" v="947183" />
		<tag k="ssr:type" v="lanterne" />
	</node>
	<node lat="63.688405557888764" lon="10.251241657671123" id="-60128">
		<tag k="name" v="Litlstobakken" />
		<tag k="ssr:date" v="2018-01-09" />
		<tag k="ssr:gruppe" v="veg" />
		<tag k="ssr:hovedgruppe" v="infrastruktur" />
		<tag k="ssr:stedsnr" v="952618" />
		<tag k="ssr:type" v="vegstrekning" />
	</node>
	<node lat="63.66674652494741" lon="10.440573573567987" id="-60209">
		<tag k="name" v="Skjettenskardhaugen" />
		<tag k="ssr:date" v="2019-05-30" />
		<tag k="ssr:gruppe" v="veg" />
		<tag k="ssr:hovedgruppe" v="infrastruktur" />
		<tag k="ssr:stedsnr" v="974897" />
		<tag k="ssr:type" v="adressenavn" />
	</node>
	<node lat="63.68685889014815" lon="10.430088206289058" id="-60211">
		<tag k="name" v="Ytterlangen" />
		<tag k="ssr:date" v="2019-05-30" />
		<tag k="ssr:gruppe" v="veg" />
		<tag k="ssr:hovedgruppe" v="infrastruktur" />
		<tag k="ssr:stedsnr" v="975088" />
		<tag k="ssr:type" v="adressenavn" />
	</node>
	<node lat="63.583220707553906" lon="9.959283689444923" id="-60213">
		<tag k="name" v="Indre Fosen kommune" />
		<tag k="ssr:date" v="2021-06-08" />
		<tag k="ssr:gruppe" v="administrativeIndelinger" />
		<tag k="ssr:hovedgruppe" v="offentligAdministrasjon" />
		<tag k="ssr:stedsnr" v="980675" />
		<tag k="ssr:type" v="kommune" />
	</node>
	<node lat="63.54881388896521" lon="10.191980553301855" id="-60762">
		<tag k="name" v="Dulu" />
		<tag k="ssr:date" v="2021-06-08" />
		<tag k="ssr:gruppe" v="veg" />
		<tag k="ssr:hovedgruppe" v="infrastruktur" />
		<tag k="ssr:stedsnr" v="121885" />
		<tag k="ssr:type" v="adressetilleggsnavn" />
	</node>
	<node lat="63.76609722148972" lon="10.064947228809302" id="-61265">
		<tag k="name" v="Hardbakneset" />
		<tag k="ssr:date" v="2021-06-08" />
		<tag k="ssr:gruppe" v="navigasjon" />
		<tag k="ssr:hovedgruppe" v="infrastruktur" />
		<tag k="ssr:stedsnr" v="274957" />
		<tag k="ssr:type" v="fyrlykt" />
	</node>
	<node lat="63.57264167035107" lon="9.914655563653646" id="-61554">
		<tag k="name" v="Burmavegen" />
		<tag k="ssr:date" v="2018-01-09" />
		<tag k="ssr:gruppe" v="veg" />
		<tag k="ssr:hovedgruppe" v="infrastruktur" />
		<tag k="ssr:stedsnr" v="345250" />
		<tag k="ssr:type" v="vegstrekning" />
	</node>
	<node lat="63.54151666409239" lon="10.033772218717157" id="-61947">
		<tag k="name" v="Kleivan" />
		<tag k="ssr:date" v="2018-01-09" />
		<tag k="ssr:gruppe" v="veg" />
		<tag k="ssr:hovedgruppe" v="infrastruktur" />
		<tag k="ssr:stedsnr" v="407149" />
		<tag k="ssr:type" v="vegstrekning" />
	</node>
	<node lat="63.626527205329545" lon="9.806245183432406" id="-62111">
		<tag k="name" v="Hysneset" />
		<tag k="old_name" v="Hysnes" />
		<tag k="ssr:date" v="2020-09-10" />
		<tag k="ssr:gruppe" v="navigasjon" />
		<tag k="ssr:hovedgruppe" v="infrastruktur" />
		<tag k="ssr:stedsnr" v="438872" />
		<tag k="ssr:type" v="fyrlykt" />
	</node>
	<node lat="63.573447222213986" lon="9.908011104686945" id="-62241">
		<tag k="name" v="Djupdalsvegen" />
		<tag k="ssr:date" v="2018-01-09" />
		<tag k="ssr:gruppe" v="veg" />
		<tag k="ssr:hovedgruppe" v="infrastruktur" />
		<tag k="ssr:stedsnr" v="528271" />
		<tag k="ssr:type" v="vegstrekning" />
	</node>
	<node lat="63.486544443656406" lon="9.988838884052978" id="-62511">
		<tag k="name" v="Rødbergsneset" />
		<tag k="ssr:date" v="2021-06-08" />
		<tag k="ssr:gruppe" v="navigasjon" />
		<tag k="ssr:hovedgruppe" v="infrastruktur" />
		<tag k="ssr:stedsnr" v="584236" />
		<tag k="ssr:type" v="fyrlykt" />
	</node>
	<node lat="63.51232777829255" lon="9.97860555739187" id="-62527">
		<tag k="name" v="Skredderstien" />
		<tag k="ssr:date" v="2019-05-30" />
		<tag k="ssr:gruppe" v="veg" />
		<tag k="ssr:hovedgruppe" v="infrastruktur" />
		<tag k="ssr:stedsnr" v="587182" />
		<tag k="ssr:type" v="adressenavn" />
	</node>
	<node lat="63.70292777901172" lon="9.86391389721374" id="-62750">
		<tag k="name" v="Flesagalten" />
		<tag k="ssr:date" v="2021-06-08" />
		<tag k="ssr:gruppe" v="navigasjon" />
		<tag k="ssr:hovedgruppe" v="infrastruktur" />
		<tag k="ssr:stedsnr" v="619836" />
		<tag k="ssr:type" v="fyrlykt" />
	</node>
	<node lat="63.81248610768557" lon="10.554430564119668" id="-63071">
		<tag k="name" v="Kjerringtjønna" />
		<tag k="ssr:date" v="2019-12-27" />
		<tag k="ssr:gruppe" v="veg" />
		<tag k="ssr:hovedgruppe" v="infrastruktur" />
		<tag k="ssr:stedsnr" v="727229" />
		<tag k="ssr:type" v="adressenavn" />
	</node>
	<node lat="63.70891110950279" lon="10.620961120277906" id="-63351">
		<tag k="name" v="Melhus vestre" />
		<tag k="ssr:date" v="2018-01-09" />
		<tag k="ssr:gruppe" v="veg" />
		<tag k="ssr:hovedgruppe" v="infrastruktur" />
		<tag k="ssr:stedsnr" v="788984" />
		<tag k="ssr:type" v="adressetilleggsnavn" />
	</node>
</osm>
