<?xml version="1.0" encoding="UTF-8"?>
<osm generator="osmapis" version="0.6">
	<node id="-441725" lat="59.8554458241" lon="5.56500043756">
		<tag k="name" v="Luradalen" />
		<tag k="ssr:date" v="2019-05-30" />
		<tag k="ssr:gruppe" v="veg" />
		<tag k="ssr:hovedgruppe" v="infrastruktur" />
		<tag k="ssr:stedsnr" v="1037601" />
		<tag k="ssr:type" v="adressenavn" />
	</node>
	<node id="-442172" lat="59.7818083295" lon="5.52448888201">
		<tag k="alt_name" v="Leirvik hamn" />
		<tag k="name" v="Leirvik hamn lykt" />
		<tag k="ssr:date" v="2016-05-10" />
		<tag k="ssr:gruppe" v="navigasjon" />
		<tag k="ssr:hovedgruppe" v="infrastruktur" />
		<tag k="ssr:stedsnr" v="207134" />
		<tag k="ssr:type" v="fyrlykt" />
	</node>
	<node id="-442709" lat="59.7804777774" lon="5.50983054828">
		<tag k="alt_name" v="Skottaflu" />
		<tag k="name" v="Skottaflu lykt" />
		<tag k="ssr:date" v="2016-05-11" />
		<tag k="ssr:gruppe" v="navigasjon" />
		<tag k="ssr:hovedgruppe" v="infrastruktur" />
		<tag k="ssr:stedsnr" v="935129" />
		<tag k="ssr:type" v="fyrlykt" />
	</node>
	<node id="-442767" lat="59.7764658153" lon="5.39593745001">
		<tag k="name" v="Banevegen" />
		<tag k="ssr:date" v="2019-05-30" />
		<tag k="ssr:gruppe" v="veg" />
		<tag k="ssr:hovedgruppe" v="infrastruktur" />
		<tag k="ssr:stedsnr" v="975574" />
		<tag k="ssr:type" v="adressenavn" />
	</node>
	<node id="-441941" lat="59.7846500009" lon="5.33448055094">
		<tag k="alt_name" v="Stokkbleikjene" />
		<tag k="name" v="Stokkbleikjene lykt" />
		<tag k="ssr:date" v="2016-05-10" />
		<tag k="ssr:gruppe" v="navigasjon" />
		<tag k="ssr:hovedgruppe" v="infrastruktur" />
		<tag k="ssr:stedsnr" v="3472" />
		<tag k="ssr:type" v="fyrlykt" />
	</node>
	<node id="-441971" lat="59.7371916649" lon="5.38204445235">
		<tag k="alt_name" v="Brunsholmen" />
		<tag k="name" v="Brunsholmen lykt" />
		<tag k="ssr:date" v="2016-05-10" />
		<tag k="ssr:gruppe" v="navigasjon" />
		<tag k="ssr:hovedgruppe" v="infrastruktur" />
		<tag k="ssr:stedsnr" v="26417" />
		<tag k="ssr:type" v="fyrlykt" />
	</node>
	<node id="-442483" lat="59.8413666671" lon="5.53597500681">
		<tag k="alt_name" v="Grovaholmen" />
		<tag k="name" v="Grovaholmen lykt" />
		<tag k="ssr:date" v="2016-05-10" />
		<tag k="ssr:gruppe" v="navigasjon" />
		<tag k="ssr:hovedgruppe" v="infrastruktur" />
		<tag k="ssr:stedsnr" v="671337" />
		<tag k="ssr:type" v="fyrlykt" />
	</node>
	<node id="-442287" lat="59.7792666634" lon="5.54200833898">
		<tag k="alt_name" v="Leirvik" />
		<tag k="name" v="Leirvik lykt" />
		<tag k="ssr:date" v="2016-05-10" />
		<tag k="ssr:gruppe" v="navigasjon" />
		<tag k="ssr:hovedgruppe" v="infrastruktur" />
		<tag k="ssr:stedsnr" v="489383" />
		<tag k="ssr:type" v="fyrlykt" />
	</node>
	<node id="-442766" lat="59.7658489495" lon="5.47066046123">
		<tag k="name" v="Langelandshaugen" />
		<tag k="ssr:date" v="2019-05-30" />
		<tag k="ssr:gruppe" v="veg" />
		<tag k="ssr:hovedgruppe" v="infrastruktur" />
		<tag k="ssr:stedsnr" v="975573" />
		<tag k="ssr:type" v="adressenavn" />
	</node>
	<node id="-442765" lat="59.7654652459" lon="5.47009514649">
		<tag k="name" v="LangelandsstÃ¸len" />
		<tag k="ssr:date" v="2019-05-30" />
		<tag k="ssr:gruppe" v="veg" />
		<tag k="ssr:hovedgruppe" v="infrastruktur" />
		<tag k="ssr:stedsnr" v="975572" />
		<tag k="ssr:type" v="adressenavn" />
	</node>
	<node id="-442764" lat="60.8816104596" lon="6.30047518531">
		<tag k="name" v="Vestlandet" />
		<tag k="ssr:date" v="2019-01-06" />
		<tag k="ssr:gruppe" v="administrativeIndelinger" />
		<tag k="ssr:hovedgruppe" v="offentligAdministrasjon" />
		<tag k="ssr:stedsnr" v="974777" />
		<tag k="ssr:type" v="annenAdministrativInndeling" />
	</node>
	<node id="-442408" lat="59.7808863652" lon="5.49973740937">
		<tag k="alt_name" v="Stord" />
		<tag k="name" v="Stord kommune" />
		<tag k="ssr:date" v="2018-01-10" />
		<tag k="ssr:gruppe" v="administrativeIndelinger" />
		<tag k="ssr:hovedgruppe" v="offentligAdministrasjon" />
		<tag k="ssr:stedsnr" v="587307" />
		<tag k="ssr:type" v="kommune" />
	</node>
	<node id="-441958" lat="59.7749416699" lon="5.52008888893">
		<tag k="alt_name" v="Sponaholmen" />
		<tag k="name" v="Sponaholmen lykt" />
		<tag k="ssr:date" v="2016-05-10" />
		<tag k="ssr:gruppe" v="navigasjon" />
		<tag k="ssr:hovedgruppe" v="infrastruktur" />
		<tag k="ssr:stedsnr" v="25137" />
		<tag k="ssr:type" v="fyrlykt" />
	</node>
</osm>
