<?xml version="1.0" encoding="UTF-8"?>
<<<<<<< HEAD
<osm version="0.6" generator="osmapis">
	<node lat="59.55788061671551" lon="5.3964784169351425" id="-34982">
		<tag k="name" v="Kvassåspøyla" />
=======
<osm generator="osmapis" version="0.6">
	<node id="-600640" lat="59.5823583341" lon="5.41194166723">
		<tag k="name" v="Bukkamyra" />
>>>>>>> e1d4bc35ff8a6074a6f2e91616a996b547c36f15
		<tag k="natural" v="wetland" />
		<tag k="ssr:stedsnr" v="913233" />
	</node>
<<<<<<< HEAD
	<node lat="59.5823583341352" lon="5.411941667225878" id="-35126">
		<tag k="name" v="Bukkamyra" />
=======
	<node id="-601143" lat="59.5480611136" lon="5.37698888556">
		<tag k="name" v="Bjellandsmyrane" />
>>>>>>> e1d4bc35ff8a6074a6f2e91616a996b547c36f15
		<tag k="natural" v="wetland" />
		<tag k="ssr:stedsnr" v="87230" />
	</node>
<<<<<<< HEAD
	<node lat="59.538800003725626" lon="5.407597223832843" id="-35475">
		<tag k="name" v="Vigdarmyr" />
		<tag k="natural" v="wetland" />
		<tag k="ssr:stedsnr" v="511859" />
	</node>
	<node lat="59.50388055282234" lon="5.282166661407301" id="-35518">
=======
	<node id="-600341" lat="59.5578806167" lon="5.39647841694">
		<tag k="name" v="Kvassåspøyla" />
		<tag k="natural" v="wetland" />
		<tag k="ssr:stedsnr" v="913233" />
	</node>
	<node id="-601132" lat="59.5038805528" lon="5.28216666141">
>>>>>>> e1d4bc35ff8a6074a6f2e91616a996b547c36f15
		<tag k="name" v="Langemyr" />
		<tag k="natural" v="wetland" />
		<tag k="ssr:stedsnr" v="572238" />
	</node>
<<<<<<< HEAD
	<node lat="59.54806111356528" lon="5.37698888556395" id="-35534">
		<tag k="name" v="Bjellandsmyrane" />
		<tag k="natural" v="wetland" />
		<tag k="ssr:stedsnr" v="572892" />
=======
	<node id="-600040" lat="59.5388000037" lon="5.40759722383">
		<tag k="name" v="Vigdarmyr" />
		<tag k="natural" v="wetland" />
		<tag k="ssr:stedsnr" v="511859" />
>>>>>>> e1d4bc35ff8a6074a6f2e91616a996b547c36f15
	</node>
</osm>
