<?xml version="1.0" encoding="UTF-8"?>
<<<<<<< HEAD
<osm version="0.6" generator="osmapis">
	<node lat="59.612464236486346" lon="5.480551555780831" id="-34716">
		<tag k="alt_name" v="Vestre Vikebygd" />
=======
<osm generator="osmapis" version="0.6">
	<node id="-601108" lat="59.6124642365" lon="5.48055155578">
		<tag k="alt_name" v="Vestre Vikebygd" />
		<tag k="amenity" v="place_of_worship" />
		<tag k="denomination" v="lutheran" />
		<tag k="name" v="Førde kyrkje" />
		<tag k="religion" v="christian" />
		<tag k="ssr:stedsnr" v="549415" />
	</node>
	<node id="-600979" lat="59.6749624154" lon="5.46683616714">
		<tag k="alt_name" v="Valestrand" />
>>>>>>> e1d4bc35ff8a6074a6f2e91616a996b547c36f15
		<tag k="amenity" v="place_of_worship" />
		<tag k="denomination" v="lutheran" />
		<tag k="name" v="Førde kyrkje" />
		<tag k="religion" v="christian" />
		<tag k="ssr:stedsnr" v="549415" />
	</node>
<<<<<<< HEAD
	<node lat="59.695061688082845" lon="5.476004194492771" id="-35015">
=======
	<node id="-600498" lat="59.5432612509" lon="5.35142300197">
>>>>>>> e1d4bc35ff8a6074a6f2e91616a996b547c36f15
		<tag k="amenity" v="place_of_worship" />
		<tag k="denomination" v="lutheran" />
		<tag k="name" v="Valen kapell" />
		<tag k="religion" v="christian" />
		<tag k="ssr:stedsnr" v="990353" />
	</node>
<<<<<<< HEAD
	<node lat="59.54326125093172" lon="5.351423001971647" id="-35016">
=======
	<node id="-600497" lat="59.6950616881" lon="5.47600419449">
>>>>>>> e1d4bc35ff8a6074a6f2e91616a996b547c36f15
		<tag k="amenity" v="place_of_worship" />
		<tag k="denomination" v="lutheran" />
		<tag k="name" v="Sveio kyrkje" />
		<tag k="religion" v="christian" />
		<tag k="ssr:stedsnr" v="990357" />
	</node>
<<<<<<< HEAD
	<node lat="59.67496241539339" lon="5.46683616713508" id="-35357">
		<tag k="alt_name" v="Valestrand" />
		<tag k="amenity" v="place_of_worship" />
		<tag k="denomination" v="lutheran" />
		<tag k="name" v="Valestrand kyrkje" />
		<tag k="religion" v="christian" />
		<tag k="ssr:stedsnr" v="367973" />
	</node>
=======
>>>>>>> e1d4bc35ff8a6074a6f2e91616a996b547c36f15
</osm>
