<?xml version="1.0" encoding="UTF-8"?>
<osm version="0.6" generator="osmapis">
	<node lat="59.652180556837784" lon="5.525244437338864" id="-67160">
		<tag k="alt_name" v="Hovda;Store Hovda" />
		<tag k="name" v="Storehovda" />
		<tag k="natural" v="hill" />
		<tag k="place" v="locality" />
		<tag k="ssr:stedsnr" v="3026" />
	</node>
	<node lat="59.681061114939205" lon="5.487458336737853" id="-67163">
		<tag k="name" v="Dalshovda" />
		<tag k="natural" v="hill" />
		<tag k="place" v="locality" />
		<tag k="ssr:stedsnr" v="3037" />
	</node>
	<node lat="59.60549166615293" lon="5.457355548005112" id="-67169">
		<tag k="fixme" v="consider natural=peak for the most distinct mountains in the district" />
		<tag k="name" v="Islandsfjellet" />
		<tag k="natural" v="hill" />
		<tag k="place" v="locality" />
		<tag k="ssr:stedsnr" v="3756" />
	</node>
	<node lat="59.580647221152084" lon="5.358444443782709" id="-67171">
		<tag k="name" v="Såt" />
		<tag k="natural" v="hill" />
		<tag k="place" v="locality" />
		<tag k="ssr:stedsnr" v="3776" />
	</node>
	<node lat="59.56565555430803" lon="5.414341664008274" id="-67177">
		<tag k="name" v="Bråtene" />
		<tag k="place" v="locality" />
		<tag k="ssr:stedsnr" v="26022" />
	</node>
	<node lat="59.68698333200142" lon="5.488022221834835" id="-67186">
		<tag k="name" v="Sandkleivhaugane" />
		<tag k="natural" v="hill" />
		<tag k="place" v="locality" />
		<tag k="ssr:stedsnr" v="26613" />
	</node>
	<node lat="59.58234167011754" lon="5.331586103859793" id="-67187">
		<tag k="name" v="Litlasåt" />
		<tag k="natural" v="hill" />
		<tag k="place" v="locality" />
		<tag k="ssr:stedsnr" v="26593" />
	</node>
	<node lat="59.561777773687105" lon="5.356502781048227" id="-67188">
		<tag k="name" v="Grønhaug" />
		<tag k="natural" v="hill" />
		<tag k="place" v="locality" />
		<tag k="ssr:stedsnr" v="26597" />
	</node>
	<node lat="59.67546666838998" lon="5.520405559668873" id="-67197">
		<tag k="name" v="Bjørganipen" />
		<tag k="natural" v="hill" />
		<tag k="place" v="locality" />
		<tag k="ssr:stedsnr" v="63068" />
	</node>
	<node lat="59.65330278078039" lon="5.498425004108486" id="-67205">
		<tag k="alt_name" v="Staupsfjellet" />
		<tag k="fixme" v="consider natural=peak for the most distinct mountains in the district" />
		<tag k="name" v="Staupefjellet" />
		<tag k="natural" v="hill" />
		<tag k="place" v="locality" />
		<tag k="ssr:stedsnr" v="64019" />
	</node>
	<node lat="59.57280000229715" lon="5.447402777032453" id="-67209">
		<tag k="alt_name" v="Moldbrekkefjellet" />
		<tag k="fixme" v="consider natural=peak for the most distinct mountains in the district" />
		<tag k="name" v="Moldbrekkfjellet" />
		<tag k="natural" v="hill" />
		<tag k="place" v="locality" />
		<tag k="ssr:stedsnr" v="64212" />
	</node>
	<node lat="59.573488886184435" lon="5.418874997402381" id="-67210">
		<tag k="name" v="Aladalen" />
		<tag k="natural" v="valley" />
		<tag k="place" v="locality" />
		<tag k="ssr:stedsnr" v="64214" />
	</node>
	<node lat="59.55627499617509" lon="5.357058334498699" id="-67218">
		<tag k="fixme" v="consider natural=peak for the most distinct mountains in the district" />
		<tag k="name" v="Håvåsen" />
		<tag k="natural" v="hill" />
		<tag k="place" v="locality" />
		<tag k="ssr:stedsnr" v="65061" />
	</node>
	<node lat="59.604999995930655" lon="5.493508341070382" id="-67223">
		<tag k="fixme" v="consider natural=peak for the most distinct mountains in the district" />
		<tag k="name" v="Krofjellet" />
		<tag k="natural" v="hill" />
		<tag k="place" v="locality" />
		<tag k="ssr:stedsnr" v="245399" />
	</node>
	<node lat="59.58893610675735" lon="5.50451111302787" id="-67224">
		<tag k="name" v="Fisjereiret" />
		<tag k="place" v="locality" />
		<tag k="ssr:stedsnr" v="87128" />
	</node>
	<node lat="59.5679055579572" lon="5.407255550871368" id="-67225">
		<tag k="name" v="Stølshaugane" />
		<tag k="natural" v="hill" />
		<tag k="place" v="locality" />
		<tag k="ssr:stedsnr" v="87030" />
	</node>
	<node lat="59.52784166923753" lon="5.280738884564067" id="-67226">
		<tag k="name" v="Fløyen" />
		<tag k="natural" v="hill" />
		<tag k="place" v="locality" />
		<tag k="ssr:stedsnr" v="87071" />
	</node>
	<node lat="59.57505000196998" lon="5.341211103534752" id="-67229">
		<tag k="name" v="Varhaug" />
		<tag k="natural" v="hill" />
		<tag k="place" v="locality" />
		<tag k="ssr:stedsnr" v="87510" />
	</node>
	<node lat="59.695397219563404" lon="5.491066658378508" id="-67231">
		<tag k="name" v="Høgesnipsdalen" />
		<tag k="natural" v="valley" />
		<tag k="place" v="locality" />
		<tag k="ssr:stedsnr" v="87629" />
	</node>
	<node lat="59.70424444221368" lon="5.488349994328397" id="-67232">
		<tag k="name" v="Hovda" />
		<tag k="natural" v="hill" />
		<tag k="place" v="locality" />
		<tag k="ssr:stedsnr" v="87678" />
	</node>
	<node lat="59.49730000058118" lon="5.28623055811832" id="-67235">
		<tag k="name" v="Haugane" />
		<tag k="natural" v="hill" />
		<tag k="place" v="locality" />
		<tag k="ssr:stedsnr" v="87705" />
	</node>
	<node lat="59.598575003280764" lon="5.469852783741409" id="-67242">
		<tag k="name" v="Sjedler" />
		<tag k="place" v="locality" />
		<tag k="ssr:stedsnr" v="88779" />
	</node>
	<node lat="59.57503055452765" lon="5.394544449062431" id="-67254">
		<tag k="alt_name" v="Gardfjellet" />
		<tag k="fixme" v="consider natural=peak for the most distinct mountains in the district" />
		<tag k="name" v="Gardafjellet" />
		<tag k="natural" v="hill" />
		<tag k="place" v="locality" />
		<tag k="ssr:stedsnr" v="246751" />
	</node>
	<node lat="59.56805833103646" lon="5.3231722252992055" id="-67255">
		<tag k="fixme" v="consider natural=peak for the most distinct mountains in the district" />
		<tag k="name" v="Kvassåsen" />
		<tag k="natural" v="hill" />
		<tag k="place" v="locality" />
		<tag k="ssr:stedsnr" v="246752" />
	</node>
	<node lat="59.50333055260783" lon="5.357963888821218" id="-67261">
		<tag k="alt_name" v="Urafjellet" />
		<tag k="fixme" v="consider natural=peak for the most distinct mountains in the district" />
		<tag k="name" v="Urdafjellet" />
		<tag k="natural" v="hill" />
		<tag k="place" v="locality" />
		<tag k="ssr:stedsnr" v="124120" />
	</node>
	<node lat="59.668079261950574" lon="5.482953748841748" id="-67267">
		<tag k="alt_name" v="Lio" />
		<tag k="name" v="Ulvaråkersåta" />
		<tag k="natural" v="hill" />
		<tag k="place" v="locality" />
		<tag k="ssr:stedsnr" v="124062" />
	</node>
	<node lat="59.645046645161585" lon="5.459252380132977" id="-67270">
		<tag k="alt_name" v="Donsen" />
		<tag k="fixme" v="consider natural=peak for the most distinct mountains in the district" />
		<tag k="name" v="Doksen" />
		<tag k="natural" v="hill" />
		<tag k="place" v="locality" />
		<tag k="ssr:stedsnr" v="124905" />
	</node>
	<node lat="59.58727500285172" lon="5.438922226846647" id="-67276">
		<tag k="name" v="Balsvikebrotet" />
		<tag k="natural" v="ridge" />
		<tag k="place" v="locality" />
		<tag k="ssr:stedsnr" v="147003" />
	</node>
	<node lat="59.67744722672688" lon="5.532969447233254" id="-67278">
		<tag k="name" v="Haugen" />
		<tag k="natural" v="hill" />
		<tag k="place" v="locality" />
		<tag k="ssr:stedsnr" v="147176" />
	</node>
	<node lat="59.54208332908441" lon="5.3390361188073765" id="-67282">
		<tag k="name" v="Gjermundshaugen" />
		<tag k="natural" v="hill" />
		<tag k="place" v="locality" />
		<tag k="ssr:stedsnr" v="147511" />
	</node>
	<node lat="59.54282777573836" lon="5.491461110035899" id="-67285">
		<tag k="fixme" v="consider natural=peak for the most distinct mountains in the district" />
		<tag k="name" v="Tveitefjellet" />
		<tag k="natural" v="hill" />
		<tag k="place" v="locality" />
		<tag k="ssr:stedsnr" v="147809" />
	</node>
	<node lat="59.65554444537822" lon="5.478741661635976" id="-67286">
		<tag k="fixme" v="consider natural=peak for the most distinct mountains in the district" />
		<tag k="name" v="Brandåsen" />
		<tag k="natural" v="hill" />
		<tag k="place" v="locality" />
		<tag k="ssr:stedsnr" v="147815" />
	</node>
	<node lat="59.60109167070815" lon="5.473472228151568" id="-67291">
		<tag k="name" v="Sætrahaugen" />
		<tag k="natural" v="hill" />
		<tag k="place" v="locality" />
		<tag k="ssr:stedsnr" v="148817" />
	</node>
	<node lat="59.60628055836648" lon="5.4818611191026205" id="-67292">
		<tag k="name" v="Banndalen" />
		<tag k="natural" v="valley" />
		<tag k="place" v="locality" />
		<tag k="ssr:stedsnr" v="148818" />
	</node>
	<node lat="59.56580277853926" lon="5.527050004102819" id="-67303">
		<tag k="fixme" v="consider natural=peak for the most distinct mountains in the district" />
		<tag k="name" v="Rindane" />
		<tag k="natural" v="hill" />
		<tag k="place" v="locality" />
		<tag k="ssr:stedsnr" v="185331" />
	</node>
	<node lat="59.58746666614929" lon="5.502463880336209" id="-67311">
		<tag k="fixme" v="consider natural=peak for the most distinct mountains in the district" />
		<tag k="name" v="Bjørnåsen" />
		<tag k="natural" v="hill" />
		<tag k="place" v="locality" />
		<tag k="ssr:stedsnr" v="186079" />
	</node>
	<node lat="59.570847218402356" lon="5.447536118520322" id="-67321">
		<tag k="fixme" v="consider natural=peak for the most distinct mountains in the district" />
		<tag k="name" v="Ravnefjell" />
		<tag k="natural" v="hill" />
		<tag k="place" v="locality" />
		<tag k="ssr:stedsnr" v="208042" />
	</node>
	<node lat="59.59184167001426" lon="5.498999992135611" id="-67324">
		<tag k="fixme" v="consider natural=peak for the most distinct mountains in the district" />
		<tag k="name" v="Rotadalsåsen" />
		<tag k="natural" v="hill" />
		<tag k="place" v="locality" />
		<tag k="ssr:stedsnr" v="208138" />
	</node>
	<node lat="59.59836389138841" lon="5.522097220005174" id="-67325">
		<tag k="name" v="Geitaberget" />
		<tag k="natural" v="hill" />
		<tag k="place" v="locality" />
		<tag k="ssr:stedsnr" v="208182" />
	</node>
	<node lat="59.66731110756668" lon="5.505691665202477" id="-67326">
		<tag k="name" v="Steinsfjellnipen" />
		<tag k="natural" v="hill" />
		<tag k="place" v="locality" />
		<tag k="ssr:stedsnr" v="208187" />
	</node>
	<node lat="59.53932500289317" lon="5.320586112800262" id="-67328">
		<tag k="name" v="Raunehaugen" />
		<tag k="natural" v="hill" />
		<tag k="place" v="locality" />
		<tag k="ssr:stedsnr" v="208528" />
	</node>
	<node lat="59.54533610970124" lon="5.317161116976419" id="-67329">
		<tag k="name" v="Skinnstønibba" />
		<tag k="natural" v="hill" />
		<tag k="place" v="locality" />
		<tag k="ssr:stedsnr" v="208541" />
	</node>
	<node lat="59.579233330001976" lon="5.33246945310189" id="-67330">
		<tag k="name" v="Nuten" />
		<tag k="natural" v="hill" />
		<tag k="place" v="locality" />
		<tag k="ssr:stedsnr" v="208587" />
	</node>
	<node lat="59.48669444595067" lon="5.319850007383156" id="-67333">
		<tag k="name" v="Svehaug" />
		<tag k="natural" v="hill" />
		<tag k="place" v="locality" />
		<tag k="ssr:stedsnr" v="208712" />
	</node>
	<node lat="59.49548889013648" lon="5.362258332575588" id="-67334">
		<tag k="fixme" v="consider natural=peak for the most distinct mountains in the district" />
		<tag k="name" v="Vikafjellet" />
		<tag k="natural" v="hill" />
		<tag k="place" v="locality" />
		<tag k="ssr:stedsnr" v="208715" />
	</node>
	<node lat="59.58945277678695" lon="5.519516658578466" id="-67337">
		<tag k="name" v="Vågahaugen" />
		<tag k="natural" v="hill" />
		<tag k="place" v="locality" />
		<tag k="ssr:stedsnr" v="208818" />
	</node>
	<node lat="59.501127780144216" lon="5.251150003016174" id="-67341">
		<tag k="name" v="Strand" />
		<tag k="place" v="locality" />
		<tag k="ssr:stedsnr" v="269090" />
	</node>
	<node lat="59.642044446303316" lon="5.382072215059651" id="-67342">
		<tag k="name" v="Hilderhaugen" />
		<tag k="natural" v="hill" />
		<tag k="place" v="locality" />
		<tag k="ssr:stedsnr" v="269121" />
	</node>
	<node lat="59.66878055701471" lon="5.532600001931761" id="-67347">
		<tag k="name" v="Gråberget" />
		<tag k="natural" v="hill" />
		<tag k="place" v="locality" />
		<tag k="ssr:stedsnr" v="269183" />
	</node>
	<node lat="59.596172220140936" lon="5.509202781740478" id="-67348">
		<tag k="fixme" v="consider natural=peak for the most distinct mountains in the district" />
		<tag k="name" v="Buhaugåsen" />
		<tag k="natural" v="hill" />
		<tag k="place" v="locality" />
		<tag k="ssr:stedsnr" v="269189" />
	</node>
	<node lat="59.60607499591549" lon="5.47529445211825" id="-67350">
		<tag k="name" v="Longåsdalen" />
		<tag k="natural" v="valley" />
		<tag k="place" v="locality" />
		<tag k="ssr:stedsnr" v="209803" />
	</node>
	<node lat="59.527327776227274" lon="5.281391665239804" id="-67353">
		<tag k="name" v="Møsedalen" />
		<tag k="natural" v="valley" />
		<tag k="place" v="locality" />
		<tag k="ssr:stedsnr" v="269228" />
	</node>
	<node lat="59.635747225885915" lon="5.466441663317937" id="-67355">
		<tag k="fixme" v="consider natural=peak for the most distinct mountains in the district" />
		<tag k="name" v="Håvåsen" />
		<tag k="natural" v="hill" />
		<tag k="place" v="locality" />
		<tag k="ssr:stedsnr" v="269234" />
	</node>
	<node lat="59.558747218500756" lon="5.3407444533420785" id="-67359">
		<tag k="name" v="Øspehaugen" />
		<tag k="natural" v="hill" />
		<tag k="place" v="locality" />
		<tag k="ssr:stedsnr" v="269631" />
	</node>
	<node lat="59.517305559293014" lon="5.367952777439718" id="-67362">
		<tag k="name" v="Smørslagjå" />
		<tag k="place" v="locality" />
		<tag k="ssr:stedsnr" v="269501" />
	</node>
	<node lat="59.57543611057261" lon="5.3502777724243975" id="-67363">
		<tag k="name" v="Svehaug" />
		<tag k="natural" v="hill" />
		<tag k="place" v="locality" />
		<tag k="ssr:stedsnr" v="269520" />
	</node>
	<node lat="59.558938892176116" lon="5.320594445283131" id="-67364">
		<tag k="name" v="Varhaug" />
		<tag k="natural" v="hill" />
		<tag k="place" v="locality" />
		<tag k="ssr:stedsnr" v="269580" />
	</node>
	<node lat="59.554044447260765" lon="5.324652783336235" id="-67365">
		<tag k="name" v="Geitaberg" />
		<tag k="natural" v="hill" />
		<tag k="place" v="locality" />
		<tag k="ssr:stedsnr" v="269582" />
	</node>
	<node lat="59.4798305532147" lon="5.317966663552512" id="-67367">
		<tag k="fixme" v="consider natural=peak for the most distinct mountains in the district" />
		<tag k="name" v="Brattafjell" />
		<tag k="natural" v="hill" />
		<tag k="place" v="locality" />
		<tag k="ssr:stedsnr" v="269741" />
	</node>
	<node lat="59.480124999490045" lon="5.326561107517489" id="-67368">
		<tag k="fixme" v="consider natural=peak for the most distinct mountains in the district" />
		<tag k="name" v="Slettafjell" />
		<tag k="natural" v="hill" />
		<tag k="place" v="locality" />
		<tag k="ssr:stedsnr" v="269742" />
	</node>
	<node lat="59.67037777354388" lon="5.471141658415341" id="-67373">
		<tag k="name" v="Bergsdalen" />
		<tag k="natural" v="valley" />
		<tag k="place" v="locality" />
		<tag k="ssr:stedsnr" v="270770" />
	</node>
	<node lat="59.56600277997369" lon="5.447994436899273" id="-67377">
		<tag k="name" v="Beinhaug" />
		<tag k="natural" v="hill" />
		<tag k="place" v="locality" />
		<tag k="ssr:stedsnr" v="451052" />
	</node>
	<node lat="59.49032500190752" lon="5.3338472157670065" id="-67382">
		<tag k="fixme" v="consider natural=peak for the most distinct mountains in the district" />
		<tag k="name" v="Geitaråsen" />
		<tag k="natural" v="hill" />
		<tag k="place" v="locality" />
		<tag k="ssr:stedsnr" v="451104" />
	</node>
	<node lat="59.56664722304212" lon="5.510497227974943" id="-67385">
		<tag k="fixme" v="consider natural=peak for the most distinct mountains in the district" />
		<tag k="name" v="Vårefjellet" />
		<tag k="natural" v="hill" />
		<tag k="place" v="locality" />
		<tag k="ssr:stedsnr" v="451155" />
	</node>
	<node lat="59.6010166653668" lon="5.389644436775776" id="-67387">
		<tag k="name" v="Geitene" />
		<tag k="place" v="locality" />
		<tag k="ssr:stedsnr" v="451243" />
	</node>
	<node lat="59.512494440246684" lon="5.266319451358057" id="-67390">
		<tag k="name" v="Dalen" />
		<tag k="natural" v="valley" />
		<tag k="place" v="locality" />
		<tag k="ssr:stedsnr" v="451522" />
	</node>
	<node lat="59.579291668472344" lon="5.296722221507232" id="-67392">
		<tag k="name" v="Storhaug" />
		<tag k="natural" v="hill" />
		<tag k="place" v="locality" />
		<tag k="ssr:stedsnr" v="451536" />
	</node>
	<node lat="59.538377776674295" lon="5.30013610271508" id="-67393">
		<tag k="name" v="Kyrkjevarden" />
		<tag k="natural" v="hill" />
		<tag k="place" v="locality" />
		<tag k="ssr:stedsnr" v="451547" />
	</node>
	<node lat="59.545405558520045" lon="5.305897228718994" id="-67400">
		<tag k="name" v="Ritlehaug" />
		<tag k="natural" v="hill" />
		<tag k="place" v="locality" />
		<tag k="ssr:stedsnr" v="451551" />
	</node>
	<node lat="59.49389999673734" lon="5.318130552358475" id="-67403">
		<tag k="name" v="Torvhilderen" />
		<tag k="place" v="locality" />
		<tag k="ssr:stedsnr" v="451737" />
	</node>
	<node lat="59.538905557483815" lon="5.269205557231033" id="-67405">
		<tag k="fixme" v="consider natural=peak for the most distinct mountains in the district" />
		<tag k="name" v="Ornafjellet" />
		<tag k="natural" v="hill" />
		<tag k="place" v="locality" />
		<tag k="ssr:stedsnr" v="451753" />
	</node>
	<node lat="59.61585000254192" lon="5.493849994415793" id="-67413">
		<tag k="alt_name" v="Søre Solheimsdalen" />
		<tag k="name" v="Solheimsdalen" />
		<tag k="natural" v="valley" />
		<tag k="place" v="locality" />
		<tag k="ssr:stedsnr" v="246412" />
	</node>
	<node lat="59.52833611301413" lon="5.334172220959087" id="-67420">
		<tag k="name" v="Kvitaberg" />
		<tag k="natural" v="hill" />
		<tag k="place" v="locality" />
		<tag k="ssr:stedsnr" v="247067" />
	</node>
	<node lat="59.67573055403442" lon="5.460177773693708" id="-67421">
		<tag k="name" v="Risdalen" />
		<tag k="natural" v="valley" />
		<tag k="place" v="locality" />
		<tag k="ssr:stedsnr" v="452787" />
	</node>
	<node lat="59.647594445514045" lon="5.527580553843332" id="-67425">
		<tag k="name" v="Grasdalen" />
		<tag k="natural" v="valley" />
		<tag k="place" v="locality" />
		<tag k="ssr:stedsnr" v="268376" />
	</node>
	<node lat="59.67006388517074" lon="5.532738885044694" id="-67427">
		<tag k="name" v="Naustdalen" />
		<tag k="natural" v="valley" />
		<tag k="place" v="locality" />
		<tag k="ssr:stedsnr" v="269243" />
	</node>
	<node lat="59.57769722126581" lon="5.304366669207155" id="-67428">
		<tag k="name" v="Aredalen" />
		<tag k="natural" v="valley" />
		<tag k="place" v="locality" />
		<tag k="ssr:stedsnr" v="269532" />
	</node>
	<node lat="59.589058333297025" lon="5.306861105401852" id="-67429">
		<tag k="fixme" v="consider natural=peak for the most distinct mountains in the district" />
		<tag k="name" v="Tjørnaråsen" />
		<tag k="natural" v="hill" />
		<tag k="place" v="locality" />
		<tag k="ssr:stedsnr" v="269534" />
	</node>
	<node lat="59.59582222282079" lon="5.453138882686824" id="-67432">
		<tag k="fixme" v="consider natural=peak for the most distinct mountains in the district" />
		<tag k="name" v="Melskouåsen" />
		<tag k="natural" v="hill" />
		<tag k="place" v="locality" />
		<tag k="ssr:stedsnr" v="269805" />
	</node>
	<node lat="59.50528610866638" lon="5.285983338485451" id="-67437">
		<tag k="name" v="Vokshaug" />
		<tag k="natural" v="hill" />
		<tag k="place" v="locality" />
		<tag k="ssr:stedsnr" v="269727" />
	</node>
	<node lat="59.49691111228446" lon="5.352047226019334" id="-67438">
		<tag k="name" v="Gjermundshaugen" />
		<tag k="natural" v="hill" />
		<tag k="place" v="locality" />
		<tag k="ssr:stedsnr" v="269731" />
	</node>
	<node lat="59.48685555486795" lon="5.383724995613167" id="-67440">
		<tag k="fixme" v="consider natural=peak for the most distinct mountains in the district" />
		<tag k="name" v="Gliråsen" />
		<tag k="natural" v="hill" />
		<tag k="place" v="locality" />
		<tag k="ssr:stedsnr" v="269911" />
	</node>
	<node lat="59.501944442952485" lon="5.392252781605907" id="-67441">
		<tag k="name" v="Revershaugen" />
		<tag k="natural" v="hill" />
		<tag k="place" v="locality" />
		<tag k="ssr:stedsnr" v="269915" />
	</node>
	<node lat="59.531536107992125" lon="5.401744447499855" id="-67443">
		<tag k="name" v="Litlevarden" />
		<tag k="natural" v="hill" />
		<tag k="place" v="locality" />
		<tag k="ssr:stedsnr" v="269880" />
	</node>
	<node lat="59.669563885676475" lon="5.454074998899485" id="-67445">
		<tag k="fixme" v="consider natural=peak for the most distinct mountains in the district" />
		<tag k="name" v="Øyefjellet" />
		<tag k="natural" v="hill" />
		<tag k="place" v="locality" />
		<tag k="ssr:stedsnr" v="270774" />
	</node>
	<node lat="59.535825000131794" lon="5.294986115629344" id="-67447">
		<tag k="name" v="Storhaug" />
		<tag k="natural" v="hill" />
		<tag k="place" v="locality" />
		<tag k="ssr:stedsnr" v="306202" />
	</node>
	<node lat="59.566133330439214" lon="5.401466668837661" id="-67448">
		<tag k="alt_name" v="Underbarshaugen" />
		<tag k="name" v="Underburdshaugen" />
		<tag k="natural" v="hill" />
		<tag k="place" v="locality" />
		<tag k="ssr:stedsnr" v="306218" />
	</node>
	<node lat="59.620772225794504" lon="5.399972216703018" id="-67460">
		<tag k="alt_name" v="Mjuko" />
		<tag k="name" v="Mjuk" />
		<tag k="natural" v="hill" />
		<tag k="place" v="locality" />
		<tag k="ssr:stedsnr" v="306857" />
	</node>
	<node lat="59.62355555103744" lon="5.500574997710563" id="-67464">
		<tag k="name" v="Dreng" />
		<tag k="natural" v="hill" />
		<tag k="place" v="locality" />
		<tag k="ssr:stedsnr" v="307458" />
	</node>
	<node lat="59.50181388808772" lon="5.281538888973744" id="-67466">
		<tag k="fixme" v="consider natural=peak for the most distinct mountains in the district" />
		<tag k="name" v="Tjørnaråsen" />
		<tag k="natural" v="hill" />
		<tag k="place" v="locality" />
		<tag k="ssr:stedsnr" v="511663" />
	</node>
	<node lat="59.59455000310147" lon="5.457216669853818" id="-67468">
		<tag k="fixme" v="consider natural=peak for the most distinct mountains in the district" />
		<tag k="name" v="Ørnåsen" />
		<tag k="natural" v="hill" />
		<tag k="place" v="locality" />
		<tag k="ssr:stedsnr" v="329756" />
	</node>
	<node lat="59.50571666225623" lon="5.396222215645986" id="-67470">
		<tag k="name" v="Laberget" />
		<tag k="natural" v="hill" />
		<tag k="place" v="locality" />
		<tag k="ssr:stedsnr" v="329907" />
	</node>
	<node lat="59.50031944620984" lon="5.393838883619607" id="-67471">
		<tag k="name" v="Kvitaberg" />
		<tag k="natural" v="hill" />
		<tag k="place" v="locality" />
		<tag k="ssr:stedsnr" v="329912" />
	</node>
	<node lat="59.58177777573452" lon="5.416344436245758" id="-67475">
		<tag k="name" v="Bjørnadlen" />
		<tag k="natural" v="valley" />
		<tag k="place" v="locality" />
		<tag k="ssr:stedsnr" v="330263" />
	</node>
	<node lat="59.72871944578573" lon="5.517902776356224" id="-67476">
		<tag k="name" v="Litla Brattaberg" />
		<tag k="natural" v="hill" />
		<tag k="place" v="locality" />
		<tag k="ssr:stedsnr" v="330172" />
	</node>
	<node lat="59.55293611289103" lon="5.4888972269064356" id="-67477">
		<tag k="name" v="Trondskår" />
		<tag k="place" v="locality" />
		<tag k="ssr:stedsnr" v="330174" />
	</node>
	<node lat="59.54948888739321" lon="5.33703054930488" id="-67479">
		<tag k="name" v="Kalvanuten" />
		<tag k="natural" v="hill" />
		<tag k="place" v="locality" />
		<tag k="ssr:stedsnr" v="330603" />
	</node>
	<node lat="59.52703888898861" lon="5.306569443205877" id="-67480">
		<tag k="name" v="Istertveit" />
		<tag k="place" v="locality" />
		<tag k="ssr:stedsnr" v="330556" />
	</node>
	<node lat="59.50171666851274" lon="5.337972217599515" id="-67481">
		<tag k="name" v="Rabbaskaret" />
		<tag k="natural" v="valley" />
		<tag k="place" v="locality" />
		<tag k="ssr:stedsnr" v="330763" />
	</node>
	<node lat="59.517533337204945" lon="5.407438892080898" id="-67486">
		<tag k="alt_name" v="Stutatrefjellet" />
		<tag k="fixme" v="consider natural=peak for the most distinct mountains in the district" />
		<tag k="name" v="Stutatræfjellet" />
		<tag k="natural" v="hill" />
		<tag k="place" v="locality" />
		<tag k="ssr:stedsnr" v="367117" />
	</node>
	<node lat="59.504397218556825" lon="5.34824723088592" id="-67487">
		<tag k="alt_name" v="Kjellehugen" />
		<tag k="name" v="Kjeldehaugen" />
		<tag k="natural" v="hill" />
		<tag k="place" v="locality" />
		<tag k="ssr:stedsnr" v="367121" />
	</node>
	<node lat="59.644308334008215" lon="5.503275007397674" id="-67496">
		<tag k="fixme" v="consider natural=peak for the most distinct mountains in the district" />
		<tag k="name" v="Maradalsfjellet" />
		<tag k="natural" v="hill" />
		<tag k="place" v="locality" />
		<tag k="ssr:stedsnr" v="367425" />
	</node>
	<node lat="59.58961110662136" lon="5.331505553558757" id="-67498">
		<tag k="fixme" v="consider natural=peak for the most distinct mountains in the district" />
		<tag k="name" v="Buaråsen" />
		<tag k="natural" v="hill" />
		<tag k="place" v="locality" />
		<tag k="ssr:stedsnr" v="367785" />
	</node>
	<node lat="59.566200000075106" lon="5.487216675203608" id="-67504">
		<tag k="name" v="Ravnabjør" />
		<tag k="natural" v="hill" />
		<tag k="place" v="locality" />
		<tag k="ssr:stedsnr" v="390149" />
	</node>
	<node lat="59.60883333338569" lon="5.4869166746540845" id="-67509">
		<tag k="name" v="Krohaugen" />
		<tag k="natural" v="hill" />
		<tag k="place" v="locality" />
		<tag k="ssr:stedsnr" v="390192" />
	</node>
	<node lat="59.59611667103538" lon="5.519152782118923" id="-67510">
		<tag k="name" v="Larsahaugen" />
		<tag k="natural" v="hill" />
		<tag k="place" v="locality" />
		<tag k="ssr:stedsnr" v="390199" />
	</node>
	<node lat="59.57810832880687" lon="5.289980552200912" id="-67513">
		<tag k="name" v="Båsahaug" />
		<tag k="natural" v="hill" />
		<tag k="place" v="locality" />
		<tag k="ssr:stedsnr" v="390495" />
	</node>
	<node lat="59.542036110191525" lon="5.358155564350623" id="-67514">
		<tag k="name" v="Mannaberg" />
		<tag k="natural" v="hill" />
		<tag k="place" v="locality" />
		<tag k="ssr:stedsnr" v="390500" />
	</node>
	<node lat="59.68741389204558" lon="5.516686102342135" id="-67515">
		<tag k="name" v="Litle Revadalen" />
		<tag k="natural" v="valley" />
		<tag k="place" v="locality" />
		<tag k="ssr:stedsnr" v="390605" />
	</node>
	<node lat="59.694869440876204" lon="5.521125004465092" id="-67516">
		<tag k="name" v="Dyralia" />
		<tag k="natural" v="slope" />
		<tag k="place" v="locality" />
		<tag k="ssr:stedsnr" v="390617" />
	</node>
	<node lat="59.62096388842147" lon="5.323311105341439" id="-67519">
		<tag k="name" v="Snørhaug" />
		<tag k="natural" v="hill" />
		<tag k="place" v="locality" />
		<tag k="ssr:stedsnr" v="390546" />
	</node>
	<node lat="59.553475003711505" lon="5.359066671176803" id="-67520">
		<tag k="name" v="Høghaug" />
		<tag k="natural" v="hill" />
		<tag k="place" v="locality" />
		<tag k="ssr:stedsnr" v="390590" />
	</node>
	<node lat="59.677450001096865" lon="5.4368861116595495" id="-67523">
		<tag k="name" v="Honningedalen" />
		<tag k="natural" v="valley" />
		<tag k="place" v="locality" />
		<tag k="ssr:stedsnr" v="390747" />
	</node>
	<node lat="59.598283335072885" lon="5.39566666649784" id="-67526">
		<tag k="name" v="Maurakjærhaug" />
		<tag k="natural" v="hill" />
		<tag k="place" v="locality" />
		<tag k="ssr:stedsnr" v="390802" />
	</node>
	<node lat="59.65301944570409" lon="5.450094436654613" id="-67527">
		<tag k="fixme" v="consider natural=peak for the most distinct mountains in the district" />
		<tag k="name" v="Eidesåsen" />
		<tag k="natural" v="hill" />
		<tag k="place" v="locality" />
		<tag k="ssr:stedsnr" v="390838" />
	</node>
	<node lat="59.643405553860894" lon="5.397127778821378" id="-67529">
		<tag k="name" v="Klubbane" />
		<tag k="place" v="locality" />
		<tag k="ssr:stedsnr" v="390844" />
	</node>
	<node lat="59.73040000070651" lon="5.528719444212113" id="-67536">
		<tag k="name" v="Skoghaug" />
		<tag k="natural" v="hill" />
		<tag k="place" v="locality" />
		<tag k="ssr:stedsnr" v="488086" />
	</node>
	<node lat="59.50113333040608" lon="5.408413887861017" id="-67539">
		<tag k="fixme" v="consider natural=peak for the most distinct mountains in the district" />
		<tag k="name" v="Storås" />
		<tag k="natural" v="hill" />
		<tag k="place" v="locality" />
		<tag k="ssr:stedsnr" v="488143" />
	</node>
	<node lat="59.547855552501545" lon="5.353633341383871" id="-67541">
		<tag k="alt_name" v="Steinhaugen" />
		<tag k="name" v="Steinshaugen" />
		<tag k="natural" v="hill" />
		<tag k="place" v="locality" />
		<tag k="ssr:stedsnr" v="488169" />
	</node>
	<node lat="59.611283333710176" lon="5.50520000640474" id="-67547">
		<tag k="alt_name" v="Varafjellet" />
		<tag k="fixme" v="consider natural=peak for the most distinct mountains in the district" />
		<tag k="name" v="Vardafjellet" />
		<tag k="natural" v="hill" />
		<tag k="place" v="locality" />
		<tag k="ssr:stedsnr" v="488389" />
	</node>
	<node lat="59.493511111243556" lon="5.344702785957028" id="-67548">
		<tag k="alt_name" v="Gitlafjell" />
		<tag k="fixme" v="consider natural=peak for the most distinct mountains in the district" />
		<tag k="name" v="Gitlafjellet" />
		<tag k="natural" v="hill" />
		<tag k="place" v="locality" />
		<tag k="ssr:stedsnr" v="488671" />
	</node>
	<node lat="59.61786666469876" lon="5.326166667845008" id="-67558">
		<tag k="name" v="Langhammar" />
		<tag k="natural" v="hill" />
		<tag k="place" v="locality" />
		<tag k="ssr:stedsnr" v="488864" />
	</node>
	<node lat="59.73053610667636" lon="5.520541667242337" id="-67560">
		<tag k="name" v="Stora Brattaberg" />
		<tag k="natural" v="cliff" />
		<tag k="ssr:stedsnr" v="421614" />
	</node>
	<node lat="59.51625833419761" lon="5.341286108139972" id="-67578">
		<tag k="alt_name" v="Tveitefjellet" />
		<tag k="fixme" v="consider natural=peak for the most distinct mountains in the district" />
		<tag k="name" v="Tveitfjellet" />
		<tag k="natural" v="hill" />
		<tag k="place" v="locality" />
		<tag k="ssr:stedsnr" v="671181" />
	</node>
	<node lat="59.59111460810237" lon="5.442046847049003" id="-67581">
		<tag k="fixme" v="consider natural=peak for the most distinct mountains in the district" />
		<tag k="name" v="Fagerliåsen" />
		<tag k="natural" v="hill" />
		<tag k="place" v="locality" />
		<tag k="ssr:stedsnr" v="451015" />
	</node>
	<node lat="59.66655277835922" lon="5.525572219265673" id="-67584">
		<tag k="name" v="Padlane" />
		<tag k="place" v="locality" />
		<tag k="ssr:stedsnr" v="451220" />
	</node>
	<node lat="59.66245277467932" lon="5.4925583355736425" id="-67585">
		<tag k="name" v="Kast" />
		<tag k="place" v="locality" />
		<tag k="ssr:stedsnr" v="451222" />
	</node>
	<node lat="59.59130833432323" lon="5.3307555585226725" id="-67588">
		<tag k="name" v="Kjellaren" />
		<tag k="place" v="locality" />
		<tag k="ssr:stedsnr" v="451613" />
	</node>
	<node lat="59.55527500373867" lon="5.370613881505395" id="-67589">
		<tag k="fixme" v="consider natural=peak for the most distinct mountains in the district" />
		<tag k="name" v="Maskusåsen" />
		<tag k="natural" v="hill" />
		<tag k="place" v="locality" />
		<tag k="ssr:stedsnr" v="451623" />
	</node>
	<node lat="59.7126611083467" lon="5.496619437393629" id="-67590">
		<tag k="fixme" v="consider natural=peak for the most distinct mountains in the district" />
		<tag k="name" v="Rabbåsen" />
		<tag k="natural" v="hill" />
		<tag k="place" v="locality" />
		<tag k="ssr:stedsnr" v="451663" />
	</node>
	<node lat="59.69811111271042" lon="5.480905548784407" id="-67591">
		<tag k="name" v="Mildebærshaugane" />
		<tag k="natural" v="hill" />
		<tag k="place" v="locality" />
		<tag k="ssr:stedsnr" v="451665" />
	</node>
	<node lat="59.70496666345305" lon="5.496594443090661" id="-67594">
		<tag k="name" v="Flatelia" />
		<tag k="natural" v="slope" />
		<tag k="place" v="locality" />
		<tag k="ssr:stedsnr" v="451680" />
	</node>
	<node lat="59.71312899464418" lon="5.520535031728276" id="-67595">
		<tag k="name" v="Gardhaug" />
		<tag k="natural" v="hill" />
		<tag k="place" v="locality" />
		<tag k="ssr:stedsnr" v="451682" />
	</node>
	<node lat="59.706736112801686" lon="5.528330554105505" id="-67596">
		<tag k="name" v="Storhaug" />
		<tag k="natural" v="hill" />
		<tag k="place" v="locality" />
		<tag k="ssr:stedsnr" v="451683" />
	</node>
	<node lat="59.59524166368278" lon="5.476569437145341" id="-67603">
		<tag k="name" v="Brendehaugen" />
		<tag k="natural" v="hill" />
		<tag k="place" v="locality" />
		<tag k="ssr:stedsnr" v="452813" />
	</node>
	<node lat="59.662549996480294" lon="5.512791667313681" id="-67605">
		<tag k="alt_name" v="Trollafjellet" />
		<tag k="fixme" v="consider natural=peak for the most distinct mountains in the district" />
		<tag k="name" v="Trollfjell" />
		<tag k="natural" v="hill" />
		<tag k="place" v="locality" />
		<tag k="ssr:stedsnr" v="488004" />
	</node>
	<node lat="59.63113333606617" lon="5.481552781934143" id="-67607">
		<tag k="fixme" v="consider natural=peak for the most distinct mountains in the district" />
		<tag k="name" v="Austvikfjellet" />
		<tag k="natural" v="hill" />
		<tag k="place" v="locality" />
		<tag k="ssr:stedsnr" v="488433" />
	</node>
	<node lat="59.58635278054015" lon="5.321774996847177" id="-67611">
		<tag k="fixme" v="consider natural=peak for the most distinct mountains in the district" />
		<tag k="name" v="Håvåsen" />
		<tag k="natural" v="hill" />
		<tag k="place" v="locality" />
		<tag k="ssr:stedsnr" v="488804" />
	</node>
	<node lat="59.621583329249795" lon="5.366961117471195" id="-67614">
		<tag k="name" v="Risdalen" />
		<tag k="natural" v="valley" />
		<tag k="place" v="locality" />
		<tag k="ssr:stedsnr" v="488816" />
	</node>
	<node lat="59.661099998871734" lon="5.419227774174339" id="-67615">
		<tag k="alt_name" v="Nappen, store;Nappen;Storenappen" />
		<tag k="name" v="Store Nappen" />
		<tag k="natural" v="hill" />
		<tag k="place" v="locality" />
		<tag k="ssr:stedsnr" v="488896" />
	</node>
	<node lat="59.51406944573719" lon="5.3880250078501195" id="-67617">
		<tag k="name" v="Langedalen" />
		<tag k="natural" v="valley" />
		<tag k="place" v="locality" />
		<tag k="ssr:stedsnr" v="489098" />
	</node>
	<node lat="59.69162499680973" lon="5.5179416607794" id="-67625">
		<tag k="name" v="Vekstnuten" />
		<tag k="natural" v="hill" />
		<tag k="place" v="locality" />
		<tag k="ssr:stedsnr" v="511612" />
	</node>
	<node lat="59.689919448472395" lon="5.491863889971354" id="-67626">
		<tag k="name" v="Stora Skorfeste" />
		<tag k="place" v="locality" />
		<tag k="ssr:stedsnr" v="511599" />
	</node>
	<node lat="59.51714166692847" lon="5.399302783479772" id="-67629">
		<tag k="name" v="Skrubbhaug" />
		<tag k="natural" v="hill" />
		<tag k="place" v="locality" />
		<tag k="ssr:stedsnr" v="511968" />
	</node>
	<node lat="59.47690277936711" lon="5.315930550273682" id="-67631">
		<tag k="fixme" v="consider natural=peak for the most distinct mountains in the district" />
		<tag k="name" v="Kleivafjell" />
		<tag k="natural" v="hill" />
		<tag k="place" v="locality" />
		<tag k="ssr:stedsnr" v="512217" />
	</node>
	<node lat="59.668266670721295" lon="5.49687778521079" id="-67633">
		<tag k="name" v="Staurlid" />
		<tag k="natural" v="slope" />
		<tag k="place" v="locality" />
		<tag k="ssr:stedsnr" v="512168" />
	</node>
	<node lat="59.545936114217064" lon="5.298816665408677" id="-67634">
		<tag k="name" v="Fuglesteinshaugane" />
		<tag k="natural" v="hill" />
		<tag k="place" v="locality" />
		<tag k="ssr:stedsnr" v="512571" />
	</node>
	<node lat="59.64441944416889" lon="5.450213881051975" id="-67639">
		<tag k="name" v="Skorvene" />
		<tag k="place" v="locality" />
		<tag k="ssr:stedsnr" v="512873" />
	</node>
	<node lat="59.66013333736755" lon="5.502527769670339" id="-67645">
		<tag k="name" v="Hansadalen" />
		<tag k="natural" v="valley" />
		<tag k="place" v="locality" />
		<tag k="ssr:stedsnr" v="549013" />
	</node>
	<node lat="59.68957500350314" lon="5.496919446965092" id="-67647">
		<tag k="alt_name" v="Skårefjellet" />
		<tag k="fixme" v="consider natural=peak for the most distinct mountains in the district" />
		<tag k="name" v="Skårefjell" />
		<tag k="natural" v="hill" />
		<tag k="place" v="locality" />
		<tag k="ssr:stedsnr" v="549061" />
	</node>
	<node lat="59.67809999941765" lon="5.497650007030258" id="-67648">
		<tag k="alt_name" v="Målefjellet" />
		<tag k="fixme" v="consider natural=peak for the most distinct mountains in the district" />
		<tag k="name" v="Målefjell" />
		<tag k="natural" v="hill" />
		<tag k="place" v="locality" />
		<tag k="ssr:stedsnr" v="549073" />
	</node>
	<node lat="59.5444222230733" lon="5.438322216391474" id="-67650">
		<tag k="fixme" v="consider natural=peak for the most distinct mountains in the district" />
		<tag k="name" v="Mækjelandsfjellet" />
		<tag k="natural" v="hill" />
		<tag k="place" v="locality" />
		<tag k="ssr:stedsnr" v="549204" />
	</node>
	<node lat="59.64617402108907" lon="5.455673434982759" id="-67658">
		<tag k="alt_name" v="Langhamro" />
		<tag k="fixme" v="consider natural=peak for the most distinct mountains in the district" />
		<tag k="name" v="Langhammar" />
		<tag k="natural" v="hill" />
		<tag k="place" v="locality" />
		<tag k="ssr:stedsnr" v="549908" />
	</node>
	<node lat="59.622327775566156" lon="5.420680554303561" id="-67660">
		<tag k="alt_name" v="Kjølhamro" />
		<tag k="name" v="Kjølhammar" />
		<tag k="natural" v="hill" />
		<tag k="place" v="locality" />
		<tag k="ssr:stedsnr" v="549848" />
	</node>
	<node lat="59.61316666646139" lon="5.368422222174188" id="-67661">
		<tag k="fixme" v="consider natural=peak for the most distinct mountains in the district" />
		<tag k="name" v="Åsbufjellet" />
		<tag k="natural" v="hill" />
		<tag k="place" v="locality" />
		<tag k="ssr:stedsnr" v="549853" />
	</node>
	<node lat="59.569036108981784" lon="5.449211112673195" id="-67669">
		<tag k="name" v="Kalven" />
		<tag k="natural" v="hill" />
		<tag k="place" v="locality" />
		<tag k="ssr:stedsnr" v="572049" />
	</node>
	<node lat="59.5349833303749" lon="5.4039055546683805" id="-67670">
		<tag k="name" v="Dalbakkhaugen" />
		<tag k="natural" v="hill" />
		<tag k="place" v="locality" />
		<tag k="ssr:stedsnr" v="572249" />
	</node>
	<node lat="59.63608055441001" lon="5.379883326858866" id="-67671">
		<tag k="name" v="Hesthamro" />
		<tag k="place" v="locality" />
		<tag k="ssr:stedsnr" v="572258" />
	</node>
	<node lat="59.582930558268174" lon="5.4242333414387085" id="-67674">
		<tag k="fixme" v="consider natural=peak for the most distinct mountains in the district" />
		<tag k="name" v="Kyrkjeåsen" />
		<tag k="natural" v="hill" />
		<tag k="place" v="locality" />
		<tag k="ssr:stedsnr" v="572156" />
	</node>
	<node lat="59.675072226338735" lon="5.493522221704287" id="-67676">
		<tag k="name" v="Kvernahaugen" />
		<tag k="natural" v="hill" />
		<tag k="place" v="locality" />
		<tag k="ssr:stedsnr" v="572198" />
	</node>
	<node lat="59.61039444160134" lon="5.378166668719443" id="-67683">
		<tag k="name" v="Fyrdalen" />
		<tag k="natural" v="valley" />
		<tag k="place" v="locality" />
		<tag k="ssr:stedsnr" v="572810" />
	</node>
	<node lat="59.61816944400717" lon="5.415652785376242" id="-67689">
		<tag k="name" v="Trollhaugen" />
		<tag k="natural" v="hill" />
		<tag k="place" v="locality" />
		<tag k="ssr:stedsnr" v="572966" />
	</node>
	<node lat="59.60105833619069" lon="5.496144448148175" id="-67690">
		<tag k="name" v="Selabakken" />
		<tag k="natural" v="slope" />
		<tag k="place" v="locality" />
		<tag k="ssr:stedsnr" v="694045" />
	</node>
	<node lat="59.54300833273161" lon="5.347602784945921" id="-67691">
		<tag k="name" v="Sveiahaugen" />
		<tag k="natural" v="hill" />
		<tag k="place" v="locality" />
		<tag k="ssr:stedsnr" v="694062" />
	</node>
	<node lat="59.65516666259979" lon="5.527436113647229" id="-67693">
		<tag k="name" v="Grasdalen" />
		<tag k="natural" v="valley" />
		<tag k="place" v="locality" />
		<tag k="ssr:stedsnr" v="694181" />
	</node>
	<node lat="59.59570555795457" lon="5.476430550406894" id="-67695">
		<tag k="name" v="Espesmoget" />
		<tag k="natural" v="valley" />
		<tag k="place" v="locality" />
		<tag k="ssr:stedsnr" v="694188" />
	</node>
	<node lat="59.62215000293356" lon="5.502508339684893" id="-67696">
		<tag k="name" v="Litle Dreng" />
		<tag k="natural" v="hill" />
		<tag k="place" v="locality" />
		<tag k="ssr:stedsnr" v="694140" />
	</node>
	<node lat="59.63665833085397" lon="5.493949996731854" id="-67698">
		<tag k="fixme" v="consider natural=peak for the most distinct mountains in the district" />
		<tag k="name" v="Eikefjellet" />
		<tag k="natural" v="hill" />
		<tag k="place" v="locality" />
		<tag k="ssr:stedsnr" v="694142" />
	</node>
	<node lat="59.622241669174905" lon="5.509300001951119" id="-67699">
		<tag k="name" v="Nordhaug" />
		<tag k="natural" v="hill" />
		<tag k="place" v="locality" />
		<tag k="ssr:stedsnr" v="694143" />
	</node>
	<node lat="59.67532777713911" lon="5.534438884149706" id="-67700">
		<tag k="fixme" v="consider natural=peak for the most distinct mountains in the district" />
		<tag k="name" v="Hedlo" />
		<tag k="natural" v="hill" />
		<tag k="place" v="locality" />
		<tag k="ssr:stedsnr" v="694156" />
	</node>
	<node lat="59.53629166325476" lon="5.320894450503465" id="-67701">
		<tag k="name" v="Likkvilehaugen" />
		<tag k="natural" v="hill" />
		<tag k="place" v="locality" />
		<tag k="ssr:stedsnr" v="694524" />
	</node>
	<node lat="59.54303333302705" lon="5.344230561296021" id="-67702">
		<tag k="name" v="Sveialøkjen" />
		<tag k="place" v="locality" />
		<tag k="ssr:stedsnr" v="694525" />
	</node>
	<node lat="59.562750001451064" lon="5.288305555302874" id="-67703">
		<tag k="name" v="Kvernaneset" />
		<tag k="place" v="locality" />
		<tag k="ssr:stedsnr" v="694595" />
	</node>
	<node lat="59.592174997338674" lon="5.348499991859189" id="-67704">
		<tag k="name" v="Torjulsdalen" />
		<tag k="natural" v="valley" />
		<tag k="place" v="locality" />
		<tag k="ssr:stedsnr" v="694596" />
	</node>
	<node lat="59.54196666557586" lon="5.325213883134045" id="-67705">
		<tag k="name" v="Revadalen" />
		<tag k="natural" v="valley" />
		<tag k="place" v="locality" />
		<tag k="ssr:stedsnr" v="694546" />
	</node>
	<node lat="59.683705551440944" lon="5.492155551142444" id="-67707">
		<tag k="name" v="Kvileskår" />
		<tag k="place" v="locality" />
		<tag k="ssr:stedsnr" v="694637" />
	</node>
	<node lat="59.67625555458998" lon="5.4386055472340455" id="-67709">
		<tag k="name" v="Vestre Havnarehaugen" />
		<tag k="natural" v="hill" />
		<tag k="place" v="locality" />
		<tag k="ssr:stedsnr" v="694765" />
	</node>
	<node lat="59.65294722392001" lon="5.439227771219048" id="-67713">
		<tag k="name" v="Relehaugane" />
		<tag k="natural" v="hill" />
		<tag k="place" v="locality" />
		<tag k="ssr:stedsnr" v="694834" />
	</node>
	<node lat="59.64318055859414" lon="5.478141666486646" id="-67714">
		<tag k="fixme" v="consider natural=peak for the most distinct mountains in the district" />
		<tag k="name" v="Grønåsen" />
		<tag k="natural" v="hill" />
		<tag k="place" v="locality" />
		<tag k="ssr:stedsnr" v="694839" />
	</node>
	<node lat="59.5025638925346" lon="5.398986108438522" id="-67718">
		<tag k="name" v="Tjødnarhaugen" />
		<tag k="natural" v="hill" />
		<tag k="place" v="locality" />
		<tag k="ssr:stedsnr" v="694926" />
	</node>
	<node lat="59.61570278216749" lon="5.426177775554221" id="-67721">
		<tag k="name" v="Varhaug" />
		<tag k="natural" v="hill" />
		<tag k="place" v="locality" />
		<tag k="ssr:stedsnr" v="694963" />
	</node>
	<node lat="59.57594999672011" lon="5.477488890876473" id="-67734">
		<tag k="alt_name" v="Toråsen" />
		<tag k="fixme" v="consider natural=peak for the most distinct mountains in the district" />
		<tag k="name" v="Foråsen" />
		<tag k="natural" v="hill" />
		<tag k="place" v="locality" />
		<tag k="ssr:stedsnr" v="610097" />
	</node>
	<node lat="59.51871389199689" lon="5.312611115062336" id="-67736">
		<tag k="alt_name" v="Ramsfjell" />
		<tag k="fixme" v="consider natural=peak for the most distinct mountains in the district" />
		<tag k="name" v="Ramsfjellet" />
		<tag k="natural" v="hill" />
		<tag k="place" v="locality" />
		<tag k="ssr:stedsnr" v="610224" />
	</node>
	<node lat="59.58220000142197" lon="5.336158336037899" id="-67740">
		<tag k="name" v="Klampen" />
		<tag k="natural" v="hill" />
		<tag k="place" v="locality" />
		<tag k="ssr:stedsnr" v="610806" />
	</node>
	<node lat="59.57569999618488" lon="5.289113882642084" id="-67744">
		<tag k="name" v="Djupedalen" />
		<tag k="natural" v="valley" />
		<tag k="place" v="locality" />
		<tag k="ssr:stedsnr" v="632529" />
	</node>
	<node lat="59.539016669025074" lon="5.2793277763209465" id="-67745">
		<tag k="name" v="Vandaskogsdalen" />
		<tag k="natural" v="valley" />
		<tag k="place" v="locality" />
		<tag k="ssr:stedsnr" v="632537" />
	</node>
	<node lat="59.591848448972925" lon="5.44797980819807" id="-67750">
		<tag k="name" v="Vassnesberget" />
		<tag k="natural" v="hill" />
		<tag k="place" v="locality" />
		<tag k="ssr:stedsnr" v="633008" />
	</node>
	<node lat="59.57136944553223" lon="5.393063896890465" id="-67751">
		<tag k="fixme" v="consider natural=peak for the most distinct mountains in the district" />
		<tag k="name" v="Søkefjellet" />
		<tag k="natural" v="hill" />
		<tag k="place" v="locality" />
		<tag k="ssr:stedsnr" v="633030" />
	</node>
	<node lat="59.66449721925553" lon="5.510933325531814" id="-67756">
		<tag k="name" v="Haugsbødalen" />
		<tag k="natural" v="valley" />
		<tag k="place" v="locality" />
		<tag k="ssr:stedsnr" v="633189" />
	</node>
	<node lat="59.58175277941433" lon="5.43724444037136" id="-67757">
		<tag k="name" v="Skorvehaugen" />
		<tag k="natural" v="hill" />
		<tag k="place" v="locality" />
		<tag k="ssr:stedsnr" v="633279" />
	</node>
	<node lat="59.57989444689559" lon="5.459197226764498" id="-67758">
		<tag k="name" v="Stovedalen" />
		<tag k="natural" v="valley" />
		<tag k="place" v="locality" />
		<tag k="ssr:stedsnr" v="633281" />
	</node>
	<node lat="59.68375833320437" lon="5.535697217682385" id="-67759">
		<tag k="name" v="Ravneberg" />
		<tag k="natural" v="hill" />
		<tag k="place" v="locality" />
		<tag k="ssr:stedsnr" v="633679" />
	</node>
	<node lat="59.691550002130064" lon="5.515575002915663" id="-67760">
		<tag k="name" v="Tidno" />
		<tag k="natural" v="hill" />
		<tag k="place" v="locality" />
		<tag k="ssr:stedsnr" v="633684" />
	</node>
	<node lat="59.59685000009778" lon="5.458799993226054" id="-67761">
		<tag k="fixme" v="consider natural=peak for the most distinct mountains in the district" />
		<tag k="name" v="Trollåsen" />
		<tag k="natural" v="hill" />
		<tag k="place" v="locality" />
		<tag k="ssr:stedsnr" v="633831" />
	</node>
	<node lat="59.59998055460971" lon="5.470719442861128" id="-67762">
		<tag k="name" v="Øykjadalen" />
		<tag k="natural" v="valley" />
		<tag k="place" v="locality" />
		<tag k="ssr:stedsnr" v="633834" />
	</node>
	<node lat="59.48152500055333" lon="5.332466666300587" id="-67764">
		<tag k="name" v="Stongavarden" />
		<tag k="natural" v="hill" />
		<tag k="place" v="locality" />
		<tag k="ssr:stedsnr" v="633752" />
	</node>
	<node lat="59.67652222454047" lon="5.441227769442551" id="-67767">
		<tag k="name" v="Austre Havnarehaugen" />
		<tag k="natural" v="hill" />
		<tag k="place" v="locality" />
		<tag k="ssr:stedsnr" v="633796" />
	</node>
	<node lat="59.68789911111581" lon="5.440941353805623" id="-67777">
		<tag k="alt_name" v="Ulvåkerhamaren;Ulverakershammaren" />
		<tag k="name" v="Ulvaråkerhamaren" />
		<tag k="natural" v="hill" />
		<tag k="place" v="locality" />
		<tag k="ssr:stedsnr" v="670994" />
	</node>
	<node lat="59.57184166625846" lon="5.4001999984595335" id="-67783">
		<tag k="name" v="Tveitalisåto" />
		<tag k="natural" v="hill" />
		<tag k="place" v="locality" />
		<tag k="ssr:stedsnr" v="694017" />
	</node>
	<node lat="59.586783329519506" lon="5.424461114055513" id="-67786">
		<tag k="name" v="Leito" />
		<tag k="place" v="locality" />
		<tag k="ssr:stedsnr" v="694216" />
	</node>
	<node lat="59.51670000167862" lon="5.353927783682187" id="-67788">
		<tag k="name" v="Stølsberget" />
		<tag k="natural" v="hill" />
		<tag k="place" v="locality" />
		<tag k="ssr:stedsnr" v="694511" />
	</node>
	<node lat="59.550891666906956" lon="5.331475007426529" id="-67791">
		<tag k="name" v="Longabrotet" />
		<tag k="natural" v="hill" />
		<tag k="place" v="locality" />
		<tag k="ssr:stedsnr" v="694622" />
	</node>
	<node lat="59.70104722042314" lon="5.495336119755529" id="-67792">
		<tag k="fixme" v="consider natural=peak for the most distinct mountains in the district" />
		<tag k="name" v="Sleimiåsen" />
		<tag k="natural" v="hill" />
		<tag k="place" v="locality" />
		<tag k="ssr:stedsnr" v="694625" />
	</node>
	<node lat="59.7087166664233" lon="5.522619443114616" id="-67793">
		<tag k="name" v="Vardasletta" />
		<tag k="place" v="locality" />
		<tag k="ssr:stedsnr" v="694669" />
	</node>
	<node lat="59.59987222612604" lon="5.340569436515771" id="-67795">
		<tag k="name" v="Roparhaugen" />
		<tag k="natural" v="hill" />
		<tag k="place" v="locality" />
		<tag k="ssr:stedsnr" v="694570" />
	</node>
	<node lat="59.6768250037537" lon="5.454516667664918" id="-67797">
		<tag k="name" v="Snørehaugen" />
		<tag k="natural" v="hill" />
		<tag k="place" v="locality" />
		<tag k="ssr:stedsnr" v="694771" />
	</node>
	<node lat="59.60195277885515" lon="5.451263897027664" id="-67799">
		<tag k="name" v="Geitalemen" />
		<tag k="place" v="locality" />
		<tag k="ssr:stedsnr" v="694783" />
	</node>
	<node lat="59.54358611529235" lon="5.416911117174898" id="-67801">
		<tag k="name" v="Bråtveithaugen" />
		<tag k="natural" v="hill" />
		<tag k="place" v="locality" />
		<tag k="ssr:stedsnr" v="694874" />
	</node>
	<node lat="59.66734166691771" lon="5.508900008242946" id="-67805">
		<tag k="alt_name" v="Steinsfjellet" />
		<tag k="fixme" v="consider natural=peak for the most distinct mountains in the district" />
		<tag k="name" v="Steinsfjell" />
		<tag k="natural" v="hill" />
		<tag k="place" v="locality" />
		<tag k="ssr:stedsnr" v="731006" />
	</node>
	<node lat="59.70596944722613" lon="5.502661118679097" id="-67810">
		<tag k="alt_name" v="Haugsgjerdsåta" />
		<tag k="name" v="Haugsgjerdesåta" />
		<tag k="natural" v="hill" />
		<tag k="place" v="locality" />
		<tag k="ssr:stedsnr" v="731070" />
	</node>
	<node lat="59.54659999918446" lon="5.481441673665616" id="-67811">
		<tag k="fixme" v="consider natural=peak for the most distinct mountains in the district" />
		<tag k="name" v="Hovdafjellet" />
		<tag k="natural" v="hill" />
		<tag k="place" v="locality" />
		<tag k="ssr:stedsnr" v="731280" />
	</node>
	<node lat="59.55878611068604" lon="5.5012250025578515" id="-67812">
		<tag k="alt_name" v="Husafjell" />
		<tag k="fixme" v="consider natural=peak for the most distinct mountains in the district" />
		<tag k="name" v="Husafjellet" />
		<tag k="natural" v="hill" />
		<tag k="place" v="locality" />
		<tag k="ssr:stedsnr" v="731284" />
	</node>
	<node lat="59.59026111104362" lon="5.504766666279804" id="-67820">
		<tag k="name" v="Brakhovda" />
		<tag k="natural" v="hill" />
		<tag k="place" v="locality" />
		<tag k="ssr:stedsnr" v="754158" />
	</node>
	<node lat="59.592666669568835" lon="5.494397221503704" id="-67821">
		<tag k="name" v="Mørkehaugen" />
		<tag k="natural" v="hill" />
		<tag k="place" v="locality" />
		<tag k="ssr:stedsnr" v="754167" />
	</node>
	<node lat="59.67101666894972" lon="5.507219435443859" id="-67823">
		<tag k="name" v="Orreskuffene" />
		<tag k="natural" v="hill" />
		<tag k="place" v="locality" />
		<tag k="ssr:stedsnr" v="754200" />
	</node>
	<node lat="59.59859722106264" lon="5.5122611147404905" id="-67824">
		<tag k="fixme" v="consider natural=peak for the most distinct mountains in the district" />
		<tag k="name" v="Gaddaråsen" />
		<tag k="natural" v="hill" />
		<tag k="place" v="locality" />
		<tag k="ssr:stedsnr" v="754201" />
	</node>
	<node lat="59.609052782249876" lon="5.49668056182871" id="-67825">
		<tag k="name" v="Stualandsdalen" />
		<tag k="natural" v="valley" />
		<tag k="place" v="locality" />
		<tag k="ssr:stedsnr" v="754208" />
	</node>
	<node lat="59.665961109430874" lon="5.438500003433459" id="-67827">
		<tag k="name" v="Hundaberget" />
		<tag k="natural" v="hill" />
		<tag k="place" v="locality" />
		<tag k="ssr:stedsnr" v="754263" />
	</node>
	<node lat="59.521852778320195" lon="5.264686108161004" id="-67828">
		<tag k="fixme" v="consider natural=peak for the most distinct mountains in the district" />
		<tag k="name" v="Skjeljevikfjellet" />
		<tag k="natural" v="hill" />
		<tag k="place" v="locality" />
		<tag k="ssr:stedsnr" v="754557" />
	</node>
	<node lat="59.5341805588391" lon="5.275230548708988" id="-67830">
		<tag k="name" v="Kviteberg" />
		<tag k="natural" v="hill" />
		<tag k="place" v="locality" />
		<tag k="ssr:stedsnr" v="754720" />
	</node>
	<node lat="59.51424166799278" lon="5.4455333355025655" id="-67832">
		<tag k="name" v="Tussatre" />
		<tag k="place" v="locality" />
		<tag k="ssr:stedsnr" v="754957" />
	</node>
	<node lat="59.60750278043204" lon="5.476244441421985" id="-67836">
		<tag k="name" v="Risdalen" />
		<tag k="natural" v="valley" />
		<tag k="place" v="locality" />
		<tag k="ssr:stedsnr" v="755814" />
	</node>
	<node lat="59.689280556068795" lon="5.464433333994805" id="-67845">
		<tag k="fixme" v="consider natural=peak for the most distinct mountains in the district" />
		<tag k="name" v="Dyråsen" />
		<tag k="natural" v="hill" />
		<tag k="place" v="locality" />
		<tag k="ssr:stedsnr" v="791991" />
	</node>
	<node lat="59.49203888725367" lon="5.3811527776962675" id="-67857">
		<tag k="fixme" v="consider natural=peak for the most distinct mountains in the district" />
		<tag k="name" v="Eikåsen" />
		<tag k="natural" v="hill" />
		<tag k="place" v="locality" />
		<tag k="ssr:stedsnr" v="913663" />
	</node>
	<node lat="59.69208055635446" lon="5.505986109707191" id="-67860">
		<tag k="alt_name" v="Trollavassnipen" />
		<tag k="fixme" v="consider natural=peak for the most distinct mountains in the district" />
		<tag k="name" v="Trollevassnibba" />
		<tag k="natural" v="hill" />
		<tag k="place" v="locality" />
		<tag k="ssr:stedsnr" v="914047" />
	</node>
	<node lat="59.52404444025771" lon="5.271263889049394" id="-67869">
		<tag k="name" v="Lindeberg" />
		<tag k="natural" v="hill" />
		<tag k="place" v="locality" />
		<tag k="ssr:stedsnr" v="815204" />
	</node>
	<node lat="59.58934443996452" lon="5.408516664650751" id="-67873">
		<tag k="name" v="Otrahaugen" />
		<tag k="natural" v="hill" />
		<tag k="place" v="locality" />
		<tag k="ssr:stedsnr" v="815239" />
	</node>
	<node lat="59.6941611087627" lon="5.511263896225471" id="-67874">
		<tag k="name" v="Vårliaksla" />
		<tag k="natural" v="ridge" />
		<tag k="place" v="locality" />
		<tag k="ssr:stedsnr" v="815603" />
	</node>
	<node lat="59.578894448686064" lon="5.5115611037632695" id="-67878">
		<tag k="name" v="Ørnanibba" />
		<tag k="natural" v="hill" />
		<tag k="place" v="locality" />
		<tag k="ssr:stedsnr" v="815826" />
	</node>
	<node lat="59.49240833015942" lon="5.375672222301645" id="-67879">
		<tag k="name" v="Nås" />
		<tag k="place" v="locality" />
		<tag k="ssr:stedsnr" v="815905" />
	</node>
	<node lat="59.556422226509156" lon="5.373230549243065" id="-67895">
		<tag k="name" v="Rossehaugen" />
		<tag k="natural" v="hill" />
		<tag k="place" v="locality" />
		<tag k="ssr:stedsnr" v="876026" />
	</node>
	<node lat="59.66539444779219" lon="5.527433331381376" id="-67896">
		<tag k="name" v="Gravet" />
		<tag k="place" v="locality" />
		<tag k="ssr:stedsnr" v="876208" />
	</node>
	<node lat="59.65915555796845" lon="5.4866805495973034" id="-67897">
		<tag k="name" v="Stemmen" />
		<tag k="place" v="locality" />
		<tag k="ssr:stedsnr" v="876210" />
	</node>
	<node lat="59.59585555806166" lon="5.4672416583811" id="-67900">
		<tag k="fixme" v="consider natural=peak for the most distinct mountains in the district" />
		<tag k="name" v="Dyråsen" />
		<tag k="natural" v="hill" />
		<tag k="place" v="locality" />
		<tag k="ssr:stedsnr" v="876804" />
	</node>
	<node lat="59.57355832934689" lon="5.513888893949522" id="-67901">
		<tag k="name" v="Galt" />
		<tag k="place" v="locality" />
		<tag k="ssr:stedsnr" v="876823" />
	</node>
	<node lat="59.669197221671936" lon="5.474719444706684" id="-67904">
		<tag k="name" v="Skjepelid" />
		<tag k="place" v="locality" />
		<tag k="ssr:stedsnr" v="876867" />
	</node>
	<node lat="59.51916944715026" lon="5.3951472200081945" id="-67907">
		<tag k="name" v="Kuhaugane" />
		<tag k="natural" v="hill" />
		<tag k="place" v="locality" />
		<tag k="ssr:stedsnr" v="876972" />
	</node>
	<node lat="59.57527500362067" lon="5.49065277266338" id="-67926">
		<tag k="fixme" v="consider natural=peak for the most distinct mountains in the district" />
		<tag k="name" v="Baståsen" />
		<tag k="natural" v="hill" />
		<tag k="place" v="locality" />
		<tag k="ssr:stedsnr" v="914104" />
	</node>
	<node lat="59.62709444759398" lon="5.478091668051049" id="-67932">
		<tag k="fixme" v="consider natural=peak for the most distinct mountains in the district" />
		<tag k="name" v="Husafjellet" />
		<tag k="natural" v="hill" />
		<tag k="place" v="locality" />
		<tag k="ssr:stedsnr" v="936096" />
	</node>
	<node lat="59.580186113934076" lon="5.367494442108383" id="-67934">
		<tag k="name" v="Lauvåshaugen" />
		<tag k="natural" v="hill" />
		<tag k="place" v="locality" />
		<tag k="ssr:stedsnr" v="936508" />
	</node>
	<node lat="59.50115833311107" lon="5.429083335985706" id="-67936">
		<tag k="name" v="Raudkleiv" />
		<tag k="natural" v="hill" />
		<tag k="place" v="locality" />
		<tag k="ssr:stedsnr" v="936897" />
	</node>
	<node lat="59.492219446914405" lon="5.381219439939684" id="-67937">
		<tag k="alt_name" v="Eikåsen" />
		<tag k="fixme" v="consider natural=peak for the most distinct mountains in the district" />
		<tag k="name" v="Eikåsane" />
		<tag k="natural" v="hill" />
		<tag k="place" v="locality" />
		<tag k="ssr:stedsnr" v="936898" />
	</node>
	<node lat="59.48790278093325" lon="5.3419111134005695" id="-67939">
		<tag k="name" v="Trengene" />
		<tag k="place" v="locality" />
		<tag k="ssr:stedsnr" v="937154" />
	</node>
	<node lat="59.55909166485716" lon="5.400502776616203" id="-67940">
		<tag k="fixme" v="consider natural=peak for the most distinct mountains in the district" />
		<tag k="name" v="Kvassåsen" />
		<tag k="natural" v="hill" />
		<tag k="place" v="locality" />
		<tag k="ssr:stedsnr" v="937034" />
	</node>
	<node lat="59.56007499743792" lon="5.386541669356764" id="-67941">
		<tag k="fixme" v="consider natural=peak for the most distinct mountains in the district" />
		<tag k="name" v="Tjørnaråsen" />
		<tag k="natural" v="hill" />
		<tag k="place" v="locality" />
		<tag k="ssr:stedsnr" v="937036" />
	</node>
	<node lat="59.665108337284856" lon="5.509680562624866" id="-67943">
		<tag k="name" v="Urdalen" />
		<tag k="natural" v="valley" />
		<tag k="place" v="locality" />
		<tag k="ssr:stedsnr" v="937203" />
	</node>
	<node lat="59.6080666705089" lon="5.494174996047937" id="-67945">
		<tag k="fixme" v="consider natural=peak for the most distinct mountains in the district" />
		<tag k="name" v="Seljedalsåsen" />
		<tag k="natural" v="hill" />
		<tag k="place" v="locality" />
		<tag k="ssr:stedsnr" v="937211" />
	</node>
	<node lat="59.68747777966354" lon="5.488863884209103" id="-67946">
		<tag k="name" v="Sandkleiv" />
		<tag k="natural" v="slope" />
		<tag k="place" v="locality" />
		<tag k="ssr:stedsnr" v="937683" />
	</node>
	<node lat="59.50087777333622" lon="5.333325000295998" id="-67947">
		<tag k="name" v="Tovdalen" />
		<tag k="natural" v="valley" />
		<tag k="place" v="locality" />
		<tag k="ssr:stedsnr" v="937746" />
	</node>
	<node lat="59.66959999688093" lon="5.460530550406852" id="-67948">
		<tag k="name" v="Sveio" />
		<tag k="natural" v="hill" />
		<tag k="place" v="locality" />
		<tag k="ssr:stedsnr" v="937803" />
	</node>
	<node lat="59.672586108405085" lon="5.4702277779494475" id="-67949">
		<tag k="name" v="Ekredalen" />
		<tag k="natural" v="valley" />
		<tag k="place" v="locality" />
		<tag k="ssr:stedsnr" v="937806" />
	</node>
	<node lat="59.67213889207467" lon="5.466766671845386" id="-67950">
		<tag k="name" v="Skiftesdalen" />
		<tag k="natural" v="valley" />
		<tag k="place" v="locality" />
		<tag k="ssr:stedsnr" v="937808" />
	</node>
	<node lat="59.52334444445197" lon="5.405199998710751" id="-67967">
		<tag k="alt_name" v="Dyngefjellet" />
		<tag k="name" v="Dyngjefjellet" />
		<tag k="natural" v="hill" />
		<tag k="place" v="locality" />
		<tag k="ssr:stedsnr" v="3157" />
	</node>
	<node lat="59.53435555500057" lon="5.324705552060902" id="-67972">
		<tag k="fixme" v="consider natural=peak for the most distinct mountains in the district" />
		<tag k="name" v="Kattabergsfjellet" />
		<tag k="natural" v="hill" />
		<tag k="place" v="locality" />
		<tag k="ssr:stedsnr" v="3185" />
	</node>
	<node lat="59.56993889242788" lon="5.3080555624731405" id="-67977">
		<tag k="alt_name" v="Trehovdefjellet" />
		<tag k="fixme" v="consider natural=peak for the most distinct mountains in the district" />
		<tag k="name" v="Trehovdfjellet" />
		<tag k="natural" v="hill" />
		<tag k="place" v="locality" />
		<tag k="ssr:stedsnr" v="3763" />
	</node>
	<node lat="59.6197055537511" lon="5.487438880911726" id="-67988">
		<tag k="name" v="Nordre Solheimsdalen" />
		<tag k="natural" v="valley" />
		<tag k="place" v="locality" />
		<tag k="ssr:stedsnr" v="26189" />
	</node>
	<node lat="59.563524999467695" lon="5.4915499925843205" id="-67996">
		<tag k="name" v="Kvernahaugen" />
		<tag k="natural" v="hill" />
		<tag k="place" v="locality" />
		<tag k="ssr:stedsnr" v="26169" />
	</node>
	<node lat="59.561283337208074" lon="5.31816111553469" id="-67998">
		<tag k="name" v="Øspedalen" />
		<tag k="natural" v="valley" />
		<tag k="place" v="locality" />
		<tag k="ssr:stedsnr" v="26600" />
	</node>
	<node lat="59.68251666995953" lon="5.468927783434409" id="-68002">
		<tag k="name" v="Kjosane" />
		<tag k="place" v="locality" />
		<tag k="ssr:stedsnr" v="26640" />
	</node>
	<node lat="59.70071666745119" lon="5.458794440545356" id="-68003">
		<tag k="name" v="Nappavarden" />
		<tag k="natural" v="hill" />
		<tag k="place" v="locality" />
		<tag k="ssr:stedsnr" v="26644" />
	</node>
	<node lat="59.59562500024508" lon="5.399569448256089" id="-68007">
		<tag k="fixme" v="consider natural=peak for the most distinct mountains in the district" />
		<tag k="name" v="Knutkodleåsen" />
		<tag k="natural" v="hill" />
		<tag k="place" v="locality" />
		<tag k="ssr:stedsnr" v="26767" />
	</node>
	<node lat="59.53796666346934" lon="5.435699998441458" id="-68011">
		<tag k="name" v="Høgehaugen" />
		<tag k="natural" v="hill" />
		<tag k="place" v="locality" />
		<tag k="ssr:stedsnr" v="26852" />
	</node>
	<node lat="59.65222499983897" lon="5.47559999754182" id="-68013">
		<tag k="name" v="Furahaugane" />
		<tag k="natural" v="hill" />
		<tag k="place" v="locality" />
		<tag k="ssr:stedsnr" v="26798" />
	</node>
	<node lat="59.49542499646859" lon="5.416833330590289" id="-68014">
		<tag k="name" v="Kupphaug" />
		<tag k="natural" v="hill" />
		<tag k="place" v="locality" />
		<tag k="ssr:stedsnr" v="26884" />
	</node>
	<node lat="59.49740555107122" lon="5.4071194379286815" id="-68015">
		<tag k="fixme" v="consider natural=peak for the most distinct mountains in the district" />
		<tag k="name" v="Litleås" />
		<tag k="natural" v="hill" />
		<tag k="place" v="locality" />
		<tag k="ssr:stedsnr" v="26890" />
	</node>
	<node lat="59.4891638920087" lon="5.388922215714927" id="-68016">
		<tag k="name" v="Melledalen" />
		<tag k="natural" v="valley" />
		<tag k="place" v="locality" />
		<tag k="ssr:stedsnr" v="26892" />
	</node>
	<node lat="59.63246944490019" lon="5.4064444522974" id="-68020">
		<tag k="name" v="Nibbo" />
		<tag k="natural" v="hill" />
		<tag k="place" v="locality" />
		<tag k="ssr:stedsnr" v="26949" />
	</node>
	<node lat="59.66229444191206" lon="5.461055562507743" id="-68022">
		<tag k="fixme" v="consider natural=peak for the most distinct mountains in the district" />
		<tag k="name" v="Kodlåsen" />
		<tag k="natural" v="hill" />
		<tag k="place" v="locality" />
		<tag k="ssr:stedsnr" v="27797" />
	</node>
	<node lat="59.548769442392796" lon="5.465702779521698" id="-68023">
		<tag k="name" v="Geithaug" />
		<tag k="natural" v="hill" />
		<tag k="place" v="locality" />
		<tag k="ssr:stedsnr" v="26989" />
	</node>
	<node lat="59.56222221911428" lon="5.460313886595843" id="-68032">
		<tag k="name" v="Lynghaug" />
		<tag k="natural" v="hill" />
		<tag k="place" v="locality" />
		<tag k="ssr:stedsnr" v="63258" />
	</node>
	<node lat="59.603663887639634" lon="5.509649997461556" id="-68034">
		<tag k="fixme" v="consider natural=peak for the most distinct mountains in the district" />
		<tag k="name" v="Flatbrufjellet" />
		<tag k="natural" v="hill" />
		<tag k="place" v="locality" />
		<tag k="ssr:stedsnr" v="63435" />
	</node>
	<node lat="59.602525003360604" lon="5.4799722276441525" id="-68035">
		<tag k="fixme" v="consider natural=peak for the most distinct mountains in the district" />
		<tag k="name" v="Bjørnåsen" />
		<tag k="natural" v="hill" />
		<tag k="place" v="locality" />
		<tag k="ssr:stedsnr" v="63440" />
	</node>
	<node lat="59.49044166839884" lon="5.30875000130609" id="-68037">
		<tag k="name" v="Skult" />
		<tag k="natural" v="hill" />
		<tag k="place" v="locality" />
		<tag k="ssr:stedsnr" v="63691" />
	</node>
	<node lat="59.593644447630496" lon="5.462275000563959" id="-68042">
		<tag k="alt_name" v="Lirefjellet" />
		<tag k="fixme" v="consider natural=peak for the most distinct mountains in the district" />
		<tag k="name" v="Lierfjellet" />
		<tag k="natural" v="hill" />
		<tag k="place" v="locality" />
		<tag k="ssr:stedsnr" v="63794" />
	</node>
	<node lat="59.679272219802016" lon="5.440941666938019" id="-68048">
		<tag k="fixme" v="consider natural=peak for the most distinct mountains in the district" />
		<tag k="name" v="Storåsen" />
		<tag k="natural" v="hill" />
		<tag k="place" v="locality" />
		<tag k="ssr:stedsnr" v="64998" />
	</node>
	<node lat="59.61836388840309" lon="5.507088897507903" id="-68050">
		<tag k="name" v="Niing" />
		<tag k="natural" v="hill" />
		<tag k="place" v="locality" />
		<tag k="ssr:stedsnr" v="64416" />
	</node>
	<node lat="59.6090027808336" lon="5.423802781286716" id="-68051">
		<tag k="fixme" v="consider natural=peak for the most distinct mountains in the district" />
		<tag k="name" v="Steinsfjellet" />
		<tag k="natural" v="hill" />
		<tag k="place" v="locality" />
		<tag k="ssr:stedsnr" v="64781" />
	</node>
	<node lat="59.54340833440875" lon="5.252552771780724" id="-68056">
		<tag k="fixme" v="consider natural=peak for the most distinct mountains in the district" />
		<tag k="name" v="Landsåt" />
		<tag k="natural" v="hill" />
		<tag k="place" v="locality" />
		<tag k="ssr:stedsnr" v="85003" />
	</node>
	<node lat="59.66776944632164" lon="5.508091668729761" id="-68061">
		<tag k="name" v="Varden" />
		<tag k="natural" v="hill" />
		<tag k="place" v="locality" />
		<tag k="ssr:stedsnr" v="87197" />
	</node>
	<node lat="59.669441668554306" lon="5.486225000092278" id="-68064">
		<tag k="name" v="Kjerandsbrotet" />
		<tag k="natural" v="hill" />
		<tag k="place" v="locality" />
		<tag k="ssr:stedsnr" v="87156" />
	</node>
	<node lat="59.53836388652209" lon="5.296277780428452" id="-68067">
		<tag k="name" v="Svehaug" />
		<tag k="natural" v="hill" />
		<tag k="place" v="locality" />
		<tag k="ssr:stedsnr" v="87534" />
	</node>
	<node lat="59.692647224593784" lon="5.521549992540246" id="-68069">
		<tag k="name" v="Sæterlia" />
		<tag k="natural" v="slope" />
		<tag k="place" v="locality" />
		<tag k="ssr:stedsnr" v="87638" />
	</node>
	<node lat="59.64272222051552" lon="5.45786944938957" id="-68073">
		<tag k="name" v="Maurasskåret" />
		<tag k="natural" v="valley" />
		<tag k="place" v="locality" />
		<tag k="ssr:stedsnr" v="87839" />
	</node>
	<node lat="59.539350003455084" lon="5.3953722183860515" id="-68076">
		<tag k="name" v="Hådyr" />
		<tag k="place" v="locality" />
		<tag k="ssr:stedsnr" v="87883" />
	</node>
	<node lat="59.636347226108406" lon="5.4726333243194984" id="-68077">
		<tag k="fixme" v="consider natural=peak for the most distinct mountains in the district" />
		<tag k="name" v="Geitåsen" />
		<tag k="natural" v="hill" />
		<tag k="place" v="locality" />
		<tag k="ssr:stedsnr" v="87933" />
	</node>
	<node lat="59.609377775151145" lon="5.3891916742742785" id="-68079">
		<tag k="name" v="Korkhaug" />
		<tag k="natural" v="hill" />
		<tag k="place" v="locality" />
		<tag k="ssr:stedsnr" v="87798" />
	</node>
	<node lat="59.59701388702519" lon="5.418894439165355" id="-68080">
		<tag k="alt_name" v="Grønhaug" />
		<tag k="name" v="Grønnhaug" />
		<tag k="natural" v="hill" />
		<tag k="place" v="locality" />
		<tag k="ssr:stedsnr" v="87799" />
	</node>
	<node lat="59.631461109470855" lon="5.480199994567112" id="-68081">
		<tag k="fixme" v="consider natural=peak for the most distinct mountains in the district" />
		<tag k="name" v="Austre Austvikfjellet" />
		<tag k="natural" v="hill" />
		<tag k="place" v="locality" />
		<tag k="ssr:stedsnr" v="87807" />
	</node>
	<node lat="59.53808889019113" lon="5.4618944489785894" id="-68082">
		<tag k="name" v="Flatnesskogen" />
		<tag k="place" v="locality" />
		<tag k="ssr:stedsnr" v="87997" />
	</node>
	<node lat="59.668366668341996" lon="5.474433327017988" id="-68083">
		<tag k="fixme" v="consider natural=peak for the most distinct mountains in the district" />
		<tag k="name" v="Høgabrotet" />
		<tag k="natural" v="hill" />
		<tag k="place" v="locality" />
		<tag k="ssr:stedsnr" v="88755" />
	</node>
	<node lat="59.67001944748203" lon="5.452330557344504" id="-68084">
		<tag k="name" v="Brudnadalen" />
		<tag k="natural" v="valley" />
		<tag k="place" v="locality" />
		<tag k="ssr:stedsnr" v="88757" />
	</node>
	<node lat="59.669122218555486" lon="5.4591527834585145" id="-68085">
		<tag k="name" v="Uradalen" />
		<tag k="natural" v="valley" />
		<tag k="place" v="locality" />
		<tag k="ssr:stedsnr" v="88759" />
	</node>
	<node lat="59.59643055888282" lon="5.473027783736319" id="-68086">
		<tag k="name" v="Stølshaugen" />
		<tag k="natural" v="hill" />
		<tag k="place" v="locality" />
		<tag k="ssr:stedsnr" v="88788" />
	</node>
	<node lat="59.625272222139394" lon="5.3670777702839425" id="-68108">
		<tag k="fixme" v="consider natural=peak for the most distinct mountains in the district" />
		<tag k="name" v="Slettafjellet" />
		<tag k="natural" v="hill" />
		<tag k="place" v="locality" />
		<tag k="ssr:stedsnr" v="124792" />
	</node>
	<node lat="59.62343333589756" lon="5.381455562680458" id="-68109">
		<tag k="name" v="Ormadalen" />
		<tag k="natural" v="valley" />
		<tag k="place" v="locality" />
		<tag k="ssr:stedsnr" v="124794" />
	</node>
	<node lat="59.56644999808943" lon="5.301255556965825" id="-68113">
		<tag k="fixme" v="consider natural=peak for the most distinct mountains in the district" />
		<tag k="name" v="Leitefjellet" />
		<tag k="natural" v="hill" />
		<tag k="place" v="locality" />
		<tag k="ssr:stedsnr" v="124744" />
	</node>
	<node lat="59.63159166746388" lon="5.39827221371253" id="-68114">
		<tag k="alt_name" v="Langhamro" />
		<tag k="name" v="Langhammar" />
		<tag k="natural" v="hill" />
		<tag k="place" v="locality" />
		<tag k="ssr:stedsnr" v="124808" />
	</node>
	<node lat="59.618899999644704" lon="5.376141665432588" id="-68116">
		<tag k="fixme" v="consider natural=peak for the most distinct mountains in the district" />
		<tag k="name" v="Tindafjellet" />
		<tag k="natural" v="hill" />
		<tag k="place" v="locality" />
		<tag k="ssr:stedsnr" v="124839" />
	</node>
	<node lat="59.72520833186006" lon="5.516455563438712" id="-68125">
		<tag k="name" v="Garbrekkhaugane" />
		<tag k="natural" v="hill" />
		<tag k="place" v="locality" />
		<tag k="ssr:stedsnr" v="147131" />
	</node>
	<node lat="59.56627500254581" lon="5.376875008225515" id="-68129">
		<tag k="name" v="Nordskogleitet" />
		<tag k="place" v="locality" />
		<tag k="ssr:stedsnr" v="147022" />
	</node>
	<node lat="59.56360000109917" lon="5.450136112434076" id="-68130">
		<tag k="name" v="Kjorthammer" />
		<tag k="natural" v="hill" />
		<tag k="place" v="locality" />
		<tag k="ssr:stedsnr" v="147033" />
	</node>
	<node lat="59.57100832913898" lon="5.350866659734222" id="-68131">
		<tag k="name" v="Klubben" />
		<tag k="natural" v="hill" />
		<tag k="place" v="locality" />
		<tag k="ssr:stedsnr" v="147586" />
	</node>
	<node lat="59.56651110700267" lon="5.340786110173666" id="-68132">
		<tag k="name" v="Lynghaugen" />
		<tag k="natural" v="hill" />
		<tag k="place" v="locality" />
		<tag k="ssr:stedsnr" v="147587" />
	</node>
	<node lat="59.55391110734816" lon="5.335811111409821" id="-68134">
		<tag k="name" v="Nygårdshaugen" />
		<tag k="natural" v="hill" />
		<tag k="place" v="locality" />
		<tag k="ssr:stedsnr" v="147599" />
	</node>
	<node lat="59.55555277496008" lon="5.348024994729882" id="-68135">
		<tag k="name" v="Sletthaugen" />
		<tag k="natural" v="hill" />
		<tag k="place" v="locality" />
		<tag k="ssr:stedsnr" v="147600" />
	</node>
	<node lat="59.68283611202388" lon="5.448719443498124" id="-68139">
		<tag k="name" v="Høgeberga" />
		<tag k="natural" v="hill" />
		<tag k="place" v="locality" />
		<tag k="ssr:stedsnr" v="147150" />
	</node>
	<node lat="59.63613453645894" lon="5.385933045432457" id="-68141">
		<tag k="name" v="Ospehaug" />
		<tag k="natural" v="hill" />
		<tag k="place" v="locality" />
		<tag k="ssr:stedsnr" v="147227" />
	</node>
	<node lat="59.645530554728076" lon="5.499655553827168" id="-68142">
		<tag k="name" v="Maradalen" />
		<tag k="natural" v="valley" />
		<tag k="place" v="locality" />
		<tag k="ssr:stedsnr" v="147203" />
	</node>
	<node lat="59.58243055330727" lon="5.347844447071382" id="-68144">
		<tag k="name" v="Loknarinda" />
		<tag k="place" v="locality" />
		<tag k="ssr:stedsnr" v="147491" />
	</node>
	<node lat="59.60223888649349" lon="5.399188886623038" id="-68147">
		<tag k="name" v="Gapestokken" />
		<tag k="place" v="locality" />
		<tag k="ssr:stedsnr" v="147783" />
	</node>
	<node lat="59.586066667674416" lon="5.5141666583063635" id="-68149">
		<tag k="name" v="Barhaugen" />
		<tag k="natural" v="hill" />
		<tag k="place" v="locality" />
		<tag k="ssr:stedsnr" v="147799" />
	</node>
	<node lat="59.531479371401964" lon="5.435042925117174" id="-68151">
		<tag k="alt_name" v="Kvalvågnon" />
		<tag k="name" v="Kvalhaugen" />
		<tag k="natural" v="hill" />
		<tag k="place" v="locality" />
		<tag k="ssr:stedsnr" v="147997" />
	</node>
	<node lat="59.672230551911646" lon="5.478438891500238" id="-68155">
		<tag k="name" v="Såta" />
		<tag k="natural" v="hill" />
		<tag k="place" v="locality" />
		<tag k="ssr:stedsnr" v="148795" />
	</node>
	<node lat="59.66447777941632" lon="5.476394444986365" id="-68156">
		<tag k="name" v="Langedalen" />
		<tag k="natural" v="valley" />
		<tag k="place" v="locality" />
		<tag k="ssr:stedsnr" v="148798" />
	</node>
	<node lat="59.53780277347546" lon="5.442491661195007" id="-68159">
		<tag k="alt_name" v="Nonhaugen" />
		<tag k="name" v="Nonshaugen" />
		<tag k="natural" v="hill" />
		<tag k="place" v="locality" />
		<tag k="ssr:stedsnr" v="185144" />
	</node>
	<node lat="59.557516663411405" lon="5.292175001612868" id="-68165">
		<tag k="alt_name" v="Varafjellet" />
		<tag k="fixme" v="consider natural=peak for the most distinct mountains in the district" />
		<tag k="name" v="Vardafjell" />
		<tag k="natural" v="hill" />
		<tag k="place" v="locality" />
		<tag k="ssr:stedsnr" v="185210" />
	</node>
	<node lat="59.56523055420574" lon="5.430313887670431" id="-68166">
		<tag k="alt_name" v="Varhaug" />
		<tag k="name" v="Vardhaug" />
		<tag k="natural" v="hill" />
		<tag k="place" v="locality" />
		<tag k="ssr:stedsnr" v="185220" />
	</node>
	<node lat="59.60092500212796" lon="5.395722217025741" id="-68168">
		<tag k="fixme" v="consider natural=peak for the most distinct mountains in the district" />
		<tag k="name" v="Emberlandsnipen" />
		<tag k="natural" v="hill" />
		<tag k="place" v="locality" />
		<tag k="ssr:stedsnr" v="185744" />
	</node>
	<node lat="59.60174999673782" lon="5.426524994926722" id="-68170">
		<tag k="alt_name" v="Håfjellet" />
		<tag k="fixme" v="consider natural=peak for the most distinct mountains in the district" />
		<tag k="name" v="Håfjell" />
		<tag k="natural" v="hill" />
		<tag k="place" v="locality" />
		<tag k="ssr:stedsnr" v="185747" />
	</node>
	<node lat="59.55410555462555" lon="5.4852250004861665" id="-68172">
		<tag k="alt_name" v="Norafjell" />
		<tag k="fixme" v="consider natural=peak for the most distinct mountains in the district" />
		<tag k="name" v="Nordrafjellet" />
		<tag k="natural" v="hill" />
		<tag k="place" v="locality" />
		<tag k="ssr:stedsnr" v="185315" />
	</node>
	<node lat="59.577680555525525" lon="5.360025002982681" id="-68175">
		<tag k="name" v="Varhaug" />
		<tag k="natural" v="hill" />
		<tag k="place" v="locality" />
		<tag k="ssr:stedsnr" v="185774" />
	</node>
	<node lat="59.546930558644135" lon="5.402330551804696" id="-68181">
		<tag k="fixme" v="consider natural=peak for the most distinct mountains in the district" />
		<tag k="name" v="Lauvåsen" />
		<tag k="natural" v="hill" />
		<tag k="place" v="locality" />
		<tag k="ssr:stedsnr" v="186069" />
	</node>
	<node lat="59.516527775297206" lon="5.381358338578302" id="-68182">
		<tag k="fixme" v="consider natural=peak for the most distinct mountains in the district" />
		<tag k="name" v="Håvåsen" />
		<tag k="natural" v="hill" />
		<tag k="place" v="locality" />
		<tag k="ssr:stedsnr" v="186073" />
	</node>
	<node lat="59.54036666738823" lon="5.255847225214428" id="-68184">
		<tag k="fixme" v="consider natural=peak for the most distinct mountains in the district" />
		<tag k="name" v="Ramnefjellet" />
		<tag k="natural" v="hill" />
		<tag k="place" v="locality" />
		<tag k="ssr:stedsnr" v="206012" />
	</node>
	<node lat="59.50426389291902" lon="5.414547216902384" id="-68185">
		<tag k="name" v="Pikhaug" />
		<tag k="natural" v="hill" />
		<tag k="place" v="locality" />
		<tag k="ssr:stedsnr" v="208208" />
	</node>
	<node lat="59.59386388476187" lon="5.50652222307693" id="-68190">
		<tag k="name" v="Brendehaugen" />
		<tag k="natural" v="hill" />
		<tag k="place" v="locality" />
		<tag k="ssr:stedsnr" v="208129" />
	</node>
	<node lat="59.5877055557232" lon="5.4111499994318955" id="-68195">
		<tag k="fixme" v="consider natural=peak for the most distinct mountains in the district" />
		<tag k="name" v="Abedåsen" />
		<tag k="natural" v="hill" />
		<tag k="place" v="locality" />
		<tag k="ssr:stedsnr" v="208246" />
	</node>
	<node lat="59.56156944648496" lon="5.348363889825706" id="-68197">
		<tag k="name" v="Sletthaugen" />
		<tag k="natural" v="hill" />
		<tag k="place" v="locality" />
		<tag k="ssr:stedsnr" v="208601" />
	</node>
	<node lat="59.6946583320532" lon="5.489397214118929" id="-68198">
		<tag k="name" v="Geitahaugane" />
		<tag k="natural" v="hill" />
		<tag k="place" v="locality" />
		<tag k="ssr:stedsnr" v="208609" />
	</node>
	<node lat="59.69431389197396" lon="5.537241674587227" id="-68199">
		<tag k="name" v="Loddekloven" />
		<tag k="natural" v="ridge" />
		<tag k="place" v="locality" />
		<tag k="ssr:stedsnr" v="208622" />
	</node>
	<node lat="59.69633611337226" lon="5.500099994903873" id="-68201">
		<tag k="name" v="Trollavassdalen" />
		<tag k="natural" v="valley" />
		<tag k="place" v="locality" />
		<tag k="ssr:stedsnr" v="208637" />
	</node>
	<node lat="59.68333611244612" lon="5.520627770293338" id="-68202">
		<tag k="name" v="Bjørgakammen" />
		<tag k="natural" v="ridge" />
		<tag k="place" v="locality" />
		<tag k="ssr:stedsnr" v="208638" />
	</node>
	<node lat="59.69209722453254" lon="5.466099994576641" id="-68203">
		<tag k="name" v="Tveitavarden" />
		<tag k="natural" v="hill" />
		<tag k="place" v="locality" />
		<tag k="ssr:stedsnr" v="208659" />
	</node>
	<node lat="59.537691666569074" lon="5.4139277781719155" id="-68211">
		<tag k="name" v="Kvernadalen" />
		<tag k="natural" v="valley" />
		<tag k="place" v="locality" />
		<tag k="ssr:stedsnr" v="208898" />
	</node>
	<node lat="59.674738884936424" lon="5.4751166692968685" id="-68214">
		<tag k="name" v="Budalshola" />
		<tag k="natural" v="valley" />
		<tag k="place" v="locality" />
		<tag k="ssr:stedsnr" v="209783" />
	</node>
	<node lat="59.66158889077675" lon="5.471661110979827" id="-68215">
		<tag k="name" v="Kråkesølvberget" />
		<tag k="natural" v="hill" />
		<tag k="place" v="locality" />
		<tag k="ssr:stedsnr" v="209792" />
	</node>
	<node lat="59.55686388573542" lon="5.5086138816142665" id="-68232">
		<tag k="fixme" v="consider natural=peak for the most distinct mountains in the district" />
		<tag k="name" v="Lauvåsen" />
		<tag k="natural" v="hill" />
		<tag k="place" v="locality" />
		<tag k="ssr:stedsnr" v="307092" />
	</node>
	<node lat="59.59118611152034" lon="5.341219436171058" id="-68241">
		<tag k="name" v="Klovningen" />
		<tag k="natural" v="hill" />
		<tag k="place" v="locality" />
		<tag k="ssr:stedsnr" v="330664" />
	</node>
	<node lat="59.620269443824476" lon="5.33731111897243" id="-68243">
		<tag k="name" v="Kuhaugen" />
		<tag k="natural" v="hill" />
		<tag k="place" v="locality" />
		<tag k="ssr:stedsnr" v="329563" />
	</node>
	<node lat="59.61933055451426" lon="5.315422220220067" id="-68247">
		<tag k="name" v="Tjernagelhaugen" />
		<tag k="natural" v="hill" />
		<tag k="place" v="locality" />
		<tag k="ssr:stedsnr" v="329551" />
	</node>
	<node lat="59.616025001772705" lon="5.421094445262219" id="-68251">
		<tag k="name" v="Livshaug" />
		<tag k="natural" v="hill" />
		<tag k="place" v="locality" />
		<tag k="ssr:stedsnr" v="330079" />
	</node>
	<node lat="59.62179566234221" lon="5.396038830641118" id="-68256">
		<tag k="name" v="Helenehaugen" />
		<tag k="natural" v="hill" />
		<tag k="place" v="locality" />
		<tag k="ssr:stedsnr" v="329977" />
	</node>
	<node lat="59.592516668877614" lon="5.455511114426339" id="-68261">
		<tag k="name" v="Longhamrane" />
		<tag k="natural" v="ridge" />
		<tag k="place" v="locality" />
		<tag k="ssr:stedsnr" v="330024" />
	</node>
	<node lat="59.57030277522287" lon="5.382494453370566" id="-68264">
		<tag k="name" v="Høkhaug" />
		<tag k="natural" v="hill" />
		<tag k="place" v="locality" />
		<tag k="ssr:stedsnr" v="330039" />
	</node>
	<node lat="59.67349444629182" lon="5.478224999869972" id="-68268">
		<tag k="name" v="Aksla" />
		<tag k="natural" v="hill" />
		<tag k="place" v="locality" />
		<tag k="ssr:stedsnr" v="330130" />
	</node>
	<node lat="59.66374166395935" lon="5.5008666636521255" id="-68271">
		<tag k="fixme" v="consider natural=peak for the most distinct mountains in the district" />
		<tag k="name" v="Rosskonefjellet" />
		<tag k="natural" v="hill" />
		<tag k="place" v="locality" />
		<tag k="ssr:stedsnr" v="330194" />
	</node>
	<node lat="59.574730554108704" lon="5.443438897432918" id="-68272">
		<tag k="fixme" v="consider natural=peak for the most distinct mountains in the district" />
		<tag k="name" v="Svefjellet" />
		<tag k="natural" v="hill" />
		<tag k="place" v="locality" />
		<tag k="ssr:stedsnr" v="330266" />
	</node>
	<node lat="59.69713055338701" lon="5.487775002942271" id="-68276">
		<tag k="name" v="Slettabakka" />
		<tag k="natural" v="slope" />
		<tag k="place" v="locality" />
		<tag k="ssr:stedsnr" v="330688" />
	</node>
	<node lat="59.59646944832126" lon="5.442047217099695" id="-68278">
		<tag k="fixme" v="consider natural=peak for the most distinct mountains in the district" />
		<tag k="name" v="Åsane" />
		<tag k="natural" v="hill" />
		<tag k="place" v="locality" />
		<tag k="ssr:stedsnr" v="330841" />
	</node>
	<node lat="59.48224444154355" lon="5.324311106359988" id="-68281">
		<tag k="fixme" v="consider natural=peak for the most distinct mountains in the district" />
		<tag k="name" v="Tindafjell" />
		<tag k="natural" v="hill" />
		<tag k="place" v="locality" />
		<tag k="ssr:stedsnr" v="330780" />
	</node>
	<node lat="59.56302499949672" lon="5.5071972143038685" id="-68293">
		<tag k="alt_name" v="Smiefjell" />
		<tag k="fixme" v="consider natural=peak for the most distinct mountains in the district" />
		<tag k="name" v="Smidjefjellet" />
		<tag k="natural" v="hill" />
		<tag k="place" v="locality" />
		<tag k="ssr:stedsnr" v="367289" />
	</node>
	<node lat="59.61217777816798" lon="5.498577781710552" id="-68296">
		<tag k="name" v="Espedalen" />
		<tag k="natural" v="valley" />
		<tag k="place" v="locality" />
		<tag k="ssr:stedsnr" v="367367" />
	</node>
	<node lat="59.68281944867504" lon="5.447108325324167" id="-68301">
		<tag k="fixme" v="consider natural=peak for the most distinct mountains in the district" />
		<tag k="name" v="Hjartåsen" />
		<tag k="natural" v="hill" />
		<tag k="place" v="locality" />
		<tag k="ssr:stedsnr" v="367996" />
	</node>
	<node lat="59.57481110985951" lon="5.331344438810838" id="-68303">
		<tag k="fixme" v="consider natural=peak for the most distinct mountains in the district" />
		<tag k="name" v="Nordskogfjellet" />
		<tag k="natural" v="hill" />
		<tag k="place" v="locality" />
		<tag k="ssr:stedsnr" v="367772" />
	</node>
	<node lat="59.53140555306867" lon="5.289722217296378" id="-68305">
		<tag k="fixme" v="consider natural=peak for the most distinct mountains in the district" />
		<tag k="name" v="Håvåsen" />
		<tag k="natural" v="hill" />
		<tag k="place" v="locality" />
		<tag k="ssr:stedsnr" v="368094" />
	</node>
	<node lat="59.58177499972889" lon="5.498852772992996" id="-68306">
		<tag k="fixme" v="consider natural=peak for the most distinct mountains in the district" />
		<tag k="name" v="Dyråsen" />
		<tag k="natural" v="hill" />
		<tag k="place" v="locality" />
		<tag k="ssr:stedsnr" v="368102" />
	</node>
	<node lat="59.565788891371156" lon="5.357966672710744" id="-68310">
		<tag k="name" v="Middagshaugen" />
		<tag k="natural" v="hill" />
		<tag k="place" v="locality" />
		<tag k="ssr:stedsnr" v="367764" />
	</node>
	<node lat="59.61830555254088" lon="5.390772215308361" id="-68313">
		<tag k="name" v="Skyggjeberget" />
		<tag k="natural" v="hill" />
		<tag k="place" v="locality" />
		<tag k="ssr:stedsnr" v="367850" />
	</node>
	<node lat="59.56541110878205" lon="5.410530560321794" id="-68316">
		<tag k="name" v="Kyrkjehaugen" />
		<tag k="natural" v="hill" />
		<tag k="place" v="locality" />
		<tag k="ssr:stedsnr" v="390028" />
	</node>
	<node lat="59.56561389094937" lon="5.444924992877031" id="-68317">
		<tag k="name" v="Klinko" />
		<tag k="place" v="locality" />
		<tag k="ssr:stedsnr" v="390035" />
	</node>
	<node lat="59.56815833508035" lon="5.4444833419495895" id="-68319">
		<tag k="name" v="Moldbrekkehaugen" />
		<tag k="natural" v="hill" />
		<tag k="place" v="locality" />
		<tag k="ssr:stedsnr" v="390041" />
	</node>
	<node lat="59.56890000156598" lon="5.389049991759145" id="-68320">
		<tag k="fixme" v="consider natural=peak for the most distinct mountains in the district" />
		<tag k="name" v="Husafjellet" />
		<tag k="natural" v="hill" />
		<tag k="place" v="locality" />
		<tag k="ssr:stedsnr" v="390068" />
	</node>
	<node lat="59.67177222616297" lon="5.488152778770499" id="-68324">
		<tag k="name" v="Pigghaugane" />
		<tag k="natural" v="hill" />
		<tag k="place" v="locality" />
		<tag k="ssr:stedsnr" v="390171" />
	</node>
	<node lat="59.66605833585627" lon="5.493625002709148" id="-68325">
		<tag k="fixme" v="consider natural=peak for the most distinct mountains in the district" />
		<tag k="name" v="Porsdalefjellet" />
		<tag k="natural" v="hill" />
		<tag k="place" v="locality" />
		<tag k="ssr:stedsnr" v="390174" />
	</node>
	<node lat="59.679850000287416" lon="5.506647223065004" id="-68326">
		<tag k="fixme" v="consider natural=peak for the most distinct mountains in the district" />
		<tag k="name" v="Saunanuten" />
		<tag k="natural" v="hill" />
		<tag k="place" v="locality" />
		<tag k="ssr:stedsnr" v="390179" />
	</node>
	<node lat="59.58666389255688" lon="5.4185333345803555" id="-68327">
		<tag k="name" v="Ospe" />
		<tag k="place" v="locality" />
		<tag k="ssr:stedsnr" v="390242" />
	</node>
	<node lat="59.502422223391484" lon="5.353816666130421" id="-68328">
		<tag k="fixme" v="consider natural=peak for the most distinct mountains in the district" />
		<tag k="name" v="Fårefjellet" />
		<tag k="natural" v="hill" />
		<tag k="place" v="locality" />
		<tag k="ssr:stedsnr" v="390695" />
	</node>
	<node lat="59.53694999738499" lon="5.2372583303983555" id="-68330">
		<tag k="name" v="Skotaberget" />
		<tag k="natural" v="hill" />
		<tag k="place" v="locality" />
		<tag k="ssr:stedsnr" v="390723" />
	</node>
	<node lat="59.50566666728082" lon="5.306877770214906" id="-68335">
		<tag k="fixme" v="consider natural=peak for the most distinct mountains in the district" />
		<tag k="name" v="Håvåsen" />
		<tag k="natural" v="hill" />
		<tag k="place" v="locality" />
		<tag k="ssr:stedsnr" v="390675" />
	</node>
	<node lat="59.61140833295052" lon="5.387727782671561" id="-68337">
		<tag k="name" v="Høge Varde" />
		<tag k="natural" v="hill" />
		<tag k="place" v="locality" />
		<tag k="ssr:stedsnr" v="390785" />
	</node>
	<node lat="59.54672222185302" lon="5.38912777873765" id="-68339">
		<tag k="name" v="Henrikshaugen" />
		<tag k="natural" v="hill" />
		<tag k="place" v="locality" />
		<tag k="ssr:stedsnr" v="390873" />
	</node>
	<node lat="59.575425002150396" lon="5.507836108372872" id="-68340">
		<tag k="name" v="Bjørkehaugen" />
		<tag k="natural" v="hill" />
		<tag k="place" v="locality" />
		<tag k="ssr:stedsnr" v="390816" />
	</node>
	<node lat="59.600333330960495" lon="5.367747225055423" id="-68343">
		<tag k="name" v="Vaulen" />
		<tag k="place" v="locality" />
		<tag k="ssr:stedsnr" v="390921" />
	</node>
	<node lat="59.699439983879586" lon="5.494565510323583" id="-68353">
		<tag k="name" v="Valesåta" />
		<tag k="natural" v="hill" />
		<tag k="place" v="locality" />
		<tag k="ssr:stedsnr" v="428088" />
	</node>
	<node lat="59.72971389321202" lon="5.519986104848639" id="-68355">
		<tag k="name" v="Brattaberg" />
		<tag k="natural" v="cliff" />
		<tag k="ssr:stedsnr" v="428093" />
	</node>
	<node lat="59.52850833460293" lon="5.275105559420701" id="-68359">
		<tag k="fixme" v="consider natural=peak for the most distinct mountains in the district" />
		<tag k="name" v="Husafjellet" />
		<tag k="natural" v="hill" />
		<tag k="place" v="locality" />
		<tag k="ssr:stedsnr" v="428186" />
	</node>
	<node lat="59.57429166213753" lon="5.4226361075898195" id="-68360">
		<tag k="fixme" v="consider natural=peak for the most distinct mountains in the district" />
		<tag k="name" v="Baståsen" />
		<tag k="natural" v="hill" />
		<tag k="place" v="locality" />
		<tag k="ssr:stedsnr" v="428191" />
	</node>
	<node lat="59.542325001983784" lon="5.493252770731073" id="-68370">
		<tag k="fixme" v="consider natural=peak for the most distinct mountains in the district" />
		<tag k="name" v="Tveitefjellet" />
		<tag k="natural" v="hill" />
		<tag k="place" v="locality" />
		<tag k="ssr:stedsnr" v="428284" />
	</node>
	<node lat="59.58005000170313" lon="5.512825004775931" id="-68373">
		<tag k="alt_name" v="Selsåsen" />
		<tag k="fixme" v="consider natural=peak for the most distinct mountains in the district" />
		<tag k="name" v="Selsåsåsen" />
		<tag k="natural" v="hill" />
		<tag k="place" v="locality" />
		<tag k="ssr:stedsnr" v="428342" />
	</node>
	<node lat="59.546127777218345" lon="5.323649992348938" id="-68377">
		<tag k="fixme" v="consider natural=peak for the most distinct mountains in the district" />
		<tag k="name" v="Rossafjellet" />
		<tag k="natural" v="hill" />
		<tag k="place" v="locality" />
		<tag k="ssr:stedsnr" v="428226" />
	</node>
	<node lat="59.59722499581689" lon="5.44388333319205" id="-68380">
		<tag k="name" v="Munnharpehaugen" />
		<tag k="natural" v="hill" />
		<tag k="place" v="locality" />
		<tag k="ssr:stedsnr" v="428753" />
	</node>
	<node lat="59.58962499854471" lon="5.361655550131153" id="-68393">
		<tag k="alt_name" v="Kinnafjellet" />
		<tag k="fixme" v="consider natural=peak for the most distinct mountains in the district" />
		<tag k="name" v="Kinnfjellet" />
		<tag k="natural" v="hill" />
		<tag k="place" v="locality" />
		<tag k="ssr:stedsnr" v="670798" />
	</node>
	<node lat="59.65479166381661" lon="5.444580559428723" id="-68399">
		<tag k="name" v="Pengehilleren" />
		<tag k="place" v="locality" />
		<tag k="ssr:stedsnr" v="511098" />
	</node>
	<node lat="59.70962499942021" lon="5.4775500086971345" id="-68401">
		<tag k="alt_name" v="Ottradalen" />
		<tag k="name" v="Otradalen" />
		<tag k="natural" v="valley" />
		<tag k="place" v="locality" />
		<tag k="ssr:stedsnr" v="511160" />
	</node>
	<node lat="59.59160000275119" lon="5.294405554075514" id="-68404">
		<tag k="alt_name" v="Laksberget" />
		<tag k="name" v="Lakseberget" />
		<tag k="natural" v="hill" />
		<tag k="place" v="locality" />
		<tag k="ssr:stedsnr" v="511496" />
	</node>
	<node lat="59.5727361079651" lon="5.34542499442509" id="-68405">
		<tag k="name" v="Långhamrå" />
		<tag k="natural" v="hill" />
		<tag k="place" v="locality" />
		<tag k="ssr:stedsnr" v="511498" />
	</node>
	<node lat="59.56314722243765" lon="5.313080560374869" id="-68406">
		<tag k="name" v="Ardalshaugen" />
		<tag k="natural" v="hill" />
		<tag k="place" v="locality" />
		<tag k="ssr:stedsnr" v="511554" />
	</node>
	<node lat="59.59045277999656" lon="5.349702785175551" id="-68408">
		<tag k="name" v="Rossehaug" />
		<tag k="natural" v="hill" />
		<tag k="place" v="locality" />
		<tag k="ssr:stedsnr" v="511571" />
	</node>
	<node lat="59.55363889004297" lon="5.3315111143166245" id="-68409">
		<tag k="fixme" v="consider natural=peak for the most distinct mountains in the district" />
		<tag k="name" v="Eikåsen" />
		<tag k="natural" v="hill" />
		<tag k="place" v="locality" />
		<tag k="ssr:stedsnr" v="511584" />
	</node>
	<node lat="59.50595555779766" lon="5.296025002991417" id="-68410">
		<tag k="name" v="Løkjene" />
		<tag k="place" v="locality" />
		<tag k="ssr:stedsnr" v="511666" />
	</node>
	<node lat="59.596830559039624" lon="5.376783338537352" id="-68411">
		<tag k="name" v="Kvernedalen" />
		<tag k="natural" v="valley" />
		<tag k="place" v="locality" />
		<tag k="ssr:stedsnr" v="511782" />
	</node>
	<node lat="59.62905000436272" lon="5.476772223737584" id="-68412">
		<tag k="fixme" v="consider natural=peak for the most distinct mountains in the district" />
		<tag k="name" v="Vestre Austvikfjellet" />
		<tag k="natural" v="hill" />
		<tag k="place" v="locality" />
		<tag k="ssr:stedsnr" v="511786" />
	</node>
	<node lat="59.56571110829838" lon="5.377672215523733" id="-68418">
		<tag k="name" v="Flathaug" />
		<tag k="natural" v="hill" />
		<tag k="place" v="locality" />
		<tag k="ssr:stedsnr" v="512022" />
	</node>
	<node lat="59.58400000396577" lon="5.417222229712122" id="-68421">
		<tag k="name" v="Bjelkhaug" />
		<tag k="natural" v="hill" />
		<tag k="place" v="locality" />
		<tag k="ssr:stedsnr" v="512242" />
	</node>
	<node lat="59.58073601904458" lon="5.414260408511467" id="-68422">
		<tag k="fixme" v="consider natural=peak for the most distinct mountains in the district" />
		<tag k="name" v="Litle Abedåsen" />
		<tag k="natural" v="hill" />
		<tag k="place" v="locality" />
		<tag k="ssr:stedsnr" v="512247" />
	</node>
	<node lat="59.58851111187303" lon="5.408763895144055" id="-68423">
		<tag k="name" v="Otrasmoget" />
		<tag k="natural" v="valley" />
		<tag k="place" v="locality" />
		<tag k="ssr:stedsnr" v="512252" />
	</node>
	<node lat="59.51233055622013" lon="5.340488896564286" id="-68425">
		<tag k="name" v="Håvaberg" />
		<tag k="natural" v="hill" />
		<tag k="place" v="locality" />
		<tag k="ssr:stedsnr" v="512541" />
	</node>
	<node lat="59.54237499753133" lon="5.309508328682566" id="-68440">
		<tag k="alt_name" v="Åsbuhaugane" />
		<tag k="name" v="Åsbuhaugen" />
		<tag k="natural" v="hill" />
		<tag k="place" v="locality" />
		<tag k="ssr:stedsnr" v="549199" />
	</node>
	<node lat="59.56989166576937" lon="5.402833326305685" id="-68456">
		<tag k="name" v="Tveitaskaret" />
		<tag k="natural" v="valley" />
		<tag k="place" v="locality" />
		<tag k="ssr:stedsnr" v="572023" />
	</node>
	<node lat="59.580424997566986" lon="5.449180556383442" id="-68459">
		<tag k="name" v="Skarhaugen" />
		<tag k="natural" v="hill" />
		<tag k="place" v="locality" />
		<tag k="ssr:stedsnr" v="572286" />
	</node>
	<node lat="59.536533335586626" lon="5.2909888836897645" id="-68460">
		<tag k="name" v="Ytre kvile" />
		<tag k="place" v="locality" />
		<tag k="ssr:stedsnr" v="572541" />
	</node>
	<node lat="59.504172222349496" lon="5.330769449863798" id="-68461">
		<tag k="name" v="Furehaugen" />
		<tag k="natural" v="hill" />
		<tag k="place" v="locality" />
		<tag k="ssr:stedsnr" v="572718" />
	</node>
	<node lat="59.4839694408965" lon="5.32739167096292" id="-68463">
		<tag k="name" v="Løkjerhaug" />
		<tag k="natural" v="hill" />
		<tag k="place" v="locality" />
		<tag k="ssr:stedsnr" v="572733" />
	</node>
	<node lat="59.5871805532362" lon="5.520483339799322" id="-68469">
		<tag k="name" v="Nausthaugen" />
		<tag k="natural" v="hill" />
		<tag k="place" v="locality" />
		<tag k="ssr:stedsnr" v="572834" />
	</node>
	<node lat="59.540372221576455" lon="5.437688895191306" id="-68473">
		<tag k="name" v="Kyrkegardshaugen" />
		<tag k="natural" v="hill" />
		<tag k="place" v="locality" />
		<tag k="ssr:stedsnr" v="572890" />
	</node>
	<node lat="59.61007777911159" lon="5.358183330714284" id="-68477">
		<tag k="name" v="Stonghaug" />
		<tag k="natural" v="hill" />
		<tag k="place" v="locality" />
		<tag k="ssr:stedsnr" v="670830" />
	</node>
	<node lat="59.55220555464352" lon="5.293769446121744" id="-68483">
		<tag k="name" v="Kvitaberg" />
		<tag k="natural" v="hill" />
		<tag k="place" v="locality" />
		<tag k="ssr:stedsnr" v="609227" />
	</node>
	<node lat="59.522174999190256" lon="5.496549994115883" id="-68490">
		<tag k="name" v="Tjuvalåven" />
		<tag k="place" v="locality" />
		<tag k="ssr:stedsnr" v="609262" />
	</node>
	<node lat="59.588325000683334" lon="5.493458331664171" id="-68492">
		<tag k="fixme" v="consider natural=peak for the most distinct mountains in the district" />
		<tag k="name" v="Børshovda" />
		<tag k="natural" v="hill" />
		<tag k="place" v="locality" />
		<tag k="ssr:stedsnr" v="609377" />
	</node>
	<node lat="59.523094449059926" lon="5.273191670573137" id="-68510">
		<tag k="name" v="Floven" />
		<tag k="natural" v="hill" />
		<tag k="place" v="locality" />
		<tag k="ssr:stedsnr" v="632547" />
	</node>
	<node lat="59.526922221096925" lon="5.3998555550027625" id="-68517">
		<tag k="name" v="Raunahaugen" />
		<tag k="natural" v="hill" />
		<tag k="place" v="locality" />
		<tag k="ssr:stedsnr" v="632974" />
	</node>
	<node lat="59.72481110754231" lon="5.522202779391436" id="-68519">
		<tag k="name" v="Hedlebergshaugane" />
		<tag k="natural" v="hill" />
		<tag k="place" v="locality" />
		<tag k="ssr:stedsnr" v="633151" />
	</node>
	<node lat="59.59025833336894" lon="5.486177771603879" id="-68520">
		<tag k="name" v="Miemaurhaugen" />
		<tag k="natural" v="hill" />
		<tag k="place" v="locality" />
		<tag k="ssr:stedsnr" v="633155" />
	</node>
	<node lat="59.50224999564159" lon="5.307630557930772" id="-68521">
		<tag k="fixme" v="consider natural=peak for the most distinct mountains in the district" />
		<tag k="name" v="Hushammar" />
		<tag k="natural" v="hill" />
		<tag k="place" v="locality" />
		<tag k="ssr:stedsnr" v="633238" />
	</node>
	<node lat="59.60566944315389" lon="5.467852783609633" id="-68524">
		<tag k="fixme" v="consider natural=peak for the most distinct mountains in the district" />
		<tag k="name" v="Hjartåsen" />
		<tag k="natural" v="hill" />
		<tag k="place" v="locality" />
		<tag k="ssr:stedsnr" v="633252" />
	</node>
	<node lat="59.58629166518462" lon="5.394183330528995" id="-68525">
		<tag k="name" v="Styrteplasset" />
		<tag k="place" v="locality" />
		<tag k="ssr:stedsnr" v="633264" />
	</node>
	<node lat="59.58474999909299" lon="5.414605550286179" id="-68528">
		<tag k="name" v="Kålhaugen" />
		<tag k="natural" v="hill" />
		<tag k="place" v="locality" />
		<tag k="ssr:stedsnr" v="633273" />
	</node>
	<node lat="59.70514722439947" lon="5.508358327251751" id="-68531">
		<tag k="name" v="Lauvhaugen" />
		<tag k="natural" v="hill" />
		<tag k="place" v="locality" />
		<tag k="ssr:stedsnr" v="633708" />
	</node>
	<node lat="59.67011389131067" lon="5.449661104381152" id="-68532">
		<tag k="name" v="Pikhaugen" />
		<tag k="natural" v="hill" />
		<tag k="place" v="locality" />
		<tag k="ssr:stedsnr" v="633803" />
	</node>
	<node lat="59.6963444478999" lon="5.490058333648149" id="-68536">
		<tag k="name" v="Sjursdalen" />
		<tag k="natural" v="valley" />
		<tag k="place" v="locality" />
		<tag k="ssr:stedsnr" v="633667" />
	</node>
	<node lat="59.596177775592224" lon="5.465252781886236" id="-68542">
		<tag k="name" v="Skogadalane" />
		<tag k="natural" v="valley" />
		<tag k="place" v="locality" />
		<tag k="ssr:stedsnr" v="633816" />
	</node>
	<node lat="59.50514444144675" lon="5.308222229784728" id="-68548">
		<tag k="alt_name" v="Rongavasshaugane" />
		<tag k="name" v="Rongvasshaugane" />
		<tag k="natural" v="hill" />
		<tag k="place" v="locality" />
		<tag k="ssr:stedsnr" v="670131" />
	</node>
	<node lat="59.57102499720193" lon="5.5290999916787245" id="-68555">
		<tag k="name" v="Framnesnotten" />
		<tag k="natural" v="hill" />
		<tag k="place" v="locality" />
		<tag k="ssr:stedsnr" v="670356" />
	</node>
	<node lat="59.58495555569295" lon="5.5198333320040645" id="-68556">
		<tag k="name" v="Preikestolen" />
		<tag k="natural" v="hill" />
		<tag k="place" v="locality" />
		<tag k="ssr:stedsnr" v="670369" />
	</node>
	<node lat="59.68665278228156" lon="5.501083340157812" id="-68561">
		<tag k="name" v="Monsvarden" />
		<tag k="natural" v="hill" />
		<tag k="place" v="locality" />
		<tag k="ssr:stedsnr" v="731031" />
	</node>
	<node lat="59.69290277596322" lon="5.493950008385443" id="-68562">
		<tag k="name" v="Høgesnipen" />
		<tag k="natural" v="hill" />
		<tag k="place" v="locality" />
		<tag k="ssr:stedsnr" v="731042" />
	</node>
	<node lat="59.562669447490805" lon="5.397788894681756" id="-68586">
		<tag k="name" v="Gunnarsvardane" />
		<tag k="natural" v="hill" />
		<tag k="place" v="locality" />
		<tag k="ssr:stedsnr" v="754031" />
	</node>
	<node lat="59.56275555218372" lon="5.391077781915376" id="-68587">
		<tag k="fixme" v="consider natural=peak for the most distinct mountains in the district" />
		<tag k="name" v="Store Reiaråsen" />
		<tag k="natural" v="hill" />
		<tag k="place" v="locality" />
		<tag k="ssr:stedsnr" v="754033" />
	</node>
	<node lat="59.563980558343395" lon="5.388905550568134" id="-68588">
		<tag k="fixme" v="consider natural=peak for the most distinct mountains in the district" />
		<tag k="name" v="Litle Reiaråsen" />
		<tag k="natural" v="hill" />
		<tag k="place" v="locality" />
		<tag k="ssr:stedsnr" v="754038" />
	</node>
	<node lat="59.62744722142537" lon="5.490291658271968" id="-68590">
		<tag k="name" v="Austvik-Rabben" />
		<tag k="natural" v="hill" />
		<tag k="place" v="locality" />
		<tag k="ssr:stedsnr" v="754124" />
	</node>
	<node lat="59.60751944232001" lon="5.477966666913362" id="-68591">
		<tag k="name" v="Storhaug" />
		<tag k="natural" v="hill" />
		<tag k="place" v="locality" />
		<tag k="ssr:stedsnr" v="754127" />
	</node>
	<node lat="59.55378610933506" lon="5.331275004574754" id="-68595">
		<tag k="name" v="Svehaug" />
		<tag k="natural" v="hill" />
		<tag k="place" v="locality" />
		<tag k="ssr:stedsnr" v="754079" />
	</node>
	<node lat="59.66719444629503" lon="5.490166667789939" id="-68599">
		<tag k="name" v="Porsdalen" />
		<tag k="natural" v="valley" />
		<tag k="place" v="locality" />
		<tag k="ssr:stedsnr" v="754193" />
	</node>
	<node lat="59.618761115190246" lon="5.331216674007845" id="-68608">
		<tag k="name" v="Svehaug" />
		<tag k="natural" v="hill" />
		<tag k="place" v="locality" />
		<tag k="ssr:stedsnr" v="754583" />
	</node>
	<node lat="59.52469444537167" lon="5.230777783154253" id="-68610">
		<tag k="name" v="Laks berget" />
		<tag k="natural" v="hill" />
		<tag k="place" v="locality" />
		<tag k="ssr:stedsnr" v="754739" />
	</node>
	<node lat="59.5963333333525" lon="5.4224250035996135" id="-68613">
		<tag k="name" v="Såta" />
		<tag k="natural" v="hill" />
		<tag k="place" v="locality" />
		<tag k="ssr:stedsnr" v="754798" />
	</node>
	<node lat="59.650924996788746" lon="5.473113891849334" id="-68615">
		<tag k="name" v="Bjørkehaugane" />
		<tag k="natural" v="hill" />
		<tag k="place" v="locality" />
		<tag k="ssr:stedsnr" v="754829" />
	</node>
	<node lat="59.63809166665342" lon="5.4511666584738885" id="-68616">
		<tag k="name" v="Hagavikshaugane" />
		<tag k="natural" v="hill" />
		<tag k="place" v="locality" />
		<tag k="ssr:stedsnr" v="754839" />
	</node>
	<node lat="59.53201110853999" lon="5.405341668626667" id="-68619">
		<tag k="name" v="Grønevarden" />
		<tag k="natural" v="hill" />
		<tag k="place" v="locality" />
		<tag k="ssr:stedsnr" v="754869" />
	</node>
	<node lat="59.52993611072582" lon="5.401299996670552" id="-68620">
		<tag k="name" v="Storevarden" />
		<tag k="natural" v="hill" />
		<tag k="place" v="locality" />
		<tag k="ssr:stedsnr" v="754870" />
	</node>
	<node lat="59.541522223068" lon="5.437719450213453" id="-68623">
		<tag k="fixme" v="consider natural=peak for the most distinct mountains in the district" />
		<tag k="name" v="Vågafjellet" />
		<tag k="natural" v="hill" />
		<tag k="place" v="locality" />
		<tag k="ssr:stedsnr" v="754880" />
	</node>
	<node lat="59.545027781059055" lon="5.422044440222994" id="-68624">
		<tag k="name" v="Kalhaugen" />
		<tag k="natural" v="hill" />
		<tag k="place" v="locality" />
		<tag k="ssr:stedsnr" v="754892" />
	</node>
	<node lat="59.51652777691275" lon="5.4129166662080745" id="-68625">
		<tag k="name" v="Høgehaugen" />
		<tag k="natural" v="hill" />
		<tag k="place" v="locality" />
		<tag k="ssr:stedsnr" v="754973" />
	</node>
	<node lat="59.51337777694794" lon="5.391763883945167" id="-68626">
		<tag k="name" v="Træsbråtet" />
		<tag k="place" v="locality" />
		<tag k="ssr:stedsnr" v="754976" />
	</node>
	<node lat="59.69119999780599" lon="5.516125003249387" id="-68643">
		<tag k="name" v="Smalesåtene" />
		<tag k="natural" v="hill" />
		<tag k="place" v="locality" />
		<tag k="ssr:stedsnr" v="792057" />
	</node>
	<node lat="59.57160832906821" lon="5.400472224221042" id="-68653">
		<tag k="fixme" v="consider natural=peak for the most distinct mountains in the district" />
		<tag k="name" v="Tveitalifjellet" />
		<tag k="natural" v="hill" />
		<tag k="place" v="locality" />
		<tag k="ssr:stedsnr" v="792217" />
	</node>
	<node lat="59.60948610954045" lon="5.514180546863916" id="-68665">
		<tag k="fixme" v="consider natural=peak for the most distinct mountains in the district" />
		<tag k="name" v="Nonsåsen" />
		<tag k="natural" v="hill" />
		<tag k="place" v="locality" />
		<tag k="ssr:stedsnr" v="815186" />
	</node>
	<node lat="59.56910833084148" lon="5.404808339419551" id="-68671">
		<tag k="name" v="Tveitasåto" />
		<tag k="natural" v="hill" />
		<tag k="place" v="locality" />
		<tag k="ssr:stedsnr" v="815027" />
	</node>
	<node lat="59.55612222157484" lon="5.458097228488235" id="-68672">
		<tag k="name" v="Klovning" />
		<tag k="natural" v="hill" />
		<tag k="place" v="locality" />
		<tag k="ssr:stedsnr" v="815041" />
	</node>
	<node lat="59.5646972201103" lon="5.443013886599926" id="-68675">
		<tag k="name" v="Svarthaug" />
		<tag k="natural" v="hill" />
		<tag k="place" v="locality" />
		<tag k="ssr:stedsnr" v="815052" />
	</node>
	<node lat="59.61346944359112" lon="5.328980555216628" id="-68678">
		<tag k="name" v="Hesthammar" />
		<tag k="natural" v="hill" />
		<tag k="place" v="locality" />
		<tag k="ssr:stedsnr" v="815547" />
	</node>
	<node lat="59.596066662958904" lon="5.332052784212344" id="-68679">
		<tag k="name" v="Kvernahaugen" />
		<tag k="natural" v="hill" />
		<tag k="place" v="locality" />
		<tag k="ssr:stedsnr" v="815548" />
	</node>
	<node lat="59.59263333508569" lon="5.341200003078157" id="-68682">
		<tag k="name" v="Klovningskaret" />
		<tag k="natural" v="valley" />
		<tag k="place" v="locality" />
		<tag k="ssr:stedsnr" v="815567" />
	</node>
	<node lat="59.57165833580136" lon="5.521911109962055" id="-68683">
		<tag k="name" v="Kalhaugen" />
		<tag k="natural" v="hill" />
		<tag k="place" v="locality" />
		<tag k="ssr:stedsnr" v="815124" />
	</node>
	<node lat="59.56472500063589" lon="5.4994888898646765" id="-68686">
		<tag k="name" v="Kålhaugane" />
		<tag k="natural" v="hill" />
		<tag k="place" v="locality" />
		<tag k="ssr:stedsnr" v="815147" />
	</node>
	<node lat="59.65995000067748" lon="5.491322223933423" id="-68687">
		<tag k="name" v="Slåkadalen" />
		<tag k="natural" v="valley" />
		<tag k="place" v="locality" />
		<tag k="ssr:stedsnr" v="815169" />
	</node>
	<node lat="59.53672222205856" lon="5.3261833405829195" id="-68688">
		<tag k="name" v="Rundehaugen" />
		<tag k="natural" v="hill" />
		<tag k="place" v="locality" />
		<tag k="ssr:stedsnr" v="815500" />
	</node>
	<node lat="59.53912222218953" lon="5.277391660153506" id="-68689">
		<tag k="name" v="Varden" />
		<tag k="natural" v="hill" />
		<tag k="place" v="locality" />
		<tag k="ssr:stedsnr" v="815505" />
	</node>
	<node lat="59.54479999596101" lon="5.3602611042112525" id="-68690">
		<tag k="name" v="Sveialeite" />
		<tag k="place" v="locality" />
		<tag k="ssr:stedsnr" v="815515" />
	</node>
	<node lat="59.60634444296631" lon="5.380766663992764" id="-68693">
		<tag k="name" v="Hatt" />
		<tag k="natural" v="hill" />
		<tag k="place" v="locality" />
		<tag k="ssr:stedsnr" v="815793" />
	</node>
	<node lat="59.547355555166504" lon="5.393286106938095" id="-68694">
		<tag k="name" v="Kjarthammar" />
		<tag k="natural" v="hill" />
		<tag k="place" v="locality" />
		<tag k="ssr:stedsnr" v="815896" />
	</node>
	<node lat="59.59869166821772" lon="5.481383333709343" id="-68706">
		<tag k="fixme" v="consider natural=peak for the most distinct mountains in the district" />
		<tag k="name" v="Båtarygg" />
		<tag k="natural" v="hill" />
		<tag k="place" v="locality" />
		<tag k="ssr:stedsnr" v="816830" />
	</node>
	<node lat="59.60853055961848" lon="5.454138896839561" id="-68707">
		<tag k="name" v="Islandsberget" />
		<tag k="natural" v="hill" />
		<tag k="place" v="locality" />
		<tag k="ssr:stedsnr" v="816818" />
	</node>
	<node lat="59.509313887611256" lon="5.450550003254188" id="-68712">
		<tag k="alt_name" v="Tidna" />
		<tag k="fixme" v="consider natural=peak for the most distinct mountains in the district" />
		<tag k="name" v="Tidno" />
		<tag k="natural" v="hill" />
		<tag k="place" v="locality" />
		<tag k="ssr:stedsnr" v="852148" />
	</node>
	<node lat="59.57537499942081" lon="5.470780553099345" id="-68726">
		<tag k="fixme" v="consider natural=peak for the most distinct mountains in the district" />
		<tag k="name" v="Lindsliåsen" />
		<tag k="natural" v="hill" />
		<tag k="place" v="locality" />
		<tag k="ssr:stedsnr" v="853355" />
	</node>
	<node lat="59.56911944882715" lon="5.498500006011123" id="-68730">
		<tag k="fixme" v="consider natural=peak for the most distinct mountains in the district" />
		<tag k="name" v="Vardafjellet" />
		<tag k="natural" v="hill" />
		<tag k="place" v="locality" />
		<tag k="ssr:stedsnr" v="853349" />
	</node>
	<node lat="59.647891666538676" lon="5.499452771880884" id="-68735">
		<tag k="fixme" v="consider natural=peak for the most distinct mountains in the district" />
		<tag k="name" v="Hopsfjellet" />
		<tag k="natural" v="hill" />
		<tag k="place" v="locality" />
		<tag k="ssr:stedsnr" v="853478" />
	</node>
	<node lat="59.64919166379733" lon="5.527566661732988" id="-68736">
		<tag k="alt_name" v="Litle Hovda" />
		<tag k="name" v="Litlehovda" />
		<tag k="natural" v="hill" />
		<tag k="place" v="locality" />
		<tag k="ssr:stedsnr" v="853479" />
	</node>
	<node lat="59.675055553735234" lon="5.488138883406952" id="-68755">
		<tag k="name" v="Smiehaugen" />
		<tag k="natural" v="hill" />
		<tag k="place" v="locality" />
		<tag k="ssr:stedsnr" v="876184" />
	</node>
	<node lat="59.67269167009937" lon="5.495041658900887" id="-68756">
		<tag k="name" v="Fauken" />
		<tag k="natural" v="hill" />
		<tag k="place" v="locality" />
		<tag k="ssr:stedsnr" v="876185" />
	</node>
	<node lat="59.594222222915874" lon="5.512074996856713" id="-68757">
		<tag k="fixme" v="consider natural=peak for the most distinct mountains in the district" />
		<tag k="name" v="Brandåsen" />
		<tag k="natural" v="hill" />
		<tag k="place" v="locality" />
		<tag k="ssr:stedsnr" v="876191" />
	</node>
	<node lat="59.52129166464488" lon="5.326919447762378" id="-68759">
		<tag k="name" v="Hordasteinen" />
		<tag k="natural" v="hill" />
		<tag k="place" v="locality" />
		<tag k="ssr:stedsnr" v="876523" />
	</node>
	<node lat="59.59149722246619" lon="5.33866666670965" id="-68761">
		<tag k="name" v="Lierklovningen" />
		<tag k="natural" v="hill" />
		<tag k="place" v="locality" />
		<tag k="ssr:stedsnr" v="876633" />
	</node>
	<node lat="59.55260833021098" lon="5.308002785230375" id="-68762">
		<tag k="name" v="Krokavarden" />
		<tag k="natural" v="hill" />
		<tag k="place" v="locality" />
		<tag k="ssr:stedsnr" v="876642" />
	</node>
	<node lat="59.66908332962494" lon="5.4655361153187165" id="-68765">
		<tag k="fixme" v="consider natural=peak for the most distinct mountains in the district" />
		<tag k="name" v="Husafjellet" />
		<tag k="natural" v="hill" />
		<tag k="place" v="locality" />
		<tag k="ssr:stedsnr" v="876794" />
	</node>
	<node lat="59.66383055874336" lon="5.419580557688545" id="-68766">
		<tag k="name" v="Litlenappen" />
		<tag k="natural" v="hill" />
		<tag k="place" v="locality" />
		<tag k="ssr:stedsnr" v="876797" />
	</node>
	<node lat="59.721605557606665" lon="5.5093555539657535" id="-68769">
		<tag k="name" v="Arhaug" />
		<tag k="natural" v="hill" />
		<tag k="place" v="locality" />
		<tag k="ssr:stedsnr" v="876693" />
	</node>
	<node lat="59.70681944558808" lon="5.4909027736890215" id="-68770">
		<tag k="name" v="Tindadalen" />
		<tag k="natural" v="valley" />
		<tag k="place" v="locality" />
		<tag k="ssr:stedsnr" v="876695" />
	</node>
	<node lat="59.63593888779166" lon="5.411538881763043" id="-68774">
		<tag k="name" v="Smidjedalen" />
		<tag k="natural" v="valley" />
		<tag k="place" v="locality" />
		<tag k="ssr:stedsnr" v="876934" />
	</node>
	<node lat="59.584324996850285" lon="5.3044888878921626" id="-68775">
		<tag k="fixme" v="consider natural=peak for the most distinct mountains in the district" />
		<tag k="name" v="Hovdafjellet" />
		<tag k="natural" v="hill" />
		<tag k="place" v="locality" />
		<tag k="ssr:stedsnr" v="936518" />
	</node>
	<node lat="59.49294166557995" lon="5.2880027748788425" id="-68777">
		<tag k="name" v="Skotahallen" />
		<tag k="place" v="locality" />
		<tag k="ssr:stedsnr" v="936671" />
	</node>
	<node lat="59.50387222002846" lon="5.286800001411334" id="-68778">
		<tag k="name" v="Nausene" />
		<tag k="place" v="locality" />
		<tag k="ssr:stedsnr" v="936675" />
	</node>
	<node lat="59.59866944725423" lon="5.388911106849735" id="-68779">
		<tag k="fixme" v="consider natural=peak for the most distinct mountains in the district" />
		<tag k="name" v="Dyråsen" />
		<tag k="natural" v="hill" />
		<tag k="place" v="locality" />
		<tag k="ssr:stedsnr" v="936780" />
	</node>
	<node lat="59.65699167029292" lon="5.472113885061516" id="-68780">
		<tag k="name" v="Markasteinshaugane" />
		<tag k="natural" v="hill" />
		<tag k="place" v="locality" />
		<tag k="ssr:stedsnr" v="937865" />
	</node>
	<node lat="59.54868333563823" lon="5.3456722246590695" id="-68785">
		<tag k="name" v="Skansen" />
		<tag k="place" v="locality" />
		<tag k="ssr:stedsnr" v="936544" />
	</node>
	<node lat="59.54657951433262" lon="5.339096981365224" id="-68786">
		<tag k="fixme" v="consider natural=peak for the most distinct mountains in the district" />
		<tag k="name" v="Åseåsen" />
		<tag k="natural" v="hill" />
		<tag k="place" v="locality" />
		<tag k="ssr:stedsnr" v="936545" />
	</node>
	<node lat="59.567952775718105" lon="5.310588894698277" id="-68788">
		<tag k="name" v="Koven" />
		<tag k="natural" v="hill" />
		<tag k="place" v="locality" />
		<tag k="ssr:stedsnr" v="936580" />
	</node>
	<node lat="59.51410555833589" lon="5.396747213783755" id="-68794">
		<tag k="name" v="Sildatønndalen" />
		<tag k="natural" v="valley" />
		<tag k="place" v="locality" />
		<tag k="ssr:stedsnr" v="936963" />
	</node>
	<node lat="59.59382499844343" lon="5.407716668285563" id="-68797">
		<tag k="name" v="Smidjehaugen" />
		<tag k="natural" v="hill" />
		<tag k="place" v="locality" />
		<tag k="ssr:stedsnr" v="937069" />
	</node>
	<node lat="59.582891669858675" lon="5.502383337498123" id="-68798">
		<tag k="fixme" v="consider natural=peak for the most distinct mountains in the district" />
		<tag k="name" v="Veadalsåsen" />
		<tag k="natural" v="hill" />
		<tag k="place" v="locality" />
		<tag k="ssr:stedsnr" v="937165" />
	</node>
	<node lat="59.57953889239956" lon="5.44364721588506" id="-68801">
		<tag k="alt_name" v="Tjødnaråsen" />
		<tag k="fixme" v="consider natural=peak for the most distinct mountains in the district" />
		<tag k="name" v="Tjørnaråsen" />
		<tag k="natural" v="hill" />
		<tag k="place" v="locality" />
		<tag k="ssr:stedsnr" v="937279" />
	</node>
	<node lat="59.51653055605132" lon="5.34049443818362" id="-68804">
		<tag k="name" v="Longhammar" />
		<tag k="natural" v="hill" />
		<tag k="place" v="locality" />
		<tag k="ssr:stedsnr" v="937556" />
	</node>
	<node lat="59.68410555225543" lon="5.487824991751542" id="-68805">
		<tag k="name" v="Ulshaug" />
		<tag k="natural" v="hill" />
		<tag k="place" v="locality" />
		<tag k="ssr:stedsnr" v="937686" />
	</node>
	<node lat="59.68361110852619" lon="5.502061119350341" id="-68806">
		<tag k="name" v="Vassdalen" />
		<tag k="natural" v="valley" />
		<tag k="place" v="locality" />
		<tag k="ssr:stedsnr" v="937672" />
	</node>
	<node lat="59.70065277414912" lon="5.490777772597476" id="-68807">
		<tag k="name" v="Ospebrekka" />
		<tag k="natural" v="slope" />
		<tag k="place" v="locality" />
		<tag k="ssr:stedsnr" v="937681" />
	</node>
	<node lat="59.57707499856917" lon="5.5188722186187125" id="-68808">
		<tag k="fixme" v="consider natural=peak for the most distinct mountains in the district" />
		<tag k="name" v="Olaåsen" />
		<tag k="natural" v="hill" />
		<tag k="place" v="locality" />
		<tag k="ssr:stedsnr" v="937851" />
	</node>
	<node lat="59.57468333276622" lon="5.533975004795229" id="-68810">
		<tag k="name" v="Laberget" />
		<tag k="natural" v="hill" />
		<tag k="place" v="locality" />
		<tag k="ssr:stedsnr" v="937857" />
	</node>
	<node lat="59.64171944568779" lon="5.457030563253082" id="-68813">
		<tag k="fixme" v="consider natural=peak for the most distinct mountains in the district" />
		<tag k="name" v="Mauråsen" />
		<tag k="natural" v="hill" />
		<tag k="place" v="locality" />
		<tag k="ssr:stedsnr" v="937879" />
	</node>
	<node lat="59.65076944585095" lon="5.45268888918633" id="-68814">
		<tag k="name" v="Eideshaugen" />
		<tag k="natural" v="hill" />
		<tag k="place" v="locality" />
		<tag k="ssr:stedsnr" v="937880" />
	</node>
</osm>
