<?xml version="1.0" encoding="UTF-8"?>
<<<<<<< HEAD
<osm version="0.6" generator="osmapis">
	<node lat="59.48525994197891" lon="5.313189012521123" id="-34220">
		<tag k="alt_name" v="Gjeringstjørn" />
		<tag k="name" v="Gjeringstjørna" />
		<tag k="natural" v="water" />
		<tag k="ssr:stedsnr" v="2702" />
	</node>
	<node lat="59.496582017188935" lon="5.316675666150615" id="-34221">
		<tag k="name" v="Skårevatnet" />
		<tag k="natural" v="water" />
		<tag k="ssr:stedsnr" v="2734" />
	</node>
	<node lat="59.68497494565289" lon="5.52033522523356" id="-34224">
		<tag k="name" v="Revadalstjørna" />
		<tag k="natural" v="water" />
		<tag k="ssr:stedsnr" v="3035" />
	</node>
	<node lat="59.5082194451288" lon="5.335155547182413" id="-34227">
		<tag k="name" v="Husavatnet" />
		<tag k="natural" v="water" />
		<tag k="ssr:stedsnr" v="3123" />
		<tag k="water" v="lake" />
	</node>
	<node lat="59.58302222029202" lon="5.40628889460708" id="-34234">
		<tag k="name" v="Kringleid" />
		<tag k="place" v="locality" />
		<tag k="ssr:stedsnr" v="3783" />
	</node>
	<node lat="59.53172499667716" lon="5.353111108296794" id="-34236">
		<tag k="alt_name" v="Vassnes" />
		<tag k="name" v="Vassneset" />
		<tag k="natural" v="cape" />
		<tag k="ssr:stedsnr" v="4086" />
	</node>
	<node lat="59.5871555587731" lon="5.483466662580844" id="-34238">
		<tag k="name" v="Røyknesvågen" />
		<tag k="natural" v="bay" />
		<tag k="ssr:stedsnr" v="26003" />
	</node>
	<node lat="59.5977472267067" lon="5.360969449023618" id="-34253">
		<tag k="name" v="Kinnaneset" />
		<tag k="natural" v="cape" />
		<tag k="ssr:stedsnr" v="26904" />
	</node>
	<node lat="59.51842275132337" lon="5.433183455889412" id="-34262">
		<tag k="alt_name" v="Gulhaugvatnet" />
		<tag k="name" v="Gulhaugavatnet" />
		<tag k="natural" v="water" />
		<tag k="ssr:stedsnr" v="64116" />
	</node>
	<node lat="59.51503333310873" lon="5.366041666314831" id="-34263">
		<tag k="name" v="Skorpesundet" />
		<tag k="natural" v="strait" />
		<tag k="ssr:stedsnr" v="64123" />
	</node>
	<node lat="59.53254927906763" lon="5.408078617186197" id="-34264">
		<tag k="name" v="Rotatjørna" />
		<tag k="natural" v="water" />
		<tag k="ssr:stedsnr" v="64149" />
	</node>
	<node lat="59.51731061113155" lon="5.3002895060634305" id="-34266">
		<tag k="name" v="Oksatjørna" />
		<tag k="natural" v="water" />
		<tag k="ssr:stedsnr" v="64169" />
	</node>
	<node lat="59.53767221865908" lon="5.348805549203068" id="-34269">
		<tag k="alt_name" v="Mjelkenes" />
		<tag k="name" v="Mjelkeneset" />
		<tag k="natural" v="cape" />
		<tag k="ssr:stedsnr" v="64207" />
	</node>
	<node lat="59.64055833430394" lon="5.487116671525648" id="-34274">
		<tag k="name" v="Hopstjørna" />
		<tag k="natural" v="water" />
		<tag k="ssr:stedsnr" v="64469" />
	</node>
	<node lat="59.6218138871891" lon="5.347772213729804" id="-34277">
		<tag k="name" v="Vassbotn" />
		<tag k="natural" v="bay" />
		<tag k="ssr:stedsnr" v="64834" />
	</node>
	<node lat="59.61372690555704" lon="5.423624452448529" id="-34278">
		<tag k="alt_name" v="Bjølletjørn" />
		<tag k="name" v="Bjølletjørna" />
=======
<osm generator="osmapis" version="0.6">
	<node id="-601088" lat="59.5081861147" lon="5.42708055671">
		<tag k="alt_name" v="Fureholmen" />
		<tag k="name" v="Foreholmen" />
		<tag k="place" v="islet" />
		<tag k="ssr:stedsnr" v="549149" />
	</node>
	<node id="-601087" lat="59.5189490394" lon="5.44033095846">
		<tag k="name" v="Kvernatjørna" />
		<tag k="natural" v="water" />
		<tag k="ssr:stedsnr" v="549142" />
	</node>
	<node id="-601086" lat="59.7028377342" lon="5.47383969863">
		<tag k="name" v="Kuhavet" />
		<tag k="natural" v="water" />
		<tag k="ssr:stedsnr" v="549099" />
	</node>
	<node id="-601083" lat="59.6935298696" lon="5.51610192855">
		<tag k="name" v="Fjellstemmen" />
		<tag k="natural" v="water" />
		<tag k="ssr:stedsnr" v="549058" />
	</node>
	<node id="-600063" lat="59.6005333298" lon="5.41229167463">
		<tag k="alt_name" v="Langevatnet;Langavatnet" />
		<tag k="name" v="Laugavatnet" />
		<tag k="natural" v="water" />
		<tag k="ssr:stedsnr" v="428752" />
		<tag k="water" v="lake" />
	</node>
	<node id="-600563" lat="59.6055444446" lon="5.4037388936">
		<tag k="name" v="Ørebekken" />
		<tag k="ssr:stedsnr" v="26761" />
		<tag k="waterway" v="stream" />
	</node>
	<node id="-601074" lat="59.5809341312" lon="5.40628210259">
		<tag k="name" v="Kvernavatnet" />
		<tag k="natural" v="water" />
		<tag k="ssr:stedsnr" v="428795" />
		<tag k="water" v="lake" />
	</node>
	<node id="-600403" lat="59.5751666711" lon="5.29521667064">
		<tag k="name" v="Rundetjørn" />
		<tag k="natural" v="water" />
		<tag k="ssr:stedsnr" v="936092" />
	</node>
	<node id="-601072" lat="59.577445028" lon="5.3658460039">
		<tag k="alt_name" v="Liatjørn" />
		<tag k="name" v="Liatjørna" />
		<tag k="natural" v="water" />
		<tag k="ssr:stedsnr" v="428792" />
	</node>
	<node id="-600557" lat="59.5944749985" lon="5.31274166839">
		<tag k="name" v="Grindabekken" />
		<tag k="ssr:stedsnr" v="26575" />
		<tag k="waterway" v="stream" />
	</node>
	<node id="-600087" lat="59.5567801501" lon="5.32593411498">
		<tag k="alt_name" v="Lomatjørna" />
		<tag k="name" v="Lomtjørna" />
		<tag k="natural" v="water" />
		<tag k="ssr:stedsnr" v="670241" />
	</node>
	<node id="-601066" lat="59.6281027084" lon="5.50822716202">
		<tag k="alt_name" v="Håvardsholmstjørna" />
		<tag k="name" v="Håvardsholmtjørna" />
		<tag k="natural" v="water" />
		<tag k="ssr:stedsnr" v="428401" />
	</node>
	<node id="-600041" lat="59.5418444408" lon="5.39912221719">
		<tag k="name" v="Melkevik" />
		<tag k="natural" v="bay" />
		<tag k="ssr:stedsnr" v="511862" />
	</node>
	<node id="-601062" lat="59.5744333376" lon="5.50218610749">
		<tag k="name" v="Rauneslitjørna" />
		<tag k="natural" v="water" />
		<tag k="ssr:stedsnr" v="428328" />
	</node>
	<node id="-600059" lat="59.5216005205" lon="5.32398309174">
		<tag k="name" v="Rovatnet" />
>>>>>>> e1d4bc35ff8a6074a6f2e91616a996b547c36f15
		<tag k="natural" v="water" />
		<tag k="ssr:stedsnr" v="64868" />
	</node>
<<<<<<< HEAD
	<node lat="59.615243994043894" lon="5.3314577739586575" id="-34279">
		<tag k="name" v="Hesthammartjørna" />
		<tag k="natural" v="water" />
		<tag k="ssr:stedsnr" v="64878" />
	</node>
	<node lat="59.68118954336604" lon="5.468139336480446" id="-34282">
		<tag k="alt_name" v="Litlavatnet" />
		<tag k="name" v="Litlevatn" />
		<tag k="natural" v="water" />
		<tag k="ssr:stedsnr" v="245038" />
	</node>
	<node lat="59.54889182720902" lon="5.282051293817217" id="-34284">
		<tag k="name" v="Storavatnet" />
		<tag k="natural" v="water" />
		<tag k="ssr:stedsnr" v="245226" />
		<tag k="water" v="lake" />
	</node>
	<node lat="59.59723358618773" lon="5.34728126646343" id="-34299">
		<tag k="name" v="Klubben" />
		<tag k="natural" v="cape" />
		<tag k="ssr:stedsnr" v="87909" />
	</node>
	<node lat="59.58924999663032" lon="5.395199999804891" id="-34301">
		<tag k="name" v="Tømmervika" />
		<tag k="natural" v="bay" />
		<tag k="ssr:stedsnr" v="245791" />
	</node>
	<node lat="59.60861722107879" lon="5.4171498665335225" id="-34302">
		<tag k="alt_name" v="Vassnestjørn" />
		<tag k="name" v="Vassnestjørna" />
		<tag k="natural" v="water" />
		<tag k="ssr:stedsnr" v="246739" />
	</node>
	<node lat="59.522044440741084" lon="5.366699999755418" id="-34308">
		<tag k="alt_name" v="Fureholmen" />
		<tag k="name" v="Foreholmen" />
		<tag k="place" v="islet" />
		<tag k="ssr:stedsnr" v="246184" />
	</node>
	<node lat="59.55132420394982" lon="5.441809741035787" id="-34309">
		<tag k="alt_name" v="Nesavatnet" />
		<tag k="name" v="Nesevatnet" />
=======
	<node id="-601055" lat="59.5445694456" lon="5.3863833407">
		<tag k="name" v="Bjellandselva" />
		<tag k="ssr:stedsnr" v="428177" />
		<tag k="waterway" v="stream" />
	</node>
	<node id="-600612" lat="59.5309550901" lon="5.49680032126">
		<tag k="name" v="Buaviktjørna" />
		<tag k="natural" v="water" />
		<tag k="ssr:stedsnr" v="64299" />
	</node>
	<node id="-600229" lat="59.5261916711" lon="5.35675278563">
		<tag k="alt_name" v="Tveitesundet" />
		<tag k="name" v="Tveitåsundet" />
		<tag k="natural" v="strait" />
		<tag k="ssr:stedsnr" v="731132" />
	</node>
	<node id="-600540" lat="59.5317249967" lon="5.3531111083">
		<tag k="alt_name" v="Vassnes" />
		<tag k="name" v="Vassneset" />
		<tag k="natural" v="cape" />
		<tag k="ssr:stedsnr" v="4086" />
	</node>
	<node id="-600539" lat="59.6409009183" lon="5.40314654626">
		<tag k="name" v="Storavatnet" />
		<tag k="natural" v="water" />
		<tag k="ssr:stedsnr" v="3939" />
		<tag k="water" v="lake" />
	</node>
	<node id="-601050" lat="59.5268225606" lon="5.37978907471">
		<tag k="alt_name" v="Stemmetjørn" />
		<tag k="name" v="Stemmetjørna" />
		<tag k="natural" v="water" />
		<tag k="ssr:stedsnr" v="428153" />
	</node>
	<node id="-601049" lat="59.5306464823" lon="5.40857889448">
		<tag k="name" v="Vardavatnet" />
		<tag k="natural" v="water" />
		<tag k="ssr:stedsnr" v="428152" />
	</node>
	<node id="-600536" lat="59.6167388899" lon="5.40108610664">
		<tag k="name" v="Nausebekken" />
		<tag k="ssr:stedsnr" v="3858" />
		<tag k="waterway" v="stream" />
	</node>
	<node id="-599972" lat="59.5773509149" lon="5.32475249835">
		<tag k="alt_name" v="Anderstjørna" />
		<tag k="name" v="Anderstjørnane" />
>>>>>>> e1d4bc35ff8a6074a6f2e91616a996b547c36f15
		<tag k="natural" v="water" />
		<tag k="ssr:stedsnr" v="246189" />
		<tag k="water" v="lake" />
	</node>
<<<<<<< HEAD
	<node lat="59.6145422154548" lon="5.391636851332842" id="-34318">
		<tag k="alt_name" v="Skartjørn" />
		<tag k="name" v="Skardtjørna" />
		<tag k="natural" v="water" />
		<tag k="ssr:stedsnr" v="246843" />
	</node>
	<node lat="59.619833337732345" lon="5.351855560874302" id="-34320">
		<tag k="name" v="Sandvika" />
		<tag k="natural" v="bay" />
		<tag k="ssr:stedsnr" v="246849" />
	</node>
	<node lat="59.540255555385635" lon="5.413894449256974" id="-34326">
		<tag k="alt_name" v="Bråtveitjørna" />
		<tag k="name" v="Bråtveittjørna" />
		<tag k="natural" v="water" />
		<tag k="ssr:stedsnr" v="124180" />
	</node>
	<node lat="59.53225833474915" lon="5.382977775221499" id="-34327">
		<tag k="alt_name" v="Døvika" />
		<tag k="name" v="Davika" />
		<tag k="natural" v="bay" />
		<tag k="ssr:stedsnr" v="124181" />
	</node>
	<node lat="59.67794720579573" lon="5.5207967474997455" id="-34328">
		<tag k="name" v="Nipatjørna" />
		<tag k="natural" v="water" />
		<tag k="ssr:stedsnr" v="124060" />
	</node>
	<node lat="59.642127777925374" lon="5.404225001084216" id="-34331">
		<tag k="alt_name" v="Vassøy" />
		<tag k="name" v="Vassøya" />
		<tag k="place" v="islet" />
		<tag k="ssr:stedsnr" v="124900" />
	</node>
	<node lat="59.653895743746595" lon="5.438453961887799" id="-34349">
		<tag k="name" v="Djupadalstjørna" />
		<tag k="natural" v="water" />
		<tag k="ssr:stedsnr" v="147817" />
	</node>
	<node lat="59.605581889620716" lon="5.345095045009519" id="-34350">
		<tag k="name" v="Ågotneset" />
		<tag k="natural" v="cape" />
		<tag k="ssr:stedsnr" v="147905" />
	</node>
	<node lat="59.59623888779247" lon="5.34831944041359" id="-34351">
		<tag k="name" v="Kinnasanden" />
		<tag k="natural" v="bay" />
		<tag k="ssr:stedsnr" v="147912" />
	</node>
	<node lat="59.49705847694967" lon="5.390104452425709" id="-34356">
		<tag k="name" v="Eileråsvatnet" />
		<tag k="natural" v="water" />
		<tag k="ssr:stedsnr" v="184695" />
	</node>
	<node lat="59.53383220986755" lon="5.272820923295316" id="-34361">
		<tag k="alt_name" v="Kvitabergstjørna" />
		<tag k="name" v="Kvitabergtjørna" />
		<tag k="natural" v="water" />
		<tag k="ssr:stedsnr" v="185188" />
	</node>
	<node lat="59.53160832922158" lon="5.27909723046969" id="-34362">
		<tag k="name" v="Anderstjørna" />
		<tag k="natural" v="water" />
		<tag k="ssr:stedsnr" v="185190" />
	</node>
	<node lat="59.527043587232384" lon="5.318978000702021" id="-34363">
		<tag k="alt_name" v="Furevatnet" />
		<tag k="name" v="Forevatnet" />
		<tag k="natural" v="water" />
		<tag k="ssr:stedsnr" v="185191" />
		<tag k="water" v="lake" />
	</node>
	<node lat="59.53618610664211" lon="5.371319437249072" id="-34364">
		<tag k="name" v="Mula" />
		<tag k="natural" v="cape" />
		<tag k="ssr:stedsnr" v="185196" />
	</node>
	<node lat="59.59680277990719" lon="5.501455561692049" id="-34368">
		<tag k="alt_name" v="Flatbruvatnet" />
		<tag k="name" v="Flatbrutjørna" />
		<tag k="natural" v="water" />
		<tag k="ssr:stedsnr" v="185383" />
	</node>
	<node lat="59.62156788652787" lon="5.390988138926936" id="-34370">
		<tag k="alt_name" v="Skinntjørna" />
		<tag k="name" v="Skinntjørnane" />
		<tag k="natural" v="water" />
		<tag k="ssr:stedsnr" v="185810" />
		<tag k="water" v="lake" />
	</node>
	<node lat="59.60641082354982" lon="5.330165514812903" id="-34371">
		<tag k="name" v="Loknatjørna" />
		<tag k="natural" v="water" />
		<tag k="ssr:stedsnr" v="185840" />
	</node>
	<node lat="59.52379619838882" lon="5.272652818817738" id="-34384">
		<tag k="name" v="Simonstjørn" />
		<tag k="natural" v="water" />
		<tag k="ssr:stedsnr" v="208103" />
	</node>
	<node lat="59.498529412205954" lon="5.284605298163542" id="-34394">
		<tag k="name" v="Haugatjørna" />
		<tag k="natural" v="water" />
		<tag k="ssr:stedsnr" v="208706" />
	</node>
	<node lat="59.57925277566967" lon="5.487480554768026" id="-34405">
		<tag k="name" v="Langanes" />
		<tag k="natural" v="cape" />
		<tag k="ssr:stedsnr" v="269144" />
	</node>
	<node lat="59.67524383093834" lon="5.504722900964413" id="-34413">
		<tag k="name" v="Sætratjørna" />
		<tag k="natural" v="water" />
		<tag k="ssr:stedsnr" v="269218" />
	</node>
	<node lat="59.58701666760515" lon="5.3956222191991685" id="-34418">
		<tag k="name" v="Sturtevika" />
		<tag k="natural" v="bay" />
		<tag k="ssr:stedsnr" v="269256" />
	</node>
	<node lat="59.58865555786136" lon="5.394508330550788" id="-34419">
		<tag k="name" v="Skarhaugtåa" />
		<tag k="natural" v="cape" />
		<tag k="ssr:stedsnr" v="269258" />
	</node>
	<node lat="59.58936944031138" lon="5.417455550912444" id="-34420">
		<tag k="name" v="Krokabekkneset" />
		<tag k="natural" v="cape" />
		<tag k="ssr:stedsnr" v="269261" />
	</node>
	<node lat="59.49755277866372" lon="5.365699991176172" id="-34428">
		<tag k="name" v="Brønnvika" />
		<tag k="natural" v="bay" />
		<tag k="ssr:stedsnr" v="269736" />
	</node>
	<node lat="59.67904722292224" lon="5.459302777726079" id="-34434">
		<tag k="name" v="Saga" />
		<tag k="natural" v="bay" />
		<tag k="ssr:stedsnr" v="270763" />
	</node>
	<node lat="59.56857778117114" lon="5.439052775616802" id="-34438">
		<tag k="name" v="Refnes" />
=======
	<node id="-600533" lat="59.5830222203" lon="5.40628889461">
		<tag k="name" v="Kringleid" />
		<tag k="natural" v="strait" />
		<tag k="ssr:stedsnr" v="3783" />
	</node>
	<node id="-601043" lat="59.5656916632" lon="5.45665554942">
		<tag k="name" v="Sagvatnet" />
		<tag k="natural" v="water" />
		<tag k="ssr:stedsnr" v="428210" />
		<tag k="water" v="lake" />
	</node>
	<node id="-601042" lat="59.5596284791" lon="5.3480034715">
		<tag k="name" v="Maritjørna" />
		<tag k="natural" v="water" />
		<tag k="ssr:stedsnr" v="428206" />
	</node>
	<node id="-600526" lat="59.5350272389" lon="5.48862340084">
		<tag k="name" v="Tveitetjørna" />
		<tag k="natural" v="water" />
		<tag k="ssr:stedsnr" v="3285" />
	</node>
	<node id="-600524" lat="59.5534462772" lon="5.38333332172">
		<tag k="name" v="Bjellandsvatnet" />
		<tag k="natural" v="water" />
		<tag k="ssr:stedsnr" v="3219" />
		<tag k="water" v="lake" />
	</node>
	<node id="-600523" lat="59.5634960676" lon="5.35224075573">
		<tag k="name" v="Krokavatnet" />
		<tag k="natural" v="water" />
		<tag k="ssr:stedsnr" v="3202" />
	</node>
	<node id="-600522" lat="59.5381305552" lon="5.39187223055">
		<tag k="name" v="Hådyrsholmen" />
		<tag k="place" v="islet" />
		<tag k="ssr:stedsnr" v="3190" />
	</node>
	<node id="-600521" lat="59.5377111095" lon="5.38313611737">
		<tag k="name" v="Mulaholmen" />
		<tag k="place" v="islet" />
		<tag k="ssr:stedsnr" v="3187" />
	</node>
	<node id="-600519" lat="59.5304294495" lon="5.29776141141">
		<tag k="alt_name" v="Sandvatnet, l" />
		<tag k="name" v="Litla Sandvatnet" />
		<tag k="natural" v="water" />
		<tag k="ssr:stedsnr" v="3183" />
	</node>
	<node id="-600516" lat="59.5109528542" lon="5.3184355199">
		<tag k="name" v="Vrangtjørna" />
		<tag k="natural" v="water" />
		<tag k="ssr:stedsnr" v="3160" />
	</node>
	<node id="-600822" lat="59.6150114554" lon="5.33411750849">
		<tag k="name" v="Stemmetjørna" />
		<tag k="natural" v="water" />
		<tag k="ssr:stedsnr" v="208563" />
	</node>
	<node id="-601026" lat="59.6549583333" lon="5.45544445115">
		<tag k="name" v="Apalevik" />
		<tag k="natural" v="bay" />
		<tag k="ssr:stedsnr" v="390840" />
	</node>
	<node id="-600510" lat="59.5128027803" lon="5.39970833671">
		<tag k="name" v="Sildatønnholmen" />
		<tag k="place" v="islet" />
		<tag k="ssr:stedsnr" v="3137" />
	</node>
	<node id="-601207" lat="59.5302250006" lon="5.46991389513">
		<tag k="name" v="Flatneselva" />
		<tag k="ssr:stedsnr" v="633143" />
		<tag k="waterway" v="river" />
	</node>
	<node id="-601020" lat="59.6088629757" lon="5.39475586329">
		<tag k="name" v="Korkhaugtjørn" />
		<tag k="natural" v="water" />
		<tag k="ssr:stedsnr" v="390789" />
	</node>
	<node id="-600507" lat="59.5082194451" lon="5.33515554718">
		<tag k="name" v="Husavatnet" />
		<tag k="natural" v="water" />
		<tag k="ssr:stedsnr" v="3123" />
		<tag k="water" v="lake" />
	</node>
	<node id="-599994" lat="59.5635961637" lon="5.32086791083">
		<tag k="alt_name" v="Kubbatjørn" />
		<tag k="name" v="Kobbatjørna" />
		<tag k="natural" v="water" />
		<tag k="ssr:stedsnr" v="367178" />
	</node>
	<node id="-599993" lat="59.5338305533" lon="5.37904167274">
		<tag k="name" v="Storeholmen" />
		<tag k="place" v="islet" />
		<tag k="ssr:stedsnr" v="367168" />
	</node>
	<node id="-600503" lat="59.6849749457" lon="5.52033522523">
		<tag k="name" v="Revadalstjørna" />
		<tag k="natural" v="water" />
		<tag k="ssr:stedsnr" v="3035" />
	</node>
	<node id="-600500" lat="59.4965820172" lon="5.31667566615">
		<tag k="name" v="Skårevatnet" />
		<tag k="natural" v="water" />
		<tag k="ssr:stedsnr" v="2734" />
	</node>
	<node id="-600499" lat="59.485259942" lon="5.31318901252">
		<tag k="alt_name" v="Gjeringstjørn" />
		<tag k="name" v="Gjeringstjørna" />
		<tag k="natural" v="water" />
		<tag k="ssr:stedsnr" v="2702" />
	</node>
	<node id="-601010" lat="59.5006472178" lon="5.27076388979">
		<tag k="name" v="Vassnes" />
		<tag k="natural" v="cape" />
		<tag k="ssr:stedsnr" v="390684" />
	</node>
	<node id="-601008" lat="59.5490342021" lon="5.31426248076">
		<tag k="name" v="Ormatjørna" />
		<tag k="natural" v="water" />
		<tag k="ssr:stedsnr" v="390523" />
	</node>
	<node id="-599761" lat="59.5376722187" lon="5.3488055492">
		<tag k="alt_name" v="Mjelkenes" />
		<tag k="name" v="Mjelkeneset" />
>>>>>>> e1d4bc35ff8a6074a6f2e91616a996b547c36f15
		<tag k="natural" v="cape" />
		<tag k="ssr:stedsnr" v="64207" />
	</node>
<<<<<<< HEAD
	<node lat="59.58961484953994" lon="5.411426537907619" id="-34440">
		<tag k="name" v="Otratjørna" />
		<tag k="natural" v="water" />
		<tag k="ssr:stedsnr" v="451059" />
	</node>
	<node lat="59.57373298646913" lon="5.507279580455197" id="-34446">
		<tag k="name" v="Galtatjørn" />
		<tag k="natural" v="water" />
		<tag k="ssr:stedsnr" v="451154" />
	</node>
	<node lat="59.577511109528025" lon="5.410213897708254" id="-34451">
		<tag k="name" v="Kvernabekken" />
		<tag k="ssr:stedsnr" v="451262" />
		<tag k="waterway" v="stream" />
	</node>
	<node lat="59.545119441448904" lon="5.297930562555373" id="-34456">
		<tag k="name" v="Ølkonebekken" />
		<tag k="ssr:stedsnr" v="451548" />
		<tag k="waterway" v="stream" />
	</node>
	<node lat="59.50311388868284" lon="5.3212083386103854" id="-34464">
		<tag k="name" v="Vågeelva" />
		<tag k="ssr:stedsnr" v="451731" />
		<tag k="waterway" v="river" />
	</node>
	<node lat="59.53811607386422" lon="5.273257014319891" id="-34466">
		<tag k="name" v="Litla Kovatjørna" />
		<tag k="natural" v="water" />
		<tag k="ssr:stedsnr" v="451747" />
	</node>
	<node lat="59.60032222232611" lon="5.3843194391799605" id="-34468">
		<tag k="name" v="Fossebekken" />
		<tag k="ssr:stedsnr" v="451818" />
		<tag k="waterway" v="stream" />
	</node>
	<node lat="59.52215886620068" lon="5.394850467805152" id="-34472">
		<tag k="alt_name" v="Pøyla" />
		<tag k="name" v="Pøylo" />
		<tag k="natural" v="water" />
		<tag k="ssr:stedsnr" v="246131" />
	</node>
	<node lat="59.5198565750149" lon="5.413289434649322" id="-34473">
		<tag k="alt_name" v="Stutatrevatnet" />
		<tag k="name" v="Stutatrævatnet" />
		<tag k="natural" v="water" />
		<tag k="ssr:stedsnr" v="246133" />
	</node>
	<node lat="59.528133331500406" lon="5.258158333608284" id="-34474">
		<tag k="name" v="Kvernavatnet" />
=======
	<node id="-601005" lat="59.6918222178" lon="5.46110833611">
		<tag k="name" v="Leirbekk" />
		<tag k="ssr:stedsnr" v="390650" />
		<tag k="waterway" v="stream" />
	</node>
	<node id="-601004" lat="59.6999742168" lon="5.47485196629">
		<tag k="name" v="Valevågstjørna" />
		<tag k="natural" v="water" />
		<tag k="ssr:stedsnr" v="390647" />
	</node>
	<node id="-599979" lat="59.6196340734" lon="5.42423748905">
		<tag k="alt_name" v="Fagerlandsvatnet" />
		<tag k="name" v="Fagerlandvatnet" />
		<tag k="natural" v="water" />
		<tag k="ssr:stedsnr" v="488852" />
	</node>
	<node id="-599978" lat="59.6110694401" lon="5.33350832807">
		<tag k="alt_name" v="Skitnatjørna" />
		<tag k="name" v="Skiftatjørna" />
		<tag k="natural" v="water" />
		<tag k="ssr:stedsnr" v="488841" />
	</node>
	<node id="-599977" lat="59.6395333307" lon="5.40269167446">
		<tag k="alt_name" v="Killingeodden" />
		<tag k="name" v="Killingodden" />
		<tag k="natural" v="cape" />
		<tag k="ssr:stedsnr" v="488831" />
	</node>
	<node id="-600999" lat="59.5952748159" lon="5.50588014365">
		<tag k="name" v="Bronatjørna" />
		<tag k="natural" v="water" />
		<tag k="ssr:stedsnr" v="390189" />
	</node>
	<node id="-600998" lat="59.5942777759" lon="5.49876666595">
		<tag k="name" v="Mjåsund" />
		<tag k="natural" v="strait" />
		<tag k="ssr:stedsnr" v="390188" />
	</node>
	<node id="-600996" lat="59.5666315922" lon="5.50474091014">
		<tag k="name" v="Litlelidtjørn" />
		<tag k="natural" v="water" />
		<tag k="ssr:stedsnr" v="390146" />
	</node>
	<node id="-599878" lat="59.5685777812" lon="5.43905277562">
		<tag k="name" v="Refnes" />
		<tag k="natural" v="cape" />
		<tag k="ssr:stedsnr" v="451049" />
	</node>
	<node id="-600481" lat="59.5969583376" lon="5.5086833343">
		<tag k="name" v="Paddetjørna" />
		<tag k="natural" v="water" />
		<tag k="ssr:stedsnr" v="937205" />
	</node>
	<node id="-600991" lat="59.5616666673" lon="5.48107777326">
		<tag k="name" v="Revaholmen" />
		<tag k="place" v="islet" />
		<tag k="ssr:stedsnr" v="390049" />
	</node>
	<node id="-599966" lat="59.5900277766" lon="5.48978611901">
		<tag k="name" v="Mørkatjørna" />
>>>>>>> e1d4bc35ff8a6074a6f2e91616a996b547c36f15
		<tag k="natural" v="water" />
		<tag k="ssr:stedsnr" v="488377" />
	</node>
<<<<<<< HEAD
	<node lat="59.657152558459195" lon="5.458429313540641" id="-34479">
		<tag k="alt_name" v="Ørvikvatnet;Øreviksvatnet" />
		<tag k="name" v="Ørvikevatnet" />
		<tag k="natural" v="water" />
		<tag k="ssr:stedsnr" v="246913" />
		<tag k="water" v="lake" />
	</node>
	<node lat="59.522841074082685" lon="5.297894254507755" id="-34511">
		<tag k="alt_name" v="Forevatnet;Forevatnet, L;Furevatnet" />
		<tag k="name" v="Urdalsvatnet" />
		<tag k="natural" v="water" />
		<tag k="ssr:stedsnr" v="306157" />
	</node>
	<node lat="59.526026818306235" lon="5.294736425735216" id="-34512">
		<tag k="alt_name" v="Store Sandvatnet" />
		<tag k="name" v="Sandvatnet" />
		<tag k="natural" v="water" />
		<tag k="ssr:stedsnr" v="306159" />
	</node>
	<node lat="59.5883208834853" lon="5.449741768993699" id="-34515">
		<tag k="name" v="Mørkavatnet" />
		<tag k="natural" v="water" />
		<tag k="ssr:stedsnr" v="306776" />
		<tag k="water" v="lake" />
	</node>
	<node lat="59.5904747660555" lon="5.416998412680216" id="-34516">
		<tag k="name" v="Krokavatnet" />
		<tag k="natural" v="water" />
		<tag k="ssr:stedsnr" v="306778" />
		<tag k="water" v="lake" />
	</node>
	<node lat="59.509210475928526" lon="5.3011779954572225" id="-34525">
		<tag k="name" v="Rongavatnet" />
		<tag k="natural" v="water" />
		<tag k="ssr:stedsnr" v="307205" />
		<tag k="water" v="lake" />
	</node>
	<node lat="59.63522184519843" lon="5.474595903424872" id="-34527">
		<tag k="name" v="Geitåstjørna" />
		<tag k="natural" v="water" />
		<tag k="ssr:stedsnr" v="307501" />
	</node>
	<node lat="59.610086109106796" lon="5.41672221490957" id="-34531">
		<tag k="name" v="Vaulen" />
		<tag k="natural" v="strait" />
		<tag k="ssr:stedsnr" v="329766" />
	</node>
	<node lat="59.56448610961386" lon="5.457247224466998" id="-34534">
		<tag k="name" v="Kalvanes" />
		<tag k="natural" v="cape" />
		<tag k="ssr:stedsnr" v="330062" />
	</node>
	<node lat="59.51758542131214" lon="5.370026412461314" id="-34547">
		<tag k="alt_name" v="Skorpenes" />
		<tag k="name" v="Skorpeneset" />
		<tag k="natural" v="cape" />
		<tag k="ssr:stedsnr" v="367115" />
	</node>
	<node lat="59.50450873775684" lon="5.261914138725774" id="-34550">
		<tag k="name" v="Mørkavatnet" />
		<tag k="natural" v="water" />
		<tag k="ssr:stedsnr" v="367124" />
		<tag k="water" v="lake" />
	</node>
	<node lat="59.51062222263849" lon="5.377391667179982" id="-34551">
		<tag k="alt_name" v="Krossnes" />
		<tag k="name" v="Krossneset" />
		<tag k="natural" v="cape" />
		<tag k="ssr:stedsnr" v="367126" />
	</node>
	<node lat="59.51142500112355" lon="5.36236110305836" id="-34552">
		<tag k="alt_name" v="Skorpå" />
		<tag k="name" v="Skorpo" />
		<tag k="place" v="island" />
		<tag k="ssr:stedsnr" v="367127" />
	</node>
	<node lat="59.682066648959555" lon="5.519634157146835" id="-34553">
		<tag k="alt_name" v="Gamleolastemmen" />
		<tag k="name" v="Olastemmen" />
		<tag k="natural" v="water" />
		<tag k="ssr:stedsnr" v="367026" />
	</node>
	<node lat="59.56359616365019" lon="5.320867910829725" id="-34555">
		<tag k="alt_name" v="Kubbatjørn" />
		<tag k="name" v="Kobbatjørna" />
		<tag k="natural" v="water" />
		<tag k="ssr:stedsnr" v="367178" />
	</node>
	<node lat="59.594277775906086" lon="5.4987666659544105" id="-34569">
		<tag k="name" v="Mjåsund" />
		<tag k="natural" v="strait" />
		<tag k="ssr:stedsnr" v="390188" />
	</node>
	<node lat="59.59527481588619" lon="5.505880143645868" id="-34570">
		<tag k="name" v="Bronatjørna" />
		<tag k="natural" v="water" />
		<tag k="ssr:stedsnr" v="390189" />
	</node>
	<node lat="59.56166666733926" lon="5.481077773258626" id="-34573">
		<tag k="name" v="Revaholmen" />
		<tag k="place" v="islet" />
		<tag k="ssr:stedsnr" v="390049" />
	</node>
	<node lat="59.476480555377584" lon="5.312322218130355" id="-34574">
		<tag k="name" v="Bukkanes" />
		<tag k="natural" v="cape" />
		<tag k="ssr:stedsnr" v="390099" />
	</node>
	<node lat="59.69997421682916" lon="5.4748519662888615" id="-34579">
		<tag k="name" v="Valevågstjørna" />
		<tag k="natural" v="water" />
		<tag k="ssr:stedsnr" v="390647" />
	</node>
	<node lat="59.69182221784423" lon="5.461108336113467" id="-34580">
		<tag k="name" v="Leirbekk" />
		<tag k="ssr:stedsnr" v="390650" />
		<tag k="waterway" v="stream" />
	</node>
	<node lat="59.608862975698315" lon="5.394755863290492" id="-34586">
		<tag k="name" v="Korkhaugtjørn" />
		<tag k="natural" v="water" />
		<tag k="ssr:stedsnr" v="390789" />
	</node>
	<node lat="59.65495833334549" lon="5.455444451148998" id="-34590">
		<tag k="name" v="Apalevik" />
		<tag k="natural" v="bay" />
		<tag k="ssr:stedsnr" v="390840" />
	</node>
	<node lat="59.55400996051114" lon="5.423667400967306" id="-34596">
		<tag k="name" v="Krossgotøya" />
		<tag k="place" v="island" />
		<tag k="ssr:stedsnr" v="488158" />
	</node>
	<node lat="59.50379722363668" lon="5.263788896435017" id="-34599">
		<tag k="alt_name" v="Kvernaløpet" />
		<tag k="name" v="Kvernalaupet" />
		<tag k="place" v="locality" />
		<tag k="ssr:stedsnr" v="488126" />
	</node>
	<node lat="59.503471150343685" lon="5.440476755085435" id="-34600">
		<tag k="name" v="Torvmyrtjørna" />
		<tag k="natural" v="water" />
		<tag k="ssr:stedsnr" v="488141" />
	</node>
	<node lat="59.541438887980064" lon="5.293875000016461" id="-34602">
		<tag k="alt_name" v="Færåstjørna" />
		<tag k="name" v="Faråstjørna" />
		<tag k="natural" v="water" />
		<tag k="ssr:stedsnr" v="488166" />
	</node>
	<node lat="59.53667528116833" lon="5.286841230069075" id="-34604">
		<tag k="alt_name" v="Vandaskogstjørna" />
		<tag k="name" v="Vandaskogtjørna" />
		<tag k="natural" v="water" />
		<tag k="ssr:stedsnr" v="488181" />
	</node>
	<node lat="59.54686340471117" lon="5.267089861127677" id="-34605">
		<tag k="alt_name" v="Bøtjørn" />
		<tag k="name" v="Bøtjørna" />
		<tag k="natural" v="water" />
		<tag k="ssr:stedsnr" v="488209" />
	</node>
	<node lat="59.59002777658671" lon="5.489786119006674" id="-34608">
		<tag k="name" v="Mørkatjørna" />
		<tag k="natural" v="water" />
		<tag k="ssr:stedsnr" v="488377" />
	</node>
	<node lat="59.577350914887305" lon="5.3247524983480465" id="-34611">
		<tag k="alt_name" v="Anderstjørna" />
		<tag k="name" v="Anderstjørnane" />
		<tag k="natural" v="water" />
		<tag k="ssr:stedsnr" v="488788" />
		<tag k="water" v="lake" />
	</node>
	<node lat="59.61963407344185" lon="5.424237489045105" id="-34612">
		<tag k="alt_name" v="Fagerlandsvatnet" />
		<tag k="name" v="Fagerlandvatnet" />
		<tag k="natural" v="water" />
		<tag k="ssr:stedsnr" v="488852" />
	</node>
	<node lat="59.63953333074091" lon="5.40269167446417" id="-34613">
		<tag k="alt_name" v="Killingeodden" />
		<tag k="name" v="Killingodden" />
		<tag k="natural" v="cape" />
		<tag k="ssr:stedsnr" v="488831" />
	</node>
	<node lat="59.61106944010972" lon="5.333508328068152" id="-34614">
		<tag k="alt_name" v="Skitnatjørna" />
		<tag k="name" v="Skiftatjørna" />
		<tag k="natural" v="water" />
		<tag k="ssr:stedsnr" v="488841" />
	</node>
	<node lat="59.559628479058695" lon="5.348003471497133" id="-34629">
		<tag k="name" v="Maritjørna" />
		<tag k="natural" v="water" />
		<tag k="ssr:stedsnr" v="428206" />
	</node>
	<node lat="59.555027774600404" lon="5.426075000741734" id="-34642">
		<tag k="name" v="Mækjelandsøya" />
		<tag k="place" v="island" />
		<tag k="ssr:stedsnr" v="451010" />
	</node>
	<node lat="59.72478337100885" lon="5.5266371208133505" id="-34644">
		<tag k="name" v="Indre Tjørna" />
		<tag k="natural" v="water" />
		<tag k="ssr:stedsnr" v="451162" />
	</node>
	<node lat="59.67307104724311" lon="5.517923981094273" id="-34645">
		<tag k="name" v="Haugsbustemmen" />
		<tag k="natural" v="water" />
		<tag k="ssr:stedsnr" v="451215" />
	</node>
	<node lat="59.5055444410458" lon="5.415774996095841" id="-34661">
		<tag k="name" v="Tømmervik" />
		<tag k="natural" v="bay" />
		<tag k="ssr:stedsnr" v="451917" />
	</node>
	<node lat="59.58239166666247" lon="5.394463884839843" id="-34662">
		<tag k="alt_name" v="Dillaråno" />
		<tag k="name" v="Dillaråna" />
		<tag k="ssr:stedsnr" v="671784" />
		<tag k="waterway" v="stream" />
	</node>
	<node lat="59.5977218115754" lon="5.335060978807167" id="-34663">
		<tag k="name" v="Kvernavatnet" />
		<tag k="natural" v="water" />
		<tag k="ssr:stedsnr" v="671757" />
	</node>
	<node lat="59.566838892186986" lon="5.49078610213994" id="-34670">
		<tag k="alt_name" v="Ravnabjørtørn" />
		<tag k="name" v="Ramnabørtjørna" />
		<tag k="natural" v="water" />
		<tag k="ssr:stedsnr" v="488317" />
	</node>
	<node lat="59.52708885556706" lon="5.268445117880736" id="-34685">
		<tag k="name" v="Torvhaugtjørn" />
		<tag k="natural" v="water" />
		<tag k="ssr:stedsnr" v="511102" />
	</node>
	<node lat="59.693529869632464" lon="5.51610192854843" id="-34707">
		<tag k="name" v="Fjellstemmen" />
		<tag k="natural" v="water" />
		<tag k="ssr:stedsnr" v="549058" />
	</node>
	<node lat="59.5485747710602" lon="5.3336599883172875" id="-34710">
		<tag k="name" v="Åsetjørna" />
		<tag k="natural" v="water" />
		<tag k="ssr:stedsnr" v="549202" />
	</node>
	<node lat="59.57650754196471" lon="5.438553977165098" id="-34712">
		<tag k="alt_name" v="Moldbrekkevatnet" />
		<tag k="name" v="Moldbrekkvatnet" />
		<tag k="natural" v="water" />
		<tag k="ssr:stedsnr" v="549218" />
	</node>
	<node lat="59.5884333325222" lon="5.432011110020853" id="-34733">
		<tag k="name" v="Krokabekken" />
		<tag k="ssr:stedsnr" v="572001" />
		<tag k="waterway" v="stream" />
	</node>
	<node lat="59.519888888945076" lon="5.358722217515906" id="-34739">
		<tag k="name" v="Naustvika" />
		<tag k="natural" v="bay" />
		<tag k="ssr:stedsnr" v="572521" />
	</node>
	<node lat="59.538750000564924" lon="5.38900277241206" id="-34748">
		<tag k="name" v="Mulavika" />
		<tag k="natural" v="bay" />
		<tag k="ssr:stedsnr" v="572900" />
	</node>
	<node lat="59.50244444862955" lon="5.379177769872477" id="-34771">
		<tag k="name" v="Holmastøa" />
		<tag k="natural" v="bay" />
		<tag k="ssr:stedsnr" v="694895" />
	</node>
	<node lat="59.49503055823383" lon="5.377719446610061" id="-34778">
		<tag k="name" v="Kvernatjørna" />
		<tag k="natural" v="water" />
		<tag k="ssr:stedsnr" v="694909" />
	</node>
	<node lat="59.51178611292644" lon="5.440630554528104" id="-34781">
		<tag k="name" v="Fjonelva" />
		<tag k="ssr:stedsnr" v="694953" />
		<tag k="waterway" v="river" />
	</node>
	<node lat="59.52382282585316" lon="5.333629463633563" id="-34799">
		<tag k="alt_name" v="Bjørketjørn" />
		<tag k="name" v="Bjørketjørna" />
		<tag k="natural" v="water" />
		<tag k="ssr:stedsnr" v="610193" />
	</node>
	<node lat="59.6380249960017" lon="5.4832805631519" id="-34800">
		<tag k="name" v="Mørkavatnet" />
		<tag k="natural" v="water" />
		<tag k="ssr:stedsnr" v="610525" />
	</node>
	<node lat="59.5257875819905" lon="5.336405618874859" id="-34804">
		<tag k="name" v="Hoklatjørna" />
		<tag k="natural" v="water" />
		<tag k="ssr:stedsnr" v="632506" />
	</node>
	<node lat="59.54004722614578" lon="5.400113885576755" id="-34810">
		<tag k="name" v="Hådyrsklubben" />
		<tag k="natural" v="cape" />
		<tag k="ssr:stedsnr" v="632885" />
	</node>
	<node lat="59.5646499974803" lon="5.469563883859773" id="-34813">
		<tag k="name" v="Skjenet" />
		<tag k="natural" v="cape" />
		<tag k="ssr:stedsnr" v="633036" />
	</node>
	<node lat="59.530225000630615" lon="5.469913895130911" id="-34816">
		<tag k="name" v="Flatneselva" />
		<tag k="ssr:stedsnr" v="633143" />
		<tag k="waterway" v="river" />
	</node>
	<node lat="59.5361388883766" lon="5.382544437906058" id="-34833">
		<tag k="name" v="Bruraholmen" />
		<tag k="place" v="islet" />
		<tag k="ssr:stedsnr" v="670213" />
	</node>
	<node lat="59.57899166993961" lon="5.406113896955595" id="-34845">
		<tag k="name" v="Turkaneset" />
		<tag k="natural" v="cape" />
		<tag k="ssr:stedsnr" v="694211" />
	</node>
	<node lat="59.67183888669543" lon="5.531755559479201" id="-34847">
		<tag k="name" v="Utlemyrstjørna" />
		<tag k="natural" v="water" />
		<tag k="ssr:stedsnr" v="694178" />
	</node>
	<node lat="59.58334722326004" lon="5.351902777937839" id="-34849">
		<tag k="name" v="Færåsbekken" />
		<tag k="ssr:stedsnr" v="694515" />
		<tag k="waterway" v="stream" />
	</node>
	<node lat="59.5974004274762" lon="5.328751944594226" id="-34854">
		<tag k="alt_name" v="L. Lundavatnet" />
		<tag k="name" v="Litla Lundavatnet" />
		<tag k="natural" v="water" />
		<tag k="ssr:stedsnr" v="694567" />
		<tag k="water" v="lake" />
	</node>
	<node lat="59.608188886423264" lon="5.378019444620797" id="-34860">
		<tag k="name" v="Storebekken" />
		<tag k="ssr:stedsnr" v="694786" />
		<tag k="waterway" v="stream" />
	</node>
	<node lat="59.54215277880722" lon="5.406683331408531" id="-34862">
		<tag k="name" v="Fureholmen" />
		<tag k="place" v="islet" />
		<tag k="ssr:stedsnr" v="694877" />
	</node>
	<node lat="59.4976661636182" lon="5.439325056794784" id="-34863">
		<tag k="name" v="Rotatjørna" />
		<tag k="natural" v="water" />
		<tag k="ssr:stedsnr" v="694891" />
	</node>
	<node lat="59.50859722054454" lon="5.355999991654579" id="-34869">
		<tag k="name" v="Sandvika" />
		<tag k="natural" v="bay" />
		<tag k="ssr:stedsnr" v="731119" />
	</node>
	<node lat="59.586773394243885" lon="5.352323604751454" id="-34876">
		<tag k="name" v="Sandsvatnet" />
		<tag k="natural" v="water" />
		<tag k="ssr:stedsnr" v="731804" />
	</node>
	<node lat="59.59008498833744" lon="5.375264810816246" id="-34877">
		<tag k="name" v="Vadtjørna" />
		<tag k="natural" v="water" />
		<tag k="ssr:stedsnr" v="731808" />
	</node>
	<node lat="59.525958331795586" lon="5.306986114520855" id="-34889">
		<tag k="name" v="Istertveitbekken" />
		<tag k="ssr:stedsnr" v="754558" />
		<tag k="waterway" v="stream" />
	</node>
	<node lat="59.51130555890363" lon="5.414280553163021" id="-34897">
		<tag k="alt_name" v="Kollesund" />
		<tag k="name" v="Kollesundet" />
		<tag k="natural" v="strait" />
		<tag k="ssr:stedsnr" v="791142" />
	</node>
	<node lat="59.55278333690457" lon="5.319613888910483" id="-34898">
		<tag k="name" v="Sandvatnet" />
		<tag k="natural" v="water" />
		<tag k="ssr:stedsnr" v="791250" />
	</node>
	<node lat="59.589817350882456" lon="5.449102643606764" id="-34900">
		<tag k="name" v="Vassneset" />
		<tag k="natural" v="cape" />
		<tag k="ssr:stedsnr" v="791803" />
	</node>
	<node lat="59.631973001042354" lon="5.388042674666355" id="-34901">
		<tag k="alt_name" v="Tvillingtjørnane" />
		<tag k="name" v="Tvillingtjørna" />
		<tag k="natural" v="water" />
		<tag k="ssr:stedsnr" v="791842" />
		<tag k="water" v="lake" />
	</node>
	<node lat="59.63667297638763" lon="5.391298882354921" id="-34902">
		<tag k="name" v="Mjånestjørna" />
		<tag k="natural" v="water" />
		<tag k="ssr:stedsnr" v="791843" />
	</node>
	<node lat="59.506622225912025" lon="5.4092972155460615" id="-34912">
		<tag k="name" v="Botsvika" />
		<tag k="natural" v="bay" />
		<tag k="ssr:stedsnr" v="913146" />
	</node>
	<node lat="59.54023798885528" lon="5.27554001944677" id="-34913">
		<tag k="name" v="Kovatjørna" />
		<tag k="natural" v="water" />
		<tag k="ssr:stedsnr" v="913180" />
	</node>
	<node lat="59.5834527755174" lon="5.497675000355708" id="-34915">
		<tag k="alt_name" v="Røykeneselva" />
		<tag k="name" v="Lieråna" />
		<tag k="ssr:stedsnr" v="913374" />
		<tag k="waterway" v="stream" />
	</node>
	<node lat="59.58331388507138" lon="5.364786112760403" id="-34918">
		<tag k="name" v="Lauvåsvatnet" />
		<tag k="natural" v="water" />
		<tag k="ssr:stedsnr" v="913777" />
	</node>
	<node lat="59.515291666969304" lon="5.373036117876656" id="-34922">
		<tag k="alt_name" v="Dyngevågen" />
		<tag k="name" v="Dyngjevågen" />
		<tag k="natural" v="bay" />
		<tag k="ssr:stedsnr" v="914137" />
	</node>
	<node lat="59.5224957353594" lon="5.343393022559232" id="-34924">
		<tag k="name" v="Midtstemmetjørna" />
		<tag k="natural" v="water" />
		<tag k="ssr:stedsnr" v="914166" />
	</node>
	<node lat="59.569805551575165" lon="5.359741661878942" id="-34926">
		<tag k="alt_name" v="Furevatnet" />
		<tag k="name" v="Forevatnet" />
		<tag k="natural" v="water" />
		<tag k="ssr:stedsnr" v="914795" />
	</node>
	<node lat="59.598654503971424" lon="5.359088833255375" id="-34927">
		<tag k="name" v="Kinnavatnet" />
		<tag k="natural" v="water" />
		<tag k="ssr:stedsnr" v="914765" />
		<tag k="water" v="lake" />
	</node>
	<node lat="59.64460000196122" lon="5.390322221883601" id="-34931">
		<tag k="name" v="Vassbotn" />
		<tag k="natural" v="bay" />
		<tag k="ssr:stedsnr" v="815221" />
	</node>
	<node lat="59.57705102507447" lon="5.417989154748794" id="-34932">
		<tag k="name" v="Tveitaneset" />
		<tag k="natural" v="cape" />
		<tag k="ssr:stedsnr" v="815231" />
	</node>
	<node lat="59.59626666708224" lon="5.377963891890497" id="-34937">
		<tag k="name" v="Kvernebekken" />
		<tag k="ssr:stedsnr" v="815813" />
		<tag k="waterway" v="stream" />
	</node>
	<node lat="59.541247824770494" lon="5.474137651423509" id="-34943">
		<tag k="name" v="Hovdatjørna" />
		<tag k="natural" v="water" />
		<tag k="ssr:stedsnr" v="852310" />
	</node>
	<node lat="59.65983333553123" lon="5.5084388859842" id="-34945">
		<tag k="name" v="Trollavatnet" />
		<tag k="natural" v="water" />
		<tag k="ssr:stedsnr" v="853020" />
	</node>
	<node lat="59.51338231820128" lon="5.430710403685305" id="-34946">
		<tag k="name" v="Mørkavatnet" />
		<tag k="natural" v="water" />
		<tag k="ssr:stedsnr" v="853106" />
	</node>
	<node lat="59.55176005569149" lon="5.41506324119624" id="-34947">
		<tag k="name" v="Liavatnet" />
		<tag k="natural" v="water" />
		<tag k="ssr:stedsnr" v="853158" />
		<tag k="water" v="lake" />
	</node>
	<node lat="59.528422652430436" lon="5.491556488805531" id="-34948">
		<tag k="alt_name" v="Søre Tjørna" />
		<tag k="name" v="Søratjørna" />
		<tag k="natural" v="water" />
		<tag k="ssr:stedsnr" v="853276" />
	</node>
	<node lat="59.60920311360646" lon="5.346118682155202" id="-34950">
		<tag k="name" v="Storavatnet" />
		<tag k="natural" v="water" />
		<tag k="ssr:stedsnr" v="854050" />
		<tag k="water" v="lake" />
	</node>
	<node lat="59.58063611056564" lon="5.4354527742826635" id="-34954">
		<tag k="name" v="Skorvebekken" />
		<tag k="ssr:stedsnr" v="876016" />
		<tag k="waterway" v="stream" />
	</node>
	<node lat="59.54138717525047" lon="5.426877590532331" id="-34977">
		<tag k="alt_name" v="Krossvikvatnet" />
		<tag k="name" v="Krossvikevatnet" />
		<tag k="natural" v="water" />
		<tag k="ssr:stedsnr" v="913161" />
		<tag k="water" v="lake" />
	</node>
	<node lat="59.565766670743805" lon="5.463486106945227" id="-34979">
		<tag k="alt_name" v="Longanes" />
		<tag k="name" v="Longaneset" />
		<tag k="natural" v="cape" />
		<tag k="ssr:stedsnr" v="913222" />
	</node>
	<node lat="59.55537252358971" lon="5.311868763243702" id="-34980">
		<tag k="name" v="Holmavatnet" />
		<tag k="natural" v="water" />
		<tag k="ssr:stedsnr" v="913223" />
	</node>
	<node lat="59.594301846598015" lon="5.486236191868374" id="-34983">
		<tag k="name" v="Joavatnet" />
		<tag k="natural" v="water" />
		<tag k="ssr:stedsnr" v="913389" />
		<tag k="water" v="lake" />
	</node>
	<node lat="59.602790589088414" lon="5.48777163246981" id="-34984">
		<tag k="alt_name" v="Banndalstjørna" />
		<tag k="name" v="Banddalstjørna" />
		<tag k="natural" v="water" />
		<tag k="ssr:stedsnr" v="913402" />
	</node>
	<node lat="59.64336138843577" lon="5.4555714406659535" id="-34988">
		<tag k="name" v="Bøtjørna" />
		<tag k="natural" v="water" />
		<tag k="ssr:stedsnr" v="914911" />
	</node>
	<node lat="59.58032371555866" lon="5.441981852893441" id="-34990">
		<tag k="name" v="Nilsatjørna" />
		<tag k="natural" v="water" />
		<tag k="ssr:stedsnr" v="936113" />
	</node>
	<node lat="59.57516667105722" lon="5.295216670638046" id="-34991">
		<tag k="name" v="Rundetjørn" />
		<tag k="natural" v="water" />
		<tag k="ssr:stedsnr" v="936092" />
	</node>
	<node lat="59.554602911555214" lon="5.363264750846089" id="-35002">
		<tag k="name" v="Håvåstjørna" />
		<tag k="natural" v="water" />
		<tag k="ssr:stedsnr" v="937098" />
	</node>
	<node lat="59.59695833758088" lon="5.5086833343029085" id="-35004">
		<tag k="name" v="Paddetjørna" />
		<tag k="natural" v="water" />
		<tag k="ssr:stedsnr" v="937205" />
	</node>
	<node lat="59.53502723885349" lon="5.488623400838728" id="-35017">
		<tag k="name" v="Tveitetjørna" />
		<tag k="natural" v="water" />
		<tag k="ssr:stedsnr" v="3285" />
	</node>
	<node lat="59.51280278027357" lon="5.39970833670956" id="-35022">
		<tag k="name" v="Sildatønnholmen" />
		<tag k="place" v="islet" />
		<tag k="ssr:stedsnr" v="3137" />
	</node>
	<node lat="59.527444650712376" lon="5.331553801215476" id="-35026">
		<tag k="alt_name" v="Kvitabergstjørna" />
		<tag k="name" v="Kvitabergtjørna" />
		<tag k="natural" v="water" />
		<tag k="ssr:stedsnr" v="3152" />
	</node>
	<node lat="59.51095285416851" lon="5.318435519901149" id="-35028">
		<tag k="name" v="Vrangtjørna" />
		<tag k="natural" v="water" />
		<tag k="ssr:stedsnr" v="3160" />
	</node>
	<node lat="59.530429449523496" lon="5.297761411407694" id="-35031">
		<tag k="alt_name" v="Sandvatnet, l" />
		<tag k="name" v="Litla Sandvatnet" />
		<tag k="natural" v="water" />
		<tag k="ssr:stedsnr" v="3183" />
	</node>
	<node lat="59.53771110951888" lon="5.383136117369216" id="-35033">
		<tag k="name" v="Mulaholmen" />
		<tag k="place" v="islet" />
		<tag k="ssr:stedsnr" v="3187" />
	</node>
	<node lat="59.53813055521342" lon="5.391872230552667" id="-35034">
		<tag k="name" v="Hådyrsholmen" />
		<tag k="place" v="islet" />
		<tag k="ssr:stedsnr" v="3190" />
	</node>
	<node lat="59.56349606756294" lon="5.352240755733525" id="-35035">
		<tag k="name" v="Krokavatnet" />
		<tag k="natural" v="water" />
		<tag k="ssr:stedsnr" v="3202" />
	</node>
	<node lat="59.55344627722105" lon="5.383333321717899" id="-35036">
		<tag k="name" v="Bjellandsvatnet" />
		<tag k="natural" v="water" />
		<tag k="ssr:stedsnr" v="3219" />
		<tag k="water" v="lake" />
	</node>
	<node lat="59.64090091829951" lon="5.403146546256123" id="-35040">
		<tag k="name" v="Storavatnet" />
		<tag k="natural" v="water" />
		<tag k="ssr:stedsnr" v="3939" />
		<tag k="water" v="lake" />
	</node>
	<node lat="59.616738889926424" lon="5.401086106644181" id="-35042">
		<tag k="name" v="Nausebekken" />
		<tag k="ssr:stedsnr" v="3858" />
		<tag k="waterway" v="stream" />
	</node>
	<node lat="59.67728840528738" lon="5.450348430007116" id="-35047">
		<tag k="name" v="Hauglandsvatnet" />
		<tag k="natural" v="water" />
		<tag k="ssr:stedsnr" v="26184" />
		<tag k="water" v="lake" />
	</node>
	<node lat="59.50805278127422" lon="5.421644449667407" id="-35049">
		<tag k="name" v="Storeholmen" />
		<tag k="place" v="islet" />
		<tag k="ssr:stedsnr" v="26972" />
	</node>
	<node lat="59.56392777961853" lon="5.436719444020935" id="-35052">
		<tag k="name" v="Hedleid" />
		<tag k="place" v="locality" />
		<tag k="ssr:stedsnr" v="26037" />
	</node>
	<node lat="59.59447499851386" lon="5.312741668386313" id="-35057">
		<tag k="name" v="Grindabekken" />
		<tag k="ssr:stedsnr" v="26575" />
		<tag k="waterway" v="stream" />
	</node>
	<node lat="59.540491666463346" lon="5.301025008033533" id="-35060">
		<tag k="name" v="Åsbubekken" />
		<tag k="ssr:stedsnr" v="26531" />
		<tag k="waterway" v="stream" />
	</node>
	<node lat="59.7214297072579" lon="5.514959228651966" id="-35064">
		<tag k="name" v="Gramshaugtjørna" />
		<tag k="natural" v="water" />
		<tag k="ssr:stedsnr" v="26652" />
	</node>
	<node lat="59.60554444456665" lon="5.403738893598273" id="-35066">
		<tag k="name" v="Ørebekken" />
		<tag k="ssr:stedsnr" v="26761" />
		<tag k="waterway" v="stream" />
	</node>
	<node lat="59.508399999907915" lon="5.424780554481558" id="-35087">
		<tag k="alt_name" v="Flateholmen" />
		<tag k="name" v="Flatholmen" />
		<tag k="place" v="islet" />
		<tag k="ssr:stedsnr" v="63149" />
	</node>
	<node lat="59.56147132315898" lon="5.366888650548928" id="-35088">
		<tag k="alt_name" v="Furetjørn" />
		<tag k="name" v="Foretjørna" />
		<tag k="natural" v="water" />
		<tag k="ssr:stedsnr" v="63239" />
	</node>
	<node lat="59.561094443048646" lon="5.328747217891557" id="-35089">
		<tag k="name" v="Kleivavatnet" />
		<tag k="natural" v="water" />
		<tag k="ssr:stedsnr" v="63241" />
	</node>
	<node lat="59.561019163601735" lon="5.389421977085736" id="-35090">
		<tag k="alt_name" v="Tjørnaråspøylene" />
		<tag k="name" v="Tjørnaåspøylene" />
		<tag k="natural" v="water" />
		<tag k="ssr:stedsnr" v="63251" />
	</node>
	<node lat="59.56208949353639" lon="5.408219134114378" id="-35091">
		<tag k="name" v="Kyrkjetjørna" />
		<tag k="natural" v="water" />
		<tag k="ssr:stedsnr" v="63253" />
	</node>
	<node lat="59.55312222593709" lon="5.419572219555377" id="-35099">
		<tag k="alt_name" v="Tunge" />
		<tag k="name" v="Tunga" />
		<tag k="natural" v="cape" />
		<tag k="ssr:stedsnr" v="64177" />
	</node>
	<node lat="59.59785833767253" lon="5.413002784742097" id="-35101">
		<tag k="alt_name" v="Vassbotn, søre;Søndre Vassbotn" />
		<tag k="name" v="Søre Vassbotn" />
		<tag k="natural" v="bay" />
		<tag k="ssr:stedsnr" v="63752" />
	</node>
	<node lat="59.544511111825884" lon="5.408147223879349" id="-35104">
		<tag k="alt_name" v="Storøy" />
		<tag k="name" v="Storøya" />
		<tag k="place" v="island" />
		<tag k="ssr:stedsnr" v="64189" />
	</node>
	<node lat="59.53095509013412" lon="5.496800321259813" id="-35109">
		<tag k="name" v="Buaviktjørna" />
		<tag k="natural" v="water" />
		<tag k="ssr:stedsnr" v="64299" />
	</node>
	<node lat="59.58177992552352" lon="5.376560979308974" id="-35113">
		<tag k="name" v="Dillavatnet" />
		<tag k="natural" v="water" />
		<tag k="ssr:stedsnr" v="64798" />
	</node>
	<node lat="59.57736241132129" lon="5.41623011706122" id="-35117">
		<tag k="name" v="Kadlaklatten" />
		<tag k="natural" v="cape" />
		<tag k="ssr:stedsnr" v="87042" />
	</node>
	<node lat="59.55833906795337" lon="5.430265117041374" id="-35118">
		<tag k="name" v="Haukåsvatnet" />
		<tag k="natural" v="water" />
		<tag k="ssr:stedsnr" v="87043" />
		<tag k="water" v="lake" />
	</node>
	<node lat="59.5883583356211" lon="5.398213891308342" id="-35125">
		<tag k="name" v="Breivassklubben" />
		<tag k="natural" v="cape" />
		<tag k="ssr:stedsnr" v="87224" />
	</node>
	<node lat="59.49829368451752" lon="5.416551744506414" id="-35152">
		<tag k="name" v="Litlavatnet" />
		<tag k="natural" v="water" />
		<tag k="ssr:stedsnr" v="123729" />
	</node>
	<node lat="59.56315321708729" lon="5.344160077457327" id="-35157">
=======
	<node id="-600071" lat="59.5550277746" lon="5.42607500074">
		<tag k="name" v="Mækjelandsøya" />
		<tag k="place" v="island" />
		<tag k="ssr:stedsnr" v="451010" />
	</node>
	<node id="-600476" lat="59.5803237156" lon="5.44198185289">
		<tag k="name" v="Nilsatjørna" />
		<tag k="natural" v="water" />
		<tag k="ssr:stedsnr" v="936113" />
	</node>
	<node id="-600987" lat="59.4764805554" lon="5.31232221813">
		<tag k="name" v="Bukkanes" />
		<tag k="natural" v="cape" />
		<tag k="ssr:stedsnr" v="390099" />
	</node>
	<node id="-599962" lat="59.5668388922" lon="5.49078610214">
		<tag k="alt_name" v="Ravnabjørtørn" />
		<tag k="name" v="Ramnabørtjørna" />
		<tag k="natural" v="water" />
		<tag k="ssr:stedsnr" v="488317" />
	</node>
	<node id="-600715" lat="59.5669533892" lon="5.4389129223">
		<tag k="alt_name" v="Moldbrekkevatnet" />
		<tag k="name" v="Moldbrekkvatnet" />
		<tag k="natural" v="water" />
		<tag k="ssr:stedsnr" v="125084" />
	</node>
	<node id="-599960" lat="59.5468634047" lon="5.26708986113">
		<tag k="alt_name" v="Bøtjørn" />
		<tag k="name" v="Bøtjørna" />
		<tag k="natural" v="water" />
		<tag k="ssr:stedsnr" v="488209" />
	</node>
	<node id="-599959" lat="59.5366752812" lon="5.28684123007">
		<tag k="alt_name" v="Vandaskogstjørna" />
		<tag k="name" v="Vandaskogtjørna" />
		<tag k="natural" v="water" />
		<tag k="ssr:stedsnr" v="488181" />
	</node>
	<node id="-599957" lat="59.541438888" lon="5.29387500002">
		<tag k="alt_name" v="Færåstjørna" />
		<tag k="name" v="Faråstjørna" />
		<tag k="natural" v="water" />
		<tag k="ssr:stedsnr" v="488166" />
	</node>
	<node id="-599956" lat="59.5540099605" lon="5.42366740097">
		<tag k="name" v="Krossgotøya" />
		<tag k="place" v="island" />
		<tag k="ssr:stedsnr" v="488158" />
	</node>
	<node id="-600465" lat="59.5806361106" lon="5.43545277428">
		<tag k="name" v="Skorvebekken" />
		<tag k="ssr:stedsnr" v="876016" />
		<tag k="waterway" v="stream" />
	</node>
	<node id="-599952" lat="59.5037972236" lon="5.26378889644">
		<tag k="alt_name" v="Kvernaløpet" />
		<tag k="name" v="Kvernalaupet" />
		<tag k="natural" v="strait" />
		<tag k="ssr:stedsnr" v="488126" />
	</node>
	<node id="-600975" lat="59.6062281888" lon="5.33861526141">
		<tag k="alt_name" v="Rotadalstjørna" />
		<tag k="name" v="Rotdaltjørna" />
		<tag k="natural" v="water" />
		<tag k="ssr:stedsnr" v="367831" />
	</node>
	<node id="-599794" lat="59.6198333377" lon="5.35185556087">
		<tag k="name" v="Sandvika" />
		<tag k="natural" v="bay" />
		<tag k="ssr:stedsnr" v="246849" />
	</node>
	<node id="-600461" lat="59.6337868194" lon="5.49567857078">
		<tag k="alt_name" v="Børvågsvatnet" />
		<tag k="name" v="Bårvågsvatnet" />
		<tag k="natural" v="water" />
		<tag k="ssr:stedsnr" v="853466" />
		<tag k="water" v="lake" />
	</node>
	<node id="-600972" lat="59.5799569352" lon="5.42392130448">
		<tag k="name" v="Rødvatnet" />
		<tag k="natural" v="water" />
		<tag k="ssr:stedsnr" v="367774" />
	</node>
	<node id="-600970" lat="59.5771482367" lon="5.34908903844">
		<tag k="alt_name" v="Stemmetjørn" />
		<tag k="name" v="Stemmetjørna" />
		<tag k="natural" v="water" />
		<tag k="old_name" v="Slemmetjørna" />
		<tag k="ssr:stedsnr" v="367771" />
	</node>
	<node id="-600457" lat="59.5517600557" lon="5.4150632412">
		<tag k="name" v="Liavatnet" />
		<tag k="natural" v="water" />
		<tag k="ssr:stedsnr" v="853158" />
		<tag k="water" v="lake" />
	</node>
	<node id="-600968" lat="59.5691361113" lon="5.31523888832">
		<tag k="alt_name" v="Trehovdetjørna" />
		<tag k="name" v="Trehovdatjørna" />
		<tag k="natural" v="water" />
		<tag k="ssr:stedsnr" v="367763" />
	</node>
	<node id="-600967" lat="59.6097138925" lon="5.41434444729">
		<tag k="alt_name" v="Vassbotn, nordre" />
		<tag k="name" v="Nordre Vassbotn" />
		<tag k="natural" v="bay" />
		<tag k="ssr:stedsnr" v="367754" />
	</node>
	<node id="-600966" lat="59.5946116625" lon="5.37731936292">
		<tag k="alt_name" v="Vadvatnet (nordre)" />
		<tag k="name" v="Vadvatnet" />
		<tag k="natural" v="water" />
		<tag k="ssr:stedsnr" v="367742" />
	</node>
	<node id="-600453" lat="59.7127048863" lon="5.52974611819">
		<tag k="name" v="Pollhola" />
		<tag k="natural" v="water" />
		<tag k="ssr:stedsnr" v="853054" />
	</node>
	<node id="-599940" lat="59.5168855094" lon="5.36370216069">
		<tag k="name" v="Turranes" />
		<tag k="natural" v="cape" />
		<tag k="ssr:stedsnr" v="307137" />
	</node>
	<node id="-600450" lat="59.5412478248" lon="5.47413765142">
		<tag k="name" v="Hovdatjørna" />
		<tag k="natural" v="water" />
		<tag k="ssr:stedsnr" v="852310" />
	</node>
	<node id="-600207" lat="59.604425003" lon="5.41214722988">
		<tag k="name" v="Båsanes" />
		<tag k="natural" v="cape" />
		<tag k="ssr:stedsnr" v="632772" />
	</node>
	<node id="-599935" lat="59.6790472229" lon="5.45930277773">
		<tag k="name" v="Saga" />
		<tag k="natural" v="bay" />
		<tag k="ssr:stedsnr" v="270763" />
	</node>
	<node id="-600958" lat="59.533563118" lon="5.47639301709">
		<tag k="name" v="Flatnesvatnet" />
		<tag k="natural" v="water" />
		<tag k="ssr:stedsnr" v="367249" />
		<tag k="water" v="lake" />
	</node>
	<node id="-600955" lat="59.5114250011" lon="5.36236110306">
		<tag k="alt_name" v="Skorpå" />
		<tag k="name" v="Skorpo" />
		<tag k="place" v="island" />
		<tag k="ssr:stedsnr" v="367127" />
	</node>
	<node id="-600954" lat="59.5106222226" lon="5.37739166718">
		<tag k="alt_name" v="Krossnes" />
		<tag k="name" v="Krossneset" />
		<tag k="natural" v="cape" />
		<tag k="ssr:stedsnr" v="367126" />
	</node>
	<node id="-600953" lat="59.5045087378" lon="5.26191413873">
		<tag k="name" v="Mørkavatnet" />
		<tag k="natural" v="water" />
		<tag k="ssr:stedsnr" v="367124" />
		<tag k="water" v="lake" />
	</node>
	<node id="-600950" lat="59.5175854213" lon="5.37002641246">
		<tag k="alt_name" v="Skorpenes" />
		<tag k="name" v="Skorpeneset" />
		<tag k="natural" v="cape" />
		<tag k="ssr:stedsnr" v="367115" />
	</node>
	<node id="-600947" lat="59.682066649" lon="5.51963415715">
		<tag k="alt_name" v="Gamleolastemmen" />
		<tag k="name" v="Olastemmen" />
		<tag k="natural" v="water" />
		<tag k="ssr:stedsnr" v="367026" />
	</node>
	<node id="-600946" lat="59.6657389546" lon="5.50406202517">
		<tag k="name" v="Steinsvatnet" />
		<tag k="natural" v="water" />
		<tag k="ssr:stedsnr" v="367009" />
	</node>
	<node id="-599921" lat="59.5886555579" lon="5.39450833055">
		<tag k="name" v="Skarhaugtåa" />
		<tag k="natural" v="cape" />
		<tag k="ssr:stedsnr" v="269258" />
	</node>
	<node id="-599920" lat="59.5870166676" lon="5.3956222192">
		<tag k="name" v="Sturtevika" />
		<tag k="natural" v="bay" />
		<tag k="ssr:stedsnr" v="269256" />
	</node>
	<node id="-600428" lat="59.5969416697" lon="5.34241388444">
		<tag k="name" v="Måkaholmen" />
		<tag k="place" v="islet" />
		<tag k="ssr:stedsnr" v="937256" />
	</node>
	<node id="-600427" lat="59.5546029116" lon="5.36326475085">
		<tag k="name" v="Håvåstjørna" />
		<tag k="natural" v="water" />
		<tag k="ssr:stedsnr" v="937098" />
	</node>
	<node id="-601092" lat="59.5257933079" lon="5.41408361043">
		<tag k="alt_name" v="Askdalevatnet" />
		<tag k="name" v="Aksdalsvatnet" />
		<tag k="natural" v="water" />
		<tag k="ssr:stedsnr" v="549182" />
	</node>
	<node id="-599953" lat="59.5034711503" lon="5.44047675509">
		<tag k="name" v="Torvmyrtjørna" />
		<tag k="natural" v="water" />
		<tag k="ssr:stedsnr" v="488141" />
	</node>
	<node id="-600931" lat="59.5912833292" lon="5.34724999302">
		<tag k="name" v="Torjulsbekken" />
		<tag k="ssr:stedsnr" v="330657" />
		<tag k="waterway" v="stream" />
	</node>
	<node id="-600710" lat="59.6421277779" lon="5.40422500108">
		<tag k="alt_name" v="Vassøy" />
		<tag k="name" v="Vassøya" />
		<tag k="place" v="islet" />
		<tag k="ssr:stedsnr" v="124900" />
	</node>
	<node id="-600411" lat="59.5027141425" lon="5.3028819455">
		<tag k="name" v="Kvernavatnet" />
		<tag k="natural" v="water" />
		<tag k="ssr:stedsnr" v="936670" />
		<tag k="water" v="lake" />
	</node>
	<node id="-600410" lat="59.6808750007" lon="5.46129722928">
		<tag k="name" v="Storholmen" />
		<tag k="place" v="islet" />
		<tag k="ssr:stedsnr" v="936627" />
	</node>
	<node id="-600463" lat="59.5707179252" lon="5.34106249915">
		<tag k="alt_name" v="Skarhaugtjørna" />
		<tag k="name" v="Skardhaugtjørna" />
		<tag k="natural" v="water" />
		<tag k="ssr:stedsnr" v="853770" />
	</node>
	<node id="-599896" lat="59.5451194414" lon="5.29793056256">
		<tag k="name" v="Ølkonebekken" />
		<tag k="ssr:stedsnr" v="451548" />
		<tag k="waterway" v="stream" />
	</node>
	<node id="-600082" lat="59.6003222223" lon="5.38431943918">
		<tag k="name" v="Fossebekken" />
		<tag k="ssr:stedsnr" v="451818" />
		<tag k="waterway" v="stream" />
	</node>
	<node id="-600406" lat="59.5550065161" lon="5.32740292022">
		<tag k="name" v="Tinetjørna" />
		<tag k="natural" v="water" />
		<tag k="ssr:stedsnr" v="936552" />
	</node>
	<node id="-599893" lat="59.5775111095" lon="5.41021389771">
		<tag k="name" v="Kvernabekken" />
		<tag k="ssr:stedsnr" v="451262" />
		<tag k="waterway" v="stream" />
	</node>
	<node id="-600915" lat="59.5163579885" lon="5.42844785232">
		<tag k="name" v="Gråbergtjørn" />
		<tag k="natural" v="water" />
		<tag k="ssr:stedsnr" v="329985" />
	</node>
	<node id="-599890" lat="59.724783371" lon="5.52663712081">
		<tag k="name" v="Indre Tjørna" />
		<tag k="natural" v="water" />
		<tag k="ssr:stedsnr" v="451162" />
	</node>
	<node id="-600857" lat="59.5228410741" lon="5.29789425451">
		<tag k="alt_name" v="Forevatnet;Forevatnet, L;Furevatnet" />
		<tag k="name" v="Urdalsvatnet" />
		<tag k="natural" v="water" />
		<tag k="ssr:stedsnr" v="306157" />
	</node>
	<node id="-600912" lat="59.6428333368" lon="5.39225278387">
		<tag k="name" v="Ommundsvik" />
		<tag k="natural" v="bay" />
		<tag k="ssr:stedsnr" v="330076" />
	</node>
	<node id="-600910" lat="59.5644861096" lon="5.45724722447">
		<tag k="name" v="Kalvanes" />
		<tag k="natural" v="cape" />
		<tag k="ssr:stedsnr" v="330062" />
	</node>
	<node id="-600909" lat="59.5621666708" lon="5.46626666812">
		<tag k="name" v="Furevika" />
		<tag k="natural" v="bay" />
		<tag k="ssr:stedsnr" v="330044" />
	</node>
	<node id="-600218" lat="59.6911977386" lon="5.5122622814">
		<tag k="name" v="Ølestjørna" />
		<tag k="natural" v="water" />
		<tag k="ssr:stedsnr" v="633666" />
	</node>
	<node id="-599880" lat="59.5896148495" lon="5.41142653791">
		<tag k="name" v="Otratjørna" />
		<tag k="natural" v="water" />
		<tag k="ssr:stedsnr" v="451059" />
	</node>
	<node id="-600391" lat="59.588802781" lon="5.3482583258">
		<tag k="name" v="Sandvassbekken" />
		<tag k="ssr:stedsnr" v="815561" />
		<tag k="waterway" v="stream" />
	</node>
	<node id="-600902" lat="59.6100861091" lon="5.41672221491">
		<tag k="name" v="Vaulen" />
		<tag k="natural" v="strait" />
		<tag k="ssr:stedsnr" v="329766" />
	</node>
	<node id="-600033" lat="59.5909222254" lon="5.33069999318">
		<tag k="name" v="Kjellarbekken" />
		<tag k="ssr:stedsnr" v="511566" />
		<tag k="waterway" v="stream" />
	</node>
	<node id="-600899" lat="59.5621345308" lon="5.31162163995">
		<tag k="name" v="Ardalstjørna" />
		<tag k="natural" v="water" />
		<tag k="ssr:stedsnr" v="329574" />
	</node>
	<node id="-600386" lat="59.644600002" lon="5.39032222188">
		<tag k="name" v="Vassbotn" />
		<tag k="natural" v="bay" />
		<tag k="ssr:stedsnr" v="815221" />
	</node>
	<node id="-600897" lat="59.617566663" lon="5.34568611194">
		<tag k="name" v="Skjenet" />
		<tag k="natural" v="cape" />
		<tag k="ssr:stedsnr" v="329564" />
	</node>
	<node id="-599872" lat="59.5488918272" lon="5.28205129382">
		<tag k="name" v="Storavatnet" />
		<tag k="natural" v="water" />
		<tag k="ssr:stedsnr" v="245226" />
		<tag k="water" v="lake" />
	</node>
	<node id="-600383" lat="59.5656194438" lon="5.34790278288">
		<tag k="name" v="Krokavatnet" />
		<tag k="natural" v="water" />
		<tag k="ssr:stedsnr" v="815127" />
		<tag k="water" v="lake" />
	</node>
	<node id="-600117" lat="59.5977218116" lon="5.33506097881">
		<tag k="name" v="Kvernavatnet" />
		<tag k="natural" v="water" />
		<tag k="ssr:stedsnr" v="671757" />
	</node>
	<node id="-599866" lat="59.5286031028" lon="5.41542796794">
		<tag k="alt_name" v="Skjortetjørn" />
		<tag k="name" v="Skjørtetjørna" />
		<tag k="natural" v="water" />
		<tag k="ssr:stedsnr" v="185150" />
	</node>
	<node id="-600888" lat="59.6352218452" lon="5.47459590342">
		<tag k="name" v="Geitåstjørna" />
		<tag k="natural" v="water" />
		<tag k="ssr:stedsnr" v="307501" />
	</node>
	<node id="-600886" lat="59.5092104759" lon="5.30117799546">
		<tag k="name" v="Rongavatnet" />
		<tag k="natural" v="water" />
		<tag k="ssr:stedsnr" v="307205" />
		<tag k="water" v="lake" />
	</node>
	<node id="-600201" lat="59.5989190979" lon="5.33200782611">
		<tag k="alt_name" v="Lundavatnet;St.Lundavatnet" />
		<tag k="name" v="Stora Lundavatnet" />
		<tag k="natural" v="water" />
		<tag k="ssr:stedsnr" v="610776" />
	</node>
	<node id="-601395" lat="59.5746224977" lon="5.47703337614">
		<tag k="name" v="Toråstørna" />
		<tag k="natural" v="water" />
		<tag k="ssr:stedsnr" v="876146" />
	</node>
	<node id="-599857" lat="59.5962388878" lon="5.34831944041">
		<tag k="name" v="Kinnasanden" />
		<tag k="natural" v="bay" />
		<tag k="ssr:stedsnr" v="147912" />
	</node>
	<node id="-600368" lat="59.6366729764" lon="5.39129888235">
		<tag k="name" v="Mjånestjørna" />
		<tag k="natural" v="water" />
		<tag k="ssr:stedsnr" v="791843" />
	</node>
	<node id="-600456" lat="59.5284226524" lon="5.49155648881">
		<tag k="alt_name" v="Søre Tjørna" />
		<tag k="name" v="Søratjørna" />
		<tag k="natural" v="water" />
		<tag k="ssr:stedsnr" v="853276" />
	</node>
	<node id="-600366" lat="59.5898173509" lon="5.44910264361">
		<tag k="name" v="Vassneset" />
		<tag k="natural" v="cape" />
		<tag k="ssr:stedsnr" v="791803" />
	</node>
	<node id="-599853" lat="59.6538957437" lon="5.43845396189">
		<tag k="name" v="Djupadalstjørna" />
		<tag k="natural" v="water" />
		<tag k="ssr:stedsnr" v="147817" />
	</node>
	<node id="-601388" lat="59.6092031136" lon="5.34611868216">
		<tag k="name" v="Storavatnet" />
		<tag k="natural" v="water" />
		<tag k="ssr:stedsnr" v="854050" />
		<tag k="water" v="lake" />
	</node>
	<node id="-600874" lat="59.6095111105" lon="5.33468888931">
		<tag k="name" v="Sandvatnet" />
		<tag k="natural" v="water" />
		<tag k="ssr:stedsnr" v="306836" />
	</node>
	<node id="-600873" lat="59.604167702" lon="5.36112974535">
		<tag k="name" v="Svartebergtjørna" />
		<tag k="natural" v="water" />
		<tag k="ssr:stedsnr" v="306835" />
	</node>
	<node id="-600360" lat="59.5698055516" lon="5.35974166188">
		<tag k="alt_name" v="Furevatnet" />
		<tag k="name" v="Forevatnet" />
		<tag k="natural" v="water" />
		<tag k="ssr:stedsnr" v="914795" />
	</node>
	<node id="-601382" lat="59.6077322583" lon="5.35198586056">
		<tag k="alt_name" v="Svartatjørna" />
		<tag k="name" v="Kvemevatnet" />
		<tag k="natural" v="water" />
		<tag k="ssr:stedsnr" v="853846" />
	</node>
	<node id="-600357" lat="59.5224957354" lon="5.34339302256">
		<tag k="name" v="Midtstemmetjørna" />
		<tag k="natural" v="water" />
		<tag k="ssr:stedsnr" v="914166" />
	</node>
	<node id="-600356" lat="59.515291667" lon="5.37303611788">
		<tag k="alt_name" v="Dyngevågen" />
		<tag k="name" v="Dyngjevågen" />
		<tag k="natural" v="bay" />
		<tag k="ssr:stedsnr" v="914137" />
	</node>
	<node id="-600867" lat="59.5904747661" lon="5.41699841268">
		<tag k="name" v="Krokavatnet" />
		<tag k="natural" v="water" />
		<tag k="ssr:stedsnr" v="306778" />
		<tag k="water" v="lake" />
	</node>
	<node id="-601378" lat="59.5910611102" lon="5.51628611099">
		<tag k="alt_name" v="Røykenestjørna" />
		<tag k="name" v="Røykjenestjørna" />
		<tag k="natural" v="water" />
		<tag k="ssr:stedsnr" v="853397" />
	</node>
	<node id="-601376" lat="59.5315895661" lon="5.29395024633">
		<tag k="alt_name" v="Håvåsevatnet" />
		<tag k="name" v="Håvåsvatnet" />
		<tag k="natural" v="water" />
		<tag k="ssr:stedsnr" v="853183" />
	</node>
	<node id="-599856" lat="59.6055818896" lon="5.34509504501">
		<tag k="name" v="Ågotneset" />
		<tag k="natural" v="cape" />
		<tag k="ssr:stedsnr" v="147905" />
	</node>
	<node id="-601374" lat="59.6598333355" lon="5.50843888598">
		<tag k="name" v="Trollavatnet" />
		<tag k="natural" v="water" />
		<tag k="ssr:stedsnr" v="853020" />
	</node>
	<node id="-600861" lat="59.5388000673" lon="5.26492711624">
		<tag k="name" v="Øyavatnet" />
		<tag k="natural" v="water" />
		<tag k="ssr:stedsnr" v="306188" />
	</node>
	<node id="-600348" lat="59.5833138851" lon="5.36478611276">
		<tag k="name" v="Lauvåsvatnet" />
		<tag k="natural" v="water" />
		<tag k="ssr:stedsnr" v="913777" />
	</node>
	<node id="-601371" lat="59.5273897367" lon="5.39861436306">
		<tag k="alt_name" v="Dyngetjørn" />
		<tag k="name" v="Dyngjetjørna" />
		<tag k="natural" v="water" />
		<tag k="ssr:stedsnr" v="853144" />
	</node>
	<node id="-600858" lat="59.5260268183" lon="5.29473642574">
		<tag k="alt_name" v="Store Sandvatnet" />
		<tag k="name" v="Sandvatnet" />
		<tag k="natural" v="water" />
		<tag k="ssr:stedsnr" v="306159" />
	</node>
	<node id="-600879" lat="59.6558413655" lon="5.42987837594">
		<tag k="name" v="Peratjørna" />
		<tag k="natural" v="water" />
		<tag k="ssr:stedsnr" v="306892" />
	</node>
	<node id="-600856" lat="59.5021210979" lon="5.40115698141">
		<tag k="alt_name" v="Båtsviktjørna" />
		<tag k="name" v="Botsviktjørna" />
		<tag k="natural" v="water" />
		<tag k="ssr:stedsnr" v="306148" />
	</node>
	<node id="-600343" lat="59.5834527755" lon="5.49767500036">
		<tag k="alt_name" v="Røykeneselva" />
		<tag k="name" v="Lieråna" />
		<tag k="ssr:stedsnr" v="913374" />
		<tag k="waterway" v="stream" />
	</node>
	<node id="-601366" lat="59.5605283736" lon="5.3142286192">
		<tag k="name" v="Årdalstjørnane" />
		<tag k="natural" v="water" />
		<tag k="ssr:stedsnr" v="852241" />
	</node>
	<node id="-601360" lat="59.679516665" lon="5.50466389631">
		<tag k="alt_name" v="Vassdalstjørna" />
		<tag k="name" v="Vassdaltjørna" />
		<tag k="natural" v="water" />
		<tag k="ssr:stedsnr" v="852041" />
	</node>
	<node id="-601363" lat="59.5018472189" lon="5.26911666529">
		<tag k="alt_name" v="Strømsvollvatnet" />
		<tag k="name" v="Straumsvollvatnet" />
		<tag k="natural" v="water" />
		<tag k="ssr:stedsnr" v="852143" />
		<tag k="water" v="lake" />
	</node>
	<node id="-601362" lat="59.5032034126" lon="5.29992572975">
		<tag k="name" v="Vadvatnet" />
		<tag k="natural" v="water" />
		<tag k="ssr:stedsnr" v="852131" />
	</node>
	<node id="-600848" lat="59.5373361106" lon="5.38980833812">
		<tag k="name" v="Fiskejoholmen" />
		<tag k="place" v="islet" />
		<tag k="ssr:stedsnr" v="208900" />
	</node>
	<node id="-600335" lat="59.5413871753" lon="5.42687759053">
		<tag k="alt_name" v="Krossvikvatnet" />
		<tag k="name" v="Krossvikevatnet" />
		<tag k="natural" v="water" />
		<tag k="ssr:stedsnr" v="913161" />
		<tag k="water" v="lake" />
	</node>
	<node id="-601357" lat="59.6794833347" lon="5.4573333389">
		<tag k="name" v="Kolavika" />
		<tag k="natural" v="bay" />
		<tag k="ssr:stedsnr" v="816799" />
	</node>
	<node id="-599819" lat="59.6752438309" lon="5.50472290096">
		<tag k="name" v="Sætratjørna" />
		<tag k="natural" v="water" />
		<tag k="ssr:stedsnr" v="269218" />
	</node>
	<node id="-601196" lat="59.5400472261" lon="5.40011388558">
		<tag k="name" v="Hådyrsklubben" />
		<tag k="natural" v="cape" />
		<tag k="ssr:stedsnr" v="632885" />
	</node>
	<node id="-601349" lat="59.5962666671" lon="5.37796389189">
		<tag k="name" v="Kvernebekken" />
		<tag k="ssr:stedsnr" v="815813" />
		<tag k="waterway" v="stream" />
	</node>
	<node id="-600324" lat="59.5085972205" lon="5.35599999165">
		<tag k="name" v="Sandvika" />
		<tag k="natural" v="bay" />
		<tag k="ssr:stedsnr" v="731119" />
	</node>
	<node id="-600835" lat="59.4985294122" lon="5.28460529816">
		<tag k="name" v="Haugatjørna" />
		<tag k="natural" v="water" />
		<tag k="ssr:stedsnr" v="208706" />
	</node>
	<node id="-600318" lat="59.5117861129" lon="5.44063055453">
		<tag k="name" v="Fjonelva" />
		<tag k="ssr:stedsnr" v="694953" />
		<tag k="waterway" v="river" />
	</node>
	<node id="-600079" lat="59.5381160739" lon="5.27325701432">
		<tag k="name" v="Litla Kovatjørna" />
		<tag k="natural" v="water" />
		<tag k="ssr:stedsnr" v="451747" />
	</node>
	<node id="-601339" lat="59.5770510251" lon="5.41798915475">
		<tag k="name" v="Tveitaneset" />
		<tag k="natural" v="cape" />
		<tag k="ssr:stedsnr" v="815231" />
	</node>
	<node id="-600765" lat="59.5316083292" lon="5.27909723047">
		<tag k="name" v="Anderstjørna" />
		<tag k="natural" v="water" />
		<tag k="ssr:stedsnr" v="185190" />
	</node>
	<node id="-600313" lat="59.4950305582" lon="5.37771944661">
		<tag k="name" v="Kvernatjørna" />
		<tag k="natural" v="water" />
		<tag k="ssr:stedsnr" v="694909" />
	</node>
	<node id="-601336" lat="59.5768444476" lon="5.48755555363">
		<tag k="name" v="Baståosen" />
		<tag k="natural" v="bay" />
		<tag k="ssr:stedsnr" v="815139" />
	</node>
	<node id="-599806" lat="59.5839064334" lon="5.4766402372">
		<tag k="name" v="Liervatnet" />
		<tag k="natural" v="water" />
		<tag k="ssr:stedsnr" v="124328" />
		<tag k="water" v="lake" />
	</node>
	<node id="-600821" lat="59.6166694457" lon="5.34831665828">
		<tag k="name" v="Vassnes" />
		<tag k="natural" v="cape" />
		<tag k="ssr:stedsnr" v="208559" />
	</node>
	<node id="-599796" lat="59.6571525585" lon="5.45842931354">
		<tag k="alt_name" v="Ørvikvatnet;Øreviksvatnet" />
		<tag k="name" v="Ørvikevatnet" />
		<tag k="natural" v="water" />
		<tag k="ssr:stedsnr" v="246913" />
		<tag k="water" v="lake" />
	</node>
	<node id="-601331" lat="59.5783836453" lon="5.41470363931">
		<tag k="name" v="Færåsneset" />
		<tag k="natural" v="cape" />
		<tag k="ssr:stedsnr" v="815044" />
	</node>
	<node id="-600818" lat="59.592194446" lon="5.41690555488">
		<tag k="name" v="Sponaneset" />
		<tag k="natural" v="cape" />
		<tag k="ssr:stedsnr" v="208248" />
	</node>
	<node id="-600816" lat="59.5890499988" lon="5.39984721708">
		<tag k="name" v="Sandvika" />
		<tag k="natural" v="bay" />
		<tag k="ssr:stedsnr" v="208234" />
	</node>
	<node id="-600815" lat="59.5784000004" lon="5.40635555471">
		<tag k="name" v="Rotavika" />
		<tag k="natural" v="bay" />
		<tag k="ssr:stedsnr" v="208231" />
	</node>
	<node id="-600302" lat="59.5833472233" lon="5.35190277794">
		<tag k="name" v="Færåsbekken" />
		<tag k="ssr:stedsnr" v="694515" />
		<tag k="waterway" v="stream" />
	</node>
	<node id="-600299" lat="59.5789916699" lon="5.40611389696">
		<tag k="name" v="Turkaneset" />
		<tag k="natural" v="cape" />
		<tag k="ssr:stedsnr" v="694211" />
	</node>
	<node id="-599786" lat="59.6086172211" lon="5.41714986653">
		<tag k="alt_name" v="Vassnestjørn" />
		<tag k="name" v="Vassnestjørna" />
		<tag k="natural" v="water" />
		<tag k="ssr:stedsnr" v="246739" />
	</node>
	<node id="-601320" lat="59.5091722229" lon="5.4141361139">
		<tag k="name" v="Neset" />
		<tag k="natural" v="cape" />
		<tag k="ssr:stedsnr" v="793078" />
	</node>
	<node id="-600806" lat="59.5237961984" lon="5.27265281882">
		<tag k="name" v="Simonstjørn" />
		<tag k="natural" v="water" />
		<tag k="ssr:stedsnr" v="208103" />
	</node>
	<node id="-599781" lat="59.5533224168" lon="5.4395066688">
		<tag k="alt_name" v="Nesevatnet" />
		<tag k="name" v="Nesavatnet" />
		<tag k="natural" v="water" />
		<tag k="ssr:stedsnr" v="246189" />
		<tag k="water" v="lake" />
	</node>
	<node id="-599780" lat="59.5220444407" lon="5.36669999976">
		<tag k="alt_name" v="Fureholmen" />
		<tag k="name" v="Foreholmen" />
		<tag k="place" v="islet" />
		<tag k="ssr:stedsnr" v="246184" />
	</node>
	<node id="-600358" lat="59.598654504" lon="5.35908883326">
		<tag k="name" v="Kinnavatnet" />
		<tag k="natural" v="water" />
		<tag k="ssr:stedsnr" v="914765" />
		<tag k="water" v="lake" />
	</node>
	<node id="-600743" lat="59.594591097" lon="5.38751263514">
		<tag k="name" v="Grasdalstjørn" />
		<tag k="natural" v="water" />
		<tag k="ssr:stedsnr" v="147789" />
	</node>
	<node id="-599776" lat="59.519856575" lon="5.41328943465">
		<tag k="alt_name" v="Stutatrevatnet" />
		<tag k="name" v="Stutatrævatnet" />
		<tag k="natural" v="water" />
		<tag k="ssr:stedsnr" v="246133" />
	</node>
	<node id="-599775" lat="59.5221588662" lon="5.39485046781">
		<tag k="alt_name" v="Pøyla" />
		<tag k="name" v="Pøylo" />
		<tag k="natural" v="water" />
		<tag k="ssr:stedsnr" v="246131" />
	</node>
	<node id="-600286" lat="59.5345027806" lon="5.40098054911">
		<tag k="name" v="Dalen" />
		<tag k="natural" v="bay" />
		<tag k="ssr:stedsnr" v="876891" />
	</node>
	<node id="-600095" lat="59.5078277738" lon="5.40022222805">
		<tag k="name" v="Berganes" />
		<tag k="natural" v="cape" />
		<tag k="ssr:stedsnr" v="670147" />
	</node>
	<node id="-599771" lat="59.5892499966" lon="5.3951999998">
		<tag k="name" v="Tømmervika" />
		<tag k="natural" v="bay" />
		<tag k="ssr:stedsnr" v="245791" />
	</node>
	<node id="-601306" lat="59.5418944441" lon="5.40346945216">
		<tag k="alt_name" v="Geitøy" />
		<tag k="name" v="Geitøya" />
		<tag k="place" v="islet" />
		<tag k="ssr:stedsnr" v="792200" />
	</node>
	<node id="-599769" lat="59.6811895434" lon="5.46813933648">
		<tag k="alt_name" v="Litlavatnet" />
		<tag k="name" v="Litlevatn" />
		<tag k="natural" v="water" />
		<tag k="ssr:stedsnr" v="245038" />
	</node>
	<node id="-599768" lat="59.6218138872" lon="5.34777221373">
		<tag k="name" v="Vassbotn" />
		<tag k="natural" v="bay" />
		<tag k="ssr:stedsnr" v="64834" />
	</node>
	<node id="-601303" lat="59.5188972237" lon="5.3286888931">
		<tag k="name" v="Rotatjørna" />
		<tag k="natural" v="water" />
		<tag k="ssr:stedsnr" v="792182" />
	</node>
	<node id="-601302" lat="59.5273305602" lon="5.35960278144">
		<tag k="alt_name" v="Apelansneset" />
		<tag k="name" v="Apelandsneset" />
		<tag k="natural" v="cape" />
		<tag k="ssr:stedsnr" v="792179" />
	</node>
	<node id="-600276" lat="59.4998833318" lon="5.36948332952">
		<tag k="name" v="Sorøy" />
		<tag k="place" v="island" />
		<tag k="ssr:stedsnr" v="876733" />
	</node>
	<node id="-601299" lat="59.5527833369" lon="5.31961388891">
		<tag k="name" v="Sandvatnet" />
		<tag k="natural" v="water" />
		<tag k="ssr:stedsnr" v="791250" />
	</node>
	<node id="-600231" lat="59.6822057583" lon="5.51359540113">
		<tag k="alt_name" v="Plomlitjørna" />
		<tag k="name" v="Nonslitjørna" />
		<tag k="natural" v="water" />
		<tag k="ssr:stedsnr" v="731029" />
	</node>
	<node id="-600785" lat="59.6194031901" lon="5.39652799799">
		<tag k="alt_name" v="Mjuketjørn" />
		<tag k="name" v="Mjuketjørna" />
		<tag k="natural" v="water" />
		<tag k="ssr:stedsnr" v="185857" />
	</node>
	<node id="-600784" lat="59.6064108235" lon="5.33016551481">
		<tag k="name" v="Loknatjørna" />
		<tag k="natural" v="water" />
		<tag k="ssr:stedsnr" v="185840" />
	</node>
	<node id="-600783" lat="59.6215678865" lon="5.39098813893">
		<tag k="alt_name" v="Skinntjørna" />
		<tag k="name" v="Skinntjørnane" />
		<tag k="natural" v="water" />
		<tag k="ssr:stedsnr" v="185810" />
		<tag k="water" v="lake" />
	</node>
	<node id="-599941" lat="59.5181700482" lon="5.39244449239">
		<tag k="alt_name" v="Langedalstjørn" />
		<tag k="name" v="Langedalstjørna" />
		<tag k="natural" v="water" />
		<tag k="ssr:stedsnr" v="307139" />
	</node>
	<node id="-601292" lat="59.5595766099" lon="5.33597118143">
		<tag k="name" v="Nordskogvatnet" />
		<tag k="natural" v="water" />
		<tag k="ssr:stedsnr" v="791234" />
		<tag k="water" v="lake" />
	</node>
	<node id="-600866" lat="59.5883208835" lon="5.44974176899">
		<tag k="name" v="Mørkavatnet" />
		<tag k="natural" v="water" />
		<tag k="ssr:stedsnr" v="306776" />
		<tag k="water" v="lake" />
	</node>
	<node id="-600777" lat="59.6024980883" lon="5.37453491114">
		<tag k="name" v="Emberlandsvatnet" />
		<tag k="natural" v="water" />
		<tag k="ssr:stedsnr" v="185745" />
		<tag k="water" v="lake" />
	</node>
	<node id="-600692" lat="59.5631532171" lon="5.34416007746">
>>>>>>> e1d4bc35ff8a6074a6f2e91616a996b547c36f15
		<tag k="alt_name" v="Mørkavatn" />
		<tag k="name" v="Mørkavatnet" />
		<tag k="natural" v="water" />
		<tag k="ssr:stedsnr" v="124189" />
	</node>
<<<<<<< HEAD
	<node lat="59.55339527544601" lon="5.342524777718405" id="-35160">
		<tag k="name" v="Åsevatnet" />
		<tag k="natural" v="water" />
		<tag k="ssr:stedsnr" v="124199" />
	</node>
	<node lat="59.50088055220346" lon="5.388905559818059" id="-35161">
		<tag k="alt_name" v="Vassvika" />
		<tag k="name" v="Vossvika" />
		<tag k="natural" v="bay" />
		<tag k="ssr:stedsnr" v="124139" />
	</node>
	<node lat="59.527817199891814" lon="5.305639554556034" id="-35163">
		<tag k="name" v="Hellevatnet" />
		<tag k="natural" v="water" />
		<tag k="ssr:stedsnr" v="124150" />
	</node>
	<node lat="59.583906433407186" lon="5.476640237197866" id="-35166">
		<tag k="name" v="Liervatnet" />
		<tag k="natural" v="water" />
		<tag k="ssr:stedsnr" v="124328" />
		<tag k="water" v="lake" />
	</node>
	<node lat="59.56695338919629" lon="5.438912922299851" id="-35179">
		<tag k="alt_name" v="Moldbrekkevatnet" />
		<tag k="name" v="Moldbrekkvatnet" />
		<tag k="natural" v="water" />
		<tag k="ssr:stedsnr" v="125084" />
	</node>
	<node lat="59.59175769092319" lon="5.30827942905503" id="-35188">
		<tag k="name" v="Buatjørna" />
		<tag k="natural" v="water" />
		<tag k="ssr:stedsnr" v="147098" />
	</node>
	<node lat="59.5048458382877" lon="5.328569662313103" id="-35206">
		<tag k="name" v="Ådnavarstjørna" />
		<tag k="natural" v="water" />
		<tag k="ssr:stedsnr" v="147680" />
	</node>
	<node lat="59.59459109695635" lon="5.387512635143699" id="-35208">
		<tag k="name" v="Grasdalstjørn" />
		<tag k="natural" v="water" />
		<tag k="ssr:stedsnr" v="147789" />
	</node>
	<node lat="59.66183611264942" lon="5.449388884957358" id="-35214">
		<tag k="name" v="Geiteid" />
		<tag k="place" v="locality" />
		<tag k="ssr:stedsnr" v="148793" />
	</node>
	<node lat="59.52860310275704" lon="5.415427967938968" id="-35220">
		<tag k="alt_name" v="Skjortetjørn" />
		<tag k="name" v="Skjørtetjørna" />
=======
	<node id="-600774" lat="59.5968027799" lon="5.50145556169">
		<tag k="alt_name" v="Flatbruvatnet" />
		<tag k="name" v="Flatbrutjørna" />
		<tag k="natural" v="water" />
		<tag k="ssr:stedsnr" v="185383" />
	</node>
	<node id="-600261" lat="59.501544442" lon="5.36712221788">
		<tag k="name" v="Lindøya" />
		<tag k="place" v="island" />
		<tag k="ssr:stedsnr" v="732097" />
	</node>
	<node id="-600259" lat="59.6833777795" lon="5.45486944456">
		<tag k="alt_name" v="Kjidjeneset" />
		<tag k="name" v="Kjeldeneset" />
		<tag k="natural" v="cape" />
		<tag k="ssr:stedsnr" v="731997" />
	</node>
	<node id="-599746" lat="59.7214297073" lon="5.51495922865">
		<tag k="name" v="Gramshaugtjørna" />
		<tag k="natural" v="water" />
		<tag k="ssr:stedsnr" v="26652" />
	</node>
	<node id="-600077" lat="59.5031138887" lon="5.32120833861">
		<tag k="name" v="Vågeelva" />
		<tag k="ssr:stedsnr" v="451731" />
		<tag k="waterway" v="river" />
	</node>
	<node id="-600767" lat="59.5361861066" lon="5.37131943725">
		<tag k="name" v="Mula" />
		<tag k="natural" v="cape" />
		<tag k="ssr:stedsnr" v="185196" />
	</node>
	<node id="-599742" lat="59.5639277796" lon="5.43671944402">
		<tag k="name" v="Hedleid" />
		<tag k="natural" v="strait" />
		<tag k="ssr:stedsnr" v="26037" />
	</node>
	<node id="-601277" lat="59.5426611089" lon="5.40078610511">
		<tag k="name" v="Torvhusvika" />
		<tag k="natural" v="bay" />
		<tag k="ssr:stedsnr" v="754872" />
	</node>
	<node id="-600764" lat="59.5338322099" lon="5.2728209233">
		<tag k="alt_name" v="Kvitabergstjørna" />
		<tag k="name" v="Kvitabergtjørna" />
		<tag k="natural" v="water" />
		<tag k="ssr:stedsnr" v="185188" />
	</node>
	<node id="-599739" lat="59.5871555588" lon="5.48346666258">
		<tag k="name" v="Røyknesvågen" />
		<tag k="natural" v="bay" />
		<tag k="ssr:stedsnr" v="26003" />
	</node>
	<node id="-600761" lat="59.5443972366" lon="5.37151191727">
		<tag k="name" v="Mannavatnet" />
		<tag k="natural" v="water" />
		<tag k="ssr:stedsnr" v="185177" />
		<tag k="water" v="lake" />
	</node>
	<node id="-600760" lat="59.5443986636" lon="5.33496694755">
		<tag k="alt_name" v="Steinarstjørna" />
		<tag k="name" v="Steinartjørna" />
		<tag k="natural" v="water" />
		<tag k="ssr:stedsnr" v="185173" />
	</node>
	<node id="-600759" lat="59.554446163" lon="5.45352134462">
		<tag k="alt_name" v="Kvernavatna" />
		<tag k="name" v="Kvernavatnet" />
>>>>>>> e1d4bc35ff8a6074a6f2e91616a996b547c36f15
		<tag k="natural" v="water" />
		<tag k="ssr:stedsnr" v="185166" />
		<tag k="water" v="lake" />
	</node>
<<<<<<< HEAD
	<node lat="59.55444616297877" lon="5.453521344615907" id="-35222">
		<tag k="alt_name" v="Kvernavatna" />
		<tag k="name" v="Kvernavatnet" />
		<tag k="natural" v="water" />
		<tag k="ssr:stedsnr" v="185166" />
		<tag k="water" v="lake" />
	</node>
	<node lat="59.54439866362904" lon="5.3349669475523855" id="-35223">
		<tag k="alt_name" v="Steinarstjørna" />
		<tag k="name" v="Steinartjørna" />
		<tag k="natural" v="water" />
		<tag k="ssr:stedsnr" v="185173" />
	</node>
	<node lat="59.544397236632705" lon="5.371511917273866" id="-35224">
		<tag k="name" v="Mannavatnet" />
		<tag k="natural" v="water" />
		<tag k="ssr:stedsnr" v="185177" />
		<tag k="water" v="lake" />
	</node>
	<node lat="59.60249808827777" lon="5.37453491114447" id="-35229">
		<tag k="name" v="Emberlandsvatnet" />
		<tag k="natural" v="water" />
		<tag k="ssr:stedsnr" v="185745" />
		<tag k="water" v="lake" />
	</node>
	<node lat="59.61940319005615" lon="5.396527997991995" id="-35239">
		<tag k="alt_name" v="Mjuketjørn" />
		<tag k="name" v="Mjuketjørna" />
		<tag k="natural" v="water" />
		<tag k="ssr:stedsnr" v="185857" />
	</node>
	<node lat="59.6852448499053" lon="5.455154304751947" id="-35240">
		<tag k="alt_name" v="Vatslivatnet;Vasslidvatnet" />
		<tag k="name" v="Vasslivatnet" />
		<tag k="natural" v="water" />
		<tag k="ssr:stedsnr" v="185993" />
		<tag k="water" v="lake" />
	</node>
	<node lat="59.61666944570622" lon="5.348316658283992" id="-35251">
		<tag k="name" v="Vassnes" />
		<tag k="natural" v="cape" />
		<tag k="ssr:stedsnr" v="208559" />
	</node>
	<node lat="59.61501145543047" lon="5.33411750849178" id="-35252">
		<tag k="name" v="Stemmetjørna" />
		<tag k="natural" v="water" />
		<tag k="ssr:stedsnr" v="208563" />
	</node>
	<node lat="59.578400000430804" lon="5.406355554709075" id="-35253">
		<tag k="name" v="Rotavika" />
		<tag k="natural" v="bay" />
		<tag k="ssr:stedsnr" v="208231" />
	</node>
	<node lat="59.58904999882603" lon="5.39984721707702" id="-35254">
		<tag k="name" v="Sandvika" />
		<tag k="natural" v="bay" />
		<tag k="ssr:stedsnr" v="208234" />
	</node>
	<node lat="59.592194446028195" lon="5.416905554879812" id="-35256">
		<tag k="name" v="Sponaneset" />
		<tag k="natural" v="cape" />
		<tag k="ssr:stedsnr" v="208248" />
	</node>
	<node lat="59.53733611063646" lon="5.3898083381231086" id="-35272">
		<tag k="name" v="Fiskejoholmen" />
		<tag k="place" v="islet" />
		<tag k="ssr:stedsnr" v="208900" />
	</node>
	<node lat="59.50402222130419" lon="5.378277773495582" id="-35279">
		<tag k="name" v="Mattisholmen" />
		<tag k="place" v="islet" />
		<tag k="ssr:stedsnr" v="306137" />
	</node>
	<node lat="59.50212109793714" lon="5.401156981409411" id="-35280">
		<tag k="alt_name" v="Båtsviktjørna" />
		<tag k="name" v="Botsviktjørna" />
		<tag k="natural" v="water" />
		<tag k="ssr:stedsnr" v="306148" />
	</node>
	<node lat="59.538800067328765" lon="5.264927116236842" id="-35281">
		<tag k="name" v="Øyavatnet" />
		<tag k="natural" v="water" />
		<tag k="ssr:stedsnr" v="306188" />
	</node>
	<node lat="59.634455334274335" lon="5.389630347231175" id="-35285">
		<tag k="alt_name" v="Råtatjørn" />
		<tag k="name" v="Rotatjørna" />
=======
	<node id="-600554" lat="59.6772884053" lon="5.45034843001">
		<tag k="name" v="Hauglandsvatnet" />
		<tag k="natural" v="water" />
		<tag k="ssr:stedsnr" v="26184" />
		<tag k="water" v="lake" />
	</node>
	<node id="-599753" lat="59.5977472267" lon="5.36096944902">
		<tag k="name" v="Kinnaneset" />
		<tag k="natural" v="cape" />
		<tag k="ssr:stedsnr" v="26904" />
	</node>
	<node id="-600755" lat="59.4970584769" lon="5.39010445243">
		<tag k="name" v="Eileråsvatnet" />
		<tag k="natural" v="water" />
		<tag k="ssr:stedsnr" v="184695" />
	</node>
	<node id="-600179" lat="59.5198888889" lon="5.35872221752">
		<tag k="name" v="Naustvika" />
		<tag k="natural" v="bay" />
		<tag k="ssr:stedsnr" v="572521" />
	</node>
	<node id="-600751" lat="59.6618361126" lon="5.44938888496">
		<tag k="name" v="Geiteid" />
		<tag k="natural" v="strait" />
		<tag k="ssr:stedsnr" v="148793" />
	</node>
	<node id="-600639" lat="59.5883583356" lon="5.39821389131">
		<tag k="name" v="Breivassklubben" />
		<tag k="natural" v="cape" />
		<tag k="ssr:stedsnr" v="87224" />
	</node>
	<node id="-600093" lat="59.5056336885" lon="5.31348829194">
		<tag k="name" v="Kvernavatnet" />
		<tag k="natural" v="water" />
		<tag k="ssr:stedsnr" v="670132" />
	</node>
	<node id="-599922" lat="59.5893694403" lon="5.41745555091">
		<tag k="name" v="Krokabekkneset" />
		<tag k="natural" v="cape" />
		<tag k="ssr:stedsnr" v="269261" />
	</node>
	<node id="-601258" lat="59.5259583318" lon="5.30698611452">
		<tag k="name" v="Istertveitbekken" />
		<tag k="ssr:stedsnr" v="754558" />
		<tag k="waterway" v="stream" />
	</node>
	<node id="-600007" lat="59.5954388892" lon="5.32320000505">
		<tag k="name" v="Dalsbekken" />
		<tag k="ssr:stedsnr" v="390924" />
		<tag k="waterway" v="stream" />
	</node>
	<node id="-601256" lat="59.5331944459" lon="5.35620832997">
		<tag k="name" v="Hoklahavet" />
		<tag k="natural" v="water" />
		<tag k="ssr:stedsnr" v="754545" />
	</node>
	<node id="-601255" lat="59.5393555536" lon="5.34336110487">
		<tag k="name" v="Vikjo" />
		<tag k="natural" v="bay" />
		<tag k="ssr:stedsnr" v="754543" />
	</node>
	<node id="-601254" lat="59.5777611087" lon="5.29600556273">
		<tag k="name" v="Kvernatjørna" />
		<tag k="natural" v="water" />
		<tag k="ssr:stedsnr" v="754537" />
	</node>
	<node id="-600741" lat="59.5048458383" lon="5.32856966231">
		<tag k="name" v="Ådnavarstjørna" />
		<tag k="natural" v="water" />
		<tag k="ssr:stedsnr" v="147680" />
	</node>
	<node id="-600227" lat="59.496102775" lon="5.36989999446">
		<tag k="name" v="Vigdarvatnet" />
		<tag k="natural" v="water" />
		<tag k="ssr:stedsnr" v="730778" />
		<tag k="water" v="lake" />
	</node>
	<node id="-599812" lat="59.5792527757" lon="5.48748055477">
		<tag k="name" v="Langanes" />
		<tag k="natural" v="cape" />
		<tag k="ssr:stedsnr" v="269144" />
	</node>
	<node id="-599749" lat="59.5404916665" lon="5.30102500803">
		<tag k="name" v="Åsbubekken" />
		<tag k="ssr:stedsnr" v="26531" />
		<tag k="waterway" v="stream" />
	</node>
	<node id="-600602" lat="59.5150333331" lon="5.36604166631">
		<tag k="name" v="Skorpesundet" />
		<tag k="natural" v="strait" />
		<tag k="ssr:stedsnr" v="64123" />
	</node>
	<node id="-600730" lat="59.5917576909" lon="5.30827942906">
		<tag k="name" v="Buatjørna" />
		<tag k="natural" v="water" />
		<tag k="ssr:stedsnr" v="147098" />
	</node>
	<node id="-600217" lat="59.6858027753" lon="5.48733332657">
		<tag k="name" v="Kvernhusbekken" />
		<tag k="ssr:stedsnr" v="633662" />
		<tag k="waterway" v="stream" />
	</node>
	<node id="-600215" lat="59.5728413031" lon="5.37914280845">
		<tag k="name" v="Lauvåstjørna" />
		<tag k="natural" v="water" />
		<tag k="ssr:stedsnr" v="633269" />
	</node>
	<node id="-600214" lat="59.5838361073" lon="5.40407222341">
		<tag k="name" v="Kringleidholmen" />
		<tag k="place" v="islet" />
		<tag k="ssr:stedsnr" v="633265" />
	</node>
	<node id="-599888" lat="59.5737329865" lon="5.50727958046">
		<tag k="name" v="Galtatjørn" />
		<tag k="natural" v="water" />
		<tag k="ssr:stedsnr" v="451154" />
	</node>
	<node id="-601234" lat="59.5789573055" lon="5.41609882357">
		<tag k="name" v="Sponaneset" />
		<tag k="natural" v="cape" />
		<tag k="ssr:stedsnr" v="754046" />
	</node>
	<node id="-600344" lat="59.5943018466" lon="5.48623619187">
		<tag k="name" v="Joavatnet" />
>>>>>>> e1d4bc35ff8a6074a6f2e91616a996b547c36f15
		<tag k="natural" v="water" />
		<tag k="ssr:stedsnr" v="913389" />
		<tag k="water" v="lake" />
	</node>
<<<<<<< HEAD
	<node lat="59.60416770199813" lon="5.361129745352976" id="-35286">
		<tag k="name" v="Svartebergtjørna" />
		<tag k="natural" v="water" />
		<tag k="ssr:stedsnr" v="306835" />
	</node>
	<node lat="59.60951111049216" lon="5.334688889311914" id="-35287">
		<tag k="name" v="Sandvatnet" />
		<tag k="natural" v="water" />
		<tag k="ssr:stedsnr" v="306836" />
	</node>
	<node lat="59.6558413654969" lon="5.429878375941458" id="-35290">
		<tag k="name" v="Peratjørna" />
		<tag k="natural" v="water" />
		<tag k="ssr:stedsnr" v="306892" />
	</node>
	<node lat="59.516885509393006" lon="5.363702160691869" id="-35293">
		<tag k="name" v="Turranes" />
		<tag k="natural" v="cape" />
		<tag k="ssr:stedsnr" v="307137" />
	</node>
	<node lat="59.5181700482468" lon="5.392444492385766" id="-35294">
		<tag k="alt_name" v="Langedalstjørn" />
		<tag k="name" v="Langedalstjørna" />
		<tag k="natural" v="water" />
		<tag k="ssr:stedsnr" v="307139" />
	</node>
	<node lat="59.6175666630252" lon="5.345686111935811" id="-35304">
		<tag k="name" v="Skjenet" />
		<tag k="natural" v="cape" />
		<tag k="ssr:stedsnr" v="329564" />
	</node>
	<node lat="59.5621345307824" lon="5.311621639946786" id="-35306">
		<tag k="name" v="Ardalstjørna" />
		<tag k="natural" v="water" />
		<tag k="ssr:stedsnr" v="329574" />
	</node>
	<node lat="59.64283333675819" lon="5.392252783874593" id="-35310">
		<tag k="name" v="Ommundsvik" />
=======
	<node id="-600205" lat="59.525787582" lon="5.33640561887">
		<tag k="name" v="Hoklatjørna" />
		<tag k="natural" v="water" />
		<tag k="ssr:stedsnr" v="632506" />
	</node>
	<node id="-600514" lat="59.5274446507" lon="5.33155380122">
		<tag k="alt_name" v="Kvitabergstjørna" />
		<tag k="name" v="Kvitabergtjørna" />
		<tag k="natural" v="water" />
		<tag k="ssr:stedsnr" v="3152" />
	</node>
	<node id="-600855" lat="59.5040222213" lon="5.3782777735">
		<tag k="name" v="Mattisholmen" />
		<tag k="place" v="islet" />
		<tag k="ssr:stedsnr" v="306137" />
	</node>
	<node id="-600199" lat="59.638024996" lon="5.48328056315">
		<tag k="name" v="Mørkavatnet" />
		<tag k="natural" v="water" />
		<tag k="ssr:stedsnr" v="610525" />
	</node>
	<node id="-600198" lat="59.6913277985" lon="5.50343327587">
		<tag k="alt_name" v="Trollavatnet" />
		<tag k="name" v="Trollvatnet" />
		<tag k="natural" v="water" />
		<tag k="ssr:stedsnr" v="610048" />
	</node>
	<node id="-601219" lat="59.6536361141" lon="5.45817221349">
		<tag k="name" v="Pøylo" />
		<tag k="natural" v="bay" />
		<tag k="ssr:stedsnr" v="633876" />
	</node>
	<node id="-599792" lat="59.6145422155" lon="5.39163685133">
		<tag k="alt_name" v="Skartjørn" />
		<tag k="name" v="Skardtjørna" />
		<tag k="natural" v="water" />
		<tag k="ssr:stedsnr" v="246843" />
	</node>
	<node id="-601183" lat="59.5206642357" lon="5.41905960976">
		<tag k="name" v="Holmavatnet" />
		<tag k="natural" v="water" />
		<tag k="ssr:stedsnr" v="610145" />
	</node>
	<node id="-600189" lat="59.5658614662" lon="5.3742858375">
		<tag k="name" v="Søljetjørna" />
		<tag k="natural" v="water" />
		<tag k="ssr:stedsnr" v="609220" />
	</node>
	<node id="-599836" lat="59.4975527787" lon="5.36569999118">
		<tag k="name" v="Brønnvika" />
>>>>>>> e1d4bc35ff8a6074a6f2e91616a996b547c36f15
		<tag k="natural" v="bay" />
		<tag k="ssr:stedsnr" v="330076" />
	</node>
<<<<<<< HEAD
	<node lat="59.51635798845329" lon="5.428447852319971" id="-35317">
		<tag k="name" v="Gråbergtjørn" />
		<tag k="natural" v="water" />
		<tag k="ssr:stedsnr" v="329985" />
	</node>
	<node lat="59.562166670821895" lon="5.466266668119571" id="-35325">
		<tag k="name" v="Furevika" />
		<tag k="natural" v="bay" />
		<tag k="ssr:stedsnr" v="330044" />
	</node>
	<node lat="59.5009666695669" lon="5.264547220437142" id="-35326">
		<tag k="name" v="Straumaneset" />
		<tag k="natural" v="cape" />
		<tag k="ssr:stedsnr" v="330104" />
	</node>
	<node lat="59.59128332915328" lon="5.347249993024485" id="-35334">
		<tag k="name" v="Torjulsbekken" />
		<tag k="ssr:stedsnr" v="330657" />
		<tag k="waterway" v="stream" />
	</node>
	<node lat="59.665738954575595" lon="5.504062025170741" id="-35345">
		<tag k="name" v="Steinsvatnet" />
		<tag k="natural" v="water" />
		<tag k="ssr:stedsnr" v="367009" />
	</node>
	<node lat="59.53383055328626" lon="5.37904167273645" id="-35350">
		<tag k="name" v="Storeholmen" />
		<tag k="place" v="islet" />
		<tag k="ssr:stedsnr" v="367168" />
	</node>
	<node lat="59.5335631180411" lon="5.476393017093236" id="-35352">
		<tag k="name" v="Flatnesvatnet" />
		<tag k="natural" v="water" />
		<tag k="ssr:stedsnr" v="367249" />
		<tag k="water" v="lake" />
	</node>
	<node lat="59.577148236737365" lon="5.349089038436484" id="-35362">
		<tag k="alt_name" v="Stemmetjørn" />
		<tag k="name" v="Stemmetjørna" />
		<tag k="natural" v="water" />
		<tag k="old_name" v="Slemmetjørna" />
		<tag k="ssr:stedsnr" v="367771" />
	</node>
	<node lat="59.57995693518514" lon="5.423921304477812" id="-35364">
		<tag k="name" v="Rødvatnet" />
		<tag k="natural" v="water" />
		<tag k="ssr:stedsnr" v="367774" />
	</node>
	<node lat="59.59461166252188" lon="5.377319362918386" id="-35367">
		<tag k="alt_name" v="Vadvatnet (nordre)" />
		<tag k="name" v="Vadvatnet" />
		<tag k="natural" v="water" />
		<tag k="ssr:stedsnr" v="367742" />
	</node>
	<node lat="59.60971389248758" lon="5.414344447289857" id="-35368">
		<tag k="alt_name" v="Vassbotn, nordre" />
		<tag k="name" v="Nordre Vassbotn" />
		<tag k="natural" v="bay" />
		<tag k="ssr:stedsnr" v="367754" />
	</node>
	<node lat="59.56913611132617" lon="5.315238888324815" id="-35369">
		<tag k="alt_name" v="Trehovdetjørna" />
		<tag k="name" v="Trehovdatjørna" />
		<tag k="natural" v="water" />
		<tag k="ssr:stedsnr" v="367763" />
	</node>
	<node lat="59.60622818879746" lon="5.338615261405027" id="-35371">
		<tag k="alt_name" v="Rotadalstjørna" />
		<tag k="name" v="Rotdaltjørna" />
		<tag k="natural" v="water" />
		<tag k="ssr:stedsnr" v="367831" />
	</node>
	<node lat="59.56663159220871" lon="5.504740910139714" id="-35383">
		<tag k="name" v="Litlelidtjørn" />
		<tag k="natural" v="water" />
		<tag k="ssr:stedsnr" v="390146" />
	</node>
	<node lat="59.549034202083384" lon="5.314262480763664" id="-35394">
		<tag k="name" v="Ormatjørna" />
		<tag k="natural" v="water" />
		<tag k="ssr:stedsnr" v="390523" />
	</node>
	<node lat="59.50064721778673" lon="5.270763889788013" id="-35396">
		<tag k="name" v="Vassnes" />
		<tag k="natural" v="cape" />
		<tag k="ssr:stedsnr" v="390684" />
	</node>
	<node lat="59.59543888915822" lon="5.323200005048928" id="-35404">
		<tag k="name" v="Dalsbekken" />
		<tag k="ssr:stedsnr" v="390924" />
		<tag k="waterway" v="stream" />
	</node>
	<node lat="59.54456944560859" lon="5.3863833407041835" id="-35418">
		<tag k="name" v="Bjellandselva" />
		<tag k="ssr:stedsnr" v="428177" />
		<tag k="waterway" v="stream" />
	</node>
	<node lat="59.5656916631773" lon="5.456655549424475" id="-35423">
		<tag k="name" v="Sagvatnet" />
		<tag k="natural" v="water" />
		<tag k="ssr:stedsnr" v="428210" />
		<tag k="water" v="lake" />
	</node>
	<node lat="59.52160052051458" lon="5.323983091742982" id="-35427">
		<tag k="name" v="Rovatnet" />
		<tag k="natural" v="water" />
		<tag k="ssr:stedsnr" v="428140" />
	</node>
	<node lat="59.53064648231317" lon="5.408578894480842" id="-35428">
		<tag k="name" v="Vardavatnet" />
		<tag k="natural" v="water" />
		<tag k="ssr:stedsnr" v="428152" />
	</node>
	<node lat="59.52682256058154" lon="5.3797890747132895" id="-35429">
		<tag k="alt_name" v="Stemmetjørn" />
		<tag k="name" v="Stemmetjørna" />
		<tag k="natural" v="water" />
		<tag k="ssr:stedsnr" v="428153" />
	</node>
	<node lat="59.574433337639384" lon="5.502186107494574" id="-35431">
		<tag k="name" v="Rauneslitjørna" />
		<tag k="natural" v="water" />
		<tag k="ssr:stedsnr" v="428328" />
	</node>
	<node lat="59.62810270836709" lon="5.508227162017629" id="-35438">
		<tag k="alt_name" v="Håvardsholmstjørna" />
		<tag k="name" v="Håvardsholmtjørna" />
		<tag k="natural" v="water" />
		<tag k="ssr:stedsnr" v="428401" />
	</node>
	<node lat="59.600533329782266" lon="5.412291674625968" id="-35439">
		<tag k="alt_name" v="Langevatnet;Langavatnet" />
		<tag k="name" v="Laugavatnet" />
		<tag k="natural" v="water" />
		<tag k="ssr:stedsnr" v="428752" />
		<tag k="water" v="lake" />
	</node>
	<node lat="59.57744502799075" lon="5.365846003904688" id="-35445">
		<tag k="alt_name" v="Liatjørn" />
		<tag k="name" v="Liatjørna" />
		<tag k="natural" v="water" />
		<tag k="ssr:stedsnr" v="428792" />
	</node>
	<node lat="59.58093413123713" lon="5.406282102590049" id="-35447">
		<tag k="name" v="Kvernavatnet" />
		<tag k="natural" v="water" />
		<tag k="ssr:stedsnr" v="428795" />
		<tag k="water" v="lake" />
	</node>
	<node lat="59.5868083627507" lon="5.400453005755449" id="-35452">
		<tag k="alt_name" v="Breidavatnet" />
		<tag k="name" v="Breiavatnet" />
		<tag k="natural" v="water" />
		<tag k="ssr:stedsnr" v="670794" />
		<tag k="water" v="lake" />
	</node>
	<node lat="59.59092222539149" lon="5.330699993179716" id="-35467">
		<tag k="name" v="Kjellarbekken" />
		<tag k="ssr:stedsnr" v="511566" />
		<tag k="waterway" v="stream" />
	</node>
	<node lat="59.54184444080493" lon="5.399122217190249" id="-35476">
		<tag k="name" v="Melkevik" />
		<tag k="natural" v="bay" />
		<tag k="ssr:stedsnr" v="511862" />
	</node>
	<node lat="59.56848051530702" lon="5.4172292480787965" id="-35480">
		<tag k="name" v="Tveitatjørna" />
		<tag k="natural" v="water" />
		<tag k="ssr:stedsnr" v="512065" />
	</node>
	<node lat="59.51894903942896" lon="5.440330958456277" id="-35490">
		<tag k="name" v="Kvernatjørna" />
		<tag k="natural" v="water" />
		<tag k="ssr:stedsnr" v="549142" />
	</node>
	<node lat="59.508186114716224" lon="5.427080556705091" id="-35491">
		<tag k="alt_name" v="Fureholmen" />
		<tag k="name" v="Foreholmen" />
		<tag k="place" v="islet" />
		<tag k="ssr:stedsnr" v="549149" />
	</node>
	<node lat="59.556252123545526" lon="5.379438644221616" id="-35494">
		<tag k="name" v="Hinderlivatnet" />
		<tag k="natural" v="water" />
		<tag k="ssr:stedsnr" v="549237" />
		<tag k="water" v="lake" />
	</node>
	<node lat="59.70283773423166" lon="5.473839698633169" id="-35495">
		<tag k="name" v="Kuhavet" />
		<tag k="natural" v="water" />
		<tag k="ssr:stedsnr" v="549099" />
	</node>
	<node lat="59.525793307919606" lon="5.414083610431029" id="-35498">
		<tag k="alt_name" v="Askdalevatnet" />
		<tag k="name" v="Aksdalsvatnet" />
		<tag k="natural" v="water" />
		<tag k="ssr:stedsnr" v="549182" />
	</node>
	<node lat="59.55800796219803" lon="5.477385037287408" id="-35502">
		<tag k="alt_name" v="Ervestjørna" />
		<tag k="name" v="Ervetjørna" />
		<tag k="natural" v="water" />
		<tag k="ssr:stedsnr" v="549341" />
	</node>
	<node lat="59.66283247032447" lon="5.454556567033975" id="-35512">
		<tag k="name" v="Rindatjørna" />
		<tag k="natural" v="water" />
		<tag k="ssr:stedsnr" v="670906" />
	</node>
	<node lat="59.501039724906974" lon="5.338632356948327" id="-35522">
		<tag k="name" v="Rabbatjørn" />
		<tag k="natural" v="water" />
		<tag k="ssr:stedsnr" v="572720" />
	</node>
	<node lat="59.597306729682465" lon="5.3375364848696725" id="-35524">
		<tag k="name" v="Loknaelva" />
		<tag k="ssr:stedsnr" v="572590" />
		<tag k="waterway" v="river" />
	</node>
	<node lat="59.56586146618445" lon="5.37428583749989" id="-35542">
		<tag k="name" v="Søljetjørna" />
		<tag k="natural" v="water" />
		<tag k="ssr:stedsnr" v="609220" />
	</node>
	<node lat="59.50621110721917" lon="5.442400440084907" id="-35547">
		<tag k="name" v="Litlebekktjørna" />
		<tag k="natural" v="water" />
		<tag k="ssr:stedsnr" v="609157" />
	</node>
	<node lat="59.524586493916" lon="5.500433137479805" id="-35549">
		<tag k="name" v="Veikatjørna" />
		<tag k="natural" v="water" />
		<tag k="ssr:stedsnr" v="609259" />
	</node>
	<node lat="59.69132779848288" lon="5.503433275868942" id="-35556">
		<tag k="alt_name" v="Trollavatnet" />
		<tag k="name" v="Trollvatnet" />
		<tag k="natural" v="water" />
		<tag k="ssr:stedsnr" v="610048" />
	</node>
	<node lat="59.5849376200966" lon="5.46603515226828" id="-35557">
		<tag k="name" v="Tømmervika" />
		<tag k="natural" v="bay" />
		<tag k="ssr:stedsnr" v="610077" />
	</node>
	<node lat="59.52066423569838" lon="5.419059609758303" id="-35558">
		<tag k="name" v="Holmavatnet" />
		<tag k="natural" v="water" />
		<tag k="ssr:stedsnr" v="610145" />
	</node>
	<node lat="59.57440070755014" lon="5.463843577109507" id="-35561">
		<tag k="alt_name" v="Lindslidtjørna;Lindslitjørna" />
		<tag k="name" v="Linslitjørna" />
		<tag k="natural" v="water" />
		<tag k="ssr:stedsnr" v="610270" />
	</node>
	<node lat="59.598919097870144" lon="5.33200782610516" id="-35562">
		<tag k="alt_name" v="Lundavatnet;St.Lundavatnet" />
		<tag k="name" v="Stora Lundavatnet" />
		<tag k="natural" v="water" />
		<tag k="ssr:stedsnr" v="610776" />
	</node>
	<node lat="59.57531852771936" lon="5.386085436617287" id="-35563">
		<tag k="name" v="Ånestjørna" />
		<tag k="natural" v="water" />
		<tag k="ssr:stedsnr" v="610801" />
	</node>
	<node lat="59.604425002994105" lon="5.412147229881258" id="-35574">
		<tag k="name" v="Båsanes" />
		<tag k="natural" v="cape" />
		<tag k="ssr:stedsnr" v="632772" />
	</node>
	<node lat="59.583836107300435" lon="5.404072223413092" id="-35586">
		<tag k="name" v="Kringleidholmen" />
		<tag k="place" v="islet" />
		<tag k="ssr:stedsnr" v="633265" />
	</node>
	<node lat="59.57284130305714" lon="5.3791428084497115" id="-35587">
		<tag k="name" v="Lauvåstjørna" />
		<tag k="natural" v="water" />
		<tag k="ssr:stedsnr" v="633269" />
	</node>
	<node lat="59.68580277526213" lon="5.487333326567382" id="-35594">
		<tag k="name" v="Kvernhusbekken" />
		<tag k="ssr:stedsnr" v="633662" />
		<tag k="waterway" v="stream" />
	</node>
	<node lat="59.69119773864762" lon="5.512262281400254" id="-35595">
		<tag k="name" v="Ølestjørna" />
		<tag k="natural" v="water" />
		<tag k="ssr:stedsnr" v="633666" />
	</node>
	<node lat="59.65363611409494" lon="5.45817221348775" id="-35601">
		<tag k="name" v="Pøylo" />
		<tag k="natural" v="bay" />
		<tag k="ssr:stedsnr" v="633876" />
	</node>
	<node lat="59.505633688543355" lon="5.313488291942339" id="-35609">
		<tag k="name" v="Kvernavatnet" />
		<tag k="natural" v="water" />
		<tag k="ssr:stedsnr" v="670132" />
	</node>
	<node lat="59.50782777375075" lon="5.400222228046445" id="-35611">
		<tag k="name" v="Berganes" />
		<tag k="natural" v="cape" />
		<tag k="ssr:stedsnr" v="670147" />
	</node>
	<node lat="59.53458155551671" lon="5.423296705233223" id="-35612">
		<tag k="name" v="Trollavatnet" />
		<tag k="natural" v="water" />
		<tag k="ssr:stedsnr" v="670167" />
	</node>
	<node lat="59.55678015010545" lon="5.3259341149775" id="-35613">
		<tag k="alt_name" v="Lomatjørna" />
		<tag k="name" v="Lomtjørna" />
		<tag k="natural" v="water" />
		<tag k="ssr:stedsnr" v="670241" />
	</node>
	<node lat="59.496102775034025" lon="5.369899994462946" id="-35617">
		<tag k="name" v="Vigdarvatnet" />
		<tag k="natural" v="water" />
		<tag k="ssr:stedsnr" v="730778" />
		<tag k="water" v="lake" />
	</node>
	<node lat="59.682205758343386" lon="5.51359540112723" id="-35620">
		<tag k="alt_name" v="Plomlitjørna" />
		<tag k="name" v="Nonslitjørna" />
		<tag k="natural" v="water" />
		<tag k="ssr:stedsnr" v="731029" />
	</node>
	<node lat="59.52619167107335" lon="5.356752785627565" id="-35624">
		<tag k="alt_name" v="Tveitesundet" />
		<tag k="name" v="Tveitåsundet" />
		<tag k="natural" v="strait" />
		<tag k="ssr:stedsnr" v="731132" />
	</node>
	<node lat="59.68337777952574" lon="5.4548694445559125" id="-35637">
		<tag k="alt_name" v="Kjidjeneset" />
		<tag k="name" v="Kjeldeneset" />
=======
	<node id="-600695" lat="59.5533952754" lon="5.34252477772">
		<tag k="name" v="Åsevatnet" />
		<tag k="natural" v="water" />
		<tag k="ssr:stedsnr" v="124199" />
	</node>
	<node id="-600182" lat="59.5010397249" lon="5.33863235695">
		<tag k="name" v="Rabbatjørn" />
		<tag k="natural" v="water" />
		<tag k="ssr:stedsnr" v="572720" />
	</node>
	<node id="-601204" lat="59.5646499975" lon="5.46956388386">
		<tag k="name" v="Skjenet" />
		<tag k="natural" v="cape" />
		<tag k="ssr:stedsnr" v="633036" />
	</node>
	<node id="-600691" lat="59.5322583347" lon="5.38297777522">
		<tag k="alt_name" v="Døvika" />
		<tag k="name" v="Davika" />
		<tag k="natural" v="bay" />
		<tag k="ssr:stedsnr" v="124181" />
	</node>
	<node id="-600690" lat="59.5402555554" lon="5.41389444926">
		<tag k="alt_name" v="Bråtveitjørna" />
		<tag k="name" v="Bråtveittjørna" />
		<tag k="natural" v="water" />
		<tag k="ssr:stedsnr" v="124180" />
	</node>
	<node id="-600339" lat="59.5553725236" lon="5.31186876324">
		<tag k="name" v="Holmavatnet" />
		<tag k="natural" v="water" />
		<tag k="ssr:stedsnr" v="913223" />
	</node>
	<node id="-600685" lat="59.5278171999" lon="5.30563955456">
		<tag k="name" v="Hellevatnet" />
		<tag k="natural" v="water" />
		<tag k="ssr:stedsnr" v="124150" />
	</node>
	<node id="-600684" lat="59.5008805522" lon="5.38890555982">
		<tag k="alt_name" v="Vassvika" />
		<tag k="name" v="Vossvika" />
		<tag k="natural" v="bay" />
		<tag k="ssr:stedsnr" v="124139" />
	</node>
	<node id="-600338" lat="59.5657666707" lon="5.46348610695">
		<tag k="alt_name" v="Longanes" />
		<tag k="name" v="Longaneset" />
		<tag k="natural" v="cape" />
		<tag k="ssr:stedsnr" v="913222" />
	</node>
	<node id="-600169" lat="59.5024444486" lon="5.37917776987">
		<tag k="name" v="Holmastøa" />
		<tag k="natural" v="bay" />
		<tag k="ssr:stedsnr" v="694895" />
	</node>
	<node id="-600168" lat="59.4976661636" lon="5.43932505679">
		<tag k="name" v="Rotatjørna" />
		<tag k="natural" v="water" />
		<tag k="ssr:stedsnr" v="694891" />
	</node>
	<node id="-600679" lat="59.6779472058" lon="5.5207967475">
		<tag k="name" v="Nipatjørna" />
		<tag k="natural" v="water" />
		<tag k="ssr:stedsnr" v="124060" />
	</node>
	<node id="-600790" lat="59.6852448499" lon="5.45515430475">
		<tag k="alt_name" v="Vatslivatnet;Vasslidvatnet" />
		<tag k="name" v="Vasslivatnet" />
		<tag k="natural" v="water" />
		<tag k="ssr:stedsnr" v="185993" />
		<tag k="water" v="lake" />
	</node>
	<node id="-600676" lat="59.4982936845" lon="5.41655174451">
		<tag k="name" v="Litlavatnet" />
		<tag k="natural" v="water" />
		<tag k="ssr:stedsnr" v="123729" />
	</node>
	<node id="-601187" lat="59.5753185277" lon="5.38608543662">
		<tag k="name" v="Ånestjørna" />
		<tag k="natural" v="water" />
		<tag k="ssr:stedsnr" v="610801" />
	</node>
	<node id="-600161" lat="59.6081888864" lon="5.37801944462">
		<tag k="name" v="Storebekken" />
		<tag k="ssr:stedsnr" v="694786" />
		<tag k="waterway" v="stream" />
	</node>
	<node id="-601289" lat="59.679474999" lon="5.45183332963">
		<tag k="name" v="Skjenet" />
		<tag k="natural" v="cape" />
		<tag k="ssr:stedsnr" v="755786" />
	</node>
	<node id="-600336" lat="59.5402379889" lon="5.27554001945">
		<tag k="name" v="Kovatjørna" />
		<tag k="natural" v="water" />
		<tag k="ssr:stedsnr" v="913180" />
	</node>
	<node id="-600193" lat="59.5062111072" lon="5.44240044008">
		<tag k="name" v="Litlebekktjørna" />
		<tag k="natural" v="water" />
		<tag k="ssr:stedsnr" v="609157" />
	</node>
	<node id="-600155" lat="59.5974004275" lon="5.32875194459">
		<tag k="alt_name" v="L. Lundavatnet" />
		<tag k="name" v="Litla Lundavatnet" />
		<tag k="natural" v="water" />
		<tag k="ssr:stedsnr" v="694567" />
		<tag k="water" v="lake" />
	</node>
	<node id="-601178" lat="59.5238228259" lon="5.33362946363">
		<tag k="alt_name" v="Bjørketjørn" />
		<tag k="name" v="Bjørketjørna" />
		<tag k="natural" v="water" />
		<tag k="ssr:stedsnr" v="610193" />
	</node>
	<node id="-601103" lat="59.5562521235" lon="5.37943864422">
		<tag k="name" v="Hinderlivatnet" />
		<tag k="natural" v="water" />
		<tag k="ssr:stedsnr" v="549237" />
		<tag k="water" v="lake" />
	</node>
	<node id="-601175" lat="59.5849376201" lon="5.46603515227">
		<tag k="name" v="Tømmervika" />
		<tag k="natural" v="bay" />
		<tag k="ssr:stedsnr" v="610077" />
	</node>
	<node id="-600661" lat="59.5972335862" lon="5.34728126646">
		<tag k="name" v="Klubben" />
		<tag k="natural" v="cape" />
		<tag k="ssr:stedsnr" v="87909" />
	</node>
	<node id="-600167" lat="59.5421527788" lon="5.40668333141">
		<tag k="name" v="Fureholmen" />
		<tag k="place" v="islet" />
		<tag k="ssr:stedsnr" v="694877" />
	</node>
	<node id="-601369" lat="59.5878972187" lon="5.40146111575">
		<tag k="name" v="Sætraklubben" />
		<tag k="natural" v="cape" />
		<tag k="ssr:stedsnr" v="852789" />
	</node>
	<node id="-601297" lat="59.5113055589" lon="5.41428055316">
		<tag k="alt_name" v="Kollesund" />
		<tag k="name" v="Kollesundet" />
		<tag k="natural" v="strait" />
		<tag k="ssr:stedsnr" v="791142" />
	</node>
	<node id="-600143" lat="59.6718388867" lon="5.53175555948">
		<tag k="name" v="Utlemyrstjørna" />
		<tag k="natural" v="water" />
		<tag k="ssr:stedsnr" v="694178" />
	</node>
	<node id="-600333" lat="59.5066222259" lon="5.40929721555">
		<tag k="name" v="Botsvika" />
		<tag k="natural" v="bay" />
		<tag k="ssr:stedsnr" v="913146" />
	</node>
	<node id="-601163" lat="59.5245864939" lon="5.50043313748">
		<tag k="name" v="Veikatjørna" />
		<tag k="natural" v="water" />
		<tag k="ssr:stedsnr" v="609259" />
	</node>
	<node id="-600247" lat="59.5900849883" lon="5.37526481082">
		<tag k="name" v="Vadtjørna" />
		<tag k="natural" v="water" />
		<tag k="ssr:stedsnr" v="731808" />
	</node>
	<node id="-600132" lat="59.5684805153" lon="5.41722924808">
		<tag k="name" v="Tveitatjørna" />
		<tag k="natural" v="water" />
		<tag k="ssr:stedsnr" v="512065" />
	</node>
	<node id="-600246" lat="59.5867733942" lon="5.35232360475">
		<tag k="name" v="Sandsvatnet" />
		<tag k="natural" v="water" />
		<tag k="ssr:stedsnr" v="731804" />
	</node>
	<node id="-600367" lat="59.631973001" lon="5.38804267467">
		<tag k="alt_name" v="Tvillingtjørnane" />
		<tag k="name" v="Tvillingtjørna" />
		<tag k="natural" v="water" />
		<tag k="ssr:stedsnr" v="791842" />
		<tag k="water" v="lake" />
	</node>
	<node id="-600075" lat="59.6730710472" lon="5.51792398109">
		<tag k="name" v="Haugsbustemmen" />
		<tag k="natural" v="water" />
		<tag k="ssr:stedsnr" v="451215" />
	</node>
	<node id="-601184" lat="59.5744007076" lon="5.46384357711">
		<tag k="alt_name" v="Lindslidtjørna;Lindslitjørna" />
		<tag k="name" v="Linslitjørna" />
		<tag k="natural" v="water" />
		<tag k="ssr:stedsnr" v="610270" />
	</node>
	<node id="-600125" lat="59.5270888556" lon="5.26844511788">
		<tag k="name" v="Torvhaugtjørn" />
		<tag k="natural" v="water" />
		<tag k="ssr:stedsnr" v="511102" />
	</node>
	<node id="-601145" lat="59.5387500006" lon="5.38900277241">
		<tag k="name" v="Mulavika" />
		<tag k="natural" v="bay" />
		<tag k="ssr:stedsnr" v="572900" />
	</node>
	<node id="-600119" lat="59.5823916667" lon="5.39446388484">
		<tag k="alt_name" v="Dillaråno" />
		<tag k="name" v="Dillaråna" />
		<tag k="ssr:stedsnr" v="671784" />
		<tag k="waterway" v="stream" />
	</node>
	<node id="-600630" lat="59.5589694432" lon="5.43395834011">
		<tag k="name" v="Haukåsvatnet" />
		<tag k="natural" v="water" />
		<tag k="ssr:stedsnr" v="87043" />
		<tag k="water" v="lake" />
	</node>
	<node id="-600629" lat="59.5773624113" lon="5.41623011706">
		<tag k="name" v="Kadlaklatten" />
		<tag k="natural" v="cape" />
		<tag k="ssr:stedsnr" v="87042" />
	</node>
	<node id="-601138" lat="59.5973067297" lon="5.33753648487">
		<tag k="name" v="Loknaelva" />
		<tag k="ssr:stedsnr" v="572590" />
		<tag k="waterway" v="river" />
	</node>
	<node id="-600345" lat="59.6027905891" lon="5.48777163247">
		<tag k="alt_name" v="Banndalstjørna" />
		<tag k="name" v="Banddalstjørna" />
		<tag k="natural" v="water" />
		<tag k="ssr:stedsnr" v="913402" />
	</node>
	<node id="-600766" lat="59.5270435872" lon="5.3189780007">
		<tag k="alt_name" v="Furevatnet" />
		<tag k="name" v="Forevatnet" />
		<tag k="natural" v="water" />
		<tag k="ssr:stedsnr" v="185191" />
		<tag k="water" v="lake" />
	</node>
	<node id="-600109" lat="59.6628324703" lon="5.45455656703">
		<tag k="name" v="Rindatjørna" />
		<tag k="natural" v="water" />
		<tag k="ssr:stedsnr" v="670906" />
	</node>
	<node id="-600620" lat="59.5817799255" lon="5.37656097931">
		<tag k="name" v="Dillavatnet" />
		<tag k="natural" v="water" />
		<tag k="ssr:stedsnr" v="64798" />
	</node>
	<node id="-600617" lat="59.615243994" lon="5.33145777396">
		<tag k="name" v="Hesthammartjørna" />
		<tag k="natural" v="water" />
		<tag k="ssr:stedsnr" v="64878" />
	</node>
	<node id="-600616" lat="59.6137269056" lon="5.42362445245">
		<tag k="alt_name" v="Bjølletjørn" />
		<tag k="name" v="Bjølletjørna" />
		<tag k="natural" v="water" />
		<tag k="ssr:stedsnr" v="64868" />
	</node>
	<node id="-600102" lat="59.5868083628" lon="5.40045300576">
		<tag k="alt_name" v="Breidavatnet" />
		<tag k="name" v="Breiavatnet" />
		<tag k="natural" v="water" />
		<tag k="ssr:stedsnr" v="670794" />
		<tag k="water" v="lake" />
	</node>
	<node id="-600613" lat="59.6405583343" lon="5.48711667153">
		<tag k="name" v="Hopstjørna" />
		<tag k="natural" v="water" />
		<tag k="ssr:stedsnr" v="64469" />
	</node>
	<node id="-601124" lat="59.5884333325" lon="5.43201111002">
		<tag k="name" v="Krokabekken" />
		<tag k="ssr:stedsnr" v="572001" />
		<tag k="waterway" v="stream" />
	</node>
	<node id="-600608" lat="59.5445111118" lon="5.40814722388">
		<tag k="alt_name" v="Storøy" />
		<tag k="name" v="Storøya" />
		<tag k="place" v="island" />
		<tag k="ssr:stedsnr" v="64189" />
	</node>
	<node id="-600607" lat="59.5531222259" lon="5.41957221956">
		<tag k="alt_name" v="Tunge" />
		<tag k="name" v="Tunga" />
>>>>>>> e1d4bc35ff8a6074a6f2e91616a996b547c36f15
		<tag k="natural" v="cape" />
		<tag k="ssr:stedsnr" v="64177" />
	</node>
<<<<<<< HEAD
	<node lat="59.50154444201953" lon="5.367122217875349" id="-35639">
		<tag k="name" v="Lindøya" />
		<tag k="place" v="island" />
		<tag k="ssr:stedsnr" v="732097" />
	</node>
	<node lat="59.57895730545003" lon="5.4160988235703265" id="-35649">
		<tag k="name" v="Sponaneset" />
		<tag k="natural" v="cape" />
		<tag k="ssr:stedsnr" v="754046" />
	</node>
	<node lat="59.57776110866967" lon="5.2960055627310645" id="-35661">
		<tag k="name" v="Kvernatjørna" />
		<tag k="natural" v="water" />
		<tag k="ssr:stedsnr" v="754537" />
	</node>
	<node lat="59.53935555362038" lon="5.3433611048666805" id="-35662">
		<tag k="name" v="Vikjo" />
		<tag k="natural" v="bay" />
		<tag k="ssr:stedsnr" v="754543" />
	</node>
	<node lat="59.533194445860495" lon="5.356208329966588" id="-35663">
		<tag k="name" v="Hoklahavet" />
		<tag k="natural" v="water" />
		<tag k="ssr:stedsnr" v="754545" />
	</node>
	<node lat="59.542661108944046" lon="5.400786105114015" id="-35681">
		<tag k="name" v="Torvhusvika" />
=======
	<node id="-600605" lat="59.5173106111" lon="5.30028950606">
		<tag k="name" v="Oksatjørna" />
		<tag k="natural" v="water" />
		<tag k="ssr:stedsnr" v="64169" />
	</node>
	<node id="-600603" lat="59.5325492791" lon="5.40807861719">
		<tag k="name" v="Rotatjørna" />
		<tag k="natural" v="water" />
		<tag k="ssr:stedsnr" v="64149" />
	</node>
	<node id="-599873" lat="59.5281333315" lon="5.25815833361">
		<tag k="name" v="Kvernavatnet" />
		<tag k="natural" v="water" />
		<tag k="ssr:stedsnr" v="246216" />
	</node>
	<node id="-600601" lat="59.5184227513" lon="5.43318345589">
		<tag k="alt_name" v="Gulhaugvatnet" />
		<tag k="name" v="Gulhaugavatnet" />
		<tag k="natural" v="water" />
		<tag k="ssr:stedsnr" v="64116" />
	</node>
	<node id="-600599" lat="59.5978583377" lon="5.41300278474">
		<tag k="alt_name" v="Vassbotn, søre;Søndre Vassbotn" />
		<tag k="name" v="Søre Vassbotn" />
>>>>>>> e1d4bc35ff8a6074a6f2e91616a996b547c36f15
		<tag k="natural" v="bay" />
		<tag k="ssr:stedsnr" v="63752" />
	</node>
<<<<<<< HEAD
	<node lat="59.679474999013394" lon="5.451833329630981" id="-35689">
		<tag k="name" v="Skjenet" />
		<tag k="natural" v="cape" />
		<tag k="ssr:stedsnr" v="755786" />
	</node>
	<node lat="59.559576609851426" lon="5.335971181426327" id="-35697">
		<tag k="name" v="Nordskogvatnet" />
		<tag k="natural" v="water" />
		<tag k="ssr:stedsnr" v="791234" />
		<tag k="water" v="lake" />
	</node>
	<node lat="59.5273305601609" lon="5.359602781437674" id="-35707">
		<tag k="alt_name" v="Apelansneset" />
		<tag k="name" v="Apelandsneset" />
		<tag k="natural" v="cape" />
		<tag k="ssr:stedsnr" v="792179" />
	</node>
	<node lat="59.51889722371125" lon="5.328688893104511" id="-35708">
		<tag k="name" v="Rotatjørna" />
		<tag k="natural" v="water" />
		<tag k="ssr:stedsnr" v="792182" />
	</node>
	<node lat="59.541894444103704" lon="5.403469452156736" id="-35711">
		<tag k="alt_name" v="Geitøy" />
		<tag k="name" v="Geitøya" />
		<tag k="place" v="islet" />
		<tag k="ssr:stedsnr" v="792200" />
	</node>
	<node lat="59.509172222947335" lon="5.414136113901386" id="-35723">
		<tag k="name" v="Neset" />
		<tag k="natural" v="cape" />
		<tag k="ssr:stedsnr" v="793078" />
	</node>
	<node lat="59.57838364527366" lon="5.414703639314185" id="-35734">
		<tag k="name" v="Færåsneset" />
		<tag k="natural" v="cape" />
		<tag k="ssr:stedsnr" v="815044" />
	</node>
	<node lat="59.58880278095918" lon="5.348258325804849" id="-35741">
		<tag k="name" v="Sandvassbekken" />
		<tag k="ssr:stedsnr" v="815561" />
		<tag k="waterway" v="stream" />
	</node>
	<node lat="59.565619443795846" lon="5.347902782876255" id="-35744">
		<tag k="name" v="Krokavatnet" />
		<tag k="natural" v="water" />
		<tag k="ssr:stedsnr" v="815127" />
		<tag k="water" v="lake" />
	</node>
	<node lat="59.57684444758064" lon="5.487555553632326" id="-35745">
		<tag k="name" v="Baståosen" />
		<tag k="natural" v="bay" />
		<tag k="ssr:stedsnr" v="815139" />
	</node>
	<node lat="59.67948333469133" lon="5.457333338904711" id="-35764">
		<tag k="name" v="Kolavika" />
		<tag k="natural" v="bay" />
		<tag k="ssr:stedsnr" v="816799" />
	</node>
	<node lat="59.67951666504777" lon="5.504663896305944" id="-35768">
		<tag k="alt_name" v="Vassdalstjørna" />
		<tag k="name" v="Vassdaltjørna" />
		<tag k="natural" v="water" />
		<tag k="ssr:stedsnr" v="852041" />
	</node>
	<node lat="59.50320341262923" lon="5.299925729752213" id="-35769">
		<tag k="name" v="Vadvatnet" />
		<tag k="natural" v="water" />
		<tag k="ssr:stedsnr" v="852131" />
	</node>
	<node lat="59.5018472188857" lon="5.269116665290253" id="-35770">
		<tag k="alt_name" v="Strømsvollvatnet" />
		<tag k="name" v="Straumsvollvatnet" />
		<tag k="natural" v="water" />
		<tag k="ssr:stedsnr" v="852143" />
		<tag k="water" v="lake" />
	</node>
	<node lat="59.560528373567536" lon="5.314228619197324" id="-35774">
		<tag k="name" v="Årdalstjørnane" />
		<tag k="natural" v="water" />
		<tag k="ssr:stedsnr" v="852241" />
		<tag k="water" v="lake" />
	</node>
	<node lat="59.587897218746896" lon="5.401461115748873" id="-35775">
		<tag k="name" v="Sætraklubben" />
		<tag k="natural" v="cape" />
		<tag k="ssr:stedsnr" v="852789" />
	</node>
	<node lat="59.712704886349506" lon="5.529746118193191" id="-35779">
		<tag k="name" v="Pollhola" />
		<tag k="natural" v="water" />
		<tag k="ssr:stedsnr" v="853054" />
	</node>
	<node lat="59.52738973674498" lon="5.398614363064511" id="-35781">
		<tag k="alt_name" v="Dyngetjørn" />
		<tag k="name" v="Dyngjetjørna" />
		<tag k="natural" v="water" />
		<tag k="ssr:stedsnr" v="853144" />
	</node>
	<node lat="59.531589566118576" lon="5.293950246329625" id="-35784">
		<tag k="alt_name" v="Håvåsevatnet" />
		<tag k="name" v="Håvåsvatnet" />
		<tag k="natural" v="water" />
		<tag k="ssr:stedsnr" v="853183" />
	</node>
	<node lat="59.59106111020829" lon="5.516286110985838" id="-35792">
		<tag k="alt_name" v="Røykenestjørna" />
		<tag k="name" v="Røykjenestjørna" />
		<tag k="natural" v="water" />
		<tag k="ssr:stedsnr" v="853397" />
	</node>
	<node lat="59.633786819369945" lon="5.495678570776876" id="-35793">
		<tag k="alt_name" v="Børvågsvatnet" />
		<tag k="name" v="Bårvågsvatnet" />
		<tag k="natural" v="water" />
		<tag k="ssr:stedsnr" v="853466" />
		<tag k="water" v="lake" />
	</node>
	<node lat="59.60773225833321" lon="5.351985860563842" id="-35798">
		<tag k="alt_name" v="Svartatjørna" />
		<tag k="name" v="Kvemevatnet" />
		<tag k="natural" v="water" />
		<tag k="ssr:stedsnr" v="853846" />
	</node>
	<node lat="59.57071792524086" lon="5.341062499153118" id="-35799">
		<tag k="alt_name" v="Skarhaugtjørna" />
		<tag k="name" v="Skardhaugtjørna" />
		<tag k="natural" v="water" />
		<tag k="ssr:stedsnr" v="853770" />
	</node>
	<node lat="59.49988333176551" lon="5.369483329523542" id="-35811">
		<tag k="name" v="Sorøy" />
		<tag k="place" v="island" />
		<tag k="ssr:stedsnr" v="876733" />
	</node>
	<node lat="59.57462249765684" lon="5.47703337613891" id="-35813">
		<tag k="name" v="Toråstørna" />
		<tag k="natural" v="water" />
		<tag k="ssr:stedsnr" v="876146" />
	</node>
	<node lat="59.534502780593336" lon="5.400980549113834" id="-35827">
		<tag k="name" v="Dalen" />
		<tag k="natural" v="bay" />
		<tag k="ssr:stedsnr" v="876891" />
	</node>
	<node lat="59.502714142549515" lon="5.3028819455016665" id="-35836">
		<tag k="name" v="Kvernavatnet" />
		<tag k="natural" v="water" />
		<tag k="ssr:stedsnr" v="936670" />
		<tag k="water" v="lake" />
	</node>
	<node lat="59.680875000678085" lon="5.4612972292843" id="-35842">
		<tag k="name" v="Storholmen" />
		<tag k="place" v="islet" />
		<tag k="ssr:stedsnr" v="936627" />
	</node>
	<node lat="59.596941669726704" lon="5.342413884439892" id="-35843">
		<tag k="name" v="Måkaholmen" />
		<tag k="place" v="islet" />
		<tag k="ssr:stedsnr" v="937256" />
	</node>
	<node lat="59.55500651611979" lon="5.327402920216395" id="-35847">
		<tag k="name" v="Tinetjørna" />
		<tag k="natural" v="water" />
		<tag k="ssr:stedsnr" v="936552" />
=======
	<node id="-600086" lat="59.5361388884" lon="5.38254443791">
		<tag k="name" v="Bruraholmen" />
		<tag k="place" v="islet" />
		<tag k="ssr:stedsnr" v="670213" />
	</node>
	<node id="-600084" lat="59.505544441" lon="5.4157749961">
		<tag k="name" v="Tømmervik" />
		<tag k="natural" v="bay" />
		<tag k="ssr:stedsnr" v="451917" />
	</node>
	<node id="-600361" lat="59.6433613884" lon="5.45557144067">
		<tag k="name" v="Bøtjørna" />
		<tag k="natural" v="water" />
		<tag k="ssr:stedsnr" v="914911" />
	</node>
	<node id="-601105" lat="59.5580079622" lon="5.47738503729">
		<tag k="alt_name" v="Ervestjørna" />
		<tag k="name" v="Ervetjørna" />
		<tag k="natural" v="water" />
		<tag k="ssr:stedsnr" v="549341" />
	</node>
	<node id="-600591" lat="59.5620894935" lon="5.40821913411">
		<tag k="name" v="Kyrkjetjørna" />
		<tag k="natural" v="water" />
		<tag k="ssr:stedsnr" v="63253" />
	</node>
	<node id="-600590" lat="59.5610191636" lon="5.38942197709">
		<tag k="alt_name" v="Tjørnaråspøylene" />
		<tag k="name" v="Tjørnaåspøylene" />
		<tag k="natural" v="water" />
		<tag k="ssr:stedsnr" v="63251" />
	</node>
	<node id="-600589" lat="59.561094443" lon="5.32874721789">
		<tag k="name" v="Kleivavatnet" />
		<tag k="natural" v="water" />
		<tag k="ssr:stedsnr" v="63241" />
	</node>
	<node id="-600588" lat="59.5614713232" lon="5.36688865055">
		<tag k="alt_name" v="Furetjørn" />
		<tag k="name" v="Foretjørna" />
		<tag k="natural" v="water" />
		<tag k="ssr:stedsnr" v="63239" />
	</node>
	<node id="-600587" lat="59.5083999999" lon="5.42478055448">
		<tag k="alt_name" v="Flateholmen" />
		<tag k="name" v="Flatholmen" />
		<tag k="place" v="islet" />
		<tag k="ssr:stedsnr" v="63149" />
	</node>
	<node id="-601098" lat="59.576507542" lon="5.43855397717">
		<tag k="alt_name" v="Moldbrekkevatnet" />
		<tag k="name" v="Moldbrekkvatnet" />
		<tag k="natural" v="water" />
		<tag k="ssr:stedsnr" v="549218" />
	</node>
	<node id="-601096" lat="59.5485747711" lon="5.33365998832">
		<tag k="name" v="Åsetjørna" />
		<tag k="natural" v="water" />
		<tag k="ssr:stedsnr" v="549202" />
	</node>
	<node id="-600096" lat="59.5345815555" lon="5.42329670523">
		<tag k="name" v="Trollavatnet" />
		<tag k="natural" v="water" />
		<tag k="ssr:stedsnr" v="670167" />
	</node>
	<node id="-599948" lat="59.5009666696" lon="5.26454722044">
		<tag k="name" v="Straumaneset" />
		<tag k="natural" v="cape" />
		<tag k="ssr:stedsnr" v="330104" />
	</node>
	<node id="-600452" lat="59.5133823182" lon="5.43071040369">
		<tag k="name" v="Mørkavatnet" />
		<tag k="natural" v="water" />
		<tag k="ssr:stedsnr" v="853106" />
	</node>
	<node id="-600872" lat="59.6344553343" lon="5.38963034723">
		<tag k="alt_name" v="Råtatjørn" />
		<tag k="name" v="Rotatjørna" />
		<tag k="natural" v="water" />
		<tag k="ssr:stedsnr" v="306831" />
	</node>
	<node id="-600577" lat="59.5080527813" lon="5.42164444967">
		<tag k="name" v="Storeholmen" />
		<tag k="place" v="islet" />
		<tag k="ssr:stedsnr" v="26972" />
>>>>>>> e1d4bc35ff8a6074a6f2e91616a996b547c36f15
	</node>
</osm>
