<?xml version="1.0" encoding="UTF-8"?>
<osm generator="osmapis" version="0.6">
	<node id="-591872" lat="59.6374750039" lon="5.44688333936">
		<tag k="name" v="Lindøysundet" />
		<tag k="natural" v="strait" />
		<tag k="ssr:stedsnr" v="245824" />
	</node>
	<node id="-591867" lat="59.6235805587" lon="5.45289444757">
		<tag k="alt_name" v="Grautasundet" />
		<tag k="name" v="Grautesundet" />
		<tag k="natural" v="strait" />
		<tag k="ssr:stedsnr" v="64822" />
	</node>
	<node id="-591865" lat="59.5651555583" lon="5.53212778577">
		<tag k="name" v="Haugavika" />
		<tag k="natural" v="bay" />
		<tag k="ssr:stedsnr" v="64353" />
	</node>
	<node id="-591860" lat="59.5288979028" lon="5.23236542276">
		<tag k="alt_name" v="Grautaviksholmen" />
		<tag k="name" v="Grautvikholmen" />
		<tag k="place" v="islet" />
		<tag k="ssr:stedsnr" v="64202" />
	</node>
	<node id="-591857" lat="59.6484611076" lon="5.43990000873">
		<tag k="name" v="Kråkevika" />
		<tag k="natural" v="bay" />
		<tag k="ssr:stedsnr" v="26801" />
	</node>
	<node id="-591855" lat="59.6251333355" lon="5.44562777498">
		<tag k="name" v="Kadløy" />
		<tag k="place" v="island" />
		<tag k="ssr:stedsnr" v="26934" />
	</node>
	<node id="-591854" lat="59.6313722223" lon="5.41218888012">
		<tag k="name" v="Eikelandssjøen" />
		<tag k="natural" v="beach" />
		<tag k="place" v="locality" />
		<tag k="ssr:stedsnr" v="26926" />
	</node>
	<node id="-591852" lat="59.526380556" lon="5.22751388747">
		<tag k="name" v="Ryvardsneset" />
		<tag k="natural" v="cape" />
		<tag k="ssr:stedsnr" v="26716" />
	</node>
	<node id="-591851" lat="59.519221812" lon="5.24392228967">
		<tag k="name" v="Søre Brattholmen" />
		<tag k="place" v="islet" />
		<tag k="ssr:stedsnr" v="26714" />
	</node>
	<node id="-591848" lat="59.5903694489" lon="5.29233055812">
		<tag k="name" v="Steinavika" />
		<tag k="natural" v="bay" />
		<tag k="ssr:stedsnr" v="26521" />
	</node>
	<node id="-591840" lat="59.5835055551" lon="5.43925556229">
		<tag k="name" v="Haukåsvika" />
		<tag k="natural" v="bay" />
		<tag k="ssr:stedsnr" v="26013" />
	</node>
	<node id="-591837" lat="59.5932660968" lon="5.43546958716">
		<tag k="name" v="Rødspollen" />
		<tag k="natural" v="bay" />
		<tag k="ssr:stedsnr" v="3802" />
	</node>
	<node id="-593497" lat="59.7061474673" lon="5.47229344066">
		<tag k="name" v="Skinko" />
		<tag k="natural" v="cape" />
		<tag k="ssr:stedsnr" v="876164" />
	</node>
	<node id="-593496" lat="59.7043833328" lon="5.46758611886">
		<tag k="alt_name" v="Hondsrygg" />
		<tag k="name" v="Hundsrygg" />
		<tag k="natural" v="cape" />
		<tag k="ssr:stedsnr" v="876162" />
	</node>
	<node id="-593493" lat="59.7357333319" lon="5.53892500312">
		<tag k="name" v="Tittelsnesflua" />
		<tag k="natural" v="shoal" />
		<tag k="place" v="locality" />
		<tag k="ssr:stedsnr" v="875568" />
	</node>
	<node id="-593492" lat="59.5720333322" lon="5.28889723021">
		<tag k="name" v="Skjervik" />
		<tag k="natural" v="bay" />
		<tag k="ssr:stedsnr" v="874001" />
	</node>
	<node id="-593491" lat="59.5257583343" lon="5.4686916635">
		<tag k="fixme" v="consider seamark:type=rock or natural=shoal" />
		<tag k="name" v="Svartskjeret" />
		<tag k="place" v="islet" />
		<tag k="ssr:stedsnr" v="873849" />
	</node>
	<node id="-593487" lat="59.6734916704" lon="5.41650000033">
		<tag k="alt_name" v="Midtvikøy;Midtvik" />
		<tag k="name" v="Midvikøya" />
		<tag k="place" v="island" />
		<tag k="ssr:stedsnr" v="853990" />
	</node>
	<node id="-593486" lat="59.6489861095" lon="5.39933333432">
		<tag k="alt_name" v="Lambavågen;Lambeidvågen" />
		<tag k="name" v="Lammavågen" />
		<tag k="natural" v="bay" />
		<tag k="ssr:stedsnr" v="853893" />
	</node>
	<node id="-593485" lat="59.6113222225" lon="5.31756944828">
		<tag k="name" v="Risøya" />
		<tag k="place" v="islet" />
		<tag k="ssr:stedsnr" v="853872" />
	</node>
	<node id="-593484" lat="59.6019111153" lon="5.31883055553">
		<tag k="alt_name" v="Buaneset" />
		<tag k="name" v="Buanes" />
		<tag k="natural" v="cape" />
		<tag k="ssr:stedsnr" v="853746" />
	</node>
	<node id="-593470" lat="59.5303694446" lon="5.46608333615">
		<tag k="name" v="Ognaneset" />
		<tag k="natural" v="cape" />
		<tag k="ssr:stedsnr" v="853138" />
	</node>
	<node id="-593467" lat="59.6298833324" lon="5.52084999324">
		<tag k="alt_name" v="Kobbaneset, l" />
		<tag k="name" v="Litla Kobbaneset" />
		<tag k="natural" v="cape" />
		<tag k="ssr:stedsnr" v="852436" />
	</node>
	<node id="-593461" lat="59.5227916708" lon="5.45705833922">
		<tag k="alt_name" v="Kvalvågnesvik" />
		<tag k="name" v="Nesavika" />
		<tag k="natural" v="bay" />
		<tag k="ssr:stedsnr" v="852126" />
	</node>
	<node id="-593458" lat="59.61476389" lon="5.44864166756">
		<tag k="name" v="Bjørnøysundet" />
		<tag k="natural" v="strait" />
		<tag k="ssr:stedsnr" v="816825" />
	</node>
	<node id="-593456" lat="59.6633120331" lon="5.41387503738">
		<tag k="name" v="Ytra Hauglandsneset" />
		<tag k="natural" v="cape" />
		<tag k="ssr:stedsnr" v="816467" />
	</node>
	<node id="-593455" lat="59.5121916656" lon="5.38929722591">
		<tag k="name" v="Langedalsvik" />
		<tag k="natural" v="bay" />
		<tag k="ssr:stedsnr" v="815984" />
	</node>
	<node id="-593454" lat="59.6122805561" lon="5.31572222271">
		<tag k="name" v="Slåttholmen" />
		<tag k="place" v="islet" />
		<tag k="ssr:stedsnr" v="815940" />
	</node>
	<node id="-593453" lat="59.5984194402" lon="5.31662499215">
		<tag k="name" v="Austre Naustholmen" />
		<tag k="place" v="islet" />
		<tag k="ssr:stedsnr" v="815938" />
	</node>
	<node id="-593452" lat="59.6021027805" lon="5.32458332731">
		<tag k="name" v="Bosnes" />
		<tag k="natural" v="cape" />
		<tag k="ssr:stedsnr" v="815920" />
	</node>
	<node id="-593446" lat="59.5500277774" lon="5.24510278121">
		<tag k="name" v="Tresneset" />
		<tag k="natural" v="cape" />
		<tag k="ssr:stedsnr" v="815742" />
	</node>
	<node id="-593435" lat="59.672688887" lon="5.5350916667">
		<tag k="name" v="Tømmervika" />
		<tag k="natural" v="bay" />
		<tag k="ssr:stedsnr" v="815192" />
	</node>
	<node id="-593425" lat="59.5622739183" lon="5.28260135356">
		<tag k="fixme" v="multiple name tags, choose one and add the other to alt_name" />
		<tag k="name" v="Eltravågnes;Neset" />
		<tag k="natural" v="cape" />
		<tag k="ssr:stedsnr" v="813571" />
	</node>
	<node id="-593424" lat="59.5661055567" lon="5.26448333958">
		<tag k="name" v="Skallane" />
		<tag k="natural" v="shoal" />
		<tag k="place" v="locality" />
		<tag k="ssr:stedsnr" v="813002" />
	</node>
	<node id="-593423" lat="59.5296805545" lon="5.51430276964">
		<tag k="name" v="Sønningjå" />
		<tag k="natural" v="strait" />
		<tag k="ssr:stedsnr" v="812716" />
	</node>
	<node id="-593419" lat="59.6302888922" lon="5.30161110496">
		<tag k="bay" v="fjord" />
		<tag k="name" v="Bømlafjorden" />
		<tag k="natural" v="bay" />
		<tag k="ssr:stedsnr" v="792922" />
	</node>
	<node id="-593417" lat="59.595369444" lon="5.30612499871">
		<tag k="name" v="Rongskårholmen" />
		<tag k="place" v="islet" />
		<tag k="ssr:stedsnr" v="792746" />
	</node>
	<node id="-593415" lat="59.5749055571" lon="5.27961111108">
		<tag k="alt_name" v="Hovdeholmen" />
		<tag k="name" v="Hovdaholmen" />
		<tag k="place" v="islet" />
		<tag k="ssr:stedsnr" v="792780" />
	</node>
	<node id="-593413" lat="59.7220749963" lon="5.52780278592">
		<tag k="alt_name" v="Svinavika, in" />
		<tag k="name" v="Indre Svinavika" />
		<tag k="natural" v="bay" />
		<tag k="ssr:stedsnr" v="792117" />
	</node>
	<node id="-593407" lat="59.532133183" lon="5.50533587505">
		<tag k="fixme" v="multiple name tags, choose one and add the other to alt_name" />
		<tag k="name" v="Kvernavik;Skoganesvika" />
		<tag k="natural" v="bay" />
		<tag k="ssr:stedsnr" v="792270" />
	</node>
	<node id="-593401" lat="59.6306611143" lon="5.34785832601">
		<tag k="name" v="Tjernagelvågen" />
		<tag k="natural" v="bay" />
		<tag k="ssr:stedsnr" v="791916" />
	</node>
	<node id="-593398" lat="59.6020555574" lon="5.52346389424">
		<tag k="alt_name" v="Gryteneset" />
		<tag k="name" v="Grytenes" />
		<tag k="natural" v="cape" />
		<tag k="ssr:stedsnr" v="791396" />
	</node>
	<node id="-593394" lat="59.5456916625" lon="5.24038054825">
		<tag k="alt_name" v="Kvinnersbukta" />
		<tag k="name" v="Kvinnsvika" />
		<tag k="natural" v="bay" />
		<tag k="ssr:stedsnr" v="791236" />
	</node>
	<node id="-593391" lat="59.56411944" lon="5.27773888272">
		<tag k="alt_name" v="Storeneset" />
		<tag k="name" v="Storanes" />
		<tag k="natural" v="cape" />
		<tag k="ssr:stedsnr" v="791218" />
	</node>
	<node id="-593388" lat="59.6359000036" lon="5.45175555212">
		<tag k="name" v="Hagavikholmen" />
		<tag k="place" v="islet" />
		<tag k="ssr:stedsnr" v="755459" />
	</node>
	<node id="-593387" lat="59.5454083332" lon="5.45677778344">
		<tag k="name" v="Austre Odden" />
		<tag k="natural" v="cape" />
		<tag k="ssr:stedsnr" v="754991" />
	</node>
	<node id="-593386" lat="59.5295899081" lon="5.46798410114">
		<tag k="name" v="Flatnesvika" />
		<tag k="natural" v="bay" />
		<tag k="ssr:stedsnr" v="754980" />
	</node>
	<node id="-593383" lat="59.6250388847" lon="5.41124166243">
		<tag k="name" v="Garvika" />
		<tag k="natural" v="bay" />
		<tag k="ssr:stedsnr" v="754963" />
	</node>
	<node id="-593381" lat="59.6030027816" lon="5.32000277113">
		<tag k="name" v="Loknastraumen" />
		<tag k="natural" v="strait" />
		<tag k="ssr:stedsnr" v="754929" />
	</node>
	<node id="-593378" lat="59.5307222263" lon="5.45852500701">
		<tag k="name" v="Klubbane" />
		<tag k="natural" v="cape" />
		<tag k="ssr:stedsnr" v="754879" />
	</node>
	<node id="-593374" lat="59.6467722211" lon="5.40019444086">
		<tag k="name" v="Roligehamn" />
		<tag k="natural" v="bay" />
		<tag k="ssr:stedsnr" v="754867" />
	</node>
	<node id="-593373" lat="59.6400777762" lon="5.41300555499">
		<tag k="name" v="Norda Vika" />
		<tag k="natural" v="bay" />
		<tag k="ssr:stedsnr" v="754851" />
	</node>
	<node id="-593370" lat="59.5297083362" lon="5.51423333376">
		<tag k="bay" v="fjord" />
		<tag k="name" v="Sønningjå" />
		<tag k="natural" v="bay" />
		<tag k="ssr:stedsnr" v="754823" />
	</node>
	<node id="-593368" lat="59.5533500526" lon="5.25389567754">
		<tag k="name" v="Hamnavika" />
		<tag k="natural" v="bay" />
		<tag k="ssr:stedsnr" v="754745" />
	</node>
	<node id="-593367" lat="59.5536785632" lon="5.25441710455">
		<tag k="name" v="Klubben" />
		<tag k="natural" v="cape" />
		<tag k="ssr:stedsnr" v="754744" />
	</node>
	<node id="-593364" lat="59.7195166633" lon="5.49943889245">
		<tag k="alt_name" v="Haugsgjerdeskjer" />
		<tag k="fixme" v="consider seamark:type=rock or natural=shoal" />
		<tag k="name" v="Storaskjer" />
		<tag k="place" v="islet" />
		<tag k="ssr:stedsnr" v="754675" />
	</node>
	<node id="-593360" lat="59.6253416689" lon="5.33546110277">
		<tag k="name" v="Leirpollen" />
		<tag k="natural" v="bay" />
		<tag k="ssr:stedsnr" v="754577" />
	</node>
	<node id="-593359" lat="59.6237638893" lon="5.32687221914">
		<tag k="name" v="Naustvika" />
		<tag k="natural" v="bay" />
		<tag k="ssr:stedsnr" v="754573" />
	</node>
	<node id="-593352" lat="59.5036416672" lon="5.2476500023">
		<tag k="name" v="Kvernevik" />
		<tag k="natural" v="bay" />
		<tag k="ssr:stedsnr" v="754242" />
	</node>
	<node id="-593351" lat="59.5975388918" lon="5.52076111145">
		<tag k="name" v="Geitabergvika" />
		<tag k="natural" v="bay" />
		<tag k="ssr:stedsnr" v="754213" />
	</node>
	<node id="-593346" lat="59.6890694468" lon="5.44006666613">
		<tag k="name" v="Grønno" />
		<tag k="natural" v="bay" />
		<tag k="ssr:stedsnr" v="754186" />
	</node>
	<node id="-593345" lat="59.5609861134" lon="5.52174167351">
		<tag k="name" v="Saltvikklubben" />
		<tag k="natural" v="cape" />
		<tag k="ssr:stedsnr" v="754174" />
	</node>
	<node id="-593344" lat="59.7294194416" lon="5.53220554986">
		<tag k="name" v="Laksaklubben" />
		<tag k="natural" v="cape" />
		<tag k="ssr:stedsnr" v="754169" />
	</node>
	<node id="-593339" lat="59.5069333373" lon="5.22822499763">
		<tag k="name" v="Sandholmen" />
		<tag k="place" v="islet" />
		<tag k="ssr:stedsnr" v="754098" />
	</node>
	<node id="-593335" lat="59.5969784948" lon="5.31500593049">
		<tag k="name" v="Hovdaholmen" />
		<tag k="place" v="islet" />
		<tag k="ssr:stedsnr" v="754065" />
	</node>
	<node id="-593330" lat="59.5676361133" lon="5.28473888889">
		<tag k="name" v="Årstadholmane" />
		<tag k="place" v="islet" />
		<tag k="ssr:stedsnr" v="752002" />
	</node>
	<node id="-593326" lat="59.7172722222" lon="5.46740277937">
		<tag k="name" v="Kjekseskallen" />
		<tag k="place" v="island" />
		<tag k="ssr:stedsnr" v="648586" />
	</node>
	<node id="-593322" lat="59.6661083326" lon="5.44635277054">
		<tag k="name" v="Idlevik" />
		<tag k="natural" v="bay" />
		<tag k="ssr:stedsnr" v="633793" />
	</node>
	<node id="-593321" lat="59.5202888877" lon="5.24069166531">
		<tag k="fixme" v="consider seamark:type=rock or natural=shoal" />
		<tag k="name" v="Nordre Bleika" />
		<tag k="place" v="islet" />
		<tag k="ssr:stedsnr" v="633777" />
	</node>
	<node id="-593320" lat="59.6408249984" lon="5.44026111078">
		<tag k="name" v="Litla" />
		<tag k="place" v="island" />
		<tag k="ssr:stedsnr" v="633877" />
	</node>
	<node id="-593318" lat="59.5417569836" lon="5.50674141556">
		<tag k="name" v="Kvitanesvik" />
		<tag k="natural" v="bay" />
		<tag k="ssr:stedsnr" v="633868" />
	</node>
	<node id="-593315" lat="59.6459944476" lon="5.43786666338">
		<tag k="name" v="Asaleholmen" />
		<tag k="place" v="islet" />
		<tag k="ssr:stedsnr" v="633464" />
	</node>
	<node id="-593313" lat="59.5058277748" lon="5.22883889155">
		<tag k="fixme" v="consider seamark:type=rock or natural=shoal" />
		<tag k="name" v="Seiskjer" />
		<tag k="place" v="islet" />
		<tag k="ssr:stedsnr" v="633243" />
	</node>
	<node id="-593312" lat="59.5017461557" lon="5.25052157985">
		<tag k="name" v="Leirvik" />
		<tag k="natural" v="bay" />
		<tag k="ssr:stedsnr" v="633241" />
	</node>
	<node id="-593306" lat="59.6347083294" lon="5.3736805492">
		<tag k="name" v="Øklandsneset" />
		<tag k="natural" v="cape" />
		<tag k="ssr:stedsnr" v="633074" />
	</node>
	<node id="-593302" lat="59.5439222245" lon="5.45386944605">
		<tag k="name" v="Mækjelandsvika" />
		<tag k="natural" v="bay" />
		<tag k="ssr:stedsnr" v="632984" />
	</node>
	<node id="-593298" lat="59.6203027757" lon="5.4689222201">
		<tag k="alt_name" v="Kjerringskjer" />
		<tag k="fixme" v="consider seamark:type=rock or natural=shoal" />
		<tag k="name" v="Kjerringskjeret" />
		<tag k="place" v="islet" />
		<tag k="ssr:stedsnr" v="632945" />
	</node>
	<node id="-593297" lat="59.6199500002" lon="5.45395832782">
		<tag k="name" v="Flintavik" />
		<tag k="natural" v="bay" />
		<tag k="ssr:stedsnr" v="632932" />
	</node>
	<node id="-593295" lat="59.7154138864" lon="5.5254833408">
		<tag k="name" v="Litlanes" />
		<tag k="natural" v="cape" />
		<tag k="ssr:stedsnr" v="632641" />
	</node>
	<node id="-593294" lat="59.6993429847" lon="5.4630742898">
		<tag k="name" v="Vestre Vågen" />
		<tag k="natural" v="bay" />
		<tag k="ssr:stedsnr" v="632621" />
	</node>
	<node id="-593290" lat="59.5764000008" lon="5.28446389181">
		<tag k="name" v="Djupedalsneset" />
		<tag k="natural" v="cape" />
		<tag k="ssr:stedsnr" v="632528" />
	</node>
	<node id="-593289" lat="59.5223861107" lon="5.24513889159">
		<tag k="name" v="Grebbevikodden" />
		<tag k="natural" v="cape" />
		<tag k="ssr:stedsnr" v="631281" />
	</node>
	<node id="-593286" lat="59.6239555554" lon="5.5244277818">
		<tag k="name" v="Kobbaneset" />
		<tag k="natural" v="cape" />
		<tag k="ssr:stedsnr" v="610465" />
	</node>
	<node id="-593282" lat="59.7013138907" lon="5.53868889356">
		<tag k="alt_name" v="Holsvik" />
		<tag k="name" v="Holsvika" />
		<tag k="natural" v="bay" />
		<tag k="ssr:stedsnr" v="610102" />
	</node>
	<node id="-593277" lat="59.6161138878" lon="5.31691944062">
		<tag k="alt_name" v="Haugavika, store;Haugavika, S" />
		<tag k="name" v="Store Haugavika" />
		<tag k="natural" v="bay" />
		<tag k="ssr:stedsnr" v="609847" />
	</node>
	<node id="-593276" lat="59.5271166653" lon="5.45048333002">
		<tag k="alt_name" v="Langanes" />
		<tag k="name" v="Langaneset" />
		<tag k="natural" v="cape" />
		<tag k="ssr:stedsnr" v="610085" />
	</node>
	<node id="-593273" lat="59.6341416653" lon="5.3656388934">
		<tag k="name" v="Snøreneset" />
		<tag k="natural" v="cape" />
		<tag k="ssr:stedsnr" v="609822" />
	</node>
	<node id="-593269" lat="59.4946527761" lon="5.30162500549">
		<tag k="alt_name" v="Øyro" />
		<tag k="name" v="Øyr" />
		<tag k="natural" v="bay" />
		<tag k="ssr:stedsnr" v="609700" />
	</node>
	<node id="-593266" lat="59.551486109" lon="5.50304166286">
		<tag k="name" v="Oahamn" />
		<tag k="natural" v="beach" />
		<tag k="place" v="locality" />
		<tag k="ssr:stedsnr" v="609307" />
	</node>
	<node id="-593265" lat="59.5341888931" lon="5.50767499869">
		<tag k="alt_name" v="Skoganeset" />
		<tag k="name" v="Skoganes" />
		<tag k="natural" v="cape" />
		<tag k="ssr:stedsnr" v="609276" />
	</node>
	<node id="-593261" lat="59.5147972221" lon="5.44829443646">
		<tag k="name" v="Rasmusvika" />
		<tag k="natural" v="bay" />
		<tag k="ssr:stedsnr" v="609142" />
	</node>
	<node id="-593258" lat="59.7320055561" lon="5.53421389195">
		<tag k="alt_name" v="Johansvoll" />
		<tag k="name" v="Jonasvoll" />
		<tag k="natural" v="cape" />
		<tag k="ssr:stedsnr" v="609093" />
	</node>
	<node id="-593253" lat="59.5118166638" lon="5.42046111178">
		<tag k="name" v="Sandvik" />
		<tag k="natural" v="bay" />
		<tag k="ssr:stedsnr" v="572976" />
	</node>
	<node id="-593251" lat="59.6172611144" lon="5.44452221713">
		<tag k="name" v="Peisarholmen" />
		<tag k="place" v="islet" />
		<tag k="ssr:stedsnr" v="572954" />
	</node>
	<node id="-593250" lat="59.5781333322" lon="5.53122500363">
		<tag k="name" v="Rabbaklubben" />
		<tag k="natural" v="cape" />
		<tag k="ssr:stedsnr" v="572839" />
	</node>
	<node id="-593248" lat="59.592983336" lon="5.52277222433">
		<tag k="name" v="Røykeneset" />
		<tag k="natural" v="cape" />
		<tag k="ssr:stedsnr" v="572832" />
	</node>
	<node id="-593246" lat="59.6140805527" lon="5.31591388894">
		<tag k="name" v="Steinavika" />
		<tag k="natural" v="bay" />
		<tag k="ssr:stedsnr" v="572933" />
	</node>
	<node id="-593240" lat="59.6004972262" lon="5.30368889615">
		<tag k="name" v="Skaget" />
		<tag k="natural" v="cape" />
		<tag k="ssr:stedsnr" v="572601" />
	</node>
	<node id="-593239" lat="59.6000861084" lon="5.31325000149">
		<tag k="name" v="Svartholmen" />
		<tag k="place" v="islet" />
		<tag k="ssr:stedsnr" v="572600" />
	</node>
	<node id="-593237" lat="59.6669583333" lon="5.44605000445">
		<tag k="name" v="Vihovdevika" />
		<tag k="natural" v="bay" />
		<tag k="ssr:stedsnr" v="572781" />
	</node>
	<node id="-593236" lat="59.7143827774" lon="5.49323606764">
		<tag k="name" v="Buvika" />
		<tag k="natural" v="bay" />
		<tag k="ssr:stedsnr" v="572680" />
	</node>
	<node id="-593235" lat="59.5131916691" lon="5.27563889581">
		<tag k="name" v="Steinholmane" />
		<tag k="place" v="islet" />
		<tag k="ssr:stedsnr" v="572545" />
	</node>
	<node id="-593230" lat="59.7030694441" lon="5.46983611795">
		<tag k="name" v="Litlanes" />
		<tag k="natural" v="cape" />
		<tag k="ssr:stedsnr" v="572174" />
	</node>
	<node id="-593229" lat="59.7304472242" lon="5.53393333356">
		<tag k="name" v="Resaspronget" />
		<tag k="natural" v="cape" />
		<tag k="ssr:stedsnr" v="572165" />
	</node>
	<node id="-593222" lat="59.5613277773" lon="5.25611944444">
		<tag k="name" v="Martenskallen" />
		<tag k="natural" v="shoal" />
		<tag k="place" v="locality" />
		<tag k="ssr:stedsnr" v="570006" />
	</node>
	<node id="-593220" lat="59.6693944434" lon="5.44792499719">
		<tag k="alt_name" v="Torgarsvik" />
		<tag k="name" v="Torgarvika" />
		<tag k="natural" v="bay" />
		<tag k="ssr:stedsnr" v="549980" />
	</node>
	<node id="-593219" lat="59.6468305514" lon="5.44482777742">
		<tag k="name" v="Liereid" />
		<tag k="natural" v="bay" />
		<tag k="ssr:stedsnr" v="549910" />
	</node>
	<node id="-593214" lat="59.5654219112" lon="5.28256273814">
		<tag k="alt_name" v="Eltravåg" />
		<tag k="name" v="Eltravågen" />
		<tag k="natural" v="bay" />
		<tag k="ssr:stedsnr" v="549761" />
	</node>
	<node id="-593213" lat="59.606377591" lon="5.44944981716">
		<tag k="alt_name" v="Drågsvågen;Drangsvågen" />
		<tag k="name" v="Drångsvågen" />
		<tag k="natural" v="bay" />
		<tag k="ssr:stedsnr" v="549755" />
	</node>
	<node id="-593212" lat="59.5877666665" lon="5.29221111444">
		<tag k="name" v="Hovdaneset" />
		<tag k="natural" v="cape" />
		<tag k="ssr:stedsnr" v="549739" />
	</node>
	<node id="-593211" lat="59.6380388874" lon="5.52398054805">
		<tag k="name" v="Staupsholmen" />
		<tag k="place" v="islet" />
		<tag k="ssr:stedsnr" v="549429" />
	</node>
	<node id="-593210" lat="59.6257583312" lon="5.52255554921">
		<tag k="name" v="Drengavika" />
		<tag k="natural" v="bay" />
		<tag k="ssr:stedsnr" v="549420" />
	</node>
	<node id="-593207" lat="59.5914445024" lon="5.52324490453">
		<tag k="alt_name" v="Røykjenesholmen, søre;Søre Røykenesholmen" />
		<tag k="name" v="Søre Røykjenesholmen" />
		<tag k="place" v="islet" />
		<tag k="ssr:stedsnr" v="549377" />
	</node>
	<node id="-593206" lat="59.557355559" lon="5.5155749908">
		<tag k="alt_name" v="Oavik" />
		<tag k="name" v="Oavika" />
		<tag k="natural" v="bay" />
		<tag k="ssr:stedsnr" v="549346" />
	</node>
	<node id="-593204" lat="59.5611916645" lon="5.47961666667">
		<tag k="alt_name" v="Prøysen" />
		<tag k="name" v="Ervesvågen" />
		<tag k="natural" v="bay" />
		<tag k="ssr:stedsnr" v="549340" />
	</node>
	<node id="-593199" lat="59.5546583347" lon="5.26337777158">
		<tag k="alt_name" v="Hellevik" />
		<tag k="name" v="Hellevika" />
		<tag k="natural" v="bay" />
		<tag k="ssr:stedsnr" v="549223" />
	</node>
	<node id="-593193" lat="59.538719443" lon="5.23827499546">
		<tag k="name" v="Sørevika" />
		<tag k="natural" v="bay" />
		<tag k="ssr:stedsnr" v="549195" />
	</node>
	<node id="-593191" lat="59.5246437826" lon="5.44674394507">
		<tag k="alt_name" v="Vågen, s;Store Kvalvågen;Søre Vågen" />
		<tag k="name" v="Søre Kvalvågen" />
		<tag k="natural" v="bay" />
		<tag k="ssr:stedsnr" v="549179" />
	</node>
	<node id="-593190" lat="59.5228638931" lon="5.23744166271">
		<tag k="alt_name" v="Fauskevik" />
		<tag k="name" v="Fauskebukta" />
		<tag k="natural" v="bay" />
		<tag k="ssr:stedsnr" v="549175" />
	</node>
	<node id="-593189" lat="59.541452779" lon="5.45281389312">
		<tag k="name" v="Holmen" />
		<tag k="place" v="islet" />
		<tag k="ssr:stedsnr" v="549166" />
	</node>
	<node id="-593182" lat="59.6370333306" lon="5.44148056018">
		<tag k="alt_name" v="Lindøy" />
		<tag k="name" v="Lindøya" />
		<tag k="place" v="island" />
		<tag k="ssr:stedsnr" v="548828" />
	</node>
	<node id="-593180" lat="59.491052779" lon="5.28061111793">
		<tag k="name" v="Tronnes" />
		<tag k="natural" v="cape" />
		<tag k="ssr:stedsnr" v="548694" />
	</node>
	<node id="-593177" lat="59.6730999998" lon="5.44474444187">
		<tag k="alt_name" v="Hauglandsvik" />
		<tag k="name" v="Hauglandsvika" />
		<tag k="natural" v="bay" />
		<tag k="ssr:stedsnr" v="428979" />
	</node>
	<node id="-593176" lat="59.5429888877" lon="5.50807500282">
		<tag k="alt_name" v="Kvitanes" />
		<tag k="name" v="Kvitaneset" />
		<tag k="natural" v="cape" />
		<tag k="ssr:stedsnr" v="429076" />
	</node>
	<node id="-593175" lat="59.5221888895" lon="5.27758888828">
		<tag k="alt_name" v="Pøyla" />
		<tag k="name" v="Pøylo" />
		<tag k="natural" v="bay" />
		<tag k="ssr:stedsnr" v="429071" />
	</node>
	<node id="-593171" lat="59.655013893" lon="5.4189000023">
		<tag k="name" v="Straumøynappen" />
		<tag k="natural" v="cape" />
		<tag k="ssr:stedsnr" v="428890" />
	</node>
	<node id="-593170" lat="59.6127083359" lon="5.32075278141">
		<tag k="alt_name" v="Hillersvik" />
		<tag k="name" v="Hidlesvika" />
		<tag k="natural" v="bay" />
		<tag k="ssr:stedsnr" v="428876" />
	</node>
	<node id="-593168" lat="59.6061179353" lon="5.31941331867">
		<tag k="alt_name" v="Straumsnes" />
		<tag k="name" v="Straumsneset" />
		<tag k="natural" v="cape" />
		<tag k="ssr:stedsnr" v="428854" />
	</node>
	<node id="-593160" lat="59.5301459913" lon="5.50571643271">
		<tag k="alt_name" v="Buavik" />
		<tag k="name" v="Buavika" />
		<tag k="natural" v="bay" />
		<tag k="ssr:stedsnr" v="428266" />
	</node>
	<node id="-593154" lat="59.5362638848" lon="5.23486666215">
		<tag k="alt_name" v="Glisholmane;Glissholmen" />
		<tag k="name" v="Glitsholmen" />
		<tag k="place" v="islet" />
		<tag k="ssr:stedsnr" v="428169" />
	</node>
	<node id="-593153" lat="59.5404750029" lon="5.23963611576">
		<tag k="alt_name" v="Norevika" />
		<tag k="name" v="Nordavika" />
		<tag k="natural" v="bay" />
		<tag k="ssr:stedsnr" v="428168" />
	</node>
	<node id="-593151" lat="59.5139722248" lon="5.27437500583">
		<tag k="name" v="Volløya" />
		<tag k="place" v="islet" />
		<tag k="ssr:stedsnr" v="428163" />
	</node>
	<node id="-593147" lat="59.6991277752" lon="5.54067499389">
		<tag k="name" v="Holsvikneset" />
		<tag k="natural" v="cape" />
		<tag k="ssr:stedsnr" v="428090" />
	</node>
	<node id="-593141" lat="59.562519443" lon="5.27369166013">
		<tag k="alt_name" v="Djupevik" />
		<tag k="name" v="Djupvika" />
		<tag k="natural" v="bay" />
		<tag k="ssr:stedsnr" v="428203" />
	</node>
	<node id="-593140" lat="59.6909583327" lon="5.4520055621">
		<tag k="alt_name" v="Vatslivik;Vassliavika" />
		<tag k="name" v="Vasslivika" />
		<tag k="natural" v="bay" />
		<tag k="ssr:stedsnr" v="427944" />
	</node>
	<node id="-593138" lat="59.7108027793" lon="5.54057222219">
		<tag k="alt_name" v="Buvika, nordre;Nordra Buvik;Nordre Benkahola" />
		<tag k="name" v="Nordra Buvika" />
		<tag k="natural" v="bay" />
		<tag k="ssr:stedsnr" v="428065" />
	</node>
	<node id="-593137" lat="59.7099499971" lon="5.54247499183">
		<tag k="alt_name" v="Vardnes" />
		<tag k="name" v="Vardanes" />
		<tag k="natural" v="cape" />
		<tag k="ssr:stedsnr" v="428064" />
	</node>
	<node id="-593133" lat="59.5495805514" lon="5.49718054964">
		<tag k="name" v="Ervesvika" />
		<tag k="natural" v="bay" />
		<tag k="ssr:stedsnr" v="397374" />
	</node>
	<node id="-593132" lat="59.608336114" lon="5.44267222703">
		<tag k="alt_name" v="Bale" />
		<tag k="name" v="Balet" />
		<tag k="natural" v="bay" />
		<tag k="ssr:stedsnr" v="391836" />
	</node>
	<node id="-593131" lat="59.6138055533" lon="5.43423055888">
		<tag k="name" v="Sygardsvika" />
		<tag k="natural" v="bay" />
		<tag k="ssr:stedsnr" v="391828" />
	</node>
	<node id="-593130" lat="59.5387972186" lon="5.45403333566">
		<tag k="name" v="Breivika" />
		<tag k="natural" v="bay" />
		<tag k="ssr:stedsnr" v="390990" />
	</node>
	<node id="-593129" lat="59.6398444414" lon="5.37368888606">
		<tag k="name" v="Kvernavika" />
		<tag k="natural" v="bay" />
		<tag k="ssr:stedsnr" v="390851" />
	</node>
	<node id="-593128" lat="59.6405583363" lon="5.37310277974">
		<tag k="name" v="Teiganeset" />
		<tag k="natural" v="cape" />
		<tag k="ssr:stedsnr" v="390850" />
	</node>
	<node id="-593124" lat="59.6491027746" lon="5.44471388866">
		<tag k="name" v="Skjeljarvika" />
		<tag k="natural" v="bay" />
		<tag k="ssr:stedsnr" v="390834" />
	</node>
	<node id="-593123" lat="59.6487277752" lon="5.42950277326">
		<tag k="name" v="Staurøysundet" />
		<tag k="natural" v="strait" />
		<tag k="ssr:stedsnr" v="390833" />
	</node>
	<node id="-593118" lat="59.6169722244" lon="5.45520555273">
		<tag k="name" v="Søre Bjørnøyvåg" />
		<tag k="natural" v="bay" />
		<tag k="ssr:stedsnr" v="390946" />
	</node>
	<node id="-593116" lat="59.5541083358" lon="5.25482777584">
		<tag k="name" v="Likholmen" />
		<tag k="place" v="islet" />
		<tag k="ssr:stedsnr" v="390742" />
	</node>
	<node id="-593115" lat="59.4928944443" lon="5.27273056153">
		<tag k="name" v="Fuglevik" />
		<tag k="natural" v="bay" />
		<tag k="ssr:stedsnr" v="390741" />
	</node>
	<node id="-593114" lat="59.5227973152" lon="5.24564654756">
		<tag k="name" v="Steinbrotet" />
		<tag k="natural" v="bay" />
		<tag k="ssr:stedsnr" v="390734" />
	</node>
	<node id="-593112" lat="59.529391479" lon="5.23586336498">
		<tag k="name" v="Tonglavika" />
		<tag k="natural" v="bay" />
		<tag k="ssr:stedsnr" v="390712" />
	</node>
	<node id="-593094" lat="59.6075694415" lon="5.31851944003">
		<tag k="name" v="Norda Straumsnes" />
		<tag k="natural" v="cape" />
		<tag k="ssr:stedsnr" v="390112" />
	</node>
	<node id="-593093" lat="59.6343194473" lon="5.35008889423">
		<tag k="name" v="Liastein" />
		<tag k="natural" v="shoal" />
		<tag k="place" v="locality" />
		<tag k="ssr:stedsnr" v="390109" />
	</node>
	<node id="-593086" lat="59.6365750014" lon="5.41611111921">
		<tag k="fixme" v="consider seamark:type=rock or natural=shoal" />
		<tag k="name" v="Kråkeskjeret" />
		<tag k="place" v="islet" />
		<tag k="ssr:stedsnr" v="390079" />
	</node>
	<node id="-593082" lat="59.6751111135" lon="5.44394443821">
		<tag k="alt_name" v="Hauglandshavn" />
		<tag k="name" v="Havn" />
		<tag k="natural" v="bay" />
		<tag k="ssr:stedsnr" v="367979" />
	</node>
	<node id="-593081" lat="59.6656652052" lon="5.44586323037">
		<tag k="name" v="Grønevik" />
		<tag k="natural" v="bay" />
		<tag k="ssr:stedsnr" v="367976" />
	</node>
	<node id="-593078" lat="59.6589555559" lon="5.42665000828">
		<tag k="alt_name" v="Øspeholmen" />
		<tag k="name" v="Øspholmen" />
		<tag k="place" v="islet" />
		<tag k="ssr:stedsnr" v="367894" />
	</node>
	<node id="-593076" lat="59.6032758143" lon="5.32243363619">
		<tag k="name" v="Loknapollen" />
		<tag k="natural" v="bay" />
		<tag k="ssr:stedsnr" v="367833" />
	</node>
	<node id="-593062" lat="59.6225638922" lon="5.52710833753">
		<tag k="alt_name" v="Håvardsholmen;Bleika" />
		<tag k="fixme" v="consider seamark:type=rock or natural=shoal" />
		<tag k="name" v="Bleikja" />
		<tag k="place" v="islet" />
		<tag k="ssr:stedsnr" v="367357" />
	</node>
	<node id="-593056" lat="59.5316166664" lon="5.46569999954">
		<tag k="alt_name" v="Gardvik" />
		<tag k="name" v="Gardvika" />
		<tag k="natural" v="bay" />
		<tag k="ssr:stedsnr" v="367143" />
	</node>
	<node id="-593045" lat="59.4883166643" lon="5.28835554803">
		<tag k="bay" v="fjord" />
		<tag k="name" v="Viksefjorden" />
		<tag k="natural" v="bay" />
		<tag k="ssr:stedsnr" v="366699" />
	</node>
	<node id="-593043" lat="59.5405777782" lon="5.21650277939">
		<tag k="alt_name" v="Litla Blokso" />
		<tag k="name" v="Litle Bloksen" />
		<tag k="place" v="locality" />
		<tag k="seamark:type" v="rock" />
		<tag k="ssr:stedsnr" v="330793" />
	</node>
	<node id="-593042" lat="59.5156444465" lon="5.24403056361">
		<tag k="name" v="St. Baien" />
		<tag k="natural" v="bay" />
		<tag k="ssr:stedsnr" v="330791" />
	</node>
	<node id="-593040" lat="59.645333281" lon="5.44424580201">
		<tag k="name" v="Skipavikneset" />
		<tag k="natural" v="cape" />
		<tag k="ssr:stedsnr" v="330895" />
	</node>
	<node id="-593038" lat="59.6091277775" lon="5.45894444378">
		<tag k="name" v="Vollsvikane" />
		<tag k="natural" v="bay" />
		<tag k="ssr:stedsnr" v="330838" />
	</node>
	<node id="-593035" lat="59.4902000042" lon="5.28291944203">
		<tag k="name" v="Tronnholmen" />
		<tag k="place" v="islet" />
		<tag k="ssr:stedsnr" v="330737" />
	</node>
	<node id="-593034" lat="59.7162798493" lon="5.49592685184">
		<tag k="name" v="Kongevikeneset" />
		<tag k="natural" v="cape" />
		<tag k="ssr:stedsnr" v="330721" />
	</node>
	<node id="-593024" lat="59.7079309732" lon="5.47817416674">
		<tag k="name" v="Nordre Einstabøvollvika" />
		<tag k="natural" v="bay" />
		<tag k="ssr:stedsnr" v="330188" />
	</node>
	<node id="-593023" lat="59.5586916704" lon="5.51789723003">
		<tag k="name" v="Laksaskår" />
		<tag k="natural" v="bay" />
		<tag k="ssr:stedsnr" v="330178" />
	</node>
	<node id="-593018" lat="59.5390833288" lon="5.45363888156">
		<tag k="fixme" v="consider seamark:type=rock or natural=shoal" />
		<tag k="name" v="Notaskjeret" />
		<tag k="place" v="islet" />
		<tag k="ssr:stedsnr" v="329997" />
	</node>
	<node id="-593017" lat="59.5450555585" lon="5.45816389016">
		<tag k="name" v="Veadalsvika" />
		<tag k="natural" v="bay" />
		<tag k="ssr:stedsnr" v="329993" />
	</node>
	<node id="-593016" lat="59.5449722203" lon="5.45553055198">
		<tag k="name" v="Vestre Odden" />
		<tag k="natural" v="cape" />
		<tag k="ssr:stedsnr" v="329992" />
	</node>
	<node id="-593005" lat="59.5047138852" lon="5.23158333596">
		<tag k="name" v="Midtsundet" />
		<tag k="natural" v="strait" />
		<tag k="ssr:stedsnr" v="329884" />
	</node>
	<node id="-593004" lat="59.6301416678" lon="5.46700554682">
		<tag k="alt_name" v="Djupvik" />
		<tag k="name" v="Djupevik" />
		<tag k="natural" v="bay" />
		<tag k="ssr:stedsnr" v="329954" />
	</node>
	<node id="-593003" lat="59.6216944422" lon="5.45120554808">
		<tag k="fixme" v="consider seamark:type=rock or natural=shoal" />
		<tag k="name" v="Kubbøybleika" />
		<tag k="place" v="islet" />
		<tag k="ssr:stedsnr" v="329950" />
	</node>
	<node id="-592998" lat="59.7023348882" lon="5.46355200394">
		<tag k="name" v="Nappen" />
		<tag k="natural" v="cape" />
		<tag k="ssr:stedsnr" v="329572" />
	</node>
	<node id="-592995" lat="59.626527781" lon="5.3330055501">
		<tag k="name" v="Brusundet" />
		<tag k="natural" v="strait" />
		<tag k="ssr:stedsnr" v="329557" />
	</node>
	<node id="-592993" lat="59.5537916624" lon="5.20864722871">
		<tag k="name" v="Klemmetshola" />
		<tag k="natural" v="shoal" />
		<tag k="place" v="locality" />
		<tag k="ssr:stedsnr" v="327001" />
	</node>
	<node id="-592984" lat="59.528077295" lon="5.44508150168">
		<tag k="alt_name" v="Vågen, nordre;Nordre Vågen;Litle Kvalvågen" />
		<tag k="name" v="Nordre Kvalvågen" />
		<tag k="natural" v="bay" />
		<tag k="ssr:stedsnr" v="307199" />
	</node>
	<node id="-592982" lat="59.6659249986" lon="5.44230556246">
		<tag k="name" v="Liervågen" />
		<tag k="natural" v="bay" />
		<tag k="ssr:stedsnr" v="306984" />
	</node>
	<node id="-592981" lat="59.6927694479" lon="5.44777776967">
		<tag k="alt_name" v="Risøy" />
		<tag k="name" v="Risøya" />
		<tag k="place" v="islet" />
		<tag k="ssr:stedsnr" v="306953" />
	</node>
	<node id="-592980" lat="59.6892916671" lon="5.44722222701">
		<tag k="alt_name" v="Ørevika;Oldervik" />
		<tag k="name" v="Oldervika" />
		<tag k="natural" v="bay" />
		<tag k="ssr:stedsnr" v="306952" />
	</node>
	<node id="-592978" lat="59.6546472261" lon="5.40353888425">
		<tag k="name" v="Grimsholmen" />
		<tag k="place" v="islet" />
		<tag k="ssr:stedsnr" v="306888" />
	</node>
	<node id="-592977" lat="59.6513222224" lon="5.39315278299">
		<tag k="alt_name" v="Helleøy;Hedløya" />
		<tag k="name" v="Hjelløya" />
		<tag k="place" v="island" />
		<tag k="ssr:stedsnr" v="306887" />
	</node>
	<node id="-592975" lat="59.6156472263" lon="5.45995833813">
		<tag k="alt_name" v="Fureholmen" />
		<tag k="name" v="Foreholmen" />
		<tag k="place" v="islet" />
		<tag k="ssr:stedsnr" v="306853" />
	</node>
	<node id="-592971" lat="59.6240872176" lon="5.32544702756">
		<tag k="fixme" v="consider seamark:type=rock or natural=shoal" />
		<tag k="name" v="Kjellandskjeret" />
		<tag k="place" v="islet" />
		<tag k="ssr:stedsnr" v="306812" />
	</node>
	<node id="-592970" lat="59.6276027819" lon="5.41967221983">
		<tag k="name" v="Kråkesundet" />
		<tag k="natural" v="strait" />
		<tag k="ssr:stedsnr" v="306801" />
	</node>
	<node id="-592964" lat="59.5213083361" lon="5.4911916671">
		<tag k="alt_name" v="Finsberg" />
		<tag k="name" v="Finnsberg" />
		<tag k="natural" v="cape" />
		<tag k="ssr:stedsnr" v="306254" />
	</node>
	<node id="-592960" lat="59.5216750685" lon="5.25088646412">
		<tag k="alt_name" v="Anneholmen" />
		<tag k="name" v="Amneholmen" />
		<tag k="place" v="islet" />
		<tag k="ssr:stedsnr" v="306161" />
	</node>
	<node id="-592959" lat="59.519438885" lon="5.23369999351">
		<tag k="alt_name" v="Eikholmen" />
		<tag k="name" v="Eikeholmen" />
		<tag k="place" v="islet" />
		<tag k="ssr:stedsnr" v="306160" />
	</node>
	<node id="-592954" lat="59.5067527819" lon="5.23858332451">
		<tag k="alt_name" v="Nordasundet" />
		<tag k="name" v="Nordresund" />
		<tag k="natural" v="strait" />
		<tag k="ssr:stedsnr" v="306130" />
	</node>
	<node id="-592953" lat="59.5230611136" lon="5.45219443667">
		<tag k="alt_name" v="Kvalvågnes" />
		<tag k="name" v="Kvalvågneset" />
		<tag k="natural" v="cape" />
		<tag k="ssr:stedsnr" v="306121" />
	</node>
	<node id="-592952" lat="59.6816083369" lon="5.53912500033">
		<tag k="name" v="Storeviknibba" />
		<tag k="natural" v="cape" />
		<tag k="ssr:stedsnr" v="306037" />
	</node>
	<node id="-592949" lat="59.6127972243" lon="5.31723333699">
		<tag k="name" v="Båsen" />
		<tag k="natural" v="bay" />
		<tag k="ssr:stedsnr" v="208935" />
	</node>
	<node id="-592946" lat="59.5343194459" lon="5.46379722027">
		<tag k="name" v="Risvika" />
		<tag k="natural" v="bay" />
		<tag k="ssr:stedsnr" v="208880" />
	</node>
	<node id="-592945" lat="59.6536750041" lon="5.40884166955">
		<tag k="fixme" v="consider seamark:type=rock or natural=shoal" />
		<tag k="name" v="Grimsholmsskjeret" />
		<tag k="place" v="islet" />
		<tag k="ssr:stedsnr" v="208875" />
	</node>
	<node id="-592944" lat="59.6468277806" lon="5.4112611124">
		<tag k="name" v="Gamlejokumen" />
		<tag k="natural" v="cape" />
		<tag k="ssr:stedsnr" v="208868" />
	</node>
	<node id="-592943" lat="59.6423749991" lon="5.41511667029">
		<tag k="fixme" v="consider seamark:type=rock or natural=shoal" />
		<tag k="name" v="Kråkeskjer" />
		<tag k="place" v="islet" />
		<tag k="ssr:stedsnr" v="208864" />
	</node>
	<node id="-592942" lat="59.5392694464" lon="5.50636389722">
		<tag k="name" v="Sansvollvika" />
		<tag k="natural" v="bay" />
		<tag k="ssr:stedsnr" v="208829" />
	</node>
	<node id="-592941" lat="59.5224527794" lon="5.48658055766">
		<tag k="name" v="Varavikstangen" />
		<tag k="natural" v="cape" />
		<tag k="ssr:stedsnr" v="208822" />
	</node>
	<node id="-592939" lat="59.6651833378" lon="5.44390278225">
		<tag k="name" v="Klubbatåa" />
		<tag k="natural" v="cape" />
		<tag k="ssr:stedsnr" v="208770" />
	</node>
	<node id="-592938" lat="59.5390722262" lon="5.23251667317">
		<tag k="name" v="Skarvaholmen" />
		<tag k="place" v="islet" />
		<tag k="ssr:stedsnr" v="208743" />
	</node>
	<node id="-592933" lat="59.7140559851" lon="5.54058774307">
		<tag k="name" v="Litla Benkjahola" />
		<tag k="natural" v="bay" />
		<tag k="ssr:stedsnr" v="208686" />
	</node>
	<node id="-592932" lat="59.7186527821" lon="5.51923332729">
		<tag k="name" v="Gramshaugvågen" />
		<tag k="natural" v="bay" />
		<tag k="ssr:stedsnr" v="208681" />
	</node>
	<node id="-592931" lat="59.7154222738" lon="5.53847064759">
		<tag k="name" v="Stora Benkjahola" />
		<tag k="natural" v="bay" />
		<tag k="ssr:stedsnr" v="208674" />
	</node>
	<node id="-592927" lat="59.7169666622" lon="5.51904166221">
		<tag k="name" v="Grunnavåg" />
		<tag k="natural" v="bay" />
		<tag k="ssr:stedsnr" v="208628" />
	</node>
	<node id="-592912" lat="59.6475472244" lon="5.37941665949">
		<tag k="name" v="Sjubbiholmen" />
		<tag k="place" v="islet" />
		<tag k="ssr:stedsnr" v="208200" />
	</node>
	<node id="-592904" lat="59.6408944481" lon="5.36376666934">
		<tag k="fixme" v="consider seamark:type=rock or natural=shoal" />
		<tag k="name" v="Storøybleika" />
		<tag k="place" v="islet" />
		<tag k="ssr:stedsnr" v="208061" />
	</node>
	<node id="-592902" lat="59.5913805556" lon="5.43765000671">
		<tag k="name" v="Jektavik" />
		<tag k="natural" v="bay" />
		<tag k="ssr:stedsnr" v="208016" />
	</node>
	<node id="-592899" lat="59.5285388882" lon="5.23502222439">
		<tag k="name" v="Ryvardsvik" />
		<tag k="natural" v="bay" />
		<tag k="ssr:stedsnr" v="207321" />
	</node>
	<node id="-592897" lat="59.5575833338" lon="5.25623610902">
		<tag k="name" v="Skarveboen" />
		<tag k="natural" v="shoal" />
		<tag k="place" v="locality" />
		<tag k="ssr:stedsnr" v="206009" />
	</node>
	<node id="-592889" lat="59.6387333371" lon="5.37604166479">
		<tag k="alt_name" v="Lyngnes" />
		<tag k="name" v="Lyngneset" />
		<tag k="natural" v="cape" />
		<tag k="ssr:stedsnr" v="185930" />
	</node>
	<node id="-592888" lat="59.6461777807" lon="5.37154444662">
		<tag k="name" v="Naustholmen" />
		<tag k="place" v="islet" />
		<tag k="ssr:stedsnr" v="185924" />
	</node>
	<node id="-592887" lat="59.6380999963" lon="5.37131666554">
		<tag k="name" v="Austrevågen" />
		<tag k="natural" v="bay" />
		<tag k="ssr:stedsnr" v="185909" />
	</node>
	<node id="-592886" lat="59.6659928814" lon="5.42272176448">
		<tag k="alt_name" v="Nappetå" />
		<tag k="name" v="Nappatåna" />
		<tag k="natural" v="cape" />
		<tag k="ssr:stedsnr" v="185891" />
	</node>
	<node id="-592879" lat="59.6121611096" lon="5.44673888208">
		<tag k="alt_name" v="Drangsøyna;Drangsøya" />
		<tag k="name" v="Drångsøya" />
		<tag k="place" v="island" />
		<tag k="ssr:stedsnr" v="185761" />
	</node>
	<node id="-592875" lat="59.6414999966" lon="5.52122777658">
		<tag k="name" v="Saltvika" />
		<tag k="natural" v="bay" />
		<tag k="ssr:stedsnr" v="185440" />
	</node>
	<node id="-592873" lat="59.5913721062" lon="5.52207192077">
		<tag k="alt_name" v="Søre Røykenesvågen;Søre Røykjenesvågen" />
		<tag k="name" v="Røykjenesvågen" />
		<tag k="natural" v="bay" />
		<tag k="ssr:stedsnr" v="185364" />
	</node>
	<node id="-592863" lat="59.5316861088" lon="5.23751944209">
		<tag k="alt_name" v="Djupevik" />
		<tag k="name" v="Djupevika" />
		<tag k="natural" v="bay" />
		<tag k="ssr:stedsnr" v="185185" />
	</node>
	<node id="-592862" lat="59.5342416701" lon="5.23110833869">
		<tag k="alt_name" v="Skageholmen" />
		<tag k="name" v="Skagaholmen" />
		<tag k="place" v="islet" />
		<tag k="ssr:stedsnr" v="185180" />
	</node>
	<node id="-592857" lat="59.680983333" lon="5.53829999451">
		<tag k="name" v="Storevika" />
		<tag k="natural" v="bay" />
		<tag k="ssr:stedsnr" v="185038" />
	</node>
	<node id="-592856" lat="59.6623500016" lon="5.52817778342">
		<tag k="name" v="Skiftesholmen" />
		<tag k="place" v="islet" />
		<tag k="ssr:stedsnr" v="185008" />
	</node>
	<node id="-592850" lat="59.5279222186" lon="5.45323610676">
		<tag k="name" v="Vågskjeften" />
		<tag k="natural" v="bay" />
		<tag k="ssr:stedsnr" v="147948" />
	</node>
	<node id="-592848" lat="59.5421305592" lon="5.46030276984">
		<tag k="name" v="Bjønsholmen" />
		<tag k="place" v="islet" />
		<tag k="ssr:stedsnr" v="147984" />
	</node>
	<node id="-592846" lat="59.6519583348" lon="5.40137500683">
		<tag k="name" v="Seiavågen" />
		<tag k="natural" v="bay" />
		<tag k="ssr:stedsnr" v="147845" />
	</node>
	<node id="-592845" lat="59.6997499994" lon="5.46927777658">
		<tag k="name" v="Vågaskåra" />
		<tag k="natural" v="strait" />
		<tag k="ssr:stedsnr" v="147632" />
	</node>
	<node id="-592835" lat="59.5810166668" lon="5.29018055208">
		<tag k="name" v="Kvernavik" />
		<tag k="natural" v="bay" />
		<tag k="ssr:stedsnr" v="147498" />
	</node>
	<node id="-592828" lat="59.5143916692" lon="5.44884999408">
		<tag k="name" v="Rasmusholmen" />
		<tag k="place" v="islet" />
		<tag k="ssr:stedsnr" v="147090" />
	</node>
	<node id="-592827" lat="59.6327083351" lon="5.46256666437">
		<tag k="name" v="Vikjo" />
		<tag k="natural" v="bay" />
		<tag k="ssr:stedsnr" v="147061" />
	</node>
	<node id="-592825" lat="59.6173947684" lon="5.5196010323">
		<tag k="alt_name" v="Lundavik;Londavika" />
		<tag k="name" v="Lundavika" />
		<tag k="natural" v="bay" />
		<tag k="ssr:stedsnr" v="147146" />
	</node>
	<node id="-592817" lat="59.5015861122" lon="5.45170000586">
		<tag k="alt_name" v="Pøyla" />
		<tag k="name" v="Pøylo" />
		<tag k="natural" v="bay" />
		<tag k="ssr:stedsnr" v="125095" />
	</node>
	<node id="-592816" lat="59.5151000012" lon="5.23101944568">
		<tag k="alt_name" v="Langeneset;Longanes" />
		<tag k="name" v="Langaneset" />
		<tag k="natural" v="cape" />
		<tag k="ssr:stedsnr" v="125088" />
	</node>
	<node id="-592814" lat="59.6122" lon="5.46315832813">
		<tag k="name" v="Kråkeneset" />
		<tag k="natural" v="cape" />
		<tag k="ssr:stedsnr" v="125079" />
	</node>
	<node id="-592813" lat="59.6987138881" lon="5.45762222244">
		<tag k="name" v="Martinneset" />
		<tag k="natural" v="cape" />
		<tag k="ssr:stedsnr" v="124963" />
	</node>
	<node id="-592808" lat="59.6498638871" lon="5.39014723115">
		<tag k="alt_name" v="Hellevågen;Hedløyvågen" />
		<tag k="name" v="Hjelløyvågen" />
		<tag k="natural" v="bay" />
		<tag k="ssr:stedsnr" v="124869" />
	</node>
	<node id="-592804" lat="59.6260472251" lon="5.41244167441">
		<tag k="name" v="Klubben" />
		<tag k="natural" v="cape" />
		<tag k="ssr:stedsnr" v="124796" />
	</node>
	<node id="-592801" lat="59.6270666658" lon="5.44885278273">
		<tag k="alt_name" v="Kalløya, austra;Austra Kalløy;Austre Kadløy" />
		<tag k="name" v="Austra Kalløya" />
		<tag k="place" v="island" />
		<tag k="ssr:stedsnr" v="124787" />
	</node>
	<node id="-592799" lat="59.6064583367" lon="5.43536944983">
		<tag k="alt_name" v="Storstraumen" />
		<tag k="name" v="Storestraumen" />
		<tag k="natural" v="strait" />
		<tag k="ssr:stedsnr" v="124733" />
	</node>
	<node id="-592798" lat="59.5978111157" lon="5.30950833924">
		<tag k="alt_name" v="Grunnevågen" />
		<tag k="name" v="Grunnavågen" />
		<tag k="natural" v="bay" />
		<tag k="ssr:stedsnr" v="124728" />
	</node>
	<node id="-592797" lat="59.6202611086" lon="5.47297499204">
		<tag k="alt_name" v="Lauvnes" />
		<tag k="name" v="Lauvneset" />
		<tag k="natural" v="cape" />
		<tag k="ssr:stedsnr" v="124387" />
	</node>
	<node id="-592793" lat="59.5537083322" lon="5.24878332685">
		<tag k="alt_name" v="Storeholmen" />
		<tag k="name" v="Storholmen" />
		<tag k="place" v="islet" />
		<tag k="ssr:stedsnr" v="124193" />
	</node>
	<node id="-592788" lat="59.5434444411" lon="5.24100277701">
		<tag k="name" v="Såtelandet" />
		<tag k="natural" v="beach" />
		<tag k="place" v="locality" />
		<tag k="ssr:stedsnr" v="124168" />
	</node>
	<node id="-592786" lat="59.5325111155" lon="5.44428611402">
		<tag k="alt_name" v="Kvalvågpøylo" />
		<tag k="name" v="Kvalvågpøyla" />
		<tag k="natural" v="bay" />
		<tag k="ssr:stedsnr" v="124156" />
	</node>
	<node id="-592782" lat="59.717566667" lon="5.4981638928">
		<tag k="alt_name" v="Gunnarsneset" />
		<tag k="name" v="Nesjaneset" />
		<tag k="natural" v="cape" />
		<tag k="ssr:stedsnr" v="124110" />
	</node>
	<node id="-592781" lat="59.7107784481" lon="5.48139871271">
		<tag k="alt_name" v="Kjeksa" />
		<tag k="name" v="Kjekse" />
		<tag k="natural" v="bay" />
		<tag k="ssr:stedsnr" v="124078" />
	</node>
	<node id="-592778" lat="59.6956305512" lon="5.53991388479">
		<tag k="alt_name" v="Loddetå;Loddetåa" />
		<tag k="name" v="Loddetåna" />
		<tag k="natural" v="cape" />
		<tag k="ssr:stedsnr" v="124051" />
	</node>
	<node id="-592777" lat="59.5401444481" lon="5.45128889506">
		<tag k="alt_name" v="Litle Vågen" />
		<tag k="name" v="Litlevågen" />
		<tag k="natural" v="bay" />
		<tag k="ssr:stedsnr" v="124146" />
	</node>
	<node id="-592768" lat="59.6118999985" lon="5.46439167467">
		<tag k="name" v="Vågen" />
		<tag k="natural" v="bay" />
		<tag k="ssr:stedsnr" v="88772" />
	</node>
	<node id="-592763" lat="59.6234444475" lon="5.47298610428">
		<tag k="name" v="Junkertåa" />
		<tag k="place" v="islet" />
		<tag k="ssr:stedsnr" v="87935" />
	</node>
	<node id="-592757" lat="59.6468681367" lon="5.44854459925">
		<tag k="name" v="Naustvika" />
		<tag k="natural" v="bay" />
		<tag k="ssr:stedsnr" v="87857" />
	</node>
	<node id="-592752" lat="59.5278549058" lon="5.22669414038">
		<tag k="name" v="Huldrahola" />
		<tag k="natural" v="bay" />
		<tag k="ssr:stedsnr" v="87756" />
	</node>
	<node id="-592751" lat="59.5973111078" lon="5.30510833582">
		<tag k="name" v="Grunnavågsneset" />
		<tag k="natural" v="cape" />
		<tag k="ssr:stedsnr" v="87593" />
	</node>
	<node id="-592750" lat="59.5181861153" lon="5.26634999775">
		<tag k="name" v="Håskjersundet" />
		<tag k="natural" v="strait" />
		<tag k="ssr:stedsnr" v="87539" />
	</node>
	<node id="-592748" lat="59.5822138864" lon="5.28997222722">
		<tag k="name" v="Tresneset" />
		<tag k="natural" v="cape" />
		<tag k="ssr:stedsnr" v="87511" />
	</node>
	<node id="-592746" lat="59.7214499972" lon="5.50674999256">
		<tag k="name" v="Arenes" />
		<tag k="natural" v="cape" />
		<tag k="ssr:stedsnr" v="87690" />
	</node>
	<node id="-592745" lat="59.7190722184" lon="5.52214999944">
		<tag k="name" v="Bleika" />
		<tag k="place" v="island" />
		<tag k="ssr:stedsnr" v="87683" />
	</node>
	<node id="-592743" lat="59.6958661108" lon="5.46986117735">
		<tag k="name" v="Tveitavika" />
		<tag k="natural" v="bay" />
		<tag k="ssr:stedsnr" v="87667" />
	</node>
	<node id="-592738" lat="59.6574916697" lon="5.52603610259">
		<tag k="name" v="Raunevågen" />
		<tag k="natural" v="bay" />
		<tag k="ssr:stedsnr" v="87206" />
	</node>
	<node id="-592736" lat="59.5379972222" lon="5.45151944546">
		<tag k="name" v="Brokasundet" />
		<tag k="natural" v="strait" />
		<tag k="ssr:stedsnr" v="87091" />
	</node>
	<node id="-592732" lat="59.7044114732" lon="5.47518941837">
		<tag k="name" v="Søre Einstabøvollvika" />
		<tag k="natural" v="bay" />
		<tag k="ssr:stedsnr" v="87138" />
	</node>
	<node id="-592722" lat="59.6687861078" lon="5.44639166508">
		<tag k="alt_name" v="Torgarsnes" />
		<tag k="name" v="Torgarneset" />
		<tag k="natural" v="cape" />
		<tag k="ssr:stedsnr" v="64985" />
	</node>
	<node id="-592721" lat="59.6436361132" lon="5.36967221689">
		<tag k="name" v="Notaholmen" />
		<tag k="place" v="islet" />
		<tag k="ssr:stedsnr" v="64952" />
	</node>
	<node id="-592719" lat="59.5676861106" lon="5.27548334055">
		<tag k="alt_name" v="Flatøy" />
		<tag k="name" v="Flatøya" />
		<tag k="place" v="islet" />
		<tag k="ssr:stedsnr" v="64793" />
	</node>
	<node id="-592715" lat="59.5762888929" lon="5.53034166739">
		<tag k="name" v="Framnesvika" />
		<tag k="natural" v="bay" />
		<tag k="ssr:stedsnr" v="64362" />
	</node>
	<node id="-592714" lat="59.6429805516" lon="5.51686666118">
		<tag k="alt_name" v="Staupsvågen" />
		<tag k="name" v="Staupevika" />
		<tag k="natural" v="bay" />
		<tag k="ssr:stedsnr" v="64474" />
	</node>
	<node id="-592711" lat="59.5229999976" lon="5.50100833123">
		<tag k="alt_name" v="Djupevik" />
		<tag k="name" v="Djupvik" />
		<tag k="natural" v="bay" />
		<tag k="ssr:stedsnr" v="64275" />
	</node>
	<node id="-592710" lat="59.7198500017" lon="5.51970555693">
		<tag k="alt_name" v="Eidsvågvika" />
		<tag k="name" v="Eidsvågen" />
		<tag k="natural" v="bay" />
		<tag k="ssr:stedsnr" v="64099" />
	</node>
	<node id="-592706" lat="59.514430268" lon="5.24459555658">
		<tag k="alt_name" v="Drotninghavn" />
		<tag k="name" v="Dronninghavn" />
		<tag k="natural" v="bay" />
		<tag k="ssr:stedsnr" v="64174" />
	</node>
	<node id="-592693" lat="59.5475916682" lon="5.51313333735">
		<tag k="name" v="Oaneset" />
		<tag k="natural" v="cape" />
		<tag k="ssr:stedsnr" v="63341" />
	</node>
	<node id="-592682" lat="59.664208334" lon="5.43666111447">
		<tag k="name" v="Faraldsvik" />
		<tag k="natural" v="bay" />
		<tag k="ssr:stedsnr" v="27470" />
	</node>
	<node id="-592681" lat="59.626083333" lon="5.46024444902">
		<tag k="name" v="Austrepollen" />
		<tag k="natural" v="bay" />
		<tag k="ssr:stedsnr" v="27454" />
	</node>
	<node id="-592680" lat="59.6295083291" lon="5.34060278061">
		<tag k="name" v="Tjernagelneset" />
		<tag k="natural" v="cape" />
		<tag k="ssr:stedsnr" v="27087" />
	</node>
	<node id="-592679" lat="59.6111083363" lon="5.31468611611">
		<tag k="name" v="Vestra Risøyflua" />
		<tag k="natural" v="shoal" />
		<tag k="place" v="locality" />
		<tag k="ssr:stedsnr" v="27084" />
	</node>
	<node id="-592676" lat="59.6230750027" lon="5.41511945176">
		<tag k="name" v="Glasmarkarvika" />
		<tag k="natural" v="bay" />
		<tag k="ssr:stedsnr" v="26961" />
	</node>
	<node id="-592670" lat="59.5355861098" lon="5.45841945247">
		<tag k="name" v="Saltvika" />
		<tag k="natural" v="bay" />
		<tag k="ssr:stedsnr" v="26844" />
	</node>
	<node id="-592668" lat="59.6510833299" lon="5.398952774">
		<tag k="name" v="Geitaholmen" />
		<tag k="place" v="islet" />
		<tag k="ssr:stedsnr" v="26827" />
	</node>
	<node id="-592666" lat="59.5846416692" lon="5.52731388229">
		<tag k="name" v="Veikavika" />
		<tag k="natural" v="bay" />
		<tag k="ssr:stedsnr" v="26785" />
	</node>
	<node id="-592665" lat="59.6207861136" lon="5.47248889054">
		<tag k="name" v="Lauvnesvika" />
		<tag k="natural" v="bay" />
		<tag k="ssr:stedsnr" v="26770" />
	</node>
	<node id="-592662" lat="59.4942861096" lon="5.29984999721">
		<tag k="name" v="Ropusholmen" />
		<tag k="place" v="islet" />
		<tag k="ssr:stedsnr" v="26671" />
	</node>
	<node id="-592656" lat="59.5358472224" lon="5.46027222563">
		<tag k="name" v="Skjepavikstangen" />
		<tag k="natural" v="cape" />
		<tag k="ssr:stedsnr" v="26244" />
	</node>
	<node id="-592653" lat="59.7032733789" lon="5.45983313245">
		<tag k="name" v="Skåtaskjersvika" />
		<tag k="natural" v="bay" />
		<tag k="ssr:stedsnr" v="26178" />
	</node>
	<node id="-592652" lat="59.7247750037" lon="5.50776665777">
		<tag k="alt_name" v="Grunnanes" />
		<tag k="name" v="Grunnaneset" />
		<tag k="natural" v="cape" />
		<tag k="ssr:stedsnr" v="26170" />
	</node>
	<node id="-592650" lat="59.7256166662" lon="5.51124167251">
		<tag k="name" v="Søra Fjøskjervika" />
		<tag k="natural" v="bay" />
		<tag k="ssr:stedsnr" v="26168" />
	</node>
	<node id="-592649" lat="59.7259555552" lon="5.53037222972">
		<tag k="name" v="Skåraklubben" />
		<tag k="natural" v="cape" />
		<tag k="ssr:stedsnr" v="26167" />
	</node>
	<node id="-592648" lat="59.5136638889" lon="5.44640833873">
		<tag k="name" v="Kasteholmen" />
		<tag k="place" v="islet" />
		<tag k="ssr:stedsnr" v="26100" />
	</node>
	<node id="-592647" lat="59.5122277754" lon="5.45039165918">
		<tag k="name" v="Litleholmen" />
		<tag k="place" v="islet" />
		<tag k="ssr:stedsnr" v="26098" />
	</node>
	<node id="-592638" lat="59.6342138904" lon="5.37090277939">
		<tag k="name" v="Vestrevågen" />
		<tag k="natural" v="bay" />
		<tag k="ssr:stedsnr" v="3919" />
	</node>
	<node id="-592637" lat="59.6480425291" lon="5.42629097206">
		<tag k="name" v="Staurøya" />
		<tag k="place" v="islet" />
		<tag k="ssr:stedsnr" v="3911" />
	</node>
	<node id="-592634" lat="59.6235750027" lon="5.44636666969">
		<tag k="alt_name" v="Kalløya, vestra;Vestra Kalløy;Vestre Kadløy" />
		<tag k="name" v="Vestra Kalløya" />
		<tag k="place" v="islet" />
		<tag k="ssr:stedsnr" v="3817" />
	</node>
	<node id="-592627" lat="59.545788893" lon="5.50892778531">
		<tag k="alt_name" v="Ervesundet" />
		<tag k="name" v="Ervessundet" />
		<tag k="natural" v="strait" />
		<tag k="ssr:stedsnr" v="3291" />
	</node>
	<node id="-592625" lat="59.5268277757" lon="5.50768888983">
		<tag k="alt_name" v="Buvikneset" />
		<tag k="name" v="Buavikneset" />
		<tag k="natural" v="cape" />
		<tag k="ssr:stedsnr" v="3262" />
	</node>
	<node id="-592618" lat="59.5296916657" lon="5.23606111388">
		<tag k="name" v="Grautavika" />
		<tag k="natural" v="bay" />
		<tag k="ssr:stedsnr" v="3177" />
	</node>
	<node id="-592612" lat="59.5349750045" lon="5.45526389448">
		<tag k="alt_name" v="Våganes" />
		<tag k="name" v="Våganeset" />
		<tag k="natural" v="cape" />
		<tag k="ssr:stedsnr" v="3148" />
	</node>
	<node id="-592608" lat="59.5145500038" lon="5.44711667114">
		<tag k="name" v="Rasmustangen" />
		<tag k="natural" v="cape" />
		<tag k="ssr:stedsnr" v="3133" />
	</node>
	<node id="-592605" lat="59.6703749998" lon="5.53404999668">
		<tag k="alt_name" v="Brødstampen" />
		<tag k="name" v="Grødstampen" />
		<tag k="natural" v="cape" />
		<tag k="ssr:stedsnr" v="3048" />
	</node>
	<node id="-592583" lat="59.6325361133" lon="5.34833054779">
		<tag k="name" v="Skråmeflua" />
		<tag k="natural" v="shoal" />
		<tag k="place" v="locality" />
		<tag k="ssr:stedsnr" v="937119" />
	</node>
	<node id="-592579" lat="59.6354194415" lon="5.45180833319">
		<tag k="name" v="Husholmen" />
		<tag k="place" v="islet" />
		<tag k="ssr:stedsnr" v="936930" />
	</node>
	<node id="-592577" lat="59.7269833335" lon="5.51394443952">
		<tag k="name" v="Norda Fjøskjervika" />
		<tag k="natural" v="bay" />
		<tag k="ssr:stedsnr" v="936124" />
	</node>
	<node id="-592571" lat="59.5399611109" lon="5.21926665922">
		<tag k="name" v="Bloksflua" />
		<tag k="natural" v="shoal" />
		<tag k="place" v="locality" />
		<tag k="ssr:stedsnr" v="935006" />
	</node>
	<node id="-592569" lat="59.5216111117" lon="5.26585000835">
		<tag k="name" v="Brattestø" />
		<tag k="natural" v="bay" />
		<tag k="ssr:stedsnr" v="876531" />
	</node>
	<node id="-592564" lat="59.7201611115" lon="5.52570556319">
		<tag k="name" v="Klubben" />
		<tag k="natural" v="cape" />
		<tag k="ssr:stedsnr" v="854064" />
	</node>
	<node id="-592560" lat="59.5860166709" lon="5.52260555525">
		<tag k="name" v="Selsåsvika" />
		<tag k="natural" v="bay" />
		<tag k="ssr:stedsnr" v="853365" />
	</node>
	<node id="-592555" lat="59.7005913147" lon="5.46732023319">
		<tag k="name" v="Valevåg" />
		<tag k="natural" v="bay" />
		<tag k="ssr:stedsnr" v="853070" />
	</node>
	<node id="-592551" lat="59.6389166634" lon="5.43375277226">
		<tag k="alt_name" v="Bukkholmane" />
		<tag k="name" v="Bukkholmen" />
		<tag k="place" v="islet" />
		<tag k="ssr:stedsnr" v="852814" />
	</node>
	<node id="-592548" lat="59.6373972235" lon="5.37461945036">
		<tag k="name" v="Revabåsen" />
		<tag k="natural" v="bay" />
		<tag k="ssr:stedsnr" v="937893" />
	</node>
	<node id="-592544" lat="59.5207033587" lon="5.24413026215">
		<tag k="name" v="Nordre Brattholmen" />
		<tag k="place" v="islet" />
		<tag k="ssr:stedsnr" v="937784" />
	</node>
	<node id="-592541" lat="59.5801388873" lon="5.52814722051">
		<tag k="name" v="Bekkjarvika" />
		<tag k="natural" v="bay" />
		<tag k="ssr:stedsnr" v="937855" />
	</node>
	<node id="-592534" lat="59.6524499993" lon="5.42732777267">
		<tag k="name" v="Eidsvågen" />
		<tag k="natural" v="bay" />
		<tag k="ssr:stedsnr" v="937469" />
	</node>
	<node id="-592533" lat="59.6220749959" lon="5.45960278171">
		<tag k="name" v="Pollefluene" />
		<tag k="natural" v="shoal" />
		<tag k="place" v="locality" />
		<tag k="ssr:stedsnr" v="937456" />
	</node>
	<node id="-592532" lat="59.70538678" lon="5.47155125527">
		<tag k="name" v="Lambanappsvika" />
		<tag k="natural" v="bay" />
		<tag k="ssr:stedsnr" v="937181" />
	</node>
	<node id="-592529" lat="59.6109138855" lon="5.4594805606">
		<tag k="name" v="Jonseteholmen" />
		<tag k="place" v="islet" />
		<tag k="ssr:stedsnr" v="937268" />
	</node>
	<node id="-592522" lat="59.6249055546" lon="5.41796389247">
		<tag k="name" v="Sandvika" />
		<tag k="natural" v="bay" />
		<tag k="ssr:stedsnr" v="936957" />
	</node>
	<node id="-592521" lat="59.6236583293" lon="5.4181111167">
		<tag k="name" v="Djupedalen" />
		<tag k="natural" v="bay" />
		<tag k="ssr:stedsnr" v="936955" />
	</node>
	<node id="-592515" lat="59.5337416627" lon="5.45946110752">
		<tag k="name" v="Søre Saltvika" />
		<tag k="natural" v="bay" />
		<tag k="ssr:stedsnr" v="936862" />
	</node>
	<node id="-592508" lat="59.5589916625" lon="5.27381666218">
		<tag k="name" v="Salhusvik" />
		<tag k="natural" v="bay" />
		<tag k="ssr:stedsnr" v="936586" />
	</node>
	<node id="-592502" lat="59.631794444" lon="5.4328777742">
		<tag k="name" v="Øyasundet" />
		<tag k="natural" v="strait" />
		<tag k="ssr:stedsnr" v="935844" />
	</node>
	<node id="-592500" lat="59.6018305542" lon="5.52326389341">
		<tag k="name" v="Stokkavik" />
		<tag k="natural" v="bay" />
		<tag k="ssr:stedsnr" v="935369" />
	</node>
	<node id="-592499" lat="59.517205555" lon="5.23128054855">
		<tag k="name" v="Skaboen" />
		<tag k="natural" v="shoal" />
		<tag k="place" v="locality" />
		<tag k="ssr:stedsnr" v="935300" />
	</node>
	<node id="-592497" lat="59.6347777824" lon="5.44500000624">
		<tag k="name" v="Lindøyvik" />
		<tag k="natural" v="bay" />
		<tag k="ssr:stedsnr" v="815955" />
	</node>
	<node id="-592495" lat="59.6457785507" lon="5.44733934591">
		<tag k="name" v="Skipavika" />
		<tag k="natural" v="bay" />
		<tag k="ssr:stedsnr" v="815866" />
	</node>
	<node id="-592494" lat="59.649069652" lon="5.45011416313">
		<tag k="name" v="Notaneset" />
		<tag k="natural" v="cape" />
		<tag k="ssr:stedsnr" v="815865" />
	</node>
	<node id="-592493" lat="59.7210722216" lon="5.5219694367">
		<tag k="name" v="Svinavika" />
		<tag k="natural" v="bay" />
		<tag k="ssr:stedsnr" v="815662" />
	</node>
	<node id="-592490" lat="59.7172722222" lon="5.46740277937">
		<tag k="name" v="Kjekseskallen" />
		<tag k="natural" v="shoal" />
		<tag k="place" v="locality" />
		<tag k="ssr:stedsnr" v="815554" />
	</node>
	<node id="-592489" lat="59.6739527774" lon="5.44412500546">
		<tag k="fixme" v="consider seamark:type=rock or natural=shoal" />
		<tag k="name" v="Bleika" />
		<tag k="place" v="islet" />
		<tag k="ssr:stedsnr" v="815759" />
	</node>
	<node id="-592488" lat="59.6789388895" lon="5.43345833361">
		<tag k="alt_name" v="Røysane" />
		<tag k="name" v="Røysanes" />
		<tag k="natural" v="cape" />
		<tag k="ssr:stedsnr" v="815754" />
	</node>
	<node id="-592480" lat="59.5862476978" lon="5.43594307678">
		<tag k="name" v="Tongane" />
		<tag k="natural" v="cape" />
		<tag k="ssr:stedsnr" v="815018" />
	</node>
	<node id="-592479" lat="59.6946166688" lon="5.45396389193">
		<tag k="alt_name" v="Leirvåg" />
		<tag k="name" v="Leirvågen" />
		<tag k="natural" v="bay" />
		<tag k="ssr:stedsnr" v="792971" />
	</node>
	<node id="-592478" lat="59.6990277802" lon="5.45986388732">
		<tag k="name" v="Martinshamn" />
		<tag k="natural" v="bay" />
		<tag k="ssr:stedsnr" v="792966" />
	</node>
	<node id="-592474" lat="59.5824861081" lon="5.528491672">
		<tag k="name" v="Breidvika" />
		<tag k="natural" v="bay" />
		<tag k="ssr:stedsnr" v="792354" />
	</node>
	<node id="-592473" lat="59.5291972185" lon="5.45364166086">
		<tag k="name" v="Melketangen" />
		<tag k="natural" v="cape" />
		<tag k="ssr:stedsnr" v="792176" />
	</node>
	<node id="-592472" lat="59.5367027742" lon="5.44970277651">
		<tag k="alt_name" v="Pøyla" />
		<tag k="name" v="Pøylo" />
		<tag k="natural" v="bay" />
		<tag k="ssr:stedsnr" v="792158" />
	</node>
	<node id="-592471" lat="59.7325861088" lon="5.52826110349">
		<tag k="alt_name" v="Haugavik" />
		<tag k="name" v="Haugavika" />
		<tag k="natural" v="bay" />
		<tag k="ssr:stedsnr" v="792153" />
	</node>
	<node id="-592470" lat="59.726266664" lon="5.51266666257">
		<tag k="fixme" v="consider seamark:type=rock or natural=shoal" />
		<tag k="name" v="Fløskjera" />
		<tag k="place" v="islet" />
		<tag k="ssr:stedsnr" v="792105" />
	</node>
	<node id="-592469" lat="59.7233250032" lon="5.51018055993">
		<tag k="alt_name" v="Hestavik" />
		<tag k="name" v="Hestavika" />
		<tag k="natural" v="bay" />
		<tag k="ssr:stedsnr" v="792104" />
	</node>
	<node id="-592455" lat="59.7099305579" lon="5.50428333215">
		<tag k="name" v="Tittelsnes" />
		<tag k="natural" v="cape" />
		<tag k="ssr:stedsnr" v="914106" />
	</node>
	<node id="-592452" lat="59.6848499973" lon="5.44081389117">
		<tag k="alt_name" v="Breidvik;Breivik" />
		<tag k="name" v="Breidvika" />
		<tag k="natural" v="bay" />
		<tag k="ssr:stedsnr" v="914074" />
	</node>
	<node id="-592450" lat="59.6813805526" lon="5.43517221446">
		<tag k="name" v="Kvernaneset" />
		<tag k="natural" v="cape" />
		<tag k="ssr:stedsnr" v="913998" />
	</node>
	<node id="-592449" lat="59.6009555578" lon="5.30820555806">
		<tag k="alt_name" v="Kvitanes" />
		<tag k="name" v="Kvitaneset" />
		<tag k="natural" v="cape" />
		<tag k="ssr:stedsnr" v="913842" />
	</node>
	<node id="-592446" lat="59.624283329" lon="5.47421944648">
		<tag k="alt_name" v="Austvik" />
		<tag k="name" v="Austvika" />
		<tag k="natural" v="bay" />
		<tag k="ssr:stedsnr" v="913426" />
	</node>
	<node id="-592437" lat="59.5596194447" lon="5.26498611731">
		<tag k="alt_name" v="Instøya" />
		<tag k="name" v="Einstapøy" />
		<tag k="place" v="island" />
		<tag k="ssr:stedsnr" v="913207" />
	</node>
	<node id="-592434" lat="59.5403972214" lon="5.45826943639">
		<tag k="alt_name" v="Fureholmen" />
		<tag k="name" v="Foreholmen" />
		<tag k="place" v="islet" />
		<tag k="ssr:stedsnr" v="913159" />
	</node>
	<node id="-592432" lat="59.5087465607" lon="5.24321035824">
		<tag k="alt_name" v="Kroken" />
		<tag k="name" v="Krokane" />
		<tag k="natural" v="cape" />
		<tag k="ssr:stedsnr" v="913136" />
	</node>
	<node id="-592431" lat="59.7206525524" lon="5.50751274103">
		<tag k="alt_name" v="Garvika" />
		<tag k="name" v="Gardvika" />
		<tag k="natural" v="bay" />
		<tag k="ssr:stedsnr" v="913124" />
	</node>
	<node id="-592427" lat="59.5617250025" lon="5.52286389157">
		<tag k="name" v="Saltvika" />
		<tag k="natural" v="bay" />
		<tag k="ssr:stedsnr" v="732109" />
	</node>
	<node id="-592425" lat="59.5110361154" lon="5.45312778508">
		<tag k="name" v="Lianeset" />
		<tag k="natural" v="cape" />
		<tag k="ssr:stedsnr" v="731125" />
	</node>
	<node id="-592423" lat="59.5114972205" lon="5.4479527716">
		<tag k="name" v="Fjonavika" />
		<tag k="natural" v="bay" />
		<tag k="ssr:stedsnr" v="731116" />
	</node>
	<node id="-592421" lat="59.7165288623" lon="5.4982663223">
		<tag k="alt_name" v="Kvernavik" />
		<tag k="name" v="Kvernavika" />
		<tag k="natural" v="bay" />
		<tag k="ssr:stedsnr" v="731105" />
	</node>
	<node id="-592420" lat="59.5200072604" lon="5.2441057938">
		<tag k="alt_name" v="Brattholmen" />
		<tag k="name" v="Brattholmane" />
		<tag k="place" v="islet" />
		<tag k="ssr:stedsnr" v="890324" />
	</node>
	<node id="-592416" lat="59.6389500046" lon="5.41315555774">
		<tag k="name" v="Søra Vika" />
		<tag k="natural" v="bay" />
		<tag k="ssr:stedsnr" v="694854" />
	</node>
	<node id="-592415" lat="59.525743183" lon="5.50530998063">
		<tag k="name" v="Askildsvik" />
		<tag k="natural" v="bay" />
		<tag k="ssr:stedsnr" v="694822" />
	</node>
	<node id="-592412" lat="59.6370611102" lon="5.36280277441">
		<tag k="alt_name" v="Storableika" />
		<tag k="fixme" v="consider seamark:type=rock or natural=shoal" />
		<tag k="name" v="Storableikja" />
		<tag k="place" v="islet" />
		<tag k="ssr:stedsnr" v="694905" />
	</node>
	<node id="-592411" lat="59.5943638851" lon="5.43225833798">
		<tag k="name" v="Sætravika" />
		<tag k="natural" v="bay" />
		<tag k="ssr:stedsnr" v="694779" />
	</node>
	<node id="-592408" lat="59.4817776281" lon="5.30208389135">
		<tag k="name" v="Vågen" />
		<tag k="natural" v="bay" />
		<tag k="ssr:stedsnr" v="694708" />
	</node>
	<node id="-592403" lat="59.5925555516" lon="5.29854999652">
		<tag k="name" v="Geitavika" />
		<tag k="natural" v="bay" />
		<tag k="ssr:stedsnr" v="694517" />
	</node>
	<node id="-592393" lat="59.7140123516" lon="5.49182772527">
		<tag k="name" v="Kongsneset" />
		<tag k="natural" v="cape" />
		<tag k="ssr:stedsnr" v="693603" />
	</node>
	<node id="-592391" lat="59.636441671" lon="5.41780556078">
		<tag k="fixme" v="consider seamark:type=rock or natural=shoal" />
		<tag k="name" v="Eikelandsskjeret" />
		<tag k="place" v="islet" />
		<tag k="ssr:stedsnr" v="876963" />
	</node>
	<node id="-592389" lat="59.6014441486" lon="5.32733912143">
		<tag k="name" v="Bosvika" />
		<tag k="natural" v="bay" />
		<tag k="ssr:stedsnr" v="876931" />
	</node>
	<node id="-592388" lat="59.6125833327" lon="5.31701667067">
		<tag k="name" v="Båsholmen" />
		<tag k="place" v="islet" />
		<tag k="ssr:stedsnr" v="876903" />
	</node>
	<node id="-592387" lat="59.5979194477" lon="5.31632499715">
		<tag k="name" v="Vestre Naustholmen" />
		<tag k="place" v="islet" />
		<tag k="ssr:stedsnr" v="876901" />
	</node>
	<node id="-592384" lat="59.6527477354" lon="5.41863696064">
		<tag k="alt_name" v="Kjøpmanstangen" />
		<tag k="name" v="Kjøpmannstangen" />
		<tag k="natural" v="cape" />
		<tag k="ssr:stedsnr" v="876866" />
	</node>
	<node id="-592383" lat="59.6487545163" lon="5.45148598395">
		<tag k="name" v="Lindåshamn" />
		<tag k="natural" v="bay" />
		<tag k="ssr:stedsnr" v="876859" />
	</node>
	<node id="-592381" lat="59.5836611142" lon="5.5289277769">
		<tag k="name" v="Selsåsneset" />
		<tag k="natural" v="cape" />
		<tag k="ssr:stedsnr" v="876829" />
	</node>
	<node id="-592373" lat="59.6929361089" lon="5.47300833398">
		<tag k="name" v="Øyro" />
		<tag k="natural" v="bay" />
		<tag k="ssr:stedsnr" v="876680" />
	</node>
	<node id="-592370" lat="59.6285194461" lon="5.33695832584">
		<tag k="name" v="Vardaneset" />
		<tag k="natural" v="cape" />
		<tag k="ssr:stedsnr" v="876590" />
	</node>
	<node id="-592369" lat="59.6262777771" lon="5.33107777702">
		<tag k="name" v="Havnasundet" />
		<tag k="natural" v="strait" />
		<tag k="ssr:stedsnr" v="876585" />
	</node>
	<node id="-592368" lat="59.6640388902" lon="5.43044443868">
		<tag k="name" v="Butangen" />
		<tag k="natural" v="cape" />
		<tag k="ssr:stedsnr" v="876446" />
	</node>
	<node id="-592367" lat="59.6110444464" lon="5.4327749966">
		<tag k="name" v="Fagerlandsflæet" />
		<tag k="natural" v="beach" />
		<tag k="place" v="locality" />
		<tag k="ssr:stedsnr" v="876423" />
	</node>
	<node id="-592366" lat="59.5207555561" lon="5.49370277067">
		<tag k="name" v="Killingholmen" />
		<tag k="place" v="islet" />
		<tag k="ssr:stedsnr" v="876235" />
	</node>
	<node id="-592365" lat="59.5118833292" lon="5.27790555716">
		<tag k="name" v="Grønholmen" />
		<tag k="place" v="islet" />
		<tag k="ssr:stedsnr" v="876220" />
	</node>
	<node id="-592360" lat="59.6181583357" lon="5.4554722162">
		<tag k="alt_name" v="Bjørnøy" />
		<tag k="name" v="Bjørnøya" />
		<tag k="place" v="island" />
		<tag k="ssr:stedsnr" v="732082" />
	</node>
	<node id="-592357" lat="59.6936388881" lon="5.45333888984">
		<tag k="alt_name" v="Smaløy" />
		<tag k="name" v="Smaløya" />
		<tag k="place" v="islet" />
		<tag k="ssr:stedsnr" v="731947" />
	</node>
	<node id="-592356" lat="59.6478749965" lon="5.38540833007">
		<tag k="name" v="Ramsvika" />
		<tag k="natural" v="bay" />
		<tag k="ssr:stedsnr" v="731930" />
	</node>
	<node id="-592352" lat="59.6622777808" lon="5.3770694359">
		<tag k="name" v="Hjartholmen" />
		<tag k="place" v="islet" />
		<tag k="ssr:stedsnr" v="731889" />
	</node>
	<node id="-592351" lat="59.6145166682" lon="5.46436943673">
		<tag k="name" v="Kråkeholmen" />
		<tag k="place" v="islet" />
		<tag k="ssr:stedsnr" v="731850" />
	</node>
	<node id="-592350" lat="59.6077444464" lon="5.32072777585">
		<tag k="alt_name" v="Hello" />
		<tag k="fixme" v="multiple name tags, choose one and add the other to alt_name" />
		<tag k="name" v="Hella;Teinevik" />
		<tag k="natural" v="bay" />
		<tag k="ssr:stedsnr" v="731846" />
	</node>
	<node id="-592349" lat="59.6362055553" lon="5.369727784">
		<tag k="name" v="Snøreholmen" />
		<tag k="place" v="islet" />
		<tag k="ssr:stedsnr" v="731833" />
	</node>
	<node id="-592348" lat="59.6287111146" lon="5.41980556126">
		<tag k="alt_name" v="Kråkeholmen" />
		<tag k="name" v="Kråkenesholmen" />
		<tag k="place" v="islet" />
		<tag k="ssr:stedsnr" v="731816" />
	</node>
	<node id="-592342" lat="59.553991664" lon="5.26215833595">
		<tag k="name" v="Ternholmen" />
		<tag k="place" v="islet" />
		<tag k="ssr:stedsnr" v="731195" />
	</node>
	<node id="-592340" lat="59.5564888913" lon="5.24980277689">
		<tag k="name" v="Kjeholmen" />
		<tag k="place" v="islet" />
		<tag k="ssr:stedsnr" v="731174" />
	</node>
	<node id="-592339" lat="59.5351777769" lon="5.23305833196">
		<tag k="name" v="Midtholmen" />
		<tag k="place" v="islet" />
		<tag k="ssr:stedsnr" v="731159" />
	</node>
	<node id="-592338" lat="59.5444638881" lon="5.45709999176">
		<tag k="name" v="Storevågen" />
		<tag k="natural" v="bay" />
		<tag k="ssr:stedsnr" v="731157" />
	</node>
	<node id="-592337" lat="59.6206500036" lon="5.52051111861">
		<tag k="alt_name" v="Åkrevika" />
		<tag k="name" v="Åkervika" />
		<tag k="natural" v="bay" />
		<tag k="ssr:stedsnr" v="731402" />
	</node>
	<node id="-592335" lat="59.7163029657" lon="5.53586155754">
		<tag k="alt_name" v="Kvitanes" />
		<tag k="name" v="Kvitaneset" />
		<tag k="natural" v="cape" />
		<tag k="ssr:stedsnr" v="731095" />
	</node>
	<node id="-592330" lat="59.6872277785" lon="5.53793889369">
		<tag k="alt_name" v="Naustvik" />
		<tag k="name" v="Naustvika" />
		<tag k="natural" v="bay" />
		<tag k="ssr:stedsnr" v="731026" />
	</node>
	<node id="-592326" lat="59.5877500045" lon="5.52304722199">
		<tag k="name" v="Grønevik" />
		<tag k="natural" v="bay" />
		<tag k="ssr:stedsnr" v="633859" />
	</node>
	<node id="-592325" lat="59.5109749976" lon="5.23949166373">
		<tag k="name" v="Mjelkevik" />
		<tag k="natural" v="bay" />
		<tag k="ssr:stedsnr" v="633771" />
	</node>
	<node id="-592312" lat="59.6658694482" lon="5.5302500008">
		<tag k="name" v="Kransevika" />
		<tag k="natural" v="bay" />
		<tag k="ssr:stedsnr" v="633224" />
	</node>
	<node id="-592311" lat="59.6106027784" lon="5.52266943778">
		<tag k="name" v="Stualandsklubben" />
		<tag k="natural" v="cape" />
		<tag k="ssr:stedsnr" v="633221" />
	</node>
	<node id="-592309" lat="59.5866839687" lon="5.43669470475">
		<tag k="fixme" v="consider seamark:type=rock or natural=shoal" />
		<tag k="name" v="Kobbaskjer" />
		<tag k="place" v="islet" />
		<tag k="ssr:stedsnr" v="633018" />
	</node>
	<node id="-592304" lat="59.563127778" lon="5.26536111051">
		<tag k="name" v="Einstapeflua" />
		<tag k="natural" v="shoal" />
		<tag k="place" v="locality" />
		<tag k="ssr:stedsnr" v="630004" />
	</node>
	<node id="-592297" lat="59.6239972225" lon="5.42257777173">
		<tag k="name" v="Barmen" />
		<tag k="natural" v="bay" />
		<tag k="ssr:stedsnr" v="609787" />
	</node>
	<node id="-592296" lat="59.6226555595" lon="5.41629721861">
		<tag k="name" v="Vestvikvågen" />
		<tag k="natural" v="bay" />
		<tag k="ssr:stedsnr" v="609786" />
	</node>
	<node id="-592294" lat="59.5213065373" lon="5.23456533898">
		<tag k="alt_name" v="Mølstervågen" />
		<tag k="name" v="Mølstrevågen" />
		<tag k="natural" v="bay" />
		<tag k="ssr:stedsnr" v="609160" />
	</node>
	<node id="-592292" lat="59.7332833326" lon="5.52606944666">
		<tag k="alt_name" v="Røysanes" />
		<tag k="name" v="Røysaneset" />
		<tag k="natural" v="cape" />
		<tag k="ssr:stedsnr" v="609154" />
	</node>
	<node id="-592291" lat="59.5525626126" lon="5.24953960529">
		<tag k="name" v="Lyngholmsundet" />
		<tag k="natural" v="strait" />
		<tag k="ssr:stedsnr" v="609234" />
	</node>
	<node id="-592287" lat="59.5306333366" lon="5.45529167111">
		<tag k="name" v="Oldervik" />
		<tag k="natural" v="bay" />
		<tag k="ssr:stedsnr" v="572887" />
	</node>
	<node id="-592286" lat="59.6566666658" lon="5.42300278463">
		<tag k="name" v="Vestre Vågen" />
		<tag k="natural" v="bay" />
		<tag k="ssr:stedsnr" v="572870" />
	</node>
	<node id="-592285" lat="59.639466668" lon="5.41372778074">
		<tag k="name" v="Holmen" />
		<tag k="natural" v="cape" />
		<tag k="ssr:stedsnr" v="572866" />
	</node>
	<node id="-592284" lat="59.6437749984" lon="5.37200000606">
		<tag k="name" v="Vardaneset" />
		<tag k="natural" v="cape" />
		<tag k="ssr:stedsnr" v="572860" />
	</node>
	<node id="-592275" lat="59.5134388874" lon="5.44809167">
		<tag k="name" v="Fureholmen" />
		<tag k="place" v="islet" />
		<tag k="ssr:stedsnr" v="572118" />
	</node>
	<node id="-592273" lat="59.5107555588" lon="5.22895833378">
		<tag k="fixme" v="consider seamark:type=rock or natural=shoal" />
		<tag k="name" v="Svenkaskjeret" />
		<tag k="place" v="islet" />
		<tag k="ssr:stedsnr" v="570260" />
	</node>
	<node id="-592272" lat="59.7237972243" lon="5.52300555279">
		<tag k="alt_name" v="Tittelsnes;Gramshaugneset" />
		<tag k="name" v="Tittelsnesklubben" />
		<tag k="natural" v="cape" />
		<tag k="ssr:stedsnr" v="549109" />
	</node>
	<node id="-592270" lat="59.6039416695" lon="5.31989443832">
		<tag k="name" v="Søra Straumsnes" />
		<tag k="natural" v="cape" />
		<tag k="ssr:stedsnr" v="694941" />
	</node>
	<node id="-592266" lat="59.4886055551" lon="5.29830277166">
		<tag k="name" v="Klubb" />
		<tag k="natural" v="cape" />
		<tag k="ssr:stedsnr" v="694695" />
	</node>
	<node id="-592265" lat="59.5117805539" lon="5.41307777151">
		<tag k="name" v="Kollenes" />
		<tag k="natural" v="cape" />
		<tag k="ssr:stedsnr" v="694978" />
	</node>
	<node id="-592253" lat="59.6257055572" lon="5.32978611151">
		<tag k="name" v="Losanesvika" />
		<tag k="natural" v="bay" />
		<tag k="ssr:stedsnr" v="694552" />
	</node>
	<node id="-592249" lat="59.6810944418" lon="5.43256944338">
		<tag k="name" v="Konte" />
		<tag k="natural" v="cape" />
		<tag k="ssr:stedsnr" v="694141" />
	</node>
	<node id="-592247" lat="59.5196972228" lon="5.24139167525">
		<tag k="fixme" v="consider seamark:type=rock or natural=shoal" />
		<tag k="name" v="Søre Bleika" />
		<tag k="place" v="islet" />
		<tag k="ssr:stedsnr" v="694100" />
	</node>
	<node id="-592240" lat="59.7116305578" lon="5.4581777824">
		<tag k="name" v="Valebrotet" />
		<tag k="natural" v="shoal" />
		<tag k="place" v="locality" />
		<tag k="ssr:stedsnr" v="693598" />
	</node>
	<node id="-592239" lat="59.5552388878" lon="5.25291944528">
		<tag k="name" v="Lyngholmane" />
		<tag k="place" v="island" />
		<tag k="ssr:stedsnr" v="692007" />
	</node>
	<node id="-592233" lat="59.6261805525" lon="5.43276388828">
		<tag k="name" v="Vestrepollen" />
		<tag k="natural" v="bay" />
		<tag k="ssr:stedsnr" v="512081" />
	</node>
	<node id="-592231" lat="59.629094441" lon="5.34677221488">
		<tag k="name" v="Likvika" />
		<tag k="natural" v="bay" />
		<tag k="ssr:stedsnr" v="512063" />
	</node>
	<node id="-592229" lat="59.584358336" lon="5.44128888733">
		<tag k="name" v="Nonslidvika" />
		<tag k="natural" v="bay" />
		<tag k="ssr:stedsnr" v="512011" />
	</node>
	<node id="-592228" lat="59.5989583359" lon="5.31568055875">
		<tag k="name" v="Langebanen" />
		<tag k="natural" v="cape" />
		<tag k="ssr:stedsnr" v="511898" />
	</node>
	<node id="-592226" lat="59.5348111079" lon="5.45970555114">
		<tag k="name" v="Saltvikklubben" />
		<tag k="natural" v="cape" />
		<tag k="ssr:stedsnr" v="511869" />
	</node>
	<node id="-592221" lat="59.7072611143" lon="5.53757499785">
		<tag k="alt_name" v="Buvika, s;Søra Buvik" />
		<tag k="name" v="Søra Buvika" />
		<tag k="natural" v="bay" />
		<tag k="ssr:stedsnr" v="481064" />
	</node>
	<node id="-592220" lat="59.6441483262" lon="5.44485309156">
		<tag k="alt_name" v="Sagavika" />
		<tag k="name" v="Sagvika" />
		<tag k="natural" v="bay" />
		<tag k="ssr:stedsnr" v="671910" />
	</node>
	<node id="-592214" lat="59.5930249965" lon="5.52425556412">
		<tag k="name" v="Nesjaneset" />
		<tag k="natural" v="cape" />
		<tag k="ssr:stedsnr" v="671093" />
	</node>
	<node id="-592212" lat="59.7272138867" lon="5.52905000147">
		<tag k="alt_name" v="Breidavik;Breiavika" />
		<tag k="name" v="Breidavika" />
		<tag k="natural" v="bay" />
		<tag k="ssr:stedsnr" v="671086" />
	</node>
	<node id="-592207" lat="59.6545166632" lon="5.43763611775">
		<tag k="name" v="Straumøy" />
		<tag k="natural" v="cape" />
		<tag k="ssr:stedsnr" v="670884" />
	</node>
	<node id="-592205" lat="59.6269083326" lon="5.33483333546">
		<tag k="name" v="Tjernagelholmen" />
		<tag k="place" v="islet" />
		<tag k="ssr:stedsnr" v="670811" />
	</node>
	<node id="-592204" lat="59.620622221" lon="5.44854167392">
		<tag k="alt_name" v="Kubbøy" />
		<tag k="name" v="Klubbøya" />
		<tag k="place" v="islet" />
		<tag k="ssr:stedsnr" v="670804" />
	</node>
	<node id="-592201" lat="59.6147138857" lon="5.43811388953">
		<tag k="name" v="Litlestraumen" />
		<tag k="natural" v="strait" />
		<tag k="ssr:stedsnr" v="670755" />
	</node>
	<node id="-592200" lat="59.5992305518" lon="5.31359166403">
		<tag k="name" v="Buavågen" />
		<tag k="natural" v="bay" />
		<tag k="ssr:stedsnr" v="670741" />
	</node>
	<node id="-592194" lat="59.5044861072" lon="5.23699722431">
		<tag k="name" v="Smørsund" />
		<tag k="natural" v="strait" />
		<tag k="ssr:stedsnr" v="670135" />
	</node>
	<node id="-592191" lat="59.7084249995" lon="5.47644167336">
		<tag k="alt_name" v="Einstapvollklubben;Klubben" />
		<tag k="name" v="Einstabøvollklubben" />
		<tag k="natural" v="cape" />
		<tag k="ssr:stedsnr" v="670090" />
	</node>
	<node id="-592188" lat="59.521789404" lon="5.49378253502">
		<tag k="alt_name" v="Killingvik" />
		<tag k="fixme" v="multiple name tags, choose one and add the other to alt_name" />
		<tag k="name" v="Killingvika;Kjeavika" />
		<tag k="natural" v="bay" />
		<tag k="ssr:stedsnr" v="670265" />
	</node>
	<node id="-592183" lat="59.6386333322" lon="5.36721945116">
		<tag k="fixme" v="consider seamark:type=rock or natural=shoal" />
		<tag k="name" v="Litlableika" />
		<tag k="place" v="islet" />
		<tag k="ssr:stedsnr" v="451913" />
	</node>
	<node id="-592176" lat="59.4857166666" lon="5.30244166975">
		<tag k="name" v="Ekrevika" />
		<tag k="natural" v="bay" />
		<tag k="ssr:stedsnr" v="451706" />
	</node>
	<node id="-592173" lat="59.5842027748" lon="5.43195834234">
		<tag k="name" v="Rødsaga" />
		<tag k="natural" v="bay" />
		<tag k="ssr:stedsnr" v="451024" />
	</node>
	<node id="-592168" lat="59.6208305563" lon="5.32004166414">
		<tag k="alt_name" v="Haugavika, nordre;Nordre Haugavika" />
		<tag k="name" v="Nordra Haugavika" />
		<tag k="natural" v="bay" />
		<tag k="ssr:stedsnr" v="428828" />
	</node>
	<node id="-592167" lat="59.6269791596" lon="5.33222048843">
		<tag k="alt_name" v="Flaggholmen" />
		<tag k="name" v="Flagholmen" />
		<tag k="place" v="islet" />
		<tag k="ssr:stedsnr" v="428826" />
	</node>
	<node id="-592165" lat="59.5951694435" lon="5.30474722339">
		<tag k="alt_name" v="Rongskår" />
		<tag k="name" v="Rognskorvik" />
		<tag k="natural" v="bay" />
		<tag k="ssr:stedsnr" v="428760" />
	</node>
	<node id="-592161" lat="59.6353583334" lon="5.51108889269">
		<tag k="alt_name" v="Bårvåg" />
		<tag k="name" v="Bårvågen" />
		<tag k="natural" v="bay" />
		<tag k="ssr:stedsnr" v="428441" />
	</node>
	<node id="-592160" lat="59.5201222193" lon="5.50273055357">
		<tag k="alt_name" v="Ålvikfjorden;Ålfjord" />
		<tag k="bay" v="fjord" />
		<tag k="name" v="Ålfjorden" />
		<tag k="natural" v="bay" />
		<tag k="ssr:stedsnr" v="428005" />
	</node>
	<node id="-592158" lat="59.628874998" lon="5.32995000683">
		<tag k="name" v="Magerholmen" />
		<tag k="place" v="islet" />
		<tag k="ssr:stedsnr" v="427910" />
	</node>
	<node id="-592156" lat="59.6114527794" lon="5.45586388513">
		<tag k="name" v="Angarsholmen" />
		<tag k="place" v="islet" />
		<tag k="ssr:stedsnr" v="512816" />
	</node>
	<node id="-592155" lat="59.5204861078" lon="5.25159723066">
		<tag k="name" v="Grunnasundsholmen" />
		<tag k="place" v="islet" />
		<tag k="ssr:stedsnr" v="512783" />
	</node>
	<node id="-592154" lat="59.5482944439" lon="5.24171389225">
		<tag k="alt_name" v="Lyngrosskjeret" />
		<tag k="fixme" v="consider seamark:type=rock or natural=shoal" />
		<tag k="name" v="Lyngroskjeret" />
		<tag k="place" v="islet" />
		<tag k="ssr:stedsnr" v="512771" />
	</node>
	<node id="-592153" lat="59.6471138888" lon="5.38321389304">
		<tag k="name" v="Nilsavika" />
		<tag k="natural" v="bay" />
		<tag k="ssr:stedsnr" v="512892" />
	</node>
	<node id="-592151" lat="59.5858249994" lon="5.44143889539">
		<tag k="name" v="Balsvik" />
		<tag k="natural" v="bay" />
		<tag k="ssr:stedsnr" v="512427" />
	</node>
	<node id="-592148" lat="59.5191861091" lon="5.27514999597">
		<tag k="name" v="Håkonsholmen" />
		<tag k="place" v="islet" />
		<tag k="ssr:stedsnr" v="512224" />
	</node>
	<node id="-592145" lat="59.5214083292" lon="5.26089445278">
		<tag k="name" v="Sjoholmen" />
		<tag k="place" v="islet" />
		<tag k="ssr:stedsnr" v="512582" />
	</node>
	<node id="-592142" lat="59.601302777" lon="5.32387776948">
		<tag k="name" v="Mjåsund" />
		<tag k="natural" v="strait" />
		<tag k="ssr:stedsnr" v="511924" />
	</node>
	<node id="-592127" lat="59.6163833307" lon="5.51966110259">
		<tag k="name" v="Lauvnesvika" />
		<tag k="natural" v="bay" />
		<tag k="ssr:stedsnr" v="511175" />
	</node>
	<node id="-592125" lat="59.7038104298" lon="5.47276549786">
		<tag k="name" v="Straumen" />
		<tag k="natural" v="strait" />
		<tag k="ssr:stedsnr" v="511148" />
	</node>
	<node id="-592122" lat="59.7050499968" lon="5.44124722019">
		<tag k="name" v="Tråvåsskallen" />
		<tag k="natural" v="shoal" />
		<tag k="place" v="locality" />
		<tag k="ssr:stedsnr" v="510577" />
	</node>
	<node id="-592121" lat="59.6461583331" lon="5.52936389597">
		<tag k="name" v="Raudflua" />
		<tag k="natural" v="shoal" />
		<tag k="place" v="locality" />
		<tag k="ssr:stedsnr" v="510374" />
	</node>
	<node id="-592120" lat="59.5373166666" lon="5.22830554888">
		<tag k="name" v="Gangløysa" />
		<tag k="natural" v="shoal" />
		<tag k="place" v="locality" />
		<tag k="ssr:stedsnr" v="510008" />
	</node>
	<node id="-592119" lat="59.5247083305" lon="5.46805833818">
		<tag k="name" v="Flesjane" />
		<tag k="natural" v="shoal" />
		<tag k="place" v="locality" />
		<tag k="ssr:stedsnr" v="509832" />
	</node>
	<node id="-592114" lat="59.6629541772" lon="5.41895717126">
		<tag k="name" v="Nappeid" />
		<tag k="place" v="locality" />
		<tag k="ssr:stedsnr" v="391824" />
	</node>
	<node id="-592112" lat="59.6505555578" lon="5.40878333983">
		<tag k="name" v="Skåtavika" />
		<tag k="natural" v="bay" />
		<tag k="ssr:stedsnr" v="390860" />
	</node>
	<node id="-592110" lat="59.7147666664" lon="5.52801943683">
		<tag k="name" v="Lyngnes" />
		<tag k="natural" v="cape" />
		<tag k="ssr:stedsnr" v="390662" />
	</node>
	<node id="-592105" lat="59.5993027758" lon="5.31324443581">
		<tag k="name" v="Vestre Buavågen" />
		<tag k="natural" v="bay" />
		<tag k="ssr:stedsnr" v="390561" />
	</node>
	<node id="-592102" lat="59.6330833352" lon="5.51618888211">
		<tag k="name" v="Lahammaren" />
		<tag k="natural" v="cape" />
		<tag k="ssr:stedsnr" v="390160" />
	</node>
	<node id="-592099" lat="59.5406055555" lon="5.46096388607">
		<tag k="name" v="Austre sundet" />
		<tag k="natural" v="strait" />
		<tag k="ssr:stedsnr" v="390106" />
	</node>
	<node id="-592096" lat="59.5186555524" lon="5.46524166685">
		<tag k="name" v="Ålfjordbotn" />
		<tag k="natural" v="bay" />
		<tag k="ssr:stedsnr" v="387865" />
	</node>
	<node id="-592091" lat="59.5090777822" lon="5.23572500239">
		<tag k="alt_name" v="Hillevågen;Hillesvågen" />
		<tag k="name" v="Hidlesvågen" />
		<tag k="natural" v="bay" />
		<tag k="ssr:stedsnr" v="367156" />
	</node>
	<node id="-592090" lat="59.4789749982" lon="5.06682222924">
		<tag k="name" v="Sletta" />
		<tag k="place" v="sea" />
		<tag k="ssr:stedsnr" v="366289" />
	</node>
	<node id="-592087" lat="59.6415111126" lon="5.36826666419">
		<tag k="alt_name" v="Storøy" />
		<tag k="name" v="Storøya" />
		<tag k="place" v="islet" />
		<tag k="ssr:stedsnr" v="488935" />
	</node>
	<node id="-592085" lat="59.6467944476" lon="5.40630000662">
		<tag k="name" v="Eikelandsneset" />
		<tag k="natural" v="cape" />
		<tag k="ssr:stedsnr" v="488910" />
	</node>
	<node id="-592084" lat="59.64208333" lon="5.41935554776">
		<tag k="bay" v="fjord" />
		<tag k="name" v="Førdespollen" />
		<tag k="natural" v="bay" />
		<tag k="ssr:stedsnr" v="488909" />
	</node>
	<node id="-592081" lat="59.6491666676" lon="5.40892222056">
		<tag k="alt_name" v="Havner" />
		<tag k="name" v="Havnar" />
		<tag k="natural" v="bay" />
		<tag k="ssr:stedsnr" v="488882" />
	</node>
	<node id="-592075" lat="59.6331444433" lon="5.45985278321">
		<tag k="alt_name" v="Kalvanes" />
		<tag k="name" v="Kalvaneset" />
		<tag k="natural" v="cape" />
		<tag k="ssr:stedsnr" v="488814" />
	</node>
	<node id="-592074" lat="59.5841694455" lon="5.29312222478">
		<tag k="name" v="Hovdavika" />
		<tag k="natural" v="bay" />
		<tag k="ssr:stedsnr" v="488807" />
	</node>
	<node id="-592065" lat="59.5952888899" lon="5.5238111031">
		<tag k="alt_name" v="Røykjenesholmen, nordre;Nordre Røyknesholmen" />
		<tag k="name" v="Nordre Røykjenesholmen" />
		<tag k="place" v="islet" />
		<tag k="ssr:stedsnr" v="488374" />
	</node>
	<node id="-592063" lat="59.5686750008" lon="5.53740000055">
		<tag k="name" v="Framneset" />
		<tag k="natural" v="cape" />
		<tag k="ssr:stedsnr" v="488322" />
	</node>
	<node id="-592061" lat="59.5235036085" lon="5.48678282855">
		<tag k="alt_name" v="Smevik" />
		<tag k="name" v="Smedvika" />
		<tag k="natural" v="bay" />
		<tag k="ssr:stedsnr" v="488241" />
	</node>
	<node id="-592055" lat="59.5174972237" lon="5.26945833282">
		<tag k="name" v="Stoveneset" />
		<tag k="natural" v="cape" />
		<tag k="ssr:stedsnr" v="488155" />
	</node>
	<node id="-592047" lat="59.5948111117" lon="5.51984721941">
		<tag k="alt_name" v="Nordre Røkenesvågen" />
		<tag k="name" v="Nordre Røykjenesvågen" />
		<tag k="natural" v="bay" />
		<tag k="ssr:stedsnr" v="330221" />
	</node>
	<node id="-592045" lat="59.6048519374" lon="5.32194038388">
		<tag k="name" v="Korgavika" />
		<tag k="natural" v="bay" />
		<tag k="ssr:stedsnr" v="329939" />
	</node>
	<node id="-592042" lat="59.5478888883" lon="5.23799443785">
		<tag k="name" v="Tassoboen" />
		<tag k="natural" v="shoal" />
		<tag k="place" v="locality" />
		<tag k="ssr:stedsnr" v="328014" />
	</node>
	<node id="-592038" lat="59.535888887" lon="5.50684444453">
		<tag k="loc_name" v="Skoganesvik" />
		<tag k="name" v="Sandvollvika" />
		<tag k="natural" v="bay" />
		<tag k="ssr:stedsnr" v="458395" />
	</node>
	<node id="-592032" lat="59.5303194522" lon="5.23610036733">
		<tag k="name" v="Tonglakloven" />
		<tag k="natural" v="bay" />
		<tag k="ssr:stedsnr" v="269758" />
	</node>
	<node id="-592029" lat="59.7042111089" lon="5.5412916682">
		<tag k="name" v="Apalviknes" />
		<tag k="natural" v="cape" />
		<tag k="ssr:stedsnr" v="269715" />
	</node>
	<node id="-592028" lat="59.7063888916" lon="5.5403472133">
		<tag k="name" v="Kvigemyrnes" />
		<tag k="natural" v="cape" />
		<tag k="ssr:stedsnr" v="269713" />
	</node>
	<node id="-592027" lat="59.7184166662" lon="5.49844723008">
		<tag k="fixme" v="consider seamark:type=rock or natural=shoal" />
		<tag k="name" v="Litlaskjer" />
		<tag k="place" v="islet" />
		<tag k="ssr:stedsnr" v="269703" />
	</node>
	<node id="-592026" lat="59.7199166677" lon="5.51720277982">
		<tag k="name" v="Garvika" />
		<tag k="natural" v="bay" />
		<tag k="ssr:stedsnr" v="269702" />
	</node>
	<node id="-592023" lat="59.5185222229" lon="5.26906666408">
		<tag k="fixme" v="consider seamark:type=rock or natural=shoal" />
		<tag k="name" v="Håskjeret" />
		<tag k="place" v="islet" />
		<tag k="ssr:stedsnr" v="269552" />
	</node>
	<node id="-592017" lat="59.5400722218" lon="5.45598889371">
		<tag k="name" v="Vestresundet" />
		<tag k="natural" v="strait" />
		<tag k="ssr:stedsnr" v="451981" />
	</node>
	<node id="-592016" lat="59.4928861135" lon="5.29423611072">
		<tag k="name" v="Sotasund" />
		<tag k="natural" v="strait" />
		<tag k="ssr:stedsnr" v="451779" />
	</node>
	<node id="-592015" lat="59.5237666681" lon="5.25014443741">
		<tag k="alt_name" v="Havnen" />
		<tag k="name" v="Hamni" />
		<tag k="natural" v="bay" />
		<tag k="ssr:stedsnr" v="451771" />
	</node>
	<node id="-592013" lat="59.7034722198" lon="5.54041111313">
		<tag k="name" v="Apalvika" />
		<tag k="natural" v="bay" />
		<tag k="ssr:stedsnr" v="451697" />
	</node>
	<node id="-592012" lat="59.7178418898" lon="5.50193690918">
		<tag k="name" v="Naustvika" />
		<tag k="natural" v="bay" />
		<tag k="ssr:stedsnr" v="451693" />
	</node>
	<node id="-592011" lat="59.7173500019" lon="5.52143054794">
		<tag k="fixme" v="consider seamark:type=rock or natural=shoal" />
		<tag k="name" v="Smalaskjer" />
		<tag k="place" v="islet" />
		<tag k="ssr:stedsnr" v="451686" />
	</node>
	<node id="-592003" lat="59.704843315" lon="5.46277764763">
		<tag k="fixme" v="consider seamark:type=rock or natural=shoal" />
		<tag k="name" v="Longaskjer" />
		<tag k="place" v="islet" />
		<tag k="ssr:stedsnr" v="451659" />
	</node>
	<node id="-592002" lat="59.5488021292" lon="5.23870759584">
		<tag k="name" v="Håskru" />
		<tag k="place" v="islet" />
		<tag k="ssr:stedsnr" v="451765" />
	</node>
	<node id="-592000" lat="59.6344611093" lon="5.36764167361">
		<tag k="fixme" v="consider seamark:type=rock or natural=shoal" />
		<tag k="name" v="Gulableike" />
		<tag k="place" v="islet" />
		<tag k="ssr:stedsnr" v="451599" />
	</node>
	<node id="-591999" lat="59.6302333362" lon="5.34296389178">
		<tag k="name" v="Laksaklubben" />
		<tag k="natural" v="cape" />
		<tag k="ssr:stedsnr" v="451596" />
	</node>
	<node id="-591998" lat="59.613330557" lon="5.31144167399">
		<tag k="alt_name" v="Skarvaholmen" />
		<tag k="name" v="Skarvholmen" />
		<tag k="place" v="islet" />
		<tag k="ssr:stedsnr" v="451589" />
	</node>
	<node id="-591987" lat="59.6079527765" lon="5.43483611234">
		<tag k="name" v="Skottavika" />
		<tag k="natural" v="bay" />
		<tag k="ssr:stedsnr" v="451123" />
	</node>
	<node id="-591986" lat="59.5186499991" lon="5.45501110866">
		<tag k="name" v="Bleikeholmen" />
		<tag k="place" v="islet" />
		<tag k="ssr:stedsnr" v="451248" />
	</node>
	<node id="-591981" lat="59.6352027805" lon="5.3543055555">
		<tag k="fixme" v="consider seamark:type=rock or natural=shoal" />
		<tag k="name" v="Liaskjeret" />
		<tag k="place" v="islet" />
		<tag k="ssr:stedsnr" v="451082" />
	</node>
	<node id="-591977" lat="59.4999111068" lon="5.45746389209">
		<tag k="name" v="Pæreholmen" />
		<tag k="place" v="islet" />
		<tag k="ssr:stedsnr" v="450859" />
	</node>
	<node id="-591971" lat="59.5513694402" lon="5.24656388803">
		<tag k="name" v="Ringholmen" />
		<tag k="place" v="islet" />
		<tag k="ssr:stedsnr" v="245223" />
	</node>
	<node id="-591964" lat="59.5057666627" lon="5.2361805535">
		<tag k="alt_name" v="Trætøy" />
		<tag k="name" v="Trettøya" />
		<tag k="place" v="island" />
		<tag k="ssr:stedsnr" v="185131" />
	</node>
	<node id="-591959" lat="59.6106972254" lon="5.45012221344">
		<tag k="fixme" v="consider seamark:type=rock or natural=shoal" />
		<tag k="name" v="Drangsbleika" />
		<tag k="place" v="islet" />
		<tag k="ssr:stedsnr" v="148814" />
	</node>
	<node id="-591958" lat="59.6374361121" lon="5.32779167504">
		<tag k="name" v="Nappholmfluene" />
		<tag k="natural" v="shoal" />
		<tag k="place" v="locality" />
		<tag k="ssr:stedsnr" v="148062" />
	</node>
	<node id="-591955" lat="59.5433166673" lon="5.22499722651">
		<tag k="alt_name" v="Stora Blokso" />
		<tag k="name" v="Store Bloksen" />
		<tag k="place" v="locality" />
		<tag k="seamark:type" v="rock" />
		<tag k="ssr:stedsnr" v="147720" />
	</node>
	<node id="-591954" lat="59.5345722219" lon="5.23660555929">
		<tag k="name" v="Steinavikane" />
		<tag k="natural" v="bay" />
		<tag k="ssr:stedsnr" v="147703" />
	</node>
	<node id="-591950" lat="59.7050694464" lon="5.54094444765">
		<tag k="name" v="Djupavika" />
		<tag k="natural" v="bay" />
		<tag k="ssr:stedsnr" v="147656" />
	</node>
	<node id="-591948" lat="59.6886125299" lon="5.4376701605">
		<tag k="alt_name" v="Ulverakersbleika" />
		<tag k="name" v="Ulvaråkerbleika" />
		<tag k="place" v="island" />
		<tag k="ssr:stedsnr" v="147152" />
	</node>
	<node id="-591943" lat="59.6187138896" lon="5.44930832941">
		<tag k="name" v="Nordre Bjørnøyvåg" />
		<tag k="natural" v="bay" />
		<tag k="ssr:stedsnr" v="269940" />
	</node>
	<node id="-591942" lat="59.635763888" lon="5.37446666679">
		<tag k="name" v="Fureholmen" />
		<tag k="place" v="islet" />
		<tag k="ssr:stedsnr" v="269937" />
	</node>
	<node id="-591941" lat="59.5237722265" lon="5.4485055571">
		<tag k="name" v="Breiavika" />
		<tag k="natural" v="bay" />
		<tag k="ssr:stedsnr" v="269977" />
	</node>
	<node id="-591940" lat="59.6009472229" lon="5.31534999807">
		<tag k="name" v="Austre Buavågen" />
		<tag k="natural" v="bay" />
		<tag k="ssr:stedsnr" v="269930" />
	</node>
	<node id="-591934" lat="59.7146249072" lon="5.52511566991">
		<tag k="name" v="Ørevågen" />
		<tag k="natural" v="bay" />
		<tag k="ssr:stedsnr" v="269694" />
	</node>
	<node id="-591928" lat="59.4930722236" lon="5.28462778488">
		<tag k="name" v="Viksevika" />
		<tag k="natural" v="bay" />
		<tag k="ssr:stedsnr" v="269783" />
	</node>
	<node id="-591924" lat="59.6401916643" lon="5.52375556121">
		<tag k="fixme" v="consider seamark:type=rock or natural=shoal" />
		<tag k="name" v="Staupsbleika" />
		<tag k="place" v="islet" />
		<tag k="ssr:stedsnr" v="269242" />
	</node>
	<node id="-591918" lat="59.6039555542" lon="5.52190833836">
		<tag k="name" v="Otravika" />
		<tag k="natural" v="bay" />
		<tag k="ssr:stedsnr" v="269197" />
	</node>
	<node id="-591915" lat="59.7029294328" lon="5.45897124529">
		<tag k="fixme" v="consider seamark:type=rock or natural=shoal" />
		<tag k="name" v="Skåtaskjer" />
		<tag k="place" v="islet" />
		<tag k="ssr:stedsnr" v="269158" />
	</node>
	<node id="-591914" lat="59.7049931105" lon="5.47102068741">
		<tag k="name" v="Lambanappen" />
		<tag k="natural" v="cape" />
		<tag k="ssr:stedsnr" v="269150" />
	</node>
	<node id="-591913" lat="59.733575" lon="5.52771945152">
		<tag k="fixme" v="consider seamark:type=rock or natural=shoal" />
		<tag k="name" v="Haugavikskjeret" />
		<tag k="place" v="islet" />
		<tag k="ssr:stedsnr" v="269145" />
	</node>
	<node id="-591908" lat="59.5718583334" lon="5.26853889503">
		<tag k="name" v="Karlagrunnen" />
		<tag k="natural" v="shoal" />
		<tag k="place" v="locality" />
		<tag k="ssr:stedsnr" v="267002" />
	</node>
	<node id="-591902" lat="59.5378944442" lon="5.23253610483">
		<tag k="name" v="Flateholmen" />
		<tag k="place" v="islet" />
		<tag k="ssr:stedsnr" v="87736" />
	</node>
	<node id="-591900" lat="59.513380553" lon="5.22898332841">
		<tag k="name" v="Lakseklubben" />
		<tag k="natural" v="cape" />
		<tag k="ssr:stedsnr" v="85254" />
	</node>
	<node id="-591897" lat="59.6434361148" lon="5.34376944426">
		<tag k="name" v="Nappholmane" />
		<tag k="place" v="island" />
		<tag k="ssr:stedsnr" v="246920" />
	</node>
	<node id="-591895" lat="59.6612472227" lon="5.42633334151">
		<tag k="name" v="Straumøyvågen" />
		<tag k="natural" v="bay" />
		<tag k="ssr:stedsnr" v="246893" />
	</node>
	<node id="-591891" lat="59.6255416647" lon="5.32838056193">
		<tag k="name" v="Losaneset" />
		<tag k="natural" v="cape" />
		<tag k="ssr:stedsnr" v="246806" />
	</node>
	<node id="-591890" lat="59.6261999986" lon="5.42126110875">
		<tag k="alt_name" v="Kråkneset" />
		<tag k="name" v="Kråkeneset" />
		<tag k="natural" v="cape" />
		<tag k="ssr:stedsnr" v="246794" />
	</node>
	<node id="-591882" lat="59.5546555566" lon="5.50103332804">
		<tag k="name" v="Straumvika" />
		<tag k="natural" v="bay" />
		<tag k="ssr:stedsnr" v="246322" />
	</node>
	<node id="-591879" lat="59.5209305545" lon="5.25559723077">
		<tag k="alt_name" v="Skålaskogsvågen" />
		<tag k="name" v="Skålaskogvågen" />
		<tag k="natural" v="bay" />
		<tag k="ssr:stedsnr" v="246170" />
	</node>
	<node id="-591877" lat="59.5367777802" lon="5.45937499727">
		<tag k="name" v="Vågavågen" />
		<tag k="natural" v="bay" />
		<tag k="ssr:stedsnr" v="246157" />
	</node>
	<node id="-591873" lat="59.6589916685" lon="5.52545278522">
		<tag k="name" v="Slettavika" />
		<tag k="natural" v="bay" />
		<tag k="ssr:stedsnr" v="246031" />
	</node>
</osm>
