<?xml version="1.0" encoding="UTF-8"?>
<<<<<<< HEAD
<osm version="0.6" generator="osmapis">
	<node lat="59.67971666629819" lon="5.533577773985656" id="-34223">
		<tag k="alt_name" v="Bjørgi;Bjørgen" />
		<tag k="name" v="Bjørga" />
		<tag k="place" v="farm" />
		<tag k="ssr:stedsnr" v="3034" />
	</node>
	<node lat="59.71492563324654" lon="5.50853995123596" id="-34228">
		<tag k="alt_name" v="Haugsgjerde" />
		<tag k="fixme" v="consider place=hamlet" />
		<tag k="name" v="Haugsgjerd" />
		<tag k="place" v="farm" />
		<tag k="ssr:stedsnr" v="3108" />
	</node>
	<node lat="59.568855557047804" lon="5.290344435920734" id="-34232">
		<tag k="name" v="Nordbø" />
		<tag k="place" v="farm" />
		<tag k="ssr:stedsnr" v="3769" />
	</node>
	<node lat="59.636973366551146" lon="5.384280490961843" id="-34237">
		<tag k="name" v="Økland" />
=======
<osm generator="osmapis" version="0.6">
	<node id="-600062" lat="59.5599490732" lon="5.50758058655">
		<tag k="fixme" v="consider place=hamlet" />
		<tag k="name" v="Oa" />
		<tag k="place" v="farm" />
		<tag k="ssr:stedsnr" v="428313" />
	</node>
	<node id="-601081" lat="59.4983585874" lon="5.25873195797">
		<tag k="fixme" v="consider place=hamlet" />
		<tag k="name" v="Straumen" />
		<tag k="place" v="farm" />
		<tag k="ssr:stedsnr" v="548724" />
	</node>
	<node id="-600660" lat="59.5995249982" lon="5.3279583259">
		<tag k="name" v="Loknaneset" />
>>>>>>> e1d4bc35ff8a6074a6f2e91616a996b547c36f15
		<tag k="place" v="farm" />
		<tag k="ssr:stedsnr" v="21805" />
	</node>
<<<<<<< HEAD
	<node lat="59.495683334784786" lon="5.286100003558769" id="-34240">
		<tag k="alt_name" v="Vikse vestre" />
		<tag k="name" v="Vestre Vikse" />
		<tag k="place" v="farm" />
		<tag k="ssr:stedsnr" v="26092" />
	</node>
	<node lat="59.49594999589539" lon="5.280552781888102" id="-34241">
		<tag k="fixme" v="consider place=hamlet" />
		<tag k="name" v="Tveitastøl" />
		<tag k="place" v="farm" />
		<tag k="ssr:stedsnr" v="26093" />
	</node>
	<node lat="59.49747222104063" lon="5.291925005409939" id="-34242">
		<tag k="alt_name" v="Vikse austre" />
		<tag k="name" v="Austre Vikse" />
		<tag k="place" v="farm" />
		<tag k="ssr:stedsnr" v="26094" />
	</node>
	<node lat="59.51345277628424" lon="5.3538138913790645" id="-34245">
		<tag k="name" v="Tveit" />
		<tag k="place" v="farm" />
		<tag k="ssr:stedsnr" v="26510" />
	</node>
	<node lat="59.5418930664071" lon="5.351772888358156" id="-34247">
		<tag k="fixme" v="consider place=hamlet" />
		<tag k="name" v="Sveio" />
		<tag k="place" v="farm" />
		<tag k="ssr:stedsnr" v="26429" />
	</node>
	<node lat="59.671771446924325" lon="5.452466353908693" id="-34258">
		<tag k="fixme" v="consider place=hamlet" />
		<tag k="name" v="Breistig" />
		<tag k="place" v="farm" />
		<tag k="ssr:stedsnr" v="27784" />
	</node>
	<node lat="59.5949686410471" lon="5.3619577054384955" id="-34260">
		<tag k="fixme" v="consider place=hamlet" />
		<tag k="name" v="Kinn" />
		<tag k="place" v="farm" />
		<tag k="ssr:stedsnr" v="63806" />
	</node>
	<node lat="59.49665794077889" lon="5.286559852212884" id="-34261">
		<tag k="name" v="Vikse" />
		<tag k="place" v="hamlet" />
		<tag k="ssr:stedsnr" v="63730" />
	</node>
	<node lat="59.52882000899797" lon="5.436025326743826" id="-34265">
		<tag k="fixme" v="consider place=hamlet" />
		<tag k="name" v="Kvalvåg" />
		<tag k="place" v="farm" />
		<tag k="ssr:stedsnr" v="64158" />
	</node>
	<node lat="59.53290449419518" lon="5.392882427486272" id="-34270">
		<tag k="name" v="Apeland" />
		<tag k="place" v="hamlet" />
		<tag k="ssr:stedsnr" v="64210" />
	</node>
	<node lat="59.6438611133008" lon="5.384111113055624" id="-34281">
		<tag k="name" v="Økland" />
		<tag k="place" v="farm" />
		<tag k="ssr:stedsnr" v="81808" />
	</node>
	<node lat="59.599524998165826" lon="5.327958325896339" id="-34298">
		<tag k="name" v="Loknaneset" />
		<tag k="place" v="farm" />
		<tag k="ssr:stedsnr" v="87907" />
	</node>
	<node lat="59.612471062844065" lon="5.518864686610094" id="-34306">
		<tag k="fixme" v="consider place=hamlet" />
		<tag k="name" v="Stualand" />
		<tag k="place" v="farm" />
		<tag k="ssr:stedsnr" v="246389" />
	</node>
	<node lat="59.57815833049032" lon="5.528624995151308" id="-34311">
		<tag k="name" v="Rabben" />
		<tag k="place" v="farm" />
		<tag k="ssr:stedsnr" v="246354" />
	</node>
	<node lat="59.60930833083634" lon="5.475863888234534" id="-34312">
		<tag k="fixme" v="consider place=suburb, village or hamlet" />
		<tag k="name" v="Førde" />
		<tag k="place" v="quarter" />
		<tag k="ssr:stedsnr" v="246401" />
	</node>
	<node lat="59.58435488182945" lon="5.428397752153885" id="-34313">
		<tag k="fixme" v="consider place=hamlet" />
		<tag k="name" v="Rød" />
		<tag k="place" v="farm" />
		<tag k="ssr:stedsnr" v="246762" />
	</node>
	<node lat="59.568956754617744" lon="5.387687676352642" id="-34315">
		<tag k="alt_name" v="Hinderlid" />
		<tag k="fixme" v="consider place=hamlet" />
		<tag k="name" v="Hinderli" />
		<tag k="place" v="farm" />
		<tag k="ssr:stedsnr" v="246750" />
	</node>
	<node lat="59.61927119507971" lon="5.409371959775839" id="-34319">
		<tag k="fixme" v="consider place=hamlet" />
		<tag k="name" v="Vestvik" />
		<tag k="place" v="farm" />
		<tag k="ssr:stedsnr" v="246844" />
	</node>
	<node lat="59.53969444065878" lon="5.37044443800007" id="-34325">
		<tag k="name" v="Solstad" />
		<tag k="place" v="farm" />
		<tag k="ssr:stedsnr" v="124178" />
	</node>
	<node lat="59.64677222612062" lon="5.392380562877364" id="-34333">
		<tag k="alt_name" v="Slettene" />
		<tag k="name" v="Slettane" />
=======
	<node id="-601073" lat="59.5803727254" lon="5.37113478507">
		<tag k="fixme" v="consider place=hamlet" />
		<tag k="name" v="Lauvås" />
		<tag k="place" v="farm" />
		<tag k="ssr:stedsnr" v="428794" />
	</node>
	<node id="-600558" lat="59.5418930664" lon="5.35177288836">
		<tag k="fixme" v="consider place=hamlet" />
		<tag k="name" v="Sveio" />
		<tag k="place" v="farm" />
		<tag k="ssr:stedsnr" v="26429" />
	</node>
	<node id="-601069" lat="59.6172300543" lon="5.35726067498">
		<tag k="fixme" v="consider place=hamlet" />
		<tag k="name" v="Åsbu" />
		<tag k="old_name" v="Åsby" />
		<tag k="place" v="farm" />
		<tag k="ssr:stedsnr" v="428872" />
	</node>
	<node id="-601067" lat="59.604890174" lon="5.380820615">
		<tag k="fixme" v="consider place=hamlet" />
		<tag k="name" v="Emberland" />
		<tag k="place" v="farm" />
		<tag k="ssr:stedsnr" v="428851" />
	</node>
	<node id="-601065" lat="59.5923750032" lon="5.5128527797">
		<tag k="name" v="Røykje" />
		<tag k="place" v="farm" />
		<tag k="ssr:stedsnr" v="428358" />
	</node>
	<node id="-601063" lat="59.5844269942" lon="5.51718501859">
		<tag k="fixme" v="consider place=hamlet" />
		<tag k="name" v="Selsås" />
		<tag k="place" v="farm" />
		<tag k="ssr:stedsnr" v="428339" />
	</node>
	<node id="-601059" lat="59.5577055559" lon="5.31190277694">
		<tag k="name" v="Skiftestad" />
		<tag k="place" v="farm" />
		<tag k="ssr:stedsnr" v="428201" />
	</node>
	<node id="-601058" lat="59.5687108906" lon="5.41411269667">
		<tag k="fixme" v="consider place=hamlet" />
		<tag k="name" v="Tveita" />
		<tag k="place" v="farm" />
		<tag k="ssr:stedsnr" v="428195" />
	</node>
	<node id="-600545" lat="59.4959499959" lon="5.28055278189">
		<tag k="fixme" v="consider place=hamlet" />
		<tag k="name" v="Tveitastøl" />
		<tag k="place" v="farm" />
		<tag k="ssr:stedsnr" v="26093" />
	</node>
	<node id="-600544" lat="59.4956833348" lon="5.28610000356">
		<tag k="alt_name" v="Vikse vestre" />
		<tag k="name" v="Vestre Vikse" />
>>>>>>> e1d4bc35ff8a6074a6f2e91616a996b547c36f15
		<tag k="place" v="farm" />
		<tag k="ssr:stedsnr" v="26092" />
	</node>
<<<<<<< HEAD
	<node lat="59.63667601515594" lon="5.384239390630566" id="-34336">
		<tag k="name" v="Økland" />
		<tag k="place" v="farm" />
		<tag k="ssr:stedsnr" v="141790" />
	</node>
	<node lat="59.55564444673586" lon="5.2699277750460345" id="-34337">
		<tag k="name" v="Grøndalen" />
		<tag k="place" v="farm" />
		<tag k="ssr:stedsnr" v="145009" />
	</node>
	<node lat="59.63604166943553" lon="5.457963880579876" id="-34339">
		<tag k="fixme" v="consider place=hamlet" />
		<tag k="name" v="Vika" />
		<tag k="place" v="farm" />
		<tag k="ssr:stedsnr" v="147121" />
	</node>
	<node lat="59.49917705276308" lon="5.3774816743471145" id="-34355">
		<tag k="fixme" v="consider place=hamlet" />
		<tag k="name" v="Tveitaskog" />
		<tag k="place" v="farm" />
		<tag k="ssr:stedsnr" v="184694" />
	</node>
	<node lat="59.718549997205834" lon="5.512652779280003" id="-34357">
		<tag k="alt_name" v="Træ" />
		<tag k="name" v="Træet" />
		<tag k="place" v="farm" />
		<tag k="ssr:stedsnr" v="185111" />
	</node>
	<node lat="59.624324269351895" lon="5.341214848051307" id="-34369">
		<tag k="name" v="Tjernagel" />
		<tag k="place" v="hamlet" />
		<tag k="ssr:stedsnr" v="185806" />
	</node>
	<node lat="59.641625003734255" lon="5.376958332787188" id="-34374">
		<tag k="name" v="Økland" />
		<tag k="place" v="farm" />
		<tag k="ssr:stedsnr" v="263757" />
	</node>
	<node lat="59.689418217525755" lon="5.479110798673695" id="-34375">
		<tag k="alt_name" v="Øvra Økland" />
		<tag k="fixme" v="consider place=hamlet" />
		<tag k="name" v="Økland" />
		<tag k="place" v="farm" />
		<tag k="ssr:stedsnr" v="263759" />
	</node>
	<node lat="59.54688323850387" lon="5.418080909043715" id="-34376">
		<tag k="name" v="Krossgot" />
		<tag k="place" v="farm" />
		<tag k="ssr:stedsnr" v="264261" />
	</node>
	<node lat="59.63816110991494" lon="5.383961114017065" id="-34377">
		<tag k="name" v="Økland" />
		<tag k="place" v="farm" />
		<tag k="ssr:stedsnr" v="203808" />
	</node>
	<node lat="59.644561107042925" lon="5.38202500215569" id="-34378">
		<tag k="name" v="Økland" />
		<tag k="place" v="farm" />
		<tag k="ssr:stedsnr" v="203812" />
	</node>
	<node lat="59.6436361079211" lon="5.385677779097584" id="-34379">
		<tag k="name" v="Økland" />
		<tag k="place" v="farm" />
		<tag k="ssr:stedsnr" v="203814" />
	</node>
	<node lat="59.667899998899856" lon="5.460416673080172" id="-34380">
		<tag k="name" v="Træ" />
		<tag k="place" v="farm" />
		<tag k="ssr:stedsnr" v="207633" />
	</node>
	<node lat="59.552052082243094" lon="5.409205061451423" id="-34381">
		<tag k="fixme" v="consider place=hamlet" />
		<tag k="name" v="Lid" />
		<tag k="place" v="farm" />
		<tag k="ssr:stedsnr" v="208010" />
	</node>
	<node lat="59.52552221787631" lon="5.271136108606897" id="-34385">
		<tag k="name" v="Torvhaugen" />
		<tag k="place" v="farm" />
		<tag k="ssr:stedsnr" v="208106" />
	</node>
	<node lat="59.49847777385073" lon="5.289355558331881" id="-34393">
		<tag k="historic" v="shieling" />
		<tag k="name" v="Høgestølen" />
		<tag k="place" v="isolated_dwelling" />
		<tag k="ssr:stedsnr" v="208704" />
	</node>
	<node lat="59.50048888945047" lon="5.304013889886677" id="-34402">
		<tag k="name" v="Øvrabø" />
		<tag k="place" v="farm" />
		<tag k="ssr:stedsnr" v="269086" />
	</node>
	<node lat="59.532413886397165" lon="5.3958972282251105" id="-34414">
		<tag k="alt_name" v="Apeland nordre" />
		<tag k="fixme" v="consider place=hamlet" />
		<tag k="name" v="Nordre Apeland" />
		<tag k="place" v="farm" />
		<tag k="ssr:stedsnr" v="269226" />
	</node>
	<node lat="59.521599998732185" lon="5.2795361171967485" id="-34416">
		<tag k="name" v="Gjerde" />
		<tag k="place" v="farm" />
		<tag k="ssr:stedsnr" v="269230" />
	</node>
	<node lat="59.48385833737627" lon="5.303547215097241" id="-34448">
		<tag k="name" v="Treshaugen" />
		<tag k="place" v="farm" />
		<tag k="ssr:stedsnr" v="451239" />
	</node>
	<node lat="59.528108334697365" lon="5.284316658932562" id="-34453">
		<tag k="historic" v="shieling" />
		<tag k="name" v="Sumarstølen" />
		<tag k="place" v="isolated_dwelling" />
		<tag k="ssr:stedsnr" v="451523" />
	</node>
	<node lat="59.65450000234517" lon="5.435930555639466" id="-34469">
		<tag k="historic" v="shieling" />
		<tag k="name" v="Høgestølen" />
		<tag k="place" v="isolated_dwelling" />
		<tag k="ssr:stedsnr" v="451848" />
	</node>
	<node lat="59.716293556097476" lon="5.519256754015173" id="-34471">
		<tag k="fixme" v="consider place=hamlet" />
		<tag k="name" v="Eidsvåg" />
		<tag k="place" v="farm" />
		<tag k="ssr:stedsnr" v="246109" />
	</node>
	<node lat="59.540422300376484" lon="5.44678063617386" id="-34477">
		<tag k="alt_name" v="Våga" />
		<tag k="fixme" v="consider place=hamlet" />
		<tag k="name" v="Våge" />
		<tag k="place" v="farm" />
		<tag k="ssr:stedsnr" v="246159" />
	</node>
	<node lat="59.59539444503788" lon="5.327752770575013" id="-34478">
		<tag k="alt_name" v="Bua" />
		<tag k="name" v="Buavågen" />
		<tag k="place" v="farm" />
		<tag k="ssr:stedsnr" v="246723" />
	</node>
	<node lat="59.636478113179045" lon="5.384894443784579" id="-34484">
		<tag k="name" v="Økland" />
		<tag k="place" v="farm" />
		<tag k="ssr:stedsnr" v="263807" />
	</node>
	<node lat="59.713791668273196" lon="5.513044445868849" id="-34492">
		<tag k="name" v="Eidsvåg" />
		<tag k="place" v="farm" />
		<tag k="ssr:stedsnr" v="269692" />
	</node>
	<node lat="59.594122185459376" lon="5.445004248661199" id="-34517">
		<tag k="alt_name" v="Dronge" />
		<tag k="fixme" v="consider place=hamlet" />
		<tag k="name" v="Drange" />
		<tag k="place" v="farm" />
		<tag k="ssr:stedsnr" v="306781" />
	</node>
	<node lat="59.51796366819951" lon="5.354523062068191" id="-34524">
		<tag k="fixme" v="consider place=hamlet" />
		<tag k="name" v="Tveit" />
		<tag k="place" v="farm" />
		<tag k="ssr:stedsnr" v="307203" />
	</node>
	<node lat="59.57803356906425" lon="5.339776834401126" id="-34535">
		<tag k="fixme" v="consider place=hamlet" />
		<tag k="name" v="Grimstveit" />
		<tag k="place" v="farm" />
		<tag k="ssr:stedsnr" v="330068" />
	</node>
	<node lat="59.69992499840229" lon="5.485319436047408" id="-34554">
		<tag k="name" v="Valevåg" />
		<tag k="place" v="farm" />
		<tag k="ssr:stedsnr" v="367073" />
	</node>
	<node lat="59.59313513521113" lon="5.512726423768129" id="-34557">
		<tag k="alt_name" v="Røykenes" />
		<tag k="fixme" v="consider place=hamlet" />
		<tag k="name" v="Røykjenes" />
		<tag k="place" v="farm" />
		<tag k="ssr:stedsnr" v="367331" />
	</node>
	<node lat="59.58553073334368" lon="5.342262497061229" id="-34559">
		<tag k="fixme" v="consider place=hamlet" />
		<tag k="name" v="Lier" />
		<tag k="place" v="farm" />
		<tag k="ssr:stedsnr" v="367784" />
	</node>
	<node lat="59.6305722244376" lon="5.373355549158774" id="-34563">
		<tag k="name" v="Nyland" />
		<tag k="place" v="farm" />
		<tag k="ssr:stedsnr" v="390108" />
	</node>
	<node lat="59.63662778088519" lon="5.505944439532349" id="-34567">
		<tag k="name" v="Nygård" />
		<tag k="place" v="farm" />
		<tag k="ssr:stedsnr" v="390155" />
	</node>
	<node lat="59.66657520776173" lon="5.46944645721486" id="-34597">
		<tag k="alt_name" v="Berge" />
		<tag k="fixme" v="consider place=hamlet" />
		<tag k="name" v="Berget" />
		<tag k="place" v="farm" />
		<tag k="ssr:stedsnr" v="488010" />
	</node>
	<node lat="59.63980741095927" lon="5.389459936666026" id="-34619">
		<tag k="fixme" v="consider place=hamlet" />
		<tag k="name" v="Mjånes" />
		<tag k="place" v="farm" />
		<tag k="ssr:stedsnr" v="488936" />
	</node>
	<node lat="59.556333776636365" lon="5.437063390979537" id="-34625">
		<tag k="fixme" v="consider place=hamlet" />
		<tag k="name" v="Nese" />
		<tag k="place" v="farm" />
		<tag k="ssr:stedsnr" v="428166" />
	</node>
	<node lat="59.55994907320203" lon="5.507580586546067" id="-34631">
		<tag k="fixme" v="consider place=hamlet" />
		<tag k="name" v="Oa" />
		<tag k="place" v="farm" />
		<tag k="ssr:stedsnr" v="428313" />
	</node>
	<node lat="59.617230054305814" lon="5.357260674982384" id="-34633">
		<tag k="fixme" v="consider place=hamlet" />
		<tag k="name" v="Åsbu" />
		<tag k="old_name" v="Åsby" />
		<tag k="place" v="farm" />
		<tag k="ssr:stedsnr" v="428872" />
	</node>
	<node lat="59.52436188953545" lon="5.282613048211271" id="-34636">
		<tag k="name" v="Mølstre" />
		<tag k="place" v="hamlet" />
		<tag k="ssr:stedsnr" v="671079" />
	</node>
	<node lat="59.69169166772488" lon="5.473025001436556" id="-34638">
		<tag k="name" v="Teigen" />
		<tag k="place" v="farm" />
		<tag k="ssr:stedsnr" v="671091" />
	</node>
	<node lat="59.51918929918371" lon="5.25509095654084" id="-34641">
		<tag k="fixme" v="consider place=hamlet" />
		<tag k="name" v="Avløypet" />
		<tag k="place" v="farm" />
		<tag k="ssr:stedsnr" v="671183" />
	</node>
	<node lat="59.692550003755315" lon="5.479858338768052" id="-34654">
		<tag k="name" v="Valen" />
		<tag k="place" v="hamlet" />
		<tag k="ssr:stedsnr" v="451668" />
	</node>
	<node lat="59.71038333582502" lon="5.521419447326821" id="-34655">
		<tag k="name" v="Øyjorden" />
		<tag k="place" v="farm" />
		<tag k="ssr:stedsnr" v="451674" />
	</node>
	<node lat="59.59556384681579" lon="5.410609077403816" id="-34664">
=======
	<node id="-600543" lat="59.5732361086" lon="5.41493056367">
		<tag k="name" v="Nymark" />
		<tag k="place" v="farm" />
		<tag k="ssr:stedsnr" v="26079" />
	</node>
	<node id="-600542" lat="59.5235851646" lon="5.26815128864">
		<tag k="name" v="Capella" />
		<tag k="place" v="isolated_dwelling" />
		<tag k="ssr:stedsnr" v="25335" />
	</node>
	<node id="-600541" lat="59.6401063945" lon="5.38036948259">
		<tag k="name" v="Økland" />
		<tag k="place" v="farm" />
		<tag k="ssr:stedsnr" v="20777" />
	</node>
	<node id="-601052" lat="59.5563337766" lon="5.43706339098">
		<tag k="fixme" v="consider place=hamlet" />
		<tag k="name" v="Nese" />
		<tag k="place" v="farm" />
		<tag k="ssr:stedsnr" v="428166" />
	</node>
	<node id="-600024" lat="59.5153555559" lon="5.27855555277">
		<tag k="alt_name" v="Voll" />
		<tag k="name" v="Mølstrevoll" />
		<tag k="place" v="farm" />
		<tag k="ssr:stedsnr" v="511100" />
	</node>
	<node id="-600535" lat="59.6023059929" lon="5.33149095792">
		<tag k="fixme" v="consider place=hamlet" />
		<tag k="name" v="Lokna" />
		<tag k="place" v="farm" />
		<tag k="ssr:stedsnr" v="3848" />
	</node>
	<node id="-601045" lat="59.6994555572" lon="5.47241110425">
		<tag k="fixme" v="consider place=hamlet" />
		<tag k="name" v="Valevåg" />
		<tag k="place" v="village" />
		<tag k="ssr:stedsnr" v="428086" />
	</node>
	<node id="-600531" lat="59.568855557" lon="5.29034443592">
		<tag k="name" v="Nordbø" />
		<tag k="place" v="farm" />
		<tag k="ssr:stedsnr" v="3769" />
	</node>
	<node id="-600018" lat="59.6445944418" lon="5.38500277295">
		<tag k="name" v="Økland" />
		<tag k="place" v="farm" />
		<tag k="ssr:stedsnr" v="506803" />
	</node>
	<node id="-600017" lat="59.643394447" lon="5.37711666345">
		<tag k="name" v="Økland" />
		<tag k="place" v="farm" />
		<tag k="ssr:stedsnr" v="506802" />
	</node>
	<node id="-600528" lat="59.5457291374" lon="5.47804597682">
		<tag k="fixme" v="consider place=hamlet" />
		<tag k="name" v="Hovda" />
		<tag k="place" v="farm" />
		<tag k="ssr:stedsnr" v="3292" />
	</node>
	<node id="-600015" lat="59.5463521124" lon="5.41604546825">
		<tag k="name" v="Krossgot" />
		<tag k="place" v="farm" />
		<tag k="ssr:stedsnr" v="506001" />
	</node>
	<node id="-600513" lat="59.525308335" lon="5.34154443791">
		<tag k="name" v="Hokla" />
		<tag k="place" v="farm" />
		<tag k="ssr:stedsnr" v="3150" />
	</node>
	<node id="-601036" lat="59.6735833346" lon="5.46685277022">
		<tag k="fixme" v="consider place=hamlet" />
		<tag k="name" v="Valestrand" />
		<tag k="place" v="village" />
		<tag k="ssr:stedsnr" v="428059" />
	</node>
	<node id="-601035" lat="59.6934722191" lon="5.47849999421">
		<tag k="alt_name" v="Valebygdi" />
		<tag k="name" v="Valebygda" />
		<tag k="place" v="hamlet" />
		<tag k="ssr:stedsnr" v="428050" />
	</node>
	<node id="-601034" lat="59.6339280418" lon="5.4666117148">
		<tag k="alt_name" v="Viken;Vikjo" />
		<tag k="fixme" v="consider place=hamlet" />
		<tag k="name" v="Vika" />
		<tag k="place" v="farm" />
		<tag k="ssr:stedsnr" v="427800" />
	</node>
	<node id="-600796" lat="59.6436361079" lon="5.3856777791">
		<tag k="name" v="Økland" />
		<tag k="place" v="farm" />
		<tag k="ssr:stedsnr" v="203814" />
	</node>
	<node id="-600517" lat="59.5472412687" lon="5.4194076946">
		<tag k="fixme" v="consider place=hamlet" />
		<tag k="name" v="Krossgot" />
		<tag k="place" v="farm" />
		<tag k="ssr:stedsnr" v="3173" />
	</node>
	<node id="-600001" lat="59.6366277809" lon="5.50594443953">
		<tag k="name" v="Nygård" />
		<tag k="place" v="farm" />
		<tag k="ssr:stedsnr" v="390155" />
	</node>
	<node id="-600000" lat="59.6305722244" lon="5.37335554916">
		<tag k="name" v="Nyland" />
		<tag k="place" v="farm" />
		<tag k="ssr:stedsnr" v="390108" />
	</node>
	<node id="-599998" lat="59.5611916625" lon="5.41921944524">
		<tag k="name" v="Stølen" />
		<tag k="place" v="farm" />
		<tag k="ssr:stedsnr" v="390072" />
	</node>
	<node id="-600509" lat="59.5051194435" lon="5.40533888577">
		<tag k="alt_name" v="Båtsvik" />
		<tag k="name" v="Botsvik" />
		<tag k="place" v="farm" />
		<tag k="ssr:stedsnr" v="3135" />
	</node>
	<node id="-599995" lat="59.5483505927" lon="5.41213897388">
		<tag k="name" v="Krossgot" />
		<tag k="place" v="farm" />
		<tag k="ssr:stedsnr" v="384285" />
	</node>
	<node id="-600506" lat="59.7149256332" lon="5.50853995124">
		<tag k="alt_name" v="Haugsgjerde" />
		<tag k="fixme" v="consider place=hamlet" />
		<tag k="name" v="Haugsgjerd" />
		<tag k="place" v="farm" />
		<tag k="ssr:stedsnr" v="3108" />
	</node>
	<node id="-599992" lat="59.5444916648" lon="5.35698888628">
		<tag k="fixme" v="consider place=suburb, village or hamlet" />
		<tag k="name" v="Sveio" />
		<tag k="place" v="quarter" />
		<tag k="ssr:stedsnr" v="367167" />
	</node>
	<node id="-600414" lat="59.5497111093" lon="5.41005555015">
		<tag k="name" v="Lid" />
		<tag k="place" v="farm" />
		<tag k="ssr:stedsnr" v="936853" />
	</node>
	<node id="-600502" lat="59.6797166663" lon="5.53357777399">
		<tag k="alt_name" v="Bjørgi;Bjørgen" />
		<tag k="name" v="Bjørga" />
		<tag k="place" v="farm" />
		<tag k="ssr:stedsnr" v="3034" />
	</node>
	<node id="-599988" lat="59.639807411" lon="5.38945993667">
		<tag k="fixme" v="consider place=hamlet" />
		<tag k="name" v="Mjånes" />
		<tag k="place" v="farm" />
		<tag k="ssr:stedsnr" v="488936" />
	</node>
	<node id="-600496" lat="59.5481268646" lon="5.5119140749">
		<tag k="fixme" v="consider place=hamlet" />
		<tag k="name" v="Oaneset" />
		<tag k="place" v="farm" />
		<tag k="ssr:stedsnr" v="990316" />
	</node>
	<node id="-600495" lat="59.5752578965" lon="5.40787837491">
		<tag k="fixme" v="consider place=hamlet" />
		<tag k="name" v="Tveitali" />
		<tag k="place" v="farm" />
		<tag k="ssr:stedsnr" v="990312" />
	</node>
	<node id="-600494" lat="59.5079481316" lon="5.35396781277">
		<tag k="fixme" v="consider place=hamlet" />
		<tag k="name" v="Gilje" />
		<tag k="place" v="farm" />
		<tag k="ssr:stedsnr" v="990311" />
	</node>
	<node id="-600493" lat="59.5960509523" lon="5.32258113698">
		<tag k="fixme" v="consider place=hamlet" />
		<tag k="name" v="Bua" />
		<tag k="place" v="farm" />
		<tag k="ssr:stedsnr" v="990308" />
	</node>
	<node id="-600492" lat="59.626125816" lon="5.33433663201">
		<tag k="fixme" v="consider place=hamlet" />
		<tag k="name" v="Tjernagelsholmen" />
		<tag k="place" v="farm" />
		<tag k="ssr:stedsnr" v="990307" />
	</node>
	<node id="-600491" lat="59.6323939599" lon="5.37296454537">
		<tag k="fixme" v="consider place=hamlet" />
		<tag k="name" v="Øklandsvåg" />
		<tag k="place" v="farm" />
		<tag k="ssr:stedsnr" v="990306" />
	</node>
	<node id="-600490" lat="59.6815198108" lon="5.53504716831">
>>>>>>> e1d4bc35ff8a6074a6f2e91616a996b547c36f15
		<tag k="fixme" v="consider place=hamlet" />
		<tag k="name" v="Ravneberg" />
		<tag k="place" v="farm" />
		<tag k="ssr:stedsnr" v="990301" />
	</node>
<<<<<<< HEAD
	<node lat="59.6181611050999" lon="5.5190358118938345" id="-34668">
		<tag k="alt_name" v="Loen" />
		<tag k="name" v="Lunden" />
		<tag k="place" v="farm" />
		<tag k="ssr:stedsnr" v="488405" />
	</node>
	<node lat="59.582633337583054" lon="5.525205563923702" id="-34672">
		<tag k="name" v="Breidvik" />
		<tag k="place" v="farm" />
		<tag k="ssr:stedsnr" v="488345" />
	</node>
	<node lat="59.664953916227915" lon="5.454296357983128" id="-34678">
		<tag k="alt_name" v="Rinden" />
		<tag k="fixme" v="consider place=hamlet" />
		<tag k="name" v="Rindo" />
		<tag k="place" v="farm" />
		<tag k="ssr:stedsnr" v="488901" />
	</node>
	<node lat="59.55233971456286" lon="5.496446524632029" id="-34680">
		<tag k="fixme" v="consider place=hamlet" />
		<tag k="name" v="Erve" />
		<tag k="place" v="farm" />
		<tag k="ssr:stedsnr" v="489336" />
	</node>
	<node lat="59.64339444699046" lon="5.377116663448967" id="-34681">
		<tag k="name" v="Økland" />
		<tag k="place" v="farm" />
		<tag k="ssr:stedsnr" v="506802" />
	</node>
	<node lat="59.644594441801274" lon="5.385002772949232" id="-34682">
		<tag k="name" v="Økland" />
		<tag k="place" v="farm" />
		<tag k="ssr:stedsnr" v="506803" />
	</node>
	<node lat="59.5153555559385" lon="5.278555552770472" id="-34686">
		<tag k="alt_name" v="Voll" />
		<tag k="name" v="Mølstrevoll" />
		<tag k="place" v="farm" />
		<tag k="ssr:stedsnr" v="511100" />
	</node>
	<node lat="59.4983585874092" lon="5.258731957965156" id="-34703">
		<tag k="fixme" v="consider place=hamlet" />
		<tag k="name" v="Straumen" />
		<tag k="place" v="farm" />
		<tag k="ssr:stedsnr" v="548724" />
	</node>
	<node lat="59.56086519744692" lon="5.28573220920457" id="-34714">
		<tag k="fixme" v="consider place=hamlet" />
		<tag k="name" v="Eltravåg" />
		<tag k="place" v="farm" />
		<tag k="ssr:stedsnr" v="549224" />
	</node>
	<node lat="59.538614069018685" lon="5.2812657782358645" id="-34715">
		<tag k="alt_name" v="Vandeskog" />
		<tag k="fixme" v="consider place=hamlet" />
		<tag k="name" v="Vandaskog" />
		<tag k="place" v="farm" />
		<tag k="ssr:stedsnr" v="549200" />
	</node>
	<node lat="59.60859009158118" lon="5.48288201061721" id="-34717">
		<tag k="fixme" v="consider place=hamlet" />
		<tag k="name" v="Myklevoll" />
		<tag k="place" v="farm" />
		<tag k="ssr:stedsnr" v="549416" />
	</node>
	<node lat="59.648119444708385" lon="5.393727778245792" id="-34723">
		<tag k="name" v="Økland" />
		<tag k="place" v="farm" />
		<tag k="ssr:stedsnr" v="688760" />
	</node>
	<node lat="59.64334166444324" lon="5.389461116458759" id="-34724">
		<tag k="name" v="Økland" />
		<tag k="place" v="farm" />
		<tag k="ssr:stedsnr" v="688765" />
	</node>
	<node lat="59.68747499633942" lon="5.4793972310173045" id="-34728">
		<tag k="name" v="Stølen" />
		<tag k="place" v="farm" />
		<tag k="ssr:stedsnr" v="693601" />
	</node>
	<node lat="59.57712222506885" lon="5.343980556069992" id="-34738">
		<tag k="name" v="Lyngstad" />
		<tag k="place" v="farm" />
		<tag k="ssr:stedsnr" v="572618" />
	</node>
	<node lat="59.49582778111371" lon="5.267549998563709" id="-34743">
		<tag k="alt_name" v="Straumsvoll" />
		<tag k="fixme" v="consider place=hamlet" />
		<tag k="name" v="Strømsvoll" />
		<tag k="place" v="farm" />
		<tag k="ssr:stedsnr" v="572710" />
	</node>
	<node lat="59.53370555620014" lon="5.390850006609623" id="-34747">
		<tag k="alt_name" v="Apeland søndre" />
		<tag k="fixme" v="consider place=hamlet" />
		<tag k="name" v="Søre Apeland" />
		<tag k="place" v="farm" />
		<tag k="ssr:stedsnr" v="572899" />
	</node>
	<node lat="59.65957778115059" lon="5.523547221955768" id="-34755">
		<tag k="name" v="Slettvika" />
		<tag k="place" v="farm" />
		<tag k="ssr:stedsnr" v="694185" />
	</node>
	<node lat="59.550313885546714" lon="5.49428888403833" id="-34773">
		<tag k="name" v="Erve" />
		<tag k="place" v="farm" />
		<tag k="ssr:stedsnr" v="694831" />
	</node>
	<node lat="59.56366666512691" lon="5.28995834012971" id="-34784">
		<tag k="name" v="Leite" />
		<tag k="place" v="farm" />
		<tag k="ssr:stedsnr" v="609216" />
	</node>
	<node lat="59.5420931822196" lon="5.418131348443027" id="-34786">
		<tag k="name" v="Bråtveit" />
		<tag k="place" v="hamlet" />
		<tag k="ssr:stedsnr" v="609193" />
	</node>
	<node lat="59.64854676937602" lon="5.4772482624620356" id="-34789">
		<tag k="fixme" v="consider place=hamlet" />
		<tag k="name" v="Hope" />
		<tag k="place" v="farm" />
		<tag k="ssr:stedsnr" v="609469" />
	</node>
	<node lat="59.64577834455601" lon="5.517685836273839" id="-34790">
		<tag k="fixme" v="consider place=hamlet" />
		<tag k="name" v="Staupe" />
		<tag k="place" v="farm" />
		<tag k="ssr:stedsnr" v="609471" />
	</node>
	<node lat="59.632437467380946" lon="5.360138314988754" id="-34794">
		<tag k="alt_name" v="Li;Lien" />
		<tag k="fixme" v="consider place=hamlet" />
		<tag k="name" v="Lia" />
		<tag k="place" v="farm" />
		<tag k="ssr:stedsnr" v="609817" />
	</node>
	<node lat="59.70317827937136" lon="5.484698712787559" id="-34796">
		<tag k="alt_name" v="Einstapavoll;Einstapvoll" />
		<tag k="fixme" v="consider place=hamlet" />
		<tag k="name" v="Einstabøvoll" />
		<tag k="place" v="farm" />
		<tag k="ssr:stedsnr" v="610098" />
	</node>
	<node lat="59.71462499651473" lon="5.508194442123971" id="-34814">
		<tag k="fixme" v="consider place=hamlet" />
		<tag k="name" v="Tittelsnes" />
		<tag k="place" v="village" />
		<tag k="ssr:stedsnr" v="632981" />
	</node>
	<node lat="59.5234287066581" lon="5.253220364765608" id="-34834">
		<tag k="alt_name" v="Mølstrevågnes" />
		<tag k="fixme" v="consider place=hamlet" />
		<tag k="name" v="Mølstrevåg" />
		<tag k="old_name" v="Mølstrevågsnes" />
		<tag k="place" v="farm" />
		<tag k="ssr:stedsnr" v="670175" />
	</node>
	<node lat="59.66124824313426" lon="5.454583110212233" id="-34837">
		<tag k="alt_name" v="Ørevik;Ørvik" />
		<tag k="fixme" v="consider place=hamlet" />
		<tag k="name" v="Ørevika" />
		<tag k="place" v="farm" />
		<tag k="ssr:stedsnr" v="670903" />
	</node>
	<node lat="59.68524722307356" lon="5.476786118591847" id="-34842">
		<tag k="name" v="Økland" />
		<tag k="place" v="farm" />
		<tag k="ssr:stedsnr" v="693675" />
	</node>
	<node lat="59.52433888690657" lon="5.456569441677773" id="-34844">
		<tag k="name" v="Mælen" />
=======
	<node id="-600489" lat="59.653998447" lon="5.46879299185">
		<tag k="name" v="Lunde" />
		<tag k="place" v="farm" />
		<tag k="ssr:stedsnr" v="983469" />
	</node>
	<node id="-600995" lat="59.502174972" lon="5.36563933179">
		<tag k="alt_name" v="Lindøy" />
		<tag k="fixme" v="consider place=hamlet" />
		<tag k="name" v="Lindøya" />
		<tag k="place" v="farm" />
		<tag k="ssr:stedsnr" v="390128" />
	</node>
	<node id="-599968" lat="59.6181611051" lon="5.51903581189">
		<tag k="alt_name" v="Loen" />
		<tag k="name" v="Lunden" />
		<tag k="place" v="farm" />
		<tag k="ssr:stedsnr" v="488405" />
	</node>
	<node id="-600478" lat="59.6417795625" lon="5.45272966967">
		<tag k="fixme" v="consider place=hamlet" />
		<tag k="name" v="Lindås" />
		<tag k="place" v="farm" />
		<tag k="ssr:stedsnr" v="936422" />
	</node>
	<node id="-599964" lat="59.5826333376" lon="5.52520556392">
		<tag k="name" v="Breidvik" />
		<tag k="place" v="farm" />
		<tag k="ssr:stedsnr" v="488345" />
	</node>
	<node id="-601039" lat="59.6889900756" lon="5.47376280114">
		<tag k="fixme" v="consider place=hamlet" />
		<tag k="name" v="Tveita" />
		<tag k="place" v="farm" />
		<tag k="ssr:stedsnr" v="428081" />
	</node>
	<node id="-600016" lat="59.6456111152" lon="5.37498054645">
		<tag k="name" v="Økland" />
		<tag k="place" v="farm" />
		<tag k="ssr:stedsnr" v="506754" />
	</node>
	<node id="-600470" lat="59.6433111109" lon="5.38380555979">
		<tag k="name" v="Økland" />
		<tag k="place" v="farm" />
		<tag k="ssr:stedsnr" v="931825" />
	</node>
	<node id="-600980" lat="59.6738041736" lon="5.45712887653">
		<tag k="alt_name" v="Haugeland" />
		<tag k="fixme" v="consider place=hamlet" />
		<tag k="name" v="Haugland" />
		<tag k="place" v="farm" />
		<tag k="ssr:stedsnr" v="367974" />
	</node>
	<node id="-600467" lat="59.5563222193" lon="5.411513887">
		<tag k="name" v="Liagjerdet" />
		<tag k="place" v="farm" />
		<tag k="ssr:stedsnr" v="876038" />
	</node>
	<node id="-600834" lat="59.4984777739" lon="5.28935555833">
		<tag k="historic" v="shieling" />
		<tag k="name" v="Høgestølen" />
		<tag k="place" v="locality" />
		<tag k="ssr:stedsnr" v="208704" />
	</node>
	<node id="-600462" lat="59.6352555564" lon="5.50593333462">
		<tag k="name" v="Bårvåg" />
		<tag k="place" v="farm" />
		<tag k="ssr:stedsnr" v="853470" />
	</node>
	<node id="-600973" lat="59.5855307333" lon="5.34226249706">
		<tag k="fixme" v="consider place=hamlet" />
		<tag k="name" v="Lier" />
		<tag k="place" v="farm" />
		<tag k="ssr:stedsnr" v="367784" />
	</node>
	<node id="-600459" lat="59.5740312503" lon="5.52628681517">
		<tag k="fixme" v="consider place=hamlet" />
		<tag k="name" v="Framnes" />
		<tag k="place" v="farm" />
		<tag k="ssr:stedsnr" v="853357" />
	</node>
	<node id="-600203" lat="59.6411231876" lon="5.37713466945">
		<tag k="name" v="Økland" />
		<tag k="place" v="farm" />
		<tag k="ssr:stedsnr" v="627826" />
	</node>
	<node id="-600454" lat="59.6997055528" lon="5.47317776961">
		<tag k="alt_name" v="Vatna" />
		<tag k="name" v="Vatne" />
		<tag k="place" v="isolated_dwelling" />
		<tag k="ssr:stedsnr" v="853068" />
	</node>
	<node id="-600385" lat="59.6620500026" lon="5.45201666664">
		<tag k="name" v="Ørevik" />
		<tag k="place" v="farm" />
		<tag k="ssr:stedsnr" v="815215" />
	</node>
	<node id="-600964" lat="59.6388375389" lon="5.51213110415">
		<tag k="alt_name" v="Espenes" />
		<tag k="fixme" v="consider place=hamlet" />
		<tag k="name" v="Øspenes" />
		<tag k="place" v="farm" />
		<tag k="ssr:stedsnr" v="367411" />
	</node>
	<node id="-600961" lat="59.5931351352" lon="5.51272642377">
		<tag k="alt_name" v="Røykenes" />
		<tag k="fixme" v="consider place=hamlet" />
		<tag k="name" v="Røykjenes" />
		<tag k="place" v="farm" />
		<tag k="ssr:stedsnr" v="367331" />
	</node>
	<node id="-600957" lat="59.52919741" lon="5.50517679829">
		<tag k="alt_name" v="Buvik" />
		<tag k="fixme" v="consider place=hamlet" />
		<tag k="name" v="Buavik" />
		<tag k="place" v="farm" />
		<tag k="ssr:stedsnr" v="367237" />
	</node>
	<node id="-600298" lat="59.5243388869" lon="5.45656944168">
		<tag k="name" v="Mælen" />
		<tag k="place" v="farm" />
		<tag k="ssr:stedsnr" v="694078" />
	</node>
	<node id="-600949" lat="59.6999249984" lon="5.48531943605">
		<tag k="name" v="Valevåg" />
		<tag k="place" v="farm" />
		<tag k="ssr:stedsnr" v="367073" />
	</node>
	<node id="-600948" lat="59.7047305592" lon="5.48127499949">
		<tag k="name" v="Træ" />
		<tag k="place" v="farm" />
		<tag k="ssr:stedsnr" v="367069" />
	</node>
	<node id="-599914" lat="59.6545000023" lon="5.43593055564">
		<tag k="historic" v="shieling" />
		<tag k="name" v="Høgestølen" />
		<tag k="place" v="locality" />
		<tag k="ssr:stedsnr" v="451848" />
	</node>
	<node id="-600807" lat="59.5255222179" lon="5.27113610861">
		<tag k="name" v="Torvhaugen" />
		<tag k="place" v="farm" />
		<tag k="ssr:stedsnr" v="208106" />
	</node>
	<node id="-600424" lat="59.5341249969" lon="5.46668332876">
		<tag k="alt_name" v="Risvik" />
		<tag k="name" v="Risvika" />
		<tag k="place" v="farm" />
		<tag k="ssr:stedsnr" v="936991" />
	</node>
	<node id="-600933" lat="59.5150990842" lon="5.26903036354">
		<tag k="fixme" v="consider place=hamlet" />
		<tag k="name" v="Neset" />
		<tag k="place" v="farm" />
		<tag k="ssr:stedsnr" v="330583" />
	</node>
	<node id="-600420" lat="59.6177277801" lon="5.42332499632">
		<tag k="name" v="Fagerland" />
		<tag k="place" v="farm" />
		<tag k="ssr:stedsnr" v="936946" />
	</node>
	<node id="-600294" lat="59.6852472231" lon="5.47678611859">
		<tag k="name" v="Økland" />
		<tag k="place" v="farm" />
		<tag k="ssr:stedsnr" v="693675" />
	</node>
	<node id="-599906" lat="59.6925500038" lon="5.47985833877">
		<tag k="name" v="Valen" />
		<tag k="place" v="hamlet" />
		<tag k="ssr:stedsnr" v="451668" />
	</node>
	<node id="-600927" lat="59.5077555593" lon="5.27869722402">
		<tag k="name" v="Skålaskog" />
		<tag k="place" v="farm" />
		<tag k="ssr:stedsnr" v="330100" />
	</node>
	<node id="-600926" lat="59.5732194416" lon="5.41167500022">
		<tag k="name" v="Norheim" />
		<tag k="place" v="farm" />
		<tag k="ssr:stedsnr" v="330089" />
	</node>
	<node id="-600719" lat="59.6467360027" lon="5.3857185518">
		<tag k="name" v="Økland" />
>>>>>>> e1d4bc35ff8a6074a6f2e91616a996b547c36f15
		<tag k="place" v="farm" />
		<tag k="ssr:stedsnr" v="694078" />
	</node>
<<<<<<< HEAD
	<node lat="59.50596689475344" lon="5.278728308892901" id="-34867">
		<tag k="fixme" v="consider place=hamlet" />
		<tag k="name" v="Skålaskog" />
		<tag k="place" v="farm" />
		<tag k="ssr:stedsnr" v="731115" />
	</node>
	<node lat="59.70035833702529" lon="5.463866669510198" id="-34878">
		<tag k="name" v="Nappen" />
		<tag k="place" v="farm" />
		<tag k="ssr:stedsnr" v="731969" />
	</node>
	<node lat="59.668942034141885" lon="5.5291287713659765" id="-34903">
		<tag k="alt_name" v="Haugsbø" />
=======
	<node id="-600920" lat="59.5969166667" lon="5.32108055657">
		<tag k="loc_name" v="Buavågen" />
		<tag k="name" v="Buavåg" />
		<tag k="place" v="hamlet" />
		<tag k="ssr:stedsnr" v="330151" />
	</node>
	<node id="-600889" lat="59.5418110317" lon="5.34915391324">
		<tag k="name" v="Vigdarheim" />
		<tag k="place" v="farm" />
		<tag k="ssr:stedsnr" v="324800" />
	</node>
	<node id="-600405" lat="59.522991669" lon="5.25728889214">
		<tag k="name" v="Laberget" />
		<tag k="place" v="farm" />
		<tag k="ssr:stedsnr" v="936102" />
	</node>
	<node id="-599892" lat="59.5281083347" lon="5.28431665893">
		<tag k="historic" v="shieling" />
		<tag k="name" v="Sumarstølen" />
		<tag k="place" v="locality" />
		<tag k="ssr:stedsnr" v="451523" />
	</node>
	<node id="-600206" lat="59.4861472233" lon="5.30953332579">
>>>>>>> e1d4bc35ff8a6074a6f2e91616a996b547c36f15
		<tag k="fixme" v="consider place=hamlet" />
		<tag k="name" v="Hausbu" />
		<tag k="place" v="farm" />
		<tag k="ssr:stedsnr" v="792003" />
	</node>
<<<<<<< HEAD
	<node lat="59.61335262958352" lon="5.4776126919794725" id="-34909">
		<tag k="fixme" v="consider place=hamlet" />
		<tag k="name" v="Solheim" />
		<tag k="place" v="farm" />
		<tag k="ssr:stedsnr" v="792410" />
	</node>
	<node lat="59.70963611552171" lon="5.510111116127229" id="-34911">
		<tag k="name" v="Haugane" />
=======
	<node id="-600911" lat="59.5780335691" lon="5.3397768344">
		<tag k="fixme" v="consider place=hamlet" />
		<tag k="name" v="Grimstveit" />
		<tag k="place" v="farm" />
		<tag k="ssr:stedsnr" v="330068" />
	</node>
	<node id="-599949" lat="59.512672223" lon="5.32735000485">
		<tag k="name" v="Kvernaneset" />
>>>>>>> e1d4bc35ff8a6074a6f2e91616a996b547c36f15
		<tag k="place" v="farm" />
		<tag k="ssr:stedsnr" v="913080" />
	</node>
<<<<<<< HEAD
	<node lat="59.53137777749346" lon="5.468927769196482" id="-34914">
		<tag k="name" v="Gardvik" />
=======
	<node id="-599884" lat="59.4838583374" lon="5.3035472151">
		<tag k="name" v="Treshaugen" />
		<tag k="place" v="farm" />
		<tag k="ssr:stedsnr" v="451239" />
	</node>
	<node id="-600546" lat="59.497472221" lon="5.29192500541">
		<tag k="alt_name" v="Vikse austre" />
		<tag k="name" v="Austre Vikse" />
>>>>>>> e1d4bc35ff8a6074a6f2e91616a996b547c36f15
		<tag k="place" v="farm" />
		<tag k="ssr:stedsnr" v="913279" />
	</node>
<<<<<<< HEAD
	<node lat="59.50178888979717" lon="5.325738889599026" id="-34923">
		<tag k="name" v="Børkjeland" />
=======
	<node id="-600906" lat="59.5538138859" lon="5.39621110704">
		<tag k="name" v="Nyland" />
		<tag k="place" v="farm" />
		<tag k="ssr:stedsnr" v="330027" />
	</node>
	<node id="-599863" lat="59.7181256511" lon="5.50546839489">
		<tag k="fixme" v="consider place=hamlet" />
		<tag k="name" v="Hauge" />
>>>>>>> e1d4bc35ff8a6074a6f2e91616a996b547c36f15
		<tag k="place" v="farm" />
		<tag k="ssr:stedsnr" v="914093" />
	</node>
<<<<<<< HEAD
	<node lat="59.56602500040028" lon="5.288511102950056" id="-34925">
		<tag k="alt_name" v="Årstad" />
		<tag k="name" v="Austbø" />
		<tag k="place" v="farm" />
		<tag k="ssr:stedsnr" v="914786" />
	</node>
	<node lat="59.53465555148372" lon="5.339558330901426" id="-34928">
		<tag k="name" v="Krossleitet" />
		<tag k="place" v="quarter" />
		<tag k="ssr:stedsnr" v="809172" />
	</node>
	<node lat="59.66205000257541" lon="5.452016666643664" id="-34930">
		<tag k="name" v="Ørevik" />
		<tag k="place" v="farm" />
		<tag k="ssr:stedsnr" v="815215" />
	</node>
	<node lat="59.7172493025919" lon="5.511265736703938" id="-34935">
		<tag k="fixme" v="consider place=hamlet" />
		<tag k="name" v="Gramshaug" />
		<tag k="place" v="farm" />
		<tag k="ssr:stedsnr" v="815612" />
	</node>
	<node lat="59.71744116850582" lon="5.50752342303706" id="-34936">
		<tag k="name" v="Snørehaugen" />
		<tag k="place" v="farm" />
		<tag k="ssr:stedsnr" v="815615" />
	</node>
	<node lat="59.696866670026424" lon="5.467350000823102" id="-34949">
		<tag k="alt_name" v="Buneset" />
		<tag k="name" v="Bunes" />
		<tag k="place" v="farm" />
		<tag k="ssr:stedsnr" v="853971" />
	</node>
	<node lat="59.64331111093281" lon="5.38380555978915" id="-34952">
		<tag k="name" v="Økland" />
		<tag k="place" v="farm" />
		<tag k="ssr:stedsnr" v="931825" />
	</node>
	<node lat="59.55282076883125" lon="5.392640805138975" id="-34981">
		<tag k="fixme" v="consider place=hamlet" />
		<tag k="name" v="Bjelland" />
		<tag k="place" v="farm" />
		<tag k="ssr:stedsnr" v="913232" />
	</node>
	<node lat="59.522991668987345" lon="5.257288892144156" id="-34993">
		<tag k="name" v="Laberget" />
		<tag k="place" v="farm" />
		<tag k="ssr:stedsnr" v="936102" />
	</node>
	<node lat="59.65399844703812" lon="5.46879299184805" id="-35014">
		<tag k="name" v="Lunde" />
		<tag k="place" v="farm" />
		<tag k="ssr:stedsnr" v="983469" />
	</node>
	<node lat="59.54572913735003" lon="5.478045976824729" id="-35019">
		<tag k="fixme" v="consider place=hamlet" />
		<tag k="name" v="Hovda" />
		<tag k="place" v="farm" />
		<tag k="ssr:stedsnr" v="3292" />
	</node>
	<node lat="59.50511944346418" lon="5.405338885765336" id="-35021">
		<tag k="alt_name" v="Båtsvik" />
		<tag k="name" v="Botsvik" />
		<tag k="place" v="farm" />
		<tag k="ssr:stedsnr" v="3135" />
	</node>
	<node lat="59.52530833495626" lon="5.341544437907697" id="-35025">
		<tag k="name" v="Hokla" />
		<tag k="place" v="farm" />
		<tag k="ssr:stedsnr" v="3150" />
	</node>
	<node lat="59.54724126874006" lon="5.419407694600487" id="-35029">
		<tag k="fixme" v="consider place=hamlet" />
		<tag k="name" v="Krossgot" />
=======
	<node id="-600900" lat="59.5558249972" lon="5.33746944615">
		<tag k="name" v="Nygård" />
		<tag k="place" v="farm" />
		<tag k="ssr:stedsnr" v="329590" />
	</node>
	<node id="-599875" lat="59.5781583305" lon="5.52862499515">
		<tag k="name" v="Rabben" />
		<tag k="place" v="farm" />
		<tag k="ssr:stedsnr" v="246354" />
	</node>
	<node id="-601409" lat="59.608337292" lon="5.47872591498">
		<tag k="fixme" v="consider place=hamlet" />
		<tag k="name" v="Førde" />
		<tag k="place" v="farm" />
		<tag k="ssr:stedsnr" v="990323" />
	</node>
	<node id="-601408" lat="59.6369936376" lon="5.51098825956">
		<tag k="fixme" v="consider place=hamlet" />
		<tag k="name" v="Haugen" />
		<tag k="place" v="farm" />
		<tag k="ssr:stedsnr" v="990321" />
	</node>
	<node id="-601407" lat="59.5896873413" lon="5.44248257523">
		<tag k="name" v="Balsvik" />
		<tag k="place" v="locality" />
		<tag k="ssr:stedsnr" v="989764" />
	</node>
	<node id="-600381" lat="59.5485386302" lon="5.27219842916">
		<tag k="fixme" v="consider place=hamlet" />
		<tag k="name" v="Rødmyr" />
		<tag k="place" v="farm" />
		<tag k="ssr:stedsnr" v="815115" />
	</node>
	<node id="-600892" lat="59.6438277782" lon="5.38618889587">
		<tag k="name" v="Økland" />
		<tag k="place" v="farm" />
		<tag k="ssr:stedsnr" v="324809" />
	</node>
	<node id="-600891" lat="59.6394591532" lon="5.37999566458">
		<tag k="name" v="Økland" />
		<tag k="place" v="farm" />
		<tag k="ssr:stedsnr" v="324808" />
	</node>
	<node id="-600890" lat="59.635013888" lon="5.37751666184">
		<tag k="name" v="Økland" />
		<tag k="place" v="farm" />
		<tag k="ssr:stedsnr" v="324801" />
	</node>
	<node id="-600377" lat="59.5745068155" lon="5.35793681577">
		<tag k="fixme" v="consider place=hamlet" />
		<tag k="name" v="Færås" />
		<tag k="place" v="farm" />
		<tag k="ssr:stedsnr" v="792766" />
	</node>
	<node id="-600375" lat="59.5742568621" lon="5.44287295691">
		<tag k="fixme" v="consider place=hamlet" />
		<tag k="name" v="Moldbrekka" />
		<tag k="place" v="farm" />
		<tag k="ssr:stedsnr" v="792215" />
	</node>
	<node id="-599862" lat="59.7185499972" lon="5.51265277928">
		<tag k="alt_name" v="Træ" />
		<tag k="name" v="Træet" />
		<tag k="place" v="farm" />
		<tag k="ssr:stedsnr" v="185111" />
	</node>
	<node id="-600885" lat="59.5179636682" lon="5.35452306207">
		<tag k="fixme" v="consider place=hamlet" />
		<tag k="name" v="Tveit" />
		<tag k="place" v="farm" />
		<tag k="ssr:stedsnr" v="307203" />
	</node>
	<node id="-599774" lat="59.7162935561" lon="5.51925675402">
		<tag k="fixme" v="consider place=hamlet" />
		<tag k="name" v="Eidsvåg" />
		<tag k="place" v="farm" />
		<tag k="ssr:stedsnr" v="246109" />
	</node>
	<node id="-601394" lat="59.5648944418" lon="5.3169972289">
		<tag k="name" v="Vierdalen" />
		<tag k="place" v="farm" />
		<tag k="ssr:stedsnr" v="876088" />
	</node>
	<node id="-600200" lat="59.6530194487" lon="5.46624722908">
		<tag k="name" v="Teigen" />
>>>>>>> e1d4bc35ff8a6074a6f2e91616a996b547c36f15
		<tag k="place" v="farm" />
		<tag k="ssr:stedsnr" v="3173" />
	</node>
<<<<<<< HEAD
	<node lat="59.60230599287563" lon="5.331490957923688" id="-35041">
		<tag k="fixme" v="consider place=hamlet" />
		<tag k="name" v="Lokna" />
=======
	<node id="-601390" lat="59.6461555555" lon="5.39183333719">
		<tag k="name" v="Økland" />
>>>>>>> e1d4bc35ff8a6074a6f2e91616a996b547c36f15
		<tag k="place" v="farm" />
		<tag k="ssr:stedsnr" v="870752" />
	</node>
<<<<<<< HEAD
	<node lat="59.64010639446541" lon="5.3803694825883905" id="-35043">
		<tag k="name" v="Økland" />
		<tag k="place" v="farm" />
		<tag k="ssr:stedsnr" v="20777" />
	</node>
	<node lat="59.523585164569354" lon="5.268151288643353" id="-35044">
		<tag k="name" v="Capella" />
		<tag k="place" v="isolated_dwelling" />
		<tag k="ssr:stedsnr" v="25335" />
	</node>
	<node lat="59.57323610862136" lon="5.414930563665624" id="-35051">
		<tag k="name" v="Nymark" />
		<tag k="place" v="farm" />
		<tag k="ssr:stedsnr" v="26079" />
	</node>
	<node lat="59.52589999771398" lon="5.276844445520186" id="-35061">
		<tag k="alt_name" v="Nordre Mylstre;Mølstre, nordre" />
		<tag k="fixme" v="consider place=hamlet" />
		<tag k="name" v="Nordre Mølstre" />
		<tag k="place" v="farm" />
		<tag k="ssr:stedsnr" v="26533" />
	</node>
	<node lat="59.547849997637684" lon="5.409544449315741" id="-35069">
		<tag k="name" v="Bruarvoll" />
		<tag k="place" v="farm" />
		<tag k="ssr:stedsnr" v="26840" />
	</node>
	<node lat="59.52582777434802" lon="5.440836108528025" id="-35079">
		<tag k="historic" v="shieling" />
		<tag k="name" v="Stølane" />
		<tag k="place" v="isolated_dwelling" />
		<tag k="ssr:stedsnr" v="26941" />
	</node>
	<node lat="59.55919722580562" lon="5.372394452430638" id="-35085">
		<tag k="leisure" v="pitch" />
		<tag k="name" v="Haugaland Golfbane" />
		<tag k="ssr:stedsnr" v="56352" />
	</node>
	<node lat="59.49991388462055" lon="5.454247217059765" id="-35096">
		<tag k="alt_name" v="Grunnavåg" />
		<tag k="name" v="Grunnavågen" />
		<tag k="place" v="farm" />
		<tag k="ssr:stedsnr" v="63685" />
	</node>
	<node lat="59.54712500291765" lon="5.457122214840056" id="-35105">
		<tag k="name" v="Bakken" />
		<tag k="place" v="farm" />
		<tag k="ssr:stedsnr" v="64195" />
	</node>
	<node lat="59.537341667553726" lon="5.339530559205692" id="-35114">
		<tag k="name" v="Fjellstad" />
		<tag k="place" v="quarter" />
		<tag k="ssr:stedsnr" v="81171" />
	</node>
	<node lat="59.64037320679378" lon="5.37765258395084" id="-35115">
		<tag k="name" v="Økland" />
		<tag k="place" v="farm" />
		<tag k="ssr:stedsnr" v="81758" />
	</node>
	<node lat="59.53566110770759" lon="5.28343611333898" id="-35122">
		<tag k="name" v="Stemhaug" />
		<tag k="place" v="farm" />
		<tag k="ssr:stedsnr" v="87070" />
	</node>
	<node lat="59.66422500121323" lon="5.467322224250546" id="-35135">
		<tag k="name" v="Hamrabrotet" />
		<tag k="place" v="farm" />
		<tag k="ssr:stedsnr" v="87861" />
	</node>
	<node lat="59.49711029841216" lon="5.398627889526462" id="-35151">
		<tag k="fixme" v="consider place=hamlet" />
		<tag k="name" v="Eilerås" />
		<tag k="place" v="farm" />
		<tag k="ssr:stedsnr" v="123728" />
	</node>
	<node lat="59.52684240994895" lon="5.402207823978656" id="-35156">
		<tag k="alt_name" v="Dyngen" />
		<tag k="fixme" v="consider place=hamlet" />
		<tag k="name" v="Dyngjo" />
		<tag k="place" v="farm" />
		<tag k="ssr:stedsnr" v="124158" />
	</node>
	<node lat="59.54851110817662" lon="5.3435583389685135" id="-35159">
		<tag k="name" v="Åse" />
		<tag k="place" v="farm" />
		<tag k="ssr:stedsnr" v="124198" />
	</node>
	<node lat="59.606691665675655" lon="5.5193833414598545" id="-35164">
		<tag k="name" v="Bulvik" />
		<tag k="place" v="farm" />
		<tag k="ssr:stedsnr" v="124361" />
	</node>
	<node lat="59.63305974640597" lon="5.410051969157511" id="-35175">
		<tag k="name" v="Eikeland" />
		<tag k="place" v="hamlet" />
		<tag k="ssr:stedsnr" v="124818" />
	</node>
	<node lat="59.647313888593295" lon="5.451400008297297" id="-35177">
		<tag k="name" v="Lindås" />
		<tag k="place" v="farm" />
		<tag k="ssr:stedsnr" v="124894" />
	</node>
	<node lat="59.54163139376212" lon="5.349098651366582" id="-35182">
		<tag k="name" v="Vigdarheim" />
		<tag k="place" v="farm" />
		<tag k="ssr:stedsnr" v="141779" />
	</node>
	<node lat="59.64252499648055" lon="5.381036109078954" id="-35183">
		<tag k="name" v="Økland" />
		<tag k="place" v="farm" />
		<tag k="ssr:stedsnr" v="141723" />
	</node>
	<node lat="59.646736002689465" lon="5.3857185517954145" id="-35184">
		<tag k="name" v="Økland" />
		<tag k="place" v="farm" />
		<tag k="ssr:stedsnr" v="141727" />
	</node>
	<node lat="59.50840277527358" lon="5.31975000833086" id="-35187">
		<tag k="name" v="Birkeland" />
		<tag k="place" v="farm" />
		<tag k="ssr:stedsnr" v="147093" />
	</node>
	<node lat="59.564913885650526" lon="5.312658334212304" id="-35193">
		<tag k="name" v="Vierdalen" />
		<tag k="place" v="farm" />
		<tag k="ssr:stedsnr" v="147589" />
	</node>
	<node lat="59.53430555844407" lon="5.402647228493484" id="-35197">
		<tag k="name" v="Dalebakka" />
		<tag k="place" v="farm" />
		<tag k="ssr:stedsnr" v="147848" />
	</node>
	<node lat="59.579927774105144" lon="5.365391659113229" id="-35203">
		<tag k="name" v="Lauvås" />
		<tag k="place" v="farm" />
		<tag k="ssr:stedsnr" v="147487" />
	</node>
	<node lat="59.7181256510556" lon="5.5054683948947325" id="-35218">
		<tag k="fixme" v="consider place=hamlet" />
		<tag k="name" v="Hauge" />
		<tag k="place" v="farm" />
		<tag k="ssr:stedsnr" v="185121" />
	</node>
	<node lat="59.548252439048404" lon="5.434695158695847" id="-35221">
		<tag k="fixme" v="consider place=hamlet" />
		<tag k="name" v="Mækjeland" />
		<tag k="place" v="farm" />
		<tag k="ssr:stedsnr" v="185165" />
	</node>
	<node lat="59.550474271900455" lon="5.252066593351333" id="-35227">
		<tag k="alt_name" v="Lyngholm" />
		<tag k="fixme" v="consider place=hamlet" />
		<tag k="name" v="Lyngholmen" />
		<tag k="place" v="farm" />
		<tag k="ssr:stedsnr" v="185229" />
	</node>
	<node lat="59.58802777371016" lon="5.345627786692521" id="-35234">
		<tag k="name" v="Nyland" />
		<tag k="place" v="farm" />
		<tag k="ssr:stedsnr" v="185790" />
	</node>
	<node lat="59.54528055213164" lon="5.413074998869414" id="-35246">
		<tag k="alt_name" v="Bråtveit vestre" />
		<tag k="fixme" v="consider place=hamlet" />
		<tag k="name" v="Vestre Bråtveit" />
		<tag k="place" v="farm" />
		<tag k="ssr:stedsnr" v="208219" />
	</node>
	<node lat="59.482997221715266" lon="5.306791663253302" id="-35249">
		<tag k="name" v="Sølvberg" />
		<tag k="place" v="farm" />
		<tag k="ssr:stedsnr" v="208079" />
	</node>
	<node lat="59.48188305034788" lon="5.3068056641679116" id="-35283">
		<tag k="alt_name" v="Søre Våge;Søre-Våge" />
		<tag k="name" v="Våga" />
		<tag k="place" v="hamlet" />
		<tag k="ssr:stedsnr" v="306687" />
	</node>
	<node lat="59.58894444766565" lon="5.442402782959021" id="-35284">
		<tag k="name" v="Sørheim" />
		<tag k="place" v="farm" />
		<tag k="ssr:stedsnr" v="306784" />
	</node>
	<node lat="59.54181103167846" lon="5.349153913242405" id="-35295">
		<tag k="name" v="Vigdarheim" />
		<tag k="place" v="farm" />
		<tag k="ssr:stedsnr" v="324800" />
	</node>
	<node lat="59.63501388801482" lon="5.377516661836415" id="-35296">
		<tag k="name" v="Økland" />
		<tag k="place" v="farm" />
		<tag k="ssr:stedsnr" v="324801" />
	</node>
	<node lat="59.6394591532483" lon="5.379995664580066" id="-35297">
		<tag k="name" v="Økland" />
		<tag k="place" v="farm" />
		<tag k="ssr:stedsnr" v="324808" />
	</node>
	<node lat="59.64382777824654" lon="5.386188895874645" id="-35298">
		<tag k="name" v="Økland" />
		<tag k="place" v="farm" />
		<tag k="ssr:stedsnr" v="324809" />
	</node>
	<node lat="59.55582499717347" lon="5.3374694461543974" id="-35300">
		<tag k="name" v="Nygård" />
		<tag k="place" v="farm" />
		<tag k="ssr:stedsnr" v="329590" />
	</node>
	<node lat="59.57321944161807" lon="5.411675000221184" id="-35312">
		<tag k="name" v="Norheim" />
		<tag k="place" v="farm" />
		<tag k="ssr:stedsnr" v="330089" />
	</node>
	<node lat="59.50775555932157" lon="5.278697224018566" id="-35313">
		<tag k="name" v="Skålaskog" />
		<tag k="place" v="farm" />
		<tag k="ssr:stedsnr" v="330100" />
	</node>
	<node lat="59.553813885858965" lon="5.3962111070439684" id="-35322">
		<tag k="name" v="Nyland" />
		<tag k="place" v="farm" />
		<tag k="ssr:stedsnr" v="330027" />
	</node>
	<node lat="59.55502222291819" lon="5.407949995901971" id="-35323">
		<tag k="alt_name" v="Liatre" />
		<tag k="name" v="Liatræ" />
		<tag k="place" v="farm" />
		<tag k="ssr:stedsnr" v="330038" />
	</node>
	<node lat="59.51267222304966" lon="5.327350004853683" id="-35327">
		<tag k="name" v="Kvernaneset" />
		<tag k="place" v="farm" />
		<tag k="ssr:stedsnr" v="330116" />
	</node>
	<node lat="59.59691666665958" lon="5.3210805565711485" id="-35329">
		<tag k="loc_name" v="Buavågen" />
		<tag k="name" v="Buavåg" />
		<tag k="place" v="hamlet" />
		<tag k="ssr:stedsnr" v="330151" />
	</node>
	<node lat="59.51509908420993" lon="5.269030363537629" id="-35333">
		<tag k="fixme" v="consider place=hamlet" />
		<tag k="name" v="Neset" />
		<tag k="place" v="farm" />
		<tag k="ssr:stedsnr" v="330583" />
	</node>
	<node lat="59.70473055920736" lon="5.481274999490098" id="-35346">
		<tag k="name" v="Træ" />
		<tag k="place" v="farm" />
		<tag k="ssr:stedsnr" v="367069" />
	</node>
	<node lat="59.54449166484297" lon="5.356988886280947" id="-35349">
		<tag k="fixme" v="consider place=suburb, village or hamlet" />
		<tag k="name" v="Sveio" />
		<tag k="place" v="quarter" />
		<tag k="ssr:stedsnr" v="367167" />
	</node>
	<node lat="59.52919741003391" lon="5.505176798293095" id="-35351">
		<tag k="alt_name" v="Buvik" />
		<tag k="fixme" v="consider place=hamlet" />
		<tag k="name" v="Buavik" />
=======
	<node id="-601389" lat="59.6429055569" lon="5.38287221511">
		<tag k="name" v="Auklandshamn" />
		<tag k="place" v="hamlet" />
		<tag k="ssr:stedsnr" v="870187" />
	</node>
	<node id="-600609" lat="59.5471250029" lon="5.45712221484">
		<tag k="name" v="Bakken" />
		<tag k="place" v="farm" />
		<tag k="ssr:stedsnr" v="64195" />
	</node>
	<node id="-600359" lat="59.5660250004" lon="5.28851110295">
		<tag k="alt_name" v="Årstad" />
		<tag k="name" v="Austbø" />
		<tag k="place" v="farm" />
		<tag k="ssr:stedsnr" v="914786" />
	</node>
	<node id="-599846" lat="59.6360416694" lon="5.45796388058">
		<tag k="fixme" v="consider place=hamlet" />
		<tag k="name" v="Vika" />
		<tag k="place" v="farm" />
		<tag k="ssr:stedsnr" v="147121" />
	</node>
	<node id="-600869" lat="59.5889444477" lon="5.44240278296">
		<tag k="name" v="Sørheim" />
		<tag k="place" v="farm" />
		<tag k="ssr:stedsnr" v="306784" />
	</node>
	<node id="-600868" lat="59.5941221855" lon="5.44500424866">
		<tag k="alt_name" v="Dronge" />
		<tag k="fixme" v="consider place=hamlet" />
		<tag k="name" v="Drange" />
		<tag k="place" v="farm" />
		<tag k="ssr:stedsnr" v="306781" />
	</node>
	<node id="-600353" lat="59.5017888898" lon="5.3257388896">
		<tag k="name" v="Børkjeland" />
		<tag k="place" v="farm" />
		<tag k="ssr:stedsnr" v="914093" />
	</node>
	<node id="-601375" lat="59.6428574816" lon="5.37964298063">
		<tag k="fixme" v="consider place=hamlet" />
		<tag k="name" v="Økland" />
		<tag k="place" v="farm" />
		<tag k="ssr:stedsnr" v="853044" />
	</node>
	<node id="-601373" lat="59.5644805518" lon="5.47930833303">
		<tag k="name" v="Åsen" />
		<tag k="place" v="farm" />
		<tag k="ssr:stedsnr" v="853348" />
	</node>
	<node id="-601372" lat="59.5667930165" lon="5.47638841177">
		<tag k="fixme" v="consider place=hamlet" />
		<tag k="name" v="Ervesvåg" />
		<tag k="place" v="farm" />
		<tag k="ssr:stedsnr" v="853347" />
	</node>
	<node id="-599833" lat="59.7137916683" lon="5.51304444587">
		<tag k="name" v="Eidsvåg" />
		<tag k="place" v="farm" />
		<tag k="ssr:stedsnr" v="269692" />
	</node>
	<node id="-601368" lat="59.6324250659" lon="5.51081874537">
		<tag k="fixme" v="consider place=hamlet" />
		<tag k="name" v="Brattestø" />
		<tag k="place" v="farm" />
		<tag k="ssr:stedsnr" v="852437" />
	</node>
	<node id="-600342" lat="59.5313777775" lon="5.4689277692">
		<tag k="name" v="Gardvik" />
		<tag k="place" v="farm" />
		<tag k="ssr:stedsnr" v="913279" />
	</node>
	<node id="-601364" lat="59.5109408366" lon="5.44555046537">
		<tag k="fixme" v="consider place=hamlet" />
		<tag k="name" v="Fjon" />
		<tag k="place" v="farm" />
		<tag k="ssr:stedsnr" v="852145" />
	</node>
	<node id="-599822" lat="59.5215999987" lon="5.2795361172">
		<tag k="name" v="Gjerde" />
		<tag k="place" v="farm" />
		<tag k="ssr:stedsnr" v="269230" />
	</node>
	<node id="-600136" lat="59.5633277822" lon="5.47424722218">
		<tag k="name" v="Solheim" />
		<tag k="place" v="farm" />
		<tag k="ssr:stedsnr" v="512452" />
	</node>
	<node id="-599820" lat="59.5324138864" lon="5.39589722823">
		<tag k="alt_name" v="Apeland nordre" />
		<tag k="fixme" v="consider place=hamlet" />
		<tag k="name" v="Nordre Apeland" />
		<tag k="place" v="farm" />
		<tag k="ssr:stedsnr" v="269226" />
	</node>
	<node id="-600330" lat="59.7096361155" lon="5.51011111613">
		<tag k="name" v="Haugane" />
		<tag k="place" v="farm" />
		<tag k="ssr:stedsnr" v="913080" />
	</node>
	<node id="-601351" lat="59.6228666665" lon="5.33644722554">
		<tag k="name" v="Slettane" />
		<tag k="place" v="farm" />
		<tag k="ssr:stedsnr" v="816102" />
	</node>
	<node id="-600449" lat="59.5008972183" lon="5.35824999176">
		<tag k="alt_name" v="Lindøy" />
		<tag k="name" v="Stigen" />
		<tag k="place" v="farm" />
		<tag k="ssr:stedsnr" v="852155" />
	</node>
	<node id="-600322" lat="59.5059668948" lon="5.27872830889">
		<tag k="fixme" v="consider place=hamlet" />
		<tag k="name" v="Skålaskog" />
		<tag k="place" v="farm" />
		<tag k="ssr:stedsnr" v="731115" />
	</node>
	<node id="-601343" lat="59.7174411685" lon="5.50752342304">
		<tag k="name" v="Snørehaugen" />
		<tag k="place" v="farm" />
		<tag k="ssr:stedsnr" v="815615" />
	</node>
	<node id="-601342" lat="59.7172493026" lon="5.5112657367">
		<tag k="fixme" v="consider place=hamlet" />
		<tag k="name" v="Gramshaug" />
		<tag k="place" v="farm" />
		<tag k="ssr:stedsnr" v="815612" />
	</node>
	<node id="-599805" lat="59.6364781132" lon="5.38489444378">
		<tag k="name" v="Økland" />
		<tag k="place" v="farm" />
		<tag k="ssr:stedsnr" v="263807" />
	</node>
	<node id="-599804" lat="59.6894182175" lon="5.47911079867">
		<tag k="alt_name" v="Øvra Økland" />
		<tag k="fixme" v="consider place=hamlet" />
		<tag k="name" v="Økland" />
		<tag k="place" v="farm" />
		<tag k="ssr:stedsnr" v="263759" />
	</node>
	<node id="-599803" lat="59.6416250037" lon="5.37695833279">
		<tag k="name" v="Økland" />
		<tag k="place" v="farm" />
		<tag k="ssr:stedsnr" v="263757" />
	</node>
	<node id="-600113" lat="59.6916916677" lon="5.47302500144">
		<tag k="name" v="Teigen" />
		<tag k="place" v="farm" />
		<tag k="ssr:stedsnr" v="671091" />
	</node>
	<node id="-601330" lat="59.5525833377" lon="5.43458888518">
		<tag k="name" v="Mækjeland" />
		<tag k="place" v="farm" />
		<tag k="ssr:stedsnr" v="815043" />
	</node>
	<node id="-599793" lat="59.6192711951" lon="5.40937195978">
		<tag k="fixme" v="consider place=hamlet" />
		<tag k="name" v="Vestvik" />
		<tag k="place" v="farm" />
		<tag k="ssr:stedsnr" v="246844" />
	</node>
	<node id="-601327" lat="59.6255583325" lon="5.52128889697">
		<tag k="name" v="Kobba" />
		<tag k="place" v="farm" />
		<tag k="ssr:stedsnr" v="815096" />
	</node>
	<node id="-600814" lat="59.5452805521" lon="5.41307499887">
		<tag k="alt_name" v="Bråtveit vestre" />
		<tag k="fixme" v="consider place=hamlet" />
		<tag k="name" v="Vestre Bråtveit" />
		<tag k="place" v="farm" />
		<tag k="ssr:stedsnr" v="208219" />
	</node>
	<node id="-599789" lat="59.5843548818" lon="5.42839775215">
		<tag k="fixme" v="consider place=hamlet" />
		<tag k="name" v="Rød" />
		<tag k="place" v="farm" />
		<tag k="ssr:stedsnr" v="246762" />
	</node>
	<node id="-599787" lat="59.5689567546" lon="5.38768767635">
		<tag k="alt_name" v="Hinderlid" />
		<tag k="fixme" v="consider place=hamlet" />
		<tag k="name" v="Hinderli" />
		<tag k="place" v="farm" />
		<tag k="ssr:stedsnr" v="246750" />
	</node>
	<node id="-601322" lat="59.6420555595" lon="5.38547778066">
		<tag k="name" v="Økland" />
		<tag k="place" v="farm" />
		<tag k="ssr:stedsnr" v="809761" />
	</node>
	<node id="-601383" lat="59.69686667" lon="5.46735000082">
		<tag k="alt_name" v="Buneset" />
		<tag k="name" v="Bunes" />
		<tag k="place" v="farm" />
		<tag k="ssr:stedsnr" v="853971" />
	</node>
	<node id="-599784" lat="59.6093083308" lon="5.47586388823">
		<tag k="fixme" v="consider place=suburb, village or hamlet" />
		<tag k="name" v="Førde" />
		<tag k="place" v="quarter" />
		<tag k="ssr:stedsnr" v="246401" />
	</node>
	<node id="-599783" lat="59.6124710628" lon="5.51886468661">
		<tag k="fixme" v="consider place=hamlet" />
		<tag k="name" v="Stualand" />
		<tag k="place" v="farm" />
		<tag k="ssr:stedsnr" v="246389" />
	</node>
	<node id="-601318" lat="59.652537511" lon="5.45109417046">
		<tag k="name" v="Liereid" />
		<tag k="place" v="farm" />
		<tag k="ssr:stedsnr" v="792914" />
	</node>
	<node id="-600805" lat="59.4829972217" lon="5.30679166325">
		<tag k="name" v="Sølvberg" />
		<tag k="place" v="farm" />
		<tag k="ssr:stedsnr" v="208079" />
	</node>
	<node id="-601316" lat="59.6170001405" lon="5.42906336127">
		<tag k="fixme" v="consider place=hamlet" />
		<tag k="name" v="Fagerland" />
		<tag k="place" v="farm" />
		<tag k="ssr:stedsnr" v="792839" />
	</node>
	<node id="-601314" lat="59.6133526296" lon="5.47761269198">
		<tag k="fixme" v="consider place=hamlet" />
		<tag k="name" v="Solheim" />
		<tag k="place" v="farm" />
		<tag k="ssr:stedsnr" v="792410" />
	</node>
	<node id="-600801" lat="59.5520520822" lon="5.40920506145">
		<tag k="fixme" v="consider place=hamlet" />
		<tag k="name" v="Lid" />
		<tag k="place" v="farm" />
		<tag k="ssr:stedsnr" v="208010" />
	</node>
	<node id="-600800" lat="59.6678999989" lon="5.46041667308">
		<tag k="name" v="Træ" />
		<tag k="place" v="farm" />
		<tag k="ssr:stedsnr" v="207633" />
	</node>
	<node id="-601311" lat="59.6536333633" lon="5.47033618702">
		<tag k="alt_name" v="Flåten" />
		<tag k="fixme" v="consider place=hamlet" />
		<tag k="name" v="Flåtene" />
		<tag k="place" v="farm" />
		<tag k="ssr:stedsnr" v="792028" />
	</node>
	<node id="-601310" lat="59.6689420341" lon="5.52912877137">
		<tag k="alt_name" v="Haugsbø" />
		<tag k="fixme" v="consider place=hamlet" />
		<tag k="name" v="Hausbu" />
		<tag k="place" v="farm" />
		<tag k="ssr:stedsnr" v="792003" />
	</node>
	<node id="-601308" lat="59.5304863288" lon="5.47994776864">
		<tag k="fixme" v="consider place=hamlet" />
		<tag k="name" v="Flatnes" />
		<tag k="place" v="farm" />
		<tag k="ssr:stedsnr" v="792272" />
	</node>
	<node id="-600795" lat="59.644561107" lon="5.38202500216">
		<tag k="name" v="Økland" />
		<tag k="place" v="farm" />
		<tag k="ssr:stedsnr" v="203812" />
	</node>
	<node id="-600794" lat="59.6381611099" lon="5.38396111402">
		<tag k="name" v="Økland" />
		<tag k="place" v="farm" />
		<tag k="ssr:stedsnr" v="203808" />
	</node>
	<node id="-601305" lat="59.545183333" lon="5.28420277129">
		<tag k="alt_name" v="Kleivo" />
		<tag k="name" v="Kleiva" />
		<tag k="place" v="farm" />
		<tag k="ssr:stedsnr" v="792193" />
	</node>
	<node id="-601304" lat="59.5170426124" lon="5.27896022264">
		<tag k="alt_name" v="Mølstre;Søre Mylstre;Mølstre, søndre" />
		<tag k="fixme" v="consider place=hamlet" />
		<tag k="name" v="Søre Mølstre" />
		<tag k="place" v="farm" />
		<tag k="ssr:stedsnr" v="792184" />
	</node>
	<node id="-600658" lat="59.6642250012" lon="5.46732222425">
		<tag k="name" v="Hamrabrotet" />
		<tag k="place" v="farm" />
		<tag k="ssr:stedsnr" v="87861" />
	</node>
	<node id="-601300" lat="59.4917916621" lon="5.29898610543">
		<tag k="alt_name" v="Ropus" />
		<tag k="name" v="Rophus" />
>>>>>>> e1d4bc35ff8a6074a6f2e91616a996b547c36f15
		<tag k="place" v="farm" />
		<tag k="ssr:stedsnr" v="791698" />
	</node>
<<<<<<< HEAD
	<node lat="59.63883753894784" lon="5.512131104151201" id="-35354">
		<tag k="alt_name" v="Espenes" />
=======
	<node id="-599758" lat="59.594968641" lon="5.36195770544">
>>>>>>> e1d4bc35ff8a6074a6f2e91616a996b547c36f15
		<tag k="fixme" v="consider place=hamlet" />
		<tag k="name" v="Øspenes" />
		<tag k="place" v="farm" />
		<tag k="ssr:stedsnr" v="367411" />
	</node>
<<<<<<< HEAD
	<node lat="59.67380417358154" lon="5.4571288765334325" id="-35358">
		<tag k="alt_name" v="Haugeland" />
		<tag k="fixme" v="consider place=hamlet" />
		<tag k="name" v="Haugland" />
		<tag k="place" v="farm" />
		<tag k="ssr:stedsnr" v="367974" />
	</node>
	<node lat="59.54835059273446" lon="5.4121389738846455" id="-35374">
		<tag k="name" v="Krossgot" />
		<tag k="place" v="farm" />
		<tag k="ssr:stedsnr" v="384285" />
	</node>
	<node lat="59.502174971951874" lon="5.365639331791113" id="-35378">
		<tag k="alt_name" v="Lindøy" />
		<tag k="fixme" v="consider place=hamlet" />
		<tag k="name" v="Lindøya" />
		<tag k="place" v="farm" />
		<tag k="ssr:stedsnr" v="390128" />
	</node>
	<node lat="59.561191662466" lon="5.4192194452434475" id="-35381">
		<tag k="name" v="Stølen" />
		<tag k="place" v="farm" />
		<tag k="ssr:stedsnr" v="390072" />
	</node>
	<node lat="59.63392804177671" lon="5.466611714795287" id="-35409">
		<tag k="alt_name" v="Viken;Vikjo" />
		<tag k="fixme" v="consider place=hamlet" />
		<tag k="name" v="Vika" />
		<tag k="place" v="farm" />
		<tag k="ssr:stedsnr" v="427800" />
	</node>
	<node lat="59.68899007557626" lon="5.473762801136794" id="-35411">
		<tag k="fixme" v="consider place=hamlet" />
		<tag k="name" v="Tveita" />
		<tag k="place" v="farm" />
		<tag k="ssr:stedsnr" v="428081" />
	</node>
	<node lat="59.69945555715379" lon="5.472411104249277" id="-35412">
		<tag k="fixme" v="consider place=hamlet" />
		<tag k="name" v="Valevåg" />
		<tag k="place" v="village" />
		<tag k="ssr:stedsnr" v="428086" />
	</node>
	<node lat="59.56871089062439" lon="5.414112696673741" id="-35421">
		<tag k="fixme" v="consider place=hamlet" />
		<tag k="name" v="Tveita" />
		<tag k="place" v="farm" />
		<tag k="ssr:stedsnr" v="428195" />
	</node>
	<node lat="59.55770555594968" lon="5.311902776935949" id="-35422">
		<tag k="name" v="Skiftestad" />
		<tag k="place" v="farm" />
		<tag k="ssr:stedsnr" v="428201" />
	</node>
	<node lat="59.693472219077904" lon="5.4784999942088035" id="-35425">
		<tag k="alt_name" v="Valebygdi" />
		<tag k="name" v="Valebygda" />
		<tag k="place" v="hamlet" />
		<tag k="ssr:stedsnr" v="428050" />
	</node>
	<node lat="59.67358333462296" lon="5.466852770216804" id="-35426">
		<tag k="fixme" v="consider place=hamlet" />
		<tag k="name" v="Valestrand" />
		<tag k="place" v="village" />
		<tag k="ssr:stedsnr" v="428059" />
	</node>
	<node lat="59.58442699424167" lon="5.517185018591153" id="-35432">
		<tag k="fixme" v="consider place=hamlet" />
		<tag k="name" v="Selsås" />
		<tag k="place" v="farm" />
		<tag k="ssr:stedsnr" v="428339" />
	</node>
	<node lat="59.59237500316437" lon="5.512852779696911" id="-35434">
		<tag k="name" v="Røykje" />
		<tag k="place" v="farm" />
		<tag k="ssr:stedsnr" v="428358" />
	</node>
	<node lat="59.58625126348017" lon="5.299882067450681" id="-35441">
		<tag k="fixme" v="consider place=hamlet" />
		<tag k="name" v="Hovda" />
		<tag k="place" v="farm" />
		<tag k="ssr:stedsnr" v="428810" />
	</node>
	<node lat="59.62143333133658" lon="5.331794445064315" id="-35444">
		<tag k="alt_name" v="Tjernaget, s;Tjernagel, søndre" />
		<tag k="name" v="Søre Tjernagel" />
		<tag k="place" v="farm" />
		<tag k="ssr:stedsnr" v="428830" />
	</node>
	<node lat="59.580372725410086" lon="5.371134785071828" id="-35446">
		<tag k="fixme" v="consider place=hamlet" />
		<tag k="name" v="Lauvås" />
		<tag k="place" v="farm" />
		<tag k="ssr:stedsnr" v="428794" />
	</node>
	<node lat="59.60489017397224" lon="5.3808206150022055" id="-35449">
		<tag k="fixme" v="consider place=hamlet" />
		<tag k="name" v="Emberland" />
		<tag k="place" v="farm" />
		<tag k="ssr:stedsnr" v="428851" />
	</node>
	<node lat="59.54635211239955" lon="5.41604546824845" id="-35455">
		<tag k="name" v="Krossgot" />
		<tag k="place" v="farm" />
		<tag k="ssr:stedsnr" v="506001" />
	</node>
	<node lat="59.64561111516658" lon="5.374980546445929" id="-35456">
		<tag k="name" v="Økland" />
		<tag k="place" v="farm" />
		<tag k="ssr:stedsnr" v="506754" />
	</node>
	<node lat="59.53041666433089" lon="5.43749999854633" id="-35473">
		<tag k="name" v="Kvalvåg" />
		<tag k="place" v="farm" />
		<tag k="ssr:stedsnr" v="511879" />
	</node>
	<node lat="59.563327782191074" lon="5.474247222182952" id="-35484">
		<tag k="name" v="Solheim" />
		<tag k="place" v="farm" />
		<tag k="ssr:stedsnr" v="512452" />
	</node>
	<node lat="59.56608682804824" lon="5.336156133918534" id="-35492">
		<tag k="fixme" v="consider place=hamlet" />
		<tag k="name" v="Nordskog" />
		<tag k="place" v="farm" />
		<tag k="ssr:stedsnr" v="549230" />
	</node>
	<node lat="59.5664363565766" lon="5.420370010941334" id="-35493">
		<tag k="fixme" v="consider place=hamlet" />
		<tag k="name" v="Haukås" />
		<tag k="place" v="farm" />
		<tag k="ssr:stedsnr" v="549235" />
	</node>
	<node lat="59.65286664163891" lon="5.435759864226472" id="-35509">
		<tag k="fixme" v="consider place=hamlet" />
		<tag k="name" v="Straumøy" />
		<tag k="place" v="farm" />
		<tag k="ssr:stedsnr" v="549884" />
	</node>
	<node lat="59.6363892908973" lon="5.384136206135783" id="-35511">
		<tag k="name" v="Økland" />
		<tag k="place" v="farm" />
		<tag k="ssr:stedsnr" v="566823" />
	</node>
	<node lat="59.64553889132755" lon="5.377936103661485" id="-35513">
		<tag k="name" v="Plasset" />
		<tag k="place" v="farm" />
		<tag k="ssr:stedsnr" v="572093" />
	</node>
	<node lat="59.59362500109307" lon="5.473388882893377" id="-35515">
		<tag k="name" v="Øvre Lier" />
		<tag k="place" v="farm" />
		<tag k="ssr:stedsnr" v="572010" />
	</node>
	<node lat="59.57657499569194" lon="5.293144437775132" id="-35517">
		<tag k="alt_name" v="Nesheim" />
		<tag k="name" v="Næsheim" />
		<tag k="place" v="farm" />
		<tag k="ssr:stedsnr" v="572126" />
	</node>
	<node lat="59.666211748739805" lon="5.461348878184445" id="-35536">
		<tag k="name" v="Vihovda" />
		<tag k="place" v="hamlet" />
		<tag k="ssr:stedsnr" v="573767" />
	</node>
	<node lat="59.626434029801814" lon="5.48032808966372" id="-35540">
		<tag k="fixme" v="consider place=hamlet" />
		<tag k="name" v="Austvik" />
		<tag k="place" v="farm" />
		<tag k="ssr:stedsnr" v="609428" />
	</node>
	<node lat="59.71054166545522" lon="5.493508331879298" id="-35541">
		<tag k="name" v="Solås" />
		<tag k="old_name" v="Nordtræ" />
		<tag k="place" v="farm" />
		<tag k="ssr:stedsnr" v="609081" />
	</node>
	<node lat="59.54557508448944" lon="5.496510258879705" id="-35544">
=======
	<node id="-599762" lat="59.5329044942" lon="5.39288242749">
		<tag k="name" v="Apeland" />
		<tag k="place" v="hamlet" />
		<tag k="ssr:stedsnr" v="64210" />
	</node>
	<node id="-601296" lat="59.5016278919" lon="5.32579522165">
		<tag k="alt_name" v="Birkeland" />
		<tag k="fixme" v="consider place=hamlet" />
		<tag k="name" v="Børkjeland" />
		<tag k="place" v="farm" />
		<tag k="ssr:stedsnr" v="791135" />
	</node>
	<node id="-601295" lat="59.520633336" lon="5.4536777841">
		<tag k="name" v="Leirvik" />
		<tag k="place" v="farm" />
		<tag k="ssr:stedsnr" v="791124" />
	</node>
	<node id="-600782" lat="59.6243242694" lon="5.34121484805">
		<tag k="name" v="Tjernagel" />
		<tag k="place" v="hamlet" />
		<tag k="ssr:stedsnr" v="185806" />
	</node>
	<node id="-600781" lat="59.5880277737" lon="5.34562778669">
		<tag k="name" v="Nyland" />
		<tag k="place" v="farm" />
		<tag k="ssr:stedsnr" v="185790" />
	</node>
	<node id="-599756" lat="59.5258277743" lon="5.44083610853">
		<tag k="historic" v="shieling" />
		<tag k="name" v="Stølane" />
		<tag k="place" v="locality" />
		<tag k="ssr:stedsnr" v="26941" />
	</node>
	<node id="-600264" lat="59.5233499961" lon="5.25710555136">
		<tag k="name" v="Skjeljavik" />
		<tag k="place" v="farm" />
		<tag k="ssr:stedsnr" v="876214" />
	</node>
	<node id="-599750" lat="59.5258999977" lon="5.27684444552">
		<tag k="alt_name" v="Nordre Mylstre;Mølstre, nordre" />
		<tag k="fixme" v="consider place=hamlet" />
		<tag k="name" v="Nordre Mølstre" />
		<tag k="place" v="farm" />
		<tag k="ssr:stedsnr" v="26533" />
	</node>
	<node id="-601377" lat="59.5727361347" lon="5.45013597578">
		<tag k="alt_name" v="Nonslid" />
		<tag k="fixme" v="consider place=hamlet" />
		<tag k="name" v="Nonsli" />
		<tag k="place" v="farm" />
		<tag k="ssr:stedsnr" v="853188" />
	</node>
	<node id="-599747" lat="59.5134527763" lon="5.35381389138">
		<tag k="name" v="Tveit" />
		<tag k="place" v="farm" />
		<tag k="ssr:stedsnr" v="26510" />
	</node>
	<node id="-600258" lat="59.700358337" lon="5.46386666951">
		<tag k="name" v="Nappen" />
		<tag k="place" v="farm" />
		<tag k="ssr:stedsnr" v="731969" />
	</node>
	<node id="-600255" lat="59.6287472211" lon="5.34073610533">
		<tag k="alt_name" v="Tjernagel, nordre;Tjernagel nordre" />
		<tag k="name" v="Nordre Tjernagel" />
		<tag k="place" v="farm" />
		<tag k="ssr:stedsnr" v="731918" />
	</node>
	<node id="-600254" lat="59.659174109" lon="5.45001289635">
		<tag k="fixme" v="consider place=hamlet" />
		<tag k="name" v="Lier" />
		<tag k="place" v="farm" />
		<tag k="ssr:stedsnr" v="731894" />
	</node>
	<node id="-600253" lat="59.6633088567" lon="5.44021268876">
		<tag k="alt_name" v="Brokanes" />
		<tag k="fixme" v="consider place=hamlet" />
		<tag k="name" v="Brokaneset" />
		<tag k="place" v="farm" />
		<tag k="ssr:stedsnr" v="731891" />
	</node>
	<node id="-599738" lat="59.6369733666" lon="5.38428049096">
		<tag k="name" v="Økland" />
		<tag k="place" v="farm" />
		<tag k="ssr:stedsnr" v="21805" />
	</node>
	<node id="-600758" lat="59.548252439" lon="5.4346951587">
		<tag k="fixme" v="consider place=hamlet" />
		<tag k="name" v="Mækjeland" />
		<tag k="place" v="farm" />
		<tag k="ssr:stedsnr" v="185165" />
	</node>
	<node id="-600245" lat="59.5893499973" lon="5.30336389626">
		<tag k="name" v="Nordheim" />
		<tag k="place" v="farm" />
		<tag k="ssr:stedsnr" v="731798" />
	</node>
	<node id="-600754" lat="59.4991770528" lon="5.37748167435">
		<tag k="fixme" v="consider place=hamlet" />
		<tag k="name" v="Tveitaskog" />
		<tag k="place" v="farm" />
		<tag k="ssr:stedsnr" v="184694" />
	</node>
	<node id="-600241" lat="59.5530055598" lon="5.27990555859">
		<tag k="name" v="Sandvik" />
		<tag k="place" v="farm" />
		<tag k="ssr:stedsnr" v="731194" />
	</node>
	<node id="-601321" lat="59.5346555515" lon="5.3395583309">
		<tag k="name" v="Krossleitet" />
		<tag k="place" v="quarter" />
		<tag k="ssr:stedsnr" v="809172" />
	</node>
	<node id="-599778" lat="59.5404223004" lon="5.44678063617">
		<tag k="alt_name" v="Våga" />
		<tag k="fixme" v="consider place=hamlet" />
		<tag k="name" v="Våge" />
		<tag k="place" v="farm" />
		<tag k="ssr:stedsnr" v="246159" />
	</node>
	<node id="-601261" lat="59.5484039665" lon="5.34493981043">
		<tag k="fixme" v="consider place=hamlet" />
		<tag k="name" v="Åse" />
		<tag k="place" v="farm" />
		<tag k="ssr:stedsnr" v="754582" />
	</node>
	<node id="-600236" lat="59.5922456664" lon="5.47297907909">
		<tag k="name" v="Lier" />
		<tag k="place" v="hamlet" />
		<tag k="ssr:stedsnr" v="731365" />
	</node>
	<node id="-600747" lat="59.5343055584" lon="5.40264722849">
		<tag k="name" v="Dalebakka" />
		<tag k="place" v="farm" />
		<tag k="ssr:stedsnr" v="147848" />
	</node>
	<node id="-599983" lat="59.6649539162" lon="5.45429635798">
		<tag k="alt_name" v="Rinden" />
		<tag k="fixme" v="consider place=hamlet" />
		<tag k="name" v="Rindo" />
		<tag k="place" v="farm" />
		<tag k="ssr:stedsnr" v="488901" />
	</node>
	<node id="-600689" lat="59.5396944407" lon="5.370444438">
		<tag k="name" v="Solstad" />
		<tag k="place" v="farm" />
		<tag k="ssr:stedsnr" v="124178" />
	</node>
	<node id="-600228" lat="59.4943027795" lon="5.30611666806">
		<tag k="name" v="Slettene" />
		<tag k="place" v="farm" />
		<tag k="ssr:stedsnr" v="730779" />
	</node>
	<node id="-600738" lat="59.5649138857" lon="5.31265833421">
		<tag k="name" v="Vierdalen" />
		<tag k="place" v="farm" />
		<tag k="ssr:stedsnr" v="147589" />
	</node>
	<node id="-600733" lat="59.5799277741" lon="5.36539165911">
		<tag k="name" v="Lauvås" />
		<tag k="place" v="farm" />
		<tag k="ssr:stedsnr" v="147487" />
	</node>
	<node id="-600220" lat="59.6824694404" lon="5.53644443711">
		<tag k="name" v="Bjørgen" />
		<tag k="place" v="farm" />
		<tag k="ssr:stedsnr" v="633676" />
	</node>
	<node id="-600729" lat="59.5084027753" lon="5.31975000833">
		<tag k="name" v="Birkeland" />
		<tag k="place" v="farm" />
		<tag k="ssr:stedsnr" v="147093" />
	</node>
	<node id="-601237" lat="59.5402250012" lon="5.41789166499">
		<tag k="alt_name" v="Bråtveit østre" />
>>>>>>> e1d4bc35ff8a6074a6f2e91616a996b547c36f15
		<tag k="fixme" v="consider place=hamlet" />
		<tag k="name" v="Austre Bråtveit" />
		<tag k="place" v="farm" />
<<<<<<< HEAD
		<tag k="ssr:stedsnr" v="609322" />
	</node>
	<node lat="59.50124999783652" lon="5.311655549594645" id="-35545">
		<tag k="alt_name" v="Nordre Våge;Våge Nordre" />
		<tag k="name" v="Våge" />
		<tag k="place" v="farm" />
		<tag k="ssr:stedsnr" v="609133" />
	</node>
	<node lat="59.492430551402464" lon="5.325783339527235" id="-35553">
		<tag k="name" v="Nyheim" />
		<tag k="place" v="farm" />
		<tag k="ssr:stedsnr" v="609656" />
	</node>
	<node lat="59.68446803452086" lon="5.459122207843772" id="-35559">
		<tag k="alt_name" v="Vatsli;Vasslia" />
		<tag k="fixme" v="consider place=hamlet" />
		<tag k="name" v="Vassli" />
		<tag k="place" v="farm" />
		<tag k="ssr:stedsnr" v="609993" />
	</node>
	<node lat="59.62304808084116" lon="5.516318455675066" id="-35564">
		<tag k="fixme" v="consider place=hamlet" />
		<tag k="name" v="Håvardsholm" />
		<tag k="place" v="farm" />
		<tag k="ssr:stedsnr" v="610461" />
	</node>
	<node lat="59.65301944873737" lon="5.4662472290795145" id="-35566">
		<tag k="name" v="Teigen" />
		<tag k="place" v="farm" />
		<tag k="ssr:stedsnr" v="610945" />
	</node>
	<node lat="59.63594166769201" lon="5.385244450304422" id="-35567">
		<tag k="name" v="Økland" />
		<tag k="place" v="farm" />
		<tag k="ssr:stedsnr" v="627823" />
	</node>
	<node lat="59.64112318764185" lon="5.377134669453483" id="-35568">
		<tag k="name" v="Økland" />
		<tag k="place" v="farm" />
		<tag k="ssr:stedsnr" v="627826" />
	</node>
	<node lat="59.486147223299795" lon="5.309533325788559" id="-35573">
		<tag k="fixme" v="consider place=hamlet" />
		<tag k="name" v="Ekrene" />
		<tag k="place" v="farm" />
		<tag k="ssr:stedsnr" v="632666" />
	</node>
	<node lat="59.51392500250187" lon="5.443083338688357" id="-35576">
		<tag k="name" v="Litlafjon" />
		<tag k="place" v="farm" />
		<tag k="ssr:stedsnr" v="632948" />
	</node>
	<node lat="59.682469440437714" lon="5.536444437111083" id="-35597">
		<tag k="name" v="Bjørgen" />
		<tag k="place" v="farm" />
		<tag k="ssr:stedsnr" v="633676" />
	</node>
	<node lat="59.55853333761705" lon="5.33102777839084" id="-35603">
		<tag k="alt_name" v="Røssahaug" />
		<tag k="name" v="Rossehaug" />
		<tag k="place" v="farm" />
		<tag k="ssr:stedsnr" v="659249" />
	</node>
	<node lat="59.67674835273205" lon="5.486415658459358" id="-35606">
		<tag k="fixme" v="consider place=hamlet" />
		<tag k="name" v="Tråvås" />
		<tag k="place" v="farm" />
		<tag k="ssr:stedsnr" v="670055" />
	</node>
	<node lat="59.675732074711185" lon="5.4702025923677295" id="-35607">
		<tag k="alt_name" v="Ulveråker" />
		<tag k="fixme" v="consider place=hamlet" />
		<tag k="name" v="Ulvaråker" />
		<tag k="place" v="farm" />
		<tag k="ssr:stedsnr" v="670060" />
	</node>
	<node lat="59.49430277948168" lon="5.306116668061969" id="-35618">
		<tag k="name" v="Slettene" />
		<tag k="place" v="farm" />
		<tag k="ssr:stedsnr" v="730779" />
	</node>
	<node lat="59.553005559819226" lon="5.279905558592997" id="-35627">
		<tag k="name" v="Sandvik" />
		<tag k="place" v="farm" />
		<tag k="ssr:stedsnr" v="731194" />
	</node>
	<node lat="59.592245666437634" lon="5.472979079092797" id="-35629">
		<tag k="name" v="Lier" />
		<tag k="place" v="hamlet" />
		<tag k="ssr:stedsnr" v="731365" />
	</node>
	<node lat="59.589349997279754" lon="5.303363896258631" id="-35633">
		<tag k="name" v="Nordheim" />
		<tag k="place" v="farm" />
		<tag k="ssr:stedsnr" v="731798" />
	</node>
	<node lat="59.66330885670055" lon="5.440212688760019" id="-35635">
		<tag k="alt_name" v="Brokanes" />
		<tag k="fixme" v="consider place=hamlet" />
		<tag k="name" v="Brokaneset" />
		<tag k="place" v="farm" />
		<tag k="ssr:stedsnr" v="731891" />
	</node>
	<node lat="59.65917410904008" lon="5.450012896345926" id="-35636">
		<tag k="fixme" v="consider place=hamlet" />
		<tag k="name" v="Lier" />
		<tag k="place" v="farm" />
		<tag k="ssr:stedsnr" v="731894" />
	</node>
	<node lat="59.628747221050396" lon="5.340736105334945" id="-35641">
		<tag k="alt_name" v="Tjernagel, nordre;Tjernagel nordre" />
		<tag k="name" v="Nordre Tjernagel" />
		<tag k="place" v="farm" />
		<tag k="ssr:stedsnr" v="731918" />
	</node>
	<node lat="59.69592499939657" lon="5.475788891684913" id="-35645">
		<tag k="name" v="Valo" />
		<tag k="place" v="farm" />
		<tag k="ssr:stedsnr" v="753530" />
	</node>
	<node lat="59.52614444685709" lon="5.339580547065892" id="-35653">
		<tag k="fixme" v="multiple name tags, choose one and add the other to alt_name" />
		<tag k="name" v="Haugland;Hokla" />
		<tag k="place" v="farm" />
		<tag k="ssr:stedsnr" v="754076" />
	</node>
	<node lat="59.54022500121809" lon="5.417891664994795" id="-35654">
		<tag k="alt_name" v="Bråtveit østre" />
		<tag k="fixme" v="consider place=hamlet" />
		<tag k="name" v="Austre Bråtveit" />
		<tag k="place" v="farm" />
		<tag k="ssr:stedsnr" v="754078" />
	</node>
	<node lat="59.55786944081672" lon="5.272255553282759" id="-35664">
		<tag k="name" v="Salhusvik" />
		<tag k="place" v="farm" />
		<tag k="ssr:stedsnr" v="754600" />
	</node>
	<node lat="59.548403966474545" lon="5.344939810431206" id="-35667">
		<tag k="fixme" v="consider place=hamlet" />
		<tag k="name" v="Åse" />
		<tag k="place" v="farm" />
		<tag k="ssr:stedsnr" v="754582" />
	</node>
	<node lat="59.52063333598686" lon="5.453677784099923" id="-35694">
		<tag k="name" v="Leirvik" />
		<tag k="place" v="farm" />
		<tag k="ssr:stedsnr" v="791124" />
	</node>
	<node lat="59.50162789185641" lon="5.325795221649069" id="-35695">
		<tag k="alt_name" v="Birkeland" />
		<tag k="fixme" v="consider place=hamlet" />
		<tag k="name" v="Børkjeland" />
		<tag k="place" v="farm" />
		<tag k="ssr:stedsnr" v="791135" />
	</node>
	<node lat="59.491791662061246" lon="5.298986105426015" id="-35700">
		<tag k="alt_name" v="Ropus" />
		<tag k="name" v="Rophus" />
		<tag k="place" v="farm" />
		<tag k="ssr:stedsnr" v="791698" />
	</node>
	<node lat="59.65363336326758" lon="5.470336187017154" id="-35702">
		<tag k="alt_name" v="Flåten" />
		<tag k="fixme" v="consider place=hamlet" />
		<tag k="name" v="Flåtene" />
		<tag k="place" v="farm" />
		<tag k="ssr:stedsnr" v="792028" />
	</node>
	<node lat="59.517042612436676" lon="5.278960222638437" id="-35709">
		<tag k="alt_name" v="Mølstre;Søre Mylstre;Mølstre, søndre" />
		<tag k="fixme" v="consider place=hamlet" />
		<tag k="name" v="Søre Mølstre" />
		<tag k="place" v="farm" />
		<tag k="ssr:stedsnr" v="792184" />
	</node>
	<node lat="59.54518333304784" lon="5.284202771292354" id="-35710">
		<tag k="alt_name" v="Kleivo" />
		<tag k="name" v="Kleiva" />
		<tag k="place" v="farm" />
		<tag k="ssr:stedsnr" v="792193" />
	</node>
	<node lat="59.5742568621324" lon="5.442872956911615" id="-35712">
		<tag k="fixme" v="consider place=hamlet" />
		<tag k="name" v="Moldbrekka" />
		<tag k="place" v="farm" />
		<tag k="ssr:stedsnr" v="792215" />
	</node>
	<node lat="59.53048632882781" lon="5.479947768640752" id="-35715">
		<tag k="fixme" v="consider place=hamlet" />
		<tag k="name" v="Flatnes" />
		<tag k="place" v="farm" />
		<tag k="ssr:stedsnr" v="792272" />
	</node>
	<node lat="59.57450681550865" lon="5.357936815767079" id="-35717">
		<tag k="fixme" v="consider place=hamlet" />
		<tag k="name" v="Færås" />
		<tag k="place" v="farm" />
		<tag k="ssr:stedsnr" v="792766" />
	</node>
	<node lat="59.6170001404548" lon="5.42906336127417" id="-35718">
		<tag k="fixme" v="consider place=hamlet" />
		<tag k="name" v="Fagerland" />
		<tag k="place" v="farm" />
		<tag k="ssr:stedsnr" v="792839" />
	</node>
	<node lat="59.652537510972955" lon="5.451094170461869" id="-35719">
		<tag k="name" v="Liereid" />
		<tag k="place" v="farm" />
		<tag k="ssr:stedsnr" v="792914" />
	</node>
	<node lat="59.64205555953235" lon="5.385477780655472" id="-35724">
		<tag k="name" v="Økland" />
		<tag k="place" v="farm" />
		<tag k="ssr:stedsnr" v="809761" />
	</node>
	<node lat="59.5525833376523" lon="5.434588885183372" id="-35733">
		<tag k="name" v="Mækjeland" />
		<tag k="place" v="farm" />
		<tag k="ssr:stedsnr" v="815043" />
	</node>
	<node lat="59.62555833248525" lon="5.521288896971175" id="-35736">
		<tag k="name" v="Kobba" />
		<tag k="place" v="farm" />
		<tag k="ssr:stedsnr" v="815096" />
	</node>
	<node lat="59.54853863021232" lon="5.2721984291642885" id="-35737">
		<tag k="fixme" v="consider place=hamlet" />
		<tag k="name" v="Rødmyr" />
		<tag k="place" v="farm" />
		<tag k="ssr:stedsnr" v="815115" />
	</node>
	<node lat="59.62286666650217" lon="5.336447225536179" id="-35756">
		<tag k="name" v="Slettane" />
		<tag k="place" v="farm" />
		<tag k="ssr:stedsnr" v="816102" />
	</node>
	<node lat="59.510940836579344" lon="5.445550465365271" id="-35771">
		<tag k="fixme" v="consider place=hamlet" />
		<tag k="name" v="Fjon" />
		<tag k="place" v="farm" />
		<tag k="ssr:stedsnr" v="852145" />
	</node>
	<node lat="59.500897218332014" lon="5.358249991755877" id="-35773">
		<tag k="alt_name" v="Lindøy" />
		<tag k="name" v="Stigen" />
		<tag k="place" v="farm" />
		<tag k="ssr:stedsnr" v="852155" />
	</node>
	<node lat="59.63242506593403" lon="5.510818745374445" id="-35777">
		<tag k="fixme" v="consider place=hamlet" />
		<tag k="name" v="Brattestø" />
		<tag k="place" v="farm" />
		<tag k="ssr:stedsnr" v="852437" />
	</node>
	<node lat="59.64285748163184" lon="5.37964298062881" id="-35778">
		<tag k="fixme" v="consider place=hamlet" />
		<tag k="name" v="Økland" />
		<tag k="place" v="farm" />
		<tag k="ssr:stedsnr" v="853044" />
	</node>
	<node lat="59.699705552835766" lon="5.473177769610267" id="-35782">
		<tag k="alt_name" v="Vatna" />
		<tag k="name" v="Vatne" />
		<tag k="place" v="isolated_dwelling" />
		<tag k="ssr:stedsnr" v="853068" />
	</node>
	<node lat="59.572736134742584" lon="5.450135975775179" id="-35785">
		<tag k="alt_name" v="Nonslid" />
		<tag k="fixme" v="consider place=hamlet" />
		<tag k="name" v="Nonsli" />
		<tag k="place" v="farm" />
		<tag k="ssr:stedsnr" v="853188" />
	</node>
	<node lat="59.57403125034659" lon="5.526286815167119" id="-35787">
		<tag k="fixme" v="consider place=hamlet" />
		<tag k="name" v="Framnes" />
		<tag k="place" v="farm" />
		<tag k="ssr:stedsnr" v="853357" />
	</node>
	<node lat="59.566793016457055" lon="5.476388411774319" id="-35788">
		<tag k="fixme" v="consider place=hamlet" />
		<tag k="name" v="Ervesvåg" />
		<tag k="place" v="farm" />
		<tag k="ssr:stedsnr" v="853347" />
	</node>
	<node lat="59.56448055182741" lon="5.479308333026323" id="-35789">
		<tag k="name" v="Åsen" />
		<tag k="place" v="farm" />
		<tag k="ssr:stedsnr" v="853348" />
	</node>
	<node lat="59.635255556415544" lon="5.505933334619584" id="-35794">
		<tag k="name" v="Bårvåg" />
		<tag k="place" v="farm" />
		<tag k="ssr:stedsnr" v="853470" />
	</node>
	<node lat="59.646155555519734" lon="5.391833337192883" id="-35803">
		<tag k="name" v="Økland" />
		<tag k="place" v="farm" />
		<tag k="ssr:stedsnr" v="870752" />
	</node>
	<node lat="59.64290555694758" lon="5.382872215109187" id="-35804">
		<tag k="name" v="Auklandshamn" />
		<tag k="place" v="hamlet" />
		<tag k="ssr:stedsnr" v="870187" />
	</node>
	<node lat="59.52334999608363" lon="5.257105551362322" id="-35807">
		<tag k="name" v="Skjeljavik" />
		<tag k="place" v="farm" />
		<tag k="ssr:stedsnr" v="876214" />
	</node>
	<node lat="59.564894441784894" lon="5.31699722889518" id="-35810">
		<tag k="name" v="Vierdalen" />
		<tag k="place" v="farm" />
		<tag k="ssr:stedsnr" v="876088" />
	</node>
	<node lat="59.55632221928989" lon="5.4115138870040544" id="-35812">
		<tag k="name" v="Liagjerdet" />
		<tag k="place" v="farm" />
		<tag k="ssr:stedsnr" v="876038" />
	</node>
	<node lat="59.641779562456136" lon="5.4527296696730705" id="-35844">
		<tag k="fixme" v="consider place=hamlet" />
		<tag k="name" v="Lindås" />
		<tag k="place" v="farm" />
		<tag k="ssr:stedsnr" v="936422" />
	</node>
	<node lat="59.54971110925279" lon="5.410055550147787" id="-35849">
		<tag k="name" v="Lid" />
=======
		<tag k="ssr:stedsnr" v="754078" />
	</node>
	<node id="-601236" lat="59.5261444469" lon="5.33958054707">
		<tag k="fixme" v="multiple name tags, choose one and add the other to alt_name" />
		<tag k="name" v="Haugland;Hokla" />
		<tag k="place" v="farm" />
		<tag k="ssr:stedsnr" v="754076" />
	</node>
	<node id="-600722" lat="59.5556444467" lon="5.26992777505">
		<tag k="name" v="Grøndalen" />
		<tag k="place" v="farm" />
		<tag k="ssr:stedsnr" v="145009" />
	</node>
	<node id="-600721" lat="59.6366760152" lon="5.38423939063">
		<tag k="name" v="Økland" />
		<tag k="place" v="farm" />
		<tag k="ssr:stedsnr" v="141790" />
	</node>
	<node id="-600720" lat="59.5416313938" lon="5.34909865137">
		<tag k="name" v="Vigdarheim" />
		<tag k="place" v="farm" />
		<tag k="ssr:stedsnr" v="141779" />
	</node>
	<node id="-601231" lat="59.6959249994" lon="5.47578889168">
		<tag k="name" v="Valo" />
		<tag k="place" v="farm" />
		<tag k="ssr:stedsnr" v="753530" />
	</node>
	<node id="-600718" lat="59.6425249965" lon="5.38103610908">
		<tag k="name" v="Økland" />
		<tag k="place" v="farm" />
		<tag k="ssr:stedsnr" v="141723" />
	</node>
	<node id="-600770" lat="59.5504742719" lon="5.25206659335">
		<tag k="alt_name" v="Lyngholm" />
		<tag k="fixme" v="consider place=hamlet" />
		<tag k="name" v="Lyngholmen" />
		<tag k="place" v="farm" />
		<tag k="ssr:stedsnr" v="185229" />
	</node>
	<node id="-600202" lat="59.6359416677" lon="5.3852444503">
		<tag k="name" v="Økland" />
		<tag k="place" v="farm" />
		<tag k="ssr:stedsnr" v="627823" />
	</node>
	<node id="-600712" lat="59.6467722261" lon="5.39238056288">
		<tag k="alt_name" v="Slettene" />
		<tag k="name" v="Slettane" />
		<tag k="place" v="farm" />
		<tag k="ssr:stedsnr" v="124923" />
	</node>
	<node id="-600709" lat="59.6473138886" lon="5.4514000083">
		<tag k="name" v="Lindås" />
		<tag k="place" v="farm" />
		<tag k="ssr:stedsnr" v="124894" />
	</node>
	<node id="-600706" lat="59.6330597464" lon="5.41005196916">
		<tag k="name" v="Eikeland" />
		<tag k="place" v="hamlet" />
		<tag k="ssr:stedsnr" v="124818" />
	</node>
	<node id="-599785" lat="59.595394445" lon="5.32775277058">
		<tag k="alt_name" v="Bua" />
		<tag k="name" v="Buavågen" />
		<tag k="place" v="farm" />
		<tag k="ssr:stedsnr" v="246723" />
	</node>
	<node id="-600597" lat="59.4999138846" lon="5.45424721706">
		<tag k="alt_name" v="Grunnavåg" />
		<tag k="name" v="Grunnavågen" />
		<tag k="place" v="farm" />
		<tag k="ssr:stedsnr" v="63685" />
	</node>
	<node id="-600188" lat="59.5636666651" lon="5.28995834013">
		<tag k="name" v="Leite" />
		<tag k="place" v="farm" />
		<tag k="ssr:stedsnr" v="609216" />
	</node>
	<node id="-600696" lat="59.6066916657" lon="5.51938334146">
		<tag k="name" v="Bulvik" />
		<tag k="place" v="farm" />
		<tag k="ssr:stedsnr" v="124361" />
	</node>
	<node id="-600340" lat="59.5528207688" lon="5.39264080514">
		<tag k="fixme" v="consider place=hamlet" />
		<tag k="name" v="Bjelland" />
		<tag k="place" v="farm" />
		<tag k="ssr:stedsnr" v="913232" />
	</node>
	<node id="-600694" lat="59.5485111082" lon="5.34355833897">
		<tag k="name" v="Åse" />
		<tag k="place" v="farm" />
		<tag k="ssr:stedsnr" v="124198" />
	</node>
	<node id="-600180" lat="59.4958277811" lon="5.26754999856">
		<tag k="alt_name" v="Straumsvoll" />
		<tag k="fixme" v="consider place=hamlet" />
		<tag k="name" v="Strømsvoll" />
		<tag k="place" v="farm" />
		<tag k="ssr:stedsnr" v="572710" />
	</node>
	<node id="-599807" lat="59.5468832385" lon="5.41808090904">
		<tag k="name" v="Krossgot" />
		<tag k="place" v="farm" />
		<tag k="ssr:stedsnr" v="264261" />
	</node>
	<node id="-601201" lat="59.7146249965" lon="5.50819444212">
		<tag k="fixme" v="consider place=hamlet" />
		<tag k="name" v="Tittelsnes" />
		<tag k="place" v="village" />
		<tag k="ssr:stedsnr" v="632981" />
	</node>
	<node id="-600176" lat="59.5765749957" lon="5.29314443778">
		<tag k="alt_name" v="Nesheim" />
		<tag k="name" v="Næsheim" />
		<tag k="place" v="farm" />
		<tag k="ssr:stedsnr" v="572126" />
	</node>
	<node id="-600687" lat="59.5268424099" lon="5.40220782398">
		<tag k="alt_name" v="Dyngen" />
		<tag k="fixme" v="consider place=hamlet" />
		<tag k="name" v="Dyngjo" />
		<tag k="place" v="farm" />
		<tag k="ssr:stedsnr" v="124158" />
	</node>
	<node id="-601121" lat="59.6363892909" lon="5.38413620614">
		<tag k="name" v="Økland" />
		<tag k="place" v="farm" />
		<tag k="ssr:stedsnr" v="566823" />
	</node>
	<node id="-601162" lat="59.6264340298" lon="5.48032808966">
		<tag k="fixme" v="consider place=hamlet" />
		<tag k="name" v="Austvik" />
		<tag k="place" v="farm" />
		<tag k="ssr:stedsnr" v="609428" />
	</node>
	<node id="-600108" lat="59.6612482431" lon="5.45458311021">
		<tag k="alt_name" v="Ørevik;Ørvik" />
		<tag k="fixme" v="consider place=hamlet" />
		<tag k="name" v="Ørevika" />
		<tag k="place" v="farm" />
		<tag k="ssr:stedsnr" v="670903" />
	</node>
	<node id="-600675" lat="59.4971102984" lon="5.39862788953">
		<tag k="fixme" v="consider place=hamlet" />
		<tag k="name" v="Eilerås" />
		<tag k="place" v="farm" />
		<tag k="ssr:stedsnr" v="123728" />
	</node>
	<node id="-600162" lat="59.5503138855" lon="5.49428888404">
		<tag k="name" v="Erve" />
		<tag k="place" v="farm" />
		<tag k="ssr:stedsnr" v="694831" />
	</node>
	<node id="-601185" lat="59.6230480808" lon="5.51631845568">
		<tag k="fixme" v="consider place=hamlet" />
		<tag k="name" v="Håvardsholm" />
		<tag k="place" v="farm" />
		<tag k="ssr:stedsnr" v="610461" />
	</node>
	<node id="-601199" lat="59.5139250025" lon="5.44308333869">
		<tag k="name" v="Litlafjon" />
		<tag k="place" v="farm" />
		<tag k="ssr:stedsnr" v="632948" />
	</node>
	<node id="-601181" lat="59.7031782794" lon="5.48469871279">
		<tag k="alt_name" v="Einstapavoll;Einstapvoll" />
		<tag k="fixme" v="consider place=hamlet" />
		<tag k="name" v="Einstabøvoll" />
		<tag k="place" v="farm" />
		<tag k="ssr:stedsnr" v="610098" />
	</node>
	<node id="-599907" lat="59.7103833358" lon="5.52141944733">
		<tag k="name" v="Øyjorden" />
		<tag k="place" v="farm" />
		<tag k="ssr:stedsnr" v="451674" />
	</node>
	<node id="-601174" lat="59.6844680345" lon="5.45912220784">
		<tag k="alt_name" v="Vatsli;Vasslia" />
		<tag k="fixme" v="consider place=hamlet" />
		<tag k="name" v="Vassli" />
		<tag k="place" v="farm" />
		<tag k="ssr:stedsnr" v="609993" />
	</node>
	<node id="-601172" lat="59.6324374674" lon="5.36013831499">
		<tag k="alt_name" v="Li;Lien" />
		<tag k="fixme" v="consider place=hamlet" />
		<tag k="name" v="Lia" />
		<tag k="place" v="farm" />
		<tag k="ssr:stedsnr" v="609817" />
	</node>
	<node id="-601171" lat="59.6457783446" lon="5.51768583627">
		<tag k="fixme" v="consider place=hamlet" />
		<tag k="name" v="Staupe" />
		<tag k="place" v="farm" />
		<tag k="ssr:stedsnr" v="609471" />
	</node>
	<node id="-601170" lat="59.6485467694" lon="5.47724826246">
		<tag k="fixme" v="consider place=hamlet" />
		<tag k="name" v="Hope" />
		<tag k="place" v="farm" />
		<tag k="ssr:stedsnr" v="609469" />
	</node>
	<node id="-600145" lat="59.6595777812" lon="5.52354722196">
		<tag k="name" v="Slettvika" />
		<tag k="place" v="farm" />
		<tag k="ssr:stedsnr" v="694185" />
	</node>
	<node id="-601168" lat="59.4924305514" lon="5.32578333953">
		<tag k="name" v="Nyheim" />
		<tag k="place" v="farm" />
		<tag k="ssr:stedsnr" v="609656" />
	</node>
	<node id="-601167" lat="59.5455750845" lon="5.49651025888">
		<tag k="fixme" v="consider place=hamlet" />
		<tag k="name" v="Tveit" />
		<tag k="place" v="farm" />
		<tag k="ssr:stedsnr" v="609322" />
	</node>
	<node id="-600141" lat="59.6874749963" lon="5.47939723102">
		<tag k="name" v="Stølen" />
		<tag k="place" v="farm" />
		<tag k="ssr:stedsnr" v="693601" />
	</node>
	<node id="-600138" lat="59.6433416644" lon="5.38946111646">
		<tag k="name" v="Økland" />
		<tag k="place" v="farm" />
		<tag k="ssr:stedsnr" v="688765" />
	</node>
	<node id="-600137" lat="59.6481194447" lon="5.39372777825">
		<tag k="name" v="Økland" />
		<tag k="place" v="farm" />
		<tag k="ssr:stedsnr" v="688760" />
	</node>
	<node id="-601160" lat="59.5012499978" lon="5.31165554959">
		<tag k="alt_name" v="Nordre Våge;Våge Nordre" />
		<tag k="name" v="Våge" />
		<tag k="place" v="farm" />
		<tag k="ssr:stedsnr" v="609133" />
	</node>
	<node id="-601159" lat="59.5420931822" lon="5.41813134844">
		<tag k="name" v="Bråtveit" />
		<tag k="place" v="hamlet" />
		<tag k="ssr:stedsnr" v="609193" />
	</node>
	<node id="-601157" lat="59.7105416655" lon="5.49350833188">
		<tag k="name" v="Solås" />
		<tag k="old_name" v="Nordtræ" />
		<tag k="place" v="farm" />
		<tag k="ssr:stedsnr" v="609081" />
	</node>
	<node id="-600865" lat="59.4818830503" lon="5.30680566417">
		<tag k="alt_name" v="Søre Våge;Søre-Våge" />
		<tag k="name" v="Våga" />
		<tag k="place" v="hamlet" />
		<tag k="ssr:stedsnr" v="306687" />
	</node>
	<node id="-601154" lat="59.6662117487" lon="5.46134887818">
		<tag k="name" v="Vihovda" />
		<tag k="place" v="hamlet" />
		<tag k="ssr:stedsnr" v="573767" />
	</node>
	<node id="-600583" lat="59.6717714469" lon="5.45246635391">
		<tag k="fixme" v="consider place=hamlet" />
		<tag k="name" v="Breistig" />
		<tag k="place" v="farm" />
		<tag k="ssr:stedsnr" v="27784" />
	</node>
	<node id="-600127" lat="59.5304166643" lon="5.43749999855">
		<tag k="name" v="Kvalvåg" />
		<tag k="place" v="farm" />
		<tag k="ssr:stedsnr" v="511879" />
	</node>
	<node id="-600124" lat="59.5523397146" lon="5.49644652463">
		<tag k="fixme" v="consider place=hamlet" />
		<tag k="name" v="Erve" />
		<tag k="place" v="farm" />
		<tag k="ssr:stedsnr" v="489336" />
	</node>
	<node id="-600123" lat="59.6665752078" lon="5.46944645721">
		<tag k="alt_name" v="Berge" />
		<tag k="fixme" v="consider place=hamlet" />
		<tag k="name" v="Berget" />
		<tag k="place" v="farm" />
		<tag k="ssr:stedsnr" v="488010" />
	</node>
	<node id="-600634" lat="59.5356611077" lon="5.28343611334">
		<tag k="name" v="Stemhaug" />
		<tag k="place" v="farm" />
		<tag k="ssr:stedsnr" v="87070" />
	</node>
	<node id="-601144" lat="59.5337055562" lon="5.39085000661">
		<tag k="alt_name" v="Apeland søndre" />
		<tag k="fixme" v="consider place=hamlet" />
		<tag k="name" v="Søre Apeland" />
		<tag k="place" v="farm" />
		<tag k="ssr:stedsnr" v="572899" />
	</node>
	<node id="-600118" lat="59.5955638468" lon="5.4106090774">
		<tag k="fixme" v="consider place=hamlet" />
		<tag k="name" v="Sætre" />
		<tag k="place" v="farm" />
		<tag k="ssr:stedsnr" v="671761" />
	</node>
	<node id="-601141" lat="59.5771222251" lon="5.34398055607">
		<tag k="name" v="Lyngstad" />
		<tag k="place" v="farm" />
		<tag k="ssr:stedsnr" v="572618" />
	</node>
	<node id="-600116" lat="59.5191892992" lon="5.25509095654">
		<tag k="fixme" v="consider place=hamlet" />
		<tag k="name" v="Avløypet" />
		<tag k="place" v="farm" />
		<tag k="ssr:stedsnr" v="671183" />
	</node>
	<node id="-600627" lat="59.6438611133" lon="5.38411111306">
		<tag k="name" v="Økland" />
		<tag k="place" v="farm" />
		<tag k="ssr:stedsnr" v="81808" />
	</node>
	<node id="-600626" lat="59.6403732068" lon="5.37765258395">
		<tag k="name" v="Økland" />
		<tag k="place" v="farm" />
		<tag k="ssr:stedsnr" v="81758" />
	</node>
	<node id="-600625" lat="59.5373416676" lon="5.33953055921">
		<tag k="name" v="Fjellstad" />
		<tag k="place" v="quarter" />
		<tag k="ssr:stedsnr" v="81171" />
	</node>
	<node id="-600111" lat="59.5243618895" lon="5.28261304821">
		<tag k="name" v="Mølstre" />
		<tag k="place" v="hamlet" />
		<tag k="ssr:stedsnr" v="671079" />
	</node>
	<node id="-600569" lat="59.5478499976" lon="5.40954444932">
		<tag k="name" v="Bruarvoll" />
		<tag k="place" v="farm" />
		<tag k="ssr:stedsnr" v="26840" />
	</node>
	<node id="-600089" lat="59.6767483527" lon="5.48641565846">
		<tag k="fixme" v="consider place=hamlet" />
		<tag k="name" v="Tråvås" />
		<tag k="place" v="farm" />
		<tag k="ssr:stedsnr" v="670055" />
	</node>
	<node id="-601125" lat="59.5936250011" lon="5.47338888289">
		<tag k="name" v="Øvre Lier" />
		<tag k="place" v="farm" />
		<tag k="ssr:stedsnr" v="572010" />
	</node>
	<node id="-601123" lat="59.6455388913" lon="5.37793610366">
		<tag k="name" v="Plasset" />
>>>>>>> e1d4bc35ff8a6074a6f2e91616a996b547c36f15
		<tag k="place" v="farm" />
		<tag k="ssr:stedsnr" v="572093" />
	</node>
<<<<<<< HEAD
	<node lat="59.617727780149394" lon="5.423324996319652" id="-35851">
		<tag k="name" v="Fagerland" />
		<tag k="place" v="farm" />
		<tag k="ssr:stedsnr" v="936946" />
	</node>
	<node lat="59.53412499687271" lon="5.466683328759876" id="-35855">
		<tag k="alt_name" v="Risvik" />
		<tag k="name" v="Risvika" />
		<tag k="place" v="farm" />
		<tag k="ssr:stedsnr" v="936991" />
	</node>
	<node lat="59.58968734127664" lon="5.442482575232921" id="-35880">
		<tag k="name" v="Balsvik" />
		<tag k="place" v="locality" />
		<tag k="ssr:stedsnr" v="989764" />
	</node>
	<node lat="59.68151981083695" lon="5.535047168307766" id="-35881">
		<tag k="fixme" v="consider place=hamlet" />
		<tag k="name" v="Ravneberg" />
		<tag k="place" v="farm" />
		<tag k="ssr:stedsnr" v="990301" />
	</node>
	<node lat="59.63239395987306" lon="5.372964545370388" id="-35882">
		<tag k="fixme" v="consider place=hamlet" />
		<tag k="name" v="Øklandsvåg" />
		<tag k="place" v="farm" />
		<tag k="ssr:stedsnr" v="990306" />
	</node>
	<node lat="59.62612581597545" lon="5.334336632007987" id="-35883">
		<tag k="fixme" v="consider place=hamlet" />
		<tag k="name" v="Tjernagelsholmen" />
		<tag k="place" v="farm" />
		<tag k="ssr:stedsnr" v="990307" />
	</node>
	<node lat="59.59605095229894" lon="5.3225811369758205" id="-35884">
		<tag k="fixme" v="consider place=hamlet" />
		<tag k="name" v="Bua" />
		<tag k="place" v="farm" />
		<tag k="ssr:stedsnr" v="990308" />
	</node>
	<node lat="59.507948131600784" lon="5.353967812774673" id="-35885">
		<tag k="fixme" v="consider place=hamlet" />
		<tag k="name" v="Gilje" />
		<tag k="place" v="farm" />
		<tag k="ssr:stedsnr" v="990311" />
	</node>
	<node lat="59.57525789646867" lon="5.407878374911772" id="-35886">
		<tag k="fixme" v="consider place=hamlet" />
		<tag k="name" v="Tveitali" />
		<tag k="place" v="farm" />
		<tag k="ssr:stedsnr" v="990312" />
	</node>
	<node lat="59.548126864621075" lon="5.511914074895161" id="-35887">
		<tag k="fixme" v="consider place=hamlet" />
		<tag k="name" v="Oaneset" />
		<tag k="place" v="farm" />
		<tag k="ssr:stedsnr" v="990316" />
	</node>
	<node lat="59.63699363763282" lon="5.510988259555994" id="-35888">
		<tag k="fixme" v="consider place=hamlet" />
		<tag k="name" v="Haugen" />
		<tag k="place" v="farm" />
		<tag k="ssr:stedsnr" v="990321" />
	</node>
	<node lat="59.608337292046876" lon="5.478725914982787" id="-35889">
		<tag k="fixme" v="consider place=hamlet" />
		<tag k="name" v="Førde" />
		<tag k="place" v="farm" />
		<tag k="ssr:stedsnr" v="990323" />
=======
	<node id="-600097" lat="59.5234287067" lon="5.25322036477">
		<tag k="alt_name" v="Mølstrevågnes" />
		<tag k="fixme" v="consider place=hamlet" />
		<tag k="name" v="Mølstrevåg" />
		<tag k="old_name" v="Mølstrevågsnes" />
		<tag k="place" v="farm" />
		<tag k="ssr:stedsnr" v="670175" />
	</node>
	<node id="-600907" lat="59.5550222229" lon="5.4079499959">
		<tag k="alt_name" v="Liatre" />
		<tag k="name" v="Liatræ" />
		<tag k="place" v="farm" />
		<tag k="ssr:stedsnr" v="330038" />
	</node>
	<node id="-601117" lat="59.6528666416" lon="5.43575986423">
		<tag k="fixme" v="consider place=hamlet" />
		<tag k="name" v="Straumøy" />
		<tag k="place" v="farm" />
		<tag k="ssr:stedsnr" v="549884" />
	</node>
	<node id="-600604" lat="59.528820009" lon="5.43602532674">
		<tag k="fixme" v="consider place=hamlet" />
		<tag k="name" v="Kvalvåg" />
		<tag k="place" v="farm" />
		<tag k="ssr:stedsnr" v="64158" />
	</node>
	<node id="-600090" lat="59.6757320747" lon="5.47020259237">
		<tag k="alt_name" v="Ulveråker" />
		<tag k="fixme" v="consider place=hamlet" />
		<tag k="name" v="Ulvaråker" />
		<tag k="place" v="farm" />
		<tag k="ssr:stedsnr" v="670060" />
	</node>
	<node id="-601263" lat="59.5578694408" lon="5.27225555328">
		<tag k="name" v="Salhusvik" />
		<tag k="place" v="farm" />
		<tag k="ssr:stedsnr" v="754600" />
	</node>
	<node id="-601109" lat="59.6085900916" lon="5.48288201062">
		<tag k="fixme" v="consider place=hamlet" />
		<tag k="name" v="Myklevoll" />
		<tag k="place" v="farm" />
		<tag k="ssr:stedsnr" v="549416" />
	</node>
	<node id="-600596" lat="59.4966579408" lon="5.28655985221">
		<tag k="name" v="Vikse" />
		<tag k="place" v="hamlet" />
		<tag k="ssr:stedsnr" v="63730" />
	</node>
	<node id="-601102" lat="59.5664363566" lon="5.42037001094">
		<tag k="fixme" v="consider place=hamlet" />
		<tag k="name" v="Haukås" />
		<tag k="place" v="farm" />
		<tag k="ssr:stedsnr" v="549235" />
	</node>
	<node id="-601101" lat="59.566086828" lon="5.33615613392">
		<tag k="fixme" v="consider place=hamlet" />
		<tag k="name" v="Nordskog" />
		<tag k="place" v="farm" />
		<tag k="ssr:stedsnr" v="549230" />
	</node>
	<node id="-601100" lat="59.5608651974" lon="5.2857322092">
		<tag k="fixme" v="consider place=hamlet" />
		<tag k="name" v="Eltravåg" />
		<tag k="place" v="farm" />
		<tag k="ssr:stedsnr" v="549224" />
	</node>
	<node id="-599810" lat="59.5004888895" lon="5.30401388989">
		<tag k="name" v="Øvrabø" />
		<tag k="place" v="farm" />
		<tag k="ssr:stedsnr" v="269086" />
	</node>
	<node id="-600585" lat="59.5591972258" lon="5.37239445243">
		<tag k="leisure" v="pitch" />
		<tag k="name" v="Haugaland Golfbane" />
		<tag k="ssr:stedsnr" v="56352" />
	</node>
	<node id="-601095" lat="59.538614069" lon="5.28126577824">
		<tag k="alt_name" v="Vandeskog" />
		<tag k="fixme" v="consider place=hamlet" />
		<tag k="name" v="Vandaskog" />
		<tag k="place" v="farm" />
		<tag k="ssr:stedsnr" v="549200" />
	</node>
	<node id="-600070" lat="59.5585333376" lon="5.33102777839">
		<tag k="alt_name" v="Røssahaug" />
		<tag k="name" v="Rossehaug" />
		<tag k="place" v="farm" />
		<tag k="ssr:stedsnr" v="659249" />
	</node>
	<node id="-600069" lat="59.6214333313" lon="5.33179444506">
		<tag k="alt_name" v="Tjernaget, s;Tjernagel, søndre" />
		<tag k="name" v="Søre Tjernagel" />
		<tag k="place" v="farm" />
		<tag k="ssr:stedsnr" v="428830" />
	</node>
	<node id="-600066" lat="59.5862512635" lon="5.29988206745">
		<tag k="fixme" v="consider place=hamlet" />
		<tag k="name" v="Hovda" />
		<tag k="place" v="farm" />
		<tag k="ssr:stedsnr" v="428810" />
>>>>>>> e1d4bc35ff8a6074a6f2e91616a996b547c36f15
	</node>
</osm>
