<?xml version="1.0" encoding="UTF-8"?>
<osm generator="osmapis" version="0.6">
	<node id="-21532" lat="59.6253833326" lon="10.6794277852">
		<tag k="name" v="Haugenholtet" />
		<tag k="place" v="locality" />
		<tag k="ssr:stedsnr" v="483195" />
	</node>
	<node id="-21433" lat="59.5258555597" lon="10.6963277749">
		<tag k="amenity" v="place_of_worship" />
		<tag k="denomination" v="lutheran" />
		<tag k="name" v="Strømbråten kapell" />
		<tag k="religion" v="christian" />
		<tag k="ssr:stedsnr" v="238439" />
	</node>
	<node id="-21526" lat="59.5244527743" lon="10.6955666692">
		<tag k="name" v="Munkenes kapell" />
		<tag k="ssr:stedsnr" v="481440" />
		<tag k="tourism" v="attraction" />
	</node>
	<node id="-21493" lat="59.5993222193" lon="10.6587444399">
		<tag k="alt_name" v="Hvitsten" />
		<tag k="amenity" v="place_of_worship" />
		<tag k="denomination" v="lutheran" />
		<tag k="name" v="Hvitsten kirke" />
		<tag k="religion" v="christian" />
		<tag k="ssr:stedsnr" v="428591" />
	</node>
	<node id="-21332" lat="59.5845666686" lon="10.6536972144">
		<tag k="name" v="Toppen" />
		<tag k="place" v="locality" />
		<tag k="ssr:stedsnr" v="56960" />
	</node>
	<node id="-21233" lat="59.5915833341" lon="10.7233166593">
		<tag k="name" v="Røed naturminne" />
		<tag k="ssr:stedsnr" v="326175" />
		<tag k="tourism" v="attraction" />
	</node>
	<node id="-21293" lat="59.515894184" lon="10.6848059433">
		<tag k="amenity" v="place_of_worship" />
		<tag k="denomination" v="lutheran" />
		<tag k="name" v="Son kulturkirke" />
		<tag k="religion" v="christian" />
		<tag k="ssr:stedsnr" v="991000" />
	</node>
	<node id="-21548" lat="59.6025111099" lon="10.7317583385">
		<tag k="alt_name" v="Vestby" />
		<tag k="amenity" v="place_of_worship" />
		<tag k="denomination" v="lutheran" />
		<tag k="name" v="Vestby kirke" />
		<tag k="religion" v="christian" />
		<tag k="ssr:stedsnr" v="489154" />
	</node>
	<node id="-21579" lat="59.5279111148" lon="10.6851138842">
		<tag k="name" v="Saltbua" />
		<tag k="place" v="locality" />
		<tag k="ssr:stedsnr" v="542461" />
	</node>
	<node id="-21769" lat="59.5285611147" lon="10.7528416659">
		<tag k="alt_name" v="Såner" />
		<tag k="amenity" v="place_of_worship" />
		<tag k="denomination" v="lutheran" />
		<tag k="name" v="Såner kirke" />
		<tag k="religion" v="christian" />
		<tag k="ssr:stedsnr" v="793001" />
	</node>
	<node id="-21604" lat="59.5811166657" lon="10.8093583353">
		<tag k="alt_name" v="Garder" />
		<tag k="amenity" v="place_of_worship" />
		<tag k="denomination" v="lutheran" />
		<tag k="name" v="Garder kirke" />
		<tag k="religion" v="christian" />
		<tag k="ssr:stedsnr" v="610201" />
	</node>
</osm>
