<?xml version="1.0" encoding="UTF-8"?>
<osm generator="osmapis" version="0.6">
	<node id="-21632" lat="59.5136777759" lon="10.6729888959">
		<tag k="name" v="Skjærsund" />
		<tag k="natural" v="strait" />
		<tag k="ssr:stedsnr" v="602437" />
	</node>
	<node id="-21498" lat="59.5754694439" lon="10.6477611062">
		<tag k="name" v="Brenntangen" />
		<tag k="natural" v="cape" />
		<tag k="ssr:stedsnr" v="428706" />
	</node>
	<node id="-21368" lat="59.4895000024" lon="10.6855305604">
		<tag k="name" v="Brevikbukta" />
		<tag k="natural" v="bay" />
		<tag k="ssr:stedsnr" v="117617" />
	</node>
	<node id="-21749" lat="59.5154138902" lon="10.674963884">
		<tag k="name" v="Sauholmen" />
		<tag k="place" v="islet" />
		<tag k="ssr:stedsnr" v="784455" />
	</node>
	<node id="-21748" lat="59.5410027742" lon="10.6595722274">
		<tag k="name" v="Hansonstranda" />
		<tag k="natural" v="beach" />
		<tag k="place" v="locality" />
		<tag k="ssr:stedsnr" v="784345" />
	</node>
	<node id="-21744" lat="59.4998000022" lon="10.680286108">
		<tag k="name" v="Skurvåsodden" />
		<tag k="natural" v="cape" />
		<tag k="ssr:stedsnr" v="756101" />
	</node>
	<node id="-21867" lat="59.5189055554" lon="10.6701583318">
		<tag k="name" v="Middelgrunnen" />
		<tag k="natural" v="shoal" />
		<tag k="place" v="locality" />
		<tag k="ssr:stedsnr" v="938104" />
	</node>
	<node id="-21726" lat="59.5830388859" lon="10.6539527815">
		<tag k="name" v="Emmerstadbukta" />
		<tag k="natural" v="bay" />
		<tag k="ssr:stedsnr" v="731714" />
	</node>
	<node id="-21594" lat="59.6088222225" lon="10.6482250023">
		<tag k="name" v="Rammebåen" />
		<tag k="natural" v="shoal" />
		<tag k="place" v="locality" />
		<tag k="ssr:stedsnr" v="549619" />
	</node>
	<node id="-21721" lat="59.5135888852" lon="10.6794166743">
		<tag k="name" v="Skutebaugen" />
		<tag k="natural" v="cape" />
		<tag k="ssr:stedsnr" v="724393" />
	</node>
	<node id="-21720" lat="59.5185861106" lon="10.681769438">
		<tag k="name" v="Langesand" />
		<tag k="natural" v="beach" />
		<tag k="place" v="locality" />
		<tag k="ssr:stedsnr" v="724389" />
	</node>
	<node id="-21846" lat="59.5094249988" lon="10.6809555617">
		<tag k="name" v="Tønnesodden" />
		<tag k="natural" v="cape" />
		<tag k="ssr:stedsnr" v="913494" />
	</node>
	<node id="-21845" lat="59.5211694427" lon="10.6790500016">
		<tag k="alt_name" v="Sonskilen" />
		<tag k="name" v="Sonsbukta" />
		<tag k="natural" v="bay" />
		<tag k="ssr:stedsnr" v="913483" />
	</node>
	<node id="-21713" lat="59.5904166643" lon="10.6520527809">
		<tag k="name" v="Hestvika" />
		<tag k="natural" v="bay" />
		<tag k="ssr:stedsnr" v="692924" />
	</node>
	<node id="-21839" lat="59.5883611146" lon="10.6525000073">
		<tag k="name" v="Bråtebukta" />
		<tag k="natural" v="bay" />
		<tag k="ssr:stedsnr" v="908773" />
	</node>
	<node id="-21197" lat="59.5231388912" lon="10.6762666737">
		<tag k="name" v="Maritangen" />
		<tag k="natural" v="cape" />
		<tag k="ssr:stedsnr" v="300942" />
	</node>
	<node id="-21324" lat="59.5138694419" lon="10.6768944529">
		<tag k="alt_name" v="Saueholmsundet" />
		<tag k="name" v="Sauholmsundet" />
		<tag k="natural" v="strait" />
		<tag k="ssr:stedsnr" v="28806" />
	</node>
	<node id="-21578" lat="59.5123499967" lon="10.6715777787">
		<tag k="name" v="Storholmen" />
		<tag k="place" v="islet" />
		<tag k="ssr:stedsnr" v="542420" />
	</node>
	<node id="-21573" lat="59.5216249992" lon="10.6752194424">
		<tag k="name" v="Ballastbåen" />
		<tag k="place" v="locality" />
		<tag k="seamark:type" v="rock" />
		<tag k="ssr:stedsnr" v="541711" />
	</node>
	<node id="-21825" lat="59.5170138911" lon="10.6735055533">
		<tag k="alt_name" v="Saueholmbåen" />
		<tag k="name" v="Sauholmbåen" />
		<tag k="place" v="locality" />
		<tag k="seamark:type" v="rock" />
		<tag k="ssr:stedsnr" v="905714" />
	</node>
	<node id="-21566" lat="59.508944448" lon="10.6824416625">
		<tag k="name" v="Brevikbukta" />
		<tag k="natural" v="bay" />
		<tag k="ssr:stedsnr" v="513900" />
	</node>
	<node id="-21565" lat="59.518741665" lon="10.6771694488">
		<tag k="name" v="Bentsebåen" />
		<tag k="place" v="locality" />
		<tag k="seamark:type" v="rock" />
		<tag k="ssr:stedsnr" v="513115" />
	</node>
	<node id="-21564" lat="59.6095027798" lon="10.6491777772">
		<tag k="name" v="Sandvik" />
		<tag k="natural" v="bay" />
		<tag k="ssr:stedsnr" v="511009" />
	</node>
	<node id="-21322" lat="59.5826277758" lon="10.6492444517">
		<tag k="alt_name" v="Brånensbåen" />
		<tag k="name" v="Brånansbåen" />
		<tag k="natural" v="shoal" />
		<tag k="place" v="locality" />
		<tag k="ssr:stedsnr" v="25940" />
	</node>
	<node id="-21432" lat="59.520438893" lon="10.6823555604">
		<tag k="name" v="Pjåken" />
		<tag k="natural" v="bay" />
		<tag k="ssr:stedsnr" v="238432" />
	</node>
	<node id="-21427" lat="59.5650694449" lon="10.6505083394">
		<tag k="name" v="Krokbukta" />
		<tag k="natural" v="bay" />
		<tag k="ssr:stedsnr" v="210785" />
	</node>
	<node id="-21801" lat="59.5225416644" lon="10.66994167">
		<tag k="name" v="Sonstangen" />
		<tag k="natural" v="cape" />
		<tag k="ssr:stedsnr" v="852512" />
	</node>
	<node id="-21280" lat="59.5246444419" lon="10.6723805519">
		<tag k="name" v="Laksa" />
		<tag k="natural" v="cape" />
		<tag k="ssr:stedsnr" v="890014" />
	</node>
	<node id="-21872" lat="59.5363305571" lon="10.6588138863">
		<tag k="name" v="Lysterodden" />
		<tag k="natural" v="cape" />
		<tag k="ssr:stedsnr" v="966324" />
	</node>
	<node id="-21789" lat="59.5382666624" lon="10.661758338">
		<tag k="name" v="Kjøvangbukta" />
		<tag k="natural" v="bay" />
		<tag k="ssr:stedsnr" v="817781" />
	</node>
	<node id="-21398" lat="59.5854083308" lon="10.6509027848">
		<tag k="name" v="Emmerstadbåen" />
		<tag k="natural" v="shoal" />
		<tag k="place" v="locality" />
		<tag k="ssr:stedsnr" v="147932" />
	</node>
	<node id="-21397" lat="59.6147722183" lon="10.650058333">
		<tag k="fixme" v="consider seamark:type=rock or natural=shoal" />
		<tag k="name" v="Elveskjæret" />
		<tag k="place" v="islet" />
		<tag k="ssr:stedsnr" v="146006" />
	</node>
	<node id="-21522" lat="59.5961083373" lon="10.6550777796">
		<tag k="name" v="Bollesund" />
		<tag k="natural" v="bay" />
		<tag k="ssr:stedsnr" v="481235" />
	</node>
	<node id="-21592" lat="59.5126361111" lon="10.6720499958">
		<tag k="alt_name" v="Saueholmane;Saueholmene" />
		<tag k="name" v="Sauholmane" />
		<tag k="old_name" v="Sau. Hl.;Sauhl-ne" />
		<tag k="place" v="island" />
		<tag k="ssr:stedsnr" v="549504" />
	</node>
	<node id="-21250" lat="59.5026333316" lon="10.6697000034">
		<tag k="name" v="Gjøva" />
		<tag k="old_name" v="Jøva" />
		<tag k="place" v="islet" />
		<tag k="ssr:stedsnr" v="367437" />
	</node>
</osm>
