<?xml version="1.0" encoding="UTF-8"?>
<osm generator="osmapis" version="0.6">
	<node id="-21906" lat="59.5610804382" lon="10.7753259786">
		<tag k="name" v="Mellom-Rogsti" />
		<tag k="place" v="farm" />
		<tag k="ssr:stedsnr" v="977559" />
	</node>
	<node id="-21905" lat="59.5697427883" lon="10.7721537604">
		<tag k="fixme" v="consider place=hamlet" />
		<tag k="name" v="Rogsti" />
		<tag k="place" v="farm" />
		<tag k="ssr:stedsnr" v="977383" />
	</node>
	<node id="-21902" lat="59.5219866556" lon="10.7450450007">
		<tag k="fixme" v="consider place=hamlet" />
		<tag k="name" v="Eik" />
		<tag k="place" v="farm" />
		<tag k="ssr:stedsnr" v="974194" />
	</node>
	<node id="-21901" lat="59.590399999" lon="10.6569055573">
		<tag k="name" v="Myra" />
		<tag k="place" v="farm" />
		<tag k="ssr:stedsnr" v="968758" />
	</node>
	<node id="-21900" lat="59.5866250018" lon="10.7005555492">
		<tag k="name" v="Sandås" />
		<tag k="place" v="farm" />
		<tag k="ssr:stedsnr" v="968740" />
	</node>
	<node id="-21899" lat="59.5700361098" lon="10.7155111107">
		<tag k="name" v="Søndre Tømt" />
		<tag k="place" v="isolated_dwelling" />
		<tag k="ssr:stedsnr" v="968554" />
	</node>
	<node id="-21898" lat="59.639758331" lon="10.6861249951">
		<tag k="name" v="Linnestadlund" />
		<tag k="place" v="locality" />
		<tag k="ssr:stedsnr" v="968543" />
	</node>
	<node id="-21897" lat="59.63745556" lon="10.7017249999">
		<tag k="alt_name" v="Vastad nordre" />
		<tag k="name" v="Nordre Vastad" />
		<tag k="place" v="farm" />
		<tag k="ssr:stedsnr" v="968172" />
	</node>
	<node id="-21896" lat="59.6020944416" lon="10.6623888804">
		<tag k="name" v="Knutehullet" />
		<tag k="place" v="locality" />
		<tag k="ssr:stedsnr" v="967127" />
	</node>
	<node id="-21895" lat="59.6023111096" lon="10.688980552">
		<tag k="alt_name" v="Ugjestrud søndre" />
		<tag k="name" v="Søndre Ugjestrud" />
		<tag k="place" v="farm" />
		<tag k="ssr:stedsnr" v="967125" />
	</node>
	<node id="-21894" lat="59.5239000039" lon="10.7070138956">
		<tag k="name" v="Vollehagen" />
		<tag k="place" v="hamlet" />
		<tag k="ssr:stedsnr" v="966444" />
	</node>
	<node id="-21893" lat="59.5229138925" lon="10.6938111154">
		<tag k="name" v="Bernhoffløkka" />
		<tag k="place" v="farm" />
		<tag k="ssr:stedsnr" v="966439" />
	</node>
	<node id="-21892" lat="59.5216883722" lon="10.6910971262">
		<tag k="name" v="Alicenborg" />
		<tag k="old_name" v="Bråten" />
		<tag k="place" v="farm" />
		<tag k="ssr:stedsnr" v="966436" />
	</node>
	<node id="-21891" lat="59.5215416705" lon="10.7088027796">
		<tag k="name" v="Skoglundåsen" />
		<tag k="place" v="quarter" />
		<tag k="ssr:stedsnr" v="966433" />
	</node>
	<node id="-21889" lat="59.5328166626" lon="10.7030444423">
		<tag k="name" v="Presteøgården" />
		<tag k="place" v="farm" />
		<tag k="ssr:stedsnr" v="966289" />
	</node>
	<node id="-21888" lat="59.5616527764" lon="10.6508027743">
		<tag k="name" v="Snippen" />
		<tag k="place" v="farm" />
		<tag k="ssr:stedsnr" v="966268" />
	</node>
	<node id="-21884" lat="59.5628611104" lon="10.7978000034">
		<tag k="alt_name" v="Oksa øvre" />
		<tag k="name" v="Øvre Oksa" />
		<tag k="place" v="farm" />
		<tag k="ssr:stedsnr" v="933237" />
	</node>
	<node id="-21882" lat="59.5899888872" lon="10.7701972265">
		<tag k="name" v="Stavenga" />
		<tag k="place" v="locality" />
		<tag k="ssr:stedsnr" v="933176" />
	</node>
	<node id="-21881" lat="59.6171472221" lon="10.7315388861">
		<tag k="name" v="Libråten" />
		<tag k="place" v="farm" />
		<tag k="ssr:stedsnr" v="933217" />
	</node>
	<node id="-21880" lat="59.5679027744" lon="10.7530527843">
		<tag k="name" v="Øvre Langli" />
		<tag k="place" v="farm" />
		<tag k="ssr:stedsnr" v="933209" />
	</node>
	<node id="-21879" lat="59.6092111128" lon="10.6686249956">
		<tag k="alt_name" v="Lysdal;Østre Lysdal" />
		<tag k="name" v="Østre Lysedal" />
		<tag k="place" v="farm" />
		<tag k="ssr:stedsnr" v="914666" />
	</node>
	<node id="-21878" lat="59.5502750039" lon="10.7268305571">
		<tag k="name" v="Karder" />
		<tag k="place" v="farm" />
		<tag k="ssr:stedsnr" v="914250" />
	</node>
	<node id="-21877" lat="59.5486666676" lon="10.7220416606">
		<tag k="alt_name" v="Håkonsbråten" />
		<tag k="name" v="Håkensbråten" />
		<tag k="place" v="farm" />
		<tag k="ssr:stedsnr" v="914245" />
	</node>
	<node id="-21876" lat="59.567666667" lon="10.7285694417">
		<tag k="name" v="Skåka" />
		<tag k="place" v="farm" />
		<tag k="ssr:stedsnr" v="914223" />
	</node>
	<node id="-21875" lat="59.5702863997" lon="10.7724638466">
		<tag k="alt_name" v="Rogsti, nordre" />
		<tag k="name" v="Nordre Rogsti" />
		<tag k="place" v="farm" />
		<tag k="ssr:stedsnr" v="914215" />
	</node>
	<node id="-21874" lat="59.5860611099" lon="10.7913888819">
		<tag k="alt_name" v="Tuft;Tuft vestre" />
		<tag k="name" v="Vestre Tuft" />
		<tag k="place" v="farm" />
		<tag k="ssr:stedsnr" v="914183" />
	</node>
	<node id="-21873" lat="59.580683333" lon="10.8115305597">
		<tag k="name" v="Hovum" />
		<tag k="place" v="farm" />
		<tag k="ssr:stedsnr" v="914165" />
	</node>
	<node id="-21872" lat="59.5254750008" lon="10.7616694524">
		<tag k="alt_name" v="Østerud, nordre;Østerud nordre" />
		<tag k="name" v="Nordre Østerud" />
		<tag k="place" v="farm" />
		<tag k="ssr:stedsnr" v="914052" />
	</node>
	<node id="-21871" lat="59.5328888903" lon="10.7595222192">
		<tag k="name" v="Presterud" />
		<tag k="place" v="farm" />
		<tag k="ssr:stedsnr" v="914003" />
	</node>
	<node id="-21869" lat="59.5913583316" lon="10.6627638885">
		<tag k="name" v="Strand" />
		<tag k="place" v="farm" />
		<tag k="ssr:stedsnr" v="913723" />
	</node>
	<node id="-21868" lat="59.5850888899" lon="10.6610333422">
		<tag k="name" v="Sagstua" />
		<tag k="place" v="isolated_dwelling" />
		<tag k="ssr:stedsnr" v="913711" />
	</node>
	<node id="-21866" lat="59.5583000028" lon="10.6497527784">
		<tag k="name" v="Bølnes" />
		<tag k="place" v="farm" />
		<tag k="ssr:stedsnr" v="913657" />
	</node>
	<node id="-21865" lat="59.632169443" lon="10.7099305477">
		<tag k="name" v="Ødegården" />
		<tag k="place" v="farm" />
		<tag k="ssr:stedsnr" v="913644" />
	</node>
	<node id="-21862" lat="59.6072472253" lon="10.7240805532">
		<tag k="name" v="Vestbybråten" />
		<tag k="place" v="farm" />
		<tag k="ssr:stedsnr" v="913353" />
	</node>
	<node id="-21861" lat="59.6184666656" lon="10.8006777722">
		<tag k="name" v="Tannum" />
		<tag k="place" v="farm" />
		<tag k="ssr:stedsnr" v="913340" />
	</node>
	<node id="-21860" lat="59.6215055531" lon="10.7734472182">
		<tag k="name" v="Østereng" />
		<tag k="place" v="farm" />
		<tag k="ssr:stedsnr" v="913329" />
	</node>
	<node id="-21859" lat="59.6238749958" lon="10.7526500019">
		<tag k="alt_name" v="Stubberud" />
		<tag k="name" v="Stubberød" />
		<tag k="place" v="farm" />
		<tag k="ssr:stedsnr" v="913316" />
	</node>
	<node id="-21858" lat="59.6318666652" lon="10.7889333319">
		<tag k="alt_name" v="Tveiter, nordre;Tveiter nordre;Nordre Tveiter" />
		<tag k="name" v="Nordre Tveter" />
		<tag k="place" v="farm" />
		<tag k="ssr:stedsnr" v="913313" />
	</node>
	<node id="-21855" lat="59.5853361073" lon="10.6918305517">
		<tag k="name" v="Søndre Rønjul" />
		<tag k="place" v="farm" />
		<tag k="ssr:stedsnr" v="908735" />
	</node>
	<node id="-21854" lat="59.6261500032" lon="10.7042916688">
		<tag k="name" v="Moseby" />
		<tag k="place" v="locality" />
		<tag k="ssr:stedsnr" v="908181" />
	</node>
	<node id="-21853" lat="59.4917638927" lon="10.6932555594">
		<tag k="name" v="Haslebakke" />
		<tag k="place" v="isolated_dwelling" />
		<tag k="ssr:stedsnr" v="906642" />
	</node>
	<node id="-21852" lat="59.4932000027" lon="10.6926583361">
		<tag k="alt_name" v="Brevik søndre" />
		<tag k="name" v="Søndre Brevik" />
		<tag k="place" v="farm" />
		<tag k="ssr:stedsnr" v="906639" />
	</node>
	<node id="-21851" lat="59.4984944417" lon="10.7102166695">
		<tag k="alt_name" v="Rød østre" />
		<tag k="name" v="Østre Rød" />
		<tag k="place" v="farm" />
		<tag k="ssr:stedsnr" v="906466" />
	</node>
	<node id="-21847" lat="59.5335472253" lon="10.6834694434">
		<tag k="alt_name" v="Kålås øvre;Øvre Kålås" />
		<tag k="name" v="Øvre Kolås" />
		<tag k="place" v="farm" />
		<tag k="ssr:stedsnr" v="906303" />
	</node>
	<node id="-21846" lat="59.5458472255" lon="10.7101749976">
		<tag k="alt_name" v="Tugelite" />
		<tag k="loc_name" v="Tugulite" />
		<tag k="name" v="Mørkbråten" />
		<tag k="place" v="farm" />
		<tag k="ssr:stedsnr" v="906279" />
	</node>
	<node id="-21844" lat="59.6060583292" lon="10.680572218">
		<tag k="name" v="Søndre Knalstad" />
		<tag k="place" v="farm" />
		<tag k="ssr:stedsnr" v="906130" />
	</node>
	<node id="-21842" lat="59.553763888" lon="10.7738361095">
		<tag k="alt_name" v="Åmot store;Åmot, nordre" />
		<tag k="fixme" v="multiple name tags, choose one and add the other to alt_name" />
		<tag k="name" v="Nordre Åmot;Store Åmot" />
		<tag k="place" v="farm" />
		<tag k="ssr:stedsnr" v="903226" />
	</node>
	<node id="-21841" lat="59.5068499984" lon="10.6933749967">
		<tag k="fixme" v="consider place=suburb, village or hamlet" />
		<tag k="name" v="Store Brevik" />
		<tag k="place" v="quarter" />
		<tag k="ssr:stedsnr" v="875489" />
	</node>
	<node id="-21840" lat="59.6113944405" lon="10.6535611124">
		<tag k="name" v="Pyttskog" />
		<tag k="place" v="neighbourhood" />
		<tag k="ssr:stedsnr" v="874548" />
	</node>
	<node id="-21839" lat="59.5885750044" lon="10.8070749992">
		<tag k="alt_name" v="Tuft nedre" />
		<tag k="name" v="Nedre Tuft" />
		<tag k="place" v="farm" />
		<tag k="ssr:stedsnr" v="873173" />
	</node>
	<node id="-21838" lat="59.6063027744" lon="10.7553472271">
		<tag k="alt_name" v="Vestby v.g. skole" />
		<tag k="amenity" v="school" />
		<tag k="name" v="Vestby videregående skole" />
		<tag k="ssr:stedsnr" v="872812" />
	</node>
	<node id="-21837" lat="59.6022472238" lon="10.7478611171">
		<tag k="amenity" v="townhall" />
		<tag k="name" v="Herredshus" />
		<tag k="ssr:stedsnr" v="872774" />
	</node>
	<node id="-21836" lat="59.5716944418" lon="10.8048222228">
		<tag k="name" v="Fjellbu" />
		<tag k="place" v="isolated_dwelling" />
		<tag k="ssr:stedsnr" v="872244" />
	</node>
	<node id="-21835" lat="59.5902749998" lon="10.8030805597">
		<tag k="name" v="Solås" />
		<tag k="place" v="isolated_dwelling" />
		<tag k="ssr:stedsnr" v="872218" />
	</node>
	<node id="-21834" lat="59.5824083347" lon="10.8249611183">
		<tag k="name" v="Fjellvang" />
		<tag k="place" v="isolated_dwelling" />
		<tag k="ssr:stedsnr" v="872220" />
	</node>
	<node id="-21833" lat="59.5737500002" lon="10.7709250044">
		<tag k="name" v="Grønlundødegården" />
		<tag k="place" v="locality" />
		<tag k="ssr:stedsnr" v="872178" />
	</node>
	<node id="-21832" lat="59.5908361151" lon="10.7879000014">
		<tag k="name" v="Knatten" />
		<tag k="place" v="isolated_dwelling" />
		<tag k="ssr:stedsnr" v="872168" />
	</node>
	<node id="-21830" lat="59.486786442" lon="10.7224545056">
		<tag k="name" v="Ødemørk" />
		<tag k="place" v="farm" />
		<tag k="ssr:stedsnr" v="872051" />
	</node>
	<node id="-21829" lat="59.5495092575" lon="10.763044018">
		<tag k="alt_name" v="Åmot, s;Åmot store" />
		<tag k="name" v="Store Åmot" />
		<tag k="place" v="farm" />
		<tag k="ssr:stedsnr" v="854205" />
	</node>
	<node id="-21828" lat="59.5711777778" lon="10.7953361131">
		<tag k="name" v="Jordebru" />
		<tag k="place" v="farm" />
		<tag k="ssr:stedsnr" v="854199" />
	</node>
	<node id="-21827" lat="59.5946027792" lon="10.8342833329">
		<tag k="alt_name" v="Tønnum" />
		<tag k="name" v="Tannum" />
		<tag k="place" v="farm" />
		<tag k="ssr:stedsnr" v="854171" />
	</node>
	<node id="-21826" lat="59.5738249962" lon="10.7900583323">
		<tag k="alt_name" v="Drømmerud" />
		<tag k="name" v="Drømmerød" />
		<tag k="place" v="farm" />
		<tag k="ssr:stedsnr" v="854157" />
	</node>
	<node id="-21825" lat="59.5227249996" lon="10.7532638903">
		<tag k="name" v="Råer" />
		<tag k="place" v="farm" />
		<tag k="ssr:stedsnr" v="854034" />
	</node>
	<node id="-21823" lat="59.5777805593" lon="10.6864916608">
		<tag k="name" v="Stokkholm" />
		<tag k="place" v="isolated_dwelling" />
		<tag k="ssr:stedsnr" v="853704" />
	</node>
	<node id="-21822" lat="59.5437472184" lon="10.715463885">
		<tag k="name" v="Gjølstad" />
		<tag k="place" v="farm" />
		<tag k="ssr:stedsnr" v="853535" />
	</node>
	<node id="-21821" lat="59.5630773684" lon="10.799173762">
		<tag k="name" v="Oksa" />
		<tag k="place" v="farm" />
		<tag k="ssr:stedsnr" v="853167" />
	</node>
	<node id="-21820" lat="59.5967277758" lon="10.7745333336">
		<tag k="alt_name" v="Borgen" />
		<tag k="name" v="Borga" />
		<tag k="place" v="farm" />
		<tag k="ssr:stedsnr" v="853114" />
	</node>
	<node id="-21818" lat="59.5534722191" lon="10.6543472188">
		<tag k="name" v="Stjernåsen" />
		<tag k="place" v="hamlet" />
		<tag k="ssr:stedsnr" v="847970" />
	</node>
	<node id="-21817" lat="59.6245500011" lon="10.6981833296">
		<tag k="name" v="Steinbråten" />
		<tag k="place" v="locality" />
		<tag k="ssr:stedsnr" v="847193" />
	</node>
	<node id="-21816" lat="59.6316777815" lon="10.7024972204">
		<tag k="name" v="Hagen" />
		<tag k="place" v="locality" />
		<tag k="ssr:stedsnr" v="847183" />
	</node>
	<node id="-21814" lat="59.6191527823" lon="10.7118277756">
		<tag k="alt_name" v="Skau østre;Østre Skog" />
		<tag k="name" v="Østre Skau" />
		<tag k="place" v="farm" />
		<tag k="ssr:stedsnr" v="847159" />
	</node>
	<node id="-21812" lat="59.5366777755" lon="10.6768500003">
		<tag k="name" v="Stamneslund" />
		<tag k="place" v="farm" />
		<tag k="ssr:stedsnr" v="846271" />
	</node>
	<node id="-21810" lat="59.6035666667" lon="10.7594999932">
		<tag k="name" v="Sole skog" />
		<tag k="place" v="quarter" />
		<tag k="ssr:stedsnr" v="845957" />
	</node>
	<node id="-21808" lat="59.5291249983" lon="10.6885166734">
		<tag k="name" v="Øra" />
		<tag k="place" v="farm" />
		<tag k="ssr:stedsnr" v="817884" />
	</node>
	<node id="-21806" lat="59.5940499997" lon="10.7040833388">
		<tag k="name" v="Pepperstad skog" />
		<tag k="place" v="village" />
		<tag k="ssr:stedsnr" v="815132" />
	</node>
	<node id="-21804" lat="59.5375249995" lon="10.7328055548">
		<tag k="name" v="Knapstad" />
		<tag k="place" v="farm" />
		<tag k="ssr:stedsnr" v="812127" />
	</node>
	<node id="-21803" lat="59.5389944436" lon="10.7430638865">
		<tag k="name" v="Sandengen" />
		<tag k="place" v="farm" />
		<tag k="ssr:stedsnr" v="812124" />
	</node>
	<node id="-21802" lat="59.6283722258" lon="10.737599998">
		<tag k="alt_name" v="Rød nordre" />
		<tag k="name" v="Nordre Rød" />
		<tag k="place" v="farm" />
		<tag k="ssr:stedsnr" v="811214" />
	</node>
	<node id="-21801" lat="59.5682861117" lon="10.7343361126">
		<tag k="name" v="Ødegården" />
		<tag k="place" v="farm" />
		<tag k="ssr:stedsnr" v="811202" />
	</node>
	<node id="-21800" lat="59.5770694428" lon="10.812877785">
		<tag k="name" v="Bjerkås" />
		<tag k="place" v="isolated_dwelling" />
		<tag k="ssr:stedsnr" v="811199" />
	</node>
	<node id="-21799" lat="59.5730527766" lon="10.73911944">
		<tag k="name" v="Svingen" />
		<tag k="place" v="farm" />
		<tag k="ssr:stedsnr" v="811181" />
	</node>
	<node id="-21798" lat="59.5817138904" lon="10.8101583365">
		<tag k="alt_name" v="Garder østre" />
		<tag k="name" v="Østre Garder" />
		<tag k="place" v="farm" />
		<tag k="ssr:stedsnr" v="811162" />
	</node>
	<node id="-21797" lat="59.5907527797" lon="10.7899361171">
		<tag k="name" v="Kullebunn" />
		<tag k="place" v="farm" />
		<tag k="ssr:stedsnr" v="811155" />
	</node>
	<node id="-21796" lat="59.5198305585" lon="10.7343472154">
		<tag k="alt_name" v="Ulfski midtre" />
		<tag k="name" v="Midtre Ulfski" />
		<tag k="place" v="farm" />
		<tag k="ssr:stedsnr" v="811146" />
	</node>
	<node id="-21793" lat="59.5061277751" lon="10.7623111095">
		<tag k="alt_name" v="Vandrås østre" />
		<tag k="name" v="Østre Vandrås" />
		<tag k="place" v="farm" />
		<tag k="ssr:stedsnr" v="811070" />
	</node>
	<node id="-21792" lat="59.5742055074" lon="10.8274807854">
		<tag k="alt_name" v="Tom, store" />
		<tag k="fixme" v="multiple name tags, choose one and add the other to alt_name" />
		<tag k="name" v="Tom;Store Tom" />
		<tag k="place" v="farm" />
		<tag k="ssr:stedsnr" v="793228" />
	</node>
	<node id="-21791" lat="59.570266671" lon="10.7268083342">
		<tag k="alt_name" v="Glemme" />
		<tag k="name" v="Glenne" />
		<tag k="place" v="farm" />
		<tag k="ssr:stedsnr" v="793219" />
	</node>
	<node id="-21790" lat="59.5827222202" lon="10.7305111174">
		<tag k="name" v="Rødshagen" />
		<tag k="place" v="farm" />
		<tag k="ssr:stedsnr" v="793188" />
	</node>
	<node id="-21789" lat="59.5786222198" lon="10.797041661">
		<tag k="name" v="Presterud" />
		<tag k="place" v="farm" />
		<tag k="ssr:stedsnr" v="793170" />
	</node>
	<node id="-21788" lat="59.5195134286" lon="10.732736004">
		<tag k="fixme" v="consider place=hamlet" />
		<tag k="name" v="Ulfski" />
		<tag k="place" v="farm" />
		<tag k="ssr:stedsnr" v="793045" />
	</node>
	<node id="-21786" lat="59.5563611113" lon="10.6535111158">
		<tag k="name" v="Lunde" />
		<tag k="place" v="isolated_dwelling" />
		<tag k="ssr:stedsnr" v="792667" />
	</node>
	<node id="-21785" lat="59.609519443" lon="10.7152138852">
		<tag k="alt_name" v="Hannastad" />
		<tag k="name" v="Hannestad" />
		<tag k="place" v="farm" />
		<tag k="ssr:stedsnr" v="792620" />
	</node>
	<node id="-21784" lat="59.5565750043" lon="10.7285000025">
		<tag k="alt_name" v="Søndre Kjenn" />
		<tag k="name" v="Kjenn" />
		<tag k="place" v="farm" />
		<tag k="ssr:stedsnr" v="792234" />
	</node>
	<node id="-21783" lat="59.5444500036" lon="10.7443277846">
		<tag k="name" v="Bruer" />
		<tag k="place" v="farm" />
		<tag k="ssr:stedsnr" v="792221" />
	</node>
	<node id="-21781" lat="59.5937611082" lon="10.7087416661">
		<tag k="name" v="Filtvet" />
		<tag k="place" v="farm" />
		<tag k="ssr:stedsnr" v="791723" />
	</node>
	<node id="-21780" lat="59.6357333363" lon="10.7291249987">
		<tag k="name" v="Jord" />
		<tag k="place" v="farm" />
		<tag k="ssr:stedsnr" v="791288" />
	</node>
	<node id="-21779" lat="59.5086611108" lon="10.7349166731">
		<tag k="alt_name" v="Tørbrekke" />
		<tag k="loc_name" v="Torbrekka" />
		<tag k="name" v="Torbrekke" />
		<tag k="place" v="farm" />
		<tag k="ssr:stedsnr" v="792051" />
	</node>
	<node id="-21777" lat="59.5814749997" lon="10.7082638923">
		<tag k="name" v="Myra" />
		<tag k="place" v="isolated_dwelling" />
		<tag k="ssr:stedsnr" v="786759" />
	</node>
	<node id="-21776" lat="59.5946222187" lon="10.6939083261">
		<tag k="name" v="Filtvet" />
		<tag k="place" v="farm" />
		<tag k="ssr:stedsnr" v="786744" />
	</node>
	<node id="-21774" lat="59.5863777751" lon="10.6926250041">
		<tag k="alt_name" v="Rønjul mellom" />
		<tag k="name" v="Mellom-Rønjul" />
		<tag k="place" v="farm" />
		<tag k="ssr:stedsnr" v="786719" />
	</node>
	<node id="-21773" lat="59.5566194422" lon="10.6940000076">
		<tag k="name" v="Mellom-Erikstad" />
		<tag k="place" v="farm" />
		<tag k="ssr:stedsnr" v="786552" />
	</node>
	<node id="-21772" lat="59.5578805526" lon="10.6630055503">
		<tag k="name" v="Snellum" />
		<tag k="place" v="locality" />
		<tag k="ssr:stedsnr" v="786547" />
	</node>
	<node id="-21771" lat="59.6105055587" lon="10.6936444479">
		<tag k="name" v="Solheim" />
		<tag k="place" v="isolated_dwelling" />
		<tag k="ssr:stedsnr" v="786141" />
	</node>
	<node id="-21770" lat="59.5976777816" lon="10.7069611046">
		<tag k="amenity" v="school" />
		<tag k="name" v="Risil ungdomsskole" />
		<tag k="ssr:stedsnr" v="785118" />
	</node>
	<node id="-21769" lat="59.5176944462" lon="10.6833666618">
		<tag k="name" v="Vestre Skog" />
		<tag k="place" v="isolated_dwelling" />
		<tag k="ssr:stedsnr" v="784714" />
	</node>
	<node id="-21765" lat="59.5469944422" lon="10.6853777767">
		<tag k="alt_name" v="Roastad nedre" />
		<tag k="name" v="Nedre Roastad" />
		<tag k="place" v="farm" />
		<tag k="ssr:stedsnr" v="784288" />
	</node>
	<node id="-21764" lat="59.6034501917" lon="10.7437667804">
		<tag k="fixme" v="consider place=hamlet" />
		<tag k="name" v="Randum" />
		<tag k="place" v="farm" />
		<tag k="ssr:stedsnr" v="782561" />
	</node>
	<node id="-21761" lat="59.5501138868" lon="10.7469749937">
		<tag k="name" v="Bylterudbråten" />
		<tag k="place" v="farm" />
		<tag k="ssr:stedsnr" v="751110" />
	</node>
	<node id="-21760" lat="59.5459222235" lon="10.7295000089">
		<tag k="name" v="Søndre Karder" />
		<tag k="place" v="farm" />
		<tag k="ssr:stedsnr" v="751107" />
	</node>
	<node id="-21758" lat="59.589252775" lon="10.8568666748">
		<tag k="alt_name" v="Halle østre" />
		<tag k="name" v="Østre Halle" />
		<tag k="place" v="farm" />
		<tag k="ssr:stedsnr" v="750744" />
	</node>
	<node id="-21756" lat="59.5634444441" lon="10.7651527723">
		<tag k="name" v="Bråten" />
		<tag k="place" v="farm" />
		<tag k="ssr:stedsnr" v="750156" />
	</node>
	<node id="-21755" lat="59.5842444439" lon="10.7722861189">
		<tag k="alt_name" v="Grønlund nordre" />
		<tag k="name" v="Nordre Grønlund" />
		<tag k="place" v="farm" />
		<tag k="ssr:stedsnr" v="750137" />
	</node>
	<node id="-21754" lat="59.5836749986" lon="10.7529083347">
		<tag k="alt_name" v="Røddal østre" />
		<tag k="name" v="Østre Røddal" />
		<tag k="place" v="farm" />
		<tag k="ssr:stedsnr" v="750135" />
	</node>
	<node id="-21753" lat="59.5746416633" lon="10.7996638801">
		<tag k="name" v="Bjerkelangen" />
		<tag k="place" v="isolated_dwelling" />
		<tag k="ssr:stedsnr" v="750128" />
	</node>
	<node id="-21751" lat="59.5459499965" lon="10.7619250033">
		<tag k="alt_name" v="Åmot lille" />
		<tag k="name" v="Lille Åmot" />
		<tag k="place" v="farm" />
		<tag k="ssr:stedsnr" v="750092" />
	</node>
	<node id="-21750" lat="59.5827166708" lon="10.8355166632">
		<tag k="name" v="Jonsrud" />
		<tag k="place" v="farm" />
		<tag k="ssr:stedsnr" v="732183" />
	</node>
	<node id="-21749" lat="59.5704991795" lon="10.7209302159">
		<tag k="fixme" v="consider place=hamlet" />
		<tag k="name" v="Tømt" />
		<tag k="place" v="farm" />
		<tag k="ssr:stedsnr" v="732176" />
	</node>
	<node id="-21748" lat="59.601272221" lon="10.8287527788">
		<tag k="alt_name" v="Topper, vestre;Topper vestre" />
		<tag k="name" v="Vestre Topper" />
		<tag k="place" v="farm" />
		<tag k="ssr:stedsnr" v="732161" />
	</node>
	<node id="-21747" lat="59.5081027773" lon="10.7448027852">
		<tag k="alt_name" v="Langerød, søndre;Langerud søndre;Søndre Langerød" />
		<tag k="name" v="Søndre Langerud" />
		<tag k="place" v="farm" />
		<tag k="ssr:stedsnr" v="732042" />
	</node>
	<node id="-21746" lat="59.5909861095" lon="10.8199499989">
		<tag k="name" v="Haug" />
		<tag k="place" v="farm" />
		<tag k="ssr:stedsnr" v="732025" />
	</node>
	<node id="-21745" lat="59.5869235333" lon="10.6929147426">
		<tag k="fixme" v="consider place=hamlet" />
		<tag k="name" v="Rønjul" />
		<tag k="place" v="farm" />
		<tag k="ssr:stedsnr" v="731717" />
	</node>
	<node id="-21742" lat="59.6102777797" lon="10.7581500025">
		<tag k="name" v="Krom" />
		<tag k="place" v="farm" />
		<tag k="ssr:stedsnr" v="731318" />
	</node>
	<node id="-21741" lat="59.6225305563" lon="10.7460527691">
		<tag k="name" v="Revling" />
		<tag k="place" v="farm" />
		<tag k="ssr:stedsnr" v="731293" />
	</node>
	<node id="-21740" lat="59.6161638874" lon="10.729277777">
		<tag k="name" v="Li" />
		<tag k="place" v="farm" />
		<tag k="ssr:stedsnr" v="731292" />
	</node>
	<node id="-21737" lat="59.520252781" lon="10.7022138948">
		<tag k="name" v="Husjordet" />
		<tag k="place" v="farm" />
		<tag k="ssr:stedsnr" v="724386" />
	</node>
	<node id="-21736" lat="59.5419805573" lon="10.6645749925">
		<tag k="name" v="Sofienberg" />
		<tag k="place" v="isolated_dwelling" />
		<tag k="ssr:stedsnr" v="724237" />
	</node>
	<node id="-21735" lat="59.5771562116" lon="10.7014398271">
		<tag k="fixme" v="consider place=hamlet" />
		<tag k="name" v="Stubberud" />
		<tag k="place" v="farm" />
		<tag k="ssr:stedsnr" v="731683" />
	</node>
	<node id="-21732" lat="59.6276333358" lon="10.7823944393">
		<tag k="alt_name" v="Tveiter mellem;Mellom Tveiter" />
		<tag k="name" v="Mellom-Tveter" />
		<tag k="place" v="farm" />
		<tag k="ssr:stedsnr" v="693307" />
	</node>
	<node id="-21730" lat="59.5792194409" lon="10.6517861041">
		<tag k="alt_name" v="Brånen" />
		<tag k="name" v="Brånan" />
		<tag k="old_name" v="Braanen" />
		<tag k="place" v="farm" />
		<tag k="ssr:stedsnr" v="692922" />
	</node>
	<node id="-21728" lat="59.5326583355" lon="10.7467472154">
		<tag k="name" v="Vollebekk" />
		<tag k="place" v="farm" />
		<tag k="ssr:stedsnr" v="691141" />
	</node>
	<node id="-21727" lat="59.5505277772" lon="10.7275944528">
		<tag k="name" v="Nordre Karder" />
		<tag k="place" v="farm" />
		<tag k="ssr:stedsnr" v="691130" />
	</node>
	<node id="-21726" lat="59.6087277769" lon="10.7608083401">
		<tag k="name" v="Volden" />
		<tag k="place" v="farm" />
		<tag k="ssr:stedsnr" v="690824" />
	</node>
	<node id="-21725" lat="59.6173083337" lon="10.7698416673">
		<tag k="name" v="Teipa" />
		<tag k="place" v="farm" />
		<tag k="ssr:stedsnr" v="690277" />
	</node>
	<node id="-21723" lat="59.5881444432" lon="10.8170888918">
		<tag k="name" v="Åsly" />
		<tag k="place" v="isolated_dwelling" />
		<tag k="ssr:stedsnr" v="690236" />
	</node>
	<node id="-21722" lat="59.5761111143" lon="10.7900499943">
		<tag k="name" v="Drømmerud" />
		<tag k="place" v="farm" />
		<tag k="ssr:stedsnr" v="690206" />
	</node>
	<node id="-21720" lat="59.5822722213" lon="10.723527775">
		<tag k="name" v="Sollibråten" />
		<tag k="place" v="farm" />
		<tag k="ssr:stedsnr" v="690135" />
	</node>
	<node id="-21719" lat="59.5407777793" lon="10.7448583348">
		<tag k="name" v="Riulfsborg" />
		<tag k="place" v="isolated_dwelling" />
		<tag k="ssr:stedsnr" v="690098" />
	</node>
	<node id="-21718" lat="59.6146083376" lon="10.6882138891">
		<tag k="alt_name" v="Toverud, nedre" />
		<tag k="name" v="Nedre Toverud" />
		<tag k="place" v="farm" />
		<tag k="ssr:stedsnr" v="731597" />
	</node>
	<node id="-21717" lat="59.6349222235" lon="10.6878499925">
		<tag k="name" v="Fuglegården" />
		<tag k="place" v="farm" />
		<tag k="ssr:stedsnr" v="671693" />
	</node>
	<node id="-21716" lat="59.6124444487" lon="10.7072805498">
		<tag k="name" v="Ekerholt" />
		<tag k="place" v="farm" />
		<tag k="ssr:stedsnr" v="671647" />
	</node>
	<node id="-21715" lat="59.6053138846" lon="10.6978138955">
		<tag k="name" v="Løktås" />
		<tag k="place" v="farm" />
		<tag k="ssr:stedsnr" v="671633" />
	</node>
	<node id="-21714" lat="59.5657333312" lon="10.8156138907">
		<tag k="name" v="Gon" />
		<tag k="place" v="farm" />
		<tag k="ssr:stedsnr" v="671200" />
	</node>
	<node id="-21713" lat="59.5880361093" lon="10.8117861144">
		<tag k="name" v="Kjærstad" />
		<tag k="place" v="farm" />
		<tag k="ssr:stedsnr" v="671182" />
	</node>
	<node id="-21712" lat="59.5768555539" lon="10.782288897">
		<tag k="alt_name" v="Rustad, østre;Rustad østre" />
		<tag k="name" v="Østre Rustad" />
		<tag k="place" v="farm" />
		<tag k="ssr:stedsnr" v="671161" />
	</node>
	<node id="-21711" lat="59.6051111076" lon="10.7523249921">
		<tag k="name" v="Vestby" />
		<tag k="place" v="village" />
		<tag k="ssr:stedsnr" v="671145" />
	</node>
	<node id="-21710" lat="59.5951555586" lon="10.7322027792">
		<tag k="alt_name" v="Rød;Rød øvre" />
		<tag k="name" v="Øvre Rød" />
		<tag k="place" v="farm" />
		<tag k="ssr:stedsnr" v="671134" />
	</node>
	<node id="-21709" lat="59.5210472192" lon="10.771974995">
		<tag k="name" v="Pusset" />
		<tag k="place" v="farm" />
		<tag k="ssr:stedsnr" v="671055" />
	</node>
	<node id="-21708" lat="59.5291888917" lon="10.7615222285">
		<tag k="name" v="Fosser" />
		<tag k="place" v="farm" />
		<tag k="ssr:stedsnr" v="671002" />
	</node>
	<node id="-21707" lat="59.5812916625" lon="10.6544166609">
		<tag k="name" v="Emmerstad" />
		<tag k="place" v="farm" />
		<tag k="ssr:stedsnr" v="670717" />
	</node>
	<node id="-21706" lat="59.5705249996" lon="10.6530416751">
		<tag k="alt_name" v="Skjellvika" />
		<tag k="name" v="Skjelavika" />
		<tag k="place" v="isolated_dwelling" />
		<tag k="ssr:stedsnr" v="670693" />
	</node>
	<node id="-21704" lat="59.560486111" lon="10.6564611196">
		<tag k="name" v="Kjære" />
		<tag k="place" v="farm" />
		<tag k="ssr:stedsnr" v="670674" />
	</node>
	<node id="-21703" lat="59.63036389" lon="10.6964888878">
		<tag k="alt_name" v="Galby;Galby østre" />
		<tag k="name" v="Østre Galby" />
		<tag k="place" v="farm" />
		<tag k="ssr:stedsnr" v="670658" />
	</node>
	<node id="-21702" lat="59.6313000035" lon="10.6836972306">
		<tag k="alt_name" v="Galby, vestre" />
		<tag k="name" v="Vestre Galby" />
		<tag k="place" v="farm" />
		<tag k="ssr:stedsnr" v="670653" />
	</node>
	<node id="-21701" lat="59.616324998" lon="10.7883361111">
		<tag k="alt_name" v="Lesteberg, vestre;Lesteberg vestre" />
		<tag k="name" v="Vestre Lesteberg" />
		<tag k="place" v="farm" />
		<tag k="ssr:stedsnr" v="670358" />
	</node>
	<node id="-21700" lat="59.6280527758" lon="10.7728749927">
		<tag k="name" v="Støttum" />
		<tag k="place" v="farm" />
		<tag k="ssr:stedsnr" v="670330" />
	</node>
	<node id="-21699" lat="59.6242700281" lon="10.7823858194">
		<tag k="alt_name" v="Tveiter, søndre;Søndre Tveiter" />
		<tag k="name" v="Søndre Tveter" />
		<tag k="place" v="farm" />
		<tag k="ssr:stedsnr" v="670325" />
	</node>
	<node id="-21698" lat="59.640027774" lon="10.6952027729">
		<tag k="name" v="Øvre Linnestad" />
		<tag k="place" v="farm" />
		<tag k="ssr:stedsnr" v="665565" />
	</node>
	<node id="-21697" lat="59.6282361102" lon="10.7005305545">
		<tag k="name" v="Evensgalby" />
		<tag k="place" v="locality" />
		<tag k="ssr:stedsnr" v="665169" />
	</node>
	<node id="-21696" lat="59.587933336" lon="10.6706527727">
		<tag k="name" v="Solbakken" />
		<tag k="place" v="isolated_dwelling" />
		<tag k="ssr:stedsnr" v="664683" />
	</node>
	<node id="-21695" lat="59.5027138862" lon="10.7130111131">
		<tag k="name" v="Smørbekk" />
		<tag k="place" v="hamlet" />
		<tag k="ssr:stedsnr" v="663420" />
	</node>
	<node id="-21694" lat="59.5090333296" lon="10.6947944425">
		<tag k="name" v="Brevikmyra" />
		<tag k="place" v="quarter" />
		<tag k="ssr:stedsnr" v="663407" />
	</node>
	<node id="-21690" lat="59.6077111095" lon="10.6543027834">
		<tag k="name" v="Øvre Ramme" />
		<tag k="place" v="farm" />
		<tag k="ssr:stedsnr" v="663230" />
	</node>
	<node id="-21686" lat="59.549005556" lon="10.6979694481">
		<tag k="name" v="Nordre Mørk" />
		<tag k="place" v="farm" />
		<tag k="ssr:stedsnr" v="731517" />
	</node>
	<node id="-21684" lat="59.6070777761" lon="10.8394638813">
		<tag k="name" v="Villumstad" />
		<tag k="place" v="farm" />
		<tag k="ssr:stedsnr" v="629867" />
	</node>
	<node id="-21683" lat="59.597208333" lon="10.7680555542">
		<tag k="name" v="Grøstaddalen" />
		<tag k="place" v="farm" />
		<tag k="ssr:stedsnr" v="629796" />
	</node>
	<node id="-21682" lat="59.6320416637" lon="10.7883083334">
		<tag k="alt_name" v="Tveter nordre" />
		<tag k="name" v="Nordre Tveter" />
		<tag k="place" v="farm" />
		<tag k="ssr:stedsnr" v="629781" />
	</node>
	<node id="-21681" lat="59.6035111123" lon="10.7335666738">
		<tag k="name" v="Prestegården" />
		<tag k="place" v="farm" />
		<tag k="ssr:stedsnr" v="629772" />
	</node>
	<node id="-21680" lat="59.5984916687" lon="10.7257305543">
		<tag k="name" v="Krusebyen" />
		<tag k="place" v="hamlet" />
		<tag k="ssr:stedsnr" v="629769" />
	</node>
	<node id="-21679" lat="59.5684833336" lon="10.8199305489">
		<tag k="alt_name" v="Florud øvre" />
		<tag k="name" v="Øvre Florud" />
		<tag k="place" v="farm" />
		<tag k="ssr:stedsnr" v="629225" />
	</node>
	<node id="-21678" lat="59.5816972198" lon="10.7838111168">
		<tag k="name" v="Rustadbråten" />
		<tag k="place" v="farm" />
		<tag k="ssr:stedsnr" v="629185" />
	</node>
	<node id="-21677" lat="59.5830638894" lon="10.7709499926">
		<tag k="alt_name" v="Grønlund søndre;Grønlund" />
		<tag k="name" v="Søndre Grønlund" />
		<tag k="place" v="farm" />
		<tag k="ssr:stedsnr" v="629174" />
	</node>
	<node id="-21676" lat="59.5850972259" lon="10.8032888963">
		<tag k="name" v="Haga" />
		<tag k="place" v="farm" />
		<tag k="ssr:stedsnr" v="629168" />
	</node>
	<node id="-21675" lat="59.5805944467" lon="10.8132166728">
		<tag k="alt_name" v="Hovum østre" />
		<tag k="name" v="Østre Hovum" />
		<tag k="place" v="farm" />
		<tag k="ssr:stedsnr" v="629166" />
	</node>
	<node id="-21674" lat="59.5826888908" lon="10.8175083308">
		<tag k="name" v="Hovtun" />
		<tag k="place" v="farm" />
		<tag k="ssr:stedsnr" v="629164" />
	</node>
	<node id="-21673" lat="59.5809527738" lon="10.811941664">
		<tag k="alt_name" v="Hovum vestre" />
		<tag k="name" v="Vestre Hovum" />
		<tag k="place" v="farm" />
		<tag k="ssr:stedsnr" v="629161" />
	</node>
	<node id="-21672" lat="59.5630027807" lon="10.7308500072">
		<tag k="alt_name" v="Nordre Kjenn" />
		<tag k="name" v="Kjenn" />
		<tag k="place" v="farm" />
		<tag k="ssr:stedsnr" v="611200" />
	</node>
	<node id="-21671" lat="59.545158335" lon="10.6933361186">
		<tag k="name" v="Søndre Mørk" />
		<tag k="place" v="farm" />
		<tag k="ssr:stedsnr" v="610593" />
	</node>
	<node id="-21670" lat="59.540033332" lon="10.6871138832">
		<tag k="name" v="Kinne" />
		<tag k="place" v="farm" />
		<tag k="ssr:stedsnr" v="610577" />
	</node>
	<node id="-21669" lat="59.5162749994" lon="10.7715750033">
		<tag k="alt_name" v="Borgerud" />
		<tag k="name" v="Borgerød" />
		<tag k="place" v="farm" />
		<tag k="ssr:stedsnr" v="610056" />
	</node>
	<node id="-21668" lat="59.5144416627" lon="10.7486472289">
		<tag k="alt_name" v="Burud" />
		<tag k="name" v="Burød" />
		<tag k="place" v="farm" />
		<tag k="ssr:stedsnr" v="610040" />
	</node>
	<node id="-21667" lat="59.5410500013" lon="10.7790388802">
		<tag k="alt_name" v="Holm, nordre;Holm nordre" />
		<tag k="name" v="Nordre Holm" />
		<tag k="place" v="farm" />
		<tag k="ssr:stedsnr" v="610026" />
	</node>
	<node id="-21666" lat="59.5320132327" lon="10.7733996669">
		<tag k="fixme" v="consider place=hamlet" />
		<tag k="name" v="Fagerholt" />
		<tag k="place" v="farm" />
		<tag k="ssr:stedsnr" v="610002" />
	</node>
	<node id="-21664" lat="59.5642138905" lon="10.6514944498">
		<tag k="name" v="Krokstrand" />
		<tag k="place" v="isolated_dwelling" />
		<tag k="ssr:stedsnr" v="609677" />
	</node>
	<node id="-21663" lat="59.6242777741" lon="10.6899749992">
		<tag k="name" v="Vernhus" />
		<tag k="place" v="farm" />
		<tag k="ssr:stedsnr" v="609639" />
	</node>
	<node id="-21662" lat="59.5247861078" lon="10.6766666728">
		<tag k="name" v="Laksa" />
		<tag k="place" v="farm" />
		<tag k="ssr:stedsnr" v="609485" />
	</node>
	<node id="-21661" lat="59.5182500029" lon="10.7056500071">
		<tag k="name" v="Sletta" />
		<tag k="place" v="farm" />
		<tag k="ssr:stedsnr" v="609481" />
	</node>
	<node id="-21660" lat="59.6204888849" lon="10.7374361027">
		<tag k="name" v="Verpet" />
		<tag k="place" v="farm" />
		<tag k="ssr:stedsnr" v="609337" />
	</node>
	<node id="-21659" lat="59.6283749973" lon="10.7683111159">
		<tag k="name" v="Støttumtangen" />
		<tag k="place" v="farm" />
		<tag k="ssr:stedsnr" v="609323" />
	</node>
	<node id="-21658" lat="59.5782944486" lon="10.7021527776">
		<tag k="name" v="Øvre Stubberud" />
		<tag k="place" v="farm" />
		<tag k="ssr:stedsnr" v="604779" />
	</node>
	<node id="-21657" lat="59.5769611118" lon="10.6991472235">
		<tag k="name" v="Nedre Stubberud" />
		<tag k="place" v="farm" />
		<tag k="ssr:stedsnr" v="604778" />
	</node>
	<node id="-21656" lat="59.5800027744" lon="10.6777861192">
		<tag k="name" v="Østre Torp" />
		<tag k="place" v="farm" />
		<tag k="ssr:stedsnr" v="604771" />
	</node>
	<node id="-21655" lat="59.5805944478" lon="10.6524222204">
		<tag k="name" v="Nordre Brånen" />
		<tag k="place" v="farm" />
		<tag k="ssr:stedsnr" v="604549" />
	</node>
	<node id="-21654" lat="59.6103222198" lon="10.6947166751">
		<tag k="name" v="Haugtun" />
		<tag k="place" v="isolated_dwelling" />
		<tag k="ssr:stedsnr" v="604162" />
	</node>
	<node id="-21651" lat="59.504463889" lon="10.6911888936">
		<tag k="amenity" v="school" />
		<tag k="name" v="Brevik skole" />
		<tag k="ssr:stedsnr" v="602456" />
	</node>
	<node id="-21649" lat="59.5242027757" lon="10.675399996">
		<tag k="name" v="Stamnes" />
		<tag k="place" v="farm" />
		<tag k="ssr:stedsnr" v="602426" />
	</node>
	<node id="-21648" lat="59.5486333349" lon="10.6824166603">
		<tag k="alt_name" v="Roastad øvre" />
		<tag k="name" v="Øvre Roastad" />
		<tag k="place" v="farm" />
		<tag k="ssr:stedsnr" v="602292" />
	</node>
	<node id="-21646" lat="59.606188889" lon="10.6583388803">
		<tag k="name" v="Rugbråten" />
		<tag k="place" v="locality" />
		<tag k="ssr:stedsnr" v="602237" />
	</node>
	<node id="-21645" lat="59.5514735814" lon="10.7666464008">
		<tag k="fixme" v="consider place=hamlet" />
		<tag k="name" v="Åmot" />
		<tag k="place" v="farm" />
		<tag k="ssr:stedsnr" v="599376" />
	</node>
	<node id="-21644" lat="59.5450361102" lon="10.7614305641">
		<tag k="alt_name" v="Auerød" />
		<tag k="name" v="Nordre Auerud" />
		<tag k="place" v="farm" />
		<tag k="ssr:stedsnr" v="599207" />
	</node>
	<node id="-21643" lat="59.5067027782" lon="10.6880861055">
		<tag k="name" v="Solåsen" />
		<tag k="place" v="farm" />
		<tag k="ssr:stedsnr" v="593277" />
	</node>
	<node id="-21639" lat="59.5841499992" lon="10.7456138841">
		<tag k="name" v="Lureklo" />
		<tag k="place" v="farm" />
		<tag k="ssr:stedsnr" v="569185" />
	</node>
	<node id="-21638" lat="59.6237583338" lon="10.7774250073">
		<tag k="name" v="Tveterengen" />
		<tag k="place" v="isolated_dwelling" />
		<tag k="ssr:stedsnr" v="568777" />
	</node>
	<node id="-21636" lat="59.6091333377" lon="10.8188499969">
		<tag k="name" v="Firemannsdelet" />
		<tag k="place" v="locality" />
		<tag k="ssr:stedsnr" v="568759" />
	</node>
	<node id="-21635" lat="59.564702778" lon="10.8053916729">
		<tag k="name" v="Bru" />
		<tag k="place" v="locality" />
		<tag k="ssr:stedsnr" v="568248" />
	</node>
	<node id="-21634" lat="59.5646861151" lon="10.7259305513">
		<tag k="loc_name" v="Opp-Kjenn;Oppkjenn" />
		<tag k="name" v="Øvre Kjenn" />
		<tag k="place" v="farm" />
		<tag k="ssr:stedsnr" v="568216" />
	</node>
	<node id="-21633" lat="59.5590166682" lon="10.7740527834">
		<tag k="name" v="Slettebakke" />
		<tag k="place" v="farm" />
		<tag k="ssr:stedsnr" v="568195" />
	</node>
	<node id="-21632" lat="59.5800249982" lon="10.8027944514">
		<tag k="name" v="Fjelltun" />
		<tag k="place" v="farm" />
		<tag k="ssr:stedsnr" v="568167" />
	</node>
	<node id="-21631" lat="59.5760916662" lon="10.8013666678">
		<tag k="name" v="Garderbråten" />
		<tag k="place" v="farm" />
		<tag k="ssr:stedsnr" v="568165" />
	</node>
	<node id="-21630" lat="59.5885527747" lon="10.8118638967">
		<tag k="alt_name" v="Kjærstad vestre" />
		<tag k="name" v="Vestre Kjærstad" />
		<tag k="place" v="farm" />
		<tag k="ssr:stedsnr" v="568158" />
	</node>
	<node id="-21629" lat="59.5890416679" lon="10.8071333412">
		<tag k="alt_name" v="Tuft øvre;Tuft" />
		<tag k="name" v="Øvre Tuft" />
		<tag k="place" v="farm" />
		<tag k="ssr:stedsnr" v="568156" />
	</node>
	<node id="-21628" lat="59.5124777741" lon="10.7251583273">
		<tag k="name" v="Gateengen" />
		<tag k="place" v="farm" />
		<tag k="ssr:stedsnr" v="568144" />
	</node>
	<node id="-21627" lat="59.5122277751" lon="10.7690111155">
		<tag k="name" v="Borgerudbråten" />
		<tag k="place" v="locality" />
		<tag k="ssr:stedsnr" v="568123" />
	</node>
	<node id="-21624" lat="59.5459750045" lon="10.7503500014">
		<tag k="name" v="Brandstad" />
		<tag k="place" v="farm" />
		<tag k="ssr:stedsnr" v="610268" />
	</node>
	<node id="-21623" lat="59.583408782" lon="10.7511192443">
		<tag k="fixme" v="consider place=hamlet" />
		<tag k="name" v="Røddal" />
		<tag k="place" v="farm" />
		<tag k="ssr:stedsnr" v="610219" />
	</node>
	<node id="-21621" lat="59.5762777778" lon="10.7617861137">
		<tag k="alt_name" v="Søndre To" />
		<tag k="name" v="To" />
		<tag k="place" v="farm" />
		<tag k="ssr:stedsnr" v="610190" />
	</node>
	<node id="-21619" lat="59.5775944071" lon="10.7739864695">
		<tag k="alt_name" v="Rustad, nordre" />
		<tag k="name" v="Nordre Rustad" />
		<tag k="place" v="farm" />
		<tag k="ssr:stedsnr" v="550174" />
	</node>
	<node id="-21618" lat="59.6033277762" lon="10.8387861118">
		<tag k="alt_name" v="Topper, nordre;Topper nordre" />
		<tag k="name" v="Nordre Topper" />
		<tag k="place" v="farm" />
		<tag k="ssr:stedsnr" v="550144" />
	</node>
	<node id="-21616" lat="59.5218083362" lon="10.763211112">
		<tag k="alt_name" v="Østerud, søndre" />
		<tag k="name" v="Søndre Østerud" />
		<tag k="place" v="farm" />
		<tag k="ssr:stedsnr" v="550051" />
	</node>
	<node id="-21615" lat="59.5917527754" lon="10.8120777784">
		<tag k="alt_name" v="Kjærstad;Kjærstad nordre" />
		<tag k="name" v="Nordre Kjærstad" />
		<tag k="place" v="farm" />
		<tag k="ssr:stedsnr" v="550029" />
	</node>
	<node id="-21614" lat="59.5660527816" lon="10.6883138884">
		<tag k="alt_name" v="Nubsrud" />
		<tag k="name" v="Nubsrød" />
		<tag k="place" v="farm" />
		<tag k="ssr:stedsnr" v="549693" />
	</node>
	<node id="-21613" lat="59.5564222238" lon="10.713966668">
		<tag k="fixme" v="consider place=hamlet" />
		<tag k="name" v="Klokkerud" />
		<tag k="place" v="farm" />
		<tag k="ssr:stedsnr" v="549677" />
	</node>
	<node id="-21611" lat="59.5508999955" lon="10.6650277781">
		<tag k="name" v="Furubråten" />
		<tag k="place" v="isolated_dwelling" />
		<tag k="ssr:stedsnr" v="549526" />
	</node>
	<node id="-21609" lat="59.6111750017" lon="10.7790722202">
		<tag k="name" v="Kjenslimoen" />
		<tag k="place" v="farm" />
		<tag k="ssr:stedsnr" v="549369" />
	</node>
	<node id="-21608" lat="59.6141388877" lon="10.7986361196">
		<tag k="name" v="Auten" />
		<tag k="place" v="farm" />
		<tag k="ssr:stedsnr" v="549368" />
	</node>
	<node id="-21607" lat="59.6068722189" lon="10.730886117">
		<tag k="name" v="Nordli" />
		<tag k="place" v="farm" />
		<tag k="ssr:stedsnr" v="549364" />
	</node>
	<node id="-21606" lat="59.5636305524" lon="10.7941527756">
		<tag k="name" v="Flisebru" />
		<tag k="place" v="farm" />
		<tag k="ssr:stedsnr" v="549197" />
	</node>
	<node id="-21604" lat="59.5747083332" lon="10.7119944492">
		<tag k="name" v="Svartedal" />
		<tag k="place" v="farm" />
		<tag k="ssr:stedsnr" v="543754" />
	</node>
	<node id="-21603" lat="59.5820388882" lon="10.6995972301">
		<tag k="name" v="Mogholt" />
		<tag k="place" v="farm" />
		<tag k="ssr:stedsnr" v="543752" />
	</node>
	<node id="-21602" lat="59.5858916672" lon="10.655975001">
		<tag k="name" v="Okseryggen" />
		<tag k="place" v="hamlet" />
		<tag k="ssr:stedsnr" v="543733" />
	</node>
	<node id="-21601" lat="59.5880833343" lon="10.6582972162">
		<tag k="name" v="Utsikten" />
		<tag k="place" v="hamlet" />
		<tag k="ssr:stedsnr" v="543729" />
	</node>
	<node id="-21600" lat="59.5949027797" lon="10.7013277717">
		<tag k="name" v="Solli" />
		<tag k="place" v="farm" />
		<tag k="ssr:stedsnr" v="543716" />
	</node>
	<node id="-21598" lat="59.6125416711" lon="10.6785916669">
		<tag k="alt_name" v="Øgård" />
		<tag k="name" v="Knalstadødegården" />
		<tag k="place" v="farm" />
		<tag k="ssr:stedsnr" v="543177" />
	</node>
	<node id="-21595" lat="59.5241888857" lon="10.7152305637">
		<tag k="name" v="Stensli" />
		<tag k="place" v="farm" />
		<tag k="ssr:stedsnr" v="542415" />
	</node>
	<node id="-21593" lat="59.5490972224" lon="10.686669451">
		<tag k="name" v="Eikås" />
		<tag k="place" v="isolated_dwelling" />
		<tag k="ssr:stedsnr" v="542266" />
	</node>
	<node id="-21592" lat="59.5986555571" lon="10.655344446">
		<tag k="name" v="Torvet" />
		<tag k="place" v="square" />
		<tag k="ssr:stedsnr" v="542232" />
	</node>
	<node id="-21590" lat="59.5329825434" lon="10.7729549165">
		<tag k="alt_name" v="Fagerholt nordre" />
		<tag k="name" v="Nordre Fagerholt" />
		<tag k="old_name" v="Fagerli, nordre" />
		<tag k="place" v="farm" />
		<tag k="ssr:stedsnr" v="541025" />
	</node>
	<node id="-21580" lat="59.6146833349" lon="10.7408138949">
		<tag k="name" v="Høgda" />
		<tag k="place" v="quarter" />
		<tag k="ssr:stedsnr" v="508783" />
	</node>
	<node id="-21578" lat="59.582577779" lon="10.7866500008">
		<tag k="name" v="Glenne" />
		<tag k="place" v="hamlet" />
		<tag k="ssr:stedsnr" v="508180" />
	</node>
	<node id="-21577" lat="59.5758317911" lon="10.736968257">
		<tag k="name" v="Bråten" />
		<tag k="place" v="farm" />
		<tag k="ssr:stedsnr" v="508167" />
	</node>
	<node id="-21576" lat="59.5768916645" lon="10.8020222255">
		<tag k="name" v="Vesterbøl" />
		<tag k="place" v="isolated_dwelling" />
		<tag k="ssr:stedsnr" v="508166" />
	</node>
	<node id="-21575" lat="59.5784750034" lon="10.808680553">
		<tag k="name" v="Gardås" />
		<tag k="place" v="isolated_dwelling" />
		<tag k="ssr:stedsnr" v="508165" />
	</node>
	<node id="-21574" lat="59.5752611068" lon="10.8002944408">
		<tag k="name" v="Skogheim" />
		<tag k="place" v="isolated_dwelling" />
		<tag k="ssr:stedsnr" v="508162" />
	</node>
	<node id="-21573" lat="59.5816194473" lon="10.8080638895">
		<tag k="alt_name" v="Garder vestre" />
		<tag k="name" v="Vestre Garder" />
		<tag k="place" v="farm" />
		<tag k="ssr:stedsnr" v="508158" />
	</node>
	<node id="-21572" lat="59.5290583335" lon="10.7539999958">
		<tag k="name" v="Såner" />
		<tag k="place" v="farm" />
		<tag k="ssr:stedsnr" v="508146" />
	</node>
	<node id="-21571" lat="59.5195055568" lon="10.7371777858">
		<tag k="alt_name" v="Ulfski østre" />
		<tag k="name" v="Østre Ulfski" />
		<tag k="place" v="farm" />
		<tag k="ssr:stedsnr" v="508140" />
	</node>
	<node id="-21569" lat="59.5952777812" lon="10.8224027809">
		<tag k="alt_name" v="Haug;Haug nordre" />
		<tag k="name" v="Nordre Haug" />
		<tag k="place" v="farm" />
		<tag k="ssr:stedsnr" v="489204" />
	</node>
	<node id="-21568" lat="59.5913472223" lon="10.8402083306">
		<tag k="alt_name" v="Hestvet;Hestvet nordre" />
		<tag k="name" v="Nordre Hestvet" />
		<tag k="place" v="farm" />
		<tag k="ssr:stedsnr" v="489202" />
	</node>
	<node id="-21567" lat="59.6067083377" lon="10.7696611045">
		<tag k="alt_name" v="Ålerød, nordre;Ålerud nordre" />
		<tag k="name" v="Nordre Ålerød" />
		<tag k="place" v="farm" />
		<tag k="ssr:stedsnr" v="489160" />
	</node>
	<node id="-21565" lat="59.5101138896" lon="10.7291055631">
		<tag k="name" v="Gate" />
		<tag k="place" v="farm" />
		<tag k="ssr:stedsnr" v="489046" />
	</node>
	<node id="-21564" lat="59.5918416666" lon="10.7012805507">
		<tag k="alt_name" v="Bjørnstad" />
		<tag k="name" v="Bjørnestad" />
		<tag k="place" v="farm" />
		<tag k="ssr:stedsnr" v="488729" />
	</node>
	<node id="-21563" lat="59.5617777751" lon="10.7171944433">
		<tag k="name" v="Tømtbråten" />
		<tag k="place" v="farm" />
		<tag k="ssr:stedsnr" v="488681" />
	</node>
	<node id="-21562" lat="59.5526027777" lon="10.688891675">
		<tag k="name" v="Arnestad" />
		<tag k="place" v="farm" />
		<tag k="ssr:stedsnr" v="488675" />
	</node>
	<node id="-21561" lat="59.6361444408" lon="10.7124055465">
		<tag k="name" v="Rustad" />
		<tag k="place" v="farm" />
		<tag k="ssr:stedsnr" v="488660" />
	</node>
	<node id="-21559" lat="59.4994555534" lon="10.7101249976">
		<tag k="alt_name" v="Rød, nordre;Rød nordre" />
		<tag k="name" v="Nordre Rød" />
		<tag k="place" v="farm" />
		<tag k="ssr:stedsnr" v="488473" />
	</node>
	<node id="-21557" lat="59.6100500029" lon="10.7697750056">
		<tag k="name" v="Kjensli" />
		<tag k="place" v="farm" />
		<tag k="ssr:stedsnr" v="488349" />
	</node>
	<node id="-21556" lat="59.611322225" lon="10.7384694491">
		<tag k="name" v="Kleiver" />
		<tag k="place" v="farm" />
		<tag k="ssr:stedsnr" v="488339" />
	</node>
	<node id="-21555" lat="59.6279034891" lon="10.7379810414">
		<tag k="alt_name" v="Rød" />
		<tag k="fixme" v="consider place=hamlet" />
		<tag k="name" v="Nordre Rød" />
		<tag k="place" v="farm" />
		<tag k="ssr:stedsnr" v="488285" />
	</node>
	<node id="-21554" lat="59.6197249981" lon="10.6857055561">
		<tag k="alt_name" v="Toverød" />
		<tag k="name" v="Øvre Toverud" />
		<tag k="place" v="farm" />
		<tag k="ssr:stedsnr" v="488629" />
	</node>
	<node id="-21553" lat="59.5803250027" lon="10.6701333271">
		<tag k="name" v="Vestre Torp" />
		<tag k="place" v="farm" />
		<tag k="ssr:stedsnr" v="483798" />
	</node>
	<node id="-21552" lat="59.579069251" lon="10.6733608448">
		<tag k="fixme" v="consider place=hamlet" />
		<tag k="name" v="Torp" />
		<tag k="place" v="farm" />
		<tag k="ssr:stedsnr" v="483738" />
	</node>
	<node id="-21551" lat="59.5775999978" lon="10.651883338">
		<tag k="name" v="Søndre Brånen" />
		<tag k="place" v="farm" />
		<tag k="ssr:stedsnr" v="483563" />
	</node>
	<node id="-21548" lat="59.6191499974" lon="10.7107444366">
		<tag k="alt_name" v="Skau vestre;Vestre Skog" />
		<tag k="name" v="Vestre Skau" />
		<tag k="place" v="farm" />
		<tag k="ssr:stedsnr" v="483176" />
	</node>
	<node id="-21547" lat="59.6240916658" lon="10.7014750011">
		<tag k="name" v="Galbybråten" />
		<tag k="place" v="locality" />
		<tag k="ssr:stedsnr" v="483169" />
	</node>
	<node id="-21546" lat="59.51805278" lon="10.6966611095">
		<tag k="leisure" v="pitch" />
		<tag k="name" v="Grevlingen" />
		<tag k="ssr:stedsnr" v="481450" />
	</node>
	<node id="-21545" lat="59.5152555591" lon="10.6816555551">
		<tag k="name" v="Villa Holland" />
		<tag k="place" v="isolated_dwelling" />
		<tag k="ssr:stedsnr" v="481448" />
	</node>
	<node id="-21543" lat="59.5292222259" lon="10.699697228">
		<tag k="alt_name" v="Labo søndre" />
		<tag k="fixme" v="consider place=hamlet" />
		<tag k="name" v="Søndre Labu" />
		<tag k="place" v="farm" />
		<tag k="ssr:stedsnr" v="481418" />
	</node>
	<node id="-21539" lat="59.6004583367" lon="10.7010416611">
		<tag k="name" v="Habbelen" />
		<tag k="place" v="locality" />
		<tag k="ssr:stedsnr" v="481153" />
	</node>
	<node id="-21537" lat="59.4975305536" lon="10.7084555615">
		<tag k="alt_name" v="Rød vestre" />
		<tag k="fixme" v="multiple name tags, choose one and add the other to alt_name" />
		<tag k="name" v="Opp-Rød;Vestre Rød" />
		<tag k="place" v="farm" />
		<tag k="ssr:stedsnr" v="480435" />
	</node>
	<node id="-21534" lat="59.5919305524" lon="10.7287777833">
		<tag k="name" v="Sorgenfri" />
		<tag k="place" v="hamlet" />
		<tag k="ssr:stedsnr" v="448144" />
	</node>
	<node id="-21533" lat="59.5429388845" lon="10.734447227">
		<tag k="name" v="Muggestad" />
		<tag k="place" v="farm" />
		<tag k="ssr:stedsnr" v="448116" />
	</node>
	<node id="-21530" lat="59.6269888856" lon="10.7367861191">
		<tag k="alt_name" v="Rød søndre" />
		<tag k="name" v="Søndre Rød" />
		<tag k="place" v="farm" />
		<tag k="ssr:stedsnr" v="447198" />
	</node>
	<node id="-21529" lat="59.5759805526" lon="10.818625002">
		<tag k="name" v="Granlund" />
		<tag k="place" v="isolated_dwelling" />
		<tag k="ssr:stedsnr" v="447183" />
	</node>
	<node id="-21528" lat="59.5934833378" lon="10.8236666596">
		<tag k="name" v="Bjørkelia" />
		<tag k="place" v="isolated_dwelling" />
		<tag k="ssr:stedsnr" v="447182" />
	</node>
	<node id="-21527" lat="59.5619583311" lon="10.7771500069">
		<tag k="name" v="Fjell" />
		<tag k="place" v="hamlet" />
		<tag k="ssr:stedsnr" v="447168" />
	</node>
	<node id="-21526" lat="59.5946055587" lon="10.7680527754">
		<tag k="name" v="Børjaneset" />
		<tag k="place" v="locality" />
		<tag k="ssr:stedsnr" v="447149" />
	</node>
	<node id="-21525" lat="59.5934694464" lon="10.7485611026">
		<tag k="name" v="Balserud" />
		<tag k="place" v="locality" />
		<tag k="ssr:stedsnr" v="447148" />
	</node>
	<node id="-21523" lat="59.54066389" lon="10.7349694499">
		<tag k="name" v="Elverhøy" />
		<tag k="place" v="farm" />
		<tag k="ssr:stedsnr" v="447097" />
	</node>
	<node id="-21522" lat="59.5003500024" lon="10.7584583413">
		<tag k="name" v="Hansbråten" />
		<tag k="place" v="locality" />
		<tag k="ssr:stedsnr" v="447063" />
	</node>
	<node id="-21521" lat="59.5811166626" lon="10.7605333299">
		<tag k="alt_name" v="Vestre To" />
		<tag k="name" v="To" />
		<tag k="place" v="farm" />
		<tag k="ssr:stedsnr" v="429169" />
	</node>
	<node id="-21520" lat="59.5913472261" lon="10.6791111039">
		<tag k="name" v="Strandsødegarden" />
		<tag k="place" v="farm" />
		<tag k="ssr:stedsnr" v="428733" />
	</node>
	<node id="-21519" lat="59.5922861143" lon="10.707638888">
		<tag k="name" v="Jonsrud" />
		<tag k="place" v="isolated_dwelling" />
		<tag k="ssr:stedsnr" v="428719" />
	</node>
	<node id="-21518" lat="59.5874916708" lon="10.6827444384">
		<tag k="name" v="Hauger" />
		<tag k="place" v="farm" />
		<tag k="ssr:stedsnr" v="428715" />
	</node>
	<node id="-21515" lat="59.4984305521" lon="10.7496083357">
		<tag k="alt_name" v="Grefsrud" />
		<tag k="name" v="Grefsrød" />
		<tag k="place" v="farm" />
		<tag k="ssr:stedsnr" v="428662" />
	</node>
	<node id="-21513" lat="59.6304499992" lon="10.6912972224">
		<tag k="name" v="Pytt" />
		<tag k="place" v="farm" />
		<tag k="ssr:stedsnr" v="428642" />
	</node>
	<node id="-21512" lat="59.6020449345" lon="10.6891109919">
		<tag k="fixme" v="consider place=hamlet" />
		<tag k="name" v="Ugjestrød" />
		<tag k="place" v="farm" />
		<tag k="ssr:stedsnr" v="428593" />
	</node>
	<node id="-21509" lat="59.5333861076" lon="10.6766833402">
		<tag k="name" v="Stamnes" />
		<tag k="place" v="farm" />
		<tag k="ssr:stedsnr" v="428507" />
	</node>
	<node id="-21508" lat="59.5366055516" lon="10.7128194492">
		<tag k="name" v="Dypendal" />
		<tag k="place" v="isolated_dwelling" />
		<tag k="ssr:stedsnr" v="428495" />
	</node>
	<node id="-21507" lat="59.563880557" lon="10.7464888949">
		<tag k="alt_name" v="Bylterud, m;Bylterød vestre" />
		<tag k="name" v="Vestre Bylterud" />
		<tag k="place" v="farm" />
		<tag k="ssr:stedsnr" v="428180" />
	</node>
	<node id="-21506" lat="59.5593222259" lon="10.7621916748">
		<tag k="alt_name" v="Krafoss (nedl.)" />
		<tag k="name" v="Krafoss" />
		<tag k="place" v="locality" />
		<tag k="ssr:stedsnr" v="428175" />
	</node>
	<node id="-21504" lat="59.5892027771" lon="10.6928749978">
		<tag k="name" v="Nordre Rønjul" />
		<tag k="place" v="farm" />
		<tag k="ssr:stedsnr" v="422696" />
	</node>
	<node id="-21503" lat="59.6278168248" lon="10.7832332718">
		<tag k="fixme" v="consider place=hamlet" />
		<tag k="name" v="Tveter" />
		<tag k="place" v="farm" />
		<tag k="ssr:stedsnr" v="422210" />
	</node>
	<node id="-21501" lat="59.5971833319" lon="10.7546138809">
		<tag k="amenity" v="school" />
		<tag k="name" v="Vestby arena" />
		<tag k="ssr:stedsnr" v="422066" />
	</node>
	<node id="-21500" lat="59.5967583342" lon="10.7568416639">
		<tag k="amenity" v="school" />
		<tag k="name" v="Vestby skole" />
		<tag k="ssr:stedsnr" v="422050" />
	</node>
	<node id="-21497" lat="59.5360277813" lon="10.7158333384">
		<tag k="name" v="Stavsenga" />
		<tag k="place" v="locality" />
		<tag k="ssr:stedsnr" v="421274" />
	</node>
	<node id="-21496" lat="59.5667333331" lon="10.6511916606">
		<tag k="name" v="Svartåsen" />
		<tag k="place" v="isolated_dwelling" />
		<tag k="ssr:stedsnr" v="421267" />
	</node>
	<node id="-21495" lat="59.6064694486" lon="10.6516888908">
		<tag k="name" v="Nedre Ramme" />
		<tag k="place" v="farm" />
		<tag k="ssr:stedsnr" v="421217" />
	</node>
	<node id="-21494" lat="59.5070333367" lon="10.6827666742">
		<tag k="name" v="Bjerkebukta" />
		<tag k="place" v="farm" />
		<tag k="ssr:stedsnr" v="420458" />
	</node>
	<node id="-21493" lat="59.5254555564" lon="10.7054999966">
		<tag k="name" v="Deør skog" />
		<tag k="place" v="quarter" />
		<tag k="ssr:stedsnr" v="420424" />
	</node>
	<node id="-21492" lat="59.5747888666" lon="10.8313219868">
		<tag k="fixme" v="consider place=hamlet" />
		<tag k="name" v="Tom" />
		<tag k="place" v="farm" />
		<tag k="ssr:stedsnr" v="420284" />
	</node>
	<node id="-21491" lat="59.5390333299" lon="10.7603250025">
		<tag k="alt_name" v="Auerød" />
		<tag k="name" v="Søndre Auerud" />
		<tag k="place" v="farm" />
		<tag k="ssr:stedsnr" v="418022" />
	</node>
	<node id="-21490" lat="59.5708499984" lon="10.83856666">
		<tag k="name" v="Pung" />
		<tag k="place" v="farm" />
		<tag k="ssr:stedsnr" v="429210" />
	</node>
	<node id="-21489" lat="59.5661749989" lon="10.7359888924">
		<tag k="name" v="Kjenn" />
		<tag k="place" v="hamlet" />
		<tag k="ssr:stedsnr" v="267712" />
	</node>
	<node id="-21488" lat="59.5422249967" lon="10.722780562">
		<tag k="alt_name" v="Gjølstad nordre" />
		<tag k="name" v="Nordre Gjølstad" />
		<tag k="place" v="farm" />
		<tag k="ssr:stedsnr" v="267072" />
	</node>
	<node id="-21487" lat="59.5921499983" lon="10.7527555498">
		<tag k="name" v="Furulund" />
		<tag k="place" v="hamlet" />
		<tag k="ssr:stedsnr" v="266147" />
	</node>
	<node id="-21486" lat="59.6153527805" lon="10.745350004">
		<tag k="name" v="Randem skog" />
		<tag k="place" v="quarter" />
		<tag k="ssr:stedsnr" v="265809" />
	</node>
	<node id="-21485" lat="59.570538767" lon="10.7758442824">
		<tag k="name" v="Svinskau" />
		<tag k="place" v="farm" />
		<tag k="ssr:stedsnr" v="265251" />
	</node>
	<node id="-21483" lat="59.5778888925" lon="10.7367416753">
		<tag k="name" v="Vestli" />
		<tag k="place" v="isolated_dwelling" />
		<tag k="ssr:stedsnr" v="265177" />
	</node>
	<node id="-21481" lat="59.5872499962" lon="10.7606249939">
		<tag k="name" v="Bjørnerud" />
		<tag k="place" v="farm" />
		<tag k="ssr:stedsnr" v="247179" />
	</node>
	<node id="-21480" lat="59.5241750003" lon="10.7775416659">
		<tag k="name" v="Damnes" />
		<tag k="place" v="farm" />
		<tag k="ssr:stedsnr" v="247004" />
	</node>
	<node id="-21479" lat="59.5664305591" lon="10.7031611134">
		<tag k="name" v="Dal" />
		<tag k="place" v="farm" />
		<tag k="ssr:stedsnr" v="246677" />
	</node>
	<node id="-21478" lat="59.557449996" lon="10.6874055641">
		<tag k="name" v="Jonstad" />
		<tag k="place" v="farm" />
		<tag k="ssr:stedsnr" v="246661" />
	</node>
	<node id="-21477" lat="59.6397201264" lon="10.6947927265">
		<tag k="fixme" v="consider place=hamlet" />
		<tag k="name" v="Linnestad" />
		<tag k="place" v="farm" />
		<tag k="ssr:stedsnr" v="246652" />
	</node>
	<node id="-21476" lat="59.6228333375" lon="10.7148166609">
		<tag k="name" v="Slutningen" />
		<tag k="place" v="farm" />
		<tag k="ssr:stedsnr" v="246629" />
	</node>
	<node id="-21475" lat="59.6072248277" lon="10.6800607994">
		<tag k="fixme" v="consider place=hamlet" />
		<tag k="name" v="Knallstad" />
		<tag k="place" v="farm" />
		<tag k="ssr:stedsnr" v="246608" />
	</node>
	<node id="-21474" lat="59.5264277738" lon="10.7011999984">
		<tag k="name" v="Strømbråten" />
		<tag k="place" v="village" />
		<tag k="ssr:stedsnr" v="246509" />
	</node>
	<node id="-21473" lat="59.6076472235" lon="10.7864944446">
		<tag k="name" v="Kalføss" />
		<tag k="place" v="farm" />
		<tag k="ssr:stedsnr" v="246360" />
	</node>
	<node id="-21472" lat="59.6312249969" lon="10.7626777788">
		<tag k="alt_name" v="Støttumtangen" />
		<tag k="name" v="Tangen" />
		<tag k="place" v="farm" />
		<tag k="ssr:stedsnr" v="246298" />
	</node>
	<node id="-21471" lat="59.5559805577" lon="10.7722638826">
		<tag k="fixme" v="multiple name tags, choose one and add the other to alt_name" />
		<tag k="name" v="Åmotbråten;Store Åmot" />
		<tag k="old_name" v="Aamot store" />
		<tag k="place" v="farm" />
		<tag k="ssr:stedsnr" v="246236" />
	</node>
	<node id="-21470" lat="59.5641555566" lon="10.7493888926">
		<tag k="alt_name" v="Bylterud, østre;Bylterød østre;Bylterud østre" />
		<tag k="name" v="Østre Bylterud" />
		<tag k="place" v="farm" />
		<tag k="ssr:stedsnr" v="246209" />
	</node>
	<node id="-21469" lat="59.5569999986" lon="10.7784222244">
		<tag k="name" v="Blådike" />
		<tag k="place" v="farm" />
		<tag k="ssr:stedsnr" v="246205" />
	</node>
	<node id="-21468" lat="59.5561749979" lon="10.781725001">
		<tag k="name" v="Oksane" />
		<tag k="place" v="farm" />
		<tag k="ssr:stedsnr" v="246203" />
	</node>
	<node id="-21467" lat="59.5667805538" lon="10.8055083417">
		<tag k="name" v="Garderhagen" />
		<tag k="place" v="farm" />
		<tag k="ssr:stedsnr" v="246200" />
	</node>
	<node id="-21466" lat="59.598941664" lon="10.7531777751">
		<tag k="alt_name" v="Follo Folkehøgskole" />
		<tag k="amenity" v="school" />
		<tag k="name" v="Follo folkehøgskole" />
		<tag k="ssr:stedsnr" v="246143" />
	</node>
	<node id="-21465" lat="59.596199999" lon="10.7482666694">
		<tag k="name" v="Sundby" />
		<tag k="place" v="farm" />
		<tag k="ssr:stedsnr" v="246132" />
	</node>
	<node id="-21464" lat="59.5074500008" lon="10.7672499946">
		<tag k="alt_name" v="Raknerud" />
		<tag k="name" v="Raknerød" />
		<tag k="place" v="farm" />
		<tag k="ssr:stedsnr" v="246044" />
	</node>
	<node id="-21463" lat="59.583386115" lon="10.8165888925">
		<tag k="alt_name" v="Hovum;Hovum nordre" />
		<tag k="name" v="Nordre Hovum" />
		<tag k="place" v="farm" />
		<tag k="ssr:stedsnr" v="246035" />
	</node>
	<node id="-21462" lat="59.4992161643" lon="10.7090928219">
		<tag k="fixme" v="consider place=hamlet" />
		<tag k="name" v="Rød" />
		<tag k="place" v="farm" />
		<tag k="ssr:stedsnr" v="245914" />
	</node>
	<node id="-21461" lat="59.5085546099" lon="10.7034388898">
		<tag k="name" v="Brevikbråten" />
		<tag k="place" v="farm" />
		<tag k="ssr:stedsnr" v="245508" />
	</node>
	<node id="-21460" lat="59.5715639557" lon="10.778010634">
		<tag k="fixme" v="consider place=hamlet" />
		<tag k="name" v="Svinskau" />
		<tag k="place" v="farm" />
		<tag k="ssr:stedsnr" v="242786" />
	</node>
	<node id="-21459" lat="59.5720888899" lon="10.7193666631">
		<tag k="name" v="Nordre Tømt" />
		<tag k="place" v="farm" />
		<tag k="ssr:stedsnr" v="240561" />
	</node>
	<node id="-21458" lat="59.6451416645" lon="10.6857555524">
		<tag k="name" v="Nedre Linnestad" />
		<tag k="place" v="farm" />
		<tag k="ssr:stedsnr" v="240550" />
	</node>
	<node id="-21457" lat="59.6359027799" lon="10.7008305483">
		<tag k="alt_name" v="Vastad søndre" />
		<tag k="name" v="Søndre Vastad" />
		<tag k="place" v="farm" />
		<tag k="ssr:stedsnr" v="240178" />
	</node>
	<node id="-21456" lat="59.6030111143" lon="10.6658555572">
		<tag k="name" v="Grinda" />
		<tag k="place" v="farm" />
		<tag k="ssr:stedsnr" v="239154" />
	</node>
	<node id="-21455" lat="59.6049194422" lon="10.6901194453">
		<tag k="alt_name" v="Ugjestrud nordre" />
		<tag k="name" v="Nordre Ugjestrud" />
		<tag k="place" v="farm" />
		<tag k="ssr:stedsnr" v="239148" />
	</node>
	<node id="-21454" lat="59.5198111078" lon="10.7003555622">
		<tag k="amenity" v="school" />
		<tag k="name" v="Son skole" />
		<tag k="ssr:stedsnr" v="239051" />
	</node>
	<node id="-21453" lat="59.4918833377" lon="10.7027472191">
		<tag k="name" v="Rødkind" />
		<tag k="place" v="isolated_dwelling" />
		<tag k="ssr:stedsnr" v="238630" />
	</node>
	<node id="-21449" lat="59.5307499987" lon="10.6880333415">
		<tag k="alt_name" v="Kålås nedre;Nedre Kålås" />
		<tag k="name" v="Nedre Kolås" />
		<tag k="place" v="farm" />
		<tag k="ssr:stedsnr" v="238407" />
	</node>
	<node id="-21447" lat="59.5661944422" lon="10.6522388838">
		<tag k="alt_name" v="Ingerløkka" />
		<tag k="name" v="Ingersløkka" />
		<tag k="place" v="farm" />
		<tag k="ssr:stedsnr" v="210883" />
	</node>
	<node id="-21444" lat="59.5869833299" lon="10.6663027822">
		<tag k="name" v="Tolvstua" />
		<tag k="place" v="isolated_dwelling" />
		<tag k="ssr:stedsnr" v="208942" />
	</node>
	<node id="-21443" lat="59.5462861142" lon="10.6950361166">
		<tag k="name" v="Mellom-Mørk" />
		<tag k="place" v="farm" />
		<tag k="ssr:stedsnr" v="207178" />
	</node>
	<node id="-21442" lat="59.6045749986" lon="10.6551749988">
		<tag k="name" v="Rammebråten" />
		<tag k="place" v="farm" />
		<tag k="ssr:stedsnr" v="207006" />
	</node>
	<node id="-21440" lat="59.5085361089" lon="10.7204361053">
		<tag k="name" v="Tegnebyengen" />
		<tag k="place" v="farm" />
		<tag k="ssr:stedsnr" v="205071" />
	</node>
	<node id="-21439" lat="59.5950055544" lon="10.8247222153">
		<tag k="name" v="Haug" />
		<tag k="place" v="isolated_dwelling" />
		<tag k="ssr:stedsnr" v="204819" />
	</node>
	<node id="-21437" lat="59.5710916691" lon="10.7960472257">
		<tag k="alt_name" v="Jordebru søndre" />
		<tag k="name" v="Søndre Jordebru" />
		<tag k="place" v="farm" />
		<tag k="ssr:stedsnr" v="204203" />
	</node>
	<node id="-21436" lat="59.5668083336" lon="10.7495972137">
		<tag k="name" v="Nedre Langli" />
		<tag k="place" v="farm" />
		<tag k="ssr:stedsnr" v="204145" />
	</node>
	<node id="-21435" lat="59.5952416681" lon="10.7474166748">
		<tag k="name" v="Søndre Sundby" />
		<tag k="place" v="isolated_dwelling" />
		<tag k="ssr:stedsnr" v="204126" />
	</node>
	<node id="-21434" lat="59.5994027803" lon="10.7926444467">
		<tag k="alt_name" v="Jeksrud;Gjeksrud" />
		<tag k="fixme" v="consider place=hamlet" />
		<tag k="name" v="Gjeksrød" />
		<tag k="place" v="farm" />
		<tag k="ssr:stedsnr" v="186144" />
	</node>
	<node id="-21433" lat="59.5763694418" lon="10.7757305478">
		<tag k="alt_name" v="Rustad, midtre" />
		<tag k="name" v="Midtre Rustad" />
		<tag k="place" v="farm" />
		<tag k="ssr:stedsnr" v="186154" />
	</node>
	<node id="-21432" lat="59.6326166635" lon="10.6952027783">
		<tag k="name" v="Haugen" />
		<tag k="place" v="farm" />
		<tag k="ssr:stedsnr" v="185627" />
	</node>
	<node id="-21431" lat="59.5476789951" lon="10.684024301">
		<tag k="fixme" v="consider place=hamlet" />
		<tag k="name" v="Roastad" />
		<tag k="place" v="farm" />
		<tag k="ssr:stedsnr" v="185501" />
	</node>
	<node id="-21430" lat="59.5377583295" lon="10.666080562">
		<tag k="name" v="Kjøvangen" />
		<tag k="place" v="hamlet" />
		<tag k="ssr:stedsnr" v="185486" />
	</node>
	<node id="-21429" lat="59.5656027789" lon="10.6923055595">
		<tag k="alt_name" v="Nygård" />
		<tag k="name" v="Nygard" />
		<tag k="place" v="farm" />
		<tag k="ssr:stedsnr" v="185675" />
	</node>
	<node id="-21428" lat="59.6079888921" lon="10.7276111048">
		<tag k="name" v="Hagen" />
		<tag k="place" v="farm" />
		<tag k="ssr:stedsnr" v="185349" />
	</node>
	<node id="-21427" lat="59.5125027783" lon="10.735733334">
		<tag k="name" v="Tegneby" />
		<tag k="place" v="farm" />
		<tag k="ssr:stedsnr" v="185039" />
	</node>
	<node id="-21426" lat="59.5451944415" lon="10.65686111">
		<tag k="fixme" v="consider natural=beach + surface=sand" />
		<tag k="leisure" v="swimming_area" />
		<tag k="name" v="Holvik" />
		<tag k="place" v="locality" />
		<tag k="ssr:stedsnr" v="179975" />
	</node>
	<node id="-21424" lat="59.4863888927" lon="10.7168805531">
		<tag k="name" v="Vestjordet" />
		<tag k="place" v="locality" />
		<tag k="ssr:stedsnr" v="178601" />
	</node>
	<node id="-21423" lat="59.5340666708" lon="10.7058638815">
		<tag k="name" v="Århus" />
		<tag k="place" v="hamlet" />
		<tag k="ssr:stedsnr" v="178272" />
	</node>
	<node id="-21421" lat="59.5986333333" lon="10.7075055532">
		<tag k="amenity" v="school" />
		<tag k="name" v="Bjørlien barneskole" />
		<tag k="ssr:stedsnr" v="178124" />
	</node>
	<node id="-21419" lat="59.504519443" lon="10.6839666642">
		<tag k="name" v="Sollia" />
		<tag k="place" v="hamlet" />
		<tag k="ssr:stedsnr" v="177454" />
	</node>
	<node id="-21418" lat="59.5207194439" lon="10.6842083353">
		<tag k="name" v="Stenløkka" />
		<tag k="place" v="hamlet" />
		<tag k="ssr:stedsnr" v="177412" />
	</node>
	<node id="-21417" lat="59.5635055574" lon="10.7367361127">
		<tag k="name" v="Fløyta" />
		<tag k="old_name" v="Fløiten;Flöjta" />
		<tag k="place" v="farm" />
		<tag k="ssr:stedsnr" v="176234" />
	</node>
	<node id="-21414" lat="59.6205194454" lon="10.7396444434">
		<tag k="name" v="Verpet" />
		<tag k="place" v="village" />
		<tag k="ssr:stedsnr" v="143216" />
	</node>
	<node id="-21413" lat="59.56325278" lon="10.8006722298">
		<tag k="alt_name" v="Oksa nedre" />
		<tag k="name" v="Nedre Oksa" />
		<tag k="place" v="farm" />
		<tag k="ssr:stedsnr" v="143213" />
	</node>
	<node id="-21412" lat="59.5690138927" lon="10.8231083277">
		<tag k="alt_name" v="Florud nedre;Flårud" />
		<tag k="name" v="Nedre Florud" />
		<tag k="place" v="farm" />
		<tag k="ssr:stedsnr" v="143206" />
	</node>
	<node id="-21411" lat="59.6270250006" lon="10.7288805642">
		<tag k="name" v="Gyldendal" />
		<tag k="place" v="isolated_dwelling" />
		<tag k="ssr:stedsnr" v="143187" />
	</node>
	<node id="-21410" lat="59.5602555581" lon="10.7838222175">
		<tag k="name" v="Kullebunn" />
		<tag k="place" v="farm" />
		<tag k="ssr:stedsnr" v="143161" />
	</node>
	<node id="-21409" lat="59.5829916688" lon="10.7496444385">
		<tag k="alt_name" v="Røddal vestre" />
		<tag k="name" v="Vestre Røddal" />
		<tag k="place" v="farm" />
		<tag k="ssr:stedsnr" v="143132" />
	</node>
	<node id="-21405" lat="59.5618777811" lon="10.7429361126">
		<tag k="alt_name" v="Bylterud, søndre;Bylterød søndre" />
		<tag k="name" v="Søndre Bylterud" />
		<tag k="place" v="farm" />
		<tag k="ssr:stedsnr" v="125223" />
	</node>
	<node id="-21404" lat="59.579599999" lon="10.7296083295">
		<tag k="name" v="Rødsbråten" />
		<tag k="place" v="farm" />
		<tag k="ssr:stedsnr" v="125195" />
	</node>
	<node id="-21403" lat="59.5782555539" lon="10.7327444419">
		<tag k="name" v="Rustad" />
		<tag k="place" v="farm" />
		<tag k="ssr:stedsnr" v="125194" />
	</node>
	<node id="-21402" lat="59.5828333362" lon="10.7918138972">
		<tag k="alt_name" v="Bjørkeskog;Bjerkeskog" />
		<tag k="name" v="Bjerkeskau" />
		<tag k="place" v="farm" />
		<tag k="ssr:stedsnr" v="125178" />
	</node>
	<node id="-21401" lat="59.5984111147" lon="10.8407638839">
		<tag k="name" v="Hestvetødegården" />
		<tag k="place" v="farm" />
		<tag k="ssr:stedsnr" v="125138" />
	</node>
	<node id="-21400" lat="59.5918861119" lon="10.7466083411">
		<tag k="name" v="Sønsteby" />
		<tag k="place" v="farm" />
		<tag k="ssr:stedsnr" v="125134" />
	</node>
	<node id="-21399" lat="59.5057514365" lon="10.7598635814">
		<tag k="fixme" v="consider place=hamlet" />
		<tag k="name" v="Vandrås" />
		<tag k="place" v="farm" />
		<tag k="ssr:stedsnr" v="125094" />
	</node>
	<node id="-21398" lat="59.5927722198" lon="10.6847999927">
		<tag k="name" v="Solberg" />
		<tag k="place" v="farm" />
		<tag k="ssr:stedsnr" v="124696" />
	</node>
	<node id="-21397" lat="59.4859066405" lon="10.7234162558">
		<tag k="name" v="Mørk" />
		<tag k="place" v="farm" />
		<tag k="ssr:stedsnr" v="124627" />
	</node>
	<node id="-21396" lat="59.55261667" lon="10.7172611063">
		<tag k="name" v="Kolåsbråten" />
		<tag k="place" v="farm" />
		<tag k="ssr:stedsnr" v="124628" />
	</node>
	<node id="-21395" lat="59.6078559409" lon="10.6541218657">
		<tag k="fixme" v="consider place=hamlet" />
		<tag k="name" v="Ramme" />
		<tag k="place" v="farm" />
		<tag k="ssr:stedsnr" v="124574" />
	</node>
	<node id="-21394" lat="59.550291668" lon="10.7165222182">
		<tag k="name" v="Dyrendal" />
		<tag k="place" v="farm" />
		<tag k="ssr:stedsnr" v="124498" />
	</node>
	<node id="-21393" lat="59.540736111" lon="10.7095083381">
		<tag k="name" v="Finstad" />
		<tag k="place" v="farm" />
		<tag k="ssr:stedsnr" v="124476" />
	</node>
	<node id="-21392" lat="59.5231333302" lon="10.6859194408">
		<tag k="name" v="Son" />
		<tag k="place" v="village" />
		<tag k="ssr:stedsnr" v="124460" />
	</node>
	<node id="-21391" lat="59.6205027734" lon="10.8183916592">
		<tag k="name" v="Teigen" />
		<tag k="place" v="farm" />
		<tag k="ssr:stedsnr" v="124296" />
	</node>
	<node id="-21390" lat="59.6183194436" lon="10.7251861044">
		<tag k="loc_name" v="Jegstad" />
		<tag k="name" v="Gjekstad" />
		<tag k="place" v="farm" />
		<tag k="ssr:stedsnr" v="124287" />
	</node>
	<node id="-21389" lat="59.6246777744" lon="10.7236083351">
		<tag k="name" v="Smedsrud" />
		<tag k="place" v="farm" />
		<tag k="ssr:stedsnr" v="124260" />
	</node>
	<node id="-21388" lat="59.630311114" lon="10.712200007">
		<tag k="name" v="Hvitstenhytta" />
		<tag k="place" v="isolated_dwelling" />
		<tag k="ssr:stedsnr" v="119175" />
	</node>
	<node id="-21387" lat="59.4945611101" lon="10.7080750006">
		<tag k="alt_name" v="Rød søndre" />
		<tag k="name" v="Søndre Rød" />
		<tag k="place" v="farm" />
		<tag k="ssr:stedsnr" v="117628" />
	</node>
	<node id="-21385" lat="59.5288805528" lon="10.6936861187">
		<tag k="name" v="Verket" />
		<tag k="place" v="farm" />
		<tag k="ssr:stedsnr" v="117420" />
	</node>
	<node id="-21384" lat="59.5776333304" lon="10.774366658">
		<tag k="name" v="Vestre Rustad" />
		<tag k="place" v="farm" />
		<tag k="ssr:stedsnr" v="102588" />
	</node>
	<node id="-21383" lat="59.5868000006" lon="10.6559138859">
		<tag k="name" v="Holen" />
		<tag k="place" v="neighbourhood" />
		<tag k="ssr:stedsnr" v="87927" />
	</node>
	<node id="-21382" lat="59.5715944448" lon="10.7791277799">
		<tag k="name" v="Svinskau" />
		<tag k="place" v="farm" />
		<tag k="ssr:stedsnr" v="83230" />
	</node>
	<node id="-21380" lat="59.6289055548" lon="10.7325611031">
		<tag k="name" v="Sørli" />
		<tag k="place" v="farm" />
		<tag k="ssr:stedsnr" v="83207" />
	</node>
	<node id="-21379" lat="59.5812638875" lon="10.8078138937">
		<tag k="amenity" v="nursing_home" />
		<tag k="name" v="Gardarheim" />
		<tag k="ssr:stedsnr" v="83186" />
	</node>
	<node id="-21377" lat="59.5596722261" lon="10.7754916716">
		<tag k="name" v="Bergli" />
		<tag k="place" v="hamlet" />
		<tag k="ssr:stedsnr" v="83176" />
	</node>
	<node id="-21376" lat="59.5837277775" lon="10.8321861165">
		<tag k="name" v="Grønlia" />
		<tag k="place" v="farm" />
		<tag k="ssr:stedsnr" v="65165" />
	</node>
	<node id="-21375" lat="59.5356499989" lon="10.7511305469">
		<tag k="alt_name" v="Vines, nordre;Vines nordre" />
		<tag k="name" v="Nordre Vines" />
		<tag k="place" v="farm" />
		<tag k="ssr:stedsnr" v="65015" />
	</node>
	<node id="-21374" lat="59.563663887" lon="10.6566527776">
		<tag k="name" v="Kroken" />
		<tag k="place" v="farm" />
		<tag k="ssr:stedsnr" v="64713" />
	</node>
	<node id="-21373" lat="59.6369448867" lon="10.7015845931">
		<tag k="fixme" v="consider place=hamlet" />
		<tag k="name" v="Vastad" />
		<tag k="place" v="farm" />
		<tag k="ssr:stedsnr" v="64688" />
	</node>
	<node id="-21371" lat="59.6207194448" lon="10.6831138852">
		<tag k="name" v="Ørebekk" />
		<tag k="place" v="farm" />
		<tag k="ssr:stedsnr" v="64659" />
	</node>
	<node id="-21370" lat="59.6065305559" lon="10.7037944381">
		<tag k="name" v="Pepperstad" />
		<tag k="place" v="farm" />
		<tag k="ssr:stedsnr" v="64618" />
	</node>
	<node id="-21369" lat="59.5299717596" lon="10.7008638168">
		<tag k="name" v="Labu" />
		<tag k="place" v="hamlet" />
		<tag k="ssr:stedsnr" v="64533" />
	</node>
	<node id="-21368" lat="59.5325294541" lon="10.684990508">
		<tag k="fixme" v="consider place=hamlet" />
		<tag k="name" v="Kolås" />
		<tag k="place" v="farm" />
		<tag k="ssr:stedsnr" v="64530" />
	</node>
	<node id="-21367" lat="59.6305722183" lon="10.7196388865">
		<tag k="name" v="Hvitsten" />
		<tag k="place" v="farm" />
		<tag k="ssr:stedsnr" v="64316" />
	</node>
	<node id="-21366" lat="59.5499249992" lon="10.7385249964">
		<tag k="name" v="Andbekk" />
		<tag k="place" v="farm" />
		<tag k="ssr:stedsnr" v="64218" />
	</node>
	<node id="-21365" lat="59.5672416661" lon="10.7491750039">
		<tag k="name" v="Langeli" />
		<tag k="place" v="farm" />
		<tag k="ssr:stedsnr" v="64190" />
	</node>
	<node id="-21364" lat="59.6004472243" lon="10.7235388815">
		<tag k="name" v="Bjørlien" />
		<tag k="place" v="farm" />
		<tag k="ssr:stedsnr" v="64138" />
	</node>
	<node id="-21363" lat="59.5123777791" lon="10.7442833366">
		<tag k="alt_name" v="Langerød, nordre;Langerud nordre" />
		<tag k="name" v="Nordre Langerud" />
		<tag k="place" v="farm" />
		<tag k="ssr:stedsnr" v="64034" />
	</node>
	<node id="-21362" lat="59.5940499956" lon="10.7363444439">
		<tag k="alt_name" v="Rød;Rød nedre" />
		<tag k="name" v="Nedre Rød" />
		<tag k="place" v="farm" />
		<tag k="ssr:stedsnr" v="64028" />
	</node>
	<node id="-21361" lat="59.5986277813" lon="10.6554500071">
		<tag k="name" v="Hvitsten" />
		<tag k="place" v="village" />
		<tag k="ssr:stedsnr" v="63738" />
	</node>
	<node id="-21360" lat="59.5925888901" lon="10.6528333372">
		<tag k="name" v="Katten" />
		<tag k="place" v="isolated_dwelling" />
		<tag k="ssr:stedsnr" v="63737" />
	</node>
	<node id="-21358" lat="59.5831555543" lon="10.6564972237">
		<tag k="name" v="Bråten" />
		<tag k="place" v="farm" />
		<tag k="ssr:stedsnr" v="58562" />
	</node>
	<node id="-21357" lat="59.5554916687" lon="10.7124694491">
		<tag k="name" v="Søndre Klokkerud" />
		<tag k="place" v="farm" />
		<tag k="ssr:stedsnr" v="58561" />
	</node>
	<node id="-21356" lat="59.5575416659" lon="10.714183331">
		<tag k="name" v="Nordre Klokkerud" />
		<tag k="place" v="farm" />
		<tag k="ssr:stedsnr" v="58560" />
	</node>
	<node id="-21355" lat="59.5611472224" lon="10.693216675">
		<tag k="name" v="Nordre Erikstad" />
		<tag k="place" v="farm" />
		<tag k="ssr:stedsnr" v="58558" />
	</node>
	<node id="-21354" lat="59.639547226" lon="10.6934416752">
		<tag k="name" v="Toje" />
		<tag k="place" v="isolated_dwelling" />
		<tag k="ssr:stedsnr" v="58548" />
	</node>
	<node id="-21353" lat="59.6153444443" lon="10.7125555582">
		<tag k="name" v="Tømmerås" />
		<tag k="place" v="locality" />
		<tag k="ssr:stedsnr" v="58166" />
	</node>
	<node id="-21352" lat="59.6085361117" lon="10.6806972144">
		<tag k="name" v="Nordre Knalstad" />
		<tag k="place" v="farm" />
		<tag k="ssr:stedsnr" v="57127" />
	</node>
	<node id="-21351" lat="59.5978027778" lon="10.7098361154">
		<tag k="amenity" v="sports_centre" />
		<tag k="name" v="Vestbyhallen" />
		<tag k="ssr:stedsnr" v="57107" />
	</node>
	<node id="-21349" lat="59.5193944464" lon="10.6888777842">
		<tag k="name" v="Midtskogen" />
		<tag k="place" v="isolated_dwelling" />
		<tag k="ssr:stedsnr" v="56725" />
	</node>
	<node id="-21348" lat="59.4971652662" lon="10.6847516129">
		<tag k="alt_name" v="Brevik vestre" />
		<tag k="name" v="Vestre Brevik" />
		<tag k="place" v="farm" />
		<tag k="ssr:stedsnr" v="56458" />
	</node>
	<node id="-21347" lat="59.522880556" lon="10.669944446">
		<tag k="name" v="Blåstua" />
		<tag k="place" v="isolated_dwelling" />
		<tag k="ssr:stedsnr" v="56414" />
	</node>
	<node id="-21346" lat="59.5204444452" lon="10.7006166675">
		<tag k="name" v="Solhøy" />
		<tag k="place" v="farm" />
		<tag k="ssr:stedsnr" v="56409" />
	</node>
	<node id="-21345" lat="59.5474138927" lon="10.6981527712">
		<tag k="name" v="Villa Granholt" />
		<tag k="place" v="isolated_dwelling" />
		<tag k="ssr:stedsnr" v="56262" />
	</node>
	<node id="-21341" lat="59.5845638913" lon="10.6567611176">
		<tag k="name" v="Mølen" />
		<tag k="place" v="farm" />
		<tag k="ssr:stedsnr" v="26927" />
	</node>
	<node id="-21339" lat="59.5517388931" lon="10.7498944499">
		<tag k="name" v="Fjell" />
		<tag k="place" v="farm" />
		<tag k="ssr:stedsnr" v="23131" />
	</node>
	<node id="-21338" lat="59.5713750025" lon="10.8039666651">
		<tag k="name" v="Fjellberg" />
		<tag k="place" v="isolated_dwelling" />
		<tag k="ssr:stedsnr" v="22220" />
	</node>
	<node id="-21335" lat="59.5246722243" lon="10.7195416603">
		<tag k="name" v="Solvang" />
		<tag k="place" v="farm" />
		<tag k="ssr:stedsnr" v="22128" />
	</node>
	<node id="-21334" lat="59.5409833292" lon="10.720841658">
		<tag k="alt_name" v="Gjølstad søndre" />
		<tag k="name" v="Søndre Gjølstad" />
		<tag k="place" v="farm" />
		<tag k="ssr:stedsnr" v="22098" />
	</node>
	<node id="-21333" lat="59.5374999978" lon="10.7183055569">
		<tag k="name" v="Øgården" />
		<tag k="place" v="farm" />
		<tag k="ssr:stedsnr" v="22097" />
	</node>
	<node id="-21332" lat="59.5732305525" lon="10.8356583359">
		<tag k="alt_name" v="Tom, søndre;Tom søndre;Lille Tom;Tom lille" />
		<tag k="name" v="Søndre Tom" />
		<tag k="place" v="farm" />
		<tag k="ssr:stedsnr" v="4212" />
	</node>
	<node id="-21331" lat="59.5907499983" lon="10.8503527748">
		<tag k="name" v="Halle" />
		<tag k="place" v="farm" />
		<tag k="ssr:stedsnr" v="4191" />
	</node>
	<node id="-21330" lat="59.5713749974" lon="10.749261104">
		<tag k="name" v="Todammen" />
		<tag k="place" v="isolated_dwelling" />
		<tag k="ssr:stedsnr" v="4174" />
	</node>
	<node id="-21329" lat="59.6040888872" lon="10.7687583327">
		<tag k="alt_name" v="Ålerød, søndre;Ålerud søndre" />
		<tag k="name" v="Søndre Ålerød" />
		<tag k="place" v="farm" />
		<tag k="ssr:stedsnr" v="4146" />
	</node>
	<node id="-21328" lat="59.5239166695" lon="10.7460666681">
		<tag k="alt_name" v="Ek;Ek nordre" />
		<tag k="name" v="Nordre Ek" />
		<tag k="place" v="farm" />
		<tag k="ssr:stedsnr" v="4046" />
	</node>
	<node id="-21327" lat="59.5381194413" lon="10.7797861149">
		<tag k="alt_name" v="Holm, søndre;Holm søndre" />
		<tag k="name" v="Søndre Holm" />
		<tag k="old_name" v="Nordre Holm" />
		<tag k="place" v="farm" />
		<tag k="ssr:stedsnr" v="4024" />
	</node>
	<node id="-21326" lat="59.5365305536" lon="10.7410722166">
		<tag k="name" v="Bommen" />
		<tag k="place" v="farm" />
		<tag k="ssr:stedsnr" v="4021" />
	</node>
	<node id="-21325" lat="59.5936055599" lon="10.6781444512">
		<tag k="name" v="Brattås" />
		<tag k="place" v="farm" />
		<tag k="ssr:stedsnr" v="3735" />
	</node>
	<node id="-21324" lat="59.5744055586" lon="10.7055527728">
		<tag k="name" v="Erikstadbråten" />
		<tag k="place" v="farm" />
		<tag k="ssr:stedsnr" v="3687" />
	</node>
	<node id="-21323" lat="59.6220166684" lon="10.6918666613">
		<tag k="name" v="Frydenlund" />
		<tag k="place" v="farm" />
		<tag k="ssr:stedsnr" v="3618" />
	</node>
	<node id="-21322" lat="59.5138578035" lon="10.6869678658">
		<tag k="alt_name" v="Brevik, nordre" />
		<tag k="fixme" v="consider place=hamlet" />
		<tag k="name" v="Nordre Brevik" />
		<tag k="place" v="farm" />
		<tag k="ssr:stedsnr" v="3481" />
	</node>
	<node id="-21321" lat="59.5031666642" lon="10.7158916643">
		<tag k="name" v="Smørbekk" />
		<tag k="place" v="farm" />
		<tag k="ssr:stedsnr" v="3455" />
	</node>
	<node id="-21320" lat="59.6147249972" lon="10.7937305635">
		<tag k="alt_name" v="Lesteberg, østre;Lesteberg østre" />
		<tag k="name" v="Østre Lesteberg" />
		<tag k="place" v="farm" />
		<tag k="ssr:stedsnr" v="3313" />
	</node>
	<node id="-21319" lat="59.6201499961" lon="10.795822221">
		<tag k="name" v="Hol" />
		<tag k="place" v="farm" />
		<tag k="ssr:stedsnr" v="3311" />
	</node>
	<node id="-21318" lat="59.6172000039" lon="10.7682027854">
		<tag k="name" v="Hamborg" />
		<tag k="place" v="isolated_dwelling" />
		<tag k="ssr:stedsnr" v="3312" />
	</node>
	<node id="-21316" lat="59.566858329" lon="10.7656833278">
		<tag k="name" v="Rokker" />
		<tag k="place" v="farm" />
		<tag k="ssr:stedsnr" v="3174" />
	</node>
	<node id="-21315" lat="59.5027241251" lon="10.6890561658">
		<tag k="name" v="Brevik" />
		<tag k="place" v="hamlet" />
		<tag k="ssr:stedsnr" v="2920" />
	</node>
	<node id="-21310" lat="59.4858582649" lon="10.7234386543">
		<tag k="amenity" v="cafe" />
		<tag k="name" v="Ødemørk" />
		<tag k="ssr:stedsnr" v="988109" />
	</node>
	<node id="-21298" lat="59.6062305533" lon="10.7418944447">
		<tag k="alt_name" v="Øvre Randem;Randum, østre" />
		<tag k="fixme" v="multiple name tags, choose one and add the other to alt_name" />
		<tag k="name" v="Randum nordre med Østby-ødegården;Øvre Randum" />
		<tag k="old_name" v="Østre Randum" />
		<tag k="place" v="farm" />
		<tag k="ssr:stedsnr" v="478123" />
	</node>
	<node id="-21295" lat="59.5516083333" lon="10.747599995">
		<tag k="name" v="Bylterudmyra" />
		<tag k="place" v="farm" />
		<tag k="ssr:stedsnr" v="387137" />
	</node>
	<node id="-21294" lat="59.5722166657" lon="10.7976277729">
		<tag k="alt_name" v="Jordebru nordre" />
		<tag k="name" v="Nordre Jordebru" />
		<tag k="place" v="farm" />
		<tag k="ssr:stedsnr" v="386240" />
	</node>
	<node id="-21293" lat="59.5719416681" lon="10.8262555577">
		<tag k="alt_name" v="Tom lille" />
		<tag k="name" v="Lille Tom" />
		<tag k="place" v="farm" />
		<tag k="ssr:stedsnr" v="386235" />
	</node>
	<node id="-21292" lat="59.5794333351" lon="10.8102916691">
		<tag k="name" v="Enerås" />
		<tag k="place" v="isolated_dwelling" />
		<tag k="ssr:stedsnr" v="386209" />
	</node>
	<node id="-21291" lat="59.5826527738" lon="10.8134666686">
		<tag k="name" v="Hov" />
		<tag k="place" v="farm" />
		<tag k="ssr:stedsnr" v="386168" />
	</node>
	<node id="-21290" lat="59.526030554" lon="10.7523444492">
		<tag k="alt_name" v="Såner ungd.skole" />
		<tag k="amenity" v="school" />
		<tag k="name" v="Såner ungdomsskole" />
		<tag k="ssr:stedsnr" v="386133" />
	</node>
	<node id="-21289" lat="59.5478055565" lon="10.7736555585">
		<tag k="name" v="Slottebråten" />
		<tag k="place" v="farm" />
		<tag k="ssr:stedsnr" v="386124" />
	</node>
	<node id="-21288" lat="59.5390277823" lon="10.7730277709">
		<tag k="name" v="Gjestvang" />
		<tag k="place" v="isolated_dwelling" />
		<tag k="ssr:stedsnr" v="386107" />
	</node>
	<node id="-21286" lat="59.5489249982" lon="10.7558833352">
		<tag k="name" v="Grorud" />
		<tag k="place" v="farm" />
		<tag k="ssr:stedsnr" v="368242" />
	</node>
	<node id="-21285" lat="59.5435027759" lon="10.7665138821">
		<tag k="name" v="Slottet" />
		<tag k="place" v="farm" />
		<tag k="ssr:stedsnr" v="368240" />
	</node>
	<node id="-21284" lat="59.5737027734" lon="10.7656527846">
		<tag k="name" v="Toødegården" />
		<tag k="place" v="farm" />
		<tag k="ssr:stedsnr" v="368188" />
	</node>
	<node id="-21283" lat="59.5997722252" lon="10.833827771">
		<tag k="alt_name" v="Topper, østre;Topper østre" />
		<tag k="name" v="Østre Topper" />
		<tag k="place" v="farm" />
		<tag k="ssr:stedsnr" v="368170" />
	</node>
	<node id="-21282" lat="59.6004583329" lon="10.7334611083">
		<tag k="name" v="Revhaug" />
		<tag k="place" v="farm" />
		<tag k="ssr:stedsnr" v="368167" />
	</node>
	<node id="-21281" lat="59.5885333332" lon="10.8332333324">
		<tag k="alt_name" v="Hestvet;Hestvet vestre" />
		<tag k="name" v="Vestre Hestvet" />
		<tag k="place" v="farm" />
		<tag k="ssr:stedsnr" v="368027" />
	</node>
	<node id="-21280" lat="59.5333916646" lon="10.75209166">
		<tag k="alt_name" v="Vines, søndre;Vines søndre" />
		<tag k="name" v="Søndre Vines" />
		<tag k="place" v="farm" />
		<tag k="ssr:stedsnr" v="368025" />
	</node>
	<node id="-21279" lat="59.5398361075" lon="10.7391888849">
		<tag k="name" v="Hølen" />
		<tag k="place" v="village" />
		<tag k="ssr:stedsnr" v="368022" />
	</node>
	<node id="-21278" lat="59.5307861107" lon="10.7721861064">
		<tag k="alt_name" v="Fagerholt søndre" />
		<tag k="name" v="Søndre Fagerholt" />
		<tag k="old_name" v="Fagerli, søndre" />
		<tag k="place" v="farm" />
		<tag k="ssr:stedsnr" v="368003" />
	</node>
	<node id="-21277" lat="59.5839388866" lon="10.703377769">
		<tag k="name" v="Berg" />
		<tag k="place" v="farm" />
		<tag k="ssr:stedsnr" v="367719" />
	</node>
	<node id="-21276" lat="59.5619138924" lon="10.6663722275">
		<tag k="name" v="Tørfest" />
		<tag k="place" v="farm" />
		<tag k="ssr:stedsnr" v="367696" />
	</node>
	<node id="-21275" lat="59.5570059086" lon="10.6938113512">
		<tag k="fixme" v="consider place=hamlet" />
		<tag k="name" v="Erikstad" />
		<tag k="place" v="farm" />
		<tag k="ssr:stedsnr" v="367677" />
	</node>
	<node id="-21274" lat="59.5585277763" lon="10.682538891">
		<tag k="alt_name" v="Karterød" />
		<tag k="name" v="Karterud" />
		<tag k="place" v="farm" />
		<tag k="ssr:stedsnr" v="367670" />
	</node>
	<node id="-21273" lat="59.5985194443" lon="10.6715666642">
		<tag k="name" v="Sekkebekk" />
		<tag k="place" v="farm" />
		<tag k="ssr:stedsnr" v="367604" />
	</node>
	<node id="-21272" lat="59.5455472212" lon="10.6545250055">
		<tag k="name" v="Holvik" />
		<tag k="place" v="isolated_dwelling" />
		<tag k="ssr:stedsnr" v="367487" />
	</node>
	<node id="-21270" lat="59.5100569494" lon="10.6958341225">
		<tag k="name" v="Brevikmyra" />
		<tag k="place" v="farm" />
		<tag k="ssr:stedsnr" v="367463" />
	</node>
	<node id="-21268" lat="59.5531333333" lon="10.7435222214">
		<tag k="name" v="Elvestad" />
		<tag k="place" v="farm" />
		<tag k="ssr:stedsnr" v="367190" />
	</node>
	<node id="-21267" lat="59.5156277809" lon="10.7209750061">
		<tag k="alt_name" v="Grimsrud" />
		<tag k="fixme" v="consider place=hamlet" />
		<tag k="name" v="Grimsrød" />
		<tag k="place" v="farm" />
		<tag k="ssr:stedsnr" v="367025" />
	</node>
	<node id="-21266" lat="59.587447218" lon="10.6932111034">
		<tag k="alt_name" v="Rønjul nedre" />
		<tag k="name" v="Nedre Rønjul" />
		<tag k="place" v="farm" />
		<tag k="ssr:stedsnr" v="361716" />
	</node>
	<node id="-21265" lat="59.5553861074" lon="10.6941861064">
		<tag k="name" v="Søndre Erikstad" />
		<tag k="place" v="farm" />
		<tag k="ssr:stedsnr" v="361561" />
	</node>
	<node id="-21264" lat="59.5542638863" lon="10.6633222308">
		<tag k="name" v="Furubråten" />
		<tag k="place" v="locality" />
		<tag k="ssr:stedsnr" v="361556" />
	</node>
	<node id="-21263" lat="59.6226333362" lon="10.6731388934">
		<tag k="alt_name" v="Langebakk" />
		<tag k="name" v="Langbakke" />
		<tag k="place" v="locality" />
		<tag k="ssr:stedsnr" v="361175" />
	</node>
	<node id="-21261" lat="59.6050722201" lon="10.7129194466">
		<tag k="name" v="Skogmo" />
		<tag k="place" v="isolated_dwelling" />
		<tag k="ssr:stedsnr" v="360099" />
	</node>
	<node id="-21260" lat="59.5785888857" lon="10.745994441">
		<tag k="name" v="Vestby næringspark øst" />
		<tag k="place" v="quarter" />
		<tag k="ssr:stedsnr" v="359956" />
	</node>
	<node id="-21259" lat="59.5303749985" lon="10.7009916591">
		<tag k="alt_name" v="Labo nordre;Nordre Labo" />
		<tag k="fixme" v="consider place=hamlet" />
		<tag k="name" v="Nordre Labu" />
		<tag k="place" v="farm" />
		<tag k="ssr:stedsnr" v="359401" />
	</node>
	<node id="-21257" lat="59.6003333316" lon="10.7476944433">
		<tag k="name" v="Nordby" />
		<tag k="place" v="farm" />
		<tag k="ssr:stedsnr" v="326802" />
	</node>
	<node id="-21256" lat="59.6090138858" lon="10.7791499994">
		<tag k="name" v="Juskerud" />
		<tag k="place" v="farm" />
		<tag k="ssr:stedsnr" v="326780" />
	</node>
	<node id="-21255" lat="59.5874361111" lon="10.8460972195">
		<tag k="name" v="Hallehytta" />
		<tag k="place" v="farm" />
		<tag k="ssr:stedsnr" v="326769" />
	</node>
	<node id="-21254" lat="59.5587555536" lon="10.776258331">
		<tag k="name" v="Bakketun" />
		<tag k="place" v="farm" />
		<tag k="ssr:stedsnr" v="326191" />
	</node>
	<node id="-21253" lat="59.5543805513" lon="10.7405277795">
		<tag k="name" v="Bruerløkka" />
		<tag k="place" v="farm" />
		<tag k="ssr:stedsnr" v="326185" />
	</node>
	<node id="-21251" lat="59.5775277747" lon="10.8113722253">
		<tag k="name" v="Solli" />
		<tag k="place" v="farm" />
		<tag k="ssr:stedsnr" v="326161" />
	</node>
	<node id="-21250" lat="59.5786027778" lon="10.8045916705">
		<tag k="alt_name" v="Garder søndre" />
		<tag k="name" v="Søndre Garder" />
		<tag k="place" v="farm" />
		<tag k="ssr:stedsnr" v="326153" />
	</node>
	<node id="-21249" lat="59.5868527758" lon="10.815325001">
		<tag k="alt_name" v="Kjærstad østre" />
		<tag k="name" v="Østre Kjærstad" />
		<tag k="place" v="farm" />
		<tag k="ssr:stedsnr" v="326149" />
	</node>
	<node id="-21248" lat="59.5296249962" lon="10.7455861166">
		<tag k="alt_name" v="Skøyen nordre" />
		<tag k="name" v="Nordre Skøyen" />
		<tag k="place" v="farm" />
		<tag k="ssr:stedsnr" v="326143" />
	</node>
	<node id="-21247" lat="59.5289472186" lon="10.7459388808">
		<tag k="alt_name" v="Skøyen søndre;Skøyen" />
		<tag k="name" v="Søndre Skøyen" />
		<tag k="place" v="farm" />
		<tag k="ssr:stedsnr" v="326142" />
	</node>
	<node id="-21243" lat="59.5265666649" lon="10.7248694486">
		<tag k="name" v="Mortenshytta" />
		<tag k="place" v="isolated_dwelling" />
		<tag k="ssr:stedsnr" v="326111" />
	</node>
	<node id="-21238" lat="59.5765250013" lon="10.8335500046">
		<tag k="alt_name" v="Tom, nordre;Tom nordre;Tom;Tom lille;Lille Tom" />
		<tag k="name" v="Nordre Tom" />
		<tag k="place" v="farm" />
		<tag k="ssr:stedsnr" v="307244" />
	</node>
	<node id="-21237" lat="59.5676503609" lon="10.7726508555">
		<tag k="alt_name" v="Rogsti, søndre" />
		<tag k="name" v="Søndre Rogsti" />
		<tag k="place" v="farm" />
		<tag k="ssr:stedsnr" v="307225" />
	</node>
	<node id="-21236" lat="59.5882166632" lon="10.7259416709">
		<tag k="name" v="Lybekk" />
		<tag k="place" v="farm" />
		<tag k="ssr:stedsnr" v="307194" />
	</node>
	<node id="-21235" lat="59.5819749956" lon="10.7896972222">
		<tag k="name" v="Rustad" />
		<tag k="place" v="farm" />
		<tag k="ssr:stedsnr" v="307181" />
	</node>
	<node id="-21234" lat="59.60337254" lon="10.744833654">
		<tag k="alt_name" v="Søndre Randem;Randum, søndre" />
		<tag k="name" v="Søndre Randum" />
		<tag k="place" v="farm" />
		<tag k="ssr:stedsnr" v="307153" />
	</node>
	<node id="-21233" lat="59.5916916702" lon="10.7809999965">
		<tag k="name" v="Engene" />
		<tag k="place" v="farm" />
		<tag k="ssr:stedsnr" v="307141" />
	</node>
	<node id="-21232" lat="59.5871000039" lon="10.7922499979">
		<tag k="name" v="Tuftebråten" />
		<tag k="place" v="farm" />
		<tag k="ssr:stedsnr" v="307140" />
	</node>
	<node id="-21231" lat="59.5957722197" lon="10.7409499997">
		<tag k="name" v="Deli" />
		<tag k="place" v="farm" />
		<tag k="ssr:stedsnr" v="307138" />
	</node>
	<node id="-21230" lat="59.5010361068" lon="10.7690472235">
		<tag k="alt_name" v="Stubberud" />
		<tag k="name" v="Stubberød" />
		<tag k="place" v="farm" />
		<tag k="ssr:stedsnr" v="307083" />
	</node>
	<node id="-21229" lat="59.5419083302" lon="10.722280548">
		<tag k="name" v="Gjølstad" />
		<tag k="place" v="farm" />
		<tag k="ssr:stedsnr" v="307041" />
	</node>
	<node id="-21228" lat="59.5210777774" lon="10.7446305545">
		<tag k="alt_name" v="Ek;Ek søndre" />
		<tag k="name" v="Søndre Ek" />
		<tag k="place" v="farm" />
		<tag k="ssr:stedsnr" v="307039" />
	</node>
	<node id="-21227" lat="59.5889333301" lon="10.7080416663">
		<tag k="name" v="Trollerud" />
		<tag k="place" v="farm" />
		<tag k="ssr:stedsnr" v="306725" />
	</node>
	<node id="-21226" lat="59.6159972253" lon="10.6934611034">
		<tag k="name" v="Grønberg" />
		<tag k="place" v="farm" />
		<tag k="ssr:stedsnr" v="306611" />
	</node>
	<node id="-21225" lat="59.6192444455" lon="10.7114361108">
		<tag k="alt_name" v="Skau" />
		<tag k="fixme" v="consider place=hamlet" />
		<tag k="name" v="Skog" />
		<tag k="place" v="farm" />
		<tag k="ssr:stedsnr" v="306610" />
	</node>
	<node id="-21224" lat="59.5197333348" lon="10.7130944455">
		<tag k="name" v="Liabråten" />
		<tag k="place" v="farm" />
		<tag k="ssr:stedsnr" v="306487" />
	</node>
	<node id="-21223" lat="59.5013553475" lon="10.6883787266">
		<tag k="fixme" v="multiple name tags, choose one and add the other to alt_name; consider place=hamlet" />
		<tag k="name" v="Store Brevik;Søndre Brevik" />
		<tag k="place" v="farm" />
		<tag k="ssr:stedsnr" v="306477" />
	</node>
	<node id="-21221" lat="59.6261916626" lon="10.7629833342">
		<tag k="name" v="Øynes" />
		<tag k="place" v="farm" />
		<tag k="ssr:stedsnr" v="306314" />
	</node>
	<node id="-21220" lat="59.6313750012" lon="10.7543333336">
		<tag k="name" v="Nes" />
		<tag k="place" v="farm" />
		<tag k="ssr:stedsnr" v="306307" />
	</node>
	<node id="-21219" lat="59.5816666664" lon="10.6783277718">
		<tag k="name" v="Nyheim" />
		<tag k="place" v="farm" />
		<tag k="ssr:stedsnr" v="301702" />
	</node>
	<node id="-21218" lat="59.5911750039" lon="10.7130972313">
		<tag k="name" v="Mora" />
		<tag k="place" v="quarter" />
		<tag k="ssr:stedsnr" v="301698" />
	</node>
	<node id="-21215" lat="59.5698222193" lon="10.6569555517">
		<tag k="name" v="Langbråten" />
		<tag k="place" v="farm" />
		<tag k="ssr:stedsnr" v="56225" />
	</node>
	<node id="-21214" lat="59.4960944453" lon="10.6923611153">
		<tag k="name" v="Lundeåsen" />
		<tag k="place" v="quarter" />
		<tag k="ssr:stedsnr" v="299465" />
	</node>
	<node id="-21213" lat="59.5748932416" lon="10.8315407348">
		<tag k="fixme" v="consider place=hamlet" />
		<tag k="name" v="Tom" />
		<tag k="place" v="farm" />
		<tag k="ssr:stedsnr" v="299320" />
	</node>
	<node id="-21211" lat="59.5471223059" lon="10.6964249404">
		<tag k="name" v="Mørk" />
		<tag k="place" v="hamlet" />
		<tag k="ssr:stedsnr" v="299297" />
	</node>
	<node id="-21210" lat="59.6146888852" lon="10.6523416745">
		<tag k="name" v="Elven" />
		<tag k="place" v="farm" />
		<tag k="ssr:stedsnr" v="299255" />
	</node>
</osm>
