<?xml version="1.0" encoding="UTF-8"?>
<osm generator="osmapis" version="0.6">
	<node id="-186366" lat="59.7306777779" lon="9.8614694533">
		<tag k="name" v="Smellhaugen" />
		<tag k="natural" v="hill" />
		<tag k="place" v="locality" />
		<tag k="ssr:stedsnr" v="451330" />
	</node>
	<node id="-186365" lat="59.7443416629" lon="9.7707138809">
		<tag k="fixme" v="consider natural=peak for the most distinct mountains in the district" />
		<tag k="name" v="Øvre Seteråsen" />
		<tag k="natural" v="hill" />
		<tag k="place" v="locality" />
		<tag k="ssr:stedsnr" v="451229" />
	</node>
	<node id="-186364" lat="59.7322361099" lon="9.78131667205">
		<tag k="name" v="Skarratangen" />
		<tag k="place" v="locality" />
		<tag k="ssr:stedsnr" v="451145" />
	</node>
	<node id="-186282" lat="59.71594722" lon="9.68680277152">
		<tag k="fixme" v="consider natural=peak for the most distinct mountains in the district" />
		<tag k="name" v="Lauvliåsen" />
		<tag k="natural" v="hill" />
		<tag k="place" v="locality" />
		<tag k="ssr:stedsnr" v="266969" />
	</node>
	<node id="-185850" lat="59.7956138873" lon="9.73119167161">
		<tag k="fixme" v="consider natural=peak for the most distinct mountains in the district" />
		<tag k="name" v="Fjellbuåsen" />
		<tag k="natural" v="hill" />
		<tag k="place" v="locality" />
		<tag k="ssr:stedsnr" v="4495" />
	</node>
	<node id="-186868" lat="59.6769305595" lon="9.84544166314">
		<tag k="fixme" v="consider natural=peak for the most distinct mountains in the district" />
		<tag k="name" v="Bakstevalåsen" />
		<tag k="natural" v="hill" />
		<tag k="place" v="locality" />
		<tag k="ssr:stedsnr" v="792562" />
	</node>
	<node id="-185853" lat="59.7874249996" lon="9.73570555702">
		<tag k="fixme" v="multiple name tags, choose one and add the other to alt_name; consider natural=peak for the most distinct mountains in the district" />
		<tag k="name" v="Djupkollåsen;Moltedokkåsen" />
		<tag k="natural" v="hill" />
		<tag k="place" v="locality" />
		<tag k="ssr:stedsnr" v="4513" />
	</node>
	<node id="-186860" lat="59.6577833304" lon="9.98919722064">
		<tag k="name" v="Kjelleråsen" />
		<tag k="natural" v="hill" />
		<tag k="place" v="locality" />
		<tag k="ssr:stedsnr" v="792142" />
	</node>
	<node id="-185835" lat="59.6732500009" lon="9.72696389389">
		<tag k="fixme" v="consider natural=peak for the most distinct mountains in the district" />
		<tag k="name" v="Damåsen" />
		<tag k="natural" v="hill" />
		<tag k="place" v="locality" />
		<tag k="ssr:stedsnr" v="3536" />
	</node>
	<node id="-186345" lat="59.7933694476" lon="9.95416389247">
		<tag k="name" v="Korskleiv" />
		<tag k="natural" v="slope" />
		<tag k="place" v="locality" />
		<tag k="ssr:stedsnr" v="450618" />
	</node>
	<node id="-186344" lat="59.8004611101" lon="9.95560555739">
		<tag k="name" v="Halvtattåsen" />
		<tag k="natural" v="slope" />
		<tag k="place" v="locality" />
		<tag k="ssr:stedsnr" v="450509" />
	</node>
	<node id="-186340" lat="59.6168583338" lon="9.91291388394">
		<tag k="name" v="Elgleet" />
		<tag k="natural" v="valley" />
		<tag k="place" v="locality" />
		<tag k="ssr:stedsnr" v="449858" />
	</node>
	<node id="-185827" lat="59.6672444454" lon="9.80389999229">
		<tag k="name" v="Klippa" />
		<tag k="natural" v="hill" />
		<tag k="place" v="locality" />
		<tag k="ssr:stedsnr" v="267442" />
	</node>
	<node id="-186333" lat="59.8287777783" lon="9.72730555554">
		<tag k="fixme" v="consider natural=peak for the most distinct mountains in the district" />
		<tag k="name" v="Holtefjell" />
		<tag k="natural" v="hill" />
		<tag k="place" v="locality" />
		<tag k="ssr:stedsnr" v="429713" />
	</node>
	<node id="-187039" lat="59.6767194445" lon="9.82540278002">
		<tag k="name" v="Bollerudmoen" />
		<tag k="place" v="locality" />
		<tag k="ssr:stedsnr" v="877594" />
	</node>
	<node id="-186843" lat="59.7017083308" lon="9.91647777108">
		<tag k="name" v="Trollåsen" />
		<tag k="natural" v="hill" />
		<tag k="place" v="locality" />
		<tag k="ssr:stedsnr" v="756715" />
	</node>
	<node id="-185832" lat="59.7607027736" lon="9.80811389507">
		<tag k="alt_name" v="Gruveåsen" />
		<tag k="fixme" v="consider natural=peak for the most distinct mountains in the district" />
		<tag k="name" v="Gruvåsen" />
		<tag k="natural" v="hill" />
		<tag k="place" v="locality" />
		<tag k="ssr:stedsnr" v="3520" />
	</node>
	<node id="-186840" lat="59.8341055561" lon="9.77138055784">
		<tag k="name" v="Matdalen" />
		<tag k="natural" v="valley" />
		<tag k="place" v="locality" />
		<tag k="ssr:stedsnr" v="756638" />
	</node>
	<node id="-186327" lat="59.7797055581" lon="9.76691111346">
		<tag k="alt_name" v="Lortholseteråsen" />
		<tag k="fixme" v="consider natural=peak for the most distinct mountains in the district" />
		<tag k="name" v="Lortseteråsen" />
		<tag k="natural" v="hill" />
		<tag k="place" v="locality" />
		<tag k="ssr:stedsnr" v="429588" />
	</node>
	<node id="-186838" lat="59.7029027817" lon="9.95396388255">
		<tag k="name" v="Helvetesnuten" />
		<tag k="natural" v="hill" />
		<tag k="place" v="locality" />
		<tag k="ssr:stedsnr" v="756509" />
	</node>
	<node id="-186324" lat="59.7550555596" lon="9.77023055331">
		<tag k="fixme" v="consider natural=peak for the most distinct mountains in the district" />
		<tag k="name" v="Kolbergåsen" />
		<tag k="natural" v="hill" />
		<tag k="place" v="locality" />
		<tag k="ssr:stedsnr" v="429561" />
	</node>
	<node id="-185811" lat="59.6937333291" lon="9.90820000811">
		<tag k="name" v="Hamrefjellet" />
		<tag k="natural" v="ridge" />
		<tag k="place" v="locality" />
		<tag k="ssr:stedsnr" v="391726" />
	</node>
	<node id="-185810" lat="59.8243083328" lon="9.71913888076">
		<tag k="fixme" v="consider natural=peak for the most distinct mountains in the district" />
		<tag k="name" v="Mellomfjellet" />
		<tag k="natural" v="hill" />
		<tag k="place" v="locality" />
		<tag k="ssr:stedsnr" v="391606" />
	</node>
	<node id="-186831" lat="59.6825111087" lon="9.92118055507">
		<tag k="name" v="Tyttebæråsen" />
		<tag k="natural" v="hill" />
		<tag k="place" v="locality" />
		<tag k="ssr:stedsnr" v="755688" />
	</node>
	<node id="-186826" lat="59.696877781" lon="9.93373334164">
		<tag k="name" v="Djupedal" />
		<tag k="natural" v="valley" />
		<tag k="place" v="locality" />
		<tag k="ssr:stedsnr" v="755181" />
	</node>
	<node id="-186313" lat="59.7084750006" lon="9.8813388821">
		<tag k="fixme" v="consider natural=peak for the most distinct mountains in the district" />
		<tag k="name" v="Brekkeåsen" />
		<tag k="natural" v="hill" />
		<tag k="place" v="locality" />
		<tag k="ssr:stedsnr" v="428588" />
	</node>
	<node id="-185676" lat="59.6632916669" lon="9.7807138924">
		<tag k="name" v="Stemningshaugen" />
		<tag k="natural" v="hill" />
		<tag k="place" v="locality" />
		<tag k="ssr:stedsnr" v="327480" />
	</node>
	<node id="-185712" lat="59.6573999972" lon="9.85027500664">
		<tag k="name" v="Hvilestedåsen" />
		<tag k="natural" v="hill" />
		<tag k="place" v="locality" />
		<tag k="ssr:stedsnr" v="331993" />
	</node>
	<node id="-186820" lat="59.7955861125" lon="9.80301110481">
		<tag k="name" v="Mileåsen" />
		<tag k="natural" v="hill" />
		<tag k="place" v="locality" />
		<tag k="ssr:stedsnr" v="754848" />
	</node>
	<node id="-186818" lat="59.8395833301" lon="9.72816944341">
		<tag k="name" v="Øllestokken" />
		<tag k="natural" v="valley" />
		<tag k="place" v="locality" />
		<tag k="ssr:stedsnr" v="754747" />
	</node>
	<node id="-186443" lat="59.8179944413" lon="9.98106388932">
		<tag k="name" v="Kjellerdalen" />
		<tag k="natural" v="valley" />
		<tag k="place" v="locality" />
		<tag k="ssr:stedsnr" v="511489" />
	</node>
	<node id="-186816" lat="59.838077779" lon="9.87328889622">
		<tag k="name" v="Bakkebakken" />
		<tag k="natural" v="slope" />
		<tag k="place" v="locality" />
		<tag k="ssr:stedsnr" v="754682" />
	</node>
	<node id="-186815" lat="59.8700972253" lon="9.98053055676">
		<tag k="fixme" v="consider natural=peak for the most distinct mountains in the district" />
		<tag k="name" v="Vollmyråsen" />
		<tag k="natural" v="hill" />
		<tag k="place" v="locality" />
		<tag k="ssr:stedsnr" v="754680" />
	</node>
	<node id="-186299" lat="59.8130111105" lon="9.74289999962">
		<tag k="fixme" v="consider natural=peak for the most distinct mountains in the district" />
		<tag k="name" v="Hølbekkfjellet" />
		<tag k="natural" v="hill" />
		<tag k="place" v="locality" />
		<tag k="ssr:stedsnr" v="428500" />
	</node>
	<node id="-186297" lat="59.8206805514" lon="9.85251944408">
		<tag k="fixme" v="consider natural=peak for the most distinct mountains in the district" />
		<tag k="name" v="Vindskallåsen" />
		<tag k="natural" v="hill" />
		<tag k="place" v="locality" />
		<tag k="ssr:stedsnr" v="428491" />
	</node>
	<node id="-185784" lat="59.7182861115" lon="9.69718889655">
		<tag k="name" v="Lurdalen" />
		<tag k="natural" v="valley" />
		<tag k="place" v="locality" />
		<tag k="ssr:stedsnr" v="390020" />
	</node>
	<node id="-186356" lat="59.7711638903" lon="9.82156943952">
		<tag k="name" v="Haugsetbakken" />
		<tag k="natural" v="slope" />
		<tag k="place" v="locality" />
		<tag k="ssr:stedsnr" v="450950" />
	</node>
	<node id="-185782" lat="59.8412972243" lon="9.72444444822">
		<tag k="name" v="Tiuråsen" />
		<tag k="natural" v="hill" />
		<tag k="place" v="locality" />
		<tag k="ssr:stedsnr" v="389728" />
	</node>
	<node id="-185781" lat="59.8624638847" lon="9.95303610257">
		<tag k="name" v="Fjerdingstadkollen" />
		<tag k="natural" v="hill" />
		<tag k="place" v="locality" />
		<tag k="ssr:stedsnr" v="389673" />
	</node>
	<node id="-186292" lat="59.8504888869" lon="9.71478334208">
		<tag k="fixme" v="consider natural=peak for the most distinct mountains in the district" />
		<tag k="name" v="Vestre Svartåsen" />
		<tag k="natural" v="hill" />
		<tag k="place" v="locality" />
		<tag k="ssr:stedsnr" v="268358" />
	</node>
	<node id="-185869" lat="59.8464777742" lon="9.73569723065">
		<tag k="fixme" v="consider natural=peak for the most distinct mountains in the district" />
		<tag k="name" v="Ramla" />
		<tag k="natural" v="hill" />
		<tag k="place" v="locality" />
		<tag k="ssr:stedsnr" v="4766" />
	</node>
	<node id="-186711" lat="59.6546694449" lon="9.88154722066">
		<tag k="name" v="Maurdalen" />
		<tag k="natural" v="valley" />
		<tag k="place" v="locality" />
		<tag k="ssr:stedsnr" v="692892" />
	</node>
	<node id="-185691" lat="59.8520138901" lon="9.94210833086">
		<tag k="name" v="Gruvebrenna" />
		<tag k="natural" v="valley" />
		<tag k="place" v="locality" />
		<tag k="ssr:stedsnr" v="329635" />
	</node>
	<node id="-186798" lat="59.8113527818" lon="9.81118332456">
		<tag k="name" v="Jerpelia" />
		<tag k="natural" v="slope" />
		<tag k="place" v="locality" />
		<tag k="ssr:stedsnr" v="753623" />
	</node>
	<node id="-186797" lat="59.8159166711" lon="9.80654999641">
		<tag k="name" v="Spitfjellet" />
		<tag k="natural" v="ridge" />
		<tag k="place" v="locality" />
		<tag k="ssr:stedsnr" v="753621" />
	</node>
	<node id="-186796" lat="59.8104138851" lon="9.91323055172">
		<tag k="fixme" v="consider natural=peak for the most distinct mountains in the district" />
		<tag k="name" v="Kolbrekåsen" />
		<tag k="natural" v="hill" />
		<tag k="place" v="locality" />
		<tag k="ssr:stedsnr" v="753579" />
	</node>
	<node id="-186795" lat="59.7116777768" lon="9.75627223027">
		<tag k="fixme" v="consider natural=peak for the most distinct mountains in the district" />
		<tag k="name" v="Sacherhusåsen" />
		<tag k="natural" v="hill" />
		<tag k="place" v="locality" />
		<tag k="ssr:stedsnr" v="753568" />
	</node>
	<node id="-186794" lat="59.7917722179" lon="9.94969444954">
		<tag k="name" v="Fuglebakk" />
		<tag k="natural" v="slope" />
		<tag k="place" v="locality" />
		<tag k="ssr:stedsnr" v="753559" />
	</node>
	<node id="-185769" lat="59.6532583333" lon="9.78869166799">
		<tag k="name" v="Vassdalshallane" />
		<tag k="natural" v="slope" />
		<tag k="place" v="locality" />
		<tag k="ssr:stedsnr" v="388479" />
	</node>
	<node id="-186792" lat="59.8738249983" lon="9.74917777043">
		<tag k="name" v="Klogohallene" />
		<tag k="natural" v="slope" />
		<tag k="place" v="locality" />
		<tag k="ssr:stedsnr" v="753408" />
	</node>
	<node id="-186279" lat="59.8520749982" lon="9.73718055513">
		<tag k="name" v="Gunhildgården" />
		<tag k="natural" v="valley" />
		<tag k="place" v="locality" />
		<tag k="ssr:stedsnr" v="247727" />
	</node>
	<node id="-186789" lat="59.6228222202" lon="9.91753611715">
		<tag k="fixme" v="consider natural=peak for the most distinct mountains in the district" />
		<tag k="name" v="Trollhettåsen" />
		<tag k="natural" v="hill" />
		<tag k="place" v="locality" />
		<tag k="ssr:stedsnr" v="752879" />
	</node>
	<node id="-186276" lat="59.8337555571" lon="9.92955833292">
		<tag k="name" v="Skottberget" />
		<tag k="natural" v="hill" />
		<tag k="place" v="locality" />
		<tag k="ssr:stedsnr" v="247670" />
	</node>
	<node id="-186275" lat="59.8779999964" lon="9.76195554923">
		<tag k="fixme" v="consider natural=peak for the most distinct mountains in the district" />
		<tag k="name" v="Skurvåsen" />
		<tag k="natural" v="hill" />
		<tag k="place" v="locality" />
		<tag k="ssr:stedsnr" v="247655" />
	</node>
	<node id="-185762" lat="59.8448805584" lon="9.92636388962">
		<tag k="name" v="Brennkollen" />
		<tag k="natural" v="hill" />
		<tag k="place" v="locality" />
		<tag k="ssr:stedsnr" v="368770" />
	</node>
	<node id="-186011" lat="59.8581083305" lon="9.80565834125">
		<tag k="name" v="Bjørnehullet" />
		<tag k="natural" v="valley" />
		<tag k="place" v="locality" />
		<tag k="ssr:stedsnr" v="87967" />
	</node>
	<node id="-186784" lat="59.8446833311" lon="9.7698861126">
		<tag k="fixme" v="multiple name tags, choose one and add the other to alt_name; consider natural=peak for the most distinct mountains in the district" />
		<tag k="name" v="Stabbetjernåsen;Sæteråsen" />
		<tag k="natural" v="hill" />
		<tag k="place" v="locality" />
		<tag k="ssr:stedsnr" v="733460" />
	</node>
	<node id="-186096" lat="59.8912611144" lon="9.75579722031">
		<tag k="name" v="Kinnesmoen" />
		<tag k="place" v="locality" />
		<tag k="ssr:stedsnr" v="146439" />
	</node>
	<node id="-186782" lat="59.844405556" lon="9.75348055125">
		<tag k="name" v="Grågalten" />
		<tag k="natural" v="hill" />
		<tag k="place" v="locality" />
		<tag k="ssr:stedsnr" v="732754" />
	</node>
	<node id="-185773" lat="59.6428722235" lon="9.89996388549">
		<tag k="name" v="Høymyrfjell" />
		<tag k="natural" v="valley" />
		<tag k="place" v="locality" />
		<tag k="ssr:stedsnr" v="388888" />
	</node>
	<node id="-186779" lat="59.8272611126" lon="9.82198055147">
		<tag k="fixme" v="consider natural=peak for the most distinct mountains in the district" />
		<tag k="name" v="Grååsen" />
		<tag k="natural" v="hill" />
		<tag k="place" v="locality" />
		<tag k="ssr:stedsnr" v="732730" />
	</node>
	<node id="-186266" lat="59.8618722221" lon="10.0123222187">
		<tag k="alt_name" v="Åsvannsbrenna" />
		<tag k="name" v="Åsvassbrenna" />
		<tag k="natural" v="hill" />
		<tag k="place" v="locality" />
		<tag k="ssr:stedsnr" v="247325" />
	</node>
	<node id="-186777" lat="59.8333166646" lon="9.75114445109">
		<tag k="fixme" v="consider natural=peak for the most distinct mountains in the district" />
		<tag k="name" v="Myrehogget" />
		<tag k="natural" v="hill" />
		<tag k="place" v="locality" />
		<tag k="ssr:stedsnr" v="732711" />
	</node>
	<node id="-186775" lat="59.8775388893" lon="9.80190555006">
		<tag k="fixme" v="consider natural=peak for the most distinct mountains in the district" />
		<tag k="name" v="Sørliåsen" />
		<tag k="natural" v="hill" />
		<tag k="place" v="locality" />
		<tag k="ssr:stedsnr" v="732693" />
	</node>
	<node id="-186262" lat="59.7328500026" lon="9.72388055953">
		<tag k="fixme" v="consider natural=peak for the most distinct mountains in the district" />
		<tag k="name" v="Karikollen" />
		<tag k="natural" v="hill" />
		<tag k="place" v="locality" />
		<tag k="ssr:stedsnr" v="246650" />
	</node>
	<node id="-186521" lat="59.8087805599" lon="9.77633055547">
		<tag k="fixme" v="consider natural=peak for the most distinct mountains in the district" />
		<tag k="name" v="Flisebergåsen" />
		<tag k="natural" v="hill" />
		<tag k="place" v="locality" />
		<tag k="ssr:stedsnr" v="550526" />
	</node>
	<node id="-186260" lat="59.7153611076" lon="9.78225555436">
		<tag k="fixme" v="consider natural=peak for the most distinct mountains in the district" />
		<tag k="name" v="Rudsåsen" />
		<tag k="natural" v="hill" />
		<tag k="place" v="locality" />
		<tag k="ssr:stedsnr" v="246616" />
	</node>
	<node id="-186906" lat="59.8219055555" lon="9.9311527759">
		<tag k="name" v="Tjernsenddalen" />
		<tag k="natural" v="valley" />
		<tag k="place" v="locality" />
		<tag k="ssr:stedsnr" v="814633" />
	</node>
	<node id="-186768" lat="59.8040027774" lon="9.81460277143">
		<tag k="fixme" v="consider natural=peak for the most distinct mountains in the district" />
		<tag k="name" v="Hønerudåsen" />
		<tag k="natural" v="hill" />
		<tag k="place" v="locality" />
		<tag k="ssr:stedsnr" v="732595" />
	</node>
	<node id="-186716" lat="59.8822471538" lon="9.74216510572">
		<tag k="name" v="Sagberget" />
		<tag k="natural" v="slope" />
		<tag k="place" v="locality" />
		<tag k="ssr:stedsnr" v="693403" />
	</node>
	<node id="-185922" lat="59.7037972228" lon="9.88429444114">
		<tag k="fixme" v="consider natural=peak for the most distinct mountains in the district" />
		<tag k="name" v="Sandsåsen" />
		<tag k="natural" v="hill" />
		<tag k="place" v="locality" />
		<tag k="ssr:stedsnr" v="28702" />
	</node>
	<node id="-186250" lat="59.8082083328" lon="9.73383888709">
		<tag k="alt_name" v="Honsnuten" />
		<tag k="fixme" v="consider natural=peak for the most distinct mountains in the district" />
		<tag k="name" v="Honseteråsen" />
		<tag k="natural" v="hill" />
		<tag k="place" v="locality" />
		<tag k="ssr:stedsnr" v="246519" />
	</node>
	<node id="-186761" lat="59.6162722204" lon="9.89788611791">
		<tag k="fixme" v="consider natural=peak for the most distinct mountains in the district" />
		<tag k="name" v="Fosseteråsen" />
		<tag k="natural" v="hill" />
		<tag k="place" v="locality" />
		<tag k="ssr:stedsnr" v="731479" />
	</node>
	<node id="-186760" lat="59.6673722199" lon="9.97848332928">
		<tag k="fixme" v="consider natural=peak for the most distinct mountains in the district" />
		<tag k="name" v="Grasåsen" />
		<tag k="natural" v="hill" />
		<tag k="place" v="locality" />
		<tag k="ssr:stedsnr" v="731176" />
	</node>
	<node id="-187142" lat="59.8028080142" lon="9.91367982331">
		<tag k="fixme" v="consider natural=peak for the most distinct mountains in the district" />
		<tag k="name" v="Skibrekkåsen" />
		<tag k="natural" v="hill" />
		<tag k="place" v="locality" />
		<tag k="ssr:stedsnr" v="979573" />
	</node>
	<node id="-186244" lat="59.6989444436" lon="9.9708722287">
		<tag k="fixme" v="consider natural=peak for the most distinct mountains in the district" />
		<tag k="name" v="Smøråsen" />
		<tag k="natural" v="hill" />
		<tag k="place" v="locality" />
		<tag k="ssr:stedsnr" v="246293" />
	</node>
	<node id="-186603" lat="59.8302555538" lon="9.93018888942">
		<tag k="fixme" v="multiple name tags, choose one and add the other to alt_name; consider natural=peak for the most distinct mountains in the district" />
		<tag k="name" v="Hovet;Skogsvannhovet" />
		<tag k="natural" v="hill" />
		<tag k="place" v="locality" />
		<tag k="ssr:stedsnr" v="610712" />
	</node>
	<node id="-186750" lat="59.6990333314" lon="9.88768055607">
		<tag k="name" v="Knerten" />
		<tag k="natural" v="hill" />
		<tag k="place" v="locality" />
		<tag k="ssr:stedsnr" v="696671" />
	</node>
	<node id="-186749" lat="59.637124998" lon="9.83730833922">
		<tag k="name" v="Nesfjellia" />
		<tag k="natural" v="slope" />
		<tag k="place" v="locality" />
		<tag k="ssr:stedsnr" v="695993" />
	</node>
	<node id="-186748" lat="59.6409388889" lon="9.83738611194">
		<tag k="name" v="Moltedalen" />
		<tag k="natural" v="valley" />
		<tag k="place" v="locality" />
		<tag k="ssr:stedsnr" v="695992" />
	</node>
	<node id="-185723" lat="59.6507361131" lon="9.86905555306">
		<tag k="alt_name" v="Gunnhildrudknatten" />
		<tag k="fixme" v="consider natural=peak for the most distinct mountains in the district" />
		<tag k="name" v="Gunhildrudknatten" />
		<tag k="natural" v="hill" />
		<tag k="old_name" v="Gundhildrudknatten" />
		<tag k="place" v="locality" />
		<tag k="ssr:stedsnr" v="367495" />
	</node>
	<node id="-186746" lat="59.6635916631" lon="9.85403610934">
		<tag k="name" v="Ospebakk" />
		<tag k="natural" v="slope" />
		<tag k="place" v="locality" />
		<tag k="ssr:stedsnr" v="695595" />
	</node>
	<node id="-186233" lat="59.6500194474" lon="9.84738055345">
		<tag k="name" v="Seterkippen" />
		<tag k="natural" v="hill" />
		<tag k="place" v="locality" />
		<tag k="ssr:stedsnr" v="210911" />
	</node>
	<node id="-186743" lat="59.7119833359" lon="9.93483332476">
		<tag k="name" v="Nepebråtan" />
		<tag k="natural" v="hill" />
		<tag k="place" v="locality" />
		<tag k="ssr:stedsnr" v="695485" />
	</node>
	<node id="-186742" lat="59.728225002" lon="9.70673056096">
		<tag k="name" v="Øytjernkollen" />
		<tag k="natural" v="hill" />
		<tag k="place" v="locality" />
		<tag k="ssr:stedsnr" v="694872" />
	</node>
	<node id="-186089" lat="59.6279361144" lon="9.91000556442">
		<tag k="name" v="Stevningskastet" />
		<tag k="natural" v="ridge" />
		<tag k="place" v="locality" />
		<tag k="ssr:stedsnr" v="145887" />
	</node>
	<node id="-186228" lat="59.8448472213" lon="9.78588055584">
		<tag k="name" v="Bråkedalen" />
		<tag k="natural" v="valley" />
		<tag k="place" v="locality" />
		<tag k="ssr:stedsnr" v="210624" />
	</node>
	<node id="-186226" lat="59.6703472196" lon="9.80993888893">
		<tag k="name" v="Hestås" />
		<tag k="natural" v="hill" />
		<tag k="place" v="locality" />
		<tag k="ssr:stedsnr" v="210569" />
	</node>
	<node id="-186737" lat="59.8557944425" lon="9.93036666784">
		<tag k="name" v="Bukkeberga" />
		<tag k="natural" v="cliff" />
		<tag k="ssr:stedsnr" v="694687" />
	</node>
	<node id="-186736" lat="59.8273333311" lon="9.8298944404">
		<tag k="name" v="Nesfjellet" />
		<tag k="natural" v="ridge" />
		<tag k="place" v="locality" />
		<tag k="ssr:stedsnr" v="694674" />
	</node>
	<node id="-186223" lat="59.6920916688" lon="9.94112500676">
		<tag k="name" v="Brennerpasset" />
		<tag k="natural" v="valley" />
		<tag k="place" v="locality" />
		<tag k="ssr:stedsnr" v="210196" />
	</node>
	<node id="-186734" lat="59.7284583326" lon="9.91460832867">
		<tag k="name" v="Kleivkastet" />
		<tag k="natural" v="slope" />
		<tag k="place" v="locality" />
		<tag k="ssr:stedsnr" v="694285" />
	</node>
	<node id="-185708" lat="59.680855554" lon="9.85859443737">
		<tag k="name" v="Raukleiv" />
		<tag k="natural" v="cliff" />
		<tag k="ssr:stedsnr" v="331505" />
	</node>
	<node id="-186219" lat="59.7477027752" lon="9.77350000487">
		<tag k="name" v="Geitberga" />
		<tag k="natural" v="ridge" />
		<tag k="place" v="locality" />
		<tag k="ssr:stedsnr" v="209207" />
	</node>
	<node id="-185706" lat="59.6862111152" lon="9.96050833614">
		<tag k="name" v="Svarttjernhaugen" />
		<tag k="natural" v="hill" />
		<tag k="place" v="locality" />
		<tag k="ssr:stedsnr" v="331187" />
	</node>
	<node id="-186727" lat="59.8486333307" lon="9.81640832513">
		<tag k="name" v="Gamlevolldalen" />
		<tag k="natural" v="valley" />
		<tag k="place" v="locality" />
		<tag k="ssr:stedsnr" v="693684" />
	</node>
	<node id="-186725" lat="59.8496333326" lon="9.99334999357">
		<tag k="fixme" v="consider natural=peak for the most distinct mountains in the district" />
		<tag k="name" v="Ormetjernsåsen" />
		<tag k="natural" v="hill" />
		<tag k="place" v="locality" />
		<tag k="ssr:stedsnr" v="693662" />
	</node>
	<node id="-185700" lat="59.841694446" lon="9.8827583369">
		<tag k="name" v="Tollevhaugen" />
		<tag k="natural" v="hill" />
		<tag k="place" v="locality" />
		<tag k="ssr:stedsnr" v="330646" />
	</node>
	<node id="-186211" lat="59.8072027777" lon="9.79308611417">
		<tag k="name" v="Brattbakk" />
		<tag k="natural" v="slope" />
		<tag k="place" v="locality" />
		<tag k="ssr:stedsnr" v="208784" />
	</node>
	<node id="-185698" lat="59.8428305511" lon="9.91378333909">
		<tag k="name" v="Knivebakken" />
		<tag k="natural" v="slope" />
		<tag k="place" v="locality" />
		<tag k="ssr:stedsnr" v="330613" />
	</node>
	<node id="-186720" lat="59.8255166652" lon="9.928999996">
		<tag k="name" v="Skogsvannshallen" />
		<tag k="natural" v="ridge" />
		<tag k="place" v="locality" />
		<tag k="ssr:stedsnr" v="693622" />
	</node>
	<node id="-185693" lat="59.8377749985" lon="9.73478611634">
		<tag k="name" v="Libergknerten" />
		<tag k="natural" v="hill" />
		<tag k="place" v="locality" />
		<tag k="ssr:stedsnr" v="329681" />
	</node>
	<node id="-185692" lat="59.787466663" lon="9.74284444632">
		<tag k="name" v="Kleivene" />
		<tag k="natural" v="slope" />
		<tag k="place" v="locality" />
		<tag k="ssr:stedsnr" v="329675" />
	</node>
	<node id="-186715" lat="59.7413527792" lon="9.92272499947">
		<tag k="fixme" v="consider natural=peak for the most distinct mountains in the district" />
		<tag k="name" v="Vinsvoldåsen" />
		<tag k="natural" v="hill" />
		<tag k="place" v="locality" />
		<tag k="ssr:stedsnr" v="693366" />
	</node>
	<node id="-186713" lat="59.7497305529" lon="9.87887222488">
		<tag k="name" v="Bergshaugen" />
		<tag k="natural" v="hill" />
		<tag k="place" v="locality" />
		<tag k="ssr:stedsnr" v="693076" />
	</node>
	<node id="-185688" lat="59.8102777773" lon="9.9814500059">
		<tag k="name" v="Torgervoll" />
		<tag k="natural" v="hill" />
		<tag k="place" v="locality" />
		<tag k="ssr:stedsnr" v="329490" />
	</node>
	<node id="-185828" lat="59.6869777797" lon="9.98000276949">
		<tag k="alt_name" v="Kroktjernåsen" />
		<tag k="fixme" v="consider natural=peak for the most distinct mountains in the district" />
		<tag k="name" v="Kroktjernhaugen" />
		<tag k="natural" v="hill" />
		<tag k="place" v="locality" />
		<tag k="ssr:stedsnr" v="3164" />
	</node>
	<node id="-186197" lat="59.8327666706" lon="9.82240278331">
		<tag k="name" v="Grååsen" />
		<tag k="natural" v="ridge" />
		<tag k="place" v="locality" />
		<tag k="ssr:stedsnr" v="207645" />
	</node>
	<node id="-185682" lat="59.7436222233" lon="9.81211944781">
		<tag k="name" v="Østermoen" />
		<tag k="natural" v="slope" />
		<tag k="place" v="locality" />
		<tag k="ssr:stedsnr" v="329075" />
	</node>
	<node id="-186373" lat="59.8593194453" lon="9.92866111061">
		<tag k="name" v="Raukleiv" />
		<tag k="natural" v="slope" />
		<tag k="place" v="locality" />
		<tag k="ssr:stedsnr" v="451685" />
	</node>
	<node id="-186191" lat="59.619863885" lon="9.88004165878">
		<tag k="name" v="Brånevannskollen" />
		<tag k="natural" v="hill" />
		<tag k="place" v="locality" />
		<tag k="ssr:stedsnr" v="206886" />
	</node>
	<node id="-186066" lat="59.8451805599" lon="9.83434166258">
		<tag k="fixme" v="consider natural=peak for the most distinct mountains in the district" />
		<tag k="name" v="Liåsen" />
		<tag k="natural" v="hill" />
		<tag k="place" v="locality" />
		<tag k="ssr:stedsnr" v="125752" />
	</node>
	<node id="-186188" lat="59.6677583326" lon="9.72547222111">
		<tag k="fixme" v="consider natural=peak for the most distinct mountains in the district" />
		<tag k="name" v="Basserudåsen" />
		<tag k="natural" v="hill" />
		<tag k="place" v="locality" />
		<tag k="ssr:stedsnr" v="206459" />
	</node>
	<node id="-185674" lat="59.6874750019" lon="9.68760832537">
		<tag k="fixme" v="consider natural=peak for the most distinct mountains in the district" />
		<tag k="name" v="Byggmesteråsen" />
		<tag k="natural" v="hill" />
		<tag k="place" v="locality" />
		<tag k="ssr:stedsnr" v="326873" />
	</node>
	<node id="-187045" lat="59.6489305556" lon="9.82850278204">
		<tag k="name" v="Råtevannslia" />
		<tag k="natural" v="slope" />
		<tag k="place" v="locality" />
		<tag k="ssr:stedsnr" v="878986" />
	</node>
	<node id="-185672" lat="59.6632222204" lon="9.9986730507">
		<tag k="loc_name" v="Trollbrua" />
		<tag k="name" v="Steinbru" />
		<tag k="place" v="locality" />
		<tag k="ssr:stedsnr" v="323977" />
	</node>
	<node id="-186183" lat="59.7654972242" lon="9.76539166103">
		<tag k="fixme" v="consider natural=peak for the most distinct mountains in the district" />
		<tag k="name" v="Høgåsen" />
		<tag k="natural" v="hill" />
		<tag k="place" v="locality" />
		<tag k="ssr:stedsnr" v="187473" />
	</node>
	<node id="-185749" lat="59.7993249966" lon="9.9636111028">
		<tag k="alt_name" v="Sæteråsen" />
		<tag k="fixme" v="consider natural=peak for the most distinct mountains in the district" />
		<tag k="name" v="Seteråsen" />
		<tag k="natural" v="hill" />
		<tag k="place" v="locality" />
		<tag k="ssr:stedsnr" v="368536" />
	</node>
	<node id="-186178" lat="59.8358916638" lon="9.83360554682">
		<tag k="fixme" v="consider natural=peak for the most distinct mountains in the district" />
		<tag k="name" v="Murfjellåsen" />
		<tag k="natural" v="hill" />
		<tag k="place" v="locality" />
		<tag k="ssr:stedsnr" v="186732" />
	</node>
	<node id="-185665" lat="59.8284472207" lon="9.96146945326">
		<tag k="fixme" v="consider natural=peak for the most distinct mountains in the district" />
		<tag k="name" v="Høgbrenna" />
		<tag k="natural" v="hill" />
		<tag k="place" v="locality" />
		<tag k="ssr:stedsnr" v="307717" />
	</node>
	<node id="-185664" lat="59.8331555581" lon="9.77294167312">
		<tag k="fixme" v="consider natural=peak for the most distinct mountains in the district" />
		<tag k="name" v="Harstadseteråsen" />
		<tag k="natural" v="hill" />
		<tag k="place" v="locality" />
		<tag k="ssr:stedsnr" v="307706" />
	</node>
	<node id="-185663" lat="59.8378111115" lon="9.75507777727">
		<tag k="fixme" v="consider natural=peak for the most distinct mountains in the district" />
		<tag k="name" v="Lina" />
		<tag k="natural" v="hill" />
		<tag k="place" v="locality" />
		<tag k="ssr:stedsnr" v="307704" />
	</node>
	<node id="-186168" lat="59.8125749983" lon="9.91992777641">
		<tag k="fixme" v="consider natural=peak for the most distinct mountains in the district" />
		<tag k="name" v="Kjøkkenåsen" />
		<tag k="natural" v="hill" />
		<tag k="place" v="locality" />
		<tag k="ssr:stedsnr" v="186583" />
	</node>
	<node id="-185654" lat="59.7950388931" lon="9.79475834116">
		<tag k="fixme" v="consider natural=peak for the most distinct mountains in the district" />
		<tag k="name" v="Kløveråsen" />
		<tag k="natural" v="hill" />
		<tag k="place" v="locality" />
		<tag k="ssr:stedsnr" v="307521" />
	</node>
	<node id="-185737" lat="59.7076583308" lon="9.94285833937">
		<tag k="name" v="Krambudalen" />
		<tag k="natural" v="valley" />
		<tag k="place" v="locality" />
		<tag k="ssr:stedsnr" v="367599" />
	</node>
	<node id="-185907" lat="59.7793249978" lon="9.8867972286">
		<tag k="fixme" v="consider natural=peak for the most distinct mountains in the district" />
		<tag k="name" v="Krillåsen" />
		<tag k="natural" v="hill" />
		<tag k="place" v="locality" />
		<tag k="ssr:stedsnr" v="26682" />
	</node>
	<node id="-185644" lat="59.6988138903" lon="9.93712500885">
		<tag k="alt_name" v="Sarabokkfjell" />
		<tag k="fixme" v="consider natural=peak for the most distinct mountains in the district" />
		<tag k="name" v="Sarabakkfjell" />
		<tag k="natural" v="hill" />
		<tag k="place" v="locality" />
		<tag k="ssr:stedsnr" v="306571" />
	</node>
	<node id="-185643" lat="59.6992416672" lon="9.96057499274">
		<tag k="alt_name" v="Fjelltuva" />
		<tag k="fixme" v="consider natural=peak for the most distinct mountains in the district" />
		<tag k="name" v="Fjellstua" />
		<tag k="natural" v="hill" />
		<tag k="place" v="locality" />
		<tag k="ssr:stedsnr" v="306572" />
	</node>
	<node id="-185641" lat="59.7064333303" lon="9.97932222692">
		<tag k="fixme" v="consider natural=peak for the most distinct mountains in the district" />
		<tag k="name" v="Kyrfjell" />
		<tag k="natural" v="hill" />
		<tag k="place" v="locality" />
		<tag k="ssr:stedsnr" v="306265" />
	</node>
	<node id="-185638" lat="59.6509750033" lon="9.85054722457">
		<tag k="name" v="Deledalen" />
		<tag k="natural" v="valley" />
		<tag k="place" v="locality" />
		<tag k="ssr:stedsnr" v="271920" />
	</node>
	<node id="-186146" lat="59.7742916668" lon="9.7350888813">
		<tag k="fixme" v="consider natural=peak for the most distinct mountains in the district" />
		<tag k="name" v="Svartskurdåsen" />
		<tag k="natural" v="hill" />
		<tag k="place" v="locality" />
		<tag k="ssr:stedsnr" v="185558" />
	</node>
	<node id="-186075" lat="59.8542722225" lon="9.87098333135">
		<tag k="fixme" v="consider natural=peak for the most distinct mountains in the district" />
		<tag k="name" v="Lobbenåsen" />
		<tag k="natural" v="hill" />
		<tag k="place" v="locality" />
		<tag k="ssr:stedsnr" v="125739" />
	</node>
	<node id="-185632" lat="59.6669666638" lon="9.83387776978">
		<tag k="fixme" v="consider natural=peak for the most distinct mountains in the district" />
		<tag k="name" v="Skallerudåsen" />
		<tag k="natural" v="hill" />
		<tag k="place" v="locality" />
		<tag k="ssr:stedsnr" v="270567" />
	</node>
	<node id="-185631" lat="59.7212416636" lon="9.94472777704">
		<tag k="name" v="Åletjernlia" />
		<tag k="natural" v="slope" />
		<tag k="place" v="locality" />
		<tag k="ssr:stedsnr" v="270477" />
	</node>
	<node id="-186654" lat="59.7054194432" lon="9.90961944745">
		<tag k="name" v="Rogndalen" />
		<tag k="natural" v="valley" />
		<tag k="place" v="locality" />
		<tag k="ssr:stedsnr" v="634723" />
	</node>
	<node id="-186141" lat="59.8546750036" lon="9.96112222291">
		<tag k="name" v="Kniveseterkleiva" />
		<tag k="natural" v="slope" />
		<tag k="place" v="locality" />
		<tag k="ssr:stedsnr" v="268653" />
	</node>
	<node id="-186652" lat="59.8472833367" lon="9.77154166981">
		<tag k="alt_name" v="Ristvedtseteråsen" />
		<tag k="fixme" v="consider natural=peak for the most distinct mountains in the district" />
		<tag k="name" v="Ristvetseteråsen" />
		<tag k="natural" v="hill" />
		<tag k="place" v="locality" />
		<tag k="ssr:stedsnr" v="634657" />
	</node>
	<node id="-186651" lat="59.8385500017" lon="9.76799166127">
		<tag k="fixme" v="consider natural=peak for the most distinct mountains in the district" />
		<tag k="name" v="Langtjernåsen" />
		<tag k="natural" v="hill" />
		<tag k="place" v="locality" />
		<tag k="ssr:stedsnr" v="634653" />
	</node>
	<node id="-185626" lat="59.6670777755" lon="9.96284167186">
		<tag k="fixme" v="consider natural=peak for the most distinct mountains in the district" />
		<tag k="name" v="Storkleivåsen" />
		<tag k="natural" v="hill" />
		<tag k="place" v="locality" />
		<tag k="ssr:stedsnr" v="270236" />
	</node>
	<node id="-185623" lat="59.6847027792" lon="9.93620278001">
		<tag k="name" v="Hyttefjell" />
		<tag k="natural" v="hill" />
		<tag k="place" v="locality" />
		<tag k="ssr:stedsnr" v="270192" />
	</node>
	<node id="-185621" lat="59.796097224" lon="9.81858334201">
		<tag k="name" v="Møllebakken" />
		<tag k="natural" v="slope" />
		<tag k="place" v="locality" />
		<tag k="ssr:stedsnr" v="269935" />
	</node>
	<node id="-186132" lat="59.840894444" lon="9.96241665884">
		<tag k="name" v="Kippen" />
		<tag k="natural" v="valley" />
		<tag k="place" v="locality" />
		<tag k="ssr:stedsnr" v="268601" />
	</node>
	<node id="-186130" lat="59.8195305529" lon="9.9657194355">
		<tag k="fixme" v="consider natural=peak for the most distinct mountains in the district" />
		<tag k="name" v="Geveltfjellet" />
		<tag k="natural" v="hill" />
		<tag k="place" v="locality" />
		<tag k="ssr:stedsnr" v="268584" />
	</node>
	<node id="-185987" lat="59.8155638847" lon="9.99619721816">
		<tag k="name" v="Yttervannslia" />
		<tag k="natural" v="slope" />
		<tag k="place" v="locality" />
		<tag k="ssr:stedsnr" v="86515" />
	</node>
	<node id="-185614" lat="59.8365472182" lon="9.87528889638">
		<tag k="name" v="Tandbergbakken" />
		<tag k="natural" v="slope" />
		<tag k="place" v="locality" />
		<tag k="ssr:stedsnr" v="269565" />
	</node>
	<node id="-186125" lat="59.8295833291" lon="9.78534721339">
		<tag k="name" v="Trangdalen" />
		<tag k="natural" v="valley" />
		<tag k="place" v="locality" />
		<tag k="ssr:stedsnr" v="149613" />
	</node>
	<node id="-186631" lat="59.8665361073" lon="9.98214444996">
		<tag k="fixme" v="consider natural=peak for the most distinct mountains in the district" />
		<tag k="name" v="Grasåsen" />
		<tag k="natural" v="hill" />
		<tag k="place" v="locality" />
		<tag k="ssr:stedsnr" v="632654" />
	</node>
	<node id="-186118" lat="59.6852916694" lon="9.93739444289">
		<tag k="name" v="Ospedalen" />
		<tag k="natural" v="valley" />
		<tag k="place" v="locality" />
		<tag k="ssr:stedsnr" v="148164" />
	</node>
	<node id="-186625" lat="59.8402361107" lon="9.92681388736">
		<tag k="fixme" v="consider natural=peak for the most distinct mountains in the district" />
		<tag k="name" v="Damåsen" />
		<tag k="natural" v="hill" />
		<tag k="place" v="locality" />
		<tag k="ssr:stedsnr" v="632586" />
	</node>
	<node id="-186112" lat="59.7957638896" lon="9.75163332887">
		<tag k="name" v="Askedalen" />
		<tag k="natural" v="slope" />
		<tag k="place" v="locality" />
		<tag k="ssr:stedsnr" v="147828" />
	</node>
	<node id="-187135" lat="59.8298194417" lon="9.80256666157">
		<tag k="name" v="Steinbakken" />
		<tag k="natural" v="slope" />
		<tag k="place" v="locality" />
		<tag k="ssr:stedsnr" v="938605" />
	</node>
	<node id="-187134" lat="59.6774361146" lon="9.83832222442">
		<tag k="name" v="Foterudkippen" />
		<tag k="natural" v="slope" />
		<tag k="place" v="locality" />
		<tag k="ssr:stedsnr" v="938552" />
	</node>
	<node id="-186621" lat="59.8847264739" lon="9.70095980523">
		<tag k="name" v="Lauvhuset" />
		<tag k="natural" v="ridge" />
		<tag k="place" v="locality" />
		<tag k="ssr:stedsnr" v="632411" />
	</node>
	<node id="-186108" lat="59.8637916675" lon="9.92896388597">
		<tag k="name" v="Laupet" />
		<tag k="place" v="locality" />
		<tag k="ssr:stedsnr" v="147649" />
	</node>
	<node id="-187130" lat="59.6716888933" lon="9.98946110723">
		<tag k="name" v="Bjelkedalen" />
		<tag k="natural" v="valley" />
		<tag k="place" v="locality" />
		<tag k="ssr:stedsnr" v="938243" />
	</node>
	<node id="-187129" lat="59.6852888855" lon="9.96411389495">
		<tag k="name" v="Lågtjernberget" />
		<tag k="natural" v="hill" />
		<tag k="place" v="locality" />
		<tag k="ssr:stedsnr" v="938162" />
	</node>
	<node id="-186615" lat="59.6603000017" lon="9.78918889755">
		<tag k="name" v="Seterbakken" />
		<tag k="natural" v="slope" />
		<tag k="place" v="locality" />
		<tag k="ssr:stedsnr" v="630466" />
	</node>
	<node id="-187126" lat="59.7885722256" lon="9.75136110902">
		<tag k="fixme" v="consider natural=peak for the most distinct mountains in the district" />
		<tag k="name" v="Gorudvollåsen" />
		<tag k="natural" v="hill" />
		<tag k="place" v="locality" />
		<tag k="ssr:stedsnr" v="937811" />
	</node>
	<node id="-186099" lat="59.8439472217" lon="9.82813055275">
		<tag k="name" v="Reiersåsen" />
		<tag k="natural" v="ridge" />
		<tag k="place" v="locality" />
		<tag k="ssr:stedsnr" v="146653" />
	</node>
	<node id="-186098" lat="59.7904749991" lon="9.96568334022">
		<tag k="name" v="Spirebakk" />
		<tag k="natural" v="slope" />
		<tag k="place" v="locality" />
		<tag k="ssr:stedsnr" v="146570" />
	</node>
	<node id="-186609" lat="59.7773694469" lon="9.72749999227">
		<tag k="fixme" v="consider natural=peak for the most distinct mountains in the district" />
		<tag k="name" v="Grasåsen" />
		<tag k="natural" v="hill" />
		<tag k="place" v="locality" />
		<tag k="ssr:stedsnr" v="611504" />
	</node>
	<node id="-187120" lat="59.7632999965" lon="9.73294722738">
		<tag k="fixme" v="consider natural=peak for the most distinct mountains in the district" />
		<tag k="name" v="Frågåttåsen" />
		<tag k="natural" v="hill" />
		<tag k="place" v="locality" />
		<tag k="ssr:stedsnr" v="937431" />
	</node>
	<node id="-187118" lat="59.7655888904" lon="9.77315278311">
		<tag k="name" v="Nyseterlia" />
		<tag k="natural" v="slope" />
		<tag k="place" v="locality" />
		<tag k="ssr:stedsnr" v="937116" />
	</node>
	<node id="-186093" lat="59.8832289441" lon="9.69907890378">
		<tag k="name" v="Gampedalen" />
		<tag k="natural" v="valley" />
		<tag k="place" v="locality" />
		<tag k="ssr:stedsnr" v="146354" />
	</node>
	<node id="-186092" lat="59.8844138961" lon="9.71957864715">
		<tag k="fixme" v="consider natural=peak for the most distinct mountains in the district" />
		<tag k="name" v="Kaståsen" />
		<tag k="natural" v="hill" />
		<tag k="place" v="locality" />
		<tag k="ssr:stedsnr" v="146346" />
	</node>
	<node id="-187115" lat="59.8538111112" lon="9.78944722309">
		<tag k="fixme" v="consider natural=peak for the most distinct mountains in the district" />
		<tag k="name" v="Kudalsåsen" />
		<tag k="natural" v="hill" />
		<tag k="place" v="locality" />
		<tag k="ssr:stedsnr" v="937037" />
	</node>
	<node id="-187113" lat="59.7261249958" lon="9.72201111281">
		<tag k="name" v="Stærtebakkhøgda" />
		<tag k="natural" v="hill" />
		<tag k="place" v="locality" />
		<tag k="ssr:stedsnr" v="936874" />
	</node>
	<node id="-187110" lat="59.7896055533" lon="9.73353888816">
		<tag k="name" v="Fjellbudalen" />
		<tag k="natural" v="valley" />
		<tag k="place" v="locality" />
		<tag k="ssr:stedsnr" v="936688" />
	</node>
	<node id="-187109" lat="59.8553444474" lon="9.98251944586">
		<tag k="name" v="Borkhusbakkene" />
		<tag k="natural" v="slope" />
		<tag k="place" v="locality" />
		<tag k="ssr:stedsnr" v="936651" />
	</node>
	<node id="-187108" lat="59.8276416648" lon="9.87790555087">
		<tag k="fixme" v="consider natural=peak for the most distinct mountains in the district" />
		<tag k="name" v="Skottveien" />
		<tag k="natural" v="hill" />
		<tag k="place" v="locality" />
		<tag k="ssr:stedsnr" v="936616" />
	</node>
	<node id="-186595" lat="59.8727027749" lon="9.7614777848">
		<tag k="fixme" v="consider natural=peak for the most distinct mountains in the district" />
		<tag k="name" v="Røysåsen" />
		<tag k="natural" v="hill" />
		<tag k="place" v="locality" />
		<tag k="ssr:stedsnr" v="610649" />
	</node>
	<node id="-186081" lat="59.7775972253" lon="9.95098888599">
		<tag k="fixme" v="consider natural=peak for the most distinct mountains in the district" />
		<tag k="name" v="Klommesteinfjellet" />
		<tag k="natural" v="hill" />
		<tag k="place" v="locality" />
		<tag k="ssr:stedsnr" v="144722" />
	</node>
	<node id="-187104" lat="59.8475555592" lon="9.92637222136">
		<tag k="name" v="Fudderud" />
		<tag k="natural" v="slope" />
		<tag k="place" v="locality" />
		<tag k="ssr:stedsnr" v="936584" />
	</node>
	<node id="-187103" lat="59.8491583334" lon="9.94497499248">
		<tag k="name" v="Flaberga" />
		<tag k="natural" v="hill" />
		<tag k="place" v="locality" />
		<tag k="ssr:stedsnr" v="936581" />
	</node>
	<node id="-187044" lat="59.7018055557" lon="9.88318888695">
		<tag k="fixme" v="consider natural=peak for the most distinct mountains in the district" />
		<tag k="name" v="Forsvarsåsen" />
		<tag k="natural" v="hill" />
		<tag k="place" v="locality" />
		<tag k="ssr:stedsnr" v="878700" />
	</node>
	<node id="-186587" lat="59.7618055579" lon="9.73955555715">
		<tag k="fixme" v="consider natural=peak for the most distinct mountains in the district" />
		<tag k="name" v="Jungerkollen" />
		<tag k="natural" v="hill" />
		<tag k="place" v="locality" />
		<tag k="ssr:stedsnr" v="610600" />
	</node>
	<node id="-187098" lat="59.8549749995" lon="9.71698610637">
		<tag k="fixme" v="consider natural=peak for the most distinct mountains in the district" />
		<tag k="name" v="Himre Svartåsen" />
		<tag k="natural" v="hill" />
		<tag k="place" v="locality" />
		<tag k="ssr:stedsnr" v="936363" />
	</node>
	<node id="-186071" lat="59.8333722213" lon="9.88367222736">
		<tag k="alt_name" v="Ullelandsåsen" />
		<tag k="fixme" v="consider natural=peak for the most distinct mountains in the district" />
		<tag k="name" v="Ullandåsen" />
		<tag k="natural" v="hill" />
		<tag k="place" v="locality" />
		<tag k="ssr:stedsnr" v="125719" />
	</node>
	<node id="-186070" lat="59.8358111149" lon="9.81621111019">
		<tag k="fixme" v="consider natural=peak for the most distinct mountains in the district" />
		<tag k="name" v="Salsåsen" />
		<tag k="natural" v="hill" />
		<tag k="place" v="locality" />
		<tag k="ssr:stedsnr" v="125717" />
	</node>
	<node id="-187093" lat="59.7546749998" lon="9.7231944457">
		<tag k="fixme" v="consider natural=peak for the most distinct mountains in the district" />
		<tag k="name" v="Brennåsen" />
		<tag k="natural" v="hill" />
		<tag k="place" v="locality" />
		<tag k="ssr:stedsnr" v="915491" />
	</node>
	<node id="-187092" lat="59.7889472241" lon="9.9391638933">
		<tag k="fixme" v="consider natural=peak for the most distinct mountains in the district" />
		<tag k="name" v="Damåsen" />
		<tag k="natural" v="hill" />
		<tag k="place" v="locality" />
		<tag k="ssr:stedsnr" v="915484" />
	</node>
	<node id="-187090" lat="59.8589611087" lon="9.7916944416">
		<tag k="name" v="Katrinelia" />
		<tag k="natural" v="slope" />
		<tag k="place" v="locality" />
		<tag k="ssr:stedsnr" v="914736" />
	</node>
	<node id="-186915" lat="59.7517833356" lon="9.80092222563">
		<tag k="name" v="Kloppmyrdalen" />
		<tag k="natural" v="valley" />
		<tag k="place" v="locality" />
		<tag k="ssr:stedsnr" v="815208" />
	</node>
	<node id="-185772" lat="59.6270944431" lon="9.91628333395">
		<tag k="name" v="Bjønnestillinga" />
		<tag k="natural" v="valley" />
		<tag k="place" v="locality" />
		<tag k="ssr:stedsnr" v="388872" />
	</node>
	<node id="-185976" lat="59.7208805518" lon="9.6599083397">
		<tag k="name" v="Lurdalsskaret" />
		<tag k="natural" v="valley" />
		<tag k="place" v="locality" />
		<tag k="ssr:stedsnr" v="85728" />
	</node>
	<node id="-187086" lat="59.8325611105" lon="9.80027777042">
		<tag k="alt_name" v="Nerseterdalen" />
		<tag k="name" v="Nesseterdalen" />
		<tag k="natural" v="valley" />
		<tag k="place" v="locality" />
		<tag k="ssr:stedsnr" v="914714" />
	</node>
	<node id="-186060" lat="59.8163388906" lon="9.83966110429">
		<tag k="fixme" v="consider natural=peak for the most distinct mountains in the district" />
		<tag k="name" v="Slottåsen" />
		<tag k="natural" v="hill" />
		<tag k="place" v="locality" />
		<tag k="ssr:stedsnr" v="125537" />
	</node>
	<node id="-186053" lat="59.8630555583" lon="9.99863056306">
		<tag k="fixme" v="consider natural=peak for the most distinct mountains in the district" />
		<tag k="name" v="Dypingskollen" />
		<tag k="natural" v="hill" />
		<tag k="place" v="locality" />
		<tag k="ssr:stedsnr" v="125296" />
	</node>
	<node id="-186052" lat="59.819611114" lon="9.98958334175">
		<tag k="name" v="Brenna" />
		<tag k="natural" v="hill" />
		<tag k="place" v="locality" />
		<tag k="ssr:stedsnr" v="125239" />
	</node>
	<node id="-186051" lat="59.6584055566" lon="9.81981110955">
		<tag k="fixme" v="consider natural=peak for the most distinct mountains in the district" />
		<tag k="name" v="Seteråsen" />
		<tag k="natural" v="hill" />
		<tag k="place" v="locality" />
		<tag k="ssr:stedsnr" v="125011" />
	</node>
	<node id="-186562" lat="59.686738886" lon="9.81256388223">
		<tag k="name" v="Ertekollen" />
		<tag k="natural" v="hill" />
		<tag k="place" v="locality" />
		<tag k="ssr:stedsnr" v="574550" />
	</node>
	<node id="-186561" lat="59.6686611096" lon="9.85896110763">
		<tag k="name" v="Skansen" />
		<tag k="natural" v="hill" />
		<tag k="place" v="locality" />
		<tag k="ssr:stedsnr" v="573550" />
	</node>
	<node id="-186560" lat="59.8104694483" lon="9.73356389767">
		<tag k="fixme" v="consider natural=peak for the most distinct mountains in the district" />
		<tag k="name" v="Honseteråsen" />
		<tag k="natural" v="hill" />
		<tag k="place" v="locality" />
		<tag k="ssr:stedsnr" v="573547" />
	</node>
	<node id="-186558" lat="59.6922583351" lon="9.94655556239">
		<tag k="name" v="Vestknabben" />
		<tag k="natural" v="hill" />
		<tag k="place" v="locality" />
		<tag k="ssr:stedsnr" v="573169" />
	</node>
	<node id="-186557" lat="59.860136111" lon="9.82646388172">
		<tag k="fixme" v="consider natural=peak for the most distinct mountains in the district" />
		<tag k="name" v="Slottåsen" />
		<tag k="natural" v="hill" />
		<tag k="place" v="locality" />
		<tag k="ssr:stedsnr" v="572977" />
	</node>
	<node id="-186556" lat="59.8049861113" lon="9.82657500629">
		<tag k="name" v="Storekleiv" />
		<tag k="natural" v="slope" />
		<tag k="place" v="locality" />
		<tag k="ssr:stedsnr" v="572937" />
	</node>
	<node id="-186314" lat="59.7092361129" lon="9.93919722153">
		<tag k="fixme" v="consider natural=peak for the most distinct mountains in the district" />
		<tag k="name" v="Høgåsen" />
		<tag k="natural" v="hill" />
		<tag k="place" v="locality" />
		<tag k="ssr:stedsnr" v="428589" />
	</node>
	<node id="-186550" lat="59.8231277743" lon="9.82150555794">
		<tag k="name" v="Harstadfjellet" />
		<tag k="natural" v="ridge" />
		<tag k="place" v="locality" />
		<tag k="ssr:stedsnr" v="572688" />
	</node>
	<node id="-185801" lat="59.8048777807" lon="9.77146666546">
		<tag k="name" v="Langelia" />
		<tag k="natural" v="slope" />
		<tag k="place" v="locality" />
		<tag k="ssr:stedsnr" v="390841" />
	</node>
	<node id="-185885" lat="59.7902694412" lon="9.93396944175">
		<tag k="fixme" v="consider natural=peak for the most distinct mountains in the district" />
		<tag k="name" v="Liaåsen" />
		<tag k="natural" v="hill" />
		<tag k="place" v="locality" />
		<tag k="ssr:stedsnr" v="25593" />
	</node>
	<node id="-186539" lat="59.7358027787" lon="9.79281111113">
		<tag k="name" v="Spellemannsberga" />
		<tag k="natural" v="slope" />
		<tag k="place" v="locality" />
		<tag k="ssr:stedsnr" v="571121" />
	</node>
	<node id="-186537" lat="59.6854138853" lon="9.7698472295">
		<tag k="fixme" v="consider natural=peak for the most distinct mountains in the district" />
		<tag k="name" v="Rudsåsen" />
		<tag k="natural" v="hill" />
		<tag k="place" v="locality" />
		<tag k="ssr:stedsnr" v="570606" />
	</node>
	<node id="-187048" lat="59.6569083318" lon="9.97360833874">
		<tag k="fixme" v="consider natural=peak for the most distinct mountains in the district" />
		<tag k="name" v="Barlindmyråsen" />
		<tag k="natural" v="hill" />
		<tag k="place" v="locality" />
		<tag k="ssr:stedsnr" v="913126" />
	</node>
	<node id="-185628" lat="59.7318222202" lon="9.82732221877">
		<tag k="name" v="Grautberga" />
		<tag k="natural" v="ridge" />
		<tag k="place" v="locality" />
		<tag k="ssr:stedsnr" v="270473" />
	</node>
	<node id="-186022" lat="59.6654972212" lon="9.87659165998">
		<tag k="name" v="Spireholta" />
		<tag k="natural" v="slope" />
		<tag k="place" v="locality" />
		<tag k="ssr:stedsnr" v="89710" />
	</node>
	<node id="-186533" lat="59.8440416704" lon="9.82108610629">
		<tag k="fixme" v="consider natural=peak for the most distinct mountains in the district" />
		<tag k="name" v="Middagsåsen" />
		<tag k="natural" v="hill" />
		<tag k="place" v="locality" />
		<tag k="ssr:stedsnr" v="550733" />
	</node>
	<node id="-186532" lat="59.8414472192" lon="9.73940555169">
		<tag k="fixme" v="consider natural=peak for the most distinct mountains in the district" />
		<tag k="name" v="Holteseteråsen" />
		<tag k="natural" v="hill" />
		<tag k="place" v="locality" />
		<tag k="ssr:stedsnr" v="550728" />
	</node>
	<node id="-186224" lat="59.6791361104" lon="9.96192777384">
		<tag k="fixme" v="consider natural=peak for the most distinct mountains in the district" />
		<tag k="name" v="Kimetjernåsen" />
		<tag k="natural" v="hill" />
		<tag k="place" v="locality" />
		<tag k="ssr:stedsnr" v="210248" />
	</node>
	<node id="-186014" lat="59.6490555545" lon="9.97761389553">
		<tag k="fixme" v="consider natural=peak for the most distinct mountains in the district" />
		<tag k="name" v="Blåbergåsen" />
		<tag k="natural" v="hill" />
		<tag k="place" v="locality" />
		<tag k="ssr:stedsnr" v="88168" />
	</node>
	<node id="-186013" lat="59.6905249983" lon="9.95714166301">
		<tag k="name" v="Sirilia" />
		<tag k="natural" v="slope" />
		<tag k="place" v="locality" />
		<tag k="ssr:stedsnr" v="88145" />
	</node>
	<node id="-187035" lat="59.7167000034" lon="9.95369999769">
		<tag k="name" v="Røverberget" />
		<tag k="natural" v="hill" />
		<tag k="place" v="locality" />
		<tag k="ssr:stedsnr" v="877494" />
	</node>
	<node id="-186009" lat="59.7682444441" lon="9.74226944577">
		<tag k="fixme" v="consider natural=peak for the most distinct mountains in the district" />
		<tag k="name" v="Frågåttåsen" />
		<tag k="natural" v="hill" />
		<tag k="place" v="locality" />
		<tag k="ssr:stedsnr" v="87892" />
	</node>
	<node id="-187032" lat="59.7317277821" lon="9.81201666797">
		<tag k="name" v="Hallingen" />
		<tag k="natural" v="slope" />
		<tag k="place" v="locality" />
		<tag k="ssr:stedsnr" v="877479" />
	</node>
	<node id="-186517" lat="59.787611111" lon="9.97301110305">
		<tag k="fixme" v="consider natural=peak for the most distinct mountains in the district" />
		<tag k="name" v="Røysåsen" />
		<tag k="natural" v="hill" />
		<tag k="place" v="locality" />
		<tag k="ssr:stedsnr" v="550150" />
	</node>
	<node id="-187028" lat="59.6928444489" lon="9.9717583325">
		<tag k="name" v="Brynseterlia" />
		<tag k="natural" v="slope" />
		<tag k="place" v="locality" />
		<tag k="ssr:stedsnr" v="877188" />
	</node>
	<node id="-187026" lat="59.729211109" lon="9.71360000282">
		<tag k="name" v="Kjøytedalen" />
		<tag k="natural" v="valley" />
		<tag k="place" v="locality" />
		<tag k="ssr:stedsnr" v="876878" />
	</node>
	<node id="-185880" lat="59.6569611136" lon="9.96941944462">
		<tag k="fixme" v="consider natural=peak for the most distinct mountains in the district" />
		<tag k="name" v="Sandvikåsen" />
		<tag k="natural" v="hill" />
		<tag k="place" v="locality" />
		<tag k="ssr:stedsnr" v="27207" />
	</node>
	<node id="-186508" lat="59.7155166649" lon="9.95074723005">
		<tag k="fixme" v="consider natural=peak for the most distinct mountains in the district" />
		<tag k="name" v="Rasaråsen" />
		<tag k="natural" v="hill" />
		<tag k="place" v="locality" />
		<tag k="ssr:stedsnr" v="549630" />
	</node>
	<node id="-185995" lat="59.8107222244" lon="9.80824166143">
		<tag k="name" v="Geiteryggen" />
		<tag k="natural" v="ridge" />
		<tag k="place" v="locality" />
		<tag k="ssr:stedsnr" v="86657" />
	</node>
	<node id="-186505" lat="59.7741583291" lon="9.79638054691">
		<tag k="fixme" v="consider natural=peak for the most distinct mountains in the district" />
		<tag k="name" v="Himsjøkollen" />
		<tag k="natural" v="hill" />
		<tag k="place" v="locality" />
		<tag k="ssr:stedsnr" v="549592" />
	</node>
	<node id="-187016" lat="59.8410222182" lon="9.90874445223">
		<tag k="name" v="Knivedalen" />
		<tag k="natural" v="valley" />
		<tag k="place" v="locality" />
		<tag k="ssr:stedsnr" v="876581" />
	</node>
	<node id="-187014" lat="59.5934499977" lon="9.92349721774">
		<tag k="name" v="Mjøvannsholene" />
		<tag k="natural" v="hill" />
		<tag k="place" v="locality" />
		<tag k="ssr:stedsnr" v="876547" />
	</node>
	<node id="-187073" lat="59.8050195928" lon="9.91585403451">
		<tag k="fixme" v="consider natural=peak for the most distinct mountains in the district" />
		<tag k="name" v="Slettbakk" />
		<tag k="natural" v="hill" />
		<tag k="place" v="locality" />
		<tag k="ssr:stedsnr" v="914573" />
	</node>
	<node id="-185988" lat="59.8419333354" lon="9.92429444484">
		<tag k="name" v="Jernhatten" />
		<tag k="natural" v="hill" />
		<tag k="place" v="locality" />
		<tag k="ssr:stedsnr" v="86596" />
	</node>
	<node id="-186499" lat="59.6902583361" lon="9.93743888995">
		<tag k="fixme" v="consider natural=peak for the most distinct mountains in the district" />
		<tag k="name" v="Slettfjell" />
		<tag k="natural" v="hill" />
		<tag k="place" v="locality" />
		<tag k="ssr:stedsnr" v="549570" />
	</node>
	<node id="-187009" lat="59.6792222241" lon="9.71027500686">
		<tag k="name" v="Tamburhaugen" />
		<tag k="natural" v="hill" />
		<tag k="place" v="locality" />
		<tag k="ssr:stedsnr" v="875657" />
	</node>
	<node id="-187008" lat="59.8398694452" lon="9.8320222138">
		<tag k="name" v="Gråbergåsen" />
		<tag k="natural" v="ridge" />
		<tag k="place" v="locality" />
		<tag k="ssr:stedsnr" v="875647" />
	</node>
	<node id="-185792" lat="59.6040083368" lon="9.89474999946">
		<tag k="name" v="Brennevinsdalen" />
		<tag k="natural" v="valley" />
		<tag k="place" v="locality" />
		<tag k="ssr:stedsnr" v="390486" />
	</node>
	<node id="-187005" lat="59.8448444455" lon="9.97809445286">
		<tag k="name" v="Daletjernslia" />
		<tag k="natural" v="slope" />
		<tag k="place" v="locality" />
		<tag k="ssr:stedsnr" v="875620" />
	</node>
	<node id="-187004" lat="59.833197223" lon="9.97748055796">
		<tag k="fixme" v="consider natural=peak for the most distinct mountains in the district" />
		<tag k="name" v="Lofthuskollen" />
		<tag k="natural" v="hill" />
		<tag k="place" v="locality" />
		<tag k="ssr:stedsnr" v="875617" />
	</node>
	<node id="-186491" lat="59.6290999959" lon="9.92570000467">
		<tag k="alt_name" v="Geiteryggen" />
		<tag k="name" v="Geitryggen" />
		<tag k="natural" v="ridge" />
		<tag k="place" v="locality" />
		<tag k="ssr:stedsnr" v="549503" />
	</node>
	<node id="-185977" lat="59.6321888867" lon="9.91557500681">
		<tag k="name" v="Geiteryggen" />
		<tag k="natural" v="ridge" />
		<tag k="place" v="locality" />
		<tag k="ssr:stedsnr" v="85868" />
	</node>
	<node id="-187000" lat="59.8461166644" lon="9.93446944717">
		<tag k="name" v="Maurhaugen" />
		<tag k="natural" v="hill" />
		<tag k="place" v="locality" />
		<tag k="ssr:stedsnr" v="875573" />
	</node>
	<node id="-186999" lat="59.8488305541" lon="9.93981111775">
		<tag k="name" v="Fjellgrinda" />
		<tag k="natural" v="valley" />
		<tag k="place" v="locality" />
		<tag k="ssr:stedsnr" v="875571" />
	</node>
	<node id="-185972" lat="59.7864250041" lon="9.95586944755">
		<tag k="fixme" v="consider natural=peak for the most distinct mountains in the district" />
		<tag k="name" v="Hagatjernåsen" />
		<tag k="natural" v="hill" />
		<tag k="place" v="locality" />
		<tag k="ssr:stedsnr" v="83747" />
	</node>
	<node id="-185970" lat="59.8263027821" lon="9.83686111824">
		<tag k="name" v="Rakkestadstordalen" />
		<tag k="natural" v="valley" />
		<tag k="place" v="locality" />
		<tag k="ssr:stedsnr" v="65715" />
	</node>
	<node id="-186596" lat="59.868072223" lon="9.78730278259">
		<tag k="name" v="Vestbymoen" />
		<tag k="place" v="locality" />
		<tag k="ssr:stedsnr" v="610651" />
	</node>
	<node id="-185968" lat="59.8819666689" lon="9.76536944283">
		<tag k="fixme" v="consider natural=peak for the most distinct mountains in the district" />
		<tag k="name" v="Håreåsen" />
		<tag k="natural" v="hill" />
		<tag k="place" v="locality" />
		<tag k="ssr:stedsnr" v="65673" />
	</node>
	<node id="-185966" lat="59.8656888886" lon="9.75599722951">
		<tag k="fixme" v="consider natural=peak for the most distinct mountains in the district" />
		<tag k="name" v="Gjelleramyråsen" />
		<tag k="natural" v="hill" />
		<tag k="place" v="locality" />
		<tag k="ssr:stedsnr" v="65623" />
	</node>
	<node id="-186989" lat="59.8657527788" lon="9.74139999395">
		<tag k="fixme" v="consider natural=peak for the most distinct mountains in the district" />
		<tag k="name" v="Lauvåsen" />
		<tag k="natural" v="hill" />
		<tag k="place" v="locality" />
		<tag k="ssr:stedsnr" v="875385" />
	</node>
	<node id="-186476" lat="59.6794055519" lon="9.85371389497">
		<tag k="fixme" v="consider natural=peak for the most distinct mountains in the district" />
		<tag k="name" v="Kleivåsen" />
		<tag k="natural" v="hill" />
		<tag k="place" v="locality" />
		<tag k="ssr:stedsnr" v="513540" />
	</node>
	<node id="-186987" lat="59.87102222" lon="9.7414055584">
		<tag k="name" v="Håreseterkollen" />
		<tag k="natural" v="hill" />
		<tag k="place" v="locality" />
		<tag k="ssr:stedsnr" v="875380" />
	</node>
	<node id="-186474" lat="59.6650500007" lon="9.95073334092">
		<tag k="name" v="Rennekastet" />
		<tag k="natural" v="slope" />
		<tag k="place" v="locality" />
		<tag k="ssr:stedsnr" v="513236" />
	</node>
	<node id="-187068" lat="59.8375638894" lon="9.98079444754">
		<tag k="fixme" v="consider natural=peak for the most distinct mountains in the district" />
		<tag k="name" v="Trollåsen" />
		<tag k="natural" v="hill" />
		<tag k="place" v="locality" />
		<tag k="ssr:stedsnr" v="914294" />
	</node>
	<node id="-186980" lat="59.6335416693" lon="9.9004222142">
		<tag k="name" v="Kavlebakk" />
		<tag k="natural" v="slope" />
		<tag k="place" v="locality" />
		<tag k="ssr:stedsnr" v="874884" />
	</node>
	<node id="-186466" lat="59.8121833318" lon="9.82625555331">
		<tag k="name" v="Kastet" />
		<tag k="natural" v="slope" />
		<tag k="place" v="locality" />
		<tag k="ssr:stedsnr" v="512711" />
	</node>
	<node id="-186384" lat="59.6883194414" lon="9.91706667075">
		<tag k="fixme" v="consider natural=peak for the most distinct mountains in the district" />
		<tag k="name" v="Østerudfjellet" />
		<tag k="natural" v="hill" />
		<tag k="place" v="locality" />
		<tag k="ssr:stedsnr" v="452702" />
	</node>
	<node id="-186974" lat="59.8527666628" lon="9.77756944144">
		<tag k="name" v="Bråkedalen" />
		<tag k="natural" v="valley" />
		<tag k="place" v="locality" />
		<tag k="ssr:stedsnr" v="854701" />
	</node>
	<node id="-186213" lat="59.8058583376" lon="9.74961111153">
		<tag k="name" v="Springerkleiv" />
		<tag k="natural" v="slope" />
		<tag k="place" v="locality" />
		<tag k="ssr:stedsnr" v="208850" />
	</node>
	<node id="-186971" lat="59.8605305587" lon="9.75890278372">
		<tag k="fixme" v="consider natural=peak for the most distinct mountains in the district" />
		<tag k="name" v="Vestbyvarden" />
		<tag k="natural" v="hill" />
		<tag k="place" v="locality" />
		<tag k="ssr:stedsnr" v="854616" />
	</node>
	<node id="-185945" lat="59.6922722194" lon="9.95346111632">
		<tag k="fixme" v="consider natural=peak for the most distinct mountains in the district" />
		<tag k="name" v="Sirikjerke" />
		<tag k="natural" v="hill" />
		<tag k="place" v="locality" />
		<tag k="ssr:stedsnr" v="64583" />
	</node>
	<node id="-185767" lat="59.6629083348" lon="9.77117777726">
		<tag k="name" v="Kreklingplassen" />
		<tag k="place" v="locality" />
		<tag k="ssr:stedsnr" v="388435" />
	</node>
	<node id="-186468" lat="59.7829972267" lon="9.9188805504">
		<tag k="name" v="Oseberg" />
		<tag k="natural" v="slope" />
		<tag k="place" v="locality" />
		<tag k="ssr:stedsnr" v="512857" />
	</node>
	<node id="-186966" lat="59.7922499969" lon="9.92727221663">
		<tag k="fixme" v="consider natural=peak for the most distinct mountains in the district" />
		<tag k="name" v="Krukekollen" />
		<tag k="natural" v="hill" />
		<tag k="place" v="locality" />
		<tag k="ssr:stedsnr" v="854493" />
	</node>
	<node id="-186501" lat="59.7819749957" lon="9.93887500241">
		<tag k="fixme" v="consider natural=peak for the most distinct mountains in the district" />
		<tag k="name" v="Harastokkåsen" />
		<tag k="natural" v="hill" />
		<tag k="place" v="locality" />
		<tag k="ssr:stedsnr" v="549579" />
	</node>
	<node id="-186451" lat="59.6827027801" lon="9.71812221691">
		<tag k="name" v="Smebakken" />
		<tag k="natural" v="slope" />
		<tag k="place" v="locality" />
		<tag k="ssr:stedsnr" v="511645" />
	</node>
	<node id="-186450" lat="59.8565333342" lon="9.95186944165">
		<tag k="fixme" v="consider natural=peak for the most distinct mountains in the district" />
		<tag k="name" v="Bjørnåsen" />
		<tag k="natural" v="hill" />
		<tag k="place" v="locality" />
		<tag k="ssr:stedsnr" v="511641" />
	</node>
	<node id="-186961" lat="59.737730557" lon="9.78403888299">
		<tag k="alt_name" v="Sæteråsen" />
		<tag k="fixme" v="consider natural=peak for the most distinct mountains in the district" />
		<tag k="name" v="Nedre Seteråsen" />
		<tag k="natural" v="hill" />
		<tag k="place" v="locality" />
		<tag k="ssr:stedsnr" v="853662" />
	</node>
	<node id="-186446" lat="59.8441944401" lon="9.94651945011">
		<tag k="fixme" v="consider natural=peak for the most distinct mountains in the district" />
		<tag k="name" v="Renningsåsen" />
		<tag k="natural" v="hill" />
		<tag k="place" v="locality" />
		<tag k="ssr:stedsnr" v="511569" />
	</node>
	<node id="-186586" lat="59.8154444465" lon="9.94693888269">
		<tag k="alt_name" v="Kastet" />
		<tag k="fixme" v="consider natural=peak for the most distinct mountains in the district" />
		<tag k="name" v="Kaståsen" />
		<tag k="natural" v="hill" />
		<tag k="place" v="locality" />
		<tag k="ssr:stedsnr" v="610585" />
	</node>
	<node id="-186978" lat="59.7082027786" lon="9.78590000023">
		<tag k="name" v="Flårud" />
		<tag k="place" v="locality" />
		<tag k="ssr:stedsnr" v="874596" />
	</node>
	<node id="-185868" lat="59.8458805543" lon="9.96497777546">
		<tag k="fixme" v="consider natural=peak for the most distinct mountains in the district" />
		<tag k="name" v="Snaukollen" />
		<tag k="natural" v="hill" />
		<tag k="place" v="locality" />
		<tag k="ssr:stedsnr" v="4754" />
	</node>
	<node id="-185926" lat="59.6266861136" lon="9.93316389579">
		<tag k="name" v="Gråbeinsletta" />
		<tag k="place" v="locality" />
		<tag k="ssr:stedsnr" v="267717" />
	</node>
	<node id="-185989" lat="59.8229444407" lon="9.92483611693">
		<tag k="fixme" v="consider natural=peak for the most distinct mountains in the district" />
		<tag k="name" v="Korpåsen" />
		<tag k="natural" v="hill" />
		<tag k="place" v="locality" />
		<tag k="ssr:stedsnr" v="86600" />
	</node>
	<node id="-185924" lat="59.7169416696" lon="9.88620278013">
		<tag k="name" v="Skjeggetrengsla" />
		<tag k="natural" v="slope" />
		<tag k="place" v="locality" />
		<tag k="ssr:stedsnr" v="28699" />
	</node>
	<node id="-186946" lat="59.8082194418" lon="9.97798611351">
		<tag k="fixme" v="consider natural=peak for the most distinct mountains in the district" />
		<tag k="name" v="Uleråsen" />
		<tag k="natural" v="hill" />
		<tag k="place" v="locality" />
		<tag k="ssr:stedsnr" v="853204" />
	</node>
	<node id="-186208" lat="59.8586666699" lon="9.93913332738">
		<tag k="fixme" v="consider natural=peak for the most distinct mountains in the district" />
		<tag k="name" v="Vardeåsen" />
		<tag k="natural" v="hill" />
		<tag k="place" v="locality" />
		<tag k="ssr:stedsnr" v="208685" />
	</node>
	<node id="-186429" lat="59.7809416665" lon="9.9252138809">
		<tag k="name" v="Lerberghaugen" />
		<tag k="natural" v="hill" />
		<tag k="place" v="locality" />
		<tag k="ssr:stedsnr" v="508733" />
	</node>
	<node id="-186091" lat="59.850758337" lon="9.77527778457">
		<tag k="name" v="Grasdalen" />
		<tag k="natural" v="valley" />
		<tag k="place" v="locality" />
		<tag k="ssr:stedsnr" v="146118" />
	</node>
	<node id="-186426" lat="59.8205750015" lon="9.95445277302">
		<tag k="name" v="Grandalen" />
		<tag k="natural" v="valley" />
		<tag k="place" v="locality" />
		<tag k="ssr:stedsnr" v="489736" />
	</node>
	<node id="-185913" lat="59.7256638846" lon="9.7098138963">
		<tag k="name" v="Øytjern" />
		<tag k="natural" v="valley" />
		<tag k="place" v="locality" />
		<tag k="ssr:stedsnr" v="26843" />
	</node>
	<node id="-185962" lat="59.8050500003" lon="9.92300000322">
		<tag k="fixme" v="consider natural=peak for the most distinct mountains in the district" />
		<tag k="name" v="Korpåsen" />
		<tag k="natural" v="hill" />
		<tag k="place" v="locality" />
		<tag k="ssr:stedsnr" v="65492" />
	</node>
	<node id="-186934" lat="59.8245111133" lon="9.73892221638">
		<tag k="name" v="Sjutjernsdalen" />
		<tag k="natural" v="valley" />
		<tag k="place" v="locality" />
		<tag k="ssr:stedsnr" v="816621" />
	</node>
	<node id="-186937" lat="59.7071750042" lon="9.87223332655">
		<tag k="name" v="Kølabonn" />
		<tag k="natural" v="valley" />
		<tag k="place" v="locality" />
		<tag k="ssr:stedsnr" v="817678" />
	</node>
	<node id="-186931" lat="59.6837277822" lon="9.95209721426">
		<tag k="name" v="Puttåsen" />
		<tag k="natural" v="ridge" />
		<tag k="place" v="locality" />
		<tag k="ssr:stedsnr" v="816179" />
	</node>
	<node id="-186930" lat="59.6808333363" lon="9.98892499492">
		<tag k="name" v="Kutjernlia" />
		<tag k="natural" v="slope" />
		<tag k="place" v="locality" />
		<tag k="ssr:stedsnr" v="816165" />
	</node>
	<node id="-186909" lat="59.7366361109" lon="9.73473055627">
		<tag k="name" v="Skjelbreddalen" />
		<tag k="natural" v="valley" />
		<tag k="place" v="locality" />
		<tag k="ssr:stedsnr" v="814892" />
	</node>
	<node id="-185904" lat="59.8705888859" lon="10.0024611098">
		<tag k="name" v="Varmdalen" />
		<tag k="natural" v="valley" />
		<tag k="place" v="locality" />
		<tag k="ssr:stedsnr" v="26665" />
	</node>
	<node id="-187001" lat="59.7918305592" lon="9.97343611508">
		<tag k="name" v="Øytjerndalen" />
		<tag k="natural" v="valley" />
		<tag k="place" v="locality" />
		<tag k="ssr:stedsnr" v="875581" />
	</node>
	<node id="-185901" lat="59.850552775" lon="9.97347221614">
		<tag k="name" v="Fugleleikhovet" />
		<tag k="natural" v="hill" />
		<tag k="place" v="locality" />
		<tag k="ssr:stedsnr" v="26592" />
	</node>
	<node id="-186411" lat="59.799436108" lon="9.93883056274">
		<tag k="fixme" v="consider natural=peak for the most distinct mountains in the district" />
		<tag k="name" v="Ormetjernåsen" />
		<tag k="natural" v="hill" />
		<tag k="place" v="locality" />
		<tag k="ssr:stedsnr" v="489527" />
	</node>
	<node id="-186921" lat="59.8226333327" lon="9.84113055296">
		<tag k="name" v="Hølaløkkene" />
		<tag k="natural" v="valley" />
		<tag k="place" v="locality" />
		<tag k="ssr:stedsnr" v="815649" />
	</node>
	<node id="-186204" lat="59.8128138852" lon="9.96510555946">
		<tag k="name" v="Ese" />
		<tag k="natural" v="slope" />
		<tag k="place" v="locality" />
		<tag k="ssr:stedsnr" v="208584" />
	</node>
	<node id="-185894" lat="59.7291666659" lon="9.76383888018">
		<tag k="name" v="Skjeggetrengsla" />
		<tag k="natural" v="valley" />
		<tag k="place" v="locality" />
		<tag k="ssr:stedsnr" v="26133" />
	</node>
	<node id="-186917" lat="59.8989527759" lon="9.7125833307">
		<tag k="fixme" v="consider natural=peak for the most distinct mountains in the district" />
		<tag k="name" v="Endeåsen" />
		<tag k="natural" v="hill" />
		<tag k="place" v="locality" />
		<tag k="ssr:stedsnr" v="815397" />
	</node>
	<node id="-186630" lat="59.8227722212" lon="9.81390278287">
		<tag k="name" v="Bjørnestillingen" />
		<tag k="natural" v="valley" />
		<tag k="place" v="locality" />
		<tag k="ssr:stedsnr" v="632639" />
	</node>
	<node id="-186913" lat="59.7407555579" lon="9.78493610648">
		<tag k="name" v="Bjørnekastet" />
		<tag k="natural" v="hill" />
		<tag k="place" v="locality" />
		<tag k="ssr:stedsnr" v="815116" />
	</node>
	<node id="-186397" lat="59.7227166659" lon="9.72568610372">
		<tag k="fixme" v="consider natural=peak for the most distinct mountains in the district" />
		<tag k="name" v="Storåsen" />
		<tag k="natural" v="hill" />
		<tag k="place" v="locality" />
		<tag k="ssr:stedsnr" v="488614" />
	</node>
	<node id="-186907" lat="59.8196194456" lon="9.91409722374">
		<tag k="name" v="Jernhatten" />
		<tag k="natural" v="hill" />
		<tag k="place" v="locality" />
		<tag k="ssr:stedsnr" v="814640" />
	</node>
	<node id="-185713" lat="59.6428444411" lon="9.86341943637">
		<tag k="name" v="Rolighet" />
		<tag k="natural" v="valley" />
		<tag k="place" v="locality" />
		<tag k="ssr:stedsnr" v="331998" />
	</node>
	<node id="-186905" lat="59.8191888886" lon="9.97153889675">
		<tag k="name" v="Veslebrenna" />
		<tag k="natural" v="ridge" />
		<tag k="place" v="locality" />
		<tag k="ssr:stedsnr" v="814608" />
	</node>
	<node id="-186904" lat="59.8022249986" lon="9.93350832528">
		<tag k="fixme" v="consider natural=peak for the most distinct mountains in the district" />
		<tag k="name" v="Svarttjernåsen" />
		<tag k="natural" v="hill" />
		<tag k="place" v="locality" />
		<tag k="ssr:stedsnr" v="814528" />
	</node>
	<node id="-185879" lat="59.6752722199" lon="9.96019722006">
		<tag k="name" v="Lytterberget" />
		<tag k="natural" v="hill" />
		<tag k="place" v="locality" />
		<tag k="ssr:stedsnr" v="27205" />
	</node>
	<node id="-185878" lat="59.6049694421" lon="9.92690834212">
		<tag k="name" v="Mørtjernkollen" />
		<tag k="natural" v="hill" />
		<tag k="place" v="locality" />
		<tag k="ssr:stedsnr" v="24768" />
	</node>
	<node id="-185689" lat="59.812013892" lon="9.98734444958">
		<tag k="name" v="Brennbakk" />
		<tag k="natural" v="ridge" />
		<tag k="place" v="locality" />
		<tag k="ssr:stedsnr" v="329496" />
	</node>
	<node id="-186286" lat="59.6401722186" lon="9.90151944488">
		<tag k="fixme" v="consider natural=peak for the most distinct mountains in the district" />
		<tag k="name" v="Bogåsen" />
		<tag k="natural" v="hill" />
		<tag k="place" v="locality" />
		<tag k="ssr:stedsnr" v="267911" />
	</node>
	<node id="-185874" lat="59.6541583297" lon="9.7828138894">
		<tag k="name" v="Raubergåsen" />
		<tag k="natural" v="hill" />
		<tag k="place" v="locality" />
		<tag k="ssr:stedsnr" v="24515" />
	</node>
	<node id="-185873" lat="59.6538694409" lon="9.99068611166">
		<tag k="name" v="Vimekleiv" />
		<tag k="natural" v="slope" />
		<tag k="place" v="locality" />
		<tag k="ssr:stedsnr" v="24153" />
	</node>
	<node id="-186896" lat="59.5881333332" lon="9.92896944945">
		<tag k="name" v="Mjøvannsholene" />
		<tag k="natural" v="valley" />
		<tag k="place" v="locality" />
		<tag k="ssr:stedsnr" v="813764" />
	</node>
	<node id="-186277" lat="59.8300499978" lon="9.81229999259">
		<tag k="fixme" v="consider natural=peak for the most distinct mountains in the district" />
		<tag k="name" v="Svartåsen" />
		<tag k="natural" v="hill" />
		<tag k="place" v="locality" />
		<tag k="ssr:stedsnr" v="247683" />
	</node>
	<node id="-186893" lat="59.6524749984" lon="9.79460278599">
		<tag k="name" v="Petraborg" />
		<tag k="natural" v="hill" />
		<tag k="place" v="locality" />
		<tag k="ssr:stedsnr" v="813468" />
	</node>
	<node id="-186892" lat="59.7745805533" lon="9.96362500388">
		<tag k="fixme" v="consider natural=peak for the most distinct mountains in the district" />
		<tag k="name" v="Blåfjell" />
		<tag k="natural" v="hill" />
		<tag k="place" v="locality" />
		<tag k="ssr:stedsnr" v="812752" />
	</node>
	<node id="-185858" lat="59.8695472235" lon="9.79731945294">
		<tag k="fixme" v="consider natural=peak for the most distinct mountains in the district" />
		<tag k="name" v="Plassåsen" />
		<tag k="natural" v="hill" />
		<tag k="place" v="locality" />
		<tag k="ssr:stedsnr" v="4630" />
	</node>
	<node id="-185701" lat="59.8396472223" lon="9.87149999221">
		<tag k="name" v="Toppenhaug" />
		<tag k="natural" v="ridge" />
		<tag k="place" v="locality" />
		<tag k="ssr:stedsnr" v="330647" />
	</node>
	<node id="-185629" lat="59.7210472263" lon="9.92571665935">
		<tag k="fixme" v="consider natural=peak for the most distinct mountains in the district" />
		<tag k="name" v="Kulerudåsen" />
		<tag k="natural" v="hill" />
		<tag k="place" v="locality" />
		<tag k="ssr:stedsnr" v="270472" />
	</node>
	<node id="-187033" lat="59.7329083378" lon="9.8181555601">
		<tag k="name" v="Djupedal" />
		<tag k="natural" v="valley" />
		<tag k="place" v="locality" />
		<tag k="ssr:stedsnr" v="877485" />
	</node>
	<node id="-186475" lat="59.7082333338" lon="9.9691194405">
		<tag k="name" v="Hornfjellet" />
		<tag k="natural" v="ridge" />
		<tag k="place" v="locality" />
		<tag k="ssr:stedsnr" v="513528" />
	</node>
	<node id="-186886" lat="59.8509527775" lon="9.78870833544">
		<tag k="fixme" v="consider natural=peak for the most distinct mountains in the district" />
		<tag k="name" v="Hafella" />
		<tag k="natural" v="hill" />
		<tag k="place" v="locality" />
		<tag k="ssr:stedsnr" v="793768" />
	</node>
	<node id="-187137" lat="59.7097439316" lon="9.72449111502">
		<tag k="fixme" v="consider natural=peak for the most distinct mountains in the district" />
		<tag k="name" v="Karlstjernåsen" />
		<tag k="natural" v="hill" />
		<tag k="place" v="locality" />
		<tag k="ssr:stedsnr" v="938820" />
	</node>
	<node id="-186454" lat="59.8463138901" lon="9.71259166209">
		<tag k="name" v="Blygåtthaugene" />
		<tag k="natural" v="hill" />
		<tag k="place" v="locality" />
		<tag k="ssr:stedsnr" v="511716" />
	</node>
	<node id="-186882" lat="59.8283361091" lon="9.74512500023">
		<tag k="fixme" v="consider natural=peak for the most distinct mountains in the district" />
		<tag k="name" v="Urdsdokka" />
		<tag k="natural" v="hill" />
		<tag k="place" v="locality" />
		<tag k="ssr:stedsnr" v="793739" />
	</node>
	<node id="-186369" lat="59.610505558" lon="9.88341111499">
		<tag k="name" v="Burvannskollen" />
		<tag k="natural" v="hill" />
		<tag k="place" v="locality" />
		<tag k="ssr:stedsnr" v="451533" />
	</node>
</osm>
