<?xml version="1.0" encoding="UTF-8"?>
<osm generator="osmapis" version="0.6">
	<node id="-186363" lat="59.7265333342" lon="9.8022583283">
		<tag k="name" v="Skjelbredplassen" />
		<tag k="place" v="isolated_dwelling" />
		<tag k="ssr:stedsnr" v="451133" />
	</node>
	<node id="-186361" lat="59.7490611108" lon="9.8948638854">
		<tag k="name" v="Bryn" />
		<tag k="place" v="farm" />
		<tag k="ssr:stedsnr" v="451086" />
	</node>
	<node id="-186360" lat="59.7512333326" lon="9.89078889269">
		<tag k="name" v="Bomenga" />
		<tag k="place" v="farm" />
		<tag k="ssr:stedsnr" v="451085" />
	</node>
	<node id="-186359" lat="59.7468222197" lon="9.8377361184">
		<tag k="name" v="Rolighet" />
		<tag k="place" v="isolated_dwelling" />
		<tag k="ssr:stedsnr" v="451078" />
	</node>
	<node id="-186358" lat="59.8562138902" lon="9.86570556207">
		<tag k="name" v="Lobben" />
		<tag k="place" v="farm" />
		<tag k="ssr:stedsnr" v="451070" />
	</node>
	<node id="-186357" lat="59.8558222231" lon="9.84139444254">
		<tag k="name" v="Nedre Borge" />
		<tag k="place" v="farm" />
		<tag k="ssr:stedsnr" v="450982" />
	</node>
	<node id="-186353" lat="59.8114611088" lon="9.86738888654">
		<tag k="name" v="Jensvold" />
		<tag k="place" v="farm" />
		<tag k="ssr:stedsnr" v="450656" />
	</node>
	<node id="-186352" lat="59.8137888904" lon="9.88037500378">
		<tag k="building" v="industrial" />
		<tag k="name" v="Brekka sag" />
		<tag k="ssr:stedsnr" v="450655" />
	</node>
	<node id="-186351" lat="59.8224027794" lon="9.85898056222">
		<tag k="name" v="Harstad" />
		<tag k="place" v="farm" />
		<tag k="ssr:stedsnr" v="450652" />
	</node>
	<node id="-186350" lat="59.8111499191" lon="9.90195969274">
		<tag k="fixme" v="consider place=hamlet" />
		<tag k="name" v="Strømbu" />
		<tag k="place" v="farm" />
		<tag k="ssr:stedsnr" v="450643" />
	</node>
	<node id="-186348" lat="59.8662638878" lon="9.95491110502">
		<tag k="name" v="Kjellerhalsen" />
		<tag k="place" v="isolated_dwelling" />
		<tag k="ssr:stedsnr" v="450637" />
	</node>
	<node id="-186342" lat="59.7366583353" lon="9.93901945239">
		<tag k="name" v="Steinsborg" />
		<tag k="place" v="farm" />
		<tag k="ssr:stedsnr" v="450294" />
	</node>
	<node id="-186341" lat="59.6351666696" lon="9.89073889523">
		<tag k="name" v="Øytjernstua" />
		<tag k="place" v="isolated_dwelling" />
		<tag k="ssr:stedsnr" v="449864" />
	</node>
	<node id="-186339" lat="59.6962999958" lon="9.76355277721">
		<tag k="name" v="Øvre Gulliksrud" />
		<tag k="place" v="farm" />
		<tag k="ssr:stedsnr" v="449639" />
	</node>
	<node id="-186338" lat="59.7081055578" lon="9.8077750031">
		<tag k="name" v="Nordre Rud" />
		<tag k="place" v="farm" />
		<tag k="ssr:stedsnr" v="449580" />
	</node>
	<node id="-186337" lat="59.7006472243" lon="9.79772777764">
		<tag k="building" v="industrial" />
		<tag k="name" v="Sag" />
		<tag k="ssr:stedsnr" v="449535" />
	</node>
	<node id="-186335" lat="59.8502833329" lon="9.86445000028">
		<tag k="name" v="Hære" />
		<tag k="place" v="farm" />
		<tag k="ssr:stedsnr" v="429721" />
	</node>
	<node id="-186334" lat="59.8508972225" lon="9.84605555272">
		<tag k="name" v="Li" />
		<tag k="place" v="farm" />
		<tag k="ssr:stedsnr" v="429720" />
	</node>
	<node id="-186331" lat="59.8395166682" lon="9.90469722509">
		<tag k="alt_name" v="Dramdal" />
		<tag k="name" v="Nedre Dramdal" />
		<tag k="place" v="farm" />
		<tag k="ssr:stedsnr" v="429677" />
	</node>
	<node id="-186329" lat="59.8588611128" lon="9.82236111161">
		<tag k="name" v="Slottet" />
		<tag k="place" v="farm" />
		<tag k="ssr:stedsnr" v="429623" />
	</node>
	<node id="-186328" lat="59.8731777767" lon="9.91502777666">
		<tag k="name" v="Verp" />
		<tag k="place" v="farm" />
		<tag k="ssr:stedsnr" v="429616" />
	</node>
	<node id="-186323" lat="59.8029277792" lon="9.84100555917">
		<tag k="name" v="Stenset" />
		<tag k="place" v="farm" />
		<tag k="ssr:stedsnr" v="429535" />
	</node>
	<node id="-186321" lat="59.7551250018" lon="9.92486110622">
		<tag k="alt_name" v="Lo" />
		<tag k="fixme" v="consider place=hamlet" />
		<tag k="name" v="Vestre Lo" />
		<tag k="place" v="farm" />
		<tag k="ssr:stedsnr" v="429485" />
	</node>
	<node id="-186320" lat="59.7997527781" lon="9.77995278179">
		<tag k="name" v="Grøslandsetra" />
		<tag k="place" v="isolated_dwelling" />
		<tag k="ssr:stedsnr" v="429479" />
	</node>
	<node id="-186319" lat="59.8240111144" lon="9.974794438">
		<tag k="name" v="Øvervollen" />
		<tag k="place" v="isolated_dwelling" />
		<tag k="ssr:stedsnr" v="429188" />
	</node>
	<node id="-186318" lat="59.7371444403" lon="9.89563055712">
		<tag k="name" v="Røkeberg" />
		<tag k="place" v="hamlet" />
		<tag k="ssr:stedsnr" v="428661" />
	</node>
	<node id="-186316" lat="59.7199916677" lon="9.85908056026">
		<tag k="fixme" v="multiple name tags, choose one and add the other to alt_name" />
		<tag k="name" v="Foss;Petraborg" />
		<tag k="place" v="farm" />
		<tag k="ssr:stedsnr" v="428615" />
	</node>
	<node id="-186315" lat="59.7130416649" lon="9.90467499961">
		<tag k="alt_name" v="Svensrud" />
		<tag k="name" v="Søndre Svendsrud" />
		<tag k="place" v="isolated_dwelling" />
		<tag k="ssr:stedsnr" v="428611" />
	</node>
	<node id="-186312" lat="59.6991416685" lon="9.77371945122">
		<tag k="name" v="Nyrud" />
		<tag k="place" v="farm" />
		<tag k="ssr:stedsnr" v="428578" />
	</node>
	<node id="-186311" lat="59.769299996" lon="9.73195832663">
		<tag k="historic" v="shieling" />
		<tag k="name" v="Svartskurden" />
		<tag k="place" v="locality" />
		<tag k="ssr:stedsnr" v="428574" />
	</node>
	<node id="-186310" lat="59.6924305555" lon="9.7382861142">
		<tag k="name" v="Bråten" />
		<tag k="place" v="farm" />
		<tag k="ssr:stedsnr" v="428570" />
	</node>
	<node id="-186309" lat="59.7826416659" lon="9.91061943867">
		<tag k="alt_name" v="Midtre Hobbelstad" />
		<tag k="name" v="Hobbelstad" />
		<tag k="place" v="farm" />
		<tag k="ssr:stedsnr" v="428568" />
	</node>
	<node id="-186308" lat="59.7832111087" lon="9.89925833682">
		<tag k="name" v="Hellefoss" />
		<tag k="place" v="isolated_dwelling" />
		<tag k="ssr:stedsnr" v="428567" />
	</node>
	<node id="-186307" lat="59.6919694406" lon="9.81459167432">
		<tag k="name" v="Råen" />
		<tag k="place" v="farm" />
		<tag k="ssr:stedsnr" v="428566" />
	</node>
	<node id="-186306" lat="59.7771583336" lon="9.92103332558">
		<tag k="fixme" v="consider place=hamlet" />
		<tag k="name" v="Lerberg" />
		<tag k="place" v="farm" />
		<tag k="ssr:stedsnr" v="428563" />
	</node>
	<node id="-186305" lat="59.7798111124" lon="9.85577222338">
		<tag k="name" v="Haugen" />
		<tag k="place" v="farm" />
		<tag k="ssr:stedsnr" v="428554" />
	</node>
	<node id="-186304" lat="59.7806083364" lon="9.83849999579">
		<tag k="fixme" v="consider place=hamlet" />
		<tag k="name" v="Stuverud" />
		<tag k="place" v="farm" />
		<tag k="ssr:stedsnr" v="428552" />
	</node>
	<node id="-186303" lat="59.6778777823" lon="9.95001944226">
		<tag k="alt_name" v="Søndre Østerudsetra" />
		<tag k="name" v="Søndre Østerudseter" />
		<tag k="place" v="isolated_dwelling" />
		<tag k="ssr:stedsnr" v="428539" />
	</node>
	<node id="-186302" lat="59.6843083321" lon="9.85317500605">
		<tag k="name" v="Baksteval" />
		<tag k="place" v="farm" />
		<tag k="ssr:stedsnr" v="428537" />
	</node>
	<node id="-186301" lat="59.810072225" lon="9.84887500785">
		<tag k="name" v="Myre" />
		<tag k="place" v="farm" />
		<tag k="ssr:stedsnr" v="428513" />
	</node>
	<node id="-186300" lat="59.8114999991" lon="9.8820249966">
		<tag k="name" v="Burud" />
		<tag k="place" v="hamlet" />
		<tag k="ssr:stedsnr" v="428511" />
	</node>
	<node id="-186294" lat="59.8794916681" lon="9.91957222818">
		<tag k="name" v="Skreppen" />
		<tag k="place" v="farm" />
		<tag k="ssr:stedsnr" v="421913" />
	</node>
	<node id="-186290" lat="59.728408329" lon="9.87967778158">
		<tag k="name" v="Hedenstad" />
		<tag k="place" v="farm" />
		<tag k="ssr:stedsnr" v="268253" />
	</node>
	<node id="-186289" lat="59.7403527757" lon="9.88746666894">
		<tag k="name" v="Vålen" />
		<tag k="place" v="farm" />
		<tag k="ssr:stedsnr" v="268249" />
	</node>
	<node id="-186287" lat="59.7490750008" lon="9.86478332549">
		<tag k="name" v="Berg" />
		<tag k="place" v="farm" />
		<tag k="ssr:stedsnr" v="268034" />
	</node>
	<node id="-186285" lat="59.6225333368" lon="9.91185554818">
		<tag k="historic" v="shieling" />
		<tag k="name" v="Blikktjernsetra" />
		<tag k="place" v="locality" />
		<tag k="ssr:stedsnr" v="267894" />
	</node>
	<node id="-186284" lat="59.6980805577" lon="9.79917499599">
		<tag k="name" v="Darbu" />
		<tag k="place" v="hamlet" />
		<tag k="ssr:stedsnr" v="267189" />
	</node>
	<node id="-186283" lat="59.6532611126" lon="9.98484445142">
		<tag k="loc_name" v="Hamborgplassen" />
		<tag k="name" v="Tryterudplassen" />
		<tag k="place" v="isolated_dwelling" />
		<tag k="ssr:stedsnr" v="267135" />
	</node>
	<node id="-186281" lat="59.7079749994" lon="9.68898611912">
		<tag k="historic" v="shieling" />
		<tag k="name" v="Knipen" />
		<tag k="place" v="locality" />
		<tag k="ssr:stedsnr" v="266951" />
	</node>
	<node id="-186280" lat="59.7771638904" lon="9.93167499958">
		<tag k="name" v="Nordre Haga" />
		<tag k="place" v="farm" />
		<tag k="ssr:stedsnr" v="265773" />
	</node>
	<node id="-186273" lat="59.752527775" lon="9.869755557">
		<tag k="name" v="Skjøl" />
		<tag k="place" v="farm" />
		<tag k="ssr:stedsnr" v="247562" />
	</node>
	<node id="-186272" lat="59.7871611075" lon="9.89267222599">
		<tag k="name" v="Holmen" />
		<tag k="place" v="isolated_dwelling" />
		<tag k="ssr:stedsnr" v="247504" />
	</node>
	<node id="-186271" lat="59.7946805548" lon="9.83108054689">
		<tag k="name" v="Nordre Grøsland" />
		<tag k="place" v="farm" />
		<tag k="ssr:stedsnr" v="247489" />
	</node>
	<node id="-186268" lat="59.7964666704" lon="9.9005361184">
		<tag k="alt_name" v="Langerud" />
		<tag k="name" v="Midtre Langerud" />
		<tag k="place" v="farm" />
		<tag k="ssr:stedsnr" v="247485" />
	</node>
	<node id="-186267" lat="59.8671416663" lon="9.97712777747">
		<tag k="alt_name" v="Nygard" />
		<tag k="name" v="Nygård" />
		<tag k="place" v="isolated_dwelling" />
		<tag k="ssr:stedsnr" v="247329" />
	</node>
	<node id="-186264" lat="59.7465833337" lon="9.95797776957">
		<tag k="name" v="Hovland" />
		<tag k="place" v="farm" />
		<tag k="ssr:stedsnr" v="246663" />
	</node>
	<node id="-186263" lat="59.7435277774" lon="9.85011111906">
		<tag k="name" v="Hals" />
		<tag k="place" v="farm" />
		<tag k="ssr:stedsnr" v="246657" />
	</node>
	<node id="-186259" lat="59.7176055589" lon="9.87238889736">
		<tag k="name" v="Såsen" />
		<tag k="place" v="farm" />
		<tag k="ssr:stedsnr" v="246612" />
	</node>
	<node id="-186258" lat="59.703674655" lon="9.7009950059">
		<tag k="fixme" v="consider place=hamlet" />
		<tag k="name" v="Biring" />
		<tag k="place" v="farm" />
		<tag k="ssr:stedsnr" v="246605" />
	</node>
	<node id="-186256" lat="59.7720583377" lon="9.95253610777">
		<tag k="alt_name" v="Horgen" />
		<tag k="name" v="Nordre Horgen" />
		<tag k="place" v="farm" />
		<tag k="ssr:stedsnr" v="246585" />
	</node>
	<node id="-186255" lat="59.6925000025" lon="9.75452500581">
		<tag k="name" v="Bakken" />
		<tag k="place" v="farm" />
		<tag k="ssr:stedsnr" v="246573" />
	</node>
	<node id="-186254" lat="59.6936694486" lon="9.68306111731">
		<tag k="name" v="Spennillen" />
		<tag k="place" v="farm" />
		<tag k="ssr:stedsnr" v="246568" />
	</node>
	<node id="-186253" lat="59.7761277796" lon="9.88768332653">
		<tag k="name" v="Hoen" />
		<tag k="place" v="hamlet" />
		<tag k="ssr:stedsnr" v="246558" />
	</node>
	<node id="-186251" lat="59.6579999992" lon="9.95669722534">
		<tag k="alt_name" v="Storekleiv" />
		<tag k="name" v="Storkleiv" />
		<tag k="place" v="isolated_dwelling" />
		<tag k="ssr:stedsnr" v="246529" />
	</node>
	<node id="-186248" lat="59.8124888911" lon="9.86423888375">
		<tag k="name" v="Tronrud" />
		<tag k="place" v="farm" />
		<tag k="ssr:stedsnr" v="246514" />
	</node>
	<node id="-186246" lat="59.8152749999" lon="9.81701667391">
		<tag k="fixme" v="multiple name tags, choose one and add the other to alt_name" />
		<tag k="name" v="Myrespiten;Spiten" />
		<tag k="place" v="locality" />
		<tag k="ssr:stedsnr" v="246503" />
	</node>
	<node id="-186243" lat="59.7363499978" lon="9.85836111468">
		<tag k="alt_name" v="Fåsen" />
		<tag k="name" v="Øvre Fåsen" />
		<tag k="place" v="farm" />
		<tag k="ssr:stedsnr" v="245656" />
	</node>
	<node id="-186242" lat="59.7251833329" lon="9.86565000252">
		<tag k="name" v="Foss" />
		<tag k="place" v="farm" />
		<tag k="ssr:stedsnr" v="245646" />
	</node>
	<node id="-186241" lat="59.7283777788" lon="9.84544166106">
		<tag k="name" v="Lunde" />
		<tag k="place" v="hamlet" />
		<tag k="ssr:stedsnr" v="245643" />
	</node>
	<node id="-186240" lat="59.6631750014" lon="9.74984444044">
		<tag k="name" v="Pinsle" />
		<tag k="place" v="farm" />
		<tag k="ssr:stedsnr" v="245552" />
	</node>
	<node id="-186238" lat="59.8520527804" lon="9.88001665917">
		<tag k="name" v="Bråtan" />
		<tag k="place" v="isolated_dwelling" />
		<tag k="ssr:stedsnr" v="269064" />
	</node>
	<node id="-186235" lat="59.7736000045" lon="9.83245278452">
		<tag k="name" v="Brakstadløkka" />
		<tag k="place" v="isolated_dwelling" />
		<tag k="ssr:stedsnr" v="268971" />
	</node>
	<node id="-186234" lat="59.7852388888" lon="9.85235277201">
		<tag k="name" v="Haukerud" />
		<tag k="place" v="isolated_dwelling" />
		<tag k="ssr:stedsnr" v="268969" />
	</node>
	<node id="-186232" lat="59.7062840669" lon="9.70627326522">
		<tag k="name" v="Grønnli" />
		<tag k="place" v="isolated_dwelling" />
		<tag k="ssr:stedsnr" v="210855" />
	</node>
	<node id="-186230" lat="59.6886416681" lon="9.89237778303">
		<tag k="name" v="Hamre" />
		<tag k="place" v="farm" />
		<tag k="ssr:stedsnr" v="210713" />
	</node>
	<node id="-186227" lat="59.6594111139" lon="9.85577499308">
		<tag k="name" v="Karstjernstua" />
		<tag k="place" v="isolated_dwelling" />
		<tag k="ssr:stedsnr" v="210595" />
	</node>
	<node id="-186218" lat="59.8517194462" lon="9.91713610238">
		<tag k="name" v="Skarberg" />
		<tag k="place" v="isolated_dwelling" />
		<tag k="ssr:stedsnr" v="208994" />
	</node>
	<node id="-186217" lat="59.8016861098" lon="9.8062999976">
		<tag k="name" v="Torvhytta" />
		<tag k="place" v="isolated_dwelling" />
		<tag k="ssr:stedsnr" v="208926" />
	</node>
	<node id="-186212" lat="59.7922305573" lon="9.7618000024">
		<tag k="name" v="Nyvollen" />
		<tag k="place" v="isolated_dwelling" />
		<tag k="ssr:stedsnr" v="208783" />
	</node>
	<node id="-186210" lat="59.8462416665" lon="9.86847777467">
		<tag k="name" v="Hære" />
		<tag k="place" v="farm" />
		<tag k="ssr:stedsnr" v="208691" />
	</node>
	<node id="-186209" lat="59.6906722249" lon="9.70968054894">
		<tag k="name" v="Øvre Fiskeløs" />
		<tag k="place" v="isolated_dwelling" />
		<tag k="ssr:stedsnr" v="208689" />
	</node>
	<node id="-186207" lat="59.8101833322" lon="9.83588055475">
		<tag k="name" v="Piggerud" />
		<tag k="place" v="isolated_dwelling" />
		<tag k="ssr:stedsnr" v="208671" />
	</node>
	<node id="-186203" lat="59.8406194449" lon="9.90013889596">
		<tag k="name" v="Kjemperud" />
		<tag k="place" v="isolated_dwelling" />
		<tag k="ssr:stedsnr" v="208548" />
	</node>
	<node id="-186202" lat="59.7237055555" lon="9.87860556341">
		<tag k="name" v="Besseberg" />
		<tag k="place" v="farm" />
		<tag k="ssr:stedsnr" v="208282" />
	</node>
	<node id="-186199" lat="59.7830722253" lon="9.85298055124">
		<tag k="name" v="Østre Kåsa" />
		<tag k="place" v="farm" />
		<tag k="ssr:stedsnr" v="207940" />
	</node>
	<node id="-186198" lat="59.8066444471" lon="9.90038610504">
		<tag k="name" v="Kolbrek" />
		<tag k="place" v="farm" />
		<tag k="ssr:stedsnr" v="207679" />
	</node>
	<node id="-186196" lat="59.8393583304" lon="9.85335277065">
		<tag k="name" v="Søndre Holte" />
		<tag k="place" v="farm" />
		<tag k="ssr:stedsnr" v="207641" />
	</node>
	<node id="-186195" lat="59.8489194444" lon="9.84839166614">
		<tag k="name" v="Li" />
		<tag k="place" v="farm" />
		<tag k="ssr:stedsnr" v="207638" />
	</node>
	<node id="-186185" lat="59.7037888899" lon="9.69134722202">
		<tag k="historic" v="shieling" />
		<tag k="name" v="Brudevollen" />
		<tag k="place" v="locality" />
		<tag k="ssr:stedsnr" v="205972" />
	</node>
	<node id="-186184" lat="59.7605444415" lon="9.93990000745">
		<tag k="name" v="Moen" />
		<tag k="place" v="farm" />
		<tag k="ssr:stedsnr" v="205737" />
	</node>
	<node id="-186180" lat="59.8522277815" lon="9.72388332768">
		<tag k="historic" v="shieling" />
		<tag k="name" v="Vestbysetra" />
		<tag k="place" v="locality" />
		<tag k="ssr:stedsnr" v="186757" />
	</node>
	<node id="-186176" lat="59.755041666" lon="9.86165277602">
		<tag k="name" v="Øverås" />
		<tag k="place" v="farm" />
		<tag k="ssr:stedsnr" v="186638" />
	</node>
	<node id="-186174" lat="59.7618027743" lon="9.84411388912">
		<tag k="name" v="Grefsrud" />
		<tag k="place" v="farm" />
		<tag k="ssr:stedsnr" v="186621" />
	</node>
	<node id="-186173" lat="59.8057249955" lon="9.86145277805">
		<tag k="name" v="Lien" />
		<tag k="place" v="farm" />
		<tag k="ssr:stedsnr" v="186605" />
	</node>
	<node id="-186172" lat="59.8901638889" lon="9.70145832776">
		<tag k="name" v="Steffensetra" />
		<tag k="place" v="isolated_dwelling" />
		<tag k="ssr:stedsnr" v="186689" />
	</node>
	<node id="-186171" lat="59.8616499994" lon="9.72978333402">
		<tag k="historic" v="shieling" />
		<tag k="name" v="Sørlisetra" />
		<tag k="place" v="locality" />
		<tag k="ssr:stedsnr" v="186680" />
	</node>
	<node id="-186169" lat="59.8162250032" lon="9.8981916722">
		<tag k="name" v="Kverk" />
		<tag k="place" v="farm" />
		<tag k="ssr:stedsnr" v="186585" />
	</node>
	<node id="-186164" lat="59.7346611155" lon="9.95205556145">
		<tag k="name" v="Haugerud" />
		<tag k="place" v="farm" />
		<tag k="ssr:stedsnr" v="185647" />
	</node>
	<node id="-186163" lat="59.7308944405" lon="9.90848055201">
		<tag k="alt_name" v="Hole" />
		<tag k="name" v="Skjelsbekk" />
		<tag k="place" v="farm" />
		<tag k="ssr:stedsnr" v="185646" />
	</node>
	<node id="-186162" lat="59.7327944417" lon="9.79820555195">
		<tag k="alt_name" v="Lundemarka" />
		<tag k="name" v="Lonemarka" />
		<tag k="place" v="isolated_dwelling" />
		<tag k="ssr:stedsnr" v="185642" />
	</node>
	<node id="-186161" lat="59.7221888877" lon="9.87444445323">
		<tag k="name" v="Såsen" />
		<tag k="place" v="farm" />
		<tag k="ssr:stedsnr" v="185625" />
	</node>
	<node id="-186160" lat="59.7770500031" lon="9.93170555751">
		<tag k="alt_name" v="Haga" />
		<tag k="name" v="Nordre Haga" />
		<tag k="place" v="farm" />
		<tag k="ssr:stedsnr" v="185548" />
	</node>
	<node id="-186159" lat="59.6775833306" lon="9.92668055718">
		<tag k="name" v="Tørrbekk" />
		<tag k="place" v="isolated_dwelling" />
		<tag k="ssr:stedsnr" v="185530" />
	</node>
	<node id="-186158" lat="59.6705055571" lon="9.70828055285">
		<tag k="name" v="Myra" />
		<tag k="place" v="farm" />
		<tag k="ssr:stedsnr" v="185523" />
	</node>
	<node id="-186155" lat="59.6555916708" lon="9.8359416599">
		<tag k="name" v="Gamlevollen" />
		<tag k="place" v="isolated_dwelling" />
		<tag k="ssr:stedsnr" v="185499" />
	</node>
	<node id="-186151" lat="59.825508332" lon="9.86397778646">
		<tag k="name" v="Kuland" />
		<tag k="place" v="farm" />
		<tag k="ssr:stedsnr" v="185688" />
	</node>
	<node id="-186150" lat="59.7483500004" lon="9.91771110283">
		<tag k="name" v="Skogro" />
		<tag k="place" v="farm" />
		<tag k="ssr:stedsnr" v="185662" />
	</node>
	<node id="-186149" lat="59.701224996" lon="9.84511111588">
		<tag k="name" v="Sundet" />
		<tag k="place" v="farm" />
		<tag k="ssr:stedsnr" v="185574" />
	</node>
	<node id="-186144" lat="59.6934361069" lon="9.81995556185">
		<tag k="name" v="Råen" />
		<tag k="place" v="farm" />
		<tag k="ssr:stedsnr" v="185002" />
	</node>
	<node id="-186134" lat="59.8263999987" lon="9.88739721952">
		<tag k="name" v="Skott" />
		<tag k="place" v="farm" />
		<tag k="ssr:stedsnr" v="161078" />
	</node>
	<node id="-186126" lat="59.829877775" lon="9.77649443869">
		<tag k="historic" v="shieling" />
		<tag k="name" v="Harstadsetra" />
		<tag k="place" v="locality" />
		<tag k="ssr:stedsnr" v="149617" />
	</node>
	<node id="-186124" lat="59.6894861149" lon="9.84164444343">
		<tag k="name" v="Bollerud" />
		<tag k="place" v="farm" />
		<tag k="ssr:stedsnr" v="149515" />
	</node>
	<node id="-186122" lat="59.6857250037" lon="9.73433055767">
		<tag k="amenity" v="school" />
		<tag k="name" v="Skogen" />
		<tag k="ssr:stedsnr" v="148674" />
	</node>
	<node id="-186121" lat="59.7108416669" lon="9.95273333272">
		<tag k="name" v="Svingelen" />
		<tag k="place" v="locality" />
		<tag k="ssr:stedsnr" v="148527" />
	</node>
	<node id="-186116" lat="59.789541668" lon="9.90126944941">
		<tag k="name" v="Vendelborg" />
		<tag k="place" v="isolated_dwelling" />
		<tag k="ssr:stedsnr" v="147993" />
	</node>
	<node id="-186115" lat="59.7883138889" lon="9.90325555138">
		<tag k="name" v="Ulleren" />
		<tag k="place" v="quarter" />
		<tag k="ssr:stedsnr" v="147990" />
	</node>
	<node id="-186114" lat="59.8016861098" lon="9.8062999976">
		<tag k="name" v="Tippen" />
		<tag k="place" v="isolated_dwelling" />
		<tag k="ssr:stedsnr" v="147928" />
	</node>
	<node id="-186113" lat="59.7863777811" lon="9.82379723088">
		<tag k="name" v="Bermingrud" />
		<tag k="place" v="farm" />
		<tag k="ssr:stedsnr" v="147904" />
	</node>
	<node id="-186111" lat="59.7731194422" lon="9.90357777655">
		<tag k="amenity" v="school" />
		<tag k="name" v="Hokksund gymnas" />
		<tag k="ssr:stedsnr" v="147814" />
	</node>
	<node id="-186109" lat="59.7831111098" lon="9.87873055277">
		<tag k="fixme" v="consider place=hamlet" />
		<tag k="name" v="Skotsmoen" />
		<tag k="place" v="village" />
		<tag k="ssr:stedsnr" v="147678" />
	</node>
	<node id="-186106" lat="59.8198805542" lon="9.89385833979">
		<tag k="name" v="Kåsa" />
		<tag k="place" v="isolated_dwelling" />
		<tag k="ssr:stedsnr" v="147614" />
	</node>
	<node id="-186105" lat="59.8516555528" lon="9.92264999925">
		<tag k="alt_name" v="Kolbjørnsrud Vestre" />
		<tag k="name" v="Vestre Kolbjørnsrud" />
		<tag k="place" v="farm" />
		<tag k="ssr:stedsnr" v="147613" />
	</node>
	<node id="-186102" lat="59.7282194479" lon="9.84142778046">
		<tag k="alt_name" v="Lundebakken" />
		<tag k="name" v="Lunde-Skarra" />
		<tag k="place" v="farm" />
		<tag k="ssr:stedsnr" v="147439" />
	</node>
	<node id="-186100" lat="59.8576277821" lon="9.88433611415">
		<tag k="name" v="Dalebråten" />
		<tag k="place" v="farm" />
		<tag k="ssr:stedsnr" v="147060" />
	</node>
	<node id="-186095" lat="59.8885277769" lon="9.76386110515">
		<tag k="amenity" v="school" />
		<tag k="name" v="Sønju skole" />
		<tag k="ssr:stedsnr" v="146438" />
	</node>
	<node id="-186094" lat="59.8783083339" lon="9.77683333636">
		<tag k="name" v="Benteplassen" />
		<tag k="place" v="farm" />
		<tag k="ssr:stedsnr" v="146426" />
	</node>
	<node id="-186088" lat="59.7031305533" lon="9.80737777813">
		<tag k="name" v="Darbu" />
		<tag k="place" v="farm" />
		<tag k="ssr:stedsnr" v="145586" />
	</node>
	<node id="-186087" lat="59.6534583353" lon="9.77527777431">
		<tag k="name" v="Berganhytta" />
		<tag k="place" v="isolated_dwelling" />
		<tag k="ssr:stedsnr" v="145549" />
	</node>
	<node id="-186084" lat="59.7059166627" lon="9.69376666133">
		<tag k="amenity" v="school" />
		<tag k="name" v="Lurdalen skole" />
		<tag k="ssr:stedsnr" v="144954" />
	</node>
	<node id="-186083" lat="59.7717166703" lon="9.94768055706">
		<tag k="name" v="Eikerstua" />
		<tag k="ssr:stedsnr" v="144727" />
		<tag k="tourism" v="guest_house" />
	</node>
	<node id="-186082" lat="59.7830444479" lon="9.93215833596">
		<tag k="leisure" v="pitch" />
		<tag k="name" v="Harakollen" />
		<tag k="ssr:stedsnr" v="144724" />
	</node>
	<node id="-186079" lat="59.8879055548" lon="9.75603611836">
		<tag k="name" v="Hestebråten" />
		<tag k="place" v="farm" />
		<tag k="ssr:stedsnr" v="268488" />
	</node>
	<node id="-186078" lat="59.7534083313" lon="9.88608054769">
		<tag k="name" v="Sem" />
		<tag k="place" v="farm" />
		<tag k="ssr:stedsnr" v="126511" />
	</node>
	<node id="-186076" lat="59.8939805583" lon="9.73588888504">
		<tag k="alt_name" v="Øgården" />
		<tag k="name" v="Ødegården" />
		<tag k="place" v="farm" />
		<tag k="ssr:stedsnr" v="125840" />
	</node>
	<node id="-186073" lat="59.8213250016" lon="9.93517777253">
		<tag k="name" v="Gramvollen" />
		<tag k="place" v="isolated_dwelling" />
		<tag k="ssr:stedsnr" v="125724" />
	</node>
	<node id="-186072" lat="59.8275055528" lon="9.87623333894">
		<tag k="name" v="Stormoen" />
		<tag k="place" v="farm" />
		<tag k="ssr:stedsnr" v="125721" />
	</node>
	<node id="-186069" lat="59.8339166702" lon="9.91330278315">
		<tag k="alt_name" v="Dramdal" />
		<tag k="name" v="Øvre Dramdal" />
		<tag k="place" v="farm" />
		<tag k="ssr:stedsnr" v="125707" />
	</node>
	<node id="-186068" lat="59.7568972245" lon="9.86970834074">
		<tag k="name" v="Ås" />
		<tag k="place" v="farm" />
		<tag k="ssr:stedsnr" v="125590" />
	</node>
	<node id="-186065" lat="59.7710138921" lon="9.89178334075">
		<tag k="fixme" v="multiple name tags, choose one and add the other to alt_name" />
		<tag k="name" v="Sundmoen;Sundt" />
		<tag k="place" v="farm" />
		<tag k="ssr:stedsnr" v="125642" />
	</node>
	<node id="-186062" lat="59.7690999995" lon="9.84282221757">
		<tag k="name" v="Gorud" />
		<tag k="place" v="farm" />
		<tag k="ssr:stedsnr" v="125635" />
	</node>
	<node id="-186059" lat="59.788366669" lon="9.83119165832">
		<tag k="name" v="Bermingrud" />
		<tag k="place" v="farm" />
		<tag k="ssr:stedsnr" v="125535" />
	</node>
	<node id="-186057" lat="59.7971166671" lon="9.83331666779">
		<tag k="name" v="Solberg" />
		<tag k="place" v="farm" />
		<tag k="ssr:stedsnr" v="125524" />
	</node>
	<node id="-186054" lat="59.7966111085" lon="9.75024444758">
		<tag k="name" v="Skomakerplassen" />
		<tag k="place" v="isolated_dwelling" />
		<tag k="ssr:stedsnr" v="125514" />
	</node>
	<node id="-186050" lat="59.7413305566" lon="9.86821943626">
		<tag k="alt_name" v="Fåsen" />
		<tag k="name" v="Øvre Fåsen" />
		<tag k="place" v="farm" />
		<tag k="ssr:stedsnr" v="124649" />
	</node>
	<node id="-186049" lat="59.7421888863" lon="9.91131388516">
		<tag k="name" v="Dramsrud" />
		<tag k="place" v="farm" />
		<tag k="ssr:stedsnr" v="124645" />
	</node>
	<node id="-186048" lat="59.7333472223" lon="9.68940277954">
		<tag k="name" v="Storemyr" />
		<tag k="place" v="isolated_dwelling" />
		<tag k="ssr:stedsnr" v="124617" />
	</node>
	<node id="-186047" lat="59.7294333349" lon="9.88697499538">
		<tag k="building" v="industrial" />
		<tag k="industrial" v="factory" />
		<tag k="name" v="Fredfoss" />
		<tag k="ssr:stedsnr" v="124609" />
	</node>
	<node id="-186043" lat="59.7102305545" lon="9.86611666258">
		<tag k="name" v="Åsen" />
		<tag k="place" v="farm" />
		<tag k="ssr:stedsnr" v="124561" />
	</node>
	<node id="-186042" lat="59.7058666638" lon="9.79340556275">
		<tag k="name" v="Bjørke" />
		<tag k="place" v="farm" />
		<tag k="ssr:stedsnr" v="124557" />
	</node>
	<node id="-186041" lat="59.6872194428" lon="9.67847500046">
		<tag k="name" v="Grinderud" />
		<tag k="place" v="farm" />
		<tag k="ssr:stedsnr" v="124536" />
	</node>
	<node id="-186040" lat="59.6949638907" lon="9.76625556166">
		<tag k="alt_name" v="Gulliksrud" />
		<tag k="name" v="Nordre Gulliksrud" />
		<tag k="place" v="farm" />
		<tag k="ssr:stedsnr" v="124534" />
	</node>
	<node id="-186039" lat="59.6818388892" lon="9.75499445277">
		<tag k="name" v="Søndre Kofstad" />
		<tag k="place" v="farm" />
		<tag k="ssr:stedsnr" v="124527" />
	</node>
	<node id="-186038" lat="59.6833277795" lon="9.89339166692">
		<tag k="alt_name" v="Hamreenga" />
		<tag k="name" v="Hamretangen" />
		<tag k="place" v="farm" />
		<tag k="ssr:stedsnr" v="124521" />
	</node>
	<node id="-186037" lat="59.6737027823" lon="9.70655555124">
		<tag k="alt_name" v="Sætra" />
		<tag k="name" v="Seteren" />
		<tag k="place" v="farm" />
		<tag k="ssr:stedsnr" v="124518" />
	</node>
	<node id="-186036" lat="59.6726944473" lon="9.74566388893">
		<tag k="name" v="Basserud" />
		<tag k="place" v="farm" />
		<tag k="ssr:stedsnr" v="124515" />
	</node>
	<node id="-186035" lat="59.6777277805" lon="9.70282777769">
		<tag k="name" v="Korsbakken" />
		<tag k="place" v="farm" />
		<tag k="ssr:stedsnr" v="124516" />
	</node>
	<node id="-186030" lat="59.6465083363" lon="9.98284722501">
		<tag k="name" v="Tryterud" />
		<tag k="place" v="farm" />
		<tag k="ssr:stedsnr" v="124157" />
	</node>
	<node id="-186028" lat="59.7707666711" lon="9.90986666522">
		<tag k="name" v="Hokksund" />
		<tag k="place" v="town" />
		<tag k="ssr:stedsnr" v="117254" />
	</node>
	<node id="-186024" lat="59.8733349635" lon="9.81578231792">
		<tag k="name" v="Jaren" />
		<tag k="place" v="farm" />
		<tag k="ssr:stedsnr" v="100455" />
	</node>
	<node id="-186020" lat="59.7169138874" lon="9.92179721494">
		<tag k="name" v="Feriehjem" />
		<tag k="place" v="isolated_dwelling" />
		<tag k="ssr:stedsnr" v="89320" />
	</node>
	<node id="-186019" lat="59.7949055512" lon="9.89951666984">
		<tag k="name" v="Søndre Langerud" />
		<tag k="place" v="farm" />
		<tag k="ssr:stedsnr" v="88699" />
	</node>
	<node id="-186016" lat="59.7158666649" lon="9.96171666798">
		<tag k="name" v="Hornvollen" />
		<tag k="place" v="isolated_dwelling" />
		<tag k="ssr:stedsnr" v="88413" />
	</node>
	<node id="-186010" lat="59.8059749965" lon="9.86045555249">
		<tag k="name" v="Åsen" />
		<tag k="place" v="isolated_dwelling" />
		<tag k="ssr:stedsnr" v="87914" />
	</node>
	<node id="-186008" lat="59.7356416624" lon="9.69761667136">
		<tag k="name" v="Gåsum" />
		<tag k="place" v="isolated_dwelling" />
		<tag k="ssr:stedsnr" v="87873" />
	</node>
	<node id="-186007" lat="59.7710666628" lon="9.88026389358">
		<tag k="amenity" v="school" />
		<tag k="name" v="Røren skole" />
		<tag k="ssr:stedsnr" v="87860" />
	</node>
	<node id="-186006" lat="59.8219472254" lon="9.91461667136">
		<tag k="name" v="Skar" />
		<tag k="place" v="farm" />
		<tag k="ssr:stedsnr" v="87715" />
	</node>
	<node id="-186004" lat="59.603805559" lon="9.90832221744">
		<tag k="name" v="Tistillstua" />
		<tag k="place" v="isolated_dwelling" />
		<tag k="ssr:stedsnr" v="87513" />
	</node>
	<node id="-185999" lat="59.8557361119" lon="9.91764721542">
		<tag k="name" v="Stolpestad" />
		<tag k="place" v="farm" />
		<tag k="ssr:stedsnr" v="86994" />
	</node>
	<node id="-185998" lat="59.7761666686" lon="9.86234443761">
		<tag k="name" v="Røren" />
		<tag k="place" v="farm" />
		<tag k="ssr:stedsnr" v="86978" />
	</node>
	<node id="-185996" lat="59.8634416707" lon="10.0219249999">
		<tag k="name" v="Elsebu" />
		<tag k="place" v="isolated_dwelling" />
		<tag k="ssr:stedsnr" v="86659" />
	</node>
	<node id="-185992" lat="59.8428222192" lon="10.0054305577">
		<tag k="name" v="Dypingstua" />
		<tag k="place" v="isolated_dwelling" />
		<tag k="ssr:stedsnr" v="86642" />
	</node>
	<node id="-185984" lat="59.8875499995" lon="9.7810888828">
		<tag k="name" v="Framsønju" />
		<tag k="place" v="farm" />
		<tag k="ssr:stedsnr" v="86482" />
	</node>
	<node id="-185981" lat="59.7334555577" lon="9.94115555661">
		<tag k="name" v="Helgerudplassen" />
		<tag k="place" v="farm" />
		<tag k="ssr:stedsnr" v="86339" />
	</node>
	<node id="-185980" lat="59.7379611136" lon="9.94558333022">
		<tag k="name" v="Stenshorne" />
		<tag k="place" v="farm" />
		<tag k="ssr:stedsnr" v="86324" />
	</node>
	<node id="-185975" lat="59.693477777" lon="9.76297777508">
		<tag k="name" v="Søndre Gulliksrud" />
		<tag k="place" v="farm" />
		<tag k="ssr:stedsnr" v="85590" />
	</node>
	<node id="-185974" lat="59.7010333344" lon="9.78123332885">
		<tag k="name" v="Dunserud" />
		<tag k="place" v="farm" />
		<tag k="ssr:stedsnr" v="85514" />
	</node>
	<node id="-185973" lat="59.7709805569" lon="9.95546388679">
		<tag k="building" v="industrial" />
		<tag k="industrial" v="factory" />
		<tag k="name" v="Isovator" />
		<tag k="ssr:stedsnr" v="83749" />
	</node>
	<node id="-185971" lat="59.8450277774" lon="9.88405554949">
		<tag k="name" v="Skotselv" />
		<tag k="place" v="village" />
		<tag k="ssr:stedsnr" v="65728" />
	</node>
	<node id="-185969" lat="59.832927779" lon="9.7923861104">
		<tag k="name" v="Rakkestadsetra" />
		<tag k="place" v="isolated_dwelling" />
		<tag k="ssr:stedsnr" v="65702" />
	</node>
	<node id="-185967" lat="59.883036107" lon="9.79571388275">
		<tag k="name" v="Stuvsrud" />
		<tag k="place" v="farm" />
		<tag k="ssr:stedsnr" v="65670" />
	</node>
	<node id="-185965" lat="59.8619555578" lon="9.85511388007">
		<tag k="alt_name" v="Lobben" />
		<tag k="name" v="Øvre Lobben" />
		<tag k="place" v="farm" />
		<tag k="ssr:stedsnr" v="65621" />
	</node>
	<node id="-185964" lat="59.7874916663" lon="9.75903611826">
		<tag k="name" v="Gorudvollen" />
		<tag k="place" v="farm" />
		<tag k="ssr:stedsnr" v="65510" />
	</node>
	<node id="-185961" lat="59.7401138912" lon="9.87275000548">
		<tag k="name" v="Spæren" />
		<tag k="place" v="farm" />
		<tag k="ssr:stedsnr" v="64704" />
	</node>
	<node id="-185960" lat="59.7464833335" lon="9.87345832445">
		<tag k="name" v="Spæren" />
		<tag k="place" v="farm" />
		<tag k="ssr:stedsnr" v="64702" />
	</node>
	<node id="-185958" lat="59.7423972204" lon="9.95537221824">
		<tag k="name" v="Skjoldhorne" />
		<tag k="place" v="farm" />
		<tag k="ssr:stedsnr" v="64670" />
	</node>
	<node id="-185956" lat="59.7211583368" lon="9.84187778472">
		<tag k="name" v="Måsnes" />
		<tag k="place" v="farm" />
		<tag k="ssr:stedsnr" v="64641" />
	</node>
	<node id="-185955" lat="59.7219277793" lon="9.69743055497">
		<tag k="fixme" v="multiple name tags, choose one and add the other to alt_name" />
		<tag k="name" v="Andersplassen;Myrhagen" />
		<tag k="place" v="farm" />
		<tag k="ssr:stedsnr" v="64637" />
	</node>
	<node id="-185954" lat="59.6961444473" lon="9.68694999462">
		<tag k="name" v="Tiggerud" />
		<tag k="place" v="farm" />
		<tag k="ssr:stedsnr" v="64634" />
	</node>
	<node id="-185953" lat="59.7031833297" lon="9.71005556271">
		<tag k="alt_name" v="Aspesetra" />
		<tag k="name" v="Aspeseter" />
		<tag k="place" v="farm" />
		<tag k="ssr:stedsnr" v="64630" />
	</node>
	<node id="-185952" lat="59.7052861109" lon="9.78676388263">
		<tag k="name" v="Kolsrud" />
		<tag k="place" v="farm" />
		<tag k="ssr:stedsnr" v="64614" />
	</node>
	<node id="-185951" lat="59.6873472236" lon="9.71408888113">
		<tag k="alt_name" v="Fiskeløs" />
		<tag k="name" v="Nedre Fiskeløs" />
		<tag k="place" v="farm" />
		<tag k="ssr:stedsnr" v="64604" />
	</node>
	<node id="-185948" lat="59.688899996" lon="9.88780833383">
		<tag k="name" v="Hamre" />
		<tag k="place" v="farm" />
		<tag k="ssr:stedsnr" v="64598" />
	</node>
	<node id="-185947" lat="59.692588891" lon="9.87870000496">
		<tag k="name" v="Brekke" />
		<tag k="place" v="farm" />
		<tag k="ssr:stedsnr" v="64597" />
	</node>
	<node id="-185946" lat="59.693572223" lon="9.83831111356">
		<tag k="alt_name" v="Skarud" />
		<tag k="name" v="Skarrud" />
		<tag k="place" v="farm" />
		<tag k="ssr:stedsnr" v="64593" />
	</node>
	<node id="-185939" lat="59.6759722254" lon="9.77393333862">
		<tag k="alt_name" v="Rustan" />
		<tag k="name" v="Rustaden" />
		<tag k="place" v="farm" />
		<tag k="ssr:stedsnr" v="64005" />
	</node>
	<node id="-185938" lat="59.7271194473" lon="9.88259443911">
		<tag k="name" v="Torberg" />
		<tag k="place" v="farm" />
		<tag k="ssr:stedsnr" v="63668" />
	</node>
	<node id="-185937" lat="59.7273744745" lon="9.79657179689">
		<tag k="name" v="Rogndalsbråten" />
		<tag k="place" v="farm" />
		<tag k="ssr:stedsnr" v="63665" />
	</node>
	<node id="-185936" lat="59.6745249983" lon="9.76583611386">
		<tag k="name" v="Futerud" />
		<tag k="place" v="farm" />
		<tag k="ssr:stedsnr" v="63588" />
	</node>
	<node id="-185934" lat="59.6963436288" lon="9.8026734308">
		<tag k="fixme" v="consider place=hamlet" />
		<tag k="name" v="Fiskum" />
		<tag k="place" v="farm" />
		<tag k="ssr:stedsnr" v="60617" />
	</node>
	<node id="-185920" lat="59.8469250015" lon="9.78177500313">
		<tag k="alt_name" v="Ristvedtsetra" />
		<tag k="historic" v="shieling" />
		<tag k="name" v="Ristvetsetra" />
		<tag k="old_name" v="Ristvedtsetera" />
		<tag k="place" v="locality" />
		<tag k="ssr:stedsnr" v="28643" />
	</node>
	<node id="-185919" lat="59.6732638891" lon="9.85861110947">
		<tag k="name" v="Langemyrplassen" />
		<tag k="place" v="isolated_dwelling" />
		<tag k="ssr:stedsnr" v="27585" />
	</node>
	<node id="-185918" lat="59.6655666635" lon="9.81682777357">
		<tag k="name" v="Svennehaugen" />
		<tag k="place" v="isolated_dwelling" />
		<tag k="ssr:stedsnr" v="27573" />
	</node>
	<node id="-185915" lat="59.725555555" lon="9.82729444102">
		<tag k="name" v="Skjelbred" />
		<tag k="place" v="farm" />
		<tag k="ssr:stedsnr" v="27492" />
	</node>
	<node id="-185914" lat="59.6762388866" lon="9.70189722113">
		<tag k="name" v="Korsbakken" />
		<tag k="place" v="locality" />
		<tag k="ssr:stedsnr" v="26999" />
	</node>
	<node id="-185912" lat="59.7671333356" lon="9.89676666131">
		<tag k="name" v="Frydenlund" />
		<tag k="place" v="farm" />
		<tag k="ssr:stedsnr" v="26800" />
	</node>
	<node id="-185910" lat="59.7655305586" lon="9.90040000225">
		<tag k="amenity" v="nursing_home" />
		<tag k="name" v="Eikertun" />
		<tag k="ssr:stedsnr" v="26748" />
	</node>
	<node id="-185908" lat="59.8082249972" lon="9.87219444002">
		<tag k="name" v="Hvitstein" />
		<tag k="place" v="farm" />
		<tag k="ssr:stedsnr" v="26719" />
	</node>
	<node id="-185906" lat="59.6960138887" lon="9.78723610753">
		<tag k="name" v="Anfinnsplass" />
		<tag k="place" v="farm" />
		<tag k="ssr:stedsnr" v="26680" />
	</node>
	<node id="-185905" lat="59.7727833302" lon="9.86517500583">
		<tag k="name" v="Berg" />
		<tag k="place" v="farm" />
		<tag k="ssr:stedsnr" v="26673" />
	</node>
	<node id="-185900" lat="59.768355553" lon="9.89981388724">
		<tag k="name" v="Sundmoen næringsområde" />
		<tag k="place" v="quarter" />
		<tag k="ssr:stedsnr" v="26558" />
	</node>
	<node id="-185897" lat="59.7341472226" lon="9.87458889211">
		<tag k="leisure" v="pitch" />
		<tag k="name" v="Vestfossen idrettspark" />
		<tag k="ssr:stedsnr" v="26301" />
	</node>
	<node id="-185892" lat="59.8527027796" lon="9.84071111531">
		<tag k="name" v="Li" />
		<tag k="place" v="farm" />
		<tag k="ssr:stedsnr" v="25967" />
	</node>
	<node id="-185890" lat="59.8004916637" lon="9.87736111036">
		<tag k="name" v="Furuheim" />
		<tag k="place" v="farm" />
		<tag k="ssr:stedsnr" v="25708" />
	</node>
	<node id="-185888" lat="59.8049833305" lon="9.88458888841">
		<tag k="name" v="Flataker" />
		<tag k="place" v="farm" />
		<tag k="ssr:stedsnr" v="25702" />
	</node>
	<node id="-185886" lat="59.7087249992" lon="9.7835944468">
		<tag k="name" v="Løkke" />
		<tag k="place" v="isolated_dwelling" />
		<tag k="ssr:stedsnr" v="25595" />
	</node>
	<node id="-185884" lat="59.8888083333" lon="9.74804443572">
		<tag k="name" v="Ødegård" />
		<tag k="place" v="isolated_dwelling" />
		<tag k="ssr:stedsnr" v="25474" />
	</node>
	<node id="-185883" lat="59.8873444488" lon="9.75791111387">
		<tag k="name" v="Humlehagen" />
		<tag k="place" v="farm" />
		<tag k="ssr:stedsnr" v="25471" />
	</node>
	<node id="-185882" lat="59.8883805597" lon="9.77049166599">
		<tag k="name" v="Nordsønju" />
		<tag k="place" v="farm" />
		<tag k="ssr:stedsnr" v="25464" />
	</node>
	<node id="-185881" lat="59.7359222251" lon="9.92447222356">
		<tag k="name" v="Vinsvold" />
		<tag k="place" v="farm" />
		<tag k="ssr:stedsnr" v="25330" />
	</node>
	<node id="-185875" lat="59.7006722267" lon="9.80094166572">
		<tag k="amenity" v="school" />
		<tag k="name" v="Darbu" />
		<tag k="ssr:stedsnr" v="24553" />
	</node>
	<node id="-185871" lat="59.7022805577" lon="9.68006665994">
		<tag k="name" v="Lurstein" />
		<tag k="place" v="isolated_dwelling" />
		<tag k="ssr:stedsnr" v="23970" />
	</node>
	<node id="-185870" lat="59.7500972217" lon="9.95344722846">
		<tag k="name" v="Berg" />
		<tag k="place" v="farm" />
		<tag k="ssr:stedsnr" v="23735" />
	</node>
	<node id="-185867" lat="59.8585638916" lon="9.91753055764">
		<tag k="name" v="Søndre Fjerdingstad" />
		<tag k="place" v="farm" />
		<tag k="ssr:stedsnr" v="4747" />
	</node>
	<node id="-185865" lat="59.850236108" lon="9.91087500557">
		<tag k="name" v="Knive" />
		<tag k="place" v="farm" />
		<tag k="ssr:stedsnr" v="4737" />
	</node>
	<node id="-185863" lat="59.8370888847" lon="9.72343054805">
		<tag k="alt_name" v="Vestre Myresetra;Myresætra, vestre" />
		<tag k="historic" v="shieling" />
		<tag k="name" v="Myresetra" />
		<tag k="place" v="locality" />
		<tag k="ssr:stedsnr" v="4702" />
	</node>
	<node id="-185862" lat="59.8301083332" lon="9.90950556114">
		<tag k="name" v="Flata" />
		<tag k="place" v="farm" />
		<tag k="ssr:stedsnr" v="4691" />
	</node>
	<node id="-185861" lat="59.8932805591" lon="9.69094721918">
		<tag k="name" v="Sluten" />
		<tag k="place" v="farm" />
		<tag k="ssr:stedsnr" v="4660" />
	</node>
	<node id="-185859" lat="59.86283056" lon="9.81790832579">
		<tag k="alt_name" v="Søndre Vestby" />
		<tag k="name" v="Vestby" />
		<tag k="place" v="farm" />
		<tag k="ssr:stedsnr" v="4640" />
	</node>
	<node id="-185857" lat="59.8056305593" lon="9.87660833563">
		<tag k="name" v="Hvitstein" />
		<tag k="old_name" v="Nordre Hvidsten" />
		<tag k="place" v="farm" />
		<tag k="ssr:stedsnr" v="4553" />
	</node>
	<node id="-185856" lat="59.8099480812" lon="9.90272690283">
		<tag k="fixme" v="consider place=hamlet" />
		<tag k="name" v="Kolbrekk" />
		<tag k="place" v="farm" />
		<tag k="ssr:stedsnr" v="4551" />
	</node>
	<node id="-185852" lat="59.7932166641" lon="9.74090277985">
		<tag k="name" v="Dalesetra" />
		<tag k="place" v="isolated_dwelling" />
		<tag k="ssr:stedsnr" v="4512" />
	</node>
	<node id="-185848" lat="59.8512972262" lon="10.0190361135">
		<tag k="name" v="Sandungsvollen" />
		<tag k="place" v="isolated_dwelling" />
		<tag k="ssr:stedsnr" v="4251" />
	</node>
	<node id="-185846" lat="59.8991194426" lon="9.71898610439">
		<tag k="name" v="Enden" />
		<tag k="place" v="isolated_dwelling" />
		<tag k="ssr:stedsnr" v="3826" />
	</node>
	<node id="-185845" lat="59.8291055516" lon="9.89711667249">
		<tag k="name" v="Ulleland" />
		<tag k="place" v="farm" />
		<tag k="ssr:stedsnr" v="3674" />
	</node>
	<node id="-185844" lat="59.7453777734" lon="9.89145555797">
		<tag k="name" v="Sørby" />
		<tag k="place" v="farm" />
		<tag k="ssr:stedsnr" v="3671" />
	</node>
	<node id="-185841" lat="59.7351583344" lon="9.88404166686">
		<tag k="name" v="Smørgrav" />
		<tag k="place" v="farm" />
		<tag k="ssr:stedsnr" v="3645" />
	</node>
	<node id="-185839" lat="59.7236222219" lon="9.67583333755">
		<tag k="name" v="Øvre Lurdalen" />
		<tag k="place" v="farm" />
		<tag k="ssr:stedsnr" v="3621" />
	</node>
	<node id="-185837" lat="59.6856555591" lon="9.73298610689">
		<tag k="alt_name" v="Smemoen" />
		<tag k="name" v="Smedmoen" />
		<tag k="place" v="farm" />
		<tag k="ssr:stedsnr" v="3548" />
	</node>
	<node id="-185834" lat="59.6684527785" lon="9.76193610679">
		<tag k="name" v="Nordre Muggerud" />
		<tag k="place" v="farm" />
		<tag k="ssr:stedsnr" v="3531" />
	</node>
	<node id="-185833" lat="59.7627999994" lon="9.87576665858">
		<tag k="name" v="Lilleås" />
		<tag k="place" v="farm" />
		<tag k="ssr:stedsnr" v="3527" />
	</node>
	<node id="-185831" lat="59.8154055541" lon="9.84921389411">
		<tag k="name" v="Myre" />
		<tag k="place" v="farm" />
		<tag k="ssr:stedsnr" v="3500" />
	</node>
	<node id="-185820" lat="59.7764444485" lon="9.89646943954">
		<tag k="name" v="Nedre Hoen" />
		<tag k="place" v="farm" />
		<tag k="ssr:stedsnr" v="890143" />
	</node>
	<node id="-185815" lat="59.6900444447" lon="9.81004167045">
		<tag k="name" v="Råen" />
		<tag k="place" v="farm" />
		<tag k="ssr:stedsnr" v="392570" />
	</node>
	<node id="-185812" lat="59.6899750015" lon="9.89999721424">
		<tag k="name" v="Markusbråten" />
		<tag k="place" v="isolated_dwelling" />
		<tag k="ssr:stedsnr" v="391729" />
	</node>
	<node id="-185808" lat="59.8154083323" lon="9.79043333357">
		<tag k="name" v="Midtstua" />
		<tag k="place" v="isolated_dwelling" />
		<tag k="ssr:stedsnr" v="391553" />
	</node>
	<node id="-185804" lat="59.7953750041" lon="9.85791388101">
		<tag k="name" v="Valset" />
		<tag k="place" v="isolated_dwelling" />
		<tag k="ssr:stedsnr" v="390929" />
	</node>
	<node id="-185798" lat="59.7990222203" lon="9.72638332698">
		<tag k="name" v="Vinterfryd" />
		<tag k="place" v="isolated_dwelling" />
		<tag k="ssr:stedsnr" v="390698" />
	</node>
	<node id="-185797" lat="59.7814361089" lon="9.88006944254">
		<tag k="name" v="Moen" />
		<tag k="place" v="farm" />
		<tag k="ssr:stedsnr" v="390686" />
	</node>
	<node id="-185796" lat="59.7723305563" lon="9.86854999167">
		<tag k="name" v="Røren" />
		<tag k="place" v="farm" />
		<tag k="ssr:stedsnr" v="390672" />
	</node>
	<node id="-185795" lat="59.8305861076" lon="9.96177778612">
		<tag k="name" v="Skarsstua" />
		<tag k="place" v="isolated_dwelling" />
		<tag k="ssr:stedsnr" v="390587" />
	</node>
	<node id="-185780" lat="59.8363694406" lon="9.97962222372">
		<tag k="name" v="Trollstua" />
		<tag k="place" v="isolated_dwelling" />
		<tag k="ssr:stedsnr" v="389655" />
	</node>
	<node id="-185779" lat="59.8124472267" lon="9.97787221772">
		<tag k="name" v="Trollheim" />
		<tag k="place" v="isolated_dwelling" />
		<tag k="ssr:stedsnr" v="389514" />
	</node>
	<node id="-185778" lat="59.8887777745" lon="9.75965554665">
		<tag k="name" v="Mastebråten" />
		<tag k="place" v="isolated_dwelling" />
		<tag k="ssr:stedsnr" v="389496" />
	</node>
	<node id="-185777" lat="59.8865749974" lon="9.77647222647">
		<tag k="name" v="Storsønju" />
		<tag k="place" v="farm" />
		<tag k="ssr:stedsnr" v="389490" />
	</node>
	<node id="-185776" lat="59.7313138874" lon="9.94461944599">
		<tag k="name" v="Langslett" />
		<tag k="place" v="isolated_dwelling" />
		<tag k="ssr:stedsnr" v="389344" />
	</node>
	<node id="-185775" lat="59.7571749978" lon="9.89174444055">
		<tag k="name" v="Sem" />
		<tag k="place" v="farm" />
		<tag k="ssr:stedsnr" v="389056" />
	</node>
	<node id="-185774" lat="59.7544527808" lon="9.86895278298">
		<tag k="name" v="Ås" />
		<tag k="place" v="farm" />
		<tag k="ssr:stedsnr" v="389053" />
	</node>
	<node id="-185768" lat="59.6559083336" lon="9.80137221648">
		<tag k="name" v="Dalebu" />
		<tag k="place" v="isolated_dwelling" />
		<tag k="ssr:stedsnr" v="388476" />
	</node>
	<node id="-185766" lat="59.663927777" lon="9.75347778653">
		<tag k="name" v="Nordli" />
		<tag k="place" v="farm" />
		<tag k="ssr:stedsnr" v="388428" />
	</node>
	<node id="-185764" lat="59.7744111093" lon="9.94038611226">
		<tag k="name" v="Søndre Haga" />
		<tag k="place" v="farm" />
		<tag k="ssr:stedsnr" v="387721" />
	</node>
	<node id="-185763" lat="59.8390305553" lon="9.80907221391">
		<tag k="alt_name" v="Gamlevoll" />
		<tag k="name" v="Gammelvollen" />
		<tag k="place" v="isolated_dwelling" />
		<tag k="ssr:stedsnr" v="368781" />
	</node>
	<node id="-185761" lat="59.8704277811" lon="9.95764999384">
		<tag k="name" v="Verpsetra" />
		<tag k="place" v="isolated_dwelling" />
		<tag k="ssr:stedsnr" v="368693" />
	</node>
	<node id="-185760" lat="59.8676916708" lon="9.89470834041">
		<tag k="name" v="Fukkerud" />
		<tag k="place" v="farm" />
		<tag k="ssr:stedsnr" v="368692" />
	</node>
	<node id="-185758" lat="59.8673444459" lon="9.80085556171">
		<tag k="name" v="Vestby" />
		<tag k="place" v="farm" />
		<tag k="ssr:stedsnr" v="368663" />
	</node>
	<node id="-185756" lat="59.754375004" lon="9.95205555591">
		<tag k="name" v="Tveiten" />
		<tag k="place" v="farm" />
		<tag k="ssr:stedsnr" v="368629" />
	</node>
	<node id="-185755" lat="59.750877777" lon="9.73416389375">
		<tag k="historic" v="shieling" />
		<tag k="name" v="Kolbergsetra" />
		<tag k="place" v="locality" />
		<tag k="ssr:stedsnr" v="368613" />
	</node>
	<node id="-185754" lat="59.8062305593" lon="9.88299166738">
		<tag k="name" v="Tronga" />
		<tag k="place" v="farm" />
		<tag k="ssr:stedsnr" v="368585" />
	</node>
	<node id="-185753" lat="59.7896166683" lon="9.90970277442">
		<tag k="alt_name" v="Ulleren" />
		<tag k="name" v="Ullern" />
		<tag k="place" v="farm" />
		<tag k="ssr:stedsnr" v="368553" />
	</node>
	<node id="-185751" lat="59.7965166706" lon="9.87851111625">
		<tag k="alt_name" v="Myrvold" />
		<tag k="name" v="Myrvoll" />
		<tag k="place" v="farm" />
		<tag k="ssr:stedsnr" v="368542" />
	</node>
	<node id="-185750" lat="59.7975027817" lon="9.82489722554">
		<tag k="name" v="Hønerud" />
		<tag k="place" v="farm" />
		<tag k="ssr:stedsnr" v="368541" />
	</node>
	<node id="-185748" lat="59.8025611145" lon="9.78181943659">
		<tag k="historic" v="shieling" />
		<tag k="name" v="Solbergsetra" />
		<tag k="place" v="locality" />
		<tag k="ssr:stedsnr" v="368532" />
	</node>
	<node id="-185746" lat="59.8293000033" lon="9.91174722608">
		<tag k="name" v="Finngardsplass" />
		<tag k="place" v="locality" />
		<tag k="ssr:stedsnr" v="367691" />
	</node>
	<node id="-185745" lat="59.7477777737" lon="9.92591389049">
		<tag k="name" v="Haugland" />
		<tag k="place" v="farm" />
		<tag k="ssr:stedsnr" v="367682" />
	</node>
	<node id="-185744" lat="59.7400555547" lon="9.93248056272">
		<tag k="alt_name" v="Vinsvold" />
		<tag k="name" v="Vinsvoll" />
		<tag k="place" v="farm" />
		<tag k="ssr:stedsnr" v="367680" />
	</node>
	<node id="-185741" lat="59.7223361084" lon="9.89747778369">
		<tag k="name" v="Brattås" />
		<tag k="place" v="farm" />
		<tag k="ssr:stedsnr" v="367651" />
	</node>
	<node id="-185740" lat="59.7334611098" lon="9.94665000422">
		<tag k="name" v="Helgerud" />
		<tag k="place" v="farm" />
		<tag k="ssr:stedsnr" v="367633" />
	</node>
	<node id="-185736" lat="59.7003361079" lon="9.78563610746">
		<tag k="name" v="Bakkerud" />
		<tag k="place" v="farm" />
		<tag k="ssr:stedsnr" v="367588" />
	</node>
	<node id="-185734" lat="59.6928222197" lon="9.70102500409">
		<tag k="name" v="Løkka" />
		<tag k="place" v="farm" />
		<tag k="ssr:stedsnr" v="367569" />
	</node>
	<node id="-185733" lat="59.6868611103" lon="9.90591667098">
		<tag k="name" v="Østerud" />
		<tag k="place" v="farm" />
		<tag k="ssr:stedsnr" v="367558" />
	</node>
	<node id="-185732" lat="59.7790722265" lon="9.8699666591">
		<tag k="name" v="Søndre Varlo" />
		<tag k="place" v="farm" />
		<tag k="ssr:stedsnr" v="367552" />
	</node>
	<node id="-185731" lat="59.6854444476" lon="9.7995500087">
		<tag k="name" v="Klunderud" />
		<tag k="place" v="farm" />
		<tag k="ssr:stedsnr" v="367537" />
	</node>
	<node id="-185728" lat="59.6655583306" lon="9.7676805544">
		<tag k="name" v="Krekling" />
		<tag k="place" v="farm" />
		<tag k="ssr:stedsnr" v="367516" />
	</node>
	<node id="-185722" lat="59.6431027818" lon="9.85510833953">
		<tag k="name" v="Gunhildrudsetra" />
		<tag k="place" v="isolated_dwelling" />
		<tag k="ssr:stedsnr" v="367485" />
	</node>
	<node id="-185721" lat="59.8179777748" lon="9.90826666524">
		<tag k="name" v="Skar" />
		<tag k="place" v="farm" />
		<tag k="ssr:stedsnr" v="367477" />
	</node>
	<node id="-185719" lat="59.6993888903" lon="9.80446667081">
		<tag k="fixme" v="consider place=hamlet" />
		<tag k="name" v="Fiskum prestegård" />
		<tag k="place" v="farm" />
		<tag k="ssr:stedsnr" v="363588" />
	</node>
	<node id="-185718" lat="59.752719448" lon="9.83765832838">
		<tag k="name" v="Solberg" />
		<tag k="old_name" v="Hole" />
		<tag k="place" v="farm" />
		<tag k="ssr:stedsnr" v="361609" />
	</node>
	<node id="-185711" lat="59.8441055595" lon="9.75789722201">
		<tag k="historic" v="shieling" />
		<tag k="name" v="Lisetra" />
		<tag k="place" v="locality" />
		<tag k="ssr:stedsnr" v="331631" />
	</node>
	<node id="-185709" lat="59.8128027814" lon="9.75306389041">
		<tag k="name" v="Hølbekkplassen" />
		<tag k="place" v="isolated_dwelling" />
		<tag k="ssr:stedsnr" v="331534" />
	</node>
	<node id="-185707" lat="59.7098166681" lon="9.81739166292">
		<tag k="name" v="Rudstøen" />
		<tag k="place" v="farm" />
		<tag k="ssr:stedsnr" v="331483" />
	</node>
	<node id="-185703" lat="59.810936108" lon="9.88356667549">
		<tag k="name" v="Burud" />
		<tag k="place" v="farm" />
		<tag k="ssr:stedsnr" v="330796" />
	</node>
	<node id="-185702" lat="59.7663527818" lon="9.92606110676">
		<tag k="leisure" v="pitch" />
		<tag k="name" v="Loesmoen idrettpark" />
		<tag k="ssr:stedsnr" v="330753" />
	</node>
	<node id="-185699" lat="59.8473638919" lon="9.89515555249">
		<tag k="name" v="Kopperud" />
		<tag k="place" v="isolated_dwelling" />
		<tag k="ssr:stedsnr" v="330641" />
	</node>
	<node id="-185697" lat="59.8426583314" lon="9.90763332601">
		<tag k="name" v="Jonsrud" />
		<tag k="place" v="farm" />
		<tag k="ssr:stedsnr" v="330608" />
	</node>
	<node id="-185696" lat="59.8319722226" lon="9.87431666458">
		<tag k="name" v="Moen" />
		<tag k="place" v="isolated_dwelling" />
		<tag k="ssr:stedsnr" v="330607" />
	</node>
	<node id="-185695" lat="59.6011611079" lon="9.91196388567">
		<tag k="name" v="Øksnevangen" />
		<tag k="place" v="isolated_dwelling" />
		<tag k="ssr:stedsnr" v="330569" />
	</node>
	<node id="-185694" lat="59.790083329" lon="9.89920832929">
		<tag k="name" v="Fossberget" />
		<tag k="place" v="isolated_dwelling" />
		<tag k="ssr:stedsnr" v="329994" />
	</node>
	<node id="-185690" lat="59.804247226" lon="9.96145000732">
		<tag k="name" v="Seteråsstua" />
		<tag k="place" v="isolated_dwelling" />
		<tag k="ssr:stedsnr" v="329501" />
	</node>
	<node id="-185687" lat="59.8792638905" lon="9.7748944406">
		<tag k="name" v="Finstad" />
		<tag k="place" v="isolated_dwelling" />
		<tag k="ssr:stedsnr" v="329478" />
	</node>
	<node id="-185686" lat="59.8752916689" lon="9.77929444843">
		<tag k="name" v="Snekkerplassen" />
		<tag k="place" v="farm" />
		<tag k="ssr:stedsnr" v="329475" />
	</node>
	<node id="-185685" lat="59.8873694489" lon="9.76500277638">
		<tag k="name" v="Myrbråten" />
		<tag k="place" v="farm" />
		<tag k="ssr:stedsnr" v="329474" />
	</node>
	<node id="-185684" lat="59.7312611136" lon="9.93562500792">
		<tag k="name" v="Gantum" />
		<tag k="place" v="farm" />
		<tag k="ssr:stedsnr" v="329360" />
	</node>
	<node id="-185681" lat="59.7471444415" lon="9.83226667524">
		<tag k="name" v="Påleplassen" />
		<tag k="place" v="farm" />
		<tag k="ssr:stedsnr" v="329070" />
	</node>
	<node id="-185680" lat="59.8590666681" lon="9.852872231">
		<tag k="alt_name" v="Elverhøy" />
		<tag k="name" v="Elvehøi" />
		<tag k="place" v="farm" />
		<tag k="ssr:stedsnr" v="328967" />
	</node>
	<node id="-185679" lat="59.6521555556" lon="9.80539444343">
		<tag k="name" v="Foss-seter" />
		<tag k="place" v="isolated_dwelling" />
		<tag k="ssr:stedsnr" v="328489" />
	</node>
	<node id="-185677" lat="59.6772888859" lon="9.78360555462">
		<tag k="name" v="Stavlum" />
		<tag k="place" v="farm" />
		<tag k="ssr:stedsnr" v="327487" />
	</node>
	<node id="-185670" lat="59.766836114" lon="9.8438083306">
		<tag k="name" v="Gorud" />
		<tag k="place" v="farm" />
		<tag k="ssr:stedsnr" v="308466" />
	</node>
	<node id="-185669" lat="59.858938886" lon="9.85655278648">
		<tag k="alt_name" v="Lobben" />
		<tag k="name" v="Lille Lobben" />
		<tag k="place" v="farm" />
		<tag k="ssr:stedsnr" v="308460" />
	</node>
	<node id="-185667" lat="59.8474500016" lon="9.88316111608">
		<tag k="name" v="San-Souci" />
		<tag k="place" v="isolated_dwelling" />
		<tag k="ssr:stedsnr" v="307734" />
	</node>
	<node id="-185666" lat="59.8485749971" lon="9.91943332801">
		<tag k="name" v="Stolp" />
		<tag k="place" v="farm" />
		<tag k="ssr:stedsnr" v="307731" />
	</node>
	<node id="-185661" lat="59.6922527761" lon="9.76100555052">
		<tag k="alt_name" v="Teigen" />
		<tag k="name" v="Øvre Teigen" />
		<tag k="place" v="farm" />
		<tag k="ssr:stedsnr" v="307619" />
	</node>
	<node id="-185658" lat="59.7666444479" lon="9.83225277581">
		<tag k="alt_name" v="Åslia" />
		<tag k="name" v="Åsli" />
		<tag k="place" v="farm" />
		<tag k="ssr:stedsnr" v="307581" />
	</node>
	<node id="-185656" lat="59.7933527797" lon="9.84134721819">
		<tag k="name" v="Fossum" />
		<tag k="place" v="farm" />
		<tag k="ssr:stedsnr" v="307545" />
	</node>
	<node id="-185651" lat="59.7330424559" lon="9.83089205256">
		<tag k="name" v="Skarraenga" />
		<tag k="place" v="locality" />
		<tag k="ssr:stedsnr" v="306647" />
	</node>
	<node id="-185650" lat="59.7250000036" lon="9.84155000817">
		<tag k="name" v="Eik" />
		<tag k="place" v="farm" />
		<tag k="ssr:stedsnr" v="306626" />
	</node>
	<node id="-185649" lat="59.7232416685" lon="9.82706943639">
		<tag k="name" v="Skjelbred" />
		<tag k="place" v="farm" />
		<tag k="ssr:stedsnr" v="306625" />
	</node>
	<node id="-185648" lat="59.7123694448" lon="9.6963138817">
		<tag k="alt_name" v="Nyrudsetra" />
		<tag k="name" v="Nyrudseter" />
		<tag k="place" v="farm" />
		<tag k="ssr:stedsnr" v="306608" />
	</node>
	<node id="-185647" lat="59.7072222188" lon="9.77234444825">
		<tag k="name" v="Dunserudhagen" />
		<tag k="place" v="hamlet" />
		<tag k="ssr:stedsnr" v="306604" />
	</node>
	<node id="-185646" lat="59.7197916698" lon="9.82309444731">
		<tag k="loc_name" v="Hekstad" />
		<tag k="name" v="Hegstad" />
		<tag k="old_name" v="Hagstad" />
		<tag k="place" v="farm" />
		<tag k="ssr:stedsnr" v="306598" />
	</node>
	<node id="-185636" lat="59.7186194428" lon="9.80928055909">
		<tag k="name" v="Skogstad" />
		<tag k="place" v="farm" />
		<tag k="ssr:stedsnr" v="271549" />
	</node>
	<node id="-185635" lat="59.7089388882" lon="9.80998889506">
		<tag k="name" v="Røed" />
		<tag k="place" v="farm" />
		<tag k="ssr:stedsnr" v="271546" />
	</node>
	<node id="-185634" lat="59.7027916653" lon="9.85667777133">
		<tag k="name" v="Sand" />
		<tag k="place" v="farm" />
		<tag k="ssr:stedsnr" v="271357" />
	</node>
	<node id="-185625" lat="59.6921416697" lon="9.97583888881">
		<tag k="name" v="Brynseter" />
		<tag k="place" v="isolated_dwelling" />
		<tag k="ssr:stedsnr" v="270199" />
	</node>
	<node id="-185622" lat="59.8589777739" lon="9.90637777661">
		<tag k="name" v="Nordre Leversby" />
		<tag k="place" v="farm" />
		<tag k="ssr:stedsnr" v="269997" />
	</node>
	<node id="-185620" lat="59.7680027749" lon="9.87515555396">
		<tag k="leisure" v="pitch" />
		<tag k="name" v="Eiker-Kvikk" />
		<tag k="ssr:stedsnr" v="269875" />
	</node>
	<node id="-185619" lat="59.769366665" lon="9.89786666316">
		<tag k="name" v="Sundmoen" />
		<tag k="place" v="quarter" />
		<tag k="ssr:stedsnr" v="269855" />
	</node>
	<node id="-185617" lat="59.7840000039" lon="9.90958055105">
		<tag k="name" v="Nordre Hobbelstad" />
		<tag k="place" v="farm" />
		<tag k="ssr:stedsnr" v="269817" />
	</node>
	<node id="-185616" lat="59.6815111115" lon="9.795344438">
		<tag k="name" v="Løvstad" />
		<tag k="place" v="farm" />
		<tag k="ssr:stedsnr" v="269730" />
	</node>
	<node id="-185615" lat="59.8132888862" lon="9.83841666782">
		<tag k="name" v="Jakthytta" />
		<tag k="place" v="isolated_dwelling" />
		<tag k="ssr:stedsnr" v="269691" />
	</node>
	<node id="-185610" lat="59.751869441" lon="9.71378610304">
		<tag k="alt_name" v="Svendsplassen" />
		<tag k="name" v="Jensrud" />
		<tag k="place" v="locality" />
		<tag k="ssr:stedsnr" v="269411" />
	</node>
	<node id="-185609" lat="59.730747224" lon="9.84903889712">
		<tag k="name" v="Lunde" />
		<tag k="place" v="farm" />
		<tag k="ssr:stedsnr" v="269317" />
	</node>
	<node id="-187125" lat="59.6833888915" lon="9.78425000119">
		<tag k="name" v="Rustan" />
		<tag k="place" v="farm" />
		<tag k="ssr:stedsnr" v="937743" />
	</node>
	<node id="-187124" lat="59.8274611104" lon="9.81438056086">
		<tag k="name" v="Salshytta" />
		<tag k="place" v="isolated_dwelling" />
		<tag k="ssr:stedsnr" v="937722" />
	</node>
	<node id="-187123" lat="59.8477583302" lon="9.8835666753">
		<tag k="amenity" v="nursing_home" />
		<tag k="name" v="Sanssouci" />
		<tag k="ssr:stedsnr" v="937632" />
	</node>
	<node id="-187122" lat="59.8322166655" lon="9.90863888588">
		<tag k="name" v="Bakken" />
		<tag k="place" v="isolated_dwelling" />
		<tag k="ssr:stedsnr" v="937614" />
	</node>
	<node id="-187121" lat="59.8362972188" lon="9.90844999697">
		<tag k="name" v="Midtre Dramdal" />
		<tag k="place" v="farm" />
		<tag k="ssr:stedsnr" v="937610" />
	</node>
	<node id="-187119" lat="59.7324888904" lon="9.84076389748">
		<tag k="name" v="Nedre Skarra" />
		<tag k="place" v="farm" />
		<tag k="ssr:stedsnr" v="937343" />
	</node>
	<node id="-187117" lat="59.8513000014" lon="9.86497777107">
		<tag k="name" v="Hære" />
		<tag k="place" v="farm" />
		<tag k="ssr:stedsnr" v="937083" />
	</node>
	<node id="-187116" lat="59.8771138911" lon="9.91714721751">
		<tag k="name" v="Gata" />
		<tag k="place" v="isolated_dwelling" />
		<tag k="ssr:stedsnr" v="937079" />
	</node>
	<node id="-187111" lat="59.8008972224" lon="9.87480277577">
		<tag k="name" v="Fagerholt" />
		<tag k="place" v="farm" />
		<tag k="ssr:stedsnr" v="936693" />
	</node>
	<node id="-187105" lat="59.8401972239" lon="9.95659999655">
		<tag k="name" v="Huskestua" />
		<tag k="place" v="isolated_dwelling" />
		<tag k="ssr:stedsnr" v="936593" />
	</node>
	<node id="-187102" lat="59.8817166645" lon="9.7726472157">
		<tag k="name" v="Øvre Håre" />
		<tag k="place" v="farm" />
		<tag k="ssr:stedsnr" v="936482" />
	</node>
	<node id="-187097" lat="59.8612722257" lon="9.84017777814">
		<tag k="name" v="Borge" />
		<tag k="place" v="farm" />
		<tag k="ssr:stedsnr" v="935979" />
	</node>
	<node id="-187094" lat="59.7524749973" lon="9.9483416692">
		<tag k="name" v="Låtan" />
		<tag k="place" v="isolated_dwelling" />
		<tag k="ssr:stedsnr" v="933745" />
	</node>
	<node id="-187091" lat="59.8531305577" lon="9.91895277792">
		<tag k="alt_name" v="Skardberg" />
		<tag k="name" v="Skarberg" />
		<tag k="place" v="farm" />
		<tag k="ssr:stedsnr" v="914739" />
	</node>
	<node id="-187089" lat="59.8261972213" lon="9.8579416736">
		<tag k="alt_name" v="Nes" />
		<tag k="name" v="Neset" />
		<tag k="place" v="farm" />
		<tag k="ssr:stedsnr" v="914733" />
	</node>
	<node id="-187087" lat="59.8227111142" lon="9.89999444224">
		<tag k="name" v="Holt" />
		<tag k="place" v="farm" />
		<tag k="ssr:stedsnr" v="914720" />
	</node>
	<node id="-187085" lat="59.8406749998" lon="9.74064167355">
		<tag k="name" v="Holtesetra" />
		<tag k="place" v="isolated_dwelling" />
		<tag k="ssr:stedsnr" v="914712" />
	</node>
	<node id="-187084" lat="59.7396333299" lon="9.94440833516">
		<tag k="name" v="Stenshorne" />
		<tag k="place" v="farm" />
		<tag k="ssr:stedsnr" v="914710" />
	</node>
	<node id="-187083" lat="59.8885361078" lon="9.74436389757">
		<tag k="name" v="Ødegården" />
		<tag k="place" v="farm" />
		<tag k="ssr:stedsnr" v="914681" />
	</node>
	<node id="-187082" lat="59.8628083331" lon="9.74138055582">
		<tag k="fixme" v="multiple name tags, choose one and add the other to alt_name" />
		<tag k="name" v="Myresetra;Myrestua" />
		<tag k="place" v="isolated_dwelling" />
		<tag k="ssr:stedsnr" v="914668" />
	</node>
	<node id="-187081" lat="59.8733272922" lon="9.81518207245">
		<tag k="fixme" v="consider place=hamlet" />
		<tag k="name" v="Jaren" />
		<tag k="place" v="farm" />
		<tag k="ssr:stedsnr" v="914644" />
	</node>
	<node id="-187079" lat="59.7717722228" lon="9.85771945179">
		<tag k="name" v="Røren" />
		<tag k="place" v="farm" />
		<tag k="ssr:stedsnr" v="914632" />
	</node>
	<node id="-187078" lat="59.7847916646" lon="9.8309805635">
		<tag k="name" v="Humlebekk" />
		<tag k="place" v="farm" />
		<tag k="ssr:stedsnr" v="914619" />
	</node>
	<node id="-187076" lat="59.6801805562" lon="9.77866388482">
		<tag k="name" v="Rustan" />
		<tag k="place" v="farm" />
		<tag k="ssr:stedsnr" v="914605" />
	</node>
	<node id="-187075" lat="59.7527055577" lon="9.94405278631">
		<tag k="name" v="Busland" />
		<tag k="place" v="farm" />
		<tag k="ssr:stedsnr" v="914602" />
	</node>
	<node id="-187074" lat="59.750091667" lon="9.88343611739">
		<tag k="name" v="Sem" />
		<tag k="place" v="farm" />
		<tag k="ssr:stedsnr" v="914597" />
	</node>
	<node id="-187072" lat="59.8096194409" lon="9.72852222504">
		<tag k="historic" v="shieling" />
		<tag k="name" v="Honsetra" />
		<tag k="place" v="locality" />
		<tag k="ssr:stedsnr" v="914566" />
	</node>
	<node id="-187071" lat="59.8076861086" lon="9.75085833819">
		<tag k="historic" v="shieling" />
		<tag k="name" v="Bermingrudsetra" />
		<tag k="place" v="locality" />
		<tag k="ssr:stedsnr" v="914562" />
	</node>
	<node id="-187066" lat="59.8030749966" lon="9.97764166075">
		<tag k="alt_name" v="Åsli" />
		<tag k="name" v="Åsly" />
		<tag k="place" v="isolated_dwelling" />
		<tag k="ssr:stedsnr" v="914253" />
	</node>
	<node id="-187065" lat="59.716086115" lon="9.81928332715">
		<tag k="name" v="Hegstad" />
		<tag k="place" v="farm" />
		<tag k="ssr:stedsnr" v="914008" />
	</node>
	<node id="-187064" lat="59.6833138877" lon="9.79525277587">
		<tag k="name" v="Klunderud" />
		<tag k="place" v="farm" />
		<tag k="ssr:stedsnr" v="914004" />
	</node>
	<node id="-187063" lat="59.7265277746" lon="9.87829166681">
		<tag k="name" v="Besseberg" />
		<tag k="place" v="farm" />
		<tag k="ssr:stedsnr" v="913638" />
	</node>
	<node id="-187062" lat="59.7106000024" lon="9.67595832734">
		<tag k="name" v="Nordre Snaret" />
		<tag k="place" v="farm" />
		<tag k="ssr:stedsnr" v="913625" />
	</node>
	<node id="-187059" lat="59.7049277741" lon="9.70280000667">
		<tag k="name" v="Finnerud" />
		<tag k="place" v="farm" />
		<tag k="ssr:stedsnr" v="913600" />
	</node>
	<node id="-187056" lat="59.6665416677" lon="9.75722500499">
		<tag k="name" v="Søndre Muggerud" />
		<tag k="place" v="farm" />
		<tag k="ssr:stedsnr" v="913548" />
	</node>
	<node id="-187054" lat="59.6398083355" lon="9.92704166683">
		<tag k="name" v="Bogen" />
		<tag k="place" v="farm" />
		<tag k="ssr:stedsnr" v="913511" />
	</node>
	<node id="-187052" lat="59.6309638896" lon="9.94271944968">
		<tag k="name" v="Nedre Hakavik" />
		<tag k="place" v="farm" />
		<tag k="ssr:stedsnr" v="913495" />
	</node>
	<node id="-187042" lat="59.6861500008" lon="9.84198055136">
		<tag k="name" v="Bollerud" />
		<tag k="place" v="farm" />
		<tag k="ssr:stedsnr" v="878549" />
	</node>
	<node id="-187041" lat="59.7112472239" lon="9.81399444115">
		<tag k="name" v="Fougner" />
		<tag k="place" v="farm" />
		<tag k="ssr:stedsnr" v="878546" />
	</node>
	<node id="-187040" lat="59.6710472189" lon="9.86583889282">
		<tag k="name" v="Gunhildrudplassen" />
		<tag k="place" v="isolated_dwelling" />
		<tag k="ssr:stedsnr" v="877597" />
	</node>
	<node id="-187038" lat="59.8222472195" lon="9.76899444911">
		<tag k="name" v="Warloffhytta" />
		<tag k="place" v="isolated_dwelling" />
		<tag k="ssr:stedsnr" v="877558" />
	</node>
	<node id="-187027" lat="59.6817916625" lon="9.9360750043">
		<tag k="name" v="Huldrebu" />
		<tag k="place" v="isolated_dwelling" />
		<tag k="ssr:stedsnr" v="877178" />
	</node>
	<node id="-187023" lat="59.7802027803" lon="9.91558333706">
		<tag k="name" v="Søndre Hobbelstad" />
		<tag k="place" v="farm" />
		<tag k="ssr:stedsnr" v="876802" />
	</node>
	<node id="-187022" lat="59.8150250034" lon="9.90575834055">
		<tag k="name" v="Skar" />
		<tag k="place" v="farm" />
		<tag k="ssr:stedsnr" v="876772" />
	</node>
	<node id="-187018" lat="59.8382555553" lon="9.86734444039">
		<tag k="name" v="Spiten" />
		<tag k="place" v="isolated_dwelling" />
		<tag k="ssr:stedsnr" v="876616" />
	</node>
	<node id="-187017" lat="59.8490611146" lon="9.87955555267">
		<tag k="amenity" v="school" />
		<tag k="name" v="Skotselv skole" />
		<tag k="ssr:stedsnr" v="876612" />
	</node>
	<node id="-187013" lat="59.7356694473" lon="9.84674166213">
		<tag k="name" v="Kolberg" />
		<tag k="place" v="farm" />
		<tag k="ssr:stedsnr" v="876309" />
	</node>
	<node id="-187012" lat="59.7342388916" lon="9.84608611985">
		<tag k="name" v="Nordre Skarra" />
		<tag k="place" v="farm" />
		<tag k="ssr:stedsnr" v="876306" />
	</node>
	<node id="-187010" lat="59.7734666679" lon="9.88886666614">
		<tag k="building" v="commercial" />
		<tag k="name" v="Mølle" />
		<tag k="ssr:stedsnr" v="875799" />
	</node>
	<node id="-187007" lat="59.8457861103" lon="9.85352221374">
		<tag k="name" v="Nordre Holte" />
		<tag k="place" v="farm" />
		<tag k="ssr:stedsnr" v="875644" />
	</node>
	<node id="-187003" lat="59.8205972239" lon="9.87815555567">
		<tag k="name" v="Solsbakk" />
		<tag k="place" v="isolated_dwelling" />
		<tag k="ssr:stedsnr" v="875607" />
	</node>
	<node id="-186998" lat="59.8129805538" lon="9.99609167148">
		<tag k="name" v="Hagaheimen" />
		<tag k="place" v="isolated_dwelling" />
		<tag k="ssr:stedsnr" v="875504" />
	</node>
	<node id="-186996" lat="59.7972444446" lon="9.96729167332">
		<tag k="name" v="Lillebyvollen" />
		<tag k="place" v="isolated_dwelling" />
		<tag k="ssr:stedsnr" v="875497" />
	</node>
	<node id="-186995" lat="59.8883388895" lon="9.75021944761">
		<tag k="name" v="Kinnes" />
		<tag k="place" v="isolated_dwelling" />
		<tag k="ssr:stedsnr" v="875484" />
	</node>
	<node id="-186994" lat="59.7468750014" lon="9.87857222925">
		<tag k="name" v="Berg" />
		<tag k="place" v="farm" />
		<tag k="ssr:stedsnr" v="875136" />
	</node>
	<node id="-186993" lat="59.7500222235" lon="9.88069722707">
		<tag k="name" v="Berg" />
		<tag k="place" v="farm" />
		<tag k="ssr:stedsnr" v="875132" />
	</node>
	<node id="-186992" lat="59.7621638891" lon="9.8903388928">
		<tag k="amenity" v="school" />
		<tag k="name" v="Skogplanteskole" />
		<tag k="ssr:stedsnr" v="875086" />
	</node>
	<node id="-186991" lat="59.7492416658" lon="9.83596388581">
		<tag k="name" v="Halsbråten" />
		<tag k="place" v="farm" />
		<tag k="ssr:stedsnr" v="875055" />
	</node>
	<node id="-186990" lat="59.8861957284" lon="9.74561772746">
		<tag k="name" v="Kverna" />
		<tag k="place" v="isolated_dwelling" />
		<tag k="ssr:stedsnr" v="875391" />
	</node>
	<node id="-186985" lat="59.7398305597" lon="9.95814999546">
		<tag k="name" v="Nordre Horne" />
		<tag k="place" v="farm" />
		<tag k="ssr:stedsnr" v="875358" />
	</node>
	<node id="-186984" lat="59.7275361101" lon="9.93580000509">
		<tag k="name" v="Kulerud" />
		<tag k="place" v="isolated_dwelling" />
		<tag k="ssr:stedsnr" v="875356" />
	</node>
	<node id="-186982" lat="59.738286114" lon="9.92617777275">
		<tag k="name" v="Vinsvold" />
		<tag k="place" v="farm" />
		<tag k="ssr:stedsnr" v="875332" />
	</node>
	<node id="-186979" lat="59.6918305575" lon="9.76249166033">
		<tag k="name" v="Nedre Teigen" />
		<tag k="place" v="farm" />
		<tag k="ssr:stedsnr" v="874668" />
	</node>
	<node id="-186976" lat="59.8422750038" lon="9.85200278514">
		<tag k="alt_name" v="Mellom Holte" />
		<tag k="name" v="Holte" />
		<tag k="place" v="farm" />
		<tag k="ssr:stedsnr" v="854718" />
	</node>
	<node id="-186972" lat="59.8335416711" lon="9.94479722489">
		<tag k="name" v="Midtstua" />
		<tag k="place" v="isolated_dwelling" />
		<tag k="ssr:stedsnr" v="854671" />
	</node>
	<node id="-186970" lat="59.8672500009" lon="9.8146416727">
		<tag k="name" v="Sørli" />
		<tag k="place" v="farm" />
		<tag k="ssr:stedsnr" v="854605" />
	</node>
	<node id="-186969" lat="59.7513999958" lon="9.93235000846">
		<tag k="alt_name" v="Lo" />
		<tag k="fixme" v="consider place=hamlet" />
		<tag k="name" v="Østre Lo" />
		<tag k="place" v="farm" />
		<tag k="ssr:stedsnr" v="854578" />
	</node>
	<node id="-186968" lat="59.7559666665" lon="9.83517500176">
		<tag k="name" v="Skjølsplassen" />
		<tag k="place" v="locality" />
		<tag k="ssr:stedsnr" v="854571" />
	</node>
	<node id="-186967" lat="59.801908337" lon="9.87957778275">
		<tag k="name" v="Bergli" />
		<tag k="place" v="farm" />
		<tag k="ssr:stedsnr" v="854534" />
	</node>
	<node id="-186963" lat="59.8225027809" lon="9.86141389309">
		<tag k="name" v="Harstad" />
		<tag k="place" v="farm" />
		<tag k="ssr:stedsnr" v="853707" />
	</node>
	<node id="-186962" lat="59.8263416674" lon="9.88767777996">
		<tag k="name" v="Skott" />
		<tag k="place" v="hamlet" />
		<tag k="ssr:stedsnr" v="853690" />
	</node>
	<node id="-186959" lat="59.7371027758" lon="9.69773610345">
		<tag k="alt_name" v="Dalsetra" />
		<tag k="name" v="Dalseter" />
		<tag k="place" v="farm" />
		<tag k="ssr:stedsnr" v="853659" />
	</node>
	<node id="-186958" lat="59.7246861147" lon="9.69843054975">
		<tag k="name" v="Nedre Lurdalen" />
		<tag k="place" v="farm" />
		<tag k="ssr:stedsnr" v="853644" />
	</node>
	<node id="-186957" lat="59.7080305589" lon="9.67576389618">
		<tag k="name" v="Søndre Snaret" />
		<tag k="place" v="farm" />
		<tag k="ssr:stedsnr" v="853642" />
	</node>
	<node id="-186956" lat="59.70341667" lon="9.84349722754">
		<tag k="name" v="Haugen" />
		<tag k="place" v="farm" />
		<tag k="ssr:stedsnr" v="853601" />
	</node>
	<node id="-186955" lat="59.7762500041" lon="9.75737499402">
		<tag k="historic" v="shieling" />
		<tag k="name" v="Skjølsetra" />
		<tag k="place" v="locality" />
		<tag k="ssr:stedsnr" v="853589" />
	</node>
	<node id="-186954" lat="59.685916666" lon="9.94843332767">
		<tag k="alt_name" v="Nordre Østerudsetra" />
		<tag k="name" v="Nordre Østerudseter" />
		<tag k="place" v="isolated_dwelling" />
		<tag k="ssr:stedsnr" v="853568" />
	</node>
	<node id="-186953" lat="59.6833277814" lon="9.73064166671">
		<tag k="fixme" v="multiple name tags, choose one and add the other to alt_name" />
		<tag k="name" v="Mobekken;Svendsrud" />
		<tag k="place" v="farm" />
		<tag k="ssr:stedsnr" v="853567" />
	</node>
	<node id="-186952" lat="59.6808277764" lon="9.79043334122">
		<tag k="name" v="Stavlum" />
		<tag k="place" v="farm" />
		<tag k="ssr:stedsnr" v="853558" />
	</node>
	<node id="-186951" lat="59.7579805519" lon="9.81074999729">
		<tag k="alt_name" v="Eiker kobberverk" />
		<tag k="building" v="industrial" />
		<tag k="industrial" v="factory" />
		<tag k="name" v="Eiker kopperverk" />
		<tag k="ssr:stedsnr" v="853556" />
	</node>
	<node id="-186949" lat="59.8188166687" lon="9.79509167478">
		<tag k="fixme" v="multiple name tags, choose one and add the other to alt_name" />
		<tag k="name" v="Myresetra;Østre Myresetra" />
		<tag k="old_name" v="Myresetra, østre" />
		<tag k="place" v="isolated_dwelling" />
		<tag k="ssr:stedsnr" v="853512" />
	</node>
	<node id="-186945" lat="59.7061194463" lon="9.80631388445">
		<tag k="alt_name" v="Rud" />
		<tag k="name" v="Søndre Rud" />
		<tag k="place" v="farm" />
		<tag k="ssr:stedsnr" v="853003" />
	</node>
	<node id="-186944" lat="59.7406499973" lon="9.85742500076">
		<tag k="name" v="Hals" />
		<tag k="place" v="farm" />
		<tag k="ssr:stedsnr" v="852660" />
	</node>
	<node id="-186942" lat="59.779266664" lon="9.83999445185">
		<tag k="name" v="Stuverud" />
		<tag k="place" v="farm" />
		<tag k="ssr:stedsnr" v="844050" />
	</node>
	<node id="-186939" lat="59.6529333312" lon="9.84297777137">
		<tag k="name" v="Sveltihjel" />
		<tag k="place" v="isolated_dwelling" />
		<tag k="ssr:stedsnr" v="817994" />
	</node>
	<node id="-186938" lat="59.6850944464" lon="9.90624166984">
		<tag k="name" v="Østerud" />
		<tag k="place" v="farm" />
		<tag k="ssr:stedsnr" v="817704" />
	</node>
	<node id="-186928" lat="59.7892694441" lon="9.82402221656">
		<tag k="name" v="Grøsland" />
		<tag k="place" v="farm" />
		<tag k="ssr:stedsnr" v="815887" />
	</node>
	<node id="-186925" lat="59.8429444453" lon="9.7430000067">
		<tag k="name" v="Åbbortjernstua" />
		<tag k="place" v="isolated_dwelling" />
		<tag k="ssr:stedsnr" v="815749" />
	</node>
	<node id="-186923" lat="59.680222226" lon="9.77966944137">
		<tag k="name" v="Flesberg" />
		<tag k="place" v="farm" />
		<tag k="ssr:stedsnr" v="815701" />
	</node>
	<node id="-186922" lat="59.697480554" lon="9.79793888348">
		<tag k="amenity" v="sports_centre" />
		<tag k="name" v="Skytterhallen" />
		<tag k="ssr:stedsnr" v="815680" />
	</node>
	<node id="-186920" lat="59.830025002" lon="9.87319166363">
		<tag k="name" v="Moplassen" />
		<tag k="place" v="farm" />
		<tag k="ssr:stedsnr" v="815519" />
	</node>
	<node id="-186916" lat="59.7318416626" lon="9.88298610363">
		<tag k="name" v="Arneberg" />
		<tag k="place" v="farm" />
		<tag k="ssr:stedsnr" v="815264" />
	</node>
	<node id="-186911" lat="59.7641888875" lon="9.84395000217">
		<tag k="name" v="Åsheim" />
		<tag k="place" v="isolated_dwelling" />
		<tag k="ssr:stedsnr" v="815002" />
	</node>
	<node id="-186910" lat="59.8604999982" lon="9.84723055651">
		<tag k="name" v="Furuvollen" />
		<tag k="place" v="farm" />
		<tag k="ssr:stedsnr" v="814973" />
	</node>
	<node id="-186908" lat="59.8361611135" lon="9.86167499547">
		<tag k="name" v="Rakkestad" />
		<tag k="place" v="farm" />
		<tag k="ssr:stedsnr" v="814665" />
	</node>
	<node id="-186901" lat="59.743524999" lon="9.96051944809">
		<tag k="name" v="Søndre Nedberg" />
		<tag k="place" v="farm" />
		<tag k="ssr:stedsnr" v="814380" />
	</node>
	<node id="-186900" lat="59.7582722247" lon="9.88954722816">
		<tag k="building" v="industrial" />
		<tag k="industrial" v="factory" />
		<tag k="name" v="Ytong" />
		<tag k="ssr:stedsnr" v="814078" />
	</node>
	<node id="-186899" lat="59.75197222" lon="9.83996388304">
		<tag k="name" v="Setersberg" />
		<tag k="place" v="farm" />
		<tag k="ssr:stedsnr" v="814062" />
	</node>
	<node id="-186891" lat="59.7789500035" lon="9.92433055589">
		<tag k="name" v="Lilleby" />
		<tag k="place" v="farm" />
		<tag k="ssr:stedsnr" v="812741" />
	</node>
	<node id="-186890" lat="59.7493888897" lon="9.92659443889">
		<tag k="name" v="Solstad" />
		<tag k="place" v="farm" />
		<tag k="ssr:stedsnr" v="812729" />
	</node>
	<node id="-186889" lat="59.7472722254" lon="9.95002221536">
		<tag k="name" v="Skistad" />
		<tag k="place" v="farm" />
		<tag k="ssr:stedsnr" v="812726" />
	</node>
	<node id="-186888" lat="59.7473888846" lon="9.93805277349">
		<tag k="name" v="Sommerstad" />
		<tag k="place" v="farm" />
		<tag k="ssr:stedsnr" v="812727" />
	</node>
	<node id="-186887" lat="59.7460472259" lon="9.95933888532">
		<tag k="name" v="Skjoldaker" />
		<tag k="place" v="farm" />
		<tag k="ssr:stedsnr" v="812725" />
	</node>
	<node id="-186885" lat="59.8419416701" lon="9.84646389104">
		<tag k="name" v="Vestheim" />
		<tag k="place" v="farm" />
		<tag k="ssr:stedsnr" v="793762" />
	</node>
	<node id="-186884" lat="59.8512694428" lon="9.92428333173">
		<tag k="name" v="Kolbjørnsrud" />
		<tag k="place" v="farm" />
		<tag k="ssr:stedsnr" v="793749" />
	</node>
	<node id="-186883" lat="59.8537666674" lon="9.83407221775">
		<tag k="alt_name" v="Langbråtan" />
		<tag k="name" v="Langbråten" />
		<tag k="place" v="farm" />
		<tag k="ssr:stedsnr" v="793744" />
	</node>
	<node id="-186881" lat="59.8665225472" lon="9.72248907273">
		<tag k="historic" v="shieling" />
		<tag k="name" v="Torvaldsetra" />
		<tag k="place" v="locality" />
		<tag k="ssr:stedsnr" v="793670" />
	</node>
	<node id="-186880" lat="59.8582750036" lon="9.87549722611">
		<tag k="name" v="Daler" />
		<tag k="place" v="farm" />
		<tag k="ssr:stedsnr" v="793666" />
	</node>
	<node id="-186879" lat="59.8673361069" lon="9.72974721803">
		<tag k="historic" v="shieling" />
		<tag k="name" v="Sønjusetra" />
		<tag k="place" v="locality" />
		<tag k="ssr:stedsnr" v="793657" />
	</node>
	<node id="-186877" lat="59.8025361076" lon="9.85234444458">
		<tag k="name" v="Lyngås" />
		<tag k="place" v="farm" />
		<tag k="ssr:stedsnr" v="793545" />
	</node>
	<node id="-186876" lat="59.7937166635" lon="9.83186110785">
		<tag k="name" v="Søndre Grøsland" />
		<tag k="place" v="farm" />
		<tag k="ssr:stedsnr" v="793542" />
	</node>
	<node id="-186874" lat="59.6985666706" lon="9.68099166526">
		<tag k="alt_name" v="Langåsen" />
		<tag k="name" v="Langås" />
		<tag k="place" v="farm" />
		<tag k="ssr:stedsnr" v="792612" />
	</node>
	<node id="-186873" lat="59.768333334" lon="9.88585277398">
		<tag k="name" v="Solstad" />
		<tag k="place" v="farm" />
		<tag k="ssr:stedsnr" v="792605" />
	</node>
	<node id="-186871" lat="59.6882527792" lon="9.83181943726">
		<tag k="name" v="Kolkinn" />
		<tag k="place" v="farm" />
		<tag k="ssr:stedsnr" v="792577" />
	</node>
	<node id="-186870" lat="59.6850472187" lon="9.73352222194">
		<tag k="name" v="Kofstadmoen" />
		<tag k="place" v="farm" />
		<tag k="ssr:stedsnr" v="792570" />
	</node>
	<node id="-186869" lat="59.6848722211" lon="9.76451944894">
		<tag k="name" v="Nordre Skraperud" />
		<tag k="place" v="farm" />
		<tag k="ssr:stedsnr" v="792564" />
	</node>
	<node id="-186866" lat="59.7518277791" lon="9.83477499549">
		<tag k="name" v="Bergsplassen" />
		<tag k="place" v="farm" />
		<tag k="ssr:stedsnr" v="792555" />
	</node>
	<node id="-186865" lat="59.7629277778" lon="9.88189999392">
		<tag k="alt_name" v="Semsmyra" />
		<tag k="name" v="Semsmyr" />
		<tag k="place" v="farm" />
		<tag k="ssr:stedsnr" v="792542" />
	</node>
	<node id="-186863" lat="59.8202222237" lon="9.91192777366">
		<tag k="name" v="Olberg" />
		<tag k="place" v="farm" />
		<tag k="ssr:stedsnr" v="792524" />
	</node>
	<node id="-186859" lat="59.6600861112" lon="9.90400832812">
		<tag k="name" v="Tangen" />
		<tag k="place" v="isolated_dwelling" />
		<tag k="ssr:stedsnr" v="792017" />
	</node>
	<node id="-186858" lat="59.7341416623" lon="9.93580277803">
		<tag k="name" v="Teige" />
		<tag k="place" v="farm" />
		<tag k="ssr:stedsnr" v="791687" />
	</node>
	<node id="-186857" lat="59.7368277777" lon="9.94932500007">
		<tag k="alt_name" v="Rollsrud" />
		<tag k="name" v="Rolvsrud" />
		<tag k="place" v="farm" />
		<tag k="ssr:stedsnr" v="791686" />
	</node>
	<node id="-186856" lat="59.7376305518" lon="9.8490194369">
		<tag k="name" v="Kolberg" />
		<tag k="place" v="farm" />
		<tag k="ssr:stedsnr" v="791679" />
	</node>
	<node id="-186855" lat="59.7272416627" lon="9.89901111077">
		<tag k="name" v="Gommerud" />
		<tag k="place" v="farm" />
		<tag k="ssr:stedsnr" v="791666" />
	</node>
	<node id="-186854" lat="59.7277444424" lon="9.82911665847">
		<tag k="name" v="Lundteigen" />
		<tag k="place" v="farm" />
		<tag k="ssr:stedsnr" v="791655" />
	</node>
	<node id="-186853" lat="59.7311527821" lon="9.6695111029">
		<tag k="name" v="Rørås" />
		<tag k="place" v="farm" />
		<tag k="ssr:stedsnr" v="791653" />
	</node>
	<node id="-186852" lat="59.6612555553" lon="9.76257222275">
		<tag k="name" v="Vego" />
		<tag k="place" v="farm" />
		<tag k="ssr:stedsnr" v="791557" />
	</node>
	<node id="-186850" lat="59.6687416698" lon="9.87672776913">
		<tag k="name" v="Søndre Gunhildrud" />
		<tag k="place" v="farm" />
		<tag k="ssr:stedsnr" v="791553" />
	</node>
	<node id="-186849" lat="59.8777388914" lon="9.91975833337">
		<tag k="name" v="Skillebekk" />
		<tag k="place" v="farm" />
		<tag k="ssr:stedsnr" v="785911" />
	</node>
	<node id="-186845" lat="59.6307749991" lon="9.94264166487">
		<tag k="fixme" v="consider place=hamlet" />
		<tag k="name" v="Hakavik" />
		<tag k="place" v="farm" />
		<tag k="ssr:stedsnr" v="768134" />
	</node>
	<node id="-186844" lat="59.8264083355" lon="9.88745000401">
		<tag k="name" v="Nordre Skott" />
		<tag k="old_name" v="Skott;Nordre Skot" />
		<tag k="place" v="farm" />
		<tag k="ssr:stedsnr" v="768077" />
	</node>
	<node id="-186842" lat="59.7025305584" lon="9.87030833848">
		<tag k="name" v="Brekke" />
		<tag k="place" v="farm" />
		<tag k="ssr:stedsnr" v="756706" />
	</node>
	<node id="-186836" lat="59.7155194427" lon="9.90850556195">
		<tag k="name" v="Nordre Svendsrud" />
		<tag k="place" v="farm" />
		<tag k="ssr:stedsnr" v="756296" />
	</node>
	<node id="-186833" lat="59.7996305521" lon="9.89977499181">
		<tag k="name" v="Nordre Langerud" />
		<tag k="place" v="farm" />
		<tag k="ssr:stedsnr" v="755738" />
	</node>
	<node id="-186828" lat="59.7156111087" lon="9.92604166633">
		<tag k="name" v="Møllesetra" />
		<tag k="place" v="isolated_dwelling" />
		<tag k="ssr:stedsnr" v="755481" />
	</node>
	<node id="-186827" lat="59.6669027771" lon="9.93929721745">
		<tag k="name" v="Lauvbråten" />
		<tag k="place" v="isolated_dwelling" />
		<tag k="ssr:stedsnr" v="755226" />
	</node>
	<node id="-186824" lat="59.7958749956" lon="9.91972778162">
		<tag k="name" v="Skutro" />
		<tag k="place" v="isolated_dwelling" />
		<tag k="ssr:stedsnr" v="754999" />
	</node>
	<node id="-186823" lat="59.8665694437" lon="9.91172499143">
		<tag k="name" v="Grina" />
		<tag k="place" v="isolated_dwelling" />
		<tag k="ssr:stedsnr" v="754994" />
	</node>
	<node id="-186822" lat="59.8647555547" lon="9.81515000813">
		<tag k="name" v="Nordre Vestby" />
		<tag k="place" v="farm" />
		<tag k="ssr:stedsnr" v="754971" />
	</node>
	<node id="-186821" lat="59.7717888919" lon="9.73988611436">
		<tag k="historic" v="shieling" />
		<tag k="name" v="Nordre Svartskurden" />
		<tag k="place" v="locality" />
		<tag k="ssr:stedsnr" v="754923" />
	</node>
	<node id="-186819" lat="59.7677666652" lon="9.89322778381">
		<tag k="name" v="Prestmo" />
		<tag k="place" v="farm" />
		<tag k="ssr:stedsnr" v="754834" />
	</node>
	<node id="-186814" lat="59.8125750035" lon="9.87188611796">
		<tag k="name" v="Brekka" />
		<tag k="place" v="farm" />
		<tag k="ssr:stedsnr" v="754649" />
	</node>
	<node id="-186813" lat="59.8287138864" lon="9.90569167423">
		<tag k="name" v="Wittenberg" />
		<tag k="place" v="isolated_dwelling" />
		<tag k="ssr:stedsnr" v="754626" />
	</node>
	<node id="-186809" lat="59.8865444406" lon="9.74914721856">
		<tag k="name" v="Biringvad" />
		<tag k="place" v="farm" />
		<tag k="ssr:stedsnr" v="754519" />
	</node>
	<node id="-186807" lat="59.7486277743" lon="9.72299166225">
		<tag k="name" v="Svendseplassen" />
		<tag k="place" v="isolated_dwelling" />
		<tag k="ssr:stedsnr" v="754435" />
	</node>
	<node id="-186805" lat="59.7285388905" lon="9.85567500367">
		<tag k="name" v="Lunde" />
		<tag k="place" v="farm" />
		<tag k="ssr:stedsnr" v="754351" />
	</node>
	<node id="-186803" lat="59.7461638876" lon="9.87553054965">
		<tag k="name" v="Torespæren" />
		<tag k="place" v="farm" />
		<tag k="ssr:stedsnr" v="754150" />
	</node>
	<node id="-186800" lat="59.8045638907" lon="9.89949443743">
		<tag k="name" v="Strømbu" />
		<tag k="place" v="isolated_dwelling" />
		<tag k="ssr:stedsnr" v="753668" />
	</node>
	<node id="-186799" lat="59.8429000027" lon="9.91067778418">
		<tag k="name" v="Nedre Knive" />
		<tag k="place" v="farm" />
		<tag k="ssr:stedsnr" v="753631" />
	</node>
	<node id="-186786" lat="59.691563893" lon="9.68161111854">
		<tag k="name" v="Såtevollen" />
		<tag k="place" v="farm" />
		<tag k="ssr:stedsnr" v="751895" />
	</node>
	<node id="-186781" lat="59.8438888846" lon="9.9136138849">
		<tag k="alt_name" v="Knive" />
		<tag k="name" v="Øvre Knive" />
		<tag k="place" v="farm" />
		<tag k="ssr:stedsnr" v="732744" />
	</node>
	<node id="-186776" lat="59.8385861106" lon="9.91717778321">
		<tag k="name" v="Horsrud" />
		<tag k="place" v="farm" />
		<tag k="ssr:stedsnr" v="732706" />
	</node>
	<node id="-186774" lat="59.854602777" lon="9.91000000232">
		<tag k="name" v="Leversby" />
		<tag k="place" v="farm" />
		<tag k="ssr:stedsnr" v="732669" />
	</node>
	<node id="-186773" lat="59.8626694466" lon="9.83079444205">
		<tag k="alt_name" v="Ristvedt" />
		<tag k="fixme" v="consider place=hamlet" />
		<tag k="name" v="Ristvet" />
		<tag k="place" v="farm" />
		<tag k="ssr:stedsnr" v="732668" />
	</node>
	<node id="-186772" lat="59.7686138892" lon="9.91080834055">
		<tag k="name" v="Hokksund" />
		<tag k="place" v="town" />
		<tag k="ssr:stedsnr" v="732651" />
	</node>
	<node id="-186770" lat="59.7783805515" lon="9.77060000663">
		<tag k="fixme" v="multiple name tags, choose one and add the other to alt_name" />
		<tag k="historic" v="shieling" />
		<tag k="name" v="Lortholsetra;Lortsetra" />
		<tag k="place" v="locality" />
		<tag k="ssr:stedsnr" v="732628" />
	</node>
	<node id="-186769" lat="59.7604499988" lon="9.78611110872">
		<tag k="name" v="Bergsetervollen" />
		<tag k="place" v="locality" />
		<tag k="ssr:stedsnr" v="732601" />
	</node>
	<node id="-186764" lat="59.8551972208" lon="9.9699916713">
		<tag k="name" v="Knivesetra" />
		<tag k="place" v="isolated_dwelling" />
		<tag k="ssr:stedsnr" v="732278" />
	</node>
	<node id="-186762" lat="59.6926638887" lon="9.7970083257">
		<tag k="name" v="Rud" />
		<tag k="place" v="farm" />
		<tag k="ssr:stedsnr" v="732001" />
	</node>
	<node id="-186757" lat="59.7459277746" lon="9.92961665935">
		<tag k="name" v="Smedsrud" />
		<tag k="place" v="farm" />
		<tag k="ssr:stedsnr" v="731669" />
	</node>
	<node id="-186756" lat="59.7484666662" lon="9.87909999301">
		<tag k="name" v="Berg" />
		<tag k="place" v="farm" />
		<tag k="ssr:stedsnr" v="731654" />
	</node>
	<node id="-186751" lat="59.71933333" lon="9.87555277046">
		<tag k="name" v="Såsen" />
		<tag k="place" v="farm" />
		<tag k="ssr:stedsnr" v="696679" />
	</node>
	<node id="-186741" lat="59.7757138853" lon="9.88781388312">
		<tag k="name" v="Øvre Hoen" />
		<tag k="place" v="farm" />
		<tag k="ssr:stedsnr" v="694865" />
	</node>
	<node id="-186739" lat="59.7893722222" lon="9.86513888779">
		<tag k="name" v="Varlo" />
		<tag k="place" v="farm" />
		<tag k="ssr:stedsnr" v="694720" />
	</node>
	<node id="-186733" lat="59.7550111071" lon="9.8476416619">
		<tag k="name" v="Kjerkås" />
		<tag k="place" v="isolated_dwelling" />
		<tag k="ssr:stedsnr" v="694004" />
	</node>
	<node id="-186732" lat="59.7716138861" lon="9.86176944713">
		<tag k="name" v="Røren" />
		<tag k="place" v="farm" />
		<tag k="ssr:stedsnr" v="693969" />
	</node>
	<node id="-186731" lat="59.7771611139" lon="9.84959166835">
		<tag k="name" v="Hotvet" />
		<tag k="place" v="farm" />
		<tag k="ssr:stedsnr" v="693958" />
	</node>
	<node id="-186729" lat="59.7930027789" lon="9.85731665923">
		<tag k="name" v="Nordheim" />
		<tag k="place" v="farm" />
		<tag k="ssr:stedsnr" v="693928" />
	</node>
	<node id="-186722" lat="59.8241777778" lon="9.90626111577">
		<tag k="name" v="Suterud" />
		<tag k="place" v="farm" />
		<tag k="ssr:stedsnr" v="693639" />
	</node>
	<node id="-186714" lat="59.7501555532" lon="9.86795833012">
		<tag k="name" v="Skjøl" />
		<tag k="place" v="farm" />
		<tag k="ssr:stedsnr" v="693135" />
	</node>
	<node id="-186709" lat="59.8812583321" lon="9.77378611165">
		<tag k="name" v="Nedre Håre" />
		<tag k="place" v="farm" />
		<tag k="ssr:stedsnr" v="693504" />
	</node>
	<node id="-186707" lat="59.7499611154" lon="9.95071666492">
		<tag k="name" v="Skistad" />
		<tag k="place" v="farm" />
		<tag k="ssr:stedsnr" v="690754" />
	</node>
	<node id="-186705" lat="59.708583337" lon="9.85272777759">
		<tag k="fixme" v="multiple name tags, choose one and add the other to alt_name" />
		<tag k="name" v="Grinda;Sand" />
		<tag k="place" v="farm" />
		<tag k="ssr:stedsnr" v="731576" />
	</node>
	<node id="-186704" lat="59.7078916655" lon="9.80845278522">
		<tag k="name" v="Rud" />
		<tag k="place" v="farm" />
		<tag k="ssr:stedsnr" v="731575" />
	</node>
	<node id="-186703" lat="59.6965033089" lon="9.80307796237">
		<tag k="name" v="Fiskum" />
		<tag k="place" v="farm" />
		<tag k="ssr:stedsnr" v="731574" />
	</node>
	<node id="-186702" lat="59.6892638892" lon="9.79468332589">
		<tag k="name" v="Rud" />
		<tag k="place" v="farm" />
		<tag k="ssr:stedsnr" v="731557" />
	</node>
	<node id="-186701" lat="59.6885888906" lon="9.74143888044">
		<tag k="name" v="Skogen" />
		<tag k="place" v="farm" />
		<tag k="ssr:stedsnr" v="731555" />
	</node>
	<node id="-186700" lat="59.6925249966" lon="9.91771110324">
		<tag k="alt_name" v="Enga" />
		<tag k="name" v="Engasetra" />
		<tag k="place" v="isolated_dwelling" />
		<tag k="ssr:stedsnr" v="731552" />
	</node>
	<node id="-186698" lat="59.8347138886" lon="9.86549443678">
		<tag k="alt_name" v="Nedre Rakkestad" />
		<tag k="name" v="Rakkestad" />
		<tag k="place" v="farm" />
		<tag k="ssr:stedsnr" v="671706" />
	</node>
	<node id="-186697" lat="59.7442166697" lon="9.92526388372">
		<tag k="name" v="Dalsrud" />
		<tag k="place" v="farm" />
		<tag k="ssr:stedsnr" v="671703" />
	</node>
	<node id="-186693" lat="59.8729450013" lon="9.89631946347">
		<tag k="name" v="Grøtåsen" />
		<tag k="place" v="farm" />
		<tag k="ssr:stedsnr" v="671660" />
	</node>
	<node id="-186692" lat="59.8609805585" lon="9.920241659">
		<tag k="alt_name" v="Fjerdingstad" />
		<tag k="name" v="Nordre Fjerdingstad" />
		<tag k="place" v="farm" />
		<tag k="ssr:stedsnr" v="671650" />
	</node>
	<node id="-186690" lat="59.8702166671" lon="9.74274167302">
		<tag k="name" v="Håresetra" />
		<tag k="place" v="isolated_dwelling" />
		<tag k="ssr:stedsnr" v="671634" />
	</node>
	<node id="-186689" lat="59.7748305548" lon="9.92645832462">
		<tag k="name" v="Sanden" />
		<tag k="place" v="farm" />
		<tag k="ssr:stedsnr" v="671626" />
	</node>
	<node id="-186688" lat="59.7732055582" lon="9.83850832899">
		<tag k="name" v="Breidablikk" />
		<tag k="place" v="farm" />
		<tag k="ssr:stedsnr" v="671620" />
	</node>
	<node id="-186687" lat="59.7696083347" lon="9.8517805579">
		<tag k="alt_name" v="Åsgard" />
		<tag k="amenity" v="nursing_home" />
		<tag k="name" v="Åsgård" />
		<tag k="ssr:stedsnr" v="671618" />
	</node>
	<node id="-186686" lat="59.6850666712" lon="9.75719722125">
		<tag k="name" v="Nordre Kofstad" />
		<tag k="place" v="farm" />
		<tag k="ssr:stedsnr" v="671590" />
	</node>
	<node id="-186684" lat="59.7540666664" lon="9.90777499808">
		<tag k="name" v="Åker" />
		<tag k="place" v="farm" />
		<tag k="ssr:stedsnr" v="671580" />
	</node>
	<node id="-186683" lat="59.756377782" lon="9.83171666322">
		<tag k="name" v="Ormåsen" />
		<tag k="place" v="quarter" />
		<tag k="ssr:stedsnr" v="671575" />
	</node>
	<node id="-186682" lat="59.7588361092" lon="9.87175278086">
		<tag k="name" v="Nordre Ås" />
		<tag k="place" v="farm" />
		<tag k="ssr:stedsnr" v="671561" />
	</node>
	<node id="-186681" lat="59.8184916631" lon="9.95321666026">
		<tag k="name" v="Geveltsetra" />
		<tag k="place" v="isolated_dwelling" />
		<tag k="ssr:stedsnr" v="671534" />
	</node>
	<node id="-186680" lat="59.7857305593" lon="9.87751389331">
		<tag k="name" v="Varlo" />
		<tag k="place" v="farm" />
		<tag k="ssr:stedsnr" v="671520" />
	</node>
	<node id="-186676" lat="59.7311553408" lon="9.92884352858">
		<tag k="name" v="Gantum" />
		<tag k="place" v="farm" />
		<tag k="ssr:stedsnr" v="670671" />
	</node>
	<node id="-186674" lat="59.7122861136" lon="9.69154443747">
		<tag k="name" v="Lauvlia" />
		<tag k="place" v="farm" />
		<tag k="ssr:stedsnr" v="670636" />
	</node>
	<node id="-186672" lat="59.7208083337" lon="9.84685000419">
		<tag k="name" v="Flesaker" />
		<tag k="place" v="farm" />
		<tag k="ssr:stedsnr" v="670626" />
	</node>
	<node id="-186670" lat="59.7039444406" lon="9.85725278612">
		<tag k="name" v="Sand" />
		<tag k="place" v="farm" />
		<tag k="ssr:stedsnr" v="670608" />
	</node>
	<node id="-186669" lat="59.7068527747" lon="9.86174443987">
		<tag k="name" v="Sandsbakken" />
		<tag k="place" v="farm" />
		<tag k="ssr:stedsnr" v="670606" />
	</node>
	<node id="-186666" lat="59.6708249967" lon="9.7739194504">
		<tag k="alt_name" v="Kårtvedt" />
		<tag k="name" v="Kårtvet" />
		<tag k="place" v="farm" />
		<tag k="ssr:stedsnr" v="670549" />
	</node>
	<node id="-186664" lat="59.6667305586" lon="9.81829165925">
		<tag k="name" v="Råensetra" />
		<tag k="place" v="isolated_dwelling" />
		<tag k="ssr:stedsnr" v="670537" />
	</node>
	<node id="-186663" lat="59.6353083364" lon="9.93698610249">
		<tag k="name" v="Gislerud" />
		<tag k="place" v="farm" />
		<tag k="ssr:stedsnr" v="670502" />
	</node>
	<node id="-186658" lat="59.6924027757" lon="9.84700277179">
		<tag k="fixme" v="multiple name tags, choose one and add the other to alt_name" />
		<tag k="name" v="Løkka;Tangen" />
		<tag k="place" v="farm" />
		<tag k="ssr:stedsnr" v="731551" />
	</node>
	<node id="-186657" lat="59.6763555531" lon="9.74134167403">
		<tag k="historic" v="shieling" />
		<tag k="name" v="Jøranrud" />
		<tag k="place" v="locality" />
		<tag k="ssr:stedsnr" v="731533" />
	</node>
	<node id="-186656" lat="59.6559888863" lon="9.91137221599">
		<tag k="name" v="Grimnes" />
		<tag k="place" v="farm" />
		<tag k="ssr:stedsnr" v="731516" />
	</node>
	<node id="-186655" lat="59.6541111102" lon="9.8729916717">
		<tag k="name" v="Knattheim" />
		<tag k="place" v="isolated_dwelling" />
		<tag k="ssr:stedsnr" v="731515" />
	</node>
	<node id="-186650" lat="59.7063000025" lon="9.85372777734">
		<tag k="name" v="Sand" />
		<tag k="place" v="farm" />
		<tag k="ssr:stedsnr" v="634528" />
	</node>
	<node id="-186649" lat="59.7072027773" lon="9.84624166307">
		<tag k="name" v="Frydenlund" />
		<tag k="place" v="farm" />
		<tag k="ssr:stedsnr" v="634526" />
	</node>
	<node id="-186642" lat="59.8002555523" lon="9.76666389739">
		<tag k="name" v="Barlinddokka" />
		<tag k="place" v="isolated_dwelling" />
		<tag k="ssr:stedsnr" v="633889" />
	</node>
	<node id="-186641" lat="59.7783777807" lon="9.91336665804">
		<tag k="leisure" v="pitch" />
		<tag k="name" v="Falkbanen" />
		<tag k="ssr:stedsnr" v="633872" />
	</node>
	<node id="-186640" lat="59.8095638899" lon="9.87406666493">
		<tag k="fixme" v="multiple name tags, choose one and add the other to alt_name" />
		<tag k="name" v="Hvitstein;Nordre Hvitstein" />
		<tag k="place" v="farm" />
		<tag k="ssr:stedsnr" v="633782" />
	</node>
	<node id="-186639" lat="59.7752583298" lon="9.87303334175">
		<tag k="name" v="Hovet" />
		<tag k="place" v="farm" />
		<tag k="ssr:stedsnr" v="633729" />
	</node>
	<node id="-186637" lat="59.7431472208" lon="9.86162777758">
		<tag k="name" v="Hals" />
		<tag k="place" v="farm" />
		<tag k="ssr:stedsnr" v="633332" />
	</node>
	<node id="-186635" lat="59.7708277816" lon="9.85703610964">
		<tag k="name" v="Solstad" />
		<tag k="place" v="farm" />
		<tag k="ssr:stedsnr" v="632959" />
	</node>
	<node id="-186634" lat="59.8039583334" lon="9.84874722451">
		<tag k="name" v="Stenset" />
		<tag k="place" v="farm" />
		<tag k="ssr:stedsnr" v="632921" />
	</node>
	<node id="-186632" lat="59.7892222256" lon="9.86973888669">
		<tag k="name" v="Valheim" />
		<tag k="place" v="farm" />
		<tag k="ssr:stedsnr" v="632697" />
	</node>
	<node id="-186626" lat="59.8264333361" lon="9.86584722783">
		<tag k="name" v="Tandbergbakken" />
		<tag k="place" v="farm" />
		<tag k="ssr:stedsnr" v="632607" />
	</node>
	<node id="-186620" lat="59.6207944467" lon="9.89224444598">
		<tag k="name" v="Buttingen" />
		<tag k="place" v="isolated_dwelling" />
		<tag k="ssr:stedsnr" v="630874" />
	</node>
	<node id="-186616" lat="59.6997222267" lon="9.80784167514">
		<tag k="name" v="Fiskum" />
		<tag k="place" v="farm" />
		<tag k="ssr:stedsnr" v="630542" />
	</node>
	<node id="-186612" lat="59.7712805591" lon="9.9562999932">
		<tag k="name" v="Horgen" />
		<tag k="place" v="farm" />
		<tag k="ssr:stedsnr" v="629736" />
	</node>
	<node id="-186608" lat="59.749877776" lon="9.91317222022">
		<tag k="name" v="Åker" />
		<tag k="place" v="farm" />
		<tag k="ssr:stedsnr" v="611505" />
	</node>
	<node id="-186605" lat="59.7474222259" lon="9.8947305484">
		<tag k="name" v="Bryn" />
		<tag k="place" v="farm" />
		<tag k="ssr:stedsnr" v="610722" />
	</node>
	<node id="-186600" lat="59.888866665" lon="9.69017500607">
		<tag k="name" v="Tonhaugen" />
		<tag k="place" v="isolated_dwelling" />
		<tag k="ssr:stedsnr" v="610683" />
	</node>
	<node id="-186599" lat="59.8694444439" lon="9.90779443981">
		<tag k="name" v="Ødeverp" />
		<tag k="place" v="farm" />
		<tag k="ssr:stedsnr" v="610675" />
	</node>
	<node id="-186594" lat="59.7732499979" lon="9.94728332527">
		<tag k="name" v="Klommestein" />
		<tag k="place" v="farm" />
		<tag k="ssr:stedsnr" v="610642" />
	</node>
	<node id="-186593" lat="59.7704388908" lon="9.8651833314">
		<tag k="name" v="Åsroa" />
		<tag k="place" v="farm" />
		<tag k="ssr:stedsnr" v="610641" />
	</node>
	<node id="-186592" lat="59.6992194474" lon="9.87301110956">
		<tag k="name" v="Brekke" />
		<tag k="place" v="farm" />
		<tag k="ssr:stedsnr" v="610640" />
	</node>
	<node id="-186591" lat="59.683266663" lon="9.71347221372">
		<tag k="name" v="Dokka" />
		<tag k="place" v="farm" />
		<tag k="ssr:stedsnr" v="610621" />
	</node>
	<node id="-186590" lat="59.6814444457" lon="9.76253333891">
		<tag k="name" v="Søndre Skraperud" />
		<tag k="place" v="farm" />
		<tag k="ssr:stedsnr" v="610620" />
	</node>
	<node id="-186589" lat="59.7533737521" lon="9.92897005421">
		<tag k="name" v="Lo" />
		<tag k="place" v="hamlet" />
		<tag k="ssr:stedsnr" v="610618" />
	</node>
	<node id="-186588" lat="59.7603583299" lon="9.84234999273">
		<tag k="name" v="Ødegården" />
		<tag k="place" v="farm" />
		<tag k="ssr:stedsnr" v="610602" />
	</node>
	<node id="-186583" lat="59.6278583346" lon="9.93850000136">
		<tag k="name" v="Øvre Hakavik" />
		<tag k="place" v="farm" />
		<tag k="ssr:stedsnr" v="610570" />
	</node>
	<node id="-186581" lat="59.7904972178" lon="9.86267222091">
		<tag k="alt_name" v="Varlo" />
		<tag k="name" v="Nordre Varlo" />
		<tag k="place" v="farm" />
		<tag k="ssr:stedsnr" v="610564" />
	</node>
	<node id="-186580" lat="59.7993472181" lon="9.91417499707">
		<tag k="alt_name" v="Skibrek" />
		<tag k="fixme" v="consider place=hamlet" />
		<tag k="name" v="Skibrekk" />
		<tag k="place" v="farm" />
		<tag k="ssr:stedsnr" v="610550" />
	</node>
	<node id="-186579" lat="59.7985555515" lon="9.7729222288">
		<tag k="historic" v="shieling" />
		<tag k="name" v="Humlebekksetra" />
		<tag k="place" v="locality" />
		<tag k="ssr:stedsnr" v="610546" />
	</node>
	<node id="-186572" lat="59.710022221" lon="9.85930277087">
		<tag k="alt_name" v="Såsen" />
		<tag k="name" v="Lille Såsen" />
		<tag k="place" v="farm" />
		<tag k="ssr:stedsnr" v="609589" />
	</node>
	<node id="-186571" lat="59.7073416652" lon="9.77513611394">
		<tag k="name" v="Myrvang" />
		<tag k="place" v="farm" />
		<tag k="ssr:stedsnr" v="609586" />
	</node>
	<node id="-186555" lat="59.7931007908" lon="9.75976972773">
		<tag k="historic" v="shieling" />
		<tag k="name" v="Hanseplass" />
		<tag k="place" v="locality" />
		<tag k="ssr:stedsnr" v="572791" />
	</node>
	<node id="-186554" lat="59.7911805546" lon="9.87838055877">
		<tag k="name" v="Skotsmoen" />
		<tag k="place" v="farm" />
		<tag k="ssr:stedsnr" v="572744" />
	</node>
	<node id="-186553" lat="59.7883388882" lon="9.87583333225">
		<tag k="name" v="Skjoldhaug" />
		<tag k="place" v="farm" />
		<tag k="ssr:stedsnr" v="572743" />
	</node>
	<node id="-186552" lat="59.7938444451" lon="9.86817777891">
		<tag k="name" v="Varlo" />
		<tag k="place" v="farm" />
		<tag k="ssr:stedsnr" v="572741" />
	</node>
	<node id="-186551" lat="59.8563805553" lon="9.94304165782">
		<tag k="name" v="Fjellheim" />
		<tag k="place" v="isolated_dwelling" />
		<tag k="ssr:stedsnr" v="572692" />
	</node>
	<node id="-186548" lat="59.8550472261" lon="9.79137777355">
		<tag k="name" v="Elsebu" />
		<tag k="place" v="isolated_dwelling" />
		<tag k="ssr:stedsnr" v="572038" />
	</node>
	<node id="-186545" lat="59.8905151088" lon="9.73966040933">
		<tag k="name" v="Ødegården" />
		<tag k="place" v="farm" />
		<tag k="ssr:stedsnr" v="571391" />
	</node>
	<node id="-186543" lat="59.734213886" lon="9.96483888449">
		<tag k="name" v="Kleiva" />
		<tag k="place" v="isolated_dwelling" />
		<tag k="ssr:stedsnr" v="571343" />
	</node>
	<node id="-186541" lat="59.7430555515" lon="9.87231943677">
		<tag k="name" v="Spæren" />
		<tag k="place" v="farm" />
		<tag k="ssr:stedsnr" v="571253" />
	</node>
	<node id="-186538" lat="59.7592277753" lon="9.90149722954">
		<tag k="leisure" v="pitch" />
		<tag k="name" v="Øvre Eiker stadion" />
		<tag k="ssr:stedsnr" v="571066" />
	</node>
	<node id="-186535" lat="59.7558916628" lon="9.92668610518">
		<tag k="name" v="Østre Lo" />
		<tag k="place" v="farm" />
		<tag k="ssr:stedsnr" v="568703" />
	</node>
	<node id="-186530" lat="59.8550916627" lon="9.83425556022">
		<tag k="alt_name" v="Øvre Borge" />
		<tag k="name" v="Borge" />
		<tag k="place" v="farm" />
		<tag k="ssr:stedsnr" v="550705" />
	</node>
	<node id="-186528" lat="59.8828638882" lon="9.77098888095">
		<tag k="alt_name" v="Nordre Håre" />
		<tag k="name" v="Håre" />
		<tag k="place" v="farm" />
		<tag k="ssr:stedsnr" v="550652" />
	</node>
	<node id="-186527" lat="59.8817000023" lon="9.78653333393">
		<tag k="name" v="Fogderud" />
		<tag k="place" v="farm" />
		<tag k="ssr:stedsnr" v="550651" />
	</node>
	<node id="-186526" lat="59.8881944444" lon="9.77528888335">
		<tag k="alt_name" v="Sønju" />
		<tag k="name" v="Haugsønju" />
		<tag k="place" v="farm" />
		<tag k="ssr:stedsnr" v="550631" />
	</node>
	<node id="-186525" lat="59.870894446" lon="9.70964445007">
		<tag k="name" v="Svartbekk" />
		<tag k="place" v="isolated_dwelling" />
		<tag k="ssr:stedsnr" v="550616" />
	</node>
	<node id="-186523" lat="59.7570222215" lon="9.90886944666">
		<tag k="name" v="Akersborg" />
		<tag k="place" v="farm" />
		<tag k="ssr:stedsnr" v="550576" />
	</node>
	<node id="-186522" lat="59.8042999999" lon="9.90754722501">
		<tag k="alt_name" v="Nygård" />
		<tag k="name" v="Kolbrek" />
		<tag k="place" v="farm" />
		<tag k="ssr:stedsnr" v="550541" />
	</node>
	<node id="-186520" lat="59.7932750033" lon="9.8514305597">
		<tag k="name" v="Nordre Solum" />
		<tag k="place" v="farm" />
		<tag k="ssr:stedsnr" v="550507" />
	</node>
	<node id="-186515" lat="59.7429444409" lon="9.88754721976">
		<tag k="name" v="Vålen" />
		<tag k="place" v="farm" />
		<tag k="ssr:stedsnr" v="549686" />
	</node>
	<node id="-186514" lat="59.7482833338" lon="9.9471222207">
		<tag k="name" v="Skistad" />
		<tag k="place" v="farm" />
		<tag k="ssr:stedsnr" v="549679" />
	</node>
	<node id="-186513" lat="59.7496805548" lon="9.83593333226">
		<tag k="name" v="Spærenplassen" />
		<tag k="place" v="farm" />
		<tag k="ssr:stedsnr" v="549670" />
	</node>
	<node id="-186512" lat="59.737836109" lon="9.88557499459">
		<tag k="name" v="Smørgrav" />
		<tag k="place" v="farm" />
		<tag k="ssr:stedsnr" v="549660" />
	</node>
	<node id="-186511" lat="59.7337555534" lon="9.83975833158">
		<tag k="alt_name" v="Skarra" />
		<tag k="name" v="Øvre Skarra" />
		<tag k="place" v="farm" />
		<tag k="ssr:stedsnr" v="549656" />
	</node>
	<node id="-186510" lat="59.7324611153" lon="9.86802777754">
		<tag k="name" v="Vestfossen" />
		<tag k="place" v="village" />
		<tag k="ssr:stedsnr" v="549646" />
	</node>
	<node id="-186507" lat="59.7106241558" lon="9.81292332779">
		<tag k="name" v="Paule" />
		<tag k="place" v="farm" />
		<tag k="ssr:stedsnr" v="549604" />
	</node>
	<node id="-186504" lat="59.7691500045" lon="9.75333332622">
		<tag k="name" v="Spærensetra" />
		<tag k="place" v="isolated_dwelling" />
		<tag k="ssr:stedsnr" v="549591" />
	</node>
	<node id="-186503" lat="59.6924027813" lon="9.79468889779">
		<tag k="amenity" v="school" />
		<tag k="name" v="Heimtun" />
		<tag k="ssr:stedsnr" v="549584" />
	</node>
	<node id="-186502" lat="59.6907861125" lon="9.74931667407">
		<tag k="name" v="Slåttebråten" />
		<tag k="place" v="farm" />
		<tag k="ssr:stedsnr" v="549581" />
	</node>
	<node id="-186500" lat="59.6878583311" lon="9.85118611625">
		<tag k="name" v="Bollerud" />
		<tag k="place" v="farm" />
		<tag k="ssr:stedsnr" v="549574" />
	</node>
	<node id="-186498" lat="59.6833888859" lon="9.68769999452">
		<tag k="name" v="Midnatten" />
		<tag k="place" v="farm" />
		<tag k="ssr:stedsnr" v="549563" />
	</node>
	<node id="-186497" lat="59.6784388884" lon="9.74792221765">
		<tag k="name" v="Liverud" />
		<tag k="place" v="farm" />
		<tag k="ssr:stedsnr" v="549560" />
	</node>
	<node id="-186495" lat="59.6738027775" lon="9.87276110829">
		<tag k="alt_name" v="Gunhildrud" />
		<tag k="name" v="Nordre Gunhildrud" />
		<tag k="place" v="farm" />
		<tag k="ssr:stedsnr" v="549547" />
	</node>
	<node id="-186494" lat="59.6602083327" lon="9.74709166658">
		<tag k="alt_name" v="Spisshol" />
		<tag k="name" v="Spissholt" />
		<tag k="place" v="farm" />
		<tag k="ssr:stedsnr" v="549545" />
	</node>
	<node id="-186486" lat="59.6782388871" lon="9.78592222093">
		<tag k="name" v="Stavlum" />
		<tag k="place" v="farm" />
		<tag k="ssr:stedsnr" v="549002" />
	</node>
	<node id="-186481" lat="59.8251250012" lon="9.88734444125">
		<tag k="name" v="Søndre Skott" />
		<tag k="old_name" v="Skott" />
		<tag k="place" v="farm" />
		<tag k="ssr:stedsnr" v="527047" />
	</node>
	<node id="-186480" lat="59.7936861124" lon="9.83210832617">
		<tag k="fixme" v="consider place=hamlet" />
		<tag k="name" v="Grøsland" />
		<tag k="place" v="farm" />
		<tag k="ssr:stedsnr" v="525271" />
	</node>
	<node id="-186479" lat="59.7098116019" lon="9.69555510703">
		<tag k="name" v="Haugen" />
		<tag k="place" v="farm" />
		<tag k="ssr:stedsnr" v="513846" />
	</node>
	<node id="-186477" lat="59.6956444446" lon="9.8770555537">
		<tag k="name" v="Brekke" />
		<tag k="place" v="farm" />
		<tag k="ssr:stedsnr" v="513696" />
	</node>
	<node id="-186471" lat="59.8721194487" lon="9.81816111795">
		<tag k="name" v="Jaren" />
		<tag k="place" v="farm" />
		<tag k="ssr:stedsnr" v="512968" />
	</node>
	<node id="-186465" lat="59.8418277754" lon="9.8854833309">
		<tag k="name" v="Pilterud" />
		<tag k="place" v="isolated_dwelling" />
		<tag k="ssr:stedsnr" v="512620" />
	</node>
	<node id="-186464" lat="59.846999999" lon="9.90288889252">
		<tag k="name" v="Løvstad" />
		<tag k="place" v="isolated_dwelling" />
		<tag k="ssr:stedsnr" v="512594" />
	</node>
	<node id="-186462" lat="59.737672219" lon="9.83488333586">
		<tag k="name" v="Kolberg" />
		<tag k="place" v="farm" />
		<tag k="ssr:stedsnr" v="512465" />
	</node>
	<node id="-186461" lat="59.7230861076" lon="9.84003334177">
		<tag k="name" v="Måsnes" />
		<tag k="place" v="farm" />
		<tag k="ssr:stedsnr" v="512462" />
	</node>
	<node id="-186459" lat="59.8743916626" lon="9.91401666313">
		<tag k="name" v="Verp" />
		<tag k="place" v="farm" />
		<tag k="ssr:stedsnr" v="512061" />
	</node>
	<node id="-186458" lat="59.859386107" lon="9.8632333375">
		<tag k="name" v="Lobben" />
		<tag k="place" v="farm" />
		<tag k="ssr:stedsnr" v="512058" />
	</node>
	<node id="-186457" lat="59.7788166662" lon="9.86092500756">
		<tag k="name" v="Kolstad" />
		<tag k="place" v="farm" />
		<tag k="ssr:stedsnr" v="511966" />
	</node>
	<node id="-186455" lat="59.7804611146" lon="9.83846666473">
		<tag k="name" v="Stuverud" />
		<tag k="place" v="farm" />
		<tag k="ssr:stedsnr" v="511894" />
	</node>
	<node id="-186444" lat="59.8241916701" lon="9.95493610668">
		<tag k="name" v="Brennstua" />
		<tag k="place" v="isolated_dwelling" />
		<tag k="ssr:stedsnr" v="511564" />
	</node>
	<node id="-186442" lat="59.8890805534" lon="9.77300832804">
		<tag k="name" v="Torvaldsønju" />
		<tag k="place" v="farm" />
		<tag k="ssr:stedsnr" v="511465" />
	</node>
	<node id="-186440" lat="59.8770720459" lon="9.71613260597">
		<tag k="name" v="Torstykket" />
		<tag k="place" v="isolated_dwelling" />
		<tag k="ssr:stedsnr" v="511378" />
	</node>
	<node id="-186437" lat="59.7577888867" lon="9.87005833308">
		<tag k="name" v="Ås" />
		<tag k="place" v="farm" />
		<tag k="ssr:stedsnr" v="511066" />
	</node>
	<node id="-186433" lat="59.6582055599" lon="9.75772222338">
		<tag k="name" v="Vego" />
		<tag k="place" v="farm" />
		<tag k="ssr:stedsnr" v="509439" />
	</node>
	<node id="-186431" lat="59.686316669" lon="9.69275278101">
		<tag k="name" v="Bomplassen" />
		<tag k="place" v="farm" />
		<tag k="ssr:stedsnr" v="508882" />
	</node>
	<node id="-186430" lat="59.7701499997" lon="9.95080832627">
		<tag k="name" v="Horgen" />
		<tag k="place" v="farm" />
		<tag k="ssr:stedsnr" v="508744" />
	</node>
	<node id="-186427" lat="59.8429361111" lon="9.87971666671">
		<tag k="name" v="Bakke" />
		<tag k="place" v="farm" />
		<tag k="ssr:stedsnr" v="490748" />
	</node>
	<node id="-186425" lat="59.7436053465" lon="9.95978799085">
		<tag k="name" v="Nesthorne" />
		<tag k="place" v="farm" />
		<tag k="ssr:stedsnr" v="489706" />
	</node>
	<node id="-186424" lat="59.771161115" lon="9.84114444738">
		<tag k="name" v="Haugset" />
		<tag k="place" v="farm" />
		<tag k="ssr:stedsnr" v="489649" />
	</node>
	<node id="-186422" lat="59.7800250015" lon="9.83531111359">
		<tag k="alt_name" v="Enga" />
		<tag k="name" v="Engen" />
		<tag k="place" v="farm" />
		<tag k="ssr:stedsnr" v="489633" />
	</node>
	<node id="-186421" lat="59.7849444482" lon="9.84400277579">
		<tag k="alt_name" v="Kåsa" />
		<tag k="name" v="Vestre Kåsa" />
		<tag k="place" v="farm" />
		<tag k="ssr:stedsnr" v="489632" />
	</node>
	<node id="-186420" lat="59.750574998" lon="9.8983750068">
		<tag k="alt_name" v="Voldstad" />
		<tag k="name" v="Vølstad" />
		<tag k="place" v="farm" />
		<tag k="ssr:stedsnr" v="489616" />
	</node>
	<node id="-186418" lat="59.8082805556" lon="9.95268055538">
		<tag k="alt_name" v="Ullernsetra" />
		<tag k="name" v="Ullerensetra" />
		<tag k="place" v="isolated_dwelling" />
		<tag k="ssr:stedsnr" v="489583" />
	</node>
	<node id="-186414" lat="59.7916638895" lon="9.85035556138">
		<tag k="name" v="Søndre Solum" />
		<tag k="place" v="farm" />
		<tag k="ssr:stedsnr" v="489552" />
	</node>
	<node id="-186413" lat="59.7969444479" lon="9.85307499436">
		<tag k="name" v="Valstad" />
		<tag k="place" v="farm" />
		<tag k="ssr:stedsnr" v="489536" />
	</node>
	<node id="-186412" lat="59.7940638932" lon="9.90972776961">
		<tag k="name" v="Gevelt" />
		<tag k="place" v="farm" />
		<tag k="ssr:stedsnr" v="489533" />
	</node>
	<node id="-186410" lat="59.8701472223" lon="9.99441388733">
		<tag k="alt_name" v="Gjellumsetra" />
		<tag k="historic" v="shieling" />
		<tag k="name" v="Jellumvollen" />
		<tag k="place" v="locality" />
		<tag k="ssr:stedsnr" v="489356" />
	</node>
	<node id="-186408" lat="59.6744444488" lon="9.7787861146">
		<tag k="alt_name" v="Kårtvedt" />
		<tag k="name" v="Kårtvet" />
		<tag k="place" v="farm" />
		<tag k="ssr:stedsnr" v="489014" />
	</node>
	<node id="-186407" lat="59.685041671" lon="9.84389166164">
		<tag k="name" v="Bollerud" />
		<tag k="place" v="farm" />
		<tag k="ssr:stedsnr" v="489005" />
	</node>
	<node id="-186406" lat="59.7382416682" lon="9.96286111587">
		<tag k="alt_name" v="Horne" />
		<tag k="name" v="Søndre Horne" />
		<tag k="place" v="farm" />
		<tag k="ssr:stedsnr" v="488665" />
	</node>
	<node id="-186405" lat="59.7301694404" lon="9.9235611053">
		<tag k="name" v="Flesseberg" />
		<tag k="place" v="farm" />
		<tag k="ssr:stedsnr" v="488656" />
	</node>
	<node id="-186404" lat="59.6933500027" lon="9.80714167108">
		<tag k="name" v="Fiskum" />
		<tag k="place" v="farm" />
		<tag k="ssr:stedsnr" v="489003" />
	</node>
	<node id="-186400" lat="59.6316805532" lon="9.93352499841">
		<tag k="name" v="Holtungen" />
		<tag k="place" v="locality" />
		<tag k="ssr:stedsnr" v="488509" />
	</node>
	<node id="-186398" lat="59.730105555" lon="9.93126110997">
		<tag k="name" v="Svendsrud" />
		<tag k="place" v="farm" />
		<tag k="ssr:stedsnr" v="488637" />
	</node>
	<node id="-186396" lat="59.701327782" lon="9.76975556156">
		<tag k="name" v="Jøstansrud" />
		<tag k="place" v="farm" />
		<tag k="ssr:stedsnr" v="488612" />
	</node>
	<node id="-186392" lat="59.7158686565" lon="9.69571897378">
		<tag k="name" v="Myra" />
		<tag k="place" v="farm" />
		<tag k="ssr:stedsnr" v="453833" />
	</node>
	<node id="-186391" lat="59.6847861127" lon="9.89456945145">
		<tag k="name" v="Hamre" />
		<tag k="place" v="farm" />
		<tag k="ssr:stedsnr" v="453720" />
	</node>
	<node id="-186387" lat="59.6910472234" lon="9.83750278637">
		<tag k="name" v="Bollerud" />
		<tag k="place" v="farm" />
		<tag k="ssr:stedsnr" v="453530" />
	</node>
	<node id="-186383" lat="59.6841166686" lon="9.90216666198">
		<tag k="name" v="Østerud" />
		<tag k="place" v="farm" />
		<tag k="ssr:stedsnr" v="452699" />
	</node>
	<node id="-186381" lat="59.7149333288" lon="9.93734167536">
		<tag k="name" v="Lostua" />
		<tag k="place" v="isolated_dwelling" />
		<tag k="ssr:stedsnr" v="452046" />
	</node>
	<node id="-186380" lat="59.8623250024" lon="9.91493333823">
		<tag k="name" v="Munkeplassen" />
		<tag k="place" v="isolated_dwelling" />
		<tag k="ssr:stedsnr" v="451987" />
	</node>
	<node id="-186379" lat="59.8691444467" lon="9.8178138922">
		<tag k="name" v="Sørli" />
		<tag k="place" v="farm" />
		<tag k="ssr:stedsnr" v="451962" />
	</node>
	<node id="-186375" lat="59.7783944472" lon="9.91749721823">
		<tag k="amenity" v="nursing_home" />
		<tag k="name" v="Lerberg Behandlingssenter" />
		<tag k="ssr:stedsnr" v="451806" />
	</node>
	<node id="-186374" lat="59.6894305597" lon="9.80847777546">
		<tag k="name" v="Råen" />
		<tag k="place" v="farm" />
		<tag k="ssr:stedsnr" v="451723" />
	</node>
	<node id="-186370" lat="59.8378861119" lon="9.95909721978">
		<tag k="name" v="Snaukollhytta" />
		<tag k="place" v="isolated_dwelling" />
		<tag k="ssr:stedsnr" v="451609" />
	</node>
</osm>
