<?xml version="1.0" encoding="UTF-8"?>
<osm generator="osmapis" version="0.6">
	<node id="-186368" lat="59.5918749982" lon="9.91983610652">
		<tag k="name" v="Kutjern" />
		<tag k="natural" v="water" />
		<tag k="ssr:stedsnr" v="451526" />
	</node>
	<node id="-186367" lat="59.5912447344" lon="9.91566480692">
		<tag k="name" v="Vesle Øksne" />
		<tag k="natural" v="water" />
		<tag k="ssr:stedsnr" v="451527" />
		<tag k="water" v="lake" />
	</node>
	<node id="-186355" lat="59.8536222179" lon="10.0463083357">
		<tag k="name" v="Sandungselva" />
		<tag k="ssr:stedsnr" v="450682" />
		<tag k="waterway" v="stream" />
	</node>
	<node id="-186354" lat="59.8346472238" lon="9.98006944894">
		<tag k="name" v="Søndre Trollåstjern" />
		<tag k="natural" v="water" />
		<tag k="ssr:stedsnr" v="450657" />
	</node>
	<node id="-186349" lat="59.8231777777" lon="9.89732499559">
		<tag k="name" v="Kverk hengsle" />
		<tag k="natural" v="cape" />
		<tag k="ssr:stedsnr" v="450639" />
	</node>
	<node id="-186347" lat="59.8162666692" lon="9.91920277958">
		<tag k="name" v="Framre Småtjern" />
		<tag k="natural" v="water" />
		<tag k="ssr:stedsnr" v="450634" />
	</node>
	<node id="-186346" lat="59.8367138904" lon="10.0127333246">
		<tag k="name" v="Hobbelstadtjern" />
		<tag k="natural" v="water" />
		<tag k="ssr:stedsnr" v="450630" />
	</node>
	<node id="-186343" lat="59.725052775" lon="9.94709166212">
		<tag k="name" v="Sandgrunn" />
		<tag k="natural" v="bay" />
		<tag k="ssr:stedsnr" v="450338" />
	</node>
	<node id="-186336" lat="59.8475222261" lon="9.76200832457">
		<tag k="name" v="Tryggtjern" />
		<tag k="natural" v="water" />
		<tag k="ssr:stedsnr" v="429739" />
	</node>
	<node id="-186332" lat="59.8297972196" lon="9.71561943818">
		<tag k="alt_name" v="Tjurutjern" />
		<tag k="name" v="Tjurumtjern" />
		<tag k="natural" v="water" />
		<tag k="ssr:stedsnr" v="429709" />
	</node>
	<node id="-186330" lat="59.8380555553" lon="9.89378055926">
		<tag k="name" v="Oset" />
		<tag k="natural" v="bay" />
		<tag k="ssr:stedsnr" v="429674" />
	</node>
	<node id="-186326" lat="59.7829944419" lon="9.78618888165">
		<tag k="name" v="Årbogen" />
		<tag k="natural" v="water" />
		<tag k="ssr:stedsnr" v="429585" />
	</node>
	<node id="-186317" lat="59.7264805513" lon="9.94400278257">
		<tag k="name" v="Åletjern" />
		<tag k="natural" v="water" />
		<tag k="ssr:stedsnr" v="428645" />
	</node>
	<node id="-186296" lat="59.5874972211" lon="9.9382444434">
		<tag k="name" v="Øksne" />
		<tag k="natural" v="water" />
		<tag k="ssr:stedsnr" v="428421" />
		<tag k="water" v="lake" />
	</node>
	<node id="-186295" lat="59.6057972215" lon="9.87303333281">
		<tag k="alt_name" v="Fagervann" />
		<tag k="name" v="Fagervannet" />
		<tag k="natural" v="water" />
		<tag k="ssr:stedsnr" v="428399" />
	</node>
	<node id="-186293" lat="59.8781598039" lon="9.70569671812">
		<tag k="name" v="Svartbekken" />
		<tag k="ssr:stedsnr" v="268369" />
		<tag k="waterway" v="stream" />
	</node>
	<node id="-186291" lat="59.7256583335" lon="9.93868889736">
		<tag k="name" v="Kuleroa" />
		<tag k="natural" v="bay" />
		<tag k="ssr:stedsnr" v="268337" />
	</node>
	<node id="-186278" lat="59.8563833339" lon="9.95785277799">
		<tag k="name" v="Kringletjern" />
		<tag k="natural" v="water" />
		<tag k="ssr:stedsnr" v="247720" />
	</node>
	<node id="-186274" lat="59.7798429264" lon="9.80306841179">
		<tag k="name" v="Himsjø" />
		<tag k="natural" v="water" />
		<tag k="ssr:stedsnr" v="247573" />
		<tag k="water" v="lake" />
	</node>
	<node id="-186270" lat="59.8013499984" lon="9.93932499305">
		<tag k="name" v="Ormetjern" />
		<tag k="natural" v="water" />
		<tag k="ssr:stedsnr" v="247488" />
	</node>
	<node id="-186269" lat="59.7971777783" lon="9.9515916726">
		<tag k="name" v="Stikkabekken" />
		<tag k="ssr:stedsnr" v="247487" />
		<tag k="waterway" v="stream" />
	</node>
	<node id="-186265" lat="59.8211916653" lon="9.93990000092">
		<tag k="alt_name" v="Gjeveltseterbekken" />
		<tag k="name" v="Geveltseterbekken" />
		<tag k="ssr:stedsnr" v="246679" />
		<tag k="waterway" v="stream" />
	</node>
	<node id="-186261" lat="59.7373027747" lon="9.71421110408">
		<tag k="name" v="Nordre Svarttjern" />
		<tag k="natural" v="water" />
		<tag k="ssr:stedsnr" v="246647" />
	</node>
	<node id="-186252" lat="59.7592000021" lon="9.9289611051">
		<tag k="name" v="Loselva" />
		<tag k="ssr:stedsnr" v="246537" />
		<tag k="waterway" v="river" />
	</node>
	<node id="-186249" lat="59.6355666681" lon="9.89560278667">
		<tag k="name" v="Øytjern" />
		<tag k="natural" v="water" />
		<tag k="ssr:stedsnr" v="246516" />
	</node>
	<node id="-186247" lat="59.6378499974" lon="9.88730833824">
		<tag k="name" v="Svarttjern" />
		<tag k="natural" v="water" />
		<tag k="ssr:stedsnr" v="246513" />
	</node>
	<node id="-186245" lat="59.5926388924" lon="9.90262499844">
		<tag k="alt_name" v="Auretjern" />
		<tag k="name" v="Auretjernet" />
		<tag k="natural" v="water" />
		<tag k="ssr:stedsnr" v="246438" />
	</node>
	<node id="-186229" lat="59.8458611078" lon="9.79743055677">
		<tag k="name" v="Totjerna" />
		<tag k="natural" v="water" />
		<tag k="ssr:stedsnr" v="210651" />
	</node>
	<node id="-186222" lat="59.6328416657" lon="9.85624722786">
		<tag k="name" v="Tvillingvannkulpene" />
		<tag k="natural" v="water" />
		<tag k="ssr:stedsnr" v="209908" />
	</node>
	<node id="-186221" lat="59.6840805523" lon="9.72820000443">
		<tag k="name" v="Jøranrudmoen" />
		<tag k="ssr:stedsnr" v="209659" />
		<tag k="waterway" v="stream" />
	</node>
	<node id="-186220" lat="59.7514499958" lon="9.77065555236">
		<tag k="name" v="Svarttjern" />
		<tag k="natural" v="water" />
		<tag k="ssr:stedsnr" v="209209" />
	</node>
	<node id="-186216" lat="59.7671777818" lon="9.74260278119">
		<tag k="name" v="Frågåttjern" />
		<tag k="natural" v="water" />
		<tag k="ssr:stedsnr" v="208916" />
	</node>
	<node id="-186215" lat="59.7229333298" lon="9.7143055546">
		<tag k="name" v="Kjerringtjern" />
		<tag k="natural" v="water" />
		<tag k="ssr:stedsnr" v="208881" />
	</node>
	<node id="-186200" lat="59.7694805546" lon="9.76613610336">
		<tag k="name" v="Totjerna" />
		<tag k="natural" v="water" />
		<tag k="ssr:stedsnr" v="208085" />
	</node>
	<node id="-186194" lat="59.8122166691" lon="9.93234444492">
		<tag k="name" v="Skarsstøa" />
		<tag k="natural" v="beach" />
		<tag k="ssr:stedsnr" v="207579" />
	</node>
	<node id="-186193" lat="59.7270249993" lon="9.95253888793">
		<tag k="name" v="Horneroa" />
		<tag k="natural" v="bay" />
		<tag k="ssr:stedsnr" v="207326" />
	</node>
	<node id="-186190" lat="59.620111113" lon="9.88891388875">
		<tag k="name" v="Vesle Brånevann" />
		<tag k="natural" v="water" />
		<tag k="ssr:stedsnr" v="206885" />
	</node>
	<node id="-186187" lat="59.6514027808" lon="9.9849583308">
		<tag k="name" v="Seterbekken" />
		<tag k="ssr:stedsnr" v="206188" />
		<tag k="waterway" v="stream" />
	</node>
	<node id="-186186" lat="59.7166222185" lon="9.68334721815">
		<tag k="name" v="Karusstjern" />
		<tag k="natural" v="water" />
		<tag k="ssr:stedsnr" v="205974" />
	</node>
	<node id="-186179" lat="59.8598055542" lon="9.953763893">
		<tag k="alt_name" v="Vesledamtjern" />
		<tag k="name" v="Vesle Bergdamtjern" />
		<tag k="natural" v="water" />
		<tag k="ssr:stedsnr" v="186756" />
	</node>
	<node id="-186177" lat="59.837058337" lon="9.74364444112">
		<tag k="name" v="Sandtjern" />
		<tag k="natural" v="water" />
		<tag k="ssr:stedsnr" v="186725" />
	</node>
	<node id="-186175" lat="59.7521361111" lon="9.72556110998">
		<tag k="name" v="Steintjern" />
		<tag k="natural" v="water" />
		<tag k="ssr:stedsnr" v="186632" />
	</node>
	<node id="-186170" lat="59.8089416656" lon="9.95408333537">
		<tag k="name" v="Butjern" />
		<tag k="natural" v="water" />
		<tag k="ssr:stedsnr" v="186600" />
	</node>
	<node id="-186167" lat="59.8557472241" lon="9.9998222194">
		<tag k="alt_name" v="Indre Laupenden" />
		<tag k="name" v="Indre Laupeina" />
		<tag k="natural" v="water" />
		<tag k="ssr:stedsnr" v="186274" />
	</node>
	<node id="-186166" lat="59.8628500018" lon="10.0222944486">
		<tag k="alt_name" v="Åsvatna" />
		<tag k="name" v="Åsvanna" />
		<tag k="natural" v="water" />
		<tag k="ssr:stedsnr" v="186267" />
		<tag k="water" v="lake" />
	</node>
	<node id="-186165" lat="59.8466611088" lon="9.97936388742">
		<tag k="alt_name" v="Dælatjern" />
		<tag k="name" v="Daletjern" />
		<tag k="natural" v="water" />
		<tag k="ssr:stedsnr" v="186310" />
	</node>
	<node id="-186156" lat="59.6721861152" lon="9.95853610996">
		<tag k="alt_name" v="Søndre Svarttjern" />
		<tag k="name" v="Svarttjern" />
		<tag k="natural" v="water" />
		<tag k="ssr:stedsnr" v="185518" />
	</node>
	<node id="-186154" lat="59.6444166709" lon="9.8534388848">
		<tag k="alt_name" v="Sætertjern" />
		<tag k="name" v="Setertjern" />
		<tag k="natural" v="water" />
		<tag k="ssr:stedsnr" v="185491" />
	</node>
	<node id="-186152" lat="59.6082666698" lon="9.9042999933">
		<tag k="alt_name" v="Søndre Skattjernet" />
		<tag k="name" v="Søndre Skattjern" />
		<tag k="natural" v="water" />
		<tag k="ssr:stedsnr" v="185405" />
	</node>
	<node id="-186147" lat="59.6820138901" lon="9.69881110728">
		<tag k="name" v="Fiskumelva" />
		<tag k="ssr:stedsnr" v="185570" />
		<tag k="waterway" v="stream" />
	</node>
	<node id="-186145" lat="59.6992111114" lon="9.98003332651">
		<tag k="name" v="Dritartjern" />
		<tag k="natural" v="water" />
		<tag k="ssr:stedsnr" v="185285" />
	</node>
	<node id="-186131" lat="59.8211138887" lon="9.97714444514">
		<tag k="name" v="Drammenstjern" />
		<tag k="natural" v="water" />
		<tag k="ssr:stedsnr" v="268587" />
	</node>
	<node id="-186127" lat="59.7188952834" lon="9.70748411933">
		<tag k="name" v="Øvre Steintjern" />
		<tag k="natural" v="water" />
		<tag k="ssr:stedsnr" v="149846" />
	</node>
	<node id="-186123" lat="59.6811333297" lon="9.74440833837">
		<tag k="name" v="Liverudbekken" />
		<tag k="ssr:stedsnr" v="148675" />
		<tag k="waterway" v="stream" />
	</node>
	<node id="-186120" lat="59.684238892" lon="9.96753056102">
		<tag k="name" v="Lågtjern" />
		<tag k="natural" v="water" />
		<tag k="ssr:stedsnr" v="148180" />
	</node>
	<node id="-186119" lat="59.6882527768" lon="9.95975000236">
		<tag k="name" v="Østeruddalen" />
		<tag k="natural" v="water" />
		<tag k="ssr:stedsnr" v="148165" />
	</node>
	<node id="-186117" lat="59.6939000033" lon="9.98810555786">
		<tag k="name" v="Øvre Fisketjern" />
		<tag k="natural" v="water" />
		<tag k="ssr:stedsnr" v="148156" />
	</node>
	<node id="-186110" lat="59.7940527816" lon="9.74468332693">
		<tag k="name" v="Daleseterbekken" />
		<tag k="ssr:stedsnr" v="147698" />
		<tag k="waterway" v="stream" />
	</node>
	<node id="-186097" lat="59.8056749979" lon="9.94616667036">
		<tag k="name" v="Tvillingtjerna" />
		<tag k="natural" v="water" />
		<tag k="ssr:stedsnr" v="146450" />
		<tag k="water" v="pond" />
	</node>
	<node id="-186086" lat="59.6762666682" lon="9.73239166442">
		<tag k="name" v="Jøranruddammen" />
		<tag k="ssr:stedsnr" v="145490" />
		<tag k="waterway" v="dam" />
	</node>
	<node id="-186080" lat="59.8018527734" lon="9.9679555543">
		<tag k="name" v="Lillebyputten" />
		<tag k="natural" v="water" />
		<tag k="ssr:stedsnr" v="268506" />
		<tag k="water" v="pond" />
	</node>
	<node id="-186074" lat="59.8273611141" lon="9.75748888506">
		<tag k="name" v="Hoggtjern" />
		<tag k="natural" v="water" />
		<tag k="ssr:stedsnr" v="125730" />
	</node>
	<node id="-186064" lat="59.766702775" lon="9.94824444359">
		<tag k="name" v="Hagaøya" />
		<tag k="place" v="island" />
		<tag k="ssr:stedsnr" v="125641" />
	</node>
	<node id="-186063" lat="59.7687055544" lon="9.83751110218">
		<tag k="name" v="Gorudbekken" />
		<tag k="ssr:stedsnr" v="125638" />
		<tag k="waterway" v="stream" />
	</node>
	<node id="-186061" lat="59.7791138891" lon="9.73246111666">
		<tag k="name" v="Gruvetjern" />
		<tag k="natural" v="water" />
		<tag k="ssr:stedsnr" v="125610" />
	</node>
	<node id="-186056" lat="59.7945361137" lon="9.9417527799">
		<tag k="name" v="Lauvtjern" />
		<tag k="natural" v="water" />
		<tag k="ssr:stedsnr" v="125523" />
	</node>
	<node id="-186055" lat="59.7996694442" lon="9.93204166375">
		<tag k="name" v="Svarttjern" />
		<tag k="natural" v="water" />
		<tag k="ssr:stedsnr" v="125521" />
	</node>
	<node id="-186046" lat="59.7259305597" lon="9.73738888153">
		<tag k="alt_name" v="Brennåstjernet" />
		<tag k="name" v="Brennåstjern" />
		<tag k="natural" v="water" />
		<tag k="ssr:stedsnr" v="124602" />
	</node>
	<node id="-186045" lat="59.7095138895" lon="9.69996943874">
		<tag k="fixme" v="multiple name tags, choose one and add the other to alt_name" />
		<tag k="name" v="Kongsvann;Øvre Kongsvann" />
		<tag k="natural" v="water" />
		<tag k="ssr:stedsnr" v="124590" />
	</node>
	<node id="-186034" lat="59.6725749961" lon="9.84250832552">
		<tag k="name" v="Skallerudtjern" />
		<tag k="natural" v="water" />
		<tag k="ssr:stedsnr" v="124511" />
	</node>
	<node id="-186033" lat="59.6588500028" lon="9.82962221834">
		<tag k="alt_name" v="Urdsvann" />
		<tag k="name" v="Ursvann" />
		<tag k="natural" v="water" />
		<tag k="ssr:stedsnr" v="124494" />
	</node>
	<node id="-186032" lat="59.6376638892" lon="9.8516194403">
		<tag k="alt_name" v="Brånavannet" />
		<tag k="name" v="Fisås-Brånavann" />
		<tag k="natural" v="water" />
		<tag k="ssr:stedsnr" v="124488" />
	</node>
	<node id="-186031" lat="59.6274555586" lon="9.88689167233">
		<tag k="name" v="Flåtjern" />
		<tag k="natural" v="water" />
		<tag k="ssr:stedsnr" v="124475" />
	</node>
	<node id="-186029" lat="59.8464277814" lon="10.0091083278">
		<tag k="alt_name" v="Stordypingen" />
		<tag k="name" v="Store Dypingen" />
		<tag k="natural" v="water" />
		<tag k="ssr:stedsnr" v="125318" />
		<tag k="water" v="lake" />
	</node>
	<node id="-186017" lat="59.8171638921" lon="9.78986944148">
		<tag k="name" v="Spitkroken" />
		<tag k="place" v="locality" />
		<tag k="ssr:stedsnr" v="88465" />
	</node>
	<node id="-186012" lat="59.6850416665" lon="9.94785832556">
		<tag k="name" v="Setertjern" />
		<tag k="natural" v="water" />
		<tag k="ssr:stedsnr" v="88131" />
	</node>
	<node id="-186005" lat="59.8331833351" lon="9.96562499531">
		<tag k="name" v="Indre Skarstjern" />
		<tag k="natural" v="water" />
		<tag k="ssr:stedsnr" v="87610" />
	</node>
	<node id="-186003" lat="59.7442444468" lon="9.73568055387">
		<tag k="name" v="Stigertjern" />
		<tag k="natural" v="water" />
		<tag k="ssr:stedsnr" v="87391" />
	</node>
	<node id="-185991" lat="59.8371500022" lon="9.97819721974">
		<tag k="name" v="Nordre Trollåstjern" />
		<tag k="natural" v="water" />
		<tag k="ssr:stedsnr" v="86637" />
	</node>
	<node id="-185990" lat="59.8337666669" lon="9.99068333114">
		<tag k="name" v="Vestre Sulustjern" />
		<tag k="natural" v="water" />
		<tag k="ssr:stedsnr" v="86635" />
	</node>
	<node id="-185986" lat="59.8192472262" lon="9.9901638942">
		<tag k="name" v="Lerbergtjern" />
		<tag k="natural" v="water" />
		<tag k="ssr:stedsnr" v="86513" />
		<tag k="water" v="pond" />
	</node>
	<node id="-185985" lat="59.8030666642" lon="9.94387500516">
		<tag k="name" v="Bjørnetjern" />
		<tag k="natural" v="water" />
		<tag k="ssr:stedsnr" v="86509" />
		<tag k="water" v="pond" />
	</node>
	<node id="-185978" lat="59.6208750009" lon="9.90207777684">
		<tag k="name" v="Vesle Ålevann" />
		<tag k="natural" v="water" />
		<tag k="ssr:stedsnr" v="85875" />
	</node>
	<node id="-185963" lat="59.7662499985" lon="9.79902221439">
		<tag k="name" v="Bergsvannet" />
		<tag k="natural" v="water" />
		<tag k="ssr:stedsnr" v="65500" />
	</node>
	<node id="-185959" lat="59.832555559" lon="9.72327777061">
		<tag k="name" v="Øvre Myresetertjern" />
		<tag k="natural" v="water" />
		<tag k="ssr:stedsnr" v="64696" />
	</node>
	<node id="-185950" lat="59.6857999993" lon="9.68205000116">
		<tag k="name" v="Kjennerudvannet" />
		<tag k="natural" v="water" />
		<tag k="ssr:stedsnr" v="64605" />
		<tag k="water" v="lake" />
	</node>
	<node id="-185949" lat="59.6885055541" lon="9.80083332469">
		<tag k="name" v="Delerelva" />
		<tag k="ssr:stedsnr" v="64601" />
		<tag k="waterway" v="stream" />
	</node>
	<node id="-185944" lat="59.8148083356" lon="9.75704999503">
		<tag k="name" v="Hølbekken" />
		<tag k="ssr:stedsnr" v="64541" />
		<tag k="waterway" v="stream" />
	</node>
	<node id="-185943" lat="59.6386749966" lon="9.86716110379">
		<tag k="name" v="Buvann" />
		<tag k="natural" v="water" />
		<tag k="ssr:stedsnr" v="64538" />
	</node>
	<node id="-185942" lat="59.6238805523" lon="9.8626083415">
		<tag k="alt_name" v="Store Fiskelaus" />
		<tag k="name" v="Store Fiskelausen" />
		<tag k="natural" v="water" />
		<tag k="ssr:stedsnr" v="64520" />
	</node>
	<node id="-185941" lat="59.6109583304" lon="9.89618611023">
		<tag k="alt_name" v="Skattjern" />
		<tag k="name" v="Nordre Skattjernet" />
		<tag k="natural" v="water" />
		<tag k="ssr:stedsnr" v="64435" />
	</node>
	<node id="-185940" lat="59.6689888904" lon="9.96584999619">
		<tag k="name" v="Seterbekken" />
		<tag k="ssr:stedsnr" v="64136" />
		<tag k="waterway" v="stream" />
	</node>
	<node id="-185935" lat="59.685902776" lon="9.97234167113">
		<tag k="alt_name" v="Store Kroktjern" />
		<tag k="name" v="Kroktjern" />
		<tag k="natural" v="water" />
		<tag k="ssr:stedsnr" v="63194" />
	</node>
	<node id="-185925" lat="59.7143583304" lon="9.69999166337">
		<tag k="name" v="Reiershølen" />
		<tag k="natural" v="water" />
		<tag k="ssr:stedsnr" v="28856" />
	</node>
	<node id="-185921" lat="59.7016777738" lon="9.86219722352">
		<tag k="name" v="Sandsbukta" />
		<tag k="natural" v="bay" />
		<tag k="ssr:stedsnr" v="28506" />
	</node>
	<node id="-185899" lat="59.7525999981" lon="9.74141111671">
		<tag k="name" v="Rørtjern" />
		<tag k="natural" v="water" />
		<tag k="ssr:stedsnr" v="26423" />
	</node>
	<node id="-185898" lat="59.7496194472" lon="9.73788610972">
		<tag k="name" v="Øvre Høngassen" />
		<tag k="natural" v="water" />
		<tag k="ssr:stedsnr" v="26421" />
	</node>
	<node id="-185896" lat="59.7342749989" lon="9.76877777818">
		<tag k="name" v="Klarefoss" />
		<tag k="natural" v="waterfall" />
		<tag k="ssr:stedsnr" v="26149" />
	</node>
	<node id="-185895" lat="59.7253611144" lon="9.76874721744">
		<tag k="name" v="Øvre Lundteigtjern" />
		<tag k="natural" v="water" />
		<tag k="ssr:stedsnr" v="26137" />
	</node>
	<node id="-185893" lat="59.7332138931" lon="9.76509167206">
		<tag k="name" v="Tråsabekk" />
		<tag k="ssr:stedsnr" v="26131" />
		<tag k="waterway" v="stream" />
	</node>
	<node id="-185891" lat="59.7755333335" lon="9.84931389313">
		<tag k="name" v="Haugbekken" />
		<tag k="ssr:stedsnr" v="25954" />
		<tag k="waterway" v="stream" />
	</node>
	<node id="-185889" lat="59.8304694427" lon="9.73596666417">
		<tag k="name" v="Nytjern" />
		<tag k="natural" v="water" />
		<tag k="ssr:stedsnr" v="25703" />
	</node>
	<node id="-185887" lat="59.815030557" lon="9.93457778209">
		<tag k="name" v="Gampetangen" />
		<tag k="natural" v="cape" />
		<tag k="ssr:stedsnr" v="25612" />
	</node>
	<node id="-185877" lat="59.627616665" lon="9.93275277911">
		<tag k="name" v="Storeelva" />
		<tag k="ssr:stedsnr" v="24763" />
		<tag k="waterway" v="stream" />
	</node>
	<node id="-185872" lat="59.6433166706" lon="9.98178334047">
		<tag k="name" v="Tryterudtangen" />
		<tag k="natural" v="cape" />
		<tag k="ssr:stedsnr" v="24151" />
	</node>
	<node id="-185866" lat="59.8597027781" lon="9.94818055822">
		<tag k="name" v="Bergdamtjern" />
		<tag k="natural" v="water" />
		<tag k="ssr:stedsnr" v="4745" />
	</node>
	<node id="-185864" lat="59.8450750024" lon="9.81116110291">
		<tag k="name" v="Børjebekken" />
		<tag k="ssr:stedsnr" v="4735" />
		<tag k="waterway" v="stream" />
	</node>
	<node id="-185860" lat="59.8675222229" lon="9.94468888059">
		<tag k="name" v="Verptjern" />
		<tag k="natural" v="water" />
		<tag k="ssr:stedsnr" v="4653" />
	</node>
	<node id="-185855" lat="59.8099083302" lon="9.9343222283">
		<tag k="name" v="Storøya" />
		<tag k="place" v="island" />
		<tag k="ssr:stedsnr" v="4546" />
	</node>
	<node id="-185854" lat="59.7880999982" lon="9.8133138934">
		<tag k="name" v="Hoenselva" />
		<tag k="ssr:stedsnr" v="4524" />
		<tag k="waterway" v="stream" />
	</node>
	<node id="-185851" lat="59.7978416708" lon="9.72967221902">
		<tag k="alt_name" v="Engtjern" />
		<tag k="name" v="Engetjern" />
		<tag k="natural" v="water" />
		<tag k="ssr:stedsnr" v="4496" />
	</node>
	<node id="-185849" lat="59.8654027749" lon="9.97075554949">
		<tag k="alt_name" v="Kolbjørnsrudtjernet" />
		<tag k="name" v="Kolbjørnsrudtjern" />
		<tag k="natural" v="water" />
		<tag k="ssr:stedsnr" v="4335" />
	</node>
	<node id="-185847" lat="59.8532861119" lon="9.99639167368">
		<tag k="name" v="Grantjern" />
		<tag k="natural" v="water" />
		<tag k="ssr:stedsnr" v="4250" />
	</node>
	<node id="-185843" lat="59.7471138877" lon="9.76053332581">
		<tag k="alt_name" v="Junger" />
		<tag k="name" v="Jungeren" />
		<tag k="natural" v="water" />
		<tag k="ssr:stedsnr" v="3657" />
		<tag k="water" v="lake" />
	</node>
	<node id="-185842" lat="59.746438891" lon="9.71328611442">
		<tag k="name" v="Dørsjø" />
		<tag k="natural" v="water" />
		<tag k="ssr:stedsnr" v="3654" />
	</node>
	<node id="-185840" lat="59.7333499978" lon="9.75763889351">
		<tag k="name" v="Steinbekk" />
		<tag k="ssr:stedsnr" v="3637" />
		<tag k="waterway" v="stream" />
	</node>
	<node id="-185836" lat="59.6692027794" lon="9.79749444851">
		<tag k="alt_name" v="Plometjern" />
		<tag k="name" v="Plommetjern" />
		<tag k="natural" v="water" />
		<tag k="ssr:stedsnr" v="3535" />
	</node>
	<node id="-185830" lat="59.6320388863" lon="9.86360554712">
		<tag k="alt_name" v="Tvillingvannet" />
		<tag k="name" v="Tvillingvann" />
		<tag k="natural" v="water" />
		<tag k="ssr:stedsnr" v="3496" />
	</node>
	<node id="-185829" lat="59.8207861099" lon="9.73263334113">
		<tag k="alt_name" v="Svarttjern" />
		<tag k="name" v="Nordre Svarttjern" />
		<tag k="natural" v="water" />
		<tag k="ssr:stedsnr" v="3486" />
	</node>
	<node id="-185816" lat="59.6673777787" lon="9.86736943764">
		<tag k="name" v="Karstjernbekken" />
		<tag k="ssr:stedsnr" v="392746" />
		<tag k="waterway" v="stream" />
	</node>
	<node id="-185814" lat="59.6417916651" lon="9.93286388001">
		<tag k="name" v="Bogtangen" />
		<tag k="natural" v="cape" />
		<tag k="ssr:stedsnr" v="392235" />
	</node>
	<node id="-185809" lat="59.8169305575" lon="9.73201666685">
		<tag k="name" v="Vesle Svarttjern" />
		<tag k="natural" v="water" />
		<tag k="ssr:stedsnr" v="391599" />
	</node>
	<node id="-185807" lat="59.7186416634" lon="9.92291110916">
		<tag k="name" v="Dammen" />
		<tag k="ssr:stedsnr" v="391496" />
		<tag k="waterway" v="dam" />
	</node>
	<node id="-185806" lat="59.6696388878" lon="9.99845000772">
		<tag k="name" v="Langtjernelva" />
		<tag k="ssr:stedsnr" v="391260" />
		<tag k="waterway" v="stream" />
	</node>
	<node id="-185803" lat="59.6185611085" lon="9.86024722813">
		<tag k="name" v="Vesle Svarttjern" />
		<tag k="natural" v="water" />
		<tag k="ssr:stedsnr" v="390898" />
	</node>
	<node id="-185802" lat="59.7353750037" lon="9.70596389518">
		<tag k="name" v="Hansetjern" />
		<tag k="natural" v="water" />
		<tag k="ssr:stedsnr" v="390865" />
	</node>
	<node id="-185800" lat="59.7857999997" lon="9.90038333835">
		<tag k="name" v="Midtskjæret" />
		<tag k="place" v="islet" />
		<tag k="ssr:stedsnr" v="390825" />
	</node>
	<node id="-185794" lat="59.6021888924" lon="9.88124722823">
		<tag k="name" v="Stutauet" />
		<tag k="natural" v="water" />
		<tag k="ssr:stedsnr" v="390496" />
	</node>
	<node id="-185793" lat="59.6030222222" lon="9.88802500058">
		<tag k="name" v="Utryggbekken" />
		<tag k="ssr:stedsnr" v="390493" />
		<tag k="waterway" v="stream" />
	</node>
	<node id="-185791" lat="59.7457666659" lon="9.7304055548">
		<tag k="name" v="Smietjern" />
		<tag k="natural" v="water" />
		<tag k="ssr:stedsnr" v="390377" />
	</node>
	<node id="-185790" lat="59.7273388847" lon="9.94191944431">
		<tag k="name" v="Peneberga" />
		<tag k="natural" v="cape" />
		<tag k="ssr:stedsnr" v="390358" />
	</node>
	<node id="-185787" lat="59.7854750041" lon="9.79739444171">
		<tag k="name" v="Himsjødammen" />
		<tag k="ssr:stedsnr" v="390092" />
		<tag k="waterway" v="dam" />
	</node>
	<node id="-185786" lat="59.7799333289" lon="9.79544721739">
		<tag k="name" v="Honseelva" />
		<tag k="ssr:stedsnr" v="390093" />
		<tag k="waterway" v="stream" />
	</node>
	<node id="-185785" lat="59.8784194406" lon="9.92088334063">
		<tag k="name" v="Skillebekk" />
		<tag k="ssr:stedsnr" v="390059" />
		<tag k="waterway" v="stream" />
	</node>
	<node id="-185783" lat="59.8417916659" lon="9.74356945163">
		<tag k="name" v="Svarttjern" />
		<tag k="natural" v="water" />
		<tag k="ssr:stedsnr" v="389730" />
	</node>
	<node id="-185771" lat="59.6188027752" lon="9.94015277308">
		<tag k="name" v="Bassenget" />
		<tag k="ssr:stedsnr" v="388735" />
		<tag k="waterway" v="dam" />
	</node>
	<node id="-185770" lat="59.6335555526" lon="9.9351833394">
		<tag k="name" v="Vesleelva" />
		<tag k="ssr:stedsnr" v="388734" />
		<tag k="waterway" v="stream" />
	</node>
	<node id="-185765" lat="59.7127861082" lon="9.68407221509">
		<tag k="name" v="Lauvlitjern" />
		<tag k="natural" v="water" />
		<tag k="ssr:stedsnr" v="387972" />
	</node>
	<node id="-185759" lat="59.8765638851" lon="9.78647222844">
		<tag k="name" v="Gleinebekken" />
		<tag k="ssr:stedsnr" v="368671" />
		<tag k="waterway" v="stream" />
	</node>
	<node id="-185757" lat="59.7796333365" lon="9.7807472249">
		<tag k="alt_name" v="Asktjern" />
		<tag k="name" v="Asketjern" />
		<tag k="natural" v="water" />
		<tag k="ssr:stedsnr" v="368639" />
	</node>
	<node id="-185747" lat="59.8540583333" lon="9.97843889164">
		<tag k="name" v="Kalvetjern" />
		<tag k="natural" v="water" />
		<tag k="ssr:stedsnr" v="368282" />
	</node>
	<node id="-185743" lat="59.7371777792" lon="9.7894638964">
		<tag k="name" v="Jungerbekken" />
		<tag k="ssr:stedsnr" v="367672" />
		<tag k="waterway" v="stream" />
	</node>
	<node id="-185742" lat="59.7425416711" lon="9.7962333296">
		<tag k="alt_name" v="Kolbergtjernet" />
		<tag k="name" v="Kolbergtjern" />
		<tag k="natural" v="water" />
		<tag k="ssr:stedsnr" v="367668" />
	</node>
	<node id="-185739" lat="59.7187583368" lon="9.93067778565">
		<tag k="name" v="Røkebergtjerna" />
		<tag k="natural" v="water" />
		<tag k="ssr:stedsnr" v="367625" />
	</node>
	<node id="-185735" lat="59.6972333377" lon="9.959486107">
		<tag k="alt_name" v="Viertjerna" />
		<tag k="name" v="Vierdammene" />
		<tag k="natural" v="water" />
		<tag k="ssr:stedsnr" v="367584" />
	</node>
	<node id="-185730" lat="59.6784055531" lon="9.95716944023">
		<tag k="name" v="Kimetjern" />
		<tag k="natural" v="water" />
		<tag k="ssr:stedsnr" v="367532" />
	</node>
	<node id="-185729" lat="59.7638033678" lon="9.92723949251">
		<tag k="name" v="Losmoen" />
		<tag k="place" v="island" />
		<tag k="ssr:stedsnr" v="367519" />
	</node>
	<node id="-185727" lat="59.6593444418" lon="9.85946110242">
		<tag k="alt_name" v="Kasttjern" />
		<tag k="name" v="Karstjern" />
		<tag k="natural" v="water" />
		<tag k="ssr:stedsnr" v="367514" />
	</node>
	<node id="-185726" lat="59.7618888894" lon="9.79537499721">
		<tag k="name" v="Bergsvannet" />
		<tag k="natural" v="water" />
		<tag k="ssr:stedsnr" v="367511" />
	</node>
	<node id="-185725" lat="59.7598305536" lon="9.71940832812">
		<tag k="name" v="Vesletjern" />
		<tag k="natural" v="water" />
		<tag k="ssr:stedsnr" v="367510" />
	</node>
	<node id="-185724" lat="59.764938888" lon="9.72401665948">
		<tag k="name" v="Mellomtjern" />
		<tag k="natural" v="water" />
		<tag k="ssr:stedsnr" v="367507" />
	</node>
	<node id="-185720" lat="59.6073750015" lon="9.89729444978">
		<tag k="name" v="Tistillen" />
		<tag k="natural" v="water" />
		<tag k="ssr:stedsnr" v="367376" />
		<tag k="water" v="lake" />
	</node>
	<node id="-185714" lat="59.660086115" lon="9.99821389688">
		<tag k="name" v="Tryterudelva" />
		<tag k="ssr:stedsnr" v="332297" />
		<tag k="waterway" v="stream" />
	</node>
	<node id="-185710" lat="59.6579666625" lon="9.83447222812">
		<tag k="name" v="Åbborkulpene" />
		<tag k="natural" v="water" />
		<tag k="ssr:stedsnr" v="331560" />
		<tag k="water" v="pond" />
	</node>
	<node id="-185683" lat="59.7295166692" lon="9.89467221428">
		<tag k="name" v="Dammen" />
		<tag k="ssr:stedsnr" v="329275" />
		<tag k="waterway" v="dam" />
	</node>
	<node id="-185678" lat="59.7220638881" lon="9.66639443784">
		<tag k="name" v="Skarsbekken" />
		<tag k="ssr:stedsnr" v="327729" />
		<tag k="waterway" v="stream" />
	</node>
	<node id="-185675" lat="59.7186777736" lon="9.68239444167">
		<tag k="name" v="Tuetjern" />
		<tag k="natural" v="water" />
		<tag k="ssr:stedsnr" v="326972" />
	</node>
	<node id="-185673" lat="59.7694222242" lon="9.93737500085">
		<tag k="name" v="Nedre Sandøra" />
		<tag k="place" v="island" />
		<tag k="ssr:stedsnr" v="326737" />
	</node>
	<node id="-185671" lat="59.8461916655" lon="9.74363333432">
		<tag k="name" v="Åbbortjern" />
		<tag k="natural" v="water" />
		<tag k="ssr:stedsnr" v="308735" />
	</node>
	<node id="-185668" lat="59.837705552" lon="9.71951666133">
		<tag k="name" v="Nedre Myresetertjern" />
		<tag k="natural" v="water" />
		<tag k="ssr:stedsnr" v="307747" />
	</node>
	<node id="-185662" lat="59.772044447" lon="9.74828611642">
		<tag k="name" v="Kroktjern" />
		<tag k="natural" v="water" />
		<tag k="ssr:stedsnr" v="307628" />
	</node>
	<node id="-185660" lat="59.7843638868" lon="9.73604444169">
		<tag k="alt_name" v="Prestvannelva" />
		<tag k="name" v="Prestvannselva" />
		<tag k="ssr:stedsnr" v="307609" />
		<tag k="waterway" v="stream" />
	</node>
	<node id="-185657" lat="59.8092583365" lon="9.92696389264">
		<tag k="name" v="Lystjern" />
		<tag k="natural" v="water" />
		<tag k="ssr:stedsnr" v="307567" />
	</node>
	<node id="-185655" lat="59.6220111147" lon="9.91059166863">
		<tag k="alt_name" v="Blikktjernet" />
		<tag k="name" v="Blikktjern" />
		<tag k="natural" v="water" />
		<tag k="ssr:stedsnr" v="307530" />
	</node>
	<node id="-185653" lat="59.6072000023" lon="9.93950277931">
		<tag k="alt_name" v="Oksetjernet" />
		<tag k="name" v="Okseøyet" />
		<tag k="natural" v="water" />
		<tag k="ssr:stedsnr" v="307449" />
	</node>
	<node id="-185652" lat="59.8193499973" lon="9.98209443809">
		<tag k="alt_name" v="Kjellertjernet" />
		<tag k="name" v="Kjellertjern" />
		<tag k="natural" v="water" />
		<tag k="ssr:stedsnr" v="307239" />
	</node>
	<node id="-185645" lat="59.7161361103" lon="9.71427500338">
		<tag k="name" v="Grønntjern" />
		<tag k="natural" v="water" />
		<tag k="ssr:stedsnr" v="306590" />
	</node>
	<node id="-185633" lat="59.8131111113" lon="9.73154166827">
		<tag k="name" v="Honsetertjern" />
		<tag k="natural" v="water" />
		<tag k="ssr:stedsnr" v="270587" />
	</node>
	<node id="-185630" lat="59.7195138927" lon="9.93056944437">
		<tag k="name" v="Stortjern" />
		<tag k="natural" v="water" />
		<tag k="ssr:stedsnr" v="270475" />
	</node>
	<node id="-185624" lat="59.6871805567" lon="9.96551110449">
		<tag k="name" v="Skistadtjern" />
		<tag k="natural" v="water" />
		<tag k="ssr:stedsnr" v="270198" />
	</node>
	<node id="-185618" lat="59.7770444471" lon="9.90529722197">
		<tag k="name" v="Risøra" />
		<tag k="natural" v="cape" />
		<tag k="ssr:stedsnr" v="269851" />
	</node>
	<node id="-185613" lat="59.6108388933" lon="9.87915277815">
		<tag k="name" v="Burvannskulpen" />
		<tag k="natural" v="water" />
		<tag k="ssr:stedsnr" v="269530" />
	</node>
	<node id="-185612" lat="59.5949361123" lon="9.90552500373">
		<tag k="name" v="Makrelltjern" />
		<tag k="natural" v="water" />
		<tag k="ssr:stedsnr" v="269528" />
	</node>
	<node id="-185611" lat="59.8938083309" lon="9.72172500377">
		<tag k="name" v="Djupedalsbekken" />
		<tag k="ssr:stedsnr" v="269409" />
		<tag k="waterway" v="stream" />
	</node>
	<node id="-187138" lat="59.7171083324" lon="9.706322222">
		<tag k="name" v="Nedre Steintjern" />
		<tag k="natural" v="water" />
		<tag k="ssr:stedsnr" v="938835" />
	</node>
	<node id="-187136" lat="59.6878222216" lon="9.88080277011">
		<tag k="name" v="Svartvik" />
		<tag k="natural" v="bay" />
		<tag k="ssr:stedsnr" v="938664" />
	</node>
	<node id="-187128" lat="59.8603166625" lon="9.91226943677">
		<tag k="name" v="Kjerringbekken" />
		<tag k="ssr:stedsnr" v="937998" />
		<tag k="waterway" v="stream" />
	</node>
	<node id="-187114" lat="59.7496750036" lon="9.84815555315">
		<tag k="name" v="Leirdalsbekken" />
		<tag k="ssr:stedsnr" v="937002" />
		<tag k="waterway" v="stream" />
	</node>
	<node id="-187112" lat="59.8347444425" lon="9.73521388387">
		<tag k="name" v="Ålbogatjern" />
		<tag k="natural" v="water" />
		<tag k="ssr:stedsnr" v="936695" />
	</node>
	<node id="-187107" lat="59.7940111106" lon="9.93486111671">
		<tag k="name" v="Kruketjern" />
		<tag k="natural" v="water" />
		<tag k="ssr:stedsnr" v="936597" />
		<tag k="water" v="pond" />
	</node>
	<node id="-187100" lat="59.8637583356" lon="9.73042777028">
		<tag k="name" v="Breibekk" />
		<tag k="ssr:stedsnr" v="936369" />
		<tag k="waterway" v="stream" />
	</node>
	<node id="-187095" lat="59.7748083324" lon="9.92317777806">
		<tag k="name" v="Lerbergbekken" />
		<tag k="ssr:stedsnr" v="933762" />
		<tag k="waterway" v="stream" />
	</node>
	<node id="-187088" lat="59.8277722246" lon="9.77944444806">
		<tag k="name" v="Steinbekken" />
		<tag k="ssr:stedsnr" v="914729" />
		<tag k="waterway" v="stream" />
	</node>
	<node id="-187077" lat="59.7814111067" lon="9.84599167407">
		<tag k="name" v="Kåsabekken" />
		<tag k="ssr:stedsnr" v="914618" />
		<tag k="waterway" v="stream" />
	</node>
	<node id="-187070" lat="59.8159305554" lon="9.92454165983">
		<tag k="alt_name" v="Småtjerna" />
		<tag k="name" v="Småtjern" />
		<tag k="natural" v="water" />
		<tag k="ssr:stedsnr" v="914555" />
	</node>
	<node id="-187069" lat="59.8047361072" lon="9.9289055635">
		<tag k="alt_name" v="Kolbrekkvannet" />
		<tag k="name" v="Kolbrekvannet" />
		<tag k="natural" v="water" />
		<tag k="ssr:stedsnr" v="914554" />
	</node>
	<node id="-187067" lat="59.8575750028" lon="9.99236111587">
		<tag k="alt_name" v="Fremre Laupenden" />
		<tag k="loc_name" v="Framre Laupeina" />
		<tag k="name" v="Framre Laupenden" />
		<tag k="natural" v="water" />
		<tag k="ssr:stedsnr" v="914278" />
		<tag k="water" v="lake" />
	</node>
	<node id="-187061" lat="59.7228250038" lon="9.75230554705">
		<tag k="name" v="Paulebekken" />
		<tag k="ssr:stedsnr" v="913616" />
		<tag k="waterway" v="stream" />
	</node>
	<node id="-187060" lat="59.6977638867" lon="9.68856388819">
		<tag k="name" v="Tiggerudtjern" />
		<tag k="natural" v="water" />
		<tag k="ssr:stedsnr" v="913603" />
	</node>
	<node id="-187058" lat="59.706144444" lon="9.92762778344">
		<tag k="name" v="Gortjern" />
		<tag k="natural" v="water" />
		<tag k="ssr:stedsnr" v="913591" />
	</node>
	<node id="-187057" lat="59.7042222255" lon="9.89750000743">
		<tag k="name" v="Brekketjern" />
		<tag k="natural" v="water" />
		<tag k="ssr:stedsnr" v="913585" />
	</node>
	<node id="-187055" lat="59.6783861089" lon="9.86506666162">
		<tag k="name" v="Eikeren" />
		<tag k="natural" v="water" />
		<tag k="ssr:stedsnr" v="913541" />
		<tag k="water" v="lake" />
	</node>
	<node id="-187053" lat="59.6336555518" lon="9.90455000054">
		<tag k="name" v="Vesleelva" />
		<tag k="ssr:stedsnr" v="913512" />
		<tag k="waterway" v="stream" />
	</node>
	<node id="-187051" lat="59.6782055514" lon="9.97843888348">
		<tag k="name" v="Tretjerna" />
		<tag k="natural" v="water" />
		<tag k="ssr:stedsnr" v="913219" />
	</node>
	<node id="-187050" lat="59.6722611074" lon="9.97940554704">
		<tag k="name" v="Grastjern" />
		<tag k="natural" v="water" />
		<tag k="ssr:stedsnr" v="913209" />
	</node>
	<node id="-187049" lat="59.6911722221" lon="9.97627778295">
		<tag k="name" v="Brynsetertjern" />
		<tag k="natural" v="water" />
		<tag k="ssr:stedsnr" v="913201" />
	</node>
	<node id="-187036" lat="59.8156083319" lon="9.79319166903">
		<tag k="name" v="Vestre Spiten" />
		<tag k="ssr:stedsnr" v="877546" />
		<tag k="waterway" v="stream" />
	</node>
	<node id="-187034" lat="59.7173555595" lon="9.92388333134">
		<tag k="name" v="Vesletjern" />
		<tag k="natural" v="water" />
		<tag k="ssr:stedsnr" v="877486" />
	</node>
	<node id="-187024" lat="59.7743500016" lon="9.91855556267">
		<tag k="name" v="Stryken" />
		<tag k="place" v="locality" />
		<tag k="ssr:stedsnr" v="876838" />
	</node>
	<node id="-187020" lat="59.8037749981" lon="9.73887500696">
		<tag k="name" v="Totjerna" />
		<tag k="natural" v="water" />
		<tag k="ssr:stedsnr" v="876728" />
	</node>
	<node id="-187002" lat="59.8144472186" lon="9.93740832671">
		<tag k="name" v="Haraøya" />
		<tag k="place" v="islet" />
		<tag k="ssr:stedsnr" v="875588" />
	</node>
	<node id="-186997" lat="59.8051527772" lon="9.92059167181">
		<tag k="name" v="Storputten" />
		<tag k="natural" v="water" />
		<tag k="ssr:stedsnr" v="875499" />
		<tag k="water" v="pond" />
	</node>
	<node id="-186988" lat="59.8618555587" lon="9.74148055299">
		<tag k="name" v="Vardetjernbekken" />
		<tag k="ssr:stedsnr" v="875383" />
		<tag k="waterway" v="stream" />
	</node>
	<node id="-186983" lat="59.7301666644" lon="9.94956944077">
		<tag k="name" v="Åletjernbekken" />
		<tag k="ssr:stedsnr" v="875336" />
		<tag k="waterway" v="stream" />
	</node>
	<node id="-186981" lat="59.6559944476" lon="9.89369999497">
		<tag k="name" v="Tangenbekken" />
		<tag k="ssr:stedsnr" v="874887" />
		<tag k="waterway" v="stream" />
	</node>
	<node id="-186977" lat="59.8436694434" lon="9.77002221841">
		<tag k="name" v="Stabbetjern" />
		<tag k="natural" v="water" />
		<tag k="ssr:stedsnr" v="854730" />
	</node>
	<node id="-186975" lat="59.8568638924" lon="9.75399445004">
		<tag k="name" v="Vardetjern" />
		<tag k="natural" v="water" />
		<tag k="ssr:stedsnr" v="854715" />
	</node>
	<node id="-186973" lat="59.8259055597" lon="9.75291944464">
		<tag k="alt_name" v="Vestre Hoggtjern" />
		<tag k="name" v="Vesle Hoggtjern" />
		<tag k="natural" v="water" />
		<tag k="ssr:stedsnr" v="854689" />
	</node>
	<node id="-186965" lat="59.872450149" lon="10.0218018321">
		<tag k="name" v="Jøssjø" />
		<tag k="natural" v="water" />
		<tag k="ssr:stedsnr" v="854322" />
	</node>
	<node id="-186964" lat="59.8257777754" lon="9.97737776905">
		<tag k="alt_name" v="Branestjernet" />
		<tag k="name" v="Branestjern" />
		<tag k="natural" v="water" />
		<tag k="ssr:stedsnr" v="854182" />
	</node>
	<node id="-186960" lat="59.7399138865" lon="9.76426110307">
		<tag k="name" v="Dørja" />
		<tag k="ssr:stedsnr" v="853661" />
		<tag k="waterway" v="river" />
	</node>
	<node id="-186950" lat="59.6462166642" lon="9.88238332935">
		<tag k="name" v="Knattjern" />
		<tag k="natural" v="water" />
		<tag k="ssr:stedsnr" v="853524" />
	</node>
	<node id="-186948" lat="59.6310638926" lon="9.88425556234">
		<tag k="alt_name" v="Urdtjern" />
		<tag k="name" v="Urtjern" />
		<tag k="natural" v="water" />
		<tag k="ssr:stedsnr" v="853506" />
	</node>
	<node id="-186943" lat="59.6177249998" lon="9.88810555415">
		<tag k="name" v="Brånavanna" />
		<tag k="natural" v="water" />
		<tag k="ssr:stedsnr" v="849543" />
	</node>
	<node id="-186936" lat="59.7201472258" lon="9.91647777746">
		<tag k="name" v="Møllabekken" />
		<tag k="ssr:stedsnr" v="817298" />
		<tag k="waterway" v="stream" />
	</node>
	<node id="-186935" lat="59.6732638928" lon="9.87687499953">
		<tag k="name" v="Kattøya" />
		<tag k="place" v="island" />
		<tag k="ssr:stedsnr" v="816738" />
	</node>
	<node id="-186932" lat="59.6514472219" lon="9.96113611176">
		<tag k="name" v="Snipan" />
		<tag k="natural" v="cape" />
		<tag k="ssr:stedsnr" v="816225" />
	</node>
	<node id="-186927" lat="59.7882888915" lon="9.79813611411">
		<tag k="name" v="Vesledam" />
		<tag k="natural" v="water" />
		<tag k="ssr:stedsnr" v="815771" />
		<tag k="water" v="pond" />
	</node>
	<node id="-186926" lat="59.8475722242" lon="9.71867221679">
		<tag k="name" v="Øvre Blygåttjern" />
		<tag k="natural" v="water" />
		<tag k="ssr:stedsnr" v="815753" />
	</node>
	<node id="-186919" lat="59.6029138889" lon="9.87805833529">
		<tag k="name" v="Lønnvannet" />
		<tag k="natural" v="water" />
		<tag k="ssr:stedsnr" v="815499" />
	</node>
	<node id="-186918" lat="59.897652775" lon="9.69984722294">
		<tag k="name" v="Ulstaddammen" />
		<tag k="ssr:stedsnr" v="815398" />
		<tag k="waterway" v="dam" />
	</node>
	<node id="-186914" lat="59.7419250014" lon="9.78052777134">
		<tag k="name" v="Spannslokktjern" />
		<tag k="natural" v="water" />
		<tag k="ssr:stedsnr" v="815119" />
	</node>
	<node id="-186912" lat="59.7743527754" lon="9.75485555533">
		<tag k="name" v="Rundetjern" />
		<tag k="natural" v="water" />
		<tag k="ssr:stedsnr" v="815082" />
	</node>
	<node id="-186903" lat="59.8609138924" lon="9.70709721983">
		<tag k="name" v="Tverrelva" />
		<tag k="ssr:stedsnr" v="814398" />
		<tag k="waterway" v="stream" />
	</node>
	<node id="-186902" lat="59.7281527758" lon="9.94886944813">
		<tag k="name" v="Dammen" />
		<tag k="natural" v="bay" />
		<tag k="ssr:stedsnr" v="814381" />
	</node>
	<node id="-186897" lat="59.612272219" lon="9.92751388099">
		<tag k="name" v="Storelva" />
		<tag k="ssr:stedsnr" v="813875" />
		<tag k="waterway" v="stream" />
	</node>
	<node id="-186878" lat="59.8070194475" lon="9.92954722538">
		<tag k="name" v="Lystjerntangen" />
		<tag k="natural" v="cape" />
		<tag k="ssr:stedsnr" v="793589" />
	</node>
	<node id="-186875" lat="59.8290583338" lon="9.98801665901">
		<tag k="name" v="Flårane" />
		<tag k="natural" v="water" />
		<tag k="ssr:stedsnr" v="793286" />
	</node>
	<node id="-186872" lat="59.7759361116" lon="9.77756111373">
		<tag k="name" v="Lortseterbekken" />
		<tag k="ssr:stedsnr" v="792593" />
		<tag k="waterway" v="stream" />
	</node>
	<node id="-186867" lat="59.6816249958" lon="9.82448055307">
		<tag k="alt_name" v="Svintjern" />
		<tag k="name" v="Svinetjern" />
		<tag k="natural" v="water" />
		<tag k="ssr:stedsnr" v="792561" />
	</node>
	<node id="-186864" lat="59.6506083343" lon="9.82590000414">
		<tag k="alt_name" v="Råtavann" />
		<tag k="name" v="Råtevann" />
		<tag k="natural" v="water" />
		<tag k="ssr:stedsnr" v="792531" />
		<tag k="water" v="lake" />
	</node>
	<node id="-186862" lat="59.6788444473" lon="9.99165276977">
		<tag k="name" v="Kutjern" />
		<tag k="natural" v="water" />
		<tag k="ssr:stedsnr" v="792227" />
	</node>
	<node id="-186861" lat="59.8120805576" lon="9.99676666036">
		<tag k="name" v="Yttervannet" />
		<tag k="natural" v="water" />
		<tag k="ssr:stedsnr" v="792214" />
	</node>
	<node id="-186851" lat="59.6614722181" lon="9.84301110684">
		<tag k="name" v="Auretjern" />
		<tag k="natural" v="water" />
		<tag k="ssr:stedsnr" v="791555" />
	</node>
	<node id="-186841" lat="59.8432833378" lon="9.76314721884">
		<tag k="name" v="Aureputten" />
		<tag k="natural" v="water" />
		<tag k="ssr:stedsnr" v="756648" />
		<tag k="water" v="pond" />
	</node>
	<node id="-186839" lat="59.8073194456" lon="9.74078332929">
		<tag k="name" v="Ragnhildtjern" />
		<tag k="natural" v="water" />
		<tag k="ssr:stedsnr" v="756601" />
	</node>
	<node id="-186835" lat="59.6441250018" lon="9.92986389232">
		<tag k="name" v="Bånepina" />
		<tag k="place" v="islet" />
		<tag k="ssr:stedsnr" v="756206" />
	</node>
	<node id="-186834" lat="59.7030555564" lon="9.70449166943">
		<tag k="name" v="Stilla" />
		<tag k="ssr:stedsnr" v="755835" />
		<tag k="waterway" v="stream" />
	</node>
	<node id="-186832" lat="59.6756222235" lon="9.87227222235">
		<tag k="name" v="Nordstultangen" />
		<tag k="natural" v="cape" />
		<tag k="ssr:stedsnr" v="755722" />
	</node>
	<node id="-186829" lat="59.7192749987" lon="9.93544444694">
		<tag k="name" v="Gardstjern" />
		<tag k="natural" v="water" />
		<tag k="ssr:stedsnr" v="755483" />
	</node>
	<node id="-186825" lat="59.6823805526" lon="9.95033332992">
		<tag k="name" v="Småputtene" />
		<tag k="natural" v="water" />
		<tag k="ssr:stedsnr" v="755177" />
		<tag k="water" v="pond" />
	</node>
	<node id="-186817" lat="59.7992666662" lon="9.72053333552">
		<tag k="name" v="Galaseterfossen" />
		<tag k="natural" v="waterfall" />
		<tag k="ssr:stedsnr" v="754706" />
	</node>
	<node id="-186808" lat="59.7589305524" lon="9.73218611537">
		<tag k="name" v="Kverntjern" />
		<tag k="natural" v="water" />
		<tag k="ssr:stedsnr" v="754443" />
	</node>
	<node id="-186806" lat="59.7436416662" lon="9.93184722401">
		<tag k="name" v="Bjørkabekken" />
		<tag k="ssr:stedsnr" v="754377" />
		<tag k="waterway" v="stream" />
	</node>
	<node id="-186801" lat="59.8749972206" lon="9.8987361198">
		<tag k="name" v="Grønnvoll" />
		<tag k="natural" v="beach" />
		<tag k="ssr:stedsnr" v="754071" />
	</node>
	<node id="-186793" lat="59.792677778" lon="9.93865000338">
		<tag k="name" v="Åleputten" />
		<tag k="natural" v="water" />
		<tag k="ssr:stedsnr" v="753560" />
		<tag k="water" v="pond" />
	</node>
	<node id="-186790" lat="59.6486083363" lon="9.89847499936">
		<tag k="name" v="Lønndalsbekken" />
		<tag k="ssr:stedsnr" v="752898" />
		<tag k="waterway" v="stream" />
	</node>
	<node id="-186785" lat="59.7864666663" lon="9.89976110946">
		<tag k="name" v="Hellefossen" />
		<tag k="natural" v="waterfall" />
		<tag k="ssr:stedsnr" v="748926" />
	</node>
	<node id="-186783" lat="59.8972388877" lon="9.71505000107">
		<tag k="name" v="Endetjern" />
		<tag k="natural" v="water" />
		<tag k="ssr:stedsnr" v="732827" />
	</node>
	<node id="-186780" lat="59.8224638886" lon="9.7568000019">
		<tag k="alt_name" v="Hølbekktjern" />
		<tag k="name" v="Styggtjern" />
		<tag k="natural" v="water" />
		<tag k="ssr:stedsnr" v="732731" />
	</node>
	<node id="-186778" lat="59.8246277736" lon="9.73780278013">
		<tag k="alt_name" v="Søndre Sjutjern" />
		<tag k="name" v="Sjutjerna" />
		<tag k="natural" v="water" />
		<tag k="ssr:stedsnr" v="732726" />
	</node>
	<node id="-186771" lat="59.7814861126" lon="9.75688888437">
		<tag k="name" v="Djupekollen" />
		<tag k="natural" v="water" />
		<tag k="ssr:stedsnr" v="732630" />
	</node>
	<node id="-186767" lat="59.8160166634" lon="9.76029444617">
		<tag k="name" v="Kringstadtjern" />
		<tag k="natural" v="water" />
		<tag k="ssr:stedsnr" v="732571" />
	</node>
	<node id="-186766" lat="59.796522225" lon="9.96752222221">
		<tag k="name" v="Øytjern" />
		<tag k="natural" v="water" />
		<tag k="ssr:stedsnr" v="732556" />
	</node>
	<node id="-186765" lat="59.8447333369" lon="9.99793888996">
		<tag k="alt_name" v="Vesledypingen" />
		<tag k="name" v="Lille Dypingen" />
		<tag k="natural" v="water" />
		<tag k="ssr:stedsnr" v="732308" />
	</node>
	<node id="-186763" lat="59.8521916651" lon="10.0351527731">
		<tag k="alt_name" v="Ytre Sandungen;Mellom Sandungen;Framre Sandungen" />
		<tag k="name" v="Sandungen" />
		<tag k="natural" v="water" />
		<tag k="ssr:stedsnr" v="732270" />
		<tag k="water" v="lake" />
	</node>
	<node id="-186759" lat="59.6231031179" lon="9.9001508037">
		<tag k="name" v="Ålevanna" />
		<tag k="natural" v="water" />
		<tag k="ssr:stedsnr" v="727910" />
	</node>
	<node id="-186758" lat="59.7386972252" lon="9.88011111431">
		<tag k="name" v="Vestfosselva" />
		<tag k="ssr:stedsnr" v="731677" />
		<tag k="waterway" v="river" />
	</node>
	<node id="-186752" lat="59.7116500037" lon="9.9183888926">
		<tag k="name" v="Tjernsauet" />
		<tag k="natural" v="water" />
		<tag k="ssr:stedsnr" v="696681" />
	</node>
	<node id="-186747" lat="59.7059595573" lon="9.70064750256">
		<tag k="name" v="Nedre Kongsvann" />
		<tag k="natural" v="water" />
		<tag k="ssr:stedsnr" v="695827" />
	</node>
	<node id="-186745" lat="59.8128972236" lon="9.76717499691">
		<tag k="name" v="Skrivertjern" />
		<tag k="natural" v="water" />
		<tag k="ssr:stedsnr" v="695546" />
	</node>
	<node id="-186740" lat="59.7724499983" lon="9.91900833012">
		<tag k="name" v="Øvre Sandøra" />
		<tag k="natural" v="cape" />
		<tag k="ssr:stedsnr" v="694830" />
	</node>
	<node id="-186738" lat="59.8004666712" lon="9.97543332635">
		<tag k="name" v="Høgfossen" />
		<tag k="natural" v="waterfall" />
		<tag k="ssr:stedsnr" v="694706" />
	</node>
	<node id="-186735" lat="59.8980417366" lon="9.72704115533">
		<tag k="name" v="Skårfossdammen" />
		<tag k="ssr:stedsnr" v="694393" />
		<tag k="waterway" v="dam" />
	</node>
	<node id="-186728" lat="59.6882611129" lon="9.71133333136">
		<tag k="name" v="Fiskeløstjern" />
		<tag k="natural" v="water" />
		<tag k="ssr:stedsnr" v="693691" />
	</node>
	<node id="-186726" lat="59.8480805515" lon="9.99866389166">
		<tag k="name" v="Ormetjern" />
		<tag k="natural" v="water" />
		<tag k="ssr:stedsnr" v="693663" />
	</node>
	<node id="-186724" lat="59.8446250018" lon="9.9918000001">
		<tag k="name" v="Daletjernsbekken" />
		<tag k="ssr:stedsnr" v="693661" />
		<tag k="waterway" v="stream" />
	</node>
	<node id="-186721" lat="59.8190694483" lon="9.92271944241">
		<tag k="name" v="Bjørneputten" />
		<tag k="natural" v="water" />
		<tag k="ssr:stedsnr" v="693630" />
		<tag k="water" v="pond" />
	</node>
	<node id="-186717" lat="59.8104999985" lon="9.94562777291">
		<tag k="name" v="Butjernbekken" />
		<tag k="ssr:stedsnr" v="693608" />
		<tag k="waterway" v="stream" />
	</node>
	<node id="-186706" lat="59.6996249969" lon="9.69108889136">
		<tag k="name" v="Brudevolltjern" />
		<tag k="natural" v="water" />
		<tag k="ssr:stedsnr" v="731593" />
	</node>
	<node id="-186696" lat="59.8312277818" lon="9.96305277923">
		<tag k="name" v="Framre Skarstjern" />
		<tag k="natural" v="water" />
		<tag k="ssr:stedsnr" v="671695" />
	</node>
	<node id="-186695" lat="59.7479027733" lon="9.74235555493">
		<tag k="alt_name" v="Høngassene" />
		<tag k="name" v="Nedre Høngassen" />
		<tag k="natural" v="water" />
		<tag k="ssr:stedsnr" v="671694" />
	</node>
	<node id="-186694" lat="59.8695222234" lon="9.9573916615">
		<tag k="fixme" v="multiple name tags, choose one and add the other to alt_name" />
		<tag k="name" v="Seterputten;Verpputten" />
		<tag k="natural" v="water" />
		<tag k="ssr:stedsnr" v="671664" />
	</node>
	<node id="-186691" lat="59.873952782" lon="9.96391111703">
		<tag k="fixme" v="multiple name tags, choose one and add the other to alt_name" />
		<tag k="name" v="Damtjern;Melumdamtjern" />
		<tag k="natural" v="water" />
		<tag k="ssr:stedsnr" v="671645" />
	</node>
	<node id="-186685" lat="59.7857888887" lon="9.72476666012">
		<tag k="name" v="Prestvannet" />
		<tag k="natural" v="water" />
		<tag k="ssr:stedsnr" v="671588" />
	</node>
	<node id="-186679" lat="59.6139583315" lon="9.88293611554">
		<tag k="alt_name" v="Burvannet" />
		<tag k="name" v="Burvann" />
		<tag k="natural" v="water" />
		<tag k="ssr:stedsnr" v="671512" />
	</node>
	<node id="-186678" lat="59.6097805537" lon="9.91953054717">
		<tag k="alt_name" v="Mørtjern" />
		<tag k="name" v="Mørtjernet" />
		<tag k="natural" v="water" />
		<tag k="ssr:stedsnr" v="671434" />
	</node>
	<node id="-186677" lat="59.8309361151" lon="10.0066249922">
		<tag k="alt_name" v="Villinga" />
		<tag k="name" v="Vellingen" />
		<tag k="natural" v="water" />
		<tag k="ssr:stedsnr" v="671285" />
	</node>
	<node id="-186673" lat="59.7110388846" lon="9.71843332567">
		<tag k="name" v="Karlstjern" />
		<tag k="natural" v="water" />
		<tag k="ssr:stedsnr" v="670634" />
	</node>
	<node id="-186671" lat="59.7032277808" lon="9.66300000556">
		<tag k="fixme" v="multiple name tags, choose one and add the other to alt_name" />
		<tag k="name" v="Langtjern;Langevann" />
		<tag k="natural" v="water" />
		<tag k="ssr:stedsnr" v="670613" />
	</node>
	<node id="-186668" lat="59.7066995518" lon="9.82894121235">
		<tag k="name" v="Fiskumvannet" />
		<tag k="natural" v="water" />
		<tag k="ssr:stedsnr" v="670600" />
		<tag k="water" v="lake" />
	</node>
	<node id="-186667" lat="59.6930055552" lon="9.68645833492">
		<tag k="name" v="Svartkulp" />
		<tag k="natural" v="water" />
		<tag k="ssr:stedsnr" v="670585" />
	</node>
	<node id="-186665" lat="59.6599611131" lon="9.80499443636">
		<tag k="name" v="Flåtjern" />
		<tag k="natural" v="water" />
		<tag k="ssr:stedsnr" v="670539" />
	</node>
	<node id="-186662" lat="59.6315416639" lon="9.95708055893">
		<tag k="name" v="Holtøya" />
		<tag k="place" v="island" />
		<tag k="ssr:stedsnr" v="670488" />
	</node>
	<node id="-186647" lat="59.6698277788" lon="9.96976944969">
		<tag k="name" v="Setertjern" />
		<tag k="natural" v="water" />
		<tag k="ssr:stedsnr" v="634219" />
		<tag k="water" v="pond" />
	</node>
	<node id="-186646" lat="59.688827782" lon="9.98986944803">
		<tag k="name" v="Mellom-Fisketjern" />
		<tag k="natural" v="water" />
		<tag k="ssr:stedsnr" v="634154" />
	</node>
	<node id="-186645" lat="59.6782222208" lon="10.0005388959">
		<tag k="name" v="Blygruvebekken" />
		<tag k="ssr:stedsnr" v="634152" />
		<tag k="waterway" v="stream" />
	</node>
	<node id="-186644" lat="59.7746611139" lon="9.72784167397">
		<tag k="name" v="Totjerna" />
		<tag k="natural" v="water" />
		<tag k="ssr:stedsnr" v="633934" />
	</node>
	<node id="-186638" lat="59.612858331" lon="9.90618889713">
		<tag k="name" v="Fosseteråskulpene" />
		<tag k="natural" v="water" />
		<tag k="ssr:stedsnr" v="633560" />
	</node>
	<node id="-186636" lat="59.7940333368" lon="9.9133777769">
		<tag k="name" v="Kolbrekvannsbekk" />
		<tag k="ssr:stedsnr" v="632988" />
		<tag k="waterway" v="stream" />
	</node>
	<node id="-186633" lat="59.7762583336" lon="9.88183611415">
		<tag k="name" v="Dammen" />
		<tag k="ssr:stedsnr" v="632785" />
		<tag k="waterway" v="dam" />
	</node>
	<node id="-186628" lat="59.848163891" lon="10.0105250022">
		<tag k="name" v="Furutangen" />
		<tag k="natural" v="cape" />
		<tag k="ssr:stedsnr" v="632623" />
	</node>
	<node id="-186627" lat="59.831702781" lon="9.98634166644">
		<tag k="name" v="Flårane" />
		<tag k="natural" v="water" />
		<tag k="ssr:stedsnr" v="632618" />
	</node>
	<node id="-186624" lat="59.8500138909" lon="9.96399165816">
		<tag k="name" v="Snaukolltjern" />
		<tag k="natural" v="water" />
		<tag k="ssr:stedsnr" v="632582" />
	</node>
	<node id="-186623" lat="59.8489888933" lon="9.933205563">
		<tag k="name" v="Damtjernbekken" />
		<tag k="ssr:stedsnr" v="632579" />
		<tag k="waterway" v="stream" />
	</node>
	<node id="-186619" lat="59.7234861142" lon="9.68625833846">
		<tag k="name" v="Krokbekk" />
		<tag k="ssr:stedsnr" v="630729" />
		<tag k="waterway" v="stream" />
	</node>
	<node id="-186618" lat="59.72790556" lon="9.65508054885">
		<tag k="name" v="Sjutjerna" />
		<tag k="natural" v="water" />
		<tag k="ssr:stedsnr" v="630728" />
	</node>
	<node id="-186613" lat="59.7060527816" lon="9.6888694369">
		<tag k="name" v="Kniptjern" />
		<tag k="natural" v="water" />
		<tag k="ssr:stedsnr" v="629972" />
	</node>
	<node id="-186611" lat="59.854738889" lon="9.81295833268">
		<tag k="name" v="Kjerringbekken" />
		<tag k="ssr:stedsnr" v="611731" />
		<tag k="waterway" v="stream" />
	</node>
	<node id="-186610" lat="59.8398444407" lon="9.87709721636">
		<tag k="name" v="Bingselva" />
		<tag k="ssr:stedsnr" v="611729" />
		<tag k="waterway" v="river" />
	</node>
	<node id="-186607" lat="59.8566555585" lon="9.71208888899">
		<tag k="name" v="Tverrelva" />
		<tag k="ssr:stedsnr" v="610753" />
		<tag k="waterway" v="stream" />
	</node>
	<node id="-186606" lat="59.8361611152" lon="9.85181111362">
		<tag k="name" v="Spitelva" />
		<tag k="ssr:stedsnr" v="610737" />
		<tag k="waterway" v="river" />
	</node>
	<node id="-186604" lat="59.8391138914" lon="9.76570556287">
		<tag k="name" v="Langtjern" />
		<tag k="natural" v="water" />
		<tag k="ssr:stedsnr" v="610720" />
	</node>
	<node id="-186602" lat="59.8806027794" lon="9.69581110832">
		<tag k="name" v="Svartbekkdammen" />
		<tag k="natural" v="water" />
		<tag k="ssr:stedsnr" v="610701" />
	</node>
	<node id="-186601" lat="59.7352361154" lon="9.71281389526">
		<tag k="name" v="Søndre Svarttjern" />
		<tag k="natural" v="water" />
		<tag k="ssr:stedsnr" v="610696" />
	</node>
	<node id="-186598" lat="59.8666027753" lon="9.81518888788">
		<tag k="name" v="Sørlibekken" />
		<tag k="ssr:stedsnr" v="610671" />
		<tag k="waterway" v="stream" />
	</node>
	<node id="-186597" lat="59.6958527813" lon="9.69463611927">
		<tag k="alt_name" v="Muggerudtjern" />
		<tag k="name" v="Muggerudtjernet" />
		<tag k="natural" v="water" />
		<tag k="ssr:stedsnr" v="610660" />
	</node>
	<node id="-186585" lat="59.8178166623" lon="9.72222777295">
		<tag k="name" v="Krokvannet" />
		<tag k="natural" v="water" />
		<tag k="ssr:stedsnr" v="610576" />
	</node>
	<node id="-186584" lat="59.8169055571" lon="9.77142778642">
		<tag k="name" v="Hoggtjernbekken" />
		<tag k="ssr:stedsnr" v="610572" />
		<tag k="waterway" v="stream" />
	</node>
	<node id="-186582" lat="59.7866249984" lon="9.7719861147">
		<tag k="alt_name" v="Lille Honsvannet" />
		<tag k="name" v="Vesle Hoensvannet" />
		<tag k="natural" v="water" />
		<tag k="old_name" v="Honsvannet, l" />
		<tag k="ssr:stedsnr" v="610569" />
	</node>
	<node id="-186577" lat="59.8318666646" lon="9.99402222122">
		<tag k="alt_name" v="Østre Sulustjern" />
		<tag k="name" v="Sulustjerna" />
		<tag k="natural" v="water" />
		<tag k="ssr:stedsnr" v="610322" />
	</node>
	<node id="-186576" lat="59.8561194444" lon="9.97516665987">
		<tag k="name" v="Bikkjetjern" />
		<tag k="natural" v="water" />
		<tag k="ssr:stedsnr" v="610308" />
	</node>
	<node id="-186575" lat="59.8577027769" lon="10.0269638949">
		<tag k="name" v="Aureputten" />
		<tag k="natural" v="water" />
		<tag k="ssr:stedsnr" v="610304" />
	</node>
	<node id="-186574" lat="59.7315666681" lon="9.96167776918">
		<tag k="name" v="Igletjern" />
		<tag k="natural" v="water" />
		<tag k="ssr:stedsnr" v="609612" />
	</node>
	<node id="-186573" lat="59.7156722216" lon="9.73799721966">
		<tag k="name" v="Merratjern" />
		<tag k="natural" v="water" />
		<tag k="ssr:stedsnr" v="609597" />
	</node>
	<node id="-186570" lat="59.6540083367" lon="9.79901388546">
		<tag k="name" v="Møyretjern" />
		<tag k="natural" v="water" />
		<tag k="ssr:stedsnr" v="609524" />
	</node>
	<node id="-186569" lat="59.6177249998" lon="9.88810555415">
		<tag k="name" v="Store Brånevann" />
		<tag k="natural" v="water" />
		<tag k="ssr:stedsnr" v="605944" />
	</node>
	<node id="-186568" lat="59.7927366402" lon="9.70670712957">
		<tag k="name" v="Bjørvatnet" />
		<tag k="natural" v="water" />
		<tag k="ssr:stedsnr" v="598506" />
		<tag k="water" v="lake" />
	</node>
	<node id="-186565" lat="59.6485111071" lon="9.85568333372">
		<tag k="name" v="Raufålakulpen" />
		<tag k="natural" v="water" />
		<tag k="ssr:stedsnr" v="574919" />
		<tag k="water" v="pond" />
	</node>
	<node id="-186564" lat="59.7161759773" lon="9.6974715802">
		<tag k="name" v="Lurdalselva" />
		<tag k="ssr:stedsnr" v="574857" />
		<tag k="waterway" v="stream" />
	</node>
	<node id="-186549" lat="59.743705556" lon="9.74867776967">
		<tag k="name" v="Spannslokket" />
		<tag k="natural" v="water" />
		<tag k="ssr:stedsnr" v="572424" />
	</node>
	<node id="-186546" lat="59.8399027783" lon="9.92831945122">
		<tag k="name" v="Horsrudbekken" />
		<tag k="ssr:stedsnr" v="571581" />
		<tag k="waterway" v="stream" />
	</node>
	<node id="-186544" lat="59.8659083307" lon="9.71105000675">
		<tag k="name" v="Smedselva" />
		<tag k="ssr:stedsnr" v="571378" />
		<tag k="waterway" v="stream" />
	</node>
	<node id="-186536" lat="59.7082583358" lon="9.66956665788">
		<tag k="name" v="Surtjern" />
		<tag k="natural" v="water" />
		<tag k="ssr:stedsnr" v="569952" />
	</node>
	<node id="-186534" lat="59.8004666712" lon="9.97543332635">
		<tag k="name" v="Sagelva" />
		<tag k="ssr:stedsnr" v="610290" />
		<tag k="waterway" v="stream" />
	</node>
	<node id="-186531" lat="59.8656333319" lon="9.96495833136">
		<tag k="name" v="Flåputten" />
		<tag k="natural" v="water" />
		<tag k="ssr:stedsnr" v="550714" />
	</node>
	<node id="-186529" lat="59.8901916676" lon="9.7554694487">
		<tag k="name" v="Smedselva" />
		<tag k="ssr:stedsnr" v="550654" />
		<tag k="waterway" v="river" />
	</node>
	<node id="-186524" lat="59.7821638879" lon="9.77307777729">
		<tag k="alt_name" v="Ormtjern" />
		<tag k="name" v="Ormetjern" />
		<tag k="natural" v="water" />
		<tag k="ssr:stedsnr" v="550588" />
	</node>
	<node id="-186518" lat="59.8341749997" lon="10.0082555575">
		<tag k="name" v="Grauten" />
		<tag k="natural" v="water" />
		<tag k="ssr:stedsnr" v="550273" />
	</node>
	<node id="-186516" lat="59.8262833307" lon="9.93751111496">
		<tag k="name" v="Skogsvannet" />
		<tag k="natural" v="water" />
		<tag k="ssr:stedsnr" v="549689" />
	</node>
	<node id="-186509" lat="59.7261277734" lon="9.77806110309">
		<tag k="alt_name" v="Lundteigtjernet" />
		<tag k="name" v="Lundteigtjern" />
		<tag k="natural" v="water" />
		<tag k="ssr:stedsnr" v="549644" />
	</node>
	<node id="-186506" lat="59.700522219" lon="9.85913054951">
		<tag k="alt_name" v="Tangen" />
		<tag k="name" v="Sandstangen" />
		<tag k="natural" v="cape" />
		<tag k="ssr:stedsnr" v="549596" />
	</node>
	<node id="-186496" lat="59.6847277769" lon="9.96017777791">
		<tag k="alt_name" v="Svarttjern" />
		<tag k="name" v="Øvre Svarttjern" />
		<tag k="natural" v="water" />
		<tag k="ssr:stedsnr" v="549555" />
	</node>
	<node id="-186493" lat="59.6548416695" lon="9.77772221745">
		<tag k="name" v="Vegotjern" />
		<tag k="natural" v="water" />
		<tag k="ssr:stedsnr" v="549533" />
	</node>
	<node id="-186492" lat="59.6374361069" lon="9.87686945204">
		<tag k="name" v="Langtjern" />
		<tag k="natural" v="water" />
		<tag k="ssr:stedsnr" v="549516" />
	</node>
	<node id="-186490" lat="59.6236956953" lon="9.89882334053">
		<tag k="name" v="Store Ålevann" />
		<tag k="natural" v="water" />
		<tag k="ssr:stedsnr" v="549483" />
	</node>
	<node id="-186489" lat="59.6167083376" lon="9.93823611844">
		<tag k="alt_name" v="Gråbeintjernet" />
		<tag k="name" v="Gråbeintjern" />
		<tag k="natural" v="water" />
		<tag k="ssr:stedsnr" v="549480" />
	</node>
	<node id="-186488" lat="59.5992444434" lon="9.93159444482">
		<tag k="alt_name" v="Brandturtangen" />
		<tag k="name" v="Branturtangen" />
		<tag k="natural" v="cape" />
		<tag k="ssr:stedsnr" v="549433" />
	</node>
	<node id="-186487" lat="59.8608833309" lon="10.022133333">
		<tag k="name" v="Flistjern" />
		<tag k="natural" v="water" />
		<tag k="ssr:stedsnr" v="549275" />
	</node>
	<node id="-186473" lat="59.654908335" lon="9.95602223085">
		<tag k="name" v="Sandvik" />
		<tag k="natural" v="bay" />
		<tag k="ssr:stedsnr" v="513229" />
	</node>
	<node id="-186472" lat="59.679822223" lon="9.93518055731">
		<tag k="name" v="Tørrbekken" />
		<tag k="ssr:stedsnr" v="513180" />
		<tag k="waterway" v="stream" />
	</node>
	<node id="-186470" lat="59.7828333362" lon="9.71887221551">
		<tag k="name" v="Kristensplass" />
		<tag k="natural" v="cape" />
		<tag k="ssr:stedsnr" v="512936" />
	</node>
	<node id="-186469" lat="59.7966916684" lon="9.77424722648">
		<tag k="name" v="Sjøglimt" />
		<tag k="natural" v="water" />
		<tag k="ssr:stedsnr" v="512881" />
	</node>
	<node id="-186467" lat="59.7966222187" lon="9.76459443665">
		<tag k="name" v="Hoensvannsløken" />
		<tag k="natural" v="water" />
		<tag k="ssr:stedsnr" v="512803" />
	</node>
	<node id="-186463" lat="59.611880552" lon="9.88773610253">
		<tag k="name" v="Vesle Tistillen" />
		<tag k="natural" v="bay" />
		<tag k="ssr:stedsnr" v="512564" />
	</node>
	<node id="-186460" lat="59.7678916707" lon="9.75153332711">
		<tag k="name" v="Spærensetertjern" />
		<tag k="natural" v="water" />
		<tag k="ssr:stedsnr" v="512097" />
	</node>
	<node id="-186453" lat="59.8474999994" lon="9.71391111345">
		<tag k="name" v="Nedre Blygåttjern" />
		<tag k="natural" v="water" />
		<tag k="ssr:stedsnr" v="511706" />
	</node>
	<node id="-186448" lat="59.8127138888" lon="9.92563334063">
		<tag k="name" v="Ormetjern" />
		<tag k="natural" v="water" />
		<tag k="ssr:stedsnr" v="511581" />
	</node>
	<node id="-186441" lat="59.880095289" lon="9.73564261383">
		<tag k="name" v="Farlighet" />
		<tag k="ssr:stedsnr" v="511383" />
		<tag k="waterway" v="rapids" />
	</node>
	<node id="-186434" lat="59.606369447" lon="9.93128610676">
		<tag k="name" v="Øksnedammen" />
		<tag k="ssr:stedsnr" v="509720" />
		<tag k="waterway" v="dam" />
	</node>
	<node id="-186432" lat="59.7144249971" lon="9.68025834037">
		<tag k="name" v="Igletjern" />
		<tag k="natural" v="water" />
		<tag k="ssr:stedsnr" v="508981" />
	</node>
	<node id="-186428" lat="59.6505111089" lon="9.99282223069">
		<tag k="name" v="Tryterudelva" />
		<tag k="ssr:stedsnr" v="505133" />
		<tag k="waterway" v="stream" />
	</node>
	<node id="-186423" lat="59.7839861099" lon="9.94978055297">
		<tag k="name" v="Hagatjern" />
		<tag k="natural" v="water" />
		<tag k="ssr:stedsnr" v="489636" />
	</node>
	<node id="-186419" lat="59.7684333366" lon="9.73414166538">
		<tag k="name" v="Svartskurdtjern" />
		<tag k="natural" v="water" />
		<tag k="ssr:stedsnr" v="489600" />
	</node>
	<node id="-186417" lat="59.8108388933" lon="9.78962499378">
		<tag k="name" v="Nestvolltjern" />
		<tag k="natural" v="water" />
		<tag k="ssr:stedsnr" v="489572" />
	</node>
	<node id="-186416" lat="59.8127722236" lon="9.77553332469">
		<tag k="alt_name" v="Ammerudtjern" />
		<tag k="name" v="Ammenrudtjern" />
		<tag k="natural" v="water" />
		<tag k="ssr:stedsnr" v="489562" />
	</node>
	<node id="-186415" lat="59.790438727" lon="9.76657143615">
		<tag k="name" v="Hoensvannet" />
		<tag k="natural" v="water" />
		<tag k="ssr:stedsnr" v="489557" />
		<tag k="water" v="lake" />
	</node>
	<node id="-186409" lat="59.8570888915" lon="10.0145361118">
		<tag k="alt_name" v="Størtjern" />
		<tag k="name" v="Storrtjern" />
		<tag k="natural" v="water" />
		<tag k="ssr:stedsnr" v="489300" />
	</node>
	<node id="-186403" lat="59.6406694487" lon="9.8688111117">
		<tag k="alt_name" v="Steffens Blekktjern" />
		<tag k="name" v="Steffensblekktjernet" />
		<tag k="natural" v="water" />
		<tag k="ssr:stedsnr" v="488539" />
	</node>
	<node id="-186401" lat="59.6268" lon="9.87611389737">
		<tag k="name" v="Holmtjern" />
		<tag k="natural" v="water" />
		<tag k="ssr:stedsnr" v="488513" />
	</node>
	<node id="-186399" lat="59.6270166705" lon="9.85001944322">
		<tag k="alt_name" v="Lille Fiskelaus" />
		<tag k="name" v="Lille Fiskelausen" />
		<tag k="natural" v="water" />
		<tag k="ssr:stedsnr" v="488502" />
	</node>
	<node id="-186390" lat="59.702530558" lon="9.90848333037">
		<tag k="name" v="Kringletjern" />
		<tag k="natural" v="water" />
		<tag k="ssr:stedsnr" v="453703" />
	</node>
	<node id="-186385" lat="59.6970583313" lon="9.89872221357">
		<tag k="name" v="Hamreelva" />
		<tag k="ssr:stedsnr" v="452707" />
		<tag k="waterway" v="stream" />
	</node>
	<node id="-186382" lat="59.6698722234" lon="9.86863610933">
		<tag k="name" v="Gunhildrudbekken" />
		<tag k="ssr:stedsnr" v="452595" />
		<tag k="waterway" v="stream" />
	</node>
	<node id="-186376" lat="59.7847861113" lon="9.90311389126">
		<tag k="name" v="Landskjæret" />
		<tag k="place" v="islet" />
		<tag k="ssr:stedsnr" v="451850" />
	</node>
	<node id="-186371" lat="59.8389277747" lon="9.97353611771">
		<tag k="name" v="Tretjerna" />
		<tag k="natural" v="water" />
		<tag k="ssr:stedsnr" v="451622" />
	</node>
</osm>
