<?xml version="1.0" encoding="UTF-8"?>
<osm generator="osmapis" version="0.6">
	<node id="-49914" lat="58.1092868516" lon="6.56691088949">
		<tag k="alt_name" v="Lista" />
		<tag k="name" v="Lista fyr" />
		<tag k="ssr:date" v="2020-09-01" />
		<tag k="ssr:gruppe" v="navigasjon" />
		<tag k="ssr:hovedgruppe" v="infrastruktur" />
		<tag k="ssr:stedsnr" v="606118" />
		<tag k="ssr:type" v="fyrstasjon" />
	</node>
	<node id="-49907" lat="58.1168055519" lon="6.5774750012">
		<tag k="name" v="Lista" />
		<tag k="ssr:date" v="2019-12-27" />
		<tag k="ssr:gruppe" v="terrengområder" />
		<tag k="ssr:hovedgruppe" v="terreng" />
		<tag k="ssr:stedsnr" v="606103" />
		<tag k="ssr:type" v="landskapsområde" />
	</node>
	<node id="-50213" lat="58.0513655372" lon="6.92265982332">
		<tag k="name" v="Terøy" />
		<tag k="ssr:date" v="2020-09-03" />
		<tag k="ssr:gruppe" v="navigasjon" />
		<tag k="ssr:hovedgruppe" v="infrastruktur" />
		<tag k="ssr:stedsnr" v="850422" />
		<tag k="ssr:type" v="fyrlykt" />
	</node>
	<node id="-50413" lat="58.0573749324" lon="6.82479138809">
		<tag k="name" v="Færøy" />
		<tag k="ssr:date" v="2020-03-10" />
		<tag k="ssr:gruppe" v="navigasjon" />
		<tag k="ssr:hovedgruppe" v="infrastruktur" />
		<tag k="ssr:stedsnr" v="1075918" />
		<tag k="ssr:type" v="båke" />
	</node>
	<node id="-50407" lat="58.0491147013" lon="6.79559489837">
		<tag k="name" v="Revøyvarden" />
		<tag k="ssr:date" v="2020-03-05" />
		<tag k="ssr:gruppe" v="navigasjon" />
		<tag k="ssr:hovedgruppe" v="infrastruktur" />
		<tag k="ssr:stedsnr" v="1075836" />
		<tag k="ssr:type" v="sjøvarde" />
	</node>
	<node id="-50403" lat="58.146012317" lon="6.83368673442">
		<tag k="name" v="Raunebeideveien" />
		<tag k="ssr:date" v="2019-12-27" />
		<tag k="ssr:gruppe" v="veg" />
		<tag k="ssr:hovedgruppe" v="infrastruktur" />
		<tag k="ssr:stedsnr" v="1074355" />
		<tag k="ssr:type" v="adressenavn" />
	</node>
	<node id="-50402" lat="58.1780098248" lon="6.79472363801">
		<tag k="name" v="Odreliveien" />
		<tag k="ssr:date" v="2019-12-27" />
		<tag k="ssr:gruppe" v="veg" />
		<tag k="ssr:hovedgruppe" v="infrastruktur" />
		<tag k="ssr:stedsnr" v="1074354" />
		<tag k="ssr:type" v="adressenavn" />
	</node>
	<node id="-50401" lat="58.0935849274" lon="6.68544997419">
		<tag k="name" v="Tingvolljordet" />
		<tag k="ssr:date" v="2019-12-27" />
		<tag k="ssr:gruppe" v="veg" />
		<tag k="ssr:hovedgruppe" v="infrastruktur" />
		<tag k="ssr:stedsnr" v="1074353" />
		<tag k="ssr:type" v="adressenavn" />
	</node>
	<node id="-50400" lat="58.0944212019" lon="6.68411159925">
		<tag k="name" v="Skeimelia" />
		<tag k="ssr:date" v="2019-12-27" />
		<tag k="ssr:gruppe" v="veg" />
		<tag k="ssr:hovedgruppe" v="infrastruktur" />
		<tag k="ssr:stedsnr" v="1074350" />
		<tag k="ssr:type" v="adressenavn" />
	</node>
	<node id="-50399" lat="58.1250435249" lon="6.85276454347">
		<tag k="name" v="Flådalsveien" />
		<tag k="ssr:date" v="2019-12-27" />
		<tag k="ssr:gruppe" v="veg" />
		<tag k="ssr:hovedgruppe" v="infrastruktur" />
		<tag k="ssr:stedsnr" v="1074351" />
		<tag k="ssr:type" v="adressenavn" />
	</node>
	<node id="-50398" lat="58.1511039845" lon="7.99409139476">
		<tag k="name" v="Agder fylke" />
		<tag k="ssr:date" v="2020-01-13" />
		<tag k="ssr:gruppe" v="administrativeIndelinger" />
		<tag k="ssr:hovedgruppe" v="offentligAdministrasjon" />
		<tag k="ssr:stedsnr" v="1073974" />
		<tag k="ssr:type" v="fylke" />
	</node>
	<node id="-50397" lat="58.0927491803" lon="6.68079911488">
		<tag k="name" v="Skeimejordet" />
		<tag k="ssr:date" v="2019-12-27" />
		<tag k="ssr:gruppe" v="veg" />
		<tag k="ssr:hovedgruppe" v="infrastruktur" />
		<tag k="ssr:stedsnr" v="1074352" />
		<tag k="ssr:type" v="adressenavn" />
	</node>
	<node id="-49444" lat="58.0821194448" lon="6.83416667181">
		<tag k="name" v="Nordre Håøyflua" />
		<tag k="ssr:date" v="2019-12-27" />
		<tag k="ssr:gruppe" v="navigasjon" />
		<tag k="ssr:hovedgruppe" v="infrastruktur" />
		<tag k="ssr:stedsnr" v="179185" />
		<tag k="ssr:type" v="fyrlykt" />
	</node>
	<node id="-49742" lat="58.0943694419" lon="6.58405554936">
		<tag k="name" v="Brekneholmen" />
		<tag k="ssr:date" v="2019-12-27" />
		<tag k="ssr:gruppe" v="navigasjon" />
		<tag k="ssr:hovedgruppe" v="infrastruktur" />
		<tag k="ssr:stedsnr" v="388399" />
		<tag k="ssr:type" v="fyrlykt" />
	</node>
	<node id="-48710" lat="58.0409861134" lon="6.93361666356">
		<tag k="name" v="Ullerøysund" />
		<tag k="ssr:date" v="2019-12-27" />
		<tag k="ssr:gruppe" v="navigasjon" />
		<tag k="ssr:hovedgruppe" v="infrastruktur" />
		<tag k="ssr:stedsnr" v="606381" />
		<tag k="ssr:type" v="fyrlykt" />
	</node>
	<node id="-49984" lat="58.0939722185" lon="6.81174722006">
		<tag k="name" v="Farøy" />
		<tag k="ssr:date" v="2019-12-27" />
		<tag k="ssr:gruppe" v="navigasjon" />
		<tag k="ssr:hovedgruppe" v="infrastruktur" />
		<tag k="ssr:stedsnr" v="645340" />
		<tag k="ssr:type" v="lanterne" />
	</node>
	<node id="-49338" lat="58.066880273" lon="6.82406184779">
		<tag k="name" v="Eigvåg" />
		<tag k="ssr:date" v="2020-09-03" />
		<tag k="ssr:gruppe" v="navigasjon" />
		<tag k="ssr:hovedgruppe" v="infrastruktur" />
		<tag k="ssr:stedsnr" v="121374" />
		<tag k="ssr:type" v="fyrlykt" />
	</node>
	<node id="-49336" lat="58.060322666" lon="6.87302436757">
		<tag k="name" v="Bremerodden" />
		<tag k="ssr:date" v="2020-09-03" />
		<tag k="ssr:gruppe" v="navigasjon" />
		<tag k="ssr:hovedgruppe" v="infrastruktur" />
		<tag k="ssr:stedsnr" v="121355" />
		<tag k="ssr:type" v="fyrlykt" />
	</node>
	<node id="-50334" lat="58.0810741789" lon="6.91975020264">
		<tag k="name" v="Indre Bugdøy" />
		<tag k="ssr:date" v="2019-12-27" />
		<tag k="ssr:gruppe" v="veg" />
		<tag k="ssr:hovedgruppe" v="infrastruktur" />
		<tag k="ssr:stedsnr" v="978308" />
		<tag k="ssr:type" v="adressenavn" />
	</node>
	<node id="-49309" lat="58.3325833378" lon="7.04150000809">
		<tag k="name" v="Lister" />
		<tag k="ssr:date" v="2019-12-27" />
		<tag k="ssr:gruppe" v="terrengområder" />
		<tag k="ssr:hovedgruppe" v="terreng" />
		<tag k="ssr:stedsnr" v="120117" />
		<tag k="ssr:type" v="landskapsområde" />
	</node>
	<node id="-50341" lat="58.0755705262" lon="6.83904186746">
		<tag k="name" v="Urøy" />
		<tag k="ssr:date" v="2019-12-27" />
		<tag k="ssr:gruppe" v="veg" />
		<tag k="ssr:hovedgruppe" v="infrastruktur" />
		<tag k="ssr:stedsnr" v="978435" />
		<tag k="ssr:type" v="adressenavn" />
	</node>
	<node id="-50340" lat="58.0625177631" lon="6.8159950039">
		<tag k="name" v="Sandøy" />
		<tag k="ssr:date" v="2019-12-27" />
		<tag k="ssr:gruppe" v="veg" />
		<tag k="ssr:hovedgruppe" v="infrastruktur" />
		<tag k="ssr:stedsnr" v="978434" />
		<tag k="ssr:type" v="adressenavn" />
	</node>
	<node id="-50339" lat="58.066671394" lon="6.87994847123">
		<tag k="name" v="Langøy" />
		<tag k="ssr:date" v="2019-12-27" />
		<tag k="ssr:gruppe" v="veg" />
		<tag k="ssr:hovedgruppe" v="infrastruktur" />
		<tag k="ssr:stedsnr" v="978433" />
		<tag k="ssr:type" v="adressenavn" />
	</node>
	<node id="-50338" lat="58.0530691542" lon="6.87567009742">
		<tag k="name" v="Lindholmen" />
		<tag k="ssr:date" v="2019-12-27" />
		<tag k="ssr:gruppe" v="veg" />
		<tag k="ssr:hovedgruppe" v="infrastruktur" />
		<tag k="ssr:stedsnr" v="978432" />
		<tag k="ssr:type" v="adressenavn" />
	</node>
	<node id="-50337" lat="58.0526430618" lon="6.92281005764">
		<tag k="name" v="Terøy" />
		<tag k="ssr:date" v="2019-12-27" />
		<tag k="ssr:gruppe" v="veg" />
		<tag k="ssr:hovedgruppe" v="infrastruktur" />
		<tag k="ssr:stedsnr" v="978431" />
		<tag k="ssr:type" v="adressenavn" />
	</node>
	<node id="-50336" lat="58.0605801016" lon="6.91478884648">
		<tag k="name" v="Skarvøy" />
		<tag k="ssr:date" v="2019-12-27" />
		<tag k="ssr:gruppe" v="veg" />
		<tag k="ssr:hovedgruppe" v="infrastruktur" />
		<tag k="ssr:stedsnr" v="978430" />
		<tag k="ssr:type" v="adressenavn" />
	</node>
	<node id="-50335" lat="58.0455262995" lon="6.91780094917">
		<tag k="name" v="Ullerøy" />
		<tag k="ssr:date" v="2019-12-27" />
		<tag k="ssr:gruppe" v="veg" />
		<tag k="ssr:hovedgruppe" v="infrastruktur" />
		<tag k="ssr:stedsnr" v="978309" />
		<tag k="ssr:type" v="adressenavn" />
	</node>
	<node id="-48030" lat="58.1779611165" lon="6.6237932363">
		<tag k="name" v="Varneset" />
		<tag k="ssr:date" v="2020-09-03" />
		<tag k="ssr:gruppe" v="navigasjon" />
		<tag k="ssr:hovedgruppe" v="infrastruktur" />
		<tag k="ssr:stedsnr" v="243189" />
		<tag k="ssr:type" v="fyrlykt" />
	</node>
	<node id="-50333" lat="58.0778222426" lon="6.83619214666">
		<tag k="name" v="Skotteholmen" />
		<tag k="ssr:date" v="2019-12-27" />
		<tag k="ssr:gruppe" v="veg" />
		<tag k="ssr:hovedgruppe" v="infrastruktur" />
		<tag k="ssr:stedsnr" v="978276" />
		<tag k="ssr:type" v="adressenavn" />
	</node>
	<node id="-50332" lat="58.0729362342" lon="6.81576556847">
		<tag k="name" v="Svenholmen" />
		<tag k="ssr:date" v="2019-12-27" />
		<tag k="ssr:gruppe" v="veg" />
		<tag k="ssr:hovedgruppe" v="infrastruktur" />
		<tag k="ssr:stedsnr" v="978275" />
		<tag k="ssr:type" v="adressenavn" />
	</node>
	<node id="-50331" lat="58.0956354974" lon="6.8076072317">
		<tag k="name" v="Tjuvholmen" />
		<tag k="ssr:date" v="2019-12-27" />
		<tag k="ssr:gruppe" v="veg" />
		<tag k="ssr:hovedgruppe" v="infrastruktur" />
		<tag k="ssr:stedsnr" v="978274" />
		<tag k="ssr:type" v="adressenavn" />
	</node>
	<node id="-48026" lat="58.0595833364" lon="6.67021944617">
		<tag k="alt_name" v="Listerrauna" />
		<tag k="name" v="Rauna lykt" />
		<tag k="old_name" v="Listerauna" />
		<tag k="ssr:date" v="2019-12-27" />
		<tag k="ssr:gruppe" v="navigasjon" />
		<tag k="ssr:hovedgruppe" v="infrastruktur" />
		<tag k="ssr:stedsnr" v="242344" />
		<tag k="ssr:type" v="fyrlykt" />
	</node>
	<node id="-49430" lat="58.0416214782" lon="6.82349642347">
		<tag k="name" v="Færøyflua" />
		<tag k="ssr:date" v="2020-03-10" />
		<tag k="ssr:gruppe" v="navigasjon" />
		<tag k="ssr:hovedgruppe" v="infrastruktur" />
		<tag k="ssr:stedsnr" v="160044" />
		<tag k="ssr:type" v="lysbøye" />
	</node>
	<node id="-48788" lat="58.0753777747" lon="6.85682499895">
		<tag k="name" v="Langøy" />
		<tag k="ssr:date" v="2019-12-27" />
		<tag k="ssr:gruppe" v="navigasjon" />
		<tag k="ssr:hovedgruppe" v="infrastruktur" />
		<tag k="ssr:stedsnr" v="728327" />
		<tag k="ssr:type" v="fyrlykt" />
	</node>
	<node id="-48785" lat="58.0585250251" lon="6.81834281741">
		<tag k="name" v="Sandøya" />
		<tag k="ssr:date" v="2020-09-03" />
		<tag k="ssr:gruppe" v="navigasjon" />
		<tag k="ssr:hovedgruppe" v="infrastruktur" />
		<tag k="ssr:stedsnr" v="728306" />
		<tag k="ssr:type" v="fyrlykt" />
	</node>
	<node id="-48271" lat="58.0568920951" lon="6.84030357346">
		<tag k="name" v="Søndre Katland" />
		<tag k="ssr:date" v="2020-03-05" />
		<tag k="ssr:gruppe" v="navigasjon" />
		<tag k="ssr:hovedgruppe" v="infrastruktur" />
		<tag k="ssr:stedsnr" v="243355" />
		<tag k="ssr:type" v="fyrlykt" />
	</node>
	<node id="-50190" lat="58.0698611148" lon="6.8325361108">
		<tag k="name" v="Skotteflua" />
		<tag k="ssr:date" v="2019-12-27" />
		<tag k="ssr:gruppe" v="navigasjon" />
		<tag k="ssr:hovedgruppe" v="infrastruktur" />
		<tag k="ssr:stedsnr" v="847248" />
		<tag k="ssr:type" v="fyrlykt" />
	</node>
	<node id="-50056" lat="58.0953750033" lon="6.80404167186">
		<tag k="loc_name" v="Farsund" />
		<tag k="name" v="Farsund kommune" />
		<tag k="ssr:date" v="2019-12-27" />
		<tag k="ssr:gruppe" v="administrativeIndelinger" />
		<tag k="ssr:hovedgruppe" v="offentligAdministrasjon" />
		<tag k="ssr:stedsnr" v="752528" />
		<tag k="ssr:type" v="kommune" />
	</node>
	<node id="-49926" lat="58.0807895846" lon="6.83937500581">
		<tag k="name" v="Store Håøy" />
		<tag k="ssr:date" v="2020-09-03" />
		<tag k="ssr:gruppe" v="navigasjon" />
		<tag k="ssr:hovedgruppe" v="infrastruktur" />
		<tag k="ssr:stedsnr" v="606301" />
		<tag k="ssr:type" v="fyrlykt" />
	</node>
	<node id="-49797" lat="58.2023322139" lon="6.69999100859">
		<tag k="alt_name" v="Skarvhelleren;Skarvehellaren" />
		<tag k="name" v="Skarvehelleren" />
		<tag k="ssr:date" v="2020-09-03" />
		<tag k="ssr:gruppe" v="navigasjon" />
		<tag k="ssr:hovedgruppe" v="infrastruktur" />
		<tag k="ssr:stedsnr" v="546181" />
		<tag k="ssr:type" v="fyrlykt" />
	</node>
</osm>
