<?xml version="1.0" encoding="UTF-8"?>
<osm version="0.6" generator="osmapis">
	<node id="276576392" lat="61.7330135" lon="6.5053208" version="6" timestamp="2022-08-20T06:27:23Z" changeset="125134619" uid="3497659" user="NKA">
		<tag k="name" v="Byrkjelo" />
		<tag k="place" v="village" />
		<tag k="population" v="322" />
		<tag k="population:date" v="2021-01-01" />
		<tag k="ref:ssb_tettsted" v="5722" />
		<tag k="source:population" v="SSB - befolkning i tettstedet" />
		<tag k="ssr:stedsnr" v="192130" />
	</node>
	<node id="567941506" lat="61.777068" lon="6.2156466" version="6" timestamp="2022-08-20T06:27:23Z" changeset="125134619" uid="3497659" user="NKA">
		<tag k="name" v="Sandane" />
		<tag k="place" v="village" />
		<tag k="population" v="2484" />
		<tag k="population:date" v="2021-01-01" />
		<tag k="ref:ssb_tettsted" v="5721" />
		<tag k="source:population" v="SSB - befolkning i tettstedet" />
		<tag k="ssr:stedsnr" v="920770" />
	</node>
	<node id="1616987880" lat="61.6449381" lon="5.8146575" version="3" timestamp="2022-08-20T06:27:23Z" changeset="125134619" uid="3497659" user="NKA">
		<tag k="name" v="Eimhjellen" />
		<tag k="place" v="hamlet" />
		<tag k="ssr:stedsnr" v="434686" />
	</node>
	<node id="1617604216" lat="61.7383298" lon="5.9160212" version="7" timestamp="2022-08-20T06:27:23Z" changeset="125134619" uid="3497659" user="NKA">
		<tag k="name" v="Hyen" />
		<tag k="place" v="village" />
		<tag k="population" v="600" />
		<tag k="ssr:stedsnr" v="989660" />
		<tag k="wikidata" v="Q6040413" />
		<tag k="wikipedia" v="no:Hyen" />
	</node>
	<node id="1709764694" lat="61.6319802" lon="5.7172693" version="2" timestamp="2022-08-20T06:27:23Z" changeset="125134619" uid="3497659" user="NKA">
		<tag k="name" v="Solheim" />
		<tag k="place" v="hamlet" />
		<tag k="ssr:stedsnr" v="615697" />
	</node>
	<node id="1934824267" lat="61.809818" lon="6.1511292" version="2" timestamp="2022-08-20T06:27:23Z" changeset="125134619" uid="3497659" user="NKA">
		<tag k="name" v="Vereide" />
		<tag k="place" v="village" />
		<tag k="ssr:stedsnr" v="313712" />
	</node>
	<node id="2700199096" lat="61.6601015" lon="5.9485462" version="5" timestamp="2022-08-20T06:27:23Z" changeset="125134619" uid="3497659" user="NKA">
		<tag k="alt_name" v="Gjengedal" />
		<tag k="name" v="Gjengedalen" />
		<tag k="place" v="hamlet" />
		<tag k="ssr:stedsnr" v="617320" />
	</node>
	<node id="2703934927" lat="61.7783863" lon="6.1256295" version="2" timestamp="2022-08-20T06:27:23Z" changeset="125134619" uid="3497659" user="NKA">
		<tag k="name" v="Rygg" />
		<tag k="place" v="village" />
		<tag k="ssr:stedsnr" v="495783" />
	</node>
	<node id="2704160737" lat="61.6770088" lon="6.0496746" version="2" timestamp="2022-08-20T06:27:23Z" changeset="125134619" uid="3497659" user="NKA">
		<tag k="historic" v="shieling" />
		<tag k="name" v="Gjengedalsstøylen" />
		<tag k="place" v="hamlet" />
		<tag k="ssr:stedsnr" v="495300" />
	</node>
	<node id="3392938869" lat="61.8398874" lon="6.0045553" version="4" timestamp="2022-08-20T06:27:23Z" changeset="125134619" uid="3497659" user="NKA">
		<tag k="name" v="Hestenesøyra" />
		<tag k="place" v="hamlet" />
		<tag k="population" v="120" />
		<tag k="ssr:stedsnr" v="616661" />
	</node>
	<node id="6216715386" lat="61.7378453" lon="6.4095387" version="5" timestamp="2022-08-20T06:27:23Z" changeset="125134619" uid="3497659" user="NKA">
		<tag k="loc_name" v="Reed" />
		<tag k="name" v="Re" />
		<tag k="place" v="village" />
		<tag k="population" v="374" />
		<tag k="population:date" v="2021-01-01" />
		<tag k="ref:ssb_tettsted" v="5723" />
		<tag k="source:population" v="SSB - befolkning i tettstedet" />
		<tag k="ssr:stedsnr" v="71115" />
	</node>
	<node id="9965313232" lat="61.6866192" lon="5.9199026" version="1" timestamp="2022-08-20T06:27:23Z" changeset="125134619" uid="3497659" user="NKA">
		<tag k="name" v="Ommedal" />
		<tag k="place" v="hamlet" />
		<tag k="ssr:stedsnr" v="71347" />
	</node>
	<node id="9965313233" lat="61.7678927" lon="6.1470061" version="1" timestamp="2022-08-20T06:27:23Z" changeset="125134619" uid="3497659" user="NKA">
		<tag k="name" v="Gimmestad" />
		<tag k="place" v="hamlet" />
		<tag k="ssr:stedsnr" v="434733" />
	</node>
	<node id="9965313234" lat="61.6616341" lon="5.9271358" version="1" timestamp="2022-08-20T06:27:23Z" changeset="125134619" uid="3497659" user="NKA">
		<tag k="alt_name" v="Mjellem" />
		<tag k="name" v="Mjelleim" />
		<tag k="place" v="farm" />
		<tag k="ssr:stedsnr" v="71315" />
	</node>
	<node id="9965313235" lat="61.7431803" lon="6.4279783" version="1" timestamp="2022-08-20T06:27:23Z" changeset="125134619" uid="3497659" user="NKA">
		<tag k="name" v="Sårheim" />
		<tag k="place" v="farm" />
		<tag k="ssr:stedsnr" v="738141" />
	</node>
	<node id="9965313236" lat="61.7311275" lon="6.4451441" version="1" timestamp="2022-08-20T06:27:23Z" changeset="125134619" uid="3497659" user="NKA">
		<tag k="name" v="Bø" />
		<tag k="place" v="farm" />
		<tag k="ssr:stedsnr" v="738126" />
	</node>
	<node id="9965313237" lat="61.8208056" lon="5.9427669" version="1" timestamp="2022-08-20T06:27:23Z" changeset="125134619" uid="3497659" user="NKA">
		<tag k="historic" v="shieling" />
		<tag k="name" v="Gardstølen" />
		<tag k="place" v="isolated_dwelling" />
		<tag k="ssr:stedsnr" v="153382" />
	</node>
	<node id="9965313238" lat="61.7837139" lon="6.1840114" version="1" timestamp="2022-08-20T06:27:23Z" changeset="125134619" uid="3497659" user="NKA">
		<tag k="name" v="Døsen" />
		<tag k="place" v="farm" />
		<tag k="ssr:stedsnr" v="252712" />
	</node>
	<node id="9965313239" lat="61.725625" lon="5.8428586" version="1" timestamp="2022-08-20T06:27:23Z" changeset="125134619" uid="3497659" user="NKA">
		<tag k="historic" v="shieling" />
		<tag k="name" v="Kårtstølhaugen" />
		<tag k="place" v="isolated_dwelling" />
		<tag k="ssr:stedsnr" v="882217" />
	</node>
	<node id="9965313240" lat="61.7765464" lon="5.9772755" version="1" timestamp="2022-08-20T06:27:23Z" changeset="125134619" uid="3497659" user="NKA">
		<tag k="name" v="Osmundneset" />
		<tag k="place" v="farm" />
		<tag k="ssr:stedsnr" v="435761" />
	</node>
	<node id="9965313241" lat="61.7302223" lon="5.9191532" version="1" timestamp="2022-08-20T06:27:23Z" changeset="125134619" uid="3497659" user="NKA">
		<tag k="alt_name" v="Aa" />
		<tag k="name" v="Å" />
		<tag k="place" v="hamlet" />
		<tag k="ssr:stedsnr" v="676400" />
	</node>
	<node id="9965313242" lat="61.7890192" lon="6.1933785" version="1" timestamp="2022-08-20T06:27:23Z" changeset="125134619" uid="3497659" user="NKA">
		<tag k="name" v="Gjørane" />
		<tag k="place" v="farm" />
		<tag k="ssr:stedsnr" v="677738" />
	</node>
	<node id="9965313243" lat="61.7585528" lon="6.4990919" version="1" timestamp="2022-08-20T06:27:23Z" changeset="125134619" uid="3497659" user="NKA">
		<tag k="name" v="Furehaugen" />
		<tag k="place" v="isolated_dwelling" />
		<tag k="ssr:stedsnr" v="374179" />
	</node>
	<node id="9965313244" lat="61.7233583" lon="6.5085196" version="1" timestamp="2022-08-20T06:27:23Z" changeset="125134619" uid="3497659" user="NKA">
		<tag k="name" v="Teita" />
		<tag k="place" v="farm" />
		<tag k="ssr:stedsnr" v="435139" />
	</node>
	<node id="9965313245" lat="61.7105639" lon="5.8179863" version="1" timestamp="2022-08-20T06:27:23Z" changeset="125134619" uid="3497659" user="NKA">
		<tag k="historic" v="shieling" />
		<tag k="name" v="Breistøylen" />
		<tag k="place" v="isolated_dwelling" />
		<tag k="ssr:stedsnr" v="445748" />
	</node>
	<node id="9965313246" lat="61.76935" lon="6.2331641" version="1" timestamp="2022-08-20T06:27:23Z" changeset="125134619" uid="3497659" user="NKA">
		<tag k="name" v="Kleivedammen" />
		<tag k="place" v="neighbourhood" />
		<tag k="ssr:stedsnr" v="210611" />
	</node>
	<node id="9965313247" lat="61.7292406" lon="6.4752931" version="1" timestamp="2022-08-20T06:27:23Z" changeset="125134619" uid="3497659" user="NKA">
		<tag k="name" v="Høylo" />
		<tag k="place" v="farm" />
		<tag k="ssr:stedsnr" v="192119" />
	</node>
	<node id="9965313248" lat="61.6792305" lon="6.6284724" version="1" timestamp="2022-08-20T06:27:23Z" changeset="125134619" uid="3497659" user="NKA">
		<tag k="historic" v="shieling" />
		<tag k="name" v="Gamlestølen" />
		<tag k="place" v="isolated_dwelling" />
		<tag k="ssr:stedsnr" v="761937" />
	</node>
	<node id="9965313249" lat="61.6545889" lon="5.964517" version="1" timestamp="2022-08-20T06:27:23Z" changeset="125134619" uid="3497659" user="NKA">
		<tag k="historic" v="shieling" />
		<tag k="name" v="Skitnestøylen" />
		<tag k="place" v="isolated_dwelling" />
		<tag k="ssr:stedsnr" v="191267" />
	</node>
	<node id="9965313250" lat="61.7987045" lon="6.070365" version="1" timestamp="2022-08-20T06:27:23Z" changeset="125134619" uid="3497659" user="NKA">
		<tag k="historic" v="shieling" />
		<tag k="name" v="Sandstøylen" />
		<tag k="place" v="hamlet" />
		<tag k="ssr:stedsnr" v="677718" />
	</node>
	<node id="9965313251" lat="61.7619861" lon="6.3608334" version="1" timestamp="2022-08-20T06:27:23Z" changeset="125134619" uid="3497659" user="NKA">
		<tag k="name" v="Øyane" />
		<tag k="place" v="locality" />
		<tag k="ssr:stedsnr" v="573607" />
	</node>
	<node id="9965313252" lat="61.7621758" lon="6.2385773" version="1" timestamp="2022-08-20T06:27:23Z" changeset="125134619" uid="3497659" user="NKA">
		<tag k="name" v="Eide" />
		<tag k="place" v="hamlet" />
		<tag k="ssr:stedsnr" v="617209" />
	</node>
	<node id="9965313253" lat="61.7809574" lon="6.1141577" version="1" timestamp="2022-08-20T06:27:23Z" changeset="125134619" uid="3497659" user="NKA">
		<tag k="name" v="Sande" />
		<tag k="place" v="farm" />
		<tag k="ssr:stedsnr" v="617755" />
	</node>
	<node id="9965313254" lat="61.8131889" lon="6.1801918" version="1" timestamp="2022-08-20T06:27:23Z" changeset="125134619" uid="3497659" user="NKA">
		<tag k="historic" v="shieling" />
		<tag k="name" v="Tystadstøylen" />
		<tag k="place" v="isolated_dwelling" />
		<tag k="ssr:stedsnr" v="677701" />
	</node>
	<node id="9965313255" lat="61.8030361" lon="6.1539058" version="1" timestamp="2022-08-20T06:27:23Z" changeset="125134619" uid="3497659" user="NKA">
		<tag k="name" v="Rinde" />
		<tag k="place" v="farm" />
		<tag k="ssr:stedsnr" v="556742" />
	</node>
	<node id="9965313256" lat="61.8309111" lon="6.0102558" version="1" timestamp="2022-08-20T06:27:23Z" changeset="125134619" uid="3497659" user="NKA">
		<tag k="historic" v="shieling" />
		<tag k="name" v="Eikenesstøylen" />
		<tag k="place" v="isolated_dwelling" />
		<tag k="ssr:stedsnr" v="677648" />
	</node>
	<node id="9965313257" lat="61.7325417" lon="6.511239" version="1" timestamp="2022-08-20T06:27:23Z" changeset="125134619" uid="3497659" user="NKA">
		<tag k="name" v="Byrkjelo Vest" />
		<tag k="place" v="neighbourhood" />
		<tag k="ssr:stedsnr" v="362741" />
	</node>
	<node id="9965313258" lat="61.7495846" lon="6.1238708" version="1" timestamp="2022-08-20T06:27:23Z" changeset="125134619" uid="3497659" user="NKA">
		<tag k="historic" v="shieling" />
		<tag k="name" v="Gimmestadstøylen" />
		<tag k="place" v="isolated_dwelling" />
		<tag k="ssr:stedsnr" v="614400" />
	</node>
	<node id="9965313259" lat="61.7334968" lon="5.8681896" version="1" timestamp="2022-08-20T06:27:23Z" changeset="125134619" uid="3497659" user="NKA">
		<tag k="name" v="Hope" />
		<tag k="place" v="hamlet" />
		<tag k="ssr:stedsnr" v="190415" />
	</node>
	<node id="9965313260" lat="61.8117533" lon="6.140476" version="1" timestamp="2022-08-20T06:27:23Z" changeset="125134619" uid="3497659" user="NKA">
		<tag k="name" v="Nybøen" />
		<tag k="place" v="farm" />
		<tag k="ssr:stedsnr" v="616707" />
	</node>
	<node id="9965313261" lat="61.7471055" lon="6.292728" version="1" timestamp="2022-08-20T06:27:23Z" changeset="125134619" uid="3497659" user="NKA">
		<tag k="alt_name" v="Kjørvik" />
		<tag k="name" v="Kjørvika" />
		<tag k="place" v="hamlet" />
		<tag k="ssr:stedsnr" v="10145" />
	</node>
	<node id="9965313262" lat="61.6640694" lon="6.0718003" version="1" timestamp="2022-08-20T06:27:23Z" changeset="125134619" uid="3497659" user="NKA">
		<tag k="historic" v="shieling" />
		<tag k="name" v="Dalen" />
		<tag k="place" v="isolated_dwelling" />
		<tag k="ssr:stedsnr" v="615255" />
	</node>
	<node id="9965313263" lat="61.6499445" lon="5.9235643" version="1" timestamp="2022-08-20T06:27:23Z" changeset="125134619" uid="3497659" user="NKA">
		<tag k="historic" v="shieling" />
		<tag k="name" v="Mjelleimsstøylen" />
		<tag k="place" v="isolated_dwelling" />
		<tag k="ssr:stedsnr" v="312303" />
	</node>
	<node id="9965313264" lat="61.7693612" lon="6.1218995" version="1" timestamp="2022-08-20T06:27:23Z" changeset="125134619" uid="3497659" user="NKA">
		<tag k="name" v="Grov" />
		<tag k="place" v="hamlet" />
		<tag k="ssr:stedsnr" v="495791" />
	</node>
	<node id="9965313265" lat="61.6638694" lon="6.5179086" version="1" timestamp="2022-08-20T06:27:23Z" changeset="125134619" uid="3497659" user="NKA">
		<tag k="historic" v="shieling" />
		<tag k="name" v="Bergheimsstøylen" />
		<tag k="place" v="isolated_dwelling" />
		<tag k="ssr:stedsnr" v="931510" />
	</node>
	<node id="9965313266" lat="61.6427973" lon="5.7030532" version="1" timestamp="2022-08-20T06:27:23Z" changeset="125134619" uid="3497659" user="NKA">
		<tag k="historic" v="shieling" />
		<tag k="name" v="Røsta" />
		<tag k="place" v="isolated_dwelling" />
		<tag k="ssr:stedsnr" v="518731" />
	</node>
	<node id="9965313267" lat="61.7874659" lon="6.1847929" version="1" timestamp="2022-08-20T06:27:23Z" changeset="125134619" uid="3497659" user="NKA">
		<tag k="name" v="Indre Hauge" />
		<tag k="place" v="farm" />
		<tag k="ssr:stedsnr" v="506562" />
	</node>
	<node id="9965313268" lat="61.7751952" lon="6.2244577" version="1" timestamp="2022-08-20T06:27:23Z" changeset="125134619" uid="3497659" user="NKA">
		<tag k="name" v="Holvik" />
		<tag k="place" v="farm" />
		<tag k="ssr:stedsnr" v="192184" />
	</node>
	<node id="9965313269" lat="61.6463722" lon="5.7064615" version="1" timestamp="2022-08-20T06:27:23Z" changeset="125134619" uid="3497659" user="NKA">
		<tag k="historic" v="shieling" />
		<tag k="name" v="Haugen" />
		<tag k="place" v="isolated_dwelling" />
		<tag k="ssr:stedsnr" v="130671" />
	</node>
	<node id="9965313270" lat="61.8125639" lon="6.1617529" version="1" timestamp="2022-08-20T06:27:23Z" changeset="125134619" uid="3497659" user="NKA">
		<tag k="name" v="Lidarende" />
		<tag k="place" v="farm" />
		<tag k="ssr:stedsnr" v="495714" />
	</node>
	<node id="9965313271" lat="61.7783444" lon="6.2635808" version="1" timestamp="2022-08-20T06:27:23Z" changeset="125134619" uid="3497659" user="NKA">
		<tag k="historic" v="shieling" />
		<tag k="name" v="Holvikestøylen" />
		<tag k="place" v="isolated_dwelling" />
		<tag k="ssr:stedsnr" v="495181" />
	</node>
	<node id="9965313272" lat="61.732525" lon="6.2928891" version="1" timestamp="2022-08-20T06:27:23Z" changeset="125134619" uid="3497659" user="NKA">
		<tag k="historic" v="shieling" />
		<tag k="name" v="Ryssdalsstøylen" />
		<tag k="place" v="isolated_dwelling" />
		<tag k="ssr:stedsnr" v="253141" />
	</node>
	<node id="9965313273" lat="61.6651861" lon="6.5153586" version="1" timestamp="2022-08-20T06:27:23Z" changeset="125134619" uid="3497659" user="NKA">
		<tag k="historic" v="shieling" />
		<tag k="name" v="Hjellestølen" />
		<tag k="place" v="isolated_dwelling" />
		<tag k="ssr:stedsnr" v="944778" />
	</node>
	<node id="9965313274" lat="61.7848916" lon="6.2548974" version="1" timestamp="2022-08-20T06:27:23Z" changeset="125134619" uid="3497659" user="NKA">
		<tag k="historic" v="shieling" />
		<tag k="name" v="Gloppestadstøylen" />
		<tag k="place" v="isolated_dwelling" />
		<tag k="ssr:stedsnr" v="860199" />
	</node>
	<node id="9965313275" lat="61.8253295" lon="6.1740303" version="1" timestamp="2022-08-20T06:27:23Z" changeset="125134619" uid="3497659" user="NKA">
		<tag k="name" v="Føleide" />
		<tag k="place" v="hamlet" />
		<tag k="ssr:stedsnr" v="313703" />
	</node>
	<node id="9965313276" lat="61.7790968" lon="6.1261981" version="1" timestamp="2022-08-20T06:27:23Z" changeset="125134619" uid="3497659" user="NKA">
		<tag k="name" v="Ryggøyra" />
		<tag k="place" v="locality" />
		<tag k="ssr:stedsnr" v="518101" />
	</node>
	<node id="9965313277" lat="61.6868611" lon="5.9461169" version="1" timestamp="2022-08-20T06:27:23Z" changeset="125134619" uid="3497659" user="NKA">
		<tag k="historic" v="shieling" />
		<tag k="name" v="Gamlesetra" />
		<tag k="place" v="isolated_dwelling" />
		<tag k="ssr:stedsnr" v="214440" />
	</node>
	<node id="9965313278" lat="61.742675" lon="6.227453" version="1" timestamp="2022-08-20T06:27:23Z" changeset="125134619" uid="3497659" user="NKA">
		<tag k="alt_name" v="Vetlestøylen" />
		<tag k="historic" v="shieling" />
		<tag k="name" v="Søreidsvårstøylen" />
		<tag k="place" v="isolated_dwelling" />
		<tag k="ssr:stedsnr" v="313157" />
	</node>
	<node id="9965313279" lat="61.8313833" lon="6.2382225" version="1" timestamp="2022-08-20T06:27:23Z" changeset="125134619" uid="3497659" user="NKA">
		<tag k="historic" v="shieling" />
		<tag k="name" v="Dimma" />
		<tag k="place" v="hamlet" />
		<tag k="ssr:stedsnr" v="434091" />
	</node>
	<node id="9965313280" lat="61.6847143" lon="6.3751848" version="1" timestamp="2022-08-20T06:27:23Z" changeset="125134619" uid="3497659" user="NKA">
		<tag k="name" v="Skarstein" />
		<tag k="place" v="farm" />
		<tag k="ssr:stedsnr" v="253079" />
	</node>
	<node id="9965313281" lat="61.6600028" lon="6.0098308" version="1" timestamp="2022-08-20T06:27:23Z" changeset="125134619" uid="3497659" user="NKA">
		<tag k="historic" v="shieling" />
		<tag k="name" v="Høgstølen" />
		<tag k="place" v="isolated_dwelling" />
		<tag k="ssr:stedsnr" v="821443" />
	</node>
	<node id="9965313282" lat="61.7583265" lon="6.3532087" version="1" timestamp="2022-08-20T06:27:23Z" changeset="125134619" uid="3497659" user="NKA">
		<tag k="name" v="Hunskor" />
		<tag k="place" v="farm" />
		<tag k="ssr:stedsnr" v="495156" />
	</node>
	<node id="9965313283" lat="61.6627297" lon="6.3666055" version="1" timestamp="2022-08-20T06:27:23Z" changeset="125134619" uid="3497659" user="NKA">
		<tag k="name" v="Løvland" />
		<tag k="place" v="farm" />
		<tag k="ssr:stedsnr" v="215262" />
	</node>
	<node id="9965313284" lat="61.6658945" lon="5.857242" version="1" timestamp="2022-08-20T06:27:23Z" changeset="125134619" uid="3497659" user="NKA">
		<tag k="historic" v="shieling" />
		<tag k="name" v="Oppitunsstøylen" />
		<tag k="place" v="isolated_dwelling" />
		<tag k="ssr:stedsnr" v="435378" />
	</node>
	<node id="9965313285" lat="61.6356167" lon="6.3702002" version="1" timestamp="2022-08-20T06:27:23Z" changeset="125134619" uid="3497659" user="NKA">
		<tag k="historic" v="shieling" />
		<tag k="name" v="Myklandsstøylen" />
		<tag k="place" v="isolated_dwelling" />
		<tag k="ssr:stedsnr" v="435059" />
	</node>
	<node id="9965313286" lat="61.6851024" lon="5.9188887" version="1" timestamp="2022-08-20T06:27:23Z" changeset="125134619" uid="3497659" user="NKA">
		<tag k="name" v="Åsen" />
		<tag k="place" v="farm" />
		<tag k="ssr:stedsnr" v="32294" />
	</node>
	<node id="9965313287" lat="61.7859371" lon="6.1965224" version="1" timestamp="2022-08-20T06:27:23Z" changeset="125134619" uid="3497659" user="NKA">
		<tag k="name" v="Austrheim" />
		<tag k="place" v="hamlet" />
		<tag k="ssr:stedsnr" v="131742" />
	</node>
	<node id="9965313288" lat="61.7604945" lon="6.4990862" version="1" timestamp="2022-08-20T06:27:23Z" changeset="125134619" uid="3497659" user="NKA">
		<tag k="name" v="Nuken" />
		<tag k="place" v="neighbourhood" />
		<tag k="ssr:stedsnr" v="525716" />
	</node>
	<node id="9965313289" lat="61.7481854" lon="6.2690437" version="1" timestamp="2022-08-20T06:27:23Z" changeset="125134619" uid="3497659" user="NKA">
		<tag k="name" v="Ryssdal" />
		<tag k="place" v="hamlet" />
		<tag k="ssr:stedsnr" v="860168" />
	</node>
	<node id="9965313290" lat="61.7331666" lon="6.1774419" version="1" timestamp="2022-08-20T06:27:23Z" changeset="125134619" uid="3497659" user="NKA">
		<tag k="historic" v="shieling" />
		<tag k="name" v="Fitjevårstøylen" />
		<tag k="place" v="isolated_dwelling" />
		<tag k="ssr:stedsnr" v="738355" />
	</node>
	<node id="9965313291" lat="61.7687084" lon="6.3519392" version="1" timestamp="2022-08-20T06:27:23Z" changeset="125134619" uid="3497659" user="NKA">
		<tag k="historic" v="shieling" />
		<tag k="name" v="Dalsstøylen" />
		<tag k="place" v="isolated_dwelling" />
		<tag k="ssr:stedsnr" v="10184" />
	</node>
	<node id="9965313292" lat="61.6458869" lon="5.7590529" version="1" timestamp="2022-08-20T06:27:23Z" changeset="125134619" uid="3497659" user="NKA">
		<tag k="name" v="Hjorteset" />
		<tag k="place" v="hamlet" />
		<tag k="ssr:stedsnr" v="554738" />
	</node>
	<node id="9965313293" lat="61.6705337" lon="6.4384748" version="1" timestamp="2022-08-20T06:27:23Z" changeset="125134619" uid="3497659" user="NKA">
		<tag k="name" v="Frøystad" />
		<tag k="place" v="hamlet" />
		<tag k="ssr:stedsnr" v="677061" />
	</node>
	<node id="9965313294" lat="61.7366722" lon="5.9450141" version="1" timestamp="2022-08-20T06:27:23Z" changeset="125134619" uid="3497659" user="NKA">
		<tag k="historic" v="shieling" />
		<tag k="name" v="Holmesstøylen" />
		<tag k="place" v="isolated_dwelling" />
		<tag k="ssr:stedsnr" v="313351" />
	</node>
	<node id="9965313295" lat="61.7892877" lon="6.2157399" version="1" timestamp="2022-08-20T06:27:23Z" changeset="125134619" uid="3497659" user="NKA">
		<tag k="name" v="Berge" />
		<tag k="place" v="farm" />
		<tag k="ssr:stedsnr" v="192767" />
	</node>
	<node id="9965313296" lat="61.7394556" lon="5.9318419" version="1" timestamp="2022-08-20T06:27:23Z" changeset="125134619" uid="3497659" user="NKA">
		<tag k="historic" v="shieling" />
		<tag k="name" v="Synnøvestølen" />
		<tag k="place" v="isolated_dwelling" />
		<tag k="ssr:stedsnr" v="821462" />
	</node>
	<node id="9965313297" lat="61.6792082" lon="5.7924354" version="1" timestamp="2022-08-20T06:27:23Z" changeset="125134619" uid="3497659" user="NKA">
		<tag k="name" v="Skogheim" />
		<tag k="place" v="farm" />
		<tag k="ssr:stedsnr" v="251710" />
	</node>
	<node id="9965313298" lat="61.7180529" lon="6.6114" version="1" timestamp="2022-08-20T06:27:23Z" changeset="125134619" uid="3497659" user="NKA">
		<tag k="name" v="Kappestad" />
		<tag k="place" v="farm" />
		<tag k="ssr:stedsnr" v="9881" />
	</node>
	<node id="9965313299" lat="61.6608805" lon="6.5141473" version="1" timestamp="2022-08-20T06:27:23Z" changeset="125134619" uid="3497659" user="NKA">
		<tag k="historic" v="shieling" />
		<tag k="name" v="Stokkestølen" />
		<tag k="place" v="isolated_dwelling" />
		<tag k="ssr:stedsnr" v="701820" />
	</node>
	<node id="9965313300" lat="61.7579195" lon="6.1630557" version="1" timestamp="2022-08-20T06:27:23Z" changeset="125134619" uid="3497659" user="NKA">
		<tag k="historic" v="shieling" />
		<tag k="name" v="Varstølen" />
		<tag k="place" v="isolated_dwelling" />
		<tag k="ssr:stedsnr" v="276014" />
	</node>
	<node id="9965313301" lat="61.8386917" lon="5.9644337" version="1" timestamp="2022-08-20T06:27:23Z" changeset="125134619" uid="3497659" user="NKA">
		<tag k="historic" v="shieling" />
		<tag k="name" v="Hyenesstøylen" />
		<tag k="place" v="isolated_dwelling" />
		<tag k="ssr:stedsnr" v="373675" />
	</node>
	<node id="9965313302" lat="61.6887553" lon="6.3730771" version="1" timestamp="2022-08-20T06:27:23Z" changeset="125134619" uid="3497659" user="NKA">
		<tag k="name" v="Rabben" />
		<tag k="place" v="farm" />
		<tag k="ssr:stedsnr" v="94175" />
	</node>
	<node id="9965313303" lat="61.7263972" lon="6.3006808" version="1" timestamp="2022-08-20T06:27:23Z" changeset="125134619" uid="3497659" user="NKA">
		<tag k="historic" v="shieling" />
		<tag k="name" v="Systølen" />
		<tag k="place" v="isolated_dwelling" />
		<tag k="ssr:stedsnr" v="94205" />
	</node>
	<node id="9965313304" lat="61.7974028" lon="6.2445946" version="1" timestamp="2022-08-20T06:27:23Z" changeset="125134619" uid="3497659" user="NKA">
		<tag k="historic" v="shieling" />
		<tag k="name" v="Bergsstøylen" />
		<tag k="place" v="isolated_dwelling" />
		<tag k="ssr:stedsnr" v="71073" />
	</node>
	<node id="9965313305" lat="61.6647055" lon="6.5146251" version="1" timestamp="2022-08-20T06:27:23Z" changeset="125134619" uid="3497659" user="NKA">
		<tag k="historic" v="shieling" />
		<tag k="name" v="Hjellestøylen" />
		<tag k="place" v="isolated_dwelling" />
		<tag k="ssr:stedsnr" v="688492" />
	</node>
	<node id="9965313306" lat="61.6953528" lon="6.3296363" version="1" timestamp="2022-08-20T06:27:23Z" changeset="125134619" uid="3497659" user="NKA">
		<tag k="historic" v="shieling" />
		<tag k="name" v="Ytre Kandalsstøylen" />
		<tag k="place" v="isolated_dwelling" />
		<tag k="ssr:stedsnr" v="748507" />
	</node>
	<node id="9965313307" lat="61.6781" lon="6.3755101" version="1" timestamp="2022-08-20T06:27:23Z" changeset="125134619" uid="3497659" user="NKA">
		<tag k="name" v="Skarstein" />
		<tag k="place" v="farm" />
		<tag k="ssr:stedsnr" v="798069" />
	</node>
	<node id="9965313308" lat="61.8051778" lon="5.9298864" version="1" timestamp="2022-08-20T06:27:23Z" changeset="125134619" uid="3497659" user="NKA">
		<tag k="name" v="Vasstøylen" />
		<tag k="place" v="locality" />
		<tag k="ssr:stedsnr" v="131726" />
	</node>
	<node id="9965313309" lat="61.8550182" lon="5.9282526" version="1" timestamp="2022-08-20T06:27:23Z" changeset="125134619" uid="3497659" user="NKA">
		<tag k="name" v="Skeistranda" />
		<tag k="place" v="farm" />
		<tag k="ssr:stedsnr" v="131633" />
	</node>
	<node id="9965313310" lat="61.76307" lon="6.1315426" version="1" timestamp="2022-08-20T06:27:23Z" changeset="125134619" uid="3497659" user="NKA">
		<tag k="name" v="Moane" />
		<tag k="place" v="farm" />
		<tag k="ssr:stedsnr" v="70770" />
	</node>
	<node id="9965313311" lat="61.7449412" lon="6.4389502" version="1" timestamp="2022-08-20T06:27:23Z" changeset="125134619" uid="3497659" user="NKA">
		<tag k="name" v="Solbakken" />
		<tag k="place" v="farm" />
		<tag k="ssr:stedsnr" v="822781" />
	</node>
	<node id="9965313312" lat="61.7466009" lon="6.3751754" version="1" timestamp="2022-08-20T06:27:23Z" changeset="125134619" uid="3497659" user="NKA">
		<tag k="alt_name" v="Sagefloten" />
		<tag k="name" v="Sagerfloten" />
		<tag k="place" v="farm" />
		<tag k="ssr:stedsnr" v="10142" />
	</node>
	<node id="9965313313" lat="61.6479998" lon="5.7002532" version="1" timestamp="2022-08-20T06:27:23Z" changeset="125134619" uid="3497659" user="NKA">
		<tag k="historic" v="shieling" />
		<tag k="name" v="Langelia" />
		<tag k="place" v="isolated_dwelling" />
		<tag k="ssr:stedsnr" v="809747" />
	</node>
	<node id="9965313314" lat="61.8450954" lon="6.0347263" version="1" timestamp="2022-08-20T06:27:23Z" changeset="125134619" uid="3497659" user="NKA">
		<tag k="name" v="Kvitenes" />
		<tag k="place" v="farm" />
		<tag k="ssr:stedsnr" v="978478" />
	</node>
	<node id="9965313315" lat="61.7553278" lon="6.3276364" version="1" timestamp="2022-08-20T06:27:23Z" changeset="125134619" uid="3497659" user="NKA">
		<tag k="name" v="Brendene" />
		<tag k="place" v="isolated_dwelling" />
		<tag k="ssr:stedsnr" v="10137" />
	</node>
	<node id="9965313316" lat="61.7408277" lon="6.5127034" version="1" timestamp="2022-08-20T06:27:23Z" changeset="125134619" uid="3497659" user="NKA">
		<tag k="name" v="Bjørnarheim" />
		<tag k="place" v="hamlet" />
		<tag k="ssr:stedsnr" v="495145" />
	</node>
	<node id="9965313817" lat="61.713279" lon="6.6178595" version="1" timestamp="2022-08-20T06:27:23Z" changeset="125134619" uid="3497659" user="NKA">
		<tag k="name" v="Myklebust" />
		<tag k="place" v="hamlet" />
		<tag k="ssr:stedsnr" v="555881" />
	</node>
	<node id="9965313818" lat="61.7655777" lon="6.3797529" version="1" timestamp="2022-08-20T06:27:23Z" changeset="125134619" uid="3497659" user="NKA">
		<tag k="historic" v="shieling" />
		<tag k="name" v="Kålsstøylen" />
		<tag k="place" v="isolated_dwelling" />
		<tag k="ssr:stedsnr" v="10140" />
	</node>
	<node id="9965313819" lat="61.7518528" lon="6.5200085" version="1" timestamp="2022-08-20T06:27:23Z" changeset="125134619" uid="3497659" user="NKA">
		<tag k="historic" v="shieling" />
		<tag k="name" v="Gamle Støyvastølen" />
		<tag k="place" v="isolated_dwelling" />
		<tag k="ssr:stedsnr" v="397819" />
	</node>
	<node id="9965313820" lat="61.7144306" lon="6.3591113" version="1" timestamp="2022-08-20T06:27:23Z" changeset="125134619" uid="3497659" user="NKA">
		<tag k="alt_name" v="Restølen" />
		<tag k="historic" v="shieling" />
		<tag k="name" v="Restøylen" />
		<tag k="place" v="isolated_dwelling" />
		<tag k="ssr:stedsnr" v="10102" />
	</node>
	<node id="9965313821" lat="61.7499694" lon="5.9468003" version="1" timestamp="2022-08-20T06:27:23Z" changeset="125134619" uid="3497659" user="NKA">
		<tag k="name" v="Gjerdvika" />
		<tag k="place" v="locality" />
		<tag k="ssr:stedsnr" v="252754" />
	</node>
	<node id="9965313822" lat="61.8543373" lon="5.8739708" version="1" timestamp="2022-08-20T06:27:23Z" changeset="125134619" uid="3497659" user="NKA">
		<tag k="name" v="Årevika" />
		<tag k="place" v="farm" />
		<tag k="ssr:stedsnr" v="435661" />
	</node>
	<node id="9965313823" lat="61.6450555" lon="5.7032976" version="1" timestamp="2022-08-20T06:27:23Z" changeset="125134619" uid="3497659" user="NKA">
		<tag k="historic" v="shieling" />
		<tag k="name" v="Rusta" />
		<tag k="place" v="isolated_dwelling" />
		<tag k="ssr:stedsnr" v="931680" />
	</node>
	<node id="9965313824" lat="61.6325194" lon="5.8053643" version="1" timestamp="2022-08-20T06:27:23Z" changeset="125134619" uid="3497659" user="NKA">
		<tag k="historic" v="shieling" />
		<tag k="name" v="Utigardsstøylen" />
		<tag k="place" v="isolated_dwelling" />
		<tag k="ssr:stedsnr" v="930750" />
	</node>
	<node id="9965313825" lat="61.8292134" lon="6.0506565" version="1" timestamp="2022-08-20T06:27:23Z" changeset="125134619" uid="3497659" user="NKA">
		<tag k="name" v="Devik" />
		<tag k="place" v="hamlet" />
		<tag k="ssr:stedsnr" v="677665" />
	</node>
	<node id="9965313826" lat="61.8335333" lon="6.1040475" version="1" timestamp="2022-08-20T06:27:23Z" changeset="125134619" uid="3497659" user="NKA">
		<tag k="name" v="Skogstad" />
		<tag k="place" v="farm" />
		<tag k="ssr:stedsnr" v="131699" />
	</node>
	<node id="9965313827" lat="61.6595249" lon="5.9923947" version="1" timestamp="2022-08-20T06:27:23Z" changeset="125134619" uid="3497659" user="NKA">
		<tag k="name" v="Dalheim" />
		<tag k="place" v="farm" />
		<tag k="ssr:stedsnr" v="738296" />
	</node>
	<node id="9965313828" lat="61.8238139" lon="5.9466614" version="1" timestamp="2022-08-20T06:27:23Z" changeset="125134619" uid="3497659" user="NKA">
		<tag k="historic" v="shieling" />
		<tag k="name" v="Skjerdalsstøylen" />
		<tag k="place" v="isolated_dwelling" />
		<tag k="ssr:stedsnr" v="859653" />
	</node>
	<node id="9965313829" lat="61.8320047" lon="6.1796342" version="1" timestamp="2022-08-20T06:27:23Z" changeset="125134619" uid="3497659" user="NKA">
		<tag k="name" v="Rye" />
		<tag k="place" v="hamlet" />
		<tag k="ssr:stedsnr" v="10709" />
	</node>
	<node id="9965313830" lat="61.7784" lon="5.9864808" version="1" timestamp="2022-08-20T06:27:23Z" changeset="125134619" uid="3497659" user="NKA">
		<tag k="historic" v="shieling" />
		<tag k="name" v="Setra" />
		<tag k="place" v="isolated_dwelling" />
		<tag k="ssr:stedsnr" v="396459" />
	</node>
	<node id="9965313831" lat="61.7473391" lon="5.9439586" version="1" timestamp="2022-08-20T06:27:23Z" changeset="125134619" uid="3497659" user="NKA">
		<tag k="name" v="Holme" />
		<tag k="place" v="hamlet" />
		<tag k="ssr:stedsnr" v="493387" />
	</node>
	<node id="9965313832" lat="61.8160306" lon="6.1598225" version="1" timestamp="2022-08-20T06:27:23Z" changeset="125134619" uid="3497659" user="NKA">
		<tag k="name" v="Dalheim" />
		<tag k="place" v="farm" />
		<tag k="ssr:stedsnr" v="192731" />
	</node>
	<node id="9965313833" lat="61.8361981" lon="5.9992485" version="1" timestamp="2022-08-20T06:27:23Z" changeset="125134619" uid="3497659" user="NKA">
		<tag k="name" v="Eikenes" />
		<tag k="place" v="hamlet" />
		<tag k="ssr:stedsnr" v="875631" />
	</node>
	<node id="9965313834" lat="61.7595194" lon="6.1006946" version="1" timestamp="2022-08-20T06:27:23Z" changeset="125134619" uid="3497659" user="NKA">
		<tag k="alt_name" v="Ryggjastøylen" />
		<tag k="historic" v="shieling" />
		<tag k="name" v="Traudalsstøylen" />
		<tag k="place" v="hamlet" />
		<tag k="ssr:stedsnr" v="495790" />
	</node>
	<node id="9965313835" lat="61.7914618" lon="6.1713896" version="1" timestamp="2022-08-20T06:27:23Z" changeset="125134619" uid="3497659" user="NKA">
		<tag k="name" v="Gloppestad" />
		<tag k="place" v="farm" />
		<tag k="ssr:stedsnr" v="556734" />
	</node>
	<node id="9965313836" lat="61.7714611" lon="6.0885891" version="1" timestamp="2022-08-20T06:27:23Z" changeset="125134619" uid="3497659" user="NKA">
		<tag k="historic" v="shieling" />
		<tag k="name" v="Ramnestadstøylen" />
		<tag k="place" v="isolated_dwelling" />
		<tag k="ssr:stedsnr" v="555750" />
	</node>
	<node id="9965313837" lat="61.8567306" lon="5.8885002" version="1" timestamp="2022-08-20T06:27:23Z" changeset="125134619" uid="3497659" user="NKA">
		<tag k="name" v="Hammaren" />
		<tag k="place" v="farm" />
		<tag k="ssr:stedsnr" v="495631" />
	</node>
	<node id="9965313838" lat="61.8059775" lon="6.1675431" version="1" timestamp="2022-08-20T06:27:23Z" changeset="125134619" uid="3497659" user="NKA">
		<tag k="name" v="Skor" />
		<tag k="place" v="farm" />
		<tag k="ssr:stedsnr" v="374705" />
	</node>
	<node id="9965313839" lat="61.7634667" lon="6.2213392" version="1" timestamp="2022-08-20T06:27:23Z" changeset="125134619" uid="3497659" user="NKA">
		<tag k="name" v="Djupegota" />
		<tag k="place" v="farm" />
		<tag k="ssr:stedsnr" v="192195" />
	</node>
	<node id="9965313840" lat="61.6503083" lon="6.021553" version="1" timestamp="2022-08-20T06:27:23Z" changeset="125134619" uid="3497659" user="NKA">
		<tag k="historic" v="shieling" />
		<tag k="name" v="Åstøylen" />
		<tag k="place" v="isolated_dwelling" />
		<tag k="ssr:stedsnr" v="434256" />
	</node>
	<node id="9965313841" lat="61.8421218" lon="6.0158949" version="1" timestamp="2022-08-20T06:27:23Z" changeset="125134619" uid="3497659" user="NKA">
		<tag k="name" v="Hestenes" />
		<tag k="place" v="hamlet" />
		<tag k="ssr:stedsnr" v="131679" />
	</node>
	<node id="9965313842" lat="61.8554149" lon="5.8659953" version="1" timestamp="2022-08-20T06:27:23Z" changeset="125134619" uid="3497659" user="NKA">
		<tag k="name" v="Mettenes" />
		<tag k="place" v="farm" />
		<tag k="ssr:stedsnr" v="88290" />
	</node>
	<node id="9965313843" lat="61.7675922" lon="6.2000955" version="1" timestamp="2022-08-20T06:27:23Z" changeset="125134619" uid="3497659" user="NKA">
		<tag k="name" v="Elvebakken" />
		<tag k="place" v="farm" />
		<tag k="ssr:stedsnr" v="978452" />
	</node>
	<node id="9965313844" lat="61.6624902" lon="5.9379564" version="1" timestamp="2022-08-20T06:27:23Z" changeset="125134619" uid="3497659" user="NKA">
		<tag k="name" v="Bakketun" />
		<tag k="place" v="farm" />
		<tag k="ssr:stedsnr" v="32266" />
	</node>
	<node id="9965313845" lat="61.823433" lon="6.1125805" version="1" timestamp="2022-08-20T06:27:23Z" changeset="125134619" uid="3497659" user="NKA">
		<tag k="name" v="Andenes" />
		<tag k="place" v="farm" />
		<tag k="ssr:stedsnr" v="71720" />
	</node>
	<node id="9965313846" lat="61.8129863" lon="6.1534805" version="1" timestamp="2022-08-20T06:27:23Z" changeset="125134619" uid="3497659" user="NKA">
		<tag k="name" v="Fredheim" />
		<tag k="place" v="farm" />
		<tag k="ssr:stedsnr" v="943048" />
	</node>
	<node id="9965313847" lat="61.8001605" lon="6.1784858" version="1" timestamp="2022-08-20T06:27:23Z" changeset="125134619" uid="3497659" user="NKA">
		<tag k="name" v="Alme" />
		<tag k="place" v="farm" />
		<tag k="ssr:stedsnr" v="920727" />
	</node>
	<node id="9965313848" lat="61.7936583" lon="6.1943779" version="1" timestamp="2022-08-20T06:27:23Z" changeset="125134619" uid="3497659" user="NKA">
		<tag k="name" v="Lundestad" />
		<tag k="place" v="farm" />
		<tag k="ssr:stedsnr" v="71765" />
	</node>
	<node id="9965313849" lat="61.6207917" lon="5.7052115" version="1" timestamp="2022-08-20T06:27:23Z" changeset="125134619" uid="3497659" user="NKA">
		<tag k="name" v="Solvang" />
		<tag k="place" v="farm" />
		<tag k="ssr:stedsnr" v="676728" />
	</node>
	<node id="9965313850" lat="61.75715" lon="6.085128" version="1" timestamp="2022-08-20T06:27:23Z" changeset="125134619" uid="3497659" user="NKA">
		<tag k="name" v="Osen" />
		<tag k="place" v="isolated_dwelling" />
		<tag k="ssr:stedsnr" v="859730" />
	</node>
	<node id="9965313851" lat="61.8158328" lon="6.1263963" version="1" timestamp="2022-08-20T06:27:23Z" changeset="125134619" uid="3497659" user="NKA">
		<tag k="name" v="Apalset" />
		<tag k="place" v="hamlet" />
		<tag k="ssr:stedsnr" v="920696" />
	</node>
	<node id="9965313852" lat="61.7964039" lon="6.1610344" version="1" timestamp="2022-08-20T06:27:23Z" changeset="125134619" uid="3497659" user="NKA">
		<tag k="name" v="Slagstad" />
		<tag k="place" v="hamlet" />
		<tag k="ssr:stedsnr" v="799749" />
	</node>
	<node id="9965313853" lat="61.8338984" lon="5.9799625" version="1" timestamp="2022-08-20T06:27:23Z" changeset="125134619" uid="3497659" user="NKA">
		<tag k="name" v="Skjerdalen" />
		<tag k="place" v="hamlet" />
		<tag k="ssr:stedsnr" v="10678" />
	</node>
	<node id="9965313854" lat="61.7446052" lon="6.4032013" version="1" timestamp="2022-08-20T06:27:23Z" changeset="125134619" uid="3497659" user="NKA">
		<tag k="name" v="Kvile" />
		<tag k="place" v="hamlet" />
		<tag k="ssr:stedsnr" v="556162" />
	</node>
	<node id="9965313855" lat="61.7395333" lon="6.2262586" version="1" timestamp="2022-08-20T06:27:23Z" changeset="125134619" uid="3497659" user="NKA">
		<tag k="historic" v="shieling" />
		<tag k="name" v="Mardalsvårstøylen" />
		<tag k="place" v="isolated_dwelling" />
		<tag k="ssr:stedsnr" v="313155" />
	</node>
	<node id="9965313856" lat="61.6911364" lon="6.5192437" version="1" timestamp="2022-08-20T06:27:23Z" changeset="125134619" uid="3497659" user="NKA">
		<tag k="name" v="Sureplefjøsane" />
		<tag k="place" v="farm" />
		<tag k="ssr:stedsnr" v="336741" />
	</node>
	<node id="9965313857" lat="61.8260389" lon="6.1002307" version="1" timestamp="2022-08-20T06:27:23Z" changeset="125134619" uid="3497659" user="NKA">
		<tag k="name" v="Sandvik" />
		<tag k="place" v="farm" />
		<tag k="ssr:stedsnr" v="859646" />
	</node>
	<node id="9965313858" lat="61.761375" lon="6.5413585" version="1" timestamp="2022-08-20T06:27:23Z" changeset="125134619" uid="3497659" user="NKA">
		<tag k="historic" v="shieling" />
		<tag k="name" v="Støyvastøylen" />
		<tag k="place" v="isolated_dwelling" />
		<tag k="ssr:stedsnr" v="313175" />
	</node>
	<node id="9965313859" lat="61.7455499" lon="6.3918751" version="1" timestamp="2022-08-20T06:27:23Z" changeset="125134619" uid="3497659" user="NKA">
		<tag k="name" v="Solheim" />
		<tag k="place" v="farm" />
		<tag k="ssr:stedsnr" v="253164" />
	</node>
	<node id="9965313860" lat="61.7623138" lon="6.4337695" version="1" timestamp="2022-08-20T06:27:23Z" changeset="125134619" uid="3497659" user="NKA">
		<tag k="historic" v="shieling" />
		<tag k="name" v="Sårheimsstøylen" />
		<tag k="place" v="isolated_dwelling" />
		<tag k="ssr:stedsnr" v="677146" />
	</node>
	<node id="9965313861" lat="61.7128805" lon="5.8033892" version="1" timestamp="2022-08-20T06:27:23Z" changeset="125134619" uid="3497659" user="NKA">
		<tag k="historic" v="shieling" />
		<tag k="name" v="Heistølen" />
		<tag k="place" v="isolated_dwelling" />
		<tag k="ssr:stedsnr" v="396644" />
	</node>
	<node id="9965313862" lat="61.6443528" lon="5.7268977" version="1" timestamp="2022-08-20T06:27:23Z" changeset="125134619" uid="3497659" user="NKA">
		<tag k="alt_name" v="Ytstestølen;Ytste Hjortesetstøylen;Hjortesetstøylen, yt" />
		<tag k="historic" v="shieling" />
		<tag k="name" v="Vårstøylen" />
		<tag k="place" v="isolated_dwelling" />
		<tag k="ssr:stedsnr" v="445751" />
	</node>
	<node id="9965313863" lat="61.7389045" lon="6.3997815" version="1" timestamp="2022-08-20T06:27:23Z" changeset="125134619" uid="3497659" user="NKA">
		<tag k="name" v="Hetle" />
		<tag k="place" v="hamlet" />
		<tag k="ssr:stedsnr" v="253162" />
	</node>
	<node id="9965313864" lat="61.7358094" lon="6.4308346" version="1" timestamp="2022-08-20T06:27:23Z" changeset="125134619" uid="3497659" user="NKA">
		<tag k="name" v="Joranger" />
		<tag k="place" v="farm" />
		<tag k="ssr:stedsnr" v="131115" />
	</node>
	<node id="9965313865" lat="61.6868028" lon="6.6275585" version="1" timestamp="2022-08-20T06:27:23Z" changeset="125134619" uid="3497659" user="NKA">
		<tag k="name" v="Stølsgarden" />
		<tag k="place" v="farm" />
		<tag k="ssr:stedsnr" v="94875" />
	</node>
	<node id="9965313866" lat="61.8087672" lon="6.1505829" version="1" timestamp="2022-08-20T06:27:23Z" changeset="125134619" uid="3497659" user="NKA">
		<tag k="name" v="Prestegarden" />
		<tag k="place" v="farm" />
		<tag k="ssr:stedsnr" v="10721" />
	</node>
	<node id="9965313867" lat="61.6843778" lon="6.1938892" version="1" timestamp="2022-08-20T06:27:23Z" changeset="125134619" uid="3497659" user="NKA">
		<tag k="name" v="Bjørnasteinen" />
		<tag k="place" v="isolated_dwelling" />
		<tag k="ssr:stedsnr" v="678352" />
	</node>
	<node id="9965313868" lat="61.6898023" lon="5.8258286" version="1" timestamp="2022-08-20T06:27:23Z" changeset="125134619" uid="3497659" user="NKA">
		<tag k="name" v="Røyrvika" />
		<tag k="place" v="hamlet" />
		<tag k="ssr:stedsnr" v="372692" />
	</node>
	<node id="9965313869" lat="61.735375" lon="6.5425751" version="1" timestamp="2022-08-20T06:27:23Z" changeset="125134619" uid="3497659" user="NKA">
		<tag k="historic" v="shieling" />
		<tag k="name" v="Byrkjelostøylen" />
		<tag k="place" v="isolated_dwelling" />
		<tag k="ssr:stedsnr" v="920115" />
	</node>
	<node id="9965313870" lat="61.7440463" lon="6.4613686" version="1" timestamp="2022-08-20T06:27:23Z" changeset="125134619" uid="3497659" user="NKA">
		<tag k="name" v="Øvreset" />
		<tag k="place" v="hamlet" />
		<tag k="ssr:stedsnr" v="374131" />
	</node>
	<node id="9965313871" lat="61.7692805" lon="6.2090585" version="1" timestamp="2022-08-20T06:27:23Z" changeset="125134619" uid="3497659" user="NKA">
		<tag k="name" v="Åsen" />
		<tag k="place" v="neighbourhood" />
		<tag k="ssr:stedsnr" v="666713" />
	</node>
	<node id="9965313872" lat="61.7442434" lon="6.4164671" version="1" timestamp="2022-08-20T06:27:23Z" changeset="125134619" uid="3497659" user="NKA">
		<tag k="name" v="Steinsåker" />
		<tag k="place" v="farm" />
		<tag k="ssr:stedsnr" v="799149" />
	</node>
	<node id="9965313873" lat="61.7615416" lon="6.1327363" version="1" timestamp="2022-08-20T06:27:23Z" changeset="125134619" uid="3497659" user="NKA">
		<tag k="name" v="Bruna" />
		<tag k="place" v="locality" />
		<tag k="ssr:stedsnr" v="677789" />
	</node>
	<node id="9965313874" lat="61.8073333" lon="6.1878114" version="1" timestamp="2022-08-20T06:27:23Z" changeset="125134619" uid="3497659" user="NKA">
		<tag k="historic" v="shieling" />
		<tag k="name" v="Almsstøylen" />
		<tag k="place" v="isolated_dwelling" />
		<tag k="ssr:stedsnr" v="677721" />
	</node>
	<node id="9965313875" lat="61.7335613" lon="6.4222349" version="1" timestamp="2022-08-20T06:27:23Z" changeset="125134619" uid="3497659" user="NKA">
		<tag k="name" v="Råd" />
		<tag k="place" v="hamlet" />
		<tag k="ssr:stedsnr" v="131114" />
	</node>
	<node id="9965313876" lat="61.8079417" lon="6.1542457" version="1" timestamp="2022-08-20T06:27:23Z" changeset="125134619" uid="3497659" user="NKA">
		<tag k="name" v="Vollstad" />
		<tag k="place" v="farm" />
		<tag k="ssr:stedsnr" v="616710" />
	</node>
	<node id="9965313877" lat="61.8228055" lon="6.1674558" version="1" timestamp="2022-08-20T06:27:23Z" changeset="125134619" uid="3497659" user="NKA">
		<tag k="name" v="Dalane" />
		<tag k="place" v="farm" />
		<tag k="ssr:stedsnr" v="738705" />
	</node>
	<node id="9965313878" lat="61.7089347" lon="6.5210587" version="1" timestamp="2022-08-20T06:27:23Z" changeset="125134619" uid="3497659" user="NKA">
		<tag k="name" v="Hjelle" />
		<tag k="place" v="hamlet" />
		<tag k="ssr:stedsnr" v="131090" />
	</node>
	<node id="9965313879" lat="61.8152972" lon="6.126753" version="1" timestamp="2022-08-20T06:27:23Z" changeset="125134619" uid="3497659" user="NKA">
		<tag k="name" v="Teigen" />
		<tag k="place" v="farm" />
		<tag k="ssr:stedsnr" v="616690" />
	</node>
	<node id="9965313880" lat="61.7538388" lon="6.2773162" version="1" timestamp="2022-08-20T06:27:23Z" changeset="125134619" uid="3497659" user="NKA">
		<tag k="name" v="Vassenden" />
		<tag k="place" v="hamlet" />
		<tag k="ssr:stedsnr" v="617157" />
	</node>
	<node id="9965313881" lat="61.8068" lon="6.1568946" version="1" timestamp="2022-08-20T06:27:23Z" changeset="125134619" uid="3497659" user="NKA">
		<tag k="name" v="Lund" />
		<tag k="place" v="farm" />
		<tag k="ssr:stedsnr" v="860734" />
	</node>
	<node id="9965313882" lat="61.8238445" lon="6.0331892" version="1" timestamp="2022-08-20T06:27:23Z" changeset="125134619" uid="3497659" user="NKA">
		<tag k="historic" v="shieling" />
		<tag k="name" v="Hestenesstøylen" />
		<tag k="place" v="isolated_dwelling" />
		<tag k="ssr:stedsnr" v="252641" />
	</node>
	<node id="9965313883" lat="61.8000139" lon="6.1567828" version="1" timestamp="2022-08-20T06:27:23Z" changeset="125134619" uid="3497659" user="NKA">
		<tag k="name" v="Tystad" />
		<tag k="place" v="farm" />
		<tag k="ssr:stedsnr" v="617747" />
	</node>
	<node id="9965313884" lat="61.7474016" lon="6.4820205" version="1" timestamp="2022-08-20T06:27:23Z" changeset="125134619" uid="3497659" user="NKA">
		<tag k="name" v="Fella" />
		<tag k="place" v="farm" />
		<tag k="ssr:stedsnr" v="71134" />
	</node>
	<node id="9965313885" lat="61.7310802" lon="6.4683093" version="1" timestamp="2022-08-20T06:27:23Z" changeset="125134619" uid="3497659" user="NKA">
		<tag k="name" v="Lunde" />
		<tag k="place" v="farm" />
		<tag k="ssr:stedsnr" v="71125" />
	</node>
	<node id="9965313886" lat="61.6500611" lon="5.7646975" version="1" timestamp="2022-08-20T06:27:23Z" changeset="125134619" uid="3497659" user="NKA">
		<tag k="historic" v="shieling" />
		<tag k="name" v="Høgestølen" />
		<tag k="place" v="isolated_dwelling" />
		<tag k="ssr:stedsnr" v="214755" />
	</node>
	<node id="9965313887" lat="61.7595139" lon="6.2422224" version="1" timestamp="2022-08-20T06:27:23Z" changeset="125134619" uid="3497659" user="NKA">
		<tag k="name" v="Leirbakken" />
		<tag k="place" v="farm" />
		<tag k="ssr:stedsnr" v="253154" />
	</node>
	<node id="9965313888" lat="61.8279547" lon="6.1037758" version="1" timestamp="2022-08-20T06:27:23Z" changeset="125134619" uid="3497659" user="NKA">
		<tag k="name" v="Hjelmeset" />
		<tag k="place" v="hamlet" />
		<tag k="ssr:stedsnr" v="555643" />
	</node>
	<node id="9965313890" lat="61.8304131" lon="6.1203494" version="1" timestamp="2022-08-20T06:27:23Z" changeset="125134619" uid="3497659" user="NKA">
		<tag k="alt_name" v="Finnvik" />
		<tag k="name" v="Finnvika" />
		<tag k="place" v="farm" />
		<tag k="ssr:stedsnr" v="555641" />
	</node>
	<node id="9965313891" lat="61.735772" lon="6.4504074" version="1" timestamp="2022-08-20T06:27:23Z" changeset="125134619" uid="3497659" user="NKA">
		<tag k="name" v="Flølo" />
		<tag k="place" v="farm" />
		<tag k="ssr:stedsnr" v="616108" />
	</node>
	<node id="9965313892" lat="61.7197625" lon="6.5225681" version="1" timestamp="2022-08-20T06:27:23Z" changeset="125134619" uid="3497659" user="NKA">
		<tag k="name" v="Bergheim" />
		<tag k="place" v="hamlet" />
		<tag k="ssr:stedsnr" v="556113" />
	</node>
	<node id="9965313893" lat="61.6777646" lon="5.8089564" version="1" timestamp="2022-08-20T06:27:23Z" changeset="125134619" uid="3497659" user="NKA">
		<tag k="name" v="Heimseta" />
		<tag k="place" v="hamlet" />
		<tag k="ssr:stedsnr" v="372703" />
	</node>
	<node id="9965313894" lat="61.7549286" lon="6.3663049" version="1" timestamp="2022-08-20T06:27:23Z" changeset="125134619" uid="3497659" user="NKA">
		<tag k="name" v="Dale" />
		<tag k="place" v="farm" />
		<tag k="ssr:stedsnr" v="616141" />
	</node>
	<node id="9965313895" lat="61.8286972" lon="6.1987391" version="1" timestamp="2022-08-20T06:27:23Z" changeset="125134619" uid="3497659" user="NKA">
		<tag k="historic" v="shieling" />
		<tag k="name" v="Ryestøylen" />
		<tag k="place" v="isolated_dwelling" />
		<tag k="ssr:stedsnr" v="920700" />
	</node>
	<node id="9965313896" lat="61.76595" lon="6.4264723" version="1" timestamp="2022-08-20T06:27:23Z" changeset="125134619" uid="3497659" user="NKA">
		<tag k="historic" v="shieling" />
		<tag k="name" v="Steinsåkerstøylen" />
		<tag k="place" v="isolated_dwelling" />
		<tag k="ssr:stedsnr" v="860159" />
	</node>
	<node id="9965313897" lat="61.6965483" lon="6.3730772" version="1" timestamp="2022-08-20T06:27:23Z" changeset="125134619" uid="3497659" user="NKA">
		<tag k="name" v="Nes" />
		<tag k="place" v="farm" />
		<tag k="ssr:stedsnr" v="435115" />
	</node>
	<node id="9965313898" lat="61.7737264" lon="6.2859102" version="1" timestamp="2022-08-20T06:27:23Z" changeset="125134619" uid="3497659" user="NKA">
		<tag k="historic" v="shieling" />
		<tag k="name" v="Eidsstøylen" />
		<tag k="place" v="isolated_dwelling" />
		<tag k="ssr:stedsnr" v="374187" />
	</node>
	<node id="9965313899" lat="61.7640248" lon="6.1846698" version="1" timestamp="2022-08-20T06:27:23Z" changeset="125134619" uid="3497659" user="NKA">
		<tag k="name" v="Fitje" />
		<tag k="place" v="hamlet" />
		<tag k="ssr:stedsnr" v="512696" />
	</node>
	<node id="9965313900" lat="61.8328722" lon="6.186803" version="1" timestamp="2022-08-20T06:27:23Z" changeset="125134619" uid="3497659" user="NKA">
		<tag k="name" v="Indrebø" />
		<tag k="place" v="farm" />
		<tag k="ssr:stedsnr" v="252665" />
	</node>
	<node id="9965313901" lat="61.8047389" lon="6.1987918" version="1" timestamp="2022-08-20T06:27:23Z" changeset="125134619" uid="3497659" user="NKA">
		<tag k="historic" v="shieling" />
		<tag k="name" v="Vambesetstøylen" />
		<tag k="place" v="isolated_dwelling" />
		<tag k="ssr:stedsnr" v="495722" />
	</node>
	<node id="9965313902" lat="61.726817" lon="6.4892141" version="1" timestamp="2022-08-20T06:27:23Z" changeset="125134619" uid="3497659" user="NKA">
		<tag k="name" v="Stokke" />
		<tag k="place" v="hamlet" />
		<tag k="ssr:stedsnr" v="860124" />
	</node>
	<node id="9965313903" lat="61.639" lon="5.7117559" version="1" timestamp="2022-08-20T06:27:23Z" changeset="125134619" uid="3497659" user="NKA">
		<tag k="historic" v="shieling" />
		<tag k="name" v="Solheimsstøylen" />
		<tag k="place" v="isolated_dwelling" />
		<tag k="ssr:stedsnr" v="858750" />
	</node>
	<node id="9965313904" lat="61.7633614" lon="6.1791142" version="1" timestamp="2022-08-20T06:27:23Z" changeset="125134619" uid="3497659" user="NKA">
		<tag k="name" v="Ytre Fitje" />
		<tag k="place" v="farm" />
		<tag k="ssr:stedsnr" v="313801" />
	</node>
	<node id="9965313905" lat="61.7590277" lon="6.258378" version="1" timestamp="2022-08-20T06:27:23Z" changeset="125134619" uid="3497659" user="NKA">
		<tag k="alt_name" v="Jarbrugden" />
		<tag k="name" v="Jarbu" />
		<tag k="place" v="farm" />
		<tag k="ssr:stedsnr" v="253148" />
	</node>
	<node id="9965313906" lat="61.6833083" lon="6.6275197" version="1" timestamp="2022-08-20T06:27:23Z" changeset="125134619" uid="3497659" user="NKA">
		<tag k="historic" v="shieling" />
		<tag k="name" v="Myklebuststøylen" />
		<tag k="place" v="isolated_dwelling" />
		<tag k="ssr:stedsnr" v="191888" />
	</node>
	<node id="9965313907" lat="61.8002667" lon="6.2359307" version="1" timestamp="2022-08-20T06:27:23Z" changeset="125134619" uid="3497659" user="NKA">
		<tag k="historic" v="shieling" />
		<tag k="name" v="Fjølestadstøylen" />
		<tag k="place" v="isolated_dwelling" />
		<tag k="ssr:stedsnr" v="495098" />
	</node>
	<node id="9965313908" lat="61.7851822" lon="6.2050578" version="1" timestamp="2022-08-20T06:27:23Z" changeset="125134619" uid="3497659" user="NKA">
		<tag k="name" v="Leirbrekka" />
		<tag k="place" v="neighbourhood" />
		<tag k="ssr:stedsnr" v="362759" />
	</node>
	<node id="9965313909" lat="61.7691868" lon="6.1625031" version="1" timestamp="2022-08-20T06:27:23Z" changeset="125134619" uid="3497659" user="NKA">
		<tag k="name" v="Indre Arnestad" />
		<tag k="place" v="farm" />
		<tag k="ssr:stedsnr" v="373767" />
	</node>
	<node id="9965313910" lat="61.8001767" lon="6.170202" version="1" timestamp="2022-08-20T06:27:23Z" changeset="125134619" uid="3497659" user="NKA">
		<tag k="name" v="Aske" />
		<tag k="place" v="hamlet" />
		<tag k="ssr:stedsnr" v="131738" />
	</node>
	<node id="9965313911" lat="61.6630166" lon="6.3697946" version="1" timestamp="2022-08-20T06:27:23Z" changeset="125134619" uid="3497659" user="NKA">
		<tag k="name" v="Nygård" />
		<tag k="place" v="farm" />
		<tag k="ssr:stedsnr" v="761158" />
	</node>
	<node id="9965313912" lat="61.6728645" lon="6.379207" version="1" timestamp="2022-08-20T06:27:23Z" changeset="125134619" uid="3497659" user="NKA">
		<tag k="alt_name" v="Kandal, midtre" />
		<tag k="name" v="Midtre Kandal" />
		<tag k="place" v="farm" />
		<tag k="ssr:stedsnr" v="738071" />
	</node>
	<node id="9965313913" lat="61.803775" lon="6.1528836" version="1" timestamp="2022-08-20T06:27:23Z" changeset="125134619" uid="3497659" user="NKA">
		<tag k="name" v="Korsvika" />
		<tag k="place" v="farm" />
		<tag k="ssr:stedsnr" v="131741" />
	</node>
	<node id="9965313914" lat="61.7708697" lon="6.2213365" version="1" timestamp="2022-08-20T06:27:23Z" changeset="125134619" uid="3497659" user="NKA">
		<tag k="name" v="Ulvesbakken" />
		<tag k="place" v="neighbourhood" />
		<tag k="ssr:stedsnr" v="59722" />
	</node>
	<node id="9965313915" lat="61.8261056" lon="6.2600085" version="1" timestamp="2022-08-20T06:27:23Z" changeset="125134619" uid="3497659" user="NKA">
		<tag k="name" v="Leite" />
		<tag k="place" v="locality" />
		<tag k="ssr:stedsnr" v="70092" />
	</node>
	<node id="9965313916" lat="61.7526695" lon="6.3670002" version="1" timestamp="2022-08-20T06:27:23Z" changeset="125134619" uid="3497659" user="NKA">
		<tag k="name" v="Nedreberg" />
		<tag k="place" v="farm" />
		<tag k="ssr:stedsnr" v="738154" />
	</node>
	<node id="9965313917" lat="61.6112388" lon="5.7098281" version="1" timestamp="2022-08-20T06:27:23Z" changeset="125134619" uid="3497659" user="NKA">
		<tag k="historic" v="shieling" />
		<tag k="name" v="Vassenden" />
		<tag k="place" v="isolated_dwelling" />
		<tag k="ssr:stedsnr" v="687730" />
	</node>
	<node id="9965313918" lat="61.7870562" lon="6.2187389" version="1" timestamp="2022-08-20T06:27:23Z" changeset="125134619" uid="3497659" user="NKA">
		<tag k="name" v="Engeset" />
		<tag k="old_name" v="Austrheim" />
		<tag k="place" v="farm" />
		<tag k="ssr:stedsnr" v="10739" />
	</node>
	<node id="9965313919" lat="61.7430164" lon="6.3973393" version="1" timestamp="2022-08-20T06:27:23Z" changeset="125134619" uid="3497659" user="NKA">
		<tag k="name" v="Myrane" />
		<tag k="place" v="neighbourhood" />
		<tag k="ssr:stedsnr" v="579191" />
	</node>
	<node id="9965313920" lat="61.6786579" lon="6.4524579" version="1" timestamp="2022-08-20T06:27:23Z" changeset="125134619" uid="3497659" user="NKA">
		<tag k="historic" v="shieling" />
		<tag k="name" v="Årdalsstøylen" />
		<tag k="place" v="hamlet" />
		<tag k="ssr:stedsnr" v="555066" />
	</node>
	<node id="9965313921" lat="61.8288722" lon="6.2005059" version="1" timestamp="2022-08-20T06:27:23Z" changeset="125134619" uid="3497659" user="NKA">
		<tag k="historic" v="shieling" />
		<tag k="name" v="Føleidsstøylen" />
		<tag k="place" v="isolated_dwelling" />
		<tag k="ssr:stedsnr" v="859678" />
	</node>
	<node id="9965313922" lat="61.7270583" lon="6.2379502" version="1" timestamp="2022-08-20T06:27:23Z" changeset="125134619" uid="3497659" user="NKA">
		<tag k="historic" v="shieling" />
		<tag k="name" v="Søreidsstøylen" />
		<tag k="place" v="isolated_dwelling" />
		<tag k="ssr:stedsnr" v="313145" />
	</node>
	<node id="9965313923" lat="61.7620444" lon="6.5038695" version="1" timestamp="2022-08-20T06:27:23Z" changeset="125134619" uid="3497659" user="NKA">
		<tag k="name" v="Svoda" />
		<tag k="place" v="isolated_dwelling" />
		<tag k="ssr:stedsnr" v="71180" />
	</node>
	<node id="9965313924" lat="61.7531111" lon="6.3101475" version="1" timestamp="2022-08-20T06:27:23Z" changeset="125134619" uid="3497659" user="NKA">
		<tag k="name" v="Tunet" />
		<tag k="place" v="isolated_dwelling" />
		<tag k="ssr:stedsnr" v="556175" />
	</node>
	<node id="9965313925" lat="61.725025" lon="6.2322779" version="1" timestamp="2022-08-20T06:27:23Z" changeset="125134619" uid="3497659" user="NKA">
		<tag k="alt_name" v="Mardalstølen" />
		<tag k="historic" v="shieling" />
		<tag k="name" v="Mardalsstøylen" />
		<tag k="place" v="isolated_dwelling" />
		<tag k="ssr:stedsnr" v="435135" />
	</node>
	<node id="9965313926" lat="61.7422096" lon="6.4056313" version="1" timestamp="2022-08-20T06:27:23Z" changeset="125134619" uid="3497659" user="NKA">
		<tag k="name" v="Hagebakk" />
		<tag k="place" v="farm" />
		<tag k="ssr:stedsnr" v="215197" />
	</node>
	<node id="9965313927" lat="61.815075" lon="6.1535503" version="1" timestamp="2022-08-20T06:27:23Z" changeset="125134619" uid="3497659" user="NKA">
		<tag k="name" v="Kvia" />
		<tag k="place" v="farm" />
		<tag k="ssr:stedsnr" v="738707" />
	</node>
	<node id="9965313928" lat="61.7633667" lon="6.6051919" version="1" timestamp="2022-08-20T06:27:23Z" changeset="125134619" uid="3497659" user="NKA">
		<tag k="historic" v="shieling" />
		<tag k="name" v="Sanddalsstøylen" />
		<tag k="place" v="isolated_dwelling" />
		<tag k="ssr:stedsnr" v="10418" />
	</node>
	<node id="9965313929" lat="61.7964307" lon="6.1866255" version="1" timestamp="2022-08-20T06:27:23Z" changeset="125134619" uid="3497659" user="NKA">
		<tag k="name" v="Vambeset" />
		<tag k="place" v="farm" />
		<tag k="ssr:stedsnr" v="192752" />
	</node>
	<node id="9965313930" lat="61.7857311" lon="6.2665707" version="1" timestamp="2022-08-20T06:27:23Z" changeset="125134619" uid="3497659" user="NKA">
		<tag k="historic" v="shieling" />
		<tag k="name" v="Austrheimsstøylen" />
		<tag k="place" v="hamlet" />
		<tag k="ssr:stedsnr" v="860197" />
	</node>
	<node id="9965313931" lat="61.7423294" lon="6.2835538" version="1" timestamp="2022-08-20T06:27:23Z" changeset="125134619" uid="3497659" user="NKA">
		<tag k="historic" v="shieling" />
		<tag k="name" v="Vårstølen" />
		<tag k="place" v="isolated_dwelling" />
		<tag k="ssr:stedsnr" v="276266" />
	</node>
	<node id="9965313932" lat="61.701464" lon="6.4277119" version="1" timestamp="2022-08-20T06:27:23Z" changeset="125134619" uid="3497659" user="NKA">
		<tag k="historic" v="shieling" />
		<tag k="name" v="Seimsstølen" />
		<tag k="place" v="isolated_dwelling" />
		<tag k="ssr:stedsnr" v="822809" />
	</node>
	<node id="9965313933" lat="61.6451278" lon="5.6996477" version="1" timestamp="2022-08-20T06:27:23Z" changeset="125134619" uid="3497659" user="NKA">
		<tag k="historic" v="shieling" />
		<tag k="name" v="Reidarognen" />
		<tag k="place" v="isolated_dwelling" />
		<tag k="ssr:stedsnr" v="93678" />
	</node>
	<node id="9965313934" lat="61.6611" lon="6.5139697" version="1" timestamp="2022-08-20T06:27:23Z" changeset="125134619" uid="3497659" user="NKA">
		<tag k="historic" v="shieling" />
		<tag k="name" v="Stokkestøylen" />
		<tag k="place" v="isolated_dwelling" />
		<tag k="ssr:stedsnr" v="263512" />
	</node>
	<node id="9965313935" lat="61.7719694" lon="6.3422529" version="1" timestamp="2022-08-20T06:27:23Z" changeset="125134619" uid="3497659" user="NKA">
		<tag k="historic" v="shieling" />
		<tag k="name" v="Hunskorstøylen" />
		<tag k="place" v="isolated_dwelling" />
		<tag k="ssr:stedsnr" v="678185" />
	</node>
	<node id="9965313936" lat="61.7020805" lon="6.428578" version="1" timestamp="2022-08-20T06:27:23Z" changeset="125134619" uid="3497659" user="NKA">
		<tag k="alt_name" v="Rådastøylen;Rådastølen" />
		<tag k="historic" v="shieling" />
		<tag k="name" v="Seimsstøylen" />
		<tag k="place" v="isolated_dwelling" />
		<tag k="ssr:stedsnr" v="253091" />
	</node>
	<node id="9965313937" lat="61.7347222" lon="6.506728" version="1" timestamp="2022-08-20T06:27:23Z" changeset="125134619" uid="3497659" user="NKA">
		<tag k="name" v="Byrkjelo Aust" />
		<tag k="place" v="neighbourhood" />
		<tag k="ssr:stedsnr" v="423760" />
	</node>
	<node id="9965313938" lat="61.7784278" lon="6.5133112" version="1" timestamp="2022-08-20T06:27:23Z" changeset="125134619" uid="3497659" user="NKA">
		<tag k="name" v="Brekka" />
		<tag k="place" v="isolated_dwelling" />
		<tag k="ssr:stedsnr" v="131169" />
	</node>
	<node id="9965313939" lat="61.7034011" lon="6.533947" version="1" timestamp="2022-08-20T06:27:23Z" changeset="125134619" uid="3497659" user="NKA">
		<tag k="name" v="Strand" />
		<tag k="place" v="farm" />
		<tag k="ssr:stedsnr" v="556086" />
	</node>
	<node id="9965313940" lat="61.6473861" lon="5.7038864" version="1" timestamp="2022-08-20T06:27:23Z" changeset="125134619" uid="3497659" user="NKA">
		<tag k="historic" v="shieling" />
		<tag k="name" v="Reidarrognen" />
		<tag k="place" v="isolated_dwelling" />
		<tag k="ssr:stedsnr" v="262765" />
	</node>
	<node id="9965313941" lat="61.7651083" lon="6.4333862" version="1" timestamp="2022-08-20T06:27:23Z" changeset="125134619" uid="3497659" user="NKA">
		<tag k="historic" v="shieling" />
		<tag k="name" v="Rusta" />
		<tag k="place" v="isolated_dwelling" />
		<tag k="ssr:stedsnr" v="131150" />
	</node>
	<node id="9965313942" lat="61.6221097" lon="5.7067547" version="1" timestamp="2022-08-20T06:27:23Z" changeset="125134619" uid="3497659" user="NKA">
		<tag k="loc_name" v="Haugtun" />
		<tag k="name" v="Rognebakken" />
		<tag k="place" v="farm" />
		<tag k="ssr:stedsnr" v="573356" />
	</node>
	<node id="9965313943" lat="61.7385138" lon="6.4518862" version="1" timestamp="2022-08-20T06:27:23Z" changeset="125134619" uid="3497659" user="NKA">
		<tag k="name" v="Nyland" />
		<tag k="place" v="farm" />
		<tag k="ssr:stedsnr" v="253129" />
	</node>
	<node id="9965313944" lat="61.6425584" lon="6.5616558" version="1" timestamp="2022-08-20T06:27:23Z" changeset="125134619" uid="3497659" user="NKA">
		<tag k="historic" v="shieling" />
		<tag k="name" v="Gåsemyrstøylen" />
		<tag k="place" v="isolated_dwelling" />
		<tag k="ssr:stedsnr" v="556041" />
	</node>
	<node id="9965313945" lat="61.6735444" lon="6.4051751" version="1" timestamp="2022-08-20T06:27:23Z" changeset="125134619" uid="3497659" user="NKA">
		<tag k="name" v="Årdalsnausta" />
		<tag k="place" v="isolated_dwelling" />
		<tag k="ssr:stedsnr" v="215139" />
	</node>
	<node id="9965313946" lat="61.6345833" lon="5.8854586" version="1" timestamp="2022-08-20T06:27:23Z" changeset="125134619" uid="3497659" user="NKA">
		<tag k="historic" v="shieling" />
		<tag k="name" v="Vikastøylen" />
		<tag k="place" v="isolated_dwelling" />
		<tag k="ssr:stedsnr" v="737241" />
	</node>
	<node id="9965313948" lat="61.7676898" lon="6.4760463" version="1" timestamp="2022-08-20T06:27:23Z" changeset="125134619" uid="3497659" user="NKA">
		<tag k="historic" v="shieling" />
		<tag k="name" v="Fløtrastøylen" />
		<tag k="place" v="isolated_dwelling" />
		<tag k="ssr:stedsnr" v="270607" />
	</node>
	<node id="9965313949" lat="61.7257834" lon="6.5232335" version="1" timestamp="2022-08-20T06:27:23Z" changeset="125134619" uid="3497659" user="NKA">
		<tag k="alt_name" v="Bjørkelo" />
		<tag k="name" v="Åland" />
		<tag k="place" v="farm" />
		<tag k="ssr:stedsnr" v="131111" />
	</node>
	<node id="9965313950" lat="61.7497806" lon="6.5308723" version="1" timestamp="2022-08-20T06:27:23Z" changeset="125134619" uid="3497659" user="NKA">
		<tag k="historic" v="shieling" />
		<tag k="name" v="Gamle Bjørnareimstølen" />
		<tag k="place" v="isolated_dwelling" />
		<tag k="ssr:stedsnr" v="276852" />
	</node>
	<node id="9965313951" lat="61.7392112" lon="6.4978848" version="1" timestamp="2022-08-20T06:27:23Z" changeset="125134619" uid="3497659" user="NKA">
		<tag k="name" v="Kleppe" />
		<tag k="place" v="farm" />
		<tag k="ssr:stedsnr" v="131116" />
	</node>
	<node id="9965313952" lat="61.7449085" lon="6.5449088" version="1" timestamp="2022-08-20T06:27:23Z" changeset="125134619" uid="3497659" user="NKA">
		<tag k="name" v="Torheim" />
		<tag k="place" v="farm" />
		<tag k="ssr:stedsnr" v="253140" />
	</node>
	<node id="9965313953" lat="61.735162" lon="6.4541902" version="1" timestamp="2022-08-20T06:27:23Z" changeset="125134619" uid="3497659" user="NKA">
		<tag k="name" v="Kapellangarden" />
		<tag k="place" v="farm" />
		<tag k="ssr:stedsnr" v="215802" />
	</node>
	<node id="9965313954" lat="61.7270524" lon="6.4104782" version="1" timestamp="2022-08-20T06:27:23Z" changeset="125134619" uid="3497659" user="NKA">
		<tag k="name" v="Seime" />
		<tag k="place" v="hamlet" />
		<tag k="ssr:stedsnr" v="71109" />
	</node>
	<node id="9965313955" lat="61.698075" lon="6.5567335" version="1" timestamp="2022-08-20T06:27:23Z" changeset="125134619" uid="3497659" user="NKA">
		<tag k="name" v="Strandastøylen" />
		<tag k="place" v="locality" />
		<tag k="ssr:stedsnr" v="71071" />
	</node>
	<node id="9965313956" lat="61.6687021" lon="6.3733213" version="1" timestamp="2022-08-20T06:27:23Z" changeset="125134619" uid="3497659" user="NKA">
		<tag k="name" v="Rygg" />
		<tag k="place" v="hamlet" />
		<tag k="ssr:stedsnr" v="555059" />
	</node>
	<node id="9965313957" lat="61.72685" lon="6.1605446" version="1" timestamp="2022-08-20T06:27:23Z" changeset="125134619" uid="3497659" user="NKA">
		<tag k="historic" v="shieling" />
		<tag k="name" v="Rønningestølen" />
		<tag k="place" v="isolated_dwelling" />
		<tag k="ssr:stedsnr" v="701086" />
	</node>
	<node id="9965313958" lat="61.7603695" lon="6.4575696" version="1" timestamp="2022-08-20T06:27:23Z" changeset="125134619" uid="3497659" user="NKA">
		<tag k="historic" v="shieling" />
		<tag k="name" v="Øvresetstøylen" />
		<tag k="place" v="isolated_dwelling" />
		<tag k="ssr:stedsnr" v="131147" />
	</node>
	<node id="9965313959" lat="61.7663583" lon="6.273728" version="1" timestamp="2022-08-20T06:27:23Z" changeset="125134619" uid="3497659" user="NKA">
		<tag k="historic" v="shieling" />
		<tag k="name" v="Leirstøylen" />
		<tag k="place" v="isolated_dwelling" />
		<tag k="ssr:stedsnr" v="435215" />
	</node>
	<node id="9965313960" lat="61.7403883" lon="6.4680343" version="1" timestamp="2022-08-20T06:27:23Z" changeset="125134619" uid="3497659" user="NKA">
		<tag k="alt_name" v="Sætre øvre;Sætre nedre" />
		<tag k="name" v="Sætre" />
		<tag k="place" v="farm" />
		<tag k="ssr:stedsnr" v="131123" />
	</node>
	<node id="9965313961" lat="61.7133584" lon="6.1730058" version="1" timestamp="2022-08-20T06:27:23Z" changeset="125134619" uid="3497659" user="NKA">
		<tag k="historic" v="shieling" />
		<tag k="name" v="Fitjestøylen" />
		<tag k="place" v="isolated_dwelling" />
		<tag k="ssr:stedsnr" v="313364" />
	</node>
	<node id="9965313962" lat="61.7609584" lon="6.5436474" version="1" timestamp="2022-08-20T06:27:23Z" changeset="125134619" uid="3497659" user="NKA">
		<tag k="historic" v="shieling" />
		<tag k="name" v="Bjørnarheimstøylen" />
		<tag k="place" v="isolated_dwelling" />
		<tag k="ssr:stedsnr" v="131144" />
	</node>
	<node id="9965313963" lat="61.74468" lon="6.5838659" version="1" timestamp="2022-08-20T06:27:23Z" changeset="125134619" uid="3497659" user="NKA">
		<tag k="name" v="Fossheim" />
		<tag k="place" v="hamlet" />
		<tag k="ssr:stedsnr" v="131130" />
	</node>
	<node id="9965313964" lat="61.7459763" lon="6.4933349" version="1" timestamp="2022-08-20T06:27:23Z" changeset="125134619" uid="3497659" user="NKA">
		<tag k="name" v="Moldestad" />
		<tag k="place" v="hamlet" />
		<tag k="ssr:stedsnr" v="556139" />
	</node>
	<node id="9965313965" lat="61.7779306" lon="6.497289" version="1" timestamp="2022-08-20T06:27:23Z" changeset="125134619" uid="3497659" user="NKA">
		<tag k="historic" v="shieling" />
		<tag k="name" v="Steffastøylen" />
		<tag k="place" v="isolated_dwelling" />
		<tag k="ssr:stedsnr" v="678194" />
	</node>
	<node id="9965313966" lat="61.7913087" lon="6.2083977" version="1" timestamp="2022-08-20T06:27:23Z" changeset="125134619" uid="3497659" user="NKA">
		<tag k="name" v="Fjølestad" />
		<tag k="place" v="farm" />
		<tag k="ssr:stedsnr" v="313750" />
	</node>
	<node id="9965313967" lat="61.7544722" lon="6.543103" version="1" timestamp="2022-08-20T06:27:23Z" changeset="125134619" uid="3497659" user="NKA">
		<tag k="historic" v="shieling" />
		<tag k="name" v="Torheimstøylen" />
		<tag k="place" v="isolated_dwelling" />
		<tag k="ssr:stedsnr" v="10229" />
	</node>
	<node id="9965313968" lat="61.7545277" lon="6.4241307" version="1" timestamp="2022-08-20T06:27:23Z" changeset="125134619" uid="3497659" user="NKA">
		<tag k="name" v="Beiterøysa" />
		<tag k="place" v="locality" />
		<tag k="ssr:stedsnr" v="10231" />
	</node>
	<node id="9965313969" lat="61.7911028" lon="6.1934141" version="1" timestamp="2022-08-20T06:27:23Z" changeset="125134619" uid="3497659" user="NKA">
		<tag k="alt_name" v="Haugeli" />
		<tag k="name" v="Haugslia" />
		<tag k="place" v="farm" />
		<tag k="ssr:stedsnr" v="253768" />
	</node>
	<node id="9965313970" lat="61.7715528" lon="6.2356863" version="1" timestamp="2022-08-20T06:27:23Z" changeset="125134619" uid="3497659" user="NKA">
		<tag k="name" v="Valborgkleiva" />
		<tag k="place" v="neighbourhood" />
		<tag k="ssr:stedsnr" v="848749" />
	</node>
	<node id="9965313971" lat="61.7412125" lon="6.4418187" version="1" timestamp="2022-08-20T06:27:23Z" changeset="125134619" uid="3497659" user="NKA">
		<tag k="name" v="Skrøppa" />
		<tag k="place" v="farm" />
		<tag k="ssr:stedsnr" v="677123" />
	</node>
	<node id="9965313972" lat="61.6640714" lon="6.5171365" version="1" timestamp="2022-08-20T06:27:23Z" changeset="125134619" uid="3497659" user="NKA">
		<tag k="historic" v="shieling" />
		<tag k="name" v="Bergheimstølen" />
		<tag k="place" v="isolated_dwelling" />
		<tag k="ssr:stedsnr" v="519778" />
	</node>
	<node id="9965313973" lat="61.8114833" lon="6.159878" version="1" timestamp="2022-08-20T06:27:23Z" changeset="125134619" uid="3497659" user="NKA">
		<tag k="name" v="Bakkeli" />
		<tag k="place" v="farm" />
		<tag k="ssr:stedsnr" v="860732" />
	</node>
	<node id="9965313974" lat="61.814258" lon="6.1403127" version="1" timestamp="2022-08-20T06:27:23Z" changeset="125134619" uid="3497659" user="NKA">
		<tag k="name" v="Nygjerdet" />
		<tag k="place" v="farm" />
		<tag k="ssr:stedsnr" v="860723" />
	</node>
	<node id="9965313975" lat="61.8107611" lon="6.1766918" version="1" timestamp="2022-08-20T06:27:23Z" changeset="125134619" uid="3497659" user="NKA">
		<tag k="historic" v="shieling" />
		<tag k="name" v="Skorstøylen" />
		<tag k="place" v="isolated_dwelling" />
		<tag k="ssr:stedsnr" v="71739" />
	</node>
	<node id="9965313976" lat="61.7574722" lon="6.2273947" version="1" timestamp="2022-08-20T06:27:23Z" changeset="125134619" uid="3497659" user="NKA">
		<tag k="name" v="Øvrebø" />
		<tag k="place" v="farm" />
		<tag k="ssr:stedsnr" v="556150" />
	</node>
	<node id="9965313977" lat="61.7153778" lon="5.771206" version="1" timestamp="2022-08-20T06:27:23Z" changeset="125134619" uid="3497659" user="NKA">
		<tag k="name" v="Straumsbotnen" />
		<tag k="place" v="isolated_dwelling" />
		<tag k="ssr:stedsnr" v="615632" />
	</node>
	<node id="9965313978" lat="61.7389445" lon="6.3420475" version="1" timestamp="2022-08-20T06:27:23Z" changeset="125134619" uid="3497659" user="NKA">
		<tag k="historic" v="shieling" />
		<tag k="name" v="Rimstølen" />
		<tag k="place" v="isolated_dwelling" />
		<tag k="ssr:stedsnr" v="458219" />
	</node>
	<node id="9965313979" lat="61.7497893" lon="5.9460651" version="1" timestamp="2022-08-20T06:27:23Z" changeset="125134619" uid="3497659" user="NKA">
		<tag k="historic" v="shieling" />
		<tag k="name" v="Gardstølane" />
		<tag k="place" v="isolated_dwelling" />
		<tag k="ssr:stedsnr" v="700510" />
	</node>
	<node id="9965313980" lat="61.7539556" lon="6.3756453" version="1" timestamp="2022-08-20T06:27:23Z" changeset="125134619" uid="3497659" user="NKA">
		<tag k="name" v="Kåle" />
		<tag k="place" v="farm" />
		<tag k="ssr:stedsnr" v="556182" />
	</node>
	<node id="9965313981" lat="61.7370003" lon="6.4791127" version="1" timestamp="2022-08-20T06:27:23Z" changeset="125134619" uid="3497659" user="NKA">
		<tag k="name" v="Fløtra" />
		<tag k="place" v="farm" />
		<tag k="ssr:stedsnr" v="435147" />
	</node>
	<node id="9965313982" lat="61.7653654" lon="6.2083788" version="1" timestamp="2022-08-20T06:27:23Z" changeset="125134619" uid="3497659" user="NKA">
		<tag k="name" v="Evebø" />
		<tag k="place" v="farm" />
		<tag k="ssr:stedsnr" v="859757" />
	</node>
	<node id="9965313983" lat="61.7413067" lon="6.4795385" version="1" timestamp="2022-08-20T06:27:23Z" changeset="125134619" uid="3497659" user="NKA">
		<tag k="name" v="Hole" />
		<tag k="place" v="farm" />
		<tag k="ssr:stedsnr" v="435151" />
	</node>
	<node id="9965313984" lat="61.6961408" lon="6.5295133" version="1" timestamp="2022-08-20T06:27:23Z" changeset="125134619" uid="3497659" user="NKA">
		<tag k="name" v="Gåsemyr" />
		<tag k="place" v="hamlet" />
		<tag k="ssr:stedsnr" v="71077" />
	</node>
	<node id="9965313985" lat="61.7968194" lon="6.1893614" version="1" timestamp="2022-08-20T06:27:23Z" changeset="125134619" uid="3497659" user="NKA">
		<tag k="name" v="Solli" />
		<tag k="place" v="farm" />
		<tag k="ssr:stedsnr" v="192750" />
	</node>
	<node id="9965313986" lat="61.6933563" lon="6.3688332" version="1" timestamp="2022-08-20T06:27:23Z" changeset="125134619" uid="3497659" user="NKA">
		<tag k="alt_name" v="Kandal, yt" />
		<tag k="name" v="Ytre Kandal" />
		<tag k="place" v="hamlet" />
		<tag k="ssr:stedsnr" v="71088" />
	</node>
	<node id="9965313987" lat="61.7448922" lon="6.5736498" version="1" timestamp="2022-08-20T06:27:23Z" changeset="125134619" uid="3497659" user="NKA">
		<tag k="alt_name" v="Sanddal" />
		<tag k="name" v="Sanddalen" />
		<tag k="place" v="hamlet" />
		<tag k="ssr:stedsnr" v="374137" />
	</node>
	<node id="9965313988" lat="61.734651" lon="6.4339551" version="1" timestamp="2022-08-20T06:27:23Z" changeset="125134619" uid="3497659" user="NKA">
		<tag k="name" v="Breim" />
		<tag k="place" v="hamlet" />
		<tag k="ssr:stedsnr" v="1083815" />
	</node>
	<node id="9965313989" lat="61.686906" lon="6.5217996" version="1" timestamp="2022-08-20T06:27:23Z" changeset="125134619" uid="3497659" user="NKA">
		<tag k="name" v="Egge" />
		<tag k="place" v="hamlet" />
		<tag k="ssr:stedsnr" v="556078" />
	</node>
	<node id="9965313990" lat="61.7707278" lon="6.4846223" version="1" timestamp="2022-08-20T06:27:23Z" changeset="125134619" uid="3497659" user="NKA">
		<tag k="historic" v="shieling" />
		<tag k="name" v="Fellastøylen" />
		<tag k="place" v="isolated_dwelling" />
		<tag k="ssr:stedsnr" v="10146" />
	</node>
	<node id="9965313991" lat="61.7720472" lon="6.501789" version="1" timestamp="2022-08-20T06:27:23Z" changeset="125134619" uid="3497659" user="NKA">
		<tag k="historic" v="shieling" />
		<tag k="name" v="Moldestadstøylen" />
		<tag k="place" v="isolated_dwelling" />
		<tag k="ssr:stedsnr" v="10148" />
	</node>
	<node id="9965313992" lat="61.6877051" lon="5.956955" version="1" timestamp="2022-08-20T06:27:23Z" changeset="125134619" uid="3497659" user="NKA">
		<tag k="historic" v="shieling" />
		<tag k="name" v="Ommedalsstøylen" />
		<tag k="place" v="isolated_dwelling" />
		<tag k="ssr:stedsnr" v="799333" />
	</node>
	<node id="9965313993" lat="61.6960555" lon="6.3278279" version="1" timestamp="2022-08-20T06:27:23Z" changeset="125134619" uid="3497659" user="NKA">
		<tag k="historic" v="shieling" />
		<tag k="name" v="Nesstøylen" />
		<tag k="place" v="isolated_dwelling" />
		<tag k="ssr:stedsnr" v="192100" />
	</node>
	<node id="9965313994" lat="61.7551583" lon="6.312528" version="1" timestamp="2022-08-20T06:27:23Z" changeset="125134619" uid="3497659" user="NKA">
		<tag k="name" v="Allmenningen" />
		<tag k="place" v="farm" />
		<tag k="ssr:stedsnr" v="859113" />
	</node>
	<node id="9965313995" lat="61.750975" lon="6.3827391" version="1" timestamp="2022-08-20T06:27:23Z" changeset="125134619" uid="3497659" user="NKA">
		<tag k="name" v="Kolbotn" />
		<tag k="place" v="farm" />
		<tag k="ssr:stedsnr" v="799163" />
	</node>
	<node id="9965313996" lat="61.7394349" lon="5.913914" version="1" timestamp="2022-08-20T06:27:23Z" changeset="125134619" uid="3497659" user="NKA">
		<tag k="name" v="Straume" />
		<tag k="place" v="farm" />
		<tag k="ssr:stedsnr" v="797381" />
	</node>
	<node id="9965313997" lat="61.8468005" lon="5.9805832" version="1" timestamp="2022-08-20T06:27:23Z" changeset="125134619" uid="3497659" user="NKA">
		<tag k="name" v="Hyenes" />
		<tag k="place" v="farm" />
		<tag k="ssr:stedsnr" v="762167" />
	</node>
	<node id="9965313998" lat="61.6659089" lon="6.4243342" version="1" timestamp="2022-08-20T06:27:23Z" changeset="125134619" uid="3497659" user="NKA">
		<tag k="name" v="Åsen" />
		<tag k="place" v="farm" />
		<tag k="ssr:stedsnr" v="883802" />
	</node>
	<node id="9965313999" lat="61.7841563" lon="5.9776429" version="1" timestamp="2022-08-20T06:27:23Z" changeset="125134619" uid="3497659" user="NKA">
		<tag k="name" v="Kleppeneset" />
		<tag k="place" v="farm" />
		<tag k="ssr:stedsnr" v="799747" />
	</node>
	<node id="9965314000" lat="61.7398415" lon="6.4583854" version="1" timestamp="2022-08-20T06:27:23Z" changeset="125134619" uid="3497659" user="NKA">
		<tag k="name" v="Løset" />
		<tag k="place" v="farm" />
		<tag k="ssr:stedsnr" v="944776" />
	</node>
	<node id="9965314001" lat="61.7516389" lon="6.6068224" version="1" timestamp="2022-08-20T06:27:23Z" changeset="125134619" uid="3497659" user="NKA">
		<tag k="historic" v="shieling" />
		<tag k="name" v="Fossheimsætra" />
		<tag k="place" v="isolated_dwelling" />
		<tag k="ssr:stedsnr" v="738413" />
	</node>
	<node id="9965314002" lat="61.7604028" lon="6.4832307" version="1" timestamp="2022-08-20T06:27:23Z" changeset="125134619" uid="3497659" user="NKA">
		<tag k="name" v="Breimslia" />
		<tag k="place" v="neighbourhood" />
		<tag k="ssr:stedsnr" v="420612" />
	</node>
	<node id="9965314003" lat="61.8103279" lon="6.1574716" version="1" timestamp="2022-08-20T06:27:23Z" changeset="125134619" uid="3497659" user="NKA">
		<tag k="name" v="Bakketun" />
		<tag k="place" v="farm" />
		<tag k="ssr:stedsnr" v="579037" />
	</node>
	<node id="9965314004" lat="61.7848056" lon="6.0968477" version="1" timestamp="2022-08-20T06:27:23Z" changeset="125134619" uid="3497659" user="NKA">
		<tag k="name" v="Rauset" />
		<tag k="place" v="hamlet" />
		<tag k="ssr:stedsnr" v="313753" />
	</node>
	<node id="9965314005" lat="61.667917" lon="6.4339897" version="1" timestamp="2022-08-20T06:27:23Z" changeset="125134619" uid="3497659" user="NKA">
		<tag k="name" v="Bogstad" />
		<tag k="place" v="hamlet" />
		<tag k="ssr:stedsnr" v="10061" />
	</node>
	<node id="9965314006" lat="61.7667439" lon="6.4046718" version="1" timestamp="2022-08-20T06:27:23Z" changeset="125134619" uid="3497659" user="NKA">
		<tag k="historic" v="shieling" />
		<tag k="name" v="Kvilestøylen" />
		<tag k="place" v="isolated_dwelling" />
		<tag k="ssr:stedsnr" v="192157" />
	</node>
	<node id="9965314007" lat="61.7790247" lon="6.1059335" version="1" timestamp="2022-08-20T06:27:23Z" changeset="125134619" uid="3497659" user="NKA">
		<tag k="name" v="Ramnestad" />
		<tag k="place" v="hamlet" />
		<tag k="ssr:stedsnr" v="435755" />
	</node>
	<node id="9965314008" lat="61.7580778" lon="6.4253474" version="1" timestamp="2022-08-20T06:27:23Z" changeset="125134619" uid="3497659" user="NKA">
		<tag k="name" v="Steinrøysa" />
		<tag k="place" v="isolated_dwelling" />
		<tag k="ssr:stedsnr" v="556184" />
	</node>
	<node id="9965314009" lat="61.745275" lon="6.0639725" version="1" timestamp="2022-08-20T06:27:23Z" changeset="125134619" uid="3497659" user="NKA">
		<tag k="historic" v="shieling" />
		<tag k="name" v="Dalsbøen" />
		<tag k="place" v="isolated_dwelling" />
		<tag k="ssr:stedsnr" v="251417" />
	</node>
	<node id="9965314010" lat="61.7034139" lon="5.8556726" version="1" timestamp="2022-08-20T06:27:23Z" changeset="125134619" uid="3497659" user="NKA">
		<tag k="historic" v="shieling" />
		<tag k="name" v="Røyrvikstøylen" />
		<tag k="place" v="isolated_dwelling" />
		<tag k="ssr:stedsnr" v="313371" />
	</node>
	<node id="9965314011" lat="61.7638055" lon="6.443353" version="1" timestamp="2022-08-20T06:27:23Z" changeset="125134619" uid="3497659" user="NKA">
		<tag k="historic" v="shieling" />
		<tag k="name" v="Skinlostøylen" />
		<tag k="place" v="isolated_dwelling" />
		<tag k="ssr:stedsnr" v="192175" />
	</node>
	<node id="9965314012" lat="61.7601639" lon="6.5090641" version="1" timestamp="2022-08-20T06:27:23Z" changeset="125134619" uid="3497659" user="NKA">
		<tag k="historic" v="shieling" />
		<tag k="name" v="Kleppsstøylen" />
		<tag k="place" v="isolated_dwelling" />
		<tag k="ssr:stedsnr" v="799168" />
	</node>
	<node id="9965314013" lat="61.7524722" lon="6.4454668" version="1" timestamp="2022-08-20T06:27:23Z" changeset="125134619" uid="3497659" user="NKA">
		<tag k="name" v="Rognkleiva" />
		<tag k="place" v="locality" />
		<tag k="ssr:stedsnr" v="192246" />
	</node>
	<node id="9965314014" lat="61.7437388" lon="6.4366944" version="1" timestamp="2022-08-20T06:27:23Z" changeset="125134619" uid="3497659" user="NKA">
		<tag k="name" v="Blåteigen" />
		<tag k="place" v="farm" />
		<tag k="ssr:stedsnr" v="458789" />
	</node>
	<node id="9965314015" lat="61.8000389" lon="6.2005113" version="1" timestamp="2022-08-20T06:27:23Z" changeset="125134619" uid="3497659" user="NKA">
		<tag k="historic" v="shieling" />
		<tag k="name" v="Haugsstøylen" />
		<tag k="place" v="isolated_dwelling" />
		<tag k="ssr:stedsnr" v="131733" />
	</node>
	<node id="9965314016" lat="61.631475" lon="5.8634558" version="1" timestamp="2022-08-20T06:27:23Z" changeset="125134619" uid="3497659" user="NKA">
		<tag k="historic" v="shieling" />
		<tag k="name" v="Gamlestøylen" />
		<tag k="place" v="isolated_dwelling" />
		<tag k="ssr:stedsnr" v="373255" />
	</node>
	<node id="9965314017" lat="61.7837" lon="6.0718752" version="1" timestamp="2022-08-20T06:27:23Z" changeset="125134619" uid="3497659" user="NKA">
		<tag k="historic" v="shieling" />
		<tag k="name" v="Rausetstøylen" />
		<tag k="place" v="isolated_dwelling" />
		<tag k="ssr:stedsnr" v="495757" />
	</node>
	<node id="9965314018" lat="61.6878222" lon="5.8758919" version="1" timestamp="2022-08-20T06:27:23Z" changeset="125134619" uid="3497659" user="NKA">
		<tag k="name" v="Nipa" />
		<tag k="place" v="locality" />
		<tag k="ssr:stedsnr" v="616312" />
	</node>
	<node id="9965314019" lat="61.7831611" lon="6.1046392" version="1" timestamp="2022-08-20T06:27:23Z" changeset="125134619" uid="3497659" user="NKA">
		<tag k="name" v="Sande" />
		<tag k="place" v="neighbourhood" />
		<tag k="ssr:stedsnr" v="120723" />
	</node>
	<node id="9965314020" lat="61.7883168" lon="6.1786845" version="1" timestamp="2022-08-20T06:27:23Z" changeset="125134619" uid="3497659" user="NKA">
		<tag k="name" v="Ytre Hauge" />
		<tag k="place" v="farm" />
		<tag k="ssr:stedsnr" v="860763" />
	</node>
	<node id="9965314021" lat="61.6947583" lon="5.8731558" version="1" timestamp="2022-08-20T06:27:23Z" changeset="125134619" uid="3497659" user="NKA">
		<tag k="historic" v="shieling" />
		<tag k="name" v="Nipestølen" />
		<tag k="place" v="isolated_dwelling" />
		<tag k="ssr:stedsnr" v="153319" />
	</node>
	<node id="9965314022" lat="61.7940753" lon="6.2146472" version="1" timestamp="2022-08-20T06:27:23Z" changeset="125134619" uid="3497659" user="NKA">
		<tag k="name" v="Solheim" />
		<tag k="place" v="hamlet" />
		<tag k="ssr:stedsnr" v="131750" />
	</node>
	<node id="9965314023" lat="61.7616613" lon="6.2095061" version="1" timestamp="2022-08-20T06:27:23Z" changeset="125134619" uid="3497659" user="NKA">
		<tag k="name" v="Søreide" />
		<tag k="place" v="hamlet" />
		<tag k="ssr:stedsnr" v="192799" />
	</node>
	<node id="9965314024" lat="61.7894306" lon="6.4467057" version="1" timestamp="2022-08-20T06:27:23Z" changeset="125134619" uid="3497659" user="NKA">
		<tag k="name" v="Hytteranten" />
		<tag k="place" v="locality" />
		<tag k="ssr:stedsnr" v="677164" />
	</node>
	<node id="9965314025" lat="61.7258611" lon="5.8404837" version="1" timestamp="2022-08-20T06:27:23Z" changeset="125134619" uid="3497659" user="NKA">
		<tag k="name" v="Korsstøylane" />
		<tag k="place" v="locality" />
		<tag k="ssr:stedsnr" v="129655" />
	</node>
	<node id="9965314026" lat="61.7707388" lon="6.1562925" version="1" timestamp="2022-08-20T06:27:23Z" changeset="125134619" uid="3497659" user="NKA">
		<tag k="name" v="Ytre Arnestad" />
		<tag k="place" v="farm" />
		<tag k="ssr:stedsnr" v="203581" />
	</node>
	<node id="9965314027" lat="61.6653611" lon="5.7328476" version="1" timestamp="2022-08-20T06:27:23Z" changeset="125134619" uid="3497659" user="NKA">
		<tag k="alt_name" v="Storevasshogen" />
		<tag k="name" v="Storevasshaugen" />
		<tag k="place" v="isolated_dwelling" />
		<tag k="ssr:stedsnr" v="251718" />
	</node>
	<node id="9965314028" lat="61.7805711" lon="6.120231" version="1" timestamp="2022-08-20T06:27:23Z" changeset="125134619" uid="3497659" user="NKA">
		<tag k="name" v="Sørstranda" />
		<tag k="place" v="hamlet" />
		<tag k="ssr:stedsnr" v="678727" />
	</node>
	<node id="9965314029" lat="61.6495303" lon="5.754378" version="1" timestamp="2022-08-20T06:27:23Z" changeset="125134619" uid="3497659" user="NKA">
		<tag k="historic" v="shieling" />
		<tag k="name" v="Hjortesetstøylen" />
		<tag k="place" v="isolated_dwelling" />
		<tag k="ssr:stedsnr" v="312683" />
	</node>
	<node id="9965314030" lat="61.7448379" lon="6.4447473" version="1" timestamp="2022-08-20T06:27:23Z" changeset="125134619" uid="3497659" user="NKA">
		<tag k="name" v="Skinlo" />
		<tag k="place" v="hamlet" />
		<tag k="ssr:stedsnr" v="677135" />
	</node>
	<node id="9965314031" lat="61.6652108" lon="5.9102456" version="1" timestamp="2022-08-20T06:27:23Z" changeset="125134619" uid="3497659" user="NKA">
		<tag k="alt_name" v="Rønnekleiv" />
		<tag k="name" v="Rongkleiv" />
		<tag k="place" v="farm" />
		<tag k="ssr:stedsnr" v="678356" />
	</node>
	<node id="9965314032" lat="61.7428652" lon="6.5052383" version="1" timestamp="2022-08-20T06:27:23Z" changeset="125134619" uid="3497659" user="NKA">
		<tag k="name" v="Støyva" />
		<tag k="place" v="farm" />
		<tag k="ssr:stedsnr" v="495146" />
	</node>
	<node id="9965314033" lat="61.7677896" lon="6.4784737" version="1" timestamp="2022-08-20T06:27:23Z" changeset="125134619" uid="3497659" user="NKA">
		<tag k="historic" v="shieling" />
		<tag k="name" v="Holestøylen" />
		<tag k="place" v="isolated_dwelling" />
		<tag k="ssr:stedsnr" v="495163" />
	</node>
	<node id="9965314034" lat="61.6967083" lon="6.1155086" version="1" timestamp="2022-08-20T06:27:23Z" changeset="125134619" uid="3497659" user="NKA">
		<tag k="name" v="Haugen" />
		<tag k="place" v="locality" />
		<tag k="ssr:stedsnr" v="253397" />
	</node>
	<node id="9965314035" lat="61.7557722" lon="6.5042697" version="1" timestamp="2022-08-20T06:27:23Z" changeset="125134619" uid="3497659" user="NKA">
		<tag k="historic" v="shieling" />
		<tag k="name" v="Gamlestølen" />
		<tag k="place" v="isolated_dwelling" />
		<tag k="ssr:stedsnr" v="397821" />
	</node>
	<node id="9965314036" lat="61.6672417" lon="5.8740782" version="1" timestamp="2022-08-20T06:27:23Z" changeset="125134619" uid="3497659" user="NKA">
		<tag k="historic" v="shieling" />
		<tag k="name" v="Rongkleivstøylen" />
		<tag k="place" v="isolated_dwelling" />
		<tag k="ssr:stedsnr" v="131319" />
	</node>
	<node id="9965314037" lat="61.6583036" lon="6.3670723" version="1" timestamp="2022-08-20T06:27:23Z" changeset="125134619" uid="3497659" user="NKA">
		<tag k="name" v="Mykland" />
		<tag k="place" v="hamlet" />
		<tag k="ssr:stedsnr" v="495080" />
	</node>
	<node id="9965314038" lat="61.7592003" lon="6.1941564" version="1" timestamp="2022-08-20T06:27:23Z" changeset="125134619" uid="3497659" user="NKA">
		<tag k="name" v="Mardal" />
		<tag k="place" v="hamlet" />
		<tag k="ssr:stedsnr" v="738752" />
	</node>
	<node id="9965314039" lat="61.6705915" lon="6.380762" version="1" timestamp="2022-08-20T06:27:23Z" changeset="125134619" uid="3497659" user="NKA">
		<tag k="alt_name" v="Kandal, in" />
		<tag k="name" v="Indre Kandal" />
		<tag k="place" v="hamlet" />
		<tag k="ssr:stedsnr" v="434048" />
	</node>
	<node id="9965314040" lat="61.7480075" lon="5.9459784" version="1" timestamp="2022-08-20T06:27:23Z" changeset="125134619" uid="3497659" user="NKA">
		<tag k="name" v="Fureholmen" />
		<tag k="place" v="farm" />
		<tag k="ssr:stedsnr" v="129389" />
	</node>
	<node id="9965314041" lat="61.7908055" lon="6.0793308" version="1" timestamp="2022-08-20T06:27:23Z" changeset="125134619" uid="3497659" user="NKA">
		<tag k="historic" v="shieling" />
		<tag k="name" v="Gamlestølen" />
		<tag k="place" v="isolated_dwelling" />
		<tag k="ssr:stedsnr" v="458123" />
	</node>
	<node id="9965314042" lat="61.7651277" lon="6.3835447" version="1" timestamp="2022-08-20T06:27:23Z" changeset="125134619" uid="3497659" user="NKA">
		<tag k="historic" v="shieling" />
		<tag k="name" v="Hetlastøylen" />
		<tag k="place" v="isolated_dwelling" />
		<tag k="ssr:stedsnr" v="435194" />
	</node>
	<node id="9965314043" lat="61.735" lon="6.1596002" version="1" timestamp="2022-08-20T06:27:23Z" changeset="125134619" uid="3497659" user="NKA">
		<tag k="historic" v="shieling" />
		<tag k="name" v="Arnestadstøylen" />
		<tag k="place" v="isolated_dwelling" />
		<tag k="ssr:stedsnr" v="555301" />
	</node>
	<node id="9965314044" lat="61.7019777" lon="5.7847559" version="1" timestamp="2022-08-20T06:27:23Z" changeset="125134619" uid="3497659" user="NKA">
		<tag k="name" v="Skilbreia" />
		<tag k="place" v="isolated_dwelling" />
		<tag k="ssr:stedsnr" v="736669" />
	</node>
	<node id="9965314045" lat="61.7632365" lon="6.1902963" version="1" timestamp="2022-08-20T06:27:23Z" changeset="125134619" uid="3497659" user="NKA">
		<tag k="name" v="Indre Fitje" />
		<tag k="place" v="farm" />
		<tag k="ssr:stedsnr" v="506568" />
	</node>
	<node id="9965314046" lat="61.6706347" lon="6.4283543" version="1" timestamp="2022-08-20T06:27:23Z" changeset="125134619" uid="3497659" user="NKA">
		<tag k="name" v="Årdal" />
		<tag k="place" v="hamlet" />
		<tag k="ssr:stedsnr" v="252061" />
	</node>
	<node id="9965314047" lat="61.8188938" lon="6.1589916" version="1" timestamp="2022-08-20T06:27:23Z" changeset="125134619" uid="3497659" user="NKA">
		<tag k="name" v="Åsebø" />
		<tag k="place" v="hamlet" />
		<tag k="ssr:stedsnr" v="435713" />
	</node>
</osm>
