<?xml version="1.0" encoding="UTF-8"?>
<osm generator="osmapis" version="0.6">
	<node id="-481976" lat="60.6643953732" lon="5.61891813261">
		<tag k="name" v="Askjelneset" />
		<tag k="ssr:date" v="2019-05-30" />
		<tag k="ssr:gruppe" v="veg" />
		<tag k="ssr:hovedgruppe" v="infrastruktur" />
		<tag k="ssr:stedsnr" v="1039653" />
		<tag k="ssr:type" v="adressenavn" />
	</node>
	<node id="-482320" lat="60.4658583312" lon="5.69797222988">
		<tag k="alt_name" v="Ulsnesøy" />
		<tag k="name" v="Ulsnesøy lykt" />
		<tag k="ssr:date" v="2016-05-10" />
		<tag k="ssr:gruppe" v="navigasjon" />
		<tag k="ssr:hovedgruppe" v="infrastruktur" />
		<tag k="ssr:stedsnr" v="43843" />
		<tag k="ssr:type" v="fyrlykt" />
	</node>
	<node id="-481983" lat="60.4962753084" lon="5.66892083431">
		<tag k="name" v="Båtaleitshaugen" />
		<tag k="ssr:date" v="2019-05-30" />
		<tag k="ssr:gruppe" v="veg" />
		<tag k="ssr:hovedgruppe" v="infrastruktur" />
		<tag k="ssr:stedsnr" v="1039688" />
		<tag k="ssr:type" v="adressenavn" />
	</node>
	<node id="-481978" lat="60.4918992645" lon="5.56832875972">
		<tag k="name" v="Hartveitmarka" />
		<tag k="ssr:date" v="2019-05-30" />
		<tag k="ssr:gruppe" v="veg" />
		<tag k="ssr:hovedgruppe" v="infrastruktur" />
		<tag k="ssr:stedsnr" v="1039662" />
		<tag k="ssr:type" v="adressenavn" />
	</node>
	<node id="-482171" lat="60.6117833338" lon="5.50404167363">
		<tag k="name" v="Osterhavnneset lykt" />
		<tag k="ssr:date" v="2016-05-10" />
		<tag k="ssr:gruppe" v="navigasjon" />
		<tag k="ssr:hovedgruppe" v="infrastruktur" />
		<tag k="ssr:stedsnr" v="409512" />
		<tag k="ssr:type" v="fyrlykt" />
	</node>
	<node id="-482266" lat="60.5209834653" lon="5.50509937674">
		<tag k="name" v="Fugledalsåsen" />
		<tag k="ssr:date" v="2019-12-05" />
		<tag k="ssr:gruppe" v="veg" />
		<tag k="ssr:hovedgruppe" v="infrastruktur" />
		<tag k="ssr:stedsnr" v="1073778" />
		<tag k="ssr:type" v="adressenavn" />
	</node>
	<node id="-482265" lat="60.5207037388" lon="5.50883080764">
		<tag k="name" v="Fugledalsvegen" />
		<tag k="ssr:date" v="2019-12-05" />
		<tag k="ssr:gruppe" v="veg" />
		<tag k="ssr:hovedgruppe" v="infrastruktur" />
		<tag k="ssr:stedsnr" v="1073777" />
		<tag k="ssr:type" v="adressenavn" />
	</node>
	<node id="-482264" lat="60.5029345028" lon="5.50088561495">
		<tag k="name" v="Vevleheiane" />
		<tag k="ssr:date" v="2019-11-25" />
		<tag k="ssr:gruppe" v="veg" />
		<tag k="ssr:hovedgruppe" v="infrastruktur" />
		<tag k="ssr:stedsnr" v="1073515" />
		<tag k="ssr:type" v="adressenavn" />
	</node>
	<node id="-481975" lat="60.6044769879" lon="5.5449470983">
		<tag k="name" v="Drangevågen" />
		<tag k="ssr:date" v="2019-05-30" />
		<tag k="ssr:gruppe" v="veg" />
		<tag k="ssr:hovedgruppe" v="infrastruktur" />
		<tag k="ssr:stedsnr" v="1039646" />
		<tag k="ssr:type" v="adressenavn" />
	</node>
	<node id="-481977" lat="60.4726742459" lon="5.6258841573">
		<tag k="name" v="Skaftådalen" />
		<tag k="ssr:date" v="2019-05-30" />
		<tag k="ssr:gruppe" v="veg" />
		<tag k="ssr:hovedgruppe" v="infrastruktur" />
		<tag k="ssr:stedsnr" v="1039661" />
		<tag k="ssr:type" v="adressenavn" />
	</node>
	<node id="-482418" lat="60.6115972215" lon="5.50535000345">
		<tag k="alt_name" v="Bernestangen" />
		<tag k="name" v="Bernestangen lykt" />
		<tag k="ssr:date" v="2016-05-10" />
		<tag k="ssr:gruppe" v="navigasjon" />
		<tag k="ssr:hovedgruppe" v="infrastruktur" />
		<tag k="ssr:stedsnr" v="67743" />
		<tag k="ssr:type" v="fyrlykt" />
	</node>
	<node id="-482768" lat="60.5238888885" lon="5.50553610997">
		<tag k="alt_name" v="Osterøy" />
		<tag k="name" v="Osterøy kommune" />
		<tag k="ssr:date" v="2019-07-15" />
		<tag k="ssr:gruppe" v="administrativeIndelinger" />
		<tag k="ssr:hovedgruppe" v="offentligAdministrasjon" />
		<tag k="ssr:stedsnr" v="449943" />
		<tag k="ssr:type" v="kommune" />
	</node>
	<node id="-482319" lat="60.4284166671" lon="5.53372222794">
		<tag k="alt_name" v="Kvitsteinhella" />
		<tag k="name" v="Kvitsteinhella lykt" />
		<tag k="ssr:date" v="2016-05-10" />
		<tag k="ssr:gruppe" v="navigasjon" />
		<tag k="ssr:hovedgruppe" v="infrastruktur" />
		<tag k="ssr:stedsnr" v="43837" />
		<tag k="ssr:type" v="fyrlykt" />
	</node>
	<node id="-482313" lat="60.4642861095" lon="5.45927499586">
		<tag k="name" v="Votløyna lykt" />
		<tag k="ssr:date" v="2016-05-10" />
		<tag k="ssr:gruppe" v="navigasjon" />
		<tag k="ssr:hovedgruppe" v="infrastruktur" />
		<tag k="ssr:stedsnr" v="36383" />
		<tag k="ssr:type" v="fyrlykt" />
	</node>
	<node id="-483551" lat="60.5076314212" lon="5.45209063725">
		<tag k="name" v="Træshaugledet" />
		<tag k="ssr:date" v="2019-05-30" />
		<tag k="ssr:gruppe" v="veg" />
		<tag k="ssr:hovedgruppe" v="infrastruktur" />
		<tag k="ssr:stedsnr" v="971930" />
		<tag k="ssr:type" v="adressenavn" />
	</node>
	<node id="-482949" lat="60.4390805521" lon="5.60976666794">
		<tag k="alt_name" v="Stokkenes" />
		<tag k="name" v="Stokkenes lykt" />
		<tag k="ssr:date" v="2016-05-10" />
		<tag k="ssr:gruppe" v="navigasjon" />
		<tag k="ssr:hovedgruppe" v="infrastruktur" />
		<tag k="ssr:stedsnr" v="589854" />
		<tag k="ssr:type" v="fyrlykt" />
	</node>
	<node id="-482147" lat="60.6662638872" lon="5.61013054688">
		<tag k="name" v="Askjelneset lykt" />
		<tag k="old_name" v="Askildsnes;Askilnes" />
		<tag k="ssr:date" v="2016-05-10" />
		<tag k="ssr:gruppe" v="navigasjon" />
		<tag k="ssr:hovedgruppe" v="infrastruktur" />
		<tag k="ssr:stedsnr" v="391673" />
		<tag k="ssr:type" v="fyrlykt" />
	</node>
	<node id="-483554" lat="60.8816104596" lon="6.30047518531">
		<tag k="name" v="Vestlandet" />
		<tag k="ssr:date" v="2019-01-06" />
		<tag k="ssr:gruppe" v="administrativeIndelinger" />
		<tag k="ssr:hovedgruppe" v="offentligAdministrasjon" />
		<tag k="ssr:stedsnr" v="974777" />
		<tag k="ssr:type" v="annenAdministrativInndeling" />
	</node>
	<node id="-481979" lat="60.6888382757" lon="5.6424661577">
		<tag k="name" v="Heimvika" />
		<tag k="ssr:date" v="2019-05-30" />
		<tag k="ssr:gruppe" v="veg" />
		<tag k="ssr:hovedgruppe" v="infrastruktur" />
		<tag k="ssr:stedsnr" v="1039663" />
		<tag k="ssr:type" v="adressenavn" />
	</node>
</osm>
