<?xml version="1.0" encoding="UTF-8"?>
<osm version="0.6" generator="osmapis">
	<node lat="60.794236112041986" lon="5.247647227192919" id="-74611">
		<tag k="fixme" v="consider seamark:type=rock or natural=shoal" />
		<tag k="name" v="Kjetteskjeret" />
		<tag k="place" v="islet" />
		<tag k="ssr:stedsnr" v="8693" />
	</node>
	<node lat="60.87386111006357" lon="5.3607638949753" id="-74794">
		<tag k="name" v="Stallane" />
		<tag k="natural" v="cape" />
		<tag k="ssr:stedsnr" v="129504" />
	</node>
	<node lat="60.748113395817875" lon="5.386241953280221" id="-74824">
		<tag k="name" v="Hola" />
		<tag k="natural" v="bay" />
		<tag k="ssr:stedsnr" v="165163" />
	</node>
	<node lat="60.7412655542714" lon="5.388904115782575" id="-75031">
		<tag k="name" v="Åbakkevika" />
		<tag k="natural" v="bay" />
		<tag k="ssr:stedsnr" v="347170" />
	</node>
	<node lat="60.877755554750586" lon="5.378024999628374" id="-75034">
		<tag k="name" v="Hatlekråa" />
		<tag k="natural" v="bay" />
		<tag k="ssr:stedsnr" v="357198" />
	</node>
	<node lat="60.75050555927507" lon="5.347141662110739" id="-75055">
		<tag k="name" v="Vikane" />
		<tag k="natural" v="bay" />
		<tag k="ssr:stedsnr" v="372950" />
	</node>
	<node lat="60.796894448160984" lon="5.17267500860291" id="-75398">
		<tag k="name" v="Breiflua" />
		<tag k="natural" v="shoal" />
		<tag k="place" v="locality" />
		<tag k="ssr:stedsnr" v="615605" />
	</node>
	<node lat="60.75011389316372" lon="5.328766665541378" id="-75476">
		<tag k="name" v="Årvikflua" />
		<tag k="natural" v="shoal" />
		<tag k="place" v="locality" />
		<tag k="ssr:stedsnr" v="693883" />
	</node>
	<node lat="60.794113890302306" lon="5.266638897803729" id="-75489">
		<tag k="name" v="Areklettgrunnen" />
		<tag k="natural" v="shoal" />
		<tag k="place" v="locality" />
		<tag k="ssr:stedsnr" v="736676" />
	</node>
	<node lat="60.84161944137688" lon="5.152591670475443" id="-75525">
		<tag k="name" v="Skvitneset" />
		<tag k="natural" v="cape" />
		<tag k="ssr:stedsnr" v="754669" />
	</node>
	<node lat="60.82908611223718" lon="5.216366661672679" id="-75590">
		<tag k="name" v="Svartevika" />
		<tag k="natural" v="bay" />
		<tag k="ssr:stedsnr" v="813620" />
	</node>
	<node lat="60.783719447081495" lon="5.280852778972327" id="-75702">
		<tag k="name" v="Storleitbenken" />
		<tag k="natural" v="cape" />
		<tag k="ssr:stedsnr" v="935166" />
	</node>
	<node lat="60.71742222260689" lon="5.402583341663729" id="-75761">
		<tag k="name" v="Raudberget" />
		<tag k="natural" v="cape" />
		<tag k="ssr:stedsnr" v="954246" />
	</node>
	<node lat="60.89842499581851" lon="5.501813881893692" id="-75849">
		<tag k="name" v="Grimnes" />
		<tag k="natural" v="cape" />
		<tag k="ssr:stedsnr" v="54413" />
	</node>
	<node lat="60.85311666390781" lon="5.340780546784373" id="-75930">
		<tag k="name" v="Nesvika" />
		<tag k="natural" v="bay" />
		<tag k="ssr:stedsnr" v="117556" />
	</node>
	<node lat="60.88679722563594" lon="5.487413887716563" id="-76130">
		<tag k="name" v="Sundenes" />
		<tag k="natural" v="cape" />
		<tag k="ssr:stedsnr" v="297401" />
	</node>
	<node lat="60.826791663024956" lon="5.226980556788071" id="-76164">
		<tag k="name" v="Baldersvågen" />
		<tag k="natural" v="bay" />
		<tag k="ssr:stedsnr" v="312586" />
	</node>
	<node lat="60.82833611489509" lon="5.26465555588353" id="-76222">
		<tag k="name" v="Hamneneset" />
		<tag k="natural" v="cape" />
		<tag k="ssr:stedsnr" v="328647" />
	</node>
	<node lat="60.80275000105395" lon="5.268100003172762" id="-76342">
		<tag k="name" v="Raudberget" />
		<tag k="natural" v="cape" />
		<tag k="ssr:stedsnr" v="433936" />
	</node>
	<node lat="60.81604444045709" lon="5.203922223195011" id="-76540">
		<tag k="name" v="Skrubbholmen" />
		<tag k="place" v="islet" />
		<tag k="ssr:stedsnr" v="570153" />
	</node>
	<node lat="60.83760555308913" lon="5.209944450460684" id="-76541">
		<tag k="name" v="Fagrevikbukta" />
		<tag k="natural" v="bay" />
		<tag k="ssr:stedsnr" v="570592" />
	</node>
	<node lat="60.80730833083949" lon="5.236361104257225" id="-76588">
		<tag k="name" v="Herøyosen" />
		<tag k="natural" v="strait" />
		<tag k="ssr:stedsnr" v="615935" />
	</node>
	<node lat="60.778413887224715" lon="5.276247214154058" id="-76644">
		<tag k="name" v="Jetmundshammaren" />
		<tag k="natural" v="cape" />
		<tag k="ssr:stedsnr" v="631966" />
	</node>
	<node lat="60.85123332896723" lon="5.342983331154677" id="-76779">
		<tag k="name" v="Lauvvikneset" />
		<tag k="natural" v="cape" />
		<tag k="ssr:stedsnr" v="797959" />
	</node>
	<node lat="60.81499722547171" lon="5.147069447634777" id="-76929">
		<tag k="fixme" v="consider seamark:type=rock or natural=shoal" />
		<tag k="name" v="Krabbeskjeret" />
		<tag k="place" v="islet" />
		<tag k="ssr:stedsnr" v="874960" />
	</node>
	<node lat="60.72910653971096" lon="5.383307505547483" id="-76941">
		<tag k="name" v="Melshovdneset" />
		<tag k="natural" v="cape" />
		<tag k="ssr:stedsnr" v="1072201" />
	</node>
</osm>
