<?xml version="1.0" encoding="UTF-8"?>
<osm version="0.6" generator="osmapis">
	<node lat="60.74579999580723" lon="5.469483325691052" id="-74604">
		<tag k="name" v="Botnane" />
		<tag k="natural" v="valley" />
		<tag k="place" v="locality" />
		<tag k="ssr:stedsnr" v="6490" />
	</node>
	<node lat="60.92575833588152" lon="5.801469436186689" id="-74605">
		<tag k="name" v="Svartehola" />
		<tag k="natural" v="valley" />
		<tag k="place" v="locality" />
		<tag k="ssr:stedsnr" v="8296" />
	</node>
	<node lat="60.82350555448761" lon="5.5138861054339605" id="-74608">
		<tag k="fixme" v="consider natural=peak for the most distinct mountains in the district" />
		<tag k="name" v="Nipa" />
		<tag k="natural" v="hill" />
		<tag k="place" v="locality" />
		<tag k="ssr:stedsnr" v="8422" />
	</node>
	<node lat="60.91425277911917" lon="5.6848250015573845" id="-74609">
		<tag k="name" v="Stølsbotnen" />
		<tag k="natural" v="valley" />
		<tag k="place" v="locality" />
		<tag k="ssr:stedsnr" v="8399" />
	</node>
	<node lat="60.9261611091558" lon="5.288586116226977" id="-74615">
		<tag k="name" v="Svartetjørnskaret" />
		<tag k="natural" v="valley" />
		<tag k="place" v="locality" />
		<tag k="ssr:stedsnr" v="8901" />
	</node>
	<node lat="60.7989555578578" lon="5.319988880434752" id="-74668">
		<tag k="name" v="Sandnestræet" />
		<tag k="place" v="locality" />
		<tag k="ssr:stedsnr" v="25173" />
	</node>
	<node lat="60.95236944639864" lon="5.7745750064587105" id="-74680">
		<tag k="name" v="Gygrebotnen" />
		<tag k="natural" v="valley" />
		<tag k="place" v="locality" />
		<tag k="ssr:stedsnr" v="69285" />
	</node>
	<node lat="60.92637777515128" lon="5.475991675331859" id="-74682">
		<tag k="name" v="Håregilet" />
		<tag k="natural" v="valley" />
		<tag k="place" v="locality" />
		<tag k="ssr:stedsnr" v="69298" />
	</node>
	<node lat="60.92924999832634" lon="5.5244833304382235" id="-74683">
		<tag k="name" v="Smulmeshaugane" />
		<tag k="natural" v="hill" />
		<tag k="place" v="locality" />
		<tag k="ssr:stedsnr" v="69300" />
	</node>
	<node lat="60.72844721828196" lon="5.4838694515783235" id="-74723">
		<tag k="name" v="Båtevassdalen" />
		<tag k="natural" v="valley" />
		<tag k="place" v="locality" />
		<tag k="ssr:stedsnr" v="248287" />
	</node>
	<node lat="60.8867944479883" lon="5.673625007735308" id="-74741">
		<tag k="fixme" v="consider natural=peak for the most distinct mountains in the district" />
		<tag k="name" v="Brattgilfjellet" />
		<tag k="natural" v="hill" />
		<tag k="place" v="locality" />
		<tag k="ssr:stedsnr" v="251368" />
	</node>
	<node lat="60.8041250011495" lon="5.563505554152016" id="-74747">
		<tag k="fixme" v="consider natural=peak for the most distinct mountains in the district" />
		<tag k="name" v="Storevarden" />
		<tag k="natural" v="hill" />
		<tag k="place" v="locality" />
		<tag k="ssr:stedsnr" v="251515" />
	</node>
	<node lat="60.80344722233818" lon="5.470455556918953" id="-74748">
		<tag k="name" v="Grasdalen" />
		<tag k="natural" v="valley" />
		<tag k="place" v="locality" />
		<tag k="ssr:stedsnr" v="251517" />
	</node>
	<node lat="60.92841110727675" lon="5.311055551404706" id="-74774">
		<tag k="alt_name" v="Gullifjellet" />
		<tag k="fixme" v="consider natural=peak for the most distinct mountains in the district" />
		<tag k="name" v="Gulelifjellet" />
		<tag k="natural" v="hill" />
		<tag k="place" v="locality" />
		<tag k="ssr:stedsnr" v="251881" />
	</node>
	<node lat="60.935108329841505" lon="5.29934999903229" id="-74775">
		<tag k="name" v="Transdalen" />
		<tag k="natural" v="valley" />
		<tag k="place" v="locality" />
		<tag k="ssr:stedsnr" v="251882" />
	</node>
	<node lat="60.89329444763395" lon="5.41505000482285" id="-74783">
		<tag k="fixme" v="consider natural=peak for the most distinct mountains in the district" />
		<tag k="name" v="Litlefjellet" />
		<tag k="natural" v="hill" />
		<tag k="place" v="locality" />
		<tag k="ssr:stedsnr" v="251963" />
	</node>
	<node lat="60.83888333532903" lon="5.522263885402856" id="-74792">
		<tag k="fixme" v="consider natural=peak for the most distinct mountains in the district" />
		<tag k="name" v="Hestfjellet" />
		<tag k="natural" v="hill" />
		<tag k="place" v="locality" />
		<tag k="ssr:stedsnr" v="129413" />
	</node>
	<node lat="60.92189999956338" lon="5.23286110954571" id="-74795">
		<tag k="name" v="Grindebotnen" />
		<tag k="natural" v="valley" />
		<tag k="place" v="locality" />
		<tag k="ssr:stedsnr" v="129903" />
	</node>
	<node lat="60.86484166825823" lon="5.14438888275271" id="-74797">
		<tag k="alt_name" v="Vestrelifjellet" />
		<tag k="fixme" v="consider natural=peak for the most distinct mountains in the district" />
		<tag k="name" v="Svelikulten" />
		<tag k="natural" v="hill" />
		<tag k="place" v="locality" />
		<tag k="ssr:stedsnr" v="129983" />
	</node>
	<node lat="60.88161388853456" lon="5.400686116402062" id="-74799">
		<tag k="name" v="Eikemodalen" />
		<tag k="natural" v="valley" />
		<tag k="place" v="locality" />
		<tag k="ssr:stedsnr" v="129994" />
	</node>
	<node lat="60.935911108149675" lon="5.563797213440323" id="-74800">
		<tag k="fixme" v="consider natural=peak for the most distinct mountains in the district" />
		<tag k="name" v="Kupa" />
		<tag k="natural" v="hill" />
		<tag k="place" v="locality" />
		<tag k="ssr:stedsnr" v="130230" />
	</node>
	<node lat="60.89465555300574" lon="5.589619443340122" id="-74803">
		<tag k="alt_name" v="Slottefjellet" />
		<tag k="fixme" v="consider natural=peak for the most distinct mountains in the district" />
		<tag k="name" v="Matresfjellet" />
		<tag k="natural" v="hill" />
		<tag k="place" v="locality" />
		<tag k="ssr:stedsnr" v="130323" />
	</node>
	<node lat="60.852341669336205" lon="5.250902782673007" id="-74805">
		<tag k="name" v="Bjørnestigfjellet" />
		<tag k="natural" v="hill" />
		<tag k="place" v="locality" />
		<tag k="ssr:stedsnr" v="130494" />
	</node>
	<node lat="60.74828055350732" lon="5.431819448399209" id="-74828">
		<tag k="fixme" v="consider natural=peak for the most distinct mountains in the district" />
		<tag k="name" v="Nutefjellet" />
		<tag k="natural" v="hill" />
		<tag k="place" v="locality" />
		<tag k="ssr:stedsnr" v="188708" />
	</node>
	<node lat="60.842986108211434" lon="5.40027500006031" id="-74842">
		<tag k="fixme" v="consider natural=peak for the most distinct mountains in the district" />
		<tag k="name" v="Tverrfjellet" />
		<tag k="natural" v="hill" />
		<tag k="place" v="locality" />
		<tag k="ssr:stedsnr" v="190571" />
	</node>
	<node lat="60.90853610668512" lon="5.195863889992771" id="-74845">
		<tag k="fixme" v="consider natural=peak for the most distinct mountains in the district" />
		<tag k="name" v="Storenova" />
		<tag k="natural" v="hill" />
		<tag k="place" v="locality" />
		<tag k="ssr:stedsnr" v="190959" />
	</node>
	<node lat="60.75617777499254" lon="5.459052777893199" id="-74854">
		<tag k="fixme" v="consider natural=peak for the most distinct mountains in the district" />
		<tag k="name" v="Klefjellet" />
		<tag k="natural" v="hill" />
		<tag k="place" v="locality" />
		<tag k="ssr:stedsnr" v="191667" />
	</node>
	<node lat="60.80063055855869" lon="5.265202772728676" id="-74980">
		<tag k="name" v="Kletten" />
		<tag k="natural" v="hill" />
		<tag k="place" v="locality" />
		<tag k="ssr:stedsnr" v="267138" />
	</node>
	<node lat="60.91730277529006" lon="5.222069445649414" id="-75005">
		<tag k="name" v="Andershaugane" />
		<tag k="natural" v="hill" />
		<tag k="place" v="locality" />
		<tag k="ssr:stedsnr" v="312872" />
	</node>
	<node lat="60.72582777575538" lon="5.471927783457837" id="-75030">
		<tag k="name" v="Gråsida" />
		<tag k="natural" v="slope" />
		<tag k="place" v="locality" />
		<tag k="ssr:stedsnr" v="472401" />
	</node>
	<node lat="60.72561111448183" lon="5.488730556848193" id="-75036">
		<tag k="fixme" v="consider natural=peak for the most distinct mountains in the district" />
		<tag k="name" v="Steingardsnipa" />
		<tag k="natural" v="hill" />
		<tag k="place" v="locality" />
		<tag k="ssr:stedsnr" v="370361" />
	</node>
	<node lat="60.73928611126247" lon="5.488102771572898" id="-75037">
		<tag k="alt_name" v="Båtevassfjellet" />
		<tag k="fixme" v="consider natural=peak for the most distinct mountains in the district" />
		<tag k="name" v="Grønestølane" />
		<tag k="natural" v="hill" />
		<tag k="place" v="locality" />
		<tag k="ssr:stedsnr" v="370505" />
	</node>
	<node lat="60.931630554558765" lon="5.637277769723047" id="-75038">
		<tag k="name" v="Smådalane" />
		<tag k="natural" v="valley" />
		<tag k="place" v="locality" />
		<tag k="ssr:stedsnr" v="372268" />
	</node>
	<node lat="60.80703055788799" lon="5.523202772161085" id="-75040">
		<tag k="name" v="Steindalen" />
		<tag k="natural" v="valley" />
		<tag k="place" v="locality" />
		<tag k="ssr:stedsnr" v="372518" />
	</node>
	<node lat="60.83796111259777" lon="5.514741659139937" id="-75056">
		<tag k="fixme" v="consider natural=peak for the most distinct mountains in the district" />
		<tag k="name" v="Åsen" />
		<tag k="natural" v="hill" />
		<tag k="place" v="locality" />
		<tag k="ssr:stedsnr" v="372956" />
	</node>
	<node lat="60.919538889817034" lon="5.260336117902596" id="-75094">
		<tag k="name" v="Holmane" />
		<tag k="place" v="locality" />
		<tag k="ssr:stedsnr" v="494878" />
	</node>
	<node lat="60.95319166351825" lon="5.65334723025527" id="-75103">
		<tag k="name" v="Mosedalen" />
		<tag k="natural" v="valley" />
		<tag k="place" v="locality" />
		<tag k="ssr:stedsnr" v="433282" />
	</node>
	<node lat="60.961691665260446" lon="5.638516661674803" id="-75110">
		<tag k="fixme" v="consider natural=peak for the most distinct mountains in the district" />
		<tag k="name" v="Bjørnshiklanten" />
		<tag k="natural" v="hill" />
		<tag k="place" v="locality" />
		<tag k="ssr:stedsnr" v="493294" />
	</node>
	<node lat="60.84907221794527" lon="5.330541671880658" id="-75112">
		<tag k="name" v="Lauvvikdalen" />
		<tag k="natural" v="valley" />
		<tag k="place" v="locality" />
		<tag k="ssr:stedsnr" v="493547" />
	</node>
	<node lat="60.808475002304284" lon="5.260238891731217" id="-75159">
		<tag k="name" v="Åsen" />
		<tag k="natural" v="hill" />
		<tag k="place" v="locality" />
		<tag k="ssr:stedsnr" v="449181" />
	</node>
	<node lat="60.8910500009225" lon="5.668994441459387" id="-75172">
		<tag k="name" v="Gilen" />
		<tag k="natural" v="valley" />
		<tag k="place" v="locality" />
		<tag k="ssr:stedsnr" v="676341" />
	</node>
	<node lat="60.9310194438985" lon="5.733250003210492" id="-75177">
		<tag k="name" v="Fagerdalen" />
		<tag k="natural" v="valley" />
		<tag k="place" v="locality" />
		<tag k="ssr:stedsnr" v="676251" />
	</node>
	<node lat="60.94309166259268" lon="5.5734222141328695" id="-75179">
		<tag k="fixme" v="consider natural=peak for the most distinct mountains in the district" />
		<tag k="name" v="Dukefjellet" />
		<tag k="natural" v="hill" />
		<tag k="place" v="locality" />
		<tag k="ssr:stedsnr" v="676263" />
	</node>
	<node lat="60.96271110976151" lon="5.664288891406926" id="-75180">
		<tag k="fixme" v="consider natural=peak for the most distinct mountains in the district" />
		<tag k="name" v="Ulvedalseggene" />
		<tag k="natural" v="hill" />
		<tag k="place" v="locality" />
		<tag k="ssr:stedsnr" v="676276" />
	</node>
	<node lat="60.90939444169625" lon="5.688927782590823" id="-75185">
		<tag k="fixme" v="consider natural=peak for the most distinct mountains in the district" />
		<tag k="name" v="Nipetinden" />
		<tag k="natural" v="hill" />
		<tag k="place" v="locality" />
		<tag k="ssr:stedsnr" v="676348" />
	</node>
	<node lat="60.78887499738098" lon="5.408791668040704" id="-75201">
		<tag k="name" v="Øvredalen" />
		<tag k="natural" v="valley" />
		<tag k="place" v="locality" />
		<tag k="ssr:stedsnr" v="676653" />
	</node>
	<node lat="60.81611389133075" lon="5.589783326810691" id="-75208">
		<tag k="fixme" v="consider natural=peak for the most distinct mountains in the district" />
		<tag k="name" v="Høgefjellet" />
		<tag k="natural" v="hill" />
		<tag k="place" v="locality" />
		<tag k="ssr:stedsnr" v="676952" />
	</node>
	<node lat="60.85633888723165" lon="5.561855553491717" id="-75217">
		<tag k="fixme" v="consider natural=peak for the most distinct mountains in the district" />
		<tag k="name" v="Trysdalsnipa" />
		<tag k="natural" v="hill" />
		<tag k="place" v="locality" />
		<tag k="ssr:stedsnr" v="493406" />
	</node>
	<node lat="60.941791662755904" lon="5.287802781301298" id="-75222">
		<tag k="name" v="Nyliklantane" />
		<tag k="natural" v="slope" />
		<tag k="place" v="locality" />
		<tag k="ssr:stedsnr" v="493874" />
	</node>
	<node lat="60.804000000704846" lon="5.477933331172878" id="-75227">
		<tag k="fixme" v="consider natural=peak for the most distinct mountains in the district" />
		<tag k="name" v="Austrefjellet" />
		<tag k="natural" v="hill" />
		<tag k="place" v="locality" />
		<tag k="ssr:stedsnr" v="494460" />
	</node>
	<node lat="60.87314999586039" lon="5.333563892416983" id="-75228">
		<tag k="name" v="Botnen" />
		<tag k="natural" v="valley" />
		<tag k="place" v="locality" />
		<tag k="ssr:stedsnr" v="494478" />
	</node>
	<node lat="60.910875002653654" lon="5.550163886937138" id="-75277">
		<tag k="name" v="Nordgilen" />
		<tag k="natural" v="valley" />
		<tag k="place" v="locality" />
		<tag k="ssr:stedsnr" v="554378" />
	</node>
	<node lat="60.929802780229345" lon="5.473213886534674" id="-75381">
		<tag k="fixme" v="consider natural=peak for the most distinct mountains in the district" />
		<tag k="name" v="Geirsvadklumpen" />
		<tag k="natural" v="hill" />
		<tag k="place" v="locality" />
		<tag k="ssr:stedsnr" v="615250" />
	</node>
	<node lat="60.89699444683389" lon="5.690805554035999" id="-75388">
		<tag k="name" v="Klendalen" />
		<tag k="natural" v="valley" />
		<tag k="place" v="locality" />
		<tag k="ssr:stedsnr" v="615327" />
	</node>
	<node lat="60.81635277577945" lon="5.543850000443678" id="-75391">
		<tag k="name" v="Molddalen" />
		<tag k="natural" v="valley" />
		<tag k="place" v="locality" />
		<tag k="ssr:stedsnr" v="615350" />
	</node>
	<node lat="60.873180559958826" lon="5.334736115186741" id="-75396">
		<tag k="name" v="Merkesgjelet" />
		<tag k="natural" v="gorge" />
		<tag k="ssr:stedsnr" v="615492" />
	</node>
	<node lat="60.87747500268325" lon="5.291005558827957" id="-75454">
		<tag k="fixme" v="consider natural=peak for the most distinct mountains in the district" />
		<tag k="name" v="Tausefjellet" />
		<tag k="natural" v="hill" />
		<tag k="place" v="locality" />
		<tag k="ssr:stedsnr" v="676988" />
	</node>
	<node lat="60.9680472184119" lon="5.720558333056754" id="-75477">
		<tag k="fixme" v="consider natural=peak for the most distinct mountains in the district" />
		<tag k="name" v="Dyrliholten" />
		<tag k="natural" v="hill" />
		<tag k="place" v="locality" />
		<tag k="ssr:stedsnr" v="700614" />
	</node>
	<node lat="60.857424997647385" lon="5.5877749975970294" id="-75499">
		<tag k="fixme" v="consider natural=peak for the most distinct mountains in the district" />
		<tag k="name" v="Kletten" />
		<tag k="natural" v="hill" />
		<tag k="place" v="locality" />
		<tag k="ssr:stedsnr" v="737404" />
	</node>
	<node lat="60.86349444030424" lon="5.31572499407637" id="-75529">
		<tag k="name" v="Trolldalen" />
		<tag k="natural" v="valley" />
		<tag k="place" v="locality" />
		<tag k="ssr:stedsnr" v="797511" />
	</node>
	<node lat="60.977158329399394" lon="5.620572223635769" id="-75533">
		<tag k="name" v="Porten" />
		<tag k="place" v="locality" />
		<tag k="ssr:stedsnr" v="797298" />
	</node>
	<node lat="60.7758055552973" lon="5.407408338962091" id="-75537">
		<tag k="fixme" v="consider natural=peak for the most distinct mountains in the district" />
		<tag k="name" v="Bergdropen" />
		<tag k="natural" v="hill" />
		<tag k="place" v="locality" />
		<tag k="ssr:stedsnr" v="797710" />
	</node>
	<node lat="60.80416666794986" lon="5.382750005819409" id="-75541">
		<tag k="name" v="Andvikedalen" />
		<tag k="natural" v="valley" />
		<tag k="place" v="locality" />
		<tag k="ssr:stedsnr" v="797649" />
	</node>
	<node lat="60.853991662414565" lon="5.288644448243784" id="-75547">
		<tag k="name" v="Breidskardet" />
		<tag k="natural" v="valley" />
		<tag k="place" v="locality" />
		<tag k="ssr:stedsnr" v="798501" />
	</node>
	<node lat="60.86703889074026" lon="5.681799998925596" id="-75586">
		<tag k="name" v="Kvitevassdalen" />
		<tag k="natural" v="valley" />
		<tag k="place" v="locality" />
		<tag k="ssr:stedsnr" v="918490" />
	</node>
	<node lat="60.911947222040254" lon="5.24000277697887" id="-75608">
		<tag k="fixme" v="consider natural=peak for the most distinct mountains in the district" />
		<tag k="name" v="Nordgardsleinane" />
		<tag k="natural" v="hill" />
		<tag k="place" v="locality" />
		<tag k="ssr:stedsnr" v="919877" />
	</node>
	<node lat="60.719561107591126" lon="5.461566661775201" id="-75610">
		<tag k="name" v="Urdalen" />
		<tag k="natural" v="valley" />
		<tag k="place" v="locality" />
		<tag k="ssr:stedsnr" v="837427" />
	</node>
	<node lat="60.94730000068672" lon="5.626808324309514" id="-75618">
		<tag k="fixme" v="consider natural=peak for the most distinct mountains in the district" />
		<tag k="name" v="Vardane" />
		<tag k="natural" v="hill" />
		<tag k="place" v="locality" />
		<tag k="ssr:stedsnr" v="858279" />
	</node>
	<node lat="60.94067499999469" lon="5.309288883156362" id="-75625">
		<tag k="fixme" v="consider natural=peak for the most distinct mountains in the district" />
		<tag k="name" v="Middagsfjellet" />
		<tag k="natural" v="hill" />
		<tag k="place" v="locality" />
		<tag k="ssr:stedsnr" v="858869" />
	</node>
	<node lat="60.84821666275437" lon="5.672227783512825" id="-75703">
		<tag k="name" v="Bjørnahiet" />
		<tag k="place" v="locality" />
		<tag k="ssr:stedsnr" v="894021" />
	</node>
	<node lat="60.88666666248292" lon="5.758850007739606" id="-75716">
		<tag k="name" v="Storevassdalen" />
		<tag k="natural" v="valley" />
		<tag k="place" v="locality" />
		<tag k="ssr:stedsnr" v="919308" />
	</node>
	<node lat="60.92227777854486" lon="5.729641670982813" id="-75718">
		<tag k="fixme" v="consider natural=peak for the most distinct mountains in the district" />
		<tag k="name" v="Salen" />
		<tag k="natural" v="hill" />
		<tag k="place" v="locality" />
		<tag k="ssr:stedsnr" v="919363" />
	</node>
	<node lat="60.886327777444656" lon="5.201719452388382" id="-75782">
		<tag k="fixme" v="consider natural=peak for the most distinct mountains in the district" />
		<tag k="name" v="Hesthovden" />
		<tag k="natural" v="hill" />
		<tag k="place" v="locality" />
		<tag k="ssr:stedsnr" v="8949" />
	</node>
	<node lat="60.82361389234289" lon="5.537488891661179" id="-75783">
		<tag k="fixme" v="consider natural=peak for the most distinct mountains in the district" />
		<tag k="name" v="Husefjellet" />
		<tag k="natural" v="hill" />
		<tag k="place" v="locality" />
		<tag k="ssr:stedsnr" v="8953" />
	</node>
	<node lat="60.81386666590435" lon="5.513336114155624" id="-75801">
		<tag k="fixme" v="consider natural=peak for the most distinct mountains in the district" />
		<tag k="name" v="Furlifjellet" />
		<tag k="natural" v="hill" />
		<tag k="place" v="locality" />
		<tag k="ssr:stedsnr" v="9362" />
	</node>
	<node lat="60.847711108587625" lon="5.255994442803917" id="-75802">
		<tag k="name" v="Heiane" />
		<tag k="place" v="locality" />
		<tag k="ssr:stedsnr" v="9539" />
	</node>
	<node lat="60.82195555179716" lon="5.613725008012811" id="-75845">
		<tag k="name" v="Steinareset" />
		<tag k="natural" v="hill" />
		<tag k="place" v="locality" />
		<tag k="ssr:stedsnr" v="45048" />
	</node>
	<node lat="60.89986389022722" lon="5.467155552185728" id="-75873">
		<tag k="fixme" v="consider natural=peak for the most distinct mountains in the district" />
		<tag k="name" v="Åsen" />
		<tag k="natural" v="hill" />
		<tag k="place" v="locality" />
		<tag k="ssr:stedsnr" v="69958" />
	</node>
	<node lat="60.90929166540102" lon="5.387855550490585" id="-75875">
		<tag k="name" v="Vardebotnen" />
		<tag k="natural" v="valley" />
		<tag k="place" v="locality" />
		<tag k="ssr:stedsnr" v="69962" />
	</node>
	<node lat="60.93042500388822" lon="5.558388890062136" id="-75939">
		<tag k="name" v="Buleitegilet" />
		<tag k="natural" v="valley" />
		<tag k="place" v="locality" />
		<tag k="ssr:stedsnr" v="130258" />
	</node>
	<node lat="60.84512221860155" lon="5.4001027708881235" id="-75945">
		<tag k="name" v="Nipene" />
		<tag k="natural" v="hill" />
		<tag k="place" v="locality" />
		<tag k="ssr:stedsnr" v="129566" />
	</node>
	<node lat="60.82988333383797" lon="5.476908329923004" id="-75974">
		<tag k="name" v="Trolldalen" />
		<tag k="natural" v="valley" />
		<tag k="place" v="locality" />
		<tag k="ssr:stedsnr" v="130943" />
	</node>
	<node lat="60.725671367913264" lon="5.488057123874777" id="-76042">
		<tag k="name" v="Steingardsnipa" />
		<tag k="natural" v="hill" />
		<tag k="place" v="locality" />
		<tag k="ssr:stedsnr" v="169424" />
	</node>
	<node lat="60.843777781021224" lon="5.323058327676309" id="-76048">
		<tag k="fixme" v="consider natural=peak for the most distinct mountains in the district" />
		<tag k="name" v="Heiane" />
		<tag k="natural" v="hill" />
		<tag k="place" v="locality" />
		<tag k="ssr:stedsnr" v="190548" />
	</node>
	<node lat="60.9359638881462" lon="5.54519166844694" id="-76053">
		<tag k="fixme" v="consider natural=peak for the most distinct mountains in the district" />
		<tag k="name" v="Grønefjellet" />
		<tag k="natural" v="hill" />
		<tag k="place" v="locality" />
		<tag k="ssr:stedsnr" v="190293" />
	</node>
	<node lat="60.812394445852775" lon="5.408416666586848" id="-76078">
		<tag k="fixme" v="consider natural=peak for the most distinct mountains in the district" />
		<tag k="name" v="Ådneburen" />
		<tag k="natural" v="hill" />
		<tag k="place" v="locality" />
		<tag k="ssr:stedsnr" v="191584" />
	</node>
	<node lat="60.91952222302666" lon="5.242783339816477" id="-76082">
		<tag k="fixme" v="consider natural=peak for the most distinct mountains in the district" />
		<tag k="name" v="Bakkeleinane" />
		<tag k="natural" v="hill" />
		<tag k="place" v="locality" />
		<tag k="ssr:stedsnr" v="191845" />
	</node>
	<node lat="60.91223989714358" lon="5.364357684504506" id="-76139">
		<tag k="fixme" v="consider natural=peak for the most distinct mountains in the district" />
		<tag k="name" v="Vardebrekka" />
		<tag k="natural" v="hill" />
		<tag k="place" v="locality" />
		<tag k="ssr:stedsnr" v="311939" />
	</node>
	<node lat="60.85817221848837" lon="5.139963887211446" id="-76146">
		<tag k="fixme" v="consider natural=peak for the most distinct mountains in the district" />
		<tag k="name" v="Vardefjellet" />
		<tag k="natural" v="hill" />
		<tag k="place" v="locality" />
		<tag k="ssr:stedsnr" v="312500" />
	</node>
	<node lat="60.81436388914239" lon="5.527300003961444" id="-76154">
		<tag k="fixme" v="consider natural=peak for the most distinct mountains in the district" />
		<tag k="name" v="Tverrfjellet" />
		<tag k="natural" v="hill" />
		<tag k="place" v="locality" />
		<tag k="ssr:stedsnr" v="312356" />
	</node>
	<node lat="60.83373670916426" lon="5.39794277041803" id="-76195">
		<tag k="alt_name" v="Klettane" />
		<tag k="fixme" v="consider natural=peak for the most distinct mountains in the district" />
		<tag k="name" v="Litlefjellet" />
		<tag k="natural" v="hill" />
		<tag k="place" v="locality" />
		<tag k="ssr:stedsnr" v="324456" />
	</node>
	<node lat="60.76315833144744" lon="5.487941672671238" id="-76223">
		<tag k="name" v="Orfallet" />
		<tag k="place" v="locality" />
		<tag k="ssr:stedsnr" v="348845" />
	</node>
	<node lat="60.96213888973217" lon="5.777669438025759" id="-76233">
		<tag k="fixme" v="consider natural=peak for the most distinct mountains in the district" />
		<tag k="name" v="Gygrefjellet" />
		<tag k="natural" v="hill" />
		<tag k="place" v="locality" />
		<tag k="ssr:stedsnr" v="372317" />
	</node>
	<node lat="60.82279444909438" lon="5.5020750083451935" id="-76245">
		<tag k="fixme" v="consider natural=peak for the most distinct mountains in the district" />
		<tag k="name" v="Skarpefjellet" />
		<tag k="natural" v="hill" />
		<tag k="place" v="locality" />
		<tag k="ssr:stedsnr" v="372414" />
	</node>
	<node lat="60.81254444090052" lon="5.598019439341662" id="-76318">
		<tag k="name" v="Høgefjelldalen" />
		<tag k="natural" v="valley" />
		<tag k="place" v="locality" />
		<tag k="ssr:stedsnr" v="433358" />
	</node>
	<node lat="60.924244448695774" lon="5.258566665543573" id="-76339">
		<tag k="name" v="Gulateigen" />
		<tag k="place" v="locality" />
		<tag k="ssr:stedsnr" v="433900" />
	</node>
	<node lat="60.78397970513479" lon="5.485089790372081" id="-76352">
		<tag k="fixme" v="consider natural=peak for the most distinct mountains in the district" />
		<tag k="name" v="Horga" />
		<tag k="natural" v="hill" />
		<tag k="place" v="locality" />
		<tag k="ssr:stedsnr" v="434435" />
	</node>
	<node lat="60.805435292478286" lon="5.563333011193007" id="-76353">
		<tag k="fixme" v="consider natural=peak for the most distinct mountains in the district" />
		<tag k="name" v="Storefjellet" />
		<tag k="natural" v="hill" />
		<tag k="place" v="locality" />
		<tag k="ssr:stedsnr" v="434444" />
	</node>
	<node lat="60.88519444201794" lon="5.531994444616938" id="-76464">
		<tag k="name" v="Trodalsleitet" />
		<tag k="natural" v="valley" />
		<tag k="place" v="locality" />
		<tag k="ssr:stedsnr" v="554358" />
	</node>
	<node lat="60.900175003732265" lon="5.6983527785892925" id="-76467">
		<tag k="fixme" v="consider natural=peak for the most distinct mountains in the district" />
		<tag k="name" v="Litlefjellet" />
		<tag k="natural" v="hill" />
		<tag k="place" v="locality" />
		<tag k="ssr:stedsnr" v="554371" />
	</node>
	<node lat="60.934469443257065" lon="5.752544446781766" id="-76469">
		<tag k="name" v="Vierbotnen" />
		<tag k="natural" v="valley" />
		<tag k="place" v="locality" />
		<tag k="ssr:stedsnr" v="554268" />
	</node>
	<node lat="60.775477781045275" lon="5.305769441774897" id="-76592">
		<tag k="fixme" v="consider natural=peak for the most distinct mountains in the district" />
		<tag k="name" v="Kvamsfjellet" />
		<tag k="natural" v="hill" />
		<tag k="place" v="locality" />
		<tag k="ssr:stedsnr" v="615944" />
	</node>
	<node lat="60.86178610698739" lon="5.319294444179037" id="-76593">
		<tag k="name" v="Såta" />
		<tag k="natural" v="hill" />
		<tag k="place" v="locality" />
		<tag k="ssr:stedsnr" v="615960" />
	</node>
	<node lat="60.91953333702174" lon="5.7633472193485895" id="-76641">
		<tag k="name" v="Stølsheimen" />
		<tag k="natural" v="mountain_range" />
		<tag k="ssr:stedsnr" v="631207" />
	</node>
	<node lat="60.72767222200846" lon="5.473141662685397" id="-76656">
		<tag k="name" v="Rundehøyen" />
		<tag k="natural" v="hill" />
		<tag k="place" v="locality" />
		<tag k="ssr:stedsnr" v="715447" />
	</node>
	<node lat="60.88780277665364" lon="5.6411555557201725" id="-76673">
		<tag k="fixme" v="consider natural=peak for the most distinct mountains in the district" />
		<tag k="name" v="Gråsida" />
		<tag k="natural" v="hill" />
		<tag k="place" v="locality" />
		<tag k="ssr:stedsnr" v="736946" />
	</node>
	<node lat="60.94372777751741" lon="5.74373333771225" id="-76786">
		<tag k="fixme" v="consider natural=peak for the most distinct mountains in the district" />
		<tag k="name" v="Røyrdalsfjellet" />
		<tag k="natural" v="hill" />
		<tag k="place" v="locality" />
		<tag k="ssr:stedsnr" v="797264" />
	</node>
	<node lat="60.95600833033202" lon="5.63618056067658" id="-76789">
		<tag k="name" v="Bjørnshidalen" />
		<tag k="natural" v="valley" />
		<tag k="place" v="locality" />
		<tag k="ssr:stedsnr" v="797288" />
	</node>
	<node lat="60.88785278129688" lon="5.164205559906644" id="-76809">
		<tag k="fixme" v="consider natural=peak for the most distinct mountains in the district" />
		<tag k="name" v="Hiskletten" />
		<tag k="natural" v="hill" />
		<tag k="place" v="locality" />
		<tag k="ssr:stedsnr" v="797937" />
	</node>
	<node lat="60.78961944143261" lon="5.5002750085745555" id="-76812">
		<tag k="name" v="Hagekupkulten" />
		<tag k="natural" v="hill" />
		<tag k="place" v="locality" />
		<tag k="ssr:stedsnr" v="798440" />
	</node>
	<node lat="60.81298333168577" lon="5.436577778273478" id="-76814">
		<tag k="name" v="Raunebotnen" />
		<tag k="natural" v="valley" />
		<tag k="place" v="locality" />
		<tag k="ssr:stedsnr" v="798589" />
	</node>
	<node lat="60.93652500347534" lon="5.594686103107618" id="-76862">
		<tag k="name" v="Gavlen" />
		<tag k="natural" v="ridge" />
		<tag k="place" v="locality" />
		<tag k="ssr:stedsnr" v="858247" />
	</node>
	<node lat="60.91960555923266" lon="5.296038893225484" id="-76870">
		<tag k="fixme" v="consider natural=peak for the most distinct mountains in the district" />
		<tag k="name" v="Transnuten" />
		<tag k="natural" v="hill" />
		<tag k="place" v="locality" />
		<tag k="ssr:stedsnr" v="858898" />
	</node>
	<node lat="60.859958332993216" lon="5.313641659991089" id="-76885">
		<tag k="name" v="Kupa" />
		<tag k="natural" v="valley" />
		<tag k="place" v="locality" />
		<tag k="ssr:stedsnr" v="858536" />
	</node>
	<node lat="60.917825000471154" lon="5.267719445551536" id="-76892">
		<tag k="fixme" v="consider natural=peak for the most distinct mountains in the district" />
		<tag k="name" v="Tverrfjellet" />
		<tag k="natural" v="hill" />
		<tag k="place" v="locality" />
		<tag k="ssr:stedsnr" v="858955" />
	</node>
	<node lat="60.90833653724692" lon="5.227381276420944" id="-76939">
		<tag k="name" v="Gygra" />
		<tag k="natural" v="gorge" />
		<tag k="ssr:stedsnr" v="1071944" />
	</node>
</osm>
