<?xml version="1.0" encoding="UTF-8"?>
<osm generator="osmapis" version="0.6">
	<node id="-644789" lat="60.8879666631" lon="5.46562777653">
		<tag k="alt_name" v="Solheim" />
		<tag k="amenity" v="place_of_worship" />
		<tag k="denomination" v="lutheran" />
		<tag k="name" v="Solheim kyrkje" />
		<tag k="religion" v="christian" />
		<tag k="ssr:stedsnr" v="433977" />
	</node>
	<node id="-645029" lat="60.8633750013" lon="5.20966665824">
		<tag k="alt_name" v="Frøyset" />
		<tag k="amenity" v="place_of_worship" />
		<tag k="denomination" v="lutheran" />
		<tag k="name" v="Frøyset kyrkje" />
		<tag k="religion" v="christian" />
		<tag k="ssr:stedsnr" v="736492" />
	</node>
	<node id="-644740" lat="60.7845583341" lon="5.28461665941">
		<tag k="name" v="Eika" />
		<tag k="place" v="locality" />
		<tag k="ssr:stedsnr" v="385198" />
	</node>
	<node id="-644099" lat="60.8002180365" lon="5.30275629942">
		<tag k="alt_name" v="Masfjorden" />
		<tag k="amenity" v="place_of_worship" />
		<tag k="denomination" v="lutheran" />
		<tag k="name" v="Sandnes kyrkje" />
		<tag k="religion" v="christian" />
		<tag k="ssr:stedsnr" v="8667" />
	</node>
</osm>
