<?xml version="1.0" encoding="UTF-8"?>
<osm version="0.6" generator="osmapis">
	<node lat="60.94118055258987" lon="5.579430558318703" id="-74681">
		<tag k="historic" v="shieling" />
		<tag k="name" v="Dukestølen" />
		<tag k="place" v="isolated_dwelling" />
		<tag k="ssr:stedsnr" v="69292" />
	</node>
	<node lat="60.83372777497836" lon="5.519274993475974" id="-74831">
		<tag k="name" v="Tverrbjørg" />
		<tag k="place" v="farm" />
		<tag k="ssr:stedsnr" v="190430" />
	</node>
	<node lat="60.954950004655636" lon="5.610350006178612" id="-75104">
		<tag k="historic" v="shieling" />
		<tag k="name" v="Vågsetstølen" />
		<tag k="place" v="isolated_dwelling" />
		<tag k="ssr:stedsnr" v="433293" />
	</node>
	<node lat="60.78728333476907" lon="5.220936108015417" id="-75158">
		<tag k="name" v="Gamlegarden" />
		<tag k="place" v="isolated_dwelling" />
		<tag k="ssr:stedsnr" v="449179" />
	</node>
	<node lat="60.96385833175545" lon="5.749361103467125" id="-75181">
		<tag k="historic" v="shieling" />
		<tag k="name" v="Bukkedalsstølen" />
		<tag k="place" v="isolated_dwelling" />
		<tag k="ssr:stedsnr" v="676283" />
	</node>
	<node lat="60.90773888759834" lon="5.558936112612787" id="-75278">
		<tag k="historic" v="shieling" />
		<tag k="name" v="Trommeluren" />
		<tag k="place" v="isolated_dwelling" />
		<tag k="ssr:stedsnr" v="554380" />
	</node>
	<node lat="60.82948611292576" lon="5.333155555621453" id="-75286">
		<tag k="name" v="Skjerjebu" />
		<tag k="place" v="isolated_dwelling" />
		<tag k="ssr:stedsnr" v="554629" />
	</node>
	<node lat="60.90978889278306" lon="5.464597229726836" id="-75492">
		<tag k="name" v="Nystykket" />
		<tag k="place" v="farm" />
		<tag k="ssr:stedsnr" v="736910" />
	</node>
	<node lat="60.83524166348391" lon="5.258305547399097" id="-75627">
		<tag k="name" v="Hosteland" />
		<tag k="place" v="hamlet" />
		<tag k="ssr:stedsnr" v="858570" />
	</node>
	<node lat="60.951349999245174" lon="5.682755547898402" id="-75765">
		<tag k="name" v="Persstova" />
		<tag k="place" v="isolated_dwelling" />
		<tag k="ssr:stedsnr" v="8323" />
	</node>
	<node lat="60.95058055261897" lon="5.793625005440598" id="-75850">
		<tag k="fixme" v="consider tourism=alpine_hut or tourism=chalet" />
		<tag k="name" v="Fjellvassbu" />
		<tag k="ssr:stedsnr" v="56081" />
		<tag k="tourism" v="wilderness_hut" />
	</node>
	<node lat="60.81293611111594" lon="5.487327780214511" id="-75940">
		<tag k="historic" v="shieling" />
		<tag k="name" v="Kupa" />
		<tag k="place" v="isolated_dwelling" />
		<tag k="ssr:stedsnr" v="130339" />
	</node>
	<node lat="60.832836112560415" lon="5.4176666606264074" id="-76166">
		<tag k="name" v="Åsheim" />
		<tag k="place" v="farm" />
		<tag k="ssr:stedsnr" v="312592" />
	</node>
	<node lat="60.75467777542552" lon="5.323469440403623" id="-76299">
		<tag k="name" v="Solberg" />
		<tag k="place" v="farm" />
		<tag k="ssr:stedsnr" v="388155" />
	</node>
	<node lat="60.863350003793954" lon="5.514386108853331" id="-76461">
		<tag k="historic" v="shieling" />
		<tag k="name" v="Solheim" />
		<tag k="place" v="isolated_dwelling" />
		<tag k="ssr:stedsnr" v="554344" />
	</node>
	<node lat="60.839788892550594" lon="5.308013880885112" id="-76553">
		<tag k="name" v="Gildreneset" />
		<tag k="place" v="locality" />
		<tag k="ssr:stedsnr" v="614586" />
	</node>
	<node lat="60.93218611008207" lon="5.575630551478471" id="-76559">
		<tag k="historic" v="shieling" />
		<tag k="name" v="Røyrfiten" />
		<tag k="place" v="isolated_dwelling" />
		<tag k="ssr:stedsnr" v="615230" />
	</node>
	<node lat="60.92892777657401" lon="5.607666663927124" id="-76563">
		<tag k="historic" v="shieling" />
		<tag k="name" v="Hopsstølen" />
		<tag k="place" v="isolated_dwelling" />
		<tag k="ssr:stedsnr" v="615237" />
	</node>
	<node lat="60.9535944428794" lon="5.718575004799725" id="-76564">
		<tag k="fixme" v="consider tourism=alpine_hut or tourism=chalet" />
		<tag k="name" v="Stordalen Fjellstove" />
		<tag k="old_name" v="Stordalen fjellstue" />
		<tag k="ssr:stedsnr" v="615239" />
		<tag k="tourism" v="wilderness_hut" />
	</node>
	<node lat="60.874277779516774" lon="5.582633324168755" id="-76573">
		<tag k="name" v="Matre" />
		<tag k="place" v="hamlet" />
		<tag k="ssr:stedsnr" v="615293" />
	</node>
	<node lat="60.80048911753294" lon="5.305589294033149" id="-76642">
		<tag k="fixme" v="consider place=hamlet" />
		<tag k="name" v="Masfjordnes" />
		<tag k="place" v="village" />
		<tag k="ssr:stedsnr" v="631165" />
	</node>
	<node lat="60.84568333519626" lon="5.178722227794153" id="-76643">
		<tag k="name" v="Hellevika" />
		<tag k="place" v="farm" />
		<tag k="ssr:stedsnr" v="631654" />
	</node>
	<node lat="60.81533611081782" lon="5.268822220364493" id="-76689">
		<tag k="name" v="Holsnøyni" />
		<tag k="place" v="isolated_dwelling" />
		<tag k="ssr:stedsnr" v="736587" />
	</node>
	<node lat="60.91359999717595" lon="5.220088889397131" id="-76776">
		<tag k="name" v="Dalen" />
		<tag k="place" v="isolated_dwelling" />
		<tag k="ssr:stedsnr" v="797878" />
	</node>
	<node lat="60.888069443526625" lon="5.471649991968971" id="-76791">
		<tag k="name" v="Solheim" />
		<tag k="place" v="hamlet" />
		<tag k="ssr:stedsnr" v="797323" />
	</node>
	<node lat="60.76469444577069" lon="5.387944446559892" id="-76795">
		<tag k="name" v="Fredheim" />
		<tag k="place" v="farm" />
		<tag k="ssr:stedsnr" v="797723" />
	</node>
	<node lat="60.907847785023144" lon="5.679410633468247" id="-76799">
		<tag k="fixme" v="consider place=hamlet" />
		<tag k="name" v="Kringlebotnen" />
		<tag k="place" v="farm" />
		<tag k="ssr:stedsnr" v="797336" />
	</node>
	<node lat="60.74299722293175" lon="5.392391662787007" id="-76931">
		<tag k="fixme" v="consider place=hamlet" />
		<tag k="name" v="Kvingo" />
		<tag k="place" v="village" />
		<tag k="ssr:stedsnr" v="954165" />
	</node>
</osm>
