<?xml version="1.0" encoding="UTF-8"?>
<osm version="0.6" generator="osmapis">
	<node lat="60.71026666816025" lon="5.453836115227283" id="-32276">
		<tag k="name" v="Storura" />
		<tag k="natural" v="scree" />
		<tag k="ssr:stedsnr" v="20257" />
	</node>
	<node lat="60.890272221887834" lon="5.594302783356642" id="-32315">
		<tag k="name" v="Hellesvaet" />
		<tag k="place" v="locality" />
		<tag k="ssr:stedsnr" v="21829" />
	</node>
	<node lat="60.8906638931035" lon="5.585900000768615" id="-32316">
		<tag k="name" v="Blåura" />
		<tag k="natural" v="scree" />
		<tag k="ssr:stedsnr" v="21830" />
	</node>
	<node lat="60.89433889012403" lon="5.3287583250185495" id="-32430">
		<tag k="name" v="Træet" />
		<tag k="place" v="locality" />
		<tag k="ssr:stedsnr" v="251968" />
	</node>
	<node lat="60.77054166897542" lon="5.312349995982606" id="-32573">
		<tag k="name" v="Steinen" />
		<tag k="natural" v="stone" />
		<tag k="ssr:stedsnr" v="203391" />
	</node>
	<node lat="60.83419166534064" lon="5.3201972258125245" id="-32581">
		<tag k="name" v="Maresteinen" />
		<tag k="natural" v="stone" />
		<tag k="ssr:stedsnr" v="203500" />
	</node>
	<node lat="60.85337222123287" lon="5.515450008218082" id="-32613">
		<tag k="name" v="Mannshella" />
		<tag k="place" v="locality" />
		<tag k="ssr:stedsnr" v="263541" />
	</node>
	<node lat="60.86874999623002" lon="5.274511118295474" id="-32641">
		<tag k="name" v="Øyra" />
		<tag k="place" v="locality" />
		<tag k="ssr:stedsnr" v="312980" />
	</node>
	<node lat="60.895433331602405" lon="5.418744441870959" id="-32645">
		<tag k="name" v="Teigen" />
		<tag k="place" v="locality" />
		<tag k="ssr:stedsnr" v="323610" />
	</node>
	<node lat="60.88254167037112" lon="5.612313896977863" id="-32719">
		<tag k="name" v="Storura" />
		<tag k="natural" v="scree" />
		<tag k="ssr:stedsnr" v="384827" />
	</node>
	<node lat="60.75236944904313" lon="5.389522226305768" id="-32758">
		<tag k="name" v="Storemyrane" />
		<tag k="natural" v="wetland" />
		<tag k="ssr:stedsnr" v="445311" />
	</node>
	<node lat="60.856555557513005" lon="5.51731111133412" id="-32882">
		<tag k="name" v="Øyra" />
		<tag k="place" v="locality" />
		<tag k="ssr:stedsnr" v="506514" />
	</node>
	<node lat="60.85299722136799" lon="5.224016670647764" id="-33024">
		<tag k="name" v="Risnesmarka" />
		<tag k="place" v="locality" />
		<tag k="ssr:stedsnr" v="615516" />
	</node>
	<node lat="60.931258331716855" lon="5.668827769305691" id="-33063">
		<tag k="name" v="Mosemyra" />
		<tag k="natural" v="wetland" />
		<tag k="ssr:stedsnr" v="627847" />
	</node>
	<node lat="60.751319444953964" lon="5.426994436385139" id="-33289">
		<tag k="name" v="Alvikurane" />
		<tag k="natural" v="scree" />
		<tag k="ssr:stedsnr" v="931332" />
	</node>
	<node lat="60.82705833556481" lon="5.572236110752624" id="-33370">
		<tag k="name" v="Øyra" />
		<tag k="place" v="locality" />
		<tag k="ssr:stedsnr" v="931602" />
	</node>
	<node lat="60.84989722073989" lon="5.510652769242512" id="-33431">
		<tag k="name" v="Småfitjane" />
		<tag k="natural" v="wetland" />
		<tag k="ssr:stedsnr" v="20519" />
	</node>
	<node lat="60.85054166494149" lon="5.249380558726806" id="-33451">
		<tag k="name" v="Hjorthogsanden" />
		<tag k="natural" v="beach" />
		<tag k="ssr:stedsnr" v="21411" />
		<tag k="surface" v="sand" />
	</node>
	<node lat="60.89669722257249" lon="5.519380552086" id="-33464">
		<tag k="name" v="Vassleitet" />
		<tag k="natural" v="wetland" />
		<tag k="ssr:stedsnr" v="21745" />
	</node>
	<node lat="60.837208334909185" lon="5.419330560471531" id="-33513">
		<tag k="name" v="Løtræurane" />
		<tag k="natural" v="scree" />
		<tag k="ssr:stedsnr" v="81468" />
	</node>
	<node lat="60.89152222092212" lon="5.598227770491683" id="-33517">
		<tag k="name" v="Kyrkjesteinen" />
		<tag k="natural" v="stone" />
		<tag k="ssr:stedsnr" v="81846" />
	</node>
	<node lat="60.83075000290823" lon="5.234288881484207" id="-33524">
		<tag k="name" v="Vikeskogen" />
		<tag k="place" v="locality" />
		<tag k="ssr:stedsnr" v="81518" />
	</node>
	<node lat="60.7526138903443" lon="5.364922229826881" id="-33606">
		<tag k="name" v="Lona" />
		<tag k="natural" v="wetland" />
		<tag k="ssr:stedsnr" v="141321" />
	</node>
	<node lat="60.834294439939555" lon="5.1636111061530565" id="-33615">
		<tag k="name" v="Grønålane" />
		<tag k="natural" v="wetland" />
		<tag k="ssr:stedsnr" v="141677" />
	</node>
	<node lat="60.83898333155147" lon="5.613227778006304" id="-33709">
		<tag k="name" v="Kjerringeurane" />
		<tag k="natural" v="scree" />
		<tag k="ssr:stedsnr" v="202879" />
	</node>
	<node lat="60.909516666045626" lon="5.62848888701304" id="-33830">
		<tag k="name" v="Steinen" />
		<tag k="natural" v="stone" />
		<tag k="ssr:stedsnr" v="324848" />
	</node>
	<node lat="60.87258332924704" lon="5.2720027756008045" id="-33875">
		<tag k="name" v="Åløypet" />
		<tag k="place" v="locality" />
		<tag k="ssr:stedsnr" v="384399" />
	</node>
	<node lat="60.83406944565189" lon="5.5482638949644665" id="-33887">
		<tag k="name" v="Verkurane" />
		<tag k="natural" v="scree" />
		<tag k="ssr:stedsnr" v="384580" />
	</node>
	<node lat="60.89017777471875" lon="5.428569450304981" id="-33948">
		<tag k="name" v="Storemyra" />
		<tag k="natural" v="wetland" />
		<tag k="ssr:stedsnr" v="433943" />
	</node>
	<node lat="60.84826111060669" lon="5.512741672185788" id="-33970">
		<tag k="name" v="Svartediket" />
		<tag k="place" v="locality" />
		<tag k="ssr:stedsnr" v="445533" />
	</node>
	<node lat="60.909591670202104" lon="5.310997216938534" id="-33982">
		<tag k="name" v="Steinen" />
		<tag k="natural" v="stone" />
		<tag k="ssr:stedsnr" v="445635" />
	</node>
	<node lat="60.79706388786625" lon="5.2977222164885465" id="-34024">
		<tag k="name" v="Stykket" />
		<tag k="place" v="locality" />
		<tag k="ssr:stedsnr" v="506352" />
	</node>
	<node lat="60.76611944649562" lon="5.428794438386903" id="-34043">
		<tag k="name" v="Blomhola" />
		<tag k="natural" v="wetland" />
		<tag k="ssr:stedsnr" v="506467" />
	</node>
	<node lat="60.90955000240076" lon="5.499666668049146" id="-34102">
		<tag k="name" v="Glyvra" />
		<tag k="natural" v="scree" />
		<tag k="ssr:stedsnr" v="566526" />
	</node>
	<node lat="60.83649722270816" lon="5.40915832513567" id="-34118">
		<tag k="name" v="Skatet" />
		<tag k="place" v="locality" />
		<tag k="ssr:stedsnr" v="566454" />
	</node>
	<node lat="60.84606666579429" lon="5.513549994511085" id="-34209">
		<tag k="name" v="Vangen" />
		<tag k="place" v="locality" />
		<tag k="ssr:stedsnr" v="627531" />
	</node>
	<node lat="60.76823611331241" lon="5.312438885475481" id="-34213">
		<tag k="name" v="Strutsemyra" />
		<tag k="natural" v="wetland" />
		<tag k="ssr:stedsnr" v="627387" />
	</node>
	<node lat="60.89407777872737" lon="5.613775007652688" id="-34230">
		<tag k="name" v="Kaldura" />
		<tag k="natural" v="scree" />
		<tag k="ssr:stedsnr" v="627829" />
	</node>
</osm>
