<?xml version="1.0" encoding="UTF-8"?>
<osm version="0.6" generator="osmapis">
	<node lat="60.88490555351249" lon="5.532875005442837" id="-27142">
		<tag k="bridge" v="yes" />
		<tag k="layer" v="1" />
		<tag k="name" v="Trodalsleitet" />
		<tag k="ssr:stedsnr" v="47078" />
	</node>
	<node lat="60.81163889204927" lon="5.306125008432407" id="-27143">
		<tag k="bridge" v="yes" />
		<tag k="layer" v="1" />
		<tag k="name" v="Duesundet" />
		<tag k="ssr:stedsnr" v="47108" />
	</node>
	<node lat="60.75591944283099" lon="5.3247472222929995" id="-27195">
		<tag k="bridge" v="yes" />
		<tag k="layer" v="1" />
		<tag k="name" v="Hope" />
		<tag k="ssr:stedsnr" v="108072" />
	</node>
	<node lat="60.901836110998204" lon="5.614794439133814" id="-27196">
		<tag k="bridge" v="yes" />
		<tag k="layer" v="1" />
		<tag k="name" v="Tverrlida" />
		<tag k="ssr:stedsnr" v="108085" />
	</node>
	<node lat="60.764630552562906" lon="5.353238889265613" id="-27294">
		<tag k="bridge" v="yes" />
		<tag k="layer" v="1" />
		<tag k="name" v="Mjåanger" />
		<tag k="ssr:stedsnr" v="168078" />
	</node>
	<node lat="60.861644448793676" lon="5.271186117371497" id="-27295">
		<tag k="bridge" v="yes" />
		<tag k="layer" v="1" />
		<tag k="name" v="Ostevatn" />
		<tag k="ssr:stedsnr" v="168079" />
	</node>
	<node lat="60.905847221380185" lon="5.622769451851547" id="-27372">
		<tag k="highway" v="path" />
		<tag k="name" v="Tverrlistigen" />
		<tag k="ssr:stedsnr" v="263824" />
	</node>
	<node lat="60.87888888656698" lon="5.376724994342478" id="-27446">
		<tag k="bridge" v="yes" />
		<tag k="layer" v="1" />
		<tag k="name" v="Hatlekråna" />
		<tag k="ssr:stedsnr" v="290075" />
	</node>
	<node lat="60.87679444783055" lon="5.368769450538796" id="-27493">
		<tag k="bridge" v="yes" />
		<tag k="layer" v="1" />
		<tag k="name" v="Ljosnavika" />
		<tag k="ssr:stedsnr" v="350058" />
	</node>
	<node lat="60.8821000014063" lon="5.386477780852907" id="-27494">
		<tag k="bridge" v="yes" />
		<tag k="layer" v="1" />
		<tag k="name" v="Fossheim" />
		<tag k="ssr:stedsnr" v="350100" />
	</node>
	<node lat="60.79914444898539" lon="5.3192888947030506" id="-27628">
		<tag k="bridge" v="yes" />
		<tag k="layer" v="1" />
		<tag k="name" v="Sandneselva" />
		<tag k="ssr:stedsnr" v="472060" />
	</node>
	<node lat="60.75261944908963" lon="5.375716671268446" id="-27629">
		<tag k="bridge" v="yes" />
		<tag k="layer" v="1" />
		<tag k="name" v="Nordkvingo" />
		<tag k="ssr:stedsnr" v="472061" />
	</node>
	<node lat="60.78973888582503" lon="5.294502779327933" id="-27630">
		<tag k="bridge" v="yes" />
		<tag k="layer" v="1" />
		<tag k="name" v="Amundsbotn" />
		<tag k="ssr:stedsnr" v="472111" />
	</node>
</osm>
