<?xml version="1.0" encoding="UTF-8"?>
<osm version="0.6" generator="osmapis">
	<node lat="60.74579999580723" lon="5.469483325691052" id="-32352">
		<tag k="name" v="Botnane" />
		<tag k="natural" v="valley" />
		<tag k="place" v="locality" />
		<tag k="ssr:stedsnr" v="6490" />
	</node>
	<node lat="60.92575833588152" lon="5.801469436186689" id="-32353">
		<tag k="name" v="Svartehola" />
		<tag k="natural" v="valley" />
		<tag k="place" v="locality" />
		<tag k="ssr:stedsnr" v="8296" />
	</node>
	<node lat="60.924225307538684" lon="5.73303090882876" id="-32354">
		<tag k="name" v="Fagerdalsvatnet" />
		<tag k="natural" v="water" />
		<tag k="ssr:stedsnr" v="8298" />
	</node>
	<node lat="60.82574167124082" lon="5.484416672613492" id="-32355">
		<tag k="historic" v="shieling" />
		<tag k="name" v="Haugsdalssetret" />
		<tag k="place" v="isolated_dwelling" />
		<tag k="ssr:stedsnr" v="8421" />
	</node>
	<node lat="60.82350555448761" lon="5.5138861054339605" id="-32356">
		<tag k="fixme" v="consider natural=peak for the most distinct mountains in the district" />
		<tag k="name" v="Nipa" />
		<tag k="natural" v="hill" />
		<tag k="place" v="locality" />
		<tag k="ssr:stedsnr" v="8422" />
	</node>
	<node lat="60.91425277911917" lon="5.6848250015573845" id="-32357">
		<tag k="name" v="Stølsbotnen" />
		<tag k="natural" v="valley" />
		<tag k="place" v="locality" />
		<tag k="ssr:stedsnr" v="8399" />
	</node>
	<node lat="60.792766668217574" lon="5.2538777774662195" id="-32358">
		<tag k="name" v="Lyngneset" />
		<tag k="natural" v="cape" />
		<tag k="ssr:stedsnr" v="8692" />
	</node>
	<node lat="60.794236112041986" lon="5.247647227192919" id="-32359">
		<tag k="fixme" v="consider seamark:type=rock or natural=shoal" />
		<tag k="name" v="Kjetteskjeret" />
		<tag k="place" v="islet" />
		<tag k="ssr:stedsnr" v="8693" />
	</node>
	<node lat="60.791680555642635" lon="5.221625004537245" id="-32360">
		<tag k="name" v="Himmelsynet" />
		<tag k="natural" v="hill" />
		<tag k="place" v="locality" />
		<tag k="ssr:stedsnr" v="8697" />
	</node>
	<node lat="60.79120833563785" lon="5.2211249972709854" id="-32361">
		<tag k="name" v="Raunøyna" />
		<tag k="place" v="island" />
		<tag k="ssr:stedsnr" v="8701" />
	</node>
	<node lat="60.78251666945945" lon="5.374300006935499" id="-32362">
		<tag k="name" v="Kviteberget" />
		<tag k="natural" v="hill" />
		<tag k="place" v="locality" />
		<tag k="ssr:stedsnr" v="8706" />
	</node>
	<node lat="60.9261611091558" lon="5.288586116226977" id="-32363">
		<tag k="name" v="Svartetjørnskaret" />
		<tag k="natural" v="valley" />
		<tag k="place" v="locality" />
		<tag k="ssr:stedsnr" v="8901" />
	</node>
	<node lat="60.896005553731804" lon="5.444947219959845" id="-32364">
		<tag k="name" v="Djupbotnen" />
		<tag k="natural" v="valley" />
		<tag k="place" v="locality" />
		<tag k="ssr:stedsnr" v="8944" />
	</node>
	<node lat="60.89599202562641" lon="5.256082391245298" id="-32365">
		<tag k="name" v="Markhusdalsvatnet" />
		<tag k="natural" v="water" />
		<tag k="ssr:stedsnr" v="8913" />
		<tag k="water" v="lake" />
	</node>
	<node lat="60.88367778167481" lon="5.239724996677289" id="-32366">
		<tag k="name" v="Saghaugen" />
		<tag k="place" v="farm" />
		<tag k="ssr:stedsnr" v="8946" />
	</node>
	<node lat="60.94179999581233" lon="5.633488891328719" id="-32367">
		<tag k="name" v="Krokvatnet" />
		<tag k="natural" v="water" />
		<tag k="ssr:stedsnr" v="9242" />
	</node>
	<node lat="60.87919506029039" lon="5.217910860105895" id="-32368">
		<tag k="name" v="Sleirsvatnet" />
		<tag k="natural" v="water" />
		<tag k="ssr:stedsnr" v="8998" />
		<tag k="water" v="lake" />
	</node>
	<node lat="60.880736113443035" lon="5.619130562288761" id="-32369">
		<tag k="name" v="Øvredalen" />
		<tag k="natural" v="valley" />
		<tag k="place" v="locality" />
		<tag k="ssr:stedsnr" v="9315" />
	</node>
	<node lat="60.88921666783261" lon="5.698752782161282" id="-32370">
		<tag k="fixme" v="consider natural=peak for the most distinct mountains in the district" />
		<tag k="name" v="Storhogen" />
		<tag k="natural" v="hill" />
		<tag k="place" v="locality" />
		<tag k="ssr:stedsnr" v="9317" />
	</node>
	<node lat="60.867458329280936" lon="5.604644443238658" id="-32371">
		<tag k="fixme" v="consider natural=peak for the most distinct mountains in the district" />
		<tag k="name" v="Gleinefjellet" />
		<tag k="natural" v="hill" />
		<tag k="place" v="locality" />
		<tag k="ssr:stedsnr" v="9296" />
	</node>
	<node lat="60.81400766433391" lon="5.381493088895999" id="-32372">
		<tag k="fixme" v="consider place=hamlet" />
		<tag k="name" v="Andvika" />
		<tag k="place" v="farm" />
		<tag k="ssr:stedsnr" v="9626" />
	</node>
	<node lat="60.81180277542073" lon="5.3814305557856335" id="-32373">
		<tag k="name" v="Litlevatnet" />
		<tag k="natural" v="water" />
		<tag k="ssr:stedsnr" v="9628" />
		<tag k="water" v="lake" />
	</node>
	<node lat="60.71026666816025" lon="5.453836115227283" id="-32374">
		<tag k="name" v="Storura" />
		<tag k="natural" v="scree" />
		<tag k="ssr:stedsnr" v="20257" />
	</node>
	<node lat="60.81182500004939" lon="5.330263894076891" id="-32375">
		<tag k="name" v="Hamneneset" />
		<tag k="natural" v="cape" />
		<tag k="ssr:stedsnr" v="20282" />
	</node>
	<node lat="60.81014722079866" lon="5.338661115274898" id="-32376">
		<tag k="name" v="Botnen" />
		<tag k="natural" v="valley" />
		<tag k="place" v="locality" />
		<tag k="ssr:stedsnr" v="20284" />
	</node>
	<node lat="60.822222219004104" lon="5.24309167070835" id="-32377">
		<tag k="name" v="Småvikane" />
		<tag k="natural" v="bay" />
		<tag k="ssr:stedsnr" v="20488" />
	</node>
	<node lat="60.83423888828915" lon="5.235377779504626" id="-32378">
		<tag k="name" v="Nordre Vikehaugane" />
		<tag k="natural" v="hill" />
		<tag k="place" v="locality" />
		<tag k="ssr:stedsnr" v="20492" />
	</node>
	<node lat="60.82346666861132" lon="5.2408722241121035" id="-32379">
		<tag k="name" v="Skjelsundet" />
		<tag k="natural" v="strait" />
		<tag k="ssr:stedsnr" v="20498" />
	</node>
	<node lat="60.832747223442816" lon="5.430413894680946" id="-32380">
		<tag k="name" v="Pikhogane" />
		<tag k="natural" v="hill" />
		<tag k="place" v="locality" />
		<tag k="ssr:stedsnr" v="20500" />
	</node>
	<node lat="60.826755555975154" lon="5.433491668397039" id="-32381">
		<tag k="fixme" v="consider natural=peak for the most distinct mountains in the district" />
		<tag k="name" v="Sørlinova" />
		<tag k="natural" v="hill" />
		<tag k="place" v="locality" />
		<tag k="ssr:stedsnr" v="20503" />
	</node>
	<node lat="60.9113111153885" lon="5.508794446057567" id="-32382">
		<tag k="name" v="Almbotnen" />
		<tag k="natural" v="valley" />
		<tag k="place" v="locality" />
		<tag k="ssr:stedsnr" v="20540" />
	</node>
	<node lat="60.92285000159828" lon="5.519308329665486" id="-32383">
		<tag k="name" v="Pikhogen" />
		<tag k="natural" v="hill" />
		<tag k="place" v="locality" />
		<tag k="ssr:stedsnr" v="20543" />
	</node>
	<node lat="60.91178333485182" lon="5.481950007714006" id="-32384">
		<tag k="name" v="Furleitdalen" />
		<tag k="natural" v="valley" />
		<tag k="place" v="locality" />
		<tag k="ssr:stedsnr" v="20544" />
	</node>
	<node lat="60.888094442978556" lon="5.291183341111341" id="-32385">
		<tag k="name" v="Storneset" />
		<tag k="natural" v="cape" />
		<tag k="ssr:stedsnr" v="20594" />
	</node>
	<node lat="60.891099997018145" lon="5.456202771835819" id="-32386">
		<tag k="name" v="Ormeleitet" />
		<tag k="natural" v="hill" />
		<tag k="place" v="locality" />
		<tag k="ssr:stedsnr" v="20641" />
	</node>
	<node lat="60.90113889059311" lon="5.237161105981915" id="-32387">
		<tag k="name" v="Vardekvilet" />
		<tag k="natural" v="slope" />
		<tag k="place" v="locality" />
		<tag k="ssr:stedsnr" v="20646" />
	</node>
	<node lat="60.82733333441313" lon="5.180736110357591" id="-32388">
		<tag k="name" v="Staurøysundet" />
		<tag k="natural" v="strait" />
		<tag k="ssr:stedsnr" v="20689" />
	</node>
	<node lat="60.91786389179912" lon="5.666575004912648" id="-32389">
		<tag k="name" v="Bukketørne" />
		<tag k="natural" v="slope" />
		<tag k="place" v="locality" />
		<tag k="ssr:stedsnr" v="20840" />
	</node>
	<node lat="60.75611388779213" lon="5.290452773384567" id="-32390">
		<tag k="name" v="Nautevika" />
		<tag k="natural" v="bay" />
		<tag k="ssr:stedsnr" v="21202" />
	</node>
	<node lat="60.80176944820345" lon="5.3821500007286245" id="-32391">
		<tag k="fixme" v="consider natural=peak for the most distinct mountains in the district" />
		<tag k="name" v="Storefjellet" />
		<tag k="natural" v="hill" />
		<tag k="place" v="locality" />
		<tag k="ssr:stedsnr" v="21212" />
	</node>
	<node lat="60.876233329453505" lon="5.528027784648035" id="-32392">
		<tag k="fixme" v="consider natural=peak for the most distinct mountains in the district" />
		<tag k="name" v="Såta" />
		<tag k="natural" v="hill" />
		<tag k="place" v="locality" />
		<tag k="ssr:stedsnr" v="21550" />
	</node>
	<node lat="60.77660555336892" lon="5.452963893533153" id="-32393">
		<tag k="name" v="Vestre Dalen" />
		<tag k="natural" v="valley" />
		<tag k="place" v="locality" />
		<tag k="ssr:stedsnr" v="21504" />
	</node>
	<node lat="60.871941663299204" lon="5.524874994688861" id="-32394">
		<tag k="name" v="Ramsvika" />
		<tag k="natural" v="bay" />
		<tag k="ssr:stedsnr" v="21553" />
	</node>
	<node lat="60.867994442703285" lon="5.514024991564094" id="-32395">
		<tag k="bay" v="fjord" />
		<tag k="name" v="Krossnesosen" />
		<tag k="natural" v="bay" />
		<tag k="ssr:stedsnr" v="21555" />
	</node>
	<node lat="60.88785277911934" lon="5.366333331845542" id="-32396">
		<tag k="name" v="Dyrkollebotnen" />
		<tag k="natural" v="valley" />
		<tag k="place" v="locality" />
		<tag k="ssr:stedsnr" v="21438" />
	</node>
	<node lat="60.88906944733624" lon="5.383194441364216" id="-32397">
		<tag k="name" v="Fossdalselva" />
		<tag k="ssr:stedsnr" v="21441" />
		<tag k="waterway" v="river" />
	</node>
	<node lat="60.9104555575586" lon="5.43196945113247" id="-32398">
		<tag k="fixme" v="consider natural=peak for the most distinct mountains in the district" />
		<tag k="name" v="Bjørnetohamrane" />
		<tag k="natural" v="hill" />
		<tag k="place" v="locality" />
		<tag k="ssr:stedsnr" v="21446" />
	</node>
	<node lat="60.788119287222564" lon="5.380489816054298" id="-32399">
		<tag k="name" v="Kroktjørna" />
		<tag k="natural" v="water" />
		<tag k="ssr:stedsnr" v="21485" />
	</node>
	<node lat="60.75898055360314" lon="5.367575002027004" id="-32400">
		<tag k="name" v="Storhovden" />
		<tag k="natural" v="hill" />
		<tag k="place" v="locality" />
		<tag k="ssr:stedsnr" v="21495" />
	</node>
	<node lat="60.88881389201724" lon="5.527633340244241" id="-32401">
		<tag k="name" v="Putrihola" />
		<tag k="natural" v="valley" />
		<tag k="place" v="locality" />
		<tag k="ssr:stedsnr" v="21706" />
	</node>
	<node lat="60.894791668493404" lon="5.476933333152801" id="-32402">
		<tag k="name" v="Leitet" />
		<tag k="natural" v="hill" />
		<tag k="place" v="locality" />
		<tag k="ssr:stedsnr" v="21750" />
	</node>
	<node lat="60.819702776639474" lon="5.1902611111833306" id="-32403">
		<tag k="name" v="Dyrøysundet" />
		<tag k="natural" v="strait" />
		<tag k="ssr:stedsnr" v="21671" />
	</node>
	<node lat="60.833063886754836" lon="5.209316665138843" id="-32404">
		<tag k="name" v="Garpenessundet" />
		<tag k="natural" v="strait" />
		<tag k="ssr:stedsnr" v="21674" />
	</node>
	<node lat="60.84718611120234" lon="5.166838882602466" id="-32405">
		<tag k="fixme" v="consider natural=peak for the most distinct mountains in the district" />
		<tag k="name" v="Åsen" />
		<tag k="natural" v="hill" />
		<tag k="place" v="locality" />
		<tag k="ssr:stedsnr" v="21678" />
	</node>
	<node lat="60.84522221849816" lon="5.1402972288590565" id="-32406">
		<tag k="name" v="Oddane" />
		<tag k="natural" v="hill" />
		<tag k="place" v="locality" />
		<tag k="ssr:stedsnr" v="21681" />
	</node>
	<node lat="60.87200000266309" lon="5.215649992232598" id="-32407">
		<tag k="fixme" v="consider natural=peak for the most distinct mountains in the district" />
		<tag k="name" v="Litlekjerfjellet" />
		<tag k="natural" v="hill" />
		<tag k="place" v="locality" />
		<tag k="ssr:stedsnr" v="21684" />
	</node>
	<node lat="60.964272222449516" lon="5.717402784226537" id="-32408">
		<tag k="fixme" v="consider natural=peak for the most distinct mountains in the district" />
		<tag k="name" v="Midtrusta" />
		<tag k="natural" v="hill" />
		<tag k="place" v="locality" />
		<tag k="ssr:stedsnr" v="21801" />
	</node>
	<node lat="60.95104166885402" lon="5.723855547872045" id="-32409">
		<tag k="name" v="Røyrdalen" />
		<tag k="natural" v="valley" />
		<tag k="place" v="locality" />
		<tag k="ssr:stedsnr" v="21802" />
	</node>
	<node lat="60.8875166644142" lon="5.6020222272452385" id="-32410">
		<tag k="name" v="Lavlia" />
		<tag k="natural" v="slope" />
		<tag k="place" v="locality" />
		<tag k="ssr:stedsnr" v="21809" />
	</node>
	<node lat="60.89063092536343" lon="5.611590739854988" id="-32411">
		<tag k="name" v="Svartetjørna" />
		<tag k="natural" v="water" />
		<tag k="ssr:stedsnr" v="21810" />
		<tag k="water" v="lake" />
	</node>
	<node lat="60.89814444864871" lon="5.6062055468082" id="-32412">
		<tag k="fixme" v="consider natural=peak for the most distinct mountains in the district" />
		<tag k="name" v="Almtona" />
		<tag k="natural" v="hill" />
		<tag k="place" v="locality" />
		<tag k="ssr:stedsnr" v="21811" />
	</node>
	<node lat="60.890272221887834" lon="5.594302783356642" id="-32413">
		<tag k="name" v="Hellesvaet" />
		<tag k="place" v="locality" />
		<tag k="ssr:stedsnr" v="21829" />
	</node>
	<node lat="60.8906638931035" lon="5.585900000768615" id="-32414">
		<tag k="name" v="Blåura" />
		<tag k="natural" v="scree" />
		<tag k="ssr:stedsnr" v="21830" />
	</node>
	<node lat="60.94334496489886" lon="5.714004653544143" id="-32415">
		<tag k="name" v="Skavlebotsvatnet" />
		<tag k="natural" v="water" />
		<tag k="ssr:stedsnr" v="21798" />
		<tag k="water" v="lake" />
	</node>
	<node lat="60.7989555578578" lon="5.319988880434752" id="-32416">
		<tag k="name" v="Sandnestræet" />
		<tag k="place" v="locality" />
		<tag k="ssr:stedsnr" v="25173" />
	</node>
	<node lat="60.88490555351249" lon="5.532875005442837" id="-32417">
		<tag k="bridge" v="yes" />
		<tag k="layer" v="1" />
		<tag k="name" v="Trodalsleitet" />
		<tag k="ssr:stedsnr" v="47078" />
	</node>
	<node lat="60.81163889204927" lon="5.306125008432407" id="-32418">
		<tag k="bridge" v="yes" />
		<tag k="layer" v="1" />
		<tag k="name" v="Duesundet" />
		<tag k="ssr:stedsnr" v="47108" />
	</node>
	<node lat="60.75903055886553" lon="5.410677771801115" id="-32420">
		<tag k="name" v="Gjelet" />
		<tag k="natural" v="gorge" />
		<tag k="ssr:stedsnr" v="66225" />
	</node>
	<node lat="60.73772777417449" lon="5.43053610282312" id="-32421">
		<tag k="historic" v="shieling" />
		<tag k="name" v="Sørkvingesetra" />
		<tag k="place" v="isolated_dwelling" />
		<tag k="ssr:stedsnr" v="66598" />
	</node>
	<node lat="60.74622078989969" lon="5.444757576457868" id="-32422">
		<tag k="name" v="Nutevatnet" />
		<tag k="natural" v="water" />
		<tag k="ssr:stedsnr" v="66601" />
	</node>
	<node lat="60.925963892288124" lon="5.718100001293637" id="-32423">
		<tag k="historic" v="shieling" />
		<tag k="name" v="Fagerdalssetret" />
		<tag k="place" v="isolated_dwelling" />
		<tag k="ssr:stedsnr" v="69279" />
	</node>
	<node lat="60.95236944639864" lon="5.7745750064587105" id="-32424">
		<tag k="name" v="Gygrebotnen" />
		<tag k="natural" v="valley" />
		<tag k="place" v="locality" />
		<tag k="ssr:stedsnr" v="69285" />
	</node>
	<node lat="60.94118055258987" lon="5.579430558318703" id="-32425">
		<tag k="historic" v="shieling" />
		<tag k="name" v="Dukestølen" />
		<tag k="place" v="isolated_dwelling" />
		<tag k="ssr:stedsnr" v="69292" />
	</node>
	<node lat="60.92637777515128" lon="5.475991675331859" id="-32426">
		<tag k="name" v="Håregilet" />
		<tag k="natural" v="valley" />
		<tag k="place" v="locality" />
		<tag k="ssr:stedsnr" v="69298" />
	</node>
	<node lat="60.92924999832634" lon="5.5244833304382235" id="-32427">
		<tag k="name" v="Smulmeshaugane" />
		<tag k="natural" v="hill" />
		<tag k="place" v="locality" />
		<tag k="ssr:stedsnr" v="69300" />
	</node>
	<node lat="60.84572746961762" lon="5.42163109021035" id="-32428">
		<tag k="name" v="Fagrebotstjørna" />
		<tag k="natural" v="water" />
		<tag k="ssr:stedsnr" v="69608" />
	</node>
	<node lat="60.845591662692016" lon="5.418261120208495" id="-32429">
		<tag k="name" v="Fagrebotnen" />
		<tag k="natural" v="valley" />
		<tag k="place" v="locality" />
		<tag k="ssr:stedsnr" v="69609" />
	</node>
	<node lat="60.91541666504475" lon="5.645077780618738" id="-32430">
		<tag k="name" v="Fossevatnet" />
		<tag k="natural" v="water" />
		<tag k="ssr:stedsnr" v="69386" />
		<tag k="water" v="lake" />
	</node>
	<node lat="60.78615280334571" lon="5.218812900263201" id="-32431">
		<tag k="name" v="Tjørevikhogen" />
		<tag k="place" v="farm" />
		<tag k="ssr:stedsnr" v="69708" />
	</node>
	<node lat="60.78324166865497" lon="5.438608337401485" id="-32432">
		<tag k="fixme" v="consider natural=peak for the most distinct mountains in the district" />
		<tag k="name" v="Illestigfjellet" />
		<tag k="natural" v="hill" />
		<tag k="place" v="locality" />
		<tag k="ssr:stedsnr" v="69732" />
	</node>
	<node lat="60.77574662964465" lon="5.2765116972790045" id="-32433">
		<tag k="name" v="Søre Kvamsvika" />
		<tag k="natural" v="bay" />
		<tag k="ssr:stedsnr" v="69734" />
	</node>
	<node lat="60.92264999709361" lon="5.304275004034939" id="-32434">
		<tag k="name" v="Byrkjelandsdalen" />
		<tag k="natural" v="valley" />
		<tag k="place" v="locality" />
		<tag k="ssr:stedsnr" v="69905" />
	</node>
	<node lat="60.90729489657815" lon="5.331751610785783" id="-32435">
		<tag k="name" v="Øvste Botnetjørna" />
		<tag k="natural" v="water" />
		<tag k="ssr:stedsnr" v="69933" />
	</node>
	<node lat="60.91092778068477" lon="5.315938882598284" id="-32436">
		<tag k="name" v="Leitet" />
		<tag k="place" v="locality" />
		<tag k="ssr:stedsnr" v="69937" />
	</node>
	<node lat="60.80306944165577" lon="5.36523056242613" id="-32437">
		<tag k="name" v="Lykelsvatnet" />
		<tag k="natural" v="water" />
		<tag k="ssr:stedsnr" v="69679" />
		<tag k="water" v="lake" />
	</node>
	<node lat="60.80331909379888" lon="5.254195495742571" id="-32438">
		<tag k="name" v="Øvre Stemma" />
		<tag k="natural" v="water" />
		<tag k="ssr:stedsnr" v="69687" />
	</node>
	<node lat="60.79825000384754" lon="5.28113332795503" id="-32439">
		<tag k="name" v="Sandnesflua" />
		<tag k="natural" v="shoal" />
		<tag k="place" v="locality" />
		<tag k="ssr:stedsnr" v="69690" />
	</node>
	<node lat="60.795888892663505" lon="5.233083332441367" id="-32440">
		<tag k="name" v="Skarvholmen" />
		<tag k="place" v="islet" />
		<tag k="ssr:stedsnr" v="69693" />
	</node>
	<node lat="60.70931666876019" lon="5.448141659033681" id="-32441">
		<tag k="historic" v="shieling" />
		<tag k="name" v="Stølane" />
		<tag k="place" v="isolated_dwelling" />
		<tag k="ssr:stedsnr" v="81288" />
	</node>
	<node lat="60.805936770574164" lon="5.254782148295784" id="-32442">
		<tag k="name" v="Slaketjørna" />
		<tag k="natural" v="water" />
		<tag k="ssr:stedsnr" v="81293" />
	</node>
	<node lat="60.81270833355827" lon="5.3356638970887875" id="-32443">
		<tag k="historic" v="shieling" />
		<tag k="name" v="Tostølen" />
		<tag k="place" v="isolated_dwelling" />
		<tag k="ssr:stedsnr" v="81299" />
	</node>
	<node lat="60.8570638929382" lon="5.235638880080636" id="-32444">
		<tag k="name" v="Sagedalen" />
		<tag k="natural" v="valley" />
		<tag k="place" v="locality" />
		<tag k="ssr:stedsnr" v="81413" />
	</node>
	<node lat="60.7970861143322" lon="5.439116670378788" id="-32445">
		<tag k="name" v="Trollhaugane" />
		<tag k="natural" v="hill" />
		<tag k="place" v="locality" />
		<tag k="ssr:stedsnr" v="81317" />
	</node>
	<node lat="60.78240277488924" lon="5.4609861081828655" id="-32446">
		<tag k="name" v="Klokkarelva" />
		<tag k="ssr:stedsnr" v="81319" />
		<tag k="waterway" v="river" />
	</node>
	<node lat="60.74972500344144" lon="5.402797219116282" id="-32447">
		<tag k="name" v="Vasslineset" />
		<tag k="natural" v="cape" />
		<tag k="ssr:stedsnr" v="81323" />
	</node>
	<node lat="60.74315555538609" lon="5.395708327674926" id="-32448">
		<tag k="name" v="Storemyra" />
		<tag k="place" v="farm" />
		<tag k="ssr:stedsnr" v="81326" />
	</node>
	<node lat="60.7555861141918" lon="5.3995055492240995" id="-32449">
		<tag k="name" v="Hædda" />
		<tag k="natural" v="hill" />
		<tag k="place" v="locality" />
		<tag k="ssr:stedsnr" v="81332" />
	</node>
	<node lat="60.852649997796256" lon="5.521608330594405" id="-32450">
		<tag k="fixme" v="consider natural=peak for the most distinct mountains in the district" />
		<tag k="name" v="Pallstokkehatten" />
		<tag k="natural" v="hill" />
		<tag k="place" v="locality" />
		<tag k="ssr:stedsnr" v="81538" />
	</node>
	<node lat="60.89524444141174" lon="5.235950004230652" id="-32451">
		<tag k="name" v="Rinden" />
		<tag k="natural" v="hill" />
		<tag k="place" v="locality" />
		<tag k="ssr:stedsnr" v="81636" />
	</node>
	<node lat="60.901922222527716" lon="5.247699995481138" id="-32452">
		<tag k="name" v="Lesetlia" />
		<tag k="natural" v="slope" />
		<tag k="place" v="locality" />
		<tag k="ssr:stedsnr" v="81639" />
	</node>
	<node lat="60.88799722484351" lon="5.62593888228856" id="-32453">
		<tag k="name" v="Nordre Gråsidbotnen" />
		<tag k="natural" v="valley" />
		<tag k="place" v="locality" />
		<tag k="ssr:stedsnr" v="81837" />
	</node>
	<node lat="60.93609722273189" lon="5.675261102027953" id="-32454">
		<tag k="name" v="Setrelia" />
		<tag k="natural" v="slope" />
		<tag k="place" v="locality" />
		<tag k="ssr:stedsnr" v="81838" />
	</node>
	<node lat="60.92310833174968" lon="5.53256110326171" id="-32455">
		<tag k="name" v="Algjelhogen" />
		<tag k="natural" v="hill" />
		<tag k="place" v="locality" />
		<tag k="ssr:stedsnr" v="81741" />
	</node>
	<node lat="60.77845555362793" lon="5.260238893360977" id="-32456">
		<tag k="name" v="Leirvika" />
		<tag k="natural" v="bay" />
		<tag k="ssr:stedsnr" v="82185" />
	</node>
	<node lat="60.7800249984015" lon="5.285936105839508" id="-32457">
		<tag k="fixme" v="consider natural=peak for the most distinct mountains in the district" />
		<tag k="name" v="Ramnefjellet" />
		<tag k="natural" v="hill" />
		<tag k="place" v="locality" />
		<tag k="ssr:stedsnr" v="82187" />
	</node>
	<node lat="60.7725333341084" lon="5.2470277776360685" id="-32458">
		<tag k="name" v="Kalvsvågen" />
		<tag k="natural" v="bay" />
		<tag k="ssr:stedsnr" v="82308" />
	</node>
	<node lat="60.76473610940515" lon="5.342169453415057" id="-32459">
		<tag k="name" v="Oldrane" />
		<tag k="place" v="locality" />
		<tag k="ssr:stedsnr" v="82340" />
	</node>
	<node lat="60.91201111139304" lon="5.426652776692349" id="-32460">
		<tag k="name" v="Godtoegga" />
		<tag k="natural" v="ridge" />
		<tag k="place" v="locality" />
		<tag k="ssr:stedsnr" v="82404" />
	</node>
	<node lat="60.893913891318675" lon="5.467055554765927" id="-32461">
		<tag k="name" v="Løypet" />
		<tag k="natural" v="slope" />
		<tag k="place" v="locality" />
		<tag k="ssr:stedsnr" v="82710" />
	</node>
	<node lat="60.88918055455432" lon="5.468469437700207" id="-32462">
		<tag k="fixme" v="consider place=hamlet" />
		<tag k="name" v="Solheim" />
		<tag k="place" v="farm" />
		<tag k="ssr:stedsnr" v="82712" />
	</node>
	<node lat="60.82936388760466" lon="5.417172218619187" id="-32463">
		<tag k="name" v="Vasskarhaugane" />
		<tag k="natural" v="hill" />
		<tag k="place" v="locality" />
		<tag k="ssr:stedsnr" v="82431" />
	</node>
	<node lat="60.90323888623002" lon="5.196494442376138" id="-32464">
		<tag k="name" v="Skabrekka" />
		<tag k="natural" v="slope" />
		<tag k="place" v="locality" />
		<tag k="ssr:stedsnr" v="82627" />
	</node>
	<node lat="60.89312777850455" lon="5.177811106296087" id="-32465">
		<tag k="fixme" v="consider natural=peak for the most distinct mountains in the district" />
		<tag k="name" v="Fløyfjellet" />
		<tag k="natural" v="hill" />
		<tag k="place" v="locality" />
		<tag k="ssr:stedsnr" v="82629" />
	</node>
	<node lat="60.90595000357458" lon="5.179983324854805" id="-32466">
		<tag k="fixme" v="consider natural=peak for the most distinct mountains in the district" />
		<tag k="name" v="Nipa" />
		<tag k="natural" v="hill" />
		<tag k="place" v="locality" />
		<tag k="ssr:stedsnr" v="82631" />
	</node>
	<node lat="60.72844721828196" lon="5.4838694515783235" id="-32467">
		<tag k="name" v="Båtevassdalen" />
		<tag k="natural" v="valley" />
		<tag k="place" v="locality" />
		<tag k="ssr:stedsnr" v="248287" />
	</node>
	<node lat="60.74808888597659" lon="5.381174992439142" id="-32468">
		<tag k="name" v="Nordkvingevågen" />
		<tag k="natural" v="bay" />
		<tag k="ssr:stedsnr" v="248645" />
	</node>
	<node lat="60.74761666400356" lon="5.396219450114688" id="-32469">
		<tag k="name" v="Skolten" />
		<tag k="natural" v="hill" />
		<tag k="place" v="locality" />
		<tag k="ssr:stedsnr" v="248682" />
	</node>
	<node lat="60.75591944283099" lon="5.3247472222929995" id="-32470">
		<tag k="bridge" v="yes" />
		<tag k="layer" v="1" />
		<tag k="name" v="Hope" />
		<tag k="ssr:stedsnr" v="108072" />
	</node>
	<node lat="60.901836110998204" lon="5.614794439133814" id="-32471">
		<tag k="bridge" v="yes" />
		<tag k="layer" v="1" />
		<tag k="name" v="Tverrlida" />
		<tag k="ssr:stedsnr" v="108085" />
	</node>
	<node lat="60.78316362313342" lon="5.372316644763767" id="-32472">
		<tag k="name" v="Lometjørna" />
		<tag k="natural" v="water" />
		<tag k="ssr:stedsnr" v="250033" />
	</node>
	<node lat="60.81580555426215" lon="5.2880166661076045" id="-32473">
		<tag k="name" v="Stolen" />
		<tag k="natural" v="hill" />
		<tag k="place" v="locality" />
		<tag k="ssr:stedsnr" v="251636" />
	</node>
	<node lat="60.93170082745974" lon="5.674066234688851" id="-32474">
		<tag k="name" v="Lonevatnet" />
		<tag k="natural" v="water" />
		<tag k="ssr:stedsnr" v="251270" />
	</node>
	<node lat="60.92174444569587" lon="5.472369453315984" id="-32475">
		<tag k="name" v="Mosehaugane" />
		<tag k="natural" v="hill" />
		<tag k="place" v="locality" />
		<tag k="ssr:stedsnr" v="251272" />
	</node>
	<node lat="60.93576666224414" lon="5.702736108793816" id="-32476">
		<tag k="name" v="Endeløysa" />
		<tag k="natural" v="water" />
		<tag k="ssr:stedsnr" v="251273" />
	</node>
	<node lat="60.9189527750414" lon="5.507536118867011" id="-32477">
		<tag k="fixme" v="consider natural=peak for the most distinct mountains in the district" />
		<tag k="name" v="Høgfjellet" />
		<tag k="natural" v="hill" />
		<tag k="place" v="locality" />
		<tag k="ssr:stedsnr" v="251274" />
	</node>
	<node lat="60.92042222474704" lon="5.5713750054866145" id="-32478">
		<tag k="fixme" v="consider natural=peak for the most distinct mountains in the district" />
		<tag k="name" v="Rustefjellet" />
		<tag k="natural" v="hill" />
		<tag k="place" v="locality" />
		<tag k="ssr:stedsnr" v="251279" />
	</node>
	<node lat="60.94964195714673" lon="5.760456763990652" id="-32479">
		<tag k="name" v="Meinsperro" />
		<tag k="natural" v="water" />
		<tag k="ssr:stedsnr" v="251303" />
	</node>
	<node lat="60.94220646537918" lon="5.801522501958503" id="-32480">
		<tag k="name" v="Langevatnet" />
		<tag k="natural" v="water" />
		<tag k="ssr:stedsnr" v="251305" />
	</node>
	<node lat="60.93259167004382" lon="5.533941673572369" id="-32481">
		<tag k="fixme" v="consider natural=peak for the most distinct mountains in the district" />
		<tag k="name" v="Dyrråsklanten" />
		<tag k="natural" v="hill" />
		<tag k="place" v="locality" />
		<tag k="ssr:stedsnr" v="251309" />
	</node>
	<node lat="60.8757293777706" lon="5.579693403378197" id="-32482">
		<tag k="fixme" v="consider place=hamlet" />
		<tag k="name" v="Storematre" />
		<tag k="place" v="farm" />
		<tag k="ssr:stedsnr" v="251347" />
	</node>
	<node lat="60.87080818444991" lon="5.707886175619084" id="-32483">
		<tag k="name" v="Endeløysa" />
		<tag k="natural" v="water" />
		<tag k="ssr:stedsnr" v="251352" />
	</node>
	<node lat="60.883702777044505" lon="5.516791675526056" id="-32484">
		<tag k="fixme" v="consider natural=peak for the most distinct mountains in the district" />
		<tag k="name" v="Nonklettfjellet" />
		<tag k="natural" v="hill" />
		<tag k="place" v="locality" />
		<tag k="ssr:stedsnr" v="251361" />
	</node>
	<node lat="60.8867944479883" lon="5.673625007735308" id="-32485">
		<tag k="fixme" v="consider natural=peak for the most distinct mountains in the district" />
		<tag k="name" v="Brattgilfjellet" />
		<tag k="natural" v="hill" />
		<tag k="place" v="locality" />
		<tag k="ssr:stedsnr" v="251368" />
	</node>
	<node lat="60.90483333521771" lon="5.688350003531245" id="-32486">
		<tag k="name" v="Lovatnet" />
		<tag k="natural" v="water" />
		<tag k="ssr:stedsnr" v="251372" />
	</node>
	<node lat="60.913519444915885" lon="5.683741675354853" id="-32487">
		<tag k="name" v="Stølsskaret" />
		<tag k="natural" v="valley" />
		<tag k="place" v="locality" />
		<tag k="ssr:stedsnr" v="251373" />
	</node>
	<node lat="60.89974166272729" lon="5.572952769926812" id="-32488">
		<tag k="historic" v="shieling" />
		<tag k="name" v="Trodalssetret" />
		<tag k="place" v="isolated_dwelling" />
		<tag k="ssr:stedsnr" v="251378" />
	</node>
	<node lat="60.89340458159968" lon="5.578787304892115" id="-32489">
		<tag k="name" v="Kvernhusdalen" />
		<tag k="natural" v="valley" />
		<tag k="place" v="locality" />
		<tag k="ssr:stedsnr" v="251379" />
	</node>
	<node lat="60.847283330206814" lon="5.511338885727297" id="-32490">
		<tag k="name" v="Haugsdalselva" />
		<tag k="ssr:stedsnr" v="251426" />
		<tag k="waterway" v="river" />
	</node>
	<node lat="60.8041250011495" lon="5.563505554152016" id="-32491">
		<tag k="fixme" v="consider natural=peak for the most distinct mountains in the district" />
		<tag k="name" v="Storevarden" />
		<tag k="natural" v="hill" />
		<tag k="place" v="locality" />
		<tag k="ssr:stedsnr" v="251515" />
	</node>
	<node lat="60.80344722233818" lon="5.470455556918953" id="-32492">
		<tag k="name" v="Grasdalen" />
		<tag k="natural" v="valley" />
		<tag k="place" v="locality" />
		<tag k="ssr:stedsnr" v="251517" />
	</node>
	<node lat="60.84185832977796" lon="5.57825555497626" id="-32493">
		<tag k="fixme" v="consider natural=peak for the most distinct mountains in the district" />
		<tag k="name" v="Svartetjørnfjellet" />
		<tag k="natural" v="hill" />
		<tag k="place" v="locality" />
		<tag k="ssr:stedsnr" v="251440" />
	</node>
	<node lat="60.854258334450286" lon="5.511733340259791" id="-32494">
		<tag k="name" v="Storholmen" />
		<tag k="place" v="islet" />
		<tag k="ssr:stedsnr" v="251444" />
	</node>
	<node lat="60.860249999457714" lon="5.344474992073101" id="-32495">
		<tag k="name" v="Argjelsneset" />
		<tag k="natural" v="cape" />
		<tag k="ssr:stedsnr" v="251540" />
	</node>
	<node lat="60.85426388815139" lon="5.242827785621132" id="-32496">
		<tag k="name" v="Holmen" />
		<tag k="place" v="islet" />
		<tag k="ssr:stedsnr" v="251548" />
	</node>
	<node lat="60.85605277980808" lon="5.317411117227302" id="-32497">
		<tag k="fixme" v="consider natural=peak for the most distinct mountains in the district" />
		<tag k="name" v="Austefjellet" />
		<tag k="natural" v="hill" />
		<tag k="place" v="locality" />
		<tag k="ssr:stedsnr" v="251557" />
	</node>
	<node lat="60.83736388812519" lon="5.1351249937431644" id="-32498">
		<tag k="name" v="Ildalsvågen" />
		<tag k="natural" v="bay" />
		<tag k="old_name" v="Ilnesvågen;Ilevågen" />
		<tag k="ssr:stedsnr" v="251562" />
	</node>
	<node lat="60.848486107184705" lon="5.362852771006084" id="-32499">
		<tag k="name" v="Lund" />
		<tag k="place" v="farm" />
		<tag k="ssr:stedsnr" v="251567" />
	</node>
	<node lat="60.83221292568231" lon="5.230730821918874" id="-32500">
		<tag k="name" v="Baldersvågtjørna" />
		<tag k="natural" v="water" />
		<tag k="ssr:stedsnr" v="251581" />
	</node>
	<node lat="60.85829444648308" lon="5.207302782847023" id="-32501">
		<tag k="name" v="Rusta" />
		<tag k="place" v="farm" />
		<tag k="ssr:stedsnr" v="251532" />
	</node>
	<node lat="60.86156389279123" lon="5.263841666226801" id="-32502">
		<tag k="name" v="Hindefossen" />
		<tag k="natural" v="waterfall" />
		<tag k="ssr:stedsnr" v="251534" />
	</node>
	<node lat="60.837225001137064" lon="5.29967500819962" id="-32503">
		<tag k="name" v="Hytta" />
		<tag k="natural" v="hill" />
		<tag k="place" v="locality" />
		<tag k="ssr:stedsnr" v="251593" />
	</node>
	<node lat="60.833331911439046" lon="5.300285718111756" id="-32504">
		<tag k="fixme" v="multiple name tags, choose one and add the other to alt_name" />
		<tag k="name" v="Storhogen;Storehogen" />
		<tag k="natural" v="hill" />
		<tag k="place" v="locality" />
		<tag k="ssr:stedsnr" v="251594" />
	</node>
	<node lat="60.840802780720715" lon="5.381852776274962" id="-32505">
		<tag k="fixme" v="consider natural=peak for the most distinct mountains in the district" />
		<tag k="name" v="Raunebotsfjellet" />
		<tag k="natural" v="hill" />
		<tag k="place" v="locality" />
		<tag k="ssr:stedsnr" v="251602" />
	</node>
	<node lat="60.813922223061276" lon="5.149736115596168" id="-32506">
		<tag k="name" v="Skageflua" />
		<tag k="natural" v="shoal" />
		<tag k="place" v="locality" />
		<tag k="ssr:stedsnr" v="251629" />
	</node>
	<node lat="60.81408889253844" lon="5.351486115731432" id="-32507">
		<tag k="name" v="Mølsvikelva" />
		<tag k="ssr:stedsnr" v="251648" />
		<tag k="waterway" v="river" />
	</node>
	<node lat="60.79917777755441" lon="5.180694447867306" id="-32508">
		<tag k="name" v="Indre Raunholmen" />
		<tag k="place" v="islet" />
		<tag k="ssr:stedsnr" v="251655" />
	</node>
	<node lat="60.81198055656608" lon="5.384844439164084" id="-32509">
		<tag k="name" v="Hovland" />
		<tag k="place" v="farm" />
		<tag k="ssr:stedsnr" v="251659" />
	</node>
	<node lat="60.811049997325355" lon="5.293513884077546" id="-32510">
		<tag k="name" v="Grunnevikholmen" />
		<tag k="place" v="islet" />
		<tag k="ssr:stedsnr" v="251662" />
	</node>
	<node lat="60.80770000178437" lon="5.309358335104955" id="-32511">
		<tag k="name" v="Skarvetangen" />
		<tag k="natural" v="cape" />
		<tag k="ssr:stedsnr" v="251664" />
	</node>
	<node lat="60.80147777380785" lon="5.371894438003528" id="-32512">
		<tag k="fixme" v="consider natural=peak for the most distinct mountains in the district" />
		<tag k="name" v="Vardefjellet" />
		<tag k="natural" v="hill" />
		<tag k="place" v="locality" />
		<tag k="ssr:stedsnr" v="251669" />
	</node>
	<node lat="60.797277119507044" lon="5.245983690358631" id="-32513">
		<tag k="name" v="Setrevikneset" />
		<tag k="natural" v="cape" />
		<tag k="ssr:stedsnr" v="251683" />
	</node>
	<node lat="60.755255554724975" lon="5.308724993280842" id="-32514">
		<tag k="name" v="Elvikesetret" />
		<tag k="place" v="farm" />
		<tag k="ssr:stedsnr" v="251752" />
	</node>
	<node lat="60.75875278226063" lon="5.386963889302143" id="-32515">
		<tag k="fixme" v="consider natural=peak for the most distinct mountains in the district" />
		<tag k="name" v="Vindskifjellet" />
		<tag k="natural" v="hill" />
		<tag k="place" v="locality" />
		<tag k="ssr:stedsnr" v="251754" />
	</node>
	<node lat="60.76240930762971" lon="5.432984394783064" id="-32516">
		<tag k="name" v="Setretjørna" />
		<tag k="natural" v="water" />
		<tag k="ssr:stedsnr" v="251773" />
	</node>
	<node lat="60.752026463588585" lon="5.37871577879676" id="-32517">
		<tag k="fixme" v="consider place=hamlet" />
		<tag k="name" v="Nordkvingo" />
		<tag k="place" v="farm" />
		<tag k="ssr:stedsnr" v="251777" />
	</node>
	<node lat="60.92841110727675" lon="5.311055551404706" id="-32518">
		<tag k="alt_name" v="Gullifjellet" />
		<tag k="fixme" v="consider natural=peak for the most distinct mountains in the district" />
		<tag k="name" v="Gulelifjellet" />
		<tag k="natural" v="hill" />
		<tag k="place" v="locality" />
		<tag k="ssr:stedsnr" v="251881" />
	</node>
	<node lat="60.935108329841505" lon="5.29934999903229" id="-32519">
		<tag k="name" v="Transdalen" />
		<tag k="natural" v="valley" />
		<tag k="place" v="locality" />
		<tag k="ssr:stedsnr" v="251882" />
	</node>
	<node lat="60.89459999605289" lon="5.190166658982472" id="-32520">
		<tag k="fixme" v="consider natural=peak for the most distinct mountains in the district" />
		<tag k="name" v="Bastelikletten" />
		<tag k="natural" v="hill" />
		<tag k="place" v="locality" />
		<tag k="ssr:stedsnr" v="251934" />
	</node>
	<node lat="60.90701389234797" lon="5.21930000360851" id="-32521">
		<tag k="name" v="Myrdalen" />
		<tag k="natural" v="valley" />
		<tag k="place" v="locality" />
		<tag k="ssr:stedsnr" v="251949" />
	</node>
	<node lat="60.85257499785778" lon="5.280602776396478" id="-32522">
		<tag k="fixme" v="consider natural=peak for the most distinct mountains in the district" />
		<tag k="name" v="Snaufjellet" />
		<tag k="natural" v="hill" />
		<tag k="place" v="locality" />
		<tag k="ssr:stedsnr" v="251983" />
	</node>
	<node lat="60.87987777764972" lon="5.329638892228264" id="-32523">
		<tag k="fixme" v="consider natural=peak for the most distinct mountains in the district" />
		<tag k="name" v="Geiteberget" />
		<tag k="natural" v="hill" />
		<tag k="place" v="locality" />
		<tag k="ssr:stedsnr" v="251995" />
	</node>
	<node lat="60.882000000915234" lon="5.389619443479804" id="-32524">
		<tag k="name" v="Solhaug" />
		<tag k="place" v="farm" />
		<tag k="ssr:stedsnr" v="251996" />
	</node>
	<node lat="60.924441663292214" lon="5.448844443989653" id="-32525">
		<tag k="name" v="Kupegga" />
		<tag k="natural" v="ridge" />
		<tag k="place" v="locality" />
		<tag k="ssr:stedsnr" v="251959" />
	</node>
	<node lat="60.893158332353536" lon="5.410591675772742" id="-32526">
		<tag k="name" v="Sollielva" />
		<tag k="ssr:stedsnr" v="251962" />
		<tag k="waterway" v="river" />
	</node>
	<node lat="60.89329444763395" lon="5.41505000482285" id="-32527">
		<tag k="fixme" v="consider natural=peak for the most distinct mountains in the district" />
		<tag k="name" v="Litlefjellet" />
		<tag k="natural" v="hill" />
		<tag k="place" v="locality" />
		<tag k="ssr:stedsnr" v="251963" />
	</node>
	<node lat="60.89433889012403" lon="5.3287583250185495" id="-32528">
		<tag k="name" v="Træet" />
		<tag k="place" v="locality" />
		<tag k="ssr:stedsnr" v="251968" />
	</node>
	<node lat="60.8992416685829" lon="5.409769438699578" id="-32529">
		<tag k="name" v="Sollidalen" />
		<tag k="natural" v="valley" />
		<tag k="place" v="locality" />
		<tag k="ssr:stedsnr" v="251971" />
	</node>
	<node lat="60.84665832978478" lon="5.319466659288359" id="-32530">
		<tag k="fixme" v="consider natural=peak for the most distinct mountains in the district" />
		<tag k="name" v="Heinakken" />
		<tag k="natural" v="hill" />
		<tag k="place" v="locality" />
		<tag k="ssr:stedsnr" v="251977" />
	</node>
	<node lat="60.90170555149783" lon="5.369055562528788" id="-32531">
		<tag k="fixme" v="consider natural=peak for the most distinct mountains in the district" />
		<tag k="name" v="Skredfjellet" />
		<tag k="natural" v="hill" />
		<tag k="place" v="locality" />
		<tag k="ssr:stedsnr" v="251981" />
	</node>
	<node lat="60.89735833513852" lon="5.346155549619047" id="-32532">
		<tag k="fixme" v="consider natural=peak for the most distinct mountains in the district" />
		<tag k="name" v="Grønefjellet" />
		<tag k="natural" v="hill" />
		<tag k="place" v="locality" />
		<tag k="ssr:stedsnr" v="251982" />
	</node>
	<node lat="60.74662777611101" lon="5.42625555320857" id="-32533">
		<tag k="fixme" v="consider natural=peak for the most distinct mountains in the district" />
		<tag k="name" v="Stornuten" />
		<tag k="natural" v="hill" />
		<tag k="place" v="locality" />
		<tag k="ssr:stedsnr" v="127699" />
	</node>
	<node lat="60.96143333129591" lon="5.626013890965283" id="-32534">
		<tag k="name" v="Hestevatnet" />
		<tag k="natural" v="water" />
		<tag k="ssr:stedsnr" v="129295" />
	</node>
	<node lat="60.962463892743536" lon="5.724441663881708" id="-32535">
		<tag k="fixme" v="consider natural=peak for the most distinct mountains in the district" />
		<tag k="name" v="Geitelirusta" />
		<tag k="natural" v="hill" />
		<tag k="place" v="locality" />
		<tag k="ssr:stedsnr" v="129300" />
	</node>
	<node lat="60.83888333532903" lon="5.522263885402856" id="-32536">
		<tag k="fixme" v="consider natural=peak for the most distinct mountains in the district" />
		<tag k="name" v="Hestfjellet" />
		<tag k="natural" v="hill" />
		<tag k="place" v="locality" />
		<tag k="ssr:stedsnr" v="129413" />
	</node>
	<node lat="60.84740989934268" lon="5.565643367778176" id="-32537">
		<tag k="name" v="Langetjørna" />
		<tag k="natural" v="water" />
		<tag k="ssr:stedsnr" v="129419" />
	</node>
	<node lat="60.87386111006357" lon="5.3607638949753" id="-32538">
		<tag k="name" v="Stallane" />
		<tag k="natural" v="cape" />
		<tag k="ssr:stedsnr" v="129504" />
	</node>
	<node lat="60.92189999956338" lon="5.23286110954571" id="-32539">
		<tag k="name" v="Grindebotnen" />
		<tag k="natural" v="valley" />
		<tag k="place" v="locality" />
		<tag k="ssr:stedsnr" v="129903" />
	</node>
	<node lat="60.883211107405835" lon="5.450291675655654" id="-32540">
		<tag k="name" v="Oldreneset" />
		<tag k="natural" v="cape" />
		<tag k="ssr:stedsnr" v="129980" />
	</node>
	<node lat="60.86484166825823" lon="5.14438888275271" id="-32541">
		<tag k="alt_name" v="Vestrelifjellet" />
		<tag k="fixme" v="consider natural=peak for the most distinct mountains in the district" />
		<tag k="name" v="Svelikulten" />
		<tag k="natural" v="hill" />
		<tag k="place" v="locality" />
		<tag k="ssr:stedsnr" v="129983" />
	</node>
	<node lat="60.882383329312226" lon="5.387219448285196" id="-32542">
		<tag k="name" v="Fossheim" />
		<tag k="place" v="farm" />
		<tag k="ssr:stedsnr" v="129989" />
	</node>
	<node lat="60.88161388853456" lon="5.400686116402062" id="-32543">
		<tag k="name" v="Eikemodalen" />
		<tag k="natural" v="valley" />
		<tag k="place" v="locality" />
		<tag k="ssr:stedsnr" v="129994" />
	</node>
	<node lat="60.935911108149675" lon="5.563797213440323" id="-32544">
		<tag k="fixme" v="consider natural=peak for the most distinct mountains in the district" />
		<tag k="name" v="Kupa" />
		<tag k="natural" v="hill" />
		<tag k="place" v="locality" />
		<tag k="ssr:stedsnr" v="130230" />
	</node>
	<node lat="60.88020555405852" lon="5.577986118465709" id="-32545">
		<tag k="fixme" v="consider natural=peak for the most distinct mountains in the district" />
		<tag k="name" v="Hestefjellet" />
		<tag k="natural" v="hill" />
		<tag k="place" v="locality" />
		<tag k="ssr:stedsnr" v="130305" />
	</node>
	<node lat="60.89483611381263" lon="5.563886105732776" id="-32546">
		<tag k="fixme" v="consider natural=peak for the most distinct mountains in the district" />
		<tag k="name" v="Såta" />
		<tag k="natural" v="hill" />
		<tag k="place" v="locality" />
		<tag k="ssr:stedsnr" v="130311" />
	</node>
	<node lat="60.89465555300574" lon="5.589619443340122" id="-32547">
		<tag k="alt_name" v="Slottefjellet" />
		<tag k="fixme" v="consider natural=peak for the most distinct mountains in the district" />
		<tag k="name" v="Matresfjellet" />
		<tag k="natural" v="hill" />
		<tag k="place" v="locality" />
		<tag k="ssr:stedsnr" v="130323" />
	</node>
	<node lat="60.84000000307204" lon="5.232175005147298" id="-32548">
		<tag k="name" v="Skogedalen" />
		<tag k="natural" v="valley" />
		<tag k="place" v="locality" />
		<tag k="ssr:stedsnr" v="130513" />
	</node>
	<node lat="60.852341669336205" lon="5.250902782673007" id="-32549">
		<tag k="name" v="Bjørnestigfjellet" />
		<tag k="natural" v="hill" />
		<tag k="place" v="locality" />
		<tag k="ssr:stedsnr" v="130494" />
	</node>
	<node lat="60.824577779576" lon="5.430719442081782" id="-32550">
		<tag k="fixme" v="consider natural=peak for the most distinct mountains in the district" />
		<tag k="name" v="Sørliegga" />
		<tag k="natural" v="hill" />
		<tag k="place" v="locality" />
		<tag k="ssr:stedsnr" v="130597" />
	</node>
	<node lat="60.841647220780615" lon="5.445727781369085" id="-32551">
		<tag k="name" v="Glyvrebotsvatnet" />
		<tag k="natural" v="water" />
		<tag k="ssr:stedsnr" v="141506" />
		<tag k="water" v="lake" />
	</node>
	<node lat="60.83129444195761" lon="5.430791662614584" id="-32552">
		<tag k="historic" v="shieling" />
		<tag k="name" v="Stølen" />
		<tag k="place" v="isolated_dwelling" />
		<tag k="ssr:stedsnr" v="141510" />
	</node>
	<node lat="60.92078610765925" lon="5.490861108045854" id="-32553">
		<tag k="name" v="Klyphogen" />
		<tag k="natural" v="hill" />
		<tag k="place" v="locality" />
		<tag k="ssr:stedsnr" v="141541" />
	</node>
	<node lat="60.866250002332315" lon="5.2787666648917515" id="-32554">
		<tag k="name" v="Lona" />
		<tag k="natural" v="water" />
		<tag k="ssr:stedsnr" v="141420" />
	</node>
	<node lat="60.83861111324713" lon="5.302991671785448" id="-32555">
		<tag k="name" v="Akstregota" />
		<tag k="natural" v="valley" />
		<tag k="place" v="locality" />
		<tag k="ssr:stedsnr" v="141488" />
	</node>
	<node lat="60.90368332988412" lon="5.428291670834328" id="-32556">
		<tag k="name" v="Stallegjelet" />
		<tag k="natural" v="gorge" />
		<tag k="ssr:stedsnr" v="141605" />
	</node>
	<node lat="60.903355551701154" lon="5.238227780916849" id="-32557">
		<tag k="name" v="Brunene" />
		<tag k="natural" v="ridge" />
		<tag k="place" v="locality" />
		<tag k="ssr:stedsnr" v="141621" />
	</node>
	<node lat="60.889675000043425" lon="5.229036102698072" id="-32558">
		<tag k="name" v="Høgemark" />
		<tag k="place" v="farm" />
		<tag k="ssr:stedsnr" v="141625" />
	</node>
	<node lat="60.92163332998524" lon="5.543555548367047" id="-32559">
		<tag k="name" v="Hogen" />
		<tag k="natural" v="hill" />
		<tag k="place" v="locality" />
		<tag k="ssr:stedsnr" v="141691" />
	</node>
	<node lat="60.91302500207299" lon="5.531497227573748" id="-32560">
		<tag k="fixme" v="consider natural=peak for the most distinct mountains in the district" />
		<tag k="name" v="Sandvikefjellet" />
		<tag k="natural" v="hill" />
		<tag k="place" v="locality" />
		<tag k="ssr:stedsnr" v="141696" />
	</node>
	<node lat="60.79308055703653" lon="5.2562249962959235" id="-32561">
		<tag k="name" v="Sanden" />
		<tag k="natural" v="bay" />
		<tag k="ssr:stedsnr" v="142204" />
	</node>
	<node lat="60.77888611527949" lon="5.254172228889083" id="-32562">
		<tag k="name" v="Nordretangen" />
		<tag k="natural" v="cape" />
		<tag k="ssr:stedsnr" v="142206" />
	</node>
	<node lat="60.79745555870355" lon="5.308602786456487" id="-32563">
		<tag k="name" v="Djupeskarhaugen" />
		<tag k="natural" v="hill" />
		<tag k="place" v="locality" />
		<tag k="ssr:stedsnr" v="142337" />
	</node>
	<node lat="60.78290000009918" lon="5.331944435398443" id="-32564">
		<tag k="name" v="Trongeskaret" />
		<tag k="natural" v="valley" />
		<tag k="place" v="locality" />
		<tag k="ssr:stedsnr" v="142342" />
	</node>
	<node lat="60.91508055270186" lon="5.4362527797076545" id="-32565">
		<tag k="name" v="Yndesdalslia" />
		<tag k="natural" v="slope" />
		<tag k="place" v="locality" />
		<tag k="ssr:stedsnr" v="142395" />
	</node>
	<node lat="60.843374997714704" lon="5.399619435844515" id="-32566">
		<tag k="fixme" v="consider natural=peak for the most distinct mountains in the district" />
		<tag k="name" v="Nipene" />
		<tag k="natural" v="hill" />
		<tag k="place" v="locality" />
		<tag k="ssr:stedsnr" v="142413" />
	</node>
	<node lat="60.958352777082986" lon="5.71525278514016" id="-32567">
		<tag k="name" v="Geitelia" />
		<tag k="natural" v="slope" />
		<tag k="place" v="locality" />
		<tag k="ssr:stedsnr" v="142815" />
	</node>
	<node lat="60.748113395817875" lon="5.386241953280221" id="-32568">
		<tag k="name" v="Hola" />
		<tag k="natural" v="bay" />
		<tag k="ssr:stedsnr" v="165163" />
	</node>
	<node lat="60.764630552562906" lon="5.353238889265613" id="-32569">
		<tag k="bridge" v="yes" />
		<tag k="layer" v="1" />
		<tag k="name" v="Mjåanger" />
		<tag k="ssr:stedsnr" v="168078" />
	</node>
	<node lat="60.861644448793676" lon="5.271186117371497" id="-32570">
		<tag k="bridge" v="yes" />
		<tag k="layer" v="1" />
		<tag k="name" v="Ostevatn" />
		<tag k="ssr:stedsnr" v="168079" />
	</node>
	<node lat="60.74828055350732" lon="5.431819448399209" id="-32571">
		<tag k="fixme" v="consider natural=peak for the most distinct mountains in the district" />
		<tag k="name" v="Nutefjellet" />
		<tag k="natural" v="hill" />
		<tag k="place" v="locality" />
		<tag k="ssr:stedsnr" v="188708" />
	</node>
	<node lat="60.82465000165026" lon="5.46560555365317" id="-32572">
		<tag k="name" v="Torhaugen" />
		<tag k="natural" v="hill" />
		<tag k="place" v="locality" />
		<tag k="ssr:stedsnr" v="190213" />
	</node>
	<node lat="60.922361108461644" lon="5.636908339448648" id="-32573">
		<tag k="fixme" v="consider natural=peak for the most distinct mountains in the district" />
		<tag k="name" v="Brydalsfjellet" />
		<tag k="natural" v="hill" />
		<tag k="place" v="locality" />
		<tag k="ssr:stedsnr" v="190261" />
	</node>
	<node lat="60.83372777497836" lon="5.519274993475974" id="-32574">
		<tag k="name" v="Tverrbjørg" />
		<tag k="place" v="farm" />
		<tag k="ssr:stedsnr" v="190430" />
	</node>
	<node lat="60.82124999817982" lon="5.196174993007379" id="-32575">
		<tag k="name" v="Hånesholmen" />
		<tag k="place" v="islet" />
		<tag k="ssr:stedsnr" v="190605" />
	</node>
	<node lat="60.81848159322455" lon="5.431868209873505" id="-32576">
		<tag k="name" v="Raunebotsvatnet" />
		<tag k="natural" v="water" />
		<tag k="ssr:stedsnr" v="190617" />
	</node>
	<node lat="60.89911944664394" lon="5.620152785025042" id="-32577">
		<tag k="name" v="Hummelfossen" />
		<tag k="natural" v="waterfall" />
		<tag k="ssr:stedsnr" v="190361" />
	</node>
	<node lat="60.92710019292443" lon="5.838971371032901" id="-32578">
		<tag k="name" v="Harekupvatnet" />
		<tag k="natural" v="water" />
		<tag k="ssr:stedsnr" v="190371" />
	</node>
	<node lat="60.87763566189362" lon="5.378021361232336" id="-32579">
		<tag k="name" v="Hatlekråna" />
		<tag k="natural" v="bay" />
		<tag k="ssr:stedsnr" v="190516" />
	</node>
	<node lat="60.86364166981702" lon="5.305033323841063" id="-32580">
		<tag k="name" v="Tenndalen" />
		<tag k="natural" v="valley" />
		<tag k="place" v="locality" />
		<tag k="ssr:stedsnr" v="190517" />
	</node>
	<node lat="60.865850003894586" lon="5.427519437500619" id="-32581">
		<tag k="name" v="Kaldgjelet" />
		<tag k="natural" v="valley" />
		<tag k="place" v="locality" />
		<tag k="ssr:stedsnr" v="190522" />
	</node>
	<node lat="60.86343888528532" lon="5.343980554110954" id="-32582">
		<tag k="name" v="Sagevika" />
		<tag k="natural" v="bay" />
		<tag k="ssr:stedsnr" v="190527" />
	</node>
	<node lat="60.839225002808604" lon="5.259363893756077" id="-32583">
		<tag k="name" v="Midtbø" />
		<tag k="place" v="farm" />
		<tag k="ssr:stedsnr" v="190559" />
	</node>
	<node lat="60.841763888919914" lon="5.3130277813603275" id="-32584">
		<tag k="name" v="Vassbugen" />
		<tag k="natural" v="bay" />
		<tag k="ssr:stedsnr" v="190566" />
	</node>
	<node lat="60.842986108211434" lon="5.40027500006031" id="-32585">
		<tag k="fixme" v="consider natural=peak for the most distinct mountains in the district" />
		<tag k="name" v="Tverrfjellet" />
		<tag k="natural" v="hill" />
		<tag k="place" v="locality" />
		<tag k="ssr:stedsnr" v="190571" />
	</node>
	<node lat="60.83050833562643" lon="5.206088895999316" id="-32586">
		<tag k="name" v="Steinholmen" />
		<tag k="place" v="islet" />
		<tag k="ssr:stedsnr" v="190577" />
	</node>
	<node lat="60.82617778114154" lon="5.203594435021599" id="-32587">
		<tag k="name" v="Dragøyosen" />
		<tag k="natural" v="strait" />
		<tag k="ssr:stedsnr" v="190580" />
	</node>
	<node lat="60.90853610668512" lon="5.195863889992771" id="-32588">
		<tag k="fixme" v="consider natural=peak for the most distinct mountains in the district" />
		<tag k="name" v="Storenova" />
		<tag k="natural" v="hill" />
		<tag k="place" v="locality" />
		<tag k="ssr:stedsnr" v="190959" />
	</node>
	<node lat="60.90319999763807" lon="5.391944449726272" id="-32589">
		<tag k="fixme" v="consider natural=peak for the most distinct mountains in the district" />
		<tag k="name" v="Myrbærfjellet" />
		<tag k="natural" v="hill" />
		<tag k="place" v="locality" />
		<tag k="ssr:stedsnr" v="190960" />
	</node>
	<node lat="60.87200906317478" lon="5.256243768890513" id="-32590">
		<tag k="fixme" v="consider place=hamlet" />
		<tag k="name" v="Låveidet" />
		<tag k="place" v="farm" />
		<tag k="ssr:stedsnr" v="190965" />
	</node>
	<node lat="60.86596389073879" lon="5.533561109664751" id="-32591">
		<tag k="name" v="Ospehaugen" />
		<tag k="natural" v="hill" />
		<tag k="place" v="locality" />
		<tag k="ssr:stedsnr" v="191274" />
	</node>
	<node lat="60.87150555116172" lon="5.554297215305361" id="-32592">
		<tag k="bay" v="fjord" />
		<tag k="name" v="Matresfjorden" />
		<tag k="natural" v="bay" />
		<tag k="ssr:stedsnr" v="191278" />
	</node>
	<node lat="60.79679444095642" lon="5.2154861050153665" id="-32593">
		<tag k="name" v="Breivika" />
		<tag k="natural" v="bay" />
		<tag k="ssr:stedsnr" v="191610" />
	</node>
	<node lat="60.797263893396575" lon="5.226033341412858" id="-32594">
		<tag k="name" v="Kariholmen" />
		<tag k="place" v="islet" />
		<tag k="ssr:stedsnr" v="191611" />
	</node>
	<node lat="60.79705626444401" lon="5.247315863045566" id="-32595">
		<tag k="name" v="Søre Setrevika" />
		<tag k="natural" v="bay" />
		<tag k="ssr:stedsnr" v="191613" />
	</node>
	<node lat="60.76101111316848" lon="5.351052780062837" id="-32596">
		<tag k="name" v="Mjangerslia" />
		<tag k="natural" v="slope" />
		<tag k="place" v="locality" />
		<tag k="ssr:stedsnr" v="191660" />
	</node>
	<node lat="60.75617777499254" lon="5.459052777893199" id="-32597">
		<tag k="fixme" v="consider natural=peak for the most distinct mountains in the district" />
		<tag k="name" v="Klefjellet" />
		<tag k="natural" v="hill" />
		<tag k="place" v="locality" />
		<tag k="ssr:stedsnr" v="191667" />
	</node>
	<node lat="60.75376110859094" lon="5.423625008341246" id="-32598">
		<tag k="fixme" v="consider natural=peak for the most distinct mountains in the district" />
		<tag k="name" v="Nedre Klefjellet" />
		<tag k="natural" v="hill" />
		<tag k="place" v="locality" />
		<tag k="ssr:stedsnr" v="191669" />
	</node>
	<node lat="60.80533055506931" lon="5.396724998265193" id="-32599">
		<tag k="name" v="Tveråfossen" />
		<tag k="natural" v="waterfall" />
		<tag k="ssr:stedsnr" v="263179" />
	</node>
	<node lat="60.8045583288952" lon="5.400599994457743" id="-32600">
		<tag k="fixme" v="consider natural=peak for the most distinct mountains in the district" />
		<tag k="name" v="Skredfjellet" />
		<tag k="natural" v="hill" />
		<tag k="place" v="locality" />
		<tag k="ssr:stedsnr" v="263181" />
	</node>
	<node lat="60.85256375459208" lon="5.267978944118636" id="-32601">
		<tag k="name" v="Hindevatnet" />
		<tag k="natural" v="water" />
		<tag k="ssr:stedsnr" v="191505" />
	</node>
	<node lat="60.852017383674756" lon="5.43363634786181" id="-32602">
		<tag k="name" v="Ljøsåvatnet" />
		<tag k="natural" v="water" />
		<tag k="ssr:stedsnr" v="191511" />
	</node>
	<node lat="60.784975001020754" lon="5.218199991471415" id="-32603">
		<tag k="name" v="Tjørevika" />
		<tag k="natural" v="bay" />
		<tag k="ssr:stedsnr" v="263242" />
	</node>
	<node lat="60.78134444554258" lon="5.183552774733634" id="-32604">
		<tag k="bay" v="fjord" />
		<tag k="name" v="Fensfjorden" />
		<tag k="natural" v="bay" />
		<tag k="ssr:stedsnr" v="263243" />
	</node>
	<node lat="60.86510555465477" lon="5.159108325223636" id="-32605">
		<tag k="name" v="Hestegardshogen" />
		<tag k="natural" v="hill" />
		<tag k="place" v="locality" />
		<tag k="ssr:stedsnr" v="263245" />
	</node>
	<node lat="60.732283334586576" lon="5.430588883972753" id="-32606">
		<tag k="fixme" v="consider natural=peak for the most distinct mountains in the district" />
		<tag k="name" v="Midtfjellet" />
		<tag k="natural" v="hill" />
		<tag k="place" v="locality" />
		<tag k="ssr:stedsnr" v="263323" />
	</node>
	<node lat="60.71763889150522" lon="5.442983341330825" id="-32607">
		<tag k="name" v="Husefjellet" />
		<tag k="natural" v="hill" />
		<tag k="place" v="locality" />
		<tag k="ssr:stedsnr" v="263330" />
	</node>
	<node lat="60.78853889047485" lon="5.461655561019119" id="-32608">
		<tag k="name" v="Stortona" />
		<tag k="natural" v="ridge" />
		<tag k="place" v="locality" />
		<tag k="ssr:stedsnr" v="263334" />
	</node>
	<node lat="60.87784166680772" lon="5.31298889364796" id="-32609">
		<tag k="name" v="Middagsskaret" />
		<tag k="natural" v="valley" />
		<tag k="place" v="locality" />
		<tag k="ssr:stedsnr" v="263414" />
	</node>
	<node lat="60.88761389222059" lon="5.390022220738508" id="-32610">
		<tag k="name" v="Heia" />
		<tag k="natural" v="hill" />
		<tag k="place" v="locality" />
		<tag k="ssr:stedsnr" v="263432" />
	</node>
	<node lat="60.76628055322625" lon="5.27784444479724" id="-32611">
		<tag k="name" v="Hovhogen" />
		<tag k="natural" v="hill" />
		<tag k="place" v="locality" />
		<tag k="ssr:stedsnr" v="263352" />
	</node>
	<node lat="60.78467499561424" lon="5.3347694453239995" id="-32612">
		<tag k="name" v="Djupebotnen" />
		<tag k="natural" v="valley" />
		<tag k="place" v="locality" />
		<tag k="ssr:stedsnr" v="263354" />
	</node>
	<node lat="60.76471110759697" lon="5.2922611032564495" id="-32613">
		<tag k="name" v="Orrdalen" />
		<tag k="natural" v="valley" />
		<tag k="place" v="locality" />
		<tag k="ssr:stedsnr" v="263359" />
	</node>
	<node lat="60.79421388702201" lon="5.311341673057252" id="-32614">
		<tag k="historic" v="shieling" />
		<tag k="name" v="Setsstølen" />
		<tag k="place" v="isolated_dwelling" />
		<tag k="ssr:stedsnr" v="263370" />
	</node>
	<node lat="60.81173857936504" lon="5.251425250158004" id="-32615">
		<tag k="name" v="Doppetjørna" />
		<tag k="natural" v="water" />
		<tag k="ssr:stedsnr" v="263383" />
	</node>
	<node lat="60.81998876031633" lon="5.245145224545628" id="-32616">
		<tag k="name" v="Skjelsundtjørna" />
		<tag k="natural" v="water" />
		<tag k="ssr:stedsnr" v="263384" />
	</node>
	<node lat="60.76256388849563" lon="5.326258330606618" id="-32617">
		<tag k="name" v="Vassbakken" />
		<tag k="natural" v="slope" />
		<tag k="place" v="locality" />
		<tag k="ssr:stedsnr" v="263386" />
	</node>
	<node lat="60.911483332471946" lon="5.438516661180528" id="-32618">
		<tag k="fixme" v="consider natural=peak for the most distinct mountains in the district" />
		<tag k="name" v="Botnefjellet" />
		<tag k="natural" v="hill" />
		<tag k="place" v="locality" />
		<tag k="ssr:stedsnr" v="263439" />
	</node>
	<node lat="60.86024444020319" lon="5.382033339877408" id="-32619">
		<tag k="name" v="Raunebotnane" />
		<tag k="natural" v="valley" />
		<tag k="place" v="locality" />
		<tag k="ssr:stedsnr" v="263446" />
	</node>
	<node lat="60.854363888968564" lon="5.341147217605506" id="-32620">
		<tag k="name" v="Gjerdbergvika" />
		<tag k="natural" v="bay" />
		<tag k="ssr:stedsnr" v="263455" />
	</node>
	<node lat="60.88126666285778" lon="5.415861107607615" id="-32621">
		<tag k="name" v="Middagsskaret" />
		<tag k="natural" v="valley" />
		<tag k="place" v="locality" />
		<tag k="ssr:stedsnr" v="263458" />
	</node>
	<node lat="60.828769441694874" lon="5.419747214516637" id="-32622">
		<tag k="name" v="Bustøa" />
		<tag k="place" v="locality" />
		<tag k="ssr:stedsnr" v="263463" />
	</node>
	<node lat="60.790969446608656" lon="5.378622221978585" id="-32623">
		<tag k="name" v="Svartediket" />
		<tag k="ssr:stedsnr" v="263485" />
		<tag k="waterway" v="drain" />
	</node>
	<node lat="60.75773333543385" lon="5.394180559221265" id="-32624">
		<tag k="name" v="Døldhola" />
		<tag k="natural" v="valley" />
		<tag k="place" v="locality" />
		<tag k="ssr:stedsnr" v="263486" />
	</node>
	<node lat="60.91596388788772" lon="5.473772221100603" id="-32625">
		<tag k="name" v="Bjørnaberget" />
		<tag k="natural" v="hill" />
		<tag k="place" v="locality" />
		<tag k="ssr:stedsnr" v="263547" />
	</node>
	<node lat="60.891146549072204" lon="5.286950671189594" id="-32626">
		<tag k="name" v="Lindebotstjørna" />
		<tag k="natural" v="water" />
		<tag k="ssr:stedsnr" v="263638" />
	</node>
	<node lat="60.85290465230774" lon="5.222338962440673" id="-32627">
		<tag k="name" v="Høgebergtjørna" />
		<tag k="natural" v="water" />
		<tag k="ssr:stedsnr" v="263640" />
	</node>
	<node lat="60.84338333366605" lon="5.208933330434112" id="-32628">
		<tag k="name" v="Kvernhusvika" />
		<tag k="natural" v="bay" />
		<tag k="ssr:stedsnr" v="263646" />
	</node>
	<node lat="60.85357221884548" lon="5.205316661727411" id="-32629">
		<tag k="name" v="Stølsneset" />
		<tag k="place" v="farm" />
		<tag k="ssr:stedsnr" v="263653" />
	</node>
	<node lat="60.850163884391435" lon="5.169497220238459" id="-32630">
		<tag k="name" v="Åsgarden" />
		<tag k="natural" v="valley" />
		<tag k="place" v="locality" />
		<tag k="ssr:stedsnr" v="263657" />
	</node>
	<node lat="60.857568315520844" lon="5.1699171397245935" id="-32631">
		<tag k="name" v="Erdalstjørna" />
		<tag k="natural" v="water" />
		<tag k="ssr:stedsnr" v="263658" />
	</node>
	<node lat="60.92633611202298" lon="5.444369438473635" id="-32632">
		<tag k="name" v="Kupa" />
		<tag k="natural" v="valley" />
		<tag k="place" v="locality" />
		<tag k="ssr:stedsnr" v="263436" />
	</node>
	<node lat="60.833144445219006" lon="5.255022214044957" id="-32633">
		<tag k="name" v="Træet" />
		<tag k="place" v="farm" />
		<tag k="ssr:stedsnr" v="263521" />
	</node>
	<node lat="60.91328611418727" lon="5.287777778032342" id="-32634">
		<tag k="name" v="Kubotnen" />
		<tag k="natural" v="valley" />
		<tag k="place" v="locality" />
		<tag k="ssr:stedsnr" v="263621" />
	</node>
	<node lat="60.89823296144189" lon="5.457382712476864" id="-32635">
		<tag k="name" v="Midtkviltjørna" />
		<tag k="natural" v="water" />
		<tag k="ssr:stedsnr" v="263623" />
	</node>
	<node lat="60.89480278158024" lon="5.251838895505784" id="-32636">
		<tag k="name" v="Inste Vaulen" />
		<tag k="place" v="island" />
		<tag k="ssr:stedsnr" v="263633" />
	</node>
	<node lat="60.892930558857095" lon="5.469911105778665" id="-32637">
		<tag k="name" v="Rotekleiva" />
		<tag k="natural" v="slope" />
		<tag k="place" v="locality" />
		<tag k="ssr:stedsnr" v="263739" />
	</node>
	<node lat="60.91644722159236" lon="5.536819440459984" id="-32638">
		<tag k="name" v="Øvsta Såta" />
		<tag k="natural" v="ridge" />
		<tag k="place" v="locality" />
		<tag k="ssr:stedsnr" v="263745" />
	</node>
	<node lat="60.890808335110165" lon="5.189588891642589" id="-32639">
		<tag k="name" v="Sauedalane" />
		<tag k="natural" v="valley" />
		<tag k="place" v="locality" />
		<tag k="ssr:stedsnr" v="263673" />
	</node>
	<node lat="60.83443333644315" lon="5.193430550733067" id="-32640">
		<tag k="name" v="Storevågen" />
		<tag k="natural" v="bay" />
		<tag k="ssr:stedsnr" v="263683" />
	</node>
	<node lat="60.84162500017012" lon="5.204730559661778" id="-32641">
		<tag k="name" v="Bergholmen" />
		<tag k="place" v="islet" />
		<tag k="ssr:stedsnr" v="263685" />
	</node>
	<node lat="60.899497835351056" lon="5.544143296057614" id="-32642">
		<tag k="name" v="Litlevatnet" />
		<tag k="natural" v="water" />
		<tag k="ssr:stedsnr" v="263717" />
		<tag k="water" v="lake" />
	</node>
	<node lat="60.891741666379836" lon="5.541841662161797" id="-32643">
		<tag k="name" v="Utleskaret" />
		<tag k="natural" v="valley" />
		<tag k="place" v="locality" />
		<tag k="ssr:stedsnr" v="263720" />
	</node>
	<node lat="60.788527779177805" lon="5.222205550672106" id="-32644">
		<tag k="name" v="Vågen" />
		<tag k="natural" v="bay" />
		<tag k="ssr:stedsnr" v="263729" />
	</node>
	<node lat="60.78987777863585" lon="5.223858338944658" id="-32645">
		<tag k="name" v="Heia" />
		<tag k="natural" v="hill" />
		<tag k="place" v="locality" />
		<tag k="ssr:stedsnr" v="263734" />
	</node>
	<node lat="60.90558888513912" lon="5.46711666479142" id="-32646">
		<tag k="name" v="Steinløypneset" />
		<tag k="natural" v="cape" />
		<tag k="ssr:stedsnr" v="263735" />
	</node>
	<node lat="60.905847221380185" lon="5.622769451851547" id="-32647">
		<tag k="highway" v="path" />
		<tag k="name" v="Tverrlistigen" />
		<tag k="ssr:stedsnr" v="263824" />
	</node>
	<node lat="60.887597226307925" lon="5.61891110736778" id="-32648">
		<tag k="name" v="Sveinsliholten" />
		<tag k="natural" v="hill" />
		<tag k="place" v="locality" />
		<tag k="ssr:stedsnr" v="263828" />
	</node>
	<node lat="60.944127778311675" lon="5.684536107691711" id="-32649">
		<tag k="name" v="Fitjane" />
		<tag k="place" v="locality" />
		<tag k="ssr:stedsnr" v="263831" />
	</node>
	<node lat="60.935474997451045" lon="5.683772217754719" id="-32650">
		<tag k="name" v="Husehogen" />
		<tag k="natural" v="hill" />
		<tag k="place" v="locality" />
		<tag k="ssr:stedsnr" v="263834" />
	</node>
	<node lat="60.87040277409436" lon="5.619363888332634" id="-32651">
		<tag k="name" v="Snjogjeldalen" />
		<tag k="natural" v="valley" />
		<tag k="place" v="locality" />
		<tag k="ssr:stedsnr" v="263848" />
	</node>
	<node lat="60.91932500012772" lon="5.648158328272345" id="-32652">
		<tag k="name" v="Brydalsvika" />
		<tag k="natural" v="bay" />
		<tag k="ssr:stedsnr" v="263863" />
	</node>
	<node lat="60.836763890100954" lon="5.607080546436911" id="-32653">
		<tag k="name" v="Setrebotnen" />
		<tag k="natural" v="valley" />
		<tag k="place" v="locality" />
		<tag k="ssr:stedsnr" v="263866" />
	</node>
	<node lat="60.84118055959895" lon="5.604094453137959" id="-32654">
		<tag k="name" v="Storevassøyna" />
		<tag k="place" v="island" />
		<tag k="ssr:stedsnr" v="263867" />
	</node>
	<node lat="60.80440833540567" lon="5.188891662075367" id="-32655">
		<tag k="fixme" v="consider seamark:type=rock or natural=shoal" />
		<tag k="name" v="Svarteskjeret" />
		<tag k="place" v="islet" />
		<tag k="ssr:stedsnr" v="267145" />
	</node>
	<node lat="60.83010277526988" lon="5.245869440300353" id="-32656">
		<tag k="name" v="Kvalen" />
		<tag k="place" v="islet" />
		<tag k="ssr:stedsnr" v="202498" />
	</node>
	<node lat="60.89117499862276" lon="5.2341500037882875" id="-32657">
		<tag k="name" v="Storskaret" />
		<tag k="natural" v="valley" />
		<tag k="place" v="locality" />
		<tag k="ssr:stedsnr" v="202644" />
	</node>
	<node lat="60.91847500217685" lon="5.464816675336168" id="-32658">
		<tag k="name" v="Grønebakken" />
		<tag k="natural" v="slope" />
		<tag k="place" v="locality" />
		<tag k="ssr:stedsnr" v="202548" />
	</node>
	<node lat="60.916169440253796" lon="5.50930277400436" id="-32659">
		<tag k="name" v="Såtelia" />
		<tag k="natural" v="slope" />
		<tag k="place" v="locality" />
		<tag k="ssr:stedsnr" v="202550" />
	</node>
	<node lat="60.89687777915311" lon="5.314702778893494" id="-32660">
		<tag k="name" v="Røyrskarlia" />
		<tag k="natural" v="slope" />
		<tag k="place" v="locality" />
		<tag k="ssr:stedsnr" v="202600" />
	</node>
	<node lat="60.89282499766559" lon="5.5530972304895645" id="-32661">
		<tag k="name" v="Nordbotnen" />
		<tag k="natural" v="valley" />
		<tag k="place" v="locality" />
		<tag k="ssr:stedsnr" v="202706" />
	</node>
	<node lat="60.88878611453289" lon="5.577491669913249" id="-32662">
		<tag k="name" v="Osphogen" />
		<tag k="natural" v="hill" />
		<tag k="place" v="locality" />
		<tag k="ssr:stedsnr" v="202711" />
	</node>
	<node lat="60.88721944377286" lon="5.566738882129892" id="-32663">
		<tag k="fixme" v="consider natural=peak for the most distinct mountains in the district" />
		<tag k="name" v="Bjørnetona" />
		<tag k="natural" v="hill" />
		<tag k="place" v="locality" />
		<tag k="ssr:stedsnr" v="202712" />
	</node>
	<node lat="60.889933262773056" lon="5.560447964188518" id="-32664">
		<tag k="name" v="Bjørnestegvatnet" />
		<tag k="natural" v="water" />
		<tag k="ssr:stedsnr" v="202713" />
		<tag k="water" v="lake" />
	</node>
	<node lat="60.87682222235288" lon="5.61664443952597" id="-32665">
		<tag k="name" v="Skarlia" />
		<tag k="natural" v="slope" />
		<tag k="place" v="locality" />
		<tag k="ssr:stedsnr" v="202891" />
	</node>
	<node lat="60.72974999956134" lon="5.396147220065946" id="-32666">
		<tag k="bay" v="fjord" />
		<tag k="name" v="Sørkvingevågen" />
		<tag k="natural" v="bay" />
		<tag k="ssr:stedsnr" v="203291" />
	</node>
	<node lat="60.86757778018208" lon="5.23466943980895" id="-32667">
		<tag k="fixme" v="consider natural=peak for the most distinct mountains in the district" />
		<tag k="name" v="Setrefjellet" />
		<tag k="natural" v="hill" />
		<tag k="place" v="locality" />
		<tag k="ssr:stedsnr" v="203416" />
	</node>
	<node lat="60.79898033746672" lon="5.441592237497885" id="-32668">
		<tag k="name" v="Langevatnet" />
		<tag k="natural" v="water" />
		<tag k="ssr:stedsnr" v="203318" />
		<tag k="water" v="lake" />
	</node>
	<node lat="60.748516665442594" lon="5.411075008101688" id="-32669">
		<tag k="name" v="Furneset" />
		<tag k="natural" v="cape" />
		<tag k="ssr:stedsnr" v="203329" />
	</node>
	<node lat="60.79338611130414" lon="5.295238885821349" id="-32670">
		<tag k="name" v="Sprakevika" />
		<tag k="natural" v="bay" />
		<tag k="ssr:stedsnr" v="203354" />
	</node>
	<node lat="60.77054166897542" lon="5.312349995982606" id="-32671">
		<tag k="name" v="Steinen" />
		<tag k="natural" v="stone" />
		<tag k="ssr:stedsnr" v="203391" />
	</node>
	<node lat="60.76348055433134" lon="5.334272231193155" id="-32672">
		<tag k="fixme" v="consider natural=peak for the most distinct mountains in the district" />
		<tag k="name" v="Åsen" />
		<tag k="natural" v="hill" />
		<tag k="place" v="locality" />
		<tag k="ssr:stedsnr" v="203394" />
	</node>
	<node lat="60.77696667009113" lon="5.328425001615073" id="-32673">
		<tag k="name" v="Blombotnen" />
		<tag k="natural" v="valley" />
		<tag k="place" v="locality" />
		<tag k="ssr:stedsnr" v="203396" />
	</node>
	<node lat="60.8526083326148" lon="5.3120833421300375" id="-32674">
		<tag k="name" v="Vardebotnen" />
		<tag k="natural" v="valley" />
		<tag k="place" v="locality" />
		<tag k="ssr:stedsnr" v="203400" />
	</node>
	<node lat="60.840833335521964" lon="5.307208328109301" id="-32675">
		<tag k="name" v="Langeneset" />
		<tag k="natural" v="cape" />
		<tag k="ssr:stedsnr" v="203502" />
	</node>
	<node lat="60.85804444251241" lon="5.410894442892241" id="-32676">
		<tag k="name" v="Saubotnen" />
		<tag k="natural" v="valley" />
		<tag k="place" v="locality" />
		<tag k="ssr:stedsnr" v="203490" />
	</node>
	<node lat="60.862241669871544" lon="5.416161103949086" id="-32677">
		<tag k="name" v="Ljøsådalen" />
		<tag k="natural" v="valley" />
		<tag k="place" v="locality" />
		<tag k="ssr:stedsnr" v="203493" />
	</node>
	<node lat="60.83101111559026" lon="5.319661117376037" id="-32678">
		<tag k="name" v="Reknesvågen" />
		<tag k="natural" v="bay" />
		<tag k="ssr:stedsnr" v="203498" />
	</node>
	<node lat="60.83419166534064" lon="5.3201972258125245" id="-32679">
		<tag k="name" v="Maresteinen" />
		<tag k="natural" v="stone" />
		<tag k="ssr:stedsnr" v="203500" />
	</node>
	<node lat="60.84695833475614" lon="5.167763882493692" id="-32680">
		<tag k="fixme" v="consider natural=peak for the most distinct mountains in the district" />
		<tag k="name" v="Stegebotsfjellet" />
		<tag k="natural" v="hill" />
		<tag k="place" v="locality" />
		<tag k="ssr:stedsnr" v="203641" />
	</node>
	<node lat="60.847783335548485" lon="5.170261107094247" id="-32681">
		<tag k="fixme" v="consider natural=peak for the most distinct mountains in the district" />
		<tag k="name" v="Hatlevikfjellet" />
		<tag k="natural" v="hill" />
		<tag k="place" v="locality" />
		<tag k="ssr:stedsnr" v="203646" />
	</node>
	<node lat="60.882936106687175" lon="5.212086112286872" id="-32682">
		<tag k="name" v="Fagrevika" />
		<tag k="place" v="farm" />
		<tag k="ssr:stedsnr" v="203697" />
	</node>
	<node lat="60.95040277610245" lon="5.698913897969043" id="-32683">
		<tag k="name" v="Fita" />
		<tag k="place" v="locality" />
		<tag k="ssr:stedsnr" v="203802" />
	</node>
	<node lat="60.94895833203116" lon="5.71223334043438" id="-32684">
		<tag k="name" v="Skavlebotsneset" />
		<tag k="natural" v="cape" />
		<tag k="ssr:stedsnr" v="203804" />
	</node>
	<node lat="60.953947223342794" lon="5.719433330742371" id="-32685">
		<tag k="name" v="Stordalen" />
		<tag k="natural" v="valley" />
		<tag k="place" v="locality" />
		<tag k="ssr:stedsnr" v="203806" />
	</node>
	<node lat="60.82823055823071" lon="5.578836113053957" id="-32686">
		<tag k="name" v="Slåttebotnen" />
		<tag k="natural" v="valley" />
		<tag k="place" v="locality" />
		<tag k="ssr:stedsnr" v="203540" />
	</node>
	<node lat="60.88102222270211" lon="5.184700003406155" id="-32687">
		<tag k="name" v="Utløhogen" />
		<tag k="natural" v="hill" />
		<tag k="place" v="locality" />
		<tag k="ssr:stedsnr" v="203702" />
	</node>
	<node lat="60.83361944746522" lon="5.208033325870759" id="-32688">
		<tag k="name" v="Garpenesholmen" />
		<tag k="place" v="islet" />
		<tag k="ssr:stedsnr" v="203724" />
	</node>
	<node lat="60.88928055832397" lon="5.462683334586704" id="-32689">
		<tag k="fixme" v="consider natural=peak for the most distinct mountains in the district" />
		<tag k="name" v="Nova" />
		<tag k="natural" v="hill" />
		<tag k="place" v="locality" />
		<tag k="ssr:stedsnr" v="203739" />
	</node>
	<node lat="60.89688055335646" lon="5.476711104155348" id="-32690">
		<tag k="name" v="Tjørndalsskaret" />
		<tag k="natural" v="valley" />
		<tag k="place" v="locality" />
		<tag k="ssr:stedsnr" v="203754" />
	</node>
	<node lat="60.88744722522487" lon="5.474616665529396" id="-32691">
		<tag k="name" v="Småsundet" />
		<tag k="natural" v="strait" />
		<tag k="ssr:stedsnr" v="203755" />
	</node>
	<node lat="60.797036898815385" lon="5.246561473993418" id="-32693">
		<tag k="name" v="Søre Sætevikneset" />
		<tag k="natural" v="cape" />
		<tag k="ssr:stedsnr" v="263191" />
	</node>
	<node lat="60.78044166377905" lon="5.286936103248418" id="-32694">
		<tag k="name" v="Hovden" />
		<tag k="natural" v="hill" />
		<tag k="place" v="locality" />
		<tag k="ssr:stedsnr" v="263194" />
	</node>
	<node lat="60.78622499931273" lon="5.282538890547668" id="-32695">
		<tag k="name" v="Bjørkeneset" />
		<tag k="natural" v="cape" />
		<tag k="ssr:stedsnr" v="263198" />
	</node>
	<node lat="60.74128889195294" lon="5.363569443124448" id="-32696">
		<tag k="name" v="Blomtjørna" />
		<tag k="natural" v="water" />
		<tag k="ssr:stedsnr" v="263302" />
	</node>
	<node lat="60.82025277701435" lon="5.300758337552098" id="-32697">
		<tag k="fixme" v="consider natural=peak for the most distinct mountains in the district" />
		<tag k="name" v="Varden" />
		<tag k="natural" v="hill" />
		<tag k="place" v="locality" />
		<tag k="ssr:stedsnr" v="263308" />
	</node>
	<node lat="60.72974166691715" lon="5.403991662251932" id="-32698">
		<tag k="name" v="Sørkvingelia" />
		<tag k="natural" v="slope" />
		<tag k="place" v="locality" />
		<tag k="ssr:stedsnr" v="263297" />
	</node>
	<node lat="60.749802774067206" lon="5.361241662450039" id="-32699">
		<tag k="name" v="Ospedalen" />
		<tag k="natural" v="valley" />
		<tag k="place" v="locality" />
		<tag k="ssr:stedsnr" v="263300" />
	</node>
	<node lat="60.8492388851123" lon="5.315897223628088" id="-32700">
		<tag k="name" v="Langetona" />
		<tag k="natural" v="hill" />
		<tag k="place" v="locality" />
		<tag k="ssr:stedsnr" v="263405" />
	</node>
	<node lat="60.82419999934893" lon="5.374316670016652" id="-32701">
		<tag k="name" v="Dalsstonga" />
		<tag k="natural" v="cape" />
		<tag k="ssr:stedsnr" v="263468" />
	</node>
	<node lat="60.83979166998502" lon="5.3925972155310395" id="-32702">
		<tag k="name" v="Geilebotnen" />
		<tag k="natural" v="valley" />
		<tag k="place" v="locality" />
		<tag k="ssr:stedsnr" v="263477" />
	</node>
	<node lat="60.780866662508075" lon="5.384800000170839" id="-32703">
		<tag k="name" v="Storegjelet" />
		<tag k="natural" v="gorge" />
		<tag k="ssr:stedsnr" v="263481" />
	</node>
	<node lat="60.77497438967088" lon="5.401523101699065" id="-32704">
		<tag k="name" v="Blåfjelltjørna" />
		<tag k="natural" v="water" />
		<tag k="ssr:stedsnr" v="263488" />
	</node>
	<node lat="60.76144444860421" lon="5.444972212921334" id="-32705">
		<tag k="name" v="Store Botnen" />
		<tag k="natural" v="valley" />
		<tag k="place" v="locality" />
		<tag k="ssr:stedsnr" v="263495" />
	</node>
	<node lat="60.83431666873386" lon="5.542708326144605" id="-32706">
		<tag k="name" v="Røysfiten" />
		<tag k="natural" v="slope" />
		<tag k="place" v="locality" />
		<tag k="ssr:stedsnr" v="263604" />
	</node>
	<node lat="60.82946666547089" lon="5.549091666073504" id="-32707">
		<tag k="name" v="Holtane" />
		<tag k="natural" v="slope" />
		<tag k="place" v="locality" />
		<tag k="ssr:stedsnr" v="263607" />
	</node>
	<node lat="60.7644222216079" lon="5.322177776646668" id="-32708">
		<tag k="name" v="Furkammen" />
		<tag k="natural" v="ridge" />
		<tag k="place" v="locality" />
		<tag k="ssr:stedsnr" v="263393" />
	</node>
	<node lat="60.83832499726901" lon="5.337208339058369" id="-32709">
		<tag k="name" v="Selvågen" />
		<tag k="natural" v="bay" />
		<tag k="ssr:stedsnr" v="263502" />
	</node>
	<node lat="60.88515555492498" lon="5.57126666780657" id="-32710">
		<tag k="name" v="Litlelielva" />
		<tag k="ssr:stedsnr" v="263538" />
		<tag k="waterway" v="river" />
	</node>
	<node lat="60.85337222123287" lon="5.515450008218082" id="-32711">
		<tag k="name" v="Mannshella" />
		<tag k="place" v="locality" />
		<tag k="ssr:stedsnr" v="263541" />
	</node>
	<node lat="60.83352222529989" lon="5.529722220936174" id="-32712">
		<tag k="historic" v="shieling" />
		<tag k="name" v="Stølen" />
		<tag k="place" v="isolated_dwelling" />
		<tag k="ssr:stedsnr" v="263598" />
	</node>
	<node lat="60.85811111314078" lon="5.1539861084304635" id="-32713">
		<tag k="name" v="Stygghogen" />
		<tag k="natural" v="hill" />
		<tag k="place" v="locality" />
		<tag k="ssr:stedsnr" v="263687" />
	</node>
	<node lat="60.866191662820846" lon="5.219519438921854" id="-32714">
		<tag k="fixme" v="consider natural=peak for the most distinct mountains in the district" />
		<tag k="name" v="Fløyfjellet" />
		<tag k="natural" v="hill" />
		<tag k="place" v="locality" />
		<tag k="ssr:stedsnr" v="263691" />
	</node>
	<node lat="60.87493888507127" lon="5.1808333419179355" id="-32715">
		<tag k="name" v="Storlineset" />
		<tag k="natural" v="cape" />
		<tag k="ssr:stedsnr" v="263698" />
	</node>
	<node lat="60.94809722558155" lon="5.723333338533816" id="-32716">
		<tag k="fixme" v="consider natural=peak for the most distinct mountains in the district" />
		<tag k="name" v="Dugurdsfjellet" />
		<tag k="natural" v="hill" />
		<tag k="place" v="locality" />
		<tag k="ssr:stedsnr" v="263802" />
	</node>
	<node lat="60.96752222370612" lon="5.72113610561469" id="-32717">
		<tag k="name" v="Dyrlikollen" />
		<tag k="natural" v="hill" />
		<tag k="place" v="locality" />
		<tag k="ssr:stedsnr" v="263804" />
	</node>
	<node lat="60.889116666040856" lon="5.587136108000867" id="-32718">
		<tag k="historic" v="shieling" />
		<tag k="name" v="Holmane" />
		<tag k="place" v="isolated_dwelling" />
		<tag k="ssr:stedsnr" v="263842" />
	</node>
	<node lat="60.907408333416754" lon="5.603269436851165" id="-32719">
		<tag k="fixme" v="consider natural=peak for the most distinct mountains in the district" />
		<tag k="name" v="Ørnereiret" />
		<tag k="natural" v="hill" />
		<tag k="place" v="locality" />
		<tag k="ssr:stedsnr" v="263844" />
	</node>
	<node lat="60.80063055855869" lon="5.265202772728676" id="-32720">
		<tag k="name" v="Kletten" />
		<tag k="natural" v="hill" />
		<tag k="place" v="locality" />
		<tag k="ssr:stedsnr" v="267138" />
	</node>
	<node lat="60.87888888656698" lon="5.376724994342478" id="-32721">
		<tag k="bridge" v="yes" />
		<tag k="layer" v="1" />
		<tag k="name" v="Hatlekråna" />
		<tag k="ssr:stedsnr" v="290075" />
	</node>
	<node lat="60.72265555241902" lon="5.365077777581229" id="-32723">
		<tag k="bay" v="fjord" />
		<tag k="name" v="Austfjorden" />
		<tag k="natural" v="bay" />
		<tag k="ssr:stedsnr" v="309687" />
	</node>
	<node lat="60.78967222634215" lon="5.289138896213371" id="-32724">
		<tag k="name" v="Søra Botnevika" />
		<tag k="natural" v="bay" />
		<tag k="ssr:stedsnr" v="311710" />
	</node>
	<node lat="60.79965000294215" lon="5.438625001405275" id="-32725">
		<tag k="historic" v="shieling" />
		<tag k="name" v="Andviksetret" />
		<tag k="place" v="isolated_dwelling" />
		<tag k="ssr:stedsnr" v="311718" />
	</node>
	<node lat="60.850773128579924" lon="5.672750798139684" id="-32726">
		<tag k="name" v="Godbotsvatnet" />
		<tag k="natural" v="water" />
		<tag k="ssr:stedsnr" v="311476" />
		<tag k="water" v="lake" />
	</node>
	<node lat="60.89767500439971" lon="5.286069446922066" id="-32727">
		<tag k="fixme" v="consider natural=peak for the most distinct mountains in the district" />
		<tag k="name" v="Nuten" />
		<tag k="natural" v="hill" />
		<tag k="place" v="locality" />
		<tag k="ssr:stedsnr" v="311976" />
	</node>
	<node lat="60.89814999710721" lon="5.355108342526684" id="-32728">
		<tag k="name" v="Fantabotnen" />
		<tag k="natural" v="valley" />
		<tag k="place" v="locality" />
		<tag k="ssr:stedsnr" v="311982" />
	</node>
	<node lat="60.831924676972854" lon="5.526989145024766" id="-32729">
		<tag k="fixme" v="consider place=hamlet" />
		<tag k="name" v="Kjetland" />
		<tag k="place" v="farm" />
		<tag k="ssr:stedsnr" v="312409" />
	</node>
	<node lat="60.87812553444048" lon="5.6872057460388445" id="-32730">
		<tag k="name" v="Øvste Kvitevatnet" />
		<tag k="natural" v="water" />
		<tag k="ssr:stedsnr" v="312315" />
	</node>
	<node lat="60.828886114654246" lon="5.5999444488412236" id="-32731">
		<tag k="name" v="Tjørndalen" />
		<tag k="natural" v="valley" />
		<tag k="place" v="locality" />
		<tag k="ssr:stedsnr" v="312379" />
	</node>
	<node lat="60.83262499623995" lon="5.61177500910024" id="-32732">
		<tag k="historic" v="shieling" />
		<tag k="name" v="Haukelandssetret" />
		<tag k="place" v="isolated_dwelling" />
		<tag k="ssr:stedsnr" v="312390" />
	</node>
	<node lat="60.869994445839765" lon="5.319369452808029" id="-32733">
		<tag k="fixme" v="consider natural=peak for the most distinct mountains in the district" />
		<tag k="name" v="Vardefjellet" />
		<tag k="natural" v="hill" />
		<tag k="place" v="locality" />
		<tag k="ssr:stedsnr" v="312503" />
	</node>
	<node lat="60.810916664982805" lon="5.173002777902162" id="-32734">
		<tag k="name" v="Haugsøytangen" />
		<tag k="natural" v="cape" />
		<tag k="ssr:stedsnr" v="312610" />
	</node>
	<node lat="60.80829444416482" lon="5.2571833290690435" id="-32735">
		<tag k="name" v="Holsøya" />
		<tag k="place" v="island" />
		<tag k="ssr:stedsnr" v="312619" />
	</node>
	<node lat="60.81264999981299" lon="5.282283337601154" id="-32736">
		<tag k="name" v="Skolmen" />
		<tag k="natural" v="cape" />
		<tag k="ssr:stedsnr" v="312620" />
	</node>
	<node lat="60.7856444416914" lon="5.4602083414804365" id="-32737">
		<tag k="fixme" v="consider natural=peak for the most distinct mountains in the district" />
		<tag k="name" v="Nordrefjellet" />
		<tag k="natural" v="hill" />
		<tag k="place" v="locality" />
		<tag k="ssr:stedsnr" v="312676" />
	</node>
	<node lat="60.774357737391334" lon="5.247372023270675" id="-32738">
		<tag k="name" v="Kalven" />
		<tag k="place" v="islet" />
		<tag k="ssr:stedsnr" v="312677" />
	</node>
	<node lat="60.86874999623002" lon="5.274511118295474" id="-32739">
		<tag k="name" v="Øyra" />
		<tag k="place" v="locality" />
		<tag k="ssr:stedsnr" v="312980" />
	</node>
	<node lat="60.863525385389565" lon="5.140203601485336" id="-32740">
		<tag k="name" v="Svelivatnet" />
		<tag k="natural" v="water" />
		<tag k="ssr:stedsnr" v="312985" />
	</node>
	<node lat="60.91730277529006" lon="5.222069445649414" id="-32741">
		<tag k="name" v="Andershaugane" />
		<tag k="natural" v="hill" />
		<tag k="place" v="locality" />
		<tag k="ssr:stedsnr" v="312872" />
	</node>
	<node lat="60.88808888664337" lon="5.379072213777075" id="-32742">
		<tag k="name" v="Alskarholten" />
		<tag k="natural" v="hill" />
		<tag k="place" v="locality" />
		<tag k="ssr:stedsnr" v="323412" />
	</node>
	<node lat="60.895433331602405" lon="5.418744441870959" id="-32743">
		<tag k="name" v="Teigen" />
		<tag k="place" v="locality" />
		<tag k="ssr:stedsnr" v="323610" />
	</node>
	<node lat="60.86810000413664" lon="5.165797226372063" id="-32744">
		<tag k="fixme" v="consider natural=peak for the most distinct mountains in the district" />
		<tag k="name" v="Sveklumpane" />
		<tag k="natural" v="hill" />
		<tag k="place" v="locality" />
		<tag k="ssr:stedsnr" v="324222" />
	</node>
	<node lat="60.81200555629003" lon="5.3555416747370765" id="-32745">
		<tag k="name" v="Stordalen" />
		<tag k="natural" v="valley" />
		<tag k="place" v="locality" />
		<tag k="ssr:stedsnr" v="324174" />
	</node>
	<node lat="60.74906389205018" lon="5.318475001227677" id="-32746">
		<tag k="name" v="Bjeksen" />
		<tag k="natural" v="cape" />
		<tag k="ssr:stedsnr" v="324187" />
	</node>
	<node lat="60.812727780305536" lon="5.344463893464544" id="-32747">
		<tag k="name" v="Valderhogen" />
		<tag k="natural" v="hill" />
		<tag k="place" v="locality" />
		<tag k="ssr:stedsnr" v="324303" />
	</node>
	<node lat="60.79558333195935" lon="5.456316665173126" id="-32748">
		<tag k="name" v="Indre Grasvikleitet" />
		<tag k="natural" v="hill" />
		<tag k="place" v="locality" />
		<tag k="ssr:stedsnr" v="324314" />
	</node>
	<node lat="60.7573611077096" lon="5.3460194476458165" id="-32749">
		<tag k="name" v="Juvika" />
		<tag k="natural" v="bay" />
		<tag k="ssr:stedsnr" v="324369" />
	</node>
	<node lat="60.85891389111549" lon="5.40770834154758" id="-32750">
		<tag k="fixme" v="consider natural=peak for the most distinct mountains in the district" />
		<tag k="name" v="Tverrlifjellet" />
		<tag k="natural" v="hill" />
		<tag k="place" v="locality" />
		<tag k="ssr:stedsnr" v="324479" />
	</node>
	<node lat="60.83341111005" lon="5.283533335828798" id="-32751">
		<tag k="name" v="Mastrebotshogen" />
		<tag k="natural" v="hill" />
		<tag k="place" v="locality" />
		<tag k="ssr:stedsnr" v="324488" />
	</node>
	<node lat="60.82519722204456" lon="5.26007499326024" id="-32752">
		<tag k="name" v="Bergneset" />
		<tag k="natural" v="cape" />
		<tag k="ssr:stedsnr" v="324495" />
	</node>
	<node lat="60.849991670896074" lon="5.220863881849294" id="-32753">
		<tag k="name" v="Kyrkja" />
		<tag k="natural" v="hill" />
		<tag k="place" v="locality" />
		<tag k="ssr:stedsnr" v="324614" />
	</node>
	<node lat="60.84591944493571" lon="5.207063891155371" id="-32754">
		<tag k="name" v="Risnesstraumen" />
		<tag k="natural" v="strait" />
		<tag k="ssr:stedsnr" v="324619" />
	</node>
	<node lat="60.85254444733335" lon="5.208655563778091" id="-32755">
		<tag k="name" v="Frøysetvågen" />
		<tag k="natural" v="bay" />
		<tag k="ssr:stedsnr" v="324622" />
	</node>
	<node lat="60.848569442215414" lon="5.187863886518134" id="-32756">
		<tag k="name" v="Havnen" />
		<tag k="place" v="farm" />
		<tag k="ssr:stedsnr" v="324623" />
	</node>
	<node lat="60.84276944344104" lon="5.188827781591068" id="-32757">
		<tag k="name" v="Martaholmen" />
		<tag k="place" v="islet" />
		<tag k="ssr:stedsnr" v="324624" />
	</node>
	<node lat="60.914050003067594" lon="5.521841657106832" id="-32758">
		<tag k="name" v="Vågen" />
		<tag k="natural" v="bay" />
		<tag k="ssr:stedsnr" v="324723" />
	</node>
	<node lat="60.89921666946461" lon="5.516058339966318" id="-32759">
		<tag k="name" v="Rimmane" />
		<tag k="place" v="farm" />
		<tag k="ssr:stedsnr" v="324737" />
	</node>
	<node lat="60.89486389332234" lon="5.481352785660784" id="-32760">
		<tag k="name" v="Erdalen" />
		<tag k="natural" v="valley" />
		<tag k="place" v="locality" />
		<tag k="ssr:stedsnr" v="324740" />
	</node>
	<node lat="60.89316111172175" lon="5.496783340315826" id="-32761">
		<tag k="name" v="Sandvika" />
		<tag k="natural" v="bay" />
		<tag k="ssr:stedsnr" v="324746" />
	</node>
	<node lat="60.90430000394396" lon="5.613836116907143" id="-32762">
		<tag k="fixme" v="consider natural=peak for the most distinct mountains in the district" />
		<tag k="name" v="Nova" />
		<tag k="natural" v="hill" />
		<tag k="place" v="locality" />
		<tag k="ssr:stedsnr" v="324819" />
	</node>
	<node lat="60.9026111086862" lon="5.632597219497998" id="-32763">
		<tag k="name" v="Klavebotnen" />
		<tag k="natural" v="valley" />
		<tag k="place" v="locality" />
		<tag k="ssr:stedsnr" v="324823" />
	</node>
	<node lat="60.88223055649972" lon="5.602649998343755" id="-32764">
		<tag k="name" v="Tangane" />
		<tag k="natural" v="hill" />
		<tag k="place" v="locality" />
		<tag k="ssr:stedsnr" v="324872" />
	</node>
	<node lat="60.883111109592264" lon="5.5970222143327595" id="-32765">
		<tag k="name" v="Svehogen" />
		<tag k="natural" v="hill" />
		<tag k="place" v="locality" />
		<tag k="ssr:stedsnr" v="324874" />
	</node>
	<node lat="60.72582777575538" lon="5.471927783457837" id="-32766">
		<tag k="name" v="Gråsida" />
		<tag k="natural" v="slope" />
		<tag k="place" v="locality" />
		<tag k="ssr:stedsnr" v="472401" />
	</node>
	<node lat="60.7412655542714" lon="5.388904115782575" id="-32767">
		<tag k="name" v="Åbakkevika" />
		<tag k="natural" v="bay" />
		<tag k="ssr:stedsnr" v="347170" />
	</node>
	<node lat="60.87679444783055" lon="5.368769450538796" id="-32768">
		<tag k="bridge" v="yes" />
		<tag k="layer" v="1" />
		<tag k="name" v="Ljosnavika" />
		<tag k="ssr:stedsnr" v="350058" />
	</node>
	<node lat="60.8821000014063" lon="5.386477780852907" id="-32769">
		<tag k="bridge" v="yes" />
		<tag k="layer" v="1" />
		<tag k="name" v="Fossheim" />
		<tag k="ssr:stedsnr" v="350100" />
	</node>
	<node lat="60.877755554750586" lon="5.378024999628374" id="-32770">
		<tag k="name" v="Hatlekråa" />
		<tag k="natural" v="bay" />
		<tag k="ssr:stedsnr" v="357198" />
	</node>
	<node lat="60.845288886004894" lon="5.175636107878583" id="-32771">
		<tag k="name" v="Hatlevika" />
		<tag k="place" v="farm" />
		<tag k="ssr:stedsnr" v="476353" />
	</node>
	<node lat="60.72561111448183" lon="5.488730556848193" id="-32772">
		<tag k="fixme" v="consider natural=peak for the most distinct mountains in the district" />
		<tag k="name" v="Steingardsnipa" />
		<tag k="natural" v="hill" />
		<tag k="place" v="locality" />
		<tag k="ssr:stedsnr" v="370361" />
	</node>
	<node lat="60.73928611126247" lon="5.488102771572898" id="-32773">
		<tag k="alt_name" v="Båtevassfjellet" />
		<tag k="fixme" v="consider natural=peak for the most distinct mountains in the district" />
		<tag k="name" v="Grønestølane" />
		<tag k="natural" v="hill" />
		<tag k="place" v="locality" />
		<tag k="ssr:stedsnr" v="370505" />
	</node>
	<node lat="60.931630554558765" lon="5.637277769723047" id="-32774">
		<tag k="name" v="Smådalane" />
		<tag k="natural" v="valley" />
		<tag k="place" v="locality" />
		<tag k="ssr:stedsnr" v="372268" />
	</node>
	<node lat="60.87891944264115" lon="5.494636107338427" id="-32775">
		<tag k="name" v="Lauvvikneset" />
		<tag k="natural" v="cape" />
		<tag k="ssr:stedsnr" v="372364" />
	</node>
	<node lat="60.80703055788799" lon="5.523202772161085" id="-32776">
		<tag k="name" v="Steindalen" />
		<tag k="natural" v="valley" />
		<tag k="place" v="locality" />
		<tag k="ssr:stedsnr" v="372518" />
	</node>
	<node lat="60.84267178100429" lon="5.3030667137373735" id="-32777">
		<tag k="name" v="Mollandsvatnet" />
		<tag k="natural" v="water" />
		<tag k="ssr:stedsnr" v="372560" />
		<tag k="water" v="lake" />
	</node>
	<node lat="60.83015555875969" lon="5.158702782844349" id="-32778">
		<tag k="name" v="Haugsøyna" />
		<tag k="place" v="island" />
		<tag k="ssr:stedsnr" v="372566" />
	</node>
	<node lat="60.837236265651704" lon="5.2409062671219795" id="-32779">
		<tag k="name" v="Storstemvatnet" />
		<tag k="natural" v="water" />
		<tag k="ssr:stedsnr" v="372571" />
	</node>
	<node lat="60.82739722044168" lon="5.396702779152759" id="-32780">
		<tag k="name" v="Kringlevatnet" />
		<tag k="natural" v="water" />
		<tag k="ssr:stedsnr" v="372609" />
		<tag k="water" v="lake" />
	</node>
	<node lat="60.814291670130125" lon="5.236325004767384" id="-32781">
		<tag k="name" v="Viersholmane" />
		<tag k="place" v="islet" />
		<tag k="ssr:stedsnr" v="372615" />
	</node>
	<node lat="60.82024166966371" lon="5.295708325580729" id="-32782">
		<tag k="name" v="Storebotnen" />
		<tag k="natural" v="valley" />
		<tag k="place" v="locality" />
		<tag k="ssr:stedsnr" v="372618" />
	</node>
	<node lat="60.81708332936869" lon="5.277583334116692" id="-32783">
		<tag k="name" v="Grunnholmen" />
		<tag k="place" v="islet" />
		<tag k="ssr:stedsnr" v="372620" />
	</node>
	<node lat="60.81655642826435" lon="5.312692524494276" id="-32784">
		<tag k="name" v="Klungrevikneset" />
		<tag k="natural" v="cape" />
		<tag k="ssr:stedsnr" v="372625" />
	</node>
	<node lat="60.80981388480576" lon="5.343902774810271" id="-32785">
		<tag k="name" v="Rusthogen" />
		<tag k="natural" v="hill" />
		<tag k="place" v="locality" />
		<tag k="ssr:stedsnr" v="372642" />
	</node>
	<node lat="60.81093333265485" lon="5.308472217677644" id="-32786">
		<tag k="name" v="Duesundøyna" />
		<tag k="place" v="island" />
		<tag k="ssr:stedsnr" v="372646" />
	</node>
	<node lat="60.75947778060977" lon="5.457113883237822" id="-32787">
		<tag k="fixme" v="consider natural=peak for the most distinct mountains in the district" />
		<tag k="name" v="Klefjellnipa" />
		<tag k="natural" v="hill" />
		<tag k="place" v="locality" />
		<tag k="ssr:stedsnr" v="372756" />
	</node>
	<node lat="60.74936944461527" lon="5.319652786682696" id="-32788">
		<tag k="name" v="Mjåneset" />
		<tag k="natural" v="cape" />
		<tag k="ssr:stedsnr" v="372759" />
	</node>
	<node lat="60.922370874032985" lon="5.273322499925315" id="-32789">
		<tag k="name" v="Svartetjørna" />
		<tag k="natural" v="water" />
		<tag k="ssr:stedsnr" v="372914" />
	</node>
	<node lat="60.82066388930415" lon="5.326119448594803" id="-32790">
		<tag k="name" v="Tangen" />
		<tag k="natural" v="cape" />
		<tag k="ssr:stedsnr" v="372949" />
	</node>
	<node lat="60.75050555927507" lon="5.347141662110739" id="-32791">
		<tag k="name" v="Vikane" />
		<tag k="natural" v="bay" />
		<tag k="ssr:stedsnr" v="372950" />
	</node>
	<node lat="60.83796111259777" lon="5.514741659139937" id="-32792">
		<tag k="fixme" v="consider natural=peak for the most distinct mountains in the district" />
		<tag k="name" v="Åsen" />
		<tag k="natural" v="hill" />
		<tag k="place" v="locality" />
		<tag k="ssr:stedsnr" v="372956" />
	</node>
	<node lat="60.890877779583136" lon="5.359855549160515" id="-32793">
		<tag k="historic" v="shieling" />
		<tag k="name" v="Fossdalsstølen" />
		<tag k="place" v="isolated_dwelling" />
		<tag k="ssr:stedsnr" v="372958" />
	</node>
	<node lat="60.813750002709796" lon="5.570899998879466" id="-32794">
		<tag k="name" v="Djupedalen" />
		<tag k="natural" v="valley" />
		<tag k="place" v="locality" />
		<tag k="ssr:stedsnr" v="372960" />
	</node>
	<node lat="60.90397500350574" lon="5.299791669306771" id="-32795">
		<tag k="name" v="Byrkjelandsvatnet" />
		<tag k="natural" v="water" />
		<tag k="ssr:stedsnr" v="372966" />
	</node>
	<node lat="60.87053055891821" lon="5.6936194438903955" id="-32796">
		<tag k="fixme" v="consider natural=peak for the most distinct mountains in the district" />
		<tag k="name" v="Inste Kvitevasseggene" />
		<tag k="natural" v="hill" />
		<tag k="place" v="locality" />
		<tag k="ssr:stedsnr" v="373309" />
	</node>
	<node lat="60.87358055829327" lon="5.487663892128228" id="-32797">
		<tag k="name" v="Ytste Rotneset" />
		<tag k="natural" v="cape" />
		<tag k="ssr:stedsnr" v="373314" />
	</node>
	<node lat="60.86015000244698" lon="5.478052785382212" id="-32798">
		<tag k="fixme" v="consider natural=peak for the most distinct mountains in the district" />
		<tag k="name" v="Rotnesnipa" />
		<tag k="natural" v="hill" />
		<tag k="place" v="locality" />
		<tag k="ssr:stedsnr" v="373299" />
	</node>
	<node lat="60.84460110838036" lon="5.268914171572839" id="-32799">
		<tag k="name" v="Kolldalstjørna" />
		<tag k="natural" v="water" />
		<tag k="ssr:stedsnr" v="373564" />
	</node>
	<node lat="60.75078055408503" lon="5.3898111180979065" id="-32800">
		<tag k="name" v="Stallane" />
		<tag k="natural" v="hill" />
		<tag k="place" v="locality" />
		<tag k="ssr:stedsnr" v="384315" />
	</node>
	<node lat="60.755661107055225" lon="5.385730563682703" id="-32801">
		<tag k="fixme" v="consider natural=peak for the most distinct mountains in the district" />
		<tag k="name" v="Storfjellet" />
		<tag k="natural" v="hill" />
		<tag k="place" v="locality" />
		<tag k="ssr:stedsnr" v="384316" />
	</node>
	<node lat="60.80071111342084" lon="5.332238886182383" id="-32802">
		<tag k="name" v="Bjørnetona" />
		<tag k="natural" v="slope" />
		<tag k="place" v="locality" />
		<tag k="ssr:stedsnr" v="384263" />
	</node>
	<node lat="60.72574999764487" lon="5.426758341153249" id="-32803">
		<tag k="name" v="Langevassdalen" />
		<tag k="natural" v="valley" />
		<tag k="place" v="locality" />
		<tag k="ssr:stedsnr" v="384299" />
	</node>
	<node lat="60.73085833469418" lon="5.4465972146231865" id="-32804">
		<tag k="name" v="Dansebergdalane" />
		<tag k="natural" v="valley" />
		<tag k="place" v="locality" />
		<tag k="ssr:stedsnr" v="384300" />
	</node>
	<node lat="60.846497225516835" lon="5.415083341189211" id="-32805">
		<tag k="historic" v="shieling" />
		<tag k="name" v="Totlandssetra" />
		<tag k="place" v="isolated_dwelling" />
		<tag k="ssr:stedsnr" v="384404" />
	</node>
	<node lat="60.87380833399721" lon="5.4646472157066714" id="-32806">
		<tag k="name" v="Saltkjelen" />
		<tag k="natural" v="valley" />
		<tag k="place" v="locality" />
		<tag k="ssr:stedsnr" v="384523" />
	</node>
	<node lat="60.92385277744675" lon="5.312452785093309" id="-32807">
		<tag k="name" v="Svartelia" />
		<tag k="natural" v="slope" />
		<tag k="place" v="locality" />
		<tag k="ssr:stedsnr" v="384597" />
	</node>
	<node lat="60.89179999817146" lon="5.557516672934218" id="-32808">
		<tag k="name" v="Storhogen" />
		<tag k="natural" v="hill" />
		<tag k="place" v="locality" />
		<tag k="ssr:stedsnr" v="384703" />
	</node>
	<node lat="60.837158329550086" lon="5.1503277832137195" id="-32809">
		<tag k="name" v="Svenesvikane" />
		<tag k="natural" v="bay" />
		<tag k="ssr:stedsnr" v="384713" />
	</node>
	<node lat="60.927211114838535" lon="5.527922227085971" id="-32810">
		<tag k="fixme" v="consider natural=peak for the most distinct mountains in the district" />
		<tag k="name" v="Tommeltotten" />
		<tag k="natural" v="hill" />
		<tag k="place" v="locality" />
		<tag k="ssr:stedsnr" v="384726" />
	</node>
	<node lat="60.914086113351686" lon="5.327058337867335" id="-32811">
		<tag k="name" v="Merkesgjelet" />
		<tag k="natural" v="gorge" />
		<tag k="ssr:stedsnr" v="384608" />
	</node>
	<node lat="60.90624999968544" lon="5.231761103388336" id="-32812">
		<tag k="name" v="Vardelogda" />
		<tag k="natural" v="valley" />
		<tag k="place" v="locality" />
		<tag k="ssr:stedsnr" v="384611" />
	</node>
	<node lat="60.887011112035665" lon="5.238166658659613" id="-32813">
		<tag k="name" v="Kinnefossen" />
		<tag k="natural" v="waterfall" />
		<tag k="ssr:stedsnr" v="384614" />
	</node>
	<node lat="60.903611110447926" lon="5.61712499838736" id="-32814">
		<tag k="name" v="Tverrlia" />
		<tag k="natural" v="slope" />
		<tag k="place" v="locality" />
		<tag k="ssr:stedsnr" v="384807" />
	</node>
	<node lat="60.906833331422206" lon="5.582602777288651" id="-32815">
		<tag k="historic" v="shieling" />
		<tag k="name" v="Gamlestølen" />
		<tag k="place" v="isolated_dwelling" />
		<tag k="ssr:stedsnr" v="384818" />
	</node>
	<node lat="60.89480833061611" lon="5.598586117318112" id="-32816">
		<tag k="name" v="Geitetørne" />
		<tag k="natural" v="slope" />
		<tag k="place" v="locality" />
		<tag k="ssr:stedsnr" v="384824" />
	</node>
	<node lat="60.88254167037112" lon="5.612313896977863" id="-32817">
		<tag k="name" v="Storura" />
		<tag k="natural" v="scree" />
		<tag k="ssr:stedsnr" v="384827" />
	</node>
	<node lat="60.75271944131463" lon="5.332569440197561" id="-32818">
		<tag k="name" v="Skredvika" />
		<tag k="natural" v="bay" />
		<tag k="ssr:stedsnr" v="385205" />
	</node>
	<node lat="60.78455833405658" lon="5.2846166594107675" id="-32819">
		<tag k="name" v="Eika" />
		<tag k="place" v="locality" />
		<tag k="ssr:stedsnr" v="385198" />
	</node>
	<node lat="60.79691944131233" lon="5.255833337123595" id="-32820">
		<tag k="name" v="Løhogen" />
		<tag k="natural" v="hill" />
		<tag k="place" v="locality" />
		<tag k="ssr:stedsnr" v="385199" />
	</node>
	<node lat="60.76750555701497" lon="5.267666665360584" id="-32821">
		<tag k="name" v="Merkesneset" />
		<tag k="natural" v="cape" />
		<tag k="ssr:stedsnr" v="385317" />
	</node>
	<node lat="60.767491670390164" lon="5.325502778275621" id="-32822">
		<tag k="name" v="Vika" />
		<tag k="natural" v="bay" />
		<tag k="ssr:stedsnr" v="385358" />
	</node>
	<node lat="60.760308333803984" lon="5.321830548210564" id="-32823">
		<tag k="name" v="Hatlebakken" />
		<tag k="natural" v="slope" />
		<tag k="place" v="locality" />
		<tag k="ssr:stedsnr" v="385362" />
	</node>
	<node lat="60.91537499872809" lon="5.458533330715389" id="-32824">
		<tag k="name" v="Svaelva" />
		<tag k="ssr:stedsnr" v="385407" />
		<tag k="waterway" v="river" />
	</node>
	<node lat="60.909822224212235" lon="5.440058334715529" id="-32825">
		<tag k="fixme" v="consider natural=peak for the most distinct mountains in the district" />
		<tag k="name" v="Kjeldestallane" />
		<tag k="natural" v="hill" />
		<tag k="place" v="locality" />
		<tag k="ssr:stedsnr" v="385417" />
	</node>
	<node lat="60.84717222549483" lon="5.397188881204341" id="-32826">
		<tag k="name" v="Solheimsbotnen" />
		<tag k="natural" v="valley" />
		<tag k="place" v="locality" />
		<tag k="ssr:stedsnr" v="385422" />
	</node>
	<node lat="60.89419166977623" lon="5.471544444304472" id="-32827">
		<tag k="name" v="Daureberget" />
		<tag k="natural" v="hill" />
		<tag k="place" v="locality" />
		<tag k="ssr:stedsnr" v="385753" />
	</node>
	<node lat="60.82690832905952" lon="5.588561103117129" id="-32828">
		<tag k="name" v="Haukelandsbotnen" />
		<tag k="natural" v="valley" />
		<tag k="place" v="locality" />
		<tag k="ssr:stedsnr" v="385850" />
	</node>
	<node lat="60.919538889817034" lon="5.260336117902596" id="-32829">
		<tag k="name" v="Holmane" />
		<tag k="place" v="locality" />
		<tag k="ssr:stedsnr" v="494878" />
	</node>
	<node lat="60.7097610571929" lon="5.430985894058593" id="-32830">
		<tag k="name" v="Kjekallevågen" />
		<tag k="natural" v="bay" />
		<tag k="ssr:stedsnr" v="491151" />
	</node>
	<node lat="60.968611115080144" lon="5.643669451382593" id="-32831">
		<tag k="name" v="Store Fjellvatnet" />
		<tag k="natural" v="water" />
		<tag k="ssr:stedsnr" v="433306" />
	</node>
	<node lat="60.89500277827766" lon="5.543113891976388" id="-32832">
		<tag k="fixme" v="consider natural=peak for the most distinct mountains in the district" />
		<tag k="name" v="Tverrlifjellet" />
		<tag k="natural" v="hill" />
		<tag k="place" v="locality" />
		<tag k="ssr:stedsnr" v="433327" />
	</node>
	<node lat="60.73725676161741" lon="5.400648887652879" id="-32833">
		<tag k="fixme" v="consider place=hamlet" />
		<tag k="name" v="Sørkvingo" />
		<tag k="place" v="farm" />
		<tag k="ssr:stedsnr" v="491639" />
	</node>
	<node lat="60.95319166351825" lon="5.65334723025527" id="-32834">
		<tag k="name" v="Mosedalen" />
		<tag k="natural" v="valley" />
		<tag k="place" v="locality" />
		<tag k="ssr:stedsnr" v="433282" />
	</node>
	<node lat="60.954950004655636" lon="5.610350006178612" id="-32835">
		<tag k="historic" v="shieling" />
		<tag k="name" v="Vågsetstølen" />
		<tag k="place" v="isolated_dwelling" />
		<tag k="ssr:stedsnr" v="433293" />
	</node>
	<node lat="60.85994444210752" lon="5.644344437169764" id="-32836">
		<tag k="fixme" v="consider natural=peak for the most distinct mountains in the district" />
		<tag k="name" v="Setrefjellet" />
		<tag k="natural" v="hill" />
		<tag k="place" v="locality" />
		<tag k="ssr:stedsnr" v="433411" />
	</node>
	<node lat="60.84103889029616" lon="5.469158338064646" id="-32837">
		<tag k="name" v="Kupevatnet" />
		<tag k="natural" v="water" />
		<tag k="ssr:stedsnr" v="433390" />
	</node>
	<node lat="60.827679911334045" lon="5.285930844012075" id="-32838">
		<tag k="name" v="Ildalstjørna" />
		<tag k="natural" v="water" />
		<tag k="ssr:stedsnr" v="433573" />
	</node>
	<node lat="60.912914256961606" lon="5.464401328919236" id="-32839">
		<tag k="fixme" v="consider place=hamlet" />
		<tag k="name" v="Kalhovda" />
		<tag k="place" v="farm" />
		<tag k="ssr:stedsnr" v="433918" />
	</node>
	<node lat="60.75219136906266" lon="5.353630491757488" id="-32840">
		<tag k="name" v="Nordsta Tjørna" />
		<tag k="natural" v="water" />
		<tag k="ssr:stedsnr" v="434701" />
	</node>
	<node lat="60.961691665260446" lon="5.638516661674803" id="-32841">
		<tag k="fixme" v="consider natural=peak for the most distinct mountains in the district" />
		<tag k="name" v="Bjørnshiklanten" />
		<tag k="natural" v="hill" />
		<tag k="place" v="locality" />
		<tag k="ssr:stedsnr" v="493294" />
	</node>
	<node lat="60.87742778141736" lon="5.548791673716698" id="-32842">
		<tag k="name" v="Sauehuslia" />
		<tag k="natural" v="slope" />
		<tag k="place" v="locality" />
		<tag k="ssr:stedsnr" v="440543" />
	</node>
	<node lat="60.84907221794527" lon="5.330541671880658" id="-32843">
		<tag k="name" v="Lauvvikdalen" />
		<tag k="natural" v="valley" />
		<tag k="place" v="locality" />
		<tag k="ssr:stedsnr" v="493547" />
	</node>
	<node lat="60.822355555314076" lon="5.278024998041885" id="-32844">
		<tag k="name" v="Søre Neset" />
		<tag k="natural" v="cape" />
		<tag k="ssr:stedsnr" v="493590" />
	</node>
	<node lat="60.79072500279227" lon="5.238394444268986" id="-32845">
		<tag k="name" v="Storholmen" />
		<tag k="place" v="islet" />
		<tag k="ssr:stedsnr" v="493683" />
	</node>
	<node lat="60.78103888572218" lon="5.3923388852257315" id="-32846">
		<tag k="historic" v="shieling" />
		<tag k="name" v="Nedsta Kvingedalssetret" />
		<tag k="place" v="isolated_dwelling" />
		<tag k="ssr:stedsnr" v="493690" />
	</node>
	<node lat="60.90274167053808" lon="5.400358341349921" id="-32847">
		<tag k="fixme" v="consider natural=peak for the most distinct mountains in the district" />
		<tag k="name" v="Såta" />
		<tag k="natural" v="hill" />
		<tag k="place" v="locality" />
		<tag k="ssr:stedsnr" v="493964" />
	</node>
	<node lat="60.8699750029794" lon="5.244325003299624" id="-32848">
		<tag k="name" v="Godhogen" />
		<tag k="natural" v="hill" />
		<tag k="place" v="locality" />
		<tag k="ssr:stedsnr" v="493973" />
	</node>
	<node lat="60.88915833125714" lon="5.445575008693831" id="-32849">
		<tag k="fixme" v="consider natural=peak for the most distinct mountains in the district" />
		<tag k="name" v="Heinakken" />
		<tag k="natural" v="hill" />
		<tag k="place" v="locality" />
		<tag k="ssr:stedsnr" v="493982" />
	</node>
	<node lat="60.880116665851496" lon="5.363275002558402" id="-32850">
		<tag k="name" v="Ljosnavikbotnen" />
		<tag k="natural" v="valley" />
		<tag k="place" v="locality" />
		<tag k="ssr:stedsnr" v="493994" />
	</node>
	<node lat="60.84133333185552" lon="5.352125001450402" id="-32851">
		<tag k="name" v="Katlane" />
		<tag k="natural" v="hill" />
		<tag k="place" v="locality" />
		<tag k="ssr:stedsnr" v="445212" />
	</node>
	<node lat="60.82305833186551" lon="5.564547219752508" id="-32852">
		<tag k="name" v="Urgjelet" />
		<tag k="natural" v="gorge" />
		<tag k="ssr:stedsnr" v="494375" />
	</node>
	<node lat="60.83669982429182" lon="5.553621737242594" id="-32853">
		<tag k="fixme" v="consider place=hamlet" />
		<tag k="name" v="Bjørnekletten" />
		<tag k="place" v="farm" />
		<tag k="ssr:stedsnr" v="494377" />
	</node>
	<node lat="60.767099995873096" lon="5.41444445253073" id="-32854">
		<tag k="name" v="Timbrebotsneset" />
		<tag k="natural" v="cape" />
		<tag k="ssr:stedsnr" v="445307" />
	</node>
	<node lat="60.748522220664576" lon="5.390169445457978" id="-32855">
		<tag k="name" v="Vågsbotnen" />
		<tag k="natural" v="valley" />
		<tag k="place" v="locality" />
		<tag k="ssr:stedsnr" v="445310" />
	</node>
	<node lat="60.75236944904313" lon="5.389522226305768" id="-32856">
		<tag k="name" v="Storemyrane" />
		<tag k="natural" v="wetland" />
		<tag k="ssr:stedsnr" v="445311" />
	</node>
	<node lat="60.75031666988171" lon="5.3481361104286504" id="-32857">
		<tag k="name" v="Elvikstøa" />
		<tag k="natural" v="bay" />
		<tag k="ssr:stedsnr" v="445274" />
	</node>
	<node lat="60.74238333289541" lon="5.370769444216534" id="-32858">
		<tag k="name" v="Katlegrova" />
		<tag k="ssr:stedsnr" v="445277" />
		<tag k="waterway" v="river" />
	</node>
	<node lat="60.819922225864005" lon="5.269797219389654" id="-32859">
		<tag k="name" v="Kjelkevika" />
		<tag k="natural" v="bay" />
		<tag k="ssr:stedsnr" v="445278" />
	</node>
	<node lat="60.8197499993657" lon="5.267855559251113" id="-32860">
		<tag k="name" v="Rishaugane" />
		<tag k="natural" v="hill" />
		<tag k="place" v="locality" />
		<tag k="ssr:stedsnr" v="445279" />
	</node>
	<node lat="60.891838887038716" lon="5.436702782358747" id="-32861">
		<tag k="name" v="Kjørgjelbotnen" />
		<tag k="natural" v="valley" />
		<tag k="place" v="locality" />
		<tag k="ssr:stedsnr" v="445624" />
	</node>
	<node lat="60.88844444101057" lon="5.330275004157879" id="-32862">
		<tag k="name" v="Geitskebrekkrinden" />
		<tag k="natural" v="ridge" />
		<tag k="place" v="locality" />
		<tag k="ssr:stedsnr" v="445577" />
	</node>
	<node lat="60.894552779549905" lon="5.335569436055951" id="-32863">
		<tag k="name" v="Øvste Slettet" />
		<tag k="place" v="locality" />
		<tag k="ssr:stedsnr" v="445581" />
	</node>
	<node lat="60.90182221816004" lon="5.329308336598144" id="-32864">
		<tag k="name" v="Moseholene" />
		<tag k="natural" v="valley" />
		<tag k="place" v="locality" />
		<tag k="ssr:stedsnr" v="445582" />
	</node>
	<node lat="60.834738891297526" lon="5.515469447069666" id="-32865">
		<tag k="name" v="Haugsdalselva" />
		<tag k="ssr:stedsnr" v="445593" />
		<tag k="waterway" v="river" />
	</node>
	<node lat="60.86429444195344" lon="5.221888889647329" id="-32866">
		<tag k="name" v="Litlebotnen" />
		<tag k="natural" v="valley" />
		<tag k="place" v="locality" />
		<tag k="ssr:stedsnr" v="445703" />
	</node>
	<node lat="60.90545833319602" lon="5.537800000884297" id="-32867">
		<tag k="fixme" v="consider natural=peak for the most distinct mountains in the district" />
		<tag k="name" v="Stegane" />
		<tag k="natural" v="hill" />
		<tag k="place" v="locality" />
		<tag k="ssr:stedsnr" v="445723" />
	</node>
	<node lat="60.79622778182178" lon="5.222005553764436" id="-32868">
		<tag k="name" v="Hamnehaugen" />
		<tag k="natural" v="hill" />
		<tag k="place" v="locality" />
		<tag k="ssr:stedsnr" v="445742" />
	</node>
	<node lat="60.916671647929185" lon="5.716931241130232" id="-32869">
		<tag k="name" v="Grønlivatnet" />
		<tag k="natural" v="water" />
		<tag k="ssr:stedsnr" v="494338" />
	</node>
	<node lat="60.829919440512576" lon="5.19068333232611" id="-32870">
		<tag k="name" v="Rotsundet" />
		<tag k="natural" v="strait" />
		<tag k="ssr:stedsnr" v="445687" />
	</node>
	<node lat="60.868013892137405" lon="5.44785278517621" id="-32871">
		<tag k="name" v="Geitskegjelet" />
		<tag k="natural" v="valley" />
		<tag k="place" v="locality" />
		<tag k="ssr:stedsnr" v="494491" />
	</node>
	<node lat="60.78402499612574" lon="5.291991663002437" id="-32872">
		<tag k="name" v="Tytebærhogen" />
		<tag k="natural" v="hill" />
		<tag k="place" v="locality" />
		<tag k="ssr:stedsnr" v="446222" />
	</node>
	<node lat="60.79668333161108" lon="5.32142222573222" id="-32873">
		<tag k="name" v="Storliene" />
		<tag k="natural" v="slope" />
		<tag k="place" v="locality" />
		<tag k="ssr:stedsnr" v="446372" />
	</node>
	<node lat="60.759091671151914" lon="5.34588888976948" id="-32874">
		<tag k="name" v="Hoggevika" />
		<tag k="natural" v="bay" />
		<tag k="ssr:stedsnr" v="446384" />
	</node>
	<node lat="60.77066666421696" lon="5.3252277690036385" id="-32875">
		<tag k="name" v="Sikemyrnova" />
		<tag k="natural" v="hill" />
		<tag k="place" v="locality" />
		<tag k="ssr:stedsnr" v="446386" />
	</node>
	<node lat="60.765941664709814" lon="5.324547229271265" id="-32876">
		<tag k="name" v="Furneset" />
		<tag k="natural" v="cape" />
		<tag k="ssr:stedsnr" v="446387" />
	</node>
	<node lat="60.7684833292818" lon="5.303369451467038" id="-32877">
		<tag k="name" v="Tuliane" />
		<tag k="natural" v="slope" />
		<tag k="place" v="locality" />
		<tag k="ssr:stedsnr" v="446389" />
	</node>
	<node lat="60.81071111302571" lon="5.542641668208663" id="-32878">
		<tag k="historic" v="shieling" />
		<tag k="name" v="Fonnhogen" />
		<tag k="place" v="isolated_dwelling" />
		<tag k="ssr:stedsnr" v="494459" />
	</node>
	<node lat="60.85828333713572" lon="5.212255554295624" id="-32879">
		<tag k="name" v="Flotevika" />
		<tag k="natural" v="bay" />
		<tag k="ssr:stedsnr" v="446626" />
	</node>
	<node lat="60.87183889099061" lon="5.396999997785106" id="-32880">
		<tag k="bay" v="fjord" />
		<tag k="name" v="Masfjorden" />
		<tag k="natural" v="bay" />
		<tag k="ssr:stedsnr" v="494497" />
	</node>
	<node lat="60.88998611027115" lon="5.526344448121361" id="-32881">
		<tag k="name" v="Haugsværdalen" />
		<tag k="natural" v="valley" />
		<tag k="place" v="locality" />
		<tag k="ssr:stedsnr" v="446707" />
	</node>
	<node lat="60.90794444264866" lon="5.519611117453272" id="-32882">
		<tag k="name" v="Kalvøyna" />
		<tag k="place" v="island" />
		<tag k="ssr:stedsnr" v="446748" />
	</node>
	<node lat="60.82776666283289" lon="5.41390833034398" id="-32883">
		<tag k="historic" v="shieling" />
		<tag k="name" v="Florstræet" />
		<tag k="place" v="isolated_dwelling" />
		<tag k="ssr:stedsnr" v="494567" />
	</node>
	<node lat="60.82161388487246" lon="5.206697225493279" id="-32884">
		<tag k="name" v="Høgholmen" />
		<tag k="place" v="islet" />
		<tag k="ssr:stedsnr" v="494572" />
	</node>
	<node lat="60.80923333080572" lon="5.36662499965525" id="-32885">
		<tag k="fixme" v="consider natural=peak for the most distinct mountains in the district" />
		<tag k="name" v="Lykelen" />
		<tag k="natural" v="hill" />
		<tag k="place" v="locality" />
		<tag k="ssr:stedsnr" v="494600" />
	</node>
	<node lat="60.75294444714204" lon="5.321680556063954" id="-32886">
		<tag k="name" v="Gjerdet" />
		<tag k="place" v="farm" />
		<tag k="ssr:stedsnr" v="494690" />
	</node>
	<node lat="60.77581944651636" lon="5.352327783891244" id="-32887">
		<tag k="historic" v="shieling" />
		<tag k="name" v="Mjangerssetret" />
		<tag k="place" v="isolated_dwelling" />
		<tag k="ssr:stedsnr" v="494654" />
	</node>
	<node lat="60.77712914576114" lon="5.428939289905385" id="-32888">
		<tag k="name" v="Timbrebotstjørna" />
		<tag k="natural" v="water" />
		<tag k="ssr:stedsnr" v="494658" />
	</node>
	<node lat="60.78728333476907" lon="5.220936108015417" id="-32889">
		<tag k="name" v="Gamlegarden" />
		<tag k="place" v="isolated_dwelling" />
		<tag k="ssr:stedsnr" v="449179" />
	</node>
	<node lat="60.808475002304284" lon="5.260238891731217" id="-32890">
		<tag k="name" v="Åsen" />
		<tag k="natural" v="hill" />
		<tag k="place" v="locality" />
		<tag k="ssr:stedsnr" v="449181" />
	</node>
	<node lat="60.724338893190364" lon="5.393675000734049" id="-32891">
		<tag k="name" v="Lauvvikneset" />
		<tag k="natural" v="cape" />
		<tag k="ssr:stedsnr" v="673187" />
	</node>
	<node lat="60.73802777743322" lon="5.450949998954887" id="-32892">
		<tag k="fixme" v="consider natural=peak for the most distinct mountains in the district" />
		<tag k="name" v="Såtefjellet" />
		<tag k="natural" v="hill" />
		<tag k="place" v="locality" />
		<tag k="ssr:stedsnr" v="673662" />
	</node>
	<node lat="60.707305551140934" lon="5.417136108563022" id="-32893">
		<tag k="name" v="Borgaholmane" />
		<tag k="place" v="islet" />
		<tag k="ssr:stedsnr" v="673152" />
	</node>
	<node lat="60.71140868048012" lon="5.442330571376256" id="-32894">
		<tag k="fixme" v="consider place=hamlet" />
		<tag k="name" v="Kjekallen" />
		<tag k="place" v="farm" />
		<tag k="ssr:stedsnr" v="673192" />
	</node>
	<node lat="60.90757778023397" lon="5.399847225081493" id="-32895">
		<tag k="historic" v="shieling" />
		<tag k="name" v="Øvre Fossdalsstølen" />
		<tag k="place" v="isolated_dwelling" />
		<tag k="ssr:stedsnr" v="675930" />
	</node>
	<node lat="60.84301944516159" lon="5.5358888925979635" id="-32896">
		<tag k="fixme" v="consider natural=peak for the most distinct mountains in the district" />
		<tag k="name" v="Lauvtonipa" />
		<tag k="natural" v="hill" />
		<tag k="place" v="locality" />
		<tag k="ssr:stedsnr" v="675432" />
	</node>
	<node lat="60.833752779089394" lon="5.141116670332512" id="-32897">
		<tag k="name" v="Hosøyna" />
		<tag k="place" v="islet" />
		<tag k="ssr:stedsnr" v="675566" />
	</node>
	<node lat="60.83268055344572" lon="5.243888895506788" id="-32898">
		<tag k="name" v="Kvalhogen" />
		<tag k="natural" v="hill" />
		<tag k="place" v="locality" />
		<tag k="ssr:stedsnr" v="675573" />
	</node>
	<node lat="60.832824998509075" lon="5.309138887645406" id="-32899">
		<tag k="name" v="Eidet" />
		<tag k="place" v="isolated_dwelling" />
		<tag k="ssr:stedsnr" v="675580" />
	</node>
	<node lat="60.79786666384725" lon="5.336986119892228" id="-32900">
		<tag k="name" v="Storhogen" />
		<tag k="natural" v="hill" />
		<tag k="place" v="locality" />
		<tag k="ssr:stedsnr" v="675667" />
	</node>
	<node lat="60.78732499963077" lon="5.23541667065706" id="-32901">
		<tag k="name" v="Høgholmen" />
		<tag k="place" v="islet" />
		<tag k="ssr:stedsnr" v="675683" />
	</node>
	<node lat="60.8910500009225" lon="5.668994441459387" id="-32902">
		<tag k="name" v="Gilen" />
		<tag k="natural" v="valley" />
		<tag k="place" v="locality" />
		<tag k="ssr:stedsnr" v="676341" />
	</node>
	<node lat="60.79914444898539" lon="5.3192888947030506" id="-32903">
		<tag k="bridge" v="yes" />
		<tag k="layer" v="1" />
		<tag k="name" v="Sandneselva" />
		<tag k="ssr:stedsnr" v="472060" />
	</node>
	<node lat="60.75261944908963" lon="5.375716671268446" id="-32904">
		<tag k="bridge" v="yes" />
		<tag k="layer" v="1" />
		<tag k="name" v="Nordkvingo" />
		<tag k="ssr:stedsnr" v="472061" />
	</node>
	<node lat="60.78973888582503" lon="5.294502779327933" id="-32905">
		<tag k="bridge" v="yes" />
		<tag k="layer" v="1" />
		<tag k="name" v="Amundsbotn" />
		<tag k="ssr:stedsnr" v="472111" />
	</node>
	<node lat="60.93101944526181" lon="5.591619452120698" id="-32906">
		<tag k="name" v="Stemmevatnet" />
		<tag k="natural" v="water" />
		<tag k="ssr:stedsnr" v="676242" />
	</node>
	<node lat="60.9310194438985" lon="5.733250003210492" id="-32907">
		<tag k="name" v="Fagerdalen" />
		<tag k="natural" v="valley" />
		<tag k="place" v="locality" />
		<tag k="ssr:stedsnr" v="676251" />
	</node>
	<node lat="60.95933083142334" lon="5.798213336838984" id="-32908">
		<tag k="name" v="Små Fjellvatnet" />
		<tag k="natural" v="water" />
		<tag k="ssr:stedsnr" v="676258" />
		<tag k="water" v="lake" />
	</node>
	<node lat="60.94309166259268" lon="5.5734222141328695" id="-32909">
		<tag k="fixme" v="consider natural=peak for the most distinct mountains in the district" />
		<tag k="name" v="Dukefjellet" />
		<tag k="natural" v="hill" />
		<tag k="place" v="locality" />
		<tag k="ssr:stedsnr" v="676263" />
	</node>
	<node lat="60.96271110976151" lon="5.664288891406926" id="-32910">
		<tag k="fixme" v="consider natural=peak for the most distinct mountains in the district" />
		<tag k="name" v="Ulvedalseggene" />
		<tag k="natural" v="hill" />
		<tag k="place" v="locality" />
		<tag k="ssr:stedsnr" v="676276" />
	</node>
	<node lat="60.96385833175545" lon="5.749361103467125" id="-32911">
		<tag k="historic" v="shieling" />
		<tag k="name" v="Bukkedalsstølen" />
		<tag k="place" v="isolated_dwelling" />
		<tag k="ssr:stedsnr" v="676283" />
	</node>
	<node lat="60.862250002364625" lon="5.4885416707785275" id="-32912">
		<tag k="name" v="Lysebugelva" />
		<tag k="ssr:stedsnr" v="676325" />
		<tag k="waterway" v="river" />
	</node>
	<node lat="60.88874999649138" lon="5.565541670378014" id="-32913">
		<tag k="fixme" v="consider natural=peak for the most distinct mountains in the district" />
		<tag k="name" v="Bjørnestegfjellet" />
		<tag k="natural" v="hill" />
		<tag k="place" v="locality" />
		<tag k="ssr:stedsnr" v="676331" />
	</node>
	<node lat="60.88135555111409" lon="5.493558328043482" id="-32914">
		<tag k="name" v="Kvalsberget" />
		<tag k="natural" v="hill" />
		<tag k="place" v="locality" />
		<tag k="ssr:stedsnr" v="676333" />
	</node>
	<node lat="60.90939444169625" lon="5.688927782590823" id="-32915">
		<tag k="fixme" v="consider natural=peak for the most distinct mountains in the district" />
		<tag k="name" v="Nipetinden" />
		<tag k="natural" v="hill" />
		<tag k="place" v="locality" />
		<tag k="ssr:stedsnr" v="676348" />
	</node>
	<node lat="60.91380278089416" lon="5.6078444497012345" id="-32916">
		<tag k="name" v="Nordgjelen" />
		<tag k="natural" v="valley" />
		<tag k="place" v="locality" />
		<tag k="ssr:stedsnr" v="676351" />
	</node>
	<node lat="60.91209166932444" lon="5.594988893620982" id="-32917">
		<tag k="name" v="Nordgjelsbotnen" />
		<tag k="natural" v="valley" />
		<tag k="place" v="locality" />
		<tag k="ssr:stedsnr" v="676360" />
	</node>
	<node lat="60.91310833373539" lon="5.537702775995231" id="-32918">
		<tag k="fixme" v="consider natural=peak for the most distinct mountains in the district" />
		<tag k="name" v="Nova" />
		<tag k="natural" v="hill" />
		<tag k="place" v="locality" />
		<tag k="ssr:stedsnr" v="676362" />
	</node>
	<node lat="60.914350001812295" lon="5.5528499926765456" id="-32919">
		<tag k="fixme" v="consider natural=peak for the most distinct mountains in the district" />
		<tag k="name" v="Fjellet" />
		<tag k="natural" v="hill" />
		<tag k="place" v="locality" />
		<tag k="ssr:stedsnr" v="676363" />
	</node>
	<node lat="60.91083888608794" lon="5.501094449764568" id="-32920">
		<tag k="name" v="Betnene" />
		<tag k="natural" v="valley" />
		<tag k="place" v="locality" />
		<tag k="ssr:stedsnr" v="676365" />
	</node>
	<node lat="60.853327778572314" lon="5.189994447976207" id="-32921">
		<tag k="fixme" v="consider natural=peak for the most distinct mountains in the district" />
		<tag k="name" v="Torsvikåsen" />
		<tag k="natural" v="hill" />
		<tag k="place" v="locality" />
		<tag k="ssr:stedsnr" v="676531" />
	</node>
	<node lat="60.81795000442528" lon="5.350905556439091" id="-32922">
		<tag k="name" v="Mølsvika" />
		<tag k="natural" v="bay" />
		<tag k="ssr:stedsnr" v="676620" />
	</node>
	<node lat="60.812544450248396" lon="5.307865967671777" id="-32923">
		<tag k="name" v="Duesundsundet" />
		<tag k="natural" v="strait" />
		<tag k="ssr:stedsnr" v="676629" />
	</node>
	<node lat="60.76370000049063" lon="5.3347694501257745" id="-32924">
		<tag k="fixme" v="consider natural=peak for the most distinct mountains in the district" />
		<tag k="name" v="Husefjellet" />
		<tag k="natural" v="hill" />
		<tag k="place" v="locality" />
		<tag k="ssr:stedsnr" v="676710" />
	</node>
	<node lat="60.769211106891596" lon="5.333699999460537" id="-32925">
		<tag k="name" v="Pittdalane" />
		<tag k="natural" v="valley" />
		<tag k="place" v="locality" />
		<tag k="ssr:stedsnr" v="676711" />
	</node>
	<node lat="60.845252778340274" lon="5.255472216101656" id="-32926">
		<tag k="name" v="Gjelfjellet" />
		<tag k="natural" v="hill" />
		<tag k="place" v="locality" />
		<tag k="ssr:stedsnr" v="676551" />
	</node>
	<node lat="60.84294721901431" lon="5.182963894712844" id="-32927">
		<tag k="name" v="Notøyna" />
		<tag k="place" v="islet" />
		<tag k="ssr:stedsnr" v="676552" />
	</node>
	<node lat="60.84760327640461" lon="5.2999153318653445" id="-32928">
		<tag k="fixme" v="consider place=hamlet" />
		<tag k="name" v="Molland" />
		<tag k="place" v="farm" />
		<tag k="ssr:stedsnr" v="676558" />
	</node>
	<node lat="60.8283583290821" lon="5.158127770898669" id="-32929">
		<tag k="name" v="Bastetanghogen" />
		<tag k="natural" v="hill" />
		<tag k="place" v="locality" />
		<tag k="ssr:stedsnr" v="676580" />
	</node>
	<node lat="60.79663967777119" lon="5.360798754276649" id="-32930">
		<tag k="name" v="Svartebotstjørnane" />
		<tag k="natural" v="water" />
		<tag k="ssr:stedsnr" v="676645" />
		<tag k="water" v="lake" />
	</node>
	<node lat="60.78887499738098" lon="5.408791668040704" id="-32931">
		<tag k="name" v="Øvredalen" />
		<tag k="natural" v="valley" />
		<tag k="place" v="locality" />
		<tag k="ssr:stedsnr" v="676653" />
	</node>
	<node lat="60.77847181906356" lon="5.283376644135831" id="-32932">
		<tag k="name" v="Jetmundshammaren" />
		<tag k="place" v="locality" />
		<tag k="ssr:stedsnr" v="676664" />
	</node>
	<node lat="60.78461110703704" lon="5.296158333981568" id="-32933">
		<tag k="name" v="Svartedalen" />
		<tag k="natural" v="valley" />
		<tag k="place" v="locality" />
		<tag k="ssr:stedsnr" v="676665" />
	</node>
	<node lat="60.78170833742595" lon="5.457200002526466" id="-32934">
		<tag k="historic" v="shieling" />
		<tag k="name" v="Duesundsetret" />
		<tag k="place" v="isolated_dwelling" />
		<tag k="ssr:stedsnr" v="676681" />
	</node>
	<node lat="60.77671944015578" lon="5.443049997916706" id="-32935">
		<tag k="fixme" v="consider natural=peak for the most distinct mountains in the district" />
		<tag k="name" v="Blådalsnipa" />
		<tag k="natural" v="hill" />
		<tag k="place" v="locality" />
		<tag k="ssr:stedsnr" v="676682" />
	</node>
	<node lat="60.76269669706016" lon="5.345644434893198" id="-32936">
		<tag k="name" v="Mjangersvågen" />
		<tag k="natural" v="bay" />
		<tag k="ssr:stedsnr" v="676716" />
	</node>
	<node lat="60.75780833774022" lon="5.284391669947835" id="-32937">
		<tag k="name" v="Elvika" />
		<tag k="natural" v="bay" />
		<tag k="ssr:stedsnr" v="676726" />
	</node>
	<node lat="60.81611389133075" lon="5.589783326810691" id="-32938">
		<tag k="fixme" v="consider natural=peak for the most distinct mountains in the district" />
		<tag k="name" v="Høgefjellet" />
		<tag k="natural" v="hill" />
		<tag k="place" v="locality" />
		<tag k="ssr:stedsnr" v="676952" />
	</node>
	<node lat="60.833022636680695" lon="5.571594364221503" id="-32939">
		<tag k="name" v="Svartetjørna" />
		<tag k="natural" v="water" />
		<tag k="ssr:stedsnr" v="676957" />
	</node>
	<node lat="60.8926944465972" lon="5.297758340987604" id="-32940">
		<tag k="name" v="Lia" />
		<tag k="place" v="farm" />
		<tag k="ssr:stedsnr" v="676958" />
	</node>
	<node lat="60.87396110673128" lon="5.234005547251105" id="-32941">
		<tag k="name" v="Knultrane" />
		<tag k="natural" v="hill" />
		<tag k="place" v="locality" />
		<tag k="ssr:stedsnr" v="676973" />
	</node>
	<node lat="60.88656944142329" lon="5.421811115044365" id="-32942">
		<tag k="name" v="Stemmetjørna" />
		<tag k="natural" v="water" />
		<tag k="ssr:stedsnr" v="676978" />
	</node>
	<node lat="60.792519448070216" lon="5.2182416649769" id="-32943">
		<tag k="fixme" v="consider place=hamlet" />
		<tag k="name" v="Raunøyna" />
		<tag k="place" v="farm" />
		<tag k="ssr:stedsnr" v="476578" />
	</node>
	<node lat="60.83598055214222" lon="5.292441674267423" id="-32944">
		<tag k="name" v="Lægdarvikleitet" />
		<tag k="natural" v="hill" />
		<tag k="place" v="locality" />
		<tag k="ssr:stedsnr" v="493564" />
	</node>
	<node lat="60.835886112781324" lon="5.436455546887848" id="-32945">
		<tag k="name" v="Glyvreelva" />
		<tag k="ssr:stedsnr" v="493574" />
		<tag k="waterway" v="river" />
	</node>
	<node lat="60.85633888723165" lon="5.561855553491717" id="-32946">
		<tag k="fixme" v="consider natural=peak for the most distinct mountains in the district" />
		<tag k="name" v="Trysdalsnipa" />
		<tag k="natural" v="hill" />
		<tag k="place" v="locality" />
		<tag k="ssr:stedsnr" v="493406" />
	</node>
	<node lat="60.78914444259348" lon="5.362849997309398" id="-32947">
		<tag k="name" v="Hamreskilet" />
		<tag k="natural" v="valley" />
		<tag k="place" v="locality" />
		<tag k="ssr:stedsnr" v="493705" />
	</node>
	<node lat="60.896316670286815" lon="5.242788897142555" id="-32948">
		<tag k="name" v="Såtehogen" />
		<tag k="natural" v="hill" />
		<tag k="place" v="locality" />
		<tag k="ssr:stedsnr" v="493920" />
	</node>
	<node lat="60.9143514721608" lon="5.445066474923904" id="-32949">
		<tag k="name" v="Sulelva" />
		<tag k="ssr:stedsnr" v="493926" />
		<tag k="waterway" v="river" />
	</node>
	<node lat="60.9173000017288" lon="5.41015833622387" id="-32950">
		<tag k="fixme" v="consider natural=peak for the most distinct mountains in the district" />
		<tag k="name" v="Stendarskarfjellet" />
		<tag k="natural" v="hill" />
		<tag k="place" v="locality" />
		<tag k="ssr:stedsnr" v="493931" />
	</node>
	<node lat="60.941791662755904" lon="5.287802781301298" id="-32951">
		<tag k="name" v="Nyliklantane" />
		<tag k="natural" v="slope" />
		<tag k="place" v="locality" />
		<tag k="ssr:stedsnr" v="493874" />
	</node>
	<node lat="60.92336207596816" lon="5.420462284411094" id="-32952">
		<tag k="name" v="Sulevatnet" />
		<tag k="natural" v="water" />
		<tag k="ssr:stedsnr" v="494181" />
		<tag k="water" v="lake" />
	</node>
	<node lat="60.88597699482935" lon="5.549462115011938" id="-32953">
		<tag k="name" v="Botnetjørna" />
		<tag k="natural" v="water" />
		<tag k="ssr:stedsnr" v="494302" />
	</node>
	<node lat="60.86449444590831" lon="5.560608339350672" id="-32954">
		<tag k="name" v="Trysdalen" />
		<tag k="natural" v="valley" />
		<tag k="place" v="locality" />
		<tag k="ssr:stedsnr" v="494408" />
	</node>
	<node lat="60.859024997034865" lon="5.550125007998975" id="-32955">
		<tag k="name" v="Smørdalen" />
		<tag k="natural" v="valley" />
		<tag k="place" v="locality" />
		<tag k="ssr:stedsnr" v="494410" />
	</node>
	<node lat="60.804000000704846" lon="5.477933331172878" id="-32956">
		<tag k="fixme" v="consider natural=peak for the most distinct mountains in the district" />
		<tag k="name" v="Austrefjellet" />
		<tag k="natural" v="hill" />
		<tag k="place" v="locality" />
		<tag k="ssr:stedsnr" v="494460" />
	</node>
</osm>
