<?xml version="1.0" encoding="UTF-8"?>
<osm version="0.6" generator="osmapis">
	<node lat="60.924225307538684" lon="5.73303090882876" id="-36127">
		<tag k="name" v="Fagerdalsvatnet" />
		<tag k="natural" v="water" />
		<tag k="ssr:stedsnr" v="8298" />
	</node>
	<node lat="60.89599202562641" lon="5.256082391245298" id="-36138">
		<tag k="name" v="Markhusdalsvatnet" />
		<tag k="natural" v="water" />
		<tag k="ssr:stedsnr" v="8913" />
		<tag k="water" v="lake" />
	</node>
	<node lat="60.94179999581233" lon="5.633488891328719" id="-36140">
		<tag k="name" v="Krokvatnet" />
		<tag k="natural" v="water" />
		<tag k="ssr:stedsnr" v="9242" />
	</node>
	<node lat="60.87919506029039" lon="5.217910860105895" id="-36141">
		<tag k="name" v="Sleirsvatnet" />
		<tag k="natural" v="water" />
		<tag k="ssr:stedsnr" v="8998" />
		<tag k="water" v="lake" />
	</node>
	<node lat="60.81180277542073" lon="5.3814305557856335" id="-36146">
		<tag k="name" v="Litlevatnet" />
		<tag k="natural" v="water" />
		<tag k="ssr:stedsnr" v="9628" />
		<tag k="water" v="lake" />
	</node>
	<node lat="60.888094442978556" lon="5.291183341111341" id="-36158">
		<tag k="name" v="Storneset" />
		<tag k="natural" v="cape" />
		<tag k="ssr:stedsnr" v="20594" />
	</node>
	<node lat="60.88906944733624" lon="5.383194441364216" id="-36170">
		<tag k="name" v="Fossdalselva" />
		<tag k="ssr:stedsnr" v="21441" />
		<tag k="waterway" v="river" />
	</node>
	<node lat="60.788119287222564" lon="5.380489816054298" id="-36172">
		<tag k="name" v="Kroktjørna" />
		<tag k="natural" v="water" />
		<tag k="ssr:stedsnr" v="21485" />
	</node>
	<node lat="60.89063092536343" lon="5.611590739854988" id="-36184">
		<tag k="name" v="Svartetjørna" />
		<tag k="natural" v="water" />
		<tag k="ssr:stedsnr" v="21810" />
		<tag k="water" v="lake" />
	</node>
	<node lat="60.94334496489886" lon="5.714004653544143" id="-36188">
		<tag k="name" v="Skavlebotsvatnet" />
		<tag k="natural" v="water" />
		<tag k="ssr:stedsnr" v="21798" />
		<tag k="water" v="lake" />
	</node>
	<node lat="60.74622078989969" lon="5.444757576457868" id="-36195">
		<tag k="name" v="Nutevatnet" />
		<tag k="natural" v="water" />
		<tag k="ssr:stedsnr" v="66601" />
	</node>
	<node lat="60.84572746961762" lon="5.42163109021035" id="-36201">
		<tag k="name" v="Fagrebotstjørna" />
		<tag k="natural" v="water" />
		<tag k="ssr:stedsnr" v="69608" />
	</node>
	<node lat="60.91541666504475" lon="5.645077780618738" id="-36203">
		<tag k="name" v="Fossevatnet" />
		<tag k="natural" v="water" />
		<tag k="ssr:stedsnr" v="69386" />
		<tag k="water" v="lake" />
	</node>
	<node lat="60.90729489657815" lon="5.331751610785783" id="-36208">
		<tag k="name" v="Øvste Botnetjørna" />
		<tag k="natural" v="water" />
		<tag k="ssr:stedsnr" v="69933" />
	</node>
	<node lat="60.80306944165577" lon="5.36523056242613" id="-36210">
		<tag k="name" v="Lykelsvatnet" />
		<tag k="natural" v="water" />
		<tag k="ssr:stedsnr" v="69679" />
		<tag k="water" v="lake" />
	</node>
	<node lat="60.80331909379888" lon="5.254195495742571" id="-36211">
		<tag k="name" v="Øvre Stemma" />
		<tag k="natural" v="water" />
		<tag k="ssr:stedsnr" v="69687" />
	</node>
	<node lat="60.805936770574164" lon="5.254782148295784" id="-36215">
		<tag k="name" v="Slaketjørna" />
		<tag k="natural" v="water" />
		<tag k="ssr:stedsnr" v="81293" />
	</node>
	<node lat="60.78240277488924" lon="5.4609861081828655" id="-36219">
		<tag k="name" v="Klokkarelva" />
		<tag k="ssr:stedsnr" v="81319" />
		<tag k="waterway" v="river" />
	</node>
	<node lat="60.74972500344144" lon="5.402797219116282" id="-36220">
		<tag k="name" v="Vasslineset" />
		<tag k="natural" v="cape" />
		<tag k="ssr:stedsnr" v="81323" />
	</node>
	<node lat="60.78316362313342" lon="5.372316644763767" id="-36245">
		<tag k="name" v="Lometjørna" />
		<tag k="natural" v="water" />
		<tag k="ssr:stedsnr" v="250033" />
	</node>
	<node lat="60.93170082745974" lon="5.674066234688851" id="-36247">
		<tag k="name" v="Lonevatnet" />
		<tag k="natural" v="water" />
		<tag k="ssr:stedsnr" v="251270" />
	</node>
	<node lat="60.93576666224414" lon="5.702736108793816" id="-36249">
		<tag k="name" v="Endeløysa" />
		<tag k="natural" v="water" />
		<tag k="ssr:stedsnr" v="251273" />
	</node>
	<node lat="60.94964195714673" lon="5.760456763990652" id="-36252">
		<tag k="name" v="Meinsperro" />
		<tag k="natural" v="water" />
		<tag k="ssr:stedsnr" v="251303" />
	</node>
	<node lat="60.94220646537918" lon="5.801522501958503" id="-36253">
		<tag k="name" v="Langevatnet" />
		<tag k="natural" v="water" />
		<tag k="ssr:stedsnr" v="251305" />
	</node>
	<node lat="60.87080818444991" lon="5.707886175619084" id="-36256">
		<tag k="name" v="Endeløysa" />
		<tag k="natural" v="water" />
		<tag k="ssr:stedsnr" v="251352" />
	</node>
	<node lat="60.90483333521771" lon="5.688350003531245" id="-36259">
		<tag k="name" v="Lovatnet" />
		<tag k="natural" v="water" />
		<tag k="ssr:stedsnr" v="251372" />
	</node>
	<node lat="60.847283330206814" lon="5.511338885727297" id="-36263">
		<tag k="name" v="Haugsdalselva" />
		<tag k="ssr:stedsnr" v="251426" />
		<tag k="waterway" v="river" />
	</node>
	<node lat="60.85426388815139" lon="5.242827785621132" id="-36269">
		<tag k="name" v="Holmen" />
		<tag k="place" v="islet" />
		<tag k="ssr:stedsnr" v="251548" />
	</node>
	<node lat="60.83221292568231" lon="5.230730821918874" id="-36273">
		<tag k="name" v="Baldersvågtjørna" />
		<tag k="natural" v="water" />
		<tag k="ssr:stedsnr" v="251581" />
	</node>
	<node lat="60.86156389279123" lon="5.263841666226801" id="-36275">
		<tag k="name" v="Hindefossen" />
		<tag k="natural" v="waterfall" />
		<tag k="ssr:stedsnr" v="251534" />
	</node>
	<node lat="60.81408889253844" lon="5.351486115731432" id="-36280">
		<tag k="name" v="Mølsvikelva" />
		<tag k="ssr:stedsnr" v="251648" />
		<tag k="waterway" v="river" />
	</node>
	<node lat="60.76240930762971" lon="5.432984394783064" id="-36289">
		<tag k="name" v="Setretjørna" />
		<tag k="natural" v="water" />
		<tag k="ssr:stedsnr" v="251773" />
	</node>
	<node lat="60.893158332353536" lon="5.410591675772742" id="-36299">
		<tag k="name" v="Sollielva" />
		<tag k="ssr:stedsnr" v="251962" />
		<tag k="waterway" v="river" />
	</node>
	<node lat="60.96143333129591" lon="5.626013890965283" id="-36307">
		<tag k="name" v="Hestevatnet" />
		<tag k="natural" v="water" />
		<tag k="ssr:stedsnr" v="129295" />
	</node>
	<node lat="60.84740989934268" lon="5.565643367778176" id="-36310">
		<tag k="name" v="Langetjørna" />
		<tag k="natural" v="water" />
		<tag k="ssr:stedsnr" v="129419" />
	</node>
	<node lat="60.841647220780615" lon="5.445727781369085" id="-36324">
		<tag k="name" v="Glyvrebotsvatnet" />
		<tag k="natural" v="water" />
		<tag k="ssr:stedsnr" v="141506" />
		<tag k="water" v="lake" />
	</node>
	<node lat="60.866250002332315" lon="5.2787666648917515" id="-36327">
		<tag k="name" v="Lona" />
		<tag k="natural" v="water" />
		<tag k="ssr:stedsnr" v="141420" />
	</node>
	<node lat="60.81848159322455" lon="5.431868209873505" id="-36349">
		<tag k="name" v="Raunebotsvatnet" />
		<tag k="natural" v="water" />
		<tag k="ssr:stedsnr" v="190617" />
	</node>
	<node lat="60.89911944664394" lon="5.620152785025042" id="-36350">
		<tag k="name" v="Hummelfossen" />
		<tag k="natural" v="waterfall" />
		<tag k="ssr:stedsnr" v="190361" />
	</node>
	<node lat="60.92710019292443" lon="5.838971371032901" id="-36351">
		<tag k="name" v="Harekupvatnet" />
		<tag k="natural" v="water" />
		<tag k="ssr:stedsnr" v="190371" />
	</node>
	<node lat="60.80533055506931" lon="5.396724998265193" id="-36372">
		<tag k="name" v="Tveråfossen" />
		<tag k="natural" v="waterfall" />
		<tag k="ssr:stedsnr" v="263179" />
	</node>
	<node lat="60.85256375459208" lon="5.267978944118636" id="-36374">
		<tag k="name" v="Hindevatnet" />
		<tag k="natural" v="water" />
		<tag k="ssr:stedsnr" v="191505" />
	</node>
	<node lat="60.852017383674756" lon="5.43363634786181" id="-36375">
		<tag k="name" v="Ljøsåvatnet" />
		<tag k="natural" v="water" />
		<tag k="ssr:stedsnr" v="191511" />
	</node>
	<node lat="60.81173857936504" lon="5.251425250158004" id="-36388">
		<tag k="name" v="Doppetjørna" />
		<tag k="natural" v="water" />
		<tag k="ssr:stedsnr" v="263383" />
	</node>
	<node lat="60.81998876031633" lon="5.245145224545628" id="-36389">
		<tag k="name" v="Skjelsundtjørna" />
		<tag k="natural" v="water" />
		<tag k="ssr:stedsnr" v="263384" />
	</node>
	<node lat="60.790969446608656" lon="5.378622221978585" id="-36396">
		<tag k="name" v="Svartediket" />
		<tag k="ssr:stedsnr" v="263485" />
		<tag k="waterway" v="drain" />
	</node>
	<node lat="60.891146549072204" lon="5.286950671189594" id="-36399">
		<tag k="name" v="Lindebotstjørna" />
		<tag k="natural" v="water" />
		<tag k="ssr:stedsnr" v="263638" />
	</node>
	<node lat="60.85290465230774" lon="5.222338962440673" id="-36400">
		<tag k="name" v="Høgebergtjørna" />
		<tag k="natural" v="water" />
		<tag k="ssr:stedsnr" v="263640" />
	</node>
	<node lat="60.857568315520844" lon="5.1699171397245935" id="-36404">
		<tag k="name" v="Erdalstjørna" />
		<tag k="natural" v="water" />
		<tag k="ssr:stedsnr" v="263658" />
	</node>
	<node lat="60.89823296144189" lon="5.457382712476864" id="-36408">
		<tag k="name" v="Midtkviltjørna" />
		<tag k="natural" v="water" />
		<tag k="ssr:stedsnr" v="263623" />
	</node>
	<node lat="60.89480278158024" lon="5.251838895505784" id="-36409">
		<tag k="name" v="Inste Vaulen" />
		<tag k="place" v="island" />
		<tag k="ssr:stedsnr" v="263633" />
	</node>
	<node lat="60.899497835351056" lon="5.544143296057614" id="-36415">
		<tag k="name" v="Litlevatnet" />
		<tag k="natural" v="water" />
		<tag k="ssr:stedsnr" v="263717" />
		<tag k="water" v="lake" />
	</node>
	<node lat="60.90558888513912" lon="5.46711666479142" id="-36419">
		<tag k="name" v="Steinløypneset" />
		<tag k="natural" v="cape" />
		<tag k="ssr:stedsnr" v="263735" />
	</node>
	<node lat="60.91932500012772" lon="5.648158328272345" id="-36425">
		<tag k="name" v="Brydalsvika" />
		<tag k="natural" v="bay" />
		<tag k="ssr:stedsnr" v="263863" />
	</node>
	<node lat="60.84118055959895" lon="5.604094453137959" id="-36427">
		<tag k="name" v="Storevassøyna" />
		<tag k="place" v="island" />
		<tag k="ssr:stedsnr" v="263867" />
	</node>
	<node lat="60.889933262773056" lon="5.560447964188518" id="-36437">
		<tag k="name" v="Bjørnestegvatnet" />
		<tag k="natural" v="water" />
		<tag k="ssr:stedsnr" v="202713" />
		<tag k="water" v="lake" />
	</node>
	<node lat="60.79898033746672" lon="5.441592237497885" id="-36441">
		<tag k="name" v="Langevatnet" />
		<tag k="natural" v="water" />
		<tag k="ssr:stedsnr" v="203318" />
		<tag k="water" v="lake" />
	</node>
	<node lat="60.748516665442594" lon="5.411075008101688" id="-36442">
		<tag k="name" v="Furneset" />
		<tag k="natural" v="cape" />
		<tag k="ssr:stedsnr" v="203329" />
	</node>
	<node lat="60.840833335521964" lon="5.307208328109301" id="-36448">
		<tag k="name" v="Langeneset" />
		<tag k="natural" v="cape" />
		<tag k="ssr:stedsnr" v="203502" />
	</node>
	<node lat="60.94895833203116" lon="5.71223334043438" id="-36457">
		<tag k="name" v="Skavlebotsneset" />
		<tag k="natural" v="cape" />
		<tag k="ssr:stedsnr" v="203804" />
	</node>
	<node lat="60.74128889195294" lon="5.363569443124448" id="-36469">
		<tag k="name" v="Blomtjørna" />
		<tag k="natural" v="water" />
		<tag k="ssr:stedsnr" v="263302" />
	</node>
	<node lat="60.77497438967088" lon="5.401523101699065" id="-36477">
		<tag k="name" v="Blåfjelltjørna" />
		<tag k="natural" v="water" />
		<tag k="ssr:stedsnr" v="263488" />
	</node>
	<node lat="60.88515555492498" lon="5.57126666780657" id="-36483">
		<tag k="name" v="Litlelielva" />
		<tag k="ssr:stedsnr" v="263538" />
		<tag k="waterway" v="river" />
	</node>
	<node lat="60.87493888507127" lon="5.1808333419179355" id="-36488">
		<tag k="name" v="Storlineset" />
		<tag k="natural" v="cape" />
		<tag k="ssr:stedsnr" v="263698" />
	</node>
	<node lat="60.850773128579924" lon="5.672750798139684" id="-36499">
		<tag k="name" v="Godbotsvatnet" />
		<tag k="natural" v="water" />
		<tag k="ssr:stedsnr" v="311476" />
		<tag k="water" v="lake" />
	</node>
	<node lat="60.87812553444048" lon="5.6872057460388445" id="-36503">
		<tag k="name" v="Øvste Kvitevatnet" />
		<tag k="natural" v="water" />
		<tag k="ssr:stedsnr" v="312315" />
	</node>
	<node lat="60.863525385389565" lon="5.140203601485336" id="-36513">
		<tag k="name" v="Svelivatnet" />
		<tag k="natural" v="water" />
		<tag k="ssr:stedsnr" v="312985" />
	</node>
	<node lat="60.84267178100429" lon="5.3030667137373735" id="-36550">
		<tag k="name" v="Mollandsvatnet" />
		<tag k="natural" v="water" />
		<tag k="ssr:stedsnr" v="372560" />
		<tag k="water" v="lake" />
	</node>
	<node lat="60.837236265651704" lon="5.2409062671219795" id="-36552">
		<tag k="name" v="Storstemvatnet" />
		<tag k="natural" v="water" />
		<tag k="ssr:stedsnr" v="372571" />
	</node>
	<node lat="60.82739722044168" lon="5.396702779152759" id="-36553">
		<tag k="name" v="Kringlevatnet" />
		<tag k="natural" v="water" />
		<tag k="ssr:stedsnr" v="372609" />
		<tag k="water" v="lake" />
	</node>
	<node lat="60.922370874032985" lon="5.273322499925315" id="-36562">
		<tag k="name" v="Svartetjørna" />
		<tag k="natural" v="water" />
		<tag k="ssr:stedsnr" v="372914" />
	</node>
	<node lat="60.90397500350574" lon="5.299791669306771" id="-36568">
		<tag k="name" v="Byrkjelandsvatnet" />
		<tag k="natural" v="water" />
		<tag k="ssr:stedsnr" v="372966" />
	</node>
	<node lat="60.84460110838036" lon="5.268914171572839" id="-36572">
		<tag k="name" v="Kolldalstjørna" />
		<tag k="natural" v="water" />
		<tag k="ssr:stedsnr" v="373564" />
	</node>
	<node lat="60.887011112035665" lon="5.238166658659613" id="-36586">
		<tag k="name" v="Kinnefossen" />
		<tag k="natural" v="waterfall" />
		<tag k="ssr:stedsnr" v="384614" />
	</node>
	<node lat="60.767491670390164" lon="5.325502778275621" id="-36595">
		<tag k="name" v="Vika" />
		<tag k="natural" v="bay" />
		<tag k="ssr:stedsnr" v="385358" />
	</node>
	<node lat="60.91537499872809" lon="5.458533330715389" id="-36597">
		<tag k="name" v="Svaelva" />
		<tag k="ssr:stedsnr" v="385407" />
		<tag k="waterway" v="river" />
	</node>
	<node lat="60.968611115080144" lon="5.643669451382593" id="-36604">
		<tag k="name" v="Store Fjellvatnet" />
		<tag k="natural" v="water" />
		<tag k="ssr:stedsnr" v="433306" />
	</node>
	<node lat="60.84103889029616" lon="5.469158338064646" id="-36610">
		<tag k="name" v="Kupevatnet" />
		<tag k="natural" v="water" />
		<tag k="ssr:stedsnr" v="433390" />
	</node>
	<node lat="60.827679911334045" lon="5.285930844012075" id="-36611">
		<tag k="name" v="Ildalstjørna" />
		<tag k="natural" v="water" />
		<tag k="ssr:stedsnr" v="433573" />
	</node>
	<node lat="60.75219136906266" lon="5.353630491757488" id="-36613">
		<tag k="name" v="Nordsta Tjørna" />
		<tag k="natural" v="water" />
		<tag k="ssr:stedsnr" v="434701" />
	</node>
	<node lat="60.767099995873096" lon="5.41444445253073" id="-36627">
		<tag k="name" v="Timbrebotsneset" />
		<tag k="natural" v="cape" />
		<tag k="ssr:stedsnr" v="445307" />
	</node>
	<node lat="60.74238333289541" lon="5.370769444216534" id="-36631">
		<tag k="name" v="Katlegrova" />
		<tag k="ssr:stedsnr" v="445277" />
		<tag k="waterway" v="river" />
	</node>
	<node lat="60.834738891297526" lon="5.515469447069666" id="-36638">
		<tag k="name" v="Haugsdalselva" />
		<tag k="ssr:stedsnr" v="445593" />
		<tag k="waterway" v="river" />
	</node>
	<node lat="60.916671647929185" lon="5.716931241130232" id="-36642">
		<tag k="name" v="Grønlivatnet" />
		<tag k="natural" v="water" />
		<tag k="ssr:stedsnr" v="494338" />
	</node>
	<node lat="60.765941664709814" lon="5.324547229271265" id="-36649">
		<tag k="name" v="Furneset" />
		<tag k="natural" v="cape" />
		<tag k="ssr:stedsnr" v="446387" />
	</node>
	<node lat="60.77712914576114" lon="5.428939289905385" id="-36661">
		<tag k="name" v="Timbrebotstjørna" />
		<tag k="natural" v="water" />
		<tag k="ssr:stedsnr" v="494658" />
	</node>
	<node lat="60.93101944526181" lon="5.591619452120698" id="-36679">
		<tag k="name" v="Stemmevatnet" />
		<tag k="natural" v="water" />
		<tag k="ssr:stedsnr" v="676242" />
	</node>
	<node lat="60.95933083142334" lon="5.798213336838984" id="-36681">
		<tag k="name" v="Små Fjellvatnet" />
		<tag k="natural" v="water" />
		<tag k="ssr:stedsnr" v="676258" />
		<tag k="water" v="lake" />
	</node>
	<node lat="60.862250002364625" lon="5.4885416707785275" id="-36685">
		<tag k="name" v="Lysebugelva" />
		<tag k="ssr:stedsnr" v="676325" />
		<tag k="waterway" v="river" />
	</node>
	<node lat="60.79663967777119" lon="5.360798754276649" id="-36703">
		<tag k="name" v="Svartebotstjørnane" />
		<tag k="natural" v="water" />
		<tag k="ssr:stedsnr" v="676645" />
		<tag k="water" v="lake" />
	</node>
	<node lat="60.833022636680695" lon="5.571594364221503" id="-36712">
		<tag k="name" v="Svartetjørna" />
		<tag k="natural" v="water" />
		<tag k="ssr:stedsnr" v="676957" />
	</node>
	<node lat="60.88656944142329" lon="5.421811115044365" id="-36715">
		<tag k="name" v="Stemmetjørna" />
		<tag k="natural" v="water" />
		<tag k="ssr:stedsnr" v="676978" />
	</node>
	<node lat="60.835886112781324" lon="5.436455546887848" id="-36718">
		<tag k="name" v="Glyvreelva" />
		<tag k="ssr:stedsnr" v="493574" />
		<tag k="waterway" v="river" />
	</node>
	<node lat="60.9143514721608" lon="5.445066474923904" id="-36722">
		<tag k="name" v="Sulelva" />
		<tag k="ssr:stedsnr" v="493926" />
		<tag k="waterway" v="river" />
	</node>
	<node lat="60.92336207596816" lon="5.420462284411094" id="-36725">
		<tag k="name" v="Sulevatnet" />
		<tag k="natural" v="water" />
		<tag k="ssr:stedsnr" v="494181" />
		<tag k="water" v="lake" />
	</node>
	<node lat="60.88597699482935" lon="5.549462115011938" id="-36726">
		<tag k="name" v="Botnetjørna" />
		<tag k="natural" v="water" />
		<tag k="ssr:stedsnr" v="494302" />
	</node>
	<node lat="60.91987104101665" lon="5.442082395894321" id="-36734">
		<tag k="name" v="Fitjetjørna" />
		<tag k="natural" v="water" />
		<tag k="ssr:stedsnr" v="494939" />
	</node>
	<node lat="60.882878216398026" lon="5.24331457282873" id="-36740">
		<tag k="name" v="Påltjørna" />
		<tag k="natural" v="water" />
		<tag k="ssr:stedsnr" v="506418" />
	</node>
	<node lat="60.9175388851117" lon="5.293999996479831" id="-36758">
		<tag k="name" v="Tverelva" />
		<tag k="ssr:stedsnr" v="506606" />
		<tag k="waterway" v="river" />
	</node>
	<node lat="60.8226725325026" lon="5.189197469645685" id="-36763">
		<tag k="name" v="Staurøytjørna" />
		<tag k="natural" v="water" />
		<tag k="ssr:stedsnr" v="506664" />
	</node>
	<node lat="60.827837733166305" lon="5.489922108998868" id="-36767">
		<tag k="name" v="Haugsdalsvatnet" />
		<tag k="natural" v="water" />
		<tag k="ssr:stedsnr" v="506557" />
		<tag k="water" v="lake" />
	</node>
	<node lat="60.92429166392345" lon="5.5482694377288615" id="-36769">
		<tag k="name" v="Storelva" />
		<tag k="ssr:stedsnr" v="506718" />
		<tag k="waterway" v="river" />
	</node>
	<node lat="60.83827500332208" lon="5.589719447346758" id="-36771">
		<tag k="name" v="Askilneset" />
		<tag k="natural" v="cape" />
		<tag k="ssr:stedsnr" v="506858" />
	</node>
	<node lat="60.97699228681962" lon="5.634846948502108" id="-36776">
		<tag k="name" v="Kvanngrøvatnet" />
		<tag k="natural" v="water" />
		<tag k="ssr:stedsnr" v="554333" />
		<tag k="water" v="lake" />
	</node>
	<node lat="60.93373631783763" lon="5.825711343872427" id="-36782">
		<tag k="name" v="Krangledalsvatnet" />
		<tag k="natural" v="water" />
		<tag k="ssr:stedsnr" v="554280" />
	</node>
	<node lat="60.84173055125103" lon="5.301519450037389" id="-36790">
		<tag k="name" v="Klubbeneset" />
		<tag k="natural" v="cape" />
		<tag k="ssr:stedsnr" v="554588" />
	</node>
	<node lat="60.786466609492386" lon="5.333138654510989" id="-36792">
		<tag k="name" v="Torsteinsvatnet" />
		<tag k="natural" v="water" />
		<tag k="ssr:stedsnr" v="554717" />
	</node>
	<node lat="60.75232024234803" lon="5.359763035117197" id="-36793">
		<tag k="name" v="Heimsta Tjørna" />
		<tag k="natural" v="water" />
		<tag k="ssr:stedsnr" v="554774" />
	</node>
	<node lat="60.87119599518511" lon="5.163447161905833" id="-36796">
		<tag k="name" v="Gravatn" />
		<tag k="natural" v="water" />
		<tag k="ssr:stedsnr" v="554992" />
	</node>
	<node lat="60.88283055298966" lon="5.371952774791114" id="-36797">
		<tag k="name" v="Dyrkollebotselva" />
		<tag k="ssr:stedsnr" v="554993" />
		<tag k="waterway" v="stream" />
	</node>
	<node lat="60.88239721908166" lon="5.277797230067401" id="-36798">
		<tag k="name" v="Kvamsøyna" />
		<tag k="place" v="islet" />
		<tag k="ssr:stedsnr" v="555000" />
	</node>
	<node lat="60.83919321330914" lon="5.2942328790238005" id="-36802">
		<tag k="name" v="Lægdarvika" />
		<tag k="natural" v="bay" />
		<tag k="ssr:stedsnr" v="688490" />
	</node>
	<node lat="60.82915555927788" lon="5.445999991947385" id="-36805">
		<tag k="name" v="Lyngrabbelva" />
		<tag k="ssr:stedsnr" v="688502" />
		<tag k="waterway" v="river" />
	</node>
	<node lat="60.85033889179516" lon="5.5067083267468036" id="-36807">
		<tag k="name" v="Flatafossgrova" />
		<tag k="ssr:stedsnr" v="688518" />
		<tag k="waterway" v="river" />
	</node>
	<node lat="60.80402406534563" lon="5.259120260688302" id="-36812">
		<tag k="name" v="Daletjørna" />
		<tag k="natural" v="water" />
		<tag k="ssr:stedsnr" v="688372" />
	</node>
	<node lat="60.87537500346741" lon="5.35005000557374" id="-36817">
		<tag k="name" v="Hommelelva" />
		<tag k="ssr:stedsnr" v="688480" />
		<tag k="waterway" v="river" />
	</node>
	<node lat="60.8325388855159" lon="5.516588890985696" id="-36819">
		<tag k="name" v="Stegåna" />
		<tag k="ssr:stedsnr" v="688580" />
		<tag k="waterway" v="stream" />
	</node>
	<node lat="60.83884019259578" lon="5.2203359073761515" id="-36824">
		<tag k="name" v="Lonetjørna" />
		<tag k="natural" v="water" />
		<tag k="ssr:stedsnr" v="688674" />
	</node>
	<node lat="60.82765082997682" lon="5.171534696126067" id="-36828">
		<tag k="name" v="Indre Vatnet" />
		<tag k="natural" v="water" />
		<tag k="ssr:stedsnr" v="688677" />
		<tag k="water" v="lake" />
	</node>
	<node lat="60.89889744700722" lon="5.561251927158291" id="-36834">
		<tag k="name" v="Langevatnet" />
		<tag k="natural" v="water" />
		<tag k="ssr:stedsnr" v="688701" />
		<tag k="water" v="lake" />
	</node>
	<node lat="60.92605568763497" lon="5.63727468862102" id="-36839">
		<tag k="name" v="Rundevatnet" />
		<tag k="natural" v="water" />
		<tag k="ssr:stedsnr" v="688854" />
		<tag k="water" v="lake" />
	</node>
	<node lat="60.83805277864485" lon="5.598455562538435" id="-36840">
		<tag k="name" v="Setrevika" />
		<tag k="natural" v="bay" />
		<tag k="ssr:stedsnr" v="688861" />
	</node>
	<node lat="60.88196111079068" lon="5.584038885120087" id="-36841">
		<tag k="name" v="Kvernhusfossen" />
		<tag k="natural" v="waterfall" />
		<tag k="ssr:stedsnr" v="688866" />
	</node>
	<node lat="60.7802666637342" lon="5.459391675072115" id="-36848">
		<tag k="name" v="Duesundtjørna" />
		<tag k="natural" v="water" />
		<tag k="ssr:stedsnr" v="566311" />
	</node>
	<node lat="60.891263886611036" lon="5.3056583259067605" id="-36864">
		<tag k="name" v="Lona" />
		<tag k="natural" v="water" />
		<tag k="ssr:stedsnr" v="566626" />
		<tag k="water" v="lake" />
	</node>
	<node lat="60.904594448133565" lon="5.53293889245864" id="-36866">
		<tag k="name" v="Stallelva" />
		<tag k="ssr:stedsnr" v="566708" />
		<tag k="waterway" v="river" />
	</node>
	<node lat="60.909502777418155" lon="5.63223055511509" id="-36870">
		<tag k="name" v="Eidet" />
		<tag k="place" v="locality" />
		<tag k="ssr:stedsnr" v="566869" />
	</node>
	<node lat="60.91279444535416" lon="5.338474991967984" id="-36878">
		<tag k="name" v="Gravene" />
		<tag k="place" v="locality" />
		<tag k="ssr:stedsnr" v="614918" />
	</node>
	<node lat="60.903901893474455" lon="5.415734312058599" id="-36879">
		<tag k="name" v="Mosetjørna" />
		<tag k="natural" v="water" />
		<tag k="ssr:stedsnr" v="614956" />
	</node>
	<node lat="60.88632777878154" lon="5.6871527868440905" id="-36880">
		<tag k="name" v="Langevatnet" />
		<tag k="natural" v="water" />
		<tag k="ssr:stedsnr" v="615295" />
	</node>
	<node lat="60.83389444033327" lon="5.50644444323747" id="-36883">
		<tag k="name" v="Kvernhuselva" />
		<tag k="ssr:stedsnr" v="615404" />
		<tag k="waterway" v="stream" />
	</node>
	<node lat="60.8617611096872" lon="5.271308327626841" id="-36893">
		<tag k="name" v="Lågefossen" />
		<tag k="natural" v="waterfall" />
		<tag k="ssr:stedsnr" v="615502" />
	</node>
	<node lat="60.80944970811443" lon="5.25947338957979" id="-36901">
		<tag k="name" v="Åsetjørna" />
		<tag k="natural" v="water" />
		<tag k="ssr:stedsnr" v="615601" />
	</node>
	<node lat="60.87862499679523" lon="5.172591667314871" id="-36904">
		<tag k="name" v="Eikebotsvatnet" />
		<tag k="natural" v="water" />
		<tag k="ssr:stedsnr" v="615985" />
	</node>
	<node lat="60.877930550939425" lon="5.2433861037033624" id="-36905">
		<tag k="name" v="Langevatnet" />
		<tag k="natural" v="water" />
		<tag k="ssr:stedsnr" v="615995" />
		<tag k="water" v="lake" />
	</node>
	<node lat="60.84943436598159" lon="5.381190701699052" id="-36914">
		<tag k="name" v="Kupetjørna" />
		<tag k="natural" v="water" />
		<tag k="ssr:stedsnr" v="627452" />
	</node>
	<node lat="60.84101193552436" lon="5.568843872258465" id="-36928">
		<tag k="name" v="Stemmetjørna" />
		<tag k="natural" v="water" />
		<tag k="ssr:stedsnr" v="627549" />
	</node>
	<node lat="60.852724988227486" lon="5.705212277166372" id="-36935">
		<tag k="name" v="Øvste Godbotsfossen" />
		<tag k="natural" v="waterfall" />
		<tag k="ssr:stedsnr" v="651034" />
	</node>
	<node lat="60.74356666806395" lon="5.461591664472041" id="-36936">
		<tag k="name" v="Reivatnet" />
		<tag k="natural" v="water" />
		<tag k="ssr:stedsnr" v="673640" />
	</node>
	<node lat="60.907606302261826" lon="5.231418831614707" id="-36938">
		<tag k="name" v="Råsetjørna" />
		<tag k="natural" v="water" />
		<tag k="ssr:stedsnr" v="675939" />
	</node>
	<node lat="60.88510555872586" lon="5.714183327848029" id="-36941">
		<tag k="name" v="Meinsemdevatnet" />
		<tag k="natural" v="water" />
		<tag k="ssr:stedsnr" v="676319" />
	</node>
	<node lat="60.95495291100161" lon="5.707095680917473" id="-36943">
		<tag k="name" v="Stordalsvatnet" />
		<tag k="natural" v="water" />
		<tag k="ssr:stedsnr" v="676285" />
		<tag k="water" v="lake" />
	</node>
	<node lat="60.83592033416417" lon="5.644124155588631" id="-36944">
		<tag k="name" v="Midtvatnet" />
		<tag k="natural" v="water" />
		<tag k="ssr:stedsnr" v="676405" />
	</node>
	<node lat="60.86410475429235" lon="5.6393662694859" id="-36945">
		<tag k="name" v="Meinsemdevatnet" />
		<tag k="natural" v="water" />
		<tag k="ssr:stedsnr" v="676436" />
		<tag k="water" v="lake" />
	</node>
	<node lat="60.85796693019183" lon="5.179796274107369" id="-36950">
		<tag k="name" v="Rambjørgsvatnet" />
		<tag k="natural" v="water" />
		<tag k="ssr:stedsnr" v="676507" />
	</node>
	<node lat="60.844357429174806" lon="5.2357054470387" id="-36957">
		<tag k="name" v="Merkesdalstjørna" />
		<tag k="natural" v="water" />
		<tag k="ssr:stedsnr" v="688405" />
	</node>
	<node lat="60.87801389260965" lon="5.246333331303205" id="-36960">
		<tag k="name" v="Vaulen" />
		<tag k="natural" v="water" />
		<tag k="ssr:stedsnr" v="688421" />
		<tag k="water" v="lake" />
	</node>
	<node lat="60.90994722597132" lon="5.524594452198834" id="-36974">
		<tag k="name" v="Stuvselva" />
		<tag k="ssr:stedsnr" v="688736" />
		<tag k="waterway" v="river" />
	</node>
	<node lat="60.86117499764911" lon="5.721175001945425" id="-36983">
		<tag k="alt_name" v="Langevatnet" />
		<tag k="name" v="Langavatnet" />
		<tag k="natural" v="water" />
		<tag k="ssr:stedsnr" v="736421" />
		<tag k="water" v="lake" />
	</node>
	<node lat="60.910597187388916" lon="5.41770971891619" id="-36989">
		<tag k="name" v="Kjerringetjørna" />
		<tag k="natural" v="water" />
		<tag k="ssr:stedsnr" v="736908" />
	</node>
	<node lat="60.893756373151106" lon="5.625256639255011" id="-36995">
		<tag k="name" v="Litle Hummelvatnet" />
		<tag k="natural" v="water" />
		<tag k="ssr:stedsnr" v="737315" />
		<tag k="water" v="lake" />
	</node>
	<node lat="60.85371796105295" lon="5.395120135211491" id="-36998">
		<tag k="name" v="Slettevatnet" />
		<tag k="natural" v="water" />
		<tag k="ssr:stedsnr" v="737519" />
		<tag k="water" v="lake" />
	</node>
	<node lat="60.88676727006617" lon="5.581555400467083" id="-37003">
		<tag k="name" v="Matresvatnet" />
		<tag k="natural" v="water" />
		<tag k="ssr:stedsnr" v="748879" />
		<tag k="water" v="lake" />
	</node>
	<node lat="60.85567500323349" lon="5.243327781136354" id="-37010">
		<tag k="name" v="Låveidet" />
		<tag k="place" v="locality" />
		<tag k="ssr:stedsnr" v="749413" />
	</node>
	<node lat="60.78048836905118" lon="5.3612940697778795" id="-37016">
		<tag k="name" v="Huvetjørna" />
		<tag k="natural" v="water" />
		<tag k="ssr:stedsnr" v="749472" />
	</node>
	<node lat="60.78237837262793" lon="5.365891861423242" id="-37017">
		<tag k="name" v="Lometjørna" />
		<tag k="natural" v="water" />
		<tag k="ssr:stedsnr" v="749474" />
	</node>
	<node lat="60.958819448697426" lon="5.725766674164336" id="-37022">
		<tag k="name" v="Bukkedalselva" />
		<tag k="ssr:stedsnr" v="749827" />
		<tag k="waterway" v="river" />
	</node>
	<node lat="60.93697777850524" lon="5.662969438967239" id="-37030">
		<tag k="name" v="Nedste Mosedalsvatnet" />
		<tag k="natural" v="water" />
		<tag k="ssr:stedsnr" v="797301" />
		<tag k="water" v="lake" />
	</node>
	<node lat="60.96143937597651" lon="5.735111935528951" id="-37079">
		<tag k="name" v="Bukkedalsvatnet" />
		<tag k="natural" v="water" />
		<tag k="ssr:stedsnr" v="918334" />
		<tag k="water" v="lake" />
	</node>
	<node lat="60.84157123061778" lon="5.6067068200135415" id="-37080">
		<tag k="name" v="Storevatnet" />
		<tag k="natural" v="water" />
		<tag k="ssr:stedsnr" v="918473" />
		<tag k="water" v="lake" />
	</node>
	<node lat="60.84938801182233" lon="5.634490971228177" id="-37081">
		<tag k="name" v="Gagnløysa" />
		<tag k="ssr:stedsnr" v="918486" />
		<tag k="waterway" v="river" />
	</node>
	<node lat="60.894066669810414" lon="5.522780553915414" id="-37092">
		<tag k="name" v="Haugsværvatnet" />
		<tag k="natural" v="water" />
		<tag k="ssr:stedsnr" v="919332" />
		<tag k="water" v="lake" />
	</node>
	<node lat="60.90649166543872" lon="5.7053916719133175" id="-37094">
		<tag k="name" v="Skredlivatnet" />
		<tag k="natural" v="water" />
		<tag k="ssr:stedsnr" v="919336" />
	</node>
	<node lat="60.87559595542922" lon="5.284608123967128" id="-37101">
		<tag k="name" v="Svartedalstjørna" />
		<tag k="natural" v="water" />
		<tag k="ssr:stedsnr" v="919963" />
	</node>
	<node lat="60.852723508366935" lon="5.691711536556207" id="-37112">
		<tag k="name" v="Øvre Vemundsvatnet" />
		<tag k="natural" v="water" />
		<tag k="ssr:stedsnr" v="858423" />
		<tag k="water" v="lake" />
	</node>
	<node lat="60.804488889379826" lon="5.385424997507471" id="-37115">
		<tag k="name" v="Storevatnet" />
		<tag k="natural" v="water" />
		<tag k="ssr:stedsnr" v="858668" />
		<tag k="water" v="lake" />
	</node>
	<node lat="60.84535000076439" lon="5.246949997272856" id="-37121">
		<tag k="name" v="Gulbergvika" />
		<tag k="natural" v="bay" />
		<tag k="ssr:stedsnr" v="858573" />
	</node>
	<node lat="60.77610277850265" lon="5.310602777216206" id="-37126">
		<tag k="name" v="Totjørna" />
		<tag k="natural" v="water" />
		<tag k="ssr:stedsnr" v="858714" />
	</node>
	<node lat="60.8836671722085" lon="5.359648371503573" id="-37128">
		<tag k="name" v="Nedre Huldlogtjørn" />
		<tag k="natural" v="water" />
		<tag k="ssr:stedsnr" v="858986" />
	</node>
	<node lat="60.88106944821942" lon="5.236716662610179" id="-37139">
		<tag k="name" v="Frøyseteidet" />
		<tag k="place" v="locality" />
		<tag k="ssr:stedsnr" v="870409" />
	</node>
	<node lat="60.81815651991209" lon="5.172739088364503" id="-37149">
		<tag k="name" v="Igletjørna" />
		<tag k="natural" v="water" />
		<tag k="ssr:stedsnr" v="931677" />
	</node>
	<node lat="60.91427777743448" lon="5.647913893270531" id="-37150">
		<tag k="name" v="Myrbærtona" />
		<tag k="natural" v="cape" />
		<tag k="ssr:stedsnr" v="931856" />
	</node>
	<node lat="60.80098611527369" lon="5.387722224948164" id="-37152">
		<tag k="name" v="Kalneset" />
		<tag k="natural" v="cape" />
		<tag k="ssr:stedsnr" v="931183" />
	</node>
	<node lat="60.845645909154264" lon="5.384978004009626" id="-37170">
		<tag k="name" v="Lauvgjeltjørna" />
		<tag k="natural" v="water" />
		<tag k="ssr:stedsnr" v="931447" />
	</node>
	<node lat="60.86886111337776" lon="5.438397229720847" id="-37171">
		<tag k="name" v="Stranda" />
		<tag k="natural" v="beach" />
		<tag k="ssr:stedsnr" v="931459" />
	</node>
	<node lat="60.88517777856564" lon="5.4097416728850085" id="-37172">
		<tag k="name" v="Sjohølen" />
		<tag k="place" v="locality" />
		<tag k="ssr:stedsnr" v="931460" />
	</node>
	<node lat="60.76399999868105" lon="5.384052786245662" id="-37173">
		<tag k="name" v="Furneset" />
		<tag k="natural" v="cape" />
		<tag k="ssr:stedsnr" v="931483" />
	</node>
	<node lat="60.89414722585327" lon="5.256222229474482" id="-37186">
		<tag k="name" v="Munkholmen" />
		<tag k="place" v="islet" />
		<tag k="ssr:stedsnr" v="931631" />
	</node>
	<node lat="60.88989166658678" lon="5.29782499295627" id="-37188">
		<tag k="name" v="Vikeneset" />
		<tag k="natural" v="cape" />
		<tag k="ssr:stedsnr" v="931634" />
	</node>
	<node lat="60.89940483202355" lon="5.52994714254384" id="-37190">
		<tag k="name" v="Kvernhuselva" />
		<tag k="ssr:stedsnr" v="931726" />
		<tag k="waterway" v="river" />
	</node>
	<node lat="60.91216389127756" lon="5.642038889241594" id="-37193">
		<tag k="name" v="Ureneset" />
		<tag k="natural" v="cape" />
		<tag k="ssr:stedsnr" v="931860" />
	</node>
	<node lat="60.91935277969304" lon="5.651144444332846" id="-37194">
		<tag k="name" v="Baneneset" />
		<tag k="natural" v="cape" />
		<tag k="ssr:stedsnr" v="931877" />
	</node>
	<node lat="60.800031046605845" lon="5.251618533337451" id="-37199">
		<tag k="name" v="Nedre Stemma" />
		<tag k="natural" v="water" />
		<tag k="ssr:stedsnr" v="918706" />
	</node>
	<node lat="60.78775610203564" lon="5.375883693344462" id="-37202">
		<tag k="name" v="Båthaugtjørna" />
		<tag k="natural" v="water" />
		<tag k="ssr:stedsnr" v="918733" />
	</node>
	<node lat="60.906411115336276" lon="5.461961106813083" id="-37204">
		<tag k="name" v="Kalhovdavatnet" />
		<tag k="natural" v="water" />
		<tag k="ssr:stedsnr" v="918969" />
		<tag k="water" v="lake" />
	</node>
	<node lat="60.93797460534064" lon="5.60737108274349" id="-37205">
		<tag k="name" v="Øyrevatnet" />
		<tag k="natural" v="water" />
		<tag k="ssr:stedsnr" v="919245" />
	</node>
	<node lat="60.933276600959246" lon="5.783835890293166" id="-37206">
		<tag k="name" v="Klantefjellsvatna" />
		<tag k="natural" v="water" />
		<tag k="ssr:stedsnr" v="919246" />
		<tag k="water" v="lake" />
	</node>
	<node lat="60.82767221909725" lon="5.527186116159558" id="-37210">
		<tag k="name" v="Daleelva" />
		<tag k="ssr:stedsnr" v="919394" />
		<tag k="waterway" v="stream" />
	</node>
	<node lat="60.82606388744838" lon="5.575616664287297" id="-37211">
		<tag k="name" v="Haukelandsvatnet" />
		<tag k="natural" v="water" />
		<tag k="ssr:stedsnr" v="919395" />
		<tag k="water" v="lake" />
	</node>
	<node lat="60.830616665701875" lon="5.557549999166538" id="-37212">
		<tag k="name" v="Fosshølen" />
		<tag k="place" v="locality" />
		<tag k="ssr:stedsnr" v="919398" />
	</node>
	<node lat="60.75378611283105" lon="5.325427774016077" id="-37221">
		<tag k="name" v="Hopselva" />
		<tag k="ssr:stedsnr" v="931194" />
		<tag k="waterway" v="river" />
	</node>
	<node lat="60.79205587075635" lon="5.452599672084028" id="-37223">
		<tag k="name" v="Grasvika" />
		<tag k="natural" v="bay" />
		<tag k="ssr:stedsnr" v="931312" />
	</node>
	<node lat="60.838138885979966" lon="5.508627775734677" id="-37239">
		<tag k="name" v="Vadgardhølen" />
		<tag k="place" v="locality" />
		<tag k="ssr:stedsnr" v="931586" />
	</node>
	<node lat="60.925550008741325" lon="5.292083464189649" id="-37244">
		<tag k="name" v="Storetjørna" />
		<tag k="natural" v="water" />
		<tag k="ssr:stedsnr" v="931621" />
	</node>
	<node lat="60.83379166924969" lon="5.167927772253416" id="-37251">
		<tag k="name" v="Skottjørna" />
		<tag k="natural" v="water" />
		<tag k="ssr:stedsnr" v="931739" />
	</node>
	<node lat="60.977349536858775" lon="5.7824301372805245" id="-37257">
		<tag k="name" v="Svafjellvatna" />
		<tag k="natural" v="water" />
		<tag k="ssr:stedsnr" v="8332" />
		<tag k="water" v="lake" />
	</node>
	<node lat="60.85975833493938" lon="5.2439749974057" id="-37259">
		<tag k="name" v="Sagevatnet" />
		<tag k="natural" v="water" />
		<tag k="ssr:stedsnr" v="8536" />
	</node>
	<node lat="60.91042442022201" lon="5.562233549533064" id="-37260">
		<tag k="name" v="Eidavatnet" />
		<tag k="natural" v="water" />
		<tag k="ssr:stedsnr" v="8379" />
	</node>
	<node lat="60.85154139678831" lon="5.608124281167981" id="-37262">
		<tag k="name" v="Langevatnet" />
		<tag k="natural" v="water" />
		<tag k="ssr:stedsnr" v="8447" />
	</node>
	<node lat="60.843386115512644" lon="5.311266665236459" id="-37267">
		<tag k="name" v="Juvika" />
		<tag k="natural" v="bay" />
		<tag k="ssr:stedsnr" v="8588" />
	</node>
	<node lat="60.79820669909586" lon="5.448779277231071" id="-37271">
		<tag k="name" v="Lometjørna" />
		<tag k="natural" v="water" />
		<tag k="ssr:stedsnr" v="8728" />
	</node>
	<node lat="60.78722876500793" lon="5.319237733837003" id="-37281">
		<tag k="name" v="Stemmevatnet" />
		<tag k="natural" v="water" />
		<tag k="ssr:stedsnr" v="8686" />
	</node>
	<node lat="60.7875767446885" lon="5.447619750360808" id="-37282">
		<tag k="name" v="Meisdalsvatnet" />
		<tag k="natural" v="water" />
		<tag k="ssr:stedsnr" v="8744" />
		<tag k="water" v="lake" />
	</node>
	<node lat="60.868350003093695" lon="5.188541658362582" id="-37287">
		<tag k="name" v="Buvatnet" />
		<tag k="natural" v="water" />
		<tag k="ssr:stedsnr" v="8973" />
	</node>
	<node lat="60.87187933143575" lon="5.295540834506614" id="-37288">
		<tag k="name" v="Setretjørna" />
		<tag k="natural" v="water" />
		<tag k="ssr:stedsnr" v="8981" />
	</node>
	<node lat="60.81718333367767" lon="5.496949990954079" id="-37291">
		<tag k="name" v="Heimste Langevatnet" />
		<tag k="natural" v="water" />
		<tag k="ssr:stedsnr" v="9361" />
		<tag k="water" v="lake" />
	</node>
	<node lat="60.84738333161237" lon="5.2366194374937" id="-37296">
		<tag k="name" v="Fitjevatnet" />
		<tag k="natural" v="water" />
		<tag k="ssr:stedsnr" v="9535" />
		<tag k="water" v="lake" />
	</node>
	<node lat="60.91303932236163" lon="5.307042711708926" id="-37298">
		<tag k="name" v="Tjørna" />
		<tag k="natural" v="water" />
		<tag k="ssr:stedsnr" v="9868" />
	</node>
	<node lat="60.83663333118984" lon="5.511299999389537" id="-37299">
		<tag k="name" v="Storholmen" />
		<tag k="place" v="islet" />
		<tag k="ssr:stedsnr" v="20606" />
	</node>
	<node lat="60.88490510180001" lon="5.5633192503082105" id="-37305">
		<tag k="name" v="Kvitskartjørna" />
		<tag k="natural" v="water" />
		<tag k="ssr:stedsnr" v="21562" />
	</node>
	<node lat="60.72612855808704" lon="5.456144310960532" id="-37343">
		<tag k="name" v="Langevatnet" />
		<tag k="natural" v="water" />
		<tag k="ssr:stedsnr" v="67185" />
		<tag k="water" v="lake" />
	</node>
	<node lat="60.90102818347808" lon="5.647733569773938" id="-37358">
		<tag k="name" v="Hummelvatnet" />
		<tag k="natural" v="water" />
		<tag k="ssr:stedsnr" v="69367" />
		<tag k="water" v="lake" />
	</node>
	<node lat="60.83631666874519" lon="5.556058334969673" id="-37360">
		<tag k="name" v="Sagelva" />
		<tag k="ssr:stedsnr" v="69423" />
		<tag k="waterway" v="stream" />
	</node>
	<node lat="60.88210833226692" lon="5.225233324630387" id="-37364">
		<tag k="name" v="Kjeneset" />
		<tag k="natural" v="cape" />
		<tag k="ssr:stedsnr" v="69960" />
	</node>
	<node lat="60.883432220931596" lon="5.333304605485368" id="-37377">
		<tag k="name" v="Hommeltjørna" />
		<tag k="natural" v="water" />
		<tag k="ssr:stedsnr" v="81419" />
	</node>
	<node lat="60.80489166241697" lon="5.370430552393669" id="-37380">
		<tag k="name" v="Fossetjørna" />
		<tag k="natural" v="water" />
		<tag k="ssr:stedsnr" v="81167" />
	</node>
	<node lat="60.80682777420975" lon="5.385783333060617" id="-37382">
		<tag k="name" v="Mjåneset" />
		<tag k="natural" v="cape" />
		<tag k="ssr:stedsnr" v="81175" />
	</node>
	<node lat="60.75116110860308" lon="5.419769452134753" id="-37383">
		<tag k="name" v="Alvika" />
		<tag k="natural" v="bay" />
		<tag k="ssr:stedsnr" v="81334" />
	</node>
	<node lat="60.8909027799297" lon="5.4228138893468865" id="-37402">
		<tag k="name" v="Lona" />
		<tag k="natural" v="water" />
		<tag k="ssr:stedsnr" v="81622" />
		<tag k="water" v="lake" />
	</node>
	<node lat="60.87814999670364" lon="5.223147223258566" id="-37404">
		<tag k="name" v="Frøysetholmen" />
		<tag k="place" v="islet" />
		<tag k="ssr:stedsnr" v="81700" />
	</node>
	<node lat="60.795688506192434" lon="5.359893350775809" id="-37414">
		<tag k="name" v="Søre Svartebotstjørna" />
		<tag k="natural" v="water" />
		<tag k="ssr:stedsnr" v="82450" />
	</node>
	<node lat="60.72473056003138" lon="5.438263888799052" id="-37423">
		<tag k="name" v="Stemmetjørna" />
		<tag k="natural" v="water" />
		<tag k="ssr:stedsnr" v="127172" />
	</node>
	<node lat="60.726487142328416" lon="5.416822299057522" id="-37424">
		<tag k="name" v="Breiskartjørna" />
		<tag k="natural" v="water" />
		<tag k="ssr:stedsnr" v="127174" />
	</node>
	<node lat="60.718088886003144" lon="5.418733329785651" id="-37425">
		<tag k="name" v="Strandaelva" />
		<tag k="ssr:stedsnr" v="127176" />
		<tag k="waterway" v="river" />
	</node>
	<node lat="60.809987879565" lon="5.501346104151548" id="-37429">
		<tag k="name" v="Synste Langevatnet" />
		<tag k="natural" v="water" />
		<tag k="ssr:stedsnr" v="130344" />
		<tag k="water" v="lake" />
	</node>
	<node lat="60.83611671097022" lon="5.387037401800941" id="-37434">
		<tag k="name" v="Paddemyrvatnet" />
		<tag k="natural" v="water" />
		<tag k="ssr:stedsnr" v="129568" />
		<tag k="water" v="lake" />
	</node>
	<node lat="60.905216496027585" lon="5.178203352584654" id="-37436">
		<tag k="name" v="Fossetjørna" />
		<tag k="natural" v="water" />
		<tag k="ssr:stedsnr" v="129656" />
	</node>
	<node lat="60.904548368968236" lon="5.382642115505076" id="-37445">
		<tag k="name" v="Fossdalsvatnet" />
		<tag k="natural" v="water" />
		<tag k="ssr:stedsnr" v="129961" />
		<tag k="water" v="lake" />
	</node>
	<node lat="60.79767759180278" lon="5.575825237135477" id="-37448">
		<tag k="name" v="Djupedalstjørna" />
		<tag k="natural" v="water" />
		<tag k="ssr:stedsnr" v="130441" />
	</node>
	<node lat="60.800927643745204" lon="5.493925093582155" id="-37449">
		<tag k="name" v="Kupevatnet" />
		<tag k="natural" v="water" />
		<tag k="ssr:stedsnr" v="130456" />
		<tag k="water" v="lake" />
	</node>
	<node lat="60.85829241216619" lon="5.162223621008997" id="-37450">
		<tag k="name" v="Helleskleivtjørna" />
		<tag k="natural" v="water" />
		<tag k="ssr:stedsnr" v="130462" />
	</node>
	<node lat="60.83218333553446" lon="5.438727775865126" id="-37453">
		<tag k="name" v="Rørbotselva" />
		<tag k="ssr:stedsnr" v="130578" />
		<tag k="waterway" v="river" />
	</node>
	<node lat="60.814038119068435" lon="5.256241991566089" id="-37454">
		<tag k="name" v="Spikartjørna" />
		<tag k="natural" v="water" />
		<tag k="ssr:stedsnr" v="130589" />
	</node>
	<node lat="60.843925004185515" lon="5.307024993396322" id="-37467">
		<tag k="name" v="Vikeneset" />
		<tag k="natural" v="cape" />
		<tag k="ssr:stedsnr" v="130968" />
	</node>
	<node lat="60.746019440212706" lon="5.412738886446743" id="-37478">
		<tag k="name" v="Juvika" />
		<tag k="natural" v="bay" />
		<tag k="ssr:stedsnr" v="141326" />
	</node>
	<node lat="60.921008336423014" lon="5.523249999217548" id="-37489">
		<tag k="name" v="Stuvelva" />
		<tag k="ssr:stedsnr" v="141701" />
		<tag k="waterway" v="river" />
	</node>
	<node lat="60.91899999846156" lon="5.6597388853542006" id="-37494">
		<tag k="name" v="Mjølkeneset" />
		<tag k="natural" v="cape" />
		<tag k="ssr:stedsnr" v="141819" />
	</node>
	<node lat="60.78401110669661" lon="5.324777777906449" id="-37512">
		<tag k="name" v="Lonene" />
		<tag k="natural" v="water" />
		<tag k="ssr:stedsnr" v="142349" />
		<tag k="water" v="lake" />
	</node>
	<node lat="60.7778733826463" lon="5.3565209854897855" id="-37523">
		<tag k="name" v="Stemmetjørna" />
		<tag k="natural" v="water" />
		<tag k="ssr:stedsnr" v="142446" />
	</node>
	<node lat="60.95141048691417" lon="5.739841277574216" id="-37537">
		<tag k="name" v="Røyrdalsvatnet" />
		<tag k="natural" v="water" />
		<tag k="ssr:stedsnr" v="190272" />
	</node>
	<node lat="60.91279236636069" lon="5.8060411062885064" id="-37540">
		<tag k="name" v="Glufsedalsvotna" />
		<tag k="natural" v="water" />
		<tag k="ssr:stedsnr" v="190378" />
		<tag k="water" v="lake" />
	</node>
	<node lat="60.92058611531973" lon="5.755086117568598" id="-37541">
		<tag k="name" v="Rundevatnet" />
		<tag k="natural" v="water" />
		<tag k="ssr:stedsnr" v="190381" />
	</node>
	<node lat="60.84997140355239" lon="5.589494988648826" id="-37544">
		<tag k="name" v="Søtjørnane" />
		<tag k="natural" v="water" />
		<tag k="ssr:stedsnr" v="190442" />
		<tag k="water" v="lake" />
	</node>
	<node lat="60.82868333562749" lon="5.46128333858952" id="-37546">
		<tag k="name" v="Gavlevatnet" />
		<tag k="natural" v="water" />
		<tag k="ssr:stedsnr" v="190599" />
	</node>
	<node lat="60.76653055420167" lon="5.327777773631196" id="-37552">
		<tag k="name" v="Hopsvatnet" />
		<tag k="natural" v="water" />
		<tag k="ssr:stedsnr" v="190734" />
	</node>
	<node lat="60.93380000253707" lon="5.858902782378186" id="-37553">
		<tag k="alt_name" v="Smalevatnet" />
		<tag k="fixme" v="multiple name tags, choose one and add the other to alt_name" />
		<tag k="name" v="Langavatnet;Smalavatnet" />
		<tag k="natural" v="water" />
		<tag k="ssr:stedsnr" v="190833" />
		<tag k="water" v="lake" />
	</node>
	<node lat="60.90275521153493" lon="5.177467621820528" id="-37554">
		<tag k="name" v="Vardlitjørna" />
		<tag k="natural" v="water" />
		<tag k="ssr:stedsnr" v="190930" />
	</node>
	<node lat="60.78985000348" lon="5.449075002460294" id="-37555">
		<tag k="name" v="Langeneset" />
		<tag k="natural" v="cape" />
		<tag k="ssr:stedsnr" v="190938" />
	</node>
	<node lat="60.904425519800995" lon="5.439415849124587" id="-37558">
		<tag k="name" v="Bårdvatnet" />
		<tag k="natural" v="water" />
		<tag k="ssr:stedsnr" v="190952" />
	</node>
	<node lat="60.80628793179045" lon="5.258112935075492" id="-37570">
		<tag k="name" v="Båthaugtjørna" />
		<tag k="natural" v="water" />
		<tag k="ssr:stedsnr" v="202274" />
	</node>
	<node lat="60.91676944308852" lon="5.652080558577966" id="-37583">
		<tag k="name" v="Tangen" />
		<tag k="natural" v="cape" />
		<tag k="ssr:stedsnr" v="203841" />
	</node>
	<node lat="60.928919264797" lon="5.663044199093898" id="-37585">
		<tag k="name" v="Banetjørna" />
		<tag k="natural" v="water" />
		<tag k="ssr:stedsnr" v="203847" />
	</node>
	<node lat="60.84536111423887" lon="5.226758324958232" id="-37605">
		<tag k="name" v="Lommetjørna" />
		<tag k="natural" v="water" />
		<tag k="ssr:stedsnr" v="203630" />
	</node>
	<node lat="60.83279372262795" lon="5.473917606501386" id="-37618">
		<tag k="name" v="Trolldalsvatnet" />
		<tag k="natural" v="water" />
		<tag k="ssr:stedsnr" v="311457" />
	</node>
	<node lat="60.90679090747129" lon="5.352714608807922" id="-37623">
		<tag k="name" v="Grønefjellsvatnet" />
		<tag k="natural" v="water" />
		<tag k="ssr:stedsnr" v="311945" />
		<tag k="water" v="lake" />
	</node>
	<node lat="60.92677237711335" lon="5.70686599949438" id="-37629">
		<tag k="name" v="Nordrevotna" />
		<tag k="natural" v="water" />
		<tag k="ssr:stedsnr" v="312248" />
		<tag k="water" v="lake" />
	</node>
	<node lat="60.942813884994905" lon="5.603625006648118" id="-37630">
		<tag k="name" v="Nordgjelsvatnet" />
		<tag k="natural" v="water" />
		<tag k="ssr:stedsnr" v="312254" />
	</node>
	<node lat="60.948244447963766" lon="5.687991666310214" id="-37631">
		<tag k="name" v="Kleivhølen" />
		<tag k="place" v="locality" />
		<tag k="ssr:stedsnr" v="312257" />
	</node>
	<node lat="60.89830655343518" lon="5.81396056744557" id="-37634">
		<tag k="name" v="Hjortetjørna" />
		<tag k="natural" v="water" />
		<tag k="ssr:stedsnr" v="312341" />
		<tag k="water" v="lake" />
	</node>
	<node lat="60.7896379723985" lon="5.5610305726259455" id="-37637">
		<tag k="name" v="Fagerskarvatnet" />
		<tag k="natural" v="water" />
		<tag k="ssr:stedsnr" v="312460" />
	</node>
	<node lat="60.860959683930744" lon="5.322823660641001" id="-37638">
		<tag k="name" v="Stemmetjørna" />
		<tag k="natural" v="water" />
		<tag k="ssr:stedsnr" v="312528" />
	</node>
	<node lat="60.85536166763145" lon="5.396479172518557" id="-37640">
		<tag k="name" v="Gaddetjørna" />
		<tag k="natural" v="water" />
		<tag k="ssr:stedsnr" v="312546" />
	</node>
	<node lat="60.86508611003227" lon="5.423194442437838" id="-37641">
		<tag k="name" v="Ljøsåna" />
		<tag k="ssr:stedsnr" v="312548" />
		<tag k="waterway" v="stream" />
	</node>
	<node lat="60.84362500029747" lon="5.449902775429134" id="-37643">
		<tag k="name" v="Glyvrevatnet" />
		<tag k="natural" v="water" />
		<tag k="ssr:stedsnr" v="312577" />
		<tag k="water" v="lake" />
	</node>
	<node lat="60.834755559925895" lon="5.430630560690192" id="-37644">
		<tag k="name" v="Svaelva" />
		<tag k="ssr:stedsnr" v="312579" />
		<tag k="waterway" v="river" />
	</node>
	<node lat="60.92545860526765" lon="5.444222489002022" id="-37650">
		<tag k="name" v="Kupetjørna" />
		<tag k="natural" v="water" />
		<tag k="ssr:stedsnr" v="312882" />
	</node>
	<node lat="60.79559722551123" lon="5.318324992432339" id="-37666">
		<tag k="name" v="Sandneselva" />
		<tag k="ssr:stedsnr" v="324349" />
		<tag k="waterway" v="river" />
	</node>
	<node lat="60.84471667036153" lon="5.246511109386399" id="-37671">
		<tag k="name" v="Gulbergvika" />
		<tag k="natural" v="bay" />
		<tag k="ssr:stedsnr" v="324392" />
	</node>
	<node lat="60.87601295653505" lon="5.316635080630577" id="-37672">
		<tag k="name" v="Geitevatnet" />
		<tag k="natural" v="water" />
		<tag k="ssr:stedsnr" v="324398" />
		<tag k="water" v="lake" />
	</node>
	<node lat="60.88086744126927" lon="5.548483002830394" id="-37685">
		<tag k="name" v="Litlefjelltjørna" />
		<tag k="natural" v="water" />
		<tag k="ssr:stedsnr" v="324529" />
	</node>
	<node lat="60.83268333249468" lon="5.495722225233988" id="-37687">
		<tag k="name" v="Fjellfossen" />
		<tag k="natural" v="waterfall" />
		<tag k="ssr:stedsnr" v="324548" />
	</node>
	<node lat="60.881955558735" lon="5.198963895871607" id="-37693">
		<tag k="name" v="Hesthovdtjørna" />
		<tag k="natural" v="water" />
		<tag k="ssr:stedsnr" v="324683" />
	</node>
	<node lat="60.90056584536828" lon="5.184368611677565" id="-37694">
		<tag k="name" v="Støkjetjørna" />
		<tag k="natural" v="water" />
		<tag k="ssr:stedsnr" v="324644" />
	</node>
	<node lat="60.863368642330244" lon="5.281019799678635" id="-37714">
		<tag k="name" v="Ostavatnet" />
		<tag k="natural" v="water" />
		<tag k="ssr:stedsnr" v="372529" />
		<tag k="water" v="lake" />
	</node>
	<node lat="60.828854714427294" lon="5.301635673363873" id="-37716">
		<tag k="name" v="Litletjørna" />
		<tag k="natural" v="water" />
		<tag k="ssr:stedsnr" v="372599" />
	</node>
	<node lat="60.802233330722785" lon="5.342919441710326" id="-37719">
		<tag k="name" v="Bjørnetjørna" />
		<tag k="natural" v="water" />
		<tag k="ssr:stedsnr" v="372662" />
	</node>
</osm>
