<?xml version="1.0" encoding="UTF-8"?>
<osm generator="osmapis" version="0.6">
	<node id="-592640" lat="63.0066583301" lon="7.30855554771">
		<tag k="name" v="Vevang" />
		<tag k="ssr:date" v="2016-05-11" />
		<tag k="ssr:gruppe" v="navigasjon" />
		<tag k="ssr:hovedgruppe" v="infrastruktur" />
		<tag k="ssr:stedsnr" v="801395" />
		<tag k="ssr:type" v="fyrlykt" />
	</node>
	<node id="-591850" lat="62.964619445" lon="7.37132222215">
		<tag k="name" v="Fransosvegen" />
		<tag k="ssr:date" v="2019-05-31" />
		<tag k="ssr:gruppe" v="veg" />
		<tag k="ssr:hovedgruppe" v="infrastruktur" />
		<tag k="ssr:stedsnr" v="363459" />
		<tag k="ssr:type" v="adressenavn" />
	</node>
	<node id="-592627" lat="62.9653833301" lon="7.35960277202">
		<tag k="name" v="Vik" />
		<tag k="ssr:date" v="2016-05-11" />
		<tag k="ssr:gruppe" v="veg" />
		<tag k="ssr:hovedgruppe" v="infrastruktur" />
		<tag k="ssr:stedsnr" v="787008" />
		<tag k="ssr:type" v="adressetilleggsnavn" />
	</node>
	<node id="-591852" lat="62.9653722237" lon="7.35958333543">
		<tag k="name" v="Vik" />
		<tag k="ssr:date" v="2016-05-10" />
		<tag k="ssr:gruppe" v="veg" />
		<tag k="ssr:hovedgruppe" v="infrastruktur" />
		<tag k="ssr:stedsnr" v="363701" />
		<tag k="ssr:type" v="adressetilleggsnavn" />
	</node>
	<node id="-591851" lat="62.9197593523" lon="7.43610440354">
		<tag k="name" v="Nedre Teigene" />
		<tag k="ssr:date" v="2019-05-31" />
		<tag k="ssr:gruppe" v="veg" />
		<tag k="ssr:hovedgruppe" v="infrastruktur" />
		<tag k="ssr:stedsnr" v="363536" />
		<tag k="ssr:type" v="adressenavn" />
	</node>
	<node id="-592234" lat="62.984586113" lon="7.31169165882">
		<tag k="name" v="Gaustadvegen" />
		<tag k="ssr:date" v="2019-05-31" />
		<tag k="ssr:gruppe" v="veg" />
		<tag k="ssr:hovedgruppe" v="infrastruktur" />
		<tag k="ssr:stedsnr" v="424016" />
		<tag k="ssr:type" v="adressenavn" />
	</node>
	<node id="-592233" lat="62.901963885" lon="7.42963054982">
		<tag k="name" v="Vågsbøen" />
		<tag k="ssr:date" v="2016-05-10" />
		<tag k="ssr:gruppe" v="veg" />
		<tag k="ssr:hovedgruppe" v="infrastruktur" />
		<tag k="ssr:stedsnr" v="424013" />
		<tag k="ssr:type" v="adressetilleggsnavn" />
	</node>
	<node id="-592232" lat="63.0562583311" lon="7.32336945375">
		<tag k="alt_name" v="Myrgrunnene" />
		<tag k="name" v="Myrgrunnan" />
		<tag k="ssr:date" v="2016-05-10" />
		<tag k="ssr:gruppe" v="navigasjon" />
		<tag k="ssr:hovedgruppe" v="infrastruktur" />
		<tag k="ssr:stedsnr" v="414652" />
		<tag k="ssr:type" v="lysbøye" />
	</node>
	<node id="-592103" lat="63.0230251065" lon="7.23517021005">
		<tag k="alt_name" v="Kvitholmen" />
		<tag k="name" v="Kvitholmen fyr" />
		<tag k="ssr:date" v="2018-06-14" />
		<tag k="ssr:gruppe" v="navigasjon" />
		<tag k="ssr:hovedgruppe" v="infrastruktur" />
		<tag k="ssr:stedsnr" v="133541" />
		<tag k="ssr:type" v="fyrstasjon" />
	</node>
	<node id="-592357" lat="62.9041388874" lon="7.35987777278">
		<tag k="name" v="Langneset" />
		<tag k="ssr:date" v="2016-05-10" />
		<tag k="ssr:gruppe" v="veg" />
		<tag k="ssr:hovedgruppe" v="infrastruktur" />
		<tag k="ssr:stedsnr" v="527247" />
		<tag k="ssr:type" v="adressetilleggsnavn" />
	</node>
	<node id="-592712" lat="62.9027722256" lon="7.36485556106">
		<tag k="name" v="Langneset" />
		<tag k="ssr:date" v="2016-05-11" />
		<tag k="ssr:gruppe" v="veg" />
		<tag k="ssr:hovedgruppe" v="infrastruktur" />
		<tag k="ssr:stedsnr" v="909006" />
		<tag k="ssr:type" v="adressetilleggsnavn" />
	</node>
	<node id="-592310" lat="63.0141527824" lon="7.29737500952">
		<tag k="name" v="Kråka" />
		<tag k="ssr:date" v="2016-05-10" />
		<tag k="ssr:gruppe" v="navigasjon" />
		<tag k="ssr:hovedgruppe" v="infrastruktur" />
		<tag k="ssr:stedsnr" v="498631" />
		<tag k="ssr:type" v="fyrlykt" />
	</node>
	<node id="-591922" lat="63.0080854215" lon="7.27264411762">
		<tag k="name" v="Langøya" />
		<tag k="ssr:date" v="2019-05-31" />
		<tag k="ssr:gruppe" v="veg" />
		<tag k="ssr:hovedgruppe" v="infrastruktur" />
		<tag k="ssr:stedsnr" v="1059648" />
		<tag k="ssr:type" v="adressenavn" />
	</node>
	<node id="-591921" lat="63.006978669" lon="7.25416205943">
		<tag k="name" v="Orøya" />
		<tag k="ssr:date" v="2019-05-31" />
		<tag k="ssr:gruppe" v="veg" />
		<tag k="ssr:hovedgruppe" v="infrastruktur" />
		<tag k="ssr:stedsnr" v="1059646" />
		<tag k="ssr:type" v="adressenavn" />
	</node>
	<node id="-591920" lat="63.0222491099" lon="7.23630239517">
		<tag k="name" v="Kvitholmen" />
		<tag k="ssr:date" v="2019-05-31" />
		<tag k="ssr:gruppe" v="veg" />
		<tag k="ssr:hovedgruppe" v="infrastruktur" />
		<tag k="ssr:stedsnr" v="1059644" />
		<tag k="ssr:type" v="adressenavn" />
	</node>
	<node id="-591783" lat="62.9041388874" lon="7.35987777278">
		<tag k="name" v="Langneset" />
		<tag k="ssr:date" v="2016-05-10" />
		<tag k="ssr:gruppe" v="veg" />
		<tag k="ssr:hovedgruppe" v="infrastruktur" />
		<tag k="ssr:stedsnr" v="284259" />
		<tag k="ssr:type" v="adressetilleggsnavn" />
	</node>
	<node id="-592037" lat="63.008875004" lon="7.3065361172">
		<tag k="name" v="Atlanterhavsvegen" />
		<tag k="ssr:date" v="2016-05-10" />
		<tag k="ssr:gruppe" v="veg" />
		<tag k="ssr:hovedgruppe" v="infrastruktur" />
		<tag k="ssr:stedsnr" v="88662" />
		<tag k="ssr:type" v="vegstrekning" />
	</node>
	<node id="-592292" lat="62.9979999996" lon="7.28260000147">
		<tag k="name" v="Stølen" />
		<tag k="ssr:date" v="2016-05-10" />
		<tag k="ssr:gruppe" v="veg" />
		<tag k="ssr:hovedgruppe" v="infrastruktur" />
		<tag k="ssr:stedsnr" v="484726" />
		<tag k="ssr:type" v="adressetilleggsnavn" />
	</node>
	<node id="-592547" lat="63.0378305516" lon="7.31675834282">
		<tag k="name" v="Dromskjæra" />
		<tag k="ssr:date" v="2016-05-11" />
		<tag k="ssr:gruppe" v="navigasjon" />
		<tag k="ssr:hovedgruppe" v="infrastruktur" />
		<tag k="ssr:stedsnr" v="708758" />
		<tag k="ssr:type" v="fyrlykt" />
	</node>
	<node id="-592176" lat="63.0163194455" lon="7.35346111234">
		<tag k="name" v="Flatskjæret" />
		<tag k="ssr:date" v="2016-05-10" />
		<tag k="ssr:gruppe" v="navigasjon" />
		<tag k="ssr:hovedgruppe" v="infrastruktur" />
		<tag k="ssr:stedsnr" v="195604" />
		<tag k="ssr:type" v="fyrlykt" />
	</node>
	<node id="-592774" lat="60.8816104596" lon="6.30047518531">
		<tag k="name" v="Vestlandet" />
		<tag k="ssr:date" v="2019-01-06" />
		<tag k="ssr:gruppe" v="administrativeIndelinger" />
		<tag k="ssr:hovedgruppe" v="offentligAdministrasjon" />
		<tag k="ssr:stedsnr" v="974777" />
		<tag k="ssr:type" v="annenAdministrativInndeling" />
	</node>
	<node id="-591875" lat="62.915694445" lon="7.44496111447">
		<tag k="name" v="Eide kommune" />
		<tag k="ssr:date" v="2016-05-10" />
		<tag k="ssr:gruppe" v="administrativeIndelinger" />
		<tag k="ssr:hovedgruppe" v="offentligAdministrasjon" />
		<tag k="ssr:stedsnr" v="389675" />
		<tag k="ssr:type" v="kommune" />
	</node>
</osm>
