<?xml version="1.0" encoding="UTF-8"?>
<<<<<<< HEAD
<osm version="0.6" generator="osmapis">
	<node lat="62.25083610762948" lon="5.492488884617012" id="-689">
		<tag k="name" v="Sandshamn" />
=======
<osm generator="osmapis" version="0.6">
	<node id="-60667" lat="62.2335138891" lon="5.57418611278">
		<tag k="name" v="Haugsbygda molo" />
		<tag k="ssr:date" v="2016-05-11" />
		<tag k="ssr:gruppe" v="navigasjon" />
		<tag k="ssr:hovedgruppe" v="infrastruktur" />
		<tag k="ssr:stedsnr" v="723098" />
		<tag k="ssr:type" v="lanterne" />
	</node>
	<node id="-60407" lat="62.1837000024" lon="5.60524721951">
		<tag k="name" v="Saudeholmen" />
		<tag k="old_name" v="Saueholmen" />
		<tag k="ssr:date" v="2016-05-10" />
		<tag k="ssr:gruppe" v="navigasjon" />
		<tag k="ssr:hovedgruppe" v="infrastruktur" />
		<tag k="ssr:stedsnr" v="253542" />
		<tag k="ssr:type" v="fyrlykt" />
	</node>
	<node id="-60405" lat="62.1776946644" lon="5.36986978517">
		<tag k="alt_name" v="Haugsholmen Fyr;Haugsholmen" />
		<tag k="name" v="Haugsholmen fyr" />
		<tag k="ssr:date" v="2019-02-12" />
		<tag k="ssr:gruppe" v="navigasjon" />
		<tag k="ssr:hovedgruppe" v="infrastruktur" />
		<tag k="ssr:stedsnr" v="253535" />
		<tag k="ssr:type" v="fyrstasjon" />
	</node>
	<node id="-61292" lat="62.2006944407" lon="5.36288610344">
		<tag k="name" v="Agnskjæret" />
		<tag k="ssr:date" v="2016-05-11" />
		<tag k="ssr:gruppe" v="navigasjon" />
		<tag k="ssr:hovedgruppe" v="infrastruktur" />
		<tag k="ssr:stedsnr" v="813011" />
		<tag k="ssr:type" v="fyrlykt" />
	</node>
	<node id="-60902" lat="62.2040388865" lon="5.56935000082">
		<tag k="name" v="Kipholmen" />
		<tag k="ssr:date" v="2016-05-10" />
		<tag k="ssr:gruppe" v="navigasjon" />
		<tag k="ssr:hovedgruppe" v="infrastruktur" />
		<tag k="ssr:stedsnr" v="101995" />
		<tag k="ssr:type" v="lanterne" />
	</node>
	<node id="-60376" lat="62.2647249955" lon="5.32683332455">
		<tag k="name" v="Skjeggene lysbøye" />
		<tag k="ssr:date" v="2016-05-10" />
		<tag k="ssr:gruppe" v="navigasjon" />
		<tag k="ssr:hovedgruppe" v="infrastruktur" />
		<tag k="ssr:stedsnr" v="223053" />
		<tag k="ssr:type" v="lysbøye" />
	</node>
	<node id="-61132" lat="62.178922224" lon="5.40044166797">
		<tag k="name" v="Terneskjerflu" />
		<tag k="ssr:date" v="2016-05-10" />
		<tag k="ssr:gruppe" v="navigasjon" />
		<tag k="ssr:hovedgruppe" v="infrastruktur" />
		<tag k="ssr:stedsnr" v="556549" />
		<tag k="ssr:type" v="fyrlykt" />
	</node>
	<node id="-60491" lat="62.2309916688" lon="5.61783889736">
		<tag k="name" v="Ytre Gursken, nedre" />
		<tag k="ssr:date" v="2016-05-10" />
		<tag k="ssr:gruppe" v="navigasjon" />
		<tag k="ssr:hovedgruppe" v="infrastruktur" />
		<tag k="ssr:stedsnr" v="283995" />
		<tag k="ssr:type" v="lanterne" />
	</node>
	<node id="-61130" lat="62.2854944443" lon="5.54708611035">
		<tag k="name" v="Hidsneset" />
>>>>>>> e1d4bc35ff8a6074a6f2e91616a996b547c36f15
		<tag k="ssr:date" v="2016-05-10" />
		<tag k="ssr:gruppe" v="navigasjon" />
		<tag k="ssr:hovedgruppe" v="infrastruktur" />
		<tag k="ssr:stedsnr" v="24423" />
		<tag k="ssr:type" v="fyrlykt" />
	</node>
<<<<<<< HEAD
	<node lat="62.27893611086918" lon="5.550522220247589" id="-690">
		<tag k="name" v="Tarestålet" />
=======
	<node id="-61126" lat="62.2562249988" lon="5.58602221383">
		<tag k="alt_name" v="Gjerdesvika, øvre" />
		<tag k="name" v="Gjerdsvika, øvre2" />
>>>>>>> e1d4bc35ff8a6074a6f2e91616a996b547c36f15
		<tag k="ssr:date" v="2016-05-10" />
		<tag k="ssr:gruppe" v="farvann" />
		<tag k="ssr:hovedgruppe" v="sjø" />
		<tag k="ssr:stedsnr" v="36035" />
		<tag k="ssr:type" v="fiskeplassISjø" />
	</node>
<<<<<<< HEAD
	<node lat="62.177694664387474" lon="5.369869785171909" id="-748">
		<tag k="alt_name" v="Haugsholmen Fyr;Haugsholmen" />
		<tag k="name" v="Haugsholmen fyr" />
		<tag k="ssr:date" v="2019-02-12" />
		<tag k="ssr:gruppe" v="navigasjon" />
		<tag k="ssr:hovedgruppe" v="infrastruktur" />
		<tag k="ssr:stedsnr" v="253535" />
		<tag k="ssr:type" v="fyrstasjon" />
	</node>
	<node lat="62.183503667709886" lon="5.605194160732828" id="-750">
		<tag k="name" v="Saudeholmen" />
		<tag k="old_name" v="Saueholmen" />
		<tag k="ssr:date" v="2020-09-08" />
		<tag k="ssr:gruppe" v="navigasjon" />
=======
	<node id="-61125" lat="62.2202194473" lon="5.64896110592">
		<tag k="name" v="Indre Gursken, øvre" />
		<tag k="ssr:date" v="2016-05-10" />
		<tag k="ssr:gruppe" v="navigasjon" />
		<tag k="ssr:hovedgruppe" v="infrastruktur" />
		<tag k="ssr:stedsnr" v="524941" />
		<tag k="ssr:type" v="lanterne" />
	</node>
	<node id="-61380" lat="69.6388889725" lon="30.5666644427">
		<tag k="fixme" v="multiple name tags, choose one and add the other to alt_name" />
		<tag k="loc_name:se" v="Norgga gonagasriika" />
		<tag k="loc_name:sma" v="Nöörjen gånkarïjhke" />
		<tag k="loc_name:smj" v="Vuona gånågisrijkka" />
		<tag k="name" v="Noreg;Norge" />
		<tag k="name:en" v="Norway" />
		<tag k="name:no" v="Noreg;Norge" />
		<tag k="ssr:date" v="2020-06-04" />
		<tag k="ssr:gruppe" v="administrativeIndelinger" />
		<tag k="ssr:hovedgruppe" v="offentligAdministrasjon" />
		<tag k="ssr:stedsnr" v="26330" />
		<tag k="ssr:type" v="nasjon" />
	</node>
	<node id="-61374" lat="62.172384832" lon="5.39813394975">
		<tag k="name" v="Haugsholmen" />
		<tag k="ssr:date" v="2019-12-02" />
		<tag k="ssr:gruppe" v="veg" />
		<tag k="ssr:hovedgruppe" v="infrastruktur" />
		<tag k="ssr:stedsnr" v="1073621" />
		<tag k="ssr:type" v="adressenavn" />
	</node>
	<node id="-61373" lat="62.2062433456" lon="5.57450626988">
		<tag k="name" v="Sjukeheimsvegen" />
		<tag k="ssr:date" v="2019-11-25" />
		<tag k="ssr:gruppe" v="veg" />
		<tag k="ssr:hovedgruppe" v="infrastruktur" />
		<tag k="ssr:stedsnr" v="1073508" />
		<tag k="ssr:type" v="adressenavn" />
	</node>
	<node id="-61372" lat="62.2589470609" lon="5.58457523594">
		<tag k="name" v="Hauen" />
		<tag k="ssr:date" v="2019-05-31" />
		<tag k="ssr:gruppe" v="veg" />
>>>>>>> e1d4bc35ff8a6074a6f2e91616a996b547c36f15
		<tag k="ssr:hovedgruppe" v="infrastruktur" />
		<tag k="ssr:stedsnr" v="253542" />
		<tag k="ssr:type" v="fyrlykt" />
	</node>
<<<<<<< HEAD
	<node lat="62.73392710705581" lon="7.14918030614603" id="-756">
		<tag k="alt_name" v="Møre og Romsdal" />
		<tag k="name" v="Møre og Romsdal fylke" />
		<tag k="ssr:date" v="2021-09-21" />
		<tag k="ssr:gruppe" v="administrativeIndelinger" />
		<tag k="ssr:hovedgruppe" v="offentligAdministrasjon" />
		<tag k="ssr:stedsnr" v="145583" />
		<tag k="ssr:type" v="fylke" />
	</node>
	<node lat="62.28553709899706" lon="5.547259869185103" id="-931">
		<tag k="name" v="Hidsneset" />
		<tag k="ssr:date" v="2020-09-08" />
		<tag k="ssr:gruppe" v="navigasjon" />
=======
	<node id="-61371" lat="62.2656550472" lon="5.55863367696">
		<tag k="name" v="Brungot" />
		<tag k="ssr:date" v="2019-05-31" />
		<tag k="ssr:gruppe" v="veg" />
		<tag k="ssr:hovedgruppe" v="infrastruktur" />
		<tag k="ssr:stedsnr" v="1064467" />
		<tag k="ssr:type" v="adressenavn" />
	</node>
	<node id="-61370" lat="62.2061573787" lon="5.57075662749">
		<tag k="name" v="Larsnesbryggja" />
		<tag k="ssr:date" v="2019-05-31" />
		<tag k="ssr:gruppe" v="veg" />
>>>>>>> e1d4bc35ff8a6074a6f2e91616a996b547c36f15
		<tag k="ssr:hovedgruppe" v="infrastruktur" />
		<tag k="ssr:stedsnr" v="556579" />
		<tag k="ssr:type" v="fyrlykt" />
	</node>
<<<<<<< HEAD
	<node lat="62.25684166250954" lon="5.582616670221929" id="-1085">
		<tag k="alt_name" v="Gjerdesvika, nedre" />
		<tag k="name" v="Gjerdsvika, nedre" />
		<tag k="ssr:date" v="2016-05-11" />
		<tag k="ssr:gruppe" v="navigasjon" />
=======
	<node id="-61369" lat="62.2154674372" lon="5.5703637708">
		<tag k="name" v="Legebakken" />
		<tag k="ssr:date" v="2019-05-31" />
		<tag k="ssr:gruppe" v="veg" />
>>>>>>> e1d4bc35ff8a6074a6f2e91616a996b547c36f15
		<tag k="ssr:hovedgruppe" v="infrastruktur" />
		<tag k="ssr:stedsnr" v="828947" />
		<tag k="ssr:type" v="lanterne" />
	</node>
<<<<<<< HEAD
	<node lat="62.204213892237036" lon="5.564752781868777" id="-1086">
		<tag k="name" v="Katteskjær" />
		<tag k="ssr:date" v="2016-05-11" />
		<tag k="ssr:gruppe" v="navigasjon" />
=======
	<node id="-61368" lat="62.2036218648" lon="5.57661179767">
		<tag k="name" v="Nygarden" />
		<tag k="ssr:date" v="2019-05-31" />
		<tag k="ssr:gruppe" v="veg" />
>>>>>>> e1d4bc35ff8a6074a6f2e91616a996b547c36f15
		<tag k="ssr:hovedgruppe" v="infrastruktur" />
		<tag k="ssr:stedsnr" v="830806" />
		<tag k="ssr:type" v="lanterne" />
	</node>
<<<<<<< HEAD
	<node lat="62.26527771952599" lon="5.559685249297181" id="-1152">
		<tag k="name" v="Brungot" />
		<tag k="ssr:date" v="2018-10-05" />
=======
	<node id="-61367" lat="62.2400370496" lon="5.56201551729">
		<tag k="name" v="Saure" />
		<tag k="ssr:date" v="2018-11-06" />
>>>>>>> e1d4bc35ff8a6074a6f2e91616a996b547c36f15
		<tag k="ssr:gruppe" v="veg" />
		<tag k="ssr:hovedgruppe" v="infrastruktur" />
		<tag k="ssr:stedsnr" v="987370" />
		<tag k="ssr:type" v="adressetilleggsnavn" />
	</node>
<<<<<<< HEAD
	<node lat="62.21895608743803" lon="5.650089447527803" id="-1153">
=======
	<node id="-61366" lat="62.2189560874" lon="5.65008944753">
>>>>>>> e1d4bc35ff8a6074a6f2e91616a996b547c36f15
		<tag k="name" v="Vågen" />
		<tag k="ssr:date" v="2021-06-08" />
		<tag k="ssr:gruppe" v="veg" />
		<tag k="ssr:hovedgruppe" v="infrastruktur" />
		<tag k="ssr:stedsnr" v="988102" />
		<tag k="ssr:type" v="adressetilleggsnavn" />
	</node>
<<<<<<< HEAD
	<node lat="62.24003704962375" lon="5.5620155172929335" id="-1154">
		<tag k="name" v="Saure" />
		<tag k="ssr:date" v="2021-06-08" />
=======
	<node id="-61365" lat="62.2081099892" lon="5.41725072003">
		<tag k="name" v="Vonheim" />
		<tag k="ssr:date" v="2018-11-06" />
		<tag k="ssr:gruppe" v="veg" />
		<tag k="ssr:hovedgruppe" v="infrastruktur" />
		<tag k="ssr:stedsnr" v="988101" />
		<tag k="ssr:type" v="adressetilleggsnavn" />
	</node>
	<node id="-61364" lat="62.2455959036" lon="5.4682421427">
		<tag k="name" v="Bringsvor" />
		<tag k="ssr:date" v="2018-11-06" />
		<tag k="ssr:gruppe" v="veg" />
		<tag k="ssr:hovedgruppe" v="infrastruktur" />
		<tag k="ssr:stedsnr" v="988100" />
		<tag k="ssr:type" v="adressetilleggsnavn" />
	</node>
	<node id="-61363" lat="62.2630472936" lon="5.44777021467">
		<tag k="name" v="Våge" />
		<tag k="ssr:date" v="2018-11-06" />
		<tag k="ssr:gruppe" v="veg" />
		<tag k="ssr:hovedgruppe" v="infrastruktur" />
		<tag k="ssr:stedsnr" v="988095" />
		<tag k="ssr:type" v="adressetilleggsnavn" />
	</node>
	<node id="-61362" lat="62.2632180303" lon="5.44724926083">
		<tag k="name" v="Våge" />
		<tag k="ssr:date" v="2018-11-06" />
>>>>>>> e1d4bc35ff8a6074a6f2e91616a996b547c36f15
		<tag k="ssr:gruppe" v="veg" />
		<tag k="ssr:hovedgruppe" v="infrastruktur" />
		<tag k="ssr:stedsnr" v="988103" />
		<tag k="ssr:type" v="adressetilleggsnavn" />
	</node>
<<<<<<< HEAD
	<node lat="62.20403888645593" lon="5.569350000816088" id="-1232">
		<tag k="name" v="Kipholmen" />
		<tag k="ssr:date" v="2016-05-10" />
		<tag k="ssr:gruppe" v="navigasjon" />
=======
	<node id="-61361" lat="62.2188704946" lon="5.6346120299">
		<tag k="name" v="Langberg" />
		<tag k="ssr:date" v="2018-11-06" />
		<tag k="ssr:gruppe" v="veg" />
>>>>>>> e1d4bc35ff8a6074a6f2e91616a996b547c36f15
		<tag k="ssr:hovedgruppe" v="infrastruktur" />
		<tag k="ssr:stedsnr" v="101995" />
		<tag k="ssr:type" v="lanterne" />
	</node>
<<<<<<< HEAD
	<node lat="62.26673442262485" lon="5.473489320447608" id="-1249">
		<tag k="alt_name" v="Langedrogneset" />
		<tag k="name" v="Langedrognes" />
		<tag k="ssr:date" v="2020-09-08" />
		<tag k="ssr:gruppe" v="navigasjon" />
=======
	<node id="-61360" lat="62.2250340849" lon="5.5341650317">
		<tag k="name" v="Nupen" />
		<tag k="ssr:date" v="2018-11-06" />
		<tag k="ssr:gruppe" v="veg" />
>>>>>>> e1d4bc35ff8a6074a6f2e91616a996b547c36f15
		<tag k="ssr:hovedgruppe" v="infrastruktur" />
		<tag k="ssr:stedsnr" v="132511" />
		<tag k="ssr:type" v="fyrlykt" />
	</node>
<<<<<<< HEAD
	<node lat="62.220555559145204" lon="5.6472861023725835" id="-1269">
		<tag k="name" v="Indre Gursken, nedre" />
		<tag k="ssr:date" v="2016-05-10" />
		<tag k="ssr:gruppe" v="navigasjon" />
=======
	<node id="-61358" lat="62.2652777195" lon="5.5596852493">
		<tag k="name" v="Brungot" />
		<tag k="ssr:date" v="2018-10-05" />
		<tag k="ssr:gruppe" v="veg" />
>>>>>>> e1d4bc35ff8a6074a6f2e91616a996b547c36f15
		<tag k="ssr:hovedgruppe" v="infrastruktur" />
		<tag k="ssr:stedsnr" v="160943" />
		<tag k="ssr:type" v="lanterne" />
	</node>
<<<<<<< HEAD
	<node lat="62.26131836797905" lon="5.563231523312952" id="-1311">
=======
	<node id="-60971" lat="62.2613361141" lon="5.56323333578">
>>>>>>> e1d4bc35ff8a6074a6f2e91616a996b547c36f15
		<tag k="alt_name" v="Gjerdesvika molo" />
		<tag k="name" v="Gjerdsvika molo" />
		<tag k="old_name" v="Gjerdesvika" />
		<tag k="ssr:date" v="2020-09-08" />
		<tag k="ssr:gruppe" v="navigasjon" />
		<tag k="ssr:hovedgruppe" v="infrastruktur" />
		<tag k="ssr:stedsnr" v="208497" />
		<tag k="ssr:type" v="fyrlykt" />
	</node>
<<<<<<< HEAD
	<node lat="62.26472499552487" lon="5.326833324549733" id="-1333">
		<tag k="name" v="Skjeggene lysbøye" />
		<tag k="ssr:date" v="2016-05-10" />
		<tag k="ssr:gruppe" v="navigasjon" />
		<tag k="ssr:hovedgruppe" v="infrastruktur" />
		<tag k="ssr:stedsnr" v="223053" />
		<tag k="ssr:type" v="lysbøye" />
	</node>
	<node lat="62.23099166876864" lon="5.617838897362471" id="-1363">
		<tag k="name" v="Ytre Gursken, nedre" />
=======
	<node id="-60825" lat="62.2508361076" lon="5.49248888462">
		<tag k="name" v="Sandshamn" />
		<tag k="ssr:date" v="2016-05-10" />
		<tag k="ssr:gruppe" v="navigasjon" />
		<tag k="ssr:hovedgruppe" v="infrastruktur" />
		<tag k="ssr:stedsnr" v="24423" />
		<tag k="ssr:type" v="fyrlykt" />
	</node>
	<node id="-61335" lat="62.2042138922" lon="5.56475278187">
		<tag k="name" v="Katteskjær" />
		<tag k="ssr:date" v="2016-05-11" />
		<tag k="ssr:gruppe" v="navigasjon" />
		<tag k="ssr:hovedgruppe" v="infrastruktur" />
		<tag k="ssr:stedsnr" v="830806" />
		<tag k="ssr:type" v="lanterne" />
	</node>
	<node id="-61334" lat="62.2568416625" lon="5.58261667022">
		<tag k="alt_name" v="Gjerdesvika, nedre" />
		<tag k="name" v="Gjerdsvika, nedre" />
		<tag k="ssr:date" v="2016-05-11" />
		<tag k="ssr:gruppe" v="navigasjon" />
		<tag k="ssr:hovedgruppe" v="infrastruktur" />
		<tag k="ssr:stedsnr" v="828947" />
		<tag k="ssr:type" v="lanterne" />
	</node>
	<node id="-60435" lat="62.2667499969" lon="5.47342222941">
		<tag k="alt_name" v="Langedrogneset" />
		<tag k="name" v="Langedrognes" />
>>>>>>> e1d4bc35ff8a6074a6f2e91616a996b547c36f15
		<tag k="ssr:date" v="2016-05-10" />
		<tag k="ssr:gruppe" v="navigasjon" />
		<tag k="ssr:hovedgruppe" v="infrastruktur" />
		<tag k="ssr:stedsnr" v="283995" />
		<tag k="ssr:type" v="lanterne" />
	</node>
<<<<<<< HEAD
	<node lat="62.20773889278251" lon="5.567933341702107" id="-1459">
		<tag k="alt_name" v="Sande" />
		<tag k="name" v="Sande kommune" />
		<tag k="ssr:date" v="2016-05-10" />
		<tag k="ssr:gruppe" v="administrativeIndelinger" />
		<tag k="ssr:hovedgruppe" v="offentligAdministrasjon" />
		<tag k="ssr:stedsnr" v="510495" />
		<tag k="ssr:type" v="kommune" />
	</node>
	<node lat="62.22021944730142" lon="5.648961105924609" id="-1490">
		<tag k="name" v="Indre Gursken, øvre" />
=======
	<node id="-60939" lat="62.2205555591" lon="5.64728610237">
		<tag k="name" v="Indre Gursken, nedre" />
>>>>>>> e1d4bc35ff8a6074a6f2e91616a996b547c36f15
		<tag k="ssr:date" v="2016-05-10" />
		<tag k="ssr:gruppe" v="navigasjon" />
		<tag k="ssr:hovedgruppe" v="infrastruktur" />
		<tag k="ssr:stedsnr" v="524941" />
		<tag k="ssr:type" v="lanterne" />
	</node>
<<<<<<< HEAD
	<node lat="62.25622499879861" lon="5.586022213828963" id="-1491">
		<tag k="alt_name" v="Gjerdesvika, øvre" />
		<tag k="name" v="Gjerdsvika, øvre2" />
		<tag k="ssr:date" v="2016-05-10" />
		<tag k="ssr:gruppe" v="navigasjon" />
		<tag k="ssr:hovedgruppe" v="infrastruktur" />
		<tag k="ssr:stedsnr" v="524951" />
		<tag k="ssr:type" v="lanterne" />
	</node>
	<node lat="62.178922223965714" lon="5.400441667971321" id="-1502">
		<tag k="name" v="Terneskjerflu" />
		<tag k="ssr:date" v="2016-05-10" />
		<tag k="ssr:gruppe" v="navigasjon" />
		<tag k="ssr:hovedgruppe" v="infrastruktur" />
		<tag k="ssr:stedsnr" v="556549" />
		<tag k="ssr:type" v="fyrlykt" />
	</node>
	<node lat="62.23351388908723" lon="5.574186112776895" id="-1569">
		<tag k="name" v="Haugsbygda molo" />
		<tag k="ssr:date" v="2016-05-11" />
		<tag k="ssr:gruppe" v="navigasjon" />
		<tag k="ssr:hovedgruppe" v="infrastruktur" />
		<tag k="ssr:stedsnr" v="723098" />
		<tag k="ssr:type" v="lanterne" />
	</node>
	<node lat="62.20069444069281" lon="5.362886103440772" id="-1628">
		<tag k="name" v="Agnskjæret" />
		<tag k="ssr:date" v="2016-05-11" />
		<tag k="ssr:gruppe" v="navigasjon" />
		<tag k="ssr:hovedgruppe" v="infrastruktur" />
		<tag k="ssr:stedsnr" v="813011" />
		<tag k="ssr:type" v="fyrlykt" />
	</node>
	<node lat="62.22503408494354" lon="5.53416503170248" id="-1700">
		<tag k="name" v="Nupen" />
		<tag k="ssr:date" v="2021-06-08" />
		<tag k="ssr:gruppe" v="veg" />
		<tag k="ssr:hovedgruppe" v="infrastruktur" />
		<tag k="ssr:stedsnr" v="988092" />
		<tag k="ssr:type" v="adressetilleggsnavn" />
	</node>
	<node lat="62.21887049455453" lon="5.634612029898311" id="-1701">
		<tag k="name" v="Langberg" />
		<tag k="ssr:date" v="2021-06-08" />
		<tag k="ssr:gruppe" v="veg" />
		<tag k="ssr:hovedgruppe" v="infrastruktur" />
		<tag k="ssr:stedsnr" v="988093" />
		<tag k="ssr:type" v="adressetilleggsnavn" />
	</node>
	<node lat="62.26321803029317" lon="5.447249260826388" id="-1702">
		<tag k="name" v="Våge" />
		<tag k="ssr:date" v="2021-06-08" />
		<tag k="ssr:gruppe" v="veg" />
		<tag k="ssr:hovedgruppe" v="infrastruktur" />
		<tag k="ssr:stedsnr" v="988094" />
		<tag k="ssr:type" v="adressetilleggsnavn" />
	</node>
	<node lat="62.263047293602405" lon="5.447770214672719" id="-1703">
		<tag k="name" v="Våge" />
		<tag k="ssr:date" v="2021-06-08" />
		<tag k="ssr:gruppe" v="veg" />
		<tag k="ssr:hovedgruppe" v="infrastruktur" />
		<tag k="ssr:stedsnr" v="988095" />
		<tag k="ssr:type" v="adressetilleggsnavn" />
	</node>
	<node lat="62.24559590364568" lon="5.468242142696136" id="-1704">
		<tag k="name" v="Bringsvor" />
		<tag k="ssr:date" v="2021-06-08" />
		<tag k="ssr:gruppe" v="veg" />
		<tag k="ssr:hovedgruppe" v="infrastruktur" />
		<tag k="ssr:stedsnr" v="988100" />
		<tag k="ssr:type" v="adressetilleggsnavn" />
	</node>
	<node lat="62.20810998921385" lon="5.4172507200292666" id="-1705">
		<tag k="name" v="Vonheim" />
		<tag k="ssr:date" v="2021-06-08" />
		<tag k="ssr:gruppe" v="veg" />
		<tag k="ssr:hovedgruppe" v="infrastruktur" />
		<tag k="ssr:stedsnr" v="988101" />
		<tag k="ssr:type" v="adressetilleggsnavn" />
	</node>
	<node lat="62.2061573787162" lon="5.570756627485658" id="-1706">
		<tag k="name" v="Larsnesbryggja" />
		<tag k="ssr:date" v="2019-05-31" />
		<tag k="ssr:gruppe" v="veg" />
		<tag k="ssr:hovedgruppe" v="infrastruktur" />
		<tag k="ssr:stedsnr" v="1064438" />
		<tag k="ssr:type" v="adressenavn" />
	</node>
	<node lat="62.26565504716536" lon="5.558633676960347" id="-1707">
		<tag k="name" v="Brungot" />
		<tag k="ssr:date" v="2019-05-31" />
		<tag k="ssr:gruppe" v="veg" />
		<tag k="ssr:hovedgruppe" v="infrastruktur" />
		<tag k="ssr:stedsnr" v="1064467" />
		<tag k="ssr:type" v="adressenavn" />
	</node>
	<node lat="62.25894706086717" lon="5.584575235938841" id="-1708">
		<tag k="name" v="Hauen" />
		<tag k="ssr:date" v="2019-05-31" />
		<tag k="ssr:gruppe" v="veg" />
		<tag k="ssr:hovedgruppe" v="infrastruktur" />
		<tag k="ssr:stedsnr" v="1064468" />
		<tag k="ssr:type" v="adressenavn" />
	</node>
	<node lat="62.20362186479997" lon="5.576611797673672" id="-1709">
		<tag k="name" v="Nygarden" />
		<tag k="ssr:date" v="2019-05-31" />
		<tag k="ssr:gruppe" v="veg" />
		<tag k="ssr:hovedgruppe" v="infrastruktur" />
		<tag k="ssr:stedsnr" v="1064416" />
		<tag k="ssr:type" v="adressenavn" />
	</node>
	<node lat="62.215467437208666" lon="5.570363770796241" id="-1710">
		<tag k="name" v="Legebakken" />
		<tag k="ssr:date" v="2019-05-31" />
		<tag k="ssr:gruppe" v="veg" />
		<tag k="ssr:hovedgruppe" v="infrastruktur" />
		<tag k="ssr:stedsnr" v="1064435" />
		<tag k="ssr:type" v="adressenavn" />
	</node>
	<node lat="62.20624334562607" lon="5.574506269884881" id="-1711">
		<tag k="name" v="Sjukeheimsvegen" />
		<tag k="ssr:date" v="2019-11-25" />
		<tag k="ssr:gruppe" v="veg" />
		<tag k="ssr:hovedgruppe" v="infrastruktur" />
		<tag k="ssr:stedsnr" v="1073508" />
		<tag k="ssr:type" v="adressenavn" />
	</node>
	<node lat="62.17238483199929" lon="5.39813394975036" id="-1712">
		<tag k="name" v="Haugsholmen" />
		<tag k="ssr:date" v="2019-12-02" />
		<tag k="ssr:gruppe" v="veg" />
		<tag k="ssr:hovedgruppe" v="infrastruktur" />
		<tag k="ssr:stedsnr" v="1073621" />
		<tag k="ssr:type" v="adressenavn" />
	</node>
	<node lat="62.21845157014919" lon="5.634885261955019" id="-1720">
		<tag k="name" v="Langberg" />
		<tag k="ssr:date" v="2021-06-24" />
		<tag k="ssr:gruppe" v="veg" />
		<tag k="ssr:hovedgruppe" v="infrastruktur" />
		<tag k="ssr:stedsnr" v="1081626" />
		<tag k="ssr:type" v="adressenavn" />
=======
	<node id="-60567" lat="62.2077388928" lon="5.5679333417">
		<tag k="alt_name" v="Sande" />
		<tag k="name" v="Sande kommune" />
		<tag k="ssr:date" v="2016-05-10" />
		<tag k="ssr:gruppe" v="administrativeIndelinger" />
		<tag k="ssr:hovedgruppe" v="offentligAdministrasjon" />
		<tag k="ssr:stedsnr" v="510495" />
		<tag k="ssr:type" v="kommune" />
>>>>>>> e1d4bc35ff8a6074a6f2e91616a996b547c36f15
	</node>
</osm>
