<?xml version="1.0" encoding="UTF-8"?>
<osm generator="osmapis" version="0.6">
	<node id="-37629" lat="60.1280361152" lon="11.1730250004">
		<tag k="name" v="Langelandsfjellet" />
		<tag k="natural" v="slope" />
		<tag k="place" v="locality" />
		<tag k="ssr:stedsnr" v="951664" />
	</node>
	<node id="-37625" lat="60.1673416652" lon="11.2176388883">
		<tag k="fixme" v="consider natural=peak for the most distinct mountains in the district" />
		<tag k="name" v="Holmsfjellet" />
		<tag k="natural" v="hill" />
		<tag k="place" v="locality" />
		<tag k="ssr:stedsnr" v="951330" />
	</node>
	<node id="-37111" lat="60.2338222239" lon="11.1207638845">
		<tag k="name" v="Bjørkehøgda" />
		<tag k="natural" v="hill" />
		<tag k="place" v="locality" />
		<tag k="ssr:stedsnr" v="239638" />
	</node>
	<node id="-37621" lat="60.1622805517" lon="11.1210861158">
		<tag k="name" v="Midtskogen" />
		<tag k="place" v="locality" />
		<tag k="ssr:stedsnr" v="916202" />
	</node>
	<node id="-37358" lat="60.1261194463" lon="11.1706111094">
		<tag k="fixme" v="consider natural=peak for the most distinct mountains in the district" />
		<tag k="name" v="Presterudtoppen" />
		<tag k="natural" v="hill" />
		<tag k="place" v="locality" />
		<tag k="ssr:stedsnr" v="611137" />
	</node>
	<node id="-36989" lat="60.180063891" lon="11.1170944359">
		<tag k="name" v="Gardermoen" />
		<tag k="place" v="locality" />
		<tag k="ssr:stedsnr" v="66228" />
	</node>
	<node id="-36964" lat="60.2423722216" lon="11.1253999958">
		<tag k="name" v="Gamle Grensehaug" />
		<tag k="natural" v="hill" />
		<tag k="place" v="locality" />
		<tag k="ssr:stedsnr" v="59296" />
	</node>
	<node id="-37090" lat="60.1619638882" lon="11.3133555574">
		<tag k="name" v="Bergmoen" />
		<tag k="place" v="locality" />
		<tag k="ssr:stedsnr" v="187210" />
	</node>
	<node id="-36827" lat="60.1175555516" lon="11.2006444375">
		<tag k="name" v="Rambydalen" />
		<tag k="natural" v="valley" />
		<tag k="place" v="locality" />
		<tag k="ssr:stedsnr" v="344650" />
	</node>
	<node id="-37591" lat="60.1842333299" lon="11.246588888">
		<tag k="name" v="Skrytmoen" />
		<tag k="place" v="locality" />
		<tag k="ssr:stedsnr" v="907666" />
	</node>
	<node id="-37202" lat="60.0903944434" lon="11.3173333274">
		<tag k="name" v="Trondshaugen" />
		<tag k="natural" v="hill" />
		<tag k="place" v="locality" />
		<tag k="ssr:stedsnr" v="466712" />
	</node>
	<node id="-37197" lat="60.0957000004" lon="11.2561527841">
		<tag k="name" v="Lundsmoen" />
		<tag k="place" v="locality" />
		<tag k="ssr:stedsnr" v="466410" />
	</node>
	<node id="-37580" lat="60.1809250038" lon="11.1852416587">
		<tag k="name" v="Hovimoen" />
		<tag k="place" v="locality" />
		<tag k="ssr:stedsnr" v="855258" />
	</node>
	<node id="-37579" lat="60.1802805586" lon="11.1527249918">
		<tag k="name" v="Vilbergmoen" />
		<tag k="place" v="locality" />
		<tag k="ssr:stedsnr" v="855256" />
	</node>
	<node id="-37313" lat="60.2012499978" lon="11.2207388867">
		<tag k="alt_name" v="Hovinfjellet" />
		<tag k="fixme" v="consider natural=peak for the most distinct mountains in the district" />
		<tag k="name" v="Hovifjellet" />
		<tag k="natural" v="hill" />
		<tag k="old_name" v="Hovindfjeld" />
		<tag k="place" v="locality" />
		<tag k="ssr:stedsnr" v="551284" />
	</node>
	<node id="-37568" lat="60.0780388886" lon="11.3159972215">
		<tag k="fixme" v="consider natural=peak for the most distinct mountains in the district" />
		<tag k="name" v="Holtfjellet" />
		<tag k="natural" v="hill" />
		<tag k="place" v="locality" />
		<tag k="ssr:stedsnr" v="855036" />
	</node>
	<node id="-37566" lat="60.0606527817" lon="11.1152999946">
		<tag k="name" v="Snilehaugen" />
		<tag k="natural" v="hill" />
		<tag k="place" v="locality" />
		<tag k="ssr:stedsnr" v="848974" />
	</node>
	<node id="-37434" lat="60.0655944452" lon="11.2799916594">
		<tag k="name" v="Jordbærdalen" />
		<tag k="natural" v="valley" />
		<tag k="place" v="locality" />
		<tag k="ssr:stedsnr" v="707441" />
	</node>
	<node id="-36866" lat="60.2067388844" lon="11.2654527825">
		<tag k="fixme" v="consider natural=peak for the most distinct mountains in the district" />
		<tag k="name" v="Kopperudåsen" />
		<tag k="natural" v="hill" />
		<tag k="place" v="locality" />
		<tag k="ssr:stedsnr" v="369257" />
	</node>
	<node id="-37428" lat="60.1606361137" lon="11.225708334">
		<tag k="fixme" v="consider natural=peak for the most distinct mountains in the district" />
		<tag k="name" v="Brennifjellet" />
		<tag k="natural" v="hill" />
		<tag k="place" v="locality" />
		<tag k="ssr:stedsnr" v="673237" />
	</node>
	<node id="-37296" lat="60.11708889" lon="11.3300583274">
		<tag k="fixme" v="consider natural=peak for the most distinct mountains in the district" />
		<tag k="name" v="Bøleråsen" />
		<tag k="natural" v="hill" />
		<tag k="place" v="locality" />
		<tag k="ssr:stedsnr" v="551111" />
	</node>
	<node id="-36871" lat="60.2149333314" lon="11.2809861063">
		<tag k="alt_name" v="Rømådalen" />
		<tag k="name" v="Rømudalen" />
		<tag k="natural" v="valley" />
		<tag k="place" v="locality" />
		<tag k="ssr:stedsnr" v="369289" />
	</node>
	<node id="-37424" lat="60.1157611143" lon="11.2070222305">
		<tag k="fixme" v="consider natural=peak for the most distinct mountains in the district" />
		<tag k="name" v="Oppenfjellet" />
		<tag k="natural" v="hill" />
		<tag k="place" v="locality" />
		<tag k="ssr:stedsnr" v="673123" />
	</node>
	<node id="-37067" lat="60.2445166624" lon="11.1298944526">
		<tag k="name" v="Kammerherrehøgda" />
		<tag k="natural" v="hill" />
		<tag k="place" v="locality" />
		<tag k="ssr:stedsnr" v="180284" />
	</node>
	<node id="-37273" lat="60.1807194486" lon="11.2551500006">
		<tag k="name" v="Austadmoen" />
		<tag k="place" v="locality" />
		<tag k="ssr:stedsnr" v="543736" />
	</node>
	<node id="-37400" lat="60.2134333327" lon="11.0981305521">
		<tag k="name" v="Nordre Garderfjellet" />
		<tag k="natural" v="hill" />
		<tag k="place" v="locality" />
		<tag k="ssr:stedsnr" v="664720" />
	</node>
	<node id="-37142" lat="60.2360750008" lon="11.1302444432">
		<tag k="name" v="Aurmoen" />
		<tag k="place" v="locality" />
		<tag k="ssr:stedsnr" v="248316" />
	</node>
	<node id="-37011" lat="60.2200277791" lon="11.1245138814">
		<tag k="name" v="Djupdalskulpen" />
		<tag k="natural" v="valley" />
		<tag k="place" v="locality" />
		<tag k="ssr:stedsnr" v="118596" />
	</node>
	<node id="-37506" lat="60.2213666647" lon="11.1279027854">
		<tag k="name" v="Hveimshøgda" />
		<tag k="natural" v="hill" />
		<tag k="place" v="locality" />
		<tag k="ssr:stedsnr" v="785609" />
	</node>
	<node id="-37127" lat="60.0814305572" lon="11.1558416727">
		<tag k="name" v="Galgehaugen" />
		<tag k="natural" v="hill" />
		<tag k="place" v="locality" />
		<tag k="ssr:stedsnr" v="241938" />
	</node>
	<node id="-36996" lat="60.2084555573" lon="11.2484611053">
		<tag k="name" v="Stensbyfjellet" />
		<tag k="natural" v="hill" />
		<tag k="place" v="locality" />
		<tag k="ssr:stedsnr" v="66291" />
	</node>
	<node id="-37378" lat="60.1942666655" lon="11.3174166732">
		<tag k="alt_name" v="Låveggåsen" />
		<tag k="fixme" v="consider natural=peak for the most distinct mountains in the district" />
		<tag k="name" v="Låveggsåsen" />
		<tag k="natural" v="hill" />
		<tag k="place" v="locality" />
		<tag k="ssr:stedsnr" v="612273" />
	</node>
</osm>
