<?xml version="1.0" encoding="UTF-8"?>
<osm version="0.6" generator="osmapis">
	<node lat="69.066394445394" lon="22.809819371038458" id="-108093">
		<tag k="highway" v="path" />
		<tag k="name" v="Njavvitmáđii" />
		<tag k="name:se" v="Njavvitmáđii" />
		<tag k="ssr:stedsnr" v="46072" />
	</node>
	<node lat="69.17191389383036" lon="23.58075820838181" id="-108101">
		<tag k="highway" v="path" />
		<tag k="name" v="Lullimáđii" />
		<tag k="name:se" v="Lullimáđii" />
		<tag k="ssr:stedsnr" v="47705" />
	</node>
	<node lat="69.04079722423364" lon="23.125938786745184" id="-108143">
		<tag k="highway" v="path" />
		<tag k="name" v="Ávžžimáđii" />
		<tag k="name:se" v="Ávžžimáđii" />
		<tag k="ssr:stedsnr" v="92605" />
	</node>
	<node lat="69.06112778562238" lon="22.946563801461732" id="-108159">
		<tag k="highway" v="path" />
		<tag k="name" v="Luomečoagginluodda" />
		<tag k="name:se" v="Luomečoagginluodda" />
		<tag k="ssr:stedsnr" v="108169" />
	</node>
	<node lat="69.03201389228225" lon="23.22061377644713" id="-108209">
		<tag k="highway" v="path" />
		<tag k="name" v="Johtingeaidnu" />
		<tag k="name:se" v="Johtingeaidnu" />
		<tag k="ssr:stedsnr" v="152019" />
	</node>
	<node lat="68.8262527782434" lon="23.194980446218487" id="-108231">
		<tag k="highway" v="path" />
		<tag k="name" v="Rietnjeávžžebálggis" />
		<tag k="name:se" v="Rietnjeávžžebálggis" />
		<tag k="ssr:stedsnr" v="167264" />
	</node>
	<node lat="69.13699167305414" lon="23.300663791679135" id="-108248">
		<tag k="highway" v="path" />
		<tag k="name" v="Roavotjogamáđii" />
		<tag k="name:se" v="Roavotjogamáđii" />
		<tag k="ssr:stedsnr" v="168561" />
	</node>
	<node lat="69.13492500615692" lon="23.282799894462762" id="-108249">
		<tag k="highway" v="path" />
		<tag k="name" v="Boaresbiilamáđii" />
		<tag k="name:se" v="Boaresbiilamáđii" />
		<tag k="ssr:stedsnr" v="168563" />
	</node>
	<node lat="69.16206111688741" lon="23.472813768203626" id="-108423">
		<tag k="highway" v="path" />
		<tag k="name" v="Gutnaláttomáđii" />
		<tag k="name:se" v="Gutnaláttomáđii" />
		<tag k="ssr:stedsnr" v="450124" />
	</node>
	<node lat="68.9830611157927" lon="23.2243971335433" id="-108572">
		<tag k="highway" v="path" />
		<tag k="name" v="Ásllagašmáđii" />
		<tag k="name:se" v="Ásllagašmáđii" />
		<tag k="ssr:stedsnr" v="334102" />
	</node>
	<node lat="69.13474444409381" lon="23.298411017176008" id="-108596">
		<tag k="highway" v="path" />
		<tag k="name" v="Dálvemáđii" />
		<tag k="name:se" v="Dálvemáđii" />
		<tag k="ssr:stedsnr" v="471586" />
	</node>
	<node lat="69.12796666992172" lon="23.345738789728685" id="-108603">
		<tag k="highway" v="path" />
		<tag k="name" v="Gearpmašjármáđii" />
		<tag k="name:se" v="Gearpmašjármáđii" />
		<tag k="ssr:stedsnr" v="471635" />
	</node>
	<node lat="69.07402778392773" lon="22.817627699860136" id="-108612">
		<tag k="highway" v="path" />
		<tag k="name" v="Návddášjogabálggis" />
		<tag k="name:se" v="Návddášjogabálggis" />
		<tag k="ssr:stedsnr" v="349114" />
	</node>
	<node lat="68.89296111840221" lon="23.146924912541632" id="-108615">
		<tag k="highway" v="path" />
		<tag k="name" v="Bálggis" />
		<tag k="name:se" v="Bálggis" />
		<tag k="ssr:stedsnr" v="349408" />
	</node>
	<node lat="68.95213889570977" lon="23.10076100662355" id="-108623">
		<tag k="highway" v="path" />
		<tag k="name" v="Johtingeaidnu" />
		<tag k="name:se" v="Johtingeaidnu" />
		<tag k="ssr:stedsnr" v="350217" />
	</node>
	<node lat="69.18693611564616" lon="23.465669322084405" id="-108627">
		<tag k="highway" v="path" />
		<tag k="name" v="Rássegálvárimáđii" />
		<tag k="name:se" v="Rássegálvárimáđii" />
		<tag k="ssr:stedsnr" v="350604" />
	</node>
	<node lat="69.11300555575737" lon="23.33983600177964" id="-108628">
		<tag k="highway" v="path" />
		<tag k="name" v="Hávgajármáđii" />
		<tag k="name:se" v="Hávgajármáđii" />
		<tag k="ssr:stedsnr" v="350568" />
	</node>
	<node lat="69.11805556169841" lon="23.349255463504015" id="-108629">
		<tag k="highway" v="path" />
		<tag k="name" v="Gearpmašjeakkebálggis" />
		<tag k="name:se" v="Gearpmašjeakkebálggis" />
		<tag k="ssr:stedsnr" v="350574" />
	</node>
	<node lat="69.00216944349427" lon="23.15466379676034" id="-108675">
		<tag k="highway" v="path" />
		<tag k="name" v="Ávžžiluodda" />
		<tag k="name:se" v="Ávžžiluodda" />
		<tag k="ssr:stedsnr" v="395877" />
	</node>
	<node lat="69.14082222879523" lon="23.287344345110146" id="-108749">
		<tag k="highway" v="path" />
		<tag k="name" v="Luhppobálggis" />
		<tag k="name:se" v="Luhppobálggis" />
		<tag k="ssr:stedsnr" v="471571" />
	</node>
	<node lat="68.8948555564796" lon="22.88450270095927" id="-108894">
		<tag k="highway" v="path" />
		<tag k="name" v="Poastamáđii" />
		<tag k="name:se" v="Poastamáđii" />
		<tag k="ssr:stedsnr" v="532029" />
	</node>
	<node lat="69.01385555957451" lon="23.198749911528452" id="-109022">
		<tag k="highway" v="path" />
		<tag k="name" v="Bredbuktnesmáđii" />
		<tag k="name:se" v="Bredbuktnesmáđii" />
		<tag k="ssr:stedsnr" v="698860" />
	</node>
	<node lat="68.98902500566768" lon="22.990186031160754" id="-109024">
		<tag k="highway" v="path" />
		<tag k="name" v="Guovttibuletjármáđii" />
		<tag k="name:se" v="Guovttibuletjármáđii" />
		<tag k="ssr:stedsnr" v="698981" />
	</node>
	<node lat="69.05462499964784" lon="23.13111935453109" id="-109078">
		<tag k="highway" v="path" />
		<tag k="name" v="Muorrageasehanmáđii" />
		<tag k="name:se" v="Muorrageasehanmáđii" />
		<tag k="ssr:stedsnr" v="637576" />
	</node>
	<node lat="69.04883333192576" lon="22.955502694374967" id="-109197">
		<tag k="highway" v="path" />
		<tag k="name" v="Bredbuktnesvegen" />
		<tag k="name:no" v="Bredbuktnesvegen" />
		<tag k="ssr:stedsnr" v="897177" />
	</node>
	<node lat="69.1216333340193" lon="23.296305441321106" id="-109208">
		<tag k="highway" v="path" />
		<tag k="name" v="Jorcabálggis" />
		<tag k="name:se" v="Jorcabálggis" />
		<tag k="ssr:stedsnr" v="714574" />
	</node>
	<node lat="69.15048611635304" lon="23.36184990034892" id="-109255">
		<tag k="highway" v="path" />
		<tag k="name" v="Johtinmáđii" />
		<tag k="name:se" v="Johtinmáđii" />
		<tag k="ssr:stedsnr" v="754407" />
	</node>
	<node lat="69.45965000331888" lon="23.48766379363137" id="-109384">
		<tag k="junction" v="yes" />
		<tag k="name" v="Stuoroaivi" />
		<tag k="name:se" v="Stuoroaivi" />
		<tag k="old_name:se" v="Stuoroai'vi" />
		<tag k="place" v="locality" />
		<tag k="ssr:stedsnr" v="929392" />
	</node>
	<node lat="69.05813333470518" lon="23.056130453315628" id="-109457">
		<tag k="ford" v="yes" />
		<tag k="name" v="Gála" />
		<tag k="name:se" v="Gála" />
		<tag k="place" v="locality" />
		<tag k="ssr:stedsnr" v="881909" />
	</node>
	<node lat="69.18921111550858" lon="23.558324874976176" id="-109471">
		<tag k="highway" v="path" />
		<tag k="name" v="Gievdnejávrremáđii" />
		<tag k="name:se" v="Gievdnejávrremáđii" />
		<tag k="ssr:stedsnr" v="896761" />
	</node>
	<node lat="69.17750278230082" lon="23.5827054271895" id="-109535">
		<tag k="highway" v="path" />
		<tag k="name" v="Láhpoluoppalmáđii" />
		<tag k="name:se" v="Láhpoluoppalmáđii" />
		<tag k="ssr:stedsnr" v="957713" />
	</node>
	<node lat="69.02881667362988" lon="23.043430474294656" id="-109675">
		<tag k="highway" v="path" />
		<tag k="name" v="Gáhkkormáđii" />
		<tag k="name:se" v="Gáhkkormáđii" />
		<tag k="ssr:stedsnr" v="31888" />
	</node>
	<node lat="69.068052785176" lon="23.00910824724354" id="-109681">
		<tag k="highway" v="path" />
		<tag k="name" v="Luhppu" />
		<tag k="name:se" v="Luhppu" />
		<tag k="ssr:stedsnr" v="46190" />
	</node>
	<node lat="69.09894167085123" lon="23.186866569023188" id="-109682">
		<tag k="highway" v="path" />
		<tag k="name" v="Ráidobálggis" />
		<tag k="name:se" v="Ráidobálggis" />
		<tag k="ssr:stedsnr" v="46384" />
	</node>
	<node lat="69.06480277835877" lon="23.141108243773065" id="-109688">
		<tag k="highway" v="path" />
		<tag k="name" v="Buollánmáđii" />
		<tag k="name:se" v="Buollánmáđii" />
		<tag k="ssr:stedsnr" v="46351" />
	</node>
	<node lat="69.11842222901686" lon="23.29292211478264" id="-109699">
		<tag k="highway" v="path" />
		<tag k="name" v="Hávgajávrremáđii" />
		<tag k="name:se" v="Hávgajávrremáđii" />
		<tag k="ssr:stedsnr" v="47598" />
	</node>
	<node lat="69.16180277726521" lon="23.296019350649516" id="-109701">
		<tag k="highway" v="path" />
		<tag k="name" v="Jalgesvárebálggis" />
		<tag k="name:se" v="Jalgesvárebálggis" />
		<tag k="ssr:stedsnr" v="47648" />
	</node>
	<node lat="69.38126111033174" lon="22.66430270115347" id="-109816">
		<tag k="ford" v="yes" />
		<tag k="name" v="Málbmagála" />
		<tag k="name:se" v="Málbmagála" />
		<tag k="old_name:se" v="Malbmagala" />
		<tag k="place" v="locality" />
		<tag k="ssr:stedsnr" v="79767" />
	</node>
	<node lat="68.78631388818131" lon="23.346938786375212" id="-109887">
		<tag k="highway" v="path" />
		<tag k="name" v="Sihčajávrregeasseluodda" />
		<tag k="name:se" v="Sihčajávrregeasseluodda" />
		<tag k="ssr:stedsnr" v="108458" />
	</node>
	<node lat="68.97270833630476" lon="22.994013793735554" id="-110047">
		<tag k="highway" v="path" />
		<tag k="name" v="Fanasjármáđii" />
		<tag k="name:se" v="Fanasjármáđii" />
		<tag k="ssr:stedsnr" v="152981" />
	</node>
	<node lat="69.06315555523673" lon="22.98108880082118" id="-110057">
		<tag k="highway" v="path" />
		<tag k="name" v="Ládjobálggis" />
		<tag k="name:se" v="Ládjobálggis" />
		<tag k="ssr:stedsnr" v="167193" />
	</node>
	<node lat="69.15588334004619" lon="23.3280026781845" id="-110066">
		<tag k="highway" v="path" />
		<tag k="name" v="Káreluovttabálggis" />
		<tag k="name:se" v="Káreluovttabálggis" />
		<tag k="ssr:stedsnr" v="168651" />
	</node>
	<node lat="69.01108611657165" lon="23.08539436365219" id="-110208">
		<tag k="highway" v="path" />
		<tag k="name" v="Ávžžimáđii" />
		<tag k="name:se" v="Ávžžimáđii" />
		<tag k="ssr:stedsnr" v="213567" />
	</node>
	<node lat="69.14260000265116" lon="23.259427690078265" id="-110254">
		<tag k="highway" v="path" />
		<tag k="name" v="Váidejávremáđii" />
		<tag k="name:se" v="Váidejávremáđii" />
		<tag k="ssr:stedsnr" v="289374" />
	</node>
	<node lat="69.11066667308403" lon="23.278330466553953" id="-110262">
		<tag k="highway" v="path" />
		<tag k="name" v="Skuvlajármáđii" />
		<tag k="name:se" v="Skuvlajármáđii" />
		<tag k="ssr:stedsnr" v="289683" />
	</node>
	<node lat="69.18738611993932" lon="23.58551931864888" id="-110265">
		<tag k="highway" v="path" />
		<tag k="name" v="Sieđgajeakkemáđii" />
		<tag k="name:se" v="Sieđgajeakkemáđii" />
		<tag k="ssr:stedsnr" v="289767" />
	</node>
	<node lat="68.89866389195653" lon="22.874419359207774" id="-110419">
		<tag k="highway" v="path" />
		<tag k="name" v="Borgaluhppu" />
		<tag k="name:se" v="Borgaluhppu" />
		<tag k="ssr:stedsnr" v="349030" />
	</node>
	<node lat="69.65501667258042" lon="22.96741658504492" id="-110525">
		<tag k="ford" v="yes" />
		<tag k="name" v="Guollesuohpa" />
		<tag k="name:se" v="Guollesuohpa" />
		<tag k="old_name:se" v="Guollesuoppa" />
		<tag k="place" v="locality" />
		<tag k="ssr:stedsnr" v="382746" />
	</node>
	<node lat="69.00648611141074" lon="23.24505824222215" id="-110577">
		<tag k="highway" v="path" />
		<tag k="name" v="Nuortamáđii" />
		<tag k="name:se" v="Nuortamáđii" />
		<tag k="ssr:stedsnr" v="395096" />
	</node>
	<node lat="68.84204167070602" lon="23.16807490060573" id="-110593">
		<tag k="highway" v="path" />
		<tag k="name" v="Dálvemáđii" />
		<tag k="name:se" v="Dálvemáđii" />
		<tag k="ssr:stedsnr" v="410280" />
	</node>
	<node lat="68.89451944971061" lon="23.116427690993476" id="-110602">
		<tag k="highway" v="path" />
		<tag k="name" v="Dálvemáđii" />
		<tag k="name:se" v="Dálvemáđii" />
		<tag k="ssr:stedsnr" v="411140" />
	</node>
	<node lat="69.06590833513027" lon="22.93805824907065" id="-110604">
		<tag k="highway" v="path" />
		<tag k="name" v="Ávjášmáđii" />
		<tag k="name:se" v="Ávjášmáđii" />
		<tag k="ssr:stedsnr" v="411175" />
	</node>
	<node lat="69.02226389480228" lon="22.917858253832723" id="-110605">
		<tag k="highway" v="path" />
		<tag k="name" v="Luhppobálggis" />
		<tag k="name:se" v="Luhppobálggis" />
		<tag k="ssr:stedsnr" v="411179" />
	</node>
	<node lat="69.17352500470999" lon="23.579888779322147" id="-110619">
		<tag k="highway" v="path" />
		<tag k="name" v="Heastamáđii" />
		<tag k="name:se" v="Heastamáđii" />
		<tag k="ssr:stedsnr" v="411686" />
	</node>
	<node lat="69.05343055513517" lon="22.825022130913034" id="-110915">
		<tag k="highway" v="path" />
		<tag k="name" v="Tráktor-Máhtemáđii" />
		<tag k="name:se" v="Tráktor-Máhtemáđii" />
		<tag k="ssr:stedsnr" v="532010" />
	</node>
	<node lat="69.1829111131363" lon="23.58468599978359" id="-110925">
		<tag k="highway" v="path" />
		<tag k="name" v="Láhpoluoppalbálggis" />
		<tag k="name:se" v="Láhpoluoppalbálggis" />
		<tag k="ssr:stedsnr" v="532714" />
	</node>
	<node lat="69.64537222799015" lon="22.978602713152632" id="-111014">
		<tag k="ford" v="yes" />
		<tag k="name" v="Vuoldesuohpa" />
		<tag k="name:se" v="Vuoldesuohpa" />
		<tag k="old_name:se" v="Vuoldesuoppa" />
		<tag k="place" v="locality" />
		<tag k="ssr:stedsnr" v="564727" />
	</node>
	<node lat="69.17550000663562" lon="23.44011101027697" id="-111125">
		<tag k="highway" v="path" />
		<tag k="name" v="Ráidebálggis" />
		<tag k="name:se" v="Ráidebálggis" />
		<tag k="ssr:stedsnr" v="592724" />
	</node>
	<node lat="69.18061666797698" lon="23.5259054439378" id="-111130">
		<tag k="highway" v="path" />
		<tag k="name" v="Čakčamáđii" />
		<tag k="name:se" v="Čakčamáđii" />
		<tag k="ssr:stedsnr" v="592765" />
	</node>
	<node lat="69.35785000121898" lon="24.241616511380375" id="-111268">
		<tag k="highway" v="path" />
		<tag k="name" v="Cakkimáđii" />
		<tag k="name:se" v="Cakkimáđii" />
		<tag k="ssr:stedsnr" v="635666" />
	</node>
	<node lat="69.13180000722672" lon="23.27675823532526" id="-111323">
		<tag k="highway" v="path" />
		<tag k="name" v="Báidnánmáđii" />
		<tag k="name:se" v="Báidnánmáđii" />
		<tag k="ssr:stedsnr" v="714528" />
	</node>
	<node lat="69.03063611896019" lon="23.253441566268464" id="-111461">
		<tag k="highway" v="path" />
		<tag k="name" v="Rissemáđii" />
		<tag k="name:se" v="Rissemáđii" />
		<tag k="ssr:stedsnr" v="759039" />
	</node>
	<node lat="69.00144445085871" lon="23.01183046676198" id="-111469">
		<tag k="highway" v="path" />
		<tag k="name" v="Buletjármáđii" />
		<tag k="name:se" v="Buletjármáđii" />
		<tag k="ssr:stedsnr" v="759542" />
	</node>
	<node lat="69.12702500418425" lon="23.32651377839958" id="-111491">
		<tag k="highway" v="path" />
		<tag k="name" v="Johttábálggis" />
		<tag k="name:se" v="Johttábálggis" />
		<tag k="ssr:stedsnr" v="775571" />
	</node>
	<node lat="69.18573055862217" lon="23.52965267241021" id="-111496">
		<tag k="highway" v="path" />
		<tag k="name" v="Johtinmáđii" />
		<tag k="name:se" v="Johtinmáđii" />
		<tag k="ssr:stedsnr" v="775647" />
	</node>
	<node lat="69.15284444600591" lon="23.428902666271757" id="-111661">
		<tag k="highway" v="path" />
		<tag k="name" v="Ovllášmáđii" />
		<tag k="name:se" v="Ovllášmáđii" />
		<tag k="ssr:stedsnr" v="814152" />
	</node>
	<node lat="69.05057222791083" lon="23.034183238309364" id="-111688">
		<tag k="highway" v="path" />
		<tag k="name" v="Ávjjašmáđii" />
		<tag k="name:se" v="Ávjjašmáđii" />
		<tag k="ssr:stedsnr" v="820930" />
	</node>
	<node lat="69.15153056359537" lon="23.31058323047026" id="-111709">
		<tag k="highway" v="path" />
		<tag k="name" v="Boaresmárkanmáđii" />
		<tag k="name:se" v="Boaresmárkanmáđii" />
		<tag k="ssr:stedsnr" v="836637" />
	</node>
	<node lat="69.05458056117098" lon="23.09134434155886" id="-111878">
		<tag k="ford" v="yes" />
		<tag k="name" v="Gála" />
		<tag k="name:se" v="Gála" />
		<tag k="place" v="locality" />
		<tag k="ssr:stedsnr" v="881899" />
	</node>
	<node lat="69.0201416664404" lon="22.982566567052796" id="-111879">
		<tag k="highway" v="path" />
		<tag k="name" v="Orjješbálggis" />
		<tag k="name:se" v="Orjješbálggis" />
		<tag k="ssr:stedsnr" v="881867" />
	</node>
	<node lat="69.15054166941424" lon="23.42933322642895" id="-111883">
		<tag k="highway" v="path" />
		<tag k="name" v="Gaskabeaimáđii" />
		<tag k="name:se" v="Gaskabeaimáđii" />
		<tag k="ssr:stedsnr" v="936127" />
	</node>
	<node lat="69.05379166615114" lon="23.056122130420388" id="-111914">
		<tag k="highway" v="path" />
		<tag k="name" v="Jorbajármáđii" />
		<tag k="name:se" v="Jorbajármáđii" />
		<tag k="ssr:stedsnr" v="941892" />
	</node>
	<node lat="69.05402500096592" lon="22.96273047475312" id="-111915">
		<tag k="highway" v="path" />
		<tag k="name" v="Ávjjašmáđii" />
		<tag k="name:se" v="Ávjjašmáđii" />
		<tag k="ssr:stedsnr" v="941915" />
	</node>
	<node lat="69.14971111205351" lon="23.29381656331996" id="-111942">
		<tag k="highway" v="path" />
		<tag k="name" v="Dorskajohbálggis" />
		<tag k="name:se" v="Dorskajohbálggis" />
		<tag k="ssr:stedsnr" v="957637" />
	</node>
</osm>
