<?xml version="1.0" encoding="UTF-8"?>
<osm version="0.6" generator="osmapis">
	<node lat="68.84838611033146" lon="22.451480496576856" id="-56470">
		<tag k="fixme" v="consider natural=peak for the most distinct mountains in the district" />
		<tag k="name" v="Gárdemaras" />
		<tag k="name:se" v="Gárdemaras" />
		<tag k="natural" v="hill" />
		<tag k="old_name:se" v="Gardemaras" />
		<tag k="place" v="locality" />
		<tag k="ssr:stedsnr" v="17054" />
	</node>
	<node lat="69.03128611703625" lon="22.60157770487079" id="-56473">
		<tag k="fixme" v="consider natural=peak for the most distinct mountains in the district" />
		<tag k="name" v="Eapperoaivi" />
		<tag k="name:se" v="Eapperoaivi" />
		<tag k="natural" v="hill" />
		<tag k="old_name:se" v="Æbberoaivi;Eappiroaivi" />
		<tag k="place" v="locality" />
		<tag k="ssr:stedsnr" v="17656" />
	</node>
	<node lat="69.03064722954896" lon="22.78644158262975" id="-56474">
		<tag k="fixme" v="consider natural=peak for the most distinct mountains in the district" />
		<tag k="name" v="Njaivvitvárri" />
		<tag k="name:se" v="Njaivvitvárri" />
		<tag k="natural" v="hill" />
		<tag k="old_name:se" v="Njaivitvarri" />
		<tag k="place" v="locality" />
		<tag k="ssr:stedsnr" v="17658" />
	</node>
	<node lat="68.73733334071801" lon="24.43634981287663" id="-56477">
		<tag k="fixme" v="consider natural=peak for the most distinct mountains in the district" />
		<tag k="name" v="Duolbavárri" />
		<tag k="name:se" v="Duolbavárri" />
		<tag k="natural" v="hill" />
		<tag k="old_name:se" v="Duolbavarri" />
		<tag k="place" v="locality" />
		<tag k="ssr:stedsnr" v="18008" />
	</node>
	<node lat="68.70540278360117" lon="24.556358116026612" id="-56479">
		<tag k="fixme" v="consider natural=peak for the most distinct mountains in the district" />
		<tag k="name" v="Livlanvárri" />
		<tag k="name:se" v="Livlanvárri" />
		<tag k="natural" v="hill" />
		<tag k="old_name:se" v="Livlanvarri" />
		<tag k="place" v="locality" />
		<tag k="ssr:stedsnr" v="18014" />
	</node>
	<node lat="68.6151704635698" lon="24.884562375171456" id="-56482">
		<tag k="fixme" v="multiple name tags, choose one and add the other to alt_name; consider natural=peak for the most distinct mountains in the district" />
		<tag k="name" v="Gállovárri;Rádjevárri" />
		<tag k="name:se" v="Gállovárri;Rádjevárri" />
		<tag k="natural" v="hill" />
		<tag k="old_name:se" v="Raddjevarri;Galluvarri" />
		<tag k="place" v="locality" />
		<tag k="ssr:stedsnr" v="18207" />
	</node>
	<node lat="68.65000000859854" lon="24.755399764102073" id="-56483">
		<tag k="fixme" v="consider natural=peak for the most distinct mountains in the district" />
		<tag k="name" v="Sieiddečearru" />
		<tag k="name:se" v="Sieiddečearru" />
		<tag k="natural" v="hill" />
		<tag k="old_name:se" v="Sieidečærro" />
		<tag k="place" v="locality" />
		<tag k="ssr:stedsnr" v="18209" />
	</node>
	<node lat="69.21103611060595" lon="22.847311018988233" id="-56490">
		<tag k="fixme" v="consider natural=peak for the most distinct mountains in the district" />
		<tag k="name" v="Viekcevárri" />
		<tag k="name:se" v="Viekcevárri" />
		<tag k="natural" v="hill" />
		<tag k="old_name:se" v="Viekcevarri" />
		<tag k="place" v="locality" />
		<tag k="ssr:stedsnr" v="18601" />
	</node>
	<node lat="69.17926667215369" lon="22.959472135499404" id="-56491">
		<tag k="name" v="Roggegiera" />
		<tag k="name:se" v="Roggegiera" />
		<tag k="natural" v="hill" />
		<tag k="old_name:se" v="Råggegiera" />
		<tag k="place" v="locality" />
		<tag k="ssr:stedsnr" v="18610" />
	</node>
	<node lat="69.17691111362466" lon="23.027399916274288" id="-56492">
		<tag k="fixme" v="consider natural=peak for the most distinct mountains in the district" />
		<tag k="name" v="Davit Jalgesvárri" />
		<tag k="name:se" v="Davit Jalgesvárri" />
		<tag k="natural" v="hill" />
		<tag k="old_name:se" v="Jalgesvarri, davit" />
		<tag k="place" v="locality" />
		<tag k="ssr:stedsnr" v="18611" />
	</node>
	<node lat="69.20118333599514" lon="23.291852668830852" id="-56493">
		<tag k="fixme" v="consider natural=peak for the most distinct mountains in the district" />
		<tag k="name" v="Dorskavárri" />
		<tag k="name:se" v="Dorskavárri" />
		<tag k="natural" v="hill" />
		<tag k="old_name:se" v="Dårskavarri" />
		<tag k="place" v="locality" />
		<tag k="ssr:stedsnr" v="18612" />
	</node>
	<node lat="69.00896667719185" lon="24.746677550958353" id="-56496">
		<tag k="fixme" v="consider natural=peak for the most distinct mountains in the district" />
		<tag k="name" v="Gaibaroavvi" />
		<tag k="name:se" v="Gaibaroavvi" />
		<tag k="natural" v="hill" />
		<tag k="place" v="locality" />
		<tag k="ssr:stedsnr" v="18805" />
	</node>
	<node lat="69.0215583409287" lon="24.716780335243406" id="-56497">
		<tag k="fixme" v="consider natural=peak for the most distinct mountains in the district" />
		<tag k="name" v="Gaiba" />
		<tag k="name:se" v="Gaiba" />
		<tag k="natural" v="hill" />
		<tag k="place" v="locality" />
		<tag k="ssr:stedsnr" v="18808" />
	</node>
	<node lat="69.46198889078885" lon="22.393211044836338" id="-56498">
		<tag k="fixme" v="consider natural=peak for the most distinct mountains in the district" />
		<tag k="name" v="Gironašbuolžžat" />
		<tag k="name:se" v="Gironašbuolžžat" />
		<tag k="natural" v="hill" />
		<tag k="old_name:se" v="Girunašbuolžat" />
		<tag k="place" v="locality" />
		<tag k="ssr:stedsnr" v="18706" />
	</node>
	<node lat="69.46988056186566" lon="22.667391603186445" id="-56501">
		<tag k="fixme" v="consider natural=peak for the most distinct mountains in the district" />
		<tag k="loc_name:se" v="Jorbesoaivi" />
		<tag k="name" v="Stuora Jorbesoaivi" />
		<tag k="name:se" v="Stuora Jorbesoaivi" />
		<tag k="natural" v="hill" />
		<tag k="old_name:se" v="Jårbesoaivi, stuora" />
		<tag k="place" v="locality" />
		<tag k="ssr:stedsnr" v="18717" />
	</node>
	<node lat="69.48723333179129" lon="22.434513827896875" id="-56502">
		<tag k="fixme" v="consider natural=peak for the most distinct mountains in the district" />
		<tag k="name" v="Gálggočorru" />
		<tag k="name:se" v="Gálggočorru" />
		<tag k="natural" v="hill" />
		<tag k="old_name:se" v="Galgučårro" />
		<tag k="place" v="locality" />
		<tag k="ssr:stedsnr" v="18718" />
	</node>
	<node lat="68.77578611829985" lon="24.16353314991075" id="-56503">
		<tag k="fixme" v="consider natural=peak for the most distinct mountains in the district" />
		<tag k="name" v="Muottahasoaivi" />
		<tag k="name:se" v="Muottahasoaivi" />
		<tag k="natural" v="hill" />
		<tag k="old_name:se" v="Muoddahasoaivi" />
		<tag k="place" v="locality" />
		<tag k="ssr:stedsnr" v="18786" />
	</node>
	<node lat="69.27665833664976" lon="23.311113800329238" id="-56505">
		<tag k="fixme" v="consider natural=peak for the most distinct mountains in the district" />
		<tag k="name" v="Guotkovárri" />
		<tag k="name:se" v="Guotkovárri" />
		<tag k="natural" v="hill" />
		<tag k="old_name:se" v="Guotkuvarri" />
		<tag k="place" v="locality" />
		<tag k="ssr:stedsnr" v="18899" />
	</node>
	<node lat="69.38528889005396" lon="22.385255497085996" id="-56511">
		<tag k="fixme" v="consider natural=peak for the most distinct mountains in the district" />
		<tag k="name" v="Mollejusoalgi" />
		<tag k="name:se" v="Mollejusoalgi" />
		<tag k="natural" v="hill" />
		<tag k="old_name:se" v="Mållejusoalgi" />
		<tag k="place" v="locality" />
		<tag k="ssr:stedsnr" v="19798" />
	</node>
	<node lat="69.35045833401895" lon="22.51681661337703" id="-56512">
		<tag k="fixme" v="consider natural=peak for the most distinct mountains in the district" />
		<tag k="name" v="Bieltorámat" />
		<tag k="name:se" v="Bieltorámat" />
		<tag k="natural" v="hill" />
		<tag k="old_name:se" v="Bielturamat" />
		<tag k="place" v="locality" />
		<tag k="ssr:stedsnr" v="19939" />
	</node>
	<node lat="69.40617778377437" lon="23.631960996886544" id="-56514">
		<tag k="fixme" v="consider natural=peak for the most distinct mountains in the district" />
		<tag k="name" v="Vuohppebuolža" />
		<tag k="name:se" v="Vuohppebuolža" />
		<tag k="natural" v="hill" />
		<tag k="place" v="locality" />
		<tag k="ssr:stedsnr" v="30269" />
	</node>
	<node lat="69.45626945039518" lon="23.702374888433038" id="-56515">
		<tag k="name" v="Gistte-Ásllatbákti" />
		<tag k="name:se" v="Gistte-Ásllatbákti" />
		<tag k="natural" v="hill" />
		<tag k="place" v="locality" />
		<tag k="ssr:stedsnr" v="31264" />
	</node>
	<node lat="69.45029722392135" lon="23.621980448892003" id="-56517">
		<tag k="name" v="Roavvečorru" />
		<tag k="name:se" v="Roavvečorru" />
		<tag k="natural" v="hill" />
		<tag k="place" v="locality" />
		<tag k="ssr:stedsnr" v="31519" />
	</node>
	<node lat="68.96569444916356" lon="23.22289712084715" id="-56523">
		<tag k="name" v="Báktevárorda" />
		<tag k="name:se" v="Báktevárorda" />
		<tag k="place" v="locality" />
		<tag k="ssr:stedsnr" v="46376" />
	</node>
	<node lat="69.34707500121318" lon="24.136363738991253" id="-56527">
		<tag k="name" v="Hohtejogagiera" />
		<tag k="name:se" v="Hohtejogagiera" />
		<tag k="natural" v="hill" />
		<tag k="place" v="locality" />
		<tag k="ssr:stedsnr" v="47422" />
	</node>
	<node lat="68.97969167473703" lon="23.249044344044055" id="-56530">
		<tag k="fixme" v="multiple name tags, choose one and add the other to alt_name; consider natural=peak for the most distinct mountains in the district" />
		<tag k="name" v="Báktevárri;Ásllagašvárri" />
		<tag k="name:se" v="Báktevárri;Ásllagašvárri" />
		<tag k="natural" v="hill" />
		<tag k="old_name:se" v="Aslagašvarri" />
		<tag k="place" v="locality" />
		<tag k="ssr:stedsnr" v="78002" />
	</node>
	<node lat="68.73865001022288" lon="24.984999733371637" id="-56532">
		<tag k="fixme" v="consider natural=peak for the most distinct mountains in the district" />
		<tag k="name" v="Juovvavárri" />
		<tag k="name:se" v="Juovvavárri" />
		<tag k="natural" v="hill" />
		<tag k="old_name:se" v="Juovvavarri" />
		<tag k="place" v="locality" />
		<tag k="ssr:stedsnr" v="78014" />
	</node>
	<node lat="68.93743055776525" lon="23.360113779690447" id="-56533">
		<tag k="fixme" v="consider natural=peak for the most distinct mountains in the district" />
		<tag k="name" v="Unna Oaivvošváráš" />
		<tag k="name:se" v="Unna Oaivvošváráš" />
		<tag k="natural" v="hill" />
		<tag k="old_name:se" v="Oaivušvaraš, unna;Unna Oaivvošvárri" />
		<tag k="place" v="locality" />
		<tag k="ssr:stedsnr" v="78016" />
	</node>
	<node lat="69.11565556090623" lon="22.986855473708697" id="-56540">
		<tag k="name" v="Hoallomarasluhppu" />
		<tag k="name:se" v="Hoallomarasluhppu" />
		<tag k="natural" v="valley" />
		<tag k="old_name:se" v="Hoallumarasluppo" />
		<tag k="place" v="locality" />
		<tag k="ssr:stedsnr" v="78558" />
	</node>
	<node lat="68.90890000210544" lon="24.184302610807983" id="-56543">
		<tag k="fixme" v="consider natural=peak for the most distinct mountains in the district" />
		<tag k="name" v="Árbevárri" />
		<tag k="name:se" v="Árbevárri" />
		<tag k="natural" v="hill" />
		<tag k="old_name:se" v="Arbevarri" />
		<tag k="place" v="locality" />
		<tag k="ssr:stedsnr" v="78803" />
	</node>
	<node lat="68.90308056221498" lon="24.27829982766314" id="-56546">
		<tag k="fixme" v="consider natural=peak for the most distinct mountains in the district" />
		<tag k="name" v="Nieidačazavárri" />
		<tag k="name:se" v="Nieidačazavárri" />
		<tag k="natural" v="hill" />
		<tag k="old_name:se" v="Nieidačazavarri" />
		<tag k="place" v="locality" />
		<tag k="ssr:stedsnr" v="78801" />
	</node>
	<node lat="68.931736116912" lon="23.24588045003821" id="-56547">
		<tag k="name" v="Čuonjávuopmi" />
		<tag k="name:se" v="Čuonjávuopmi" />
		<tag k="natural" v="valley" />
		<tag k="old_name:se" v="Čuonjavuobmi" />
		<tag k="place" v="locality" />
		<tag k="ssr:stedsnr" v="78913" />
	</node>
	<node lat="68.97553333609527" lon="23.494688777841294" id="-56550">
		<tag k="name" v="Vuolgamašvuopmi" />
		<tag k="name:se" v="Vuolgamašvuopmi" />
		<tag k="natural" v="valley" />
		<tag k="old_name:se" v="Vuolgamašvuobmi" />
		<tag k="place" v="locality" />
		<tag k="ssr:stedsnr" v="78957" />
	</node>
	<node lat="68.88373889263809" lon="22.775152705293376" id="-56551">
		<tag k="fixme" v="consider natural=peak for the most distinct mountains in the district" />
		<tag k="name" v="Unna Vuolddáš" />
		<tag k="name:se" v="Unna Vuolddáš" />
		<tag k="natural" v="hill" />
		<tag k="old_name:se" v="Vuoldaš, unna" />
		<tag k="place" v="locality" />
		<tag k="ssr:stedsnr" v="79096" />
	</node>
	<node lat="69.40128056423309" lon="24.08291373450698" id="-56553">
		<tag k="name" v="Iisanjunni" />
		<tag k="name:se" v="Iisanjunni" />
		<tag k="natural" v="hill" />
		<tag k="old_name:se" v="Iišanjunni" />
		<tag k="place" v="locality" />
		<tag k="ssr:stedsnr" v="79294" />
	</node>
	<node lat="69.58011111473617" lon="23.612633222356305" id="-56557">
		<tag k="fixme" v="consider natural=peak for the most distinct mountains in the district" />
		<tag k="name" v="Muorra-Ráissotnjunni" />
		<tag k="name:se" v="Muorra-Ráissotnjunni" />
		<tag k="natural" v="hill" />
		<tag k="old_name:se" v="Muorra Raisutnjunni" />
		<tag k="place" v="locality" />
		<tag k="ssr:stedsnr" v="79543" />
	</node>
	<node lat="69.66878055925235" lon="23.50894989825323" id="-56559">
		<tag k="fixme" v="consider natural=peak for the most distinct mountains in the district" />
		<tag k="name" v="Unna Sálleváráš" />
		<tag k="name:se" v="Unna Sálleváráš" />
		<tag k="natural" v="hill" />
		<tag k="old_name:se" v="Sallevaraš, unna" />
		<tag k="place" v="locality" />
		<tag k="ssr:stedsnr" v="79596" />
	</node>
	<node lat="69.46658056090226" lon="22.42693604262138" id="-56562">
		<tag k="fixme" v="consider natural=peak for the most distinct mountains in the district" />
		<tag k="name" v="Gironvárri" />
		<tag k="name:se" v="Gironvárri" />
		<tag k="natural" v="hill" />
		<tag k="old_name:se" v="Girunvarri" />
		<tag k="place" v="locality" />
		<tag k="ssr:stedsnr" v="79744" />
	</node>
	<node lat="69.34320000116378" lon="22.80263048378932" id="-56563">
		<tag k="fixme" v="consider natural=peak for the most distinct mountains in the district" />
		<tag k="name" v="Stuora Bihkkačohkka" />
		<tag k="name:se" v="Stuora Bihkkačohkka" />
		<tag k="natural" v="hill" />
		<tag k="old_name:se" v="Bikkačåkka, stuora" />
		<tag k="place" v="locality" />
		<tag k="ssr:stedsnr" v="79940" />
	</node>
	<node lat="69.16513056081594" lon="23.432288777301366" id="-56565">
		<tag k="name" v="Suhpedievvá" />
		<tag k="name:se" v="Suhpedievvá" />
		<tag k="natural" v="hill" />
		<tag k="place" v="locality" />
		<tag k="ssr:stedsnr" v="87345" />
	</node>
	<node lat="68.99650000543416" lon="23.204805448710644" id="-56569">
		<tag k="name" v="Báktečorru" />
		<tag k="name:se" v="Báktečorru" />
		<tag k="natural" v="hill" />
		<tag k="place" v="locality" />
		<tag k="ssr:stedsnr" v="92076" />
	</node>
	<node lat="69.03253333900166" lon="23.122922140373596" id="-56572">
		<tag k="name" v="Skáideluohkká" />
		<tag k="name:se" v="Skáideluohkká" />
		<tag k="natural" v="slope" />
		<tag k="place" v="locality" />
		<tag k="ssr:stedsnr" v="92573" />
	</node>
	<node lat="69.0408472262547" lon="23.092066564427373" id="-56574">
		<tag k="name" v="Gumpegurra" />
		<tag k="name:se" v="Gumpegurra" />
		<tag k="natural" v="valley" />
		<tag k="place" v="locality" />
		<tag k="ssr:stedsnr" v="92878" />
	</node>
	<node lat="69.1799222248236" lon="23.516894328834976" id="-56580">
		<tag k="fixme" v="consider natural=peak for the most distinct mountains in the district" />
		<tag k="name" v="Suttášdievát" />
		<tag k="name:se" v="Suttášdievát" />
		<tag k="natural" v="hill" />
		<tag k="place" v="locality" />
		<tag k="ssr:stedsnr" v="107703" />
	</node>
	<node lat="69.19082222828496" lon="23.539785998619372" id="-56583">
		<tag k="fixme" v="consider natural=peak for the most distinct mountains in the district" />
		<tag k="name" v="Riigadievát" />
		<tag k="name:se" v="Riigadievát" />
		<tag k="natural" v="hill" />
		<tag k="place" v="locality" />
		<tag k="ssr:stedsnr" v="107691" />
	</node>
	<node lat="69.14519444723786" lon="23.012408256974396" id="-56590">
		<tag k="fixme" v="consider natural=peak for the most distinct mountains in the district" />
		<tag k="name" v="Lulit Jalgesvárri" />
		<tag k="name:se" v="Lulit Jalgesvárri" />
		<tag k="natural" v="hill" />
		<tag k="old_name:se" v="Jalgesvarri, lulit" />
		<tag k="place" v="locality" />
		<tag k="ssr:stedsnr" v="138691" />
	</node>
	<node lat="68.82455556531673" lon="24.035424834980976" id="-56592">
		<tag k="fixme" v="consider natural=peak for the most distinct mountains in the district" />
		<tag k="name" v="Humastat" />
		<tag k="name:se" v="Humastat" />
		<tag k="natural" v="hill" />
		<tag k="place" v="locality" />
		<tag k="ssr:stedsnr" v="138846" />
	</node>
	<node lat="68.74817500669515" lon="22.692977704648204" id="-56593">
		<tag k="fixme" v="consider natural=peak for the most distinct mountains in the district" />
		<tag k="name" v="Bizoaivi" />
		<tag k="name:se" v="Bizoaivi" />
		<tag k="natural" v="hill" />
		<tag k="place" v="locality" />
		<tag k="ssr:stedsnr" v="139049" />
	</node>
	<node lat="69.08473055909715" lon="22.359558270763316" id="-56595">
		<tag k="fixme" v="consider natural=peak for the most distinct mountains in the district" />
		<tag k="name" v="Rámšovárri" />
		<tag k="name:se" v="Rámšovárri" />
		<tag k="natural" v="hill" />
		<tag k="old_name:se" v="Ramšuvarri" />
		<tag k="place" v="locality" />
		<tag k="ssr:stedsnr" v="138751" />
	</node>
	<node lat="68.8917555604068" lon="24.12560817704066" id="-56596">
		<tag k="fixme" v="consider natural=peak for the most distinct mountains in the district" />
		<tag k="name" v="Bealjážat" />
		<tag k="name:se" v="Bealjážat" />
		<tag k="natural" v="hill" />
		<tag k="old_name:se" v="Bælljažat" />
		<tag k="place" v="locality" />
		<tag k="ssr:stedsnr" v="138799" />
	</node>
	<node lat="68.96926112003409" lon="23.932030415406793" id="-56599">
		<tag k="fixme" v="consider natural=peak for the most distinct mountains in the district" />
		<tag k="name" v="Áldovárri" />
		<tag k="name:se" v="Áldovárri" />
		<tag k="natural" v="hill" />
		<tag k="old_name:se" v="Alduvarri" />
		<tag k="place" v="locality" />
		<tag k="ssr:stedsnr" v="138940" />
	</node>
	<node lat="69.30433611955928" lon="24.02214153523023" id="-56603">
		<tag k="name" v="Čuđevuopmi" />
		<tag k="name:se" v="Čuđevuopmi" />
		<tag k="natural" v="valley" />
		<tag k="old_name:se" v="Čuđevuobmi" />
		<tag k="place" v="locality" />
		<tag k="ssr:stedsnr" v="139348" />
	</node>
	<node lat="68.70369445725863" lon="25.022013632978627" id="-56604">
		<tag k="name" v="Suttesvuopmi" />
		<tag k="name:se" v="Suttesvuopmi" />
		<tag k="natural" v="valley" />
		<tag k="old_name:se" v="Suddesvuobmi" />
		<tag k="place" v="locality" />
		<tag k="ssr:stedsnr" v="139239" />
	</node>
	<node lat="69.2062555584908" lon="23.785794318386614" id="-56607">
		<tag k="fixme" v="consider natural=peak for the most distinct mountains in the district" />
		<tag k="name" v="Harcačorru" />
		<tag k="name:se" v="Harcačorru" />
		<tag k="natural" v="hill" />
		<tag k="old_name:se" v="Harcačårro" />
		<tag k="place" v="locality" />
		<tag k="ssr:stedsnr" v="139559" />
	</node>
	<node lat="69.08227500653703" lon="22.98948324437566" id="-56608">
		<tag k="fixme" v="consider natural=peak for the most distinct mountains in the district" />
		<tag k="name" v="Ráigečorru" />
		<tag k="name:se" v="Ráigečorru" />
		<tag k="natural" v="hill" />
		<tag k="old_name:se" v="Raigečårro" />
		<tag k="place" v="locality" />
		<tag k="ssr:stedsnr" v="139597" />
	</node>
	<node lat="69.59185555993606" lon="23.63988045108948" id="-56609">
		<tag k="fixme" v="consider natural=peak for the most distinct mountains in the district" />
		<tag k="name" v="Luhppočorru" />
		<tag k="name:se" v="Luhppočorru" />
		<tag k="natural" v="hill" />
		<tag k="old_name:se" v="Luppučårro" />
		<tag k="place" v="locality" />
		<tag k="ssr:stedsnr" v="139598" />
	</node>
	<node lat="69.67007222578096" lon="22.91812771570142" id="-56613">
		<tag k="name" v="Guolleláhku" />
		<tag k="name:se" v="Guolleláhku" />
		<tag k="old_name:se" v="Guollelakko" />
		<tag k="place" v="locality" />
		<tag k="ssr:stedsnr" v="139745" />
	</node>
	<node lat="69.45802778158281" lon="22.61552493957136" id="-56614">
		<tag k="fixme" v="consider natural=peak for the most distinct mountains in the district" />
		<tag k="name" v="Unna Jorbesoaivváš" />
		<tag k="name:se" v="Unna Jorbesoaivváš" />
		<tag k="natural" v="hill" />
		<tag k="old_name:se" v="Jårbesoaivaš, unna" />
		<tag k="place" v="locality" />
		<tag k="ssr:stedsnr" v="139746" />
	</node>
	<node lat="69.60526111180555" lon="23.240513784812663" id="-56620">
		<tag k="fixme" v="consider natural=peak for the most distinct mountains in the district" />
		<tag k="name" v="Giđđanjoaskkegierratvárri" />
		<tag k="name:se" v="Giđđanjoaskkegierratvárri" />
		<tag k="natural" v="hill" />
		<tag k="old_name:se" v="Giđđanjoaskegierratvarri" />
		<tag k="place" v="locality" />
		<tag k="ssr:stedsnr" v="139689" />
	</node>
	<node lat="68.92385278535079" lon="23.219444342769126" id="-56626">
		<tag k="name" v="Náibesčohkka" />
		<tag k="name:se" v="Náibesčohkka" />
		<tag k="natural" v="hill" />
		<tag k="old_name:se" v="Naibesčåkka" />
		<tag k="place" v="locality" />
		<tag k="ssr:stedsnr" v="139887" />
	</node>
	<node lat="69.41200833383535" lon="23.71319431825476" id="-56632">
		<tag k="name" v="Binnečorru" />
		<tag k="name:se" v="Binnečorru" />
		<tag k="natural" v="hill" />
		<tag k="place" v="locality" />
		<tag k="ssr:stedsnr" v="151353" />
	</node>
	<node lat="69.0147194497435" lon="23.249869333135223" id="-56639">
		<tag k="name" v="Beatnatčohkka" />
		<tag k="name:se" v="Beatnatčohkka" />
		<tag k="natural" v="hill" />
		<tag k="place" v="locality" />
		<tag k="ssr:stedsnr" v="152454" />
	</node>
	<node lat="69.41201112010117" lon="23.629227653536" id="-56640">
		<tag k="fixme" v="consider natural=peak for the most distinct mountains in the district" />
		<tag k="name" v="Vuohppebuolža" />
		<tag k="name:se" v="Vuohppebuolža" />
		<tag k="natural" v="hill" />
		<tag k="place" v="locality" />
		<tag k="ssr:stedsnr" v="152702" />
	</node>
	<node lat="69.43123611309298" lon="23.683788758112787" id="-56641">
		<tag k="name" v="Girkočeabet" />
		<tag k="name:se" v="Girkočeabet" />
		<tag k="natural" v="valley" />
		<tag k="place" v="locality" />
		<tag k="ssr:stedsnr" v="152720" />
	</node>
	<node lat="68.99333611133683" lon="23.04900545160554" id="-56642">
		<tag k="name" v="Gironvárnjunni" />
		<tag k="name:se" v="Gironvárnjunni" />
		<tag k="place" v="locality" />
		<tag k="ssr:stedsnr" v="152950" />
	</node>
	<node lat="68.72994445127206" lon="24.48556924095588" id="-56643">
		<tag k="fixme" v="consider natural=peak for the most distinct mountains in the district" />
		<tag k="name" v="Gavdnjavárri" />
		<tag k="name:se" v="Gavdnjavárri" />
		<tag k="natural" v="hill" />
		<tag k="old_name:se" v="Gavdnjavarri;Gávdnjavárri" />
		<tag k="place" v="locality" />
		<tag k="ssr:stedsnr" v="260009" />
	</node>
	<node lat="68.7322611192418" lon="24.555991465672108" id="-56644">
		<tag k="fixme" v="consider natural=peak for the most distinct mountains in the district" />
		<tag k="name" v="Livlanráhppát" />
		<tag k="name:se" v="Livlanráhppát" />
		<tag k="natural" v="hill" />
		<tag k="old_name:se" v="Livlanrappat" />
		<tag k="place" v="locality" />
		<tag k="ssr:stedsnr" v="260011" />
	</node>
	<node lat="68.76293611608234" lon="22.558849925999667" id="-56645">
		<tag k="fixme" v="consider natural=peak for the most distinct mountains in the district" />
		<tag k="name" v="Skoavnnjevárri" />
		<tag k="name:se" v="Skoavnnjevárri" />
		<tag k="natural" v="hill" />
		<tag k="old_name:se" v="Skoavnjevarri;Skoavnjevárri" />
		<tag k="place" v="locality" />
		<tag k="ssr:stedsnr" v="260079" />
	</node>
	<node lat="68.95601111449201" lon="23.283444333319135" id="-56648">
		<tag k="fixme" v="consider natural=peak for the most distinct mountains in the district" />
		<tag k="name" v="Vuorašvárri" />
		<tag k="name:se" v="Vuorašvárri" />
		<tag k="natural" v="hill" />
		<tag k="old_name:se" v="Vuorašvarri" />
		<tag k="place" v="locality" />
		<tag k="ssr:stedsnr" v="260041" />
	</node>
	<node lat="68.93903889428289" lon="22.55537216192347" id="-56653">
		<tag k="fixme" v="consider natural=peak for the most distinct mountains in the district" />
		<tag k="name" v="Gomahatoaivi" />
		<tag k="name:se" v="Gomahatoaivi" />
		<tag k="natural" v="hill" />
		<tag k="old_name:se" v="Gamahatoaivi" />
		<tag k="place" v="locality" />
		<tag k="ssr:stedsnr" v="260109" />
	</node>
	<node lat="68.97179166898607" lon="22.72575824839761" id="-56655">
		<tag k="fixme" v="consider natural=peak for the most distinct mountains in the district" />
		<tag k="name" v="Ruoššádjit" />
		<tag k="name:se" v="Ruoššádjit" />
		<tag k="natural" v="hill" />
		<tag k="old_name:se" v="Ruoššaddjit" />
		<tag k="place" v="locality" />
		<tag k="ssr:stedsnr" v="260147" />
	</node>
	<node lat="68.98316111200073" lon="22.706758245354333" id="-56656">
		<tag k="fixme" v="consider natural=peak for the most distinct mountains in the district" />
		<tag k="name" v="Goaskinvárri" />
		<tag k="name:se" v="Goaskinvárri" />
		<tag k="natural" v="hill" />
		<tag k="old_name:se" v="Goaskinvarri" />
		<tag k="place" v="locality" />
		<tag k="ssr:stedsnr" v="260148" />
	</node>
	<node lat="68.64395556282531" lon="25.01912474120473" id="-56657">
		<tag k="fixme" v="consider natural=peak for the most distinct mountains in the district" />
		<tag k="name" v="Buvroaivi" />
		<tag k="name:se" v="Buvroaivi" />
		<tag k="natural" v="hill" />
		<tag k="place" v="locality" />
		<tag k="ssr:stedsnr" v="260285" />
	</node>
	<node lat="69.12370833672988" lon="23.238327668533284" id="-56659">
		<tag k="fixme" v="consider natural=peak for the most distinct mountains in the district" />
		<tag k="name" v="Mierovárgeahči" />
		<tag k="name:se" v="Mierovárgeahči" />
		<tag k="natural" v="hill" />
		<tag k="place" v="locality" />
		<tag k="ssr:stedsnr" v="167404" />
	</node>
	<node lat="69.09596945120619" lon="23.182097128953792" id="-56660">
		<tag k="fixme" v="consider natural=peak for the most distinct mountains in the district" />
		<tag k="name" v="Boatkabuolža" />
		<tag k="name:se" v="Boatkabuolža" />
		<tag k="natural" v="hill" />
		<tag k="place" v="locality" />
		<tag k="ssr:stedsnr" v="167368" />
	</node>
	<node lat="69.08768611312817" lon="23.177377676903102" id="-56661">
		<tag k="fixme" v="consider natural=peak for the most distinct mountains in the district" />
		<tag k="name" v="Mohkkejeakkedievát" />
		<tag k="name:se" v="Mohkkejeakkedievát" />
		<tag k="natural" v="hill" />
		<tag k="place" v="locality" />
		<tag k="ssr:stedsnr" v="167373" />
	</node>
	<node lat="68.88838888772828" lon="22.887686032142007" id="-56664">
		<tag k="name" v="Ruktačorru" />
		<tag k="name:se" v="Ruktačorru" />
		<tag k="natural" v="hill" />
		<tag k="place" v="locality" />
		<tag k="ssr:stedsnr" v="168006" />
	</node>
	<node lat="69.23173334073299" lon="23.84032487330943" id="-56668">
		<tag k="fixme" v="consider natural=peak for the most distinct mountains in the district" />
		<tag k="name" v="Vuoskkobuolža" />
		<tag k="name:se" v="Vuoskkobuolža" />
		<tag k="natural" v="hill" />
		<tag k="old_name:se" v="Vuoskubuolža" />
		<tag k="place" v="locality" />
		<tag k="ssr:stedsnr" v="260545" />
	</node>
	<node lat="69.23113889265771" lon="23.483155452516993" id="-56669">
		<tag k="alt_name:se" v="Riegavuopmi" />
		<tag k="name" v="Riigavuopmi" />
		<tag k="name:se" v="Riigavuopmi" />
		<tag k="natural" v="valley" />
		<tag k="old_name:se" v="Riigavuobmi" />
		<tag k="place" v="locality" />
		<tag k="ssr:stedsnr" v="260546" />
	</node>
	<node lat="69.12747500641856" lon="23.018497135924832" id="-56674">
		<tag k="fixme" v="consider natural=peak for the most distinct mountains in the district" />
		<tag k="name" v="Čoavjebohtosčohkat" />
		<tag k="name:se" v="Čoavjebohtosčohkat" />
		<tag k="natural" v="hill" />
		<tag k="old_name:se" v="Čoavjebåttusčåkkat" />
		<tag k="place" v="locality" />
		<tag k="ssr:stedsnr" v="260584" />
	</node>
	<node lat="69.17273334227994" lon="23.53452487788827" id="-56682">
		<tag k="name" v="Geaidnobuollán" />
		<tag k="name:se" v="Geaidnobuollán" />
		<tag k="natural" v="slope" />
		<tag k="place" v="locality" />
		<tag k="ssr:stedsnr" v="168709" />
	</node>
	<node lat="69.23158334116184" lon="22.979566573704883" id="-56683">
		<tag k="fixme" v="consider natural=peak for the most distinct mountains in the district" />
		<tag k="name" v="Njárgavárri" />
		<tag k="name:se" v="Njárgavárri" />
		<tag k="natural" v="hill" />
		<tag k="old_name:se" v="Njargavarri" />
		<tag k="place" v="locality" />
		<tag k="ssr:stedsnr" v="260670" />
	</node>
	<node lat="69.06220555602954" lon="22.927594354904993" id="-56684">
		<tag k="fixme" v="consider natural=peak for the most distinct mountains in the district" />
		<tag k="name" v="Geassáidmarasgeahči" />
		<tag k="name:se" v="Geassáidmarasgeahči" />
		<tag k="natural" v="hill" />
		<tag k="place" v="locality" />
		<tag k="ssr:stedsnr" v="169162" />
	</node>
	<node lat="68.83333334184019" lon="23.749352646713316" id="-56685">
		<tag k="fixme" v="consider natural=peak for the most distinct mountains in the district" />
		<tag k="name" v="Báktečohkka" />
		<tag k="name:se" v="Báktečohkka" />
		<tag k="natural" v="hill" />
		<tag k="old_name:se" v="Baktečåkka" />
		<tag k="place" v="locality" />
		<tag k="ssr:stedsnr" v="260819" />
	</node>
	<node lat="68.87574167086505" lon="24.465041466240418" id="-56688">
		<tag k="fixme" v="consider natural=peak for the most distinct mountains in the district" />
		<tag k="name" v="Čuovžavárri" />
		<tag k="name:se" v="Čuovžavárri" />
		<tag k="natural" v="hill" />
		<tag k="old_name:se" v="Čuovžavarri" />
		<tag k="place" v="locality" />
		<tag k="ssr:stedsnr" v="260866" />
	</node>
	<node lat="68.90035000820068" lon="24.930780301530337" id="-56689">
		<tag k="name" v="Háippávárri" />
		<tag k="name:se" v="Háippávárri" />
		<tag k="natural" v="hill" />
		<tag k="old_name:se" v="Haipavarri;Háippavárri" />
		<tag k="place" v="locality" />
		<tag k="ssr:stedsnr" v="260873" />
	</node>
	<node lat="68.88929167459027" lon="25.032824742467348" id="-56691">
		<tag k="fixme" v="consider natural=peak for the most distinct mountains in the district" />
		<tag k="name" v="Šuojáčohkka" />
		<tag k="name:se" v="Šuojáčohkka" />
		<tag k="natural" v="hill" />
		<tag k="old_name:se" v="Šuojačåkka;Šuojačohkka" />
		<tag k="place" v="locality" />
		<tag k="ssr:stedsnr" v="260893" />
	</node>
	<node lat="68.9084666747656" lon="23.134030454706956" id="-56692">
		<tag k="name" v="Huikinroavvi" />
		<tag k="name:se" v="Huikinroavvi" />
		<tag k="natural" v="hill" />
		<tag k="old_name:se" v="Hui'kinroavvi" />
		<tag k="place" v="locality" />
		<tag k="ssr:stedsnr" v="260930" />
	</node>
	<node lat="68.9072000050791" lon="23.77007487046751" id="-56694">
		<tag k="fixme" v="consider natural=peak for the most distinct mountains in the district" />
		<tag k="name" v="Urddotoaivi" />
		<tag k="name:se" v="Urddotoaivi" />
		<tag k="natural" v="hill" />
		<tag k="old_name:se" v="Urdutoaivi" />
		<tag k="place" v="locality" />
		<tag k="ssr:stedsnr" v="260981" />
	</node>
	<node lat="69.2501888916659" lon="23.754341543879686" id="-56702">
		<tag k="name" v="Ciikovárri" />
		<tag k="name:se" v="Ciikovárri" />
		<tag k="natural" v="hill" />
		<tag k="old_name:se" v="Ciikuvarri" />
		<tag k="place" v="locality" />
		<tag k="ssr:stedsnr" v="261274" />
	</node>
	<node lat="69.44005000549505" lon="24.08972764090355" id="-56705">
		<tag k="name" v="Guotkoaivi" />
		<tag k="name:se" v="Guotkoaivi" />
		<tag k="natural" v="hill" />
		<tag k="old_name:se" v="Guot'koai'vi" />
		<tag k="place" v="locality" />
		<tag k="ssr:stedsnr" v="261286" />
	</node>
	<node lat="69.26518333979729" lon="23.701424890732092" id="-56707">
		<tag k="alt_name:se" v="Mirkočohkka" />
		<tag k="fixme" v="consider natural=peak for the most distinct mountains in the district" />
		<tag k="name" v="Mirkovárri" />
		<tag k="name:se" v="Mirkovárri" />
		<tag k="natural" v="hill" />
		<tag k="old_name:se" v="Mirkuvarri" />
		<tag k="place" v="locality" />
		<tag k="ssr:stedsnr" v="261239" />
	</node>
	<node lat="69.24307222628761" lon="22.63880826450974" id="-56708">
		<tag k="fixme" v="consider natural=peak for the most distinct mountains in the district" />
		<tag k="name" v="Sáivvárri" />
		<tag k="name:se" v="Sáivvárri" />
		<tag k="natural" v="hill" />
		<tag k="old_name:se" v="Saivvarri" />
		<tag k="place" v="locality" />
		<tag k="ssr:stedsnr" v="261242" />
	</node>
	<node lat="69.42173056458182" lon="23.79614153424253" id="-56710">
		<tag k="fixme" v="consider natural=peak for the most distinct mountains in the district" />
		<tag k="name" v="Ávjovárnjunni" />
		<tag k="name:se" v="Ávjovárnjunni" />
		<tag k="natural" v="hill" />
		<tag k="old_name:se" v="Avjuvarnjunni" />
		<tag k="place" v="locality" />
		<tag k="ssr:stedsnr" v="261432" />
	</node>
	<node lat="69.40416111861227" lon="23.637708229020937" id="-56711">
		<tag k="name" v="Hábatbákti" />
		<tag k="name:se" v="Hábatbákti" />
		<tag k="natural" v="hill" />
		<tag k="old_name:se" v="Habatbakti" />
		<tag k="place" v="locality" />
		<tag k="ssr:stedsnr" v="261442" />
	</node>
	<node lat="69.32785556356248" lon="23.503980445227715" id="-56713">
		<tag k="name" v="Biggevárri" />
		<tag k="name:se" v="Biggevárri" />
		<tag k="natural" v="plateau" />
		<tag k="old_name:se" v="Biggevarri" />
		<tag k="ssr:stedsnr" v="261483" />
	</node>
	<node lat="69.54186667162553" lon="23.724055438969884" id="-56718">
		<tag k="fixme" v="consider natural=peak for the most distinct mountains in the district" />
		<tag k="name" v="Náránaš" />
		<tag k="name:se" v="Náránaš" />
		<tag k="natural" v="hill" />
		<tag k="old_name:se" v="Naranaš" />
		<tag k="place" v="locality" />
		<tag k="ssr:stedsnr" v="261566" />
	</node>
	<node lat="69.5825777776851" lon="23.535144334784878" id="-56723">
		<tag k="name" v="Suolovuopmi" />
		<tag k="name:se" v="Suolovuopmi" />
		<tag k="natural" v="valley" />
		<tag k="place" v="locality" />
		<tag k="ssr:stedsnr" v="261577" />
	</node>
	<node lat="69.61741944901028" lon="23.58454989179947" id="-56724">
		<tag k="fixme" v="consider natural=peak for the most distinct mountains in the district" />
		<tag k="name" v="Stuora Jalgesvárri" />
		<tag k="name:se" v="Stuora Jalgesvárri" />
		<tag k="natural" v="hill" />
		<tag k="old_name:se" v="Jalgesvarri, stuora" />
		<tag k="place" v="locality" />
		<tag k="ssr:stedsnr" v="261584" />
	</node>
	<node lat="69.60446111278522" lon="23.73319988716841" id="-56725">
		<tag k="name" v="Máranmohkki" />
		<tag k="name:se" v="Máranmohkki" />
		<tag k="natural" v="hill" />
		<tag k="old_name:se" v="Maranmåkki" />
		<tag k="place" v="locality" />
		<tag k="ssr:stedsnr" v="261585" />
	</node>
	<node lat="69.50395000444348" lon="23.66119711406526" id="-56727">
		<tag k="name" v="Gobbároavvi" />
		<tag k="name:se" v="Gobbároavvi" />
		<tag k="natural" v="hill" />
		<tag k="old_name:se" v="Gåbbaroavvi" />
		<tag k="place" v="locality" />
		<tag k="ssr:stedsnr" v="261532" />
	</node>
	<node lat="68.76646389570723" lon="24.795619218156176" id="-56730">
		<tag k="name" v="Bassečohkka" />
		<tag k="name:se" v="Bassečohkka" />
		<tag k="natural" v="hill" />
		<tag k="old_name:se" v="Bassečåkka" />
		<tag k="place" v="locality" />
		<tag k="ssr:stedsnr" v="261618" />
	</node>
	<node lat="69.52280833427044" lon="23.37514711791231" id="-56732">
		<tag k="fixme" v="consider natural=peak for the most distinct mountains in the district" />
		<tag k="name" v="Sálganoaivi" />
		<tag k="name:se" v="Sálganoaivi" />
		<tag k="natural" v="hill" />
		<tag k="old_name:se" v="Salganoaivi" />
		<tag k="place" v="locality" />
		<tag k="ssr:stedsnr" v="261665" />
	</node>
	<node lat="69.40173611233861" lon="22.78851381402768" id="-56739">
		<tag k="fixme" v="consider natural=peak for the most distinct mountains in the district" />
		<tag k="name" v="Uvlládálačorru" />
		<tag k="name:se" v="Uvlládálačorru" />
		<tag k="natural" v="hill" />
		<tag k="old_name:se" v="Uvladalačårro" />
		<tag k="place" v="locality" />
		<tag k="ssr:stedsnr" v="261776" />
	</node>
	<node lat="69.40343889149918" lon="22.39065271044921" id="-56740">
		<tag k="name" v="Giellegurra" />
		<tag k="name:se" v="Giellegurra" />
		<tag k="natural" v="valley" />
		<tag k="old_name:se" v="Giel'legurra" />
		<tag k="place" v="locality" />
		<tag k="ssr:stedsnr" v="261778" />
	</node>
	<node lat="69.68236389500119" lon="23.382780462721644" id="-56743">
		<tag k="name" v="Mihkkaljuhánanjoaski" />
		<tag k="name:se" v="Mihkkaljuhánanjoaski" />
		<tag k="natural" v="valley" />
		<tag k="old_name:se" v="Mikkaljuhananjoaski" />
		<tag k="place" v="locality" />
		<tag k="ssr:stedsnr" v="261736" />
	</node>
	<node lat="69.65583333474171" lon="22.967397157663566" id="-56745">
		<tag k="name" v="Guollegorsa" />
		<tag k="name:se" v="Guollegorsa" />
		<tag k="natural" v="valley" />
		<tag k="old_name:se" v="Guollegårsa" />
		<tag k="place" v="locality" />
		<tag k="ssr:stedsnr" v="261744" />
	</node>
	<node lat="69.38268888828664" lon="23.022311019669495" id="-56747">
		<tag k="fixme" v="consider natural=peak for the most distinct mountains in the district" />
		<tag k="name" v="Máretrávnnávárri" />
		<tag k="name:se" v="Máretrávnnávárri" />
		<tag k="natural" v="hill" />
		<tag k="old_name:se" v="Maretravnavarri" />
		<tag k="place" v="locality" />
		<tag k="ssr:stedsnr" v="261849" />
	</node>
	<node lat="69.3824499984829" lon="22.953705479618673" id="-56748">
		<tag k="fixme" v="consider natural=peak for the most distinct mountains in the district" />
		<tag k="name" v="Ribatgielas" />
		<tag k="name:se" v="Ribatgielas" />
		<tag k="natural" v="hill" />
		<tag k="place" v="locality" />
		<tag k="ssr:stedsnr" v="261850" />
	</node>
	<node lat="69.0590055608953" lon="24.48254147239577" id="-56751">
		<tag k="fixme" v="consider natural=peak for the most distinct mountains in the district" />
		<tag k="name" v="Várssámaras" />
		<tag k="name:se" v="Várssámaras" />
		<tag k="natural" v="hill" />
		<tag k="old_name:se" v="Varsamaras" />
		<tag k="place" v="locality" />
		<tag k="ssr:stedsnr" v="261856" />
	</node>
	<node lat="69.36658889363966" lon="23.26285825007007" id="-56755">
		<tag k="name" v="Goržžimaras" />
		<tag k="name:se" v="Goržžimaras" />
		<tag k="natural" v="hill" />
		<tag k="old_name:se" v="Gåržimaras" />
		<tag k="place" v="locality" />
		<tag k="ssr:stedsnr" v="261862" />
	</node>
	<node lat="69.32793055548555" lon="22.848811044716605" id="-56758">
		<tag k="name" v="Suorevággi" />
		<tag k="name:se" v="Suorevággi" />
		<tag k="natural" v="valley" />
		<tag k="old_name:se" v="Suorevaggi" />
		<tag k="place" v="locality" />
		<tag k="ssr:stedsnr" v="261872" />
	</node>
	<node lat="69.27661666669314" lon="22.927394356120804" id="-56761">
		<tag k="name" v="Gárjelvággi" />
		<tag k="name:se" v="Gárjelvággi" />
		<tag k="natural" v="valley" />
		<tag k="old_name:se" v="Garjelvaggi" />
		<tag k="place" v="locality" />
		<tag k="ssr:stedsnr" v="261892" />
	</node>
	<node lat="69.35594167174852" lon="22.79378604639808" id="-56768">
		<tag k="fixme" v="consider natural=peak for the most distinct mountains in the district" />
		<tag k="name" v="Ságge-Bihkkačohkka" />
		<tag k="name:se" v="Ságge-Bihkkačohkka" />
		<tag k="natural" v="hill" />
		<tag k="old_name:se" v="Bikkačåkka, sagge" />
		<tag k="place" v="locality" />
		<tag k="ssr:stedsnr" v="261923" />
	</node>
	<node lat="69.15251111825418" lon="24.43286370065576" id="-56773">
		<tag k="fixme" v="consider natural=peak for the most distinct mountains in the district" />
		<tag k="name" v="Mágešluhppovárri" />
		<tag k="name:se" v="Mágešluhppovárri" />
		<tag k="natural" v="hill" />
		<tag k="old_name:se" v="Magešluppuvarri" />
		<tag k="place" v="locality" />
		<tag k="ssr:stedsnr" v="261974" />
	</node>
	<node lat="69.47366389121947" lon="22.84664992668598" id="-56775">
		<tag k="name" v="Čárávži" />
		<tag k="name:se" v="Čárávži" />
		<tag k="natural" v="valley" />
		<tag k="old_name:se" v="Čaravži" />
		<tag k="place" v="locality" />
		<tag k="ssr:stedsnr" v="261983" />
	</node>
	<node lat="69.48427777733627" lon="22.88325546971229" id="-56777">
		<tag k="fixme" v="consider natural=peak for the most distinct mountains in the district" />
		<tag k="name" v="Lulit Rámšoaivi" />
		<tag k="name:se" v="Lulit Rámšoaivi" />
		<tag k="natural" v="hill" />
		<tag k="old_name:se" v="Ramšoaivi, lulit" />
		<tag k="place" v="locality" />
		<tag k="ssr:stedsnr" v="261989" />
	</node>
	<node lat="69.05952500146869" lon="22.594980487242278" id="-56781">
		<tag k="name" v="Dealljadas" />
		<tag k="name:se" v="Dealljadas" />
		<tag k="natural" v="plateau" />
		<tag k="old_name:se" v="Dælljadas" />
		<tag k="ssr:stedsnr" v="199758" />
	</node>
	<node lat="68.74716668170186" lon="24.99371084583637" id="-56786">
		<tag k="fixme" v="consider natural=peak for the most distinct mountains in the district" />
		<tag k="name" v="Suttesjohčohkka" />
		<tag k="name:se" v="Suttesjohčohkka" />
		<tag k="natural" v="hill" />
		<tag k="old_name:se" v="Suddesjåkčåkka" />
		<tag k="place" v="locality" />
		<tag k="ssr:stedsnr" v="200013" />
	</node>
	<node lat="69.22222499884525" lon="22.552561046670608" id="-56789">
		<tag k="name" v="Guorbavuopmi" />
		<tag k="name:se" v="Guorbavuopmi" />
		<tag k="natural" v="valley" />
		<tag k="old_name:se" v="Guorbavuobmi" />
		<tag k="place" v="locality" />
		<tag k="ssr:stedsnr" v="200253" />
	</node>
	<node lat="69.42985277785479" lon="23.473897118386148" id="-56791">
		<tag k="name" v="Čeavrresnjunnás" />
		<tag k="name:se" v="Čeavrresnjunnás" />
		<tag k="natural" v="plateau" />
		<tag k="old_name:se" v="Čævresnjunnas;Čeavrresnjunnas" />
		<tag k="ssr:stedsnr" v="200408" />
	</node>
	<node lat="69.36957222790745" lon="23.893641538945186" id="-56792">
		<tag k="fixme" v="consider natural=peak for the most distinct mountains in the district" />
		<tag k="name" v="Heasttabuolža" />
		<tag k="name:se" v="Heasttabuolža" />
		<tag k="natural" v="hill" />
		<tag k="old_name:se" v="Hæstabuolža" />
		<tag k="place" v="locality" />
		<tag k="ssr:stedsnr" v="200460" />
	</node>
	<node lat="69.3686944520982" lon="23.490066552859243" id="-56794">
		<tag k="name" v="Jalgesgielas" />
		<tag k="name:se" v="Jalgesgielas" />
		<tag k="natural" v="hill" />
		<tag k="old_name:se" v="Jal'gesgielas" />
		<tag k="place" v="locality" />
		<tag k="ssr:stedsnr" v="200468" />
	</node>
	<node lat="69.3583500021606" lon="23.810085993277443" id="-56795">
		<tag k="name" v="Bákterohči" />
		<tag k="name:se" v="Bákterohči" />
		<tag k="natural" v="valley" />
		<tag k="old_name:se" v="Bakteråčči" />
		<tag k="place" v="locality" />
		<tag k="ssr:stedsnr" v="200469" />
	</node>
	<node lat="69.395847226608" lon="24.230933175661495" id="-56796">
		<tag k="fixme" v="consider natural=peak for the most distinct mountains in the district" />
		<tag k="name" v="Rihtávárri" />
		<tag k="name:se" v="Rihtávárri" />
		<tag k="natural" v="hill" />
		<tag k="old_name:se" v="Rittavarri" />
		<tag k="place" v="locality" />
		<tag k="ssr:stedsnr" v="200310" />
	</node>
	<node lat="69.44432500427459" lon="23.889163748860092" id="-56798">
		<tag k="fixme" v="consider natural=peak for the most distinct mountains in the district" />
		<tag k="name" v="Riimmagielas" />
		<tag k="name:se" v="Riimmagielas" />
		<tag k="natural" v="hill" />
		<tag k="old_name:se" v="Riimagielas" />
		<tag k="place" v="locality" />
		<tag k="ssr:stedsnr" v="200400" />
	</node>
	<node lat="69.5613944447918" lon="23.39648602298055" id="-56800">
		<tag k="fixme" v="consider natural=peak for the most distinct mountains in the district" />
		<tag k="name" v="Suoidnebuolža" />
		<tag k="name:se" v="Suoidnebuolža" />
		<tag k="natural" v="hill" />
		<tag k="old_name:se" v="Suoi'dnebuol'ža" />
		<tag k="place" v="locality" />
		<tag k="ssr:stedsnr" v="200692" />
	</node>
	<node lat="69.67005833631333" lon="22.963849928255748" id="-56804">
		<tag k="name" v="Ráidogeaidnu" />
		<tag k="name:se" v="Ráidogeaidnu" />
		<tag k="old_name:se" v="Raidugæidno" />
		<tag k="place" v="locality" />
		<tag k="ssr:stedsnr" v="200746" />
	</node>
	<node lat="68.85134167089637" lon="23.54190265274516" id="-56805">
		<tag k="fixme" v="consider natural=peak for the most distinct mountains in the district" />
		<tag k="name" v="Jeagelbordingielas" />
		<tag k="name:se" v="Jeagelbordingielas" />
		<tag k="natural" v="hill" />
		<tag k="old_name:se" v="Jægelbårdingielas" />
		<tag k="place" v="locality" />
		<tag k="ssr:stedsnr" v="200750" />
	</node>
	<node lat="68.81596945061942" lon="23.05349156892625" id="-56808">
		<tag k="fixme" v="consider natural=peak for the most distinct mountains in the district" />
		<tag k="name" v="Lávkavárri" />
		<tag k="name:se" v="Lávkavárri" />
		<tag k="natural" v="hill" />
		<tag k="old_name:se" v="Lavkavarri" />
		<tag k="place" v="locality" />
		<tag k="ssr:stedsnr" v="200906" />
	</node>
	<node lat="69.26312778167734" lon="22.93301102022585" id="-56809">
		<tag k="fixme" v="consider natural=peak for the most distinct mountains in the district" />
		<tag k="name" v="Geašvárri" />
		<tag k="name:se" v="Geašvárri" />
		<tag k="natural" v="hill" />
		<tag k="old_name:se" v="Gæšvarri" />
		<tag k="place" v="locality" />
		<tag k="ssr:stedsnr" v="200911" />
	</node>
	<node lat="69.3326083376952" lon="23.407641565885207" id="-56810">
		<tag k="name" v="Biggeráhppát" />
		<tag k="name:se" v="Biggeráhppát" />
		<tag k="natural" v="valley" />
		<tag k="old_name:se" v="Biggerappat" />
		<tag k="place" v="locality" />
		<tag k="ssr:stedsnr" v="200896" />
	</node>
	<node lat="69.09498333422232" lon="23.801280425545094" id="-56811">
		<tag k="name" v="Náhpolvuopmi" />
		<tag k="name:se" v="Náhpolvuopmi" />
		<tag k="natural" v="valley" />
		<tag k="old_name:se" v="Nappul-vuobmi" />
		<tag k="place" v="locality" />
		<tag k="ssr:stedsnr" v="200945" />
	</node>
	<node lat="68.75432500518126" lon="22.828230460263942" id="-56812">
		<tag k="fixme" v="consider natural=peak for the most distinct mountains in the district" />
		<tag k="name" v="Vađavuolesvárri" />
		<tag k="name:se" v="Vađavuolesvárri" />
		<tag k="natural" v="hill" />
		<tag k="old_name:se" v="Vađavuolesvarri" />
		<tag k="place" v="locality" />
		<tag k="ssr:stedsnr" v="200948" />
	</node>
	<node lat="69.41218333784839" lon="23.064122134936373" id="-56815">
		<tag k="fixme" v="consider natural=peak for the most distinct mountains in the district" />
		<tag k="name" v="Gáranasčohkka" />
		<tag k="name:se" v="Gáranasčohkka" />
		<tag k="natural" v="hill" />
		<tag k="old_name:se" v="Garanasčåkka" />
		<tag k="place" v="locality" />
		<tag k="ssr:stedsnr" v="200997" />
	</node>
	<node lat="69.47243611865072" lon="23.526811002557768" id="-56817">
		<tag k="name" v="Váksačorru" />
		<tag k="name:se" v="Váksačorru" />
		<tag k="natural" v="hill" />
		<tag k="old_name:se" v="Våksačårro" />
		<tag k="place" v="locality" />
		<tag k="ssr:stedsnr" v="201365" />
	</node>
	<node lat="69.35263611327163" lon="24.179138743837616" id="-56818">
		<tag k="fixme" v="consider natural=peak for the most distinct mountains in the district" />
		<tag k="name" v="Hohtevárri" />
		<tag k="name:se" v="Hohtevárri" />
		<tag k="natural" v="hill" />
		<tag k="old_name:se" v="Håttevarri" />
		<tag k="place" v="locality" />
		<tag k="ssr:stedsnr" v="201298" />
	</node>
	<node lat="69.46146944841145" lon="23.710077658335592" id="-56823">
		<tag k="name" v="Heargeluohkká" />
		<tag k="name:se" v="Heargeluohkká" />
		<tag k="natural" v="slope" />
		<tag k="place" v="locality" />
		<tag k="ssr:stedsnr" v="213277" />
	</node>
	<node lat="69.42583889179704" lon="23.62334432396301" id="-56827">
		<tag k="name" v="Ruvža" />
		<tag k="name:se" v="Ruvža" />
		<tag k="natural" v="hill" />
		<tag k="place" v="locality" />
		<tag k="ssr:stedsnr" v="213695" />
	</node>
	<node lat="68.99203889123476" lon="23.01869435024172" id="-56829">
		<tag k="fixme" v="consider natural=peak for the most distinct mountains in the district" />
		<tag k="name" v="Milliidvárri" />
		<tag k="name:se" v="Milliidvárri" />
		<tag k="natural" v="hill" />
		<tag k="place" v="locality" />
		<tag k="ssr:stedsnr" v="213578" />
	</node>
	<node lat="69.05438611842911" lon="23.13589989798316" id="-56830">
		<tag k="name" v="Eanojárrápma" />
		<tag k="name:se" v="Eanojárrápma" />
		<tag k="natural" v="slope" />
		<tag k="place" v="locality" />
		<tag k="ssr:stedsnr" v="213581" />
	</node>
	<node lat="69.10107778147741" lon="23.164183247509666" id="-56840">
		<tag k="fixme" v="consider natural=peak for the most distinct mountains in the district" />
		<tag k="name" v="Ovllámaras" />
		<tag k="name:se" v="Ovllámaras" />
		<tag k="natural" v="hill" />
		<tag k="place" v="locality" />
		<tag k="ssr:stedsnr" v="228397" />
	</node>
	<node lat="68.83026111471658" lon="23.368122097253426" id="-56844">
		<tag k="name" v="Fállečorru" />
		<tag k="name:se" v="Fállečorru" />
		<tag k="natural" v="hill" />
		<tag k="place" v="locality" />
		<tag k="ssr:stedsnr" v="229437" />
	</node>
	<node lat="68.91224444557675" lon="22.85167769091052" id="-56847">
		<tag k="fixme" v="consider natural=peak for the most distinct mountains in the district" />
		<tag k="name" v="Čehporašmaras" />
		<tag k="name:se" v="Čehporašmaras" />
		<tag k="natural" v="hill" />
		<tag k="place" v="locality" />
		<tag k="ssr:stedsnr" v="229932" />
	</node>
	<node lat="69.16180555966793" lon="23.466913774710743" id="-56849">
		<tag k="name" v="Gáhkkorčohkka" />
		<tag k="name:se" v="Gáhkkorčohkka" />
		<tag k="natural" v="hill" />
		<tag k="place" v="locality" />
		<tag k="ssr:stedsnr" v="450121" />
	</node>
	<node lat="69.13617500156535" lon="23.36810823062965" id="-56853">
		<tag k="name" v="Heargedievvá" />
		<tag k="name:se" v="Heargedievvá" />
		<tag k="natural" v="hill" />
		<tag k="place" v="locality" />
		<tag k="ssr:stedsnr" v="450354" />
	</node>
	<node lat="69.44981666753417" lon="23.676597102504413" id="-56867">
		<tag k="name" v="Mielleguolbban" />
		<tag k="name:se" v="Mielleguolbban" />
		<tag k="place" v="locality" />
		<tag k="ssr:stedsnr" v="456720" />
	</node>
	<node lat="69.4335333375448" lon="23.67756655567544" id="-56869">
		<tag k="name" v="Láittanjunni" />
		<tag k="name:se" v="Láittanjunni" />
		<tag k="place" v="locality" />
		<tag k="ssr:stedsnr" v="456695" />
	</node>
	<node lat="69.04526666639157" lon="23.09260824281783" id="-56872">
		<tag k="name" v="Ánddindievvá" />
		<tag k="name:se" v="Ánddindievvá" />
		<tag k="natural" v="hill" />
		<tag k="place" v="locality" />
		<tag k="ssr:stedsnr" v="456890" />
	</node>
	<node lat="69.04192777867713" lon="23.11314713911156" id="-56873">
		<tag k="name" v="Rievssatmielli" />
		<tag k="name:se" v="Rievssatmielli" />
		<tag k="natural" v="slope" />
		<tag k="place" v="locality" />
		<tag k="ssr:stedsnr" v="456908" />
	</node>
	<node lat="69.05215556279387" lon="23.108208242471292" id="-56874">
		<tag k="name" v="Boaimmašgeađgi" />
		<tag k="name:se" v="Boaimmašgeađgi" />
		<tag k="natural" v="hill" />
		<tag k="place" v="locality" />
		<tag k="ssr:stedsnr" v="456911" />
	</node>
	<node lat="68.97978333828078" lon="23.111613794938375" id="-56879">
		<tag k="fixme" v="consider natural=peak for the most distinct mountains in the district" />
		<tag k="name" v="Liige-Joppevárri" />
		<tag k="name:se" v="Liige-Joppevárri" />
		<tag k="natural" v="hill" />
		<tag k="place" v="locality" />
		<tag k="ssr:stedsnr" v="456943" />
	</node>
	<node lat="68.97593611158574" lon="23.044663801642425" id="-56884">
		<tag k="name" v="Juhánaš-Juhánadievvá" />
		<tag k="name:se" v="Juhánaš-Juhánadievvá" />
		<tag k="natural" v="hill" />
		<tag k="place" v="locality" />
		<tag k="ssr:stedsnr" v="456952" />
	</node>
	<node lat="68.92818055883109" lon="22.6377082678085" id="-56885">
		<tag k="name" v="Fállávži" />
		<tag k="name:se" v="Fállávži" />
		<tag k="natural" v="valley" />
		<tag k="old_name:se" v="Fallavži" />
		<tag k="place" v="locality" />
		<tag k="ssr:stedsnr" v="260105" />
	</node>
	<node lat="68.92697778025405" lon="22.80192213465779" id="-56886">
		<tag k="fixme" v="consider natural=peak for the most distinct mountains in the district" />
		<tag k="name" v="Ruškesmaras" />
		<tag k="name:se" v="Ruškesmaras" />
		<tag k="natural" v="hill" />
		<tag k="old_name:se" v="Ruš'kesmaras" />
		<tag k="place" v="locality" />
		<tag k="ssr:stedsnr" v="260107" />
	</node>
	<node lat="69.07993333722449" lon="23.161633238275144" id="-56889">
		<tag k="name" v="Juntevađđa" />
		<tag k="name:se" v="Juntevađđa" />
		<tag k="place" v="locality" />
		<tag k="ssr:stedsnr" v="260606" />
	</node>
	<node lat="68.87460555874048" lon="23.44084988064513" id="-56893">
		<tag k="name" v="Balddonasdievvá" />
		<tag k="name:se" v="Balddonasdievvá" />
		<tag k="natural" v="hill" />
		<tag k="old_name:se" v="Baldunasdievva" />
		<tag k="place" v="locality" />
		<tag k="ssr:stedsnr" v="260806" />
	</node>
	<node lat="68.7579888929363" lon="24.281735918931123" id="-56896">
		<tag k="name" v="Kárášjohgorsa" />
		<tag k="name:se" v="Kárášjohgorsa" />
		<tag k="natural" v="valley" />
		<tag k="place" v="locality" />
		<tag k="ssr:stedsnr" v="260856" />
	</node>
	<node lat="68.95232500682732" lon="24.77612477660048" id="-56900">
		<tag k="name" v="Čohkkamaras" />
		<tag k="name:se" v="Čohkkamaras" />
		<tag k="natural" v="hill" />
		<tag k="old_name:se" v="Čåkkamaras" />
		<tag k="place" v="locality" />
		<tag k="ssr:stedsnr" v="260910" />
	</node>
	<node lat="69.21827222659127" lon="22.782347141478127" id="-56906">
		<tag k="fixme" v="consider natural=peak for the most distinct mountains in the district" />
		<tag k="name" v="Čáhppesvárri" />
		<tag k="name:se" v="Čáhppesvárri" />
		<tag k="natural" v="hill" />
		<tag k="old_name:se" v="Čappesvarri" />
		<tag k="place" v="locality" />
		<tag k="ssr:stedsnr" v="261256" />
	</node>
	<node lat="69.30398611483747" lon="23.604708220975457" id="-56909">
		<tag k="alt_name:se" v="Gorževárri" />
		<tag k="fixme" v="consider natural=peak for the most distinct mountains in the district" />
		<tag k="name" v="Goržživárri" />
		<tag k="name:se" v="Goržživárri" />
		<tag k="natural" v="hill" />
		<tag k="old_name:se" v="Gårživarri" />
		<tag k="place" v="locality" />
		<tag k="ssr:stedsnr" v="261503" />
	</node>
	<node lat="69.4194777804097" lon="22.75524993082317" id="-56919">
		<tag k="name" v="Áitevággi" />
		<tag k="name:se" v="Áitevággi" />
		<tag k="natural" v="valley" />
		<tag k="old_name:se" v="Aitevaggi" />
		<tag k="place" v="locality" />
		<tag k="ssr:stedsnr" v="261751" />
	</node>
	<node lat="69.04240277823907" lon="23.152413781294417" id="-56929">
		<tag k="fixme" v="consider natural=peak for the most distinct mountains in the district" />
		<tag k="name" v="Ráikkovađđa" />
		<tag k="name:se" v="Ráikkovađđa" />
		<tag k="natural" v="hill" />
		<tag k="place" v="locality" />
		<tag k="ssr:stedsnr" v="274522" />
	</node>
	<node lat="69.04358333260545" lon="23.001902683167" id="-56933">
		<tag k="name" v="Ginalvárčohkka" />
		<tag k="name:se" v="Ginalvárčohkka" />
		<tag k="natural" v="hill" />
		<tag k="place" v="locality" />
		<tag k="ssr:stedsnr" v="274914" />
	</node>
	<node lat="69.05159167046698" lon="22.852599906573538" id="-56934">
		<tag k="fixme" v="consider natural=peak for the most distinct mountains in the district" />
		<tag k="name" v="Goaskinvárseibboš" />
		<tag k="name:se" v="Goaskinvárseibboš" />
		<tag k="natural" v="hill" />
		<tag k="place" v="locality" />
		<tag k="ssr:stedsnr" v="289095" />
	</node>
	<node lat="69.0847916686373" lon="23.26099712101101" id="-56935">
		<tag k="fixme" v="consider natural=peak for the most distinct mountains in the district" />
		<tag k="name" v="Seibboš" />
		<tag k="name:se" v="Seibboš" />
		<tag k="natural" v="hill" />
		<tag k="place" v="locality" />
		<tag k="ssr:stedsnr" v="289332" />
	</node>
	<node lat="69.35785834166435" lon="24.08276375380409" id="-56937">
		<tag k="fixme" v="consider natural=peak for the most distinct mountains in the district" />
		<tag k="name" v="Vuottašvárebáhkki" />
		<tag k="name:se" v="Vuottašvárebáhkki" />
		<tag k="natural" v="hill" />
		<tag k="place" v="locality" />
		<tag k="ssr:stedsnr" v="289428" />
	</node>
	<node lat="69.36721944928716" lon="24.10701097421435" id="-56938">
		<tag k="name" v="Eahpárašgurra" />
		<tag k="name:se" v="Eahpárašgurra" />
		<tag k="natural" v="valley" />
		<tag k="place" v="locality" />
		<tag k="ssr:stedsnr" v="289430" />
	</node>
	<node lat="69.35481389609369" lon="23.458863792749806" id="-56941">
		<tag k="name" v="Čahca" />
		<tag k="name:se" v="Čahca" />
		<tag k="natural" v="valley" />
		<tag k="place" v="locality" />
		<tag k="ssr:stedsnr" v="289996" />
	</node>
	<node lat="69.26503333428288" lon="23.476113768017985" id="-56947">
		<tag k="name" v="Eahpárašbalssat" />
		<tag k="name:se" v="Eahpárašbalssat" />
		<tag k="natural" v="hill" />
		<tag k="old_name:se" v="Æpparasbalsat" />
		<tag k="place" v="locality" />
		<tag k="ssr:stedsnr" v="321234" />
	</node>
	<node lat="69.16134166838812" lon="23.357194327554875" id="-56951">
		<tag k="fixme" v="consider natural=peak for the most distinct mountains in the district" />
		<tag k="name" v="Luossaroavvi" />
		<tag k="name:se" v="Luossaroavvi" />
		<tag k="natural" v="hill" />
		<tag k="place" v="locality" />
		<tag k="ssr:stedsnr" v="321620" />
	</node>
	<node lat="69.17354166917141" lon="22.94006103102913" id="-56952">
		<tag k="fixme" v="consider natural=peak for the most distinct mountains in the district" />
		<tag k="name" v="Roggegierratvárri" />
		<tag k="name:se" v="Roggegierratvárri" />
		<tag k="natural" v="hill" />
		<tag k="old_name:se" v="Råggegierratvarri" />
		<tag k="place" v="locality" />
		<tag k="ssr:stedsnr" v="321621" />
	</node>
	<node lat="69.20866944622104" lon="23.383561015273855" id="-56953">
		<tag k="name" v="Luossačahca" />
		<tag k="name:se" v="Luossačahca" />
		<tag k="natural" v="valley" />
		<tag k="old_name:se" v="Luossačacca" />
		<tag k="place" v="locality" />
		<tag k="ssr:stedsnr" v="321628" />
	</node>
	<node lat="69.1938138956928" lon="22.978580465071268" id="-56954">
		<tag k="name" v="Vuoskkočohkka" />
		<tag k="name:se" v="Vuoskkočohkka" />
		<tag k="natural" v="hill" />
		<tag k="old_name:se" v="Vuoskučåkka" />
		<tag k="place" v="locality" />
		<tag k="ssr:stedsnr" v="321629" />
	</node>
	<node lat="69.19025000212432" lon="23.096008245427345" id="-56955">
		<tag k="fixme" v="consider natural=peak for the most distinct mountains in the district" />
		<tag k="name" v="Ruvžačorru" />
		<tag k="name:se" v="Ruvžačorru" />
		<tag k="natural" v="hill" />
		<tag k="old_name:se" v="Ruvžačårro" />
		<tag k="place" v="locality" />
		<tag k="ssr:stedsnr" v="321631" />
	</node>
	<node lat="69.20440000511057" lon="23.05755268059485" id="-56956">
		<tag k="fixme" v="consider natural=peak for the most distinct mountains in the district" />
		<tag k="name" v="Lulli-Likčá" />
		<tag k="name:se" v="Lulli-Likčá" />
		<tag k="natural" v="hill" />
		<tag k="old_name:se" v="Likča, lulli;Lulli Likča" />
		<tag k="place" v="locality" />
		<tag k="ssr:stedsnr" v="321633" />
	</node>
	<node lat="69.66455000664233" lon="23.602024884410266" id="-56960">
		<tag k="fixme" v="consider natural=peak for the most distinct mountains in the district" />
		<tag k="name" v="Luvddiidčohkka - Lodiken" />
		<tag k="name:no" v="Lodiken" />
		<tag k="name:se" v="Luvddiidčohkka" />
		<tag k="natural" v="hill" />
		<tag k="old_name:se" v="Luvdiidčåkka" />
		<tag k="place" v="locality" />
		<tag k="ssr:stedsnr" v="321592" />
	</node>
	<node lat="68.97796389914608" lon="24.143985948149894" id="-56963">
		<tag k="fixme" v="consider natural=peak for the most distinct mountains in the district" />
		<tag k="name" v="Áhkkanasvárri" />
		<tag k="name:se" v="Áhkkanasvárri" />
		<tag k="natural" v="hill" />
		<tag k="old_name:se" v="Akkanasvarri" />
		<tag k="place" v="locality" />
		<tag k="ssr:stedsnr" v="321787" />
	</node>
	<node lat="69.56943333358106" lon="23.232763804536408" id="-56968">
		<tag k="fixme" v="consider natural=peak for the most distinct mountains in the district" />
		<tag k="name" v="Várdevákkečohkka" />
		<tag k="name:se" v="Várdevákkečohkka" />
		<tag k="natural" v="hill" />
		<tag k="old_name:se" v="Vardevaggečåkka" />
		<tag k="place" v="locality" />
		<tag k="ssr:stedsnr" v="321681" />
	</node>
	<node lat="68.90825001060983" lon="24.696027554441834" id="-56971">
		<tag k="name" v="Josátbuolža" />
		<tag k="name:se" v="Josátbuolža" />
		<tag k="natural" v="hill" />
		<tag k="old_name:se" v="Jåsatbuolža" />
		<tag k="place" v="locality" />
		<tag k="ssr:stedsnr" v="321827" />
	</node>
	<node lat="69.5986527842658" lon="23.52607767663244" id="-56978">
		<tag k="name" v="Gufihtarboldni" />
		<tag k="name:se" v="Gufihtarboldni" />
		<tag k="natural" v="hill" />
		<tag k="old_name:se" v="Gufittarbåldni" />
		<tag k="place" v="locality" />
		<tag k="ssr:stedsnr" v="322585" />
	</node>
	<node lat="69.52612500246818" lon="22.93706380071858" id="-56980">
		<tag k="fixme" v="consider natural=peak for the most distinct mountains in the district" />
		<tag k="name" v="Jeardnoaivi" />
		<tag k="name:se" v="Jeardnoaivi" />
		<tag k="natural" v="hill" />
		<tag k="old_name:se" v="Jærdnoaivi" />
		<tag k="place" v="locality" />
		<tag k="ssr:stedsnr" v="322681" />
	</node>
	<node lat="69.64678056049023" lon="23.364508243393537" id="-56981">
		<tag k="fixme" v="consider natural=peak for the most distinct mountains in the district" />
		<tag k="name" v="Vuovdejárčohkka" />
		<tag k="name:se" v="Vuovdejárčohkka" />
		<tag k="natural" v="hill" />
		<tag k="old_name:se" v="Vuovdejarčåkka" />
		<tag k="place" v="locality" />
		<tag k="ssr:stedsnr" v="322725" />
	</node>
	<node lat="69.45100833404825" lon="22.36781381837727" id="-56982">
		<tag k="fixme" v="consider natural=peak for the most distinct mountains in the district" />
		<tag k="name" v="Juovvavárri" />
		<tag k="name:se" v="Juovvavárri" />
		<tag k="natural" v="hill" />
		<tag k="old_name:se" v="Juovvavarri" />
		<tag k="place" v="locality" />
		<tag k="ssr:stedsnr" v="322775" />
	</node>
	<node lat="69.38723888693983" lon="22.696586045922643" id="-56984">
		<tag k="fixme" v="consider natural=peak for the most distinct mountains in the district" />
		<tag k="name" v="Ráhppáidvárri" />
		<tag k="name:se" v="Ráhppáidvárri" />
		<tag k="natural" v="hill" />
		<tag k="old_name:se" v="Rappaidvarri" />
		<tag k="place" v="locality" />
		<tag k="ssr:stedsnr" v="322782" />
	</node>
	<node lat="69.09135278778294" lon="24.148330399282532" id="-56985">
		<tag k="name" v="Fielbmadievát" />
		<tag k="name:se" v="Fielbmadievát" />
		<tag k="natural" v="hill" />
		<tag k="old_name:se" v="Fielbmadievat" />
		<tag k="place" v="locality" />
		<tag k="ssr:stedsnr" v="322902" />
	</node>
	<node lat="69.29087777935032" lon="22.91163047811852" id="-56987">
		<tag k="fixme" v="consider natural=peak for the most distinct mountains in the district" />
		<tag k="name" v="Gárjelčohkka" />
		<tag k="name:se" v="Gárjelčohkka" />
		<tag k="natural" v="hill" />
		<tag k="old_name:se" v="Garjelčåkka" />
		<tag k="place" v="locality" />
		<tag k="ssr:stedsnr" v="322909" />
	</node>
	<node lat="69.09295556045218" lon="22.874661038424332" id="-56991">
		<tag k="name" v="Čuojábákti" />
		<tag k="name:se" v="Čuojábákti" />
		<tag k="natural" v="hill" />
		<tag k="place" v="locality" />
		<tag k="ssr:stedsnr" v="471090" />
	</node>
	<node lat="68.78538611243657" lon="23.272683225622757" id="-56993">
		<tag k="fixme" v="consider natural=peak for the most distinct mountains in the district" />
		<tag k="name" v="Njealjášbuolža" />
		<tag k="name:se" v="Njealjášbuolža" />
		<tag k="natural" v="hill" />
		<tag k="place" v="locality" />
		<tag k="ssr:stedsnr" v="471239" />
	</node>
	<node lat="68.99564444553455" lon="23.225544334878478" id="-56996">
		<tag k="name" v="Ahkebea" />
		<tag k="name:se" v="Ahkebea" />
		<tag k="place" v="locality" />
		<tag k="ssr:stedsnr" v="334098" />
	</node>
	<node lat="69.3898694506356" lon="23.607538770265716" id="-56998">
		<tag k="name" v="Suhpegorsa" />
		<tag k="name:se" v="Suhpegorsa" />
		<tag k="natural" v="valley" />
		<tag k="place" v="locality" />
		<tag k="ssr:stedsnr" v="334255" />
	</node>
	<node lat="69.07536388798201" lon="22.94316657996438" id="-57000">
		<tag k="name" v="Doktahuikinčorru" />
		<tag k="name:se" v="Doktahuikinčorru" />
		<tag k="natural" v="hill" />
		<tag k="place" v="locality" />
		<tag k="ssr:stedsnr" v="334201" />
	</node>
	<node lat="69.40965277780526" lon="23.733547110628905" id="-57002">
		<tag k="fixme" v="consider natural=peak for the most distinct mountains in the district" />
		<tag k="name" v="Sevdnjeseatnamat" />
		<tag k="name:se" v="Sevdnjeseatnamat" />
		<tag k="natural" v="hill" />
		<tag k="place" v="locality" />
		<tag k="ssr:stedsnr" v="334298" />
	</node>
	<node lat="68.99980833580304" lon="22.987541587689574" id="-57005">
		<tag k="name" v="Bávváljárčorru" />
		<tag k="name:se" v="Bávváljárčorru" />
		<tag k="natural" v="hill" />
		<tag k="place" v="locality" />
		<tag k="ssr:stedsnr" v="334508" />
	</node>
	<node lat="69.00362778116023" lon="22.99721657369698" id="-57007">
		<tag k="name" v="Doaresmaras" />
		<tag k="name:se" v="Doaresmaras" />
		<tag k="natural" v="hill" />
		<tag k="place" v="locality" />
		<tag k="ssr:stedsnr" v="334510" />
	</node>
	<node lat="69.05027222335487" lon="23.09550546964528" id="-57012">
		<tag k="fixme" v="consider natural=peak for the most distinct mountains in the district" />
		<tag k="name" v="Várri" />
		<tag k="name:se" v="Várri" />
		<tag k="natural" v="hill" />
		<tag k="place" v="locality" />
		<tag k="ssr:stedsnr" v="334895" />
	</node>
	<node lat="68.99788889419608" lon="23.096124911618233" id="-57015">
		<tag k="fixme" v="consider natural=peak for the most distinct mountains in the district" />
		<tag k="name" v="Máttavárri" />
		<tag k="name:se" v="Máttavárri" />
		<tag k="natural" v="hill" />
		<tag k="place" v="locality" />
		<tag k="ssr:stedsnr" v="334994" />
	</node>
	<node lat="69.10768333774335" lon="23.1619193613188" id="-57018">
		<tag k="name" v="Goivvohat" />
		<tag k="name:se" v="Goivvohat" />
		<tag k="natural" v="valley" />
		<tag k="place" v="locality" />
		<tag k="ssr:stedsnr" v="471393" />
	</node>
	<node lat="69.13175833406277" lon="23.299458219474573" id="-57022">
		<tag k="name" v="Roavotluohkká" />
		<tag k="name:se" v="Roavotluohkká" />
		<tag k="natural" v="slope" />
		<tag k="place" v="locality" />
		<tag k="ssr:stedsnr" v="471583" />
	</node>
	<node lat="69.37300833778092" lon="23.483080454985227" id="-57026">
		<tag k="fixme" v="consider natural=peak for the most distinct mountains in the district" />
		<tag k="name" v="Čuorvundievvá" />
		<tag k="name:se" v="Čuorvundievvá" />
		<tag k="natural" v="hill" />
		<tag k="place" v="locality" />
		<tag k="ssr:stedsnr" v="471455" />
	</node>
	<node lat="69.17750278575429" lon="23.586844318938645" id="-57032">
		<tag k="fixme" v="consider natural=peak for the most distinct mountains in the district" />
		<tag k="name" v="Geaidnočorru" />
		<tag k="name:se" v="Geaidnočorru" />
		<tag k="natural" v="hill" />
		<tag k="place" v="locality" />
		<tag k="ssr:stedsnr" v="471708" />
	</node>
	<node lat="69.2953555578651" lon="23.567383229542706" id="-57033">
		<tag k="name" v="Hoigadanmohkki" />
		<tag k="name:se" v="Hoigadanmohkki" />
		<tag k="natural" v="valley" />
		<tag k="place" v="locality" />
		<tag k="ssr:stedsnr" v="471984" />
	</node>
	<node lat="69.04146389065083" lon="22.894422148913264" id="-57034">
		<tag k="fixme" v="consider natural=peak for the most distinct mountains in the district" />
		<tag k="name" v="Oivvošdievvá" />
		<tag k="name:se" v="Oivvošdievvá" />
		<tag k="natural" v="hill" />
		<tag k="place" v="locality" />
		<tag k="ssr:stedsnr" v="472181" />
	</node>
	<node lat="69.0935388944422" lon="23.132788802241205" id="-57043">
		<tag k="fixme" v="consider natural=peak for the most distinct mountains in the district" />
		<tag k="name" v="Vuovdemaras" />
		<tag k="name:se" v="Vuovdemaras" />
		<tag k="natural" v="hill" />
		<tag k="place" v="locality" />
		<tag k="ssr:stedsnr" v="349416" />
	</node>
	<node lat="68.86455834101533" lon="23.15011378356502" id="-57046">
		<tag k="name" v="Siebebuollán" />
		<tag k="name:se" v="Siebebuollán" />
		<tag k="place" v="locality" />
		<tag k="ssr:stedsnr" v="349313" />
	</node>
	<node lat="69.17792222168491" lon="23.466491562552605" id="-57057">
		<tag k="name" v="Gaskasgurra" />
		<tag k="name:se" v="Gaskasgurra" />
		<tag k="natural" v="valley" />
		<tag k="place" v="locality" />
		<tag k="ssr:stedsnr" v="350669" />
	</node>
	<node lat="68.67537730487072" lon="24.804358048220305" id="-57060">
		<tag k="fixme" v="consider natural=peak for the most distinct mountains in the district" />
		<tag k="name" v="Luossaoaivvit" />
		<tag k="name:se" v="Luossaoaivvit" />
		<tag k="natural" v="hill" />
		<tag k="old_name:se" v="Luossaoaivit" />
		<tag k="place" v="locality" />
		<tag k="ssr:stedsnr" v="381276" />
	</node>
	<node lat="68.86630833442004" lon="23.69562487129618" id="-57066">
		<tag k="fixme" v="consider natural=peak for the most distinct mountains in the district" />
		<tag k="name" v="Gumpegielasnibba" />
		<tag k="name:se" v="Gumpegielasnibba" />
		<tag k="natural" v="hill" />
		<tag k="old_name:se" v="Gum'pegielasnib'ba" />
		<tag k="place" v="locality" />
		<tag k="ssr:stedsnr" v="381809" />
	</node>
	<node lat="68.9265250026031" lon="23.37982209995406" id="-57070">
		<tag k="fixme" v="consider natural=peak for the most distinct mountains in the district" />
		<tag k="name" v="Boagánvárri" />
		<tag k="name:se" v="Boagánvárri" />
		<tag k="natural" v="hill" />
		<tag k="old_name:se" v="Boaganvarri" />
		<tag k="place" v="locality" />
		<tag k="ssr:stedsnr" v="381912" />
	</node>
	<node lat="69.6461416717249" lon="23.496494333904366" id="-57076">
		<tag k="fixme" v="consider natural=peak for the most distinct mountains in the district" />
		<tag k="name" v="Dápmotvárri" />
		<tag k="name:se" v="Dápmotvárri" />
		<tag k="natural" v="hill" />
		<tag k="old_name:se" v="Dabmutvarri" />
		<tag k="place" v="locality" />
		<tag k="ssr:stedsnr" v="382602" />
	</node>
	<node lat="69.67265000563256" lon="23.543116552589233" id="-57078">
		<tag k="name" v="Stálljačorru" />
		<tag k="name:se" v="Stálljačorru" />
		<tag k="natural" v="hill" />
		<tag k="old_name:se" v="Stalljačårro" />
		<tag k="place" v="locality" />
		<tag k="ssr:stedsnr" v="382612" />
	</node>
	<node lat="69.57803889429462" lon="23.819727651686783" id="-57082">
		<tag k="fixme" v="consider natural=peak for the most distinct mountains in the district" />
		<tag k="name" v="Nagiroaivi" />
		<tag k="name:se" v="Nagiroaivi" />
		<tag k="natural" v="hill" />
		<tag k="old_name:se" v="Nagiroaivvi" />
		<tag k="place" v="locality" />
		<tag k="ssr:stedsnr" v="382555" />
	</node>
	<node lat="69.48096389041937" lon="22.7471027193358" id="-57083">
		<tag k="fixme" v="consider natural=peak for the most distinct mountains in the district" />
		<tag k="name" v="Geassenoaivvit" />
		<tag k="name:se" v="Geassenoaivvit" />
		<tag k="natural" v="hill" />
		<tag k="old_name:se" v="Gæssenoaivit" />
		<tag k="place" v="locality" />
		<tag k="ssr:stedsnr" v="382754" />
	</node>
	<node lat="69.42594722003196" lon="22.35154161532836" id="-57086">
		<tag k="name" v="Mollejusgohpi" />
		<tag k="name:se" v="Mollejusgohpi" />
		<tag k="natural" v="valley" />
		<tag k="old_name:se" v="Mållejusgåppi" />
		<tag k="place" v="locality" />
		<tag k="ssr:stedsnr" v="382761" />
	</node>
	<node lat="68.91498611924648" lon="24.538605351739378" id="-57087">
		<tag k="fixme" v="consider natural=peak for the most distinct mountains in the district" />
		<tag k="name" v="Čivttasmaroaivi" />
		<tag k="name:se" v="Čivttasmaroaivi" />
		<tag k="natural" v="hill" />
		<tag k="old_name:se" v="Čivtasmaroaivi" />
		<tag k="place" v="locality" />
		<tag k="ssr:stedsnr" v="382762" />
	</node>
	<node lat="69.11606112178563" lon="24.526174814292688" id="-57088">
		<tag k="fixme" v="consider natural=peak for the most distinct mountains in the district" />
		<tag k="name" v="Gággamaras" />
		<tag k="name:se" v="Gággamaras" />
		<tag k="natural" v="hill" />
		<tag k="old_name:se" v="Gaggamaras" />
		<tag k="place" v="locality" />
		<tag k="ssr:stedsnr" v="382905" />
	</node>
	<node lat="69.29153333501843" lon="23.009572149669303" id="-57090">
		<tag k="name" v="Lovppárgielas" />
		<tag k="name:se" v="Lovppárgielas" />
		<tag k="natural" v="hill" />
		<tag k="old_name:se" v="Låvpargielas" />
		<tag k="place" v="locality" />
		<tag k="ssr:stedsnr" v="382909" />
	</node>
	<node lat="69.33695278413835" lon="22.712516599586145" id="-57092">
		<tag k="fixme" v="consider natural=peak for the most distinct mountains in the district" />
		<tag k="name" v="Guovžžačohkka" />
		<tag k="name:se" v="Guovžžačohkka" />
		<tag k="natural" v="hill" />
		<tag k="old_name:se" v="Guovžačåkka" />
		<tag k="place" v="locality" />
		<tag k="ssr:stedsnr" v="382958" />
	</node>
	<node lat="69.00555556140448" lon="23.060436027696614" id="-57099">
		<tag k="name" v="Gartnetluohkká" />
		<tag k="name:se" v="Gartnetluohkká" />
		<tag k="natural" v="slope" />
		<tag k="place" v="locality" />
		<tag k="ssr:stedsnr" v="395527" />
	</node>
	<node lat="69.08693889524551" lon="22.85867770426799" id="-57104">
		<tag k="name" v="Biitomielli" />
		<tag k="name:se" v="Biitomielli" />
		<tag k="natural" v="slope" />
		<tag k="place" v="locality" />
		<tag k="ssr:stedsnr" v="410092" />
	</node>
	<node lat="68.75876667012632" lon="23.291597106600978" id="-57105">
		<tag k="fixme" v="consider natural=peak for the most distinct mountains in the district" />
		<tag k="name" v="Gáhkkordievvá" />
		<tag k="name:se" v="Gáhkkordievvá" />
		<tag k="natural" v="hill" />
		<tag k="place" v="locality" />
		<tag k="ssr:stedsnr" v="410251" />
	</node>
	<node lat="68.69644722297225" lon="23.29606378523656" id="-57107">
		<tag k="name" v="Geađgemarasgeahči" />
		<tag k="name:se" v="Geađgemarasgeahči" />
		<tag k="place" v="locality" />
		<tag k="ssr:stedsnr" v="410315" />
	</node>
	<node lat="68.70022222722113" lon="23.26964711713866" id="-57108">
		<tag k="name" v="Bállogurra" />
		<tag k="name:se" v="Bállogurra" />
		<tag k="natural" v="valley" />
		<tag k="place" v="locality" />
		<tag k="ssr:stedsnr" v="410318" />
	</node>
	<node lat="69.12068611074484" lon="23.271802676165134" id="-57109">
		<tag k="name" v="Diskamielli" />
		<tag k="name:se" v="Diskamielli" />
		<tag k="natural" v="slope" />
		<tag k="place" v="locality" />
		<tag k="ssr:stedsnr" v="410492" />
	</node>
	<node lat="69.30220555755095" lon="23.62284709691852" id="-57111">
		<tag k="fixme" v="consider natural=peak for the most distinct mountains in the district" />
		<tag k="name" v="Unna Gorževáráš" />
		<tag k="name:se" v="Unna Gorževáráš" />
		<tag k="natural" v="hill" />
		<tag k="place" v="locality" />
		<tag k="ssr:stedsnr" v="411449" />
	</node>
	<node lat="68.70934444905315" lon="23.33457765483168" id="-57112">
		<tag k="fixme" v="consider natural=peak for the most distinct mountains in the district" />
		<tag k="name" v="Sáivačohkka" />
		<tag k="name:se" v="Sáivačohkka" />
		<tag k="natural" v="hill" />
		<tag k="place" v="locality" />
		<tag k="ssr:stedsnr" v="411450" />
	</node>
	<node lat="69.35263055972204" lon="23.91423318643883" id="-57114">
		<tag k="fixme" v="consider natural=peak for the most distinct mountains in the district" />
		<tag k="name" v="Aiteroavvi" />
		<tag k="name:se" v="Aiteroavvi" />
		<tag k="natural" v="hill" />
		<tag k="place" v="locality" />
		<tag k="ssr:stedsnr" v="411395" />
	</node>
	<node lat="69.3575277818334" lon="23.48188599245772" id="-57116">
		<tag k="name" v="Jeagelčorru" />
		<tag k="name:se" v="Jeagelčorru" />
		<tag k="natural" v="hill" />
		<tag k="place" v="locality" />
		<tag k="ssr:stedsnr" v="411997" />
	</node>
	<node lat="68.9530750013622" lon="22.456502715413187" id="-57122">
		<tag k="name" v="Basteluhppu" />
		<tag k="name:se" v="Basteluhppu" />
		<tag k="natural" v="valley" />
		<tag k="old_name:se" v="Basteluppo" />
		<tag k="place" v="locality" />
		<tag k="ssr:stedsnr" v="442100" />
	</node>
	<node lat="69.05227222408372" lon="23.306844347272833" id="-57125">
		<tag k="name" v="Bealjášvuopmi" />
		<tag k="name:se" v="Bealjášvuopmi" />
		<tag k="natural" v="valley" />
		<tag k="old_name:se" v="Bælljašvuobmi" />
		<tag k="place" v="locality" />
		<tag k="ssr:stedsnr" v="442611" />
	</node>
	<node lat="69.0796694508547" lon="22.941558258982493" id="-57126">
		<tag k="fixme" v="consider natural=peak for the most distinct mountains in the district" />
		<tag k="name" v="Davit Geassámaras" />
		<tag k="name:se" v="Davit Geassámaras" />
		<tag k="natural" v="hill" />
		<tag k="old_name:se" v="Gæssamaras, davit" />
		<tag k="place" v="locality" />
		<tag k="ssr:stedsnr" v="442586" />
	</node>
	<node lat="69.07757500057062" lon="23.264469345166372" id="-57128">
		<tag k="fixme" v="consider natural=peak for the most distinct mountains in the district" />
		<tag k="name" v="Stálovárri" />
		<tag k="name:se" v="Stálovárri" />
		<tag k="natural" v="hill" />
		<tag k="old_name:se" v="Staluvarri" />
		<tag k="place" v="locality" />
		<tag k="ssr:stedsnr" v="442597" />
	</node>
	<node lat="68.86821667388321" lon="23.63462487428709" id="-57131">
		<tag k="fixme" v="consider natural=peak for the most distinct mountains in the district" />
		<tag k="name" v="Biedjogielas" />
		<tag k="name:se" v="Biedjogielas" />
		<tag k="natural" v="hill" />
		<tag k="old_name:se" v="Bieddjugielas" />
		<tag k="place" v="locality" />
		<tag k="ssr:stedsnr" v="442803" />
	</node>
	<node lat="68.94382501009652" lon="24.857999758650713" id="-57134">
		<tag k="fixme" v="consider natural=peak for the most distinct mountains in the district" />
		<tag k="name" v="Buollánčopma" />
		<tag k="name:se" v="Buollánčopma" />
		<tag k="natural" v="hill" />
		<tag k="old_name:se" v="Buollančåbma" />
		<tag k="place" v="locality" />
		<tag k="ssr:stedsnr" v="442890" />
	</node>
	<node lat="68.86611667472627" lon="23.3766610023292" id="-57136">
		<tag k="name" v="Fállečorru" />
		<tag k="name:se" v="Fállečorru" />
		<tag k="natural" v="hill" />
		<tag k="old_name:se" v="Fallečårro" />
		<tag k="place" v="locality" />
		<tag k="ssr:stedsnr" v="442945" />
	</node>
	<node lat="68.92096111908356" lon="23.692058207904786" id="-57137">
		<tag k="fixme" v="consider natural=peak for the most distinct mountains in the district" />
		<tag k="name" v="Jalgesgielas" />
		<tag k="name:se" v="Jalgesgielas" />
		<tag k="natural" v="hill" />
		<tag k="old_name:se" v="Jal'gesgielas" />
		<tag k="place" v="locality" />
		<tag k="ssr:stedsnr" v="442984" />
	</node>
	<node lat="68.94730278078534" lon="23.539199879805427" id="-57139">
		<tag k="fixme" v="consider natural=peak for the most distinct mountains in the district" />
		<tag k="name" v="Jeagelgielasluhppu" />
		<tag k="name:se" v="Jeagelgielasluhppu" />
		<tag k="natural" v="hill" />
		<tag k="old_name:se" v="Jægelgielasluppo" />
		<tag k="place" v="locality" />
		<tag k="ssr:stedsnr" v="442991" />
	</node>
	<node lat="68.94000000799008" lon="23.45143321280369" id="-57141">
		<tag k="fixme" v="consider natural=peak for the most distinct mountains in the district" />
		<tag k="name" v="Jeagelgielas" />
		<tag k="name:se" v="Jeagelgielas" />
		<tag k="natural" v="hill" />
		<tag k="old_name:se" v="Jægelgielas" />
		<tag k="place" v="locality" />
		<tag k="ssr:stedsnr" v="442994" />
	</node>
	<node lat="69.58945556391004" lon="24.116435978412703" id="-57143">
		<tag k="fixme" v="consider natural=peak for the most distinct mountains in the district" />
		<tag k="name" v="Moivedanbuolža" />
		<tag k="name:se" v="Moivedanbuolža" />
		<tag k="natural" v="hill" />
		<tag k="old_name:se" v="Måivedanbuolža" />
		<tag k="place" v="locality" />
		<tag k="ssr:stedsnr" v="443238" />
	</node>
	<node lat="69.71292499959371" lon="23.48821379659651" id="-57147">
		<tag k="fixme" v="consider natural=peak for the most distinct mountains in the district" />
		<tag k="name" v="Gielasvárri" />
		<tag k="name:se" v="Gielasvárri" />
		<tag k="natural" v="hill" />
		<tag k="old_name:se" v="Gielasvarri" />
		<tag k="place" v="locality" />
		<tag k="ssr:stedsnr" v="443632" />
	</node>
	<node lat="69.64902222363827" lon="23.298613802672183" id="-57148">
		<tag k="name" v="Ánnedievát" />
		<tag k="name:se" v="Ánnedievát" />
		<tag k="natural" v="hill" />
		<tag k="old_name:se" v="Annedievat" />
		<tag k="place" v="locality" />
		<tag k="ssr:stedsnr" v="443701" />
	</node>
	<node lat="69.63205833389387" lon="23.419305458819426" id="-57149">
		<tag k="fixme" v="consider natural=peak for the most distinct mountains in the district" />
		<tag k="name" v="Guovžžačorru" />
		<tag k="name:se" v="Guovžžačorru" />
		<tag k="natural" v="hill" />
		<tag k="old_name:se" v="Guovžačårro" />
		<tag k="place" v="locality" />
		<tag k="ssr:stedsnr" v="443583" />
	</node>
	<node lat="69.62823333502911" lon="23.726230443470012" id="-57150">
		<tag k="fixme" v="consider natural=peak for the most distinct mountains in the district" />
		<tag k="name" v="Jovnnánddejalgesvárri" />
		<tag k="name:se" v="Jovnnánddejalgesvárri" />
		<tag k="natural" v="hill" />
		<tag k="old_name:se" v="Jåvnandejalgesvarri" />
		<tag k="place" v="locality" />
		<tag k="ssr:stedsnr" v="443584" />
	</node>
	<node lat="69.64314722675232" lon="23.24611936206145" id="-57151">
		<tag k="fixme" v="consider natural=peak for the most distinct mountains in the district" />
		<tag k="name" v="Lagešoaivi" />
		<tag k="name:se" v="Lagešoaivi" />
		<tag k="natural" v="hill" />
		<tag k="old_name:se" v="Lágešoaivi;Lagešoai'vi" />
		<tag k="place" v="locality" />
		<tag k="ssr:stedsnr" v="443702" />
	</node>
	<node lat="69.64428055612541" lon="23.366049891292864" id="-57152">
		<tag k="name" v="Vuolosvárhoaŋka" />
		<tag k="name:se" v="Vuolosvárhoaŋka" />
		<tag k="old_name:se" v="Vuolusvarhoaŋka" />
		<tag k="place" v="locality" />
		<tag k="ssr:stedsnr" v="443706" />
	</node>
	<node lat="69.39596388957384" lon="22.325505485160765" id="-57153">
		<tag k="fixme" v="consider natural=peak for the most distinct mountains in the district" />
		<tag k="name" v="Mollejus" />
		<tag k="name:se" v="Mollejus" />
		<tag k="natural" v="hill" />
		<tag k="old_name:se" v="Mållejus;Mollejos" />
		<tag k="place" v="locality" />
		<tag k="ssr:stedsnr" v="443780" />
	</node>
	<node lat="68.98870556086246" lon="24.51068314666077" id="-57154">
		<tag k="name" v="Reatkamaras" />
		<tag k="name:se" v="Reatkamaras" />
		<tag k="natural" v="plateau" />
		<tag k="old_name:se" v="Rætkamaras" />
		<tag k="ssr:stedsnr" v="443783" />
	</node>
	<node lat="69.05240833714969" lon="22.08346383445631" id="-57159">
		<tag k="fixme" v="consider natural=peak for the most distinct mountains in the district" />
		<tag k="name" v="Stuoračohkka" />
		<tag k="name:se" v="Stuoračohkka" />
		<tag k="natural" v="hill" />
		<tag k="place" v="locality" />
		<tag k="ssr:stedsnr" v="444516" />
	</node>
	<node lat="69.05858611009755" lon="22.01004994844337" id="-57160">
		<tag k="fixme" v="consider natural=peak for the most distinct mountains in the district" />
		<tag k="name" v="Fálleváráš" />
		<tag k="name:se" v="Fálleváráš" />
		<tag k="natural" v="hill" />
		<tag k="place" v="locality" />
		<tag k="ssr:stedsnr" v="444519" />
	</node>
	<node lat="69.42851944568196" lon="23.67359154111049" id="-57163">
		<tag k="name" v="Girkočohkastealli" />
		<tag k="name:se" v="Girkočohkastealli" />
		<tag k="place" v="locality" />
		<tag k="ssr:stedsnr" v="455311" />
	</node>
	<node lat="68.99651944592524" lon="23.277497117113477" id="-57165">
		<tag k="name" v="Bákterohči" />
		<tag k="name:se" v="Bákterohči" />
		<tag k="natural" v="slope" />
		<tag k="place" v="locality" />
		<tag k="ssr:stedsnr" v="456113" />
	</node>
	<node lat="69.01533611624009" lon="23.08041657778049" id="-57167">
		<tag k="fixme" v="consider natural=peak for the most distinct mountains in the district" />
		<tag k="name" v="Sáttomaras" />
		<tag k="name:se" v="Sáttomaras" />
		<tag k="natural" v="hill" />
		<tag k="place" v="locality" />
		<tag k="ssr:stedsnr" v="456505" />
	</node>
	<node lat="68.89211667139347" lon="22.855247150517084" id="-57168">
		<tag k="fixme" v="consider natural=peak for the most distinct mountains in the district" />
		<tag k="name" v="Báitiroavvi" />
		<tag k="name:se" v="Báitiroavvi" />
		<tag k="natural" v="hill" />
		<tag k="place" v="locality" />
		<tag k="ssr:stedsnr" v="469063" />
	</node>
	<node lat="68.90020833940046" lon="22.870266572016703" id="-57169">
		<tag k="fixme" v="consider natural=peak for the most distinct mountains in the district" />
		<tag k="name" v="Unnaroaváš" />
		<tag k="name:se" v="Unnaroaváš" />
		<tag k="natural" v="hill" />
		<tag k="place" v="locality" />
		<tag k="ssr:stedsnr" v="469071" />
	</node>
	<node lat="68.94635278146174" lon="22.935936031881795" id="-57170">
		<tag k="name" v="Muorjemiellit" />
		<tag k="name:se" v="Muorjemiellit" />
		<tag k="natural" v="slope" />
		<tag k="place" v="locality" />
		<tag k="ssr:stedsnr" v="471060" />
	</node>
	<node lat="69.2590666683082" lon="23.82082207738411" id="-57172">
		<tag k="name" v="Gizečorru" />
		<tag k="name:se" v="Gizečorru" />
		<tag k="natural" v="hill" />
		<tag k="place" v="locality" />
		<tag k="ssr:stedsnr" v="471406" />
	</node>
	<node lat="68.97005000486851" lon="23.21004435543373" id="-57174">
		<tag k="name" v="Vuorašvárluohkká" />
		<tag k="name:se" v="Vuorašvárluohkká" />
		<tag k="natural" v="slope" />
		<tag k="place" v="locality" />
		<tag k="ssr:stedsnr" v="471360" />
	</node>
	<node lat="69.12896111148274" lon="23.291311010822284" id="-57177">
		<tag k="fixme" v="consider natural=peak for the most distinct mountains in the district" />
		<tag k="name" v="Vuohppedievát" />
		<tag k="name:se" v="Vuohppedievát" />
		<tag k="natural" v="hill" />
		<tag k="place" v="locality" />
		<tag k="ssr:stedsnr" v="471580" />
	</node>
	<node lat="68.63424722814733" lon="24.823280313659133" id="-57189">
		<tag k="name" v="Ráhpesvuopmi" />
		<tag k="name:se" v="Ráhpesvuopmi" />
		<tag k="natural" v="valley" />
		<tag k="old_name:se" v="Rappesvuobmi" />
		<tag k="place" v="locality" />
		<tag k="ssr:stedsnr" v="503207" />
	</node>
	<node lat="69.5331333376818" lon="23.8675165470236" id="-57190">
		<tag k="fixme" v="consider natural=peak for the most distinct mountains in the district" />
		<tag k="name" v="Bávttášoaivveráhppát" />
		<tag k="name:se" v="Bávttášoaivveráhppát" />
		<tag k="natural" v="hill" />
		<tag k="old_name:se" v="Bavtašoaiverappat" />
		<tag k="place" v="locality" />
		<tag k="ssr:stedsnr" v="503502" />
	</node>
	<node lat="69.2149638977446" lon="23.828091537511785" id="-57193">
		<tag k="fixme" v="consider natural=peak for the most distinct mountains in the district" />
		<tag k="name" v="Ráhpesčorru" />
		<tag k="name:se" v="Ráhpesčorru" />
		<tag k="natural" v="hill" />
		<tag k="old_name:se" v="Rappesčårro" />
		<tag k="place" v="locality" />
		<tag k="ssr:stedsnr" v="503509" />
	</node>
	<node lat="69.42073333689119" lon="23.863605432035968" id="-57197">
		<tag k="fixme" v="consider natural=peak for the most distinct mountains in the district" />
		<tag k="name" v="Ávjovárri" />
		<tag k="name:se" v="Ávjovárri" />
		<tag k="natural" v="hill" />
		<tag k="old_name:se" v="Avjuvarri" />
		<tag k="place" v="locality" />
		<tag k="ssr:stedsnr" v="503407" />
	</node>
	<node lat="69.42040000733513" lon="23.606210997074967" id="-57199">
		<tag k="name" v="Suolodievvá" />
		<tag k="name:se" v="Suolodievvá" />
		<tag k="natural" v="hill" />
		<tag k="old_name:se" v="Suoludievva" />
		<tag k="place" v="locality" />
		<tag k="ssr:stedsnr" v="503409" />
	</node>
	<node lat="69.42657500036849" lon="23.543524880693525" id="-57200">
		<tag k="fixme" v="consider natural=peak for the most distinct mountains in the district" />
		<tag k="name" v="Vuopmi-Varitvárri" />
		<tag k="name:se" v="Vuopmi-Varitvárri" />
		<tag k="natural" v="hill" />
		<tag k="old_name:se" v="Varitvarri, vuobmi;Vuopme Varitvárri" />
		<tag k="place" v="locality" />
		<tag k="ssr:stedsnr" v="503412" />
	</node>
	<node lat="69.42803333450303" lon="23.677088780247473" id="-57201">
		<tag k="fixme" v="consider natural=peak for the most distinct mountains in the district" />
		<tag k="name" v="Girkočohkka" />
		<tag k="name:se" v="Girkočohkka" />
		<tag k="natural" v="hill" />
		<tag k="old_name:se" v="Girkučåkka" />
		<tag k="place" v="locality" />
		<tag k="ssr:stedsnr" v="503414" />
	</node>
	<node lat="69.3910527808578" lon="23.919249866754242" id="-57202">
		<tag k="fixme" v="consider natural=peak for the most distinct mountains in the district" />
		<tag k="name" v="Dápmotvárri" />
		<tag k="name:se" v="Dápmotvárri" />
		<tag k="natural" v="hill" />
		<tag k="old_name:se" v="Dabmutvarri" />
		<tag k="place" v="locality" />
		<tag k="ssr:stedsnr" v="503423" />
	</node>
	<node lat="69.40249166953001" lon="23.694641536622253" id="-57203">
		<tag k="name" v="Bienneroavvi" />
		<tag k="name:se" v="Bienneroavvi" />
		<tag k="natural" v="hill" />
		<tag k="place" v="locality" />
		<tag k="ssr:stedsnr" v="503426" />
	</node>
	<node lat="69.58981944883706" lon="23.337438799961117" id="-57205">
		<tag k="name" v="Issáhadievvá" />
		<tag k="name:se" v="Issáhadievvá" />
		<tag k="natural" v="hill" />
		<tag k="old_name:se" v="Issahadievva" />
		<tag k="place" v="locality" />
		<tag k="ssr:stedsnr" v="503676" />
	</node>
	<node lat="68.86553056693967" lon="24.889791432601" id="-57207">
		<tag k="name" v="Vuolit Sevdnjeseana" />
		<tag k="name:se" v="Vuolit Sevdnjeseana" />
		<tag k="natural" v="hill" />
		<tag k="old_name:se" v="Sevdnjesæna, vuolit" />
		<tag k="place" v="locality" />
		<tag k="ssr:stedsnr" v="503811" />
	</node>
	<node lat="68.86499444980798" lon="24.623044240107465" id="-57208">
		<tag k="name" v="Hohtedievvá" />
		<tag k="name:se" v="Hohtedievvá" />
		<tag k="natural" v="hill" />
		<tag k="old_name:se" v="Håttedievva" />
		<tag k="place" v="locality" />
		<tag k="ssr:stedsnr" v="503812" />
	</node>
	<node lat="68.93656945682824" lon="24.636899794310168" id="-57209">
		<tag k="fixme" v="consider natural=peak for the most distinct mountains in the district" />
		<tag k="name" v="Dállosaičohkka" />
		<tag k="name:se" v="Dállosaičohkka" />
		<tag k="natural" v="hill" />
		<tag k="old_name:se" v="Dallusajčåkka" />
		<tag k="place" v="locality" />
		<tag k="ssr:stedsnr" v="503820" />
	</node>
	<node lat="69.05655277940508" lon="22.93019158262104" id="-57211">
		<tag k="fixme" v="consider natural=peak for the most distinct mountains in the district" />
		<tag k="name" v="Lulit Geassámaras" />
		<tag k="name:se" v="Lulit Geassámaras" />
		<tag k="natural" v="hill" />
		<tag k="old_name:se" v="Gæssamaras, lulit" />
		<tag k="place" v="locality" />
		<tag k="ssr:stedsnr" v="503568" />
	</node>
	<node lat="68.86089167017303" lon="22.92976381004667" id="-57215">
		<tag k="name" v="Sállanmaras" />
		<tag k="name:se" v="Sállanmaras" />
		<tag k="natural" v="hill" />
		<tag k="old_name:se" v="Sallanmaras" />
		<tag k="place" v="locality" />
		<tag k="ssr:stedsnr" v="503904" />
	</node>
	<node lat="68.96983611824318" lon="23.702010984739108" id="-57217">
		<tag k="fixme" v="consider natural=peak for the most distinct mountains in the district" />
		<tag k="name" v="Buollán Áltevárri" />
		<tag k="name:se" v="Buollán Áltevárri" />
		<tag k="natural" v="hill" />
		<tag k="old_name:se" v="Altevarri" />
		<tag k="place" v="locality" />
		<tag k="ssr:stedsnr" v="503910" />
	</node>
	<node lat="69.07640000846753" lon="23.81382487596828" id="-57218">
		<tag k="fixme" v="consider natural=peak for the most distinct mountains in the district" />
		<tag k="name" v="Sáivavárri" />
		<tag k="name:se" v="Sáivavárri" />
		<tag k="natural" v="hill" />
		<tag k="old_name:se" v="Saivavarri" />
		<tag k="place" v="locality" />
		<tag k="ssr:stedsnr" v="503911" />
	</node>
	<node lat="69.47384167081479" lon="23.740299891961687" id="-57221">
		<tag k="fixme" v="consider natural=peak for the most distinct mountains in the district" />
		<tag k="name" v="Luhpporoavvi" />
		<tag k="name:se" v="Luhpporoavvi" />
		<tag k="natural" v="hill" />
		<tag k="old_name:se" v="Luppuroavvi" />
		<tag k="place" v="locality" />
		<tag k="ssr:stedsnr" v="504370" />
	</node>
	<node lat="69.65441944665459" lon="23.064533251757194" id="-57223">
		<tag k="fixme" v="consider natural=peak for the most distinct mountains in the district" />
		<tag k="name" v="Bieggaikun" />
		<tag k="name:se" v="Bieggaikun" />
		<tag k="natural" v="hill" />
		<tag k="old_name:se" v="Bieggaikon" />
		<tag k="place" v="locality" />
		<tag k="ssr:stedsnr" v="504772" />
	</node>
	<node lat="69.48216111386533" lon="22.27939160319251" id="-57225">
		<tag k="fixme" v="consider natural=peak for the most distinct mountains in the district" />
		<tag k="name" v="Rávdoaivi" />
		<tag k="name:se" v="Rávdoaivi" />
		<tag k="natural" v="hill" />
		<tag k="old_name:se" v="Ravdoaivi;Rávdooaivi" />
		<tag k="place" v="locality" />
		<tag k="ssr:stedsnr" v="504777" />
	</node>
	<node lat="69.29691667081205" lon="22.731763814715343" id="-57227">
		<tag k="fixme" v="consider natural=peak for the most distinct mountains in the district" />
		<tag k="name" v="Njivlošlubbu" />
		<tag k="name:se" v="Njivlošlubbu" />
		<tag k="natural" v="hill" />
		<tag k="old_name:se" v="Njivlušlubbo" />
		<tag k="place" v="locality" />
		<tag k="ssr:stedsnr" v="504969" />
	</node>
	<node lat="69.00939444208396" lon="22.20093050316762" id="-57230">
		<tag k="name" v="Hábadievvá" />
		<tag k="name:se" v="Hábadievvá" />
		<tag k="natural" v="hill" />
		<tag k="old_name:se" v="Habadievvá" />
		<tag k="place" v="locality" />
		<tag k="ssr:stedsnr" v="505611" />
	</node>
	<node lat="69.03748889403026" lon="23.212658235934" id="-57232">
		<tag k="fixme" v="consider natural=peak for the most distinct mountains in the district" />
		<tag k="name" v="Duommašvárri" />
		<tag k="name:se" v="Duommašvárri" />
		<tag k="natural" v="hill" />
		<tag k="place" v="locality" />
		<tag k="ssr:stedsnr" v="516015" />
	</node>
	<node lat="69.43251666725818" lon="23.57924433522858" id="-57238">
		<tag k="name" v="Boallovárerápma" />
		<tag k="name:se" v="Boallovárerápma" />
		<tag k="place" v="locality" />
		<tag k="ssr:stedsnr" v="516507" />
	</node>
	<node lat="69.0036666661053" lon="23.031797139699744" id="-57241">
		<tag k="name" v="Beskkošmielli" />
		<tag k="name:se" v="Beskkošmielli" />
		<tag k="natural" v="slope" />
		<tag k="place" v="locality" />
		<tag k="ssr:stedsnr" v="516533" />
	</node>
	<node lat="68.95357500289167" lon="22.860541594584667" id="-57245">
		<tag k="name" v="Rávdomaras" />
		<tag k="name:se" v="Rávdomaras" />
		<tag k="natural" v="hill" />
		<tag k="old_name:se" v="Ravdumaras" />
		<tag k="place" v="locality" />
		<tag k="ssr:stedsnr" v="685037" />
	</node>
	<node lat="68.83802500181878" lon="22.407861050538518" id="-57246">
		<tag k="fixme" v="consider natural=peak for the most distinct mountains in the district" />
		<tag k="name" v="Gámasčohkka" />
		<tag k="name:se" v="Gámasčohkka" />
		<tag k="natural" v="hill" />
		<tag k="old_name:se" v="Gamasčåkka" />
		<tag k="place" v="locality" />
		<tag k="ssr:stedsnr" v="685041" />
	</node>
	<node lat="68.85580556043067" lon="22.70351937357034" id="-57248">
		<tag k="fixme" v="consider natural=peak for the most distinct mountains in the district" />
		<tag k="name" v="Goarjevárri" />
		<tag k="name:se" v="Goarjevárri" />
		<tag k="natural" v="hill" />
		<tag k="old_name:se" v="Goarjevarri" />
		<tag k="place" v="locality" />
		<tag k="ssr:stedsnr" v="685052" />
	</node>
	<node lat="68.71542500290644" lon="22.67838882125677" id="-57250">
		<tag k="fixme" v="consider natural=peak for the most distinct mountains in the district" />
		<tag k="name" v="Bizeroavvi" />
		<tag k="name:se" v="Bizeroavvi" />
		<tag k="natural" v="hill" />
		<tag k="place" v="locality" />
		<tag k="ssr:stedsnr" v="685064" />
	</node>
	<node lat="68.91000000534011" lon="22.577186034806058" id="-57251">
		<tag k="fixme" v="consider natural=peak for the most distinct mountains in the district" />
		<tag k="name" v="Hoallomaras" />
		<tag k="name:se" v="Hoallomaras" />
		<tag k="natural" v="hill" />
		<tag k="old_name:se" v="Hoallumaras" />
		<tag k="place" v="locality" />
		<tag k="ssr:stedsnr" v="685068" />
	</node>
	<node lat="68.97113055875407" lon="22.759361028972943" id="-57252">
		<tag k="fixme" v="consider natural=peak for the most distinct mountains in the district" />
		<tag k="name" v="Ádjit" />
		<tag k="name:se" v="Ádjit" />
		<tag k="natural" v="hill" />
		<tag k="old_name:se" v="Addjit" />
		<tag k="place" v="locality" />
		<tag k="ssr:stedsnr" v="685079" />
	</node>
	<node lat="69.56332778491358" lon="24.052174869729132" id="-57254">
		<tag k="name" v="Ádjelčorru" />
		<tag k="name:se" v="Ádjelčorru" />
		<tag k="natural" v="hill" />
		<tag k="old_name:se" v="Addjelčåkko" />
		<tag k="place" v="locality" />
		<tag k="ssr:stedsnr" v="685255" />
	</node>
	<node lat="69.44702500685173" lon="23.59867210580503" id="-57257">
		<tag k="fixme" v="consider natural=peak for the most distinct mountains in the district" />
		<tag k="name" v="Bojávárri" />
		<tag k="name:se" v="Bojávárri" />
		<tag k="natural" v="hill" />
		<tag k="old_name:se" v="Båjavarri" />
		<tag k="place" v="locality" />
		<tag k="ssr:stedsnr" v="685384" />
	</node>
	<node lat="69.03277500765189" lon="23.291674905291018" id="-57259">
		<tag k="name" v="Bealjášgurra" />
		<tag k="name:se" v="Bealjášgurra" />
		<tag k="natural" v="valley" />
		<tag k="old_name:se" v="Bælljašgurra" />
		<tag k="place" v="locality" />
		<tag k="ssr:stedsnr" v="685496" />
	</node>
	<node lat="69.01380277632596" lon="22.465505482882193" id="-57266">
		<tag k="fixme" v="consider natural=peak for the most distinct mountains in the district" />
		<tag k="name" v="Čáhppesvárri" />
		<tag k="name:se" v="Čáhppesvárri" />
		<tag k="natural" v="hill" />
		<tag k="old_name:se" v="Čappesvarri" />
		<tag k="place" v="locality" />
		<tag k="ssr:stedsnr" v="685610" />
	</node>
	<node lat="69.50730000633763" lon="23.84177486532449" id="-57267">
		<tag k="fixme" v="consider natural=peak for the most distinct mountains in the district" />
		<tag k="name" v="Nuorttamuš Latnetoaivi" />
		<tag k="name:se" v="Nuorttamuš Latnetoaivi" />
		<tag k="natural" v="hill" />
		<tag k="old_name:se" v="Ladnetoaivi, nuortamuš" />
		<tag k="place" v="locality" />
		<tag k="ssr:stedsnr" v="685518" />
	</node>
	<node lat="69.21880555904576" lon="23.78011376041928" id="-57268">
		<tag k="fixme" v="consider natural=peak for the most distinct mountains in the district" />
		<tag k="name" v="Biedjočorru" />
		<tag k="name:se" v="Biedjočorru" />
		<tag k="natural" v="hill" />
		<tag k="old_name:se" v="Bieddjučårro" />
		<tag k="place" v="locality" />
		<tag k="ssr:stedsnr" v="685528" />
	</node>
	<node lat="69.20665555719529" lon="23.16202489397752" id="-57270">
		<tag k="fixme" v="consider natural=peak for the most distinct mountains in the district" />
		<tag k="name" v="Mierovárri" />
		<tag k="name:se" v="Mierovárri" />
		<tag k="natural" v="hill" />
		<tag k="place" v="locality" />
		<tag k="ssr:stedsnr" v="685653" />
	</node>
	<node lat="69.67018055802595" lon="23.897908213616624" id="-57271">
		<tag k="fixme" v="consider natural=peak for the most distinct mountains in the district" />
		<tag k="name" v="Gáreniillasčohkka" />
		<tag k="name:se" v="Gáreniillasčohkka" />
		<tag k="natural" v="hill" />
		<tag k="old_name:se" v="Gareniilasčåkka" />
		<tag k="place" v="locality" />
		<tag k="ssr:stedsnr" v="685614" />
	</node>
	<node lat="68.75831389608409" lon="24.754649765174157" id="-57272">
		<tag k="name" v="Kristiančorru" />
		<tag k="name:se" v="Kristiančorru" />
		<tag k="natural" v="hill" />
		<tag k="old_name:se" v="Kristiančårro" />
		<tag k="place" v="locality" />
		<tag k="ssr:stedsnr" v="685616" />
	</node>
	<node lat="69.68621666801519" lon="23.520199901630328" id="-57275">
		<tag k="fixme" v="consider natural=peak for the most distinct mountains in the district" />
		<tag k="name" v="Sállevárri" />
		<tag k="name:se" v="Sállevárri" />
		<tag k="natural" v="hill" />
		<tag k="old_name:se" v="Sallevarri;Sallevárri" />
		<tag k="place" v="locality" />
		<tag k="ssr:stedsnr" v="685624" />
	</node>
	<node lat="69.61680556124134" lon="22.883208265421366" id="-57278">
		<tag k="name" v="Njuikenvággi" />
		<tag k="name:se" v="Njuikenvággi" />
		<tag k="natural" v="valley" />
		<tag k="old_name:se" v="Njuikenvaggi" />
		<tag k="place" v="locality" />
		<tag k="ssr:stedsnr" v="685717" />
	</node>
	<node lat="68.86898056011135" lon="23.8530498454535" id="-57282">
		<tag k="fixme" v="consider natural=peak for the most distinct mountains in the district" />
		<tag k="name" v="Dulbbešvárri" />
		<tag k="name:se" v="Dulbbešvárri" />
		<tag k="natural" v="hill" />
		<tag k="old_name:se" v="Dulbešvarri;Dulbešvárri" />
		<tag k="place" v="locality" />
		<tag k="ssr:stedsnr" v="685753" />
	</node>
	<node lat="69.68621944722958" lon="23.15917490973256" id="-57283">
		<tag k="fixme" v="consider natural=peak for the most distinct mountains in the district" />
		<tag k="name" v="Gáržanoaivi" />
		<tag k="name:se" v="Gáržanoaivi" />
		<tag k="natural" v="hill" />
		<tag k="place" v="locality" />
		<tag k="ssr:stedsnr" v="685734" />
	</node>
	<node lat="68.76853889485609" lon="23.448208207397542" id="-57284">
		<tag k="fixme" v="consider natural=peak for the most distinct mountains in the district" />
		<tag k="name" v="Stáđđevárri" />
		<tag k="name:se" v="Stáđđevárri" />
		<tag k="natural" v="hill" />
		<tag k="old_name:se" v="Stađđevarri" />
		<tag k="place" v="locality" />
		<tag k="ssr:stedsnr" v="685738" />
	</node>
	<node lat="68.95417501029235" lon="24.25880538896989" id="-57286">
		<tag k="name" v="Buollán" />
		<tag k="name:se" v="Buollán" />
		<tag k="natural" v="hill" />
		<tag k="old_name:se" v="Buollan" />
		<tag k="place" v="locality" />
		<tag k="ssr:stedsnr" v="685807" />
	</node>
	<node lat="68.93774445339685" lon="24.47862481139856" id="-57287">
		<tag k="fixme" v="consider natural=peak for the most distinct mountains in the district" />
		<tag k="name" v="Čivttasmaras" />
		<tag k="name:se" v="Čivttasmaras" />
		<tag k="natural" v="hill" />
		<tag k="old_name:se" v="Čivtasmaras" />
		<tag k="place" v="locality" />
		<tag k="ssr:stedsnr" v="685765" />
	</node>
	<node lat="68.92055000860951" lon="24.48438868626975" id="-57288">
		<tag k="fixme" v="consider natural=peak for the most distinct mountains in the district" />
		<tag k="name" v="Ruoppavárri" />
		<tag k="name:se" v="Ruoppavárri" />
		<tag k="natural" v="hill" />
		<tag k="old_name:se" v="Ruobbavarri" />
		<tag k="place" v="locality" />
		<tag k="ssr:stedsnr" v="685771" />
	</node>
	<node lat="68.88985834216864" lon="24.281627595087198" id="-57289">
		<tag k="name" v="Nieidačahca" />
		<tag k="name:se" v="Nieidačahca" />
		<tag k="natural" v="valley" />
		<tag k="old_name:se" v="Nieidačacca" />
		<tag k="place" v="locality" />
		<tag k="ssr:stedsnr" v="685783" />
	</node>
	<node lat="69.39499722059699" lon="22.943733262814707" id="-57290">
		<tag k="name" v="Gilbávži" />
		<tag k="name:se" v="Gilbávži" />
		<tag k="natural" v="valley" />
		<tag k="old_name:se" v="Gilbavži" />
		<tag k="place" v="locality" />
		<tag k="ssr:stedsnr" v="685876" />
	</node>
	<node lat="68.84143889601019" lon="24.219299816024453" id="-57296">
		<tag k="fixme" v="consider natural=peak for the most distinct mountains in the district" />
		<tag k="name" v="Njullosráhppát" />
		<tag k="name:se" v="Njullosráhppát" />
		<tag k="natural" v="hill" />
		<tag k="old_name:se" v="Njullusrappat" />
		<tag k="place" v="locality" />
		<tag k="ssr:stedsnr" v="685839" />
	</node>
	<node lat="69.13375000509858" lon="23.95375817883075" id="-57298">
		<tag k="fixme" v="consider natural=peak for the most distinct mountains in the district" />
		<tag k="name" v="Vuoskkovárri" />
		<tag k="name:se" v="Vuoskkovárri" />
		<tag k="natural" v="hill" />
		<tag k="old_name:se" v="Vuoskuvarri" />
		<tag k="place" v="locality" />
		<tag k="ssr:stedsnr" v="685952" />
	</node>
	<node lat="68.94725000508875" lon="23.900385961115514" id="-57305">
		<tag k="fixme" v="consider natural=peak for the most distinct mountains in the district" />
		<tag k="name" v="Girkobealvárri" />
		<tag k="name:se" v="Girkobealvárri" />
		<tag k="natural" v="hill" />
		<tag k="old_name:se" v="Girkubælvarri" />
		<tag k="place" v="locality" />
		<tag k="ssr:stedsnr" v="685996" />
	</node>
	<node lat="68.78102778391663" lon="22.99388602051326" id="-57306">
		<tag k="name" v="Luhkkoaivi" />
		<tag k="name:se" v="Luhkkoaivi" />
		<tag k="natural" v="hill" />
		<tag k="old_name:se" v="Lukkoaivi" />
		<tag k="place" v="locality" />
		<tag k="ssr:stedsnr" v="685957" />
	</node>
	<node lat="68.89422500827601" lon="23.669980424504953" id="-57309">
		<tag k="fixme" v="consider natural=peak for the most distinct mountains in the district" />
		<tag k="name" v="Hávdegielas" />
		<tag k="name:se" v="Hávdegielas" />
		<tag k="natural" v="hill" />
		<tag k="old_name:se" v="Havdegielas" />
		<tag k="place" v="locality" />
		<tag k="ssr:stedsnr" v="685976" />
	</node>
	<node lat="68.9088833343284" lon="23.606391549532063" id="-57310">
		<tag k="fixme" v="consider natural=peak for the most distinct mountains in the district" />
		<tag k="name" v="Hárjevárri" />
		<tag k="name:se" v="Hárjevárri" />
		<tag k="natural" v="hill" />
		<tag k="old_name:se" v="Harjevarri" />
		<tag k="place" v="locality" />
		<tag k="ssr:stedsnr" v="685981" />
	</node>
	<node lat="68.90459444536287" lon="22.865383254232864" id="-57313">
		<tag k="name" v="Gaskadievvá" />
		<tag k="name:se" v="Gaskadievvá" />
		<tag k="natural" v="hill" />
		<tag k="place" v="locality" />
		<tag k="ssr:stedsnr" v="530076" />
	</node>
	<node lat="69.0745111147949" lon="23.20011655836215" id="-57316">
		<tag k="name" v="Riggeskáidegeahči" />
		<tag k="name:se" v="Riggeskáidegeahči" />
		<tag k="natural" v="slope" />
		<tag k="place" v="locality" />
		<tag k="ssr:stedsnr" v="531419" />
	</node>
	<node lat="69.06483334005166" lon="23.183463781256318" id="-57318">
		<tag k="name" v="Rihtámielli" />
		<tag k="name:se" v="Rihtámielli" />
		<tag k="natural" v="slope" />
		<tag k="place" v="locality" />
		<tag k="ssr:stedsnr" v="531431" />
	</node>
	<node lat="68.95646944728577" lon="22.960691580743212" id="-57322">
		<tag k="name" v="Migášniitu" />
		<tag k="name:se" v="Migášniitu" />
		<tag k="place" v="locality" />
		<tag k="ssr:stedsnr" v="532076" />
	</node>
	<node lat="68.79576389549973" lon="23.271066549628465" id="-57325">
		<tag k="fixme" v="consider natural=peak for the most distinct mountains in the district" />
		<tag k="name" v="Jeagelborbuolža" />
		<tag k="name:se" v="Jeagelborbuolža" />
		<tag k="natural" v="hill" />
		<tag k="place" v="locality" />
		<tag k="ssr:stedsnr" v="532223" />
	</node>
	<node lat="68.80756111820557" lon="23.363322119110766" id="-57327">
		<tag k="fixme" v="consider natural=peak for the most distinct mountains in the district" />
		<tag k="name" v="Njáhkamaras" />
		<tag k="name:se" v="Njáhkamaras" />
		<tag k="natural" v="hill" />
		<tag k="place" v="locality" />
		<tag k="ssr:stedsnr" v="532503" />
	</node>
	<node lat="69.24687777913911" lon="23.85834431609711" id="-57328">
		<tag k="fixme" v="consider natural=peak for the most distinct mountains in the district" />
		<tag k="name" v="Ráhpesvárri" />
		<tag k="name:se" v="Ráhpesvárri" />
		<tag k="natural" v="hill" />
		<tag k="place" v="locality" />
		<tag k="ssr:stedsnr" v="532402" />
	</node>
	<node lat="69.48433611100046" lon="23.461383231037747" id="-57337">
		<tag k="name" v="Čeavrresčahca" />
		<tag k="name:se" v="Čeavrresčahca" />
		<tag k="natural" v="valley" />
		<tag k="old_name:se" v="Čævresčacca" />
		<tag k="place" v="locality" />
		<tag k="ssr:stedsnr" v="686382" />
	</node>
	<node lat="69.47535277942383" lon="24.054155416479137" id="-57338">
		<tag k="fixme" v="consider natural=peak for the most distinct mountains in the district" />
		<tag k="name" v="Bealgevárri" />
		<tag k="name:se" v="Bealgevárri" />
		<tag k="natural" v="hill" />
		<tag k="old_name:se" v="Bælgevarri" />
		<tag k="place" v="locality" />
		<tag k="ssr:stedsnr" v="686253" />
	</node>
	<node lat="69.49788611328731" lon="24.233038721355083" id="-57339">
		<tag k="fixme" v="consider natural=peak for the most distinct mountains in the district" />
		<tag k="name" v="Rágesvárri" />
		<tag k="name:se" v="Rágesvárri" />
		<tag k="natural" v="hill" />
		<tag k="old_name:se" v="Ragesvarri" />
		<tag k="place" v="locality" />
		<tag k="ssr:stedsnr" v="686255" />
	</node>
	<node lat="69.45960833343503" lon="23.613999893425685" id="-57341">
		<tag k="fixme" v="consider natural=peak for the most distinct mountains in the district" />
		<tag k="name" v="Soagŋomaras" />
		<tag k="name:se" v="Soagŋomaras" />
		<tag k="natural" v="hill" />
		<tag k="old_name:se" v="Soagnumaras" />
		<tag k="place" v="locality" />
		<tag k="ssr:stedsnr" v="686396" />
	</node>
	<node lat="69.45821667218048" lon="23.57096100847606" id="-57342">
		<tag k="fixme" v="consider natural=peak for the most distinct mountains in the district" />
		<tag k="name" v="Duolbavárri" />
		<tag k="name:se" v="Duolbavárri" />
		<tag k="natural" v="hill" />
		<tag k="old_name:se" v="Duolbavarri" />
		<tag k="place" v="locality" />
		<tag k="ssr:stedsnr" v="686412" />
	</node>
	<node lat="69.33994722904816" lon="23.644716548618522" id="-57348">
		<tag k="fixme" v="multiple name tags, choose one and add the other to alt_name; consider natural=peak for the most distinct mountains in the district" />
		<tag k="name" v="Davitgoržževárri;Goldenvárri" />
		<tag k="name:se" v="Davitgoržževárri;Goldenvárri" />
		<tag k="natural" v="hill" />
		<tag k="old_name:se" v="Gåldenvarri" />
		<tag k="place" v="locality" />
		<tag k="ssr:stedsnr" v="686485" />
	</node>
	<node lat="69.55402777970993" lon="23.664188774616516" id="-57350">
		<tag k="fixme" v="consider natural=peak for the most distinct mountains in the district" />
		<tag k="name" v="Čuorvunčohkka" />
		<tag k="name:se" v="Čuorvunčohkka" />
		<tag k="natural" v="hill" />
		<tag k="old_name:se" v="Čuorvončåkka" />
		<tag k="place" v="locality" />
		<tag k="ssr:stedsnr" v="686560" />
	</node>
	<node lat="69.18593612000366" lon="23.882935979565396" id="-57355">
		<tag k="fixme" v="consider natural=peak for the most distinct mountains in the district" />
		<tag k="name" v="Ánttámaras" />
		<tag k="name:se" v="Ánttámaras" />
		<tag k="natural" v="hill" />
		<tag k="old_name:se" v="Antamaras" />
		<tag k="place" v="locality" />
		<tag k="ssr:stedsnr" v="686569" />
	</node>
	<node lat="69.62357778204021" lon="23.650635989038967" id="-57356">
		<tag k="fixme" v="consider natural=peak for the most distinct mountains in the district" />
		<tag k="name" v="Vuovde-Vuonjalčohkka" />
		<tag k="name:se" v="Vuovde-Vuonjalčohkka" />
		<tag k="natural" v="hill" />
		<tag k="old_name:se" v="Vuovde Vuonjalčåkka" />
		<tag k="place" v="locality" />
		<tag k="ssr:stedsnr" v="686608" />
	</node>
	<node lat="69.15324722542152" lon="22.62253604682205" id="-57358">
		<tag k="fixme" v="consider natural=peak for the most distinct mountains in the district" />
		<tag k="name" v="Ráissačorru" />
		<tag k="name:se" v="Ráissačorru" />
		<tag k="natural" v="hill" />
		<tag k="old_name:se" v="Raisačårro" />
		<tag k="place" v="locality" />
		<tag k="ssr:stedsnr" v="686719" />
	</node>
	<node lat="69.50860277870832" lon="22.511619373561377" id="-57361">
		<tag k="name" v="Gálggobohki" />
		<tag k="name:se" v="Gálggobohki" />
		<tag k="natural" v="valley" />
		<tag k="old_name:se" v="Galgubåkki" />
		<tag k="place" v="locality" />
		<tag k="ssr:stedsnr" v="686784" />
	</node>
	<node lat="69.01395556440167" lon="24.4025081500546" id="-57363">
		<tag k="name" v="Šuorpmogorsa" />
		<tag k="name:se" v="Šuorpmogorsa" />
		<tag k="natural" v="valley" />
		<tag k="old_name:se" v="Šuorbmugårsa" />
		<tag k="place" v="locality" />
		<tag k="ssr:stedsnr" v="686875" />
	</node>
	<node lat="69.34933611489355" lon="22.853186037010182" id="-57365">
		<tag k="fixme" v="consider natural=peak for the most distinct mountains in the district" />
		<tag k="name" v="Sadjinvárri" />
		<tag k="name:se" v="Sadjinvárri" />
		<tag k="natural" v="hill" />
		<tag k="old_name:se" v="Saddjinvarri" />
		<tag k="place" v="locality" />
		<tag k="ssr:stedsnr" v="686880" />
	</node>
	<node lat="69.34794445183121" lon="23.40637489756543" id="-57366">
		<tag k="name" v="Gurrabuolža" />
		<tag k="name:se" v="Gurrabuolža" />
		<tag k="natural" v="hill" />
		<tag k="old_name:se" v="Gurrabuol'ža" />
		<tag k="place" v="locality" />
		<tag k="ssr:stedsnr" v="686886" />
	</node>
	<node lat="69.48603611902087" lon="23.782547091337516" id="-57368">
		<tag k="fixme" v="consider natural=peak for the most distinct mountains in the district" />
		<tag k="name" v="Valljevárri" />
		<tag k="name:se" v="Valljevárri" />
		<tag k="natural" v="hill" />
		<tag k="old_name:se" v="Valljevarri" />
		<tag k="place" v="locality" />
		<tag k="ssr:stedsnr" v="686923" />
	</node>
	<node lat="69.36206667298984" lon="22.682908263579282" id="-57370">
		<tag k="fixme" v="consider natural=peak for the most distinct mountains in the district" />
		<tag k="name" v="Suovrraráhppát" />
		<tag k="name:se" v="Suovrraráhppát" />
		<tag k="natural" v="hill" />
		<tag k="old_name:se" v="Suovrarappat" />
		<tag k="place" v="locality" />
		<tag k="ssr:stedsnr" v="686932" />
	</node>
	<node lat="69.29966388967459" lon="22.564724924067033" id="-57372">
		<tag k="name" v="Roavážat" />
		<tag k="name:se" v="Roavážat" />
		<tag k="natural" v="plateau" />
		<tag k="old_name:se" v="Roavažat;Roávažat" />
		<tag k="ssr:stedsnr" v="686960" />
	</node>
	<node lat="69.48758333917904" lon="23.196786035498835" id="-57375">
		<tag k="name" v="Jieiggus" />
		<tag k="name:se" v="Jieiggus" />
		<tag k="natural" v="mountain_range" />
		<tag k="old_name:se" v="Jieigos" />
		<tag k="ssr:stedsnr" v="686978" />
	</node>
	<node lat="69.47952777955066" lon="23.354305443319866" id="-57376">
		<tag k="fixme" v="consider natural=peak for the most distinct mountains in the district" />
		<tag k="name" v="Buvrráščohkka" />
		<tag k="name:se" v="Buvrráščohkka" />
		<tag k="natural" v="hill" />
		<tag k="old_name:se" v="Buvraščåkka" />
		<tag k="place" v="locality" />
		<tag k="ssr:stedsnr" v="686981" />
	</node>
	<node lat="69.46959722849189" lon="22.829388805274608" id="-57377">
		<tag k="fixme" v="consider natural=peak for the most distinct mountains in the district" />
		<tag k="name" v="Čároaivi" />
		<tag k="name:se" v="Čároaivi" />
		<tag k="natural" v="hill" />
		<tag k="old_name:se" v="Čaroaivi" />
		<tag k="place" v="locality" />
		<tag k="ssr:stedsnr" v="686986" />
	</node>
	<node lat="69.44293611227761" lon="23.629655436042047" id="-57380">
		<tag k="fixme" v="consider natural=peak for the most distinct mountains in the district" />
		<tag k="name" v="Bojároavvi" />
		<tag k="name:se" v="Bojároavvi" />
		<tag k="natural" v="hill" />
		<tag k="place" v="locality" />
		<tag k="ssr:stedsnr" v="564418" />
	</node>
	<node lat="69.4153361136437" lon="23.64174987083604" id="-57382">
		<tag k="name" v="Bissogoarvi" />
		<tag k="name:se" v="Bissogoarvi" />
		<tag k="old_name:se" v="Bissugoarvi" />
		<tag k="place" v="locality" />
		<tag k="ssr:stedsnr" v="564437" />
	</node>
	<node lat="69.58486666885959" lon="23.376836009687842" id="-57384">
		<tag k="fixme" v="consider natural=peak for the most distinct mountains in the district" />
		<tag k="name" v="Guđaváráš" />
		<tag k="name:se" v="Guđaváráš" />
		<tag k="natural" v="hill" />
		<tag k="old_name:se" v="Guđavaraš" />
		<tag k="place" v="locality" />
		<tag k="ssr:stedsnr" v="564702" />
	</node>
	<node lat="69.6526472274687" lon="23.94107765018996" id="-57387">
		<tag k="fixme" v="consider natural=peak for the most distinct mountains in the district" />
		<tag k="name" v="Hárrečorut" />
		<tag k="name:se" v="Hárrečorut" />
		<tag k="natural" v="hill" />
		<tag k="old_name:se" v="Harrečårot" />
		<tag k="place" v="locality" />
		<tag k="ssr:stedsnr" v="564611" />
	</node>
	<node lat="69.46596388660886" lon="22.5529999370225" id="-57390">
		<tag k="name" v="Gálggonjunnásat" />
		<tag k="name:se" v="Gálggonjunnásat" />
		<tag k="natural" v="plateau" />
		<tag k="old_name:se" v="Galgunjunnasat" />
		<tag k="ssr:stedsnr" v="564765" />
	</node>
	<node lat="69.47389166738517" lon="22.80064715715142" id="-57392">
		<tag k="name" v="Geassengorsa" />
		<tag k="name:se" v="Geassengorsa" />
		<tag k="natural" v="valley" />
		<tag k="old_name:se" v="Gæssengårsa" />
		<tag k="place" v="locality" />
		<tag k="ssr:stedsnr" v="564769" />
	</node>
	<node lat="69.53603333507955" lon="22.810558258171746" id="-57394">
		<tag k="fixme" v="consider natural=peak for the most distinct mountains in the district" />
		<tag k="name" v="Čoavddavárri" />
		<tag k="name:se" v="Čoavddavárri" />
		<tag k="natural" v="hill" />
		<tag k="old_name:se" v="Čoavdavarri" />
		<tag k="place" v="locality" />
		<tag k="ssr:stedsnr" v="564774" />
	</node>
	<node lat="69.25380000051848" lon="22.90892491616046" id="-57396">
		<tag k="name" v="Ájastealli" />
		<tag k="name:se" v="Ájastealli" />
		<tag k="natural" v="slope" />
		<tag k="old_name:se" v="Ajastælli" />
		<tag k="place" v="locality" />
		<tag k="ssr:stedsnr" v="564915" />
	</node>
	<node lat="69.2989500045165" lon="22.80314437962002" id="-57398">
		<tag k="fixme" v="consider natural=peak for the most distinct mountains in the district" />
		<tag k="name" v="Čáhppesčohkat" />
		<tag k="name:se" v="Čáhppesčohkat" />
		<tag k="natural" v="hill" />
		<tag k="old_name:se" v="Čappesčåkkat" />
		<tag k="place" v="locality" />
		<tag k="ssr:stedsnr" v="564970" />
	</node>
	<node lat="69.27313611026082" lon="22.59111659147627" id="-57399">
		<tag k="fixme" v="consider natural=peak for the most distinct mountains in the district" />
		<tag k="name" v="Vuolit Ráhpenjunnás" />
		<tag k="name:se" v="Vuolit Ráhpenjunnás" />
		<tag k="natural" v="hill" />
		<tag k="old_name:se" v="Rappenjunnas, vuolit" />
		<tag k="place" v="locality" />
		<tag k="ssr:stedsnr" v="564972" />
	</node>
	<node lat="69.27212499857225" lon="22.677002712055028" id="-57400">
		<tag k="fixme" v="consider natural=peak for the most distinct mountains in the district" />
		<tag k="name" v="Dáččavárri" />
		<tag k="name:se" v="Dáččavárri" />
		<tag k="natural" v="hill" />
		<tag k="old_name:se" v="Dažžavarri" />
		<tag k="place" v="locality" />
		<tag k="ssr:stedsnr" v="564975" />
	</node>
	<node lat="69.14663611808345" lon="23.400349888001713" id="-57402">
		<tag k="name" v="Guhkesluovttabuolža" />
		<tag k="name:se" v="Guhkesluovttabuolža" />
		<tag k="natural" v="ridge" />
		<tag k="place" v="locality" />
		<tag k="ssr:stedsnr" v="693392" />
	</node>
	<node lat="69.02812500189182" lon="22.13368328435821" id="-57403">
		<tag k="fixme" v="consider natural=peak for the most distinct mountains in the district" />
		<tag k="name" v="Čearrogeašgielas" />
		<tag k="name:se" v="Čearrogeašgielas" />
		<tag k="natural" v="hill" />
		<tag k="place" v="locality" />
		<tag k="ssr:stedsnr" v="565608" />
	</node>
	<node lat="69.42360833781791" lon="23.73152488408261" id="-57405">
		<tag k="name" v="Ráhpesčorru" />
		<tag k="name:se" v="Ráhpesčorru" />
		<tag k="natural" v="hill" />
		<tag k="place" v="locality" />
		<tag k="ssr:stedsnr" v="576325" />
	</node>
	<node lat="68.99983056065483" lon="23.2456554441557" id="-57409">
		<tag k="fixme" v="consider natural=peak for the most distinct mountains in the district" />
		<tag k="name" v="Jeagelnjunit" />
		<tag k="name:se" v="Jeagelnjunit" />
		<tag k="natural" v="hill" />
		<tag k="place" v="locality" />
		<tag k="ssr:stedsnr" v="577113" />
	</node>
	<node lat="69.00949445113824" lon="23.23320267096018" id="-57412">
		<tag k="name" v="Biedjodievát" />
		<tag k="name:se" v="Biedjodievát" />
		<tag k="natural" v="hill" />
		<tag k="place" v="locality" />
		<tag k="ssr:stedsnr" v="577402" />
	</node>
	<node lat="69.01312222574592" lon="23.218119349507866" id="-57413">
		<tag k="name" v="Jalŋŋisčorru" />
		<tag k="name:se" v="Jalŋŋisčorru" />
		<tag k="natural" v="hill" />
		<tag k="place" v="locality" />
		<tag k="ssr:stedsnr" v="577424" />
	</node>
	<node lat="69.4345555613911" lon="23.649633214476694" id="-57414">
		<tag k="name" v="Skvonetluohkká" />
		<tag k="name:se" v="Skvonetluohkká" />
		<tag k="natural" v="slope" />
		<tag k="place" v="locality" />
		<tag k="ssr:stedsnr" v="577517" />
	</node>
	<node lat="69.00558333460937" lon="23.04623045793442" id="-57415">
		<tag k="name" v="Nivstegurra" />
		<tag k="name:se" v="Nivstegurra" />
		<tag k="natural" v="valley" />
		<tag k="place" v="locality" />
		<tag k="ssr:stedsnr" v="577519" />
	</node>
	<node lat="69.00566666715184" lon="23.03200825009581" id="-57416">
		<tag k="name" v="Geađgenjunni" />
		<tag k="name:se" v="Geađgenjunni" />
		<tag k="natural" v="slope" />
		<tag k="place" v="locality" />
		<tag k="ssr:stedsnr" v="577545" />
	</node>
	<node lat="68.99995000478569" lon="23.02519992054997" id="-57418">
		<tag k="name" v="Kirsteluohkká" />
		<tag k="name:se" v="Kirsteluohkká" />
		<tag k="natural" v="slope" />
		<tag k="place" v="locality" />
		<tag k="ssr:stedsnr" v="577548" />
	</node>
	<node lat="69.43501388872743" lon="23.694569331885432" id="-57419">
		<tag k="name" v="Orvvošvárnjunni" />
		<tag k="name:se" v="Orvvošvárnjunni" />
		<tag k="place" v="locality" />
		<tag k="ssr:stedsnr" v="577709" />
	</node>
	<node lat="69.04119444700282" lon="23.10984989889965" id="-57420">
		<tag k="name" v="Lovku" />
		<tag k="name:se" v="Lovku" />
		<tag k="natural" v="slope" />
		<tag k="place" v="locality" />
		<tag k="ssr:stedsnr" v="577903" />
	</node>
	<node lat="69.02435556153067" lon="23.056444348750965" id="-57421">
		<tag k="name" v="Bohtaldievvá" />
		<tag k="name:se" v="Bohtaldievvá" />
		<tag k="natural" v="hill" />
		<tag k="place" v="locality" />
		<tag k="ssr:stedsnr" v="577892" />
	</node>
	<node lat="68.90853055463114" lon="22.879541579036054" id="-57423">
		<tag k="name" v="Baseroggi" />
		<tag k="name:se" v="Baseroggi" />
		<tag k="natural" v="valley" />
		<tag k="place" v="locality" />
		<tag k="ssr:stedsnr" v="592014" />
	</node>
	<node lat="68.93122778055601" lon="22.908752682285517" id="-57424">
		<tag k="name" v="Luoktagohpi" />
		<tag k="name:se" v="Luoktagohpi" />
		<tag k="natural" v="valley" />
		<tag k="place" v="locality" />
		<tag k="ssr:stedsnr" v="592066" />
	</node>
	<node lat="69.17644445012394" lon="23.48698043579931" id="-57427">
		<tag k="fixme" v="consider natural=peak for the most distinct mountains in the district" />
		<tag k="name" v="Giegadievvá" />
		<tag k="name:se" v="Giegadievvá" />
		<tag k="natural" v="hill" />
		<tag k="place" v="locality" />
		<tag k="ssr:stedsnr" v="592709" />
	</node>
	<node lat="69.01795277866601" lon="23.226158226824168" id="-57433">
		<tag k="name" v="Liigemohkki" />
		<tag k="name:se" v="Liigemohkki" />
		<tag k="natural" v="slope" />
		<tag k="place" v="locality" />
		<tag k="ssr:stedsnr" v="698027" />
	</node>
	<node lat="69.01056944608983" lon="23.255608227463327" id="-57435">
		<tag k="name" v="Niittojarinboldni" />
		<tag k="name:se" v="Niittojarinboldni" />
		<tag k="natural" v="hill" />
		<tag k="place" v="locality" />
		<tag k="ssr:stedsnr" v="698069" />
	</node>
	<node lat="69.49411945000618" lon="23.723038759321746" id="-57436">
		<tag k="name" v="Jalgesbákti" />
		<tag k="name:se" v="Jalgesbákti" />
		<tag k="natural" v="hill" />
		<tag k="place" v="locality" />
		<tag k="ssr:stedsnr" v="698330" />
	</node>
	<node lat="69.05015833711268" lon="23.207005467210838" id="-57437">
		<tag k="fixme" v="consider natural=peak for the most distinct mountains in the district" />
		<tag k="name" v="Ruossačorru" />
		<tag k="name:se" v="Ruossačorru" />
		<tag k="natural" v="hill" />
		<tag k="place" v="locality" />
		<tag k="ssr:stedsnr" v="698091" />
	</node>
	<node lat="69.05682222358952" lon="23.20085545546217" id="-57438">
		<tag k="name" v="Veallángohpi" />
		<tag k="name:se" v="Veallángohpi" />
		<tag k="natural" v="valley" />
		<tag k="place" v="locality" />
		<tag k="ssr:stedsnr" v="698108" />
	</node>
	<node lat="69.48617222700484" lon="23.675027667127136" id="-57440">
		<tag k="fixme" v="consider natural=peak for the most distinct mountains in the district" />
		<tag k="name" v="Njálggaeanan" />
		<tag k="name:se" v="Njálggaeanan" />
		<tag k="natural" v="hill" />
		<tag k="place" v="locality" />
		<tag k="ssr:stedsnr" v="698298" />
	</node>
	<node lat="69.04596389207069" lon="23.166763800980334" id="-57442">
		<tag k="name" v="Njukčagorsa" />
		<tag k="name:se" v="Njukčagorsa" />
		<tag k="natural" v="valley" />
		<tag k="place" v="locality" />
		<tag k="ssr:stedsnr" v="698532" />
	</node>
	<node lat="69.44735000246716" lon="23.719683203206802" id="-57446">
		<tag k="name" v="Orvvošvárreseiboš" />
		<tag k="name:se" v="Orvvošvárreseiboš" />
		<tag k="place" v="locality" />
		<tag k="ssr:stedsnr" v="698672" />
	</node>
	<node lat="69.29154445085922" lon="23.84252764098853" id="-57462">
		<tag k="fixme" v="consider natural=peak for the most distinct mountains in the district" />
		<tag k="name" v="Ganešvárri" />
		<tag k="name:se" v="Ganešvárri" />
		<tag k="natural" v="hill" />
		<tag k="old_name:se" v="Ganesvarri" />
		<tag k="place" v="locality" />
		<tag k="ssr:stedsnr" v="624273" />
	</node>
	<node lat="69.67378056044745" lon="23.86699430916705" id="-57464">
		<tag k="fixme" v="consider natural=peak for the most distinct mountains in the district" />
		<tag k="name" v="Stuora Fielláščohkka" />
		<tag k="name:se" v="Stuora Fielláščohkka" />
		<tag k="natural" v="hill" />
		<tag k="old_name:se" v="Fiellaščåkka, stuora" />
		<tag k="place" v="locality" />
		<tag k="ssr:stedsnr" v="624618" />
	</node>
	<node lat="69.19058611527805" lon="22.87906103016666" id="-57465">
		<tag k="name" v="Viekcevárbohki" />
		<tag k="name:se" v="Viekcevárbohki" />
		<tag k="natural" v="valley" />
		<tag k="old_name:se" v="Viekcevarbåkki" />
		<tag k="place" v="locality" />
		<tag k="ssr:stedsnr" v="624658" />
	</node>
	<node lat="69.13698056288113" lon="23.229986017136074" id="-57466">
		<tag k="fixme" v="consider natural=peak for the most distinct mountains in the district" />
		<tag k="name" v="Vuovdi-Mierovárri" />
		<tag k="name:se" v="Vuovdi-Mierovárri" />
		<tag k="natural" v="hill" />
		<tag k="old_name:se" v="Mieruvarri, vuovdi;Vuovdi Mierovárri" />
		<tag k="place" v="locality" />
		<tag k="ssr:stedsnr" v="624665" />
	</node>
	<node lat="69.57254166644744" lon="23.282072138252822" id="-57473">
		<tag k="name" v="Giđđanjoaskkehoaŋka" />
		<tag k="name:se" v="Giđđanjoaskkehoaŋka" />
		<tag k="old_name:se" v="Giđđanjoaskehoarka" />
		<tag k="place" v="locality" />
		<tag k="ssr:stedsnr" v="624714" />
	</node>
	<node lat="69.60295000409242" lon="23.401591566603056" id="-57475">
		<tag k="fixme" v="consider natural=peak for the most distinct mountains in the district" />
		<tag k="name" v="Stuora Vuoiddasvárri" />
		<tag k="name:se" v="Stuora Vuoiddasvárri" />
		<tag k="natural" v="hill" />
		<tag k="place" v="locality" />
		<tag k="ssr:stedsnr" v="624719" />
	</node>
	<node lat="69.0610055612518" lon="22.322299933335444" id="-57478">
		<tag k="fixme" v="consider natural=peak for the most distinct mountains in the district" />
		<tag k="name" v="Bálsevárri" />
		<tag k="name:se" v="Bálsevárri" />
		<tag k="natural" v="hill" />
		<tag k="old_name:se" v="Balsevarri" />
		<tag k="place" v="locality" />
		<tag k="ssr:stedsnr" v="624734" />
	</node>
	<node lat="68.79205000423406" lon="23.70778041746783" id="-57479">
		<tag k="fixme" v="consider natural=peak for the most distinct mountains in the district" />
		<tag k="name" v="Bajášvárri" />
		<tag k="name:se" v="Bajášvárri" />
		<tag k="natural" v="hill" />
		<tag k="old_name:se" v="Bajašvarri" />
		<tag k="place" v="locality" />
		<tag k="ssr:stedsnr" v="624755" />
	</node>
	<node lat="69.6845861085578" lon="22.966758264863433" id="-57480">
		<tag k="fixme" v="consider natural=peak for the most distinct mountains in the district" />
		<tag k="name" v="Guolloaivi" />
		<tag k="name:se" v="Guolloaivi" />
		<tag k="natural" v="hill" />
		<tag k="old_name:se" v="Guolloai'vi" />
		<tag k="place" v="locality" />
		<tag k="ssr:stedsnr" v="624762" />
	</node>
	<node lat="69.68264722557413" lon="23.207924903714638" id="-57481">
		<tag k="fixme" v="consider natural=peak for the most distinct mountains in the district" />
		<tag k="name" v="Lássesoaivi" />
		<tag k="name:se" v="Lássesoaivi" />
		<tag k="natural" v="hill" />
		<tag k="old_name:se" v="Lassesoaivi" />
		<tag k="place" v="locality" />
		<tag k="ssr:stedsnr" v="624767" />
	</node>
	<node lat="68.91255000092893" lon="23.570455436513285" id="-57484">
		<tag k="fixme" v="consider natural=peak for the most distinct mountains in the district" />
		<tag k="name" v="Davit Lávvoaivi" />
		<tag k="name:se" v="Davit Lávvoaivi" />
		<tag k="natural" v="hill" />
		<tag k="old_name:se" v="Lavvoaivi, davit" />
		<tag k="place" v="locality" />
		<tag k="ssr:stedsnr" v="624985" />
	</node>
	<node lat="69.38539999985659" lon="23.14753880201731" id="-57485">
		<tag k="fixme" v="consider natural=peak for the most distinct mountains in the district" />
		<tag k="name" v="Skierrevárri" />
		<tag k="name:se" v="Skierrevárri" />
		<tag k="natural" v="hill" />
		<tag k="old_name:se" v="Skierrevarri" />
		<tag k="place" v="locality" />
		<tag k="ssr:stedsnr" v="624877" />
	</node>
	<node lat="69.35080555704691" lon="23.940022083577187" id="-57489">
		<tag k="fixme" v="consider natural=peak for the most distinct mountains in the district" />
		<tag k="name" v="Guorbavárri" />
		<tag k="name:se" v="Guorbavárri" />
		<tag k="natural" v="hill" />
		<tag k="old_name:se" v="Guorbavarri" />
		<tag k="place" v="locality" />
		<tag k="ssr:stedsnr" v="625459" />
	</node>
	<node lat="69.33348333592005" lon="23.524272098322975" id="-57491">
		<tag k="fixme" v="consider natural=peak for the most distinct mountains in the district" />
		<tag k="name" v="Beahkávárri" />
		<tag k="name:se" v="Beahkávárri" />
		<tag k="natural" v="hill" />
		<tag k="old_name:se" v="Bækkavarri" />
		<tag k="place" v="locality" />
		<tag k="ssr:stedsnr" v="625466" />
	</node>
	<node lat="69.4086833369419" lon="24.091960965153717" id="-57492">
		<tag k="fixme" v="consider natural=peak for the most distinct mountains in the district" />
		<tag k="name" v="Guotkoráhpesvárri" />
		<tag k="name:se" v="Guotkoráhpesvárri" />
		<tag k="natural" v="hill" />
		<tag k="old_name:se" v="Guotkurappesvarri" />
		<tag k="place" v="locality" />
		<tag k="ssr:stedsnr" v="625307" />
	</node>
	<node lat="69.37907222732153" lon="22.574772159845647" id="-57494">
		<tag k="fixme" v="consider natural=peak for the most distinct mountains in the district" />
		<tag k="name" v="Sieiddáš" />
		<tag k="name:se" v="Sieiddáš" />
		<tag k="natural" v="hill" />
		<tag k="old_name:se" v="Sieidaš" />
		<tag k="place" v="locality" />
		<tag k="ssr:stedsnr" v="625810" />
	</node>
	<node lat="69.62048889498404" lon="23.094183240475633" id="-57496">
		<tag k="fixme" v="consider natural=peak for the most distinct mountains in the district" />
		<tag k="name" v="Biedjočohkka" />
		<tag k="name:se" v="Biedjočohkka" />
		<tag k="natural" v="hill" />
		<tag k="old_name:se" v="Bieddjučåkka" />
		<tag k="place" v="locality" />
		<tag k="ssr:stedsnr" v="625754" />
	</node>
	<node lat="69.04191389024999" lon="23.15728600205868" id="-57506">
		<tag k="name" v="Skáidegurra" />
		<tag k="name:se" v="Skáidegurra" />
		<tag k="natural" v="valley" />
		<tag k="place" v="locality" />
		<tag k="ssr:stedsnr" v="637580" />
	</node>
	<node lat="69.05431111645154" lon="23.007047127100034" id="-57511">
		<tag k="name" v="Ginalvárregeahče" />
		<tag k="name:se" v="Ginalvárregeahče" />
		<tag k="place" v="locality" />
		<tag k="ssr:stedsnr" v="637917" />
	</node>
	<node lat="68.83544722255463" lon="23.192461010578512" id="-57514">
		<tag k="fixme" v="consider natural=peak for the most distinct mountains in the district" />
		<tag k="name" v="Skáidegeahči" />
		<tag k="name:se" v="Skáidegeahči" />
		<tag k="natural" v="hill" />
		<tag k="place" v="locality" />
		<tag k="ssr:stedsnr" v="653247" />
	</node>
	<node lat="68.97173055708433" lon="22.942199903631174" id="-57528">
		<tag k="name" v="Sevdnjesmaras" />
		<tag k="name:se" v="Sevdnjesmaras" />
		<tag k="natural" v="hill" />
		<tag k="old_name:se" v="Sev'dnjesmaras" />
		<tag k="place" v="locality" />
		<tag k="ssr:stedsnr" v="685006" />
	</node>
	<node lat="68.72367222710768" lon="24.335780360411718" id="-57529">
		<tag k="fixme" v="consider natural=peak for the most distinct mountains in the district" />
		<tag k="name" v="Lulit Bissovárri" />
		<tag k="name:se" v="Lulit Bissovárri" />
		<tag k="natural" v="hill" />
		<tag k="old_name:se" v="Bissuvarri, lulit" />
		<tag k="place" v="locality" />
		<tag k="ssr:stedsnr" v="685008" />
	</node>
	<node lat="68.96576944799634" lon="23.036272138336987" id="-57531">
		<tag k="alt_name:se" v="Skáidealáš" />
		<tag k="fixme" v="consider natural=peak for the most distinct mountains in the district" />
		<tag k="name" v="Skáiddaláš" />
		<tag k="name:se" v="Skáiddaláš" />
		<tag k="natural" v="hill" />
		<tag k="old_name:se" v="Skaidalaš" />
		<tag k="place" v="locality" />
		<tag k="ssr:stedsnr" v="685010" />
	</node>
	<node lat="68.74687222805271" lon="24.868419196334138" id="-57533">
		<tag k="fixme" v="consider natural=peak for the most distinct mountains in the district" />
		<tag k="name" v="Luossačearru" />
		<tag k="name:se" v="Luossačearru" />
		<tag k="natural" v="hill" />
		<tag k="old_name:se" v="Luossačærro" />
		<tag k="place" v="locality" />
		<tag k="ssr:stedsnr" v="685016" />
	</node>
	<node lat="69.06665833497203" lon="22.905399927421335" id="-57536">
		<tag k="fixme" v="consider natural=peak for the most distinct mountains in the district" />
		<tag k="name" v="Veainnučorru" />
		<tag k="name:se" v="Veainnučorru" />
		<tag k="natural" v="hill" />
		<tag k="old_name:se" v="Væinočårro" />
		<tag k="place" v="locality" />
		<tag k="ssr:stedsnr" v="685591" />
	</node>
	<node lat="69.18903888877634" lon="22.832849909775078" id="-57543">
		<tag k="fixme" v="consider natural=peak for the most distinct mountains in the district" />
		<tag k="name" v="Čáhppesroavvi" />
		<tag k="name:se" v="Čáhppesroavvi" />
		<tag k="natural" v="hill" />
		<tag k="old_name:se" v="Čappesroavvi" />
		<tag k="place" v="locality" />
		<tag k="ssr:stedsnr" v="685647" />
	</node>
	<node lat="69.1859305573759" lon="23.28662489359383" id="-57544">
		<tag k="fixme" v="consider natural=peak for the most distinct mountains in the district" />
		<tag k="name" v="Lulimus Dorskavárri" />
		<tag k="name:se" v="Lulimus Dorskavárri" />
		<tag k="natural" v="hill" />
		<tag k="old_name:se" v="Dårskavarri, lulimus" />
		<tag k="place" v="locality" />
		<tag k="ssr:stedsnr" v="685650" />
	</node>
	<node lat="69.60400278479938" lon="22.94346659182363" id="-57548">
		<tag k="name" v="Livvasadji" />
		<tag k="name:se" v="Livvasadji" />
		<tag k="old_name:se" v="Livvasaddji" />
		<tag k="place" v="locality" />
		<tag k="ssr:stedsnr" v="685702" />
	</node>
	<node lat="68.88514167306248" lon="23.946430398602757" id="-57549">
		<tag k="fixme" v="consider natural=peak for the most distinct mountains in the district" />
		<tag k="name" v="Guorbačohkka" />
		<tag k="name:se" v="Guorbačohkka" />
		<tag k="natural" v="hill" />
		<tag k="old_name:se" v="Guorbačåkko" />
		<tag k="place" v="locality" />
		<tag k="ssr:stedsnr" v="685746" />
	</node>
	<node lat="68.88333889709662" lon="23.706849875931923" id="-57550">
		<tag k="fixme" v="consider natural=peak for the most distinct mountains in the district" />
		<tag k="name" v="Gumpegielas" />
		<tag k="name:se" v="Gumpegielas" />
		<tag k="natural" v="hill" />
		<tag k="old_name:se" v="Gum'pegielas" />
		<tag k="place" v="locality" />
		<tag k="ssr:stedsnr" v="685751" />
	</node>
	<node lat="68.95820000563614" lon="24.110849851362243" id="-57551">
		<tag k="fixme" v="consider natural=peak for the most distinct mountains in the district" />
		<tag k="name" v="Nuorttit Vuomagielas" />
		<tag k="name:se" v="Nuorttit Vuomagielas" />
		<tag k="natural" v="hill" />
		<tag k="old_name:se" v="Vuomagielas, nuortit" />
		<tag k="place" v="locality" />
		<tag k="ssr:stedsnr" v="685798" />
	</node>
	<node lat="68.82446667404037" lon="23.29053323933398" id="-57553">
		<tag k="name" v="Eallačorru" />
		<tag k="name:se" v="Eallačorru" />
		<tag k="natural" v="hill" />
		<tag k="old_name:se" v="Ællačårro" />
		<tag k="place" v="locality" />
		<tag k="ssr:stedsnr" v="685903" />
	</node>
	<node lat="69.24581667105063" lon="22.575433273523995" id="-57559">
		<tag k="fixme" v="consider natural=peak for the most distinct mountains in the district" />
		<tag k="name" v="Njoaskevárri" />
		<tag k="name:se" v="Njoaskevárri" />
		<tag k="natural" v="hill" />
		<tag k="old_name:se" v="Njoaskevarri" />
		<tag k="place" v="locality" />
		<tag k="ssr:stedsnr" v="686243" />
	</node>
	<node lat="69.41815833373205" lon="23.845283203603657" id="-57561">
		<tag k="name" v="Gumpegurra" />
		<tag k="name:se" v="Gumpegurra" />
		<tag k="natural" v="valley" />
		<tag k="old_name:se" v="Gum'pegurra" />
		<tag k="place" v="locality" />
		<tag k="ssr:stedsnr" v="686441" />
	</node>
	<node lat="69.59923333454286" lon="23.55164989055204" id="-57565">
		<tag k="fixme" v="consider natural=peak for the most distinct mountains in the district" />
		<tag k="name" v="Dálločorru" />
		<tag k="name:se" v="Dálločorru" />
		<tag k="natural" v="hill" />
		<tag k="old_name:se" v="Dallučårro" />
		<tag k="place" v="locality" />
		<tag k="ssr:stedsnr" v="686593" />
	</node>
	<node lat="69.59846667220317" lon="23.90843319401996" id="-57566">
		<tag k="fixme" v="consider natural=peak for the most distinct mountains in the district" />
		<tag k="name" v="Virdnečorru" />
		<tag k="name:se" v="Virdnečorru" />
		<tag k="natural" v="hill" />
		<tag k="old_name:se" v="Virdnečårro" />
		<tag k="place" v="locality" />
		<tag k="ssr:stedsnr" v="686595" />
	</node>
	<node lat="69.62914722287847" lon="22.924780475516844" id="-57569">
		<tag k="fixme" v="consider natural=peak for the most distinct mountains in the district" />
		<tag k="name" v="Njuikenoaivi" />
		<tag k="name:se" v="Njuikenoaivi" />
		<tag k="natural" v="hill" />
		<tag k="old_name:se" v="Njuikenoai'vi" />
		<tag k="place" v="locality" />
		<tag k="ssr:stedsnr" v="686738" />
	</node>
	<node lat="69.53733333308718" lon="22.991580464805942" id="-57570">
		<tag k="fixme" v="consider natural=peak for the most distinct mountains in the district" />
		<tag k="name" v="Vildoloapmočohkka" />
		<tag k="name:se" v="Vildoloapmočohkka" />
		<tag k="natural" v="hill" />
		<tag k="old_name:se" v="Vilduloabmučåkka" />
		<tag k="place" v="locality" />
		<tag k="ssr:stedsnr" v="686689" />
	</node>
	<node lat="69.10988056376378" lon="24.57055257986206" id="-57574">
		<tag k="fixme" v="consider natural=peak for the most distinct mountains in the district" />
		<tag k="name" v="Speajal" />
		<tag k="name:se" v="Speajal" />
		<tag k="natural" v="hill" />
		<tag k="old_name:se" v="Spæjal" />
		<tag k="place" v="locality" />
		<tag k="ssr:stedsnr" v="686889" />
	</node>
	<node lat="69.33059722996032" lon="22.927997133380767" id="-57575">
		<tag k="name" v="Juvvelangorsa" />
		<tag k="name:se" v="Juvvelangorsa" />
		<tag k="natural" v="valley" />
		<tag k="old_name:se" v="Juvvelangårsa" />
		<tag k="place" v="locality" />
		<tag k="ssr:stedsnr" v="686894" />
	</node>
	<node lat="69.29759722454017" lon="23.36041378076338" id="-57576">
		<tag k="fixme" v="consider natural=peak for the most distinct mountains in the district" />
		<tag k="name" v="Oaivvošvárri" />
		<tag k="name:se" v="Oaivvošvárri" />
		<tag k="natural" v="hill" />
		<tag k="old_name:se" v="Oaivusvarri" />
		<tag k="place" v="locality" />
		<tag k="ssr:stedsnr" v="686899" />
	</node>
	<node lat="69.03838889328168" lon="23.58064988707725" id="-57578">
		<tag k="name" v="Áltevárbohki" />
		<tag k="name:se" v="Áltevárbohki" />
		<tag k="natural" v="valley" />
		<tag k="old_name:se" v="Altevarbåkki" />
		<tag k="place" v="locality" />
		<tag k="ssr:stedsnr" v="686995" />
	</node>
	<node lat="69.77259166746819" lon="23.071277707108926" id="-57580">
		<tag k="name" v="Vuoldávži" />
		<tag k="name:se" v="Vuoldávži" />
		<tag k="natural" v="valley" />
		<tag k="old_name:se" v="Vuoldavži" />
		<tag k="place" v="locality" />
		<tag k="ssr:stedsnr" v="687290" />
	</node>
	<node lat="69.0273027849441" lon="23.22758046225327" id="-57584">
		<tag k="fixme" v="consider natural=peak for the most distinct mountains in the district" />
		<tag k="name" v="Vuohppevárri" />
		<tag k="name:se" v="Vuohppevárri" />
		<tag k="natural" v="hill" />
		<tag k="place" v="locality" />
		<tag k="ssr:stedsnr" v="698021" />
	</node>
	<node lat="69.00880278094318" lon="23.105416565536164" id="-57585">
		<tag k="fixme" v="consider natural=peak for the most distinct mountains in the district" />
		<tag k="name" v="Skáidegeahči" />
		<tag k="name:se" v="Skáidegeahči" />
		<tag k="natural" v="hill" />
		<tag k="place" v="locality" />
		<tag k="ssr:stedsnr" v="698503" />
	</node>
	<node lat="68.99706389310538" lon="23.001424903479727" id="-57586">
		<tag k="name" v="Buletrčorru" />
		<tag k="name:se" v="Buletrčorru" />
		<tag k="natural" v="hill" />
		<tag k="place" v="locality" />
		<tag k="ssr:stedsnr" v="698508" />
	</node>
	<node lat="69.4413555590992" lon="23.66554431676518" id="-57591">
		<tag k="name" v="Heavvogurra" />
		<tag k="name:se" v="Heavvogurra" />
		<tag k="natural" v="valley" />
		<tag k="place" v="locality" />
		<tag k="ssr:stedsnr" v="698719" />
	</node>
	<node lat="69.06466666896095" lon="23.01098045557583" id="-57593">
		<tag k="fixme" v="consider natural=peak for the most distinct mountains in the district" />
		<tag k="name" v="Luhppočorru" />
		<tag k="name:se" v="Luhppočorru" />
		<tag k="natural" v="hill" />
		<tag k="place" v="locality" />
		<tag k="ssr:stedsnr" v="896194" />
	</node>
	<node lat="68.73546667379621" lon="23.287299894779476" id="-57598">
		<tag k="fixme" v="consider natural=peak for the most distinct mountains in the district" />
		<tag k="name" v="Jeagelmaras" />
		<tag k="name:se" v="Jeagelmaras" />
		<tag k="natural" v="hill" />
		<tag k="place" v="locality" />
		<tag k="ssr:stedsnr" v="896249" />
	</node>
	<node lat="68.72346944886355" lon="23.316313768430664" id="-57604">
		<tag k="fixme" v="consider natural=peak for the most distinct mountains in the district" />
		<tag k="name" v="Áidemaras" />
		<tag k="name:se" v="Áidemaras" />
		<tag k="natural" v="hill" />
		<tag k="place" v="locality" />
		<tag k="ssr:stedsnr" v="896461" />
	</node>
	<node lat="68.6793805595448" lon="23.335741541139097" id="-57605">
		<tag k="name" v="Geađgeváraláš" />
		<tag k="name:se" v="Geađgeváraláš" />
		<tag k="natural" v="hill" />
		<tag k="place" v="locality" />
		<tag k="ssr:stedsnr" v="896470" />
	</node>
	<node lat="69.16540556158124" lon="23.314499887068752" id="-57610">
		<tag k="fixme" v="consider natural=peak for the most distinct mountains in the district" />
		<tag k="name" v="Ájaceahkki" />
		<tag k="name:se" v="Ájaceahkki" />
		<tag k="natural" v="hill" />
		<tag k="place" v="locality" />
		<tag k="ssr:stedsnr" v="896713" />
	</node>
	<node lat="69.16736111040113" lon="23.304572126345906" id="-57611">
		<tag k="fixme" v="consider natural=peak for the most distinct mountains in the district" />
		<tag k="name" v="Dorskamaras" />
		<tag k="name:se" v="Dorskamaras" />
		<tag k="natural" v="hill" />
		<tag k="place" v="locality" />
		<tag k="ssr:stedsnr" v="896714" />
	</node>
	<node lat="68.8396166716463" lon="23.31045266812238" id="-57612">
		<tag k="fixme" v="consider natural=peak for the most distinct mountains in the district" />
		<tag k="name" v="Vahttájárgeahči" />
		<tag k="name:se" v="Vahttájárgeahči" />
		<tag k="natural" v="hill" />
		<tag k="place" v="locality" />
		<tag k="ssr:stedsnr" v="896497" />
	</node>
	<node lat="69.17025278164236" lon="23.43286656032252" id="-57618">
		<tag k="name" v="Bossačorru" />
		<tag k="name:se" v="Bossačorru" />
		<tag k="natural" v="hill" />
		<tag k="place" v="locality" />
		<tag k="ssr:stedsnr" v="896699" />
	</node>
	<node lat="68.90830833263986" lon="22.87683047255631" id="-57629">
		<tag k="name" v="Buollándievvá" />
		<tag k="name:se" v="Buollándievvá" />
		<tag k="natural" v="hill" />
		<tag k="place" v="locality" />
		<tag k="ssr:stedsnr" v="714019" />
	</node>
	<node lat="68.78405555718595" lon="23.346774893115853" id="-57630">
		<tag k="fixme" v="consider natural=peak for the most distinct mountains in the district" />
		<tag k="name" v="Luovosmaras" />
		<tag k="name:se" v="Luovosmaras" />
		<tag k="natural" v="hill" />
		<tag k="place" v="locality" />
		<tag k="ssr:stedsnr" v="714404" />
	</node>
	<node lat="69.3651722257064" lon="23.48772488735976" id="-57631">
		<tag k="fixme" v="consider natural=peak for the most distinct mountains in the district" />
		<tag k="name" v="Hávdedievvá" />
		<tag k="name:se" v="Hávdedievvá" />
		<tag k="natural" v="hill" />
		<tag k="place" v="locality" />
		<tag k="ssr:stedsnr" v="714376" />
	</node>
	<node lat="69.29413055535827" lon="23.65080821906794" id="-57633">
		<tag k="fixme" v="consider natural=peak for the most distinct mountains in the district" />
		<tag k="name" v="Oarjjimus Russavárri" />
		<tag k="name:se" v="Oarjjimus Russavárri" />
		<tag k="natural" v="hill" />
		<tag k="place" v="locality" />
		<tag k="ssr:stedsnr" v="714429" />
	</node>
	<node lat="69.1749638899604" lon="23.43288878807121" id="-57634">
		<tag k="fixme" v="consider natural=peak for the most distinct mountains in the district" />
		<tag k="name" v="Beahcedievvá" />
		<tag k="name:se" v="Beahcedievvá" />
		<tag k="natural" v="hill" />
		<tag k="place" v="locality" />
		<tag k="ssr:stedsnr" v="714604" />
	</node>
	<node lat="68.99393055677105" lon="23.060433247693325" id="-57639">
		<tag k="name" v="Gironvárri" />
		<tag k="name:se" v="Gironvárri" />
		<tag k="natural" v="hill" />
		<tag k="old_name:se" v="Girunvarri" />
		<tag k="place" v="locality" />
		<tag k="ssr:stedsnr" v="745073" />
	</node>
	<node lat="68.91910278565547" lon="23.461874893266128" id="-57646">
		<tag k="fixme" v="consider natural=peak for the most distinct mountains in the district" />
		<tag k="name" v="Stuora Geađgevárri" />
		<tag k="name:se" v="Stuora Geađgevárri" />
		<tag k="natural" v="hill" />
		<tag k="old_name:se" v="Gæđgevarri, stuora" />
		<tag k="place" v="locality" />
		<tag k="ssr:stedsnr" v="745982" />
	</node>
	<node lat="68.79124167169435" lon="24.666994233366783" id="-57652">
		<tag k="fixme" v="consider natural=peak for the most distinct mountains in the district" />
		<tag k="name" v="Čuoikamaras" />
		<tag k="name:se" v="Čuoikamaras" />
		<tag k="natural" v="hill" />
		<tag k="old_name:se" v="Čuoi'kamaras" />
		<tag k="place" v="locality" />
		<tag k="ssr:stedsnr" v="746616" />
	</node>
	<node lat="69.55401389455402" lon="23.170880459445254" id="-57655">
		<tag k="fixme" v="consider natural=peak for the most distinct mountains in the district" />
		<tag k="name" v="Námmelatčorru" />
		<tag k="name:se" v="Námmelatčorru" />
		<tag k="natural" v="hill" />
		<tag k="old_name:se" v="Nammelatčårro" />
		<tag k="place" v="locality" />
		<tag k="ssr:stedsnr" v="746671" />
	</node>
	<node lat="69.50852222529052" lon="23.71228043733377" id="-57658">
		<tag k="fixme" v="consider natural=peak for the most distinct mountains in the district" />
		<tag k="name" v="Áisarbákti" />
		<tag k="name:se" v="Áisarbákti" />
		<tag k="natural" v="hill" />
		<tag k="old_name:se" v="Aisarbakti" />
		<tag k="place" v="locality" />
		<tag k="ssr:stedsnr" v="746520" />
	</node>
	<node lat="69.5817305601456" lon="23.59883323335047" id="-57660">
		<tag k="name" v="Vuovde-Ráissotnjunni" />
		<tag k="name:se" v="Vuovde-Ráissotnjunni" />
		<tag k="natural" v="hill" />
		<tag k="old_name:se" v="Vuovde Raisutnjunni" />
		<tag k="place" v="locality" />
		<tag k="ssr:stedsnr" v="746571" />
	</node>
	<node lat="69.1266250030872" lon="22.88583602471845" id="-57661">
		<tag k="name" v="Čuojáluhppu" />
		<tag k="name:se" v="Čuojáluhppu" />
		<tag k="natural" v="valley" />
		<tag k="old_name:se" v="Čuojaluppo" />
		<tag k="place" v="locality" />
		<tag k="ssr:stedsnr" v="746572" />
	</node>
	<node lat="69.10609167077668" lon="22.997530478664437" id="-57662">
		<tag k="fixme" v="consider natural=peak for the most distinct mountains in the district" />
		<tag k="name" v="Hoallomaras" />
		<tag k="name:se" v="Hoallomaras" />
		<tag k="natural" v="hill" />
		<tag k="old_name:se" v="Hoallumaras" />
		<tag k="place" v="locality" />
		<tag k="ssr:stedsnr" v="746576" />
	</node>
	<node lat="69.45727500511366" lon="22.467513835144874" id="-57665">
		<tag k="fixme" v="consider natural=peak for the most distinct mountains in the district" />
		<tag k="name" v="Guovdelasoaivi" />
		<tag k="name:se" v="Guovdelasoaivi" />
		<tag k="natural" v="hill" />
		<tag k="old_name:se" v="Guov'delasoai'vi" />
		<tag k="place" v="locality" />
		<tag k="ssr:stedsnr" v="746719" />
	</node>
	<node lat="68.75412500475814" lon="24.238430370345007" id="-57667">
		<tag k="name" v="Rávdogorsa" />
		<tag k="name:se" v="Rávdogorsa" />
		<tag k="natural" v="valley" />
		<tag k="old_name:se" v="Ravdugårsa" />
		<tag k="place" v="locality" />
		<tag k="ssr:stedsnr" v="746777" />
	</node>
	<node lat="68.92585556642233" lon="24.67201368887647" id="-57668">
		<tag k="name" v="Skálvegurra" />
		<tag k="name:se" v="Skálvegurra" />
		<tag k="natural" v="valley" />
		<tag k="old_name:se" v="Skalvegurra" />
		<tag k="place" v="locality" />
		<tag k="ssr:stedsnr" v="746809" />
	</node>
	<node lat="69.32041111014587" lon="22.90000270297797" id="-57669">
		<tag k="fixme" v="consider natural=peak for the most distinct mountains in the district" />
		<tag k="name" v="Ráidogurčohkat" />
		<tag k="name:se" v="Ráidogurčohkat" />
		<tag k="natural" v="hill" />
		<tag k="old_name:se" v="Raidugurčåkkat;Ráidugorčohkat" />
		<tag k="place" v="locality" />
		<tag k="ssr:stedsnr" v="746872" />
	</node>
	<node lat="69.14754167351286" lon="24.081799859274508" id="-57674">
		<tag k="fixme" v="consider natural=peak for the most distinct mountains in the district" />
		<tag k="name" v="Guhkesvárri" />
		<tag k="name:se" v="Guhkesvárri" />
		<tag k="natural" v="hill" />
		<tag k="old_name:se" v="Gukkesvarri" />
		<tag k="place" v="locality" />
		<tag k="ssr:stedsnr" v="746967" />
	</node>
	<node lat="69.26846111173299" lon="22.75622770883458" id="-57675">
		<tag k="fixme" v="consider natural=peak for the most distinct mountains in the district" />
		<tag k="name" v="Čuolbmašlubbu" />
		<tag k="name:se" v="Čuolbmašlubbu" />
		<tag k="natural" v="hill" />
		<tag k="old_name:se" v="Čuolbmašlubbo" />
		<tag k="place" v="locality" />
		<tag k="ssr:stedsnr" v="746971" />
	</node>
	<node lat="69.034550005274" lon="22.195313831961386" id="-57678">
		<tag k="name" v="Fuozovárri" />
		<tag k="name:se" v="Fuozovárri" />
		<tag k="natural" v="hill" />
		<tag k="place" v="locality" />
		<tag k="ssr:stedsnr" v="747517" />
	</node>
	<node lat="69.14765278257786" lon="23.733624860026538" id="-57679">
		<tag k="fixme" v="consider natural=peak for the most distinct mountains in the district" />
		<tag k="name" v="Basegielas" />
		<tag k="name:se" v="Basegielas" />
		<tag k="natural" v="hill" />
		<tag k="place" v="locality" />
		<tag k="ssr:stedsnr" v="747964" />
	</node>
	<node lat="69.16753333450498" lon="23.46144988821422" id="-57680">
		<tag k="name" v="Riebančorru" />
		<tag k="name:se" v="Riebančorru" />
		<tag k="natural" v="hill" />
		<tag k="place" v="locality" />
		<tag k="ssr:stedsnr" v="753119" />
	</node>
	<node lat="69.03775556237296" lon="23.274197126892727" id="-57686">
		<tag k="fixme" v="consider natural=peak for the most distinct mountains in the district" />
		<tag k="name" v="Bealljaš" />
		<tag k="name:se" v="Bealljaš" />
		<tag k="natural" v="hill" />
		<tag k="place" v="locality" />
		<tag k="ssr:stedsnr" v="759004" />
	</node>
	<node lat="69.03741945190902" lon="23.135074902489936" id="-57687">
		<tag k="fixme" v="consider natural=peak for the most distinct mountains in the district" />
		<tag k="name" v="Čierrundievvá" />
		<tag k="name:se" v="Čierrundievvá" />
		<tag k="natural" v="hill" />
		<tag k="place" v="locality" />
		<tag k="ssr:stedsnr" v="759505" />
	</node>
	<node lat="69.01706389231484" lon="23.160769357377426" id="-57688">
		<tag k="fixme" v="consider natural=peak for the most distinct mountains in the district" />
		<tag k="name" v="Čohkamaras" />
		<tag k="name:se" v="Čohkamaras" />
		<tag k="natural" v="hill" />
		<tag k="place" v="locality" />
		<tag k="ssr:stedsnr" v="759508" />
	</node>
	<node lat="69.01028611238645" lon="23.14159156848023" id="-57690">
		<tag k="name" v="Guovžžagurra" />
		<tag k="name:se" v="Guovžžagurra" />
		<tag k="natural" v="valley" />
		<tag k="place" v="locality" />
		<tag k="ssr:stedsnr" v="759848" />
	</node>
	<node lat="68.7441722278141" lon="23.26388322386411" id="-57692">
		<tag k="name" v="Rietnjeváregilga" />
		<tag k="name:se" v="Rietnjeváregilga" />
		<tag k="place" v="locality" />
		<tag k="ssr:stedsnr" v="774263" />
	</node>
	<node lat="68.88290556432739" lon="23.14602489338178" id="-57694">
		<tag k="fixme" v="consider natural=peak for the most distinct mountains in the district" />
		<tag k="name" v="Duolbaroavvi" />
		<tag k="name:se" v="Duolbaroavvi" />
		<tag k="natural" v="hill" />
		<tag k="place" v="locality" />
		<tag k="ssr:stedsnr" v="774302" />
	</node>
	<node lat="69.14031111162812" lon="23.275152678250606" id="-57697">
		<tag k="fixme" v="consider natural=peak for the most distinct mountains in the district" />
		<tag k="name" v="Heargemarrasaš" />
		<tag k="name:se" v="Heargemarrasaš" />
		<tag k="natural" v="hill" />
		<tag k="place" v="locality" />
		<tag k="ssr:stedsnr" v="774416" />
	</node>
	<node lat="69.1202861166765" lon="23.3106026700579" id="-57701">
		<tag k="fixme" v="consider natural=peak for the most distinct mountains in the district" />
		<tag k="name" v="Hávgadievát" />
		<tag k="name:se" v="Hávgadievát" />
		<tag k="natural" v="hill" />
		<tag k="place" v="locality" />
		<tag k="ssr:stedsnr" v="775568" />
	</node>
	<node lat="69.04587778597447" lon="23.063194349293184" id="-57711">
		<tag k="name" v="Jorbmedievát" />
		<tag k="name:se" v="Jorbmedievát" />
		<tag k="natural" v="hill" />
		<tag k="place" v="locality" />
		<tag k="ssr:stedsnr" v="820910" />
	</node>
	<node lat="69.38373056267662" lon="24.094413731077566" id="-57713">
		<tag k="name" v="Buolža" />
		<tag k="name:se" v="Buolža" />
		<tag k="natural" v="hill" />
		<tag k="place" v="locality" />
		<tag k="ssr:stedsnr" v="836280" />
	</node>
	<node lat="69.18695278298063" lon="23.55384433201138" id="-57716">
		<tag k="name" v="Biddomielli" />
		<tag k="name:se" v="Biddomielli" />
		<tag k="natural" v="slope" />
		<tag k="place" v="locality" />
		<tag k="ssr:stedsnr" v="836703" />
	</node>
	<node lat="69.18035833708599" lon="23.483113765837413" id="-57717">
		<tag k="fixme" v="consider natural=peak for the most distinct mountains in the district" />
		<tag k="name" v="Čohkadievvá" />
		<tag k="name:se" v="Čohkadievvá" />
		<tag k="natural" v="hill" />
		<tag k="place" v="locality" />
		<tag k="ssr:stedsnr" v="836609" />
	</node>
	<node lat="69.14769167221239" lon="23.286374887631606" id="-57718">
		<tag k="name" v="Luhppu" />
		<tag k="name:se" v="Luhppu" />
		<tag k="natural" v="valley" />
		<tag k="place" v="locality" />
		<tag k="ssr:stedsnr" v="836633" />
	</node>
	<node lat="69.31254722190619" lon="23.46256378356515" id="-57719">
		<tag k="name" v="Ruvža" />
		<tag k="name:se" v="Ruvža" />
		<tag k="natural" v="hill" />
		<tag k="place" v="locality" />
		<tag k="ssr:stedsnr" v="836981" />
	</node>
	<node lat="68.94119444503855" lon="22.326711059484623" id="-57722">
		<tag k="fixme" v="consider natural=peak for the most distinct mountains in the district" />
		<tag k="name" v="Hánssavárri" />
		<tag k="name:se" v="Hánssavárri" />
		<tag k="natural" v="hill" />
		<tag k="old_name:se" v="Hansavarri" />
		<tag k="place" v="locality" />
		<tag k="ssr:stedsnr" v="928068" />
	</node>
	<node lat="69.48647500562717" lon="22.38053050583319" id="-57723">
		<tag k="fixme" v="consider natural=peak for the most distinct mountains in the district" />
		<tag k="name" v="Rávdoaivi" />
		<tag k="name:se" v="Rávdoaivi" />
		<tag k="natural" v="hill" />
		<tag k="old_name:se" v="Ravdoaivi" />
		<tag k="place" v="locality" />
		<tag k="ssr:stedsnr" v="928071" />
	</node>
	<node lat="68.98796944491089" lon="23.087197115537094" id="-57725">
		<tag k="alt_name:se" v="Máttavárčohkka" />
		<tag k="name" v="Máttavárri" />
		<tag k="name:se" v="Máttavárri" />
		<tag k="natural" v="hill" />
		<tag k="old_name:se" v="Maddavarri" />
		<tag k="place" v="locality" />
		<tag k="ssr:stedsnr" v="928048" />
	</node>
	<node lat="69.51645000444469" lon="24.047399853305116" id="-57727">
		<tag k="fixme" v="consider natural=peak for the most distinct mountains in the district" />
		<tag k="name" v="Bealgebuolža" />
		<tag k="name:se" v="Bealgebuolža" />
		<tag k="natural" v="hill" />
		<tag k="old_name:se" v="Bælgebuolža;Bealggebuolža" />
		<tag k="place" v="locality" />
		<tag k="ssr:stedsnr" v="928270" />
	</node>
	<node lat="68.66454445371052" lon="24.973141399017067" id="-57728">
		<tag k="fixme" v="consider natural=peak for the most distinct mountains in the district" />
		<tag k="name" v="Skiehččanoaivi" />
		<tag k="name:se" v="Skiehččanoaivi" />
		<tag k="natural" v="hill" />
		<tag k="old_name:se" v="Skieččanoaivi" />
		<tag k="place" v="locality" />
		<tag k="ssr:stedsnr" v="928207" />
	</node>
	<node lat="69.2701916659479" lon="23.559869339258235" id="-57730">
		<tag k="fixme" v="consider natural=peak for the most distinct mountains in the district" />
		<tag k="name" v="Hoigadanvárri" />
		<tag k="name:se" v="Hoigadanvárri" />
		<tag k="natural" v="hill" />
		<tag k="old_name:se" v="Håigadanvarri" />
		<tag k="place" v="locality" />
		<tag k="ssr:stedsnr" v="928224" />
	</node>
	<node lat="68.91410001251536" lon="25.003544190702232" id="-57731">
		<tag k="fixme" v="consider natural=peak for the most distinct mountains in the district" />
		<tag k="name" v="Geatkevárri" />
		<tag k="name:se" v="Geatkevárri" />
		<tag k="natural" v="hill" />
		<tag k="old_name:se" v="Gætkevarri" />
		<tag k="place" v="locality" />
		<tag k="ssr:stedsnr" v="928834" />
	</node>
	<node lat="69.28570000577038" lon="24.224413717397784" id="-57733">
		<tag k="fixme" v="consider natural=peak for the most distinct mountains in the district" />
		<tag k="name" v="Garjjávárri" />
		<tag k="name:se" v="Garjjávárri" />
		<tag k="natural" v="hill" />
		<tag k="old_name:se" v="Garjavarri" />
		<tag k="place" v="locality" />
		<tag k="ssr:stedsnr" v="928294" />
	</node>
	<node lat="69.44782500172433" lon="23.95423320369509" id="-57735">
		<tag k="fixme" v="consider natural=peak for the most distinct mountains in the district" />
		<tag k="name" v="Iisaráhpesvárri" />
		<tag k="name:se" v="Iisaráhpesvárri" />
		<tag k="natural" v="hill" />
		<tag k="place" v="locality" />
		<tag k="ssr:stedsnr" v="928373" />
	</node>
	<node lat="69.24907222749927" lon="23.535658223300047" id="-57738">
		<tag k="fixme" v="consider natural=peak for the most distinct mountains in the district" />
		<tag k="name" v="Vuollavárri" />
		<tag k="name:se" v="Vuollavárri" />
		<tag k="natural" v="hill" />
		<tag k="old_name:se" v="Vuollavarri" />
		<tag k="place" v="locality" />
		<tag k="ssr:stedsnr" v="928479" />
	</node>
	<node lat="69.22903055818516" lon="23.787685968829503" id="-57741">
		<tag k="fixme" v="consider natural=peak for the most distinct mountains in the district" />
		<tag k="name" v="Njirrančorru" />
		<tag k="name:se" v="Njirrančorru" />
		<tag k="natural" v="hill" />
		<tag k="old_name:se" v="Njirrančårro" />
		<tag k="place" v="locality" />
		<tag k="ssr:stedsnr" v="928488" />
	</node>
	<node lat="69.49662778034333" lon="23.445022107854687" id="-57742">
		<tag k="fixme" v="consider natural=peak for the most distinct mountains in the district" />
		<tag k="name" v="Vuovddášoaivi" />
		<tag k="name:se" v="Vuovddášoaivi" />
		<tag k="natural" v="hill" />
		<tag k="old_name:se" v="Vuovdašoaivi" />
		<tag k="place" v="locality" />
		<tag k="ssr:stedsnr" v="928491" />
	</node>
	<node lat="69.63274444750469" lon="23.527549897149072" id="-57744">
		<tag k="name" v="Biilačorut" />
		<tag k="name:se" v="Biilačorut" />
		<tag k="natural" v="hill" />
		<tag k="old_name:se" v="Biilačårot" />
		<tag k="place" v="locality" />
		<tag k="ssr:stedsnr" v="928565" />
	</node>
	<node lat="69.12938610943249" lon="22.973177696480764" id="-57748">
		<tag k="name" v="Ávjáščahca" />
		<tag k="name:se" v="Ávjáščahca" />
		<tag k="natural" v="valley" />
		<tag k="old_name:se" v="Avjaščacca" />
		<tag k="place" v="locality" />
		<tag k="ssr:stedsnr" v="928532" />
	</node>
	<node lat="69.10789444583459" lon="23.042305462360243" id="-57749">
		<tag k="fixme" v="consider natural=peak for the most distinct mountains in the district" />
		<tag k="name" v="Njárgačohkka" />
		<tag k="name:se" v="Njárgačohkka" />
		<tag k="natural" v="hill" />
		<tag k="old_name:se" v="Njargačåkka" />
		<tag k="place" v="locality" />
		<tag k="ssr:stedsnr" v="928540" />
	</node>
	<node lat="69.14200000602699" lon="22.945138796182746" id="-57753">
		<tag k="name" v="Vuoskkoroggi" />
		<tag k="name:se" v="Vuoskkoroggi" />
		<tag k="natural" v="valley" />
		<tag k="old_name:se" v="Vuoskuråggi" />
		<tag k="place" v="locality" />
		<tag k="ssr:stedsnr" v="928629" />
	</node>
	<node lat="69.16449166566923" lon="23.37182767933153" id="-57755">
		<tag k="fixme" v="consider natural=peak for the most distinct mountains in the district" />
		<tag k="name" v="Garrovárri" />
		<tag k="name:se" v="Garrovárri" />
		<tag k="natural" v="hill" />
		<tag k="old_name:se" v="Garruvarri" />
		<tag k="place" v="locality" />
		<tag k="ssr:stedsnr" v="928636" />
	</node>
	<node lat="69.16585555578193" lon="23.056980455921636" id="-57757">
		<tag k="fixme" v="consider natural=peak for the most distinct mountains in the district" />
		<tag k="name" v="Juzevárri" />
		<tag k="name:se" v="Juzevárri" />
		<tag k="natural" v="hill" />
		<tag k="old_name:se" v="Juzevarri" />
		<tag k="place" v="locality" />
		<tag k="ssr:stedsnr" v="928642" />
	</node>
	<node lat="69.68500555992964" lon="23.245061028843633" id="-57759">
		<tag k="name" v="Suollatgorsa" />
		<tag k="name:se" v="Suollatgorsa" />
		<tag k="natural" v="valley" />
		<tag k="old_name:se" v="Suollatgårsa" />
		<tag k="place" v="locality" />
		<tag k="ssr:stedsnr" v="928752" />
	</node>
	<node lat="68.86500556321351" lon="23.474199877430888" id="-57760">
		<tag k="name" v="Sággebuolža" />
		<tag k="name:se" v="Sággebuolža" />
		<tag k="natural" v="hill" />
		<tag k="old_name:se" v="Saggebuolža" />
		<tag k="place" v="locality" />
		<tag k="ssr:stedsnr" v="928758" />
	</node>
	<node lat="69.67105277909465" lon="23.447136002135515" id="-57767">
		<tag k="name" v="Moskkugorsa" />
		<tag k="name:se" v="Moskkugorsa" />
		<tag k="natural" v="valley" />
		<tag k="old_name:se" v="Måskogårsa" />
		<tag k="place" v="locality" />
		<tag k="ssr:stedsnr" v="928594" />
	</node>
	<node lat="69.67620277969372" lon="23.652027676860087" id="-57768">
		<tag k="fixme" v="consider natural=peak for the most distinct mountains in the district" />
		<tag k="name" v="Gierdduidčohkka" />
		<tag k="name:se" v="Gierdduidčohkka" />
		<tag k="natural" v="hill" />
		<tag k="old_name:se" v="Gierdoidčåkka;Gierddvidčohkka" />
		<tag k="place" v="locality" />
		<tag k="ssr:stedsnr" v="928595" />
	</node>
	<node lat="69.56070556298171" lon="22.961513801824683" id="-57770">
		<tag k="name" v="Geallangorsa" />
		<tag k="name:se" v="Geallangorsa" />
		<tag k="natural" v="valley" />
		<tag k="old_name:se" v="Gællangårsa" />
		<tag k="place" v="locality" />
		<tag k="ssr:stedsnr" v="928664" />
	</node>
	<node lat="69.57353333418249" lon="23.39024155389567" id="-57771">
		<tag k="fixme" v="consider natural=peak for the most distinct mountains in the district" />
		<tag k="name" v="Unna Vuoiddasváráš" />
		<tag k="name:se" v="Unna Vuoiddasváráš" />
		<tag k="natural" v="hill" />
		<tag k="place" v="locality" />
		<tag k="ssr:stedsnr" v="928672" />
	</node>
	<node lat="68.82931666963185" lon="23.481641542700345" id="-57774">
		<tag k="fixme" v="consider natural=peak for the most distinct mountains in the district" />
		<tag k="name" v="Buoiddesnjunis" />
		<tag k="name:se" v="Buoiddesnjunis" />
		<tag k="natural" v="hill" />
		<tag k="old_name:se" v="Buoidesnjunis" />
		<tag k="place" v="locality" />
		<tag k="ssr:stedsnr" v="928724" />
	</node>
	<node lat="69.70917222268338" lon="23.32495267944761" id="-57775">
		<tag k="fixme" v="consider natural=peak for the most distinct mountains in the district" />
		<tag k="name" v="Stuoroaivi" />
		<tag k="name:se" v="Stuoroaivi" />
		<tag k="natural" v="hill" />
		<tag k="place" v="locality" />
		<tag k="ssr:stedsnr" v="928725" />
	</node>
	<node lat="68.82350000393355" lon="23.77996098096118" id="-57776">
		<tag k="fixme" v="consider natural=peak for the most distinct mountains in the district" />
		<tag k="name" v="Roavvoaivi" />
		<tag k="name:se" v="Roavvoaivi" />
		<tag k="natural" v="hill" />
		<tag k="old_name:se" v="Roavvoai'vi" />
		<tag k="place" v="locality" />
		<tag k="ssr:stedsnr" v="928729" />
	</node>
	<node lat="68.82133889118698" lon="23.688066523971113" id="-57777">
		<tag k="fixme" v="consider natural=peak for the most distinct mountains in the district" />
		<tag k="name" v="Ruossačohkka" />
		<tag k="name:se" v="Ruossačohkka" />
		<tag k="natural" v="hill" />
		<tag k="old_name:se" v="Ruossačåkka" />
		<tag k="place" v="locality" />
		<tag k="ssr:stedsnr" v="928730" />
	</node>
	<node lat="68.86157501168047" lon="25.010374753569092" id="-57788">
		<tag k="fixme" v="consider natural=peak for the most distinct mountains in the district" />
		<tag k="name" v="Ruvžavárri" />
		<tag k="name:se" v="Ruvžavárri" />
		<tag k="natural" v="hill" />
		<tag k="old_name:se" v="Ruvžavarri" />
		<tag k="place" v="locality" />
		<tag k="ssr:stedsnr" v="928841" />
	</node>
	<node lat="68.98152500744628" lon="23.959683193521403" id="-57792">
		<tag k="name" v="Áldoluhppu" />
		<tag k="name:se" v="Áldoluhppu" />
		<tag k="natural" v="valley" />
		<tag k="old_name:se" v="Alduluppo" />
		<tag k="place" v="locality" />
		<tag k="ssr:stedsnr" v="928948" />
	</node>
	<node lat="68.89897500986505" lon="23.81920819092677" id="-57795">
		<tag k="fixme" v="consider natural=peak for the most distinct mountains in the district" />
		<tag k="name" v="Ráhpes Urddotoaivi" />
		<tag k="name:se" v="Ráhpes Urddotoaivi" />
		<tag k="natural" v="hill" />
		<tag k="old_name:se" v="rappesUrdutoaivi" />
		<tag k="place" v="locality" />
		<tag k="ssr:stedsnr" v="928980" />
	</node>
	<node lat="68.94414723257816" lon="23.991760950820428" id="-57796">
		<tag k="name" v="Gussiiddievvá" />
		<tag k="name:se" v="Gussiiddievvá" />
		<tag k="natural" v="hill" />
		<tag k="old_name:se" v="Gussiiddievva" />
		<tag k="place" v="locality" />
		<tag k="ssr:stedsnr" v="928995" />
	</node>
	<node lat="69.4769666714045" lon="22.37031382247129" id="-57801">
		<tag k="name" v="Rávdogohpi" />
		<tag k="name:se" v="Rávdogohpi" />
		<tag k="natural" v="valley" />
		<tag k="old_name:se" v="Ravdugåppi" />
		<tag k="place" v="locality" />
		<tag k="ssr:stedsnr" v="929768" />
	</node>
	<node lat="69.51579166485793" lon="22.67505826880859" id="-57804">
		<tag k="fixme" v="consider natural=peak for the most distinct mountains in the district" />
		<tag k="name" v="Geatkkášoaivi" />
		<tag k="name:se" v="Geatkkášoaivi" />
		<tag k="natural" v="hill" />
		<tag k="old_name:se" v="Gætkašoaivi" />
		<tag k="place" v="locality" />
		<tag k="ssr:stedsnr" v="929788" />
	</node>
	<node lat="69.31246111511824" lon="24.25838594996673" id="-57806">
		<tag k="fixme" v="consider natural=peak for the most distinct mountains in the district" />
		<tag k="name" v="Caggi" />
		<tag k="name:se" v="Caggi" />
		<tag k="natural" v="hill" />
		<tag k="place" v="locality" />
		<tag k="ssr:stedsnr" v="929315" />
	</node>
	<node lat="69.39145000184189" lon="23.636563768456746" id="-57807">
		<tag k="fixme" v="consider natural=peak for the most distinct mountains in the district" />
		<tag k="name" v="Čohkkamaras" />
		<tag k="name:se" v="Čohkkamaras" />
		<tag k="natural" v="hill" />
		<tag k="old_name:se" v="Čåkkamaras" />
		<tag k="place" v="locality" />
		<tag k="ssr:stedsnr" v="929423" />
	</node>
	<node lat="69.38051111519431" lon="23.534677675061538" id="-57809">
		<tag k="name" v="Gumppeluhppu" />
		<tag k="name:se" v="Gumppeluhppu" />
		<tag k="natural" v="valley" />
		<tag k="old_name:se" v="Gumpeluppo" />
		<tag k="place" v="locality" />
		<tag k="ssr:stedsnr" v="929434" />
	</node>
	<node lat="69.50118611121597" lon="23.118911017542278" id="-57816">
		<tag k="fixme" v="consider natural=peak for the most distinct mountains in the district" />
		<tag k="name" v="Bahtagurbuolžžat" />
		<tag k="name:se" v="Bahtagurbuolžžat" />
		<tag k="natural" v="hill" />
		<tag k="old_name:se" v="Battagurbuolžat" />
		<tag k="place" v="locality" />
		<tag k="ssr:stedsnr" v="929660" />
	</node>
	<node lat="69.1886416683122" lon="22.74563046985709" id="-57818">
		<tag k="fixme" v="consider natural=peak for the most distinct mountains in the district" />
		<tag k="name" v="Buolžavárri" />
		<tag k="name:se" v="Buolžavárri" />
		<tag k="natural" v="hill" />
		<tag k="old_name:se" v="Buolžavarri" />
		<tag k="place" v="locality" />
		<tag k="ssr:stedsnr" v="929674" />
	</node>
	<node lat="69.55671944456114" lon="23.688335999572264" id="-57821">
		<tag k="name" v="Gámmegorsa" />
		<tag k="name:se" v="Gámmegorsa" />
		<tag k="natural" v="valley" />
		<tag k="old_name:se" v="Gammegårsa" />
		<tag k="place" v="locality" />
		<tag k="ssr:stedsnr" v="929530" />
	</node>
	<node lat="69.56951667414323" lon="23.90620265607136" id="-57823">
		<tag k="fixme" v="consider natural=peak for the most distinct mountains in the district" />
		<tag k="name" v="Savostanoaivi" />
		<tag k="name:se" v="Savostanoaivi" />
		<tag k="natural" v="hill" />
		<tag k="old_name:se" v="Savustanoaivi" />
		<tag k="place" v="locality" />
		<tag k="ssr:stedsnr" v="929547" />
	</node>
	<node lat="69.4872694464214" lon="23.048530481686004" id="-57830">
		<tag k="name" v="Jeardnávži" />
		<tag k="name:se" v="Jeardnávži" />
		<tag k="natural" v="valley" />
		<tag k="old_name:se" v="Jærdnavži;Jeardneavži" />
		<tag k="place" v="locality" />
		<tag k="ssr:stedsnr" v="929978" />
	</node>
	<node lat="69.13712500605341" lon="24.12825262965724" id="-57831">
		<tag k="fixme" v="consider natural=peak for the most distinct mountains in the district" />
		<tag k="name" v="Johtinvárri" />
		<tag k="name:se" v="Johtinvárri" />
		<tag k="natural" v="hill" />
		<tag k="old_name:se" v="Jåttinvarri" />
		<tag k="place" v="locality" />
		<tag k="ssr:stedsnr" v="929979" />
	</node>
	<node lat="68.74452500436277" lon="22.535527695964117" id="-57842">
		<tag k="fixme" v="consider natural=peak for the most distinct mountains in the district" />
		<tag k="name" v="Urdevárri" />
		<tag k="name:se" v="Urdevárri" />
		<tag k="natural" v="hill" />
		<tag k="old_name:se" v="Urdevarri" />
		<tag k="place" v="locality" />
		<tag k="ssr:stedsnr" v="868042" />
	</node>
	<node lat="69.59177222498558" lon="24.071422094764987" id="-57845">
		<tag k="fixme" v="consider natural=peak for the most distinct mountains in the district" />
		<tag k="name" v="Sieiddegiellasat" />
		<tag k="name:se" v="Sieiddegiellasat" />
		<tag k="natural" v="hill" />
		<tag k="old_name:se" v="Sieidegiellasat" />
		<tag k="place" v="locality" />
		<tag k="ssr:stedsnr" v="868225" />
	</node>
	<node lat="69.59329167537327" lon="24.161380413658883" id="-57846">
		<tag k="fixme" v="consider natural=peak for the most distinct mountains in the district" />
		<tag k="name" v="Ráhpesvárri" />
		<tag k="name:se" v="Ráhpesvárri" />
		<tag k="natural" v="hill" />
		<tag k="old_name:se" v="Rappesvarri" />
		<tag k="place" v="locality" />
		<tag k="ssr:stedsnr" v="868227" />
	</node>
</osm>
