<?xml version="1.0" encoding="UTF-8"?>
<osm version="0.6" generator="osmapis">
	<node lat="69.44360833601583" lon="23.665766542110386" id="-100392">
		<tag k="amenity" v="place_of_worship" />
		<tag k="denomination" v="lutheran" />
		<tag k="name" v="Masi kirke" />
		<tag k="name:no" v="Masi kirke" />
		<tag k="religion" v="christian" />
		<tag k="ssr:stedsnr" v="91410" />
	</node>
	<node lat="69.00330833571034" lon="23.047966570630454" id="-100780">
		<tag k="amenity" v="place_of_worship" />
		<tag k="denomination" v="lutheran" />
		<tag k="name" v="Kautokeino kirke" />
		<tag k="name:no" v="Kautokeino kirke" />
		<tag k="religion" v="christian" />
		<tag k="ssr:stedsnr" v="275933" />
	</node>
	<node lat="69.6069000038577" lon="24.088127637793463" id="-102316">
		<tag k="historic" v="heritage" />
		<tag k="name" v="Geađgesieidi" />
		<tag k="name:se" v="Geađgesieidi" />
		<tag k="old_name:se" v="Gæđgesieidi" />
		<tag k="place" v="locality" />
		<tag k="ssr:stedsnr" v="868232" />
	</node>
</osm>
