<?xml version="1.0" encoding="UTF-8"?>
<osm version="0.6" generator="osmapis">
	<node lat="69.37935000446075" lon="23.434255463304652" id="-56489">
		<tag k="name" v="Fallehatjeaggi" />
		<tag k="name:se" v="Fallehatjeaggi" />
		<tag k="natural" v="wetland" />
		<tag k="old_name:se" v="Fallehatjæggi" />
		<tag k="ssr:stedsnr" v="18411" />
	</node>
	<node lat="69.47160000486453" lon="22.46794993934443" id="-56500">
		<tag k="name" v="Gálggosuotnju" />
		<tag k="name:se" v="Gálggosuotnju" />
		<tag k="natural" v="wetland" />
		<tag k="old_name:se" v="Galgusvodnjo" />
		<tag k="ssr:stedsnr" v="18710" />
	</node>
	<node lat="69.02448611666101" lon="23.186319344374777" id="-56516">
		<tag k="name" v="Ruhkkujeaggi" />
		<tag k="name:se" v="Ruhkkujeaggi" />
		<tag k="natural" v="wetland" />
		<tag k="ssr:stedsnr" v="31505" />
	</node>
	<node lat="68.87342222847454" lon="23.06235267387319" id="-56525">
		<tag k="name" v="Gurkejeaggi" />
		<tag k="name:se" v="Gurkejeaggi" />
		<tag k="natural" v="wetland" />
		<tag k="ssr:stedsnr" v="47169" />
	</node>
	<node lat="68.88920555654536" lon="22.48024993113099" id="-56552">
		<tag k="name" v="Moskolatjeaggi" />
		<tag k="name:se" v="Moskolatjeaggi" />
		<tag k="natural" v="wetland" />
		<tag k="old_name:se" v="Måskulatjæggi" />
		<tag k="ssr:stedsnr" v="79098" />
	</node>
	<node lat="68.78581667729765" lon="24.7951608849771" id="-56560">
		<tag k="name" v="Bassevuovdi" />
		<tag k="name:se" v="Bassevuovdi" />
		<tag k="place" v="locality" />
		<tag k="ssr:stedsnr" v="79597" />
	</node>
	<node lat="68.91650555802721" lon="23.116091577723026" id="-56585">
		<tag k="name" v="Suohpatjeaggi" />
		<tag k="name:se" v="Suohpatjeaggi" />
		<tag k="natural" v="wetland" />
		<tag k="ssr:stedsnr" v="108134" />
	</node>
	<node lat="69.53285833913606" lon="23.48122490856451" id="-56606">
		<tag k="name" v="Gožžabohttu" />
		<tag k="name:se" v="Gožžabohttu" />
		<tag k="natural" v="wetland" />
		<tag k="old_name:se" v="Gåžžabåtto" />
		<tag k="ssr:stedsnr" v="139551" />
	</node>
	<node lat="69.67408055865742" lon="23.062530471287232" id="-56612">
		<tag k="name" v="Lulit Rákkasleakši" />
		<tag k="name:se" v="Lulit Rákkasleakši" />
		<tag k="natural" v="wetland" />
		<tag k="old_name:se" v="Raggaslæksi, lulit" />
		<tag k="ssr:stedsnr" v="139737" />
	</node>
	<node lat="69.03535000244885" lon="23.207663779257345" id="-56635">
		<tag k="name" v="Gáhkkorjeaggi" />
		<tag k="name:se" v="Gáhkkorjeaggi" />
		<tag k="natural" v="wetland" />
		<tag k="ssr:stedsnr" v="152014" />
	</node>
	<node lat="69.08214722583988" lon="23.721249862722555" id="-56701">
		<tag k="name" v="Gállojeaggi" />
		<tag k="name:se" v="Gállojeaggi" />
		<tag k="natural" v="wetland" />
		<tag k="old_name:se" v="Gallujæggi" />
		<tag k="ssr:stedsnr" v="261174" />
	</node>
	<node lat="69.51681945169639" lon="23.335630449170846" id="-56731">
		<tag k="name" v="Sálganleakši" />
		<tag k="name:se" v="Sálganleakši" />
		<tag k="natural" v="wetland" />
		<tag k="old_name:se" v="Salganlækki" />
		<tag k="ssr:stedsnr" v="261659" />
	</node>
	<node lat="69.05164445507042" lon="24.45823037346841" id="-56753">
		<tag k="name" v="Várssájeaggi" />
		<tag k="name:se" v="Várssájeaggi" />
		<tag k="natural" v="wetland" />
		<tag k="old_name:se" v="Varsajæggi" />
		<tag k="ssr:stedsnr" v="261860" />
	</node>
	<node lat="69.48763333480738" lon="23.753374870868345" id="-56762">
		<tag k="name" v="Máhtošjeaggi" />
		<tag k="name:se" v="Máhtošjeaggi" />
		<tag k="natural" v="wetland" />
		<tag k="old_name:se" v="Mattušjæggi" />
		<tag k="ssr:stedsnr" v="261905" />
	</node>
	<node lat="69.12064166997034" lon="23.7863109816624" id="-56764">
		<tag k="name" v="Suovvejeaggi" />
		<tag k="name:se" v="Suovvejeaggi" />
		<tag k="natural" v="wetland" />
		<tag k="old_name:se" v="Suovvejæggi" />
		<tag k="ssr:stedsnr" v="261953" />
	</node>
	<node lat="69.10186111541475" lon="23.972433189456282" id="-56769">
		<tag k="name" v="Borggahatjeaggi" />
		<tag k="name:se" v="Borggahatjeaggi" />
		<tag k="natural" v="wetland" />
		<tag k="old_name:se" v="Bårgahatjæggi" />
		<tag k="ssr:stedsnr" v="261929" />
	</node>
	<node lat="69.15476111106788" lon="23.494002661788176" id="-56770">
		<tag k="name" v="Nuortajeaggi" />
		<tag k="name:se" v="Nuortajeaggi" />
		<tag k="natural" v="wetland" />
		<tag k="old_name:se" v="Nuortajæggi" />
		<tag k="ssr:stedsnr" v="261965" />
	</node>
	<node lat="69.22067500744559" lon="24.376149833563126" id="-56776">
		<tag k="name" v="Čiekkasuohkadas" />
		<tag k="name:se" v="Čiekkasuohkadas" />
		<tag k="old_name:se" v="Čieggasuokkadas" />
		<tag k="place" v="locality" />
		<tag k="ssr:stedsnr" v="261988" />
	</node>
	<node lat="68.92840555788938" lon="22.35329994101289" id="-56788">
		<tag k="name" v="Muvrrešáhpi" />
		<tag k="name:se" v="Muvrrešáhpi" />
		<tag k="natural" v="wetland" />
		<tag k="old_name:se" v="Muvrešappi" />
		<tag k="ssr:stedsnr" v="200067" />
	</node>
	<node lat="69.08136388954102" lon="22.838044363298074" id="-56838">
		<tag k="name" v="Ráigeluovttajeaggi" />
		<tag k="name:se" v="Ráigeluovttajeaggi" />
		<tag k="natural" v="wetland" />
		<tag k="ssr:stedsnr" v="228095" />
	</node>
	<node lat="68.87723611054618" lon="23.145922121387166" id="-56839">
		<tag k="name" v="Bahájeaggi" />
		<tag k="name:se" v="Bahájeaggi" />
		<tag k="natural" v="wetland" />
		<tag k="ssr:stedsnr" v="228281" />
	</node>
	<node lat="69.41553333652605" lon="23.631569331055662" id="-56858">
		<tag k="name" v="Bissogoarvi" />
		<tag k="name:se" v="Bissogoarvi" />
		<tag k="place" v="locality" />
		<tag k="ssr:stedsnr" v="455663" />
	</node>
	<node lat="69.03203055916732" lon="23.17424155827065" id="-56864">
		<tag k="name" v="Searvejeaggi" />
		<tag k="name:se" v="Searvejeaggi" />
		<tag k="natural" v="wetland" />
		<tag k="ssr:stedsnr" v="456551" />
	</node>
	<node lat="69.437755561466" lon="23.735838778449978" id="-56866">
		<tag k="name" v="Várreduogejeaggi" />
		<tag k="name:se" v="Várreduogejeaggi" />
		<tag k="natural" v="wetland" />
		<tag k="ssr:stedsnr" v="456678" />
	</node>
	<node lat="69.43944166860616" lon="23.684069318259017" id="-56868">
		<tag k="name" v="Darfejeaggi" />
		<tag k="name:se" v="Darfejeaggi" />
		<tag k="natural" v="wetland" />
		<tag k="ssr:stedsnr" v="456692" />
	</node>
	<node lat="69.01976389446847" lon="23.02809712476909" id="-56871">
		<tag k="name" v="Darfejeaggi" />
		<tag k="name:se" v="Darfejeaggi" />
		<tag k="natural" v="wetland" />
		<tag k="ssr:stedsnr" v="456880" />
	</node>
	<node lat="68.83551944951081" lon="23.30552488959273" id="-56902">
		<tag k="name" v="Vahttájeaggi" />
		<tag k="name:se" v="Vahttájeaggi" />
		<tag k="natural" v="wetland" />
		<tag k="old_name:se" v="Vattajæggi" />
		<tag k="ssr:stedsnr" v="260948" />
	</node>
	<node lat="69.45633333940293" lon="23.81466654426529" id="-56907">
		<tag k="name" v="Rávdoleakši" />
		<tag k="name:se" v="Rávdoleakši" />
		<tag k="natural" v="wetland" />
		<tag k="old_name:se" v="Ravdulæksi" />
		<tag k="ssr:stedsnr" v="261411" />
	</node>
	<node lat="69.18342222465988" lon="23.452124890597158" id="-56939">
		<tag k="name" v="Ruovttojeaggi" />
		<tag k="name:se" v="Ruovttojeaggi" />
		<tag k="natural" v="wetland" />
		<tag k="ssr:stedsnr" v="289708" />
	</node>
	<node lat="69.16331388888868" lon="23.345002680538002" id="-56940">
		<tag k="name" v="Luossajohniittut" />
		<tag k="name:se" v="Luossajohniittut" />
		<tag k="natural" v="wetland" />
		<tag k="ssr:stedsnr" v="289714" />
	</node>
	<node lat="68.76857778685094" lon="24.675413667188415" id="-56961">
		<tag k="name" v="Bosmmiidvuovdi" />
		<tag k="name:se" v="Bosmmiidvuovdi" />
		<tag k="old_name:se" v="Båsmiisvuovdi" />
		<tag k="place" v="locality" />
		<tag k="ssr:stedsnr" v="321593" />
	</node>
	<node lat="69.06355000845227" lon="23.9217415219641" id="-56965">
		<tag k="name" v="Buollánáhpi" />
		<tag k="name:se" v="Buollánáhpi" />
		<tag k="natural" v="wetland" />
		<tag k="old_name:se" v="Buollanappi" />
		<tag k="ssr:stedsnr" v="321928" />
	</node>
	<node lat="68.75870556424175" lon="24.47975813095848" id="-56970">
		<tag k="name" v="Náđđunjeaggi" />
		<tag k="name:se" v="Náđđunjeaggi" />
		<tag k="natural" v="wetland" />
		<tag k="old_name:se" v="Nađđonjæggi;Naddojeaggi" />
		<tag k="ssr:stedsnr" v="321808" />
	</node>
	<node lat="69.32018334013674" lon="23.920708205856954" id="-56995">
		<tag k="name" v="Heavvojeaggi" />
		<tag k="name:se" v="Heavvojeaggi" />
		<tag k="natural" v="wetland" />
		<tag k="ssr:stedsnr" v="334060" />
	</node>
	<node lat="69.01048056069453" lon="23.09269713391519" id="-57003">
		<tag k="name" v="Guhkesjeaggi" />
		<tag k="name:se" v="Guhkesjeaggi" />
		<tag k="natural" v="wetland" />
		<tag k="ssr:stedsnr" v="334496" />
	</node>
	<node lat="68.85066666785315" lon="23.150930455360786" id="-57010">
		<tag k="name" v="Stuorajeaggi" />
		<tag k="name:se" v="Stuorajeaggi" />
		<tag k="natural" v="wetland" />
		<tag k="ssr:stedsnr" v="471341" />
	</node>
	<node lat="69.02454722825244" lon="23.083088799012916" id="-57011">
		<tag k="name" v="Marggedállu" />
		<tag k="name:se" v="Marggedállu" />
		<tag k="place" v="locality" />
		<tag k="ssr:stedsnr" v="334855" />
	</node>
	<node lat="69.05674444378626" lon="23.06126101840682" id="-57014">
		<tag k="name" v="Vuoskkojaringieddi" />
		<tag k="name:se" v="Vuoskkojaringieddi" />
		<tag k="place" v="locality" />
		<tag k="ssr:stedsnr" v="334903" />
	</node>
	<node lat="69.34912778366274" lon="24.17896096106711" id="-57036">
		<tag k="name" v="Stuorabohttu" />
		<tag k="name:se" v="Stuorabohttu" />
		<tag k="natural" v="wetland" />
		<tag k="ssr:stedsnr" v="472297" />
	</node>
	<node lat="69.02495278354753" lon="22.94894435172786" id="-57051">
		<tag k="name" v="Guohcaáhpi" />
		<tag k="name:se" v="Guohcaáhpi" />
		<tag k="natural" v="wetland" />
		<tag k="ssr:stedsnr" v="350163" />
	</node>
	<node lat="69.01282222926751" lon="23.181274893285483" id="-57061">
		<tag k="name" v="Ođđaniittojeaggi" />
		<tag k="name:se" v="Ođđaniittojeaggi" />
		<tag k="natural" v="wetland" />
		<tag k="old_name:se" v="Åddaniitujæggi" />
		<tag k="ssr:stedsnr" v="381510" />
	</node>
	<node lat="68.85893056366281" lon="24.205699837608737" id="-57068">
		<tag k="name" v="Čoarvebohttu" />
		<tag k="name:se" v="Čoarvebohttu" />
		<tag k="old_name:se" v="Čoarvebåtto" />
		<tag k="place" v="locality" />
		<tag k="ssr:stedsnr" v="381855" />
	</node>
	<node lat="69.35552778207796" lon="24.27550261351144" id="-57096">
		<tag k="name" v="Gaskabeaijeakkit" />
		<tag k="name:se" v="Gaskabeaijeakkit" />
		<tag k="natural" v="wetland" />
		<tag k="ssr:stedsnr" v="392701" />
	</node>
	<node lat="68.839450005317" lon="22.373819377669935" id="-57119">
		<tag k="name" v="Gámasvuomuš" />
		<tag k="name:se" v="Gámasvuomuš" />
		<tag k="natural" v="wetland" />
		<tag k="old_name:se" v="Gamasvuomoš" />
		<tag k="ssr:stedsnr" v="442043" />
	</node>
	<node lat="68.94091944823973" lon="22.2274749335583" id="-57121">
		<tag k="name" v="Sunnajeaggi" />
		<tag k="name:se" v="Sunnajeaggi" />
		<tag k="natural" v="wetland" />
		<tag k="old_name:se" v="Sunnajæggi;Sunnájeaggi" />
		<tag k="ssr:stedsnr" v="442094" />
	</node>
	<node lat="68.97979167198355" lon="24.747835893043256" id="-57133">
		<tag k="name" v="Aškkasjeaggi" />
		<tag k="name:se" v="Aškkasjeaggi" />
		<tag k="natural" v="wetland" />
		<tag k="old_name:se" v="Aškasjæggi" />
		<tag k="ssr:stedsnr" v="442885" />
	</node>
	<node lat="68.81973056142073" lon="22.857594350634322" id="-57210">
		<tag k="name" v="Goagiláhpi" />
		<tag k="name:se" v="Goagiláhpi" />
		<tag k="natural" v="wetland" />
		<tag k="old_name:se" v="Goagilappi" />
		<tag k="ssr:stedsnr" v="503870" />
	</node>
	<node lat="68.8717083367863" lon="22.885458246245005" id="-57214">
		<tag k="name" v="Ruktajeaggi" />
		<tag k="name:se" v="Ruktajeaggi" />
		<tag k="natural" v="wetland" />
		<tag k="old_name:se" v="Ruktajæggi" />
		<tag k="ssr:stedsnr" v="503902" />
	</node>
	<node lat="69.00641667252312" lon="23.04716102217451" id="-57237">
		<tag k="name" v="Rántegieddi" />
		<tag k="name:se" v="Rántegieddi" />
		<tag k="place" v="locality" />
		<tag k="ssr:stedsnr" v="516506" />
	</node>
	<node lat="69.00483611519995" lon="23.01271379636969" id="-57240">
		<tag k="name" v="Suovasrohtu" />
		<tag k="name:se" v="Suovasrohtu" />
		<tag k="place" v="locality" />
		<tag k="ssr:stedsnr" v="516531" />
	</node>
	<node lat="69.03436666766271" lon="22.322774944738132" id="-57273">
		<tag k="name" v="Geađgemateanan" />
		<tag k="name:se" v="Geađgemateanan" />
		<tag k="natural" v="wetland" />
		<tag k="old_name:se" v="Gæđgematænan" />
		<tag k="ssr:stedsnr" v="685618" />
	</node>
	<node lat="68.82771389059414" lon="23.542030442028143" id="-57279">
		<tag k="name" v="Johkamohkki" />
		<tag k="name:se" v="Johkamohkki" />
		<tag k="natural" v="wetland" />
		<tag k="old_name:se" v="Jåkkamåkki" />
		<tag k="ssr:stedsnr" v="685725" />
	</node>
	<node lat="68.95932778142691" lon="23.76350820429398" id="-57303">
		<tag k="name" v="Njukčarohtu" />
		<tag k="name:se" v="Njukčarohtu" />
		<tag k="old_name:se" v="Njukčaråtto" />
		<tag k="place" v="locality" />
		<tag k="ssr:stedsnr" v="685936" />
	</node>
	<node lat="68.98086667318428" lon="23.75508320265313" id="-57304">
		<tag k="name" v="Njukčaleamši" />
		<tag k="name:se" v="Njukčaleamši" />
		<tag k="natural" v="wetland" />
		<tag k="old_name:se" v="Njukčolæmši" />
		<tag k="ssr:stedsnr" v="685938" />
	</node>
	<node lat="68.9526833411044" lon="22.9519915793723" id="-57323">
		<tag k="landuse" v="meadow" />
		<tag k="name" v="Isoniitu" />
		<tag k="name:se" v="Isoniitu" />
		<tag k="ssr:stedsnr" v="532080" />
	</node>
	<node lat="69.0047555583394" lon="23.03239989997977" id="-57417">
		<tag k="name" v="Ciebat-Ristenagieddi" />
		<tag k="name:se" v="Ciebat-Ristenagieddi" />
		<tag k="place" v="locality" />
		<tag k="ssr:stedsnr" v="577546" />
	</node>
	<node lat="69.06826944938443" lon="22.96391103691223" id="-57425">
		<tag k="name" v="Heitosuoidni" />
		<tag k="name:se" v="Heitosuoidni" />
		<tag k="natural" v="wetland" />
		<tag k="ssr:stedsnr" v="592204" />
	</node>
	<node lat="69.01787778332437" lon="23.207322133745105" id="-57434">
		<tag k="name" v="Skearasjeaggi" />
		<tag k="name:se" v="Skearasjeaggi" />
		<tag k="natural" v="wetland" />
		<tag k="ssr:stedsnr" v="698029" />
	</node>
	<node lat="69.01623889667258" lon="22.999422132732086" id="-57450">
		<tag k="name" v="Guotku" />
		<tag k="name:se" v="Guotku" />
		<tag k="natural" v="wetland" />
		<tag k="ssr:stedsnr" v="698885" />
	</node>
	<node lat="69.47138611668292" lon="23.707797107459637" id="-57453">
		<tag k="name" v="Sáttosuolu" />
		<tag k="name:se" v="Sáttosuolu" />
		<tag k="natural" v="beach" />
		<tag k="ssr:stedsnr" v="699350" />
		<tag k="surface" v="sand" />
	</node>
	<node lat="69.02766389457494" lon="23.157358243805056" id="-57507">
		<tag k="name" v="Njukčajeaggi" />
		<tag k="name:se" v="Njukčajeaggi" />
		<tag k="natural" v="wetland" />
		<tag k="ssr:stedsnr" v="637594" />
	</node>
	<node lat="69.11465277706003" lon="23.340866563536267" id="-57518">
		<tag k="name" v="Hávgajárjeaggi" />
		<tag k="name:se" v="Hávgajárjeaggi" />
		<tag k="natural" v="wetland" />
		<tag k="ssr:stedsnr" v="653619" />
	</node>
	<node lat="68.90158611288038" lon="22.848297136052423" id="-57582">
		<tag k="name" v="Badjevuovdi" />
		<tag k="name:se" v="Badjevuovdi" />
		<tag k="place" v="locality" />
		<tag k="ssr:stedsnr" v="894045" />
	</node>
	<node lat="68.94398333939408" lon="22.933008260052947" id="-57597">
		<tag k="landuse" v="meadow" />
		<tag k="name" v="Gohkkegieddi" />
		<tag k="name:se" v="Gohkkegieddi" />
		<tag k="ssr:stedsnr" v="896055" />
	</node>
	<node lat="69.18782778143714" lon="23.48606099055131" id="-57617">
		<tag k="name" v="Stuorageađggit" />
		<tag k="name:se" v="Stuorageađggit" />
		<tag k="natural" v="stone" />
		<tag k="ssr:stedsnr" v="896698" />
	</node>
	<node lat="69.15081389328911" lon="23.344316574716064" id="-57632">
		<tag k="name" v="Heallojeaggi" />
		<tag k="name:se" v="Heallojeaggi" />
		<tag k="natural" v="wetland" />
		<tag k="ssr:stedsnr" v="714516" />
	</node>
	<node lat="69.18821944967802" lon="23.500541549425268" id="-57636">
		<tag k="name" v="Buollánjeaggi" />
		<tag k="name:se" v="Buollánjeaggi" />
		<tag k="natural" v="wetland" />
		<tag k="ssr:stedsnr" v="714594" />
	</node>
	<node lat="69.57019444540764" lon="22.856238825819624" id="-57656">
		<tag k="name" v="Mielli" />
		<tag k="name:se" v="Mielli" />
		<tag k="old_name:se" v="Miel'li" />
		<tag k="place" v="locality" />
		<tag k="ssr:stedsnr" v="746674" />
	</node>
	<node lat="69.60805555840943" lon="23.973060990273467" id="-57663">
		<tag k="name" v="Bákteleakši" />
		<tag k="name:se" v="Bákteleakši" />
		<tag k="natural" v="wetland" />
		<tag k="old_name:se" v="Baktelækši" />
		<tag k="ssr:stedsnr" v="746577" />
	</node>
	<node lat="68.75925834255415" lon="24.42277758734255" id="-57666">
		<tag k="name" v="Guhkesjeaggi" />
		<tag k="name:se" v="Guhkesjeaggi" />
		<tag k="natural" v="wetland" />
		<tag k="old_name:se" v="Gukkesjæggi" />
		<tag k="ssr:stedsnr" v="746774" />
	</node>
	<node lat="68.77683611176599" lon="23.289866553191644" id="-57693">
		<tag k="name" v="Áideáhpi" />
		<tag k="name:se" v="Áideáhpi" />
		<tag k="natural" v="wetland" />
		<tag k="ssr:stedsnr" v="774265" />
	</node>
	<node lat="69.02949166914149" lon="22.94869435874587" id="-57762">
		<tag k="name" v="Guohcajeaggi" />
		<tag k="name:se" v="Guohcajeaggi" />
		<tag k="natural" v="wetland" />
		<tag k="old_name:se" v="Guoccajæggi" />
		<tag k="ssr:stedsnr" v="928584" />
	</node>
	<node lat="69.66543889067222" lon="23.49709988449254" id="-57765">
		<tag k="name" v="Sieidegeađgi" />
		<tag k="name:se" v="Sieidegeađgi" />
		<tag k="natural" v="stone" />
		<tag k="old_name:se" v="Sieidegæđgi" />
		<tag k="ssr:stedsnr" v="928590" />
	</node>
	<node lat="68.76197500862017" lon="23.432358218002683" id="-57780">
		<tag k="name" v="Ruostajeaggi" />
		<tag k="name:se" v="Ruostajeaggi" />
		<tag k="natural" v="wetland" />
		<tag k="old_name:se" v="Ruostajæggi" />
		<tag k="ssr:stedsnr" v="928783" />
	</node>
	<node lat="69.19011667468402" lon="23.744330419321564" id="-57822">
		<tag k="name" v="Buollánjeaggi" />
		<tag k="name:se" v="Buollánjeaggi" />
		<tag k="natural" v="wetland" />
		<tag k="old_name:se" v="Buollanjæggi" />
		<tag k="ssr:stedsnr" v="929532" />
	</node>
</osm>
