<?xml version="1.0" encoding="UTF-8"?>
<osm generator="osmapis" version="0.6">
	<node id="-897792" lat="69.0467000071" lon="23.1066776767">
		<tag k="name" v="Govdavuohpenjárga - Bredbuktnes" />
		<tag k="name:no" v="Bredbuktnes" />
		<tag k="name:se" v="Govdavuohpenjárga" />
		<tag k="old_name:se" v="Gåvdavuopppenjarga;Govdavuoppenjárga" />
		<tag k="place" v="hamlet" />
		<tag k="ssr:stedsnr" v="78599" />
	</node>
	<node id="-897663" lat="69.0946638898" lon="23.8180943183">
		<tag k="name" v="Náhpolsáiva" />
		<tag k="name:se" v="Náhpolsáiva" />
		<tag k="old_name:se" v="Nappulsaiva;Nahpolsaiva" />
		<tag k="place" v="isolated_dwelling" />
		<tag k="ssr:stedsnr" v="18947" />
	</node>
	<node id="-896766" lat="68.7525194476" lon="23.3061804387">
		<tag k="fixme" v="consider place=hamlet" />
		<tag k="name" v="Áidejávri" />
		<tag k="name:se" v="Áidejávri" />
		<tag k="old_name:se" v="Aidejavri" />
		<tag k="place" v="village" />
		<tag k="ssr:stedsnr" v="503929" />
	</node>
	<node id="-898940" lat="69.6101888944" lon="24.1209248644">
		<tag k="name" v="Iešjávri" />
		<tag k="name:se" v="Iešjávri" />
		<tag k="old_name:no" v="Iešjavri ødestue" />
		<tag k="place" v="isolated_dwelling" />
		<tag k="ssr:stedsnr" v="564236" />
	</node>
	<node id="-898538" lat="69.207813897" lon="23.7600082123">
		<tag k="name" v="Láhpoluoppal Fjellstue" />
		<tag k="name:no" v="Láhpoluoppal Fjellstue" />
		<tag k="ssr:stedsnr" v="329066" />
		<tag k="tourism" v="guest_house" />
	</node>
	<node id="-897274" lat="69.183177785" lon="23.5546860098">
		<tag k="name" v="Geaidnovuohppi" />
		<tag k="name:se" v="Geaidnovuohppi" />
		<tag k="old_name:se" v="Gæidnuvuoppi" />
		<tag k="place" v="isolated_dwelling" />
		<tag k="ssr:stedsnr" v="746553" />
	</node>
	<node id="-896261" lat="69.0104388897" lon="23.048324896">
		<tag k="name" v="Giehmmandievvá" />
		<tag k="name:se" v="Giehmmandievvá" />
		<tag k="place" v="isolated_dwelling" />
		<tag k="ssr:stedsnr" v="274465" />
	</node>
	<node id="-896120" lat="68.8392222223" lon="23.1846221311">
		<tag k="name" v="Oskál" />
		<tag k="name:se" v="Oskál" />
		<tag k="old_name:se" v="Åskal;Oskal" />
		<tag k="place" v="hamlet" />
		<tag k="ssr:stedsnr" v="260946" />
	</node>
	<node id="-896916" lat="69.4438527799" lon="23.666983214">
		<tag k="fixme" v="consider place=hamlet" />
		<tag k="name" v="Máze - Masi" />
		<tag k="name:no" v="Masi" />
		<tag k="name:se" v="Máze" />
		<tag k="place" v="village" />
		<tag k="ssr:stedsnr" v="685379" />
	</node>
	<node id="-899351" lat="69.4363916744" lon="23.6597665527">
		<tag k="name" v="Girkovuohpenjálbmi" />
		<tag k="name:se" v="Girkovuohpenjálbmi" />
		<tag k="old_name:se" v="Girkuvuoppenjalbmi" />
		<tag k="place" v="farm" />
		<tag k="ssr:stedsnr" v="746410" />
	</node>
	<node id="-897522" lat="69.019711111" lon="23.0716471274">
		<tag k="name" v="Gammelhjemtomta" />
		<tag k="name:no" v="Gammelhjemtomta" />
		<tag k="place" v="locality" />
		<tag k="ssr:stedsnr" v="941858" />
	</node>
	<node id="-896339" lat="69.0124333328" lon="23.0410138023">
		<tag k="name" v="Guovdageaidnu - Kautokeino" />
		<tag k="name:no" v="Kautokeino" />
		<tag k="name:se" v="Guovdageaidnu" />
		<tag k="old_name:se" v="Guovdagæino;Guov'dagæi'dno" />
		<tag k="place" v="village" />
		<tag k="ssr:stedsnr" v="203515" />
	</node>
	<node id="-899306" lat="69.3374611192" lon="23.9731276331">
		<tag k="name" v="Gárggoluoppal" />
		<tag k="name:se" v="Gárggoluoppal" />
		<tag k="place" v="hamlet" />
		<tag k="ssr:stedsnr" v="654284" />
	</node>
	<node id="-896616" lat="69.0611064593" lon="23.1692484961">
		<tag k="name" v="Nilut-Máhtedállu" />
		<tag k="name:se" v="Nilut-Máhtedállu" />
		<tag k="place" v="locality" />
		<tag k="ssr:stedsnr" v="471420" />
	</node>
	<node id="-897255" lat="69.0472583377" lon="22.9465888074">
		<tag k="name" v="Iŋgonaviessu" />
		<tag k="name:se" v="Iŋgonaviessu" />
		<tag k="place" v="isolated_dwelling" />
		<tag k="ssr:stedsnr" v="897179" />
	</node>
	<node id="-896228" lat="69.5876861157" lon="23.5285609963">
		<tag k="fixme" v="consider tourism=alpine_hut or tourism=chalet" />
		<tag k="name" v="Suolovuopmi fjellstue" />
		<tag k="name:no" v="Suolovuopmi fjellstue" />
		<tag k="old_name:no" v="Suolovuopmi;Suoluvuobmi fjellstue;Suolovuobmi fjellstue" />
		<tag k="ssr:stedsnr" v="268136" />
		<tag k="tourism" v="wilderness_hut" />
	</node>
	<node id="-899427" lat="69.3772555599" lon="24.2031192921">
		<tag k="name" v="Suoidnerohtu" />
		<tag k="name:se" v="Suoidnerohtu" />
		<tag k="place" v="hamlet" />
		<tag k="ssr:stedsnr" v="753645" />
	</node>
	<node id="-899680" lat="68.9359694515" lon="22.9179165777">
		<tag k="name" v="Biltaveaiguolbba" />
		<tag k="name:se" v="Biltaveaiguolbba" />
		<tag k="old_name:se" v="Biltavæjguolba;Biltaveajguolba" />
		<tag k="place" v="farm" />
		<tag k="ssr:stedsnr" v="867030" />
	</node>
	<node id="-899420" lat="69.4620500032" lon="23.7057582205">
		<tag k="name" v="Čievramielli" />
		<tag k="name:se" v="Čievramielli" />
		<tag k="old_name:se" v="Čiev'ramiel'li" />
		<tag k="place" v="farm" />
		<tag k="ssr:stedsnr" v="747380" />
	</node>
	<node id="-897367" lat="69.4293250033" lon="23.6401498721">
		<tag k="name" v="Ájaboldni" />
		<tag k="name:se" v="Ájaboldni" />
		<tag k="old_name:se" v="Ajabåldni" />
		<tag k="place" v="farm" />
		<tag k="ssr:stedsnr" v="928399" />
	</node>
	<node id="-899924" lat="69.6807751959" lon="19.0868014399">
		<tag k="fixme" v="consider place=hamlet" />
		<tag k="name" v="Krokelv" />
		<tag k="place" v="farm" />
		<tag k="ssr:stedsnr" v="1076826" />
	</node>
	<node id="-897491" lat="68.8739722295" lon="23.1428943493">
		<tag k="name" v="Vuolle-Siebe" />
		<tag k="name:se" v="Vuolle-Siebe" />
		<tag k="place" v="hamlet" />
		<tag k="ssr:stedsnr" v="835276" />
	</node>
	<node id="-896080" lat="68.8470999997" lon="22.5256499406">
		<tag k="name" v="Moskolatmohkki" />
		<tag k="name:se" v="Moskolatmohkki" />
		<tag k="old_name:se" v="Måskulatmåkki" />
		<tag k="place" v="isolated_dwelling" />
		<tag k="ssr:stedsnr" v="260054" />
	</node>
	<node id="-897336" lat="69.0399805605" lon="22.9401943729">
		<tag k="name" v="Soahtefielbmá" />
		<tag k="name:se" v="Soahtefielbmá" />
		<tag k="old_name:se" v="Soattefielbma" />
		<tag k="place" v="hamlet" />
		<tag k="ssr:stedsnr" v="806604" />
	</node>
	<node id="-896205" lat="68.8159027809" lon="23.3681054424">
		<tag k="name" v="Suolojávri" />
		<tag k="name:se" v="Suolojávri" />
		<tag k="old_name:se" v="Suolujavri" />
		<tag k="place" v="isolated_dwelling" />
		<tag k="ssr:stedsnr" v="261883" />
	</node>
	<node id="-898378" lat="68.7463500043" lon="22.7493499124">
		<tag k="name" v="Fávrrosjohka" />
		<tag k="name:se" v="Fávrrosjohka" />
		<tag k="old_name:se" v="Favrusjåkka" />
		<tag k="place" v="isolated_dwelling" />
		<tag k="ssr:stedsnr" v="321043" />
	</node>
	<node id="-896454" lat="69.0845972287" lon="23.2360637911">
		<tag k="name" v="Ole-Bongodállosadji" />
		<tag k="name:se" v="Ole-Bongodállosadji" />
		<tag k="place" v="locality" />
		<tag k="ssr:stedsnr" v="228356" />
	</node>
	<node id="-896837" lat="69.1471694521" lon="23.3946804552">
		<tag k="name" v="Guhkesluovttadálut" />
		<tag k="name:se" v="Guhkesluovttadálut" />
		<tag k="place" v="hamlet" />
		<tag k="ssr:stedsnr" v="511361" />
	</node>
	<node id="-896324" lat="69.4257083404" lon="23.6361971079">
		<tag k="fixme" v="consider place=hamlet" />
		<tag k="name" v="Badje-Máze" />
		<tag k="name:se" v="Badje-Máze" />
		<tag k="old_name:se" v="Maze, baddje;Badje Máze" />
		<tag k="place" v="village" />
		<tag k="ssr:stedsnr" v="200424" />
	</node>
	<node id="-896962" lat="68.906372223" lon="22.86842214">
		<tag k="name" v="Gálaniitu" />
		<tag k="name:se" v="Gálaniitu" />
		<tag k="old_name:se" v="Galaniito" />
		<tag k="place" v="isolated_dwelling" />
		<tag k="ssr:stedsnr" v="685894" />
	</node>
	<node id="-897857" lat="69.3393779761" lon="23.6063326857">
		<tag k="name" v="Goldin" />
		<tag k="name:se" v="Goldin" />
		<tag k="old_name:se" v="Gåldin" />
		<tag k="place" v="locality" />
		<tag k="ssr:stedsnr" v="79453" />
	</node>
	<node id="-898272" lat="69.684330557" lon="23.7239165601">
		<tag k="name" v="Goidnesvuopmegámme" />
		<tag k="name:se" v="Goidnesvuopmegámme" />
		<tag k="old_name:se" v="Gåidnesvuobmegamme" />
		<tag k="place" v="isolated_dwelling" />
		<tag k="ssr:stedsnr" v="200636" />
	</node>
	<node id="-897854" lat="69.3738916674" lon="23.4649804491">
		<tag k="name" v="Biggeluoppal" />
		<tag k="name:se" v="Biggeluoppal" />
		<tag k="old_name:se" v="Biggeluobbal" />
		<tag k="place" v="farm" />
		<tag k="ssr:stedsnr" v="79428" />
	</node>
	<node id="-899914" lat="69.6548386171" lon="18.9540555979">
		<tag k="amenity" v="school" />
		<tag k="name" v="Ishavsbyen videregående skole" />
		<tag k="ssr:stedsnr" v="1075695" />
	</node>
	<node id="-896442" lat="69.1707944493" lon="23.4494415598">
		<tag k="name" v="Heammogieddi" />
		<tag k="name:se" v="Heammogieddi" />
		<tag k="old_name:se" v="Hæmmugieddi" />
		<tag k="place" v="hamlet" />
		<tag k="ssr:stedsnr" v="443548" />
	</node>
	<node id="-896671" lat="68.9338999998" lon="22.9025443554">
		<tag k="name" v="Ákšomuotki" />
		<tag k="name:se" v="Ákšomuotki" />
		<tag k="old_name:se" v="Akšumuotki;Ak'šumuot'ki" />
		<tag k="place" v="hamlet" />
		<tag k="ssr:stedsnr" v="503015" />
	</node>
	<node id="-897848" lat="69.4427833399" lon="23.6663304407">
		<tag k="name" v="Hirsaluohkká" />
		<tag k="name:se" v="Hirsaluohkká" />
		<tag k="old_name:se" v="Hirsaluokka" />
		<tag k="place" v="farm" />
		<tag k="ssr:stedsnr" v="79380" />
	</node>
	<node id="-896438" lat="69.2088722259" lon="23.7601693056">
		<tag k="fixme" v="consider place=hamlet" />
		<tag k="name" v="Láhpoluoppal" />
		<tag k="name:se" v="Láhpoluoppal" />
		<tag k="old_name:se" v="Lappuluobbal" />
		<tag k="place" v="village" />
		<tag k="ssr:stedsnr" v="443534" />
	</node>
	<node id="-898612" lat="69.116597223" lon="23.2451971215">
		<tag k="name" v="Mierojávri" />
		<tag k="name:se" v="Mierojávri" />
		<tag k="old_name:se" v="Mierujavri" />
		<tag k="place" v="hamlet" />
		<tag k="ssr:stedsnr" v="381562" />
	</node>
	<node id="-897459" lat="69.1254222234" lon="24.2938665047">
		<tag k="name" v="Fielbmajohka" />
		<tag k="name:se" v="Fielbmajohka" />
		<tag k="old_name:se" v="Fielbmajåkka" />
		<tag k="place" v="isolated_dwelling" />
		<tag k="ssr:stedsnr" v="929910" />
	</node>
	<node id="-896045" lat="69.3741194467" lon="23.4649832175">
		<tag k="name" v="Biŋgis" />
		<tag k="name:se" v="Biŋgis" />
		<tag k="place" v="farm" />
		<tag k="ssr:stedsnr" v="229429" />
	</node>
	<node id="-896044" lat="69.0442583376" lon="22.902986038">
		<tag k="name" v="Gárene-Joavnnadállu" />
		<tag k="name:se" v="Gárene-Joavnnadállu" />
		<tag k="place" v="isolated_dwelling" />
		<tag k="ssr:stedsnr" v="229183" />
	</node>
	<node id="-897065" lat="69.1312444489" lon="23.3190360161">
		<tag k="name" v="Roavotgieddi" />
		<tag k="name:se" v="Roavotgieddi" />
		<tag k="place" v="farm" />
		<tag k="ssr:stedsnr" v="532611" />
	</node>
	<node id="-897830" lat="68.8760805594" lon="22.4194665947">
		<tag k="name" v="Goahteluoppal" />
		<tag k="name:se" v="Goahteluoppal" />
		<tag k="old_name:se" v="Goatteluobbal" />
		<tag k="place" v="hamlet" />
		<tag k="ssr:stedsnr" v="79090" />
	</node>
	<node id="-897954" lat="69.0159416723" lon="23.0581221248">
		<tag k="name" v="Vuolledállu" />
		<tag k="name:se" v="Vuolledállu" />
		<tag k="place" v="locality" />
		<tag k="ssr:stedsnr" v="92838" />
	</node>
	<node id="-896927" lat="69.0725702125" lon="22.847032531">
		<tag k="fixme" v="consider tourism=alpine_hut or tourism=chalet" />
		<tag k="name" v="Madam Bongos fjellstue - Čunovuohppi" />
		<tag k="name:no" v="Madam Bongos fjellstue" />
		<tag k="name:se" v="Čunovuohppi" />
		<tag k="old_name:se" v="Čunuvuoppi" />
		<tag k="ssr:stedsnr" v="685589" />
		<tag k="tourism" v="wilderness_hut" />
	</node>
	<node id="-896669" lat="68.9878833367" lon="23.0536915783">
		<tag k="name" v="Suohpatluohkká" />
		<tag k="name:se" v="Suohpatluohkká" />
		<tag k="old_name:se" v="Suoppatluokka;Suohpatluohkka" />
		<tag k="place" v="quarter" />
		<tag k="ssr:stedsnr" v="503005" />
	</node>
	<node id="-898666" lat="69.4808861184" lon="23.7251860048">
		<tag k="name" v="Govdasavvonnjárga" />
		<tag k="name:se" v="Govdasavvonnjárga" />
		<tag k="old_name:se" v="Gåvdasavvunnjarga" />
		<tag k="place" v="farm" />
		<tag k="ssr:stedsnr" v="382369" />
	</node>
	<node id="-898456" lat="68.866000001" lon="23.1424610045">
		<tag k="alt_name:se" v="Badje-Siebe" />
		<tag k="name" v="Siebe" />
		<tag k="name:se" v="Siebe" />
		<tag k="place" v="hamlet" />
		<tag k="ssr:stedsnr" v="321916" />
	</node>
	<node id="-897047" lat="69.1553388945" lon="23.4237193428">
		<tag k="name" v="Heammonjavvi" />
		<tag k="name:se" v="Heammonjavvi" />
		<tag k="old_name:se" v="Hæmmunjavvi;Heammonjávvi" />
		<tag k="place" v="farm" />
		<tag k="ssr:stedsnr" v="686959" />
	</node>
	<node id="-898838" lat="68.9363999994" lon="22.913888809">
		<tag k="name" v="Ákšosuolu" />
		<tag k="name:se" v="Ákšosuolu" />
		<tag k="place" v="farm" />
		<tag k="ssr:stedsnr" v="532061" />
	</node>
	<node id="-897684" lat="69.0988861144" lon="24.5052942504">
		<tag k="name" v="Šuorbmu" />
		<tag k="name:se" v="Šuorbmu" />
		<tag k="old_name:se" v="Suorbmo" />
		<tag k="place" v="isolated_dwelling" />
		<tag k="ssr:stedsnr" v="18874" />
	</node>
	<node id="-899082" lat="69.1807027795" lon="23.499072106">
		<tag k="name" v="Nigádállu" />
		<tag k="name:se" v="Nigádállu" />
		<tag k="place" v="farm" />
		<tag k="ssr:stedsnr" v="592736" />
	</node>
	<node id="-896919" lat="69.0212805619" lon="23.2236276675">
		<tag k="fixme" v="consider place=hamlet" />
		<tag k="name" v="Ávži" />
		<tag k="name:se" v="Ávži" />
		<tag k="old_name:se" v="Avži" />
		<tag k="place" v="village" />
		<tag k="ssr:stedsnr" v="685484" />
	</node>
	<node id="-896813" lat="69.03802778" lon="24.1954331712">
		<tag k="name" v="Áhkkanasnjálbmi" />
		<tag k="name:se" v="Áhkkanasnjálbmi" />
		<tag k="old_name:se" v="Akkanasnjalbmi" />
		<tag k="place" v="isolated_dwelling" />
		<tag k="ssr:stedsnr" v="504895" />
	</node>
	<node id="-899210" lat="69.3009888911" lon="23.8414304353">
		<tag k="name" v="Suotnju" />
		<tag k="name:se" v="Suotnju" />
		<tag k="old_name:se" v="Suodnjo" />
		<tag k="place" v="hamlet" />
		<tag k="ssr:stedsnr" v="625481" />
	</node>
	<node id="-898953" lat="69.4737500047" lon="23.7158276561">
		<tag k="name" v="Fielbmadievvá" />
		<tag k="name:se" v="Fielbmadievvá" />
		<tag k="old_name:se" v="Fielbmadievva" />
		<tag k="place" v="locality" />
		<tag k="ssr:stedsnr" v="564392" />
	</node>
	<node id="-896952" lat="68.9759111161" lon="24.0101803929">
		<tag k="name" v="Áhkkanas" />
		<tag k="name:se" v="Áhkkanas" />
		<tag k="old_name:no" v="Akkanas ødestue" />
		<tag k="old_name:se" v="Áhkkanas ávdinstohpu" />
		<tag k="place" v="isolated_dwelling" />
		<tag k="ssr:stedsnr" v="685801" />
	</node>
	<node id="-899424" lat="69.1445361139" lon="23.3857721255">
		<tag k="name" v="Isko-Pieradállu" />
		<tag k="name:se" v="Isko-Pieradállu" />
		<tag k="place" v="farm" />
		<tag k="ssr:stedsnr" v="753303" />
	</node>
	<node id="-898438" lat="68.7549861144" lon="23.5368859791">
		<tag k="fixme" v="consider tourism=alpine_hut or tourism=chalet" />
		<tag k="name" v="Šihččajávri fjellstue" />
		<tag k="name:no" v="Šihččajávri fjellstue" />
		<tag k="old_name:no" v="Siččajavri;Šihččajávri" />
		<tag k="ssr:stedsnr" v="321789" />
		<tag k="tourism" v="wilderness_hut" />
	</node>
	<node id="-897089" lat="69.452455559" lon="23.6833665562">
		<tag k="name" v="Gumppedievvá" />
		<tag k="name:se" v="Gumppedievvá" />
		<tag k="place" v="locality" />
		<tag k="ssr:stedsnr" v="699236" />
	</node>
	<node id="-899076" lat="69.1237916741" lon="23.2860387842">
		<tag k="name" v="Vuolle Miron" />
		<tag k="name:se" v="Vuolle Miron" />
		<tag k="place" v="farm" />
		<tag k="ssr:stedsnr" v="592642" />
	</node>
	<node id="-898051" lat="69.4479472291" lon="23.6712776632">
		<tag k="fixme" v="consider place=hamlet" />
		<tag k="name" v="Vuolle-Máze" />
		<tag k="name:se" v="Vuolle-Máze" />
		<tag k="old_name:se" v="Maze, vuolle;Vuolle Máze" />
		<tag k="place" v="village" />
		<tag k="ssr:stedsnr" v="139421" />
	</node>
</osm>
