<?xml version="1.0" encoding="UTF-8"?>
<osm version="0.6" generator="osmapis">
	<node lat="69.15545556423044" lon="23.30379433639927" id="-56469">
		<tag k="name" v="Skierreláttu" />
		<tag k="name:se" v="Skierreláttu" />
		<tag k="natural" v="water" />
		<tag k="ssr:stedsnr" v="229663" />
	</node>
	<node lat="68.7621194444532" lon="22.457666597219347" id="-56471">
		<tag k="name" v="Bálggesjávri" />
		<tag k="name:se" v="Bálggesjávri" />
		<tag k="natural" v="water" />
		<tag k="old_name:se" v="Balgesjavri" />
		<tag k="ssr:stedsnr" v="17063" />
		<tag k="water" v="lake" />
	</node>
	<node lat="69.247394444602" lon="23.007513800481558" id="-56472">
		<tag k="name" v="Geašjávri" />
		<tag k="name:se" v="Geašjávri" />
		<tag k="natural" v="water" />
		<tag k="old_name:se" v="Gæšjavri" />
		<tag k="ssr:stedsnr" v="17649" />
		<tag k="water" v="lake" />
	</node>
	<node lat="68.97530556145733" lon="23.199883233276037" id="-56475">
		<tag k="name" v="Vuorašjávri" />
		<tag k="name:se" v="Vuorašjávri" />
		<tag k="natural" v="water" />
		<tag k="old_name:se" v="Vuorašjavri" />
		<tag k="ssr:stedsnr" v="18002" />
		<tag k="water" v="lake" />
	</node>
	<node lat="68.73232500607091" lon="24.255208144259203" id="-56476">
		<tag k="name" v="Nuorttit Rávdojávri" />
		<tag k="name:se" v="Nuorttit Rávdojávri" />
		<tag k="natural" v="water" />
		<tag k="old_name:se" v="Ravdujavri, nuortit;Rávdojávri" />
		<tag k="ssr:stedsnr" v="18006" />
		<tag k="water" v="lake" />
	</node>
	<node lat="68.96177222860494" lon="22.966905469655075" id="-56478">
		<tag k="name" v="Devrájávri" />
		<tag k="name:se" v="Devrájávri" />
		<tag k="natural" v="water" />
		<tag k="old_name:se" v="Devrajavri" />
		<tag k="ssr:stedsnr" v="18012" />
	</node>
	<node lat="68.96844166780345" lon="23.7883665270171" id="-56480">
		<tag k="name" v="Goddejávri" />
		<tag k="name:se" v="Goddejávri" />
		<tag k="natural" v="water" />
		<tag k="old_name:se" v="Gåddejavri" />
		<tag k="ssr:stedsnr" v="17954" />
		<tag k="water" v="lake" />
	</node>
	<node lat="68.9548250021504" lon="23.828724866180643" id="-56481">
		<tag k="name" v="Golmmačiegatjávri" />
		<tag k="name:se" v="Golmmačiegatjávri" />
		<tag k="natural" v="water" />
		<tag k="old_name:se" v="Gålmačiegatjavri" />
		<tag k="ssr:stedsnr" v="17955" />
	</node>
	<node lat="68.67681945663067" lon="24.97084139478151" id="-56484">
		<tag k="name" v="Njuolasjohka" />
		<tag k="name:se" v="Njuolasjohka" />
		<tag k="old_name:se" v="Njuolasjåkka" />
		<tag k="ssr:stedsnr" v="18210" />
		<tag k="waterway" v="river" />
	</node>
	<node lat="69.55232222512848" lon="24.05870262488347" id="-56485">
		<tag k="name" v="Ádjeljohka" />
		<tag k="name:se" v="Ádjeljohka" />
		<tag k="old_name:se" v="Addjeljåkka" />
		<tag k="ssr:stedsnr" v="18276" />
		<tag k="waterway" v="river" />
	</node>
	<node lat="69.555088890676" lon="24.014574857179497" id="-56486">
		<tag k="name" v="Hárrejávri" />
		<tag k="name:se" v="Hárrejávri" />
		<tag k="natural" v="water" />
		<tag k="old_name:se" v="Harrejavri" />
		<tag k="ssr:stedsnr" v="18277" />
	</node>
	<node lat="69.5369000027759" lon="24.05717207469764" id="-56487">
		<tag k="name" v="Hárrejohka" />
		<tag k="name:se" v="Hárrejohka" />
		<tag k="old_name:se" v="Harrejåkka" />
		<tag k="ssr:stedsnr" v="18280" />
		<tag k="waterway" v="stream" />
	</node>
	<node lat="69.54230000521149" lon="24.34897482737931" id="-56488">
		<tag k="name" v="Guhkesjávri" />
		<tag k="name:se" v="Guhkesjávri" />
		<tag k="natural" v="water" />
		<tag k="old_name:se" v="Gukkesjavri" />
		<tag k="ssr:stedsnr" v="18283" />
	</node>
	<node lat="69.13253055747613" lon="23.209730448996034" id="-56494">
		<tag k="name" v="Mierojohka" />
		<tag k="name:se" v="Mierojohka" />
		<tag k="ssr:stedsnr" v="18613" />
		<tag k="waterway" v="river" />
	</node>
	<node lat="68.88398056634948" lon="25.389424700202483" id="-56495">
		<tag k="name" v="Njálbmesavu" />
		<tag k="name:se" v="Njálbmesavu" />
		<tag k="old_name:se" v="Njalbmesavo" />
		<tag k="place" v="locality" />
		<tag k="ssr:stedsnr" v="18614" />
	</node>
	<node lat="69.45296944717789" lon="22.758624936040537" id="-56499">
		<tag k="name" v="Čoalmmejohka" />
		<tag k="name:se" v="Čoalmmejohka" />
		<tag k="ssr:stedsnr" v="18709" />
		<tag k="waterway" v="river" />
	</node>
	<node lat="69.42487500514885" lon="23.09458047130112" id="-56504">
		<tag k="loc_name:se" v="Joavnnajávrrit" />
		<tag k="name" v="Livččágobejávrrit" />
		<tag k="name:se" v="Livččágobejávrrit" />
		<tag k="natural" v="water" />
		<tag k="old_name:se" v="Livčagåbejavrit" />
		<tag k="ssr:stedsnr" v="18996" />
		<tag k="water" v="lake" />
	</node>
	<node lat="69.45575000639015" lon="23.66469988744683" id="-56506">
		<tag k="name" v="Roavvejohka" />
		<tag k="name:se" v="Roavvejohka" />
		<tag k="old_name:se" v="Roavvejåkka" />
		<tag k="ssr:stedsnr" v="19395" />
		<tag k="waterway" v="stream" />
	</node>
	<node lat="69.45529444593119" lon="23.774613764600268" id="-56507">
		<tag k="name" v="Eirrájávrrit" />
		<tag k="name:se" v="Eirrájávrrit" />
		<tag k="natural" v="water" />
		<tag k="old_name:se" v="Eirajavrit" />
		<tag k="ssr:stedsnr" v="19397" />
		<tag k="water" v="lake" />
	</node>
	<node lat="69.96771667265362" lon="23.37206934956834" id="-56508">
		<tag k="fixme" v="multiple name tags, choose one and add the other to alt_name" />
		<tag k="name" v="Altaelva - Álaheajeatnu;Álttáeatnu - Alattionjoki" />
		<tag k="name:fkv" v="Alattionjoki" />
		<tag k="name:no" v="Altaelva" />
		<tag k="name:se" v="Álaheajeatnu;Álttáeatnu" />
		<tag k="old_name:se" v="Altaædno;Álaheaieatnu" />
		<tag k="ssr:stedsnr" v="19647" />
		<tag k="waterway" v="river" />
	</node>
	<node lat="69.16810833646869" lon="22.579172155610518" id="-56509">
		<tag k="name" v="Stohkášjávri" />
		<tag k="name:se" v="Stohkášjávri" />
		<tag k="natural" v="water" />
		<tag k="old_name:se" v="Ståkkašjavri" />
		<tag k="ssr:stedsnr" v="19699" />
		<tag k="water" v="lake" />
	</node>
	<node lat="69.63670833645173" lon="23.235730473989708" id="-56510">
		<tag k="name" v="Mohkkejávri" />
		<tag k="name:se" v="Mohkkejávri" />
		<tag k="natural" v="water" />
		<tag k="old_name:se" v="Måkkejavri" />
		<tag k="ssr:stedsnr" v="19743" />
	</node>
	<node lat="69.15306666892532" lon="23.415041555350854" id="-56513">
		<tag k="name" v="Uhcaluovttaš" />
		<tag k="name:se" v="Uhcaluovttaš" />
		<tag k="natural" v="bay" />
		<tag k="ssr:stedsnr" v="25129" />
	</node>
	<node lat="69.04762222941358" lon="23.116544341928883" id="-56518">
		<tag k="name" v="Dorpaláttu" />
		<tag k="name:se" v="Dorpaláttu" />
		<tag k="natural" v="water" />
		<tag k="ssr:stedsnr" v="31902" />
	</node>
	<node lat="68.95112500574281" lon="22.94563880053629" id="-56521">
		<tag k="name" v="Hávdegáddi" />
		<tag k="name:se" v="Hávdegáddi" />
		<tag k="natural" v="beach" />
		<tag k="ssr:stedsnr" v="46082" />
	</node>
	<node lat="69.0704527769644" lon="23.03449714037017" id="-56522">
		<tag k="name" v="Báktejávri" />
		<tag k="name:se" v="Báktejávri" />
		<tag k="natural" v="water" />
		<tag k="ssr:stedsnr" v="46202" />
		<tag k="water" v="lake" />
	</node>
	<node lat="69.11788333785853" lon="23.265927684771686" id="-56524">
		<tag k="name" v="Beaŋkávárppit" />
		<tag k="name:se" v="Beaŋkávárppit" />
		<tag k="natural" v="bay" />
		<tag k="ssr:stedsnr" v="46518" />
	</node>
	<node lat="68.88447777966671" lon="23.0587026901609" id="-56526">
		<tag k="name" v="Ođđaniitojohka" />
		<tag k="name:se" v="Ođđaniitojohka" />
		<tag k="ssr:stedsnr" v="47172" />
		<tag k="waterway" v="stream" />
	</node>
	<node lat="69.18109444755372" lon="23.53726378245674" id="-56529">
		<tag k="name" v="Jovnnapernjárga" />
		<tag k="name:se" v="Jovnnapernjárga" />
		<tag k="natural" v="cape" />
		<tag k="ssr:stedsnr" v="47708" />
	</node>
	<node lat="68.96496666611547" lon="22.98054991752682" id="-56531">
		<tag k="name" v="Iŋgirluokta" />
		<tag k="name:se" v="Iŋgirluokta" />
		<tag k="natural" v="bay" />
		<tag k="ssr:stedsnr" v="78006" />
	</node>
	<node lat="68.76934445081795" lon="22.52274714338473" id="-56534">
		<tag k="name" v="Skoavnnjejávri" />
		<tag k="name:se" v="Skoavnnjejávri" />
		<tag k="natural" v="water" />
		<tag k="old_name:se" v="Skoavnjejavri" />
		<tag k="ssr:stedsnr" v="78048" />
	</node>
	<node lat="68.98229166767229" lon="22.570263806045595" id="-56535">
		<tag k="name" v="Rávdojávri" />
		<tag k="name:se" v="Rávdojávri" />
		<tag k="natural" v="water" />
		<tag k="old_name:se" v="Ravdujavri" />
		<tag k="ssr:stedsnr" v="78114" />
		<tag k="water" v="lake" />
	</node>
	<node lat="69.00407778557194" lon="23.072394353837424" id="-56536">
		<tag k="alt_name:se" v="Nuortamarasjávri" />
		<tag k="name" v="Nuortamanjávri" />
		<tag k="name:se" v="Nuortamanjávri" />
		<tag k="natural" v="water" />
		<tag k="old_name:se" v="Nuortamanjavri" />
		<tag k="ssr:stedsnr" v="78503" />
	</node>
	<node lat="69.23472778149265" lon="23.641788763299463" id="-56537">
		<tag k="name" v="Láhposkáidi" />
		<tag k="name:se" v="Láhposkáidi" />
		<tag k="natural" v="cape" />
		<tag k="ssr:stedsnr" v="78507" />
	</node>
	<node lat="69.24912778284622" lon="23.777238768832472" id="-56538">
		<tag k="name" v="Jeagelsuolu" />
		<tag k="name:se" v="Jeagelsuolu" />
		<tag k="old_name:se" v="Jægelsuolo" />
		<tag k="place" v="island" />
		<tag k="ssr:stedsnr" v="78509" />
	</node>
	<node lat="69.10628889569361" lon="23.288408224245558" id="-56539">
		<tag k="name" v="Skuvlajávri" />
		<tag k="name:se" v="Skuvlajávri" />
		<tag k="natural" v="water" />
		<tag k="old_name:se" v="Skuvlajavri" />
		<tag k="ssr:stedsnr" v="78557" />
	</node>
	<node lat="69.24298611488692" lon="23.31578323113889" id="-56542">
		<tag k="name" v="Vuolit Spielgajávri" />
		<tag k="name:se" v="Vuolit Spielgajávri" />
		<tag k="natural" v="water" />
		<tag k="old_name:se" v="Spielgajavri, vuolit" />
		<tag k="ssr:stedsnr" v="78642" />
		<tag k="water" v="lake" />
	</node>
	<node lat="68.90062500901892" lon="24.09309985285414" id="-56544">
		<tag k="name" v="Vuomajávri" />
		<tag k="name:se" v="Vuomajávri" />
		<tag k="natural" v="water" />
		<tag k="old_name:se" v="Vuomajavri" />
		<tag k="ssr:stedsnr" v="78804" />
		<tag k="water" v="lake" />
	</node>
	<node lat="68.87057778414737" lon="24.009152630563783" id="-56545">
		<tag k="name" v="Báktejávri" />
		<tag k="name:se" v="Báktejávri" />
		<tag k="natural" v="water" />
		<tag k="old_name:se" v="Baktejavri" />
		<tag k="ssr:stedsnr" v="78851" />
		<tag k="water" v="lake" />
	</node>
	<node lat="68.98211944822164" lon="23.857002645570834" id="-56548">
		<tag k="name" v="Smáhkkomuorjohka" />
		<tag k="name:se" v="Smáhkkomuorjohka" />
		<tag k="old_name:se" v="Smakkumuorjåkka" />
		<tag k="ssr:stedsnr" v="78954" />
		<tag k="waterway" v="river" />
	</node>
	<node lat="68.98705834118901" lon="23.42041654641328" id="-56549">
		<tag k="name" v="Gárgatluoppal" />
		<tag k="name:se" v="Gárgatluoppal" />
		<tag k="natural" v="water" />
		<tag k="old_name:se" v="Gargatluobbal" />
		<tag k="ssr:stedsnr" v="78956" />
	</node>
	<node lat="69.35913611184509" lon="23.43358043659151" id="-56554">
		<tag k="name" v="Jeaggegierratjávri" />
		<tag k="name:se" v="Jeaggegierratjávri" />
		<tag k="natural" v="water" />
		<tag k="old_name:se" v="Jæggegierratjavri" />
		<tag k="ssr:stedsnr" v="79441" />
	</node>
	<node lat="69.2369083402495" lon="23.760999862123125" id="-56555">
		<tag k="name" v="Jávregeahči" />
		<tag k="name:se" v="Jávregeahči" />
		<tag k="natural" v="bay" />
		<tag k="old_name:se" v="Javregæčči" />
		<tag k="ssr:stedsnr" v="79499" />
	</node>
	<node lat="68.76281945751028" lon="24.746105316323778" id="-56556">
		<tag k="name" v="Beanajávrrit" />
		<tag k="name:se" v="Beanajávrrit" />
		<tag k="natural" v="water" />
		<tag k="old_name:se" v="Bænajavrit" />
		<tag k="ssr:stedsnr" v="79603" />
		<tag k="water" v="lake" />
	</node>
	<node lat="69.57334444916562" lon="23.65373601116245" id="-56558">
		<tag k="name" v="Máhtesjohka" />
		<tag k="name:se" v="Máhtesjohka" />
		<tag k="old_name:se" v="Mattesjåkka" />
		<tag k="ssr:stedsnr" v="79544" />
		<tag k="waterway" v="stream" />
	</node>
	<node lat="69.64224166692767" lon="22.974211030009016" id="-56561">
		<tag k="name" v="Vuoldeluoppal" />
		<tag k="name:se" v="Vuoldeluoppal" />
		<tag k="natural" v="water" />
		<tag k="old_name:se" v="Vuoldeluobbal" />
		<tag k="ssr:stedsnr" v="79706" />
	</node>
	<node lat="69.16173055896509" lon="23.446038785772288" id="-56564">
		<tag k="name" v="Sáiva" />
		<tag k="name:se" v="Sáiva" />
		<tag k="natural" v="water" />
		<tag k="ssr:stedsnr" v="86153" />
	</node>
	<node lat="69.00753334114619" lon="23.262586015393136" id="-56566">
		<tag k="name" v="Áittesnjárga" />
		<tag k="name:se" v="Áittesnjárga" />
		<tag k="natural" v="cape" />
		<tag k="ssr:stedsnr" v="92066" />
	</node>
	<node lat="69.00366111521723" lon="23.219036008343707" id="-56567">
		<tag k="name" v="Čuoldaluokta" />
		<tag k="name:se" v="Čuoldaluokta" />
		<tag k="natural" v="bay" />
		<tag k="ssr:stedsnr" v="92068" />
	</node>
	<node lat="69.0092722251539" lon="23.264483236419505" id="-56568">
		<tag k="name" v="Máđejohka" />
		<tag k="name:se" v="Máđejohka" />
		<tag k="ssr:stedsnr" v="92074" />
		<tag k="waterway" v="stream" />
	</node>
	<node lat="69.01755833628575" lon="23.167261017543392" id="-56571">
		<tag k="name" v="Čohkamarasláttu" />
		<tag k="name:se" v="Čohkamarasláttu" />
		<tag k="natural" v="water" />
		<tag k="ssr:stedsnr" v="92502" />
	</node>
	<node lat="69.01394167340784" lon="23.05891379179611" id="-56573">
		<tag k="name" v="Guhkesluokta" />
		<tag k="name:se" v="Guhkesluokta" />
		<tag k="natural" v="bay" />
		<tag k="ssr:stedsnr" v="92574" />
	</node>
	<node lat="69.33997500646035" lon="23.979338748545583" id="-56575">
		<tag k="name" v="Gárggoluoppal" />
		<tag k="name:se" v="Gárggoluoppal" />
		<tag k="natural" v="water" />
		<tag k="ssr:stedsnr" v="106079" />
	</node>
	<node lat="68.91082778298514" lon="22.876172127343384" id="-56576">
		<tag k="name" v="Gujinjárga" />
		<tag k="name:se" v="Gujinjárga" />
		<tag k="natural" v="cape" />
		<tag k="ssr:stedsnr" v="107021" />
	</node>
	<node lat="69.0828777858461" lon="23.250277676212335" id="-56577">
		<tag k="name" v="Gaskanjárga" />
		<tag k="name:se" v="Gaskanjárga" />
		<tag k="natural" v="cape" />
		<tag k="ssr:stedsnr" v="107328" />
	</node>
	<node lat="68.66381667512228" lon="23.294835996444377" id="-56578">
		<tag k="name" v="Ørnernjárga" />
		<tag k="name:se" v="Ørnernjárga" />
		<tag k="natural" v="cape" />
		<tag k="ssr:stedsnr" v="107285" />
	</node>
	<node lat="69.34712500160995" lon="24.001705415625782" id="-56579">
		<tag k="name" v="Guotku" />
		<tag k="name:se" v="Guotku" />
		<tag k="natural" v="cape" />
		<tag k="ssr:stedsnr" v="107428" />
	</node>
	<node lat="69.17904722795727" lon="23.52638043704212" id="-56581">
		<tag k="name" v="Coagesnjárga" />
		<tag k="name:se" v="Coagesnjárga" />
		<tag k="natural" v="cape" />
		<tag k="ssr:stedsnr" v="107727" />
	</node>
	<node lat="69.13611389424612" lon="23.3490054612491" id="-56582">
		<tag k="name" v="Vuolgamašnjárga" />
		<tag k="name:se" v="Vuolgamašnjárga" />
		<tag k="natural" v="cape" />
		<tag k="ssr:stedsnr" v="107607" />
	</node>
	<node lat="69.17738611056582" lon="23.493141559560453" id="-56584">
		<tag k="name" v="Čohkaluoktavárpi" />
		<tag k="name:se" v="Čohkaluoktavárpi" />
		<tag k="natural" v="water" />
		<tag k="ssr:stedsnr" v="107699" />
		<tag k="water" v="lake" />
	</node>
	<node lat="69.04254445137545" lon="22.93807491251505" id="-56587">
		<tag k="name" v="Čuorvunnjárga" />
		<tag k="name:se" v="Čuorvunnjárga" />
		<tag k="natural" v="cape" />
		<tag k="ssr:stedsnr" v="108180" />
	</node>
	<node lat="69.12695278355335" lon="23.322580447760437" id="-56588">
		<tag k="name" v="Hávgadievaiddavitvárpi" />
		<tag k="name:se" v="Hávgadievaiddavitvárpi" />
		<tag k="natural" v="water" />
		<tag k="ssr:stedsnr" v="108609" />
		<tag k="water" v="lake" />
	</node>
	<node lat="69.202452781795" lon="22.9061027058513" id="-56589">
		<tag k="name" v="Leambbejávri" />
		<tag k="name:se" v="Leambbejávri" />
		<tag k="natural" v="water" />
		<tag k="old_name:se" v="Læmbejavri" />
		<tag k="ssr:stedsnr" v="138650" />
		<tag k="water" v="lake" />
	</node>
	<node lat="68.87422501213862" lon="25.354927477880068" id="-56591">
		<tag k="name" v="Lárssensahásavu" />
		<tag k="name:se" v="Lárssensahásavu" />
		<tag k="old_name:se" v="Larsensahasavo" />
		<tag k="place" v="locality" />
		<tag k="ssr:stedsnr" v="138694" />
	</node>
	<node lat="69.08925556022406" lon="22.420247172593292" id="-56594">
		<tag k="name" v="Nollajávri" />
		<tag k="name:se" v="Nollajávri" />
		<tag k="natural" v="water" />
		<tag k="old_name:se" v="Nållajavri" />
		<tag k="ssr:stedsnr" v="138749" />
	</node>
	<node lat="68.84455555614313" lon="22.9344082329653" id="-56597">
		<tag k="name" v="Sállanluoppal" />
		<tag k="name:se" v="Sállanluoppal" />
		<tag k="natural" v="water" />
		<tag k="old_name:se" v="Sallanluobbal" />
		<tag k="ssr:stedsnr" v="138917" />
		<tag k="water" v="lake" />
	</node>
	<node lat="68.96620000563624" lon="23.638438755606224" id="-56598">
		<tag k="name" v="Lávvojohka" />
		<tag k="name:se" v="Lávvojohka" />
		<tag k="old_name:se" v="Lavvujåkka" />
		<tag k="ssr:stedsnr" v="138939" />
		<tag k="waterway" v="river" />
	</node>
	<node lat="68.98583889793179" lon="23.677274869770788" id="-56600">
		<tag k="name" v="Aškkasjávri" />
		<tag k="name:se" v="Aškkasjávri" />
		<tag k="natural" v="water" />
		<tag k="old_name:se" v="Aškasjavri" />
		<tag k="ssr:stedsnr" v="138948" />
		<tag k="water" v="lake" />
	</node>
	<node lat="69.46001111208011" lon="24.177430409583522" id="-56601">
		<tag k="name" v="Rágesluobbalat" />
		<tag k="name:se" v="Rágesluobbalat" />
		<tag k="natural" v="water" />
		<tag k="old_name:se" v="Regesluobbalat" />
		<tag k="ssr:stedsnr" v="139302" />
		<tag k="water" v="lake" />
	</node>
	<node lat="69.55475556396505" lon="24.280913747878778" id="-56602">
		<tag k="name" v="Biedjojávri" />
		<tag k="name:se" v="Biedjojávri" />
		<tag k="natural" v="water" />
		<tag k="old_name:se" v="Bieddjujavri" />
		<tag k="ssr:stedsnr" v="139306" />
	</node>
	<node lat="68.7101250058426" lon="24.93868308358652" id="-56605">
		<tag k="name" v="Opmojohka" />
		<tag k="name:se" v="Opmojohka" />
		<tag k="old_name:se" v="Åbmujåkka" />
		<tag k="ssr:stedsnr" v="139241" />
		<tag k="waterway" v="river" />
	</node>
	<node lat="69.08651667172353" lon="23.085672124183002" id="-56610">
		<tag k="name" v="Vuoskkojávri" />
		<tag k="name:se" v="Vuoskkojávri" />
		<tag k="natural" v="water" />
		<tag k="old_name:se" v="Vuoskujavri" />
		<tag k="ssr:stedsnr" v="139599" />
		<tag k="water" v="lake" />
	</node>
	<node lat="69.59686667453202" lon="23.843899866358182" id="-56611">
		<tag k="name" v="Unna Báktejávrráš" />
		<tag k="name:se" v="Unna Báktejávrráš" />
		<tag k="natural" v="water" />
		<tag k="old_name:se" v="Baktejavraš, unna" />
		<tag k="ssr:stedsnr" v="139600" />
	</node>
	<node lat="69.36656112106846" lon="23.97977207704982" id="-56615">
		<tag k="fixme" v="multiple name tags, choose one and add the other to alt_name" />
		<tag k="name" v="Bihkkaluoppal;Vuolit Bihkkaluoppal" />
		<tag k="name:se" v="Bihkkaluoppal;Vuolit Bihkkaluoppal" />
		<tag k="natural" v="water" />
		<tag k="old_name:se" v="Bikkaluobbalat, vuolit" />
		<tag k="ssr:stedsnr" v="139487" />
	</node>
	<node lat="69.35178611625804" lon="23.467413788935353" id="-56616">
		<tag k="name" v="Luomejávri" />
		<tag k="name:se" v="Luomejávri" />
		<tag k="natural" v="water" />
		<tag k="old_name:se" v="Luomejavri" />
		<tag k="ssr:stedsnr" v="139493" />
	</node>
	<node lat="69.33397222365821" lon="23.775433208644163" id="-56617">
		<tag k="name" v="Juŋkorajogamohkki" />
		<tag k="name:se" v="Juŋkorajogamohkki" />
		<tag k="old_name:se" v="Junkurajågamåkki" />
		<tag k="ssr:stedsnr" v="139500" />
		<tag k="waterway" v="stream" />
	</node>
	<node lat="69.07236667132945" lon="22.957230472178047" id="-56618">
		<tag k="alt_name:se" v="Geassáidjohka" />
		<tag k="name" v="Geassájohka" />
		<tag k="name:se" v="Geassájohka" />
		<tag k="old_name:se" v="Gæssajåkka" />
		<tag k="ssr:stedsnr" v="139603" />
		<tag k="waterway" v="stream" />
	</node>
	<node lat="69.05952500624228" lon="23.049466580044072" id="-56619">
		<tag k="name" v="Vuoskkojarin" />
		<tag k="name:se" v="Vuoskkojarin" />
		<tag k="old_name:se" v="Vuoskujarin" />
		<tag k="place" v="locality" />
		<tag k="ssr:stedsnr" v="139605" />
	</node>
	<node lat="68.93583334288783" lon="24.24147483983168" id="-56621">
		<tag k="name" v="Nieidajohka" />
		<tag k="name:se" v="Nieidajohka" />
		<tag k="old_name:se" v="Nieidajåkka" />
		<tag k="ssr:stedsnr" v="139789" />
		<tag k="waterway" v="river" />
	</node>
	<node lat="69.20482778389821" lon="24.092374859060108" id="-56622">
		<tag k="name" v="Vuopmegierratjávri" />
		<tag k="name:se" v="Vuopmegierratjávri" />
		<tag k="natural" v="water" />
		<tag k="old_name:se" v="Vuobmegierratjavri" />
		<tag k="ssr:stedsnr" v="139988" />
	</node>
	<node lat="69.46477500563023" lon="23.19216381104257" id="-56623">
		<tag k="name" v="Njárgajávri" />
		<tag k="name:se" v="Njárgajávri" />
		<tag k="natural" v="water" />
		<tag k="old_name:se" v="Njargajavri" />
		<tag k="ssr:stedsnr" v="139990" />
		<tag k="water" v="lake" />
	</node>
	<node lat="69.2373000024464" lon="24.148288729518423" id="-56624">
		<tag k="name" v="Gállotjohka" />
		<tag k="name:se" v="Gállotjohka" />
		<tag k="old_name:se" v="Gallutjåkka" />
		<tag k="ssr:stedsnr" v="139993" />
		<tag k="waterway" v="stream" />
	</node>
	<node lat="69.40905555881584" lon="23.386952671475402" id="-56625">
		<tag k="name" v="Guhkessavu" />
		<tag k="name:se" v="Guhkessavu" />
		<tag k="natural" v="water" />
		<tag k="old_name:se" v="Gukkessavo" />
		<tag k="ssr:stedsnr" v="139999" />
		<tag k="water" v="lake" />
	</node>
	<node lat="68.80320556208119" lon="23.232494332124283" id="-56627">
		<tag k="name" v="Luvdnjoskáidi" />
		<tag k="name:se" v="Luvdnjoskáidi" />
		<tag k="natural" v="cape" />
		<tag k="old_name:se" v="Luvdnjuskaidi" />
		<tag k="ssr:stedsnr" v="139893" />
	</node>
	<node lat="69.29835335008165" lon="23.175247629765696" id="-56628">
		<tag k="name" v="Dávgejávri" />
		<tag k="name:se" v="Dávgejávri" />
		<tag k="natural" v="water" />
		<tag k="old_name:se" v="Davgejavri" />
		<tag k="ssr:stedsnr" v="139896" />
	</node>
	<node lat="69.3016611125193" lon="23.811788770384606" id="-56629">
		<tag k="name" v="Suotnjoluokta" />
		<tag k="name:se" v="Suotnjoluokta" />
		<tag k="natural" v="bay" />
		<tag k="old_name:se" v="Suodnjuluokta" />
		<tag k="ssr:stedsnr" v="140470" />
	</node>
	<node lat="69.37696389029381" lon="22.723455472655214" id="-56630">
		<tag k="name" v="Sáđgejohka" />
		<tag k="name:se" v="Sáđgejohka" />
		<tag k="old_name:se" v="Sađgejåkka" />
		<tag k="ssr:stedsnr" v="140791" />
		<tag k="waterway" v="river" />
	</node>
	<node lat="69.1671861166564" lon="23.441144327678817" id="-56631">
		<tag k="name" v="Sággenjárga" />
		<tag k="name:se" v="Sággenjárga" />
		<tag k="natural" v="cape" />
		<tag k="ssr:stedsnr" v="146109" />
	</node>
	<node lat="69.41900277872541" lon="23.69487209432749" id="-56633">
		<tag k="name" v="Veahpponjárga" />
		<tag k="name:se" v="Veahpponjárga" />
		<tag k="natural" v="cape" />
		<tag k="ssr:stedsnr" v="151360" />
	</node>
	<node lat="68.99611111821113" lon="23.21726101267589" id="-56634">
		<tag k="name" v="Bálosuolu" />
		<tag k="name:se" v="Bálosuolu" />
		<tag k="place" v="islet" />
		<tag k="ssr:stedsnr" v="152113" />
	</node>
	<node lat="69.03331111859477" lon="23.235988782295856" id="-56637">
		<tag k="name" v="Gaskanjárga" />
		<tag k="name:se" v="Gaskanjárga" />
		<tag k="natural" v="cape" />
		<tag k="ssr:stedsnr" v="152020" />
	</node>
	<node lat="69.0132805621199" lon="23.250277678407468" id="-56638">
		<tag k="name" v="Stuoranjárga" />
		<tag k="name:se" v="Stuoranjárga" />
		<tag k="natural" v="cape" />
		<tag k="ssr:stedsnr" v="152452" />
	</node>
	<node lat="68.9404888925275" lon="23.084833234010755" id="-56646">
		<tag k="name" v="Gaskanjárga" />
		<tag k="name:se" v="Gaskanjárga" />
		<tag k="natural" v="cape" />
		<tag k="old_name:se" v="Gaskanjarga" />
		<tag k="ssr:stedsnr" v="260029" />
	</node>
	<node lat="68.95425833563209" lon="23.23572211602045" id="-56647">
		<tag k="name" v="Juhánajávri" />
		<tag k="name:se" v="Juhánajávri" />
		<tag k="natural" v="water" />
		<tag k="old_name:se" v="Juhanajavri" />
		<tag k="ssr:stedsnr" v="260038" />
	</node>
	<node lat="68.7171527811621" lon="23.51569432881064" id="-56649">
		<tag k="name" v="Heaidnajávri" />
		<tag k="name:se" v="Heaidnajávri" />
		<tag k="natural" v="water" />
		<tag k="old_name:se" v="Hæidnajavri" />
		<tag k="ssr:stedsnr" v="260045" />
	</node>
	<node lat="68.80100833901949" lon="22.815047135247614" id="-56650">
		<tag k="name" v="Guolehis Vuovdejávri" />
		<tag k="name:se" v="Guolehis Vuovdejávri" />
		<tag k="natural" v="water" />
		<tag k="old_name:se" v="Vuovdejavri, guolehis" />
		<tag k="ssr:stedsnr" v="260088" />
		<tag k="water" v="lake" />
	</node>
	<node lat="68.81831945211813" lon="22.81218324531949" id="-56651">
		<tag k="name" v="Vuoskkojohka" />
		<tag k="name:se" v="Vuoskkojohka" />
		<tag k="old_name:se" v="Vuoskujåkka" />
		<tag k="ssr:stedsnr" v="260090" />
		<tag k="waterway" v="stream" />
	</node>
	<node lat="68.81237500150783" lon="22.48043049015317" id="-56652">
		<tag k="name" v="Stuora Bálggesluoppal" />
		<tag k="name:se" v="Stuora Bálggesluoppal" />
		<tag k="natural" v="water" />
		<tag k="old_name:se" v="Balgesluobbal, stuora;Stuora Balgesluobbal" />
		<tag k="ssr:stedsnr" v="260091" />
		<tag k="water" v="lake" />
	</node>
	<node lat="68.93290278269342" lon="22.799686031070873" id="-56654">
		<tag k="name" v="Ruškesjávri" />
		<tag k="name:se" v="Ruškesjávri" />
		<tag k="natural" v="water" />
		<tag k="old_name:se" v="Ruškesjavri" />
		<tag k="ssr:stedsnr" v="260110" />
		<tag k="water" v="lake" />
	</node>
	<node lat="69.06743889595235" lon="23.20427490155106" id="-56662">
		<tag k="name" v="Joganjálmmenjárga" />
		<tag k="name:se" v="Joganjálmmenjárga" />
		<tag k="natural" v="cape" />
		<tag k="ssr:stedsnr" v="167464" />
	</node>
	<node lat="69.0031500069479" lon="23.107730469146205" id="-56663">
		<tag k="fixme" v="multiple name tags, choose one and add the other to alt_name" />
		<tag k="name" v="Skáidegurajávri;Máđiijávri" />
		<tag k="name:se" v="Skáidegurajávri;Máđiijávri" />
		<tag k="natural" v="water" />
		<tag k="old_name:se" v="Madiijavri" />
		<tag k="ssr:stedsnr" v="260533" />
	</node>
	<node lat="69.0131083351363" lon="23.323274887238792" id="-56665">
		<tag k="loc_name:se" v="Luovosjávri" />
		<tag k="name" v="Njoaskejávri" />
		<tag k="name:se" v="Njoaskejávri" />
		<tag k="natural" v="water" />
		<tag k="old_name:se" v="Njoaskejavri" />
		<tag k="ssr:stedsnr" v="260536" />
	</node>
	<node lat="69.2274194455651" lon="23.66406099277996" id="-56666">
		<tag k="name" v="Skoarraluoppal" />
		<tag k="name:se" v="Skoarraluoppal" />
		<tag k="natural" v="water" />
		<tag k="old_name:se" v="Skoarraluobbal" />
		<tag k="ssr:stedsnr" v="260542" />
	</node>
	<node lat="69.23368889357062" lon="23.83482208248795" id="-56667">
		<tag k="name" v="Vuoskkojávri" />
		<tag k="name:se" v="Vuoskkojávri" />
		<tag k="natural" v="water" />
		<tag k="old_name:se" v="Vuoskujavri" />
		<tag k="ssr:stedsnr" v="260543" />
	</node>
	<node lat="69.08677222477591" lon="22.862280461850634" id="-56670">
		<tag k="name" v="Biitovárpi" />
		<tag k="name:se" v="Biitovárpi" />
		<tag k="natural" v="water" />
		<tag k="ssr:stedsnr" v="168109" />
		<tag k="water" v="lake" />
	</node>
	<node lat="69.08973333672104" lon="22.81707215355538" id="-56671">
		<tag k="name" v="Návddášjoganjálbmi" />
		<tag k="name:se" v="Návddášjoganjálbmi" />
		<tag k="natural" v="bay" />
		<tag k="ssr:stedsnr" v="168113" />
	</node>
	<node lat="69.07454444539596" lon="22.86899435405754" id="-56672">
		<tag k="name" v="Greftajávri" />
		<tag k="name:se" v="Greftajávri" />
		<tag k="natural" v="water" />
		<tag k="ssr:stedsnr" v="168115" />
	</node>
	<node lat="69.12139166717289" lon="23.329033216087712" id="-56673">
		<tag k="name" v="Hávgajohka" />
		<tag k="name:se" v="Hávgajohka" />
		<tag k="old_name:se" v="Havgajåkka" />
		<tag k="ssr:stedsnr" v="260582" />
		<tag k="waterway" v="stream" />
	</node>
	<node lat="69.04356111488397" lon="22.235080491448002" id="-56678">
		<tag k="name" v="Vuorggojávri" />
		<tag k="name:se" v="Vuorggojávri" />
		<tag k="natural" v="water" />
		<tag k="old_name:se" v="Vuorgujavri" />
		<tag k="ssr:stedsnr" v="260656" />
		<tag k="water" v="lake" />
	</node>
	<node lat="69.12817222406973" lon="23.29724155444548" id="-56679">
		<tag k="name" v="Bávgilnjárga" />
		<tag k="name:se" v="Bávgilnjárga" />
		<tag k="natural" v="cape" />
		<tag k="ssr:stedsnr" v="168608" />
	</node>
	<node lat="69.17031389661595" lon="23.45642489391681" id="-56680">
		<tag k="name" v="Heammogieddvárpi" />
		<tag k="name:se" v="Heammogieddvárpi" />
		<tag k="natural" v="water" />
		<tag k="ssr:stedsnr" v="168679" />
		<tag k="water" v="lake" />
	</node>
	<node lat="69.00135555718752" lon="22.561149928910627" id="-56681">
		<tag k="name" v="Vuolit Rávdosuorejávri" />
		<tag k="name:se" v="Vuolit Rávdosuorejávri" />
		<tag k="natural" v="water" />
		<tag k="old_name:se" v="Ravdusuorejavri, vuolit" />
		<tag k="ssr:stedsnr" v="260643" />
	</node>
	<node lat="68.89907500550171" lon="24.041833184749745" id="-56686">
		<tag k="name" v="Njárgajávri" />
		<tag k="name:se" v="Njárgajávri" />
		<tag k="natural" v="water" />
		<tag k="old_name:se" v="Njargajavri" />
		<tag k="ssr:stedsnr" v="260829" />
	</node>
	<node lat="68.89238055631584" lon="22.899077678755372" id="-56687">
		<tag k="name" v="Roggeluoppal" />
		<tag k="name:se" v="Roggeluoppal" />
		<tag k="natural" v="water" />
		<tag k="old_name:se" v="Råggeluobbal" />
		<tag k="ssr:stedsnr" v="260924" />
		<tag k="water" v="lake" />
	</node>
	<node lat="68.86056945534752" lon="24.624716446815913" id="-56690">
		<tag k="name" v="Máđiiluoppal" />
		<tag k="name:se" v="Máđiiluoppal" />
		<tag k="natural" v="water" />
		<tag k="old_name:se" v="Mađirluobbal" />
		<tag k="ssr:stedsnr" v="260889" />
	</node>
	<node lat="68.82766667090492" lon="23.24459156283856" id="-56693">
		<tag k="name" v="Bievjaveaijohka" />
		<tag k="name:se" v="Bievjaveaijohka" />
		<tag k="old_name:se" v="Bievjavæjjåkka" />
		<tag k="ssr:stedsnr" v="260944" />
		<tag k="waterway" v="river" />
	</node>
	<node lat="68.93046389691933" lon="23.45011654391431" id="-56695">
		<tag k="name" v="Mohkkejávri" />
		<tag k="name:se" v="Mohkkejávri" />
		<tag k="natural" v="water" />
		<tag k="old_name:se" v="Måkkejavri" />
		<tag k="ssr:stedsnr" v="260990" />
		<tag k="water" v="lake" />
	</node>
	<node lat="68.93517778667682" lon="23.985735955118113" id="-56696">
		<tag k="name" v="Sotnabeaiskáiddejávri" />
		<tag k="name:se" v="Sotnabeaiskáiddejávri" />
		<tag k="natural" v="water" />
		<tag k="ssr:stedsnr" v="260995" />
		<tag k="water" v="lake" />
	</node>
	<node lat="68.74491389125888" lon="22.38479438238206" id="-56697">
		<tag k="name" v="Buvssašjohka" />
		<tag k="name:se" v="Buvssašjohka" />
		<tag k="old_name:se" v="Buvsašjåkka" />
		<tag k="ssr:stedsnr" v="261056" />
		<tag k="waterway" v="stream" />
	</node>
	<node lat="68.86936111529788" lon="22.334766604110854" id="-56698">
		<tag k="name" v="Hávgajohka" />
		<tag k="name:se" v="Hávgajohka" />
		<tag k="old_name:se" v="Havgajåkka" />
		<tag k="ssr:stedsnr" v="261044" />
		<tag k="waterway" v="stream" />
	</node>
	<node lat="68.8790194420893" lon="22.346324939558993" id="-56699">
		<tag k="name" v="Hávgaluoppal" />
		<tag k="name:se" v="Hávgaluoppal" />
		<tag k="natural" v="water" />
		<tag k="old_name:se" v="Havgaluobbal" />
		<tag k="ssr:stedsnr" v="261075" />
		<tag k="water" v="lake" />
	</node>
	<node lat="68.88238333586489" lon="22.70287491937927" id="-56700">
		<tag k="fixme" v="multiple name tags, choose one and add the other to alt_name" />
		<tag k="name" v="Guovdageaineatnu;Eatnu - Kautokeinoelva" />
		<tag k="name:no" v="Kautokeinoelva" />
		<tag k="name:se" v="Guovdageaineatnu;Eatnu" />
		<tag k="old_name:se" v="Guovdagæinædno;Ædno" />
		<tag k="ssr:stedsnr" v="261081" />
		<tag k="waterway" v="river" />
	</node>
	<node lat="69.62507222309007" lon="24.11037764508376" id="-56703">
		<tag k="name" v="Šilljoluokta" />
		<tag k="name:se" v="Šilljoluokta" />
		<tag k="natural" v="bay" />
		<tag k="old_name:se" v="Šilljuluokta" />
		<tag k="ssr:stedsnr" v="261276" />
	</node>
	<node lat="69.42380000290338" lon="24.203774836533768" id="-56704">
		<tag k="name" v="Áhkárjávri" />
		<tag k="name:se" v="Áhkárjávri" />
		<tag k="natural" v="water" />
		<tag k="old_name:se" v="Akkarjavri;Áhkarjávri" />
		<tag k="ssr:stedsnr" v="261284" />
		<tag k="water" v="lake" />
	</node>
	<node lat="69.59768056480378" lon="24.326402622365237" id="-56706">
		<tag k="name" v="Hálkavárluoppal" />
		<tag k="name:se" v="Hálkavárluoppal" />
		<tag k="natural" v="water" />
		<tag k="ssr:stedsnr" v="261237" />
		<tag k="water" v="lake" />
	</node>
	<node lat="69.41481667598188" lon="23.81107764586936" id="-56709">
		<tag k="name" v="Ballánjávri" />
		<tag k="name:se" v="Ballánjávri" />
		<tag k="natural" v="water" />
		<tag k="old_name:se" v="Ballanjavri" />
		<tag k="ssr:stedsnr" v="261428" />
	</node>
	<node lat="69.29514166702523" lon="23.994010973541137" id="-56712">
		<tag k="name" v="Skierrejohka" />
		<tag k="name:se" v="Skierrejohka" />
		<tag k="old_name:se" v="Skierrejåkka" />
		<tag k="ssr:stedsnr" v="261512" />
		<tag k="waterway" v="stream" />
	</node>
	<node lat="69.52410000031834" lon="23.48378045337788" id="-56714">
		<tag k="name" v="Jávrrehuščahca" />
		<tag k="name:se" v="Jávrrehuščahca" />
		<tag k="old_name:se" v="Javrehuščacca" />
		<tag k="place" v="locality" />
		<tag k="ssr:stedsnr" v="261546" />
	</node>
	<node lat="69.21441111312721" lon="23.69908599401065" id="-56715">
		<tag k="name" v="Vealevuohppi" />
		<tag k="name:se" v="Vealevuohppi" />
		<tag k="natural" v="bay" />
		<tag k="old_name:se" v="Vælevuoppi" />
		<tag k="ssr:stedsnr" v="261555" />
	</node>
	<node lat="69.20367778149378" lon="23.575249871784177" id="-56716">
		<tag k="alt_name:se" v="Riegajohka" />
		<tag k="name" v="Riigajohka" />
		<tag k="name:se" v="Riigajohka" />
		<tag k="old_name:se" v="Riigajåkka" />
		<tag k="ssr:stedsnr" v="261558" />
		<tag k="waterway" v="stream" />
	</node>
	<node lat="69.18268333807019" lon="23.49020822210353" id="-56717">
		<tag k="name" v="Čohkkajohka" />
		<tag k="name:se" v="Čohkkajohka" />
		<tag k="old_name:se" v="Čåkkajåkka" />
		<tag k="ssr:stedsnr" v="261560" />
		<tag k="waterway" v="stream" />
	</node>
	<node lat="69.16964722992769" lon="23.45962489068604" id="-56719">
		<tag k="name" v="Heammojávri" />
		<tag k="name:se" v="Heammojávri" />
		<tag k="natural" v="water" />
		<tag k="old_name:se" v="Hæmmujavri;Heammojavri;Hemmojávri" />
		<tag k="ssr:stedsnr" v="261567" />
		<tag k="water" v="lake" />
	</node>
	<node lat="69.55426111171057" lon="23.74867765468214" id="-56720">
		<tag k="name" v="Goikegorssajohka" />
		<tag k="name:se" v="Goikegorssajohka" />
		<tag k="old_name:se" v="Gåikegårsajåkka" />
		<tag k="ssr:stedsnr" v="261568" />
		<tag k="waterway" v="stream" />
	</node>
	<node lat="69.54401944887721" lon="23.507999884534183" id="-56721">
		<tag k="name" v="Biittohašjávri" />
		<tag k="name:se" v="Biittohašjávri" />
		<tag k="natural" v="water" />
		<tag k="old_name:se" v="Biituhašjavri" />
		<tag k="ssr:stedsnr" v="261571" />
		<tag k="water" v="lake" />
	</node>
	<node lat="69.18004167426487" lon="23.553574898439003" id="-56722">
		<tag k="name" v="Geaidnovuohppi" />
		<tag k="name:se" v="Geaidnovuohppi" />
		<tag k="natural" v="bay" />
		<tag k="old_name:se" v="Gæidnuvuoppi" />
		<tag k="ssr:stedsnr" v="261573" />
	</node>
	<node lat="69.58725278277392" lon="23.53560821831135" id="-56726">
		<tag k="name" v="Dálloluoppal" />
		<tag k="name:se" v="Dálloluoppal" />
		<tag k="natural" v="water" />
		<tag k="old_name:se" v="Dalluluobbal" />
		<tag k="ssr:stedsnr" v="261591" />
	</node>
	<node lat="69.50208333439807" lon="23.698813768228174" id="-56728">
		<tag k="name" v="Áisarjohka" />
		<tag k="name:se" v="Áisarjohka" />
		<tag k="old_name:se" v="Aisarjåkka" />
		<tag k="ssr:stedsnr" v="261537" />
		<tag k="waterway" v="stream" />
	</node>
	<node lat="69.64425555849411" lon="23.96985265920018" id="-56729">
		<tag k="name" v="Hárrejohka" />
		<tag k="name:se" v="Hárrejohka" />
		<tag k="old_name:se" v="Harrejåkka" />
		<tag k="ssr:stedsnr" v="261615" />
		<tag k="waterway" v="stream" />
	</node>
	<node lat="69.19816111119526" lon="22.655080488029057" id="-56733">
		<tag k="name" v="Gorvvešluoppal" />
		<tag k="name:se" v="Gorvvešluoppal" />
		<tag k="natural" v="water" />
		<tag k="old_name:se" v="Gårvešluobbal" />
		<tag k="ssr:stedsnr" v="261668" />
		<tag k="water" v="lake" />
	</node>
	<node lat="69.70442500415737" lon="23.47221657079208" id="-56734">
		<tag k="name" v="Gielasjávri" />
		<tag k="name:se" v="Gielasjávri" />
		<tag k="natural" v="water" />
		<tag k="old_name:se" v="Gielasjavri" />
		<tag k="ssr:stedsnr" v="261633" />
	</node>
	<node lat="68.75725239844117" lon="25.126004963250104" id="-56735">
		<tag k="name" v="Botnjegorži" />
		<tag k="name:se" v="Botnjegorži" />
		<tag k="natural" v="waterfall" />
		<tag k="old_name:se" v="Bådnjegårži" />
		<tag k="ssr:stedsnr" v="261639" />
	</node>
	<node lat="69.57869722453425" lon="22.842719381009246" id="-56736">
		<tag k="name" v="Miellejávri" />
		<tag k="name:se" v="Miellejávri" />
		<tag k="natural" v="water" />
		<tag k="old_name:se" v="Miellejavri" />
		<tag k="ssr:stedsnr" v="261693" />
	</node>
	<node lat="69.37565833821681" lon="22.798599937604077" id="-56737">
		<tag k="name" v="Bihkkajohka" />
		<tag k="name:se" v="Bihkkajohka" />
		<tag k="old_name:se" v="Bikkajåkka" />
		<tag k="ssr:stedsnr" v="261770" />
		<tag k="waterway" v="stream" />
	</node>
	<node lat="68.76672500845197" lon="23.557363759579207" id="-56738">
		<tag k="name" v="Gálbeláttu" />
		<tag k="name:se" v="Gálbeláttu" />
		<tag k="natural" v="water" />
		<tag k="old_name:se" v="Galbeladdo" />
		<tag k="ssr:stedsnr" v="261771" />
	</node>
	<node lat="69.59309444356323" lon="23.130736021380983" id="-56741">
		<tag k="name" v="Gahččanjávri" />
		<tag k="name:se" v="Gahččanjávri" />
		<tag k="natural" v="water" />
		<tag k="old_name:se" v="Gaččanjavri;Gáhččanjávri" />
		<tag k="ssr:stedsnr" v="261703" />
		<tag k="water" v="lake" />
	</node>
	<node lat="69.6342222235019" lon="23.36656378545451" id="-56742">
		<tag k="name" v="Hoaŋkkavuolesjohka" />
		<tag k="name:se" v="Hoaŋkkavuolesjohka" />
		<tag k="old_name:se" v="Hoaŋkavuolesjåkka" />
		<tag k="ssr:stedsnr" v="261718" />
		<tag k="waterway" v="stream" />
	</node>
	<node lat="69.66161666514719" lon="22.92896380789887" id="-56744">
		<tag k="name" v="Vuolit Guollejávri" />
		<tag k="name:se" v="Vuolit Guollejávri" />
		<tag k="natural" v="water" />
		<tag k="old_name:se" v="Guollejavri, vuolit;Guollejávri" />
		<tag k="ssr:stedsnr" v="261743" />
		<tag k="water" v="lake" />
	</node>
	<node lat="69.40686666960086" lon="23.33332211852116" id="-56746">
		<tag k="name" v="Sáiva" />
		<tag k="name:se" v="Sáiva" />
		<tag k="natural" v="water" />
		<tag k="old_name:se" v="Saiva" />
		<tag k="ssr:stedsnr" v="261848" />
		<tag k="water" v="lake" />
	</node>
	<node lat="68.89032222796058" lon="22.908380478948395" id="-56749">
		<tag k="name" v="Roggesáiva" />
		<tag k="name:se" v="Roggesáiva" />
		<tag k="natural" v="water" />
		<tag k="old_name:se" v="Råggesaiva" />
		<tag k="ssr:stedsnr" v="261851" />
	</node>
	<node lat="69.39685555759861" lon="22.89344993290817" id="-56750">
		<tag k="name" v="Gilbejávrrit" />
		<tag k="name:se" v="Gilbejávrrit" />
		<tag k="natural" v="water" />
		<tag k="old_name:se" v="Gilbejavrit" />
		<tag k="ssr:stedsnr" v="261852" />
	</node>
	<node lat="69.0576388986954" lon="24.568847033578567" id="-56752">
		<tag k="name" v="Vuollošjohka" />
		<tag k="name:se" v="Vuollošjohka" />
		<tag k="old_name:se" v="Vuollušjåkka" />
		<tag k="ssr:stedsnr" v="261858" />
		<tag k="waterway" v="river" />
	</node>
	<node lat="69.34280833410935" lon="23.101408248507706" id="-56754">
		<tag k="name" v="Barttašjávri" />
		<tag k="name:se" v="Barttašjávri" />
		<tag k="natural" v="water" />
		<tag k="old_name:se" v="Bartašjavri" />
		<tag k="ssr:stedsnr" v="261861" />
		<tag k="water" v="lake" />
	</node>
	<node lat="69.06392500638212" lon="24.185285947048758" id="-56756">
		<tag k="name" v="Vuottašjávri" />
		<tag k="name:se" v="Vuottašjávri" />
		<tag k="natural" v="water" />
		<tag k="old_name:se" v="Vuoddašjavri" />
		<tag k="ssr:stedsnr" v="261865" />
		<tag k="water" v="lake" />
	</node>
	<node lat="69.14235556041933" lon="24.49606926620159" id="-56757">
		<tag k="name" v="Šuorpmoskáidi" />
		<tag k="name:se" v="Šuorpmoskáidi" />
		<tag k="natural" v="cape" />
		<tag k="old_name:se" v="Šuorbmuskaidi" />
		<tag k="ssr:stedsnr" v="261870" />
	</node>
	<node lat="69.28747222792667" lon="23.157349906229918" id="-56759">
		<tag k="name" v="Goahtejávri" />
		<tag k="name:se" v="Goahtejávri" />
		<tag k="natural" v="water" />
		<tag k="old_name:se" v="Goattejavri" />
		<tag k="ssr:stedsnr" v="261875" />
	</node>
	<node lat="69.31789444975497" lon="22.474772158952103" id="-56763">
		<tag k="name" v="Leamšejohka" />
		<tag k="name:se" v="Leamšejohka" />
		<tag k="old_name:se" v="Læmšejåkka" />
		<tag k="ssr:stedsnr" v="261948" />
		<tag k="waterway" v="stream" />
	</node>
	<node lat="69.17024722831827" lon="23.696510990946948" id="-56765">
		<tag k="name" v="Ánnájávri" />
		<tag k="name:se" v="Ánnájávri" />
		<tag k="natural" v="water" />
		<tag k="old_name:se" v="Annajavri" />
		<tag k="ssr:stedsnr" v="261955" />
	</node>
	<node lat="69.28882500267218" lon="22.65998604987741" id="-56766">
		<tag k="name" v="Máđiijávri" />
		<tag k="name:se" v="Máđiijávri" />
		<tag k="natural" v="water" />
		<tag k="old_name:se" v="Mađiijavri" />
		<tag k="ssr:stedsnr" v="261962" />
		<tag k="water" v="lake" />
	</node>
	<node lat="68.86776111341948" lon="22.995066566361544" id="-56767">
		<tag k="name" v="Rohtojávri" />
		<tag k="name:se" v="Rohtojávri" />
		<tag k="natural" v="water" />
		<tag k="old_name:se" v="Råttujavri" />
		<tag k="ssr:stedsnr" v="261910" />
		<tag k="water" v="lake" />
	</node>
	<node lat="68.80723611661925" lon="22.884113816434898" id="-56771">
		<tag k="name" v="Riigajohka" />
		<tag k="name:se" v="Riigajohka" />
		<tag k="old_name:se" v="Riigajåkka" />
		<tag k="ssr:stedsnr" v="261966" />
		<tag k="waterway" v="stream" />
	</node>
	<node lat="69.13488611959589" lon="23.681772104669378" id="-56772">
		<tag k="name" v="Gállojohka" />
		<tag k="name:se" v="Gállojohka" />
		<tag k="old_name:se" v="Gallujåkka" />
		<tag k="ssr:stedsnr" v="261970" />
		<tag k="waterway" v="river" />
	</node>
	<node lat="69.15618889314344" lon="24.331288723196796" id="-56774">
		<tag k="name" v="Jovssebajohka" />
		<tag k="name:se" v="Jovssebajohka" />
		<tag k="old_name:se" v="Jåvsebajåkka" />
		<tag k="ssr:stedsnr" v="261977" />
		<tag k="waterway" v="river" />
	</node>
	<node lat="69.54801389132335" lon="24.40038871647868" id="-56778">
		<tag k="name" v="Mollešjohnjavvi" />
		<tag k="name:se" v="Mollešjohnjavvi" />
		<tag k="ssr:stedsnr" v="267370" />
		<tag k="waterway" v="rapids" />
	</node>
	<node lat="68.98531666924117" lon="23.20564711630861" id="-56779">
		<tag k="name" v="Stuorasuolu" />
		<tag k="name:se" v="Stuorasuolu" />
		<tag k="old_name:se" v="Stuorasuolo" />
		<tag k="place" v="island" />
		<tag k="ssr:stedsnr" v="199013" />
	</node>
	<node lat="69.06957500138228" lon="22.800649913358047" id="-56780">
		<tag k="fixme" v="multiple name tags, choose one and add the other to alt_name" />
		<tag k="name" v="Guhkesjávri;Májanašjávri" />
		<tag k="name:se" v="Guhkesjávri;Májanašjávri" />
		<tag k="natural" v="water" />
		<tag k="old_name:se" v="Majanašjavri" />
		<tag k="ssr:stedsnr" v="199757" />
	</node>
	<node lat="68.84089167387164" lon="22.976002685078903" id="-56782">
		<tag k="name" v="Duolbajávrrit" />
		<tag k="name:se" v="Duolbajávrrit" />
		<tag k="natural" v="water" />
		<tag k="old_name:se" v="Duolbajavrit" />
		<tag k="ssr:stedsnr" v="199916" />
		<tag k="water" v="lake" />
	</node>
	<node lat="68.99620000337049" lon="22.636177706002623" id="-56783">
		<tag k="name" v="Čunojohka" />
		<tag k="name:se" v="Čunojohka" />
		<tag k="old_name:se" v="Čunujåkka" />
		<tag k="ssr:stedsnr" v="200108" />
		<tag k="waterway" v="stream" />
	</node>
	<node lat="68.74718889572016" lon="24.63393033407985" id="-56784">
		<tag k="name" v="Gavdnjajohka" />
		<tag k="name:se" v="Gavdnjajohka" />
		<tag k="old_name:se" v="Gavdnjajåkka" />
		<tag k="ssr:stedsnr" v="200009" />
		<tag k="waterway" v="river" />
	</node>
	<node lat="68.74508334276763" lon="24.809502537633364" id="-56785">
		<tag k="name" v="Anárjohka" />
		<tag k="name:se" v="Anárjohka" />
		<tag k="ssr:stedsnr" v="200011" />
		<tag k="waterway" v="river" />
	</node>
	<node lat="68.98199722970607" lon="22.986949903451503" id="-56787">
		<tag k="name" v="Vuoskkojávri" />
		<tag k="name:se" v="Vuoskkojávri" />
		<tag k="natural" v="water" />
		<tag k="old_name:se" v="Vuoskujavri" />
		<tag k="ssr:stedsnr" v="200014" />
		<tag k="water" v="lake" />
	</node>
	<node lat="69.45390556369158" lon="24.060274860110205" id="-56790">
		<tag k="name" v="Guotku" />
		<tag k="name:se" v="Guotku" />
		<tag k="old_name:se" v="Guotko" />
		<tag k="place" v="locality" />
		<tag k="ssr:stedsnr" v="200300" />
	</node>
	<node lat="69.37655000035282" lon="23.472916553102184" id="-56793">
		<tag k="name" v="Biggeluoppal" />
		<tag k="name:se" v="Biggeluoppal" />
		<tag k="natural" v="water" />
		<tag k="old_name:se" v="Biggeluobbal" />
		<tag k="ssr:stedsnr" v="200462" />
		<tag k="water" v="lake" />
	</node>
	<node lat="69.55820000208924" lon="24.075274857054225" id="-56797">
		<tag k="name" v="Njárgajávri" />
		<tag k="name:se" v="Njárgajávri" />
		<tag k="natural" v="water" />
		<tag k="old_name:se" v="Njargajavri" />
		<tag k="ssr:stedsnr" v="200311" />
	</node>
	<node lat="69.07555278275625" lon="23.241941563732716" id="-56799">
		<tag k="name" v="Stálojávri" />
		<tag k="name:se" v="Stálojávri" />
		<tag k="natural" v="water" />
		<tag k="old_name:se" v="Stalujavri" />
		<tag k="ssr:stedsnr" v="200603" />
		<tag k="water" v="lake" />
	</node>
	<node lat="69.5681388886839" lon="23.18501934668404" id="-56801">
		<tag k="name" v="Gahččanjohka" />
		<tag k="name:se" v="Gahččanjohka" />
		<tag k="old_name:se" v="Gaččanjåkka" />
		<tag k="ssr:stedsnr" v="200701" />
		<tag k="waterway" v="river" />
	</node>
	<node lat="68.976880563482" lon="24.704085902192663" id="-56802">
		<tag k="name" v="Gastejávri" />
		<tag k="name:se" v="Gastejávri" />
		<tag k="natural" v="water" />
		<tag k="old_name:se" v="Gastejavri" />
		<tag k="ssr:stedsnr" v="200846" />
		<tag k="water" v="lake" />
	</node>
	<node lat="69.08468889396289" lon="22.87453881234244" id="-56803">
		<tag k="name" v="Jumešjávri" />
		<tag k="name:se" v="Jumešjávri" />
		<tag k="natural" v="water" />
		<tag k="old_name:se" v="Jumešjavri" />
		<tag k="ssr:stedsnr" v="200599" />
		<tag k="water" v="lake" />
	</node>
	<node lat="69.42051111439469" lon="22.71462492576794" id="-56806">
		<tag k="name" v="Njáhkájávri" />
		<tag k="name:se" v="Njáhkájávri" />
		<tag k="natural" v="water" />
		<tag k="old_name:se" v="Njakkajavri" />
		<tag k="ssr:stedsnr" v="200755" />
	</node>
	<node lat="68.79590000563408" lon="24.32587482348937" id="-56807">
		<tag k="name" v="Bissoskáidi" />
		<tag k="name:se" v="Bissoskáidi" />
		<tag k="natural" v="cape" />
		<tag k="old_name:se" v="Bissuskaidi" />
		<tag k="ssr:stedsnr" v="200796" />
	</node>
	<node lat="68.74921389271817" lon="23.302661011302394" id="-56813">
		<tag k="name" v="Jarin" />
		<tag k="name:se" v="Jarin" />
		<tag k="natural" v="water" />
		<tag k="ssr:stedsnr" v="200949" />
		<tag k="water" v="lake" />
	</node>
	<node lat="68.76874722550073" lon="23.399160991767125" id="-56814">
		<tag k="name" v="Murdojohka" />
		<tag k="name:se" v="Murdojohka" />
		<tag k="old_name:se" v="Murdujåkka" />
		<tag k="ssr:stedsnr" v="200950" />
		<tag k="waterway" v="river" />
	</node>
	<node lat="69.41954722432921" lon="23.14904992254855" id="-56816">
		<tag k="name" v="Soagŋoluoppal" />
		<tag k="name:se" v="Soagŋoluoppal" />
		<tag k="natural" v="water" />
		<tag k="old_name:se" v="Soagŋuluobbal" />
		<tag k="ssr:stedsnr" v="200999" />
		<tag k="water" v="lake" />
	</node>
	<node lat="69.16025000332749" lon="23.438330449158244" id="-56820">
		<tag k="name" v="Sáivvaluokta" />
		<tag k="name:se" v="Sáivvaluokta" />
		<tag k="natural" v="bay" />
		<tag k="ssr:stedsnr" v="207111" />
	</node>
	<node lat="69.1361444471856" lon="23.35439989656489" id="-56821">
		<tag k="name" v="Vuolgamašluokta" />
		<tag k="name:se" v="Vuolgamašluokta" />
		<tag k="natural" v="bay" />
		<tag k="ssr:stedsnr" v="207335" />
	</node>
	<node lat="69.02261944798998" lon="23.23566657402789" id="-56822">
		<tag k="name" v="Sivamohkki" />
		<tag k="name:se" v="Sivamohkki" />
		<tag k="natural" v="bay" />
		<tag k="ssr:stedsnr" v="213030" />
	</node>
	<node lat="69.37871111062002" lon="23.609269338643372" id="-56824">
		<tag k="name" v="Bállojohka" />
		<tag k="name:se" v="Bállojohka" />
		<tag k="ssr:stedsnr" v="213286" />
		<tag k="waterway" v="stream" />
	</node>
	<node lat="68.9189500060142" lon="23.189030457448876" id="-56825">
		<tag k="name" v="Guomojávrrážat" />
		<tag k="name:se" v="Guomojávrrážat" />
		<tag k="natural" v="water" />
		<tag k="ssr:stedsnr" v="213310" />
	</node>
	<node lat="69.0454611097132" lon="23.132152689828136" id="-56826">
		<tag k="name" v="Guosmmarjárcoagan" />
		<tag k="name:se" v="Guosmmarjárcoagan" />
		<tag k="natural" v="shoal" />
		<tag k="place" v="locality" />
		<tag k="ssr:stedsnr" v="213632" />
	</node>
	<node lat="69.04980277772482" lon="23.141177680110783" id="-56828">
		<tag k="name" v="Čoalmmenjárga" />
		<tag k="name:se" v="Čoalmmenjárga" />
		<tag k="natural" v="cape" />
		<tag k="ssr:stedsnr" v="213577" />
	</node>
	<node lat="69.40619444755195" lon="23.6280137791724" id="-56831">
		<tag k="name" v="Garranjavvi" />
		<tag k="name:se" v="Garranjavvi" />
		<tag k="ssr:stedsnr" v="213706" />
		<tag k="waterway" v="rapids" />
	</node>
	<node lat="69.04235278323789" lon="23.10487213096403" id="-56832">
		<tag k="name" v="Njárisuolu" />
		<tag k="name:se" v="Njárisuolu" />
		<tag k="place" v="islet" />
		<tag k="ssr:stedsnr" v="213907" />
	</node>
	<node lat="69.03979166784679" lon="23.094083244723574" id="-56833">
		<tag k="name" v="Uhcanjárggaš" />
		<tag k="name:se" v="Uhcanjárggaš" />
		<tag k="natural" v="cape" />
		<tag k="ssr:stedsnr" v="213908" />
	</node>
	<node lat="69.03892777922472" lon="23.11076101669309" id="-56834">
		<tag k="name" v="Eaidnarmuotki" />
		<tag k="name:se" v="Eaidnarmuotki" />
		<tag k="place" v="locality" />
		<tag k="ssr:stedsnr" v="213910" />
	</node>
	<node lat="68.98999166739915" lon="22.97883045762121" id="-56835">
		<tag k="name" v="Kárenáhkobuollánjávri" />
		<tag k="name:se" v="Kárenáhkobuollánjávri" />
		<tag k="natural" v="water" />
		<tag k="ssr:stedsnr" v="213980" />
	</node>
	<node lat="69.0720638950933" lon="22.831066577012074" id="-56836">
		<tag k="name" v="Čalmmojávri" />
		<tag k="name:se" v="Čalmmojávri" />
		<tag k="natural" v="water" />
		<tag k="ssr:stedsnr" v="228106" />
	</node>
	<node lat="69.06497500595823" lon="23.031808243202786" id="-56837">
		<tag k="name" v="Luhppojohka" />
		<tag k="name:se" v="Luhppojohka" />
		<tag k="ssr:stedsnr" v="228185" />
		<tag k="waterway" v="stream" />
	</node>
	<node lat="69.26500000747949" lon="23.82468598942764" id="-56842">
		<tag k="name" v="Gizenjárga" />
		<tag k="name:se" v="Gizenjárga" />
		<tag k="natural" v="cape" />
		<tag k="ssr:stedsnr" v="229406" />
	</node>
	<node lat="69.35238611659815" lon="24.013555418094434" id="-56843">
		<tag k="name" v="Vuottašjávrresuolu" />
		<tag k="name:se" v="Vuottašjávrresuolu" />
		<tag k="place" v="islet" />
		<tag k="ssr:stedsnr" v="229408" />
	</node>
	<node lat="68.82318611398787" lon="23.354213785186623" id="-56845">
		<tag k="name" v="Goahtesuolu" />
		<tag k="name:se" v="Goahtesuolu" />
		<tag k="place" v="islet" />
		<tag k="ssr:stedsnr" v="229502" />
	</node>
	<node lat="69.12908333330536" lon="23.313672127600025" id="-56846">
		<tag k="name" v="Láttovárpi" />
		<tag k="name:se" v="Láttovárpi" />
		<tag k="natural" v="water" />
		<tag k="ssr:stedsnr" v="229605" />
		<tag k="water" v="lake" />
	</node>
	<node lat="69.19756667315869" lon="22.889291587962973" id="-56848">
		<tag k="name" v="Hánsajávri" />
		<tag k="name:se" v="Hánsajávri" />
		<tag k="natural" v="water" />
		<tag k="ssr:stedsnr" v="231181" />
		<tag k="water" v="lake" />
	</node>
	<node lat="69.14937500226716" lon="23.420702657738" id="-56851">
		<tag k="name" v="Sulloloavku" />
		<tag k="name:se" v="Sulloloavku" />
		<tag k="natural" v="bay" />
		<tag k="ssr:stedsnr" v="450346" />
	</node>
	<node lat="69.14383333654702" lon="23.361911005644277" id="-56852">
		<tag k="name" v="Káreluokta" />
		<tag k="name:se" v="Káreluokta" />
		<tag k="natural" v="bay" />
		<tag k="ssr:stedsnr" v="450350" />
	</node>
	<node lat="68.90765277944969" lon="22.866238802813243" id="-56854">
		<tag k="name" v="Rávdovuohpenjárga" />
		<tag k="name:se" v="Rávdovuohpenjárga" />
		<tag k="natural" v="cape" />
		<tag k="ssr:stedsnr" v="471944" />
	</node>
	<node lat="69.02510555638342" lon="23.23127490932977" id="-56855">
		<tag k="name" v="Vuohppi" />
		<tag k="name:se" v="Vuohppi" />
		<tag k="natural" v="water" />
		<tag k="ssr:stedsnr" v="455022" />
	</node>
	<node lat="69.01797500058939" lon="23.25530823097064" id="-56856">
		<tag k="name" v="Sireláddot" />
		<tag k="name:se" v="Sireláddot" />
		<tag k="natural" v="water" />
		<tag k="ssr:stedsnr" v="455031" />
	</node>
	<node lat="68.92237778258682" lon="22.92589713201784" id="-56857">
		<tag k="name" v="Geatkejohka" />
		<tag k="name:se" v="Geatkejohka" />
		<tag k="ssr:stedsnr" v="455057" />
		<tag k="waterway" v="river" />
	</node>
	<node lat="69.00590833705859" lon="23.26713322733386" id="-56859">
		<tag k="name" v="Varitjohka" />
		<tag k="name:se" v="Varitjohka" />
		<tag k="ssr:stedsnr" v="456094" />
		<tag k="waterway" v="stream" />
	</node>
	<node lat="69.00312222947015" lon="23.228005457949333" id="-56860">
		<tag k="name" v="Máđiiluoktasullot" />
		<tag k="name:se" v="Máđiiluoktasullot" />
		<tag k="place" v="islet" />
		<tag k="ssr:stedsnr" v="456097" />
	</node>
	<node lat="68.98857778198636" lon="23.253391553249944" id="-56861">
		<tag k="name" v="Gorsajohka" />
		<tag k="name:se" v="Gorsajohka" />
		<tag k="ssr:stedsnr" v="456144" />
		<tag k="waterway" v="stream" />
	</node>
	<node lat="68.8666000039902" lon="23.18007768989639" id="-56862">
		<tag k="name" v="Suovvasaš" />
		<tag k="name:se" v="Suovvasaš" />
		<tag k="natural" v="water" />
		<tag k="ssr:stedsnr" v="456291" />
	</node>
	<node lat="69.45066111830617" lon="23.599269329336828" id="-56863">
		<tag k="name" v="Unna Bojájávrráš" />
		<tag k="name:se" v="Unna Bojájávrráš" />
		<tag k="natural" v="water" />
		<tag k="ssr:stedsnr" v="456521" />
	</node>
	<node lat="69.02944722877162" lon="23.189288789493403" id="-56865">
		<tag k="name" v="Čoalmmenjárga" />
		<tag k="name:se" v="Čoalmmenjárga" />
		<tag k="natural" v="cape" />
		<tag k="ssr:stedsnr" v="456552" />
	</node>
	<node lat="69.02798055793741" lon="23.02514990122862" id="-56870">
		<tag k="name" v="Muorjejársuotnju" />
		<tag k="name:se" v="Muorjejársuotnju" />
		<tag k="natural" v="water" />
		<tag k="ssr:stedsnr" v="456877" />
	</node>
	<node lat="69.04861944700723" lon="23.10030268662215" id="-56875">
		<tag k="name" v="Váriláddot" />
		<tag k="name:se" v="Váriláddot" />
		<tag k="natural" v="water" />
		<tag k="ssr:stedsnr" v="456912" />
	</node>
	<node lat="68.99264444588074" lon="22.97074991068594" id="-56876">
		<tag k="name" v="Bávváljárnjárga" />
		<tag k="name:se" v="Bávváljárnjárga" />
		<tag k="natural" v="cape" />
		<tag k="ssr:stedsnr" v="456986" />
	</node>
	<node lat="69.05435000543405" lon="23.021230464231785" id="-56877">
		<tag k="name" v="Skoaraláttu" />
		<tag k="name:se" v="Skoaraláttu" />
		<tag k="natural" v="water" />
		<tag k="ssr:stedsnr" v="456923" />
	</node>
	<node lat="69.05444445054829" lon="23.03490824669829" id="-56878">
		<tag k="name" v="Goavgiljohka" />
		<tag k="name:se" v="Goavgiljohka" />
		<tag k="ssr:stedsnr" v="456926" />
		<tag k="waterway" v="stream" />
	</node>
	<node lat="68.86191944941386" lon="22.78611104043283" id="-56881">
		<tag k="name" v="Fávrrosluoppal" />
		<tag k="name:se" v="Fávrrosluoppal" />
		<tag k="natural" v="water" />
		<tag k="old_name:se" v="Favrusluobbal" />
		<tag k="ssr:stedsnr" v="260067" />
	</node>
	<node lat="68.86017499943202" lon="22.323280480066764" id="-56882">
		<tag k="name" v="Njearejávri" />
		<tag k="name:se" v="Njearejávri" />
		<tag k="natural" v="water" />
		<tag k="old_name:se" v="Njærejavri" />
		<tag k="ssr:stedsnr" v="260068" />
		<tag k="water" v="lake" />
	</node>
	<node lat="68.97981389444014" lon="23.087930453770362" id="-56883">
		<tag k="name" v="Máttajohka" />
		<tag k="name:se" v="Máttajohka" />
		<tag k="ssr:stedsnr" v="456949" />
		<tag k="waterway" v="stream" />
	</node>
	<node lat="68.9879500041464" lon="22.475299924801202" id="-56887">
		<tag k="name" v="Duolbajávri" />
		<tag k="name:se" v="Duolbajávri" />
		<tag k="natural" v="water" />
		<tag k="old_name:se" v="Duolbajavri" />
		<tag k="ssr:stedsnr" v="260150" />
		<tag k="water" v="lake" />
	</node>
	<node lat="69.09082778225985" lon="22.85816937376157" id="-56888">
		<tag k="alt_name:se" v="Stuorajároivvoš" />
		<tag k="name" v="Stuorajároaivvuš" />
		<tag k="name:se" v="Stuorajároaivvuš" />
		<tag k="natural" v="bay" />
		<tag k="old_name:se" v="Stuorajaroaivoš" />
		<tag k="ssr:stedsnr" v="260605" />
	</node>
	<node lat="69.20999445217136" lon="23.459141558542573" id="-56890">
		<tag k="name" v="Rássášjávri" />
		<tag k="name:se" v="Rássášjávri" />
		<tag k="natural" v="water" />
		<tag k="old_name:se" v="Rassašjavri" />
		<tag k="ssr:stedsnr" v="260548" />
	</node>
	<node lat="69.1482777784031" lon="22.830119356147023" id="-56891">
		<tag k="name" v="Juovlajohka" />
		<tag k="name:se" v="Juovlajohka" />
		<tag k="old_name:se" v="Juovlajåkka" />
		<tag k="ssr:stedsnr" v="260706" />
		<tag k="waterway" v="stream" />
	</node>
	<node lat="69.13572500612575" lon="22.843086034863738" id="-56892">
		<tag k="name" v="Ráhpesnjárga" />
		<tag k="name:se" v="Ráhpesnjárga" />
		<tag k="natural" v="cape" />
		<tag k="old_name:se" v="Rappesnjarga" />
		<tag k="ssr:stedsnr" v="260699" />
	</node>
	<node lat="68.8629250014267" lon="23.50687488509356" id="-56894">
		<tag k="name" v="Suolovuomašjávrrit" />
		<tag k="name:se" v="Suolovuomašjávrrit" />
		<tag k="natural" v="water" />
		<tag k="old_name:se" v="Soulovuomašjavrit" />
		<tag k="ssr:stedsnr" v="260810" />
		<tag k="water" v="lake" />
	</node>
	<node lat="68.85767500439235" lon="23.95183039656127" id="-56895">
		<tag k="name" v="Máđárjávri" />
		<tag k="name:se" v="Máđárjávri" />
		<tag k="natural" v="water" />
		<tag k="old_name:se" v="Mađarjavri;Máđarjávri" />
		<tag k="ssr:stedsnr" v="260814" />
		<tag k="water" v="lake" />
	</node>
	<node lat="68.78861666982716" lon="23.660124879399685" id="-56897">
		<tag k="name" v="Buolžajávri" />
		<tag k="name:se" v="Buolžajávri" />
		<tag k="natural" v="water" />
		<tag k="old_name:se" v="Buolžajavri" />
		<tag k="ssr:stedsnr" v="260799" />
		<tag k="water" v="lake" />
	</node>
	<node lat="68.77675000590209" lon="23.587399867059116" id="-56898">
		<tag k="name" v="Gaskkasjávri" />
		<tag k="name:se" v="Gaskkasjávri" />
		<tag k="natural" v="water" />
		<tag k="old_name:se" v="Gaskasjavri" />
		<tag k="ssr:stedsnr" v="260801" />
	</node>
	<node lat="68.97619167060775" lon="24.640469244103365" id="-56899">
		<tag k="name" v="Gietnjojohka" />
		<tag k="name:se" v="Gietnjojohka" />
		<tag k="old_name:se" v="Giednjujåkka" />
		<tag k="ssr:stedsnr" v="260902" />
		<tag k="waterway" v="river" />
	</node>
	<node lat="68.86600834016424" lon="22.47764992788392" id="-56903">
		<tag k="name" v="Roavášjohka" />
		<tag k="name:se" v="Roavášjohka" />
		<tag k="old_name:se" v="Roavašjåkka" />
		<tag k="ssr:stedsnr" v="261046" />
		<tag k="waterway" v="stream" />
	</node>
	<node lat="69.58393612013948" lon="24.344997071886617" id="-56904">
		<tag k="name" v="Ánddašluoppal" />
		<tag k="name:se" v="Ánddašluoppal" />
		<tag k="natural" v="water" />
		<tag k="ssr:stedsnr" v="261250" />
		<tag k="water" v="lake" />
	</node>
	<node lat="69.28935833676745" lon="23.438280441413752" id="-56905">
		<tag k="name" v="Buljojávri" />
		<tag k="name:se" v="Buljojávri" />
		<tag k="natural" v="water" />
		<tag k="old_name:se" v="Bulljujavri" />
		<tag k="ssr:stedsnr" v="261253" />
	</node>
	<node lat="69.53434166679618" lon="24.0956026444606" id="-56908">
		<tag k="name" v="Juzejávri" />
		<tag k="name:se" v="Juzejávri" />
		<tag k="natural" v="water" />
		<tag k="old_name:se" v="Juzejavri" />
		<tag k="ssr:stedsnr" v="261318" />
		<tag k="water" v="lake" />
	</node>
	<node lat="69.3878805613445" lon="23.509394350376926" id="-56910">
		<tag k="name" v="Unnaskáiddáš" />
		<tag k="name:se" v="Unnaskáiddáš" />
		<tag k="natural" v="cape" />
		<tag k="old_name:se" v="Unnaskaidaš" />
		<tag k="ssr:stedsnr" v="261446" />
	</node>
	<node lat="69.39606389417476" lon="23.714949872981236" id="-56911">
		<tag k="name" v="Bissojohka" />
		<tag k="name:se" v="Bissojohka" />
		<tag k="old_name:se" v="Bissujåkka" />
		<tag k="ssr:stedsnr" v="261451" />
		<tag k="waterway" v="stream" />
	</node>
	<node lat="69.32280833446147" lon="23.88605541621152" id="-56912">
		<tag k="name" v="Mohkkejávri" />
		<tag k="name:se" v="Mohkkejávri" />
		<tag k="natural" v="water" />
		<tag k="old_name:se" v="Måkkejavri" />
		<tag k="ssr:stedsnr" v="261495" />
		<tag k="water" v="lake" />
	</node>
	<node lat="69.66079167369706" lon="23.690027677443105" id="-56913">
		<tag k="name" v="Čuorvunluoppal" />
		<tag k="name:se" v="Čuorvunluoppal" />
		<tag k="natural" v="water" />
		<tag k="old_name:se" v="Čuorvonluobbal" />
		<tag k="ssr:stedsnr" v="261608" />
	</node>
	<node lat="69.563988893803" lon="23.218283237864195" id="-56914">
		<tag k="name" v="Várdevákkejohka" />
		<tag k="name:se" v="Várdevákkejohka" />
		<tag k="old_name:se" v="Vardevaggejåkka" />
		<tag k="ssr:stedsnr" v="261685" />
		<tag k="waterway" v="stream" />
	</node>
	<node lat="69.57127222231115" lon="23.095291578831613" id="-56915">
		<tag k="name" v="Čáhppesjohka" />
		<tag k="name:se" v="Čáhppesjohka" />
		<tag k="old_name:se" v="Čappesjåkka" />
		<tag k="ssr:stedsnr" v="261686" />
		<tag k="waterway" v="stream" />
	</node>
	<node lat="69.61393888912382" lon="23.13046657449123" id="-56916">
		<tag k="name" v="Guolehisguotku" />
		<tag k="name:se" v="Guolehisguotku" />
		<tag k="old_name:se" v="Guolehisguotko" />
		<tag k="place" v="locality" />
		<tag k="ssr:stedsnr" v="261698" />
	</node>
	<node lat="69.62243611328988" lon="23.487655456958326" id="-56917">
		<tag k="name" v="Rissejohka" />
		<tag k="name:se" v="Rissejohka" />
		<tag k="old_name:se" v="Rissejåkka" />
		<tag k="ssr:stedsnr" v="261599" />
		<tag k="waterway" v="stream" />
	</node>
	<node lat="69.65968333784943" lon="23.258147137296778" id="-56918">
		<tag k="name" v="Čuonjájávri" />
		<tag k="name:se" v="Čuonjájávri" />
		<tag k="natural" v="water" />
		<tag k="old_name:se" v="Čuonjajavri" />
		<tag k="ssr:stedsnr" v="261747" />
	</node>
	<node lat="69.43118056101554" lon="22.803113813414473" id="-56920">
		<tag k="name" v="Sállejávri" />
		<tag k="name:se" v="Sállejávri" />
		<tag k="natural" v="water" />
		<tag k="old_name:se" v="Sallejavri" />
		<tag k="ssr:stedsnr" v="261756" />
	</node>
	<node lat="69.58911388835496" lon="22.7956999258578" id="-56921">
		<tag k="name" v="Čáhcenjirranlágojohka" />
		<tag k="name:se" v="Čáhcenjirranlágojohka" />
		<tag k="old_name:se" v="Čaccenjirranlagojåkka" />
		<tag k="ssr:stedsnr" v="261796" />
		<tag k="waterway" v="stream" />
	</node>
	<node lat="69.28515277978624" lon="23.201877692484757" id="-56922">
		<tag k="name" v="Njárgajávri" />
		<tag k="name:se" v="Njárgajávri" />
		<tag k="natural" v="water" />
		<tag k="old_name:se" v="Njargajavri;Njárgajavri" />
		<tag k="ssr:stedsnr" v="261896" />
		<tag k="water" v="lake" />
	</node>
	<node lat="69.02713889372848" lon="23.54954710678744" id="-56923">
		<tag k="name" v="Bogejávri" />
		<tag k="name:se" v="Bogejávri" />
		<tag k="natural" v="water" />
		<tag k="old_name:se" v="Bågejavri" />
		<tag k="ssr:stedsnr" v="261997" />
		<tag k="water" v="lake" />
	</node>
	<node lat="69.4082527844963" lon="23.3863387925663" id="-56924">
		<tag k="name" v="Mázejohka" />
		<tag k="name:se" v="Mázejohka" />
		<tag k="old_name:se" v="Mazejåkka;Mážejohka" />
		<tag k="ssr:stedsnr" v="261998" />
		<tag k="waterway" v="river" />
	</node>
	<node lat="69.36083056273353" lon="23.59538878186446" id="-56925">
		<tag k="name" v="Bállojávrrit" />
		<tag k="name:se" v="Bállojávrrit" />
		<tag k="natural" v="water" />
		<tag k="old_name:se" v="Ballujavrit" />
		<tag k="ssr:stedsnr" v="264498" />
		<tag k="water" v="lake" />
	</node>
	<node lat="69.03683333257077" lon="23.20624712922231" id="-56926">
		<tag k="name" v="Gáhkkorláttu" />
		<tag k="name:se" v="Gáhkkorláttu" />
		<tag k="natural" v="water" />
		<tag k="ssr:stedsnr" v="273024" />
	</node>
	<node lat="69.03557777877215" lon="23.219141570605927" id="-56927">
		<tag k="name" v="Duommašláttu" />
		<tag k="name:se" v="Duommašláttu" />
		<tag k="natural" v="water" />
		<tag k="ssr:stedsnr" v="273028" />
	</node>
	<node lat="69.45553611622589" lon="23.69853321684694" id="-56928">
		<tag k="name" v="Ruogosavu" />
		<tag k="name:se" v="Ruogosavu" />
		<tag k="natural" v="water" />
		<tag k="ssr:stedsnr" v="273274" />
		<tag k="water" v="lake" />
	</node>
	<node lat="69.04383889039153" lon="23.12702211463624" id="-56930">
		<tag k="name" v="Guosmmarnjárga" />
		<tag k="name:se" v="Guosmmarnjárga" />
		<tag k="natural" v="cape" />
		<tag k="ssr:stedsnr" v="274576" />
	</node>
	<node lat="69.44237778209845" lon="23.6704359873408" id="-56931">
		<tag k="name" v="Hirsasavvon" />
		<tag k="name:se" v="Hirsasavvon" />
		<tag k="natural" v="water" />
		<tag k="ssr:stedsnr" v="274705" />
		<tag k="water" v="lake" />
	</node>
	<node lat="69.04424445177112" lon="23.109002683313182" id="-56932">
		<tag k="name" v="Guhkesnjárga" />
		<tag k="name:se" v="Guhkesnjárga" />
		<tag k="natural" v="cape" />
		<tag k="ssr:stedsnr" v="274870" />
	</node>
	<node lat="69.24876666737819" lon="23.801158210692265" id="-56936">
		<tag k="name" v="Galbanjárga" />
		<tag k="name:se" v="Galbanjárga" />
		<tag k="natural" v="cape" />
		<tag k="ssr:stedsnr" v="289408" />
	</node>
	<node lat="68.96664444686992" lon="23.07531658002401" id="-56942">
		<tag k="name" v="Máttaluoppal" />
		<tag k="name:se" v="Máttaluoppal" />
		<tag k="natural" v="water" />
		<tag k="ssr:stedsnr" v="290226" />
		<tag k="water" v="lake" />
	</node>
	<node lat="68.91145833672333" lon="22.845558243771027" id="-56943">
		<tag k="name" v="Čehporašjávri" />
		<tag k="name:se" v="Čehporašjávri" />
		<tag k="natural" v="water" />
		<tag k="ssr:stedsnr" v="290929" />
	</node>
	<node lat="68.7114805596476" lon="22.90013046324729" id="-56945">
		<tag k="name" v="Giellejohka" />
		<tag k="name:se" v="Giellejohka" />
		<tag k="old_name:se" v="Giellejåkka" />
		<tag k="ssr:stedsnr" v="321033" />
		<tag k="waterway" v="river" />
	</node>
	<node lat="69.26783889374151" lon="23.520405436070938" id="-56946">
		<tag k="name" v="Vuollajávri" />
		<tag k="name:se" v="Vuollajávri" />
		<tag k="natural" v="water" />
		<tag k="old_name:se" v="Vuollajavri" />
		<tag k="ssr:stedsnr" v="321233" />
		<tag k="water" v="lake" />
	</node>
	<node lat="69.57820278600425" lon="24.1161915360065" id="-56948">
		<tag k="name" v="Moivedanjávri" />
		<tag k="name:se" v="Moivedanjávri" />
		<tag k="natural" v="water" />
		<tag k="old_name:se" v="Måivedanjavri" />
		<tag k="ssr:stedsnr" v="321240" />
		<tag k="water" v="lake" />
	</node>
	<node lat="69.50849445229767" lon="23.52766933678663" id="-56949">
		<tag k="name" v="Iŋggájohka" />
		<tag k="name:se" v="Iŋggájohka" />
		<tag k="old_name:se" v="Iŋgajåkka" />
		<tag k="ssr:stedsnr" v="321482" />
		<tag k="waterway" v="stream" />
	</node>
	<node lat="69.69299167094945" lon="23.73512488583874" id="-56950">
		<tag k="name" v="Goidnesjohka" />
		<tag k="name:se" v="Goidnesjohka" />
		<tag k="old_name:se" v="Gåidnesjåkka" />
		<tag k="ssr:stedsnr" v="321602" />
		<tag k="waterway" v="river" />
	</node>
	<node lat="69.21854722763145" lon="23.669647096648713" id="-56957">
		<tag k="name" v="Vuovdeluoppal" />
		<tag k="name:se" v="Vuovdeluoppal" />
		<tag k="natural" v="water" />
		<tag k="old_name:se" v="Vuovdeluobbal" />
		<tag k="ssr:stedsnr" v="321504" />
	</node>
	<node lat="69.64570000636243" lon="23.484433237669705" id="-56958">
		<tag k="name" v="Dápmotjávrrit" />
		<tag k="name:se" v="Dápmotjávrrit" />
		<tag k="natural" v="water" />
		<tag k="old_name:se" v="Dabmutjavrit" />
		<tag k="ssr:stedsnr" v="321589" />
	</node>
	<node lat="68.77503334876998" lon="25.135733049545493" id="-56959">
		<tag k="name" v="Lássesavu" />
		<tag k="name:se" v="Lássesavu" />
		<tag k="old_name:se" v="Lassesavo" />
		<tag k="place" v="locality" />
		<tag k="ssr:stedsnr" v="321591" />
	</node>
	<node lat="68.87805278348308" lon="24.130274835601117" id="-56962">
		<tag k="name" v="Opmojávri" />
		<tag k="name:se" v="Opmojávri" />
		<tag k="natural" v="water" />
		<tag k="old_name:se" v="Åbmujavri" />
		<tag k="ssr:stedsnr" v="321778" />
	</node>
	<node lat="69.1110666744597" lon="23.57776655774412" id="-56966">
		<tag k="name" v="Laktinjávri" />
		<tag k="name:se" v="Laktinjávri" />
		<tag k="natural" v="water" />
		<tag k="old_name:se" v="Laktinjavri" />
		<tag k="ssr:stedsnr" v="321929" />
	</node>
	<node lat="68.98883889541762" lon="23.453091545659134" id="-56967">
		<tag k="name" v="Guhkesluoppal" />
		<tag k="name:se" v="Guhkesluoppal" />
		<tag k="natural" v="water" />
		<tag k="old_name:se" v="Gukkesluobbal" />
		<tag k="ssr:stedsnr" v="321930" />
	</node>
	<node lat="68.80652778366283" lon="24.05840261308945" id="-56969">
		<tag k="name" v="Njullosjávri" />
		<tag k="name:se" v="Njullosjávri" />
		<tag k="natural" v="water" />
		<tag k="old_name:se" v="Njullusjavri" />
		<tag k="ssr:stedsnr" v="321806" />
		<tag k="water" v="lake" />
	</node>
	<node lat="68.91587500313739" lon="23.23908878219524" id="-56972">
		<tag k="name" v="Bogijávri" />
		<tag k="name:se" v="Bogijávri" />
		<tag k="natural" v="water" />
		<tag k="ssr:stedsnr" v="321879" />
	</node>
	<node lat="68.91565555521248" lon="22.875558250043373" id="-56973">
		<tag k="name" v="Allamiellejarin" />
		<tag k="name:se" v="Allamiellejarin" />
		<tag k="natural" v="water" />
		<tag k="ssr:stedsnr" v="321888" />
		<tag k="water" v="lake" />
	</node>
	<node lat="69.23142222191923" lon="22.813424927592738" id="-56974">
		<tag k="name" v="Viekcejávrrit" />
		<tag k="name:se" v="Viekcejávrrit" />
		<tag k="natural" v="water" />
		<tag k="old_name:se" v="Viekcejavrit" />
		<tag k="ssr:stedsnr" v="322230" />
		<tag k="water" v="lake" />
	</node>
	<node lat="69.4877416678573" lon="23.576827671960853" id="-56975">
		<tag k="name" v="Duolbajohka" />
		<tag k="name:se" v="Duolbajohka" />
		<tag k="old_name:se" v="Duolbajåkka" />
		<tag k="ssr:stedsnr" v="322370" />
		<tag k="waterway" v="river" />
	</node>
	<node lat="69.60631388991999" lon="23.71818043614733" id="-56976">
		<tag k="name" v="Jiehtanasjávri" />
		<tag k="name:se" v="Jiehtanasjávri" />
		<tag k="natural" v="water" />
		<tag k="old_name:se" v="Jiettanasjavri" />
		<tag k="ssr:stedsnr" v="322577" />
	</node>
	<node lat="69.60348055800502" lon="23.773655436968582" id="-56977">
		<tag k="name" v="Sieđgasuolu" />
		<tag k="name:se" v="Sieđgasuolu" />
		<tag k="old_name:se" v="Sieđgasuolo" />
		<tag k="place" v="islet" />
		<tag k="ssr:stedsnr" v="322580" />
	</node>
	<node lat="69.19884166875363" lon="22.772027703893272" id="-56979">
		<tag k="name" v="Eatnogádjávri" />
		<tag k="name:se" v="Eatnogádjávri" />
		<tag k="natural" v="water" />
		<tag k="old_name:se" v="Ædnugadjavri" />
		<tag k="ssr:stedsnr" v="322678" />
	</node>
	<node lat="69.37968055299517" lon="22.533780498757878" id="-56983">
		<tag k="name" v="Sieiddášjohka" />
		<tag k="name:se" v="Sieiddášjohka" />
		<tag k="old_name:se" v="Sieidašjåkka" />
		<tag k="ssr:stedsnr" v="322780" />
		<tag k="waterway" v="river" />
	</node>
	<node lat="69.11805833460747" lon="24.113930403445956" id="-56986">
		<tag k="name" v="Fielbmajohgiera" />
		<tag k="name:se" v="Fielbmajohgiera" />
		<tag k="old_name:se" v="Fielbmajåkgiera" />
		<tag k="ssr:stedsnr" v="322904" />
		<tag k="waterway" v="stream" />
	</node>
	<node lat="69.4973722257189" lon="23.719624883856262" id="-56988">
		<tag k="name" v="Áisarjávri" />
		<tag k="name:se" v="Áisarjávri" />
		<tag k="natural" v="water" />
		<tag k="old_name:se" v="Aisarjavri" />
		<tag k="ssr:stedsnr" v="322927" />
		<tag k="water" v="lake" />
	</node>
	<node lat="69.45790000000868" lon="23.05134714879528" id="-56989">
		<tag k="name" v="Livččáluoppal" />
		<tag k="name:se" v="Livččáluoppal" />
		<tag k="natural" v="water" />
		<tag k="old_name:se" v="Livčaluobbal" />
		<tag k="ssr:stedsnr" v="322974" />
		<tag k="water" v="lake" />
	</node>
	<node lat="69.06886944723004" lon="22.823622146333022" id="-56992">
		<tag k="name" v="Čoavjeluoppal" />
		<tag k="name:se" v="Čoavjeluoppal" />
		<tag k="natural" v="water" />
		<tag k="ssr:stedsnr" v="471095" />
	</node>
	<node lat="68.74971944939965" lon="23.287202680361045" id="-56994">
		<tag k="name" v="Marastatjohka" />
		<tag k="name:se" v="Marastatjohka" />
		<tag k="ssr:stedsnr" v="471242" />
		<tag k="waterway" v="stream" />
	</node>
	<node lat="69.46481667258462" lon="23.723838758926867" id="-56997">
		<tag k="name" v="Darfeláttu" />
		<tag k="name:se" v="Darfeláttu" />
		<tag k="natural" v="water" />
		<tag k="ssr:stedsnr" v="334246" />
	</node>
	<node lat="69.41879166863744" lon="23.68257486916648" id="-57001">
		<tag k="name" v="Boskanjárga" />
		<tag k="name:se" v="Boskanjárga" />
		<tag k="natural" v="cape" />
		<tag k="ssr:stedsnr" v="334310" />
	</node>
	<node lat="69.48926111572865" lon="23.71374155838862" id="-57004">
		<tag k="name" v="Gollenjárga" />
		<tag k="name:se" v="Gollenjárga" />
		<tag k="natural" v="cape" />
		<tag k="ssr:stedsnr" v="334346" />
	</node>
	<node lat="69.05045834043459" lon="23.146563786923775" id="-57006">
		<tag k="name" v="Čoalmmivuohppi" />
		<tag k="name:se" v="Čoalmmivuohppi" />
		<tag k="natural" v="bay" />
		<tag k="ssr:stedsnr" v="334509" />
	</node>
	<node lat="69.0043583345684" lon="23.017349898067643" id="-57008">
		<tag k="name" v="Geađgejohka" />
		<tag k="name:se" v="Geađgejohka" />
		<tag k="ssr:stedsnr" v="334514" />
		<tag k="waterway" v="stream" />
	</node>
	<node lat="69.43568611701689" lon="23.658622107722763" id="-57009">
		<tag k="name" v="Girkovuohppi" />
		<tag k="name:se" v="Girkovuohppi" />
		<tag k="natural" v="bay" />
		<tag k="ssr:stedsnr" v="334719" />
	</node>
	<node lat="68.95880277860476" lon="23.081872138957277" id="-57013">
		<tag k="name" v="Máđiimohkki" />
		<tag k="name:se" v="Máđiimohkki" />
		<tag k="natural" v="bay" />
		<tag k="ssr:stedsnr" v="472231" />
	</node>
	<node lat="69.12076667129394" lon="23.267836006535696" id="-57016">
		<tag k="name" v="Diskanjárga" />
		<tag k="name:se" v="Diskanjárga" />
		<tag k="natural" v="cape" />
		<tag k="ssr:stedsnr" v="471384" />
	</node>
	<node lat="69.11948611811813" lon="23.229141581220247" id="-57017">
		<tag k="name" v="Mieroláttu" />
		<tag k="name:se" v="Mieroláttu" />
		<tag k="natural" v="water" />
		<tag k="ssr:stedsnr" v="471388" />
	</node>
	<node lat="69.32445278179625" lon="23.592424881858495" id="-57019">
		<tag k="name" v="Suotnavuohppi" />
		<tag k="name:se" v="Suotnavuohppi" />
		<tag k="natural" v="bay" />
		<tag k="ssr:stedsnr" v="471394" />
	</node>
	<node lat="69.07403333408767" lon="23.22733045909085" id="-57020">
		<tag k="name" v="Vuojahatnjárga" />
		<tag k="name:se" v="Vuojahatnjárga" />
		<tag k="natural" v="cape" />
		<tag k="ssr:stedsnr" v="471396" />
	</node>
	<node lat="69.06744722737595" lon="23.20716101114031" id="-57021">
		<tag k="name" v="Joganjálbmi" />
		<tag k="name:se" v="Joganjálbmi" />
		<tag k="natural" v="bay" />
		<tag k="ssr:stedsnr" v="471400" />
	</node>
	<node lat="68.79668889046079" lon="23.322749890340507" id="-57024">
		<tag k="name" v="Njuikunnjárga" />
		<tag k="name:se" v="Njuikunnjárga" />
		<tag k="natural" v="cape" />
		<tag k="ssr:stedsnr" v="471450" />
	</node>
	<node lat="69.37497778374805" lon="23.490944345397303" id="-57025">
		<tag k="name" v="Máđiiluhppojávri" />
		<tag k="name:se" v="Máđiiluhppojávri" />
		<tag k="natural" v="water" />
		<tag k="ssr:stedsnr" v="471451" />
	</node>
	<node lat="69.12746945199369" lon="23.298224892790838" id="-57027">
		<tag k="name" v="Vuohppenjálmmevárpi" />
		<tag k="name:se" v="Vuohppenjálmmevárpi" />
		<tag k="natural" v="water" />
		<tag k="ssr:stedsnr" v="471624" />
		<tag k="water" v="lake" />
	</node>
	<node lat="69.17286945125446" lon="23.462210991434546" id="-57028">
		<tag k="name" v="Fielmmanjárggavárppit" />
		<tag k="name:se" v="Fielmmanjárggavárppit" />
		<tag k="natural" v="water" />
		<tag k="ssr:stedsnr" v="471693" />
		<tag k="water" v="lake" />
	</node>
	<node lat="69.13009166920745" lon="23.30131933641232" id="-57029">
		<tag k="name" v="Davvegeaževárpi" />
		<tag k="name:se" v="Davvegeaževárpi" />
		<tag k="natural" v="water" />
		<tag k="ssr:stedsnr" v="471627" />
		<tag k="water" v="lake" />
	</node>
	<node lat="69.1912833369157" lon="23.572274888860846" id="-57031">
		<tag k="name" v="Bohtat" />
		<tag k="name:se" v="Bohtat" />
		<tag k="place" v="islet" />
		<tag k="ssr:stedsnr" v="471713" />
	</node>
	<node lat="68.9223444463546" lon="23.101069342819493" id="-57035">
		<tag k="name" v="Jarin" />
		<tag k="name:se" v="Jarin" />
		<tag k="natural" v="water" />
		<tag k="ssr:stedsnr" v="472136" />
		<tag k="water" v="lake" />
	</node>
	<node lat="68.90946111437796" lon="22.869230474490248" id="-57037">
		<tag k="name" v="Márratsuolu" />
		<tag k="name:se" v="Márratsuolu" />
		<tag k="place" v="islet" />
		<tag k="ssr:stedsnr" v="472924" />
	</node>
	<node lat="68.90405000613595" lon="22.849547152737564" id="-57038">
		<tag k="name" v="Láiresuolu" />
		<tag k="name:se" v="Láiresuolu" />
		<tag k="place" v="islet" />
		<tag k="ssr:stedsnr" v="348056" />
	</node>
	<node lat="68.89547222287915" lon="22.832947138202858" id="-57040">
		<tag k="name" v="Bákteguoika" />
		<tag k="name:se" v="Bákteguoika" />
		<tag k="ssr:stedsnr" v="349058" />
		<tag k="waterway" v="rapids" />
	</node>
	<node lat="68.90516111211402" lon="22.802669355784417" id="-57041">
		<tag k="name" v="Vuolimus Báktejávri" />
		<tag k="name:se" v="Vuolimus Báktejávri" />
		<tag k="natural" v="water" />
		<tag k="ssr:stedsnr" v="349061" />
	</node>
	<node lat="69.104702782653" lon="23.140611027731545" id="-57044">
		<tag k="name" v="Ovllámanjohka" />
		<tag k="name:se" v="Ovllámanjohka" />
		<tag k="ssr:stedsnr" v="349456" />
		<tag k="waterway" v="stream" />
	</node>
	<node lat="69.08072777800936" lon="23.212644341815764" id="-57045">
		<tag k="name" v="Buhtatsuolu" />
		<tag k="name:se" v="Buhtatsuolu" />
		<tag k="place" v="islet" />
		<tag k="ssr:stedsnr" v="349462" />
	</node>
	<node lat="68.6661916711632" lon="23.291113780108272" id="-57047">
		<tag k="name" v="Lulliluokta" />
		<tag k="name:se" v="Lulliluokta" />
		<tag k="natural" v="bay" />
		<tag k="ssr:stedsnr" v="349356" />
	</node>
	<node lat="68.69007500602928" lon="23.284061010246607" id="-57048">
		<tag k="name" v="Geađgegurraoivvoš" />
		<tag k="name:se" v="Geađgegurraoivvoš" />
		<tag k="natural" v="bay" />
		<tag k="ssr:stedsnr" v="349360" />
	</node>
	<node lat="68.93825277863287" lon="23.07988323537975" id="-57049">
		<tag k="name" v="Migášjohkanjálbmi" />
		<tag k="name:se" v="Migášjohkanjálbmi" />
		<tag k="natural" v="bay" />
		<tag k="ssr:stedsnr" v="350202" />
	</node>
	<node lat="69.04321111793628" lon="22.9116165858433" id="-57052">
		<tag k="name" v="Johkamohkki" />
		<tag k="name:se" v="Johkamohkki" />
		<tag k="natural" v="bay" />
		<tag k="ssr:stedsnr" v="350167" />
	</node>
	<node lat="68.77213611706746" lon="23.314319339247717" id="-57053">
		<tag k="name" v="Eammejohka" />
		<tag k="name:se" v="Eammejohka" />
		<tag k="ssr:stedsnr" v="350412" />
		<tag k="waterway" v="stream" />
	</node>
	<node lat="68.76373889438976" lon="23.48783875752731" id="-57058">
		<tag k="name" v="Máđiijávrrit" />
		<tag k="name:se" v="Máđiijávrrit" />
		<tag k="natural" v="water" />
		<tag k="old_name:se" v="Mađiijavrit" />
		<tag k="ssr:stedsnr" v="359250" />
		<tag k="water" v="lake" />
	</node>
	<node lat="68.72497778219989" lon="23.169797119579954" id="-57059">
		<tag k="name" v="Skilggašjávri" />
		<tag k="name:se" v="Skilggašjávri" />
		<tag k="natural" v="water" />
		<tag k="old_name:se" v="Skilgašjavri" />
		<tag k="ssr:stedsnr" v="381060" />
		<tag k="water" v="lake" />
	</node>
	<node lat="69.012113891936" lon="23.190377687217694" id="-57062">
		<tag k="name" v="Rávdofielbmá" />
		<tag k="name:se" v="Rávdofielbmá" />
		<tag k="old_name:se" v="Ravdufielbma" />
		<tag k="ssr:stedsnr" v="381511" />
		<tag k="waterway" v="stream" />
	</node>
	<node lat="69.17300000500775" lon="23.052266588030545" id="-57063">
		<tag k="name" v="Juzejávrrit" />
		<tag k="name:se" v="Juzejávrrit" />
		<tag k="natural" v="water" />
		<tag k="old_name:se" v="Juzejavrit" />
		<tag k="ssr:stedsnr" v="381708" />
		<tag k="water" v="lake" />
	</node>
	<node lat="68.83835528776383" lon="25.23944831916182" id="-57064">
		<tag k="name" v="Dulesguhkkár" />
		<tag k="name:se" v="Dulesguhkkár" />
		<tag k="old_name:se" v="Dulesgukkar" />
		<tag k="place" v="locality" />
		<tag k="ssr:stedsnr" v="381724" />
	</node>
	<node lat="69.24551389354515" lon="23.20656657333509" id="-57065">
		<tag k="name" v="Njáhkájávri" />
		<tag k="name:se" v="Njáhkájávri" />
		<tag k="natural" v="water" />
		<tag k="old_name:se" v="Njakkajavri" />
		<tag k="ssr:stedsnr" v="381672" />
		<tag k="water" v="lake" />
	</node>
	<node lat="68.86299166953792" lon="23.770191528803938" id="-57067">
		<tag k="name" v="Áhkkanasgierratjávrrit" />
		<tag k="name:se" v="Áhkkanasgierratjávrrit" />
		<tag k="natural" v="water" />
		<tag k="old_name:se" v="Akkanasgierratjavrit;Ahkkanasgierratjávrrit" />
		<tag k="ssr:stedsnr" v="381811" />
		<tag k="water" v="lake" />
	</node>
	<node lat="68.84371667279278" lon="24.585624792936148" id="-57069">
		<tag k="name" v="Ákšoláhpponskáidi" />
		<tag k="name:se" v="Ákšoláhpponskáidi" />
		<tag k="natural" v="cape" />
		<tag k="old_name:se" v="Akšulappunskaidi" />
		<tag k="ssr:stedsnr" v="381862" />
	</node>
	<node lat="68.88451667218871" lon="23.455355452458278" id="-57071">
		<tag k="name" v="Bahárávdojohka" />
		<tag k="name:se" v="Bahárávdojohka" />
		<tag k="old_name:se" v="Baharavdujåkka" />
		<tag k="ssr:stedsnr" v="381973" />
		<tag k="waterway" v="stream" />
	</node>
	<node lat="68.89165278034828" lon="23.50099988273024" id="-57072">
		<tag k="name" v="Máđiijávri" />
		<tag k="name:se" v="Máđiijávri" />
		<tag k="natural" v="water" />
		<tag k="old_name:se" v="Mađiijavri" />
		<tag k="ssr:stedsnr" v="381976" />
		<tag k="water" v="lake" />
	</node>
	<node lat="68.7343944450397" lon="22.58924435806121" id="-57073">
		<tag k="name" v="Urdejávri" />
		<tag k="name:se" v="Urdejávri" />
		<tag k="natural" v="water" />
		<tag k="old_name:se" v="Urdejavri" />
		<tag k="ssr:stedsnr" v="382058" />
		<tag k="water" v="lake" />
	</node>
	<node lat="68.92431111663313" lon="22.33554159552419" id="-57074">
		<tag k="name" v="Muvrrešjávri" />
		<tag k="name:se" v="Muvrrešjávri" />
		<tag k="natural" v="water" />
		<tag k="old_name:se" v="Muvrešjavri" />
		<tag k="ssr:stedsnr" v="382064" />
		<tag k="water" v="lake" />
	</node>
	<node lat="68.91392778490572" lon="22.5500360415062" id="-57075">
		<tag k="name" v="Luhčajohka" />
		<tag k="name:se" v="Luhčajohka" />
		<tag k="old_name:se" v="Luččajåkka" />
		<tag k="ssr:stedsnr" v="382067" />
		<tag k="waterway" v="river" />
	</node>
	<node lat="69.64890833541892" lon="23.681505454353186" id="-57077">
		<tag k="name" v="Čuorvunjávri" />
		<tag k="name:se" v="Čuorvunjávri" />
		<tag k="natural" v="water" />
		<tag k="old_name:se" v="Čuorvonjavri" />
		<tag k="ssr:stedsnr" v="382604" />
	</node>
	<node lat="68.75236389861001" lon="24.79857755144299" id="-57079">
		<tag k="name" v="Basseskáidi" />
		<tag k="name:se" v="Basseskáidi" />
		<tag k="natural" v="cape" />
		<tag k="old_name:se" v="Basseskaidi" />
		<tag k="ssr:stedsnr" v="382614" />
	</node>
	<node lat="69.1762166667282" lon="23.504983224660943" id="-57080">
		<tag k="name" v="Suttášluokta" />
		<tag k="name:se" v="Suttášluokta" />
		<tag k="natural" v="bay" />
		<tag k="old_name:se" v="Suddasluokta" />
		<tag k="ssr:stedsnr" v="382553" />
	</node>
	<node lat="69.5857138907173" lon="23.930224879806246" id="-57081">
		<tag k="name" v="Virdnejohka" />
		<tag k="name:se" v="Virdnejohka" />
		<tag k="old_name:se" v="Virdnejåkka" />
		<tag k="ssr:stedsnr" v="382554" />
		<tag k="waterway" v="stream" />
	</node>
	<node lat="69.4851583338878" lon="22.606133273606126" id="-57084">
		<tag k="name" v="Ráhpesluobbalat" />
		<tag k="name:se" v="Ráhpesluobbalat" />
		<tag k="natural" v="water" />
		<tag k="old_name:se" v="Rappesluobbalat" />
		<tag k="ssr:stedsnr" v="382755" />
	</node>
	<node lat="68.92861111519774" lon="24.37520815311097" id="-57085">
		<tag k="name" v="Buolžajávri" />
		<tag k="name:se" v="Buolžajávri" />
		<tag k="natural" v="water" />
		<tag k="old_name:se" v="Buolžajavri" />
		<tag k="ssr:stedsnr" v="382756" />
		<tag k="water" v="lake" />
	</node>
	<node lat="69.32897777877305" lon="23.057113798022176" id="-57089">
		<tag k="name" v="Riehttejohka" />
		<tag k="name:se" v="Riehttejohka" />
		<tag k="old_name:se" v="Riettejåkka" />
		<tag k="ssr:stedsnr" v="382906" />
		<tag k="waterway" v="river" />
	</node>
	<node lat="69.52568611582063" lon="23.069638802751488" id="-57091">
		<tag k="name" v="Jovnnesjohka" />
		<tag k="name:se" v="Jovnnesjohka" />
		<tag k="old_name:se" v="Jåvnesjåkka" />
		<tag k="ssr:stedsnr" v="382654" />
		<tag k="waterway" v="stream" />
	</node>
	<node lat="69.3288194482578" lon="22.736733257545758" id="-57093">
		<tag k="name" v="Goddeskáidi" />
		<tag k="name:se" v="Goddeskáidi" />
		<tag k="natural" v="cape" />
		<tag k="old_name:se" v="Gåddeskaidi" />
		<tag k="ssr:stedsnr" v="382959" />
	</node>
	<node lat="69.12825278038632" lon="23.432369339087444" id="-57094">
		<tag k="name" v="Gárdejohka" />
		<tag k="name:se" v="Gárdejohka" />
		<tag k="old_name:se" v="Gardejåkka" />
		<tag k="ssr:stedsnr" v="382961" />
		<tag k="waterway" v="river" />
	</node>
	<node lat="69.16591667501709" lon="23.451202661126384" id="-57095">
		<tag k="name" v="Sáttaluoktavárpenjárga" />
		<tag k="name:se" v="Sáttaluoktavárpenjárga" />
		<tag k="natural" v="cape" />
		<tag k="ssr:stedsnr" v="389142" />
	</node>
	<node lat="69.03583611875703" lon="23.2327693402106" id="-57097">
		<tag k="name" v="Buollánsuolu" />
		<tag k="name:se" v="Buollánsuolu" />
		<tag k="place" v="islet" />
		<tag k="ssr:stedsnr" v="394021" />
	</node>
	<node lat="69.47778888971645" lon="23.72389987674133" id="-57098">
		<tag k="name" v="Govdasavvongáddi" />
		<tag k="name:se" v="Govdasavvongáddi" />
		<tag k="natural" v="beach" />
		<tag k="ssr:stedsnr" v="394382" />
	</node>
	<node lat="69.05176389385282" lon="23.17555545799955" id="-57100">
		<tag k="name" v="Ráigeluoktaláddot" />
		<tag k="name:se" v="Ráigeluoktaláddot" />
		<tag k="natural" v="water" />
		<tag k="ssr:stedsnr" v="395578" />
	</node>
	<node lat="69.04450278285415" lon="23.107227690654174" id="-57101">
		<tag k="name" v="Govdavuohppi" />
		<tag k="name:se" v="Govdavuohppi" />
		<tag k="natural" v="bay" />
		<tag k="ssr:stedsnr" v="395906" />
	</node>
	<node lat="68.92205000506715" lon="22.880416582037405" id="-57103">
		<tag k="name" v="Viercanjávri" />
		<tag k="name:se" v="Viercanjávri" />
		<tag k="natural" v="water" />
		<tag k="ssr:stedsnr" v="410017" />
		<tag k="water" v="lake" />
	</node>
	<node lat="68.68359722561138" lon="23.28670544198461" id="-57106">
		<tag k="name" v="Čoalmminjárga" />
		<tag k="name:se" v="Čoalmminjárga" />
		<tag k="natural" v="cape" />
		<tag k="ssr:stedsnr" v="410254" />
	</node>
	<node lat="68.88170833428791" lon="23.05314712945608" id="-57110">
		<tag k="name" v="Ođđaniitojávri" />
		<tag k="name:se" v="Ođđaniitojávri" />
		<tag k="natural" v="water" />
		<tag k="ssr:stedsnr" v="411161" />
	</node>
	<node lat="69.29663889050505" lon="23.58592488440506" id="-57113">
		<tag k="name" v="Ožisavvon" />
		<tag k="name:se" v="Ožisavvon" />
		<tag k="natural" v="water" />
		<tag k="ssr:stedsnr" v="411452" />
		<tag k="water" v="lake" />
	</node>
	<node lat="69.12778889382996" lon="23.28366379323909" id="-57115">
		<tag k="name" v="Mihko-Máhtenjárga" />
		<tag k="name:se" v="Mihko-Máhtenjárga" />
		<tag k="natural" v="cape" />
		<tag k="ssr:stedsnr" v="411544" />
	</node>
	<node lat="68.97266945017616" lon="22.998858239839986" id="-57117">
		<tag k="alt_name:se" v="Fanasjávri" />
		<tag k="name" v="Vanasjávri" />
		<tag k="name:se" v="Vanasjávri" />
		<tag k="natural" v="water" />
		<tag k="old_name:se" v="Vanasjavri" />
		<tag k="ssr:stedsnr" v="442005" />
		<tag k="water" v="lake" />
	</node>
	<node lat="68.95425000353664" lon="22.956727693293022" id="-57118">
		<tag k="name" v="Čáhppesluokta" />
		<tag k="name:se" v="Čáhppesluokta" />
		<tag k="natural" v="bay" />
		<tag k="old_name:se" v="Čappesluokta" />
		<tag k="ssr:stedsnr" v="442034" />
	</node>
	<node lat="68.93000555717764" lon="22.70129993180639" id="-57120">
		<tag k="name" v="Unna Skierrejávrráš" />
		<tag k="name:se" v="Unna Skierrejávrráš" />
		<tag k="natural" v="water" />
		<tag k="old_name:se" v="Skierrejavraš, unna" />
		<tag k="ssr:stedsnr" v="442092" />
	</node>
	<node lat="69.05689167225314" lon="23.092736013428826" id="-57123">
		<tag k="name" v="Fanasjarin" />
		<tag k="name:se" v="Fanasjarin" />
		<tag k="place" v="locality" />
		<tag k="ssr:stedsnr" v="442608" />
	</node>
	<node lat="69.05253888907396" lon="22.893949916423846" id="-57124">
		<tag k="name" v="Goaskinjávri" />
		<tag k="name:se" v="Goaskinjávri" />
		<tag k="natural" v="water" />
		<tag k="old_name:se" v="Goaskinjavri" />
		<tag k="ssr:stedsnr" v="442609" />
		<tag k="water" v="lake" />
	</node>
	<node lat="69.0738250075237" lon="23.050627683877316" id="-57127">
		<tag k="name" v="Beatnatluoppal" />
		<tag k="name:se" v="Beatnatluoppal" />
		<tag k="natural" v="water" />
		<tag k="old_name:se" v="Bædnatluobbal" />
		<tag k="ssr:stedsnr" v="442592" />
	</node>
	<node lat="69.09900000200558" lon="22.828116583226706" id="-57129">
		<tag k="name" v="Oaivvošfávli" />
		<tag k="name:se" v="Oaivvošfávli" />
		<tag k="natural" v="water" />
		<tag k="old_name:se" v="Oaivušfavli" />
		<tag k="ssr:stedsnr" v="442788" />
	</node>
	<node lat="69.16161389589936" lon="23.341302667592608" id="-57130">
		<tag k="name" v="Ájajávri" />
		<tag k="name:se" v="Ájajávri" />
		<tag k="natural" v="water" />
		<tag k="old_name:se" v="Ajajavri" />
		<tag k="ssr:stedsnr" v="442693" />
	</node>
	<node lat="68.8605277807911" lon="23.652410974378796" id="-57132">
		<tag k="name" v="Biedjojohka" />
		<tag k="name:se" v="Biedjojohka" />
		<tag k="old_name:se" v="Bjeddjujåkka" />
		<tag k="ssr:stedsnr" v="442804" />
		<tag k="waterway" v="river" />
	</node>
	<node lat="68.84108333714659" lon="22.87093879483827" id="-57135">
		<tag k="name" v="Sáijávri" />
		<tag k="name:se" v="Sáijávri" />
		<tag k="natural" v="water" />
		<tag k="old_name:se" v="Saijavri" />
		<tag k="ssr:stedsnr" v="442935" />
	</node>
	<node lat="68.93911666819541" lon="23.55014986572413" id="-57138">
		<tag k="name" v="Lávvoráhppátjohka" />
		<tag k="name:se" v="Lávvoráhppátjohka" />
		<tag k="old_name:se" v="Lavvurappatjåkka" />
		<tag k="ssr:stedsnr" v="442990" />
		<tag k="waterway" v="river" />
	</node>
	<node lat="68.94566666828172" lon="23.446749882775887" id="-57140">
		<tag k="name" v="Bánnešjohka" />
		<tag k="name:se" v="Bánnešjohka" />
		<tag k="old_name:se" v="Bannešjåkka" />
		<tag k="ssr:stedsnr" v="442993" />
		<tag k="waterway" v="river" />
	</node>
	<node lat="68.89383333527307" lon="22.333524943401464" id="-57142">
		<tag k="name" v="Oadjejohka" />
		<tag k="name:se" v="Oadjejohka" />
		<tag k="old_name:se" v="Oaddjejåkka" />
		<tag k="ssr:stedsnr" v="443085" />
		<tag k="waterway" v="stream" />
	</node>
	<node lat="69.53387778057636" lon="23.700141551293935" id="-57144">
		<tag k="name" v="Stuorasuolu" />
		<tag k="name:se" v="Stuorasuolu" />
		<tag k="old_name:se" v="Stuorasuolo" />
		<tag k="place" v="islet" />
		<tag k="ssr:stedsnr" v="443531" />
	</node>
	<node lat="69.33666944757677" lon="23.4645471107566" id="-57146">
		<tag k="name" v="Biggejávri" />
		<tag k="name:se" v="Biggejávri" />
		<tag k="natural" v="water" />
		<tag k="old_name:se" v="Biggejavri" />
		<tag k="ssr:stedsnr" v="443486" />
		<tag k="water" v="lake" />
	</node>
	<node lat="68.81852500436972" lon="23.351930444397514" id="-57155">
		<tag k="name" v="Guolehis Suolojávri" />
		<tag k="name:se" v="Guolehis Suolojávri" />
		<tag k="natural" v="water" />
		<tag k="old_name:se" v="Suolujavri, guolehis" />
		<tag k="ssr:stedsnr" v="443903" />
		<tag k="water" v="lake" />
	</node>
	<node lat="69.26847500111165" lon="22.845958251927303" id="-57156">
		<tag k="name" v="Sorvošskáidi" />
		<tag k="name:se" v="Sorvošskáidi" />
		<tag k="natural" v="cape" />
		<tag k="old_name:se" v="Sårvušskaidi" />
		<tag k="ssr:stedsnr" v="443908" />
	</node>
	<node lat="69.49767500583461" lon="23.767874885519518" id="-57157">
		<tag k="name" v="Valljejohka" />
		<tag k="name:se" v="Valljejohka" />
		<tag k="old_name:se" v="Valljejåkka" />
		<tag k="ssr:stedsnr" v="443917" />
		<tag k="waterway" v="stream" />
	</node>
	<node lat="68.87554722630334" lon="22.917016583508595" id="-57158">
		<tag k="name" v="Eapperjávri" />
		<tag k="name:se" v="Eapperjávri" />
		<tag k="natural" v="water" />
		<tag k="old_name:se" v="Æbberjavri" />
		<tag k="ssr:stedsnr" v="443926" />
	</node>
	<node lat="69.43762500223625" lon="23.247591578206407" id="-57161">
		<tag k="name" v="Ihtinjohka" />
		<tag k="name:se" v="Ihtinjohka" />
		<tag k="old_name:se" v="Ittinjåkka" />
		<tag k="ssr:stedsnr" v="444990" />
		<tag k="waterway" v="stream" />
	</node>
	<node lat="69.16412500028605" lon="23.440791560889892" id="-57162">
		<tag k="name" v="Heargenjárga" />
		<tag k="name:se" v="Heargenjárga" />
		<tag k="natural" v="cape" />
		<tag k="ssr:stedsnr" v="450113" />
	</node>
	<node lat="69.00436389715377" lon="23.234038784031746" id="-57164">
		<tag k="name" v="Máđiiluokta" />
		<tag k="name:se" v="Máđiiluokta" />
		<tag k="natural" v="bay" />
		<tag k="ssr:stedsnr" v="456105" />
	</node>
	<node lat="69.01325000136207" lon="23.228366563730074" id="-57166">
		<tag k="name" v="Vuorašmuotki" />
		<tag k="name:se" v="Vuorašmuotki" />
		<tag k="place" v="locality" />
		<tag k="ssr:stedsnr" v="456405" />
	</node>
	<node lat="68.9478361164457" lon="22.94440268941876" id="-57171">
		<tag k="name" v="Ahkitjohkanjálbmi" />
		<tag k="name:se" v="Ahkitjohkanjálbmi" />
		<tag k="natural" v="bay" />
		<tag k="ssr:stedsnr" v="471061" />
	</node>
	<node lat="69.1372083350676" lon="23.350358230958395" id="-57175">
		<tag k="name" v="Vuolgamašnjárggavárpi" />
		<tag k="name:se" v="Vuolgamašnjárggavárpi" />
		<tag k="natural" v="water" />
		<tag k="ssr:stedsnr" v="471569" />
		<tag k="water" v="lake" />
	</node>
	<node lat="69.17299722528153" lon="23.545980447598826" id="-57178">
		<tag k="name" v="Buollánjohka" />
		<tag k="name:se" v="Buollánjohka" />
		<tag k="ssr:stedsnr" v="471709" />
		<tag k="waterway" v="stream" />
	</node>
	<node lat="69.29302778189653" lon="23.578316558822223" id="-57179">
		<tag k="name" v="Hoigadanskáidi" />
		<tag k="name:se" v="Hoigadanskáidi" />
		<tag k="natural" v="cape" />
		<tag k="ssr:stedsnr" v="471982" />
	</node>
	<node lat="68.9509444438986" lon="23.044061017907623" id="-57183">
		<tag k="name" v="Geatkeskáidi" />
		<tag k="name:se" v="Geatkeskáidi" />
		<tag k="natural" v="cape" />
		<tag k="old_name:se" v="Gætkeskaidi" />
		<tag k="ssr:stedsnr" v="503022" />
	</node>
	<node lat="68.96076666970022" lon="22.97405546590715" id="-57184">
		<tag k="name" v="Gávdonjárggat" />
		<tag k="name:se" v="Gávdonjárggat" />
		<tag k="natural" v="cape" />
		<tag k="old_name:se" v="Gavdunjargat" />
		<tag k="ssr:stedsnr" v="503025" />
	</node>
	<node lat="68.94023889217782" lon="22.608183267199866" id="-57185">
		<tag k="name" v="Gomahatjávri" />
		<tag k="name:se" v="Gomahatjávri" />
		<tag k="natural" v="water" />
		<tag k="old_name:se" v="Gåmahatjavri;Gamahatjávri" />
		<tag k="ssr:stedsnr" v="503074" />
		<tag k="water" v="lake" />
	</node>
	<node lat="68.87764167053844" lon="22.444366604868613" id="-57186">
		<tag k="name" v="Goahteluoppal" />
		<tag k="name:se" v="Goahteluoppal" />
		<tag k="natural" v="water" />
		<tag k="old_name:se" v="Goatteluobbal" />
		<tag k="ssr:stedsnr" v="503078" />
		<tag k="water" v="lake" />
	</node>
	<node lat="68.88596667346073" lon="22.496349923854414" id="-57187">
		<tag k="name" v="Moskolatjávri" />
		<tag k="name:se" v="Moskolatjávri" />
		<tag k="natural" v="water" />
		<tag k="old_name:se" v="Måskulatjavri" />
		<tag k="ssr:stedsnr" v="503079" />
	</node>
	<node lat="68.90590000349283" lon="22.783524929649065" id="-57188">
		<tag k="name" v="Báktejávri" />
		<tag k="name:se" v="Báktejávri" />
		<tag k="natural" v="water" />
		<tag k="old_name:se" v="Baktejavri" />
		<tag k="ssr:stedsnr" v="503085" />
	</node>
	<node lat="69.5323305604582" lon="23.49299157584041" id="-57191">
		<tag k="name" v="Gožžaláttu" />
		<tag k="name:se" v="Gožžaláttu" />
		<tag k="natural" v="water" />
		<tag k="old_name:se" v="Gåžžaladdo" />
		<tag k="ssr:stedsnr" v="503503" />
	</node>
	<node lat="69.52729444542803" lon="23.460311015359853" id="-57192">
		<tag k="name" v="Jávrrehuš" />
		<tag k="name:se" v="Jávrrehuš" />
		<tag k="natural" v="water" />
		<tag k="old_name:se" v="Javrehuš" />
		<tag k="ssr:stedsnr" v="503507" />
		<tag k="water" v="lake" />
	</node>
	<node lat="69.21783056458138" lon="23.859566537433956" id="-57194">
		<tag k="name" v="Geađgejávri" />
		<tag k="name:se" v="Geađgejávri" />
		<tag k="natural" v="water" />
		<tag k="old_name:se" v="Gæđgejavri" />
		<tag k="ssr:stedsnr" v="503510" />
		<tag k="water" v="lake" />
	</node>
	<node lat="68.90457500639012" lon="24.67734979045465" id="-57195">
		<tag k="name" v="Čuovžajávri" />
		<tag k="name:se" v="Čuovžajávri" />
		<tag k="natural" v="water" />
		<tag k="old_name:se" v="Čuovžajavri" />
		<tag k="ssr:stedsnr" v="503220" />
		<tag k="water" v="lake" />
	</node>
	<node lat="68.84654445599469" lon="24.18886649057037" id="-57196">
		<tag k="name" v="Čoarvejávri" />
		<tag k="name:se" v="Čoarvejávri" />
		<tag k="natural" v="water" />
		<tag k="old_name:se" v="Čoarvejavri" />
		<tag k="ssr:stedsnr" v="503221" />
		<tag k="water" v="lake" />
	</node>
	<node lat="69.42320277845724" lon="23.52198598907829" id="-57198">
		<tag k="name" v="Njáhkájohka" />
		<tag k="name:se" v="Njáhkájohka" />
		<tag k="old_name:se" v="Njakkajåkka" />
		<tag k="ssr:stedsnr" v="503408" />
		<tag k="waterway" v="river" />
	</node>
	<node lat="69.02570555801971" lon="23.092691566636955" id="-57204">
		<tag k="name" v="Ándarjohka" />
		<tag k="name:se" v="Ándarjohka" />
		<tag k="ssr:stedsnr" v="503470" />
		<tag k="waterway" v="stream" />
	</node>
	<node lat="68.93057778858207" lon="24.8103414290141" id="-57206">
		<tag k="name" v="Reatkaskáidi" />
		<tag k="name:se" v="Reatkaskáidi" />
		<tag k="natural" v="cape" />
		<tag k="old_name:se" v="Rætkaskaidi" />
		<tag k="ssr:stedsnr" v="503805" />
	</node>
	<node lat="68.7953138969629" lon="23.443263762501314" id="-57212">
		<tag k="name" v="Buoiddesjávri" />
		<tag k="name:se" v="Buoiddesjávri" />
		<tag k="natural" v="water" />
		<tag k="old_name:se" v="Buoidesjavri;Buoidesjávri" />
		<tag k="ssr:stedsnr" v="503707" />
		<tag k="water" v="lake" />
	</node>
	<node lat="68.77818333609486" lon="23.44377766137278" id="-57213">
		<tag k="name" v="Čáhppesjohka" />
		<tag k="name:se" v="Čáhppesjohka" />
		<tag k="old_name:se" v="Čappesjåkka" />
		<tag k="ssr:stedsnr" v="503720" />
		<tag k="waterway" v="stream" />
	</node>
	<node lat="69.08230278349787" lon="23.52775543235855" id="-57216">
		<tag k="name" v="Searradasjávri" />
		<tag k="name:se" v="Searradasjávri" />
		<tag k="natural" v="water" />
		<tag k="old_name:se" v="Særradasjavri" />
		<tag k="ssr:stedsnr" v="503907" />
		<tag k="water" v="lake" />
	</node>
	<node lat="69.230302778913" lon="22.581624937823943" id="-57219">
		<tag k="name" v="Guorbajávri" />
		<tag k="name:se" v="Guorbajávri" />
		<tag k="natural" v="water" />
		<tag k="old_name:se" v="Guorbajavri" />
		<tag k="ssr:stedsnr" v="504219" />
		<tag k="water" v="lake" />
	</node>
	<node lat="69.32666944547476" lon="23.96055819695059" id="-57220">
		<tag k="name" v="Doaresjohka" />
		<tag k="name:se" v="Doaresjohka" />
		<tag k="old_name:se" v="Doaresjåkka" />
		<tag k="ssr:stedsnr" v="504476" />
		<tag k="waterway" v="stream" />
	</node>
	<node lat="69.57531111306274" lon="23.852624870564647" id="-57222">
		<tag k="name" v="Njárgajávri" />
		<tag k="name:se" v="Njárgajávri" />
		<tag k="natural" v="water" />
		<tag k="old_name:se" v="Njargajavri" />
		<tag k="ssr:stedsnr" v="504573" />
	</node>
	<node lat="69.6508249997543" lon="23.225588799190394" id="-57224">
		<tag k="name" v="Roaŋkejávri" />
		<tag k="name:se" v="Roaŋkejávri" />
		<tag k="natural" v="water" />
		<tag k="old_name:se" v="Roaŋkejavri" />
		<tag k="ssr:stedsnr" v="504773" />
	</node>
	<node lat="69.08242500981024" lon="24.137991507355537" id="-57226">
		<tag k="name" v="Njárgajávri" />
		<tag k="name:se" v="Njárgajávri" />
		<tag k="natural" v="water" />
		<tag k="old_name:se" v="Njargajavri;Njargajávri" />
		<tag k="ssr:stedsnr" v="504905" />
		<tag k="water" v="lake" />
	</node>
	<node lat="69.15480555631108" lon="23.54850821981728" id="-57228">
		<tag k="name" v="Stáhkkájávri" />
		<tag k="name:se" v="Stáhkkájávri" />
		<tag k="natural" v="water" />
		<tag k="old_name:se" v="Stakkajavri" />
		<tag k="ssr:stedsnr" v="504970" />
	</node>
	<node lat="69.17875833728357" lon="24.456958151193838" id="-57229">
		<tag k="name" v="Máđiijohka" />
		<tag k="name:se" v="Máđiijohka" />
		<tag k="old_name:se" v="Mađiijåkka" />
		<tag k="ssr:stedsnr" v="504978" />
		<tag k="waterway" v="stream" />
	</node>
	<node lat="69.29457500203063" lon="23.87471930449576" id="-57231">
		<tag k="name" v="Ceatnojávrrit" />
		<tag k="name:se" v="Ceatnojávrrit" />
		<tag k="natural" v="water" />
		<tag k="old_name:se" v="Cædnujavrit" />
		<tag k="ssr:stedsnr" v="507471" />
		<tag k="water" v="lake" />
	</node>
	<node lat="69.45693333654076" lon="23.697180449245607" id="-57233">
		<tag k="name" v="Ruogosáiva" />
		<tag k="name:se" v="Ruogosáiva" />
		<tag k="natural" v="water" />
		<tag k="ssr:stedsnr" v="516279" />
	</node>
	<node lat="68.90511944630549" lon="23.175952668099335" id="-57234">
		<tag k="name" v="Beazášjávri" />
		<tag k="name:se" v="Beazášjávri" />
		<tag k="natural" v="water" />
		<tag k="ssr:stedsnr" v="516305" />
	</node>
	<node lat="68.88091945157873" lon="23.233466569173206" id="-57235">
		<tag k="name" v="Vuoskkoluoppal" />
		<tag k="name:se" v="Vuoskkoluoppal" />
		<tag k="natural" v="water" />
		<tag k="ssr:stedsnr" v="516308" />
	</node>
	<node lat="69.00880556119304" lon="23.055713804982748" id="-57236">
		<tag k="name" v="Boarronjárga" />
		<tag k="name:se" v="Boarronjárga" />
		<tag k="natural" v="cape" />
		<tag k="ssr:stedsnr" v="516505" />
	</node>
	<node lat="69.00473055699243" lon="23.05207769414898" id="-57239">
		<tag k="name" v="Gáidnomanjohka" />
		<tag k="name:se" v="Gáidnomanjohka" />
		<tag k="ssr:stedsnr" v="516514" />
		<tag k="waterway" v="stream" />
	</node>
	<node lat="69.04261389628299" lon="23.112516576284378" id="-57242">
		<tag k="name" v="Buollánnjárga" />
		<tag k="name:se" v="Buollánnjárga" />
		<tag k="natural" v="cape" />
		<tag k="ssr:stedsnr" v="516905" />
	</node>
	<node lat="68.74654445286724" lon="23.686444313466588" id="-57244">
		<tag k="name" v="Bajášjávri" />
		<tag k="name:se" v="Bajášjávri" />
		<tag k="natural" v="water" />
		<tag k="old_name:se" v="Bajašjavri" />
		<tag k="ssr:stedsnr" v="685028" />
		<tag k="water" v="lake" />
	</node>
	<node lat="68.830455559645" lon="22.513605475743457" id="-57247">
		<tag k="name" v="Bálggesjohka" />
		<tag k="name:se" v="Bálggesjohka" />
		<tag k="old_name:se" v="Balgesjåkka" />
		<tag k="ssr:stedsnr" v="685048" />
		<tag k="waterway" v="river" />
	</node>
	<node lat="68.73229444643347" lon="22.614255483396043" id="-57249">
		<tag k="name" v="Másealggejávri" />
		<tag k="name:se" v="Másealggejávri" />
		<tag k="natural" v="water" />
		<tag k="old_name:se" v="Masælgejavri" />
		<tag k="ssr:stedsnr" v="685060" />
		<tag k="water" v="lake" />
	</node>
	<node lat="68.64002501443831" lon="25.076474723756625" id="-57253">
		<tag k="name" v="Unnaskáidi" />
		<tag k="name:se" v="Unnaskáidi" />
		<tag k="natural" v="cape" />
		<tag k="old_name:se" v="Unnaskaidi" />
		<tag k="ssr:stedsnr" v="685221" />
	</node>
	<node lat="69.27906389363497" lon="23.460177673619402" id="-57255">
		<tag k="name" v="Fitnajohka" />
		<tag k="name:se" v="Fitnajohka" />
		<tag k="old_name:se" v="Fidnajåkka" />
		<tag k="ssr:stedsnr" v="685257" />
		<tag k="waterway" v="river" />
	</node>
	<node lat="69.44561388919132" lon="23.563124880357663" id="-57258">
		<tag k="name" v="Varitjávri" />
		<tag k="name:se" v="Varitjávri" />
		<tag k="natural" v="water" />
		<tag k="old_name:se" v="Varitjavri" />
		<tag k="ssr:stedsnr" v="685387" />
	</node>
	<node lat="69.02715000291683" lon="23.19567490136148" id="-57260">
		<tag k="name" v="Njukčajávri" />
		<tag k="name:se" v="Njukčajávri" />
		<tag k="natural" v="water" />
		<tag k="old_name:se" v="Njukčajavri" />
		<tag k="ssr:stedsnr" v="685498" />
		<tag k="water" v="lake" />
	</node>
	<node lat="69.02295833507974" lon="23.073672135917185" id="-57262">
		<tag k="name" v="Ájonjárga" />
		<tag k="name:se" v="Ájonjárga" />
		<tag k="natural" v="cape" />
		<tag k="ssr:stedsnr" v="685489" />
	</node>
	<node lat="69.1062361140845" lon="23.055691567682192" id="-57263">
		<tag k="name" v="Čoavjebohtosjávri" />
		<tag k="name:se" v="Čoavjebohtosjávri" />
		<tag k="natural" v="water" />
		<tag k="old_name:se" v="Čoavjebåttusjavri" />
		<tag k="ssr:stedsnr" v="685570" />
		<tag k="water" v="lake" />
	</node>
	<node lat="69.02165000697704" lon="23.14334158190471" id="-57265">
		<tag k="name" v="Stáhkkájohka" />
		<tag k="name:se" v="Stáhkkájohka" />
		<tag k="old_name:se" v="Stakkajåkka" />
		<tag k="ssr:stedsnr" v="685607" />
		<tag k="waterway" v="stream" />
	</node>
	<node lat="69.51451389230368" lon="23.61655267094013" id="-57269">
		<tag k="name" v="Guhkesjávri" />
		<tag k="name:se" v="Guhkesjávri" />
		<tag k="natural" v="water" />
		<tag k="old_name:se" v="Gukkesjavri" />
		<tag k="ssr:stedsnr" v="685533" />
		<tag k="water" v="lake" />
	</node>
	<node lat="69.03016667276715" lon="22.463138820848027" id="-57274">
		<tag k="name" v="Silesjávri" />
		<tag k="name:se" v="Silesjávri" />
		<tag k="natural" v="water" />
		<tag k="old_name:se" v="Silesjavri" />
		<tag k="ssr:stedsnr" v="685621" />
		<tag k="water" v="lake" />
	</node>
	<node lat="69.21977778455873" lon="23.259458236093046" id="-57276">
		<tag k="name" v="Spielgasáiva" />
		<tag k="name:se" v="Spielgasáiva" />
		<tag k="natural" v="water" />
		<tag k="old_name:se" v="Spielgasaiva" />
		<tag k="ssr:stedsnr" v="685630" />
		<tag k="water" v="lake" />
	</node>
	<node lat="69.24270833484603" lon="23.100277683468452" id="-57277">
		<tag k="name" v="Čuojásáiva" />
		<tag k="name:se" v="Čuojásáiva" />
		<tag k="natural" v="water" />
		<tag k="old_name:se" v="Čuojasaiva" />
		<tag k="ssr:stedsnr" v="685640" />
	</node>
	<node lat="69.15686388933328" lon="22.86360548388187" id="-57280">
		<tag k="name" v="Rávdojohka" />
		<tag k="name:se" v="Rávdojohka" />
		<tag k="old_name:se" v="Ravdujåkka" />
		<tag k="ssr:stedsnr" v="685663" />
		<tag k="waterway" v="stream" />
	</node>
	<node lat="69.16769444978381" lon="22.952330474718522" id="-57281">
		<tag k="name" v="Urttasjohka" />
		<tag k="name:se" v="Urttasjohka" />
		<tag k="old_name:se" v="Urtasjåkka" />
		<tag k="ssr:stedsnr" v="685666" />
		<tag k="waterway" v="stream" />
	</node>
	<node lat="68.9453638982723" lon="24.591699782989718" id="-57285">
		<tag k="name" v="Gietnjojávrrit" />
		<tag k="name:se" v="Gietnjojávrrit" />
		<tag k="natural" v="water" />
		<tag k="old_name:se" v="Giednjujavrit" />
		<tag k="ssr:stedsnr" v="685804" />
		<tag k="water" v="lake" />
	</node>
	<node lat="68.8212305652161" lon="24.376416467350023" id="-57292">
		<tag k="name" v="Dávttahanjohka" />
		<tag k="name:se" v="Dávttahanjohka" />
		<tag k="old_name:se" v="Davtahanjåkka" />
		<tag k="ssr:stedsnr" v="685812" />
		<tag k="waterway" v="river" />
	</node>
	<node lat="68.78537500546966" lon="24.367774799568032" id="-57293">
		<tag k="name" v="Bissojohka" />
		<tag k="name:se" v="Bissojohka" />
		<tag k="old_name:se" v="Bissujåkka" />
		<tag k="ssr:stedsnr" v="685821" />
		<tag k="waterway" v="river" />
	</node>
	<node lat="68.86800001311951" lon="24.566930344347604" id="-57294">
		<tag k="name" v="Čuovžaluoppal" />
		<tag k="name:se" v="Čuovžaluoppal" />
		<tag k="natural" v="water" />
		<tag k="old_name:se" v="Čuovžaluobbal" />
		<tag k="ssr:stedsnr" v="685823" />
		<tag k="water" v="lake" />
	</node>
	<node lat="68.82670000665118" lon="24.605474774912015" id="-57295">
		<tag k="name" v="Bávttajohka" />
		<tag k="name:se" v="Bávttajohka" />
		<tag k="old_name:se" v="Bavtajåkka" />
		<tag k="ssr:stedsnr" v="685835" />
		<tag k="waterway" v="river" />
	</node>
	<node lat="69.13521389155538" lon="23.738930420913434" id="-57297">
		<tag k="name" v="Čuonjájávrrit" />
		<tag k="name:se" v="Čuonjájávrrit" />
		<tag k="natural" v="water" />
		<tag k="old_name:se" v="Čuonjajavrit" />
		<tag k="ssr:stedsnr" v="685951" />
		<tag k="water" v="lake" />
	</node>
	<node lat="68.77250278553878" lon="22.89180546921291" id="-57299">
		<tag k="name" v="Boagánjávri" />
		<tag k="name:se" v="Boagánjávri" />
		<tag k="natural" v="water" />
		<tag k="old_name:se" v="Boaganjavri" />
		<tag k="ssr:stedsnr" v="685954" />
		<tag k="water" v="lake" />
	</node>
	<node lat="68.92373611598188" lon="22.88447768761977" id="-57300">
		<tag k="name" v="Rávdojarinnjárga" />
		<tag k="name:se" v="Rávdojarinnjárga" />
		<tag k="natural" v="cape" />
		<tag k="old_name:se" v="Ravdujarinnjarga" />
		<tag k="ssr:stedsnr" v="685898" />
	</node>
	<node lat="68.85979444948734" lon="23.178461010229515" id="-57301">
		<tag k="alt_name:se" v="Gearatjávri" />
		<tag k="name" v="Geargatjávri" />
		<tag k="name:se" v="Geargatjávri" />
		<tag k="natural" v="water" />
		<tag k="old_name:se" v="Gærgatjavri" />
		<tag k="ssr:stedsnr" v="685921" />
	</node>
	<node lat="68.86642500696257" lon="22.971077694928642" id="-57302">
		<tag k="name" v="Rohtojohka" />
		<tag k="name:se" v="Rohtojohka" />
		<tag k="old_name:se" v="Råttujåkka" />
		<tag k="ssr:stedsnr" v="685928" />
		<tag k="waterway" v="stream" />
	</node>
	<node lat="68.77589722573748" lon="23.312316559992546" id="-57307">
		<tag k="fixme" v="multiple name tags, choose one and add the other to alt_name" />
		<tag k="name" v="Eammejávri;Njuikunjávri" />
		<tag k="name:se" v="Eammejávri;Njuikunjávri" />
		<tag k="natural" v="water" />
		<tag k="old_name:se" v="Njuikonjavri" />
		<tag k="ssr:stedsnr" v="685959" />
		<tag k="water" v="lake" />
	</node>
	<node lat="68.79168889423667" lon="23.105822136457927" id="-57308">
		<tag k="name" v="Durkkihanjávri" />
		<tag k="name:se" v="Durkkihanjávri" />
		<tag k="natural" v="water" />
		<tag k="old_name:se" v="Durkihanjavri" />
		<tag k="ssr:stedsnr" v="685961" />
		<tag k="water" v="lake" />
	</node>
	<node lat="68.91701111717302" lon="23.433377670312645" id="-57311">
		<tag k="name" v="Bulkeluoppal" />
		<tag k="name:se" v="Bulkeluoppal" />
		<tag k="natural" v="water" />
		<tag k="old_name:se" v="Bulkeluobbal" />
		<tag k="ssr:stedsnr" v="685983" />
	</node>
	<node lat="68.92247778367903" lon="23.515077656581127" id="-57312">
		<tag k="name" v="Opmojohka" />
		<tag k="name:se" v="Opmojohka" />
		<tag k="old_name:se" v="Åbmujåkka" />
		<tag k="ssr:stedsnr" v="685985" />
		<tag k="waterway" v="stream" />
	</node>
	<node lat="69.28743333436161" lon="23.679130428133302" id="-57314">
		<tag k="name" v="Heaikkajávri" />
		<tag k="name:se" v="Heaikkajávri" />
		<tag k="natural" v="water" />
		<tag k="old_name:se" v="Hæikajavri" />
		<tag k="ssr:stedsnr" v="686250" />
	</node>
	<node lat="69.2878750053255" lon="23.80302488144522" id="-57315">
		<tag k="name" v="Unnasuolu" />
		<tag k="name:se" v="Unnasuolu" />
		<tag k="old_name:se" v="Unnasuolo" />
		<tag k="place" v="islet" />
		<tag k="ssr:stedsnr" v="686251" />
	</node>
	<node lat="69.06049445145179" lon="23.194572134825833" id="-57317">
		<tag k="name" v="Gurranjárga" />
		<tag k="name:se" v="Gurranjárga" />
		<tag k="natural" v="cape" />
		<tag k="ssr:stedsnr" v="531428" />
	</node>
	<node lat="69.1013944453143" lon="23.252708224790823" id="-57319">
		<tag k="name" v="Skuvlavuohppi" />
		<tag k="name:se" v="Skuvlavuohppi" />
		<tag k="natural" v="bay" />
		<tag k="ssr:stedsnr" v="531341" />
	</node>
	<node lat="69.33548334277553" lon="24.194797068508997" id="-57320">
		<tag k="alt_name:se" v="Liehpetjohka" />
		<tag k="name" v="Liebetjohka" />
		<tag k="name:se" v="Liebetjohka" />
		<tag k="old_name:se" v="Liebetjåkka" />
		<tag k="ssr:stedsnr" v="686315" />
		<tag k="waterway" v="river" />
	</node>
	<node lat="69.09135556104917" lon="22.845941591953345" id="-57324">
		<tag k="name" v="Ráigeluovttanjárga" />
		<tag k="name:se" v="Ráigeluovttanjárga" />
		<tag k="natural" v="cape" />
		<tag k="ssr:stedsnr" v="532084" />
	</node>
	<node lat="68.72101667422166" lon="23.290116556808137" id="-57326">
		<tag k="name" v="Geađgejohka" />
		<tag k="name:se" v="Geađgejohka" />
		<tag k="ssr:stedsnr" v="532225" />
		<tag k="waterway" v="stream" />
	</node>
	<node lat="69.36494167462372" lon="24.033405424789912" id="-57329">
		<tag k="name" v="Čoalbmi" />
		<tag k="name:se" v="Čoalbmi" />
		<tag k="natural" v="strait" />
		<tag k="ssr:stedsnr" v="532408" />
	</node>
	<node lat="68.73378611624642" lon="23.330880456402564" id="-57330">
		<tag k="name" v="Eliasajávri" />
		<tag k="name:se" v="Eliasajávri" />
		<tag k="natural" v="water" />
		<tag k="ssr:stedsnr" v="532425" />
	</node>
	<node lat="68.68446667322553" lon="23.309980446706568" id="-57331">
		<tag k="name" v="Čoalmmenjárga" />
		<tag k="name:se" v="Čoalmmenjárga" />
		<tag k="natural" v="cape" />
		<tag k="ssr:stedsnr" v="532474" />
	</node>
	<node lat="69.12406944701623" lon="23.33928323676592" id="-57332">
		<tag k="name" v="Vuolgamašskáidi" />
		<tag k="name:se" v="Vuolgamašskáidi" />
		<tag k="natural" v="cape" />
		<tag k="ssr:stedsnr" v="532602" />
	</node>
	<node lat="69.13230278142738" lon="23.325691568374285" id="-57333">
		<tag k="name" v="Roavotjoganjálbmi" />
		<tag k="name:se" v="Roavotjoganjálbmi" />
		<tag k="natural" v="bay" />
		<tag k="ssr:stedsnr" v="532606" />
	</node>
	<node lat="69.18212222335367" lon="23.51611377854016" id="-57335">
		<tag k="name" v="Gumpejávri" />
		<tag k="name:se" v="Gumpejávri" />
		<tag k="natural" v="water" />
		<tag k="ssr:stedsnr" v="532720" />
	</node>
	<node lat="69.47930277787344" lon="23.819291547737677" id="-57336">
		<tag k="name" v="Gisttásllatjávri" />
		<tag k="name:se" v="Gisttásllatjávri" />
		<tag k="natural" v="water" />
		<tag k="old_name:se" v="Gistaslatjavri" />
		<tag k="ssr:stedsnr" v="686373" />
	</node>
	<node lat="69.43678055836499" lon="24.04171375567319" id="-57340">
		<tag k="name" v="Guotkoluoppal" />
		<tag k="name:se" v="Guotkoluoppal" />
		<tag k="natural" v="water" />
		<tag k="old_name:se" v="Guotkuluobbal" />
		<tag k="ssr:stedsnr" v="686264" />
	</node>
	<node lat="69.45871111414944" lon="23.942299877763336" id="-57343">
		<tag k="name" v="Ellešsuolojávri" />
		<tag k="name:se" v="Ellešsuolojávri" />
		<tag k="natural" v="water" />
		<tag k="old_name:se" v="Ellešsuolujavri" />
		<tag k="ssr:stedsnr" v="686414" />
	</node>
	<node lat="69.41611111444352" lon="23.62315266100147" id="-57344">
		<tag k="name" v="Mázenjárga" />
		<tag k="name:se" v="Mázenjárga" />
		<tag k="natural" v="cape" />
		<tag k="old_name:se" v="Mazenjarga" />
		<tag k="ssr:stedsnr" v="686428" />
	</node>
	<node lat="69.37309722980596" lon="23.516180436505536" id="-57345">
		<tag k="name" v="Luhposisjávri" />
		<tag k="name:se" v="Luhposisjávri" />
		<tag k="natural" v="water" />
		<tag k="old_name:se" v="Luppusisjavri" />
		<tag k="ssr:stedsnr" v="686465" />
	</node>
	<node lat="69.36705556292826" lon="23.49441378939223" id="-57346">
		<tag k="alt_name:se" v="Luoktajávri" />
		<tag k="name" v="Luoktejávri" />
		<tag k="name:se" v="Luoktejávri" />
		<tag k="natural" v="water" />
		<tag k="old_name:se" v="Luoktejavri" />
		<tag k="ssr:stedsnr" v="686471" />
	</node>
	<node lat="69.34391389480943" lon="23.464110995675064" id="-57347">
		<tag k="fixme" v="multiple name tags, choose one and add the other to alt_name" />
		<tag k="name" v="Biggejárnjárga;Davvegeašnjárga" />
		<tag k="name:se" v="Biggejárnjárga;Davvegeašnjárga" />
		<tag k="natural" v="cape" />
		<tag k="old_name:se" v="Davvegæšnjarga" />
		<tag k="ssr:stedsnr" v="686484" />
	</node>
	<node lat="69.18573334079476" lon="23.572958206676297" id="-57349">
		<tag k="name" v="Vuoskkojávri" />
		<tag k="name:se" v="Vuoskkojávri" />
		<tag k="natural" v="water" />
		<tag k="old_name:se" v="Vuoskujavri" />
		<tag k="ssr:stedsnr" v="686557" />
	</node>
	<node lat="69.19283889006658" lon="23.849660984509192" id="-57351">
		<tag k="name" v="Dimbbarjávri" />
		<tag k="name:se" v="Dimbbarjávri" />
		<tag k="natural" v="water" />
		<tag k="old_name:se" v="Dimbarjavri" />
		<tag k="ssr:stedsnr" v="686564" />
		<tag k="water" v="lake" />
	</node>
	<node lat="69.56180278047624" lon="23.78280265193041" id="-57352">
		<tag k="name" v="Mázeniillasajohka" />
		<tag k="name:se" v="Mázeniillasajohka" />
		<tag k="old_name:se" v="Mazeniilasajåkka" />
		<tag k="ssr:stedsnr" v="686566" />
		<tag k="waterway" v="stream" />
	</node>
	<node lat="69.17770000615626" lon="23.60388045011184" id="-57353">
		<tag k="name" v="Máđiijávri" />
		<tag k="name:se" v="Máđiijávri" />
		<tag k="natural" v="water" />
		<tag k="old_name:se" v="Mađiijavri" />
		<tag k="ssr:stedsnr" v="686567" />
	</node>
	<node lat="69.17457500508377" lon="23.830322085825436" id="-57354">
		<tag k="name" v="Roggejávri" />
		<tag k="name:se" v="Roggejávri" />
		<tag k="natural" v="water" />
		<tag k="old_name:se" v="Råggejavri" />
		<tag k="ssr:stedsnr" v="686568" />
		<tag k="water" v="lake" />
	</node>
	<node lat="69.54350278388863" lon="23.136524915322106" id="-57357">
		<tag k="name" v="Námmelatjohka" />
		<tag k="name:se" v="Námmelatjohka" />
		<tag k="old_name:se" v="Nammelatjåkka" />
		<tag k="ssr:stedsnr" v="686698" />
		<tag k="waterway" v="stream" />
	</node>
	<node lat="69.63028333245077" lon="23.05271102399746" id="-57359">
		<tag k="name" v="Biedjojávrrit" />
		<tag k="name:se" v="Biedjojávrrit" />
		<tag k="natural" v="water" />
		<tag k="old_name:se" v="Bieddjujavrit" />
		<tag k="ssr:stedsnr" v="686728" />
	</node>
	<node lat="69.64006111548655" lon="23.177469348800294" id="-57360">
		<tag k="name" v="Guolehisjohka" />
		<tag k="name:se" v="Guolehisjohka" />
		<tag k="old_name:se" v="Guoldehisjåkka" />
		<tag k="ssr:stedsnr" v="686735" />
		<tag k="waterway" v="stream" />
	</node>
	<node lat="69.10233611921387" lon="24.655963689550134" id="-57362">
		<tag k="name" v="Stoalpojohka" />
		<tag k="name:se" v="Stoalpojohka" />
		<tag k="old_name:se" v="Stoalpujåkka" />
		<tag k="ssr:stedsnr" v="686810" />
		<tag k="waterway" v="stream" />
	</node>
	<node lat="69.38483611777892" lon="22.844374929703488" id="-57364">
		<tag k="name" v="Sáđgejávri" />
		<tag k="name:se" v="Sáđgejávri" />
		<tag k="natural" v="water" />
		<tag k="old_name:se" v="Sađgejavri" />
		<tag k="ssr:stedsnr" v="686876" />
	</node>
	<node lat="69.25968889245775" lon="23.085197125397176" id="-57367">
		<tag k="name" v="Čuojájávri" />
		<tag k="name:se" v="Čuojájávri" />
		<tag k="natural" v="water" />
		<tag k="old_name:se" v="Čuojajavri;Čuoajavri" />
		<tag k="ssr:stedsnr" v="686920" />
		<tag k="water" v="lake" />
	</node>
	<node lat="69.48961388955217" lon="23.498622123038984" id="-57369">
		<tag k="name" v="Iŋggájohka" />
		<tag k="name:se" v="Iŋggájohka" />
		<tag k="old_name:se" v="Ingajåkka" />
		<tag k="ssr:stedsnr" v="686926" />
		<tag k="waterway" v="stream" />
	</node>
	<node lat="69.28780000204644" lon="22.685636044381937" id="-57373">
		<tag k="name" v="Njivloeatnu" />
		<tag k="name:se" v="Njivloeatnu" />
		<tag k="old_name:se" v="Njivluædno" />
		<tag k="ssr:stedsnr" v="686965" />
		<tag k="waterway" v="river" />
	</node>
	<node lat="69.14503611568732" lon="24.599041479154415" id="-57374">
		<tag k="name" v="Dierbmároavejávri" />
		<tag k="name:se" v="Dierbmároavejávri" />
		<tag k="natural" v="water" />
		<tag k="old_name:se" v="Dierbmaoavejavri" />
		<tag k="ssr:stedsnr" v="686977" />
	</node>
	<node lat="69.62495000036365" lon="23.696041541145537" id="-57378">
		<tag k="name" v="Gámmejávrrit" />
		<tag k="name:se" v="Gámmejávrrit" />
		<tag k="natural" v="water" />
		<tag k="old_name:se" v="Gammejavrit" />
		<tag k="ssr:stedsnr" v="689467" />
		<tag k="water" v="lake" />
	</node>
	<node lat="69.4668777799051" lon="23.97132486335458" id="-57379">
		<tag k="name" v="Iisajávrrit" />
		<tag k="name:se" v="Iisajávrrit" />
		<tag k="natural" v="water" />
		<tag k="old_name:se" v="Iisajavrit" />
		<tag k="ssr:stedsnr" v="564405" />
	</node>
	<node lat="69.43765555965638" lon="23.59789154438113" id="-57381">
		<tag k="name" v="Varitjohka" />
		<tag k="name:se" v="Varitjohka" />
		<tag k="old_name:se" v="Varitjåkka" />
		<tag k="ssr:stedsnr" v="564432" />
		<tag k="waterway" v="stream" />
	</node>
	<node lat="69.2953666711063" lon="23.87476375229589" id="-57383">
		<tag k="name" v="Lulit Ceatnojávri" />
		<tag k="name:se" v="Lulit Ceatnojávri" />
		<tag k="natural" v="water" />
		<tag k="old_name:se" v="Cædnujavrit, lulit" />
		<tag k="ssr:stedsnr" v="564510" />
		<tag k="water" v="lake" />
	</node>
	<node lat="69.57516944375394" lon="23.222202690960916" id="-57385">
		<tag k="name" v="Várdevákkejávri" />
		<tag k="name:se" v="Várdevákkejávri" />
		<tag k="natural" v="water" />
		<tag k="old_name:se" v="Vardevaggejavri" />
		<tag k="ssr:stedsnr" v="564705" />
	</node>
	<node lat="69.66434166858608" lon="23.799777661205415" id="-57386">
		<tag k="name" v="Virdnejároaivvuš" />
		<tag k="name:se" v="Virdnejároaivvuš" />
		<tag k="natural" v="bay" />
		<tag k="old_name:se" v="Virdnejaroaivoš" />
		<tag k="ssr:stedsnr" v="564606" />
	</node>
	<node lat="69.5175999996681" lon="22.92422771059758" id="-57388">
		<tag k="name" v="Biedjojohka" />
		<tag k="name:se" v="Biedjojohka" />
		<tag k="old_name:se" v="Bieddjujåkka" />
		<tag k="ssr:stedsnr" v="564672" />
		<tag k="waterway" v="stream" />
	</node>
	<node lat="69.53613055622763" lon="23.081841574041956" id="-57389">
		<tag k="name" v="Njukčajávri" />
		<tag k="name:se" v="Njukčajávri" />
		<tag k="natural" v="water" />
		<tag k="old_name:se" v="Njukčajavri" />
		<tag k="ssr:stedsnr" v="564673" />
	</node>
	<node lat="69.47298055689222" lon="22.694738814051373" id="-57391">
		<tag k="name" v="Jorbesjávri" />
		<tag k="name:se" v="Jorbesjávri" />
		<tag k="natural" v="water" />
		<tag k="old_name:se" v="Jårbesjavri" />
		<tag k="ssr:stedsnr" v="564767" />
		<tag k="water" v="lake" />
	</node>
	<node lat="69.47441666621735" lon="22.62099992341902" id="-57393">
		<tag k="name" v="Golmmačiegatjávri" />
		<tag k="name:se" v="Golmmačiegatjávri" />
		<tag k="natural" v="water" />
		<tag k="old_name:se" v="Gålmačiegatjavri" />
		<tag k="ssr:stedsnr" v="564770" />
	</node>
	<node lat="69.42033889216732" lon="22.356274933085462" id="-57395">
		<tag k="name" v="Mollejusgobejávri" />
		<tag k="name:se" v="Mollejusgobejávri" />
		<tag k="natural" v="water" />
		<tag k="old_name:se" v="Mållejusgåbejavri;Mollejosgobejávri" />
		<tag k="ssr:stedsnr" v="564776" />
		<tag k="water" v="lake" />
	</node>
	<node lat="68.78266111833204" lon="23.39808600872836" id="-57397">
		<tag k="name" v="Borašnjárga" />
		<tag k="name:se" v="Borašnjárga" />
		<tag k="natural" v="cape" />
		<tag k="old_name:se" v="Bårašnjarga" />
		<tag k="ssr:stedsnr" v="564968" />
	</node>
	<node lat="69.16951389390756" lon="24.125785952017612" id="-57401">
		<tag k="name" v="Stuora Galbajávri" />
		<tag k="name:se" v="Stuora Galbajávri" />
		<tag k="natural" v="water" />
		<tag k="old_name:se" v="Galbajavri, stuora" />
		<tag k="ssr:stedsnr" v="564981" />
		<tag k="water" v="lake" />
	</node>
	<node lat="69.15854166614668" lon="23.430361004724467" id="-57404">
		<tag k="name" v="Vuolitnjavvi" />
		<tag k="name:se" v="Vuolitnjavvi" />
		<tag k="ssr:stedsnr" v="693161" />
		<tag k="waterway" v="rapids" />
	</node>
	<node lat="69.4232611138378" lon="23.676794315197668" id="-57406">
		<tag k="name" v="Reahcceláttu" />
		<tag k="name:se" v="Reahcceláttu" />
		<tag k="natural" v="water" />
		<tag k="ssr:stedsnr" v="576344" />
	</node>
	<node lat="69.41289722962301" lon="23.68856100449202" id="-57407">
		<tag k="name" v="Stáhkkájohka" />
		<tag k="name:se" v="Stáhkkájohka" />
		<tag k="ssr:stedsnr" v="576357" />
		<tag k="waterway" v="stream" />
	</node>
	<node lat="68.99918889298964" lon="23.265802684495263" id="-57408">
		<tag k="name" v="Lulitmakkalattu" />
		<tag k="name:se" v="Lulitmakkalattu" />
		<tag k="natural" v="water" />
		<tag k="ssr:stedsnr" v="577105" />
	</node>
	<node lat="69.00071667493152" lon="23.22333600978593" id="-57410">
		<tag k="name" v="Lulimusmáđiiluoktasuolu" />
		<tag k="name:se" v="Lulimusmáđiiluoktasuolu" />
		<tag k="place" v="islet" />
		<tag k="ssr:stedsnr" v="577093" />
	</node>
	<node lat="68.87466111657967" lon="23.227563794530838" id="-57411">
		<tag k="name" v="Nealgejávri" />
		<tag k="name:se" v="Nealgejávri" />
		<tag k="natural" v="water" />
		<tag k="ssr:stedsnr" v="577292" />
	</node>
	<node lat="68.98907500627686" lon="23.056458252447218" id="-57422">
		<tag k="name" v="Gironjohka" />
		<tag k="name:se" v="Gironjohka" />
		<tag k="ssr:stedsnr" v="577954" />
		<tag k="waterway" v="stream" />
	</node>
	<node lat="68.69595278564945" lon="23.264155458500994" id="-57426">
		<tag k="name" v="Bállojávri" />
		<tag k="name:se" v="Bállojávri" />
		<tag k="natural" v="water" />
		<tag k="ssr:stedsnr" v="592315" />
	</node>
	<node lat="69.17833056115207" lon="23.50596376714775" id="-57428">
		<tag k="name" v="Suttášnjárga" />
		<tag k="name:se" v="Suttášnjárga" />
		<tag k="natural" v="cape" />
		<tag k="ssr:stedsnr" v="592719" />
	</node>
	<node lat="69.12485833927447" lon="23.31080823890879" id="-57429">
		<tag k="name" v="Sáttonjárga" />
		<tag k="name:se" v="Sáttonjárga" />
		<tag k="natural" v="cape" />
		<tag k="ssr:stedsnr" v="592661" />
	</node>
	<node lat="68.9084027806485" lon="22.866699910007682" id="-57430">
		<tag k="name" v="Duommasuolu" />
		<tag k="name:se" v="Duommasuolu" />
		<tag k="place" v="islet" />
		<tag k="ssr:stedsnr" v="592957" />
	</node>
	<node lat="69.02536944948528" lon="23.173383238386975" id="-57431">
		<tag k="name" v="Ruovdeláttu" />
		<tag k="name:se" v="Ruovdeláttu" />
		<tag k="natural" v="water" />
		<tag k="ssr:stedsnr" v="698478" />
	</node>
	<node lat="69.0115444500487" lon="23.051158245151836" id="-57432">
		<tag k="name" v="Niittošnjárga" />
		<tag k="name:se" v="Niittošnjárga" />
		<tag k="natural" v="cape" />
		<tag k="ssr:stedsnr" v="698480" />
	</node>
	<node lat="69.47411667456063" lon="23.701744316918948" id="-57439">
		<tag k="name" v="Uitojohka" />
		<tag k="name:se" v="Uitojohka" />
		<tag k="ssr:stedsnr" v="698288" />
		<tag k="waterway" v="stream" />
	</node>
	<node lat="69.42009167453594" lon="23.678858219723427" id="-57441">
		<tag k="name" v="Oivvošnjárga" />
		<tag k="name:se" v="Oivvošnjárga" />
		<tag k="natural" v="cape" />
		<tag k="ssr:stedsnr" v="698302" />
	</node>
	<node lat="69.41771111608993" lon="23.625097110971755" id="-57443">
		<tag k="name" v="Stuorasuolu" />
		<tag k="name:se" v="Stuorasuolu" />
		<tag k="place" v="islet" />
		<tag k="ssr:stedsnr" v="698642" />
	</node>
	<node lat="69.42416389199585" lon="23.63718043438208" id="-57444">
		<tag k="name" v="Buhttet" />
		<tag k="name:se" v="Buhttet" />
		<tag k="natural" v="beach" />
		<tag k="ssr:stedsnr" v="698650" />
	</node>
	<node lat="69.41157500775925" lon="23.624616562167564" id="-57445">
		<tag k="name" v="Miellenjavvi" />
		<tag k="name:se" v="Miellenjavvi" />
		<tag k="ssr:stedsnr" v="698661" />
		<tag k="waterway" v="rapids" />
	</node>
	<node lat="69.43151111453903" lon="23.68713876129412" id="-57447">
		<tag k="name" v="Girkočeabetláttu" />
		<tag k="name:se" v="Girkočeabetláttu" />
		<tag k="natural" v="water" />
		<tag k="ssr:stedsnr" v="698675" />
	</node>
	<node lat="69.4457944464275" lon="23.673099887700904" id="-57448">
		<tag k="name" v="Roavvefielbmá" />
		<tag k="name:se" v="Roavvefielbmá" />
		<tag k="ssr:stedsnr" v="698711" />
		<tag k="waterway" v="stream" />
	</node>
	<node lat="69.02141667317152" lon="23.07268324694473" id="-57454">
		<tag k="name" v="Duommanjárga" />
		<tag k="name:se" v="Duommanjárga" />
		<tag k="natural" v="cape" />
		<tag k="ssr:stedsnr" v="699873" />
	</node>
	<node lat="69.02206944924178" lon="23.06844991333223" id="-57456">
		<tag k="name" v="Loaŋkkonjárga" />
		<tag k="name:se" v="Loaŋkkonjárga" />
		<tag k="natural" v="cape" />
		<tag k="ssr:stedsnr" v="699874" />
	</node>
	<node lat="69.04067222554251" lon="23.112997123076994" id="-57457">
		<tag k="name" v="Muotkiluokta" />
		<tag k="name:se" v="Muotkiluokta" />
		<tag k="natural" v="bay" />
		<tag k="ssr:stedsnr" v="699882" />
	</node>
	<node lat="68.9794944534685" lon="23.227163780870146" id="-57458">
		<tag k="name" v="Ásllagašjohka" />
		<tag k="name:se" v="Ásllagašjohka" />
		<tag k="old_name:se" v="Aslagašjåkka" />
		<tag k="ssr:stedsnr" v="624003" />
		<tag k="waterway" v="stream" />
	</node>
	<node lat="68.96976111704853" lon="23.115558227754427" id="-57459">
		<tag k="name" v="Máđiijávri" />
		<tag k="name:se" v="Máđiijávri" />
		<tag k="natural" v="water" />
		<tag k="old_name:se" v="Mađiijavri" />
		<tag k="ssr:stedsnr" v="624010" />
	</node>
	<node lat="68.7036805629182" lon="24.46737480177163" id="-57460">
		<tag k="name" v="Gaikkihanjávri" />
		<tag k="name:se" v="Gaikkihanjávri" />
		<tag k="natural" v="water" />
		<tag k="old_name:se" v="Gaikihanjavri" />
		<tag k="ssr:stedsnr" v="624014" />
	</node>
	<node lat="68.90778611276612" lon="22.749274918912924" id="-57461">
		<tag k="name" v="Namahisjávri" />
		<tag k="name:se" v="Namahisjávri" />
		<tag k="natural" v="water" />
		<tag k="old_name:se" v="Namahisjavri" />
		<tag k="ssr:stedsnr" v="624106" />
	</node>
	<node lat="69.04440833989308" lon="23.11615268105449" id="-57463">
		<tag k="name" v="Guosmmarjávri" />
		<tag k="name:se" v="Guosmmarjávri" />
		<tag k="natural" v="water" />
		<tag k="old_name:se" v="Guosmarjavri" />
		<tag k="ssr:stedsnr" v="624605" />
		<tag k="water" v="lake" />
	</node>
	<node lat="68.87477779131882" lon="25.30016636517253" id="-57467">
		<tag k="name" v="Skáidegeašláddot" />
		<tag k="name:se" v="Skáidegeašláddot" />
		<tag k="natural" v="water" />
		<tag k="old_name:se" v="Skaidegæšladdut" />
		<tag k="ssr:stedsnr" v="624668" />
		<tag k="water" v="lake" />
	</node>
	<node lat="69.13460556244023" lon="23.289352691103872" id="-57468">
		<tag k="fixme" v="multiple name tags, choose one and add the other to alt_name" />
		<tag k="name" v="Vuohppeláddot;Linnjajávri" />
		<tag k="name:se" v="Vuohppeláddot;Linnjajávri" />
		<tag k="natural" v="water" />
		<tag k="old_name:se" v="Linnjajavri" />
		<tag k="ssr:stedsnr" v="624669" />
	</node>
	<node lat="68.79563334206142" lon="24.210863718411485" id="-57469">
		<tag k="name" v="Stuora Dápmotjávri" />
		<tag k="name:se" v="Stuora Dápmotjávri" />
		<tag k="natural" v="water" />
		<tag k="old_name:se" v="Dabmutjavri, stuora;Stuora Dapmotjávri" />
		<tag k="ssr:stedsnr" v="624806" />
		<tag k="water" v="lake" />
	</node>
	<node lat="68.80955000624277" lon="24.510866458428044" id="-57470">
		<tag k="name" v="Ákšoláhpponjávri" />
		<tag k="name:se" v="Ákšoláhpponjávri" />
		<tag k="natural" v="water" />
		<tag k="old_name:se" v="Akšulappunjavri" />
		<tag k="ssr:stedsnr" v="624807" />
		<tag k="water" v="lake" />
	</node>
	<node lat="69.5719250029339" lon="22.97199159842114" id="-57471">
		<tag k="name" v="Geallanjohka" />
		<tag k="name:se" v="Geallanjohka" />
		<tag k="old_name:se" v="Gællanjåkka" />
		<tag k="ssr:stedsnr" v="624703" />
		<tag k="waterway" v="stream" />
	</node>
	<node lat="69.5821500009724" lon="22.898411036398084" id="-57472">
		<tag k="name" v="Ávžejuohkanjohka" />
		<tag k="name:se" v="Ávžejuohkanjohka" />
		<tag k="old_name:se" v="Avžejuokkanjåkka" />
		<tag k="ssr:stedsnr" v="624710" />
		<tag k="waterway" v="stream" />
	</node>
	<node lat="69.61046111333167" lon="23.196786035522727" id="-57474">
		<tag k="name" v="Várdejávri" />
		<tag k="name:se" v="Várdejávri" />
		<tag k="natural" v="water" />
		<tag k="old_name:se" v="Vardejavri" />
		<tag k="ssr:stedsnr" v="624717" />
		<tag k="water" v="lake" />
	</node>
	<node lat="69.60829999805445" lon="23.09664159238348" id="-57476">
		<tag k="name" v="Biedjojohka" />
		<tag k="name:se" v="Biedjojohka" />
		<tag k="old_name:se" v="Bieddjujåkka" />
		<tag k="ssr:stedsnr" v="624720" />
		<tag k="waterway" v="river" />
	</node>
	<node lat="69.13627500124353" lon="22.811311038397406" id="-57477">
		<tag k="name" v="Čuorvunnjárga" />
		<tag k="name:se" v="Čuorvunnjárga" />
		<tag k="natural" v="cape" />
		<tag k="old_name:se" v="Čuorvonnjarga" />
		<tag k="ssr:stedsnr" v="624723" />
	</node>
	<node lat="69.69826388756657" lon="23.270313806441543" id="-57482">
		<tag k="name" v="Jeageljohka" />
		<tag k="name:se" v="Jeageljohka" />
		<tag k="old_name:se" v="Jægeljåkka" />
		<tag k="ssr:stedsnr" v="624769" />
		<tag k="waterway" v="stream" />
	</node>
	<node lat="68.90890000350265" lon="23.44375264997251" id="-57483">
		<tag k="name" v="Bulkejohka" />
		<tag k="name:se" v="Bulkejohka" />
		<tag k="old_name:se" v="Bulkejåkka" />
		<tag k="ssr:stedsnr" v="624979" />
		<tag k="waterway" v="river" />
	</node>
	<node lat="69.00654166914734" lon="22.751627691688757" id="-57486">
		<tag k="alt_name:se" v="Lulit Čunojohka" />
		<tag k="name" v="Čunojohka" />
		<tag k="name:se" v="Čunojohka" />
		<tag k="old_name:se" v="Čunujåkka" />
		<tag k="ssr:stedsnr" v="625081" />
		<tag k="waterway" v="river" />
	</node>
	<node lat="69.62888611124228" lon="24.213227636569595" id="-57487">
		<tag k="name" v="Galbanjárga" />
		<tag k="name:se" v="Galbanjárga" />
		<tag k="natural" v="cape" />
		<tag k="old_name:se" v="Galbanjarga" />
		<tag k="ssr:stedsnr" v="625279" />
	</node>
	<node lat="69.45032222523695" lon="23.835416550174273" id="-57488">
		<tag k="name" v="Rávdojávri" />
		<tag k="name:se" v="Rávdojávri" />
		<tag k="natural" v="water" />
		<tag k="old_name:se" v="Ravdujavri" />
		<tag k="ssr:stedsnr" v="625403" />
	</node>
	<node lat="69.33254722752515" lon="23.98710262854262" id="-57490">
		<tag k="name" v="Guvvajávri" />
		<tag k="name:se" v="Guvvajávri" />
		<tag k="natural" v="water" />
		<tag k="old_name:se" v="Guvvajavri" />
		<tag k="ssr:stedsnr" v="625464" />
	</node>
	<node lat="69.47945278067704" lon="23.854049873357578" id="-57493">
		<tag k="name" v="Másealjávrrit" />
		<tag k="name:se" v="Másealjávrrit" />
		<tag k="natural" v="water" />
		<tag k="old_name:se" v="Masæljavrit" />
		<tag k="ssr:stedsnr" v="625377" />
	</node>
	<node lat="69.4024416652927" lon="22.500080485327555" id="-57495">
		<tag k="name" v="Bogejávri" />
		<tag k="name:se" v="Bogejávri" />
		<tag k="natural" v="water" />
		<tag k="old_name:se" v="Bågejavri" />
		<tag k="ssr:stedsnr" v="625815" />
	</node>
	<node lat="69.63729999958069" lon="23.39390823040617" id="-57497">
		<tag k="name" v="Hoaŋkkavuolesjávri" />
		<tag k="name:se" v="Hoaŋkkavuolesjávri" />
		<tag k="natural" v="water" />
		<tag k="old_name:se" v="Huoŋkavuolesjavri" />
		<tag k="ssr:stedsnr" v="625764" />
	</node>
	<node lat="69.34182222046464" lon="23.281236023545294" id="-57498">
		<tag k="name" v="Jáhkotjohka" />
		<tag k="name:se" v="Jáhkotjohka" />
		<tag k="old_name:se" v="Jakkutjåkka" />
		<tag k="ssr:stedsnr" v="625903" />
		<tag k="waterway" v="river" />
	</node>
	<node lat="69.03036667288357" lon="23.241216561454905" id="-57499">
		<tag k="name" v="Várevuolessuolu" />
		<tag k="name:se" v="Várevuolessuolu" />
		<tag k="natural" v="cape" />
		<tag k="ssr:stedsnr" v="637026" />
	</node>
	<node lat="69.00858056375864" lon="23.26333322582567" id="-57500">
		<tag k="name" v="Guinjárga" />
		<tag k="name:se" v="Guinjárga" />
		<tag k="natural" v="cape" />
		<tag k="ssr:stedsnr" v="637093" />
	</node>
	<node lat="68.99664167255956" lon="23.224594345422254" id="-57501">
		<tag k="name" v="Semulluokta" />
		<tag k="name:se" v="Semulluokta" />
		<tag k="natural" v="bay" />
		<tag k="ssr:stedsnr" v="637095" />
	</node>
	<node lat="69.04191389087464" lon="23.248366562567817" id="-57502">
		<tag k="name" v="Leaibejohka" />
		<tag k="name:se" v="Leaibejohka" />
		<tag k="ssr:stedsnr" v="637134" />
		<tag k="waterway" v="stream" />
	</node>
	<node lat="69.37714722393675" lon="23.623683226960843" id="-57503">
		<tag k="name" v="Bálloluoppal" />
		<tag k="name:se" v="Bálloluoppal" />
		<tag k="natural" v="water" />
		<tag k="ssr:stedsnr" v="637304" />
		<tag k="water" v="lake" />
	</node>
	<node lat="69.47970833742221" lon="23.715747101674665" id="-57504">
		<tag k="name" v="Duomasuolu" />
		<tag k="name:se" v="Duomasuolu" />
		<tag k="place" v="islet" />
		<tag k="ssr:stedsnr" v="637382" />
	</node>
	<node lat="69.03228056307255" lon="23.182183229179024" id="-57508">
		<tag k="name" v="Oaivvuš" />
		<tag k="name:se" v="Oaivvuš" />
		<tag k="natural" v="bay" />
		<tag k="ssr:stedsnr" v="637596" />
	</node>
	<node lat="69.02732778140799" lon="22.969127694468273" id="-57509">
		<tag k="name" v="Guohcamarasláttu" />
		<tag k="name:se" v="Guohcamarasláttu" />
		<tag k="natural" v="water" />
		<tag k="ssr:stedsnr" v="637878" />
	</node>
	<node lat="69.04988333358054" lon="23.079724895988214" id="-57510">
		<tag k="name" v="Jorbmi" />
		<tag k="name:se" v="Jorbmi" />
		<tag k="place" v="locality" />
		<tag k="ssr:stedsnr" v="637904" />
	</node>
	<node lat="69.0696194517408" lon="23.164138791346577" id="-57512">
		<tag k="name" v="Riggenjoaskejarin" />
		<tag k="name:se" v="Riggenjoaskejarin" />
		<tag k="natural" v="water" />
		<tag k="ssr:stedsnr" v="652302" />
		<tag k="water" v="lake" />
	</node>
	<node lat="69.0710611146974" lon="23.17931657013039" id="-57513">
		<tag k="name" v="Milliidjarin" />
		<tag k="name:se" v="Milliidjarin" />
		<tag k="natural" v="water" />
		<tag k="ssr:stedsnr" v="652303" />
		<tag k="water" v="lake" />
	</node>
	<node lat="69.34543889705506" lon="24.009913741173843" id="-57515">
		<tag k="name" v="Čuđejoganjálbmi" />
		<tag k="name:se" v="Čuđejoganjálbmi" />
		<tag k="natural" v="bay" />
		<tag k="ssr:stedsnr" v="653404" />
	</node>
	<node lat="69.32245833680703" lon="23.58604154029757" id="-57516">
		<tag k="name" v="Badjesuolu" />
		<tag k="name:se" v="Badjesuolu" />
		<tag k="place" v="islet" />
		<tag k="ssr:stedsnr" v="653383" />
	</node>
	<node lat="69.31320556119903" lon="23.649030433749907" id="-57517">
		<tag k="name" v="Bajit Gearddošjávri" />
		<tag k="name:se" v="Bajit Gearddošjávri" />
		<tag k="natural" v="water" />
		<tag k="ssr:stedsnr" v="653482" />
		<tag k="water" v="lake" />
	</node>
	<node lat="69.12906389442085" lon="23.298469348513354" id="-57519">
		<tag k="name" v="Roavotvuohppi" />
		<tag k="name:se" v="Roavotvuohppi" />
		<tag k="natural" v="bay" />
		<tag k="ssr:stedsnr" v="653633" />
	</node>
	<node lat="69.17406945196811" lon="23.47868878838751" id="-57520">
		<tag k="name" v="Heammojársuolu" />
		<tag k="name:se" v="Heammojársuolu" />
		<tag k="place" v="islet" />
		<tag k="ssr:stedsnr" v="653699" />
	</node>
	<node lat="69.17370555793067" lon="23.47138599145869" id="-57521">
		<tag k="name" v="Čáhppesnáđđevárpi" />
		<tag k="name:se" v="Čáhppesnáđđevárpi" />
		<tag k="natural" v="water" />
		<tag k="ssr:stedsnr" v="653706" />
		<tag k="water" v="lake" />
	</node>
	<node lat="69.17057500779032" lon="23.466338774077776" id="-57522">
		<tag k="name" v="Beatnatnjárga" />
		<tag k="name:se" v="Beatnatnjárga" />
		<tag k="natural" v="cape" />
		<tag k="ssr:stedsnr" v="653707" />
	</node>
	<node lat="69.34245833985901" lon="23.446602671860173" id="-57523">
		<tag k="name" v="Gaskanjárga" />
		<tag k="name:se" v="Gaskanjárga" />
		<tag k="natural" v="cape" />
		<tag k="ssr:stedsnr" v="653997" />
	</node>
	<node lat="68.96289999957764" lon="22.985011013689018" id="-57524">
		<tag k="name" v="Gándanjárga" />
		<tag k="name:se" v="Gándanjárga" />
		<tag k="natural" v="cape" />
		<tag k="ssr:stedsnr" v="654243" />
	</node>
	<node lat="68.9743333331693" lon="23.247833236655374" id="-57526">
		<tag k="name" v="Ásllagašjávri" />
		<tag k="name:se" v="Ásllagašjávri" />
		<tag k="natural" v="water" />
		<tag k="old_name:se" v="Aslagašjavri" />
		<tag k="ssr:stedsnr" v="685004" />
	</node>
	<node lat="68.74420556629337" lon="24.571649779102835" id="-57527">
		<tag k="name" v="Gavdnjajávri" />
		<tag k="name:se" v="Gavdnjajávri" />
		<tag k="natural" v="water" />
		<tag k="old_name:se" v="Gavdnjajavri;Gávdnjajávri" />
		<tag k="ssr:stedsnr" v="685005" />
		<tag k="water" v="lake" />
	</node>
	<node lat="68.72119167252306" lon="24.3101137060379" id="-57530">
		<tag k="name" v="Ávžesuohpatjávri" />
		<tag k="name:se" v="Ávžesuohpatjávri" />
		<tag k="natural" v="water" />
		<tag k="old_name:se" v="Avžesuoppatjavri" />
		<tag k="ssr:stedsnr" v="685009" />
	</node>
	<node lat="68.70144445522591" lon="24.599524791930712" id="-57532">
		<tag k="name" v="Nuorttit Livlanjávri" />
		<tag k="name:se" v="Nuorttit Livlanjávri" />
		<tag k="natural" v="water" />
		<tag k="old_name:se" v="Livlanjavri, nuortit" />
		<tag k="ssr:stedsnr" v="685013" />
		<tag k="water" v="lake" />
	</node>
	<node lat="68.98829722456144" lon="22.62710825163947" id="-57534">
		<tag k="name" v="Čunojávri" />
		<tag k="name:se" v="Čunojávri" />
		<tag k="natural" v="water" />
		<tag k="old_name:se" v="Čunujavri" />
		<tag k="ssr:stedsnr" v="685106" />
		<tag k="water" v="lake" />
	</node>
	<node lat="69.27190833750687" lon="23.83588041812878" id="-57535">
		<tag k="name" v="Áiteluokta" />
		<tag k="name:se" v="Áiteluokta" />
		<tag k="natural" v="bay" />
		<tag k="old_name:se" v="Aiteluokta" />
		<tag k="ssr:stedsnr" v="685247" />
	</node>
	<node lat="69.06846944534098" lon="23.149327677809364" id="-57537">
		<tag k="name" v="Boastajarin" />
		<tag k="name:se" v="Boastajarin" />
		<tag k="place" v="locality" />
		<tag k="ssr:stedsnr" v="685592" />
	</node>
	<node lat="69.05939722193094" lon="23.00541936110689" id="-57538">
		<tag k="name" v="Ginaljarin" />
		<tag k="name:se" v="Ginaljarin" />
		<tag k="natural" v="water" />
		<tag k="ssr:stedsnr" v="685595" />
		<tag k="water" v="lake" />
	</node>
	<node lat="69.0576027794972" lon="23.173797116657376" id="-57539">
		<tag k="name" v="Njallajávri" />
		<tag k="name:se" v="Njallajávri" />
		<tag k="natural" v="water" />
		<tag k="old_name:se" v="Njallajavri" />
		<tag k="ssr:stedsnr" v="685597" />
		<tag k="water" v="lake" />
	</node>
	<node lat="69.05041944851561" lon="23.138322130810508" id="-57540">
		<tag k="name" v="Njallačoalbmi" />
		<tag k="name:se" v="Njallačoalbmi" />
		<tag k="natural" v="strait" />
		<tag k="ssr:stedsnr" v="685598" />
	</node>
	<node lat="69.66275000080374" lon="23.491711020412637" id="-57541">
		<tag k="name" v="Ákšoluoppal" />
		<tag k="name:se" v="Ákšoluoppal" />
		<tag k="natural" v="water" />
		<tag k="old_name:se" v="Akšuluobbal" />
		<tag k="ssr:stedsnr" v="685599" />
	</node>
	<node lat="69.17491111512993" lon="22.875999911011824" id="-57542">
		<tag k="name" v="Rávdojávri" />
		<tag k="name:se" v="Rávdojávri" />
		<tag k="natural" v="water" />
		<tag k="old_name:se" v="Ravdujavri" />
		<tag k="ssr:stedsnr" v="685641" />
	</node>
	<node lat="69.2030583346586" lon="23.035161012948873" id="-57545">
		<tag k="name" v="Livččásteallejávri" />
		<tag k="name:se" v="Livččásteallejávri" />
		<tag k="natural" v="water" />
		<tag k="old_name:se" v="Livčastællejavri" />
		<tag k="ssr:stedsnr" v="685651" />
		<tag k="water" v="lake" />
	</node>
	<node lat="69.13151389411102" lon="22.69858881534075" id="-57546">
		<tag k="name" v="Guhkesjávri" />
		<tag k="name:se" v="Guhkesjávri" />
		<tag k="natural" v="water" />
		<tag k="old_name:se" v="Gukkesjavri" />
		<tag k="ssr:stedsnr" v="685696" />
	</node>
	<node lat="69.5787722284382" lon="23.31715823172357" id="-57547">
		<tag k="name" v="Viessojávri" />
		<tag k="name:se" v="Viessojávri" />
		<tag k="natural" v="water" />
		<tag k="old_name:se" v="Viessujavri" />
		<tag k="ssr:stedsnr" v="685699" />
	</node>
	<node lat="69.09831111507908" lon="23.59596100032297" id="-57554">
		<tag k="name" v="Guolehis Vuordnášjávri" />
		<tag k="name:se" v="Guolehis Vuordnášjávri" />
		<tag k="natural" v="water" />
		<tag k="old_name:se" v="Vuordnašjavri, guolehis" />
		<tag k="ssr:stedsnr" v="685940" />
		<tag k="water" v="lake" />
	</node>
	<node lat="68.98326389297299" lon="23.532705429363528" id="-57555">
		<tag k="name" v="Jeagelgielasjohka" />
		<tag k="name:se" v="Jeagelgielasjohka" />
		<tag k="old_name:se" v="Jægelgielasjåkka" />
		<tag k="ssr:stedsnr" v="685942" />
		<tag k="waterway" v="river" />
	</node>
	<node lat="69.0952444455645" lon="23.694324882157236" id="-57556">
		<tag k="name" v="Gállojávri" />
		<tag k="name:se" v="Gállojávri" />
		<tag k="natural" v="water" />
		<tag k="old_name:se" v="Gallujavri" />
		<tag k="ssr:stedsnr" v="685943" />
		<tag k="water" v="lake" />
	</node>
	<node lat="69.33292500677807" lon="22.70698047766892" id="-57557">
		<tag k="name" v="Guovžžajávri" />
		<tag k="name:se" v="Guovžžajávri" />
		<tag k="natural" v="water" />
		<tag k="old_name:se" v="Guovžajavri" />
		<tag k="ssr:stedsnr" v="685947" />
	</node>
	<node lat="68.917061113359" lon="23.1671582240865" id="-57558">
		<tag k="name" v="Ristenjávri" />
		<tag k="name:se" v="Ristenjávri" />
		<tag k="natural" v="water" />
		<tag k="old_name:se" v="Ristenjavri" />
		<tag k="ssr:stedsnr" v="685893" />
	</node>
	<node lat="69.22962222046128" lon="22.723972148884858" id="-57560">
		<tag k="name" v="Devkesskáidi" />
		<tag k="name:se" v="Devkesskáidi" />
		<tag k="natural" v="cape" />
		<tag k="old_name:se" v="Devkesskaidi" />
		<tag k="ssr:stedsnr" v="686247" />
	</node>
	<node lat="69.40970000706582" lon="23.97404152933146" id="-57562">
		<tag k="name" v="Davit Iisavuomebáktejávri" />
		<tag k="name:se" v="Davit Iisavuomebáktejávri" />
		<tag k="natural" v="water" />
		<tag k="old_name:se" v="Iisavuomebaktejavri, davit" />
		<tag k="ssr:stedsnr" v="686443" />
	</node>
	<node lat="69.38210555665663" lon="23.95763042202544" id="-57563">
		<tag k="name" v="Suhpeluoppal" />
		<tag k="name:se" v="Suhpeluoppal" />
		<tag k="natural" v="water" />
		<tag k="old_name:se" v="Suppeluobbal" />
		<tag k="ssr:stedsnr" v="686455" />
	</node>
	<node lat="69.3016777859744" lon="23.57645266097213" id="-57564">
		<tag k="name" v="Nieidagorži - Pikefossen" />
		<tag k="name:no" v="Pikefossen" />
		<tag k="name:se" v="Nieidagorži" />
		<tag k="natural" v="waterfall" />
		<tag k="old_name:se" v="Neidagårži" />
		<tag k="ssr:stedsnr" v="686506" />
	</node>
	<node lat="69.59420833788457" lon="23.823599870033274" id="-57567">
		<tag k="name" v="Gáfeseahkkajávri" />
		<tag k="name:se" v="Gáfeseahkkajávri" />
		<tag k="natural" v="water" />
		<tag k="old_name:se" v="Gafesækkajavri" />
		<tag k="ssr:stedsnr" v="686599" />
	</node>
	<node lat="69.16903055361304" lon="22.630549930793617" id="-57568">
		<tag k="name" v="Stohkášluoppal" />
		<tag k="name:se" v="Stohkášluoppal" />
		<tag k="natural" v="water" />
		<tag k="old_name:se" v="Ståkkašluobbal" />
		<tag k="ssr:stedsnr" v="686705" />
	</node>
	<node lat="69.54569444469473" lon="23.33199156362703" id="-57571">
		<tag k="name" v="Lullánddájávri" />
		<tag k="name:se" v="Lullánddájávri" />
		<tag k="natural" v="water" />
		<tag k="old_name:se" v="Lullandajavri" />
		<tag k="ssr:stedsnr" v="686691" />
	</node>
	<node lat="69.21646111498228" lon="22.66903047365876" id="-57572">
		<tag k="name" v="Gorvvešjávri" />
		<tag k="name:se" v="Gorvvešjávri" />
		<tag k="natural" v="water" />
		<tag k="old_name:se" v="Gårvešjavri" />
		<tag k="ssr:stedsnr" v="686695" />
		<tag k="water" v="lake" />
	</node>
	<node lat="69.10455556035174" lon="24.44640814847593" id="-57573">
		<tag k="name" v="Juovvajohka" />
		<tag k="name:se" v="Juovvajohka" />
		<tag k="old_name:se" v="Juovvajåkka" />
		<tag k="ssr:stedsnr" v="686887" />
		<tag k="waterway" v="river" />
	</node>
	<node lat="69.31068611223598" lon="22.972449922811794" id="-57577">
		<tag k="name" v="Riehttejávri" />
		<tag k="name:se" v="Riehttejávri" />
		<tag k="natural" v="water" />
		<tag k="old_name:se" v="Riettejavri" />
		<tag k="ssr:stedsnr" v="686900" />
	</node>
	<node lat="69.02860834054087" lon="23.458324889016506" id="-57579">
		<tag k="name" v="Seahkkaluoppal" />
		<tag k="name:se" v="Seahkkaluoppal" />
		<tag k="natural" v="water" />
		<tag k="old_name:se" v="Sækkaluobbal" />
		<tag k="ssr:stedsnr" v="686999" />
	</node>
	<node lat="69.00920833334855" lon="22.172308265626224" id="-57581">
		<tag k="name" v="Gobbajávri" />
		<tag k="name:se" v="Gobbajávri" />
		<tag k="natural" v="water" />
		<tag k="ssr:stedsnr" v="687618" />
	</node>
	<node lat="68.88912222751101" lon="22.859224914883942" id="-57583">
		<tag k="name" v="Duiskaláttu" />
		<tag k="name:se" v="Duiskaláttu" />
		<tag k="natural" v="water" />
		<tag k="ssr:stedsnr" v="894053" />
	</node>
	<node lat="69.01279444911806" lon="22.97639990490643" id="-57587">
		<tag k="name" v="Čoalli" />
		<tag k="name:se" v="Čoalli" />
		<tag k="natural" v="bay" />
		<tag k="ssr:stedsnr" v="698510" />
	</node>
	<node lat="69.00845555530218" lon="22.98071380610482" id="-57588">
		<tag k="name" v="Bávváljárnjárga" />
		<tag k="name:se" v="Bávváljárnjárga" />
		<tag k="natural" v="cape" />
		<tag k="ssr:stedsnr" v="698512" />
	</node>
	<node lat="69.0542305559565" lon="23.14428322362434" id="-57589">
		<tag k="name" v="Eanojávri" />
		<tag k="name:se" v="Eanojávri" />
		<tag k="natural" v="water" />
		<tag k="ssr:stedsnr" v="698514" />
		<tag k="water" v="lake" />
	</node>
	<node lat="68.88667500030975" lon="22.878655469360574" id="-57590">
		<tag k="name" v="Ruktafielbmá" />
		<tag k="name:se" v="Ruktafielbmá" />
		<tag k="ssr:stedsnr" v="896002" />
		<tag k="waterway" v="stream" />
	</node>
	<node lat="69.05512778101931" lon="23.067663791415562" id="-57592">
		<tag k="name" v="Lohkkejohka" />
		<tag k="name:se" v="Lohkkejohka" />
		<tag k="ssr:stedsnr" v="698913" />
		<tag k="waterway" v="stream" />
	</node>
	<node lat="68.9225833368473" lon="22.876822134978784" id="-57594">
		<tag k="name" v="Evrrejoganjálmmeája" />
		<tag k="name:se" v="Evrrejoganjálmmeája" />
		<tag k="ssr:stedsnr" v="896017" />
		<tag k="waterway" v="stream" />
	</node>
	<node lat="68.94827778025484" lon="22.92999157897818" id="-57595">
		<tag k="name" v="Ahkitjohka" />
		<tag k="name:se" v="Ahkitjohka" />
		<tag k="ssr:stedsnr" v="896051" />
		<tag k="waterway" v="stream" />
	</node>
	<node lat="68.94876667135307" lon="22.945483253118642" id="-57596">
		<tag k="name" v="Coagan" />
		<tag k="name:se" v="Coagan" />
		<tag k="natural" v="water" />
		<tag k="ssr:stedsnr" v="896053" />
		<tag k="water" v="lake" />
	</node>
	<node lat="69.09543056234246" lon="23.250963780813045" id="-57599">
		<tag k="name" v="Vuojahatnjárga" />
		<tag k="name:se" v="Vuojahatnjárga" />
		<tag k="natural" v="cape" />
		<tag k="ssr:stedsnr" v="896331" />
	</node>
	<node lat="69.06180278459985" lon="23.135672140043503" id="-57600">
		<tag k="name" v="Mihkkalaláttu" />
		<tag k="name:se" v="Mihkkalaláttu" />
		<tag k="natural" v="water" />
		<tag k="ssr:stedsnr" v="896347" />
	</node>
	<node lat="69.12786388789765" lon="23.26573046350557" id="-57601">
		<tag k="name" v="Suolojohka" />
		<tag k="name:se" v="Suolojohka" />
		<tag k="ssr:stedsnr" v="896401" />
		<tag k="waterway" v="stream" />
	</node>
	<node lat="69.33910000170007" lon="23.604424874091215" id="-57602">
		<tag k="name" v="Rávdomohkki" />
		<tag k="name:se" v="Rávdomohkki" />
		<tag k="natural" v="bay" />
		<tag k="ssr:stedsnr" v="896403" />
	</node>
	<node lat="69.13368611319932" lon="23.20227489986033" id="-57603">
		<tag k="name" v="Gumpejohka" />
		<tag k="name:se" v="Gumpejohka" />
		<tag k="natural" v="water" />
		<tag k="ssr:stedsnr" v="896405" />
		<tag k="water" v="lake" />
	</node>
	<node lat="69.21660555844038" lon="23.597583224724097" id="-57606">
		<tag k="name" v="Gievdnejávri" />
		<tag k="name:se" v="Gievdnejávri" />
		<tag k="natural" v="water" />
		<tag k="ssr:stedsnr" v="896480" />
		<tag k="water" v="lake" />
	</node>
	<node lat="69.07952222210261" lon="23.20679712846033" id="-57607">
		<tag k="name" v="Guoikkavuolli" />
		<tag k="name:se" v="Guoikkavuolli" />
		<tag k="natural" v="water" />
		<tag k="ssr:stedsnr" v="896438" />
		<tag k="water" v="lake" />
	</node>
	<node lat="69.21119722214527" lon="23.594513771677338" id="-57608">
		<tag k="name" v="Poastanjavvi" />
		<tag k="name:se" v="Poastanjavvi" />
		<tag k="ssr:stedsnr" v="896481" />
		<tag k="waterway" v="rapids" />
	</node>
	<node lat="69.1219861154967" lon="23.276616573176984" id="-57609">
		<tag k="name" v="Fielbmamohkki" />
		<tag k="name:se" v="Fielbmamohkki" />
		<tag k="natural" v="bay" />
		<tag k="ssr:stedsnr" v="896651" />
	</node>
	<node lat="69.10985000117786" lon="23.258658235614107" id="-57613">
		<tag k="name" v="Skuvlanjavinjárga" />
		<tag k="name:se" v="Skuvlanjavinjárga" />
		<tag k="natural" v="cape" />
		<tag k="ssr:stedsnr" v="896502" />
	</node>
	<node lat="69.1295249999396" lon="23.29610267769499" id="-57614">
		<tag k="name" v="Gávgilmohkki" />
		<tag k="name:se" v="Gávgilmohkki" />
		<tag k="natural" v="bay" />
		<tag k="ssr:stedsnr" v="896677" />
	</node>
	<node lat="69.12608056325784" lon="23.295941571519567" id="-57615">
		<tag k="name" v="Issáhašvárpi" />
		<tag k="name:se" v="Issáhašvárpi" />
		<tag k="natural" v="water" />
		<tag k="ssr:stedsnr" v="896681" />
		<tag k="water" v="lake" />
	</node>
	<node lat="69.12996944745872" lon="23.33372210748451" id="-57616">
		<tag k="name" v="Skáidevárpi" />
		<tag k="name:se" v="Skáidevárpi" />
		<tag k="natural" v="water" />
		<tag k="ssr:stedsnr" v="896692" />
		<tag k="water" v="lake" />
	</node>
	<node lat="69.18633333543424" lon="23.50251933677002" id="-57619">
		<tag k="name" v="Čevejávri" />
		<tag k="name:se" v="Čevejávri" />
		<tag k="natural" v="water" />
		<tag k="ssr:stedsnr" v="896700" />
	</node>
	<node lat="69.17899722755267" lon="23.5119443309757" id="-57620">
		<tag k="name" v="Suttášnjavvi" />
		<tag k="name:se" v="Suttášnjavvi" />
		<tag k="ssr:stedsnr" v="896733" />
		<tag k="waterway" v="rapids" />
	</node>
	<node lat="69.34689166647395" lon="23.450436000653994" id="-57621">
		<tag k="name" v="Duppalnjárga" />
		<tag k="name:se" v="Duppalnjárga" />
		<tag k="natural" v="cape" />
		<tag k="ssr:stedsnr" v="896997" />
	</node>
	<node lat="68.89026388783574" lon="23.064716575048624" id="-57622">
		<tag k="name" v="Guhkesjávrrejohka" />
		<tag k="name:se" v="Guhkesjávrrejohka" />
		<tag k="ssr:stedsnr" v="897137" />
		<tag k="waterway" v="stream" />
	</node>
	<node lat="68.92208889188495" lon="23.096483244281618" id="-57623">
		<tag k="name" v="Muotki" />
		<tag k="name:se" v="Muotki" />
		<tag k="place" v="locality" />
		<tag k="ssr:stedsnr" v="897142" />
	</node>
	<node lat="68.94695000201854" lon="23.087166559357737" id="-57626">
		<tag k="name" v="Sunnennjárga" />
		<tag k="name:se" v="Sunnennjárga" />
		<tag k="natural" v="cape" />
		<tag k="ssr:stedsnr" v="897222" />
	</node>
	<node lat="68.95817222110668" lon="23.0880026863289" id="-57627">
		<tag k="name" v="Oivvoš" />
		<tag k="name:se" v="Oivvoš" />
		<tag k="natural" v="bay" />
		<tag k="ssr:stedsnr" v="897228" />
	</node>
	<node lat="69.09480000397528" lon="23.253913790420672" id="-57628">
		<tag k="name" v="Joavnnanjavvi" />
		<tag k="name:se" v="Joavnnanjavvi" />
		<tag k="ssr:stedsnr" v="713332" />
		<tag k="waterway" v="rapids" />
	</node>
	<node lat="69.35090278121555" lon="23.48898044634584" id="-57637">
		<tag k="name" v="Dállosailuokta" />
		<tag k="name:se" v="Dállosailuokta" />
		<tag k="natural" v="bay" />
		<tag k="ssr:stedsnr" v="714993" />
	</node>
	<node lat="69.50975000275712" lon="22.84819436358977" id="-57638">
		<tag k="name" v="Čoalmmesáiva" />
		<tag k="name:se" v="Čoalmmesáiva" />
		<tag k="natural" v="water" />
		<tag k="ssr:stedsnr" v="715809" />
		<tag k="water" v="lake" />
	</node>
	<node lat="68.9967666694494" lon="22.969674917401136" id="-57640">
		<tag k="name" v="Bávváljávri" />
		<tag k="name:se" v="Bávváljávri" />
		<tag k="natural" v="water" />
		<tag k="old_name:se" v="Bavvaljavri;Bavvaljávri" />
		<tag k="ssr:stedsnr" v="745075" />
		<tag k="water" v="lake" />
	</node>
	<node lat="69.1878805622606" lon="22.931105474591686" id="-57641">
		<tag k="name" v="Goahtejávri" />
		<tag k="name:se" v="Goahtejávri" />
		<tag k="natural" v="water" />
		<tag k="old_name:se" v="Goattejavri" />
		<tag k="ssr:stedsnr" v="745669" />
		<tag k="water" v="lake" />
	</node>
	<node lat="69.18882500301345" lon="22.973377694006647" id="-57642">
		<tag k="name" v="Urttasjávri" />
		<tag k="name:se" v="Urttasjávri" />
		<tag k="natural" v="water" />
		<tag k="old_name:se" v="Urtasjavri" />
		<tag k="ssr:stedsnr" v="745672" />
	</node>
	<node lat="68.8253611149876" lon="24.17851650056159" id="-57643">
		<tag k="name" v="Njullosráhppáidjávri" />
		<tag k="name:se" v="Njullosráhppáidjávri" />
		<tag k="natural" v="water" />
		<tag k="old_name:se" v="Njullusrappaidjavri;Njullosrahppaidjávri" />
		<tag k="ssr:stedsnr" v="745869" />
		<tag k="water" v="lake" />
	</node>
	<node lat="68.83476666897575" lon="24.2748748290108" id="-57644">
		<tag k="name" v="Vuolit Dápmotjávri" />
		<tag k="name:se" v="Vuolit Dápmotjávri" />
		<tag k="natural" v="water" />
		<tag k="old_name:se" v="Dabmutjavri, vuolit;Vuolit Dapmotjávri" />
		<tag k="ssr:stedsnr" v="745871" />
		<tag k="water" v="lake" />
	</node>
	<node lat="68.71513612099812" lon="24.5358442382231" id="-57645">
		<tag k="name" v="Bálggahanjávri" />
		<tag k="name:se" v="Bálggahanjávri" />
		<tag k="natural" v="water" />
		<tag k="old_name:se" v="Balgahanjavri;Balgahanjávri" />
		<tag k="ssr:stedsnr" v="746009" />
		<tag k="water" v="lake" />
	</node>
	<node lat="69.47005277889818" lon="23.7113998667054" id="-57647">
		<tag k="name" v="Biretjávrrit" />
		<tag k="name:se" v="Biretjávrrit" />
		<tag k="natural" v="water" />
		<tag k="old_name:se" v="Biretjavrit" />
		<tag k="ssr:stedsnr" v="746372" />
	</node>
	<node lat="69.4239805624752" lon="23.623333212013716" id="-57648">
		<tag k="name" v="Iŋggásáiva" />
		<tag k="name:se" v="Iŋggásáiva" />
		<tag k="natural" v="water" />
		<tag k="old_name:se" v="Ingasaiva" />
		<tag k="ssr:stedsnr" v="746417" />
	</node>
	<node lat="69.35231111077634" lon="23.592488781773334" id="-57649">
		<tag k="fixme" v="multiple name tags, choose one and add the other to alt_name" />
		<tag k="name" v="Lulit Bállojávri;Vuolit Bállojávri" />
		<tag k="name:se" v="Lulit Bállojávri;Vuolit Bállojávri" />
		<tag k="natural" v="water" />
		<tag k="old_name:se" v="Ballujavrit, vuolit" />
		<tag k="ssr:stedsnr" v="746474" />
	</node>
	<node lat="69.34950000695332" lon="23.508441558660255" id="-57650">
		<tag k="fixme" v="multiple name tags, choose one and add the other to alt_name" />
		<tag k="name" v="Várreseibošjávri;Rádjejávri" />
		<tag k="name:se" v="Várreseibošjávri;Rádjejávri" />
		<tag k="natural" v="water" />
		<tag k="old_name:se" v="Raddjejavri" />
		<tag k="ssr:stedsnr" v="746477" />
	</node>
	<node lat="68.79109167274311" lon="24.780724758601686" id="-57651">
		<tag k="name" v="Bassejávri" />
		<tag k="name:se" v="Bassejávri" />
		<tag k="natural" v="water" />
		<tag k="old_name:se" v="Bassejavri" />
		<tag k="ssr:stedsnr" v="746607" />
		<tag k="water" v="lake" />
	</node>
	<node lat="69.68989445153943" lon="23.830774871480372" id="-57653">
		<tag k="name" v="Spierkosavvonat" />
		<tag k="name:se" v="Spierkosavvonat" />
		<tag k="natural" v="water" />
		<tag k="old_name:se" v="Sperkusavvunat" />
		<tag k="ssr:stedsnr" v="746618" />
		<tag k="water" v="lake" />
	</node>
	<node lat="69.54317222201789" lon="22.844027693445238" id="-57654">
		<tag k="name" v="Čoalmmejávri" />
		<tag k="name:se" v="Čoalmmejávri" />
		<tag k="natural" v="water" />
		<tag k="ssr:stedsnr" v="746670" />
		<tag k="water" v="lake" />
	</node>
	<node lat="69.57907222731976" lon="23.354116565720698" id="-57657">
		<tag k="name" v="Čihččetjávri" />
		<tag k="name:se" v="Čihččetjávri" />
		<tag k="natural" v="water" />
		<tag k="old_name:se" v="Ciččetjavri" />
		<tag k="ssr:stedsnr" v="746675" />
	</node>
	<node lat="69.11788889718609" lon="23.130861014213167" id="-57659">
		<tag k="name" v="Buollánjávri" />
		<tag k="name:se" v="Buollánjávri" />
		<tag k="natural" v="water" />
		<tag k="old_name:se" v="Buollanjavri" />
		<tag k="ssr:stedsnr" v="746569" />
		<tag k="water" v="lake" />
	</node>
	<node lat="68.77335833793103" lon="23.570674885286564" id="-57664">
		<tag k="name" v="Guhkesjávri" />
		<tag k="name:se" v="Guhkesjávri" />
		<tag k="natural" v="water" />
		<tag k="old_name:se" v="Gukkesjavri" />
		<tag k="ssr:stedsnr" v="746714" />
	</node>
	<node lat="69.33612499904855" lon="23.167313795359174" id="-57670">
		<tag k="name" v="Mázevármohkki" />
		<tag k="name:se" v="Mázevármohkki" />
		<tag k="old_name:se" v="Mazevarmåkki" />
		<tag k="place" v="locality" />
		<tag k="ssr:stedsnr" v="746875" />
	</node>
	<node lat="69.49656667168101" lon="23.788422103051307" id="-57671">
		<tag k="name" v="Valljejávri" />
		<tag k="name:se" v="Valljejávri" />
		<tag k="natural" v="water" />
		<tag k="old_name:se" v="Valljejavri" />
		<tag k="ssr:stedsnr" v="746904" />
	</node>
	<node lat="69.2429500015166" lon="22.801627696879173" id="-57672">
		<tag k="name" v="Sorvošjohka" />
		<tag k="name:se" v="Sorvošjohka" />
		<tag k="old_name:se" v="Sårvušjåkka" />
		<tag k="ssr:stedsnr" v="746965" />
		<tag k="waterway" v="stream" />
	</node>
	<node lat="69.24648611035151" lon="22.764836024678516" id="-57673">
		<tag k="name" v="Buoggejohka" />
		<tag k="name:se" v="Buoggejohka" />
		<tag k="old_name:se" v="Buoggejåkka" />
		<tag k="ssr:stedsnr" v="746966" />
		<tag k="waterway" v="river" />
	</node>
	<node lat="69.48079166596267" lon="23.312774905046318" id="-57676">
		<tag k="name" v="Mihkkaljávri" />
		<tag k="name:se" v="Mihkkaljávri" />
		<tag k="natural" v="water" />
		<tag k="old_name:se" v="Mikkaljavri" />
		<tag k="ssr:stedsnr" v="746974" />
	</node>
	<node lat="68.89295000877975" lon="23.919558189214143" id="-57677">
		<tag k="name" v="Sotnabeaijávrrit" />
		<tag k="name:se" v="Sotnabeaijávrrit" />
		<tag k="natural" v="water" />
		<tag k="ssr:stedsnr" v="746975" />
		<tag k="water" v="lake" />
	</node>
	<node lat="69.48407777997542" lon="23.72159155636173" id="-57683">
		<tag k="name" v="Sáttovuohppi" />
		<tag k="name:se" v="Sáttovuohppi" />
		<tag k="natural" v="bay" />
		<tag k="ssr:stedsnr" v="758405" />
	</node>
	<node lat="69.4607388915198" lon="23.701641554185333" id="-57684">
		<tag k="name" v="Ruogosuolu" />
		<tag k="name:se" v="Ruogosuolu" />
		<tag k="place" v="islet" />
		<tag k="ssr:stedsnr" v="758310" />
	</node>
	<node lat="69.04913333691827" lon="23.22885823370723" id="-57685">
		<tag k="name" v="Skoaraláttu" />
		<tag k="name:se" v="Skoaraláttu" />
		<tag k="natural" v="water" />
		<tag k="ssr:stedsnr" v="759115" />
	</node>
	<node lat="69.04198889435429" lon="23.106002693360363" id="-57689">
		<tag k="name" v="Eaidnarnjavvi" />
		<tag k="name:se" v="Eaidnarnjavvi" />
		<tag k="natural" v="water" />
		<tag k="ssr:stedsnr" v="759904" />
		<tag k="water" v="lake" />
	</node>
	<node lat="68.90324166747524" lon="22.84624157275347" id="-57691">
		<tag k="name" v="Dávlletguoika" />
		<tag k="name:se" v="Dávlletguoika" />
		<tag k="ssr:stedsnr" v="772070" />
		<tag k="waterway" v="rapids" />
	</node>
	<node lat="68.68686945207328" lon="23.286374887535658" id="-57695">
		<tag k="name" v="Čoalbmi" />
		<tag k="name:se" v="Čoalbmi" />
		<tag k="natural" v="bay" />
		<tag k="ssr:stedsnr" v="774272" />
	</node>
	<node lat="69.09584722620326" lon="23.144119357596164" id="-57696">
		<tag k="name" v="Máhtegurjávri" />
		<tag k="name:se" v="Máhtegurjávri" />
		<tag k="natural" v="water" />
		<tag k="ssr:stedsnr" v="774404" />
	</node>
	<node lat="69.25264722253995" lon="23.624983210023434" id="-57698">
		<tag k="name" v="Láhpojoganjálbmi" />
		<tag k="name:se" v="Láhpojoganjálbmi" />
		<tag k="natural" v="bay" />
		<tag k="ssr:stedsnr" v="775458" />
	</node>
	<node lat="69.35877778621277" lon="24.02851651404586" id="-57699">
		<tag k="name" v="Čoalmminjárga" />
		<tag k="name:se" v="Čoalmminjárga" />
		<tag k="natural" v="cape" />
		<tag k="ssr:stedsnr" v="775401" />
	</node>
	<node lat="69.17569722293788" lon="23.492622105484475" id="-57700">
		<tag k="name" v="Čohkanjavvevárpi" />
		<tag k="name:se" v="Čohkanjavvevárpi" />
		<tag k="natural" v="water" />
		<tag k="ssr:stedsnr" v="775663" />
		<tag k="water" v="lake" />
	</node>
	<node lat="69.20881944937449" lon="22.920597133995262" id="-57702">
		<tag k="name" v="Várevuolesjávri" />
		<tag k="name:se" v="Várevuolesjávri" />
		<tag k="natural" v="water" />
		<tag k="ssr:stedsnr" v="777155" />
		<tag k="water" v="lake" />
	</node>
	<node lat="69.37647500329153" lon="23.588547102071306" id="-57704">
		<tag k="name" v="Áŋkkarjávri" />
		<tag k="name:se" v="Áŋkkarjávri" />
		<tag k="natural" v="water" />
		<tag k="ssr:stedsnr" v="819304" />
	</node>
	<node lat="69.46918611394827" lon="23.70837765285281" id="-57705">
		<tag k="name" v="Gámaalddas" />
		<tag k="name:se" v="Gámaalddas" />
		<tag k="natural" v="beach" />
		<tag k="ssr:stedsnr" v="819384" />
	</node>
	<node lat="68.9974500066695" lon="23.220133243960483" id="-57706">
		<tag k="name" v="Gisteborji" />
		<tag k="name:se" v="Gisteborji" />
		<tag k="place" v="islet" />
		<tag k="ssr:stedsnr" v="820111" />
	</node>
	<node lat="69.37978889347058" lon="23.58806655163267" id="-57707">
		<tag k="name" v="Eirrájávri" />
		<tag k="name:se" v="Eirrájávri" />
		<tag k="natural" v="water" />
		<tag k="ssr:stedsnr" v="820272" />
	</node>
	<node lat="69.0158750020258" lon="23.241252674644073" id="-57708">
		<tag k="name" v="Báktenjárga" />
		<tag k="name:se" v="Báktenjárga" />
		<tag k="natural" v="cape" />
		<tag k="ssr:stedsnr" v="820406" />
	</node>
	<node lat="69.01123611345088" lon="23.230719337846537" id="-57709">
		<tag k="name" v="Sorbmeluoppal" />
		<tag k="name:se" v="Sorbmeluoppal" />
		<tag k="natural" v="water" />
		<tag k="ssr:stedsnr" v="820411" />
		<tag k="water" v="lake" />
	</node>
	<node lat="69.04266666749182" lon="23.135083235792397" id="-57710">
		<tag k="name" v="Guosmmarvuohppi" />
		<tag k="name:se" v="Guosmmarvuohppi" />
		<tag k="natural" v="bay" />
		<tag k="ssr:stedsnr" v="820582" />
	</node>
	<node lat="68.9240277788593" lon="23.091880454357444" id="-57712">
		<tag k="name" v="Sáttogáddi" />
		<tag k="name:se" v="Sáttogáddi" />
		<tag k="natural" v="beach" />
		<tag k="ssr:stedsnr" v="836106" />
	</node>
	<node lat="68.78721111367078" lon="23.311749880145683" id="-57714">
		<tag k="name" v="Njuikunluoppal" />
		<tag k="name:se" v="Njuikunluoppal" />
		<tag k="natural" v="water" />
		<tag k="ssr:stedsnr" v="836413" />
	</node>
	<node lat="69.12922222676622" lon="23.30138045546803" id="-57715">
		<tag k="name" v="Roavotvuohpenjárga" />
		<tag k="name:se" v="Roavotvuohpenjárga" />
		<tag k="natural" v="cape" />
		<tag k="ssr:stedsnr" v="836587" />
	</node>
	<node lat="69.39091666972753" lon="23.575299892425697" id="-57720">
		<tag k="name" v="Gumppejávri" />
		<tag k="name:se" v="Gumppejávri" />
		<tag k="natural" v="water" />
		<tag k="ssr:stedsnr" v="836990" />
	</node>
	<node lat="68.74666945294446" lon="23.170811000136908" id="-57724">
		<tag k="name" v="Guohcaluoppal" />
		<tag k="name:se" v="Guohcaluoppal" />
		<tag k="natural" v="water" />
		<tag k="old_name:se" v="Guvccaluobbal" />
		<tag k="ssr:stedsnr" v="928035" />
		<tag k="water" v="lake" />
	</node>
	<node lat="68.86985278469432" lon="22.57529992145566" id="-57726">
		<tag k="name" v="Gievdneluoppal" />
		<tag k="name:se" v="Gievdneluoppal" />
		<tag k="natural" v="water" />
		<tag k="old_name:se" v="Gievdneluobbal" />
		<tag k="ssr:stedsnr" v="928074" />
	</node>
	<node lat="69.27211666947785" lon="23.93716375086885" id="-57729">
		<tag k="name" v="Bogejávri" />
		<tag k="name:se" v="Bogejávri" />
		<tag k="natural" v="water" />
		<tag k="old_name:se" v="Bågejavri" />
		<tag k="ssr:stedsnr" v="928220" />
	</node>
	<node lat="69.5438583332871" lon="24.07462486582099" id="-57732">
		<tag k="name" v="Juzeluoppal" />
		<tag k="name:se" v="Juzeluoppal" />
		<tag k="natural" v="water" />
		<tag k="old_name:se" v="Juzeluobbal" />
		<tag k="ssr:stedsnr" v="928272" />
	</node>
	<node lat="69.26398055626308" lon="24.07204152216624" id="-57734">
		<tag k="name" v="Čuđejávri" />
		<tag k="name:se" v="Čuđejávri" />
		<tag k="natural" v="water" />
		<tag k="old_name:se" v="Čuđejavri" />
		<tag k="ssr:stedsnr" v="928298" />
	</node>
	<node lat="69.51060555764047" lon="23.644674882448992" id="-57737">
		<tag k="name" v="Gobbájávri" />
		<tag k="name:se" v="Gobbájávri" />
		<tag k="natural" v="water" />
		<tag k="old_name:se" v="Gåbbajavri" />
		<tag k="ssr:stedsnr" v="928474" />
	</node>
	<node lat="69.21775000477638" lon="23.592391544222764" id="-57739">
		<tag k="name" v="Čáhppesjávri" />
		<tag k="name:se" v="Čáhppesjávri" />
		<tag k="natural" v="water" />
		<tag k="old_name:se" v="Čappesjavri" />
		<tag k="ssr:stedsnr" v="928483" />
	</node>
	<node lat="69.23276666948249" lon="23.741735979804176" id="-57740">
		<tag k="alt_name:se" v="Luorrojávri" />
		<tag k="name" v="Luovvejávri" />
		<tag k="name:se" v="Luovvejávri" />
		<tag k="natural" v="water" />
		<tag k="old_name:se" v="Luovvejavri" />
		<tag k="ssr:stedsnr" v="928487" />
	</node>
	<node lat="69.22647777966452" lon="23.64779153336123" id="-57743">
		<tag k="name" v="Skáidejávri" />
		<tag k="name:se" v="Skáidejávri" />
		<tag k="natural" v="water" />
		<tag k="old_name:se" v="Skaidejavri" />
		<tag k="ssr:stedsnr" v="928497" />
		<tag k="water" v="lake" />
	</node>
	<node lat="69.06055833827956" lon="23.069561017288997" id="-57745">
		<tag k="name" v="Logejávri" />
		<tag k="name:se" v="Logejávri" />
		<tag k="natural" v="water" />
		<tag k="old_name:se" v="Lågejavri" />
		<tag k="ssr:stedsnr" v="928568" />
	</node>
	<node lat="69.0624250043304" lon="23.034841566359045" id="-57746">
		<tag k="name" v="Girstteluhpojávri" />
		<tag k="name:se" v="Girstteluhpojávri" />
		<tag k="natural" v="water" />
		<tag k="old_name:se" v="Girsteluppujavri" />
		<tag k="ssr:stedsnr" v="928571" />
	</node>
	<node lat="69.12619444659232" lon="23.28597489624532" id="-57747">
		<tag k="name" v="Mieronjavvi" />
		<tag k="name:se" v="Mieronjavvi" />
		<tag k="old_name:se" v="Mierunjavvi" />
		<tag k="ssr:stedsnr" v="928528" />
		<tag k="waterway" v="rapids" />
	</node>
	<node lat="69.11781111345114" lon="23.379163780712123" id="-57750">
		<tag k="name" v="Náránašjohka" />
		<tag k="name:se" v="Náránašjohka" />
		<tag k="old_name:se" v="Naranasjåkka" />
		<tag k="ssr:stedsnr" v="928545" />
		<tag k="waterway" v="stream" />
	</node>
	<node lat="69.22338889415086" lon="23.36053600951486" id="-57751">
		<tag k="name" v="Gussajávrrit" />
		<tag k="name:se" v="Gussajávrrit" />
		<tag k="natural" v="water" />
		<tag k="old_name:se" v="Gussajavrit" />
		<tag k="ssr:stedsnr" v="928609" />
	</node>
	<node lat="69.2371166685358" lon="23.26457489369813" id="-57752">
		<tag k="name" v="Bajit Spielgajávri" />
		<tag k="name:se" v="Bajit Spielgajávri" />
		<tag k="natural" v="water" />
		<tag k="old_name:se" v="Spielgajavri, bajit" />
		<tag k="ssr:stedsnr" v="928613" />
		<tag k="water" v="lake" />
	</node>
	<node lat="68.87024168343882" lon="25.34223858303699" id="-57754">
		<tag k="name" v="Vuolit Mohkkejávri" />
		<tag k="name:se" v="Vuolit Mohkkejávri" />
		<tag k="old_name:se" v="Måkkejavri, vuolit" />
		<tag k="place" v="locality" />
		<tag k="ssr:stedsnr" v="928630" />
	</node>
	<node lat="69.169208334819" lon="23.274183236649403" id="-57756">
		<tag k="name" v="Dorskajohka" />
		<tag k="name:se" v="Dorskajohka" />
		<tag k="old_name:se" v="Dårskajåkka" />
		<tag k="ssr:stedsnr" v="928640" />
		<tag k="waterway" v="river" />
	</node>
	<node lat="69.53255833175801" lon="23.394886020193983" id="-57758">
		<tag k="name" v="Sálganoaijogaš" />
		<tag k="name:se" v="Sálganoaijogaš" />
		<tag k="old_name:se" v="Salganoaijågaš" />
		<tag k="ssr:stedsnr" v="928648" />
		<tag k="waterway" v="river" />
	</node>
	<node lat="69.03253889119975" lon="22.955097137463763" id="-57761">
		<tag k="name" v="Guohcajávrrit" />
		<tag k="name:se" v="Guohcajávrrit" />
		<tag k="natural" v="water" />
		<tag k="old_name:se" v="Guoccajavrit" />
		<tag k="ssr:stedsnr" v="928583" />
		<tag k="water" v="lake" />
	</node>
	<node lat="69.03570833323614" lon="23.14524157969786" id="-57763">
		<tag k="name" v="Njukčaskáidi" />
		<tag k="name:se" v="Njukčaskáidi" />
		<tag k="natural" v="cape" />
		<tag k="old_name:se" v="Njukčaskaidi" />
		<tag k="ssr:stedsnr" v="928587" />
	</node>
	<node lat="69.64290277714888" lon="23.541027669726343" id="-57764">
		<tag k="name" v="Biiggáidjávri" />
		<tag k="name:se" v="Biiggáidjávri" />
		<tag k="natural" v="water" />
		<tag k="old_name:se" v="Biigaidjavri" />
		<tag k="ssr:stedsnr" v="928588" />
	</node>
	<node lat="68.77335834272287" lon="24.841749754864935" id="-57766">
		<tag k="name" v="Ealgajohka" />
		<tag k="name:se" v="Ealgajohka" />
		<tag k="old_name:se" v="Ælgajåkka" />
		<tag k="ssr:stedsnr" v="928591" />
		<tag k="waterway" v="river" />
	</node>
	<node lat="69.68014444734429" lon="23.482736014660944" id="-57769">
		<tag k="name" v="Sálleleavššejohka" />
		<tag k="name:se" v="Sálleleavššejohka" />
		<tag k="old_name:se" v="Sallelævšejåkka" />
		<tag k="ssr:stedsnr" v="928596" />
		<tag k="waterway" v="stream" />
	</node>
	<node lat="69.14147500572007" lon="22.784074930409414" id="-57772">
		<tag k="name" v="Govddanjárga" />
		<tag k="name:se" v="Govddanjárga" />
		<tag k="natural" v="cape" />
		<tag k="old_name:se" v="Gåvdanjarga" />
		<tag k="ssr:stedsnr" v="928695" />
	</node>
	<node lat="69.10170277980157" lon="22.79839714462668" id="-57773">
		<tag k="name" v="Miellegáddi" />
		<tag k="name:se" v="Miellegáddi" />
		<tag k="natural" v="beach" />
		<tag k="old_name:se" v="Miellegaddi" />
		<tag k="ssr:stedsnr" v="928721" />
	</node>
	<node lat="68.79596111480511" lon="23.565591539924405" id="-57778">
		<tag k="name" v="Guossasáiva" />
		<tag k="name:se" v="Guossasáiva" />
		<tag k="natural" v="water" />
		<tag k="old_name:se" v="Guossasaiva" />
		<tag k="ssr:stedsnr" v="928733" />
		<tag k="water" v="lake" />
	</node>
	<node lat="68.91867500437455" lon="24.13792482215414" id="-57779">
		<tag k="name" v="Vassejávri" />
		<tag k="name:se" v="Vassejávri" />
		<tag k="natural" v="water" />
		<tag k="old_name:se" v="Vassejavri" />
		<tag k="ssr:stedsnr" v="928774" />
		<tag k="water" v="lake" />
	</node>
	<node lat="68.76080278263734" lon="23.545908203010644" id="-57781">
		<tag k="name" v="Riibe" />
		<tag k="name:se" v="Riibe" />
		<tag k="natural" v="water" />
		<tag k="old_name:se" v="Rii'be" />
		<tag k="ssr:stedsnr" v="928784" />
	</node>
	<node lat="68.96044444988945" lon="24.551824791693054" id="-57782">
		<tag k="name" v="Muorjejávri" />
		<tag k="name:se" v="Muorjejávri" />
		<tag k="natural" v="water" />
		<tag k="old_name:se" v="Muorjejavri" />
		<tag k="ssr:stedsnr" v="928796" />
		<tag k="water" v="lake" />
	</node>
	<node lat="68.81564723046743" lon="24.440341476469413" id="-57783">
		<tag k="name" v="Dávttahanjávri" />
		<tag k="name:se" v="Dávttahanjávri" />
		<tag k="natural" v="water" />
		<tag k="old_name:se" v="Davtahanjavri" />
		<tag k="ssr:stedsnr" v="928798" />
	</node>
	<node lat="68.95202500374904" lon="24.714205345949665" id="-57784">
		<tag k="name" v="Opmojávri" />
		<tag k="name:se" v="Opmojávri" />
		<tag k="natural" v="water" />
		<tag k="old_name:se" v="Åbmujavri" />
		<tag k="ssr:stedsnr" v="928861" />
		<tag k="water" v="lake" />
	</node>
	<node lat="69.37691111212112" lon="23.346949904926362" id="-57785">
		<tag k="name" v="Muvrajohka" />
		<tag k="name:se" v="Muvrajohka" />
		<tag k="old_name:se" v="Muvrajåkka" />
		<tag k="ssr:stedsnr" v="928881" />
		<tag k="waterway" v="river" />
	</node>
	<node lat="69.33068056049157" lon="23.09570268255216" id="-57786">
		<tag k="name" v="Barttašluoppal" />
		<tag k="name:se" v="Barttašluoppal" />
		<tag k="natural" v="water" />
		<tag k="old_name:se" v="Bartašluobbal" />
		<tag k="ssr:stedsnr" v="928894" />
	</node>
	<node lat="68.93029444987855" lon="23.18255266879089" id="-57787">
		<tag k="name" v="Náibesjávri" />
		<tag k="name:se" v="Náibesjávri" />
		<tag k="natural" v="water" />
		<tag k="old_name:se" v="Naibesjavri;Naibesjávri" />
		<tag k="ssr:stedsnr" v="928897" />
		<tag k="water" v="lake" />
	</node>
	<node lat="68.87565556428466" lon="25.179788598261478" id="-57789">
		<tag k="name" v="Gumpegorži" />
		<tag k="name:se" v="Gumpegorži" />
		<tag k="natural" v="waterfall" />
		<tag k="old_name:se" v="Gumpegårži" />
		<tag k="ssr:stedsnr" v="928842" />
	</node>
	<node lat="68.86737500091834" lon="23.25069710463948" id="-57790">
		<tag k="name" v="Coages Jevdešjávri" />
		<tag k="name:se" v="Coages Jevdešjávri" />
		<tag k="natural" v="water" />
		<tag k="old_name:se" v="Jevdešjavri, coages" />
		<tag k="ssr:stedsnr" v="928928" />
		<tag k="water" v="lake" />
	</node>
	<node lat="68.9854055661275" lon="23.83579151976562" id="-57791">
		<tag k="name" v="Biennaroavejohka" />
		<tag k="name:se" v="Biennaroavejohka" />
		<tag k="old_name:se" v="Biennaroavejåkka" />
		<tag k="ssr:stedsnr" v="928946" />
		<tag k="waterway" v="river" />
	</node>
	<node lat="68.80417222206533" lon="22.998961015613705" id="-57793">
		<tag k="name" v="Stáhkkájávri" />
		<tag k="name:se" v="Stáhkkájávri" />
		<tag k="natural" v="water" />
		<tag k="old_name:se" v="Stakkajavri" />
		<tag k="ssr:stedsnr" v="928971" />
	</node>
	<node lat="68.89033889259532" lon="23.982188728994583" id="-57794">
		<tag k="name" v="Báktejohka" />
		<tag k="name:se" v="Báktejohka" />
		<tag k="old_name:se" v="Baktejåkka" />
		<tag k="ssr:stedsnr" v="928977" />
		<tag k="waterway" v="stream" />
	</node>
	<node lat="69.38672222934044" lon="24.085777642291713" id="-57797">
		<tag k="name" v="Guotkojohka" />
		<tag k="name:se" v="Guotkojohka" />
		<tag k="old_name:se" v="Guotkujåkka" />
		<tag k="ssr:stedsnr" v="929254" />
		<tag k="waterway" v="river" />
	</node>
	<node lat="69.42652500788573" lon="24.081927638154454" id="-57798">
		<tag k="name" v="Dápmotjávri" />
		<tag k="name:se" v="Dápmotjávri" />
		<tag k="natural" v="water" />
		<tag k="old_name:se" v="Dabmutjavri" />
		<tag k="ssr:stedsnr" v="929255" />
	</node>
	<node lat="69.11877500413449" lon="24.22589983866088" id="-57799">
		<tag k="name" v="Fielbmajohka" />
		<tag k="name:se" v="Fielbmajohka" />
		<tag k="old_name:se" v="Fielbmajåkka;Fielbmájohka" />
		<tag k="ssr:stedsnr" v="929169" />
		<tag k="waterway" v="river" />
	</node>
	<node lat="69.47318611824925" lon="22.441480486109565" id="-57800">
		<tag k="name" v="Gironjávri" />
		<tag k="name:se" v="Gironjávri" />
		<tag k="natural" v="water" />
		<tag k="old_name:se" v="Girunjavri" />
		<tag k="ssr:stedsnr" v="929767" />
	</node>
	<node lat="69.48727222047292" lon="22.4588804954309" id="-57802">
		<tag k="name" v="Gálggojávri" />
		<tag k="name:se" v="Gálggojávri" />
		<tag k="natural" v="water" />
		<tag k="old_name:se" v="Galgujavri" />
		<tag k="ssr:stedsnr" v="929775" />
		<tag k="water" v="lake" />
	</node>
	<node lat="69.44213333192081" lon="22.331966613869042" id="-57803">
		<tag k="name" v="Ruoššalágojávri" />
		<tag k="name:se" v="Ruoššalágojávri" />
		<tag k="natural" v="water" />
		<tag k="old_name:se" v="Ruoššalagujavri" />
		<tag k="ssr:stedsnr" v="929786" />
	</node>
	<node lat="69.45025555529809" lon="22.348491609156547" id="-57805">
		<tag k="name" v="Ruoššalágojohka" />
		<tag k="name:se" v="Ruoššalágojohka" />
		<tag k="old_name:se" v="Ruoššalagujåkka" />
		<tag k="ssr:stedsnr" v="929791" />
		<tag k="waterway" v="river" />
	</node>
	<node lat="69.39395278209649" lon="23.829066549632767" id="-57808">
		<tag k="name" v="Ballánjohka" />
		<tag k="name:se" v="Ballánjohka" />
		<tag k="old_name:se" v="Ballanjåkka" />
		<tag k="ssr:stedsnr" v="929430" />
		<tag k="waterway" v="stream" />
	</node>
	<node lat="69.54663611880119" lon="23.54624155761509" id="-57810">
		<tag k="name" v="Suolojohka" />
		<tag k="name:se" v="Suolojohka" />
		<tag k="old_name:se" v="Suolujåkka" />
		<tag k="ssr:stedsnr" v="929387" />
		<tag k="waterway" v="stream" />
	</node>
	<node lat="69.36029167043517" lon="23.821622091996336" id="-57812">
		<tag k="name" v="Duolbajohka" />
		<tag k="name:se" v="Duolbajohka" />
		<tag k="old_name:se" v="Duolbajåkka" />
		<tag k="ssr:stedsnr" v="929440" />
		<tag k="waterway" v="stream" />
	</node>
	<node lat="69.30821944930663" lon="23.826313758685213" id="-57813">
		<tag k="name" v="Suotnjonjárga" />
		<tag k="name:se" v="Suotnjonjárga" />
		<tag k="natural" v="cape" />
		<tag k="old_name:se" v="Suodnjunjarga" />
		<tag k="ssr:stedsnr" v="929471" />
	</node>
	<node lat="69.2910277795144" lon="23.472008213787607" id="-57814">
		<tag k="name" v="Rápmasáiva" />
		<tag k="name:se" v="Rápmasáiva" />
		<tag k="natural" v="water" />
		<tag k="old_name:se" v="Rabmasaiva" />
		<tag k="ssr:stedsnr" v="929479" />
	</node>
	<node lat="69.56864166666436" lon="23.70332766852727" id="-57815">
		<tag k="name" v="Gámmečohkajávri" />
		<tag k="name:se" v="Gámmečohkajávri" />
		<tag k="natural" v="water" />
		<tag k="old_name:se" v="Gammečåkkajavri" />
		<tag k="ssr:stedsnr" v="929550" />
	</node>
	<node lat="69.52149444624132" lon="22.91166658091944" id="-57817">
		<tag k="name" v="Biedjojávri" />
		<tag k="name:se" v="Biedjojávri" />
		<tag k="natural" v="water" />
		<tag k="old_name:se" v="Bieddjujavri" />
		<tag k="ssr:stedsnr" v="929666" />
	</node>
	<node lat="69.19661111737537" lon="23.53592487537131" id="-57819">
		<tag k="alt_name:se" v="Riegajávri" />
		<tag k="name" v="Riigajávri" />
		<tag k="name:se" v="Riigajávri" />
		<tag k="natural" v="water" />
		<tag k="old_name:se" v="Riigajavri" />
		<tag k="ssr:stedsnr" v="929523" />
		<tag k="water" v="lake" />
	</node>
	<node lat="69.20406388944029" lon="23.953758201081754" id="-57820">
		<tag k="name" v="Ánttájávri" />
		<tag k="name:se" v="Ánttájávri" />
		<tag k="natural" v="water" />
		<tag k="old_name:se" v="Antajavri" />
		<tag k="ssr:stedsnr" v="929525" />
		<tag k="water" v="lake" />
	</node>
	<node lat="69.6194472197666" lon="22.965536040823103" id="-57824">
		<tag k="name" v="Vuoldejávri" />
		<tag k="name:se" v="Vuoldejávri" />
		<tag k="natural" v="water" />
		<tag k="old_name:se" v="Vuoldejavri" />
		<tag k="ssr:stedsnr" v="929730" />
		<tag k="water" v="lake" />
	</node>
	<node lat="69.5093861117578" lon="22.525849936263466" id="-57825">
		<tag k="name" v="Gálggobogejávri" />
		<tag k="name:se" v="Gálggobogejávri" />
		<tag k="natural" v="water" />
		<tag k="old_name:se" v="Galgubågejavri" />
		<tag k="ssr:stedsnr" v="929802" />
	</node>
	<node lat="69.07938889491466" lon="24.02351372654197" id="-57826">
		<tag k="name" v="Borggahatjávri" />
		<tag k="name:se" v="Borggahatjávri" />
		<tag k="natural" v="water" />
		<tag k="old_name:se" v="Bårgahatjavri" />
		<tag k="ssr:stedsnr" v="929907" />
		<tag k="water" v="lake" />
	</node>
	<node lat="69.29068056175808" lon="22.78202491854291" id="-57828">
		<tag k="name" v="Mihkojávrrit" />
		<tag k="name:se" v="Mihkojávrrit" />
		<tag k="natural" v="water" />
		<tag k="old_name:se" v="Mikkujavrit" />
		<tag k="ssr:stedsnr" v="929961" />
	</node>
	<node lat="69.17293611603036" lon="24.166444272592184" id="-57832">
		<tag k="name" v="Galbasáiva" />
		<tag k="name:se" v="Galbasáiva" />
		<tag k="natural" v="water" />
		<tag k="old_name:se" v="Galbasaiva" />
		<tag k="ssr:stedsnr" v="929983" />
		<tag k="water" v="lake" />
	</node>
	<node lat="69.49586389322458" lon="23.713030445578227" id="-57833">
		<tag k="name" v="Áisarsuolu" />
		<tag k="name:se" v="Áisarsuolu" />
		<tag k="old_name:se" v="Aisarsuolo" />
		<tag k="place" v="islet" />
		<tag k="ssr:stedsnr" v="929926" />
	</node>
	<node lat="69.48566944853496" lon="23.717083217794638" id="-57834">
		<tag k="name" v="Gollesavu" />
		<tag k="name:se" v="Gollesavu" />
		<tag k="natural" v="water" />
		<tag k="old_name:se" v="Gållesavo" />
		<tag k="ssr:stedsnr" v="929937" />
		<tag k="water" v="lake" />
	</node>
	<node lat="69.49703333590777" lon="23.486547103930754" id="-57835">
		<tag k="name" v="Mártinjávri" />
		<tag k="name:se" v="Mártinjávri" />
		<tag k="natural" v="water" />
		<tag k="old_name:se" v="Martinjavri" />
		<tag k="ssr:stedsnr" v="929943" />
	</node>
	<node lat="68.84165833604149" lon="23.121849904681127" id="-57836">
		<tag k="name" v="Goppájávri" />
		<tag k="name:se" v="Goppájávri" />
		<tag k="natural" v="water" />
		<tag k="old_name:se" v="Gåbbajavri" />
		<tag k="ssr:stedsnr" v="867928" />
	</node>
	<node lat="68.84991389163486" lon="22.930880472206297" id="-57837">
		<tag k="name" v="Ruossaluoppal" />
		<tag k="name:se" v="Ruossaluoppal" />
		<tag k="natural" v="water" />
		<tag k="old_name:se" v="Ruossaluobbal" />
		<tag k="ssr:stedsnr" v="867929" />
	</node>
	<node lat="68.83664722925582" lon="23.158138792624133" id="-57838">
		<tag k="name" v="Mohkkejávri" />
		<tag k="name:se" v="Mohkkejávri" />
		<tag k="natural" v="water" />
		<tag k="old_name:se" v="Måkkejavri" />
		<tag k="ssr:stedsnr" v="867931" />
		<tag k="water" v="lake" />
	</node>
	<node lat="68.86661389396149" lon="22.884538802787585" id="-57839">
		<tag k="name" v="Ruktaluoppal" />
		<tag k="name:se" v="Ruktaluoppal" />
		<tag k="natural" v="water" />
		<tag k="old_name:se" v="Ruktaluobbal" />
		<tag k="ssr:stedsnr" v="867941" />
	</node>
	<node lat="68.86687222305055" lon="22.828530458800564" id="-57840">
		<tag k="name" v="Sieđgajávri" />
		<tag k="name:se" v="Sieđgajávri" />
		<tag k="natural" v="water" />
		<tag k="old_name:se" v="Sieđgajavri" />
		<tag k="ssr:stedsnr" v="867942" />
	</node>
	<node lat="68.97900834130556" lon="23.654824886125716" id="-57841">
		<tag k="name" v="Aškkasjohka" />
		<tag k="name:se" v="Aškkasjohka" />
		<tag k="old_name:se" v="Aškasjåkka" />
		<tag k="ssr:stedsnr" v="867949" />
		<tag k="waterway" v="river" />
	</node>
	<node lat="69.32944445002639" lon="24.018347071874665" id="-57843">
		<tag k="name" v="Čuđejohka" />
		<tag k="name:se" v="Čuđejohka" />
		<tag k="old_name:se" v="Čuđejåkka" />
		<tag k="ssr:stedsnr" v="868317" />
		<tag k="waterway" v="river" />
	</node>
	<node lat="68.88297500377419" lon="22.6302915825822" id="-57844">
		<tag k="name" v="Beatnatjávri" />
		<tag k="name:se" v="Beatnatjávri" />
		<tag k="natural" v="water" />
		<tag k="old_name:se" v="Bædnatjavri" />
		<tag k="ssr:stedsnr" v="868072" />
	</node>
</osm>
