<?xml version="1.0" encoding="UTF-8"?>
<osm generator="osmapis" version="0.6">
	<node id="-533136" lat="61.5691833333" lon="6.48356389741">
		<tag k="alt_name" v="Jølster" />
		<tag k="name" v="Jølster kommune" />
		<tag k="ssr:date" v="2019-08-14" />
		<tag k="ssr:gruppe" v="administrativeIndelinger" />
		<tag k="ssr:hovedgruppe" v="offentligAdministrasjon" />
		<tag k="ssr:stedsnr" v="510224" />
		<tag k="ssr:type" v="kommune" />
	</node>
	<node id="-532654" lat="61.5634801977" lon="6.47366678979">
		<tag k="name" v="Viken" />
		<tag k="ssr:date" v="2019-12-13" />
		<tag k="ssr:gruppe" v="veg" />
		<tag k="ssr:hovedgruppe" v="infrastruktur" />
		<tag k="ssr:stedsnr" v="1074271" />
		<tag k="ssr:type" v="adressenavn" />
	</node>
	<node id="-532653" lat="61.5311526251" lon="6.25283027825">
		<tag k="name" v="Hegrenesåsen" />
		<tag k="ssr:date" v="2019-12-13" />
		<tag k="ssr:gruppe" v="veg" />
		<tag k="ssr:hovedgruppe" v="infrastruktur" />
		<tag k="ssr:stedsnr" v="1074270" />
		<tag k="ssr:type" v="adressenavn" />
	</node>
	<node id="-532652" lat="61.5308575922" lon="6.24043804776">
		<tag k="name" v="Hegrenesvegen" />
		<tag k="ssr:date" v="2019-12-13" />
		<tag k="ssr:gruppe" v="veg" />
		<tag k="ssr:hovedgruppe" v="infrastruktur" />
		<tag k="ssr:stedsnr" v="1074267" />
		<tag k="ssr:type" v="adressenavn" />
	</node>
	<node id="-532651" lat="61.5713430551" lon="6.48018547197">
		<tag k="name" v="Kjøsnesfjordvegen" />
		<tag k="ssr:date" v="2019-12-13" />
		<tag k="ssr:gruppe" v="veg" />
		<tag k="ssr:hovedgruppe" v="infrastruktur" />
		<tag k="ssr:stedsnr" v="1074264" />
		<tag k="ssr:type" v="adressenavn" />
	</node>
	<node id="-532650" lat="61.5321952052" lon="6.23330077123">
		<tag k="name" v="Ålhusvegen" />
		<tag k="ssr:date" v="2019-12-13" />
		<tag k="ssr:gruppe" v="veg" />
		<tag k="ssr:hovedgruppe" v="infrastruktur" />
		<tag k="ssr:stedsnr" v="1074259" />
		<tag k="ssr:type" v="adressenavn" />
	</node>
	<node id="-533704" lat="60.8816104596" lon="6.30047518531">
		<tag k="name" v="Vestlandet" />
		<tag k="ssr:date" v="2019-01-06" />
		<tag k="ssr:gruppe" v="administrativeIndelinger" />
		<tag k="ssr:hovedgruppe" v="offentligAdministrasjon" />
		<tag k="ssr:stedsnr" v="974777" />
		<tag k="ssr:type" v="annenAdministrativInndeling" />
	</node>
</osm>
