<?xml version="1.0" encoding="UTF-8"?>
<<<<<<< HEAD
<osm version="0.6" generator="osmapis">
	<node lat="59.43273888786447" lon="10.597408326962759" id="-16807">
		<tag k="fixme" v="consider boundary=protected_area and relevant protect_class if not nature reserve" />
		<tag k="leisure" v="nature_reserve" />
		<tag k="name" v="Søndre Jeløy naturreservat" />
		<tag k="ssr:stedsnr" v="295904" />
	</node>
	<node lat="59.4021722239367" lon="10.665019452007817" id="-16856">
		<tag k="fixme" v="consider boundary=protected_area and relevant protect_class if not nature reserve" />
		<tag k="leisure" v="nature_reserve" />
		<tag k="name" v="Bogslunden naturreservat" />
		<tag k="ssr:stedsnr" v="477935" />
	</node>
	<node lat="59.46005833133052" lon="10.66311944141205" id="-16983">
		<tag k="fixme" v="consider boundary=protected_area and relevant protect_class if not nature reserve" />
		<tag k="leisure" v="nature_reserve" />
		<tag k="name" v="Eggholmen (Kjeholmen) naturreservat" />
		<tag k="ssr:stedsnr" v="659883" />
	</node>
	<node lat="59.353319447337654" lon="10.676891675264862" id="-17096">
=======
<osm generator="osmapis" version="0.6">
	<node id="-217279" lat="59.4514450461" lon="10.6392068223">
		<tag k="fixme" v="consider boundary=protected_area and relevant protect_class if not nature reserve" />
		<tag k="leisure" v="nature_reserve" />
		<tag k="name" v="Orkerødskogen naturreservat" />
		<tag k="ssr:stedsnr" v="985573" />
	</node>
	<node id="-216766" lat="59.3169305533" lon="10.6512222143">
		<tag k="fixme" v="consider boundary=protected_area and relevant protect_class if not nature reserve" />
		<tag k="leisure" v="nature_reserve" />
		<tag k="name" v="Eldøya naturreservat" />
		<tag k="ssr:stedsnr" v="906624" />
	</node>
	<node id="-216477" lat="59.4021722239" lon="10.665019452">
		<tag k="fixme" v="consider boundary=protected_area and relevant protect_class if not nature reserve" />
		<tag k="leisure" v="nature_reserve" />
		<tag k="name" v="Bogslunden naturreservat" />
		<tag k="ssr:stedsnr" v="477935" />
	</node>
	<node id="-216732" lat="59.3533194473" lon="10.6768916753">
>>>>>>> e1d4bc35ff8a6074a6f2e91616a996b547c36f15
		<tag k="fixme" v="consider boundary=protected_area and relevant protect_class if not nature reserve" />
		<tag k="leisure" v="nature_reserve" />
		<tag k="name" v="Vardåsen naturreservat" />
		<tag k="ssr:stedsnr" v="842207" />
	</node>
<<<<<<< HEAD
	<node lat="59.3412888888154" lon="10.737508339926631" id="-17131">
=======
	<node id="-216757" lat="59.3412888888" lon="10.7375083399">
>>>>>>> e1d4bc35ff8a6074a6f2e91616a996b547c36f15
		<tag k="fixme" v="consider boundary=protected_area and relevant protect_class if not nature reserve" />
		<tag k="leisure" v="nature_reserve" />
		<tag k="name" v="Kurefjorden naturreservat" />
		<tag k="ssr:stedsnr" v="903018" />
	</node>
<<<<<<< HEAD
	<node lat="59.316930553336334" lon="10.651222214318247" id="-17145">
=======
	<node id="-216434" lat="59.4101377859" lon="10.7286273151">
>>>>>>> e1d4bc35ff8a6074a6f2e91616a996b547c36f15
		<tag k="fixme" v="consider boundary=protected_area and relevant protect_class if not nature reserve" />
		<tag k="leisure" v="nature_reserve" />
		<tag k="name" v="Eldøya naturreservat" />
		<tag k="ssr:stedsnr" v="906624" />
	</node>
<<<<<<< HEAD
	<node lat="59.29985833527349" lon="10.686658341394695" id="-17195">
=======
	<node id="-216814" lat="59.2998583353" lon="10.6866583414">
>>>>>>> e1d4bc35ff8a6074a6f2e91616a996b547c36f15
		<tag k="alt_name" v="Elødøya-Sletter naturreservat" />
		<tag k="fixme" v="consider boundary=protected_area and relevant protect_class if not nature reserve" />
		<tag k="leisure" v="nature_reserve" />
		<tag k="name" v="Eldøya-Sletter naturreservat" />
		<tag k="ssr:stedsnr" v="52094" />
	</node>
<<<<<<< HEAD
	<node lat="59.36487222664658" lon="10.678800003904337" id="-17264">
=======
	<node id="-216429" lat="59.4327388879" lon="10.597408327">
		<tag k="fixme" v="consider boundary=protected_area and relevant protect_class if not nature reserve" />
		<tag k="leisure" v="nature_reserve" />
		<tag k="name" v="Søndre Jeløy naturreservat" />
		<tag k="ssr:stedsnr" v="295904" />
	</node>
	<node id="-216651" lat="59.4600583313" lon="10.6631194414">
>>>>>>> e1d4bc35ff8a6074a6f2e91616a996b547c36f15
		<tag k="fixme" v="consider boundary=protected_area and relevant protect_class if not nature reserve" />
		<tag k="leisure" v="nature_reserve" />
		<tag k="name" v="Eggholmen (Kjeholmen) naturreservat" />
		<tag k="ssr:stedsnr" v="659883" />
	</node>
<<<<<<< HEAD
	<node lat="59.41013778591449" lon="10.728627315136912" id="-17302">
=======
	<node id="-217227" lat="59.3880305581" lon="10.670208341">
>>>>>>> e1d4bc35ff8a6074a6f2e91616a996b547c36f15
		<tag k="fixme" v="consider boundary=protected_area and relevant protect_class if not nature reserve" />
		<tag k="leisure" v="nature_reserve" />
		<tag k="name" v="Vestre Vansjø naturreservat" />
		<tag k="ssr:stedsnr" v="296093" />
	</node>
<<<<<<< HEAD
	<node lat="59.468947220698" lon="10.629791665062477" id="-17366">
=======
	<node id="-216515" lat="59.4689472207" lon="10.6297916651">
>>>>>>> e1d4bc35ff8a6074a6f2e91616a996b547c36f15
		<tag k="fixme" v="consider boundary=protected_area and relevant protect_class if not nature reserve" />
		<tag k="leisure" v="nature_reserve" />
		<tag k="name" v="Rambergbukta naturreservat" />
		<tag k="ssr:stedsnr" v="416827" />
	</node>
<<<<<<< HEAD
	<node lat="59.38803055807714" lon="10.670208341014138" id="-17554">
		<tag k="fixme" v="consider boundary=protected_area and relevant protect_class if not nature reserve" />
		<tag k="leisure" v="nature_reserve" />
		<tag k="name" v="Telemarkslund naturreservat" />
		<tag k="ssr:stedsnr" v="842943" />
	</node>
	<node lat="59.45144504612086" lon="10.639206822284445" id="-17608">
		<tag k="fixme" v="consider boundary=protected_area and relevant protect_class if not nature reserve" />
		<tag k="leisure" v="nature_reserve" />
		<tag k="name" v="Orkerødskogen naturreservat" />
		<tag k="ssr:stedsnr" v="985573" />
	</node>
	<node lat="59.421199751203034" lon="10.591388868767813" id="-17641">
		<tag k="fixme" v="consider boundary=protected_area and relevant protect_class if not nature reserve" />
		<tag k="leisure" v="nature_reserve" />
		<tag k="name" v="Rødsåsen naturreservat" />
		<tag k="ssr:stedsnr" v="1079488" />
	</node>
	<node lat="59.42901060965568" lon="10.602968839181143" id="-17642">
		<tag k="fixme" v="consider boundary=protected_area and relevant protect_class if not nature reserve" />
		<tag k="leisure" v="nature_reserve" />
		<tag k="name" v="Grønliparken naturreservat" />
		<tag k="ssr:stedsnr" v="1079566" />
=======
	<node id="-216907" lat="59.3648722266" lon="10.6788000039">
		<tag k="fixme" v="consider boundary=protected_area and relevant protect_class if not nature reserve" />
		<tag k="leisure" v="nature_reserve" />
		<tag k="name" v="Kajalunden naturreservat" />
		<tag k="ssr:stedsnr" v="174046" />
>>>>>>> e1d4bc35ff8a6074a6f2e91616a996b547c36f15
	</node>
</osm>
