<?xml version="1.0" encoding="UTF-8"?>
<osm version="0.6" generator="osmapis">
	<node lat="59.438841668050514" lon="10.6646888876571" id="-12679">
		<tag k="name" v="Mosseelva" />
		<tag k="ssr:stedsnr" v="2995" />
		<tag k="waterway" v="river" />
	</node>
	<node lat="59.437405558983286" lon="10.622438888401446" id="-12684">
		<tag k="name" v="Refsnesila" />
		<tag k="natural" v="spring" />
		<tag k="ssr:stedsnr" v="234899" />
	</node>
	<node lat="59.496925001577495" lon="10.661205562023927" id="-12685">
		<tag k="name" v="Kongshavntjern" />
		<tag k="natural" v="water" />
		<tag k="ssr:stedsnr" v="234872" />
	</node>
	<node lat="59.43487500039125" lon="10.749658330357125" id="-12716">
		<tag k="name" v="Mossebukta" />
		<tag k="natural" v="bay" />
		<tag k="ssr:stedsnr" v="53912" />
	</node>
	<node lat="59.3968944461347" lon="10.808500008181682" id="-12720">
		<tag k="name" v="Bjørnepanna" />
		<tag k="place" v="islet" />
		<tag k="ssr:stedsnr" v="54723" />
	</node>
	<node lat="59.458524998949436" lon="10.676172217433244" id="-12722">
		<tag k="name" v="Molbekktjernet" />
		<tag k="natural" v="water" />
		<tag k="ssr:stedsnr" v="240273" />
	</node>
	<node lat="59.38721666771556" lon="10.855947216039265" id="-12724">
		<tag k="alt_name" v="Vannsjø" />
		<tag k="name" v="Vansjø" />
		<tag k="natural" v="water" />
		<tag k="ssr:stedsnr" v="63316" />
		<tag k="water" v="lake" />
	</node>
	<node lat="59.44044495205073" lon="10.749426514631422" id="-12733">
		<tag k="alt_name" v="Vannumfjorden" />
		<tag k="name" v="Vannemfjorden" />
		<tag k="natural" v="bay" />
		<tag k="ssr:stedsnr" v="245357" />
	</node>
	<node lat="59.34503333171475" lon="10.757186104434686" id="-12750">
		<tag k="name" v="Molvikbekken" />
		<tag k="ssr:stedsnr" v="114009" />
		<tag k="waterway" v="stream" />
	</node>
	<node lat="59.43033332884194" lon="10.694136115826902" id="-12753">
		<tag k="name" v="Vepsen" />
		<tag k="natural" v="cape" />
		<tag k="ssr:stedsnr" v="114019" />
	</node>
	<node lat="59.41605555769166" lon="10.770450002155245" id="-12768">
		<tag k="name" v="Kjellerødtangen" />
		<tag k="natural" v="cape" />
		<tag k="ssr:stedsnr" v="115714" />
	</node>
	<node lat="59.47271388659347" lon="10.695958329713084" id="-12781">
		<tag k="name" v="Kambobekken" />
		<tag k="ssr:stedsnr" v="173761" />
		<tag k="waterway" v="stream" />
	</node>
	<node lat="59.426027777456994" lon="10.699861105337547" id="-12790">
		<tag k="name" v="Hananbukta" />
		<tag k="natural" v="bay" />
		<tag k="ssr:stedsnr" v="175060" />
	</node>
	<node lat="59.41692499588936" lon="10.768505553307623" id="-12793">
		<tag k="name" v="Badefjellet" />
		<tag k="natural" v="cape" />
		<tag k="ssr:stedsnr" v="175755" />
	</node>
	<node lat="59.37183055605409" lon="10.674250007654521" id="-12811">
		<tag k="name" v="Evjeåa" />
		<tag k="ssr:stedsnr" v="235102" />
		<tag k="waterway" v="stream" />
	</node>
	<node lat="59.38252221864003" lon="10.685077785265216" id="-12818">
		<tag k="name" v="Vangsbekken" />
		<tag k="ssr:stedsnr" v="235928" />
		<tag k="waterway" v="stream" />
	</node>
	<node lat="59.34134166527315" lon="10.686325003965862" id="-12837">
		<tag k="name" v="Støtvikbekken" />
		<tag k="ssr:stedsnr" v="296185" />
		<tag k="waterway" v="stream" />
	</node>
	<node lat="59.39880833632086" lon="10.741105557928268" id="-12840">
		<tag k="name" v="Støabukta" />
		<tag k="natural" v="bay" />
		<tag k="ssr:stedsnr" v="297789" />
	</node>
	<node lat="59.350494447540065" lon="10.755058324971527" id="-12870">
		<tag k="name" v="Rosnesbekken" />
		<tag k="ssr:stedsnr" v="357050" />
		<tag k="waterway" v="stream" />
	</node>
	<node lat="59.37356111066476" lon="10.734988886076819" id="-12871">
		<tag k="name" v="Kureåa" />
		<tag k="ssr:stedsnr" v="357071" />
		<tag k="waterway" v="stream" />
	</node>
	<node lat="59.438783329609315" lon="10.681755556169376" id="-12877">
		<tag k="name" v="Tollertangen" />
		<tag k="natural" v="cape" />
		<tag k="ssr:stedsnr" v="476600" />
	</node>
	<node lat="59.349016666321" lon="10.678733324987432" id="-12899">
		<tag k="name" v="Botnertjernet" />
		<tag k="natural" v="water" />
		<tag k="ssr:stedsnr" v="366597" />
	</node>
	<node lat="59.461844444064305" lon="10.765363889805727" id="-12919">
		<tag k="alt_name" v="Rødsund" />
		<tag k="name" v="Rødsundet" />
		<tag k="natural" v="strait" />
		<tag k="ssr:stedsnr" v="487767" />
	</node>
	<node lat="59.454163889456304" lon="10.763886116709779" id="-12926">
		<tag k="name" v="Gashustangen" />
		<tag k="natural" v="cape" />
		<tag k="ssr:stedsnr" v="417213" />
	</node>
	<node lat="59.39503889104272" lon="10.803680553299374" id="-12935">
		<tag k="name" v="Kuskjær" />
		<tag k="place" v="islet" />
		<tag k="ssr:stedsnr" v="418696" />
	</node>
	<node lat="59.408002781230394" lon="10.739919443389496" id="-12936">
		<tag k="name" v="Prestholmen" />
		<tag k="natural" v="cape" />
		<tag k="ssr:stedsnr" v="418836" />
	</node>
	<node lat="59.39642777650513" lon="10.812149997665292" id="-12939">
		<tag k="name" v="Bjørnøya" />
		<tag k="place" v="islet" />
		<tag k="ssr:stedsnr" v="427326" />
	</node>
	<node lat="59.392733334014856" lon="10.692891673489067" id="-12971">
		<tag k="name" v="Løkenbekken" />
		<tag k="ssr:stedsnr" v="538908" />
		<tag k="waterway" v="stream" />
	</node>
	<node lat="59.42997221955534" lon="10.690202774721527" id="-12995">
		<tag k="name" v="Flua" />
		<tag k="natural" v="cape" />
		<tag k="ssr:stedsnr" v="599012" />
	</node>
	<node lat="59.40026667027451" lon="10.769627780039766" id="-13020">
		<tag k="name" v="Huggenesbekken" />
		<tag k="ssr:stedsnr" v="660772" />
		<tag k="waterway" v="stream" />
	</node>
	<node lat="59.32165277905778" lon="10.648549994874001" id="-13032">
		<tag k="alt_name" v="Eløydammen" />
		<tag k="name" v="Eldøydammen" />
		<tag k="natural" v="water" />
		<tag k="ssr:stedsnr" v="720119" />
	</node>
	<node lat="59.40815325641845" lon="10.728384533134978" id="-13040">
		<tag k="name" v="Feøya" />
		<tag k="place" v="island" />
		<tag k="ssr:stedsnr" v="730318" />
	</node>
	<node lat="59.481383335677016" lon="10.782838885113916" id="-13046">
		<tag k="name" v="Lødengfjorden" />
		<tag k="natural" v="bay" />
		<tag k="ssr:stedsnr" v="731657" />
	</node>
	<node lat="59.413124999556246" lon="10.746508335415234" id="-13048">
		<tag k="name" v="Ospeholmen" />
		<tag k="place" v="islet" />
		<tag k="ssr:stedsnr" v="901875" />
	</node>
	<node lat="59.40941388975717" lon="10.746688896012248" id="-13049">
		<tag k="name" v="Bjørkeholmen" />
		<tag k="place" v="islet" />
		<tag k="ssr:stedsnr" v="901882" />
	</node>
	<node lat="59.41166111406661" lon="10.749269438279685" id="-13050">
		<tag k="name" v="Vierholmen" />
		<tag k="place" v="islet" />
		<tag k="ssr:stedsnr" v="901883" />
	</node>
	<node lat="59.433922218906666" lon="10.678516673255634" id="-13058">
		<tag k="name" v="Gjeddeholmen" />
		<tag k="place" v="islet" />
		<tag k="ssr:stedsnr" v="902881" />
	</node>
	<node lat="59.405366669549565" lon="10.739575008454356" id="-13069">
		<tag k="name" v="Feøytangen" />
		<tag k="natural" v="cape" />
		<tag k="ssr:stedsnr" v="904842" />
	</node>
	<node lat="59.433727774068636" lon="10.722938880444302" id="-13074">
		<tag k="name" v="Ridderspranget" />
		<tag k="natural" v="strait" />
		<tag k="ssr:stedsnr" v="780859" />
	</node>
	<node lat="59.429622222465845" lon="10.699194449671072" id="-13075">
		<tag k="name" v="Nedre Vrangen" />
		<tag k="natural" v="strait" />
		<tag k="ssr:stedsnr" v="781022" />
	</node>
	<node lat="59.40716110680609" lon="10.755222225878308" id="-13086">
		<tag k="name" v="Kjellerødbukta" />
		<tag k="natural" v="bay" />
		<tag k="ssr:stedsnr" v="782821" />
	</node>
	<node lat="59.41762222269029" lon="10.748133328513514" id="-13093">
		<tag k="alt_name" v="Sarpetangen" />
		<tag k="name" v="Sørpetangen" />
		<tag k="natural" v="cape" />
		<tag k="ssr:stedsnr" v="791318" />
	</node>
	<node lat="59.44951389166218" lon="10.709344438760397" id="-13104">
		<tag k="name" v="Noretjernet" />
		<tag k="natural" v="water" />
		<tag k="ssr:stedsnr" v="912949" />
	</node>
	<node lat="59.447858332813226" lon="10.701538887814422" id="-13119">
		<tag k="name" v="Patterødtjernet" />
		<tag k="natural" v="water" />
		<tag k="ssr:stedsnr" v="842176" />
	</node>
	<node lat="59.42003055859284" lon="10.743233327605468" id="-13126">
		<tag k="name" v="Sørpebukta" />
		<tag k="natural" v="bay" />
		<tag k="ssr:stedsnr" v="842298" />
	</node>
	<node lat="59.4349722185626" lon="10.720022220356888" id="-13130">
		<tag k="name" v="Krokbukta" />
		<tag k="natural" v="bay" />
		<tag k="ssr:stedsnr" v="842899" />
	</node>
	<node lat="59.41535833444885" lon="10.717966658570523" id="-13149">
		<tag k="alt_name" v="Sildeholmen" />
		<tag k="name" v="Store Sileholmen" />
		<tag k="place" v="islet" />
		<tag k="ssr:stedsnr" v="852967" />
	</node>
	<node lat="59.474494448654426" lon="10.626511117796733" id="-13161">
		<tag k="name" v="Sørstranda" />
		<tag k="natural" v="beach" />
		<tag k="ssr:stedsnr" v="902811" />
	</node>
	<node lat="59.43558055511368" lon="10.72491943850198" id="-13162">
		<tag k="name" v="Norebukta" />
		<tag k="natural" v="bay" />
		<tag k="ssr:stedsnr" v="902911" />
	</node>
	<node lat="59.398825002499784" lon="10.80662778077362" id="-13168">
		<tag k="name" v="Langverpbukta" />
		<tag k="natural" v="bay" />
		<tag k="ssr:stedsnr" v="904700" />
	</node>
	<node lat="59.42380833275658" lon="10.700594446600514" id="-13196">
		<tag k="name" v="Hedenskapet" />
		<tag k="natural" v="bay" />
		<tag k="ssr:stedsnr" v="964088" />
	</node>
	<node lat="59.419099995690196" lon="10.760716668445678" id="-13207">
		<tag k="alt_name" v="Lille Kvernøy" />
		<tag k="name" v="Lille Kvernøya" />
		<tag k="place" v="islet" />
		<tag k="ssr:stedsnr" v="2358" />
	</node>
	<node lat="59.415222217787075" lon="10.746283333376896" id="-13224">
		<tag k="name" v="Katthuet" />
		<tag k="place" v="islet" />
		<tag k="ssr:stedsnr" v="52876" />
	</node>
	<node lat="59.358252777192114" lon="10.695538883837381" id="-13226">
		<tag k="name" v="Opstadbekken" />
		<tag k="ssr:stedsnr" v="53037" />
		<tag k="waterway" v="stream" />
	</node>
	<node lat="59.43158055912409" lon="10.713608325581449" id="-13227">
		<tag k="name" v="Båten" />
		<tag k="natural" v="cape" />
		<tag k="ssr:stedsnr" v="53041" />
	</node>
	<node lat="59.42675833349585" lon="10.685883334452559" id="-13261">
		<tag k="name" v="Ørebukta" />
		<tag k="natural" v="bay" />
		<tag k="ssr:stedsnr" v="113062" />
	</node>
	<node lat="59.39438055391269" lon="10.798080553639346" id="-13271">
		<tag k="name" v="Burøya" />
		<tag k="place" v="islet" />
		<tag k="ssr:stedsnr" v="115688" />
	</node>
	<node lat="59.39554528366552" lon="10.802830337397976" id="-13272">
		<tag k="name" v="Fredskjærkilen" />
		<tag k="natural" v="bay" />
		<tag k="ssr:stedsnr" v="115689" />
	</node>
	<node lat="59.4636222208904" lon="10.732261108562772" id="-13283">
		<tag k="alt_name" v="Vanemtjernet" />
		<tag k="name" v="Vannemtjernet" />
		<tag k="natural" v="water" />
		<tag k="ssr:stedsnr" v="123744" />
	</node>
	<node lat="59.44650555411844" lon="10.755761119762294" id="-13295">
		<tag k="name" v="Bjørketangen" />
		<tag k="natural" v="cape" />
		<tag k="ssr:stedsnr" v="174241" />
	</node>
	<node lat="59.43176666508231" lon="10.76051110748219" id="-13311">
		<tag k="name" v="Dillingøya" />
		<tag k="place" v="island" />
		<tag k="ssr:stedsnr" v="184354" />
	</node>
	<node lat="59.456372224024285" lon="10.672572218616049" id="-13318">
		<tag k="name" v="Molbekkoset" />
		<tag k="natural" v="bay" />
		<tag k="ssr:stedsnr" v="187883" />
	</node>
	<node lat="59.42960278072549" lon="10.70811388894698" id="-13329">
		<tag k="name" v="Øvre Vrangen" />
		<tag k="natural" v="strait" />
		<tag k="ssr:stedsnr" v="296013" />
	</node>
	<node lat="59.4301638931035" lon="10.729649993708065" id="-13332">
		<tag k="name" v="Grevlingbukta" />
		<tag k="natural" v="bay" />
		<tag k="ssr:stedsnr" v="296059" />
	</node>
	<node lat="59.42892500254282" lon="10.69753888156951" id="-13333">
		<tag k="name" v="Dyna" />
		<tag k="place" v="islet" />
		<tag k="ssr:stedsnr" v="296060" />
	</node>
	<node lat="59.428425002838985" lon="10.73266111736115" id="-13349">
		<tag k="name" v="Årvollfjorden" />
		<tag k="natural" v="bay" />
		<tag k="ssr:stedsnr" v="305364" />
	</node>
	<node lat="59.410655552103364" lon="10.749916666453732" id="-13356">
		<tag k="name" v="Vestfjorden" />
		<tag k="natural" v="water" />
		<tag k="ssr:stedsnr" v="313844" />
	</node>
	<node lat="59.43028055604912" lon="10.737819450196461" id="-13366">
		<tag k="name" v="Årvollfjorden" />
		<tag k="natural" v="water" />
		<tag k="ssr:stedsnr" v="355089" />
	</node>
	<node lat="59.428675000127626" lon="10.698777776495536" id="-13376">
		<tag k="name" v="Puta" />
		<tag k="place" v="islet" />
		<tag k="ssr:stedsnr" v="357082" />
	</node>
	<node lat="59.409358332510884" lon="10.731250005284686" id="-13404">
		<tag k="name" v="Nordbukta" />
		<tag k="natural" v="bay" />
		<tag k="ssr:stedsnr" v="418725" />
	</node>
	<node lat="59.42153611228088" lon="10.7239583332795" id="-13421">
		<tag k="alt_name" v="Fiskeskjær;Brånanskjæra" />
		<tag k="name" v="Silleskjæra" />
		<tag k="place" v="islet" />
		<tag k="ssr:stedsnr" v="537863" />
	</node>
	<node lat="59.36171944516125" lon="10.675336113017845" id="-13430">
		<tag k="name" v="Tjernet" />
		<tag k="natural" v="water" />
		<tag k="ssr:stedsnr" v="539036" />
		<tag k="water" v="pond" />
	</node>
	<node lat="59.43204849219372" lon="10.726599901271575" id="-13444">
		<tag k="name" v="Årvolltangen" />
		<tag k="natural" v="cape" />
		<tag k="ssr:stedsnr" v="548979" />
	</node>
	<node lat="59.41196388996599" lon="10.729780555954157" id="-13461">
		<tag k="name" v="Nesengsundet" />
		<tag k="natural" v="strait" />
		<tag k="ssr:stedsnr" v="598871" />
	</node>
	<node lat="59.40048610951614" lon="10.804602770328154" id="-13475">
		<tag k="name" v="Sundtangen" />
		<tag k="natural" v="cape" />
		<tag k="ssr:stedsnr" v="600728" />
	</node>
	<node lat="59.40147500188707" lon="10.73576388464894" id="-13478">
		<tag k="name" v="Grønøy" />
		<tag k="place" v="islet" />
		<tag k="ssr:stedsnr" v="600738" />
	</node>
	<node lat="59.3821222226356" lon="10.721183335554613" id="-13507">
		<tag k="name" v="Bjølsenbekken" />
		<tag k="ssr:stedsnr" v="660709" />
		<tag k="waterway" v="stream" />
	</node>
	<node lat="59.39215000232419" lon="10.793013892103954" id="-13508">
		<tag k="name" v="Kapteinbekken" />
		<tag k="ssr:stedsnr" v="660717" />
		<tag k="waterway" v="stream" />
	</node>
	<node lat="59.42811944101941" lon="10.725950007012685" id="-13533">
		<tag k="name" v="Sandbukta" />
		<tag k="natural" v="bay" />
		<tag k="ssr:stedsnr" v="721057" />
	</node>
	<node lat="59.40757222476496" lon="10.725822224186242" id="-13543">
		<tag k="name" v="Fiulstadsundet" />
		<tag k="natural" v="strait" />
		<tag k="ssr:stedsnr" v="721824" />
	</node>
	<node lat="59.42339166392156" lon="10.76559444060493" id="-13545">
		<tag k="alt_name" v="Store Kvernøy" />
		<tag k="name" v="Store Kvernøya" />
		<tag k="place" v="islet" />
		<tag k="ssr:stedsnr" v="730334" />
	</node>
	<node lat="59.40482222016546" lon="10.776663896340857" id="-13568">
		<tag k="name" v="Kilebukta" />
		<tag k="natural" v="bay" />
		<tag k="ssr:stedsnr" v="782829" />
	</node>
	<node lat="59.40291388486897" lon="10.794038896836822" id="-13588">
		<tag k="name" v="Brentetangen" />
		<tag k="natural" v="cape" />
		<tag k="ssr:stedsnr" v="843781" />
	</node>
	<node lat="59.41779999546254" lon="10.719891673653377" id="-13611">
		<tag k="name" v="Lille Silleholmen" />
		<tag k="place" v="islet" />
		<tag k="ssr:stedsnr" v="962882" />
	</node>
	<node lat="59.383511109080146" lon="10.665391665739001" id="-13614">
		<tag k="name" v="Gunnarsbybekken" />
		<tag k="ssr:stedsnr" v="963622" />
		<tag k="waterway" v="stream" />
	</node>
	<node lat="59.409333335984044" lon="10.71199167246583" id="-13621">
		<tag k="name" v="Dramstadbukta" />
		<tag k="natural" v="bay" />
		<tag k="ssr:stedsnr" v="963922" />
	</node>
	<node lat="59.38738333141768" lon="10.791599993311749" id="-13622">
		<tag k="name" v="Fredskjærbekken" />
		<tag k="ssr:stedsnr" v="964026" />
		<tag k="waterway" v="stream" />
	</node>
	<node lat="59.4286722228484" lon="10.698194450750533" id="-13623">
		<tag k="name" v="Lakenet" />
		<tag k="place" v="islet" />
		<tag k="ssr:stedsnr" v="964094" />
	</node>
	<node lat="59.39765277883077" lon="10.805702775503555" id="-13625">
		<tag k="name" v="Langverp" />
		<tag k="natural" v="cape" />
		<tag k="ssr:stedsnr" v="964699" />
	</node>
</osm>
