<?xml version="1.0" encoding="UTF-8"?>
<osm generator="osmapis" version="0.6">
	<node id="-204651" lat="59.4215750003" lon="10.6753666741">
		<tag k="name" v="Rabekk" />
		<tag k="place" v="locality" />
		<tag k="ssr:stedsnr" v="416875" />
	</node>
	<node id="-204159" lat="59.3796361094" lon="10.7224833397">
		<tag k="amenity" v="place_of_worship" />
		<tag k="denomination" v="lutheran" />
		<tag k="name" v="Rygge kirke" />
		<tag k="religion" v="christian" />
		<tag k="ssr:stedsnr" v="670274" />
	</node>
	<node id="-204795" lat="59.3878138864" lon="10.7424611115">
		<tag k="name" v="Askebingen" />
		<tag k="place" v="locality" />
		<tag k="ssr:stedsnr" v="782674" />
	</node>
	<node id="-204282" lat="59.4064472221" lon="10.7588861114">
		<tag k="name" v="Ekebergbingen" />
		<tag k="place" v="locality" />
		<tag k="ssr:stedsnr" v="721839" />
	</node>
	<node id="-204287" lat="59.437405559" lon="10.6224388884">
		<tag k="alt_name" v="Krosser" />
		<tag k="name" v="Bellevue" />
		<tag k="place" v="locality" />
		<tag k="ssr:stedsnr" v="901888" />
	</node>
	<node id="-204792" lat="59.4207722239" lon="10.7075999961">
		<tag k="name" v="Frydenlund" />
		<tag k="place" v="locality" />
		<tag k="ssr:stedsnr" v="782101" />
	</node>
	<node id="-204150" lat="59.4134249966" lon="10.6813249944">
		<tag k="name" v="Løversbakke" />
		<tag k="place" v="locality" />
		<tag k="ssr:stedsnr" v="660165" />
	</node>
	<node id="-204789" lat="59.4089555556" lon="10.6872888907">
		<tag k="amenity" v="community_centre" />
		<tag k="name" v="Hadeland kultursenter" />
		<tag k="ssr:stedsnr" v="781929" />
	</node>
	<node id="-204532" lat="59.4164111137" lon="10.6893000031">
		<tag k="name" v="Myra" />
		<tag k="place" v="locality" />
		<tag k="ssr:stedsnr" v="175125" />
	</node>
	<node id="-204785" lat="59.3532916666" lon="10.6574194487">
		<tag k="name" v="Fantekåken" />
		<tag k="place" v="locality" />
		<tag k="ssr:stedsnr" v="781433" />
	</node>
	<node id="-204654" lat="59.3298277796" lon="10.6646444502">
		<tag k="name" v="Festningen" />
		<tag k="ssr:stedsnr" v="417443" />
		<tag k="tourism" v="attraction" />
	</node>
	<node id="-204109" lat="59.4364329311" lon="10.6372894872">
		<tag k="amenity" v="place_of_worship" />
		<tag k="denomination" v="lutheran" />
		<tag k="fixme" v="multiple name tags, choose one and add the other to alt_name" />
		<tag k="name" v="Jeløy kirke;Jeløy" />
		<tag k="religion" v="christian" />
		<tag k="ssr:stedsnr" v="487953" />
	</node>
	<node id="-204389" lat="59.3943166701" lon="10.7112527752">
		<tag k="name" v="Paradiskroken" />
		<tag k="place" v="locality" />
		<tag k="ssr:stedsnr" v="963919" />
	</node>
	<node id="-204382" lat="59.3756194427" lon="10.6848944489">
		<tag k="name" v="Vestli" />
		<tag k="place" v="locality" />
		<tag k="ssr:stedsnr" v="963119" />
	</node>
	<node id="-204253" lat="59.4351694431" lon="10.6623583348">
		<tag k="amenity" v="place_of_worship" />
		<tag k="denomination" v="lutheran" />
		<tag k="name" v="Moss kirke" />
		<tag k="religion" v="christian" />
		<tag k="ssr:stedsnr" v="876312" />
	</node>
	<node id="-204217" lat="59.4285305598" lon="10.7644916594">
		<tag k="name" v="Hattevik" />
		<tag k="place" v="locality" />
		<tag k="ssr:stedsnr" v="719846" />
	</node>
	<node id="-204237" lat="59.3845805537" lon="10.722927777">
		<tag k="name" v="Torgautsjordet" />
		<tag k="place" v="locality" />
		<tag k="ssr:stedsnr" v="721697" />
	</node>
	<node id="-204489" lat="59.4136194429" lon="10.759838886">
		<tag k="name" v="Bergebingen" />
		<tag k="place" v="locality" />
		<tag k="ssr:stedsnr" v="115716" />
	</node>
	<node id="-204232" lat="59.3634305553" lon="10.7748333271">
		<tag k="name" v="Berget" />
		<tag k="place" v="locality" />
		<tag k="ssr:stedsnr" v="721299" />
	</node>
	<node id="-204231" lat="59.3793861119" lon="10.7265361163">
		<tag k="name" v="Rygge museum" />
		<tag k="ssr:stedsnr" v="721290" />
		<tag k="tourism" v="museum" />
	</node>
	<node id="-204230" lat="59.3725055598" lon="10.6628805497">
		<tag k="name" v="Storhjelm" />
		<tag k="place" v="locality" />
		<tag k="ssr:stedsnr" v="721069" />
	</node>
	<node id="-204484" lat="59.4130027771" lon="10.6594916711">
		<tag k="name" v="Værlevangen" />
		<tag k="place" v="locality" />
		<tag k="ssr:stedsnr" v="114789" />
	</node>
	<node id="-204098" lat="59.402136108" lon="10.7448166703">
		<tag k="name" v="Vaskeberget" />
		<tag k="place" v="locality" />
		<tag k="ssr:stedsnr" v="478846" />
	</node>
	<node id="-204224" lat="59.4380963572" lon="10.7332375094">
		<tag k="name" v="Greven" />
		<tag k="place" v="locality" />
		<tag k="ssr:stedsnr" v="720903" />
	</node>
	<node id="-204222" lat="59.4008222238" lon="10.6602861113">
		<tag k="cemetery" v="grave" />
		<tag k="name" v="Amtmandens grav" />
		<tag k="place" v="locality" />
		<tag k="ssr:stedsnr" v="720585" />
	</node>
	<node id="-204733" lat="59.385861115" lon="10.658780555">
		<tag k="name" v="Finnebingen" />
		<tag k="place" v="locality" />
		<tag k="ssr:stedsnr" v="599107" />
	</node>
	<node id="-204345" lat="59.3271638932" lon="10.7079972289">
		<tag k="name" v="Steinkjelen" />
		<tag k="place" v="locality" />
		<tag k="ssr:stedsnr" v="842407" />
	</node>
	<node id="-204088" lat="59.3815083371" lon="10.7098833392">
		<tag k="amenity" v="community_centre" />
		<tag k="name" v="Noatun" />
		<tag k="ssr:stedsnr" v="477937" />
	</node>
	<node id="-204873" lat="59.4785388858" lon="10.7419222276">
		<tag k="name" v="Kjerringbakk" />
		<tag k="place" v="locality" />
		<tag k="ssr:stedsnr" v="963891" />
	</node>
	<node id="-203998" lat="59.3714527744" lon="10.6524083414">
		<tag k="name" v="Årefjordneset" />
		<tag k="place" v="locality" />
		<tag k="ssr:stedsnr" v="114008" />
	</node>
	<node id="-204338" lat="59.3324194484" lon="10.6508138899">
		<tag k="name" v="Kirkegården" />
		<tag k="place" v="locality" />
		<tag k="ssr:stedsnr" v="842105" />
	</node>
	<node id="-204211" lat="59.4219611142" lon="10.6572333357">
		<tag k="name" v="Kleberget" />
		<tag k="place" v="locality" />
		<tag k="ssr:stedsnr" v="599775" />
	</node>
	<node id="-204680" lat="59.4210999977" lon="10.7270750002">
		<tag k="name" v="Brånan" />
		<tag k="place" v="locality" />
		<tag k="ssr:stedsnr" v="537866" />
	</node>
	<node id="-204712" lat="59.4092916663" lon="10.6862138879">
		<tag k="amenity" v="place_of_worship" />
		<tag k="denomination" v="lutheran" />
		<tag k="name" v="Ekholt kirke" />
		<tag k="religion" v="christian" />
		<tag k="ssr:stedsnr" v="571240" />
	</node>
	<node id="-203938" lat="59.4374666692" lon="10.671622218">
		<tag k="name" v="Myra" />
		<tag k="place" v="locality" />
		<tag k="ssr:stedsnr" v="235035" />
	</node>
	<node id="-204833" lat="59.3336833306" lon="10.6645333299">
		<tag k="name" v="Tollstasjonen" />
		<tag k="place" v="locality" />
		<tag k="ssr:stedsnr" v="842437" />
	</node>
	<node id="-204064" lat="59.4470500021" lon="10.6369055581">
		<tag k="name" v="Orkerød skanse" />
		<tag k="ssr:stedsnr" v="235216" />
		<tag k="tourism" v="attraction" />
	</node>
	<node id="-204031" lat="59.3319888872" lon="10.6529888823">
		<tag k="name" v="Paradis" />
		<tag k="place" v="locality" />
		<tag k="ssr:stedsnr" v="295109" />
	</node>
	<node id="-204182" lat="59.3800583378" lon="10.7246166613">
		<tag k="name" v="Teltebingen" />
		<tag k="place" v="locality" />
		<tag k="ssr:stedsnr" v="478717" />
	</node>
	<node id="-204153" lat="59.4105888924" lon="10.7359999983">
		<tag k="name" v="Gruva" />
		<tag k="place" v="locality" />
		<tag k="ssr:stedsnr" v="660736" />
	</node>
	<node id="-204561" lat="59.3325194411" lon="10.6669194415">
		<tag k="amenity" v="place_of_worship" />
		<tag k="denomination" v="lutheran" />
		<tag k="name" v="Larkollen kirke" />
		<tag k="religion" v="christian" />
		<tag k="ssr:stedsnr" v="208314" />
	</node>
	<node id="-204687" lat="59.3959944463" lon="10.6704777812">
		<tag k="cemetery" v="grave" />
		<tag k="name" v="Søsters hvile" />
		<tag k="place" v="locality" />
		<tag k="ssr:stedsnr" v="538900" />
	</node>
	<node id="-204296" lat="59.3586333331" lon="10.665930548">
		<tag k="name" v="Garnbakken" />
		<tag k="place" v="locality" />
		<tag k="ssr:stedsnr" v="903113" />
	</node>
	<node id="-204822" lat="59.4356750019" lon="10.6937138908">
		<tag k="name" v="Thorbjørnsrød skanse" />
		<tag k="ssr:stedsnr" v="841587" />
		<tag k="tourism" v="attraction" />
	</node>
	<node id="-204523" lat="59.320322223" lon="10.7038416748">
		<tag k="name" v="Hollendersten" />
		<tag k="place" v="locality" />
		<tag k="ssr:stedsnr" v="174447" />
	</node>
</osm>
