<?xml version="1.0" encoding="UTF-8"?>
<osm generator="osmapis" version="0.6">
	<node id="-204288" lat="59.4183333368" lon="10.7283250067">
		<tag k="name" v="Torvmosen" />
		<tag k="natural" v="wetland" />
		<tag k="ssr:stedsnr" v="901890" />
	</node>
	<node id="-204096" lat="59.3920555556" lon="10.8116388867">
		<tag k="name" v="Bjørnemyr" />
		<tag k="natural" v="wetland" />
		<tag k="ssr:stedsnr" v="478734" />
	</node>
	<node id="-204797" lat="59.3991333295" lon="10.794069448">
		<tag k="alt_name" v="Fredskjærskogen østre" />
		<tag k="name" v="Østre Fredskjærskogen" />
		<tag k="place" v="locality" />
		<tag k="ssr:stedsnr" v="782710" />
	</node>
	<node id="-204796" lat="59.3945555586" lon="10.7852333412">
		<tag k="alt_name" v="Fredskjærskogen vestre" />
		<tag k="name" v="Vestre Fredskjærskogen" />
		<tag k="place" v="locality" />
		<tag k="ssr:stedsnr" v="782685" />
	</node>
	<node id="-204793" lat="59.3646416679" lon="10.7631611091">
		<tag k="name" v="Hermannskogen" />
		<tag k="place" v="locality" />
		<tag k="ssr:stedsnr" v="782261" />
	</node>
	<node id="-204152" lat="59.3396749972" lon="10.69855">
		<tag k="alt_name" v="Støtvikskogen" />
		<tag k="name" v="Nedgårdskogen" />
		<tag k="place" v="locality" />
		<tag k="ssr:stedsnr" v="660214" />
	</node>
	<node id="-204791" lat="59.4213694477" lon="10.6997166621">
		<tag k="name" v="Årvollskogen" />
		<tag k="place" v="locality" />
		<tag k="ssr:stedsnr" v="782056" />
	</node>
	<node id="-204277" lat="59.3453166676" lon="10.7025944484">
		<tag k="name" v="Kubberødskogen" />
		<tag k="place" v="locality" />
		<tag k="ssr:stedsnr" v="721167" />
	</node>
	<node id="-204147" lat="59.3731388857" lon="10.699466674">
		<tag k="name" v="Balkeskogen" />
		<tag k="place" v="locality" />
		<tag k="ssr:stedsnr" v="660080" />
	</node>
	<node id="-204526" lat="59.3990027802" lon="10.7053416584">
		<tag k="name" v="Hestehagen" />
		<tag k="place" v="locality" />
		<tag k="ssr:stedsnr" v="174906" />
	</node>
	<node id="-204221" lat="59.3125611094" lon="10.692752782">
		<tag k="name" v="Grefsrødmyra" />
		<tag k="natural" v="wetland" />
		<tag k="ssr:stedsnr" v="720143" />
	</node>
	<node id="-204012" lat="59.417219446" lon="10.6976583254">
		<tag k="name" v="Klostermyra" />
		<tag k="natural" v="wetland" />
		<tag k="ssr:stedsnr" v="115145" />
	</node>
	<node id="-204779" lat="59.3552083355" lon="10.6863972243">
		<tag k="name" v="Dalaskogen" />
		<tag k="place" v="locality" />
		<tag k="ssr:stedsnr" v="781025" />
	</node>
	<node id="-204008" lat="59.3914972217" lon="10.7118833387">
		<tag k="name" v="Kypskjemarka" />
		<tag k="place" v="locality" />
		<tag k="ssr:stedsnr" v="114904" />
	</node>
	<node id="-204519" lat="59.3934333299" lon="10.6530388808">
		<tag k="name" v="Husebyskogen" />
		<tag k="place" v="locality" />
		<tag k="ssr:stedsnr" v="174137" />
	</node>
	<node id="-204262" lat="59.4803611124" lon="10.7609444407">
		<tag k="name" v="Langemyr" />
		<tag k="natural" v="wetland" />
		<tag k="ssr:stedsnr" v="659884" />
	</node>
	<node id="-204004" lat="59.3925583329" lon="10.7423500008">
		<tag k="name" v="Gipsundskogen" />
		<tag k="place" v="locality" />
		<tag k="ssr:stedsnr" v="114031" />
	</node>
	<node id="-204385" lat="59.3431138926" lon="10.6957500009">
		<tag k="name" v="Damsmyr" />
		<tag k="natural" v="wetland" />
		<tag k="ssr:stedsnr" v="963220" />
	</node>
	<node id="-204378" lat="59.3112611109" lon="10.687050005">
		<tag k="name" v="Sørskogen" />
		<tag k="place" v="locality" />
		<tag k="ssr:stedsnr" v="962117" />
	</node>
	<node id="-203964" lat="59.4426694421" lon="10.7288611149">
		<tag k="name" v="Dalemyra" />
		<tag k="natural" v="wetland" />
		<tag k="ssr:stedsnr" v="52567" />
	</node>
	<node id="-204238" lat="59.3960000019" lon="10.7807305598">
		<tag k="name" v="Møkadammyra" />
		<tag k="natural" v="wetland" />
		<tag k="ssr:stedsnr" v="721700" />
	</node>
	<node id="-204236" lat="59.3821749974" lon="10.7422750084">
		<tag k="name" v="Vollskogen" />
		<tag k="place" v="locality" />
		<tag k="ssr:stedsnr" v="721691" />
	</node>
	<node id="-204363" lat="59.4082805584" lon="10.6700055489">
		<tag k="name" v="Dyreskogen" />
		<tag k="place" v="locality" />
		<tag k="ssr:stedsnr" v="902115" />
	</node>
	<node id="-204616" lat="59.397886114" lon="10.7736249959">
		<tag k="name" v="Utneskogen" />
		<tag k="place" v="locality" />
		<tag k="ssr:stedsnr" v="357782" />
	</node>
	<node id="-204300" lat="59.3983499967" lon="10.714644437">
		<tag k="name" v="Såstadskogen" />
		<tag k="place" v="locality" />
		<tag k="ssr:stedsnr" v="903881" />
	</node>
	<node id="-204001" lat="59.3569361119" lon="10.7151222187">
		<tag k="name" v="Krokemyrskogen" />
		<tag k="place" v="locality" />
		<tag k="ssr:stedsnr" v="114011" />
	</node>
	<node id="-204868" lat="59.3626813125" lon="10.6857307036">
		<tag k="name" v="Nyjordet" />
		<tag k="place" v="locality" />
		<tag k="ssr:stedsnr" v="963036" />
	</node>
	<node id="-204875" lat="59.38119722" lon="10.6965416611">
		<tag k="name" v="Tøstadskogen" />
		<tag k="place" v="locality" />
		<tag k="ssr:stedsnr" v="963949" />
	</node>
	<node id="-204480" lat="59.3343305551" lon="10.6791222156">
		<tag k="name" v="Medgårdsskogen" />
		<tag k="place" v="locality" />
		<tag k="ssr:stedsnr" v="114456" />
	</node>
	<node id="-204863" lat="59.4406833288" lon="10.6145722303">
		<tag k="name" v="Tronvikskogen" />
		<tag k="place" v="locality" />
		<tag k="ssr:stedsnr" v="962879" />
	</node>
	<node id="-204349" lat="59.3921222229" lon="10.7500777725">
		<tag k="name" v="Huggenesskogen" />
		<tag k="place" v="locality" />
		<tag k="ssr:stedsnr" v="843811" />
	</node>
	<node id="-204092" lat="59.3450888908" lon="10.6937555544">
		<tag k="name" v="Støtvikskogen" />
		<tag k="place" v="locality" />
		<tag k="ssr:stedsnr" v="478189" />
	</node>
	<node id="-203961" lat="59.3909359817" lon="10.7951050383">
		<tag k="name" v="Fredskjærhagen" />
		<tag k="place" v="locality" />
		<tag k="ssr:stedsnr" v="236701" />
	</node>
	<node id="-204343" lat="59.3490499969" lon="10.668063884">
		<tag k="name" v="Ekelund" />
		<tag k="place" v="locality" />
		<tag k="ssr:stedsnr" v="842211" />
	</node>
	<node id="-203956" lat="59.3646083351" lon="10.7265249948">
		<tag k="name" v="Otterstadskogen" />
		<tag k="place" v="locality" />
		<tag k="ssr:stedsnr" v="236322" />
	</node>
	<node id="-204591" lat="59.3657249968" lon="10.710058337">
		<tag k="name" v="Opstadskogen" />
		<tag k="place" v="locality" />
		<tag k="ssr:stedsnr" v="356093" />
	</node>
	<node id="-204590" lat="59.3683555565" lon="10.694230555">
		<tag k="name" v="Hestehavna" />
		<tag k="place" v="locality" />
		<tag k="ssr:stedsnr" v="356089" />
	</node>
	<node id="-204838" lat="59.426038888" lon="10.6935166705">
		<tag k="name" v="Solliskogen" />
		<tag k="place" v="locality" />
		<tag k="ssr:stedsnr" v="843077" />
	</node>
	<node id="-204709" lat="59.4618333307" lon="10.6815583303">
		<tag k="loc_name" v="Mosseskauen" />
		<tag k="name" v="Mosseskogen" />
		<tag k="place" v="locality" />
		<tag k="ssr:stedsnr" v="548952" />
	</node>
	<node id="-204451" lat="59.4853722257" lon="10.6422916596">
		<tag k="name" v="Nesskogen" />
		<tag k="place" v="locality" />
		<tag k="ssr:stedsnr" v="56629" />
	</node>
	<node id="-204834" lat="59.3963444437" lon="10.6585361083">
		<tag k="name" v="Strandbakkskogen" />
		<tag k="place" v="locality" />
		<tag k="ssr:stedsnr" v="842573" />
	</node>
	<node id="-204065" lat="59.40083889" lon="10.7810722199">
		<tag k="name" v="Myrdamskogen" />
		<tag k="place" v="locality" />
		<tag k="ssr:stedsnr" v="236029" />
	</node>
	<node id="-204191" lat="59.4657083317" lon="10.7369222176">
		<tag k="name" v="Fuglemosen" />
		<tag k="natural" v="wetland" />
		<tag k="ssr:stedsnr" v="538208" />
	</node>
	<node id="-204445" lat="59.3843888925" lon="10.7385333343">
		<tag k="name" v="Haradalen" />
		<tag k="place" v="locality" />
		<tag k="ssr:stedsnr" v="54711" />
	</node>
	<node id="-204865" lat="59.4262888855" lon="10.6273361068">
		<tag k="name" v="Reierskogen" />
		<tag k="place" v="locality" />
		<tag k="ssr:stedsnr" v="962883" />
	</node>
	<node id="-203973" lat="59.3977027789" lon="10.7194555507">
		<tag k="name" v="Såstadskogen" />
		<tag k="place" v="locality" />
		<tag k="ssr:stedsnr" v="54763" />
	</node>
	<node id="-204079" lat="59.4200361079" lon="10.6294694388">
		<tag k="name" v="Bråtenskogen" />
		<tag k="place" v="locality" />
		<tag k="ssr:stedsnr" v="298912" />
	</node>
	<node id="-204311" lat="59.4490166709" lon="10.6554861137">
		<tag k="name" v="Sandgropa" />
		<tag k="natural" v="beach" />
		<tag k="ssr:stedsnr" v="905147" />
		<tag k="surface" v="sand" />
	</node>
	<node id="-204694" lat="59.3755694474" lon="10.7828249919">
		<tag k="name" v="Utgjerdsmyra" />
		<tag k="natural" v="wetland" />
		<tag k="ssr:stedsnr" v="548303" />
	</node>
	<node id="-204052" lat="59.3860638866" lon="10.6925777856">
		<tag k="name" v="Lybyskogen" />
		<tag k="place" v="locality" />
		<tag k="ssr:stedsnr" v="296928" />
	</node>
	<node id="-204690" lat="59.3706249999" lon="10.7185583326">
		<tag k="name" v="Ødegårdskogen" />
		<tag k="place" v="locality" />
		<tag k="ssr:stedsnr" v="539283" />
	</node>
	<node id="-204433" lat="59.3816222198" lon="10.6543833247">
		<tag k="name" v="Gunnarsbyneset" />
		<tag k="place" v="locality" />
		<tag k="ssr:stedsnr" v="53139" />
	</node>
	<node id="-204432" lat="59.3642666705" lon="10.6778388975">
		<tag k="name" v="Kajalunden" />
		<tag k="place" v="locality" />
		<tag k="ssr:stedsnr" v="53045" />
	</node>
	<node id="-204175" lat="59.4274750035" lon="10.746808329">
		<tag k="name" v="Torvstrømosen" />
		<tag k="natural" v="wetland" />
		<tag k="ssr:stedsnr" v="476867" />
	</node>
	<node id="-204814" lat="59.4679565459" lon="10.7248160668">
		<tag k="alt_name" v="Slettmosan;Slettemåsan" />
		<tag k="fixme" v="multiple name tags, choose one and add the other to alt_name" />
		<tag k="name" v="Bikkjemosen;Slettemosen" />
		<tag k="natural" v="wetland" />
		<tag k="ssr:stedsnr" v="791711" />
	</node>
	<node id="-204013" lat="59.407188885" lon="10.7685611074">
		<tag k="name" v="Kjellerødskogen" />
		<tag k="place" v="locality" />
		<tag k="ssr:stedsnr" v="115830" />
	</node>
	<node id="-204428" lat="59.3573083354" lon="10.7010861056">
		<tag k="name" v="Nærumskogen" />
		<tag k="place" v="locality" />
		<tag k="ssr:stedsnr" v="53017" />
	</node>
	<node id="-204041" lat="59.3660027742" lon="10.6676833351">
		<tag k="name" v="Vestskogen" />
		<tag k="place" v="locality" />
		<tag k="ssr:stedsnr" v="296024" />
	</node>
	<node id="-204677" lat="59.4816333365" lon="10.7645055508">
		<tag k="alt_name" v="Enderødmosan" />
		<tag k="name" v="Enderødmosen" />
		<tag k="natural" v="wetland" />
		<tag k="ssr:stedsnr" v="428666" />
	</node>
	<node id="-204737" lat="59.386527774" lon="10.8041444418">
		<tag k="name" v="Stormosen" />
		<tag k="natural" v="wetland" />
		<tag k="ssr:stedsnr" v="599733" />
	</node>
	<node id="-204293" lat="59.4437194449" lon="10.6834111131">
		<tag k="name" v="Tykkemyr" />
		<tag k="natural" v="wetland" />
		<tag k="ssr:stedsnr" v="906902" />
	</node>
</osm>
