<?xml version="1.0" encoding="UTF-8"?>
<osm generator="osmapis" version="0.6">
	<node id="-204800" lat="59.4071611068" lon="10.7552222259">
		<tag k="name" v="Kjellerødbukta" />
		<tag k="natural" v="bay" />
		<tag k="ssr:stedsnr" v="782821" />
	</node>
	<node id="-204799" lat="59.3930527746" lon="10.7597416677">
		<tag k="name" v="Jonsrud" />
		<tag k="place" v="farm" />
		<tag k="ssr:stedsnr" v="782760" />
	</node>
	<node id="-204798" lat="59.3940111105" lon="10.7604777726">
		<tag k="name" v="Nordli" />
		<tag k="place" v="isolated_dwelling" />
		<tag k="ssr:stedsnr" v="782744" />
	</node>
	<node id="-204797" lat="59.3991333295" lon="10.794069448">
		<tag k="alt_name" v="Fredskjærskogen østre" />
		<tag k="name" v="Østre Fredskjærskogen" />
		<tag k="place" v="locality" />
		<tag k="ssr:stedsnr" v="782710" />
	</node>
	<node id="-204796" lat="59.3945555586" lon="10.7852333412">
		<tag k="alt_name" v="Fredskjærskogen vestre" />
		<tag k="name" v="Vestre Fredskjærskogen" />
		<tag k="place" v="locality" />
		<tag k="ssr:stedsnr" v="782685" />
	</node>
	<node id="-204795" lat="59.3878138864" lon="10.7424611115">
		<tag k="name" v="Askebingen" />
		<tag k="place" v="locality" />
		<tag k="ssr:stedsnr" v="782674" />
	</node>
	<node id="-204794" lat="59.3863361147" lon="10.7238444533">
		<tag k="name" v="Søndre Bjølsen" />
		<tag k="place" v="farm" />
		<tag k="ssr:stedsnr" v="782653" />
	</node>
	<node id="-204793" lat="59.3646416679" lon="10.7631611091">
		<tag k="name" v="Hermannskogen" />
		<tag k="place" v="locality" />
		<tag k="ssr:stedsnr" v="782261" />
	</node>
	<node id="-204792" lat="59.4207722239" lon="10.7075999961">
		<tag k="name" v="Frydenlund" />
		<tag k="place" v="locality" />
		<tag k="ssr:stedsnr" v="782101" />
	</node>
	<node id="-204791" lat="59.4213694477" lon="10.6997166621">
		<tag k="name" v="Årvollskogen" />
		<tag k="place" v="locality" />
		<tag k="ssr:stedsnr" v="782056" />
	</node>
	<node id="-204790" lat="59.3627722206" lon="10.7477916753">
		<tag k="alt_name" v="Søndre Roer;Ror søndre;Rør søndre" />
		<tag k="name" v="Søndre Ror" />
		<tag k="old_name" v="Roer, s" />
		<tag k="place" v="farm" />
		<tag k="ssr:stedsnr" v="782007" />
	</node>
	<node id="-204789" lat="59.4089555556" lon="10.6872888907">
		<tag k="amenity" v="community_centre" />
		<tag k="name" v="Hadeland kultursenter" />
		<tag k="ssr:stedsnr" v="781929" />
	</node>
	<node id="-204788" lat="59.4062861118" lon="10.6929527862">
		<tag k="amenity" v="townhall" />
		<tag k="name" v="Rygge rådhus" />
		<tag k="ssr:stedsnr" v="781917" />
	</node>
	<node id="-204787" lat="59.4382583301" lon="10.7322694431">
		<tag k="name" v="Vanemdalen" />
		<tag k="natural" v="valley" />
		<tag k="place" v="locality" />
		<tag k="ssr:stedsnr" v="781898" />
	</node>
	<node id="-204786" lat="59.3281972193" lon="10.7044972187">
		<tag k="highway" v="path" />
		<tag k="name" v="Bølåsveien" />
		<tag k="ssr:stedsnr" v="781436" />
	</node>
	<node id="-204785" lat="59.3532916666" lon="10.6574194487">
		<tag k="name" v="Fantekåken" />
		<tag k="place" v="locality" />
		<tag k="ssr:stedsnr" v="781433" />
	</node>
	<node id="-204784" lat="59.332544444" lon="10.7046805505">
		<tag k="fixme" v="consider natural=peak for the most distinct mountains in the district" />
		<tag k="name" v="Lindeberget" />
		<tag k="natural" v="hill" />
		<tag k="place" v="locality" />
		<tag k="ssr:stedsnr" v="781418" />
	</node>
	<node id="-204783" lat="59.3235500043" lon="10.7027888967">
		<tag k="name" v="Sarpemyr" />
		<tag k="place" v="farm" />
		<tag k="ssr:stedsnr" v="781407" />
	</node>
	<node id="-204782" lat="59.394697219" lon="10.6475361099">
		<tag k="name" v="Baugstangen" />
		<tag k="natural" v="cape" />
		<tag k="ssr:stedsnr" v="781131" />
	</node>
	<node id="-204781" lat="59.3351333372" lon="10.647236119">
		<tag k="name" v="Kollesten" />
		<tag k="natural" v="cape" />
		<tag k="ssr:stedsnr" v="781106" />
	</node>
	<node id="-204780" lat="59.3769694409" lon="10.7100972137">
		<tag k="alt_name" v="Urstad søndre" />
		<tag k="name" v="Søndre Urstad" />
		<tag k="place" v="farm" />
		<tag k="ssr:stedsnr" v="781084" />
	</node>
	<node id="-204779" lat="59.3552083355" lon="10.6863972243">
		<tag k="name" v="Dalaskogen" />
		<tag k="place" v="locality" />
		<tag k="ssr:stedsnr" v="781025" />
	</node>
	<node id="-204778" lat="59.4328666634" lon="10.6864000013">
		<tag k="name" v="Krapfoss" />
		<tag k="place" v="suburb" />
		<tag k="ssr:stedsnr" v="781023" />
	</node>
	<node id="-204777" lat="59.4296222225" lon="10.6991944497">
		<tag k="name" v="Nedre Vrangen" />
		<tag k="natural" v="strait" />
		<tag k="ssr:stedsnr" v="781022" />
	</node>
	<node id="-204776" lat="59.4269527819" lon="10.640888894">
		<tag k="alt_name" v="Sjøly" />
		<tag k="landuse" v="harbour" />
		<tag k="name" v="Søly båthavn" />
		<tag k="seamark:type" v="harbour" />
		<tag k="ssr:stedsnr" v="780875" />
	</node>
	<node id="-204775" lat="59.4314277735" lon="10.6464999966">
		<tag k="name" v="Fiske" />
		<tag k="place" v="suburb" />
		<tag k="ssr:stedsnr" v="780873" />
	</node>
	<node id="-204774" lat="59.4337277741" lon="10.7229388804">
		<tag k="name" v="Ridderspranget" />
		<tag k="natural" v="strait" />
		<tag k="ssr:stedsnr" v="780859" />
	</node>
	<node id="-204773" lat="59.4277000024" lon="10.6691138963">
		<tag k="amenity" v="school" />
		<tag k="name" v="Malakoff videregående skole" />
		<tag k="ssr:stedsnr" v="780077" />
	</node>
	<node id="-204772" lat="59.4836499978" lon="10.6860305606">
		<tag k="alt_name" v="Kulpe" />
		<tag k="name" v="Kulpeholmen" />
		<tag k="place" v="islet" />
		<tag k="ssr:stedsnr" v="756882" />
	</node>
	<node id="-204771" lat="59.3105805594" lon="10.6930416713">
		<tag k="fixme" v="multiple name tags, choose one and add the other to alt_name" />
		<tag k="name" v="Barselbukt;Knutvikbukta" />
		<tag k="natural" v="bay" />
		<tag k="ssr:stedsnr" v="756844" />
	</node>
	<node id="-204770" lat="59.3001361097" lon="10.6985638958">
		<tag k="name" v="Gampen" />
		<tag k="place" v="locality" />
		<tag k="seamark:type" v="rock" />
		<tag k="ssr:stedsnr" v="756783" />
	</node>
	<node id="-204769" lat="59.464783337" lon="10.6993583422">
		<tag k="bridge" v="yes" />
		<tag k="layer" v="1" />
		<tag k="name" v="Nøkkeland øst" />
		<tag k="ssr:stedsnr" v="652575" />
	</node>
	<node id="-204767" lat="59.3117027811" lon="10.7013416667">
		<tag k="name" v="Flata" />
		<tag k="place" v="locality" />
		<tag k="ssr:stedsnr" v="634897" />
	</node>
	<node id="-204766" lat="59.438613891" lon="10.5928722271">
		<tag k="name" v="Hesteberget" />
		<tag k="natural" v="cape" />
		<tag k="ssr:stedsnr" v="634894" />
	</node>
	<node id="-204765" lat="59.3122138882" lon="10.6812444398">
		<tag k="name" v="Oterbukta" />
		<tag k="natural" v="bay" />
		<tag k="ssr:stedsnr" v="634796" />
	</node>
	<node id="-204764" lat="59.3561611096" lon="10.6672333341">
		<tag k="name" v="Klommetangen" />
		<tag k="natural" v="cape" />
		<tag k="ssr:stedsnr" v="631865" />
	</node>
	<node id="-204763" lat="59.3591333357" lon="10.6635388923">
		<tag k="name" v="Tangen" />
		<tag k="natural" v="cape" />
		<tag k="ssr:stedsnr" v="616658" />
	</node>
	<node id="-204762" lat="59.4197027748" lon="10.6450111117">
		<tag k="alt_name" v="Værlen" />
		<tag k="name" v="Verlebukta" />
		<tag k="natural" v="bay" />
		<tag k="ssr:stedsnr" v="609983" />
	</node>
	<node id="-204761" lat="59.5127305552" lon="10.6408472292">
		<tag k="name" v="Bevøya" />
		<tag k="place" v="island" />
		<tag k="ssr:stedsnr" v="609495" />
	</node>
	<node id="-204760" lat="59.5109638847" lon="10.6467500057">
		<tag k="name" v="Bevøysundet" />
		<tag k="natural" v="strait" />
		<tag k="ssr:stedsnr" v="609492" />
	</node>
	<node id="-204759" lat="59.5195000015" lon="10.6068805618">
		<tag k="name" v="Storholmgrunnen" />
		<tag k="natural" v="shoal" />
		<tag k="place" v="locality" />
		<tag k="ssr:stedsnr" v="609486" />
	</node>
	<node id="-204757" lat="59.4061591089" lon="10.6626066619">
		<tag k="name" v="Dyre" />
		<tag k="place" v="hamlet" />
		<tag k="ssr:stedsnr" v="609477" />
	</node>
	<node id="-204756" lat="59.4030861155" lon="10.7076250041">
		<tag k="name" v="Marienlund" />
		<tag k="place" v="farm" />
		<tag k="ssr:stedsnr" v="609475" />
	</node>
	<node id="-204755" lat="59.3699539038" lon="10.7271863295">
		<tag k="fixme" v="consider place=hamlet" />
		<tag k="name" v="Otterstad" />
		<tag k="place" v="farm" />
		<tag k="ssr:stedsnr" v="609263" />
	</node>
	<node id="-204754" lat="59.3336388927" lon="10.7223861084">
		<tag k="fixme" v="consider seamark:type=rock or natural=shoal" />
		<tag k="name" v="Sjuskjær" />
		<tag k="place" v="islet" />
		<tag k="ssr:stedsnr" v="609434" />
	</node>
	<node id="-204753" lat="59.4294805552" lon="10.6542694479">
		<tag k="amenity" v="ferry_terminal" />
		<tag k="name" v="Moss ferjekai" />
		<tag k="ssr:stedsnr" v="605709" />
	</node>
	<node id="-204752" lat="59.4879972249" lon="10.6872055562">
		<tag k="name" v="Dragkisteskuffa" />
		<tag k="natural" v="bay" />
		<tag k="ssr:stedsnr" v="601699" />
	</node>
	<node id="-204751" lat="59.4387388869" lon="10.660733334">
		<tag k="man_made" v="quay" />
		<tag k="name" v="Moss Aktiemøllers kai" />
		<tag k="place" v="locality" />
		<tag k="ssr:stedsnr" v="601196" />
	</node>
	<node id="-204750" lat="59.4253333364" lon="10.6574861112">
		<tag k="man_made" v="quay" />
		<tag k="name" v="Fyllinga" />
		<tag k="place" v="locality" />
		<tag k="ssr:stedsnr" v="601190" />
	</node>
	<node id="-204749" lat="59.4014750019" lon="10.7357638846">
		<tag k="name" v="Grønøy" />
		<tag k="place" v="islet" />
		<tag k="ssr:stedsnr" v="600738" />
	</node>
	<node id="-204748" lat="59.4004861095" lon="10.8046027703">
		<tag k="name" v="Sundtangen" />
		<tag k="natural" v="cape" />
		<tag k="ssr:stedsnr" v="600728" />
	</node>
	<node id="-204747" lat="59.3942944428" lon="10.7319805467">
		<tag k="building" v="civic" />
		<tag k="name" v="Rygge brannstasjon" />
		<tag k="ssr:stedsnr" v="600679" />
	</node>
	<node id="-204746" lat="59.4056388899" lon="10.718358342">
		<tag k="name" v="Vesleng" />
		<tag k="place" v="farm" />
		<tag k="ssr:stedsnr" v="600869" />
	</node>
	<node id="-204745" lat="59.3935017362" lon="10.7210169367">
		<tag k="alt_name" v="Såstad østre" />
		<tag k="name" v="Østre Såstad" />
		<tag k="place" v="farm" />
		<tag k="ssr:stedsnr" v="600793" />
	</node>
	<node id="-204744" lat="59.3782250028" lon="10.7252805632">
		<tag k="name" v="Bygdetunet" />
		<tag k="place" v="locality" />
		<tag k="ssr:stedsnr" v="600327" />
	</node>
	<node id="-204743" lat="59.3718290247" lon="10.7252085642">
		<tag k="fixme" v="consider place=hamlet" />
		<tag k="name" v="Ødegården" />
		<tag k="place" v="farm" />
		<tag k="ssr:stedsnr" v="600322" />
	</node>
	<node id="-204742" lat="59.3781138888" lon="10.7645305611">
		<tag k="name" v="Rygge hageby" />
		<tag k="place" v="quarter" />
		<tag k="ssr:stedsnr" v="600282" />
	</node>
	<node id="-204741" lat="59.353705553" lon="10.7481166654">
		<tag k="alt_name" v="Rosnes vestre" />
		<tag k="name" v="Vestre Rosnes" />
		<tag k="place" v="farm" />
		<tag k="ssr:stedsnr" v="600217" />
	</node>
	<node id="-204740" lat="59.3525277756" lon="10.7621638946">
		<tag k="name" v="Molvikberget" />
		<tag k="natural" v="hill" />
		<tag k="place" v="locality" />
		<tag k="ssr:stedsnr" v="600053" />
	</node>
	<node id="-204739" lat="59.3868361095" lon="10.7777472189">
		<tag k="alt_name" v="Utne østre" />
		<tag k="name" v="Østre Utne" />
		<tag k="place" v="farm" />
		<tag k="ssr:stedsnr" v="599737" />
	</node>
	<node id="-204738" lat="59.3830472206" lon="10.7900333403">
		<tag k="alt_name" v="Søgård vestre" />
		<tag k="name" v="Vestre Søgård" />
		<tag k="place" v="farm" />
		<tag k="ssr:stedsnr" v="599734" />
	</node>
	<node id="-204737" lat="59.386527774" lon="10.8041444418">
		<tag k="name" v="Stormosen" />
		<tag k="natural" v="wetland" />
		<tag k="ssr:stedsnr" v="599733" />
	</node>
	<node id="-204736" lat="59.3961500026" lon="10.6666805545">
		<tag k="name" v="Oakhill" />
		<tag k="place" v="farm" />
		<tag k="ssr:stedsnr" v="599878" />
	</node>
	<node id="-204735" lat="59.339288887" lon="10.6635777722">
		<tag k="name" v="Pusterom" />
		<tag k="old_name" v="Pusterum" />
		<tag k="place" v="farm" />
		<tag k="ssr:stedsnr" v="599871" />
	</node>
	<node id="-204734" lat="59.4456194418" lon="10.650630553">
		<tag k="alt_name" v="Rosnes" />
		<tag k="name" v="Rossnes" />
		<tag k="place" v="farm" />
		<tag k="ssr:stedsnr" v="599184" />
	</node>
	<node id="-204733" lat="59.385861115" lon="10.658780555">
		<tag k="name" v="Finnebingen" />
		<tag k="place" v="locality" />
		<tag k="ssr:stedsnr" v="599107" />
	</node>
	<node id="-204732" lat="59.4338833358" lon="10.7228250063">
		<tag k="name" v="Nesa til han Nils" />
		<tag k="place" v="locality" />
		<tag k="ssr:stedsnr" v="598876" />
	</node>
	<node id="-204731" lat="59.41196389" lon="10.729780556">
		<tag k="name" v="Nesengsundet" />
		<tag k="natural" v="strait" />
		<tag k="ssr:stedsnr" v="598871" />
	</node>
	<node id="-204730" lat="59.3796222243" lon="10.7056694469">
		<tag k="name" v="Urstad" />
		<tag k="place" v="farm" />
		<tag k="ssr:stedsnr" v="599064" />
	</node>
	<node id="-204729" lat="59.3792777777" lon="10.6853388802">
		<tag k="name" v="Vang" />
		<tag k="place" v="farm" />
		<tag k="ssr:stedsnr" v="599061" />
	</node>
	<node id="-204728" lat="59.3381944408" lon="10.6677416595">
		<tag k="fixme" v="consider natural=peak for the most distinct mountains in the district" />
		<tag k="name" v="Vardefjellet" />
		<tag k="natural" v="hill" />
		<tag k="place" v="locality" />
		<tag k="ssr:stedsnr" v="598483" />
	</node>
	<node id="-204727" lat="59.3461027768" lon="10.6610444497">
		<tag k="name" v="Fristranda" />
		<tag k="natural" v="beach" />
		<tag k="place" v="locality" />
		<tag k="ssr:stedsnr" v="598414" />
	</node>
	<node id="-204726" lat="59.3408111131" lon="10.661838887">
		<tag k="fixme" v="consider seamark:type=rock or natural=shoal" />
		<tag k="name" v="Presten" />
		<tag k="place" v="islet" />
		<tag k="ssr:stedsnr" v="598413" />
	</node>
	<node id="-204725" lat="59.3292361088" lon="10.7124249966">
		<tag k="alt_name" v="Sildebaugen nordre" />
		<tag k="name" v="Nordre Sildebaugen" />
		<tag k="place" v="farm" />
		<tag k="ssr:stedsnr" v="598397" />
	</node>
	<node id="-204724" lat="59.328202778" lon="10.6674277712">
		<tag k="name" v="Lersbaugen" />
		<tag k="natural" v="bay" />
		<tag k="ssr:stedsnr" v="598393" />
	</node>
	<node id="-204723" lat="59.3170527807" lon="10.6948027812">
		<tag k="fixme" v="consider natural=peak for the most distinct mountains in the district" />
		<tag k="name" v="Vadberget" />
		<tag k="natural" v="hill" />
		<tag k="place" v="locality" />
		<tag k="ssr:stedsnr" v="598361" />
	</node>
	<node id="-204722" lat="59.4099527764" lon="10.6641861023">
		<tag k="name" v="Kvile" />
		<tag k="place" v="farm" />
		<tag k="ssr:stedsnr" v="598123" />
	</node>
	<node id="-204721" lat="59.4399111117" lon="10.6195444529">
		<tag k="amenity" v="school" />
		<tag k="name" v="Refsnes skole" />
		<tag k="ssr:stedsnr" v="598075" />
	</node>
	<node id="-204720" lat="59.4284777754" lon="10.6644083362">
		<tag k="name" v="Malakoff" />
		<tag k="place" v="suburb" />
		<tag k="ssr:stedsnr" v="598064" />
	</node>
	<node id="-204719" lat="59.4336027761" lon="10.6587861197">
		<tag k="bridge" v="yes" />
		<tag k="layer" v="1" />
		<tag k="name" v="Fjordvegen" />
		<tag k="ssr:stedsnr" v="592626" />
	</node>
	<node id="-204718" lat="59.4145000006" lon="10.6936805483">
		<tag k="bridge" v="yes" />
		<tag k="layer" v="1" />
		<tag k="name" v="Myravegen" />
		<tag k="ssr:stedsnr" v="592478" />
	</node>
	<node id="-204717" lat="59.5099583311" lon="10.6469499988">
		<tag k="name" v="Tangen" />
		<tag k="natural" v="cape" />
		<tag k="ssr:stedsnr" v="598848" />
	</node>
	<node id="-204716" lat="59.4736194415" lon="10.6460805561">
		<tag k="fixme" v="consider natural=peak for the most distinct mountains in the district" />
		<tag k="name" v="Prekestolen" />
		<tag k="natural" v="hill" />
		<tag k="place" v="locality" />
		<tag k="ssr:stedsnr" v="598765" />
	</node>
	<node id="-204715" lat="59.4319883823" lon="10.6573504107">
		<tag k="alt_name" v="Moss" />
		<tag k="name" v="Moss stasjon" />
		<tag k="old_name" v="Moss jernbanestasjon" />
		<tag k="railway" v="station" />
		<tag k="ssr:stedsnr" v="579137" />
		<tag k="train" v="yes" />
	</node>
	<node id="-204714" lat="59.3058166634" lon="10.6971611109">
		<tag k="name" v="Teipa" />
		<tag k="place" v="locality" />
		<tag k="ssr:stedsnr" v="574906" />
	</node>
	<node id="-204713" lat="59.3134416636" lon="10.6822722301">
		<tag k="name" v="Langstranda" />
		<tag k="natural" v="beach" />
		<tag k="place" v="locality" />
		<tag k="ssr:stedsnr" v="574127" />
	</node>
	<node id="-204712" lat="59.4092916663" lon="10.6862138879">
		<tag k="amenity" v="place_of_worship" />
		<tag k="denomination" v="lutheran" />
		<tag k="name" v="Ekholt kirke" />
		<tag k="religion" v="christian" />
		<tag k="ssr:stedsnr" v="571240" />
	</node>
	<node id="-204711" lat="59.3765972238" lon="10.7271166694">
		<tag k="name" v="Kirkegrenda" />
		<tag k="place" v="quarter" />
		<tag k="ssr:stedsnr" v="570101" />
	</node>
	<node id="-204710" lat="59.4320484922" lon="10.7265999013">
		<tag k="name" v="Årvolltangen" />
		<tag k="natural" v="cape" />
		<tag k="ssr:stedsnr" v="548979" />
	</node>
	<node id="-204709" lat="59.4618333307" lon="10.6815583303">
		<tag k="loc_name" v="Mosseskauen" />
		<tag k="name" v="Mosseskogen" />
		<tag k="place" v="locality" />
		<tag k="ssr:stedsnr" v="548952" />
	</node>
	<node id="-204708" lat="59.4469166641" lon="10.7158111176">
		<tag k="alt_name" v="Nore;Nore nordre" />
		<tag k="name" v="Nordre Nore" />
		<tag k="place" v="farm" />
		<tag k="ssr:stedsnr" v="548949" />
	</node>
	<node id="-204707" lat="59.4406666667" lon="10.6074611091">
		<tag k="alt_name" v="Tronvikbukta" />
		<tag k="name" v="Tronvika" />
		<tag k="natural" v="bay" />
		<tag k="ssr:stedsnr" v="548939" />
	</node>
	<node id="-204706" lat="59.3068250001" lon="10.6829750042">
		<tag k="name" v="Signes" />
		<tag k="place" v="isolated_dwelling" />
		<tag k="ssr:stedsnr" v="548642" />
	</node>
	<node id="-204705" lat="59.3071527757" lon="10.6216333263">
		<tag k="name" v="Eldøygrunnen" />
		<tag k="natural" v="shoal" />
		<tag k="place" v="locality" />
		<tag k="ssr:stedsnr" v="548641" />
	</node>
	<node id="-204704" lat="59.3216166645" lon="10.6792111154">
		<tag k="alt_name" v="Rørvikbukta" />
		<tag k="name" v="Rørvika" />
		<tag k="natural" v="bay" />
		<tag k="ssr:stedsnr" v="548609" />
	</node>
	<node id="-204703" lat="59.3215055518" lon="10.6565583329">
		<tag k="name" v="Ulke" />
		<tag k="place" v="farm" />
		<tag k="ssr:stedsnr" v="548608" />
	</node>
	<node id="-204702" lat="59.3438899772" lon="10.6729172238">
		<tag k="alt_name" v="Ravnås;Botnerveten" />
		<tag k="fixme" v="consider natural=peak for the most distinct mountains in the district" />
		<tag k="name" v="Ravnåsen" />
		<tag k="natural" v="hill" />
		<tag k="place" v="locality" />
		<tag k="ssr:stedsnr" v="548586" />
	</node>
	<node id="-204701" lat="59.365213717" lon="10.6924631428">
		<tag k="fixme" v="consider place=hamlet" />
		<tag k="name" v="Pålsrød" />
		<tag k="place" v="farm" />
		<tag k="ssr:stedsnr" v="548570" />
	</node>
	<node id="-204700" lat="59.3875916705" lon="10.6656388892">
		<tag k="name" v="Ekeby" />
		<tag k="place" v="farm" />
		<tag k="ssr:stedsnr" v="548546" />
	</node>
	<node id="-204699" lat="59.3907277795" lon="10.7007000059">
		<tag k="alt_name" v="Løken østre" />
		<tag k="name" v="Østre Løken" />
		<tag k="place" v="farm" />
		<tag k="ssr:stedsnr" v="548535" />
	</node>
	<node id="-204698" lat="59.3998333318" lon="10.7097861125">
		<tag k="name" v="Holter" />
		<tag k="place" v="farm" />
		<tag k="ssr:stedsnr" v="548531" />
	</node>
	<node id="-204697" lat="59.4231861129" lon="10.7507249979">
		<tag k="alt_name" v="Eklund" />
		<tag k="name" v="Ekelund" />
		<tag k="place" v="farm" />
		<tag k="ssr:stedsnr" v="548362" />
	</node>
	<node id="-204696" lat="59.3992305538" lon="10.7287055567">
		<tag k="name" v="Moserød" />
		<tag k="place" v="farm" />
		<tag k="ssr:stedsnr" v="548332" />
	</node>
	<node id="-204695" lat="59.3934805566" lon="10.7331888805">
		<tag k="name" v="Rekkestad" />
		<tag k="place" v="farm" />
		<tag k="ssr:stedsnr" v="548323" />
	</node>
	<node id="-204694" lat="59.3755694474" lon="10.7828249919">
		<tag k="name" v="Utgjerdsmyra" />
		<tag k="natural" v="wetland" />
		<tag k="ssr:stedsnr" v="548303" />
	</node>
	<node id="-204693" lat="59.3739277819" lon="10.8038083254">
		<tag k="aeroway" v="aerodrome" />
		<tag k="alt_name" v="Rygge" />
		<tag k="name" v="Moss lufthavn, Rygge" />
		<tag k="ssr:stedsnr" v="548301" />
	</node>
	<node id="-204692" lat="59.476688892" lon="10.6865166596">
		<tag k="man_made" v="quay" />
		<tag k="name" v="Dyno Industriers kai" />
		<tag k="place" v="locality" />
		<tag k="ssr:stedsnr" v="541730" />
	</node>
	<node id="-204691" lat="59.4234138926" lon="10.6358888814">
		<tag k="name" v="Lilleputt" />
		<tag k="natural" v="beach" />
		<tag k="place" v="locality" />
		<tag k="ssr:stedsnr" v="541189" />
	</node>
	<node id="-204690" lat="59.3706249999" lon="10.7185583326">
		<tag k="name" v="Ødegårdskogen" />
		<tag k="place" v="locality" />
		<tag k="ssr:stedsnr" v="539283" />
	</node>
	<node id="-204689" lat="59.4043305592" lon="10.6697249937">
		<tag k="fixme" v="consider natural=peak for the most distinct mountains in the district" />
		<tag k="name" v="Carlbergåsen" />
		<tag k="natural" v="hill" />
		<tag k="place" v="locality" />
		<tag k="ssr:stedsnr" v="538910" />
	</node>
	<node id="-204688" lat="59.392733334" lon="10.6928916735">
		<tag k="name" v="Løkenbekken" />
		<tag k="ssr:stedsnr" v="538908" />
		<tag k="waterway" v="stream" />
	</node>
	<node id="-204687" lat="59.3959944463" lon="10.6704777812">
		<tag k="cemetery" v="grave" />
		<tag k="name" v="Søsters hvile" />
		<tag k="place" v="locality" />
		<tag k="ssr:stedsnr" v="538900" />
	</node>
	<node id="-204686" lat="59.460252774" lon="10.6639416679">
		<tag k="alt_name" v="Kjeholmen;Skjæret" />
		<tag k="name" v="Eggholmen" />
		<tag k="place" v="islet" />
		<tag k="ssr:stedsnr" v="538878" />
	</node>
	<node id="-204685" lat="59.3556027749" lon="10.6584305497">
		<tag k="name" v="Nordre Holmebukta" />
		<tag k="natural" v="bay" />
		<tag k="ssr:stedsnr" v="538464" />
	</node>
	<node id="-204684" lat="59.3298499956" lon="10.6810611112">
		<tag k="name" v="Skogli" />
		<tag k="place" v="farm" />
		<tag k="ssr:stedsnr" v="538439" />
	</node>
	<node id="-204683" lat="59.4099305547" lon="10.6667055565">
		<tag k="amenity" v="nursing_home" />
		<tag k="name" v="Ryggeheimen" />
		<tag k="ssr:stedsnr" v="538136" />
	</node>
	<node id="-204682" lat="59.3055777787" lon="10.6840805538">
		<tag k="name" v="Søndre Nesbukta" />
		<tag k="natural" v="bay" />
		<tag k="ssr:stedsnr" v="538128" />
	</node>
	<node id="-204681" lat="59.43267778" lon="10.6527138817">
		<tag k="name" v="Kanalen" />
		<tag k="ssr:stedsnr" v="537879" />
		<tag k="waterway" v="canal" />
	</node>
	<node id="-204680" lat="59.4210999977" lon="10.7270750002">
		<tag k="name" v="Brånan" />
		<tag k="place" v="locality" />
		<tag k="ssr:stedsnr" v="537866" />
	</node>
	<node id="-204679" lat="59.4215361123" lon="10.7239583333">
		<tag k="alt_name" v="Brånanskjæra;Fiskeskjær" />
		<tag k="name" v="Silleskjæra" />
		<tag k="place" v="islet" />
		<tag k="ssr:stedsnr" v="537863" />
	</node>
	<node id="-204678" lat="59.4394388899" lon="10.669286117">
		<tag k="building" v="commercial" />
		<tag k="name" v="Konventionsgården" />
		<tag k="ssr:stedsnr" v="538040" />
	</node>
	<node id="-204677" lat="59.4816333365" lon="10.7645055508">
		<tag k="alt_name" v="Enderødmosan" />
		<tag k="name" v="Enderødmosen" />
		<tag k="natural" v="wetland" />
		<tag k="ssr:stedsnr" v="428666" />
	</node>
	<node id="-204676" lat="59.4285558616" lon="10.7033179717">
		<tag k="name" v="Hanan" />
		<tag k="place" v="farm" />
		<tag k="ssr:stedsnr" v="427986" />
	</node>
	<node id="-204675" lat="59.4340166642" lon="10.6576972245">
		<tag k="name" v="Moss" />
		<tag k="place" v="town" />
		<tag k="ssr:stedsnr" v="427982" />
	</node>
	<node id="-204674" lat="59.4472666703" lon="10.6879222238">
		<tag k="name" v="Granli" />
		<tag k="place" v="farm" />
		<tag k="ssr:stedsnr" v="427951" />
	</node>
	<node id="-204673" lat="59.4904481228" lon="10.702567207">
		<tag k="name" v="Rykkin" />
		<tag k="place" v="farm" />
		<tag k="ssr:stedsnr" v="427896" />
	</node>
	<node id="-204672" lat="59.3392325708" lon="10.6843072128">
		<tag k="name" v="Støtvik" />
		<tag k="place" v="hamlet" />
		<tag k="ssr:stedsnr" v="427594" />
	</node>
	<node id="-204671" lat="59.3721166667" lon="10.7055916594">
		<tag k="alt_name" v="Urstadmyra" />
		<tag k="name" v="Urstadmyr" />
		<tag k="place" v="farm" />
		<tag k="ssr:stedsnr" v="427577" />
	</node>
	<node id="-204670" lat="59.3698472195" lon="10.6536527844">
		<tag k="name" v="Rumpa" />
		<tag k="natural" v="cape" />
		<tag k="ssr:stedsnr" v="427566" />
	</node>
	<node id="-204669" lat="59.3897083365" lon="10.7174472169">
		<tag k="name" v="Østereng" />
		<tag k="place" v="farm" />
		<tag k="ssr:stedsnr" v="427534" />
	</node>
	<node id="-204668" lat="59.3534624468" lon="10.7324982695">
		<tag k="name" v="Melleby" />
		<tag k="place" v="farm" />
		<tag k="ssr:stedsnr" v="427500" />
	</node>
	<node id="-204667" lat="59.4424027749" lon="10.7194083417">
		<tag k="alt_name" v="Nore søndre" />
		<tag k="name" v="Søndre Nore" />
		<tag k="place" v="farm" />
		<tag k="ssr:stedsnr" v="427391" />
	</node>
	<node id="-204666" lat="59.3670444424" lon="10.6629638835">
		<tag k="name" v="Fillekken" />
		<tag k="place" v="farm" />
		<tag k="ssr:stedsnr" v="422230" />
	</node>
	<node id="-204665" lat="59.422083334" lon="10.6245444372">
		<tag k="man_made" v="quay" />
		<tag k="name" v="Reierbrygga" />
		<tag k="place" v="locality" />
		<tag k="ssr:stedsnr" v="420941" />
	</node>
	<node id="-204664" lat="59.4314333331" lon="10.6518083358">
		<tag k="leisure" v="park" />
		<tag k="name" v="Sjøbadet" />
		<tag k="ssr:stedsnr" v="420198" />
	</node>
	<node id="-204663" lat="59.3922583365" lon="10.7667249959">
		<tag k="name" v="Rådeskogen" />
		<tag k="place" v="hamlet" />
		<tag k="ssr:stedsnr" v="418764" />
	</node>
	<node id="-204662" lat="59.3911250014" lon="10.7680222144">
		<tag k="name" v="Østli" />
		<tag k="place" v="farm" />
		<tag k="ssr:stedsnr" v="418761" />
	</node>
	<node id="-204661" lat="59.3938611129" lon="10.7671083257">
		<tag k="name" v="Berg" />
		<tag k="place" v="farm" />
		<tag k="ssr:stedsnr" v="418756" />
	</node>
	<node id="-204660" lat="59.4093583325" lon="10.7312500053">
		<tag k="name" v="Nordbukta" />
		<tag k="natural" v="bay" />
		<tag k="ssr:stedsnr" v="418725" />
	</node>
	<node id="-204659" lat="59.3881083323" lon="10.7852111065">
		<tag k="alt_name" v="Fredskjær østre" />
		<tag k="name" v="Østre Fredskjær" />
		<tag k="place" v="farm" />
		<tag k="ssr:stedsnr" v="418701" />
	</node>
	<node id="-204658" lat="59.395038891" lon="10.8036805533">
		<tag k="name" v="Kuskjær" />
		<tag k="place" v="islet" />
		<tag k="ssr:stedsnr" v="418696" />
	</node>
	<node id="-204657" lat="59.393700004" lon="10.7802027702">
		<tag k="fixme" v="consider natural=peak for the most distinct mountains in the district" />
		<tag k="name" v="Høyås" />
		<tag k="natural" v="hill" />
		<tag k="place" v="locality" />
		<tag k="ssr:stedsnr" v="418694" />
	</node>
	<node id="-204656" lat="59.3684249966" lon="10.7728777743">
		<tag k="alt_name" v="Eskelund øvre" />
		<tag k="name" v="Øvre Eskelund" />
		<tag k="place" v="farm" />
		<tag k="ssr:stedsnr" v="418252" />
	</node>
	<node id="-204655" lat="59.3256722203" lon="10.6894861171">
		<tag k="name" v="Garnbakken" />
		<tag k="place" v="hamlet" />
		<tag k="ssr:stedsnr" v="417444" />
	</node>
	<node id="-204654" lat="59.3298277796" lon="10.6646444502">
		<tag k="name" v="Festningen" />
		<tag k="ssr:stedsnr" v="417443" />
		<tag k="tourism" v="attraction" />
	</node>
	<node id="-204653" lat="59.4088388906" lon="10.6838111151">
		<tag k="alt_name" v="Ekholt østre" />
		<tag k="name" v="Østre Ekholt" />
		<tag k="place" v="farm" />
		<tag k="ssr:stedsnr" v="417096" />
	</node>
	<node id="-204652" lat="59.3769055562" lon="10.6670722208">
		<tag k="name" v="Klosterbakke" />
		<tag k="place" v="farm" />
		<tag k="ssr:stedsnr" v="417066" />
	</node>
	<node id="-204651" lat="59.4215750003" lon="10.6753666741">
		<tag k="name" v="Rabekk" />
		<tag k="place" v="locality" />
		<tag k="ssr:stedsnr" v="416875" />
	</node>
	<node id="-204650" lat="59.4340333378" lon="10.6593002294">
		<tag k="amenity" v="townhall" />
		<tag k="name" v="Moss rådhus" />
		<tag k="ssr:stedsnr" v="416868" />
	</node>
	<node id="-204649" lat="59.442604117" lon="10.6505381254">
		<tag k="landuse" v="harbour" />
		<tag k="name" v="Betongen båthavn" />
		<tag k="seamark:type" v="harbour" />
		<tag k="ssr:stedsnr" v="416867" />
	</node>
	<node id="-204648" lat="59.4416166626" lon="10.6283722233">
		<tag k="amenity" v="school" />
		<tag k="name" v="Ramberg skole" />
		<tag k="ssr:stedsnr" v="416860" />
	</node>
	<node id="-204647" lat="59.4825111153" lon="10.6275166688">
		<tag k="name" v="Hellebergene" />
		<tag k="place" v="locality" />
		<tag k="ssr:stedsnr" v="416758" />
	</node>
	<node id="-204646" lat="59.4697444427" lon="10.65141667">
		<tag k="alt_name" v="Skallerød nedre;Søndre Skallerød" />
		<tag k="name" v="Nedre Skallerød" />
		<tag k="place" v="farm" />
		<tag k="ssr:stedsnr" v="416756" />
	</node>
	<node id="-204645" lat="59.3858361153" lon="10.7512583356">
		<tag k="bridge" v="yes" />
		<tag k="layer" v="1" />
		<tag k="name" v="Halmstad" />
		<tag k="ssr:stedsnr" v="410455" />
	</node>
	<node id="-204644" lat="59.4745777796" lon="10.6936583388">
		<tag k="bridge" v="yes" />
		<tag k="layer" v="1" />
		<tag k="name" v="Kambo" />
		<tag k="ssr:stedsnr" v="410596" />
	</node>
	<node id="-204643" lat="59.4453944482" lon="10.7036250048">
		<tag k="bridge" v="yes" />
		<tag k="layer" v="1" />
		<tag k="name" v="Mosseporten" />
		<tag k="ssr:stedsnr" v="410594" />
	</node>
	<node id="-204642" lat="59.4734972202" lon="10.7017666649">
		<tag k="bridge" v="yes" />
		<tag k="layer" v="1" />
		<tag k="name" v="Ungerholt øst" />
		<tag k="ssr:stedsnr" v="410590" />
	</node>
	<node id="-204641" lat="59.434058329" lon="10.6573166729">
		<tag k="bridge" v="yes" />
		<tag k="layer" v="1" />
		<tag k="name" v="Værlegata" />
		<tag k="ssr:stedsnr" v="410589" />
	</node>
	<node id="-204640" lat="59.3972249976" lon="10.624813883">
		<tag k="name" v="Nygrunnen" />
		<tag k="natural" v="shoal" />
		<tag k="place" v="locality" />
		<tag k="ssr:stedsnr" v="392913" />
	</node>
	<node id="-204639" lat="59.314961111" lon="10.6794527748">
		<tag k="alt_name" v="Engerholmbukta" />
		<tag k="name" v="Engholmbukta" />
		<tag k="natural" v="bay" />
		<tag k="ssr:stedsnr" v="392134" />
	</node>
	<node id="-204638" lat="59.4768944428" lon="10.7787722227">
		<tag k="name" v="Enderød" />
		<tag k="place" v="farm" />
		<tag k="ssr:stedsnr" v="367690" />
	</node>
	<node id="-204637" lat="59.4320583299" lon="10.6201694461">
		<tag k="name" v="Reier" />
		<tag k="place" v="farm" />
		<tag k="ssr:stedsnr" v="366998" />
	</node>
	<node id="-204636" lat="59.429150004" lon="10.6064194476">
		<tag k="name" v="Grønli" />
		<tag k="place" v="farm" />
		<tag k="ssr:stedsnr" v="366995" />
	</node>
	<node id="-204635" lat="59.4306472257" lon="10.5942249995">
		<tag k="name" v="Kase" />
		<tag k="place" v="farm" />
		<tag k="ssr:stedsnr" v="366994" />
	</node>
	<node id="-204634" lat="59.4196583301" lon="10.629325008">
		<tag k="name" v="Reiertangen" />
		<tag k="natural" v="cape" />
		<tag k="ssr:stedsnr" v="366977" />
	</node>
	<node id="-204633" lat="59.4522499995" lon="10.6984361035">
		<tag k="fixme" v="multiple name tags, choose one and add the other to alt_name" />
		<tag k="name" v="Lauersbakken;Solbakken" />
		<tag k="place" v="farm" />
		<tag k="ssr:stedsnr" v="366945" />
	</node>
	<node id="-204632" lat="59.4774499957" lon="10.6333194478">
		<tag k="fixme" v="consider place=hamlet" />
		<tag k="name" v="Nes" />
		<tag k="place" v="farm" />
		<tag k="ssr:stedsnr" v="366894" />
	</node>
	<node id="-204631" lat="59.3165444416" lon="10.6889805499">
		<tag k="name" v="Engholmen" />
		<tag k="natural" v="cape" />
		<tag k="ssr:stedsnr" v="366640" />
	</node>
	<node id="-204630" lat="59.3216638914" lon="10.7000777844">
		<tag k="alt_name" v="Salbohuset" />
		<tag k="name" v="Salbuhuset" />
		<tag k="place" v="farm" />
		<tag k="ssr:stedsnr" v="366619" />
	</node>
	<node id="-204629" lat="59.3319555534" lon="10.6668749944">
		<tag k="name" v="Larkollen" />
		<tag k="place" v="village" />
		<tag k="ssr:stedsnr" v="366612" />
	</node>
	<node id="-204628" lat="59.3490166663" lon="10.678733325">
		<tag k="name" v="Botnertjernet" />
		<tag k="natural" v="water" />
		<tag k="ssr:stedsnr" v="366597" />
	</node>
	<node id="-204627" lat="59.348747223" lon="10.6418916614">
		<tag k="alt_name" v="Botnegrunnene" />
		<tag k="name" v="Botnergrunnen" />
		<tag k="natural" v="shoal" />
		<tag k="place" v="locality" />
		<tag k="ssr:stedsnr" v="366595" />
	</node>
	<node id="-204626" lat="59.3987250038" lon="10.6669083297">
		<tag k="alt_name" v="Baug" />
		<tag k="name" v="Bog" />
		<tag k="place" v="farm" />
		<tag k="ssr:stedsnr" v="366541" />
	</node>
	<node id="-204625" lat="59.3930555569" lon="10.6726555566">
		<tag k="alt_name" v="Værne kloster" />
		<tag k="name" v="Verne kloster" />
		<tag k="old_name" v="Værnekloster" />
		<tag k="place" v="farm" />
		<tag k="ssr:stedsnr" v="366540" />
	</node>
	<node id="-204624" lat="59.407586114" lon="10.7136833341">
		<tag k="name" v="Dramstad" />
		<tag k="place" v="farm" />
		<tag k="ssr:stedsnr" v="366522" />
	</node>
	<node id="-204623" lat="59.3508833336" lon="10.7367138965">
		<tag k="alt_name" v="Kure søndre" />
		<tag k="name" v="Søndre Kure" />
		<tag k="place" v="farm" />
		<tag k="ssr:stedsnr" v="366502" />
	</node>
	<node id="-204622" lat="59.3995861142" lon="10.7554972141">
		<tag k="fixme" v="consider place=hamlet" />
		<tag k="name" v="Huggenes" />
		<tag k="place" v="farm" />
		<tag k="ssr:stedsnr" v="366312" />
	</node>
	<node id="-204621" lat="59.4008361155" lon="10.7890694478">
		<tag k="name" v="Fjell" />
		<tag k="place" v="farm" />
		<tag k="ssr:stedsnr" v="366308" />
	</node>
	<node id="-204620" lat="59.2149722232" lon="10.6363416708">
		<tag k="bay" v="fjord" />
		<tag k="name" v="Oslofjorden" />
		<tag k="natural" v="bay" />
		<tag k="ssr:stedsnr" v="365030" />
	</node>
	<node id="-204619" lat="59.4273250028" lon="10.6355666595">
		<tag k="name" v="Solbakken" />
		<tag k="natural" v="slope" />
		<tag k="place" v="locality" />
		<tag k="ssr:stedsnr" v="359197" />
	</node>
	<node id="-204618" lat="59.4058555597" lon="10.7521250088">
		<tag k="landuse" v="industrial" />
		<tag k="name" v="Vannverket" />
		<tag k="power" v="plant" />
		<tag k="ssr:stedsnr" v="357847" />
	</node>
	<node id="-204617" lat="59.4072643385" lon="10.7226035141">
		<tag k="name" v="Enerli" />
		<tag k="place" v="isolated_dwelling" />
		<tag k="ssr:stedsnr" v="357867" />
	</node>
	<node id="-204616" lat="59.397886114" lon="10.7736249959">
		<tag k="name" v="Utneskogen" />
		<tag k="place" v="locality" />
		<tag k="ssr:stedsnr" v="357782" />
	</node>
	<node id="-204615" lat="59.3628611129" lon="10.7241833273">
		<tag k="junction" v="yes" />
		<tag k="name" v="Pytten" />
		<tag k="place" v="locality" />
		<tag k="ssr:stedsnr" v="357318" />
	</node>
	<node id="-204614" lat="59.3501333357" lon="10.7511527745">
		<tag k="alt_name" v="Rosnes søndre" />
		<tag k="name" v="Søndre Rosnes" />
		<tag k="place" v="farm" />
		<tag k="ssr:stedsnr" v="357213" />
	</node>
	<node id="-204613" lat="59.4286750001" lon="10.6987777765">
		<tag k="name" v="Puta" />
		<tag k="place" v="islet" />
		<tag k="ssr:stedsnr" v="357082" />
	</node>
	<node id="-204612" lat="59.3735611107" lon="10.7349888861">
		<tag k="name" v="Kureåa" />
		<tag k="ssr:stedsnr" v="357071" />
		<tag k="waterway" v="stream" />
	</node>
	<node id="-204611" lat="59.3504944475" lon="10.755058325">
		<tag k="name" v="Rosnesbekken" />
		<tag k="ssr:stedsnr" v="357050" />
		<tag k="waterway" v="stream" />
	</node>
	<node id="-204610" lat="59.3871333352" lon="10.6994638869">
		<tag k="alt_name" v="Lyby mellem" />
		<tag k="name" v="Mellom-Lyby" />
		<tag k="place" v="farm" />
		<tag k="ssr:stedsnr" v="356932" />
	</node>
	<node id="-204609" lat="59.4060277814" lon="10.6670416635">
		<tag k="alt_name" v="Dyre søndre" />
		<tag k="name" v="Søndre Dyre" />
		<tag k="place" v="farm" />
		<tag k="ssr:stedsnr" v="356899" />
	</node>
	<node id="-204608" lat="59.4006305561" lon="10.6913833354">
		<tag k="name" v="Nymark" />
		<tag k="place" v="farm" />
		<tag k="ssr:stedsnr" v="356885" />
	</node>
	<node id="-204607" lat="59.4018388917" lon="10.7012194507">
		<tag k="alt_name" v="Dilling nordre" />
		<tag k="name" v="Nordre Dilling" />
		<tag k="place" v="farm" />
		<tag k="ssr:stedsnr" v="356882" />
	</node>
	<node id="-204606" lat="59.3331861133" lon="10.6632444495">
		<tag k="name" v="Tollstranda" />
		<tag k="natural" v="beach" />
		<tag k="place" v="locality" />
		<tag k="ssr:stedsnr" v="356438" />
	</node>
	<node id="-204605" lat="59.3564500005" lon="10.657538888">
		<tag k="fixme" v="consider seamark:type=rock or natural=shoal" />
		<tag k="name" v="Blåskjær" />
		<tag k="place" v="islet" />
		<tag k="ssr:stedsnr" v="356437" />
	</node>
	<node id="-204604" lat="59.3400666691" lon="10.6618916623">
		<tag k="fixme" v="consider seamark:type=rock or natural=shoal" />
		<tag k="name" v="Klokkeren" />
		<tag k="place" v="islet" />
		<tag k="ssr:stedsnr" v="356432" />
	</node>
	<node id="-204603" lat="59.3196027773" lon="10.6803805605">
		<tag k="name" v="Tatervika" />
		<tag k="natural" v="bay" />
		<tag k="ssr:stedsnr" v="356392" />
	</node>
	<node id="-204602" lat="59.4574305534" lon="10.6802833247">
		<tag k="fixme" v="consider highway=path" />
		<tag k="highway" v="track" />
		<tag k="name" v="Gamlevegen" />
		<tag k="ssr:stedsnr" v="356215" />
	</node>
	<node id="-204601" lat="59.3386999998" lon="10.6849444532">
		<tag k="alt_name" v="Støtvik mellem" />
		<tag k="name" v="Mellom-Støtvik" />
		<tag k="place" v="farm" />
		<tag k="ssr:stedsnr" v="356212" />
	</node>
	<node id="-204600" lat="59.4615972258" lon="10.6294222169">
		<tag k="name" v="Katrinestua" />
		<tag k="place" v="isolated_dwelling" />
		<tag k="ssr:stedsnr" v="356207" />
	</node>
	<node id="-204599" lat="59.4504333314" lon="10.672755556">
		<tag k="fixme" v="consider natural=peak for the most distinct mountains in the district" />
		<tag k="name" v="Røysås" />
		<tag k="natural" v="hill" />
		<tag k="place" v="locality" />
		<tag k="ssr:stedsnr" v="356205" />
	</node>
	<node id="-204598" lat="59.363583331" lon="10.7049361144">
		<tag k="fixme" v="consider natural=peak for the most distinct mountains in the district" />
		<tag k="name" v="Kjempekastet" />
		<tag k="natural" v="hill" />
		<tag k="place" v="locality" />
		<tag k="ssr:stedsnr" v="356036" />
	</node>
	<node id="-204597" lat="59.4333805514" lon="10.6390666592">
		<tag k="name" v="Helgerød" />
		<tag k="place" v="farm" />
		<tag k="ssr:stedsnr" v="355881" />
	</node>
	<node id="-204596" lat="59.4444000039" lon="10.6463722164">
		<tag k="name" v="Krossern" />
		<tag k="place" v="suburb" />
		<tag k="ssr:stedsnr" v="355868" />
	</node>
	<node id="-204595" lat="59.4798194456" lon="10.6966305591">
		<tag k="name" v="Kambo" />
		<tag k="place" v="farm" />
		<tag k="ssr:stedsnr" v="355751" />
	</node>
	<node id="-204594" lat="59.4862611125" lon="10.6747555617">
		<tag k="name" v="Kippenes" />
		<tag k="natural" v="cape" />
		<tag k="ssr:stedsnr" v="355745" />
	</node>
	<node id="-204593" lat="59.430280556" lon="10.7378194502">
		<tag k="name" v="Årvollfjorden" />
		<tag k="natural" v="water" />
		<tag k="ssr:stedsnr" v="355089" />
	</node>
	<node id="-204592" lat="59.4348250002" lon="10.6391194385">
		<tag k="amenity" v="school" />
		<tag k="name" v="Liljedalen skole" />
		<tag k="ssr:stedsnr" v="355073" />
	</node>
	<node id="-204591" lat="59.3657249968" lon="10.710058337">
		<tag k="name" v="Opstadskogen" />
		<tag k="place" v="locality" />
		<tag k="ssr:stedsnr" v="356093" />
	</node>
	<node id="-204590" lat="59.3683555565" lon="10.694230555">
		<tag k="name" v="Hestehavna" />
		<tag k="place" v="locality" />
		<tag k="ssr:stedsnr" v="356089" />
	</node>
	<node id="-204589" lat="59.4272222212" lon="10.7066916696">
		<tag k="bridge" v="yes" />
		<tag k="layer" v="1" />
		<tag k="name" v="Storebog vest" />
		<tag k="ssr:stedsnr" v="349499" />
	</node>
	<node id="-204588" lat="59.5066666697" lon="10.6536166719">
		<tag k="name" v="Hvittingbukta" />
		<tag k="natural" v="bay" />
		<tag k="ssr:stedsnr" v="331876" />
	</node>
	<node id="-204587" lat="59.4640999991" lon="10.5703222273">
		<tag k="name" v="Trollgrunnen" />
		<tag k="natural" v="shoal" />
		<tag k="place" v="locality" />
		<tag k="ssr:stedsnr" v="331873" />
	</node>
	<node id="-204586" lat="59.4332333341" lon="10.6300861147">
		<tag k="alt_name" v="Hoppern" />
		<tag k="name" v="Hopperen" />
		<tag k="place" v="suburb" />
		<tag k="ssr:stedsnr" v="331838" />
	</node>
	<node id="-204585" lat="59.3638083365" lon="10.6603611066">
		<tag k="alt_name" v="Svartsker" />
		<tag k="fixme" v="consider seamark:type=rock or natural=shoal" />
		<tag k="name" v="Svartskjær" />
		<tag k="place" v="islet" />
		<tag k="ssr:stedsnr" v="331777" />
	</node>
	<node id="-204584" lat="59.4339194476" lon="10.5719277772">
		<tag k="name" v="Gullholmkrakken" />
		<tag k="natural" v="shoal" />
		<tag k="place" v="locality" />
		<tag k="ssr:stedsnr" v="331774" />
	</node>
	<node id="-204583" lat="59.4453999969" lon="10.7016111031">
		<tag k="junction" v="yes" />
		<tag k="name" v="Patterød" />
		<tag k="place" v="locality" />
		<tag k="ssr:stedsnr" v="328078" />
	</node>
	<node id="-204582" lat="59.4106555521" lon="10.7499166665">
		<tag k="name" v="Vestfjorden" />
		<tag k="natural" v="water" />
		<tag k="ssr:stedsnr" v="313844" />
	</node>
	<node id="-204581" lat="59.5044083322" lon="10.6624388844">
		<tag k="name" v="Høkesetodden" />
		<tag k="natural" v="cape" />
		<tag k="ssr:stedsnr" v="308899" />
	</node>
	<node id="-204580" lat="59.4871500009" lon="10.606099995">
		<tag k="name" v="Neskrakken" />
		<tag k="natural" v="shoal" />
		<tag k="place" v="locality" />
		<tag k="ssr:stedsnr" v="306925" />
	</node>
	<node id="-204579" lat="59.4813138926" lon="10.6308583365">
		<tag k="name" v="Alfheim" />
		<tag k="place" v="farm" />
		<tag k="ssr:stedsnr" v="306910" />
	</node>
	<node id="-204578" lat="59.4697361133" lon="10.7704138825">
		<tag k="alt_name" v="Grinnn" />
		<tag k="name" v="Grind" />
		<tag k="place" v="farm" />
		<tag k="ssr:stedsnr" v="306677" />
	</node>
	<node id="-204577" lat="59.3295305559" lon="10.6510388822">
		<tag k="alt_name" v="Kollesundet" />
		<tag k="name" v="Kollsundet" />
		<tag k="natural" v="strait" />
		<tag k="ssr:stedsnr" v="306559" />
	</node>
	<node id="-204576" lat="59.3370555595" lon="10.6599805543">
		<tag k="name" v="Gårdstangen" />
		<tag k="natural" v="cape" />
		<tag k="ssr:stedsnr" v="306555" />
	</node>
	<node id="-204575" lat="59.3950000007" lon="10.6868388845">
		<tag k="name" v="Grystad" />
		<tag k="place" v="isolated_dwelling" />
		<tag k="ssr:stedsnr" v="306491" />
	</node>
	<node id="-204574" lat="59.4034805536" lon="10.6913805509">
		<tag k="name" v="Krokstad" />
		<tag k="place" v="farm" />
		<tag k="ssr:stedsnr" v="306480" />
	</node>
	<node id="-204573" lat="59.3866770769" lon="10.7234614622">
		<tag k="alt_name" v="Bjølsund" />
		<tag k="fixme" v="consider place=hamlet" />
		<tag k="name" v="Bjølsen" />
		<tag k="place" v="farm" />
		<tag k="ssr:stedsnr" v="306286" />
	</node>
	<node id="-204572" lat="59.3795638871" lon="10.7205250028">
		<tag k="name" v="Prestegården" />
		<tag k="place" v="farm" />
		<tag k="ssr:stedsnr" v="306278" />
	</node>
	<node id="-204571" lat="59.3579555552" lon="10.7627444443">
		<tag k="alt_name" v="Molvik nordre" />
		<tag k="name" v="Nordre Molvik" />
		<tag k="place" v="farm" />
		<tag k="ssr:stedsnr" v="306236" />
	</node>
	<node id="-204570" lat="59.3591277773" lon="10.7321750081">
		<tag k="alt_name" v="Mellem Kure;Kure midtre;Kure mellem" />
		<tag k="name" v="Mellom-Kure" />
		<tag k="place" v="farm" />
		<tag k="ssr:stedsnr" v="306235" />
	</node>
	<node id="-204569" lat="59.4456749963" lon="10.6367472181">
		<tag k="name" v="Orkerød" />
		<tag k="place" v="farm" />
		<tag k="ssr:stedsnr" v="305963" />
	</node>
	<node id="-204568" lat="59.4463277793" lon="10.6582999999">
		<tag k="alt_name" v="Rosnestangen" />
		<tag k="name" v="Rossnestangen" />
		<tag k="natural" v="cape" />
		<tag k="ssr:stedsnr" v="305959" />
	</node>
	<node id="-204567" lat="59.4443805582" lon="10.6463722237">
		<tag k="name" v="Rossnes" />
		<tag k="place" v="quarter" />
		<tag k="ssr:stedsnr" v="305958" />
	</node>
	<node id="-204566" lat="59.3055250022" lon="10.7030250064">
		<tag k="name" v="Taralden" />
		<tag k="place" v="islet" />
		<tag k="ssr:stedsnr" v="305669" />
	</node>
	<node id="-204565" lat="59.3010916653" lon="10.6926222163">
		<tag k="name" v="Danmark" />
		<tag k="natural" v="cape" />
		<tag k="ssr:stedsnr" v="305668" />
	</node>
	<node id="-204564" lat="59.3682388913" lon="10.6671055517">
		<tag k="fixme" v="consider natural=peak for the most distinct mountains in the district" />
		<tag k="name" v="Røysa" />
		<tag k="natural" v="hill" />
		<tag k="place" v="locality" />
		<tag k="ssr:stedsnr" v="305610" />
	</node>
	<node id="-204563" lat="59.4284250028" lon="10.7326611174">
		<tag k="name" v="Årvollfjorden" />
		<tag k="natural" v="bay" />
		<tag k="ssr:stedsnr" v="305364" />
	</node>
	<node id="-204562" lat="59.3746472232" lon="10.6505055485">
		<tag k="alt_name" v="Siljusskjæret" />
		<tag k="fixme" v="consider seamark:type=rock or natural=shoal" />
		<tag k="name" v="Sildumskjær" />
		<tag k="place" v="islet" />
		<tag k="ssr:stedsnr" v="210900" />
	</node>
	<node id="-204561" lat="59.3325194411" lon="10.6669194415">
		<tag k="amenity" v="place_of_worship" />
		<tag k="denomination" v="lutheran" />
		<tag k="name" v="Larkollen kirke" />
		<tag k="religion" v="christian" />
		<tag k="ssr:stedsnr" v="208314" />
	</node>
	<node id="-204560" lat="59.456372224" lon="10.6725722186">
		<tag k="name" v="Molbekkoset" />
		<tag k="natural" v="bay" />
		<tag k="ssr:stedsnr" v="187883" />
	</node>
	<node id="-204559" lat="59.4266000008" lon="10.707977771">
		<tag k="alt_name" v="Storebaug" />
		<tag k="name" v="Storebog" />
		<tag k="place" v="farm" />
		<tag k="ssr:stedsnr" v="184997" />
	</node>
	<node id="-204558" lat="59.4264666673" lon="10.5986249984">
		<tag k="name" v="Rød" />
		<tag k="place" v="farm" />
		<tag k="ssr:stedsnr" v="184978" />
	</node>
	<node id="-204557" lat="59.4526666641" lon="10.6869611028">
		<tag k="name" v="Trolldalen" />
		<tag k="natural" v="valley" />
		<tag k="place" v="locality" />
		<tag k="ssr:stedsnr" v="184944" />
	</node>
	<node id="-204555" lat="59.4665601378" lon="10.6425294013">
		<tag k="name" v="Fuglevik" />
		<tag k="place" v="farm" />
		<tag k="ssr:stedsnr" v="184891" />
	</node>
	<node id="-204553" lat="59.4705666685" lon="10.7631000079">
		<tag k="name" v="Dalen" />
		<tag k="place" v="farm" />
		<tag k="ssr:stedsnr" v="184718" />
	</node>
	<node id="-204552" lat="59.3296916643" lon="10.7383583288">
		<tag k="name" v="Kurefjorden" />
		<tag k="natural" v="bay" />
		<tag k="ssr:stedsnr" v="184616" />
	</node>
	<node id="-204551" lat="59.3296416706" lon="10.6888555608">
		<tag k="name" v="Grefsrød" />
		<tag k="place" v="farm" />
		<tag k="ssr:stedsnr" v="184612" />
	</node>
	<node id="-204550" lat="59.3525527817" lon="10.7140499928">
		<tag k="fixme" v="consider place=hamlet" />
		<tag k="name" v="Nærum" />
		<tag k="place" v="farm" />
		<tag k="ssr:stedsnr" v="184592" />
	</node>
	<node id="-204549" lat="59.3880500018" lon="10.698975002">
		<tag k="alt_name" v="Lyby nordre" />
		<tag k="name" v="Nordre Lyby" />
		<tag k="place" v="farm" />
		<tag k="ssr:stedsnr" v="184543" />
	</node>
	<node id="-204548" lat="59.4111972208" lon="10.7626138868">
		<tag k="name" v="Nygård" />
		<tag k="place" v="farm" />
		<tag k="ssr:stedsnr" v="184319" />
	</node>
	<node id="-204547" lat="59.3967111118" lon="10.7963527761">
		<tag k="alt_name" v="Fresjerbråten" />
		<tag k="name" v="Fredskjærbråten" />
		<tag k="place" v="farm" />
		<tag k="ssr:stedsnr" v="184302" />
	</node>
	<node id="-204546" lat="59.3986750031" lon="10.7367777741">
		<tag k="name" v="Gjønes" />
		<tag k="place" v="farm" />
		<tag k="ssr:stedsnr" v="184293" />
	</node>
	<node id="-204545" lat="59.3781420617" lon="10.7442928383">
		<tag k="fixme" v="consider place=hamlet" />
		<tag k="name" v="Rør" />
		<tag k="place" v="farm" />
		<tag k="ssr:stedsnr" v="184276" />
	</node>
	<node id="-204544" lat="59.4632166673" lon="10.6780111028">
		<tag k="name" v="Linnebaugen" />
		<tag k="place" v="farm" />
		<tag k="ssr:stedsnr" v="179249" />
	</node>
	<node id="-204543" lat="59.4368083297" lon="10.6212277738">
		<tag k="name" v="Bergersborg" />
		<tag k="place" v="quarter" />
		<tag k="ssr:stedsnr" v="177217" />
	</node>
	<node id="-204542" lat="59.4292013651" lon="10.6455794247">
		<tag k="name" v="Vårli" />
		<tag k="natural" v="beach" />
		<tag k="place" v="locality" />
		<tag k="ssr:stedsnr" v="177042" />
	</node>
	<node id="-204541" lat="59.4035777734" lon="10.7531333382">
		<tag k="alt_name" v="Kjellerød vestre" />
		<tag k="name" v="Vestre Kjellerød" />
		<tag k="place" v="farm" />
		<tag k="ssr:stedsnr" v="175854" />
	</node>
	<node id="-204540" lat="59.3893416638" lon="10.7288916656">
		<tag k="name" v="Jare" />
		<tag k="place" v="farm" />
		<tag k="ssr:stedsnr" v="175805" />
	</node>
	<node id="-204539" lat="59.3950944403" lon="10.7508999976">
		<tag k="name" v="Solstad" />
		<tag k="place" v="isolated_dwelling" />
		<tag k="ssr:stedsnr" v="175797" />
	</node>
	<node id="-204538" lat="59.3918916692" lon="10.7704416627">
		<tag k="name" v="Skauge" />
		<tag k="place" v="farm" />
		<tag k="ssr:stedsnr" v="175787" />
	</node>
	<node id="-204537" lat="59.4008611129" lon="10.7183277804">
		<tag k="name" v="Såstadbråten" />
		<tag k="place" v="quarter" />
		<tag k="ssr:stedsnr" v="175768" />
	</node>
	<node id="-204536" lat="59.4169249959" lon="10.7685055533">
		<tag k="name" v="Badefjellet" />
		<tag k="natural" v="cape" />
		<tag k="ssr:stedsnr" v="175755" />
	</node>
	<node id="-204535" lat="59.3658036462" lon="10.7491814222">
		<tag k="alt_name" v="Ror nordre;Nordre Roer" />
		<tag k="fixme" v="consider place=hamlet" />
		<tag k="name" v="Nordre Ror" />
		<tag k="old_name" v="Roer, n" />
		<tag k="place" v="farm" />
		<tag k="ssr:stedsnr" v="175345" />
	</node>
	<node id="-204534" lat="59.3778166677" lon="10.7444472263">
		<tag k="alt_name" v="Rør nordre" />
		<tag k="name" v="Nordre Rør" />
		<tag k="place" v="farm" />
		<tag k="ssr:stedsnr" v="175290" />
	</node>
	<node id="-204533" lat="59.3756305596" lon="10.7647000072">
		<tag k="name" v="Blomsholm" />
		<tag k="place" v="farm" />
		<tag k="ssr:stedsnr" v="175279" />
	</node>
	<node id="-204532" lat="59.4164111137" lon="10.6893000031">
		<tag k="name" v="Myra" />
		<tag k="place" v="locality" />
		<tag k="ssr:stedsnr" v="175125" />
	</node>
	<node id="-204531" lat="59.4260277775" lon="10.6998611053">
		<tag k="name" v="Hananbukta" />
		<tag k="natural" v="bay" />
		<tag k="ssr:stedsnr" v="175060" />
	</node>
	<node id="-204530" lat="59.4229194404" lon="10.7048527714">
		<tag k="alt_name" v="Lillebog" />
		<tag k="name" v="Lillebaug" />
		<tag k="place" v="farm" />
		<tag k="ssr:stedsnr" v="175046" />
	</node>
	<node id="-204529" lat="59.415174998" lon="10.6827527843">
		<tag k="name" v="Fredensborg" />
		<tag k="place" v="quarter" />
		<tag k="ssr:stedsnr" v="175017" />
	</node>
	<node id="-204528" lat="59.4139611088" lon="10.668083335">
		<tag k="name" v="Dyre" />
		<tag k="place" v="quarter" />
		<tag k="ssr:stedsnr" v="175005" />
	</node>
	<node id="-204527" lat="59.3991694414" lon="10.6925083291">
		<tag k="loc_name" v="Nøysom" />
		<tag k="name" v="Nøisom" />
		<tag k="place" v="farm" />
		<tag k="ssr:stedsnr" v="174907" />
	</node>
	<node id="-204526" lat="59.3990027802" lon="10.7053416584">
		<tag k="name" v="Hestehagen" />
		<tag k="place" v="locality" />
		<tag k="ssr:stedsnr" v="174906" />
	</node>
	<node id="-204525" lat="59.4355194484" lon="10.5851805638">
		<tag k="name" v="Gullholmsundet" />
		<tag k="natural" v="strait" />
		<tag k="ssr:stedsnr" v="174809" />
	</node>
	<node id="-204524" lat="59.3290472221" lon="10.6680861094">
		<tag k="name" v="Støtvig hotell" />
		<tag k="ssr:stedsnr" v="174472" />
		<tag k="tourism" v="hotel" />
	</node>
	<node id="-204523" lat="59.320322223" lon="10.7038416748">
		<tag k="name" v="Hollendersten" />
		<tag k="place" v="locality" />
		<tag k="ssr:stedsnr" v="174447" />
	</node>
	<node id="-204522" lat="59.4465055541" lon="10.7557611198">
		<tag k="name" v="Bjørketangen" />
		<tag k="natural" v="cape" />
		<tag k="ssr:stedsnr" v="174241" />
	</node>
	<node id="-204521" lat="59.3451916688" lon="10.7141083257">
		<tag k="alt_name" v="Kubberød vestre" />
		<tag k="name" v="Vestre Kubberød" />
		<tag k="place" v="farm" />
		<tag k="ssr:stedsnr" v="174230" />
	</node>
	<node id="-204520" lat="59.4531388931" lon="10.6731000063">
		<tag k="fixme" v="consider natural=peak for the most distinct mountains in the district" />
		<tag k="name" v="Vardås" />
		<tag k="natural" v="hill" />
		<tag k="place" v="locality" />
		<tag k="ssr:stedsnr" v="174225" />
	</node>
	<node id="-204519" lat="59.3934333299" lon="10.6530388808">
		<tag k="name" v="Husebyskogen" />
		<tag k="place" v="locality" />
		<tag k="ssr:stedsnr" v="174137" />
	</node>
	<node id="-204518" lat="59.378630554" lon="10.6587611136">
		<tag k="man_made" v="quay" />
		<tag k="name" v="Lagerhusbrygga" />
		<tag k="place" v="locality" />
		<tag k="ssr:stedsnr" v="174076" />
	</node>
	<node id="-204517" lat="59.3648722266" lon="10.6788000039">
		<tag k="fixme" v="consider boundary=protected_area and relevant protect_class if not nature reserve" />
		<tag k="leisure" v="nature_reserve" />
		<tag k="name" v="Kajalunden naturreservat" />
		<tag k="ssr:stedsnr" v="174046" />
	</node>
	<node id="-204516" lat="59.4768083363" lon="10.6609611088">
		<tag k="name" v="Kjørbukta" />
		<tag k="natural" v="bay" />
		<tag k="ssr:stedsnr" v="173762" />
	</node>
	<node id="-204515" lat="59.4727138866" lon="10.6959583297">
		<tag k="name" v="Kambobekken" />
		<tag k="ssr:stedsnr" v="173761" />
		<tag k="waterway" v="stream" />
	</node>
	<node id="-204514" lat="59.4306500015" lon="10.667336116">
		<tag k="fixme" v="consider place=suburb, village or hamlet" />
		<tag k="name" v="Skarmyra" />
		<tag k="place" v="quarter" />
		<tag k="ssr:stedsnr" v="173061" />
	</node>
	<node id="-204513" lat="59.3888944426" lon="10.7441416689">
		<tag k="bridge" v="yes" />
		<tag k="layer" v="1" />
		<tag k="name" v="Patterød øst" />
		<tag k="ssr:stedsnr" v="167478" />
	</node>
	<node id="-204511" lat="59.3813083368" lon="10.6816888969">
		<tag k="name" v="Haug" />
		<tag k="place" v="farm" />
		<tag k="ssr:stedsnr" v="149984" />
	</node>
	<node id="-204510" lat="59.3072222265" lon="10.6934666753">
		<tag k="alt_name" v="Teiebærn" />
		<tag k="name" v="Teiebærholmen" />
		<tag k="natural" v="cape" />
		<tag k="ssr:stedsnr" v="149894" />
	</node>
	<node id="-204509" lat="59.4688083301" lon="10.6253888897">
		<tag k="name" v="Flantorsk" />
		<tag k="place" v="islet" />
		<tag k="ssr:stedsnr" v="149885" />
	</node>
	<node id="-204508" lat="59.5068972203" lon="10.631188897">
		<tag k="name" v="Pipergrunnen" />
		<tag k="natural" v="shoal" />
		<tag k="place" v="locality" />
		<tag k="ssr:stedsnr" v="149779" />
	</node>
	<node id="-204507" lat="59.3912250014" lon="10.6492694533">
		<tag k="name" v="Kollestranda" />
		<tag k="natural" v="beach" />
		<tag k="place" v="locality" />
		<tag k="ssr:stedsnr" v="146837" />
	</node>
	<node id="-204506" lat="59.4761472196" lon="10.6459222177">
		<tag k="alt_name" v="Ås søndre" />
		<tag k="name" v="Søndre Ås" />
		<tag k="place" v="farm" />
		<tag k="ssr:stedsnr" v="124904" />
	</node>
	<node id="-204505" lat="59.4872361129" lon="10.6582583358">
		<tag k="name" v="Renneflot" />
		<tag k="place" v="farm" />
		<tag k="ssr:stedsnr" v="124898" />
	</node>
	<node id="-204504" lat="59.4699361137" lon="10.6418944456">
		<tag k="name" v="Røre" />
		<tag k="place" v="farm" />
		<tag k="ssr:stedsnr" v="123968" />
	</node>
	<node id="-204503" lat="59.4636222209" lon="10.7322611086">
		<tag k="alt_name" v="Vanemtjernet" />
		<tag k="name" v="Vannemtjernet" />
		<tag k="natural" v="water" />
		<tag k="ssr:stedsnr" v="123744" />
	</node>
	<node id="-204502" lat="59.3306916646" lon="10.6592000074">
		<tag k="name" v="Larkollsundet" />
		<tag k="natural" v="strait" />
		<tag k="ssr:stedsnr" v="123649" />
	</node>
	<node id="-204501" lat="59.3328583299" lon="10.6520944493">
		<tag k="name" v="Kollen" />
		<tag k="place" v="island" />
		<tag k="ssr:stedsnr" v="123648" />
	</node>
	<node id="-204500" lat="59.3870138856" lon="10.6379472261">
		<tag k="name" v="Mellomgrunnen" />
		<tag k="natural" v="shoal" />
		<tag k="place" v="locality" />
		<tag k="ssr:stedsnr" v="123578" />
	</node>
	<node id="-204499" lat="59.4054361124" lon="10.6178944372">
		<tag k="name" v="Steinergrunnen" />
		<tag k="natural" v="shoal" />
		<tag k="place" v="locality" />
		<tag k="ssr:stedsnr" v="123556" />
	</node>
	<node id="-204498" lat="59.3429444468" lon="10.7231027857">
		<tag k="name" v="Kuremyra" />
		<tag k="place" v="farm" />
		<tag k="ssr:stedsnr" v="123526" />
	</node>
	<node id="-204497" lat="59.3449555576" lon="10.7404694445">
		<tag k="alt_name" v="Rossnesbukta" />
		<tag k="name" v="Rosnesbukta" />
		<tag k="natural" v="bay" />
		<tag k="ssr:stedsnr" v="123521" />
	</node>
	<node id="-204496" lat="59.4169555592" lon="10.6041916677">
		<tag k="fixme" v="consider seamark:type=rock or natural=shoal" />
		<tag k="name" v="Albyskjæra" />
		<tag k="place" v="islet" />
		<tag k="ssr:stedsnr" v="116947" />
	</node>
	<node id="-204495" lat="59.393794448" lon="10.762580549">
		<tag k="name" v="Sørby" />
		<tag k="place" v="farm" />
		<tag k="ssr:stedsnr" v="115783" />
	</node>
	<node id="-204494" lat="59.384741666" lon="10.7948916623">
		<tag k="name" v="Brekka" />
		<tag k="place" v="farm" />
		<tag k="ssr:stedsnr" v="115700" />
	</node>
	<node id="-204493" lat="59.3932361155" lon="10.804219439">
		<tag k="name" v="Søgårdsdalen" />
		<tag k="natural" v="valley" />
		<tag k="place" v="locality" />
		<tag k="ssr:stedsnr" v="115695" />
	</node>
	<node id="-204492" lat="59.3955452837" lon="10.8028303374">
		<tag k="name" v="Fredskjærkilen" />
		<tag k="natural" v="bay" />
		<tag k="ssr:stedsnr" v="115689" />
	</node>
	<node id="-204491" lat="59.3943805539" lon="10.7980805536">
		<tag k="name" v="Burøya" />
		<tag k="place" v="islet" />
		<tag k="ssr:stedsnr" v="115688" />
	</node>
	<node id="-204490" lat="59.3899583316" lon="10.7746722179">
		<tag k="alt_name" v="Utne nordre" />
		<tag k="name" v="Nordre Utne" />
		<tag k="place" v="farm" />
		<tag k="ssr:stedsnr" v="115687" />
	</node>
	<node id="-204489" lat="59.4136194429" lon="10.759838886">
		<tag k="name" v="Bergebingen" />
		<tag k="place" v="locality" />
		<tag k="ssr:stedsnr" v="115716" />
	</node>
	<node id="-204488" lat="59.4160555577" lon="10.7704500022">
		<tag k="name" v="Kjellerødtangen" />
		<tag k="natural" v="cape" />
		<tag k="ssr:stedsnr" v="115714" />
	</node>
	<node id="-204487" lat="59.3741055563" lon="10.7256000067">
		<tag k="name" v="Knapstad" />
		<tag k="place" v="farm" />
		<tag k="ssr:stedsnr" v="115350" />
	</node>
	<node id="-204486" lat="59.3548861113" lon="10.7723666702">
		<tag k="name" v="Sarpeløkka" />
		<tag k="place" v="farm" />
		<tag k="ssr:stedsnr" v="115059" />
	</node>
	<node id="-204485" lat="59.3835416665" lon="10.6792638824">
		<tag k="alt_name" v="Hasle vestre" />
		<tag k="name" v="Vestre Hasle" />
		<tag k="place" v="farm" />
		<tag k="ssr:stedsnr" v="114930" />
	</node>
	<node id="-204484" lat="59.4130027771" lon="10.6594916711">
		<tag k="name" v="Værlevangen" />
		<tag k="place" v="locality" />
		<tag k="ssr:stedsnr" v="114789" />
	</node>
	<node id="-204483" lat="59.3371027795" lon="10.7267638915">
		<tag k="name" v="Holm" />
		<tag k="place" v="farm" />
		<tag k="ssr:stedsnr" v="115011" />
	</node>
	<node id="-204482" lat="59.3260694482" lon="10.6740555543">
		<tag k="amenity" v="school" />
		<tag k="name" v="Rørvik skole" />
		<tag k="ssr:stedsnr" v="114401" />
	</node>
	<node id="-204481" lat="59.3186305591" lon="10.6990805636">
		<tag k="name" v="Kurestekket" />
		<tag k="natural" v="cape" />
		<tag k="ssr:stedsnr" v="114394" />
	</node>
	<node id="-204480" lat="59.3343305551" lon="10.6791222156">
		<tag k="name" v="Medgårdsskogen" />
		<tag k="place" v="locality" />
		<tag k="ssr:stedsnr" v="114456" />
	</node>
	<node id="-204479" lat="59.4540388881" lon="10.6260055539">
		<tag k="alt_name" v="Ramberg søndre" />
		<tag k="name" v="Søndre Ramberg" />
		<tag k="place" v="farm" />
		<tag k="ssr:stedsnr" v="114182" />
	</node>
	<node id="-204478" lat="59.3287527798" lon="10.6444833379">
		<tag k="name" v="Fugleodden" />
		<tag k="natural" v="cape" />
		<tag k="ssr:stedsnr" v="114079" />
	</node>
	<node id="-204477" lat="59.4668055569" lon="10.6416916699">
		<tag k="name" v="Fuglevik" />
		<tag k="place" v="farm" />
		<tag k="ssr:stedsnr" v="113785" />
	</node>
	<node id="-204476" lat="59.3702055594" lon="10.6886888964">
		<tag k="name" v="Sørliåsen" />
		<tag k="place" v="farm" />
		<tag k="ssr:stedsnr" v="114067" />
	</node>
	<node id="-204475" lat="59.3781083348" lon="10.6658111111">
		<tag k="name" v="Årefjorden" />
		<tag k="place" v="isolated_dwelling" />
		<tag k="ssr:stedsnr" v="114055" />
	</node>
	<node id="-204474" lat="59.4332138861" lon="10.6818138935">
		<tag k="amenity" v="school" />
		<tag k="name" v="Krapfoss skole" />
		<tag k="ssr:stedsnr" v="113071" />
	</node>
	<node id="-204473" lat="59.4267583335" lon="10.6858833345">
		<tag k="name" v="Ørebukta" />
		<tag k="natural" v="bay" />
		<tag k="ssr:stedsnr" v="113062" />
	</node>
	<node id="-204472" lat="59.4532805518" lon="10.7508749923">
		<tag k="bridge" v="yes" />
		<tag k="layer" v="1" />
		<tag k="name" v="Rød" />
		<tag k="ssr:stedsnr" v="107601" />
	</node>
	<node id="-204471" lat="59.3382277794" lon="10.6474666749">
		<tag k="name" v="Langgrunnen" />
		<tag k="natural" v="shoal" />
		<tag k="place" v="locality" />
		<tag k="ssr:stedsnr" v="89882" />
	</node>
	<node id="-204470" lat="59.4705472215" lon="10.603549996">
		<tag k="name" v="Rambergkrakken" />
		<tag k="natural" v="shoal" />
		<tag k="place" v="locality" />
		<tag k="ssr:stedsnr" v="89865" />
	</node>
	<node id="-204469" lat="59.3478805562" lon="10.6615833264">
		<tag k="alt_name" v="Botnerbaugen" />
		<tag k="name" v="Botnerbogen" />
		<tag k="natural" v="bay" />
		<tag k="ssr:stedsnr" v="89832" />
	</node>
	<node id="-204468" lat="59.319669445" lon="10.7122972199">
		<tag k="name" v="Ulvegrunnen" />
		<tag k="natural" v="shoal" />
		<tag k="place" v="locality" />
		<tag k="ssr:stedsnr" v="89779" />
	</node>
	<node id="-204467" lat="59.4948805541" lon="10.664480558">
		<tag k="alt_name" v="Kongshamn" />
		<tag k="name" v="Kongshavn" />
		<tag k="place" v="locality" />
		<tag k="ssr:stedsnr" v="89774" />
	</node>
	<node id="-204465" lat="59.4174833329" lon="10.598924996">
		<tag k="alt_name" v="Bredbukt;Bredebukt" />
		<tag k="name" v="Breidbukta" />
		<tag k="natural" v="bay" />
		<tag k="ssr:stedsnr" v="63978" />
	</node>
	<node id="-204464" lat="59.4161166688" lon="10.687749995">
		<tag k="name" v="Kvaen" />
		<tag k="place" v="farm" />
		<tag k="ssr:stedsnr" v="63974" />
	</node>
	<node id="-204463" lat="59.4687000014" lon="10.6941111033">
		<tag k="name" v="Nøkkeland" />
		<tag k="place" v="farm" />
		<tag k="ssr:stedsnr" v="63967" />
	</node>
	<node id="-204462" lat="59.4470722266" lon="10.6136055602">
		<tag k="name" v="Refsnes" />
		<tag k="place" v="suburb" />
		<tag k="ssr:stedsnr" v="63960" />
	</node>
	<node id="-204461" lat="59.3609472181" lon="10.6886000024">
		<tag k="name" v="Børsebakke" />
		<tag k="place" v="farm" />
		<tag k="ssr:stedsnr" v="63587" />
	</node>
	<node id="-204460" lat="59.3716555548" lon="10.6584388941">
		<tag k="bay" v="fjord" />
		<tag k="name" v="Årefjorden" />
		<tag k="natural" v="bay" />
		<tag k="ssr:stedsnr" v="63572" />
	</node>
	<node id="-204459" lat="59.3835074307" lon="10.7039893932">
		<tag k="fixme" v="consider place=hamlet" />
		<tag k="name" v="Tøstad" />
		<tag k="place" v="farm" />
		<tag k="ssr:stedsnr" v="63554" />
	</node>
	<node id="-204458" lat="59.5074416665" lon="10.6285027718">
		<tag k="name" v="Bile" />
		<tag k="place" v="islet" />
		<tag k="ssr:stedsnr" v="63545" />
	</node>
	<node id="-204457" lat="59.4137749958" lon="10.7297444502">
		<tag k="name" v="Nesenga" />
		<tag k="place" v="farm" />
		<tag k="ssr:stedsnr" v="63347" />
	</node>
	<node id="-204456" lat="59.3872166677" lon="10.855947216">
		<tag k="alt_name" v="Vannsjø" />
		<tag k="name" v="Vansjø" />
		<tag k="natural" v="water" />
		<tag k="ssr:stedsnr" v="63316" />
		<tag k="water" v="lake" />
	</node>
	<node id="-204455" lat="59.3758638923" lon="10.7505749946">
		<tag k="name" v="Gate" />
		<tag k="place" v="farm" />
		<tag k="ssr:stedsnr" v="63306" />
	</node>
	<node id="-204454" lat="59.4385337593" lon="10.6323111168">
		<tag k="alt_name" v="Karlshus" />
		<tag k="name" v="Fjeldly" />
		<tag k="place" v="isolated_dwelling" />
		<tag k="ssr:stedsnr" v="60352" />
	</node>
	<node id="-204453" lat="59.4454638921" lon="10.6756666675">
		<tag k="name" v="Verket" />
		<tag k="place" v="quarter" />
		<tag k="ssr:stedsnr" v="56909" />
	</node>
	<node id="-204452" lat="59.4721361122" lon="10.6941444501">
		<tag k="name" v="Skoleåsen" />
		<tag k="place" v="quarter" />
		<tag k="ssr:stedsnr" v="56647" />
	</node>
	<node id="-204451" lat="59.4853722257" lon="10.6422916596">
		<tag k="name" v="Nesskogen" />
		<tag k="place" v="locality" />
		<tag k="ssr:stedsnr" v="56629" />
	</node>
	<node id="-204450" lat="59.4473749994" lon="10.6129861125">
		<tag k="name" v="Refsnestangen" />
		<tag k="natural" v="cape" />
		<tag k="ssr:stedsnr" v="56213" />
	</node>
	<node id="-204449" lat="59.4349111136" lon="10.651500008">
		<tag k="man_made" v="quay" />
		<tag k="name" v="Vestre Kanalbrygga" />
		<tag k="place" v="locality" />
		<tag k="ssr:stedsnr" v="56199" />
	</node>
	<node id="-204448" lat="59.3906611104" lon="10.7644583289">
		<tag k="name" v="Solbakken" />
		<tag k="place" v="farm" />
		<tag k="ssr:stedsnr" v="54791" />
	</node>
	<node id="-204447" lat="59.3874694428" lon="10.7845416674">
		<tag k="alt_name" v="Fredskjær vestre" />
		<tag k="name" v="Vestre Fredskjær" />
		<tag k="place" v="farm" />
		<tag k="ssr:stedsnr" v="54730" />
	</node>
	<node id="-204446" lat="59.3968944461" lon="10.8085000082">
		<tag k="name" v="Bjørnepanna" />
		<tag k="place" v="islet" />
		<tag k="ssr:stedsnr" v="54723" />
	</node>
	<node id="-204445" lat="59.3843888925" lon="10.7385333343">
		<tag k="name" v="Haradalen" />
		<tag k="place" v="locality" />
		<tag k="ssr:stedsnr" v="54711" />
	</node>
	<node id="-204444" lat="59.3387055556" lon="10.7189861194">
		<tag k="name" v="Skogli" />
		<tag k="place" v="farm" />
		<tag k="ssr:stedsnr" v="54017" />
	</node>
	<node id="-204443" lat="59.4082083317" lon="10.6984388886">
		<tag k="alt_name" v="Dilling søndre" />
		<tag k="name" v="Søndre Dilling" />
		<tag k="place" v="farm" />
		<tag k="ssr:stedsnr" v="53934" />
	</node>
	<node id="-204442" lat="59.4068861073" lon="10.6965055472">
		<tag k="fixme" v="consider place=suburb, village or hamlet" />
		<tag k="name" v="Dilling" />
		<tag k="place" v="quarter" />
		<tag k="ssr:stedsnr" v="53933" />
	</node>
	<node id="-204441" lat="59.3308750023" lon="10.7066361129">
		<tag k="fixme" v="consider natural=peak for the most distinct mountains in the district" />
		<tag k="name" v="Bølås" />
		<tag k="natural" v="hill" />
		<tag k="place" v="locality" />
		<tag k="ssr:stedsnr" v="53439" />
	</node>
	<node id="-204440" lat="59.448850003" lon="10.7341333308">
		<tag k="fixme" v="consider natural=peak for the most distinct mountains in the district" />
		<tag k="name" v="Merraåsen" />
		<tag k="natural" v="hill" />
		<tag k="place" v="locality" />
		<tag k="ssr:stedsnr" v="53215" />
	</node>
	<node id="-204439" lat="59.4659555567" lon="10.7467638866">
		<tag k="fixme" v="consider natural=peak for the most distinct mountains in the district" />
		<tag k="name" v="Svartås" />
		<tag k="natural" v="hill" />
		<tag k="place" v="locality" />
		<tag k="ssr:stedsnr" v="53214" />
	</node>
	<node id="-204438" lat="59.4631944421" lon="10.7260444432">
		<tag k="amenity" v="cafe" />
		<tag k="name" v="Skihytta" />
		<tag k="ssr:stedsnr" v="53212" />
	</node>
	<node id="-204437" lat="59.3398222247" lon="10.7154888926">
		<tag k="fixme" v="consider natural=peak for the most distinct mountains in the district" />
		<tag k="name" v="Hakkerås" />
		<tag k="natural" v="hill" />
		<tag k="place" v="locality" />
		<tag k="ssr:stedsnr" v="53206" />
	</node>
	<node id="-204436" lat="59.344341671" lon="10.7153138881">
		<tag k="alt_name" v="Kubberød østre" />
		<tag k="name" v="Østre Kubberød" />
		<tag k="place" v="farm" />
		<tag k="ssr:stedsnr" v="53204" />
	</node>
	<node id="-204435" lat="59.3722194483" lon="10.7181638855">
		<tag k="alt_name" v="Fløgstad søndre" />
		<tag k="name" v="Søndre Fløgstad" />
		<tag k="place" v="farm" />
		<tag k="ssr:stedsnr" v="53082" />
	</node>
	<node id="-204434" lat="59.3866500283" lon="10.6529863271">
		<tag k="leisure" v="marina" />
		<tag k="name" v="Fuglevik båthavn" />
		<tag k="ssr:stedsnr" v="53140" />
	</node>
	<node id="-204433" lat="59.3816222198" lon="10.6543833247">
		<tag k="name" v="Gunnarsbyneset" />
		<tag k="place" v="locality" />
		<tag k="ssr:stedsnr" v="53139" />
	</node>
	<node id="-204432" lat="59.3642666705" lon="10.6778388975">
		<tag k="name" v="Kajalunden" />
		<tag k="place" v="locality" />
		<tag k="ssr:stedsnr" v="53045" />
	</node>
	<node id="-204431" lat="59.4315805591" lon="10.7136083256">
		<tag k="name" v="Båten" />
		<tag k="natural" v="cape" />
		<tag k="ssr:stedsnr" v="53041" />
	</node>
	<node id="-204430" lat="59.3582527772" lon="10.6955388838">
		<tag k="name" v="Opstadbekken" />
		<tag k="ssr:stedsnr" v="53037" />
		<tag k="waterway" v="stream" />
	</node>
	<node id="-204429" lat="59.3577999977" lon="10.6631277774">
		<tag k="alt_name" v="Tangen nedre" />
		<tag k="name" v="Nedre Tangen" />
		<tag k="place" v="isolated_dwelling" />
		<tag k="ssr:stedsnr" v="53020" />
	</node>
	<node id="-204428" lat="59.3573083354" lon="10.7010861056">
		<tag k="name" v="Nærumskogen" />
		<tag k="place" v="locality" />
		<tag k="ssr:stedsnr" v="53017" />
	</node>
	<node id="-204427" lat="59.3585055558" lon="10.6590277865">
		<tag k="name" v="Galgeberget" />
		<tag k="place" v="islet" />
		<tag k="ssr:stedsnr" v="53015" />
	</node>
	<node id="-204426" lat="59.3461750012" lon="10.745655564">
		<tag k="name" v="Kanaholmen" />
		<tag k="natural" v="hill" />
		<tag k="place" v="locality" />
		<tag k="ssr:stedsnr" v="53008" />
	</node>
	<node id="-204425" lat="59.4688111129" lon="10.6824527739">
		<tag k="alt_name" v="Kilsås" />
		<tag k="fixme" v="consider natural=peak for the most distinct mountains in the district" />
		<tag k="name" v="Mølleåsen" />
		<tag k="natural" v="hill" />
		<tag k="place" v="locality" />
		<tag k="ssr:stedsnr" v="52749" />
	</node>
	<node id="-204424" lat="59.2998583353" lon="10.6866583414">
		<tag k="alt_name" v="Elødøya-Sletter naturreservat" />
		<tag k="fixme" v="consider boundary=protected_area and relevant protect_class if not nature reserve" />
		<tag k="leisure" v="nature_reserve" />
		<tag k="name" v="Eldøya-Sletter naturreservat" />
		<tag k="ssr:stedsnr" v="52094" />
	</node>
	<node id="-204423" lat="59.3037888869" lon="10.6890138917">
		<tag k="name" v="Søndre Danmarksbukta" />
		<tag k="natural" v="bay" />
		<tag k="ssr:stedsnr" v="52093" />
	</node>
	<node id="-204422" lat="59.4655833298" lon="10.69959167">
		<tag k="bridge" v="yes" />
		<tag k="layer" v="1" />
		<tag k="name" v="Nøkkeland vest" />
		<tag k="ssr:stedsnr" v="46633" />
	</node>
	<node id="-204421" lat="59.4406277735" lon="10.7055388893">
		<tag k="bridge" v="yes" />
		<tag k="layer" v="1" />
		<tag k="name" v="Patterød vest" />
		<tag k="ssr:stedsnr" v="46631" />
	</node>
	<node id="-204420" lat="59.4447666681" lon="10.6844055563">
		<tag k="bridge" v="yes" />
		<tag k="layer" v="1" />
		<tag k="name" v="Tigerplassen" />
		<tag k="ssr:stedsnr" v="46628" />
	</node>
	<node id="-204419" lat="59.3230333363" lon="10.7038361025">
		<tag k="name" v="Apalberget" />
		<tag k="natural" v="hill" />
		<tag k="place" v="locality" />
		<tag k="ssr:stedsnr" v="28897" />
	</node>
	<node id="-204418" lat="59.3395611089" lon="10.7302805625">
		<tag k="alt_name" v="Kureskjær" />
		<tag k="name" v="Kureskjæret" />
		<tag k="natural" v="cape" />
		<tag k="ssr:stedsnr" v="28836" />
	</node>
	<node id="-204417" lat="59.4596861149" lon="10.6191666585">
		<tag k="name" v="Rambergnebba" />
		<tag k="natural" v="cape" />
		<tag k="ssr:stedsnr" v="28133" />
	</node>
	<node id="-204416" lat="59.3315361073" lon="10.6627555526">
		<tag k="name" v="Sandtangen" />
		<tag k="natural" v="cape" />
		<tag k="ssr:stedsnr" v="25859" />
	</node>
	<node id="-204415" lat="59.3260361073" lon="10.6682027784">
		<tag k="alt_name" v="Kloddskjæra;Klodskjæret" />
		<tag k="fixme" v="consider seamark:type=rock or natural=shoal" />
		<tag k="name" v="Klodskjæra" />
		<tag k="place" v="islet" />
		<tag k="ssr:stedsnr" v="25858" />
	</node>
	<node id="-204414" lat="59.5268694402" lon="10.623125001">
		<tag k="name" v="Bevøykollen" />
		<tag k="natural" v="shoal" />
		<tag k="place" v="locality" />
		<tag k="ssr:stedsnr" v="3498" />
	</node>
	<node id="-204413" lat="59.5053861121" lon="10.6032249944">
		<tag k="name" v="Bilekrakken" />
		<tag k="natural" v="shoal" />
		<tag k="place" v="locality" />
		<tag k="ssr:stedsnr" v="3478" />
	</node>
	<node id="-204412" lat="59.4388416681" lon="10.6646888877">
		<tag k="name" v="Mosseelva" />
		<tag k="ssr:stedsnr" v="2995" />
		<tag k="waterway" v="river" />
	</node>
	<node id="-204411" lat="59.4097111145" lon="10.6549249995">
		<tag k="alt_name" v="Feste nordre" />
		<tag k="name" v="Nordre Feste" />
		<tag k="place" v="farm" />
		<tag k="ssr:stedsnr" v="2972" />
	</node>
	<node id="-204410" lat="59.4140777753" lon="10.6981861133">
		<tag k="fixme" v="consider place=hamlet" />
		<tag k="name" v="Årvoll" />
		<tag k="place" v="farm" />
		<tag k="ssr:stedsnr" v="2968" />
	</node>
	<node id="-204409" lat="59.4377333297" lon="10.6046805579">
		<tag k="alt_name" v="Tronvika" />
		<tag k="fixme" v="consider place=hamlet" />
		<tag k="name" v="Tronvik" />
		<tag k="place" v="farm" />
		<tag k="ssr:stedsnr" v="2933" />
	</node>
	<node id="-204408" lat="59.383483336" lon="10.671816662">
		<tag k="alt_name" v="Bakke nordre" />
		<tag k="name" v="Nordre Bakke" />
		<tag k="place" v="farm" />
		<tag k="ssr:stedsnr" v="2556" />
	</node>
	<node id="-204407" lat="59.3942888901" lon="10.6357499991">
		<tag k="name" v="Lille Revlingen" />
		<tag k="place" v="islet" />
		<tag k="ssr:stedsnr" v="2542" />
	</node>
	<node id="-204406" lat="59.3980249962" lon="10.6346249961">
		<tag k="alt_name" v="Revlingen" />
		<tag k="name" v="Store Revlingen" />
		<tag k="place" v="islet" />
		<tag k="ssr:stedsnr" v="2541" />
	</node>
	<node id="-204405" lat="59.3413916684" lon="10.725083336">
		<tag k="name" v="Mellegård" />
		<tag k="place" v="farm" />
		<tag k="ssr:stedsnr" v="2503" />
	</node>
	<node id="-204404" lat="59.4190999957" lon="10.7607166684">
		<tag k="alt_name" v="Lille Kvernøy" />
		<tag k="name" v="Lille Kvernøya" />
		<tag k="place" v="islet" />
		<tag k="ssr:stedsnr" v="2358" />
	</node>
	<node id="-204403" lat="59.365266664" lon="10.7496583384">
		<tag k="alt_name" v="Ror midtre" />
		<tag k="name" v="Midtre Ror" />
		<tag k="place" v="farm" />
		<tag k="ssr:stedsnr" v="2299" />
	</node>
	<node id="-204402" lat="59.3677861099" lon="10.7568083395">
		<tag k="name" v="Kroken" />
		<tag k="place" v="farm" />
		<tag k="ssr:stedsnr" v="2297" />
	</node>
	<node id="-204396" lat="59.3429767223" lon="10.6615112781">
		<tag k="name" v="Finnland" />
		<tag k="place" v="farm" />
		<tag k="ssr:stedsnr" v="971510" />
	</node>
	<node id="-204395" lat="59.3421805818" lon="10.6634674361">
		<tag k="name" v="Sjøholt" />
		<tag k="place" v="farm" />
		<tag k="ssr:stedsnr" v="971508" />
	</node>
	<node id="-204394" lat="59.3408605105" lon="10.6642715662">
		<tag k="name" v="Tarvelig" />
		<tag k="place" v="farm" />
		<tag k="ssr:stedsnr" v="971507" />
	</node>
	<node id="-204393" lat="59.4623861102" lon="10.6302194408">
		<tag k="name" v="Nebba" />
		<tag k="natural" v="beach" />
		<tag k="place" v="locality" />
		<tag k="ssr:stedsnr" v="966214" />
	</node>
	<node id="-204392" lat="59.4371999993" lon="10.6351944492">
		<tag k="name" v="Bellevue" />
		<tag k="place" v="suburb" />
		<tag k="ssr:stedsnr" v="965163" />
	</node>
	<node id="-204391" lat="59.3916944432" lon="10.7671722298">
		<tag k="name" v="Sandbekk" />
		<tag k="place" v="farm" />
		<tag k="ssr:stedsnr" v="964762" />
	</node>
	<node id="-204390" lat="59.409333336" lon="10.7119916725">
		<tag k="name" v="Dramstadbukta" />
		<tag k="natural" v="bay" />
		<tag k="ssr:stedsnr" v="963922" />
	</node>
	<node id="-204389" lat="59.3943166701" lon="10.7112527752">
		<tag k="name" v="Paradiskroken" />
		<tag k="place" v="locality" />
		<tag k="ssr:stedsnr" v="963919" />
	</node>
	<node id="-204388" lat="59.3873833314" lon="10.7915999933">
		<tag k="name" v="Fredskjærbekken" />
		<tag k="ssr:stedsnr" v="964026" />
		<tag k="waterway" v="stream" />
	</node>
	<node id="-204387" lat="59.3356444429" lon="10.688713894">
		<tag k="alt_name" v="Støtvik søndre;Søndre Støtvik" />
		<tag k="name" v="Nedre Støtvik" />
		<tag k="place" v="farm" />
		<tag k="ssr:stedsnr" v="963472" />
	</node>
	<node id="-204386" lat="59.4494972247" lon="10.6936666633">
		<tag k="name" v="Grindvoll" />
		<tag k="place" v="suburb" />
		<tag k="ssr:stedsnr" v="963221" />
	</node>
	<node id="-204385" lat="59.3431138926" lon="10.6957500009">
		<tag k="name" v="Damsmyr" />
		<tag k="natural" v="wetland" />
		<tag k="ssr:stedsnr" v="963220" />
	</node>
	<node id="-204384" lat="59.4555472198" lon="10.6181750044">
		<tag k="name" v="Dragonfjellet" />
		<tag k="place" v="locality" />
		<tag k="ssr:stedsnr" v="963219" />
	</node>
	<node id="-204383" lat="59.3766111146" lon="10.6636083306">
		<tag k="name" v="Villskog" />
		<tag k="place" v="farm" />
		<tag k="ssr:stedsnr" v="963070" />
	</node>
	<node id="-204382" lat="59.3756194427" lon="10.6848944489">
		<tag k="name" v="Vestli" />
		<tag k="place" v="locality" />
		<tag k="ssr:stedsnr" v="963119" />
	</node>
	<node id="-204381" lat="59.410194446" lon="10.6899749964">
		<tag k="alt_name" v="Breidsand" />
		<tag k="name" v="Bredsand" />
		<tag k="place" v="quarter" />
		<tag k="ssr:stedsnr" v="963117" />
	</node>
	<node id="-204380" lat="59.335575004" lon="10.6611805533">
		<tag k="name" v="Rødstranda" />
		<tag k="natural" v="beach" />
		<tag k="place" v="locality" />
		<tag k="ssr:stedsnr" v="963105" />
	</node>
	<node id="-204379" lat="59.326402778" lon="10.6421361148">
		<tag k="alt_name" v="Eløyrabben" />
		<tag k="name" v="Eldøyrabben" />
		<tag k="place" v="islet" />
		<tag k="ssr:stedsnr" v="963104" />
	</node>
	<node id="-204378" lat="59.3112611109" lon="10.687050005">
		<tag k="name" v="Sørskogen" />
		<tag k="place" v="locality" />
		<tag k="ssr:stedsnr" v="962117" />
	</node>
	<node id="-204377" lat="59.4689194464" lon="10.6914777853">
		<tag k="amenity" v="school" />
		<tag k="name" v="Kambo skole" />
		<tag k="ssr:stedsnr" v="962069" />
	</node>
	<node id="-204376" lat="59.3169305533" lon="10.6512222143">
		<tag k="fixme" v="consider boundary=protected_area and relevant protect_class if not nature reserve" />
		<tag k="leisure" v="nature_reserve" />
		<tag k="name" v="Eldøya naturreservat" />
		<tag k="ssr:stedsnr" v="906624" />
	</node>
	<node id="-204375" lat="59.4353138847" lon="10.6545888931">
		<tag k="man_made" v="quay" />
		<tag k="name" v="Brynildsens brygge" />
		<tag k="place" v="locality" />
		<tag k="ssr:stedsnr" v="905208" />
	</node>
	<node id="-204374" lat="59.4346138886" lon="10.6530388966">
		<tag k="man_made" v="quay" />
		<tag k="name" v="Østre Kanalbrygga" />
		<tag k="place" v="locality" />
		<tag k="ssr:stedsnr" v="905206" />
	</node>
	<node id="-204373" lat="59.4100555558" lon="10.7274277823">
		<tag k="fixme" v="consider natural=peak for the most distinct mountains in the district" />
		<tag k="name" v="Langberget" />
		<tag k="natural" v="hill" />
		<tag k="place" v="locality" />
		<tag k="ssr:stedsnr" v="904765" />
	</node>
	<node id="-204372" lat="59.3985888912" lon="10.7553777786">
		<tag k="alt_name" v="Huggenes mellem" />
		<tag k="name" v="Mellom-Huggenes" />
		<tag k="place" v="farm" />
		<tag k="ssr:stedsnr" v="904806" />
	</node>
	<node id="-204371" lat="59.3628583306" lon="10.7707583351">
		<tag k="name" v="Asgården" />
		<tag k="place" v="farm" />
		<tag k="ssr:stedsnr" v="904314" />
	</node>
	<node id="-204370" lat="59.3645527781" lon="10.7480416722">
		<tag k="alt_name" v="Roer" />
		<tag k="fixme" v="consider place=hamlet" />
		<tag k="name" v="Ror" />
		<tag k="place" v="farm" />
		<tag k="ssr:stedsnr" v="903267" />
	</node>
	<node id="-204369" lat="59.4355805551" lon="10.7249194385">
		<tag k="name" v="Norebukta" />
		<tag k="natural" v="bay" />
		<tag k="ssr:stedsnr" v="902911" />
	</node>
	<node id="-204368" lat="59.3580611121" lon="10.6628777778">
		<tag k="alt_name" v="Tangen øvre" />
		<tag k="name" v="Øvre Tangen" />
		<tag k="place" v="isolated_dwelling" />
		<tag k="ssr:stedsnr" v="903020" />
	</node>
	<node id="-204367" lat="59.3412888888" lon="10.7375083399">
		<tag k="fixme" v="consider boundary=protected_area and relevant protect_class if not nature reserve" />
		<tag k="leisure" v="nature_reserve" />
		<tag k="name" v="Kurefjorden naturreservat" />
		<tag k="ssr:stedsnr" v="903018" />
	</node>
	<node id="-204366" lat="59.4339222189" lon="10.6785166733">
		<tag k="name" v="Gjeddeholmen" />
		<tag k="place" v="islet" />
		<tag k="ssr:stedsnr" v="902881" />
	</node>
	<node id="-204365" lat="59.3545333322" lon="10.6599944448">
		<tag k="name" v="Holmen" />
		<tag k="place" v="farm" />
		<tag k="ssr:stedsnr" v="902474" />
	</node>
	<node id="-204364" lat="59.3167333309" lon="10.6763722202">
		<tag k="name" v="Engholmstangen" />
		<tag k="natural" v="cape" />
		<tag k="ssr:stedsnr" v="902411" />
	</node>
	<node id="-204363" lat="59.4082805584" lon="10.6700055489">
		<tag k="name" v="Dyreskogen" />
		<tag k="place" v="locality" />
		<tag k="ssr:stedsnr" v="902115" />
	</node>
	<node id="-204362" lat="59.4463861075" lon="10.6253222217">
		<tag k="name" v="Gjerthytta" />
		<tag k="place" v="isolated_dwelling" />
		<tag k="ssr:stedsnr" v="902055" />
	</node>
	<node id="-204361" lat="59.4210055536" lon="10.666561104">
		<tag k="name" v="Melløs" />
		<tag k="place" v="suburb" />
		<tag k="ssr:stedsnr" v="877103" />
	</node>
	<node id="-204360" lat="59.4183888875" lon="10.5930277734">
		<tag k="name" v="Stalsberget" />
		<tag k="natural" v="cape" />
		<tag k="ssr:stedsnr" v="852970" />
	</node>
	<node id="-204359" lat="59.4153583344" lon="10.7179666586">
		<tag k="alt_name" v="Sildeholmen" />
		<tag k="name" v="Store Sileholmen" />
		<tag k="place" v="islet" />
		<tag k="ssr:stedsnr" v="852967" />
	</node>
	<node id="-204358" lat="59.4559111082" lon="10.6221777837">
		<tag k="alt_name" v="Nebbeberget" />
		<tag k="fixme" v="consider natural=peak for the most distinct mountains in the district" />
		<tag k="name" v="Nebbåsen" />
		<tag k="natural" v="hill" />
		<tag k="place" v="locality" />
		<tag k="ssr:stedsnr" v="852962" />
	</node>
	<node id="-204357" lat="59.3476416624" lon="10.6728666687">
		<tag k="name" v="Botner" />
		<tag k="place" v="farm" />
		<tag k="ssr:stedsnr" v="852568" />
	</node>
	<node id="-204356" lat="59.5056333345" lon="10.6526555504">
		<tag k="alt_name" v="Kolabonn;Kullebunn" />
		<tag k="name" v="Kolabotn" />
		<tag k="place" v="farm" />
		<tag k="ssr:stedsnr" v="852520" />
	</node>
	<node id="-204355" lat="59.3916138923" lon="10.6618444398">
		<tag k="alt_name" v="Huseby vestre" />
		<tag k="name" v="Vestre Huseby" />
		<tag k="place" v="farm" />
		<tag k="ssr:stedsnr" v="852518" />
	</node>
	<node id="-204354" lat="59.3949333314" lon="10.6646250003">
		<tag k="alt_name" v="Huseby nordre" />
		<tag k="name" v="Nordre Huseby" />
		<tag k="place" v="farm" />
		<tag k="ssr:stedsnr" v="852517" />
	</node>
	<node id="-204353" lat="59.4070111146" lon="10.5966527772">
		<tag k="name" v="Stallene" />
		<tag k="natural" v="shoal" />
		<tag k="place" v="locality" />
		<tag k="ssr:stedsnr" v="852503" />
	</node>
	<node id="-204352" lat="59.3112111077" lon="10.6503388961">
		<tag k="name" v="Hellene" />
		<tag k="natural" v="shoal" />
		<tag k="place" v="locality" />
		<tag k="ssr:stedsnr" v="852612" />
	</node>
	<node id="-204351" lat="59.3370042649" lon="10.7270675015">
		<tag k="fixme" v="consider place=hamlet" />
		<tag k="name" v="Holm" />
		<tag k="place" v="farm" />
		<tag k="ssr:stedsnr" v="852462" />
	</node>
	<node id="-204350" lat="59.3964055535" lon="10.766836108">
		<tag k="name" v="Tangen" />
		<tag k="place" v="farm" />
		<tag k="ssr:stedsnr" v="852305" />
	</node>
	<node id="-204349" lat="59.3921222229" lon="10.7500777725">
		<tag k="name" v="Huggenesskogen" />
		<tag k="place" v="locality" />
		<tag k="ssr:stedsnr" v="843811" />
	</node>
	<node id="-204348" lat="59.4048055516" lon="10.6535416633">
		<tag k="name" v="Festelandet" />
		<tag k="place" v="locality" />
		<tag k="ssr:stedsnr" v="842772" />
	</node>
	<node id="-204347" lat="59.4221861142" lon="10.6112055602">
		<tag k="name" v="Fiskehytta" />
		<tag k="place" v="isolated_dwelling" />
		<tag k="ssr:stedsnr" v="842769" />
	</node>
	<node id="-204346" lat="59.4183694478" lon="10.6059305643">
		<tag k="name" v="Roligbukt" />
		<tag k="natural" v="bay" />
		<tag k="ssr:stedsnr" v="842768" />
	</node>
	<node id="-204345" lat="59.3271638932" lon="10.7079972289">
		<tag k="name" v="Steinkjelen" />
		<tag k="place" v="locality" />
		<tag k="ssr:stedsnr" v="842407" />
	</node>
	<node id="-204344" lat="59.3762444479" lon="10.7465305595">
		<tag k="alt_name" v="Rør søndre" />
		<tag k="name" v="Søndre Rør" />
		<tag k="place" v="farm" />
		<tag k="ssr:stedsnr" v="842273" />
	</node>
	<node id="-204343" lat="59.3490499969" lon="10.668063884">
		<tag k="name" v="Ekelund" />
		<tag k="place" v="locality" />
		<tag k="ssr:stedsnr" v="842211" />
	</node>
	<node id="-204342" lat="59.3533194473" lon="10.6768916753">
		<tag k="fixme" v="consider boundary=protected_area and relevant protect_class if not nature reserve" />
		<tag k="leisure" v="nature_reserve" />
		<tag k="name" v="Vardåsen naturreservat" />
		<tag k="ssr:stedsnr" v="842207" />
	</node>
	<node id="-204341" lat="59.4478583328" lon="10.7015388878">
		<tag k="name" v="Patterødtjernet" />
		<tag k="natural" v="water" />
		<tag k="ssr:stedsnr" v="842176" />
	</node>
	<node id="-204340" lat="59.391044442" lon="10.6557222203">
		<tag k="name" v="Kollen" />
		<tag k="place" v="farm" />
		<tag k="ssr:stedsnr" v="842116" />
	</node>
	<node id="-204339" lat="59.3880805561" lon="10.6594000064">
		<tag k="name" v="Storeng" />
		<tag k="place" v="farm" />
		<tag k="ssr:stedsnr" v="842114" />
	</node>
	<node id="-204338" lat="59.3324194484" lon="10.6508138899">
		<tag k="name" v="Kirkegården" />
		<tag k="place" v="locality" />
		<tag k="ssr:stedsnr" v="842105" />
	</node>
	<node id="-204337" lat="59.3746361155" lon="10.6563666727">
		<tag k="name" v="Årefjord" />
		<tag k="place" v="farm" />
		<tag k="ssr:stedsnr" v="842009" />
	</node>
	<node id="-204336" lat="59.3661277809" lon="10.6586444473">
		<tag k="name" v="Fyrikken" />
		<tag k="place" v="islet" />
		<tag k="ssr:stedsnr" v="842006" />
	</node>
	<node id="-204335" lat="59.3614416693" lon="10.6645527782">
		<tag k="name" v="Posjetangen" />
		<tag k="natural" v="cape" />
		<tag k="ssr:stedsnr" v="938898" />
	</node>
	<node id="-204334" lat="59.3888999968" lon="10.6390916649">
		<tag k="name" v="Revlinghausen" />
		<tag k="place" v="locality" />
		<tag k="seamark:type" v="rock" />
		<tag k="ssr:stedsnr" v="938896" />
	</node>
	<node id="-204333" lat="59.3178694475" lon="10.698872222">
		<tag k="name" v="Husebukta" />
		<tag k="natural" v="bay" />
		<tag k="ssr:stedsnr" v="938877" />
	</node>
	<node id="-204332" lat="59.4357583352" lon="10.6708500066">
		<tag k="bridge" v="yes" />
		<tag k="layer" v="1" />
		<tag k="name" v="Myra" />
		<tag k="ssr:stedsnr" v="835607" />
	</node>
	<node id="-204331" lat="59.3744083349" lon="10.6693972238">
		<tag k="name" v="Villskog" />
		<tag k="place" v="farm" />
		<tag k="ssr:stedsnr" v="935851" />
	</node>
	<node id="-204330" lat="59.377608469" lon="10.7487975603">
		<tag k="alt_name" v="Rygge" />
		<tag k="name" v="Rygge stasjon" />
		<tag k="railway" v="station" />
		<tag k="ssr:stedsnr" v="935074" />
		<tag k="train" v="yes" />
	</node>
	<node id="-204329" lat="59.4393250013" lon="10.6597749939">
		<tag k="name" v="Sagmuggkanten" />
		<tag k="natural" v="shoal" />
		<tag k="place" v="locality" />
		<tag k="ssr:stedsnr" v="794904" />
	</node>
	<node id="-204328" lat="59.4885833369" lon="10.6426055643">
		<tag k="name" v="Furuodden" />
		<tag k="natural" v="cape" />
		<tag k="ssr:stedsnr" v="786229" />
	</node>
	<node id="-204327" lat="59.4147628887" lon="10.7008790762">
		<tag k="alt_name" v="Årvoldkrysset" />
		<tag k="junction" v="yes" />
		<tag k="name" v="Årvollkrysset" />
		<tag k="place" v="locality" />
		<tag k="ssr:stedsnr" v="774486" />
	</node>
	<node id="-204326" lat="59.5261583298" lon="10.6123583372">
		<tag k="name" v="Asbjørngrunnen" />
		<tag k="natural" v="shoal" />
		<tag k="place" v="locality" />
		<tag k="ssr:stedsnr" v="914561" />
	</node>
	<node id="-204325" lat="59.4149527771" lon="10.6672000066">
		<tag k="name" v="Kallum" />
		<tag k="place" v="farm" />
		<tag k="ssr:stedsnr" v="913976" />
	</node>
	<node id="-204324" lat="59.4829833289" lon="10.6483861125">
		<tag k="fixme" v="consider natural=peak for the most distinct mountains in the district" />
		<tag k="name" v="Bjørnåsen" />
		<tag k="natural" v="hill" />
		<tag k="place" v="locality" />
		<tag k="ssr:stedsnr" v="913918" />
	</node>
	<node id="-204323" lat="59.4776095324" lon="10.6922507869">
		<tag k="name" v="Kambo holdeplass" />
		<tag k="railway" v="halt" />
		<tag k="ssr:stedsnr" v="913903" />
		<tag k="train" v="yes" />
	</node>
	<node id="-204322" lat="59.3133555536" lon="10.6378305546">
		<tag k="name" v="Hausen" />
		<tag k="natural" v="shoal" />
		<tag k="place" v="locality" />
		<tag k="ssr:stedsnr" v="913586" />
	</node>
	<node id="-204321" lat="59.3267218809" lon="10.7153214478">
		<tag k="name" v="Sildebogen" />
		<tag k="natural" v="cape" />
		<tag k="ssr:stedsnr" v="913578" />
	</node>
	<node id="-204320" lat="59.3896888857" lon="10.7004194502">
		<tag k="alt_name" v="Løken vestre" />
		<tag k="name" v="Vestre Løken" />
		<tag k="place" v="farm" />
		<tag k="ssr:stedsnr" v="913492" />
	</node>
	<node id="-204319" lat="59.3710638846" lon="10.7629833409">
		<tag k="name" v="Gon" />
		<tag k="place" v="farm" />
		<tag k="ssr:stedsnr" v="913273" />
	</node>
	<node id="-204318" lat="59.4330861122" lon="10.6137333368">
		<tag k="name" v="Kubberød" />
		<tag k="place" v="farm" />
		<tag k="ssr:stedsnr" v="913000" />
	</node>
	<node id="-204317" lat="59.4495138917" lon="10.7093444388">
		<tag k="name" v="Noretjernet" />
		<tag k="natural" v="water" />
		<tag k="ssr:stedsnr" v="912949" />
	</node>
	<node id="-204316" lat="59.3554277752" lon="10.6955166654">
		<tag k="name" v="Li" />
		<tag k="place" v="farm" />
		<tag k="ssr:stedsnr" v="912602" />
	</node>
	<node id="-204315" lat="59.3821222182" lon="10.6715027804">
		<tag k="alt_name" v="Bakke søndre" />
		<tag k="name" v="Søndre Bakke" />
		<tag k="place" v="farm" />
		<tag k="ssr:stedsnr" v="912571" />
	</node>
	<node id="-204314" lat="59.322113891" lon="10.6965833334">
		<tag k="name" v="Ulvestua" />
		<tag k="natural" v="hill" />
		<tag k="place" v="locality" />
		<tag k="ssr:stedsnr" v="907174" />
	</node>
	<node id="-204313" lat="59.4720305555" lon="10.6807083362">
		<tag k="man_made" v="quay" />
		<tag k="name" v="Felleskjøpets kai" />
		<tag k="place" v="locality" />
		<tag k="ssr:stedsnr" v="906740" />
	</node>
	<node id="-204312" lat="59.4906228443" lon="10.671829652">
		<tag k="name" v="Fjellheim" />
		<tag k="place" v="isolated_dwelling" />
		<tag k="ssr:stedsnr" v="905884" />
	</node>
	<node id="-204311" lat="59.4490166709" lon="10.6554861137">
		<tag k="name" v="Sandgropa" />
		<tag k="natural" v="beach" />
		<tag k="ssr:stedsnr" v="905147" />
		<tag k="surface" v="sand" />
	</node>
	<node id="-204310" lat="59.4053666695" lon="10.7395750085">
		<tag k="name" v="Feøytangen" />
		<tag k="natural" v="cape" />
		<tag k="ssr:stedsnr" v="904842" />
	</node>
	<node id="-204309" lat="59.4006250039" lon="10.7463249943">
		<tag k="alt_name" v="Huggenes vestre" />
		<tag k="name" v="Vestre Huggenes" />
		<tag k="place" v="farm" />
		<tag k="ssr:stedsnr" v="904799" />
	</node>
	<node id="-204308" lat="59.3913194441" lon="10.7616222182">
		<tag k="name" v="Solheim" />
		<tag k="place" v="farm" />
		<tag k="ssr:stedsnr" v="904787" />
	</node>
	<node id="-204307" lat="59.3988250025" lon="10.8066277808">
		<tag k="name" v="Langverpbukta" />
		<tag k="natural" v="bay" />
		<tag k="ssr:stedsnr" v="904700" />
	</node>
	<node id="-204306" lat="59.3568027793" lon="10.7494361191">
		<tag k="junction" v="yes" />
		<tag k="name" v="Katrinekrysset" />
		<tag k="place" v="locality" />
		<tag k="ssr:stedsnr" v="904224" />
	</node>
	<node id="-204305" lat="59.3527166525" lon="10.7485226254">
		<tag k="alt_name" v="Rosnes østre" />
		<tag k="name" v="Østre Rosnes" />
		<tag k="place" v="farm" />
		<tag k="ssr:stedsnr" v="904222" />
	</node>
	<node id="-204304" lat="59.3704138906" lon="10.7680361032">
		<tag k="name" v="Eskelund" />
		<tag k="place" v="farm" />
		<tag k="ssr:stedsnr" v="904281" />
	</node>
	<node id="-204303" lat="59.3499944466" lon="10.7681888822">
		<tag k="name" v="Ottersheia" />
		<tag k="place" v="locality" />
		<tag k="ssr:stedsnr" v="904050" />
	</node>
	<node id="-204302" lat="59.3864222246" lon="10.6876666744">
		<tag k="bridge" v="yes" />
		<tag k="layer" v="1" />
		<tag k="name" v="Jokums bru" />
		<tag k="ssr:stedsnr" v="903927" />
	</node>
	<node id="-204301" lat="59.4017583372" lon="10.6965499921">
		<tag k="alt_name" v="Dilling vestre" />
		<tag k="name" v="Vestre Dilling" />
		<tag k="place" v="farm" />
		<tag k="ssr:stedsnr" v="903883" />
	</node>
	<node id="-204300" lat="59.3983499967" lon="10.714644437">
		<tag k="name" v="Såstadskogen" />
		<tag k="place" v="locality" />
		<tag k="ssr:stedsnr" v="903881" />
	</node>
	<node id="-204299" lat="59.3787916686" lon="10.7273333383">
		<tag k="name" v="Ramstad" />
		<tag k="place" v="farm" />
		<tag k="ssr:stedsnr" v="903292" />
	</node>
	<node id="-204298" lat="59.4286749964" lon="10.685538892">
		<tag k="name" v="Holmen" />
		<tag k="place" v="farm" />
		<tag k="ssr:stedsnr" v="903026" />
	</node>
	<node id="-204297" lat="59.3834194431" lon="10.6522694415">
		<tag k="alt_name" v="Fuglevik søndre" />
		<tag k="name" v="Søndre Fuglevik" />
		<tag k="place" v="hamlet" />
		<tag k="ssr:stedsnr" v="903114" />
	</node>
	<node id="-204296" lat="59.3586333331" lon="10.665930548">
		<tag k="name" v="Garnbakken" />
		<tag k="place" v="locality" />
		<tag k="ssr:stedsnr" v="903113" />
	</node>
	<node id="-204295" lat="59.4332611109" lon="10.7310611128">
		<tag k="fixme" v="consider natural=peak for the most distinct mountains in the district" />
		<tag k="name" v="Kråkeberget" />
		<tag k="natural" v="hill" />
		<tag k="place" v="locality" />
		<tag k="ssr:stedsnr" v="903074" />
	</node>
	<node id="-204294" lat="59.4744944487" lon="10.6265111178">
		<tag k="name" v="Sørstranda" />
		<tag k="natural" v="beach" />
		<tag k="ssr:stedsnr" v="902811" />
	</node>
	<node id="-204293" lat="59.4437194449" lon="10.6834111131">
		<tag k="name" v="Tykkemyr" />
		<tag k="natural" v="wetland" />
		<tag k="ssr:stedsnr" v="906902" />
	</node>
	<node id="-204292" lat="59.46825833" lon="10.6424666737">
		<tag k="name" v="Bjørnelabbene" />
		<tag k="natural" v="valley" />
		<tag k="place" v="locality" />
		<tag k="ssr:stedsnr" v="902802" />
	</node>
	<node id="-204291" lat="59.3244777758" lon="10.6811472165">
		<tag k="name" v="Bryggebakken" />
		<tag k="place" v="locality" />
		<tag k="ssr:stedsnr" v="902444" />
	</node>
	<node id="-204290" lat="59.3299694486" lon="10.6822638852">
		<tag k="name" v="Løvmo" />
		<tag k="place" v="farm" />
		<tag k="ssr:stedsnr" v="902440" />
	</node>
	<node id="-204289" lat="59.43208889" lon="10.6388444398">
		<tag k="name" v="Grimsrød" />
		<tag k="place" v="farm" />
		<tag k="ssr:stedsnr" v="901896" />
	</node>
	<node id="-204288" lat="59.4183333368" lon="10.7283250067">
		<tag k="name" v="Torvmosen" />
		<tag k="natural" v="wetland" />
		<tag k="ssr:stedsnr" v="901890" />
	</node>
	<node id="-204287" lat="59.437405559" lon="10.6224388884">
		<tag k="alt_name" v="Krosser" />
		<tag k="name" v="Bellevue" />
		<tag k="place" v="locality" />
		<tag k="ssr:stedsnr" v="901888" />
	</node>
	<node id="-204286" lat="59.4116611141" lon="10.7492694383">
		<tag k="name" v="Vierholmen" />
		<tag k="place" v="islet" />
		<tag k="ssr:stedsnr" v="901883" />
	</node>
	<node id="-204285" lat="59.4094138898" lon="10.746688896">
		<tag k="name" v="Bjørkeholmen" />
		<tag k="place" v="islet" />
		<tag k="ssr:stedsnr" v="901882" />
	</node>
	<node id="-204284" lat="59.4131249996" lon="10.7465083354">
		<tag k="name" v="Ospeholmen" />
		<tag k="place" v="islet" />
		<tag k="ssr:stedsnr" v="901875" />
	</node>
	<node id="-204283" lat="59.4423162175" lon="10.7658932174">
		<tag k="alt_name" v="Vestheim" />
		<tag k="name" v="Vesterheim" />
		<tag k="old_name" v="Dillingøystua;Syverhytten" />
		<tag k="place" v="locality" />
		<tag k="ssr:stedsnr" v="731320" />
	</node>
	<node id="-204282" lat="59.4064472221" lon="10.7588861114">
		<tag k="name" v="Ekebergbingen" />
		<tag k="place" v="locality" />
		<tag k="ssr:stedsnr" v="721839" />
	</node>
	<node id="-204281" lat="59.4075722248" lon="10.7258222242">
		<tag k="name" v="Fiulstadsundet" />
		<tag k="natural" v="strait" />
		<tag k="ssr:stedsnr" v="721824" />
	</node>
	<node id="-204280" lat="59.4029111127" lon="10.72762777">
		<tag k="name" v="Sivik" />
		<tag k="place" v="isolated_dwelling" />
		<tag k="ssr:stedsnr" v="721823" />
	</node>
	<node id="-204279" lat="59.3433111076" lon="10.6777722258">
		<tag k="name" v="Støtvikbråten" />
		<tag k="place" v="farm" />
		<tag k="ssr:stedsnr" v="721205" />
	</node>
	<node id="-204278" lat="59.3238805525" lon="10.6688527694">
		<tag k="name" v="Andrénskjæret" />
		<tag k="place" v="islet" />
		<tag k="ssr:stedsnr" v="721003" />
	</node>
	<node id="-204277" lat="59.3453166676" lon="10.7025944484">
		<tag k="name" v="Kubberødskogen" />
		<tag k="place" v="locality" />
		<tag k="ssr:stedsnr" v="721167" />
	</node>
	<node id="-204276" lat="59.4466805558" lon="10.7110722183">
		<tag k="bridge" v="yes" />
		<tag k="layer" v="1" />
		<tag k="name" v="Nore" />
		<tag k="ssr:stedsnr" v="896621" />
	</node>
	<node id="-204275" lat="59.4745944406" lon="10.7020694372">
		<tag k="bridge" v="yes" />
		<tag k="layer" v="1" />
		<tag k="name" v="Ungerholt vest" />
		<tag k="ssr:stedsnr" v="896614" />
	</node>
	<node id="-204274" lat="59.3215527758" lon="10.6719361124">
		<tag k="name" v="Hvitnesberget" />
		<tag k="natural" v="cape" />
		<tag k="ssr:stedsnr" v="720389" />
	</node>
	<node id="-204273" lat="59.4233805578" lon="10.7071444508">
		<tag k="bridge" v="yes" />
		<tag k="layer" v="1" />
		<tag k="name" v="Lille Storebog" />
		<tag k="ssr:stedsnr" v="896460" />
	</node>
	<node id="-204272" lat="59.4461027796" lon="10.7032305607">
		<tag k="building" v="commercial" />
		<tag k="name" v="Mosseporten senter" />
		<tag k="ssr:stedsnr" v="720207" />
	</node>
	<node id="-204271" lat="59.4371055571" lon="10.6752527736">
		<tag k="amenity" v="sports_centre" />
		<tag k="name" v="Mossehallen" />
		<tag k="ssr:stedsnr" v="719570" />
	</node>
	<node id="-204270" lat="59.4801249991" lon="10.6867055637">
		<tag k="man_made" v="quay" />
		<tag k="name" v="Norsk Gulfs kai" />
		<tag k="place" v="locality" />
		<tag k="ssr:stedsnr" v="299731" />
	</node>
	<node id="-204269" lat="59.4689416672" lon="10.6875611109">
		<tag k="name" v="Kilsbakken" />
		<tag k="natural" v="slope" />
		<tag k="place" v="locality" />
		<tag k="ssr:stedsnr" v="299730" />
	</node>
	<node id="-204268" lat="59.3074972233" lon="10.6822305469">
		<tag k="alt_name" v="Neset" />
		<tag k="name" v="Signneset" />
		<tag k="natural" v="cape" />
		<tag k="ssr:stedsnr" v="878786" />
	</node>
	<node id="-204267" lat="59.3670722183" lon="10.6511111129">
		<tag k="name" v="Årefjordbåen" />
		<tag k="place" v="locality" />
		<tag k="seamark:type" v="rock" />
		<tag k="ssr:stedsnr" v="877991" />
	</node>
	<node id="-204266" lat="59.3921500023" lon="10.7930138921">
		<tag k="name" v="Kapteinbekken" />
		<tag k="ssr:stedsnr" v="660717" />
		<tag k="waterway" v="stream" />
	</node>
	<node id="-204265" lat="59.3821222226" lon="10.7211833356">
		<tag k="name" v="Bjølsenbekken" />
		<tag k="ssr:stedsnr" v="660709" />
		<tag k="waterway" v="stream" />
	</node>
	<node id="-204264" lat="59.3870750032" lon="10.7566499919">
		<tag k="name" v="Grøtås" />
		<tag k="natural" v="hill" />
		<tag k="place" v="locality" />
		<tag k="ssr:stedsnr" v="660706" />
	</node>
	<node id="-204263" lat="59.3896027778" lon="10.6589972195">
		<tag k="name" v="Fuglevikåsen" />
		<tag k="natural" v="ridge" />
		<tag k="place" v="locality" />
		<tag k="ssr:stedsnr" v="660115" />
	</node>
	<node id="-204262" lat="59.4803611124" lon="10.7609444407">
		<tag k="name" v="Langemyr" />
		<tag k="natural" v="wetland" />
		<tag k="ssr:stedsnr" v="659884" />
	</node>
	<node id="-204261" lat="59.4600583313" lon="10.6631194414">
		<tag k="fixme" v="consider boundary=protected_area and relevant protect_class if not nature reserve" />
		<tag k="leisure" v="nature_reserve" />
		<tag k="name" v="Eggholmen (Kjeholmen) naturreservat" />
		<tag k="ssr:stedsnr" v="659883" />
	</node>
	<node id="-204260" lat="59.3817027815" lon="10.7514416671">
		<tag k="name" v="Halmstad" />
		<tag k="place" v="quarter" />
		<tag k="ssr:stedsnr" v="877351" />
	</node>
	<node id="-204259" lat="59.3330138863" lon="10.6717249955">
		<tag k="amenity" v="school" />
		<tag k="name" v="Larkollen skole" />
		<tag k="ssr:stedsnr" v="659419" />
	</node>
	<node id="-204258" lat="59.3200638882" lon="10.6953055482">
		<tag k="fixme" v="consider natural=peak for the most distinct mountains in the district" />
		<tag k="name" v="Matrosåsen" />
		<tag k="natural" v="hill" />
		<tag k="place" v="locality" />
		<tag k="ssr:stedsnr" v="659406" />
	</node>
	<node id="-204257" lat="59.4294944468" lon="10.630311117">
		<tag k="amenity" v="school" />
		<tag k="name" v="Reier skole" />
		<tag k="ssr:stedsnr" v="658870" />
	</node>
	<node id="-204256" lat="59.4537833306" lon="10.694213895">
		<tag k="amenity" v="school" />
		<tag k="name" v="Grindvold skole" />
		<tag k="ssr:stedsnr" v="658073" />
	</node>
	<node id="-204255" lat="59.43231944" lon="10.6683000002">
		<tag k="amenity" v="school" />
		<tag k="name" v="Bytårnet skole" />
		<tag k="ssr:stedsnr" v="658072" />
	</node>
	<node id="-204254" lat="59.4241499996" lon="10.6694138829">
		<tag k="leisure" v="park" />
		<tag k="name" v="Melløsparken" />
		<tag k="ssr:stedsnr" v="658067" />
	</node>
	<node id="-204253" lat="59.4351694431" lon="10.6623583348">
		<tag k="amenity" v="place_of_worship" />
		<tag k="denomination" v="lutheran" />
		<tag k="name" v="Moss kirke" />
		<tag k="religion" v="christian" />
		<tag k="ssr:stedsnr" v="876312" />
	</node>
	<node id="-204252" lat="59.4829194442" lon="10.6957805521">
		<tag k="name" v="Kambo" />
		<tag k="place" v="village" />
		<tag k="ssr:stedsnr" v="731903" />
	</node>
	<node id="-204251" lat="59.4788250032" lon="10.6067111154">
		<tag k="name" v="Langgrunnen" />
		<tag k="natural" v="shoal" />
		<tag k="place" v="locality" />
		<tag k="ssr:stedsnr" v="731897" />
	</node>
	<node id="-204250" lat="59.4813833357" lon="10.7828388851">
		<tag k="name" v="Lødengfjorden" />
		<tag k="natural" v="bay" />
		<tag k="ssr:stedsnr" v="731657" />
	</node>
	<node id="-204249" lat="59.3900527791" lon="10.6656194399">
		<tag k="alt_name" v="Huseby østre" />
		<tag k="name" v="Østre Huseby" />
		<tag k="place" v="farm" />
		<tag k="ssr:stedsnr" v="731485" />
	</node>
	<node id="-204248" lat="59.4048861082" lon="10.6890916642">
		<tag k="name" v="Ekholdt" />
		<tag k="place" v="farm" />
		<tag k="ssr:stedsnr" v="731473" />
	</node>
	<node id="-204247" lat="59.4442813059" lon="10.7054179814">
		<tag k="alt_name" v="Solgård" />
		<tag k="name" v="Patterød" />
		<tag k="place" v="farm" />
		<tag k="ssr:stedsnr" v="730948" />
	</node>
	<node id="-204246" lat="59.3369083345" lon="10.7090416645">
		<tag k="name" v="Orefellen" />
		<tag k="place" v="farm" />
		<tag k="ssr:stedsnr" v="730646" />
	</node>
	<node id="-204245" lat="59.3818194481" lon="10.6611833383">
		<tag k="name" v="Gunnarsby" />
		<tag k="place" v="farm" />
		<tag k="ssr:stedsnr" v="730599" />
	</node>
	<node id="-204244" lat="59.3747249983" lon="10.6536888836">
		<tag k="name" v="Årefjordtangen" />
		<tag k="natural" v="cape" />
		<tag k="ssr:stedsnr" v="730596" />
	</node>
	<node id="-204243" lat="59.3880972244" lon="10.7129277819">
		<tag k="name" v="Ringnes" />
		<tag k="place" v="farm" />
		<tag k="ssr:stedsnr" v="730584" />
	</node>
	<node id="-204242" lat="59.3827111135" lon="10.6898916692">
		<tag k="alt_name" v="Vang" />
		<tag k="amenity" v="school" />
		<tag k="name" v="Vang skole" />
		<tag k="ssr:stedsnr" v="730582" />
	</node>
	<node id="-204241" lat="59.4233916639" lon="10.7655944406">
		<tag k="alt_name" v="Store Kvernøy" />
		<tag k="name" v="Store Kvernøya" />
		<tag k="place" v="islet" />
		<tag k="ssr:stedsnr" v="730334" />
	</node>
	<node id="-204240" lat="59.4081532564" lon="10.7283845331">
		<tag k="name" v="Feøya" />
		<tag k="place" v="islet" />
		<tag k="ssr:stedsnr" v="730318" />
	</node>
	<node id="-204239" lat="59.3863198794" lon="10.7238019881">
		<tag k="alt_name" v="Bjølsen søndre" />
		<tag k="name" v="Søndre Bjølsen" />
		<tag k="place" v="farm" />
		<tag k="ssr:stedsnr" v="730287" />
	</node>
	<node id="-204238" lat="59.3960000019" lon="10.7807305598">
		<tag k="name" v="Møkadammyra" />
		<tag k="natural" v="wetland" />
		<tag k="ssr:stedsnr" v="721700" />
	</node>
	<node id="-204237" lat="59.3845805537" lon="10.722927777">
		<tag k="name" v="Torgautsjordet" />
		<tag k="place" v="locality" />
		<tag k="ssr:stedsnr" v="721697" />
	</node>
	<node id="-204236" lat="59.3821749974" lon="10.7422750084">
		<tag k="name" v="Vollskogen" />
		<tag k="place" v="locality" />
		<tag k="ssr:stedsnr" v="721691" />
	</node>
	<node id="-204235" lat="59.3818749988" lon="10.7526305587">
		<tag k="name" v="Sandbekk" />
		<tag k="place" v="farm" />
		<tag k="ssr:stedsnr" v="721684" />
	</node>
	<node id="-204234" lat="59.3916805583" lon="10.7286944445">
		<tag k="alt_name" v="Bjølsen nordre" />
		<tag k="name" v="Nordre Bjølsen" />
		<tag k="place" v="farm" />
		<tag k="ssr:stedsnr" v="721667" />
	</node>
	<node id="-204233" lat="59.362638886" lon="10.7288888936">
		<tag k="name" v="Kirkerød" />
		<tag k="place" v="farm" />
		<tag k="ssr:stedsnr" v="721322" />
	</node>
	<node id="-204232" lat="59.3634305553" lon="10.7748333271">
		<tag k="name" v="Berget" />
		<tag k="place" v="locality" />
		<tag k="ssr:stedsnr" v="721299" />
	</node>
	<node id="-204231" lat="59.3793861119" lon="10.7265361163">
		<tag k="name" v="Rygge museum" />
		<tag k="ssr:stedsnr" v="721290" />
		<tag k="tourism" v="museum" />
	</node>
	<node id="-204230" lat="59.3725055598" lon="10.6628805497">
		<tag k="name" v="Storhjelm" />
		<tag k="place" v="locality" />
		<tag k="ssr:stedsnr" v="721069" />
	</node>
	<node id="-204229" lat="59.4298638856" lon="10.7210666596">
		<tag k="fixme" v="consider natural=peak for the most distinct mountains in the district" />
		<tag k="name" v="Ravnefjell" />
		<tag k="natural" v="hill" />
		<tag k="place" v="locality" />
		<tag k="ssr:stedsnr" v="721064" />
	</node>
	<node id="-204228" lat="59.428119441" lon="10.725950007">
		<tag k="name" v="Sandbukta" />
		<tag k="natural" v="bay" />
		<tag k="ssr:stedsnr" v="721057" />
	</node>
	<node id="-204227" lat="59.361227779" lon="10.6709833286">
		<tag k="name" v="Leira" />
		<tag k="natural" v="shoal" />
		<tag k="place" v="locality" />
		<tag k="ssr:stedsnr" v="721046" />
	</node>
	<node id="-204226" lat="59.3792472235" lon="10.6602694445">
		<tag k="name" v="Leira" />
		<tag k="natural" v="shoal" />
		<tag k="place" v="locality" />
		<tag k="ssr:stedsnr" v="721043" />
	</node>
	<node id="-204225" lat="59.3436277804" lon="10.7211166739">
		<tag k="name" v="Bjørndalen" />
		<tag k="place" v="locality" />
		<tag k="ssr:stedsnr" v="721036" />
	</node>
	<node id="-204224" lat="59.4380963572" lon="10.7332375094">
		<tag k="name" v="Greven" />
		<tag k="place" v="locality" />
		<tag k="ssr:stedsnr" v="720903" />
	</node>
	<node id="-204223" lat="59.4346527818" lon="10.6284972276">
		<tag k="amenity" v="school" />
		<tag k="name" v="Hoppern skole" />
		<tag k="ssr:stedsnr" v="720883" />
	</node>
	<node id="-204222" lat="59.4008222238" lon="10.6602861113">
		<tag k="cemetery" v="grave" />
		<tag k="name" v="Amtmandens grav" />
		<tag k="place" v="locality" />
		<tag k="ssr:stedsnr" v="720585" />
	</node>
	<node id="-204221" lat="59.3125611094" lon="10.692752782">
		<tag k="name" v="Grefsrødmyra" />
		<tag k="natural" v="wetland" />
		<tag k="ssr:stedsnr" v="720143" />
	</node>
	<node id="-204220" lat="59.4077722264" lon="10.6870722281">
		<tag k="name" v="Bjerke" />
		<tag k="place" v="farm" />
		<tag k="ssr:stedsnr" v="720138" />
	</node>
	<node id="-204219" lat="59.4111638929" lon="10.6962972239">
		<tag k="name" v="Heimdal" />
		<tag k="place" v="locality" />
		<tag k="ssr:stedsnr" v="720137" />
	</node>
	<node id="-204218" lat="59.3216527791" lon="10.6485499949">
		<tag k="alt_name" v="Eløydammen" />
		<tag k="name" v="Eldøydammen" />
		<tag k="natural" v="water" />
		<tag k="ssr:stedsnr" v="720119" />
	</node>
	<node id="-204217" lat="59.4285305598" lon="10.7644916594">
		<tag k="name" v="Hattevik" />
		<tag k="place" v="locality" />
		<tag k="ssr:stedsnr" v="719846" />
	</node>
	<node id="-204216" lat="59.433261107" lon="10.7027222213">
		<tag k="name" v="Torbjørnsrød" />
		<tag k="place" v="farm" />
		<tag k="ssr:stedsnr" v="608995" />
	</node>
	<node id="-204215" lat="59.4488861094" lon="10.6349444359">
		<tag k="name" v="Høyenholm" />
		<tag k="place" v="farm" />
		<tag k="ssr:stedsnr" v="608966" />
	</node>
	<node id="-204214" lat="59.4345919165" lon="10.6000253821">
		<tag k="alt_name" v="Kaseløkka" />
		<tag k="name" v="Charlottenborg" />
		<tag k="place" v="farm" />
		<tag k="ssr:stedsnr" v="608956" />
	</node>
	<node id="-204213" lat="59.3606055538" lon="10.7100583363">
		<tag k="fixme" v="consider place=hamlet" />
		<tag k="name" v="Oppstad" />
		<tag k="place" v="farm" />
		<tag k="ssr:stedsnr" v="608613" />
	</node>
	<node id="-204212" lat="59.463380558" lon="10.6967944464">
		<tag k="amenity" v="school" />
		<tag k="name" v="Steinerskolen" />
		<tag k="ssr:stedsnr" v="719065" />
	</node>
	<node id="-204211" lat="59.4219611142" lon="10.6572333357">
		<tag k="name" v="Kleberget" />
		<tag k="place" v="locality" />
		<tag k="ssr:stedsnr" v="599775" />
	</node>
	<node id="-204210" lat="59.4367638898" lon="10.5943555517">
		<tag k="man_made" v="tower" />
		<tag k="name" v="Jeløy radio" />
		<tag k="ssr:stedsnr" v="599767" />
		<tag k="tower:type" v="communications" />
	</node>
	<node id="-204209" lat="59.4622777811" lon="10.6651361153">
		<tag k="name" v="Kjellandsviktangen" />
		<tag k="natural" v="cape" />
		<tag k="ssr:stedsnr" v="599202" />
	</node>
	<node id="-204208" lat="59.4436388863" lon="10.668100008">
		<tag k="name" v="Sandbukta" />
		<tag k="natural" v="bay" />
		<tag k="ssr:stedsnr" v="599028" />
	</node>
	<node id="-204207" lat="59.3608611106" lon="10.7104111091">
		<tag k="alt_name" v="Opstad mellem" />
		<tag k="name" v="Mellom-Opstad" />
		<tag k="place" v="farm" />
		<tag k="ssr:stedsnr" v="599025" />
	</node>
	<node id="-204206" lat="59.3593333369" lon="10.7124638918">
		<tag k="alt_name" v="Opstad øvre" />
		<tag k="name" v="Øvre Opstad" />
		<tag k="place" v="farm" />
		<tag k="ssr:stedsnr" v="599024" />
	</node>
	<node id="-204205" lat="59.4299722196" lon="10.6902027747">
		<tag k="name" v="Flua" />
		<tag k="natural" v="cape" />
		<tag k="ssr:stedsnr" v="599012" />
	</node>
	<node id="-204204" lat="59.4383861078" lon="10.6742194474">
		<tag k="bridge" v="yes" />
		<tag k="layer" v="1" />
		<tag k="name" v="Mosseelva" />
		<tag k="ssr:stedsnr" v="713609" />
	</node>
	<node id="-204203" lat="59.3282444431" lon="10.6641611167">
		<tag k="name" v="Fredriksodde" />
		<tag k="natural" v="cape" />
		<tag k="ssr:stedsnr" v="574866" />
	</node>
	<node id="-204202" lat="59.3281111156" lon="10.6676805515">
		<tag k="name" v="Leirsbogen" />
		<tag k="natural" v="bay" />
		<tag k="ssr:stedsnr" v="571853" />
	</node>
	<node id="-204201" lat="59.4356194448" lon="10.5793527846">
		<tag k="name" v="Gullholmen" />
		<tag k="place" v="island" />
		<tag k="ssr:stedsnr" v="570081" />
	</node>
	<node id="-204200" lat="59.3422410786" lon="10.6622032694">
		<tag k="alt_name" v="Sluvikbukta" />
		<tag k="loc_name" v="Stuviken;Stuvika" />
		<tag k="name" v="Stuvvika" />
		<tag k="natural" v="bay" />
		<tag k="ssr:stedsnr" v="695830" />
	</node>
	<node id="-204199" lat="59.3928277813" lon="10.7677944437">
		<tag k="name" v="Grønli" />
		<tag k="place" v="farm" />
		<tag k="ssr:stedsnr" v="539763" />
	</node>
	<node id="-204198" lat="59.4040694412" lon="10.7579333307">
		<tag k="alt_name" v="Kjellerød østre" />
		<tag k="name" v="Østre Kjellerød" />
		<tag k="place" v="farm" />
		<tag k="ssr:stedsnr" v="539835" />
	</node>
	<node id="-204197" lat="59.3377000034" lon="10.7073305594">
		<tag k="fixme" v="consider natural=peak for the most distinct mountains in the district" />
		<tag k="name" v="Fugleås" />
		<tag k="natural" v="hill" />
		<tag k="place" v="locality" />
		<tag k="ssr:stedsnr" v="539175" />
	</node>
	<node id="-204196" lat="59.3564416685" lon="10.7596750066">
		<tag k="name" v="Holkemyr" />
		<tag k="place" v="farm" />
		<tag k="ssr:stedsnr" v="539037" />
	</node>
	<node id="-204195" lat="59.3617194452" lon="10.675336113">
		<tag k="name" v="Tjernet" />
		<tag k="natural" v="water" />
		<tag k="ssr:stedsnr" v="539036" />
		<tag k="water" v="pond" />
	</node>
	<node id="-204194" lat="59.3525638865" lon="10.6916305562">
		<tag k="name" v="Dalen" />
		<tag k="place" v="farm" />
		<tag k="ssr:stedsnr" v="539021" />
	</node>
	<node id="-204193" lat="59.4133361072" lon="10.6630138904">
		<tag k="name" v="Bjerke" />
		<tag k="place" v="quarter" />
		<tag k="ssr:stedsnr" v="539003" />
	</node>
	<node id="-204192" lat="59.4363000042" lon="10.5962722157">
		<tag k="name" v="Vangen" />
		<tag k="place" v="farm" />
		<tag k="ssr:stedsnr" v="538793" />
	</node>
	<node id="-204191" lat="59.4657083317" lon="10.7369222176">
		<tag k="name" v="Fuglemosen" />
		<tag k="natural" v="wetland" />
		<tag k="ssr:stedsnr" v="538208" />
	</node>
	<node id="-204190" lat="59.4303666665" lon="10.6734055541">
		<tag k="name" v="Klommesten" />
		<tag k="place" v="suburb" />
		<tag k="ssr:stedsnr" v="538015" />
	</node>
	<node id="-204189" lat="59.4563194474" lon="10.7588833414">
		<tag k="bridge" v="yes" />
		<tag k="layer" v="1" />
		<tag k="name" v="Gashus" />
		<tag k="ssr:stedsnr" v="531625" />
	</node>
	<node id="-204188" lat="59.4339222265" lon="10.6556555559">
		<tag k="bridge" v="yes" />
		<tag k="layer" v="1" />
		<tag k="name" v="Rådhusplassen" />
		<tag k="ssr:stedsnr" v="531619" />
	</node>
	<node id="-204187" lat="59.5135611135" lon="10.603999993">
		<tag k="name" v="Lindholmgrunnen" />
		<tag k="natural" v="shoal" />
		<tag k="place" v="locality" />
		<tag k="ssr:stedsnr" v="488512" />
	</node>
	<node id="-204186" lat="59.4256111149" lon="10.6196194452">
		<tag k="alt_name" v="Solbærsletta" />
		<tag k="name" v="Solbergsletta" />
		<tag k="place" v="locality" />
		<tag k="ssr:stedsnr" v="480955" />
	</node>
	<node id="-204185" lat="59.4290527785" lon="10.6545833281">
		<tag k="man_made" v="quay" />
		<tag k="name" v="Verlebrygga" />
		<tag k="place" v="locality" />
		<tag k="ssr:stedsnr" v="480054" />
	</node>
	<node id="-204184" lat="59.3886388927" lon="10.7264250037">
		<tag k="bridge" v="yes" />
		<tag k="layer" v="1" />
		<tag k="name" v="Bjølsen" />
		<tag k="ssr:stedsnr" v="478806" />
	</node>
	<node id="-204183" lat="59.3806111076" lon="10.7451722222">
		<tag k="amenity" v="sports_centre" />
		<tag k="name" v="Ryggehallen" />
		<tag k="ssr:stedsnr" v="478719" />
	</node>
	<node id="-204182" lat="59.3800583378" lon="10.7246166613">
		<tag k="name" v="Teltebingen" />
		<tag k="place" v="locality" />
		<tag k="ssr:stedsnr" v="478717" />
	</node>
	<node id="-204181" lat="59.366575" lon="10.7655500045">
		<tag k="alt_name" v="Eskelund nedre" />
		<tag k="name" v="Nedre Eskelund" />
		<tag k="place" v="farm" />
		<tag k="ssr:stedsnr" v="478274" />
	</node>
	<node id="-204180" lat="59.375975001" lon="10.7173694404">
		<tag k="alt_name" v="Fløgstad nordre" />
		<tag k="name" v="Nordre Fløgstad" />
		<tag k="place" v="farm" />
		<tag k="ssr:stedsnr" v="478069" />
	</node>
	<node id="-204179" lat="59.419194442" lon="10.681683339">
		<tag k="name" v="Høyden" />
		<tag k="place" v="quarter" />
		<tag k="ssr:stedsnr" v="477824" />
	</node>
	<node id="-204178" lat="59.3252944448" lon="10.7143888849">
		<tag k="fixme" v="consider seamark:type=rock or natural=shoal" />
		<tag k="name" v="Sørskjæret" />
		<tag k="place" v="islet" />
		<tag k="ssr:stedsnr" v="477414" />
	</node>
	<node id="-204177" lat="59.3127638893" lon="10.6847499964">
		<tag k="fixme" v="consider natural=peak for the most distinct mountains in the district" />
		<tag k="name" v="Barselberget" />
		<tag k="natural" v="hill" />
		<tag k="place" v="locality" />
		<tag k="ssr:stedsnr" v="477124" />
	</node>
	<node id="-204176" lat="59.4093388916" lon="10.6827083404">
		<tag k="alt_name" v="Ekholt vestre" />
		<tag k="name" v="Vestre Ekholt" />
		<tag k="place" v="farm" />
		<tag k="ssr:stedsnr" v="477105" />
	</node>
	<node id="-204175" lat="59.4274750035" lon="10.746808329">
		<tag k="name" v="Torvstrømosen" />
		<tag k="natural" v="wetland" />
		<tag k="ssr:stedsnr" v="476867" />
	</node>
	<node id="-204174" lat="59.3442500006" lon="10.6595416649">
		<tag k="name" v="Brentetangen" />
		<tag k="natural" v="cape" />
		<tag k="ssr:stedsnr" v="670562" />
	</node>
	<node id="-204173" lat="59.3400805538" lon="10.6395388841">
		<tag k="alt_name" v="Lossgrunnen" />
		<tag k="name" v="Losgrunnen" />
		<tag k="natural" v="shoal" />
		<tag k="place" v="locality" />
		<tag k="ssr:stedsnr" v="670560" />
	</node>
	<node id="-204172" lat="59.3446277753" lon="10.7147583363">
		<tag k="fixme" v="consider place=hamlet" />
		<tag k="name" v="Kubberød" />
		<tag k="place" v="farm" />
		<tag k="ssr:stedsnr" v="670559" />
	</node>
	<node id="-204171" lat="59.3951472253" lon="10.7628083406">
		<tag k="name" v="Huseby" />
		<tag k="place" v="farm" />
		<tag k="ssr:stedsnr" v="670298" />
	</node>
	<node id="-204170" lat="59.4218277764" lon="10.5928416731">
		<tag k="fixme" v="consider natural=peak for the most distinct mountains in the district" />
		<tag k="name" v="Rødsåsen" />
		<tag k="natural" v="hill" />
		<tag k="place" v="locality" />
		<tag k="ssr:stedsnr" v="669983" />
	</node>
	<node id="-204169" lat="59.4550694421" lon="10.6353833374">
		<tag k="fixme" v="consider natural=peak for the most distinct mountains in the district" />
		<tag k="name" v="Rambergåsen" />
		<tag k="natural" v="hill" />
		<tag k="place" v="locality" />
		<tag k="ssr:stedsnr" v="669965" />
	</node>
	<node id="-204168" lat="59.4701055525" lon="10.6513750049">
		<tag k="fixme" v="consider place=hamlet" />
		<tag k="name" v="Skallerød" />
		<tag k="place" v="farm" />
		<tag k="ssr:stedsnr" v="669961" />
	</node>
	<node id="-204167" lat="59.4622499994" lon="10.6509277708">
		<tag k="name" v="Kjellandsvik" />
		<tag k="place" v="farm" />
		<tag k="ssr:stedsnr" v="669956" />
	</node>
	<node id="-204166" lat="59.3572805583" lon="10.6661583322">
		<tag k="alt_name" v="Evjesund" />
		<tag k="name" v="Evjesundet" />
		<tag k="natural" v="strait" />
		<tag k="ssr:stedsnr" v="669588" />
	</node>
	<node id="-204165" lat="59.355419443" lon="10.6791777725">
		<tag k="alt_name" v="Vardeåsen" />
		<tag k="fixme" v="consider natural=peak for the most distinct mountains in the district" />
		<tag k="name" v="Vardås" />
		<tag k="natural" v="hill" />
		<tag k="place" v="locality" />
		<tag k="ssr:stedsnr" v="669587" />
	</node>
	<node id="-204164" lat="59.3690861096" lon="10.6752611187">
		<tag k="name" v="Evje" />
		<tag k="place" v="farm" />
		<tag k="ssr:stedsnr" v="669581" />
	</node>
	<node id="-204163" lat="59.3766416662" lon="10.7113972235">
		<tag k="fixme" v="consider place=hamlet" />
		<tag k="name" v="Urstad" />
		<tag k="place" v="farm" />
		<tag k="ssr:stedsnr" v="669567" />
	</node>
	<node id="-204162" lat="59.4038527806" lon="10.7213305527">
		<tag k="name" v="Fiulstad" />
		<tag k="place" v="farm" />
		<tag k="ssr:stedsnr" v="669289" />
	</node>
	<node id="-204161" lat="59.3854706799" lon="10.7938795717">
		<tag k="alt_name" v="Øgården" />
		<tag k="name" v="Fredskjærøgård" />
		<tag k="place" v="farm" />
		<tag k="ssr:stedsnr" v="670287" />
	</node>
	<node id="-204160" lat="59.3894805568" lon="10.76610555">
		<tag k="name" v="Sørli" />
		<tag k="place" v="farm" />
		<tag k="ssr:stedsnr" v="670285" />
	</node>
	<node id="-204159" lat="59.3796361094" lon="10.7224833397">
		<tag k="amenity" v="place_of_worship" />
		<tag k="denomination" v="lutheran" />
		<tag k="name" v="Rygge kirke" />
		<tag k="religion" v="christian" />
		<tag k="ssr:stedsnr" v="670274" />
	</node>
	<node id="-204158" lat="59.4588138866" lon="10.6627583316">
		<tag k="name" v="Søndre Kjellandsvikskjæra" />
		<tag k="place" v="locality" />
		<tag k="seamark:type" v="rock" />
		<tag k="ssr:stedsnr" v="662141" />
	</node>
	<node id="-204157" lat="59.501591667" lon="10.6473722203">
		<tag k="alt_name" v="Munkestein" />
		<tag k="name" v="Munken" />
		<tag k="natural" v="cape" />
		<tag k="ssr:stedsnr" v="450125" />
	</node>
	<node id="-204156" lat="59.4002666703" lon="10.76962778">
		<tag k="name" v="Huggenesbekken" />
		<tag k="ssr:stedsnr" v="660772" />
		<tag k="waterway" v="stream" />
	</node>
	<node id="-204155" lat="59.3987138886" lon="10.7680666649">
		<tag k="leisure" v="pitch" />
		<tag k="name" v="Tangenbakken" />
		<tag k="ssr:stedsnr" v="660770" />
	</node>
	<node id="-204154" lat="59.3991194404" lon="10.7568500073">
		<tag k="alt_name" v="Huggenes østre" />
		<tag k="name" v="Østre Huggenes" />
		<tag k="place" v="farm" />
		<tag k="ssr:stedsnr" v="660768" />
	</node>
	<node id="-204153" lat="59.4105888924" lon="10.7359999983">
		<tag k="name" v="Gruva" />
		<tag k="place" v="locality" />
		<tag k="ssr:stedsnr" v="660736" />
	</node>
	<node id="-204152" lat="59.3396749972" lon="10.69855">
		<tag k="alt_name" v="Støtvikskogen" />
		<tag k="name" v="Nedgårdskogen" />
		<tag k="place" v="locality" />
		<tag k="ssr:stedsnr" v="660214" />
	</node>
	<node id="-204151" lat="59.3478416665" lon="10.7094222282">
		<tag k="name" v="Østli" />
		<tag k="place" v="farm" />
		<tag k="ssr:stedsnr" v="660183" />
	</node>
	<node id="-204150" lat="59.4134249966" lon="10.6813249944">
		<tag k="name" v="Løversbakke" />
		<tag k="place" v="locality" />
		<tag k="ssr:stedsnr" v="660165" />
	</node>
	<node id="-204149" lat="59.3694333341" lon="10.6811722138">
		<tag k="name" v="Gullås" />
		<tag k="natural" v="hill" />
		<tag k="place" v="locality" />
		<tag k="ssr:stedsnr" v="660088" />
	</node>
	<node id="-204148" lat="59.4382833298" lon="10.7411388823">
		<tag k="name" v="Elverhøy" />
		<tag k="place" v="isolated_dwelling" />
		<tag k="ssr:stedsnr" v="660083" />
	</node>
	<node id="-204147" lat="59.3731388857" lon="10.699466674">
		<tag k="name" v="Balkeskogen" />
		<tag k="place" v="locality" />
		<tag k="ssr:stedsnr" v="660080" />
	</node>
	<node id="-204146" lat="59.4021222232" lon="10.6597166698">
		<tag k="name" v="Lille Baug" />
		<tag k="place" v="farm" />
		<tag k="ssr:stedsnr" v="659790" />
	</node>
	<node id="-204145" lat="59.418713893" lon="10.7484527726">
		<tag k="name" v="Vestre Sørpa" />
		<tag k="place" v="locality" />
		<tag k="ssr:stedsnr" v="659329" />
	</node>
	<node id="-204144" lat="59.418713893" lon="10.7484527726">
		<tag k="name" v="Sørpa" />
		<tag k="place" v="locality" />
		<tag k="ssr:stedsnr" v="659327" />
	</node>
	<node id="-204143" lat="59.3100833357" lon="10.6829333272">
		<tag k="name" v="Nordre Nesbukta" />
		<tag k="natural" v="bay" />
		<tag k="ssr:stedsnr" v="659133" />
	</node>
	<node id="-204142" lat="59.3199805542" lon="10.658416665">
		<tag k="name" v="Ulkeodden" />
		<tag k="natural" v="cape" />
		<tag k="ssr:stedsnr" v="659118" />
	</node>
	<node id="-204141" lat="59.4778861136" lon="10.6331555565">
		<tag k="alt_name" v="Nes vestre" />
		<tag k="name" v="Vestre Nes" />
		<tag k="place" v="farm" />
		<tag k="ssr:stedsnr" v="658771" />
	</node>
	<node id="-204140" lat="59.4838055575" lon="10.6347277705">
		<tag k="name" v="Katteberget" />
		<tag k="natural" v="cape" />
		<tag k="ssr:stedsnr" v="658770" />
	</node>
	<node id="-204139" lat="59.4845055551" lon="10.688425007">
		<tag k="name" v="Kulpe" />
		<tag k="place" v="isolated_dwelling" />
		<tag k="ssr:stedsnr" v="658765" />
	</node>
	<node id="-204138" lat="59.4097083306" lon="10.7707194517">
		<tag k="alt_name" v="Gamleng" />
		<tag k="name" v="Gammeleng" />
		<tag k="place" v="farm" />
		<tag k="ssr:stedsnr" v="427347" />
	</node>
	<node id="-204137" lat="59.3964277765" lon="10.8121499977">
		<tag k="name" v="Bjørnøya" />
		<tag k="place" v="islet" />
		<tag k="ssr:stedsnr" v="427326" />
	</node>
	<node id="-204136" lat="59.4443194409" lon="10.6240222191">
		<tag k="name" v="Refsnesskogen" />
		<tag k="place" v="quarter" />
		<tag k="ssr:stedsnr" v="420220" />
	</node>
	<node id="-204135" lat="59.4080027812" lon="10.7399194434">
		<tag k="name" v="Prestholmen" />
		<tag k="natural" v="cape" />
		<tag k="ssr:stedsnr" v="418836" />
	</node>
	<node id="-204134" lat="59.446555552" lon="10.6100083374">
		<tag k="fixme" v="consider seamark:type=rock or natural=shoal" />
		<tag k="name" v="Refsnesrevet" />
		<tag k="place" v="islet" />
		<tag k="ssr:stedsnr" v="513989" />
	</node>
	<node id="-204133" lat="59.4136638881" lon="10.6032111075">
		<tag k="name" v="Skjelgrunnen" />
		<tag k="natural" v="shoal" />
		<tag k="place" v="locality" />
		<tag k="ssr:stedsnr" v="513988" />
	</node>
	<node id="-204132" lat="59.3509055542" lon="10.7619027828">
		<tag k="fixme" v="consider natural=peak for the most distinct mountains in the district" />
		<tag k="name" v="Tuggeliteåsen" />
		<tag k="natural" v="hill" />
		<tag k="place" v="locality" />
		<tag k="ssr:stedsnr" v="418047" />
	</node>
	<node id="-204131" lat="59.3564000004" lon="10.7620833342">
		<tag k="alt_name" v="Mølvik" />
		<tag k="fixme" v="consider place=hamlet" />
		<tag k="name" v="Molvik" />
		<tag k="place" v="farm" />
		<tag k="ssr:stedsnr" v="418032" />
	</node>
	<node id="-204130" lat="59.4263527784" lon="10.5885222154">
		<tag k="name" v="Kasekilden" />
		<tag k="place" v="farm" />
		<tag k="ssr:stedsnr" v="417802" />
	</node>
	<node id="-204129" lat="59.4025166702" lon="10.7147666685">
		<tag k="name" v="Soleng" />
		<tag k="place" v="farm" />
		<tag k="ssr:stedsnr" v="417917" />
	</node>
	<node id="-204128" lat="59.3993694469" lon="10.6608500055">
		<tag k="fixme" v="consider natural=peak for the most distinct mountains in the district" />
		<tag k="name" v="Baugsåsen" />
		<tag k="natural" v="hill" />
		<tag k="place" v="locality" />
		<tag k="ssr:stedsnr" v="417610" />
	</node>
	<node id="-204127" lat="59.3529666675" lon="10.7131444381">
		<tag k="alt_name" v="Nærum nordre" />
		<tag k="name" v="Nordre Nærum" />
		<tag k="place" v="farm" />
		<tag k="ssr:stedsnr" v="417233" />
	</node>
	<node id="-204126" lat="59.4541638895" lon="10.7638861167">
		<tag k="name" v="Gashustangen" />
		<tag k="natural" v="cape" />
		<tag k="ssr:stedsnr" v="417213" />
	</node>
	<node id="-204125" lat="59.4689472207" lon="10.6297916651">
		<tag k="fixme" v="consider boundary=protected_area and relevant protect_class if not nature reserve" />
		<tag k="leisure" v="nature_reserve" />
		<tag k="name" v="Rambergbukta naturreservat" />
		<tag k="ssr:stedsnr" v="416827" />
	</node>
	<node id="-204124" lat="59.4554499988" lon="10.6972611168">
		<tag k="alt_name" v="Lauersbakåsen" />
		<tag k="fixme" v="consider natural=peak for the most distinct mountains in the district" />
		<tag k="name" v="Skredderåsen" />
		<tag k="natural" v="hill" />
		<tag k="place" v="locality" />
		<tag k="ssr:stedsnr" v="417007" />
	</node>
	<node id="-204123" lat="59.3258000019" lon="10.6356666589">
		<tag k="fixme" v="consider seamark:type=rock or natural=shoal" />
		<tag k="name" v="Eldøyrevet" />
		<tag k="place" v="islet" />
		<tag k="ssr:stedsnr" v="513781" />
	</node>
	<node id="-204122" lat="59.3123305595" lon="10.707347231">
		<tag k="alt_name" v="Steinane" />
		<tag k="fixme" v="consider seamark:type=rock or natural=shoal" />
		<tag k="name" v="Steinene" />
		<tag k="place" v="islet" />
		<tag k="ssr:stedsnr" v="513777" />
	</node>
	<node id="-204121" lat="59.3876895726" lon="10.7849708685">
		<tag k="name" v="Fredskjær" />
		<tag k="place" v="hamlet" />
		<tag k="ssr:stedsnr" v="366291" />
	</node>
	<node id="-204120" lat="59.4279777734" lon="10.6315944457">
		<tag k="amenity" v="nursing_home" />
		<tag k="name" v="Bråten" />
		<tag k="ssr:stedsnr" v="359169" />
	</node>
	<node id="-204119" lat="59.3923888933" lon="10.7998750075">
		<tag k="name" v="Bjerkebakke" />
		<tag k="place" v="locality" />
		<tag k="ssr:stedsnr" v="357708" />
	</node>
	<node id="-204118" lat="59.44858056" lon="10.6149666586">
		<tag k="name" v="Refsnesbukta" />
		<tag k="natural" v="bay" />
		<tag k="ssr:stedsnr" v="356058" />
	</node>
	<node id="-204117" lat="59.4110638866" lon="10.6791111097">
		<tag k="amenity" v="school" />
		<tag k="name" v="Ekholt skole" />
		<tag k="ssr:stedsnr" v="356124" />
	</node>
	<node id="-204116" lat="59.3352607648" lon="10.6498529603">
		<tag k="name" v="Kollen" />
		<tag k="place" v="isolated_dwelling" />
		<tag k="ssr:stedsnr" v="356102" />
	</node>
	<node id="-204115" lat="59.4938638879" lon="10.6441361064">
		<tag k="name" v="Nesbukta" />
		<tag k="natural" v="bay" />
		<tag k="ssr:stedsnr" v="488916" />
	</node>
	<node id="-204114" lat="59.4722583334" lon="10.7736666738">
		<tag k="name" v="Sundet" />
		<tag k="place" v="farm" />
		<tag k="ssr:stedsnr" v="488694" />
	</node>
	<node id="-204113" lat="59.3223833297" lon="10.6499138806">
		<tag k="alt_name" v="Eløya" />
		<tag k="name" v="Eldøya" />
		<tag k="place" v="island" />
		<tag k="ssr:stedsnr" v="488593" />
	</node>
	<node id="-204112" lat="59.5001111135" lon="10.658200007">
		<tag k="fixme" v="consider natural=peak for the most distinct mountains in the district" />
		<tag k="name" v="Brattås" />
		<tag k="natural" v="hill" />
		<tag k="place" v="locality" />
		<tag k="ssr:stedsnr" v="488500" />
	</node>
	<node id="-204111" lat="59.3968055562" lon="10.6919500053">
		<tag k="name" v="Fredheim" />
		<tag k="place" v="farm" />
		<tag k="ssr:stedsnr" v="488492" />
	</node>
	<node id="-204110" lat="59.4031611071" lon="10.6727555585">
		<tag k="name" v="Carlberg" />
		<tag k="place" v="farm" />
		<tag k="ssr:stedsnr" v="488481" />
	</node>
	<node id="-204109" lat="59.4364329311" lon="10.6372894872">
		<tag k="amenity" v="place_of_worship" />
		<tag k="denomination" v="lutheran" />
		<tag k="fixme" v="multiple name tags, choose one and add the other to alt_name" />
		<tag k="name" v="Jeløy kirke;Jeløy" />
		<tag k="religion" v="christian" />
		<tag k="ssr:stedsnr" v="487953" />
	</node>
	<node id="-204108" lat="59.4618444441" lon="10.7653638898">
		<tag k="alt_name" v="Rødsund" />
		<tag k="name" v="Rødsundet" />
		<tag k="natural" v="strait" />
		<tag k="ssr:stedsnr" v="487767" />
	</node>
	<node id="-204107" lat="59.3504777775" lon="10.700788891">
		<tag k="fixme" v="consider place=hamlet" />
		<tag k="name" v="Bråtu" />
		<tag k="place" v="farm" />
		<tag k="ssr:stedsnr" v="487627" />
	</node>
	<node id="-204106" lat="59.404980553" lon="10.7746777759">
		<tag k="name" v="Kilen" />
		<tag k="place" v="farm" />
		<tag k="ssr:stedsnr" v="487323" />
	</node>
	<node id="-204105" lat="59.3901361138" lon="10.7756250048">
		<tag k="fixme" v="consider place=hamlet" />
		<tag k="name" v="Utne" />
		<tag k="place" v="farm" />
		<tag k="ssr:stedsnr" v="487315" />
	</node>
	<node id="-204104" lat="59.3962027782" lon="10.7441555517">
		<tag k="name" v="Støa" />
		<tag k="place" v="farm" />
		<tag k="ssr:stedsnr" v="487313" />
	</node>
	<node id="-204103" lat="59.4401027788" lon="10.6726500025">
		<tag k="name" v="Sponvika" />
		<tag k="natural" v="bay" />
		<tag k="ssr:stedsnr" v="480730" />
	</node>
	<node id="-204102" lat="59.4353361113" lon="10.6479055518">
		<tag k="name" v="Moss verft" />
		<tag k="place" v="quarter" />
		<tag k="ssr:stedsnr" v="480135" />
	</node>
	<node id="-204101" lat="59.425649996" lon="10.6930194503">
		<tag k="fixme" v="consider natural=peak for the most distinct mountains in the district" />
		<tag k="name" v="Øreåsen" />
		<tag k="natural" v="hill" />
		<tag k="place" v="locality" />
		<tag k="ssr:stedsnr" v="480044" />
	</node>
	<node id="-204100" lat="59.3892694473" lon="10.7008361026">
		<tag k="alt_name" v="Løken søndre" />
		<tag k="name" v="Søndre Løken" />
		<tag k="place" v="farm" />
		<tag k="ssr:stedsnr" v="330244" />
	</node>
	<node id="-204099" lat="59.3827972256" lon="10.7026972155">
		<tag k="alt_name" v="Tøstad øvre" />
		<tag k="name" v="Øvre Tøstad" />
		<tag k="place" v="farm" />
		<tag k="ssr:stedsnr" v="478910" />
	</node>
	<node id="-204098" lat="59.402136108" lon="10.7448166703">
		<tag k="name" v="Vaskeberget" />
		<tag k="place" v="locality" />
		<tag k="ssr:stedsnr" v="478846" />
	</node>
	<node id="-204097" lat="59.3821249969" lon="10.7931361079">
		<tag k="alt_name" v="Søgård østre" />
		<tag k="name" v="Østre Søgård" />
		<tag k="place" v="farm" />
		<tag k="ssr:stedsnr" v="478739" />
	</node>
	<node id="-204096" lat="59.3920555556" lon="10.8116388867">
		<tag k="name" v="Bjørnemyr" />
		<tag k="natural" v="wetland" />
		<tag k="ssr:stedsnr" v="478734" />
	</node>
	<node id="-204095" lat="59.3914250007" lon="10.7883083347">
		<tag k="name" v="Sandli" />
		<tag k="place" v="farm" />
		<tag k="ssr:stedsnr" v="478728" />
	</node>
	<node id="-204094" lat="59.3764861115" lon="10.7391499961">
		<tag k="alt_name" v="Rør vestre" />
		<tag k="name" v="Vestre Rør" />
		<tag k="place" v="farm" />
		<tag k="ssr:stedsnr" v="478291" />
	</node>
	<node id="-204093" lat="59.3861111106" lon="10.6566611175">
		<tag k="alt_name" v="Fuglevik mellem" />
		<tag k="name" v="Mellom-Fuglevik" />
		<tag k="place" v="hamlet" />
		<tag k="ssr:stedsnr" v="478108" />
	</node>
	<node id="-204092" lat="59.3450888908" lon="10.6937555544">
		<tag k="name" v="Støtvikskogen" />
		<tag k="place" v="locality" />
		<tag k="ssr:stedsnr" v="478189" />
	</node>
	<node id="-204091" lat="59.3797388921" lon="10.6513527749">
		<tag k="name" v="Det gule berget" />
		<tag k="natural" v="cliff" />
		<tag k="ssr:stedsnr" v="478047" />
	</node>
	<node id="-204090" lat="59.3659138929" lon="10.6892499954">
		<tag k="alt_name" v="Pålsrød vestre" />
		<tag k="name" v="Vestre Pålsrød" />
		<tag k="place" v="farm" />
		<tag k="ssr:stedsnr" v="478029" />
	</node>
	<node id="-204089" lat="59.3806388864" lon="10.7021138813">
		<tag k="name" v="Torgerslund" />
		<tag k="place" v="locality" />
		<tag k="ssr:stedsnr" v="477947" />
	</node>
	<node id="-204088" lat="59.3815083371" lon="10.7098833392">
		<tag k="amenity" v="community_centre" />
		<tag k="name" v="Noatun" />
		<tag k="ssr:stedsnr" v="477937" />
	</node>
	<node id="-204087" lat="59.4021722239" lon="10.665019452">
		<tag k="fixme" v="consider boundary=protected_area and relevant protect_class if not nature reserve" />
		<tag k="leisure" v="nature_reserve" />
		<tag k="name" v="Bogslunden naturreservat" />
		<tag k="ssr:stedsnr" v="477935" />
	</node>
	<node id="-204086" lat="59.3510222254" lon="10.6614416649">
		<tag k="alt_name" v="Botnermyra" />
		<tag k="name" v="Botnemyr" />
		<tag k="place" v="farm" />
		<tag k="ssr:stedsnr" v="477442" />
	</node>
	<node id="-204085" lat="59.3129638892" lon="10.6962861112">
		<tag k="name" v="Oterberget" />
		<tag k="natural" v="cliff" />
		<tag k="ssr:stedsnr" v="477126" />
	</node>
	<node id="-204084" lat="59.4269472244" lon="10.6363583272">
		<tag k="name" v="Framnes" />
		<tag k="place" v="suburb" />
		<tag k="ssr:stedsnr" v="476888" />
	</node>
	<node id="-204083" lat="59.4890444406" lon="10.6444138948">
		<tag k="name" v="Kuskjærbukta" />
		<tag k="natural" v="bay" />
		<tag k="ssr:stedsnr" v="476836" />
	</node>
	<node id="-204082" lat="59.4716277759" lon="10.6495666678">
		<tag k="alt_name" v="Skallerød øvre" />
		<tag k="name" v="Øvre Skallerød" />
		<tag k="place" v="farm" />
		<tag k="ssr:stedsnr" v="476785" />
	</node>
	<node id="-204081" lat="59.4387833296" lon="10.6817555562">
		<tag k="name" v="Tollertangen" />
		<tag k="natural" v="cape" />
		<tag k="ssr:stedsnr" v="476600" />
	</node>
	<node id="-204080" lat="59.4408888861" lon="10.6855805511">
		<tag k="fixme" v="consider place=suburb, village or hamlet" />
		<tag k="name" v="Gjerrebogen" />
		<tag k="place" v="quarter" />
		<tag k="ssr:stedsnr" v="476599" />
	</node>
	<node id="-204079" lat="59.4200361079" lon="10.6294694388">
		<tag k="name" v="Bråtenskogen" />
		<tag k="place" v="locality" />
		<tag k="ssr:stedsnr" v="298912" />
	</node>
	<node id="-204078" lat="59.4517027745" lon="10.733694436">
		<tag k="bridge" v="yes" />
		<tag k="layer" v="1" />
		<tag k="name" v="Vanem" />
		<tag k="ssr:stedsnr" v="471577" />
	</node>
	<node id="-204077" lat="59.419677781" lon="10.7047888973">
		<tag k="bridge" v="yes" />
		<tag k="layer" v="1" />
		<tag k="name" v="Frydenlund vest" />
		<tag k="ssr:stedsnr" v="471445" />
	</node>
	<node id="-204076" lat="59.4236361135" lon="10.6724888871">
		<tag k="bridge" v="yes" />
		<tag k="layer" v="1" />
		<tag k="name" v="Melløs" />
		<tag k="ssr:stedsnr" v="470580" />
	</node>
	<node id="-204075" lat="59.4792777786" lon="10.6382722226">
		<tag k="alt_name" v="Nes østre" />
		<tag k="name" v="Østre Nes" />
		<tag k="place" v="farm" />
		<tag k="ssr:stedsnr" v="464340" />
	</node>
	<node id="-204074" lat="59.3812583304" lon="10.6498055576">
		<tag k="fixme" v="consider seamark:type=rock or natural=shoal" />
		<tag k="name" v="Fuglevikskjæret" />
		<tag k="place" v="islet" />
		<tag k="ssr:stedsnr" v="271911" />
	</node>
	<node id="-204073" lat="59.3026944421" lon="10.6985499968">
		<tag k="fixme" v="consider seamark:type=rock or natural=shoal" />
		<tag k="name" v="Løndommen" />
		<tag k="place" v="islet" />
		<tag k="ssr:stedsnr" v="271819" />
	</node>
	<node id="-204072" lat="59.4978111097" lon="10.651802778">
		<tag k="name" v="Singelbukta" />
		<tag k="natural" v="bay" />
		<tag k="ssr:stedsnr" v="271816" />
	</node>
	<node id="-204071" lat="59.4641777744" lon="10.6598944461">
		<tag k="name" v="Kjellandsvikbukta" />
		<tag k="natural" v="bay" />
		<tag k="ssr:stedsnr" v="271815" />
	</node>
	<node id="-204070" lat="59.4884694449" lon="10.6862999992">
		<tag k="name" v="Løvikholmen" />
		<tag k="natural" v="cape" />
		<tag k="ssr:stedsnr" v="453874" />
	</node>
	<node id="-204069" lat="59.4977527778" lon="10.6660694368">
		<tag k="name" v="Bingetangen" />
		<tag k="natural" v="cape" />
		<tag k="ssr:stedsnr" v="247891" />
	</node>
	<node id="-204068" lat="59.4404449521" lon="10.7494265146">
		<tag k="alt_name" v="Vannumfjorden" />
		<tag k="name" v="Vannemfjorden" />
		<tag k="natural" v="bay" />
		<tag k="ssr:stedsnr" v="245357" />
	</node>
	<node id="-204067" lat="59.3728555521" lon="10.7257638863">
		<tag k="alt_name" v="Brua" />
		<tag k="name" v="Broen" />
		<tag k="place" v="farm" />
		<tag k="ssr:stedsnr" v="245269" />
	</node>
	<node id="-204066" lat="59.3664555531" lon="10.7631666655">
		<tag k="name" v="Pollen" />
		<tag k="place" v="farm" />
		<tag k="ssr:stedsnr" v="245261" />
	</node>
	<node id="-204065" lat="59.40083889" lon="10.7810722199">
		<tag k="name" v="Myrdamskogen" />
		<tag k="place" v="locality" />
		<tag k="ssr:stedsnr" v="236029" />
	</node>
	<node id="-204064" lat="59.4470500021" lon="10.6369055581">
		<tag k="name" v="Orkerød skanse" />
		<tag k="ssr:stedsnr" v="235216" />
		<tag k="tourism" v="attraction" />
	</node>
	<node id="-204063" lat="59.4362916666" lon="10.6568388891">
		<tag k="man_made" v="quay" />
		<tag k="name" v="Sundbrygga" />
		<tag k="place" v="locality" />
		<tag k="ssr:stedsnr" v="298198" />
	</node>
	<node id="-204062" lat="59.4220027736" lon="10.6345861071">
		<tag k="name" v="Baden-Baden" />
		<tag k="natural" v="beach" />
		<tag k="place" v="locality" />
		<tag k="ssr:stedsnr" v="298174" />
	</node>
	<node id="-204061" lat="59.3952333342" lon="10.7356555626">
		<tag k="name" v="Pålebingen" />
		<tag k="place" v="quarter" />
		<tag k="ssr:stedsnr" v="297792" />
	</node>
	<node id="-204060" lat="59.3988083363" lon="10.7411055579">
		<tag k="name" v="Støabukta" />
		<tag k="natural" v="bay" />
		<tag k="ssr:stedsnr" v="297789" />
	</node>
	<node id="-204059" lat="59.3714194479" lon="10.7257444527">
		<tag k="alt_name" v="Otterstad mellem" />
		<tag k="name" v="Mellom-Otterstad" />
		<tag k="place" v="farm" />
		<tag k="ssr:stedsnr" v="297339" />
	</node>
	<node id="-204058" lat="59.367416666" lon="10.7260861181">
		<tag k="alt_name" v="Otterstad vestre" />
		<tag k="name" v="Vestre Otterstad" />
		<tag k="place" v="farm" />
		<tag k="ssr:stedsnr" v="297336" />
	</node>
	<node id="-204057" lat="59.3592416685" lon="10.722169451">
		<tag k="name" v="Skogen" />
		<tag k="place" v="farm" />
		<tag k="ssr:stedsnr" v="297314" />
	</node>
	<node id="-204056" lat="59.3471472248" lon="10.749538889">
		<tag k="name" v="Rosnesheia" />
		<tag k="place" v="locality" />
		<tag k="ssr:stedsnr" v="297070" />
	</node>
	<node id="-204055" lat="59.3552611126" lon="10.7652083325">
		<tag k="alt_name" v="Molvik østre" />
		<tag k="name" v="Østre Molvik" />
		<tag k="place" v="farm" />
		<tag k="ssr:stedsnr" v="297063" />
	</node>
	<node id="-204054" lat="59.3877388883" lon="10.6698777763">
		<tag k="name" v="Telemarkslund" />
		<tag k="place" v="locality" />
		<tag k="ssr:stedsnr" v="296937" />
	</node>
	<node id="-204053" lat="59.3868222205" lon="10.690080547">
		<tag k="name" v="Vesterås" />
		<tag k="place" v="farm" />
		<tag k="ssr:stedsnr" v="296930" />
	</node>
	<node id="-204052" lat="59.3860638866" lon="10.6925777856">
		<tag k="name" v="Lybyskogen" />
		<tag k="place" v="locality" />
		<tag k="ssr:stedsnr" v="296928" />
	</node>
	<node id="-204051" lat="59.3874583311" lon="10.7089333407">
		<tag k="name" v="Solberg" />
		<tag k="place" v="farm" />
		<tag k="ssr:stedsnr" v="296913" />
	</node>
	<node id="-204050" lat="59.3922583364" lon="10.687180558">
		<tag k="name" v="Ek" />
		<tag k="place" v="farm" />
		<tag k="ssr:stedsnr" v="296886" />
	</node>
	<node id="-204049" lat="59.4035916655" lon="10.6585555639">
		<tag k="alt_name" v="Dyre søndre" />
		<tag k="name" v="Søndre Dyre" />
		<tag k="place" v="farm" />
		<tag k="ssr:stedsnr" v="296764" />
	</node>
	<node id="-204048" lat="59.3514000034" lon="10.7180277864">
		<tag k="fixme" v="consider natural=peak for the most distinct mountains in the district" />
		<tag k="name" v="Kureåsen" />
		<tag k="natural" v="hill" />
		<tag k="place" v="locality" />
		<tag k="ssr:stedsnr" v="296275" />
	</node>
	<node id="-204047" lat="59.3413416653" lon="10.686325004">
		<tag k="name" v="Støtvikbekken" />
		<tag k="ssr:stedsnr" v="296185" />
		<tag k="waterway" v="stream" />
	</node>
	<node id="-204046" lat="59.350324997" lon="10.6869638852">
		<tag k="name" v="Sande" />
		<tag k="natural" v="wood" />
		<tag k="ssr:stedsnr" v="296172" />
	</node>
	<node id="-204045" lat="59.384105558" lon="10.6597166651">
		<tag k="building" v="industrial" />
		<tag k="industrial" v="factory" />
		<tag k="name" v="Fuglevik renseanlegg" />
		<tag k="ssr:stedsnr" v="296097" />
	</node>
	<node id="-204044" lat="59.4101377859" lon="10.7286273151">
		<tag k="fixme" v="consider boundary=protected_area and relevant protect_class if not nature reserve" />
		<tag k="leisure" v="nature_reserve" />
		<tag k="name" v="Vestre Vansjø naturreservat" />
		<tag k="ssr:stedsnr" v="296093" />
	</node>
	<node id="-204043" lat="59.4289250025" lon="10.6975388816">
		<tag k="name" v="Dyna" />
		<tag k="place" v="islet" />
		<tag k="ssr:stedsnr" v="296060" />
	</node>
	<node id="-204042" lat="59.4301638931" lon="10.7296499937">
		<tag k="name" v="Grevlingbukta" />
		<tag k="natural" v="bay" />
		<tag k="ssr:stedsnr" v="296059" />
	</node>
	<node id="-204041" lat="59.3660027742" lon="10.6676833351">
		<tag k="name" v="Vestskogen" />
		<tag k="place" v="locality" />
		<tag k="ssr:stedsnr" v="296024" />
	</node>
	<node id="-204040" lat="59.4296027807" lon="10.7081138889">
		<tag k="name" v="Øvre Vrangen" />
		<tag k="natural" v="strait" />
		<tag k="ssr:stedsnr" v="296013" />
	</node>
	<node id="-204039" lat="59.4327388879" lon="10.597408327">
		<tag k="fixme" v="consider boundary=protected_area and relevant protect_class if not nature reserve" />
		<tag k="leisure" v="nature_reserve" />
		<tag k="name" v="Søndre Jeløy naturreservat" />
		<tag k="ssr:stedsnr" v="295904" />
	</node>
	<node id="-204038" lat="59.4952527786" lon="10.6635277752">
		<tag k="name" v="Kongshavn" />
		<tag k="place" v="farm" />
		<tag k="ssr:stedsnr" v="295868" />
	</node>
	<node id="-204037" lat="59.4783583361" lon="10.68728889">
		<tag k="fixme" v="consider natural=peak for the most distinct mountains in the district" />
		<tag k="name" v="Stokkås" />
		<tag k="natural" v="hill" />
		<tag k="place" v="locality" />
		<tag k="ssr:stedsnr" v="295799" />
	</node>
	<node id="-204036" lat="59.4363249975" lon="10.695422222">
		<tag k="fixme" v="consider natural=peak for the most distinct mountains in the district" />
		<tag k="name" v="Bjørnåsen" />
		<tag k="natural" v="hill" />
		<tag k="place" v="locality" />
		<tag k="ssr:stedsnr" v="295618" />
	</node>
	<node id="-204035" lat="59.436638887" lon="10.676799999">
		<tag k="leisure" v="park" />
		<tag k="name" v="Nesparken" />
		<tag k="ssr:stedsnr" v="295614" />
	</node>
	<node id="-204034" lat="59.3526138915" lon="10.6590583339">
		<tag k="name" v="Søndre Holmebukta" />
		<tag k="natural" v="bay" />
		<tag k="ssr:stedsnr" v="295432" />
	</node>
	<node id="-204033" lat="59.328724997" lon="10.7137166606">
		<tag k="alt_name" v="Sildebaugen søndre" />
		<tag k="name" v="Søndre Sildebaugen" />
		<tag k="place" v="farm" />
		<tag k="ssr:stedsnr" v="295418" />
	</node>
	<node id="-204032" lat="59.4614722217" lon="10.7373027763">
		<tag k="name" v="Traphytta" />
		<tag k="place" v="isolated_dwelling" />
		<tag k="ssr:stedsnr" v="295221" />
	</node>
	<node id="-204031" lat="59.3319888872" lon="10.6529888823">
		<tag k="name" v="Paradis" />
		<tag k="place" v="locality" />
		<tag k="ssr:stedsnr" v="295109" />
	</node>
	<node id="-204030" lat="59.4071444434" lon="10.6898777757">
		<tag k="amenity" v="school" />
		<tag k="name" v="Ekholt ungdomsskole" />
		<tag k="ssr:stedsnr" v="295104" />
	</node>
	<node id="-204029" lat="59.4446666674" lon="10.678961117">
		<tag k="amenity" v="school" />
		<tag k="name" v="Verket skole" />
		<tag k="ssr:stedsnr" v="295075" />
	</node>
	<node id="-204028" lat="59.4456361082" lon="10.6883722202">
		<tag k="bridge" v="yes" />
		<tag k="layer" v="1" />
		<tag k="name" v="Mossebakken" />
		<tag k="ssr:stedsnr" v="289639" />
	</node>
	<node id="-204027" lat="59.3566666695" lon="10.7402944368">
		<tag k="bridge" v="yes" />
		<tag k="layer" v="1" />
		<tag k="name" v="Kure" />
		<tag k="ssr:stedsnr" v="289447" />
	</node>
	<node id="-204026" lat="59.4317666651" lon="10.7605111075">
		<tag k="name" v="Dillingøya" />
		<tag k="place" v="island" />
		<tag k="ssr:stedsnr" v="184354" />
	</node>
	<node id="-204025" lat="59.3627555551" lon="10.6631416582">
		<tag k="name" v="Oppset" />
		<tag k="place" v="farm" />
		<tag k="ssr:stedsnr" v="179255" />
	</node>
	<node id="-204024" lat="59.4920722195" lon="10.6763000052">
		<tag k="name" v="Spetalgrunnene" />
		<tag k="natural" v="shoal" />
		<tag k="place" v="locality" />
		<tag k="ssr:stedsnr" v="177663" />
	</node>
	<node id="-204023" lat="59.3204944442" lon="10.6426305561">
		<tag k="name" v="Vardeberget" />
		<tag k="natural" v="hill" />
		<tag k="place" v="locality" />
		<tag k="ssr:stedsnr" v="271987" />
	</node>
	<node id="-204022" lat="59.4765388901" lon="10.6882749994">
		<tag k="name" v="Kambobukta" />
		<tag k="natural" v="bay" />
		<tag k="ssr:stedsnr" v="271894" />
	</node>
	<node id="-204021" lat="59.3188111075" lon="10.6796916706">
		<tag k="name" v="Taterberget" />
		<tag k="natural" v="hill" />
		<tag k="place" v="locality" />
		<tag k="ssr:stedsnr" v="271142" />
	</node>
	<node id="-204020" lat="59.3776166628" lon="10.7503416742">
		<tag k="name" v="Rygge" />
		<tag k="place" v="village" />
		<tag k="ssr:stedsnr" v="270339" />
	</node>
	<node id="-204019" lat="59.4478499994" lon="10.7465166659">
		<tag k="alt_name" v="Vannum;Vanem" />
		<tag k="name" v="Vannem" />
		<tag k="place" v="farm" />
		<tag k="ssr:stedsnr" v="124315" />
	</node>
	<node id="-204018" lat="59.4037333345" lon="10.7532055527">
		<tag k="fixme" v="consider place=hamlet" />
		<tag k="name" v="Kjellerød" />
		<tag k="place" v="farm" />
		<tag k="ssr:stedsnr" v="123339" />
	</node>
	<node id="-204017" lat="59.3901861099" lon="10.7561555632">
		<tag k="name" v="Nore" />
		<tag k="place" v="farm" />
		<tag k="ssr:stedsnr" v="123328" />
	</node>
	<node id="-204016" lat="59.3955914946" lon="10.7237922612">
		<tag k="fixme" v="consider place=hamlet" />
		<tag k="name" v="Såstad" />
		<tag k="place" v="farm" />
		<tag k="ssr:stedsnr" v="123326" />
	</node>
	<node id="-204015" lat="59.3871944402" lon="10.7326694372">
		<tag k="alt_name" v="Gipsen" />
		<tag k="name" v="Gipsund" />
		<tag k="place" v="farm" />
		<tag k="ssr:stedsnr" v="123318" />
	</node>
	<node id="-204014" lat="59.3721388921" lon="10.7793833389">
		<tag k="building" v="industrial" />
		<tag k="industrial" v="factory" />
		<tag k="name" v="Utne sag" />
		<tag k="ssr:stedsnr" v="123313" />
	</node>
	<node id="-204013" lat="59.407188885" lon="10.7685611074">
		<tag k="name" v="Kjellerødskogen" />
		<tag k="place" v="locality" />
		<tag k="ssr:stedsnr" v="115830" />
	</node>
	<node id="-204012" lat="59.417219446" lon="10.6976583254">
		<tag k="name" v="Klostermyra" />
		<tag k="natural" v="wetland" />
		<tag k="ssr:stedsnr" v="115145" />
	</node>
	<node id="-204010" lat="59.4153277761" lon="10.7041694397">
		<tag k="name" v="Årvollbukta" />
		<tag k="natural" v="bay" />
		<tag k="ssr:stedsnr" v="115120" />
	</node>
	<node id="-204009" lat="59.3819777749" lon="10.7070555556">
		<tag k="alt_name" v="Urstad nordre" />
		<tag k="name" v="Nordre Urstad" />
		<tag k="place" v="farm" />
		<tag k="ssr:stedsnr" v="114926" />
	</node>
	<node id="-204008" lat="59.3914972217" lon="10.7118833387">
		<tag k="name" v="Kypskjemarka" />
		<tag k="place" v="locality" />
		<tag k="ssr:stedsnr" v="114904" />
	</node>
	<node id="-204007" lat="59.3546166669" lon="10.7323861097">
		<tag k="name" v="Mellebyåsen" />
		<tag k="natural" v="hill" />
		<tag k="place" v="locality" />
		<tag k="ssr:stedsnr" v="114330" />
	</node>
	<node id="-204006" lat="59.3931166667" lon="10.6511388852">
		<tag k="alt_name" v="Fuglevik nordre" />
		<tag k="name" v="Nordre Fuglevik" />
		<tag k="place" v="hamlet" />
		<tag k="ssr:stedsnr" v="114102" />
	</node>
	<node id="-204005" lat="59.3624264398" lon="10.6998779478">
		<tag k="name" v="Grønli" />
		<tag k="natural" v="wood" />
		<tag k="ssr:stedsnr" v="114034" />
	</node>
	<node id="-204004" lat="59.3925583329" lon="10.7423500008">
		<tag k="name" v="Gipsundskogen" />
		<tag k="place" v="locality" />
		<tag k="ssr:stedsnr" v="114031" />
	</node>
	<node id="-204003" lat="59.42950556" lon="10.682336118">
		<tag k="name" v="Ørehavna" />
		<tag k="place" v="suburb" />
		<tag k="ssr:stedsnr" v="114025" />
	</node>
	<node id="-204002" lat="59.4303333288" lon="10.6941361158">
		<tag k="name" v="Vepsen" />
		<tag k="natural" v="cape" />
		<tag k="ssr:stedsnr" v="114019" />
	</node>
	<node id="-204001" lat="59.3569361119" lon="10.7151222187">
		<tag k="name" v="Krokemyrskogen" />
		<tag k="place" v="locality" />
		<tag k="ssr:stedsnr" v="114011" />
	</node>
	<node id="-204000" lat="59.4307972192" lon="10.6776750028">
		<tag k="fixme" v="consider natural=peak for the most distinct mountains in the district" />
		<tag k="name" v="Blåbæråsen" />
		<tag k="natural" v="hill" />
		<tag k="place" v="locality" />
		<tag k="ssr:stedsnr" v="114010" />
	</node>
	<node id="-203999" lat="59.3450333317" lon="10.7571861044">
		<tag k="name" v="Molvikbekken" />
		<tag k="ssr:stedsnr" v="114009" />
		<tag k="waterway" v="stream" />
	</node>
	<node id="-203998" lat="59.3714527744" lon="10.6524083414">
		<tag k="name" v="Årefjordneset" />
		<tag k="place" v="locality" />
		<tag k="ssr:stedsnr" v="114008" />
	</node>
	<node id="-203997" lat="59.418416671" lon="10.6013527844">
		<tag k="name" v="Albystranda" />
		<tag k="natural" v="beach" />
		<tag k="place" v="locality" />
		<tag k="ssr:stedsnr" v="249918" />
	</node>
	<node id="-203996" lat="59.4252000042" lon="10.5799833303">
		<tag k="name" v="Sauetogrunnen" />
		<tag k="natural" v="shoal" />
		<tag k="place" v="locality" />
		<tag k="ssr:stedsnr" v="245986" />
	</node>
	<node id="-203995" lat="59.4146111114" lon="10.6385777774">
		<tag k="name" v="Espenesgrunnen" />
		<tag k="natural" v="shoal" />
		<tag k="place" v="locality" />
		<tag k="ssr:stedsnr" v="245971" />
	</node>
	<node id="-203994" lat="59.4627722267" lon="10.6708888843">
		<tag k="name" v="Mossesundet" />
		<tag k="natural" v="strait" />
		<tag k="ssr:stedsnr" v="245959" />
	</node>
	<node id="-203993" lat="59.4526749978" lon="10.7094694463">
		<tag k="alt_name" v="Noreødegård" />
		<tag k="name" v="Noreødegården" />
		<tag k="place" v="farm" />
		<tag k="ssr:stedsnr" v="245954" />
	</node>
	<node id="-203992" lat="59.4484583343" lon="10.6900777803">
		<tag k="name" v="Grindvoll" />
		<tag k="place" v="farm" />
		<tag k="ssr:stedsnr" v="245948" />
	</node>
	<node id="-203991" lat="59.3221833347" lon="10.6870277741">
		<tag k="name" v="Solstad" />
		<tag k="place" v="farm" />
		<tag k="ssr:stedsnr" v="245592" />
	</node>
	<node id="-203990" lat="59.3195361148" lon="10.6847361093">
		<tag k="alt_name" v="Ammundrød" />
		<tag k="name" v="Amundrød" />
		<tag k="place" v="farm" />
		<tag k="ssr:stedsnr" v="245591" />
	</node>
	<node id="-203989" lat="59.3268935733" lon="10.6802686417">
		<tag k="name" v="Rørvik" />
		<tag k="place" v="farm" />
		<tag k="ssr:stedsnr" v="245589" />
	</node>
	<node id="-203988" lat="59.354054685" lon="10.6584633852">
		<tag k="alt_name" v="Stangarholmen" />
		<tag k="name" v="Stangerholmen" />
		<tag k="place" v="islet" />
		<tag k="ssr:stedsnr" v="245564" />
	</node>
	<node id="-203987" lat="59.3730166643" lon="10.692191666">
		<tag k="name" v="Balke" />
		<tag k="place" v="farm" />
		<tag k="ssr:stedsnr" v="245549" />
	</node>
	<node id="-203986" lat="59.4022500011" lon="10.6530777692">
		<tag k="alt_name" v="Feste mellem;Mellem Feste" />
		<tag k="name" v="Mellom-Feste" />
		<tag k="place" v="farm" />
		<tag k="ssr:stedsnr" v="245490" />
	</node>
	<node id="-203985" lat="59.3801528971" lon="10.6774932991">
		<tag k="fixme" v="consider place=hamlet" />
		<tag k="name" v="Hasle" />
		<tag k="place" v="farm" />
		<tag k="ssr:stedsnr" v="245528" />
	</node>
	<node id="-203984" lat="59.3545749971" lon="10.773405554">
		<tag k="name" v="Sarpebakken" />
		<tag k="place" v="farm" />
		<tag k="ssr:stedsnr" v="245238" />
	</node>
	<node id="-203983" lat="59.4354527737" lon="10.6782222228">
		<tag k="name" v="Neset" />
		<tag k="natural" v="cape" />
		<tag k="ssr:stedsnr" v="65911" />
	</node>
	<node id="-203982" lat="59.4657672665" lon="10.6284286723">
		<tag k="alt_name" v="Fuglevikbukta" />
		<tag k="name" v="Rambergbukta" />
		<tag k="natural" v="bay" />
		<tag k="ssr:stedsnr" v="63906" />
	</node>
	<node id="-203981" lat="59.5020055554" lon="10.6562222293">
		<tag k="name" v="Nordre Jeløya" />
		<tag k="place" v="island" />
		<tag k="ssr:stedsnr" v="63542" />
	</node>
	<node id="-203980" lat="59.3981305573" lon="10.6522805538">
		<tag k="name" v="Strandbakken" />
		<tag k="place" v="farm" />
		<tag k="ssr:stedsnr" v="63539" />
	</node>
	<node id="-203979" lat="59.3536071358" lon="10.7517445356">
		<tag k="alt_name" v="Rossnes" />
		<tag k="fixme" v="consider place=hamlet" />
		<tag k="name" v="Rosnes" />
		<tag k="place" v="farm" />
		<tag k="ssr:stedsnr" v="63519" />
	</node>
	<node id="-203978" lat="59.3263333313" lon="10.6953527705">
		<tag k="name" v="Tollefsrød" />
		<tag k="place" v="farm" />
		<tag k="ssr:stedsnr" v="63618" />
	</node>
	<node id="-203977" lat="59.335058336" lon="10.7157416701">
		<tag k="name" v="Hallingsås" />
		<tag k="place" v="farm" />
		<tag k="ssr:stedsnr" v="63615" />
	</node>
	<node id="-203976" lat="59.4585249989" lon="10.6761722174">
		<tag k="name" v="Molbekktjernet" />
		<tag k="natural" v="water" />
		<tag k="ssr:stedsnr" v="240273" />
	</node>
	<node id="-203975" lat="59.4181749968" lon="10.6368694365">
		<tag k="name" v="Grimsrødhausen" />
		<tag k="place" v="locality" />
		<tag k="seamark:type" v="rock" />
		<tag k="ssr:stedsnr" v="238180" />
	</node>
	<node id="-203974" lat="59.435719448" lon="10.6494777756">
		<tag k="man_made" v="quay" />
		<tag k="name" v="Hesselbergbrygga" />
		<tag k="place" v="locality" />
		<tag k="ssr:stedsnr" v="55214" />
	</node>
	<node id="-203973" lat="59.3977027789" lon="10.7194555507">
		<tag k="name" v="Såstadskogen" />
		<tag k="place" v="locality" />
		<tag k="ssr:stedsnr" v="54763" />
	</node>
	<node id="-203972" lat="59.3234027777" lon="10.6775111048">
		<tag k="name" v="Knarrebaugen" />
		<tag k="natural" v="bay" />
		<tag k="ssr:stedsnr" v="54010" />
	</node>
	<node id="-203971" lat="59.4348750004" lon="10.7496583304">
		<tag k="name" v="Mossebukta" />
		<tag k="natural" v="bay" />
		<tag k="ssr:stedsnr" v="53912" />
	</node>
	<node id="-203970" lat="59.4207666704" lon="10.6711333281">
		<tag k="leisure" v="pitch" />
		<tag k="name" v="Melløs stadion" />
		<tag k="ssr:stedsnr" v="53807" />
	</node>
	<node id="-203969" lat="59.4071833318" lon="10.6615833396">
		<tag k="alt_name" v="Dyre nordre" />
		<tag k="fixme" v="consider place=hamlet" />
		<tag k="name" v="Nordre Dyre" />
		<tag k="place" v="farm" />
		<tag k="ssr:stedsnr" v="53804" />
	</node>
	<node id="-203968" lat="59.4235222227" lon="10.6643249992">
		<tag k="leisure" v="park" />
		<tag k="name" v="Gernerlunden" />
		<tag k="ssr:stedsnr" v="237288" />
	</node>
	<node id="-203967" lat="59.3317027736" lon="10.6690583245">
		<tag k="name" v="Solheim" />
		<tag k="place" v="farm" />
		<tag k="ssr:stedsnr" v="53420" />
	</node>
	<node id="-203966" lat="59.3207472253" lon="10.6757277804">
		<tag k="name" v="Kråke" />
		<tag k="natural" v="cape" />
		<tag k="ssr:stedsnr" v="53406" />
	</node>
	<node id="-203965" lat="59.4152222178" lon="10.7462833334">
		<tag k="name" v="Katthuet" />
		<tag k="place" v="islet" />
		<tag k="ssr:stedsnr" v="52876" />
	</node>
	<node id="-203964" lat="59.4426694421" lon="10.7288611149">
		<tag k="name" v="Dalemyra" />
		<tag k="natural" v="wetland" />
		<tag k="ssr:stedsnr" v="52567" />
	</node>
	<node id="-203963" lat="59.4094000001" lon="10.7610638901">
		<tag k="name" v="Bjørndalen" />
		<tag k="natural" v="valley" />
		<tag k="place" v="locality" />
		<tag k="ssr:stedsnr" v="236840" />
	</node>
	<node id="-203962" lat="59.3944749979" lon="10.7554472147">
		<tag k="name" v="Vestheim" />
		<tag k="place" v="farm" />
		<tag k="ssr:stedsnr" v="236769" />
	</node>
	<node id="-203961" lat="59.3909359817" lon="10.7951050383">
		<tag k="name" v="Fredskjærhagen" />
		<tag k="place" v="locality" />
		<tag k="ssr:stedsnr" v="236701" />
	</node>
	<node id="-203960" lat="59.388230558" lon="10.7729444422">
		<tag k="alt_name" v="Utne søndre" />
		<tag k="name" v="Søndre Utne" />
		<tag k="place" v="farm" />
		<tag k="ssr:stedsnr" v="236688" />
	</node>
	<node id="-203959" lat="59.3803472249" lon="10.7360027839">
		<tag k="name" v="Voll" />
		<tag k="place" v="farm" />
		<tag k="ssr:stedsnr" v="236681" />
	</node>
	<node id="-203958" lat="59.3651194431" lon="10.7489166584">
		<tag k="alt_name" v="Roer mellem;Mellem Roer" />
		<tag k="loc_name" v="Mellom-Ror" />
		<tag k="name" v="Mellom-Roer" />
		<tag k="old_name" v="Ror mellem;Roer, m;Ror midtre" />
		<tag k="place" v="farm" />
		<tag k="ssr:stedsnr" v="236333" />
	</node>
	<node id="-203957" lat="59.3686277786" lon="10.7269916637">
		<tag k="alt_name" v="Otterstad østre" />
		<tag k="name" v="Østre Otterstad" />
		<tag k="place" v="farm" />
		<tag k="ssr:stedsnr" v="236324" />
	</node>
	<node id="-203956" lat="59.3646083351" lon="10.7265249948">
		<tag k="name" v="Otterstadskogen" />
		<tag k="place" v="locality" />
		<tag k="ssr:stedsnr" v="236322" />
	</node>
	<node id="-203955" lat="59.3625444471" lon="10.7312416607">
		<tag k="name" v="Furuset" />
		<tag k="place" v="farm" />
		<tag k="ssr:stedsnr" v="236321" />
	</node>
	<node id="-203954" lat="59.3623249992" lon="10.7334638905">
		<tag k="alt_name" v="Kure nordre" />
		<tag k="name" v="Nedre Kure" />
		<tag k="place" v="farm" />
		<tag k="ssr:stedsnr" v="236314" />
	</node>
	<node id="-203953" lat="59.3594083378" lon="10.7668999988">
		<tag k="alt_name" v="Molvik nordre" />
		<tag k="name" v="Nordre Molvik" />
		<tag k="place" v="farm" />
		<tag k="ssr:stedsnr" v="236308" />
	</node>
	<node id="-203952" lat="59.3578305577" lon="10.7418388846">
		<tag k="name" v="Søndre Gulland" />
		<tag k="place" v="farm" />
		<tag k="ssr:stedsnr" v="236226" />
	</node>
	<node id="-203951" lat="59.3489611091" lon="10.7354027691">
		<tag k="alt_name" v="Kure vestre" />
		<tag k="name" v="Vestre Kure" />
		<tag k="place" v="farm" />
		<tag k="ssr:stedsnr" v="236060" />
	</node>
	<node id="-203950" lat="59.3825222186" lon="10.6850777853">
		<tag k="name" v="Vangsbekken" />
		<tag k="ssr:stedsnr" v="235928" />
		<tag k="waterway" v="stream" />
	</node>
	<node id="-203949" lat="59.3841722239" lon="10.7061111038">
		<tag k="alt_name" v="Tøstad nedre" />
		<tag k="name" v="Nedre Tøstad" />
		<tag k="place" v="farm" />
		<tag k="ssr:stedsnr" v="235920" />
	</node>
	<node id="-203948" lat="59.4359055596" lon="10.7260472279">
		<tag k="name" v="Noresletta" />
		<tag k="place" v="locality" />
		<tag k="ssr:stedsnr" v="235898" />
	</node>
	<node id="-203947" lat="59.4221138932" lon="10.6676027707">
		<tag k="amenity" v="school" />
		<tag k="name" v="Melløs skole" />
		<tag k="ssr:stedsnr" v="235791" />
	</node>
	<node id="-203946" lat="59.4411333376" lon="10.7449555638">
		<tag k="fixme" v="consider natural=peak for the most distinct mountains in the district" />
		<tag k="name" v="Slaåsen" />
		<tag k="natural" v="hill" />
		<tag k="place" v="locality" />
		<tag k="ssr:stedsnr" v="235645" />
	</node>
	<node id="-203945" lat="59.3215333332" lon="10.6732527766">
		<tag k="name" v="Hvitnesbukta" />
		<tag k="natural" v="bay" />
		<tag k="ssr:stedsnr" v="235518" />
	</node>
	<node id="-203944" lat="59.3676722189" lon="10.7766055518">
		<tag k="name" v="Bitten" />
		<tag k="place" v="farm" />
		<tag k="ssr:stedsnr" v="235342" />
	</node>
	<node id="-203943" lat="59.3656055536" lon="10.6957277851">
		<tag k="alt_name" v="Pålsrød østre" />
		<tag k="name" v="Østre Pålsrød" />
		<tag k="place" v="farm" />
		<tag k="ssr:stedsnr" v="235104" />
	</node>
	<node id="-203942" lat="59.3648416693" lon="10.6938083299">
		<tag k="alt_name" v="Pålsrød mellem" />
		<tag k="name" v="Mellom-Pålsrød" />
		<tag k="place" v="farm" />
		<tag k="ssr:stedsnr" v="235103" />
	</node>
	<node id="-203941" lat="59.3718305561" lon="10.6742500077">
		<tag k="name" v="Evjeåa" />
		<tag k="ssr:stedsnr" v="235102" />
		<tag k="waterway" v="stream" />
	</node>
	<node id="-203940" lat="59.3608361108" lon="10.6943833393">
		<tag k="name" v="Dalen" />
		<tag k="place" v="farm" />
		<tag k="ssr:stedsnr" v="235061" />
	</node>
	<node id="-203939" lat="59.3614666672" lon="10.7108305579">
		<tag k="alt_name" v="Opstad nedre" />
		<tag k="name" v="Nedre Opstad" />
		<tag k="place" v="farm" />
		<tag k="ssr:stedsnr" v="235049" />
	</node>
	<node id="-203938" lat="59.4374666692" lon="10.671622218">
		<tag k="name" v="Myra" />
		<tag k="place" v="locality" />
		<tag k="ssr:stedsnr" v="235035" />
	</node>
	<node id="-203937" lat="59.4344277756" lon="10.6837444495">
		<tag k="fixme" v="consider natural=peak for the most distinct mountains in the district" />
		<tag k="name" v="Skolekollen" />
		<tag k="natural" v="hill" />
		<tag k="place" v="locality" />
		<tag k="ssr:stedsnr" v="235031" />
	</node>
	<node id="-203936" lat="59.437405559" lon="10.6224388884">
		<tag k="name" v="Refsnesila" />
		<tag k="natural" v="spring" />
		<tag k="ssr:stedsnr" v="234899" />
	</node>
	<node id="-203935" lat="59.4899583364" lon="10.6708416601">
		<tag k="name" v="Åpensand" />
		<tag k="place" v="isolated_dwelling" />
		<tag k="ssr:stedsnr" v="234876" />
	</node>
	<node id="-203934" lat="59.4969250016" lon="10.661205562">
		<tag k="name" v="Kongshavntjern" />
		<tag k="natural" v="water" />
		<tag k="ssr:stedsnr" v="234872" />
	</node>
	<node id="-203933" lat="59.4834861071" lon="10.6293444494">
		<tag k="name" v="Signalodden" />
		<tag k="natural" v="cape" />
		<tag k="ssr:stedsnr" v="234804" />
	</node>
	<node id="-203932" lat="59.4182222178" lon="10.7496444518">
		<tag k="alt_name" v="Sørpa østre" />
		<tag k="name" v="Østre Sørpa" />
		<tag k="place" v="locality" />
		<tag k="ssr:stedsnr" v="234313" />
	</node>
	<node id="-203931" lat="59.3097166629" lon="10.6966000076">
		<tag k="fixme" v="consider seamark:type=rock or natural=shoal" />
		<tag k="name" v="Svartskjær" />
		<tag k="place" v="islet" />
		<tag k="ssr:stedsnr" v="234116" />
	</node>
	<node id="-203930" lat="59.3053771886" lon="10.6919797445">
		<tag k="name" v="Nordre Danmarksbukta" />
		<tag k="natural" v="bay" />
		<tag k="ssr:stedsnr" v="234114" />
	</node>
	<node id="-203929" lat="59.4260250023" lon="10.6792194495">
		<tag k="leisure" v="pitch" />
		<tag k="name" v="Ørejordet" />
		<tag k="ssr:stedsnr" v="234058" />
	</node>
	<node id="-203928" lat="59.4338111116" lon="10.6529166583">
		<tag k="bridge" v="yes" />
		<tag k="layer" v="1" />
		<tag k="name" v="Moss kanal" />
		<tag k="ssr:stedsnr" v="228647" />
	</node>
	<node id="-203927" lat="59.3769249978" lon="10.7493611147">
		<tag k="bridge" v="yes" />
		<tag k="layer" v="1" />
		<tag k="name" v="Rygge stasjon" />
		<tag k="ssr:stedsnr" v="228486" />
	</node>
	<node id="-203926" lat="59.4214694424" lon="10.767555564">
		<tag k="name" v="Kvernøyhuken" />
		<tag k="place" v="locality" />
		<tag k="ssr:stedsnr" v="223920" />
	</node>
	<node id="-203925" lat="59.4879611095" lon="10.7769500046">
		<tag k="name" v="Kolsrød" />
		<tag k="place" v="farm" />
		<tag k="ssr:stedsnr" v="3653" />
	</node>
	<node id="-204896" lat="59.4402258874" lon="10.756209327">
		<tag k="name" v="Havnahuken" />
		<tag k="place" v="locality" />
		<tag k="ssr:stedsnr" v="988108" />
	</node>
	<node id="-204895" lat="59.4302430445" lon="10.7310285037">
		<tag k="name" v="Grevlinghuken" />
		<tag k="place" v="locality" />
		<tag k="ssr:stedsnr" v="988107" />
	</node>
	<node id="-204894" lat="59.3746799309" lon="10.6618005">
		<tag k="name" v="Bryggeberget" />
		<tag k="natural" v="cape" />
		<tag k="ssr:stedsnr" v="987564" />
	</node>
	<node id="-204893" lat="59.3324410551" lon="10.6544763541">
		<tag k="name" v="Kirkegårdsbukta" />
		<tag k="natural" v="bay" />
		<tag k="ssr:stedsnr" v="987559" />
	</node>
	<node id="-204892" lat="59.4352227245" lon="10.651489046">
		<tag k="man_made" v="quay" />
		<tag k="name" v="Vestre Kanalkai" />
		<tag k="place" v="locality" />
		<tag k="ssr:stedsnr" v="987540" />
	</node>
	<node id="-204891" lat="59.4348090767" lon="10.6528484353">
		<tag k="man_made" v="quay" />
		<tag k="name" v="Tollbubrygga" />
		<tag k="place" v="locality" />
		<tag k="ssr:stedsnr" v="987539" />
	</node>
	<node id="-204890" lat="59.4332778537" lon="10.6527638275">
		<tag k="man_made" v="quay" />
		<tag k="name" v="Gjestebrygga" />
		<tag k="place" v="locality" />
		<tag k="ssr:stedsnr" v="987538" />
	</node>
	<node id="-204889" lat="59.4514450461" lon="10.6392068223">
		<tag k="fixme" v="consider boundary=protected_area and relevant protect_class if not nature reserve" />
		<tag k="leisure" v="nature_reserve" />
		<tag k="name" v="Orkerødskogen naturreservat" />
		<tag k="ssr:stedsnr" v="985573" />
	</node>
	<node id="-204888" lat="59.3497310158" lon="10.6948726648">
		<tag k="name" v="Sundby" />
		<tag k="place" v="farm" />
		<tag k="ssr:stedsnr" v="978125" />
	</node>
	<node id="-204887" lat="59.3349309202" lon="10.6641423075">
		<tag k="name" v="Drolshamar" />
		<tag k="place" v="isolated_dwelling" />
		<tag k="ssr:stedsnr" v="976110" />
	</node>
	<node id="-204886" lat="59.4586163185" lon="10.6964708908">
		<tag k="amenity" v="school" />
		<tag k="name" v="Åvangen skole" />
		<tag k="ssr:stedsnr" v="976102" />
	</node>
	<node id="-204884" lat="59.4174944419" lon="10.6187555639">
		<tag k="name" v="Teinegrunnen" />
		<tag k="natural" v="shoal" />
		<tag k="place" v="locality" />
		<tag k="ssr:stedsnr" v="966951" />
	</node>
	<node id="-204883" lat="59.4281388912" lon="10.642444437">
		<tag k="name" v="Vårlistranda" />
		<tag k="natural" v="beach" />
		<tag k="place" v="locality" />
		<tag k="ssr:stedsnr" v="966181" />
	</node>
	<node id="-204882" lat="59.3936749992" lon="10.8062305617">
		<tag k="alt_name" v="Køia" />
		<tag k="name" v="Nordli" />
		<tag k="place" v="locality" />
		<tag k="ssr:stedsnr" v="964701" />
	</node>
	<node id="-204881" lat="59.3976527788" lon="10.8057027755">
		<tag k="name" v="Langverp" />
		<tag k="natural" v="cape" />
		<tag k="ssr:stedsnr" v="964699" />
	</node>
	<node id="-204880" lat="59.3890694422" lon="10.7567166733">
		<tag k="name" v="Sande" />
		<tag k="place" v="farm" />
		<tag k="ssr:stedsnr" v="964678" />
	</node>
	<node id="-204879" lat="59.3553583328" lon="10.7540083336">
		<tag k="alt_name" v="Rosnes nordre" />
		<tag k="name" v="Nordre Rosnes" />
		<tag k="place" v="farm" />
		<tag k="ssr:stedsnr" v="964242" />
	</node>
	<node id="-204878" lat="59.4326388918" lon="10.7360027755">
		<tag k="name" v="Ravneberget" />
		<tag k="natural" v="cliff" />
		<tag k="ssr:stedsnr" v="964097" />
	</node>
	<node id="-204877" lat="59.4286722228" lon="10.6981944508">
		<tag k="name" v="Lakenet" />
		<tag k="place" v="islet" />
		<tag k="ssr:stedsnr" v="964094" />
	</node>
	<node id="-204876" lat="59.4238083328" lon="10.7005944466">
		<tag k="name" v="Hedenskapet" />
		<tag k="natural" v="bay" />
		<tag k="ssr:stedsnr" v="964088" />
	</node>
	<node id="-204875" lat="59.38119722" lon="10.6965416611">
		<tag k="name" v="Tøstadskogen" />
		<tag k="place" v="locality" />
		<tag k="ssr:stedsnr" v="963949" />
	</node>
	<node id="-204874" lat="59.3797638851" lon="10.6782861188">
		<tag k="alt_name" v="Hasle østre" />
		<tag k="name" v="Østre Hasle" />
		<tag k="place" v="farm" />
		<tag k="ssr:stedsnr" v="963942" />
	</node>
	<node id="-204873" lat="59.4785388858" lon="10.7419222276">
		<tag k="name" v="Kjerringbakk" />
		<tag k="place" v="locality" />
		<tag k="ssr:stedsnr" v="963891" />
	</node>
	<node id="-204872" lat="59.3835111091" lon="10.6653916657">
		<tag k="name" v="Gunnarsbybekken" />
		<tag k="ssr:stedsnr" v="963622" />
		<tag k="waterway" v="stream" />
	</node>
	<node id="-204871" lat="59.32790556" lon="10.6821250033">
		<tag k="name" v="Roth" />
		<tag k="place" v="farm" />
		<tag k="ssr:stedsnr" v="963448" />
	</node>
	<node id="-204870" lat="59.3286666625" lon="10.6647277775">
		<tag k="name" v="Festningstangen" />
		<tag k="natural" v="cape" />
		<tag k="ssr:stedsnr" v="963441" />
	</node>
	<node id="-204869" lat="59.3501527796" lon="10.7124750077">
		<tag k="alt_name" v="Nærum søndre" />
		<tag k="name" v="Søndre Nærum" />
		<tag k="place" v="farm" />
		<tag k="ssr:stedsnr" v="963252" />
	</node>
	<node id="-204868" lat="59.3626813125" lon="10.6857307036">
		<tag k="name" v="Nyjordet" />
		<tag k="place" v="locality" />
		<tag k="ssr:stedsnr" v="963036" />
	</node>
	<node id="-204867" lat="59.4909944459" lon="10.6500194513">
		<tag k="name" v="Pinnebukta" />
		<tag k="natural" v="bay" />
		<tag k="ssr:stedsnr" v="962840" />
	</node>
	<node id="-204866" lat="59.4350944444" lon="10.6362388808">
		<tag k="name" v="Torderød" />
		<tag k="place" v="farm" />
		<tag k="ssr:stedsnr" v="962888" />
	</node>
	<node id="-204865" lat="59.4262888855" lon="10.6273361068">
		<tag k="name" v="Reierskogen" />
		<tag k="place" v="locality" />
		<tag k="ssr:stedsnr" v="962883" />
	</node>
	<node id="-204864" lat="59.4177999955" lon="10.7198916737">
		<tag k="name" v="Lille Silleholmen" />
		<tag k="place" v="islet" />
		<tag k="ssr:stedsnr" v="962882" />
	</node>
	<node id="-204863" lat="59.4406833288" lon="10.6145722303">
		<tag k="name" v="Tronvikskogen" />
		<tag k="place" v="locality" />
		<tag k="ssr:stedsnr" v="962879" />
	</node>
	<node id="-204862" lat="59.3330861149" lon="10.7185416676">
		<tag k="name" v="Møvik" />
		<tag k="natural" v="bay" />
		<tag k="ssr:stedsnr" v="874781" />
	</node>
	<node id="-204861" lat="59.4242000039" lon="10.6107333314">
		<tag k="name" v="Alby" />
		<tag k="place" v="farm" />
		<tag k="ssr:stedsnr" v="852986" />
	</node>
	<node id="-204860" lat="59.4236222225" lon="10.6188055501">
		<tag k="name" v="Reierbukta" />
		<tag k="natural" v="bay" />
		<tag k="ssr:stedsnr" v="852985" />
	</node>
	<node id="-204859" lat="59.4500472193" lon="10.6350916697">
		<tag k="name" v="Jeløya" />
		<tag k="old_name" v="Jeløen" />
		<tag k="place" v="island" />
		<tag k="ssr:stedsnr" v="852938" />
	</node>
	<node id="-204858" lat="59.4240861087" lon="10.6803527764">
		<tag k="name" v="Øre" />
		<tag k="place" v="suburb" />
		<tag k="ssr:stedsnr" v="852981" />
	</node>
	<node id="-204857" lat="59.3767972198" lon="10.7041027731">
		<tag k="name" v="Navestad" />
		<tag k="place" v="farm" />
		<tag k="ssr:stedsnr" v="852544" />
	</node>
	<node id="-204856" lat="59.3812666672" lon="10.6357333326">
		<tag k="alt_name" v="Fuglene" />
		<tag k="name" v="Fuglen" />
		<tag k="natural" v="shoal" />
		<tag k="place" v="locality" />
		<tag k="ssr:stedsnr" v="852542" />
	</node>
	<node id="-204855" lat="59.3860861101" lon="10.6998861167">
		<tag k="alt_name" v="Lyby søndre" />
		<tag k="name" v="Søndre Lyby" />
		<tag k="place" v="farm" />
		<tag k="ssr:stedsnr" v="852533" />
	</node>
	<node id="-204854" lat="59.3655136573" lon="10.7491780905">
		<tag k="alt_name" v="Ror nordre" />
		<tag k="name" v="Nordre Ror" />
		<tag k="place" v="farm" />
		<tag k="ssr:stedsnr" v="852286" />
	</node>
	<node id="-204853" lat="59.3679749965" lon="10.7727972234">
		<tag k="fixme" v="consider place=hamlet" />
		<tag k="name" v="Eskelund" />
		<tag k="place" v="farm" />
		<tag k="ssr:stedsnr" v="852285" />
	</node>
	<node id="-204852" lat="59.4112194424" lon="10.7634138915">
		<tag k="name" v="Nygård" />
		<tag k="place" v="farm" />
		<tag k="ssr:stedsnr" v="852284" />
	</node>
	<node id="-204851" lat="59.4778972218" lon="10.6615777691">
		<tag k="name" v="Kjørbukt" />
		<tag k="place" v="isolated_dwelling" />
		<tag k="ssr:stedsnr" v="845895" />
	</node>
	<node id="-204850" lat="59.4272305562" lon="10.6581611181">
		<tag k="man_made" v="quay" />
		<tag k="name" v="Gernerbrygga" />
		<tag k="place" v="locality" />
		<tag k="ssr:stedsnr" v="845221" />
	</node>
	<node id="-204849" lat="59.44374167" lon="10.6506777842">
		<tag k="man_made" v="quay" />
		<tag k="name" v="Rossnesstranda" />
		<tag k="place" v="locality" />
		<tag k="ssr:stedsnr" v="845158" />
	</node>
	<node id="-204848" lat="59.4444333325" lon="10.6549444519">
		<tag k="man_made" v="quay" />
		<tag k="name" v="Rossnesbrygga" />
		<tag k="place" v="locality" />
		<tag k="ssr:stedsnr" v="845151" />
	</node>
	<node id="-204847" lat="59.4029138849" lon="10.7940388968">
		<tag k="name" v="Brentetangen" />
		<tag k="natural" v="cape" />
		<tag k="ssr:stedsnr" v="843781" />
	</node>
	<node id="-204846" lat="59.3910027789" lon="10.8026722303">
		<tag k="fixme" v="consider natural=peak for the most distinct mountains in the district" />
		<tag k="name" v="Vardås" />
		<tag k="natural" v="hill" />
		<tag k="place" v="locality" />
		<tag k="ssr:stedsnr" v="843752" />
	</node>
	<node id="-204845" lat="59.3887027796" lon="10.8059305563">
		<tag k="name" v="Grevlingåsen" />
		<tag k="natural" v="hill" />
		<tag k="place" v="locality" />
		<tag k="ssr:stedsnr" v="843751" />
	</node>
	<node id="-204844" lat="59.3954439203" lon="10.7240981344">
		<tag k="name" v="Såstad" />
		<tag k="place" v="farm" />
		<tag k="ssr:stedsnr" v="843825" />
	</node>
	<node id="-204843" lat="59.3781277815" lon="10.7541083274">
		<tag k="name" v="Vårli" />
		<tag k="place" v="farm" />
		<tag k="ssr:stedsnr" v="843272" />
	</node>
	<node id="-204842" lat="59.3625694441" lon="10.7582861027">
		<tag k="alt_name" v="Ror østre;Østre Roer" />
		<tag k="name" v="Østre Ror" />
		<tag k="place" v="farm" />
		<tag k="ssr:stedsnr" v="843333" />
	</node>
	<node id="-204841" lat="59.3758638924" lon="10.7238750002">
		<tag k="name" v="Dyrhaug" />
		<tag k="place" v="farm" />
		<tag k="ssr:stedsnr" v="843327" />
	</node>
	<node id="-204840" lat="59.3562138865" lon="10.7612472269">
		<tag k="alt_name" v="Molvik vestre" />
		<tag k="name" v="Vestre Molvik" />
		<tag k="place" v="farm" />
		<tag k="ssr:stedsnr" v="843044" />
	</node>
	<node id="-204839" lat="59.4133888895" lon="10.6868583253">
		<tag k="name" v="Bråten" />
		<tag k="place" v="farm" />
		<tag k="ssr:stedsnr" v="843096" />
	</node>
	<node id="-204838" lat="59.426038888" lon="10.6935166705">
		<tag k="name" v="Solliskogen" />
		<tag k="place" v="locality" />
		<tag k="ssr:stedsnr" v="843077" />
	</node>
	<node id="-204837" lat="59.3880305581" lon="10.670208341">
		<tag k="fixme" v="consider boundary=protected_area and relevant protect_class if not nature reserve" />
		<tag k="leisure" v="nature_reserve" />
		<tag k="name" v="Telemarkslund naturreservat" />
		<tag k="ssr:stedsnr" v="842943" />
	</node>
	<node id="-204836" lat="59.4349722186" lon="10.7200222204">
		<tag k="name" v="Krokbukta" />
		<tag k="natural" v="bay" />
		<tag k="ssr:stedsnr" v="842899" />
	</node>
	<node id="-204835" lat="59.3911305585" lon="10.6883055564">
		<tag k="fixme" v="consider natural=peak for the most distinct mountains in the district" />
		<tag k="name" v="Smedhusåsen" />
		<tag k="natural" v="hill" />
		<tag k="place" v="locality" />
		<tag k="ssr:stedsnr" v="842887" />
	</node>
	<node id="-204834" lat="59.3963444437" lon="10.6585361083">
		<tag k="name" v="Strandbakkskogen" />
		<tag k="place" v="locality" />
		<tag k="ssr:stedsnr" v="842573" />
	</node>
	<node id="-204833" lat="59.3336833306" lon="10.6645333299">
		<tag k="name" v="Tollstasjonen" />
		<tag k="place" v="locality" />
		<tag k="ssr:stedsnr" v="842437" />
	</node>
	<node id="-204832" lat="59.3347222189" lon="10.7124194455">
		<tag k="name" v="Orefellen" />
		<tag k="place" v="farm" />
		<tag k="ssr:stedsnr" v="842388" />
	</node>
	<node id="-204831" lat="59.4200305586" lon="10.7432333276">
		<tag k="name" v="Sørpebukta" />
		<tag k="natural" v="bay" />
		<tag k="ssr:stedsnr" v="842298" />
	</node>
	<node id="-204830" lat="59.3681361075" lon="10.684152774">
		<tag k="junction" v="yes" />
		<tag k="name" v="Evjekrysset" />
		<tag k="place" v="locality" />
		<tag k="ssr:stedsnr" v="842088" />
	</node>
	<node id="-204829" lat="59.3798249959" lon="10.6776194453">
		<tag k="alt_name" v="Hasle vestre" />
		<tag k="name" v="Vestre Hasle" />
		<tag k="place" v="farm" />
		<tag k="ssr:stedsnr" v="842066" />
	</node>
	<node id="-204828" lat="59.4300638927" lon="10.6478277801">
		<tag k="landuse" v="harbour" />
		<tag k="name" v="Fiske båthavn" />
		<tag k="seamark:type" v="harbour" />
		<tag k="ssr:stedsnr" v="841901" />
	</node>
	<node id="-204827" lat="59.4436111112" lon="10.6167388889">
		<tag k="name" v="Refsnes gods" />
		<tag k="ssr:stedsnr" v="841887" />
		<tag k="tourism" v="hotel" />
	</node>
	<node id="-204826" lat="59.493483331" lon="10.6670611182">
		<tag k="name" v="Hesteløkka" />
		<tag k="place" v="farm" />
		<tag k="ssr:stedsnr" v="841851" />
	</node>
	<node id="-204825" lat="59.3398472203" lon="10.6830694442">
		<tag k="alt_name" v="Støtvik store" />
		<tag k="name" v="Store Støtvik" />
		<tag k="place" v="farm" />
		<tag k="ssr:stedsnr" v="842196" />
	</node>
	<node id="-204824" lat="59.4634027751" lon="10.6909027821">
		<tag k="name" v="Åvangen" />
		<tag k="place" v="farm" />
		<tag k="ssr:stedsnr" v="842195" />
	</node>
	<node id="-204823" lat="59.4559444407" lon="10.627402782">
		<tag k="alt_name" v="Ramberg nordre" />
		<tag k="name" v="Nordre Ramberg" />
		<tag k="place" v="farm" />
		<tag k="ssr:stedsnr" v="842181" />
	</node>
	<node id="-204822" lat="59.4356750019" lon="10.6937138908">
		<tag k="name" v="Thorbjørnsrød skanse" />
		<tag k="ssr:stedsnr" v="841587" />
		<tag k="tourism" v="attraction" />
	</node>
	<node id="-204821" lat="59.4352472206" lon="10.6632250052">
		<tag k="amenity" v="school" />
		<tag k="name" v="Kirkeparken videregående skole" />
		<tag k="ssr:stedsnr" v="841079" />
	</node>
	<node id="-204820" lat="59.4264444435" lon="10.6320666588">
		<tag k="amenity" v="school" />
		<tag k="name" v="Jeløy folkehøgskole" />
		<tag k="ssr:stedsnr" v="841075" />
	</node>
	<node id="-204819" lat="59.3262999995" lon="10.6861416638">
		<tag k="name" v="Nasle" />
		<tag k="place" v="farm" />
		<tag k="ssr:stedsnr" v="817894" />
	</node>
	<node id="-204818" lat="59.3861111106" lon="10.6566611175">
		<tag k="name" v="Fuglevik" />
		<tag k="place" v="quarter" />
		<tag k="ssr:stedsnr" v="813095" />
	</node>
	<node id="-204817" lat="59.5021499986" lon="10.6670999936">
		<tag k="name" v="Gjøvasundet" />
		<tag k="natural" v="strait" />
		<tag k="ssr:stedsnr" v="793908" />
	</node>
	<node id="-204816" lat="59.4546027798" lon="10.6254527848">
		<tag k="fixme" v="consider place=hamlet" />
		<tag k="name" v="Ramberg" />
		<tag k="place" v="farm" />
		<tag k="ssr:stedsnr" v="791963" />
	</node>
	<node id="-204815" lat="59.4645666625" lon="10.7568888929">
		<tag k="name" v="Gashus" />
		<tag k="place" v="farm" />
		<tag k="ssr:stedsnr" v="791714" />
	</node>
	<node id="-204814" lat="59.4679565459" lon="10.7248160668">
		<tag k="alt_name" v="Slettmosan;Slettemåsan" />
		<tag k="fixme" v="multiple name tags, choose one and add the other to alt_name" />
		<tag k="name" v="Bikkjemosen;Slettemosen" />
		<tag k="natural" v="wetland" />
		<tag k="ssr:stedsnr" v="791711" />
	</node>
	<node id="-204813" lat="59.4779749995" lon="10.6433277852">
		<tag k="alt_name" v="Ås nordre" />
		<tag k="name" v="Nordre Ås" />
		<tag k="place" v="farm" />
		<tag k="ssr:stedsnr" v="791909" />
	</node>
	<node id="-204812" lat="59.3847333298" lon="10.6815944501">
		<tag k="name" v="Rød" />
		<tag k="place" v="farm" />
		<tag k="ssr:stedsnr" v="791521" />
	</node>
	<node id="-204811" lat="59.3060055547" lon="10.6878416704">
		<tag k="name" v="Stretaneset" />
		<tag k="natural" v="cape" />
		<tag k="ssr:stedsnr" v="791627" />
	</node>
	<node id="-204810" lat="59.314325002" lon="10.7206194374">
		<tag k="name" v="Hestholmen" />
		<tag k="place" v="islet" />
		<tag k="ssr:stedsnr" v="791626" />
	</node>
	<node id="-204809" lat="59.3470388875" lon="10.6865500086">
		<tag k="name" v="Buberg" />
		<tag k="place" v="farm" />
		<tag k="ssr:stedsnr" v="791569" />
	</node>
	<node id="-204808" lat="59.438805559" lon="10.7776888883">
		<tag k="name" v="Dillingøy" />
		<tag k="place" v="farm" />
		<tag k="ssr:stedsnr" v="791340" />
	</node>
	<node id="-204807" lat="59.4176222227" lon="10.7481333285">
		<tag k="alt_name" v="Sarpetangen" />
		<tag k="name" v="Sørpetangen" />
		<tag k="natural" v="cape" />
		<tag k="ssr:stedsnr" v="791318" />
	</node>
	<node id="-204806" lat="59.4140944407" lon="10.7652027852">
		<tag k="name" v="Engene" />
		<tag k="place" v="farm" />
		<tag k="ssr:stedsnr" v="791308" />
	</node>
	<node id="-204805" lat="59.3623083292" lon="10.7334111181">
		<tag k="fixme" v="consider place=hamlet" />
		<tag k="name" v="Kure" />
		<tag k="place" v="farm" />
		<tag k="ssr:stedsnr" v="791257" />
	</node>
	<node id="-204804" lat="59.4008777768" lon="10.6993861119">
		<tag k="fixme" v="consider place=hamlet" />
		<tag k="name" v="Dilling" />
		<tag k="place" v="farm" />
		<tag k="ssr:stedsnr" v="791495" />
	</node>
	<node id="-204803" lat="59.400855557" lon="10.6520611087">
		<tag k="alt_name" v="Feste søndre" />
		<tag k="name" v="Søndre Feste" />
		<tag k="place" v="farm" />
		<tag k="ssr:stedsnr" v="791492" />
	</node>
	<node id="-204802" lat="59.4324944464" lon="10.650958325">
		<tag k="name" v="Vestre Kanalområde" />
		<tag k="place" v="suburb" />
		<tag k="ssr:stedsnr" v="784222" />
	</node>
	<node id="-204801" lat="59.4048222202" lon="10.7766638963">
		<tag k="name" v="Kilebukta" />
		<tag k="natural" v="bay" />
		<tag k="ssr:stedsnr" v="782829" />
	</node>
</osm>
