<?xml version="1.0" encoding="UTF-8"?>
<<<<<<< HEAD
<osm version="0.6" generator="osmapis">
	<node lat="59.40971111446709" lon="10.654924999515487" id="-16650">
		<tag k="alt_name" v="Feste nordre" />
		<tag k="name" v="Nordre Feste" />
		<tag k="place" v="farm" />
		<tag k="ssr:stedsnr" v="2972" />
	</node>
	<node lat="59.42602500227749" lon="10.679219449481442" id="-16652">
		<tag k="leisure" v="pitch" />
		<tag k="name" v="Ørejordet" />
		<tag k="ssr:stedsnr" v="234058" />
	</node>
	<node lat="59.36178808036364" lon="10.7101191570571" id="-16655">
		<tag k="alt_name" v="Opstad nedre" />
		<tag k="fixme" v="consider place=hamlet" />
		<tag k="name" v="Nedre Opstad" />
		<tag k="place" v="farm" />
		<tag k="ssr:stedsnr" v="235049" />
	</node>
	<node lat="59.48995833644723" lon="10.67084166011973" id="-16658">
		<tag k="name" v="Åpensand" />
		<tag k="place" v="isolated_dwelling" />
		<tag k="ssr:stedsnr" v="234876" />
	</node>
	<node lat="59.36767221889081" lon="10.776605551845405" id="-16659">
		<tag k="name" v="Bitten" />
		<tag k="place" v="farm" />
		<tag k="ssr:stedsnr" v="235342" />
	</node>
	<node lat="59.3608361107519" lon="10.694383339324306" id="-16660">
		<tag k="name" v="Dalen" />
		<tag k="place" v="farm" />
		<tag k="ssr:stedsnr" v="235061" />
	</node>
	<node lat="59.38417222387627" lon="10.706111103799616" id="-16666">
		<tag k="alt_name" v="Tøstad nedre" />
		<tag k="name" v="Nedre Tøstad" />
		<tag k="place" v="farm" />
		<tag k="ssr:stedsnr" v="235920" />
	</node>
	<node lat="59.34896110908388" lon="10.735402769087486" id="-16667">
		<tag k="alt_name" v="Kure vestre" />
		<tag k="name" v="Vestre Kure" />
		<tag k="place" v="farm" />
		<tag k="ssr:stedsnr" v="236060" />
	</node>
	<node lat="59.35783055765572" lon="10.741838884619789" id="-16668">
		<tag k="name" v="Søndre Gulland" />
		<tag k="place" v="farm" />
		<tag k="ssr:stedsnr" v="236226" />
	</node>
	<node lat="59.362544447101605" lon="10.731241660695117" id="-16669">
		<tag k="name" v="Furuset" />
		<tag k="place" v="farm" />
		<tag k="ssr:stedsnr" v="236321" />
	</node>
	<node lat="59.369286111534734" lon="10.727094130471441" id="-16671">
		<tag k="alt_name" v="Otterstad østre" />
		<tag k="fixme" v="consider place=hamlet" />
		<tag k="name" v="Østre Otterstad" />
		<tag k="place" v="farm" />
		<tag k="ssr:stedsnr" v="236324" />
	</node>
	<node lat="59.388230557990234" lon="10.772944442150475" id="-16672">
		<tag k="alt_name" v="Utne søndre" />
		<tag k="name" v="Søndre Utne" />
		<tag k="place" v="farm" />
		<tag k="ssr:stedsnr" v="236688" />
	</node>
	<node lat="59.39447499789513" lon="10.755447214711474" id="-16673">
		<tag k="name" v="Vestheim" />
		<tag k="place" v="farm" />
		<tag k="ssr:stedsnr" v="236769" />
	</node>
	<node lat="59.357799997700766" lon="10.663127777401288" id="-16679">
		<tag k="alt_name" v="Tangen nedre" />
		<tag k="name" v="Nedre Tangen" />
		<tag k="place" v="isolated_dwelling" />
		<tag k="ssr:stedsnr" v="53020" />
	</node>
	<node lat="59.37221944828022" lon="10.71816388545537" id="-16680">
		<tag k="alt_name" v="Fløgstad søndre" />
		<tag k="name" v="Søndre Fløgstad" />
		<tag k="place" v="farm" />
		<tag k="ssr:stedsnr" v="53082" />
	</node>
	<node lat="59.344341671040574" lon="10.715313888139987" id="-16681">
		<tag k="alt_name" v="Kubberød østre" />
		<tag k="name" v="Østre Kubberød" />
		<tag k="place" v="farm" />
		<tag k="ssr:stedsnr" v="53204" />
	</node>
	<node lat="59.463194442141386" lon="10.726044443223238" id="-16683">
		<tag k="amenity" v="cafe" />
		<tag k="name" v="Skihytta" />
		<tag k="ssr:stedsnr" v="53212" />
	</node>
	<node lat="59.33170277356897" lon="10.669058324540746" id="-16687">
		<tag k="name" v="Solheim" />
		<tag k="place" v="farm" />
		<tag k="ssr:stedsnr" v="53420" />
	</node>
	<node lat="59.40745415645789" lon="10.659804216684723" id="-16689">
		<tag k="alt_name" v="Dyre nordre" />
		<tag k="fixme" v="consider place=hamlet" />
		<tag k="name" v="Nordre Dyre" />
		<tag k="place" v="farm" />
		<tag k="ssr:stedsnr" v="53804" />
	</node>
	<node lat="59.42076667044103" lon="10.671133328097374" id="-16690">
		<tag k="leisure" v="pitch" />
		<tag k="name" v="Melløs stadion" />
		<tag k="ssr:stedsnr" v="53807" />
	</node>
	<node lat="59.33870555556713" lon="10.718986119393225" id="-16691">
		<tag k="name" v="Skogli" />
		<tag k="place" v="farm" />
		<tag k="ssr:stedsnr" v="54017" />
	</node>
	<node lat="59.37518833245743" lon="10.750416016575858" id="-16695">
		<tag k="fixme" v="consider place=hamlet" />
		<tag k="name" v="Gate" />
		<tag k="place" v="farm" />
		<tag k="ssr:stedsnr" v="63306" />
	</node>
	<node lat="59.33505833598849" lon="10.715741670051075" id="-16697">
		<tag k="name" v="Hallingsås" />
		<tag k="place" v="farm" />
		<tag k="ssr:stedsnr" v="63615" />
	</node>
	<node lat="59.32731407559859" lon="10.694430754097374" id="-16698">
		<tag k="fixme" v="consider place=hamlet" />
		<tag k="name" v="Tollefsrød" />
		<tag k="place" v="farm" />
		<tag k="ssr:stedsnr" v="63618" />
	</node>
	<node lat="59.36156883121177" lon="10.688708618317984" id="-16700">
		<tag k="fixme" v="consider place=hamlet" />
		<tag k="name" v="Børsebakke" />
		<tag k="place" v="farm" />
		<tag k="ssr:stedsnr" v="63587" />
	</node>
	<node lat="59.35442053148483" lon="10.773019732320686" id="-16703">
		<tag k="fixme" v="consider place=hamlet" />
		<tag k="name" v="Sarpebakken" />
		<tag k="place" v="farm" />
		<tag k="ssr:stedsnr" v="245238" />
	</node>
	<node lat="59.366203863476436" lon="10.763309496384682" id="-16704">
		<tag k="name" v="Pollen" />
		<tag k="place" v="farm" />
		<tag k="ssr:stedsnr" v="245261" />
	</node>
	<node lat="59.40225000112646" lon="10.653077769209373" id="-16706">
		<tag k="alt_name" v="Feste mellem;Mellem Feste" />
		<tag k="name" v="Mellom-Feste" />
		<tag k="place" v="farm" />
		<tag k="ssr:stedsnr" v="245490" />
	</node>
	<node lat="59.32689357327482" lon="10.680268641738428" id="-16707">
		<tag k="name" v="Rørvik" />
		<tag k="place" v="farm" />
		<tag k="ssr:stedsnr" v="245589" />
	</node>
	<node lat="59.31923913799028" lon="10.684217334279383" id="-16708">
		<tag k="alt_name" v="Ammundrød" />
		<tag k="fixme" v="consider place=hamlet" />
		<tag k="name" v="Amundrød" />
		<tag k="place" v="farm" />
		<tag k="ssr:stedsnr" v="245591" />
	</node>
	<node lat="59.322183334673234" lon="10.687027774059894" id="-16709">
		<tag k="name" v="Solstad" />
		<tag k="place" v="farm" />
		<tag k="ssr:stedsnr" v="245592" />
	</node>
	<node lat="59.380526723215795" lon="10.67799849609078" id="-16710">
		<tag k="name" v="Hasle" />
		<tag k="place" v="hamlet" />
		<tag k="ssr:stedsnr" v="245528" />
	</node>
	<node lat="59.37482466695928" lon="10.68971638070258" id="-16711">
		<tag k="fixme" v="consider place=hamlet" />
		<tag k="name" v="Balke" />
		<tag k="place" v="farm" />
		<tag k="ssr:stedsnr" v="245549" />
	</node>
	<node lat="59.44845833434117" lon="10.690077780319227" id="-16714">
		<tag k="name" v="Grindvoll" />
		<tag k="place" v="farm" />
		<tag k="ssr:stedsnr" v="245948" />
	</node>
	<node lat="59.45267499778659" lon="10.709469446254923" id="-16715">
		<tag k="alt_name" v="Noreødegård" />
		<tag k="name" v="Noreødegården" />
		<tag k="place" v="farm" />
		<tag k="ssr:stedsnr" v="245954" />
	</node>
	<node lat="59.42950555996046" lon="10.682336118045184" id="-16726">
		<tag k="name" v="Ørehavna" />
		<tag k="place" v="suburb" />
		<tag k="ssr:stedsnr" v="114025" />
	</node>
	<node lat="59.3781083347861" lon="10.665811111109758" id="-16729">
		<tag k="name" v="Årefjorden" />
		<tag k="place" v="isolated_dwelling" />
		<tag k="ssr:stedsnr" v="114055" />
	</node>
	<node lat="59.3702055593808" lon="10.68868889644869" id="-16730">
		<tag k="name" v="Sørliåsen" />
		<tag k="place" v="farm" />
		<tag k="ssr:stedsnr" v="114067" />
	</node>
	<node lat="59.393116666683596" lon="10.651138885224347" id="-16732">
		<tag k="alt_name" v="Fuglevik nordre" />
		<tag k="name" v="Nordre Fuglevik" />
		<tag k="place" v="hamlet" />
		<tag k="ssr:stedsnr" v="114102" />
	</node>
	<node lat="59.454038888122064" lon="10.626005553938663" id="-16733">
		<tag k="alt_name" v="Ramberg søndre" />
		<tag k="name" v="Søndre Ramberg" />
		<tag k="place" v="farm" />
		<tag k="ssr:stedsnr" v="114182" />
	</node>
	<node lat="59.337102779532835" lon="10.726763891493043" id="-16739">
		<tag k="name" v="Holm" />
		<tag k="place" v="farm" />
		<tag k="ssr:stedsnr" v="115011" />
	</node>
	<node lat="59.39379444803009" lon="10.762580549046307" id="-16742">
		<tag k="name" v="Sørby" />
		<tag k="place" v="farm" />
		<tag k="ssr:stedsnr" v="115783" />
	</node>
	<node lat="59.389958331576906" lon="10.774672217930028" id="-16743">
		<tag k="alt_name" v="Utne nordre" />
		<tag k="name" v="Nordre Utne" />
		<tag k="place" v="farm" />
		<tag k="ssr:stedsnr" v="115687" />
	</node>
	<node lat="59.372138892083115" lon="10.779383338904173" id="-16744">
		<tag k="building" v="industrial" />
		<tag k="industrial" v="factory" />
		<tag k="name" v="Utne sag" />
		<tag k="ssr:stedsnr" v="123313" />
	</node>
	<node lat="59.34294444680755" lon="10.723102785699412" id="-16746">
		<tag k="name" v="Kuremyra" />
		<tag k="place" v="farm" />
		<tag k="ssr:stedsnr" v="123526" />
	</node>
	<node lat="59.447849999423674" lon="10.74651666589024" id="-16750">
		<tag k="alt_name" v="Vannum;Vanem" />
		<tag k="name" v="Vannem" />
		<tag k="place" v="farm" />
		<tag k="ssr:stedsnr" v="124315" />
	</node>
	<node lat="59.476147219594374" lon="10.6459222177091" id="-16751">
		<tag k="alt_name" v="Ås søndre" />
		<tag k="name" v="Søndre Ås" />
		<tag k="place" v="farm" />
		<tag k="ssr:stedsnr" v="124904" />
	</node>
	<node lat="59.43065000148319" lon="10.66733611597819" id="-16752">
		<tag k="fixme" v="consider place=suburb, village or hamlet" />
		<tag k="name" v="Skarmyra" />
		<tag k="place" v="quarter" />
		<tag k="ssr:stedsnr" v="173061" />
	</node>
	<node lat="59.39916944142775" lon="10.692508329144509" id="-16759">
		<tag k="loc_name" v="Nøysom" />
		<tag k="name" v="Nøisom" />
		<tag k="place" v="farm" />
		<tag k="ssr:stedsnr" v="174907" />
	</node>
	<node lat="59.413961108774046" lon="10.66808333502466" id="-16760">
		<tag k="name" v="Dyre" />
		<tag k="place" v="quarter" />
		<tag k="ssr:stedsnr" v="175005" />
	</node>
	<node lat="59.41517499801623" lon="10.682752784258302" id="-16761">
		<tag k="name" v="Fredensborg" />
		<tag k="place" v="quarter" />
		<tag k="ssr:stedsnr" v="175017" />
	</node>
	<node lat="59.40357777340554" lon="10.753133338227357" id="-16763">
		<tag k="alt_name" v="Kjellerød vestre" />
		<tag k="name" v="Vestre Kjellerød" />
		<tag k="place" v="farm" />
		<tag k="ssr:stedsnr" v="175854" />
	</node>
	<node lat="59.38934166380607" lon="10.728891665600033" id="-16764">
		<tag k="name" v="Jare" />
		<tag k="place" v="farm" />
		<tag k="ssr:stedsnr" v="175805" />
	</node>
	<node lat="59.40086111285761" lon="10.718327780415553" id="-16766">
		<tag k="name" v="Såstadbråten" />
		<tag k="place" v="quarter" />
		<tag k="ssr:stedsnr" v="175768" />
	</node>
	<node lat="59.43680832972832" lon="10.621227773761554" id="-16767">
		<tag k="name" v="Bergersborg" />
		<tag k="place" v="quarter" />
		<tag k="ssr:stedsnr" v="177217" />
	</node>
	<node lat="59.33068357555238" lon="10.687976101457787" id="-16769">
		<tag k="fixme" v="consider place=hamlet" />
		<tag k="name" v="Grefsrød" />
		<tag k="place" v="farm" />
		<tag k="ssr:stedsnr" v="184612" />
	</node>
	<node lat="59.46656013779073" lon="10.642529401283632" id="-16773">
		<tag k="name" v="Fuglevik" />
		<tag k="place" v="farm" />
		<tag k="ssr:stedsnr" v="184891" />
	</node>
	<node lat="59.37761666278141" lon="10.750341674219325" id="-16774">
		<tag k="name" v="Rygge" />
		<tag k="place" v="village" />
		<tag k="ssr:stedsnr" v="270339" />
	</node>
	<node lat="59.41822221780104" lon="10.74964445178664" id="-16781">
		<tag k="alt_name" v="Sørpa østre" />
		<tag k="name" v="Østre Sørpa" />
		<tag k="place" v="locality" />
		<tag k="ssr:stedsnr" v="234313" />
	</node>
	<node lat="59.36484166927307" lon="10.693808329851937" id="-16784">
		<tag k="alt_name" v="Pålsrød mellem" />
		<tag k="name" v="Mellom-Pålsrød" />
		<tag k="place" v="farm" />
		<tag k="ssr:stedsnr" v="235103" />
	</node>
	<node lat="59.365605553590854" lon="10.695727785105854" id="-16785">
		<tag k="alt_name" v="Pålsrød østre" />
		<tag k="name" v="Østre Pålsrød" />
		<tag k="place" v="farm" />
		<tag k="ssr:stedsnr" v="235104" />
	</node>
	<node lat="59.422113893168074" lon="10.667602770689331" id="-16789">
		<tag k="amenity" v="school" />
		<tag k="name" v="Melløs skole" />
		<tag k="ssr:stedsnr" v="235791" />
	</node>
	<node lat="59.35940833779112" lon="10.766899998795646" id="-16792">
		<tag k="alt_name" v="Molvik nordre" />
		<tag k="name" v="Nordre Molvik" />
		<tag k="place" v="farm" />
		<tag k="ssr:stedsnr" v="236308" />
	</node>
	<node lat="59.36232499915703" lon="10.73346389052923" id="-16793">
		<tag k="alt_name" v="Kure nordre" />
		<tag k="name" v="Nedre Kure" />
		<tag k="place" v="farm" />
		<tag k="ssr:stedsnr" v="236314" />
	</node>
	<node lat="59.36511944306569" lon="10.748916658446655" id="-16794">
		<tag k="alt_name" v="Roer mellem;Mellem Roer" />
		<tag k="loc_name" v="Mellom-Ror" />
		<tag k="name" v="Mellom-Roer" />
		<tag k="old_name" v="Ror mellem;Roer, m;Ror midtre" />
		<tag k="place" v="farm" />
		<tag k="ssr:stedsnr" v="236333" />
	</node>
	<node lat="59.38135692754729" lon="10.735724155259442" id="-16795">
		<tag k="fixme" v="consider place=hamlet" />
		<tag k="name" v="Voll" />
		<tag k="place" v="farm" />
		<tag k="ssr:stedsnr" v="236681" />
	</node>
	<node lat="59.42352222272762" lon="10.66432499920521" id="-16796">
		<tag k="leisure" v="park" />
		<tag k="name" v="Gernerlunden" />
		<tag k="ssr:stedsnr" v="237288" />
	</node>
	<node lat="59.37285555208581" lon="10.725763886268775" id="-16798">
		<tag k="alt_name" v="Brua" />
		<tag k="name" v="Broen" />
		<tag k="place" v="farm" />
		<tag k="ssr:stedsnr" v="245269" />
	</node>
	<node lat="59.44466666740694" lon="10.67896111701742" id="-16802">
		<tag k="amenity" v="school" />
		<tag k="name" v="Verket skole" />
		<tag k="ssr:stedsnr" v="295075" />
	</node>
	<node lat="59.4614722217099" lon="10.737302776314817" id="-16803">
		<tag k="name" v="Traphytta" />
		<tag k="place" v="isolated_dwelling" />
		<tag k="ssr:stedsnr" v="295221" />
	</node>
	<node lat="59.43663888697872" lon="10.676799998992378" id="-16805">
		<tag k="leisure" v="park" />
		<tag k="name" v="Nesparken" />
		<tag k="ssr:stedsnr" v="295614" />
	</node>
	<node lat="59.395233334197876" lon="10.735655562557325" id="-16813">
		<tag k="name" v="Pålebingen" />
		<tag k="place" v="quarter" />
		<tag k="ssr:stedsnr" v="297792" />
	</node>
	<node lat="59.47927777856197" lon="10.638272222611077" id="-16816">
		<tag k="alt_name" v="Nes østre" />
		<tag k="name" v="Østre Nes" />
		<tag k="place" v="farm" />
		<tag k="ssr:stedsnr" v="464340" />
	</node>
	<node lat="59.44426359932298" lon="10.64701963505661" id="-16820">
		<tag k="name" v="Rossnes" />
		<tag k="place" v="quarter" />
		<tag k="ssr:stedsnr" v="305958" />
	</node>
	<node lat="59.445674996333295" lon="10.636747218103338" id="-16822">
		<tag k="name" v="Orkerød" />
		<tag k="place" v="farm" />
		<tag k="ssr:stedsnr" v="305963" />
	</node>
	<node lat="59.48131389258538" lon="10.63085833648501" id="-16825">
=======
<osm generator="osmapis" version="0.6">
	<node id="-217088" lat="59.3998333318" lon="10.7097861125">
		<tag k="name" v="Holter" />
		<tag k="place" v="farm" />
		<tag k="ssr:stedsnr" v="548531" />
	</node>
	<node id="-217087" lat="59.4231861129" lon="10.7507249979">
		<tag k="alt_name" v="Eklund" />
		<tag k="name" v="Ekelund" />
		<tag k="place" v="farm" />
		<tag k="ssr:stedsnr" v="548362" />
	</node>
	<node id="-217086" lat="59.3992305538" lon="10.7287055567">
		<tag k="name" v="Moserød" />
		<tag k="place" v="farm" />
		<tag k="ssr:stedsnr" v="548332" />
	</node>
	<node id="-217085" lat="59.3934805566" lon="10.7331888805">
		<tag k="name" v="Rekkestad" />
		<tag k="place" v="farm" />
		<tag k="ssr:stedsnr" v="548323" />
	</node>
	<node id="-217074" lat="59.3298499956" lon="10.6810611112">
		<tag k="name" v="Skogli" />
		<tag k="place" v="farm" />
		<tag k="ssr:stedsnr" v="538439" />
	</node>
	<node id="-217073" lat="59.4099305547" lon="10.6667055565">
		<tag k="amenity" v="nursing_home" />
		<tag k="name" v="Ryggeheimen" />
		<tag k="ssr:stedsnr" v="538136" />
	</node>
	<node id="-217068" lat="59.4394388899" lon="10.669286117">
		<tag k="building" v="commercial" />
		<tag k="name" v="Konventionsgården" />
		<tag k="ssr:stedsnr" v="538040" />
	</node>
	<node id="-217066" lat="59.4285558616" lon="10.7033179717">
		<tag k="name" v="Hanan" />
		<tag k="place" v="farm" />
		<tag k="ssr:stedsnr" v="427986" />
	</node>
	<node id="-217065" lat="59.4340166642" lon="10.6576972245">
		<tag k="name" v="Moss" />
		<tag k="place" v="town" />
		<tag k="ssr:stedsnr" v="427982" />
	</node>
	<node id="-217064" lat="59.4472666703" lon="10.6879222238">
		<tag k="name" v="Granli" />
		<tag k="place" v="farm" />
		<tag k="ssr:stedsnr" v="427951" />
	</node>
	<node id="-217063" lat="59.4904481228" lon="10.702567207">
		<tag k="name" v="Rykkin" />
		<tag k="place" v="farm" />
		<tag k="ssr:stedsnr" v="427896" />
	</node>
	<node id="-217062" lat="59.3392325708" lon="10.6843072128">
		<tag k="name" v="Støtvik" />
		<tag k="place" v="hamlet" />
		<tag k="ssr:stedsnr" v="427594" />
	</node>
	<node id="-217061" lat="59.3721166667" lon="10.7055916594">
		<tag k="alt_name" v="Urstadmyra" />
		<tag k="name" v="Urstadmyr" />
		<tag k="place" v="farm" />
		<tag k="ssr:stedsnr" v="427577" />
	</node>
	<node id="-217059" lat="59.3897083365" lon="10.7174472169">
		<tag k="name" v="Østereng" />
		<tag k="place" v="farm" />
		<tag k="ssr:stedsnr" v="427534" />
	</node>
	<node id="-217058" lat="59.3534624468" lon="10.7324982695">
		<tag k="name" v="Melleby" />
		<tag k="place" v="farm" />
		<tag k="ssr:stedsnr" v="427500" />
	</node>
	<node id="-217057" lat="59.4424027749" lon="10.7194083417">
		<tag k="alt_name" v="Nore søndre" />
		<tag k="name" v="Søndre Nore" />
		<tag k="place" v="farm" />
		<tag k="ssr:stedsnr" v="427391" />
	</node>
	<node id="-217056" lat="59.3670444424" lon="10.6629638835">
		<tag k="name" v="Fillekken" />
		<tag k="place" v="farm" />
		<tag k="ssr:stedsnr" v="422230" />
	</node>
	<node id="-217054" lat="59.4314333331" lon="10.6518083358">
		<tag k="leisure" v="park" />
		<tag k="name" v="Sjøbadet" />
		<tag k="ssr:stedsnr" v="420198" />
	</node>
	<node id="-217053" lat="59.3922583365" lon="10.7667249959">
		<tag k="name" v="Rådeskogen" />
		<tag k="place" v="hamlet" />
		<tag k="ssr:stedsnr" v="418764" />
	</node>
	<node id="-217052" lat="59.3911250014" lon="10.7680222144">
		<tag k="name" v="Østli" />
		<tag k="place" v="farm" />
		<tag k="ssr:stedsnr" v="418761" />
	</node>
	<node id="-217051" lat="59.3938611129" lon="10.7671083257">
		<tag k="name" v="Berg" />
		<tag k="place" v="farm" />
		<tag k="ssr:stedsnr" v="418756" />
	</node>
	<node id="-217049" lat="59.3881083323" lon="10.7852111065">
		<tag k="alt_name" v="Fredskjær østre" />
		<tag k="name" v="Østre Fredskjær" />
		<tag k="place" v="farm" />
		<tag k="ssr:stedsnr" v="418701" />
	</node>
	<node id="-217046" lat="59.3684249966" lon="10.7728777743">
		<tag k="alt_name" v="Eskelund øvre" />
		<tag k="name" v="Øvre Eskelund" />
		<tag k="place" v="farm" />
		<tag k="ssr:stedsnr" v="418252" />
	</node>
	<node id="-217045" lat="59.3256722203" lon="10.6894861171">
		<tag k="name" v="Garnbakken" />
		<tag k="place" v="hamlet" />
		<tag k="ssr:stedsnr" v="417444" />
	</node>
	<node id="-217043" lat="59.4088388906" lon="10.6838111151">
		<tag k="alt_name" v="Ekholt østre" />
		<tag k="name" v="Østre Ekholt" />
		<tag k="place" v="farm" />
		<tag k="ssr:stedsnr" v="417096" />
	</node>
	<node id="-217042" lat="59.3769055562" lon="10.6670722208">
		<tag k="name" v="Klosterbakke" />
		<tag k="place" v="farm" />
		<tag k="ssr:stedsnr" v="417066" />
	</node>
	<node id="-217040" lat="59.4340333378" lon="10.6593002294">
		<tag k="amenity" v="townhall" />
		<tag k="name" v="Moss rådhus" />
		<tag k="ssr:stedsnr" v="416868" />
	</node>
	<node id="-217038" lat="59.4416166626" lon="10.6283722233">
		<tag k="amenity" v="school" />
		<tag k="name" v="Ramberg skole" />
		<tag k="ssr:stedsnr" v="416860" />
	</node>
	<node id="-217036" lat="59.4697444427" lon="10.65141667">
		<tag k="alt_name" v="Skallerød nedre;Søndre Skallerød" />
		<tag k="name" v="Nedre Skallerød" />
		<tag k="place" v="farm" />
		<tag k="ssr:stedsnr" v="416756" />
	</node>
	<node id="-217028" lat="59.4768944428" lon="10.7787722227">
		<tag k="name" v="Enderød" />
		<tag k="place" v="farm" />
		<tag k="ssr:stedsnr" v="367690" />
	</node>
	<node id="-217027" lat="59.4320583299" lon="10.6201694461">
		<tag k="name" v="Reier" />
		<tag k="place" v="farm" />
		<tag k="ssr:stedsnr" v="366998" />
	</node>
	<node id="-217026" lat="59.429150004" lon="10.6064194476">
		<tag k="name" v="Grønli" />
		<tag k="place" v="farm" />
		<tag k="ssr:stedsnr" v="366995" />
	</node>
	<node id="-217025" lat="59.4306472257" lon="10.5942249995">
		<tag k="name" v="Kase" />
		<tag k="place" v="farm" />
		<tag k="ssr:stedsnr" v="366994" />
	</node>
	<node id="-217023" lat="59.4522499995" lon="10.6984361035">
		<tag k="fixme" v="multiple name tags, choose one and add the other to alt_name" />
		<tag k="name" v="Lauersbakken;Solbakken" />
		<tag k="place" v="farm" />
		<tag k="ssr:stedsnr" v="366945" />
	</node>
	<node id="-217022" lat="59.4774499957" lon="10.6333194478">
		<tag k="fixme" v="consider place=hamlet" />
		<tag k="name" v="Nes" />
		<tag k="place" v="farm" />
		<tag k="ssr:stedsnr" v="366894" />
	</node>
	<node id="-217020" lat="59.3216638914" lon="10.7000777844">
		<tag k="alt_name" v="Salbohuset" />
		<tag k="name" v="Salbuhuset" />
		<tag k="place" v="farm" />
		<tag k="ssr:stedsnr" v="366619" />
	</node>
	<node id="-217019" lat="59.3319555534" lon="10.6668749944">
		<tag k="name" v="Larkollen" />
		<tag k="place" v="village" />
		<tag k="ssr:stedsnr" v="366612" />
	</node>
	<node id="-217016" lat="59.3987250038" lon="10.6669083297">
		<tag k="alt_name" v="Baug" />
		<tag k="name" v="Bog" />
		<tag k="place" v="farm" />
		<tag k="ssr:stedsnr" v="366541" />
	</node>
	<node id="-217015" lat="59.3930555569" lon="10.6726555566">
		<tag k="alt_name" v="Værne kloster" />
		<tag k="name" v="Verne kloster" />
		<tag k="old_name" v="Værnekloster" />
		<tag k="place" v="farm" />
		<tag k="ssr:stedsnr" v="366540" />
	</node>
	<node id="-217014" lat="59.407586114" lon="10.7136833341">
		<tag k="name" v="Dramstad" />
		<tag k="place" v="farm" />
		<tag k="ssr:stedsnr" v="366522" />
	</node>
	<node id="-217013" lat="59.3508833336" lon="10.7367138965">
		<tag k="alt_name" v="Kure søndre" />
		<tag k="name" v="Søndre Kure" />
		<tag k="place" v="farm" />
		<tag k="ssr:stedsnr" v="366502" />
	</node>
	<node id="-217012" lat="59.3995861142" lon="10.7554972141">
		<tag k="fixme" v="consider place=hamlet" />
		<tag k="name" v="Huggenes" />
		<tag k="place" v="farm" />
		<tag k="ssr:stedsnr" v="366312" />
	</node>
	<node id="-217011" lat="59.4008361155" lon="10.7890694478">
		<tag k="name" v="Fjell" />
		<tag k="place" v="farm" />
		<tag k="ssr:stedsnr" v="366308" />
	</node>
	<node id="-217007" lat="59.4072643385" lon="10.7226035141">
		<tag k="name" v="Enerli" />
		<tag k="place" v="isolated_dwelling" />
		<tag k="ssr:stedsnr" v="357867" />
	</node>
	<node id="-217004" lat="59.3501333357" lon="10.7511527745">
		<tag k="alt_name" v="Rosnes søndre" />
		<tag k="name" v="Søndre Rosnes" />
		<tag k="place" v="farm" />
		<tag k="ssr:stedsnr" v="357213" />
	</node>
	<node id="-217000" lat="59.3871333352" lon="10.6994638869">
		<tag k="alt_name" v="Lyby mellem" />
		<tag k="name" v="Mellom-Lyby" />
		<tag k="place" v="farm" />
		<tag k="ssr:stedsnr" v="356932" />
	</node>
	<node id="-216999" lat="59.4060277814" lon="10.6670416635">
		<tag k="alt_name" v="Dyre søndre" />
		<tag k="name" v="Søndre Dyre" />
		<tag k="place" v="farm" />
		<tag k="ssr:stedsnr" v="356899" />
	</node>
	<node id="-216998" lat="59.4006305561" lon="10.6913833354">
		<tag k="name" v="Nymark" />
		<tag k="place" v="farm" />
		<tag k="ssr:stedsnr" v="356885" />
	</node>
	<node id="-216997" lat="59.4018388917" lon="10.7012194507">
		<tag k="alt_name" v="Dilling nordre" />
		<tag k="name" v="Nordre Dilling" />
		<tag k="place" v="farm" />
		<tag k="ssr:stedsnr" v="356882" />
	</node>
	<node id="-216991" lat="59.3386999998" lon="10.6849444532">
		<tag k="alt_name" v="Støtvik mellem" />
		<tag k="name" v="Mellom-Støtvik" />
		<tag k="place" v="farm" />
		<tag k="ssr:stedsnr" v="356212" />
	</node>
	<node id="-216990" lat="59.4615972258" lon="10.6294222169">
		<tag k="name" v="Katrinestua" />
		<tag k="place" v="isolated_dwelling" />
		<tag k="ssr:stedsnr" v="356207" />
	</node>
	<node id="-216987" lat="59.4333805514" lon="10.6390666592">
		<tag k="name" v="Helgerød" />
		<tag k="place" v="farm" />
		<tag k="ssr:stedsnr" v="355881" />
	</node>
	<node id="-216986" lat="59.4444000039" lon="10.6463722164">
		<tag k="name" v="Krossern" />
		<tag k="place" v="suburb" />
		<tag k="ssr:stedsnr" v="355868" />
	</node>
	<node id="-216985" lat="59.4798194456" lon="10.6966305591">
		<tag k="name" v="Kambo" />
		<tag k="place" v="farm" />
		<tag k="ssr:stedsnr" v="355751" />
	</node>
	<node id="-216982" lat="59.4348250002" lon="10.6391194385">
		<tag k="amenity" v="school" />
		<tag k="name" v="Liljedalen skole" />
		<tag k="ssr:stedsnr" v="355073" />
	</node>
	<node id="-216976" lat="59.4332333341" lon="10.6300861147">
		<tag k="alt_name" v="Hoppern" />
		<tag k="name" v="Hopperen" />
		<tag k="place" v="suburb" />
		<tag k="ssr:stedsnr" v="331838" />
	</node>
	<node id="-216969" lat="59.4813138926" lon="10.6308583365">
>>>>>>> e1d4bc35ff8a6074a6f2e91616a996b547c36f15
		<tag k="name" v="Alfheim" />
		<tag k="place" v="farm" />
		<tag k="ssr:stedsnr" v="306910" />
	</node>
<<<<<<< HEAD
	<node lat="59.46973611326204" lon="10.770413882509969" id="-16827">
=======
	<node id="-216968" lat="59.4697361133" lon="10.7704138825">
>>>>>>> e1d4bc35ff8a6074a6f2e91616a996b547c36f15
		<tag k="alt_name" v="Grinnn" />
		<tag k="name" v="Grind" />
		<tag k="place" v="farm" />
		<tag k="ssr:stedsnr" v="306677" />
<<<<<<< HEAD
	</node>
	<node lat="59.444400003937346" lon="10.646372216389157" id="-16831">
		<tag k="name" v="Krossern" />
		<tag k="place" v="suburb" />
		<tag k="ssr:stedsnr" v="355868" />
	</node>
	<node lat="59.3352607648477" lon="10.649852960281095" id="-16832">
		<tag k="name" v="Kollen" />
		<tag k="place" v="isolated_dwelling" />
		<tag k="ssr:stedsnr" v="356102" />
	</node>
	<node lat="59.41106388656095" lon="10.679111109674558" id="-16833">
		<tag k="amenity" v="school" />
		<tag k="name" v="Ekholt skole" />
		<tag k="ssr:stedsnr" v="356124" />
	</node>
	<node lat="59.461597225810614" lon="10.629422216869063" id="-16835">
		<tag k="name" v="Katrinestua" />
		<tag k="place" v="isolated_dwelling" />
		<tag k="ssr:stedsnr" v="356207" />
	</node>
	<node lat="59.338204166186806" lon="10.684374445125645" id="-16836">
		<tag k="alt_name" v="Støtvik mellem" />
		<tag k="fixme" v="consider place=hamlet" />
		<tag k="name" v="Mellom-Støtvik" />
		<tag k="place" v="farm" />
		<tag k="ssr:stedsnr" v="356212" />
	</node>
	<node lat="59.40602778139699" lon="10.667041663460807" id="-16841">
		<tag k="alt_name" v="Dyre søndre" />
		<tag k="name" v="Søndre Dyre" />
		<tag k="place" v="farm" />
		<tag k="ssr:stedsnr" v="356899" />
	</node>
	<node lat="59.350133335677626" lon="10.751152774470453" id="-16844">
		<tag k="alt_name" v="Rosnes søndre" />
		<tag k="name" v="Søndre Rosnes" />
		<tag k="place" v="farm" />
		<tag k="ssr:stedsnr" v="357213" />
	</node>
	<node lat="59.392388893293145" lon="10.799875007493254" id="-16846">
		<tag k="name" v="Bjerkebakke" />
		<tag k="place" v="locality" />
		<tag k="ssr:stedsnr" v="357708" />
	</node>
	<node lat="59.44088888610255" lon="10.685580551097617" id="-16848">
		<tag k="fixme" v="consider place=suburb, village or hamlet" />
		<tag k="name" v="Gjerrebogen" />
		<tag k="place" v="quarter" />
		<tag k="ssr:stedsnr" v="476599" />
	</node>
	<node lat="59.47162777591653" lon="10.649566667827777" id="-16850">
		<tag k="alt_name" v="Skallerød øvre" />
		<tag k="name" v="Øvre Skallerød" />
		<tag k="place" v="farm" />
		<tag k="ssr:stedsnr" v="476785" />
	</node>
	<node lat="59.42694722444885" lon="10.636358327211633" id="-16852">
		<tag k="name" v="Framnes" />
		<tag k="place" v="suburb" />
		<tag k="ssr:stedsnr" v="476888" />
	</node>
	<node lat="59.41919444202728" lon="10.681683339032643" id="-16855">
		<tag k="name" v="Høyden" />
		<tag k="place" v="quarter" />
		<tag k="ssr:stedsnr" v="477824" />
	</node>
	<node lat="59.35102222536382" lon="10.661441664892651" id="-16859">
		<tag k="alt_name" v="Botnermyra" />
		<tag k="name" v="Botnemyr" />
		<tag k="place" v="farm" />
		<tag k="ssr:stedsnr" v="477442" />
	</node>
	<node lat="59.36591389290183" lon="10.68924999544109" id="-16860">
		<tag k="alt_name" v="Pålsrød vestre" />
		<tag k="name" v="Vestre Pålsrød" />
		<tag k="place" v="farm" />
		<tag k="ssr:stedsnr" v="478029" />
	</node>
	<node lat="59.376811027915444" lon="10.7381312837094" id="-16863">
		<tag k="alt_name" v="Rør vestre" />
		<tag k="fixme" v="consider place=hamlet" />
		<tag k="name" v="Vestre Rør" />
		<tag k="place" v="farm" />
		<tag k="ssr:stedsnr" v="478291" />
	</node>
	<node lat="59.40083611547178" lon="10.789069447750524" id="-16864">
		<tag k="name" v="Fjell" />
		<tag k="place" v="farm" />
		<tag k="ssr:stedsnr" v="366308" />
	</node>
	<node lat="59.39994320168129" lon="10.752875628628027" id="-16865">
		<tag k="name" v="Huggenes" />
		<tag k="place" v="hamlet" />
		<tag k="ssr:stedsnr" v="366312" />
	</node>
	<node lat="59.38747333546453" lon="10.78845680926532" id="-16866">
		<tag k="name" v="Fredskjær" />
		<tag k="place" v="hamlet" />
		<tag k="ssr:stedsnr" v="366291" />
	</node>
	<node lat="59.35088333358837" lon="10.736713896467469" id="-16867">
		<tag k="alt_name" v="Kure søndre" />
		<tag k="name" v="Søndre Kure" />
		<tag k="place" v="farm" />
		<tag k="ssr:stedsnr" v="366502" />
	</node>
	<node lat="59.394949351536376" lon="10.67377510155257" id="-16868">
		<tag k="alt_name" v="Værne kloster" />
		<tag k="fixme" v="consider place=hamlet" />
		<tag k="name" v="Verne kloster" />
		<tag k="old_name" v="Værnekloster" />
		<tag k="place" v="farm" />
		<tag k="ssr:stedsnr" v="366540" />
	</node>
	<node lat="59.39947957595513" lon="10.667050989043986" id="-16869">
		<tag k="alt_name" v="Baug" />
		<tag k="fixme" v="consider place=hamlet" />
		<tag k="name" v="Bog" />
		<tag k="place" v="farm" />
		<tag k="ssr:stedsnr" v="366541" />
	</node>
	<node lat="59.43064722569546" lon="10.59422499951818" id="-16873">
		<tag k="name" v="Kase" />
		<tag k="place" v="farm" />
		<tag k="ssr:stedsnr" v="366994" />
	</node>
	<node lat="59.429150004029246" lon="10.606419447635608" id="-16874">
		<tag k="name" v="Grønli" />
		<tag k="place" v="farm" />
		<tag k="ssr:stedsnr" v="366995" />
	</node>
	<node lat="59.39142500072929" lon="10.788308334696625" id="-16875">
		<tag k="name" v="Sandli" />
		<tag k="place" v="farm" />
		<tag k="ssr:stedsnr" v="478728" />
	</node>
	<node lat="59.38212499690116" lon="10.79313610791608" id="-16877">
		<tag k="alt_name" v="Søgård østre" />
		<tag k="name" v="Østre Søgård" />
		<tag k="place" v="farm" />
		<tag k="ssr:stedsnr" v="478739" />
	</node>
	<node lat="59.38279722556783" lon="10.70269721549051" id="-16879">
		<tag k="alt_name" v="Tøstad øvre" />
		<tag k="name" v="Øvre Tøstad" />
		<tag k="place" v="farm" />
		<tag k="ssr:stedsnr" v="478910" />
	</node>
	<node lat="59.43533611132969" lon="10.6479055517643" id="-16882">
		<tag k="name" v="Moss verft" />
		<tag k="place" v="quarter" />
		<tag k="ssr:stedsnr" v="480135" />
	</node>
	<node lat="59.351011287400496" lon="10.699506833766225" id="-16890">
		<tag k="fixme" v="consider place=hamlet" />
		<tag k="name" v="Bråtu" />
		<tag k="place" v="farm" />
		<tag k="ssr:stedsnr" v="487627" />
	</node>
	<node lat="59.441616662631056" lon="10.628372223286167" id="-16893">
		<tag k="amenity" v="school" />
		<tag k="name" v="Ramberg skole" />
		<tag k="ssr:stedsnr" v="416860" />
	</node>
	<node lat="59.43403333780711" lon="10.6593002293832" id="-16895">
		<tag k="amenity" v="townhall" />
		<tag k="name" v="Moss rådhus" />
		<tag k="ssr:stedsnr" v="416868" />
	</node>
	<node lat="59.408838890562315" lon="10.683811115085925" id="-16897">
		<tag k="alt_name" v="Ekholt østre" />
		<tag k="name" v="Østre Ekholt" />
		<tag k="place" v="farm" />
		<tag k="ssr:stedsnr" v="417096" />
	</node>
	<node lat="59.32567222025787" lon="10.689486117103217" id="-16900">
		<tag k="name" v="Garnbakken" />
		<tag k="place" v="hamlet" />
		<tag k="ssr:stedsnr" v="417444" />
	</node>
	<node lat="59.42635277840653" lon="10.588522215389162" id="-16903">
		<tag k="name" v="Kasekilden" />
		<tag k="place" v="farm" />
		<tag k="ssr:stedsnr" v="417802" />
	</node>
	<node lat="59.40316110706172" lon="10.672755558527891" id="-16905">
		<tag k="name" v="Carlberg" />
		<tag k="place" v="farm" />
		<tag k="ssr:stedsnr" v="488481" />
	</node>
	<node lat="59.4424027748743" lon="10.719408341734278" id="-16912">
		<tag k="alt_name" v="Nore søndre" />
		<tag k="name" v="Søndre Nore" />
=======
	</node>
	<node id="-216965" lat="59.3950000007" lon="10.6868388845">
		<tag k="name" v="Grystad" />
		<tag k="place" v="isolated_dwelling" />
		<tag k="ssr:stedsnr" v="306491" />
	</node>
	<node id="-216964" lat="59.4034805536" lon="10.6913805509">
		<tag k="name" v="Krokstad" />
		<tag k="place" v="farm" />
		<tag k="ssr:stedsnr" v="306480" />
	</node>
	<node id="-216963" lat="59.3866770769" lon="10.7234614622">
		<tag k="alt_name" v="Bjølsund" />
		<tag k="fixme" v="consider place=hamlet" />
		<tag k="name" v="Bjølsen" />
		<tag k="place" v="farm" />
		<tag k="ssr:stedsnr" v="306286" />
	</node>
	<node id="-216962" lat="59.3795638871" lon="10.7205250028">
		<tag k="name" v="Prestegården" />
		<tag k="place" v="farm" />
		<tag k="ssr:stedsnr" v="306278" />
	</node>
	<node id="-216961" lat="59.3579555552" lon="10.7627444443">
		<tag k="alt_name" v="Molvik nordre" />
		<tag k="name" v="Nordre Molvik" />
		<tag k="place" v="farm" />
		<tag k="ssr:stedsnr" v="306236" />
	</node>
	<node id="-216960" lat="59.3591277773" lon="10.7321750081">
		<tag k="alt_name" v="Mellem Kure;Kure midtre;Kure mellem" />
		<tag k="name" v="Mellom-Kure" />
		<tag k="place" v="farm" />
		<tag k="ssr:stedsnr" v="306235" />
	</node>
	<node id="-216959" lat="59.4456749963" lon="10.6367472181">
		<tag k="name" v="Orkerød" />
		<tag k="place" v="farm" />
		<tag k="ssr:stedsnr" v="305963" />
	</node>
	<node id="-216957" lat="59.4443805582" lon="10.6463722237">
		<tag k="name" v="Rossnes" />
		<tag k="place" v="quarter" />
		<tag k="ssr:stedsnr" v="305958" />
	</node>
	<node id="-216949" lat="59.4266000008" lon="10.707977771">
		<tag k="alt_name" v="Storebaug" />
		<tag k="name" v="Storebog" />
		<tag k="place" v="farm" />
		<tag k="ssr:stedsnr" v="184997" />
	</node>
	<node id="-216948" lat="59.4264666673" lon="10.5986249984">
		<tag k="name" v="Rød" />
		<tag k="place" v="farm" />
		<tag k="ssr:stedsnr" v="184978" />
	</node>
	<node id="-216945" lat="59.4665601378" lon="10.6425294013">
		<tag k="name" v="Fuglevik" />
		<tag k="place" v="farm" />
		<tag k="ssr:stedsnr" v="184891" />
	</node>
	<node id="-216943" lat="59.4705666685" lon="10.7631000079">
		<tag k="name" v="Dalen" />
		<tag k="place" v="farm" />
		<tag k="ssr:stedsnr" v="184718" />
	</node>
	<node id="-216941" lat="59.3296416706" lon="10.6888555608">
		<tag k="name" v="Grefsrød" />
		<tag k="place" v="farm" />
		<tag k="ssr:stedsnr" v="184612" />
	</node>
	<node id="-216940" lat="59.3525527817" lon="10.7140499928">
		<tag k="fixme" v="consider place=hamlet" />
		<tag k="name" v="Nærum" />
		<tag k="place" v="farm" />
		<tag k="ssr:stedsnr" v="184592" />
	</node>
	<node id="-216939" lat="59.3880500018" lon="10.698975002">
		<tag k="alt_name" v="Lyby nordre" />
		<tag k="name" v="Nordre Lyby" />
		<tag k="place" v="farm" />
		<tag k="ssr:stedsnr" v="184543" />
	</node>
	<node id="-216938" lat="59.4111972208" lon="10.7626138868">
		<tag k="name" v="Nygård" />
		<tag k="place" v="farm" />
		<tag k="ssr:stedsnr" v="184319" />
	</node>
	<node id="-216937" lat="59.3967111118" lon="10.7963527761">
		<tag k="alt_name" v="Fresjerbråten" />
		<tag k="name" v="Fredskjærbråten" />
		<tag k="place" v="farm" />
		<tag k="ssr:stedsnr" v="184302" />
	</node>
	<node id="-216936" lat="59.3986750031" lon="10.7367777741">
		<tag k="name" v="Gjønes" />
		<tag k="place" v="farm" />
		<tag k="ssr:stedsnr" v="184293" />
	</node>
	<node id="-216935" lat="59.3781420617" lon="10.7442928383">
		<tag k="fixme" v="consider place=hamlet" />
		<tag k="name" v="Rør" />
		<tag k="place" v="farm" />
		<tag k="ssr:stedsnr" v="184276" />
	</node>
	<node id="-216934" lat="59.4632166673" lon="10.6780111028">
		<tag k="name" v="Linnebaugen" />
		<tag k="place" v="farm" />
		<tag k="ssr:stedsnr" v="179249" />
	</node>
	<node id="-216933" lat="59.4368083297" lon="10.6212277738">
		<tag k="name" v="Bergersborg" />
		<tag k="place" v="quarter" />
		<tag k="ssr:stedsnr" v="177217" />
	</node>
	<node id="-216931" lat="59.4035777734" lon="10.7531333382">
		<tag k="alt_name" v="Kjellerød vestre" />
		<tag k="name" v="Vestre Kjellerød" />
		<tag k="place" v="farm" />
		<tag k="ssr:stedsnr" v="175854" />
	</node>
	<node id="-216930" lat="59.3893416638" lon="10.7288916656">
		<tag k="name" v="Jare" />
		<tag k="place" v="farm" />
		<tag k="ssr:stedsnr" v="175805" />
	</node>
	<node id="-216929" lat="59.3950944403" lon="10.7508999976">
		<tag k="name" v="Solstad" />
		<tag k="place" v="isolated_dwelling" />
		<tag k="ssr:stedsnr" v="175797" />
	</node>
	<node id="-216928" lat="59.3918916692" lon="10.7704416627">
		<tag k="name" v="Skauge" />
		<tag k="place" v="farm" />
		<tag k="ssr:stedsnr" v="175787" />
	</node>
	<node id="-216927" lat="59.4008611129" lon="10.7183277804">
		<tag k="name" v="Såstadbråten" />
		<tag k="place" v="quarter" />
		<tag k="ssr:stedsnr" v="175768" />
	</node>
	<node id="-216925" lat="59.3658036462" lon="10.7491814222">
		<tag k="alt_name" v="Ror nordre;Nordre Roer" />
		<tag k="fixme" v="consider place=hamlet" />
		<tag k="name" v="Nordre Ror" />
		<tag k="old_name" v="Roer, n" />
		<tag k="place" v="farm" />
		<tag k="ssr:stedsnr" v="175345" />
	</node>
	<node id="-216924" lat="59.3778166677" lon="10.7444472263">
		<tag k="alt_name" v="Rør nordre" />
		<tag k="name" v="Nordre Rør" />
>>>>>>> e1d4bc35ff8a6074a6f2e91616a996b547c36f15
		<tag k="place" v="farm" />
		<tag k="ssr:stedsnr" v="175290" />
	</node>
<<<<<<< HEAD
	<node lat="59.37211666665758" lon="10.705591659422872" id="-16913">
		<tag k="alt_name" v="Urstadmyra" />
		<tag k="name" v="Urstadmyr" />
		<tag k="place" v="farm" />
		<tag k="ssr:stedsnr" v="427577" />
	</node>
	<node lat="59.33928924574676" lon="10.684389369426187" id="-16914">
		<tag k="name" v="Støtvik" />
		<tag k="place" v="hamlet" />
		<tag k="ssr:stedsnr" v="427594" />
	</node>
	<node lat="59.43401666417728" lon="10.65769722448418" id="-16915">
		<tag k="name" v="Moss" />
		<tag k="place" v="town" />
		<tag k="ssr:stedsnr" v="427982" />
	</node>
	<node lat="59.4285558616208" lon="10.70331797174328" id="-16916">
		<tag k="name" v="Hanan" />
		<tag k="place" v="farm" />
		<tag k="ssr:stedsnr" v="427986" />
	</node>
	<node lat="59.40933889160674" lon="10.682708340402744" id="-16922">
		<tag k="alt_name" v="Ekholt vestre" />
		<tag k="name" v="Vestre Ekholt" />
		<tag k="place" v="farm" />
		<tag k="ssr:stedsnr" v="477105" />
	</node>
	<node lat="59.38611111062968" lon="10.656661117496904" id="-16924">
		<tag k="alt_name" v="Fuglevik mellem" />
		<tag k="name" v="Mellom-Fuglevik" />
		<tag k="place" v="hamlet" />
		<tag k="ssr:stedsnr" v="478108" />
	</node>
	<node lat="59.37597500097795" lon="10.717369440395567" id="-16925">
		<tag k="alt_name" v="Fløgstad nordre" />
		<tag k="name" v="Nordre Fløgstad" />
		<tag k="place" v="farm" />
		<tag k="ssr:stedsnr" v="478069" />
	</node>
	<node lat="59.36736346152282" lon="10.764230105803183" id="-16926">
		<tag k="alt_name" v="Eskelund nedre" />
		<tag k="fixme" v="consider place=hamlet" />
		<tag k="name" v="Nedre Eskelund" />
		<tag k="place" v="farm" />
		<tag k="ssr:stedsnr" v="478274" />
	</node>
	<node lat="59.38061110757231" lon="10.745172222178834" id="-16929">
		<tag k="amenity" v="sports_centre" />
		<tag k="name" v="Ryggehallen" />
		<tag k="ssr:stedsnr" v="478719" />
	</node>
	<node lat="59.39620277817281" lon="10.744155551674027" id="-16930">
		<tag k="name" v="Støa" />
		<tag k="place" v="farm" />
		<tag k="ssr:stedsnr" v="487313" />
	</node>
	<node lat="59.390128017903194" lon="10.775625884379645" id="-16931">
		<tag k="fixme" v="consider place=hamlet" />
		<tag k="name" v="Utne" />
		<tag k="place" v="farm" />
		<tag k="ssr:stedsnr" v="487315" />
	</node>
	<node lat="59.404980552985236" lon="10.774677775857448" id="-16932">
		<tag k="name" v="Kilen" />
		<tag k="place" v="farm" />
		<tag k="ssr:stedsnr" v="487323" />
	</node>
	<node lat="59.39680555620724" lon="10.691950005332144" id="-16933">
		<tag k="name" v="Fredheim" />
		<tag k="place" v="farm" />
		<tag k="ssr:stedsnr" v="488492" />
	</node>
	<node lat="59.47225833335685" lon="10.773666673847353" id="-16935">
		<tag k="name" v="Sundet" />
		<tag k="place" v="farm" />
		<tag k="ssr:stedsnr" v="488694" />
	</node>
	<node lat="59.43036666647198" lon="10.673405554076277" id="-16942">
		<tag k="name" v="Klommesten" />
		<tag k="place" v="suburb" />
		<tag k="ssr:stedsnr" v="538015" />
	</node>
	<node lat="59.41333610721581" lon="10.663013890364605" id="-16945">
		<tag k="name" v="Bjerke" />
		<tag k="place" v="quarter" />
		<tag k="ssr:stedsnr" v="539003" />
	</node>
	<node lat="59.35256388650582" lon="10.691630556152095" id="-16946">
		<tag k="name" v="Dalen" />
		<tag k="place" v="farm" />
		<tag k="ssr:stedsnr" v="539021" />
	</node>
	<node lat="59.39282778134057" lon="10.767794443691136" id="-16948">
		<tag k="name" v="Grønli" />
		<tag k="place" v="farm" />
		<tag k="ssr:stedsnr" v="539763" />
	</node>
	<node lat="59.393480556572214" lon="10.733188880461167" id="-16949">
		<tag k="name" v="Rekkestad" />
		<tag k="place" v="farm" />
		<tag k="ssr:stedsnr" v="548323" />
	</node>
	<node lat="59.42318611293079" lon="10.75072499792108" id="-16950">
		<tag k="alt_name" v="Eklund" />
		<tag k="name" v="Ekelund" />
		<tag k="place" v="farm" />
		<tag k="ssr:stedsnr" v="548362" />
	</node>
	<node lat="59.32150555176693" lon="10.656558332898282" id="-16951">
		<tag k="name" v="Ulke" />
		<tag k="place" v="farm" />
		<tag k="ssr:stedsnr" v="548608" />
	</node>
	<node lat="59.36521371699468" lon="10.692463142840463" id="-16953">
		<tag k="fixme" v="consider place=hamlet" />
		<tag k="name" v="Pålsrød" />
		<tag k="place" v="farm" />
		<tag k="ssr:stedsnr" v="548570" />
	</node>
	<node lat="59.37659722383907" lon="10.727116669389394" id="-16955">
		<tag k="name" v="Kirkegrenda" />
		<tag k="place" v="quarter" />
		<tag k="ssr:stedsnr" v="570101" />
	</node>
	<node lat="59.42847777537011" lon="10.664408336213818" id="-16960">
		<tag k="name" v="Malakoff" />
		<tag k="place" v="suburb" />
		<tag k="ssr:stedsnr" v="598064" />
	</node>
	<node lat="59.43991111166965" lon="10.619544452905894" id="-16961">
		<tag k="amenity" v="school" />
		<tag k="name" v="Refsnes skole" />
		<tag k="ssr:stedsnr" v="598075" />
	</node>
	<node lat="59.40995277643016" lon="10.664186102331414" id="-16962">
		<tag k="name" v="Kvile" />
		<tag k="place" v="farm" />
		<tag k="ssr:stedsnr" v="598123" />
	</node>
	<node lat="59.37930825566859" lon="10.68382314208131" id="-16968">
		<tag k="fixme" v="consider place=hamlet" />
		<tag k="name" v="Vang" />
		<tag k="place" v="farm" />
		<tag k="ssr:stedsnr" v="599061" />
	</node>
	<node lat="59.37962222434821" lon="10.705669446858373" id="-16969">
		<tag k="name" v="Urstad" />
		<tag k="place" v="farm" />
		<tag k="ssr:stedsnr" v="599064" />
	</node>
	<node lat="59.37142007678662" lon="10.725710500114353" id="-16972">
		<tag k="name" v="Ødegården" />
		<tag k="place" v="farm" />
		<tag k="ssr:stedsnr" v="600322" />
	</node>
	<node lat="59.43459191650358" lon="10.600025382065521" id="-16975">
		<tag k="alt_name" v="Kaseløkka" />
		<tag k="name" v="Charlottenborg" />
		<tag k="place" v="farm" />
		<tag k="ssr:stedsnr" v="608956" />
	</node>
	<node lat="59.402122223206405" lon="10.659716669786041" id="-16985">
		<tag k="name" v="Lille Baug" />
		<tag k="place" v="farm" />
		<tag k="ssr:stedsnr" v="659790" />
	</node>
	<node lat="59.4382833298132" lon="10.741138882312432" id="-16987">
		<tag k="name" v="Elverhøy" />
		<tag k="place" v="isolated_dwelling" />
		<tag k="ssr:stedsnr" v="660083" />
	</node>
	<node lat="59.34784166645647" lon="10.709422228165485" id="-16989">
		<tag k="name" v="Østli" />
		<tag k="place" v="farm" />
		<tag k="ssr:stedsnr" v="660183" />
	</node>
	<node lat="59.39882659137665" lon="10.75731332491168" id="-16990">
		<tag k="alt_name" v="Huggenes østre" />
		<tag k="fixme" v="consider place=hamlet" />
		<tag k="name" v="Østre Huggenes" />
		<tag k="place" v="farm" />
		<tag k="ssr:stedsnr" v="660768" />
	</node>
	<node lat="59.39871388863635" lon="10.768066664880074" id="-16991">
		<tag k="leisure" v="pitch" />
		<tag k="name" v="Tangenbakken" />
		<tag k="ssr:stedsnr" v="660770" />
	</node>
	<node lat="59.37019045719262" lon="10.675271946162152" id="-16993">
		<tag k="fixme" v="consider place=hamlet" />
		<tag k="name" v="Evje" />
		<tag k="place" v="farm" />
		<tag k="ssr:stedsnr" v="669581" />
	</node>
	<node lat="59.389480556840105" lon="10.766105550033055" id="-16998">
		<tag k="name" v="Sørli" />
		<tag k="place" v="farm" />
		<tag k="ssr:stedsnr" v="670285" />
	</node>
	<node lat="59.38644830933749" lon="10.794173224795106" id="-16999">
		<tag k="alt_name" v="Øgården" />
		<tag k="fixme" v="consider place=hamlet" />
		<tag k="name" v="Fredskjærøgård" />
		<tag k="place" v="farm" />
		<tag k="ssr:stedsnr" v="670287" />
	</node>
	<node lat="59.43710555706121" lon="10.675252773591328" id="-17002">
		<tag k="amenity" v="sports_centre" />
		<tag k="name" v="Mossehallen" />
		<tag k="ssr:stedsnr" v="719570" />
	</node>
	<node lat="59.446102779634344" lon="10.703230560747262" id="-17003">
		<tag k="building" v="commercial" />
		<tag k="name" v="Mosseporten senter" />
		<tag k="ssr:stedsnr" v="720207" />
	</node>
	<node lat="59.343311107638634" lon="10.677772225788644" id="-17009">
		<tag k="name" v="Støtvikbråten" />
		<tag k="place" v="farm" />
		<tag k="ssr:stedsnr" v="721205" />
	</node>
	<node lat="59.3818749987954" lon="10.752630558709086" id="-17010">
		<tag k="name" v="Sandbekk" />
		<tag k="place" v="farm" />
		<tag k="ssr:stedsnr" v="721684" />
	</node>
	<node lat="59.40291111268622" lon="10.727627770003373" id="-17011">
		<tag k="name" v="Sivik" />
		<tag k="place" v="isolated_dwelling" />
		<tag k="ssr:stedsnr" v="721823" />
	</node>
	<node lat="59.382711113489165" lon="10.689891669188958" id="-17013">
		<tag k="alt_name" v="Vang" />
		<tag k="amenity" v="school" />
		<tag k="name" v="Vang skole" />
		<tag k="ssr:stedsnr" v="730582" />
	</node>
	<node lat="59.38809722439624" lon="10.712927781855582" id="-17014">
		<tag k="name" v="Ringnes" />
		<tag k="place" v="farm" />
		<tag k="ssr:stedsnr" v="730584" />
	</node>
	<node lat="59.442316217478215" lon="10.765893217352291" id="-17015">
		<tag k="alt_name" v="Vestheim" />
		<tag k="name" v="Vesterheim" />
		<tag k="old_name" v="Syverhytten;Dillingøystua" />
		<tag k="place" v="locality" />
		<tag k="ssr:stedsnr" v="731320" />
	</node>
	<node lat="59.40790318855179" lon="10.682809535817343" id="-17016">
		<tag k="fixme" v="consider place=hamlet" />
		<tag k="name" v="Ekholdt" />
		<tag k="place" v="farm" />
		<tag k="ssr:stedsnr" v="731473" />
	</node>
	<node lat="59.393110205820136" lon="10.666020731829308" id="-17017">
		<tag k="alt_name" v="Huseby østre" />
		<tag k="name" v="Østre Huseby" />
		<tag k="place" v="farm" />
		<tag k="ssr:stedsnr" v="731485" />
	</node>
	<node lat="59.48291944417103" lon="10.695780552087848" id="-17019">
		<tag k="name" v="Kambo" />
		<tag k="place" v="village" />
		<tag k="ssr:stedsnr" v="731903" />
	</node>
	<node lat="59.43208889002852" lon="10.638844439826439" id="-17025">
		<tag k="name" v="Grimsrød" />
		<tag k="place" v="farm" />
		<tag k="ssr:stedsnr" v="901896" />
	</node>
	<node lat="59.44638610747136" lon="10.625322221669109" id="-17026">
		<tag k="name" v="Gjerthytta" />
		<tag k="place" v="isolated_dwelling" />
		<tag k="ssr:stedsnr" v="902055" />
	</node>
	<node lat="59.32996944861465" lon="10.68226388515317" id="-17027">
		<tag k="name" v="Løvmo" />
		<tag k="place" v="farm" />
		<tag k="ssr:stedsnr" v="902440" />
	</node>
	<node lat="59.35453333221646" lon="10.659994444825163" id="-17029">
		<tag k="name" v="Holmen" />
		<tag k="place" v="farm" />
		<tag k="ssr:stedsnr" v="902474" />
	</node>
	<node lat="59.42867499643041" lon="10.685538891967061" id="-17031">
		<tag k="name" v="Holmen" />
		<tag k="place" v="farm" />
		<tag k="ssr:stedsnr" v="903026" />
	</node>
	<node lat="59.37879166863767" lon="10.727333338347123" id="-17033">
		<tag k="name" v="Ramstad" />
		<tag k="place" v="farm" />
		<tag k="ssr:stedsnr" v="903292" />
	</node>
	<node lat="59.401498915201046" lon="10.695969856171308" id="-17036">
		<tag k="alt_name" v="Dilling vestre" />
		<tag k="fixme" v="consider place=hamlet" />
		<tag k="name" v="Vestre Dilling" />
		<tag k="place" v="farm" />
		<tag k="ssr:stedsnr" v="903883" />
	</node>
	<node lat="59.35271665246237" lon="10.748522625428004" id="-17037">
		<tag k="alt_name" v="Rosnes østre" />
		<tag k="name" v="Østre Rosnes" />
		<tag k="place" v="farm" />
		<tag k="ssr:stedsnr" v="904222" />
	</node>
	<node lat="59.370413890634545" lon="10.768036103196676" id="-17039">
		<tag k="name" v="Eskelund" />
		<tag k="place" v="farm" />
		<tag k="ssr:stedsnr" v="904281" />
	</node>
	<node lat="59.3913194441455" lon="10.761622218234669" id="-17042">
		<tag k="name" v="Solheim" />
		<tag k="place" v="farm" />
		<tag k="ssr:stedsnr" v="904787" />
	</node>
	<node lat="59.490622844313805" lon="10.67182965196906" id="-17044">
		<tag k="name" v="Fjellheim" />
		<tag k="place" v="isolated_dwelling" />
		<tag k="ssr:stedsnr" v="905884" />
	</node>
	<node lat="59.432866663410465" lon="10.686400001268726" id="-17048">
		<tag k="name" v="Krapfoss" />
		<tag k="place" v="suburb" />
		<tag k="ssr:stedsnr" v="781023" />
	</node>
	<node lat="59.32355000428287" lon="10.7027888966761" id="-17051">
		<tag k="name" v="Sarpemyr" />
		<tag k="place" v="farm" />
		<tag k="ssr:stedsnr" v="781407" />
	</node>
	<node lat="59.40628611182212" lon="10.692952786237015" id="-17053">
		<tag k="amenity" v="townhall" />
		<tag k="name" v="Rygge rådhus" />
		<tag k="ssr:stedsnr" v="781917" />
	</node>
	<node lat="59.362772220629815" lon="10.74779167530964" id="-17056">
		<tag k="alt_name" v="Søndre Roer;Ror søndre;Rør søndre" />
		<tag k="name" v="Søndre Ror" />
		<tag k="old_name" v="Roer, s" />
		<tag k="place" v="farm" />
		<tag k="ssr:stedsnr" v="782007" />
	</node>
	<node lat="59.38633611471904" lon="10.723844453331104" id="-17057">
		<tag k="name" v="Søndre Bjølsen" />
		<tag k="place" v="farm" />
		<tag k="ssr:stedsnr" v="782653" />
	</node>
	<node lat="59.39305277463052" lon="10.759741667655447" id="-17060">
		<tag k="name" v="Jonsrud" />
		<tag k="place" v="farm" />
		<tag k="ssr:stedsnr" v="782760" />
	</node>
	<node lat="59.43249444643228" lon="10.650958324970397" id="-17061">
		<tag k="name" v="Vestre Kanalområde" />
		<tag k="place" v="suburb" />
		<tag k="ssr:stedsnr" v="784222" />
	</node>
	<node lat="59.35542777521955" lon="10.695516665442817" id="-17063">
		<tag k="name" v="Li" />
		<tag k="place" v="farm" />
		<tag k="ssr:stedsnr" v="912602" />
	</node>
	<node lat="59.414094440653166" lon="10.765202785180888" id="-17064">
		<tag k="name" v="Engene" />
		<tag k="place" v="farm" />
		<tag k="ssr:stedsnr" v="791308" />
	</node>
	<node lat="59.439558911108364" lon="10.77671637609172" id="-17066">
		<tag k="fixme" v="consider place=hamlet" />
		<tag k="name" v="Dillingøy" />
		<tag k="place" v="farm" />
		<tag k="ssr:stedsnr" v="791340" />
	</node>
	<node lat="59.355914408766004" lon="10.735116822892834" id="-17067">
		<tag k="name" v="Kure" />
		<tag k="place" v="hamlet" />
		<tag k="ssr:stedsnr" v="791257" />
	</node>
	<node lat="59.40085555703748" lon="10.652061108655662" id="-17068">
		<tag k="alt_name" v="Feste søndre" />
		<tag k="name" v="Søndre Feste" />
		<tag k="place" v="farm" />
		<tag k="ssr:stedsnr" v="791492" />
	</node>
	<node lat="59.4030679579804" lon="10.69745881081473" id="-17069">
		<tag k="name" v="Dilling" />
		<tag k="place" v="hamlet" />
		<tag k="ssr:stedsnr" v="791495" />
	</node>
	<node lat="59.46456666254438" lon="10.75688889291485" id="-17071">
		<tag k="name" v="Gashus" />
		<tag k="place" v="farm" />
		<tag k="ssr:stedsnr" v="791714" />
	</node>
	<node lat="59.47797499953322" lon="10.643327785154234" id="-17072">
		<tag k="alt_name" v="Ås nordre" />
		<tag k="name" v="Nordre Ås" />
		<tag k="place" v="farm" />
		<tag k="ssr:stedsnr" v="791909" />
	</node>
	<node lat="59.3821222181522" lon="10.671502780427998" id="-17075">
		<tag k="alt_name" v="Bakke søndre" />
		<tag k="name" v="Søndre Bakke" />
		<tag k="place" v="farm" />
		<tag k="ssr:stedsnr" v="912571" />
	</node>
	<node lat="59.37159789877716" lon="10.76335099222639" id="-17077">
		<tag k="fixme" v="consider place=hamlet" />
		<tag k="name" v="Gon" />
		<tag k="place" v="farm" />
		<tag k="ssr:stedsnr" v="913273" />
	</node>
	<node lat="59.41547574531664" lon="10.666287835410435" id="-17080">
		<tag k="fixme" v="consider place=hamlet" />
		<tag k="name" v="Kallum" />
		<tag k="place" v="farm" />
		<tag k="ssr:stedsnr" v="913976" />
	</node>
	<node lat="59.38611111062968" lon="10.656661117496904" id="-17082">
		<tag k="name" v="Fuglevik" />
		<tag k="place" v="quarter" />
		<tag k="ssr:stedsnr" v="813095" />
	</node>
	<node lat="59.42644444351229" lon="10.632066658833297" id="-17084">
		<tag k="amenity" v="school" />
		<tag k="name" v="Jeløy folkehøgskole" />
		<tag k="ssr:stedsnr" v="841075" />
	</node>
	<node lat="59.44361111122024" lon="10.616738888932606" id="-17085">
		<tag k="name" v="Refsnes gods" />
		<tag k="ssr:stedsnr" v="841887" />
		<tag k="tourism" v="hotel" />
	</node>
	<node lat="59.37463611551912" lon="10.65636667265222" id="-17087">
		<tag k="name" v="Årefjord" />
		<tag k="place" v="farm" />
		<tag k="ssr:stedsnr" v="842009" />
	</node>
	<node lat="59.38808055608795" lon="10.65940000638297" id="-17089">
		<tag k="name" v="Storeng" />
		<tag k="place" v="farm" />
		<tag k="ssr:stedsnr" v="842114" />
	</node>
	<node lat="59.39104444196745" lon="10.655722220340747" id="-17090">
		<tag k="name" v="Kollen" />
		<tag k="place" v="farm" />
		<tag k="ssr:stedsnr" v="842116" />
	</node>
	<node lat="59.45594444073535" lon="10.627402781957697" id="-17092">
		<tag k="alt_name" v="Ramberg nordre" />
		<tag k="name" v="Nordre Ramberg" />
		<tag k="place" v="farm" />
		<tag k="ssr:stedsnr" v="842181" />
	</node>
	<node lat="59.463402775092646" lon="10.690902782104452" id="-17093">
		<tag k="name" v="Åvangen" />
		<tag k="place" v="farm" />
		<tag k="ssr:stedsnr" v="842195" />
	</node>
	<node lat="59.34010637668595" lon="10.682897082517208" id="-17094">
		<tag k="alt_name" v="Støtvik store" />
		<tag k="fixme" v="consider place=hamlet" />
		<tag k="name" v="Store Støtvik" />
		<tag k="place" v="farm" />
		<tag k="ssr:stedsnr" v="842196" />
	</node>
	<node lat="59.33472221894148" lon="10.71241944549634" id="-17100">
		<tag k="name" v="Orefellen" />
		<tag k="place" v="farm" />
		<tag k="ssr:stedsnr" v="842388" />
	</node>
	<node lat="59.422186114170955" lon="10.611205560248447" id="-17105">
		<tag k="name" v="Fiskehytta" />
		<tag k="place" v="isolated_dwelling" />
		<tag k="ssr:stedsnr" v="842769" />
	</node>
	<node lat="59.4048055515789" lon="10.653541663301693" id="-17106">
		<tag k="name" v="Festelandet" />
		<tag k="place" v="locality" />
		<tag k="ssr:stedsnr" v="842772" />
	</node>
	<node lat="59.37586389235298" lon="10.72387500024942" id="-17107">
		<tag k="name" v="Dyrhaug" />
		<tag k="place" v="farm" />
		<tag k="ssr:stedsnr" v="843327" />
	</node>
	<node lat="59.362569444071646" lon="10.75828610272411" id="-17108">
		<tag k="alt_name" v="Ror østre;Østre Roer" />
		<tag k="name" v="Østre Ror" />
		<tag k="place" v="farm" />
		<tag k="ssr:stedsnr" v="843333" />
	</node>
	<node lat="59.3954439203329" lon="10.724098134382434" id="-17109">
		<tag k="name" v="Såstad" />
		<tag k="place" v="farm" />
		<tag k="ssr:stedsnr" v="843825" />
	</node>
	<node lat="59.477897221827796" lon="10.661577769117294" id="-17110">
		<tag k="name" v="Kjørbukt" />
		<tag k="place" v="isolated_dwelling" />
		<tag k="ssr:stedsnr" v="845895" />
	</node>
	<node lat="59.39640555349619" lon="10.766836108047357" id="-17111">
		<tag k="name" v="Tangen" />
		<tag k="place" v="farm" />
		<tag k="ssr:stedsnr" v="852305" />
	</node>
	<node lat="59.41121944236029" lon="10.763413891467753" id="-17112">
		<tag k="name" v="Nygård" />
		<tag k="place" v="farm" />
		<tag k="ssr:stedsnr" v="852284" />
	</node>
	<node lat="59.33736526580702" lon="10.726125667929512" id="-17113">
		<tag k="name" v="Holm" />
		<tag k="place" v="locality" />
		<tag k="ssr:stedsnr" v="852462" />
	</node>
	<node lat="59.39493333142209" lon="10.66462500026196" id="-17116">
		<tag k="alt_name" v="Huseby nordre" />
		<tag k="name" v="Nordre Huseby" />
		<tag k="place" v="farm" />
		<tag k="ssr:stedsnr" v="852517" />
	</node>
	<node lat="59.39161389225131" lon="10.66184443975133" id="-17117">
		<tag k="alt_name" v="Huseby vestre" />
		<tag k="name" v="Vestre Huseby" />
		<tag k="place" v="farm" />
		<tag k="ssr:stedsnr" v="852518" />
	</node>
	<node lat="59.50563333450564" lon="10.652655550396283" id="-17118">
		<tag k="alt_name" v="Kolabonn;Kullebunn" />
		<tag k="name" v="Kolabotn" />
		<tag k="place" v="farm" />
		<tag k="ssr:stedsnr" v="852520" />
	</node>
	<node lat="59.34757977367147" lon="10.672091824353588" id="-17119">
		<tag k="fixme" v="consider place=hamlet" />
		<tag k="name" v="Botner" />
		<tag k="place" v="farm" />
		<tag k="ssr:stedsnr" v="852568" />
	</node>
	<node lat="59.421005553558565" lon="10.666561103979118" id="-17124">
		<tag k="name" v="Melløs" />
		<tag k="place" v="suburb" />
		<tag k="ssr:stedsnr" v="877103" />
	</node>
	<node lat="59.3817027815206" lon="10.751441667077913" id="-17125">
		<tag k="name" v="Halmstad" />
		<tag k="place" v="quarter" />
		<tag k="ssr:stedsnr" v="877351" />
	</node>
	<node lat="59.35806111214745" lon="10.662877777781965" id="-17132">
		<tag k="alt_name" v="Tangen øvre" />
		<tag k="name" v="Øvre Tangen" />
		<tag k="place" v="isolated_dwelling" />
		<tag k="ssr:stedsnr" v="903020" />
	</node>
	<node lat="59.38341944311844" lon="10.652269441502394" id="-17136">
		<tag k="alt_name" v="Fuglevik søndre" />
		<tag k="name" v="Søndre Fuglevik" />
		<tag k="place" v="hamlet" />
		<tag k="ssr:stedsnr" v="903114" />
	</node>
	<node lat="59.363389123914764" lon="10.751557990433334" id="-17137">
		<tag k="alt_name" v="Roer" />
		<tag k="name" v="Ror" />
		<tag k="place" v="hamlet" />
		<tag k="ssr:stedsnr" v="903267" />
	</node>
	<node lat="59.36342332805243" lon="10.770456082937216" id="-17139">
		<tag k="fixme" v="consider place=hamlet" />
		<tag k="name" v="Asgården" />
		<tag k="place" v="farm" />
		<tag k="ssr:stedsnr" v="904314" />
	</node>
	<node lat="59.398588891172196" lon="10.755377778627436" id="-17141">
		<tag k="alt_name" v="Huggenes mellem" />
		<tag k="name" v="Mellom-Huggenes" />
		<tag k="place" v="farm" />
		<tag k="ssr:stedsnr" v="904806" />
	</node>
	<node lat="59.40109291099172" lon="10.746825453579083" id="-17142">
		<tag k="alt_name" v="Huggenes vestre" />
		<tag k="fixme" v="consider place=hamlet" />
		<tag k="name" v="Vestre Huggenes" />
		<tag k="place" v="farm" />
		<tag k="ssr:stedsnr" v="904799" />
	</node>
	<node lat="59.43308611224315" lon="10.613733336831205" id="-17148">
		<tag k="name" v="Kubberød" />
		<tag k="place" v="farm" />
		<tag k="ssr:stedsnr" v="913000" />
	</node>
	<node lat="59.39064471440301" lon="10.699061895185304" id="-17149">
		<tag k="alt_name" v="Løken vestre" />
		<tag k="fixme" v="consider place=hamlet" />
		<tag k="name" v="Vestre Løken" />
		<tag k="place" v="farm" />
		<tag k="ssr:stedsnr" v="913492" />
	</node>
	<node lat="59.374408334890916" lon="10.669397223768183" id="-17154">
		<tag k="name" v="Villskog" />
		<tag k="place" v="farm" />
		<tag k="ssr:stedsnr" v="935851" />
	</node>
	<node lat="59.43544099520141" lon="10.635849119221751" id="-17158">
		<tag k="fixme" v="consider place=hamlet" />
		<tag k="name" v="Torderød" />
		<tag k="place" v="farm" />
		<tag k="ssr:stedsnr" v="962888" />
	</node>
	<node lat="59.41019444600843" lon="10.689974996399876" id="-17162">
		<tag k="alt_name" v="Breidsand" />
		<tag k="name" v="Bredsand" />
		<tag k="place" v="quarter" />
		<tag k="ssr:stedsnr" v="963117" />
	</node>
	<node lat="59.44949722467604" lon="10.693666663271014" id="-17165">
		<tag k="name" v="Grindvoll" />
		<tag k="place" v="suburb" />
		<tag k="ssr:stedsnr" v="963221" />
	</node>
	<node lat="59.3803060501985" lon="10.679634080287542" id="-17166">
		<tag k="alt_name" v="Hasle østre" />
		<tag k="fixme" v="consider place=hamlet" />
		<tag k="name" v="Østre Hasle" />
		<tag k="place" v="farm" />
		<tag k="ssr:stedsnr" v="963942" />
	</node>
	<node lat="59.35535833276201" lon="10.754008333587903" id="-17169">
		<tag k="alt_name" v="Rosnes nordre" />
		<tag k="name" v="Nordre Rosnes" />
		<tag k="place" v="farm" />
		<tag k="ssr:stedsnr" v="964242" />
	</node>
	<node lat="59.3408605105377" lon="10.66427156622127" id="-17171">
		<tag k="name" v="Tarvelig" />
		<tag k="place" v="farm" />
		<tag k="ssr:stedsnr" v="971507" />
	</node>
	<node lat="59.334930920190004" lon="10.664142307514235" id="-17172">
		<tag k="name" v="Drolshamar" />
		<tag k="place" v="isolated_dwelling" />
		<tag k="ssr:stedsnr" v="976110" />
	</node>
	<node lat="59.34973101576241" lon="10.694872664761357" id="-17173">
		<tag k="name" v="Sundby" />
		<tag k="place" v="farm" />
		<tag k="ssr:stedsnr" v="978125" />
	</node>
	<node lat="59.430243044536326" lon="10.731028503693166" id="-17174">
		<tag k="name" v="Grevlinghuken" />
		<tag k="place" v="locality" />
		<tag k="ssr:stedsnr" v="988107" />
	</node>
	<node lat="59.44022588743667" lon="10.756209326990307" id="-17175">
		<tag k="name" v="Havnahuken" />
		<tag k="place" v="locality" />
		<tag k="ssr:stedsnr" v="988108" />
	</node>
	<node lat="59.367786109902724" lon="10.756808339528972" id="-17176">
		<tag k="name" v="Kroken" />
		<tag k="place" v="farm" />
		<tag k="ssr:stedsnr" v="2297" />
	</node>
	<node lat="59.36526666402458" lon="10.749658338370418" id="-17177">
		<tag k="alt_name" v="Ror midtre" />
		<tag k="name" v="Midtre Ror" />
		<tag k="place" v="farm" />
		<tag k="ssr:stedsnr" v="2299" />
	</node>
	<node lat="59.383483336029116" lon="10.671816662036086" id="-17178">
		<tag k="alt_name" v="Bakke nordre" />
		<tag k="name" v="Nordre Bakke" />
		<tag k="place" v="farm" />
		<tag k="ssr:stedsnr" v="2556" />
	</node>
	<node lat="59.34139166838116" lon="10.725083336011178" id="-17180">
		<tag k="name" v="Mellegård" />
		<tag k="place" v="farm" />
		<tag k="ssr:stedsnr" v="2503" />
	</node>
	<node lat="59.43773332970118" lon="10.604680557894062" id="-17181">
		<tag k="alt_name" v="Tronvika" />
		<tag k="fixme" v="consider place=hamlet" />
		<tag k="name" v="Tronvik" />
=======
	<node id="-216923" lat="59.3756305596" lon="10.7647000072">
		<tag k="name" v="Blomsholm" />
		<tag k="place" v="farm" />
		<tag k="ssr:stedsnr" v="175279" />
	</node>
	<node id="-216920" lat="59.4229194404" lon="10.7048527714">
		<tag k="alt_name" v="Lillebog" />
		<tag k="name" v="Lillebaug" />
		<tag k="place" v="farm" />
		<tag k="ssr:stedsnr" v="175046" />
	</node>
	<node id="-216919" lat="59.415174998" lon="10.6827527843">
		<tag k="name" v="Fredensborg" />
		<tag k="place" v="quarter" />
		<tag k="ssr:stedsnr" v="175017" />
	</node>
	<node id="-216918" lat="59.4139611088" lon="10.668083335">
		<tag k="name" v="Dyre" />
		<tag k="place" v="quarter" />
		<tag k="ssr:stedsnr" v="175005" />
	</node>
	<node id="-216917" lat="59.3991694414" lon="10.6925083291">
		<tag k="loc_name" v="Nøysom" />
		<tag k="name" v="Nøisom" />
		<tag k="place" v="farm" />
		<tag k="ssr:stedsnr" v="174907" />
	</node>
	<node id="-216914" lat="59.3290472221" lon="10.6680861094">
		<tag k="name" v="Støtvig hotell" />
		<tag k="ssr:stedsnr" v="174472" />
		<tag k="tourism" v="hotel" />
	</node>
	<node id="-216911" lat="59.3451916688" lon="10.7141083257">
		<tag k="alt_name" v="Kubberød vestre" />
		<tag k="name" v="Vestre Kubberød" />
		<tag k="place" v="farm" />
		<tag k="ssr:stedsnr" v="174230" />
	</node>
	<node id="-216904" lat="59.4306500015" lon="10.667336116">
		<tag k="fixme" v="consider place=suburb, village or hamlet" />
		<tag k="name" v="Skarmyra" />
		<tag k="place" v="quarter" />
		<tag k="ssr:stedsnr" v="173061" />
	</node>
	<node id="-216901" lat="59.3813083368" lon="10.6816888969">
		<tag k="name" v="Haug" />
		<tag k="place" v="farm" />
		<tag k="ssr:stedsnr" v="149984" />
	</node>
	<node id="-216896" lat="59.4761472196" lon="10.6459222177">
		<tag k="alt_name" v="Ås søndre" />
		<tag k="name" v="Søndre Ås" />
		<tag k="place" v="farm" />
		<tag k="ssr:stedsnr" v="124904" />
	</node>
	<node id="-216895" lat="59.4872361129" lon="10.6582583358">
		<tag k="name" v="Renneflot" />
		<tag k="place" v="farm" />
		<tag k="ssr:stedsnr" v="124898" />
	</node>
	<node id="-216894" lat="59.4699361137" lon="10.6418944456">
		<tag k="name" v="Røre" />
		<tag k="place" v="farm" />
		<tag k="ssr:stedsnr" v="123968" />
	</node>
	<node id="-216888" lat="59.3429444468" lon="10.7231027857">
		<tag k="name" v="Kuremyra" />
		<tag k="place" v="farm" />
		<tag k="ssr:stedsnr" v="123526" />
	</node>
	<node id="-216885" lat="59.393794448" lon="10.762580549">
		<tag k="name" v="Sørby" />
		<tag k="place" v="farm" />
		<tag k="ssr:stedsnr" v="115783" />
	</node>
	<node id="-216884" lat="59.384741666" lon="10.7948916623">
		<tag k="name" v="Brekka" />
		<tag k="place" v="farm" />
		<tag k="ssr:stedsnr" v="115700" />
	</node>
	<node id="-216880" lat="59.3899583316" lon="10.7746722179">
		<tag k="alt_name" v="Utne nordre" />
		<tag k="name" v="Nordre Utne" />
		<tag k="place" v="farm" />
		<tag k="ssr:stedsnr" v="115687" />
	</node>
	<node id="-216877" lat="59.3741055563" lon="10.7256000067">
		<tag k="name" v="Knapstad" />
		<tag k="place" v="farm" />
		<tag k="ssr:stedsnr" v="115350" />
	</node>
	<node id="-216876" lat="59.3548861113" lon="10.7723666702">
		<tag k="name" v="Sarpeløkka" />
		<tag k="place" v="farm" />
		<tag k="ssr:stedsnr" v="115059" />
	</node>
	<node id="-216875" lat="59.3835416665" lon="10.6792638824">
		<tag k="alt_name" v="Hasle vestre" />
		<tag k="name" v="Vestre Hasle" />
		<tag k="place" v="farm" />
		<tag k="ssr:stedsnr" v="114930" />
	</node>
	<node id="-216873" lat="59.3371027795" lon="10.7267638915">
		<tag k="name" v="Holm" />
		<tag k="place" v="farm" />
		<tag k="ssr:stedsnr" v="115011" />
	</node>
	<node id="-216872" lat="59.3260694482" lon="10.6740555543">
		<tag k="amenity" v="school" />
		<tag k="name" v="Rørvik skole" />
		<tag k="ssr:stedsnr" v="114401" />
	</node>
	<node id="-216869" lat="59.4540388881" lon="10.6260055539">
		<tag k="alt_name" v="Ramberg søndre" />
		<tag k="name" v="Søndre Ramberg" />
		<tag k="place" v="farm" />
		<tag k="ssr:stedsnr" v="114182" />
	</node>
	<node id="-216867" lat="59.4668055569" lon="10.6416916699">
		<tag k="name" v="Fuglevik" />
		<tag k="place" v="farm" />
		<tag k="ssr:stedsnr" v="113785" />
	</node>
	<node id="-216866" lat="59.3702055594" lon="10.6886888964">
		<tag k="name" v="Sørliåsen" />
		<tag k="place" v="farm" />
		<tag k="ssr:stedsnr" v="114067" />
	</node>
	<node id="-216865" lat="59.3781083348" lon="10.6658111111">
		<tag k="name" v="Årefjorden" />
		<tag k="place" v="isolated_dwelling" />
		<tag k="ssr:stedsnr" v="114055" />
	</node>
	<node id="-216864" lat="59.4332138861" lon="10.6818138935">
		<tag k="amenity" v="school" />
		<tag k="name" v="Krapfoss skole" />
		<tag k="ssr:stedsnr" v="113071" />
	</node>
	<node id="-216854" lat="59.4161166688" lon="10.687749995">
		<tag k="name" v="Kvaen" />
		<tag k="place" v="farm" />
		<tag k="ssr:stedsnr" v="63974" />
	</node>
	<node id="-216853" lat="59.4687000014" lon="10.6941111033">
		<tag k="name" v="Nøkkeland" />
		<tag k="place" v="farm" />
		<tag k="ssr:stedsnr" v="63967" />
	</node>
	<node id="-216852" lat="59.4470722266" lon="10.6136055602">
		<tag k="name" v="Refsnes" />
		<tag k="place" v="suburb" />
		<tag k="ssr:stedsnr" v="63960" />
	</node>
	<node id="-216851" lat="59.3609472181" lon="10.6886000024">
		<tag k="name" v="Børsebakke" />
		<tag k="place" v="farm" />
		<tag k="ssr:stedsnr" v="63587" />
	</node>
	<node id="-216849" lat="59.3835074307" lon="10.7039893932">
		<tag k="fixme" v="consider place=hamlet" />
		<tag k="name" v="Tøstad" />
		<tag k="place" v="farm" />
		<tag k="ssr:stedsnr" v="63554" />
	</node>
	<node id="-216847" lat="59.4137749958" lon="10.7297444502">
		<tag k="name" v="Nesenga" />
		<tag k="place" v="farm" />
		<tag k="ssr:stedsnr" v="63347" />
	</node>
	<node id="-216845" lat="59.3758638923" lon="10.7505749946">
		<tag k="name" v="Gate" />
		<tag k="place" v="farm" />
		<tag k="ssr:stedsnr" v="63306" />
	</node>
	<node id="-216844" lat="59.4385337593" lon="10.6323111168">
		<tag k="alt_name" v="Karlshus" />
		<tag k="name" v="Fjeldly" />
		<tag k="place" v="isolated_dwelling" />
		<tag k="ssr:stedsnr" v="60352" />
	</node>
	<node id="-216843" lat="59.4454638921" lon="10.6756666675">
		<tag k="name" v="Verket" />
		<tag k="place" v="quarter" />
		<tag k="ssr:stedsnr" v="56909" />
	</node>
	<node id="-216842" lat="59.4721361122" lon="10.6941444501">
		<tag k="name" v="Skoleåsen" />
		<tag k="place" v="quarter" />
		<tag k="ssr:stedsnr" v="56647" />
	</node>
	<node id="-216838" lat="59.3906611104" lon="10.7644583289">
		<tag k="name" v="Solbakken" />
		<tag k="place" v="farm" />
		<tag k="ssr:stedsnr" v="54791" />
	</node>
	<node id="-216837" lat="59.3874694428" lon="10.7845416674">
		<tag k="alt_name" v="Fredskjær vestre" />
		<tag k="name" v="Vestre Fredskjær" />
		<tag k="place" v="farm" />
		<tag k="ssr:stedsnr" v="54730" />
	</node>
	<node id="-216834" lat="59.3387055556" lon="10.7189861194">
		<tag k="name" v="Skogli" />
		<tag k="place" v="farm" />
		<tag k="ssr:stedsnr" v="54017" />
	</node>
	<node id="-216833" lat="59.4082083317" lon="10.6984388886">
		<tag k="alt_name" v="Dilling søndre" />
		<tag k="name" v="Søndre Dilling" />
		<tag k="place" v="farm" />
		<tag k="ssr:stedsnr" v="53934" />
	</node>
	<node id="-216832" lat="59.4068861073" lon="10.6965055472">
		<tag k="fixme" v="consider place=suburb, village or hamlet" />
		<tag k="name" v="Dilling" />
		<tag k="place" v="quarter" />
		<tag k="ssr:stedsnr" v="53933" />
	</node>
	<node id="-216828" lat="59.4631944421" lon="10.7260444432">
		<tag k="amenity" v="cafe" />
		<tag k="name" v="Skihytta" />
		<tag k="ssr:stedsnr" v="53212" />
	</node>
	<node id="-216826" lat="59.344341671" lon="10.7153138881">
		<tag k="alt_name" v="Kubberød østre" />
		<tag k="name" v="Østre Kubberød" />
		<tag k="place" v="farm" />
		<tag k="ssr:stedsnr" v="53204" />
	</node>
	<node id="-216825" lat="59.3722194483" lon="10.7181638855">
		<tag k="alt_name" v="Fløgstad søndre" />
		<tag k="name" v="Søndre Fløgstad" />
		<tag k="place" v="farm" />
		<tag k="ssr:stedsnr" v="53082" />
	</node>
	<node id="-216819" lat="59.3577999977" lon="10.6631277774">
		<tag k="alt_name" v="Tangen nedre" />
		<tag k="name" v="Nedre Tangen" />
		<tag k="place" v="isolated_dwelling" />
		<tag k="ssr:stedsnr" v="53020" />
	</node>
	<node id="-216801" lat="59.4097111145" lon="10.6549249995">
		<tag k="alt_name" v="Feste nordre" />
		<tag k="name" v="Nordre Feste" />
		<tag k="place" v="farm" />
		<tag k="ssr:stedsnr" v="2972" />
	</node>
	<node id="-216800" lat="59.4140777753" lon="10.6981861133">
		<tag k="fixme" v="consider place=hamlet" />
		<tag k="name" v="Årvoll" />
		<tag k="place" v="farm" />
		<tag k="ssr:stedsnr" v="2968" />
	</node>
	<node id="-216799" lat="59.4377333297" lon="10.6046805579">
		<tag k="alt_name" v="Tronvika" />
		<tag k="fixme" v="consider place=hamlet" />
		<tag k="name" v="Tronvik" />
		<tag k="place" v="farm" />
		<tag k="ssr:stedsnr" v="2933" />
	</node>
	<node id="-216798" lat="59.383483336" lon="10.671816662">
		<tag k="alt_name" v="Bakke nordre" />
		<tag k="name" v="Nordre Bakke" />
		<tag k="place" v="farm" />
		<tag k="ssr:stedsnr" v="2556" />
	</node>
	<node id="-216795" lat="59.3413916684" lon="10.725083336">
		<tag k="name" v="Mellegård" />
		<tag k="place" v="farm" />
		<tag k="ssr:stedsnr" v="2503" />
	</node>
	<node id="-216793" lat="59.365266664" lon="10.7496583384">
		<tag k="alt_name" v="Ror midtre" />
		<tag k="name" v="Midtre Ror" />
		<tag k="place" v="farm" />
		<tag k="ssr:stedsnr" v="2299" />
	</node>
	<node id="-216792" lat="59.3677861099" lon="10.7568083395">
		<tag k="name" v="Kroken" />
		<tag k="place" v="farm" />
		<tag k="ssr:stedsnr" v="2297" />
	</node>
	<node id="-216786" lat="59.3429767223" lon="10.6615112781">
		<tag k="name" v="Finnland" />
		<tag k="place" v="farm" />
		<tag k="ssr:stedsnr" v="971510" />
	</node>
	<node id="-216785" lat="59.3421805818" lon="10.6634674361">
		<tag k="name" v="Sjøholt" />
		<tag k="place" v="farm" />
		<tag k="ssr:stedsnr" v="971508" />
	</node>
	<node id="-216784" lat="59.3408605105" lon="10.6642715662">
		<tag k="name" v="Tarvelig" />
		<tag k="place" v="farm" />
		<tag k="ssr:stedsnr" v="971507" />
	</node>
	<node id="-216782" lat="59.4371999993" lon="10.6351944492">
		<tag k="name" v="Bellevue" />
		<tag k="place" v="suburb" />
		<tag k="ssr:stedsnr" v="965163" />
	</node>
	<node id="-216781" lat="59.3916944432" lon="10.7671722298">
		<tag k="name" v="Sandbekk" />
		<tag k="place" v="farm" />
		<tag k="ssr:stedsnr" v="964762" />
	</node>
	<node id="-216777" lat="59.3356444429" lon="10.688713894">
		<tag k="alt_name" v="Støtvik søndre;Søndre Støtvik" />
		<tag k="name" v="Nedre Støtvik" />
		<tag k="place" v="farm" />
		<tag k="ssr:stedsnr" v="963472" />
	</node>
	<node id="-216776" lat="59.4494972247" lon="10.6936666633">
		<tag k="name" v="Grindvoll" />
		<tag k="place" v="suburb" />
		<tag k="ssr:stedsnr" v="963221" />
	</node>
	<node id="-216773" lat="59.3766111146" lon="10.6636083306">
		<tag k="name" v="Villskog" />
		<tag k="place" v="farm" />
		<tag k="ssr:stedsnr" v="963070" />
	</node>
	<node id="-216771" lat="59.410194446" lon="10.6899749964">
		<tag k="alt_name" v="Breidsand" />
		<tag k="name" v="Bredsand" />
		<tag k="place" v="quarter" />
		<tag k="ssr:stedsnr" v="963117" />
	</node>
	<node id="-216767" lat="59.4689194464" lon="10.6914777853">
		<tag k="amenity" v="school" />
		<tag k="name" v="Kambo skole" />
		<tag k="ssr:stedsnr" v="962069" />
	</node>
	<node id="-216762" lat="59.3985888912" lon="10.7553777786">
		<tag k="alt_name" v="Huggenes mellem" />
		<tag k="name" v="Mellom-Huggenes" />
		<tag k="place" v="farm" />
		<tag k="ssr:stedsnr" v="904806" />
	</node>
	<node id="-216761" lat="59.3628583306" lon="10.7707583351">
		<tag k="name" v="Asgården" />
		<tag k="place" v="farm" />
		<tag k="ssr:stedsnr" v="904314" />
	</node>
	<node id="-216760" lat="59.3645527781" lon="10.7480416722">
		<tag k="alt_name" v="Roer" />
		<tag k="fixme" v="consider place=hamlet" />
		<tag k="name" v="Ror" />
		<tag k="place" v="farm" />
		<tag k="ssr:stedsnr" v="903267" />
	</node>
	<node id="-216758" lat="59.3580611121" lon="10.6628777778">
		<tag k="alt_name" v="Tangen øvre" />
		<tag k="name" v="Øvre Tangen" />
		<tag k="place" v="isolated_dwelling" />
		<tag k="ssr:stedsnr" v="903020" />
	</node>
	<node id="-216755" lat="59.3545333322" lon="10.6599944448">
		<tag k="name" v="Holmen" />
		<tag k="place" v="farm" />
		<tag k="ssr:stedsnr" v="902474" />
	</node>
	<node id="-216752" lat="59.4463861075" lon="10.6253222217">
		<tag k="name" v="Gjerthytta" />
		<tag k="place" v="isolated_dwelling" />
		<tag k="ssr:stedsnr" v="902055" />
	</node>
	<node id="-216751" lat="59.4210055536" lon="10.666561104">
		<tag k="name" v="Melløs" />
		<tag k="place" v="suburb" />
		<tag k="ssr:stedsnr" v="877103" />
	</node>
	<node id="-216747" lat="59.3476416624" lon="10.6728666687">
		<tag k="name" v="Botner" />
		<tag k="place" v="farm" />
		<tag k="ssr:stedsnr" v="852568" />
	</node>
	<node id="-216746" lat="59.5056333345" lon="10.6526555504">
		<tag k="alt_name" v="Kolabonn;Kullebunn" />
		<tag k="name" v="Kolabotn" />
		<tag k="place" v="farm" />
		<tag k="ssr:stedsnr" v="852520" />
	</node>
	<node id="-216745" lat="59.3916138923" lon="10.6618444398">
		<tag k="alt_name" v="Huseby vestre" />
		<tag k="name" v="Vestre Huseby" />
		<tag k="place" v="farm" />
		<tag k="ssr:stedsnr" v="852518" />
	</node>
	<node id="-216744" lat="59.3949333314" lon="10.6646250003">
		<tag k="alt_name" v="Huseby nordre" />
		<tag k="name" v="Nordre Huseby" />
		<tag k="place" v="farm" />
		<tag k="ssr:stedsnr" v="852517" />
	</node>
	<node id="-216741" lat="59.3370042649" lon="10.7270675015">
		<tag k="fixme" v="consider place=hamlet" />
		<tag k="name" v="Holm" />
		<tag k="place" v="farm" />
		<tag k="ssr:stedsnr" v="852462" />
	</node>
	<node id="-216740" lat="59.3964055535" lon="10.766836108">
		<tag k="name" v="Tangen" />
		<tag k="place" v="farm" />
		<tag k="ssr:stedsnr" v="852305" />
	</node>
	<node id="-216738" lat="59.4048055516" lon="10.6535416633">
		<tag k="name" v="Festelandet" />
		<tag k="place" v="locality" />
		<tag k="ssr:stedsnr" v="842772" />
	</node>
	<node id="-216737" lat="59.4221861142" lon="10.6112055602">
		<tag k="name" v="Fiskehytta" />
		<tag k="place" v="isolated_dwelling" />
		<tag k="ssr:stedsnr" v="842769" />
	</node>
	<node id="-216734" lat="59.3762444479" lon="10.7465305595">
		<tag k="alt_name" v="Rør søndre" />
		<tag k="name" v="Søndre Rør" />
		<tag k="place" v="farm" />
		<tag k="ssr:stedsnr" v="842273" />
	</node>
	<node id="-216730" lat="59.391044442" lon="10.6557222203">
		<tag k="name" v="Kollen" />
		<tag k="place" v="farm" />
		<tag k="ssr:stedsnr" v="842116" />
	</node>
	<node id="-216729" lat="59.3880805561" lon="10.6594000064">
		<tag k="name" v="Storeng" />
		<tag k="place" v="farm" />
		<tag k="ssr:stedsnr" v="842114" />
	</node>
	<node id="-216727" lat="59.3746361155" lon="10.6563666727">
		<tag k="name" v="Årefjord" />
		<tag k="place" v="farm" />
		<tag k="ssr:stedsnr" v="842009" />
	</node>
	<node id="-216721" lat="59.3744083349" lon="10.6693972238">
		<tag k="name" v="Villskog" />
		<tag k="place" v="farm" />
		<tag k="ssr:stedsnr" v="935851" />
	</node>
	<node id="-216715" lat="59.4149527771" lon="10.6672000066">
		<tag k="name" v="Kallum" />
		<tag k="place" v="farm" />
		<tag k="ssr:stedsnr" v="913976" />
	</node>
	<node id="-216710" lat="59.3896888857" lon="10.7004194502">
		<tag k="alt_name" v="Løken vestre" />
		<tag k="name" v="Vestre Løken" />
		<tag k="place" v="farm" />
		<tag k="ssr:stedsnr" v="913492" />
	</node>
	<node id="-216709" lat="59.3710638846" lon="10.7629833409">
		<tag k="name" v="Gon" />
		<tag k="place" v="farm" />
		<tag k="ssr:stedsnr" v="913273" />
	</node>
	<node id="-216708" lat="59.4330861122" lon="10.6137333368">
		<tag k="name" v="Kubberød" />
		<tag k="place" v="farm" />
		<tag k="ssr:stedsnr" v="913000" />
	</node>
	<node id="-216706" lat="59.3554277752" lon="10.6955166654">
		<tag k="name" v="Li" />
		<tag k="place" v="farm" />
		<tag k="ssr:stedsnr" v="912602" />
	</node>
	<node id="-216705" lat="59.3821222182" lon="10.6715027804">
		<tag k="alt_name" v="Bakke søndre" />
		<tag k="name" v="Søndre Bakke" />
		<tag k="place" v="farm" />
		<tag k="ssr:stedsnr" v="912571" />
	</node>
	<node id="-216702" lat="59.4906228443" lon="10.671829652">
		<tag k="name" v="Fjellheim" />
		<tag k="place" v="isolated_dwelling" />
		<tag k="ssr:stedsnr" v="905884" />
	</node>
	<node id="-216699" lat="59.4006250039" lon="10.7463249943">
		<tag k="alt_name" v="Huggenes vestre" />
		<tag k="name" v="Vestre Huggenes" />
		<tag k="place" v="farm" />
		<tag k="ssr:stedsnr" v="904799" />
	</node>
	<node id="-216698" lat="59.3913194441" lon="10.7616222182">
		<tag k="name" v="Solheim" />
		<tag k="place" v="farm" />
		<tag k="ssr:stedsnr" v="904787" />
	</node>
	<node id="-216695" lat="59.3527166525" lon="10.7485226254">
		<tag k="alt_name" v="Rosnes østre" />
		<tag k="name" v="Østre Rosnes" />
		<tag k="place" v="farm" />
		<tag k="ssr:stedsnr" v="904222" />
	</node>
	<node id="-216694" lat="59.3704138906" lon="10.7680361032">
		<tag k="name" v="Eskelund" />
		<tag k="place" v="farm" />
		<tag k="ssr:stedsnr" v="904281" />
	</node>
	<node id="-216691" lat="59.4017583372" lon="10.6965499921">
		<tag k="alt_name" v="Dilling vestre" />
		<tag k="name" v="Vestre Dilling" />
		<tag k="place" v="farm" />
		<tag k="ssr:stedsnr" v="903883" />
	</node>
	<node id="-216689" lat="59.3787916686" lon="10.7273333383">
		<tag k="name" v="Ramstad" />
		<tag k="place" v="farm" />
		<tag k="ssr:stedsnr" v="903292" />
	</node>
	<node id="-216688" lat="59.4286749964" lon="10.685538892">
		<tag k="name" v="Holmen" />
		<tag k="place" v="farm" />
		<tag k="ssr:stedsnr" v="903026" />
	</node>
	<node id="-216687" lat="59.3834194431" lon="10.6522694415">
		<tag k="alt_name" v="Fuglevik søndre" />
		<tag k="name" v="Søndre Fuglevik" />
		<tag k="place" v="hamlet" />
		<tag k="ssr:stedsnr" v="903114" />
	</node>
	<node id="-216680" lat="59.3299694486" lon="10.6822638852">
		<tag k="name" v="Løvmo" />
		<tag k="place" v="farm" />
		<tag k="ssr:stedsnr" v="902440" />
	</node>
	<node id="-216679" lat="59.43208889" lon="10.6388444398">
		<tag k="name" v="Grimsrød" />
		<tag k="place" v="farm" />
		<tag k="ssr:stedsnr" v="901896" />
	</node>
	<node id="-216673" lat="59.4423162175" lon="10.7658932174">
		<tag k="alt_name" v="Vestheim" />
		<tag k="name" v="Vesterheim" />
		<tag k="old_name" v="Dillingøystua;Syverhytten" />
		<tag k="place" v="locality" />
		<tag k="ssr:stedsnr" v="731320" />
	</node>
	<node id="-216670" lat="59.4029111127" lon="10.72762777">
		<tag k="name" v="Sivik" />
		<tag k="place" v="isolated_dwelling" />
		<tag k="ssr:stedsnr" v="721823" />
	</node>
	<node id="-216669" lat="59.3433111076" lon="10.6777722258">
		<tag k="name" v="Støtvikbråten" />
		<tag k="place" v="farm" />
		<tag k="ssr:stedsnr" v="721205" />
	</node>
	<node id="-216662" lat="59.4461027796" lon="10.7032305607">
		<tag k="building" v="commercial" />
		<tag k="name" v="Mosseporten senter" />
		<tag k="ssr:stedsnr" v="720207" />
	</node>
	<node id="-216661" lat="59.4371055571" lon="10.6752527736">
		<tag k="amenity" v="sports_centre" />
		<tag k="name" v="Mossehallen" />
		<tag k="ssr:stedsnr" v="719570" />
	</node>
	<node id="-216650" lat="59.3817027815" lon="10.7514416671">
		<tag k="name" v="Halmstad" />
		<tag k="place" v="quarter" />
		<tag k="ssr:stedsnr" v="877351" />
	</node>
	<node id="-216649" lat="59.3330138863" lon="10.6717249955">
		<tag k="amenity" v="school" />
		<tag k="name" v="Larkollen skole" />
		<tag k="ssr:stedsnr" v="659419" />
	</node>
	<node id="-216647" lat="59.4294944468" lon="10.630311117">
		<tag k="amenity" v="school" />
		<tag k="name" v="Reier skole" />
		<tag k="ssr:stedsnr" v="658870" />
	</node>
	<node id="-216646" lat="59.4537833306" lon="10.694213895">
		<tag k="amenity" v="school" />
		<tag k="name" v="Grindvold skole" />
		<tag k="ssr:stedsnr" v="658073" />
	</node>
	<node id="-216645" lat="59.43231944" lon="10.6683000002">
		<tag k="amenity" v="school" />
		<tag k="name" v="Bytårnet skole" />
		<tag k="ssr:stedsnr" v="658072" />
	</node>
	<node id="-216644" lat="59.4241499996" lon="10.6694138829">
		<tag k="leisure" v="park" />
		<tag k="name" v="Melløsparken" />
		<tag k="ssr:stedsnr" v="658067" />
	</node>
	<node id="-216642" lat="59.4829194442" lon="10.6957805521">
		<tag k="name" v="Kambo" />
		<tag k="place" v="village" />
		<tag k="ssr:stedsnr" v="731903" />
	</node>
	<node id="-216639" lat="59.3900527791" lon="10.6656194399">
		<tag k="alt_name" v="Huseby østre" />
		<tag k="name" v="Østre Huseby" />
		<tag k="place" v="farm" />
		<tag k="ssr:stedsnr" v="731485" />
	</node>
	<node id="-216638" lat="59.4048861082" lon="10.6890916642">
		<tag k="name" v="Ekholdt" />
		<tag k="place" v="farm" />
		<tag k="ssr:stedsnr" v="731473" />
	</node>
	<node id="-216637" lat="59.4442813059" lon="10.7054179814">
		<tag k="alt_name" v="Solgård" />
		<tag k="name" v="Patterød" />
		<tag k="place" v="farm" />
		<tag k="ssr:stedsnr" v="730948" />
	</node>
	<node id="-216636" lat="59.3369083345" lon="10.7090416645">
		<tag k="name" v="Orefellen" />
		<tag k="place" v="farm" />
		<tag k="ssr:stedsnr" v="730646" />
	</node>
	<node id="-216635" lat="59.3818194481" lon="10.6611833383">
		<tag k="name" v="Gunnarsby" />
		<tag k="place" v="farm" />
		<tag k="ssr:stedsnr" v="730599" />
	</node>
	<node id="-216633" lat="59.3880972244" lon="10.7129277819">
		<tag k="name" v="Ringnes" />
		<tag k="place" v="farm" />
		<tag k="ssr:stedsnr" v="730584" />
	</node>
	<node id="-216632" lat="59.3827111135" lon="10.6898916692">
		<tag k="alt_name" v="Vang" />
		<tag k="amenity" v="school" />
		<tag k="name" v="Vang skole" />
		<tag k="ssr:stedsnr" v="730582" />
	</node>
	<node id="-216629" lat="59.3863198794" lon="10.7238019881">
		<tag k="alt_name" v="Bjølsen søndre" />
		<tag k="name" v="Søndre Bjølsen" />
		<tag k="place" v="farm" />
		<tag k="ssr:stedsnr" v="730287" />
	</node>
	<node id="-216625" lat="59.3818749988" lon="10.7526305587">
		<tag k="name" v="Sandbekk" />
		<tag k="place" v="farm" />
		<tag k="ssr:stedsnr" v="721684" />
	</node>
	<node id="-216624" lat="59.3916805583" lon="10.7286944445">
		<tag k="alt_name" v="Bjølsen nordre" />
		<tag k="name" v="Nordre Bjølsen" />
		<tag k="place" v="farm" />
		<tag k="ssr:stedsnr" v="721667" />
	</node>
	<node id="-216623" lat="59.362638886" lon="10.7288888936">
		<tag k="name" v="Kirkerød" />
		<tag k="place" v="farm" />
		<tag k="ssr:stedsnr" v="721322" />
	</node>
	<node id="-216615" lat="59.3436277804" lon="10.7211166739">
		<tag k="name" v="Bjørndalen" />
		<tag k="place" v="locality" />
		<tag k="ssr:stedsnr" v="721036" />
	</node>
	<node id="-216613" lat="59.4346527818" lon="10.6284972276">
		<tag k="amenity" v="school" />
		<tag k="name" v="Hoppern skole" />
		<tag k="ssr:stedsnr" v="720883" />
	</node>
	<node id="-216610" lat="59.4077722264" lon="10.6870722281">
		<tag k="name" v="Bjerke" />
		<tag k="place" v="farm" />
		<tag k="ssr:stedsnr" v="720138" />
	</node>
	<node id="-216609" lat="59.4111638929" lon="10.6962972239">
		<tag k="name" v="Heimdal" />
		<tag k="place" v="locality" />
		<tag k="ssr:stedsnr" v="720137" />
	</node>
	<node id="-216606" lat="59.433261107" lon="10.7027222213">
		<tag k="name" v="Torbjørnsrød" />
>>>>>>> e1d4bc35ff8a6074a6f2e91616a996b547c36f15
		<tag k="place" v="farm" />
		<tag k="ssr:stedsnr" v="608995" />
	</node>
<<<<<<< HEAD
	<node lat="59.41407777531614" lon="10.698186113311401" id="-17182">
		<tag k="fixme" v="consider place=hamlet" />
		<tag k="name" v="Årvoll" />
		<tag k="place" v="farm" />
		<tag k="ssr:stedsnr" v="2968" />
	</node>
	<node lat="59.487961109451795" lon="10.776950004564679" id="-17185">
		<tag k="name" v="Kolsrød" />
		<tag k="place" v="farm" />
		<tag k="ssr:stedsnr" v="3653" />
	</node>
	<node lat="59.40688610733223" lon="10.6965055471694" id="-17204">
		<tag k="fixme" v="consider place=suburb, village or hamlet" />
		<tag k="name" v="Dilling" />
		<tag k="place" v="quarter" />
		<tag k="ssr:stedsnr" v="53933" />
	</node>
	<node lat="59.408307683597705" lon="10.699968300715248" id="-17205">
		<tag k="alt_name" v="Dilling søndre" />
		<tag k="fixme" v="consider place=hamlet" />
		<tag k="name" v="Søndre Dilling" />
		<tag k="place" v="farm" />
		<tag k="ssr:stedsnr" v="53934" />
	</node>
	<node lat="59.38701485045282" lon="10.784663371424871" id="-17207">
		<tag k="alt_name" v="Fredskjær vestre" />
		<tag k="fixme" v="consider place=hamlet" />
		<tag k="name" v="Vestre Fredskjær" />
		<tag k="place" v="farm" />
		<tag k="ssr:stedsnr" v="54730" />
	</node>
	<node lat="59.39066111042447" lon="10.76445832885052" id="-17209">
		<tag k="name" v="Solbakken" />
		<tag k="place" v="farm" />
		<tag k="ssr:stedsnr" v="54791" />
	</node>
	<node lat="59.47213611221301" lon="10.694144450143176" id="-17214">
		<tag k="name" v="Skoleåsen" />
		<tag k="place" v="quarter" />
		<tag k="ssr:stedsnr" v="56647" />
	</node>
	<node lat="59.44546389211023" lon="10.675666667532829" id="-17215">
		<tag k="name" v="Verket" />
		<tag k="place" v="quarter" />
		<tag k="ssr:stedsnr" v="56909" />
	</node>
	<node lat="59.43853375930477" lon="10.632311116791946" id="-17216">
		<tag k="alt_name" v="Karlshus" />
		<tag k="name" v="Fjeldly" />
		<tag k="place" v="isolated_dwelling" />
		<tag k="ssr:stedsnr" v="60352" />
	</node>
	<node lat="59.41377499576792" lon="10.729744450226232" id="-17217">
		<tag k="name" v="Nesenga" />
		<tag k="place" v="farm" />
		<tag k="ssr:stedsnr" v="63347" />
	</node>
	<node lat="59.35292711003146" lon="10.752737965206062" id="-17218">
		<tag k="alt_name" v="Rossnes" />
		<tag k="name" v="Rosnes" />
		<tag k="place" v="hamlet" />
		<tag k="ssr:stedsnr" v="63519" />
	</node>
	<node lat="59.39813055726092" lon="10.652280553838478" id="-17219">
		<tag k="name" v="Strandbakken" />
		<tag k="place" v="farm" />
		<tag k="ssr:stedsnr" v="63539" />
	</node>
	<node lat="59.383507430702444" lon="10.703989393245303" id="-17222">
		<tag k="fixme" v="consider place=hamlet" />
		<tag k="name" v="Tøstad" />
		<tag k="place" v="farm" />
		<tag k="ssr:stedsnr" v="63554" />
	</node>
	<node lat="59.4470722265893" lon="10.613605560152697" id="-17223">
		<tag k="name" v="Refsnes" />
		<tag k="place" v="suburb" />
		<tag k="ssr:stedsnr" v="63960" />
	</node>
	<node lat="59.46870000135101" lon="10.69411110326148" id="-17224">
		<tag k="name" v="Nøkkeland" />
		<tag k="place" v="farm" />
		<tag k="ssr:stedsnr" v="63967" />
	</node>
	<node lat="59.416116668788966" lon="10.68774999499143" id="-17225">
		<tag k="name" v="Kvaen" />
		<tag k="place" v="farm" />
		<tag k="ssr:stedsnr" v="63974" />
	</node>
	<node lat="59.43321388609343" lon="10.681813893532695" id="-17232">
		<tag k="amenity" v="school" />
		<tag k="name" v="Krapfoss skole" />
		<tag k="ssr:stedsnr" v="113071" />
	</node>
	<node lat="59.466805556860585" lon="10.641691669927878" id="-17234">
		<tag k="name" v="Fuglevik" />
		<tag k="place" v="farm" />
		<tag k="ssr:stedsnr" v="113785" />
	</node>
	<node lat="59.32606944823975" lon="10.674055554343699" id="-17237">
		<tag k="amenity" v="school" />
		<tag k="name" v="Rørvik skole" />
		<tag k="ssr:stedsnr" v="114401" />
	</node>
	<node lat="59.37410555634071" lon="10.725600006656725" id="-17239">
		<tag k="name" v="Knapstad" />
		<tag k="place" v="farm" />
		<tag k="ssr:stedsnr" v="115350" />
	</node>
	<node lat="59.38254727089876" lon="10.706656749428316" id="-17240">
		<tag k="alt_name" v="Urstad nordre" />
		<tag k="fixme" v="consider place=hamlet" />
		<tag k="name" v="Nordre Urstad" />
		<tag k="place" v="farm" />
		<tag k="ssr:stedsnr" v="114926" />
	</node>
	<node lat="59.383541666528444" lon="10.679263882393087" id="-17241">
		<tag k="alt_name" v="Hasle vestre" />
		<tag k="name" v="Vestre Hasle" />
		<tag k="place" v="farm" />
		<tag k="ssr:stedsnr" v="114930" />
	</node>
	<node lat="59.35488611132865" lon="10.772366670231406" id="-17242">
		<tag k="name" v="Sarpeløkka" />
		<tag k="place" v="farm" />
		<tag k="ssr:stedsnr" v="115059" />
	</node>
	<node lat="59.38474166595603" lon="10.794891662333104" id="-17246">
		<tag k="name" v="Brekka" />
		<tag k="place" v="farm" />
		<tag k="ssr:stedsnr" v="115700" />
	</node>
	<node lat="59.46993611369373" lon="10.641894445636654" id="-17249">
		<tag k="name" v="Røre" />
		<tag k="place" v="farm" />
		<tag k="ssr:stedsnr" v="123968" />
	</node>
	<node lat="59.387746575836196" lon="10.732037089186754" id="-17250">
		<tag k="alt_name" v="Gipsen" />
		<tag k="fixme" v="consider place=hamlet" />
		<tag k="name" v="Gipsund" />
		<tag k="place" v="farm" />
		<tag k="ssr:stedsnr" v="123318" />
	</node>
	<node lat="59.39559149458787" lon="10.723792261195426" id="-17251">
		<tag k="fixme" v="consider place=hamlet" />
		<tag k="name" v="Såstad" />
		<tag k="place" v="farm" />
		<tag k="ssr:stedsnr" v="123326" />
	</node>
	<node lat="59.3901861099327" lon="10.756155563200762" id="-17252">
		<tag k="name" v="Nore" />
		<tag k="place" v="farm" />
		<tag k="ssr:stedsnr" v="123328" />
	</node>
	<node lat="59.40420439951305" lon="10.752323539821825" id="-17253">
		<tag k="fixme" v="consider place=hamlet" />
		<tag k="name" v="Kjellerød" />
		<tag k="place" v="farm" />
		<tag k="ssr:stedsnr" v="123339" />
	</node>
	<node lat="59.48723611285336" lon="10.658258335813628" id="-17256">
		<tag k="name" v="Renneflot" />
		<tag k="place" v="farm" />
		<tag k="ssr:stedsnr" v="124898" />
	</node>
	<node lat="59.38130833676554" lon="10.681688896885493" id="-17261">
		<tag k="name" v="Haug" />
		<tag k="place" v="farm" />
		<tag k="ssr:stedsnr" v="149984" />
	</node>
	<node lat="59.3451916687761" lon="10.714108325735877" id="-17266">
		<tag k="alt_name" v="Kubberød vestre" />
		<tag k="name" v="Vestre Kubberød" />
		<tag k="place" v="farm" />
		<tag k="ssr:stedsnr" v="174230" />
	</node>
	<node lat="59.329047222101146" lon="10.66808610938517" id="-17268">
		<tag k="name" v="Støtvig hotell" />
		<tag k="ssr:stedsnr" v="174472" />
		<tag k="tourism" v="hotel" />
	</node>
	<node lat="59.42291944044064" lon="10.704852771420187" id="-17269">
		<tag k="alt_name" v="Lillebog" />
		<tag k="name" v="Lillebaug" />
		<tag k="place" v="farm" />
		<tag k="ssr:stedsnr" v="175046" />
	</node>
	<node lat="59.375630559611736" lon="10.7647000072467" id="-17271">
		<tag k="name" v="Blomsholm" />
		<tag k="place" v="farm" />
		<tag k="ssr:stedsnr" v="175279" />
	</node>
	<node lat="59.37819843081307" lon="10.74344177465434" id="-17272">
		<tag k="alt_name" v="Rør nordre" />
		<tag k="fixme" v="consider place=hamlet" />
		<tag k="name" v="Nordre Rør" />
		<tag k="place" v="farm" />
		<tag k="ssr:stedsnr" v="175290" />
	</node>
	<node lat="59.36580364617547" lon="10.749181422156413" id="-17273">
		<tag k="alt_name" v="Ror nordre;Nordre Roer" />
		<tag k="fixme" v="consider place=hamlet" />
		<tag k="name" v="Nordre Ror" />
		<tag k="old_name" v="Roer, n" />
		<tag k="place" v="farm" />
		<tag k="ssr:stedsnr" v="175345" />
	</node>
	<node lat="59.3918916692433" lon="10.77044166271279" id="-17274">
		<tag k="name" v="Skauge" />
		<tag k="place" v="farm" />
		<tag k="ssr:stedsnr" v="175787" />
	</node>
	<node lat="59.39509444025608" lon="10.750899997593963" id="-17275">
		<tag k="name" v="Solstad" />
		<tag k="place" v="isolated_dwelling" />
		<tag k="ssr:stedsnr" v="175797" />
	</node>
	<node lat="59.362755555066876" lon="10.663141658219883" id="-17277">
		<tag k="name" v="Oppset" />
		<tag k="place" v="farm" />
		<tag k="ssr:stedsnr" v="179255" />
	</node>
	<node lat="59.463216667284556" lon="10.678011102814066" id="-17278">
		<tag k="name" v="Linnebaugen" />
		<tag k="place" v="farm" />
		<tag k="ssr:stedsnr" v="179249" />
	</node>
	<node lat="59.39867500312987" lon="10.736777774064553" id="-17279">
		<tag k="name" v="Gjønes" />
		<tag k="place" v="farm" />
		<tag k="ssr:stedsnr" v="184293" />
	</node>
	<node lat="59.396711111784974" lon="10.796352776121237" id="-17280">
		<tag k="alt_name" v="Fresjerbråten" />
		<tag k="name" v="Fredskjærbråten" />
		<tag k="place" v="farm" />
		<tag k="ssr:stedsnr" v="184302" />
	</node>
	<node lat="59.411197220794875" lon="10.76261388676206" id="-17281">
		<tag k="name" v="Nygård" />
		<tag k="place" v="farm" />
		<tag k="ssr:stedsnr" v="184319" />
	</node>
	<node lat="59.3772473675423" lon="10.741860494969675" id="-17282">
		<tag k="name" v="Rør" />
		<tag k="place" v="hamlet" />
		<tag k="ssr:stedsnr" v="184276" />
	</node>
	<node lat="59.38871189345561" lon="10.698005703665839" id="-17284">
		<tag k="alt_name" v="Lyby nordre" />
		<tag k="fixme" v="consider place=hamlet" />
		<tag k="name" v="Nordre Lyby" />
		<tag k="place" v="farm" />
		<tag k="ssr:stedsnr" v="184543" />
	</node>
	<node lat="59.35162426877249" lon="10.714231629971998" id="-17285">
		<tag k="name" v="Nærum" />
		<tag k="place" v="hamlet" />
		<tag k="ssr:stedsnr" v="184592" />
	</node>
	<node lat="59.47056666847625" lon="10.763100007881294" id="-17286">
		<tag k="name" v="Dalen" />
		<tag k="place" v="farm" />
		<tag k="ssr:stedsnr" v="184718" />
	</node>
	<node lat="59.426600000771074" lon="10.707977771042906" id="-17288">
		<tag k="alt_name" v="Storebaug" />
		<tag k="name" v="Storebog" />
		<tag k="place" v="farm" />
		<tag k="ssr:stedsnr" v="184997" />
	</node>
	<node lat="59.42646666731642" lon="10.598624998427093" id="-17289">
		<tag k="name" v="Rød" />
		<tag k="place" v="farm" />
		<tag k="ssr:stedsnr" v="184978" />
	</node>
	<node lat="59.40714444337836" lon="10.689877775656743" id="-17296">
		<tag k="amenity" v="school" />
		<tag k="name" v="Ekholt ungdomsskole" />
		<tag k="ssr:stedsnr" v="295104" />
	</node>
	<node lat="59.32872499696201" lon="10.713716660571517" id="-17298">
		<tag k="alt_name" v="Sildebaugen søndre" />
		<tag k="name" v="Søndre Sildebaugen" />
		<tag k="place" v="farm" />
		<tag k="ssr:stedsnr" v="295418" />
	</node>
	<node lat="59.49525277856247" lon="10.663527775227053" id="-17300">
		<tag k="name" v="Kongshavn" />
		<tag k="place" v="farm" />
		<tag k="ssr:stedsnr" v="295868" />
	</node>
	<node lat="59.38410555804401" lon="10.659716665118047" id="-17303">
		<tag k="building" v="industrial" />
		<tag k="industrial" v="factory" />
		<tag k="name" v="Fuglevik renseanlegg" />
		<tag k="ssr:stedsnr" v="296097" />
	</node>
	<node lat="59.359490537012874" lon="10.722092476110284" id="-17307">
		<tag k="fixme" v="consider place=hamlet" />
		<tag k="name" v="Skogen" />
		<tag k="place" v="farm" />
		<tag k="ssr:stedsnr" v="297314" />
	</node>
	<node lat="59.40398480414333" lon="10.65824446331619" id="-17308">
		<tag k="alt_name" v="Dyre søndre" />
		<tag k="fixme" v="consider place=hamlet" />
		<tag k="name" v="Søndre Dyre" />
		<tag k="place" v="farm" />
		<tag k="ssr:stedsnr" v="296764" />
	</node>
	<node lat="59.39225833635136" lon="10.687180558012109" id="-17309">
		<tag k="name" v="Ek" />
		<tag k="place" v="farm" />
		<tag k="ssr:stedsnr" v="296886" />
	</node>
	<node lat="59.387458331098394" lon="10.708933340696522" id="-17310">
		<tag k="name" v="Solberg" />
		<tag k="place" v="farm" />
		<tag k="ssr:stedsnr" v="296913" />
	</node>
	<node lat="59.38682222047127" lon="10.69008054702032" id="-17311">
		<tag k="name" v="Vesterås" />
		<tag k="place" v="farm" />
		<tag k="ssr:stedsnr" v="296930" />
	</node>
	<node lat="59.35526111262685" lon="10.765208332462628" id="-17313">
		<tag k="alt_name" v="Molvik østre" />
		<tag k="name" v="Østre Molvik" />
		<tag k="place" v="farm" />
		<tag k="ssr:stedsnr" v="297063" />
	</node>
	<node lat="59.36754932276059" lon="10.726520387074313" id="-17315">
		<tag k="alt_name" v="Otterstad vestre" />
		<tag k="fixme" v="consider place=hamlet" />
		<tag k="name" v="Vestre Otterstad" />
		<tag k="place" v="farm" />
		<tag k="ssr:stedsnr" v="297336" />
	</node>
	<node lat="59.37137701501939" lon="10.727122743382557" id="-17316">
		<tag k="alt_name" v="Otterstad mellem" />
		<tag k="fixme" v="consider place=hamlet" />
		<tag k="name" v="Mellom-Otterstad" />
		<tag k="place" v="farm" />
		<tag k="ssr:stedsnr" v="297339" />
	</node>
	<node lat="59.35912777725409" lon="10.732175008080874" id="-17322">
		<tag k="alt_name" v="Mellem Kure;Kure midtre;Kure mellem" />
		<tag k="name" v="Mellom-Kure" />
		<tag k="place" v="farm" />
		<tag k="ssr:stedsnr" v="306235" />
	</node>
	<node lat="59.357955555216854" lon="10.76274444426226" id="-17323">
		<tag k="alt_name" v="Molvik nordre" />
		<tag k="name" v="Nordre Molvik" />
		<tag k="place" v="farm" />
		<tag k="ssr:stedsnr" v="306236" />
	</node>
	<node lat="59.37956388708917" lon="10.720525002789156" id="-17324">
		<tag k="name" v="Prestegården" />
		<tag k="place" v="farm" />
		<tag k="ssr:stedsnr" v="306278" />
	</node>
	<node lat="59.388549157249976" lon="10.72492116179455" id="-17325">
		<tag k="alt_name" v="Bjølsund" />
		<tag k="fixme" v="consider place=hamlet" />
		<tag k="name" v="Bjølsen" />
		<tag k="place" v="farm" />
		<tag k="ssr:stedsnr" v="306286" />
	</node>
	<node lat="59.40336790238694" lon="10.690749008339937" id="-17326">
		<tag k="fixme" v="consider place=hamlet" />
		<tag k="name" v="Krokstad" />
		<tag k="place" v="farm" />
		<tag k="ssr:stedsnr" v="306480" />
	</node>
	<node lat="59.39527275883634" lon="10.686295243383986" id="-17327">
		<tag k="fixme" v="consider place=hamlet" />
		<tag k="name" v="Grystad" />
		<tag k="place" v="farm" />
		<tag k="ssr:stedsnr" v="306491" />
	</node>
	<node lat="59.38891616888389" lon="10.701962809065703" id="-17330">
		<tag k="alt_name" v="Løken søndre" />
		<tag k="fixme" v="consider place=hamlet" />
		<tag k="name" v="Søndre Løken" />
		<tag k="place" v="farm" />
		<tag k="ssr:stedsnr" v="330244" />
	</node>
	<node lat="59.43323333405221" lon="10.6300861147328" id="-17331">
		<tag k="alt_name" v="Hoppern" />
		<tag k="name" v="Hopperen" />
		<tag k="place" v="suburb" />
		<tag k="ssr:stedsnr" v="331838" />
	</node>
	<node lat="59.43482500018649" lon="10.63911943850046" id="-17337">
		<tag k="amenity" v="school" />
		<tag k="name" v="Liljedalen skole" />
		<tag k="ssr:stedsnr" v="355073" />
	</node>
	<node lat="59.47981944561502" lon="10.696630559117045" id="-17339">
		<tag k="name" v="Kambo" />
		<tag k="place" v="farm" />
		<tag k="ssr:stedsnr" v="355751" />
	</node>
	<node lat="59.43338055143894" lon="10.639066659195985" id="-17341">
		<tag k="name" v="Helgerød" />
		<tag k="place" v="farm" />
		<tag k="ssr:stedsnr" v="355881" />
	</node>
	<node lat="59.38713333520321" lon="10.69946388692118" id="-17347">
		<tag k="alt_name" v="Lyby mellem" />
		<tag k="name" v="Mellom-Lyby" />
		<tag k="place" v="farm" />
		<tag k="ssr:stedsnr" v="356932" />
	</node>
	<node lat="59.4012748474438" lon="10.70182377280908" id="-17349">
		<tag k="alt_name" v="Dilling nordre" />
		<tag k="fixme" v="consider place=hamlet" />
		<tag k="name" v="Nordre Dilling" />
		<tag k="place" v="farm" />
		<tag k="ssr:stedsnr" v="356882" />
	</node>
	<node lat="59.40063055614616" lon="10.69138333538207" id="-17350">
		<tag k="name" v="Nymark" />
		<tag k="place" v="farm" />
		<tag k="ssr:stedsnr" v="356885" />
	</node>
	<node lat="59.4072643384639" lon="10.722603514120593" id="-17352">
		<tag k="name" v="Enerli" />
		<tag k="place" v="isolated_dwelling" />
		<tag k="ssr:stedsnr" v="357867" />
	</node>
	<node lat="59.42797777340236" lon="10.631594445695278" id="-17353">
		<tag k="amenity" v="nursing_home" />
		<tag k="name" v="Bråten" />
		<tag k="ssr:stedsnr" v="359169" />
	</node>
	<node lat="59.43205832991413" lon="10.620169446055861" id="-17356">
		<tag k="name" v="Reier" />
		<tag k="place" v="farm" />
		<tag k="ssr:stedsnr" v="366998" />
	</node>
	<node lat="59.40827675769997" lon="10.71223594320886" id="-17358">
		<tag k="fixme" v="consider place=hamlet" />
		<tag k="name" v="Dramstad" />
		<tag k="place" v="farm" />
		<tag k="ssr:stedsnr" v="366522" />
	</node>
	<node lat="59.331955553395176" lon="10.66687499436097" id="-17359">
		<tag k="name" v="Larkollen" />
		<tag k="place" v="village" />
		<tag k="ssr:stedsnr" v="366612" />
	</node>
	<node lat="59.32229096340084" lon="10.700135903440763" id="-17360">
		<tag k="alt_name" v="Salbohuset" />
		<tag k="fixme" v="consider place=hamlet" />
		<tag k="name" v="Salbuhuset" />
		<tag k="place" v="farm" />
		<tag k="ssr:stedsnr" v="366619" />
	</node>
	<node lat="59.45224999951527" lon="10.698436103514323" id="-17361">
		<tag k="fixme" v="multiple name tags, choose one and add the other to alt_name" />
		<tag k="name" v="Solbakken;Lauersbakken" />
		<tag k="place" v="farm" />
		<tag k="ssr:stedsnr" v="366945" />
	</node>
	<node lat="59.47910707615511" lon="10.634564390420302" id="-17362">
		<tag k="name" v="Nes" />
		<tag k="place" v="hamlet" />
		<tag k="ssr:stedsnr" v="366894" />
	</node>
	<node lat="59.476894442753924" lon="10.778772222711414" id="-17363">
		<tag k="name" v="Enderød" />
		<tag k="place" v="farm" />
		<tag k="ssr:stedsnr" v="367690" />
	</node>
	<node lat="59.46974444274139" lon="10.651416670015303" id="-17367">
		<tag k="alt_name" v="Skallerød nedre;Søndre Skallerød" />
		<tag k="name" v="Nedre Skallerød" />
		<tag k="place" v="farm" />
		<tag k="ssr:stedsnr" v="416756" />
	</node>
	<node lat="59.353155234506985" lon="10.713124828783457" id="-17370">
		<tag k="alt_name" v="Nærum nordre" />
		<tag k="fixme" v="consider place=hamlet" />
		<tag k="name" v="Nordre Nærum" />
		<tag k="place" v="farm" />
		<tag k="ssr:stedsnr" v="417233" />
	</node>
	<node lat="59.37705279594212" lon="10.667282452707875" id="-17371">
		<tag k="fixme" v="consider place=hamlet" />
		<tag k="name" v="Klosterbakke" />
		<tag k="place" v="farm" />
		<tag k="ssr:stedsnr" v="417066" />
	</node>
	<node lat="59.356845044375824" lon="10.763895324173184" id="-17372">
		<tag k="alt_name" v="Mølvik" />
		<tag k="name" v="Molvik" />
		<tag k="place" v="hamlet" />
		<tag k="ssr:stedsnr" v="418032" />
	</node>
	<node lat="59.40251667017023" lon="10.714766668493763" id="-17373">
		<tag k="name" v="Soleng" />
		<tag k="place" v="farm" />
		<tag k="ssr:stedsnr" v="417917" />
	</node>
	<node lat="59.36890838378503" lon="10.772438225567024" id="-17374">
		<tag k="alt_name" v="Eskelund øvre" />
		<tag k="fixme" v="consider place=hamlet" />
		<tag k="name" v="Øvre Eskelund" />
		<tag k="place" v="farm" />
		<tag k="ssr:stedsnr" v="418252" />
	</node>
	<node lat="59.3884162132837" lon="10.785106220469887" id="-17375">
		<tag k="alt_name" v="Fredskjær østre" />
		<tag k="fixme" v="consider place=hamlet" />
		<tag k="name" v="Østre Fredskjær" />
		<tag k="place" v="farm" />
		<tag k="ssr:stedsnr" v="418701" />
	</node>
	<node lat="59.393861112869764" lon="10.767108325711684" id="-17377">
		<tag k="name" v="Berg" />
		<tag k="place" v="farm" />
		<tag k="ssr:stedsnr" v="418756" />
	</node>
	<node lat="59.39112500137062" lon="10.768022214362288" id="-17378">
		<tag k="name" v="Østli" />
		<tag k="place" v="farm" />
		<tag k="ssr:stedsnr" v="418761" />
	</node>
	<node lat="59.3922583364936" lon="10.766724995942548" id="-17379">
		<tag k="name" v="Rådeskogen" />
		<tag k="place" v="hamlet" />
		<tag k="ssr:stedsnr" v="418764" />
	</node>
	<node lat="59.43143333312262" lon="10.651808335775879" id="-17380">
		<tag k="leisure" v="park" />
		<tag k="name" v="Sjøbadet" />
		<tag k="ssr:stedsnr" v="420198" />
	</node>
	<node lat="59.444319440854834" lon="10.62402221910045" id="-17381">
		<tag k="name" v="Refsnesskogen" />
		<tag k="place" v="quarter" />
		<tag k="ssr:stedsnr" v="420220" />
	</node>
	<node lat="59.36704444236229" lon="10.662963883463783" id="-17382">
		<tag k="name" v="Fillekken" />
		<tag k="place" v="farm" />
		<tag k="ssr:stedsnr" v="422230" />
	</node>
	<node lat="59.40970833056886" lon="10.770719451733267" id="-17383">
		<tag k="alt_name" v="Gamleng" />
		<tag k="name" v="Gammeleng" />
		<tag k="place" v="farm" />
		<tag k="ssr:stedsnr" v="427347" />
	</node>
	<node lat="59.3897083365033" lon="10.717447216936334" id="-17384">
		<tag k="name" v="Østereng" />
		<tag k="place" v="farm" />
		<tag k="ssr:stedsnr" v="427534" />
	</node>
	<node lat="59.35346244675474" lon="10.73249826946442" id="-17386">
		<tag k="name" v="Melleby" />
		<tag k="place" v="farm" />
		<tag k="ssr:stedsnr" v="427500" />
	</node>
	<node lat="59.49044812277186" lon="10.702567207016306" id="-17387">
		<tag k="name" v="Rykkin" />
		<tag k="place" v="farm" />
		<tag k="ssr:stedsnr" v="427896" />
	</node>
	<node lat="59.44726667028276" lon="10.687922223820198" id="-17388">
		<tag k="name" v="Granli" />
		<tag k="place" v="farm" />
		<tag k="ssr:stedsnr" v="427951" />
	</node>
	<node lat="59.436300004221636" lon="10.596272215662973" id="-17392">
		<tag k="name" v="Vangen" />
		<tag k="place" v="farm" />
		<tag k="ssr:stedsnr" v="538793" />
	</node>
	<node lat="59.43943888991438" lon="10.669286117016867" id="-17394">
		<tag k="building" v="commercial" />
		<tag k="name" v="Konventionsgården" />
		<tag k="ssr:stedsnr" v="538040" />
	</node>
	<node lat="59.40993055465803" lon="10.666705556526525" id="-17396">
		<tag k="amenity" v="nursing_home" />
		<tag k="name" v="Ryggeheimen" />
		<tag k="ssr:stedsnr" v="538136" />
	</node>
	<node lat="59.32984999559018" lon="10.681061111244675" id="-17398">
		<tag k="name" v="Skogli" />
		<tag k="place" v="farm" />
		<tag k="ssr:stedsnr" v="538439" />
	</node>
	<node lat="59.35644166853652" lon="10.759675006596064" id="-17403">
		<tag k="name" v="Holkemyr" />
		<tag k="place" v="farm" />
		<tag k="ssr:stedsnr" v="539037" />
	</node>
	<node lat="59.40406944115711" lon="10.757933330660595" id="-17404">
		<tag k="alt_name" v="Kjellerød østre" />
		<tag k="name" v="Østre Kjellerød" />
		<tag k="place" v="farm" />
		<tag k="ssr:stedsnr" v="539835" />
	</node>
	<node lat="59.39923055384952" lon="10.728705556729349" id="-17408">
		<tag k="name" v="Moserød" />
		<tag k="place" v="farm" />
		<tag k="ssr:stedsnr" v="548332" />
	</node>
	<node lat="59.39983333181277" lon="10.709786112518461" id="-17411">
		<tag k="name" v="Holter" />
		<tag k="place" v="farm" />
		<tag k="ssr:stedsnr" v="548531" />
	</node>
	<node lat="59.391420075899575" lon="10.701019774067964" id="-17412">
		<tag k="alt_name" v="Løken østre" />
		<tag k="fixme" v="consider place=hamlet" />
		<tag k="name" v="Østre Løken" />
		<tag k="place" v="farm" />
		<tag k="ssr:stedsnr" v="548535" />
	</node>
	<node lat="59.38759167045081" lon="10.665638889167957" id="-17413">
		<tag k="name" v="Ekeby" />
		<tag k="place" v="farm" />
		<tag k="ssr:stedsnr" v="548546" />
	</node>
	<node lat="59.306825000126956" lon="10.682975004249617" id="-17415">
		<tag k="name" v="Signes" />
		<tag k="place" v="isolated_dwelling" />
		<tag k="ssr:stedsnr" v="548642" />
	</node>
	<node lat="59.446916664056154" lon="10.715811117562637" id="-17418">
		<tag k="alt_name" v="Nore;Nore nordre" />
		<tag k="name" v="Nordre Nore" />
		<tag k="place" v="farm" />
		<tag k="ssr:stedsnr" v="548949" />
	</node>
	<node lat="59.36009394719336" lon="10.71157728824559" id="-17425">
		<tag k="alt_name" v="Opstad øvre" />
		<tag k="fixme" v="consider place=hamlet" />
		<tag k="name" v="Øvre Opstad" />
		<tag k="place" v="farm" />
		<tag k="ssr:stedsnr" v="599024" />
	</node>
	<node lat="59.36086111064763" lon="10.710411109073865" id="-17426">
		<tag k="alt_name" v="Opstad mellem" />
		<tag k="name" v="Mellom-Opstad" />
		<tag k="place" v="farm" />
		<tag k="ssr:stedsnr" v="599025" />
	</node>
	<node lat="59.329236108768626" lon="10.712424996551892" id="-17430">
		<tag k="alt_name" v="Sildebaugen nordre" />
		<tag k="name" v="Nordre Sildebaugen" />
		<tag k="place" v="farm" />
		<tag k="ssr:stedsnr" v="598397" />
	</node>
	<node lat="59.446353306093364" lon="10.650900284134346" id="-17435">
		<tag k="alt_name" v="Rosnes" />
		<tag k="fixme" v="consider place=hamlet" />
		<tag k="name" v="Rossnes" />
		<tag k="place" v="farm" />
		<tag k="ssr:stedsnr" v="599184" />
	</node>
	<node lat="59.38304722061104" lon="10.790033340253348" id="-17437">
		<tag k="alt_name" v="Søgård vestre" />
		<tag k="name" v="Vestre Søgård" />
		<tag k="place" v="farm" />
		<tag k="ssr:stedsnr" v="599734" />
	</node>
	<node lat="59.38683610945341" lon="10.777747218869033" id="-17438">
		<tag k="alt_name" v="Utne østre" />
		<tag k="name" v="Østre Utne" />
		<tag k="place" v="farm" />
		<tag k="ssr:stedsnr" v="599737" />
	</node>
	<node lat="59.339288887005615" lon="10.663577772193332" id="-17441">
		<tag k="alt_name" v="Pusterom" />
		<tag k="name" v="Pusterum" />
		<tag k="place" v="farm" />
		<tag k="ssr:stedsnr" v="599871" />
	</node>
	<node lat="59.39615000260699" lon="10.666680554531942" id="-17442">
		<tag k="name" v="Oakhill" />
		<tag k="place" v="farm" />
		<tag k="ssr:stedsnr" v="599878" />
	</node>
	<node lat="59.35370555299129" lon="10.748116665434457" id="-17443">
		<tag k="alt_name" v="Rosnes vestre" />
		<tag k="name" v="Vestre Rosnes" />
		<tag k="place" v="farm" />
		<tag k="ssr:stedsnr" v="600217" />
	</node>
	<node lat="59.405638889939716" lon="10.718358341997686" id="-17444">
		<tag k="name" v="Vesleng" />
		<tag k="place" v="farm" />
		<tag k="ssr:stedsnr" v="600869" />
	</node>
	<node lat="59.37811388878484" lon="10.764530561137232" id="-17445">
		<tag k="name" v="Rygge hageby" />
		<tag k="place" v="quarter" />
		<tag k="ssr:stedsnr" v="600282" />
	</node>
	<node lat="59.39429444280346" lon="10.73198054671548" id="-17448">
		<tag k="building" v="civic" />
		<tag k="name" v="Rygge brannstasjon" />
		<tag k="ssr:stedsnr" v="600679" />
	</node>
	<node lat="59.39350173620912" lon="10.721016936678888" id="-17449">
		<tag k="alt_name" v="Såstad østre" />
		<tag k="name" v="Østre Såstad" />
		<tag k="place" v="farm" />
		<tag k="ssr:stedsnr" v="600793" />
	</node>
	<node lat="59.433261106998" lon="10.702722221333449" id="-17453">
		<tag k="name" v="Torbjørnsrød" />
		<tag k="place" v="farm" />
		<tag k="ssr:stedsnr" v="608995" />
	</node>
	<node lat="59.36064929845962" lon="10.710042433333697" id="-17455">
		<tag k="name" v="Oppstad" />
		<tag k="place" v="hamlet" />
		<tag k="ssr:stedsnr" v="608613" />
	</node>
	<node lat="59.448886109417366" lon="10.634944435896566" id="-17456">
		<tag k="name" v="Høyenholm" />
		<tag k="place" v="farm" />
		<tag k="ssr:stedsnr" v="608966" />
	</node>
	<node lat="59.36995390376342" lon="10.727186329510792" id="-17458">
		<tag k="name" v="Otterstad" />
		<tag k="place" v="hamlet" />
		<tag k="ssr:stedsnr" v="609263" />
	</node>
	<node lat="59.403086115469755" lon="10.707625004056867" id="-17459">
		<tag k="name" v="Marienlund" />
		<tag k="place" v="farm" />
		<tag k="ssr:stedsnr" v="609475" />
	</node>
	<node lat="59.40577935750344" lon="10.662459729516723" id="-17460">
		<tag k="name" v="Dyre" />
		<tag k="place" v="hamlet" />
		<tag k="ssr:stedsnr" v="609477" />
	</node>
	<node lat="59.42414999958132" lon="10.669413882885715" id="-17467">
		<tag k="leisure" v="park" />
		<tag k="name" v="Melløsparken" />
		<tag k="ssr:stedsnr" v="658067" />
	</node>
	<node lat="59.43231943998063" lon="10.668300000236234" id="-17468">
		<tag k="amenity" v="school" />
		<tag k="name" v="Bytårnet skole" />
		<tag k="ssr:stedsnr" v="658072" />
	</node>
	<node lat="59.45378333064313" lon="10.694213895028957" id="-17469">
		<tag k="amenity" v="school" />
		<tag k="name" v="Grindvold skole" />
		<tag k="ssr:stedsnr" v="658073" />
	</node>
	<node lat="59.48450555506923" lon="10.68842500704783" id="-17471">
		<tag k="name" v="Kulpe" />
		<tag k="place" v="isolated_dwelling" />
		<tag k="ssr:stedsnr" v="658765" />
	</node>
	<node lat="59.47788611356302" lon="10.633155556520348" id="-17473">
		<tag k="alt_name" v="Nes vestre" />
		<tag k="name" v="Vestre Nes" />
		<tag k="place" v="farm" />
		<tag k="ssr:stedsnr" v="658771" />
	</node>
	<node lat="59.42949444677123" lon="10.630311116953925" id="-17474">
		<tag k="amenity" v="school" />
		<tag k="name" v="Reier skole" />
		<tag k="ssr:stedsnr" v="658870" />
	</node>
	<node lat="59.41871389302115" lon="10.748452772574458" id="-17475">
		<tag k="name" v="Sørpa" />
		<tag k="place" v="locality" />
		<tag k="ssr:stedsnr" v="659327" />
	</node>
	<node lat="59.41871389302115" lon="10.748452772574458" id="-17476">
		<tag k="name" v="Vestre Sørpa" />
		<tag k="place" v="locality" />
		<tag k="ssr:stedsnr" v="659329" />
	</node>
	<node lat="59.333013886260304" lon="10.671724995471125" id="-17477">
		<tag k="amenity" v="school" />
		<tag k="name" v="Larkollen skole" />
		<tag k="ssr:stedsnr" v="659419" />
	</node>
	<node lat="59.37939186873523" lon="10.711011823788068" id="-17486">
		<tag k="name" v="Urstad" />
		<tag k="place" v="hamlet" />
		<tag k="ssr:stedsnr" v="669567" />
	</node>
	<node lat="59.404792328284856" lon="10.720705279771309" id="-17487">
		<tag k="fixme" v="consider place=hamlet" />
		<tag k="name" v="Fiulstad" />
		<tag k="place" v="farm" />
		<tag k="ssr:stedsnr" v="669289" />
	</node>
	<node lat="59.39514722525905" lon="10.762808340615456" id="-17488">
		<tag k="name" v="Huseby" />
		<tag k="place" v="farm" />
		<tag k="ssr:stedsnr" v="670298" />
	</node>
	<node lat="59.46224999941672" lon="10.650927770773334" id="-17489">
		<tag k="name" v="Kjellandsvik" />
		<tag k="place" v="farm" />
		<tag k="ssr:stedsnr" v="669956" />
	</node>
	<node lat="59.470660260743216" lon="10.6495571522189" id="-17490">
		<tag k="fixme" v="consider place=hamlet" />
		<tag k="name" v="Skallerød" />
		<tag k="place" v="farm" />
		<tag k="ssr:stedsnr" v="669961" />
	</node>
	<node lat="59.34468021906014" lon="10.71464586555745" id="-17492">
		<tag k="fixme" v="consider place=hamlet" />
		<tag k="name" v="Kubberød" />
		<tag k="place" v="farm" />
		<tag k="ssr:stedsnr" v="670559" />
	</node>
	<node lat="59.463380557984856" lon="10.69679444639878" id="-17495">
		<tag k="amenity" v="school" />
		<tag k="name" v="Steinerskolen" />
		<tag k="ssr:stedsnr" v="719065" />
	</node>
	<node lat="59.41116389286747" lon="10.696297223928333" id="-17497">
		<tag k="name" v="Heimdal" />
		<tag k="place" v="locality" />
		<tag k="ssr:stedsnr" v="720137" />
	</node>
	<node lat="59.40777222640669" lon="10.687072228117819" id="-17498">
		<tag k="name" v="Bjerke" />
		<tag k="place" v="farm" />
		<tag k="ssr:stedsnr" v="720138" />
	</node>
	<node lat="59.43465278182434" lon="10.628497227580805" id="-17501">
		<tag k="amenity" v="school" />
		<tag k="name" v="Hoppern skole" />
		<tag k="ssr:stedsnr" v="720883" />
	</node>
	<node lat="59.343627780364955" lon="10.721116673909828" id="-17502">
		<tag k="name" v="Bjørndalen" />
		<tag k="place" v="locality" />
		<tag k="ssr:stedsnr" v="721036" />
	</node>
	<node lat="59.36263888604569" lon="10.728888893620413" id="-17510">
		<tag k="name" v="Kirkerød" />
		<tag k="place" v="farm" />
		<tag k="ssr:stedsnr" v="721322" />
	</node>
	<node lat="59.39168055825097" lon="10.728694444480395" id="-17514">
		<tag k="alt_name" v="Bjølsen nordre" />
		<tag k="name" v="Nordre Bjølsen" />
		<tag k="place" v="farm" />
		<tag k="ssr:stedsnr" v="721667" />
	</node>
	<node lat="59.386319879350964" lon="10.723801988078476" id="-17518">
		<tag k="alt_name" v="Bjølsen søndre" />
		<tag k="name" v="Søndre Bjølsen" />
		<tag k="place" v="farm" />
		<tag k="ssr:stedsnr" v="730287" />
	</node>
	<node lat="59.38276253628889" lon="10.660651112464363" id="-17519">
		<tag k="fixme" v="consider place=hamlet" />
		<tag k="name" v="Gunnarsby" />
		<tag k="place" v="farm" />
		<tag k="ssr:stedsnr" v="730599" />
	</node>
	<node lat="59.33690833453522" lon="10.709041664526616" id="-17520">
		<tag k="name" v="Orefellen" />
		<tag k="place" v="farm" />
		<tag k="ssr:stedsnr" v="730646" />
	</node>
	<node lat="59.444281305935554" lon="10.70541798139276" id="-17521">
		<tag k="alt_name" v="Solgård" />
		<tag k="name" v="Patterød" />
		<tag k="place" v="farm" />
		<tag k="ssr:stedsnr" v="730948" />
	</node>
	<node lat="59.427700002402574" lon="10.66911389628362" id="-17527">
		<tag k="amenity" v="school" />
		<tag k="name" v="Malakoff videregående skole" />
		<tag k="ssr:stedsnr" v="780077" />
	</node>
	<node lat="59.4314277734622" lon="10.646499996638907" id="-17528">
		<tag k="name" v="Fiske" />
		<tag k="place" v="suburb" />
		<tag k="ssr:stedsnr" v="780873" />
	</node>
	<node lat="59.37738336663529" lon="10.710545442603914" id="-17532">
		<tag k="alt_name" v="Urstad søndre" />
		<tag k="fixme" v="consider place=hamlet" />
		<tag k="name" v="Søndre Urstad" />
		<tag k="place" v="farm" />
		<tag k="ssr:stedsnr" v="781084" />
	</node>
	<node lat="59.39401111052265" lon="10.760477772599469" id="-17539">
=======
	<node id="-216605" lat="59.4488861094" lon="10.6349444359">
		<tag k="name" v="Høyenholm" />
		<tag k="place" v="farm" />
		<tag k="ssr:stedsnr" v="608966" />
	</node>
	<node id="-216604" lat="59.4345919165" lon="10.6000253821">
		<tag k="alt_name" v="Kaseløkka" />
		<tag k="name" v="Charlottenborg" />
		<tag k="place" v="farm" />
		<tag k="ssr:stedsnr" v="608956" />
	</node>
	<node id="-216603" lat="59.3606055538" lon="10.7100583363">
		<tag k="fixme" v="consider place=hamlet" />
		<tag k="name" v="Oppstad" />
		<tag k="place" v="farm" />
		<tag k="ssr:stedsnr" v="608613" />
	</node>
	<node id="-216602" lat="59.463380558" lon="10.6967944464">
		<tag k="amenity" v="school" />
		<tag k="name" v="Steinerskolen" />
		<tag k="ssr:stedsnr" v="719065" />
	</node>
	<node id="-216597" lat="59.3608611106" lon="10.7104111091">
		<tag k="alt_name" v="Opstad mellem" />
		<tag k="name" v="Mellom-Opstad" />
		<tag k="place" v="farm" />
		<tag k="ssr:stedsnr" v="599025" />
	</node>
	<node id="-216596" lat="59.3593333369" lon="10.7124638918">
		<tag k="alt_name" v="Opstad øvre" />
		<tag k="name" v="Øvre Opstad" />
		<tag k="place" v="farm" />
		<tag k="ssr:stedsnr" v="599024" />
	</node>
	<node id="-216589" lat="59.3928277813" lon="10.7677944437">
		<tag k="name" v="Grønli" />
		<tag k="place" v="farm" />
		<tag k="ssr:stedsnr" v="539763" />
	</node>
	<node id="-216588" lat="59.4040694412" lon="10.7579333307">
		<tag k="alt_name" v="Kjellerød østre" />
		<tag k="name" v="Østre Kjellerød" />
		<tag k="place" v="farm" />
		<tag k="ssr:stedsnr" v="539835" />
	</node>
	<node id="-216586" lat="59.3564416685" lon="10.7596750066">
		<tag k="name" v="Holkemyr" />
		<tag k="place" v="farm" />
		<tag k="ssr:stedsnr" v="539037" />
	</node>
	<node id="-216584" lat="59.3525638865" lon="10.6916305562">
		<tag k="name" v="Dalen" />
		<tag k="place" v="farm" />
		<tag k="ssr:stedsnr" v="539021" />
	</node>
	<node id="-216583" lat="59.4133361072" lon="10.6630138904">
		<tag k="name" v="Bjerke" />
		<tag k="place" v="quarter" />
		<tag k="ssr:stedsnr" v="539003" />
	</node>
	<node id="-216582" lat="59.4363000042" lon="10.5962722157">
		<tag k="name" v="Vangen" />
		<tag k="place" v="farm" />
		<tag k="ssr:stedsnr" v="538793" />
	</node>
	<node id="-216580" lat="59.4303666665" lon="10.6734055541">
		<tag k="name" v="Klommesten" />
		<tag k="place" v="suburb" />
		<tag k="ssr:stedsnr" v="538015" />
	</node>
	<node id="-216573" lat="59.3806111076" lon="10.7451722222">
		<tag k="amenity" v="sports_centre" />
		<tag k="name" v="Ryggehallen" />
		<tag k="ssr:stedsnr" v="478719" />
	</node>
	<node id="-216571" lat="59.366575" lon="10.7655500045">
		<tag k="alt_name" v="Eskelund nedre" />
		<tag k="name" v="Nedre Eskelund" />
		<tag k="place" v="farm" />
		<tag k="ssr:stedsnr" v="478274" />
	</node>
	<node id="-216570" lat="59.375975001" lon="10.7173694404">
		<tag k="alt_name" v="Fløgstad nordre" />
		<tag k="name" v="Nordre Fløgstad" />
		<tag k="place" v="farm" />
		<tag k="ssr:stedsnr" v="478069" />
	</node>
	<node id="-216569" lat="59.419194442" lon="10.681683339">
		<tag k="name" v="Høyden" />
		<tag k="place" v="quarter" />
		<tag k="ssr:stedsnr" v="477824" />
	</node>
	<node id="-216566" lat="59.4093388916" lon="10.6827083404">
		<tag k="alt_name" v="Ekholt vestre" />
		<tag k="name" v="Vestre Ekholt" />
		<tag k="place" v="farm" />
		<tag k="ssr:stedsnr" v="477105" />
	</node>
	<node id="-216562" lat="59.3446277753" lon="10.7147583363">
		<tag k="fixme" v="consider place=hamlet" />
		<tag k="name" v="Kubberød" />
		<tag k="place" v="farm" />
		<tag k="ssr:stedsnr" v="670559" />
	</node>
	<node id="-216561" lat="59.3951472253" lon="10.7628083406">
		<tag k="name" v="Huseby" />
		<tag k="place" v="farm" />
		<tag k="ssr:stedsnr" v="670298" />
	</node>
	<node id="-216558" lat="59.4701055525" lon="10.6513750049">
		<tag k="fixme" v="consider place=hamlet" />
		<tag k="name" v="Skallerød" />
		<tag k="place" v="farm" />
		<tag k="ssr:stedsnr" v="669961" />
	</node>
	<node id="-216557" lat="59.4622499994" lon="10.6509277708">
		<tag k="name" v="Kjellandsvik" />
		<tag k="place" v="farm" />
		<tag k="ssr:stedsnr" v="669956" />
	</node>
	<node id="-216554" lat="59.3690861096" lon="10.6752611187">
		<tag k="name" v="Evje" />
		<tag k="place" v="farm" />
		<tag k="ssr:stedsnr" v="669581" />
	</node>
	<node id="-216553" lat="59.3766416662" lon="10.7113972235">
		<tag k="fixme" v="consider place=hamlet" />
		<tag k="name" v="Urstad" />
		<tag k="place" v="farm" />
		<tag k="ssr:stedsnr" v="669567" />
	</node>
	<node id="-216552" lat="59.4038527806" lon="10.7213305527">
		<tag k="name" v="Fiulstad" />
		<tag k="place" v="farm" />
		<tag k="ssr:stedsnr" v="669289" />
	</node>
	<node id="-216551" lat="59.3854706799" lon="10.7938795717">
		<tag k="alt_name" v="Øgården" />
		<tag k="name" v="Fredskjærøgård" />
		<tag k="place" v="farm" />
		<tag k="ssr:stedsnr" v="670287" />
	</node>
	<node id="-216550" lat="59.3894805568" lon="10.76610555">
		<tag k="name" v="Sørli" />
		<tag k="place" v="farm" />
		<tag k="ssr:stedsnr" v="670285" />
	</node>
	<node id="-216545" lat="59.3987138886" lon="10.7680666649">
		<tag k="leisure" v="pitch" />
		<tag k="name" v="Tangenbakken" />
		<tag k="ssr:stedsnr" v="660770" />
	</node>
	<node id="-216544" lat="59.3991194404" lon="10.7568500073">
		<tag k="alt_name" v="Huggenes østre" />
		<tag k="name" v="Østre Huggenes" />
		<tag k="place" v="farm" />
		<tag k="ssr:stedsnr" v="660768" />
	</node>
	<node id="-216541" lat="59.3478416665" lon="10.7094222282">
		<tag k="name" v="Østli" />
		<tag k="place" v="farm" />
		<tag k="ssr:stedsnr" v="660183" />
	</node>
	<node id="-216538" lat="59.4382833298" lon="10.7411388823">
		<tag k="name" v="Elverhøy" />
		<tag k="place" v="isolated_dwelling" />
		<tag k="ssr:stedsnr" v="660083" />
	</node>
	<node id="-216536" lat="59.4021222232" lon="10.6597166698">
		<tag k="name" v="Lille Baug" />
		<tag k="place" v="farm" />
		<tag k="ssr:stedsnr" v="659790" />
	</node>
	<node id="-216535" lat="59.418713893" lon="10.7484527726">
		<tag k="name" v="Vestre Sørpa" />
		<tag k="place" v="locality" />
		<tag k="ssr:stedsnr" v="659329" />
	</node>
	<node id="-216534" lat="59.418713893" lon="10.7484527726">
		<tag k="name" v="Sørpa" />
		<tag k="place" v="locality" />
		<tag k="ssr:stedsnr" v="659327" />
	</node>
	<node id="-216531" lat="59.4778861136" lon="10.6331555565">
		<tag k="alt_name" v="Nes vestre" />
		<tag k="name" v="Vestre Nes" />
		<tag k="place" v="farm" />
		<tag k="ssr:stedsnr" v="658771" />
	</node>
	<node id="-216529" lat="59.4845055551" lon="10.688425007">
		<tag k="name" v="Kulpe" />
		<tag k="place" v="isolated_dwelling" />
		<tag k="ssr:stedsnr" v="658765" />
	</node>
	<node id="-216528" lat="59.4097083306" lon="10.7707194517">
		<tag k="alt_name" v="Gamleng" />
		<tag k="name" v="Gammeleng" />
		<tag k="place" v="farm" />
		<tag k="ssr:stedsnr" v="427347" />
	</node>
	<node id="-216526" lat="59.4443194409" lon="10.6240222191">
		<tag k="name" v="Refsnesskogen" />
		<tag k="place" v="quarter" />
		<tag k="ssr:stedsnr" v="420220" />
	</node>
	<node id="-216521" lat="59.3564000004" lon="10.7620833342">
		<tag k="alt_name" v="Mølvik" />
		<tag k="fixme" v="consider place=hamlet" />
		<tag k="name" v="Molvik" />
		<tag k="place" v="farm" />
		<tag k="ssr:stedsnr" v="418032" />
	</node>
	<node id="-216520" lat="59.4263527784" lon="10.5885222154">
		<tag k="name" v="Kasekilden" />
		<tag k="place" v="farm" />
		<tag k="ssr:stedsnr" v="417802" />
	</node>
	<node id="-216519" lat="59.4025166702" lon="10.7147666685">
		<tag k="name" v="Soleng" />
		<tag k="place" v="farm" />
		<tag k="ssr:stedsnr" v="417917" />
	</node>
	<node id="-216517" lat="59.3529666675" lon="10.7131444381">
		<tag k="alt_name" v="Nærum nordre" />
		<tag k="name" v="Nordre Nærum" />
		<tag k="place" v="farm" />
		<tag k="ssr:stedsnr" v="417233" />
	</node>
	<node id="-216511" lat="59.3876895726" lon="10.7849708685">
		<tag k="name" v="Fredskjær" />
		<tag k="place" v="hamlet" />
		<tag k="ssr:stedsnr" v="366291" />
	</node>
	<node id="-216510" lat="59.4279777734" lon="10.6315944457">
		<tag k="amenity" v="nursing_home" />
		<tag k="name" v="Bråten" />
		<tag k="ssr:stedsnr" v="359169" />
	</node>
	<node id="-216509" lat="59.3923888933" lon="10.7998750075">
		<tag k="name" v="Bjerkebakke" />
		<tag k="place" v="locality" />
		<tag k="ssr:stedsnr" v="357708" />
	</node>
	<node id="-216507" lat="59.4110638866" lon="10.6791111097">
		<tag k="amenity" v="school" />
		<tag k="name" v="Ekholt skole" />
		<tag k="ssr:stedsnr" v="356124" />
	</node>
	<node id="-216506" lat="59.3352607648" lon="10.6498529603">
		<tag k="name" v="Kollen" />
		<tag k="place" v="isolated_dwelling" />
		<tag k="ssr:stedsnr" v="356102" />
	</node>
	<node id="-216504" lat="59.4722583334" lon="10.7736666738">
		<tag k="name" v="Sundet" />
		<tag k="place" v="farm" />
		<tag k="ssr:stedsnr" v="488694" />
	</node>
	<node id="-216501" lat="59.3968055562" lon="10.6919500053">
		<tag k="name" v="Fredheim" />
		<tag k="place" v="farm" />
		<tag k="ssr:stedsnr" v="488492" />
	</node>
	<node id="-216500" lat="59.4031611071" lon="10.6727555585">
		<tag k="name" v="Carlberg" />
		<tag k="place" v="farm" />
		<tag k="ssr:stedsnr" v="488481" />
	</node>
	<node id="-216497" lat="59.3504777775" lon="10.700788891">
		<tag k="fixme" v="consider place=hamlet" />
		<tag k="name" v="Bråtu" />
		<tag k="place" v="farm" />
		<tag k="ssr:stedsnr" v="487627" />
	</node>
	<node id="-216496" lat="59.404980553" lon="10.7746777759">
		<tag k="name" v="Kilen" />
		<tag k="place" v="farm" />
		<tag k="ssr:stedsnr" v="487323" />
	</node>
	<node id="-216495" lat="59.3901361138" lon="10.7756250048">
		<tag k="fixme" v="consider place=hamlet" />
		<tag k="name" v="Utne" />
		<tag k="place" v="farm" />
		<tag k="ssr:stedsnr" v="487315" />
	</node>
	<node id="-216494" lat="59.3962027782" lon="10.7441555517">
		<tag k="name" v="Støa" />
		<tag k="place" v="farm" />
		<tag k="ssr:stedsnr" v="487313" />
	</node>
	<node id="-216492" lat="59.4353361113" lon="10.6479055518">
		<tag k="name" v="Moss verft" />
		<tag k="place" v="quarter" />
		<tag k="ssr:stedsnr" v="480135" />
	</node>
	<node id="-216490" lat="59.3892694473" lon="10.7008361026">
		<tag k="alt_name" v="Løken søndre" />
		<tag k="name" v="Søndre Løken" />
		<tag k="place" v="farm" />
		<tag k="ssr:stedsnr" v="330244" />
	</node>
	<node id="-216489" lat="59.3827972256" lon="10.7026972155">
		<tag k="alt_name" v="Tøstad øvre" />
		<tag k="name" v="Øvre Tøstad" />
		<tag k="place" v="farm" />
		<tag k="ssr:stedsnr" v="478910" />
	</node>
	<node id="-216487" lat="59.3821249969" lon="10.7931361079">
		<tag k="alt_name" v="Søgård østre" />
		<tag k="name" v="Østre Søgård" />
		<tag k="place" v="farm" />
		<tag k="ssr:stedsnr" v="478739" />
	</node>
	<node id="-216485" lat="59.3914250007" lon="10.7883083347">
		<tag k="name" v="Sandli" />
		<tag k="place" v="farm" />
		<tag k="ssr:stedsnr" v="478728" />
	</node>
	<node id="-216484" lat="59.3764861115" lon="10.7391499961">
		<tag k="alt_name" v="Rør vestre" />
		<tag k="name" v="Vestre Rør" />
		<tag k="place" v="farm" />
		<tag k="ssr:stedsnr" v="478291" />
	</node>
	<node id="-216483" lat="59.3861111106" lon="10.6566611175">
		<tag k="alt_name" v="Fuglevik mellem" />
		<tag k="name" v="Mellom-Fuglevik" />
		<tag k="place" v="hamlet" />
		<tag k="ssr:stedsnr" v="478108" />
	</node>
	<node id="-216480" lat="59.3659138929" lon="10.6892499954">
		<tag k="alt_name" v="Pålsrød vestre" />
		<tag k="name" v="Vestre Pålsrød" />
		<tag k="place" v="farm" />
		<tag k="ssr:stedsnr" v="478029" />
	</node>
	<node id="-216476" lat="59.3510222254" lon="10.6614416649">
		<tag k="alt_name" v="Botnermyra" />
		<tag k="name" v="Botnemyr" />
		<tag k="place" v="farm" />
		<tag k="ssr:stedsnr" v="477442" />
	</node>
	<node id="-216474" lat="59.4269472244" lon="10.6363583272">
		<tag k="name" v="Framnes" />
		<tag k="place" v="suburb" />
		<tag k="ssr:stedsnr" v="476888" />
	</node>
	<node id="-216472" lat="59.4716277759" lon="10.6495666678">
		<tag k="alt_name" v="Skallerød øvre" />
		<tag k="name" v="Øvre Skallerød" />
		<tag k="place" v="farm" />
		<tag k="ssr:stedsnr" v="476785" />
	</node>
	<node id="-216470" lat="59.4408888861" lon="10.6855805511">
		<tag k="fixme" v="consider place=suburb, village or hamlet" />
		<tag k="name" v="Gjerrebogen" />
		<tag k="place" v="quarter" />
		<tag k="ssr:stedsnr" v="476599" />
	</node>
	<node id="-216465" lat="59.4792777786" lon="10.6382722226">
		<tag k="alt_name" v="Nes østre" />
		<tag k="name" v="Østre Nes" />
		<tag k="place" v="farm" />
		<tag k="ssr:stedsnr" v="464340" />
	</node>
	<node id="-216457" lat="59.3728555521" lon="10.7257638863">
		<tag k="alt_name" v="Brua" />
		<tag k="name" v="Broen" />
		<tag k="place" v="farm" />
		<tag k="ssr:stedsnr" v="245269" />
	</node>
	<node id="-216456" lat="59.3664555531" lon="10.7631666655">
		<tag k="name" v="Pollen" />
		<tag k="place" v="farm" />
		<tag k="ssr:stedsnr" v="245261" />
	</node>
	<node id="-216451" lat="59.3952333342" lon="10.7356555626">
		<tag k="name" v="Pålebingen" />
		<tag k="place" v="quarter" />
		<tag k="ssr:stedsnr" v="297792" />
	</node>
	<node id="-216449" lat="59.3714194479" lon="10.7257444527">
		<tag k="alt_name" v="Otterstad mellem" />
		<tag k="name" v="Mellom-Otterstad" />
		<tag k="place" v="farm" />
		<tag k="ssr:stedsnr" v="297339" />
	</node>
	<node id="-216448" lat="59.367416666" lon="10.7260861181">
		<tag k="alt_name" v="Otterstad vestre" />
		<tag k="name" v="Vestre Otterstad" />
		<tag k="place" v="farm" />
		<tag k="ssr:stedsnr" v="297336" />
	</node>
	<node id="-216447" lat="59.3592416685" lon="10.722169451">
		<tag k="name" v="Skogen" />
		<tag k="place" v="farm" />
		<tag k="ssr:stedsnr" v="297314" />
	</node>
	<node id="-216445" lat="59.3552611126" lon="10.7652083325">
		<tag k="alt_name" v="Molvik østre" />
		<tag k="name" v="Østre Molvik" />
		<tag k="place" v="farm" />
		<tag k="ssr:stedsnr" v="297063" />
	</node>
	<node id="-216443" lat="59.3868222205" lon="10.690080547">
		<tag k="name" v="Vesterås" />
		<tag k="place" v="farm" />
		<tag k="ssr:stedsnr" v="296930" />
	</node>
	<node id="-216441" lat="59.3874583311" lon="10.7089333407">
		<tag k="name" v="Solberg" />
		<tag k="place" v="farm" />
		<tag k="ssr:stedsnr" v="296913" />
	</node>
	<node id="-216440" lat="59.3922583364" lon="10.687180558">
		<tag k="name" v="Ek" />
		<tag k="place" v="farm" />
		<tag k="ssr:stedsnr" v="296886" />
	</node>
	<node id="-216439" lat="59.4035916655" lon="10.6585555639">
		<tag k="alt_name" v="Dyre søndre" />
		<tag k="name" v="Søndre Dyre" />
		<tag k="place" v="farm" />
		<tag k="ssr:stedsnr" v="296764" />
	</node>
	<node id="-216435" lat="59.384105558" lon="10.6597166651">
		<tag k="building" v="industrial" />
		<tag k="industrial" v="factory" />
		<tag k="name" v="Fuglevik renseanlegg" />
		<tag k="ssr:stedsnr" v="296097" />
	</node>
	<node id="-216428" lat="59.4952527786" lon="10.6635277752">
		<tag k="name" v="Kongshavn" />
		<tag k="place" v="farm" />
		<tag k="ssr:stedsnr" v="295868" />
	</node>
	<node id="-216425" lat="59.436638887" lon="10.676799999">
		<tag k="leisure" v="park" />
		<tag k="name" v="Nesparken" />
		<tag k="ssr:stedsnr" v="295614" />
	</node>
	<node id="-216423" lat="59.328724997" lon="10.7137166606">
		<tag k="alt_name" v="Sildebaugen søndre" />
		<tag k="name" v="Søndre Sildebaugen" />
		<tag k="place" v="farm" />
		<tag k="ssr:stedsnr" v="295418" />
	</node>
	<node id="-216422" lat="59.4614722217" lon="10.7373027763">
		<tag k="name" v="Traphytta" />
		<tag k="place" v="isolated_dwelling" />
		<tag k="ssr:stedsnr" v="295221" />
	</node>
	<node id="-216420" lat="59.4071444434" lon="10.6898777757">
		<tag k="amenity" v="school" />
		<tag k="name" v="Ekholt ungdomsskole" />
		<tag k="ssr:stedsnr" v="295104" />
	</node>
	<node id="-216419" lat="59.4446666674" lon="10.678961117">
		<tag k="amenity" v="school" />
		<tag k="name" v="Verket skole" />
		<tag k="ssr:stedsnr" v="295075" />
	</node>
	<node id="-216415" lat="59.3627555551" lon="10.6631416582">
		<tag k="name" v="Oppset" />
		<tag k="place" v="farm" />
		<tag k="ssr:stedsnr" v="179255" />
	</node>
	<node id="-216410" lat="59.3776166628" lon="10.7503416742">
		<tag k="name" v="Rygge" />
		<tag k="place" v="village" />
		<tag k="ssr:stedsnr" v="270339" />
	</node>
	<node id="-216409" lat="59.4478499994" lon="10.7465166659">
		<tag k="alt_name" v="Vannum;Vanem" />
		<tag k="name" v="Vannem" />
		<tag k="place" v="farm" />
		<tag k="ssr:stedsnr" v="124315" />
	</node>
	<node id="-216408" lat="59.4037333345" lon="10.7532055527">
		<tag k="fixme" v="consider place=hamlet" />
		<tag k="name" v="Kjellerød" />
		<tag k="place" v="farm" />
		<tag k="ssr:stedsnr" v="123339" />
	</node>
	<node id="-216407" lat="59.3901861099" lon="10.7561555632">
		<tag k="name" v="Nore" />
		<tag k="place" v="farm" />
		<tag k="ssr:stedsnr" v="123328" />
	</node>
	<node id="-216406" lat="59.3955914946" lon="10.7237922612">
		<tag k="fixme" v="consider place=hamlet" />
		<tag k="name" v="Såstad" />
		<tag k="place" v="farm" />
		<tag k="ssr:stedsnr" v="123326" />
	</node>
	<node id="-216405" lat="59.3871944402" lon="10.7326694372">
		<tag k="alt_name" v="Gipsen" />
		<tag k="name" v="Gipsund" />
		<tag k="place" v="farm" />
		<tag k="ssr:stedsnr" v="123318" />
	</node>
	<node id="-216404" lat="59.3721388921" lon="10.7793833389">
		<tag k="building" v="industrial" />
		<tag k="industrial" v="factory" />
		<tag k="name" v="Utne sag" />
		<tag k="ssr:stedsnr" v="123313" />
	</node>
	<node id="-216399" lat="59.3819777749" lon="10.7070555556">
		<tag k="alt_name" v="Urstad nordre" />
		<tag k="name" v="Nordre Urstad" />
		<tag k="place" v="farm" />
		<tag k="ssr:stedsnr" v="114926" />
	</node>
	<node id="-216396" lat="59.3931166667" lon="10.6511388852">
		<tag k="alt_name" v="Fuglevik nordre" />
		<tag k="name" v="Nordre Fuglevik" />
		<tag k="place" v="hamlet" />
		<tag k="ssr:stedsnr" v="114102" />
	</node>
	<node id="-216393" lat="59.42950556" lon="10.682336118">
		<tag k="name" v="Ørehavna" />
		<tag k="place" v="suburb" />
		<tag k="ssr:stedsnr" v="114025" />
	</node>
	<node id="-216383" lat="59.4526749978" lon="10.7094694463">
		<tag k="alt_name" v="Noreødegård" />
		<tag k="name" v="Noreødegården" />
		<tag k="place" v="farm" />
		<tag k="ssr:stedsnr" v="245954" />
	</node>
	<node id="-216382" lat="59.4484583343" lon="10.6900777803">
		<tag k="name" v="Grindvoll" />
		<tag k="place" v="farm" />
		<tag k="ssr:stedsnr" v="245948" />
	</node>
	<node id="-216381" lat="59.3221833347" lon="10.6870277741">
		<tag k="name" v="Solstad" />
		<tag k="place" v="farm" />
		<tag k="ssr:stedsnr" v="245592" />
	</node>
	<node id="-216380" lat="59.3195361148" lon="10.6847361093">
		<tag k="alt_name" v="Ammundrød" />
		<tag k="name" v="Amundrød" />
		<tag k="place" v="farm" />
		<tag k="ssr:stedsnr" v="245591" />
	</node>
	<node id="-216379" lat="59.3268935733" lon="10.6802686417">
		<tag k="name" v="Rørvik" />
		<tag k="place" v="farm" />
		<tag k="ssr:stedsnr" v="245589" />
	</node>
	<node id="-216377" lat="59.3730166643" lon="10.692191666">
		<tag k="name" v="Balke" />
		<tag k="place" v="farm" />
		<tag k="ssr:stedsnr" v="245549" />
	</node>
	<node id="-216376" lat="59.4022500011" lon="10.6530777692">
		<tag k="alt_name" v="Feste mellem;Mellem Feste" />
		<tag k="name" v="Mellom-Feste" />
		<tag k="place" v="farm" />
		<tag k="ssr:stedsnr" v="245490" />
	</node>
	<node id="-216375" lat="59.3801528971" lon="10.6774932991">
		<tag k="fixme" v="consider place=hamlet" />
		<tag k="name" v="Hasle" />
		<tag k="place" v="farm" />
		<tag k="ssr:stedsnr" v="245528" />
	</node>
	<node id="-216374" lat="59.3545749971" lon="10.773405554">
		<tag k="name" v="Sarpebakken" />
		<tag k="place" v="farm" />
		<tag k="ssr:stedsnr" v="245238" />
	</node>
	<node id="-216370" lat="59.3981305573" lon="10.6522805538">
		<tag k="name" v="Strandbakken" />
		<tag k="place" v="farm" />
		<tag k="ssr:stedsnr" v="63539" />
	</node>
	<node id="-216369" lat="59.3536071358" lon="10.7517445356">
		<tag k="alt_name" v="Rossnes" />
		<tag k="fixme" v="consider place=hamlet" />
		<tag k="name" v="Rosnes" />
		<tag k="place" v="farm" />
		<tag k="ssr:stedsnr" v="63519" />
	</node>
	<node id="-216368" lat="59.3263333313" lon="10.6953527705">
		<tag k="name" v="Tollefsrød" />
		<tag k="place" v="farm" />
		<tag k="ssr:stedsnr" v="63618" />
	</node>
	<node id="-216367" lat="59.335058336" lon="10.7157416701">
		<tag k="name" v="Hallingsås" />
		<tag k="place" v="farm" />
		<tag k="ssr:stedsnr" v="63615" />
	</node>
	<node id="-216360" lat="59.4207666704" lon="10.6711333281">
		<tag k="leisure" v="pitch" />
		<tag k="name" v="Melløs stadion" />
		<tag k="ssr:stedsnr" v="53807" />
	</node>
	<node id="-216359" lat="59.4071833318" lon="10.6615833396">
		<tag k="alt_name" v="Dyre nordre" />
		<tag k="fixme" v="consider place=hamlet" />
		<tag k="name" v="Nordre Dyre" />
		<tag k="place" v="farm" />
		<tag k="ssr:stedsnr" v="53804" />
	</node>
	<node id="-216358" lat="59.4235222227" lon="10.6643249992">
		<tag k="leisure" v="park" />
		<tag k="name" v="Gernerlunden" />
		<tag k="ssr:stedsnr" v="237288" />
	</node>
	<node id="-216357" lat="59.3317027736" lon="10.6690583245">
		<tag k="name" v="Solheim" />
		<tag k="place" v="farm" />
		<tag k="ssr:stedsnr" v="53420" />
	</node>
	<node id="-216352" lat="59.3944749979" lon="10.7554472147">
		<tag k="name" v="Vestheim" />
		<tag k="place" v="farm" />
		<tag k="ssr:stedsnr" v="236769" />
	</node>
	<node id="-216350" lat="59.388230558" lon="10.7729444422">
		<tag k="alt_name" v="Utne søndre" />
		<tag k="name" v="Søndre Utne" />
		<tag k="place" v="farm" />
		<tag k="ssr:stedsnr" v="236688" />
	</node>
	<node id="-216349" lat="59.3803472249" lon="10.7360027839">
		<tag k="name" v="Voll" />
		<tag k="place" v="farm" />
		<tag k="ssr:stedsnr" v="236681" />
	</node>
	<node id="-216348" lat="59.3651194431" lon="10.7489166584">
		<tag k="alt_name" v="Roer mellem;Mellem Roer" />
		<tag k="loc_name" v="Mellom-Ror" />
		<tag k="name" v="Mellom-Roer" />
		<tag k="old_name" v="Ror mellem;Roer, m;Ror midtre" />
		<tag k="place" v="farm" />
		<tag k="ssr:stedsnr" v="236333" />
	</node>
	<node id="-216347" lat="59.3686277786" lon="10.7269916637">
		<tag k="alt_name" v="Otterstad østre" />
		<tag k="name" v="Østre Otterstad" />
		<tag k="place" v="farm" />
		<tag k="ssr:stedsnr" v="236324" />
	</node>
	<node id="-216345" lat="59.3625444471" lon="10.7312416607">
		<tag k="name" v="Furuset" />
		<tag k="place" v="farm" />
		<tag k="ssr:stedsnr" v="236321" />
	</node>
	<node id="-216344" lat="59.3623249992" lon="10.7334638905">
		<tag k="alt_name" v="Kure nordre" />
		<tag k="name" v="Nedre Kure" />
		<tag k="place" v="farm" />
		<tag k="ssr:stedsnr" v="236314" />
	</node>
	<node id="-216343" lat="59.3594083378" lon="10.7668999988">
		<tag k="alt_name" v="Molvik nordre" />
		<tag k="name" v="Nordre Molvik" />
		<tag k="place" v="farm" />
		<tag k="ssr:stedsnr" v="236308" />
	</node>
	<node id="-216342" lat="59.3578305577" lon="10.7418388846">
		<tag k="name" v="Søndre Gulland" />
		<tag k="place" v="farm" />
		<tag k="ssr:stedsnr" v="236226" />
	</node>
	<node id="-216341" lat="59.3489611091" lon="10.7354027691">
		<tag k="alt_name" v="Kure vestre" />
		<tag k="name" v="Vestre Kure" />
		<tag k="place" v="farm" />
		<tag k="ssr:stedsnr" v="236060" />
	</node>
	<node id="-216339" lat="59.3841722239" lon="10.7061111038">
		<tag k="alt_name" v="Tøstad nedre" />
		<tag k="name" v="Nedre Tøstad" />
		<tag k="place" v="farm" />
		<tag k="ssr:stedsnr" v="235920" />
	</node>
	<node id="-216337" lat="59.4221138932" lon="10.6676027707">
		<tag k="amenity" v="school" />
		<tag k="name" v="Melløs skole" />
		<tag k="ssr:stedsnr" v="235791" />
	</node>
	<node id="-216334" lat="59.3676722189" lon="10.7766055518">
		<tag k="name" v="Bitten" />
		<tag k="place" v="farm" />
		<tag k="ssr:stedsnr" v="235342" />
	</node>
	<node id="-216333" lat="59.3656055536" lon="10.6957277851">
		<tag k="alt_name" v="Pålsrød østre" />
		<tag k="name" v="Østre Pålsrød" />
		<tag k="place" v="farm" />
		<tag k="ssr:stedsnr" v="235104" />
	</node>
	<node id="-216332" lat="59.3648416693" lon="10.6938083299">
		<tag k="alt_name" v="Pålsrød mellem" />
		<tag k="name" v="Mellom-Pålsrød" />
		<tag k="place" v="farm" />
		<tag k="ssr:stedsnr" v="235103" />
	</node>
	<node id="-216330" lat="59.3608361108" lon="10.6943833393">
		<tag k="name" v="Dalen" />
		<tag k="place" v="farm" />
		<tag k="ssr:stedsnr" v="235061" />
	</node>
	<node id="-216329" lat="59.3614666672" lon="10.7108305579">
		<tag k="alt_name" v="Opstad nedre" />
		<tag k="name" v="Nedre Opstad" />
		<tag k="place" v="farm" />
		<tag k="ssr:stedsnr" v="235049" />
	</node>
	<node id="-216325" lat="59.4899583364" lon="10.6708416601">
		<tag k="name" v="Åpensand" />
		<tag k="place" v="isolated_dwelling" />
		<tag k="ssr:stedsnr" v="234876" />
	</node>
	<node id="-216322" lat="59.4182222178" lon="10.7496444518">
		<tag k="alt_name" v="Sørpa østre" />
		<tag k="name" v="Østre Sørpa" />
		<tag k="place" v="locality" />
		<tag k="ssr:stedsnr" v="234313" />
	</node>
	<node id="-216319" lat="59.4260250023" lon="10.6792194495">
		<tag k="leisure" v="pitch" />
		<tag k="name" v="Ørejordet" />
		<tag k="ssr:stedsnr" v="234058" />
	</node>
	<node id="-216316" lat="59.4214694424" lon="10.767555564">
		<tag k="name" v="Kvernøyhuken" />
		<tag k="place" v="locality" />
		<tag k="ssr:stedsnr" v="223920" />
	</node>
	<node id="-216315" lat="59.4879611095" lon="10.7769500046">
		<tag k="name" v="Kolsrød" />
		<tag k="place" v="farm" />
		<tag k="ssr:stedsnr" v="3653" />
	</node>
	<node id="-217286" lat="59.4402258874" lon="10.756209327">
		<tag k="name" v="Havnahuken" />
		<tag k="place" v="locality" />
		<tag k="ssr:stedsnr" v="988108" />
	</node>
	<node id="-217285" lat="59.4302430445" lon="10.7310285037">
		<tag k="name" v="Grevlinghuken" />
		<tag k="place" v="locality" />
		<tag k="ssr:stedsnr" v="988107" />
	</node>
	<node id="-217278" lat="59.3497310158" lon="10.6948726648">
		<tag k="name" v="Sundby" />
		<tag k="place" v="farm" />
		<tag k="ssr:stedsnr" v="978125" />
	</node>
	<node id="-217277" lat="59.3349309202" lon="10.6641423075">
		<tag k="name" v="Drolshamar" />
		<tag k="place" v="isolated_dwelling" />
		<tag k="ssr:stedsnr" v="976110" />
	</node>
	<node id="-217276" lat="59.4586163185" lon="10.6964708908">
		<tag k="amenity" v="school" />
		<tag k="name" v="Åvangen skole" />
		<tag k="ssr:stedsnr" v="976102" />
	</node>
	<node id="-217272" lat="59.3936749992" lon="10.8062305617">
		<tag k="alt_name" v="Køia" />
		<tag k="name" v="Nordli" />
		<tag k="place" v="locality" />
		<tag k="ssr:stedsnr" v="964701" />
	</node>
	<node id="-217270" lat="59.3890694422" lon="10.7567166733">
		<tag k="name" v="Sande" />
		<tag k="place" v="farm" />
		<tag k="ssr:stedsnr" v="964678" />
	</node>
	<node id="-217269" lat="59.3553583328" lon="10.7540083336">
		<tag k="alt_name" v="Rosnes nordre" />
		<tag k="name" v="Nordre Rosnes" />
		<tag k="place" v="farm" />
		<tag k="ssr:stedsnr" v="964242" />
	</node>
	<node id="-217264" lat="59.3797638851" lon="10.6782861188">
		<tag k="alt_name" v="Hasle østre" />
		<tag k="name" v="Østre Hasle" />
		<tag k="place" v="farm" />
		<tag k="ssr:stedsnr" v="963942" />
	</node>
	<node id="-217261" lat="59.32790556" lon="10.6821250033">
		<tag k="name" v="Roth" />
		<tag k="place" v="farm" />
		<tag k="ssr:stedsnr" v="963448" />
	</node>
	<node id="-217259" lat="59.3501527796" lon="10.7124750077">
		<tag k="alt_name" v="Nærum søndre" />
		<tag k="name" v="Søndre Nærum" />
		<tag k="place" v="farm" />
		<tag k="ssr:stedsnr" v="963252" />
	</node>
	<node id="-217256" lat="59.4350944444" lon="10.6362388808">
		<tag k="name" v="Torderød" />
		<tag k="place" v="farm" />
		<tag k="ssr:stedsnr" v="962888" />
	</node>
	<node id="-217251" lat="59.4242000039" lon="10.6107333314">
		<tag k="name" v="Alby" />
		<tag k="place" v="farm" />
		<tag k="ssr:stedsnr" v="852986" />
	</node>
	<node id="-217248" lat="59.4240861087" lon="10.6803527764">
		<tag k="name" v="Øre" />
		<tag k="place" v="suburb" />
		<tag k="ssr:stedsnr" v="852981" />
	</node>
	<node id="-217247" lat="59.3767972198" lon="10.7041027731">
		<tag k="name" v="Navestad" />
		<tag k="place" v="farm" />
		<tag k="ssr:stedsnr" v="852544" />
	</node>
	<node id="-217245" lat="59.3860861101" lon="10.6998861167">
		<tag k="alt_name" v="Lyby søndre" />
		<tag k="name" v="Søndre Lyby" />
		<tag k="place" v="farm" />
		<tag k="ssr:stedsnr" v="852533" />
	</node>
	<node id="-217244" lat="59.3655136573" lon="10.7491780905">
		<tag k="alt_name" v="Ror nordre" />
		<tag k="name" v="Nordre Ror" />
		<tag k="place" v="farm" />
		<tag k="ssr:stedsnr" v="852286" />
	</node>
	<node id="-217243" lat="59.3679749965" lon="10.7727972234">
		<tag k="fixme" v="consider place=hamlet" />
		<tag k="name" v="Eskelund" />
		<tag k="place" v="farm" />
		<tag k="ssr:stedsnr" v="852285" />
	</node>
	<node id="-217242" lat="59.4112194424" lon="10.7634138915">
		<tag k="name" v="Nygård" />
		<tag k="place" v="farm" />
		<tag k="ssr:stedsnr" v="852284" />
	</node>
	<node id="-217241" lat="59.4778972218" lon="10.6615777691">
		<tag k="name" v="Kjørbukt" />
		<tag k="place" v="isolated_dwelling" />
		<tag k="ssr:stedsnr" v="845895" />
	</node>
	<node id="-217234" lat="59.3954439203" lon="10.7240981344">
		<tag k="name" v="Såstad" />
		<tag k="place" v="farm" />
		<tag k="ssr:stedsnr" v="843825" />
	</node>
	<node id="-217233" lat="59.3781277815" lon="10.7541083274">
		<tag k="name" v="Vårli" />
		<tag k="place" v="farm" />
		<tag k="ssr:stedsnr" v="843272" />
	</node>
	<node id="-217232" lat="59.3625694441" lon="10.7582861027">
		<tag k="alt_name" v="Ror østre;Østre Roer" />
		<tag k="name" v="Østre Ror" />
		<tag k="place" v="farm" />
		<tag k="ssr:stedsnr" v="843333" />
	</node>
	<node id="-217231" lat="59.3758638924" lon="10.7238750002">
		<tag k="name" v="Dyrhaug" />
		<tag k="place" v="farm" />
		<tag k="ssr:stedsnr" v="843327" />
	</node>
	<node id="-217230" lat="59.3562138865" lon="10.7612472269">
		<tag k="alt_name" v="Molvik vestre" />
		<tag k="name" v="Vestre Molvik" />
		<tag k="place" v="farm" />
		<tag k="ssr:stedsnr" v="843044" />
	</node>
	<node id="-217229" lat="59.4133888895" lon="10.6868583253">
		<tag k="name" v="Bråten" />
		<tag k="place" v="farm" />
		<tag k="ssr:stedsnr" v="843096" />
	</node>
	<node id="-217222" lat="59.3347222189" lon="10.7124194455">
		<tag k="name" v="Orefellen" />
		<tag k="place" v="farm" />
		<tag k="ssr:stedsnr" v="842388" />
	</node>
	<node id="-217219" lat="59.3798249959" lon="10.6776194453">
		<tag k="alt_name" v="Hasle vestre" />
		<tag k="name" v="Vestre Hasle" />
		<tag k="place" v="farm" />
		<tag k="ssr:stedsnr" v="842066" />
	</node>
	<node id="-217217" lat="59.4436111112" lon="10.6167388889">
		<tag k="name" v="Refsnes gods" />
		<tag k="ssr:stedsnr" v="841887" />
		<tag k="tourism" v="hotel" />
	</node>
	<node id="-217216" lat="59.493483331" lon="10.6670611182">
		<tag k="name" v="Hesteløkka" />
		<tag k="place" v="farm" />
		<tag k="ssr:stedsnr" v="841851" />
	</node>
	<node id="-217215" lat="59.3398472203" lon="10.6830694442">
		<tag k="alt_name" v="Støtvik store" />
		<tag k="name" v="Store Støtvik" />
		<tag k="place" v="farm" />
		<tag k="ssr:stedsnr" v="842196" />
	</node>
	<node id="-217214" lat="59.4634027751" lon="10.6909027821">
		<tag k="name" v="Åvangen" />
		<tag k="place" v="farm" />
		<tag k="ssr:stedsnr" v="842195" />
	</node>
	<node id="-217213" lat="59.4559444407" lon="10.627402782">
		<tag k="alt_name" v="Ramberg nordre" />
		<tag k="name" v="Nordre Ramberg" />
		<tag k="place" v="farm" />
		<tag k="ssr:stedsnr" v="842181" />
	</node>
	<node id="-217211" lat="59.4352472206" lon="10.6632250052">
		<tag k="amenity" v="school" />
		<tag k="name" v="Kirkeparken videregående skole" />
		<tag k="ssr:stedsnr" v="841079" />
	</node>
	<node id="-217210" lat="59.4264444435" lon="10.6320666588">
		<tag k="amenity" v="school" />
		<tag k="name" v="Jeløy folkehøgskole" />
		<tag k="ssr:stedsnr" v="841075" />
	</node>
	<node id="-217209" lat="59.3262999995" lon="10.6861416638">
		<tag k="name" v="Nasle" />
		<tag k="place" v="farm" />
		<tag k="ssr:stedsnr" v="817894" />
	</node>
	<node id="-217208" lat="59.3861111106" lon="10.6566611175">
		<tag k="name" v="Fuglevik" />
		<tag k="place" v="quarter" />
		<tag k="ssr:stedsnr" v="813095" />
	</node>
	<node id="-217206" lat="59.4546027798" lon="10.6254527848">
		<tag k="fixme" v="consider place=hamlet" />
		<tag k="name" v="Ramberg" />
		<tag k="place" v="farm" />
		<tag k="ssr:stedsnr" v="791963" />
	</node>
	<node id="-217205" lat="59.4645666625" lon="10.7568888929">
		<tag k="name" v="Gashus" />
		<tag k="place" v="farm" />
		<tag k="ssr:stedsnr" v="791714" />
	</node>
	<node id="-217203" lat="59.4779749995" lon="10.6433277852">
		<tag k="alt_name" v="Ås nordre" />
		<tag k="name" v="Nordre Ås" />
		<tag k="place" v="farm" />
		<tag k="ssr:stedsnr" v="791909" />
	</node>
	<node id="-217202" lat="59.3847333298" lon="10.6815944501">
		<tag k="name" v="Rød" />
		<tag k="place" v="farm" />
		<tag k="ssr:stedsnr" v="791521" />
	</node>
	<node id="-217199" lat="59.3470388875" lon="10.6865500086">
		<tag k="name" v="Buberg" />
		<tag k="place" v="farm" />
		<tag k="ssr:stedsnr" v="791569" />
	</node>
	<node id="-217198" lat="59.438805559" lon="10.7776888883">
		<tag k="name" v="Dillingøy" />
		<tag k="place" v="farm" />
		<tag k="ssr:stedsnr" v="791340" />
	</node>
	<node id="-217196" lat="59.4140944407" lon="10.7652027852">
		<tag k="name" v="Engene" />
		<tag k="place" v="farm" />
		<tag k="ssr:stedsnr" v="791308" />
	</node>
	<node id="-217195" lat="59.3623083292" lon="10.7334111181">
		<tag k="fixme" v="consider place=hamlet" />
		<tag k="name" v="Kure" />
		<tag k="place" v="farm" />
		<tag k="ssr:stedsnr" v="791257" />
	</node>
	<node id="-217194" lat="59.4008777768" lon="10.6993861119">
		<tag k="fixme" v="consider place=hamlet" />
		<tag k="name" v="Dilling" />
		<tag k="place" v="farm" />
		<tag k="ssr:stedsnr" v="791495" />
	</node>
	<node id="-217193" lat="59.400855557" lon="10.6520611087">
		<tag k="alt_name" v="Feste søndre" />
		<tag k="name" v="Søndre Feste" />
		<tag k="place" v="farm" />
		<tag k="ssr:stedsnr" v="791492" />
	</node>
	<node id="-217192" lat="59.4324944464" lon="10.650958325">
		<tag k="name" v="Vestre Kanalområde" />
		<tag k="place" v="suburb" />
		<tag k="ssr:stedsnr" v="784222" />
	</node>
	<node id="-217189" lat="59.3930527746" lon="10.7597416677">
		<tag k="name" v="Jonsrud" />
		<tag k="place" v="farm" />
		<tag k="ssr:stedsnr" v="782760" />
	</node>
	<node id="-217188" lat="59.3940111105" lon="10.7604777726">
>>>>>>> e1d4bc35ff8a6074a6f2e91616a996b547c36f15
		<tag k="name" v="Nordli" />
		<tag k="place" v="isolated_dwelling" />
		<tag k="ssr:stedsnr" v="782744" />
	</node>
<<<<<<< HEAD
	<node lat="59.38485034106121" lon="10.680753597509137" id="-17541">
		<tag k="fixme" v="consider place=hamlet" />
		<tag k="name" v="Rød" />
		<tag k="place" v="farm" />
		<tag k="ssr:stedsnr" v="791521" />
	</node>
	<node lat="59.454873144922885" lon="10.627382996187341" id="-17542">
		<tag k="fixme" v="consider place=hamlet" />
		<tag k="name" v="Ramberg" />
		<tag k="place" v="farm" />
		<tag k="ssr:stedsnr" v="791963" />
	</node>
	<node lat="59.34753004628109" lon="10.686398376369539" id="-17543">
		<tag k="fixme" v="consider place=hamlet" />
		<tag k="name" v="Buberg" />
		<tag k="place" v="farm" />
		<tag k="ssr:stedsnr" v="791569" />
	</node>
	<node lat="59.32629999953125" lon="10.686141663771325" id="-17546">
		<tag k="name" v="Nasle" />
		<tag k="place" v="farm" />
		<tag k="ssr:stedsnr" v="817894" />
	</node>
	<node lat="59.49348333096834" lon="10.667061118162406" id="-17549">
		<tag k="name" v="Hesteløkka" />
		<tag k="place" v="farm" />
		<tag k="ssr:stedsnr" v="841851" />
	</node>
	<node lat="59.38025366006782" lon="10.675947275049577" id="-17550">
		<tag k="alt_name" v="Hasle vestre" />
		<tag k="fixme" v="consider place=hamlet" />
		<tag k="name" v="Vestre Hasle" />
		<tag k="place" v="farm" />
		<tag k="ssr:stedsnr" v="842066" />
	</node>
	<node lat="59.376908540101105" lon="10.74507368117201" id="-17551">
		<tag k="alt_name" v="Rør søndre" />
		<tag k="fixme" v="consider place=hamlet" />
		<tag k="name" v="Søndre Rør" />
		<tag k="place" v="farm" />
		<tag k="ssr:stedsnr" v="842273" />
	</node>
	<node lat="59.4133888894866" lon="10.686858325299877" id="-17555">
		<tag k="name" v="Bråten" />
		<tag k="place" v="farm" />
		<tag k="ssr:stedsnr" v="843096" />
	</node>
	<node lat="59.35621388648151" lon="10.761247226927718" id="-17556">
		<tag k="alt_name" v="Molvik vestre" />
		<tag k="name" v="Vestre Molvik" />
		<tag k="place" v="farm" />
		<tag k="ssr:stedsnr" v="843044" />
	</node>
	<node lat="59.37812778150369" lon="10.754108327367156" id="-17557">
		<tag k="name" v="Vårli" />
		<tag k="place" v="farm" />
		<tag k="ssr:stedsnr" v="843272" />
	</node>
	<node lat="59.43524722062732" lon="10.663225005202442" id="-17562">
		<tag k="amenity" v="school" />
		<tag k="name" v="Kirkeparken videregående skole" />
		<tag k="ssr:stedsnr" v="841079" />
	</node>
	<node lat="59.36838850784998" lon="10.768637496369296" id="-17566">
		<tag k="name" v="Eskelund" />
		<tag k="place" v="hamlet" />
		<tag k="ssr:stedsnr" v="852285" />
	</node>
	<node lat="59.36551365730978" lon="10.749178090522658" id="-17567">
		<tag k="alt_name" v="Ror nordre" />
		<tag k="name" v="Nordre Ror" />
		<tag k="place" v="farm" />
		<tag k="ssr:stedsnr" v="852286" />
	</node>
	<node lat="59.3863572043351" lon="10.698596572471159" id="-17568">
		<tag k="alt_name" v="Lyby søndre" />
		<tag k="fixme" v="consider place=hamlet" />
		<tag k="name" v="Søndre Lyby" />
		<tag k="place" v="farm" />
		<tag k="ssr:stedsnr" v="852533" />
	</node>
	<node lat="59.37708823307856" lon="10.702370329724285" id="-17570">
		<tag k="fixme" v="consider place=hamlet" />
		<tag k="name" v="Navestad" />
		<tag k="place" v="farm" />
		<tag k="ssr:stedsnr" v="852544" />
	</node>
	<node lat="59.424086108734286" lon="10.68035277636636" id="-17571">
		<tag k="name" v="Øre" />
		<tag k="place" v="suburb" />
		<tag k="ssr:stedsnr" v="852981" />
	</node>
	<node lat="59.42420000389802" lon="10.610733331427426" id="-17573">
		<tag k="name" v="Alby" />
		<tag k="place" v="farm" />
		<tag k="ssr:stedsnr" v="852986" />
	</node>
	<node lat="59.46891944644557" lon="10.691477785318432" id="-17581">
		<tag k="amenity" v="school" />
		<tag k="name" v="Kambo skole" />
		<tag k="ssr:stedsnr" v="962069" />
	</node>
	<node lat="59.37661111464578" lon="10.663608330608028" id="-17584">
		<tag k="name" v="Villskog" />
		<tag k="place" v="farm" />
		<tag k="ssr:stedsnr" v="963070" />
	</node>
	<node lat="59.35063488783919" lon="10.712590275478965" id="-17587">
		<tag k="alt_name" v="Nærum søndre" />
		<tag k="fixme" v="consider place=hamlet" />
		<tag k="name" v="Søndre Nærum" />
		<tag k="place" v="farm" />
		<tag k="ssr:stedsnr" v="963252" />
	</node>
	<node lat="59.32790555997248" lon="10.682125003277903" id="-17589">
		<tag k="name" v="Roth" />
		<tag k="place" v="farm" />
		<tag k="ssr:stedsnr" v="963448" />
	</node>
	<node lat="59.33598946445727" lon="10.688552116362487" id="-17590">
		<tag k="alt_name" v="Støtvik søndre;Søndre Støtvik" />
		<tag k="fixme" v="consider place=hamlet" />
		<tag k="name" v="Nedre Støtvik" />
		<tag k="place" v="farm" />
		<tag k="ssr:stedsnr" v="963472" />
	</node>
	<node lat="59.39367499921655" lon="10.80623056170576" id="-17598">
		<tag k="alt_name" v="Køia" />
		<tag k="name" v="Nordli" />
		<tag k="place" v="locality" />
		<tag k="ssr:stedsnr" v="964701" />
	</node>
	<node lat="59.39169444316105" lon="10.767172229781204" id="-17599">
		<tag k="name" v="Sandbekk" />
		<tag k="place" v="farm" />
		<tag k="ssr:stedsnr" v="964762" />
	</node>
	<node lat="59.389069442190625" lon="10.75671667332462" id="-17600">
		<tag k="name" v="Sande" />
		<tag k="place" v="farm" />
		<tag k="ssr:stedsnr" v="964678" />
	</node>
	<node lat="59.4371999992981" lon="10.635194449187617" id="-17601">
		<tag k="name" v="Bellevue" />
		<tag k="place" v="suburb" />
		<tag k="ssr:stedsnr" v="965163" />
	</node>
	<node lat="59.342180581802246" lon="10.663467436147117" id="-17605">
		<tag k="name" v="Sjøholt" />
		<tag k="place" v="farm" />
		<tag k="ssr:stedsnr" v="971508" />
	</node>
	<node lat="59.342976722279474" lon="10.661511278106525" id="-17606">
		<tag k="name" v="Finnland" />
		<tag k="place" v="farm" />
		<tag k="ssr:stedsnr" v="971510" />
	</node>
	<node lat="59.45861631846443" lon="10.696470890844907" id="-17607">
		<tag k="amenity" v="school" />
		<tag k="name" v="Åvangen skole" />
		<tag k="ssr:stedsnr" v="976102" />
	</node>
	<node lat="59.476937223467324" lon="10.643452430911475" id="-17633">
		<tag k="name" v="Ås" />
		<tag k="place" v="hamlet" />
		<tag k="ssr:stedsnr" v="1077966" />
	</node>
	<node lat="59.38988240542823" lon="10.702076668314051" id="-17634">
		<tag k="name" v="Løken" />
		<tag k="place" v="hamlet" />
		<tag k="ssr:stedsnr" v="1078233" />
	</node>
	<node lat="59.387818555951284" lon="10.697931583470872" id="-17635">
		<tag k="name" v="Lyby" />
		<tag k="place" v="hamlet" />
		<tag k="ssr:stedsnr" v="1078234" />
	</node>
	<node lat="59.39303714422117" lon="10.664055683094409" id="-17636">
		<tag k="fixme" v="consider place=hamlet" />
		<tag k="name" v="Huseby" />
		<tag k="place" v="farm" />
		<tag k="ssr:stedsnr" v="1078252" />
	</node>
	<node lat="59.40385094559191" lon="10.653714106515329" id="-17637">
		<tag k="fixme" v="consider place=hamlet" />
		<tag k="name" v="Feste" />
		<tag k="place" v="farm" />
		<tag k="ssr:stedsnr" v="1078267" />
	</node>
	<node lat="59.37419893366978" lon="10.717302509436982" id="-17638">
		<tag k="fixme" v="consider place=hamlet" />
		<tag k="name" v="Fløgstad" />
		<tag k="place" v="farm" />
		<tag k="ssr:stedsnr" v="1078274" />
=======
	<node id="-217184" lat="59.3863361147" lon="10.7238444533">
		<tag k="name" v="Søndre Bjølsen" />
		<tag k="place" v="farm" />
		<tag k="ssr:stedsnr" v="782653" />
	</node>
	<node id="-217180" lat="59.3627722206" lon="10.7477916753">
		<tag k="alt_name" v="Søndre Roer;Ror søndre;Rør søndre" />
		<tag k="name" v="Søndre Ror" />
		<tag k="old_name" v="Roer, s" />
		<tag k="place" v="farm" />
		<tag k="ssr:stedsnr" v="782007" />
	</node>
	<node id="-217178" lat="59.4062861118" lon="10.6929527862">
		<tag k="amenity" v="townhall" />
		<tag k="name" v="Rygge rådhus" />
		<tag k="ssr:stedsnr" v="781917" />
	</node>
	<node id="-217173" lat="59.3235500043" lon="10.7027888967">
		<tag k="name" v="Sarpemyr" />
		<tag k="place" v="farm" />
		<tag k="ssr:stedsnr" v="781407" />
	</node>
	<node id="-217170" lat="59.3769694409" lon="10.7100972137">
		<tag k="alt_name" v="Urstad søndre" />
		<tag k="name" v="Søndre Urstad" />
		<tag k="place" v="farm" />
		<tag k="ssr:stedsnr" v="781084" />
	</node>
	<node id="-217168" lat="59.4328666634" lon="10.6864000013">
		<tag k="name" v="Krapfoss" />
		<tag k="place" v="suburb" />
		<tag k="ssr:stedsnr" v="781023" />
	</node>
	<node id="-217165" lat="59.4314277735" lon="10.6464999966">
		<tag k="name" v="Fiske" />
		<tag k="place" v="suburb" />
		<tag k="ssr:stedsnr" v="780873" />
	</node>
	<node id="-217163" lat="59.4277000024" lon="10.6691138963">
		<tag k="amenity" v="school" />
		<tag k="name" v="Malakoff videregående skole" />
		<tag k="ssr:stedsnr" v="780077" />
	</node>
	<node id="-217147" lat="59.4061591089" lon="10.6626066619">
		<tag k="name" v="Dyre" />
		<tag k="place" v="hamlet" />
		<tag k="ssr:stedsnr" v="609477" />
	</node>
	<node id="-217146" lat="59.4030861155" lon="10.7076250041">
		<tag k="name" v="Marienlund" />
		<tag k="place" v="farm" />
		<tag k="ssr:stedsnr" v="609475" />
	</node>
	<node id="-217145" lat="59.3699539038" lon="10.7271863295">
		<tag k="fixme" v="consider place=hamlet" />
		<tag k="name" v="Otterstad" />
		<tag k="place" v="farm" />
		<tag k="ssr:stedsnr" v="609263" />
	</node>
	<node id="-217137" lat="59.3942944428" lon="10.7319805467">
		<tag k="building" v="civic" />
		<tag k="name" v="Rygge brannstasjon" />
		<tag k="ssr:stedsnr" v="600679" />
	</node>
	<node id="-217136" lat="59.4056388899" lon="10.718358342">
		<tag k="name" v="Vesleng" />
		<tag k="place" v="farm" />
		<tag k="ssr:stedsnr" v="600869" />
	</node>
	<node id="-217135" lat="59.3935017362" lon="10.7210169367">
		<tag k="alt_name" v="Såstad østre" />
		<tag k="name" v="Østre Såstad" />
		<tag k="place" v="farm" />
		<tag k="ssr:stedsnr" v="600793" />
	</node>
	<node id="-217133" lat="59.3718290247" lon="10.7252085642">
		<tag k="fixme" v="consider place=hamlet" />
		<tag k="name" v="Ødegården" />
		<tag k="place" v="farm" />
		<tag k="ssr:stedsnr" v="600322" />
	</node>
	<node id="-217132" lat="59.3781138888" lon="10.7645305611">
		<tag k="name" v="Rygge hageby" />
		<tag k="place" v="quarter" />
		<tag k="ssr:stedsnr" v="600282" />
	</node>
	<node id="-217131" lat="59.353705553" lon="10.7481166654">
		<tag k="alt_name" v="Rosnes vestre" />
		<tag k="name" v="Vestre Rosnes" />
		<tag k="place" v="farm" />
		<tag k="ssr:stedsnr" v="600217" />
	</node>
	<node id="-217129" lat="59.3868361095" lon="10.7777472189">
		<tag k="alt_name" v="Utne østre" />
		<tag k="name" v="Østre Utne" />
		<tag k="place" v="farm" />
		<tag k="ssr:stedsnr" v="599737" />
	</node>
	<node id="-217128" lat="59.3830472206" lon="10.7900333403">
		<tag k="alt_name" v="Søgård vestre" />
		<tag k="name" v="Vestre Søgård" />
		<tag k="place" v="farm" />
		<tag k="ssr:stedsnr" v="599734" />
	</node>
	<node id="-217126" lat="59.3961500026" lon="10.6666805545">
		<tag k="name" v="Oakhill" />
		<tag k="place" v="farm" />
		<tag k="ssr:stedsnr" v="599878" />
	</node>
	<node id="-217125" lat="59.339288887" lon="10.6635777722">
		<tag k="name" v="Pusterom" />
		<tag k="old_name" v="Pusterum" />
		<tag k="place" v="farm" />
		<tag k="ssr:stedsnr" v="599871" />
	</node>
	<node id="-217124" lat="59.4456194418" lon="10.650630553">
		<tag k="alt_name" v="Rosnes" />
		<tag k="name" v="Rossnes" />
		<tag k="place" v="farm" />
		<tag k="ssr:stedsnr" v="599184" />
	</node>
	<node id="-217120" lat="59.3796222243" lon="10.7056694469">
		<tag k="name" v="Urstad" />
		<tag k="place" v="farm" />
		<tag k="ssr:stedsnr" v="599064" />
	</node>
	<node id="-217119" lat="59.3792777777" lon="10.6853388802">
		<tag k="name" v="Vang" />
		<tag k="place" v="farm" />
		<tag k="ssr:stedsnr" v="599061" />
	</node>
	<node id="-217115" lat="59.3292361088" lon="10.7124249966">
		<tag k="alt_name" v="Sildebaugen nordre" />
		<tag k="name" v="Nordre Sildebaugen" />
		<tag k="place" v="farm" />
		<tag k="ssr:stedsnr" v="598397" />
	</node>
	<node id="-217112" lat="59.4099527764" lon="10.6641861023">
		<tag k="name" v="Kvile" />
		<tag k="place" v="farm" />
		<tag k="ssr:stedsnr" v="598123" />
	</node>
	<node id="-217111" lat="59.4399111117" lon="10.6195444529">
		<tag k="amenity" v="school" />
		<tag k="name" v="Refsnes skole" />
		<tag k="ssr:stedsnr" v="598075" />
	</node>
	<node id="-217110" lat="59.4284777754" lon="10.6644083362">
		<tag k="name" v="Malakoff" />
		<tag k="place" v="suburb" />
		<tag k="ssr:stedsnr" v="598064" />
	</node>
	<node id="-217101" lat="59.3765972238" lon="10.7271166694">
		<tag k="name" v="Kirkegrenda" />
		<tag k="place" v="quarter" />
		<tag k="ssr:stedsnr" v="570101" />
	</node>
	<node id="-217098" lat="59.4469166641" lon="10.7158111176">
		<tag k="alt_name" v="Nore;Nore nordre" />
		<tag k="name" v="Nordre Nore" />
		<tag k="place" v="farm" />
		<tag k="ssr:stedsnr" v="548949" />
	</node>
	<node id="-217096" lat="59.3068250001" lon="10.6829750042">
		<tag k="name" v="Signes" />
		<tag k="place" v="isolated_dwelling" />
		<tag k="ssr:stedsnr" v="548642" />
	</node>
	<node id="-217093" lat="59.3215055518" lon="10.6565583329">
		<tag k="name" v="Ulke" />
		<tag k="place" v="farm" />
		<tag k="ssr:stedsnr" v="548608" />
	</node>
	<node id="-217091" lat="59.365213717" lon="10.6924631428">
		<tag k="fixme" v="consider place=hamlet" />
		<tag k="name" v="Pålsrød" />
		<tag k="place" v="farm" />
		<tag k="ssr:stedsnr" v="548570" />
	</node>
	<node id="-217090" lat="59.3875916705" lon="10.6656388892">
		<tag k="name" v="Ekeby" />
		<tag k="place" v="farm" />
		<tag k="ssr:stedsnr" v="548546" />
	</node>
	<node id="-217089" lat="59.3907277795" lon="10.7007000059">
		<tag k="alt_name" v="Løken østre" />
		<tag k="name" v="Østre Løken" />
		<tag k="place" v="farm" />
		<tag k="ssr:stedsnr" v="548535" />
>>>>>>> e1d4bc35ff8a6074a6f2e91616a996b547c36f15
	</node>
</osm>
