<?xml version="1.0" encoding="UTF-8"?>
<<<<<<< HEAD
<osm version="0.6" generator="osmapis">
	<node lat="59.44113333758772" lon="10.744955563769471" id="-16662">
		<tag k="fixme" v="consider natural=peak for the most distinct mountains in the district" />
		<tag k="name" v="Slaåsen" />
=======
<osm generator="osmapis" version="0.6">
	<node id="-216704" lat="59.322113891" lon="10.6965833334">
		<tag k="name" v="Ulvestua" />
		<tag k="natural" v="hill" />
		<tag k="place" v="locality" />
		<tag k="ssr:stedsnr" v="907174" />
	</node>
	<node id="-216831" lat="59.3308750023" lon="10.7066361129">
		<tag k="fixme" v="consider natural=peak for the most distinct mountains in the district" />
		<tag k="name" v="Bølås" />
		<tag k="natural" v="hill" />
		<tag k="place" v="locality" />
		<tag k="ssr:stedsnr" v="53439" />
	</node>
	<node id="-216830" lat="59.448850003" lon="10.7341333308">
		<tag k="fixme" v="consider natural=peak for the most distinct mountains in the district" />
		<tag k="name" v="Merraåsen" />
		<tag k="natural" v="hill" />
		<tag k="place" v="locality" />
		<tag k="ssr:stedsnr" v="53215" />
	</node>
	<node id="-216829" lat="59.4659555567" lon="10.7467638866">
		<tag k="fixme" v="consider natural=peak for the most distinct mountains in the district" />
		<tag k="name" v="Svartås" />
		<tag k="natural" v="hill" />
		<tag k="place" v="locality" />
		<tag k="ssr:stedsnr" v="53214" />
	</node>
	<node id="-216444" lat="59.3877388883" lon="10.6698777763">
		<tag k="name" v="Telemarkslund" />
		<tag k="place" v="locality" />
		<tag k="ssr:stedsnr" v="296937" />
	</node>
	<node id="-216827" lat="59.3398222247" lon="10.7154888926">
		<tag k="fixme" v="consider natural=peak for the most distinct mountains in the district" />
		<tag k="name" v="Hakkerås" />
		<tag k="natural" v="hill" />
		<tag k="place" v="locality" />
		<tag k="ssr:stedsnr" v="53206" />
	</node>
	<node id="-216954" lat="59.3682388913" lon="10.6671055517">
		<tag k="fixme" v="consider natural=peak for the most distinct mountains in the district" />
		<tag k="name" v="Røysa" />
		<tag k="natural" v="hill" />
		<tag k="place" v="locality" />
		<tag k="ssr:stedsnr" v="305610" />
	</node>
	<node id="-217079" lat="59.4043305592" lon="10.6697249937">
		<tag k="fixme" v="consider natural=peak for the most distinct mountains in the district" />
		<tag k="name" v="Carlbergåsen" />
		<tag k="natural" v="hill" />
		<tag k="place" v="locality" />
		<tag k="ssr:stedsnr" v="538910" />
	</node>
	<node id="-216438" lat="59.3514000034" lon="10.7180277864">
		<tag k="fixme" v="consider natural=peak for the most distinct mountains in the district" />
		<tag k="name" v="Kureåsen" />
>>>>>>> e1d4bc35ff8a6074a6f2e91616a996b547c36f15
		<tag k="natural" v="hill" />
		<tag k="place" v="locality" />
		<tag k="ssr:stedsnr" v="235645" />
	</node>
<<<<<<< HEAD
	<node lat="59.43590555958118" lon="10.726047227920201" id="-16664">
		<tag k="name" v="Noresletta" />
		<tag k="place" v="locality" />
		<tag k="ssr:stedsnr" v="235898" />
	</node>
	<node lat="59.40940000011983" lon="10.761063890074247" id="-16665">
		<tag k="name" v="Bjørndalen" />
=======
	<node id="-216693" lat="59.3499944466" lon="10.7681888822">
		<tag k="name" v="Ottersheia" />
		<tag k="place" v="locality" />
		<tag k="ssr:stedsnr" v="904050" />
	</node>
	<node id="-216436" lat="59.350324997" lon="10.6869638852">
		<tag k="name" v="Sande" />
		<tag k="natural" v="wood" />
		<tag k="ssr:stedsnr" v="296172" />
	</node>
	<node id="-216947" lat="59.4526666641" lon="10.6869611028">
		<tag k="name" v="Trolldalen" />
>>>>>>> e1d4bc35ff8a6074a6f2e91616a996b547c36f15
		<tag k="natural" v="valley" />
		<tag k="place" v="locality" />
		<tag k="ssr:stedsnr" v="236840" />
	</node>
<<<<<<< HEAD
	<node lat="59.34617500122901" lon="10.745655563996847" id="-16676">
=======
	<node id="-216816" lat="59.3461750012" lon="10.745655564">
>>>>>>> e1d4bc35ff8a6074a6f2e91616a996b547c36f15
		<tag k="name" v="Kanaholmen" />
		<tag k="natural" v="hill" />
		<tag k="place" v="locality" />
		<tag k="ssr:stedsnr" v="53008" />
	</node>
<<<<<<< HEAD
	<node lat="59.33982222474621" lon="10.715488892556264" id="-16682">
=======
	<node id="-216815" lat="59.4688111129" lon="10.6824527739">
		<tag k="alt_name" v="Kilsås" />
>>>>>>> e1d4bc35ff8a6074a6f2e91616a996b547c36f15
		<tag k="fixme" v="consider natural=peak for the most distinct mountains in the district" />
		<tag k="name" v="Hakkerås" />
		<tag k="natural" v="hill" />
		<tag k="place" v="locality" />
		<tag k="ssr:stedsnr" v="53206" />
	</node>
<<<<<<< HEAD
	<node lat="59.46595555669448" lon="10.746763886604473" id="-16684">
=======
	<node id="-216685" lat="59.4332611109" lon="10.7310611128">
>>>>>>> e1d4bc35ff8a6074a6f2e91616a996b547c36f15
		<tag k="fixme" v="consider natural=peak for the most distinct mountains in the district" />
		<tag k="name" v="Svartås" />
		<tag k="natural" v="hill" />
		<tag k="place" v="locality" />
		<tag k="ssr:stedsnr" v="53214" />
	</node>
<<<<<<< HEAD
	<node lat="59.44885000302809" lon="10.734133330774975" id="-16685">
		<tag k="fixme" v="consider natural=peak for the most distinct mountains in the district" />
		<tag k="name" v="Merraåsen" />
		<tag k="natural" v="hill" />
		<tag k="place" v="locality" />
		<tag k="ssr:stedsnr" v="53215" />
	</node>
	<node lat="59.4307972192091" lon="10.677675002765794" id="-16723">
=======
	<node id="-216555" lat="59.355419443" lon="10.6791777725">
		<tag k="alt_name" v="Vardeåsen" />
>>>>>>> e1d4bc35ff8a6074a6f2e91616a996b547c36f15
		<tag k="fixme" v="consider natural=peak for the most distinct mountains in the district" />
		<tag k="name" v="Blåbæråsen" />
		<tag k="natural" v="hill" />
		<tag k="place" v="locality" />
		<tag k="ssr:stedsnr" v="114010" />
	</node>
<<<<<<< HEAD
	<node lat="59.36242643976069" lon="10.69987794778463" id="-16728">
		<tag k="name" v="Grønli" />
		<tag k="natural" v="wood" />
		<tag k="ssr:stedsnr" v="114034" />
	</node>
	<node lat="59.354616666936636" lon="10.73238610972423" id="-16734">
		<tag k="name" v="Mellebyåsen" />
		<tag k="natural" v="hill" />
=======
	<node id="-216682" lat="59.46825833" lon="10.6424666737">
		<tag k="name" v="Bjørnelabbene" />
		<tag k="natural" v="valley" />
>>>>>>> e1d4bc35ff8a6074a6f2e91616a996b547c36f15
		<tag k="place" v="locality" />
		<tag k="ssr:stedsnr" v="114330" />
	</node>
<<<<<<< HEAD
	<node lat="59.45313889313649" lon="10.673100006339418" id="-16756">
		<tag k="fixme" v="consider natural=peak for the most distinct mountains in the district" />
		<tag k="name" v="Vardås" />
=======
	<node id="-216809" lat="59.3230333363" lon="10.7038361025">
		<tag k="name" v="Apalberget" />
>>>>>>> e1d4bc35ff8a6074a6f2e91616a996b547c36f15
		<tag k="natural" v="hill" />
		<tag k="place" v="locality" />
		<tag k="ssr:stedsnr" v="174225" />
	</node>
<<<<<<< HEAD
	<node lat="59.45266666409194" lon="10.686961102766908" id="-16771">
		<tag k="name" v="Trolldalen" />
		<tag k="natural" v="valley" />
		<tag k="place" v="locality" />
		<tag k="ssr:stedsnr" v="184944" />
	</node>
	<node lat="59.318811107491456" lon="10.67969167057906" id="-16775">
		<tag k="name" v="Taterberget" />
		<tag k="natural" v="hill" />
		<tag k="place" v="locality" />
		<tag k="ssr:stedsnr" v="271142" />
	</node>
	<node lat="59.32049444419997" lon="10.64263055608986" id="-16779">
=======
	<node id="-216576" lat="59.4256111149" lon="10.6196194452">
		<tag k="alt_name" v="Solbærsletta" />
		<tag k="name" v="Solbergsletta" />
		<tag k="place" v="locality" />
		<tag k="ssr:stedsnr" v="480955" />
	</node>
	<node id="-216518" lat="59.3993694469" lon="10.6608500055">
		<tag k="fixme" v="consider natural=peak for the most distinct mountains in the district" />
		<tag k="name" v="Baugsåsen" />
		<tag k="natural" v="hill" />
		<tag k="place" v="locality" />
		<tag k="ssr:stedsnr" v="417610" />
	</node>
	<node id="-216413" lat="59.3204944442" lon="10.6426305561">
>>>>>>> e1d4bc35ff8a6074a6f2e91616a996b547c36f15
		<tag k="name" v="Vardeberget" />
		<tag k="natural" v="hill" />
		<tag k="place" v="locality" />
		<tag k="ssr:stedsnr" v="271987" />
	</node>
<<<<<<< HEAD
	<node lat="59.434427775558405" lon="10.683744449518443" id="-16786">
		<tag k="fixme" v="consider natural=peak for the most distinct mountains in the district" />
		<tag k="name" v="Skolekollen" />
		<tag k="natural" v="hill" />
		<tag k="place" v="locality" />
		<tag k="ssr:stedsnr" v="235031" />
	</node>
	<node lat="59.47835833607195" lon="10.687288890034381" id="-16806">
=======
	<node id="-216338" lat="59.4359055596" lon="10.7260472279">
		<tag k="name" v="Noresletta" />
		<tag k="place" v="locality" />
		<tag k="ssr:stedsnr" v="235898" />
	</node>
	<node id="-216539" lat="59.3694333341" lon="10.6811722138">
		<tag k="name" v="Gullås" />
		<tag k="natural" v="hill" />
		<tag k="place" v="locality" />
		<tag k="ssr:stedsnr" v="660088" />
	</node>
	<node id="-217177" lat="59.4382583301" lon="10.7322694431">
		<tag k="name" v="Vanemdalen" />
		<tag k="natural" v="valley" />
		<tag k="place" v="locality" />
		<tag k="ssr:stedsnr" v="781898" />
	</node>
	<node id="-217047" lat="59.393700004" lon="10.7802027702">
>>>>>>> e1d4bc35ff8a6074a6f2e91616a996b547c36f15
		<tag k="fixme" v="consider natural=peak for the most distinct mountains in the district" />
		<tag k="name" v="Stokkås" />
		<tag k="natural" v="hill" />
		<tag k="place" v="locality" />
		<tag k="ssr:stedsnr" v="295799" />
	</node>
<<<<<<< HEAD
	<node lat="59.35032499698716" lon="10.686963885183825" id="-16808">
		<tag k="name" v="Sande" />
		<tag k="natural" v="wood" />
		<tag k="ssr:stedsnr" v="296172" />
	</node>
	<node lat="59.3682388913098" lon="10.667105551682518" id="-16817">
=======
	<node id="-217174" lat="59.332544444" lon="10.7046805505">
>>>>>>> e1d4bc35ff8a6074a6f2e91616a996b547c36f15
		<tag k="fixme" v="consider natural=peak for the most distinct mountains in the district" />
		<tag k="name" v="Røysa" />
		<tag k="natural" v="hill" />
		<tag k="place" v="locality" />
<<<<<<< HEAD
		<tag k="ssr:stedsnr" v="305610" />
	</node>
	<node lat="59.45043333135512" lon="10.672755555953671" id="-16834">
		<tag k="fixme" v="consider natural=peak for the most distinct mountains in the district" />
		<tag k="name" v="Røysås" />
		<tag k="natural" v="hill" />
		<tag k="place" v="locality" />
		<tag k="ssr:stedsnr" v="356205" />
	</node>
	<node lat="59.31276388932793" lon="10.68474999643329" id="-16853">
		<tag k="fixme" v="consider natural=peak for the most distinct mountains in the district" />
		<tag k="name" v="Barselberget" />
		<tag k="natural" v="hill" />
		<tag k="place" v="locality" />
		<tag k="ssr:stedsnr" v="477124" />
	</node>
	<node lat="59.312963889203445" lon="10.696286111241484" id="-16854">
		<tag k="name" v="Oterberget" />
		<tag k="natural" v="cliff" />
		<tag k="ssr:stedsnr" v="477126" />
	</node>
	<node lat="59.3806388864297" lon="10.70211388130453" id="-16858">
		<tag k="name" v="Torgerslund" />
=======
		<tag k="ssr:stedsnr" v="781418" />
	</node>
	<node id="-216659" lat="59.4689416672" lon="10.6875611109">
		<tag k="name" v="Kilsbakken" />
		<tag k="natural" v="slope" />
		<tag k="place" v="locality" />
		<tag k="ssr:stedsnr" v="299730" />
	</node>
	<node id="-216426" lat="59.4363249975" lon="10.695422222">
		<tag k="fixme" v="consider natural=peak for the most distinct mountains in the district" />
		<tag k="name" v="Bjørnåsen" />
		<tag k="natural" v="hill" />
		<tag k="place" v="locality" />
		<tag k="ssr:stedsnr" v="295618" />
	</node>
	<node id="-216910" lat="59.4531388931" lon="10.6731000063">
		<tag k="fixme" v="consider natural=peak for the most distinct mountains in the district" />
		<tag k="name" v="Vardås" />
		<tag k="natural" v="hill" />
		<tag k="place" v="locality" />
		<tag k="ssr:stedsnr" v="174225" />
	</node>
	<node id="-216653" lat="59.3896027778" lon="10.6589972195">
		<tag k="name" v="Fuglevikåsen" />
		<tag k="natural" v="ridge" />
		<tag k="place" v="locality" />
		<tag k="ssr:stedsnr" v="660115" />
	</node>
	<node id="-216395" lat="59.3624264398" lon="10.6998779478">
		<tag k="name" v="Grønli" />
		<tag k="natural" v="wood" />
		<tag k="ssr:stedsnr" v="114034" />
	</node>
	<node id="-216522" lat="59.3509055542" lon="10.7619027828">
		<tag k="fixme" v="consider natural=peak for the most distinct mountains in the district" />
		<tag k="name" v="Tuggeliteåsen" />
		<tag k="natural" v="hill" />
>>>>>>> e1d4bc35ff8a6074a6f2e91616a996b547c36f15
		<tag k="place" v="locality" />
		<tag k="ssr:stedsnr" v="477947" />
	</node>
<<<<<<< HEAD
	<node lat="59.37973889208091" lon="10.651352774949432" id="-16861">
		<tag k="name" v="Det gule berget" />
		<tag k="natural" v="cliff" />
		<tag k="ssr:stedsnr" v="478047" />
	</node>
	<node lat="59.425649995955844" lon="10.693019450274454" id="-16880">
=======
	<node id="-216567" lat="59.3127638893" lon="10.6847499964">
		<tag k="fixme" v="consider natural=peak for the most distinct mountains in the district" />
		<tag k="name" v="Barselberget" />
		<tag k="natural" v="hill" />
		<tag k="place" v="locality" />
		<tag k="ssr:stedsnr" v="477124" />
	</node>
	<node id="-216648" lat="59.3200638882" lon="10.6953055482">
>>>>>>> e1d4bc35ff8a6074a6f2e91616a996b547c36f15
		<tag k="fixme" v="consider natural=peak for the most distinct mountains in the district" />
		<tag k="name" v="Øreåsen" />
		<tag k="natural" v="hill" />
		<tag k="place" v="locality" />
<<<<<<< HEAD
		<tag k="ssr:stedsnr" v="480044" />
	</node>
	<node lat="59.425611114913494" lon="10.619619445180238" id="-16884">
		<tag k="alt_name" v="Solbærsletta" />
		<tag k="name" v="Solbergsletta" />
		<tag k="place" v="locality" />
		<tag k="ssr:stedsnr" v="480955" />
	</node>
	<node lat="59.455449998841374" lon="10.697261116840705" id="-16896">
=======
		<tag k="ssr:stedsnr" v="659406" />
	</node>
	<node id="-216390" lat="59.4307972192" lon="10.6776750028">
		<tag k="fixme" v="consider natural=peak for the most distinct mountains in the district" />
		<tag k="name" v="Blåbæråsen" />
		<tag k="natural" v="hill" />
		<tag k="place" v="locality" />
		<tag k="ssr:stedsnr" v="114010" />
	</node>
	<node id="-216353" lat="59.4094000001" lon="10.7610638901">
		<tag k="name" v="Bjørndalen" />
		<tag k="natural" v="valley" />
		<tag k="place" v="locality" />
		<tag k="ssr:stedsnr" v="236840" />
	</node>
	<node id="-216514" lat="59.4554499988" lon="10.6972611168">
>>>>>>> e1d4bc35ff8a6074a6f2e91616a996b547c36f15
		<tag k="alt_name" v="Lauersbakåsen" />
		<tag k="fixme" v="consider natural=peak for the most distinct mountains in the district" />
		<tag k="name" v="Skredderåsen" />
		<tag k="natural" v="hill" />
		<tag k="place" v="locality" />
		<tag k="ssr:stedsnr" v="417007" />
	</node>
<<<<<<< HEAD
	<node lat="59.39936944685221" lon="10.660850005517304" id="-16901">
		<tag k="fixme" v="consider natural=peak for the most distinct mountains in the district" />
		<tag k="name" v="Baugsåsen" />
		<tag k="natural" v="hill" />
		<tag k="place" v="locality" />
		<tag k="ssr:stedsnr" v="417610" />
	</node>
	<node lat="59.35090555416686" lon="10.761902782775458" id="-16904">
=======
	<node id="-216681" lat="59.3244777758" lon="10.6811472165">
		<tag k="name" v="Bryggebakken" />
		<tag k="place" v="locality" />
		<tag k="ssr:stedsnr" v="902444" />
	</node>
	<node id="-216763" lat="59.4100555558" lon="10.7274277823">
>>>>>>> e1d4bc35ff8a6074a6f2e91616a996b547c36f15
		<tag k="fixme" v="consider natural=peak for the most distinct mountains in the district" />
		<tag k="name" v="Tuggeliteåsen" />
		<tag k="natural" v="hill" />
		<tag k="place" v="locality" />
		<tag k="ssr:stedsnr" v="418047" />
	</node>
<<<<<<< HEAD
	<node lat="59.39370000399191" lon="10.780202770151359" id="-16906">
		<tag k="fixme" v="consider natural=peak for the most distinct mountains in the district" />
		<tag k="name" v="Høyås" />
		<tag k="natural" v="hill" />
		<tag k="place" v="locality" />
		<tag k="ssr:stedsnr" v="418694" />
	</node>
	<node lat="59.50011111351477" lon="10.658200007041044" id="-16934">
=======
	<node id="-216502" lat="59.5001111135" lon="10.658200007">
>>>>>>> e1d4bc35ff8a6074a6f2e91616a996b547c36f15
		<tag k="fixme" v="consider natural=peak for the most distinct mountains in the district" />
		<tag k="name" v="Brattås" />
		<tag k="natural" v="hill" />
		<tag k="place" v="locality" />
		<tag k="ssr:stedsnr" v="488500" />
	</node>
<<<<<<< HEAD
	<node lat="59.40433055917265" lon="10.669724993669123" id="-16944">
		<tag k="fixme" v="consider natural=peak for the most distinct mountains in the district" />
		<tag k="name" v="Carlbergåsen" />
		<tag k="natural" v="hill" />
		<tag k="place" v="locality" />
		<tag k="ssr:stedsnr" v="538910" />
	</node>
	<node lat="59.337700003391554" lon="10.707330559416935" id="-16947">
		<tag k="fixme" v="consider natural=peak for the most distinct mountains in the district" />
		<tag k="name" v="Fugleås" />
		<tag k="natural" v="hill" />
=======
	<node id="-217268" lat="59.4326388918" lon="10.7360027755">
		<tag k="name" v="Ravneberget" />
		<tag k="natural" v="cliff" />
		<tag k="ssr:stedsnr" v="964097" />
	</node>
	<node id="-216883" lat="59.3932361155" lon="10.804219439">
		<tag k="name" v="Søgårdsdalen" />
		<tag k="natural" v="valley" />
		<tag k="place" v="locality" />
		<tag k="ssr:stedsnr" v="115695" />
	</node>
	<node id="-217009" lat="59.4273250028" lon="10.6355666595">
		<tag k="name" v="Solbakken" />
		<tag k="natural" v="slope" />
		<tag k="place" v="locality" />
		<tag k="ssr:stedsnr" v="359197" />
	</node>
	<node id="-217134" lat="59.3782250028" lon="10.7252805632">
		<tag k="name" v="Bygdetunet" />
>>>>>>> e1d4bc35ff8a6074a6f2e91616a996b547c36f15
		<tag k="place" v="locality" />
		<tag k="ssr:stedsnr" v="539175" />
	</node>
<<<<<<< HEAD
	<node lat="59.31705278067858" lon="10.694802781170289" id="-16965">
=======
	<node id="-216748" lat="59.4559111082" lon="10.6221777837">
		<tag k="alt_name" v="Nebbeberget" />
>>>>>>> e1d4bc35ff8a6074a6f2e91616a996b547c36f15
		<tag k="fixme" v="consider natural=peak for the most distinct mountains in the district" />
		<tag k="name" v="Vadberget" />
		<tag k="natural" v="hill" />
		<tag k="place" v="locality" />
		<tag k="ssr:stedsnr" v="598361" />
	</node>
<<<<<<< HEAD
	<node lat="59.47361944151774" lon="10.646080556113995" id="-16966">
=======
	<node id="-216491" lat="59.425649996" lon="10.6930194503">
>>>>>>> e1d4bc35ff8a6074a6f2e91616a996b547c36f15
		<tag k="fixme" v="consider natural=peak for the most distinct mountains in the district" />
		<tag k="name" v="Prekestolen" />
		<tag k="natural" v="hill" />
		<tag k="place" v="locality" />
		<tag k="ssr:stedsnr" v="598765" />
	</node>
<<<<<<< HEAD
	<node lat="59.35252777558782" lon="10.762163894558435" id="-16971">
=======
	<node id="-217130" lat="59.3525277756" lon="10.7621638946">
>>>>>>> e1d4bc35ff8a6074a6f2e91616a996b547c36f15
		<tag k="name" v="Molvikberget" />
		<tag k="natural" v="hill" />
		<tag k="place" v="locality" />
		<tag k="ssr:stedsnr" v="600053" />
	</node>
<<<<<<< HEAD
	<node lat="59.32006388824369" lon="10.695305548153922" id="-16982">
		<tag k="fixme" v="consider natural=peak for the most distinct mountains in the district" />
		<tag k="name" v="Matrosåsen" />
		<tag k="natural" v="hill" />
		<tag k="place" v="locality" />
		<tag k="ssr:stedsnr" v="659406" />
	</node>
	<node lat="59.369433334087304" lon="10.681172213788969" id="-16988">
		<tag k="name" v="Gullås" />
		<tag k="natural" v="hill" />
		<tag k="place" v="locality" />
		<tag k="ssr:stedsnr" v="660088" />
	</node>
	<node lat="59.35541944301638" lon="10.679177772541253" id="-16994">
		<tag k="alt_name" v="Vardeåsen" />
		<tag k="fixme" v="consider natural=peak for the most distinct mountains in the district" />
		<tag k="name" v="Vardås" />
		<tag k="natural" v="hill" />
		<tag k="place" v="locality" />
		<tag k="ssr:stedsnr" v="669587" />
	</node>
	<node lat="59.421827776407774" lon="10.592841673054028" id="-16996">
		<tag k="fixme" v="consider natural=peak for the most distinct mountains in the district" />
		<tag k="name" v="Rødsåsen" />
		<tag k="natural" v="hill" />
=======
	<node id="-216446" lat="59.3471472248" lon="10.749538889">
		<tag k="name" v="Rosnesheia" />
		<tag k="place" v="locality" />
		<tag k="ssr:stedsnr" v="297070" />
	</node>
	<node id="-216774" lat="59.4555472198" lon="10.6181750044">
		<tag k="name" v="Dragonfjellet" />
		<tag k="place" v="locality" />
		<tag k="ssr:stedsnr" v="963219" />
	</node>
	<node id="-217122" lat="59.4338833358" lon="10.7228250063">
		<tag k="name" v="Nesa til han Nils" />
>>>>>>> e1d4bc35ff8a6074a6f2e91616a996b547c36f15
		<tag k="place" v="locality" />
		<tag k="ssr:stedsnr" v="669983" />
	</node>
<<<<<<< HEAD
	<node lat="59.324477775774376" lon="10.681147216545224" id="-17028">
		<tag k="name" v="Bryggebakken" />
		<tag k="place" v="locality" />
		<tag k="ssr:stedsnr" v="902444" />
	</node>
	<node lat="59.433261110880366" lon="10.73106111276739" id="-17032">
		<tag k="fixme" v="consider natural=peak for the most distinct mountains in the district" />
		<tag k="name" v="Kråkeberget" />
		<tag k="natural" v="hill" />
=======
	<node id="-216481" lat="59.3797388921" lon="10.6513527749">
		<tag k="name" v="Det gule berget" />
		<tag k="natural" v="cliff" />
		<tag k="ssr:stedsnr" v="478047" />
	</node>
	<node id="-216479" lat="59.3806388864" lon="10.7021138813">
		<tag k="name" v="Torgerslund" />
>>>>>>> e1d4bc35ff8a6074a6f2e91616a996b547c36f15
		<tag k="place" v="locality" />
		<tag k="ssr:stedsnr" v="903074" />
	</node>
<<<<<<< HEAD
	<node lat="59.41005555581634" lon="10.727427782304071" id="-17040">
		<tag k="fixme" v="consider natural=peak for the most distinct mountains in the district" />
		<tag k="name" v="Langberget" />
		<tag k="natural" v="hill" />
		<tag k="place" v="locality" />
		<tag k="ssr:stedsnr" v="904765" />
	</node>
	<node lat="59.33254444398641" lon="10.704680550499216" id="-17052">
=======
	<node id="-217118" lat="59.3381944408" lon="10.6677416595">
		<tag k="fixme" v="consider natural=peak for the most distinct mountains in the district" />
		<tag k="name" v="Vardefjellet" />
		<tag k="natural" v="hill" />
		<tag k="place" v="locality" />
		<tag k="ssr:stedsnr" v="598483" />
	</node>
	<node id="-216989" lat="59.4504333314" lon="10.672755556">
>>>>>>> e1d4bc35ff8a6074a6f2e91616a996b547c36f15
		<tag k="fixme" v="consider natural=peak for the most distinct mountains in the district" />
		<tag k="name" v="Lindeberget" />
		<tag k="natural" v="hill" />
		<tag k="place" v="locality" />
		<tag k="ssr:stedsnr" v="781418" />
	</node>
<<<<<<< HEAD
	<node lat="59.438258330129514" lon="10.732269443067349" id="-17055">
		<tag k="name" v="Vanemdalen" />
		<tag k="natural" v="valley" />
		<tag k="place" v="locality" />
		<tag k="ssr:stedsnr" v="781898" />
	</node>
	<node lat="59.482983328882575" lon="10.648386112474972" id="-17079">
		<tag k="fixme" v="consider natural=peak for the most distinct mountains in the district" />
		<tag k="name" v="Bjørnåsen" />
		<tag k="natural" v="hill" />
		<tag k="place" v="locality" />
		<tag k="ssr:stedsnr" v="913918" />
	</node>
	<node lat="59.391130558517716" lon="10.68830555639813" id="-17101">
		<tag k="fixme" v="consider natural=peak for the most distinct mountains in the district" />
		<tag k="name" v="Smedhusåsen" />
		<tag k="natural" v="hill" />
		<tag k="place" v="locality" />
		<tag k="ssr:stedsnr" v="842887" />
	</node>
	<node lat="59.45591110821212" lon="10.622177783715095" id="-17120">
		<tag k="alt_name" v="Nebbeberget" />
		<tag k="fixme" v="consider natural=peak for the most distinct mountains in the district" />
		<tag k="name" v="Nebbåsen" />
		<tag k="natural" v="hill" />
		<tag k="place" v="locality" />
		<tag k="ssr:stedsnr" v="852962" />
	</node>
	<node lat="59.46825833003659" lon="10.64246667370507" id="-17130">
		<tag k="name" v="Bjørnelabbene" />
		<tag k="natural" v="valley" />
		<tag k="place" v="locality" />
		<tag k="ssr:stedsnr" v="902802" />
	</node>
	<node lat="59.349994446636046" lon="10.76818888223642" id="-17138">
		<tag k="name" v="Ottersheia" />
		<tag k="place" v="locality" />
		<tag k="ssr:stedsnr" v="904050" />
	</node>
	<node lat="59.32211389103529" lon="10.696583333432843" id="-17147">
		<tag k="name" v="Ulvestua" />
=======
	<node id="-216988" lat="59.363583331" lon="10.7049361144">
		<tag k="fixme" v="consider natural=peak for the most distinct mountains in the district" />
		<tag k="name" v="Kjempekastet" />
		<tag k="natural" v="hill" />
		<tag k="place" v="locality" />
		<tag k="ssr:stedsnr" v="356036" />
	</node>
	<node id="-216475" lat="59.3129638892" lon="10.6962861112">
		<tag k="name" v="Oterberget" />
		<tag k="natural" v="cliff" />
		<tag k="ssr:stedsnr" v="477126" />
	</node>
	<node id="-216559" lat="59.4550694421" lon="10.6353833374">
		<tag k="fixme" v="consider natural=peak for the most distinct mountains in the district" />
		<tag k="name" v="Rambergåsen" />
		<tag k="natural" v="hill" />
		<tag k="place" v="locality" />
		<tag k="ssr:stedsnr" v="669965" />
	</node>
	<node id="-216397" lat="59.3546166669" lon="10.7323861097">
		<tag k="name" v="Mellebyåsen" />
		<tag k="natural" v="hill" />
		<tag k="place" v="locality" />
		<tag k="ssr:stedsnr" v="114330" />
	</node>
	<node id="-217113" lat="59.3170527807" lon="10.6948027812">
		<tag k="fixme" v="consider natural=peak for the most distinct mountains in the district" />
		<tag k="name" v="Vadberget" />
		<tag k="natural" v="hill" />
		<tag k="place" v="locality" />
		<tag k="ssr:stedsnr" v="598361" />
	</node>
	<node id="-217236" lat="59.3910027789" lon="10.8026722303">
		<tag k="fixme" v="consider natural=peak for the most distinct mountains in the district" />
		<tag k="name" v="Vardås" />
>>>>>>> e1d4bc35ff8a6074a6f2e91616a996b547c36f15
		<tag k="natural" v="hill" />
		<tag k="place" v="locality" />
		<tag k="ssr:stedsnr" v="907174" />
	</node>
<<<<<<< HEAD
	<node lat="59.45554721975337" lon="10.618175004420939" id="-17163">
		<tag k="name" v="Dragonfjellet" />
		<tag k="place" v="locality" />
		<tag k="ssr:stedsnr" v="963219" />
	</node>
	<node lat="59.3230333362788" lon="10.703836102548843" id="-17190">
		<tag k="name" v="Apalberget" />
=======
	<node id="-217235" lat="59.3887027796" lon="10.8059305563">
		<tag k="name" v="Grevlingåsen" />
>>>>>>> e1d4bc35ff8a6074a6f2e91616a996b547c36f15
		<tag k="natural" v="hill" />
		<tag k="place" v="locality" />
		<tag k="ssr:stedsnr" v="28897" />
	</node>
<<<<<<< HEAD
	<node lat="59.46881111286827" lon="10.682452773873143" id="-17197">
		<tag k="alt_name" v="Kilsås" />
=======
	<node id="-217106" lat="59.4736194415" lon="10.6460805561">
>>>>>>> e1d4bc35ff8a6074a6f2e91616a996b547c36f15
		<tag k="fixme" v="consider natural=peak for the most distinct mountains in the district" />
		<tag k="name" v="Mølleåsen" />
		<tag k="natural" v="hill" />
		<tag k="place" v="locality" />
		<tag k="ssr:stedsnr" v="52749" />
	</node>
<<<<<<< HEAD
	<node lat="59.33087500225585" lon="10.706636112924206" id="-17203">
		<tag k="fixme" v="consider natural=peak for the most distinct mountains in the district" />
		<tag k="name" v="Bølås" />
		<tag k="natural" v="hill" />
		<tag k="place" v="locality" />
		<tag k="ssr:stedsnr" v="53439" />
	</node>
	<node lat="59.39323611546176" lon="10.804219438986454" id="-17245">
		<tag k="name" v="Søgårdsdalen" />
		<tag k="natural" v="valley" />
		<tag k="place" v="locality" />
		<tag k="ssr:stedsnr" v="115695" />
	</node>
	<node lat="59.436324997470116" lon="10.695422222047045" id="-17299">
=======
	<node id="-216654" lat="59.3870750032" lon="10.7566499919">
		<tag k="name" v="Grøtås" />
		<tag k="natural" v="hill" />
		<tag k="place" v="locality" />
		<tag k="ssr:stedsnr" v="660706" />
	</node>
	<node id="-216336" lat="59.4411333376" lon="10.7449555638">
		<tag k="fixme" v="consider natural=peak for the most distinct mountains in the district" />
		<tag k="name" v="Slaåsen" />
		<tag k="natural" v="hill" />
		<tag k="place" v="locality" />
		<tag k="ssr:stedsnr" v="235645" />
	</node>
	<node id="-216411" lat="59.3188111075" lon="10.6796916706">
		<tag k="name" v="Taterberget" />
		<tag k="natural" v="hill" />
		<tag k="place" v="locality" />
		<tag k="ssr:stedsnr" v="271142" />
	</node>
	<node id="-217037" lat="59.4825111153" lon="10.6275166688">
		<tag k="name" v="Hellebergene" />
		<tag k="place" v="locality" />
		<tag k="ssr:stedsnr" v="416758" />
	</node>
	<node id="-216587" lat="59.3377000034" lon="10.7073305594">
>>>>>>> e1d4bc35ff8a6074a6f2e91616a996b547c36f15
		<tag k="fixme" v="consider natural=peak for the most distinct mountains in the district" />
		<tag k="name" v="Bjørnåsen" />
		<tag k="natural" v="hill" />
		<tag k="place" v="locality" />
		<tag k="ssr:stedsnr" v="295618" />
	</node>
<<<<<<< HEAD
	<node lat="59.35140000341925" lon="10.71802778635108" id="-17306">
=======
	<node id="-216714" lat="59.4829833289" lon="10.6483861125">
>>>>>>> e1d4bc35ff8a6074a6f2e91616a996b547c36f15
		<tag k="fixme" v="consider natural=peak for the most distinct mountains in the district" />
		<tag k="name" v="Kureåsen" />
		<tag k="natural" v="hill" />
		<tag k="place" v="locality" />
		<tag k="ssr:stedsnr" v="296275" />
	</node>
<<<<<<< HEAD
	<node lat="59.38773888825629" lon="10.669877776307164" id="-17312">
		<tag k="name" v="Telemarkslund" />
=======
	<node id="-217225" lat="59.3911305585" lon="10.6883055564">
		<tag k="fixme" v="consider natural=peak for the most distinct mountains in the district" />
		<tag k="name" v="Smedhusåsen" />
		<tag k="natural" v="hill" />
>>>>>>> e1d4bc35ff8a6074a6f2e91616a996b547c36f15
		<tag k="place" v="locality" />
		<tag k="ssr:stedsnr" v="296937" />
	</node>
<<<<<<< HEAD
	<node lat="59.34714722480082" lon="10.749538889014753" id="-17314">
		<tag k="name" v="Rosnesheia" />
		<tag k="place" v="locality" />
		<tag k="ssr:stedsnr" v="297070" />
	</node>
	<node lat="59.4689416672006" lon="10.687561110931608" id="-17318">
		<tag k="name" v="Kilsbakken" />
		<tag k="natural" v="slope" />
		<tag k="place" v="locality" />
		<tag k="ssr:stedsnr" v="299730" />
	</node>
	<node lat="59.36358333101684" lon="10.704936114439546" id="-17343">
=======
	<node id="-216327" lat="59.4344277756" lon="10.6837444495">
		<tag k="fixme" v="consider natural=peak for the most distinct mountains in the district" />
		<tag k="name" v="Skolekollen" />
		<tag k="natural" v="hill" />
		<tag k="place" v="locality" />
		<tag k="ssr:stedsnr" v="235031" />
	</node>
	<node id="-216560" lat="59.4218277764" lon="10.5928416731">
		<tag k="fixme" v="consider natural=peak for the most distinct mountains in the district" />
		<tag k="name" v="Rødsåsen" />
		<tag k="natural" v="hill" />
		<tag k="place" v="locality" />
		<tag k="ssr:stedsnr" v="669983" />
	</node>
	<node id="-217092" lat="59.3438899772" lon="10.6729172238">
		<tag k="alt_name" v="Ravnås;Botnerveten" />
>>>>>>> e1d4bc35ff8a6074a6f2e91616a996b547c36f15
		<tag k="fixme" v="consider natural=peak for the most distinct mountains in the district" />
		<tag k="name" v="Kjempekastet" />
		<tag k="natural" v="hill" />
		<tag k="place" v="locality" />
		<tag k="ssr:stedsnr" v="356036" />
	</node>
<<<<<<< HEAD
	<node lat="59.42732500276752" lon="10.635566659522512" id="-17354">
		<tag k="name" v="Solbakken" />
		<tag k="natural" v="slope" />
		<tag k="place" v="locality" />
		<tag k="ssr:stedsnr" v="359197" />
	</node>
	<node lat="59.48251111527327" lon="10.627516668837623" id="-17368">
		<tag k="name" v="Hellebergene" />
		<tag k="place" v="locality" />
		<tag k="ssr:stedsnr" v="416758" />
	</node>
	<node lat="59.343889977240906" lon="10.672917223756789" id="-17410">
		<tag k="alt_name" v="Ravnås;Botnerveten" />
		<tag k="fixme" v="consider natural=peak for the most distinct mountains in the district" />
		<tag k="name" v="Ravnåsen" />
		<tag k="natural" v="hill" />
		<tag k="place" v="locality" />
		<tag k="ssr:stedsnr" v="548586" />
	</node>
	<node lat="59.33819444079833" lon="10.667741659470416" id="-17431">
		<tag k="fixme" v="consider natural=peak for the most distinct mountains in the district" />
		<tag k="name" v="Vardefjellet" />
		<tag k="natural" v="hill" />
		<tag k="place" v="locality" />
		<tag k="ssr:stedsnr" v="598483" />
	</node>
	<node lat="59.433883335775654" lon="10.722825006298354" id="-17434">
		<tag k="name" v="Nesa til han Nils" />
		<tag k="place" v="locality" />
		<tag k="ssr:stedsnr" v="598876" />
	</node>
	<node lat="59.37822500283662" lon="10.725280563223713" id="-17446">
		<tag k="name" v="Bygdetunet" />
		<tag k="place" v="locality" />
		<tag k="ssr:stedsnr" v="600327" />
	</node>
	<node lat="59.38707500322079" lon="10.75664999194573" id="-17478">
		<tag k="name" v="Grøtås" />
		<tag k="natural" v="hill" />
		<tag k="place" v="locality" />
		<tag k="ssr:stedsnr" v="660706" />
	</node>
	<node lat="59.38960277781807" lon="10.658997219528564" id="-17481">
		<tag k="name" v="Fuglevikåsen" />
		<tag k="natural" v="ridge" />
		<tag k="place" v="locality" />
		<tag k="ssr:stedsnr" v="660115" />
	</node>
	<node lat="59.455069442081516" lon="10.635383337438833" id="-17491">
		<tag k="fixme" v="consider natural=peak for the most distinct mountains in the district" />
		<tag k="name" v="Rambergåsen" />
		<tag k="natural" v="hill" />
		<tag k="place" v="locality" />
		<tag k="ssr:stedsnr" v="669965" />
	</node>
	<node lat="59.429863885556266" lon="10.721066659638272" id="-17506">
		<tag k="fixme" v="consider natural=peak for the most distinct mountains in the district" />
		<tag k="name" v="Ravnefjell" />
		<tag k="natural" v="hill" />
		<tag k="place" v="locality" />
		<tag k="ssr:stedsnr" v="721064" />
	</node>
	<node lat="59.38870277955866" lon="10.805930556310729" id="-17558">
		<tag k="name" v="Grevlingåsen" />
		<tag k="natural" v="hill" />
		<tag k="place" v="locality" />
		<tag k="ssr:stedsnr" v="843751" />
	</node>
	<node lat="59.39100277887275" lon="10.80267223033588" id="-17559">
		<tag k="fixme" v="consider natural=peak for the most distinct mountains in the district" />
		<tag k="name" v="Vardås" />
		<tag k="natural" v="hill" />
		<tag k="place" v="locality" />
		<tag k="ssr:stedsnr" v="843752" />
	</node>
	<node lat="59.43263889184213" lon="10.736002775455354" id="-17596">
		<tag k="name" v="Ravneberget" />
		<tag k="natural" v="cliff" />
		<tag k="ssr:stedsnr" v="964097" />
=======
	<node id="-216427" lat="59.4783583361" lon="10.68728889">
		<tag k="fixme" v="consider natural=peak for the most distinct mountains in the district" />
		<tag k="name" v="Stokkås" />
		<tag k="natural" v="hill" />
		<tag k="place" v="locality" />
		<tag k="ssr:stedsnr" v="295799" />
	</node>
	<node id="-216619" lat="59.4298638856" lon="10.7210666596">
		<tag k="fixme" v="consider natural=peak for the most distinct mountains in the district" />
		<tag k="name" v="Ravnefjell" />
		<tag k="natural" v="hill" />
		<tag k="place" v="locality" />
		<tag k="ssr:stedsnr" v="721064" />
>>>>>>> e1d4bc35ff8a6074a6f2e91616a996b547c36f15
	</node>
</osm>
