<?xml version="1.0" encoding="UTF-8"?>
<osm version="0.6" generator="osmapis">
	<node lat="59.39802499620683" lon="10.634624996084316" id="-13053">
		<tag k="alt_name" v="Revlingen" />
		<tag k="name" v="Store Revlingen" />
		<tag k="place" v="islet" />
		<tag k="ssr:stedsnr" v="2541" />
	</node>
	<node lat="59.39428889007087" lon="10.635749999070354" id="-13054">
		<tag k="name" v="Lille Revlingen" />
		<tag k="place" v="islet" />
		<tag k="ssr:stedsnr" v="2542" />
	</node>
	<node lat="59.305377188626565" lon="10.691979744450641" id="-13058">
		<tag k="name" v="Nordre Danmarksbukta" />
		<tag k="natural" v="bay" />
		<tag k="ssr:stedsnr" v="234114" />
	</node>
	<node lat="59.30971666287938" lon="10.696600007620054" id="-13059">
		<tag k="fixme" v="consider seamark:type=rock or natural=shoal" />
		<tag k="name" v="Svartskjær" />
		<tag k="place" v="islet" />
		<tag k="ssr:stedsnr" v="234116" />
	</node>
	<node lat="59.3215333331855" lon="10.673252776557039" id="-13068">
		<tag k="name" v="Hvitnesbukta" />
		<tag k="natural" v="bay" />
		<tag k="ssr:stedsnr" v="235518" />
	</node>
	<node lat="59.35850555580441" lon="10.659027786482108" id="-13082">
		<tag k="name" v="Galgeberget" />
		<tag k="place" v="islet" />
		<tag k="ssr:stedsnr" v="53015" />
	</node>
	<node lat="59.320747225270104" lon="10.675727780427927" id="-13091">
		<tag k="name" v="Kråke" />
		<tag k="natural" v="cape" />
		<tag k="ssr:stedsnr" v="53406" />
	</node>
	<node lat="59.447374999356846" lon="10.612986112484307" id="-13098">
		<tag k="name" v="Refsnestangen" />
		<tag k="natural" v="cape" />
		<tag k="ssr:stedsnr" v="56213" />
	</node>
	<node lat="59.37165555475848" lon="10.65843889411017" id="-13104">
		<tag k="bay" v="fjord" />
		<tag k="name" v="Årefjorden" />
		<tag k="natural" v="bay" />
		<tag k="ssr:stedsnr" v="63572" />
	</node>
	<node lat="59.46576726654049" lon="10.628428672349663" id="-13106">
		<tag k="alt_name" v="Fuglevikbukta" />
		<tag k="name" v="Rambergbukta" />
		<tag k="natural" v="bay" />
		<tag k="ssr:stedsnr" v="63906" />
	</node>
	<node lat="59.43545277369808" lon="10.67822222275005" id="-13107">
		<tag k="name" v="Neset" />
		<tag k="natural" v="cape" />
		<tag k="ssr:stedsnr" v="65911" />
	</node>
	<node lat="59.354054685008286" lon="10.658463385152764" id="-13117">
		<tag k="alt_name" v="Stangarholmen" />
		<tag k="name" v="Stangerholmen" />
		<tag k="place" v="islet" />
		<tag k="ssr:stedsnr" v="245564" />
	</node>
	<node lat="59.425200004157375" lon="10.5799833302566" id="-13118">
		<tag k="name" v="Sauetogrunnen" />
		<tag k="natural" v="shoal" />
		<tag k="place" v="locality" />
		<tag k="ssr:stedsnr" v="245986" />
	</node>
	<node lat="59.46277222668506" lon="10.670888884292191" id="-13121">
		<tag k="name" v="Mossesundet" />
		<tag k="natural" v="strait" />
		<tag k="ssr:stedsnr" v="245959" />
	</node>
	<node lat="59.47054722151673" lon="10.6035499959562" id="-13122">
		<tag k="name" v="Rambergkrakken" />
		<tag k="natural" v="shoal" />
		<tag k="place" v="locality" />
		<tag k="ssr:stedsnr" v="89865" />
	</node>
	<node lat="59.33822777937382" lon="10.647466674899164" id="-13123">
		<tag k="name" v="Langgrunnen" />
		<tag k="natural" v="shoal" />
		<tag k="place" v="locality" />
		<tag k="ssr:stedsnr" v="89882" />
	</node>
	<node lat="59.49775277780455" lon="10.666069436816963" id="-13124">
		<tag k="name" v="Bingetangen" />
		<tag k="natural" v="cape" />
		<tag k="ssr:stedsnr" v="247891" />
	</node>
	<node lat="59.41841667101385" lon="10.60135278439466" id="-13125">
		<tag k="name" v="Albystranda" />
		<tag k="natural" v="beach" />
		<tag k="ssr:stedsnr" v="249918" />
	</node>
	<node lat="59.32875277984802" lon="10.644483337868435" id="-13136">
		<tag k="name" v="Fugleodden" />
		<tag k="natural" v="cape" />
		<tag k="ssr:stedsnr" v="114079" />
	</node>
	<node lat="59.41532777609805" lon="10.704169439668895" id="-13141">
		<tag k="name" v="Årvollbukta" />
		<tag k="natural" v="bay" />
		<tag k="ssr:stedsnr" v="115120" />
	</node>
	<node lat="59.3449555576423" lon="10.74046944449574" id="-13150">
		<tag k="alt_name" v="Rossnesbukta" />
		<tag k="name" v="Rosnesbukta" />
		<tag k="natural" v="bay" />
		<tag k="ssr:stedsnr" v="123521" />
	</node>
	<node lat="59.387013885565224" lon="10.637947226097944" id="-13152">
		<tag k="name" v="Mellomgrunnen" />
		<tag k="natural" v="shoal" />
		<tag k="place" v="locality" />
		<tag k="ssr:stedsnr" v="123578" />
	</node>
	<node lat="59.33285832993092" lon="10.652094449322385" id="-13153">
		<tag k="name" v="Kollen" />
		<tag k="place" v="island" />
		<tag k="ssr:stedsnr" v="123648" />
	</node>
	<node lat="59.33069166455345" lon="10.659200007394665" id="-13154">
		<tag k="name" v="Larkollsundet" />
		<tag k="natural" v="strait" />
		<tag k="ssr:stedsnr" v="123649" />
	</node>
	<node lat="59.47680833631884" lon="10.660961108848737" id="-13159">
		<tag k="name" v="Kjørbukta" />
		<tag k="natural" v="bay" />
		<tag k="ssr:stedsnr" v="173762" />
	</node>
	<node lat="59.43551944835765" lon="10.585180563823956" id="-13162">
		<tag k="name" v="Gullholmsundet" />
		<tag k="natural" v="strait" />
		<tag k="ssr:stedsnr" v="174809" />
	</node>
	<node lat="59.49207221954136" lon="10.676300005205835" id="-13173">
		<tag k="name" v="Spetalgrunnene" />
		<tag k="natural" v="shoal" />
		<tag k="place" v="locality" />
		<tag k="ssr:stedsnr" v="177663" />
	</node>
	<node lat="59.329691664273426" lon="10.73835832879616" id="-13175">
		<tag k="name" v="Kurefjorden" />
		<tag k="natural" v="bay" />
		<tag k="ssr:stedsnr" v="184616" />
	</node>
	<node lat="59.46417777440647" lon="10.659894446076313" id="-13181">
		<tag k="name" v="Kjellandsvikbukta" />
		<tag k="natural" v="bay" />
		<tag k="ssr:stedsnr" v="271815" />
	</node>
	<node lat="59.497811109700244" lon="10.651802777993815" id="-13182">
		<tag k="name" v="Singelbukta" />
		<tag k="natural" v="bay" />
		<tag k="ssr:stedsnr" v="271816" />
	</node>
	<node lat="59.302694442061814" lon="10.698549996752464" id="-13183">
		<tag k="fixme" v="consider seamark:type=rock or natural=shoal" />
		<tag k="name" v="Løndommen" />
		<tag k="place" v="islet" />
		<tag k="ssr:stedsnr" v="271819" />
	</node>
	<node lat="59.48348610712809" lon="10.629344449421538" id="-13187">
		<tag k="name" v="Signalodden" />
		<tag k="natural" v="cape" />
		<tag k="ssr:stedsnr" v="234804" />
	</node>
	<node lat="59.50159166698422" lon="10.647372220251157" id="-13193">
		<tag k="alt_name" v="Munkestein" />
		<tag k="name" v="Munken" />
		<tag k="natural" v="cape" />
		<tag k="ssr:stedsnr" v="450125" />
	</node>
	<node lat="59.41817499677749" lon="10.636869436471986" id="-13202">
		<tag k="name" v="Grimsrødhausen" />
		<tag k="place" v="locality" />
		<tag k="seamark:type" v="rock" />
		<tag k="ssr:stedsnr" v="238180" />
	</node>
	<node lat="59.41461111139259" lon="10.63857777744476" id="-13204">
		<tag k="name" v="Espenesgrunnen" />
		<tag k="natural" v="shoal" />
		<tag k="place" v="locality" />
		<tag k="ssr:stedsnr" v="245971" />
	</node>
	<node lat="59.47653889008409" lon="10.688274999430355" id="-13205">
		<tag k="name" v="Kambobukta" />
		<tag k="natural" v="bay" />
		<tag k="ssr:stedsnr" v="271894" />
	</node>
	<node lat="59.381258330412756" lon="10.64980555763364" id="-13206">
		<tag k="fixme" v="consider seamark:type=rock or natural=shoal" />
		<tag k="name" v="Fuglevikskjæret" />
		<tag k="place" v="islet" />
		<tag k="ssr:stedsnr" v="271911" />
	</node>
	<node lat="59.35261389150518" lon="10.659058333851224" id="-13209">
		<tag k="name" v="Søndre Holmebukta" />
		<tag k="natural" v="bay" />
		<tag k="ssr:stedsnr" v="295432" />
	</node>
	<node lat="59.4220027736148" lon="10.634586107088325" id="-13219">
		<tag k="name" v="Baden-Baden" />
		<tag k="natural" v="beach" />
		<tag k="ssr:stedsnr" v="298174" />
	</node>
	<node lat="59.301091665333914" lon="10.692622216276007" id="-13223">
		<tag k="name" v="Danmark" />
		<tag k="natural" v="cape" />
		<tag k="ssr:stedsnr" v="305668" />
	</node>
	<node lat="59.305525002214395" lon="10.703025006366975" id="-13224">
		<tag k="name" v="Taralden" />
		<tag k="place" v="islet" />
		<tag k="ssr:stedsnr" v="305669" />
	</node>
	<node lat="59.446327779250474" lon="10.658299999895698" id="-13226">
		<tag k="alt_name" v="Rosnestangen" />
		<tag k="name" v="Rossnestangen" />
		<tag k="natural" v="cape" />
		<tag k="ssr:stedsnr" v="305959" />
	</node>
	<node lat="59.3370555595326" lon="10.65998055431936" id="-13228">
		<tag k="name" v="Gårdstangen" />
		<tag k="natural" v="cape" />
		<tag k="ssr:stedsnr" v="306555" />
	</node>
	<node lat="59.329530555933665" lon="10.651038882226713" id="-13229">
		<tag k="alt_name" v="Kollesundet" />
		<tag k="name" v="Kollsundet" />
		<tag k="natural" v="strait" />
		<tag k="ssr:stedsnr" v="306559" />
	</node>
	<node lat="59.48715000088355" lon="10.606099994956487" id="-13231">
		<tag k="name" v="Neskrakken" />
		<tag k="natural" v="shoal" />
		<tag k="place" v="locality" />
		<tag k="ssr:stedsnr" v="306925" />
	</node>
	<node lat="59.50440833215642" lon="10.66243888439789" id="-13233">
		<tag k="name" v="Høkesetodden" />
		<tag k="natural" v="cape" />
		<tag k="ssr:stedsnr" v="308899" />
	</node>
	<node lat="59.3400666691366" lon="10.661891662305917" id="-13243">
		<tag k="fixme" v="consider seamark:type=rock or natural=shoal" />
		<tag k="name" v="Klokkeren" />
		<tag k="place" v="islet" />
		<tag k="ssr:stedsnr" v="356432" />
	</node>
	<node lat="59.35645000049394" lon="10.657538888013631" id="-13244">
		<tag k="fixme" v="consider seamark:type=rock or natural=shoal" />
		<tag k="name" v="Blåskjær" />
		<tag k="place" v="islet" />
		<tag k="ssr:stedsnr" v="356437" />
	</node>
	<node lat="59.33318611334499" lon="10.663244449466537" id="-13245">
		<tag k="name" v="Tollstranda" />
		<tag k="natural" v="beach" />
		<tag k="ssr:stedsnr" v="356438" />
	</node>
	<node lat="59.48904444064837" lon="10.644413894757564" id="-13256">
		<tag k="name" v="Kuskjærbukta" />
		<tag k="natural" v="bay" />
		<tag k="ssr:stedsnr" v="476836" />
	</node>
	<node lat="59.34874722301709" lon="10.641891661403582" id="-13275">
		<tag k="alt_name" v="Botnegrunnene" />
		<tag k="name" v="Botnergrunnen" />
		<tag k="natural" v="shoal" />
		<tag k="place" v="locality" />
		<tag k="ssr:stedsnr" v="366595" />
	</node>
	<node lat="59.419658330070334" lon="10.629325008023455" id="-13277">
		<tag k="name" v="Reiertangen" />
		<tag k="natural" v="cape" />
		<tag k="ssr:stedsnr" v="366977" />
	</node>
	<node lat="59.44010277878818" lon="10.672650002501044" id="-13288">
		<tag k="name" v="Sponvika" />
		<tag k="natural" v="bay" />
		<tag k="ssr:stedsnr" v="480730" />
	</node>
	<node lat="59.31496111096468" lon="10.679452774844112" id="-13290">
		<tag k="alt_name" v="Engerholmbukta" />
		<tag k="name" v="Engholmbukta" />
		<tag k="natural" v="bay" />
		<tag k="ssr:stedsnr" v="392134" />
	</node>
	<node lat="59.51356111350505" lon="10.603999993041214" id="-13307">
		<tag k="name" v="Lindholmgrunnen" />
		<tag k="natural" v="shoal" />
		<tag k="place" v="locality" />
		<tag k="ssr:stedsnr" v="488512" />
	</node>
	<node lat="59.49386388788395" lon="10.644136106410595" id="-13314">
		<tag k="name" v="Nesbukta" />
		<tag k="natural" v="bay" />
		<tag k="ssr:stedsnr" v="488916" />
	</node>
	<node lat="59.37472499830946" lon="10.653688883589385" id="-13323">
		<tag k="name" v="Årefjordtangen" />
		<tag k="natural" v="cape" />
		<tag k="ssr:stedsnr" v="730596" />
	</node>
	<node lat="59.488469444907544" lon="10.686299999175754" id="-13324">
		<tag k="name" v="Løvikholmen" />
		<tag k="natural" v="cape" />
		<tag k="ssr:stedsnr" v="453874" />
	</node>
	<node lat="59.32529444480091" lon="10.714388884906745" id="-13328">
		<tag k="fixme" v="consider seamark:type=rock or natural=shoal" />
		<tag k="name" v="Sørskjæret" />
		<tag k="place" v="islet" />
		<tag k="ssr:stedsnr" v="477414" />
	</node>
	<node lat="59.322383329713034" lon="10.649913880641597" id="-13341">
		<tag k="alt_name" v="Eløya" />
		<tag k="name" v="Eldøya" />
		<tag k="place" v="island" />
		<tag k="ssr:stedsnr" v="488593" />
	</node>
	<node lat="59.31233055946518" lon="10.70734723101543" id="-13342">
		<tag k="alt_name" v="Steinane" />
		<tag k="fixme" v="consider seamark:type=rock or natural=shoal" />
		<tag k="name" v="Steinene" />
		<tag k="place" v="islet" />
		<tag k="ssr:stedsnr" v="513777" />
	</node>
	<node lat="59.32580000188983" lon="10.635666658898613" id="-13343">
		<tag k="fixme" v="consider seamark:type=rock or natural=shoal" />
		<tag k="name" v="Eldøyrevet" />
		<tag k="place" v="islet" />
		<tag k="ssr:stedsnr" v="513781" />
	</node>
	<node lat="59.321616664493625" lon="10.679211115418564" id="-13357">
		<tag k="alt_name" v="Rørvikbukta" />
		<tag k="name" v="Rørvika" />
		<tag k="natural" v="bay" />
		<tag k="ssr:stedsnr" v="548609" />
	</node>
	<node lat="59.3281111155666" lon="10.667680551489582" id="-13361">
		<tag k="name" v="Leirsbogen" />
		<tag k="natural" v="bay" />
		<tag k="ssr:stedsnr" v="571853" />
	</node>
	<node lat="59.3134416635616" lon="10.682272230071849" id="-13362">
		<tag k="name" v="Langstranda" />
		<tag k="natural" v="beach" />
		<tag k="ssr:stedsnr" v="574127" />
	</node>
	<node lat="59.342241078558075" lon="10.662203269354194" id="-13364">
		<tag k="alt_name" v="Sluvikbukta" />
		<tag k="loc_name" v="Stuviken;Stuvika" />
		<tag k="name" v="Stuvvika" />
		<tag k="natural" v="bay" />
		<tag k="ssr:stedsnr" v="695830" />
	</node>
	<node lat="59.34081111311859" lon="10.66183888696002" id="-13368">
		<tag k="fixme" v="consider seamark:type=rock or natural=shoal" />
		<tag k="name" v="Presten" />
		<tag k="place" v="islet" />
		<tag k="ssr:stedsnr" v="598413" />
	</node>
	<node lat="59.346102776760524" lon="10.661044449658071" id="-13369">
		<tag k="name" v="Fristranda" />
		<tag k="natural" v="beach" />
		<tag k="ssr:stedsnr" v="598414" />
	</node>
	<node lat="59.46227778113578" lon="10.665136115327554" id="-13375">
		<tag k="name" v="Kjellandsviktangen" />
		<tag k="natural" v="cape" />
		<tag k="ssr:stedsnr" v="599202" />
	</node>
	<node lat="59.487997224898336" lon="10.687205556240686" id="-13378">
		<tag k="name" v="Dragkisteskuffa" />
		<tag k="natural" v="bay" />
		<tag k="ssr:stedsnr" v="601699" />
	</node>
	<node lat="59.33363889266527" lon="10.72238610841336" id="-13381">
		<tag k="fixme" v="consider seamark:type=rock or natural=shoal" />
		<tag k="name" v="Sjuskjær" />
		<tag k="place" v="islet" />
		<tag k="ssr:stedsnr" v="609434" />
	</node>
	<node lat="59.519500001518914" lon="10.606880561776745" id="-13382">
		<tag k="name" v="Storholmgrunnen" />
		<tag k="natural" v="shoal" />
		<tag k="place" v="locality" />
		<tag k="ssr:stedsnr" v="609486" />
	</node>
	<node lat="59.510963884742026" lon="10.646750005655345" id="-13383">
		<tag k="name" v="Bevøysundet" />
		<tag k="natural" v="strait" />
		<tag k="ssr:stedsnr" v="609492" />
	</node>
	<node lat="59.438613891044014" lon="10.592872227114555" id="-13384">
		<tag k="name" v="Hesteberget" />
		<tag k="natural" v="cape" />
		<tag k="ssr:stedsnr" v="634894" />
	</node>
	<node lat="59.31008333566205" lon="10.682933327169486" id="-13386">
		<tag k="name" v="Nordre Nesbukta" />
		<tag k="natural" v="bay" />
		<tag k="ssr:stedsnr" v="659133" />
	</node>
	<node lat="59.357280558314294" lon="10.6661583321525" id="-13400">
		<tag k="alt_name" v="Evjesund" />
		<tag k="name" v="Evjesundet" />
		<tag k="natural" v="strait" />
		<tag k="ssr:stedsnr" v="669588" />
	</node>
	<node lat="59.3238805525011" lon="10.668852769386696" id="-13411">
		<tag k="name" v="Andrénskjæret" />
		<tag k="place" v="islet" />
		<tag k="ssr:stedsnr" v="721003" />
	</node>
	<node lat="59.33513333716231" lon="10.647236119032183" id="-13455">
		<tag k="name" v="Kollesten" />
		<tag k="natural" v="cape" />
		<tag k="ssr:stedsnr" v="781106" />
	</node>
	<node lat="59.48858333688618" lon="10.642605564262906" id="-13467">
		<tag k="name" v="Furuodden" />
		<tag k="natural" v="cape" />
		<tag k="ssr:stedsnr" v="786229" />
	</node>
	<node lat="59.50214999861342" lon="10.667099993620312" id="-13478">
		<tag k="name" v="Gjøvasundet" />
		<tag k="natural" v="strait" />
		<tag k="ssr:stedsnr" v="793908" />
	</node>
	<node lat="59.4393250013158" lon="10.659774993917297" id="-13479">
		<tag k="name" v="Sagmuggkanten" />
		<tag k="natural" v="shoal" />
		<tag k="place" v="locality" />
		<tag k="ssr:stedsnr" v="794904" />
	</node>
	<node lat="59.32672188085813" lon="10.715321447777578" id="-13483">
		<tag k="name" v="Sildebogen" />
		<tag k="natural" v="cape" />
		<tag k="ssr:stedsnr" v="913578" />
	</node>
	<node lat="59.526158329763575" lon="10.612358337219572" id="-13486">
		<tag k="name" v="Asbjørngrunnen" />
		<tag k="natural" v="shoal" />
		<tag k="place" v="locality" />
		<tag k="ssr:stedsnr" v="914561" />
	</node>
	<node lat="59.366127780941795" lon="10.658644447258588" id="-13491">
		<tag k="name" v="Fyrikken" />
		<tag k="place" v="islet" />
		<tag k="ssr:stedsnr" v="842006" />
	</node>
	<node lat="59.418369447805745" lon="10.60593056426345" id="-13509">
		<tag k="name" v="Roligbukt" />
		<tag k="natural" v="bay" />
		<tag k="ssr:stedsnr" v="842768" />
	</node>
	<node lat="59.311211107702476" lon="10.650338896111517" id="-13519">
		<tag k="name" v="Hellene" />
		<tag k="natural" v="shoal" />
		<tag k="place" v="locality" />
		<tag k="ssr:stedsnr" v="852612" />
	</node>
	<node lat="59.40701111460983" lon="10.596652777175693" id="-13520">
		<tag k="name" v="Stallene" />
		<tag k="natural" v="shoal" />
		<tag k="place" v="locality" />
		<tag k="ssr:stedsnr" v="852503" />
	</node>
	<node lat="59.41838888749189" lon="10.593027773387236" id="-13527">
		<tag k="name" v="Stalsberget" />
		<tag k="natural" v="cape" />
		<tag k="ssr:stedsnr" v="852970" />
	</node>
	<node lat="59.31673333088852" lon="10.67637222019755" id="-13534">
		<tag k="name" v="Engholmstangen" />
		<tag k="natural" v="cape" />
		<tag k="ssr:stedsnr" v="902411" />
	</node>
	<node lat="59.313355553605575" lon="10.637830554582445" id="-13555">
		<tag k="name" v="Hausen" />
		<tag k="natural" v="shoal" />
		<tag k="place" v="locality" />
		<tag k="ssr:stedsnr" v="913586" />
	</node>
	<node lat="59.465166870337235" lon="10.552921863879602" id="-13557">
		<tag k="bay" v="fjord" />
		<tag k="name" v="Breiangen" />
		<tag k="natural" v="bay" />
		<tag k="ssr:stedsnr" v="913913" />
	</node>
	<node lat="59.49099444589644" lon="10.650019451252573" id="-13561">
		<tag k="name" v="Pinnebukta" />
		<tag k="natural" v="bay" />
		<tag k="ssr:stedsnr" v="962840" />
	</node>
	<node lat="59.32640277796646" lon="10.642136114799166" id="-13565">
		<tag k="alt_name" v="Eløyrabben" />
		<tag k="name" v="Eldøyrabben" />
		<tag k="place" v="islet" />
		<tag k="ssr:stedsnr" v="963104" />
	</node>
	<node lat="59.33557500396795" lon="10.661180553273" id="-13566">
		<tag k="name" v="Rødstranda" />
		<tag k="natural" v="beach" />
		<tag k="ssr:stedsnr" v="963105" />
	</node>
	<node lat="59.46238611015411" lon="10.630219440837621" id="-13575">
		<tag k="name" v="Nebba" />
		<tag k="natural" v="beach" />
		<tag k="ssr:stedsnr" v="966214" />
	</node>
	<node lat="59.50538611205289" lon="10.603224994401925" id="-13588">
		<tag k="name" v="Bilekrakken" />
		<tag k="natural" v="shoal" />
		<tag k="place" v="locality" />
		<tag k="ssr:stedsnr" v="3478" />
	</node>
	<node lat="59.52686944019515" lon="10.623125000952314" id="-13589">
		<tag k="name" v="Bevøykollen" />
		<tag k="natural" v="shoal" />
		<tag k="place" v="locality" />
		<tag k="ssr:stedsnr" v="3498" />
	</node>
	<node lat="59.32603610726053" lon="10.66820277838502" id="-13591">
		<tag k="alt_name" v="Kloddskjæra;Klodskjæret" />
		<tag k="fixme" v="consider seamark:type=rock or natural=shoal" />
		<tag k="name" v="Klodskjæra" />
		<tag k="place" v="islet" />
		<tag k="ssr:stedsnr" v="25858" />
	</node>
	<node lat="59.331536107257236" lon="10.662755552587486" id="-13592">
		<tag k="name" v="Sandtangen" />
		<tag k="natural" v="cape" />
		<tag k="ssr:stedsnr" v="25859" />
	</node>
	<node lat="59.459686114944695" lon="10.619166658511695" id="-13593">
		<tag k="name" v="Rambergnebba" />
		<tag k="natural" v="cape" />
		<tag k="ssr:stedsnr" v="28133" />
	</node>
	<node lat="59.33956110893707" lon="10.730280562523594" id="-13594">
		<tag k="alt_name" v="Kureskjær" />
		<tag k="name" v="Kureskjæret" />
		<tag k="natural" v="cape" />
		<tag k="ssr:stedsnr" v="28836" />
	</node>
	<node lat="59.30378888693458" lon="10.689013891668292" id="-13599">
		<tag k="name" v="Søndre Danmarksbukta" />
		<tag k="natural" v="bay" />
		<tag k="ssr:stedsnr" v="52093" />
	</node>
	<node lat="59.32340277769766" lon="10.677511104822663" id="-13611">
		<tag k="name" v="Knarrebaugen" />
		<tag k="natural" v="bay" />
		<tag k="ssr:stedsnr" v="54010" />
	</node>
	<node lat="59.50200555540078" lon="10.656222229323003" id="-13625">
		<tag k="name" v="Nordre Jeløya" />
		<tag k="place" v="island" />
		<tag k="ssr:stedsnr" v="63542" />
	</node>
	<node lat="59.5074416665388" lon="10.628502771828936" id="-13626">
		<tag k="name" v="Bile" />
		<tag k="place" v="islet" />
		<tag k="ssr:stedsnr" v="63545" />
	</node>
	<node lat="59.41748333286353" lon="10.598924996036278" id="-13631">
		<tag k="alt_name" v="Bredbukt;Bredebukt" />
		<tag k="name" v="Breidbukta" />
		<tag k="natural" v="bay" />
		<tag k="ssr:stedsnr" v="63978" />
	</node>
	<node lat="59.319669444967055" lon="10.71229721990879" id="-13634">
		<tag k="name" v="Ulvegrunnen" />
		<tag k="natural" v="shoal" />
		<tag k="place" v="locality" />
		<tag k="ssr:stedsnr" v="89779" />
	</node>
	<node lat="59.347880556220844" lon="10.661583326383191" id="-13635">
		<tag k="alt_name" v="Botnerbaugen" />
		<tag k="name" v="Botnerbogen" />
		<tag k="natural" v="bay" />
		<tag k="ssr:stedsnr" v="89832" />
	</node>
	<node lat="59.318630559084674" lon="10.699080563636537" id="-13641">
		<tag k="name" v="Kurestekket" />
		<tag k="natural" v="cape" />
		<tag k="ssr:stedsnr" v="114394" />
	</node>
	<node lat="59.416955559219055" lon="10.60419166774176" id="-13653">
		<tag k="fixme" v="consider seamark:type=rock or natural=shoal" />
		<tag k="name" v="Albyskjæra" />
		<tag k="place" v="islet" />
		<tag k="ssr:stedsnr" v="116947" />
	</node>
	<node lat="59.40543611239593" lon="10.617894437168882" id="-13659">
		<tag k="name" v="Steinergrunnen" />
		<tag k="natural" v="shoal" />
		<tag k="place" v="locality" />
		<tag k="ssr:stedsnr" v="123556" />
	</node>
	<node lat="59.391225001443814" lon="10.649269453312058" id="-13662">
		<tag k="name" v="Kollestranda" />
		<tag k="natural" v="beach" />
		<tag k="ssr:stedsnr" v="146837" />
	</node>
	<node lat="59.5068972202701" lon="10.631188896953908" id="-13663">
		<tag k="name" v="Pipergrunnen" />
		<tag k="natural" v="shoal" />
		<tag k="place" v="locality" />
		<tag k="ssr:stedsnr" v="149779" />
	</node>
	<node lat="59.46880833009113" lon="10.625388889734372" id="-13664">
		<tag k="name" v="Flantorsk" />
		<tag k="place" v="islet" />
		<tag k="ssr:stedsnr" v="149885" />
	</node>
	<node lat="59.30722222648624" lon="10.693466675327745" id="-13665">
		<tag k="alt_name" v="Teiebærn" />
		<tag k="name" v="Teiebærholmen" />
		<tag k="natural" v="cape" />
		<tag k="ssr:stedsnr" v="149894" />
	</node>
	<node lat="59.429201365058" lon="10.645579424652091" id="-13681">
		<tag k="name" v="Vårli" />
		<tag k="natural" v="beach" />
		<tag k="ssr:stedsnr" v="177042" />
	</node>
	<node lat="59.37464722321345" lon="10.65050554846807" id="-13697">
		<tag k="alt_name" v="Siljusskjæret" />
		<tag k="fixme" v="consider seamark:type=rock or natural=shoal" />
		<tag k="name" v="Sildumskjær" />
		<tag k="place" v="islet" />
		<tag k="ssr:stedsnr" v="210900" />
	</node>
	<node lat="59.43391944764832" lon="10.571927777194272" id="-13737">
		<tag k="name" v="Gullholmkrakken" />
		<tag k="natural" v="shoal" />
		<tag k="place" v="locality" />
		<tag k="ssr:stedsnr" v="331774" />
	</node>
	<node lat="59.363808336474996" lon="10.660361106573749" id="-13738">
		<tag k="alt_name" v="Svartsker" />
		<tag k="fixme" v="consider seamark:type=rock or natural=shoal" />
		<tag k="name" v="Svartskjær" />
		<tag k="place" v="islet" />
		<tag k="ssr:stedsnr" v="331777" />
	</node>
	<node lat="59.464099999132934" lon="10.570322227282468" id="-13739">
		<tag k="name" v="Trollgrunnen" />
		<tag k="natural" v="shoal" />
		<tag k="place" v="locality" />
		<tag k="ssr:stedsnr" v="331873" />
	</node>
	<node lat="59.506666669712324" lon="10.653616671852188" id="-13740">
		<tag k="name" v="Hvittingbukta" />
		<tag k="natural" v="bay" />
		<tag k="ssr:stedsnr" v="331876" />
	</node>
	<node lat="59.486261112521845" lon="10.674755561709144" id="-13745">
		<tag k="name" v="Kippenes" />
		<tag k="natural" v="cape" />
		<tag k="ssr:stedsnr" v="355745" />
	</node>
	<node lat="59.448580559962544" lon="10.614966658557659" id="-13747">
		<tag k="name" v="Refsnesbukta" />
		<tag k="natural" v="bay" />
		<tag k="ssr:stedsnr" v="356058" />
	</node>
	<node lat="59.319602777341295" lon="10.680380560548306" id="-13751">
		<tag k="name" v="Tatervika" />
		<tag k="natural" v="bay" />
		<tag k="ssr:stedsnr" v="356392" />
	</node>
	<node lat="59.214972223183594" lon="10.636341670814504" id="-13760">
		<tag k="bay" v="fjord" />
		<tag k="name" v="Oslofjorden" />
		<tag k="natural" v="bay" />
		<tag k="ssr:stedsnr" v="365030" />
	</node>
	<node lat="59.31654444163117" lon="10.688980549933884" id="-13762">
		<tag k="name" v="Engholmen" />
		<tag k="natural" v="cape" />
		<tag k="ssr:stedsnr" v="366640" />
	</node>
	<node lat="59.39722499763727" lon="10.624813882991392" id="-13769">
		<tag k="name" v="Nygrunnen" />
		<tag k="natural" v="shoal" />
		<tag k="place" v="locality" />
		<tag k="ssr:stedsnr" v="392913" />
	</node>
	<node lat="59.36984721949374" lon="10.653652784429733" id="-13790">
		<tag k="name" v="Rumpa" />
		<tag k="natural" v="cape" />
		<tag k="ssr:stedsnr" v="427566" />
	</node>
	<node lat="59.4136638880909" lon="10.603211107539977" id="-13794">
		<tag k="name" v="Skjelgrunnen" />
		<tag k="natural" v="shoal" />
		<tag k="place" v="locality" />
		<tag k="ssr:stedsnr" v="513988" />
	</node>
	<node lat="59.44655555197973" lon="10.610008337360629" id="-13795">
		<tag k="fixme" v="consider seamark:type=rock or natural=shoal" />
		<tag k="name" v="Refsnesrevet" />
		<tag k="place" v="islet" />
		<tag k="ssr:stedsnr" v="513989" />
	</node>
	<node lat="59.30557777873373" lon="10.684080553844806" id="-13800">
		<tag k="name" v="Søndre Nesbukta" />
		<tag k="natural" v="bay" />
		<tag k="ssr:stedsnr" v="538128" />
	</node>
	<node lat="59.355602774891565" lon="10.658430549665873" id="-13804">
		<tag k="name" v="Nordre Holmebukta" />
		<tag k="natural" v="bay" />
		<tag k="ssr:stedsnr" v="538464" />
	</node>
	<node lat="59.46025277404127" lon="10.663941667876895" id="-13805">
		<tag k="alt_name" v="Kjeholmen;Skjæret" />
		<tag k="name" v="Eggholmen" />
		<tag k="place" v="islet" />
		<tag k="ssr:stedsnr" v="538878" />
	</node>
	<node lat="59.42341389264442" lon="10.635888881413617" id="-13811">
		<tag k="name" v="Lilleputt" />
		<tag k="natural" v="beach" />
		<tag k="ssr:stedsnr" v="541189" />
	</node>
	<node lat="59.30715277566422" lon="10.621633326284133" id="-13819">
		<tag k="name" v="Eldøygrunnen" />
		<tag k="natural" v="shoal" />
		<tag k="place" v="locality" />
		<tag k="ssr:stedsnr" v="548641" />
	</node>
	<node lat="59.44066666665424" lon="10.60746110905843" id="-13822">
		<tag k="alt_name" v="Tronvikbukta" />
		<tag k="name" v="Tronvika" />
		<tag k="natural" v="bay" />
		<tag k="ssr:stedsnr" v="548939" />
	</node>
	<node lat="59.43561944481937" lon="10.579352784563842" id="-13824">
		<tag k="name" v="Gullholmen" />
		<tag k="place" v="island" />
		<tag k="ssr:stedsnr" v="570081" />
	</node>
	<node lat="59.328244443116525" lon="10.664161116710464" id="-13826">
		<tag k="name" v="Fredriksodde" />
		<tag k="natural" v="cape" />
		<tag k="ssr:stedsnr" v="574866" />
	</node>
	<node lat="59.44363888634479" lon="10.668100008020884" id="-13832">
		<tag k="name" v="Sandbukta" />
		<tag k="natural" v="bay" />
		<tag k="ssr:stedsnr" v="599028" />
	</node>
	<node lat="59.32820277797711" lon="10.667427771198895" id="-13834">
		<tag k="name" v="Lersbaugen" />
		<tag k="natural" v="bay" />
		<tag k="ssr:stedsnr" v="598393" />
	</node>
	<node lat="59.509958331099824" lon="10.646949998780146" id="-13837">
		<tag k="name" v="Tangen" />
		<tag k="natural" v="cape" />
		<tag k="ssr:stedsnr" v="598848" />
	</node>
	<node lat="59.419702774786835" lon="10.645011111722326" id="-13859">
		<tag k="alt_name" v="Værlen" />
		<tag k="name" v="Verlebukta" />
		<tag k="natural" v="bay" />
		<tag k="ssr:stedsnr" v="609983" />
	</node>
	<node lat="59.5127305551722" lon="10.640847229206672" id="-13862">
		<tag k="name" v="Bevøya" />
		<tag k="place" v="island" />
		<tag k="ssr:stedsnr" v="609495" />
	</node>
	<node lat="59.35913333570579" lon="10.663538892347843" id="-13867">
		<tag k="name" v="Tangen" />
		<tag k="natural" v="cape" />
		<tag k="ssr:stedsnr" v="616658" />
	</node>
	<node lat="59.35616110960313" lon="10.667233334085605" id="-13868">
		<tag k="name" v="Klommetangen" />
		<tag k="natural" v="cape" />
		<tag k="ssr:stedsnr" v="631865" />
	</node>
	<node lat="59.31221388822366" lon="10.681244439820198" id="-13869">
		<tag k="name" v="Oterbukta" />
		<tag k="natural" v="bay" />
		<tag k="ssr:stedsnr" v="634796" />
	</node>
	<node lat="59.31998055418206" lon="10.658416664976935" id="-13875">
		<tag k="name" v="Ulkeodden" />
		<tag k="natural" v="cape" />
		<tag k="ssr:stedsnr" v="659118" />
	</node>
	<node lat="59.48380555753267" lon="10.63472777050127" id="-13877">
		<tag k="name" v="Katteberget" />
		<tag k="natural" v="cape" />
		<tag k="ssr:stedsnr" v="658770" />
	</node>
	<node lat="59.4588138865977" lon="10.662758331564273" id="-13890">
		<tag k="name" v="Søndre Kjellandsvikskjæra" />
		<tag k="place" v="locality" />
		<tag k="seamark:type" v="rock" />
		<tag k="ssr:stedsnr" v="662141" />
	</node>
	<node lat="59.34008055377182" lon="10.639538884052362" id="-13898">
		<tag k="alt_name" v="Lossgrunnen" />
		<tag k="name" v="Losgrunnen" />
		<tag k="natural" v="shoal" />
		<tag k="place" v="locality" />
		<tag k="ssr:stedsnr" v="670560" />
	</node>
	<node lat="59.344250000573105" lon="10.659541664863937" id="-13899">
		<tag k="name" v="Brentetangen" />
		<tag k="natural" v="cape" />
		<tag k="ssr:stedsnr" v="670562" />
	</node>
	<node lat="59.32155277584225" lon="10.671936112351124" id="-13905">
		<tag k="name" v="Hvitnesberget" />
		<tag k="natural" v="cape" />
		<tag k="ssr:stedsnr" v="720389" />
	</node>
	<node lat="59.37924722347694" lon="10.660269444467769" id="-13908">
		<tag k="name" v="Leira" />
		<tag k="natural" v="shoal" />
		<tag k="place" v="locality" />
		<tag k="ssr:stedsnr" v="721043" />
	</node>
	<node lat="59.36122777901626" lon="10.670983328634707" id="-13909">
		<tag k="name" v="Leira" />
		<tag k="natural" v="shoal" />
		<tag k="place" v="locality" />
		<tag k="ssr:stedsnr" v="721046" />
	</node>
	<node lat="59.47882500316222" lon="10.606711115381584" id="-13927">
		<tag k="name" v="Langgrunnen" />
		<tag k="natural" v="shoal" />
		<tag k="place" v="locality" />
		<tag k="ssr:stedsnr" v="731897" />
	</node>
	<node lat="59.31058055938643" lon="10.69304167127816" id="-13928">
		<tag k="fixme" v="multiple name tags, choose one and add the other to alt_name" />
		<tag k="name" v="Barselbukt;Knutvikbukta" />
		<tag k="natural" v="bay" />
		<tag k="ssr:stedsnr" v="756844" />
	</node>
	<node lat="59.30013610972109" lon="10.698563895819776" id="-13929">
		<tag k="name" v="Gampen" />
		<tag k="place" v="locality" />
		<tag k="seamark:type" v="rock" />
		<tag k="ssr:stedsnr" v="756783" />
	</node>
	<node lat="59.48364999776106" lon="10.686030560584705" id="-13930">
		<tag k="alt_name" v="Kulpe" />
		<tag k="name" v="Kulpeholmen" />
		<tag k="place" v="islet" />
		<tag k="ssr:stedsnr" v="756882" />
	</node>
	<node lat="59.39469721898824" lon="10.647536109882378" id="-13938">
		<tag k="name" v="Baugstangen" />
		<tag k="natural" v="cape" />
		<tag k="ssr:stedsnr" v="781131" />
	</node>
	<node lat="59.31432500195979" lon="10.720619437382622" id="-13949">
		<tag k="name" v="Hestholmen" />
		<tag k="place" v="islet" />
		<tag k="ssr:stedsnr" v="791626" />
	</node>
	<node lat="59.30600555468606" lon="10.6878416703624" id="-13950">
		<tag k="name" v="Stretaneset" />
		<tag k="natural" v="cape" />
		<tag k="ssr:stedsnr" v="791627" />
	</node>
	<node lat="59.38126666719639" lon="10.635733332570169" id="-13974">
		<tag k="alt_name" v="Fuglene" />
		<tag k="name" v="Fuglen" />
		<tag k="natural" v="shoal" />
		<tag k="place" v="locality" />
		<tag k="ssr:stedsnr" v="852542" />
	</node>
	<node lat="59.42362222245315" lon="10.618805550078953" id="-13977">
		<tag k="name" v="Reierbukta" />
		<tag k="natural" v="bay" />
		<tag k="ssr:stedsnr" v="852985" />
	</node>
	<node lat="59.450047219340426" lon="10.635091669653312" id="-13979">
		<tag k="name" v="Jeløya" />
		<tag k="old_name" v="Jeløen" />
		<tag k="place" v="island" />
		<tag k="ssr:stedsnr" v="852938" />
	</node>
	<node lat="59.36707221826423" lon="10.651111112943829" id="-13980">
		<tag k="name" v="Årefjordbåen" />
		<tag k="place" v="locality" />
		<tag k="seamark:type" v="rock" />
		<tag k="ssr:stedsnr" v="877991" />
	</node>
	<node lat="59.3330861148599" lon="10.718541667637878" id="-13981">
		<tag k="name" v="Møvik" />
		<tag k="natural" v="bay" />
		<tag k="ssr:stedsnr" v="874781" />
	</node>
	<node lat="59.307497223300324" lon="10.682230546884199" id="-13982">
		<tag k="alt_name" v="Neset" />
		<tag k="name" v="Signneset" />
		<tag k="natural" v="cape" />
		<tag k="ssr:stedsnr" v="878786" />
	</node>
	<node lat="59.38889999676491" lon="10.639091664942573" id="-13983">
		<tag k="name" v="Revlinghausen" />
		<tag k="place" v="locality" />
		<tag k="seamark:type" v="rock" />
		<tag k="ssr:stedsnr" v="938896" />
	</node>
	<node lat="59.36144166932135" lon="10.664552778195056" id="-13984">
		<tag k="name" v="Posjetangen" />
		<tag k="natural" v="cape" />
		<tag k="ssr:stedsnr" v="938898" />
	</node>
	<node lat="59.317869447450214" lon="10.698872222047356" id="-13985">
		<tag k="name" v="Husebukta" />
		<tag k="natural" v="bay" />
		<tag k="ssr:stedsnr" v="938877" />
	</node>
	<node lat="59.32866666246083" lon="10.664727777531546" id="-13993">
		<tag k="name" v="Festningstangen" />
		<tag k="natural" v="cape" />
		<tag k="ssr:stedsnr" v="963441" />
	</node>
	<node lat="59.42813889116418" lon="10.64244443695855" id="-14007">
		<tag k="name" v="Vårlistranda" />
		<tag k="natural" v="beach" />
		<tag k="ssr:stedsnr" v="966181" />
	</node>
	<node lat="59.41749444194375" lon="10.618755563907674" id="-14008">
		<tag k="name" v="Teinegrunnen" />
		<tag k="natural" v="shoal" />
		<tag k="place" v="locality" />
		<tag k="ssr:stedsnr" v="966951" />
	</node>
	<node lat="59.332441055063654" lon="10.654476354099295" id="-14017">
		<tag k="name" v="Kirkegårdsbukta" />
		<tag k="natural" v="bay" />
		<tag k="ssr:stedsnr" v="987559" />
	</node>
	<node lat="59.37467993089819" lon="10.661800500032344" id="-14018">
		<tag k="name" v="Bryggeberget" />
		<tag k="natural" v="cape" />
		<tag k="ssr:stedsnr" v="987564" />
	</node>
</osm>
