<?xml version="1.0" encoding="UTF-8"?>
<osm version="0.6" generator="osmapis">
	<node lat="59.45969638723551" lon="10.764597644497707" id="-21584">
		<tag k="alt_name" v="Rødsund" />
		<tag k="bridge" v="yes" />
		<tag k="layer" v="1" />
		<tag k="name" v="Rødsund bru" />
		<tag k="ssr:stedsnr" v="167621" />
	</node>
	<node lat="59.376924997774715" lon="10.749361114738855" id="-21613">
		<tag k="bridge" v="yes" />
		<tag k="layer" v="1" />
		<tag k="name" v="Rygge stasjon" />
		<tag k="ssr:stedsnr" v="228486" />
	</node>
	<node lat="59.42363611351276" lon="10.67248888708476" id="-21662">
		<tag k="bridge" v="yes" />
		<tag k="layer" v="1" />
		<tag k="name" v="Melløs" />
		<tag k="ssr:stedsnr" v="470580" />
	</node>
	<node lat="59.41967778096106" lon="10.704788897329859" id="-21663">
		<tag k="bridge" v="yes" />
		<tag k="layer" v="1" />
		<tag k="name" v="Frydenlund vest" />
		<tag k="ssr:stedsnr" v="471445" />
	</node>
	<node lat="59.45743055335268" lon="10.680283324653207" id="-21670">
		<tag k="fixme" v="consider highway=path" />
		<tag k="highway" v="track" />
		<tag k="name" v="Gamlevegen" />
		<tag k="ssr:stedsnr" v="356215" />
	</node>
	<node lat="59.362861112916036" lon="10.72418332730153" id="-21678">
		<tag k="junction" v="yes" />
		<tag k="name" v="Pytten" />
		<tag k="place" v="locality" />
		<tag k="ssr:stedsnr" v="357318" />
	</node>
	<node lat="59.42905277845735" lon="10.654583328063495" id="-21714">
		<tag k="man_made" v="quay" />
		<tag k="name" v="Verlebrygga" />
		<tag k="place" v="locality" />
		<tag k="ssr:stedsnr" v="480054" />
	</node>
	<node lat="59.43405832897507" lon="10.657316672926758" id="-21719">
		<tag k="bridge" v="yes" />
		<tag k="layer" v="1" />
		<tag k="name" v="Værlegata" />
		<tag k="ssr:stedsnr" v="410589" />
	</node>
	<node lat="59.473497220191916" lon="10.701766664876365" id="-21720">
		<tag k="bridge" v="yes" />
		<tag k="layer" v="1" />
		<tag k="name" v="Ungerholt øst" />
		<tag k="ssr:stedsnr" v="410590" />
	</node>
	<node lat="59.445394448167825" lon="10.703625004808865" id="-21721">
		<tag k="bridge" v="yes" />
		<tag k="layer" v="1" />
		<tag k="name" v="Mosseporten" />
		<tag k="ssr:stedsnr" v="410594" />
	</node>
	<node lat="59.47457777962682" lon="10.693658338822068" id="-21722">
		<tag k="bridge" v="yes" />
		<tag k="layer" v="1" />
		<tag k="name" v="Kambo" />
		<tag k="ssr:stedsnr" v="410596" />
	</node>
	<node lat="59.442604116954" lon="10.650538125448172" id="-21727">
		<tag k="landuse" v="harbour" />
		<tag k="name" v="Betongen båthavn" />
		<tag k="seamark:type" v="harbour" />
		<tag k="ssr:stedsnr" v="416867" />
	</node>
	<node lat="59.422083334009585" lon="10.624544437203836" id="-21743">
		<tag k="man_made" v="quay" />
		<tag k="name" v="Reierbrygga" />
		<tag k="place" v="locality" />
		<tag k="ssr:stedsnr" v="420941" />
	</node>
	<node lat="59.451702774548934" lon="10.733694436012236" id="-21753">
		<tag k="bridge" v="yes" />
		<tag k="layer" v="1" />
		<tag k="name" v="Vanem" />
		<tag k="ssr:stedsnr" v="471577" />
	</node>
	<node lat="59.388638892702836" lon="10.726425003673295" id="-21760">
		<tag k="bridge" v="yes" />
		<tag k="layer" v="1" />
		<tag k="name" v="Bjølsen" />
		<tag k="ssr:stedsnr" v="478806" />
	</node>
	<node lat="59.456319447399665" lon="10.758883341379482" id="-21772">
		<tag k="bridge" v="yes" />
		<tag k="layer" v="1" />
		<tag k="name" v="Gashus" />
		<tag k="ssr:stedsnr" v="531625" />
	</node>
	<node lat="59.43267777995532" lon="10.65271388174821" id="-21774">
		<tag k="name" v="Kanalen" />
		<tag k="ssr:stedsnr" v="537879" />
		<tag k="waterway" v="canal" />
	</node>
	<node lat="59.30581666339487" lon="10.697161110875811" id="-21791">
		<tag k="name" v="Teipa" />
		<tag k="place" v="locality" />
		<tag k="ssr:stedsnr" v="574906" />
	</node>
	<node lat="59.429480555224075" lon="10.654269447935722" id="-21807">
		<tag k="amenity" v="ferry_terminal" />
		<tag k="name" v="Moss ferjekai" />
		<tag k="ssr:stedsnr" v="605709" />
	</node>
	<node lat="59.31170278112961" lon="10.701341666737813" id="-21813">
		<tag k="name" v="Flata" />
		<tag k="place" v="locality" />
		<tag k="ssr:stedsnr" v="634897" />
	</node>
	<node lat="59.423380557818696" lon="10.707144450792045" id="-21833">
		<tag k="bridge" v="yes" />
		<tag k="layer" v="1" />
		<tag k="name" v="Lille Storebog" />
		<tag k="ssr:stedsnr" v="896460" />
	</node>
	<node lat="59.438386107755825" lon="10.674219447372833" id="-21834">
		<tag k="bridge" v="yes" />
		<tag k="layer" v="1" />
		<tag k="name" v="Mosseelva" />
		<tag k="ssr:stedsnr" v="713609" />
	</node>
	<node lat="59.38642222458988" lon="10.687666674399567" id="-21867">
		<tag k="bridge" v="yes" />
		<tag k="layer" v="1" />
		<tag k="name" v="Jokums bru" />
		<tag k="ssr:stedsnr" v="903927" />
	</node>
	<node lat="59.35680277927129" lon="10.749436119086635" id="-21871">
		<tag k="junction" v="yes" />
		<tag k="name" v="Katrinekrysset" />
		<tag k="place" v="locality" />
		<tag k="ssr:stedsnr" v="904224" />
	</node>
	<node lat="59.472030555498954" lon="10.680708336222455" id="-21878">
		<tag k="man_made" v="quay" />
		<tag k="name" v="Felleskjøpets kai" />
		<tag k="place" v="locality" />
		<tag k="ssr:stedsnr" v="906740" />
	</node>
	<node lat="59.43575833524277" lon="10.67085000663695" id="-21916">
		<tag k="bridge" v="yes" />
		<tag k="layer" v="1" />
		<tag k="name" v="Myra" />
		<tag k="ssr:stedsnr" v="835607" />
	</node>
	<node lat="59.36813610748166" lon="10.684152773977695" id="-21928">
		<tag k="junction" v="yes" />
		<tag k="name" v="Evjekrysset" />
		<tag k="place" v="locality" />
		<tag k="ssr:stedsnr" v="842088" />
	</node>
	<node lat="59.47459444063954" lon="10.702069437191664" id="-21959">
		<tag k="bridge" v="yes" />
		<tag k="layer" v="1" />
		<tag k="name" v="Ungerholt vest" />
		<tag k="ssr:stedsnr" v="896614" />
	</node>
	<node lat="59.446680555845205" lon="10.711072218272426" id="-21960">
		<tag k="bridge" v="yes" />
		<tag k="layer" v="1" />
		<tag k="name" v="Nore" />
		<tag k="ssr:stedsnr" v="896621" />
	</node>
	<node lat="59.43461388856926" lon="10.653038896563313" id="-21976">
		<tag k="man_made" v="quay" />
		<tag k="name" v="Østre Kanalbrygga" />
		<tag k="place" v="locality" />
		<tag k="ssr:stedsnr" v="905206" />
	</node>
	<node lat="59.43531388473334" lon="10.654588893058571" id="-21977">
		<tag k="man_made" v="quay" />
		<tag k="name" v="Brynildsens brygge" />
		<tag k="place" v="locality" />
		<tag k="ssr:stedsnr" v="905208" />
	</node>
	<node lat="59.477609532406575" lon="10.692250786945463" id="-21984">
		<tag k="name" v="Kambo holdeplass" />
		<tag k="railway" v="halt" />
		<tag k="ssr:stedsnr" v="913903" />
		<tag k="train" v="yes" />
	</node>
	<node lat="59.37760846895872" lon="10.74879756033171" id="-21986">
		<tag k="alt_name" v="Rygge" />
		<tag k="name" v="Rygge stasjon" />
		<tag k="railway" v="station" />
		<tag k="ssr:stedsnr" v="935074" />
		<tag k="train" v="yes" />
	</node>
	<node lat="59.44476666812562" lon="10.68440555632087" id="-22024">
		<tag k="bridge" v="yes" />
		<tag k="layer" v="1" />
		<tag k="name" v="Tigerplassen" />
		<tag k="ssr:stedsnr" v="46628" />
	</node>
	<node lat="59.440627773453194" lon="10.705538889257316" id="-22025">
		<tag k="bridge" v="yes" />
		<tag k="layer" v="1" />
		<tag k="name" v="Patterød vest" />
		<tag k="ssr:stedsnr" v="46631" />
	</node>
	<node lat="59.465583329818" lon="10.699591670046543" id="-22026">
		<tag k="bridge" v="yes" />
		<tag k="layer" v="1" />
		<tag k="name" v="Nøkkeland vest" />
		<tag k="ssr:stedsnr" v="46633" />
	</node>
	<node lat="59.386650028268214" lon="10.65298632705343" id="-22035">
		<tag k="leisure" v="marina" />
		<tag k="name" v="Fuglevik båthavn" />
		<tag k="ssr:stedsnr" v="53140" />
	</node>
	<node lat="59.43571944796522" lon="10.649477775563897" id="-22044">
		<tag k="man_made" v="quay" />
		<tag k="name" v="Hesselbergbrygga" />
		<tag k="place" v="locality" />
		<tag k="ssr:stedsnr" v="55214" />
	</node>
	<node lat="59.434911113635316" lon="10.651500007956534" id="-22045">
		<tag k="man_made" v="quay" />
		<tag k="name" v="Vestre Kanalbrygga" />
		<tag k="place" v="locality" />
		<tag k="ssr:stedsnr" v="56199" />
	</node>
	<node lat="59.49488055413637" lon="10.664480558011064" id="-22061">
		<tag k="alt_name" v="Kongshamn" />
		<tag k="name" v="Kongshavn" />
		<tag k="place" v="locality" />
		<tag k="ssr:stedsnr" v="89774" />
	</node>
	<node lat="59.45328055175234" lon="10.750874992308534" id="-22064">
		<tag k="bridge" v="yes" />
		<tag k="layer" v="1" />
		<tag k="name" v="Rød" />
		<tag k="ssr:stedsnr" v="107601" />
	</node>
	<node lat="59.38889444262236" lon="10.744141668889183" id="-22095">
		<tag k="bridge" v="yes" />
		<tag k="layer" v="1" />
		<tag k="name" v="Patterød øst" />
		<tag k="ssr:stedsnr" v="167478" />
	</node>
	<node lat="59.37863055404055" lon="10.658761113555224" id="-22098">
		<tag k="man_made" v="quay" />
		<tag k="name" v="Lagerhusbrygga" />
		<tag k="place" v="locality" />
		<tag k="ssr:stedsnr" v="174076" />
	</node>
	<node lat="59.43381111159868" lon="10.652916658272268" id="-22127">
		<tag k="bridge" v="yes" />
		<tag k="layer" v="1" />
		<tag k="name" v="Moss kanal" />
		<tag k="ssr:stedsnr" v="228647" />
	</node>
	<node lat="59.35666666945883" lon="10.740294436829554" id="-22128">
		<tag k="bridge" v="yes" />
		<tag k="layer" v="1" />
		<tag k="name" v="Kure" />
		<tag k="ssr:stedsnr" v="289447" />
	</node>
	<node lat="59.44563610816307" lon="10.688372220228297" id="-22129">
		<tag k="bridge" v="yes" />
		<tag k="layer" v="1" />
		<tag k="name" v="Mossebakken" />
		<tag k="ssr:stedsnr" v="289639" />
	</node>
	<node lat="59.43629166663534" lon="10.656838889125611" id="-22151">
		<tag k="man_made" v="quay" />
		<tag k="name" v="Sundbrygga" />
		<tag k="place" v="locality" />
		<tag k="ssr:stedsnr" v="298198" />
	</node>
	<node lat="59.48012499911293" lon="10.686705563731453" id="-22153">
		<tag k="man_made" v="quay" />
		<tag k="name" v="Norsk Gulfs kai" />
		<tag k="place" v="locality" />
		<tag k="ssr:stedsnr" v="299731" />
	</node>
	<node lat="59.445399996873704" lon="10.701611103076873" id="-22163">
		<tag k="junction" v="yes" />
		<tag k="name" v="Patterød" />
		<tag k="place" v="locality" />
		<tag k="ssr:stedsnr" v="328078" />
	</node>
	<node lat="59.427222221239205" lon="10.7066916695855" id="-22170">
		<tag k="bridge" v="yes" />
		<tag k="layer" v="1" />
		<tag k="name" v="Storebog vest" />
		<tag k="ssr:stedsnr" v="349499" />
	</node>
	<node lat="59.385836115298424" lon="10.751258335642927" id="-22199">
		<tag k="bridge" v="yes" />
		<tag k="layer" v="1" />
		<tag k="name" v="Halmstad" />
		<tag k="ssr:stedsnr" v="410455" />
	</node>
	<node lat="59.43186952467566" lon="10.680424353347666" id="-22204">
		<tag k="bridge" v="yes" />
		<tag k="layer" v="1" />
		<tag k="name" v="Krapfoss bru" />
		<tag k="ssr:stedsnr" v="417023" />
	</node>
	<node lat="59.43392222653123" lon="10.655655555882221" id="-22226">
		<tag k="bridge" v="yes" />
		<tag k="layer" v="1" />
		<tag k="name" v="Rådhusplassen" />
		<tag k="ssr:stedsnr" v="531619" />
	</node>
	<node lat="59.47668889202791" lon="10.686516659582242" id="-22242">
		<tag k="man_made" v="quay" />
		<tag k="name" v="Dyno Industriers kai" />
		<tag k="place" v="locality" />
		<tag k="ssr:stedsnr" v="541730" />
	</node>
	<node lat="59.37566317638778" lon="10.782196014365264" id="-22244">
		<tag k="aeroway" v="aerodrome" />
		<tag k="alt_name" v="Rygge" />
		<tag k="name" v="Moss lufthavn, Rygge" />
		<tag k="ssr:stedsnr" v="548301" />
	</node>
	<node lat="59.4319883822768" lon="10.657350410744936" id="-22257">
		<tag k="alt_name" v="Moss" />
		<tag k="name" v="Moss stasjon" />
		<tag k="old_name" v="Moss jernbanestasjon" />
		<tag k="railway" v="station" />
		<tag k="ssr:stedsnr" v="579137" />
		<tag k="train" v="yes" />
	</node>
	<node lat="59.414500000556686" lon="10.693680548255292" id="-22258">
		<tag k="bridge" v="yes" />
		<tag k="layer" v="1" />
		<tag k="name" v="Myravegen" />
		<tag k="ssr:stedsnr" v="592478" />
	</node>
	<node lat="59.43360277610927" lon="10.658786119681354" id="-22259">
		<tag k="bridge" v="yes" />
		<tag k="layer" v="1" />
		<tag k="name" v="Fjordvegen" />
		<tag k="ssr:stedsnr" v="592626" />
	</node>
	<node lat="59.436763889804794" lon="10.594355551677728" id="-22274">
		<tag k="man_made" v="tower" />
		<tag k="name" v="Jeløy radio" />
		<tag k="ssr:stedsnr" v="599767" />
		<tag k="tower:type" v="communications" />
	</node>
	<node lat="59.4253333364468" lon="10.65748611120277" id="-22286">
		<tag k="man_made" v="quay" />
		<tag k="name" v="Fyllinga" />
		<tag k="place" v="locality" />
		<tag k="ssr:stedsnr" v="601190" />
	</node>
	<node lat="59.43873888688161" lon="10.66073333397654" id="-22287">
		<tag k="man_made" v="quay" />
		<tag k="name" v="Moss Aktiemøllers kai" />
		<tag k="place" v="locality" />
		<tag k="ssr:stedsnr" v="601196" />
	</node>
	<node lat="59.445606709425455" lon="10.6933193829333" id="-22301">
		<tag k="layer" v="-1" />
		<tag k="name" v="Mosseporten" />
		<tag k="ssr:stedsnr" v="651331" />
		<tag k="tunnel" v="yes" />
	</node>
	<node lat="59.46478333697703" lon="10.699358342167864" id="-22302">
		<tag k="bridge" v="yes" />
		<tag k="layer" v="1" />
		<tag k="name" v="Nøkkeland øst" />
		<tag k="ssr:stedsnr" v="652575" />
	</node>
	<node lat="59.41476288866541" lon="10.70087907624441" id="-22362">
		<tag k="alt_name" v="Årvoldkrysset" />
		<tag k="junction" v="yes" />
		<tag k="name" v="Årvollkrysset" />
		<tag k="place" v="locality" />
		<tag k="ssr:stedsnr" v="774486" />
	</node>
	<node lat="59.426952781929344" lon="10.64088889404301" id="-22365">
		<tag k="alt_name" v="Sjøly" />
		<tag k="landuse" v="harbour" />
		<tag k="name" v="Søly båthavn" />
		<tag k="seamark:type" v="harbour" />
		<tag k="ssr:stedsnr" v="780875" />
	</node>
	<node lat="59.32819721931492" lon="10.704497218711177" id="-22367">
		<tag k="highway" v="path" />
		<tag k="name" v="Bølåsveien" />
		<tag k="ssr:stedsnr" v="781436" />
	</node>
	<node lat="59.43006389267141" lon="10.64782778013639" id="-22384">
		<tag k="landuse" v="harbour" />
		<tag k="name" v="Fiske båthavn" />
		<tag k="seamark:type" v="harbour" />
		<tag k="ssr:stedsnr" v="841901" />
	</node>
	<node lat="59.44443333249789" lon="10.654944451873362" id="-22399">
		<tag k="man_made" v="quay" />
		<tag k="name" v="Rossnesbrygga" />
		<tag k="place" v="locality" />
		<tag k="ssr:stedsnr" v="845151" />
	</node>
	<node lat="59.44374167004495" lon="10.650677784237496" id="-22400">
		<tag k="man_made" v="quay" />
		<tag k="name" v="Rossnesstranda" />
		<tag k="place" v="locality" />
		<tag k="ssr:stedsnr" v="845158" />
	</node>
	<node lat="59.42723055619337" lon="10.658161118072414" id="-22401">
		<tag k="man_made" v="quay" />
		<tag k="name" v="Gernerbrygga" />
		<tag k="place" v="locality" />
		<tag k="ssr:stedsnr" v="845221" />
	</node>
	<node lat="59.433277853710095" lon="10.65276382751949" id="-22445">
		<tag k="man_made" v="quay" />
		<tag k="name" v="Gjestebrygga" />
		<tag k="place" v="locality" />
		<tag k="ssr:stedsnr" v="987538" />
	</node>
	<node lat="59.43480907666866" lon="10.652848435309158" id="-22446">
		<tag k="man_made" v="quay" />
		<tag k="name" v="Tollbubrygga" />
		<tag k="place" v="locality" />
		<tag k="ssr:stedsnr" v="987539" />
	</node>
	<node lat="59.435222724547614" lon="10.651489045962318" id="-22447">
		<tag k="man_made" v="quay" />
		<tag k="name" v="Vestre Kanalkai" />
		<tag k="place" v="locality" />
		<tag k="ssr:stedsnr" v="987540" />
	</node>
</osm>
