<?xml version="1.0" encoding="UTF-8"?>
<osm generator="osmapis" version="0.6">
	<node id="-148480" lat="60.9624083377" lon="9.56680276939">
		<tag k="name" v="Halvordshusvegen" />
		<tag k="ssr:date" v="2016-05-11" />
		<tag k="ssr:gruppe" v="veg" />
		<tag k="ssr:hovedgruppe" v="infrastruktur" />
		<tag k="ssr:stedsnr" v="963595" />
		<tag k="ssr:type" v="vegstrekning" />
	</node>
	<node id="-147968" lat="60.8913527751" lon="9.7823166665">
		<tag k="name" v="Bergevassdalsvegen" />
		<tag k="ssr:date" v="2016-05-11" />
		<tag k="ssr:gruppe" v="veg" />
		<tag k="ssr:hovedgruppe" v="infrastruktur" />
		<tag k="ssr:stedsnr" v="722700" />
		<tag k="ssr:type" v="vegstrekning" />
	</node>
	<node id="-148477" lat="60.9680250029" lon="9.58644722432">
		<tag k="name" v="Flatigardslivegen" />
		<tag k="ssr:date" v="2016-05-11" />
		<tag k="ssr:gruppe" v="veg" />
		<tag k="ssr:hovedgruppe" v="infrastruktur" />
		<tag k="ssr:stedsnr" v="963587" />
		<tag k="ssr:type" v="vegstrekning" />
	</node>
	<node id="-147963" lat="60.8348027744" lon="9.72832778278">
		<tag k="name" v="Hyttemyrvegen" />
		<tag k="ssr:date" v="2016-05-11" />
		<tag k="ssr:gruppe" v="veg" />
		<tag k="ssr:hovedgruppe" v="infrastruktur" />
		<tag k="ssr:stedsnr" v="722518" />
		<tag k="ssr:type" v="vegstrekning" />
	</node>
	<node id="-146934" lat="60.9113583372" lon="9.7645722263">
		<tag k="name" v="Langevasslivegen" />
		<tag k="ssr:date" v="2016-05-10" />
		<tag k="ssr:gruppe" v="veg" />
		<tag k="ssr:hovedgruppe" v="infrastruktur" />
		<tag k="ssr:stedsnr" v="175751" />
		<tag k="ssr:type" v="vegstrekning" />
	</node>
	<node id="-146931" lat="60.9192222197" lon="9.76498055057">
		<tag k="name" v="Leppedalsvegen" />
		<tag k="ssr:date" v="2016-05-10" />
		<tag k="ssr:gruppe" v="veg" />
		<tag k="ssr:hovedgruppe" v="infrastruktur" />
		<tag k="ssr:stedsnr" v="175707" />
		<tag k="ssr:type" v="vegstrekning" />
	</node>
	<node id="-147439" lat="60.8378944447" lon="9.62997778435">
		<tag k="name" v="Meinsetvegen" />
		<tag k="ssr:date" v="2016-05-10" />
		<tag k="ssr:gruppe" v="veg" />
		<tag k="ssr:hovedgruppe" v="infrastruktur" />
		<tag k="ssr:stedsnr" v="539018" />
		<tag k="ssr:type" v="vegstrekning" />
	</node>
	<node id="-147949" lat="60.9587805538" lon="9.60437221405">
		<tag k="name" v="Flatigardslivegen" />
		<tag k="ssr:date" v="2016-05-11" />
		<tag k="ssr:gruppe" v="veg" />
		<tag k="ssr:hovedgruppe" v="infrastruktur" />
		<tag k="ssr:stedsnr" v="721840" />
		<tag k="ssr:type" v="vegstrekning" />
	</node>
	<node id="-147432" lat="60.9308222218" lon="9.6023111077">
		<tag k="name" v="Ulvslykkjevegen" />
		<tag k="ssr:date" v="2016-05-10" />
		<tag k="ssr:gruppe" v="veg" />
		<tag k="ssr:hovedgruppe" v="infrastruktur" />
		<tag k="ssr:stedsnr" v="538698" />
		<tag k="ssr:type" v="vegstrekning" />
	</node>
	<node id="-147943" lat="60.9876250024" lon="9.68396944349">
		<tag k="name" v="Grånstølvegen" />
		<tag k="ssr:date" v="2016-05-11" />
		<tag k="ssr:gruppe" v="veg" />
		<tag k="ssr:hovedgruppe" v="infrastruktur" />
		<tag k="ssr:stedsnr" v="721607" />
		<tag k="ssr:type" v="vegstrekning" />
	</node>
	<node id="-147937" lat="61.0058972238" lon="9.72996667426">
		<tag k="name" v="Tanterhaugvegen" />
		<tag k="ssr:date" v="2016-05-11" />
		<tag k="ssr:gruppe" v="veg" />
		<tag k="ssr:hovedgruppe" v="infrastruktur" />
		<tag k="ssr:stedsnr" v="721450" />
		<tag k="ssr:type" v="vegstrekning" />
	</node>
	<node id="-147423" lat="61.0087027784" lon="9.55941666914">
		<tag k="name" v="Rennavegen" />
		<tag k="ssr:date" v="2016-05-10" />
		<tag k="ssr:gruppe" v="veg" />
		<tag k="ssr:hovedgruppe" v="infrastruktur" />
		<tag k="ssr:stedsnr" v="538397" />
		<tag k="ssr:type" v="vegstrekning" />
	</node>
	<node id="-147933" lat="60.8791916678" lon="9.6347694383">
		<tag k="name" v="Venstrevegen" />
		<tag k="ssr:date" v="2016-05-11" />
		<tag k="ssr:gruppe" v="veg" />
		<tag k="ssr:hovedgruppe" v="infrastruktur" />
		<tag k="ssr:stedsnr" v="721737" />
		<tag k="ssr:type" v="vegstrekning" />
	</node>
	<node id="-147418" lat="60.9247972253" lon="9.61228610686">
		<tag k="name" v="Espelivegen" />
		<tag k="ssr:date" v="2016-05-10" />
		<tag k="ssr:gruppe" v="veg" />
		<tag k="ssr:hovedgruppe" v="infrastruktur" />
		<tag k="ssr:stedsnr" v="538105" />
		<tag k="ssr:type" v="vegstrekning" />
	</node>
	<node id="-146905" lat="60.9373944431" lon="9.60793333731">
		<tag k="name" v="Øyavegen" />
		<tag k="ssr:date" v="2016-05-10" />
		<tag k="ssr:gruppe" v="veg" />
		<tag k="ssr:hovedgruppe" v="infrastruktur" />
		<tag k="ssr:stedsnr" v="174586" />
		<tag k="ssr:type" v="vegstrekning" />
	</node>
	<node id="-146389" lat="60.8719416699" lon="9.72793888862">
		<tag k="name" v="Solbjørgsvegen" />
		<tag k="ssr:date" v="2016-05-10" />
		<tag k="ssr:gruppe" v="veg" />
		<tag k="ssr:hovedgruppe" v="infrastruktur" />
		<tag k="ssr:stedsnr" v="358821" />
		<tag k="ssr:type" v="vegstrekning" />
	</node>
	<node id="-147924" lat="60.9449972227" lon="9.66363611812">
		<tag k="name" v="Svilosvegen" />
		<tag k="ssr:date" v="2016-05-11" />
		<tag k="ssr:gruppe" v="veg" />
		<tag k="ssr:hovedgruppe" v="infrastruktur" />
		<tag k="ssr:stedsnr" v="721195" />
		<tag k="ssr:type" v="vegstrekning" />
	</node>
	<node id="-146898" lat="60.9875555586" lon="9.55595833616">
		<tag k="name" v="Solbrekklivegen" />
		<tag k="ssr:date" v="2016-05-10" />
		<tag k="ssr:gruppe" v="veg" />
		<tag k="ssr:hovedgruppe" v="infrastruktur" />
		<tag k="ssr:stedsnr" v="174430" />
		<tag k="ssr:type" v="vegstrekning" />
	</node>
	<node id="-146381" lat="60.8350805562" lon="9.74148611858">
		<tag k="name" v="Peresvingen" />
		<tag k="ssr:date" v="2016-05-10" />
		<tag k="ssr:gruppe" v="veg" />
		<tag k="ssr:hovedgruppe" v="infrastruktur" />
		<tag k="ssr:stedsnr" v="358519" />
		<tag k="ssr:type" v="vegstrekning" />
	</node>
	<node id="-147905" lat="60.9491277786" lon="9.64303055608">
		<tag k="name" v="Endrekroken" />
		<tag k="ssr:date" v="2016-05-11" />
		<tag k="ssr:gruppe" v="veg" />
		<tag k="ssr:hovedgruppe" v="infrastruktur" />
		<tag k="ssr:stedsnr" v="720920" />
		<tag k="ssr:type" v="vegstrekning" />
	</node>
	<node id="-148407" lat="60.9327363724" lon="9.79145733202">
		<tag k="name" v="Gjerdlivegen" />
		<tag k="ssr:date" v="2018-05-15" />
		<tag k="ssr:gruppe" v="veg" />
		<tag k="ssr:hovedgruppe" v="infrastruktur" />
		<tag k="ssr:stedsnr" v="904947" />
		<tag k="ssr:type" v="vegstrekning" />
	</node>
	<node id="-148406" lat="60.8685527768" lon="9.76550000888">
		<tag k="alt_name" v="Rismyrtjednvegen" />
		<tag k="name" v="Ryssemyrtjernvegen" />
		<tag k="ssr:date" v="2016-05-11" />
		<tag k="ssr:gruppe" v="veg" />
		<tag k="ssr:hovedgruppe" v="infrastruktur" />
		<tag k="ssr:stedsnr" v="904862" />
		<tag k="ssr:type" v="vegstrekning" />
	</node>
	<node id="-147888" lat="60.9946416645" lon="9.76313333304">
		<tag k="name" v="Nedre Breistølvegen" />
		<tag k="ssr:date" v="2016-05-11" />
		<tag k="ssr:gruppe" v="veg" />
		<tag k="ssr:hovedgruppe" v="infrastruktur" />
		<tag k="ssr:stedsnr" v="720481" />
		<tag k="ssr:type" v="vegstrekning" />
	</node>
	<node id="-147885" lat="60.9380361105" lon="9.58292221406">
		<tag k="name" v="Ørslykkjevegen" />
		<tag k="ssr:date" v="2016-05-11" />
		<tag k="ssr:gruppe" v="veg" />
		<tag k="ssr:hovedgruppe" v="infrastruktur" />
		<tag k="ssr:stedsnr" v="720412" />
		<tag k="ssr:type" v="vegstrekning" />
	</node>
	<node id="-148392" lat="60.875913891" lon="9.6787055621">
		<tag k="name" v="Gamle Hovdevegen" />
		<tag k="ssr:date" v="2016-05-11" />
		<tag k="ssr:gruppe" v="veg" />
		<tag k="ssr:hovedgruppe" v="infrastruktur" />
		<tag k="ssr:stedsnr" v="904475" />
		<tag k="ssr:type" v="vegstrekning" />
	</node>
	<node id="-147871" lat="61.0117638848" lon="9.64640554874">
		<tag k="name" v="Langedalstølvegen" />
		<tag k="ssr:date" v="2016-05-11" />
		<tag k="ssr:gruppe" v="veg" />
		<tag k="ssr:hovedgruppe" v="infrastruktur" />
		<tag k="ssr:stedsnr" v="720201" />
		<tag k="ssr:type" v="vegstrekning" />
	</node>
	<node id="-147869" lat="60.977186112" lon="9.59389443963">
		<tag k="name" v="Rønsmovegen" />
		<tag k="ssr:date" v="2016-05-11" />
		<tag k="ssr:gruppe" v="veg" />
		<tag k="ssr:hovedgruppe" v="infrastruktur" />
		<tag k="ssr:stedsnr" v="720080" />
		<tag k="ssr:type" v="vegstrekning" />
	</node>
	<node id="-148380" lat="60.9827055544" lon="9.7525916721">
		<tag k="name" v="Svilosvegen" />
		<tag k="ssr:date" v="2016-05-11" />
		<tag k="ssr:gruppe" v="veg" />
		<tag k="ssr:hovedgruppe" v="infrastruktur" />
		<tag k="ssr:stedsnr" v="904172" />
		<tag k="ssr:type" v="vegstrekning" />
	</node>
	<node id="-147867" lat="60.8897472217" lon="9.57929722264">
		<tag k="name" v="Sveavegen" />
		<tag k="ssr:date" v="2016-05-11" />
		<tag k="ssr:gruppe" v="veg" />
		<tag k="ssr:hovedgruppe" v="infrastruktur" />
		<tag k="ssr:stedsnr" v="720009" />
		<tag k="ssr:type" v="vegstrekning" />
	</node>
	<node id="-146927" lat="61.0287527794" lon="9.61515832493">
		<tag k="name" v="Gamle Kløvjavegen" />
		<tag k="ssr:date" v="2016-05-10" />
		<tag k="ssr:gruppe" v="veg" />
		<tag k="ssr:hovedgruppe" v="infrastruktur" />
		<tag k="ssr:stedsnr" v="175270" />
		<tag k="ssr:type" v="vegstrekning" />
	</node>
	<node id="-146327" lat="60.9905388847" lon="9.74719443766">
		<tag k="name" v="Blesavegen" />
		<tag k="ssr:date" v="2016-05-10" />
		<tag k="ssr:gruppe" v="veg" />
		<tag k="ssr:hovedgruppe" v="infrastruktur" />
		<tag k="ssr:stedsnr" v="357179" />
		<tag k="ssr:type" v="vegstrekning" />
	</node>
	<node id="-148365" lat="60.9683638931" lon="9.69637499519">
		<tag k="name" v="Øystølvegen" />
		<tag k="ssr:date" v="2016-05-11" />
		<tag k="ssr:gruppe" v="veg" />
		<tag k="ssr:hovedgruppe" v="infrastruktur" />
		<tag k="ssr:stedsnr" v="903813" />
		<tag k="ssr:type" v="vegstrekning" />
	</node>
	<node id="-146313" lat="60.9090000017" lon="9.6346805635">
		<tag k="name" v="Gøttenbergvegen" />
		<tag k="ssr:date" v="2016-05-10" />
		<tag k="ssr:gruppe" v="veg" />
		<tag k="ssr:hovedgruppe" v="infrastruktur" />
		<tag k="ssr:stedsnr" v="356855" />
		<tag k="ssr:type" v="vegstrekning" />
	</node>
	<node id="-146310" lat="60.978291671" lon="9.61355555365">
		<tag k="name" v="Solbjørgåsvegen" />
		<tag k="ssr:date" v="2016-05-10" />
		<tag k="ssr:gruppe" v="veg" />
		<tag k="ssr:hovedgruppe" v="infrastruktur" />
		<tag k="ssr:stedsnr" v="356665" />
		<tag k="ssr:type" v="vegstrekning" />
	</node>
	<node id="-146298" lat="60.9431722189" lon="9.57236665769">
		<tag k="name" v="Teljebakkatn" />
		<tag k="ssr:date" v="2016-05-10" />
		<tag k="ssr:gruppe" v="veg" />
		<tag k="ssr:hovedgruppe" v="infrastruktur" />
		<tag k="ssr:stedsnr" v="356410" />
		<tag k="ssr:type" v="vegstrekning" />
	</node>
	<node id="-146297" lat="61.0108388848" lon="9.57898610606">
		<tag k="name" v="Hestekinnvegen" />
		<tag k="ssr:date" v="2016-05-10" />
		<tag k="ssr:gruppe" v="veg" />
		<tag k="ssr:hovedgruppe" v="infrastruktur" />
		<tag k="ssr:stedsnr" v="356373" />
		<tag k="ssr:type" v="vegstrekning" />
	</node>
	<node id="-146807" lat="60.8815388857" lon="9.61278611139">
		<tag k="name" v="Fjellslinna" />
		<tag k="ssr:date" v="2016-05-10" />
		<tag k="ssr:gruppe" v="veg" />
		<tag k="ssr:hovedgruppe" v="infrastruktur" />
		<tag k="ssr:stedsnr" v="114921" />
		<tag k="ssr:type" v="vegstrekning" />
	</node>
	<node id="-146794" lat="60.8375361116" lon="9.76163056387">
		<tag k="name" v="Liavegen" />
		<tag k="ssr:date" v="2016-05-10" />
		<tag k="ssr:gruppe" v="veg" />
		<tag k="ssr:hovedgruppe" v="infrastruktur" />
		<tag k="ssr:stedsnr" v="114615" />
		<tag k="ssr:type" v="vegstrekning" />
	</node>
	<node id="-146790" lat="60.9413777783" lon="9.62441666898">
		<tag k="name" v="Kringlemovegen" />
		<tag k="ssr:date" v="2016-05-10" />
		<tag k="ssr:gruppe" v="veg" />
		<tag k="ssr:hovedgruppe" v="infrastruktur" />
		<tag k="ssr:stedsnr" v="114546" />
		<tag k="ssr:type" v="vegstrekning" />
	</node>
	<node id="-146779" lat="61.0546722233" lon="9.58450833107">
		<tag k="name" v="Rotvollstølvegen" />
		<tag k="ssr:date" v="2016-05-10" />
		<tag k="ssr:gruppe" v="veg" />
		<tag k="ssr:hovedgruppe" v="infrastruktur" />
		<tag k="ssr:stedsnr" v="114352" />
		<tag k="ssr:type" v="vegstrekning" />
	</node>
	<node id="-146772" lat="60.9268000018" lon="9.7224555587">
		<tag k="name" v="Bjødndalsvegen" />
		<tag k="ssr:date" v="2016-05-10" />
		<tag k="ssr:gruppe" v="veg" />
		<tag k="ssr:hovedgruppe" v="infrastruktur" />
		<tag k="ssr:stedsnr" v="114706" />
		<tag k="ssr:type" v="vegstrekning" />
	</node>
	<node id="-147792" lat="60.8753916625" lon="9.76280832939">
		<tag k="name" v="Åborvassvegen" />
		<tag k="old_name" v="Øbbervassvegen" />
		<tag k="ssr:date" v="2016-05-10" />
		<tag k="ssr:gruppe" v="veg" />
		<tag k="ssr:hovedgruppe" v="infrastruktur" />
		<tag k="ssr:stedsnr" v="661735" />
		<tag k="ssr:type" v="vegstrekning" />
	</node>
	<node id="-147279" lat="60.8820722227" lon="9.69149166611">
		<tag k="name" v="Kleivgardsvegen" />
		<tag k="ssr:date" v="2016-05-10" />
		<tag k="ssr:gruppe" v="veg" />
		<tag k="ssr:hovedgruppe" v="infrastruktur" />
		<tag k="ssr:stedsnr" v="418479" />
		<tag k="ssr:type" v="vegstrekning" />
	</node>
	<node id="-147790" lat="60.8819222229" lon="9.74128334206">
		<tag k="name" v="Haustsætervegen" />
		<tag k="ssr:date" v="2016-05-10" />
		<tag k="ssr:gruppe" v="veg" />
		<tag k="ssr:hovedgruppe" v="infrastruktur" />
		<tag k="ssr:stedsnr" v="661723" />
		<tag k="ssr:type" v="vegstrekning" />
	</node>
	<node id="-147788" lat="60.9015999977" lon="9.78347222947">
		<tag k="name" v="Dygdedalsvegen" />
		<tag k="ssr:date" v="2016-05-10" />
		<tag k="ssr:gruppe" v="veg" />
		<tag k="ssr:hovedgruppe" v="infrastruktur" />
		<tag k="ssr:stedsnr" v="661646" />
		<tag k="ssr:type" v="vegstrekning" />
	</node>
	<node id="-146759" lat="60.8478666634" lon="9.63048611901">
		<tag k="alt_name" v="Nøkkeltjednvegen" />
		<tag k="name" v="Nøkletjernvegen" />
		<tag k="ssr:date" v="2016-05-10" />
		<tag k="ssr:gruppe" v="veg" />
		<tag k="ssr:hovedgruppe" v="infrastruktur" />
		<tag k="ssr:stedsnr" v="114029" />
		<tag k="ssr:type" v="vegstrekning" />
	</node>
	<node id="-147268" lat="60.9329055568" lon="9.7344777748">
		<tag k="name" v="Leppedalsvegen" />
		<tag k="ssr:date" v="2016-05-10" />
		<tag k="ssr:gruppe" v="veg" />
		<tag k="ssr:hovedgruppe" v="infrastruktur" />
		<tag k="ssr:stedsnr" v="418357" />
		<tag k="ssr:type" v="vegstrekning" />
	</node>
	<node id="-146755" lat="60.8841777754" lon="9.63772499449">
		<tag k="name" v="Venstrevegen" />
		<tag k="ssr:date" v="2016-05-10" />
		<tag k="ssr:gruppe" v="veg" />
		<tag k="ssr:hovedgruppe" v="infrastruktur" />
		<tag k="ssr:stedsnr" v="113423" />
		<tag k="ssr:type" v="vegstrekning" />
	</node>
	<node id="-146753" lat="61.0034611096" lon="9.57010556284">
		<tag k="name" v="Veslehestekinnvegen" />
		<tag k="ssr:date" v="2016-05-10" />
		<tag k="ssr:gruppe" v="veg" />
		<tag k="ssr:hovedgruppe" v="infrastruktur" />
		<tag k="ssr:stedsnr" v="113342" />
		<tag k="ssr:type" v="vegstrekning" />
	</node>
	<node id="-147764" lat="60.9628583301" lon="9.70031667152">
		<tag k="name" v="Kjerringstølvegen" />
		<tag k="ssr:date" v="2016-05-10" />
		<tag k="ssr:gruppe" v="veg" />
		<tag k="ssr:hovedgruppe" v="infrastruktur" />
		<tag k="ssr:stedsnr" v="660794" />
		<tag k="ssr:type" v="vegstrekning" />
	</node>
	<node id="-147765" lat="60.9110222232" lon="9.7797388826">
		<tag k="name" v="Langvasslivegen" />
		<tag k="ssr:date" v="2016-05-10" />
		<tag k="ssr:gruppe" v="veg" />
		<tag k="ssr:hovedgruppe" v="infrastruktur" />
		<tag k="ssr:stedsnr" v="660795" />
		<tag k="ssr:type" v="vegstrekning" />
	</node>
	<node id="-146740" lat="60.8887194456" lon="9.64030833634">
		<tag k="name" v="Etnedal kommune" />
		<tag k="ssr:date" v="2016-05-10" />
		<tag k="ssr:gruppe" v="administrativeIndelinger" />
		<tag k="ssr:hovedgruppe" v="offentligAdministrasjon" />
		<tag k="ssr:stedsnr" v="268065" />
		<tag k="ssr:type" v="kommune" />
	</node>
	<node id="-147240" lat="60.9071972253" lon="9.64174167559">
		<tag k="name" v="Byfelivegen" />
		<tag k="ssr:date" v="2016-05-10" />
		<tag k="ssr:gruppe" v="veg" />
		<tag k="ssr:hovedgruppe" v="infrastruktur" />
		<tag k="ssr:stedsnr" v="417872" />
		<tag k="ssr:type" v="vegstrekning" />
	</node>
	<node id="-148257" lat="60.8780472206" lon="9.74257221336">
		<tag k="name" v="Langesjå" />
		<tag k="ssr:date" v="2016-05-11" />
		<tag k="ssr:gruppe" v="veg" />
		<tag k="ssr:hovedgruppe" v="infrastruktur" />
		<tag k="ssr:stedsnr" v="844762" />
		<tag k="ssr:type" v="vegstrekning" />
	</node>
	<node id="-147232" lat="60.9131388871" lon="9.66268056264">
		<tag k="name" v="Byfelivegen" />
		<tag k="ssr:date" v="2016-05-10" />
		<tag k="ssr:gruppe" v="veg" />
		<tag k="ssr:hovedgruppe" v="infrastruktur" />
		<tag k="ssr:stedsnr" v="417561" />
		<tag k="ssr:type" v="vegstrekning" />
	</node>
	<node id="-147743" lat="60.9273499998" lon="9.69826667185">
		<tag k="name" v="Nystølvegen" />
		<tag k="ssr:date" v="2016-05-10" />
		<tag k="ssr:gruppe" v="veg" />
		<tag k="ssr:hovedgruppe" v="infrastruktur" />
		<tag k="ssr:stedsnr" v="660182" />
		<tag k="ssr:type" v="vegstrekning" />
	</node>
	<node id="-148249" lat="60.8556000037" lon="9.7665138899">
		<tag k="name" v="Bjørnskarvegen" />
		<tag k="ssr:date" v="2016-05-11" />
		<tag k="ssr:gruppe" v="veg" />
		<tag k="ssr:hovedgruppe" v="infrastruktur" />
		<tag k="ssr:stedsnr" v="844272" />
		<tag k="ssr:type" v="vegstrekning" />
	</node>
	<node id="-148248" lat="60.8575555557" lon="9.75253610863">
		<tag k="name" v="Fossehyttevegen" />
		<tag k="ssr:date" v="2016-05-11" />
		<tag k="ssr:gruppe" v="veg" />
		<tag k="ssr:hovedgruppe" v="infrastruktur" />
		<tag k="ssr:stedsnr" v="844271" />
		<tag k="ssr:type" v="vegstrekning" />
	</node>
	<node id="-147929" lat="60.9378888921" lon="9.72433055573">
		<tag k="name" v="Bergstølvegen" />
		<tag k="ssr:date" v="2016-05-11" />
		<tag k="ssr:gruppe" v="veg" />
		<tag k="ssr:hovedgruppe" v="infrastruktur" />
		<tag k="ssr:stedsnr" v="721395" />
		<tag k="ssr:type" v="vegstrekning" />
	</node>
	<node id="-147220" lat="60.884952775" lon="9.64636110964">
		<tag k="name" v="Søromsvegen" />
		<tag k="ssr:date" v="2016-05-10" />
		<tag k="ssr:gruppe" v="veg" />
		<tag k="ssr:hovedgruppe" v="infrastruktur" />
		<tag k="ssr:stedsnr" v="417299" />
		<tag k="ssr:type" v="vegstrekning" />
	</node>
	<node id="-148241" lat="60.8695361132" lon="9.70935832433">
		<tag k="name" v="Vikavegen" />
		<tag k="ssr:date" v="2016-05-11" />
		<tag k="ssr:gruppe" v="veg" />
		<tag k="ssr:hovedgruppe" v="infrastruktur" />
		<tag k="ssr:stedsnr" v="843856" />
		<tag k="ssr:type" v="vegstrekning" />
	</node>
	<node id="-147726" lat="61.0942277764" lon="9.54868611136">
		<tag k="name" v="Stuvelivegen" />
		<tag k="ssr:date" v="2016-05-10" />
		<tag k="ssr:gruppe" v="veg" />
		<tag k="ssr:hovedgruppe" v="infrastruktur" />
		<tag k="ssr:stedsnr" v="659431" />
		<tag k="ssr:type" v="vegstrekning" />
	</node>
	<node id="-146188" lat="60.9643444465" lon="9.73985555868">
		<tag k="name" v="Juvavegen" />
		<tag k="ssr:date" v="2016-05-10" />
		<tag k="ssr:gruppe" v="veg" />
		<tag k="ssr:hovedgruppe" v="infrastruktur" />
		<tag k="ssr:stedsnr" v="296628" />
		<tag k="ssr:type" v="vegstrekning" />
	</node>
	<node id="-148232" lat="60.8531972249" lon="9.74508888444">
		<tag k="name" v="Storsvingen" />
		<tag k="ssr:date" v="2016-05-11" />
		<tag k="ssr:gruppe" v="veg" />
		<tag k="ssr:hovedgruppe" v="infrastruktur" />
		<tag k="ssr:stedsnr" v="843772" />
		<tag k="ssr:type" v="vegstrekning" />
	</node>
	<node id="-147206" lat="60.863980553" lon="9.75034722301">
		<tag k="name" v="Bamserudsvingen" />
		<tag k="ssr:date" v="2016-05-10" />
		<tag k="ssr:gruppe" v="veg" />
		<tag k="ssr:hovedgruppe" v="infrastruktur" />
		<tag k="ssr:stedsnr" v="479856" />
		<tag k="ssr:type" v="vegstrekning" />
	</node>
	<node id="-147073" lat="60.9453638847" lon="9.6475138863">
		<tag k="name" v="Svilosvegen" />
		<tag k="ssr:date" v="2016-05-10" />
		<tag k="ssr:gruppe" v="veg" />
		<tag k="ssr:hovedgruppe" v="infrastruktur" />
		<tag k="ssr:stedsnr" v="235732" />
		<tag k="ssr:type" v="vegstrekning" />
	</node>
	<node id="-146645" lat="60.8904527795" lon="9.69613332485">
		<tag k="alt_name" v="Bjørketjednvegen" />
		<tag k="name" v="Bjørketjernvegen" />
		<tag k="ssr:date" v="2016-05-10" />
		<tag k="ssr:gruppe" v="veg" />
		<tag k="ssr:hovedgruppe" v="infrastruktur" />
		<tag k="ssr:stedsnr" v="54011" />
		<tag k="ssr:type" v="vegstrekning" />
	</node>
	<node id="-146672" lat="60.8796416694" lon="9.66213332449">
		<tag k="name" v="Smeplassvegen" />
		<tag k="ssr:date" v="2016-05-10" />
		<tag k="ssr:gruppe" v="veg" />
		<tag k="ssr:hovedgruppe" v="infrastruktur" />
		<tag k="ssr:stedsnr" v="54515" />
		<tag k="ssr:type" v="vegstrekning" />
	</node>
	<node id="-147495" lat="61.0754555555" lon="9.49720834258">
		<tag k="name" v="Nysetvegen" />
		<tag k="ssr:date" v="2016-05-10" />
		<tag k="ssr:gruppe" v="veg" />
		<tag k="ssr:hovedgruppe" v="infrastruktur" />
		<tag k="ssr:stedsnr" v="540766" />
		<tag k="ssr:type" v="vegstrekning" />
	</node>
	<node id="-148091" lat="60.8732111085" lon="9.73187222788">
		<tag k="name" v="Klovosvingen" />
		<tag k="ssr:date" v="2016-05-11" />
		<tag k="ssr:gruppe" v="veg" />
		<tag k="ssr:hovedgruppe" v="infrastruktur" />
		<tag k="ssr:stedsnr" v="782803" />
		<tag k="ssr:type" v="vegstrekning" />
	</node>
	<node id="-146652" lat="60.9838805599" lon="9.74649999122">
		<tag k="name" v="Breistølvegen" />
		<tag k="ssr:date" v="2016-05-10" />
		<tag k="ssr:gruppe" v="veg" />
		<tag k="ssr:hovedgruppe" v="infrastruktur" />
		<tag k="ssr:stedsnr" v="54177" />
		<tag k="ssr:type" v="vegstrekning" />
	</node>
	<node id="-146648" lat="60.8932250038" lon="9.73496667058">
		<tag k="alt_name" v="Sørresætervegen" />
		<tag k="name" v="Søresætervegen" />
		<tag k="ssr:date" v="2016-05-10" />
		<tag k="ssr:gruppe" v="veg" />
		<tag k="ssr:hovedgruppe" v="infrastruktur" />
		<tag k="ssr:stedsnr" v="54157" />
		<tag k="ssr:type" v="vegstrekning" />
	</node>
	<node id="-148345" lat="61.0627694447" lon="9.58919722223">
		<tag k="name" v="Rotvollstølvegen" />
		<tag k="ssr:date" v="2016-05-11" />
		<tag k="ssr:gruppe" v="veg" />
		<tag k="ssr:hovedgruppe" v="infrastruktur" />
		<tag k="ssr:stedsnr" v="903239" />
		<tag k="ssr:type" v="vegstrekning" />
	</node>
	<node id="-148178" lat="60.9388249961" lon="9.62126666764">
		<tag k="name" v="Røstevegen" />
		<tag k="ssr:date" v="2016-05-11" />
		<tag k="ssr:gruppe" v="veg" />
		<tag k="ssr:hovedgruppe" v="infrastruktur" />
		<tag k="ssr:stedsnr" v="842546" />
		<tag k="ssr:type" v="vegstrekning" />
	</node>
	<node id="-148174" lat="60.9942083324" lon="9.76526666764">
		<tag k="name" v="Øvre Breistølvegen" />
		<tag k="ssr:date" v="2016-05-11" />
		<tag k="ssr:gruppe" v="veg" />
		<tag k="ssr:hovedgruppe" v="infrastruktur" />
		<tag k="ssr:stedsnr" v="842476" />
		<tag k="ssr:type" v="vegstrekning" />
	</node>
	<node id="-148167" lat="60.8931055519" lon="9.60788332747">
		<tag k="name" v="Sørfjellsvegen" />
		<tag k="ssr:date" v="2016-05-11" />
		<tag k="ssr:gruppe" v="veg" />
		<tag k="ssr:hovedgruppe" v="infrastruktur" />
		<tag k="ssr:stedsnr" v="842384" />
		<tag k="ssr:type" v="vegstrekning" />
	</node>
	<node id="-148151" lat="60.9118638873" lon="9.63259721316">
		<tag k="name" v="Sveavegen" />
		<tag k="ssr:date" v="2016-05-11" />
		<tag k="ssr:gruppe" v="veg" />
		<tag k="ssr:hovedgruppe" v="infrastruktur" />
		<tag k="ssr:stedsnr" v="842852" />
		<tag k="ssr:type" v="vegstrekning" />
	</node>
	<node id="-147124" lat="60.8819777808" lon="9.60686111209">
		<tag k="name" v="Breiesvegen" />
		<tag k="ssr:date" v="2016-05-10" />
		<tag k="ssr:gruppe" v="veg" />
		<tag k="ssr:hovedgruppe" v="infrastruktur" />
		<tag k="ssr:stedsnr" v="236905" />
		<tag k="ssr:type" v="vegstrekning" />
	</node>
	<node id="-146611" lat="61.0736833349" lon="9.56232221585">
		<tag k="name" v="Stuvelivegen" />
		<tag k="ssr:date" v="2016-05-10" />
		<tag k="ssr:gruppe" v="veg" />
		<tag k="ssr:hovedgruppe" v="infrastruktur" />
		<tag k="ssr:stedsnr" v="53249" />
		<tag k="ssr:type" v="vegstrekning" />
	</node>
	<node id="-146604" lat="60.9725833354" lon="9.57662777992">
		<tag k="name" v="Flatigardsvegen" />
		<tag k="ssr:date" v="2016-05-10" />
		<tag k="ssr:gruppe" v="veg" />
		<tag k="ssr:hovedgruppe" v="infrastruktur" />
		<tag k="ssr:stedsnr" v="53073" />
		<tag k="ssr:type" v="vegstrekning" />
	</node>
	<node id="-147627" lat="60.9360111153" lon="9.71969445311">
		<tag k="name" v="Nystølvegen" />
		<tag k="ssr:date" v="2016-05-10" />
		<tag k="ssr:gruppe" v="veg" />
		<tag k="ssr:hovedgruppe" v="infrastruktur" />
		<tag k="ssr:stedsnr" v="600079" />
		<tag k="ssr:type" v="vegstrekning" />
	</node>
	<node id="-147114" lat="60.867899998" lon="9.62850554743">
		<tag k="name" v="Bergsvegen" />
		<tag k="ssr:date" v="2016-05-10" />
		<tag k="ssr:gruppe" v="veg" />
		<tag k="ssr:hovedgruppe" v="infrastruktur" />
		<tag k="ssr:stedsnr" v="236740" />
		<tag k="ssr:type" v="vegstrekning" />
	</node>
	<node id="-147111" lat="60.8590194482" lon="9.74634722161">
		<tag k="name" v="Bamserudvegen" />
		<tag k="ssr:date" v="2016-05-10" />
		<tag k="ssr:gruppe" v="veg" />
		<tag k="ssr:hovedgruppe" v="infrastruktur" />
		<tag k="ssr:stedsnr" v="237282" />
		<tag k="ssr:type" v="vegstrekning" />
	</node>
	<node id="-147614" lat="60.981627782" lon="9.66382777064">
		<tag k="name" v="Nystølvegen" />
		<tag k="ssr:date" v="2016-05-10" />
		<tag k="ssr:gruppe" v="veg" />
		<tag k="ssr:hovedgruppe" v="infrastruktur" />
		<tag k="ssr:stedsnr" v="599620" />
		<tag k="ssr:type" v="vegstrekning" />
	</node>
	<node id="-147611" lat="60.8776722214" lon="9.66277223124">
		<tag k="name" v="Turrhaugvegen" />
		<tag k="ssr:date" v="2016-05-10" />
		<tag k="ssr:gruppe" v="veg" />
		<tag k="ssr:hovedgruppe" v="infrastruktur" />
		<tag k="ssr:stedsnr" v="599504" />
		<tag k="ssr:type" v="vegstrekning" />
	</node>
	<node id="-147098" lat="60.9448194406" lon="9.70737777855">
		<tag k="name" v="Bergstølvegen" />
		<tag k="ssr:date" v="2016-05-10" />
		<tag k="ssr:gruppe" v="veg" />
		<tag k="ssr:hovedgruppe" v="infrastruktur" />
		<tag k="ssr:stedsnr" v="236227" />
		<tag k="ssr:type" v="vegstrekning" />
	</node>
	<node id="-147609" lat="60.888519444" lon="9.60545555711">
		<tag k="name" v="Nordfjellsvegen" />
		<tag k="ssr:date" v="2016-05-10" />
		<tag k="ssr:gruppe" v="veg" />
		<tag k="ssr:hovedgruppe" v="infrastruktur" />
		<tag k="ssr:stedsnr" v="599493" />
		<tag k="ssr:type" v="vegstrekning" />
	</node>
	<node id="-147480" lat="60.9732194485" lon="9.54255555456">
		<tag k="name" v="Storslettlivegen" />
		<tag k="ssr:date" v="2016-05-10" />
		<tag k="ssr:gruppe" v="veg" />
		<tag k="ssr:hovedgruppe" v="infrastruktur" />
		<tag k="ssr:stedsnr" v="540335" />
		<tag k="ssr:type" v="vegstrekning" />
	</node>
	<node id="-147085" lat="60.8392027747" lon="9.69619444542">
		<tag k="name" v="Haustsæterfjellvegen" />
		<tag k="ssr:date" v="2016-05-10" />
		<tag k="ssr:gruppe" v="veg" />
		<tag k="ssr:hovedgruppe" v="infrastruktur" />
		<tag k="ssr:stedsnr" v="236623" />
		<tag k="ssr:type" v="vegstrekning" />
	</node>
	<node id="-147081" lat="60.8864805583" lon="9.73895554799">
		<tag k="name" v="Haustsætervegen" />
		<tag k="ssr:date" v="2016-05-10" />
		<tag k="ssr:gruppe" v="veg" />
		<tag k="ssr:hovedgruppe" v="infrastruktur" />
		<tag k="ssr:stedsnr" v="236076" />
		<tag k="ssr:type" v="vegstrekning" />
	</node>
	<node id="-146565" lat="60.8231916647" lon="9.71053888126">
		<tag k="name" v="Øvre Markestadvegen" />
		<tag k="ssr:date" v="2016-05-10" />
		<tag k="ssr:gruppe" v="veg" />
		<tag k="ssr:hovedgruppe" v="infrastruktur" />
		<tag k="ssr:stedsnr" v="5617" />
		<tag k="ssr:type" v="vegstrekning" />
	</node>
	<node id="-146564" lat="61.0171396497" lon="9.68416167445">
		<tag k="name" v="Skåletjednbakkin" />
		<tag k="ssr:date" v="2019-05-30" />
		<tag k="ssr:gruppe" v="veg" />
		<tag k="ssr:hovedgruppe" v="infrastruktur" />
		<tag k="ssr:stedsnr" v="1016604" />
		<tag k="ssr:type" v="adressenavn" />
	</node>
	<node id="-146563" lat="61.037808886" lon="9.70285440179">
		<tag k="name" v="Rypesvingen" />
		<tag k="ssr:date" v="2019-05-30" />
		<tag k="ssr:gruppe" v="veg" />
		<tag k="ssr:hovedgruppe" v="infrastruktur" />
		<tag k="ssr:stedsnr" v="1016189" />
		<tag k="ssr:type" v="adressenavn" />
	</node>
	<node id="-146562" lat="61.0893276657" lon="9.5034019207">
		<tag k="name" v="Kalvavegen" />
		<tag k="ssr:date" v="2019-05-30" />
		<tag k="ssr:gruppe" v="veg" />
		<tag k="ssr:hovedgruppe" v="infrastruktur" />
		<tag k="ssr:stedsnr" v="1015671" />
		<tag k="ssr:type" v="adressenavn" />
	</node>
	<node id="-146561" lat="61.0494143322" lon="9.43678662355">
		<tag k="name" v="Bjødnaskardet" />
		<tag k="ssr:date" v="2019-05-30" />
		<tag k="ssr:gruppe" v="veg" />
		<tag k="ssr:hovedgruppe" v="infrastruktur" />
		<tag k="ssr:stedsnr" v="1015545" />
		<tag k="ssr:type" v="adressenavn" />
	</node>
	<node id="-148330" lat="60.9498111087" lon="9.55435833791">
		<tag k="name" v="Brøtatrøvegen" />
		<tag k="ssr:date" v="2016-05-11" />
		<tag k="ssr:gruppe" v="veg" />
		<tag k="ssr:hovedgruppe" v="infrastruktur" />
		<tag k="ssr:stedsnr" v="902990" />
		<tag k="ssr:type" v="vegstrekning" />
	</node>
	<node id="-147567" lat="60.9857249975" lon="9.56906666219">
		<tag k="name" v="Jonasbakkin" />
		<tag k="ssr:date" v="2016-05-10" />
		<tag k="ssr:gruppe" v="veg" />
		<tag k="ssr:hovedgruppe" v="infrastruktur" />
		<tag k="ssr:stedsnr" v="598366" />
		<tag k="ssr:type" v="vegstrekning" />
	</node>
	<node id="-148075" lat="61.0018750008" lon="9.65439443864">
		<tag k="name" v="Glennebakkin" />
		<tag k="ssr:date" v="2016-05-11" />
		<tag k="ssr:gruppe" v="veg" />
		<tag k="ssr:hovedgruppe" v="infrastruktur" />
		<tag k="ssr:stedsnr" v="782341" />
		<tag k="ssr:type" v="vegstrekning" />
	</node>
	<node id="-147050" lat="60.8385888929" lon="9.61961666849">
		<tag k="name" v="Bagnsvegen" />
		<tag k="ssr:date" v="2016-05-10" />
		<tag k="ssr:gruppe" v="veg" />
		<tag k="ssr:hovedgruppe" v="infrastruktur" />
		<tag k="ssr:stedsnr" v="235155" />
		<tag k="ssr:type" v="vegstrekning" />
	</node>
	<node id="-147560" lat="61.0836388888" lon="9.67117221936">
		<tag k="name" v="Ølsjølivegen" />
		<tag k="ssr:date" v="2016-05-10" />
		<tag k="ssr:gruppe" v="veg" />
		<tag k="ssr:hovedgruppe" v="infrastruktur" />
		<tag k="ssr:stedsnr" v="598244" />
		<tag k="ssr:type" v="vegstrekning" />
	</node>
	<node id="-148071" lat="61.0170555558" lon="9.5988388945">
		<tag k="name" v="Dalavegen" />
		<tag k="ssr:date" v="2016-05-11" />
		<tag k="ssr:gruppe" v="veg" />
		<tag k="ssr:hovedgruppe" v="infrastruktur" />
		<tag k="ssr:stedsnr" v="782232" />
		<tag k="ssr:type" v="vegstrekning" />
	</node>
	<node id="-147044" lat="61.0377861096" lon="9.62238611483">
		<tag k="name" v="Gamle Lenningsvegen" />
		<tag k="ssr:date" v="2016-05-10" />
		<tag k="ssr:gruppe" v="veg" />
		<tag k="ssr:hovedgruppe" v="infrastruktur" />
		<tag k="ssr:stedsnr" v="235939" />
		<tag k="ssr:type" v="vegstrekning" />
	</node>
	<node id="-148326" lat="61.0128722197" lon="9.58409166149">
		<tag k="name" v="Hestekinnvegen" />
		<tag k="ssr:date" v="2016-05-11" />
		<tag k="ssr:gruppe" v="veg" />
		<tag k="ssr:hovedgruppe" v="infrastruktur" />
		<tag k="ssr:stedsnr" v="902613" />
		<tag k="ssr:type" v="vegstrekning" />
	</node>
	<node id="-148065" lat="60.9799111104" lon="9.7200944359">
		<tag k="name" v="Gamlestølvegen" />
		<tag k="ssr:date" v="2016-05-11" />
		<tag k="ssr:gruppe" v="veg" />
		<tag k="ssr:hovedgruppe" v="infrastruktur" />
		<tag k="ssr:stedsnr" v="782153" />
		<tag k="ssr:type" v="vegstrekning" />
	</node>
	<node id="-147040" lat="60.8870805575" lon="9.62379721632">
		<tag k="name" v="Fjellslinna" />
		<tag k="ssr:date" v="2016-05-10" />
		<tag k="ssr:gruppe" v="veg" />
		<tag k="ssr:hovedgruppe" v="infrastruktur" />
		<tag k="ssr:stedsnr" v="235519" />
		<tag k="ssr:type" v="vegstrekning" />
	</node>
	<node id="-148558" lat="60.5908609473" lon="9.63819281559">
		<tag k="fixme" v="multiple name tags, choose one and add the other to alt_name" />
		<tag k="name" v="Austlandet;Østlandet" />
		<tag k="ssr:date" v="2018-01-09" />
		<tag k="ssr:gruppe" v="administrativeIndelinger" />
		<tag k="ssr:hovedgruppe" v="offentligAdministrasjon" />
		<tag k="ssr:stedsnr" v="974775" />
		<tag k="ssr:type" v="annenAdministrativInndeling" />
	</node>
	<node id="-148037" lat="60.9366916636" lon="9.60299443958">
		<tag k="name" v="Halvordshusvegen" />
		<tag k="ssr:date" v="2016-05-11" />
		<tag k="ssr:gruppe" v="veg" />
		<tag k="ssr:hovedgruppe" v="infrastruktur" />
		<tag k="ssr:stedsnr" v="781558" />
		<tag k="ssr:type" v="vegstrekning" />
	</node>
	<node id="-146498" lat="60.9397333316" lon="9.74973055807">
		<tag k="name" v="Bergstølskogvegen" />
		<tag k="ssr:date" v="2016-05-10" />
		<tag k="ssr:gruppe" v="veg" />
		<tag k="ssr:hovedgruppe" v="infrastruktur" />
		<tag k="ssr:stedsnr" v="478380" />
		<tag k="ssr:type" v="vegstrekning" />
	</node>
	<node id="-148026" lat="61.0096583303" lon="9.55423610552">
		<tag k="name" v="Kvednhausmovegen" />
		<tag k="ssr:date" v="2016-05-11" />
		<tag k="ssr:gruppe" v="veg" />
		<tag k="ssr:hovedgruppe" v="infrastruktur" />
		<tag k="ssr:stedsnr" v="781341" />
		<tag k="ssr:type" v="vegstrekning" />
	</node>
	<node id="-148022" lat="60.890594447" lon="9.64973888067">
		<tag k="name" v="Kleivgardslivegen" />
		<tag k="ssr:date" v="2016-05-11" />
		<tag k="ssr:gruppe" v="veg" />
		<tag k="ssr:hovedgruppe" v="infrastruktur" />
		<tag k="ssr:stedsnr" v="781289" />
		<tag k="ssr:type" v="vegstrekning" />
	</node>
	<node id="-146484" lat="60.8578916665" lon="9.62943332527">
		<tag k="name" v="Venstrevegen" />
		<tag k="ssr:date" v="2016-05-10" />
		<tag k="ssr:gruppe" v="veg" />
		<tag k="ssr:hovedgruppe" v="infrastruktur" />
		<tag k="ssr:stedsnr" v="478095" />
		<tag k="ssr:type" v="vegstrekning" />
	</node>
	<node id="-148019" lat="61.0046583366" lon="9.60435555448">
		<tag k="name" v="Hallavegen" />
		<tag k="ssr:date" v="2016-05-11" />
		<tag k="ssr:gruppe" v="veg" />
		<tag k="ssr:hovedgruppe" v="infrastruktur" />
		<tag k="ssr:stedsnr" v="781195" />
		<tag k="ssr:type" v="vegstrekning" />
	</node>
	<node id="-148529" lat="60.8736305577" lon="9.7241083386">
		<tag k="name" v="Delevegen" />
		<tag k="ssr:date" v="2016-05-11" />
		<tag k="ssr:gruppe" v="veg" />
		<tag k="ssr:hovedgruppe" v="infrastruktur" />
		<tag k="ssr:stedsnr" v="964750" />
		<tag k="ssr:type" v="vegstrekning" />
	</node>
	<node id="-148525" lat="60.9690083363" lon="9.72747777543">
		<tag k="name" v="Svilosvegen" />
		<tag k="ssr:date" v="2016-05-11" />
		<tag k="ssr:gruppe" v="veg" />
		<tag k="ssr:hovedgruppe" v="infrastruktur" />
		<tag k="ssr:stedsnr" v="964650" />
		<tag k="ssr:type" v="vegstrekning" />
	</node>
	<node id="-147498" lat="61.016538888" lon="9.52220554768">
		<tag k="name" v="Brøtavegen" />
		<tag k="ssr:date" v="2016-05-10" />
		<tag k="ssr:gruppe" v="veg" />
		<tag k="ssr:hovedgruppe" v="infrastruktur" />
		<tag k="ssr:stedsnr" v="542683" />
		<tag k="ssr:type" v="vegstrekning" />
	</node>
	<node id="-148519" lat="60.8367833303" lon="9.73721944302">
		<tag k="name" v="Plassasvingen" />
		<tag k="ssr:date" v="2016-05-11" />
		<tag k="ssr:gruppe" v="veg" />
		<tag k="ssr:hovedgruppe" v="infrastruktur" />
		<tag k="ssr:stedsnr" v="964500" />
		<tag k="ssr:type" v="vegstrekning" />
	</node>
	<node id="-148518" lat="60.8388583361" lon="9.7437249973">
		<tag k="name" v="Plassavegen" />
		<tag k="ssr:date" v="2016-05-11" />
		<tag k="ssr:gruppe" v="veg" />
		<tag k="ssr:hovedgruppe" v="infrastruktur" />
		<tag k="ssr:stedsnr" v="964493" />
		<tag k="ssr:type" v="vegstrekning" />
	</node>
	<node id="-147488" lat="60.8213638932" lon="9.7685638891">
		<tag k="name" v="Etnavegen" />
		<tag k="ssr:date" v="2016-05-10" />
		<tag k="ssr:gruppe" v="veg" />
		<tag k="ssr:hovedgruppe" v="infrastruktur" />
		<tag k="ssr:stedsnr" v="540579" />
		<tag k="ssr:type" v="vegstrekning" />
	</node>
	<node id="-148510" lat="60.9522277803" lon="9.53147221474">
		<tag k="name" v="Ulvslykkjevegen" />
		<tag k="ssr:date" v="2016-05-11" />
		<tag k="ssr:gruppe" v="veg" />
		<tag k="ssr:hovedgruppe" v="infrastruktur" />
		<tag k="ssr:stedsnr" v="964381" />
		<tag k="ssr:type" v="vegstrekning" />
	</node>
	<node id="-146968" lat="60.8224944468" lon="9.72008610236">
		<tag k="name" v="Øvre Markestadvegen" />
		<tag k="ssr:date" v="2016-05-10" />
		<tag k="ssr:gruppe" v="veg" />
		<tag k="ssr:hovedgruppe" v="infrastruktur" />
		<tag k="ssr:stedsnr" v="176474" />
		<tag k="ssr:type" v="vegstrekning" />
	</node>
	<node id="-146967" lat="60.8277416636" lon="9.72075555751">
		<tag k="name" v="Spelemannsslettvegen" />
		<tag k="ssr:date" v="2016-05-10" />
		<tag k="ssr:gruppe" v="veg" />
		<tag k="ssr:hovedgruppe" v="infrastruktur" />
		<tag k="ssr:stedsnr" v="176473" />
		<tag k="ssr:type" v="vegstrekning" />
	</node>
	<node id="-146957" lat="60.8722388901" lon="9.64665834188">
		<tag k="name" v="Sørumsvegen" />
		<tag k="ssr:date" v="2016-05-10" />
		<tag k="ssr:gruppe" v="veg" />
		<tag k="ssr:hovedgruppe" v="infrastruktur" />
		<tag k="ssr:stedsnr" v="175974" />
		<tag k="ssr:type" v="vegstrekning" />
	</node>
	<node id="-148489" lat="60.9494611074" lon="9.69352500841">
		<tag k="name" v="Svilosvegen" />
		<tag k="ssr:date" v="2016-05-11" />
		<tag k="ssr:gruppe" v="veg" />
		<tag k="ssr:hovedgruppe" v="infrastruktur" />
		<tag k="ssr:stedsnr" v="963846" />
		<tag k="ssr:type" v="vegstrekning" />
	</node>
	<node id="-147974" lat="60.8693694451" lon="9.69808611259">
		<tag k="name" v="Hovdevegen" />
		<tag k="ssr:date" v="2016-05-11" />
		<tag k="ssr:gruppe" v="veg" />
		<tag k="ssr:hovedgruppe" v="infrastruktur" />
		<tag k="ssr:stedsnr" v="722863" />
		<tag k="ssr:type" v="vegstrekning" />
	</node>
	<node id="-146949" lat="60.9672861095" lon="9.76125832654">
		<tag k="name" v="Juvaskogvegen" />
		<tag k="ssr:date" v="2016-05-10" />
		<tag k="ssr:gruppe" v="veg" />
		<tag k="ssr:hovedgruppe" v="infrastruktur" />
		<tag k="ssr:stedsnr" v="175632" />
		<tag k="ssr:type" v="vegstrekning" />
	</node>
	<node id="-146945" lat="60.8831250008" lon="9.69453610615">
		<tag k="name" v="Øygardsvegen" />
		<tag k="ssr:date" v="2016-05-10" />
		<tag k="ssr:gruppe" v="veg" />
		<tag k="ssr:hovedgruppe" v="infrastruktur" />
		<tag k="ssr:stedsnr" v="175490" />
		<tag k="ssr:type" v="vegstrekning" />
	</node>
</osm>
