<?xml version="1.0" encoding="UTF-8"?>
<osm generator="osmapis" version="0.6">
	<node id="-761855" lat="69.9711111109" lon="19.639774982">
		<tag k="alt_name" v="Nordgård" />
		<tag k="name" v="Nordgard" />
		<tag k="place" v="farm" />
		<tag k="ssr:stedsnr" v="19541" />
	</node>
	<node id="-763902" lat="70.0358694417" lon="19.0786694452">
		<tag k="name" v="Sjåberg" />
		<tag k="place" v="isolated_dwelling" />
		<tag k="ssr:stedsnr" v="653221" />
	</node>
	<node id="-761846" lat="69.9087666633" lon="19.5075944461">
		<tag k="name" v="Blomli" />
		<tag k="place" v="isolated_dwelling" />
		<tag k="ssr:stedsnr" v="19510" />
	</node>
	<node id="-764585" lat="69.9275555546" lon="19.7911444445">
		<tag k="name" v="Toften" />
		<tag k="place" v="farm" />
		<tag k="ssr:stedsnr" v="808536" />
	</node>
	<node id="-761844" lat="69.9140777802" lon="19.7745249861">
		<tag k="name" v="Skogheim" />
		<tag k="place" v="farm" />
		<tag k="ssr:stedsnr" v="19506" />
	</node>
	<node id="-763891" lat="70.0730944439" lon="18.9747472279">
		<tag k="name" v="Bromnes" />
		<tag k="place" v="farm" />
		<tag k="ssr:stedsnr" v="633631" />
	</node>
	<node id="-761840" lat="69.9057305514" lon="19.475430557">
		<tag k="name" v="Blomlund" />
		<tag k="place" v="farm" />
		<tag k="ssr:stedsnr" v="19488" />
	</node>
	<node id="-763884" lat="70.0149722246" lon="19.5784805608">
		<tag k="name" v="Stakken" />
		<tag k="place" v="farm" />
		<tag k="ssr:stedsnr" v="632159" />
	</node>
	<node id="-763883" lat="69.9938083376" lon="19.8454861054">
		<tag k="name" v="Hamna" />
		<tag k="place" v="farm" />
		<tag k="ssr:stedsnr" v="632157" />
	</node>
	<node id="-763877" lat="69.835227777" lon="19.429433337">
		<tag k="name" v="Gjertrudsletta" />
		<tag k="place" v="farm" />
		<tag k="ssr:stedsnr" v="631348" />
	</node>
	<node id="-761817" lat="70.0095388868" lon="19.8950249921">
		<tag k="name" v="Myrvang" />
		<tag k="place" v="farm" />
		<tag k="ssr:stedsnr" v="19109" />
	</node>
	<node id="-761812" lat="69.9996666703" lon="19.558641665">
		<tag k="name" v="Sandbakka" />
		<tag k="place" v="farm" />
		<tag k="ssr:stedsnr" v="18567" />
	</node>
	<node id="-761808" lat="70.1226666633" lon="19.9740360927">
		<tag k="fixme" v="consider place=hamlet" />
		<tag k="name" v="Vannavalen" />
		<tag k="place" v="village" />
		<tag k="ssr:stedsnr" v="266904" />
	</node>
	<node id="-763852" lat="69.8815305576" lon="19.4619250036">
		<tag k="name" v="Kveldro" />
		<tag k="place" v="isolated_dwelling" />
		<tag k="ssr:stedsnr" v="626746" />
	</node>
	<node id="-763843" lat="69.9583527771" lon="19.5911638665">
		<tag k="name" v="Futnes" />
		<tag k="place" v="farm" />
		<tag k="ssr:stedsnr" v="626610" />
	</node>
	<node id="-763834" lat="70.0512638934" lon="18.9303749873">
		<tag k="loc_name:se" v="Ruobbánášši" />
		<tag k="name" v="Rebbenes" />
		<tag k="name:no" v="Rebbenes" />
		<tag k="place" v="farm" />
		<tag k="ssr:stedsnr" v="626512" />
	</node>
	<node id="-763892" lat="70.1483611133" lon="18.7924972065">
		<tag k="loc_name:se" v="Voreš Rifta" />
		<tag k="name" v="Grøtøy søndre" />
		<tag k="name:no" v="Grøtøy søndre" />
		<tag k="old_name:no" v="Sørgrøtøya" />
		<tag k="place" v="isolated_dwelling" />
		<tag k="ssr:stedsnr" v="633644" />
	</node>
	<node id="-761782" lat="69.857877776" lon="19.653469422">
		<tag k="name" v="Elveør" />
		<tag k="place" v="isolated_dwelling" />
		<tag k="ssr:stedsnr" v="413996" />
	</node>
	<node id="-761778" lat="70.0091492862" lon="19.9044115858">
		<tag k="fixme" v="consider place=hamlet" />
		<tag k="loc_name:no" v="Karlsøya prestegård" />
		<tag k="name" v="Kalsø Præstegård - Gálsá" />
		<tag k="name:no" v="Kalsø Præstegård" />
		<tag k="name:se" v="Gálsá" />
		<tag k="place" v="farm" />
		<tag k="ssr:stedsnr" v="984357" />
	</node>
	<node id="-761775" lat="69.859052774" lon="19.4371027725">
		<tag k="name" v="Engset" />
		<tag k="place" v="farm" />
		<tag k="ssr:stedsnr" v="899120" />
	</node>
	<node id="-761772" lat="69.8473166652" lon="19.5389055525">
		<tag k="name" v="Sætermoen" />
		<tag k="place" v="isolated_dwelling" />
		<tag k="ssr:stedsnr" v="899061" />
	</node>
	<node id="-761769" lat="69.8352166658" lon="19.4247749954">
		<tag k="name" v="Fjellheim" />
		<tag k="place" v="farm" />
		<tag k="ssr:stedsnr" v="898114" />
	</node>
	<node id="-763816" lat="69.9911361088" lon="19.0664527686">
		<tag k="name" v="Fossheim" />
		<tag k="place" v="isolated_dwelling" />
		<tag k="ssr:stedsnr" v="626196" />
	</node>
	<node id="-763813" lat="70.0162166701" lon="19.5826166658">
		<tag k="name" v="Haug" />
		<tag k="place" v="farm" />
		<tag k="ssr:stedsnr" v="625949" />
	</node>
	<node id="-763810" lat="70.0087499957" lon="19.5631500013">
		<tag k="name" v="Langnesbukta" />
		<tag k="place" v="farm" />
		<tag k="ssr:stedsnr" v="625944" />
	</node>
	<node id="-763807" lat="70.1608499978" lon="19.8923249831">
		<tag k="alt_name" v="Laukvika" />
		<tag k="name" v="Laukvik" />
		<tag k="place" v="locality" />
		<tag k="ssr:stedsnr" v="625907" />
	</node>
	<node id="-763806" lat="69.9753277799" lon="19.1257861156">
		<tag k="name" v="Luneng" />
		<tag k="place" v="farm" />
		<tag k="ssr:stedsnr" v="625865" />
	</node>
	<node id="-763800" lat="70.0902944456" lon="19.7043860955">
		<tag k="alt_name" v="Mellomjord" />
		<tag k="name" v="Mellomjorda" />
		<tag k="place" v="isolated_dwelling" />
		<tag k="ssr:stedsnr" v="625782" />
	</node>
	<node id="-761751" lat="70.2186499968" lon="19.7249499799">
		<tag k="name" v="Fredheim" />
		<tag k="place" v="farm" />
		<tag k="ssr:stedsnr" v="476434" />
	</node>
	<node id="-763797" lat="70.077316665" lon="19.1531500007">
		<tag k="name" v="Engenes" />
		<tag k="place" v="farm" />
		<tag k="ssr:stedsnr" v="625760" />
	</node>
	<node id="-763794" lat="69.8583555587" lon="19.6536944426">
		<tag k="fixme" v="consider place=hamlet" />
		<tag k="name" v="Grøtnesdalen" />
		<tag k="place" v="village" />
		<tag k="ssr:stedsnr" v="625702" />
	</node>
	<node id="-763792" lat="70.0181083297" lon="18.9586166609">
		<tag k="alt_name" v="Sør-Grunnfjord" />
		<tag k="name" v="Grunnfjord" />
		<tag k="old_name" v="Sørgrunnfjord" />
		<tag k="place" v="farm" />
		<tag k="ssr:stedsnr" v="625655" />
	</node>
	<node id="-763791" lat="70.0094805545" lon="18.8163000057">
		<tag k="name" v="Rydningen" />
		<tag k="place" v="farm" />
		<tag k="ssr:stedsnr" v="625651" />
	</node>
	<node id="-763790" lat="70.0115166706" lon="18.8390083203">
		<tag k="name" v="Solstrand" />
		<tag k="place" v="isolated_dwelling" />
		<tag k="ssr:stedsnr" v="625652" />
	</node>
	<node id="-763778" lat="69.924066666" lon="19.4876610945">
		<tag k="alt_name" v="Lanes" />
		<tag k="name" v="Mellom-Lanes" />
		<tag k="place" v="farm" />
		<tag k="ssr:stedsnr" v="625541" />
	</node>
	<node id="-763774" lat="70.089730555" lon="18.9297638719">
		<tag k="loc_name:se" v="Duoktovuotna" />
		<tag k="name" v="Toftefjorden" />
		<tag k="name:no" v="Toftefjorden" />
		<tag k="place" v="farm" />
		<tag k="ssr:stedsnr" v="625509" />
	</node>
	<node id="-763770" lat="69.9107416653" lon="19.5099583168">
		<tag k="name" v="Molund" />
		<tag k="place" v="isolated_dwelling" />
		<tag k="ssr:stedsnr" v="625490" />
	</node>
	<node id="-761711" lat="70.0628471396" lon="19.0433842006">
		<tag k="name" v="Mikkelvik" />
		<tag k="place" v="farm" />
		<tag k="ssr:stedsnr" v="475217" />
	</node>
	<node id="-763757" lat="70.090238893" lon="20.064547199">
		<tag k="name" v="Gjerdet" />
		<tag k="place" v="hamlet" />
		<tag k="ssr:stedsnr" v="625086" />
	</node>
	<node id="-763753" lat="69.9092416713" lon="19.4813138818">
		<tag k="name" v="Gamnesøyra" />
		<tag k="place" v="farm" />
		<tag k="ssr:stedsnr" v="606558" />
	</node>
	<node id="-761695" lat="70.1535833368" lon="20.0188138779">
		<tag k="name" v="Skorøy" />
		<tag k="place" v="isolated_dwelling" />
		<tag k="ssr:stedsnr" v="475084" />
	</node>
	<node id="-761680" lat="69.85751389" lon="19.6469083314">
		<tag k="name" v="Sandbakken" />
		<tag k="place" v="isolated_dwelling" />
		<tag k="ssr:stedsnr" v="474996" />
	</node>
	<node id="-761677" lat="70.2455638891" lon="19.4971555529">
		<tag k="name" v="Myrberg" />
		<tag k="place" v="isolated_dwelling" />
		<tag k="ssr:stedsnr" v="474839" />
	</node>
	<node id="-761484" lat="70.1464916692" lon="19.680944448">
		<tag k="name" v="Dalheim" />
		<tag k="place" v="farm" />
		<tag k="ssr:stedsnr" v="354771" />
	</node>
	<node id="-762148" lat="69.9693472236" lon="19.1409999866">
		<tag k="fixme" v="consider place=hamlet" />
		<tag k="name" v="Steinsund" />
		<tag k="place" v="farm" />
		<tag k="ssr:stedsnr" v="80867" />
	</node>
	<node id="-763702" lat="70.16323333" lon="19.8019416475">
		<tag k="name" v="Fuglevik" />
		<tag k="place" v="locality" />
		<tag k="ssr:stedsnr" v="596458" />
	</node>
	<node id="-763524" lat="70.0254833349" lon="19.089769445">
		<tag k="name" v="Fredheim" />
		<tag k="place" v="farm" />
		<tag k="ssr:stedsnr" v="564670" />
	</node>
	<node id="-763865" lat="70.1235638936" lon="19.9741944326">
		<tag k="name" v="Storelva" />
		<tag k="place" v="farm" />
		<tag k="ssr:stedsnr" v="626900" />
	</node>
	<node id="-761607" lat="70.0351305512" lon="19.4110111097">
		<tag k="name" v="Sakariasbukta" />
		<tag k="place" v="farm" />
		<tag k="ssr:stedsnr" v="383999" />
	</node>
	<node id="-763650" lat="70.1006944434" lon="18.8463750042">
		<tag k="name" v="Holmsletta" />
		<tag k="place" v="locality" />
		<tag k="ssr:stedsnr" v="592300" />
	</node>
	<node id="-761598" lat="70.118897219" lon="20.0191638625">
		<tag k="name" v="Sandvik" />
		<tag k="place" v="farm" />
		<tag k="ssr:stedsnr" v="383889" />
	</node>
	<node id="-761588" lat="70.1646000003" lon="19.8034999952">
		<tag k="name" v="Nygård" />
		<tag k="place" v="isolated_dwelling" />
		<tag k="ssr:stedsnr" v="383855" />
	</node>
	<node id="-761586" lat="70.1698972219" lon="19.6574722178">
		<tag k="name" v="Einarstrand" />
		<tag k="place" v="isolated_dwelling" />
		<tag k="ssr:stedsnr" v="383849" />
	</node>
	<node id="-761579" lat="70.1260694435" lon="19.7042055572">
		<tag k="name" v="Elvevoll" />
		<tag k="place" v="farm" />
		<tag k="ssr:stedsnr" v="383821" />
	</node>
	<node id="-761571" lat="69.8445416652" lon="19.517822223">
		<tag k="alt_name" v="Rotnby" />
		<tag k="name" v="Rottenby" />
		<tag k="place" v="isolated_dwelling" />
		<tag k="ssr:stedsnr" v="383701" />
	</node>
	<node id="-761568" lat="70.0351111098" lon="19.0823638921">
		<tag k="name" v="Solheim" />
		<tag k="place" v="farm" />
		<tag k="ssr:stedsnr" v="383689" />
	</node>
	<node id="-763613" lat="70.0968749959" lon="20.1002527669">
		<tag k="name" v="Myra" />
		<tag k="place" v="farm" />
		<tag k="ssr:stedsnr" v="565901" />
	</node>
	<node id="-763611" lat="70.1394444492" lon="19.9946999797">
		<tag k="name" v="Sørsanden" />
		<tag k="place" v="farm" />
		<tag k="ssr:stedsnr" v="565887" />
	</node>
	<node id="-761562" lat="69.9846527817" lon="19.8583388814">
		<tag k="name" v="Bakketun" />
		<tag k="place" v="farm" />
		<tag k="ssr:stedsnr" v="383659" />
	</node>
	<node id="-761560" lat="69.9608638907" lon="19.8555694231">
		<tag k="name" v="Hytta" />
		<tag k="place" v="farm" />
		<tag k="ssr:stedsnr" v="383655" />
	</node>
	<node id="-763607" lat="70.2186777811" lon="19.7263249963">
		<tag k="name" v="Brattfjell" />
		<tag k="place" v="farm" />
		<tag k="ssr:stedsnr" v="565860" />
	</node>
	<node id="-763601" lat="70.1129666687" lon="19.3637194489">
		<tag k="name" v="Kjerkevik" />
		<tag k="place" v="hamlet" />
		<tag k="ssr:stedsnr" v="565816" />
	</node>
	<node id="-761552" lat="69.9873749972" lon="19.3728305437">
		<tag k="name" v="Strandeng" />
		<tag k="place" v="farm" />
		<tag k="ssr:stedsnr" v="383613" />
	</node>
	<node id="-761550" lat="69.9670111121" lon="19.6275166665">
		<tag k="name" v="Hansnes" />
		<tag k="place" v="village" />
		<tag k="ssr:stedsnr" v="383605" />
	</node>
	<node id="-761549" lat="69.9641444397" lon="19.6218555567">
		<tag k="name" v="Slettmo" />
		<tag k="place" v="farm" />
		<tag k="ssr:stedsnr" v="383606" />
	</node>
	<node id="-763592" lat="69.8752194409" lon="19.4531666606">
		<tag k="name" v="Jamteby" />
		<tag k="place" v="isolated_dwelling" />
		<tag k="ssr:stedsnr" v="565742" />
	</node>
	<node id="-763591" lat="70.0563555548" lon="19.037147209">
		<tag k="alt_name" v="Mariagård" />
		<tag k="name" v="Mariagården" />
		<tag k="place" v="farm" />
		<tag k="ssr:stedsnr" v="565730" />
	</node>
	<node id="-763589" lat="70.0459166648" lon="19.0446388946">
		<tag k="name" v="Nyheim" />
		<tag k="place" v="farm" />
		<tag k="ssr:stedsnr" v="565714" />
	</node>
	<node id="-761539" lat="70.1303972203" lon="19.2112666488">
		<tag k="alt_name" v="Breidvika;Breidvik" />
		<tag k="name" v="Breivik" />
		<tag k="place" v="farm" />
		<tag k="ssr:stedsnr" v="383575" />
	</node>
	<node id="-761537" lat="70.1100888895" lon="19.1150583141">
		<tag k="name" v="Holmesletta" />
		<tag k="place" v="isolated_dwelling" />
		<tag k="ssr:stedsnr" v="383565" />
	</node>
	<node id="-764657" lat="70.1305777748" lon="19.9916222108">
		<tag k="fixme" v="consider place=hamlet" />
		<tag k="name" v="Kristoffervalen" />
		<tag k="place" v="village" />
		<tag k="ssr:stedsnr" v="808895" />
	</node>
	<node id="-763574" lat="69.9732833304" lon="19.6236610927">
		<tag k="name" v="Bjørklund" />
		<tag k="place" v="farm" />
		<tag k="ssr:stedsnr" v="565584" />
	</node>
	<node id="-763563" lat="69.9040722191" lon="19.4723222079">
		<tag k="alt_name" v="Gammnes" />
		<tag k="fixme" v="consider place=hamlet" />
		<tag k="name" v="Gamnes" />
		<tag k="place" v="farm" />
		<tag k="ssr:stedsnr" v="565530" />
	</node>
	<node id="-763559" lat="69.9018916681" lon="19.4983305594">
		<tag k="name" v="Lundheim" />
		<tag k="place" v="isolated_dwelling" />
		<tag k="ssr:stedsnr" v="565511" />
	</node>
	<node id="-761508" lat="69.9960333335" lon="19.3866222184">
		<tag k="name" v="Hamnneset" />
		<tag k="place" v="farm" />
		<tag k="ssr:stedsnr" v="382592" />
	</node>
	<node id="-761506" lat="70.0995111105" lon="19.0359083318">
		<tag k="alt_name" v="Hersøy" />
		<tag k="fixme" v="consider place=hamlet" />
		<tag k="name" v="Hersøya" />
		<tag k="place" v="farm" />
		<tag k="ssr:stedsnr" v="382515" />
	</node>
	<node id="-761501" lat="70.0839638858" lon="19.9999222016">
		<tag k="name" v="Nordre Vannvåg" />
		<tag k="place" v="quarter" />
		<tag k="ssr:stedsnr" v="358882" />
	</node>
	<node id="-763532" lat="70.0117333375" lon="19.8624277783">
		<tag k="name" v="Andersvik" />
		<tag k="place" v="farm" />
		<tag k="ssr:stedsnr" v="565101" />
	</node>
	<node id="-763530" lat="70.0162777757" lon="19.2948388802">
		<tag k="loc_name:se" v="Gáhceráigi" />
		<tag k="name" v="Vatnan" />
		<tag k="name:no" v="Vatnan" />
		<tag k="place" v="farm" />
		<tag k="ssr:stedsnr" v="564948" />
	</node>
	<node id="-763525" lat="69.8488777797" lon="19.5365083159">
		<tag k="name" v="Sæterelv" />
		<tag k="place" v="farm" />
		<tag k="ssr:stedsnr" v="564682" />
	</node>
	<node id="-761476" lat="70.1596055552" lon="19.80262777">
		<tag k="name" v="Sandmo" />
		<tag k="place" v="isolated_dwelling" />
		<tag k="ssr:stedsnr" v="354502" />
	</node>
	<node id="-763521" lat="69.9402305524" lon="19.6319472217">
		<tag k="name" v="Reinskard" />
		<tag k="place" v="farm" />
		<tag k="ssr:stedsnr" v="564550" />
	</node>
	<node id="-763520" lat="69.9367250017" lon="19.4760777809">
		<tag k="name" v="Myrlund" />
		<tag k="place" v="farm" />
		<tag k="ssr:stedsnr" v="564548" />
	</node>
	<node id="-763519" lat="69.9345749984" lon="19.5914888783">
		<tag k="name" v="Sandnes" />
		<tag k="place" v="farm" />
		<tag k="ssr:stedsnr" v="564545" />
	</node>
	<node id="-763516" lat="70.0908444483" lon="19.9904777762">
		<tag k="name" v="Skogeng" />
		<tag k="place" v="farm" />
		<tag k="ssr:stedsnr" v="564065" />
	</node>
	<node id="-761465" lat="70.0797888889" lon="19.7090388679">
		<tag k="name" v="Flåten" />
		<tag k="place" v="locality" />
		<tag k="ssr:stedsnr" v="354325" />
	</node>
	<node id="-763512" lat="69.9719638863" lon="19.1320277775">
		<tag k="name" v="Solli" />
		<tag k="place" v="farm" />
		<tag k="ssr:stedsnr" v="536988" />
	</node>
	<node id="-763507" lat="69.9596638894" lon="19.1769138795">
		<tag k="name" v="Solvang" />
		<tag k="place" v="farm" />
		<tag k="ssr:stedsnr" v="536935" />
	</node>
	<node id="-762130" lat="70.1204527817" lon="19.0896805399">
		<tag k="name" v="Ytrevika" />
		<tag k="place" v="farm" />
		<tag k="ssr:stedsnr" v="80565" />
	</node>
	<node id="-763477" lat="70.0563861164" lon="19.7827166468">
		<tag k="name" v="Kveldro" />
		<tag k="place" v="isolated_dwelling" />
		<tag k="ssr:stedsnr" v="536261" />
	</node>
	<node id="-761422" lat="70.2483333324" lon="19.5163638759">
		<tag k="name" v="Bergmo" />
		<tag k="place" v="isolated_dwelling" />
		<tag k="ssr:stedsnr" v="353802" />
	</node>
	<node id="-763443" lat="69.9989666639" lon="19.5599972206">
		<tag k="name" v="Elvemo" />
		<tag k="place" v="isolated_dwelling" />
		<tag k="ssr:stedsnr" v="536016" />
	</node>
	<node id="-763420" lat="69.8559555585" lon="19.6389138886">
		<tag k="name" v="Nymo" />
		<tag k="place" v="isolated_dwelling" />
		<tag k="ssr:stedsnr" v="534996" />
	</node>
	<node id="-763412" lat="69.8446361083" lon="19.5205472223">
		<tag k="name" v="Rottenbyen" />
		<tag k="place" v="hamlet" />
		<tag k="ssr:stedsnr" v="534027" />
	</node>
	<node id="-761358" lat="70.169227778" lon="19.0107111137">
		<tag k="alt_name:no" v="Måsværet" />
		<tag k="fixme" v="consider place=hamlet" />
		<tag k="name" v="Måsvær - Muosát" />
		<tag k="name:no" v="Måsvær" />
		<tag k="name:se" v="Muosát" />
		<tag k="place" v="farm" />
		<tag k="ssr:stedsnr" v="330620" />
	</node>
	<node id="-762114" lat="70.2541638871" lon="19.5515972088">
		<tag k="alt_name" v="Salstad" />
		<tag k="name" v="Solstad" />
		<tag k="place" v="isolated_dwelling" />
		<tag k="ssr:stedsnr" v="80404" />
	</node>
	<node id="-763400" lat="70.1806388869" lon="18.991341649">
		<tag k="name" v="Sætra" />
		<tag k="place" v="locality" />
		<tag k="ssr:stedsnr" v="531472" />
	</node>
	<node id="-763399" lat="69.9660611146" lon="19.1534027676">
		<tag k="fixme" v="consider tourism=alpine_hut or tourism=chalet" />
		<tag k="name" v="Skogsfjordvatn Grendehus" />
		<tag k="ssr:stedsnr" v="525163" />
		<tag k="tourism" v="wilderness_hut" />
	</node>
	<node id="-761348" lat="70.0098277758" lon="19.5727694461">
		<tag k="name" v="Grøtvoll" />
		<tag k="place" v="farm" />
		<tag k="ssr:stedsnr" v="329142" />
	</node>
	<node id="-761337" lat="70.038333334" lon="19.5392138771">
		<tag k="name" v="Bergly" />
		<tag k="place" v="farm" />
		<tag k="ssr:stedsnr" v="323994" />
	</node>
	<node id="-763376" lat="70.0561888928" lon="19.7828111143">
		<tag k="name" v="Ørnnesbukt" />
		<tag k="place" v="farm" />
		<tag k="ssr:stedsnr" v="505968" />
	</node>
	<node id="-763375" lat="70.0390027813" lon="19.2725777839">
		<tag k="name" v="Vassbotn" />
		<tag k="place" v="farm" />
		<tag k="ssr:stedsnr" v="505961" />
	</node>
	<node id="-761324" lat="69.8740333335" lon="19.7504444358">
		<tag k="name" v="Flathaug" />
		<tag k="place" v="isolated_dwelling" />
		<tag k="ssr:stedsnr" v="323741" />
	</node>
	<node id="-763370" lat="70.1630749988" lon="19.8016444424">
		<tag k="alt_name" v="Gammelgården" />
		<tag k="name" v="Gamlegård" />
		<tag k="place" v="farm" />
		<tag k="ssr:stedsnr" v="505836" />
	</node>
	<node id="-761321" lat="69.8802555522" lon="19.7539305328">
		<tag k="name" v="Skavberg" />
		<tag k="place" v="locality" />
		<tag k="ssr:stedsnr" v="323728" />
	</node>
	<node id="-763367" lat="69.8732583315" lon="19.451408335">
		<tag k="name" v="Myrhaug" />
		<tag k="place" v="isolated_dwelling" />
		<tag k="ssr:stedsnr" v="505749" />
	</node>
	<node id="-761318" lat="70.0439916667" lon="19.0476638923">
		<tag k="name" v="Nygård" />
		<tag k="place" v="farm" />
		<tag k="ssr:stedsnr" v="323708" />
	</node>
	<node id="-763365" lat="70.0584583309" lon="18.9456249936">
		<tag k="name" v="Steinli" />
		<tag k="place" v="farm" />
		<tag k="ssr:stedsnr" v="505741" />
	</node>
	<node id="-763364" lat="69.8915305547" lon="19.4785333127">
		<tag k="name" v="Hytta" />
		<tag k="place" v="farm" />
		<tag k="ssr:stedsnr" v="505738" />
	</node>
	<node id="-761314" lat="69.9983138938" lon="19.9053277626">
		<tag k="name" v="Galgevollen" />
		<tag k="place" v="farm" />
		<tag k="ssr:stedsnr" v="323652" />
	</node>
	<node id="-761313" lat="69.9603305582" lon="19.5987499982">
		<tag k="alt_name" v="Grågard" />
		<tag k="fixme" v="consider place=hamlet" />
		<tag k="name" v="Grågård" />
		<tag k="place" v="farm" />
		<tag k="ssr:stedsnr" v="323603" />
	</node>
	<node id="-763360" lat="69.9960138878" lon="19.9257610913">
		<tag k="alt_name" v="Huldreheimen" />
		<tag k="name" v="Hulderheim" />
		<tag k="place" v="isolated_dwelling" />
		<tag k="ssr:stedsnr" v="505653" />
	</node>
	<node id="-763359" lat="70.2374833362" lon="19.7170249988">
		<tag k="name" v="Burøysletta" />
		<tag k="place" v="isolated_dwelling" />
		<tag k="ssr:stedsnr" v="505649" />
	</node>
	<node id="-761310" lat="69.9740694407" lon="19.7274527777">
		<tag k="name" v="Skog" />
		<tag k="place" v="farm" />
		<tag k="ssr:stedsnr" v="323574" />
	</node>
	<node id="-763357" lat="70.2349166692" lon="19.6895694425">
		<tag k="name" v="Sandvik" />
		<tag k="place" v="isolated_dwelling" />
		<tag k="ssr:stedsnr" v="505645" />
	</node>
	<node id="-763354" lat="69.9498194399" lon="19.4642027768">
		<tag k="name" v="Hessfjorden" />
		<tag k="place" v="farm" />
		<tag k="ssr:stedsnr" v="505592" />
	</node>
	<node id="-763352" lat="69.981227782" lon="19.6662888897">
		<tag k="name" v="Sirivoll" />
		<tag k="place" v="farm" />
		<tag k="ssr:stedsnr" v="505585" />
	</node>
	<node id="-763350" lat="69.97196667" lon="19.7253583271">
		<tag k="name" v="Fjellheim" />
		<tag k="place" v="farm" />
		<tag k="ssr:stedsnr" v="505569" />
	</node>
	<node id="-763349" lat="70.117872225" lon="19.1877833172">
		<tag k="fixme" v="consider place=hamlet" />
		<tag k="loc_name:se" v="Ráđigoahti" />
		<tag k="name" v="Rødgammen" />
		<tag k="name:no" v="Rødgammen" />
		<tag k="place" v="farm" />
		<tag k="ssr:stedsnr" v="505564" />
	</node>
	<node id="-763348" lat="70.1214249965" lon="19.0035944356">
		<tag k="name" v="Skogheim" />
		<tag k="place" v="farm" />
		<tag k="ssr:stedsnr" v="505561" />
	</node>
	<node id="-761294" lat="70.059475" lon="19.3777499926">
		<tag k="name" v="Sjøstrand" />
		<tag k="place" v="farm" />
		<tag k="ssr:stedsnr" v="322977" />
	</node>
	<node id="-761287" lat="70.1771000002" lon="19.9017166631">
		<tag k="fixme" v="consider place=hamlet" />
		<tag k="name" v="Slettnes" />
		<tag k="place" v="village" />
		<tag k="ssr:stedsnr" v="322947" />
	</node>
	<node id="-761286" lat="70.0135694411" lon="19.3898777645">
		<tag k="name" v="Rydningen" />
		<tag k="place" v="farm" />
		<tag k="ssr:stedsnr" v="322943" />
	</node>
	<node id="-761278" lat="70.1890083355" lon="19.6234277622">
		<tag k="name" v="Steinhaug" />
		<tag k="place" v="farm" />
		<tag k="ssr:stedsnr" v="322862" />
	</node>
	<node id="-761277" lat="69.9872888923" lon="19.1398555417">
		<tag k="name" v="Tennvasslia" />
		<tag k="place" v="farm" />
		<tag k="ssr:stedsnr" v="322863" />
	</node>
	<node id="-761276" lat="70.1877666683" lon="19.6269333375">
		<tag k="name" v="Fjellmo" />
		<tag k="place" v="isolated_dwelling" />
		<tag k="ssr:stedsnr" v="322861" />
	</node>
	<node id="-761275" lat="70.2054777776" lon="19.5966194259">
		<tag k="name" v="Løvstad" />
		<tag k="place" v="isolated_dwelling" />
		<tag k="ssr:stedsnr" v="322856" />
	</node>
	<node id="-761273" lat="69.9689472262" lon="19.1542249861">
		<tag k="name" v="Elveland" />
		<tag k="place" v="farm" />
		<tag k="ssr:stedsnr" v="322846" />
	</node>
	<node id="-763318" lat="70.1972555557" lon="19.6113444277">
		<tag k="name" v="Nyvoll" />
		<tag k="place" v="farm" />
		<tag k="ssr:stedsnr" v="504873" />
	</node>
	<node id="-763317" lat="69.9822555558" lon="19.1042138786">
		<tag k="name" v="Lassejorda" />
		<tag k="place" v="isolated_dwelling" />
		<tag k="ssr:stedsnr" v="504872" />
	</node>
	<node id="-763315" lat="69.9600305558" lon="19.1743444422">
		<tag k="fixme" v="consider place=hamlet" />
		<tag k="name" v="Rydningen" />
		<tag k="place" v="farm" />
		<tag k="ssr:stedsnr" v="504825" />
	</node>
	<node id="-763314" lat="70.1616555533" lon="19.2262944256">
		<tag k="alt_name" v="Skjervik" />
		<tag k="name" v="Skjærvik" />
		<tag k="place" v="isolated_dwelling" />
		<tag k="ssr:stedsnr" v="504807" />
	</node>
	<node id="-761263" lat="70.0174944471" lon="18.847613889">
		<tag k="name" v="Jøvika" />
		<tag k="place" v="farm" />
		<tag k="ssr:stedsnr" v="322666" />
	</node>
	<node id="-761260" lat="70.2431444473" lon="19.4966083376">
		<tag k="name" v="Torsvåg" />
		<tag k="place" v="hamlet" />
		<tag k="ssr:stedsnr" v="322639" />
	</node>
	<node id="-761258" lat="69.9910722212" lon="19.7407694456">
		<tag k="name" v="Fjellstad" />
		<tag k="place" v="farm" />
		<tag k="ssr:stedsnr" v="322629" />
	</node>
	<node id="-763305" lat="69.8350277766" lon="19.3548277689">
		<tag k="name" v="Glimbukta" />
		<tag k="place" v="farm" />
		<tag k="ssr:stedsnr" v="504708" />
	</node>
	<node id="-763301" lat="70.019258337" lon="18.9606888893">
		<tag k="name" v="Solvoll" />
		<tag k="place" v="farm" />
		<tag k="ssr:stedsnr" v="504675" />
	</node>
	<node id="-761251" lat="69.9948444483" lon="19.5599944307">
		<tag k="name" v="Solheim" />
		<tag k="place" v="farm" />
		<tag k="ssr:stedsnr" v="322609" />
	</node>
	<node id="-763297" lat="69.9786138862" lon="19.661149977">
		<tag k="name" v="Skyttarbu" />
		<tag k="place" v="isolated_dwelling" />
		<tag k="ssr:stedsnr" v="504618" />
	</node>
	<node id="-763295" lat="69.9926083346" lon="19.4045833183">
		<tag k="alt_name:no" v="Dåfjorden" />
		<tag k="fixme" v="consider place=hamlet" />
		<tag k="loc_name:se" v="Vuollevuotna" />
		<tag k="name" v="Dåfjord" />
		<tag k="name:no" v="Dåfjord" />
		<tag k="place" v="village" />
		<tag k="ssr:stedsnr" v="504605" />
	</node>
	<node id="-763293" lat="70.1754694415" lon="19.1067805441">
		<tag k="alt_name" v="Rundsevoll" />
		<tag k="name" v="Runsevollen" />
		<tag k="place" v="locality" />
		<tag k="ssr:stedsnr" v="504604" />
	</node>
	<node id="-761242" lat="70.1562388863" lon="19.0010444325">
		<tag k="loc_name:se" v="Lávkeluokta" />
		<tag k="name" v="Laukvika" />
		<tag k="name:no" v="Laukvika" />
		<tag k="place" v="farm" />
		<tag k="ssr:stedsnr" v="322572" />
	</node>
	<node id="-761240" lat="69.9248500031" lon="19.4883277684">
		<tag k="fixme" v="consider place=hamlet" />
		<tag k="name" v="Lanes" />
		<tag k="place" v="farm" />
		<tag k="ssr:stedsnr" v="322545" />
	</node>
	<node id="-761238" lat="69.9344166691" lon="19.6089277725">
		<tag k="name" v="Vollan" />
		<tag k="place" v="farm" />
		<tag k="ssr:stedsnr" v="322537" />
	</node>
	<node id="-761235" lat="69.9174694408" lon="19.4840833267">
		<tag k="name" v="Rismo" />
		<tag k="place" v="farm" />
		<tag k="ssr:stedsnr" v="322513" />
	</node>
	<node id="-763282" lat="69.9416166675" lon="19.6360749839">
		<tag k="name" v="Bjørklund" />
		<tag k="place" v="farm" />
		<tag k="ssr:stedsnr" v="504550" />
	</node>
	<node id="-761233" lat="69.9147500011" lon="19.5161472021">
		<tag k="name" v="Dyrstad" />
		<tag k="place" v="isolated_dwelling" />
		<tag k="ssr:stedsnr" v="322511" />
	</node>
	<node id="-761232" lat="69.9191916633" lon="19.5224722122">
		<tag k="name" v="Rakkenes" />
		<tag k="place" v="isolated_dwelling" />
		<tag k="ssr:stedsnr" v="322509" />
	</node>
	<node id="-763279" lat="70.0910277815" lon="18.9289527814">
		<tag k="name" v="Sædingsvika" />
		<tag k="place" v="isolated_dwelling" />
		<tag k="ssr:stedsnr" v="504528" />
	</node>
	<node id="-761230" lat="69.9190305565" lon="19.7801694241">
		<tag k="name" v="Nordstrand" />
		<tag k="place" v="farm" />
		<tag k="ssr:stedsnr" v="322502" />
	</node>
	<node id="-763275" lat="70.0838749952" lon="19.1612861136">
		<tag k="name" v="Nordheim" />
		<tag k="place" v="locality" />
		<tag k="ssr:stedsnr" v="504517" />
	</node>
	<node id="-763260" lat="70.0477305519" lon="19.8954666623">
		<tag k="name" v="Stranda" />
		<tag k="place" v="isolated_dwelling" />
		<tag k="ssr:stedsnr" v="504076" />
	</node>
	<node id="-763258" lat="70.0726583336" lon="19.9820499846">
		<tag k="name" v="Vannvåg" />
		<tag k="place" v="village" />
		<tag k="ssr:stedsnr" v="504046" />
	</node>
	<node id="-762772" lat="69.8579055528" lon="19.6501888842">
		<tag k="name" v="Vollstad" />
		<tag k="place" v="isolated_dwelling" />
		<tag k="ssr:stedsnr" v="231989" />
	</node>
	<node id="-763249" lat="69.8376027777" lon="19.4390805563">
		<tag k="name" v="Nordheim" />
		<tag k="place" v="isolated_dwelling" />
		<tag k="ssr:stedsnr" v="473010" />
	</node>
	<node id="-765290" lat="70.2299833332" lon="19.2296027762">
		<tag k="name" v="Nordskaret" />
		<tag k="place" v="farm" />
		<tag k="ssr:stedsnr" v="970084" />
	</node>
	<node id="-761188" lat="69.8925555588" lon="19.4344722116">
		<tag k="fixme" v="consider place=hamlet" />
		<tag k="name" v="Langsund" />
		<tag k="place" v="farm" />
		<tag k="ssr:stedsnr" v="293846" />
	</node>
	<node id="-763219" lat="70.1512472208" lon="20.0229360989">
		<tag k="name" v="Nygård" />
		<tag k="place" v="isolated_dwelling" />
		<tag k="ssr:stedsnr" v="450875" />
	</node>
	<node id="-761168" lat="70.2282722222" lon="19.7388194389">
		<tag k="name" v="Solvang" />
		<tag k="place" v="locality" />
		<tag k="ssr:stedsnr" v="293448" />
	</node>
	<node id="-763215" lat="69.9217611135" lon="19.776783331">
		<tag k="name" v="Tjeldsand" />
		<tag k="place" v="farm" />
		<tag k="ssr:stedsnr" v="450144" />
	</node>
	<node id="-763207" lat="70.1619777762" lon="19.9475277603">
		<tag k="alt_name" v="Skorøyneset" />
		<tag k="name" v="Skorøynes" />
		<tag k="place" v="isolated_dwelling" />
		<tag k="ssr:stedsnr" v="445515" />
	</node>
	<node id="-763195" lat="70.0283250005" lon="19.3986166637">
		<tag k="name" v="Langstrand" />
		<tag k="place" v="farm" />
		<tag k="ssr:stedsnr" v="444991" />
	</node>
	<node id="-763192" lat="70.0446805566" lon="19.276491673">
		<tag k="name" v="Steinnes" />
		<tag k="place" v="farm" />
		<tag k="ssr:stedsnr" v="444977" />
	</node>
	<node id="-763184" lat="70.1447666663" lon="19.9907777659">
		<tag k="name" v="Nordsanden" />
		<tag k="place" v="isolated_dwelling" />
		<tag k="ssr:stedsnr" v="444932" />
	</node>
	<node id="-765229" lat="70.2216416657" lon="19.5174110952">
		<tag k="name" v="Dalmo" />
		<tag k="place" v="isolated_dwelling" />
		<tag k="ssr:stedsnr" v="960793" />
	</node>
	<node id="-763180" lat="70.1941500009" lon="19.6151110909">
		<tag k="name" v="Korsnes" />
		<tag k="place" v="isolated_dwelling" />
		<tag k="ssr:stedsnr" v="444883" />
	</node>
	<node id="-763178" lat="70.1905805588" lon="19.6221722103">
		<tag k="name" v="Korsnesberget" />
		<tag k="place" v="farm" />
		<tag k="ssr:stedsnr" v="444876" />
	</node>
	<node id="-763176" lat="70.2087194422" lon="19.5821583231">
		<tag k="name" v="Myra" />
		<tag k="place" v="farm" />
		<tag k="ssr:stedsnr" v="444871" />
	</node>
	<node id="-763170" lat="69.9670611105" lon="19.1486888795">
		<tag k="alt_name" v="Lavold" />
		<tag k="name" v="Lavollen" />
		<tag k="place" v="farm" />
		<tag k="ssr:stedsnr" v="444856" />
	</node>
	<node id="-763162" lat="70.1146083346" lon="19.5758416604">
		<tag k="loc_name:se" v="Menášši" />
		<tag k="name" v="Mjønes" />
		<tag k="name:no" v="Mjønes" />
		<tag k="place" v="isolated_dwelling" />
		<tag k="ssr:stedsnr" v="444806" />
	</node>
	<node id="-761111" lat="69.9892694446" lon="19.5588583144">
		<tag k="name" v="Engheim" />
		<tag k="place" v="isolated_dwelling" />
		<tag k="ssr:stedsnr" v="293025" />
	</node>
	<node id="-761107" lat="69.8448222192" lon="19.5192333145">
		<tag k="name" v="Rensby" />
		<tag k="place" v="isolated_dwelling" />
		<tag k="ssr:stedsnr" v="292049" />
	</node>
	<node id="-763152" lat="70.0797888897" lon="19.1556638799">
		<tag k="name" v="Fagerfjord" />
		<tag k="place" v="farm" />
		<tag k="ssr:stedsnr" v="444743" />
	</node>
	<node id="-763150" lat="70.0656527745" lon="19.0401499869">
		<tag k="name" v="Solberg" />
		<tag k="place" v="farm" />
		<tag k="ssr:stedsnr" v="444740" />
	</node>
	<node id="-763144" lat="70.0424888911" lon="18.8462194453">
		<tag k="name" v="Solvik" />
		<tag k="place" v="farm" />
		<tag k="ssr:stedsnr" v="444701" />
	</node>
	<node id="-763140" lat="70.0159361094" lon="19.0628944315">
		<tag k="name" v="Ånes" />
		<tag k="place" v="farm" />
		<tag k="ssr:stedsnr" v="444656" />
	</node>
	<node id="-763132" lat="69.9879166658" lon="19.4073138896">
		<tag k="name" v="Nellevoll" />
		<tag k="place" v="farm" />
		<tag k="ssr:stedsnr" v="444598" />
	</node>
	<node id="-763127" lat="69.988413888" lon="19.3858666489">
		<tag k="name" v="Mellomgard" />
		<tag k="place" v="farm" />
		<tag k="ssr:stedsnr" v="444582" />
	</node>
	<node id="-763123" lat="69.9543055567" lon="19.6738805359">
		<tag k="name" v="Bjørnes" />
		<tag k="place" v="farm" />
		<tag k="ssr:stedsnr" v="444570" />
	</node>
	<node id="-763115" lat="70.0888972203" lon="18.985797209">
		<tag k="name" v="Haugland" />
		<tag k="place" v="isolated_dwelling" />
		<tag k="ssr:stedsnr" v="444513" />
	</node>
	<node id="-765152" lat="70.1116833299" lon="18.909747208">
		<tag k="loc_name:se" v="Muorranjárga" />
		<tag k="name" v="Toftefjordneset" />
		<tag k="name:no" v="Toftefjordneset" />
		<tag k="place" v="isolated_dwelling" />
		<tag k="ssr:stedsnr" v="937650" />
	</node>
	<node id="-765145" lat="69.8962138902" lon="19.1282333286">
		<tag k="fixme" v="consider tourism=alpine_hut or tourism=chalet" />
		<tag k="name" v="Ringvassbu" />
		<tag k="old_name" v="Ringvassbua" />
		<tag k="ssr:stedsnr" v="931446" />
		<tag k="tourism" v="wilderness_hut" />
	</node>
	<node id="-765141" lat="70.0408305594" lon="19.4276861084">
		<tag k="name" v="Håkaby" />
		<tag k="place" v="farm" />
		<tag k="ssr:stedsnr" v="930968" />
	</node>
	<node id="-765138" lat="70.2276333366" lon="19.7292638798">
		<tag k="fixme" v="consider place=hamlet" />
		<tag k="loc_name:se" v="Burinuorri" />
		<tag k="name" v="Burøysund" />
		<tag k="name:no" v="Burøysund" />
		<tag k="place" v="village" />
		<tag k="ssr:stedsnr" v="930869" />
	</node>
	<node id="-765137" lat="70.2183666682" lon="19.2348833177">
		<tag k="alt_name" v="Nordskard;Nordskardet" />
		<tag k="name" v="Nordskaret" />
		<tag k="place" v="farm" />
		<tag k="ssr:stedsnr" v="930864" />
	</node>
	<node id="-765136" lat="70.2228527823" lon="19.5125055496">
		<tag k="alt_name" v="Klemmetsvik;Klemnesvik" />
		<tag k="name" v="Klemetsvik" />
		<tag k="place" v="isolated_dwelling" />
		<tag k="ssr:stedsnr" v="930856" />
	</node>
	<node id="-763087" lat="70.1441194432" lon="19.0244027626">
		<tag k="loc_name:se" v="Guohcaluokta" />
		<tag k="name" v="Rotvika" />
		<tag k="name:no" v="Rotvika" />
		<tag k="place" v="isolated_dwelling" />
		<tag k="ssr:stedsnr" v="444574" />
	</node>
	<node id="-765134" lat="70.1711194453" lon="19.6589250009">
		<tag k="name" v="Solstrand" />
		<tag k="place" v="locality" />
		<tag k="ssr:stedsnr" v="930836" />
	</node>
	<node id="-765133" lat="69.8638305561" lon="19.4409860945">
		<tag k="name" v="Ytregard" />
		<tag k="place" v="isolated_dwelling" />
		<tag k="ssr:stedsnr" v="930776" />
	</node>
	<node id="-761544" lat="70.118480559" lon="19.0947083191">
		<tag k="name" v="Storvika" />
		<tag k="place" v="farm" />
		<tag k="ssr:stedsnr" v="383590" />
	</node>
	<node id="-765130" lat="69.8801972225" lon="19.4591833249">
		<tag k="name" v="Skogli" />
		<tag k="place" v="isolated_dwelling" />
		<tag k="ssr:stedsnr" v="930758" />
	</node>
	<node id="-763080" lat="70.2069944446" lon="19.1067138843">
		<tag k="loc_name:se" v="Vorešskárdi" />
		<tag k="name" v="Sørskaret" />
		<tag k="name:no" v="Sørskaret" />
		<tag k="place" v="locality" />
		<tag k="ssr:stedsnr" v="424361" />
	</node>
	<node id="-763079" lat="70.1321194465" lon="19.9991166551">
		<tag k="name" v="Kristoffervalen" />
		<tag k="place" v="quarter" />
		<tag k="ssr:stedsnr" v="419889" />
	</node>
	<node id="-765126" lat="70.041794447" lon="18.8235055562">
		<tag k="alt_name" v="Ribbenesbotn" />
		<tag k="name" v="Rebbenesbotn" />
		<tag k="place" v="farm" />
		<tag k="ssr:stedsnr" v="930738" />
	</node>
	<node id="-765119" lat="69.9490999956" lon="19.4962972192">
		<tag k="name" v="Skognes" />
		<tag k="place" v="farm" />
		<tag k="ssr:stedsnr" v="930614" />
	</node>
	<node id="-763057" lat="70.1215305554" lon="19.0038472106">
		<tag k="name" v="Skogheim" />
		<tag k="place" v="isolated_dwelling" />
		<tag k="ssr:stedsnr" v="415670" />
	</node>
	<node id="-765104" lat="70.1115944441" lon="19.1289916589">
		<tag k="name" v="Luneborg" />
		<tag k="place" v="farm" />
		<tag k="ssr:stedsnr" v="930573" />
	</node>
	<node id="-763078" lat="69.9692055543" lon="19.6308055546">
		<tag k="name" v="Nyborgfeltet" />
		<tag k="place" v="quarter" />
		<tag k="ssr:stedsnr" v="419879" />
	</node>
	<node id="-765085" lat="70.0193194408" lon="19.5901749998">
		<tag k="loc_name:se" v="Ábivuotna" />
		<tag k="name" v="Grunnfjord" />
		<tag k="name:no" v="Grunnfjord" />
		<tag k="place" v="farm" />
		<tag k="ssr:stedsnr" v="929951" />
	</node>
	<node id="-765077" lat="70.1335972208" lon="19.6998666682">
		<tag k="alt_name" v="Hamre, ytre" />
		<tag k="fixme" v="multiple name tags, choose one and add the other to alt_name; consider place=hamlet" />
		<tag k="name" v="Hamre;Ytre Hamre" />
		<tag k="place" v="village" />
		<tag k="ssr:stedsnr" v="929782" />
	</node>
	<node id="-765069" lat="69.8920749963" lon="19.4359083242">
		<tag k="name" v="Kopparelv" />
		<tag k="place" v="farm" />
		<tag k="ssr:stedsnr" v="929711" />
	</node>
	<node id="-765068" lat="70.0274722219" lon="18.8687250054">
		<tag k="alt_name" v="Futjorda" />
		<tag k="name" v="Futjord" />
		<tag k="place" v="isolated_dwelling" />
		<tag k="ssr:stedsnr" v="929661" />
	</node>
	<node id="-765067" lat="70.0138416702" lon="19.0630388917">
		<tag k="name" v="Bekkevoll" />
		<tag k="place" v="farm" />
		<tag k="ssr:stedsnr" v="929620" />
	</node>
	<node id="-765061" lat="69.9854666652" lon="19.5445610931">
		<tag k="alt_name" v="Grunnfjordbotn" />
		<tag k="name" v="Botn" />
		<tag k="place" v="farm" />
		<tag k="ssr:stedsnr" v="929597" />
	</node>
	<node id="-765060" lat="69.9979805601" lon="19.3881333234">
		<tag k="name" v="Nystrand" />
		<tag k="place" v="isolated_dwelling" />
		<tag k="ssr:stedsnr" v="929584" />
	</node>
	<node id="-765059" lat="69.9919277747" lon="19.4015611004">
		<tag k="alt_name" v="Breidvollen" />
		<tag k="name" v="Breivold" />
		<tag k="place" v="farm" />
		<tag k="ssr:stedsnr" v="929577" />
	</node>
	<node id="-765048" lat="69.9231944451" lon="19.5372749797">
		<tag k="name" v="Karielv" />
		<tag k="place" v="farm" />
		<tag k="ssr:stedsnr" v="929529" />
	</node>
	<node id="-765047" lat="69.9457055545" lon="19.645988891">
		<tag k="name" v="Skoglund" />
		<tag k="place" v="isolated_dwelling" />
		<tag k="ssr:stedsnr" v="929524" />
	</node>
	<node id="-765029" lat="70.003733335" lon="19.8816999941">
		<tag k="name" v="Hellenes" />
		<tag k="place" v="farm" />
		<tag k="ssr:stedsnr" v="929114" />
	</node>
	<node id="-765028" lat="70.0076777744" lon="19.8868944411">
		<tag k="name" v="Liland" />
		<tag k="place" v="farm" />
		<tag k="ssr:stedsnr" v="929110" />
	</node>
	<node id="-765025" lat="70.0535055546" lon="19.8627972135">
		<tag k="name" v="Skåningen" />
		<tag k="place" v="isolated_dwelling" />
		<tag k="ssr:stedsnr" v="929065" />
	</node>
	<node id="-765021" lat="69.9677638889" lon="19.1584916484">
		<tag k="name" v="Bjørkli" />
		<tag k="place" v="farm" />
		<tag k="ssr:stedsnr" v="929856" />
	</node>
	<node id="-762963" lat="70.0713111115" lon="19.2949805521">
		<tag k="name" v="Karanes" />
		<tag k="place" v="farm" />
		<tag k="ssr:stedsnr" v="262805" />
	</node>
	<node id="-762956" lat="70.0538861151" lon="19.0349999987">
		<tag k="name" v="Nyvoll" />
		<tag k="place" v="isolated_dwelling" />
		<tag k="ssr:stedsnr" v="262749" />
	</node>
	<node id="-762953" lat="70.0208361082" lon="19.0390110988">
		<tag k="alt_name" v="Nyvoll" />
		<tag k="name" v="Pålfinngård" />
		<tag k="place" v="farm" />
		<tag k="ssr:stedsnr" v="262680" />
	</node>
	<node id="-762949" lat="69.9916694472" lon="19.4076361174">
		<tag k="name" v="Utt" />
		<tag k="place" v="farm" />
		<tag k="ssr:stedsnr" v="262608" />
	</node>
	<node id="-762945" lat="69.9531777743" lon="19.6672638882">
		<tag k="name" v="Solbakken" />
		<tag k="place" v="farm" />
		<tag k="ssr:stedsnr" v="262597" />
	</node>
	<node id="-762944" lat="69.958622219" lon="19.6852861068">
		<tag k="fixme" v="consider place=hamlet" />
		<tag k="name" v="Stakkvik" />
		<tag k="place" v="village" />
		<tag k="ssr:stedsnr" v="262596" />
	</node>
	<node id="-762931" lat="69.9059305543" lon="19.5041694318">
		<tag k="alt_name" v="Sommarset" />
		<tag k="name" v="Sommerseth" />
		<tag k="place" v="isolated_dwelling" />
		<tag k="ssr:stedsnr" v="262546" />
	</node>
	<node id="-762929" lat="69.8943305578" lon="19.442086098">
		<tag k="name" v="Nymoen" />
		<tag k="place" v="farm" />
		<tag k="ssr:stedsnr" v="262540" />
	</node>
	<node id="-761352" lat="69.9804527792" lon="19.8664944437">
		<tag k="name" v="Elvevoll" />
		<tag k="place" v="farm" />
		<tag k="ssr:stedsnr" v="329472" />
	</node>
	<node id="-762926" lat="69.9134111092" lon="19.4838833329">
		<tag k="alt_name" v="Elvemo" />
		<tag k="name" v="Elvemoen" />
		<tag k="place" v="isolated_dwelling" />
		<tag k="ssr:stedsnr" v="262530" />
	</node>
	<node id="-762925" lat="69.9123333327" lon="19.4812499845">
		<tag k="name" v="Sandmo" />
		<tag k="place" v="farm" />
		<tag k="ssr:stedsnr" v="262528" />
	</node>
	<node id="-762900" lat="70.0121777774" lon="19.5736777729">
		<tag k="name" v="Myre" />
		<tag k="place" v="farm" />
		<tag k="ssr:stedsnr" v="261933" />
	</node>
	<node id="-762899" lat="70.0180250032" lon="19.6221222123">
		<tag k="name" v="Stakkenes" />
		<tag k="place" v="farm" />
		<tag k="ssr:stedsnr" v="261931" />
	</node>
	<node id="-762898" lat="70.0156472212" lon="19.5789916633">
		<tag k="name" v="Vang" />
		<tag k="place" v="farm" />
		<tag k="ssr:stedsnr" v="261926" />
	</node>
	<node id="-762897" lat="70.1313277751" lon="19.7019249768">
		<tag k="alt_name" v="Gamlegården" />
		<tag k="name" v="Gammelgård" />
		<tag k="place" v="isolated_dwelling" />
		<tag k="ssr:stedsnr" v="261762" />
	</node>
	<node id="-762895" lat="70.1348111069" lon="19.6952194355">
		<tag k="name" v="Strande" />
		<tag k="place" v="isolated_dwelling" />
		<tag k="ssr:stedsnr" v="261758" />
	</node>
	<node id="-762893" lat="70.0251666651" lon="19.0391527813">
		<tag k="alt_name" v="Vedhoggarnes" />
		<tag k="name" v="Stakkenes" />
		<tag k="place" v="farm" />
		<tag k="ssr:stedsnr" v="261664" />
	</node>
	<node id="-762887" lat="70.0860027819" lon="20.0352527635">
		<tag k="name" v="Nymoen" />
		<tag k="place" v="farm" />
		<tag k="ssr:stedsnr" v="261077" />
	</node>
	<node id="-764932" lat="69.8535388858" lon="19.6247611103">
		<tag k="name" v="Bjørkeng" />
		<tag k="place" v="isolated_dwelling" />
		<tag k="ssr:stedsnr" v="899997" />
	</node>
	<node id="-762882" lat="69.9973583297" lon="19.540924984">
		<tag k="name" v="Solligård" />
		<tag k="place" v="farm" />
		<tag k="ssr:stedsnr" v="261602" />
	</node>
	<node id="-762857" lat="70.0536472214" lon="19.7954333143">
		<tag k="name" v="Kvalshausen" />
		<tag k="place" v="isolated_dwelling" />
		<tag k="ssr:stedsnr" v="233378" />
	</node>
	<node id="-762854" lat="70.0913972208" lon="19.7044222001">
		<tag k="name" v="Solvang" />
		<tag k="place" v="isolated_dwelling" />
		<tag k="ssr:stedsnr" v="233348" />
	</node>
	<node id="-764897" lat="70.1433083328" lon="19.933924977">
		<tag k="name" v="Jørenvik" />
		<tag k="place" v="farm" />
		<tag k="ssr:stedsnr" v="869924" />
	</node>
	<node id="-764889" lat="70.0523388851" lon="18.9339000035">
		<tag k="name" v="Bakken" />
		<tag k="place" v="farm" />
		<tag k="ssr:stedsnr" v="869752" />
	</node>
	<node id="-764885" lat="70.0176861097" lon="19.0834361043">
		<tag k="name" v="Skogseng" />
		<tag k="place" v="farm" />
		<tag k="ssr:stedsnr" v="869691" />
	</node>
	<node id="-764884" lat="70.0183638852" lon="19.064283336">
		<tag k="name" v="Skogsfjord" />
		<tag k="place" v="farm" />
		<tag k="ssr:stedsnr" v="869689" />
	</node>
	<node id="-764882" lat="69.9819694492" lon="19.8620860961">
		<tag k="alt_name" v="Reinsvollen" />
		<tag k="fixme" v="consider place=hamlet" />
		<tag k="name" v="Reinsvoll" />
		<tag k="place" v="farm" />
		<tag k="ssr:stedsnr" v="869672" />
	</node>
	<node id="-764877" lat="69.9856305537" lon="19.5480083347">
		<tag k="name" v="Skog" />
		<tag k="place" v="farm" />
		<tag k="ssr:stedsnr" v="869655" />
	</node>
	<node id="-764876" lat="69.9824972221" lon="19.537883337">
		<tag k="name" v="Utheim" />
		<tag k="place" v="farm" />
		<tag k="ssr:stedsnr" v="869652" />
	</node>
	<node id="-764874" lat="69.9869638848" lon="19.3773416661">
		<tag k="name" v="Nytrøa" />
		<tag k="place" v="farm" />
		<tag k="ssr:stedsnr" v="869644" />
	</node>
	<node id="-764869" lat="70.1453055546" lon="18.8596666662">
		<tag k="name" v="Peragården" />
		<tag k="place" v="locality" />
		<tag k="ssr:stedsnr" v="869630" />
	</node>
	<node id="-764862" lat="70.1239638887" lon="19.0801805612">
		<tag k="name" v="Tjuvvika" />
		<tag k="place" v="farm" />
		<tag k="ssr:stedsnr" v="869614" />
	</node>
	<node id="-764857" lat="69.9320805597" lon="19.7934249827">
		<tag k="name" v="Bomstad" />
		<tag k="place" v="farm" />
		<tag k="ssr:stedsnr" v="869581" />
	</node>
	<node id="-764855" lat="69.9197777744" lon="19.4855944405">
		<tag k="name" v="Avskilelv" />
		<tag k="place" v="farm" />
		<tag k="ssr:stedsnr" v="869548" />
	</node>
	<node id="-764850" lat="70.2547250017" lon="19.5512499805">
		<tag k="name" v="Sandfjorden" />
		<tag k="place" v="isolated_dwelling" />
		<tag k="ssr:stedsnr" v="869438" />
	</node>
	<node id="-764834" lat="70.0021138876" lon="19.9094388804">
		<tag k="name" v="Sletta" />
		<tag k="place" v="farm" />
		<tag k="ssr:stedsnr" v="869135" />
	</node>
	<node id="-764832" lat="70.0068388921" lon="19.8831916529">
		<tag k="alt_name" v="Vetestad" />
		<tag k="name" v="Vettestad" />
		<tag k="place" v="farm" />
		<tag k="ssr:stedsnr" v="869124" />
	</node>
	<node id="-764831" lat="70.052186111" lon="19.9382805499">
		<tag k="fixme" v="consider place=hamlet" />
		<tag k="name" v="Vannstua" />
		<tag k="place" v="farm" />
		<tag k="ssr:stedsnr" v="869086" />
	</node>
	<node id="-764824" lat="70.0248999985" lon="18.9388388725">
		<tag k="name" v="Vestergard" />
		<tag k="place" v="farm" />
		<tag k="ssr:stedsnr" v="868638" />
	</node>
	<node id="-762773" lat="69.8545916662" lon="19.630702769">
		<tag k="name" v="Steinli" />
		<tag k="place" v="farm" />
		<tag k="ssr:stedsnr" v="231996" />
	</node>
	<node id="-764820" lat="69.9954249978" lon="19.53923054">
		<tag k="name" v="Hamna" />
		<tag k="place" v="farm" />
		<tag k="ssr:stedsnr" v="868565" />
	</node>
	<node id="-764818" lat="69.9287111138" lon="19.4873388821">
		<tag k="name" v="Lanes" />
		<tag k="place" v="farm" />
		<tag k="ssr:stedsnr" v="868526" />
	</node>
	<node id="-764817" lat="70.0893027799" lon="18.8629638887">
		<tag k="name" v="Godstrand" />
		<tag k="place" v="farm" />
		<tag k="ssr:stedsnr" v="868517" />
	</node>
	<node id="-764813" lat="70.0839444459" lon="20.0005749771">
		<tag k="name" v="Skogstrand" />
		<tag k="place" v="farm" />
		<tag k="ssr:stedsnr" v="868081" />
	</node>
	<node id="-764808" lat="70.2299833332" lon="19.2296027762">
		<tag k="fixme" v="consider place=hamlet" />
		<tag k="name" v="Nordskaret" />
		<tag k="place" v="farm" />
		<tag k="ssr:stedsnr" v="849071" />
	</node>
	<node id="-762757" lat="69.8349111139" lon="19.4369138829">
		<tag k="name" v="Nergården" />
		<tag k="place" v="farm" />
		<tag k="ssr:stedsnr" v="230133" />
	</node>
	<node id="-764804" lat="70.1343583367" lon="19.9927027605">
		<tag k="name" v="Kristoffervalen" />
		<tag k="place" v="quarter" />
		<tag k="ssr:stedsnr" v="844906" />
	</node>
	<node id="-764802" lat="69.9721055566" lon="19.1268583151">
		<tag k="name" v="Løvmo" />
		<tag k="place" v="farm" />
		<tag k="ssr:stedsnr" v="840987" />
	</node>
	<node id="-762751" lat="70.0122944425" lon="18.8391444494">
		<tag k="name" v="Bokkalar" />
		<tag k="place" v="isolated_dwelling" />
		<tag k="ssr:stedsnr" v="228609" />
	</node>
	<node id="-764793" lat="70.2092722259" lon="19.5763305466">
		<tag k="name" v="Sletten" />
		<tag k="place" v="isolated_dwelling" />
		<tag k="ssr:stedsnr" v="840797" />
	</node>
	<node id="-762744" lat="70.1009888906" lon="20.107691657">
		<tag k="name" v="Fakkekeila" />
		<tag k="place" v="hamlet" />
		<tag k="ssr:stedsnr" v="208513" />
	</node>
	<node id="-763369" lat="70.1580611092" lon="19.7755222085">
		<tag k="alt_name" v="Røyrnes" />
		<tag k="name" v="Rørnes" />
		<tag k="place" v="locality" />
		<tag k="ssr:stedsnr" v="505834" />
	</node>
	<node id="-762738" lat="70.1157833322" lon="19.3697222145">
		<tag k="fixme" v="consider place=hamlet" />
		<tag k="loc_name:se" v="Áilu" />
		<tag k="name" v="Helgøy" />
		<tag k="name:no" v="Helgøy" />
		<tag k="place" v="farm" />
		<tag k="ssr:stedsnr" v="207539" />
	</node>
	<node id="-762730" lat="69.95450278" lon="19.8447027807">
		<tag k="alt_name" v="Klokkarvoll" />
		<tag k="name" v="Klokkarvollen" />
		<tag k="place" v="farm" />
		<tag k="ssr:stedsnr" v="202677" />
	</node>
	<node id="-762729" lat="69.9500999961" lon="19.6571833262">
		<tag k="name" v="Finnby" />
		<tag k="place" v="farm" />
		<tag k="ssr:stedsnr" v="202617" />
	</node>
	<node id="-764775" lat="69.9235861093" lon="19.7770222174">
		<tag k="name" v="Blåstein" />
		<tag k="place" v="farm" />
		<tag k="ssr:stedsnr" v="840420" />
	</node>
	<node id="-763366" lat="70.0503472179" lon="18.9285305545">
		<tag k="name" v="Toften" />
		<tag k="place" v="farm" />
		<tag k="ssr:stedsnr" v="505743" />
	</node>
	<node id="-762717" lat="70.0610861111" lon="19.3797277647">
		<tag k="name" v="Myrstad" />
		<tag k="place" v="farm" />
		<tag k="ssr:stedsnr" v="201985" />
	</node>
	<node id="-762714" lat="70.0472444438" lon="19.4721916634">
		<tag k="alt_name" v="Gammvikbukta;Gammvik" />
		<tag k="name" v="Gamvik" />
		<tag k="place" v="farm" />
		<tag k="ssr:stedsnr" v="201971" />
	</node>
	<node id="-762712" lat="70.1518722248" lon="19.9820499964">
		<tag k="name" v="Stranda" />
		<tag k="place" v="isolated_dwelling" />
		<tag k="ssr:stedsnr" v="201933" />
	</node>
	<node id="-762711" lat="70.1462472245" lon="19.9246722192">
		<tag k="alt_name" v="Litlevika" />
		<tag k="name" v="Lillevik" />
		<tag k="old_name" v="Lillevika" />
		<tag k="place" v="farm" />
		<tag k="ssr:stedsnr" v="201927" />
	</node>
	<node id="-762709" lat="70.1765277785" lon="19.9903277598">
		<tag k="name" v="Ravika" />
		<tag k="place" v="locality" />
		<tag k="ssr:stedsnr" v="201920" />
	</node>
	<node id="-762705" lat="70.1085194476" lon="20.0743638735">
		<tag k="alt_name" v="Djupvika" />
		<tag k="name" v="Jøvik" />
		<tag k="place" v="farm" />
		<tag k="ssr:stedsnr" v="201901" />
	</node>
	<node id="-764751" lat="69.9265277809" lon="19.7853305343">
		<tag k="fixme" v="consider place=hamlet" />
		<tag k="name" v="Nordeidet" />
		<tag k="place" v="farm" />
		<tag k="ssr:stedsnr" v="840099" />
	</node>
	<node id="-762701" lat="70.1257722247" lon="19.9605944244">
		<tag k="alt_name" v="Valabotnen" />
		<tag k="name" v="Valabotn" />
		<tag k="place" v="farm" />
		<tag k="ssr:stedsnr" v="201882" />
	</node>
	<node id="-762697" lat="70.2016999971" lon="19.605399979">
		<tag k="name" v="Vollstad" />
		<tag k="place" v="farm" />
		<tag k="ssr:stedsnr" v="201847" />
	</node>
	<node id="-762696" lat="69.9764194419" lon="19.113580547">
		<tag k="name" v="Skoglund" />
		<tag k="place" v="isolated_dwelling" />
		<tag k="ssr:stedsnr" v="201844" />
	</node>
	<node id="-762694" lat="69.9578194423" lon="19.1843722163">
		<tag k="name" v="Elvebakken" />
		<tag k="place" v="farm" />
		<tag k="ssr:stedsnr" v="201818" />
	</node>
	<node id="-762693" lat="69.9564611159" lon="19.1855888734">
		<tag k="alt_name" v="Elvevollen" />
		<tag k="name" v="Elvevoll" />
		<tag k="place" v="farm" />
		<tag k="ssr:stedsnr" v="201817" />
	</node>
	<node id="-761654" lat="69.8390138923" lon="19.4649277698">
		<tag k="name" v="Lunde" />
		<tag k="place" v="isolated_dwelling" />
		<tag k="ssr:stedsnr" v="413001" />
	</node>
	<node id="-762684" lat="70.0577999996" lon="19.2784166647">
		<tag k="name" v="Myrbukta" />
		<tag k="place" v="farm" />
		<tag k="ssr:stedsnr" v="201765" />
	</node>
	<node id="-762682" lat="70.0986444452" lon="19.5184611069">
		<tag k="alt_name" v="Indreby" />
		<tag k="name" v="Innerby" />
		<tag k="place" v="farm" />
		<tag k="ssr:stedsnr" v="201748" />
	</node>
	<node id="-762681" lat="70.1079861088" lon="19.7185583112">
		<tag k="name" v="Solbakken" />
		<tag k="place" v="farm" />
		<tag k="ssr:stedsnr" v="201743" />
	</node>
	<node id="-762675" lat="70.060938891" lon="19.036975005">
		<tag k="alt_name" v="Mikkelvik" />
		<tag k="name" v="Mikkelvika" />
		<tag k="place" v="hamlet" />
		<tag k="ssr:stedsnr" v="201727" />
	</node>
	<node id="-762665" lat="70.0555555547" lon="18.9404249884">
		<tag k="name" v="Luneborg" />
		<tag k="place" v="farm" />
		<tag k="ssr:stedsnr" v="201707" />
	</node>
	<node id="-762663" lat="69.9881583345" lon="19.5564750012">
		<tag k="name" v="Rydningen" />
		<tag k="place" v="farm" />
		<tag k="ssr:stedsnr" v="201584" />
	</node>
	<node id="-762662" lat="69.9926583331" lon="19.5599111134">
		<tag k="name" v="Labukta" />
		<tag k="place" v="farm" />
		<tag k="ssr:stedsnr" v="201583" />
	</node>
	<node id="-762654" lat="69.9725277756" lon="19.6447250025">
		<tag k="name" v="Nordby" />
		<tag k="place" v="farm" />
		<tag k="ssr:stedsnr" v="201540" />
	</node>
	<node id="-762653" lat="69.9679333343" lon="19.6272444237">
		<tag k="name" v="Toften" />
		<tag k="place" v="farm" />
		<tag k="ssr:stedsnr" v="201538" />
	</node>
	<node id="-762647" lat="69.8899416655" lon="19.4308249866">
		<tag k="name" v="Strandmo" />
		<tag k="place" v="farm" />
		<tag k="ssr:stedsnr" v="201487" />
	</node>
	<node id="-762642" lat="69.9134138919" lon="19.5149388913">
		<tag k="name" v="Bergan" />
		<tag k="place" v="farm" />
		<tag k="ssr:stedsnr" v="201477" />
	</node>
	<node id="-764689" lat="70.1576777741" lon="19.9895055362">
		<tag k="alt_name" v="Reinvika" />
		<tag k="name" v="Reinvik" />
		<tag k="place" v="farm" />
		<tag k="ssr:stedsnr" v="819996" />
	</node>
	<node id="-764685" lat="69.9456777743" lon="19.4685694333">
		<tag k="fixme" v="consider place=hamlet" />
		<tag k="name" v="Hessfjord" />
		<tag k="place" v="village" />
		<tag k="ssr:stedsnr" v="815880" />
	</node>
	<node id="-764684" lat="70.0523444407" lon="18.9305833181">
		<tag k="fixme" v="consider place=hamlet" />
		<tag k="loc_name:se" v="Ruobbánášši" />
		<tag k="name" v="Rebbenes" />
		<tag k="name:no" v="Rebbenes" />
		<tag k="place" v="village" />
		<tag k="ssr:stedsnr" v="815557" />
	</node>
	<node id="-762629" lat="70.2657555528" lon="20.2659694284">
		<tag k="name" v="Gamvik" />
		<tag k="place" v="locality" />
		<tag k="ssr:stedsnr" v="201343" />
	</node>
	<node id="-762623" lat="69.8432138933" lon="19.4956499883">
		<tag k="name" v="Solheim" />
		<tag k="place" v="isolated_dwelling" />
		<tag k="ssr:stedsnr" v="201672" />
	</node>
	<node id="-764666" lat="70.0541611085" lon="19.8024444327">
		<tag k="alt_name" v="Kvalshavsvik" />
		<tag k="name" v="Kvalshausvik" />
		<tag k="place" v="isolated_dwelling" />
		<tag k="ssr:stedsnr" v="808970" />
	</node>
	<node id="-762617" lat="69.9998000048" lon="19.8319777649">
		<tag k="name" v="Storvollen" />
		<tag k="place" v="farm" />
		<tag k="ssr:stedsnr" v="201602" />
	</node>
	<node id="-764713" lat="69.9894333349" lon="19.5596360987">
		<tag k="name" v="Engbakken" />
		<tag k="place" v="isolated_dwelling" />
		<tag k="ssr:stedsnr" v="839016" />
	</node>
	<node id="-762611" lat="70.0880333352" lon="19.9949249789">
		<tag k="name" v="Fjellstad" />
		<tag k="place" v="farm" />
		<tag k="ssr:stedsnr" v="201065" />
	</node>
	<node id="-762609" lat="70.0503833356" lon="19.9129222068">
		<tag k="name" v="Kjeglen" />
		<tag k="place" v="isolated_dwelling" />
		<tag k="ssr:stedsnr" v="201060" />
	</node>
	<node id="-764655" lat="70.1165277738" lon="20.0589555491">
		<tag k="name" v="Vikan" />
		<tag k="place" v="farm" />
		<tag k="ssr:stedsnr" v="808887" />
	</node>
	<node id="-762605" lat="69.9700277786" lon="19.1374611114">
		<tag k="name" v="Solbakken" />
		<tag k="place" v="farm" />
		<tag k="ssr:stedsnr" v="172995" />
	</node>
	<node id="-764651" lat="70.2010333318" lon="19.604783334">
		<tag k="alt_name" v="Vannareidet" />
		<tag k="fixme" v="consider place=hamlet" />
		<tag k="name" v="Vannareid" />
		<tag k="place" v="village" />
		<tag k="ssr:stedsnr" v="808868" />
	</node>
	<node id="-764650" lat="70.1872805572" lon="19.2445805556">
		<tag k="alt_name" v="Lillevika" />
		<tag k="name" v="Litlevik" />
		<tag k="place" v="farm" />
		<tag k="ssr:stedsnr" v="808863" />
	</node>
	<node id="-764649" lat="69.9633638879" lon="19.1643999819">
		<tag k="name" v="Langbakkmoen" />
		<tag k="place" v="farm" />
		<tag k="ssr:stedsnr" v="808852" />
	</node>
	<node id="-764648" lat="70.2284000023" lon="19.7304222166">
		<tag k="alt_name" v="Bergland" />
		<tag k="name" v="Berglund" />
		<tag k="place" v="locality" />
		<tag k="ssr:stedsnr" v="808851" />
	</node>
	<node id="-764645" lat="69.964316665" lon="19.1601805563">
		<tag k="alt_name" v="Småsletten" />
		<tag k="name" v="Småsletta" />
		<tag k="place" v="farm" />
		<tag k="ssr:stedsnr" v="808847" />
	</node>
	<node id="-764639" lat="70.1816250032" lon="19.6415638726">
		<tag k="alt_name" v="Kokkevoll" />
		<tag k="name" v="Kokkvoll" />
		<tag k="place" v="isolated_dwelling" />
		<tag k="ssr:stedsnr" v="808813" />
	</node>
	<node id="-764638" lat="70.1746527746" lon="19.6540972126">
		<tag k="name" v="Gammvik" />
		<tag k="place" v="farm" />
		<tag k="ssr:stedsnr" v="808811" />
	</node>
	<node id="-764634" lat="70.0663833298" lon="19.3564527756">
		<tag k="name" v="Vestresidvåg" />
		<tag k="place" v="farm" />
		<tag k="ssr:stedsnr" v="808776" />
	</node>
	<node id="-762584" lat="70.047755553" lon="19.8976027687">
		<tag k="name" v="Stakkevoll" />
		<tag k="place" v="isolated_dwelling" />
		<tag k="ssr:stedsnr" v="172455" />
	</node>
	<node id="-762581" lat="70.0018250018" lon="19.9165222016">
		<tag k="name" v="Åsheim" />
		<tag k="place" v="isolated_dwelling" />
		<tag k="ssr:stedsnr" v="172440" />
	</node>
	<node id="-764627" lat="69.8760638884" lon="19.4545888838">
		<tag k="name" v="Lilleby" />
		<tag k="place" v="farm" />
		<tag k="ssr:stedsnr" v="808729" />
	</node>
	<node id="-764625" lat="69.8867805583" lon="19.4695388824">
		<tag k="name" v="Brattrein" />
		<tag k="place" v="farm" />
		<tag k="ssr:stedsnr" v="808715" />
	</node>
	<node id="-764623" lat="70.0453527795" lon="18.8928222115">
		<tag k="alt_name:no" v="Varvik" />
		<tag k="loc_name:se" v="Várluokta" />
		<tag k="name" v="Nordvardvika" />
		<tag k="name:no" v="Nordvardvika" />
		<tag k="place" v="farm" />
		<tag k="ssr:stedsnr" v="808704" />
	</node>
	<node id="-762571" lat="69.9618472264" lon="19.6105777619">
		<tag k="name" v="Kardemommeby" />
		<tag k="place" v="quarter" />
		<tag k="ssr:stedsnr" v="172254" />
	</node>
	<node id="-764616" lat="70.0209583289" lon="19.0909805601">
		<tag k="name" v="Moen" />
		<tag k="place" v="farm" />
		<tag k="ssr:stedsnr" v="808666" />
	</node>
	<node id="-764615" lat="70.0242333288" lon="19.0895555564">
		<tag k="name" v="Nyvoll" />
		<tag k="place" v="isolated_dwelling" />
		<tag k="ssr:stedsnr" v="808665" />
	</node>
	<node id="-764611" lat="70.2400138902" lon="19.7131944303">
		<tag k="name" v="Solheim" />
		<tag k="place" v="farm" />
		<tag k="ssr:stedsnr" v="808637" />
	</node>
	<node id="-764610" lat="70.2431944418" lon="19.4981083264">
		<tag k="name" v="Torsvåg" />
		<tag k="place" v="farm" />
		<tag k="ssr:stedsnr" v="808632" />
	</node>
	<node id="-764600" lat="69.9882833304" lon="19.3655388886">
		<tag k="name" v="Elva" />
		<tag k="place" v="farm" />
		<tag k="ssr:stedsnr" v="808593" />
	</node>
	<node id="-764592" lat="70.1287805537" lon="19.0700833386">
		<tag k="name" v="Bårdset" />
		<tag k="place" v="isolated_dwelling" />
		<tag k="ssr:stedsnr" v="808566" />
	</node>
	<node id="-764588" lat="69.9332305577" lon="19.7952416456">
		<tag k="name" v="Lundborg" />
		<tag k="place" v="farm" />
		<tag k="ssr:stedsnr" v="808552" />
	</node>
	<node id="-764587" lat="70.1185638887" lon="18.9625972183">
		<tag k="name" v="Hersøygård" />
		<tag k="place" v="farm" />
		<tag k="ssr:stedsnr" v="808545" />
	</node>
	<node id="-762537" lat="70.2439277785" lon="19.5139527653">
		<tag k="name" v="Brattli" />
		<tag k="place" v="isolated_dwelling" />
		<tag k="ssr:stedsnr" v="171846" />
	</node>
	<node id="-764584" lat="69.9234027803" lon="19.7795083124">
		<tag k="fixme" v="consider place=hamlet" />
		<tag k="name" v="Nordeidet" />
		<tag k="place" v="village" />
		<tag k="ssr:stedsnr" v="808535" />
	</node>
	<node id="-762532" lat="70.2183611144" lon="19.516561091">
		<tag k="name" v="Berstad" />
		<tag k="place" v="farm" />
		<tag k="ssr:stedsnr" v="171824" />
	</node>
	<node id="-762531" lat="69.9210944426" lon="19.5293249801">
		<tag k="name" v="Lilleng" />
		<tag k="place" v="isolated_dwelling" />
		<tag k="ssr:stedsnr" v="171823" />
	</node>
	<node id="-764577" lat="69.932369443" lon="19.4858583127">
		<tag k="name" v="Kjosvoll" />
		<tag k="place" v="farm" />
		<tag k="ssr:stedsnr" v="808520" />
	</node>
	<node id="-764574" lat="69.919444446" lon="19.7725527656">
		<tag k="name" v="Bjørkli" />
		<tag k="place" v="farm" />
		<tag k="ssr:stedsnr" v="808482" />
	</node>
	<node id="-762518" lat="70.1765194416" lon="19.8228138668">
		<tag k="name" v="Rotenga" />
		<tag k="place" v="farm" />
		<tag k="ssr:stedsnr" v="171473" />
	</node>
	<node id="-762516" lat="70.1241472218" lon="19.7075944302">
		<tag k="name" v="Nylund" />
		<tag k="place" v="isolated_dwelling" />
		<tag k="ssr:stedsnr" v="171257" />
	</node>
	<node id="-762512" lat="70.0573861151" lon="19.3741694462">
		<tag k="name" v="Gammelheimen" />
		<tag k="place" v="locality" />
		<tag k="ssr:stedsnr" v="171184" />
	</node>
	<node id="-764542" lat="69.9586416692" lon="19.1804555603">
		<tag k="name" v="Reinsvoll" />
		<tag k="place" v="farm" />
		<tag k="ssr:stedsnr" v="779927" />
	</node>
	<node id="-764541" lat="69.9739055566" lon="19.1205194341">
		<tag k="name" v="Myrvang" />
		<tag k="place" v="farm" />
		<tag k="ssr:stedsnr" v="779904" />
	</node>
	<node id="-762491" lat="69.8356916648" lon="19.4370111011">
		<tag k="name" v="Øvergården" />
		<tag k="place" v="farm" />
		<tag k="ssr:stedsnr" v="170135" />
	</node>
	<node id="-762488" lat="69.8598833331" lon="19.4350583349">
		<tag k="name" v="Bjørkli" />
		<tag k="place" v="locality" />
		<tag k="ssr:stedsnr" v="170125" />
	</node>
	<node id="-762485" lat="69.8409499992" lon="19.470924987">
		<tag k="name" v="Solvang" />
		<tag k="place" v="isolated_dwelling" />
		<tag k="ssr:stedsnr" v="170050" />
	</node>
	<node id="-763324" lat="70.0050222212" lon="19.3243305419">
		<tag k="name" v="Sætervik" />
		<tag k="place" v="farm" />
		<tag k="ssr:stedsnr" v="504954" />
	</node>
	<node id="-762465" lat="70.1264749987" lon="19.7080860975">
		<tag k="alt_name" v="Hamre, indre" />
		<tag k="name" v="Indre Hamre" />
		<tag k="place" v="farm" />
		<tag k="ssr:stedsnr" v="152205" />
	</node>
	<node id="-762981" lat="70.1948388926" lon="19.8273333275">
		<tag k="name" v="Rotengen" />
		<tag k="place" v="locality" />
		<tag k="ssr:stedsnr" v="262970" />
	</node>
	<node id="-762451" lat="69.9446527802" lon="19.641641649">
		<tag k="alt_name" v="Torvhatten" />
		<tag k="name" v="Torghatten" />
		<tag k="place" v="farm" />
		<tag k="ssr:stedsnr" v="145519" />
	</node>
	<node id="-762441" lat="70.0045027784" lon="19.5623138695">
		<tag k="name" v="Langnes" />
		<tag k="place" v="farm" />
		<tag k="ssr:stedsnr" v="140946" />
	</node>
	<node id="-762435" lat="70.1747333306" lon="19.8209860867">
		<tag k="alt_name:no" v="Skipfjorden;Skipfjord" />
		<tag k="fixme" v="consider place=hamlet" />
		<tag k="loc_name:se" v="Skihččavuotna" />
		<tag k="name" v="Skipsfjord" />
		<tag k="name:no" v="Skipsfjord" />
		<tag k="place" v="farm" />
		<tag k="ssr:stedsnr" v="140959" />
	</node>
	<node id="-762433" lat="70.1583500049" lon="19.6737472056">
		<tag k="name" v="Myrvoll" />
		<tag k="place" v="farm" />
		<tag k="ssr:stedsnr" v="140832" />
	</node>
	<node id="-762430" lat="70.183599999" lon="19.6386416547">
		<tag k="name" v="Vollan" />
		<tag k="place" v="farm" />
		<tag k="ssr:stedsnr" v="140813" />
	</node>
	<node id="-764474" lat="70.2192166647" lon="19.5170305561">
		<tag k="name" v="Solvik" />
		<tag k="place" v="farm" />
		<tag k="ssr:stedsnr" v="778808" />
	</node>
	<node id="-762424" lat="70.1463583307" lon="19.6798722067">
		<tag k="alt_name" v="Sengsvoll;Sæingsvoll" />
		<tag k="name" v="Sædingsvollen" />
		<tag k="place" v="isolated_dwelling" />
		<tag k="ssr:stedsnr" v="140780" />
	</node>
	<node id="-764471" lat="69.9874555558" lon="19.3713916528">
		<tag k="name" v="Fossheim" />
		<tag k="place" v="farm" />
		<tag k="ssr:stedsnr" v="778758" />
	</node>
	<node id="-764464" lat="70.1697500053" lon="19.8105444239">
		<tag k="name" v="Solstad" />
		<tag k="place" v="isolated_dwelling" />
		<tag k="ssr:stedsnr" v="778482" />
	</node>
	<node id="-762415" lat="70.1054194483" lon="19.7186638875">
		<tag k="name" v="Kvalvåg" />
		<tag k="place" v="farm" />
		<tag k="ssr:stedsnr" v="140750" />
	</node>
	<node id="-761266" lat="69.8405472245" lon="19.4680944355">
		<tag k="alt_name" v="Gammelgard;Gammelgård" />
		<tag k="name" v="Gammelgården" />
		<tag k="place" v="farm" />
		<tag k="ssr:stedsnr" v="322693" />
	</node>
	<node id="-762406" lat="70.1004055529" lon="19.7073610999">
		<tag k="amenity" v="cafe" />
		<tag k="name" v="Slettmo" />
		<tag k="ssr:stedsnr" v="140757" />
	</node>
	<node id="-762398" lat="70.0250777808" lon="18.9699749967">
		<tag k="name" v="Slettvoll" />
		<tag k="place" v="farm" />
		<tag k="ssr:stedsnr" v="140670" />
	</node>
	<node id="-762389" lat="70.1690138874" lon="19.1086305591">
		<tag k="loc_name:se" v="Hearpmavuotna" />
		<tag k="name" v="Hermannsfjorden" />
		<tag k="name:no" v="Hermannsfjorden" />
		<tag k="place" v="farm" />
		<tag k="ssr:stedsnr" v="140579" />
	</node>
	<node id="-762386" lat="69.9677833342" lon="19.7131166634">
		<tag k="name" v="Lyngmo" />
		<tag k="place" v="farm" />
		<tag k="ssr:stedsnr" v="140570" />
	</node>
	<node id="-762382" lat="70.0444249994" lon="18.8742860955">
		<tag k="alt_name:no" v="Varvik" />
		<tag k="loc_name:se" v="Várluokta" />
		<tag k="name" v="Sørvardvika" />
		<tag k="name:no" v="Sørvardvika" />
		<tag k="place" v="farm" />
		<tag k="ssr:stedsnr" v="140702" />
	</node>
	<node id="-762378" lat="70.2267555578" lon="19.5089388875">
		<tag k="name" v="Torbeinsund" />
		<tag k="place" v="locality" />
		<tag k="ssr:stedsnr" v="140615" />
	</node>
	<node id="-764423" lat="69.8350166638" lon="19.4277277771">
		<tag k="name" v="Utnes" />
		<tag k="place" v="farm" />
		<tag k="ssr:stedsnr" v="777120" />
	</node>
	<node id="-762371" lat="69.9288194443" lon="19.7918833273">
		<tag k="name" v="Berg" />
		<tag k="place" v="farm" />
		<tag k="ssr:stedsnr" v="140528" />
	</node>
	<node id="-762370" lat="69.9468750036" lon="19.6500861014">
		<tag k="name" v="Bakketun" />
		<tag k="place" v="farm" />
		<tag k="ssr:stedsnr" v="140517" />
	</node>
	<node id="-764412" lat="70.2078527787" lon="19.5838861109">
		<tag k="name" v="Solheim" />
		<tag k="place" v="isolated_dwelling" />
		<tag k="ssr:stedsnr" v="869878" />
	</node>
	<node id="-764406" lat="70.186861116" lon="19.6280166548">
		<tag k="name" v="Nordheim" />
		<tag k="place" v="farm" />
		<tag k="ssr:stedsnr" v="869839" />
	</node>
	<node id="-762349" lat="70.0789638865" lon="19.9960138667">
		<tag k="name" v="Munkevika" />
		<tag k="place" v="farm" />
		<tag k="ssr:stedsnr" v="140084" />
	</node>
	<node id="-762347" lat="70.0847611099" lon="20.0160916473">
		<tag k="name" v="Myrset" />
		<tag k="place" v="farm" />
		<tag k="ssr:stedsnr" v="140081" />
	</node>
	<node id="-762346" lat="70.0929166684" lon="20.0850805495">
		<tag k="name" v="Kvitnes" />
		<tag k="place" v="farm" />
		<tag k="ssr:stedsnr" v="140077" />
	</node>
	<node id="-764391" lat="70.101144447" lon="19.5700527617">
		<tag k="alt_name" v="Finnstøen" />
		<tag k="name" v="Finnstø" />
		<tag k="old_name" v="Finnstøa" />
		<tag k="place" v="farm" />
		<tag k="ssr:stedsnr" v="754555" />
	</node>
	<node id="-762325" lat="70.0023444412" lon="19.8975277536">
		<tag k="fixme" v="consider place=hamlet" />
		<tag k="name" v="Karlsøy Prestegård" />
		<tag k="place" v="farm" />
		<tag k="ssr:stedsnr" v="112448" />
	</node>
	<node id="-762322" lat="69.9603527756" lon="19.5947749767">
		<tag k="name" v="Grågården" />
		<tag k="place" v="farm" />
		<tag k="ssr:stedsnr" v="112275" />
	</node>
	<node id="-764361" lat="70.012363893" lon="19.6334833254">
		<tag k="name" v="Lundberg" />
		<tag k="place" v="farm" />
		<tag k="ssr:stedsnr" v="747950" />
	</node>
	<node id="-764354" lat="69.9808111159" lon="19.1078888731">
		<tag k="name" v="Bakkevoll" />
		<tag k="place" v="farm" />
		<tag k="ssr:stedsnr" v="747872" />
	</node>
	<node id="-764352" lat="69.9718611077" lon="19.127530548">
		<tag k="name" v="Heimly" />
		<tag k="place" v="farm" />
		<tag k="ssr:stedsnr" v="747862" />
	</node>
	<node id="-764337" lat="69.8576166641" lon="19.4334027733">
		<tag k="name" v="Engstad" />
		<tag k="place" v="farm" />
		<tag k="ssr:stedsnr" v="747750" />
	</node>
	<node id="-764335" lat="70.0665833367" lon="18.9485638792">
		<tag k="name" v="Myrset" />
		<tag k="place" v="farm" />
		<tag k="ssr:stedsnr" v="747741" />
	</node>
	<node id="-764334" lat="70.0540416705" lon="18.9365277627">
		<tag k="name" v="Lyshaug" />
		<tag k="place" v="farm" />
		<tag k="ssr:stedsnr" v="747720" />
	</node>
	<node id="-764330" lat="69.8355305585" lon="19.4348166554">
		<tag k="alt_name" v="Finnkrokan" />
		<tag k="name" v="Finnkroken" />
		<tag k="place" v="hamlet" />
		<tag k="ssr:stedsnr" v="747696" />
	</node>
	<node id="-764325" lat="70.2483722183" lon="19.5024916573">
		<tag k="name" v="Sandborg" />
		<tag k="place" v="isolated_dwelling" />
		<tag k="ssr:stedsnr" v="747642" />
	</node>
	<node id="-764320" lat="69.992433334" lon="19.5605666549">
		<tag k="alt_name" v="Grunnfjord" />
		<tag k="fixme" v="consider place=hamlet" />
		<tag k="name" v="Grunnfjorden" />
		<tag k="place" v="village" />
		<tag k="ssr:stedsnr" v="747609" />
	</node>
	<node id="-762271" lat="70.0031250029" lon="19.9120583349">
		<tag k="name" v="Bjørkely" />
		<tag k="place" v="isolated_dwelling" />
		<tag k="ssr:stedsnr" v="111387" />
	</node>
	<node id="-764997" lat="70.2466750034" lon="19.4978694359">
		<tag k="name" v="Heimen" />
		<tag k="place" v="locality" />
		<tag k="ssr:stedsnr" v="900816" />
	</node>
	<node id="-764316" lat="69.9758500028" lon="19.6621861114">
		<tag k="name" v="Godthåp" />
		<tag k="place" v="farm" />
		<tag k="ssr:stedsnr" v="747602" />
	</node>
	<node id="-764312" lat="69.9497666685" lon="19.4808277639">
		<tag k="name" v="Djupvik" />
		<tag k="place" v="farm" />
		<tag k="ssr:stedsnr" v="747572" />
	</node>
	<node id="-764311" lat="69.9769666656" lon="19.6695527703">
		<tag k="name" v="Solvang" />
		<tag k="place" v="farm" />
		<tag k="ssr:stedsnr" v="747564" />
	</node>
	<node id="-764307" lat="69.9210499989" lon="19.485102766">
		<tag k="name" v="Solheim" />
		<tag k="place" v="farm" />
		<tag k="ssr:stedsnr" v="747548" />
	</node>
	<node id="-764302" lat="69.9090999994" lon="19.4806749781">
		<tag k="alt_name" v="Gammnes" />
		<tag k="fixme" v="consider place=hamlet" />
		<tag k="name" v="Gamnes" />
		<tag k="place" v="village" />
		<tag k="ssr:stedsnr" v="747520" />
	</node>
	<node id="-764296" lat="70.0825638857" lon="19.158644426">
		<tag k="name" v="Slettvollen" />
		<tag k="place" v="locality" />
		<tag k="ssr:stedsnr" v="747494" />
	</node>
	<node id="-764295" lat="70.0810055568" lon="19.1576333233">
		<tag k="name" v="Kveldssol" />
		<tag k="place" v="farm" />
		<tag k="ssr:stedsnr" v="747493" />
	</node>
	<node id="-764293" lat="69.9226555537" lon="19.7717610955">
		<tag k="name" v="Øvergard" />
		<tag k="place" v="farm" />
		<tag k="ssr:stedsnr" v="747488" />
	</node>
	<node id="-764992" lat="70.0651138878" lon="19.0389500046">
		<tag k="name" v="Solberg" />
		<tag k="place" v="farm" />
		<tag k="ssr:stedsnr" v="900780" />
	</node>
	<node id="-764279" lat="70.1535888909" lon="19.6632027641">
		<tag k="alt_name" v="Sengskroken" />
		<tag k="name" v="Sædingskroken" />
		<tag k="place" v="locality" />
		<tag k="ssr:stedsnr" v="747845" />
	</node>
	<node id="-764278" lat="69.9594611118" lon="19.1819638915">
		<tag k="name" v="Fosse" />
		<tag k="place" v="farm" />
		<tag k="ssr:stedsnr" v="747840" />
	</node>
	<node id="-764274" lat="70.1123416674" lon="19.3851694444">
		<tag k="name" v="Mølnnes" />
		<tag k="place" v="farm" />
		<tag k="ssr:stedsnr" v="747813" />
	</node>
	<node id="-763283" lat="69.941777777" lon="19.4686860916">
		<tag k="name" v="Myrvang" />
		<tag k="place" v="farm" />
		<tag k="ssr:stedsnr" v="504551" />
	</node>
	<node id="-764271" lat="70.0026638931" lon="19.8894277588">
		<tag k="fixme" v="consider place=hamlet" />
		<tag k="loc_name:no" v="Karlsøya" />
		<tag k="loc_name:se" v="Gálsá" />
		<tag k="name" v="Karlsøy" />
		<tag k="name:no" v="Karlsøy" />
		<tag k="place" v="village" />
		<tag k="ssr:stedsnr" v="747105" />
	</node>
	<node id="-764270" lat="70.0015083312" lon="19.9178555371">
		<tag k="name" v="Fredheim" />
		<tag k="place" v="isolated_dwelling" />
		<tag k="ssr:stedsnr" v="747098" />
	</node>
	<node id="-764269" lat="70.0492555569" lon="19.8784111076">
		<tag k="loc_name:se" v="Láttunjárga" />
		<tag k="name" v="Lanes" />
		<tag k="name:no" v="Lanes" />
		<tag k="place" v="farm" />
		<tag k="ssr:stedsnr" v="747092" />
	</node>
	<node id="-764265" lat="69.9631166676" lon="19.6209360893">
		<tag k="name" v="Slettmobakken" />
		<tag k="place" v="quarter" />
		<tag k="ssr:stedsnr" v="723862" />
	</node>
	<node id="-762204" lat="70.1847638854" lon="19.6324472057">
		<tag k="name" v="Kokkevoll" />
		<tag k="place" v="hamlet" />
		<tag k="ssr:stedsnr" v="91848" />
	</node>
	<node id="-762202" lat="70.1921388932" lon="18.8749722134">
		<tag k="loc_name:se" v="Nuorta Rifta" />
		<tag k="name" v="Grøtøy nordre" />
		<tag k="name:no" v="Grøtøy nordre" />
		<tag k="old_name:no" v="Nordgrøtøya" />
		<tag k="place" v="farm" />
		<tag k="ssr:stedsnr" v="87615" />
	</node>
	<node id="-762201" lat="70.0448333326" lon="19.5298305553">
		<tag k="name" v="Brennes" />
		<tag k="place" v="farm" />
		<tag k="ssr:stedsnr" v="87521" />
	</node>
	<node id="-763278" lat="69.9023361148" lon="19.4714194458">
		<tag k="name" v="Heimly" />
		<tag k="place" v="farm" />
		<tag k="ssr:stedsnr" v="504529" />
	</node>
	<node id="-763616" lat="70.1845444476" lon="19.9115777651">
		<tag k="name" v="Bogen" />
		<tag k="old_name" v="Bugen" />
		<tag k="place" v="farm" />
		<tag k="ssr:stedsnr" v="565956" />
	</node>
	<node id="-762157" lat="70.0156666629" lon="19.041661102">
		<tag k="name" v="Vangberg" />
		<tag k="place" v="isolated_dwelling" />
		<tag k="ssr:stedsnr" v="80664" />
	</node>
	<node id="-762156" lat="69.9544805525" lon="19.8448472095">
		<tag k="name" v="Bergland" />
		<tag k="place" v="farm" />
		<tag k="ssr:stedsnr" v="80652" />
	</node>
	<node id="-762152" lat="70.202497225" lon="19.6070194418">
		<tag k="name" v="Vannareid" />
		<tag k="place" v="farm" />
		<tag k="ssr:stedsnr" v="80881" />
	</node>
	<node id="-764196" lat="69.9354527762" lon="19.8012166433">
		<tag k="name" v="Futgård" />
		<tag k="place" v="farm" />
		<tag k="ssr:stedsnr" v="718066" />
	</node>
	<node id="-762142" lat="70.0788777779" lon="19.7108055379">
		<tag k="name" v="Fjellheim" />
		<tag k="place" v="isolated_dwelling" />
		<tag k="ssr:stedsnr" v="80783" />
	</node>
	<node id="-762141" lat="70.0802555568" lon="19.707905559">
		<tag k="name" v="Kammen" />
		<tag k="place" v="isolated_dwelling" />
		<tag k="ssr:stedsnr" v="80779" />
	</node>
	<node id="-762134" lat="69.9585611138" lon="19.5713583173">
		<tag k="alt_name" v="Steinvollen" />
		<tag k="name" v="Steinvoll" />
		<tag k="place" v="farm" />
		<tag k="ssr:stedsnr" v="80585" />
	</node>
	<node id="-762133" lat="70.1271777815" lon="19.0754277794">
		<tag k="name" v="Solstad" />
		<tag k="place" v="farm" />
		<tag k="ssr:stedsnr" v="80582" />
	</node>
	<node id="-764178" lat="70.2234527732" lon="19.510924998">
		<tag k="name" v="Kveldro" />
		<tag k="place" v="isolated_dwelling" />
		<tag k="ssr:stedsnr" v="717818" />
	</node>
	<node id="-762118" lat="70.1665361103" lon="19.038863885">
		<tag k="name" v="Kopparnes" />
		<tag k="place" v="locality" />
		<tag k="ssr:stedsnr" v="80614" />
	</node>
	<node id="-764162" lat="69.9828277765" lon="19.5377805502">
		<tag k="name" v="Uteng" />
		<tag k="place" v="farm" />
		<tag k="ssr:stedsnr" v="718206" />
	</node>
	<node id="-762089" lat="70.0862583312" lon="19.9988277698">
		<tag k="name" v="Fredheim" />
		<tag k="place" v="farm" />
		<tag k="ssr:stedsnr" v="79094" />
	</node>
	<node id="-764108" lat="70.1618527748" lon="19.6719916547">
		<tag k="alt_name" v="Olkelva" />
		<tag k="name" v="Olkelv" />
		<tag k="place" v="isolated_dwelling" />
		<tag k="ssr:stedsnr" v="687847" />
	</node>
	<node id="-764098" lat="70.040930555" lon="18.8197499927">
		<tag k="name" v="Nyheim" />
		<tag k="place" v="farm" />
		<tag k="ssr:stedsnr" v="687721" />
	</node>
	<node id="-764097" lat="70.0447527785" lon="18.8791166702">
		<tag k="name" v="Elvevoll" />
		<tag k="place" v="farm" />
		<tag k="ssr:stedsnr" v="687717" />
	</node>
	<node id="-764096" lat="69.9581694438" lon="19.8502027775">
		<tag k="name" v="Mellomvollen" />
		<tag k="place" v="farm" />
		<tag k="ssr:stedsnr" v="687660" />
	</node>
	<node id="-764093" lat="69.9896888864" lon="19.7383972057">
		<tag k="name" v="Prestøra" />
		<tag k="place" v="farm" />
		<tag k="ssr:stedsnr" v="687627" />
	</node>
	<node id="-764083" lat="69.9095361137" lon="19.7717833225">
		<tag k="fixme" v="consider place=hamlet" />
		<tag k="name" v="Søreidet" />
		<tag k="place" v="farm" />
		<tag k="ssr:stedsnr" v="687522" />
	</node>
	<node id="-764082" lat="69.9111305601" lon="19.7724888786">
		<tag k="name" v="Bjerkåker" />
		<tag k="place" v="farm" />
		<tag k="ssr:stedsnr" v="687521" />
	</node>
	<node id="-762031" lat="69.968022226" lon="19.8733083136">
		<tag k="name" v="Juliustuften" />
		<tag k="place" v="locality" />
		<tag k="ssr:stedsnr" v="51078" />
	</node>
	<node id="-762025" lat="70.0916055561" lon="19.6995388876">
		<tag k="name" v="Bergstad" />
		<tag k="place" v="locality" />
		<tag k="ssr:stedsnr" v="50825" />
	</node>
	<node id="-764067" lat="69.9912416707" lon="19.0657499993">
		<tag k="alt_name" v="Per-Nilsajordet" />
		<tag k="name" v="Pernilsajorda" />
		<tag k="old_name" v="Per Nilsajorda" />
		<tag k="place" v="isolated_dwelling" />
		<tag k="ssr:stedsnr" v="687170" />
	</node>
	<node id="-764062" lat="70.1555527738" lon="19.9136555527">
		<tag k="alt_name" v="Svartberg" />
		<tag k="name" v="Svartbergan" />
		<tag k="place" v="isolated_dwelling" />
		<tag k="ssr:stedsnr" v="686927" />
	</node>
	<node id="-764047" lat="70.023825" lon="18.9682527602">
		<tag k="name" v="Bakkejord" />
		<tag k="place" v="farm" />
		<tag k="ssr:stedsnr" v="686657" />
	</node>
	<node id="-761992" lat="69.9936722267" lon="19.5608860937">
		<tag k="name" v="Solvang" />
		<tag k="place" v="isolated_dwelling" />
		<tag k="ssr:stedsnr" v="50016" />
	</node>
	<node id="-764037" lat="69.9278388849" lon="19.7637388774">
		<tag k="name" v="Dalheim" />
		<tag k="place" v="farm" />
		<tag k="ssr:stedsnr" v="686565" />
	</node>
	<node id="-761987" lat="69.8582499969" lon="19.6575055378">
		<tag k="name" v="Elvelund" />
		<tag k="place" v="isolated_dwelling" />
		<tag k="ssr:stedsnr" v="49996" />
	</node>
	<node id="-761986" lat="69.8593916687" lon="19.6580305343">
		<tag k="name" v="Molund" />
		<tag k="place" v="isolated_dwelling" />
		<tag k="ssr:stedsnr" v="49994" />
	</node>
	<node id="-764015" lat="70.0195555601" lon="19.8615027645">
		<tag k="name" v="Arvik" />
		<tag k="place" v="farm" />
		<tag k="ssr:stedsnr" v="686101" />
	</node>
	<node id="-764009" lat="70.2205888905" lon="19.7252305595">
		<tag k="name" v="Dalheim" />
		<tag k="place" v="isolated_dwelling" />
		<tag k="ssr:stedsnr" v="658442" />
	</node>
	<node id="-761958" lat="70.2725833363" lon="20.2486083195">
		<tag k="name" v="Ytre Gamvik" />
		<tag k="place" v="locality" />
		<tag k="ssr:stedsnr" v="29166" />
	</node>
	<node id="-761953" lat="69.9800805557" lon="19.8692416607">
		<tag k="name" v="Lilleeng" />
		<tag k="place" v="farm" />
		<tag k="ssr:stedsnr" v="25457" />
	</node>
	<node id="-761951" lat="70.0053333302" lon="19.7913055472">
		<tag k="name" v="Fauskevollen" />
		<tag k="place" v="farm" />
		<tag k="ssr:stedsnr" v="25124" />
	</node>
	<node id="-761929" lat="70.0020749971" lon="19.3828833327">
		<tag k="alt_name" v="Steinvoll" />
		<tag k="name" v="Steinvollen" />
		<tag k="place" v="farm" />
		<tag k="ssr:stedsnr" v="19954" />
	</node>
	<node id="-761928" lat="70.1964305535" lon="19.868813883">
		<tag k="alt_name" v="Ystelad" />
		<tag k="name" v="Ystelade" />
		<tag k="place" v="farm" />
		<tag k="ssr:stedsnr" v="19948" />
	</node>
	<node id="-761926" lat="70.1531250014" lon="20.0203916656">
		<tag k="name" v="Været" />
		<tag k="place" v="locality" />
		<tag k="ssr:stedsnr" v="19929" />
	</node>
	<node id="-761543" lat="69.9268944436" lon="19.4874777789">
		<tag k="name" v="Engvik" />
		<tag k="place" v="farm" />
		<tag k="ssr:stedsnr" v="383587" />
	</node>
	<node id="-761919" lat="70.1173666703" lon="20.0388138746">
		<tag k="alt_name" v="Stuvik" />
		<tag k="name" v="Stuvika" />
		<tag k="place" v="farm" />
		<tag k="ssr:stedsnr" v="19872" />
	</node>
	<node id="-761916" lat="70.1986416702" lon="19.6058722065">
		<tag k="name" v="Kvilelva" />
		<tag k="place" v="farm" />
		<tag k="ssr:stedsnr" v="19867" />
	</node>
	<node id="-761912" lat="70.210338888" lon="19.5693416455">
		<tag k="name" v="Dalan" />
		<tag k="place" v="isolated_dwelling" />
		<tag k="ssr:stedsnr" v="19844" />
	</node>
	<node id="-761910" lat="70.2291749971" lon="19.7395277668">
		<tag k="alt_name" v="Burøy" />
		<tag k="name" v="Burøya" />
		<tag k="place" v="isolated_dwelling" />
		<tag k="ssr:stedsnr" v="19842" />
	</node>
	<node id="-761907" lat="70.158474996" lon="19.7634027651">
		<tag k="name" v="Sandkroken" />
		<tag k="place" v="farm" />
		<tag k="ssr:stedsnr" v="19825" />
	</node>
	<node id="-761898" lat="70.1437027787" lon="19.6689083188">
		<tag k="name" v="Bekkestrand" />
		<tag k="place" v="isolated_dwelling" />
		<tag k="ssr:stedsnr" v="19781" />
	</node>
	<node id="-761890" lat="69.8599388917" lon="19.3920777587">
		<tag k="alt_name" v="Bjørnskard, yt;Ytre Bjørnskard" />
		<tag k="name" v="Ytre Bjørnskar" />
		<tag k="place" v="farm" />
		<tag k="ssr:stedsnr" v="19741" />
	</node>
	<node id="-763937" lat="69.8544583387" lon="19.7124722041">
		<tag k="historic" v="shieling" />
		<tag k="name" v="Junkerstua" />
		<tag k="place" v="locality" />
		<tag k="ssr:stedsnr" v="656974" />
	</node>
	<node id="-761888" lat="70.0656194403" lon="19.0790166703">
		<tag k="name" v="Finnenga" />
		<tag k="place" v="locality" />
		<tag k="ssr:stedsnr" v="19729" />
	</node>
	<node id="-761884" lat="70.0443055527" lon="18.8491055474">
		<tag k="name" v="Grønslett" />
		<tag k="place" v="farm" />
		<tag k="ssr:stedsnr" v="19707" />
	</node>
	<node id="-763931" lat="69.8937250012" lon="19.4417638711">
		<tag k="name" v="Kopparelv" />
		<tag k="place" v="farm" />
		<tag k="ssr:stedsnr" v="656856" />
	</node>
	<node id="-761882" lat="69.8577888854" lon="19.7237444291">
		<tag k="name" v="Nordberg" />
		<tag k="place" v="farm" />
		<tag k="ssr:stedsnr" v="19689" />
	</node>
	<node id="-761879" lat="69.848869447" lon="19.3713277645">
		<tag k="alt_name" v="Bjørnskard, in;Indre Bjørnskard" />
		<tag k="fixme" v="multiple name tags, choose one and add the other to alt_name" />
		<tag k="name" v="Bjørnskar;Indre Bjørnskar" />
		<tag k="old_name" v="Bjørnskard" />
		<tag k="place" v="farm" />
		<tag k="ssr:stedsnr" v="19675" />
	</node>
	<node id="-761877" lat="70.0328277826" lon="19.0886666514">
		<tag k="name" v="Skogsfjord" />
		<tag k="place" v="hamlet" />
		<tag k="ssr:stedsnr" v="19672" />
	</node>
	<node id="-761871" lat="69.9796111154" lon="19.8775777759">
		<tag k="alt_name" v="Gammelgarden" />
		<tag k="name" v="Gammelgård" />
		<tag k="place" v="farm" />
		<tag k="ssr:stedsnr" v="19619" />
	</node>
	<node id="-763358" lat="70.2342527747" lon="19.7342555358">
		<tag k="name" v="Storbukt" />
		<tag k="place" v="farm" />
		<tag k="ssr:stedsnr" v="505647" />
	</node>
	<node id="-761864" lat="69.9849416647" lon="19.6691888773">
		<tag k="name" v="Brakke" />
		<tag k="place" v="isolated_dwelling" />
		<tag k="ssr:stedsnr" v="19588" />
	</node>
	<node id="-761859" lat="69.9539166697" lon="19.5279749893">
		<tag k="alt_name" v="Lauvslett" />
		<tag k="name" v="Lauvsletta" />
		<tag k="place" v="farm" />
		<tag k="ssr:stedsnr" v="19555" />
	</node>
</osm>
