<?xml version="1.0" encoding="UTF-8"?>
<osm generator="osmapis" version="0.6">
	<node id="-766378" lat="69.9707722182" lon="19.1824361118">
		<tag k="name" v="Dreplamyra" />
		<tag k="natural" v="wetland" />
		<tag k="ssr:stedsnr" v="901000" />
	</node>
	<node id="-763380" lat="70.2076944407" lon="19.2418888739">
		<tag k="name" v="Kløyvan" />
		<tag k="place" v="locality" />
		<tag k="ssr:stedsnr" v="50214" />
	</node>
	<node id="-764403" lat="69.9052888928" lon="19.6278611054">
		<tag k="name" v="Ura" />
		<tag k="natural" v="scree" />
		<tag k="ssr:stedsnr" v="415196" />
	</node>
	<node id="-763890" lat="70.1725472268" lon="19.7524972044">
		<tag k="name" v="Veisteinen" />
		<tag k="natural" v="stone" />
		<tag k="ssr:stedsnr" v="171487" />
	</node>
	<node id="-764913" lat="70.1944861098" lon="19.1066027758">
		<tag k="alt_name" v="Langnesøyra" />
		<tag k="name" v="Langøyra" />
		<tag k="place" v="locality" />
		<tag k="ssr:stedsnr" v="565337" />
	</node>
	<node id="-764911" lat="70.2979388892" lon="20.2180722039">
		<tag k="name" v="Skarvsteinen" />
		<tag k="natural" v="stone" />
		<tag k="ssr:stedsnr" v="565330" />
	</node>
	<node id="-763603" lat="70.0927555554" lon="20.0210305441">
		<tag k="name" v="Stakkvannmyra" />
		<tag k="natural" v="wetland" />
		<tag k="ssr:stedsnr" v="112401" />
	</node>
	<node id="-762855" lat="69.9714500033" lon="19.1267861152">
		<tag k="name" v="Stormyra" />
		<tag k="natural" v="wetland" />
		<tag k="ssr:stedsnr" v="354984" />
	</node>
	<node id="-763364" lat="70.0023972234" lon="19.5974472021">
		<tag k="name" v="Torvemyrene" />
		<tag k="natural" v="wetland" />
		<tag k="ssr:stedsnr" v="50018" />
	</node>
	<node id="-763361" lat="69.9749694484" lon="19.5806277773">
		<tag k="name" v="Hornheimyra" />
		<tag k="natural" v="wetland" />
		<tag k="ssr:stedsnr" v="50004" />
	</node>
	<node id="-763872" lat="70.0967055581" lon="20.0564583096">
		<tag k="name" v="Sæingmyran" />
		<tag k="natural" v="wetland" />
		<tag k="ssr:stedsnr" v="171065" />
	</node>
	<node id="-763870" lat="69.9711750009" lon="19.7091555404">
		<tag k="name" v="Langøra" />
		<tag k="place" v="locality" />
		<tag k="ssr:stedsnr" v="171055" />
	</node>
	<node id="-762845" lat="69.9497694416" lon="19.1882611048">
		<tag k="name" v="Oddemyrene" />
		<tag k="natural" v="wetland" />
		<tag k="ssr:stedsnr" v="354874" />
	</node>
	<node id="-765913" lat="69.9795500025" lon="19.1515083161">
		<tag k="name" v="Hollmyra" />
		<tag k="natural" v="wetland" />
		<tag k="ssr:stedsnr" v="779978" />
	</node>
	<node id="-765400" lat="70.0827500028" lon="18.7238638732">
		<tag k="name" v="Breivika" />
		<tag k="place" v="locality" />
		<tag k="ssr:stedsnr" v="686534" />
	</node>
	<node id="-764375" lat="69.9499138927" lon="19.2862111011">
		<tag k="name" v="Andreasslåtta" />
		<tag k="place" v="locality" />
		<tag k="ssr:stedsnr" v="414748" />
	</node>
	<node id="-766637" lat="70.1044861117" lon="19.0007194496">
		<tag k="name" v="Storskogen" />
		<tag k="place" v="locality" />
		<tag k="ssr:stedsnr" v="961634" />
	</node>
	<node id="-765908" lat="69.9994805544" lon="19.0750500042">
		<tag k="name" v="Falkemyra" />
		<tag k="natural" v="wetland" />
		<tag k="ssr:stedsnr" v="779875" />
	</node>
	<node id="-763346" lat="70.2903916694" lon="20.1825972097">
		<tag k="name" v="Stempelmyra" />
		<tag k="natural" v="wetland" />
		<tag k="ssr:stedsnr" v="48047" />
	</node>
	<node id="-764881" lat="70.0355722261" lon="19.0976527631">
		<tag k="name" v="Smalmyra" />
		<tag k="natural" v="wetland" />
		<tag k="ssr:stedsnr" v="536973" />
	</node>
	<node id="-765904" lat="70.2065694481" lon="19.6206805371">
		<tag k="name" v="Stormyra" />
		<tag k="natural" v="wetland" />
		<tag k="ssr:stedsnr" v="779771" />
	</node>
	<node id="-765903" lat="69.9544416653" lon="19.2464583379">
		<tag k="name" v="Sigvartslåtta" />
		<tag k="place" v="locality" />
		<tag k="ssr:stedsnr" v="779753" />
	</node>
	<node id="-765390" lat="70.2772333307" lon="20.2127499718">
		<tag k="name" v="Heimmyran" />
		<tag k="natural" v="wetland" />
		<tag k="ssr:stedsnr" v="686336" />
	</node>
	<node id="-763852" lat="70.1261138907" lon="19.9429583128">
		<tag k="name" v="Røyrvollen" />
		<tag k="natural" v="wetland" />
		<tag k="ssr:stedsnr" v="169567" />
	</node>
	<node id="-765899" lat="70.116061115" lon="18.9611500035">
		<tag k="name" v="Ludvigjordet" />
		<tag k="place" v="locality" />
		<tag k="ssr:stedsnr" v="779634" />
	</node>
	<node id="-765896" lat="70.2490111126" lon="19.7599555515">
		<tag k="name" v="Reinvikmyra" />
		<tag k="natural" v="wetland" />
		<tag k="ssr:stedsnr" v="779480" />
	</node>
	<node id="-763334" lat="70.1443249986" lon="19.9936333163">
		<tag k="name" v="Nordsanden" />
		<tag k="natural" v="beach" />
		<tag k="ssr:stedsnr" v="30884" />
		<tag k="surface" v="sand" />
	</node>
	<node id="-764869" lat="69.9587388872" lon="19.2165416546">
		<tag k="name" v="Svendsenslåtta" />
		<tag k="place" v="locality" />
		<tag k="ssr:stedsnr" v="536772" />
	</node>
	<node id="-762820" lat="69.9618416658" lon="19.5609333252">
		<tag k="name" v="Kvitbergsmyra" />
		<tag k="natural" v="wetland" />
		<tag k="ssr:stedsnr" v="354262" />
	</node>
	<node id="-764867" lat="69.9450555572" lon="19.2351944453">
		<tag k="name" v="Johan-Willumsenslåtta" />
		<tag k="place" v="locality" />
		<tag k="ssr:stedsnr" v="536765" />
	</node>
	<node id="-764865" lat="70.0983361086" lon="19.0276722128">
		<tag k="name" v="Lomstjønna" />
		<tag k="natural" v="wetland" />
		<tag k="ssr:stedsnr" v="536599" />
	</node>
	<node id="-765376" lat="69.9811972174" lon="19.1392666687">
		<tag k="name" v="Tennvassmyra" />
		<tag k="natural" v="wetland" />
		<tag k="ssr:stedsnr" v="657983" />
	</node>
	<node id="-765886" lat="69.992105554" lon="19.8512388774">
		<tag k="name" v="Skarvesteinøra" />
		<tag k="place" v="locality" />
		<tag k="ssr:stedsnr" v="779357" />
	</node>
	<node id="-763107" lat="69.9701527818" lon="19.1946833169">
		<tag k="name" v="Finngamgjotmyra" />
		<tag k="natural" v="wetland" />
		<tag k="ssr:stedsnr" v="475998" />
	</node>
	<node id="-765371" lat="70.0041472196" lon="19.0809888826">
		<tag k="name" v="Jensbakkmyra" />
		<tag k="natural" v="wetland" />
		<tag k="ssr:stedsnr" v="657855" />
	</node>
	<node id="-764858" lat="69.9983166656" lon="19.9419138703">
		<tag k="name" v="Bogmyra" />
		<tag k="natural" v="wetland" />
		<tag k="ssr:stedsnr" v="536424" />
	</node>
	<node id="-766619" lat="70.0365694491" lon="18.9828527642">
		<tag k="name" v="Perkelsteinen" />
		<tag k="natural" v="stone" />
		<tag k="ssr:stedsnr" v="961222" />
	</node>
	<node id="-763315" lat="69.9910861078" lon="19.7377583251">
		<tag k="name" v="Prestøra" />
		<tag k="place" v="locality" />
		<tag k="ssr:stedsnr" v="24528" />
	</node>
	<node id="-763379" lat="70.1990694403" lon="19.242438881">
		<tag k="name" v="Storura" />
		<tag k="natural" v="scree" />
		<tag k="ssr:stedsnr" v="50207" />
	</node>
	<node id="-766382" lat="69.940847224" lon="19.7397416444">
		<tag k="name" v="Stormyra" />
		<tag k="natural" v="wetland" />
		<tag k="ssr:stedsnr" v="901067" />
	</node>
	<node id="-766380" lat="69.9030916655" lon="19.7620666616">
		<tag k="name" v="Storura" />
		<tag k="natural" v="scree" />
		<tag k="ssr:stedsnr" v="901037" />
	</node>
	<node id="-763634" lat="69.9404222183" lon="19.6548749982">
		<tag k="name" v="Nordre Langmyra" />
		<tag k="natural" v="wetland" />
		<tag k="ssr:stedsnr" v="111223" />
	</node>
	<node id="-765866" lat="69.9066388873" lon="19.6100610968">
		<tag k="name" v="Stormyra" />
		<tag k="natural" v="wetland" />
		<tag k="ssr:stedsnr" v="779180" />
	</node>
	<node id="-766377" lat="69.9663444442" lon="19.1819833349">
		<tag k="name" v="Kvolvhaugmyra" />
		<tag k="natural" v="wetland" />
		<tag k="ssr:stedsnr" v="900998" />
	</node>
	<node id="-765864" lat="70.0062444438" lon="19.067583334">
		<tag k="name" v="Øren" />
		<tag k="place" v="locality" />
		<tag k="ssr:stedsnr" v="779175" />
	</node>
	<node id="-763292" lat="70.094700004" lon="20.0537583189">
		<tag k="name" v="Måsemyra" />
		<tag k="natural" v="wetland" />
		<tag k="ssr:stedsnr" v="19890" />
	</node>
	<node id="-765349" lat="70.2295694486" lon="19.6709666512">
		<tag k="name" v="Kobbøra" />
		<tag k="place" v="locality" />
		<tag k="ssr:stedsnr" v="657381" />
	</node>
	<node id="-765860" lat="70.0780500036" lon="19.1508749841">
		<tag k="name" v="Leira" />
		<tag k="place" v="locality" />
		<tag k="ssr:stedsnr" v="779156" />
	</node>
	<node id="-765346" lat="69.993269447" lon="19.7495972228">
		<tag k="name" v="Ura" />
		<tag k="natural" v="scree" />
		<tag k="ssr:stedsnr" v="657333" />
	</node>
	<node id="-766369" lat="69.9455583304" lon="19.2012500025">
		<tag k="name" v="Holmebuktmyra" />
		<tag k="natural" v="wetland" />
		<tag k="ssr:stedsnr" v="900881" />
	</node>
	<node id="-765856" lat="69.8835333341" lon="19.4684749916">
		<tag k="name" v="Holskogen" />
		<tag k="place" v="locality" />
		<tag k="ssr:stedsnr" v="779116" />
	</node>
	<node id="-763298" lat="70.191502779" lon="19.9115305364">
		<tag k="alt_name" v="Lanesøra" />
		<tag k="name" v="Lanesøyra" />
		<tag k="place" v="locality" />
		<tag k="ssr:stedsnr" v="19945" />
	</node>
	<node id="-765852" lat="70.146913892" lon="20.0406333147">
		<tag k="name" v="Enesmyra" />
		<tag k="natural" v="wetland" />
		<tag k="ssr:stedsnr" v="779045" />
	</node>
	<node id="-765337" lat="70.0191083334" lon="18.9549749833">
		<tag k="name" v="Elvenesøra" />
		<tag k="place" v="locality" />
		<tag k="ssr:stedsnr" v="657226" />
	</node>
	<node id="-762775" lat="70.1713583346" lon="19.8056972047">
		<tag k="name" v="Storøra" />
		<tag k="place" v="locality" />
		<tag k="ssr:stedsnr" v="353484" />
	</node>
	<node id="-765334" lat="70.1808916692" lon="19.2576527692">
		<tag k="name" v="Oterura" />
		<tag k="natural" v="scree" />
		<tag k="ssr:stedsnr" v="657216" />
	</node>
	<node id="-766357" lat="69.9540138916" lon="19.2311694475">
		<tag k="name" v="Vardetumyrene" />
		<tag k="natural" v="wetland" />
		<tag k="ssr:stedsnr" v="900744" />
	</node>
	<node id="-766355" lat="69.9567555578" lon="19.244380548">
		<tag k="name" v="Emilslåtta" />
		<tag k="place" v="locality" />
		<tag k="ssr:stedsnr" v="900741" />
	</node>
	<node id="-765328" lat="70.0776611147" lon="19.1408610971">
		<tag k="name" v="Storsteinen" />
		<tag k="natural" v="stone" />
		<tag k="ssr:stedsnr" v="657172" />
	</node>
	<node id="-762766" lat="69.9972083356" lon="19.3844638709">
		<tag k="name" v="Skjånesøren" />
		<tag k="place" v="locality" />
		<tag k="ssr:stedsnr" v="353184" />
	</node>
	<node id="-763276" lat="70.1674555584" lon="19.7961222265">
		<tag k="alt_name" v="Langøyra" />
		<tag k="name" v="Langøra" />
		<tag k="place" v="locality" />
		<tag k="ssr:stedsnr" v="19815" />
	</node>
	<node id="-766347" lat="70.1130305562" lon="18.9658749862">
		<tag k="name" v="Bertskogen" />
		<tag k="place" v="locality" />
		<tag k="ssr:stedsnr" v="900635" />
	</node>
	<node id="-765322" lat="69.9647749974" lon="19.8606666547">
		<tag k="name" v="Hytteura" />
		<tag k="natural" v="scree" />
		<tag k="ssr:stedsnr" v="657086" />
	</node>
	<node id="-764809" lat="70.1019749979" lon="19.6998638826">
		<tag k="name" v="Klubbøra" />
		<tag k="place" v="locality" />
		<tag k="ssr:stedsnr" v="535821" />
	</node>
	<node id="-762759" lat="69.89729444" lon="19.7562805526">
		<tag k="name" v="Storsteinmyrene" />
		<tag k="natural" v="wetland" />
		<tag k="ssr:stedsnr" v="414031" />
	</node>
	<node id="-766341" lat="70.2510305568" lon="19.5412611084">
		<tag k="name" v="Kobbøra" />
		<tag k="place" v="locality" />
		<tag k="ssr:stedsnr" v="900381" />
	</node>
	<node id="-762756" lat="69.976944449" lon="19.6093360947">
		<tag k="name" v="Langmyra" />
		<tag k="natural" v="wetland" />
		<tag k="ssr:stedsnr" v="414002" />
	</node>
	<node id="-762754" lat="70.0967138875" lon="20.0997583151">
		<tag k="name" v="Hundmyra" />
		<tag k="natural" v="wetland" />
		<tag k="ssr:stedsnr" v="353069" />
	</node>
	<node id="-762751" lat="69.9314388889" lon="19.6422638796">
		<tag k="name" v="Reinskarmarka" />
		<tag k="place" v="locality" />
		<tag k="ssr:stedsnr" v="353016" />
	</node>
	<node id="-762750" lat="69.9690194444" lon="19.6099694328">
		<tag k="name" v="Grønlimyra" />
		<tag k="natural" v="wetland" />
		<tag k="ssr:stedsnr" v="353002" />
	</node>
	<node id="-765821" lat="70.2133444441" lon="19.2065611097">
		<tag k="name" v="Farmyra" />
		<tag k="natural" v="wetland" />
		<tag k="ssr:stedsnr" v="778223" />
	</node>
	<node id="-765308" lat="69.8777750042" lon="19.676680553">
		<tag k="name" v="Langmyran" />
		<tag k="natural" v="wetland" />
		<tag k="ssr:stedsnr" v="656993" />
	</node>
	<node id="-766331" lat="69.9316444424" lon="19.6099416526">
		<tag k="name" v="Vollamyra" />
		<tag k="natural" v="wetland" />
		<tag k="ssr:stedsnr" v="900254" />
	</node>
	<node id="-765818" lat="70.063841664" lon="19.380050003">
		<tag k="name" v="Stormyra" />
		<tag k="natural" v="wetland" />
		<tag k="ssr:stedsnr" v="778206" />
	</node>
	<node id="-766100" lat="69.9397861126" lon="19.6501888693">
		<tag k="name" v="Søre Langmyra" />
		<tag k="natural" v="wetland" />
		<tag k="ssr:stedsnr" v="839234" />
	</node>
	<node id="-764278" lat="70.0080694454" lon="19.9036749864">
		<tag k="name" v="Lågmyra" />
		<tag k="natural" v="wetland" />
		<tag k="ssr:stedsnr" v="262115" />
	</node>
	<node id="-764787" lat="69.8551194491" lon="19.6791749901">
		<tag k="name" v="Bjørnsteinen" />
		<tag k="natural" v="stone" />
		<tag k="ssr:stedsnr" v="534976" />
	</node>
	<node id="-764819" lat="69.9197583365" lon="19.7572444459">
		<tag k="name" v="Kuhollsteinan" />
		<tag k="natural" v="stone" />
		<tag k="ssr:stedsnr" v="536057" />
	</node>
	<node id="-763244" lat="70.2470055563" lon="19.7118249894">
		<tag k="name" v="Skasteinøyra" />
		<tag k="place" v="locality" />
		<tag k="ssr:stedsnr" v="19626" />
	</node>
	<node id="-765803" lat="69.9395083325" lon="19.7080527576">
		<tag k="name" v="Heiskogan" />
		<tag k="place" v="locality" />
		<tag k="ssr:stedsnr" v="778028" />
	</node>
	<node id="-766311" lat="70.097849996" lon="20.1120805512">
		<tag k="name" v="Tågmyra" />
		<tag k="natural" v="wetland" />
		<tag k="ssr:stedsnr" v="900071" />
	</node>
	<node id="-765284" lat="69.9705333363" lon="19.7144277801">
		<tag k="name" v="Lilleøra" />
		<tag k="place" v="locality" />
		<tag k="ssr:stedsnr" v="656089" />
	</node>
	<node id="-766307" lat="69.9712750033" lon="19.2106833188">
		<tag k="name" v="Stakmyra" />
		<tag k="natural" v="wetland" />
		<tag k="ssr:stedsnr" v="900033" />
	</node>
	<node id="-765793" lat="69.8727833353" lon="19.7515083191">
		<tag k="name" v="Sørøra" />
		<tag k="place" v="locality" />
		<tag k="ssr:stedsnr" v="777975" />
	</node>
	<node id="-766304" lat="69.9781444434" lon="19.5440249995">
		<tag k="name" v="Grønbakkmyra" />
		<tag k="natural" v="wetland" />
		<tag k="ssr:stedsnr" v="900015" />
	</node>
	<node id="-766303" lat="69.9878861146" lon="19.5486638893">
		<tag k="name" v="Storsteinøra" />
		<tag k="place" v="locality" />
		<tag k="ssr:stedsnr" v="900013" />
	</node>
	<node id="-766302" lat="69.9739999972" lon="19.6195055458">
		<tag k="name" v="Einhaugmyra" />
		<tag k="natural" v="wetland" />
		<tag k="ssr:stedsnr" v="900010" />
	</node>
	<node id="-766301" lat="69.9728055582" lon="19.5938583183">
		<tag k="name" v="Søndre Gråsteinåsmyra" />
		<tag k="natural" v="wetland" />
		<tag k="ssr:stedsnr" v="900004" />
	</node>
	<node id="-762819" lat="70.0324361078" lon="18.9750361004">
		<tag k="name" v="Gråsteinen" />
		<tag k="natural" v="stone" />
		<tag k="ssr:stedsnr" v="354245" />
	</node>
	<node id="-766296" lat="69.917475002" lon="19.674436095">
		<tag k="name" v="Alangsmyrene" />
		<tag k="natural" v="wetland" />
		<tag k="ssr:stedsnr" v="899971" />
	</node>
	<node id="-766295" lat="69.9240500038" lon="19.6427166592">
		<tag k="name" v="Sløkekjerran" />
		<tag k="place" v="locality" />
		<tag k="ssr:stedsnr" v="899970" />
	</node>
	<node id="-764246" lat="70.1724666647" lon="19.6640166601">
		<tag k="name" v="Einarstrandskogen" />
		<tag k="place" v="locality" />
		<tag k="ssr:stedsnr" v="233802" />
	</node>
	<node id="-766292" lat="70.1546194457" lon="19.775963874">
		<tag k="name" v="Sandmelen" />
		<tag k="place" v="locality" />
		<tag k="ssr:stedsnr" v="900505" />
	</node>
	<node id="-763022" lat="69.9444555609" lon="19.472616648">
		<tag k="name" v="Elvøra" />
		<tag k="place" v="locality" />
		<tag k="ssr:stedsnr" v="474173" />
	</node>
	<node id="-765266" lat="70.2277861147" lon="20.2353277577">
		<tag k="name" v="Mosesteinen" />
		<tag k="natural" v="stone" />
		<tag k="ssr:stedsnr" v="636839" />
	</node>
	<node id="-765265" lat="70.0906305576" lon="20.0745055473">
		<tag k="name" v="Innervollen" />
		<tag k="place" v="locality" />
		<tag k="ssr:stedsnr" v="636651" />
	</node>
	<node id="-766287" lat="69.9989666668" lon="19.9184583162">
		<tag k="name" v="Hestebærmyra" />
		<tag k="natural" v="wetland" />
		<tag k="ssr:stedsnr" v="900430" />
	</node>
	<node id="-766604" lat="69.9341638875" lon="19.7495999827">
		<tag k="name" v="Erlandsmyrene" />
		<tag k="natural" v="wetland" />
		<tag k="ssr:stedsnr" v="961077" />
	</node>
	<node id="-762692" lat="70.0944722269" lon="19.9261166461">
		<tag k="name" v="Fonnisen" />
		<tag k="natural" v="glacier" />
		<tag k="ssr:stedsnr" v="323897" />
	</node>
	<node id="-763360" lat="69.9724583314" lon="19.6124361131">
		<tag k="name" v="Toftemyra" />
		<tag k="natural" v="wetland" />
		<tag k="ssr:stedsnr" v="50002" />
	</node>
	<node id="-764222" lat="69.9525916663" lon="19.6869555565">
		<tag k="name" v="Brunsteinen" />
		<tag k="natural" v="stone" />
		<tag k="ssr:stedsnr" v="233274" />
	</node>
	<node id="-766090" lat="69.9974499979" lon="19.4141610921">
		<tag k="name" v="Holmemyra" />
		<tag k="natural" v="wetland" />
		<tag k="ssr:stedsnr" v="839161" />
	</node>
	<node id="-763017" lat="69.8718638882" lon="19.6644222226">
		<tag k="name" v="Ura" />
		<tag k="natural" v="scree" />
		<tag k="ssr:stedsnr" v="474050" />
	</node>
	<node id="-763698" lat="70.1449777765" lon="19.7143944432">
		<tag k="name" v="Fjellklauvmyra" />
		<tag k="natural" v="wetland" />
		<tag k="ssr:stedsnr" v="112505" />
	</node>
	<node id="-764204" lat="69.9427472244" lon="19.7319972176">
		<tag k="name" v="Utborsteinen" />
		<tag k="natural" v="stone" />
		<tag k="ssr:stedsnr" v="233098" />
	</node>
	<node id="-763687" lat="70.0069805603" lon="19.0627166601">
		<tag k="name" v="Steinen" />
		<tag k="natural" v="stone" />
		<tag k="ssr:stedsnr" v="112232" />
	</node>
	<node id="-763680" lat="70.1565277735" lon="19.8829027688">
		<tag k="name" v="Skallsteinan" />
		<tag k="natural" v="stone" />
		<tag k="ssr:stedsnr" v="112119" />
	</node>
	<node id="-764191" lat="70.0691583368" lon="19.3648861025">
		<tag k="name" v="Hnerikmyra" />
		<tag k="natural" v="wetland" />
		<tag k="ssr:stedsnr" v="232859" />
	</node>
	<node id="-765317" lat="69.9056388879" lon="19.7720888659">
		<tag k="name" v="Øra" />
		<tag k="place" v="locality" />
		<tag k="ssr:stedsnr" v="657048" />
	</node>
	<node id="-763673" lat="69.887927782" lon="19.7609805366">
		<tag k="name" v="Storperjorda" />
		<tag k="place" v="locality" />
		<tag k="ssr:stedsnr" v="112042" />
	</node>
	<node id="-764184" lat="69.9157666706" lon="19.4762472087">
		<tag k="name" v="Torvmyra" />
		<tag k="natural" v="wetland" />
		<tag k="ssr:stedsnr" v="232796" />
	</node>
	<node id="-763670" lat="70.0366305587" lon="19.0760527747">
		<tag k="name" v="Torvmyra" />
		<tag k="natural" v="wetland" />
		<tag k="ssr:stedsnr" v="111967" />
	</node>
	<node id="-764180" lat="69.9456499953" lon="19.2784055574">
		<tag k="name" v="Rasmusslåtta" />
		<tag k="place" v="locality" />
		<tag k="ssr:stedsnr" v="232735" />
	</node>
	<node id="-765656" lat="70.2658916695" lon="19.5723249867">
		<tag k="name" v="Storura" />
		<tag k="natural" v="scree" />
		<tag k="ssr:stedsnr" v="747378" />
	</node>
	<node id="-763150" lat="69.8596138853" lon="19.7245972071">
		<tag k="name" v="Oddeura" />
		<tag k="natural" v="scree" />
		<tag k="ssr:stedsnr" v="413959" />
	</node>
	<node id="-764172" lat="70.2272527751" lon="19.732627774">
		<tag k="name" v="Øra" />
		<tag k="place" v="locality" />
		<tag k="ssr:stedsnr" v="232375" />
	</node>
	<node id="-763948" lat="70.2582027784" lon="19.5754305441">
		<tag k="name" v="Lilleura" />
		<tag k="natural" v="scree" />
		<tag k="ssr:stedsnr" v="172382" />
	</node>
	<node id="-763650" lat="70.1734305524" lon="19.8262388809">
		<tag k="name" v="Storura" />
		<tag k="natural" v="scree" />
		<tag k="ssr:stedsnr" v="111455" />
	</node>
	<node id="-763130" lat="69.8488138935" lon="19.5214222076">
		<tag k="name" v="Nordslåttmyra" />
		<tag k="natural" v="wetland" />
		<tag k="ssr:stedsnr" v="899066" />
	</node>
	<node id="-763639" lat="70.1915833334" lon="19.6228999782">
		<tag k="name" v="Sørmyra" />
		<tag k="natural" v="wetland" />
		<tag k="ssr:stedsnr" v="111352" />
	</node>
	<node id="-762614" lat="69.9855222259" lon="19.3995111113">
		<tag k="name" v="Stormyra" />
		<tag k="natural" v="wetland" />
		<tag k="ssr:stedsnr" v="322622" />
	</node>
	<node id="-763945" lat="69.9992277799" lon="19.8377194218">
		<tag k="name" v="Vossøra" />
		<tag k="place" v="locality" />
		<tag k="ssr:stedsnr" v="172356" />
	</node>
	<node id="-765310" lat="69.9914305558" lon="19.5969249849">
		<tag k="name" v="Storheimyra" />
		<tag k="natural" v="wetland" />
		<tag k="ssr:stedsnr" v="657020" />
	</node>
	<node id="-764146" lat="69.972391665" lon="19.5448722217">
		<tag k="name" v="Hornheimyrene" />
		<tag k="natural" v="wetland" />
		<tag k="ssr:stedsnr" v="232008" />
	</node>
	<node id="-764145" lat="69.9768944447" lon="19.6030860967">
		<tag k="name" v="Gråsteinen" />
		<tag k="natural" v="stone" />
		<tag k="ssr:stedsnr" v="232006" />
	</node>
	<node id="-763120" lat="70.2206416676" lon="19.2405722131">
		<tag k="name" v="Sandsteinøra" />
		<tag k="place" v="locality" />
		<tag k="ssr:stedsnr" v="899228" />
	</node>
	<node id="-763630" lat="70.1085000025" lon="19.4968416543">
		<tag k="name" v="Stormyra" />
		<tag k="natural" v="wetland" />
		<tag k="ssr:stedsnr" v="111204" />
	</node>
	<node id="-765309" lat="69.9695055599" lon="19.5451249807">
		<tag k="name" v="Botnmarka" />
		<tag k="natural" v="wetland" />
		<tag k="ssr:stedsnr" v="657005" />
	</node>
	<node id="-764140" lat="69.8807166718" lon="19.7482999818">
		<tag k="name" v="Martinskogen" />
		<tag k="place" v="locality" />
		<tag k="ssr:stedsnr" v="231978" />
	</node>
	<node id="-762748" lat="69.8522333323" lon="19.6080638686">
		<tag k="name" v="Steinmyra" />
		<tag k="natural" v="wetland" />
		<tag k="ssr:stedsnr" v="352998" />
	</node>
	<node id="-764369" lat="69.9742444468" lon="19.8589472122">
		<tag k="name" v="Herdismyran" />
		<tag k="natural" v="wetland" />
		<tag k="ssr:stedsnr" v="414373" />
	</node>
	<node id="-763619" lat="70.0934638873" lon="20.0471305404">
		<tag k="name" v="Trollmyra" />
		<tag k="natural" v="wetland" />
		<tag k="ssr:stedsnr" v="111075" />
	</node>
	<node id="-763617" lat="70.1482611151" lon="19.9762888891">
		<tag k="name" v="Stormyra" />
		<tag k="natural" v="wetland" />
		<tag k="ssr:stedsnr" v="111070" />
	</node>
	<node id="-763098" lat="69.9485500027" lon="19.2767027816">
		<tag k="name" v="Johan-Willumsenslåtta" />
		<tag k="place" v="locality" />
		<tag k="ssr:stedsnr" v="475774" />
	</node>
	<node id="-766169" lat="70.0361833315" lon="19.0918749983">
		<tag k="name" v="Langmyra" />
		<tag k="natural" v="wetland" />
		<tag k="ssr:stedsnr" v="840951" />
	</node>
	<node id="-766168" lat="69.9524333371" lon="19.1943833287">
		<tag k="name" v="Høgbakkmyra" />
		<tag k="natural" v="wetland" />
		<tag k="ssr:stedsnr" v="840930" />
	</node>
	<node id="-763095" lat="69.9511777756" lon="19.2347833288">
		<tag k="name" v="Oveslåtta" />
		<tag k="place" v="locality" />
		<tag k="ssr:stedsnr" v="475745" />
	</node>
	<node id="-763605" lat="69.8895916666" lon="19.6988750019">
		<tag k="name" v="Åkkelmyra" />
		<tag k="natural" v="wetland" />
		<tag k="ssr:stedsnr" v="110977" />
	</node>
	<node id="-763604" lat="69.8751388853" lon="19.7545972069">
		<tag k="name" v="Nordøra" />
		<tag k="place" v="locality" />
		<tag k="ssr:stedsnr" v="110976" />
	</node>
	<node id="-765902" lat="69.9613388922" lon="19.2264444281">
		<tag k="name" v="Svendsenmyrene" />
		<tag k="natural" v="wetland" />
		<tag k="ssr:stedsnr" v="779750" />
	</node>
	<node id="-764625" lat="70.2832527745" lon="20.237488886">
		<tag k="name" v="Ursteinen" />
		<tag k="natural" v="scree" />
		<tag k="ssr:stedsnr" v="473069" />
	</node>
	<node id="-765280" lat="69.8759277813" lon="19.4633500015">
		<tag k="name" v="Sennemyra" />
		<tag k="natural" v="wetland" />
		<tag k="ssr:stedsnr" v="655129" />
	</node>
	<node id="-763593" lat="69.848341668" lon="19.5313666476">
		<tag k="name" v="Forsesteinen" />
		<tag k="natural" v="stone" />
		<tag k="ssr:stedsnr" v="110053" />
	</node>
	<node id="-766628" lat="70.1218777732" lon="19.9809388875">
		<tag k="name" v="Lillemyra" />
		<tag k="natural" v="wetland" />
		<tag k="ssr:stedsnr" v="961398" />
	</node>
	<node id="-766150" lat="70.2490999998" lon="19.7126666503">
		<tag k="name" v="Storsteinøra" />
		<tag k="place" v="locality" />
		<tag k="ssr:stedsnr" v="840476" />
	</node>
	<node id="-766145" lat="69.9791888857" lon="19.8790138746">
		<tag k="name" v="Øra" />
		<tag k="place" v="locality" />
		<tag k="ssr:stedsnr" v="840444" />
	</node>
	<node id="-765632" lat="69.978975004" lon="19.1418722248">
		<tag k="name" v="Hesjemyra" />
		<tag k="natural" v="wetland" />
		<tag k="ssr:stedsnr" v="718987" />
	</node>
	<node id="-766142" lat="70.0100611087" lon="19.9083666654">
		<tag k="alt_name" v="Storisen" />
		<tag k="name" v="Stormyra" />
		<tag k="natural" v="wetland" />
		<tag k="ssr:stedsnr" v="840417" />
	</node>
	<node id="-762557" lat="69.9734944442" lon="19.8789527636">
		<tag k="name" v="Hestesteinen" />
		<tag k="natural" v="stone" />
		<tag k="ssr:stedsnr" v="294464" />
	</node>
	<node id="-762553" lat="69.9754527777" lon="19.1327611016">
		<tag k="name" v="Finntorpen" />
		<tag k="place" v="locality" />
		<tag k="ssr:stedsnr" v="293971" />
	</node>
	<node id="-766116" lat="69.9374388905" lon="19.7979166657">
		<tag k="name" v="Blåura" />
		<tag k="natural" v="scree" />
		<tag k="ssr:stedsnr" v="840082" />
	</node>
	<node id="-765623" lat="70.0547722253" lon="19.0474138856">
		<tag k="name" v="Oksemyran" />
		<tag k="natural" v="wetland" />
		<tag k="ssr:stedsnr" v="718794" />
	</node>
	<node id="-766646" lat="69.947927774" lon="19.2352388874">
		<tag k="name" v="Andreasslåtta" />
		<tag k="place" v="locality" />
		<tag k="ssr:stedsnr" v="961786" />
	</node>
	<node id="-766133" lat="69.9693444416" lon="19.5905860878">
		<tag k="name" v="Grågårdsmyrene" />
		<tag k="natural" v="wetland" />
		<tag k="ssr:stedsnr" v="840249" />
	</node>
	<node id="-764595" lat="70.0772833344" lon="19.9976694346">
		<tag k="name" v="Sørfjæra" />
		<tag k="natural" v="beach" />
		<tag k="ssr:stedsnr" v="451223" />
		<tag k="surface" v="sand" />
	</node>
	<node id="-763422" lat="69.9661722199" lon="19.5899888759">
		<tag k="name" v="Liåsmyra" />
		<tag k="natural" v="wetland" />
		<tag k="ssr:stedsnr" v="51276" />
	</node>
	<node id="-763053" lat="69.9306777778" lon="19.7398833274">
		<tag k="name" v="Kvitsteinmyrene" />
		<tag k="natural" v="wetland" />
		<tag k="ssr:stedsnr" v="475089" />
	</node>
	<node id="-762539" lat="70.2097777801" lon="19.5743027593">
		<tag k="name" v="Blåsteinen" />
		<tag k="natural" v="stone" />
		<tag k="ssr:stedsnr" v="293783" />
	</node>
	<node id="-765097" lat="69.9016777779" lon="19.7634805409">
		<tag k="name" v="Myrene" />
		<tag k="natural" v="wetland" />
		<tag k="ssr:stedsnr" v="597032" />
	</node>
	<node id="-766632" lat="70.2261972195" lon="19.7602166498">
		<tag k="name" v="Skarvesteinøra" />
		<tag k="place" v="locality" />
		<tag k="ssr:stedsnr" v="961455" />
	</node>
	<node id="-763047" lat="69.9235611119" lon="19.7762861024">
		<tag k="name" v="Blåsteinen" />
		<tag k="natural" v="stone" />
		<tag k="ssr:stedsnr" v="475055" />
	</node>
	<node id="-764350" lat="70.1032722242" lon="20.099258325">
		<tag k="name" v="Risdalsmyra" />
		<tag k="natural" v="wetland" />
		<tag k="ssr:stedsnr" v="262917" />
	</node>
	<node id="-765093" lat="69.9514805508" lon="19.2110694455">
		<tag k="name" v="Jakoplamyra" />
		<tag k="natural" v="wetland" />
		<tag k="ssr:stedsnr" v="596934" />
	</node>
	<node id="-762611" lat="69.9776361113" lon="19.5343610984">
		<tag k="name" v="Botnskogen" />
		<tag k="place" v="locality" />
		<tag k="ssr:stedsnr" v="322613" />
	</node>
	<node id="-762528" lat="70.0025416634" lon="19.9572916586">
		<tag k="name" v="Klubbenesmyra" />
		<tag k="natural" v="wetland" />
		<tag k="ssr:stedsnr" v="293461" />
	</node>
	<node id="-766111" lat="69.898305559" lon="19.759872224">
		<tag k="name" v="Storsteinen" />
		<tag k="natural" v="stone" />
		<tag k="ssr:stedsnr" v="840036" />
	</node>
	<node id="-763038" lat="69.977697225" lon="19.5910166615">
		<tag k="name" v="Varmyra" />
		<tag k="natural" v="wetland" />
		<tag k="ssr:stedsnr" v="475015" />
	</node>
	<node id="-762836" lat="70.1439694469" lon="19.8155083348">
		<tag k="name" v="Hølsteinen" />
		<tag k="natural" v="stone" />
		<tag k="ssr:stedsnr" v="354514" />
	</node>
	<node id="-766107" lat="69.9186694458" lon="19.5334111131">
		<tag k="name" v="Torvmyrene" />
		<tag k="natural" v="wetland" />
		<tag k="ssr:stedsnr" v="839804" />
	</node>
	<node id="-763031" lat="69.8991111156" lon="19.4578444338">
		<tag k="name" v="Steinurmyra" />
		<tag k="natural" v="wetland" />
		<tag k="ssr:stedsnr" v="474834" />
	</node>
	<node id="-766101" lat="70.0566972264" lon="19.830674994">
		<tag k="name" v="Bleikmyra" />
		<tag k="natural" v="wetland" />
		<tag k="ssr:stedsnr" v="839254" />
	</node>
	<node id="-765588" lat="70.0728861116" lon="19.7068916566">
		<tag k="name" v="Sandøra" />
		<tag k="place" v="locality" />
		<tag k="ssr:stedsnr" v="718310" />
	</node>
	<node id="-766097" lat="69.930899999" lon="19.5802972013">
		<tag k="name" v="Hopslåtta" />
		<tag k="place" v="locality" />
		<tag k="ssr:stedsnr" v="839221" />
	</node>
	<node id="-762648" lat="70.2321305537" lon="20.2009111032">
		<tag k="name" v="Dungan" />
		<tag k="natural" v="scree" />
		<tag k="ssr:stedsnr" v="322955" />
	</node>
	<node id="-765070" lat="70.1574472256" lon="19.7657361065">
		<tag k="name" v="Listeinen" />
		<tag k="natural" v="stone" />
		<tag k="ssr:stedsnr" v="596456" />
	</node>
	<node id="-766092" lat="69.9539388865" lon="19.5203749924">
		<tag k="name" v="Slåtten" />
		<tag k="place" v="locality" />
		<tag k="ssr:stedsnr" v="839170" />
	</node>
	<node id="-766091" lat="69.931694445" lon="19.3944305456">
		<tag k="name" v="Ura" />
		<tag k="natural" v="scree" />
		<tag k="ssr:stedsnr" v="839166" />
	</node>
	<node id="-765578" lat="70.0184972212" lon="19.0379333179">
		<tag k="name" v="Steinsetmyra" />
		<tag k="natural" v="wetland" />
		<tag k="ssr:stedsnr" v="718188" />
	</node>
	<node id="-766601" lat="69.9607027801" lon="19.7292333346">
		<tag k="name" v="Eiåsmyrene" />
		<tag k="natural" v="wetland" />
		<tag k="ssr:stedsnr" v="961034" />
	</node>
	<node id="-766598" lat="69.9161972231" lon="19.4340888817">
		<tag k="name" v="Sennemyra" />
		<tag k="natural" v="wetland" />
		<tag k="ssr:stedsnr" v="960845" />
	</node>
	<node id="-762817" lat="69.9555027757" lon="19.6998472015">
		<tag k="name" v="Bardsmyra" />
		<tag k="natural" v="wetland" />
		<tag k="ssr:stedsnr" v="354241" />
	</node>
	<node id="-764543" lat="69.9790388884" lon="19.1891499927">
		<tag k="alt_name" v="Båskebetmyrene" />
		<tag k="name" v="Båskebekkmyran" />
		<tag k="natural" v="wetland" />
		<tag k="ssr:stedsnr" v="444864" />
	</node>
	<node id="-766078" lat="69.9708500005" lon="19.6064972046">
		<tag k="name" v="Hestebakkmyra" />
		<tag k="natural" v="wetland" />
		<tag k="ssr:stedsnr" v="839001" />
	</node>
	<node id="-764026" lat="70.1305416658" lon="18.9792694405">
		<tag k="alt_name" v="Petterøyra" />
		<tag k="name" v="Petterøra" />
		<tag k="place" v="locality" />
		<tag k="ssr:stedsnr" v="201542" />
	</node>
	<node id="-763352" lat="69.8536416668" lon="19.5152277795">
		<tag k="name" v="Gamslettmyra" />
		<tag k="natural" v="wetland" />
		<tag k="ssr:stedsnr" v="49066" />
	</node>
	<node id="-765560" lat="69.8906555526" lon="19.7243527638">
		<tag k="name" v="Vassmyrene" />
		<tag k="natural" v="wetland" />
		<tag k="ssr:stedsnr" v="718048" />
	</node>
	<node id="-763668" lat="69.9528527781" lon="19.2059305368">
		<tag k="name" v="Emilmyra" />
		<tag k="natural" v="wetland" />
		<tag k="ssr:stedsnr" v="111922" />
	</node>
	<node id="-766580" lat="70.1637722264" lon="19.7994277611">
		<tag k="name" v="Steinøra" />
		<tag k="place" v="locality" />
		<tag k="ssr:stedsnr" v="960496" />
	</node>
	<node id="-764019" lat="69.8957083354" lon="19.766302774">
		<tag k="alt_name" v="Finnby" />
		<tag k="name" v="Finnbyen" />
		<tag k="place" v="locality" />
		<tag k="ssr:stedsnr" v="201489" />
	</node>
	<node id="-766576" lat="69.9764111116" lon="19.8584360902">
		<tag k="name" v="Torvmyran" />
		<tag k="natural" v="wetland" />
		<tag k="ssr:stedsnr" v="960365" />
	</node>
	<node id="-765034" lat="70.1587777748" lon="19.221647204">
		<tag k="name" v="Egilmyra" />
		<tag k="natural" v="wetland" />
		<tag k="ssr:stedsnr" v="595207" />
	</node>
	<node id="-762840" lat="69.9499055602" lon="19.2249027598">
		<tag k="name" v="Hans-Kjærslåtta" />
		<tag k="place" v="locality" />
		<tag k="ssr:stedsnr" v="354768" />
	</node>
	<node id="-762981" lat="70.125152777" lon="19.8440777714">
		<tag k="name" v="Gamman" />
		<tag k="natural" v="wetland" />
		<tag k="ssr:stedsnr" v="414274" />
	</node>
	<node id="-765540" lat="69.9441916633" lon="19.6597555346">
		<tag k="name" v="Finnbyhaugmyrene" />
		<tag k="natural" v="wetland" />
		<tag k="ssr:stedsnr" v="718240" />
	</node>
	<node id="-762467" lat="69.9708027798" lon="19.6232999964">
		<tag k="name" v="Skarmyra" />
		<tag k="natural" v="wetland" />
		<tag k="ssr:stedsnr" v="293002" />
	</node>
	<node id="-765374" lat="69.9483472207" lon="19.1985000001">
		<tag k="name" v="Skavbakkmyra" />
		<tag k="natural" v="wetland" />
		<tag k="ssr:stedsnr" v="657921" />
	</node>
	<node id="-762463" lat="69.8224305546" lon="19.4102694408">
		<tag k="name" v="Russemyra" />
		<tag k="natural" v="wetland" />
		<tag k="ssr:stedsnr" v="291100" />
	</node>
	<node id="-762462" lat="69.819086111" lon="19.4105750008">
		<tag k="name" v="Toftemyra" />
		<tag k="natural" v="wetland" />
		<tag k="ssr:stedsnr" v="291098" />
	</node>
	<node id="-762457" lat="70.2800861094" lon="20.214449986">
		<tag k="name" v="Mateamyra" />
		<tag k="natural" v="wetland" />
		<tag k="ssr:stedsnr" v="290065" />
	</node>
	<node id="-766549" lat="69.9385777771" lon="19.6947583351">
		<tag k="name" v="Nordre Berghaugmyrene" />
		<tag k="natural" v="wetland" />
		<tag k="ssr:stedsnr" v="960022" />
	</node>
	<node id="-766548" lat="69.9804472246" lon="19.5903611061">
		<tag k="name" v="Langsundmyra" />
		<tag k="natural" v="wetland" />
		<tag k="ssr:stedsnr" v="960006" />
	</node>
	<node id="-766547" lat="69.9774083385" lon="19.594280539">
		<tag k="name" v="Skjellmyra" />
		<tag k="natural" v="wetland" />
		<tag k="ssr:stedsnr" v="960007" />
	</node>
	<node id="-762771" lat="69.9361833327" lon="19.6342750025">
		<tag k="name" v="Brunmyra" />
		<tag k="natural" v="wetland" />
		<tag k="ssr:stedsnr" v="353252" />
	</node>
	<node id="-766544" lat="69.9222277771" lon="19.6506666521">
		<tag k="name" v="Brunmyrene" />
		<tag k="natural" v="wetland" />
		<tag k="ssr:stedsnr" v="959962" />
	</node>
	<node id="-762958" lat="70.1684777744" lon="20.0182110971">
		<tag k="alt_name" v="Sæingsmyra" />
		<tag k="name" v="Sædingsmyra" />
		<tag k="natural" v="wetland" />
		<tag k="ssr:stedsnr" v="383925" />
	</node>
	<node id="-766541" lat="69.8239805545" lon="19.4080749785">
		<tag k="name" v="Farmyra" />
		<tag k="natural" v="wetland" />
		<tag k="ssr:stedsnr" v="959108" />
	</node>
	<node id="-763468" lat="70.0513083305" lon="19.9294999902">
		<tag k="name" v="Komsøra" />
		<tag k="place" v="locality" />
		<tag k="ssr:stedsnr" v="80082" />
	</node>
	<node id="-762978" lat="70.2174833327" lon="19.2267277585">
		<tag k="name" v="Ørtippen" />
		<tag k="place" v="locality" />
		<tag k="ssr:stedsnr" v="414235" />
	</node>
	<node id="-765513" lat="69.8497250011" lon="19.5613194487">
		<tag k="name" v="Liksteinen" />
		<tag k="natural" v="stone" />
		<tag k="ssr:stedsnr" v="716984" />
	</node>
	<node id="-762532" lat="69.9069055529" lon="19.1741444351">
		<tag k="name" v="Botnmyrene" />
		<tag k="natural" v="wetland" />
		<tag k="ssr:stedsnr" v="293612" />
	</node>
	<node id="-763660" lat="69.9175638893" lon="19.5179055349">
		<tag k="name" v="Rakkenesøra" />
		<tag k="place" v="locality" />
		<tag k="ssr:stedsnr" v="111795" />
	</node>
	<node id="-765281" lat="69.8710472235" lon="19.6572610991">
		<tag k="name" v="Urmyra" />
		<tag k="natural" v="wetland" />
		<tag k="ssr:stedsnr" v="656042" />
	</node>
	<node id="-766134" lat="69.9482611088" lon="19.6629722056">
		<tag k="name" v="Høgstehaugmyra" />
		<tag k="natural" v="wetland" />
		<tag k="ssr:stedsnr" v="840253" />
	</node>
	<node id="-765792" lat="69.8594999988" lon="19.7312666558">
		<tag k="name" v="Ursanda" />
		<tag k="natural" v="beach" />
		<tag k="ssr:stedsnr" v="777956" />
		<tag k="surface" v="sand" />
	</node>
	<node id="-763966" lat="70.0447472212" lon="19.0684222261">
		<tag k="name" v="Trollvassmyra" />
		<tag k="natural" v="wetland" />
		<tag k="ssr:stedsnr" v="172960" />
	</node>
	<node id="-763965" lat="70.0678777734" lon="19.0422388917">
		<tag k="name" v="Dalmyra" />
		<tag k="natural" v="wetland" />
		<tag k="ssr:stedsnr" v="172823" />
	</node>
	<node id="-764988" lat="70.0313861131" lon="19.5319666642">
		<tag k="name" v="Småstykkan" />
		<tag k="natural" v="wetland" />
		<tag k="ssr:stedsnr" v="565989" />
	</node>
	<node id="-763963" lat="69.9581833362" lon="19.2418805397">
		<tag k="name" v="Hilmarslåtta" />
		<tag k="place" v="locality" />
		<tag k="ssr:stedsnr" v="172805" />
	</node>
	<node id="-764816" lat="69.9271416651" lon="19.6338999816">
		<tag k="name" v="Borkesteinskogen" />
		<tag k="place" v="locality" />
		<tag k="ssr:stedsnr" v="536032" />
	</node>
	<node id="-766518" lat="70.0487694431" lon="19.9112999928">
		<tag k="name" v="Kjegløra" />
		<tag k="place" v="locality" />
		<tag k="ssr:stedsnr" v="936116" />
	</node>
	<node id="-766606" lat="69.928319446" lon="19.2156583164">
		<tag k="name" v="Rata" />
		<tag k="natural" v="wetland" />
		<tag k="ssr:stedsnr" v="961161" />
	</node>
	<node id="-763953" lat="70.0579083353" lon="19.9246694427">
		<tag k="name" v="Stormyra" />
		<tag k="natural" v="wetland" />
		<tag k="ssr:stedsnr" v="172400" />
	</node>
	<node id="-764765" lat="69.9128500013" lon="19.0329222184">
		<tag k="historic" v="shieling" />
		<tag k="name" v="Rivgugieddi" />
		<tag k="name:se" v="Rivgugieddi" />
		<tag k="place" v="locality" />
		<tag k="ssr:stedsnr" v="516715" />
	</node>
	<node id="-764460" lat="70.063280552" lon="19.9495305386">
		<tag k="name" v="Stormyra" />
		<tag k="natural" v="wetland" />
		<tag k="ssr:stedsnr" v="444064" />
	</node>
	<node id="-764969" lat="70.0652666639" lon="19.2215249843">
		<tag k="alt_name" v="Kobbøyrene" />
		<tag k="name" v="Kobbeøra" />
		<tag k="place" v="locality" />
		<tag k="ssr:stedsnr" v="565789" />
	</node>
	<node id="-763430" lat="70.1919472223" lon="19.6271861101">
		<tag k="name" v="Barkosteinen" />
		<tag k="natural" v="stone" />
		<tag k="ssr:stedsnr" v="51404" />
	</node>
	<node id="-763940" lat="70.0198305516" lon="19.102291668">
		<tag k="name" v="Storskogmyra" />
		<tag k="natural" v="wetland" />
		<tag k="ssr:stedsnr" v="172187" />
	</node>
	<node id="-763425" lat="70.079461112" lon="19.7071388724">
		<tag k="name" v="Øra" />
		<tag k="place" v="locality" />
		<tag k="ssr:stedsnr" v="51364" />
	</node>
	<node id="-763935" lat="70.0406388897" lon="18.9888388959">
		<tag k="name" v="Tisnesøra" />
		<tag k="place" v="locality" />
		<tag k="ssr:stedsnr" v="172232" />
	</node>
	<node id="-764446" lat="69.9719666651" lon="19.1808138805">
		<tag k="name" v="Hestemyra" />
		<tag k="natural" v="wetland" />
		<tag k="ssr:stedsnr" v="415997" />
	</node>
	<node id="-763420" lat="69.9685138879" lon="19.5831833124">
		<tag k="name" v="Steinbakkmyra" />
		<tag k="natural" v="wetland" />
		<tag k="ssr:stedsnr" v="51268" />
	</node>
	<node id="-762541" lat="70.0490805534" lon="19.0469499972">
		<tag k="name" v="Dalmyra" />
		<tag k="natural" v="wetland" />
		<tag k="ssr:stedsnr" v="293810" />
	</node>
	<node id="-764438" lat="69.9938472246" lon="19.1263222084">
		<tag k="name" v="Langmyra" />
		<tag k="natural" v="wetland" />
		<tag k="ssr:stedsnr" v="415916" />
	</node>
	<node id="-764432" lat="69.94424167" lon="19.2273166687">
		<tag k="name" v="Rasmusslåtta" />
		<tag k="place" v="locality" />
		<tag k="ssr:stedsnr" v="415796" />
	</node>
	<node id="-764430" lat="70.2154277829" lon="19.5855888713">
		<tag k="name" v="Uran" />
		<tag k="natural" v="scree" />
		<tag k="ssr:stedsnr" v="415790" />
	</node>
	<node id="-763917" lat="69.9342694442" lon="19.2123027688">
		<tag k="name" v="Busesteinen" />
		<tag k="natural" v="stone" />
		<tag k="ssr:stedsnr" v="172156" />
	</node>
	<node id="-764247" lat="69.9545083316" lon="19.1893666577">
		<tag k="name" v="Lomstjønnmyra" />
		<tag k="natural" v="wetland" />
		<tag k="ssr:stedsnr" v="233944" />
	</node>
	<node id="-763400" lat="70.1053416621" lon="20.105283329">
		<tag k="name" v="Sommarsetmyra" />
		<tag k="natural" v="wetland" />
		<tag k="ssr:stedsnr" v="51046" />
	</node>
	<node id="-763911" lat="69.9263388851" lon="19.7694416611">
		<tag k="name" v="Løypmyra" />
		<tag k="natural" v="wetland" />
		<tag k="ssr:stedsnr" v="172073" />
	</node>
	<node id="-763864" lat="69.9771722207" lon="19.5983027798">
		<tag k="name" v="Nordre Gråsteinåsmyra" />
		<tag k="natural" v="wetland" />
		<tag k="ssr:stedsnr" v="171002" />
	</node>
	<node id="-764419" lat="70.2300916694" lon="19.7359527608">
		<tag k="name" v="Kvitsteinøra" />
		<tag k="place" v="locality" />
		<tag k="ssr:stedsnr" v="415446" />
	</node>
	<node id="-762852" lat="70.0317055519" lon="19.0878222074">
		<tag k="name" v="Elvøra" />
		<tag k="place" v="locality" />
		<tag k="ssr:stedsnr" v="354968" />
	</node>
</osm>
