<?xml version="1.0" encoding="UTF-8"?>
<osm version="0.6" generator="osmapis">
	<node id="5520559554" lat="58.4599555" lon="6.1310309" version="1" timestamp="2018-04-01T15:29:54Z" changeset="57715145" uid="2569034" user="kche_import">
		<tag k="name" v="Nodland i Heia" />
		<tag k="place" v="farm" />
		<tag k="ssr:hovednavnetype" v="Bygnad" />
		<tag k="ssr:navnetype" v="Bruk" />
		<tag k="ssr:stedsnr" v="851" />
		<tag k="ssr:url" v="https://stadnamn.kartverket.no/fakta/851" />
	</node>
	<node id="5520561850" lat="58.4515614" lon="6.1634642" version="1" timestamp="2018-04-01T15:31:14Z" changeset="57715182" uid="2569034" user="kche_import">
		<tag k="name" v="Vind-Birkeland" />
		<tag k="place" v="farm" />
		<tag k="ssr:hovednavnetype" v="Bygnad" />
		<tag k="ssr:navnetype" v="Bruk" />
		<tag k="ssr:stedsnr" v="121825" />
		<tag k="ssr:url" v="https://stadnamn.kartverket.no/fakta/121825" />
	</node>
	<node id="5520585664" lat="58.4422319" lon="5.888232" version="1" timestamp="2018-04-01T15:49:52Z" changeset="57715691" uid="2569034" user="kche_import">
		<tag k="loc_name" v="Seglemstronde" />
		<tag k="name" v="Segleimstranda" />
		<tag k="place" v="locality" />
		<tag k="ssr:hovednavnetype" v="Sjø" />
		<tag k="ssr:navnetype" v="Strandisjø" />
		<tag k="ssr:stedsnr" v="525816" />
		<tag k="ssr:url" v="https://stadnamn.kartverket.no/fakta/525816" />
	</node>
	<node id="5520588225" lat="58.4359973" lon="5.906176" version="1" timestamp="2018-04-01T15:51:16Z" changeset="57715721" uid="2569034" user="kche_import">
		<tag k="name" v="Ytstebrød" />
		<tag k="place" v="hamlet" />
		<tag k="ssr:hovednavnetype" v="Bygnad" />
		<tag k="ssr:navnetype" v="Bruk" />
		<tag k="ssr:stedsnr" v="243817" />
		<tag k="ssr:url" v="https://stadnamn.kartverket.no/fakta/243817" />
	</node>
</osm>
