<?xml version="1.0" encoding="UTF-8"?>
<osm version="0.6" generator="osmapis">
	<node lat="62.301211115642104" lon="10.755638884437282" id="-27931">
		<tag k="name" v="Såttåveien" />
		<tag k="ssr:date" v="2019-12-27" />
		<tag k="ssr:gruppe" v="veg" />
		<tag k="ssr:hovedgruppe" v="infrastruktur" />
		<tag k="ssr:stedsnr" v="233101" />
		<tag k="ssr:type" v="vegstrekning" />
	</node>
	<node lat="62.552086108325376" lon="10.357069436736584" id="-27942">
		<tag k="name" v="Grøtliveien" />
		<tag k="ssr:date" v="2019-12-27" />
		<tag k="ssr:gruppe" v="veg" />
		<tag k="ssr:hovedgruppe" v="infrastruktur" />
		<tag k="ssr:stedsnr" v="233243" />
		<tag k="ssr:type" v="vegstrekning" />
	</node>
	<node lat="62.41170833052297" lon="10.584550004477535" id="-28019">
		<tag k="name" v="Ryanvegen" />
		<tag k="ssr:date" v="2019-12-27" />
		<tag k="ssr:gruppe" v="veg" />
		<tag k="ssr:hovedgruppe" v="infrastruktur" />
		<tag k="ssr:stedsnr" v="52609" />
		<tag k="ssr:type" v="vegstrekning" />
	</node>
	<node lat="62.215911108038874" lon="10.776552768910474" id="-28089">
		<tag k="name" v="Gamle Tylldalsvegen" />
		<tag k="ssr:date" v="2019-12-27" />
		<tag k="ssr:gruppe" v="veg" />
		<tag k="ssr:hovedgruppe" v="infrastruktur" />
		<tag k="ssr:stedsnr" v="112908" />
		<tag k="ssr:type" v="vegstrekning" />
	</node>
	<node lat="62.313980557601184" lon="10.749424996066749" id="-28320">
		<tag k="name" v="Kvannrøstvegen" />
		<tag k="ssr:date" v="2019-12-27" />
		<tag k="ssr:gruppe" v="veg" />
		<tag k="ssr:hovedgruppe" v="infrastruktur" />
		<tag k="ssr:stedsnr" v="294109" />
		<tag k="ssr:type" v="vegstrekning" />
	</node>
	<node lat="62.25705278038559" lon="10.727219435675105" id="-28428">
		<tag k="name" v="Nedre Brekkvei" />
		<tag k="ssr:date" v="2019-12-27" />
		<tag k="ssr:gruppe" v="veg" />
		<tag k="ssr:hovedgruppe" v="infrastruktur" />
		<tag k="ssr:stedsnr" v="476009" />
		<tag k="ssr:type" v="vegstrekning" />
	</node>
	<node lat="62.51502222299299" lon="10.386197215415713" id="-28524">
		<tag k="name" v="Gamleveien" />
		<tag k="ssr:date" v="2019-12-27" />
		<tag k="ssr:gruppe" v="veg" />
		<tag k="ssr:hovedgruppe" v="infrastruktur" />
		<tag k="ssr:stedsnr" v="415827" />
		<tag k="ssr:type" v="vegstrekning" />
	</node>
	<node lat="62.273863886665595" lon="10.776261101438601" id="-28581">
		<tag k="name" v="Tynset kommune" />
		<tag k="ssr:date" v="2019-12-27" />
		<tag k="ssr:gruppe" v="administrativeIndelinger" />
		<tag k="ssr:hovedgruppe" v="offentligAdministrasjon" />
		<tag k="ssr:stedsnr" v="449122" />
		<tag k="ssr:type" v="kommune" />
	</node>
	<node lat="62.25478055529667" lon="10.741250006537394" id="-28761">
		<tag k="name" v="Østre Brekkvei" />
		<tag k="ssr:date" v="2019-12-27" />
		<tag k="ssr:gruppe" v="veg" />
		<tag k="ssr:hovedgruppe" v="infrastruktur" />
		<tag k="ssr:stedsnr" v="597007" />
		<tag k="ssr:type" v="vegstrekning" />
	</node>
</osm>
