<?xml version="1.0" encoding="UTF-8"?>
<osm generator="osmapis" version="0.6">
	<node id="-2048" lat="59.0001388934" lon="11.6056666643">
		<tag k="fixme" v="consider natural=peak for the most distinct mountains in the district" />
		<tag k="name" v="Hølvassdraget" />
		<tag k="natural" v="hill" />
		<tag k="place" v="locality" />
		<tag k="ssr:stedsnr" v="244323" />
	</node>
	<node id="-2041" lat="59.1834666631" lon="11.5720166668">
		<tag k="fixme" v="consider natural=peak for the most distinct mountains in the district" />
		<tag k="name" v="Ekeklevhøgda" />
		<tag k="natural" v="hill" />
		<tag k="place" v="locality" />
		<tag k="ssr:stedsnr" v="244095" />
	</node>
	<node id="-2029" lat="59.0385527756" lon="11.6478388855">
		<tag k="name" v="Kroktjerndalen" />
		<tag k="natural" v="valley" />
		<tag k="place" v="locality" />
		<tag k="ssr:stedsnr" v="232948" />
	</node>
	<node id="-2027" lat="59.0829527768" lon="11.6590305573">
		<tag k="fixme" v="consider natural=peak for the most distinct mountains in the district" />
		<tag k="name" v="Jonsås" />
		<tag k="natural" v="hill" />
		<tag k="place" v="locality" />
		<tag k="ssr:stedsnr" v="232945" />
	</node>
	<node id="-2024" lat="59.103177777" lon="11.6148333257">
		<tag k="fixme" v="consider natural=peak for the most distinct mountains in the district" />
		<tag k="name" v="Kjøttbakkøfse" />
		<tag k="natural" v="hill" />
		<tag k="place" v="locality" />
		<tag k="ssr:stedsnr" v="232935" />
	</node>
	<node id="-2023" lat="58.9361111073" lon="11.5843111066">
		<tag k="fixme" v="consider natural=peak for the most distinct mountains in the district" />
		<tag k="name" v="Bråtenekollen" />
		<tag k="natural" v="hill" />
		<tag k="place" v="locality" />
		<tag k="ssr:stedsnr" v="232932" />
	</node>
	<node id="-2022" lat="58.9895694455" lon="11.5668527707">
		<tag k="name" v="Elgedal" />
		<tag k="natural" v="valley" />
		<tag k="place" v="locality" />
		<tag k="ssr:stedsnr" v="232916" />
	</node>
	<node id="-2017" lat="59.1889638847" lon="11.5124944438">
		<tag k="name" v="Søndre Torpedalen" />
		<tag k="natural" v="valley" />
		<tag k="place" v="locality" />
		<tag k="ssr:stedsnr" v="232892" />
	</node>
	<node id="-2015" lat="59.2071333318" lon="11.3775527763">
		<tag k="fixme" v="consider natural=peak for the most distinct mountains in the district" />
		<tag k="name" v="Vassdalsås" />
		<tag k="natural" v="hill" />
		<tag k="place" v="locality" />
		<tag k="ssr:stedsnr" v="232884" />
	</node>
	<node id="-2007" lat="59.2155805579" lon="11.3719888869">
		<tag k="fixme" v="consider natural=peak for the most distinct mountains in the district" />
		<tag k="name" v="Orrhanekollen" />
		<tag k="natural" v="hill" />
		<tag k="place" v="locality" />
		<tag k="ssr:stedsnr" v="232679" />
	</node>
	<node id="-1999" lat="59.0967611072" lon="11.5938444454">
		<tag k="fixme" v="consider natural=peak for the most distinct mountains in the district" />
		<tag k="name" v="Ertehaugen" />
		<tag k="natural" v="hill" />
		<tag k="place" v="locality" />
		<tag k="ssr:stedsnr" v="232632" />
	</node>
	<node id="-1991" lat="58.8904833367" lon="11.4705194446">
		<tag k="fixme" v="consider natural=peak for the most distinct mountains in the district" />
		<tag k="name" v="Vammenfjell" />
		<tag k="natural" v="hill" />
		<tag k="place" v="locality" />
		<tag k="ssr:stedsnr" v="232596" />
	</node>
	<node id="-1983" lat="59.1658749984" lon="11.5729527823">
		<tag k="fixme" v="consider natural=peak for the most distinct mountains in the district" />
		<tag k="name" v="Veggesdalåsen" />
		<tag k="natural" v="hill" />
		<tag k="place" v="locality" />
		<tag k="ssr:stedsnr" v="232556" />
	</node>
	<node id="-1976" lat="59.0458638884" lon="11.6120111028">
		<tag k="fixme" v="consider natural=peak for the most distinct mountains in the district" />
		<tag k="name" v="Galteryggen" />
		<tag k="natural" v="hill" />
		<tag k="place" v="locality" />
		<tag k="ssr:stedsnr" v="232484" />
	</node>
	<node id="-1975" lat="59.0488527738" lon="11.6598805627">
		<tag k="fixme" v="consider natural=peak for the most distinct mountains in the district" />
		<tag k="name" v="Holøfse" />
		<tag k="natural" v="hill" />
		<tag k="place" v="locality" />
		<tag k="ssr:stedsnr" v="232480" />
	</node>
	<node id="-1966" lat="59.104413889" lon="11.4472861194">
		<tag k="name" v="Gimmenlia" />
		<tag k="natural" v="slope" />
		<tag k="place" v="locality" />
		<tag k="ssr:stedsnr" v="205785" />
	</node>
	<node id="-1965" lat="59.1167666684" lon="11.3933111143">
		<tag k="alt_name" v="Roland" />
		<tag k="fixme" v="consider natural=peak for the most distinct mountains in the district" />
		<tag k="name" v="Rolandskansen" />
		<tag k="natural" v="hill" />
		<tag k="place" v="locality" />
		<tag k="ssr:stedsnr" v="205776" />
	</node>
	<node id="-1964" lat="59.1172194437" lon="11.3994777716">
		<tag k="fixme" v="consider natural=peak for the most distinct mountains in the district" />
		<tag k="name" v="Stortårnet" />
		<tag k="natural" v="hill" />
		<tag k="place" v="locality" />
		<tag k="ssr:stedsnr" v="205771" />
	</node>
	<node id="-1963" lat="59.2168694457" lon="11.4247500002">
		<tag k="fixme" v="consider natural=peak for the most distinct mountains in the district" />
		<tag k="name" v="Blanktjernås" />
		<tag k="natural" v="hill" />
		<tag k="place" v="locality" />
		<tag k="ssr:stedsnr" v="204865" />
	</node>
	<node id="-1962" lat="59.2106944416" lon="11.4094027825">
		<tag k="fixme" v="consider natural=peak for the most distinct mountains in the district" />
		<tag k="name" v="Festningen" />
		<tag k="natural" v="hill" />
		<tag k="place" v="locality" />
		<tag k="ssr:stedsnr" v="204859" />
	</node>
	<node id="-1958" lat="59.0917111125" lon="11.4961111079">
		<tag k="name" v="Stenura" />
		<tag k="place" v="locality" />
		<tag k="ssr:stedsnr" v="204787" />
	</node>
	<node id="-1957" lat="59.0779694463" lon="11.4458972222">
		<tag k="fixme" v="consider natural=peak for the most distinct mountains in the district" />
		<tag k="name" v="Bøåsen" />
		<tag k="natural" v="hill" />
		<tag k="place" v="locality" />
		<tag k="ssr:stedsnr" v="204778" />
	</node>
	<node id="-1954" lat="59.0248527801" lon="11.4765249953">
		<tag k="fixme" v="consider natural=peak for the most distinct mountains in the district" />
		<tag k="name" v="Plomåsen" />
		<tag k="natural" v="hill" />
		<tag k="place" v="locality" />
		<tag k="ssr:stedsnr" v="204210" />
	</node>
	<node id="-1952" lat="59.0290805594" lon="11.4732999989">
		<tag k="fixme" v="consider natural=peak for the most distinct mountains in the district" />
		<tag k="name" v="Bjørnåsene" />
		<tag k="natural" v="hill" />
		<tag k="place" v="locality" />
		<tag k="ssr:stedsnr" v="204205" />
	</node>
	<node id="-1951" lat="59.0261722199" lon="11.489644442">
		<tag k="fixme" v="consider natural=peak for the most distinct mountains in the district" />
		<tag k="name" v="Springerberget" />
		<tag k="natural" v="hill" />
		<tag k="place" v="locality" />
		<tag k="ssr:stedsnr" v="204198" />
	</node>
	<node id="-1946" lat="58.9504333316" lon="11.4887388872">
		<tag k="name" v="Ødegårdslia" />
		<tag k="natural" v="slope" />
		<tag k="place" v="locality" />
		<tag k="ssr:stedsnr" v="204124" />
	</node>
	<node id="-1940" lat="59.1338527814" lon="11.6012083259">
		<tag k="fixme" v="consider natural=peak for the most distinct mountains in the district" />
		<tag k="name" v="Styggmyråsen" />
		<tag k="natural" v="hill" />
		<tag k="place" v="locality" />
		<tag k="ssr:stedsnr" v="185052" />
	</node>
	<node id="-1935" lat="59.2146851012" lon="11.4130240272">
		<tag k="alt_name" v="Kirkeleåsen;Kyrkjeliåsen" />
		<tag k="fixme" v="consider natural=peak for the most distinct mountains in the district" />
		<tag k="loc_name" v="Kjørkeledåsen" />
		<tag k="name" v="Kjørkeliåsen" />
		<tag k="natural" v="hill" />
		<tag k="place" v="locality" />
		<tag k="ssr:stedsnr" v="184848" />
	</node>
	<node id="-1926" lat="59.0123166686" lon="11.5043666651">
		<tag k="fixme" v="consider natural=peak for the most distinct mountains in the district" />
		<tag k="name" v="Brønnekollen" />
		<tag k="natural" v="hill" />
		<tag k="place" v="locality" />
		<tag k="ssr:stedsnr" v="184338" />
	</node>
	<node id="-1924" lat="59.0299527807" lon="11.5194749949">
		<tag k="alt_name" v="Ekelifjellet" />
		<tag k="fixme" v="consider natural=peak for the most distinct mountains in the district" />
		<tag k="name" v="Ekelifjell" />
		<tag k="natural" v="hill" />
		<tag k="place" v="locality" />
		<tag k="ssr:stedsnr" v="184284" />
	</node>
	<node id="-1923" lat="59.0412999965" lon="11.6258388847">
		<tag k="fixme" v="consider natural=peak for the most distinct mountains in the district" />
		<tag k="name" v="Galteryggen" />
		<tag k="natural" v="hill" />
		<tag k="place" v="locality" />
		<tag k="ssr:stedsnr" v="184283" />
	</node>
	<node id="-1922" lat="59.0644194406" lon="11.6075944489">
		<tag k="fixme" v="multiple name tags, choose one and add the other to alt_name; consider natural=peak for the most distinct mountains in the district" />
		<tag k="name" v="Råklevfjellet;Vardeåsen" />
		<tag k="natural" v="hill" />
		<tag k="place" v="locality" />
		<tag k="ssr:stedsnr" v="184281" />
	</node>
	<node id="-1914" lat="59.1213694477" lon="11.2623777847">
		<tag k="alt_name" v="Alsrødkollen" />
		<tag k="fixme" v="consider natural=peak for the most distinct mountains in the district" />
		<tag k="name" v="Alsrødkloppa" />
		<tag k="natural" v="hill" />
		<tag k="place" v="locality" />
		<tag k="ssr:stedsnr" v="183877" />
	</node>
	<node id="-1342" lat="58.9179833318" lon="11.54753334">
		<tag k="name" v="Bjelkedalen" />
		<tag k="natural" v="valley" />
		<tag k="place" v="locality" />
		<tag k="ssr:stedsnr" v="475806" />
	</node>
	<node id="-1000" lat="59.1247750016" lon="11.5426027746">
		<tag k="name" v="Grandalen" />
		<tag k="natural" v="valley" />
		<tag k="place" v="locality" />
		<tag k="ssr:stedsnr" v="293989" />
	</node>
	<node id="-1897" lat="58.9907305521" lon="11.6606027731">
		<tag k="fixme" v="consider natural=peak for the most distinct mountains in the district" />
		<tag k="name" v="Bokenesfjellet" />
		<tag k="natural" v="hill" />
		<tag k="place" v="locality" />
		<tag k="ssr:stedsnr" v="183803" />
	</node>
	<node id="-1895" lat="59.0833277792" lon="11.4851083267">
		<tag k="name" v="Korsdalene" />
		<tag k="natural" v="valley" />
		<tag k="place" v="locality" />
		<tag k="ssr:stedsnr" v="183436" />
	</node>
	<node id="-1892" lat="59.0756972266" lon="11.5601055613">
		<tag k="fixme" v="consider natural=peak for the most distinct mountains in the district" />
		<tag k="name" v="Hvitås" />
		<tag k="natural" v="hill" />
		<tag k="place" v="locality" />
		<tag k="ssr:stedsnr" v="183416" />
	</node>
	<node id="-1888" lat="59.0083611118" lon="11.6003888817">
		<tag k="fixme" v="multiple name tags, choose one and add the other to alt_name; consider natural=peak for the most distinct mountains in the district" />
		<tag k="name" v="Saleklev;Saligklevfjellet" />
		<tag k="natural" v="hill" />
		<tag k="place" v="locality" />
		<tag k="ssr:stedsnr" v="183297" />
	</node>
	<node id="-1887" lat="59.0103277758" lon="11.6835555584">
		<tag k="name" v="Tjernshøgda" />
		<tag k="natural" v="hill" />
		<tag k="place" v="locality" />
		<tag k="ssr:stedsnr" v="183290" />
	</node>
	<node id="-1877" lat="58.931958336" lon="11.478975002">
		<tag k="fixme" v="consider natural=peak for the most distinct mountains in the district" />
		<tag k="name" v="Smedsrødfjellet" />
		<tag k="natural" v="hill" />
		<tag k="place" v="locality" />
		<tag k="ssr:stedsnr" v="182172" />
	</node>
	<node id="-1873" lat="59.0425833377" lon="11.4558888857">
		<tag k="alt_name" v="Bissebergåsen" />
		<tag k="fixme" v="consider natural=peak for the most distinct mountains in the district" />
		<tag k="name" v="Bessebergåsen" />
		<tag k="natural" v="hill" />
		<tag k="place" v="locality" />
		<tag k="ssr:stedsnr" v="175088" />
	</node>
	<node id="-1867" lat="58.9830861118" lon="11.5224027834">
		<tag k="fixme" v="consider natural=peak for the most distinct mountains in the district" />
		<tag k="name" v="Orekokken" />
		<tag k="natural" v="hill" />
		<tag k="place" v="locality" />
		<tag k="ssr:stedsnr" v="172942" />
	</node>
	<node id="-1864" lat="58.9237750014" lon="11.5554138892">
		<tag k="name" v="Sandvannåsen" />
		<tag k="natural" v="hill" />
		<tag k="place" v="locality" />
		<tag k="ssr:stedsnr" v="172902" />
	</node>
	<node id="-1861" lat="58.9111444472" lon="11.5949500072">
		<tag k="name" v="Merråsen" />
		<tag k="natural" v="valley" />
		<tag k="place" v="locality" />
		<tag k="ssr:stedsnr" v="172842" />
	</node>
	<node id="-1855" lat="59.2060833289" lon="11.3844666648">
		<tag k="name" v="Vassdalen" />
		<tag k="natural" v="valley" />
		<tag k="place" v="locality" />
		<tag k="ssr:stedsnr" v="172810" />
	</node>
	<node id="-1852" lat="59.0294194487" lon="11.6152777825">
		<tag k="fixme" v="consider natural=peak for the most distinct mountains in the district" />
		<tag k="name" v="Gjeddelundfjellet" />
		<tag k="natural" v="hill" />
		<tag k="place" v="locality" />
		<tag k="ssr:stedsnr" v="172679" />
	</node>
	<node id="-1850" lat="59.0231805538" lon="11.5669861118">
		<tag k="name" v="Pølsekjerråsene" />
		<tag k="natural" v="slope" />
		<tag k="place" v="locality" />
		<tag k="ssr:stedsnr" v="172778" />
	</node>
	<node id="-1837" lat="58.9503055542" lon="11.5969888948">
		<tag k="name" v="Lysedalen" />
		<tag k="natural" v="valley" />
		<tag k="place" v="locality" />
		<tag k="ssr:stedsnr" v="172622" />
	</node>
	<node id="-1821" lat="59.2241833335" lon="11.3945166604">
		<tag k="name" v="Februsmyr" />
		<tag k="natural" v="hill" />
		<tag k="place" v="locality" />
		<tag k="ssr:stedsnr" v="143837" />
	</node>
	<node id="-1819" lat="59.237519447" lon="11.4121055558">
		<tag k="fixme" v="consider natural=peak for the most distinct mountains in the district" />
		<tag k="name" v="Stallåsen" />
		<tag k="natural" v="hill" />
		<tag k="place" v="locality" />
		<tag k="ssr:stedsnr" v="143828" />
	</node>
	<node id="-1818" lat="59.1931361135" lon="11.4757694519">
		<tag k="fixme" v="consider natural=peak for the most distinct mountains in the district" />
		<tag k="name" v="Stutsrødhøyda" />
		<tag k="natural" v="hill" />
		<tag k="place" v="locality" />
		<tag k="ssr:stedsnr" v="143821" />
	</node>
	<node id="-1816" lat="59.1496277773" lon="11.4530583291">
		<tag k="fixme" v="consider natural=peak for the most distinct mountains in the district" />
		<tag k="name" v="Grønlundåsen" />
		<tag k="natural" v="hill" />
		<tag k="place" v="locality" />
		<tag k="ssr:stedsnr" v="143802" />
	</node>
	<node id="-1808" lat="59.0320972182" lon="11.4536444394">
		<tag k="fixme" v="consider natural=peak for the most distinct mountains in the district" />
		<tag k="name" v="Høyda" />
		<tag k="natural" v="hill" />
		<tag k="place" v="locality" />
		<tag k="ssr:stedsnr" v="143214" />
	</node>
	<node id="-1805" lat="59.0722888878" lon="11.4602472167">
		<tag k="name" v="Samuelsdalen" />
		<tag k="natural" v="valley" />
		<tag k="place" v="locality" />
		<tag k="ssr:stedsnr" v="143191" />
	</node>
	<node id="-1804" lat="59.1211833349" lon="11.3282111167">
		<tag k="fixme" v="consider natural=peak for the most distinct mountains in the district" />
		<tag k="name" v="Knivsøåsen" />
		<tag k="natural" v="hill" />
		<tag k="place" v="locality" />
		<tag k="ssr:stedsnr" v="143182" />
	</node>
	<node id="-1803" lat="59.130716664" lon="11.3100055609">
		<tag k="name" v="Homannsrøset" />
		<tag k="natural" v="hill" />
		<tag k="place" v="locality" />
		<tag k="ssr:stedsnr" v="143181" />
	</node>
	<node id="-1801" lat="59.1323000015" lon="11.3856555541">
		<tag k="name" v="Schultzedalen" />
		<tag k="natural" v="valley" />
		<tag k="place" v="locality" />
		<tag k="ssr:stedsnr" v="143174" />
	</node>
	<node id="-1792" lat="59.1134944478" lon="11.2559444467">
		<tag k="name" v="Revekas" />
		<tag k="natural" v="hill" />
		<tag k="place" v="locality" />
		<tag k="ssr:stedsnr" v="143012" />
	</node>
	<node id="-1777" lat="59.1191750012" lon="11.2296750052">
		<tag k="fixme" v="consider natural=peak for the most distinct mountains in the district" />
		<tag k="name" v="Røsnesåsen" />
		<tag k="natural" v="hill" />
		<tag k="place" v="locality" />
		<tag k="ssr:stedsnr" v="123870" />
	</node>
	<node id="-1774" lat="58.9603416666" lon="11.542291662">
		<tag k="fixme" v="consider natural=peak for the most distinct mountains in the district" />
		<tag k="name" v="Vaglåsen" />
		<tag k="natural" v="hill" />
		<tag k="place" v="locality" />
		<tag k="ssr:stedsnr" v="123862" />
	</node>
	<node id="-1770" lat="58.9636555537" lon="11.5895222148">
		<tag k="alt_name" v="Ekeliene" />
		<tag k="name" v="Eikeliene" />
		<tag k="natural" v="slope" />
		<tag k="place" v="locality" />
		<tag k="ssr:stedsnr" v="123846" />
	</node>
	<node id="-1768" lat="58.9711166649" lon="11.5095750063">
		<tag k="fixme" v="consider natural=peak for the most distinct mountains in the district" />
		<tag k="name" v="Liåsen" />
		<tag k="natural" v="hill" />
		<tag k="place" v="locality" />
		<tag k="ssr:stedsnr" v="123822" />
	</node>
	<node id="-1763" lat="59.1032750031" lon="11.6621055645">
		<tag k="name" v="Stallene" />
		<tag k="natural" v="hill" />
		<tag k="place" v="locality" />
		<tag k="ssr:stedsnr" v="123489" />
	</node>
	<node id="-1761" lat="59.0375527737" lon="11.4848999951">
		<tag k="alt_name" v="Vestre Lifjell" />
		<tag k="fixme" v="consider natural=peak for the most distinct mountains in the district" />
		<tag k="name" v="Søndre Lifjell" />
		<tag k="natural" v="hill" />
		<tag k="place" v="locality" />
		<tag k="ssr:stedsnr" v="123477" />
	</node>
	<node id="-1751" lat="59.1679638897" lon="11.552425007">
		<tag k="fixme" v="consider natural=peak for the most distinct mountains in the district" />
		<tag k="name" v="Kakeløskollen" />
		<tag k="natural" v="hill" />
		<tag k="place" v="locality" />
		<tag k="ssr:stedsnr" v="123114" />
	</node>
	<node id="-1749" lat="59.1414555554" lon="11.5789666632">
		<tag k="name" v="Furumokasene" />
		<tag k="place" v="locality" />
		<tag k="ssr:stedsnr" v="123014" />
	</node>
	<node id="-1744" lat="59.2349083319" lon="11.3220833403">
		<tag k="alt_name" v="Haglundåsen" />
		<tag k="fixme" v="consider natural=peak for the most distinct mountains in the district" />
		<tag k="name" v="Hagelundåsen" />
		<tag k="natural" v="hill" />
		<tag k="place" v="locality" />
		<tag k="ssr:stedsnr" v="122916" />
	</node>
	<node id="-1733" lat="58.8985666655" lon="11.5619666613">
		<tag k="fixme" v="consider natural=peak for the most distinct mountains in the district" />
		<tag k="name" v="Holtene" />
		<tag k="natural" v="hill" />
		<tag k="place" v="locality" />
		<tag k="ssr:stedsnr" v="122263" />
	</node>
	<node id="-1724" lat="59.2205416659" lon="11.5681638885">
		<tag k="alt_name" v="Blåkollen" />
		<tag k="fixme" v="consider natural=peak for the most distinct mountains in the district" />
		<tag k="name" v="Blåknoll" />
		<tag k="natural" v="hill" />
		<tag k="place" v="locality" />
		<tag k="ssr:stedsnr" v="122136" />
	</node>
	<node id="-1723" lat="58.9067222248" lon="11.4590194487">
		<tag k="fixme" v="consider natural=peak for the most distinct mountains in the district" />
		<tag k="name" v="Blåkollen" />
		<tag k="natural" v="hill" />
		<tag k="place" v="locality" />
		<tag k="ssr:stedsnr" v="122130" />
	</node>
	<node id="-1710" lat="59.0831055518" lon="11.5662444427">
		<tag k="name" v="Langkloppdal" />
		<tag k="natural" v="valley" />
		<tag k="place" v="locality" />
		<tag k="ssr:stedsnr" v="111976" />
	</node>
	<node id="-1708" lat="59.0899722247" lon="11.4998166696">
		<tag k="fixme" v="consider natural=peak for the most distinct mountains in the district" />
		<tag k="name" v="Skårefjell" />
		<tag k="natural" v="hill" />
		<tag k="place" v="locality" />
		<tag k="ssr:stedsnr" v="111969" />
	</node>
	<node id="-1704" lat="59.0025499972" lon="11.6083972227">
		<tag k="fixme" v="consider natural=peak for the most distinct mountains in the district" />
		<tag k="name" v="Storfjellet" />
		<tag k="natural" v="hill" />
		<tag k="place" v="locality" />
		<tag k="ssr:stedsnr" v="111931" />
	</node>
	<node id="-1703" lat="58.9825916655" lon="11.5403111171">
		<tag k="fixme" v="consider natural=peak for the most distinct mountains in the district" />
		<tag k="name" v="Nøteklev" />
		<tag k="natural" v="hill" />
		<tag k="place" v="locality" />
		<tag k="ssr:stedsnr" v="111926" />
	</node>
	<node id="-1697" lat="58.9906138876" lon="11.5030194452">
		<tag k="fixme" v="consider natural=peak for the most distinct mountains in the district" />
		<tag k="name" v="Revåsen" />
		<tag k="natural" v="hill" />
		<tag k="place" v="locality" />
		<tag k="ssr:stedsnr" v="111892" />
	</node>
	<node id="-1696" lat="59.2452027778" lon="11.3822722232">
		<tag k="fixme" v="consider natural=peak for the most distinct mountains in the district" />
		<tag k="name" v="Festningsåsen" />
		<tag k="natural" v="hill" />
		<tag k="place" v="locality" />
		<tag k="ssr:stedsnr" v="111864" />
	</node>
	<node id="-1691" lat="59.0224749998" lon="11.591086118">
		<tag k="name" v="Fagerliene" />
		<tag k="natural" v="slope" />
		<tag k="place" v="locality" />
		<tag k="ssr:stedsnr" v="111725" />
	</node>
	<node id="-1679" lat="59.0976722249" lon="11.6479277835">
		<tag k="fixme" v="consider natural=peak for the most distinct mountains in the district" />
		<tag k="name" v="Orrebergøfse" />
		<tag k="natural" v="hill" />
		<tag k="place" v="locality" />
		<tag k="ssr:stedsnr" v="111621" />
	</node>
	<node id="-1675" lat="58.9328166673" lon="11.608883331">
		<tag k="name" v="Revehidalen" />
		<tag k="natural" v="valley" />
		<tag k="place" v="locality" />
		<tag k="ssr:stedsnr" v="111601" />
	</node>
	<node id="-1673" lat="59.1049527762" lon="11.6380777754">
		<tag k="fixme" v="consider natural=peak for the most distinct mountains in the district" />
		<tag k="name" v="Dullemyrøfse" />
		<tag k="natural" v="hill" />
		<tag k="place" v="locality" />
		<tag k="ssr:stedsnr" v="111586" />
	</node>
	<node id="-1668" lat="58.9358444428" lon="11.5452333395">
		<tag k="name" v="Blåtjerndalen" />
		<tag k="natural" v="valley" />
		<tag k="place" v="locality" />
		<tag k="ssr:stedsnr" v="111570" />
	</node>
	<node id="-1663" lat="59.0779805597" lon="11.5564000049">
		<tag k="name" v="Ørdalsøfse" />
		<tag k="natural" v="hill" />
		<tag k="place" v="locality" />
		<tag k="ssr:stedsnr" v="111524" />
	</node>
	<node id="-1654" lat="59.1511222239" lon="11.6321000044">
		<tag k="fixme" v="consider natural=peak for the most distinct mountains in the district" />
		<tag k="name" v="Stensåsen" />
		<tag k="natural" v="hill" />
		<tag k="place" v="locality" />
		<tag k="ssr:stedsnr" v="111480" />
	</node>
	<node id="-1652" lat="59.1187499975" lon="11.3482888818">
		<tag k="name" v="Ravneberget" />
		<tag k="natural" v="hill" />
		<tag k="place" v="locality" />
		<tag k="ssr:stedsnr" v="103833" />
	</node>
	<node id="-1639" lat="59.1237750035" lon="11.4104111079">
		<tag k="name" v="Bondebakken" />
		<tag k="natural" v="slope" />
		<tag k="place" v="locality" />
		<tag k="ssr:stedsnr" v="83838" />
	</node>
	<node id="-1635" lat="59.0878027756" lon="11.3982666718">
		<tag k="fixme" v="consider natural=peak for the most distinct mountains in the district" />
		<tag k="name" v="Hovsfjellet" />
		<tag k="natural" v="hill" />
		<tag k="place" v="locality" />
		<tag k="ssr:stedsnr" v="83796" />
	</node>
	<node id="-1632" lat="59.0402027753" lon="11.4220138973">
		<tag k="name" v="Fløberget" />
		<tag k="natural" v="hill" />
		<tag k="place" v="locality" />
		<tag k="ssr:stedsnr" v="83756" />
	</node>
	<node id="-1630" lat="59.0096611121" lon="11.4607583338">
		<tag k="name" v="Brattvoll" />
		<tag k="place" v="locality" />
		<tag k="ssr:stedsnr" v="83226" />
	</node>
	<node id="-1627" lat="59.1214222242" lon="11.2713888945">
		<tag k="fixme" v="consider natural=peak for the most distinct mountains in the district" />
		<tag k="name" v="Vestgårdåsen" />
		<tag k="natural" v="hill" />
		<tag k="place" v="locality" />
		<tag k="ssr:stedsnr" v="83057" />
	</node>
	<node id="-1624" lat="59.1626527757" lon="11.2524527778">
		<tag k="fixme" v="consider natural=peak for the most distinct mountains in the district" />
		<tag k="name" v="Rynningen" />
		<tag k="natural" v="hill" />
		<tag k="place" v="locality" />
		<tag k="ssr:stedsnr" v="83037" />
	</node>
	<node id="-3666" lat="59.0118138854" lon="11.5674472179">
		<tag k="fixme" v="consider natural=peak for the most distinct mountains in the district" />
		<tag k="name" v="Flintskallen" />
		<tag k="natural" v="hill" />
		<tag k="place" v="locality" />
		<tag k="ssr:stedsnr" v="961996" />
	</node>
	<node id="-1614" lat="59.2576499985" lon="11.5512555608">
		<tag k="fixme" v="multiple name tags, choose one and add the other to alt_name" />
		<tag k="name" v="Lauvlunddalen;Vargedalen" />
		<tag k="natural" v="valley" />
		<tag k="place" v="locality" />
		<tag k="ssr:stedsnr" v="64755" />
	</node>
	<node id="-1145" lat="58.9925083297" lon="11.6729611121">
		<tag k="fixme" v="consider natural=peak for the most distinct mountains in the district" />
		<tag k="name" v="Elis kolle" />
		<tag k="natural" v="hill" />
		<tag k="place" v="locality" />
		<tag k="ssr:stedsnr" v="354650" />
	</node>
	<node id="-3657" lat="58.9760361134" lon="11.5291611062">
		<tag k="fixme" v="consider natural=peak for the most distinct mountains in the district" />
		<tag k="name" v="Åsekollen" />
		<tag k="natural" v="hill" />
		<tag k="place" v="locality" />
		<tag k="ssr:stedsnr" v="961946" />
	</node>
	<node id="-3656" lat="58.9929638922" lon="11.5628722217">
		<tag k="name" v="Bukkedalen" />
		<tag k="natural" v="valley" />
		<tag k="place" v="locality" />
		<tag k="ssr:stedsnr" v="961942" />
	</node>
	<node id="-3655" lat="58.9949444452" lon="11.5713444447">
		<tag k="fixme" v="consider natural=peak for the most distinct mountains in the district" />
		<tag k="name" v="Prestemoskollen" />
		<tag k="natural" v="hill" />
		<tag k="place" v="locality" />
		<tag k="ssr:stedsnr" v="961940" />
	</node>
	<node id="-3649" lat="59.2434638914" lon="11.3771694386">
		<tag k="fixme" v="consider natural=peak for the most distinct mountains in the district" />
		<tag k="name" v="Røsekollen" />
		<tag k="natural" v="hill" />
		<tag k="place" v="locality" />
		<tag k="ssr:stedsnr" v="961897" />
	</node>
	<node id="-1599" lat="59.1646999975" lon="11.5700777698">
		<tag k="name" v="Lausdalen" />
		<tag k="natural" v="valley" />
		<tag k="place" v="locality" />
		<tag k="ssr:stedsnr" v="63126" />
	</node>
	<node id="-3645" lat="58.9125861078" lon="11.471491669">
		<tag k="fixme" v="consider natural=peak for the most distinct mountains in the district" />
		<tag k="name" v="Signebøenfjellet" />
		<tag k="natural" v="hill" />
		<tag k="place" v="locality" />
		<tag k="ssr:stedsnr" v="961815" />
	</node>
	<node id="-3644" lat="59.01889167" lon="11.5968972191">
		<tag k="fixme" v="consider natural=peak for the most distinct mountains in the district" />
		<tag k="name" v="Brunkollen" />
		<tag k="natural" v="hill" />
		<tag k="place" v="locality" />
		<tag k="ssr:stedsnr" v="961803" />
	</node>
	<node id="-1595" lat="59.1278472187" lon="11.5934861027">
		<tag k="name" v="Stuedalen" />
		<tag k="natural" v="valley" />
		<tag k="place" v="locality" />
		<tag k="ssr:stedsnr" v="63051" />
	</node>
	<node id="-1594" lat="59.1425444469" lon="11.5456833251">
		<tag k="fixme" v="consider natural=peak for the most distinct mountains in the district" />
		<tag k="name" v="Skilleveimyrås" />
		<tag k="natural" v="hill" />
		<tag k="place" v="locality" />
		<tag k="ssr:stedsnr" v="63031" />
	</node>
	<node id="-1586" lat="58.9606861118" lon="11.5196000066">
		<tag k="fixme" v="consider natural=peak for the most distinct mountains in the district" />
		<tag k="name" v="Revåskallen" />
		<tag k="natural" v="hill" />
		<tag k="place" v="locality" />
		<tag k="ssr:stedsnr" v="62846" />
	</node>
	<node id="-3633" lat="58.9696555578" lon="11.6110777838">
		<tag k="fixme" v="consider natural=peak for the most distinct mountains in the district" />
		<tag k="name" v="Høljekollene" />
		<tag k="natural" v="hill" />
		<tag k="place" v="locality" />
		<tag k="ssr:stedsnr" v="961648" />
	</node>
	<node id="-1584" lat="58.9605666654" lon="11.4984583389">
		<tag k="alt_name" v="Ålegårdskollene" />
		<tag k="fixme" v="consider natural=peak for the most distinct mountains in the district" />
		<tag k="name" v="Ålgårdskollen" />
		<tag k="natural" v="hill" />
		<tag k="place" v="locality" />
		<tag k="ssr:stedsnr" v="62841" />
	</node>
	<node id="-1579" lat="58.9806527777" lon="11.4564833386">
		<tag k="fixme" v="multiple name tags, choose one and add the other to alt_name; consider natural=peak for the most distinct mountains in the district" />
		<tag k="name" v="Stenbudalsåsen;Stenbudalskollen" />
		<tag k="natural" v="hill" />
		<tag k="place" v="locality" />
		<tag k="ssr:stedsnr" v="62810" />
	</node>
	<node id="-3625" lat="58.9847194425" lon="11.560486106">
		<tag k="fixme" v="consider natural=peak for the most distinct mountains in the district" />
		<tag k="name" v="Korpeberget" />
		<tag k="natural" v="hill" />
		<tag k="place" v="locality" />
		<tag k="ssr:stedsnr" v="961606" />
	</node>
	<node id="-3621" lat="58.9470805536" lon="11.5659194409">
		<tag k="name" v="Delesdalen" />
		<tag k="natural" v="valley" />
		<tag k="place" v="locality" />
		<tag k="ssr:stedsnr" v="961590" />
	</node>
	<node id="-1568" lat="59.1102777774" lon="11.5545055507">
		<tag k="alt_name" v="Siljedalen" />
		<tag k="name" v="Seljedalen" />
		<tag k="natural" v="valley" />
		<tag k="place" v="locality" />
		<tag k="ssr:stedsnr" v="62466" />
	</node>
	<node id="-1562" lat="59.0025194436" lon="11.6691694516">
		<tag k="name" v="Hellebekkmoen" />
		<tag k="place" v="locality" />
		<tag k="ssr:stedsnr" v="62308" />
	</node>
	<node id="-1556" lat="59.2124888851" lon="11.5167250002">
		<tag k="name" v="Oterhaug" />
		<tag k="natural" v="hill" />
		<tag k="place" v="locality" />
		<tag k="ssr:stedsnr" v="62151" />
	</node>
	<node id="-3601" lat="59.2363222227" lon="11.4280861179">
		<tag k="name" v="Krokdalen" />
		<tag k="natural" v="valley" />
		<tag k="place" v="locality" />
		<tag k="ssr:stedsnr" v="933890" />
	</node>
	<node id="-3600" lat="59.1752527741" lon="11.4861027791">
		<tag k="fixme" v="consider natural=peak for the most distinct mountains in the district" />
		<tag k="name" v="Fuglevikåsen" />
		<tag k="natural" v="hill" />
		<tag k="place" v="locality" />
		<tag k="ssr:stedsnr" v="933876" />
	</node>
	<node id="-1547" lat="59.0535166652" lon="11.4287666727">
		<tag k="name" v="Svinndalen" />
		<tag k="natural" v="valley" />
		<tag k="place" v="locality" />
		<tag k="ssr:stedsnr" v="60012" />
	</node>
	<node id="-3593" lat="59.1541250016" lon="11.4596111131">
		<tag k="fixme" v="consider natural=peak for the most distinct mountains in the district" />
		<tag k="name" v="Kullås" />
		<tag k="natural" v="hill" />
		<tag k="place" v="locality" />
		<tag k="ssr:stedsnr" v="933825" />
	</node>
	<node id="-3590" lat="59.0795249986" lon="11.4061666634">
		<tag k="name" v="Nyheim" />
		<tag k="natural" v="hill" />
		<tag k="place" v="locality" />
		<tag k="ssr:stedsnr" v="933812" />
	</node>
	<node id="-1541" lat="59.0185027816" lon="11.6532500015">
		<tag k="name" v="Kloppmyrhaugene" />
		<tag k="natural" v="hill" />
		<tag k="place" v="locality" />
		<tag k="ssr:stedsnr" v="51942" />
	</node>
	<node id="-1539" lat="59.2259361098" lon="11.3663611188">
		<tag k="name" v="Alfardal" />
		<tag k="natural" v="valley" />
		<tag k="place" v="locality" />
		<tag k="ssr:stedsnr" v="51826" />
	</node>
	<node id="-3585" lat="59.0985583309" lon="11.3911527751">
		<tag k="alt_name" v="Ørnerøset" />
		<tag k="fixme" v="consider natural=peak for the most distinct mountains in the district" />
		<tag k="name" v="Ørnerøs" />
		<tag k="natural" v="hill" />
		<tag k="place" v="locality" />
		<tag k="ssr:stedsnr" v="933784" />
	</node>
	<node id="-3584" lat="59.0117444407" lon="11.4834222306">
		<tag k="fixme" v="consider natural=peak for the most distinct mountains in the district" />
		<tag k="name" v="Trottsmetten" />
		<tag k="natural" v="hill" />
		<tag k="place" v="locality" />
		<tag k="ssr:stedsnr" v="933238" />
	</node>
	<node id="-3583" lat="59.1243583371" lon="11.3793888873">
		<tag k="fixme" v="consider natural=peak for the most distinct mountains in the district" />
		<tag k="name" v="Rødsberget" />
		<tag k="natural" v="hill" />
		<tag k="place" v="locality" />
		<tag k="ssr:stedsnr" v="933201" />
	</node>
	<node id="-1523" lat="59.0511444447" lon="11.6397222149">
		<tag k="fixme" v="consider natural=peak for the most distinct mountains in the district" />
		<tag k="name" v="Vargbergene" />
		<tag k="natural" v="hill" />
		<tag k="place" v="locality" />
		<tag k="ssr:stedsnr" v="51572" />
	</node>
	<node id="-3570" lat="59.120219442" lon="11.3023388829">
		<tag k="name" v="Linekerberget" />
		<tag k="natural" v="hill" />
		<tag k="place" v="locality" />
		<tag k="ssr:stedsnr" v="932209" />
	</node>
	<node id="-3569" lat="59.1999527815" lon="11.3692944507">
		<tag k="fixme" v="consider natural=peak for the most distinct mountains in the district" />
		<tag k="name" v="Festningsåsen" />
		<tag k="natural" v="hill" />
		<tag k="place" v="locality" />
		<tag k="ssr:stedsnr" v="932202" />
	</node>
	<node id="-3565" lat="58.9606944448" lon="11.4615666641">
		<tag k="name" v="Gaffeldalen" />
		<tag k="natural" v="valley" />
		<tag k="place" v="locality" />
		<tag k="ssr:stedsnr" v="932170" />
	</node>
	<node id="-3563" lat="59.1035444443" lon="11.2908277801">
		<tag k="name" v="Kastet" />
		<tag k="natural" v="slope" />
		<tag k="place" v="locality" />
		<tag k="ssr:stedsnr" v="932166" />
	</node>
	<node id="-1511" lat="59.0855027792" lon="11.5181888915">
		<tag k="fixme" v="consider natural=peak for the most distinct mountains in the district" />
		<tag k="name" v="Storhaug" />
		<tag k="natural" v="hill" />
		<tag k="place" v="locality" />
		<tag k="ssr:stedsnr" v="50884" />
	</node>
	<node id="-3557" lat="59.1381750005" lon="11.570172222">
		<tag k="alt_name" v="Abbortjernhøyda" />
		<tag k="fixme" v="consider natural=peak for the most distinct mountains in the district" />
		<tag k="name" v="Abbortjernhøgda" />
		<tag k="natural" v="hill" />
		<tag k="place" v="locality" />
		<tag k="ssr:stedsnr" v="913021" />
	</node>
	<node id="-1275" lat="59.0970194485" lon="11.3866416628">
		<tag k="name" v="Fiskeklev" />
		<tag k="natural" v="slope" />
		<tag k="place" v="locality" />
		<tag k="ssr:stedsnr" v="386177" />
	</node>
	<node id="-3532" lat="59.057177777" lon="11.5322499977">
		<tag k="fixme" v="multiple name tags, choose one and add the other to alt_name; consider natural=peak for the most distinct mountains in the district" />
		<tag k="name" v="Brutjernkollen;Brytjernskollene" />
		<tag k="natural" v="hill" />
		<tag k="place" v="locality" />
		<tag k="ssr:stedsnr" v="912404" />
	</node>
	<node id="-3529" lat="59.0227583333" lon="11.5836500008">
		<tag k="alt_name" v="Fugleleken" />
		<tag k="name" v="Fugleleiken" />
		<tag k="natural" v="hill" />
		<tag k="place" v="locality" />
		<tag k="ssr:stedsnr" v="912343" />
	</node>
	<node id="-3528" lat="59.0276916656" lon="11.4827416694">
		<tag k="alt_name" v="Vardåsen" />
		<tag k="fixme" v="consider natural=peak for the most distinct mountains in the district" />
		<tag k="name" v="Vardeåsen" />
		<tag k="natural" v="hill" />
		<tag k="place" v="locality" />
		<tag k="ssr:stedsnr" v="912300" />
	</node>
	<node id="-1472" lat="59.0158138878" lon="11.4642750085">
		<tag k="name" v="Bjørnhaugen" />
		<tag k="natural" v="hill" />
		<tag k="place" v="locality" />
		<tag k="ssr:stedsnr" v="22167" />
	</node>
	<node id="-1464" lat="58.9737499993" lon="11.4829972255">
		<tag k="name" v="Brakka" />
		<tag k="natural" v="slope" />
		<tag k="place" v="locality" />
		<tag k="ssr:stedsnr" v="22133" />
	</node>
	<node id="-3503" lat="59.0141222223" lon="11.5796388903">
		<tag k="alt_name" v="Løvåskollen" />
		<tag k="fixme" v="consider natural=peak for the most distinct mountains in the district" />
		<tag k="name" v="Løvås" />
		<tag k="natural" v="hill" />
		<tag k="place" v="locality" />
		<tag k="ssr:stedsnr" v="911346" />
	</node>
	<node id="-1448" lat="58.9606249978" lon="11.6292138864">
		<tag k="alt_name" v="Haugbergfjell" />
		<tag k="fixme" v="consider natural=peak for the most distinct mountains in the district" />
		<tag k="name" v="Haugbergfjellet" />
		<tag k="natural" v="hill" />
		<tag k="place" v="locality" />
		<tag k="ssr:stedsnr" v="2809" />
	</node>
	<node id="-1441" lat="59.024297224" lon="11.5062361063">
		<tag k="alt_name" v="Snesås" />
		<tag k="fixme" v="consider natural=peak for the most distinct mountains in the district" />
		<tag k="name" v="Snesåsen" />
		<tag k="natural" v="hill" />
		<tag k="place" v="locality" />
		<tag k="ssr:stedsnr" v="2356" />
	</node>
	<node id="-3488" lat="59.0156416637" lon="11.5917916737">
		<tag k="name" v="Ørredalen" />
		<tag k="natural" v="valley" />
		<tag k="place" v="locality" />
		<tag k="ssr:stedsnr" v="900996" />
	</node>
	<node id="-1437" lat="59.1611055591" lon="11.5537333412">
		<tag k="alt_name" v="Høyrøys" />
		<tag k="fixme" v="consider natural=peak for the most distinct mountains in the district" />
		<tag k="name" v="Høyrøs" />
		<tag k="natural" v="hill" />
		<tag k="place" v="locality" />
		<tag k="ssr:stedsnr" v="2108" />
	</node>
	<node id="-3481" lat="58.9288916638" lon="11.4748277837">
		<tag k="fixme" v="consider natural=peak for the most distinct mountains in the district" />
		<tag k="name" v="Røssåsen" />
		<tag k="natural" v="hill" />
		<tag k="place" v="locality" />
		<tag k="ssr:stedsnr" v="900901" />
	</node>
	<node id="-1432" lat="59.2000249998" lon="11.3925749988">
		<tag k="fixme" v="consider natural=peak for the most distinct mountains in the district" />
		<tag k="name" v="Breidlihøgda" />
		<tag k="natural" v="hill" />
		<tag k="place" v="locality" />
		<tag k="ssr:stedsnr" v="1992" />
	</node>
	<node id="-3478" lat="58.9119638869" lon="11.4959722158">
		<tag k="fixme" v="consider natural=peak for the most distinct mountains in the district" />
		<tag k="name" v="Smedsrødkollen" />
		<tag k="natural" v="hill" />
		<tag k="place" v="locality" />
		<tag k="ssr:stedsnr" v="900788" />
	</node>
	<node id="-3477" lat="59.0732194415" lon="11.5416861144">
		<tag k="fixme" v="consider natural=peak for the most distinct mountains in the district" />
		<tag k="name" v="Kuleåsen" />
		<tag k="natural" v="hill" />
		<tag k="place" v="locality" />
		<tag k="ssr:stedsnr" v="900783" />
	</node>
	<node id="-1426" lat="58.9678999985" lon="11.5906583408">
		<tag k="alt_name" v="Ekeliåsen" />
		<tag k="fixme" v="consider natural=peak for the most distinct mountains in the district" />
		<tag k="name" v="Eikeliåsen" />
		<tag k="natural" v="hill" />
		<tag k="place" v="locality" />
		<tag k="ssr:stedsnr" v="1842" />
	</node>
	<node id="-1420" lat="59.1132111115" lon="11.5529250056">
		<tag k="fixme" v="consider natural=peak for the most distinct mountains in the district" />
		<tag k="name" v="Haugfjell" />
		<tag k="natural" v="hill" />
		<tag k="place" v="locality" />
		<tag k="ssr:stedsnr" v="1472" />
	</node>
	<node id="-1411" lat="59.0540138908" lon="11.6470416601">
		<tag k="alt_name" v="Lalifjell" />
		<tag k="fixme" v="consider natural=peak for the most distinct mountains in the district" />
		<tag k="name" v="Lalifjellet" />
		<tag k="natural" v="hill" />
		<tag k="place" v="locality" />
		<tag k="ssr:stedsnr" v="1382" />
	</node>
	<node id="-1410" lat="59.0097500011" lon="11.5781444514">
		<tag k="fixme" v="consider natural=peak for the most distinct mountains in the district" />
		<tag k="name" v="Vardås" />
		<tag k="natural" v="hill" />
		<tag k="place" v="locality" />
		<tag k="ssr:stedsnr" v="1322" />
	</node>
	<node id="-1406" lat="59.0895749996" lon="11.4500277777">
		<tag k="alt_name" v="Torsås" />
		<tag k="fixme" v="consider natural=peak for the most distinct mountains in the district" />
		<tag k="name" v="Torsåsen" />
		<tag k="natural" v="hill" />
		<tag k="place" v="locality" />
		<tag k="ssr:stedsnr" v="1204" />
	</node>
	<node id="-3451" lat="59.0757249988" lon="11.5758861052">
		<tag k="fixme" v="consider natural=peak for the most distinct mountains in the district" />
		<tag k="name" v="Deleås" />
		<tag k="natural" v="hill" />
		<tag k="place" v="locality" />
		<tag k="ssr:stedsnr" v="900552" />
	</node>
	<node id="-3448" lat="59.0413805587" lon="11.6510388969">
		<tag k="fixme" v="consider natural=peak for the most distinct mountains in the district" />
		<tag k="name" v="Kroktjernhaugen" />
		<tag k="natural" v="hill" />
		<tag k="place" v="locality" />
		<tag k="ssr:stedsnr" v="900536" />
	</node>
	<node id="-3441" lat="59.2071194456" lon="11.3974333302">
		<tag k="fixme" v="consider natural=peak for the most distinct mountains in the district" />
		<tag k="name" v="Femtjernåsen" />
		<tag k="natural" v="hill" />
		<tag k="place" v="locality" />
		<tag k="ssr:stedsnr" v="872864" />
	</node>
	<node id="-3439" lat="59.192049999" lon="11.464677775">
		<tag k="fixme" v="consider natural=peak for the most distinct mountains in the district" />
		<tag k="name" v="Kaldmyrhøyda" />
		<tag k="natural" v="hill" />
		<tag k="place" v="locality" />
		<tag k="ssr:stedsnr" v="872852" />
	</node>
	<node id="-3434" lat="59.1526750014" lon="11.4010666598">
		<tag k="fixme" v="consider natural=peak for the most distinct mountains in the district" />
		<tag k="name" v="Gøperødåsen" />
		<tag k="natural" v="hill" />
		<tag k="place" v="locality" />
		<tag k="ssr:stedsnr" v="872820" />
	</node>
	<node id="-3433" lat="59.1593027766" lon="11.3931750002">
		<tag k="fixme" v="consider natural=peak for the most distinct mountains in the district" />
		<tag k="name" v="Eikeliåsen" />
		<tag k="natural" v="hill" />
		<tag k="place" v="locality" />
		<tag k="ssr:stedsnr" v="872818" />
	</node>
	<node id="-1596" lat="59.1174805586" lon="11.5273861158">
		<tag k="alt_name" v="Kasethaugen" />
		<tag k="name" v="Kalsethaug" />
		<tag k="natural" v="hill" />
		<tag k="place" v="locality" />
		<tag k="ssr:stedsnr" v="63067" />
	</node>
	<node id="-3423" lat="59.1739666645" lon="11.3221083395">
		<tag k="fixme" v="consider natural=peak for the most distinct mountains in the district" />
		<tag k="name" v="Lindemørkåsen" />
		<tag k="natural" v="hill" />
		<tag k="place" v="locality" />
		<tag k="ssr:stedsnr" v="872207" />
	</node>
	<node id="-3422" lat="59.2035361154" lon="11.3803583256">
		<tag k="name" v="Vassdalen" />
		<tag k="natural" v="valley" />
		<tag k="place" v="locality" />
		<tag k="ssr:stedsnr" v="872208" />
	</node>
	<node id="-3421" lat="59.0335499987" lon="11.4833305499">
		<tag k="name" v="Rebudalen" />
		<tag k="natural" v="valley" />
		<tag k="place" v="locality" />
		<tag k="ssr:stedsnr" v="872199" />
	</node>
	<node id="-3417" lat="59.1226777813" lon="11.2478999954">
		<tag k="fixme" v="consider natural=peak for the most distinct mountains in the district" />
		<tag k="name" v="Grevlingåsen" />
		<tag k="natural" v="hill" />
		<tag k="place" v="locality" />
		<tag k="ssr:stedsnr" v="872054" />
	</node>
	<node id="-3413" lat="59.1005027792" lon="11.2225694451">
		<tag k="fixme" v="consider natural=peak for the most distinct mountains in the district" />
		<tag k="name" v="Korterødfjella" />
		<tag k="natural" v="hill" />
		<tag k="place" v="locality" />
		<tag k="ssr:stedsnr" v="872010" />
	</node>
	<node id="-3410" lat="58.950419441" lon="11.4910749972">
		<tag k="fixme" v="consider natural=peak for the most distinct mountains in the district" />
		<tag k="name" v="Bondehaugen" />
		<tag k="natural" v="hill" />
		<tag k="place" v="locality" />
		<tag k="ssr:stedsnr" v="871170" />
	</node>
	<node id="-3409" lat="58.9650444456" lon="11.491994441">
		<tag k="fixme" v="consider natural=peak for the most distinct mountains in the district" />
		<tag k="name" v="Nøtås" />
		<tag k="natural" v="hill" />
		<tag k="place" v="locality" />
		<tag k="ssr:stedsnr" v="871150" />
	</node>
	<node id="-3408" lat="58.9576722193" lon="11.4934833384">
		<tag k="name" v="Røsholtene" />
		<tag k="natural" v="slope" />
		<tag k="place" v="locality" />
		<tag k="ssr:stedsnr" v="871149" />
	</node>
	<node id="-3405" lat="58.9484472236" lon="11.5049194399">
		<tag k="alt_name" v="Tangås" />
		<tag k="fixme" v="consider natural=peak for the most distinct mountains in the district" />
		<tag k="name" v="Tangåsen" />
		<tag k="natural" v="hill" />
		<tag k="place" v="locality" />
		<tag k="ssr:stedsnr" v="852841" />
	</node>
	<node id="-1353" lat="59.0393527821" lon="11.598999992">
		<tag k="fixme" v="consider natural=peak for the most distinct mountains in the district" />
		<tag k="name" v="Brattliberget" />
		<tag k="natural" v="hill" />
		<tag k="place" v="locality" />
		<tag k="ssr:stedsnr" v="475973" />
	</node>
	<node id="-1345" lat="58.9950472189" lon="11.5638638832">
		<tag k="fixme" v="consider natural=peak for the most distinct mountains in the district" />
		<tag k="name" v="Bekmokollen" />
		<tag k="natural" v="hill" />
		<tag k="place" v="locality" />
		<tag k="ssr:stedsnr" v="475936" />
	</node>
	<node id="-1344" lat="58.9937111131" lon="11.5718777778">
		<tag k="name" v="Dypedal" />
		<tag k="natural" v="valley" />
		<tag k="place" v="locality" />
		<tag k="ssr:stedsnr" v="475928" />
	</node>
	<node id="-3390" lat="59.0314250022" lon="11.6861750036">
		<tag k="fixme" v="consider natural=peak for the most distinct mountains in the district" />
		<tag k="name" v="Rødhella" />
		<tag k="natural" v="hill" />
		<tag k="place" v="locality" />
		<tag k="ssr:stedsnr" v="852335" />
	</node>
	<node id="-1341" lat="59.2295222237" lon="11.3711694433">
		<tag k="fixme" v="consider natural=peak for the most distinct mountains in the district" />
		<tag k="name" v="Krabbedalsåsen" />
		<tag k="natural" v="hill" />
		<tag k="place" v="locality" />
		<tag k="ssr:stedsnr" v="475798" />
	</node>
	<node id="-3387" lat="59.1253055528" lon="11.50537777">
		<tag k="name" v="Blæsehøgda" />
		<tag k="natural" v="hill" />
		<tag k="place" v="locality" />
		<tag k="ssr:stedsnr" v="852052" />
	</node>
	<node id="-1333" lat="59.1312777777" lon="11.5967500026">
		<tag k="fixme" v="consider natural=peak for the most distinct mountains in the district" />
		<tag k="name" v="Stuedalsåsen" />
		<tag k="natural" v="hill" />
		<tag k="place" v="locality" />
		<tag k="ssr:stedsnr" v="475681" />
	</node>
	<node id="-3380" lat="59.2306999979" lon="11.358299993">
		<tag k="name" v="Krabbedalen" />
		<tag k="natural" v="valley" />
		<tag k="place" v="locality" />
		<tag k="ssr:stedsnr" v="851947" />
	</node>
	<node id="-3374" lat="59.1056750035" lon="11.4395000073">
		<tag k="fixme" v="consider natural=peak for the most distinct mountains in the district" />
		<tag k="name" v="Brattås" />
		<tag k="natural" v="hill" />
		<tag k="place" v="locality" />
		<tag k="ssr:stedsnr" v="851829" />
	</node>
	<node id="-3373" lat="58.9705027802" lon="11.5318111043">
		<tag k="fixme" v="consider natural=peak for the most distinct mountains in the district" />
		<tag k="name" v="Bergåsen" />
		<tag k="natural" v="hill" />
		<tag k="place" v="locality" />
		<tag k="ssr:stedsnr" v="851819" />
	</node>
	<node id="-3371" lat="58.9723916699" lon="11.5636083379">
		<tag k="fixme" v="consider natural=peak for the most distinct mountains in the district" />
		<tag k="name" v="Doktorseterfjellet" />
		<tag k="natural" v="hill" />
		<tag k="place" v="locality" />
		<tag k="ssr:stedsnr" v="851814" />
	</node>
	<node id="-1321" lat="59.0761277777" lon="11.569266664">
		<tag k="fixme" v="consider natural=peak for the most distinct mountains in the district" />
		<tag k="name" v="Bestemoråsen" />
		<tag k="natural" v="hill" />
		<tag k="place" v="locality" />
		<tag k="ssr:stedsnr" v="475548" />
	</node>
	<node id="-3367" lat="58.9820555574" lon="11.5984194388">
		<tag k="fixme" v="consider natural=peak for the most distinct mountains in the district" />
		<tag k="name" v="Kobblundåsen" />
		<tag k="natural" v="hill" />
		<tag k="place" v="locality" />
		<tag k="ssr:stedsnr" v="851798" />
	</node>
	<node id="-3363" lat="59.086299998" lon="11.5532666732">
		<tag k="alt_name" v="Boltetjernhøyden" />
		<tag k="name" v="Bordtjernhaugen" />
		<tag k="natural" v="hill" />
		<tag k="place" v="locality" />
		<tag k="ssr:stedsnr" v="851458" />
	</node>
	<node id="-3356" lat="59.0166749956" lon="11.4612500084">
		<tag k="fixme" v="consider natural=peak for the most distinct mountains in the district" />
		<tag k="name" v="Soverkollen" />
		<tag k="natural" v="hill" />
		<tag k="place" v="locality" />
		<tag k="ssr:stedsnr" v="851208" />
	</node>
	<node id="-3352" lat="59.190991666" lon="11.5489416691">
		<tag k="fixme" v="consider natural=peak for the most distinct mountains in the district" />
		<tag k="name" v="Mønsdalsåsen" />
		<tag k="natural" v="hill" />
		<tag k="place" v="locality" />
		<tag k="ssr:stedsnr" v="851084" />
	</node>
	<node id="-3350" lat="58.8945327054" lon="11.5352028016">
		<tag k="fixme" v="multiple name tags, choose one and add the other to alt_name; consider natural=peak for the most distinct mountains in the district" />
		<tag k="name" v="Grefsrødkollen;Grefsrødåsene" />
		<tag k="natural" v="hill" />
		<tag k="place" v="locality" />
		<tag k="ssr:stedsnr" v="850247" />
	</node>
	<node id="-3349" lat="58.9329972259" lon="11.4649805598">
		<tag k="fixme" v="consider natural=peak for the most distinct mountains in the district" />
		<tag k="name" v="Revekollen" />
		<tag k="natural" v="hill" />
		<tag k="place" v="locality" />
		<tag k="ssr:stedsnr" v="850186" />
	</node>
	<node id="-1300" lat="59.0152638898" lon="11.4772305522">
		<tag k="fixme" v="consider natural=peak for the most distinct mountains in the district" />
		<tag k="name" v="Vestfjellet" />
		<tag k="natural" v="hill" />
		<tag k="place" v="locality" />
		<tag k="ssr:stedsnr" v="245328" />
	</node>
	<node id="-1297" lat="59.0796527791" lon="11.4003333309">
		<tag k="fixme" v="consider natural=peak for the most distinct mountains in the district" />
		<tag k="name" v="Skiensåsen" />
		<tag k="natural" v="hill" />
		<tag k="place" v="locality" />
		<tag k="ssr:stedsnr" v="237418" />
	</node>
	<node id="-1291" lat="59.2250555573" lon="11.4159138898">
		<tag k="fixme" v="consider natural=peak for the most distinct mountains in the district" />
		<tag k="name" v="Merraåsen" />
		<tag k="natural" v="hill" />
		<tag k="place" v="locality" />
		<tag k="ssr:stedsnr" v="386863" />
	</node>
	<node id="-1290" lat="59.2426861067" lon="11.4778472246">
		<tag k="fixme" v="consider natural=peak for the most distinct mountains in the district" />
		<tag k="name" v="Tjørnevikåsen" />
		<tag k="natural" v="hill" />
		<tag k="place" v="locality" />
		<tag k="ssr:stedsnr" v="386852" />
	</node>
	<node id="-3332" lat="59.1622027762" lon="11.5390833329">
		<tag k="fixme" v="consider natural=peak for the most distinct mountains in the district" />
		<tag k="name" v="Brattås" />
		<tag k="natural" v="hill" />
		<tag k="place" v="locality" />
		<tag k="ssr:stedsnr" v="840979" />
	</node>
	<node id="-1238" lat="59.159419446" lon="11.5561055515">
		<tag k="fixme" v="consider natural=peak for the most distinct mountains in the district" />
		<tag k="name" v="Brattås" />
		<tag k="natural" v="hill" />
		<tag k="place" v="locality" />
		<tag k="ssr:stedsnr" v="366283" />
	</node>
	<node id="-1281" lat="59.0128638925" lon="11.4930666597">
		<tag k="name" v="Engkasa" />
		<tag k="natural" v="slope" />
		<tag k="place" v="locality" />
		<tag k="ssr:stedsnr" v="386238" />
	</node>
	<node id="-3323" lat="58.9879111075" lon="11.5061666675">
		<tag k="fixme" v="consider natural=peak for the most distinct mountains in the district" />
		<tag k="name" v="Revåsen" />
		<tag k="natural" v="hill" />
		<tag k="place" v="locality" />
		<tag k="ssr:stedsnr" v="840928" />
	</node>
	<node id="-1274" lat="59.1015305591" lon="11.283358333">
		<tag k="name" v="Gullringen" />
		<tag k="natural" v="slope" />
		<tag k="place" v="locality" />
		<tag k="ssr:stedsnr" v="386169" />
	</node>
	<node id="-3314" lat="59.0257472242" lon="11.6832611034">
		<tag k="fixme" v="consider natural=peak for the most distinct mountains in the district" />
		<tag k="name" v="Lille Bjørndalsåsen" />
		<tag k="natural" v="hill" />
		<tag k="place" v="locality" />
		<tag k="ssr:stedsnr" v="840760" />
	</node>
	<node id="-3310" lat="58.8948833318" lon="11.5236638881">
		<tag k="fixme" v="consider natural=peak for the most distinct mountains in the district" />
		<tag k="name" v="Svendshøy" />
		<tag k="natural" v="hill" />
		<tag k="place" v="locality" />
		<tag k="ssr:stedsnr" v="840750" />
	</node>
	<node id="-3309" lat="59.2218500036" lon="11.3897222222">
		<tag k="name" v="Leken" />
		<tag k="natural" v="hill" />
		<tag k="place" v="locality" />
		<tag k="ssr:stedsnr" v="840747" />
	</node>
	<node id="-3303" lat="59.2059944477" lon="11.5773027813">
		<tag k="name" v="Kroksrøddalen" />
		<tag k="natural" v="valley" />
		<tag k="place" v="locality" />
		<tag k="ssr:stedsnr" v="840718" />
	</node>
	<node id="-1248" lat="59.1001000005" lon="11.6385611097">
		<tag k="alt_name" v="Bjellås" />
		<tag k="fixme" v="consider natural=peak for the most distinct mountains in the district" />
		<tag k="name" v="Bjellåsen" />
		<tag k="natural" v="hill" />
		<tag k="place" v="locality" />
		<tag k="ssr:stedsnr" v="366457" />
	</node>
	<node id="-1243" lat="59.0374722198" lon="11.6602222142">
		<tag k="alt_name" v="Bofarhaugene" />
		<tag k="name" v="Bufarhaugen" />
		<tag k="natural" v="hill" />
		<tag k="place" v="locality" />
		<tag k="ssr:stedsnr" v="366428" />
	</node>
	<node id="-1242" lat="59.0284861138" lon="11.6798333337">
		<tag k="name" v="Bjørndalen" />
		<tag k="natural" v="valley" />
		<tag k="place" v="locality" />
		<tag k="ssr:stedsnr" v="366422" />
	</node>
	<node id="-3286" lat="58.9830999985" lon="11.6343916633">
		<tag k="fixme" v="consider natural=peak for the most distinct mountains in the district" />
		<tag k="name" v="Munkekollen" />
		<tag k="natural" v="hill" />
		<tag k="place" v="locality" />
		<tag k="ssr:stedsnr" v="840635" />
	</node>
	<node id="-1232" lat="59.125394442" lon="11.6066666621">
		<tag k="fixme" v="consider natural=peak for the most distinct mountains in the district" />
		<tag k="name" v="Elgsmyrøfse" />
		<tag k="natural" v="hill" />
		<tag k="place" v="locality" />
		<tag k="ssr:stedsnr" v="366041" />
	</node>
	<node id="-1224" lat="59.227950003" lon="11.4072499947">
		<tag k="fixme" v="consider natural=peak for the most distinct mountains in the district" />
		<tag k="name" v="Betaåsen" />
		<tag k="natural" v="hill" />
		<tag k="place" v="locality" />
		<tag k="ssr:stedsnr" v="365945" />
	</node>
	<node id="-1223" lat="59.2288694415" lon="11.3136111038">
		<tag k="alt_name" v="Akselås" />
		<tag k="fixme" v="consider natural=peak for the most distinct mountains in the district" />
		<tag k="name" v="Akselåsen" />
		<tag k="natural" v="hill" />
		<tag k="place" v="locality" />
		<tag k="ssr:stedsnr" v="365944" />
	</node>
	<node id="-1221" lat="59.2210750033" lon="11.3917000026">
		<tag k="fixme" v="consider natural=peak for the most distinct mountains in the district" />
		<tag k="name" v="Århanaleiken" />
		<tag k="natural" v="hill" />
		<tag k="place" v="locality" />
		<tag k="ssr:stedsnr" v="365924" />
	</node>
	<node id="-1220" lat="59.2125250006" lon="11.3808750082">
		<tag k="fixme" v="consider natural=peak for the most distinct mountains in the district" />
		<tag k="name" v="Tiurleiken" />
		<tag k="natural" v="hill" />
		<tag k="place" v="locality" />
		<tag k="ssr:stedsnr" v="365915" />
	</node>
	<node id="-3264" lat="59.2350722196" lon="11.4343777771">
		<tag k="fixme" v="consider natural=peak for the most distinct mountains in the district" />
		<tag k="name" v="Flaggfjellet" />
		<tag k="natural" v="hill" />
		<tag k="place" v="locality" />
		<tag k="ssr:stedsnr" v="811830" />
	</node>
	<node id="-3261" lat="59.1785194468" lon="11.4268472311">
		<tag k="name" v="Brannfjell" />
		<tag k="natural" v="hill" />
		<tag k="place" v="locality" />
		<tag k="ssr:stedsnr" v="811816" />
	</node>
	<node id="-1210" lat="58.9795944451" lon="11.6726388855">
		<tag k="fixme" v="consider natural=peak for the most distinct mountains in the district" />
		<tag k="name" v="Kasegårdene" />
		<tag k="natural" v="hill" />
		<tag k="place" v="locality" />
		<tag k="ssr:stedsnr" v="365830" />
	</node>
	<node id="-3254" lat="59.157369443" lon="11.4520861083">
		<tag k="fixme" v="consider natural=peak for the most distinct mountains in the district" />
		<tag k="name" v="Båtberget" />
		<tag k="natural" v="hill" />
		<tag k="place" v="locality" />
		<tag k="ssr:stedsnr" v="811781" />
	</node>
	<node id="-3253" lat="59.0936444423" lon="11.4783611087">
		<tag k="name" v="Ankersporet" />
		<tag k="place" v="locality" />
		<tag k="ssr:stedsnr" v="811778" />
	</node>
	<node id="-3252" lat="59.0936166704" lon="11.4452138827">
		<tag k="name" v="Dyene" />
		<tag k="natural" v="slope" />
		<tag k="place" v="locality" />
		<tag k="ssr:stedsnr" v="811771" />
	</node>
	<node id="-3250" lat="59.0783611131" lon="11.3981638824">
		<tag k="name" v="Fjordli" />
		<tag k="natural" v="slope" />
		<tag k="place" v="locality" />
		<tag k="ssr:stedsnr" v="811756" />
	</node>
	<node id="-1198" lat="58.889855559" lon="11.5718055479">
		<tag k="name" v="Svartholet" />
		<tag k="natural" v="gorge" />
		<tag k="ssr:stedsnr" v="365248" />
	</node>
	<node id="-1196" lat="59.2020611105" lon="11.5499416702">
		<tag k="alt_name" v="Håkenbyfjellet" />
		<tag k="fixme" v="consider natural=peak for the most distinct mountains in the district" />
		<tag k="name" v="Håkabyfjellet" />
		<tag k="natural" v="hill" />
		<tag k="place" v="locality" />
		<tag k="ssr:stedsnr" v="365173" />
	</node>
	<node id="-1195" lat="59.2097166664" lon="11.5756166746">
		<tag k="fixme" v="consider natural=peak for the most distinct mountains in the district" />
		<tag k="name" v="Slettfjellet" />
		<tag k="natural" v="hill" />
		<tag k="place" v="locality" />
		<tag k="ssr:stedsnr" v="365162" />
	</node>
	<node id="-1190" lat="58.9321416646" lon="11.5458472259">
		<tag k="fixme" v="consider natural=peak for the most distinct mountains in the district" />
		<tag k="name" v="Syltingsåsen" />
		<tag k="natural" v="hill" />
		<tag k="place" v="locality" />
		<tag k="ssr:stedsnr" v="364202" />
	</node>
	<node id="-3234" lat="58.9480833369" lon="11.4700638969">
		<tag k="fixme" v="consider natural=peak for the most distinct mountains in the district" />
		<tag k="name" v="Tyslingmohellene" />
		<tag k="natural" v="hill" />
		<tag k="place" v="locality" />
		<tag k="ssr:stedsnr" v="811170" />
	</node>
	<node id="-3230" lat="58.982891663" lon="11.4800749996">
		<tag k="fixme" v="consider natural=peak for the most distinct mountains in the district" />
		<tag k="name" v="Skotkjerrfjellet" />
		<tag k="natural" v="hill" />
		<tag k="place" v="locality" />
		<tag k="ssr:stedsnr" v="811154" />
	</node>
	<node id="-3269" lat="59.0361916673" lon="11.4874361142">
		<tag k="fixme" v="consider natural=peak for the most distinct mountains in the district" />
		<tag k="name" v="Østre Lifjell" />
		<tag k="natural" v="hill" />
		<tag k="place" v="locality" />
		<tag k="ssr:stedsnr" v="812763" />
	</node>
	<node id="-3225" lat="58.9525194408" lon="11.4749111068">
		<tag k="name" v="Stordalen" />
		<tag k="natural" v="valley" />
		<tag k="place" v="locality" />
		<tag k="ssr:stedsnr" v="791858" />
	</node>
	<node id="-1167" lat="59.220194447" lon="11.3732388893">
		<tag k="fixme" v="consider natural=peak for the most distinct mountains in the district" />
		<tag k="name" v="Rørmyrkollen" />
		<tag k="natural" v="hill" />
		<tag k="place" v="locality" />
		<tag k="ssr:stedsnr" v="354889" />
	</node>
	<node id="-1166" lat="59.0137194409" lon="11.6917833332">
		<tag k="name" v="Bratte kolle" />
		<tag k="natural" v="hill" />
		<tag k="place" v="locality" />
		<tag k="ssr:stedsnr" v="354879" />
	</node>
	<node id="-3213" lat="59.0215888913" lon="11.5131999967">
		<tag k="name" v="Buer" />
		<tag k="natural" v="hill" />
		<tag k="place" v="locality" />
		<tag k="ssr:stedsnr" v="791317" />
	</node>
	<node id="-3211" lat="59.1643611115" lon="11.5796750038">
		<tag k="fixme" v="consider natural=peak for the most distinct mountains in the district" />
		<tag k="name" v="Stangås" />
		<tag k="natural" v="hill" />
		<tag k="place" v="locality" />
		<tag k="ssr:stedsnr" v="791107" />
	</node>
	<node id="-3207" lat="59.2184416639" lon="11.3841027782">
		<tag k="alt_name" v="Korsetfjellene" />
		<tag k="fixme" v="consider natural=peak for the most distinct mountains in the district" />
		<tag k="name" v="Korsetfjella" />
		<tag k="natural" v="hill" />
		<tag k="place" v="locality" />
		<tag k="ssr:stedsnr" v="790917" />
	</node>
	<node id="-1158" lat="58.9254027743" lon="11.5255777776">
		<tag k="fixme" v="consider natural=peak for the most distinct mountains in the district" />
		<tag k="name" v="Stutkollen" />
		<tag k="natural" v="hill" />
		<tag k="place" v="locality" />
		<tag k="ssr:stedsnr" v="354742" />
	</node>
	<node id="-1156" lat="59.1991388927" lon="11.534836113">
		<tag k="fixme" v="consider natural=peak for the most distinct mountains in the district" />
		<tag k="name" v="Høyfjellet" />
		<tag k="natural" v="hill" />
		<tag k="place" v="locality" />
		<tag k="ssr:stedsnr" v="354738" />
	</node>
	<node id="-1154" lat="59.1435305536" lon="11.5697194462">
		<tag k="name" v="Svendsdalen" />
		<tag k="natural" v="valley" />
		<tag k="place" v="locality" />
		<tag k="ssr:stedsnr" v="354727" />
	</node>
	<node id="-1152" lat="59.1295222235" lon="11.6084527829">
		<tag k="fixme" v="consider natural=peak for the most distinct mountains in the district" />
		<tag k="name" v="Elgkollen" />
		<tag k="natural" v="hill" />
		<tag k="place" v="locality" />
		<tag k="ssr:stedsnr" v="354713" />
	</node>
	<node id="-3193" lat="59.0892138895" lon="11.4938388953">
		<tag k="alt_name" v="Skårefjell" />
		<tag k="fixme" v="consider natural=peak for the most distinct mountains in the district" />
		<tag k="name" v="Skårefjellet" />
		<tag k="natural" v="hill" />
		<tag k="place" v="locality" />
		<tag k="ssr:stedsnr" v="790502" />
	</node>
	<node id="-1144" lat="59.002577778" lon="11.6770333317">
		<tag k="fixme" v="consider natural=peak for the most distinct mountains in the district" />
		<tag k="name" v="Blakasåsen" />
		<tag k="natural" v="hill" />
		<tag k="place" v="locality" />
		<tag k="ssr:stedsnr" v="354647" />
	</node>
	<node id="-3189" lat="59.0637083311" lon="11.6216666664">
		<tag k="name" v="Ånesene" />
		<tag k="natural" v="hill" />
		<tag k="place" v="locality" />
		<tag k="ssr:stedsnr" v="790392" />
	</node>
	<node id="-3188" lat="59.067394445" lon="11.4973527785">
		<tag k="fixme" v="consider natural=peak for the most distinct mountains in the district" />
		<tag k="name" v="Bøfjellet" />
		<tag k="natural" v="hill" />
		<tag k="place" v="locality" />
		<tag k="ssr:stedsnr" v="790388" />
	</node>
	<node id="-3187" lat="59.2193249993" lon="11.4520500048">
		<tag k="fixme" v="consider natural=peak for the most distinct mountains in the district" />
		<tag k="name" v="Ryggerødfjellet" />
		<tag k="natural" v="hill" />
		<tag k="place" v="locality" />
		<tag k="ssr:stedsnr" v="790933" />
	</node>
	<node id="-1136" lat="59.0439388851" lon="11.6602694452">
		<tag k="fixme" v="consider natural=peak for the most distinct mountains in the district" />
		<tag k="name" v="Slettfjell" />
		<tag k="natural" v="hill" />
		<tag k="place" v="locality" />
		<tag k="ssr:stedsnr" v="354534" />
	</node>
	<node id="-1131" lat="58.905850002" lon="11.5508583386">
		<tag k="name" v="Hansedalen" />
		<tag k="natural" v="valley" />
		<tag k="place" v="locality" />
		<tag k="ssr:stedsnr" v="353896" />
	</node>
	<node id="-1130" lat="58.9002472219" lon="11.6127638932">
		<tag k="name" v="Gullbrandsdalen" />
		<tag k="natural" v="valley" />
		<tag k="place" v="locality" />
		<tag k="ssr:stedsnr" v="353804" />
	</node>
	<node id="-3177" lat="59.2239055559" lon="11.5745833349">
		<tag k="name" v="Røsengrå" />
		<tag k="natural" v="hill" />
		<tag k="place" v="locality" />
		<tag k="ssr:stedsnr" v="790131" />
	</node>
	<node id="-1116" lat="59.1569833348" lon="11.3932611177">
		<tag k="name" v="Eikeliene" />
		<tag k="natural" v="slope" />
		<tag k="place" v="locality" />
		<tag k="ssr:stedsnr" v="326812" />
	</node>
	<node id="-3258" lat="59.1277000044" lon="11.3998833283">
		<tag k="fixme" v="consider natural=peak for the most distinct mountains in the district" />
		<tag k="name" v="Månefjellet" />
		<tag k="natural" v="hill" />
		<tag k="place" v="locality" />
		<tag k="ssr:stedsnr" v="811800" />
	</node>
	<node id="-3159" lat="58.9162944443" lon="11.6047472141">
		<tag k="fixme" v="consider natural=peak for the most distinct mountains in the district" />
		<tag k="name" v="Svantjernhaugen" />
		<tag k="natural" v="hill" />
		<tag k="place" v="locality" />
		<tag k="ssr:stedsnr" v="789140" />
	</node>
	<node id="-1109" lat="59.2255833309" lon="11.4119500017">
		<tag k="name" v="Fesdalen" />
		<tag k="natural" v="valley" />
		<tag k="place" v="locality" />
		<tag k="ssr:stedsnr" v="325840" />
	</node>
	<node id="-1105" lat="59.0984861121" lon="11.4930250068">
		<tag k="fixme" v="consider natural=peak for the most distinct mountains in the district" />
		<tag k="name" v="Rothaugen" />
		<tag k="natural" v="hill" />
		<tag k="place" v="locality" />
		<tag k="ssr:stedsnr" v="325754" />
	</node>
	<node id="-1103" lat="59.1015500032" lon="11.4814416642">
		<tag k="fixme" v="consider natural=peak for the most distinct mountains in the district" />
		<tag k="name" v="Myrenefjellene" />
		<tag k="natural" v="hill" />
		<tag k="place" v="locality" />
		<tag k="ssr:stedsnr" v="325753" />
	</node>
	<node id="-1102" lat="59.0331027742" lon="11.4860194491">
		<tag k="fixme" v="consider natural=peak for the most distinct mountains in the district" />
		<tag k="name" v="Persholtåsen" />
		<tag k="natural" v="hill" />
		<tag k="place" v="locality" />
		<tag k="ssr:stedsnr" v="325260" />
	</node>
	<node id="-1096" lat="58.9737388879" lon="11.4868805609">
		<tag k="fixme" v="consider natural=peak for the most distinct mountains in the district" />
		<tag k="name" v="Kasekollen" />
		<tag k="natural" v="hill" />
		<tag k="place" v="locality" />
		<tag k="ssr:stedsnr" v="325171" />
	</node>
	<node id="-3142" lat="59.0171472208" lon="11.6846638895">
		<tag k="fixme" v="consider natural=peak for the most distinct mountains in the district" />
		<tag k="name" v="Merrmyrhaugen" />
		<tag k="natural" v="hill" />
		<tag k="place" v="locality" />
		<tag k="ssr:stedsnr" v="779876" />
	</node>
	<node id="-3141" lat="58.9586222262" lon="11.6029555597">
		<tag k="fixme" v="consider natural=peak for the most distinct mountains in the district" />
		<tag k="name" v="Ødegårdskollen" />
		<tag k="natural" v="hill" />
		<tag k="place" v="locality" />
		<tag k="ssr:stedsnr" v="779814" />
	</node>
	<node id="-1092" lat="58.9738111084" lon="11.4648527767">
		<tag k="name" v="Nypetodalen" />
		<tag k="natural" v="valley" />
		<tag k="place" v="locality" />
		<tag k="ssr:stedsnr" v="325163" />
	</node>
	<node id="-1087" lat="58.9784500041" lon="11.4803138833">
		<tag k="name" v="Lille Skotkjerr" />
		<tag k="natural" v="hill" />
		<tag k="place" v="locality" />
		<tag k="ssr:stedsnr" v="325157" />
	</node>
	<node id="-3133" lat="58.8934861093" lon="11.5704666731">
		<tag k="fixme" v="consider natural=peak for the most distinct mountains in the district" />
		<tag k="name" v="Svartåsfjellet" />
		<tag k="natural" v="hill" />
		<tag k="place" v="locality" />
		<tag k="ssr:stedsnr" v="779735" />
	</node>
	<node id="-3131" lat="59.0880583351" lon="11.6044472137">
		<tag k="fixme" v="consider natural=peak for the most distinct mountains in the district" />
		<tag k="name" v="Mørtekollen" />
		<tag k="natural" v="hill" />
		<tag k="place" v="locality" />
		<tag k="ssr:stedsnr" v="779715" />
	</node>
	<node id="-1074" lat="59.1143527809" lon="11.6464194511">
		<tag k="alt_name" v="Fugeln" />
		<tag k="name" v="Fuglen" />
		<tag k="natural" v="hill" />
		<tag k="place" v="locality" />
		<tag k="ssr:stedsnr" v="306072" />
	</node>
	<node id="-1073" lat="59.1376444463" lon="11.5159499975">
		<tag k="name" v="Blæsemoen" />
		<tag k="place" v="locality" />
		<tag k="ssr:stedsnr" v="306026" />
	</node>
	<node id="-3120" lat="58.9655500028" lon="11.6069555492">
		<tag k="fixme" v="consider natural=peak for the most distinct mountains in the district" />
		<tag k="name" v="Høljekollene" />
		<tag k="natural" v="hill" />
		<tag k="place" v="locality" />
		<tag k="ssr:stedsnr" v="779605" />
	</node>
	<node id="-3116" lat="59.1117472187" lon="11.5485222148">
		<tag k="name" v="Trolldalen" />
		<tag k="natural" v="valley" />
		<tag k="place" v="locality" />
		<tag k="ssr:stedsnr" v="779565" />
	</node>
	<node id="-1055" lat="59.047058334" lon="11.6396361169">
		<tag k="name" v="Bufarhaugene" />
		<tag k="natural" v="hill" />
		<tag k="place" v="locality" />
		<tag k="ssr:stedsnr" v="305446" />
	</node>
	<node id="-1053" lat="59.0763666647" lon="11.6749388896">
		<tag k="name" v="Pyttemyråsen" />
		<tag k="natural" v="hill" />
		<tag k="place" v="locality" />
		<tag k="ssr:stedsnr" v="305422" />
	</node>
	<node id="-1052" lat="59.0654249996" lon="11.5497444456">
		<tag k="name" v="Hesthaugkollene" />
		<tag k="natural" v="hill" />
		<tag k="place" v="locality" />
		<tag k="ssr:stedsnr" v="305410" />
	</node>
	<node id="-3095" lat="59.1103027797" lon="11.4963222283">
		<tag k="name" v="Seterhaugen" />
		<tag k="natural" v="hill" />
		<tag k="place" v="locality" />
		<tag k="ssr:stedsnr" v="750764" />
	</node>
	<node id="-3094" lat="59.0117638895" lon="11.4908833297">
		<tag k="fixme" v="consider natural=peak for the most distinct mountains in the district" />
		<tag k="name" v="Orekaskollen" />
		<tag k="natural" v="hill" />
		<tag k="place" v="locality" />
		<tag k="ssr:stedsnr" v="750201" />
	</node>
	<node id="-3087" lat="58.9666055564" lon="11.4860138828">
		<tag k="fixme" v="consider natural=peak for the most distinct mountains in the district" />
		<tag k="name" v="Torgalsås" />
		<tag k="natural" v="hill" />
		<tag k="place" v="locality" />
		<tag k="ssr:stedsnr" v="750140" />
	</node>
	<node id="-3085" lat="58.9600361091" lon="11.4935555484">
		<tag k="name" v="Tyvkistene" />
		<tag k="place" v="locality" />
		<tag k="ssr:stedsnr" v="750136" />
	</node>
	<node id="-1036" lat="59.2187000011" lon="11.5748916647">
		<tag k="alt_name" v="Kokka" />
		<tag k="name" v="Lille Kokka" />
		<tag k="natural" v="hill" />
		<tag k="place" v="locality" />
		<tag k="ssr:stedsnr" v="305141" />
	</node>
	<node id="-3074" lat="59.1073722209" lon="11.2059027693">
		<tag k="name" v="Evjeberget" />
		<tag k="natural" v="hill" />
		<tag k="place" v="locality" />
		<tag k="ssr:stedsnr" v="750004" />
	</node>
	<node id="-1020" lat="59.0711277786" lon="11.4900666753">
		<tag k="name" v="Abrahams kolle" />
		<tag k="natural" v="hill" />
		<tag k="place" v="locality" />
		<tag k="ssr:stedsnr" v="304464" />
	</node>
	<node id="-3066" lat="59.1279000032" lon="11.6325694507">
		<tag k="fixme" v="consider natural=peak for the most distinct mountains in the district" />
		<tag k="name" v="Torkilsåsen" />
		<tag k="natural" v="hill" />
		<tag k="place" v="locality" />
		<tag k="ssr:stedsnr" v="731041" />
	</node>
	<node id="-3048" lat="59.0454805581" lon="11.5958861116">
		<tag k="fixme" v="consider natural=peak for the most distinct mountains in the district" />
		<tag k="name" v="Karlsåsen" />
		<tag k="natural" v="hill" />
		<tag k="place" v="locality" />
		<tag k="ssr:stedsnr" v="730439" />
	</node>
	<node id="-3046" lat="59.0248416666" lon="11.6618250029">
		<tag k="alt_name" v="Ekeliene" />
		<tag k="name" v="Ekeliane" />
		<tag k="natural" v="slope" />
		<tag k="place" v="locality" />
		<tag k="ssr:stedsnr" v="730427" />
	</node>
	<node id="-3044" lat="59.0685027798" lon="11.5321583385">
		<tag k="alt_name" v="Buretfjellet" />
		<tag k="fixme" v="consider natural=peak for the most distinct mountains in the district" />
		<tag k="name" v="Burefjellet" />
		<tag k="natural" v="hill" />
		<tag k="place" v="locality" />
		<tag k="ssr:stedsnr" v="730408" />
	</node>
	<node id="-993" lat="59.0986111123" lon="11.5717861082">
		<tag k="fixme" v="consider natural=peak for the most distinct mountains in the district" />
		<tag k="name" v="Holtås" />
		<tag k="natural" v="hill" />
		<tag k="place" v="locality" />
		<tag k="ssr:stedsnr" v="293967" />
	</node>
	<node id="-992" lat="59.0821861076" lon="11.6282833415">
		<tag k="fixme" v="consider natural=peak for the most distinct mountains in the district" />
		<tag k="name" v="Slettfjellmyrås" />
		<tag k="natural" v="hill" />
		<tag k="place" v="locality" />
		<tag k="ssr:stedsnr" v="293952" />
	</node>
	<node id="-991" lat="59.1091944476" lon="11.6184722233">
		<tag k="fixme" v="consider natural=peak for the most distinct mountains in the district" />
		<tag k="name" v="Ormetjernsøfse" />
		<tag k="natural" v="hill" />
		<tag k="place" v="locality" />
		<tag k="ssr:stedsnr" v="293947" />
	</node>
	<node id="-3036" lat="59.0765749982" lon="11.4615500019">
		<tag k="name" v="Budalen" />
		<tag k="natural" v="valley" />
		<tag k="place" v="locality" />
		<tag k="ssr:stedsnr" v="730214" />
	</node>
	<node id="-3031" lat="59.200672225" lon="11.5399777739">
		<tag k="name" v="Rivestigen" />
		<tag k="natural" v="slope" />
		<tag k="place" v="locality" />
		<tag k="ssr:stedsnr" v="730185" />
	</node>
	<node id="-979" lat="58.9196666712" lon="11.5573166607">
		<tag k="alt_name" v="Rotvannsåsen østre" />
		<tag k="fixme" v="consider natural=peak for the most distinct mountains in the district" />
		<tag k="name" v="Østre Rotvannsåsen" />
		<tag k="natural" v="hill" />
		<tag k="place" v="locality" />
		<tag k="ssr:stedsnr" v="293811" />
	</node>
	<node id="-3025" lat="59.1254194458" lon="11.5052499952">
		<tag k="alt_name" v="Store Erte;Brennehøyda" />
		<tag k="fixme" v="consider natural=peak for the most distinct mountains in the district" />
		<tag k="name" v="Framre Erte" />
		<tag k="natural" v="hill" />
		<tag k="place" v="locality" />
		<tag k="ssr:stedsnr" v="730026" />
	</node>
	<node id="-3019" lat="58.9420027809" lon="11.5655194519">
		<tag k="fixme" v="consider natural=peak for the most distinct mountains in the district" />
		<tag k="name" v="Vardåsen" />
		<tag k="natural" v="hill" />
		<tag k="place" v="locality" />
		<tag k="ssr:stedsnr" v="729862" />
	</node>
	<node id="-3017" lat="58.9465194443" lon="11.6419611155">
		<tag k="name" v="Vika" />
		<tag k="place" v="locality" />
		<tag k="ssr:stedsnr" v="729858" />
	</node>
	<node id="-953" lat="59.0885888932" lon="11.6580527827">
		<tag k="fixme" v="consider natural=peak for the most distinct mountains in the district" />
		<tag k="name" v="Bastliøfse" />
		<tag k="natural" v="hill" />
		<tag k="place" v="locality" />
		<tag k="ssr:stedsnr" v="293602" />
	</node>
	<node id="-952" lat="58.9425333333" lon="11.5875555598">
		<tag k="fixme" v="consider natural=peak for the most distinct mountains in the district" />
		<tag k="name" v="Kasekollene" />
		<tag k="natural" v="hill" />
		<tag k="place" v="locality" />
		<tag k="ssr:stedsnr" v="293585" />
	</node>
	<node id="-950" lat="59.1004611125" lon="11.5472805584">
		<tag k="name" v="Korsdalen" />
		<tag k="natural" v="valley" />
		<tag k="place" v="locality" />
		<tag k="ssr:stedsnr" v="293573" />
	</node>
	<node id="-948" lat="59.0819527808" lon="11.566769445">
		<tag k="fixme" v="consider natural=peak for the most distinct mountains in the district" />
		<tag k="name" v="Nordre Haugen" />
		<tag k="natural" v="hill" />
		<tag k="place" v="locality" />
		<tag k="ssr:stedsnr" v="293560" />
	</node>
	<node id="-947" lat="59.0898888876" lon="11.5361083314">
		<tag k="name" v="Dypedal" />
		<tag k="natural" v="valley" />
		<tag k="place" v="locality" />
		<tag k="ssr:stedsnr" v="293557" />
	</node>
	<node id="-944" lat="59.1086250013" lon="11.523483328">
		<tag k="fixme" v="consider natural=peak for the most distinct mountains in the district" />
		<tag k="name" v="Tordenbrenna" />
		<tag k="natural" v="hill" />
		<tag k="place" v="locality" />
		<tag k="ssr:stedsnr" v="293531" />
	</node>
	<node id="-2990" lat="59.0944944477" lon="11.2494999954">
		<tag k="name" v="Bakerovnen" />
		<tag k="natural" v="valley" />
		<tag k="place" v="locality" />
		<tag k="ssr:stedsnr" v="725893" />
	</node>
	<node id="-941" lat="59.1041666677" lon="11.257344447">
		<tag k="fixme" v="consider natural=peak for the most distinct mountains in the district" />
		<tag k="name" v="Berg" />
		<tag k="natural" v="hill" />
		<tag k="place" v="locality" />
		<tag k="ssr:stedsnr" v="285938" />
	</node>
	<node id="-2986" lat="59.075744443" lon="11.4051027826">
		<tag k="name" v="Styggedal" />
		<tag k="natural" v="valley" />
		<tag k="place" v="locality" />
		<tag k="ssr:stedsnr" v="723429" />
	</node>
	<node id="-2985" lat="59.0196527792" lon="11.6303916641">
		<tag k="name" v="Blanktjernliene" />
		<tag k="natural" v="valley" />
		<tag k="place" v="locality" />
		<tag k="ssr:stedsnr" v="719000" />
	</node>
	<node id="-2984" lat="59.1363666622" lon="11.5567500003">
		<tag k="fixme" v="consider natural=peak for the most distinct mountains in the district" />
		<tag k="name" v="Abbortjernkollen" />
		<tag k="natural" v="hill" />
		<tag k="place" v="locality" />
		<tag k="ssr:stedsnr" v="718984" />
	</node>
	<node id="-2980" lat="59.1752666626" lon="11.5140444451">
		<tag k="fixme" v="consider natural=peak for the most distinct mountains in the district" />
		<tag k="name" v="Høye Røset" />
		<tag k="natural" v="hill" />
		<tag k="place" v="locality" />
		<tag k="ssr:stedsnr" v="718896" />
	</node>
	<node id="-2978" lat="58.939227778" lon="11.5193750039">
		<tag k="name" v="Svindal" />
		<tag k="natural" v="valley" />
		<tag k="place" v="locality" />
		<tag k="ssr:stedsnr" v="718890" />
	</node>
	<node id="-2967" lat="59.0274000017" lon="11.5793972259">
		<tag k="fixme" v="consider natural=peak for the most distinct mountains in the district" />
		<tag k="name" v="Lillefjell" />
		<tag k="natural" v="hill" />
		<tag k="place" v="locality" />
		<tag k="ssr:stedsnr" v="718760" />
	</node>
	<node id="-2966" lat="59.2127694464" lon="11.3852666582">
		<tag k="name" v="Gråbendalen" />
		<tag k="natural" v="valley" />
		<tag k="place" v="locality" />
		<tag k="ssr:stedsnr" v="718755" />
	</node>
	<node id="-2950" lat="59.0932416694" lon="11.5733749996">
		<tag k="fixme" v="consider natural=peak for the most distinct mountains in the district" />
		<tag k="name" v="Spissmyrfjell" />
		<tag k="natural" v="hill" />
		<tag k="place" v="locality" />
		<tag k="ssr:stedsnr" v="718557" />
	</node>
	<node id="-2949" lat="59.0435222205" lon="11.6410916624">
		<tag k="fixme" v="consider natural=peak for the most distinct mountains in the district" />
		<tag k="name" v="Bofarhaugen" />
		<tag k="natural" v="hill" />
		<tag k="place" v="locality" />
		<tag k="ssr:stedsnr" v="718551" />
	</node>
	<node id="-2948" lat="59.0337833306" lon="11.6608249993">
		<tag k="fixme" v="consider natural=peak for the most distinct mountains in the district" />
		<tag k="name" v="Bifarhaugene" />
		<tag k="natural" v="hill" />
		<tag k="place" v="locality" />
		<tag k="ssr:stedsnr" v="718548" />
	</node>
	<node id="-2945" lat="59.0872055534" lon="11.6483416596">
		<tag k="fixme" v="consider natural=peak for the most distinct mountains in the district" />
		<tag k="name" v="Nesøfse" />
		<tag k="natural" v="hill" />
		<tag k="place" v="locality" />
		<tag k="ssr:stedsnr" v="718948" />
	</node>
	<node id="-2939" lat="58.9940916636" lon="11.4978750083">
		<tag k="name" v="Boltjerndalen" />
		<tag k="natural" v="valley" />
		<tag k="place" v="locality" />
		<tag k="ssr:stedsnr" v="718909" />
	</node>
	<node id="-2934" lat="59.2501583339" lon="11.3470694412">
		<tag k="fixme" v="consider natural=peak for the most distinct mountains in the district" />
		<tag k="name" v="Elshudkollen" />
		<tag k="natural" v="hill" />
		<tag k="place" v="locality" />
		<tag k="ssr:stedsnr" v="691169" />
	</node>
	<node id="-2931" lat="59.2312722241" lon="11.4061583398">
		<tag k="name" v="Askedalen" />
		<tag k="natural" v="valley" />
		<tag k="place" v="locality" />
		<tag k="ssr:stedsnr" v="690869" />
	</node>
	<node id="-2929" lat="59.1198777754" lon="11.4126388827">
		<tag k="fixme" v="consider natural=peak for the most distinct mountains in the district" />
		<tag k="name" v="Stutekollen" />
		<tag k="natural" v="hill" />
		<tag k="place" v="locality" />
		<tag k="ssr:stedsnr" v="690845" />
	</node>
	<node id="-2928" lat="59.1502222243" lon="11.4599833317">
		<tag k="fixme" v="consider natural=peak for the most distinct mountains in the district" />
		<tag k="name" v="Nordbyåsen" />
		<tag k="natural" v="hill" />
		<tag k="place" v="locality" />
		<tag k="ssr:stedsnr" v="690841" />
	</node>
	<node id="-2927" lat="59.1208583328" lon="11.3927111096">
		<tag k="name" v="Ringerbakken" />
		<tag k="natural" v="slope" />
		<tag k="place" v="locality" />
		<tag k="ssr:stedsnr" v="690838" />
	</node>
	<node id="-2925" lat="59.0940638899" lon="11.4883249921">
		<tag k="name" v="Brudemoen" />
		<tag k="place" v="locality" />
		<tag k="ssr:stedsnr" v="690825" />
	</node>
	<node id="-2924" lat="59.0907944438" lon="11.463836112">
		<tag k="fixme" v="consider natural=peak for the most distinct mountains in the district" />
		<tag k="name" v="Hvitås" />
		<tag k="natural" v="hill" />
		<tag k="place" v="locality" />
		<tag k="ssr:stedsnr" v="690823" />
	</node>
	<node id="-2922" lat="59.1042472193" lon="11.4783777781">
		<tag k="name" v="Klampedalen" />
		<tag k="natural" v="valley" />
		<tag k="place" v="locality" />
		<tag k="ssr:stedsnr" v="690805" />
	</node>
	<node id="-2919" lat="59.0334416634" lon="11.4675249992">
		<tag k="fixme" v="consider natural=peak for the most distinct mountains in the district" />
		<tag k="name" v="Nordre Bjørnås" />
		<tag k="natural" v="hill" />
		<tag k="place" v="locality" />
		<tag k="ssr:stedsnr" v="690774" />
	</node>
	<node id="-1509" lat="58.8844055554" lon="11.5150361164">
		<tag k="fixme" v="consider natural=peak for the most distinct mountains in the district" />
		<tag k="name" v="Løvås" />
		<tag k="natural" v="hill" />
		<tag k="place" v="locality" />
		<tag k="ssr:stedsnr" v="50881" />
	</node>
	<node id="-2905" lat="59.1145944465" lon="11.3770750077">
		<tag k="name" v="Skaret" />
		<tag k="natural" v="valley" />
		<tag k="place" v="locality" />
		<tag k="ssr:stedsnr" v="690174" />
	</node>
	<node id="-2893" lat="58.9702083346" lon="11.4890888946">
		<tag k="name" v="Mølla" />
		<tag k="place" v="locality" />
		<tag k="ssr:stedsnr" v="689184" />
	</node>
	<node id="-2891" lat="58.9472194473" lon="11.4814916585">
		<tag k="fixme" v="consider natural=peak for the most distinct mountains in the district" />
		<tag k="name" v="Ekelifjell" />
		<tag k="natural" v="hill" />
		<tag k="place" v="locality" />
		<tag k="ssr:stedsnr" v="689179" />
	</node>
	<node id="-1163" lat="59.0298833356" lon="11.6713305611">
		<tag k="fixme" v="consider natural=peak for the most distinct mountains in the district" />
		<tag k="name" v="Store Bjørndalsåsen" />
		<tag k="natural" v="hill" />
		<tag k="place" v="locality" />
		<tag k="ssr:stedsnr" v="354754" />
	</node>
	<node id="-2876" lat="59.0470194413" lon="11.4845555547">
		<tag k="fixme" v="consider natural=peak for the most distinct mountains in the district" />
		<tag k="name" v="Nordre Lifjell" />
		<tag k="natural" v="hill" />
		<tag k="place" v="locality" />
		<tag k="ssr:stedsnr" v="669450" />
	</node>
	<node id="-2873" lat="59.0386166694" lon="11.6700388826">
		<tag k="name" v="Muråsen" />
		<tag k="natural" v="hill" />
		<tag k="place" v="locality" />
		<tag k="ssr:stedsnr" v="669433" />
	</node>
	<node id="-2859" lat="58.9684999981" lon="11.4695333406">
		<tag k="fixme" v="consider natural=peak for the most distinct mountains in the district" />
		<tag k="name" v="Berbytårnet" />
		<tag k="natural" v="hill" />
		<tag k="place" v="locality" />
		<tag k="ssr:stedsnr" v="669827" />
	</node>
	<node id="-1159" lat="59.0233416641" lon="11.572852781">
		<tag k="fixme" v="consider natural=peak for the most distinct mountains in the district" />
		<tag k="name" v="Tangekollen" />
		<tag k="natural" v="hill" />
		<tag k="place" v="locality" />
		<tag k="ssr:stedsnr" v="354745" />
	</node>
	<node id="-2831" lat="59.1111777763" lon="11.612822227">
		<tag k="name" v="Hardås" />
		<tag k="natural" v="hill" />
		<tag k="place" v="locality" />
		<tag k="ssr:stedsnr" v="668472" />
	</node>
	<node id="-2828" lat="59.0094805551" lon="11.641911109">
		<tag k="fixme" v="consider natural=peak for the most distinct mountains in the district" />
		<tag k="name" v="Hallerødåsen" />
		<tag k="natural" v="hill" />
		<tag k="place" v="locality" />
		<tag k="ssr:stedsnr" v="668351" />
	</node>
	<node id="-2826" lat="58.9341527751" lon="11.5771083253">
		<tag k="fixme" v="consider natural=peak for the most distinct mountains in the district" />
		<tag k="name" v="Merraåsen" />
		<tag k="natural" v="hill" />
		<tag k="place" v="locality" />
		<tag k="ssr:stedsnr" v="668861" />
	</node>
	<node id="-2824" lat="58.8958861111" lon="11.5016249963">
		<tag k="fixme" v="consider natural=peak for the most distinct mountains in the district" />
		<tag k="name" v="Grøvåsen" />
		<tag k="natural" v="hill" />
		<tag k="place" v="locality" />
		<tag k="ssr:stedsnr" v="668265" />
	</node>
	<node id="-2819" lat="58.9252222205" lon="11.5508805539">
		<tag k="fixme" v="multiple name tags, choose one and add the other to alt_name; consider natural=peak for the most distinct mountains in the district" />
		<tag k="name" v="Solløsenfjellet;Dierstensåsen" />
		<tag k="natural" v="hill" />
		<tag k="place" v="locality" />
		<tag k="ssr:stedsnr" v="668166" />
	</node>
	<node id="-2817" lat="58.9114166703" lon="11.5479000065">
		<tag k="alt_name" v="Rotvannsåsen vestre" />
		<tag k="fixme" v="consider natural=peak for the most distinct mountains in the district" />
		<tag k="name" v="Rotvassåsen" />
		<tag k="natural" v="hill" />
		<tag k="place" v="locality" />
		<tag k="ssr:stedsnr" v="668149" />
	</node>
	<node id="-2813" lat="58.9031499957" lon="11.5746749941">
		<tag k="fixme" v="consider natural=peak for the most distinct mountains in the district" />
		<tag k="name" v="Godabergene" />
		<tag k="natural" v="hill" />
		<tag k="place" v="locality" />
		<tag k="ssr:stedsnr" v="668123" />
	</node>
	<node id="-2801" lat="59.1491027752" lon="11.5228805568">
		<tag k="fixme" v="consider natural=peak for the most distinct mountains in the district" />
		<tag k="name" v="Brekkefjella" />
		<tag k="natural" v="hill" />
		<tag k="place" v="locality" />
		<tag k="ssr:stedsnr" v="657981" />
	</node>
	<node id="-2788" lat="59.2109861151" lon="11.3800611038">
		<tag k="fixme" v="consider natural=peak for the most distinct mountains in the district" />
		<tag k="name" v="Hytteåsen" />
		<tag k="natural" v="hill" />
		<tag k="place" v="locality" />
		<tag k="ssr:stedsnr" v="657860" />
	</node>
	<node id="-2786" lat="58.9523666668" lon="11.5770416712">
		<tag k="fixme" v="consider natural=peak for the most distinct mountains in the district" />
		<tag k="name" v="Hestås" />
		<tag k="natural" v="hill" />
		<tag k="place" v="locality" />
		<tag k="ssr:stedsnr" v="657786" />
	</node>
	<node id="-2773" lat="58.9332694433" lon="11.5446611071">
		<tag k="name" v="Brenna" />
		<tag k="place" v="locality" />
		<tag k="ssr:stedsnr" v="657643" />
	</node>
	<node id="-2769" lat="58.9307222261" lon="11.613800008">
		<tag k="name" v="Lerbekkdalene" />
		<tag k="natural" v="valley" />
		<tag k="place" v="locality" />
		<tag k="ssr:stedsnr" v="657610" />
	</node>
	<node id="-2759" lat="59.1071361151" lon="11.5500138971">
		<tag k="fixme" v="consider natural=peak for the most distinct mountains in the district" />
		<tag k="name" v="Siljedalsøfse" />
		<tag k="natural" v="hill" />
		<tag k="place" v="locality" />
		<tag k="ssr:stedsnr" v="657572" />
	</node>
	<node id="-2750" lat="59.0514055557" lon="11.5912055627">
		<tag k="fixme" v="consider natural=peak for the most distinct mountains in the district" />
		<tag k="name" v="Råhaugen" />
		<tag k="natural" v="hill" />
		<tag k="place" v="locality" />
		<tag k="ssr:stedsnr" v="657520" />
	</node>
	<node id="-2747" lat="59.127650003" lon="11.3747305537">
		<tag k="name" v="Stangeløkka" />
		<tag k="natural" v="hill" />
		<tag k="place" v="locality" />
		<tag k="ssr:stedsnr" v="648832" />
	</node>
	<node id="-2739" lat="59.1872583291" lon="11.4577500044">
		<tag k="fixme" v="consider natural=peak for the most distinct mountains in the district" />
		<tag k="name" v="Stangåsen" />
		<tag k="natural" v="hill" />
		<tag k="place" v="locality" />
		<tag k="ssr:stedsnr" v="629859" />
	</node>
	<node id="-2729" lat="59.151000003" lon="11.4613527801">
		<tag k="fixme" v="consider natural=peak for the most distinct mountains in the district" />
		<tag k="name" v="Lille Kullås" />
		<tag k="natural" v="hill" />
		<tag k="place" v="locality" />
		<tag k="ssr:stedsnr" v="629820" />
	</node>
	<node id="-2728" lat="59.095538885" lon="11.4856444422">
		<tag k="name" v="Ankermoen" />
		<tag k="place" v="locality" />
		<tag k="ssr:stedsnr" v="629800" />
	</node>
	<node id="-2725" lat="59.0998805568" lon="11.4972444373">
		<tag k="name" v="Olabu" />
		<tag k="place" v="locality" />
		<tag k="ssr:stedsnr" v="629773" />
	</node>
	<node id="-2723" lat="59.0431583342" lon="11.4962944452">
		<tag k="name" v="Rindene" />
		<tag k="natural" v="hill" />
		<tag k="place" v="locality" />
		<tag k="ssr:stedsnr" v="629752" />
	</node>
	<node id="-2722" lat="59.0366638872" lon="11.4868749932">
		<tag k="name" v="Trolldroga" />
		<tag k="natural" v="valley" />
		<tag k="place" v="locality" />
		<tag k="ssr:stedsnr" v="629747" />
	</node>
	<node id="-2718" lat="59.0553916651" lon="11.4690888814">
		<tag k="name" v="Kleggedalen" />
		<tag k="natural" v="valley" />
		<tag k="place" v="locality" />
		<tag k="ssr:stedsnr" v="629215" />
	</node>
	<node id="-2717" lat="59.089347226" lon="11.2247944362">
		<tag k="fixme" v="consider natural=peak for the most distinct mountains in the district" />
		<tag k="name" v="Sponvikskansen" />
		<tag k="natural" v="hill" />
		<tag k="place" v="locality" />
		<tag k="ssr:stedsnr" v="629060" />
	</node>
	<node id="-2716" lat="59.1438305554" lon="11.2563166691">
		<tag k="name" v="Viksletta" />
		<tag k="place" v="locality" />
		<tag k="ssr:stedsnr" v="629055" />
	</node>
	<node id="-2711" lat="59.1413000029" lon="11.3486666745">
		<tag k="name" v="Brenneridalen" />
		<tag k="natural" v="valley" />
		<tag k="place" v="locality" />
		<tag k="ssr:stedsnr" v="628203" />
	</node>
	<node id="-2707" lat="59.020277775" lon="11.482566659">
		<tag k="fixme" v="consider natural=peak for the most distinct mountains in the district" />
		<tag k="name" v="Husåsen" />
		<tag k="natural" v="hill" />
		<tag k="place" v="locality" />
		<tag k="ssr:stedsnr" v="628181" />
	</node>
	<node id="-2706" lat="58.9644194474" lon="11.4778111154">
		<tag k="name" v="Søndre Husbudalen" />
		<tag k="natural" v="valley" />
		<tag k="place" v="locality" />
		<tag k="ssr:stedsnr" v="628173" />
	</node>
	<node id="-2705" lat="58.9556444468" lon="11.488486105">
		<tag k="fixme" v="consider natural=peak for the most distinct mountains in the district" />
		<tag k="name" v="Røshaugen" />
		<tag k="natural" v="hill" />
		<tag k="place" v="locality" />
		<tag k="ssr:stedsnr" v="628160" />
	</node>
	<node id="-2703" lat="58.9825166637" lon="11.4648722157">
		<tag k="name" v="Stenrenna" />
		<tag k="natural" v="slope" />
		<tag k="place" v="locality" />
		<tag k="ssr:stedsnr" v="628151" />
	</node>
	<node id="-2702" lat="59.14188611" lon="11.312911114">
		<tag k="fixme" v="consider natural=peak for the most distinct mountains in the district" />
		<tag k="name" v="Bobergåsen" />
		<tag k="natural" v="hill" />
		<tag k="place" v="locality" />
		<tag k="ssr:stedsnr" v="628146" />
	</node>
	<node id="-2701" lat="58.9879277796" lon="11.460422227">
		<tag k="name" v="Grunn" />
		<tag k="place" v="locality" />
		<tag k="ssr:stedsnr" v="628147" />
	</node>
	<node id="-2695" lat="59.1194916673" lon="11.5900361046">
		<tag k="name" v="Bjørntangen" />
		<tag k="natural" v="hill" />
		<tag k="place" v="locality" />
		<tag k="ssr:stedsnr" v="609056" />
	</node>
	<node id="-2694" lat="59.1310583334" lon="11.6149805511">
		<tag k="fixme" v="consider natural=peak for the most distinct mountains in the district" />
		<tag k="name" v="Langmyråsen" />
		<tag k="natural" v="hill" />
		<tag k="place" v="locality" />
		<tag k="ssr:stedsnr" v="609040" />
	</node>
	<node id="-2692" lat="59.1315444414" lon="11.6212583353">
		<tag k="fixme" v="consider natural=peak for the most distinct mountains in the district" />
		<tag k="name" v="Hestekollen" />
		<tag k="natural" v="hill" />
		<tag k="place" v="locality" />
		<tag k="ssr:stedsnr" v="609022" />
	</node>
	<node id="-2670" lat="59.0401611145" lon="11.5226638821">
		<tag k="fixme" v="consider natural=peak for the most distinct mountains in the district" />
		<tag k="name" v="Kirkåsen" />
		<tag k="natural" v="hill" />
		<tag k="place" v="locality" />
		<tag k="ssr:stedsnr" v="608419" />
	</node>
	<node id="-2664" lat="59.0139916631" lon="11.6890694496">
		<tag k="name" v="Tiurhaugen" />
		<tag k="natural" v="hill" />
		<tag k="place" v="locality" />
		<tag k="ssr:stedsnr" v="608321" />
	</node>
	<node id="-2651" lat="59.1952803785" lon="11.4806320297">
		<tag k="alt_name" v="Torebyhøgda" />
		<tag k="fixme" v="consider natural=peak for the most distinct mountains in the district" />
		<tag k="name" v="Torbyhøgda" />
		<tag k="natural" v="hill" />
		<tag k="place" v="locality" />
		<tag k="ssr:stedsnr" v="608062" />
	</node>
	<node id="-2647" lat="58.940541664" lon="11.5118916608">
		<tag k="fixme" v="consider natural=peak for the most distinct mountains in the district" />
		<tag k="name" v="Fureåsen" />
		<tag k="natural" v="hill" />
		<tag k="place" v="locality" />
		<tag k="ssr:stedsnr" v="607855" />
	</node>
	<node id="-983" lat="59.1972888926" lon="11.5027722262">
		<tag k="name" v="Nordre Torpedalen" />
		<tag k="natural" v="valley" />
		<tag k="place" v="locality" />
		<tag k="ssr:stedsnr" v="293904" />
	</node>
	<node id="-2639" lat="59.0690555566" lon="11.614849992">
		<tag k="name" v="Råbukkøfse" />
		<tag k="natural" v="hill" />
		<tag k="place" v="locality" />
		<tag k="ssr:stedsnr" v="607411" />
	</node>
	<node id="-2638" lat="58.8976222265" lon="11.5778777848">
		<tag k="alt_name" v="Snødal" />
		<tag k="name" v="Snødalen" />
		<tag k="natural" v="valley" />
		<tag k="place" v="locality" />
		<tag k="ssr:stedsnr" v="607255" />
	</node>
	<node id="-2632" lat="58.9164352745" lon="11.6169556134">
		<tag k="fixme" v="multiple name tags, choose one and add the other to alt_name; consider natural=peak for the most distinct mountains in the district" />
		<tag k="name" v="Hartvigås;Hølevassåsen" />
		<tag k="natural" v="hill" />
		<tag k="place" v="locality" />
		<tag k="ssr:stedsnr" v="607164" />
	</node>
	<node id="-2628" lat="58.9053416684" lon="11.5592611144">
		<tag k="name" v="Ørstensliene" />
		<tag k="natural" v="slope" />
		<tag k="place" v="locality" />
		<tag k="ssr:stedsnr" v="607130" />
	</node>
	<node id="-2609" lat="59.0779166662" lon="11.6609083255">
		<tag k="fixme" v="consider natural=peak for the most distinct mountains in the district" />
		<tag k="name" v="Heståsen" />
		<tag k="natural" v="hill" />
		<tag k="place" v="locality" />
		<tag k="ssr:stedsnr" v="596953" />
	</node>
	<node id="-2599" lat="58.9406583321" lon="11.48153056">
		<tag k="name" v="Sørfalldalen" />
		<tag k="natural" v="valley" />
		<tag k="place" v="locality" />
		<tag k="ssr:stedsnr" v="596892" />
	</node>
	<node id="-1115" lat="59.1492611108" lon="11.4250083308">
		<tag k="name" v="Parkering" />
		<tag k="place" v="locality" />
		<tag k="ssr:stedsnr" v="326808" />
	</node>
	<node id="-2581" lat="59.1105222254" lon="11.6266083336">
		<tag k="fixme" v="consider natural=peak for the most distinct mountains in the district" />
		<tag k="name" v="Bjergingstjernøfse" />
		<tag k="natural" v="hill" />
		<tag k="place" v="locality" />
		<tag k="ssr:stedsnr" v="596622" />
	</node>
	<node id="-2577" lat="59.0886222247" lon="11.6422194394">
		<tag k="name" v="Pinsdalen" />
		<tag k="natural" v="valley" />
		<tag k="place" v="locality" />
		<tag k="ssr:stedsnr" v="596568" />
	</node>
	<node id="-2573" lat="58.9159416655" lon="11.5534972194">
		<tag k="name" v="Hansedalen" />
		<tag k="natural" v="valley" />
		<tag k="place" v="locality" />
		<tag k="ssr:stedsnr" v="596549" />
	</node>
	<node id="-2572" lat="58.8877944405" lon="11.5162722183">
		<tag k="name" v="Sandviksdalen" />
		<tag k="natural" v="valley" />
		<tag k="place" v="locality" />
		<tag k="ssr:stedsnr" v="596547" />
	</node>
	<node id="-2543" lat="59.0772472215" lon="11.406555562">
		<tag k="name" v="Stordal" />
		<tag k="natural" v="valley" />
		<tag k="place" v="locality" />
		<tag k="ssr:stedsnr" v="568779" />
	</node>
	<node id="-2538" lat="59.0160861068" lon="11.484883333">
		<tag k="name" v="Skrikedalen" />
		<tag k="natural" v="valley" />
		<tag k="place" v="locality" />
		<tag k="ssr:stedsnr" v="568241" />
	</node>
	<node id="-2534" lat="59.1814666692" lon="11.3662083324">
		<tag k="name" v="Kamperhaug" />
		<tag k="natural" v="hill" />
		<tag k="place" v="locality" />
		<tag k="ssr:stedsnr" v="568193" />
	</node>
	<node id="-2532" lat="59.0306027771" lon="11.4476777845">
		<tag k="name" v="Ekeli" />
		<tag k="natural" v="slope" />
		<tag k="place" v="locality" />
		<tag k="ssr:stedsnr" v="568187" />
	</node>
	<node id="-2531" lat="59.1133916659" lon="11.2950805574">
		<tag k="name" v="Svartedal" />
		<tag k="natural" v="valley" />
		<tag k="place" v="locality" />
		<tag k="ssr:stedsnr" v="568183" />
	</node>
	<node id="-2522" lat="59.113516663" lon="11.2489027781">
		<tag k="fixme" v="consider natural=peak for the most distinct mountains in the district" />
		<tag k="name" v="Snøroppfjellet" />
		<tag k="natural" v="hill" />
		<tag k="place" v="locality" />
		<tag k="ssr:stedsnr" v="568003" />
	</node>
	<node id="-2521" lat="58.9924416672" lon="11.4943444375">
		<tag k="fixme" v="consider natural=peak for the most distinct mountains in the district" />
		<tag k="name" v="Vardåsen" />
		<tag k="natural" v="hill" />
		<tag k="place" v="locality" />
		<tag k="ssr:stedsnr" v="567308" />
	</node>
	<node id="-2520" lat="58.9856194409" lon="11.455075008">
		<tag k="name" v="Stenbudalen" />
		<tag k="natural" v="valley" />
		<tag k="place" v="locality" />
		<tag k="ssr:stedsnr" v="567309" />
	</node>
	<node id="-2517" lat="58.9693416643" lon="11.4699472182">
		<tag k="fixme" v="consider natural=peak for the most distinct mountains in the district" />
		<tag k="name" v="Vestfjella" />
		<tag k="natural" v="hill" />
		<tag k="place" v="locality" />
		<tag k="ssr:stedsnr" v="567161" />
	</node>
	<node id="-2502" lat="59.0957388905" lon="11.6196972288">
		<tag k="alt_name" v="Helgesås" />
		<tag k="fixme" v="consider natural=peak for the most distinct mountains in the district" />
		<tag k="name" v="Helgesåsen" />
		<tag k="natural" v="hill" />
		<tag k="place" v="locality" />
		<tag k="ssr:stedsnr" v="548458" />
	</node>
	<node id="-2501" lat="59.0881972236" lon="11.5081027776">
		<tag k="fixme" v="consider natural=peak for the most distinct mountains in the district" />
		<tag k="name" v="Ekelifjell" />
		<tag k="natural" v="hill" />
		<tag k="place" v="locality" />
		<tag k="ssr:stedsnr" v="548451" />
	</node>
	<node id="-2498" lat="59.0355888908" lon="11.6331611186">
		<tag k="name" v="Seterhaugene" />
		<tag k="natural" v="hill" />
		<tag k="place" v="locality" />
		<tag k="ssr:stedsnr" v="548435" />
	</node>
	<node id="-2497" lat="59.0283861104" lon="11.6338638812">
		<tag k="alt_name" v="Gjeteryggen" />
		<tag k="name" v="Geiteryggen" />
		<tag k="natural" v="hill" />
		<tag k="place" v="locality" />
		<tag k="ssr:stedsnr" v="548427" />
	</node>
	<node id="-2496" lat="59.0209194441" lon="11.5339027788">
		<tag k="alt_name" v="Hisåsen" />
		<tag k="fixme" v="consider natural=peak for the most distinct mountains in the district" />
		<tag k="name" v="Hisås" />
		<tag k="natural" v="hill" />
		<tag k="place" v="locality" />
		<tag k="ssr:stedsnr" v="548357" />
	</node>
	<node id="-2495" lat="59.001291665" lon="11.5136499968">
		<tag k="fixme" v="consider natural=peak for the most distinct mountains in the district" />
		<tag k="name" v="Hvitås" />
		<tag k="natural" v="hill" />
		<tag k="place" v="locality" />
		<tag k="ssr:stedsnr" v="548309" />
	</node>
	<node id="-2493" lat="59.0354499979" lon="11.4455250024">
		<tag k="name" v="Osdalen" />
		<tag k="natural" v="valley" />
		<tag k="place" v="locality" />
		<tag k="ssr:stedsnr" v="548232" />
	</node>
	<node id="-2489" lat="59.1155777734" lon="11.6110250044">
		<tag k="name" v="Bjørnekollen" />
		<tag k="natural" v="hill" />
		<tag k="place" v="locality" />
		<tag k="ssr:stedsnr" v="548056" />
	</node>
	<node id="-2486" lat="59.1509055541" lon="11.522102781">
		<tag k="name" v="Fugleås" />
		<tag k="natural" v="hill" />
		<tag k="place" v="locality" />
		<tag k="ssr:stedsnr" v="548014" />
	</node>
	<node id="-1515" lat="59.1020333294" lon="11.6415916616">
		<tag k="fixme" v="consider natural=peak for the most distinct mountains in the district" />
		<tag k="name" v="Krokvannskollene" />
		<tag k="natural" v="hill" />
		<tag k="place" v="locality" />
		<tag k="ssr:stedsnr" v="50939" />
	</node>
	<node id="-2478" lat="58.97865278" lon="11.6242361129">
		<tag k="fixme" v="multiple name tags, choose one and add the other to alt_name; consider natural=peak for the most distinct mountains in the district" />
		<tag k="name" v="Damtjernkollen;Tassefjell" />
		<tag k="natural" v="hill" />
		<tag k="place" v="locality" />
		<tag k="ssr:stedsnr" v="547840" />
	</node>
	<node id="-2475" lat="59.1011499975" lon="11.2753749945">
		<tag k="fixme" v="consider natural=peak for the most distinct mountains in the district" />
		<tag k="name" v="Hjelmkollen" />
		<tag k="natural" v="hill" />
		<tag k="place" v="locality" />
		<tag k="ssr:stedsnr" v="547836" />
	</node>
	<node id="-2469" lat="59.245425" lon="11.3690805605">
		<tag k="fixme" v="consider natural=peak for the most distinct mountains in the district" />
		<tag k="name" v="Tingsbuåsen" />
		<tag k="natural" v="hill" />
		<tag k="place" v="locality" />
		<tag k="ssr:stedsnr" v="547632" />
	</node>
	<node id="-2468" lat="59.0839361104" lon="11.5890527773">
		<tag k="alt_name" v="Lomtjernåsen" />
		<tag k="fixme" v="consider natural=peak for the most distinct mountains in the district" />
		<tag k="name" v="Lomtjernkollen" />
		<tag k="natural" v="hill" />
		<tag k="place" v="locality" />
		<tag k="ssr:stedsnr" v="547521" />
	</node>
	<node id="-2461" lat="59.0134083305" lon="11.6316388845">
		<tag k="name" v="Halvfardalen" />
		<tag k="natural" v="valley" />
		<tag k="place" v="locality" />
		<tag k="ssr:stedsnr" v="547351" />
	</node>
	<node id="-2457" lat="59.1998083335" lon="11.5071249942">
		<tag k="fixme" v="consider natural=peak for the most distinct mountains in the district" />
		<tag k="name" v="Bøåsen" />
		<tag k="natural" v="hill" />
		<tag k="place" v="locality" />
		<tag k="ssr:stedsnr" v="547198" />
	</node>
	<node id="-2452" lat="58.9017888903" lon="11.6022666609">
		<tag k="name" v="Tjyvedalen" />
		<tag k="natural" v="valley" />
		<tag k="place" v="locality" />
		<tag k="ssr:stedsnr" v="547142" />
	</node>
	<node id="-2451" lat="58.9405388926" lon="11.5376472306">
		<tag k="fixme" v="consider natural=peak for the most distinct mountains in the district" />
		<tag k="name" v="Steirødåsen" />
		<tag k="natural" v="hill" />
		<tag k="place" v="locality" />
		<tag k="ssr:stedsnr" v="546855" />
	</node>
	<node id="-2443" lat="58.9821638885" lon="11.4789111031">
		<tag k="fixme" v="consider natural=peak for the most distinct mountains in the district" />
		<tag k="name" v="Folkåsen" />
		<tag k="natural" v="hill" />
		<tag k="place" v="locality" />
		<tag k="ssr:stedsnr" v="544102" />
	</node>
	<node id="-2437" lat="59.0420055537" lon="11.6686277802">
		<tag k="name" v="Murholtsdalen" />
		<tag k="natural" v="valley" />
		<tag k="place" v="locality" />
		<tag k="ssr:stedsnr" v="536965" />
	</node>
	<node id="-2429" lat="58.9213250036" lon="11.4664861059">
		<tag k="fixme" v="consider natural=peak for the most distinct mountains in the district" />
		<tag k="name" v="Himmerikskollen" />
		<tag k="natural" v="hill" />
		<tag k="place" v="locality" />
		<tag k="ssr:stedsnr" v="536880" />
	</node>
	<node id="-2425" lat="59.0075611124" lon="11.5516277736">
		<tag k="fixme" v="consider natural=peak for the most distinct mountains in the district" />
		<tag k="name" v="Tranvikbergene" />
		<tag k="natural" v="hill" />
		<tag k="place" v="locality" />
		<tag k="ssr:stedsnr" v="536790" />
	</node>
	<node id="-2424" lat="59.1542944484" lon="11.5770138879">
		<tag k="fixme" v="consider natural=peak for the most distinct mountains in the district" />
		<tag k="name" v="Brekkefjella" />
		<tag k="natural" v="hill" />
		<tag k="place" v="locality" />
		<tag k="ssr:stedsnr" v="536776" />
	</node>
	<node id="-2420" lat="58.9291305538" lon="11.4816583373">
		<tag k="fixme" v="consider natural=peak for the most distinct mountains in the district" />
		<tag k="name" v="Røssen" />
		<tag k="natural" v="hill" />
		<tag k="place" v="locality" />
		<tag k="ssr:stedsnr" v="536731" />
	</node>
	<node id="-2407" lat="59.108766666" lon="11.6370083248">
		<tag k="fixme" v="consider natural=peak for the most distinct mountains in the district" />
		<tag k="name" v="Skrukkeås" />
		<tag k="natural" v="hill" />
		<tag k="place" v="locality" />
		<tag k="ssr:stedsnr" v="536659" />
	</node>
	<node id="-2406" lat="59.0675638898" lon="11.6119666719">
		<tag k="fixme" v="consider natural=peak for the most distinct mountains in the district" />
		<tag k="name" v="Råbukken" />
		<tag k="natural" v="hill" />
		<tag k="place" v="locality" />
		<tag k="ssr:stedsnr" v="536658" />
	</node>
	<node id="-2401" lat="58.9751222248" lon="11.6131250046">
		<tag k="fixme" v="consider natural=peak for the most distinct mountains in the district" />
		<tag k="name" v="Dørkollene" />
		<tag k="natural" v="hill" />
		<tag k="place" v="locality" />
		<tag k="ssr:stedsnr" v="536629" />
	</node>
	<node id="-2394" lat="59.1138222252" lon="11.6046194529">
		<tag k="fixme" v="consider natural=peak for the most distinct mountains in the district" />
		<tag k="name" v="Store Bjørnekollen" />
		<tag k="natural" v="hill" />
		<tag k="place" v="locality" />
		<tag k="ssr:stedsnr" v="536549" />
	</node>
	<node id="-2386" lat="59.2093194444" lon="11.4213388876">
		<tag k="name" v="Ankerdalen" />
		<tag k="natural" v="valley" />
		<tag k="place" v="locality" />
		<tag k="ssr:stedsnr" v="508878" />
	</node>
	<node id="-2385" lat="59.2184833305" lon="11.4128833347">
		<tag k="name" v="Bjørndalen" />
		<tag k="natural" v="valley" />
		<tag k="place" v="locality" />
		<tag k="ssr:stedsnr" v="508877" />
	</node>
	<node id="-2382" lat="59.0790666668" lon="11.4957583382">
		<tag k="fixme" v="consider natural=peak for the most distinct mountains in the district" />
		<tag k="name" v="Kalfjell" />
		<tag k="natural" v="hill" />
		<tag k="place" v="locality" />
		<tag k="ssr:stedsnr" v="508823" />
	</node>
	<node id="-2378" lat="59.105475004" lon="11.477972225">
		<tag k="name" v="Orremoen" />
		<tag k="place" v="locality" />
		<tag k="ssr:stedsnr" v="508782" />
	</node>
	<node id="-2377" lat="59.1170888858" lon="11.3964416677">
		<tag k="fixme" v="consider natural=peak for the most distinct mountains in the district" />
		<tag k="name" v="Brådlandskansen" />
		<tag k="natural" v="hill" />
		<tag k="place" v="locality" />
		<tag k="ssr:stedsnr" v="508758" />
	</node>
	<node id="-2373" lat="58.9791055581" lon="11.4646583347">
		<tag k="name" v="Låneleina" />
		<tag k="natural" v="slope" />
		<tag k="place" v="locality" />
		<tag k="ssr:stedsnr" v="507296" />
	</node>
	<node id="-2361" lat="59.097311114" lon="11.2457305642">
		<tag k="fixme" v="consider natural=peak for the most distinct mountains in the district" />
		<tag k="name" v="Røssefjella" />
		<tag k="natural" v="hill" />
		<tag k="place" v="locality" />
		<tag k="ssr:stedsnr" v="507037" />
	</node>
	<node id="-2356" lat="59.1755000033" lon="11.4302250038">
		<tag k="alt_name" v="Høgås" />
		<tag k="fixme" v="consider natural=peak for the most distinct mountains in the district" />
		<tag k="name" v="Høyåsen" />
		<tag k="natural" v="hill" />
		<tag k="place" v="locality" />
		<tag k="ssr:stedsnr" v="487962" />
	</node>
	<node id="-2353" lat="59.2238027773" lon="11.3576805504">
		<tag k="alt_name" v="Rokkefjellene" />
		<tag k="fixme" v="consider natural=peak for the most distinct mountains in the district" />
		<tag k="name" v="Rokkefjella" />
		<tag k="natural" v="hill" />
		<tag k="place" v="locality" />
		<tag k="ssr:stedsnr" v="487915" />
	</node>
	<node id="-2352" lat="59.2023500004" lon="11.2841027736">
		<tag k="fixme" v="consider natural=peak for the most distinct mountains in the district" />
		<tag k="name" v="Vesttorpfjellet" />
		<tag k="natural" v="hill" />
		<tag k="place" v="locality" />
		<tag k="ssr:stedsnr" v="487899" />
	</node>
	<node id="-2339" lat="58.9806979937" lon="11.5931860573">
		<tag k="alt_name" v="Torstensetfjellet" />
		<tag k="fixme" v="consider natural=peak for the most distinct mountains in the district" />
		<tag k="name" v="Torstensetåsen" />
		<tag k="natural" v="hill" />
		<tag k="place" v="locality" />
		<tag k="ssr:stedsnr" v="487830" />
	</node>
	<node id="-1072" lat="59.1926194465" lon="11.47933334">
		<tag k="fixme" v="multiple name tags, choose one and add the other to alt_name; consider natural=peak for the most distinct mountains in the district" />
		<tag k="name" v="Demmehøgda;Demmeåsen" />
		<tag k="natural" v="hill" />
		<tag k="old_name" v="Demmehöiden" />
		<tag k="place" v="locality" />
		<tag k="ssr:stedsnr" v="305985" />
	</node>
	<node id="-2333" lat="59.066263889" lon="11.5971583283">
		<tag k="alt_name" v="Vardås" />
		<tag k="fixme" v="consider natural=peak for the most distinct mountains in the district" />
		<tag k="name" v="Vardeåsen" />
		<tag k="natural" v="hill" />
		<tag k="place" v="locality" />
		<tag k="ssr:stedsnr" v="487431" />
	</node>
	<node id="-2298" lat="58.9157333365" lon="11.5613444505">
		<tag k="fixme" v="consider natural=peak for the most distinct mountains in the district" />
		<tag k="name" v="Trettarkas" />
		<tag k="natural" v="hill" />
		<tag k="place" v="locality" />
		<tag k="ssr:stedsnr" v="486122" />
	</node>
	<node id="-2297" lat="58.8989611107" lon="11.477255558">
		<tag k="fixme" v="consider natural=peak for the most distinct mountains in the district" />
		<tag k="name" v="Nygårdskollen" />
		<tag k="natural" v="hill" />
		<tag k="place" v="locality" />
		<tag k="ssr:stedsnr" v="486113" />
	</node>
	<node id="-2295" lat="58.9779388867" lon="11.4687055611">
		<tag k="name" v="Nypetokullen" />
		<tag k="natural" v="hill" />
		<tag k="place" v="locality" />
		<tag k="ssr:stedsnr" v="483121" />
	</node>
	<node id="-2287" lat="59.2022500004" lon="11.4243333248">
		<tag k="name" v="Trineborgkollen" />
		<tag k="natural" v="hill" />
		<tag k="place" v="locality" />
		<tag k="ssr:stedsnr" v="447827" />
	</node>
	<node id="-2284" lat="59.1321055576" lon="11.4201638951">
		<tag k="name" v="Grimsrødhøgda" />
		<tag k="natural" v="hill" />
		<tag k="place" v="locality" />
		<tag k="ssr:stedsnr" v="447802" />
	</node>
	<node id="-2283" lat="59.1303305566" lon="11.432305557">
		<tag k="name" v="Linåkerbakken" />
		<tag k="natural" v="slope" />
		<tag k="place" v="locality" />
		<tag k="ssr:stedsnr" v="447801" />
	</node>
	<node id="-2282" lat="59.154958333" lon="11.4737222239">
		<tag k="fixme" v="consider natural=peak for the most distinct mountains in the district" />
		<tag k="name" v="Knatterødåsen" />
		<tag k="natural" v="hill" />
		<tag k="place" v="locality" />
		<tag k="ssr:stedsnr" v="447797" />
	</node>
	<node id="-2281" lat="59.1561194444" lon="11.456733334">
		<tag k="name" v="Springerbakken" />
		<tag k="natural" v="slope" />
		<tag k="place" v="locality" />
		<tag k="ssr:stedsnr" v="447784" />
	</node>
	<node id="-2267" lat="59.1183083324" lon="11.3120305535">
		<tag k="name" v="Hestehaugen" />
		<tag k="natural" v="hill" />
		<tag k="place" v="locality" />
		<tag k="ssr:stedsnr" v="447154" />
	</node>
	<node id="-2265" lat="58.97195556" lon="11.4915055515">
		<tag k="fixme" v="consider natural=peak for the most distinct mountains in the district" />
		<tag k="name" v="Klokollen" />
		<tag k="natural" v="hill" />
		<tag k="place" v="locality" />
		<tag k="ssr:stedsnr" v="447145" />
	</node>
	<node id="-2262" lat="59.109302781" lon="11.2388999999">
		<tag k="fixme" v="consider natural=peak for the most distinct mountains in the district" />
		<tag k="name" v="Svalerødåsen" />
		<tag k="natural" v="hill" />
		<tag k="place" v="locality" />
		<tag k="ssr:stedsnr" v="447013" />
	</node>
	<node id="-1400" lat="58.9226793877" lon="11.6014857675">
		<tag k="fixme" v="multiple name tags, choose one and add the other to alt_name; consider natural=peak for the most distinct mountains in the district" />
		<tag k="name" v="Vardåsen;Vardhaugene" />
		<tag k="natural" v="hill" />
		<tag k="place" v="locality" />
		<tag k="ssr:stedsnr" v="183" />
	</node>
	<node id="-2248" lat="59.1571527752" lon="11.2941055531">
		<tag k="fixme" v="consider natural=peak for the most distinct mountains in the district" />
		<tag k="name" v="Tobruåsen" />
		<tag k="natural" v="hill" />
		<tag k="place" v="locality" />
		<tag k="ssr:stedsnr" v="427771" />
	</node>
	<node id="-2242" lat="59.0908888899" lon="11.566563889">
		<tag k="alt_name" v="Kroktjernfjellet" />
		<tag k="fixme" v="consider natural=peak for the most distinct mountains in the district" />
		<tag k="name" v="Kroktjernsfjellet" />
		<tag k="natural" v="hill" />
		<tag k="place" v="locality" />
		<tag k="ssr:stedsnr" v="427506" />
	</node>
	<node id="-2240" lat="59.0216722256" lon="11.6713388807">
		<tag k="alt_name" v="Høljehaugen" />
		<tag k="fixme" v="consider natural=peak for the most distinct mountains in the district" />
		<tag k="name" v="Høljeåsen" />
		<tag k="natural" v="hill" />
		<tag k="place" v="locality" />
		<tag k="ssr:stedsnr" v="427368" />
	</node>
	<node id="-2238" lat="59.2063444452" lon="11.5121249979">
		<tag k="alt_name" v="Vardåsen" />
		<tag k="fixme" v="consider natural=peak for the most distinct mountains in the district" />
		<tag k="name" v="Vardeåsen" />
		<tag k="natural" v="hill" />
		<tag k="place" v="locality" />
		<tag k="ssr:stedsnr" v="427313" />
	</node>
	<node id="-2237" lat="59.2433277783" lon="11.4978638871">
		<tag k="fixme" v="consider natural=peak for the most distinct mountains in the district" />
		<tag k="name" v="Ravnåsen" />
		<tag k="natural" v="hill" />
		<tag k="place" v="locality" />
		<tag k="ssr:stedsnr" v="427276" />
	</node>
	<node id="-2235" lat="59.1779055546" lon="11.4784027702">
		<tag k="alt_name" v="Jøvikdalen" />
		<tag k="name" v="Rjørvikdalen" />
		<tag k="natural" v="valley" />
		<tag k="place" v="locality" />
		<tag k="ssr:stedsnr" v="427095" />
	</node>
	<node id="-2227" lat="59.106627781" lon="11.2582249952">
		<tag k="fixme" v="consider natural=peak for the most distinct mountains in the district" />
		<tag k="name" v="Børsåsen" />
		<tag k="natural" v="hill" />
		<tag k="place" v="locality" />
		<tag k="ssr:stedsnr" v="426846" />
	</node>
	<node id="-2221" lat="58.9868611094" lon="11.5716083348">
		<tag k="fixme" v="consider natural=peak for the most distinct mountains in the district" />
		<tag k="name" v="Trestikkhøgda" />
		<tag k="natural" v="hill" />
		<tag k="place" v="locality" />
		<tag k="ssr:stedsnr" v="426804" />
	</node>
	<node id="-2219" lat="58.9933611079" lon="11.6210722202">
		<tag k="fixme" v="consider natural=peak for the most distinct mountains in the district" />
		<tag k="name" v="Kutjernfjellet" />
		<tag k="natural" v="hill" />
		<tag k="place" v="locality" />
		<tag k="ssr:stedsnr" v="426797" />
	</node>
	<node id="-2213" lat="59.0855361129" lon="11.5596166625">
		<tag k="name" v="Ørdalen" />
		<tag k="natural" v="valley" />
		<tag k="place" v="locality" />
		<tag k="ssr:stedsnr" v="426466" />
	</node>
	<node id="-2212" lat="59.1064027781" lon="11.4969416633">
		<tag k="fixme" v="consider natural=peak for the most distinct mountains in the district" />
		<tag k="name" v="Klepperfjellet" />
		<tag k="natural" v="hill" />
		<tag k="place" v="locality" />
		<tag k="ssr:stedsnr" v="426435" />
	</node>
	<node id="-2211" lat="59.1038333312" lon="11.5998583282">
		<tag k="name" v="Trosteholta" />
		<tag k="natural" v="hill" />
		<tag k="place" v="locality" />
		<tag k="ssr:stedsnr" v="426433" />
	</node>
	<node id="-2210" lat="59.0676638887" lon="11.6042972304">
		<tag k="alt_name" v="Fugleåsen" />
		<tag k="fixme" v="consider natural=peak for the most distinct mountains in the district" />
		<tag k="name" v="Fugleås" />
		<tag k="natural" v="hill" />
		<tag k="place" v="locality" />
		<tag k="ssr:stedsnr" v="426372" />
	</node>
	<node id="-2208" lat="59.0557249984" lon="11.6333388802">
		<tag k="fixme" v="consider natural=peak for the most distinct mountains in the district" />
		<tag k="name" v="Vardeberga" />
		<tag k="natural" v="hill" />
		<tag k="place" v="locality" />
		<tag k="ssr:stedsnr" v="426357" />
	</node>
	<node id="-2198" lat="59.2307416655" lon="11.5433722191">
		<tag k="alt_name" v="Kråkegullåsen" />
		<tag k="fixme" v="consider natural=peak for the most distinct mountains in the district" />
		<tag k="name" v="Kråkgullåsen" />
		<tag k="natural" v="hill" />
		<tag k="place" v="locality" />
		<tag k="ssr:stedsnr" v="426156" />
	</node>
	<node id="-2193" lat="58.9068611095" lon="11.6086055575">
		<tag k="fixme" v="consider natural=peak for the most distinct mountains in the district" />
		<tag k="name" v="Grøntjernfjellet" />
		<tag k="natural" v="hill" />
		<tag k="place" v="locality" />
		<tag k="ssr:stedsnr" v="426132" />
	</node>
	<node id="-2187" lat="59.0834138896" lon="11.40576111">
		<tag k="name" v="Nokkedalskasa" />
		<tag k="natural" v="hill" />
		<tag k="place" v="locality" />
		<tag k="ssr:stedsnr" v="418096" />
	</node>
	<node id="-2186" lat="58.9909388926" lon="11.4730249954">
		<tag k="fixme" v="consider natural=peak for the most distinct mountains in the district" />
		<tag k="name" v="Brekkåsen" />
		<tag k="natural" v="hill" />
		<tag k="place" v="locality" />
		<tag k="ssr:stedsnr" v="417248" />
	</node>
	<node id="-2183" lat="58.9270166703" lon="11.4708888909">
		<tag k="name" v="Røssepipa" />
		<tag k="natural" v="hill" />
		<tag k="place" v="locality" />
		<tag k="ssr:stedsnr" v="415769" />
	</node>
	<node id="-2175" lat="58.9846194411" lon="11.6286749957">
		<tag k="fixme" v="consider natural=peak for the most distinct mountains in the district" />
		<tag k="name" v="Nordåsen" />
		<tag k="natural" v="hill" />
		<tag k="place" v="locality" />
		<tag k="ssr:stedsnr" v="415681" />
	</node>
	<node id="-2169" lat="58.9499722195" lon="11.5925472256">
		<tag k="fixme" v="consider natural=peak for the most distinct mountains in the district" />
		<tag k="name" v="Lysebergene" />
		<tag k="natural" v="hill" />
		<tag k="place" v="locality" />
		<tag k="ssr:stedsnr" v="415644" />
	</node>
	<node id="-2167" lat="58.9301638913" lon="11.5526361092">
		<tag k="name" v="Blåtjerndalen" />
		<tag k="natural" v="valley" />
		<tag k="place" v="locality" />
		<tag k="ssr:stedsnr" v="415637" />
	</node>
	<node id="-2165" lat="58.9190944407" lon="11.5617749993">
		<tag k="name" v="Ekedalen" />
		<tag k="natural" v="valley" />
		<tag k="place" v="locality" />
		<tag k="ssr:stedsnr" v="415628" />
	</node>
	<node id="-2161" lat="58.8880055515" lon="11.5267027736">
		<tag k="fixme" v="consider natural=peak for the most distinct mountains in the district" />
		<tag k="name" v="Holtene" />
		<tag k="natural" v="hill" />
		<tag k="place" v="locality" />
		<tag k="ssr:stedsnr" v="415606" />
	</node>
	<node id="-2156" lat="59.0792861108" lon="11.5680527725">
		<tag k="fixme" v="consider natural=peak for the most distinct mountains in the district" />
		<tag k="name" v="Søndre Haugen" />
		<tag k="natural" v="hill" />
		<tag k="place" v="locality" />
		<tag k="ssr:stedsnr" v="415577" />
	</node>
	<node id="-2154" lat="59.0419111139" lon="11.6623972152">
		<tag k="name" v="Murholtsdalen" />
		<tag k="natural" v="valley" />
		<tag k="place" v="locality" />
		<tag k="ssr:stedsnr" v="415566" />
	</node>
	<node id="-2150" lat="59.0108083361" lon="11.6207277701">
		<tag k="fixme" v="consider natural=peak for the most distinct mountains in the district" />
		<tag k="name" v="Hvitås" />
		<tag k="natural" v="hill" />
		<tag k="place" v="locality" />
		<tag k="ssr:stedsnr" v="414998" />
	</node>
	<node id="-2148" lat="59.0935861069" lon="11.5678472242">
		<tag k="fixme" v="consider natural=peak for the most distinct mountains in the district" />
		<tag k="name" v="Kverntjernsøfse" />
		<tag k="natural" v="hill" />
		<tag k="place" v="locality" />
		<tag k="ssr:stedsnr" v="414971" />
	</node>
	<node id="-2132" lat="59.0315138854" lon="11.5802805588">
		<tag k="fixme" v="consider natural=peak for the most distinct mountains in the district" />
		<tag k="name" v="Rustadåsen" />
		<tag k="natural" v="hill" />
		<tag k="place" v="locality" />
		<tag k="ssr:stedsnr" v="414712" />
	</node>
	<node id="-2124" lat="59.1155138928" lon="11.4017138827">
		<tag k="fixme" v="consider natural=peak for the most distinct mountains in the district" />
		<tag k="name" v="Overberget" />
		<tag k="natural" v="hill" />
		<tag k="place" v="locality" />
		<tag k="ssr:stedsnr" v="266741" />
	</node>
	<node id="-2118" lat="59.1828472241" lon="11.4651861145">
		<tag k="fixme" v="consider natural=peak for the most distinct mountains in the district" />
		<tag k="name" v="Seterbukollen" />
		<tag k="natural" v="hill" />
		<tag k="place" v="locality" />
		<tag k="ssr:stedsnr" v="265865" />
	</node>
	<node id="-2107" lat="59.0616722215" lon="11.434638891">
		<tag k="name" v="Styggedal" />
		<tag k="natural" v="valley" />
		<tag k="place" v="locality" />
		<tag k="ssr:stedsnr" v="265239" />
	</node>
	<node id="-2105" lat="59.0565972178" lon="11.455761112">
		<tag k="fixme" v="consider natural=peak for the most distinct mountains in the district" />
		<tag k="name" v="Mosteråsen" />
		<tag k="natural" v="hill" />
		<tag k="place" v="locality" />
		<tag k="ssr:stedsnr" v="265235" />
	</node>
	<node id="-2103" lat="59.1234722226" lon="11.3176972182">
		<tag k="name" v="Kuberget" />
		<tag k="natural" v="hill" />
		<tag k="place" v="locality" />
		<tag k="ssr:stedsnr" v="265223" />
	</node>
	<node id="-2100" lat="59.1102472202" lon="11.3817277856">
		<tag k="name" v="Slottet" />
		<tag k="natural" v="hill" />
		<tag k="place" v="locality" />
		<tag k="ssr:stedsnr" v="265175" />
	</node>
	<node id="-1093" lat="58.9687861149" lon="11.4950500063">
		<tag k="name" v="Hvitehella" />
		<tag k="place" v="locality" />
		<tag k="ssr:stedsnr" v="325165" />
	</node>
	<node id="-2092" lat="58.9595111116" lon="11.4752777726">
		<tag k="fixme" v="consider natural=peak for the most distinct mountains in the district" />
		<tag k="name" v="Berbyhaugene" />
		<tag k="natural" v="hill" />
		<tag k="place" v="locality" />
		<tag k="ssr:stedsnr" v="264182" />
	</node>
	<node id="-2091" lat="58.9663500004" lon="11.4757694438">
		<tag k="name" v="Nordre Husbudalen" />
		<tag k="natural" v="valley" />
		<tag k="place" v="locality" />
		<tag k="ssr:stedsnr" v="264180" />
	</node>
	<node id="-2593" lat="58.8959277807" lon="11.4789999989">
		<tag k="name" v="Furumoen" />
		<tag k="place" v="locality" />
		<tag k="ssr:stedsnr" v="596712" />
	</node>
	<node id="-2087" lat="58.9488055572" lon="11.5473722153">
		<tag k="fixme" v="consider natural=peak for the most distinct mountains in the district" />
		<tag k="name" v="Elmetoåsen" />
		<tag k="natural" v="hill" />
		<tag k="place" v="locality" />
		<tag k="ssr:stedsnr" v="245847" />
	</node>
	<node id="-2082" lat="59.0945666691" lon="11.6402666661">
		<tag k="alt_name" v="Tretteren" />
		<tag k="fixme" v="consider natural=peak for the most distinct mountains in the district" />
		<tag k="name" v="Trettarøfse" />
		<tag k="natural" v="hill" />
		<tag k="place" v="locality" />
		<tag k="ssr:stedsnr" v="245481" />
	</node>
	<node id="-2068" lat="59.1143249957" lon="11.2890249969">
		<tag k="fixme" v="consider natural=peak for the most distinct mountains in the district" />
		<tag k="name" v="Unnebergåsen" />
		<tag k="natural" v="hill" />
		<tag k="place" v="locality" />
		<tag k="ssr:stedsnr" v="244865" />
	</node>
	<node id="-2053" lat="59.0470527797" lon="11.5401166679">
		<tag k="alt_name" v="Langevannshøyda" />
		<tag k="fixme" v="consider natural=peak for the most distinct mountains in the district" />
		<tag k="name" v="Langvasshøgda" />
		<tag k="natural" v="hill" />
		<tag k="place" v="locality" />
		<tag k="ssr:stedsnr" v="244444" />
	</node>
	<node id="-2052" lat="59.0484527788" lon="11.524927775">
		<tag k="fixme" v="consider natural=peak for the most distinct mountains in the district" />
		<tag k="name" v="Bjerkås" />
		<tag k="natural" v="hill" />
		<tag k="place" v="locality" />
		<tag k="ssr:stedsnr" v="244445" />
	</node>
	<node id="-2050" lat="59.0679194463" lon="11.6443055572">
		<tag k="fixme" v="consider natural=peak for the most distinct mountains in the district" />
		<tag k="name" v="Slaåsen" />
		<tag k="natural" v="hill" />
		<tag k="place" v="locality" />
		<tag k="ssr:stedsnr" v="244400" />
	</node>
	<node id="-2049" lat="59.0564555543" lon="11.601425003">
		<tag k="name" v="Stenbrudalen" />
		<tag k="natural" v="valley" />
		<tag k="place" v="locality" />
		<tag k="ssr:stedsnr" v="244383" />
	</node>
</osm>
