<?xml version="1.0" encoding="UTF-8"?>
<osm generator="osmapis" version="0.6">
	<node id="-1258" lat="59.011574996" lon="11.7037249971">
		<tag k="historic" v="boundary_stone" />
		<tag k="man_made" v="cairn" />
		<tag k="name" v="Delesøya" />
		<tag k="old_name" v="Kul-Holmen;Kaal-Holmen" />
		<tag k="place" v="locality" />
		<tag k="ssr:stedsnr" v="400165" />
	</node>
	<node id="-1273" lat="58.9621083379" lon="11.6878277706">
		<tag k="historic" v="boundary_stone" />
		<tag k="man_made" v="cairn" />
		<tag k="name" v="Kråkesund" />
		<tag k="old_name" v="Kraakesund" />
		<tag k="place" v="locality" />
		<tag k="ssr:stedsnr" v="413397" />
	</node>
	<node id="-1272" lat="58.9484444426" lon="11.6816333322">
		<tag k="historic" v="boundary_stone" />
		<tag k="man_made" v="cairn" />
		<tag k="name" v="Abborsund" />
		<tag k="old_name" v="Aborsund" />
		<tag k="place" v="locality" />
		<tag k="ssr:stedsnr" v="413392" />
	</node>
	<node id="-3062" lat="59.0954277771" lon="11.4432777794">
		<tag k="fixme" v="consider boundary=protected_area and relevant protect_class if not nature reserve" />
		<tag k="leisure" v="nature_reserve" />
		<tag k="name" v="Solli gravlund" />
		<tag k="ssr:stedsnr" v="750781" />
	</node>
	<node id="-1619" lat="58.9275694469" lon="11.6591611168">
		<tag k="historic" v="boundary_stone" />
		<tag k="man_made" v="cairn" />
		<tag k="name" v="Husøysund" />
		<tag k="old_name" v="Huusøe Sund" />
		<tag k="place" v="locality" />
		<tag k="ssr:stedsnr" v="110248" />
	</node>
	<node id="-3567" lat="58.9974444434" lon="11.6931944508">
		<tag k="historic" v="boundary_stone" />
		<tag k="man_made" v="cairn" />
		<tag k="name" v="Hallerøddammen" />
		<tag k="old_name" v="Hallerød Dammen" />
		<tag k="place" v="locality" />
		<tag k="ssr:stedsnr" v="947154" />
	</node>
	<node id="-1130" lat="59.2126027765" lon="11.5571416643">
		<tag k="fixme" v="consider boundary=protected_area and relevant protect_class if not nature reserve" />
		<tag k="leisure" v="nature_reserve" />
		<tag k="name" v="Langemyra naturreservat" />
		<tag k="ssr:stedsnr" v="354890" />
	</node>
	<node id="-2526" lat="58.9807194447" lon="11.4571222183">
		<tag k="historic" v="boundary_stone" />
		<tag k="loc_name" v="Stenbudalsåsen" />
		<tag k="man_made" v="cairn" />
		<tag k="name" v="Stenbudalsåsrøysa" />
		<tag k="old_name" v="Stenbodalsfjeldrøset" />
		<tag k="place" v="locality" />
		<tag k="ssr:stedsnr" v="595628" />
	</node>
	<node id="-2522" lat="58.9444944403" lon="11.4614138928">
		<tag k="historic" v="boundary_stone" />
		<tag k="loc_name" v="Oskarsteinen" />
		<tag k="man_made" v="cairn" />
		<tag k="name" v="Oscarssteinen" />
		<tag k="place" v="locality" />
		<tag k="ssr:stedsnr" v="582604" />
	</node>
	<node id="-2773" lat="58.9921027755" lon="11.6006749954">
		<tag k="fixme" v="consider boundary=protected_area and relevant protect_class if not nature reserve" />
		<tag k="leisure" v="nature_reserve" />
		<tag k="name" v="Prestebakkefjella naturreservat" />
		<tag k="ssr:stedsnr" v="667142" />
	</node>
	<node id="-2899" lat="59.0153749968" lon="11.7053805545">
		<tag k="historic" v="boundary_stone" />
		<tag k="loc_name" v="Gråmerra" />
		<tag k="man_made" v="cairn" />
		<tag k="name" v="Hvitesteinen" />
		<tag k="old_name" v="Graamærren;Hvitesteenen" />
		<tag k="place" v="locality" />
		<tag k="ssr:stedsnr" v="706162" />
	</node>
	<node id="-2255" lat="58.9349277818" lon="11.6661583269">
		<tag k="historic" v="boundary_stone" />
		<tag k="man_made" v="cairn" />
		<tag k="name" v="Lykksvika" />
		<tag k="old_name" v="Lyckswandswigen" />
		<tag k="place" v="locality" />
		<tag k="ssr:stedsnr" v="461309" />
	</node>
	<node id="-1357" lat="59.0479755036" lon="11.7028937554">
		<tag k="fixme" v="consider boundary=protected_area and relevant protect_class if not nature reserve" />
		<tag k="leisure" v="nature_reserve" />
		<tag k="name" v="Lundsneset naturreservat" />
		<tag k="ssr:stedsnr" v="985578" />
	</node>
	<node id="-2755" lat="59.0199972239" lon="11.5176999992">
		<tag k="fixme" v="specify shooting=range, clay_pigeon etc" />
		<tag k="leisure" v="pitch" />
		<tag k="name" v="Buer skytebane" />
		<tag k="sport" v="shooting" />
		<tag k="ssr:stedsnr" v="657897" />
	</node>
	<node id="-1341" lat="58.9124176847" lon="11.605151748">
		<tag k="fixme" v="consider boundary=protected_area and relevant protect_class if not nature reserve" />
		<tag k="leisure" v="nature_reserve" />
		<tag k="name" v="Svantjern naturreservat" />
		<tag k="ssr:stedsnr" v="981233" />
	</node>
	<node id="-1084" lat="58.9347805589" lon="11.6710138809">
		<tag k="historic" v="boundary_stone" />
		<tag k="loc_name" v="Sundsbru" />
		<tag k="man_made" v="cairn" />
		<tag k="name" v="Sundsbrusund" />
		<tag k="old_name" v="Sundsbrosund" />
		<tag k="place" v="locality" />
		<tag k="ssr:stedsnr" v="340307" />
	</node>
	<node id="-1335" lat="58.9424833353" lon="11.6743916729">
		<tag k="historic" v="boundary_stone" />
		<tag k="man_made" v="cairn" />
		<tag k="name" v="Bjørnesund" />
		<tag k="old_name" v="Biørnesund" />
		<tag k="place" v="locality" />
		<tag k="ssr:stedsnr" v="899297" />
	</node>
	<node id="-3633" lat="59.2256935491" lon="11.5799741495">
		<tag k="fixme" v="consider boundary=protected_area and relevant protect_class if not nature reserve" />
		<tag k="leisure" v="nature_reserve" />
		<tag k="name" v="Vestfjella naturreservat" />
		<tag k="ssr:stedsnr" v="971496" />
	</node>
	<node id="-2714" lat="59.0336805543" lon="11.7105166662">
		<tag k="historic" v="boundary_stone" />
		<tag k="man_made" v="cairn" />
		<tag k="name" v="Tåkeholmrøysa" />
		<tag k="old_name" v="Taageholms Røset" />
		<tag k="place" v="locality" />
		<tag k="ssr:stedsnr" v="655196" />
	</node>
	<node id="-2708" lat="58.9382583314" lon="11.6745861058">
		<tag k="historic" v="boundary_stone" />
		<tag k="loc_name" v="Kjerringsund" />
		<tag k="man_made" v="cairn" />
		<tag k="name" v="Kjærringesund" />
		<tag k="old_name" v="Kiæringe Sund" />
		<tag k="place" v="locality" />
		<tag k="ssr:stedsnr" v="643294" />
	</node>
	<node id="-2707" lat="58.9062305512" lon="11.6519972231">
		<tag k="historic" v="boundary_stone" />
		<tag k="man_made" v="cairn" />
		<tag k="name" v="Hisøyrøysa" />
		<tag k="old_name" v="Hengsøe Røset;Hisøe Røset" />
		<tag k="place" v="locality" />
		<tag k="ssr:stedsnr" v="643357" />
	</node>
	<node id="-1934" lat="58.9410388887" lon="11.4621583272">
		<tag k="historic" v="boundary_stone" />
		<tag k="loc_name" v="Halvfaresteinen;Halvfarssteinen" />
		<tag k="man_made" v="cairn" />
		<tag k="name" v="Halvarssteinen" />
		<tag k="old_name" v="Halvfarestensrøset" />
		<tag k="place" v="locality" />
		<tag k="ssr:stedsnr" v="219615" />
	</node>
	<node id="-3073" lat="58.9727472253" lon="11.6886388941">
		<tag k="historic" v="boundary_stone" />
		<tag k="man_made" v="cairn" />
		<tag k="name" v="Bokelvosen" />
		<tag k="place" v="locality" />
		<tag k="ssr:stedsnr" v="777357" />
	</node>
</osm>
