<?xml version="1.0" encoding="UTF-8"?>
<osm generator="osmapis" version="0.6">
	<node id="-2045" lat="59.0349999983" lon="11.5019083382">
		<tag k="alt_name" v="Lundane" />
		<tag k="name" v="Lundene" />
		<tag k="place" v="farm" />
		<tag k="ssr:stedsnr" v="245393" />
	</node>
	<node id="-2042" lat="59.1532638874" lon="11.5198055533">
		<tag k="name" v="Hasleto" />
		<tag k="place" v="farm" />
		<tag k="ssr:stedsnr" v="245116" />
	</node>
	<node id="-2041" lat="59.1644583313" lon="11.4920416679">
		<tag k="name" v="Tangen" />
		<tag k="place" v="farm" />
		<tag k="ssr:stedsnr" v="245101" />
	</node>
	<node id="-2038" lat="59.1995913276" lon="11.3509684892">
		<tag k="fixme" v="consider place=hamlet" />
		<tag k="name" v="Hestehagen" />
		<tag k="place" v="farm" />
		<tag k="ssr:stedsnr" v="244995" />
	</node>
	<node id="-2037" lat="59.1991750042" lon="11.4241250053">
		<tag k="name" v="Fjell" />
		<tag k="place" v="farm" />
		<tag k="ssr:stedsnr" v="244982" />
	</node>
	<node id="-2036" lat="59.2288472246" lon="11.3284027796">
		<tag k="alt_name" v="Haglund" />
		<tag k="name" v="Hagelund" />
		<tag k="place" v="farm" />
		<tag k="ssr:stedsnr" v="244939" />
	</node>
	<node id="-2033" lat="59.1062611124" lon="11.2526444438">
		<tag k="alt_name" v="Steinrød;Stensrød;Steinsrød" />
		<tag k="name" v="Stenrød" />
		<tag k="place" v="farm" />
		<tag k="ssr:stedsnr" v="244849" />
	</node>
	<node id="-2032" lat="58.9732153283" lon="11.6831370088">
		<tag k="name" v="Holmen" />
		<tag k="place" v="farm" />
		<tag k="ssr:stedsnr" v="244838" />
	</node>
	<node id="-2031" lat="58.9721361101" lon="11.515322217">
		<tag k="name" v="Sundekasene" />
		<tag k="place" v="farm" />
		<tag k="ssr:stedsnr" v="244833" />
	</node>
	<node id="-2030" lat="58.9656944458" lon="11.5515750062">
		<tag k="name" v="Lasætre" />
		<tag k="place" v="isolated_dwelling" />
		<tag k="ssr:stedsnr" v="244834" />
	</node>
	<node id="-2029" lat="58.9771583323" lon="11.5078916632">
		<tag k="name" v="Glenne" />
		<tag k="place" v="farm" />
		<tag k="ssr:stedsnr" v="244830" />
	</node>
	<node id="-2027" lat="58.9769555543" lon="11.4900666743">
		<tag k="name" v="Skotkjerr" />
		<tag k="place" v="isolated_dwelling" />
		<tag k="ssr:stedsnr" v="244823" />
	</node>
	<node id="-2023" lat="59.1354750008" lon="11.2587416629">
		<tag k="alt_name" v="Røsnes nordre" />
		<tag k="name" v="Nordre Røsnes" />
		<tag k="place" v="farm" />
		<tag k="ssr:stedsnr" v="244780" />
	</node>
	<node id="-2012" lat="59.2466750002" lon="11.486219443">
		<tag k="alt_name" v="Siljedalen" />
		<tag k="name" v="Seljedalen" />
		<tag k="place" v="farm" />
		<tag k="ssr:stedsnr" v="244249" />
	</node>
	<node id="-1018" lat="59.0528249986" lon="11.5844416731">
		<tag k="name" v="Torgalsbøen" />
		<tag k="place" v="farm" />
		<tag k="ssr:stedsnr" v="305460" />
	</node>
	<node id="-2010" lat="59.0825499998" lon="11.432125007">
		<tag k="name" v="Torp" />
		<tag k="place" v="farm" />
		<tag k="ssr:stedsnr" v="244205" />
	</node>
	<node id="-2005" lat="58.9200388888" lon="11.5316138876">
		<tag k="name" v="Bergsmyra" />
		<tag k="place" v="farm" />
		<tag k="ssr:stedsnr" v="243157" />
	</node>
	<node id="-2003" lat="58.9035055527" lon="11.5784194369">
		<tag k="alt_name" v="Godagane;Goddagene" />
		<tag k="name" v="Godagene" />
		<tag k="place" v="isolated_dwelling" />
		<tag k="ssr:stedsnr" v="243126" />
	</node>
	<node id="-2000" lat="59.1072805531" lon="11.2857944424">
		<tag k="name" v="Kleiva" />
		<tag k="place" v="isolated_dwelling" />
		<tag k="ssr:stedsnr" v="241315" />
	</node>
	<node id="-1999" lat="59.1625326406" lon="11.4293460688">
		<tag k="name" v="Demma" />
		<tag k="place" v="hamlet" />
		<tag k="ssr:stedsnr" v="236573" />
	</node>
	<node id="-1998" lat="58.9845249974" lon="11.6407138886">
		<tag k="alt_name" v="Bollerød;Bollerød nordre" />
		<tag k="name" v="Nordre Bollerød" />
		<tag k="place" v="farm" />
		<tag k="ssr:stedsnr" v="234433" />
	</node>
	<node id="-1356" lat="59.1440104059" lon="11.3781953684">
		<tag k="name" v="Watvedt" />
		<tag k="place" v="quarter" />
		<tag k="ssr:stedsnr" v="981895" />
	</node>
	<node id="-1354" lat="59.1486232539" lon="11.3723256493">
		<tag k="name" v="Brekkerød" />
		<tag k="place" v="quarter" />
		<tag k="ssr:stedsnr" v="981893" />
	</node>
	<node id="-1352" lat="59.129794736" lon="11.2733432886">
		<tag k="name" v="Svinesundparken" />
		<tag k="place" v="quarter" />
		<tag k="ssr:stedsnr" v="981888" />
	</node>
	<node id="-1964" lat="59.0610111082" lon="11.5033805581">
		<tag k="name" v="Bråten" />
		<tag k="place" v="farm" />
		<tag k="ssr:stedsnr" v="232628" />
	</node>
	<node id="-1963" lat="59.0381361102" lon="11.5780055608">
		<tag k="name" v="Åsheim" />
		<tag k="place" v="farm" />
		<tag k="ssr:stedsnr" v="232629" />
	</node>
	<node id="-1962" lat="59.172827777" lon="11.5428638886">
		<tag k="name" v="Rød" />
		<tag k="place" v="farm" />
		<tag k="ssr:stedsnr" v="232624" />
	</node>
	<node id="-1961" lat="58.9099638848" lon="11.5170694415">
		<tag k="name" v="Signebøen" />
		<tag k="place" v="farm" />
		<tag k="ssr:stedsnr" v="232622" />
	</node>
	<node id="-1960" lat="59.1746166644" lon="11.5941222151">
		<tag k="alt_name" v="Veggesdal nordre" />
		<tag k="name" v="Nordre Veggesdal" />
		<tag k="place" v="farm" />
		<tag k="ssr:stedsnr" v="232620" />
	</node>
	<node id="-1959" lat="58.895394449" lon="11.5452972175">
		<tag k="name" v="Sørlie" />
		<tag k="place" v="farm" />
		<tag k="ssr:stedsnr" v="232617" />
	</node>
	<node id="-1958" lat="58.9352277741" lon="11.6734138941">
		<tag k="name" v="Sundet" />
		<tag k="place" v="isolated_dwelling" />
		<tag k="ssr:stedsnr" v="232600" />
	</node>
	<node id="-1955" lat="59.0073972208" lon="11.5229111155">
		<tag k="alt_name" v="Stenersrød nordre" />
		<tag k="name" v="Nordre Stenersrød" />
		<tag k="place" v="farm" />
		<tag k="ssr:stedsnr" v="232588" />
	</node>
	<node id="-1954" lat="59.0369861113" lon="11.5771000052">
		<tag k="alt_name" v="Bergloga" />
		<tag k="name" v="Berloga" />
		<tag k="old_name" v="Berlogo" />
		<tag k="place" v="farm" />
		<tag k="ssr:stedsnr" v="232581" />
	</node>
	<node id="-1953" lat="58.9295722214" lon="11.5186527706">
		<tag k="alt_name" v="Golden vestre" />
		<tag k="name" v="Vestre Golden" />
		<tag k="place" v="farm" />
		<tag k="ssr:stedsnr" v="232574" />
	</node>
	<node id="-1952" lat="58.9440916639" lon="11.621297217">
		<tag k="name" v="Paulsbo" />
		<tag k="place" v="farm" />
		<tag k="ssr:stedsnr" v="232572" />
	</node>
	<node id="-1008" lat="59.0230000039" lon="11.4508500044">
		<tag k="name" v="Liholt" />
		<tag k="place" v="farm" />
		<tag k="ssr:stedsnr" v="305223" />
	</node>
	<node id="-1007" lat="59.0156722182" lon="11.4451388882">
		<tag k="alt_name" v="Fransebakken;Franzebakke" />
		<tag k="name" v="Frantzebakken" />
		<tag k="place" v="isolated_dwelling" />
		<tag k="ssr:stedsnr" v="305220" />
	</node>
	<node id="-1348" lat="59.0588112489" lon="11.5235772224">
		<tag k="name" v="Ånerødfjellet" />
		<tag k="place" v="neighbourhood" />
		<tag k="ssr:stedsnr" v="981883" />
	</node>
	<node id="-1940" lat="58.8972194424" lon="11.5195972148">
		<tag k="alt_name" v="Smedkas" />
		<tag k="name" v="Solheim" />
		<tag k="place" v="isolated_dwelling" />
		<tag k="ssr:stedsnr" v="232365" />
	</node>
	<node id="-1006" lat="59.0167888904" lon="11.4507055551">
		<tag k="name" v="Bakke" />
		<tag k="place" v="farm" />
		<tag k="ssr:stedsnr" v="305221" />
	</node>
	<node id="-1937" lat="59.1224277747" lon="11.3866361035">
		<tag k="amenity" v="townhall" />
		<tag k="name" v="Halden rådhus" />
		<tag k="ssr:stedsnr" v="222555" />
	</node>
	<node id="-1005" lat="59.0733000037" lon="11.443774996">
		<tag k="name" v="Heier" />
		<tag k="place" v="farm" />
		<tag k="ssr:stedsnr" v="305211" />
	</node>
	<node id="-1004" lat="59.070024998" lon="11.4307749967">
		<tag k="name" v="Ystehede" />
		<tag k="place" v="farm" />
		<tag k="ssr:stedsnr" v="305207" />
	</node>
	<node id="-1925" lat="59.1466805513" lon="11.4558694372">
		<tag k="alt_name" v="Nordby vestre" />
		<tag k="name" v="Vestre Nordby" />
		<tag k="place" v="farm" />
		<tag k="ssr:stedsnr" v="204799" />
	</node>
	<node id="-995" lat="59.1886555583" lon="11.5072833319">
		<tag k="alt_name" v="Torby, nordre;Thoreby nordre" />
		<tag k="name" v="Nordre Torby" />
		<tag k="place" v="farm" />
		<tag k="ssr:stedsnr" v="305062" />
	</node>
	<node id="-1922" lat="59.0938416672" lon="11.3997611092">
		<tag k="name" v="Nordli" />
		<tag k="place" v="farm" />
		<tag k="ssr:stedsnr" v="204770" />
	</node>
	<node id="-1344" lat="58.975818756" lon="11.6416767181">
		<tag k="name" v="Bollerød" />
		<tag k="place" v="neighbourhood" />
		<tag k="ssr:stedsnr" v="981878" />
	</node>
	<node id="-1916" lat="59.06975556" lon="11.4651333339">
		<tag k="name" v="Heierlund" />
		<tag k="place" v="farm" />
		<tag k="ssr:stedsnr" v="204185" />
	</node>
	<node id="-1915" lat="59.1241416678" lon="11.3218500027">
		<tag k="name" v="Katrinestua" />
		<tag k="place" v="isolated_dwelling" />
		<tag k="ssr:stedsnr" v="204174" />
	</node>
	<node id="-1905" lat="59.1716722243" lon="11.3185472154">
		<tag k="name" v="Bjørndalen" />
		<tag k="place" v="isolated_dwelling" />
		<tag k="ssr:stedsnr" v="184926" />
	</node>
	<node id="-1904" lat="59.1718499991" lon="11.3505000016">
		<tag k="name" v="Nordbrøden" />
		<tag k="place" v="farm" />
		<tag k="ssr:stedsnr" v="184924" />
	</node>
	<node id="-1902" lat="59.2026750039" lon="11.3750250002">
		<tag k="name" v="Vassdalen" />
		<tag k="place" v="farm" />
		<tag k="ssr:stedsnr" v="184866" />
	</node>
	<node id="-1899" lat="59.1225750012" lon="11.3076249959">
		<tag k="name" v="Sørli" />
		<tag k="place" v="farm" />
		<tag k="ssr:stedsnr" v="184837" />
	</node>
	<node id="-1897" lat="58.9580972212" lon="11.576286113">
		<tag k="alt_name" v="Mosekas" />
		<tag k="name" v="Mosekasa" />
		<tag k="place" v="isolated_dwelling" />
		<tag k="ssr:stedsnr" v="184821" />
	</node>
	<node id="-1894" lat="59.1410750019" lon="11.4320611076">
		<tag k="name" v="Heiderød" />
		<tag k="place" v="farm" />
		<tag k="ssr:stedsnr" v="184758" />
	</node>
	<node id="-1891" lat="59.0204538199" lon="11.4905364602">
		<tag k="fixme" v="consider place=hamlet" />
		<tag k="name" v="Iddebøen" />
		<tag k="place" v="farm" />
		<tag k="ssr:stedsnr" v="184331" />
	</node>
	<node id="-1887" lat="59.1510749962" lon="11.4516277791">
		<tag k="alt_name" v="Grønlund øvre" />
		<tag k="name" v="Grønlund" />
		<tag k="place" v="farm" />
		<tag k="ssr:stedsnr" v="184278" />
	</node>
	<node id="-997" lat="59.1651388925" lon="11.5372361161">
		<tag k="name" v="Huset" />
		<tag k="place" v="farm" />
		<tag k="ssr:stedsnr" v="305104" />
	</node>
	<node id="-1883" lat="59.1923500008" lon="11.2991416677">
		<tag k="name" v="Ås" />
		<tag k="place" v="farm" />
		<tag k="ssr:stedsnr" v="183978" />
	</node>
	<node id="-1882" lat="59.18403056" lon="11.3287138846">
		<tag k="alt_name" v="Lindemørken nordre" />
		<tag k="name" v="Lindemørken" />
		<tag k="place" v="farm" />
		<tag k="ssr:stedsnr" v="183975" />
	</node>
	<node id="-1879" lat="58.9395500042" lon="11.4864055585">
		<tag k="name" v="Trolldalen" />
		<tag k="place" v="isolated_dwelling" />
		<tag k="ssr:stedsnr" v="183875" />
	</node>
	<node id="-1877" lat="59.1362249971" lon="11.3026250047">
		<tag k="name" v="Søtorp" />
		<tag k="place" v="farm" />
		<tag k="ssr:stedsnr" v="183778" />
	</node>
	<node id="-1876" lat="59.1367999968" lon="11.3424777815">
		<tag k="name" v="Arneberg" />
		<tag k="place" v="farm" />
		<tag k="ssr:stedsnr" v="183760" />
	</node>
	<node id="-1874" lat="59.1085000029" lon="11.2094749917">
		<tag k="alt_name" v="Verpet" />
		<tag k="name" v="Varpet" />
		<tag k="place" v="isolated_dwelling" />
		<tag k="ssr:stedsnr" v="183845" />
	</node>
	<node id="-1873" lat="59.1028749971" lon="11.4428499915">
		<tag k="name" v="Vestli" />
		<tag k="place" v="farm" />
		<tag k="ssr:stedsnr" v="183839" />
	</node>
	<node id="-1872" lat="58.9798126734" lon="11.6830915693">
		<tag k="fixme" v="consider place=hamlet" />
		<tag k="name" v="Bokerød" />
		<tag k="place" v="farm" />
		<tag k="ssr:stedsnr" v="183833" />
	</node>
	<node id="-1870" lat="59.0989277808" lon="11.418274992">
		<tag k="name" v="Holm" />
		<tag k="place" v="farm" />
		<tag k="ssr:stedsnr" v="183830" />
	</node>
	<node id="-1868" lat="58.9736861155" lon="11.677158327">
		<tag k="alt_name" v="Opset" />
		<tag k="name" v="Oppset" />
		<tag k="place" v="isolated_dwelling" />
		<tag k="ssr:stedsnr" v="183826" />
	</node>
	<node id="-1867" lat="58.9845306969" lon="11.6427619696">
		<tag k="alt_name" v="Bollerød nordre;Bollerød" />
		<tag k="fixme" v="consider place=hamlet" />
		<tag k="name" v="Nordre Bollerød" />
		<tag k="place" v="farm" />
		<tag k="ssr:stedsnr" v="183817" />
	</node>
	<node id="-1866" lat="58.9820749954" lon="11.6415361186">
		<tag k="alt_name" v="Bollerød søndre" />
		<tag k="name" v="Søndre Bollerød" />
		<tag k="place" v="farm" />
		<tag k="ssr:stedsnr" v="183816" />
	</node>
	<node id="-1864" lat="58.9923704695" lon="11.6505286706">
		<tag k="alt_name" v="Jerdsenga" />
		<tag k="name" v="Jersenga" />
		<tag k="place" v="farm" />
		<tag k="ssr:stedsnr" v="183808" />
	</node>
	<node id="-1862" lat="59.0832638899" lon="11.5297361085">
		<tag k="name" v="Haugli" />
		<tag k="place" v="locality" />
		<tag k="ssr:stedsnr" v="183441" />
	</node>
	<node id="-1856" lat="59.0571666687" lon="11.4983694501">
		<tag k="name" v="Heierkas" />
		<tag k="place" v="farm" />
		<tag k="ssr:stedsnr" v="183350" />
	</node>
	<node id="-992" lat="59.1981749995" lon="11.2981499959">
		<tag k="name" v="Vesttorp" />
		<tag k="place" v="farm" />
		<tag k="ssr:stedsnr" v="304991" />
	</node>
	<node id="-1851" lat="58.9233388864" lon="11.6318694358">
		<tag k="alt_name" v="Finsviken" />
		<tag k="name" v="Finnsvika" />
		<tag k="place" v="farm" />
		<tag k="ssr:stedsnr" v="183146" />
	</node>
	<node id="-1850" lat="59.2072249982" lon="11.4868527781">
		<tag k="name" v="Mebø" />
		<tag k="place" v="farm" />
		<tag k="ssr:stedsnr" v="183147" />
	</node>
	<node id="-1846" lat="58.9417333326" lon="11.5221305469">
		<tag k="fixme" v="multiple name tags, choose one and add the other to alt_name" />
		<tag k="name" v="Hea;Rød" />
		<tag k="place" v="farm" />
		<tag k="ssr:stedsnr" v="182862" />
	</node>
	<node id="-1845" lat="58.9452972211" lon="11.529691661">
		<tag k="name" v="Hasleto" />
		<tag k="place" v="isolated_dwelling" />
		<tag k="ssr:stedsnr" v="182859" />
	</node>
	<node id="-1841" lat="59.0949083342" lon="11.4292666664">
		<tag k="fixme" v="consider place=hamlet" />
		<tag k="name" v="Idd" />
		<tag k="place" v="village" />
		<tag k="ssr:stedsnr" v="177450" />
	</node>
	<node id="-1838" lat="59.1048333344" lon="11.2076500074">
		<tag k="name" v="Sandbakken" />
		<tag k="place" v="isolated_dwelling" />
		<tag k="ssr:stedsnr" v="173290" />
	</node>
	<node id="-1835" lat="59.1286583368" lon="11.5309527732">
		<tag k="historic" v="shieling" />
		<tag k="name" v="Krusætre" />
		<tag k="place" v="locality" />
		<tag k="ssr:stedsnr" v="172985" />
	</node>
	<node id="-1832" lat="59.0056694469" lon="11.5244388877">
		<tag k="alt_name" v="Stenersrød søndre" />
		<tag k="name" v="Søndre Stenersrød" />
		<tag k="place" v="farm" />
		<tag k="ssr:stedsnr" v="172930" />
	</node>
	<node id="-988" lat="58.9949611081" lon="11.6524833412">
		<tag k="name" v="Sanderødmoen" />
		<tag k="place" v="isolated_dwelling" />
		<tag k="ssr:stedsnr" v="304803" />
	</node>
	<node id="-1823" lat="58.997019443" lon="11.6802416579">
		<tag k="name" v="Hallerødplassen" />
		<tag k="place" v="locality" />
		<tag k="ssr:stedsnr" v="172825" />
	</node>
	<node id="-1820" lat="58.9356833309" lon="11.6682333414">
		<tag k="name" v="Munkholmen" />
		<tag k="place" v="farm" />
		<tag k="ssr:stedsnr" v="172701" />
	</node>
	<node id="-986" lat="58.9980444434" lon="11.4945666706">
		<tag k="name" v="Folkeset" />
		<tag k="place" v="farm" />
		<tag k="ssr:stedsnr" v="304795" />
	</node>
	<node id="-1817" lat="58.9278666649" lon="11.521430547">
		<tag k="alt_name" v="Golden østre" />
		<tag k="name" v="Østre Golden" />
		<tag k="place" v="farm" />
		<tag k="ssr:stedsnr" v="172678" />
	</node>
	<node id="-985" lat="59.1288694426" lon="11.4474361185">
		<tag k="alt_name" v="Tistedalen" />
		<tag k="name" v="Tistedal" />
		<tag k="place" v="village" />
		<tag k="ssr:stedsnr" v="304770" />
	</node>
	<node id="-1810" lat="58.8990555514" lon="11.5171083414">
		<tag k="name" v="Grøvkas" />
		<tag k="place" v="farm" />
		<tag k="ssr:stedsnr" v="172722" />
	</node>
	<node id="-1808" lat="59.0476583328" lon="11.5849250017">
		<tag k="name" v="Lindene" />
		<tag k="place" v="farm" />
		<tag k="ssr:stedsnr" v="172665" />
	</node>
	<node id="-984" lat="59.0862027812" lon="11.5246833364">
		<tag k="name" v="Haugen" />
		<tag k="place" v="farm" />
		<tag k="ssr:stedsnr" v="304475" />
	</node>
	<node id="-926" lat="59.0564916662" lon="11.5626166651">
		<tag k="name" v="Ånerød" />
		<tag k="place" v="farm" />
		<tag k="ssr:stedsnr" v="293659" />
	</node>
	<node id="-1798" lat="59.1254694425" lon="11.3641805487">
		<tag k="name" v="Glenne" />
		<tag k="place" v="isolated_dwelling" />
		<tag k="ssr:stedsnr" v="163837" />
	</node>
	<node id="-1796" lat="59.1198444408" lon="11.388797215">
		<tag k="building" v="civic" />
		<tag k="name" v="Halden politistasjon" />
		<tag k="ssr:stedsnr" v="161570" />
	</node>
	<node id="-1792" lat="59.1141861106" lon="11.4552499938">
		<tag k="name" v="Nytorpstykket" />
		<tag k="place" v="farm" />
		<tag k="ssr:stedsnr" v="144765" />
	</node>
	<node id="-1791" lat="59.1178805598" lon="11.4297388924">
		<tag k="name" v="Grinda" />
		<tag k="place" v="farm" />
		<tag k="ssr:stedsnr" v="144757" />
	</node>
	<node id="-1790" lat="59.1141305526" lon="11.3936750027">
		<tag k="name" v="Knardal" />
		<tag k="place" v="suburb" />
		<tag k="ssr:stedsnr" v="144746" />
	</node>
	<node id="-1786" lat="59.1818194403" lon="11.4386194474">
		<tag k="name" v="Herrebrøden grube" />
		<tag k="place" v="quarter" />
		<tag k="ssr:stedsnr" v="143830" />
	</node>
	<node id="-1783" lat="59.2045583341" lon="11.4359055585">
		<tag k="name" v="Kjølset" />
		<tag k="place" v="farm" />
		<tag k="ssr:stedsnr" v="143819" />
	</node>
	<node id="-1781" lat="59.1255277776" lon="11.3944166744">
		<tag k="amenity" v="school" />
		<tag k="name" v="Porsnes v.g. skole" />
		<tag k="ssr:stedsnr" v="143799" />
	</node>
	<node id="-1780" lat="59.0796416665" lon="11.4552111034">
		<tag k="name" v="Løkkevoll" />
		<tag k="place" v="farm" />
		<tag k="ssr:stedsnr" v="143784" />
	</node>
	<node id="-1778" lat="59.0792305519" lon="11.4287749988">
		<tag k="name" v="Havstad" />
		<tag k="place" v="farm" />
		<tag k="ssr:stedsnr" v="143779" />
	</node>
	<node id="-1777" lat="59.0849944434" lon="11.4300805631">
		<tag k="name" v="Myrenga" />
		<tag k="place" v="farm" />
		<tag k="ssr:stedsnr" v="143773" />
	</node>
	<node id="-1776" lat="59.1100638884" lon="11.4865638944">
		<tag k="name" v="Bjørneli" />
		<tag k="place" v="isolated_dwelling" />
		<tag k="ssr:stedsnr" v="143760" />
	</node>
	<node id="-1775" lat="59.0210666623" lon="11.4906638938">
		<tag k="alt_name" v="Iddebøen nordre" />
		<tag k="name" v="Nordre Iddebøen" />
		<tag k="place" v="farm" />
		<tag k="ssr:stedsnr" v="143217" />
	</node>
	<node id="-1773" lat="59.0624249988" lon="11.4428972171">
		<tag k="name" v="Fagerholt" />
		<tag k="place" v="farm" />
		<tag k="ssr:stedsnr" v="143202" />
	</node>
	<node id="-1772" lat="59.0713305536" lon="11.4690138802">
		<tag k="name" v="Rønningen" />
		<tag k="place" v="farm" />
		<tag k="ssr:stedsnr" v="143194" />
	</node>
	<node id="-1768" lat="59.1349777789" lon="11.3774638861">
		<tag k="name" v="Augustaborg" />
		<tag k="place" v="farm" />
		<tag k="ssr:stedsnr" v="143177" />
	</node>
	<node id="-1765" lat="59.1808777799" lon="11.3575000072">
		<tag k="name" v="Anerød" />
		<tag k="place" v="farm" />
		<tag k="ssr:stedsnr" v="143159" />
	</node>
	<node id="-1764" lat="59.0165361099" lon="11.4484583403">
		<tag k="amenity" v="nursing_home" />
		<tag k="name" v="Bakke" />
		<tag k="ssr:stedsnr" v="143153" />
	</node>
	<node id="-1763" lat="59.1027472195" lon="11.2800666677">
		<tag k="name" v="Kollegård" />
		<tag k="place" v="isolated_dwelling" />
		<tag k="ssr:stedsnr" v="143141" />
	</node>
	<node id="-1761" lat="58.977569447" lon="11.4772583398">
		<tag k="name" v="Berby sag" />
		<tag k="place" v="quarter" />
		<tag k="ssr:stedsnr" v="143125" />
	</node>
	<node id="-1759" lat="59.1489555592" lon="11.2567750069">
		<tag k="alt_name" v="Gjellestad søndre" />
		<tag k="name" v="Søndre Gjellestad" />
		<tag k="place" v="farm" />
		<tag k="ssr:stedsnr" v="143040" />
	</node>
	<node id="-1757" lat="59.1112638879" lon="11.261661112">
		<tag k="name" v="Langkas" />
		<tag k="place" v="farm" />
		<tag k="ssr:stedsnr" v="143008" />
	</node>
	<node id="-1756" lat="59.109663893" lon="11.2135333338">
		<tag k="name" v="Norderhaug" />
		<tag k="place" v="isolated_dwelling" />
		<tag k="ssr:stedsnr" v="143001" />
	</node>
	<node id="-1754" lat="59.1510249967" lon="11.4403999971">
		<tag k="name" v="Askelrød" />
		<tag k="place" v="farm" />
		<tag k="ssr:stedsnr" v="124755" />
	</node>
	<node id="-1753" lat="59.140549996" lon="11.4390750051">
		<tag k="name" v="Holtersrød" />
		<tag k="place" v="farm" />
		<tag k="ssr:stedsnr" v="124741" />
	</node>
	<node id="-1752" lat="59.1424000012" lon="11.3435249926">
		<tag k="name" v="Østgård" />
		<tag k="place" v="farm" />
		<tag k="ssr:stedsnr" v="124735" />
	</node>
	<node id="-1751" lat="59.1400750014" lon="11.3402750048">
		<tag k="name" v="Sønstegård" />
		<tag k="place" v="farm" />
		<tag k="ssr:stedsnr" v="124732" />
	</node>
	<node id="-1750" lat="59.1171833311" lon="11.5543944418">
		<tag k="alt_name" v="Sakssætre" />
		<tag k="historic" v="shieling" />
		<tag k="name" v="Saksesæter" />
		<tag k="place" v="locality" />
		<tag k="ssr:stedsnr" v="124063" />
	</node>
	<node id="-1748" lat="59.1282138906" lon="11.5187555509">
		<tag k="name" v="Ormtjernhytta" />
		<tag k="place" v="isolated_dwelling" />
		<tag k="ssr:stedsnr" v="124050" />
	</node>
	<node id="-974" lat="58.9414500044" lon="11.659866668">
		<tag k="name" v="Kornsjø" />
		<tag k="place" v="village" />
		<tag k="ssr:stedsnr" v="304165" />
	</node>
	<node id="-1746" lat="59.1227750043" lon="11.4231499999">
		<tag k="name" v="Nordli" />
		<tag k="place" v="farm" />
		<tag k="ssr:stedsnr" v="123878" />
	</node>
	<node id="-1745" lat="59.1231694447" lon="11.369161114">
		<tag k="alt_name" v="Rød herregård" />
		<tag k="name" v="Rød" />
		<tag k="place" v="farm" />
		<tag k="ssr:stedsnr" v="123879" />
	</node>
	<node id="-1744" lat="59.1227750004" lon="11.4285250062">
		<tag k="name" v="Lilja" />
		<tag k="place" v="farm" />
		<tag k="ssr:stedsnr" v="123876" />
	</node>
	<node id="-1741" lat="59.1144500008" lon="11.2390249998">
		<tag k="fixme" v="consider place=hamlet" />
		<tag k="name" v="Kjølerbakken" />
		<tag k="place" v="farm" />
		<tag k="ssr:stedsnr" v="123864" />
	</node>
	<node id="-1737" lat="58.9581750002" lon="11.5184000038">
		<tag k="alt_name" v="Vaglen nedre" />
		<tag k="name" v="Nedre Vaglen" />
		<tag k="place" v="farm" />
		<tag k="ssr:stedsnr" v="123848" />
	</node>
	<node id="-972" lat="58.9231361078" lon="11.5096527826">
		<tag k="fixme" v="consider place=hamlet" />
		<tag k="name" v="Mjølnerød" />
		<tag k="place" v="farm" />
		<tag k="ssr:stedsnr" v="304151" />
	</node>
	<node id="-1733" lat="58.9784388904" lon="11.5330611126">
		<tag k="name" v="Åsen" />
		<tag k="place" v="farm" />
		<tag k="ssr:stedsnr" v="123818" />
	</node>
	<node id="-1732" lat="59.162574996" lon="11.3242777829">
		<tag k="name" v="Koksrød" />
		<tag k="place" v="farm" />
		<tag k="ssr:stedsnr" v="123807" />
	</node>
	<node id="-1731" lat="59.1506346388" lon="11.2572111968">
		<tag k="name" v="Gjellestad" />
		<tag k="place" v="hamlet" />
		<tag k="ssr:stedsnr" v="123802" />
	</node>
	<node id="-1728" lat="59.0905666674" lon="11.5043833339">
		<tag k="name" v="Fagerli" />
		<tag k="place" v="isolated_dwelling" />
		<tag k="ssr:stedsnr" v="123488" />
	</node>
	<node id="-1726" lat="59.0706277763" lon="11.4710388813">
		<tag k="name" v="Herrebøkasa" />
		<tag k="place" v="farm" />
		<tag k="ssr:stedsnr" v="123457" />
	</node>
	<node id="-1724" lat="59.0637888865" lon="11.6519111063">
		<tag k="alt_name" v="Søndre Tronsholtet" />
		<tag k="name" v="Tronsholtet" />
		<tag k="place" v="farm" />
		<tag k="ssr:stedsnr" v="123429" />
	</node>
	<node id="-970" lat="58.9151567872" lon="11.5229431481">
		<tag k="name" v="Berg" />
		<tag k="place" v="farm" />
		<tag k="ssr:stedsnr" v="304139" />
	</node>
	<node id="-1722" lat="59.0386500017" lon="11.4301500055">
		<tag k="name" v="Skottene" />
		<tag k="place" v="farm" />
		<tag k="ssr:stedsnr" v="123262" />
	</node>
	<node id="-1720" lat="59.0795000035" lon="11.3943249945">
		<tag k="name" v="Sveen" />
		<tag k="place" v="isolated_dwelling" />
		<tag k="ssr:stedsnr" v="123205" />
	</node>
	<node id="-969" lat="58.9152555567" lon="11.5854083361">
		<tag k="name" v="Skogskroken" />
		<tag k="place" v="hamlet" />
		<tag k="ssr:stedsnr" v="304135" />
	</node>
	<node id="-1716" lat="59.1422888871" lon="11.5942444363">
		<tag k="name" v="Hauglund" />
		<tag k="place" v="farm" />
		<tag k="ssr:stedsnr" v="123026" />
	</node>
	<node id="-1714" lat="59.1853999962" lon="11.3812249996">
		<tag k="name" v="Molkersrød" />
		<tag k="place" v="farm" />
		<tag k="ssr:stedsnr" v="122981" />
	</node>
	<node id="-1713" lat="59.1861500006" lon="11.4058361055">
		<tag k="name" v="Mjølnerødmoen" />
		<tag k="place" v="farm" />
		<tag k="ssr:stedsnr" v="122979" />
	</node>
	<node id="-1711" lat="59.2347416674" lon="11.3849083343">
		<tag k="alt_name" v="Bergsmarka vestre;Bergsmarken vestre" />
		<tag k="name" v="Vestre Bergsmarka" />
		<tag k="place" v="farm" />
		<tag k="ssr:stedsnr" v="122918" />
	</node>
	<node id="-1709" lat="59.1298250025" lon="11.2634527777">
		<tag k="name" v="Vikshaugen" />
		<tag k="place" v="farm" />
		<tag k="ssr:stedsnr" v="122856" />
	</node>
	<node id="-1708" lat="58.9480527747" lon="11.6706138911">
		<tag k="name" v="Løvås" />
		<tag k="place" v="isolated_dwelling" />
		<tag k="ssr:stedsnr" v="122847" />
	</node>
	<node id="-1707" lat="59.1075750021" lon="11.248024996">
		<tag k="alt_name" v="Sørskogen" />
		<tag k="name" v="Sydskogen" />
		<tag k="place" v="farm" />
		<tag k="ssr:stedsnr" v="122825" />
	</node>
	<node id="-1702" lat="59.136899997" lon="11.4460000025">
		<tag k="name" v="Marienlyst" />
		<tag k="place" v="farm" />
		<tag k="ssr:stedsnr" v="122752" />
	</node>
	<node id="-1701" lat="59.1338777777" lon="11.3571249973">
		<tag k="name" v="Li" />
		<tag k="place" v="farm" />
		<tag k="ssr:stedsnr" v="122751" />
	</node>
	<node id="-966" lat="59.0259694452" lon="11.4460777805">
		<tag k="name" v="Liholtskasa" />
		<tag k="place" v="isolated_dwelling" />
		<tag k="ssr:stedsnr" v="298060" />
	</node>
	<node id="-1692" lat="58.9279333307" lon="11.4882805473">
		<tag k="name" v="Bakken" />
		<tag k="place" v="isolated_dwelling" />
		<tag k="ssr:stedsnr" v="122153" />
	</node>
	<node id="-1691" lat="58.9238277762" lon="11.4943611144">
		<tag k="alt_name" v="Kavlemyr" />
		<tag k="name" v="Kavlemyra" />
		<tag k="place" v="isolated_dwelling" />
		<tag k="ssr:stedsnr" v="122152" />
	</node>
	<node id="-1687" lat="58.9014972186" lon="11.5120944413">
		<tag k="alt_name" v="Bakke-ødegården" />
		<tag k="name" v="Bakkeødegård" />
		<tag k="place" v="farm" />
		<tag k="ssr:stedsnr" v="122123" />
	</node>
	<node id="-1686" lat="59.1704944463" lon="11.3235944485">
		<tag k="alt_name" v="Lindemørken søndre" />
		<tag k="name" v="Søndre Lindemørken" />
		<tag k="place" v="farm" />
		<tag k="ssr:stedsnr" v="120297" />
	</node>
	<node id="-1681" lat="59.0927916651" lon="11.4000638925">
		<tag k="name" v="Nokkedal" />
		<tag k="place" v="isolated_dwelling" />
		<tag k="ssr:stedsnr" v="116430" />
	</node>
	<node id="-1351" lat="59.1301993328" lon="11.2295575697">
		<tag k="name" v="Røsneskilen" />
		<tag k="place" v="neighbourhood" />
		<tag k="ssr:stedsnr" v="981887" />
	</node>
	<node id="-1646" lat="59.0168166673" lon="11.5117027702">
		<tag k="name" v="Skogheim" />
		<tag k="place" v="farm" />
		<tag k="ssr:stedsnr" v="111643" />
	</node>
	<node id="-1644" lat="58.9281500009" lon="11.5170027713">
		<tag k="alt_name" v="Golden vestre" />
		<tag k="name" v="Vestre Golden" />
		<tag k="place" v="farm" />
		<tag k="ssr:stedsnr" v="111612" />
	</node>
	<node id="-1643" lat="58.9105861141" lon="11.5247555508">
		<tag k="name" v="Bråtorp" />
		<tag k="place" v="farm" />
		<tag k="ssr:stedsnr" v="111608" />
	</node>
	<node id="-1617" lat="59.1263055587" lon="11.3819083362">
		<tag k="leisure" v="park" />
		<tag k="name" v="Solbakkparken" />
		<tag k="ssr:stedsnr" v="103828" />
	</node>
	<node id="-1615" lat="58.8804416689" lon="11.5352777773">
		<tag k="name" v="Holtet" />
		<tag k="place" v="hamlet" />
		<tag k="ssr:stedsnr" v="98942" />
	</node>
	<node id="-1613" lat="59.1100944426" lon="11.4455972304">
		<tag k="name" v="Haugen" />
		<tag k="place" v="farm" />
		<tag k="ssr:stedsnr" v="84775" />
	</node>
	<node id="-1612" lat="59.0983972182" lon="11.4404916634">
		<tag k="name" v="Åskasa" />
		<tag k="place" v="farm" />
		<tag k="ssr:stedsnr" v="84769" />
	</node>
	<node id="-1611" lat="59.1030472228" lon="11.4074999942">
		<tag k="name" v="Mariedal" />
		<tag k="place" v="farm" />
		<tag k="ssr:stedsnr" v="84765" />
	</node>
	<node id="-1606" lat="59.1725027735" lon="11.4351194463">
		<tag k="name" v="Skihytte" />
		<tag k="place" v="isolated_dwelling" />
		<tag k="ssr:stedsnr" v="83857" />
	</node>
	<node id="-1602" lat="59.0927027774" lon="11.4014805586">
		<tag k="name" v="Grandal" />
		<tag k="place" v="farm" />
		<tag k="ssr:stedsnr" v="83798" />
	</node>
	<node id="-1291" lat="58.9525583369" lon="11.526311114">
		<tag k="name" v="Stegerød" />
		<tag k="place" v="farm" />
		<tag k="ssr:stedsnr" v="475636" />
	</node>
	<node id="-1600" lat="59.1023277749" lon="11.4739361186">
		<tag k="name" v="Østby" />
		<tag k="place" v="farm" />
		<tag k="ssr:stedsnr" v="83785" />
	</node>
	<node id="-1599" lat="59.1156472263" lon="11.4657777825">
		<tag k="name" v="Stordal" />
		<tag k="place" v="farm" />
		<tag k="ssr:stedsnr" v="83782" />
	</node>
	<node id="-1597" lat="59.0200416623" lon="11.4911777764">
		<tag k="alt_name" v="Iddebøen søndre" />
		<tag k="name" v="Søndre Iddebøen" />
		<tag k="place" v="farm" />
		<tag k="ssr:stedsnr" v="83228" />
	</node>
	<node id="-1595" lat="59.0713083372" lon="11.426486111">
		<tag k="name" v="Granbakken" />
		<tag k="place" v="farm" />
		<tag k="ssr:stedsnr" v="83219" />
	</node>
	<node id="-1594" lat="59.1977138886" lon="11.2773527722">
		<tag k="name" v="Sadelknappen" />
		<tag k="place" v="locality" />
		<tag k="ssr:stedsnr" v="83112" />
	</node>
	<node id="-1589" lat="59.1510472244" lon="11.2407277848">
		<tag k="name" v="Ekeberg" />
		<tag k="place" v="farm" />
		<tag k="ssr:stedsnr" v="83035" />
	</node>
	<node id="-1588" lat="59.1018111081" lon="11.221577779">
		<tag k="name" v="Stensvik" />
		<tag k="place" v="farm" />
		<tag k="ssr:stedsnr" v="83013" />
	</node>
	<node id="-1587" lat="59.0718694428" lon="11.4709138881">
		<tag k="name" v="Kasa" />
		<tag k="place" v="isolated_dwelling" />
		<tag k="ssr:stedsnr" v="83213" />
	</node>
	<node id="-1586" lat="59.1220833317" lon="11.3807916594">
		<tag k="name" v="Bakbanken" />
		<tag k="place" v="isolated_dwelling" />
		<tag k="ssr:stedsnr" v="83183" />
	</node>
	<node id="-1585" lat="59.1904333347" lon="11.3584361193">
		<tag k="name" v="Nordgården" />
		<tag k="place" v="farm" />
		<tag k="ssr:stedsnr" v="83174" />
	</node>
	<node id="-1584" lat="58.9979333321" lon="11.486791663">
		<tag k="name" v="Haugli" />
		<tag k="place" v="farm" />
		<tag k="ssr:stedsnr" v="82306" />
	</node>
	<node id="-1579" lat="59.2536583316" lon="11.4839916629">
		<tag k="name" v="Glomsrødbråten" />
		<tag k="place" v="farm" />
		<tag k="ssr:stedsnr" v="64750" />
	</node>
	<node id="-1578" lat="59.1763250009" lon="11.3776305514">
		<tag k="name" v="Raet" />
		<tag k="place" v="farm" />
		<tag k="ssr:stedsnr" v="63961" />
	</node>
	<node id="-1577" lat="59.1653999986" lon="11.2608999926">
		<tag k="name" v="Ekås" />
		<tag k="place" v="farm" />
		<tag k="ssr:stedsnr" v="63943" />
	</node>
	<node id="-1576" lat="59.1683249968" lon="11.2596999978">
		<tag k="name" v="Bjerke" />
		<tag k="place" v="farm" />
		<tag k="ssr:stedsnr" v="63935" />
	</node>
	<node id="-1573" lat="58.9616805551" lon="11.6654944453">
		<tag k="name" v="Skjeggerød" />
		<tag k="place" v="farm" />
		<tag k="ssr:stedsnr" v="63836" />
	</node>
	<node id="-1572" lat="59.1514000035" lon="11.3415499957">
		<tag k="name" v="Totorp" />
		<tag k="place" v="farm" />
		<tag k="ssr:stedsnr" v="63797" />
	</node>
	<node id="-1571" lat="59.1510249986" lon="11.2617000023">
		<tag k="name" v="Nygård" />
		<tag k="place" v="farm" />
		<tag k="ssr:stedsnr" v="63792" />
	</node>
	<node id="-1570" lat="59.146500001" lon="11.2466000022">
		<tag k="alt_name" v="Hjelmungen nedre (søndre)" />
		<tag k="name" v="Hjelmungen" />
		<tag k="place" v="farm" />
		<tag k="ssr:stedsnr" v="63775" />
	</node>
	<node id="-1567" lat="59.0255138868" lon="11.5157861037">
		<tag k="name" v="Ekeli" />
		<tag k="place" v="farm" />
		<tag k="ssr:stedsnr" v="63354" />
	</node>
	<node id="-1558" lat="59.1470388874" lon="11.5301416595">
		<tag k="alt_name" v="Brekke nedre" />
		<tag k="name" v="Brekke" />
		<tag k="place" v="farm" />
		<tag k="ssr:stedsnr" v="63015" />
	</node>
	<node id="-1557" lat="59.188800001" lon="11.3255249999">
		<tag k="name" v="Voll" />
		<tag k="place" v="farm" />
		<tag k="ssr:stedsnr" v="62978" />
	</node>
	<node id="-1556" lat="59.1893499964" lon="11.3619500068">
		<tag k="alt_name" v="Korset" />
		<tag k="name" v="Store Korset" />
		<tag k="place" v="farm" />
		<tag k="ssr:stedsnr" v="62974" />
	</node>
	<node id="-1554" lat="59.1241527744" lon="11.3365499914">
		<tag k="name" v="Sorgenfri" />
		<tag k="place" v="farm" />
		<tag k="ssr:stedsnr" v="62873" />
	</node>
	<node id="-3601" lat="59.1769472181" lon="11.5061861086">
		<tag k="name" v="Solvang" />
		<tag k="place" v="farm" />
		<tag k="ssr:stedsnr" v="961713" />
	</node>
	<node id="-3600" lat="58.8856083317" lon="11.5315944386">
		<tag k="name" v="Utenga" />
		<tag k="place" v="farm" />
		<tag k="ssr:stedsnr" v="961703" />
	</node>
	<node id="-1551" lat="59.1097000045" lon="11.2519249917">
		<tag k="name" v="Nordskogen" />
		<tag k="place" v="farm" />
		<tag k="ssr:stedsnr" v="62845" />
	</node>
	<node id="-3598" lat="58.9485111138" lon="11.5243277706">
		<tag k="name" v="Tittut" />
		<tag k="place" v="farm" />
		<tag k="ssr:stedsnr" v="961664" />
	</node>
	<node id="-1549" lat="59.1027250006" lon="11.4261999942">
		<tag k="alt_name" v="Holm lille" />
		<tag k="name" v="Lille Holm" />
		<tag k="place" v="farm" />
		<tag k="ssr:stedsnr" v="62834" />
	</node>
	<node id="-1548" lat="58.9701027808" lon="11.4870666734">
		<tag k="alt_name" v="Revekasene" />
		<tag k="name" v="Revekasa" />
		<tag k="place" v="isolated_dwelling" />
		<tag k="ssr:stedsnr" v="62833" />
	</node>
	<node id="-1547" lat="59.0976000014" lon="11.2355249988">
		<tag k="name" v="Kasa" />
		<tag k="place" v="isolated_dwelling" />
		<tag k="ssr:stedsnr" v="62830" />
	</node>
	<node id="-1546" lat="58.9707222218" lon="11.6575611046">
		<tag k="alt_name" v="Haugane" />
		<tag k="name" v="Haugene" />
		<tag k="place" v="farm" />
		<tag k="ssr:stedsnr" v="62823" />
	</node>
	<node id="-1544" lat="58.981319447" lon="11.6826055583">
		<tag k="name" v="Moberg" />
		<tag k="place" v="farm" />
		<tag k="ssr:stedsnr" v="62809" />
	</node>
	<node id="-1540" lat="58.9976916701" lon="11.6326166721">
		<tag k="alt_name" v="Eljsjøholtet" />
		<tag k="name" v="Elgsjøholtet" />
		<tag k="place" v="isolated_dwelling" />
		<tag k="ssr:stedsnr" v="62791" />
	</node>
	<node id="-3393" lat="59.1154055558" lon="11.4467666705">
		<tag k="name" v="Åsengen" />
		<tag k="place" v="farm" />
		<tag k="ssr:stedsnr" v="872791" />
	</node>
	<node id="-1538" lat="59.1391250033" lon="11.2441750035">
		<tag k="name" v="Tverrbekk" />
		<tag k="place" v="farm" />
		<tag k="ssr:stedsnr" v="62765" />
	</node>
	<node id="-1530" lat="59.0405555515" lon="11.5760249951">
		<tag k="name" v="Hvitsand" />
		<tag k="place" v="farm" />
		<tag k="ssr:stedsnr" v="62418" />
	</node>
	<node id="-1529" lat="59.0646944444" lon="11.5708361193">
		<tag k="name" v="Nordgård" />
		<tag k="place" v="farm" />
		<tag k="ssr:stedsnr" v="62395" />
	</node>
	<node id="-1527" lat="59.2410055592" lon="11.4787555501">
		<tag k="name" v="Høvik" />
		<tag k="place" v="farm" />
		<tag k="ssr:stedsnr" v="62225" />
	</node>
	<node id="-1526" lat="59.0439000014" lon="11.4485749963">
		<tag k="alt_name" v="Bisseberg" />
		<tag k="name" v="Besseberg" />
		<tag k="place" v="farm" />
		<tag k="ssr:stedsnr" v="62222" />
	</node>
	<node id="-1525" lat="59.0835694404" lon="11.4447555565">
		<tag k="name" v="Bø" />
		<tag k="place" v="farm" />
		<tag k="ssr:stedsnr" v="62183" />
	</node>
	<node id="-1524" lat="59.0742249998" lon="11.4061833276">
		<tag k="name" v="Torp" />
		<tag k="place" v="farm" />
		<tag k="ssr:stedsnr" v="62178" />
	</node>
	<node id="-1523" lat="59.0770000012" lon="11.422850002">
		<tag k="name" v="Havstad" />
		<tag k="place" v="farm" />
		<tag k="ssr:stedsnr" v="62176" />
	</node>
	<node id="-3569" lat="59.1152472242" lon="11.5033333383">
		<tag k="fixme" v="consider tourism=alpine_hut or tourism=chalet" />
		<tag k="name" v="Ertehytta" />
		<tag k="ssr:stedsnr" v="951158" />
		<tag k="tourism" v="wilderness_hut" />
	</node>
	<node id="-1520" lat="58.9409555524" lon="11.6350000032">
		<tag k="name" v="Løvmoen" />
		<tag k="place" v="farm" />
		<tag k="ssr:stedsnr" v="61182" />
	</node>
	<node id="-1516" lat="58.9124194474" lon="11.4679194379">
		<tag k="name" v="Lunden" />
		<tag k="place" v="farm" />
		<tag k="ssr:stedsnr" v="61144" />
	</node>
	<node id="-1512" lat="58.9446000009" lon="11.6046277783">
		<tag k="alt_name" v="Nordre Paulsbu;Paulsbu nordre;Paulsbo" />
		<tag k="name" v="Nordre Pålsbu" />
		<tag k="place" v="farm" />
		<tag k="ssr:stedsnr" v="58887" />
	</node>
	<node id="-3558" lat="59.1583833303" lon="11.4089916661">
		<tag k="name" v="Eikelimoen" />
		<tag k="place" v="farm" />
		<tag k="ssr:stedsnr" v="933831" />
	</node>
	<node id="-1509" lat="58.9455277804" lon="11.5201638897">
		<tag k="name" v="Svenningsbøen" />
		<tag k="place" v="farm" />
		<tag k="ssr:stedsnr" v="55166" />
	</node>
	<node id="-3556" lat="59.0845750021" lon="11.4440972302">
		<tag k="alt_name" v="Nordby østre" />
		<tag k="name" v="Østre Nordby" />
		<tag k="place" v="farm" />
		<tag k="ssr:stedsnr" v="933818" />
	</node>
	<node id="-3555" lat="59.0852499989" lon="11.4440166728">
		<tag k="alt_name" v="Nordby vestre" />
		<tag k="name" v="Vestre Nordby" />
		<tag k="place" v="farm" />
		<tag k="ssr:stedsnr" v="933819" />
	</node>
	<node id="-3553" lat="59.0855861154" lon="11.3918583289">
		<tag k="name" v="Dammen" />
		<tag k="place" v="isolated_dwelling" />
		<tag k="ssr:stedsnr" v="933808" />
	</node>
	<node id="-3551" lat="59.1089611108" lon="11.4574888861">
		<tag k="name" v="Vangli" />
		<tag k="place" v="farm" />
		<tag k="ssr:stedsnr" v="933798" />
	</node>
	<node id="-3550" lat="59.1028555527" lon="11.4592861039">
		<tag k="name" v="Dalhaugen" />
		<tag k="place" v="farm" />
		<tag k="ssr:stedsnr" v="933796" />
	</node>
	<node id="-1501" lat="58.9144305589" lon="11.5100277795">
		<tag k="name" v="Smedsrød" />
		<tag k="place" v="farm" />
		<tag k="ssr:stedsnr" v="51698" />
	</node>
	<node id="-1500" lat="59.0824027757" lon="11.5753388901">
		<tag k="name" v="Harestua" />
		<tag k="place" v="farm" />
		<tag k="ssr:stedsnr" v="51679" />
	</node>
	<node id="-1499" lat="59.1606527748" lon="11.5296083281">
		<tag k="name" v="Lera" />
		<tag k="place" v="farm" />
		<tag k="ssr:stedsnr" v="51675" />
	</node>
	<node id="-3546" lat="59.1975666684" lon="11.3327583256">
		<tag k="name" v="Lillestrand" />
		<tag k="place" v="farm" />
		<tag k="ssr:stedsnr" v="933197" />
	</node>
	<node id="-3545" lat="59.1251944474" lon="11.2729083399">
		<tag k="leisure" v="pitch" />
		<tag k="name" v="Berg stadion" />
		<tag k="ssr:stedsnr" v="933072" />
	</node>
	<node id="-3544" lat="59.1520138872" lon="11.2580388835">
		<tag k="alt_name" v="Gjellestad nordre" />
		<tag k="name" v="Nordre Gjellestad" />
		<tag k="place" v="farm" />
		<tag k="ssr:stedsnr" v="933041" />
	</node>
	<node id="-3543" lat="59.1056666671" lon="11.2209999956">
		<tag k="name" v="Penlia" />
		<tag k="place" v="isolated_dwelling" />
		<tag k="ssr:stedsnr" v="933016" />
	</node>
	<node id="-3542" lat="59.1061999976" lon="11.2167305475">
		<tag k="name" v="Øvre Vikene" />
		<tag k="place" v="isolated_dwelling" />
		<tag k="ssr:stedsnr" v="933003" />
	</node>
	<node id="-3541" lat="59.0004222248" lon="11.4800944385">
		<tag k="name" v="Bergsta" />
		<tag k="place" v="isolated_dwelling" />
		<tag k="ssr:stedsnr" v="932232" />
	</node>
	<node id="-1492" lat="58.8889222212" lon="11.5417833319">
		<tag k="name" v="Dammyr" />
		<tag k="place" v="locality" />
		<tag k="ssr:stedsnr" v="51604" />
	</node>
	<node id="-3539" lat="59.0584694402" lon="11.4328250005">
		<tag k="name" v="Fagerholt" />
		<tag k="place" v="farm" />
		<tag k="ssr:stedsnr" v="932228" />
	</node>
	<node id="-3538" lat="59.0702888864" lon="11.4674083272">
		<tag k="name" v="Heierholtet" />
		<tag k="place" v="isolated_dwelling" />
		<tag k="ssr:stedsnr" v="932225" />
	</node>
	<node id="-3537" lat="59.1336694406" lon="11.324349991">
		<tag k="name" v="Bergsmoen" />
		<tag k="place" v="farm" />
		<tag k="ssr:stedsnr" v="932219" />
	</node>
	<node id="-3535" lat="59.1294027815" lon="11.3286416607">
		<tag k="name" v="Klokkerød" />
		<tag k="place" v="isolated_dwelling" />
		<tag k="ssr:stedsnr" v="932215" />
	</node>
	<node id="-1126" lat="58.9847537193" lon="11.6877480206">
		<tag k="alt_name" v="Nordgjerde" />
		<tag k="name" v="Nordgjerdet" />
		<tag k="place" v="farm" />
		<tag k="ssr:stedsnr" v="354803" />
	</node>
	<node id="-3525" lat="59.0653750002" lon="11.4779333288">
		<tag k="name" v="Granheim" />
		<tag k="place" v="farm" />
		<tag k="ssr:stedsnr" v="933216" />
	</node>
	<node id="-3524" lat="59.0926722225" lon="11.2023111127">
		<tag k="name" v="Tobotn" />
		<tag k="place" v="isolated_dwelling" />
		<tag k="ssr:stedsnr" v="919781" />
	</node>
	<node id="-3520" lat="59.1698500041" lon="11.2853472245">
		<tag k="name" v="Neset" />
		<tag k="place" v="farm" />
		<tag k="ssr:stedsnr" v="912943" />
	</node>
	<node id="-3519" lat="59.2321694476" lon="11.3894805488">
		<tag k="alt_name" v="Bergsmarka østre;Bergsmarken østre" />
		<tag k="name" v="Østre Bergsmarka" />
		<tag k="place" v="isolated_dwelling" />
		<tag k="ssr:stedsnr" v="912942" />
	</node>
	<node id="-3518" lat="58.9502888888" lon="11.6044611191">
		<tag k="name" v="Paulsbu" />
		<tag k="place" v="isolated_dwelling" />
		<tag k="ssr:stedsnr" v="912868" />
	</node>
	<node id="-3517" lat="59.1126500046" lon="11.2689499956">
		<tag k="alt_name" v="Haugene" />
		<tag k="name" v="Haug" />
		<tag k="place" v="farm" />
		<tag k="ssr:stedsnr" v="912866" />
	</node>
	<node id="-3515" lat="58.9490055549" lon="11.478797225">
		<tag k="name" v="Tyslingmoen" />
		<tag k="place" v="locality" />
		<tag k="ssr:stedsnr" v="912865" />
	</node>
	<node id="-3514" lat="59.1166250033" lon="11.2528527721">
		<tag k="name" v="Solberg" />
		<tag k="place" v="farm" />
		<tag k="ssr:stedsnr" v="912864" />
	</node>
	<node id="-927" lat="59.1787472192" lon="11.5997388823">
		<tag k="name" v="Donevang" />
		<tag k="place" v="farm" />
		<tag k="ssr:stedsnr" v="293661" />
	</node>
	<node id="-3512" lat="58.9657944434" lon="11.6825638922">
		<tag k="alt_name" v="Bokenes søndre" />
		<tag k="name" v="Søndre Bokenes" />
		<tag k="place" v="farm" />
		<tag k="ssr:stedsnr" v="912854" />
	</node>
	<node id="-3509" lat="59.0998749957" lon="11.4007500012">
		<tag k="name" v="Heltorp" />
		<tag k="place" v="farm" />
		<tag k="ssr:stedsnr" v="912830" />
	</node>
	<node id="-3508" lat="59.0969999962" lon="11.4455999914">
		<tag k="name" v="Solli" />
		<tag k="place" v="isolated_dwelling" />
		<tag k="ssr:stedsnr" v="912826" />
	</node>
	<node id="-3507" lat="59.0935249997" lon="11.4539750009">
		<tag k="name" v="Solberg" />
		<tag k="place" v="farm" />
		<tag k="ssr:stedsnr" v="912827" />
	</node>
	<node id="-3506" lat="59.100200001" lon="11.4282250013">
		<tag k="name" v="Voll" />
		<tag k="place" v="farm" />
		<tag k="ssr:stedsnr" v="912824" />
	</node>
	<node id="-3504" lat="59.096711112" lon="11.4052777727">
		<tag k="alt_name" v="Korsveien" />
		<tag k="name" v="Korsvegen" />
		<tag k="place" v="farm" />
		<tag k="ssr:stedsnr" v="912819" />
	</node>
	<node id="-1453" lat="59.1333916685" lon="11.4514194525">
		<tag k="leisure" v="pitch" />
		<tag k="name" v="Tistedal stadion" />
		<tag k="ssr:stedsnr" v="22835" />
	</node>
	<node id="-3500" lat="59.036586107" lon="11.5751000026">
		<tag k="alt_name" v="Elgkleiv" />
		<tag k="name" v="Elgklev" />
		<tag k="place" v="farm" />
		<tag k="ssr:stedsnr" v="912432" />
	</node>
	<node id="-3497" lat="59.071374999" lon="11.5455805619">
		<tag k="name" v="Kula" />
		<tag k="place" v="farm" />
		<tag k="ssr:stedsnr" v="912414" />
	</node>
	<node id="-3495" lat="59.0547805564" lon="11.5610944384">
		<tag k="name" v="Ånerød" />
		<tag k="place" v="farm" />
		<tag k="ssr:stedsnr" v="912392" />
	</node>
	<node id="-1446" lat="59.0675305557" lon="11.4423527736">
		<tag k="name" v="Bakkeli" />
		<tag k="place" v="farm" />
		<tag k="ssr:stedsnr" v="22219" />
	</node>
	<node id="-1445" lat="59.0643833298" lon="11.4427055615">
		<tag k="name" v="Skjønnhaug" />
		<tag k="place" v="farm" />
		<tag k="ssr:stedsnr" v="22214" />
	</node>
	<node id="-1444" lat="59.0682194435" lon="11.4661166627">
		<tag k="name" v="Snekketorpholtet" />
		<tag k="place" v="isolated_dwelling" />
		<tag k="ssr:stedsnr" v="22212" />
	</node>
	<node id="-3491" lat="59.0105500022" lon="11.467525">
		<tag k="alt_name" v="Knegterød" />
		<tag k="name" v="Knekterød" />
		<tag k="place" v="farm" />
		<tag k="ssr:stedsnr" v="912226" />
	</node>
	<node id="-3490" lat="59.0719249978" lon="11.413799996">
		<tag k="name" v="Furuvarp" />
		<tag k="place" v="farm" />
		<tag k="ssr:stedsnr" v="912214" />
	</node>
	<node id="-3489" lat="59.0918027796" lon="11.466525005">
		<tag k="name" v="Stokkebru" />
		<tag k="place" v="farm" />
		<tag k="ssr:stedsnr" v="912197" />
	</node>
	<node id="-3488" lat="59.0877249989" lon="11.4140750061">
		<tag k="name" v="Hovskasa" />
		<tag k="place" v="isolated_dwelling" />
		<tag k="ssr:stedsnr" v="912191" />
	</node>
	<node id="-3487" lat="59.0902750044" lon="11.4105250014">
		<tag k="name" v="Maistubben" />
		<tag k="place" v="farm" />
		<tag k="ssr:stedsnr" v="912192" />
	</node>
	<node id="-3486" lat="59.0777250015" lon="11.436699992">
		<tag k="alt_name" v="Iddevang skole" />
		<tag k="amenity" v="school" />
		<tag k="name" v="Iddevang" />
		<tag k="ssr:stedsnr" v="912185" />
	</node>
	<node id="-1437" lat="59.0284666657" lon="11.4400972205">
		<tag k="name" v="Svarthøl" />
		<tag k="place" v="isolated_dwelling" />
		<tag k="ssr:stedsnr" v="22166" />
	</node>
	<node id="-1435" lat="59.1087472213" lon="11.2858277708">
		<tag k="name" v="Nordskogkasa" />
		<tag k="place" v="farm" />
		<tag k="ssr:stedsnr" v="22151" />
	</node>
	<node id="-3481" lat="59.1516361112" lon="11.4727777754">
		<tag k="alt_name" v="Grindstad" />
		<tag k="name" v="Grinestad" />
		<tag k="place" v="farm" />
		<tag k="ssr:stedsnr" v="912010" />
	</node>
	<node id="-3480" lat="59.1890250032" lon="11.3328999971">
		<tag k="name" v="Eng" />
		<tag k="place" v="farm" />
		<tag k="ssr:stedsnr" v="911975" />
	</node>
	<node id="-3479" lat="59.1831250014" lon="11.3689250023">
		<tag k="name" v="Lille Korset" />
		<tag k="place" v="farm" />
		<tag k="ssr:stedsnr" v="911972" />
	</node>
	<node id="-1429" lat="59.137430559" lon="11.2474527714">
		<tag k="name" v="Haugen" />
		<tag k="place" v="farm" />
		<tag k="ssr:stedsnr" v="22076" />
	</node>
	<node id="-1428" lat="59.1338999983" lon="11.2441611124">
		<tag k="name" v="Høyli" />
		<tag k="place" v="isolated_dwelling" />
		<tag k="ssr:stedsnr" v="22072" />
	</node>
	<node id="-3475" lat="58.9904277777" lon="11.5905583258">
		<tag k="alt_name" v="Kobblund" />
		<tag k="name" v="Kobbelund" />
		<tag k="place" v="farm" />
		<tag k="ssr:stedsnr" v="911796" />
	</node>
	<node id="-3474" lat="58.9986388928" lon="11.5201111164">
		<tag k="alt_name" v="Holtekas" />
		<tag k="name" v="Buarholtet" />
		<tag k="place" v="isolated_dwelling" />
		<tag k="ssr:stedsnr" v="911791" />
	</node>
	<node id="-3472" lat="59.1321777762" lon="11.246400003">
		<tag k="name" v="Fredal" />
		<tag k="place" v="isolated_dwelling" />
		<tag k="ssr:stedsnr" v="911773" />
	</node>
	<node id="-3471" lat="59.1347250038" lon="11.4193250035">
		<tag k="name" v="Grimsrød" />
		<tag k="place" v="farm" />
		<tag k="ssr:stedsnr" v="911766" />
	</node>
	<node id="-1421" lat="59.1200583344" lon="11.2574500041">
		<tag k="name" v="Alsrød" />
		<tag k="place" v="farm" />
		<tag k="ssr:stedsnr" v="2845" />
	</node>
	<node id="-1419" lat="59.1174000032" lon="11.2994999993">
		<tag k="name" v="Fange" />
		<tag k="place" v="farm" />
		<tag k="ssr:stedsnr" v="2842" />
	</node>
	<node id="-1418" lat="58.9577972181" lon="11.5296000046">
		<tag k="alt_name" v="Bøenskasa" />
		<tag k="name" v="Bøenkasa" />
		<tag k="place" v="farm" />
		<tag k="ssr:stedsnr" v="2837" />
	</node>
	<node id="-1417" lat="58.9627277742" lon="11.5597750078">
		<tag k="name" v="Myrvang" />
		<tag k="place" v="farm" />
		<tag k="ssr:stedsnr" v="2836" />
	</node>
	<node id="-3463" lat="58.9327972244" lon="11.5118222212">
		<tag k="name" v="Goldenkasa" />
		<tag k="place" v="farm" />
		<tag k="ssr:stedsnr" v="911192" />
	</node>
	<node id="-3462" lat="58.9336305543" lon="11.5848194415">
		<tag k="alt_name" v="Bråtane østre;Bråtene" />
		<tag k="name" v="Østre Bråtane" />
		<tag k="place" v="farm" />
		<tag k="ssr:stedsnr" v="911181" />
	</node>
	<node id="-3461" lat="58.9333972236" lon="11.6413083323">
		<tag k="alt_name" v="Spjelgårdsviken" />
		<tag k="name" v="Spjelgårdsvika" />
		<tag k="place" v="farm" />
		<tag k="ssr:stedsnr" v="911174" />
	</node>
	<node id="-1412" lat="59.1446750002" lon="11.2766499999">
		<tag k="alt_name" v="Vik nordre" />
		<tag k="name" v="Vik" />
		<tag k="place" v="farm" />
		<tag k="ssr:stedsnr" v="2768" />
	</node>
	<node id="-3459" lat="59.2265277733" lon="11.4850499992">
		<tag k="alt_name" v="Østeby Ødegård" />
		<tag k="name" v="Øgården" />
		<tag k="place" v="farm" />
		<tag k="ssr:stedsnr" v="911143" />
	</node>
	<node id="-3458" lat="58.9009444473" lon="11.5522333363">
		<tag k="alt_name" v="Holmane" />
		<tag k="name" v="Holmene" />
		<tag k="place" v="farm" />
		<tag k="ssr:stedsnr" v="911129" />
	</node>
	<node id="-3457" lat="59.2283000005" lon="11.4764666621">
		<tag k="alt_name" v="Østerbo" />
		<tag k="name" v="Østenby" />
		<tag k="place" v="farm" />
		<tag k="ssr:stedsnr" v="911125" />
	</node>
	<node id="-1406" lat="59.0166055529" lon="11.6010444357">
		<tag k="alt_name" v="Rønnlia" />
		<tag k="name" v="Rønlia" />
		<tag k="place" v="isolated_dwelling" />
		<tag k="ssr:stedsnr" v="2354" />
	</node>
	<node id="-1404" lat="59.1585029842" lon="11.525511173">
		<tag k="fixme" v="consider place=hamlet" />
		<tag k="name" v="Seljevik" />
		<tag k="place" v="farm" />
		<tag k="ssr:stedsnr" v="2126" />
	</node>
	<node id="-1401" lat="59.1425611095" lon="11.5225555493">
		<tag k="name" v="Fagerli" />
		<tag k="place" v="isolated_dwelling" />
		<tag k="ssr:stedsnr" v="2029" />
	</node>
	<node id="-1399" lat="59.2007083371" lon="11.3068888822">
		<tag k="name" v="Nordtorp" />
		<tag k="old_name" v="Torp" />
		<tag k="place" v="farm" />
		<tag k="ssr:stedsnr" v="1995" />
	</node>
	<node id="-1397" lat="59.2330138909" lon="11.339627785">
		<tag k="name" v="Nøsterød" />
		<tag k="place" v="farm" />
		<tag k="ssr:stedsnr" v="1928" />
	</node>
	<node id="-1396" lat="59.2396000009" lon="11.4374000061">
		<tag k="name" v="Gjuer" />
		<tag k="place" v="farm" />
		<tag k="ssr:stedsnr" v="1923" />
	</node>
	<node id="-1393" lat="59.1077527775" lon="11.2802249967">
		<tag k="name" v="Sæterhaugen" />
		<tag k="place" v="farm" />
		<tag k="ssr:stedsnr" v="1845" />
	</node>
	<node id="-1391" lat="59.1084999991" lon="11.4217527744">
		<tag k="name" v="Øberg" />
		<tag k="place" v="farm" />
		<tag k="ssr:stedsnr" v="1834" />
	</node>
	<node id="-1388" lat="59.1355750027" lon="11.3533027768">
		<tag k="name" v="Englekor" />
		<tag k="place" v="farm" />
		<tag k="ssr:stedsnr" v="1755" />
	</node>
	<node id="-3434" lat="59.022927781" lon="11.515719452">
		<tag k="name" v="Frydenberg" />
		<tag k="place" v="farm" />
		<tag k="ssr:stedsnr" v="900673" />
	</node>
	<node id="-3433" lat="59.0116944429" lon="11.4995527716">
		<tag k="name" v="Buer" />
		<tag k="place" v="farm" />
		<tag k="ssr:stedsnr" v="900674" />
	</node>
	<node id="-3432" lat="58.8965638886" lon="11.5131249922">
		<tag k="name" v="Sør-Grøva" />
		<tag k="place" v="farm" />
		<tag k="ssr:stedsnr" v="900670" />
	</node>
	<node id="-3431" lat="58.9791305595" lon="11.6875694416">
		<tag k="name" v="Bokerød" />
		<tag k="place" v="farm" />
		<tag k="ssr:stedsnr" v="900665" />
	</node>
	<node id="-3430" lat="58.9770083319" lon="11.5331138886">
		<tag k="name" v="Åsen" />
		<tag k="place" v="farm" />
		<tag k="ssr:stedsnr" v="900655" />
	</node>
	<node id="-1381" lat="59.0542972264" lon="11.5065972279">
		<tag k="alt_name" v="Eyvindsæter;Eivindsetre" />
		<tag k="name" v="Eivindsætre" />
		<tag k="place" v="isolated_dwelling" />
		<tag k="ssr:stedsnr" v="1439" />
	</node>
	<node id="-912" lat="59.0915555569" lon="11.5197666633">
		<tag k="fixme" v="consider tourism=alpine_hut or tourism=chalet" />
		<tag k="name" v="Haugtjernhytta" />
		<tag k="ssr:stedsnr" v="293565" />
		<tag k="tourism" v="wilderness_hut" />
	</node>
	<node id="-1374" lat="58.898980554" lon="11.514480557">
		<tag k="alt_name" v="Grøva" />
		<tag k="name" v="Grøvet" />
		<tag k="place" v="hamlet" />
		<tag k="ssr:stedsnr" v="1255" />
	</node>
	<node id="-1373" lat="59.0682000038" lon="11.4113499948">
		<tag k="name" v="Solbakken" />
		<tag k="place" v="isolated_dwelling" />
		<tag k="ssr:stedsnr" v="1233" />
	</node>
	<node id="-1368" lat="58.9444194437" lon="11.5194583261">
		<tag k="name" v="Haugen" />
		<tag k="place" v="locality" />
		<tag k="ssr:stedsnr" v="868" />
	</node>
	<node id="-1365" lat="58.9182666674" lon="11.5722055588">
		<tag k="name" v="Fjellet" />
		<tag k="place" v="farm" />
		<tag k="ssr:stedsnr" v="163" />
	</node>
	<node id="-1364" lat="58.9085916628" lon="11.5094499964">
		<tag k="alt_name" v="Signebøen-ødegården" />
		<tag k="name" v="Ødegård" />
		<tag k="place" v="farm" />
		<tag k="ssr:stedsnr" v="155" />
	</node>
	<node id="-3409" lat="58.9116749964" lon="11.5172277846">
		<tag k="name" v="Signebøen" />
		<tag k="place" v="farm" />
		<tag k="ssr:stedsnr" v="900346" />
	</node>
	<node id="-3407" lat="59.2187361069" lon="11.4713388919">
		<tag k="alt_name" v="Østeby søndre" />
		<tag k="name" v="Søndre Østeby" />
		<tag k="place" v="farm" />
		<tag k="ssr:stedsnr" v="872874" />
	</node>
	<node id="-3406" lat="59.2095400507" lon="11.4510129155">
		<tag k="fixme" v="consider place=hamlet" />
		<tag k="name" v="Lund" />
		<tag k="place" v="farm" />
		<tag k="ssr:stedsnr" v="872871" />
	</node>
	<node id="-3404" lat="59.1772694479" lon="11.5010083261">
		<tag k="alt_name" v="Tjærviken nordre" />
		<tag k="name" v="Nordre Tjærviken" />
		<tag k="place" v="farm" />
		<tag k="ssr:stedsnr" v="872855" />
	</node>
	<node id="-1355" lat="59.1485156422" lon="11.38489181">
		<tag k="name" v="Frydenlund" />
		<tag k="place" v="quarter" />
		<tag k="ssr:stedsnr" v="981894" />
	</node>
	<node id="-3402" lat="59.2034083344" lon="11.4856888865">
		<tag k="name" v="Tutulen" />
		<tag k="place" v="isolated_dwelling" />
		<tag k="ssr:stedsnr" v="872853" />
	</node>
	<node id="-1353" lat="59.1290268294" lon="11.2795416851">
		<tag k="name" v="Vestgård" />
		<tag k="place" v="quarter" />
		<tag k="ssr:stedsnr" v="981890" />
	</node>
	<node id="-3400" lat="59.1260305584" lon="11.4118444532">
		<tag k="name" v="Ankers" />
		<tag k="place" v="quarter" />
		<tag k="ssr:stedsnr" v="872839" />
	</node>
	<node id="-3399" lat="59.1230555576" lon="11.4315805475">
		<tag k="name" v="Haug" />
		<tag k="place" v="farm" />
		<tag k="ssr:stedsnr" v="872836" />
	</node>
	<node id="-1350" lat="59.1071237362" lon="11.2221314361">
		<tag k="name" v="Svalerødkilen" />
		<tag k="place" v="neighbourhood" />
		<tag k="ssr:stedsnr" v="981886" />
	</node>
	<node id="-1349" lat="59.0977791486" lon="11.2304697485">
		<tag k="name" v="Bukteløkka" />
		<tag k="place" v="quarter" />
		<tag k="ssr:stedsnr" v="981885" />
	</node>
	<node id="-3396" lat="59.0787138866" lon="11.4366166731">
		<tag k="name" v="Granly" />
		<tag k="place" v="farm" />
		<tag k="ssr:stedsnr" v="872805" />
	</node>
	<node id="-3395" lat="59.0946666695" lon="11.4050333288">
		<tag k="name" v="Myrdal" />
		<tag k="place" v="farm" />
		<tag k="ssr:stedsnr" v="872799" />
	</node>
	<node id="-3394" lat="59.0984555557" lon="11.4559888895">
		<tag k="alt_name" v="Klepper nordre" />
		<tag k="name" v="Nordre Klepper" />
		<tag k="place" v="farm" />
		<tag k="ssr:stedsnr" v="872792" />
	</node>
	<node id="-1345" lat="59.0108844429" lon="11.530275746">
		<tag k="name" v="Buer" />
		<tag k="place" v="neighbourhood" />
		<tag k="ssr:stedsnr" v="981879" />
	</node>
	<node id="-3392" lat="59.1107277765" lon="11.4066722264">
		<tag k="name" v="Roligheten (Schnitlerhytta)" />
		<tag k="place" v="isolated_dwelling" />
		<tag k="ssr:stedsnr" v="872784" />
	</node>
	<node id="-3391" lat="59.0722083291" lon="11.4700194441">
		<tag k="name" v="Sandhøy" />
		<tag k="place" v="isolated_dwelling" />
		<tag k="ssr:stedsnr" v="872235" />
	</node>
	<node id="-3390" lat="59.1208805595" lon="11.2988055551">
		<tag k="name" v="Heie" />
		<tag k="place" v="isolated_dwelling" />
		<tag k="ssr:stedsnr" v="872223" />
	</node>
	<node id="-3389" lat="59.1408972214" lon="11.3828444507">
		<tag k="amenity" v="school" />
		<tag k="name" v="Hjortsberg barneskole" />
		<tag k="ssr:stedsnr" v="872222" />
	</node>
	<node id="-3388" lat="59.1921861088" lon="11.3192722301">
		<tag k="name" v="Torp" />
		<tag k="place" v="farm" />
		<tag k="ssr:stedsnr" v="872210" />
	</node>
	<node id="-1336" lat="58.9671078202" lon="11.6829918389">
		<tag k="fixme" v="consider place=hamlet" />
		<tag k="name" v="Bokenes" />
		<tag k="place" v="farm" />
		<tag k="ssr:stedsnr" v="1072683" />
	</node>
	<node id="-3382" lat="59.1528944473" lon="11.3754055617">
		<tag k="name" v="Brekkerød" />
		<tag k="place" v="farm" />
		<tag k="ssr:stedsnr" v="872156" />
	</node>
	<node id="-3378" lat="59.1598055581" lon="11.2464833292">
		<tag k="name" v="Rynningen" />
		<tag k="place" v="farm" />
		<tag k="ssr:stedsnr" v="872042" />
	</node>
	<node id="-3376" lat="58.9719055556" lon="11.482563891">
		<tag k="name" v="Ørebakke" />
		<tag k="place" v="farm" />
		<tag k="ssr:stedsnr" v="871301" />
	</node>
	<node id="-3375" lat="59.1494916699" lon="11.6241333251">
		<tag k="name" v="Vassbrekka" />
		<tag k="place" v="isolated_dwelling" />
		<tag k="ssr:stedsnr" v="871195" />
	</node>
	<node id="-3371" lat="59.1784999984" lon="11.292125001">
		<tag k="name" v="Mo" />
		<tag k="place" v="farm" />
		<tag k="ssr:stedsnr" v="852961" />
	</node>
	<node id="-3367" lat="59.1577999988" lon="11.4604500003">
		<tag k="name" v="Skogen" />
		<tag k="place" v="farm" />
		<tag k="ssr:stedsnr" v="852792" />
	</node>
	<node id="-3366" lat="59.1597749977" lon="11.3224250036">
		<tag k="name" v="Holmen" />
		<tag k="place" v="isolated_dwelling" />
		<tag k="ssr:stedsnr" v="852786" />
	</node>
	<node id="-3365" lat="59.1477750003" lon="11.3024999969">
		<tag k="name" v="Åsekjær" />
		<tag k="place" v="farm" />
		<tag k="ssr:stedsnr" v="852779" />
	</node>
	<node id="-3364" lat="59.1500583345" lon="11.3888250058">
		<tag k="name" v="Bekkhus" />
		<tag k="place" v="farm" />
		<tag k="ssr:stedsnr" v="852766" />
	</node>
	<node id="-3363" lat="59.150800003" lon="11.4291749964">
		<tag k="name" v="Fjell" />
		<tag k="place" v="farm" />
		<tag k="ssr:stedsnr" v="852761" />
	</node>
	<node id="-3362" lat="59.1404750012" lon="11.4642277857">
		<tag k="alt_name" v="Gjernes" />
		<tag k="name" v="Gjælnes" />
		<tag k="place" v="farm" />
		<tag k="ssr:stedsnr" v="852752" />
	</node>
	<node id="-3361" lat="59.0970750018" lon="11.5956611059">
		<tag k="name" v="Ertehaugen" />
		<tag k="place" v="farm" />
		<tag k="ssr:stedsnr" v="852492" />
	</node>
	<node id="-3357" lat="59.0304611104" lon="11.5686111078">
		<tag k="name" v="Rustad" />
		<tag k="place" v="farm" />
		<tag k="ssr:stedsnr" v="852402" />
	</node>
	<node id="-3353" lat="59.0973277819" lon="11.458424999">
		<tag k="alt_name" v="Klepper søndre" />
		<tag k="name" v="Klepper" />
		<tag k="place" v="farm" />
		<tag k="ssr:stedsnr" v="852288" />
	</node>
	<node id="-1304" lat="59.1727555577" lon="11.5388166651">
		<tag k="amenity" v="school" />
		<tag k="name" v="Skole" />
		<tag k="ssr:stedsnr" v="475903" />
	</node>
	<node id="-3347" lat="59.1456305567" lon="11.5475249974">
		<tag k="name" v="Holene" />
		<tag k="place" v="farm" />
		<tag k="ssr:stedsnr" v="852013" />
	</node>
	<node id="-3346" lat="59.2001750004" lon="11.3195500007">
		<tag k="name" v="Østtorpskogen" />
		<tag k="place" v="farm" />
		<tag k="ssr:stedsnr" v="851996" />
	</node>
	<node id="-3342" lat="59.2225916655" lon="11.3762444445">
		<tag k="name" v="Korsetdalen" />
		<tag k="place" v="farm" />
		<tag k="ssr:stedsnr" v="851916" />
	</node>
	<node id="-1293" lat="58.8949083306" lon="11.5173805559">
		<tag k="name" v="Haugane" />
		<tag k="place" v="farm" />
		<tag k="ssr:stedsnr" v="475673" />
	</node>
	<node id="-3339" lat="59.1195499965" lon="11.2925499974">
		<tag k="name" v="Unneberg" />
		<tag k="place" v="farm" />
		<tag k="ssr:stedsnr" v="851850" />
	</node>
	<node id="-3336" lat="59.1031777807" lon="11.2480249972">
		<tag k="name" v="Haugen" />
		<tag k="place" v="isolated_dwelling" />
		<tag k="ssr:stedsnr" v="851820" />
	</node>
	<node id="-3173" lat="59.1844499976" lon="11.3050999967">
		<tag k="name" v="Sønstevoll" />
		<tag k="place" v="farm" />
		<tag k="ssr:stedsnr" v="790980" />
	</node>
	<node id="-3334" lat="58.9683027753" lon="11.5212194366">
		<tag k="name" v="Sandbekk" />
		<tag k="place" v="farm" />
		<tag k="ssr:stedsnr" v="851815" />
	</node>
	<node id="-3328" lat="58.9966444486" lon="11.5247194489">
		<tag k="alt_name" v="Prestbakkholtet" />
		<tag k="name" v="Prestebakkeholtet" />
		<tag k="place" v="isolated_dwelling" />
		<tag k="ssr:stedsnr" v="851778" />
	</node>
	<node id="-3323" lat="59.0615722254" lon="11.5818722297">
		<tag k="alt_name" v="Olavsrød" />
		<tag k="name" v="Olasrød" />
		<tag k="place" v="farm" />
		<tag k="ssr:stedsnr" v="851367" />
	</node>
	<node id="-3322" lat="59.0012611649" lon="11.4862072371">
		<tag k="fixme" v="consider place=hamlet" />
		<tag k="name" v="Brekke" />
		<tag k="place" v="farm" />
		<tag k="ssr:stedsnr" v="851298" />
	</node>
	<node id="-3321" lat="59.2462638869" lon="11.5290749935">
		<tag k="name" v="Buneshytta" />
		<tag k="place" v="isolated_dwelling" />
		<tag k="ssr:stedsnr" v="851235" />
	</node>
	<node id="-3318" lat="59.0942527736" lon="11.2020500084">
		<tag k="alt_name" v="Mørviken" />
		<tag k="name" v="Mørvika" />
		<tag k="place" v="isolated_dwelling" />
		<tag k="ssr:stedsnr" v="851184" />
	</node>
	<node id="-3315" lat="59.1866386434" lon="11.5197591434">
		<tag k="alt_name" v="Håkenby" />
		<tag k="fixme" v="consider place=hamlet" />
		<tag k="name" v="Håkaby" />
		<tag k="place" v="farm" />
		<tag k="ssr:stedsnr" v="851083" />
	</node>
	<node id="-3312" lat="58.929730556" lon="11.5184638861">
		<tag k="fixme" v="consider place=hamlet" />
		<tag k="name" v="Golden" />
		<tag k="place" v="farm" />
		<tag k="ssr:stedsnr" v="850183" />
	</node>
	<node id="-3311" lat="58.9293000001" lon="11.5778416683">
		<tag k="alt_name" v="Bråtane vestre;Bråtene" />
		<tag k="name" v="Vestre Bråtane" />
		<tag k="place" v="farm" />
		<tag k="ssr:stedsnr" v="850182" />
	</node>
	<node id="-3309" lat="58.9052888855" lon="11.522233339">
		<tag k="name" v="Kirkebøen" />
		<tag k="place" v="farm" />
		<tag k="ssr:stedsnr" v="850140" />
	</node>
	<node id="-2429" lat="59.0386166678" lon="11.6193916726">
		<tag k="historic" v="shieling" />
		<tag k="name" v="Ørsætre" />
		<tag k="place" v="locality" />
		<tag k="ssr:stedsnr" v="547445" />
	</node>
	<node id="-3306" lat="58.9792555534" lon="11.4764222141">
		<tag k="name" v="Tangen" />
		<tag k="place" v="locality" />
		<tag k="ssr:stedsnr" v="848106" />
	</node>
	<node id="-3305" lat="58.9822735495" lon="11.6418561136">
		<tag k="fixme" v="consider place=hamlet" />
		<tag k="name" v="Bollerød" />
		<tag k="place" v="farm" />
		<tag k="ssr:stedsnr" v="845962" />
	</node>
	<node id="-1256" lat="59.101569445" lon="11.4398777741">
		<tag k="name" v="Skredderlia" />
		<tag k="place" v="farm" />
		<tag k="ssr:stedsnr" v="387751" />
	</node>
	<node id="-1255" lat="59.1146916706" lon="11.4065722149">
		<tag k="amenity" v="school" />
		<tag k="name" v="Risum v.g. skole" />
		<tag k="ssr:stedsnr" v="387746" />
	</node>
	<node id="-1254" lat="59.1124888896" lon="11.402511118">
		<tag k="amenity" v="school" />
		<tag k="name" v="Folkvang barneskole" />
		<tag k="ssr:stedsnr" v="387742" />
	</node>
	<node id="-1250" lat="59.163312455" lon="11.4285654959">
		<tag k="name" v="Demma" />
		<tag k="place" v="farm" />
		<tag k="ssr:stedsnr" v="386846" />
	</node>
	<node id="-3117" lat="58.9483306562" lon="11.5226002329">
		<tag k="fixme" v="multiple name tags, choose one and add the other to alt_name" />
		<tag k="name" v="Lia;Svenningsbøen" />
		<tag k="place" v="farm" />
		<tag k="ssr:stedsnr" v="784181" />
	</node>
	<node id="-1248" lat="59.0792611074" lon="11.4656194463">
		<tag k="name" v="Kleveneløkka" />
		<tag k="place" v="farm" />
		<tag k="ssr:stedsnr" v="386806" />
	</node>
	<node id="-1247" lat="59.0820444425" lon="11.4676166707">
		<tag k="name" v="Kverndalen" />
		<tag k="place" v="farm" />
		<tag k="ssr:stedsnr" v="386797" />
	</node>
	<node id="-1246" lat="59.0941611145" lon="11.3963277806">
		<tag k="name" v="Fjellbu" />
		<tag k="place" v="isolated_dwelling" />
		<tag k="ssr:stedsnr" v="386780" />
	</node>
	<node id="-1244" lat="59.1024166707" lon="11.4536027842">
		<tag k="alt_name" v="Nordre Gimming" />
		<tag k="name" v="Gimmen" />
		<tag k="place" v="farm" />
		<tag k="ssr:stedsnr" v="386772" />
	</node>
	<node id="-1242" lat="59.009552776" lon="11.4931027762">
		<tag k="name" v="Buerenga" />
		<tag k="place" v="farm" />
		<tag k="ssr:stedsnr" v="386234" />
	</node>
	<node id="-1240" lat="59.1985055539" lon="11.3070777746">
		<tag k="name" v="Søtorp" />
		<tag k="place" v="farm" />
		<tag k="ssr:stedsnr" v="386202" />
	</node>
	<node id="-1239" lat="59.2000944403" lon="11.3157222293">
		<tag k="name" v="Øberg" />
		<tag k="place" v="farm" />
		<tag k="ssr:stedsnr" v="386198" />
	</node>
	<node id="-1238" lat="59.1125944455" lon="11.308566675">
		<tag k="name" v="Davidsmoen" />
		<tag k="place" v="isolated_dwelling" />
		<tag k="ssr:stedsnr" v="386181" />
	</node>
	<node id="-1235" lat="59.1538888888" lon="11.3802361123">
		<tag k="name" v="Jakobsrød" />
		<tag k="place" v="farm" />
		<tag k="ssr:stedsnr" v="386166" />
	</node>
	<node id="-1233" lat="59.1480111107" lon="11.2788361131">
		<tag k="name" v="Husebyhaug" />
		<tag k="place" v="farm" />
		<tag k="ssr:stedsnr" v="386161" />
	</node>
	<node id="-1231" lat="59.095269446" lon="11.2308249933">
		<tag k="name" v="Hårbyløkka" />
		<tag k="place" v="quarter" />
		<tag k="ssr:stedsnr" v="386048" />
	</node>
	<node id="-1230" lat="59.1498825632" lon="11.265432084">
		<tag k="alt_name" v="Huseby" />
		<tag k="name" v="Vestre Huseby" />
		<tag k="place" v="farm" />
		<tag k="ssr:stedsnr" v="386044" />
	</node>
	<node id="-1229" lat="59.1549666663" lon="11.2475472292">
		<tag k="name" v="Blindheim" />
		<tag k="place" v="farm" />
		<tag k="ssr:stedsnr" v="386040" />
	</node>
	<node id="-1228" lat="59.1004055592" lon="11.2334277713">
		<tag k="name" v="Skansen" />
		<tag k="place" v="isolated_dwelling" />
		<tag k="ssr:stedsnr" v="386009" />
	</node>
	<node id="-1227" lat="59.1594361119" lon="11.6020694394">
		<tag k="fixme" v="multiple name tags, choose one and add the other to alt_name" />
		<tag k="name" v="Kasene;Utenga" />
		<tag k="place" v="farm" />
		<tag k="ssr:stedsnr" v="385231" />
	</node>
	<node id="-1226" lat="59.168575001" lon="11.2776527792">
		<tag k="name" v="Mosen" />
		<tag k="place" v="farm" />
		<tag k="ssr:stedsnr" v="366929" />
	</node>
	<node id="-1224" lat="59.1239999982" lon="11.3535027695">
		<tag k="alt_name" v="Remmen øvre" />
		<tag k="name" v="Remmen" />
		<tag k="place" v="farm" />
		<tag k="ssr:stedsnr" v="366839" />
	</node>
	<node id="-1223" lat="59.1180277764" lon="11.4245749971">
		<tag k="name" v="Sommero" />
		<tag k="place" v="farm" />
		<tag k="ssr:stedsnr" v="366838" />
	</node>
	<node id="-1222" lat="59.1189361094" lon="11.4680111055">
		<tag k="alt_name" v="Dal, store" />
		<tag k="name" v="Stordal" />
		<tag k="place" v="farm" />
		<tag k="ssr:stedsnr" v="366834" />
	</node>
	<node id="-1220" lat="58.9531166681" lon="11.4859638969">
		<tag k="alt_name" v="Ødegården" />
		<tag k="name" v="Øgården" />
		<tag k="place" v="isolated_dwelling" />
		<tag k="ssr:stedsnr" v="366826" />
	</node>
	<node id="-1219" lat="58.9605805564" lon="11.6048583321">
		<tag k="alt_name" v="Høljekasa" />
		<tag k="name" v="Høljekas" />
		<tag k="place" v="farm" />
		<tag k="ssr:stedsnr" v="366821" />
	</node>
	<node id="-1215" lat="58.9728027762" lon="11.5519444505">
		<tag k="name" v="Sandby" />
		<tag k="place" v="isolated_dwelling" />
		<tag k="ssr:stedsnr" v="366811" />
	</node>
	<node id="-3262" lat="59.0646527818" lon="11.6483666612">
		<tag k="name" v="Nordre Tronsholtet" />
		<tag k="place" v="farm" />
		<tag k="ssr:stedsnr" v="840702" />
	</node>
	<node id="-1213" lat="59.1629777758" lon="11.3317250006">
		<tag k="alt_name" v="Sørbrødenkasa" />
		<tag k="name" v="Kasa" />
		<tag k="place" v="farm" />
		<tag k="ssr:stedsnr" v="366793" />
	</node>
	<node id="-3260" lat="58.8982527748" lon="11.5099138806">
		<tag k="name" v="Vollane" />
		<tag k="place" v="farm" />
		<tag k="ssr:stedsnr" v="840696" />
	</node>
	<node id="-3259" lat="59.0156388867" lon="11.5093500014">
		<tag k="name" v="Buerødegård" />
		<tag k="place" v="farm" />
		<tag k="ssr:stedsnr" v="840681" />
	</node>
	<node id="-3258" lat="58.9971333328" lon="11.6538166748">
		<tag k="name" v="Sanderødmoen" />
		<tag k="place" v="farm" />
		<tag k="ssr:stedsnr" v="840670" />
	</node>
	<node id="-3257" lat="59.0538194478" lon="11.584116666">
		<tag k="name" v="Torgalsbøen" />
		<tag k="place" v="farm" />
		<tag k="ssr:stedsnr" v="840669" />
	</node>
	<node id="-3256" lat="58.9996722203" lon="11.5214750073">
		<tag k="name" v="Bjerkebekk" />
		<tag k="place" v="farm" />
		<tag k="ssr:stedsnr" v="840662" />
	</node>
	<node id="-3255" lat="58.9963000014" lon="11.5279666675">
		<tag k="name" v="Skansen" />
		<tag k="place" v="farm" />
		<tag k="ssr:stedsnr" v="840660" />
	</node>
	<node id="-3254" lat="58.9953861098" lon="11.5292416645">
		<tag k="name" v="Prestebakke skogbruksgård" />
		<tag k="place" v="farm" />
		<tag k="ssr:stedsnr" v="840658" />
	</node>
	<node id="-3253" lat="58.9700749978" lon="11.5504388865">
		<tag k="name" v="Kasa" />
		<tag k="place" v="farm" />
		<tag k="ssr:stedsnr" v="840656" />
	</node>
	<node id="-3252" lat="58.9516749973" lon="11.519186112">
		<tag k="name" v="Svenningsbøen" />
		<tag k="place" v="farm" />
		<tag k="ssr:stedsnr" v="840651" />
	</node>
	<node id="-3251" lat="58.9067777751" lon="11.5201361163">
		<tag k="name" v="Kirkebøen" />
		<tag k="place" v="farm" />
		<tag k="ssr:stedsnr" v="840649" />
	</node>
	<node id="-1197" lat="59.1770611135" lon="11.5009916666">
		<tag k="name" v="Tjærviken" />
		<tag k="place" v="farm" />
		<tag k="ssr:stedsnr" v="366079" />
	</node>
	<node id="-1196" lat="59.1788555567" lon="11.5679944453">
		<tag k="name" v="Solbrekke" />
		<tag k="place" v="farm" />
		<tag k="ssr:stedsnr" v="366077" />
	</node>
	<node id="-3238" lat="59.1307944475" lon="11.3658583295">
		<tag k="amenity" v="school" />
		<tag k="name" v="Låby skole" />
		<tag k="ssr:stedsnr" v="831882" />
	</node>
	<node id="-1189" lat="59.1830000031" lon="11.3870000075">
		<tag k="name" v="Mjølnerød" />
		<tag k="place" v="farm" />
		<tag k="ssr:stedsnr" v="365984" />
	</node>
	<node id="-3235" lat="59.1106000009" lon="11.4233638902">
		<tag k="amenity" v="school" />
		<tag k="name" v="Øberg barneskole" />
		<tag k="ssr:stedsnr" v="812778" />
	</node>
	<node id="-3234" lat="59.0502888928" lon="11.4892416737">
		<tag k="name" v="Gylsrød" />
		<tag k="place" v="farm" />
		<tag k="ssr:stedsnr" v="812765" />
	</node>
	<node id="-1184" lat="59.225666666" lon="11.3249083354">
		<tag k="name" v="Ormeto" />
		<tag k="place" v="farm" />
		<tag k="ssr:stedsnr" v="365929" />
	</node>
	<node id="-1180" lat="59.2176777757" lon="11.3330555535">
		<tag k="name" v="Slora" />
		<tag k="place" v="farm" />
		<tag k="ssr:stedsnr" v="365913" />
	</node>
	<node id="-1179" lat="58.9437277807" lon="11.4967444457">
		<tag k="name" v="Trettebekk" />
		<tag k="place" v="locality" />
		<tag k="ssr:stedsnr" v="365894" />
	</node>
	<node id="-1178" lat="59.1049750031" lon="11.2497000007">
		<tag k="name" v="Berget" />
		<tag k="place" v="farm" />
		<tag k="ssr:stedsnr" v="365858" />
	</node>
	<node id="-1177" lat="59.1084750015" lon="11.4116722154">
		<tag k="alt_name" v="Rishaug" />
		<tag k="name" v="Rishagen" />
		<tag k="place" v="farm" />
		<tag k="ssr:stedsnr" v="365857" />
	</node>
	<node id="-1175" lat="58.9716388885" lon="11.5029500009">
		<tag k="name" v="Ende" />
		<tag k="place" v="farm" />
		<tag k="ssr:stedsnr" v="365849" />
	</node>
	<node id="-1174" lat="59.0969000011" lon="11.2226250041">
		<tag k="name" v="Korterød" />
		<tag k="place" v="farm" />
		<tag k="ssr:stedsnr" v="365843" />
	</node>
	<node id="-3221" lat="59.1447749996" lon="11.4556916619">
		<tag k="alt_name" v="Nordby søndre" />
		<tag k="name" v="Søndre Nordby" />
		<tag k="place" v="farm" />
		<tag k="ssr:stedsnr" v="811794" />
	</node>
	<node id="-1170" lat="58.9978222185" lon="11.6827416749">
		<tag k="name" v="Brottet" />
		<tag k="place" v="farm" />
		<tag k="ssr:stedsnr" v="365803" />
	</node>
	<node id="-3215" lat="59.0930444445" lon="11.4116611096">
		<tag k="name" v="Skoglund" />
		<tag k="place" v="isolated_dwelling" />
		<tag k="ssr:stedsnr" v="811764" />
	</node>
	<node id="-3213" lat="59.0926750018" lon="11.3920888871">
		<tag k="name" v="Brattskott" />
		<tag k="place" v="isolated_dwelling" />
		<tag k="ssr:stedsnr" v="811755" />
	</node>
	<node id="-3212" lat="59.0883444462" lon="11.427527772">
		<tag k="alt_name" v="Hov vestre" />
		<tag k="name" v="Vestre Hov" />
		<tag k="place" v="farm" />
		<tag k="ssr:stedsnr" v="811754" />
	</node>
	<node id="-3211" lat="59.0489805564" lon="11.4476083264">
		<tag k="alt_name" v="Holtlia" />
		<tag k="name" v="Holtelia" />
		<tag k="place" v="farm" />
		<tag k="ssr:stedsnr" v="811725" />
	</node>
	<node id="-3210" lat="58.9995166638" lon="11.4851277852">
		<tag k="name" v="Grønli" />
		<tag k="place" v="isolated_dwelling" />
		<tag k="ssr:stedsnr" v="811301" />
	</node>
	<node id="-3209" lat="59.013555552" lon="11.4478111134">
		<tag k="name" v="Trulsekas" />
		<tag k="place" v="isolated_dwelling" />
		<tag k="ssr:stedsnr" v="811232" />
	</node>
	<node id="-3207" lat="59.0736555582" lon="11.4122333287">
		<tag k="name" v="Furuvarp" />
		<tag k="place" v="farm" />
		<tag k="ssr:stedsnr" v="811219" />
	</node>
	<node id="-3206" lat="59.0724749964" lon="11.4023777798">
		<tag k="name" v="Råbukken" />
		<tag k="place" v="isolated_dwelling" />
		<tag k="ssr:stedsnr" v="811218" />
	</node>
	<node id="-3205" lat="59.0608916644" lon="11.4831444397">
		<tag k="name" v="Lundeby" />
		<tag k="place" v="isolated_dwelling" />
		<tag k="ssr:stedsnr" v="811208" />
	</node>
	<node id="-3204" lat="59.0627805547" lon="11.4788583288">
		<tag k="name" v="Sandli" />
		<tag k="place" v="isolated_dwelling" />
		<tag k="ssr:stedsnr" v="811207" />
	</node>
	<node id="-3203" lat="59.1390861131" lon="11.3546249965">
		<tag k="name" v="Fruminde" />
		<tag k="place" v="isolated_dwelling" />
		<tag k="ssr:stedsnr" v="811198" />
	</node>
	<node id="-3202" lat="59.1725722183" lon="11.3808972168">
		<tag k="name" v="Rahaugen" />
		<tag k="place" v="farm" />
		<tag k="ssr:stedsnr" v="811178" />
	</node>
	<node id="-1153" lat="59.17468889" lon="11.5661583262">
		<tag k="name" v="Fismedal" />
		<tag k="place" v="farm" />
		<tag k="ssr:stedsnr" v="365099" />
	</node>
	<node id="-3199" lat="59.1036805546" lon="11.2786972273">
		<tag k="name" v="Kollegård" />
		<tag k="place" v="isolated_dwelling" />
		<tag k="ssr:stedsnr" v="811171" />
	</node>
	<node id="-3195" lat="59.1570166638" lon="11.3756083254">
		<tag k="name" v="Munkebru" />
		<tag k="place" v="farm" />
		<tag k="ssr:stedsnr" v="811160" />
	</node>
	<node id="-1146" lat="58.9095499959" lon="11.527163892">
		<tag k="name" v="Bråtorp" />
		<tag k="place" v="farm" />
		<tag k="ssr:stedsnr" v="364167" />
	</node>
	<node id="-3193" lat="59.1517722264" lon="11.2505527795">
		<tag k="name" v="Alkerød" />
		<tag k="place" v="farm" />
		<tag k="ssr:stedsnr" v="811054" />
	</node>
	<node id="-3192" lat="59.1145555567" lon="11.2629722243">
		<tag k="name" v="Bjørndalen" />
		<tag k="place" v="farm" />
		<tag k="ssr:stedsnr" v="811018" />
	</node>
	<node id="-3191" lat="59.1757750033" lon="11.3300055581">
		<tag k="alt_name" v="Lindhaugen" />
		<tag k="name" v="Lindehaugen" />
		<tag k="place" v="farm" />
		<tag k="ssr:stedsnr" v="791961" />
	</node>
	<node id="-1041" lat="59.2506055579" lon="11.4668250009">
		<tag k="alt_name" v="Glømsrud øvre" />
		<tag k="name" v="Glomsrød" />
		<tag k="place" v="farm" />
		<tag k="ssr:stedsnr" v="306922" />
	</node>
	<node id="-3187" lat="59.1626750011" lon="11.3719749991">
		<tag k="name" v="Tolvehaugen" />
		<tag k="place" v="farm" />
		<tag k="ssr:stedsnr" v="791818" />
	</node>
	<node id="-3186" lat="59.1637250003" lon="11.340525005">
		<tag k="name" v="Sørbrøden" />
		<tag k="place" v="farm" />
		<tag k="ssr:stedsnr" v="791809" />
	</node>
	<node id="-3185" lat="59.1462500027" lon="11.437902774">
		<tag k="name" v="Myra" />
		<tag k="place" v="farm" />
		<tag k="ssr:stedsnr" v="791797" />
	</node>
	<node id="-3184" lat="59.1475749978" lon="11.4430527863">
		<tag k="name" v="Grønlund" />
		<tag k="place" v="farm" />
		<tag k="ssr:stedsnr" v="791795" />
	</node>
	<node id="-3183" lat="59.1506138902" lon="11.3643055548">
		<tag k="alt_name" v="Vollane" />
		<tag k="name" v="Vollene" />
		<tag k="place" v="farm" />
		<tag k="ssr:stedsnr" v="791789" />
	</node>
	<node id="-3182" lat="59.1426499987" lon="11.4092000077">
		<tag k="name" v="Nærsrød" />
		<tag k="place" v="farm" />
		<tag k="ssr:stedsnr" v="791776" />
	</node>
	<node id="-3261" lat="58.8986777819" lon="11.5129138953">
		<tag k="name" v="Nord-Grøva" />
		<tag k="place" v="farm" />
		<tag k="ssr:stedsnr" v="840697" />
	</node>
	<node id="-1212" lat="59.1455499993" lon="11.3287027795">
		<tag k="name" v="Nordby" />
		<tag k="place" v="farm" />
		<tag k="ssr:stedsnr" v="366763" />
	</node>
	<node id="-3174" lat="59.1369611116" lon="11.6253277772">
		<tag k="name" v="Trollnes" />
		<tag k="place" v="farm" />
		<tag k="ssr:stedsnr" v="791022" />
	</node>
	<node id="-1553" lat="59.1172277765" lon="11.4600777863">
		<tag k="alt_name" v="Lille Bjørnestad" />
		<tag k="name" v="Lille Bjørnstad" />
		<tag k="place" v="farm" />
		<tag k="ssr:stedsnr" v="62870" />
	</node>
	<node id="-3172" lat="59.1878777797" lon="11.3144499965">
		<tag k="alt_name" v="Nordre Voll" />
		<tag k="name" v="Voll" />
		<tag k="place" v="farm" />
		<tag k="ssr:stedsnr" v="790977" />
	</node>
	<node id="-3170" lat="59.2091250003" lon="11.4317750007">
		<tag k="alt_name" v="Prestenga" />
		<tag k="name" v="Presteng" />
		<tag k="place" v="farm" />
		<tag k="ssr:stedsnr" v="790892" />
	</node>
	<node id="-3168" lat="58.9683527782" lon="11.6825888948">
		<tag k="alt_name" v="Bokenes nordre;Bokenes" />
		<tag k="name" v="Nordre Bokenes" />
		<tag k="place" v="farm" />
		<tag k="ssr:stedsnr" v="790862" />
	</node>
	<node id="-3167" lat="58.9606111123" lon="11.5243972154">
		<tag k="name" v="Vaglen" />
		<tag k="place" v="farm" />
		<tag k="ssr:stedsnr" v="790860" />
	</node>
	<node id="-3166" lat="59.1083777742" lon="11.3849250004">
		<tag k="alt_name" v="Eskeviken" />
		<tag k="name" v="Eskevika" />
		<tag k="place" v="farm" />
		<tag k="ssr:stedsnr" v="790854" />
	</node>
	<node id="-3165" lat="59.0996249961" lon="11.433874992">
		<tag k="alt_name" v="Ås nordre" />
		<tag k="name" v="Ås" />
		<tag k="place" v="farm" />
		<tag k="ssr:stedsnr" v="790833" />
	</node>
	<node id="-3164" lat="58.985091665" lon="11.6212277792">
		<tag k="name" v="Teigen" />
		<tag k="place" v="farm" />
		<tag k="ssr:stedsnr" v="790825" />
	</node>
	<node id="-3163" lat="58.9953583339" lon="11.645758331">
		<tag k="alt_name" v="Kivedal" />
		<tag k="name" v="Kivedalen" />
		<tag k="place" v="farm" />
		<tag k="ssr:stedsnr" v="790812" />
	</node>
	<node id="-3599" lat="58.9457472266" lon="11.621630552">
		<tag k="name" v="Moen" />
		<tag k="place" v="farm" />
		<tag k="ssr:stedsnr" v="961679" />
	</node>
	<node id="-3160" lat="59.1400749963" lon="11.237875005">
		<tag k="name" v="Ma" />
		<tag k="place" v="isolated_dwelling" />
		<tag k="ssr:stedsnr" v="790776" />
	</node>
	<node id="-3159" lat="59.1308500041" lon="11.4517499963">
		<tag k="name" v="Veden" />
		<tag k="place" v="isolated_dwelling" />
		<tag k="ssr:stedsnr" v="790772" />
	</node>
	<node id="-1110" lat="59.1595305564" lon="11.5291055474">
		<tag k="name" v="Nedre Seljevik" />
		<tag k="place" v="farm" />
		<tag k="ssr:stedsnr" v="354686" />
	</node>
	<node id="-1209" lat="59.0450749967" lon="11.5833361048">
		<tag k="name" v="Ør" />
		<tag k="place" v="farm" />
		<tag k="ssr:stedsnr" v="366446" />
	</node>
	<node id="-1108" lat="58.9719500039" lon="11.6728805562">
		<tag k="name" v="Bokenesødegård" />
		<tag k="place" v="farm" />
		<tag k="ssr:stedsnr" v="354676" />
	</node>
	<node id="-3155" lat="59.0403750005" lon="11.4685416669">
		<tag k="alt_name" v="Bestedalen" />
		<tag k="name" v="Bergsdalen" />
		<tag k="place" v="farm" />
		<tag k="ssr:stedsnr" v="790432" />
	</node>
	<node id="-1103" lat="58.8790333341" lon="11.5347583284">
		<tag k="building" v="civic" />
		<tag k="name" v="Holtet tollstasjon" />
		<tag k="ssr:stedsnr" v="354579" />
	</node>
	<node id="-3146" lat="59.0054132146" lon="11.4917067496">
		<tag k="name" v="Frydenlund" />
		<tag k="place" v="farm" />
		<tag k="ssr:stedsnr" v="790306" />
	</node>
	<node id="-3143" lat="59.0876801336" lon="11.4271626062">
		<tag k="fixme" v="consider place=hamlet" />
		<tag k="name" v="Hov" />
		<tag k="place" v="farm" />
		<tag k="ssr:stedsnr" v="790163" />
	</node>
	<node id="-3142" lat="59.0879749984" lon="11.3943999932">
		<tag k="name" v="Nokkedal" />
		<tag k="place" v="isolated_dwelling" />
		<tag k="ssr:stedsnr" v="790160" />
	</node>
	<node id="-3140" lat="59.2394861094" lon="11.5038999944">
		<tag k="name" v="Ulveholtet" />
		<tag k="place" v="isolated_dwelling" />
		<tag k="ssr:stedsnr" v="790109" />
	</node>
	<node id="-3138" lat="59.1817000017" lon="11.5591027798">
		<tag k="alt_name" v="Blokkemyr nordre" />
		<tag k="name" v="Blokkemyr" />
		<tag k="place" v="farm" />
		<tag k="ssr:stedsnr" v="790076" />
	</node>
	<node id="-3137" lat="59.1845361111" lon="11.5108888816">
		<tag k="alt_name" v="Torby søndre;Thoreby søndre" />
		<tag k="name" v="Søndre Torby" />
		<tag k="place" v="farm" />
		<tag k="ssr:stedsnr" v="790064" />
	</node>
	<node id="-1088" lat="59.1252055589" lon="11.3697722209">
		<tag k="name" v="Heimdal" />
		<tag k="place" v="isolated_dwelling" />
		<tag k="ssr:stedsnr" v="345834" />
	</node>
	<node id="-3135" lat="59.1911972222" lon="11.5600777723">
		<tag k="name" v="Trollhytta" />
		<tag k="place" v="isolated_dwelling" />
		<tag k="ssr:stedsnr" v="790054" />
	</node>
	<node id="-3134" lat="58.9423666675" lon="11.5892472234">
		<tag k="alt_name" v="Eljebrukas" />
		<tag k="name" v="Elgbrukasa" />
		<tag k="place" v="isolated_dwelling" />
		<tag k="ssr:stedsnr" v="789870" />
	</node>
	<node id="-3130" lat="58.925038886" lon="11.5207277702">
		<tag k="alt_name" v="Golden østre" />
		<tag k="name" v="Østre Golden" />
		<tag k="place" v="farm" />
		<tag k="ssr:stedsnr" v="789176" />
	</node>
	<node id="-1079" lat="59.1480027788" lon="11.4750416638">
		<tag k="name" v="Skogly" />
		<tag k="place" v="isolated_dwelling" />
		<tag k="ssr:stedsnr" v="326821" />
	</node>
	<node id="-3126" lat="58.9110916706" lon="11.5153805541">
		<tag k="name" v="Signebøen" />
		<tag k="place" v="farm" />
		<tag k="ssr:stedsnr" v="789152" />
	</node>
	<node id="-3125" lat="58.9173222214" lon="11.5225388952">
		<tag k="name" v="Berg" />
		<tag k="place" v="farm" />
		<tag k="ssr:stedsnr" v="789151" />
	</node>
	<node id="-3124" lat="58.9116361155" lon="11.5856777832">
		<tag k="alt_name" v="Skauen søndre" />
		<tag k="name" v="Skogen" />
		<tag k="place" v="farm" />
		<tag k="ssr:stedsnr" v="789149" />
	</node>
	<node id="-1075" lat="59.109125" lon="11.4029694476">
		<tag k="name" v="Akerbekk" />
		<tag k="place" v="isolated_dwelling" />
		<tag k="ssr:stedsnr" v="326764" />
	</node>
	<node id="-1073" lat="59.0528361082" lon="11.4855416714">
		<tag k="name" v="Hvitås" />
		<tag k="place" v="farm" />
		<tag k="ssr:stedsnr" v="326755" />
	</node>
	<node id="-1072" lat="58.9054361086" lon="11.5830944423">
		<tag k="alt_name" v="Bjørndalen" />
		<tag k="name" v="Skauen" />
		<tag k="place" v="farm" />
		<tag k="ssr:stedsnr" v="326753" />
	</node>
	<node id="-3119" lat="58.9472944489" lon="11.516119438">
		<tag k="alt_name" v="Nordvestre Svenningsbøen" />
		<tag k="name" v="Svenningsbø" />
		<tag k="place" v="farm" />
		<tag k="ssr:stedsnr" v="789028" />
	</node>
	<node id="-3118" lat="59.1197916627" lon="11.3203861189">
		<tag k="name" v="Lundestad" />
		<tag k="place" v="isolated_dwelling" />
		<tag k="ssr:stedsnr" v="787482" />
	</node>
	<node id="-1069" lat="59.1222166658" lon="11.3912222157">
		<tag k="name" v="Grønland" />
		<tag k="place" v="quarter" />
		<tag k="ssr:stedsnr" v="325788" />
	</node>
	<node id="-1068" lat="59.0957472218" lon="11.4661583274">
		<tag k="name" v="Klepperkasa" />
		<tag k="place" v="farm" />
		<tag k="ssr:stedsnr" v="325773" />
	</node>
	<node id="-1066" lat="59.1026861097" lon="11.4608583343">
		<tag k="name" v="Bekkevoll" />
		<tag k="place" v="farm" />
		<tag k="ssr:stedsnr" v="325752" />
	</node>
	<node id="-1063" lat="59.014858337" lon="11.4520138828">
		<tag k="name" v="Fagerli" />
		<tag k="place" v="isolated_dwelling" />
		<tag k="ssr:stedsnr" v="325258" />
	</node>
	<node id="-1061" lat="58.9980361118" lon="11.4944166684">
		<tag k="alt_name" v="Folkeset øvre" />
		<tag k="name" v="Øvre Folkeset" />
		<tag k="place" v="farm" />
		<tag k="ssr:stedsnr" v="325327" />
	</node>
	<node id="-1060" lat="59.1150416674" lon="11.3102527799">
		<tag k="name" v="Solheimen" />
		<tag k="place" v="isolated_dwelling" />
		<tag k="ssr:stedsnr" v="325194" />
	</node>
	<node id="-1059" lat="59.1107555539" lon="11.3875222292">
		<tag k="name" v="Hasselbakken" />
		<tag k="place" v="isolated_dwelling" />
		<tag k="ssr:stedsnr" v="325172" />
	</node>
	<node id="-3100" lat="59.0054138899" lon="11.5283388958">
		<tag k="name" v="Albekk" />
		<tag k="place" v="isolated_dwelling" />
		<tag k="ssr:stedsnr" v="779789" />
	</node>
	<node id="-1051" lat="59.1577777769" lon="11.3786611161">
		<tag k="name" v="Østli" />
		<tag k="place" v="isolated_dwelling" />
		<tag k="ssr:stedsnr" v="325158" />
	</node>
	<node id="-1050" lat="59.1576194487" lon="11.327872223">
		<tag k="name" v="Tretorp" />
		<tag k="place" v="isolated_dwelling" />
		<tag k="ssr:stedsnr" v="325156" />
	</node>
	<node id="-1048" lat="59.1324944473" lon="11.2462305567">
		<tag k="name" v="Fjellhaug" />
		<tag k="place" v="isolated_dwelling" />
		<tag k="ssr:stedsnr" v="325058" />
	</node>
	<node id="-1046" lat="59.1146694458" lon="11.2424888889">
		<tag k="alt_name" v="Kjølerbakken nordre" />
		<tag k="name" v="Nordre Kjølerbakken" />
		<tag k="place" v="farm" />
		<tag k="ssr:stedsnr" v="325003" />
	</node>
	<node id="-3092" lat="59.0493861087" lon="11.6750777857">
		<tag k="name" v="Ørskasene" />
		<tag k="place" v="farm" />
		<tag k="ssr:stedsnr" v="779692" />
	</node>
	<node id="-3091" lat="58.8790138901" lon="11.5233555566">
		<tag k="name" v="Sørstua" />
		<tag k="place" v="farm" />
		<tag k="ssr:stedsnr" v="779687" />
	</node>
	<node id="-3090" lat="59.0140805585" lon="11.5183999936">
		<tag k="alt_name" v="Stensrød vestre" />
		<tag k="name" v="Vestre Stensrød" />
		<tag k="place" v="farm" />
		<tag k="ssr:stedsnr" v="779669" />
	</node>
	<node id="-1539" lat="59.134049996" lon="11.2817499914">
		<tag k="name" v="Svingen" />
		<tag k="place" v="isolated_dwelling" />
		<tag k="ssr:stedsnr" v="62766" />
	</node>
	<node id="-1040" lat="59.1623999961" lon="11.2783499945">
		<tag k="name" v="Husebykasa" />
		<tag k="place" v="farm" />
		<tag k="ssr:stedsnr" v="306790" />
	</node>
	<node id="-1039" lat="59.1450885027" lon="11.4571986115">
		<tag k="name" v="Nordby" />
		<tag k="place" v="farm" />
		<tag k="ssr:stedsnr" v="306775" />
	</node>
	<node id="-1038" lat="59.1542000045" lon="11.4352000004">
		<tag k="name" v="Holmen" />
		<tag k="place" v="farm" />
		<tag k="ssr:stedsnr" v="306771" />
	</node>
	<node id="-1037" lat="59.1440580578" lon="11.3428950669">
		<tag k="alt_name" v="Hjørnegård" />
		<tag k="name" v="Jørnegård" />
		<tag k="place" v="farm" />
		<tag k="ssr:stedsnr" v="306754" />
	</node>
	<node id="-1032" lat="59.1731999971" lon="11.2731749929">
		<tag k="alt_name" v="Myra vestre;Myra" />
		<tag k="name" v="Vestre Myra" />
		<tag k="place" v="farm" />
		<tag k="ssr:stedsnr" v="305947" />
	</node>
	<node id="-1031" lat="59.2063472236" lon="11.3291833326">
		<tag k="alt_name" v="Ulset, nordre;Ulset nordre" />
		<tag k="name" v="Nordre Ulset" />
		<tag k="place" v="farm" />
		<tag k="ssr:stedsnr" v="305885" />
	</node>
	<node id="-1030" lat="59.1248250005" lon="11.3222500054">
		<tag k="name" v="Lundestad" />
		<tag k="place" v="farm" />
		<tag k="ssr:stedsnr" v="305874" />
	</node>
	<node id="-921" lat="59.0825694443" lon="11.5267027764">
		<tag k="name" v="Haugliplass" />
		<tag k="place" v="isolated_dwelling" />
		<tag k="ssr:stedsnr" v="293643" />
	</node>
	<node id="-1028" lat="59.113005552" lon="11.4405750019">
		<tag k="name" v="Måstad" />
		<tag k="place" v="isolated_dwelling" />
		<tag k="ssr:stedsnr" v="305857" />
	</node>
	<node id="-3074" lat="59.0382722233" lon="11.4693722256">
		<tag k="name" v="Bjerklund" />
		<tag k="place" v="farm" />
		<tag k="ssr:stedsnr" v="778691" />
	</node>
	<node id="-1023" lat="59.0947277777" lon="11.4281999925">
		<tag k="name" v="Berger" />
		<tag k="place" v="farm" />
		<tag k="ssr:stedsnr" v="305820" />
	</node>
	<node id="-1022" lat="58.9942999999" lon="11.6844861188">
		<tag k="fixme" v="consider place=hamlet" />
		<tag k="name" v="Hallerød" />
		<tag k="place" v="farm" />
		<tag k="ssr:stedsnr" v="305798" />
	</node>
	<node id="-3068" lat="59.1103638924" lon="11.4416666725">
		<tag k="name" v="Holmen" />
		<tag k="place" v="farm" />
		<tag k="ssr:stedsnr" v="751786" />
	</node>
	<node id="-3067" lat="59.0391444442" lon="11.4638555497">
		<tag k="name" v="Granholt" />
		<tag k="place" v="isolated_dwelling" />
		<tag k="ssr:stedsnr" v="751771" />
	</node>
	<node id="-3066" lat="59.2503666636" lon="11.3680222267">
		<tag k="name" v="Nøsterødkasa" />
		<tag k="place" v="farm" />
		<tag k="ssr:stedsnr" v="751150" />
	</node>
	<node id="-3065" lat="59.2211305591" lon="11.4774305611">
		<tag k="alt_name" v="Østeby nordre" />
		<tag k="name" v="Nordre Østeby" />
		<tag k="place" v="farm" />
		<tag k="ssr:stedsnr" v="750842" />
	</node>
	<node id="-3063" lat="59.1462222181" lon="11.4226000011">
		<tag k="name" v="Skjønnerød" />
		<tag k="place" v="farm" />
		<tag k="ssr:stedsnr" v="750792" />
	</node>
	<node id="-3061" lat="59.0913194484" lon="11.4313444492">
		<tag k="name" v="Karlsholm" />
		<tag k="place" v="isolated_dwelling" />
		<tag k="ssr:stedsnr" v="750777" />
	</node>
	<node id="-3060" lat="59.0874694458" lon="11.3920027743">
		<tag k="name" v="Kjellermoen" />
		<tag k="place" v="isolated_dwelling" />
		<tag k="ssr:stedsnr" v="750766" />
	</node>
	<node id="-1010" lat="59.1495222248" lon="11.6240361107">
		<tag k="name" v="Lillemørk" />
		<tag k="place" v="farm" />
		<tag k="ssr:stedsnr" v="305296" />
	</node>
	<node id="-3056" lat="59.0666777797" lon="11.4487527782">
		<tag k="historic" v="shieling" />
		<tag k="name" v="Snekketorpkasa" />
		<tag k="place" v="locality" />
		<tag k="ssr:stedsnr" v="750188" />
	</node>
	<node id="-3055" lat="59.1800000011" lon="11.5290499967">
		<tag k="alt_name" v="Gjesteby søndre" />
		<tag k="name" v="Søndre Gjesteby" />
		<tag k="place" v="farm" />
		<tag k="ssr:stedsnr" v="750178" />
	</node>
	<node id="-3054" lat="59.1413972259" lon="11.3424083298">
		<tag k="name" v="Svalsgård" />
		<tag k="place" v="isolated_dwelling" />
		<tag k="ssr:stedsnr" v="750172" />
	</node>
	<node id="-3053" lat="59.1224500038" lon="11.3738666706">
		<tag k="leisure" v="pitch" />
		<tag k="name" v="Halden stadion" />
		<tag k="ssr:stedsnr" v="750161" />
	</node>
	<node id="-3052" lat="59.1819416636" lon="11.360644444">
		<tag k="name" v="Liborg" />
		<tag k="place" v="farm" />
		<tag k="ssr:stedsnr" v="750152" />
	</node>
	<node id="-1002" lat="59.0926583324" lon="11.2298083339">
		<tag k="alt_name" v="Sponviken" />
		<tag k="name" v="Sponvika" />
		<tag k="place" v="village" />
		<tag k="ssr:stedsnr" v="305201" />
	</node>
	<node id="-1261" lat="59.0174500037" lon="11.5668555596">
		<tag k="name" v="Hakelund" />
		<tag k="place" v="farm" />
		<tag k="ssr:stedsnr" v="245321" />
	</node>
	<node id="-999" lat="59.2077111121" lon="11.4922833353">
		<tag k="name" v="Mebjørød" />
		<tag k="place" v="farm" />
		<tag k="ssr:stedsnr" v="305147" />
	</node>
	<node id="-3045" lat="59.1373361109" lon="11.3061361032">
		<tag k="name" v="Søtorphaugen" />
		<tag k="place" v="isolated_dwelling" />
		<tag k="ssr:stedsnr" v="750122" />
	</node>
	<node id="-3043" lat="59.1458611122" lon="11.3753972177">
		<tag k="name" v="Handtaket" />
		<tag k="place" v="farm" />
		<tag k="ssr:stedsnr" v="750117" />
	</node>
	<node id="-3042" lat="59.097777782" lon="11.2572083309">
		<tag k="name" v="Rørbekk" />
		<tag k="place" v="isolated_dwelling" />
		<tag k="ssr:stedsnr" v="750031" />
	</node>
	<node id="-993" lat="59.1510833349" lon="11.5317138938">
		<tag k="name" v="Gildre" />
		<tag k="place" v="isolated_dwelling" />
		<tag k="ssr:stedsnr" v="305013" />
	</node>
	<node id="-3040" lat="59.1025138918" lon="11.2604499985">
		<tag k="name" v="Løverdalen" />
		<tag k="place" v="isolated_dwelling" />
		<tag k="ssr:stedsnr" v="750009" />
	</node>
	<node id="-991" lat="59.1260250008" lon="11.2852250048">
		<tag k="name" v="Vestgård" />
		<tag k="place" v="farm" />
		<tag k="ssr:stedsnr" v="304884" />
	</node>
	<node id="-990" lat="59.1118916704" lon="11.3048916726">
		<tag k="name" v="Bekkeli" />
		<tag k="place" v="isolated_dwelling" />
		<tag k="ssr:stedsnr" v="304845" />
	</node>
	<node id="-989" lat="58.9916888905" lon="11.5368222166">
		<tag k="fixme" v="consider place=suburb, village or hamlet" />
		<tag k="name" v="Prestebakke" />
		<tag k="place" v="quarter" />
		<tag k="ssr:stedsnr" v="304802" />
	</node>
	<node id="-3036" lat="59.0135055535" lon="11.4647472304">
		<tag k="alt_name" v="Knegterød nordre" />
		<tag k="name" v="Nordre Knegterød" />
		<tag k="place" v="farm" />
		<tag k="ssr:stedsnr" v="750205" />
	</node>
	<node id="-987" lat="58.9940333338" lon="11.5583749963">
		<tag k="alt_name" v="Bekmoen" />
		<tag k="name" v="Bekemoen" />
		<tag k="place" v="isolated_dwelling" />
		<tag k="ssr:stedsnr" v="304801" />
	</node>
	<node id="-3034" lat="59.1434250032" lon="11.437725003">
		<tag k="name" v="Bjørnebakk" />
		<tag k="place" v="farm" />
		<tag k="ssr:stedsnr" v="731765" />
	</node>
	<node id="-3033" lat="59.146082994" lon="11.3831538051">
		<tag k="name" v="Frydenlund" />
		<tag k="place" v="farm" />
		<tag k="ssr:stedsnr" v="731762" />
	</node>
	<node id="-3032" lat="59.1395250003" lon="11.3705000006">
		<tag k="name" v="Strupe" />
		<tag k="place" v="farm" />
		<tag k="ssr:stedsnr" v="731755" />
	</node>
	<node id="-983" lat="59.0806138885" lon="11.5758333389">
		<tag k="name" v="Hafsrød" />
		<tag k="place" v="farm" />
		<tag k="ssr:stedsnr" v="304470" />
	</node>
	<node id="-3029" lat="59.1694500009" lon="11.3491027806">
		<tag k="name" v="Sørbrøden" />
		<tag k="place" v="farm" />
		<tag k="ssr:stedsnr" v="730954" />
	</node>
	<node id="-980" lat="59.0761638848" lon="11.6354500037">
		<tag k="name" v="Taklund" />
		<tag k="place" v="isolated_dwelling" />
		<tag k="ssr:stedsnr" v="304399" />
	</node>
	<node id="-979" lat="59.016913892" lon="11.5176861166">
		<tag k="name" v="Havrekas" />
		<tag k="place" v="farm" />
		<tag k="ssr:stedsnr" v="304332" />
	</node>
	<node id="-3026" lat="59.2184472196" lon="11.3477416703">
		<tag k="name" v="Kynningsrud" />
		<tag k="place" v="farm" />
		<tag k="ssr:stedsnr" v="730912" />
	</node>
	<node id="-3025" lat="59.2017361084" lon="11.3321055608">
		<tag k="alt_name" v="Ulset, søndre;Ulset søndre" />
		<tag k="name" v="Søndre Ulset" />
		<tag k="place" v="farm" />
		<tag k="ssr:stedsnr" v="730895" />
	</node>
	<node id="-3024" lat="59.2139749967" lon="11.4388750051">
		<tag k="alt_name" v="Rydningen" />
		<tag k="name" v="Rønningen" />
		<tag k="place" v="locality" />
		<tag k="ssr:stedsnr" v="730884" />
	</node>
	<node id="-3022" lat="59.1144777796" lon="11.3085138909">
		<tag k="name" v="Isebakke" />
		<tag k="place" v="village" />
		<tag k="ssr:stedsnr" v="730869" />
	</node>
	<node id="-3020" lat="58.9680499966" lon="11.5568638958">
		<tag k="name" v="Doktorsætre" />
		<tag k="place" v="isolated_dwelling" />
		<tag k="ssr:stedsnr" v="730854" />
	</node>
	<node id="-3018" lat="58.9664500042" lon="11.5299555531">
		<tag k="alt_name" v="Langebråten" />
		<tag k="name" v="Langbråten" />
		<tag k="place" v="farm" />
		<tag k="ssr:stedsnr" v="730846" />
	</node>
	<node id="-3017" lat="59.1525000034" lon="11.302449994">
		<tag k="name" v="Tobru" />
		<tag k="place" v="farm" />
		<tag k="ssr:stedsnr" v="730826" />
	</node>
	<node id="-3016" lat="59.152199998" lon="11.2457999918">
		<tag k="alt_name" v="Hjelmungen øvre (nordre)" />
		<tag k="name" v="Hjelmungen" />
		<tag k="place" v="farm" />
		<tag k="ssr:stedsnr" v="730823" />
	</node>
	<node id="-3014" lat="59.0502638884" lon="11.493813883">
		<tag k="alt_name" v="Bredkas" />
		<tag k="name" v="Breidkas" />
		<tag k="place" v="farm" />
		<tag k="ssr:stedsnr" v="730446" />
	</node>
	<node id="-3013" lat="59.0537555561" lon="11.4752583313">
		<tag k="name" v="Holmberg" />
		<tag k="place" v="farm" />
		<tag k="ssr:stedsnr" v="730447" />
	</node>
	<node id="-3011" lat="59.0410444465" lon="11.5986861066">
		<tag k="name" v="Myrkoia" />
		<tag k="place" v="isolated_dwelling" />
		<tag k="ssr:stedsnr" v="730431" />
	</node>
	<node id="-3009" lat="59.0276611092" lon="11.6066388837">
		<tag k="alt_name" v="Gjeddelund" />
		<tag k="name" v="Geddelund" />
		<tag k="place" v="locality" />
		<tag k="ssr:stedsnr" v="730425" />
	</node>
	<node id="-3005" lat="59.0172416681" lon="11.6216166616">
		<tag k="name" v="Svenskegravene" />
		<tag k="place" v="farm" />
		<tag k="ssr:stedsnr" v="730327" />
	</node>
	<node id="-3004" lat="59.0962000018" lon="11.4340249998">
		<tag k="alt_name" v="Ås søndre" />
		<tag k="name" v="Ås" />
		<tag k="place" v="farm" />
		<tag k="ssr:stedsnr" v="730282" />
	</node>
	<node id="-3003" lat="59.0437000021" lon="11.4318749987">
		<tag k="name" v="Sanderød" />
		<tag k="place" v="farm" />
		<tag k="ssr:stedsnr" v="730232" />
	</node>
	<node id="-3002" lat="59.0405999956" lon="11.4417750035">
		<tag k="name" v="Nyhagen" />
		<tag k="place" v="isolated_dwelling" />
		<tag k="ssr:stedsnr" v="730230" />
	</node>
	<node id="-3001" lat="59.0055249964" lon="11.4615027763">
		<tag k="alt_name" v="Klabogen;Klavhaugen" />
		<tag k="name" v="Klabauen" />
		<tag k="place" v="isolated_dwelling" />
		<tag k="ssr:stedsnr" v="730220" />
	</node>
	<node id="-2998" lat="59.0721527759" lon="11.460400001">
		<tag k="name" v="Torsby" />
		<tag k="place" v="isolated_dwelling" />
		<tag k="ssr:stedsnr" v="730212" />
	</node>
	<node id="-2997" lat="59.0862749958" lon="11.4534249965">
		<tag k="name" v="Vevlen" />
		<tag k="place" v="farm" />
		<tag k="ssr:stedsnr" v="730194" />
	</node>
	<node id="-2996" lat="59.0736555532" lon="11.3978833349">
		<tag k="alt_name" v="Kjelvik" />
		<tag k="name" v="Kjellvik" />
		<tag k="place" v="isolated_dwelling" />
		<tag k="ssr:stedsnr" v="730192" />
	</node>
	<node id="-2994" lat="59.2207111125" lon="11.5378527858">
		<tag k="name" v="Ekeli" />
		<tag k="place" v="isolated_dwelling" />
		<tag k="ssr:stedsnr" v="730148" />
	</node>
	<node id="-2993" lat="59.2150416642" lon="11.5518222144">
		<tag k="fixme" v="multiple name tags, choose one and add the other to alt_name" />
		<tag k="name" v="Elverhøy;Krossnes" />
		<tag k="place" v="isolated_dwelling" />
		<tag k="ssr:stedsnr" v="730149" />
	</node>
	<node id="-2991" lat="59.1618611083" lon="11.4750750076">
		<tag k="name" v="Mørk" />
		<tag k="place" v="farm" />
		<tag k="ssr:stedsnr" v="730114" />
	</node>
	<node id="-2988" lat="59.1875999998" lon="11.2745000041">
		<tag k="name" v="Åskasa" />
		<tag k="place" v="locality" />
		<tag k="ssr:stedsnr" v="729988" />
	</node>
	<node id="-2987" lat="59.2230722205" lon="11.3383138809">
		<tag k="name" v="Ødegård" />
		<tag k="place" v="farm" />
		<tag k="ssr:stedsnr" v="729912" />
	</node>
	<node id="-2982" lat="58.9518972201" lon="11.6680250076">
		<tag k="alt_name" v="Bjørnholt" />
		<tag k="name" v="Bjørnholtet" />
		<tag k="place" v="farm" />
		<tag k="ssr:stedsnr" v="729859" />
	</node>
	<node id="-1521" lat="58.8860666663" lon="11.5370611056">
		<tag k="name" v="Saga" />
		<tag k="place" v="farm" />
		<tag k="ssr:stedsnr" v="61240" />
	</node>
	<node id="-932" lat="59.1424722199" lon="11.533111112">
		<tag k="alt_name" v="Ganerød øvre" />
		<tag k="name" v="Øvre Ganerød" />
		<tag k="place" v="farm" />
		<tag k="ssr:stedsnr" v="293685" />
	</node>
	<node id="-931" lat="58.9424000025" lon="11.6259305601">
		<tag k="name" v="Paulsbomoen" />
		<tag k="place" v="farm" />
		<tag k="ssr:stedsnr" v="293681" />
	</node>
	<node id="-2977" lat="58.9976722228" lon="11.6769305531">
		<tag k="name" v="Vestli" />
		<tag k="place" v="farm" />
		<tag k="ssr:stedsnr" v="729790" />
	</node>
	<node id="-2976" lat="59.1316777753" lon="11.2584888944">
		<tag k="alt_name" v="Røsnes søndre" />
		<tag k="name" v="Søndre Røsnes" />
		<tag k="place" v="farm" />
		<tag k="ssr:stedsnr" v="729780" />
	</node>
	<node id="-2975" lat="59.0781555557" lon="11.5198666608">
		<tag k="name" v="Gullund" />
		<tag k="place" v="farm" />
		<tag k="ssr:stedsnr" v="729471" />
	</node>
	<node id="-2974" lat="59.076280557" lon="11.5908999959">
		<tag k="name" v="Nybøle" />
		<tag k="place" v="farm" />
		<tag k="ssr:stedsnr" v="729463" />
	</node>
	<node id="-925" lat="59.2087527815" lon="11.2940111051">
		<tag k="name" v="Oredal" />
		<tag k="place" v="farm" />
		<tag k="ssr:stedsnr" v="293647" />
	</node>
	<node id="-2972" lat="58.8968333361" lon="11.4612694499">
		<tag k="name" v="Årbu" />
		<tag k="place" v="isolated_dwelling" />
		<tag k="ssr:stedsnr" v="729272" />
	</node>
	<node id="-923" lat="58.9143083346" lon="11.5273555601">
		<tag k="alt_name" v="Berg" />
		<tag k="name" v="Lilleberg" />
		<tag k="place" v="farm" />
		<tag k="ssr:stedsnr" v="293645" />
	</node>
	<node id="-922" lat="59.0791500008" lon="11.5965111198">
		<tag k="name" v="Nybølekasa" />
		<tag k="place" v="farm" />
		<tag k="ssr:stedsnr" v="293642" />
	</node>
	<node id="-2969" lat="58.9353500024" lon="11.6477305587">
		<tag k="name" v="Tangen" />
		<tag k="place" v="isolated_dwelling" />
		<tag k="ssr:stedsnr" v="729183" />
	</node>
	<node id="-920" lat="59.1582583328" lon="11.5251444405">
		<tag k="name" v="Øvre Seljevik" />
		<tag k="place" v="farm" />
		<tag k="ssr:stedsnr" v="293641" />
	</node>
	<node id="-2965" lat="58.9193583308" lon="11.511150008">
		<tag k="name" v="Tellesås" />
		<tag k="place" v="farm" />
		<tag k="ssr:stedsnr" v="729158" />
	</node>
	<node id="-2960" lat="58.9045694432" lon="11.4958555507">
		<tag k="alt_name" v="Signebøenmyra" />
		<tag k="name" v="Signebømyra" />
		<tag k="place" v="farm" />
		<tag k="ssr:stedsnr" v="729134" />
	</node>
	<node id="-2959" lat="58.9068194466" lon="11.5613694492">
		<tag k="name" v="Blåmyra" />
		<tag k="place" v="farm" />
		<tag k="ssr:stedsnr" v="729127" />
	</node>
	<node id="-2957" lat="59.1717283958" lon="11.5464747294">
		<tag k="fixme" v="consider place=hamlet" />
		<tag k="name" v="Tue" />
		<tag k="place" v="farm" />
		<tag k="ssr:stedsnr" v="729088" />
	</node>
	<node id="-2956" lat="59.1182388854" lon="11.3153361061">
		<tag k="name" v="Bråten" />
		<tag k="place" v="isolated_dwelling" />
		<tag k="ssr:stedsnr" v="726345" />
	</node>
	<node id="-2953" lat="58.9448055556" lon="11.604241672">
		<tag k="alt_name" v="Paulsbu;Paulsbo" />
		<tag k="fixme" v="consider place=hamlet" />
		<tag k="name" v="Pålsbu" />
		<tag k="old_name" v="Paalsbu" />
		<tag k="place" v="farm" />
		<tag k="ssr:stedsnr" v="724969" />
	</node>
	<node id="-2952" lat="58.9042111135" lon="11.5827250036">
		<tag k="name" v="Borgland" />
		<tag k="place" v="isolated_dwelling" />
		<tag k="ssr:stedsnr" v="723676" />
	</node>
	<node id="-903" lat="59.1242861077" lon="11.3881972136">
		<tag k="leisure" v="park" />
		<tag k="name" v="Busterudparken" />
		<tag k="ssr:stedsnr" v="285836" />
	</node>
	<node id="-1411" lat="59.1437749963" lon="11.353450005">
		<tag k="name" v="Bærengen" />
		<tag k="place" v="farm" />
		<tag k="ssr:stedsnr" v="2761" />
	</node>
	<node id="-1173" lat="59.0936500002" lon="11.4075250021">
		<tag k="name" v="Stumbergkasa" />
		<tag k="place" v="farm" />
		<tag k="ssr:stedsnr" v="365836" />
	</node>
	<node id="-2924" lat="58.8967027744" lon="11.5381694411">
		<tag k="name" v="Grefsrød" />
		<tag k="place" v="farm" />
		<tag k="ssr:stedsnr" v="718668" />
	</node>
	<node id="-2923" lat="59.0142638893" lon="11.5006111047">
		<tag k="name" v="Buer" />
		<tag k="place" v="farm" />
		<tag k="ssr:stedsnr" v="718662" />
	</node>
	<node id="-2922" lat="59.1727249982" lon="11.5953083336">
		<tag k="alt_name" v="Veggesdal søndre" />
		<tag k="name" v="Søndre Veggesdal" />
		<tag k="place" v="farm" />
		<tag k="ssr:stedsnr" v="718655" />
	</node>
	<node id="-2921" lat="59.1478166638" lon="11.5359361078">
		<tag k="alt_name" v="Brekke øvre" />
		<tag k="name" v="Øvre Brekke" />
		<tag k="place" v="farm" />
		<tag k="ssr:stedsnr" v="718636" />
	</node>
	<node id="-1510" lat="59.1038527801" lon="11.2246305516">
		<tag k="name" v="Steinsli" />
		<tag k="place" v="isolated_dwelling" />
		<tag k="ssr:stedsnr" v="57591" />
	</node>
	<node id="-1508" lat="59.0405111107" lon="11.4248138968">
		<tag k="name" v="Holtegrenda" />
		<tag k="place" v="neighbourhood" />
		<tag k="ssr:stedsnr" v="54107" />
	</node>
	<node id="-2897" lat="59.1765361107" lon="11.5012555496">
		<tag k="alt_name" v="Tjærviken søndre" />
		<tag k="name" v="Søndre Tjærviken" />
		<tag k="place" v="farm" />
		<tag k="ssr:stedsnr" v="690872" />
	</node>
	<node id="-2896" lat="59.1629524262" lon="11.4238705398">
		<tag k="name" v="Demma" />
		<tag k="place" v="farm" />
		<tag k="ssr:stedsnr" v="690870" />
	</node>
	<node id="-1165" lat="59.1152500008" lon="11.5033361093">
		<tag k="name" v="Ertehytta" />
		<tag k="place" v="isolated_dwelling" />
		<tag k="ssr:stedsnr" v="365483" />
	</node>
	<node id="-2887" lat="59.0838083292" lon="11.4254583369">
		<tag k="name" v="Torplia" />
		<tag k="place" v="farm" />
		<tag k="ssr:stedsnr" v="690814" />
	</node>
	<node id="-2885" lat="59.1183166685" lon="11.4212611124">
		<tag k="name" v="Olinejordet" />
		<tag k="place" v="locality" />
		<tag k="ssr:stedsnr" v="690793" />
	</node>
	<node id="-2884" lat="59.1007694439" lon="11.4413083302">
		<tag k="name" v="Gimmen" />
		<tag k="place" v="farm" />
		<tag k="ssr:stedsnr" v="690787" />
	</node>
	<node id="-2882" lat="59.0486388876" lon="11.4307527848">
		<tag k="alt_name" v="Lisleng" />
		<tag k="name" v="Lilleng" />
		<tag k="place" v="farm" />
		<tag k="ssr:stedsnr" v="690770" />
	</node>
	<node id="-2881" lat="59.0470277783" lon="11.4450555563">
		<tag k="name" v="Bjerge" />
		<tag k="place" v="farm" />
		<tag k="ssr:stedsnr" v="690768" />
	</node>
	<node id="-2876" lat="59.0692222236" lon="11.471505554">
		<tag k="name" v="Lihagen" />
		<tag k="place" v="farm" />
		<tag k="ssr:stedsnr" v="690255" />
	</node>
	<node id="-2875" lat="59.1961166661" lon="11.3319888811">
		<tag k="name" v="Haugen" />
		<tag k="place" v="farm" />
		<tag k="ssr:stedsnr" v="690225" />
	</node>
	<node id="-2867" lat="59.1518194435" lon="11.3786472189">
		<tag k="name" v="Grønnerød" />
		<tag k="place" v="farm" />
		<tag k="ssr:stedsnr" v="690163" />
	</node>
	<node id="-2866" lat="59.1351416659" lon="11.2471777817">
		<tag k="name" v="Berget" />
		<tag k="place" v="farm" />
		<tag k="ssr:stedsnr" v="690074" />
	</node>
	<node id="-2865" lat="59.1531416638" lon="11.2386333274">
		<tag k="name" v="Hallesby" />
		<tag k="place" v="farm" />
		<tag k="ssr:stedsnr" v="690072" />
	</node>
	<node id="-2862" lat="59.0992805525" lon="11.2702583288">
		<tag k="building" v="civic" />
		<tag k="name" v="Tollstasjon" />
		<tag k="ssr:stedsnr" v="690013" />
	</node>
	<node id="-2861" lat="59.1144249995" lon="11.2361777823">
		<tag k="name" v="Granli" />
		<tag k="place" v="farm" />
		<tag k="ssr:stedsnr" v="690006" />
	</node>
	<node id="-2860" lat="58.9968277755" lon="11.4873944499">
		<tag k="name" v="Sørli" />
		<tag k="place" v="isolated_dwelling" />
		<tag k="ssr:stedsnr" v="689326" />
	</node>
	<node id="-2859" lat="58.9945027811" lon="11.4914666639">
		<tag k="alt_name" v="Folkeset nedre" />
		<tag k="name" v="Nedre Folkeset" />
		<tag k="place" v="farm" />
		<tag k="ssr:stedsnr" v="689327" />
	</node>
	<node id="-1159" lat="59.0570250024" lon="11.4352749981">
		<tag k="alt_name" v="Hovelsrød" />
		<tag k="name" v="Håvelsrød" />
		<tag k="place" v="farm" />
		<tag k="ssr:stedsnr" v="365214" />
	</node>
	<node id="-2856" lat="58.9708166654" lon="11.4857083271">
		<tag k="name" v="Elvebakke" />
		<tag k="place" v="farm" />
		<tag k="ssr:stedsnr" v="689183" />
	</node>
	<node id="-2854" lat="59.2493305575" lon="11.3718166734">
		<tag k="alt_name" v="Tingsby" />
		<tag k="name" v="Tingsbu" />
		<tag k="place" v="farm" />
		<tag k="ssr:stedsnr" v="670923" />
	</node>
	<node id="-2853" lat="59.1564750007" lon="11.3466750077">
		<tag k="alt_name" v="Torp søndre" />
		<tag k="name" v="Torp" />
		<tag k="place" v="farm" />
		<tag k="ssr:stedsnr" v="670789" />
	</node>
	<node id="-2852" lat="59.1567500005" lon="11.3155749918">
		<tag k="alt_name" v="Åsmundsengen" />
		<tag k="name" v="Åsmundsenga" />
		<tag k="place" v="farm" />
		<tag k="ssr:stedsnr" v="670783" />
	</node>
	<node id="-2849" lat="59.122233336" lon="11.5461555499">
		<tag k="name" v="Tangane" />
		<tag k="place" v="isolated_dwelling" />
		<tag k="ssr:stedsnr" v="670053" />
	</node>
	<node id="-2847" lat="59.1778500005" lon="11.3540749985">
		<tag k="name" v="Nordli" />
		<tag k="place" v="farm" />
		<tag k="ssr:stedsnr" v="669964" />
	</node>
	<node id="-3047" lat="59.1124583375" lon="11.2912527788">
		<tag k="name" v="Råskogen" />
		<tag k="place" v="isolated_dwelling" />
		<tag k="ssr:stedsnr" v="750132" />
	</node>
	<node id="-2845" lat="59.2305749955" lon="11.3423527827">
		<tag k="name" v="Mellegård" />
		<tag k="place" v="farm" />
		<tag k="ssr:stedsnr" v="669930" />
	</node>
	<node id="-2844" lat="59.2226999969" lon="11.4271000053">
		<tag k="alt_name" v="Ravndalen" />
		<tag k="name" v="Ramndal" />
		<tag k="place" v="farm" />
		<tag k="ssr:stedsnr" v="669915" />
	</node>
	<node id="-1498" lat="59.0270777768" lon="11.5702388808">
		<tag k="name" v="Tangen" />
		<tag k="place" v="isolated_dwelling" />
		<tag k="ssr:stedsnr" v="51670" />
	</node>
	<node id="-2839" lat="59.0511249992" lon="11.6533555547">
		<tag k="name" v="Hølen" />
		<tag k="place" v="locality" />
		<tag k="ssr:stedsnr" v="669439" />
	</node>
	<node id="-2835" lat="59.0330805543" lon="11.535999995">
		<tag k="name" v="Ellefsrød" />
		<tag k="place" v="isolated_dwelling" />
		<tag k="ssr:stedsnr" v="669412" />
	</node>
	<node id="-2833" lat="59.0576138885" lon="11.5108444501">
		<tag k="alt_name" v="Stumbergsæter" />
		<tag k="name" v="Stumbergsætre" />
		<tag k="place" v="farm" />
		<tag k="ssr:stedsnr" v="669384" />
	</node>
	<node id="-2832" lat="59.0224388898" lon="11.5186277729">
		<tag k="name" v="Tomoen" />
		<tag k="place" v="farm" />
		<tag k="ssr:stedsnr" v="669311" />
	</node>
	<node id="-2831" lat="59.2099249958" lon="11.2977527785">
		<tag k="alt_name" v="Kleven" />
		<tag k="name" v="Kleiva" />
		<tag k="place" v="farm" />
		<tag k="ssr:stedsnr" v="669880" />
	</node>
	<node id="-2830" lat="59.122627778" lon="11.2874777831">
		<tag k="name" v="Helle" />
		<tag k="place" v="farm" />
		<tag k="ssr:stedsnr" v="669858" />
	</node>
	<node id="-2829" lat="59.1198499965" lon="11.3308499929">
		<tag k="alt_name" v="Knivsø barnehjem" />
		<tag k="name" v="Knivsøy" />
		<tag k="place" v="isolated_dwelling" />
		<tag k="ssr:stedsnr" v="669848" />
	</node>
	<node id="-2828" lat="58.9557000021" lon="11.5209416618">
		<tag k="name" v="Rønningen" />
		<tag k="place" v="farm" />
		<tag k="ssr:stedsnr" v="669847" />
	</node>
	<node id="-2826" lat="59.1178500006" lon="11.4453250008">
		<tag k="alt_name" v="Oreid (Orød)" />
		<tag k="name" v="Orød" />
		<tag k="place" v="farm" />
		<tag k="ssr:stedsnr" v="669845" />
	</node>
	<node id="-2824" lat="58.9690583334" lon="11.4881555573">
		<tag k="alt_name" v="Kvernekasene" />
		<tag k="name" v="Kvernekasa" />
		<tag k="place" v="isolated_dwelling" />
		<tag k="ssr:stedsnr" v="669828" />
	</node>
	<node id="-2822" lat="59.1019305539" lon="11.2339361161">
		<tag k="alt_name" v="Svalerødmoen" />
		<tag k="name" v="Moen" />
		<tag k="place" v="isolated_dwelling" />
		<tag k="ssr:stedsnr" v="669823" />
	</node>
	<node id="-3201" lat="59.1157472202" lon="11.3132638934">
		<tag k="name" v="Fagernes" />
		<tag k="place" v="locality" />
		<tag k="ssr:stedsnr" v="811175" />
	</node>
	<node id="-2818" lat="58.9737305529" lon="11.4988305478">
		<tag k="name" v="Engene" />
		<tag k="place" v="isolated_dwelling" />
		<tag k="ssr:stedsnr" v="669806" />
	</node>
	<node id="-2549" lat="58.9232805571" lon="11.5220527697">
		<tag k="name" v="Sollosen" />
		<tag k="place" v="farm" />
		<tag k="ssr:stedsnr" v="596631" />
	</node>
	<node id="-2815" lat="59.0605999996" lon="11.4445277822">
		<tag k="name" v="Fagerholt" />
		<tag k="place" v="farm" />
		<tag k="ssr:stedsnr" v="669183" />
	</node>
	<node id="-2814" lat="59.0827999998" lon="11.3970999997">
		<tag k="name" v="Hov" />
		<tag k="place" v="isolated_dwelling" />
		<tag k="ssr:stedsnr" v="669165" />
	</node>
	<node id="-2812" lat="59.1572249959" lon="11.4723249986">
		<tag k="name" v="Knatterød" />
		<tag k="place" v="isolated_dwelling" />
		<tag k="ssr:stedsnr" v="669112" />
	</node>
	<node id="-2811" lat="59.1709111095" lon="11.4842666598">
		<tag k="name" v="Aspekas" />
		<tag k="place" v="farm" />
		<tag k="ssr:stedsnr" v="669094" />
	</node>
	<node id="-2810" lat="59.1676111073" lon="11.5417944359">
		<tag k="name" v="Kvi" />
		<tag k="place" v="farm" />
		<tag k="ssr:stedsnr" v="669088" />
	</node>
	<node id="-1151" lat="58.9294444462" lon="11.6377388882">
		<tag k="name" v="Lerbekk" />
		<tag k="place" v="isolated_dwelling" />
		<tag k="ssr:stedsnr" v="364199" />
	</node>
	<node id="-2808" lat="59.1817107824" lon="11.5253359479">
		<tag k="fixme" v="consider place=hamlet" />
		<tag k="name" v="Ugjesteby" />
		<tag k="place" v="farm" />
		<tag k="ssr:stedsnr" v="669067" />
	</node>
	<node id="-3540" lat="59.0657833377" lon="11.4348527821">
		<tag k="name" v="Vollebekk" />
		<tag k="place" v="farm" />
		<tag k="ssr:stedsnr" v="932231" />
	</node>
	<node id="-2805" lat="59.1864416671" lon="11.3104250031">
		<tag k="name" v="Mellevoll" />
		<tag k="place" v="farm" />
		<tag k="ssr:stedsnr" v="668976" />
	</node>
	<node id="-2804" lat="59.1901749984" lon="11.3461999963">
		<tag k="name" v="Rokke" />
		<tag k="place" v="farm" />
		<tag k="ssr:stedsnr" v="668973" />
	</node>
	<node id="-2803" lat="58.9397972184" lon="11.5029194477">
		<tag k="name" v="Skibekk" />
		<tag k="place" v="isolated_dwelling" />
		<tag k="ssr:stedsnr" v="668868" />
	</node>
	<node id="-2801" lat="59.103750004" lon="11.2850000056">
		<tag k="alt_name" v="Skotta øvre" />
		<tag k="name" v="Skotta" />
		<tag k="place" v="isolated_dwelling" />
		<tag k="ssr:stedsnr" v="668836" />
	</node>
	<node id="-2800" lat="58.9993416643" lon="11.6249055474">
		<tag k="name" v="Volmerød" />
		<tag k="place" v="farm" />
		<tag k="ssr:stedsnr" v="668797" />
	</node>
	<node id="-2799" lat="59.1394749976" lon="11.2652277771">
		<tag k="alt_name" v="Viksrabben" />
		<tag k="name" v="Vik" />
		<tag k="place" v="farm" />
		<tag k="ssr:stedsnr" v="668789" />
	</node>
	<node id="-2797" lat="59.0894666699" lon="11.4721750079">
		<tag k="name" v="Skuggestad" />
		<tag k="place" v="isolated_dwelling" />
		<tag k="ssr:stedsnr" v="668499" />
	</node>
	<node id="-2821" lat="59.0933750046" lon="11.3941749919">
		<tag k="name" v="Folkvang" />
		<tag k="place" v="isolated_dwelling" />
		<tag k="ssr:stedsnr" v="669819" />
	</node>
	<node id="-2789" lat="58.8996166635" lon="11.542516661">
		<tag k="name" v="Grefsrød" />
		<tag k="place" v="farm" />
		<tag k="ssr:stedsnr" v="668268" />
	</node>
	<node id="-2787" lat="58.8807833341" lon="11.5358250001">
		<tag k="name" v="Holtet" />
		<tag k="place" v="farm" />
		<tag k="ssr:stedsnr" v="668260" />
	</node>
	<node id="-2784" lat="58.9236500017" lon="11.5238250065">
		<tag k="name" v="Solhaugsten" />
		<tag k="place" v="locality" />
		<tag k="ssr:stedsnr" v="668170" />
	</node>
	<node id="-2782" lat="58.922097224" lon="11.5873472218">
		<tag k="name" v="Amundrød" />
		<tag k="place" v="farm" />
		<tag k="ssr:stedsnr" v="668160" />
	</node>
	<node id="-2780" lat="58.91166734" lon="11.522568827">
		<tag k="name" v="Svingen" />
		<tag k="place" v="farm" />
		<tag k="ssr:stedsnr" v="668147" />
	</node>
	<node id="-2772" lat="59.0115499992" lon="11.455450007">
		<tag k="name" v="Byhella" />
		<tag k="place" v="isolated_dwelling" />
		<tag k="ssr:stedsnr" v="669203" />
	</node>
	<node id="-2771" lat="59.0543194426" lon="11.4194388938">
		<tag k="name" v="Ystenes" />
		<tag k="place" v="isolated_dwelling" />
		<tag k="ssr:stedsnr" v="662431" />
	</node>
	<node id="-2770" lat="59.0389555583" lon="11.4286805546">
		<tag k="name" v="Sanderød" />
		<tag k="place" v="isolated_dwelling" />
		<tag k="ssr:stedsnr" v="662077" />
	</node>
	<node id="-3161" lat="59.1331250033" lon="11.2922499934">
		<tag k="name" v="Torpum" />
		<tag k="place" v="farm" />
		<tag k="ssr:stedsnr" v="790785" />
	</node>
	<node id="-1143" lat="59.0972499961" lon="11.3887611085">
		<tag k="name" v="Engevik" />
		<tag k="place" v="isolated_dwelling" />
		<tag k="ssr:stedsnr" v="358448" />
	</node>
	<node id="-2740" lat="59.1841194461" lon="11.5226944499">
		<tag k="name" v="Håkenby" />
		<tag k="place" v="farm" />
		<tag k="ssr:stedsnr" v="657660" />
	</node>
	<node id="-2846" lat="59.1769500007" lon="11.3842027793">
		<tag k="alt_name" v="Anerødmyren" />
		<tag k="name" v="Anerødmyra" />
		<tag k="place" v="farm" />
		<tag k="ssr:stedsnr" v="669957" />
	</node>
	<node id="-2737" lat="58.9835361135" lon="11.6806027836">
		<tag k="name" v="Myra" />
		<tag k="place" v="farm" />
		<tag k="ssr:stedsnr" v="657638" />
	</node>
	<node id="-2736" lat="58.9396694439" lon="11.5247611071">
		<tag k="name" v="Rød" />
		<tag k="place" v="farm" />
		<tag k="ssr:stedsnr" v="657628" />
	</node>
	<node id="-2735" lat="59.1827888875" lon="11.5557888868">
		<tag k="name" v="Blokkemyr" />
		<tag k="place" v="farm" />
		<tag k="ssr:stedsnr" v="657618" />
	</node>
	<node id="-1318" lat="59.0654750016" lon="11.4124611074">
		<tag k="name" v="Sofienberg" />
		<tag k="place" v="isolated_dwelling" />
		<tag k="ssr:stedsnr" v="478091" />
	</node>
	<node id="-2702" lat="59.1377000031" lon="11.4514305608">
		<tag k="amenity" v="school" />
		<tag k="name" v="Asak barneskole" />
		<tag k="ssr:stedsnr" v="629851" />
	</node>
	<node id="-2701" lat="59.126799996" lon="11.4558138915">
		<tag k="name" v="Tillikor" />
		<tag k="place" v="isolated_dwelling" />
		<tag k="ssr:stedsnr" v="629848" />
	</node>
	<node id="-2698" lat="59.1326027789" lon="11.4293305503">
		<tag k="name" v="Bergheim" />
		<tag k="place" v="farm" />
		<tag k="ssr:stedsnr" v="629836" />
	</node>
	<node id="-2697" lat="59.125708332" lon="11.4307500018">
		<tag k="historic" v="shieling" />
		<tag k="name" v="Krapset" />
		<tag k="place" v="locality" />
		<tag k="ssr:stedsnr" v="629832" />
	</node>
	<node id="-2696" lat="59.1326166644" lon="11.4389194361">
		<tag k="name" v="Solheim" />
		<tag k="place" v="farm" />
		<tag k="ssr:stedsnr" v="629828" />
	</node>
	<node id="-2692" lat="59.0820000004" lon="11.4574861047">
		<tag k="name" v="Bjerkeli" />
		<tag k="place" v="farm" />
		<tag k="ssr:stedsnr" v="629795" />
	</node>
	<node id="-2691" lat="59.0770555564" lon="11.4182777743">
		<tag k="name" v="Furuvarp" />
		<tag k="place" v="farm" />
		<tag k="ssr:stedsnr" v="629782" />
	</node>
	<node id="-2689" lat="59.1088805524" lon="11.4441333246">
		<tag k="name" v="Høksdalen" />
		<tag k="place" v="farm" />
		<tag k="ssr:stedsnr" v="629757" />
	</node>
	<node id="-2686" lat="59.0414333316" lon="11.4686944397">
		<tag k="name" v="Løkkeberg" />
		<tag k="place" v="farm" />
		<tag k="ssr:stedsnr" v="629745" />
	</node>
	<node id="-2685" lat="59.0365138853" lon="11.4406444474">
		<tag k="name" v="Fjell" />
		<tag k="place" v="farm" />
		<tag k="ssr:stedsnr" v="629740" />
	</node>
	<node id="-2684" lat="59.0995555522" lon="11.4715166741">
		<tag k="alt_name" v="Myrene søndre" />
		<tag k="name" v="Søndre Myrene" />
		<tag k="place" v="farm" />
		<tag k="ssr:stedsnr" v="629767" />
	</node>
	<node id="-976" lat="59.0012972205" lon="11.5776500072">
		<tag k="alt_name" v="Bråtene" />
		<tag k="name" v="Bråtane" />
		<tag k="place" v="isolated_dwelling" />
		<tag k="ssr:stedsnr" v="304315" />
	</node>
	<node id="-2680" lat="59.1073916688" lon="11.2224527835">
		<tag k="name" v="Vikene" />
		<tag k="place" v="isolated_dwelling" />
		<tag k="ssr:stedsnr" v="629017" />
	</node>
	<node id="-2678" lat="59.0739222192" lon="11.4167722187">
		<tag k="name" v="Furu" />
		<tag k="place" v="farm" />
		<tag k="ssr:stedsnr" v="628219" />
	</node>
	<node id="-2677" lat="59.0592611149" lon="11.4335444422">
		<tag k="name" v="Østgård" />
		<tag k="place" v="farm" />
		<tag k="ssr:stedsnr" v="628218" />
	</node>
	<node id="-2675" lat="59.139963889" lon="11.3807750073">
		<tag k="name" v="Brødløs" />
		<tag k="place" v="suburb" />
		<tag k="ssr:stedsnr" v="628202" />
	</node>
	<node id="-2674" lat="59.1292222239" lon="11.3759916721">
		<tag k="amenity" v="hospital" />
		<tag k="name" v="Halden sykehus" />
		<tag k="ssr:stedsnr" v="628199" />
	</node>
	<node id="-1469" lat="58.8820194442" lon="11.5221861095">
		<tag k="name" v="Kitterød" />
		<tag k="place" v="hamlet" />
		<tag k="ssr:stedsnr" v="50746" />
	</node>
	<node id="-2665" lat="59.1058472248" lon="11.2066833352">
		<tag k="name" v="Klaven" />
		<tag k="place" v="isolated_dwelling" />
		<tag k="ssr:stedsnr" v="615787" />
	</node>
	<node id="-2664" lat="59.1556500033" lon="11.3219250069">
		<tag k="name" v="Huser" />
		<tag k="place" v="farm" />
		<tag k="ssr:stedsnr" v="609771" />
	</node>
	<node id="-2663" lat="59.1539027807" lon="11.3921250048">
		<tag k="alt_name" v="Eikeli;Ekelia" />
		<tag k="name" v="Eikelien" />
		<tag k="place" v="farm" />
		<tag k="ssr:stedsnr" v="609759" />
	</node>
	<node id="-2662" lat="59.145999996" lon="11.375849998">
		<tag k="name" v="Heimli" />
		<tag k="place" v="farm" />
		<tag k="ssr:stedsnr" v="609739" />
	</node>
	<node id="-2661" lat="59.1399527736" lon="11.3177000057">
		<tag k="name" v="Boberg" />
		<tag k="place" v="farm" />
		<tag k="ssr:stedsnr" v="609734" />
	</node>
	<node id="-924" lat="58.976080555" lon="11.5106500021">
		<tag k="name" v="Endehaugen" />
		<tag k="place" v="farm" />
		<tag k="ssr:stedsnr" v="293646" />
	</node>
	<node id="-2654" lat="59.2276722254" lon="11.3507777761">
		<tag k="name" v="Holtet" />
		<tag k="place" v="farm" />
		<tag k="ssr:stedsnr" v="608949" />
	</node>
	<node id="-2653" lat="59.2183361071" lon="11.4365166708">
		<tag k="name" v="Ryggerød" />
		<tag k="place" v="farm" />
		<tag k="ssr:stedsnr" v="608937" />
	</node>
	<node id="-2651" lat="59.2081499981" lon="11.3136249967">
		<tag k="name" v="Søtorpkasa" />
		<tag k="place" v="farm" />
		<tag k="ssr:stedsnr" v="608909" />
	</node>
	<node id="-2649" lat="58.9486861124" lon="11.6180638844">
		<tag k="alt_name" v="Rørtjernkasa" />
		<tag k="name" v="Kasa" />
		<tag k="place" v="isolated_dwelling" />
		<tag k="ssr:stedsnr" v="608889" />
	</node>
	<node id="-2648" lat="59.1195935348" lon="11.362546518">
		<tag k="name" v="Refne" />
		<tag k="place" v="quarter" />
		<tag k="ssr:stedsnr" v="608876" />
	</node>
	<node id="-2647" lat="58.9645361116" lon="11.517619453">
		<tag k="alt_name" v="Barkmoen" />
		<tag k="name" v="Barkemoen" />
		<tag k="place" v="farm" />
		<tag k="ssr:stedsnr" v="608850" />
	</node>
	<node id="-2646" lat="59.1036250028" lon="11.271402783">
		<tag k="name" v="Blåsopp" />
		<tag k="place" v="farm" />
		<tag k="ssr:stedsnr" v="608851" />
	</node>
	<node id="-2645" lat="59.0994999967" lon="11.2311250013">
		<tag k="name" v="Bjørndalen" />
		<tag k="place" v="isolated_dwelling" />
		<tag k="ssr:stedsnr" v="608848" />
	</node>
	<node id="-2644" lat="59.0980916659" lon="11.4175694374">
		<tag k="name" v="Bergerløkka" />
		<tag k="place" v="farm" />
		<tag k="ssr:stedsnr" v="608846" />
	</node>
	<node id="-2643" lat="58.9704000023" lon="11.6731805627">
		<tag k="name" v="Sjøbakken" />
		<tag k="place" v="farm" />
		<tag k="ssr:stedsnr" v="608844" />
	</node>
	<node id="-2642" lat="59.091999997" lon="11.4271750058">
		<tag k="name" v="Stumberg" />
		<tag k="place" v="farm" />
		<tag k="ssr:stedsnr" v="608841" />
	</node>
	<node id="-2641" lat="58.9770972224" lon="11.4694527729">
		<tag k="name" v="Nypeto" />
		<tag k="place" v="farm" />
		<tag k="ssr:stedsnr" v="608830" />
	</node>
	<node id="-2640" lat="58.9856611079" lon="11.4774472281">
		<tag k="name" v="Folkå" />
		<tag k="place" v="isolated_dwelling" />
		<tag k="ssr:stedsnr" v="608827" />
	</node>
	<node id="-2639" lat="58.9839527738" lon="11.5175055557">
		<tag k="name" v="Søtholmen" />
		<tag k="place" v="farm" />
		<tag k="ssr:stedsnr" v="608826" />
	</node>
	<node id="-2637" lat="59.049080556" lon="11.675224999">
		<tag k="name" v="Ørskasene" />
		<tag k="place" v="isolated_dwelling" />
		<tag k="ssr:stedsnr" v="608434" />
	</node>
	<node id="-2634" lat="59.0602694471" lon="11.5053861122">
		<tag k="name" v="Bråten" />
		<tag k="place" v="farm" />
		<tag k="ssr:stedsnr" v="608399" />
	</node>
	<node id="-2633" lat="59.0601416678" lon="11.574349995">
		<tag k="name" v="Nordbakke" />
		<tag k="place" v="farm" />
		<tag k="ssr:stedsnr" v="608389" />
	</node>
	<node id="-2632" lat="59.0191611093" lon="11.6628138823">
		<tag k="name" v="Persholtet" />
		<tag k="place" v="isolated_dwelling" />
		<tag k="ssr:stedsnr" v="608348" />
	</node>
	<node id="-2631" lat="59.0250166658" lon="11.6899138841">
		<tag k="alt_name" v="Hallerødseter" />
		<tag k="historic" v="shieling" />
		<tag k="name" v="Hallerødsætre" />
		<tag k="place" v="locality" />
		<tag k="ssr:stedsnr" v="608343" />
	</node>
	<node id="-2626" lat="59.0422500004" lon="11.4201250004">
		<tag k="alt_name" v="Gulvik" />
		<tag k="name" v="Gullvik" />
		<tag k="old_name" v="Guldvik" />
		<tag k="place" v="farm" />
		<tag k="ssr:stedsnr" v="608220" />
	</node>
	<node id="-2625" lat="59.0385027804" lon="11.4629888926">
		<tag k="name" v="Tjernholt" />
		<tag k="place" v="farm" />
		<tag k="ssr:stedsnr" v="608218" />
	</node>
	<node id="-2624" lat="59.0456500036" lon="11.4663000021">
		<tag k="name" v="Sanderødhaugen" />
		<tag k="place" v="farm" />
		<tag k="ssr:stedsnr" v="608214" />
	</node>
	<node id="-2622" lat="59.0713999996" lon="11.4344500065">
		<tag k="alt_name" v="Idd Prestegård" />
		<tag k="name" v="Prestegarden" />
		<tag k="place" v="farm" />
		<tag k="ssr:stedsnr" v="608203" />
	</node>
	<node id="-2621" lat="59.0508749977" lon="11.4494499989">
		<tag k="alt_name" v="Petersburg" />
		<tag k="name" v="Pettersborg" />
		<tag k="place" v="isolated_dwelling" />
		<tag k="ssr:stedsnr" v="608194" />
	</node>
	<node id="-2620" lat="59.2098078336" lon="11.4511935993">
		<tag k="name" v="Lund" />
		<tag k="place" v="farm" />
		<tag k="ssr:stedsnr" v="608195" />
	</node>
	<node id="-2619" lat="59.0764000003" lon="11.4434750024">
		<tag k="name" v="Arheim" />
		<tag k="place" v="isolated_dwelling" />
		<tag k="ssr:stedsnr" v="608180" />
	</node>
	<node id="-2618" lat="59.0810027788" lon="11.4057999982">
		<tag k="name" v="Svarvestolen" />
		<tag k="place" v="isolated_dwelling" />
		<tag k="ssr:stedsnr" v="608176" />
	</node>
	<node id="-2617" lat="59.2260999996" lon="11.4754305603">
		<tag k="name" v="Øfsen" />
		<tag k="place" v="farm" />
		<tag k="ssr:stedsnr" v="608136" />
	</node>
	<node id="-2615" lat="59.1489638917" lon="11.5175694379">
		<tag k="name" v="Nes" />
		<tag k="place" v="farm" />
		<tag k="ssr:stedsnr" v="608013" />
	</node>
	<node id="-2613" lat="59.1921250042" lon="11.417175005">
		<tag k="name" v="Bjørbekkmoen" />
		<tag k="place" v="farm" />
		<tag k="ssr:stedsnr" v="607970" />
	</node>
	<node id="-2610" lat="59.1326500018" lon="11.3168500026">
		<tag k="name" v="Lund" />
		<tag k="place" v="isolated_dwelling" />
		<tag k="ssr:stedsnr" v="607773" />
	</node>
	<node id="-2609" lat="59.133625002" lon="11.3510750023">
		<tag k="alt_name" v="Lille-Edet" />
		<tag k="name" v="Edet" />
		<tag k="place" v="farm" />
		<tag k="ssr:stedsnr" v="607760" />
	</node>
	<node id="-2600" lat="58.9317111154" lon="11.5260222276">
		<tag k="name" v="Lyseto" />
		<tag k="place" v="farm" />
		<tag k="ssr:stedsnr" v="607185" />
	</node>
	<node id="-2599" lat="58.9257722227" lon="11.4922250003">
		<tag k="fixme" v="multiple name tags, choose one and add the other to alt_name" />
		<tag k="name" v="Stenkas;Værmyra" />
		<tag k="place" v="isolated_dwelling" />
		<tag k="ssr:stedsnr" v="607176" />
	</node>
	<node id="-2595" lat="58.9106694407" lon="11.5702333258">
		<tag k="name" v="Saga" />
		<tag k="place" v="farm" />
		<tag k="ssr:stedsnr" v="607154" />
	</node>
	<node id="-2592" lat="59.1745777795" lon="11.5936250037">
		<tag k="name" v="Veggesdal" />
		<tag k="place" v="farm" />
		<tag k="ssr:stedsnr" v="607097" />
	</node>
	<node id="-2590" lat="58.9289527809" lon="11.5260444429">
		<tag k="name" v="Lyseto" />
		<tag k="place" v="farm" />
		<tag k="ssr:stedsnr" v="607043" />
	</node>
	<node id="-2589" lat="59.1867974958" lon="11.5191444708">
		<tag k="alt_name" v="Håkenby søndre" />
		<tag k="name" v="Søndre Håkenby" />
		<tag k="place" v="farm" />
		<tag k="ssr:stedsnr" v="606752" />
	</node>
	<node id="-2587" lat="59.0110388876" lon="11.4582388971">
		<tag k="name" v="Granli" />
		<tag k="place" v="isolated_dwelling" />
		<tag k="ssr:stedsnr" v="604103" />
	</node>
	<node id="-2586" lat="58.9513016209" lon="11.5214583357">
		<tag k="fixme" v="consider place=hamlet" />
		<tag k="name" v="Svenningsbøen" />
		<tag k="place" v="farm" />
		<tag k="ssr:stedsnr" v="601159" />
	</node>
	<node id="-2585" lat="58.9458406606" lon="11.5248101809">
		<tag k="alt_name" v="Bakkane;Søndre Svenningsbøen" />
		<tag k="fixme" v="multiple name tags, choose one and add the other to alt_name" />
		<tag k="name" v="Svenningsbøen;Bakkene" />
		<tag k="place" v="farm" />
		<tag k="ssr:stedsnr" v="601141" />
	</node>
	<node id="-2584" lat="59.016205554" lon="11.449672216">
		<tag k="name" v="Årbakke" />
		<tag k="place" v="hamlet" />
		<tag k="ssr:stedsnr" v="601054" />
	</node>
	<node id="-1113" lat="59.0383166707" lon="11.5820972181">
		<tag k="name" v="Furulund" />
		<tag k="place" v="farm" />
		<tag k="ssr:stedsnr" v="354712" />
	</node>
	<node id="-1112" lat="59.1737472221" lon="11.5344972268">
		<tag k="name" v="Nythe" />
		<tag k="place" v="farm" />
		<tag k="ssr:stedsnr" v="354708" />
	</node>
	<node id="-2570" lat="58.9067305582" lon="11.4933361056">
		<tag k="name" v="Vestli" />
		<tag k="place" v="isolated_dwelling" />
		<tag k="ssr:stedsnr" v="596913" />
	</node>
	<node id="-1111" lat="58.8793555571" lon="11.5274583266">
		<tag k="name" v="Granlund" />
		<tag k="place" v="farm" />
		<tag k="ssr:stedsnr" v="354694" />
	</node>
	<node id="-1452" lat="59.1221861118" lon="11.4701555638">
		<tag k="name" v="Sørli" />
		<tag k="place" v="farm" />
		<tag k="ssr:stedsnr" v="22833" />
	</node>
	<node id="-2565" lat="59.0067194411" lon="11.5258388848">
		<tag k="loc_name" v="Høyli" />
		<tag k="name" v="Høili" />
		<tag k="place" v="farm" />
		<tag k="ssr:stedsnr" v="596896" />
	</node>
	<node id="-1109" lat="59.0162805572" lon="11.5701138846">
		<tag k="name" v="Hakelund" />
		<tag k="place" v="farm" />
		<tag k="ssr:stedsnr" v="354681" />
	</node>
	<node id="-2553" lat="59.1465611089" lon="11.538499995">
		<tag k="name" v="Brekke" />
		<tag k="place" v="farm" />
		<tag k="ssr:stedsnr" v="596655" />
	</node>
	<node id="-2552" lat="58.8829111087" lon="11.5221305473">
		<tag k="name" v="Hauen" />
		<tag k="place" v="farm" />
		<tag k="ssr:stedsnr" v="596653" />
	</node>
	<node id="-2551" lat="58.9919138928" lon="11.6881666745">
		<tag k="name" v="Elvestad" />
		<tag k="place" v="farm" />
		<tag k="ssr:stedsnr" v="596647" />
	</node>
	<node id="-2550" lat="59.0158250017" lon="11.5072055495">
		<tag k="name" v="Buerbakken" />
		<tag k="place" v="farm" />
		<tag k="ssr:stedsnr" v="596638" />
	</node>
	<node id="-1449" lat="59.0884361096" lon="11.4285472282">
		<tag k="alt_name" v="Hov østre" />
		<tag k="name" v="Østre Hov" />
		<tag k="place" v="farm" />
		<tag k="ssr:stedsnr" v="22790" />
	</node>
	<node id="-2548" lat="59.0599250026" lon="11.5838416727">
		<tag k="name" v="Torgalsbøenlia" />
		<tag k="place" v="farm" />
		<tag k="ssr:stedsnr" v="596625" />
	</node>
	<node id="-2545" lat="58.9505249978" lon="11.5241972295">
		<tag k="name" v="Småkasene" />
		<tag k="place" v="farm" />
		<tag k="ssr:stedsnr" v="596610" />
	</node>
	<node id="-2544" lat="59.1716000032" lon="11.5459583301">
		<tag k="name" v="Tue" />
		<tag k="place" v="farm" />
		<tag k="ssr:stedsnr" v="596597" />
	</node>
	<node id="-1447" lat="59.0114194456" lon="11.459419453">
		<tag k="name" v="Lindkroken" />
		<tag k="place" v="isolated_dwelling" />
		<tag k="ssr:stedsnr" v="22222" />
	</node>
	<node id="-2520" lat="59.11530556" lon="11.4496222264">
		<tag k="name" v="Bjørnholt" />
		<tag k="place" v="farm" />
		<tag k="ssr:stedsnr" v="569735" />
	</node>
	<node id="-2518" lat="59.207472225" lon="11.4777416712">
		<tag k="name" v="Mebøkasa" />
		<tag k="place" v="farm" />
		<tag k="ssr:stedsnr" v="568857" />
	</node>
	<node id="-2517" lat="59.2272805566" lon="11.4751833264">
		<tag k="name" v="Østerbo" />
		<tag k="place" v="farm" />
		<tag k="ssr:stedsnr" v="568854" />
	</node>
	<node id="-2514" lat="59.1226833366" lon="11.4523500082">
		<tag k="name" v="Flateby" />
		<tag k="place" v="farm" />
		<tag k="ssr:stedsnr" v="568821" />
	</node>
	<node id="-2513" lat="59.126461114" lon="11.404150008">
		<tag k="name" v="Kaken" />
		<tag k="place" v="quarter" />
		<tag k="ssr:stedsnr" v="568818" />
	</node>
	<node id="-2512" lat="59.1446944448" lon="11.4197361064">
		<tag k="name" v="Løvås" />
		<tag k="place" v="isolated_dwelling" />
		<tag k="ssr:stedsnr" v="568803" />
	</node>
	<node id="-2511" lat="59.0784749958" lon="11.4616833415">
		<tag k="name" v="Bøklevene" />
		<tag k="place" v="farm" />
		<tag k="ssr:stedsnr" v="568793" />
	</node>
	<node id="-2510" lat="59.0920388926" lon="11.4226694448">
		<tag k="name" v="Eker" />
		<tag k="place" v="farm" />
		<tag k="ssr:stedsnr" v="568782" />
	</node>
	<node id="-2508" lat="59.0823083344" lon="11.3930944428">
		<tag k="name" v="Grønnebakke" />
		<tag k="place" v="farm" />
		<tag k="ssr:stedsnr" v="568778" />
	</node>
	<node id="-2507" lat="59.0987499994" lon="11.454349994">
		<tag k="alt_name" v="Klepper søndre" />
		<tag k="name" v="Søndre Klepper" />
		<tag k="place" v="farm" />
		<tag k="ssr:stedsnr" v="568764" />
	</node>
	<node id="-2506" lat="59.0463083362" lon="11.4436416673">
		<tag k="name" v="Skottene" />
		<tag k="place" v="farm" />
		<tag k="ssr:stedsnr" v="568743" />
	</node>
	<node id="-2505" lat="59.0550972213" lon="11.4873555587">
		<tag k="name" v="Bråtekas" />
		<tag k="place" v="isolated_dwelling" />
		<tag k="ssr:stedsnr" v="568741" />
	</node>
	<node id="-2502" lat="59.1245333372" lon="11.2983111134">
		<tag k="amenity" v="school" />
		<tag k="name" v="Berg skole" />
		<tag k="ssr:stedsnr" v="568218" />
	</node>
	<node id="-2501" lat="59.1202611106" lon="11.3576666752">
		<tag k="alt_name" v="Remmen nedre;Remmen" />
		<tag k="name" v="Nedre Remmen" />
		<tag k="place" v="farm" />
		<tag k="ssr:stedsnr" v="568208" />
	</node>
	<node id="-2499" lat="59.0310138904" lon="11.4357888863">
		<tag k="name" v="Rødhella" />
		<tag k="place" v="isolated_dwelling" />
		<tag k="ssr:stedsnr" v="568190" />
	</node>
	<node id="-2495" lat="59.1480083365" lon="11.3527638919">
		<tag k="name" v="Torehaugen" />
		<tag k="place" v="isolated_dwelling" />
		<tag k="ssr:stedsnr" v="568157" />
	</node>
	<node id="-2494" lat="59.1313583335" lon="11.2557499961">
		<tag k="name" v="Solheim" />
		<tag k="place" v="isolated_dwelling" />
		<tag k="ssr:stedsnr" v="568064" />
	</node>
	<node id="-2491" lat="59.0980972255" lon="11.2663249948">
		<tag k="name" v="Svinesund" />
		<tag k="place" v="isolated_dwelling" />
		<tag k="ssr:stedsnr" v="568045" />
	</node>
	<node id="-2490" lat="59.1011277797" lon="11.2267916717">
		<tag k="name" v="Fagerli" />
		<tag k="place" v="isolated_dwelling" />
		<tag k="ssr:stedsnr" v="568008" />
	</node>
	<node id="-2489" lat="59.1103166652" lon="11.2253583371">
		<tag k="name" v="Knekasa" />
		<tag k="place" v="locality" />
		<tag k="ssr:stedsnr" v="568007" />
	</node>
	<node id="-3181" lat="59.0949833349" lon="11.5870555528">
		<tag k="name" v="Hafsrødkasa" />
		<tag k="place" v="isolated_dwelling" />
		<tag k="ssr:stedsnr" v="791482" />
	</node>
	<node id="-2485" lat="58.9984416644" lon="11.4681194445">
		<tag k="name" v="Brekka" />
		<tag k="place" v="isolated_dwelling" />
		<tag k="ssr:stedsnr" v="567306" />
	</node>
	<node id="-2482" lat="59.2522916676" lon="11.4694916666">
		<tag k="alt_name" v="Glomsrød" />
		<tag k="name" v="Nordre Glomsrød" />
		<tag k="place" v="farm" />
		<tag k="ssr:stedsnr" v="549729" />
	</node>
	<node id="-2481" lat="59.2063499966" lon="11.4405749992">
		<tag k="name" v="Kjølen" />
		<tag k="place" v="farm" />
		<tag k="ssr:stedsnr" v="548991" />
	</node>
	<node id="-2480" lat="59.207299999" lon="11.4430249956">
		<tag k="name" v="Kjølødegården" />
		<tag k="place" v="farm" />
		<tag k="ssr:stedsnr" v="548989" />
	</node>
	<node id="-2479" lat="59.1705444449" lon="11.3331861131">
		<tag k="name" v="Lindemørken" />
		<tag k="place" v="farm" />
		<tag k="ssr:stedsnr" v="548957" />
	</node>
	<node id="-2478" lat="59.1728249963" lon="11.374902786">
		<tag k="name" v="Helgerød" />
		<tag k="place" v="farm" />
		<tag k="ssr:stedsnr" v="548943" />
	</node>
	<node id="-2477" lat="59.1690027779" lon="11.251138897">
		<tag k="alt_name" v="Steinklopp" />
		<tag k="name" v="Stenklopp" />
		<tag k="place" v="farm" />
		<tag k="ssr:stedsnr" v="548932" />
	</node>
	<node id="-2476" lat="59.1254833346" lon="11.4601472211">
		<tag k="alt_name" v="Store Bjørnstad" />
		<tag k="name" v="Bjørnestad" />
		<tag k="place" v="farm" />
		<tag k="ssr:stedsnr" v="548853" />
	</node>
	<node id="-2475" lat="58.9509722216" lon="11.5215527724">
		<tag k="alt_name" v="Svenningsbøen" />
		<tag k="name" v="Svenningsbø" />
		<tag k="place" v="farm" />
		<tag k="ssr:stedsnr" v="548846" />
	</node>
	<node id="-2473" lat="58.9581888878" lon="11.5906416654">
		<tag k="name" v="Sætre" />
		<tag k="place" v="farm" />
		<tag k="ssr:stedsnr" v="548838" />
	</node>
	<node id="-2472" lat="58.9563583307" lon="11.5148333269">
		<tag k="name" v="Bøen" />
		<tag k="place" v="farm" />
		<tag k="ssr:stedsnr" v="548832" />
	</node>
	<node id="-2471" lat="59.1626500021" lon="11.357227779">
		<tag k="name" v="Bislingen" />
		<tag k="place" v="farm" />
		<tag k="ssr:stedsnr" v="548800" />
	</node>
	<node id="-2470" lat="59.1419750011" lon="11.2934749961">
		<tag k="name" v="Flingtorp" />
		<tag k="place" v="farm" />
		<tag k="ssr:stedsnr" v="548777" />
	</node>
	<node id="-2460" lat="59.0259000023" lon="11.4453222273">
		<tag k="name" v="Liholt" />
		<tag k="place" v="isolated_dwelling" />
		<tag k="ssr:stedsnr" v="548230" />
	</node>
	<node id="-2458" lat="59.1524666645" lon="11.619186116">
		<tag k="name" v="Lillemørk" />
		<tag k="place" v="farm" />
		<tag k="ssr:stedsnr" v="548113" />
	</node>
	<node id="-2456" lat="59.1615277808" lon="11.5863777745">
		<tag k="alt_name" v="Harelund" />
		<tag k="name" v="Haralund" />
		<tag k="place" v="farm" />
		<tag k="ssr:stedsnr" v="548095" />
	</node>
	<node id="-2453" lat="59.1445166641" lon="11.5356222293">
		<tag k="alt_name" v="Ganerød nedre" />
		<tag k="name" v="Ganerød" />
		<tag k="place" v="farm" />
		<tag k="ssr:stedsnr" v="548022" />
	</node>
	<node id="-2451" lat="59.219994447" lon="11.3301666732">
		<tag k="name" v="Bergsland" />
		<tag k="place" v="farm" />
		<tag k="ssr:stedsnr" v="547934" />
	</node>
	<node id="-2450" lat="59.2310250034" lon="11.4646249959">
		<tag k="name" v="Rønnås" />
		<tag k="place" v="farm" />
		<tag k="ssr:stedsnr" v="547924" />
	</node>
	<node id="-2448" lat="59.1097250014" lon="11.2294249917">
		<tag k="name" v="Svalerød" />
		<tag k="place" v="farm" />
		<tag k="ssr:stedsnr" v="547865" />
	</node>
	<node id="-2446" lat="59.1010999978" lon="11.4020388969">
		<tag k="alt_name" v="Lundsholt" />
		<tag k="name" v="Lundsholtet" />
		<tag k="place" v="farm" />
		<tag k="ssr:stedsnr" v="547856" />
	</node>
	<node id="-2445" lat="58.96266111" lon="11.6147194429">
		<tag k="alt_name" v="Lysekasa" />
		<tag k="name" v="Lysekas" />
		<tag k="place" v="farm" />
		<tag k="ssr:stedsnr" v="547848" />
	</node>
	<node id="-2443" lat="59.0968000031" lon="11.3890777838">
		<tag k="name" v="Solheim" />
		<tag k="place" v="isolated_dwelling" />
		<tag k="ssr:stedsnr" v="547838" />
	</node>
	<node id="-968" lat="59.2329083324" lon="11.4821499969">
		<tag k="name" v="Bunes" />
		<tag k="place" v="farm" />
		<tag k="ssr:stedsnr" v="304117" />
	</node>
	<node id="-2439" lat="58.9763861152" lon="11.5065583327">
		<tag k="name" v="Ende" />
		<tag k="place" v="isolated_dwelling" />
		<tag k="ssr:stedsnr" v="547832" />
	</node>
	<node id="-2436" lat="59.1378000006" lon="11.2511499932">
		<tag k="name" v="Kil" />
		<tag k="place" v="farm" />
		<tag k="ssr:stedsnr" v="547795" />
	</node>
	<node id="-2809" lat="59.1730685128" lon="11.5426462334">
		<tag k="fixme" v="consider place=hamlet" />
		<tag k="name" v="Rød" />
		<tag k="place" v="farm" />
		<tag k="ssr:stedsnr" v="669075" />
	</node>
	<node id="-3477" lat="59.113949997" lon="11.4672499993">
		<tag k="name" v="Hattefjell" />
		<tag k="place" v="farm" />
		<tag k="ssr:stedsnr" v="911837" />
	</node>
	<node id="-2424" lat="58.8813666632" lon="11.5188499933">
		<tag k="name" v="Kitterød" />
		<tag k="place" v="farm" />
		<tag k="ssr:stedsnr" v="547264" />
	</node>
	<node id="-2422" lat="59.2054222179" lon="11.5718249951">
		<tag k="name" v="Dyvelhytta" />
		<tag k="place" v="isolated_dwelling" />
		<tag k="ssr:stedsnr" v="547192" />
	</node>
	<node id="-2420" lat="59.2132388845" lon="11.4935638892">
		<tag k="alt_name" v="Mebjørødmoen søndre" />
		<tag k="name" v="Moen" />
		<tag k="place" v="locality" />
		<tag k="ssr:stedsnr" v="547169" />
	</node>
	<node id="-2414" lat="58.9282388905" lon="11.5004305487">
		<tag k="name" v="Tellesåsengene" />
		<tag k="place" v="isolated_dwelling" />
		<tag k="ssr:stedsnr" v="546166" />
	</node>
	<node id="-2412" lat="58.906019449" lon="11.5299805502">
		<tag k="name" v="Killingrød" />
		<tag k="place" v="farm" />
		<tag k="ssr:stedsnr" v="546144" />
	</node>
	<node id="-1442" lat="59.1238555591" lon="11.308416674">
		<tag k="name" v="Talerød" />
		<tag k="place" v="isolated_dwelling" />
		<tag k="ssr:stedsnr" v="22197" />
	</node>
	<node id="-1424" lat="59.1203388854" lon="11.4585361137">
		<tag k="alt_name" v="Lille Bjørnestad" />
		<tag k="name" v="Lille Bjørnstad" />
		<tag k="place" v="farm" />
		<tag k="ssr:stedsnr" v="2853" />
	</node>
	<node id="-2398" lat="58.9910333345" lon="11.5395416667">
		<tag k="amenity" v="school" />
		<tag k="name" v="Prestebakke skole" />
		<tag k="ssr:stedsnr" v="536912" />
	</node>
	<node id="-1082" lat="59.189952776" lon="11.3392777825">
		<tag k="name" v="Eng" />
		<tag k="place" v="farm" />
		<tag k="ssr:stedsnr" v="326871" />
	</node>
	<node id="-1423" lat="58.945711113" lon="11.6146027794">
		<tag k="alt_name" v="Paulsbu øvre;Øvre Paulsbu;Paulsbo" />
		<tag k="name" v="Øvre Pålsbu" />
		<tag k="place" v="farm" />
		<tag k="ssr:stedsnr" v="2852" />
	</node>
	<node id="-2378" lat="59.0618027785" lon="11.5625416592">
		<tag k="name" v="Siljemoen" />
		<tag k="place" v="farm" />
		<tag k="ssr:stedsnr" v="536693" />
	</node>
	<node id="-2377" lat="59.1795916631" lon="11.5530833324">
		<tag k="alt_name" v="Blokkemyr søndre" />
		<tag k="name" v="Søndre Blokkemyr" />
		<tag k="place" v="farm" />
		<tag k="ssr:stedsnr" v="536692" />
	</node>
	<node id="-2376" lat="58.9816611102" lon="11.6869333343">
		<tag k="name" v="Bokerød" />
		<tag k="place" v="locality" />
		<tag k="ssr:stedsnr" v="536681" />
	</node>
	<node id="-2375" lat="59.015675002" lon="11.5010083353">
		<tag k="name" v="Buer" />
		<tag k="place" v="farm" />
		<tag k="ssr:stedsnr" v="536673" />
	</node>
	<node id="-2374" lat="59.0593055538" lon="11.5130083404">
		<tag k="name" v="Ånerødkasa" />
		<tag k="place" v="farm" />
		<tag k="ssr:stedsnr" v="536661" />
	</node>
	<node id="-2807" lat="59.1901749981" lon="11.5102527727">
		<tag k="name" v="Bø" />
		<tag k="place" v="farm" />
		<tag k="ssr:stedsnr" v="669052" />
	</node>
	<node id="-2371" lat="58.9855388924" lon="11.5131138915">
		<tag k="name" v="Lindemo" />
		<tag k="place" v="farm" />
		<tag k="ssr:stedsnr" v="536653" />
	</node>
	<node id="-2370" lat="58.9733416645" lon="11.5013666647">
		<tag k="name" v="Moberg" />
		<tag k="place" v="farm" />
		<tag k="ssr:stedsnr" v="536649" />
	</node>
	<node id="-2369" lat="58.9945749996" lon="11.5284833308">
		<tag k="name" v="Vestbakke" />
		<tag k="place" v="farm" />
		<tag k="ssr:stedsnr" v="536646" />
	</node>
	<node id="-2368" lat="58.9180472202" lon="11.5084499922">
		<tag k="name" v="Tellesås" />
		<tag k="place" v="farm" />
		<tag k="ssr:stedsnr" v="536637" />
	</node>
	<node id="-1076" lat="59.1088055576" lon="11.451536103">
		<tag k="name" v="Nygård" />
		<tag k="place" v="locality" />
		<tag k="ssr:stedsnr" v="326782" />
	</node>
	<node id="-2346" lat="59.1451746118" lon="11.4566923818">
		<tag k="alt_name" v="Nordby nordre" />
		<tag k="fixme" v="consider place=hamlet" />
		<tag k="name" v="Nordre Nordby" />
		<tag k="place" v="farm" />
		<tag k="ssr:stedsnr" v="508818" />
	</node>
	<node id="-1415" lat="58.9634222253" lon="11.4864611117">
		<tag k="name" v="Berby" />
		<tag k="place" v="farm" />
		<tag k="ssr:stedsnr" v="2818" />
	</node>
	<node id="-2342" lat="59.0544694414" lon="11.4792305604">
		<tag k="name" v="Vårsol" />
		<tag k="place" v="isolated_dwelling" />
		<tag k="ssr:stedsnr" v="508749" />
	</node>
	<node id="-2341" lat="59.0928861154" lon="11.2369777817">
		<tag k="name" v="Mølen" />
		<tag k="place" v="isolated_dwelling" />
		<tag k="ssr:stedsnr" v="508052" />
	</node>
	<node id="-2340" lat="59.0478888858" lon="11.445766668">
		<tag k="name" v="Bjerge" />
		<tag k="place" v="farm" />
		<tag k="ssr:stedsnr" v="507760" />
	</node>
	<node id="-2337" lat="59.1208277751" lon="11.3536333319">
		<tag k="name" v="Ravnberget" />
		<tag k="place" v="farm" />
		<tag k="ssr:stedsnr" v="507196" />
	</node>
	<node id="-2336" lat="59.1877166637" lon="11.3372638922">
		<tag k="name" v="Eng" />
		<tag k="place" v="farm" />
		<tag k="ssr:stedsnr" v="507185" />
	</node>
	<node id="-2335" lat="59.1052527753" lon="11.2877638968">
		<tag k="alt_name" v="Skotta nedre" />
		<tag k="name" v="Nedre Skotta" />
		<tag k="place" v="isolated_dwelling" />
		<tag k="ssr:stedsnr" v="507159" />
	</node>
	<node id="-1413" lat="59.146749997" lon="11.414700006">
		<tag k="name" v="Tosterød" />
		<tag k="place" v="farm" />
		<tag k="ssr:stedsnr" v="2772" />
	</node>
	<node id="-2331" lat="59.1274138919" lon="11.2879416725">
		<tag k="name" v="Vestgårdsaga" />
		<tag k="place" v="farm" />
		<tag k="ssr:stedsnr" v="507146" />
	</node>
	<node id="-2330" lat="58.9759361091" lon="11.4793333337">
		<tag k="name" v="Fiskertangen" />
		<tag k="place" v="locality" />
		<tag k="ssr:stedsnr" v="507143" />
	</node>
	<node id="-2328" lat="59.1358944444" lon="11.2473861112">
		<tag k="name" v="Stubbane" />
		<tag k="place" v="farm" />
		<tag k="ssr:stedsnr" v="507070" />
	</node>
	<node id="-2325" lat="59.1208329258" lon="11.4742223846">
		<tag k="name" v="Lilledal" />
		<tag k="place" v="farm" />
		<tag k="ssr:stedsnr" v="488060" />
	</node>
	<node id="-2323" lat="59.1764000041" lon="11.366925008">
		<tag k="alt_name" v="Harbo" />
		<tag k="name" v="Herrbu" />
		<tag k="place" v="farm" />
		<tag k="ssr:stedsnr" v="487964" />
	</node>
	<node id="-2321" lat="59.1724749976" lon="11.2792249942">
		<tag k="alt_name" v="Myra østre" />
		<tag k="name" v="Østre Myra" />
		<tag k="place" v="farm" />
		<tag k="ssr:stedsnr" v="487942" />
	</node>
	<node id="-2320" lat="59.254174997" lon="11.3454000078">
		<tag k="name" v="Guttersrødkasa" />
		<tag k="place" v="farm" />
		<tag k="ssr:stedsnr" v="487924" />
	</node>
	<node id="-2317" lat="59.2097083334" lon="11.3151333304">
		<tag k="name" v="Torsrød" />
		<tag k="place" v="farm" />
		<tag k="ssr:stedsnr" v="487897" />
	</node>
	<node id="-2316" lat="59.1294250025" lon="11.292500007">
		<tag k="name" v="Fossby" />
		<tag k="place" v="farm" />
		<tag k="ssr:stedsnr" v="487880" />
	</node>
	<node id="-1410" lat="59.1414694432" lon="11.4548250068">
		<tag k="name" v="Asak" />
		<tag k="place" v="farm" />
		<tag k="ssr:stedsnr" v="2756" />
	</node>
	<node id="-2314" lat="58.9462916711" lon="11.6044583284">
		<tag k="alt_name" v="Paulsbu søndre;Søndre Paulsbu;Pålsbu2;Paulsbo" />
		<tag k="name" v="Søndre Pålsbu" />
		<tag k="place" v="farm" />
		<tag k="ssr:stedsnr" v="487872" />
	</node>
	<node id="-2313" lat="59.119377774" lon="11.2813249917">
		<tag k="name" v="Løkkeberg" />
		<tag k="place" v="isolated_dwelling" />
		<tag k="ssr:stedsnr" v="487864" />
	</node>
	<node id="-2311" lat="59.1138750035" lon="11.4115500035">
		<tag k="name" v="Risum" />
		<tag k="place" v="farm" />
		<tag k="ssr:stedsnr" v="487859" />
	</node>
	<node id="-2310" lat="59.1123249994" lon="11.4195749946">
		<tag k="name" v="Sofienlund" />
		<tag k="place" v="farm" />
		<tag k="ssr:stedsnr" v="487860" />
	</node>
	<node id="-2308" lat="58.9699722201" lon="11.6250888925">
		<tag k="name" v="Skjeggerødkasa" />
		<tag k="place" v="isolated_dwelling" />
		<tag k="ssr:stedsnr" v="487839" />
	</node>
	<node id="-2307" lat="58.9672833335" lon="11.5162888838">
		<tag k="alt_name" v="Holtsengen" />
		<tag k="name" v="Holtsenga" />
		<tag k="place" v="farm" />
		<tag k="ssr:stedsnr" v="487834" />
	</node>
	<node id="-2304" lat="58.9760888917" lon="11.6812083338">
		<tag k="name" v="Brudal" />
		<tag k="place" v="isolated_dwelling" />
		<tag k="ssr:stedsnr" v="487825" />
	</node>
	<node id="-2303" lat="59.161172162" lon="11.4296761264">
		<tag k="name" v="Demma" />
		<tag k="place" v="farm" />
		<tag k="ssr:stedsnr" v="487822" />
	</node>
	<node id="-2302" lat="59.1492500038" lon="11.2732527783">
		<tag k="name" v="Huseby" />
		<tag k="place" v="farm" />
		<tag k="ssr:stedsnr" v="487814" />
	</node>
	<node id="-2298" lat="59.0558166625" lon="11.6603333332">
		<tag k="name" v="Hauglund" />
		<tag k="place" v="isolated_dwelling" />
		<tag k="ssr:stedsnr" v="487414" />
	</node>
	<node id="-2297" lat="59.0139666686" lon="11.4982555542">
		<tag k="name" v="Buer" />
		<tag k="place" v="farm" />
		<tag k="ssr:stedsnr" v="487354" />
	</node>
	<node id="-2294" lat="59.1813250044" lon="11.3337000016">
		<tag k="name" v="Lindemørken" />
		<tag k="place" v="farm" />
		<tag k="ssr:stedsnr" v="487286" />
	</node>
	<node id="-2291" lat="59.0682277788" lon="11.439899995">
		<tag k="name" v="Snekketorp" />
		<tag k="place" v="farm" />
		<tag k="ssr:stedsnr" v="487214" />
	</node>
	<node id="-2289" lat="59.0907499985" lon="11.4332250042">
		<tag k="name" v="Ås" />
		<tag k="place" v="farm" />
		<tag k="ssr:stedsnr" v="487196" />
	</node>
	<node id="-1052" lat="59.1539916636" lon="11.3878694381">
		<tag k="name" v="Gøperød" />
		<tag k="place" v="farm" />
		<tag k="ssr:stedsnr" v="325161" />
	</node>
	<node id="-2287" lat="59.2196499977" lon="11.4718083358">
		<tag k="name" v="Østeby" />
		<tag k="place" v="farm" />
		<tag k="ssr:stedsnr" v="487136" />
	</node>
	<node id="-2285" lat="59.1942416635" lon="11.5238083367">
		<tag k="name" v="Holen" />
		<tag k="place" v="farm" />
		<tag k="ssr:stedsnr" v="487057" />
	</node>
	<node id="-2283" lat="59.1935777821" lon="11.3431750084">
		<tag k="name" v="Strand" />
		<tag k="place" v="farm" />
		<tag k="ssr:stedsnr" v="486997" />
	</node>
	<node id="-2281" lat="59.1135249974" lon="11.4552749989">
		<tag k="name" v="Nytorp" />
		<tag k="place" v="farm" />
		<tag k="ssr:stedsnr" v="486846" />
	</node>
	<node id="-2279" lat="59.100524998" lon="11.4465499983">
		<tag k="name" v="Gimmen" />
		<tag k="place" v="hamlet" />
		<tag k="ssr:stedsnr" v="486832" />
	</node>
	<node id="-2278" lat="59.1076749959" lon="11.4311277757">
		<tag k="name" v="Iddebo" />
		<tag k="place" v="isolated_dwelling" />
		<tag k="ssr:stedsnr" v="486830" />
	</node>
	<node id="-2277" lat="59.1045000016" lon="11.4190249961">
		<tag k="name" v="Store Holm" />
		<tag k="place" v="farm" />
		<tag k="ssr:stedsnr" v="486831" />
	</node>
	<node id="-2274" lat="59.0058527739" lon="11.5242083289">
		<tag k="name" v="Stenersrød" />
		<tag k="place" v="isolated_dwelling" />
		<tag k="ssr:stedsnr" v="486352" />
	</node>
	<node id="-2271" lat="58.9325722253" lon="11.4947055633">
		<tag k="alt_name" v="Bjerkemyr" />
		<tag k="name" v="Bjerkemyra" />
		<tag k="place" v="farm" />
		<tag k="ssr:stedsnr" v="486167" />
	</node>
	<node id="-2267" lat="59.233252781" lon="11.5101750032">
		<tag k="name" v="Gruvehytta" />
		<tag k="place" v="isolated_dwelling" />
		<tag k="ssr:stedsnr" v="486129" />
	</node>
	<node id="-2265" lat="58.9163888896" lon="11.5091472143">
		<tag k="name" v="Smedsrød" />
		<tag k="place" v="farm" />
		<tag k="ssr:stedsnr" v="486126" />
	</node>
	<node id="-2262" lat="59.1763138864" lon="11.6022861069">
		<tag k="name" v="Askefoss" />
		<tag k="place" v="farm" />
		<tag k="ssr:stedsnr" v="486081" />
	</node>
	<node id="-2260" lat="59.0981277774" lon="11.2601444453">
		<tag k="name" v="Reveren" />
		<tag k="place" v="isolated_dwelling" />
		<tag k="ssr:stedsnr" v="482881" />
	</node>
	<node id="-2256" lat="59.1301777737" lon="11.3521305532">
		<tag k="amenity" v="university" />
		<tag k="name" v="Høgskolen i Østfold" />
		<tag k="ssr:stedsnr" v="464332" />
	</node>
	<node id="-929" lat="59.031163885" lon="11.5347972283">
		<tag k="name" v="Ellefsrød" />
		<tag k="place" v="farm" />
		<tag k="ssr:stedsnr" v="293665" />
	</node>
	<node id="-2251" lat="59.1264972255" lon="11.4002361068">
		<tag k="alt_name" v="Institutt for atomenergi" />
		<tag k="name" v="Institutt for energiteknikk" />
		<tag k="place" v="quarter" />
		<tag k="ssr:stedsnr" v="447809" />
	</node>
	<node id="-1439" lat="59.1738555581" lon="11.3789166648">
		<tag k="name" v="Rabakken" />
		<tag k="place" v="farm" />
		<tag k="ssr:stedsnr" v="22169" />
	</node>
	<node id="-2246" lat="59.0850861147" lon="11.4547666702">
		<tag k="name" v="Solstad" />
		<tag k="place" v="farm" />
		<tag k="ssr:stedsnr" v="447776" />
	</node>
	<node id="-2245" lat="59.0910527735" lon="11.4218305589">
		<tag k="name" v="Hassellund" />
		<tag k="place" v="farm" />
		<tag k="ssr:stedsnr" v="447766" />
	</node>
	<node id="-2243" lat="59.1187638896" lon="11.4715861162">
		<tag k="name" v="Sandtorp" />
		<tag k="place" v="farm" />
		<tag k="ssr:stedsnr" v="447759" />
	</node>
	<node id="-2240" lat="59.0664388868" lon="11.4441666589">
		<tag k="name" v="Granheim" />
		<tag k="place" v="isolated_dwelling" />
		<tag k="ssr:stedsnr" v="447201" />
	</node>
	<node id="-2239" lat="59.1230055596" lon="11.2850027706">
		<tag k="name" v="Ødegården" />
		<tag k="place" v="farm" />
		<tag k="ssr:stedsnr" v="447189" />
	</node>
	<node id="-2238" lat="59.1282416642" lon="11.3622166669">
		<tag k="name" v="Dikterstubben" />
		<tag k="place" v="isolated_dwelling" />
		<tag k="ssr:stedsnr" v="447176" />
	</node>
	<node id="-2237" lat="59.1908027781" lon="11.3394027763">
		<tag k="amenity" v="school" />
		<tag k="name" v="Rokke skole" />
		<tag k="ssr:stedsnr" v="447166" />
	</node>
	<node id="-2232" lat="59.1179111111" lon="11.2810027774">
		<tag k="name" v="Helleli" />
		<tag k="place" v="isolated_dwelling" />
		<tag k="ssr:stedsnr" v="447152" />
	</node>
	<node id="-2229" lat="59.1159833316" lon="11.2524722302">
		<tag k="name" v="Snøropp" />
		<tag k="place" v="farm" />
		<tag k="ssr:stedsnr" v="447014" />
	</node>
	<node id="-2227" lat="59.1146555581" lon="11.2393805478">
		<tag k="alt_name" v="Kjølerbakken søndre" />
		<tag k="name" v="Søndre Kjølerbakken" />
		<tag k="place" v="farm" />
		<tag k="ssr:stedsnr" v="447005" />
	</node>
	<node id="-2226" lat="59.1018611109" lon="11.2051694424">
		<tag k="name" v="Lier" />
		<tag k="place" v="isolated_dwelling" />
		<tag k="ssr:stedsnr" v="447006" />
	</node>
	<node id="-2225" lat="59.108749997" lon="11.4454055571">
		<tag k="name" v="Kasa" />
		<tag k="place" v="farm" />
		<tag k="ssr:stedsnr" v="448786" />
	</node>
	<node id="-2223" lat="59.1053944469" lon="11.4141722179">
		<tag k="name" v="Rishaugen" />
		<tag k="place" v="farm" />
		<tag k="ssr:stedsnr" v="448778" />
	</node>
	<node id="-2220" lat="59.1820649238" lon="11.5250698169">
		<tag k="alt_name" v="Gjesteby nordre" />
		<tag k="name" v="Nordre Gjesteby" />
		<tag k="place" v="farm" />
		<tag k="ssr:stedsnr" v="446262" />
	</node>
	<node id="-2219" lat="59.1702527746" lon="11.2699749978">
		<tag k="alt_name" v="Skogen" />
		<tag k="name" v="Skog" />
		<tag k="place" v="farm" />
		<tag k="ssr:stedsnr" v="427928" />
	</node>
	<node id="-2215" lat="58.9564138928" lon="11.4865138939">
		<tag k="name" v="Berget" />
		<tag k="place" v="isolated_dwelling" />
		<tag k="ssr:stedsnr" v="427798" />
	</node>
	<node id="-2213" lat="59.1501916698" lon="11.3510388934">
		<tag k="alt_name" v="Haugane" />
		<tag k="name" v="Haugene" />
		<tag k="place" v="farm" />
		<tag k="ssr:stedsnr" v="427763" />
	</node>
	<node id="-2212" lat="59.1555750043" lon="11.3493777696">
		<tag k="name" v="Lisletorp" />
		<tag k="place" v="farm" />
		<tag k="ssr:stedsnr" v="427762" />
	</node>
	<node id="-2211" lat="59.1531000026" lon="11.4174499973">
		<tag k="name" v="Venås" />
		<tag k="place" v="isolated_dwelling" />
		<tag k="ssr:stedsnr" v="427756" />
	</node>
	<node id="-2210" lat="59.1401999972" lon="11.2753277855">
		<tag k="alt_name" v="Vik søndre" />
		<tag k="name" v="Vik" />
		<tag k="place" v="farm" />
		<tag k="ssr:stedsnr" v="427753" />
	</node>
	<node id="-2202" lat="59.1478444435" lon="11.6071194424">
		<tag k="name" v="Krappeto" />
		<tag k="place" v="isolated_dwelling" />
		<tag k="ssr:stedsnr" v="427124" />
	</node>
	<node id="-2200" lat="59.1809587262" lon="11.5152093402">
		<tag k="name" v="Rjør" />
		<tag k="place" v="farm" />
		<tag k="ssr:stedsnr" v="427093" />
	</node>
	<node id="-2197" lat="59.1944000025" lon="11.3157499928">
		<tag k="name" v="Østtorp" />
		<tag k="place" v="farm" />
		<tag k="ssr:stedsnr" v="426999" />
	</node>
	<node id="-2195" lat="59.2348500008" lon="11.461299992">
		<tag k="alt_name" v="Øfsen lille;Øfsen" />
		<tag k="name" v="Lille Øfsen" />
		<tag k="place" v="farm" />
		<tag k="ssr:stedsnr" v="426928" />
	</node>
	<node id="-2192" lat="59.1102249982" lon="11.2739250048">
		<tag k="name" v="Leiren" />
		<tag k="place" v="farm" />
		<tag k="ssr:stedsnr" v="426845" />
	</node>
	<node id="-2191" lat="59.1084249987" lon="11.4634277752">
		<tag k="name" v="Halvgården" />
		<tag k="place" v="isolated_dwelling" />
		<tag k="ssr:stedsnr" v="426836" />
	</node>
	<node id="-2190" lat="58.9699361112" lon="11.5018166731">
		<tag k="name" v="Endekasene" />
		<tag k="place" v="isolated_dwelling" />
		<tag k="ssr:stedsnr" v="426832" />
	</node>
	<node id="-2189" lat="59.1009222266" lon="11.4576694471">
		<tag k="alt_name" v="Klepper nordre" />
		<tag k="name" v="Klepper" />
		<tag k="place" v="farm" />
		<tag k="ssr:stedsnr" v="426829" />
	</node>
	<node id="-2186" lat="58.9829916685" lon="11.5450916593">
		<tag k="name" v="Plassen" />
		<tag k="place" v="farm" />
		<tag k="ssr:stedsnr" v="426802" />
	</node>
	<node id="-2183" lat="59.1346500001" lon="11.2321499997">
		<tag k="alt_name" v="Sjøbubakken" />
		<tag k="name" v="Sjøby" />
		<tag k="place" v="farm" />
		<tag k="ssr:stedsnr" v="426772" />
	</node>
	<node id="-2182" lat="59.1367250024" lon="11.3299722229">
		<tag k="alt_name" v="Berg prestegård" />
		<tag k="name" v="Prestegården" />
		<tag k="place" v="farm" />
		<tag k="ssr:stedsnr" v="426759" />
	</node>
	<node id="-2181" lat="59.2417083335" lon="11.3411166731">
		<tag k="name" v="Guttersrød" />
		<tag k="place" v="farm" />
		<tag k="ssr:stedsnr" v="426574" />
	</node>
	<node id="-2173" lat="58.9737222247" lon="11.5132111103">
		<tag k="name" v="Bøkkerkasa" />
		<tag k="place" v="isolated_dwelling" />
		<tag k="ssr:stedsnr" v="426816" />
	</node>
	<node id="-2171" lat="59.0456611152" lon="11.4231722291">
		<tag k="name" v="Vestli" />
		<tag k="place" v="neighbourhood" />
		<tag k="ssr:stedsnr" v="426230" />
	</node>
	<node id="-2170" lat="59.0651250041" lon="11.4501999973">
		<tag k="name" v="Solbrekke" />
		<tag k="place" v="isolated_dwelling" />
		<tag k="ssr:stedsnr" v="426214" />
	</node>
	<node id="-2169" lat="59.0586999994" lon="11.4458000071">
		<tag k="name" v="Hauglund" />
		<tag k="place" v="farm" />
		<tag k="ssr:stedsnr" v="426207" />
	</node>
	<node id="-2168" lat="59.047677779" lon="11.4499749999">
		<tag k="name" v="Holt" />
		<tag k="place" v="farm" />
		<tag k="ssr:stedsnr" v="426201" />
	</node>
	<node id="-1044" lat="59.1811416691" lon="11.3447472242">
		<tag k="name" v="Rokkegården" />
		<tag k="place" v="isolated_dwelling" />
		<tag k="ssr:stedsnr" v="325203" />
	</node>
	<node id="-2166" lat="59.085449999" lon="11.4438861184">
		<tag k="name" v="Nordby" />
		<tag k="place" v="farm" />
		<tag k="ssr:stedsnr" v="426190" />
	</node>
	<node id="-1043" lat="59.1654694452" lon="11.3283472279">
		<tag k="name" v="Lindemørk-Ødegården" />
		<tag k="place" v="farm" />
		<tag k="ssr:stedsnr" v="325202" />
	</node>
	<node id="-2156" lat="58.9214388871" lon="11.5803472171">
		<tag k="name" v="Bergsplass" />
		<tag k="place" v="farm" />
		<tag k="ssr:stedsnr" v="425166" />
	</node>
	<node id="-1042" lat="59.1052527765" lon="11.2146805619">
		<tag k="alt_name" v="Djupvarp" />
		<tag k="name" v="Djupverp" />
		<tag k="place" v="isolated_dwelling" />
		<tag k="ssr:stedsnr" v="311836" />
	</node>
	<node id="-1383" lat="59.1013527784" lon="11.4733666584">
		<tag k="alt_name" v="Myrane" />
		<tag k="name" v="Myrene" />
		<tag k="place" v="farm" />
		<tag k="ssr:stedsnr" v="1458" />
	</node>
	<node id="-3089" lat="59.0183305527" lon="11.516047229">
		<tag k="name" v="Sørbu" />
		<tag k="place" v="farm" />
		<tag k="ssr:stedsnr" v="779643" />
	</node>
	<node id="-2148" lat="59.0484222246" lon="11.5893416691">
		<tag k="name" v="Limoen" />
		<tag k="place" v="farm" />
		<tag k="ssr:stedsnr" v="415743" />
	</node>
	<node id="-2147" lat="58.8982305571" lon="11.5504361104">
		<tag k="name" v="Sandhaugen" />
		<tag k="place" v="farm" />
		<tag k="ssr:stedsnr" v="415728" />
	</node>
	<node id="-2146" lat="59.017708334" lon="11.5082999954">
		<tag k="name" v="Østli" />
		<tag k="place" v="farm" />
		<tag k="ssr:stedsnr" v="415717" />
	</node>
	<node id="-2143" lat="58.9818277738" lon="11.54853888">
		<tag k="name" v="Orheim" />
		<tag k="place" v="farm" />
		<tag k="ssr:stedsnr" v="415691" />
	</node>
	<node id="-2142" lat="59.1872194407" lon="11.5184749933">
		<tag k="alt_name" v="Håkenby nordre" />
		<tag k="name" v="Nordre Håkenby" />
		<tag k="place" v="farm" />
		<tag k="ssr:stedsnr" v="415685" />
	</node>
	<node id="-928" lat="58.8997750029" lon="11.5368166596">
		<tag k="name" v="Grefsrød" />
		<tag k="place" v="farm" />
		<tag k="ssr:stedsnr" v="293663" />
	</node>
	<node id="-2739" lat="59.1801583295" lon="11.5373694423">
		<tag k="name" v="Hauen" />
		<tag k="place" v="farm" />
		<tag k="ssr:stedsnr" v="657659" />
	</node>
	<node id="-1502" lat="58.8788472235" lon="11.5309805489">
		<tag k="name" v="Snippen" />
		<tag k="place" v="farm" />
		<tag k="ssr:stedsnr" v="51721" />
	</node>
	<node id="-2091" lat="59.1216111144" lon="11.3674277859">
		<tag k="leisure" v="park" />
		<tag k="name" v="Rødsparken" />
		<tag k="ssr:stedsnr" v="480053" />
	</node>
	<node id="-2089" lat="59.1914611141" lon="11.3043111169">
		<tag k="name" v="Ås" />
		<tag k="place" v="farm" />
		<tag k="ssr:stedsnr" v="265883" />
	</node>
	<node id="-2088" lat="59.2194527783" lon="11.4983666644">
		<tag k="alt_name" v="Mebjørødmoen nordre" />
		<tag k="name" v="Nordre Mebjørødmoen" />
		<tag k="place" v="locality" />
		<tag k="ssr:stedsnr" v="265876" />
	</node>
	<node id="-2086" lat="59.2313055517" lon="11.476263889">
		<tag k="name" v="Østerbo" />
		<tag k="place" v="farm" />
		<tag k="ssr:stedsnr" v="265874" />
	</node>
	<node id="-2082" lat="59.1221888894" lon="11.4613138963">
		<tag k="name" v="Lille Bjørnstad" />
		<tag k="place" v="farm" />
		<tag k="ssr:stedsnr" v="265847" />
	</node>
	<node id="-2080" lat="59.0952944455" lon="11.4523583399">
		<tag k="name" v="Solberg" />
		<tag k="place" v="farm" />
		<tag k="ssr:stedsnr" v="265828" />
	</node>
	<node id="-2079" lat="59.095077779" lon="11.400586118">
		<tag k="name" v="Hovli" />
		<tag k="place" v="farm" />
		<tag k="ssr:stedsnr" v="265822" />
	</node>
	<node id="-2075" lat="59.001619447" lon="11.4862805542">
		<tag k="name" v="Brække" />
		<tag k="place" v="farm" />
		<tag k="ssr:stedsnr" v="265247" />
	</node>
	<node id="-2074" lat="59.0685166657" lon="11.4449027764">
		<tag k="name" v="Skogsli" />
		<tag k="place" v="isolated_dwelling" />
		<tag k="ssr:stedsnr" v="265241" />
	</node>
	<node id="-2072" lat="59.0564555558" lon="11.4815472236">
		<tag k="amenity" v="sports_centre" />
		<tag k="name" v="Nyborg" />
		<tag k="ssr:stedsnr" v="265234" />
	</node>
	<node id="-2070" lat="59.1235361143" lon="11.2932777808">
		<tag k="name" v="Bergerhaugen" />
		<tag k="place" v="farm" />
		<tag k="ssr:stedsnr" v="265228" />
	</node>
	<node id="-2068" lat="59.1293305564" lon="11.3527027786">
		<tag k="amenity" v="school" />
		<tag k="name" v="Høgskolen i Østfold" />
		<tag k="old_name" v="Halden lærerskole" />
		<tag k="ssr:stedsnr" v="265210" />
	</node>
	<node id="-2064" lat="59.1488749968" lon="11.3788416752">
		<tag k="name" v="Lerdalen" />
		<tag k="place" v="suburb" />
		<tag k="ssr:stedsnr" v="265167" />
	</node>
	<node id="-2062" lat="59.0973500022" lon="11.2577027788">
		<tag k="amenity" v="nursing_home" />
		<tag k="name" v="Oscar Torp-heimen" />
		<tag k="ssr:stedsnr" v="265039" />
	</node>
	<node id="-2061" lat="59.150063886" lon="11.2559833281">
		<tag k="alt_name" v="Gjellestad mellem" />
		<tag k="name" v="Mellom-Gjellestad" />
		<tag k="place" v="farm" />
		<tag k="ssr:stedsnr" v="265033" />
	</node>
	<node id="-2060" lat="59.1112027793" lon="11.2504416742">
		<tag k="name" v="Granhaug" />
		<tag k="place" v="farm" />
		<tag k="ssr:stedsnr" v="265005" />
	</node>
	<node id="-2059" lat="58.9955194475" lon="11.4906000064">
		<tag k="alt_name" v="Folkeset nedre" />
		<tag k="name" v="Nedre Folkeset" />
		<tag k="place" v="farm" />
		<tag k="ssr:stedsnr" v="264313" />
	</node>
	<node id="-2055" lat="59.1700749995" lon="11.3626750049">
		<tag k="name" v="Herrebrøden" />
		<tag k="place" v="farm" />
		<tag k="ssr:stedsnr" v="245941" />
	</node>
	<node id="-2054" lat="58.9522972251" lon="11.5310388931">
		<tag k="alt_name" v="Stegerød" />
		<tag k="name" v="Steirød" />
		<tag k="place" v="farm" />
		<tag k="ssr:stedsnr" v="245849" />
	</node>
	<node id="-2052" lat="59.1565500007" lon="11.2674249928">
		<tag k="name" v="Nygårdsmoen" />
		<tag k="place" v="farm" />
		<tag k="ssr:stedsnr" v="245780" />
	</node>
	<node id="-2051" lat="59.1414999984" lon="11.4427249931">
		<tag k="name" v="Lauradal" />
		<tag k="place" v="farm" />
		<tag k="ssr:stedsnr" v="245757" />
	</node>
	<node id="-2050" lat="59.1368749989" lon="11.3647027818">
		<tag k="alt_name" v="Karrestad nordre" />
		<tag k="name" v="Karrestad" />
		<tag k="place" v="farm" />
		<tag k="ssr:stedsnr" v="245747" />
	</node>
	<node id="-2049" lat="59.1245972245" lon="11.3873805494">
		<tag k="name" v="Halden" />
		<tag k="place" v="town" />
		<tag k="ssr:stedsnr" v="245734" />
	</node>
</osm>
