<?xml version="1.0" encoding="UTF-8"?>
<osm generator="osmapis" version="0.6">
	<node id="-2047" lat="59.1002333332" lon="11.6733277747">
		<tag k="name" v="Lille Øfsetjern" />
		<tag k="natural" v="water" />
		<tag k="ssr:stedsnr" v="245432" />
	</node>
	<node id="-2044" lat="59.0769055571" lon="11.6559777835">
		<tag k="name" v="Øretjern" />
		<tag k="natural" v="water" />
		<tag k="ssr:stedsnr" v="245273" />
	</node>
	<node id="-2043" lat="59.155594446" lon="11.48523611">
		<tag k="alt_name" v="Kjepina, store" />
		<tag k="name" v="Store Kjepina" />
		<tag k="place" v="islet" />
		<tag k="ssr:stedsnr" v="245118" />
	</node>
	<node id="-2040" lat="59.1206194422" lon="11.6242694407">
		<tag k="name" v="Storemosetjern" />
		<tag k="natural" v="water" />
		<tag k="ssr:stedsnr" v="245050" />
	</node>
	<node id="-2039" lat="59.1348000032" lon="11.4854444412">
		<tag k="name" v="Bjørnstadøyene" />
		<tag k="place" v="islet" />
		<tag k="ssr:stedsnr" v="245020" />
	</node>
	<node id="-2028" lat="58.9815388862" lon="11.6741805636">
		<tag k="name" v="Duetjern" />
		<tag k="natural" v="water" />
		<tag k="ssr:stedsnr" v="244826" />
	</node>
	<node id="-2026" lat="58.9881969866" lon="11.6082855249">
		<tag k="name" v="Langtjern" />
		<tag k="natural" v="water" />
		<tag k="ssr:stedsnr" v="244819" />
	</node>
	<node id="-2024" lat="59.005996736" lon="11.616684195">
		<tag k="alt_name" v="Eljsjøen" />
		<tag k="name" v="Elgsjøen" />
		<tag k="natural" v="water" />
		<tag k="ssr:stedsnr" v="244797" />
		<tag k="water" v="lake" />
	</node>
	<node id="-2022" lat="59.0763397269" lon="11.6288902851">
		<tag k="name" v="Elgetjern" />
		<tag k="natural" v="water" />
		<tag k="ssr:stedsnr" v="244489" />
	</node>
	<node id="-2021" lat="59.0735222248" lon="11.5863833276">
		<tag k="name" v="Nybøletjern" />
		<tag k="natural" v="water" />
		<tag k="ssr:stedsnr" v="244484" />
	</node>
	<node id="-2020" lat="59.1159416691" lon="11.5732083416">
		<tag k="alt_name" v="Høyøa" />
		<tag k="name" v="Høgøya" />
		<tag k="place" v="islet" />
		<tag k="ssr:stedsnr" v="244476" />
	</node>
	<node id="-2017" lat="59.0481916629" lon="11.6832500065">
		<tag k="fixme" v="multiple name tags, choose one and add the other to alt_name" />
		<tag k="name" v="Kasebukta;Kvernbukta" />
		<tag k="natural" v="bay" />
		<tag k="ssr:stedsnr" v="244434" />
	</node>
	<node id="-2013" lat="59.0047932448" lon="11.5630295633">
		<tag k="alt_name" v="Hogsjø" />
		<tag k="name" v="Hokksjøen" />
		<tag k="natural" v="water" />
		<tag k="ssr:stedsnr" v="244319" />
		<tag k="water" v="lake" />
	</node>
	<node id="-2011" lat="59.2474501491" lon="11.5662474399">
		<tag k="alt_name" v="Fyldengørvann" />
		<tag k="name" v="Følingørvann" />
		<tag k="natural" v="water" />
		<tag k="old_name" v="Fyllingsørvatn;Fyllingsørvann" />
		<tag k="ssr:stedsnr" v="244248" />
		<tag k="water" v="lake" />
	</node>
	<node id="-2008" lat="59.1719916692" lon="11.5129805639">
		<tag k="name" v="Rjørneset" />
		<tag k="natural" v="cape" />
		<tag k="ssr:stedsnr" v="244098" />
	</node>
	<node id="-2006" lat="58.9313638849" lon="11.4634666608">
		<tag k="name" v="Damtjern" />
		<tag k="natural" v="water" />
		<tag k="ssr:stedsnr" v="243169" />
	</node>
	<node id="-2004" lat="58.9118722237" lon="11.6012416668">
		<tag k="name" v="Langetjern" />
		<tag k="natural" v="water" />
		<tag k="ssr:stedsnr" v="243139" />
	</node>
	<node id="-2002" lat="58.9020472222" lon="11.4559472244">
		<tag k="name" v="Lomtjern" />
		<tag k="natural" v="water" />
		<tag k="ssr:stedsnr" v="243119" />
	</node>
	<node id="-1994" lat="59.0649472188" lon="11.6694833297">
		<tag k="name" v="Vabutangen" />
		<tag k="natural" v="cape" />
		<tag k="ssr:stedsnr" v="232949" />
	</node>
	<node id="-1987" lat="59.0013222186" lon="11.5550666609">
		<tag k="name" v="Kroktjern" />
		<tag k="natural" v="water" />
		<tag k="ssr:stedsnr" v="232907" />
	</node>
	<node id="-1975" lat="58.8988444477" lon="11.4940888857">
		<tag k="name" v="Filleskreppa" />
		<tag k="natural" v="water" />
		<tag k="ssr:stedsnr" v="232700" />
	</node>
	<node id="-1970" lat="59.0812277765" lon="11.5874166691">
		<tag k="name" v="Lomtjern" />
		<tag k="natural" v="water" />
		<tag k="ssr:stedsnr" v="232659" />
	</node>
	<node id="-1969" lat="59.2168333298" lon="11.5685694417">
		<tag k="name" v="Brilletjern" />
		<tag k="natural" v="water" />
		<tag k="ssr:stedsnr" v="232654" />
	</node>
	<node id="-1968" lat="59.2200500017" lon="11.5726833329">
		<tag k="name" v="Naredaltjern" />
		<tag k="natural" v="water" />
		<tag k="ssr:stedsnr" v="232645" />
	</node>
	<node id="-1967" lat="59.1694055581" lon="11.5026222204">
		<tag k="name" v="Tjærvika" />
		<tag k="natural" v="bay" />
		<tag k="ssr:stedsnr" v="232640" />
	</node>
	<node id="-1966" lat="59.2437111134" lon="11.5338833364">
		<tag k="name" v="Aspetjern" />
		<tag k="natural" v="water" />
		<tag k="ssr:stedsnr" v="232638" />
	</node>
	<node id="-1947" lat="59.0870583297" lon="11.6161194469">
		<tag k="name" v="Spontjern" />
		<tag k="natural" v="water" />
		<tag k="ssr:stedsnr" v="232546" />
	</node>
	<node id="-1944" lat="59.063561114" lon="11.6625361131">
		<tag k="name" v="Torgalsbøenøya" />
		<tag k="place" v="island" />
		<tag k="ssr:stedsnr" v="232489" />
	</node>
	<node id="-1927" lat="59.2381777814" lon="11.4156722265">
		<tag k="name" v="Lommetjern" />
		<tag k="natural" v="water" />
		<tag k="ssr:stedsnr" v="204830" />
	</node>
	<node id="-1926" lat="59.1858944422" lon="11.4519972205">
		<tag k="name" v="Stangåstjern" />
		<tag k="natural" v="water" />
		<tag k="ssr:stedsnr" v="204822" />
	</node>
	<node id="-1921" lat="59.0256249994" lon="11.4788333283">
		<tag k="name" v="Stutøye" />
		<tag k="natural" v="water" />
		<tag k="ssr:stedsnr" v="204211" />
	</node>
	<node id="-1919" lat="59.0314444442" lon="11.4751944469">
		<tag k="name" v="Langevann" />
		<tag k="natural" v="water" />
		<tag k="ssr:stedsnr" v="204206" />
	</node>
	<node id="-1909" lat="58.985844449" lon="11.4829472141">
		<tag k="name" v="Blakktjern" />
		<tag k="natural" v="water" />
		<tag k="ssr:stedsnr" v="204120" />
	</node>
	<node id="-1908" lat="58.9776916654" lon="11.4779111164">
		<tag k="name" v="Berbyelva" />
		<tag k="ssr:stedsnr" v="204116" />
		<tag k="waterway" v="river" />
	</node>
	<node id="-1903" lat="59.2218749972" lon="11.4470999964">
		<tag k="alt_name" v="Svarttjern" />
		<tag k="name" v="Svarttjernet" />
		<tag k="natural" v="water" />
		<tag k="ssr:stedsnr" v="184900" />
	</node>
	<node id="-1898" lat="59.1199750012" lon="11.3753499967">
		<tag k="name" v="Tista" />
		<tag k="ssr:stedsnr" v="184822" />
		<tag k="waterway" v="river" />
	</node>
	<node id="-1896" lat="58.9640888865" lon="11.6369416713">
		<tag k="name" v="Store Gjeddetjern" />
		<tag k="natural" v="water" />
		<tag k="ssr:stedsnr" v="184807" />
	</node>
	<node id="-1895" lat="58.9610367397" lon="11.6086836002">
		<tag k="alt_name" v="Lysevannet" />
		<tag k="name" v="Lyse" />
		<tag k="natural" v="water" />
		<tag k="ssr:stedsnr" v="184802" />
		<tag k="water" v="lake" />
	</node>
	<node id="-1893" lat="59.0479454931" lon="11.5519973423">
		<tag k="name" v="Ånerødkilen" />
		<tag k="natural" v="bay" />
		<tag k="ssr:stedsnr" v="184450" />
	</node>
	<node id="-1886" lat="59.1997944478" lon="11.4952083286">
		<tag k="alt_name" v="Bøelva" />
		<tag k="name" v="Rjørelva" />
		<tag k="ssr:stedsnr" v="184189" />
		<tag k="waterway" v="river" />
	</node>
	<node id="-1885" lat="59.2098502715" lon="11.5906330178">
		<tag k="name" v="Rødvann" />
		<tag k="natural" v="water" />
		<tag k="ssr:stedsnr" v="184167" />
		<tag k="water" v="lake" />
	</node>
	<node id="-1884" lat="59.1564527797" lon="11.5628333409">
		<tag k="name" v="Brekketjerna" />
		<tag k="natural" v="water" />
		<tag k="ssr:stedsnr" v="184112" />
	</node>
	<node id="-1881" lat="59.1260000038" lon="11.2661499954">
		<tag k="alt_name" v="Gørrtjern" />
		<tag k="name" v="Gørrtjernet" />
		<tag k="natural" v="water" />
		<tag k="ssr:stedsnr" v="183878" />
	</node>
	<node id="-1878" lat="58.9961972183" lon="11.5397638861">
		<tag k="name" v="Kalvøya" />
		<tag k="natural" v="cape" />
		<tag k="ssr:stedsnr" v="183799" />
	</node>
	<node id="-1869" lat="58.9787422246" lon="11.5781129564">
		<tag k="alt_name" v="Dalbotjern" />
		<tag k="name" v="Dalbutjern" />
		<tag k="natural" v="water" />
		<tag k="ssr:stedsnr" v="183827" />
	</node>
	<node id="-1865" lat="58.9829638854" lon="11.5723250007">
		<tag k="name" v="Svarttjern" />
		<tag k="natural" v="water" />
		<tag k="ssr:stedsnr" v="183811" />
	</node>
	<node id="-1860" lat="59.0875111152" lon="11.6364583338">
		<tag k="name" v="Nedre Sørvannet" />
		<tag k="natural" v="water" />
		<tag k="ssr:stedsnr" v="183434" />
	</node>
	<node id="-1859" lat="59.0857277773" lon="11.6555972253">
		<tag k="name" v="Bastlitjern" />
		<tag k="natural" v="water" />
		<tag k="ssr:stedsnr" v="183430" />
	</node>
	<node id="-1855" lat="59.0017305599" lon="11.532388882">
		<tag k="name" v="Buvika" />
		<tag k="natural" v="bay" />
		<tag k="ssr:stedsnr" v="183305" />
	</node>
	<node id="-1852" lat="58.9192583339" lon="11.6079111027">
		<tag k="alt_name" v="Holevannspytt" />
		<tag k="name" v="Hølepytta" />
		<tag k="natural" v="water" />
		<tag k="ssr:stedsnr" v="183148" />
	</node>
	<node id="-1849" lat="58.9122416654" lon="11.4617222295">
		<tag k="alt_name" v="Lundetjernet" />
		<tag k="name" v="Lundetjern" />
		<tag k="natural" v="water" />
		<tag k="ssr:stedsnr" v="183141" />
	</node>
	<node id="-1848" lat="58.910638887" lon="11.6461166666">
		<tag k="fixme" v="multiple name tags, choose one and add the other to alt_name" />
		<tag k="name" v="Flatøya;Messingøya" />
		<tag k="place" v="islet" />
		<tag k="ssr:stedsnr" v="183126" />
	</node>
	<node id="-1847" lat="58.9085722189" lon="11.6102805579">
		<tag k="name" v="Karitjern" />
		<tag k="natural" v="water" />
		<tag k="ssr:stedsnr" v="183122" />
	</node>
	<node id="-1837" lat="59.2266916653" lon="11.5464527766">
		<tag k="name" v="Gørrtjern" />
		<tag k="natural" v="water" />
		<tag k="ssr:stedsnr" v="172994" />
	</node>
	<node id="-1836" lat="59.1199277768" lon="11.5828194505">
		<tag k="name" v="Bjørnetangen" />
		<tag k="natural" v="cape" />
		<tag k="ssr:stedsnr" v="172991" />
	</node>
	<node id="-1828" lat="59.0640999958" lon="11.6024583282">
		<tag k="name" v="Lille Vardåstjern" />
		<tag k="natural" v="water" />
		<tag k="ssr:stedsnr" v="172963" />
	</node>
	<node id="-1826" lat="58.9140333339" lon="11.6439444433">
		<tag k="name" v="Missingene" />
		<tag k="place" v="island" />
		<tag k="ssr:stedsnr" v="172838" />
	</node>
	<node id="-1822" lat="59.0944612532" lon="11.5804104808">
		<tag k="name" v="Abbortjern" />
		<tag k="natural" v="water" />
		<tag k="ssr:stedsnr" v="172822" />
	</node>
	<node id="-1813" lat="59.2407972262" lon="11.5446805613">
		<tag k="name" v="Sennetjern" />
		<tag k="natural" v="water" />
		<tag k="ssr:stedsnr" v="172750" />
	</node>
	<node id="-1812" lat="59.1978444476" lon="11.5468249976">
		<tag k="name" v="Tvebotntjern" />
		<tag k="natural" v="water" />
		<tag k="ssr:stedsnr" v="172745" />
	</node>
	<node id="-1809" lat="58.9280305596" lon="11.6423583366">
		<tag k="name" v="Pengeodden" />
		<tag k="natural" v="cape" />
		<tag k="ssr:stedsnr" v="172652" />
	</node>
	<node id="-1806" lat="59.1058361098" lon="11.5888527735">
		<tag k="name" v="Vinterveibukta" />
		<tag k="natural" v="bay" />
		<tag k="ssr:stedsnr" v="172584" />
	</node>
	<node id="-1804" lat="59.0559638864" lon="11.5419444425">
		<tag k="name" v="Brutjern" />
		<tag k="natural" v="water" />
		<tag k="ssr:stedsnr" v="172554" />
	</node>
	<node id="-1789" lat="59.254411115" lon="11.470311119">
		<tag k="name" v="Glomsrødbekken" />
		<tag k="ssr:stedsnr" v="143875" />
		<tag k="waterway" v="stream" />
	</node>
	<node id="-1788" lat="59.1669444399" lon="11.4969194518">
		<tag k="name" v="Tjærvika" />
		<tag k="natural" v="bay" />
		<tag k="ssr:stedsnr" v="143854" />
	</node>
	<node id="-1749" lat="59.1227361106" lon="11.5046861127">
		<tag k="name" v="Småtjern" />
		<tag k="natural" v="water" />
		<tag k="ssr:stedsnr" v="124056" />
	</node>
	<node id="-1742" lat="58.9564361125" lon="11.6844805556">
		<tag k="alt_name" v="Bokenesøya" />
		<tag k="name" v="Bokenesøyene" />
		<tag k="place" v="islet" />
		<tag k="ssr:stedsnr" v="123871" />
	</node>
	<node id="-973" lat="58.9216972254" lon="11.4766305631">
		<tag k="name" v="Trinsetjern" />
		<tag k="natural" v="water" />
		<tag k="ssr:stedsnr" v="304153" />
	</node>
	<node id="-1738" lat="58.9563109334" lon="11.4683743262">
		<tag k="name" v="Hestetjern" />
		<tag k="natural" v="water" />
		<tag k="ssr:stedsnr" v="123856" />
	</node>
	<node id="-1735" lat="58.9742078462" lon="11.5906718715">
		<tag k="alt_name" v="Torstensettjern" />
		<tag k="name" v="Torstensetvannet" />
		<tag k="natural" v="water" />
		<tag k="ssr:stedsnr" v="123821" />
	</node>
	<node id="-1730" lat="59.0876833299" lon="11.6714944411">
		<tag k="alt_name" v="Nordre Grønne" />
		<tag k="name" v="Lille Grønetjern" />
		<tag k="natural" v="water" />
		<tag k="ssr:stedsnr" v="123546" />
	</node>
	<node id="-971" lat="58.9195030934" lon="11.5446930983">
		<tag k="alt_name" v="Åbbortjern" />
		<tag k="name" v="Abbortjern" />
		<tag k="natural" v="water" />
		<tag k="ssr:stedsnr" v="304149" />
	</node>
	<node id="-1312" lat="59.0697111079" lon="11.6518638968">
		<tag k="name" v="Delesøya" />
		<tag k="place" v="island" />
		<tag k="ssr:stedsnr" v="475963" />
	</node>
	<node id="-1725" lat="59.0655166692" lon="11.6424833265">
		<tag k="name" v="Store Haugåstjern" />
		<tag k="natural" v="water" />
		<tag k="ssr:stedsnr" v="123442" />
	</node>
	<node id="-1723" lat="59.059691665" lon="11.6178944437">
		<tag k="alt_name" v="Mørttjern" />
		<tag k="name" v="Morttjern" />
		<tag k="natural" v="water" />
		<tag k="ssr:stedsnr" v="123410" />
	</node>
	<node id="-1721" lat="59.0334500032" lon="11.4621499923">
		<tag k="alt_name" v="Liholttjern" />
		<tag k="name" v="Liholttjernet" />
		<tag k="natural" v="water" />
		<tag k="ssr:stedsnr" v="123252" />
	</node>
	<node id="-1719" lat="59.1970138852" lon="11.5603555505">
		<tag k="name" v="Sandtjern" />
		<tag k="natural" v="water" />
		<tag k="ssr:stedsnr" v="123192" />
	</node>
	<node id="-1310" lat="59.0793500037" lon="11.6161805567">
		<tag k="name" v="Middagstjern" />
		<tag k="natural" v="water" />
		<tag k="ssr:stedsnr" v="475958" />
	</node>
	<node id="-1712" lat="59.1949959697" lon="11.4410476999">
		<tag k="name" v="Abbortjernet" />
		<tag k="natural" v="water" />
		<tag k="ssr:stedsnr" v="122976" />
	</node>
	<node id="-1706" lat="58.9838833314" lon="11.5943638919">
		<tag k="name" v="Guritjern" />
		<tag k="natural" v="water" />
		<tag k="ssr:stedsnr" v="122793" />
	</node>
	<node id="-1705" lat="58.9971583375" lon="11.6756750069">
		<tag k="name" v="Svartbekken" />
		<tag k="ssr:stedsnr" v="122792" />
		<tag k="waterway" v="stream" />
	</node>
	<node id="-1704" lat="58.993512765" lon="11.61606214">
		<tag k="name" v="Kutjern" />
		<tag k="natural" v="water" />
		<tag k="ssr:stedsnr" v="122785" />
	</node>
	<node id="-1700" lat="59.1142805585" lon="11.5342777788">
		<tag k="name" v="Sagtjern" />
		<tag k="natural" v="water" />
		<tag k="ssr:stedsnr" v="122443" />
	</node>
	<node id="-1697" lat="58.9355645156" lon="11.6646623318">
		<tag k="name" v="Munkholmen" />
		<tag k="place" v="islet" />
		<tag k="ssr:stedsnr" v="122174" />
	</node>
	<node id="-1696" lat="58.9358388848" lon="11.5004499924">
		<tag k="name" v="Enningdalselva" />
		<tag k="ssr:stedsnr" v="122167" />
		<tag k="waterway" v="river" />
	</node>
	<node id="-1695" lat="58.9326583298" lon="11.5501611173">
		<tag k="name" v="Blåtjern" />
		<tag k="natural" v="water" />
		<tag k="ssr:stedsnr" v="122163" />
	</node>
	<node id="-1694" lat="58.9327999987" lon="11.5733222142">
		<tag k="alt_name" v="Haraldtjern" />
		<tag k="name" v="Haraldstjern" />
		<tag k="natural" v="water" />
		<tag k="ssr:stedsnr" v="122161" />
	</node>
	<node id="-1693" lat="58.9319388866" lon="11.6290472288">
		<tag k="name" v="Lerbekktjern" />
		<tag k="natural" v="water" />
		<tag k="ssr:stedsnr" v="122160" />
	</node>
	<node id="-1688" lat="58.9033136576" lon="11.5277301618">
		<tag k="name" v="Kirkevannet" />
		<tag k="natural" v="water" />
		<tag k="ssr:stedsnr" v="122125" />
		<tag k="water" v="lake" />
	</node>
	<node id="-1671" lat="59.002163891" lon="11.6047972185">
		<tag k="name" v="Stutøye" />
		<tag k="natural" v="water" />
		<tag k="ssr:stedsnr" v="111933" />
	</node>
	<node id="-1666" lat="58.994899998" lon="11.5453972286">
		<tag k="name" v="Jonsbutangen" />
		<tag k="natural" v="cape" />
		<tag k="ssr:stedsnr" v="111900" />
	</node>
	<node id="-1665" lat="59.0010972183" lon="11.5495638847">
		<tag k="name" v="Lille Krokvik" />
		<tag k="natural" v="bay" />
		<tag k="ssr:stedsnr" v="111896" />
	</node>
	<node id="-1664" lat="59.0057138862" lon="11.5400305518">
		<tag k="name" v="Bjørnholmen" />
		<tag k="natural" v="cape" />
		<tag k="ssr:stedsnr" v="111893" />
	</node>
	<node id="-1658" lat="59.0284388855" lon="11.586705548">
		<tag k="name" v="Gyltetjern" />
		<tag k="natural" v="water" />
		<tag k="ssr:stedsnr" v="111727" />
	</node>
	<node id="-1656" lat="59.0870509725" lon="11.6279962803">
		<tag k="name" v="Øvre Dyvel" />
		<tag k="natural" v="water" />
		<tag k="ssr:stedsnr" v="111722" />
		<tag k="water" v="lake" />
	</node>
	<node id="-1653" lat="59.0170500013" lon="11.6129611181">
		<tag k="name" v="Gjeddelundbekken" />
		<tag k="ssr:stedsnr" v="111695" />
		<tag k="waterway" v="stream" />
	</node>
	<node id="-1652" lat="59.0126083375" lon="11.6085666716">
		<tag k="name" v="Lønntjern" />
		<tag k="natural" v="water" />
		<tag k="ssr:stedsnr" v="111693" />
	</node>
	<node id="-1651" lat="58.8920055558" lon="11.4576972191">
		<tag k="alt_name" v="Vammen søndre" />
		<tag k="name" v="Søndre Vammen" />
		<tag k="natural" v="water" />
		<tag k="ssr:stedsnr" v="111689" />
	</node>
	<node id="-1650" lat="59.1255805583" lon="11.5601055583">
		<tag k="name" v="Kjetangen" />
		<tag k="natural" v="cape" />
		<tag k="ssr:stedsnr" v="111677" />
	</node>
	<node id="-1649" lat="59.1461472219" lon="11.5108055481">
		<tag k="name" v="Nesbukta" />
		<tag k="natural" v="bay" />
		<tag k="ssr:stedsnr" v="111671" />
	</node>
	<node id="-1647" lat="58.8779138888" lon="11.5245249957">
		<tag k="name" v="Kitterødbekken" />
		<tag k="ssr:stedsnr" v="111646" />
		<tag k="waterway" v="stream" />
	</node>
	<node id="-1638" lat="59.1063972243" lon="11.6363722196">
		<tag k="name" v="Skrukketjern" />
		<tag k="natural" v="water" />
		<tag k="ssr:stedsnr" v="111584" />
	</node>
	<node id="-1636" lat="59.0697916662" lon="11.6293583329">
		<tag k="name" v="Lille Sveltetjern" />
		<tag k="natural" v="water" />
		<tag k="ssr:stedsnr" v="111576" />
	</node>
	<node id="-1635" lat="58.9714527819" lon="11.5958305528">
		<tag k="name" v="Rødtjern" />
		<tag k="natural" v="water" />
		<tag k="ssr:stedsnr" v="111573" />
	</node>
	<node id="-1632" lat="58.8932742697" lon="11.5275444197">
		<tag k="name" v="Gatetjernet" />
		<tag k="natural" v="water" />
		<tag k="ssr:stedsnr" v="111552" />
	</node>
	<node id="-1631" lat="59.1013888859" lon="11.5535333309">
		<tag k="name" v="Slåttetjern" />
		<tag k="natural" v="water" />
		<tag k="ssr:stedsnr" v="111549" />
	</node>
	<node id="-1627" lat="59.051324997" lon="11.6285916748">
		<tag k="name" v="Ringlundstjern" />
		<tag k="natural" v="water" />
		<tag k="ssr:stedsnr" v="111515" />
	</node>
	<node id="-1624" lat="59.0535207583" lon="11.5120290983">
		<tag k="name" v="Fiskeløsen" />
		<tag k="natural" v="water" />
		<tag k="ssr:stedsnr" v="111494" />
	</node>
	<node id="-1623" lat="59.0397790626" lon="11.530739551">
		<tag k="name" v="Ålekutjern" />
		<tag k="natural" v="water" />
		<tag k="ssr:stedsnr" v="111491" />
	</node>
	<node id="-1621" lat="59.1127500031" lon="11.5105444455">
		<tag k="name" v="Nordre Svartkolltjern" />
		<tag k="natural" v="water" />
		<tag k="ssr:stedsnr" v="111488" />
	</node>
	<node id="-1608" lat="59.2118416659" lon="11.3990388872">
		<tag k="name" v="Svarttjern" />
		<tag k="natural" v="water" />
		<tag k="ssr:stedsnr" v="83862" />
	</node>
	<node id="-1583" lat="58.9524666706" lon="11.4939805499">
		<tag k="name" v="Stuttangen" />
		<tag k="natural" v="cape" />
		<tag k="ssr:stedsnr" v="82181" />
	</node>
	<node id="-1582" lat="58.9614361094" lon="11.4898861109">
		<tag k="name" v="Neset" />
		<tag k="natural" v="cape" />
		<tag k="ssr:stedsnr" v="82176" />
	</node>
	<node id="-1581" lat="58.9835444427" lon="11.4659194426">
		<tag k="name" v="Merrhølet" />
		<tag k="natural" v="bay" />
		<tag k="ssr:stedsnr" v="82169" />
	</node>
	<node id="-3628" lat="59.2351000029" lon="11.528563894">
		<tag k="name" v="Stokkedalstjern" />
		<tag k="natural" v="water" />
		<tag k="ssr:stedsnr" v="961992" />
	</node>
	<node id="-3627" lat="59.16645556" lon="11.5152694462">
		<tag k="name" v="Hviteneset" />
		<tag k="natural" v="cape" />
		<tag k="ssr:stedsnr" v="961988" />
	</node>
	<node id="-3623" lat="59.051616669" lon="11.5253166726">
		<tag k="name" v="Tvibergtjern" />
		<tag k="natural" v="water" />
		<tag k="ssr:stedsnr" v="961965" />
	</node>
	<node id="-1574" lat="58.9565055575" lon="11.6417861051">
		<tag k="name" v="Stutøye" />
		<tag k="natural" v="water" />
		<tag k="ssr:stedsnr" v="63838" />
	</node>
	<node id="-3618" lat="58.9931000027" lon="11.5409805571">
		<tag k="name" v="Vadbuvika" />
		<tag k="natural" v="bay" />
		<tag k="ssr:stedsnr" v="961938" />
	</node>
	<node id="-3617" lat="58.9955083317" lon="11.5336194432">
		<tag k="name" v="Kirkebukta" />
		<tag k="natural" v="bay" />
		<tag k="ssr:stedsnr" v="961935" />
	</node>
	<node id="-1568" lat="59.0958638847" lon="11.5146499967">
		<tag k="name" v="Køjaren" />
		<tag k="natural" v="bay" />
		<tag k="ssr:stedsnr" v="63461" />
	</node>
	<node id="-3615" lat="59.0409777743" lon="11.5710861027">
		<tag k="name" v="Neset" />
		<tag k="natural" v="cape" />
		<tag k="ssr:stedsnr" v="961913" />
	</node>
	<node id="-1566" lat="59.1609361084" lon="11.5660555569">
		<tag k="name" v="Fismedalstjern" />
		<tag k="natural" v="water" />
		<tag k="ssr:stedsnr" v="63128" />
	</node>
	<node id="-3612" lat="58.9182722244" lon="11.6304916624">
		<tag k="name" v="Brennøya" />
		<tag k="place" v="island" />
		<tag k="ssr:stedsnr" v="961896" />
	</node>
	<node id="-1563" lat="59.123538889" lon="11.5797888826">
		<tag k="name" v="Nordre Mørtvik" />
		<tag k="natural" v="bay" />
		<tag k="ssr:stedsnr" v="63072" />
	</node>
	<node id="-3610" lat="58.9574694437" lon="11.6753249915">
		<tag k="name" v="Økøya" />
		<tag k="place" v="island" />
		<tag k="ssr:stedsnr" v="961832" />
	</node>
	<node id="-3606" lat="58.8946027796" lon="11.4858472157">
		<tag k="name" v="Lomtjern" />
		<tag k="natural" v="water" />
		<tag k="ssr:stedsnr" v="961774" />
	</node>
	<node id="-3605" lat="59.0109222219" lon="11.6949444483">
		<tag k="name" v="Merrholmen" />
		<tag k="place" v="island" />
		<tag k="ssr:stedsnr" v="961773" />
	</node>
	<node id="-3604" lat="59.2237055537" lon="11.3311027699">
		<tag k="name" v="Ulsetoa" />
		<tag k="place" v="islet" />
		<tag k="ssr:stedsnr" v="961758" />
	</node>
	<node id="-1555" lat="58.9498888895" lon="11.6747555624">
		<tag k="name" v="Bastøya" />
		<tag k="place" v="islet" />
		<tag k="ssr:stedsnr" v="62875" />
	</node>
	<node id="-3602" lat="59.2221875331" lon="11.5738062466">
		<tag k="name" v="Andetjern" />
		<tag k="natural" v="water" />
		<tag k="ssr:stedsnr" v="961740" />
	</node>
	<node id="-3592" lat="59.0790722181" lon="11.6580666689">
		<tag k="name" v="Grunntjern" />
		<tag k="natural" v="water" />
		<tag k="ssr:stedsnr" v="961622" />
	</node>
	<node id="-1543" lat="58.9878638907" lon="11.6404638852">
		<tag k="alt_name" v="Ødegårdstjernet" />
		<tag k="name" v="Ødegårdstjern" />
		<tag k="natural" v="water" />
		<tag k="ssr:stedsnr" v="62806" />
	</node>
	<node id="-1542" lat="58.9853835958" lon="11.5789363127">
		<tag k="alt_name" v="Trestikke" />
		<tag k="name" v="Trestikket" />
		<tag k="natural" v="water" />
		<tag k="ssr:stedsnr" v="62802" />
		<tag k="water" v="lake" />
	</node>
	<node id="-3584" lat="58.893025003" lon="11.4963583393">
		<tag k="name" v="Høgsjøbekken" />
		<tag k="ssr:stedsnr" v="961575" />
		<tag k="waterway" v="stream" />
	</node>
	<node id="-1535" lat="59.0816333359" lon="11.6680583274">
		<tag k="name" v="Abbortjern" />
		<tag k="natural" v="water" />
		<tag k="ssr:stedsnr" v="62478" />
	</node>
	<node id="-1533" lat="59.1009003283" lon="11.5243137497">
		<tag k="alt_name" v="Holvannet" />
		<tag k="name" v="Holvann" />
		<tag k="natural" v="water" />
		<tag k="ssr:stedsnr" v="62456" />
		<tag k="water" v="lake" />
	</node>
	<node id="-3580" lat="59.0828888912" lon="11.5471472178">
		<tag k="name" v="Stokketjern" />
		<tag k="natural" v="water" />
		<tag k="ssr:stedsnr" v="961548" />
	</node>
	<node id="-1531" lat="59.0424289769" lon="11.5538084393">
		<tag k="name" v="Ramnsneset" />
		<tag k="natural" v="cape" />
		<tag k="ssr:stedsnr" v="62420" />
	</node>
	<node id="-3578" lat="59.0959472206" lon="11.5511027851">
		<tag k="name" v="Tømmerlundtjern" />
		<tag k="natural" v="water" />
		<tag k="ssr:stedsnr" v="961544" />
	</node>
	<node id="-3577" lat="59.0933027807" lon="11.5448472166">
		<tag k="name" v="Mellemmyrtjern" />
		<tag k="natural" v="water" />
		<tag k="ssr:stedsnr" v="961543" />
	</node>
	<node id="-3576" lat="59.0684777776" lon="11.6633888975">
		<tag k="name" v="Ramfrubukta" />
		<tag k="natural" v="bay" />
		<tag k="ssr:stedsnr" v="961539" />
	</node>
	<node id="-3574" lat="59.0409722189" lon="11.5911888903">
		<tag k="name" v="Nedre dam" />
		<tag k="ssr:stedsnr" v="961515" />
		<tag k="waterway" v="dam" />
	</node>
	<node id="-3573" lat="59.1110382206" lon="11.5023313773">
		<tag k="name" v="Duetjern" />
		<tag k="natural" v="water" />
		<tag k="ssr:stedsnr" v="961512" />
	</node>
	<node id="-1278" lat="59.0332222232" lon="11.6803055604">
		<tag k="name" v="Lille Øretjern" />
		<tag k="natural" v="water" />
		<tag k="ssr:stedsnr" v="475527" />
	</node>
	<node id="-1519" lat="58.935302774" lon="11.4789111103">
		<tag k="name" v="Trolldalsvannet" />
		<tag k="natural" v="water" />
		<tag k="ssr:stedsnr" v="61178" />
	</node>
	<node id="-3566" lat="59.2154388849" lon="11.4240472214">
		<tag k="name" v="Blanktjern" />
		<tag k="natural" v="water" />
		<tag k="ssr:stedsnr" v="933896" />
	</node>
	<node id="-1517" lat="58.9144636901" lon="11.4853706572">
		<tag k="alt_name" v="Langvann" />
		<tag k="name" v="Langevannet" />
		<tag k="natural" v="water" />
		<tag k="ssr:stedsnr" v="61145" />
		<tag k="water" v="lake" />
	</node>
	<node id="-1515" lat="58.9113722219" lon="11.6078388886">
		<tag k="alt_name" v="Klyptjern" />
		<tag k="name" v="Klypetjern" />
		<tag k="natural" v="water" />
		<tag k="ssr:stedsnr" v="61129" />
	</node>
	<node id="-1514" lat="58.9042249999" lon="11.5475972288">
		<tag k="name" v="Slatjern" />
		<tag k="natural" v="water" />
		<tag k="ssr:stedsnr" v="61124" />
	</node>
	<node id="-3552" lat="59.1089583315" lon="11.4959722165">
		<tag k="name" v="Setertjern" />
		<tag k="natural" v="water" />
		<tag k="ssr:stedsnr" v="933803" />
	</node>
	<node id="-1503" lat="58.8918444402" lon="11.4787416664">
		<tag k="name" v="Olserødtjernet" />
		<tag k="natural" v="water" />
		<tag k="ssr:stedsnr" v="51766" />
	</node>
	<node id="-1495" lat="59.0667222214" lon="11.655697221">
		<tag k="name" v="Tronsholtfjorden" />
		<tag k="natural" v="water" />
		<tag k="ssr:stedsnr" v="51645" />
	</node>
	<node id="-1494" lat="59.0812722246" lon="11.6156805488">
		<tag k="name" v="Tranetjern" />
		<tag k="natural" v="water" />
		<tag k="ssr:stedsnr" v="51641" />
	</node>
	<node id="-1491" lat="59.1089694455" lon="11.537605561">
		<tag k="name" v="Langetjern" />
		<tag k="natural" v="water" />
		<tag k="ssr:stedsnr" v="51601" />
	</node>
	<node id="-3536" lat="59.1304111134" lon="11.3143583309">
		<tag k="name" v="Springvannsdammen" />
		<tag k="natural" v="water" />
		<tag k="ssr:stedsnr" v="932217" />
	</node>
	<node id="-1487" lat="59.0477777769" lon="11.5163166709">
		<tag k="name" v="Korstjern" />
		<tag k="natural" v="water" />
		<tag k="ssr:stedsnr" v="51556" />
	</node>
	<node id="-1486" lat="59.0213555541" lon="11.6539916638">
		<tag k="name" v="Kjerringtjern" />
		<tag k="natural" v="water" />
		<tag k="ssr:stedsnr" v="50998" />
	</node>
	<node id="-1485" lat="59.0281694413" lon="11.6581777694">
		<tag k="name" v="Lille Stenslundtjern" />
		<tag k="natural" v="water" />
		<tag k="ssr:stedsnr" v="50999" />
	</node>
	<node id="-1484" lat="59.0171944449" lon="11.6495249919">
		<tag k="name" v="Tretterbekken" />
		<tag k="ssr:stedsnr" v="50997" />
		<tag k="waterway" v="stream" />
	</node>
	<node id="-3531" lat="58.9581611083" lon="11.4665611148">
		<tag k="name" v="Lille Langvann" />
		<tag k="natural" v="water" />
		<tag k="ssr:stedsnr" v="932184" />
	</node>
	<node id="-3526" lat="58.9723027756" lon="11.4705250007">
		<tag k="name" v="Svarthølet" />
		<tag k="natural" v="water" />
		<tag k="ssr:stedsnr" v="932160" />
	</node>
	<node id="-1476" lat="59.1780527773" lon="11.5232638881">
		<tag k="name" v="Rjørelva" />
		<tag k="ssr:stedsnr" v="50883" />
		<tag k="waterway" v="river" />
	</node>
	<node id="-3522" lat="59.1270750041" lon="11.4769999931">
		<tag k="name" v="Påkastet" />
		<tag k="natural" v="bay" />
		<tag k="ssr:stedsnr" v="913038" />
	</node>
	<node id="-1471" lat="59.0376027739" lon="11.5935499945">
		<tag k="name" v="Øvre dam" />
		<tag k="ssr:stedsnr" v="50860" />
		<tag k="waterway" v="dam" />
	</node>
	<node id="-1470" lat="58.9006999965" lon="11.5276277803">
		<tag k="name" v="Strømsund" />
		<tag k="natural" v="strait" />
		<tag k="ssr:stedsnr" v="50747" />
	</node>
	<node id="-3513" lat="58.9573777781" lon="11.6758583273">
		<tag k="name" v="Økøya" />
		<tag k="place" v="islet" />
		<tag k="ssr:stedsnr" v="912856" />
	</node>
	<node id="-3511" lat="58.9612638884" lon="11.6847888809">
		<tag k="alt_name" v="Bokenesneset" />
		<tag k="name" v="Bokeneset" />
		<tag k="natural" v="cape" />
		<tag k="ssr:stedsnr" v="912853" />
	</node>
	<node id="-3510" lat="58.9617277815" lon="11.6421888873">
		<tag k="name" v="Lille Gjeddetjern" />
		<tag k="natural" v="water" />
		<tag k="ssr:stedsnr" v="912841" />
	</node>
	<node id="-3505" lat="58.975075" lon="11.6603500067">
		<tag k="alt_name" v="Svarttjernene" />
		<tag k="name" v="Svarttjerna" />
		<tag k="natural" v="water" />
		<tag k="ssr:stedsnr" v="912820" />
	</node>
	<node id="-1455" lat="59.2199916659" lon="11.399547216">
		<tag k="alt_name" v="Vakrene østre" />
		<tag k="name" v="Østre Vakrene" />
		<tag k="natural" v="water" />
		<tag k="ssr:stedsnr" v="22847" />
	</node>
	<node id="-3502" lat="59.0985083303" lon="11.6695916646">
		<tag k="name" v="Store Øfsetjern" />
		<tag k="natural" v="water" />
		<tag k="ssr:stedsnr" v="912465" />
	</node>
	<node id="-3501" lat="59.0380222201" lon="11.6160361132">
		<tag k="name" v="Sætertjern" />
		<tag k="natural" v="water" />
		<tag k="ssr:stedsnr" v="912436" />
	</node>
	<node id="-3499" lat="59.0313916622" lon="11.4941305595">
		<tag k="alt_name" v="Folkå" />
		<tag k="name" v="Folkeåa" />
		<tag k="ssr:stedsnr" v="912428" />
		<tag k="waterway" v="river" />
	</node>
	<node id="-3498" lat="59.065836113" lon="11.6297166593">
		<tag k="name" v="Sveltetjerna" />
		<tag k="natural" v="water" />
		<tag k="ssr:stedsnr" v="912420" />
	</node>
	<node id="-3494" lat="59.0213917135" lon="11.6276367445">
		<tag k="alt_name" v="Blanketjern" />
		<tag k="name" v="Blanktjern" />
		<tag k="natural" v="water" />
		<tag k="ssr:stedsnr" v="912354" />
	</node>
	<node id="-3484" lat="59.1680425329" lon="11.6133044756">
		<tag k="name" v="Rekketjern" />
		<tag k="natural" v="water" />
		<tag k="ssr:stedsnr" v="912102" />
	</node>
	<node id="-3483" lat="59.1450999982" lon="11.4769027766">
		<tag k="name" v="Vannkasodden" />
		<tag k="natural" v="cape" />
		<tag k="ssr:stedsnr" v="912013" />
	</node>
	<node id="-3482" lat="59.1480694461" lon="11.4788861182">
		<tag k="name" v="Galteryggen" />
		<tag k="natural" v="cape" />
		<tag k="ssr:stedsnr" v="912009" />
	</node>
	<node id="-1431" lat="58.9928555538" lon="11.528236119">
		<tag k="name" v="Ørelva" />
		<tag k="ssr:stedsnr" v="22135" />
		<tag k="waterway" v="river" />
	</node>
	<node id="-3478" lat="58.9420722213" lon="11.471625002">
		<tag k="name" v="Svarttjern" />
		<tag k="natural" v="water" />
		<tag k="ssr:stedsnr" v="911860" />
	</node>
	<node id="-1426" lat="59.1740749978" lon="11.4510000048">
		<tag k="alt_name" v="Blytjern" />
		<tag k="name" v="Blytjernet" />
		<tag k="natural" v="water" />
		<tag k="ssr:stedsnr" v="2954" />
	</node>
	<node id="-1425" lat="59.2039000036" lon="11.3996250006">
		<tag k="alt_name" v="Kjelltjern" />
		<tag k="name" v="Kjeletjernet" />
		<tag k="natural" v="water" />
		<tag k="ssr:stedsnr" v="2881" />
	</node>
	<node id="-3470" lat="59.0865555588" lon="11.57072777">
		<tag k="name" v="Kroktjern" />
		<tag k="natural" v="water" />
		<tag k="ssr:stedsnr" v="911489" />
	</node>
	<node id="-3469" lat="59.0809194415" lon="11.535830547">
		<tag k="name" v="Levertjern" />
		<tag k="natural" v="water" />
		<tag k="ssr:stedsnr" v="911482" />
	</node>
	<node id="-3468" lat="59.1124655567" lon="11.6304831602">
		<tag k="alt_name" v="Elggravtjern" />
		<tag k="name" v="Elgsgravtjernet" />
		<tag k="natural" v="water" />
		<tag k="ssr:stedsnr" v="911464" />
	</node>
	<node id="-3465" lat="59.007962063" lon="11.6900669683">
		<tag k="name" v="Lille Sandvik" />
		<tag k="natural" v="bay" />
		<tag k="ssr:stedsnr" v="911326" />
	</node>
	<node id="-3464" lat="58.8974369582" lon="11.4886168145">
		<tag k="alt_name" v="Hogsjø nordre" />
		<tag k="name" v="Nordre Hogsjøen" />
		<tag k="natural" v="water" />
		<tag k="ssr:stedsnr" v="911262" />
	</node>
	<node id="-3460" lat="58.9168387143" lon="11.5761464748">
		<tag k="alt_name" v="Søndre Eljevann" />
		<tag k="name" v="Nedre Elgvann" />
		<tag k="natural" v="water" />
		<tag k="ssr:stedsnr" v="911163" />
		<tag k="water" v="lake" />
	</node>
	<node id="-918" lat="58.9279500011" lon="11.6453916617">
		<tag k="name" v="Sundet" />
		<tag k="natural" v="strait" />
		<tag k="ssr:stedsnr" v="293629" />
	</node>
	<node id="-1409" lat="59.0345277759" lon="11.6753861152">
		<tag k="alt_name" v="Store Øretjern" />
		<tag k="name" v="Øretjerna" />
		<tag k="natural" v="water" />
		<tag k="ssr:stedsnr" v="2447" />
	</node>
	<node id="-3456" lat="59.2367611157" lon="11.5318611033">
		<tag k="name" v="Rumpetjern" />
		<tag k="natural" v="water" />
		<tag k="ssr:stedsnr" v="911126" />
	</node>
	<node id="-3455" lat="58.9004092783" lon="11.5955587549">
		<tag k="alt_name" v="Elgtjern" />
		<tag k="name" v="Elgetjern" />
		<tag k="natural" v="water" />
		<tag k="ssr:stedsnr" v="911124" />
	</node>
	<node id="-1400" lat="59.1463750012" lon="11.5060833414">
		<tag k="name" v="Nestangen" />
		<tag k="natural" v="cape" />
		<tag k="ssr:stedsnr" v="2008" />
	</node>
	<node id="-3443" lat="59.0191250011" lon="11.7001361104">
		<tag k="name" v="Galten" />
		<tag k="place" v="island" />
		<tag k="ssr:stedsnr" v="900882" />
	</node>
	<node id="-1394" lat="58.9433927664" lon="11.662161947">
		<tag k="name" v="Løksvann" />
		<tag k="natural" v="water" />
		<tag k="ssr:stedsnr" v="1866" />
		<tag k="water" v="lake" />
	</node>
	<node id="-3439" lat="59.014986114" lon="11.5537111135">
		<tag k="alt_name" v="Hestøyene lille" />
		<tag k="name" v="Lille Hestøyene" />
		<tag k="place" v="island" />
		<tag k="ssr:stedsnr" v="900728" />
	</node>
	<node id="-1390" lat="58.997227775" lon="11.6289055565">
		<tag k="name" v="Elja" />
		<tag k="ssr:stedsnr" v="1816" />
		<tag k="waterway" v="river" />
	</node>
	<node id="-1389" lat="58.9822805594" lon="11.6229638879">
		<tag k="name" v="Damtjern" />
		<tag k="natural" v="water" />
		<tag k="ssr:stedsnr" v="1796" />
	</node>
	<node id="-914" lat="58.8870388898" lon="11.5144999927">
		<tag k="name" v="Sandvika" />
		<tag k="natural" v="bay" />
		<tag k="ssr:stedsnr" v="293586" />
	</node>
	<node id="-1385" lat="59.1050777735" lon="11.6614083381">
		<tag k="name" v="Bjørntjern" />
		<tag k="natural" v="water" />
		<tag k="ssr:stedsnr" v="1466" />
	</node>
	<node id="-1384" lat="59.1124777738" lon="11.6562861079">
		<tag k="name" v="Koven" />
		<tag k="natural" v="water" />
		<tag k="ssr:stedsnr" v="1464" />
	</node>
	<node id="-1382" lat="59.1015138852" lon="11.5960888868">
		<tag k="name" v="Myrdemøya" />
		<tag k="place" v="islet" />
		<tag k="ssr:stedsnr" v="1453" />
	</node>
	<node id="-3429" lat="58.9259527759" lon="11.6446472184">
		<tag k="name" v="Vinterbukt" />
		<tag k="natural" v="bay" />
		<tag k="ssr:stedsnr" v="900641" />
	</node>
	<node id="-3428" lat="58.9391805514" lon="11.6559166635">
		<tag k="name" v="Store Mosvik" />
		<tag k="natural" v="bay" />
		<tag k="ssr:stedsnr" v="900639" />
	</node>
	<node id="-1379" lat="59.0447460232" lon="11.6353980078">
		<tag k="alt_name" v="Bofartjern" />
		<tag k="name" v="Bufartjern" />
		<tag k="natural" v="water" />
		<tag k="ssr:stedsnr" v="1427" />
	</node>
	<node id="-1378" lat="59.0672750019" lon="11.6654944377">
		<tag k="name" v="Ramfruøya" />
		<tag k="place" v="islet" />
		<tag k="ssr:stedsnr" v="1383" />
	</node>
	<node id="-3425" lat="59.1060111068" lon="11.6341611156">
		<tag k="name" v="Skrukketjern" />
		<tag k="natural" v="water" />
		<tag k="ssr:stedsnr" v="900623" />
	</node>
	<node id="-3423" lat="59.191391665" lon="11.5593222147">
		<tag k="name" v="Tvebotntjern" />
		<tag k="natural" v="water" />
		<tag k="ssr:stedsnr" v="900619" />
	</node>
	<node id="-3422" lat="59.0685222218" lon="11.6581583261">
		<tag k="name" v="Kjelundtangen" />
		<tag k="natural" v="cape" />
		<tag k="ssr:stedsnr" v="900617" />
	</node>
	<node id="-3421" lat="59.0858541564" lon="11.6128441974">
		<tag k="name" v="Bikkjetjern" />
		<tag k="natural" v="water" />
		<tag k="ssr:stedsnr" v="900613" />
	</node>
	<node id="-1370" lat="59.2402000019" lon="11.5717833358">
		<tag k="name" v="Teigsørvann" />
		<tag k="natural" v="water" />
		<tag k="ssr:stedsnr" v="1152" />
	</node>
	<node id="-1369" lat="59.198538892" lon="11.5384361132">
		<tag k="name" v="Krosstjern" />
		<tag k="natural" v="water" />
		<tag k="ssr:stedsnr" v="1092" />
	</node>
	<node id="-3416" lat="59.0849055557" lon="11.5377500026">
		<tag k="name" v="Kirkemosetjern" />
		<tag k="natural" v="water" />
		<tag k="ssr:stedsnr" v="900559" />
	</node>
	<node id="-1367" lat="58.9283194434" lon="11.6152694398">
		<tag k="alt_name" v="Sivtjern" />
		<tag k="name" v="Sevtjern" />
		<tag k="natural" v="water" />
		<tag k="ssr:stedsnr" v="184" />
	</node>
	<node id="-3410" lat="59.0459888866" lon="11.5190611044">
		<tag k="name" v="Svantjern" />
		<tag k="natural" v="water" />
		<tag k="ssr:stedsnr" v="900524" />
	</node>
	<node id="-3401" lat="59.2015361142" lon="11.4215861109">
		<tag k="name" v="Mellemsjøen" />
		<tag k="natural" v="water" />
		<tag k="ssr:stedsnr" v="872843" />
	</node>
	<node id="-1249" lat="59.1719055599" lon="11.4384527808">
		<tag k="name" v="Høyåstjern" />
		<tag k="natural" v="water" />
		<tag k="ssr:stedsnr" v="386844" />
	</node>
	<node id="-3370" lat="59.1817388874" lon="11.379411119">
		<tag k="alt_name" v="Kamhau" />
		<tag k="name" v="Kamhaugtjernet" />
		<tag k="natural" v="water" />
		<tag k="ssr:stedsnr" v="852957" />
	</node>
	<node id="-1315" lat="59.1101194472" lon="11.581786103">
		<tag k="name" v="Gåsemosvika" />
		<tag k="natural" v="bay" />
		<tag k="ssr:stedsnr" v="475976" />
	</node>
	<node id="-3360" lat="59.0908693905" lon="11.5972463515">
		<tag k="name" v="Mørte" />
		<tag k="natural" v="water" />
		<tag k="ssr:stedsnr" v="852493" />
		<tag k="water" v="lake" />
	</node>
	<node id="-3359" lat="59.0939138873" lon="11.6663916695">
		<tag k="name" v="Stentjern" />
		<tag k="natural" v="water" />
		<tag k="ssr:stedsnr" v="852484" />
	</node>
	<node id="-3358" lat="59.0409361124" lon="11.6895194482">
		<tag k="alt_name" v="Murholtstangen" />
		<tag k="name" v="Murholttangen" />
		<tag k="natural" v="cape" />
		<tag k="ssr:stedsnr" v="852417" />
	</node>
	<node id="-3355" lat="59.018099997" lon="11.6702944409">
		<tag k="alt_name" v="Store Høljetjern" />
		<tag k="name" v="Høljetjerna" />
		<tag k="natural" v="water" />
		<tag k="ssr:stedsnr" v="852340" />
	</node>
	<node id="-3352" lat="59.1539305523" lon="11.4772444503">
		<tag k="name" v="Englandstangen" />
		<tag k="natural" v="cape" />
		<tag k="ssr:stedsnr" v="852123" />
	</node>
	<node id="-3350" lat="59.1283861077" lon="11.5504055491">
		<tag k="name" v="Bråsundet" />
		<tag k="natural" v="strait" />
		<tag k="ssr:stedsnr" v="852049" />
	</node>
	<node id="-3348" lat="59.1316611122" lon="11.5716416643">
		<tag k="alt_name" v="Talombekken" />
		<tag k="name" v="Tallumbekken" />
		<tag k="ssr:stedsnr" v="852027" />
		<tag k="waterway" v="stream" />
	</node>
	<node id="-3345" lat="59.1944015792" lon="11.3679873758">
		<tag k="name" v="Korsetvannet" />
		<tag k="natural" v="water" />
		<tag k="ssr:stedsnr" v="851992" />
		<tag k="water" v="lake" />
	</node>
	<node id="-1296" lat="59.2407750036" lon="11.5490805561">
		<tag k="name" v="Tvillingtjern" />
		<tag k="natural" v="water" />
		<tag k="ssr:stedsnr" v="475687" />
	</node>
	<node id="-1295" lat="59.21787778" lon="11.5040000064">
		<tag k="name" v="Kalfurutjern" />
		<tag k="natural" v="water" />
		<tag k="ssr:stedsnr" v="475685" />
	</node>
	<node id="-3341" lat="59.2180444429" lon="11.3502194381">
		<tag k="alt_name" v="Langtjern" />
		<tag k="name" v="Langtjernet" />
		<tag k="natural" v="water" />
		<tag k="ssr:stedsnr" v="851897" />
	</node>
	<node id="-3340" lat="59.2034083323" lon="11.3412083261">
		<tag k="name" v="Rokkevannet" />
		<tag k="natural" v="water" />
		<tag k="ssr:stedsnr" v="851880" />
		<tag k="water" v="lake" />
	</node>
	<node id="-1287" lat="58.9205111153" lon="11.6514250028">
		<tag k="name" v="Storebukt" />
		<tag k="natural" v="bay" />
		<tag k="ssr:stedsnr" v="475582" />
	</node>
	<node id="-1286" lat="58.9144527818" lon="11.6344222308">
		<tag k="name" v="Blyøyene" />
		<tag k="place" v="island" />
		<tag k="ssr:stedsnr" v="475580" />
	</node>
	<node id="-3333" lat="58.9777277815" lon="11.5201666607">
		<tag k="name" v="Holttjern" />
		<tag k="natural" v="water" />
		<tag k="ssr:stedsnr" v="851809" />
	</node>
	<node id="-1283" lat="59.0899972227" lon="11.5278416639">
		<tag k="name" v="Setertjern" />
		<tag k="natural" v="water" />
		<tag k="ssr:stedsnr" v="475560" />
	</node>
	<node id="-1281" lat="59.0618111138" lon="11.665577774">
		<tag k="name" v="Ørnøya" />
		<tag k="place" v="island" />
		<tag k="ssr:stedsnr" v="475546" />
	</node>
	<node id="-3326" lat="59.0852083344" lon="11.6769055541">
		<tag k="alt_name" v="Bjørketjern" />
		<tag k="name" v="Bjørke" />
		<tag k="natural" v="water" />
		<tag k="ssr:stedsnr" v="851454" />
	</node>
	<node id="-3325" lat="59.0749805515" lon="11.6111999947">
		<tag k="name" v="Gjørgetjern" />
		<tag k="natural" v="water" />
		<tag k="ssr:stedsnr" v="851444" />
	</node>
	<node id="-3310" lat="58.9073249982" lon="11.6521861033">
		<tag k="name" v="Hisøya" />
		<tag k="place" v="island" />
		<tag k="ssr:stedsnr" v="850142" />
	</node>
	<node id="-3308" lat="58.9079222225" lon="11.5432833386">
		<tag k="alt_name" v="Langvann" />
		<tag k="name" v="Langevannet" />
		<tag k="natural" v="water" />
		<tag k="ssr:stedsnr" v="850137" />
	</node>
	<node id="-3307" lat="58.9088082813" lon="11.5554467284">
		<tag k="name" v="Abbortjern" />
		<tag k="natural" v="water" />
		<tag k="ssr:stedsnr" v="850136" />
	</node>
	<node id="-3300" lat="59.0205888866" lon="11.5470694398">
		<tag k="name" v="Letesvik" />
		<tag k="natural" v="bay" />
		<tag k="ssr:stedsnr" v="840993" />
	</node>
	<node id="-1251" lat="59.2199000007" lon="11.3941027778">
		<tag k="name" v="Grisetjern" />
		<tag k="natural" v="water" />
		<tag k="ssr:stedsnr" v="386847" />
	</node>
	<node id="-3298" lat="59.169850004" lon="11.5218527838">
		<tag k="name" v="Saueskjær" />
		<tag k="place" v="islet" />
		<tag k="ssr:stedsnr" v="840982" />
	</node>
	<node id="-3297" lat="59.1347527744" lon="11.6052999947">
		<tag k="name" v="Mellemtjern" />
		<tag k="natural" v="water" />
		<tag k="ssr:stedsnr" v="840980" />
	</node>
	<node id="-3295" lat="59.0836472257" lon="11.6084416611">
		<tag k="name" v="Itjern" />
		<tag k="natural" v="water" />
		<tag k="ssr:stedsnr" v="840970" />
	</node>
	<node id="-3291" lat="59.1042583343" lon="11.5091722214">
		<tag k="name" v="Hagetjern" />
		<tag k="natural" v="water" />
		<tag k="ssr:stedsnr" v="840948" />
	</node>
	<node id="-3290" lat="59.1172694447" lon="11.6517638863">
		<tag k="name" v="Droggetjern" />
		<tag k="natural" v="water" />
		<tag k="ssr:stedsnr" v="840936" />
	</node>
	<node id="-3289" lat="59.1014666655" lon="11.6499333401">
		<tag k="name" v="Stensvannselva" />
		<tag k="ssr:stedsnr" v="840933" />
		<tag k="waterway" v="river" />
	</node>
	<node id="-3288" lat="59.003829098" lon="11.6064402452">
		<tag k="name" v="Hølvann" />
		<tag k="natural" v="water" />
		<tag k="ssr:stedsnr" v="840927" />
		<tag k="water" v="lake" />
	</node>
	<node id="-3286" lat="59.00718507" lon="11.6081593902">
		<tag k="name" v="Langevann" />
		<tag k="natural" v="water" />
		<tag k="ssr:stedsnr" v="840914" />
		<tag k="water" v="lake" />
	</node>
	<node id="-3280" lat="59.1443694425" lon="11.5242972193">
		<tag k="name" v="Stenselva" />
		<tag k="ssr:stedsnr" v="840807" />
		<tag k="waterway" v="river" />
	</node>
	<node id="-3277" lat="59.027774999" lon="11.6893972285">
		<tag k="name" v="Bjørndalsbukta" />
		<tag k="natural" v="bay" />
		<tag k="ssr:stedsnr" v="840757" />
	</node>
	<node id="-3275" lat="59.0259666642" lon="11.57820833">
		<tag k="name" v="Trantjern" />
		<tag k="natural" v="water" />
		<tag k="ssr:stedsnr" v="840752" />
	</node>
	<node id="-1225" lat="59.2035750011" lon="11.392891658">
		<tag k="name" v="Holmetjernet" />
		<tag k="natural" v="water" />
		<tag k="ssr:stedsnr" v="366868" />
	</node>
	<node id="-3272" lat="58.9214996367" lon="11.4627573212">
		<tag k="name" v="Drøftetrauet" />
		<tag k="natural" v="water" />
		<tag k="ssr:stedsnr" v="840743" />
	</node>
	<node id="-3271" lat="59.1381222229" lon="11.5326833365">
		<tag k="name" v="Ertedammen" />
		<tag k="ssr:stedsnr" v="840736" />
		<tag k="waterway" v="dam" />
	</node>
	<node id="-1221" lat="58.9484978372" lon="11.6249660549">
		<tag k="fixme" v="multiple name tags, choose one and add the other to alt_name" />
		<tag k="name" v="Rørtjern;Sevtjern" />
		<tag k="natural" v="water" />
		<tag k="ssr:stedsnr" v="366831" />
	</node>
	<node id="-3266" lat="59.2177165188" lon="11.5704845116">
		<tag k="name" v="Blåkolltjern" />
		<tag k="natural" v="water" />
		<tag k="ssr:stedsnr" v="840713" />
	</node>
	<node id="-1217" lat="58.9541500034" lon="11.6720250073">
		<tag k="name" v="Fugløya" />
		<tag k="place" v="islet" />
		<tag k="ssr:stedsnr" v="366818" />
	</node>
	<node id="-3264" lat="59.2454611147" lon="11.5299444532">
		<tag k="name" v="Torvtjern" />
		<tag k="natural" v="water" />
		<tag k="ssr:stedsnr" v="840710" />
	</node>
	<node id="-3263" lat="59.1307944477" lon="11.6010666683">
		<tag k="name" v="Langtjern" />
		<tag k="natural" v="water" />
		<tag k="ssr:stedsnr" v="840705" />
	</node>
	<node id="-1214" lat="58.9658527817" lon="11.6605277831">
		<tag k="alt_name" v="Haugenetjern" />
		<tag k="name" v="Haugenetjernet" />
		<tag k="natural" v="water" />
		<tag k="ssr:stedsnr" v="366810" />
	</node>
	<node id="-1211" lat="59.0846055578" lon="11.6708194377">
		<tag k="alt_name" v="Søndre Grønne" />
		<tag k="name" v="Store Grønetjern" />
		<tag k="natural" v="water" />
		<tag k="ssr:stedsnr" v="366509" />
	</node>
	<node id="-1208" lat="59.0477333302" lon="11.5573916655">
		<tag k="name" v="Neset" />
		<tag k="natural" v="cape" />
		<tag k="ssr:stedsnr" v="366443" />
	</node>
	<node id="-1207" lat="59.0447748857" lon="11.5332468348">
		<tag k="name" v="Langvann" />
		<tag k="natural" v="water" />
		<tag k="ssr:stedsnr" v="366438" />
	</node>
	<node id="-1203" lat="59.0337638905" lon="11.5472222221">
		<tag k="name" v="Mjølnareneset" />
		<tag k="natural" v="cape" />
		<tag k="ssr:stedsnr" v="366420" />
	</node>
	<node id="-1198" lat="59.1660750002" lon="11.4835833298">
		<tag k="alt_name" v="Jøvikbukta" />
		<tag k="name" v="Mørkebukt" />
		<tag k="natural" v="bay" />
		<tag k="ssr:stedsnr" v="366095" />
	</node>
	<node id="-3244" lat="58.8899027769" lon="11.5007861172">
		<tag k="name" v="Kvernbukta" />
		<tag k="natural" v="bay" />
		<tag k="ssr:stedsnr" v="840560" />
	</node>
	<node id="-1195" lat="59.1840027774" lon="11.4950194456">
		<tag k="alt_name" v="Torebytjern" />
		<tag k="name" v="Torbytjern" />
		<tag k="natural" v="water" />
		<tag k="ssr:stedsnr" v="366068" />
	</node>
	<node id="-3242" lat="59.0573888934" lon="11.5389805548">
		<tag k="name" v="Brutjern" />
		<tag k="natural" v="water" />
		<tag k="ssr:stedsnr" v="840523" />
	</node>
	<node id="-3241" lat="59.0447679081" lon="11.5073787688">
		<tag k="name" v="Abbortjern" />
		<tag k="natural" v="water" />
		<tag k="ssr:stedsnr" v="840517" />
	</node>
	<node id="-1192" lat="59.1344694402" lon="11.5640916664">
		<tag k="name" v="Abbortjern" />
		<tag k="natural" v="water" />
		<tag k="ssr:stedsnr" v="366034" />
	</node>
	<node id="-1564" lat="59.1184249982" lon="11.6249027759">
		<tag k="name" v="Kutjern" />
		<tag k="natural" v="water" />
		<tag k="ssr:stedsnr" v="63078" />
	</node>
	<node id="-1190" lat="59.1351999975" lon="11.471958338">
		<tag k="name" v="Gjernesøya" />
		<tag k="place" v="islet" />
		<tag k="ssr:stedsnr" v="366005" />
	</node>
	<node id="-1188" lat="59.2297027795" lon="11.3984027789">
		<tag k="name" v="Kartmotjernet" />
		<tag k="natural" v="water" />
		<tag k="ssr:stedsnr" v="365953" />
	</node>
	<node id="-1187" lat="59.233249996" lon="11.3864333258">
		<tag k="alt_name" v="Bergsmarktjern" />
		<tag k="name" v="Bergsmarktjernet" />
		<tag k="natural" v="water" />
		<tag k="ssr:stedsnr" v="365951" />
	</node>
	<node id="-3232" lat="59.0350277747" lon="11.4847722226">
		<tag k="name" v="Skoletjern" />
		<tag k="natural" v="water" />
		<tag k="ssr:stedsnr" v="812762" />
	</node>
	<node id="-3230" lat="59.2384638855" lon="11.4854138822">
		<tag k="name" v="Buneselva" />
		<tag k="ssr:stedsnr" v="811838" />
		<tag k="waterway" v="stream" />
	</node>
	<node id="-3229" lat="59.2399805521" lon="11.4994555557">
		<tag k="name" v="Krokbekken" />
		<tag k="ssr:stedsnr" v="811835" />
		<tag k="waterway" v="stream" />
	</node>
	<node id="-3227" lat="59.1884972268" lon="11.4640861053">
		<tag k="name" v="Setertjern" />
		<tag k="natural" v="water" />
		<tag k="ssr:stedsnr" v="811822" />
	</node>
	<node id="-3224" lat="59.1895694488" lon="11.4715555558">
		<tag k="name" v="Stutsrødtjern" />
		<tag k="natural" v="water" />
		<tag k="ssr:stedsnr" v="811814" />
	</node>
	<node id="-3223" lat="59.1941222194" lon="11.4177527701">
		<tag k="name" v="Bjørbekken" />
		<tag k="ssr:stedsnr" v="811802" />
		<tag k="waterway" v="stream" />
	</node>
	<node id="-1171" lat="58.9887583327" lon="11.4794472179">
		<tag k="name" v="Folkå" />
		<tag k="ssr:stedsnr" v="365817" />
		<tag k="waterway" v="stream" />
	</node>
	<node id="-1169" lat="59.2426157246" lon="11.3858086945">
		<tag k="name" v="Stiksvann" />
		<tag k="natural" v="water" />
		<tag k="ssr:stedsnr" v="365589" />
		<tag k="water" v="lake" />
	</node>
	<node id="-1167" lat="59.0803944416" lon="11.6461944428">
		<tag k="name" v="Øvre Sørvannet" />
		<tag k="natural" v="water" />
		<tag k="ssr:stedsnr" v="365495" />
	</node>
	<node id="-1164" lat="59.104805553" lon="11.555041671">
		<tag k="name" v="Stormyrtjerna" />
		<tag k="natural" v="water" />
		<tag k="ssr:stedsnr" v="365462" />
	</node>
	<node id="-1163" lat="59.0638749986" lon="11.6336166691">
		<tag k="name" v="Lille Haugåstjern" />
		<tag k="natural" v="water" />
		<tag k="ssr:stedsnr" v="365410" />
	</node>
	<node id="-1162" lat="59.0614416685" lon="11.6694916719">
		<tag k="name" v="Nordre Boksjø" />
		<tag k="natural" v="water" />
		<tag k="ssr:stedsnr" v="365396" />
		<tag k="water" v="lake" />
	</node>
	<node id="-1161" lat="59.0137694415" lon="11.543533336">
		<tag k="name" v="Båsen" />
		<tag k="natural" v="bay" />
		<tag k="ssr:stedsnr" v="365344" />
	</node>
	<node id="-1156" lat="59.2128944434" lon="11.5247138875">
		<tag k="alt_name" v="Langetjern, s" />
		<tag k="name" v="Langetjern" />
		<tag k="natural" v="water" />
		<tag k="ssr:stedsnr" v="365159" />
	</node>
	<node id="-1155" lat="59.2267444446" lon="11.5682055494">
		<tag k="name" v="Åsgårdsposten" />
		<tag k="natural" v="water" />
		<tag k="ssr:stedsnr" v="365154" />
	</node>
	<node id="-1154" lat="59.2380666703" lon="11.4736500047">
		<tag k="name" v="Bunessjøen" />
		<tag k="natural" v="water" />
		<tag k="ssr:stedsnr" v="365140" />
		<tag k="water" v="lake" />
	</node>
	<node id="-1216" lat="58.9634194452" lon="11.513555556">
		<tag k="name" v="Endetjern" />
		<tag k="natural" v="water" />
		<tag k="ssr:stedsnr" v="366817" />
	</node>
	<node id="-1150" lat="58.9313472217" lon="11.6479472267">
		<tag k="name" v="Skaløya" />
		<tag k="place" v="islet" />
		<tag k="ssr:stedsnr" v="364198" />
	</node>
	<node id="-1149" lat="58.928491665" lon="11.6535666746">
		<tag k="alt_name" v="Finsvikøya" />
		<tag k="name" v="Finnsvikøya" />
		<tag k="place" v="islet" />
		<tag k="ssr:stedsnr" v="364196" />
	</node>
	<node id="-1148" lat="58.9265862439" lon="11.5977424532">
		<tag k="alt_name" v="Ormtjern" />
		<tag k="name" v="Ormetjern" />
		<tag k="natural" v="water" />
		<tag k="ssr:stedsnr" v="364179" />
	</node>
	<node id="-1145" lat="58.9166693267" lon="11.6323275176">
		<tag k="fixme" v="multiple name tags, choose one and add the other to alt_name" />
		<tag k="name" v="Bergøya;Brennøya" />
		<tag k="place" v="islet" />
		<tag k="ssr:stedsnr" v="364162" />
	</node>
	<node id="-3188" lat="58.9454138919" lon="11.5379777736">
		<tag k="name" v="Vesletjern" />
		<tag k="natural" v="water" />
		<tag k="ssr:stedsnr" v="791856" />
	</node>
	<node id="-1138" lat="59.0506444467" lon="11.5583972277">
		<tag k="name" v="Ånerødneset" />
		<tag k="natural" v="cape" />
		<tag k="ssr:stedsnr" v="354962" />
	</node>
	<node id="-1136" lat="59.0746277806" lon="11.6544055516">
		<tag k="name" v="Saubukta" />
		<tag k="natural" v="bay" />
		<tag k="ssr:stedsnr" v="354953" />
	</node>
	<node id="-1134" lat="59.0668444458" lon="11.6280000036">
		<tag k="name" v="Svelta" />
		<tag k="natural" v="water" />
		<tag k="ssr:stedsnr" v="354950" />
	</node>
	<node id="-3180" lat="59.0318277788" lon="11.6533194374">
		<tag k="alt_name" v="Store Stenslundtjern" />
		<tag k="name" v="Stenslundtjerna" />
		<tag k="natural" v="water" />
		<tag k="ssr:stedsnr" v="791388" />
	</node>
	<node id="-3179" lat="59.0306083341" lon="11.5447250024">
		<tag k="alt_name" v="Bekkevika" />
		<tag k="name" v="Bekkevik" />
		<tag k="natural" v="bay" />
		<tag k="ssr:stedsnr" v="791382" />
	</node>
	<node id="-3178" lat="59.0190285672" lon="11.6892039152">
		<tag k="name" v="Store Sandvik" />
		<tag k="natural" v="bay" />
		<tag k="ssr:stedsnr" v="791325" />
	</node>
	<node id="-3176" lat="59.1656944436" lon="11.5278944431">
		<tag k="name" v="Storøya" />
		<tag k="place" v="islet" />
		<tag k="ssr:stedsnr" v="791109" />
	</node>
	<node id="-1127" lat="58.9338944423" lon="11.6460388893">
		<tag k="name" v="Fårodden" />
		<tag k="natural" v="cape" />
		<tag k="ssr:stedsnr" v="354815" />
	</node>
	<node id="-1124" lat="59.0307096627" lon="11.6691510617">
		<tag k="name" v="Bjørndalstjernet" />
		<tag k="natural" v="water" />
		<tag k="ssr:stedsnr" v="354753" />
	</node>
	<node id="-3169" lat="58.9587174243" lon="11.4645698551">
		<tag k="name" v="Otertjern" />
		<tag k="natural" v="water" />
		<tag k="ssr:stedsnr" v="790865" />
	</node>
	<node id="-3158" lat="59.2363749988" lon="11.4048999975">
		<tag k="alt_name" v="Gjeddetjern" />
		<tag k="name" v="Gjeddetjernet" />
		<tag k="natural" v="water" />
		<tag k="ssr:stedsnr" v="790616" />
	</node>
	<node id="-3156" lat="59.0719305542" lon="11.6254222305">
		<tag k="name" v="Langetjern" />
		<tag k="natural" v="water" />
		<tag k="ssr:stedsnr" v="790485" />
	</node>
	<node id="-3154" lat="59.0721388917" lon="11.6805472252">
		<tag k="name" v="Kruketjern" />
		<tag k="natural" v="water" />
		<tag k="ssr:stedsnr" v="790394" />
	</node>
	<node id="-1102" lat="59.1058166675" lon="11.5512777708">
		<tag k="name" v="Stormyrtjern" />
		<tag k="natural" v="water" />
		<tag k="ssr:stedsnr" v="354571" />
	</node>
	<node id="-3149" lat="59.0575962292" lon="11.5513964937">
		<tag k="name" v="Damtjern" />
		<tag k="natural" v="water" />
		<tag k="ssr:stedsnr" v="790371" />
	</node>
	<node id="-3148" lat="59.053697223" lon="11.6431805596">
		<tag k="name" v="Svarttjern" />
		<tag k="natural" v="water" />
		<tag k="ssr:stedsnr" v="790370" />
	</node>
	<node id="-3147" lat="59.0557611068" lon="11.6274305583">
		<tag k="name" v="Otertjern" />
		<tag k="natural" v="water" />
		<tag k="ssr:stedsnr" v="790368" />
	</node>
	<node id="-1097" lat="59.0453166704" lon="11.6845777783">
		<tag k="name" v="Kaseøya" />
		<tag k="place" v="island" />
		<tag k="ssr:stedsnr" v="354532" />
	</node>
	<node id="-1096" lat="59.1463111073" lon="11.6327805626">
		<tag k="name" v="Stenselva" />
		<tag k="ssr:stedsnr" v="354516" />
		<tag k="waterway" v="river" />
	</node>
	<node id="-1094" lat="59.142316665" lon="11.5115027747">
		<tag k="name" v="Burutangen" />
		<tag k="natural" v="cape" />
		<tag k="ssr:stedsnr" v="353905" />
	</node>
	<node id="-3139" lat="59.1728527756" lon="11.5914305631">
		<tag k="name" v="Veggesdalsbekken" />
		<tag k="ssr:stedsnr" v="790084" />
		<tag k="waterway" v="stream" />
	</node>
	<node id="-3136" lat="59.193124999" lon="11.57298889">
		<tag k="name" v="Gørrtjern" />
		<tag k="natural" v="water" />
		<tag k="ssr:stedsnr" v="790056" />
	</node>
	<node id="-3133" lat="58.8960111115" lon="11.6017666625">
		<tag k="name" v="Branntjern" />
		<tag k="natural" v="water" />
		<tag k="ssr:stedsnr" v="789254" />
	</node>
	<node id="-3132" lat="58.8926055572" lon="11.4710583379">
		<tag k="alt_name" v="Halvfarsvannet" />
		<tag k="name" v="Halvfarsvann" />
		<tag k="natural" v="water" />
		<tag k="ssr:stedsnr" v="789251" />
	</node>
	<node id="-3131" lat="58.9393472187" lon="11.6306361055">
		<tag k="name" v="Langtjern" />
		<tag k="natural" v="water" />
		<tag k="ssr:stedsnr" v="789199" />
	</node>
	<node id="-3129" lat="58.9238835103" lon="11.5597717827">
		<tag k="name" v="Sandvann" />
		<tag k="natural" v="water" />
		<tag k="ssr:stedsnr" v="789174" />
		<tag k="water" v="lake" />
	</node>
	<node id="-3128" lat="58.9253166686" lon="11.5651555499">
		<tag k="alt_name" v="Sjøtjern" />
		<tag k="name" v="Sevtjern" />
		<tag k="natural" v="water" />
		<tag k="ssr:stedsnr" v="789172" />
	</node>
	<node id="-3127" lat="58.9234900995" lon="11.6096374566">
		<tag k="alt_name" v="Holevann" />
		<tag k="name" v="Hølvannet" />
		<tag k="natural" v="water" />
		<tag k="ssr:stedsnr" v="789163" />
		<tag k="water" v="lake" />
	</node>
	<node id="-3121" lat="58.9705944435" lon="11.5902499948">
		<tag k="name" v="Damtjern" />
		<tag k="natural" v="water" />
		<tag k="ssr:stedsnr" v="789048" />
	</node>
	<node id="-3120" lat="58.9325750024" lon="11.6181805482">
		<tag k="name" v="Damtjern" />
		<tag k="natural" v="water" />
		<tag k="ssr:stedsnr" v="789031" />
	</node>
	<node id="-3115" lat="59.0134700322" lon="11.5229972853">
		<tag k="name" v="Dalbutjern" />
		<tag k="natural" v="water" />
		<tag k="ssr:stedsnr" v="779988" />
	</node>
	<node id="-1062" lat="59.0272444421" lon="11.4770277757">
		<tag k="name" v="Mellemtjern" />
		<tag k="natural" v="water" />
		<tag k="ssr:stedsnr" v="325257" />
	</node>
	<node id="-3109" lat="59.0031973178" lon="11.5792708072">
		<tag k="name" v="Bråtenetjern" />
		<tag k="natural" v="water" />
		<tag k="ssr:stedsnr" v="779926" />
	</node>
	<node id="-3108" lat="59.081550001" lon="11.5924666707">
		<tag k="name" v="Kjellingtjern" />
		<tag k="natural" v="water" />
		<tag k="ssr:stedsnr" v="779909" />
	</node>
	<node id="-1057" lat="58.9661416681" lon="11.4659916721">
		<tag k="name" v="Søndre Svarthøltjern" />
		<tag k="natural" v="water" />
		<tag k="ssr:stedsnr" v="325170" />
	</node>
	<node id="-3101" lat="58.9373888927" lon="11.6500249929">
		<tag k="name" v="Lille Mosvik" />
		<tag k="natural" v="bay" />
		<tag k="ssr:stedsnr" v="779804" />
	</node>
	<node id="-3098" lat="59.0224281595" lon="11.6885916528">
		<tag k="name" v="Hallerødsetertjern" />
		<tag k="natural" v="water" />
		<tag k="ssr:stedsnr" v="779744" />
	</node>
	<node id="-3096" lat="59.2206999998" lon="11.3877999926">
		<tag k="name" v="Stutetjern" />
		<tag k="natural" v="water" />
		<tag k="ssr:stedsnr" v="779731" />
	</node>
	<node id="-3094" lat="59.0927472236" lon="11.602672228">
		<tag k="name" v="Dyvelvassdraget" />
		<tag k="ssr:stedsnr" v="779714" />
		<tag k="waterway" v="river" />
	</node>
	<node id="-3093" lat="59.2150722252" lon="11.571713887">
		<tag k="name" v="Muretjern" />
		<tag k="natural" v="water" />
		<tag k="ssr:stedsnr" v="779709" />
	</node>
	<node id="-3086" lat="59.1085944264" lon="11.6317519558">
		<tag k="name" v="Bjergingstjern" />
		<tag k="natural" v="water" />
		<tag k="ssr:stedsnr" v="779616" />
	</node>
	<node id="-1033" lat="59.2060249971" lon="11.4628499942">
		<tag k="alt_name" v="Ertetjern" />
		<tag k="name" v="Ertetjernet" />
		<tag k="natural" v="water" />
		<tag k="ssr:stedsnr" v="305986" />
	</node>
	<node id="-3078" lat="59.1006999975" lon="11.5660916592">
		<tag k="name" v="Ørdalsbukta" />
		<tag k="natural" v="bay" />
		<tag k="ssr:stedsnr" v="779563" />
	</node>
	<node id="-1026" lat="58.9684793134" lon="11.4665229783">
		<tag k="name" v="Svartholstjerna" />
		<tag k="natural" v="water" />
		<tag k="ssr:stedsnr" v="305839" />
		<tag k="water" v="lake" />
	</node>
	<node id="-1024" lat="58.9727694456" lon="11.5617388845">
		<tag k="name" v="Smørtjern" />
		<tag k="natural" v="water" />
		<tag k="ssr:stedsnr" v="305824" />
	</node>
	<node id="-1536" lat="59.0817999982" lon="11.5567722288">
		<tag k="name" v="Ørdalstjern" />
		<tag k="natural" v="water" />
		<tag k="ssr:stedsnr" v="62487" />
	</node>
	<node id="-1021" lat="58.9895666682" lon="11.6630361031">
		<tag k="name" v="Svanetjern" />
		<tag k="natural" v="water" />
		<tag k="ssr:stedsnr" v="305799" />
	</node>
	<node id="-1020" lat="59.0911416624" lon="11.653936109">
		<tag k="alt_name" v="Orretjern" />
		<tag k="name" v="Øretjern" />
		<tag k="natural" v="water" />
		<tag k="ssr:stedsnr" v="305529" />
	</node>
	<node id="-3064" lat="59.1702472202" lon="11.3974666737">
		<tag k="name" v="Tutjern" />
		<tag k="natural" v="water" />
		<tag k="ssr:stedsnr" v="750819" />
	</node>
	<node id="-1013" lat="59.0672388884" lon="11.676850005">
		<tag k="name" v="Krukebukta" />
		<tag k="natural" v="bay" />
		<tag k="ssr:stedsnr" v="305401" />
	</node>
	<node id="-1012" lat="59.0229694474" lon="11.7030500056">
		<tag k="alt_name" v="Orøya" />
		<tag k="name" v="Ørøya" />
		<tag k="place" v="islet" />
		<tag k="ssr:stedsnr" v="305354" />
	</node>
	<node id="-1011" lat="59.0238722229" lon="11.6066138906">
		<tag k="alt_name" v="Gjeddelundtjernet" />
		<tag k="name" v="Geddelundtjern" />
		<tag k="natural" v="water" />
		<tag k="ssr:stedsnr" v="305338" />
	</node>
	<node id="-1193" lat="59.1269999959" lon="11.6397361193">
		<tag k="alt_name" v="Nøsthølelva" />
		<tag k="name" v="Nøstholelva" />
		<tag k="ssr:stedsnr" v="366039" />
		<tag k="waterway" v="stream" />
	</node>
	<node id="-1191" lat="59.1323229888" lon="11.5236215756">
		<tag k="name" v="Krusetertjern" />
		<tag k="natural" v="water" />
		<tag k="ssr:stedsnr" v="366033" />
	</node>
	<node id="-1000" lat="59.2092999965" lon="11.5251305507">
		<tag k="alt_name" v="Lomtjern" />
		<tag k="name" v="Lommetjern" />
		<tag k="natural" v="water" />
		<tag k="ssr:stedsnr" v="305149" />
	</node>
	<node id="-1532" lat="59.1071384244" lon="11.5179638141">
		<tag k="alt_name" v="Klepperøya" />
		<tag k="name" v="Leongerøya" />
		<tag k="place" v="islet" />
		<tag k="ssr:stedsnr" v="62455" />
	</node>
	<node id="-996" lat="59.1625194443" lon="11.5117083304">
		<tag k="alt_name" v="Svendsholmen" />
		<tag k="name" v="Svensholmen" />
		<tag k="place" v="islet" />
		<tag k="ssr:stedsnr" v="305105" />
	</node>
	<node id="-994" lat="59.1489194454" lon="11.5698416619">
		<tag k="name" v="Stenselva" />
		<tag k="ssr:stedsnr" v="305017" />
		<tag k="waterway" v="river" />
	</node>
	<node id="-3031" lat="59.1230999956" lon="11.5855944471">
		<tag k="alt_name" v="Mellem Mørtvik" />
		<tag k="name" v="Midtre Mørtvik" />
		<tag k="natural" v="bay" />
		<tag k="ssr:stedsnr" v="731049" />
	</node>
	<node id="-981" lat="59.1139583289" lon="11.578894448">
		<tag k="name" v="Hestneset" />
		<tag k="natural" v="cape" />
		<tag k="ssr:stedsnr" v="304452" />
	</node>
	<node id="-3028" lat="59.2227000029" lon="11.4099000003">
		<tag k="alt_name" v="Ravnetjern" />
		<tag k="name" v="Ramntjernet" />
		<tag k="natural" v="water" />
		<tag k="ssr:stedsnr" v="730921" />
	</node>
	<node id="-3027" lat="59.2107329571" lon="11.4011476943">
		<tag k="alt_name" v="Femtjern" />
		<tag k="name" v="Femtjerna" />
		<tag k="natural" v="water" />
		<tag k="ssr:stedsnr" v="730915" />
	</node>
	<node id="-978" lat="59.0131444454" lon="11.5505944411">
		<tag k="alt_name" v="Hestøyene store" />
		<tag k="name" v="Hestøyane" />
		<tag k="place" v="islet" />
		<tag k="ssr:stedsnr" v="304330" />
	</node>
	<node id="-3023" lat="58.9546444441" lon="11.6764111075">
		<tag k="alt_name" v="Bokøya" />
		<tag k="name" v="Bukkøya" />
		<tag k="place" v="islet" />
		<tag k="ssr:stedsnr" v="730874" />
	</node>
	<node id="-3021" lat="58.9577277824" lon="11.5555611033">
		<tag k="alt_name" v="Rotjern nordre;Rødtjern nordre" />
		<tag k="name" v="Nordre Rotjern" />
		<tag k="natural" v="water" />
		<tag k="ssr:stedsnr" v="730867" />
	</node>
	<node id="-3019" lat="58.962308334" lon="11.6734222222">
		<tag k="name" v="Skjeggerødneset" />
		<tag k="natural" v="cape" />
		<tag k="ssr:stedsnr" v="730853" />
	</node>
	<node id="-919" lat="58.9166805571" lon="11.6414888914">
		<tag k="name" v="Sandbukta" />
		<tag k="natural" v="bay" />
		<tag k="ssr:stedsnr" v="293632" />
	</node>
	<node id="-3015" lat="59.0989266688" lon="11.6613648291">
		<tag k="name" v="Stensvannet" />
		<tag k="natural" v="water" />
		<tag k="ssr:stedsnr" v="730463" />
		<tag k="water" v="lake" />
	</node>
	<node id="-962" lat="59.1229861074" lon="11.5549500036">
		<tag k="name" v="Sakssæterøyene" />
		<tag k="place" v="island" />
		<tag k="ssr:stedsnr" v="293986" />
	</node>
	<node id="-961" lat="59.1410138847" lon="11.5322333251">
		<tag k="name" v="Ganerødelva" />
		<tag k="ssr:stedsnr" v="293984" />
		<tag k="waterway" v="river" />
	</node>
	<node id="-3007" lat="59.0702166654" lon="11.5519666671">
		<tag k="name" v="Kuletjern" />
		<tag k="natural" v="water" />
		<tag k="ssr:stedsnr" v="730404" />
	</node>
	<node id="-3006" lat="59.0600972254" lon="11.6236111032">
		<tag k="name" v="Strevletjern" />
		<tag k="natural" v="water" />
		<tag k="ssr:stedsnr" v="730386" />
	</node>
	<node id="-953" lat="59.0059277776" lon="11.5864972228">
		<tag k="name" v="Mørttjern" />
		<tag k="natural" v="water" />
		<tag k="ssr:stedsnr" v="293933" />
	</node>
	<node id="-951" lat="59.005920438" lon="11.5705506132">
		<tag k="name" v="Engerintjernene" />
		<tag k="natural" v="water" />
		<tag k="ssr:stedsnr" v="293930" />
	</node>
	<node id="-950" lat="59.0025214306" lon="11.5649882147">
		<tag k="name" v="Bektjern" />
		<tag k="natural" v="water" />
		<tag k="ssr:stedsnr" v="293927" />
	</node>
	<node id="-949" lat="58.9939611097" lon="11.5510388824">
		<tag k="name" v="Bekmobukta" />
		<tag k="natural" v="bay" />
		<tag k="ssr:stedsnr" v="293921" />
	</node>
	<node id="-948" lat="59.0050166658" lon="11.5490527741">
		<tag k="name" v="Tranvik" />
		<tag k="natural" v="bay" />
		<tag k="ssr:stedsnr" v="293917" />
	</node>
	<node id="-947" lat="59.0794861101" lon="11.5805999993">
		<tag k="name" v="Hafsrødtjern" />
		<tag k="natural" v="water" />
		<tag k="ssr:stedsnr" v="293906" />
	</node>
	<node id="-2990" lat="59.1781250027" lon="11.5807305558">
		<tag k="name" v="Fisma" />
		<tag k="ssr:stedsnr" v="730080" />
		<tag k="waterway" v="river" />
	</node>
	<node id="-1181" lat="59.2101499986" lon="11.3899999947">
		<tag k="alt_name" v="Vasstjern" />
		<tag k="name" v="Vasstjernet" />
		<tag k="natural" v="water" />
		<tag k="ssr:stedsnr" v="365916" />
	</node>
	<node id="-939" lat="59.1200388883" lon="11.569494445">
		<tag k="name" v="Bukkholmene" />
		<tag k="place" v="islet" />
		<tag k="ssr:stedsnr" v="293730" />
	</node>
	<node id="-2986" lat="58.9443472263" lon="11.4742138976">
		<tag k="name" v="Tatertjern" />
		<tag k="natural" v="water" />
		<tag k="ssr:stedsnr" v="729872" />
	</node>
	<node id="-2985" lat="58.9336833374" lon="11.6523138925">
		<tag k="name" v="Nordre Kornsjø" />
		<tag k="natural" v="water" />
		<tag k="ssr:stedsnr" v="729868" />
		<tag k="water" v="lake" />
	</node>
	<node id="-2984" lat="58.9364833296" lon="11.5569722233">
		<tag k="name" v="Holmvannet" />
		<tag k="natural" v="water" />
		<tag k="ssr:stedsnr" v="729863" />
	</node>
	<node id="-935" lat="59.0944694462" lon="11.5911916647">
		<tag k="name" v="Mørteelva" />
		<tag k="ssr:stedsnr" v="293707" />
		<tag k="waterway" v="river" />
	</node>
	<node id="-933" lat="59.0905944439" lon="11.5931166629">
		<tag k="name" v="Mørtenes" />
		<tag k="natural" v="cape" />
		<tag k="ssr:stedsnr" v="293701" />
	</node>
	<node id="-2978" lat="58.9999749997" lon="11.5413833323">
		<tag k="name" v="Ørsjøen" />
		<tag k="natural" v="water" />
		<tag k="ssr:stedsnr" v="729793" />
		<tag k="water" v="lake" />
	</node>
	<node id="-2971" lat="58.8951777796" lon="11.527988881">
		<tag k="alt_name" v="Grefsrødøya" />
		<tag k="name" v="Grefsrødholmen" />
		<tag k="place" v="islet" />
		<tag k="ssr:stedsnr" v="729270" />
	</node>
	<node id="-2970" lat="58.9374805589" lon="11.6012222296">
		<tag k="alt_name" v="Pålsbudamtjern" />
		<tag k="name" v="Damtjern" />
		<tag k="natural" v="water" />
		<tag k="ssr:stedsnr" v="729186" />
	</node>
	<node id="-2968" lat="58.9250972249" lon="11.467961108">
		<tag k="name" v="Lurkevanna" />
		<tag k="natural" v="water" />
		<tag k="ssr:stedsnr" v="729170" />
	</node>
	<node id="-2967" lat="58.9207999978" lon="11.5645416651">
		<tag k="alt_name" v="Kallorstjern" />
		<tag k="name" v="Kalåstjern" />
		<tag k="natural" v="water" />
		<tag k="ssr:stedsnr" v="729166" />
	</node>
	<node id="-2966" lat="58.92523889" lon="11.6170000034">
		<tag k="name" v="Stutøye" />
		<tag k="natural" v="water" />
		<tag k="ssr:stedsnr" v="729161" />
	</node>
	<node id="-2964" lat="58.9188444419" lon="11.6564722287">
		<tag k="name" v="Nordre Kornsjø" />
		<tag k="natural" v="water" />
		<tag k="ssr:stedsnr" v="729154" />
		<tag k="water" v="lake" />
	</node>
	<node id="-2963" lat="58.9130944488" lon="11.5380194478">
		<tag k="alt_name" v="Tittertjern" />
		<tag k="name" v="Tittaretjern" />
		<tag k="natural" v="water" />
		<tag k="ssr:stedsnr" v="729151" />
	</node>
	<node id="-2962" lat="58.9130944423" lon="11.5994916613">
		<tag k="alt_name" v="Svantjern lille" />
		<tag k="name" v="Lille Svantjern" />
		<tag k="natural" v="water" />
		<tag k="ssr:stedsnr" v="729137" />
	</node>
	<node id="-2961" lat="58.9053888889" lon="11.5037277753">
		<tag k="alt_name" v="Pattjern" />
		<tag k="name" v="Puttjern" />
		<tag k="natural" v="water" />
		<tag k="ssr:stedsnr" v="729136" />
	</node>
	<node id="-2958" lat="58.8971416695" lon="11.4667472288">
		<tag k="alt_name" v="Årbutjern" />
		<tag k="name" v="Årbutjernet" />
		<tag k="natural" v="water" />
		<tag k="ssr:stedsnr" v="729126" />
	</node>
	<node id="-909" lat="59.0591083358" lon="11.6667444502">
		<tag k="name" v="Hauglundfjorden" />
		<tag k="natural" v="water" />
		<tag k="old_name" v="Hauglundfjoden" />
		<tag k="ssr:stedsnr" v="293552" />
	</node>
	<node id="-901" lat="59.0625698732" lon="11.5378053844">
		<tag k="name" v="Blakkmosetjern" />
		<tag k="natural" v="water" />
		<tag k="ssr:stedsnr" v="415559" />
	</node>
	<node id="-2946" lat="59.0875833312" lon="11.5518777742">
		<tag k="name" v="Boltetjern" />
		<tag k="natural" v="water" />
		<tag k="ssr:stedsnr" v="718976" />
	</node>
	<node id="-2943" lat="59.1732444422" lon="11.5496499991">
		<tag k="name" v="Rødselva" />
		<tag k="ssr:stedsnr" v="718894" />
		<tag k="waterway" v="river" />
	</node>
	<node id="-2941" lat="59.0481305523" lon="11.6057666713">
		<tag k="name" v="Jentetjern" />
		<tag k="natural" v="water" />
		<tag k="ssr:stedsnr" v="718888" />
	</node>
	<node id="-2935" lat="59.0611250008" lon="11.6590861122">
		<tag k="name" v="Svartebukta" />
		<tag k="natural" v="bay" />
		<tag k="ssr:stedsnr" v="718786" />
	</node>
	<node id="-2934" lat="59.0263388915" lon="11.5676583331">
		<tag k="name" v="Tangenbukta" />
		<tag k="natural" v="bay" />
		<tag k="ssr:stedsnr" v="718780" />
	</node>
	<node id="-2932" lat="59.0106277749" lon="11.5958555535">
		<tag k="name" v="Saleklevtjern" />
		<tag k="natural" v="water" />
		<tag k="ssr:stedsnr" v="718776" />
	</node>
	<node id="-2928" lat="58.938780558" lon="11.4712083293">
		<tag k="name" v="Stutøye" />
		<tag k="natural" v="water" />
		<tag k="ssr:stedsnr" v="718706" />
	</node>
	<node id="-2927" lat="59.1705722189" lon="11.5286083251">
		<tag k="name" v="Holmane" />
		<tag k="place" v="islet" />
		<tag k="ssr:stedsnr" v="718682" />
	</node>
	<node id="-2925" lat="59.1371388858" lon="11.6027722143">
		<tag k="name" v="Karstentjern" />
		<tag k="natural" v="water" />
		<tag k="ssr:stedsnr" v="718679" />
	</node>
	<node id="-2920" lat="59.0599999971" lon="11.6127888967">
		<tag k="name" v="Blanktjern" />
		<tag k="natural" v="water" />
		<tag k="ssr:stedsnr" v="718607" />
	</node>
	<node id="-2916" lat="58.8904305564" lon="11.5078194459">
		<tag k="name" v="Middagshøla" />
		<tag k="natural" v="bay" />
		<tag k="ssr:stedsnr" v="718585" />
	</node>
	<node id="-2906" lat="59.0089916662" lon="11.591325008">
		<tag k="name" v="Rotebustjern" />
		<tag k="natural" v="water" />
		<tag k="ssr:stedsnr" v="718933" />
	</node>
	<node id="-2894" lat="59.1256138908" lon="11.4492277803">
		<tag k="name" v="Tangen" />
		<tag k="natural" v="cape" />
		<tag k="ssr:stedsnr" v="690854" />
	</node>
	<node id="-2880" lat="59.0327944454" lon="11.4665111043">
		<tag k="name" v="Fiskeløsen" />
		<tag k="natural" v="water" />
		<tag k="ssr:stedsnr" v="690276" />
		<tag k="water" v="pond" />
	</node>
	<node id="-2874" lat="58.8872764017" lon="11.5093650209">
		<tag k="alt_name" v="Hogsjø søndre" />
		<tag k="name" v="Søndre Hogsjøen" />
		<tag k="natural" v="water" />
		<tag k="ssr:stedsnr" v="690212" />
	</node>
	<node id="-2870" lat="59.1120361086" lon="11.3032583275">
		<tag k="name" v="Unnebergbekken" />
		<tag k="ssr:stedsnr" v="690186" />
		<tag k="waterway" v="stream" />
	</node>
	<node id="-2851" lat="59.1162111093" lon="11.583813884">
		<tag k="name" v="Søndre Mørtvik" />
		<tag k="natural" v="bay" />
		<tag k="ssr:stedsnr" v="670070" />
	</node>
	<node id="-2850" lat="59.1171138913" lon="11.6079055557">
		<tag k="name" v="Sandsjøbekken" />
		<tag k="ssr:stedsnr" v="670064" />
		<tag k="waterway" v="stream" />
	</node>
	<node id="-2848" lat="59.1348597423" lon="11.6301775087">
		<tag k="alt_name" v="Trollnestjern" />
		<tag k="name" v="Trollnestjernet" />
		<tag k="natural" v="water" />
		<tag k="ssr:stedsnr" v="670025" />
		<tag k="water" v="lake" />
	</node>
	<node id="-2843" lat="59.2247000004" lon="11.3898472156">
		<tag k="alt_name" v="Lomtjern" />
		<tag k="name" v="Lomtjernet" />
		<tag k="natural" v="water" />
		<tag k="ssr:stedsnr" v="669911" />
	</node>
	<node id="-2842" lat="58.9802111081" lon="11.6455888842">
		<tag k="name" v="Brønntjern" />
		<tag k="natural" v="water" />
		<tag k="ssr:stedsnr" v="669801" />
	</node>
	<node id="-2838" lat="59.0200722217" lon="11.7008527725">
		<tag k="name" v="Søndre Boksjø" />
		<tag k="natural" v="water" />
		<tag k="ssr:stedsnr" v="669435" />
		<tag k="water" v="lake" />
	</node>
	<node id="-2834" lat="59.0635888882" lon="11.5265277864">
		<tag k="alt_name" v="Blankvann" />
		<tag k="name" v="Blanketjern" />
		<tag k="natural" v="water" />
		<tag k="ssr:stedsnr" v="669394" />
	</node>
	<node id="-2825" lat="58.9656722253" lon="11.5798083331">
		<tag k="name" v="Skittruk" />
		<tag k="natural" v="water" />
		<tag k="ssr:stedsnr" v="669834" />
	</node>
	<node id="-2819" lat="58.9785944455" lon="11.6359972174">
		<tag k="name" v="Åtjern" />
		<tag k="natural" v="water" />
		<tag k="ssr:stedsnr" v="669810" />
	</node>
	<node id="-2802" lat="58.9471194439" lon="11.6530666719">
		<tag k="name" v="Lille Løksvann" />
		<tag k="natural" v="water" />
		<tag k="ssr:stedsnr" v="668855" />
	</node>
	<node id="-2798" lat="59.244600002" lon="11.4132500041">
		<tag k="alt_name" v="Grasholt sjøene" />
		<tag k="name" v="Grasholtjernet" />
		<tag k="natural" v="water" />
		<tag k="ssr:stedsnr" v="668591" />
	</node>
	<node id="-2796" lat="59.1155111094" lon="11.6189027843">
		<tag k="name" v="Sandsjø" />
		<tag k="natural" v="water" />
		<tag k="ssr:stedsnr" v="668475" />
	</node>
	<node id="-2794" lat="59.0142250038" lon="11.5334583251">
		<tag k="name" v="Grågåstjern" />
		<tag k="natural" v="water" />
		<tag k="ssr:stedsnr" v="668374" />
	</node>
	<node id="-2793" lat="59.0140749962" lon="11.5937638862">
		<tag k="name" v="Åletjern" />
		<tag k="natural" v="water" />
		<tag k="ssr:stedsnr" v="668353" />
	</node>
	<node id="-2786" lat="58.9355499964" lon="11.6603138896">
		<tag k="alt_name" v="Lineset" />
		<tag k="name" v="Linneset" />
		<tag k="natural" v="cape" />
		<tag k="ssr:stedsnr" v="668194" />
	</node>
	<node id="-2785" lat="58.9323805598" lon="11.6549944506">
		<tag k="name" v="Løvøya" />
		<tag k="place" v="islet" />
		<tag k="ssr:stedsnr" v="668175" />
	</node>
	<node id="-2779" lat="58.9091888911" lon="11.6295583264">
		<tag k="name" v="Asketjern" />
		<tag k="natural" v="water" />
		<tag k="ssr:stedsnr" v="668143" />
	</node>
	<node id="-2778" lat="58.9060888896" lon="11.5809388965">
		<tag k="alt_name" v="Goddagenetjern" />
		<tag k="name" v="Godatjern" />
		<tag k="natural" v="water" />
		<tag k="ssr:stedsnr" v="668127" />
	</node>
	<node id="-2776" lat="58.9040555579" lon="11.6124277735">
		<tag k="alt_name" v="Grunntjern" />
		<tag k="name" v="Grøntjern" />
		<tag k="natural" v="water" />
		<tag k="ssr:stedsnr" v="668116" />
	</node>
	<node id="-2775" lat="58.9026972196" lon="11.6116138918">
		<tag k="name" v="Ormetjern" />
		<tag k="natural" v="water" />
		<tag k="ssr:stedsnr" v="668115" />
	</node>
	<node id="-1478" lat="59.1202416652" lon="11.540083326">
		<tag k="name" v="Bjørnetjern" />
		<tag k="natural" v="water" />
		<tag k="ssr:stedsnr" v="50886" />
	</node>
	<node id="-2768" lat="59.2333361085" lon="11.5576250051">
		<tag k="name" v="Rasmusdaltjern" />
		<tag k="natural" v="water" />
		<tag k="ssr:stedsnr" v="657996" />
	</node>
	<node id="-2766" lat="59.1322749973" lon="11.5353111184">
		<tag k="name" v="Lomtjern" />
		<tag k="natural" v="water" />
		<tag k="ssr:stedsnr" v="657982" />
	</node>
	<node id="-2763" lat="59.0642277746" lon="11.5525527773">
		<tag k="name" v="Klevtjern" />
		<tag k="natural" v="water" />
		<tag k="ssr:stedsnr" v="657948" />
	</node>
	<node id="-2757" lat="59.0000416647" lon="11.547952772">
		<tag k="name" v="Store Krokvik" />
		<tag k="natural" v="bay" />
		<tag k="ssr:stedsnr" v="657905" />
	</node>
	<node id="-2756" lat="59.0292700129" lon="11.5285434856">
		<tag k="name" v="Ellefsrødtjern" />
		<tag k="natural" v="water" />
		<tag k="ssr:stedsnr" v="657899" />
	</node>
	<node id="-2754" lat="59.00216944" lon="11.5237638889">
		<tag k="name" v="Stenersrødtjern" />
		<tag k="natural" v="water" />
		<tag k="ssr:stedsnr" v="657861" />
	</node>
	<node id="-1483" lat="59.021630553" lon="11.6689305543">
		<tag k="name" v="Lille Høljetjern" />
		<tag k="natural" v="water" />
		<tag k="ssr:stedsnr" v="50994" />
	</node>
	<node id="-2750" lat="58.9485638908" lon="11.6797138844">
		<tag k="name" v="Kvanøya" />
		<tag k="place" v="island" />
		<tag k="ssr:stedsnr" v="657775" />
	</node>
	<node id="-2746" lat="59.0181138908" lon="11.695194449">
		<tag k="name" v="Måkeskjæra" />
		<tag k="place" v="island" />
		<tag k="ssr:stedsnr" v="657710" />
	</node>
	<node id="-2731" lat="59.0927777744" lon="11.674494436">
		<tag k="name" v="Ryttermyrtjern" />
		<tag k="natural" v="water" />
		<tag k="ssr:stedsnr" v="657598" />
	</node>
	<node id="-2729" lat="59.0828249992" lon="11.6198138809">
		<tag k="name" v="Gullbrutjern" />
		<tag k="natural" v="water" />
		<tag k="ssr:stedsnr" v="657596" />
	</node>
	<node id="-2727" lat="58.9406555573" lon="11.5564722199">
		<tag k="name" v="Gjettjern" />
		<tag k="natural" v="water" />
		<tag k="ssr:stedsnr" v="657586" />
	</node>
	<node id="-2726" lat="58.8854638916" lon="11.5146805537">
		<tag k="name" v="Sjøhøla" />
		<tag k="natural" v="bay" />
		<tag k="ssr:stedsnr" v="657582" />
	</node>
	<node id="-2725" lat="59.1090416649" lon="11.5293305527">
		<tag k="name" v="Søletjern" />
		<tag k="natural" v="water" />
		<tag k="ssr:stedsnr" v="657574" />
	</node>
	<node id="-2723" lat="59.1129000023" lon="11.5635111075">
		<tag k="name" v="Klevtangen" />
		<tag k="natural" v="cape" />
		<tag k="ssr:stedsnr" v="657573" />
	</node>
	<node id="-2722" lat="59.1173472243" lon="11.5861222213">
		<tag k="name" v="Bjørnetangen" />
		<tag k="natural" v="cape" />
		<tag k="ssr:stedsnr" v="657570" />
	</node>
	<node id="-2717" lat="59.0442264065" lon="11.645274606">
		<tag k="name" v="Kroktjernungen" />
		<tag k="natural" v="water" />
		<tag k="ssr:stedsnr" v="657541" />
	</node>
	<node id="-2703" lat="59.1920111113" lon="11.4822083262">
		<tag k="name" v="Gjøldretjern" />
		<tag k="natural" v="water" />
		<tag k="ssr:stedsnr" v="629852" />
	</node>
	<node id="-1454" lat="59.2008277777" lon="11.4964361109">
		<tag k="name" v="Fugleputt" />
		<tag k="natural" v="water" />
		<tag k="ssr:stedsnr" v="22836" />
		<tag k="water" v="pond" />
	</node>
	<node id="-2699" lat="59.1260972246" lon="11.4180388845">
		<tag k="name" v="Skåningsfoss" />
		<tag k="natural" v="waterfall" />
		<tag k="ssr:stedsnr" v="629838" />
	</node>
	<node id="-1091" lat="59.0117161909" lon="11.7033910786">
		<tag k="fixme" v="multiple name tags, choose one and add the other to alt_name" />
		<tag k="name" v="Delesøya;Kalholmen" />
		<tag k="place" v="islet" />
		<tag k="ssr:stedsnr" v="353336" />
	</node>
	<node id="-1131" lat="59.029330556" lon="11.514061106">
		<tag k="name" v="Ekelitjern" />
		<tag k="natural" v="water" />
		<tag k="ssr:stedsnr" v="354904" />
	</node>
	<node id="-1450" lat="59.1513416648" lon="11.4807944376">
		<tag k="name" v="Lille Kjepina" />
		<tag k="place" v="islet" />
		<tag k="ssr:stedsnr" v="22818" />
	</node>
	<node id="-2658" lat="59.1309277796" lon="11.4872416728">
		<tag k="name" v="Vanninga" />
		<tag k="natural" v="bay" />
		<tag k="ssr:stedsnr" v="609032" />
	</node>
	<node id="-2656" lat="59.1380055601" lon="11.5044555514">
		<tag k="alt_name" v="Blæsebukta" />
		<tag k="name" v="Blæsebukt" />
		<tag k="natural" v="bay" />
		<tag k="ssr:stedsnr" v="609017" />
	</node>
	<node id="-2655" lat="59.1749500045" lon="11.441999998">
		<tag k="alt_name" v="Daltjern" />
		<tag k="name" v="Daltjernet" />
		<tag k="natural" v="water" />
		<tag k="ssr:stedsnr" v="608974" />
	</node>
	<node id="-2652" lat="59.2277140537" lon="11.3325203827">
		<tag k="name" v="Bergsjøen" />
		<tag k="natural" v="water" />
		<tag k="ssr:stedsnr" v="608930" />
		<tag k="water" v="lake" />
	</node>
	<node id="-2650" lat="59.2056000026" lon="11.3677027806">
		<tag k="alt_name" v="Haketjern" />
		<tag k="name" v="Haketjernet" />
		<tag k="natural" v="water" />
		<tag k="ssr:stedsnr" v="608910" />
	</node>
	<node id="-1465" lat="59.1271166621" lon="11.5196722298">
		<tag k="name" v="Ormtjern" />
		<tag k="natural" v="water" />
		<tag k="ssr:stedsnr" v="50657" />
	</node>
	<node id="-2638" lat="59.0857638971" lon="11.6649159754">
		<tag k="name" v="Fløttjern" />
		<tag k="natural" v="water" />
		<tag k="ssr:stedsnr" v="608530" />
	</node>
	<node id="-2636" lat="59.0408944449" lon="11.655813892">
		<tag k="name" v="Kutjern" />
		<tag k="natural" v="water" />
		<tag k="ssr:stedsnr" v="608423" />
	</node>
	<node id="-2630" lat="59.0124916634" lon="11.6422833259">
		<tag k="name" v="Store Morttjern" />
		<tag k="natural" v="water" />
		<tag k="ssr:stedsnr" v="608325" />
	</node>
	<node id="-2628" lat="59.0287638933" lon="11.6981027734">
		<tag k="name" v="Hisøya" />
		<tag k="place" v="island" />
		<tag k="ssr:stedsnr" v="608291" />
	</node>
	<node id="-2627" lat="59.2473416629" lon="11.5527277742">
		<tag k="alt_name" v="Bjørketjern" />
		<tag k="name" v="Bjerketjern" />
		<tag k="natural" v="water" />
		<tag k="ssr:stedsnr" v="608234" />
	</node>
	<node id="-2623" lat="59.2476361141" lon="11.4773777771">
		<tag k="alt_name" v="Ravnetjern" />
		<tag k="name" v="Ravntjern" />
		<tag k="natural" v="water" />
		<tag k="ssr:stedsnr" v="608207" />
	</node>
	<node id="-2608" lat="59.0775777739" lon="11.5007611127">
		<tag k="alt_name" v="Lomtjern" />
		<tag k="name" v="Lometjern" />
		<tag k="natural" v="water" />
		<tag k="ssr:stedsnr" v="607477" />
	</node>
	<node id="-2607" lat="59.0740344028" lon="11.6182318948">
		<tag k="name" v="Angerstjern" />
		<tag k="natural" v="water" />
		<tag k="ssr:stedsnr" v="607473" />
	</node>
	<node id="-2606" lat="59.1072972235" lon="11.6557805499">
		<tag k="name" v="Korstjern" />
		<tag k="natural" v="water" />
		<tag k="ssr:stedsnr" v="607458" />
	</node>
	<node id="-2605" lat="59.0727111118" lon="11.6649749975">
		<tag k="alt_name" v="Kjelundtjerna" />
		<tag k="name" v="Kjedelundtjerna" />
		<tag k="natural" v="water" />
		<tag k="ssr:stedsnr" v="607413" />
	</node>
	<node id="-2602" lat="58.8956138917" lon="11.4550388832">
		<tag k="alt_name" v="Vammen nordre" />
		<tag k="name" v="Nordre Vammen" />
		<tag k="natural" v="water" />
		<tag k="ssr:stedsnr" v="607249" />
	</node>
	<node id="-2601" lat="58.9373332753" lon="11.4726119199">
		<tag k="name" v="Kutjern" />
		<tag k="natural" v="water" />
		<tag k="ssr:stedsnr" v="607187" />
	</node>
	<node id="-2598" lat="58.9258025464" lon="11.5844635437">
		<tag k="alt_name" v="Nordre Eljevann" />
		<tag k="name" v="Øvre Elgvann" />
		<tag k="natural" v="water" />
		<tag k="ssr:stedsnr" v="607167" />
		<tag k="water" v="lake" />
	</node>
	<node id="-1457" lat="59.1186249989" lon="11.3695805616">
		<tag k="name" v="Haldenvassdraget" />
		<tag k="natural" v="water" />
		<tag k="ssr:stedsnr" v="44920" />
		<tag k="water" v="lake" />
	</node>
	<node id="-2596" lat="58.9141500033" lon="11.596183338">
		<tag k="alt_name" v="Svantjern store" />
		<tag k="name" v="Store Svantjern" />
		<tag k="natural" v="water" />
		<tag k="ssr:stedsnr" v="607158" />
	</node>
	<node id="-2594" lat="59.2423861127" lon="11.5244222153">
		<tag k="name" v="Lamyrbekken" />
		<tag k="ssr:stedsnr" v="607134" />
		<tag k="waterway" v="stream" />
	</node>
	<node id="-2591" lat="59.1729888889" lon="11.5468277729">
		<tag k="name" v="Rødselva" />
		<tag k="ssr:stedsnr" v="607083" />
		<tag k="waterway" v="river" />
	</node>
	<node id="-2580" lat="59.026758333" lon="11.5399444465">
		<tag k="name" v="Småtjerna" />
		<tag k="natural" v="water" />
		<tag k="ssr:stedsnr" v="596993" />
	</node>
	<node id="-2579" lat="59.2464000039" lon="11.5416249932">
		<tag k="name" v="Svarttjern" />
		<tag k="natural" v="water" />
		<tag k="ssr:stedsnr" v="596985" />
	</node>
	<node id="-2578" lat="59.103965657" lon="11.5405729048">
		<tag k="name" v="Bjørnetjern" />
		<tag k="natural" v="water" />
		<tag k="ssr:stedsnr" v="596968" />
	</node>
	<node id="-1518" lat="58.9275777745" lon="11.4618249983">
		<tag k="name" v="Kløvtjern" />
		<tag k="natural" v="water" />
		<tag k="ssr:stedsnr" v="61163" />
	</node>
	<node id="-2569" lat="59.0981944445" lon="11.5828611119">
		<tag k="name" v="Abbortjernbukta" />
		<tag k="natural" v="bay" />
		<tag k="ssr:stedsnr" v="596907" />
	</node>
	<node id="-2567" lat="58.9365583292" lon="11.6544999977">
		<tag k="name" v="Tømmerodden" />
		<tag k="natural" v="cape" />
		<tag k="ssr:stedsnr" v="596901" />
	</node>
	<node id="-2563" lat="59.2126805599" lon="11.3876611083">
		<tag k="name" v="Svarttjern" />
		<tag k="natural" v="water" />
		<tag k="ssr:stedsnr" v="596889" />
	</node>
	<node id="-1451" lat="59.2029361093" lon="11.3988861147">
		<tag k="name" v="Væretjern" />
		<tag k="natural" v="water" />
		<tag k="ssr:stedsnr" v="22831" />
	</node>
	<node id="-2560" lat="59.0366205612" lon="11.5433909175">
		<tag k="name" v="Ellefsrødkilen" />
		<tag k="natural" v="bay" />
		<tag k="ssr:stedsnr" v="596765" />
	</node>
	<node id="-2559" lat="59.0025666696" lon="11.5909999939">
		<tag k="name" v="Korstjern" />
		<tag k="natural" v="water" />
		<tag k="ssr:stedsnr" v="596753" />
	</node>
	<node id="-2557" lat="59.0270472231" lon="11.6933138852">
		<tag k="name" v="Hallerødsetersundet" />
		<tag k="natural" v="strait" />
		<tag k="ssr:stedsnr" v="596710" />
	</node>
	<node id="-2555" lat="59.0428111116" lon="11.5976388919">
		<tag k="name" v="Karlsåstjern" />
		<tag k="natural" v="water" />
		<tag k="ssr:stedsnr" v="596696" />
	</node>
	<node id="-2554" lat="59.2429222257" lon="11.5476638836">
		<tag k="name" v="Saksetjern" />
		<tag k="natural" v="water" />
		<tag k="ssr:stedsnr" v="596665" />
	</node>
	<node id="-2539" lat="58.9121555582" lon="11.5518444412">
		<tag k="name" v="Lille Rotvann" />
		<tag k="natural" v="water" />
		<tag k="ssr:stedsnr" v="596550" />
		<tag k="water" v="lake" />
	</node>
	<node id="-2535" lat="59.1039916683" lon="11.5966777741">
		<tag k="name" v="Sandsjøbekken" />
		<tag k="ssr:stedsnr" v="596533" />
		<tag k="waterway" v="stream" />
	</node>
	<node id="-2533" lat="59.0520333294" lon="11.6118333313">
		<tag k="name" v="Svarttjern" />
		<tag k="natural" v="water" />
		<tag k="ssr:stedsnr" v="596501" />
	</node>
	<node id="-2530" lat="59.0637777808" lon="11.5987166685">
		<tag k="name" v="Store Vardåstjern" />
		<tag k="natural" v="water" />
		<tag k="ssr:stedsnr" v="596485" />
	</node>
	<node id="-2529" lat="59.0726472259" lon="11.5639805597">
		<tag k="name" v="Svarttjern" />
		<tag k="natural" v="water" />
		<tag k="ssr:stedsnr" v="596483" />
	</node>
	<node id="-2528" lat="59.1115527777" lon="11.5091472166">
		<tag k="name" v="Søndre Svartkolltjern" />
		<tag k="natural" v="water" />
		<tag k="ssr:stedsnr" v="596477" />
	</node>
	<node id="-2527" lat="59.1019972246" lon="11.5215472205">
		<tag k="name" v="Klepperneset" />
		<tag k="natural" v="cape" />
		<tag k="ssr:stedsnr" v="596475" />
	</node>
	<node id="-2516" lat="59.1636361073" lon="11.4919444405">
		<tag k="name" v="Langenestangen" />
		<tag k="natural" v="cape" />
		<tag k="ssr:stedsnr" v="568837" />
	</node>
	<node id="-2515" lat="59.1839507348" lon="11.4805282517">
		<tag k="name" v="Folungtjern" />
		<tag k="natural" v="water" />
		<tag k="ssr:stedsnr" v="568831" />
	</node>
	<node id="-1100" lat="59.0896444483" lon="11.5417472239">
		<tag k="name" v="Rødlandsungen" />
		<tag k="natural" v="water" />
		<tag k="ssr:stedsnr" v="354551" />
	</node>
	<node id="-1311" lat="59.094602781" lon="11.663949995">
		<tag k="name" v="Stentjern" />
		<tag k="natural" v="water" />
		<tag k="ssr:stedsnr" v="475959" />
	</node>
	<node id="-2484" lat="58.9701875129" lon="11.4666806369">
		<tag k="name" v="Nordre Svarthøltjern" />
		<tag k="natural" v="water" />
		<tag k="ssr:stedsnr" v="567196" />
	</node>
	<node id="-2474" lat="58.9618861076" lon="11.5880833397">
		<tag k="name" v="Lindtjern" />
		<tag k="natural" v="water" />
		<tag k="ssr:stedsnr" v="548841" />
	</node>
	<node id="-2469" lat="59.0931638844" lon="11.6596111164">
		<tag k="name" v="Erikstjern" />
		<tag k="natural" v="water" />
		<tag k="ssr:stedsnr" v="548514" />
	</node>
	<node id="-2466" lat="59.0960388921" lon="11.5667694429">
		<tag k="name" v="Kverntjern" />
		<tag k="natural" v="water" />
		<tag k="ssr:stedsnr" v="548449" />
	</node>
	<node id="-2465" lat="59.0337773609" lon="11.7104385772">
		<tag k="name" v="Tåkeholmen" />
		<tag k="place" v="islet" />
		<tag k="ssr:stedsnr" v="548436" />
	</node>
	<node id="-2457" lat="59.1620833305" lon="11.5191611141">
		<tag k="name" v="Lilleøya" />
		<tag k="place" v="islet" />
		<tag k="ssr:stedsnr" v="548098" />
	</node>
	<node id="-2454" lat="59.1249055591" lon="11.567705557">
		<tag k="name" v="Kjetangen" />
		<tag k="natural" v="cape" />
		<tag k="ssr:stedsnr" v="548043" />
	</node>
	<node id="-2449" lat="59.2177527746" lon="11.3829527734">
		<tag k="alt_name" v="Hestetjern" />
		<tag k="name" v="Hestetjernet" />
		<tag k="natural" v="water" />
		<tag k="ssr:stedsnr" v="547920" />
	</node>
	<node id="-2442" lat="58.9767594535" lon="11.6180687235">
		<tag k="name" v="Abbortjern" />
		<tag k="natural" v="water" />
		<tag k="ssr:stedsnr" v="547839" />
	</node>
	<node id="-2440" lat="58.9720951926" lon="11.6073351993">
		<tag k="alt_name" v="Kvittjern" />
		<tag k="name" v="Kvitjern" />
		<tag k="natural" v="water" />
		<tag k="ssr:stedsnr" v="547834" />
	</node>
	<node id="-2438" lat="58.9821222189" lon="11.562727778">
		<tag k="name" v="Vardåstjern" />
		<tag k="natural" v="water" />
		<tag k="ssr:stedsnr" v="547823" />
	</node>
	<node id="-2437" lat="58.9855611102" lon="11.5041694477">
		<tag k="alt_name" v="Boltjern" />
		<tag k="name" v="Bordtjern" />
		<tag k="natural" v="water" />
		<tag k="ssr:stedsnr" v="547817" />
	</node>
	<node id="-2433" lat="59.1118611131" lon="11.6399555581">
		<tag k="alt_name" v="Duttemyrtjern" />
		<tag k="name" v="Duvlemyrtjern" />
		<tag k="natural" v="water" />
		<tag k="ssr:stedsnr" v="547498" />
	</node>
	<node id="-2432" lat="59.1019916711" lon="11.5406888921">
		<tag k="alt_name" v="Smedmyrtjern" />
		<tag k="name" v="Smedmyrtjerna" />
		<tag k="natural" v="water" />
		<tag k="ssr:stedsnr" v="547485" />
	</node>
	<node id="-2431" lat="59.1132000044" lon="11.569136105">
		<tag k="name" v="Store Erte" />
		<tag k="natural" v="water" />
		<tag k="ssr:stedsnr" v="547484" />
		<tag k="water" v="lake" />
	</node>
	<node id="-2430" lat="59.0995833309" lon="11.6325500069">
		<tag k="alt_name" v="Bjellåstjern" />
		<tag k="name" v="Bjellåstjernet" />
		<tag k="natural" v="water" />
		<tag k="ssr:stedsnr" v="547481" />
	</node>
	<node id="-2428" lat="59.0561944422" lon="11.504286112">
		<tag k="alt_name" v="Folkevannet" />
		<tag k="name" v="Folkevann" />
		<tag k="natural" v="water" />
		<tag k="ssr:stedsnr" v="547414" />
	</node>
	<node id="-2425" lat="59.0076166681" lon="11.6745333259">
		<tag k="name" v="Svarttjern" />
		<tag k="natural" v="water" />
		<tag k="ssr:stedsnr" v="547349" />
	</node>
	<node id="-2421" lat="59.1975416692" lon="11.5828611169">
		<tag k="name" v="Rødvassbekken" />
		<tag k="ssr:stedsnr" v="547189" />
		<tag k="waterway" v="stream" />
	</node>
	<node id="-2419" lat="58.9061694422" lon="11.6033833371">
		<tag k="alt_name" v="Kvittjern" />
		<tag k="name" v="Kvitjern" />
		<tag k="natural" v="water" />
		<tag k="ssr:stedsnr" v="547145" />
	</node>
	<node id="-2416" lat="58.9345434089" lon="11.5618432491">
		<tag k="alt_name" v="Holmvann" />
		<tag k="name" v="Bredmosetjern" />
		<tag k="natural" v="water" />
		<tag k="ssr:stedsnr" v="546173" />
	</node>
	<node id="-2415" lat="58.9287222224" lon="11.4686138972">
		<tag k="name" v="Svantjern" />
		<tag k="natural" v="water" />
		<tag k="ssr:stedsnr" v="546169" />
	</node>
	<node id="-2413" lat="58.9234456073" lon="11.5679193855">
		<tag k="fixme" v="multiple name tags, choose one and add the other to alt_name" />
		<tag k="name" v="Myrtjern;Stutøye" />
		<tag k="natural" v="water" />
		<tag k="ssr:stedsnr" v="546162" />
	</node>
	<node id="-2411" lat="58.904499998" lon="11.4915777735">
		<tag k="alt_name" v="Tordyveltjern" />
		<tag k="name" v="Tordiveltjern" />
		<tag k="natural" v="water" />
		<tag k="ssr:stedsnr" v="546145" />
	</node>
	<node id="-2406" lat="59.0232805516" lon="11.5623416695">
		<tag k="name" v="Bløtvikøyene" />
		<tag k="place" v="island" />
		<tag k="ssr:stedsnr" v="536994" />
	</node>
	<node id="-3473" lat="58.9957722252" lon="11.5136499981">
		<tag k="alt_name" v="Lille Svarttjern" />
		<tag k="name" v="Svarttjerna" />
		<tag k="natural" v="water" />
		<tag k="ssr:stedsnr" v="911789" />
	</node>
	<node id="-2404" lat="59.192577777" lon="11.5574305501">
		<tag k="name" v="Tvebotntjern" />
		<tag k="natural" v="water" />
		<tag k="ssr:stedsnr" v="536983" />
	</node>
	<node id="-2389" lat="58.9298166654" lon="11.4809777764">
		<tag k="name" v="Røssetjern" />
		<tag k="natural" v="water" />
		<tag k="ssr:stedsnr" v="536757" />
	</node>
	<node id="-1422" lat="58.9550861381" lon="11.4606114092">
		<tag k="alt_name" v="Håvedals Langvann" />
		<tag k="name" v="Håvedals-Langvann" />
		<tag k="natural" v="water" />
		<tag k="ssr:stedsnr" v="2846" />
	</node>
	<node id="-2385" lat="59.1387083304" lon="11.5362055588">
		<tag k="name" v="Båtsvikbukta" />
		<tag k="natural" v="bay" />
		<tag k="ssr:stedsnr" v="536724" />
	</node>
	<node id="-2382" lat="59.2124794538" lon="11.569485349">
		<tag k="name" v="Bjørntjern" />
		<tag k="natural" v="water" />
		<tag k="ssr:stedsnr" v="536708" />
	</node>
	<node id="-1420" lat="58.9514513243" lon="11.4966243556">
		<tag k="alt_name" v="Rørsvannet;Rørsvann" />
		<tag k="name" v="Rødsvannet" />
		<tag k="natural" v="water" />
		<tag k="ssr:stedsnr" v="2844" />
		<tag k="water" v="lake" />
	</node>
	<node id="-2365" lat="59.1173000043" lon="11.6397611086">
		<tag k="name" v="Ømyrtjern" />
		<tag k="natural" v="water" />
		<tag k="ssr:stedsnr" v="536609" />
	</node>
	<node id="-2363" lat="59.1759833366" lon="11.571052779">
		<tag k="name" v="Rødselva" />
		<tag k="ssr:stedsnr" v="536602" />
		<tag k="waterway" v="river" />
	</node>
	<node id="-2359" lat="59.0878722231" lon="11.543119442">
		<tag k="name" v="Rødlandstjern" />
		<tag k="natural" v="water" />
		<tag k="ssr:stedsnr" v="536543" />
	</node>
	<node id="-2355" lat="59.042536113" lon="11.6808388836">
		<tag k="name" v="Murholtsbukta" />
		<tag k="natural" v="bay" />
		<tag k="ssr:stedsnr" v="536513" />
	</node>
	<node id="-1416" lat="58.9631916684" lon="11.6693166732">
		<tag k="alt_name" v="Rottjern" />
		<tag k="name" v="Rottjernet" />
		<tag k="natural" v="water" />
		<tag k="ssr:stedsnr" v="2828" />
	</node>
	<node id="-2329" lat="59.1397888884" lon="11.242858342">
		<tag k="name" v="Hjelmungbekken" />
		<tag k="ssr:stedsnr" v="507073" />
		<tag k="waterway" v="stream" />
	</node>
	<node id="-2324" lat="59.2064499961" lon="11.4322250056">
		<tag k="alt_name" v="Kjølvannet" />
		<tag k="name" v="Kjølasjøen" />
		<tag k="natural" v="water" />
		<tag k="ssr:stedsnr" v="487986" />
	</node>
	<node id="-2312" lat="58.9527277786" lon="11.5891722308">
		<tag k="alt_name" v="Grøtjern" />
		<tag k="name" v="Grotjern" />
		<tag k="natural" v="water" />
		<tag k="ssr:stedsnr" v="487863" />
	</node>
	<node id="-2309" lat="58.9635831615" lon="11.4684935289">
		<tag k="alt_name" v="Berby Langvann" />
		<tag k="name" v="Berby-Langvann" />
		<tag k="natural" v="water" />
		<tag k="ssr:stedsnr" v="487855" />
	</node>
	<node id="-1408" lat="59.0277555545" lon="11.5646444507">
		<tag k="name" v="Tangen" />
		<tag k="natural" v="cape" />
		<tag k="ssr:stedsnr" v="2423" />
	</node>
	<node id="-2301" lat="59.0900330611" lon="11.6227371801">
		<tag k="alt_name" v="Nedre dyvel" />
		<tag k="name" v="Dyvelen" />
		<tag k="natural" v="water" />
		<tag k="ssr:stedsnr" v="487542" />
		<tag k="water" v="lake" />
	</node>
	<node id="-2295" lat="59.1963500034" lon="11.4082250002">
		<tag k="alt_name" v="Kjølvannet (Storsjøen)" />
		<tag k="name" v="Kjølasjøen" />
		<tag k="natural" v="water" />
		<tag k="ssr:stedsnr" v="487288" />
	</node>
	<node id="-2286" lat="59.155455556" lon="11.5036805633">
		<tag k="name" v="Halvfaren" />
		<tag k="place" v="islet" />
		<tag k="ssr:stedsnr" v="487111" />
	</node>
	<node id="-2284" lat="59.1526805601" lon="11.4976916647">
		<tag k="name" v="Femsjøen" />
		<tag k="natural" v="water" />
		<tag k="ssr:stedsnr" v="487011" />
		<tag k="water" v="lake" />
	</node>
	<node id="-2282" lat="59.2275749963" lon="11.4308500017">
		<tag k="alt_name" v="Tutjern" />
		<tag k="name" v="Tutjernet" />
		<tag k="natural" v="water" />
		<tag k="ssr:stedsnr" v="486936" />
	</node>
	<node id="-2280" lat="58.98275278" lon="11.5297749965">
		<tag k="alt_name" v="Danmarktjern" />
		<tag k="name" v="Danmarkstjern" />
		<tag k="natural" v="water" />
		<tag k="ssr:stedsnr" v="486793" />
	</node>
	<node id="-2276" lat="59.1072194411" lon="11.6485583372">
		<tag k="alt_name" v="Krokvannet" />
		<tag k="name" v="Krokvann" />
		<tag k="natural" v="water" />
		<tag k="ssr:stedsnr" v="486473" />
	</node>
	<node id="-2275" lat="59.1130833301" lon="11.6199222269">
		<tag k="name" v="Ormetjern" />
		<tag k="natural" v="water" />
		<tag k="ssr:stedsnr" v="486472" />
	</node>
	<node id="-2273" lat="59.0048361153" lon="11.6546194483">
		<tag k="name" v="Lille Morttjern" />
		<tag k="natural" v="water" />
		<tag k="ssr:stedsnr" v="486351" />
	</node>
	<node id="-2272" lat="58.8897277756" lon="11.5682972184">
		<tag k="alt_name" v="Branntjernbekken" />
		<tag k="name" v="Brannbekken" />
		<tag k="ssr:stedsnr" v="486238" />
		<tag k="waterway" v="stream" />
	</node>
	<node id="-2270" lat="58.9220083325" lon="11.5959055566">
		<tag k="alt_name" v="Verpetjern" />
		<tag k="name" v="Varpetjern" />
		<tag k="natural" v="water" />
		<tag k="ssr:stedsnr" v="486144" />
	</node>
	<node id="-2269" lat="58.9182861092" lon="11.6455722175">
		<tag k="alt_name" v="Finsvikneset" />
		<tag k="name" v="Finnsvikneset" />
		<tag k="natural" v="cape" />
		<tag k="ssr:stedsnr" v="486137" />
	</node>
	<node id="-2268" lat="58.9180138856" lon="11.4563888851">
		<tag k="name" v="Svarttjern" />
		<tag k="natural" v="water" />
		<tag k="ssr:stedsnr" v="486135" />
	</node>
	<node id="-2266" lat="59.2293500014" lon="11.5206000019">
		<tag k="name" v="Ånesbekken" />
		<tag k="ssr:stedsnr" v="486127" />
		<tag k="waterway" v="stream" />
	</node>
	<node id="-2259" lat="58.9523388906" lon="11.6009666685">
		<tag k="alt_name" v="Lyse, lille" />
		<tag k="name" v="Lille Lyse" />
		<tag k="natural" v="water" />
		<tag k="ssr:stedsnr" v="481871" />
	</node>
	<node id="-1395" lat="59.2141500008" lon="11.4558527775">
		<tag k="alt_name" v="Motjern" />
		<tag k="name" v="Motjernet" />
		<tag k="natural" v="water" />
		<tag k="ssr:stedsnr" v="1873" />
	</node>
	<node id="-1053" lat="58.9852444424" lon="11.4647777833">
		<tag k="name" v="Mellembukta" />
		<tag k="natural" v="bay" />
		<tag k="ssr:stedsnr" v="325160" />
	</node>
	<node id="-2217" lat="58.9537416626" lon="11.5621361047">
		<tag k="alt_name" v="Rotjern søndre;Rødtjern søndre" />
		<tag k="name" v="Søndre Rotjern" />
		<tag k="natural" v="water" />
		<tag k="ssr:stedsnr" v="427811" />
	</node>
	<node id="-2216" lat="58.9627954498" lon="11.472549688">
		<tag k="name" v="Stutøye" />
		<tag k="natural" v="water" />
		<tag k="ssr:stedsnr" v="427807" />
	</node>
	<node id="-2209" lat="59.0965638879" lon="11.6339055631">
		<tag k="alt_name" v="Trettertjern" />
		<tag k="name" v="Trettartjern" />
		<tag k="natural" v="water" />
		<tag k="ssr:stedsnr" v="427510" />
	</node>
	<node id="-2207" lat="59.0400027776" lon="11.6375083252">
		<tag k="name" v="Lerholttjern" />
		<tag k="natural" v="water" />
		<tag k="ssr:stedsnr" v="427432" />
	</node>
	<node id="-2205" lat="59.0226277773" lon="11.4811583412">
		<tag k="name" v="Guritjern" />
		<tag k="natural" v="water" />
		<tag k="ssr:stedsnr" v="427362" />
	</node>
	<node id="-2199" lat="59.1183984781" lon="11.4952735872">
		<tag k="name" v="Lille Erte" />
		<tag k="natural" v="water" />
		<tag k="ssr:stedsnr" v="427055" />
		<tag k="water" v="lake" />
	</node>
	<node id="-2198" lat="59.1469499972" lon="11.6200944518">
		<tag k="name" v="Hølen" />
		<tag k="natural" v="water" />
		<tag k="ssr:stedsnr" v="427014" />
		<tag k="water" v="lake" />
	</node>
	<node id="-2196" lat="59.1951250022" lon="11.4586027796">
		<tag k="name" v="Kjølbekken" />
		<tag k="ssr:stedsnr" v="426982" />
		<tag k="waterway" v="stream" />
	</node>
	<node id="-2188" lat="58.981711107" lon="11.6285055588">
		<tag k="alt_name" v="Asmundstjern" />
		<tag k="name" v="Åsmundtjern" />
		<tag k="natural" v="water" />
		<tag k="ssr:stedsnr" v="426808" />
	</node>
	<node id="-2184" lat="58.9916522204" lon="11.6067776719">
		<tag k="name" v="Kverntjerna" />
		<tag k="natural" v="water" />
		<tag k="ssr:stedsnr" v="426792" />
		<tag k="water" v="lake" />
	</node>
	<node id="-2180" lat="59.0894694435" lon="11.5198055507">
		<tag k="alt_name" v="Haugtjern" />
		<tag k="name" v="Haugetjern" />
		<tag k="natural" v="water" />
		<tag k="ssr:stedsnr" v="426472" />
	</node>
	<node id="-2175" lat="59.0621222228" lon="11.6203277726">
		<tag k="alt_name" v="Askaltjern" />
		<tag k="name" v="Askalstjern" />
		<tag k="natural" v="water" />
		<tag k="ssr:stedsnr" v="426370" />
	</node>
	<node id="-1045" lat="59.1241194483" lon="11.3596083403">
		<tag k="name" v="Remmenbekken" />
		<tag k="ssr:stedsnr" v="325214" />
		<tag k="waterway" v="stream" />
	</node>
	<node id="-2165" lat="58.9182527779" lon="11.6353027753">
		<tag k="alt_name" v="Finsvikbukta" />
		<tag k="name" v="Finnsvikbukta" />
		<tag k="natural" v="strait" />
		<tag k="ssr:stedsnr" v="426159" />
	</node>
	<node id="-2163" lat="58.9112333319" lon="11.5530972158">
		<tag k="alt_name" v="Store Rotvann" />
		<tag k="name" v="Rotvann" />
		<tag k="natural" v="water" />
		<tag k="ssr:stedsnr" v="426155" />
	</node>
	<node id="-2162" lat="58.9119416647" lon="11.6429694444">
		<tag k="alt_name" v="Bokøya" />
		<tag k="name" v="Bukkøya" />
		<tag k="place" v="islet" />
		<tag k="ssr:stedsnr" v="426153" />
	</node>
	<node id="-2161" lat="58.9082833339" lon="11.5987999953">
		<tag k="alt_name" v="Tretjern" />
		<tag k="name" v="Tretjerna" />
		<tag k="natural" v="water" />
		<tag k="ssr:stedsnr" v="426134" />
	</node>
	<node id="-2160" lat="58.8994305549" lon="11.611794442">
		<tag k="name" v="Ryelstjern" />
		<tag k="natural" v="water" />
		<tag k="ssr:stedsnr" v="426131" />
	</node>
	<node id="-2158" lat="58.9703388879" lon="11.6420472207">
		<tag k="name" v="Abbortjern" />
		<tag k="natural" v="water" />
		<tag k="ssr:stedsnr" v="426057" />
	</node>
	<node id="-2157" lat="58.9286599091" lon="11.6227047741">
		<tag k="name" v="Abbortjern" />
		<tag k="natural" v="water" />
		<tag k="ssr:stedsnr" v="425175" />
	</node>
	<node id="-2155" lat="58.920263888" lon="11.6310444527">
		<tag k="name" v="Kalvøya" />
		<tag k="place" v="islet" />
		<tag k="ssr:stedsnr" v="425160" />
	</node>
	<node id="-2151" lat="58.9922500013" lon="11.5187027704">
		<tag k="name" v="Store Svarttjern" />
		<tag k="natural" v="water" />
		<tag k="ssr:stedsnr" v="415830" />
	</node>
	<node id="-2405" lat="59.216786107" lon="11.5422083249">
		<tag k="name" v="Svantjern" />
		<tag k="natural" v="water" />
		<tag k="ssr:stedsnr" v="536987" />
	</node>
	<node id="-2140" lat="59.1398111144" lon="11.6302694365">
		<tag k="name" v="Trollnestjern" />
		<tag k="natural" v="water" />
		<tag k="ssr:stedsnr" v="415672" />
	</node>
	<node id="-2139" lat="58.9650305534" lon="11.611005547">
		<tag k="name" v="Lomtangen" />
		<tag k="natural" v="cape" />
		<tag k="ssr:stedsnr" v="415669" />
	</node>
	<node id="-2136" lat="59.0685249979" lon="11.6289138812">
		<tag k="name" v="Store Sveltetjern" />
		<tag k="natural" v="water" />
		<tag k="ssr:stedsnr" v="415652" />
	</node>
	<node id="-1380" lat="59.0457794083" lon="11.6492338793">
		<tag k="name" v="Kroktjern" />
		<tag k="natural" v="water" />
		<tag k="ssr:stedsnr" v="1431" />
		<tag k="water" v="lake" />
	</node>
	<node id="-2128" lat="58.8891194406" lon="11.4961638858">
		<tag k="name" v="Svendstjernsbekken" />
		<tag k="ssr:stedsnr" v="415608" />
		<tag k="waterway" v="stream" />
	</node>
	<node id="-2126" lat="59.1116151685" lon="11.5169901312">
		<tag k="name" v="Fiskeløstjerna" />
		<tag k="natural" v="water" />
		<tag k="ssr:stedsnr" v="415602" />
	</node>
	<node id="-2124" lat="59.0888194405" lon="11.5471166667">
		<tag k="name" v="Ringletjern" />
		<tag k="natural" v="water" />
		<tag k="ssr:stedsnr" v="415585" />
	</node>
	<node id="-2121" lat="59.0346508377" lon="11.6220382036">
		<tag k="name" v="Bjønnesuppen" />
		<tag k="natural" v="water" />
		<tag k="ssr:stedsnr" v="415567" />
	</node>
	<node id="-2118" lat="59.0521833364" lon="11.5350388955">
		<tag k="name" v="Tretjern" />
		<tag k="natural" v="water" />
		<tag k="ssr:stedsnr" v="415547" />
	</node>
	<node id="-2111" lat="59.0473886346" lon="11.5293384262">
		<tag k="name" v="Stenurtjern" />
		<tag k="natural" v="water" />
		<tag k="ssr:stedsnr" v="414952" />
	</node>
	<node id="-2110" lat="59.0730083359" lon="11.6470055609">
		<tag k="name" v="Taklundbukta" />
		<tag k="natural" v="bay" />
		<tag k="ssr:stedsnr" v="414942" />
	</node>
	<node id="-2108" lat="58.9960666675" lon="11.5454666617">
		<tag k="name" v="Grytberget" />
		<tag k="place" v="island" />
		<tag k="ssr:stedsnr" v="414907" />
	</node>
	<node id="-2107" lat="59.0191194461" lon="11.5618916691">
		<tag k="name" v="Hakelundbukta" />
		<tag k="natural" v="bay" />
		<tag k="ssr:stedsnr" v="414899" />
	</node>
	<node id="-1375" lat="58.8912305579" lon="11.4874111063">
		<tag k="alt_name" v="Svendstjern" />
		<tag k="name" v="Svenstjernet" />
		<tag k="natural" v="water" />
		<tag k="ssr:stedsnr" v="1258" />
	</node>
	<node id="-2103" lat="58.916638891" lon="11.5174861039">
		<tag k="name" v="Rørselven" />
		<tag k="ssr:stedsnr" v="414883" />
		<tag k="waterway" v="river" />
	</node>
	<node id="-2096" lat="58.937495226" lon="11.4664657596">
		<tag k="name" v="Bergtrengtjern" />
		<tag k="natural" v="water" />
		<tag k="ssr:stedsnr" v="414697" />
	</node>
	<node id="-2095" lat="59.2509972193" lon="11.5154277858">
		<tag k="name" v="Nedre Bislingen" />
		<tag k="natural" v="water" />
		<tag k="ssr:stedsnr" v="414683" />
	</node>
	<node id="-2087" lat="59.2418777774" lon="11.4350277839">
		<tag k="name" v="Holebekken" />
		<tag k="ssr:stedsnr" v="265873" />
		<tag k="waterway" v="stream" />
	</node>
	<node id="-2085" lat="59.2215055524" lon="11.3961194462">
		<tag k="alt_name" v="Vakrene vestre" />
		<tag k="name" v="Vestre Vakrene" />
		<tag k="natural" v="water" />
		<tag k="ssr:stedsnr" v="265867" />
	</node>
	<node id="-2063" lat="59.1267055518" lon="11.2569361087">
		<tag k="name" v="Stordiket" />
		<tag k="ssr:stedsnr" v="265085" />
		<tag k="waterway" v="stream" />
	</node>
</osm>
