<?xml version="1.0" encoding="UTF-8"?>
<osm version="0.6" generator="osmapis">
	<node lat="60.90662499853722" lon="10.359847221877164" id="-34587">
		<tag k="name" v="Ligardskampen" />
		<tag k="natural" v="hill" />
		<tag k="place" v="locality" />
		<tag k="ssr:stedsnr" v="9852" />
	</node>
	<node lat="60.902427774559506" lon="10.555308342138726" id="-34588">
		<tag k="name" v="Olsokhaugen" />
		<tag k="natural" v="hill" />
		<tag k="place" v="locality" />
		<tag k="ssr:stedsnr" v="9853" />
	</node>
	<node lat="60.91507500107572" lon="10.458130555033385" id="-34602">
		<tag k="name" v="Danseholen" />
		<tag k="natural" v="hill" />
		<tag k="place" v="locality" />
		<tag k="ssr:stedsnr" v="40177" />
	</node>
	<node lat="60.993800001078284" lon="10.449013885390835" id="-34609">
		<tag k="name" v="Neråslia" />
		<tag k="natural" v="slope" />
		<tag k="place" v="locality" />
		<tag k="ssr:stedsnr" v="40663" />
	</node>
	<node lat="60.94322499735447" lon="10.295897222989645" id="-34620">
		<tag k="name" v="Bjønndalen" />
		<tag k="natural" v="valley" />
		<tag k="place" v="locality" />
		<tag k="ssr:stedsnr" v="41382" />
	</node>
	<node lat="60.917941665209135" lon="10.246850002085912" id="-34622">
		<tag k="fixme" v="consider natural=peak for the most distinct mountains in the district" />
		<tag k="name" v="Gråberget" />
		<tag k="natural" v="hill" />
		<tag k="place" v="locality" />
		<tag k="ssr:stedsnr" v="41273" />
	</node>
	<node lat="60.92529722097754" lon="10.19319443830787" id="-34624">
		<tag k="name" v="Romsdalen" />
		<tag k="natural" v="valley" />
		<tag k="place" v="locality" />
		<tag k="ssr:stedsnr" v="41608" />
	</node>
	<node lat="60.925749998716036" lon="10.39997778575466" id="-34657">
		<tag k="name" v="Brattåshaugen" />
		<tag k="natural" v="hill" />
		<tag k="place" v="locality" />
		<tag k="ssr:stedsnr" v="81409" />
	</node>
	<node lat="60.86826110795506" lon="10.551649993837936" id="-34667">
		<tag k="name" v="Karlshovde" />
		<tag k="natural" v="hill" />
		<tag k="place" v="locality" />
		<tag k="ssr:stedsnr" v="101441" />
	</node>
	<node lat="60.88823611268367" lon="10.665580555604292" id="-34672">
		<tag k="name" v="Kubakken" />
		<tag k="natural" v="slope" />
		<tag k="place" v="locality" />
		<tag k="ssr:stedsnr" v="102076" />
	</node>
	<node lat="60.89851389252418" lon="10.635774997528827" id="-34674">
		<tag k="name" v="Krakildhaugen" />
		<tag k="natural" v="hill" />
		<tag k="place" v="locality" />
		<tag k="ssr:stedsnr" v="102082" />
	</node>
	<node lat="60.85538889333119" lon="10.394947224107234" id="-34678">
		<tag k="name" v="Djupdalen" />
		<tag k="natural" v="valley" />
		<tag k="place" v="locality" />
		<tag k="ssr:stedsnr" v="102091" />
	</node>
	<node lat="60.92517499729927" lon="10.336980554567146" id="-34680">
		<tag k="name" v="Lamphaugdalen" />
		<tag k="natural" v="valley" />
		<tag k="place" v="locality" />
		<tag k="ssr:stedsnr" v="102338" />
	</node>
	<node lat="60.75590278194365" lon="10.59209721995984" id="-34689">
		<tag k="name" v="Egstadhaugen" />
		<tag k="natural" v="hill" />
		<tag k="place" v="locality" />
		<tag k="ssr:stedsnr" v="102887" />
	</node>
	<node lat="60.97617777760091" lon="10.213374993000551" id="-34696">
		<tag k="name" v="Seterstohaugen" />
		<tag k="natural" v="hill" />
		<tag k="place" v="locality" />
		<tag k="ssr:stedsnr" v="115103" />
	</node>
	<node lat="60.93558888873005" lon="10.450702778367525" id="-34712">
		<tag k="name" v="Vinterhovud" />
		<tag k="natural" v="hill" />
		<tag k="place" v="locality" />
		<tag k="ssr:stedsnr" v="251796" />
	</node>
	<node lat="60.79597777792162" lon="10.466013885853048" id="-34721">
		<tag k="name" v="Mustadkampen" />
		<tag k="natural" v="hill" />
		<tag k="place" v="locality" />
		<tag k="ssr:stedsnr" v="252003" />
	</node>
	<node lat="60.796083330579684" lon="10.415983329308094" id="-34731">
		<tag k="alt_name" v="Stangstuhøgda" />
		<tag k="name" v="Stangstuguhøgda" />
		<tag k="natural" v="hill" />
		<tag k="place" v="locality" />
		<tag k="ssr:stedsnr" v="130003" />
	</node>
	<node lat="60.849658332864855" lon="10.577550005660093" id="-34747">
		<tag k="fixme" v="consider natural=peak for the most distinct mountains in the district" />
		<tag k="name" v="Åslendet" />
		<tag k="natural" v="hill" />
		<tag k="place" v="locality" />
		<tag k="ssr:stedsnr" v="130879" />
	</node>
	<node lat="60.92378611004109" lon="10.492224997982541" id="-34762">
		<tag k="name" v="Harahaugen" />
		<tag k="natural" v="hill" />
		<tag k="place" v="locality" />
		<tag k="ssr:stedsnr" v="252827" />
	</node>
	<node lat="60.93247778146566" lon="10.398758327911208" id="-34773">
		<tag k="alt_name" v="Svarthølet" />
		<tag k="name" v="Svartholet" />
		<tag k="natural" v="valley" />
		<tag k="place" v="locality" />
		<tag k="ssr:stedsnr" v="141402" />
	</node>
	<node lat="60.83679721853492" lon="10.452947228216946" id="-34776">
		<tag k="name" v="Tjernshøgda" />
		<tag k="natural" v="hill" />
		<tag k="place" v="locality" />
		<tag k="ssr:stedsnr" v="162108" />
	</node>
	<node lat="60.95453610785001" lon="10.473030557315154" id="-34782">
		<tag k="name" v="Høghaugen" />
		<tag k="natural" v="hill" />
		<tag k="place" v="locality" />
		<tag k="ssr:stedsnr" v="162200" />
	</node>
	<node lat="60.93302500027801" lon="10.50381388439572" id="-34783">
		<tag k="name" v="Jammerdalen" />
		<tag k="natural" v="valley" />
		<tag k="place" v="locality" />
		<tag k="ssr:stedsnr" v="162312" />
	</node>
	<node lat="60.9358361090631" lon="10.376322213008782" id="-34790">
		<tag k="fixme" v="consider natural=peak for the most distinct mountains in the district" />
		<tag k="name" v="Brennbakkhøgda" />
		<tag k="natural" v="hill" />
		<tag k="place" v="locality" />
		<tag k="ssr:stedsnr" v="162249" />
	</node>
	<node lat="60.931833336225644" lon="10.390236106042552" id="-34791">
		<tag k="name" v="Brattåshøgda" />
		<tag k="natural" v="hill" />
		<tag k="place" v="locality" />
		<tag k="ssr:stedsnr" v="162251" />
	</node>
	<node lat="60.95835555152319" lon="10.255327781990282" id="-34799">
		<tag k="name" v="Krokgranshaugen" />
		<tag k="natural" v="hill" />
		<tag k="place" v="locality" />
		<tag k="ssr:stedsnr" v="162351" />
	</node>
	<node lat="60.7164111101828" lon="10.513072228091216" id="-34808">
		<tag k="name" v="Trehjørningen" />
		<tag k="place" v="locality" />
		<tag k="ssr:stedsnr" v="162969" />
	</node>
	<node lat="60.8634583309107" lon="10.485316665165048" id="-34839">
		<tag k="name" v="Glæstads plass" />
		<tag k="place" v="locality" />
		<tag k="ssr:stedsnr" v="223016" />
	</node>
	<node lat="60.86363611217293" lon="10.446813897846111" id="-34841">
		<tag k="name" v="Djupdalene" />
		<tag k="natural" v="valley" />
		<tag k="place" v="locality" />
		<tag k="ssr:stedsnr" v="223081" />
	</node>
	<node lat="60.903441667150446" lon="10.602188887144804" id="-34844">
		<tag k="name" v="Berget" />
		<tag k="natural" v="hill" />
		<tag k="place" v="locality" />
		<tag k="ssr:stedsnr" v="223085" />
	</node>
	<node lat="60.851841670309874" lon="10.393566664915145" id="-34845">
		<tag k="fixme" v="consider natural=peak for the most distinct mountains in the district" />
		<tag k="name" v="Seterberget" />
		<tag k="natural" v="hill" />
		<tag k="place" v="locality" />
		<tag k="ssr:stedsnr" v="223086" />
	</node>
	<node lat="60.92474722263034" lon="10.33198889607494" id="-34849">
		<tag k="name" v="Lamphaugen" />
		<tag k="natural" v="hill" />
		<tag k="place" v="locality" />
		<tag k="ssr:stedsnr" v="223288" />
	</node>
	<node lat="60.929811111629" lon="10.307897228387302" id="-34850">
		<tag k="name" v="Sanghaugane" />
		<tag k="natural" v="hill" />
		<tag k="place" v="locality" />
		<tag k="ssr:stedsnr" v="223291" />
	</node>
	<node lat="60.956524998755846" lon="10.496269436517236" id="-34857">
		<tag k="name" v="Hånåkne" />
		<tag k="natural" v="gorge" />
		<tag k="ssr:stedsnr" v="223745" />
	</node>
	<node lat="60.9801333320379" lon="10.21574443684413" id="-34860">
		<tag k="name" v="Gråbeinhaugen" />
		<tag k="natural" v="hill" />
		<tag k="place" v="locality" />
		<tag k="ssr:stedsnr" v="236089" />
	</node>
	<node lat="60.94320555722738" lon="10.315786106781665" id="-34874">
		<tag k="name" v="Veltseterhøgda" />
		<tag k="natural" v="hill" />
		<tag k="place" v="locality" />
		<tag k="ssr:stedsnr" v="282300" />
	</node>
	<node lat="60.86358332949765" lon="10.434394453193997" id="-34897">
		<tag k="name" v="Kjellerdalen" />
		<tag k="natural" v="valley" />
		<tag k="place" v="locality" />
		<tag k="ssr:stedsnr" v="284102" />
	</node>
	<node lat="60.85758888588488" lon="10.665783326584156" id="-34899">
		<tag k="name" v="Bjørgetoppen" />
		<tag k="natural" v="hill" />
		<tag k="place" v="locality" />
		<tag k="ssr:stedsnr" v="284174" />
	</node>
	<node lat="60.89858610787567" lon="10.24488889047371" id="-34913">
		<tag k="name" v="Bjønndalen" />
		<tag k="natural" v="valley" />
		<tag k="place" v="locality" />
		<tag k="ssr:stedsnr" v="463554" />
	</node>
	<node lat="60.89027499768347" lon="10.245383326678803" id="-34914">
		<tag k="name" v="Sløhaugen" />
		<tag k="natural" v="hill" />
		<tag k="place" v="locality" />
		<tag k="ssr:stedsnr" v="463552" />
	</node>
	<node lat="60.94060833066479" lon="10.520233335875" id="-34923">
		<tag k="name" v="Slette" />
		<tag k="place" v="locality" />
		<tag k="ssr:stedsnr" v="465276" />
	</node>
	<node lat="60.97751666233751" lon="10.309880557050528" id="-34924">
		<tag k="name" v="Brattholen" />
		<tag k="natural" v="hill" />
		<tag k="place" v="locality" />
		<tag k="ssr:stedsnr" v="465398" />
	</node>
	<node lat="61.001216665372" lon="10.430561105174727" id="-34928">
		<tag k="name" v="Geitryggen" />
		<tag k="natural" v="hill" />
		<tag k="place" v="locality" />
		<tag k="ssr:stedsnr" v="465653" />
	</node>
	<node lat="60.91764444102748" lon="10.51671110820229" id="-34948">
		<tag k="name" v="Skjælingshaugen" />
		<tag k="natural" v="hill" />
		<tag k="place" v="locality" />
		<tag k="ssr:stedsnr" v="466357" />
	</node>
	<node lat="60.93633333140164" lon="10.57371388390009" id="-34966">
		<tag k="name" v="Galtestadhaugen" />
		<tag k="natural" v="hill" />
		<tag k="place" v="locality" />
		<tag k="ssr:stedsnr" v="466657" />
	</node>
	<node lat="60.97393611413222" lon="10.56187499203055" id="-34974">
		<tag k="name" v="Steigshøgda" />
		<tag k="natural" v="hill" />
		<tag k="place" v="locality" />
		<tag k="ssr:stedsnr" v="466732" />
	</node>
	<node lat="60.87840000410811" lon="10.242005559538129" id="-34984">
		<tag k="name" v="Tjernhøgda" />
		<tag k="natural" v="hill" />
		<tag k="place" v="locality" />
		<tag k="ssr:stedsnr" v="342504" />
	</node>
	<node lat="60.97074166658059" lon="10.457077769044082" id="-34988">
		<tag k="name" v="Surdalen" />
		<tag k="natural" v="valley" />
		<tag k="place" v="locality" />
		<tag k="ssr:stedsnr" v="344215" />
	</node>
	<node lat="60.76232222639615" lon="10.56995278387411" id="-34989">
		<tag k="name" v="Tromsåstoppen" />
		<tag k="natural" v="hill" />
		<tag k="place" v="locality" />
		<tag k="ssr:stedsnr" v="344244" />
	</node>
	<node lat="60.99650000318951" lon="10.29409166213884" id="-35018">
		<tag k="alt_name" v="Anbjørsdalen" />
		<tag k="name" v="Annbjørgsdalen" />
		<tag k="natural" v="valley" />
		<tag k="place" v="locality" />
		<tag k="ssr:stedsnr" v="373148" />
	</node>
	<node lat="60.85242499799947" lon="10.536163890776178" id="-35033">
		<tag k="name" v="Høgstdagshaugen" />
		<tag k="natural" v="hill" />
		<tag k="place" v="locality" />
		<tag k="ssr:stedsnr" v="373905" />
	</node>
	<node lat="60.79389166652668" lon="10.677116675377684" id="-35041">
		<tag k="name" v="Hovdetoppen" />
		<tag k="natural" v="hill" />
		<tag k="place" v="locality" />
		<tag k="ssr:stedsnr" v="480583" />
	</node>
	<node lat="60.886644447365896" lon="10.362086114067495" id="-35046">
		<tag k="name" v="Korpeberga" />
		<tag k="natural" v="hill" />
		<tag k="place" v="locality" />
		<tag k="ssr:stedsnr" v="403687" />
	</node>
	<node lat="60.85973610847041" lon="10.553950002058924" id="-35050">
		<tag k="name" v="Brennhaugen" />
		<tag k="natural" v="hill" />
		<tag k="place" v="locality" />
		<tag k="ssr:stedsnr" v="494873" />
	</node>
	<node lat="60.93043889285515" lon="10.576102785821769" id="-35059">
		<tag k="name" v="Holen" />
		<tag k="natural" v="hill" />
		<tag k="place" v="locality" />
		<tag k="ssr:stedsnr" v="405337" />
	</node>
	<node lat="60.92463610869643" lon="10.59854999106912" id="-35060">
		<tag k="name" v="Langsethaugen" />
		<tag k="natural" v="hill" />
		<tag k="place" v="locality" />
		<tag k="ssr:stedsnr" v="405343" />
	</node>
	<node lat="60.850702774834744" lon="10.389924997183572" id="-35098">
		<tag k="name" v="Djupdalen" />
		<tag k="natural" v="valley" />
		<tag k="place" v="locality" />
		<tag k="ssr:stedsnr" v="434887" />
	</node>
	<node lat="60.82837499697498" lon="10.611711107956435" id="-35101">
		<tag k="name" v="Snikkerhaugen" />
		<tag k="natural" v="hill" />
		<tag k="place" v="locality" />
		<tag k="ssr:stedsnr" v="434994" />
	</node>
	<node lat="60.938086113358914" lon="10.47776944878189" id="-35144">
		<tag k="fixme" v="consider natural=peak for the most distinct mountains in the district" />
		<tag k="name" v="Kalløkkeberget" />
		<tag k="natural" v="hill" />
		<tag k="place" v="locality" />
		<tag k="ssr:stedsnr" v="466220" />
	</node>
	<node lat="60.95255277708158" lon="10.462361109879039" id="-35145">
		<tag k="name" v="Svensvehallen" />
		<tag k="natural" v="slope" />
		<tag k="place" v="locality" />
		<tag k="ssr:stedsnr" v="466227" />
	</node>
	<node lat="60.92321944152317" lon="10.309641675629495" id="-35149">
		<tag k="name" v="Bråtåfallsvelia" />
		<tag k="natural" v="slope" />
		<tag k="place" v="locality" />
		<tag k="ssr:stedsnr" v="466317" />
	</node>
	<node lat="60.91444444857437" lon="10.343744442170156" id="-35150">
		<tag k="name" v="Damsvelia" />
		<tag k="natural" v="slope" />
		<tag k="place" v="locality" />
		<tag k="ssr:stedsnr" v="466321" />
	</node>
	<node lat="60.94298055345565" lon="10.54886944626993" id="-35156">
		<tag k="fixme" v="consider natural=peak for the most distinct mountains in the district" />
		<tag k="name" v="Skinnelihøgda" />
		<tag k="natural" v="hill" />
		<tag k="place" v="locality" />
		<tag k="ssr:stedsnr" v="466707" />
	</node>
	<node lat="61.009519440980625" lon="10.218163886417154" id="-35159">
		<tag k="alt_name" v="Veltkråkhugguhaugen" />
		<tag k="name" v="Vesle Kråkhugu" />
		<tag k="natural" v="hill" />
		<tag k="place" v="locality" />
		<tag k="ssr:stedsnr" v="675274" />
	</node>
	<node lat="60.82071944333981" lon="10.64272777641062" id="-35179">
		<tag k="name" v="Kjølmyrbotn" />
		<tag k="natural" v="valley" />
		<tag k="place" v="locality" />
		<tag k="ssr:stedsnr" v="474762" />
	</node>
	<node lat="60.84846389055309" lon="10.497955560904163" id="-35216">
		<tag k="name" v="Glæstadhøgda" />
		<tag k="natural" v="hill" />
		<tag k="place" v="locality" />
		<tag k="ssr:stedsnr" v="495912" />
	</node>
	<node lat="60.92707221838815" lon="10.338338897224446" id="-35232">
		<tag k="name" v="Sangbekkhauga" />
		<tag k="natural" v="hill" />
		<tag k="place" v="locality" />
		<tag k="ssr:stedsnr" v="526264" />
	</node>
	<node lat="60.91690555126229" lon="10.332361118577298" id="-35234">
		<tag k="name" v="Åbbortjennslia" />
		<tag k="natural" v="slope" />
		<tag k="place" v="locality" />
		<tag k="ssr:stedsnr" v="526266" />
	</node>
	<node lat="60.917380554180305" lon="10.350752769803703" id="-35236">
		<tag k="name" v="Tjennlia" />
		<tag k="natural" v="slope" />
		<tag k="place" v="locality" />
		<tag k="ssr:stedsnr" v="526274" />
	</node>
	<node lat="61.029461108636696" lon="10.284324996051783" id="-35240">
		<tag k="fixme" v="consider natural=peak for the most distinct mountains in the district" />
		<tag k="name" v="Rognåsen" />
		<tag k="natural" v="hill" />
		<tag k="place" v="locality" />
		<tag k="ssr:stedsnr" v="526408" />
	</node>
	<node lat="60.983222222420565" lon="10.349502772322206" id="-35241">
		<tag k="name" v="Holmen" />
		<tag k="place" v="locality" />
		<tag k="ssr:stedsnr" v="526413" />
	</node>
	<node lat="60.92820833621357" lon="10.516644450195646" id="-35243">
		<tag k="name" v="Biriseterhaugen" />
		<tag k="natural" v="hill" />
		<tag k="place" v="locality" />
		<tag k="ssr:stedsnr" v="526321" />
	</node>
	<node lat="60.98245278173903" lon="10.225011106486358" id="-35251">
		<tag k="name" v="Haralia" />
		<tag k="natural" v="slope" />
		<tag k="place" v="locality" />
		<tag k="ssr:stedsnr" v="526678" />
	</node>
	<node lat="60.80706111226236" lon="10.376300003813395" id="-35282">
		<tag k="fixme" v="multiple name tags, choose one and add the other to alt_name" />
		<tag k="name" v="Hovde;Sevalhaugen" />
		<tag k="natural" v="hill" />
		<tag k="place" v="locality" />
		<tag k="ssr:stedsnr" v="555949" />
	</node>
	<node lat="60.90646944306472" lon="10.593572228560221" id="-35297">
		<tag k="name" v="Stokkmyrbakka" />
		<tag k="natural" v="slope" />
		<tag k="place" v="locality" />
		<tag k="ssr:stedsnr" v="586347" />
	</node>
	<node lat="60.91155833048884" lon="10.308447226940444" id="-35299">
		<tag k="name" v="Saglia" />
		<tag k="natural" v="slope" />
		<tag k="place" v="locality" />
		<tag k="ssr:stedsnr" v="586298" />
	</node>
	<node lat="60.98859999822916" lon="10.456966673872174" id="-35301">
		<tag k="name" v="Lyuhaugen" />
		<tag k="natural" v="hill" />
		<tag k="place" v="locality" />
		<tag k="ssr:stedsnr" v="586641" />
	</node>
	<node lat="60.92223333165771" lon="10.398908341357581" id="-35312">
		<tag k="name" v="Svarthølet" />
		<tag k="natural" v="slope" />
		<tag k="place" v="locality" />
		<tag k="ssr:stedsnr" v="587260" />
	</node>
	<node lat="60.89818333526327" lon="10.255544453668232" id="-35318">
		<tag k="fixme" v="consider natural=peak for the most distinct mountains in the district" />
		<tag k="name" v="Høgberget" />
		<tag k="natural" v="hill" />
		<tag k="place" v="locality" />
		<tag k="ssr:stedsnr" v="587765" />
	</node>
	<node lat="60.911538893253045" lon="10.44868332505494" id="-35332">
		<tag k="name" v="Akselhovde" />
		<tag k="natural" v="hill" />
		<tag k="place" v="locality" />
		<tag k="ssr:stedsnr" v="615853" />
	</node>
	<node lat="60.79323610750511" lon="10.436238886858469" id="-35336">
		<tag k="fixme" v="consider natural=peak for the most distinct mountains in the district" />
		<tag k="name" v="Vardalsåsen" />
		<tag k="natural" v="hill" />
		<tag k="place" v="locality" />
		<tag k="ssr:stedsnr" v="616045" />
	</node>
	<node lat="60.903011112549116" lon="10.506444437966147" id="-35352">
		<tag k="alt_name" v="Bjønnhaugen" />
		<tag k="name" v="Bjørnhaugen" />
		<tag k="natural" v="hill" />
		<tag k="place" v="locality" />
		<tag k="ssr:stedsnr" v="627401" />
	</node>
	<node lat="60.950991663757605" lon="10.311091671195054" id="-35355">
		<tag k="name" v="Høgbrenthaugen" />
		<tag k="natural" v="hill" />
		<tag k="place" v="locality" />
		<tag k="ssr:stedsnr" v="645305" />
	</node>
	<node lat="60.92654722074333" lon="10.372422215105265" id="-35360">
		<tag k="name" v="Karidalen" />
		<tag k="natural" v="valley" />
		<tag k="place" v="locality" />
		<tag k="ssr:stedsnr" v="647245" />
	</node>
	<node lat="60.85621944596098" lon="10.399980562544382" id="-35363">
		<tag k="name" v="Krakasvelia" />
		<tag k="natural" v="slope" />
		<tag k="place" v="locality" />
		<tag k="ssr:stedsnr" v="647119" />
	</node>
	<node lat="60.86843333241019" lon="10.381305546786571" id="-35375">
		<tag k="name" v="Vasslia" />
		<tag k="natural" v="slope" />
		<tag k="place" v="locality" />
		<tag k="ssr:stedsnr" v="647197" />
	</node>
	<node lat="60.750361108904876" lon="10.573952786764245" id="-35398">
		<tag k="name" v="Sagbakken" />
		<tag k="natural" v="slope" />
		<tag k="place" v="locality" />
		<tag k="ssr:stedsnr" v="647888" />
	</node>
	<node lat="60.8593194426004" lon="10.569436110900575" id="-35403">
		<tag k="name" v="Øytjernshaugen" />
		<tag k="natural" v="hill" />
		<tag k="place" v="locality" />
		<tag k="ssr:stedsnr" v="708028" />
	</node>
	<node lat="60.830875002055485" lon="10.400586109912407" id="-35406">
		<tag k="fixme" v="consider natural=peak for the most distinct mountains in the district" />
		<tag k="name" v="Skybergtoppen" />
		<tag k="natural" v="hill" />
		<tag k="place" v="locality" />
		<tag k="ssr:stedsnr" v="708139" />
	</node>
	<node lat="60.88154722415229" lon="10.416352775762443" id="-35415">
		<tag k="name" v="Bergengshøgda" />
		<tag k="natural" v="hill" />
		<tag k="place" v="locality" />
		<tag k="ssr:stedsnr" v="708189" />
	</node>
	<node lat="60.95146388647765" lon="10.461666668003353" id="-35419">
		<tag k="name" v="Svennsvehallen" />
		<tag k="natural" v="slope" />
		<tag k="place" v="locality" />
		<tag k="ssr:stedsnr" v="708207" />
	</node>
	<node lat="60.91645277678213" lon="10.580516659637937" id="-35421">
		<tag k="name" v="Kloppmyrhaugen" />
		<tag k="natural" v="hill" />
		<tag k="place" v="locality" />
		<tag k="ssr:stedsnr" v="708339" />
	</node>
	<node lat="60.902786107134304" lon="10.592038890324629" id="-35428">
		<tag k="name" v="Davermyrhaugen" />
		<tag k="natural" v="hill" />
		<tag k="place" v="locality" />
		<tag k="ssr:stedsnr" v="708348" />
	</node>
	<node lat="60.91051388854582" lon="10.571844446375508" id="-35429">
		<tag k="name" v="Bjønnåtet" />
		<tag k="natural" v="valley" />
		<tag k="place" v="locality" />
		<tag k="ssr:stedsnr" v="708350" />
	</node>
	<node lat="60.97370555791371" lon="10.533116669264468" id="-35434">
		<tag k="name" v="Bjørgehaugen" />
		<tag k="natural" v="hill" />
		<tag k="place" v="locality" />
		<tag k="ssr:stedsnr" v="708699" />
	</node>
	<node lat="60.726686106687474" lon="10.531550005242634" id="-35436">
		<tag k="fixme" v="consider natural=peak for the most distinct mountains in the district" />
		<tag k="name" v="Øykåsen" />
		<tag k="natural" v="hill" />
		<tag k="place" v="locality" />
		<tag k="ssr:stedsnr" v="708946" />
	</node>
	<node lat="60.8859416681298" lon="10.46601388248759" id="-35454">
		<tag k="name" v="Merradalen" />
		<tag k="natural" v="valley" />
		<tag k="place" v="locality" />
		<tag k="ssr:stedsnr" v="891182" />
	</node>
	<node lat="60.95793611532044" lon="10.44024166958071" id="-35457">
		<tag k="name" v="Djupdalen" />
		<tag k="natural" v="valley" />
		<tag k="place" v="locality" />
		<tag k="ssr:stedsnr" v="891241" />
	</node>
	<node lat="60.97868055141992" lon="10.571983332770115" id="-35483">
		<tag k="name" v="Bjønnhaugen" />
		<tag k="natural" v="hill" />
		<tag k="place" v="locality" />
		<tag k="ssr:stedsnr" v="891631" />
	</node>
	<node lat="60.96011666313045" lon="10.513908333050896" id="-35484">
		<tag k="name" v="Trettsvedalen" />
		<tag k="natural" v="valley" />
		<tag k="place" v="locality" />
		<tag k="ssr:stedsnr" v="891733" />
	</node>
	<node lat="60.973202775705126" lon="10.385261109620123" id="-35485">
		<tag k="name" v="Brennumsholmen" />
		<tag k="place" v="locality" />
		<tag k="ssr:stedsnr" v="891737" />
	</node>
	<node lat="60.789172218716956" lon="10.615688893697637" id="-35492">
		<tag k="name" v="Askimhaugen" />
		<tag k="natural" v="hill" />
		<tag k="place" v="locality" />
		<tag k="ssr:stedsnr" v="891982" />
	</node>
	<node lat="60.957208330270035" lon="10.304975004093556" id="-35497">
		<tag k="name" v="Storflågåmyrhaugen" />
		<tag k="natural" v="hill" />
		<tag k="place" v="locality" />
		<tag k="ssr:stedsnr" v="706314" />
	</node>
	<node lat="60.96034999747031" lon="10.319238884019574" id="-35498">
		<tag k="name" v="Langholen" />
		<tag k="place" v="locality" />
		<tag k="ssr:stedsnr" v="706318" />
	</node>
	<node lat="60.8894250020706" lon="10.230844436869623" id="-35499">
		<tag k="name" v="Larssletta" />
		<tag k="place" v="locality" />
		<tag k="ssr:stedsnr" v="706529" />
	</node>
	<node lat="60.89261944421824" lon="10.638533328088265" id="-35500">
		<tag k="name" v="Roliddovre" />
		<tag k="natural" v="slope" />
		<tag k="place" v="locality" />
		<tag k="ssr:stedsnr" v="708110" />
	</node>
	<node lat="60.853225000579" lon="10.432683336441189" id="-35502">
		<tag k="name" v="Stormyrhaugen" />
		<tag k="natural" v="hill" />
		<tag k="place" v="locality" />
		<tag k="ssr:stedsnr" v="708115" />
	</node>
	<node lat="60.92764722494745" lon="10.370733325348155" id="-35509">
		<tag k="fixme" v="consider natural=peak for the most distinct mountains in the district" />
		<tag k="name" v="Rasmusrønningsberga" />
		<tag k="natural" v="hill" />
		<tag k="place" v="locality" />
		<tag k="ssr:stedsnr" v="708229" />
	</node>
	<node lat="60.921741665925865" lon="10.255772227306313" id="-35511">
		<tag k="name" v="Bekkedalen" />
		<tag k="natural" v="valley" />
		<tag k="place" v="locality" />
		<tag k="ssr:stedsnr" v="708273" />
	</node>
	<node lat="60.9529361122808" lon="10.41930277405886" id="-35525">
		<tag k="name" v="Skaret" />
		<tag k="natural" v="valley" />
		<tag k="place" v="locality" />
		<tag k="ssr:stedsnr" v="708714" />
	</node>
	<node lat="60.975041670524725" lon="10.210005552657629" id="-35533">
		<tag k="name" v="Finnskaret" />
		<tag k="natural" v="gorge" />
		<tag k="ssr:stedsnr" v="722109" />
	</node>
	<node lat="60.95392499916029" lon="10.307208332901851" id="-35535">
		<tag k="name" v="Turthaugen" />
		<tag k="natural" v="hill" />
		<tag k="place" v="locality" />
		<tag k="ssr:stedsnr" v="736272" />
	</node>
	<node lat="60.91198889140012" lon="10.223972224324179" id="-35568">
		<tag k="name" v="Fleinskallberget" />
		<tag k="natural" v="hill" />
		<tag k="place" v="locality" />
		<tag k="ssr:stedsnr" v="906677" />
	</node>
	<node lat="60.93179444686285" lon="10.344663880000846" id="-35574">
		<tag k="name" v="Seterlia" />
		<tag k="natural" v="slope" />
		<tag k="place" v="locality" />
		<tag k="ssr:stedsnr" v="767318" />
	</node>
	<node lat="60.935508337786715" lon="10.313505549581825" id="-35575">
		<tag k="name" v="Vasshaugen" />
		<tag k="natural" v="hill" />
		<tag k="place" v="locality" />
		<tag k="ssr:stedsnr" v="767341" />
	</node>
	<node lat="60.907663891785226" lon="10.38963888477914" id="-35576">
		<tag k="name" v="Baklia" />
		<tag k="natural" v="slope" />
		<tag k="place" v="locality" />
		<tag k="ssr:stedsnr" v="768138" />
	</node>
	<node lat="60.914502775438635" lon="10.5858333243887" id="-35579">
		<tag k="name" v="Bjerkehelvete" />
		<tag k="natural" v="gorge" />
		<tag k="ssr:stedsnr" v="768301" />
	</node>
	<node lat="60.87947222362636" lon="10.431727786929343" id="-35586">
		<tag k="name" v="Langeleite" />
		<tag k="place" v="locality" />
		<tag k="ssr:stedsnr" v="769148" />
	</node>
	<node lat="60.97351666699168" lon="10.514502780893974" id="-35591">
		<tag k="name" v="Heggehaugen" />
		<tag k="natural" v="hill" />
		<tag k="place" v="locality" />
		<tag k="ssr:stedsnr" v="769714" />
	</node>
	<node lat="60.96886388569959" lon="10.202919452230972" id="-35601">
		<tag k="name" v="Holmtjennslia" />
		<tag k="natural" v="slope" />
		<tag k="place" v="locality" />
		<tag k="ssr:stedsnr" v="784256" />
	</node>
	<node lat="60.94484999782714" lon="10.58828334227448" id="-35648">
		<tag k="name" v="Lundeberget" />
		<tag k="natural" v="hill" />
		<tag k="place" v="locality" />
		<tag k="ssr:stedsnr" v="920755" />
	</node>
	<node lat="60.90065181972075" lon="10.658727541223652" id="-35653">
		<tag k="name" v="Romedal" />
		<tag k="natural" v="valley" />
		<tag k="place" v="locality" />
		<tag k="ssr:stedsnr" v="830080" />
	</node>
	<node lat="60.95566111142467" lon="10.451075008695817" id="-35667">
		<tag k="name" v="Steinbakken" />
		<tag k="natural" v="slope" />
		<tag k="place" v="locality" />
		<tag k="ssr:stedsnr" v="830184" />
	</node>
	<node lat="60.9364166666698" lon="10.38214443601018" id="-35700">
		<tag k="name" v="Lauvsvehøgda" />
		<tag k="natural" v="hill" />
		<tag k="place" v="locality" />
		<tag k="ssr:stedsnr" v="870404" />
	</node>
	<node lat="60.78510833492468" lon="10.51122778075201" id="-35707">
		<tag k="name" v="Revhiholen" />
		<tag k="natural" v="valley" />
		<tag k="place" v="locality" />
		<tag k="ssr:stedsnr" v="890144" />
	</node>
	<node lat="60.90482777854978" lon="10.36521667216849" id="-35708">
		<tag k="fixme" v="consider natural=peak for the most distinct mountains in the district" />
		<tag k="name" v="Rugsvehøgda" />
		<tag k="natural" v="hill" />
		<tag k="place" v="locality" />
		<tag k="ssr:stedsnr" v="890152" />
	</node>
	<node lat="60.91104444498243" lon="10.338108330368609" id="-35709">
		<tag k="name" v="Bjønnslettberga" />
		<tag k="natural" v="hill" />
		<tag k="place" v="locality" />
		<tag k="ssr:stedsnr" v="890294" />
	</node>
	<node lat="60.9963750030625" lon="10.305016668974028" id="-35711">
		<tag k="name" v="Vismundslia" />
		<tag k="natural" v="slope" />
		<tag k="place" v="locality" />
		<tag k="ssr:stedsnr" v="890419" />
	</node>
	<node lat="60.925197219745726" lon="10.574024999495569" id="-35726">
		<tag k="name" v="Åbakkhaugen" />
		<tag k="natural" v="hill" />
		<tag k="place" v="locality" />
		<tag k="ssr:stedsnr" v="891675" />
	</node>
	<node lat="60.94451944734071" lon="10.347558327644856" id="-35755">
		<tag k="name" v="Stormyrhaugen" />
		<tag k="natural" v="hill" />
		<tag k="place" v="locality" />
		<tag k="ssr:stedsnr" v="949303" />
	</node>
	<node lat="60.806363886238756" lon="10.470655563748613" id="-35758">
		<tag k="name" v="Mustadhaugen" />
		<tag k="natural" v="hill" />
		<tag k="place" v="locality" />
		<tag k="ssr:stedsnr" v="951128" />
	</node>
	<node lat="60.95743055952037" lon="10.475683335454859" id="-35765">
		<tag k="name" v="Dorrbakka" />
		<tag k="natural" v="slope" />
		<tag k="place" v="locality" />
		<tag k="ssr:stedsnr" v="951203" />
	</node>
	<node lat="60.947366665102514" lon="10.454727781068181" id="-35767">
		<tag k="name" v="Tyttebærbakka" />
		<tag k="natural" v="slope" />
		<tag k="place" v="locality" />
		<tag k="ssr:stedsnr" v="951197" />
	</node>
	<node lat="60.990822223750094" lon="10.197372226803884" id="-35832">
		<tag k="name" v="Finndalen" />
		<tag k="natural" v="valley" />
		<tag k="place" v="locality" />
		<tag k="ssr:stedsnr" v="9282" />
	</node>
	<node lat="60.994724996231454" lon="10.440138894650644" id="-35838">
		<tag k="name" v="Slemdalen" />
		<tag k="natural" v="valley" />
		<tag k="place" v="locality" />
		<tag k="ssr:stedsnr" v="9723" />
	</node>
	<node lat="60.811824998473654" lon="10.643500004569301" id="-35850">
		<tag k="name" v="Bergstoppen" />
		<tag k="natural" v="hill" />
		<tag k="place" v="locality" />
		<tag k="ssr:stedsnr" v="9966" />
	</node>
	<node lat="60.93840833464196" lon="10.319997217699266" id="-35857">
		<tag k="name" v="Stormyrhaugen" />
		<tag k="natural" v="hill" />
		<tag k="place" v="locality" />
		<tag k="ssr:stedsnr" v="39277" />
	</node>
	<node lat="60.95107499953458" lon="10.352738897866677" id="-35858">
		<tag k="name" v="Midtholen" />
		<tag k="place" v="locality" />
		<tag k="ssr:stedsnr" v="39278" />
	</node>
	<node lat="60.870841664620194" lon="10.379658333017199" id="-35871">
		<tag k="name" v="Grønnhaugen" />
		<tag k="natural" v="hill" />
		<tag k="place" v="locality" />
		<tag k="ssr:stedsnr" v="41176" />
	</node>
	<node lat="60.87530000442168" lon="10.424383337091392" id="-35879">
		<tag k="name" v="Mønstreplassen" />
		<tag k="place" v="locality" />
		<tag k="ssr:stedsnr" v="41162" />
	</node>
	<node lat="60.952269442395924" lon="10.409344437167535" id="-35888">
		<tag k="name" v="Slahaugen" />
		<tag k="natural" v="hill" />
		<tag k="place" v="locality" />
		<tag k="ssr:stedsnr" v="41718" />
	</node>
	<node lat="60.7689083320113" lon="10.642086103681766" id="-35892">
		<tag k="name" v="Stubbeknotten" />
		<tag k="natural" v="hill" />
		<tag k="place" v="locality" />
		<tag k="ssr:stedsnr" v="41994" />
	</node>
	<node lat="60.9016416683589" lon="10.231319443744889" id="-35902">
		<tag k="name" v="Fløytlia" />
		<tag k="natural" v="slope" />
		<tag k="place" v="locality" />
		<tag k="ssr:stedsnr" v="56218" />
	</node>
	<node lat="60.95367499747661" lon="10.28005556282067" id="-35908">
		<tag k="name" v="Sæterhaugen" />
		<tag k="natural" v="hill" />
		<tag k="place" v="locality" />
		<tag k="ssr:stedsnr" v="69278" />
	</node>
	<node lat="60.77755555875057" lon="10.551997216863656" id="-35918">
		<tag k="name" v="Skonhovdhøgda" />
		<tag k="natural" v="hill" />
		<tag k="place" v="locality" />
		<tag k="ssr:stedsnr" v="70055" />
	</node>
	<node lat="60.818736112504716" lon="10.406349996799424" id="-35931">
		<tag k="name" v="Snaret" />
		<tag k="natural" v="hill" />
		<tag k="place" v="locality" />
		<tag k="ssr:stedsnr" v="70951" />
	</node>
	<node lat="60.94896111555671" lon="10.305047220698444" id="-35937">
		<tag k="name" v="Turthauga" />
		<tag k="natural" v="hill" />
		<tag k="place" v="locality" />
		<tag k="ssr:stedsnr" v="99339" />
	</node>
	<node lat="60.94187222199877" lon="10.347716675078306" id="-35939">
		<tag k="name" v="Amundsvelia" />
		<tag k="natural" v="slope" />
		<tag k="place" v="locality" />
		<tag k="ssr:stedsnr" v="99349" />
	</node>
	<node lat="60.94142499847088" lon="10.342299995412631" id="-35940">
		<tag k="name" v="Høghauga" />
		<tag k="natural" v="hill" />
		<tag k="place" v="locality" />
		<tag k="ssr:stedsnr" v="99350" />
	</node>
	<node lat="60.92066944288167" lon="10.460186107529399" id="-35946">
		<tag k="name" v="Drogsetseterhaugen" />
		<tag k="natural" v="hill" />
		<tag k="place" v="locality" />
		<tag k="ssr:stedsnr" v="101140" />
	</node>
	<node lat="60.954766670796516" lon="10.279502785063736" id="-35955">
		<tag k="name" v="Sørhauga" />
		<tag k="natural" v="hill" />
		<tag k="place" v="locality" />
		<tag k="ssr:stedsnr" v="101323" />
	</node>
	<node lat="60.8968666627086" lon="10.594311117856838" id="-35956">
		<tag k="name" v="Strandbakkhøgda" />
		<tag k="natural" v="hill" />
		<tag k="place" v="locality" />
		<tag k="ssr:stedsnr" v="101326" />
	</node>
	<node lat="60.988272220815325" lon="10.437163892651164" id="-35960">
		<tag k="name" v="Stuveåsen" />
		<tag k="natural" v="hill" />
		<tag k="place" v="locality" />
		<tag k="ssr:stedsnr" v="101638" />
	</node>
	<node lat="60.97556389142164" lon="10.478163886172975" id="-35962">
		<tag k="name" v="Lierengberget" />
		<tag k="natural" v="hill" />
		<tag k="place" v="locality" />
		<tag k="ssr:stedsnr" v="101642" />
	</node>
	<node lat="60.88584166949845" lon="10.461152770930275" id="-35966">
		<tag k="name" v="Rustetaje" />
		<tag k="place" v="locality" />
		<tag k="ssr:stedsnr" v="102201" />
	</node>
	<node lat="60.853999995897716" lon="10.51180278286529" id="-35967">
		<tag k="fixme" v="consider natural=peak for the most distinct mountains in the district" />
		<tag k="name" v="Linningsberghøgda" />
		<tag k="natural" v="hill" />
		<tag k="place" v="locality" />
		<tag k="ssr:stedsnr" v="102019" />
	</node>
	<node lat="60.89837778110256" lon="10.28164166536182" id="-35978">
		<tag k="name" v="Høgbakka" />
		<tag k="natural" v="hill" />
		<tag k="place" v="locality" />
		<tag k="ssr:stedsnr" v="102776" />
	</node>
	<node lat="60.90747777532992" lon="10.22442778330309" id="-35990">
		<tag k="name" v="Bakkelia" />
		<tag k="natural" v="slope" />
		<tag k="place" v="locality" />
		<tag k="ssr:stedsnr" v="117276" />
	</node>
	<node lat="60.808645400871" lon="10.614033409989062" id="-35999">
		<tag k="name" v="Knappen" />
		<tag k="natural" v="hill" />
		<tag k="place" v="locality" />
		<tag k="ssr:stedsnr" v="130021" />
	</node>
	<node lat="60.938094446910156" lon="10.30823332936409" id="-36024">
		<tag k="name" v="Veltvasshaugen" />
		<tag k="natural" v="hill" />
		<tag k="place" v="locality" />
		<tag k="ssr:stedsnr" v="160299" />
	</node>
	<node lat="60.888336114494905" lon="10.455608330617341" id="-36030">
		<tag k="name" v="Brenna" />
		<tag k="place" v="locality" />
		<tag k="ssr:stedsnr" v="162134" />
	</node>
	<node lat="60.86470833059466" lon="10.452419447927982" id="-36032">
		<tag k="name" v="Rådalene" />
		<tag k="natural" v="valley" />
		<tag k="place" v="locality" />
		<tag k="ssr:stedsnr" v="162079" />
	</node>
	<node lat="60.855572219927495" lon="10.448005555834518" id="-36033">
		<tag k="name" v="Thorholen" />
		<tag k="natural" v="hill" />
		<tag k="place" v="locality" />
		<tag k="ssr:stedsnr" v="162080" />
	</node>
	<node lat="60.81101666821977" lon="10.533711104169411" id="-36036">
		<tag k="name" v="Grytbakka" />
		<tag k="natural" v="slope" />
		<tag k="place" v="locality" />
		<tag k="ssr:stedsnr" v="162083" />
	</node>
	<node lat="60.91054721978942" lon="10.489424996049882" id="-36053">
		<tag k="name" v="Skundbergseterhaugen" />
		<tag k="natural" v="hill" />
		<tag k="place" v="locality" />
		<tag k="ssr:stedsnr" v="162398" />
	</node>
	<node lat="60.94457777793276" lon="10.169513891805973" id="-36056">
		<tag k="name" v="Byttingsvea" />
		<tag k="place" v="locality" />
		<tag k="ssr:stedsnr" v="162640" />
	</node>
	<node lat="60.94381944421698" lon="10.637625000295342" id="-36083">
		<tag k="name" v="Eriksrudberga" />
		<tag k="natural" v="hill" />
		<tag k="place" v="locality" />
		<tag k="ssr:stedsnr" v="165614" />
	</node>
	<node lat="60.96018333624895" lon="10.191491661406193" id="-36087">
		<tag k="fixme" v="consider natural=peak for the most distinct mountains in the district" />
		<tag k="name" v="Blesterlihøgda" />
		<tag k="natural" v="hill" />
		<tag k="place" v="locality" />
		<tag k="ssr:stedsnr" v="177231" />
	</node>
	<node lat="60.92265555487288" lon="10.230008335941362" id="-36089">
		<tag k="fixme" v="consider natural=peak for the most distinct mountains in the district" />
		<tag k="name" v="Lonkehøgda" />
		<tag k="natural" v="hill" />
		<tag k="place" v="locality" />
		<tag k="ssr:stedsnr" v="177682" />
	</node>
	<node lat="60.907719444166574" lon="10.219597218521056" id="-36125">
		<tag k="name" v="Bakken" />
		<tag k="natural" v="slope" />
		<tag k="place" v="locality" />
		<tag k="ssr:stedsnr" v="221539" />
	</node>
	<node lat="60.94226111361513" lon="10.386308338374866" id="-36149">
		<tag k="name" v="Silverhaugen" />
		<tag k="natural" v="hill" />
		<tag k="place" v="locality" />
		<tag k="ssr:stedsnr" v="223260" />
	</node>
	<node lat="60.84178888532456" lon="10.68057778201171" id="-36158">
		<tag k="name" v="Ramberget" />
		<tag k="natural" v="hill" />
		<tag k="place" v="locality" />
		<tag k="ssr:stedsnr" v="223892" />
	</node>
	<node lat="60.94518055113549" lon="10.589799998084175" id="-36161">
		<tag k="name" v="Bjønnskaret" />
		<tag k="natural" v="valley" />
		<tag k="place" v="locality" />
		<tag k="ssr:stedsnr" v="223680" />
	</node>
	<node lat="60.975483335652484" lon="10.375338890267418" id="-36165">
		<tag k="name" v="Stumliskreua" />
		<tag k="natural" v="slope" />
		<tag k="place" v="locality" />
		<tag k="ssr:stedsnr" v="223757" />
	</node>
	<node lat="61.02337500282186" lon="10.33388334065113" id="-36181">
		<tag k="name" v="Heggetrekanten" />
		<tag k="place" v="locality" />
		<tag k="ssr:stedsnr" v="283338" />
	</node>
	<node lat="60.92630555176332" lon="10.203336102023181" id="-36186">
		<tag k="name" v="Sagmoen" />
		<tag k="place" v="locality" />
		<tag k="ssr:stedsnr" v="284617" />
	</node>
	<node lat="60.898400002951846" lon="10.657475001894758" id="-36190">
		<tag k="name" v="Lysa" />
		<tag k="place" v="locality" />
		<tag k="ssr:stedsnr" v="283650" />
	</node>
	<node lat="60.987338886921115" lon="10.483727773803174" id="-36204">
		<tag k="name" v="Finstadhaugen" />
		<tag k="natural" v="hill" />
		<tag k="place" v="locality" />
		<tag k="ssr:stedsnr" v="284636" />
	</node>
	<node lat="60.96145277435913" lon="10.538377772837583" id="-36213">
		<tag k="name" v="Brattbergsberga" />
		<tag k="natural" v="hill" />
		<tag k="place" v="locality" />
		<tag k="ssr:stedsnr" v="284749" />
	</node>
	<node lat="60.91871388548622" lon="10.619994444827515" id="-36221">
		<tag k="name" v="Sagflåa" />
		<tag k="place" v="locality" />
		<tag k="ssr:stedsnr" v="298459" />
	</node>
	<node lat="60.95931666687207" lon="10.189002777586651" id="-36224">
		<tag k="name" v="Blesterlia" />
		<tag k="natural" v="slope" />
		<tag k="place" v="locality" />
		<tag k="ssr:stedsnr" v="299259" />
	</node>
	<node lat="60.95249444136671" lon="10.4256972138327" id="-36253">
		<tag k="alt_name" v="Bjønnhaugen" />
		<tag k="name" v="Bjørnhaugen" />
		<tag k="natural" v="hill" />
		<tag k="place" v="locality" />
		<tag k="ssr:stedsnr" v="323380" />
	</node>
	<node lat="60.90785833349478" lon="10.378175007890984" id="-36263">
		<tag k="fixme" v="consider natural=peak for the most distinct mountains in the district" />
		<tag k="name" v="Larssvehøgda" />
		<tag k="natural" v="hill" />
		<tag k="place" v="locality" />
		<tag k="ssr:stedsnr" v="344135" />
	</node>
	<node lat="60.917483330907984" lon="10.376411117222037" id="-36266">
		<tag k="name" v="Huttetu" />
		<tag k="place" v="locality" />
		<tag k="ssr:stedsnr" v="344238" />
	</node>
	<node lat="60.90802777831216" lon="10.622866675526835" id="-36269">
		<tag k="name" v="Valdresstueberga" />
		<tag k="natural" v="hill" />
		<tag k="place" v="locality" />
		<tag k="ssr:stedsnr" v="344080" />
	</node>
	<node lat="60.962922220461024" lon="10.273147229210688" id="-36274">
		<tag k="name" v="Seterhauga" />
		<tag k="natural" v="hill" />
		<tag k="place" v="locality" />
		<tag k="ssr:stedsnr" v="344350" />
	</node>
	<node lat="61.0207805594201" lon="10.321394450540918" id="-36282">
		<tag k="name" v="Bessfarholen" />
		<tag k="natural" v="hill" />
		<tag k="place" v="locality" />
		<tag k="ssr:stedsnr" v="344435" />
	</node>
	<node lat="60.988052778642526" lon="10.215780561388227" id="-36289">
		<tag k="name" v="Avdalshøgda" />
		<tag k="natural" v="hill" />
		<tag k="place" v="locality" />
		<tag k="ssr:stedsnr" v="344690" />
	</node>
	<node lat="60.97611388726435" lon="10.182258327019435" id="-36298">
		<tag k="alt_name" v="Kvitberget" />
		<tag k="fixme" v="consider natural=peak for the most distinct mountains in the district" />
		<tag k="name" v="Kvitberga" />
		<tag k="natural" v="hill" />
		<tag k="place" v="locality" />
		<tag k="ssr:stedsnr" v="358129" />
	</node>
	<node lat="60.972674996818434" lon="10.222808329379111" id="-36314">
		<tag k="alt_name" v="Bjønnhaugen" />
		<tag k="name" v="Bjørnhaugen" />
		<tag k="natural" v="hill" />
		<tag k="place" v="locality" />
		<tag k="ssr:stedsnr" v="373341" />
	</node>
	<node lat="60.94749166314918" lon="10.332761119092913" id="-36347">
		<tag k="name" v="Sangsæterberga" />
		<tag k="natural" v="hill" />
		<tag k="place" v="locality" />
		<tag k="ssr:stedsnr" v="403301" />
	</node>
	<node lat="60.79219444282781" lon="10.508041658804752" id="-36349">
		<tag k="name" v="Presthaugen" />
		<tag k="natural" v="hill" />
		<tag k="place" v="locality" />
		<tag k="ssr:stedsnr" v="404136" />
	</node>
	<node lat="60.89968055371634" lon="10.384802779489705" id="-36350">
		<tag k="name" v="Brattlihaugen" />
		<tag k="natural" v="hill" />
		<tag k="place" v="locality" />
		<tag k="ssr:stedsnr" v="404138" />
	</node>
	<node lat="60.961691666003894" lon="10.47904722258055" id="-36362">
		<tag k="name" v="Danslihølet" />
		<tag k="natural" v="slope" />
		<tag k="place" v="locality" />
		<tag k="ssr:stedsnr" v="405210" />
	</node>
	<node lat="60.928213887616515" lon="10.477016675245553" id="-36366">
		<tag k="name" v="Brenna" />
		<tag k="natural" v="hill" />
		<tag k="place" v="locality" />
		<tag k="ssr:stedsnr" v="405142" />
	</node>
	<node lat="60.91052222390401" lon="10.495894447649833" id="-36373">
		<tag k="name" v="Vasshaugen" />
		<tag k="natural" v="hill" />
		<tag k="place" v="locality" />
		<tag k="ssr:stedsnr" v="405400" />
	</node>
	<node lat="60.9243777748137" lon="10.223211109222666" id="-36392">
		<tag k="name" v="Svartbrenndalen" />
		<tag k="natural" v="valley" />
		<tag k="place" v="locality" />
		<tag k="ssr:stedsnr" v="420677" />
	</node>
	<node lat="61.02168888821427" lon="10.400205551457347" id="-36393">
		<tag k="alt_name" v="Bjønnådalen" />
		<tag k="name" v="Bjørnådalen" />
		<tag k="natural" v="valley" />
		<tag k="place" v="locality" />
		<tag k="ssr:stedsnr" v="432715" />
	</node>
	<node lat="60.97008888716777" lon="10.329899991286096" id="-36411">
		<tag k="name" v="Djupdalen" />
		<tag k="natural" v="valley" />
		<tag k="place" v="locality" />
		<tag k="ssr:stedsnr" v="434311" />
	</node>
	<node lat="60.906136107900636" lon="10.608905554831006" id="-36426">
		<tag k="name" v="Nordsvehaugen" />
		<tag k="natural" v="hill" />
		<tag k="place" v="locality" />
		<tag k="ssr:stedsnr" v="445405" />
	</node>
	<node lat="60.97480277445354" lon="10.551525000409105" id="-36427">
		<tag k="name" v="Liberget" />
		<tag k="natural" v="hill" />
		<tag k="place" v="locality" />
		<tag k="ssr:stedsnr" v="445521" />
	</node>
	<node lat="60.944338890732546" lon="10.452980555013873" id="-36435">
		<tag k="alt_name" v="Lauvhuggu" />
		<tag k="name" v="Lauvhugu" />
		<tag k="natural" v="hill" />
		<tag k="place" v="locality" />
		<tag k="ssr:stedsnr" v="505384" />
	</node>
	<node lat="60.859863887700634" lon="10.462799992350396" id="-36438">
		<tag k="name" v="Rådalen" />
		<tag k="natural" v="valley" />
		<tag k="place" v="locality" />
		<tag k="ssr:stedsnr" v="526078" />
	</node>
	<node lat="60.850558333130216" lon="10.424908332016908" id="-36445">
		<tag k="name" v="Bjørnhaugen" />
		<tag k="natural" v="hill" />
		<tag k="place" v="locality" />
		<tag k="ssr:stedsnr" v="526093" />
	</node>
	<node lat="60.853900001676315" lon="10.647283339613363" id="-36450">
		<tag k="name" v="Herbergshaugen" />
		<tag k="natural" v="hill" />
		<tag k="place" v="locality" />
		<tag k="ssr:stedsnr" v="526174" />
	</node>
	<node lat="60.959283334220615" lon="10.423911113741713" id="-36455">
		<tag k="name" v="Slette" />
		<tag k="place" v="locality" />
		<tag k="ssr:stedsnr" v="526201" />
	</node>
	<node lat="60.94704444388226" lon="10.494252768954643" id="-36456">
		<tag k="name" v="Femtommen" />
		<tag k="natural" v="slope" />
		<tag k="place" v="locality" />
		<tag k="ssr:stedsnr" v="526294" />
	</node>
	<node lat="60.793397226666016" lon="10.546247214360426" id="-36463">
		<tag k="name" v="Grytdalen" />
		<tag k="natural" v="valley" />
		<tag k="place" v="locality" />
		<tag k="ssr:stedsnr" v="526149" />
	</node>
	<node lat="60.934029319179494" lon="10.451217782396224" id="-36512">
		<tag k="alt_name" v="Vinterhuggu" />
		<tag k="name" v="Vinterhugu" />
		<tag k="natural" v="hill" />
		<tag k="place" v="locality" />
		<tag k="ssr:stedsnr" v="566391" />
	</node>
	<node lat="60.93185555648357" lon="10.319986109002025" id="-36513">
		<tag k="name" v="Overhallslia" />
		<tag k="natural" v="slope" />
		<tag k="place" v="locality" />
		<tag k="ssr:stedsnr" v="584358" />
	</node>
	<node lat="60.892955552232415" lon="10.239594443038964" id="-36514">
		<tag k="name" v="Reviholen" />
		<tag k="natural" v="slope" />
		<tag k="place" v="locality" />
		<tag k="ssr:stedsnr" v="584581" />
	</node>
	<node lat="60.905616669382574" lon="10.23113054894934" id="-36515">
		<tag k="name" v="Sagsletta" />
		<tag k="place" v="locality" />
		<tag k="ssr:stedsnr" v="584583" />
	</node>
	<node lat="60.97735833256505" lon="10.200911113641972" id="-36516">
		<tag k="name" v="Ringsrudsæterhøgda" />
		<tag k="natural" v="hill" />
		<tag k="place" v="locality" />
		<tag k="ssr:stedsnr" v="584678" />
	</node>
	<node lat="60.90183888640105" lon="10.382625006271295" id="-36519">
		<tag k="name" v="Djupdalen" />
		<tag k="natural" v="valley" />
		<tag k="place" v="locality" />
		<tag k="ssr:stedsnr" v="586131" />
	</node>
	<node lat="60.888722218161206" lon="10.51785556010002" id="-36522">
		<tag k="name" v="Merrahaugen" />
		<tag k="natural" v="hill" />
		<tag k="place" v="locality" />
		<tag k="ssr:stedsnr" v="586487" />
	</node>
	<node lat="60.91515833002957" lon="10.606605555078835" id="-36523">
		<tag k="name" v="Vindfallhaugen" />
		<tag k="natural" v="hill" />
		<tag k="place" v="locality" />
		<tag k="ssr:stedsnr" v="587480" />
	</node>
	<node lat="61.023413885101824" lon="10.31385278060875" id="-36524">
		<tag k="name" v="Hovdetrekanten" />
		<tag k="place" v="locality" />
		<tag k="ssr:stedsnr" v="586416" />
	</node>
	<node lat="60.925897220581135" lon="10.199655555286945" id="-36535">
		<tag k="name" v="Sagsvea" />
		<tag k="place" v="locality" />
		<tag k="ssr:stedsnr" v="587646" />
	</node>
	<node lat="60.917794446236634" lon="10.265047219015175" id="-36550">
		<tag k="name" v="Snertingdalen" />
		<tag k="natural" v="valley" />
		<tag k="place" v="locality" />
		<tag k="ssr:stedsnr" v="615458" />
	</node>
	<node lat="60.78204999629927" lon="10.581002770725151" id="-36593">
		<tag k="name" v="Brattenghøgda" />
		<tag k="natural" v="hill" />
		<tag k="place" v="locality" />
		<tag k="ssr:stedsnr" v="647171" />
	</node>
	<node lat="60.927916669118574" lon="10.592119437208936" id="-36600">
		<tag k="name" v="Gullordhaugen" />
		<tag k="natural" v="hill" />
		<tag k="place" v="locality" />
		<tag k="ssr:stedsnr" v="647355" />
	</node>
	<node lat="60.964663892784806" lon="10.306574991179072" id="-36601">
		<tag k="name" v="Svarkeholene" />
		<tag k="place" v="locality" />
		<tag k="ssr:stedsnr" v="647357" />
	</node>
	<node lat="60.945216669500006" lon="10.286902786858617" id="-36608">
		<tag k="name" v="Sørgerlia" />
		<tag k="natural" v="slope" />
		<tag k="place" v="locality" />
		<tag k="ssr:stedsnr" v="647391" />
	</node>
	<node lat="60.9236083312467" lon="10.491744446855915" id="-36609">
		<tag k="name" v="Mushaugen" />
		<tag k="natural" v="hill" />
		<tag k="place" v="locality" />
		<tag k="ssr:stedsnr" v="647394" />
	</node>
	<node lat="60.88331388576992" lon="10.53339444258524" id="-36614">
		<tag k="name" v="Furusvea" />
		<tag k="place" v="locality" />
		<tag k="ssr:stedsnr" v="647457" />
	</node>
	<node lat="60.95211666281595" lon="10.206183339060951" id="-36629">
		<tag k="name" v="Oksemyrhaugen" />
		<tag k="natural" v="hill" />
		<tag k="place" v="locality" />
		<tag k="ssr:stedsnr" v="724014" />
	</node>
	<node lat="61.02849999748355" lon="10.328177782616136" id="-36631">
		<tag k="name" v="Kveahaugen" />
		<tag k="natural" v="hill" />
		<tag k="place" v="locality" />
		<tag k="ssr:stedsnr" v="735199" />
	</node>
	<node lat="60.91161111427219" lon="10.476791666685193" id="-36665">
		<tag k="alt_name" v="Gammelseterhaugen" />
		<tag k="name" v="Gamlesæterhaugen" />
		<tag k="natural" v="hill" />
		<tag k="place" v="locality" />
		<tag k="ssr:stedsnr" v="748387" />
	</node>
	<node lat="61.017230558562495" lon="10.36084721972069" id="-36667">
		<tag k="name" v="Ankerlia" />
		<tag k="natural" v="slope" />
		<tag k="place" v="locality" />
		<tag k="ssr:stedsnr" v="768367" />
	</node>
	<node lat="60.898411113839" lon="10.606555548667805" id="-36682">
		<tag k="fixme" v="consider natural=peak for the most distinct mountains in the district" />
		<tag k="name" v="Hagaberget" />
		<tag k="natural" v="hill" />
		<tag k="place" v="locality" />
		<tag k="ssr:stedsnr" v="769081" />
	</node>
	<node lat="60.94990833512957" lon="10.45522222223432" id="-36694">
		<tag k="name" v="Renningsbakka" />
		<tag k="natural" v="slope" />
		<tag k="place" v="locality" />
		<tag k="ssr:stedsnr" v="769187" />
	</node>
	<node lat="60.94801944477694" lon="10.25571943663419" id="-36698">
		<tag k="name" v="Stormyrlia" />
		<tag k="natural" v="slope" />
		<tag k="place" v="locality" />
		<tag k="ssr:stedsnr" v="769377" />
	</node>
	<node lat="60.886166665289224" lon="10.537188885989023" id="-36707">
		<tag k="name" v="Høgsvea" />
		<tag k="place" v="locality" />
		<tag k="ssr:stedsnr" v="769461" />
	</node>
	<node lat="61.01672500337072" lon="10.396441670636356" id="-36708">
		<tag k="fixme" v="consider natural=peak for the most distinct mountains in the district" />
		<tag k="name" v="Bjørnstadåsen" />
		<tag k="natural" v="hill" />
		<tag k="place" v="locality" />
		<tag k="ssr:stedsnr" v="769598" />
	</node>
	<node lat="60.72921110881727" lon="10.526549996318536" id="-36713">
		<tag k="name" v="Lushattdalen" />
		<tag k="natural" v="valley" />
		<tag k="place" v="locality" />
		<tag k="ssr:stedsnr" v="769933" />
	</node>
	<node lat="60.91778333343685" lon="10.545249991118066" id="-36748">
		<tag k="name" v="Skolthaugen" />
		<tag k="natural" v="hill" />
		<tag k="place" v="locality" />
		<tag k="ssr:stedsnr" v="798823" />
	</node>
	<node lat="60.902733332902294" lon="10.581541658150787" id="-36751">
		<tag k="name" v="Vardhaugen" />
		<tag k="natural" v="hill" />
		<tag k="place" v="locality" />
		<tag k="ssr:stedsnr" v="798840" />
	</node>
	<node lat="60.98913055121583" lon="10.466891663379405" id="-36759">
		<tag k="name" v="Bonstadhaugen" />
		<tag k="natural" v="hill" />
		<tag k="place" v="locality" />
		<tag k="ssr:stedsnr" v="809522" />
	</node>
	<node lat="60.928402779951874" lon="10.494747230533665" id="-36763">
		<tag k="name" v="Mushaugen" />
		<tag k="natural" v="hill" />
		<tag k="place" v="locality" />
		<tag k="ssr:stedsnr" v="809421" />
	</node>
	<node lat="60.97636666680944" lon="10.488552770846798" id="-36765">
		<tag k="name" v="Alsetstuguberget" />
		<tag k="natural" v="hill" />
		<tag k="place" v="locality" />
		<tag k="ssr:stedsnr" v="809527" />
	</node>
	<node lat="60.96226388510756" lon="10.31760834204099" id="-36768">
		<tag k="name" v="Svarkedårlia" />
		<tag k="natural" v="slope" />
		<tag k="place" v="locality" />
		<tag k="ssr:stedsnr" v="828324" />
	</node>
	<node lat="60.93975277570224" lon="10.32554999158776" id="-36769">
		<tag k="name" v="Slomyrholen" />
		<tag k="place" v="locality" />
		<tag k="ssr:stedsnr" v="828330" />
	</node>
	<node lat="60.90760000010632" lon="10.472916669352232" id="-36777">
		<tag k="name" v="Gråbeinholen" />
		<tag k="natural" v="slope" />
		<tag k="place" v="locality" />
		<tag k="ssr:stedsnr" v="830132" />
	</node>
	<node lat="60.82385277916408" lon="10.644927768787097" id="-36779">
		<tag k="name" v="Bekkedalen" />
		<tag k="natural" v="valley" />
		<tag k="place" v="locality" />
		<tag k="ssr:stedsnr" v="830140" />
	</node>
	<node lat="60.917138891567" lon="10.311158337772863" id="-36789">
		<tag k="name" v="Djupdalen" />
		<tag k="natural" v="valley" />
		<tag k="place" v="locality" />
		<tag k="ssr:stedsnr" v="830259" />
	</node>
	<node lat="60.990594447851464" lon="10.39278055845401" id="-36803">
		<tag k="name" v="Båbergslia" />
		<tag k="natural" v="slope" />
		<tag k="place" v="locality" />
		<tag k="ssr:stedsnr" v="830749" />
	</node>
	<node lat="61.01932500382342" lon="10.393280564309935" id="-36804">
		<tag k="name" v="Korpereiret" />
		<tag k="natural" v="gorge" />
		<tag k="ssr:stedsnr" v="830605" />
	</node>
	<node lat="60.90371388857345" lon="10.572886102562178" id="-36845">
		<tag k="name" v="Høgbakkhaugen" />
		<tag k="natural" v="hill" />
		<tag k="place" v="locality" />
		<tag k="ssr:stedsnr" v="859850" />
	</node>
	<node lat="60.94280592040612" lon="10.401328489164502" id="-36852">
		<tag k="alt_name" v="Åskardshøgda" />
		<tag k="name" v="Åsgardshaugen" />
		<tag k="natural" v="hill" />
		<tag k="old_name" v="Åsgårdshaugen" />
		<tag k="place" v="locality" />
		<tag k="ssr:stedsnr" v="870397" />
	</node>
	<node lat="60.92160555130634" lon="10.448572214194963" id="-36853">
		<tag k="name" v="Skjenahaugen" />
		<tag k="natural" v="hill" />
		<tag k="place" v="locality" />
		<tag k="ssr:stedsnr" v="870402" />
	</node>
	<node lat="60.879894444984515" lon="10.332463895206542" id="-36854">
		<tag k="name" v="Djupdalen" />
		<tag k="natural" v="valley" />
		<tag k="place" v="locality" />
		<tag k="ssr:stedsnr" v="888689" />
	</node>
	<node lat="60.86625000037705" lon="10.341058337944762" id="-36855">
		<tag k="fixme" v="consider natural=peak for the most distinct mountains in the district" />
		<tag k="name" v="Kirkerudåsen" />
		<tag k="natural" v="hill" />
		<tag k="place" v="locality" />
		<tag k="ssr:stedsnr" v="888693" />
	</node>
	<node lat="60.946450002337066" lon="10.216036104543479" id="-36858">
		<tag k="name" v="Kjerringsvehaugen" />
		<tag k="natural" v="hill" />
		<tag k="place" v="locality" />
		<tag k="ssr:stedsnr" v="951651" />
	</node>
	<node lat="60.94166666528835" lon="10.593466674428399" id="-36861">
		<tag k="name" v="Brynstadberget" />
		<tag k="natural" v="hill" />
		<tag k="place" v="locality" />
		<tag k="ssr:stedsnr" v="951666" />
	</node>
	<node lat="60.898830553897994" lon="10.268966668748345" id="-36864">
		<tag k="name" v="Skaret" />
		<tag k="natural" v="valley" />
		<tag k="place" v="locality" />
		<tag k="ssr:stedsnr" v="951768" />
	</node>
	<node lat="60.91131944381788" lon="10.469827772929603" id="-36873">
		<tag k="name" v="Skalet" />
		<tag k="natural" v="valley" />
		<tag k="place" v="locality" />
		<tag k="ssr:stedsnr" v="951161" />
	</node>
	<node lat="60.8597194416124" lon="10.677777783400591" id="-36879">
		<tag k="name" v="Kollstoppen" />
		<tag k="natural" v="hill" />
		<tag k="place" v="locality" />
		<tag k="ssr:stedsnr" v="951174" />
	</node>
	<node lat="60.901302777244865" lon="10.22619999276289" id="-36898">
		<tag k="name" v="Fløytberget" />
		<tag k="natural" v="hill" />
		<tag k="place" v="locality" />
		<tag k="ssr:stedsnr" v="966129" />
	</node>
	<node lat="60.8071980141869" lon="10.613875239530815" id="-37615">
		<tag k="name" v="Knapphaugen" />
		<tag k="natural" v="hill" />
		<tag k="place" v="locality" />
		<tag k="ssr:stedsnr" v="1079925" />
	</node>
</osm>
