<?xml version="1.0" encoding="UTF-8"?>
<osm version="0.6" generator="osmapis">
	<node lat="60.80281944158522" lon="10.671355549484378" id="-35916">
		<tag k="amenity" v="place_of_worship" />
		<tag k="denomination" v="lutheran" />
		<tag k="name" v="Hunn kapell" />
		<tag k="religion" v="christian" />
		<tag k="ssr:stedsnr" v="223893" />
	</node>
	<node lat="60.880519443421406" lon="10.395463890026512" id="-36212">
		<tag k="amenity" v="place_of_worship" />
		<tag k="fixme" v="specify religion=*, denomination=*, building=* etc" />
		<tag k="name" v="Tabor" />
		<tag k="ssr:stedsnr" v="283136" />
	</node>
	<node lat="60.747755555165874" lon="10.547525004263333" id="-36300">
		<tag k="amenity" v="community_centre" />
		<tag k="name" v="Skumsjøen ungdomssenter" />
		<tag k="ssr:stedsnr" v="344888" />
	</node>
	<node lat="60.77374721845681" lon="10.669425006398649" id="-36313">
		<tag k="amenity" v="place_of_worship" />
		<tag k="denomination" v="lutheran" />
		<tag k="name" v="Engehaugen kirke" />
		<tag k="religion" v="christian" />
		<tag k="ssr:stedsnr" v="465250" />
	</node>
	<node lat="60.81619722325482" lon="10.52443055798768" id="-36431">
		<tag k="amenity" v="place_of_worship" />
		<tag k="denomination" v="lutheran" />
		<tag k="name" v="Vardal kirke" />
		<tag k="old_name" v="Haug kirke" />
		<tag k="religion" v="christian" />
		<tag k="ssr:stedsnr" v="434932" />
	</node>
	<node lat="60.897786112376274" lon="10.338869436289562" id="-36545">
		<tag k="amenity" v="place_of_worship" />
		<tag k="denomination" v="lutheran" />
		<tag k="name" v="Nykirke" />
		<tag k="religion" v="christian" />
		<tag k="ssr:stedsnr" v="676382" />
	</node>
	<node lat="60.80047222195359" lon="10.553830554567448" id="-36596">
		<tag k="amenity" v="community_centre" />
		<tag k="name" v="Bybrua samfunnshus" />
		<tag k="ssr:stedsnr" v="587155" />
	</node>
	<node lat="60.80074444826558" lon="10.590708325708828" id="-36597">
		<tag k="amenity" v="place_of_worship" />
		<tag k="fixme" v="specify religion=*, denomination=*, building=* etc" />
		<tag k="name" v="Betania" />
		<tag k="ssr:stedsnr" v="587161" />
	</node>
	<node lat="60.84390277862287" lon="10.661361115304718" id="-36861">
		<tag k="amenity" v="place_of_worship" />
		<tag k="denomination" v="lutheran" />
		<tag k="name" v="Bråstad kirke" />
		<tag k="religion" v="christian" />
		<tag k="ssr:stedsnr" v="798957" />
	</node>
	<node lat="60.79397772981796" lon="10.65677524702911" id="-36905">
		<tag k="amenity" v="place_of_worship" />
		<tag k="denomination" v="lutheran" />
		<tag k="name" v="Hunn kirke" />
		<tag k="religion" v="christian" />
		<tag k="ssr:stedsnr" v="859008" />
	</node>
	<node lat="60.83143055134728" lon="10.466900004476987" id="-36909">
		<tag k="amenity" v="community_centre" />
		<tag k="name" v="Hagatun" />
		<tag k="ssr:stedsnr" v="858991" />
	</node>
	<node lat="60.815419444668784" lon="10.58157221443838" id="-36933">
		<tag k="amenity" v="community_centre" />
		<tag k="name" v="Medalheim" />
		<tag k="ssr:stedsnr" v="891105" />
	</node>
	<node lat="60.880311110985275" lon="10.46258610380557" id="-37324">
		<tag k="amenity" v="place_of_worship" />
		<tag k="denomination" v="lutheran" />
		<tag k="name" v="Seegård kirke" />
		<tag k="old_name" v="Snertingdal" />
		<tag k="religion" v="christian" />
		<tag k="ssr:stedsnr" v="9927" />
	</node>
	<node lat="60.78746944071706" lon="10.699458340388153" id="-37341">
		<tag k="amenity" v="place_of_worship" />
		<tag k="denomination" v="lutheran" />
		<tag k="name" v="Gjøvik gravkapell" />
		<tag k="religion" v="christian" />
		<tag k="ssr:stedsnr" v="40575" />
	</node>
	<node lat="60.930563887583475" lon="10.243377769582592" id="-37418">
		<tag k="amenity" v="community_centre" />
		<tag k="name" v="Betel" />
		<tag k="ssr:stedsnr" v="99649" />
	</node>
	<node lat="60.79801666717161" lon="10.687722216003621" id="-37463">
		<tag k="amenity" v="place_of_worship" />
		<tag k="denomination" v="lutheran" />
		<tag k="name" v="Gjøvik kirke" />
		<tag k="religion" v="christian" />
		<tag k="ssr:stedsnr" v="116574" />
	</node>
	<node lat="60.797594441140795" lon="10.421855558389188" id="-37505">
		<tag k="name" v="Stangstua" />
		<tag k="place" v="locality" />
		<tag k="ssr:stedsnr" v="162456" />
	</node>
	<node lat="60.80771388875374" lon="10.436622226652581" id="-37674">
		<tag k="amenity" v="community_centre" />
		<tag k="name" v="Mustadroa samfunnshus" />
		<tag k="ssr:stedsnr" v="344091" />
	</node>
	<node lat="60.75973055119469" lon="10.57988888504647" id="-37686">
		<tag k="amenity" v="place_of_worship" />
		<tag k="fixme" v="specify religion=*, denomination=*, building=* etc" />
		<tag k="name" v="Skansen bedehus" />
		<tag k="ssr:stedsnr" v="344234" />
	</node>
	<node lat="60.879183332950866" lon="10.671047228753435" id="-37763">
		<tag k="alt_name" v="Vaastad;Wåstad" />
		<tag k="amenity" v="community_centre" />
		<tag k="name" v="Våstad" />
		<tag k="ssr:stedsnr" v="405231" />
	</node>
	<node lat="60.8691416654176" lon="10.452527781222415" id="-37769">
		<tag k="name" v="Elvedalen motorsenter" />
		<tag k="place" v="locality" />
		<tag k="ssr:stedsnr" v="405079" />
	</node>
	<node lat="61.004691664165996" lon="10.481416661865898" id="-37786">
		<tag k="amenity" v="community_centre" />
		<tag k="name" v="Strandheim" />
		<tag k="ssr:stedsnr" v="405629" />
	</node>
	<node lat="60.95899999924681" lon="10.592041664763842" id="-37846">
		<tag k="amenity" v="place_of_worship" />
		<tag k="denomination" v="lutheran" />
		<tag k="name" v="Biri kirke" />
		<tag k="religion" v="christian" />
		<tag k="ssr:stedsnr" v="494775" />
	</node>
	<node lat="60.88615833273651" lon="10.519475006744658" id="-38061">
		<tag k="amenity" v="community_centre" />
		<tag k="name" v="Skogtun" />
		<tag k="ssr:stedsnr" v="647476" />
	</node>
	<node lat="60.89080277577521" lon="10.636633335529401" id="-38179">
		<tag k="amenity" v="place_of_worship" />
		<tag k="fixme" v="specify religion=*, denomination=*, building=* etc" />
		<tag k="name" v="Karmel" />
		<tag k="ssr:stedsnr" v="748377" />
	</node>
	<node lat="60.83009721936487" lon="10.6287527843707" id="-38386">
		<tag k="name" v="Sauhyttleet" />
		<tag k="place" v="locality" />
		<tag k="ssr:stedsnr" v="951156" />
	</node>
</osm>
