<?xml version="1.0" encoding="UTF-8"?>
<osm version="0.6" generator="osmapis">
	<node lat="60.81936111264911" lon="10.382708335027463" id="-19101">
		<tag k="name" v="Skyberg skog" />
		<tag k="place" v="locality" />
		<tag k="ssr:stedsnr" v="41108" />
	</node>
	<node lat="60.98066111100327" lon="10.586713896270055" id="-19112">
		<tag k="name" v="Strandsvea" />
		<tag k="place" v="locality" />
		<tag k="ssr:stedsnr" v="41609" />
	</node>
	<node lat="60.77251110678381" lon="10.530100004474185" id="-19117">
		<tag k="alt_name" v="Balleringsmyra" />
		<tag k="name" v="Balleropmyra" />
		<tag k="natural" v="wetland" />
		<tag k="ssr:stedsnr" v="69035" />
	</node>
	<node lat="60.79158888723284" lon="10.528997219399646" id="-19152">
		<tag k="name" v="Øysteinlia skog" />
		<tag k="place" v="locality" />
		<tag k="ssr:stedsnr" v="101127" />
	</node>
	<node lat="60.79302500397891" lon="10.369822221849619" id="-19153">
		<tag k="name" v="Tjennsmyren" />
		<tag k="natural" v="wetland" />
		<tag k="ssr:stedsnr" v="101440" />
	</node>
	<node lat="60.785686115084566" lon="10.396027776178318" id="-19155">
		<tag k="name" v="Borgen skog" />
		<tag k="place" v="locality" />
		<tag k="ssr:stedsnr" v="101442" />
	</node>
	<node lat="60.792988890905534" lon="10.421347219463348" id="-19156">
		<tag k="name" v="Stangstumyrene" />
		<tag k="natural" v="wetland" />
		<tag k="ssr:stedsnr" v="101446" />
	</node>
	<node lat="60.989794440854354" lon="10.222883324142325" id="-19168">
		<tag k="name" v="Avdalene" />
		<tag k="place" v="locality" />
		<tag k="ssr:stedsnr" v="102716" />
	</node>
	<node lat="60.805805558119346" lon="10.631083337933122" id="-19174">
		<tag k="name" v="Svenskemyra" />
		<tag k="natural" v="wetland" />
		<tag k="ssr:stedsnr" v="102810" />
	</node>
	<node lat="60.94345000040162" lon="10.25524999118285" id="-19194">
		<tag k="alt_name" v="Ulvesveen" />
		<tag k="name" v="Ulvesvea" />
		<tag k="place" v="locality" />
		<tag k="ssr:stedsnr" v="251329" />
	</node>
	<node lat="60.788549996585374" lon="10.481597215399765" id="-19212">
		<tag k="name" v="Prestmarkmyra" />
		<tag k="natural" v="wetland" />
		<tag k="ssr:stedsnr" v="252049" />
	</node>
	<node lat="60.92408333709296" lon="10.391583340837427" id="-19251">
		<tag k="alt_name" v="Brattåssetrene" />
		<tag k="historic" v="shieling" />
		<tag k="name" v="Brattåssætra" />
		<tag k="place" v="locality" />
		<tag k="ssr:stedsnr" v="252825" />
	</node>
	<node lat="60.84884166549036" lon="10.403088884778379" id="-19253">
		<tag k="name" v="Leggingsmyra" />
		<tag k="natural" v="wetland" />
		<tag k="ssr:stedsnr" v="252887" />
	</node>
	<node lat="60.84111388890639" lon="10.403516663587775" id="-19264">
		<tag k="historic" v="shieling" />
		<tag k="name" v="Lisætra" />
		<tag k="place" v="locality" />
		<tag k="ssr:stedsnr" v="162111" />
	</node>
	<node lat="60.88453888483714" lon="10.607083327319868" id="-19267">
		<tag k="name" v="Indalslåtten" />
		<tag k="place" v="locality" />
		<tag k="ssr:stedsnr" v="162157" />
	</node>
	<node lat="60.78951389032637" lon="10.468824996430607" id="-19280">
		<tag k="name" v="Gjerdmyra" />
		<tag k="natural" v="wetland" />
		<tag k="ssr:stedsnr" v="162457" />
	</node>
	<node lat="60.97539444031929" lon="10.499569448178155" id="-19290">
		<tag k="landuse" v="meadow" />
		<tag k="name" v="Hagaenga" />
		<tag k="ssr:stedsnr" v="162557" />
	</node>
	<node lat="60.90243611204909" lon="10.290508331743284" id="-19294">
		<tag k="name" v="Dårra" />
		<tag k="natural" v="wetland" />
		<tag k="ssr:stedsnr" v="162766" />
	</node>
	<node lat="60.821991667953945" lon="10.605397214879227" id="-19299">
		<tag k="name" v="Mæhlumsmarka" />
		<tag k="place" v="locality" />
		<tag k="ssr:stedsnr" v="170774" />
	</node>
	<node lat="60.728230556576385" lon="10.505383335919923" id="-19301">
		<tag k="alt_name" v="Eikveltmyrene" />
		<tag k="name" v="Eikvelta" />
		<tag k="natural" v="wetland" />
		<tag k="ssr:stedsnr" v="189387" />
	</node>
	<node lat="60.76222499794855" lon="10.422122221078213" id="-19305">
		<tag k="name" v="Trettmyra" />
		<tag k="natural" v="wetland" />
		<tag k="ssr:stedsnr" v="191065" />
	</node>
	<node lat="60.91466388540301" lon="10.544711106331645" id="-19315">
		<tag k="name" v="Skoltmyra" />
		<tag k="natural" v="wetland" />
		<tag k="ssr:stedsnr" v="263415" />
	</node>
	<node lat="60.914675003652285" lon="10.4479222190948" id="-19319">
		<tag k="name" v="Danserholmyra" />
		<tag k="natural" v="wetland" />
		<tag k="ssr:stedsnr" v="202397" />
	</node>
	<node lat="60.8546861125042" lon="10.37893055348871" id="-19329">
		<tag k="name" v="Rognbakkmyra" />
		<tag k="natural" v="wetland" />
		<tag k="ssr:stedsnr" v="223083" />
	</node>
	<node lat="60.901744442360254" lon="10.600261118522415" id="-19330">
		<tag k="name" v="Skålmyra" />
		<tag k="natural" v="wetland" />
		<tag k="ssr:stedsnr" v="223084" />
	</node>
	<node lat="60.947299998956304" lon="10.480208328842295" id="-19334">
		<tag k="historic" v="shieling" />
		<tag k="name" v="Gammelvangen" />
		<tag k="place" v="locality" />
		<tag k="ssr:stedsnr" v="223207" />
	</node>
	<node lat="60.99434999901549" lon="10.336991658870492" id="-19339">
		<tag k="alt_name" v="Prestgardsfola" />
		<tag k="name" v="Prestegårdsfola" />
		<tag k="place" v="locality" />
		<tag k="ssr:stedsnr" v="223436" />
	</node>
	<node lat="60.948749996709594" lon="10.48364721345753" id="-19342">
		<tag k="historic" v="shieling" />
		<tag k="name" v="Gammelvangen" />
		<tag k="place" v="locality" />
		<tag k="ssr:stedsnr" v="223311" />
	</node>
	<node lat="60.98109444715857" lon="10.22080833994423" id="-19348">
		<tag k="name" v="Haralimyra" />
		<tag k="natural" v="wetland" />
		<tag k="ssr:stedsnr" v="236094" />
	</node>
	<node lat="60.88974999835808" lon="10.385222225832697" id="-19360">
		<tag k="name" v="Hovsmyra" />
		<tag k="natural" v="wetland" />
		<tag k="ssr:stedsnr" v="263411" />
	</node>
	<node lat="60.875363891196805" lon="10.31513889404026" id="-19362">
		<tag k="name" v="Purkemyra" />
		<tag k="natural" v="wetland" />
		<tag k="ssr:stedsnr" v="282681" />
	</node>
	<node lat="60.985744443751216" lon="10.460813893804561" id="-19373">
		<tag k="historic" v="shieling" />
		<tag k="name" v="Lierengmarka" />
		<tag k="place" v="locality" />
		<tag k="ssr:stedsnr" v="283608" />
	</node>
	<node lat="60.98249721883449" lon="10.457294441704788" id="-19374">
		<tag k="name" v="Kloppmyra" />
		<tag k="natural" v="wetland" />
		<tag k="ssr:stedsnr" v="283621" />
	</node>
	<node lat="60.99261944689937" lon="10.460258330191067" id="-19376">
		<tag k="name" v="Elvestadmarka" />
		<tag k="place" v="locality" />
		<tag k="ssr:stedsnr" v="283627" />
	</node>
	<node lat="60.86553611163909" lon="10.472325007118217" id="-19377">
		<tag k="name" v="Brekkerønningen" />
		<tag k="place" v="locality" />
		<tag k="ssr:stedsnr" v="284081" />
	</node>
	<node lat="60.90520277994431" lon="10.627241666869969" id="-19380">
		<tag k="name" v="Høgsveen" />
		<tag k="place" v="locality" />
		<tag k="ssr:stedsnr" v="284096" />
	</node>
	<node lat="60.95554444176527" lon="10.46517778057427" id="-19381">
		<tag k="name" v="Pullmyra" />
		<tag k="natural" v="wetland" />
		<tag k="ssr:stedsnr" v="284214" />
	</node>
	<node lat="60.95690277474353" lon="10.466863894302913" id="-19382">
		<tag k="name" v="Bergmyra" />
		<tag k="natural" v="wetland" />
		<tag k="ssr:stedsnr" v="284215" />
	</node>
	<node lat="60.77035833740454" lon="10.55936388254356" id="-19383">
		<tag k="name" v="Hågåmyra" />
		<tag k="natural" v="wetland" />
		<tag k="ssr:stedsnr" v="284232" />
	</node>
	<node lat="60.79619444277307" lon="10.480175007940103" id="-19403">
		<tag k="name" v="Prestmarka" />
		<tag k="place" v="locality" />
		<tag k="ssr:stedsnr" v="465432" />
	</node>
	<node lat="61.002402778899764" lon="10.331644438462838" id="-19412">
		<tag k="name" v="Elvestadfola" />
		<tag k="place" v="locality" />
		<tag k="ssr:stedsnr" v="465404" />
	</node>
	<node lat="61.018897225748304" lon="10.430305550171596" id="-19413">
		<tag k="name" v="Hestehagen" />
		<tag k="place" v="locality" />
		<tag k="ssr:stedsnr" v="465539" />
	</node>
	<node lat="60.717916669715294" lon="10.498008333422574" id="-19418">
		<tag k="name" v="Tjernsmyra" />
		<tag k="natural" v="wetland" />
		<tag k="ssr:stedsnr" v="310439" />
	</node>
	<node lat="60.8734833346981" lon="10.443213881400375" id="-19420">
		<tag k="name" v="Torvmyra" />
		<tag k="natural" v="wetland" />
		<tag k="ssr:stedsnr" v="466092" />
	</node>
	<node lat="61.010527781185495" lon="10.245833337568067" id="-19425">
		<tag k="historic" v="shieling" />
		<tag k="name" v="Liersætra" />
		<tag k="place" v="locality" />
		<tag k="ssr:stedsnr" v="311304" />
	</node>
	<node lat="60.9716666686876" lon="10.448058338505696" id="-19426">
		<tag k="name" v="Øverjordet" />
		<tag k="place" v="locality" />
		<tag k="ssr:stedsnr" v="466236" />
	</node>
	<node lat="61.00958333172693" lon="10.390052771830174" id="-19433">
		<tag k="alt_name" v="Tormyra" />
		<tag k="name" v="Tordmyra" />
		<tag k="natural" v="wetland" />
		<tag k="ssr:stedsnr" v="311775" />
	</node>
	<node lat="60.96228055846962" lon="10.349386108235661" id="-19456">
		<tag k="alt_name" v="Haugsetra" />
		<tag k="historic" v="shieling" />
		<tag k="name" v="Haugssætra" />
		<tag k="place" v="locality" />
		<tag k="ssr:stedsnr" v="313817" />
	</node>
	<node lat="60.980911113087735" lon="10.468880554956243" id="-19464">
		<tag k="name" v="Finnmyra" />
		<tag k="natural" v="wetland" />
		<tag k="ssr:stedsnr" v="323505" />
	</node>
	<node lat="60.82972499758183" lon="10.519574995682817" id="-19477">
		<tag k="name" v="Røgardsmyra" />
		<tag k="natural" v="wetland" />
		<tag k="ssr:stedsnr" v="344106" />
	</node>
	<node lat="60.92559166399833" lon="10.51354444997159" id="-19484">
		<tag k="name" v="Eftasmyra" />
		<tag k="natural" v="wetland" />
		<tag k="ssr:stedsnr" v="344404" />
	</node>
	<node lat="60.79683889178728" lon="10.607455554378546" id="-19491">
		<tag k="name" v="Skarpsno" />
		<tag k="place" v="locality" />
		<tag k="ssr:stedsnr" v="344968" />
	</node>
	<node lat="60.98048888865536" lon="10.208347229093167" id="-19498">
		<tag k="name" v="Finnskardmyrene" />
		<tag k="natural" v="wetland" />
		<tag k="ssr:stedsnr" v="479088" />
	</node>
	<node lat="60.90818055533274" lon="10.596377780085968" id="-19530">
		<tag k="alt_name" v="Stokkmyra" />
		<tag k="name" v="Stokkemyra" />
		<tag k="natural" v="wetland" />
		<tag k="ssr:stedsnr" v="494867" />
	</node>
	<node lat="60.9353722236688" lon="10.475208333624398" id="-19544">
		<tag k="name" v="Stormyra" />
		<tag k="natural" v="wetland" />
		<tag k="ssr:stedsnr" v="405202" />
	</node>
	<node lat="60.874180559527076" lon="10.515225002733624" id="-19551">
		<tag k="name" v="Drogsetstugurønningen" />
		<tag k="place" v="locality" />
		<tag k="ssr:stedsnr" v="405495" />
	</node>
	<node lat="61.00907500072373" lon="10.404958328104678" id="-19567">
		<tag k="name" v="Gaukstadmyra" />
		<tag k="natural" v="wetland" />
		<tag k="ssr:stedsnr" v="432705" />
	</node>
	<node lat="60.92581666661898" lon="10.496266667627586" id="-19579">
		<tag k="name" v="Langmyra" />
		<tag k="natural" v="wetland" />
		<tag k="ssr:stedsnr" v="434816" />
	</node>
	<node lat="60.91622777665151" lon="10.576436118476256" id="-19583">
		<tag k="name" v="Kloppmyra" />
		<tag k="natural" v="wetland" />
		<tag k="ssr:stedsnr" v="434821" />
	</node>
	<node lat="60.929405553955874" lon="10.467263897949598" id="-19610">
		<tag k="alt_name" v="Hovstormyra" />
		<tag k="name" v="Hovsstømyra" />
		<tag k="natural" v="wetland" />
		<tag k="ssr:stedsnr" v="494756" />
	</node>
	<node lat="60.93704810639323" lon="10.353752484804348" id="-19613">
		<tag k="historic" v="shieling" />
		<tag k="name" v="Bakksetra" />
		<tag k="place" v="locality" />
		<tag k="ssr:stedsnr" v="463319" />
	</node>
	<node lat="60.731399999878235" lon="10.48893610731291" id="-19616">
		<tag k="name" v="Fjortentjernsmyrene" />
		<tag k="natural" v="wetland" />
		<tag k="ssr:stedsnr" v="674384" />
	</node>
	<node lat="60.86306666463311" lon="10.652063897582863" id="-19619">
		<tag k="name" v="Kolbergsrudslåtten" />
		<tag k="place" v="locality" />
		<tag k="ssr:stedsnr" v="465166" />
	</node>
	<node lat="60.79367222019853" lon="10.384413893380914" id="-19621">
		<tag k="name" v="Seval skog" />
		<tag k="place" v="locality" />
		<tag k="ssr:stedsnr" v="465424" />
	</node>
	<node lat="61.00368611063915" lon="10.402627771108806" id="-19642">
		<tag k="name" v="Hullbekkmyra" />
		<tag k="natural" v="wetland" />
		<tag k="ssr:stedsnr" v="466684" />
	</node>
	<node lat="60.79453333404865" lon="10.60849166610292" id="-19645">
		<tag k="name" v="Midtslåtten" />
		<tag k="place" v="locality" />
		<tag k="ssr:stedsnr" v="466967" />
	</node>
	<node lat="61.014813889843396" lon="10.393150006510977" id="-19649">
		<tag k="name" v="Langmyra" />
		<tag k="natural" v="wetland" />
		<tag k="ssr:stedsnr" v="675740" />
	</node>
	<node lat="61.00761388484173" lon="10.227097216837041" id="-19684">
		<tag k="name" v="Leggingsmyra" />
		<tag k="natural" v="wetland" />
		<tag k="ssr:stedsnr" v="479502" />
	</node>
	<node lat="60.83706666861914" lon="10.42900000412939" id="-19704">
		<tag k="name" v="Slåttmyra" />
		<tag k="natural" v="wetland" />
		<tag k="ssr:stedsnr" v="495976" />
	</node>
	<node lat="60.89233611261952" lon="10.236308334709161" id="-19707">
		<tag k="name" v="Rundmyra" />
		<tag k="natural" v="wetland" />
		<tag k="ssr:stedsnr" v="524505" />
	</node>
	<node lat="60.761224998968615" lon="10.467652771668666" id="-19710">
		<tag k="name" v="Mælum åslodd" />
		<tag k="place" v="locality" />
		<tag k="ssr:stedsnr" v="525474" />
	</node>
	<node lat="60.911772223512465" lon="10.297091671254869" id="-19720">
		<tag k="name" v="Røstadskogen" />
		<tag k="place" v="locality" />
		<tag k="ssr:stedsnr" v="526265" />
	</node>
	<node lat="60.98222500304928" lon="10.579319451186205" id="-19733">
		<tag k="name" v="Sembshagen" />
		<tag k="place" v="locality" />
		<tag k="ssr:stedsnr" v="526626" />
	</node>
	<node lat="60.743061114137504" lon="10.586452771201186" id="-19740">
		<tag k="name" v="Torvmyra" />
		<tag k="natural" v="wetland" />
		<tag k="ssr:stedsnr" v="526875" />
	</node>
	<node lat="60.7471722201324" lon="10.515824996462712" id="-19742">
		<tag k="name" v="Skumlien skog" />
		<tag k="place" v="locality" />
		<tag k="ssr:stedsnr" v="526890" />
	</node>
	<node lat="60.93681111198859" lon="10.211725007918211" id="-19775">
		<tag k="landuse" v="meadow" />
		<tag k="name" v="Hågåenga" />
		<tag k="ssr:stedsnr" v="584638" />
	</node>
	<node lat="60.76120833070263" lon="10.459675001750412" id="-19776">
		<tag k="name" v="Viberg åslodd" />
		<tag k="place" v="locality" />
		<tag k="ssr:stedsnr" v="585428" />
	</node>
	<node lat="60.914286113706424" lon="10.427944452323752" id="-19781">
		<tag k="name" v="Gråstenmyra" />
		<tag k="natural" v="wetland" />
		<tag k="ssr:stedsnr" v="586148" />
	</node>
	<node lat="60.96846666292174" lon="10.305880551124712" id="-19782">
		<tag k="name" v="Svarkemyra" />
		<tag k="natural" v="wetland" />
		<tag k="ssr:stedsnr" v="586341" />
	</node>
	<node lat="60.91535555433444" lon="10.5781249941461" id="-19784">
		<tag k="name" v="Volla" />
		<tag k="place" v="locality" />
		<tag k="ssr:stedsnr" v="586348" />
	</node>
	<node lat="60.981949995961116" lon="10.434838886848372" id="-19789">
		<tag k="name" v="Innleggingsmyra" />
		<tag k="natural" v="wetland" />
		<tag k="ssr:stedsnr" v="586693" />
	</node>
	<node lat="60.848897222878335" lon="10.379177777987577" id="-19790">
		<tag k="name" v="Korsmyra" />
		<tag k="natural" v="wetland" />
		<tag k="ssr:stedsnr" v="587102" />
	</node>
	<node lat="60.86069999873651" lon="10.383080549262957" id="-19795">
		<tag k="name" v="Klobakkmyra" />
		<tag k="natural" v="wetland" />
		<tag k="ssr:stedsnr" v="587097" />
	</node>
	<node lat="60.82244444444481" lon="10.556599996181188" id="-19796">
		<tag k="name" v="Sutterudmyra" />
		<tag k="natural" v="wetland" />
		<tag k="ssr:stedsnr" v="587101" />
	</node>
	<node lat="60.85039444274356" lon="10.602130558760045" id="-19799">
		<tag k="name" v="Stormyra" />
		<tag k="natural" v="wetland" />
		<tag k="ssr:stedsnr" v="587196" />
	</node>
	<node lat="60.91546944871193" lon="10.525683342190046" id="-19800">
		<tag k="name" v="Stormyra" />
		<tag k="natural" v="wetland" />
		<tag k="ssr:stedsnr" v="587350" />
	</node>
	<node lat="60.92913610703337" lon="10.57310277544192" id="-19801">
		<tag k="name" v="Øverfløyten" />
		<tag k="natural" v="wetland" />
		<tag k="ssr:stedsnr" v="587357" />
	</node>
	<node lat="61.02558333060372" lon="10.312511102988651" id="-19811">
		<tag k="name" v="Gråsteinsmyra" />
		<tag k="natural" v="wetland" />
		<tag k="ssr:stedsnr" v="613213" />
	</node>
	<node lat="60.933049998090674" lon="10.30816944537109" id="-19840">
		<tag k="name" v="Hemsangmyra" />
		<tag k="natural" v="wetland" />
		<tag k="ssr:stedsnr" v="706329" />
	</node>
	<node lat="60.96282500195139" lon="10.330894437848455" id="-19842">
		<tag k="name" v="Haugsetermyra" />
		<tag k="place" v="locality" />
		<tag k="ssr:stedsnr" v="645310" />
	</node>
	<node lat="60.93463333145798" lon="10.324655560853804" id="-19843">
		<tag k="name" v="Stormyra" />
		<tag k="natural" v="wetland" />
		<tag k="ssr:stedsnr" v="645322" />
	</node>
	<node lat="60.76829722086303" lon="10.54689722990685" id="-19845">
		<tag k="name" v="Skumsrudhågån" />
		<tag k="place" v="locality" />
		<tag k="ssr:stedsnr" v="647234" />
	</node>
	<node lat="60.81712499998993" lon="10.418694436243571" id="-19852">
		<tag k="name" v="Øvre Mustadmarka" />
		<tag k="place" v="locality" />
		<tag k="ssr:stedsnr" v="647127" />
	</node>
	<node lat="60.7944000002099" lon="10.591286116556168" id="-19855">
		<tag k="name" v="Skjerven skog" />
		<tag k="place" v="locality" />
		<tag k="ssr:stedsnr" v="647177" />
	</node>
	<node lat="60.82930277814061" lon="10.63621944703823" id="-19858">
		<tag k="name" v="Stormyra" />
		<tag k="natural" v="wetland" />
		<tag k="ssr:stedsnr" v="647181" />
	</node>
	<node lat="60.90542777874404" lon="10.520474993621562" id="-19869">
		<tag k="name" v="Skålmyra" />
		<tag k="natural" v="wetland" />
		<tag k="ssr:stedsnr" v="647490" />
	</node>
	<node lat="60.93766111463798" lon="10.180833332663289" id="-19874">
		<tag k="name" v="Øverjordet" />
		<tag k="place" v="locality" />
		<tag k="ssr:stedsnr" v="647619" />
	</node>
	<node lat="60.77381111327484" lon="10.663344442124291" id="-19877">
		<tag k="name" v="Kopperudmyrene" />
		<tag k="natural" v="wetland" />
		<tag k="ssr:stedsnr" v="647634" />
	</node>
	<node lat="60.83093888478745" lon="10.584794442175154" id="-19893">
		<tag k="name" v="Hage skog" />
		<tag k="place" v="locality" />
		<tag k="ssr:stedsnr" v="708140" />
	</node>
	<node lat="60.950522217776765" lon="10.44351667299108" id="-19904">
		<tag k="name" v="Torvmyra" />
		<tag k="natural" v="wetland" />
		<tag k="ssr:stedsnr" v="708199" />
	</node>
	<node lat="60.81349444828415" lon="10.660441670114285" id="-19923">
		<tag k="name" v="Bytongmyra" />
		<tag k="natural" v="wetland" />
		<tag k="ssr:stedsnr" v="708846" />
	</node>
	<node lat="60.78381666898138" lon="10.417486111701121" id="-19931">
		<tag k="historic" v="shieling" />
		<tag k="name" v="Blakksetra" />
		<tag k="place" v="locality" />
		<tag k="ssr:stedsnr" v="890456" />
	</node>
	<node lat="60.94678888662036" lon="10.434988886400992" id="-19942">
		<tag k="name" v="Breimyra" />
		<tag k="natural" v="wetland" />
		<tag k="ssr:stedsnr" v="891235" />
	</node>
	<node lat="60.798897218870515" lon="10.621863894083148" id="-19976">
		<tag k="name" v="Øverbymarka" />
		<tag k="place" v="locality" />
		<tag k="ssr:stedsnr" v="891971" />
	</node>
	<node lat="60.73191944364373" lon="10.4917305625763" id="-19978">
		<tag k="historic" v="shieling" />
		<tag k="name" v="Kolberg seter" />
		<tag k="place" v="locality" />
		<tag k="ssr:stedsnr" v="891934" />
	</node>
	<node lat="60.90077222347821" lon="10.642419444151603" id="-19990">
		<tag k="name" v="Engesvea" />
		<tag k="place" v="locality" />
		<tag k="ssr:stedsnr" v="708120" />
	</node>
	<node lat="60.98818333639082" lon="10.294186107683316" id="-19998">
		<tag k="name" v="Krakasetermyrene" />
		<tag k="natural" v="wetland" />
		<tag k="ssr:stedsnr" v="708432" />
	</node>
	<node lat="60.93055555767897" lon="10.526108338120435" id="-19999">
		<tag k="name" v="Seterringen" />
		<tag k="place" v="locality" />
		<tag k="ssr:stedsnr" v="708331" />
	</node>
	<node lat="60.968652775885296" lon="10.42007499789523" id="-20011">
		<tag k="landuse" v="meadow" />
		<tag k="name" v="Gunderstueslåtten" />
		<tag k="ssr:stedsnr" v="708716" />
	</node>
	<node lat="60.99470000114468" lon="10.41761111337328" id="-20014">
		<tag k="name" v="Druga" />
		<tag k="place" v="locality" />
		<tag k="ssr:stedsnr" v="708728" />
	</node>
	<node lat="60.76304167088316" lon="10.442072218106324" id="-20027">
		<tag k="name" v="Stormyra" />
		<tag k="natural" v="wetland" />
		<tag k="ssr:stedsnr" v="737088" />
	</node>
	<node lat="60.92658055216607" lon="10.43095278363909" id="-20039">
		<tag k="name" v="Rundmyra" />
		<tag k="natural" v="wetland" />
		<tag k="ssr:stedsnr" v="737852" />
	</node>
	<node lat="60.914916667754746" lon="10.598522216247192" id="-20040">
		<tag k="name" v="Rundmyra" />
		<tag k="natural" v="wetland" />
		<tag k="ssr:stedsnr" v="737859" />
	</node>
	<node lat="60.94830000258407" lon="10.348563886523118" id="-20057">
		<tag k="name" v="Stormyra" />
		<tag k="natural" v="wetland" />
		<tag k="ssr:stedsnr" v="767307" />
	</node>
	<node lat="61.00905555549215" lon="10.358333332190266" id="-20066">
		<tag k="historic" v="shieling" />
		<tag k="name" v="Ankerlia" />
		<tag k="place" v="locality" />
		<tag k="ssr:stedsnr" v="768392" />
	</node>
	<node lat="60.95199444828498" lon="10.53156665876895" id="-20067">
		<tag k="name" v="Tomsmyra" />
		<tag k="natural" v="wetland" />
		<tag k="ssr:stedsnr" v="768689" />
	</node>
	<node lat="60.812383333703295" lon="10.413411119929767" id="-20069">
		<tag k="name" v="Slåttmyra" />
		<tag k="natural" v="wetland" />
		<tag k="ssr:stedsnr" v="769105" />
	</node>
	<node lat="60.84018055613109" lon="10.538100007739708" id="-20070">
		<tag k="name" v="Nysveen" />
		<tag k="place" v="locality" />
		<tag k="ssr:stedsnr" v="769115" />
	</node>
	<node lat="60.97393889298224" lon="10.388872216413155" id="-20076">
		<tag k="name" v="Sirivollen" />
		<tag k="place" v="locality" />
		<tag k="ssr:stedsnr" v="769729" />
	</node>
	<node lat="60.982668127947505" lon="10.409508903393792" id="-20094">
		<tag k="historic" v="shieling" />
		<tag k="name" v="Gunhildssætra" />
		<tag k="place" v="locality" />
		<tag k="ssr:stedsnr" v="798658" />
	</node>
	<node lat="60.83698610799064" lon="10.405422215123512" id="-20105">
		<tag k="name" v="Prestmyra" />
		<tag k="natural" v="wetland" />
		<tag k="ssr:stedsnr" v="798959" />
	</node>
	<node lat="60.923055557515326" lon="10.586791660891219" id="-20113">
		<tag k="name" v="Dammyra" />
		<tag k="natural" v="wetland" />
		<tag k="ssr:stedsnr" v="919849" />
	</node>
	<node lat="60.94924999884907" lon="10.350958334508071" id="-20127">
		<tag k="name" v="Austdalsmyra" />
		<tag k="natural" v="wetland" />
		<tag k="ssr:stedsnr" v="920821" />
	</node>
	<node lat="60.84225833088396" lon="10.474383327382126" id="-20133">
		<tag k="name" v="Fuglemyra" />
		<tag k="natural" v="wetland" />
		<tag k="ssr:stedsnr" v="830104" />
	</node>
	<node lat="60.89944722265982" lon="10.609774999130781" id="-20139">
		<tag k="name" v="Ringmyra" />
		<tag k="natural" v="wetland" />
		<tag k="ssr:stedsnr" v="830084" />
	</node>
	<node lat="60.907491666470186" lon="10.502733339845642" id="-20147">
		<tag k="name" v="Steinmyra" />
		<tag k="natural" v="wetland" />
		<tag k="ssr:stedsnr" v="830487" />
	</node>
	<node lat="60.8208611154013" lon="10.463152786705571" id="-20148">
		<tag k="name" v="Ålstad skog" />
		<tag k="place" v="locality" />
		<tag k="ssr:stedsnr" v="830112" />
	</node>
	<node lat="60.956647221532435" lon="10.522827783351204" id="-20151">
		<tag k="name" v="Sagringen" />
		<tag k="place" v="locality" />
		<tag k="ssr:stedsnr" v="830735" />
	</node>
	<node lat="60.99140000300702" lon="10.452119436137497" id="-20153">
		<tag k="landuse" v="meadow" />
		<tag k="name" v="Stubberud" />
		<tag k="ssr:stedsnr" v="830659" />
	</node>
	<node lat="60.86209444118114" lon="10.334244437329943" id="-20155">
		<tag k="historic" v="shieling" />
		<tag k="name" v="Rønningsvelia" />
		<tag k="place" v="locality" />
		<tag k="ssr:stedsnr" v="830695" />
	</node>
	<node lat="60.91511111221288" lon="10.380366657563814" id="-20184">
		<tag k="name" v="Pullmyra" />
		<tag k="natural" v="wetland" />
		<tag k="ssr:stedsnr" v="930406" />
	</node>
	<node lat="60.96999721781104" lon="10.43536944938623" id="-20199">
		<tag k="name" v="Bergengen" />
		<tag k="place" v="locality" />
		<tag k="ssr:stedsnr" v="891252" />
	</node>
	<node lat="60.79530555644044" lon="10.51694721547044" id="-20241">
		<tag k="name" v="Børstad skog" />
		<tag k="place" v="locality" />
		<tag k="ssr:stedsnr" v="951136" />
	</node>
	<node lat="60.90949722484376" lon="10.579902781819223" id="-20250">
		<tag k="name" v="Dypilmyra" />
		<tag k="natural" v="wetland" />
		<tag k="ssr:stedsnr" v="951336" />
	</node>
	<node lat="60.90680277471122" lon="10.488366657601775" id="-20252">
		<tag k="name" v="Gillerholen" />
		<tag k="place" v="locality" />
		<tag k="ssr:stedsnr" v="951505" />
	</node>
	<node lat="60.981213891848405" lon="10.418552774367955" id="-20261">
		<tag k="name" v="Sveum" />
		<tag k="place" v="locality" />
		<tag k="ssr:stedsnr" v="951749" />
	</node>
	<node lat="60.93494722622556" lon="10.534619445466035" id="-20263">
		<tag k="name" v="Brennbakksvea" />
		<tag k="place" v="locality" />
		<tag k="ssr:stedsnr" v="951683" />
	</node>
	<node lat="60.987755552858886" lon="10.278955555213264" id="-20264">
		<tag k="name" v="Kråkehugu" />
		<tag k="place" v="locality" />
		<tag k="ssr:stedsnr" v="964084" />
	</node>
	<node lat="60.759400000682746" lon="10.433702784981598" id="-20299">
		<tag k="name" v="Brennmyra" />
		<tag k="natural" v="wetland" />
		<tag k="ssr:stedsnr" v="9045" />
	</node>
	<node lat="60.96029444573663" lon="10.198199997506196" id="-20315">
		<tag k="alt_name" v="Kalmyra" />
		<tag k="name" v="Haslimyra" />
		<tag k="natural" v="wetland" />
		<tag k="ssr:stedsnr" v="9351" />
	</node>
	<node lat="60.955838884495954" lon="10.305619443270984" id="-20337">
		<tag k="name" v="Høgbrentmyra" />
		<tag k="natural" v="wetland" />
		<tag k="ssr:stedsnr" v="39273" />
	</node>
	<node lat="60.87471666507815" lon="10.338544448726074" id="-20340">
		<tag k="name" v="Stormyra" />
		<tag k="natural" v="wetland" />
		<tag k="ssr:stedsnr" v="39644" />
	</node>
	<node lat="60.94277499991091" lon="10.536288892358037" id="-20348">
		<tag k="name" v="Bjønnsvemyra" />
		<tag k="natural" v="wetland" />
		<tag k="ssr:stedsnr" v="40694" />
	</node>
	<node lat="60.9781972240806" lon="10.460875000494358" id="-20349">
		<tag k="name" v="Ekerenga" />
		<tag k="place" v="locality" />
		<tag k="ssr:stedsnr" v="40652" />
	</node>
	<node lat="60.92742778102703" lon="10.598777778384624" id="-20353">
		<tag k="name" v="Bjørkemyra" />
		<tag k="natural" v="wetland" />
		<tag k="ssr:stedsnr" v="41333" />
	</node>
	<node lat="60.839052780745334" lon="10.547486119646221" id="-20358">
		<tag k="name" v="Solbjør skog" />
		<tag k="place" v="locality" />
		<tag k="ssr:stedsnr" v="41128" />
	</node>
	<node lat="60.87596944270542" lon="10.429827778109056" id="-20359">
		<tag k="name" v="Kalløkken" />
		<tag k="place" v="locality" />
		<tag k="ssr:stedsnr" v="41160" />
	</node>
	<node lat="61.01938610939827" lon="10.36823888533603" id="-20368">
		<tag k="name" v="Dyppilmyra" />
		<tag k="natural" v="wetland" />
		<tag k="ssr:stedsnr" v="41669" />
	</node>
	<node lat="60.99290278156613" lon="10.386161104834594" id="-20370">
		<tag k="name" v="Steigfola" />
		<tag k="place" v="locality" />
		<tag k="ssr:stedsnr" v="41730" />
	</node>
	<node lat="60.905097220899606" lon="10.267419445253577" id="-20371">
		<tag k="name" v="Slåttmyra" />
		<tag k="natural" v="wetland" />
		<tag k="ssr:stedsnr" v="41745" />
	</node>
	<node lat="60.98948611091322" lon="10.454097230632906" id="-20413">
		<tag k="name" v="Langmyra" />
		<tag k="natural" v="wetland" />
		<tag k="ssr:stedsnr" v="81516" />
	</node>
	<node lat="60.950277781577654" lon="10.306891660929862" id="-20415">
		<tag k="name" v="Veltflagamyra" />
		<tag k="natural" v="wetland" />
		<tag k="ssr:stedsnr" v="99338" />
	</node>
	<node lat="60.962111114434855" lon="10.305925001134042" id="-20417">
		<tag k="name" v="Storflågåmyra" />
		<tag k="natural" v="wetland" />
		<tag k="ssr:stedsnr" v="99345" />
	</node>
	<node lat="60.95032777775466" lon="10.358800002373044" id="-20420">
		<tag k="name" v="Baklia" />
		<tag k="place" v="locality" />
		<tag k="ssr:stedsnr" v="99357" />
	</node>
	<node lat="60.937169446091005" lon="10.612094438517277" id="-20423">
		<tag k="historic" v="shieling" />
		<tag k="name" v="Nysvea" />
		<tag k="place" v="locality" />
		<tag k="ssr:stedsnr" v="101626" />
	</node>
	<node lat="60.910427780515214" lon="10.595913887787074" id="-20430">
		<tag k="name" v="Veslemyra" />
		<tag k="natural" v="wetland" />
		<tag k="ssr:stedsnr" v="101313" />
	</node>
	<node lat="60.988816667266754" lon="10.462413881347711" id="-20439">
		<tag k="historic" v="shieling" />
		<tag k="name" v="Gullerud" />
		<tag k="place" v="locality" />
		<tag k="ssr:stedsnr" v="101639" />
	</node>
	<node lat="60.919252781389574" lon="10.485452769790271" id="-20448">
		<tag k="name" v="Sjutjennsmyra" />
		<tag k="natural" v="wetland" />
		<tag k="ssr:stedsnr" v="102445" />
	</node>
	<node lat="60.966583332860004" lon="10.460269435674936" id="-20450">
		<tag k="landuse" v="meadow" />
		<tag k="name" v="Herbergsenga" />
		<tag k="ssr:stedsnr" v="102248" />
	</node>
	<node lat="60.947869440219755" lon="10.200033332629287" id="-20453">
		<tag k="name" v="Brenna" />
		<tag k="place" v="locality" />
		<tag k="ssr:stedsnr" v="102687" />
	</node>
	<node lat="60.89771388591177" lon="10.267894444867274" id="-20456">
		<tag k="name" v="Stormyra" />
		<tag k="natural" v="wetland" />
		<tag k="ssr:stedsnr" v="102778" />
	</node>
	<node lat="60.937255552035246" lon="10.189802769990354" id="-20457">
		<tag k="landuse" v="meadow" />
		<tag k="name" v="Brattengsenga" />
		<tag k="old_name" v="Bratengsenga" />
		<tag k="ssr:stedsnr" v="102664" />
	</node>
	<node lat="60.986780553092686" lon="10.419477771856009" id="-20460">
		<tag k="name" v="Hovdehagen" />
		<tag k="place" v="locality" />
		<tag k="ssr:stedsnr" v="102763" />
	</node>
	<node lat="61.001172220841404" lon="10.223741668094666" id="-20466">
		<tag k="name" v="Sløsmyra" />
		<tag k="natural" v="wetland" />
		<tag k="ssr:stedsnr" v="115565" />
	</node>
	<node lat="60.94478610935987" lon="10.373566661880675" id="-20500">
		<tag k="name" v="Skålmyra" />
		<tag k="natural" v="wetland" />
		<tag k="ssr:stedsnr" v="141498" />
	</node>
	<node lat="60.886197218872944" lon="10.336750004450028" id="-20504">
		<tag k="name" v="Flutun" />
		<tag k="place" v="locality" />
		<tag k="ssr:stedsnr" v="160669" />
	</node>
	<node lat="60.852947225128545" lon="10.528055561316899" id="-20505">
		<tag k="name" v="Rundmyra" />
		<tag k="natural" v="wetland" />
		<tag k="ssr:stedsnr" v="162012" />
	</node>
	<node lat="60.8504583372549" lon="10.568430551955405" id="-20506">
		<tag k="name" v="Slåttsveen" />
		<tag k="place" v="locality" />
		<tag k="ssr:stedsnr" v="162015" />
	</node>
	<node lat="60.832636107446326" lon="10.626319442007839" id="-20508">
		<tag k="name" v="Olamyra" />
		<tag k="natural" v="wetland" />
		<tag k="ssr:stedsnr" v="162138" />
	</node>
	<node lat="60.86175277911735" lon="10.413525006947498" id="-20512">
		<tag k="historic" v="shieling" />
		<tag k="name" v="Danservollen" />
		<tag k="place" v="locality" />
		<tag k="ssr:stedsnr" v="162082" />
	</node>
	<node lat="60.85211667040816" lon="10.431002771117006" id="-20514">
		<tag k="name" v="Stormyra" />
		<tag k="natural" v="wetland" />
		<tag k="ssr:stedsnr" v="162085" />
	</node>
	<node lat="60.858999997386434" lon="10.44317499658748" id="-20515">
		<tag k="historic" v="shieling" />
		<tag k="name" v="Setervollene" />
		<tag k="place" v="locality" />
		<tag k="ssr:stedsnr" v="162087" />
	</node>
	<node lat="60.951622225305854" lon="10.4212722178069" id="-20518">
		<tag k="alt_name" v="Bjønnhaugmyra" />
		<tag k="name" v="Bjørnhaugmyra" />
		<tag k="natural" v="wetland" />
		<tag k="ssr:stedsnr" v="162193" />
	</node>
	<node lat="60.92578055259431" lon="10.584680556355595" id="-20522">
		<tag k="name" v="Nerfløyten" />
		<tag k="natural" v="wetland" />
		<tag k="ssr:stedsnr" v="162340" />
	</node>
	<node lat="60.96716111380006" lon="10.337888893851504" id="-20523">
		<tag k="name" v="Svarkebrenna" />
		<tag k="place" v="locality" />
		<tag k="ssr:stedsnr" v="162341" />
	</node>
	<node lat="60.98094444855712" lon="10.271230555033757" id="-20524">
		<tag k="name" v="Gråstensmyra" />
		<tag k="natural" v="wetland" />
		<tag k="ssr:stedsnr" v="162431" />
	</node>
	<node lat="60.91771666365012" lon="10.642780553984332" id="-20530">
		<tag k="name" v="Skulhusbakken" />
		<tag k="place" v="locality" />
		<tag k="ssr:stedsnr" v="162491" />
	</node>
	<node lat="60.97731110986392" lon="10.49176389164588" id="-20531">
		<tag k="name" v="Heimkusvea" />
		<tag k="place" v="locality" />
		<tag k="ssr:stedsnr" v="162550" />
	</node>
	<node lat="60.73156944037222" lon="10.48702222056741" id="-20541">
		<tag k="historic" v="shieling" />
		<tag k="name" v="Slettum seter" />
		<tag k="place" v="locality" />
		<tag k="ssr:stedsnr" v="162941" />
	</node>
	<node lat="60.94731389326428" lon="10.195816670056727" id="-20542">
		<tag k="name" v="Brenna" />
		<tag k="place" v="locality" />
		<tag k="ssr:stedsnr" v="162658" />
	</node>
	<node lat="60.98790833772868" lon="10.461111104342432" id="-20545">
		<tag k="historic" v="shieling" />
		<tag k="name" v="Skarsetmarka" />
		<tag k="place" v="locality" />
		<tag k="ssr:stedsnr" v="162663" />
	</node>
	<node lat="60.98698332979628" lon="10.469541658551833" id="-20546">
		<tag k="historic" v="shieling" />
		<tag k="name" v="Øvre Alsetmarka" />
		<tag k="place" v="locality" />
		<tag k="ssr:stedsnr" v="162666" />
	</node>
	<node lat="60.99064721828155" lon="10.457911115861148" id="-20550">
		<tag k="landuse" v="meadow" />
		<tag k="name" v="Persvea" />
		<tag k="ssr:stedsnr" v="162679" />
	</node>
	<node lat="61.023536114451225" lon="10.442358340125965" id="-20556">
		<tag k="name" v="Stugulykkja" />
		<tag k="place" v="locality" />
		<tag k="ssr:stedsnr" v="162985" />
	</node>
	<node lat="60.76681666255111" lon="10.643394435849508" id="-20557">
		<tag k="name" v="Dalborgsmarka" />
		<tag k="place" v="locality" />
		<tag k="ssr:stedsnr" v="162997" />
	</node>
	<node lat="60.73199166984027" lon="10.552502782297832" id="-20558">
		<tag k="name" v="Finstadslåtten" />
		<tag k="place" v="locality" />
		<tag k="ssr:stedsnr" v="162946" />
	</node>
	<node lat="60.87081111299935" lon="10.318124996305421" id="-20572">
		<tag k="name" v="Lysa" />
		<tag k="natural" v="wetland" />
		<tag k="ssr:stedsnr" v="190447" />
	</node>
	<node lat="60.93198055853787" lon="10.605927776412381" id="-20580">
		<tag k="name" v="Bårdsmyra" />
		<tag k="natural" v="wetland" />
		<tag k="ssr:stedsnr" v="191734" />
	</node>
	<node lat="60.903775003927734" lon="10.55589166018759" id="-20593">
		<tag k="name" v="Stormyra" />
		<tag k="natural" v="wetland" />
		<tag k="ssr:stedsnr" v="191830" />
	</node>
	<node lat="60.952902780084735" lon="10.363175003760585" id="-20598">
		<tag k="name" v="Pullmyra" />
		<tag k="natural" v="wetland" />
		<tag k="ssr:stedsnr" v="202388" />
	</node>
	<node lat="60.93484722512698" lon="10.34221110535891" id="-20599">
		<tag k="name" v="Rismyra" />
		<tag k="natural" v="wetland" />
		<tag k="ssr:stedsnr" v="221317" />
	</node>
	<node lat="60.96203333399278" lon="10.184736103220038" id="-20604">
		<tag k="name" v="Arnemyra" />
		<tag k="natural" v="wetland" />
		<tag k="ssr:stedsnr" v="223654" />
	</node>
	<node lat="60.93336388978604" lon="10.61319721435221" id="-20608">
		<tag k="historic" v="shieling" />
		<tag k="name" v="Skuggen" />
		<tag k="place" v="locality" />
		<tag k="ssr:stedsnr" v="223662" />
	</node>
	<node lat="60.968397221481574" lon="10.425691661492507" id="-20611">
		<tag k="landuse" v="meadow" />
		<tag k="name" v="Ringen" />
		<tag k="ssr:stedsnr" v="223221" />
	</node>
	<node lat="60.92579722660593" lon="10.435288897978195" id="-20620">
		<tag k="name" v="Redalsetermyra" />
		<tag k="natural" v="wetland" />
		<tag k="ssr:stedsnr" v="223159" />
	</node>
	<node lat="60.880972224417626" lon="10.615438882326728" id="-20622">
		<tag k="name" v="Rolid-domen" />
		<tag k="place" v="locality" />
		<tag k="ssr:stedsnr" v="223170" />
	</node>
	<node lat="60.87576944295083" lon="10.529077778517648" id="-20630">
		<tag k="name" v="Knutveita" />
		<tag k="place" v="locality" />
		<tag k="ssr:stedsnr" v="223473" />
	</node>
	<node lat="60.79853333409031" lon="10.45055277439284" id="-20631">
		<tag k="name" v="Mustad skog" />
		<tag k="place" v="locality" />
		<tag k="ssr:stedsnr" v="223474" />
	</node>
	<node lat="60.99266944702087" lon="10.365430561946768" id="-20641">
		<tag k="name" v="Dalsfola" />
		<tag k="place" v="locality" />
		<tag k="ssr:stedsnr" v="223761" />
	</node>
	<node lat="60.91115833030432" lon="10.318608333742484" id="-20652">
		<tag k="name" v="Vestersveen" />
		<tag k="place" v="locality" />
		<tag k="ssr:stedsnr" v="283235" />
	</node>
	<node lat="60.94448333170205" lon="10.508291662962758" id="-20653">
		<tag k="name" v="Raumyra" />
		<tag k="natural" v="wetland" />
		<tag k="ssr:stedsnr" v="283242" />
	</node>
	<node lat="60.755116668150556" lon="10.474358335432479" id="-20654">
		<tag k="historic" v="shieling" />
		<tag k="name" v="Øvre Bråstad" />
		<tag k="place" v="locality" />
		<tag k="ssr:stedsnr" v="283332" />
	</node>
	<node lat="61.023422220709634" lon="10.35439443815129" id="-20655">
		<tag k="name" v="Høgåsmyra" />
		<tag k="natural" v="wetland" />
		<tag k="ssr:stedsnr" v="283336" />
	</node>
	<node lat="60.991063885546524" lon="10.342316672854873" id="-20657">
		<tag k="name" v="Skumsrudfola" />
		<tag k="place" v="locality" />
		<tag k="ssr:stedsnr" v="283346" />
	</node>
	<node lat="61.013411113329" lon="10.327183335196343" id="-20658">
		<tag k="name" v="Skarsetfola" />
		<tag k="place" v="locality" />
		<tag k="ssr:stedsnr" v="283355" />
	</node>
	<node lat="60.90116389344501" lon="10.48645277073149" id="-20659">
		<tag k="name" v="Pullmyra" />
		<tag k="natural" v="wetland" />
		<tag k="ssr:stedsnr" v="283443" />
	</node>
	<node lat="60.900136110825656" lon="10.484158328442444" id="-20660">
		<tag k="historic" v="shieling" />
		<tag k="name" v="Gjøstisetra" />
		<tag k="place" v="locality" />
		<tag k="ssr:stedsnr" v="283445" />
	</node>
	<node lat="60.808869442250824" lon="10.427333335131754" id="-20666">
		<tag k="name" v="Grindvollslåtten" />
		<tag k="place" v="locality" />
		<tag k="ssr:stedsnr" v="284112" />
	</node>
	<node lat="60.76801666929461" lon="10.560441668066877" id="-20672">
		<tag k="name" v="Hellsvemyra" />
		<tag k="natural" v="wetland" />
		<tag k="ssr:stedsnr" v="284237" />
	</node>
	<node lat="60.953980551555546" lon="10.368688896435875" id="-20688">
		<tag k="name" v="Dalamyra" />
		<tag k="natural" v="wetland" />
		<tag k="ssr:stedsnr" v="284750" />
	</node>
	<node lat="60.82778333745864" lon="10.619586120266806" id="-20693">
		<tag k="name" v="Bergsmarka" />
		<tag k="place" v="locality" />
		<tag k="ssr:stedsnr" v="292758" />
	</node>
	<node lat="60.82090833049753" lon="10.64609166588912" id="-20694">
		<tag k="name" v="Nerbymarka" />
		<tag k="place" v="locality" />
		<tag k="ssr:stedsnr" v="292760" />
	</node>
	<node lat="60.96516944460684" lon="10.22431666975838" id="-20696">
		<tag k="name" v="Bjønnhaugmyra" />
		<tag k="natural" v="wetland" />
		<tag k="ssr:stedsnr" v="299251" />
	</node>
	<node lat="60.74703888671935" lon="10.436272227301222" id="-20699">
		<tag k="name" v="Lurmyra" />
		<tag k="natural" v="wetland" />
		<tag k="ssr:stedsnr" v="310455" />
	</node>
	<node lat="60.954236111793755" lon="10.207363897087623" id="-20709">
		<tag k="name" v="Uksemyra" />
		<tag k="natural" v="wetland" />
		<tag k="ssr:stedsnr" v="312249" />
	</node>
	<node lat="60.82824999575169" lon="10.606886102371258" id="-20721">
		<tag k="name" v="Geitmyra" />
		<tag k="natural" v="wetland" />
		<tag k="ssr:stedsnr" v="312945" />
	</node>
	<node lat="60.980480558739316" lon="10.527130555772807" id="-20732">
		<tag k="name" v="Bekkemellomsvea" />
		<tag k="place" v="locality" />
		<tag k="ssr:stedsnr" v="344547" />
	</node>
	<node lat="61.022661113788715" lon="10.43204721589319" id="-20734">
		<tag k="name" v="Roalykkja" />
		<tag k="place" v="locality" />
		<tag k="ssr:stedsnr" v="344569" />
	</node>
	<node lat="61.01810277694374" lon="10.449322229810484" id="-20736">
		<tag k="name" v="Bjørnstadengen" />
		<tag k="place" v="locality" />
		<tag k="ssr:stedsnr" v="344571" />
	</node>
	<node lat="60.91925555802021" lon="10.507355561447826" id="-20741">
		<tag k="name" v="Skjælingshaugmyra" />
		<tag k="natural" v="wetland" />
		<tag k="ssr:stedsnr" v="344407" />
	</node>
	<node lat="60.868108332118815" lon="10.42625554632407" id="-20742">
		<tag k="name" v="Nyberghågån" />
		<tag k="place" v="locality" />
		<tag k="ssr:stedsnr" v="344074" />
	</node>
	<node lat="60.960225001866156" lon="10.274405564577735" id="-20749">
		<tag k="name" v="Limhusmyra" />
		<tag k="natural" v="wetland" />
		<tag k="ssr:stedsnr" v="344351" />
	</node>
	<node lat="60.97789444467356" lon="10.46669722081548" id="-20751">
		<tag k="landuse" v="meadow" />
		<tag k="name" v="Stuveenga" />
		<tag k="ssr:stedsnr" v="344653" />
	</node>
	<node lat="60.996136115561164" lon="10.398472215120687" id="-20755">
		<tag k="name" v="Sjutjernsmyra" />
		<tag k="natural" v="wetland" />
		<tag k="ssr:stedsnr" v="344672" />
	</node>
	<node lat="60.955183335717656" lon="10.487936108985343" id="-20761">
		<tag k="name" v="Veslemyra" />
		<tag k="natural" v="wetland" />
		<tag k="ssr:stedsnr" v="344736" />
	</node>
	<node lat="60.98665000290008" lon="10.21029721731628" id="-20763">
		<tag k="name" v="Rognholtet" />
		<tag k="place" v="locality" />
		<tag k="ssr:stedsnr" v="344691" />
	</node>
	<node lat="60.9932083336112" lon="10.416330560040697" id="-20765">
		<tag k="name" v="Innleggingen" />
		<tag k="place" v="locality" />
		<tag k="ssr:stedsnr" v="344756" />
	</node>
	<node lat="61.00381388653748" lon="10.234125007884085" id="-20772">
		<tag k="name" v="Geithusmyra" />
		<tag k="natural" v="wetland" />
		<tag k="ssr:stedsnr" v="358525" />
	</node>
	<node lat="60.958755557163904" lon="10.617483342026613" id="-20774">
		<tag k="name" v="Skumsrudvollene" />
		<tag k="place" v="locality" />
		<tag k="ssr:stedsnr" v="359615" />
	</node>
	<node lat="60.87464999783063" lon="10.249280546927604" id="-20782">
		<tag k="name" v="Stormyra" />
		<tag k="natural" v="wetland" />
		<tag k="ssr:stedsnr" v="372431" />
	</node>
	<node lat="60.86980277996737" lon="10.27387778330889" id="-20783">
		<tag k="name" v="Lemyra" />
		<tag k="natural" v="wetland" />
		<tag k="ssr:stedsnr" v="372432" />
	</node>
	<node lat="60.90248056004231" lon="10.422388882400503" id="-20809">
		<tag k="alt_name" v="Tjennshaugmyra;Tjennsmyra" />
		<tag k="name" v="Tjernsmyra" />
		<tag k="natural" v="wetland" />
		<tag k="ssr:stedsnr" v="384397" />
	</node>
	<node lat="60.94298610760876" lon="10.428255546343868" id="-20813">
		<tag k="name" v="Ringmyra" />
		<tag k="natural" v="wetland" />
		<tag k="ssr:stedsnr" v="384389" />
	</node>
	<node lat="60.932627781435045" lon="10.43380833803714" id="-20815">
		<tag k="name" v="Sjutjernsmyra" />
		<tag k="natural" v="wetland" />
		<tag k="ssr:stedsnr" v="384487" />
	</node>
	<node lat="60.95088610901506" lon="10.362263887385918" id="-20821">
		<tag k="name" v="Pullmyra" />
		<tag k="natural" v="wetland" />
		<tag k="ssr:stedsnr" v="403313" />
	</node>
	<node lat="60.897744444137125" lon="10.476272226323362" id="-20825">
		<tag k="name" v="Snartumslåtta" />
		<tag k="place" v="locality" />
		<tag k="ssr:stedsnr" v="404151" />
	</node>
	<node lat="60.87834722431514" lon="10.536499992679792" id="-20847">
		<tag k="name" v="Lønnumsveiten" />
		<tag k="place" v="locality" />
		<tag k="ssr:stedsnr" v="405469" />
	</node>
	<node lat="60.94803888929583" lon="10.206819453403039" id="-20848">
		<tag k="name" v="Trondsmyra" />
		<tag k="natural" v="wetland" />
		<tag k="ssr:stedsnr" v="405658" />
	</node>
	<node lat="60.98810278087425" lon="10.47413333027164" id="-20849">
		<tag k="historic" v="shieling" />
		<tag k="name" v="Nedre Alsetmarka" />
		<tag k="place" v="locality" />
		<tag k="ssr:stedsnr" v="405662" />
	</node>
	<node lat="60.99883333524244" lon="10.420030550976499" id="-20851">
		<tag k="name" v="Blekjemyra" />
		<tag k="natural" v="wetland" />
		<tag k="ssr:stedsnr" v="405676" />
	</node>
	<node lat="60.86666666434588" lon="10.347816666428846" id="-20888">
		<tag k="name" v="Lemyra" />
		<tag k="natural" v="wetland" />
		<tag k="ssr:stedsnr" v="434845" />
	</node>
	<node lat="60.96234721921388" lon="10.342900007467598" id="-20908">
		<tag k="name" v="Haugsetermyra" />
		<tag k="natural" v="wetland" />
		<tag k="ssr:stedsnr" v="524294" />
	</node>
	<node lat="60.85686666293729" lon="10.449044448944848" id="-20911">
		<tag k="name" v="Storbrenna" />
		<tag k="place" v="locality" />
		<tag k="ssr:stedsnr" v="526079" />
	</node>
	<node lat="60.8992055589939" lon="10.649072218665003" id="-20914">
		<tag k="name" v="Kaldsvea" />
		<tag k="place" v="locality" />
		<tag k="ssr:stedsnr" v="526084" />
	</node>
	<node lat="60.908686113551816" lon="10.613980554692148" id="-20919">
		<tag k="name" v="Amundsvea" />
		<tag k="place" v="locality" />
		<tag k="ssr:stedsnr" v="526095" />
	</node>
	<node lat="60.95315832984126" lon="10.451761106954667" id="-20925">
		<tag k="name" v="Geitryggmyra" />
		<tag k="natural" v="wetland" />
		<tag k="ssr:stedsnr" v="526198" />
	</node>
	<node lat="60.96722222461192" lon="10.43438055000663" id="-20926">
		<tag k="landuse" v="meadow" />
		<tag k="name" v="Sandvoll" />
		<tag k="ssr:stedsnr" v="526199" />
	</node>
	<node lat="60.904927780955155" lon="10.473858327504301" id="-20934">
		<tag k="name" v="Limhusholen" />
		<tag k="place" v="locality" />
		<tag k="ssr:stedsnr" v="526148" />
	</node>
	<node lat="60.91790000326836" lon="10.290669450784756" id="-20938">
		<tag k="name" v="Kvernmyra" />
		<tag k="natural" v="wetland" />
		<tag k="ssr:stedsnr" v="526257" />
	</node>
	<node lat="60.96083610848451" lon="10.288536105151696" id="-20942">
		<tag k="name" v="Berglimyra" />
		<tag k="natural" v="wetland" />
		<tag k="ssr:stedsnr" v="526327" />
	</node>
	<node lat="60.910669442440465" lon="10.58513055741912" id="-20943">
		<tag k="name" v="Røymyra" />
		<tag k="natural" v="wetland" />
		<tag k="ssr:stedsnr" v="526333" />
	</node>
	<node lat="61.012430553429006" lon="10.450130555275432" id="-20950">
		<tag k="name" v="Sveum" />
		<tag k="place" v="locality" />
		<tag k="ssr:stedsnr" v="526664" />
	</node>
	<node lat="60.830891668518724" lon="10.491127769947798" id="-20953">
		<tag k="name" v="Stormyra" />
		<tag k="natural" v="wetland" />
		<tag k="ssr:stedsnr" v="534120" />
	</node>
	<node lat="60.92425000014145" lon="10.46178610247737" id="-20983">
		<tag k="alt_name" v="Sjutjennsmyra" />
		<tag k="name" v="Sjutjernsmyra" />
		<tag k="natural" v="wetland" />
		<tag k="ssr:stedsnr" v="566406" />
	</node>
	<node lat="61.003391671048625" lon="10.250358332180697" id="-20997">
		<tag k="name" v="Pullmyrene" />
		<tag k="natural" v="wetland" />
		<tag k="ssr:stedsnr" v="586426" />
	</node>
	<node lat="60.956055551963345" lon="10.405191672778876" id="-21009">
		<tag k="name" v="Juvsamyra" />
		<tag k="natural" v="wetland" />
		<tag k="ssr:stedsnr" v="587740" />
	</node>
	<node lat="60.952688884753236" lon="10.181980553246401" id="-21018">
		<tag k="name" v="Bordtakmyra" />
		<tag k="natural" v="wetland" />
		<tag k="ssr:stedsnr" v="600025" />
	</node>
	<node lat="60.93486389000344" lon="10.374674998384135" id="-21053">
		<tag k="historic" v="shieling" />
		<tag k="name" v="Brennbakksætra" />
		<tag k="place" v="locality" />
		<tag k="ssr:stedsnr" v="627405" />
	</node>
	<node lat="60.934558330129995" lon="10.511883327236172" id="-21054">
		<tag k="name" v="Skålmyra" />
		<tag k="natural" v="wetland" />
		<tag k="ssr:stedsnr" v="627510" />
	</node>
	<node lat="60.90451389072584" lon="10.25440277101712" id="-21056">
		<tag k="name" v="Furuholen" />
		<tag k="place" v="locality" />
		<tag k="ssr:stedsnr" v="647756" />
	</node>
	<node lat="60.83616389308988" lon="10.393580548388778" id="-21060">
		<tag k="name" v="Torvmyra" />
		<tag k="natural" v="wetland" />
		<tag k="ssr:stedsnr" v="647146" />
	</node>
	<node lat="60.91801111247824" lon="10.539844439933928" id="-21070">
		<tag k="historic" v="shieling" />
		<tag k="name" v="Hasselknippsetra" />
		<tag k="place" v="locality" />
		<tag k="ssr:stedsnr" v="647352" />
	</node>
	<node lat="60.9243694447532" lon="10.572663893506464" id="-21074">
		<tag k="name" v="Åbakkmyra" />
		<tag k="natural" v="wetland" />
		<tag k="ssr:stedsnr" v="647359" />
	</node>
	<node lat="60.78874444603267" lon="10.383897214807563" id="-21083">
		<tag k="name" v="Kjermyra" />
		<tag k="place" v="locality" />
		<tag k="ssr:stedsnr" v="647453" />
	</node>
	<node lat="60.869544447273526" lon="10.589486118664638" id="-21084">
		<tag k="name" v="Skavdalsmyra" />
		<tag k="natural" v="wetland" />
		<tag k="ssr:stedsnr" v="647454" />
	</node>
	<node lat="61.00172499646812" lon="10.423902777835602" id="-21089">
		<tag k="name" v="Rundhaugmyra" />
		<tag k="natural" v="wetland" />
		<tag k="ssr:stedsnr" v="647660" />
	</node>
	<node lat="60.7963236657936" lon="10.630092839759701" id="-21091">
		<tag k="name" v="Askimhagen" />
		<tag k="place" v="locality" />
		<tag k="ssr:stedsnr" v="647966" />
	</node>
	<node lat="60.91428888707381" lon="10.243313891219819" id="-21100">
		<tag k="name" v="Lonmyra" />
		<tag k="natural" v="wetland" />
		<tag k="ssr:stedsnr" v="724644" />
	</node>
	<node lat="60.77705000009642" lon="10.517649992403143" id="-21109">
		<tag k="name" v="Torvmyra" />
		<tag k="natural" v="wetland" />
		<tag k="ssr:stedsnr" v="737052" />
	</node>
	<node lat="60.854452781273594" lon="10.531500001899454" id="-21127">
		<tag k="name" v="Stakamyra" />
		<tag k="natural" v="wetland" />
		<tag k="ssr:stedsnr" v="737896" />
	</node>
	<node lat="61.01325000164452" lon="10.286377768780875" id="-21136">
		<tag k="name" v="Svennesseterfola" />
		<tag k="place" v="locality" />
		<tag k="ssr:stedsnr" v="768363" />
	</node>
	<node lat="60.90676944017124" lon="10.24194722671368" id="-21139">
		<tag k="name" v="Setervegsvea" />
		<tag k="place" v="locality" />
		<tag k="ssr:stedsnr" v="767556" />
	</node>
	<node lat="61.000447218069674" lon="10.322630561168964" id="-21144">
		<tag k="name" v="Neråsfola" />
		<tag k="place" v="locality" />
		<tag k="ssr:stedsnr" v="768397" />
	</node>
	<node lat="60.81330278163531" lon="10.385786119850536" id="-21156">
		<tag k="name" v="Klappmyra" />
		<tag k="natural" v="wetland" />
		<tag k="ssr:stedsnr" v="769090" />
	</node>
	<node lat="60.938144446814924" lon="10.429938882993948" id="-21165">
		<tag k="name" v="Langmyra" />
		<tag k="natural" v="wetland" />
		<tag k="ssr:stedsnr" v="769190" />
	</node>
	<node lat="60.94039722669867" lon="10.456591661848403" id="-21166">
		<tag k="name" v="Eftasmyra" />
		<tag k="natural" v="wetland" />
		<tag k="ssr:stedsnr" v="769194" />
	</node>
	<node lat="60.900583332860116" lon="10.594683337738255" id="-21170">
		<tag k="name" v="Davermyra" />
		<tag k="natural" v="wetland" />
		<tag k="ssr:stedsnr" v="769340" />
	</node>
	<node lat="60.95556110919159" lon="10.58826110970493" id="-21181">
		<tag k="name" v="Lundvollen" />
		<tag k="place" v="locality" />
		<tag k="ssr:stedsnr" v="769735" />
	</node>
	<node lat="60.81149722129161" lon="10.601338894339909" id="-21186">
		<tag k="name" v="Ødegårdsjordet" />
		<tag k="place" v="locality" />
		<tag k="ssr:stedsnr" v="777746" />
	</node>
	<node lat="60.854338887103744" lon="10.451247218835249" id="-21225">
		<tag k="name" v="Stormyra" />
		<tag k="natural" v="wetland" />
		<tag k="ssr:stedsnr" v="798884" />
	</node>
	<node lat="60.9363027800635" lon="10.409208342593416" id="-21229">
		<tag k="name" v="Rotbakkmyra" />
		<tag k="natural" v="wetland" />
		<tag k="ssr:stedsnr" v="809412" />
	</node>
	<node lat="60.91303611286245" lon="10.466588883713538" id="-21249">
		<tag k="name" v="Skalmyra" />
		<tag k="natural" v="wetland" />
		<tag k="ssr:stedsnr" v="830147" />
	</node>
	<node lat="60.957158337553864" lon="10.272547216031608" id="-21252">
		<tag k="name" v="Måråmyra" />
		<tag k="natural" v="wetland" />
		<tag k="ssr:stedsnr" v="830314" />
	</node>
	<node lat="60.91306666467588" lon="10.604824993217328" id="-21260">
		<tag k="name" v="Langmyra" />
		<tag k="natural" v="wetland" />
		<tag k="ssr:stedsnr" v="830444" />
	</node>
	<node lat="60.94209444868315" lon="10.229977771167501" id="-21266">
		<tag k="name" v="Ekerhågån" />
		<tag k="place" v="locality" />
		<tag k="ssr:stedsnr" v="830634" />
	</node>
	<node lat="60.959058329761376" lon="10.408022229569056" id="-21269">
		<tag k="name" v="Hovdemarka" />
		<tag k="place" v="locality" />
		<tag k="ssr:stedsnr" v="830739" />
	</node>
	<node lat="60.95909166281147" lon="10.241850006712951" id="-21281">
		<tag k="name" v="Bekkemyra" />
		<tag k="natural" v="wetland" />
		<tag k="ssr:stedsnr" v="845246" />
	</node>
	<node lat="61.01422500288361" lon="10.383061116096414" id="-21285">
		<tag k="name" v="Furumyra" />
		<tag k="natural" v="wetland" />
		<tag k="ssr:stedsnr" v="857742" />
	</node>
	<node lat="60.86958333608393" lon="10.294791664616236" id="-21296">
		<tag k="name" v="Evjemyra" />
		<tag k="natural" v="wetland" />
		<tag k="ssr:stedsnr" v="858450" />
	</node>
	<node lat="60.93165277558766" lon="10.394091664640685" id="-21309">
		<tag k="name" v="Stormyra" />
		<tag k="natural" v="wetland" />
		<tag k="ssr:stedsnr" v="859745" />
	</node>
	<node lat="60.951155554050054" lon="10.317769445725727" id="-21323">
		<tag k="name" v="Langmyra" />
		<tag k="natural" v="wetland" />
		<tag k="ssr:stedsnr" v="949299" />
	</node>
	<node lat="60.99320277841386" lon="10.380466662054634" id="-21329">
		<tag k="name" v="Båbergsfola" />
		<tag k="place" v="locality" />
		<tag k="ssr:stedsnr" v="951751" />
	</node>
	<node lat="60.86589444750875" lon="10.497222216211368" id="-21331">
		<tag k="historic" v="shieling" />
		<tag k="name" v="Nordengsætra" />
		<tag k="place" v="locality" />
		<tag k="ssr:stedsnr" v="951017" />
	</node>
	<node lat="60.82647222400372" lon="10.50470556275326" id="-21333">
		<tag k="name" v="Hørstadskogen" />
		<tag k="place" v="locality" />
		<tag k="ssr:stedsnr" v="951117" />
	</node>
	<node lat="60.902102779163144" lon="10.470030555188503" id="-21335">
		<tag k="historic" v="shieling" />
		<tag k="name" v="Saksbergsetra" />
		<tag k="place" v="locality" />
		<tag k="ssr:stedsnr" v="951151" />
	</node>
	<node lat="60.93949444151614" lon="10.282572227626586" id="-21347">
		<tag k="name" v="Stormyra" />
		<tag k="natural" v="wetland" />
		<tag k="ssr:stedsnr" v="951372" />
	</node>
	<node lat="60.947630554146556" lon="10.276113888971492" id="-21348">
		<tag k="historic" v="shieling" />
		<tag k="name" v="Lyshaugsetra" />
		<tag k="place" v="locality" />
		<tag k="ssr:stedsnr" v="951377" />
	</node>
	<node lat="60.7304555551408" lon="10.5302805465111" id="-21359">
		<tag k="historic" v="shieling" />
		<tag k="name" v="Vårnes seter" />
		<tag k="place" v="locality" />
		<tag k="ssr:stedsnr" v="951935" />
	</node>
</osm>
