<?xml version="1.0" encoding="UTF-8"?>
<osm version="0.6" generator="osmapis">
	<node lat="60.95516111335213" lon="10.235638893706525" id="-16663">
		<tag k="name" v="Finnbakken" />
		<tag k="place" v="farm" />
		<tag k="ssr:stedsnr" v="8297" />
	</node>
	<node lat="60.94165833551327" lon="10.218800000270592" id="-16664">
		<tag k="alt_name" v="Hasli, øvre;Hasli" />
		<tag k="name" v="Øvre Hasli" />
		<tag k="place" v="farm" />
		<tag k="ssr:stedsnr" v="8303" />
	</node>
	<node lat="60.97931111309841" lon="10.286388888475301" id="-16666">
		<tag k="alt_name" v="Tomtersetrene" />
		<tag k="historic" v="shieling" />
		<tag k="name" v="Tomtsætra" />
		<tag k="place" v="isolated_dwelling" />
		<tag k="ssr:stedsnr" v="9320" />
	</node>
	<node lat="60.929427780156665" lon="10.25421667433887" id="-16668">
		<tag k="name" v="Stokke" />
		<tag k="place" v="farm" />
		<tag k="ssr:stedsnr" v="9454" />
	</node>
	<node lat="60.982416669761726" lon="10.364013883606935" id="-16669">
		<tag k="alt_name" v="Klunbyødegården" />
		<tag k="name" v="Øgarden" />
		<tag k="place" v="farm" />
		<tag k="ssr:stedsnr" v="9713" />
	</node>
	<node lat="60.9709416622643" lon="10.44982222710343" id="-16670">
		<tag k="alt_name" v="Søndre Benrud" />
		<tag k="name" v="Beinerud" />
		<tag k="place" v="farm" />
		<tag k="ssr:stedsnr" v="9692" />
	</node>
	<node lat="60.91496944515469" lon="10.409908327723542" id="-16672">
		<tag k="alt_name" v="Skonnordsetra" />
		<tag k="historic" v="shieling" />
		<tag k="name" v="Skonnolssætra" />
		<tag k="place" v="isolated_dwelling" />
		<tag k="ssr:stedsnr" v="9843" />
	</node>
	<node lat="60.908511106680145" lon="10.346986115286642" id="-16673">
		<tag k="alt_name" v="Kvernsveen" />
		<tag k="name" v="Kvernsvea" />
		<tag k="place" v="farm" />
		<tag k="ssr:stedsnr" v="9851" />
	</node>
	<node lat="60.87738611512988" lon="10.44665833666087" id="-16676">
		<tag k="name" v="Elvedalen" />
		<tag k="place" v="farm" />
		<tag k="ssr:stedsnr" v="9895" />
	</node>
	<node lat="60.87669911616504" lon="10.627691855598943" id="-16678">
		<tag k="fixme" v="consider place=hamlet" />
		<tag k="name" v="Bakåsen" />
		<tag k="place" v="farm" />
		<tag k="ssr:stedsnr" v="9920" />
	</node>
	<node lat="60.811767450375726" lon="10.545348182720508" id="-16679">
		<tag k="alt_name" v="Mjølstad" />
		<tag k="name" v="Øvre Mjølstad" />
		<tag k="place" v="farm" />
		<tag k="ssr:stedsnr" v="9937" />
	</node>
	<node lat="60.818986111726225" lon="10.660944435292022" id="-16680">
		<tag k="alt_name" v="Stensjord" />
		<tag k="name" v="Steinsjord" />
		<tag k="place" v="farm" />
		<tag k="ssr:stedsnr" v="9938" />
	</node>
	<node lat="60.83677602786205" lon="10.494607367760949" id="-16681">
		<tag k="fixme" v="consider place=hamlet" />
		<tag k="name" v="Nordenga" />
		<tag k="place" v="farm" />
		<tag k="ssr:stedsnr" v="9992" />
	</node>
	<node lat="60.93656111243146" lon="10.620666659258852" id="-16682">
		<tag k="name" v="Røyne" />
		<tag k="place" v="farm" />
		<tag k="ssr:stedsnr" v="10785" />
	</node>
	<node lat="60.910186114504405" lon="10.66183888512526" id="-16683">
		<tag k="alt_name" v="Smedmogrenda" />
		<tag k="name" v="Smedmoen" />
		<tag k="place" v="hamlet" />
		<tag k="ssr:stedsnr" v="20388" />
	</node>
	<node lat="60.89516666413045" lon="10.61150554855884" id="-16684">
		<tag k="name" v="Hagan" />
		<tag k="place" v="farm" />
		<tag k="ssr:stedsnr" v="20390" />
	</node>
	<node lat="60.896802781291406" lon="10.371844452413397" id="-16686">
		<tag k="name" v="Kjellsrud" />
		<tag k="place" v="isolated_dwelling" />
		<tag k="ssr:stedsnr" v="40161" />
	</node>
	<node lat="60.84318332902036" lon="10.616888897309643" id="-16687">
		<tag k="name" v="Bratteng" />
		<tag k="place" v="farm" />
		<tag k="ssr:stedsnr" v="40170" />
	</node>
	<node lat="60.894469443599576" lon="10.423374995416307" id="-16688">
		<tag k="name" v="Rogne" />
		<tag k="place" v="farm" />
		<tag k="ssr:stedsnr" v="40173" />
	</node>
	<node lat="60.87609444718443" lon="10.406241661879067" id="-16691">
		<tag k="name" v="Myrheim" />
		<tag k="place" v="isolated_dwelling" />
		<tag k="ssr:stedsnr" v="40201" />
	</node>
	<node lat="60.79005278021869" lon="10.683088892938544" id="-16694">
		<tag k="amenity" v="university" />
		<tag k="name" v="NTNU i Gjøvik" />
		<tag k="old_name" v="Høgskolen i Gjøvik" />
		<tag k="ssr:stedsnr" v="40576" />
	</node>
	<node lat="60.93963888732983" lon="10.533319438156884" id="-16695">
		<tag k="name" v="Brennbakken" />
		<tag k="place" v="farm" />
		<tag k="ssr:stedsnr" v="40702" />
	</node>
	<node lat="61.00764166343658" lon="10.455605560681475" id="-16697">
		<tag k="name" v="Åsen" />
		<tag k="place" v="isolated_dwelling" />
		<tag k="ssr:stedsnr" v="40670" />
	</node>
	<node lat="60.82124444299372" lon="10.524922224216944" id="-16698">
		<tag k="name" v="Haugstuen" />
		<tag k="place" v="farm" />
		<tag k="ssr:stedsnr" v="41101" />
	</node>
	<node lat="60.81264311363384" lon="10.522886311881066" id="-16700">
		<tag k="fixme" v="consider place=hamlet" />
		<tag k="name" v="Vardal prestegard" />
		<tag k="place" v="farm" />
		<tag k="ssr:stedsnr" v="41104" />
	</node>
	<node lat="60.81090833554671" lon="10.5847694390842" id="-16702">
		<tag k="amenity" v="school" />
		<tag k="name" v="Grande skole" />
		<tag k="ssr:stedsnr" v="41112" />
	</node>
	<node lat="60.851733337018736" lon="10.48313888328248" id="-16703">
		<tag k="name" v="Glæstad hytte" />
		<tag k="place" v="isolated_dwelling" />
		<tag k="ssr:stedsnr" v="41010" />
	</node>
	<node lat="60.9497111144368" lon="10.469302780932779" id="-16704">
		<tag k="name" v="Dynjuhytta" />
		<tag k="place" v="isolated_dwelling" />
		<tag k="ssr:stedsnr" v="41201" />
	</node>
	<node lat="60.89496944815586" lon="10.304500004358035" id="-16705">
		<tag k="name" v="Øvre Brenner" />
		<tag k="place" v="farm" />
		<tag k="ssr:stedsnr" v="41319" />
	</node>
	<node lat="60.89223611421562" lon="10.348725007461026" id="-16706">
		<tag k="name" v="Rostad" />
		<tag k="place" v="farm" />
		<tag k="ssr:stedsnr" v="41306" />
	</node>
	<node lat="60.91537500275882" lon="10.646013883218146" id="-16708">
		<tag k="name" v="Fossheim" />
		<tag k="place" v="farm" />
		<tag k="ssr:stedsnr" v="41502" />
	</node>
	<node lat="60.941424998014796" lon="10.204788884496136" id="-16710">
		<tag k="name" v="Undli" />
		<tag k="place" v="isolated_dwelling" />
		<tag k="ssr:stedsnr" v="41606" />
	</node>
	<node lat="60.75312777747569" lon="10.59423333818467" id="-16713">
		<tag k="name" v="Vestre Egstad" />
		<tag k="place" v="farm" />
		<tag k="ssr:stedsnr" v="41872" />
	</node>
	<node lat="60.76565000308879" lon="10.602136109372458" id="-16718">
		<tag k="name" v="Furuset" />
		<tag k="place" v="farm" />
		<tag k="ssr:stedsnr" v="69038" />
	</node>
	<node lat="60.95533055660443" lon="10.227133330276871" id="-16719">
		<tag k="name" v="Engnes" />
		<tag k="place" v="farm" />
		<tag k="ssr:stedsnr" v="69284" />
	</node>
	<node lat="60.88891110921445" lon="10.313622230216996" id="-16720">
		<tag k="name" v="Lyshaugen" />
		<tag k="place" v="farm" />
		<tag k="ssr:stedsnr" v="69414" />
	</node>
	<node lat="60.92271176799237" lon="10.263031067208555" id="-16722">
		<tag k="alt_name" v="Lunden" />
		<tag k="name" v="Søndre Lunden" />
		<tag k="place" v="farm" />
		<tag k="ssr:stedsnr" v="69498" />
	</node>
	<node lat="60.962648924555005" lon="10.267239936353247" id="-16723">
		<tag k="alt_name" v="Ekersetra" />
		<tag k="historic" v="shieling" />
		<tag k="name" v="Ekressætra" />
		<tag k="place" v="isolated_dwelling" />
		<tag k="ssr:stedsnr" v="69379" />
	</node>
	<node lat="60.90201550323725" lon="10.336929074547268" id="-16724">
		<tag k="alt_name" v="Åseth" />
		<tag k="name" v="Ålset" />
		<tag k="old_name" v="Aalseth;Aalset;Alseth;Aaseth" />
		<tag k="place" v="hamlet" />
		<tag k="ssr:stedsnr" v="69392" />
	</node>
	<node lat="60.92940278225282" lon="10.321236106651575" id="-16725">
		<tag k="name" v="Overhalla" />
		<tag k="place" v="farm" />
		<tag k="ssr:stedsnr" v="69501" />
	</node>
	<node lat="60.89767500013188" lon="10.258774991135061" id="-16726">
		<tag k="name" v="Øversvea" />
		<tag k="place" v="farm" />
		<tag k="ssr:stedsnr" v="69536" />
	</node>
	<node lat="60.799316666579124" lon="10.53649721551928" id="-16727">
		<tag k="name" v="Sjåheim" />
		<tag k="place" v="farm" />
		<tag k="ssr:stedsnr" v="70001" />
	</node>
	<node lat="60.83039444783015" lon="10.446433342626761" id="-16728">
		<tag k="alt_name" v="Olestuen" />
		<tag k="name" v="Olestugua" />
		<tag k="place" v="isolated_dwelling" />
		<tag k="ssr:stedsnr" v="69978" />
	</node>
	<node lat="60.76699166872749" lon="10.695650002116105" id="-16729">
		<tag k="name" v="Enga" />
		<tag k="place" v="farm" />
		<tag k="ssr:stedsnr" v="70078" />
	</node>
	<node lat="60.75528055711213" lon="10.600561110862628" id="-16730">
		<tag k="alt_name" v="Egstadbakken" />
		<tag k="name" v="Eikstadbakken" />
		<tag k="place" v="farm" />
		<tag k="ssr:stedsnr" v="70082" />
	</node>
	<node lat="60.76015277529729" lon="10.501011109417657" id="-16731">
		<tag k="alt_name" v="Bragenes" />
		<tag k="name" v="Branes" />
		<tag k="place" v="isolated_dwelling" />
		<tag k="ssr:stedsnr" v="70085" />
	</node>
	<node lat="60.985182903141215" lon="10.565126409405284" id="-16732">
		<tag k="fixme" v="consider place=hamlet" />
		<tag k="name" v="Roterud" />
		<tag k="place" v="farm" />
		<tag k="ssr:stedsnr" v="70707" />
	</node>
	<node lat="60.98232788449417" lon="10.382447949976463" id="-16733">
		<tag k="fixme" v="consider place=hamlet" />
		<tag k="name" v="Stumlia" />
		<tag k="place" v="farm" />
		<tag k="ssr:stedsnr" v="70717" />
	</node>
	<node lat="60.99615461608819" lon="10.352193251839182" id="-16734">
		<tag k="alt_name" v="Håvollssætra" />
		<tag k="historic" v="shieling" />
		<tag k="name" v="Håvordsetra" />
		<tag k="place" v="isolated_dwelling" />
		<tag k="ssr:stedsnr" v="70729" />
	</node>
	<node lat="60.89425877394208" lon="10.377663242812643" id="-16735">
		<tag k="alt_name" v="Fladlien" />
		<tag k="fixme" v="consider place=hamlet" />
		<tag k="name" v="Flatlia" />
		<tag k="place" v="farm" />
		<tag k="ssr:stedsnr" v="70803" />
	</node>
	<node lat="60.89154150551768" lon="10.563903496603196" id="-16736">
		<tag k="alt_name" v="Øvre Markeng" />
		<tag k="name" v="Markeng" />
		<tag k="place" v="farm" />
		<tag k="ssr:stedsnr" v="70812" />
	</node>
	<node lat="60.93023123321327" lon="10.631905324657486" id="-16737">
		<tag k="fixme" v="consider place=hamlet" />
		<tag k="name" v="Skjønsby" />
		<tag k="place" v="farm" />
		<tag k="ssr:stedsnr" v="70828" />
	</node>
	<node lat="60.84358270914862" lon="10.484928694561003" id="-16738">
		<tag k="alt_name" v="Veltenga;Lilleengen" />
		<tag k="fixme" v="consider place=hamlet" />
		<tag k="name" v="Veslenga" />
		<tag k="place" v="farm" />
		<tag k="ssr:stedsnr" v="70882" />
	</node>
	<node lat="60.96573055461893" lon="10.556113889903125" id="-16739">
		<tag k="alt_name" v="Lysgård" />
		<tag k="name" v="Lysgard" />
		<tag k="place" v="farm" />
		<tag k="ssr:stedsnr" v="70772" />
	</node>
	<node lat="60.873324517771245" lon="10.687904695165683" id="-16740">
		<tag k="fixme" v="consider place=hamlet" />
		<tag k="name" v="Dal" />
		<tag k="place" v="farm" />
		<tag k="ssr:stedsnr" v="70926" />
	</node>
	<node lat="60.84287834200726" lon="10.658263599121033" id="-16741">
		<tag k="fixme" v="consider place=hamlet" />
		<tag k="name" v="Kastad" />
		<tag k="place" v="farm" />
		<tag k="ssr:stedsnr" v="70969" />
	</node>
	<node lat="60.830583336254385" lon="10.41798055798073" id="-16743">
		<tag k="alt_name" v="Østberg" />
		<tag k="name" v="Austberg" />
		<tag k="place" v="farm" />
		<tag k="ssr:stedsnr" v="70974" />
	</node>
	<node lat="60.763522224668904" lon="10.725322220337297" id="-16745">
		<tag k="name" v="Svingen" />
		<tag k="place" v="quarter" />
		<tag k="ssr:stedsnr" v="86428" />
	</node>
	<node lat="60.77486111507019" lon="10.644819439069623" id="-16746">
		<tag k="building" v="industrial" />
		<tag k="name" v="Oppland metall" />
		<tag k="ssr:stedsnr" v="86430" />
	</node>
	<node lat="60.88969166425851" lon="10.302780558644674" id="-16747">
		<tag k="name" v="Ytterroa" />
		<tag k="place" v="hamlet" />
		<tag k="ssr:stedsnr" v="99761" />
	</node>
	<node lat="60.83087778135523" lon="10.441086114030666" id="-16748">
		<tag k="name" v="Perstuen" />
		<tag k="place" v="farm" />
		<tag k="ssr:stedsnr" v="101105" />
	</node>
	<node lat="60.81144167082261" lon="10.44687777180658" id="-16749">
		<tag k="name" v="Øvre Fuglerud" />
		<tag k="place" v="isolated_dwelling" />
		<tag k="ssr:stedsnr" v="101109" />
	</node>
	<node lat="60.81218055399112" lon="10.476269435438637" id="-16750">
		<tag k="name" v="Hermanrud" />
		<tag k="place" v="isolated_dwelling" />
		<tag k="ssr:stedsnr" v="101112" />
	</node>
	<node lat="60.88974999813368" lon="10.364850001366175" id="-16751">
		<tag k="name" v="Karlstad" />
		<tag k="place" v="isolated_dwelling" />
		<tag k="ssr:stedsnr" v="101116" />
	</node>
	<node lat="60.8854444470858" lon="10.489166668975143" id="-16757">
		<tag k="name" v="Barlund" />
		<tag k="place" v="farm" />
		<tag k="ssr:stedsnr" v="101462" />
	</node>
	<node lat="60.89462221787742" lon="10.519661115002538" id="-16758">
		<tag k="name" v="Søndre Onsrud" />
		<tag k="place" v="farm" />
		<tag k="ssr:stedsnr" v="101477" />
	</node>
	<node lat="60.9027194479747" lon="10.66301389233666" id="-16760">
		<tag k="name" v="Pålsmestad" />
		<tag k="place" v="locality" />
		<tag k="ssr:stedsnr" v="102081" />
	</node>
	<node lat="60.89651667030191" lon="10.638836110069656" id="-16762">
		<tag k="name" v="Sørli" />
		<tag k="place" v="isolated_dwelling" />
		<tag k="ssr:stedsnr" v="102084" />
	</node>
	<node lat="60.805336109533116" lon="10.555144451446123" id="-16763">
		<tag k="name" v="Nedre Ytterset" />
		<tag k="place" v="farm" />
		<tag k="ssr:stedsnr" v="102086" />
	</node>
	<node lat="60.891199999498646" lon="10.62251388364259" id="-16764">
		<tag k="name" v="Laggerbakken" />
		<tag k="place" v="farm" />
		<tag k="ssr:stedsnr" v="102087" />
	</node>
	<node lat="60.819994443791074" lon="10.549719445213723" id="-16766">
		<tag k="name" v="Sveen" />
		<tag k="place" v="isolated_dwelling" />
		<tag k="ssr:stedsnr" v="102092" />
	</node>
	<node lat="60.9414805584175" lon="10.548602787101744" id="-16769">
		<tag k="name" v="Skinnerlien" />
		<tag k="place" v="farm" />
		<tag k="ssr:stedsnr" v="102726" />
	</node>
	<node lat="60.995663891951125" lon="10.502458339550456" id="-16770">
		<tag k="name" v="Lundstein" />
		<tag k="place" v="farm" />
		<tag k="ssr:stedsnr" v="102671" />
	</node>
	<node lat="60.77738055176819" lon="10.697105549699367" id="-16771">
		<tag k="name" v="Rambekkmoen" />
		<tag k="place" v="quarter" />
		<tag k="ssr:stedsnr" v="102675" />
	</node>
	<node lat="60.76795832893775" lon="10.660897218536178" id="-16772">
		<tag k="name" v="Dalborgskolonien" />
		<tag k="place" v="isolated_dwelling" />
		<tag k="ssr:stedsnr" v="102679" />
	</node>
	<node lat="60.76835556004733" lon="10.702141661995634" id="-16773">
		<tag k="name" v="Nedre Fruset" />
		<tag k="place" v="farm" />
		<tag k="ssr:stedsnr" v="102680" />
	</node>
	<node lat="60.84370555964722" lon="10.665036108012039" id="-16775">
		<tag k="name" v="Kastad" />
		<tag k="place" v="isolated_dwelling" />
		<tag k="ssr:stedsnr" v="102885" />
	</node>
	<node lat="60.80932777970089" lon="10.67777499391522" id="-16777">
		<tag k="name" v="Grønland" />
		<tag k="place" v="isolated_dwelling" />
		<tag k="ssr:stedsnr" v="102888" />
	</node>
	<node lat="61.008355558653825" lon="10.323838890055905" id="-16781">
		<tag k="alt_name" v="Dempa seter" />
		<tag k="historic" v="shieling" />
		<tag k="name" v="Dempesætra" />
		<tag k="place" v="isolated_dwelling" />
		<tag k="ssr:stedsnr" v="250256" />
	</node>
	<node lat="60.73583570751428" lon="10.527585720266426" id="-16782">
		<tag k="alt_name" v="Skumlisveum" />
		<tag k="fixme" v="consider place=hamlet" />
		<tag k="name" v="Skumlisveom" />
		<tag k="place" v="farm" />
		<tag k="ssr:stedsnr" v="250455" />
	</node>
	<node lat="60.79540277879448" lon="10.66545278279777" id="-16784">
		<tag k="leisure" v="park" />
		<tag k="name" v="Bassengparken" />
		<tag k="ssr:stedsnr" v="116571" />
	</node>
	<node lat="61.00110833534316" lon="10.36887778006908" id="-16788">
		<tag k="historic" v="shieling" />
		<tag k="name" v="Nysætra" />
		<tag k="place" v="isolated_dwelling" />
		<tag k="ssr:stedsnr" v="250723" />
	</node>
	<node lat="60.77372777995662" lon="10.549919440418266" id="-16789">
		<tag k="alt_name" v="Skonhovd, øvre" />
		<tag k="name" v="Øvre Skonhovd" />
		<tag k="place" v="farm" />
		<tag k="ssr:stedsnr" v="251041" />
	</node>
	<node lat="60.771436113121226" lon="10.548433328545011" id="-16790">
		<tag k="alt_name" v="Skonhovd, nedre" />
		<tag k="name" v="Nedre Skonhovd" />
		<tag k="place" v="farm" />
		<tag k="ssr:stedsnr" v="251045" />
	</node>
	<node lat="60.766452774159035" lon="10.580427779210845" id="-16791">
		<tag k="name" v="Granli" />
		<tag k="place" v="farm" />
		<tag k="ssr:stedsnr" v="251047" />
	</node>
	<node lat="60.77612777339071" lon="10.657119451832553" id="-16792">
		<tag k="name" v="Nedre Nygårdssveum" />
		<tag k="old_name" v="Øversvea" />
		<tag k="place" v="farm" />
		<tag k="ssr:stedsnr" v="251033" />
	</node>
	<node lat="60.939029168107496" lon="10.175279090461267" id="-16793">
		<tag k="fixme" v="consider place=hamlet" />
		<tag k="name" v="Ringsrud" />
		<tag k="place" v="farm" />
		<tag k="ssr:stedsnr" v="251339" />
	</node>
	<node lat="60.940961110302545" lon="10.215597214608467" id="-16795">
		<tag k="alt_name" v="Hasli, nordre" />
		<tag k="name" v="Nordre Hasli" />
		<tag k="place" v="farm" />
		<tag k="ssr:stedsnr" v="251334" />
	</node>
	<node lat="60.89983762066556" lon="10.332386222061107" id="-16797">
		<tag k="alt_name" v="Tomter" />
		<tag k="name" v="Søndre Tomter" />
		<tag k="place" v="farm" />
		<tag k="ssr:stedsnr" v="251395" />
	</node>
	<node lat="60.9226138918913" lon="10.283027780765172" id="-16798">
		<tag k="name" v="Vegård" />
		<tag k="place" v="farm" />
		<tag k="ssr:stedsnr" v="251472" />
	</node>
	<node lat="60.895044442166196" lon="10.602625008414366" id="-16800">
		<tag k="name" v="Nyset" />
		<tag k="place" v="farm" />
		<tag k="ssr:stedsnr" v="251859" />
	</node>
	<node lat="60.89524448124837" lon="10.6451918703731" id="-16801">
		<tag k="alt_name" v="Bjerke" />
		<tag k="fixme" v="consider place=hamlet" />
		<tag k="name" v="Bjørke" />
		<tag k="place" v="farm" />
		<tag k="ssr:stedsnr" v="251866" />
	</node>
	<node lat="60.88397777758059" lon="10.486616659603825" id="-16802">
		<tag k="amenity" v="school" />
		<tag k="name" v="Skogheim" />
		<tag k="ssr:stedsnr" v="251873" />
	</node>
	<node lat="60.890033337714854" lon="10.402972229109228" id="-16803">
		<tag k="alt_name" v="Sollien" />
		<tag k="name" v="Sollia" />
		<tag k="place" v="farm" />
		<tag k="ssr:stedsnr" v="251874" />
	</node>
	<node lat="60.8320026393667" lon="10.456821330727776" id="-16804">
		<tag k="fixme" v="consider place=hamlet" />
		<tag k="name" v="Viberg" />
		<tag k="place" v="farm" />
		<tag k="ssr:stedsnr" v="251988" />
	</node>
	<node lat="60.827994443433035" lon="10.56767499656171" id="-16805">
		<tag k="alt_name" v="Løvstad" />
		<tag k="name" v="Lauvstad" />
		<tag k="place" v="farm" />
		<tag k="ssr:stedsnr" v="251997" />
	</node>
	<node lat="60.83398333070792" lon="10.4878499938317" id="-16806">
		<tag k="name" v="Skaugom" />
		<tag k="place" v="farm" />
		<tag k="ssr:stedsnr" v="251999" />
	</node>
	<node lat="60.793083333392715" lon="10.503152777917338" id="-16807">
		<tag k="name" v="Presthaugen" />
		<tag k="place" v="locality" />
		<tag k="ssr:stedsnr" v="252001" />
	</node>
	<node lat="60.8111305567992" lon="10.502255560529743" id="-16809">
		<tag k="name" v="Prestberg" />
		<tag k="place" v="farm" />
		<tag k="ssr:stedsnr" v="252019" />
	</node>
	<node lat="60.80951320130833" lon="10.582059743431397" id="-16810">
		<tag k="alt_name" v="Skjervum, øvre;Øvre Skjerven" />
		<tag k="fixme" v="consider place=hamlet" />
		<tag k="name" v="Øvre Skjervum" />
		<tag k="place" v="farm" />
		<tag k="ssr:stedsnr" v="252023" />
	</node>
	<node lat="60.781064275734124" lon="10.65263353101952" id="-16811">
		<tag k="fixme" v="consider place=hamlet" />
		<tag k="name" v="Nygard" />
		<tag k="place" v="farm" />
		<tag k="ssr:stedsnr" v="252026" />
	</node>
	<node lat="60.7876277793288" lon="10.57858055530569" id="-16813">
		<tag k="name" v="Tyli" />
		<tag k="place" v="farm" />
		<tag k="ssr:stedsnr" v="252051" />
	</node>
	<node lat="60.78476421702472" lon="10.486900262715274" id="-16814">
		<tag k="fixme" v="consider place=hamlet" />
		<tag k="name" v="Vesterås" />
		<tag k="place" v="farm" />
		<tag k="ssr:stedsnr" v="252055" />
	</node>
	<node lat="60.762494757937375" lon="10.675050034405906" id="-16815">
		<tag k="fixme" v="consider place=hamlet" />
		<tag k="name" v="Øykåsen" />
		<tag k="place" v="farm" />
		<tag k="ssr:stedsnr" v="252064" />
	</node>
	<node lat="60.75586110781267" lon="10.579594442202753" id="-16816">
		<tag k="alt_name" v="Sandaker" />
		<tag k="name" v="Sandåker" />
		<tag k="place" v="farm" />
		<tag k="ssr:stedsnr" v="252066" />
	</node>
	<node lat="60.753945261117856" lon="10.563592649979961" id="-16817">
		<tag k="fixme" v="consider place=hamlet" />
		<tag k="name" v="Kongelstad" />
		<tag k="place" v="farm" />
		<tag k="ssr:stedsnr" v="252070" />
	</node>
	<node lat="60.806097223628065" lon="10.603177785209915" id="-16820">
		<tag k="name" v="Bostad" />
		<tag k="place" v="farm" />
		<tag k="ssr:stedsnr" v="130007" />
	</node>
	<node lat="60.795900003306905" lon="10.610322225418544" id="-16821">
		<tag k="alt_name" v="Brobakken" />
		<tag k="name" v="Brubakken" />
		<tag k="place" v="isolated_dwelling" />
		<tag k="ssr:stedsnr" v="130012" />
	</node>
	<node lat="60.807971887923024" lon="10.589206371938516" id="-16822">
		<tag k="alt_name" v="Skjervum, nedre;Nedre Skjerven" />
		<tag k="fixme" v="consider place=hamlet" />
		<tag k="name" v="Nedre Skjervum" />
		<tag k="place" v="farm" />
		<tag k="ssr:stedsnr" v="130024" />
	</node>
	<node lat="60.809692368858286" lon="10.651838031356725" id="-16823">
		<tag k="fixme" v="consider place=hamlet" />
		<tag k="name" v="Berg" />
		<tag k="place" v="farm" />
		<tag k="ssr:stedsnr" v="130027" />
	</node>
	<node lat="60.991652774778466" lon="10.264872214795826" id="-16824">
		<tag k="alt_name" v="Engum seter" />
		<tag k="historic" v="shieling" />
		<tag k="name" v="Engomsætra" />
		<tag k="place" v="isolated_dwelling" />
		<tag k="ssr:stedsnr" v="130280" />
	</node>
	<node lat="60.892744441176816" lon="10.612708340286257" id="-16826">
		<tag k="alt_name" v="Brovoll" />
		<tag k="name" v="Bruvoll" />
		<tag k="place" v="farm" />
		<tag k="ssr:stedsnr" v="130786" />
	</node>
	<node lat="60.89266637790543" lon="10.630166691125668" id="-16827">
		<tag k="alt_name" v="Etanstad, nedre;Etanstad;Nedre Etnestad" />
		<tag k="name" v="Nedre Etanstad" />
		<tag k="place" v="farm" />
		<tag k="ssr:stedsnr" v="130794" />
	</node>
	<node lat="60.88678611265614" lon="10.39596944665259" id="-16828">
		<tag k="name" v="Høystad" />
		<tag k="place" v="farm" />
		<tag k="ssr:stedsnr" v="130796" />
	</node>
	<node lat="60.886421941925136" lon="10.676552069019879" id="-16829">
		<tag k="alt_name" v="Stokke, nedre" />
		<tag k="fixme" v="consider place=hamlet" />
		<tag k="name" v="Nedre Stokke" />
		<tag k="place" v="farm" />
		<tag k="ssr:stedsnr" v="130904" />
	</node>
	<node lat="60.88246110910112" lon="10.371486120196225" id="-16830">
		<tag k="name" v="Ringeli" />
		<tag k="place" v="farm" />
		<tag k="ssr:stedsnr" v="130905" />
	</node>
	<node lat="60.879443209593646" lon="10.670009388698466" id="-16831">
		<tag k="name" v="Våstad" />
		<tag k="place" v="farm" />
		<tag k="ssr:stedsnr" v="130916" />
	</node>
	<node lat="60.92118055534305" lon="10.56292777831287" id="-16832">
		<tag k="historic" v="shieling" />
		<tag k="name" v="Unsetsætra" />
		<tag k="place" v="isolated_dwelling" />
		<tag k="ssr:stedsnr" v="130821" />
	</node>
	<node lat="60.925864320958446" lon="10.632954342321735" id="-16833">
		<tag k="fixme" v="consider place=hamlet" />
		<tag k="name" v="Klundby" />
		<tag k="place" v="farm" />
		<tag k="ssr:stedsnr" v="130829" />
	</node>
	<node lat="60.856016670752425" lon="10.391202775323366" id="-16835">
		<tag k="alt_name" v="Nøssetra" />
		<tag k="historic" v="shieling" />
		<tag k="name" v="Nossætra" />
		<tag k="place" v="isolated_dwelling" />
		<tag k="ssr:stedsnr" v="130886" />
	</node>
	<node lat="60.860877781806536" lon="10.675972223450907" id="-16836">
		<tag k="alt_name" v="Nordre Koll" />
		<tag k="name" v="Koll" />
		<tag k="place" v="farm" />
		<tag k="ssr:stedsnr" v="130889" />
	</node>
	<node lat="60.858693826142925" lon="10.653135036418742" id="-16837">
		<tag k="alt_name" v="Kålls-Ålstad" />
		<tag k="fixme" v="consider place=hamlet" />
		<tag k="name" v="Kolls-Ålstad" />
		<tag k="place" v="farm" />
		<tag k="ssr:stedsnr" v="130894" />
	</node>
	<node lat="60.88942271915074" lon="10.56175647201618" id="-16839">
		<tag k="alt_name" v="Markeng" />
		<tag k="fixme" v="consider place=hamlet" />
		<tag k="name" v="Søndre Markeng" />
		<tag k="place" v="farm" />
		<tag k="ssr:stedsnr" v="252588" />
	</node>
	<node lat="60.825330555024124" lon="10.385122219751786" id="-16840">
		<tag k="name" v="Sæterhaugen" />
		<tag k="place" v="isolated_dwelling" />
		<tag k="ssr:stedsnr" v="130983" />
	</node>
	<node lat="60.985538892690236" lon="10.495694438690263" id="-16841">
		<tag k="alt_name" v="Finstad" />
		<tag k="name" v="Finnstad" />
		<tag k="place" v="farm" />
		<tag k="ssr:stedsnr" v="252694" />
	</node>
	<node lat="60.97724444793381" lon="10.529327784759344" id="-16842">
		<tag k="alt_name" v="Engeset" />
		<tag k="name" v="Engset" />
		<tag k="place" v="farm" />
		<tag k="ssr:stedsnr" v="252670" />
	</node>
	<node lat="60.985561106791046" lon="10.542955559596491" id="-16843">
		<tag k="name" v="Øvergard" />
		<tag k="place" v="farm" />
		<tag k="ssr:stedsnr" v="252699" />
	</node>
	<node lat="60.94139722347806" lon="10.492355564365678" id="-16845">
		<tag k="historic" v="shieling" />
		<tag k="name" v="Grindlia" />
		<tag k="place" v="isolated_dwelling" />
		<tag k="ssr:stedsnr" v="252740" />
	</node>
	<node lat="60.89410278160199" lon="10.424888893250959" id="-16846">
		<tag k="name" v="Fagerli" />
		<tag k="place" v="farm" />
		<tag k="ssr:stedsnr" v="252790" />
	</node>
	<node lat="60.89683889287412" lon="10.419594436341317" id="-16847">
		<tag k="alt_name" v="Sveum" />
		<tag k="name" v="Sveom" />
		<tag k="place" v="farm" />
		<tag k="ssr:stedsnr" v="252791" />
	</node>
</osm>
