<?xml version="1.0" encoding="UTF-8"?>
<osm version="0.6" generator="osmapis">
	<node lat="60.92663369753444" lon="10.399010221564055" id="-36511">
		<tag k="fixme" v="consider boundary=protected_area and relevant protect_class if not nature reserve" />
		<tag k="leisure" v="nature_reserve" />
		<tag k="name" v="Brattåshaugen naturreservat" />
		<tag k="ssr:stedsnr" v="989153" />
	</node>
	<node lat="60.975879664934666" lon="10.216922566251151" id="-37894">
		<tag k="fixme" v="consider boundary=protected_area and relevant protect_class if not nature reserve" />
		<tag k="leisure" v="nature_reserve" />
		<tag k="name" v="Bjønnhaugen naturreservat" />
		<tag k="ssr:stedsnr" v="981243" />
	</node>
	<node lat="60.843336730450865" lon="10.386234363228162" id="-37904">
		<tag k="fixme" v="consider boundary=protected_area and relevant protect_class if not nature reserve" />
		<tag k="leisure" v="nature_reserve" />
		<tag k="name" v="Øytjernet naturreservat" />
		<tag k="ssr:stedsnr" v="982684" />
	</node>
	<node lat="60.94517941359901" lon="10.639492360256478" id="-38360">
		<tag k="fixme" v="consider boundary=protected_area and relevant protect_class if not nature reserve" />
		<tag k="leisure" v="nature_reserve" />
		<tag k="name" v="Eriksrud naturreservat" />
		<tag k="ssr:stedsnr" v="1082864" />
	</node>
</osm>
