<?xml version="1.0" encoding="UTF-8"?>
<osm version="0.6" generator="osmapis">
	<node lat="60.751875001480265" lon="10.429736105682178" id="-16665">
		<tag k="name" v="Innersæterbekken" />
		<tag k="ssr:stedsnr" v="9044" />
		<tag k="waterway" v="stream" />
	</node>
	<node lat="60.9280805588976" lon="10.224755561950904" id="-16667">
		<tag k="name" v="Flatsjøen" />
		<tag k="natural" v="water" />
		<tag k="ssr:stedsnr" v="9448" />
		<tag k="water" v="lake" />
	</node>
	<node lat="60.921850003991906" lon="10.603630555870168" id="-16671">
		<tag k="name" v="Skulhuselva" />
		<tag k="ssr:stedsnr" v="9838" />
		<tag k="waterway" v="river" />
	</node>
	<node lat="60.94692500123751" lon="10.51627499156939" id="-16677">
		<tag k="name" v="Sagbekken" />
		<tag k="ssr:stedsnr" v="9797" />
		<tag k="waterway" v="stream" />
	</node>
	<node lat="60.96371111538284" lon="10.387830562098342" id="-16685">
		<tag k="name" v="Kvekasæterbekken" />
		<tag k="ssr:stedsnr" v="20495" />
		<tag k="waterway" v="stream" />
	</node>
	<node lat="61.00770277701157" lon="10.300116663902793" id="-16692">
		<tag k="name" v="Øvre Maridammen" />
		<tag k="natural" v="water" />
		<tag k="ssr:stedsnr" v="40432" />
	</node>
	<node lat="60.81328055142997" lon="10.529397227056956" id="-16699">
		<tag k="name" v="Klokkerbekken" />
		<tag k="ssr:stedsnr" v="41103" />
		<tag k="waterway" v="stream" />
	</node>
	<node lat="60.911894448806706" lon="10.238277779642472" id="-16716">
		<tag k="name" v="Elvekroka" />
		<tag k="place" v="locality" />
		<tag k="ssr:stedsnr" v="238666" />
	</node>
	<node lat="60.93159166882634" lon="10.312733335541457" id="-16721">
		<tag k="name" v="Heimsangen" />
		<tag k="natural" v="water" />
		<tag k="ssr:stedsnr" v="69482" />
	</node>
	<node lat="60.84033055625267" lon="10.383986110073085" id="-16742">
		<tag k="alt_name" v="Øytjerna;Øytjennet" />
		<tag k="name" v="Øytjernet" />
		<tag k="natural" v="water" />
		<tag k="ssr:stedsnr" v="70972" />
	</node>
	<node lat="60.79787500314042" lon="10.675236115399732" id="-16785">
		<tag k="name" v="Hovdetjernet" />
		<tag k="natural" v="water" />
		<tag k="ssr:stedsnr" v="116572" />
	</node>
	<node lat="61.01652500252445" lon="10.419477769931364" id="-16787">
		<tag k="name" v="Vesleelva" />
		<tag k="ssr:stedsnr" v="250721" />
		<tag k="waterway" v="stream" />
	</node>
	<node lat="60.963477779404116" lon="10.24220555950888" id="-16796">
		<tag k="alt_name" v="Svarken, vle" />
		<tag k="name" v="Vesle Svarken" />
		<tag k="natural" v="water" />
		<tag k="ssr:stedsnr" v="251387" />
	</node>
	<node lat="60.98940166691009" lon="10.21137218495515" id="-16825">
		<tag k="alt_name" v="Rågarstjernet" />
		<tag k="name" v="Rågjerdstjernet" />
		<tag k="natural" v="water" />
		<tag k="ssr:stedsnr" v="130282" />
	</node>
	<node lat="60.7728722180478" lon="10.639888888541659" id="-16838">
		<tag k="name" v="Hunnselva" />
		<tag k="ssr:stedsnr" v="252586" />
		<tag k="waterway" v="river" />
	</node>
	<node lat="60.95005833582538" lon="10.478649997764952" id="-16844">
		<tag k="name" v="Dynjua" />
		<tag k="ssr:stedsnr" v="252782" />
		<tag k="waterway" v="stream" />
	</node>
</osm>
