<?xml version="1.0" encoding="UTF-8"?>
<osm generator="osmapis" version="0.6">
	<node id="-22077" lat="59.7482472195" lon="10.9712083349">
		<tag k="amenity" v="place_of_worship" />
		<tag k="denomination" v="lutheran" />
		<tag k="name" v="Sørmarkskapellet" />
		<tag k="religion" v="christian" />
		<tag k="ssr:stedsnr" v="42350" />
	</node>
	<node id="-22362" lat="59.7224111095" lon="10.8614361194">
		<tag k="amenity" v="place_of_worship" />
		<tag k="denomination" v="lutheran" />
		<tag k="name" v="Ski middelalderkirke" />
		<tag k="religion" v="christian" />
		<tag k="ssr:stedsnr" v="488569" />
	</node>
	<node id="-22040" lat="59.8039027735" lon="10.8828138828">
		<tag k="amenity" v="community_centre" />
		<tag k="name" v="Sagatun" />
		<tag k="ssr:stedsnr" v="5254" />
	</node>
	<node id="-22320" lat="59.791697221" lon="10.8871944495">
		<tag k="amenity" v="place_of_worship" />
		<tag k="denomination" v="lutheran" />
		<tag k="name" v="Siggerud kirke" />
		<tag k="religion" v="christian" />
		<tag k="ssr:stedsnr" v="429332" />
	</node>
	<node id="-22221" lat="59.7547055523" lon="10.8431694392">
		<tag k="alt_name" v="Langhus" />
		<tag k="amenity" v="place_of_worship" />
		<tag k="denomination" v="lutheran" />
		<tag k="name" v="Langhus kirke" />
		<tag k="religion" v="christian" />
		<tag k="ssr:stedsnr" v="204420" />
	</node>
	<node id="-22378" lat="59.783113885" lon="10.8596805472">
		<tag k="amenity" v="community_centre" />
		<tag k="name" v="Speiderhytte" />
		<tag k="ssr:stedsnr" v="490305" />
	</node>
	<node id="-22728" lat="59.6765672667" lon="10.8809262518">
		<tag k="alt_name" v="Kråkstad" />
		<tag k="amenity" v="place_of_worship" />
		<tag k="denomination" v="lutheran" />
		<tag k="name" v="Kråkstad kirke" />
		<tag k="religion" v="christian" />
		<tag k="ssr:stedsnr" v="914448" />
	</node>
</osm>
