<?xml version="1.0" encoding="UTF-8"?>
<osm generator="osmapis" version="0.6">
	<node id="-22016" lat="59.7751638897" lon="10.8737583297">
		<tag k="name" v="Bukkestitjernet" />
		<tag k="natural" v="water" />
		<tag k="old_name" v="Bukkestjern" />
		<tag k="ssr:stedsnr" v="4311" />
	</node>
	<node id="-22527" lat="59.7526638859" lon="10.8420500011">
		<tag k="alt_name" v="Fosstjern" />
		<tag k="name" v="Fosstjernet" />
		<tag k="natural" v="water" />
		<tag k="ssr:stedsnr" v="672361" />
	</node>
	<node id="-22525" lat="59.780797225" lon="10.9156472262">
		<tag k="name" v="Lommetjernet" />
		<tag k="natural" v="water" />
		<tag k="ssr:stedsnr" v="672281" />
	</node>
	<node id="-22523" lat="59.8129261703" lon="10.8682242547">
		<tag k="name" v="Gjeddetjernet" />
		<tag k="natural" v="water" />
		<tag k="ssr:stedsnr" v="672250" />
	</node>
	<node id="-22005" lat="59.8247859496" lon="10.8991264883">
		<tag k="name" v="Setertjern" />
		<tag k="natural" v="water" />
		<tag k="ssr:stedsnr" v="430289" />
	</node>
	<node id="-22505" lat="59.7375583373" lon="10.9623361129">
		<tag k="name" v="Gjetsjøvannet" />
		<tag k="natural" v="water" />
		<tag k="ssr:stedsnr" v="731546" />
	</node>
	<node id="-21988" lat="59.6949000037" lon="10.9620805487">
		<tag k="name" v="Oksetjern" />
		<tag k="natural" v="water" />
		<tag k="ssr:stedsnr" v="386564" />
	</node>
	<node id="-21984" lat="59.7662646561" lon="10.9241093725">
		<tag k="name" v="Vellumstadvika" />
		<tag k="natural" v="bay" />
		<tag k="ssr:stedsnr" v="386463" />
	</node>
	<node id="-21983" lat="59.7604857838" lon="10.9315710421">
		<tag k="name" v="Kilevika" />
		<tag k="natural" v="bay" />
		<tag k="ssr:stedsnr" v="386458" />
	</node>
	<node id="-22494" lat="59.7599500029" lon="10.8792222219">
		<tag k="name" v="Sagdalsbekken" />
		<tag k="ssr:stedsnr" v="628487" />
		<tag k="waterway" v="stream" />
	</node>
	<node id="-21981" lat="59.7313638922" lon="10.860922224">
		<tag k="name" v="Åråsbekken" />
		<tag k="ssr:stedsnr" v="386435" />
		<tag k="waterway" v="stream" />
	</node>
	<node id="-22483" lat="59.8219981927" lon="10.8974090858">
		<tag k="name" v="Brokkenhustjern" />
		<tag k="natural" v="water" />
		<tag k="ssr:stedsnr" v="628363" />
	</node>
	<node id="-22477" lat="59.7938805516" lon="10.906436102">
		<tag k="name" v="Svartkulpen" />
		<tag k="natural" v="water" />
		<tag k="ssr:stedsnr" v="628283" />
	</node>
	<node id="-21963" lat="59.694463893" lon="10.8682472214">
		<tag k="name" v="Engsbekken" />
		<tag k="ssr:stedsnr" v="385538" />
		<tag k="waterway" v="stream" />
	</node>
	<node id="-22473" lat="59.8109611114" lon="10.892877774">
		<tag k="name" v="Trångene" />
		<tag k="natural" v="water" />
		<tag k="ssr:stedsnr" v="628244" />
	</node>
	<node id="-22472" lat="59.7677333316" lon="10.9279722238">
		<tag k="name" v="Bjørnholmen" />
		<tag k="place" v="islet" />
		<tag k="ssr:stedsnr" v="611419" />
	</node>
	<node id="-22471" lat="59.7595867333" lon="10.9154959473">
		<tag k="name" v="Rundtjernet" />
		<tag k="natural" v="water" />
		<tag k="ssr:stedsnr" v="611416" />
	</node>
	<node id="-21954" lat="59.7572805523" lon="10.8136333357">
		<tag k="alt_name" v="Dalselva" />
		<tag k="name" v="Dalsbekken" />
		<tag k="old_name" v="Dalelva" />
		<tag k="ssr:stedsnr" v="368420" />
		<tag k="waterway" v="stream" />
	</node>
	<node id="-22464" lat="59.7904972236" lon="10.9101611131">
		<tag k="name" v="Holetjernet" />
		<tag k="natural" v="water" />
		<tag k="ssr:stedsnr" v="611338" />
	</node>
	<node id="-22463" lat="59.7773555536" lon="10.8470527767">
		<tag k="name" v="Snipetjernet" />
		<tag k="natural" v="water" />
		<tag k="old_name" v="Snipptjernet" />
		<tag k="ssr:stedsnr" v="611312" />
	</node>
	<node id="-22460" lat="59.8296072866" lon="10.9309810201">
		<tag k="alt_name" v="Griseputtene" />
		<tag k="name" v="Griseputten" />
		<tag k="natural" v="water" />
		<tag k="ssr:stedsnr" v="611212" />
	</node>
	<node id="-21946" lat="59.7108388878" lon="10.9367722143">
		<tag k="name" v="Asgjerrudtjernet" />
		<tag k="natural" v="water" />
		<tag k="ssr:stedsnr" v="367506" />
	</node>
	<node id="-21930" lat="59.7464111069" lon="10.938277769">
		<tag k="name" v="Jørgensrudtjern" />
		<tag k="natural" v="water" />
		<tag k="ssr:stedsnr" v="325447" />
	</node>
	<node id="-21925" lat="59.7882837991" lon="10.8955729872">
		<tag k="name" v="Tangentjern" />
		<tag k="natural" v="water" />
		<tag k="ssr:stedsnr" v="325290" />
	</node>
	<node id="-22429" lat="59.753222222" lon="10.8392027807">
		<tag k="name" v="Bensekulpen" />
		<tag k="natural" v="water" />
		<tag k="ssr:stedsnr" v="567373" />
		<tag k="water" v="lake" />
	</node>
	<node id="-22423" lat="59.79973056" lon="10.9675166636">
		<tag k="name" v="Fugleleiktjern" />
		<tag k="natural" v="water" />
		<tag k="ssr:stedsnr" v="567344" />
	</node>
	<node id="-22417" lat="59.7648249992" lon="10.9660527697">
		<tag k="name" v="Follobekken" />
		<tag k="ssr:stedsnr" v="550403" />
		<tag k="waterway" v="stream" />
	</node>
	<node id="-21894" lat="59.6666027756" lon="10.8592388969">
		<tag k="name" v="Glennetjernet" />
		<tag k="natural" v="water" />
		<tag k="ssr:stedsnr" v="306461" />
	</node>
	<node id="-22395" lat="59.7383583348" lon="10.964630558">
		<tag k="name" v="Mads" />
		<tag k="place" v="islet" />
		<tag k="ssr:stedsnr" v="507610" />
	</node>
	<node id="-22384" lat="59.7652166705" lon="10.9267611177">
		<tag k="name" v="Eikholmen" />
		<tag k="place" v="islet" />
		<tag k="ssr:stedsnr" v="507455" />
	</node>
	<node id="-22379" lat="59.7385333473" lon="10.8970621068">
		<tag k="name" v="Solbergkulpen" />
		<tag k="natural" v="water" />
		<tag k="ssr:stedsnr" v="507421" />
		<tag k="water" v="lake" />
	</node>
	<node id="-22372" lat="59.7792388893" lon="10.8548861133">
		<tag k="name" v="Bjønnmyrbekken" />
		<tag k="ssr:stedsnr" v="507255" />
		<tag k="waterway" v="stream" />
	</node>
	<node id="-22369" lat="59.7620111091" lon="10.8118249996">
		<tag k="alt_name" v="Tussebekken" />
		<tag k="name" v="Sætrebekken" />
		<tag k="ssr:stedsnr" v="490376" />
		<tag k="waterway" v="stream" />
	</node>
	<node id="-22362" lat="59.8241638917" lon="10.9453111195">
		<tag k="alt_name" v="Skjellbreida" />
		<tag k="loc_name" v="Skjellbreia" />
		<tag k="name" v="Skjelbreia" />
		<tag k="natural" v="water" />
		<tag k="ssr:stedsnr" v="490279" />
	</node>
	<node id="-22361" lat="59.8158085089" lon="10.8917152446">
		<tag k="name" v="Sværsvann" />
		<tag k="natural" v="water" />
		<tag k="ssr:stedsnr" v="490262" />
		<tag k="water" v="lake" />
	</node>
	<node id="-22321" lat="59.8154722264" lon="10.9086194422">
		<tag k="name" v="Lille Rolandsjøen" />
		<tag k="natural" v="water" />
		<tag k="ssr:stedsnr" v="447347" />
	</node>
	<node id="-22314" lat="59.8278709813" lon="10.9277930485">
		<tag k="alt_name" v="Tømmerholtjernet" />
		<tag k="name" v="Tømmerholtjern" />
		<tag k="natural" v="water" />
		<tag k="ssr:stedsnr" v="430295" />
	</node>
	<node id="-22307" lat="59.8034749991" lon="10.9793805608">
		<tag k="name" v="Svartoren" />
		<tag k="natural" v="water" />
		<tag k="ssr:stedsnr" v="429353" />
	</node>
	<node id="-22275" lat="59.6754472259" lon="10.9071722143">
		<tag k="name" v="Sørumsbekken" />
		<tag k="ssr:stedsnr" v="264501" />
		<tag k="waterway" v="stream" />
	</node>
	<node id="-22268" lat="59.7484722239" lon="10.9353388948">
		<tag k="name" v="Bogerkulpen" />
		<tag k="natural" v="water" />
		<tag k="ssr:stedsnr" v="264445" />
		<tag k="water" v="pond" />
	</node>
	<node id="-22255" lat="59.7978194449" lon="10.935975006">
		<tag k="name" v="Sagstudammen" />
		<tag k="natural" v="water" />
		<tag k="ssr:stedsnr" v="264279" />
	</node>
	<node id="-22253" lat="59.7823333325" lon="10.8569638955">
		<tag k="name" v="Stallerudbekken" />
		<tag k="ssr:stedsnr" v="264270" />
		<tag k="waterway" v="stream" />
	</node>
	<node id="-22252" lat="59.7834611096" lon="10.9055055564">
		<tag k="name" v="Bruelven" />
		<tag k="ssr:stedsnr" v="264258" />
		<tag k="waterway" v="river" />
	</node>
	<node id="-22249" lat="59.7628361096" lon="10.8289000059">
		<tag k="alt_name" v="Tussetjern" />
		<tag k="name" v="Tussetjernet" />
		<tag k="natural" v="water" />
		<tag k="ssr:stedsnr" v="247379" />
	</node>
	<node id="-22247" lat="59.8006736702" lon="10.9266795448">
		<tag k="alt_name" v="Soldaltjern" />
		<tag k="name" v="Soldaltjernet" />
		<tag k="natural" v="water" />
		<tag k="ssr:stedsnr" v="247335" />
	</node>
	<node id="-22139" lat="59.7285333351" lon="10.8559527706">
		<tag k="alt_name" v="Rullestadtjern" />
		<tag k="name" v="Rullestadtjernet" />
		<tag k="natural" v="water" />
		<tag k="ssr:stedsnr" v="124512" />
	</node>
	<node id="-22222" lat="59.7316472191" lon="10.8467722187">
		<tag k="name" v="Roåsbekken" />
		<tag k="ssr:stedsnr" v="204399" />
		<tag k="waterway" v="stream" />
	</node>
	<node id="-22219" lat="59.7416777815" lon="10.9292861173">
		<tag k="name" v="Stubberudtjern" />
		<tag k="natural" v="water" />
		<tag k="ssr:stedsnr" v="204385" />
	</node>
	<node id="-22218" lat="59.7389138877" lon="10.904819446">
		<tag k="name" v="Stokstadbekken" />
		<tag k="ssr:stedsnr" v="204382" />
		<tag k="waterway" v="stream" />
	</node>
	<node id="-22729" lat="59.7872388878" lon="10.9571666652">
		<tag k="name" v="Hellebråtvika" />
		<tag k="natural" v="bay" />
		<tag k="ssr:stedsnr" v="932339" />
	</node>
	<node id="-22213" lat="59.7742722218" lon="10.9276888957">
		<tag k="name" v="Delehammeren" />
		<tag k="natural" v="cape" />
		<tag k="ssr:stedsnr" v="204220" />
	</node>
	<node id="-22724" lat="59.7645249958" lon="10.9327333304">
		<tag k="name" v="Nordtangen" />
		<tag k="natural" v="cape" />
		<tag k="ssr:stedsnr" v="915394" />
	</node>
	<node id="-22717" lat="59.8137036785" lon="10.9166850136">
		<tag k="name" v="Rolandsjøen" />
		<tag k="natural" v="water" />
		<tag k="ssr:stedsnr" v="915254" />
	</node>
	<node id="-22202" lat="59.7597638886" lon="10.9040611154">
		<tag k="alt_name" v="Karlsrudtjern" />
		<tag k="name" v="Karlsrudtjernet" />
		<tag k="natural" v="water" />
		<tag k="ssr:stedsnr" v="187369" />
	</node>
	<node id="-22708" lat="59.7248833293" lon="10.9654861187">
		<tag k="alt_name" v="Søretjern" />
		<tag k="name" v="Søretjernet" />
		<tag k="natural" v="water" />
		<tag k="ssr:stedsnr" v="913559" />
	</node>
	<node id="-22703" lat="59.7403865971" lon="10.9559930226">
		<tag k="name" v="Smalungen" />
		<tag k="natural" v="bay" />
		<tag k="ssr:stedsnr" v="871578" />
	</node>
	<node id="-22190" lat="59.7990805571" lon="10.8833250048">
		<tag k="name" v="Grønslettjernet" />
		<tag k="natural" v="water" />
		<tag k="ssr:stedsnr" v="186368" />
	</node>
	<node id="-22700" lat="59.7143722193" lon="10.9704638868">
		<tag k="name" v="Svartebekken" />
		<tag k="ssr:stedsnr" v="871529" />
		<tag k="waterway" v="stream" />
	</node>
	<node id="-22687" lat="59.7291194426" lon="10.8994166652">
		<tag k="name" v="Abbortangen" />
		<tag k="natural" v="strait" />
		<tag k="ssr:stedsnr" v="871421" />
	</node>
	<node id="-22676" lat="59.8070430033" lon="10.8870593929">
		<tag k="alt_name" v="Bråtetjernet;Bråtetjern" />
		<tag k="name" v="Bråtatjerna" />
		<tag k="natural" v="water" />
		<tag k="ssr:stedsnr" v="855260" />
	</node>
	<node id="-22670" lat="59.7883027808" lon="10.8447277857">
		<tag k="name" v="Assuren" />
		<tag k="natural" v="water" />
		<tag k="ssr:stedsnr" v="854305" />
	</node>
	<node id="-22157" lat="59.7700722206" lon="10.9332166754">
		<tag k="name" v="Geitholmen" />
		<tag k="place" v="islet" />
		<tag k="ssr:stedsnr" v="143222" />
	</node>
	<node id="-22666" lat="59.7263343527" lon="10.9007876499">
		<tag k="name" v="Nærevannet" />
		<tag k="natural" v="water" />
		<tag k="ssr:stedsnr" v="853551" />
		<tag k="water" v="lake" />
	</node>
	<node id="-22151" lat="59.7533611129" lon="10.9391472278">
		<tag k="name" v="Buvannet" />
		<tag k="natural" v="water" />
		<tag k="ssr:stedsnr" v="126488" />
	</node>
	<node id="-22150" lat="59.8041055514" lon="10.8366777819">
		<tag k="alt_name" v="Snipetjern" />
		<tag k="name" v="Snipetjernet" />
		<tag k="natural" v="water" />
		<tag k="old_name" v="Snipptjernet" />
		<tag k="ssr:stedsnr" v="126245" />
	</node>
	<node id="-22145" lat="59.8057611077" lon="10.9489027739">
		<tag k="name" v="Paddetjernet" />
		<tag k="natural" v="water" />
		<tag k="ssr:stedsnr" v="126375" />
	</node>
	<node id="-22142" lat="59.707433332" lon="10.9532833305">
		<tag k="alt_name" v="Langetjern" />
		<tag k="name" v="Langtjernet" />
		<tag k="natural" v="water" />
		<tag k="ssr:stedsnr" v="125392" />
	</node>
	<node id="-22634" lat="59.6668222222" lon="10.9422055622">
		<tag k="name" v="Skotbubekken" />
		<tag k="ssr:stedsnr" v="810520" />
		<tag k="waterway" v="stream" />
	</node>
	<node id="-22650" lat="59.766102782" lon="10.9280833328">
		<tag k="name" v="Ruholmen" />
		<tag k="place" v="islet" />
		<tag k="ssr:stedsnr" v="811456" />
	</node>
	<node id="-22649" lat="59.7319749993" lon="10.8770833384">
		<tag k="name" v="Trollneset" />
		<tag k="natural" v="cape" />
		<tag k="ssr:stedsnr" v="811441" />
	</node>
	<node id="-22647" lat="59.7395694422" lon="10.9275999997">
		<tag k="name" v="Solbottjernet" />
		<tag k="natural" v="water" />
		<tag k="ssr:stedsnr" v="811431" />
	</node>
	<node id="-22128" lat="59.6870388873" lon="10.9577611163">
		<tag k="alt_name" v="Viertjern;Vientjern" />
		<tag k="name" v="Vientjernet" />
		<tag k="natural" v="water" />
		<tag k="ssr:stedsnr" v="125441" />
	</node>
	<node id="-22122" lat="59.7732305533" lon="10.9696000041">
		<tag k="alt_name" v="Skriveren lille" />
		<tag k="name" v="Lille Skriveren" />
		<tag k="natural" v="water" />
		<tag k="ssr:stedsnr" v="83922" />
	</node>
	<node id="-21948" lat="59.7304408483" lon="10.8831230755">
		<tag k="name" v="Midsjøvannet" />
		<tag k="natural" v="water" />
		<tag k="ssr:stedsnr" v="367546" />
		<tag k="water" v="lake" />
	</node>
	<node id="-22629" lat="59.8166472205" lon="10.9397194389">
		<tag k="alt_name" v="Abortjern" />
		<tag k="name" v="Abbortjern" />
		<tag k="natural" v="water" />
		<tag k="ssr:stedsnr" v="794243" />
	</node>
	<node id="-22628" lat="59.8060972226" lon="10.9265833396">
		<tag k="name" v="Lusetjern" />
		<tag k="natural" v="water" />
		<tag k="ssr:stedsnr" v="794230" />
	</node>
	<node id="-22627" lat="59.7859777797" lon="10.8284388969">
		<tag k="alt_name" v="Grytetjern" />
		<tag k="name" v="Grytetjernet" />
		<tag k="natural" v="water" />
		<tag k="ssr:stedsnr" v="793355" />
	</node>
	<node id="-22104" lat="59.7423833292" lon="10.8930472187">
		<tag k="name" v="Mørkbekken" />
		<tag k="ssr:stedsnr" v="82433" />
		<tag k="waterway" v="stream" />
	</node>
	<node id="-22613" lat="59.664427777" lon="10.8869249976">
		<tag k="name" v="Kråkstadelva" />
		<tag k="ssr:stedsnr" v="791487" />
		<tag k="waterway" v="stream" />
	</node>
	<node id="-22099" lat="59.761147223" lon="10.8974111174">
		<tag k="name" v="Karlsrudbekken" />
		<tag k="ssr:stedsnr" v="82464" />
		<tag k="waterway" v="stream" />
	</node>
	<node id="-22607" lat="59.7725972232" lon="10.9728555621">
		<tag k="alt_name" v="Skriveren store" />
		<tag k="name" v="Store Skriveren" />
		<tag k="natural" v="water" />
		<tag k="old_name" v="Skrivartjernet" />
		<tag k="ssr:stedsnr" v="793434" />
	</node>
	<node id="-22593" lat="59.7255861097" lon="10.9495194519">
		<tag k="name" v="Sagstubekken" />
		<tag k="ssr:stedsnr" v="750412" />
		<tag k="waterway" v="stream" />
	</node>
	<node id="-22591" lat="59.7242750038" lon="10.83878333">
		<tag k="name" v="Kapelldammen" />
		<tag k="natural" v="water" />
		<tag k="ssr:stedsnr" v="750391" />
	</node>
	<node id="-22078" lat="59.7340305592" lon="10.9907416584">
		<tag k="name" v="Langen" />
		<tag k="natural" v="water" />
		<tag k="ssr:stedsnr" v="64587" />
		<tag k="water" v="lake" />
	</node>
	<node id="-22076" lat="59.7223497849" lon="10.9754300633">
		<tag k="name" v="Rustadelva" />
		<tag k="ssr:stedsnr" v="64576" />
		<tag k="waterway" v="stream" />
	</node>
	<node id="-22579" lat="59.7740500032" lon="10.9317638838">
		<tag k="loc_name" v="Gjevika" />
		<tag k="name" v="Jevikvika" />
		<tag k="natural" v="bay" />
		<tag k="ssr:stedsnr" v="750220" />
	</node>
	<node id="-22578" lat="59.7989555538" lon="10.8650500057">
		<tag k="alt_name" v="Gjeddetjern" />
		<tag k="name" v="Gjeddetjernet" />
		<tag k="natural" v="water" />
		<tag k="ssr:stedsnr" v="733498" />
	</node>
	<node id="-22065" lat="59.7990527781" lon="10.9587499919">
		<tag k="alt_name" v="Stutaue" />
		<tag k="name" v="Stutauget" />
		<tag k="natural" v="water" />
		<tag k="ssr:stedsnr" v="65334" />
	</node>
	<node id="-22575" lat="59.8112777794" lon="10.9488138892">
		<tag k="name" v="Tretjerna" />
		<tag k="natural" v="water" />
		<tag k="ssr:stedsnr" v="733253" />
	</node>
	<node id="-22062" lat="59.7873388868" lon="10.9603277782">
		<tag k="alt_name" v="Bindingsvann" />
		<tag k="name" v="Bindingsvannet" />
		<tag k="natural" v="water" />
		<tag k="ssr:stedsnr" v="24685" />
		<tag k="water" v="lake" />
	</node>
	<node id="-22573" lat="59.8021880642" lon="10.910302356">
		<tag k="alt_name" v="Syverudtjernet;Syverrudtjern" />
		<tag k="name" v="Syverudtjern" />
		<tag k="natural" v="water" />
		<tag k="ssr:stedsnr" v="733242" />
	</node>
	<node id="-22557" lat="59.8050055571" lon="10.9778583391">
		<tag k="name" v="Svartholbekken" />
		<tag k="ssr:stedsnr" v="690232" />
		<tag k="waterway" v="stream" />
	</node>
	<node id="-22036" lat="59.7938194451" lon="10.915686107">
		<tag k="name" v="Ålielva" />
		<tag k="ssr:stedsnr" v="22269" />
		<tag k="waterway" v="river" />
	</node>
	<node id="-22547" lat="59.747587149" lon="10.9391231287">
		<tag k="alt_name" v="Bergseng kulpen" />
		<tag k="name" v="Bergsengkulpen" />
		<tag k="natural" v="water" />
		<tag k="ssr:stedsnr" v="689438" />
		<tag k="water" v="lake" />
	</node>
	<node id="-22021" lat="59.6961611083" lon="10.9585972216">
		<tag k="name" v="Abbortjernet" />
		<tag k="natural" v="water" />
		<tag k="ssr:stedsnr" v="4404" />
	</node>
	<node id="-22531" lat="59.7666220224" lon="10.9359207584">
		<tag k="alt_name" v="Mjøvikvika" />
		<tag k="name" v="Mjøvika" />
		<tag k="natural" v="bay" />
		<tag k="ssr:stedsnr" v="672392" />
	</node>
</osm>
