<?xml version="1.0" encoding="UTF-8"?>
<osm generator="osmapis" version="0.6">
	<node id="-21991" lat="59.7155111091" lon="10.9305111175">
		<tag k="name" v="Kattemyr" />
		<tag k="natural" v="wetland" />
		<tag k="ssr:stedsnr" v="386616" />
	</node>
	<node id="-22502" lat="59.6369999996" lon="10.874911115">
		<tag k="name" v="Jaerskogen" />
		<tag k="place" v="locality" />
		<tag k="ssr:stedsnr" v="628713" />
	</node>
	<node id="-21989" lat="59.7297833334" lon="10.9468111055">
		<tag k="name" v="Høymyr" />
		<tag k="natural" v="wetland" />
		<tag k="ssr:stedsnr" v="386610" />
	</node>
	<node id="-22500" lat="59.7183583375" lon="10.934438887">
		<tag k="name" v="Breimåsan" />
		<tag k="natural" v="wetland" />
		<tag k="ssr:stedsnr" v="628593" />
	</node>
	<node id="-21986" lat="59.7611083335" lon="10.8780361072">
		<tag k="name" v="Lille Droplemyr" />
		<tag k="natural" v="wetland" />
		<tag k="ssr:stedsnr" v="386471" />
	</node>
	<node id="-22495" lat="59.6721555593" lon="10.9249722154">
		<tag k="name" v="Langli" />
		<tag k="place" v="locality" />
		<tag k="ssr:stedsnr" v="628488" />
	</node>
	<node id="-21979" lat="59.7370138845" lon="10.9012527862">
		<tag k="name" v="Solbergmåsan" />
		<tag k="natural" v="wetland" />
		<tag k="ssr:stedsnr" v="386420" />
	</node>
	<node id="-22489" lat="59.7391833351" lon="10.8830555501">
		<tag k="name" v="Midsjøskogen" />
		<tag k="place" v="locality" />
		<tag k="ssr:stedsnr" v="628445" />
	</node>
	<node id="-22488" lat="59.7487111151" lon="10.9313027795">
		<tag k="name" v="Bogermyra" />
		<tag k="natural" v="wetland" />
		<tag k="ssr:stedsnr" v="628441" />
	</node>
	<node id="-21974" lat="59.762438887" lon="10.9512472155">
		<tag k="name" v="Kavringen" />
		<tag k="natural" v="stone" />
		<tag k="ssr:stedsnr" v="386299" />
	</node>
	<node id="-22485" lat="59.7619583366" lon="10.8385722285">
		<tag k="landuse" v="meadow" />
		<tag k="name" v="Berghagan" />
		<tag k="ssr:stedsnr" v="628374" />
	</node>
	<node id="-21972" lat="59.8038361145" lon="10.8944333346">
		<tag k="name" v="Torvet" />
		<tag k="place" v="locality" />
		<tag k="ssr:stedsnr" v="386284" />
	</node>
	<node id="-21971" lat="59.7762222265" lon="10.8809888861">
		<tag k="name" v="Bukkestimyra" />
		<tag k="natural" v="wetland" />
		<tag k="ssr:stedsnr" v="386269" />
	</node>
	<node id="-22482" lat="59.7945999977" lon="10.9604416631">
		<tag k="name" v="Elgmåsan" />
		<tag k="natural" v="wetland" />
		<tag k="ssr:stedsnr" v="628357" />
	</node>
	<node id="-22481" lat="59.8258305552" lon="10.9381666737">
		<tag k="name" v="Benkemyrene" />
		<tag k="natural" v="wetland" />
		<tag k="ssr:stedsnr" v="628351" />
	</node>
	<node id="-22476" lat="59.7774611123" lon="10.8653638806">
		<tag k="name" v="Langmåsan" />
		<tag k="natural" v="wetland" />
		<tag k="ssr:stedsnr" v="628265" />
	</node>
	<node id="-22474" lat="59.7698833365" lon="10.8652777859">
		<tag k="name" v="Marimyr" />
		<tag k="natural" v="wetland" />
		<tag k="ssr:stedsnr" v="628259" />
	</node>
	<node id="-21956" lat="59.7735416633" lon="10.8456138921">
		<tag k="alt_name" v="Breidmåsan" />
		<tag k="name" v="Breimåsan" />
		<tag k="natural" v="wetland" />
		<tag k="old_name" v="Breidmosan" />
		<tag k="ssr:stedsnr" v="368460" />
	</node>
	<node id="-22461" lat="59.8224250019" lon="10.9213972155">
		<tag k="name" v="Fugleleiken" />
		<tag k="natural" v="wetland" />
		<tag k="ssr:stedsnr" v="611283" />
	</node>
	<node id="-21947" lat="59.7354000031" lon="10.9253972301">
		<tag k="alt_name" v="Solbotmåsan" />
		<tag k="name" v="Solbatmosan" />
		<tag k="natural" v="wetland" />
		<tag k="ssr:stedsnr" v="367544" />
	</node>
	<node id="-21928" lat="59.7249111139" lon="10.8909333351">
		<tag k="name" v="Midsjømåsan" />
		<tag k="natural" v="wetland" />
		<tag k="ssr:stedsnr" v="325438" />
	</node>
	<node id="-22438" lat="59.6996555522" lon="10.9424361141">
		<tag k="name" v="Høleløkka" />
		<tag k="place" v="locality" />
		<tag k="ssr:stedsnr" v="567523" />
	</node>
	<node id="-21924" lat="59.7726527805" lon="10.8713416696">
		<tag k="name" v="Nordre Lauvåsmyra" />
		<tag k="natural" v="wetland" />
		<tag k="ssr:stedsnr" v="325289" />
	</node>
	<node id="-21923" lat="59.7687916696" lon="10.8940694377">
		<tag k="name" v="Breimåsan" />
		<tag k="natural" v="wetland" />
		<tag k="ssr:stedsnr" v="325283" />
	</node>
	<node id="-21917" lat="59.7502055521" lon="10.965233341">
		<tag k="name" v="Bekkenstein" />
		<tag k="place" v="locality" />
		<tag k="ssr:stedsnr" v="325320" />
	</node>
	<node id="-21914" lat="59.7922555552" lon="10.8635194453">
		<tag k="name" v="Korsmyr" />
		<tag k="natural" v="wetland" />
		<tag k="ssr:stedsnr" v="325310" />
	</node>
	<node id="-21913" lat="59.8040722214" lon="10.904788897">
		<tag k="name" v="Kransagmyra" />
		<tag k="natural" v="wetland" />
		<tag k="ssr:stedsnr" v="325304" />
	</node>
	<node id="-22424" lat="59.8161638901" lon="10.9268388856">
		<tag k="name" v="Vesle Hagamyr" />
		<tag k="natural" v="wetland" />
		<tag k="ssr:stedsnr" v="567353" />
	</node>
	<node id="-22422" lat="59.8071527746" lon="10.9534750081">
		<tag k="name" v="Gråbeinmåsan" />
		<tag k="natural" v="wetland" />
		<tag k="ssr:stedsnr" v="567340" />
	</node>
	<node id="-21909" lat="59.7607361113" lon="10.8702527753">
		<tag k="alt_name" v="Store Droplemyra" />
		<tag k="name" v="Droplemyra" />
		<tag k="natural" v="wetland" />
		<tag k="ssr:stedsnr" v="308365" />
	</node>
	<node id="-22420" lat="59.7701027749" lon="10.8793944446">
		<tag k="name" v="Holmenmyra" />
		<tag k="natural" v="wetland" />
		<tag k="ssr:stedsnr" v="567270" />
	</node>
	<node id="-21896" lat="59.7160111137" lon="10.9422944411">
		<tag k="name" v="Dammyra" />
		<tag k="natural" v="wetland" />
		<tag k="ssr:stedsnr" v="306551" />
	</node>
	<node id="-22399" lat="59.6755138849" lon="10.8425722277">
		<tag k="name" v="Grytelandskogen" />
		<tag k="place" v="locality" />
		<tag k="ssr:stedsnr" v="507754" />
	</node>
	<node id="-22421" lat="59.7794083314" lon="10.954138892">
		<tag k="name" v="Muskedalsmåsan" />
		<tag k="natural" v="wetland" />
		<tag k="ssr:stedsnr" v="567339" />
	</node>
	<node id="-22392" lat="59.7216833364" lon="10.9592333407">
		<tag k="name" v="Gjetsjømåsan" />
		<tag k="natural" v="wetland" />
		<tag k="ssr:stedsnr" v="507541" />
	</node>
	<node id="-22390" lat="59.6845749963" lon="10.9325916676">
		<tag k="name" v="Ødemark" />
		<tag k="place" v="locality" />
		<tag k="ssr:stedsnr" v="507518" />
	</node>
	<node id="-22387" lat="59.674488891" lon="10.8854805522">
		<tag k="name" v="Hanselund" />
		<tag k="place" v="locality" />
		<tag k="ssr:stedsnr" v="507482" />
	</node>
	<node id="-22382" lat="59.7653861074" lon="10.8900833283">
		<tag k="name" v="Ormemåsan" />
		<tag k="natural" v="wetland" />
		<tag k="ssr:stedsnr" v="507440" />
	</node>
	<node id="-22375" lat="59.8045555568" lon="10.8757583317">
		<tag k="alt_name" v="Sagamyr nedre" />
		<tag k="name" v="Nedre Sagamyr" />
		<tag k="natural" v="wetland" />
		<tag k="ssr:stedsnr" v="507284" />
	</node>
	<node id="-22373" lat="59.8094083338" lon="10.9214833416">
		<tag k="name" v="Lusetjernmyra" />
		<tag k="natural" v="wetland" />
		<tag k="ssr:stedsnr" v="507267" />
	</node>
	<node id="-22501" lat="59.7100277734" lon="10.9038277796">
		<tag k="name" v="Myrerhagan" />
		<tag k="place" v="locality" />
		<tag k="ssr:stedsnr" v="628601" />
	</node>
	<node id="-22335" lat="59.7177527815" lon="10.893438885">
		<tag k="name" v="Skisengmåsan" />
		<tag k="natural" v="wetland" />
		<tag k="ssr:stedsnr" v="447604" />
	</node>
	<node id="-22328" lat="59.7498333331" lon="10.9004500083">
		<tag k="name" v="Snippemyra" />
		<tag k="natural" v="wetland" />
		<tag k="ssr:stedsnr" v="447440" />
	</node>
	<node id="-22324" lat="59.7360305556" lon="10.9760833273">
		<tag k="name" v="Flaket" />
		<tag k="place" v="locality" />
		<tag k="ssr:stedsnr" v="447395" />
	</node>
	<node id="-22322" lat="59.7615333325" lon="10.8450222275">
		<tag k="name" v="Haugjordet" />
		<tag k="place" v="locality" />
		<tag k="ssr:stedsnr" v="447356" />
	</node>
	<node id="-22319" lat="59.800613886" lon="10.8968833302">
		<tag k="name" v="Øvre Starrmyr" />
		<tag k="natural" v="wetland" />
		<tag k="ssr:stedsnr" v="447252" />
	</node>
	<node id="-22317" lat="59.6782305536" lon="10.8722944516">
		<tag k="name" v="Smedsrud" />
		<tag k="place" v="locality" />
		<tag k="ssr:stedsnr" v="446760" />
	</node>
	<node id="-22261" lat="59.8250083297" lon="10.9246277859">
		<tag k="name" v="Tømtmyra" />
		<tag k="natural" v="wetland" />
		<tag k="ssr:stedsnr" v="264365" />
	</node>
	<node id="-22258" lat="59.8029027759" lon="10.8781388848">
		<tag k="alt_name" v="Sagamyr midtre" />
		<tag k="name" v="Midtre Sagamyr" />
		<tag k="natural" v="wetland" />
		<tag k="ssr:stedsnr" v="264297" />
	</node>
	<node id="-22254" lat="59.7867166637" lon="10.8641194447">
		<tag k="name" v="Korsmyr" />
		<tag k="natural" v="wetland" />
		<tag k="ssr:stedsnr" v="264275" />
	</node>
	<node id="-22740" lat="59.7574694418" lon="10.8588416685">
		<tag k="name" v="Jonsrudmyra" />
		<tag k="natural" v="wetland" />
		<tag k="ssr:stedsnr" v="932467" />
	</node>
	<node id="-22739" lat="59.7479000005" lon="10.9097416743">
		<tag k="name" v="Stokstadmyra" />
		<tag k="natural" v="wetland" />
		<tag k="ssr:stedsnr" v="932459" />
	</node>
	<node id="-22225" lat="59.6816999958" lon="10.8757527833">
		<tag k="name" v="Sigtunmyra" />
		<tag k="natural" v="wetland" />
		<tag k="ssr:stedsnr" v="204495" />
	</node>
	<node id="-22736" lat="59.7279138853" lon="10.87855833">
		<tag k="name" v="Herustimåsan" />
		<tag k="natural" v="wetland" />
		<tag k="ssr:stedsnr" v="932440" />
	</node>
	<node id="-22221" lat="59.7328222227" lon="10.872147221">
		<tag k="name" v="Åråsmåsan" />
		<tag k="natural" v="wetland" />
		<tag k="ssr:stedsnr" v="204396" />
	</node>
	<node id="-22731" lat="59.7642166673" lon="10.8516944369">
		<tag k="name" v="Bregnefaret" />
		<tag k="place" v="locality" />
		<tag k="ssr:stedsnr" v="932367" />
	</node>
	<node id="-22728" lat="59.7724416683" lon="10.9638638825">
		<tag k="name" v="Grubemåsan" />
		<tag k="natural" v="wetland" />
		<tag k="ssr:stedsnr" v="932335" />
	</node>
	<node id="-22215" lat="59.8197250017" lon="10.9502472177">
		<tag k="name" v="Skjelbreimyra" />
		<tag k="natural" v="wetland" />
		<tag k="ssr:stedsnr" v="204305" />
	</node>
	<node id="-22726" lat="59.7877194423" lon="10.894699992">
		<tag k="landuse" v="meadow" />
		<tag k="name" v="Tangenhagen" />
		<tag k="ssr:stedsnr" v="932262" />
	</node>
	<node id="-22212" lat="59.6882027778" lon="10.9260444491">
		<tag k="landuse" v="meadow" />
		<tag k="name" v="Steinum" />
		<tag k="ssr:stedsnr" v="204481" />
	</node>
	<node id="-22721" lat="59.7997253694" lon="10.9661370071">
		<tag k="name" v="Fjellfugleleiken" />
		<tag k="natural" v="wetland" />
		<tag k="ssr:stedsnr" v="915353" />
	</node>
	<node id="-22208" lat="59.7543750016" lon="10.8473000065">
		<tag k="name" v="Arnestadjordet" />
		<tag k="place" v="locality" />
		<tag k="ssr:stedsnr" v="204421" />
	</node>
	<node id="-22710" lat="59.7071722181" lon="10.9697638881">
		<tag k="name" v="Orremåsan" />
		<tag k="natural" v="wetland" />
		<tag k="ssr:stedsnr" v="914384" />
	</node>
	<node id="-22194" lat="59.779413888" lon="10.9615333404">
		<tag k="alt_name" v="Slåmyr" />
		<tag k="name" v="Slåmyra" />
		<tag k="natural" v="wetland" />
		<tag k="ssr:stedsnr" v="186474" />
	</node>
	<node id="-22699" lat="59.7108333319" lon="10.967241662">
		<tag k="name" v="Jensebu" />
		<tag k="place" v="locality" />
		<tag k="ssr:stedsnr" v="871526" />
	</node>
	<node id="-22214" lat="59.7712833317" lon="10.8573833269">
		<tag k="name" v="Nedre Fugleåsmyr" />
		<tag k="natural" v="wetland" />
		<tag k="ssr:stedsnr" v="204234" />
	</node>
	<node id="-22690" lat="59.7667249968" lon="10.872241667">
		<tag k="name" v="Store Lauvåsmyra" />
		<tag k="natural" v="wetland" />
		<tag k="ssr:stedsnr" v="871464" />
	</node>
	<node id="-22688" lat="59.7552250023" lon="10.8898750066">
		<tag k="name" v="Mjølmåsan" />
		<tag k="natural" v="wetland" />
		<tag k="ssr:stedsnr" v="871444" />
	</node>
	<node id="-22686" lat="59.7344972205" lon="10.8980027738">
		<tag k="landuse" v="meadow" />
		<tag k="name" v="Vasshagen" />
		<tag k="ssr:stedsnr" v="871422" />
	</node>
	<node id="-22685" lat="59.7420555556" lon="10.8908944442">
		<tag k="name" v="Lunnermåsan" />
		<tag k="natural" v="wetland" />
		<tag k="ssr:stedsnr" v="871417" />
	</node>
	<node id="-22681" lat="59.74391944" lon="10.8935000065">
		<tag k="name" v="Eikjolmåsan" />
		<tag k="natural" v="wetland" />
		<tag k="ssr:stedsnr" v="871289" />
	</node>
	<node id="-22553" lat="59.6819138882" lon="10.9109888871">
		<tag k="name" v="Sandaker" />
		<tag k="place" v="locality" />
		<tag k="ssr:stedsnr" v="689493" />
	</node>
	<node id="-22164" lat="59.6400777743" lon="10.898594442">
		<tag k="name" v="Bjerkemåsan" />
		<tag k="natural" v="wetland" />
		<tag k="ssr:stedsnr" v="143512" />
	</node>
	<node id="-22158" lat="59.7849583308" lon="10.9363000013">
		<tag k="name" v="Fugleleiken" />
		<tag k="natural" v="wetland" />
		<tag k="ssr:stedsnr" v="143225" />
	</node>
	<node id="-22156" lat="59.8153861148" lon="10.9620694491">
		<tag k="name" v="Vesle Skjelbreimyra" />
		<tag k="natural" v="wetland" />
		<tag k="ssr:stedsnr" v="143311" />
	</node>
	<node id="-22155" lat="59.7898194425" lon="10.8733222136">
		<tag k="name" v="Stormyr" />
		<tag k="natural" v="wetland" />
		<tag k="ssr:stedsnr" v="143269" />
	</node>
	<node id="-22154" lat="59.7942472241" lon="10.8798611175">
		<tag k="name" v="Nordgardsmyra" />
		<tag k="natural" v="wetland" />
		<tag k="ssr:stedsnr" v="143265" />
	</node>
	<node id="-22656" lat="59.6272888894" lon="10.8819027715">
		<tag k="name" v="Grønstvetskogen" />
		<tag k="place" v="locality" />
		<tag k="ssr:stedsnr" v="811713" />
	</node>
	<node id="-22141" lat="59.7996750016" lon="10.8744555526">
		<tag k="name" v="Sauemåsan" />
		<tag k="natural" v="wetland" />
		<tag k="ssr:stedsnr" v="125377" />
	</node>
	<node id="-22645" lat="59.7313888922" lon="10.9571333401">
		<tag k="historic" v="shieling" />
		<tag k="name" v="Sagstua" />
		<tag k="place" v="locality" />
		<tag k="ssr:stedsnr" v="811412" />
	</node>
	<node id="-22644" lat="59.7969833326" lon="10.948630563">
		<tag k="name" v="Fjellslåmyra" />
		<tag k="natural" v="wetland" />
		<tag k="ssr:stedsnr" v="811354" />
	</node>
	<node id="-22641" lat="59.7853944412" lon="10.8483749989">
		<tag k="name" v="Rundmyr" />
		<tag k="natural" v="wetland" />
		<tag k="ssr:stedsnr" v="811264" />
	</node>
	<node id="-22640" lat="59.6775583293" lon="10.8534777855">
		<tag k="name" v="Prestegårdskogen" />
		<tag k="place" v="locality" />
		<tag k="ssr:stedsnr" v="810760" />
	</node>
	<node id="-22121" lat="59.7308055559" lon="10.8120500071">
		<tag k="name" v="Hebekkmåsan" />
		<tag k="natural" v="wetland" />
		<tag k="ssr:stedsnr" v="83590" />
	</node>
	<node id="-22116" lat="59.7189611107" lon="10.9163694434">
		<tag k="landuse" v="meadow" />
		<tag k="name" v="Grøstadhagen" />
		<tag k="ssr:stedsnr" v="83606" />
	</node>
	<node id="-22114" lat="59.6777583339" lon="10.8682805553">
		<tag k="name" v="Gunnarsrud" />
		<tag k="place" v="locality" />
		<tag k="ssr:stedsnr" v="82734" />
	</node>
	<node id="-22102" lat="59.6717527776" lon="10.8685388962">
		<tag k="name" v="Bjastadskogen" />
		<tag k="place" v="locality" />
		<tag k="ssr:stedsnr" v="82504" />
	</node>
	<node id="-22091" lat="59.814241665" lon="10.896761111">
		<tag k="name" v="Hestemyra" />
		<tag k="natural" v="wetland" />
		<tag k="ssr:stedsnr" v="82353" />
	</node>
	<node id="-22090" lat="59.7947777794" lon="10.8556583271">
		<tag k="name" v="Gudebildet" />
		<tag k="place" v="locality" />
		<tag k="ssr:stedsnr" v="82285" />
	</node>
	<node id="-22599" lat="59.6837249987" lon="10.871377782">
		<tag k="name" v="Vangsmyra" />
		<tag k="natural" v="wetland" />
		<tag k="ssr:stedsnr" v="750530" />
	</node>
	<node id="-22589" lat="59.8214777808" lon="10.9319166604">
		<tag k="name" v="Starrmåsan" />
		<tag k="natural" v="wetland" />
		<tag k="ssr:stedsnr" v="750335" />
	</node>
	<node id="-22586" lat="59.8121555587" lon="10.952208338">
		<tag k="name" v="Tømmeråsmåsan" />
		<tag k="natural" v="wetland" />
		<tag k="ssr:stedsnr" v="750312" />
	</node>
	<node id="-22583" lat="59.7769861148" lon="10.8872388833">
		<tag k="name" v="Bjønnemyra" />
		<tag k="natural" v="wetland" />
		<tag k="ssr:stedsnr" v="750245" />
	</node>
	<node id="-22582" lat="59.7736444419" lon="10.8587277806">
		<tag k="name" v="Øvre Fugleåsmyr" />
		<tag k="natural" v="wetland" />
		<tag k="ssr:stedsnr" v="750238" />
	</node>
	<node id="-22576" lat="59.8203805513" lon="10.9270611054">
		<tag k="alt_name" v="Store Hagamyr" />
		<tag k="name" v="Stormyr" />
		<tag k="natural" v="wetland" />
		<tag k="ssr:stedsnr" v="733271" />
	</node>
	<node id="-22061" lat="59.6341361079" lon="10.9157916613">
		<tag k="name" v="Ambjørnrudmåsan" />
		<tag k="natural" v="wetland" />
		<tag k="ssr:stedsnr" v="22719" />
	</node>
	<node id="-22057" lat="59.7050583305" lon="10.9539111195">
		<tag k="name" v="Langetjernmåsan" />
		<tag k="natural" v="wetland" />
		<tag k="ssr:stedsnr" v="22554" />
	</node>
	<node id="-22056" lat="59.7049194451" lon="10.966505561">
		<tag k="name" v="Starrmyra" />
		<tag k="natural" v="wetland" />
		<tag k="ssr:stedsnr" v="22552" />
	</node>
	<node id="-22042" lat="59.8029888883" lon="10.9676277759">
		<tag k="name" v="Store Fjellfugleleiken" />
		<tag k="place" v="locality" />
		<tag k="ssr:stedsnr" v="22346" />
	</node>
	<node id="-22041" lat="59.8166694427" lon="10.9470361156">
		<tag k="name" v="Krokholmåsan" />
		<tag k="natural" v="wetland" />
		<tag k="ssr:stedsnr" v="22320" />
	</node>
	<node id="-22039" lat="59.7971083357" lon="10.8571444394">
		<tag k="name" v="Mastemyr" />
		<tag k="natural" v="wetland" />
		<tag k="ssr:stedsnr" v="22282" />
	</node>
	<node id="-22550" lat="59.6603416682" lon="10.84666945">
		<tag k="name" v="Vålskogen" />
		<tag k="place" v="locality" />
		<tag k="ssr:stedsnr" v="689472" />
	</node>
	<node id="-22542" lat="59.775394441" lon="10.9743888809">
		<tag k="name" v="Skrivermyra" />
		<tag k="natural" v="wetland" />
		<tag k="ssr:stedsnr" v="689346" />
	</node>
	<node id="-22027" lat="59.8034388899" lon="10.896408333">
		<tag k="alt_name" v="Nedre Starrmyr" />
		<tag k="name" v="Stormyra" />
		<tag k="natural" v="wetland" />
		<tag k="ssr:stedsnr" v="5255" />
	</node>
	<node id="-22017" lat="59.7803916664" lon="10.859000005">
		<tag k="name" v="Sørmarka" />
		<tag k="place" v="locality" />
		<tag k="ssr:stedsnr" v="4327" />
	</node>
</osm>
