<?xml version="1.0" encoding="UTF-8"?>
<osm generator="osmapis" version="0.6">
	<node id="-22012" lat="59.7205638883" lon="10.8349444372">
		<tag k="bridge" v="yes" />
		<tag k="layer" v="1" />
		<tag k="name" v="Ski" />
		<tag k="ssr:stedsnr" v="410137" />
	</node>
	<node id="-22138" lat="59.7617611125" lon="10.8122527855">
		<tag k="bridge" v="yes" />
		<tag k="layer" v="1" />
		<tag k="name" v="Sætre" />
		<tag k="ssr:stedsnr" v="107109" />
	</node>
	<node id="-22645" lat="59.7496498534" lon="10.8369071455">
		<tag k="alt_name" v="Langhus" />
		<tag k="name" v="Langhus stasjon" />
		<tag k="railway" v="station" />
		<tag k="ssr:stedsnr" v="794367" />
		<tag k="train" v="yes" />
	</node>
	<node id="-22675" lat="59.6651222246" lon="10.947969439">
		<tag k="alt_name" v="Skotbu" />
		<tag k="name" v="Skotbu holdeplass" />
		<tag k="railway" v="halt" />
		<tag k="ssr:stedsnr" v="852489" />
		<tag k="train" v="yes" />
	</node>
	<node id="-22765" lat="59.8160888149" lon="10.830662457">
		<tag k="layer" v="-1" />
		<tag k="name" v="Blixtunnelen" />
		<tag k="ssr:stedsnr" v="975837" />
		<tag k="tunnel" v="yes" />
	</node>
	<node id="-22764" lat="59.7337110523" lon="10.8429658425">
		<tag k="layer" v="-1" />
		<tag k="name" v="Roåstunnelen" />
		<tag k="ssr:stedsnr" v="975653" />
		<tag k="tunnel" v="yes" />
	</node>
	<node id="-22123" lat="59.6494305584" lon="10.8760138916">
		<tag k="junction" v="yes" />
		<tag k="name" v="Holt" />
		<tag k="place" v="locality" />
		<tag k="ssr:stedsnr" v="82522" />
	</node>
	<node id="-22065" lat="59.6762277789" lon="10.8729055517">
		<tag k="junction" v="yes" />
		<tag k="name" v="Bjastad" />
		<tag k="place" v="locality" />
		<tag k="ssr:stedsnr" v="22486" />
	</node>
	<node id="-22504" lat="59.7559083337" lon="10.8378944471">
		<tag k="name" v="Vevelstad holdeplass" />
		<tag k="railway" v="halt" />
		<tag k="ssr:stedsnr" v="628454" />
		<tag k="train" v="yes" />
	</node>
	<node id="-22759" lat="59.7790055552" lon="10.9106277749">
		<tag k="bridge" v="yes" />
		<tag k="layer" v="1" />
		<tag k="name" v="Bru" />
		<tag k="ssr:stedsnr" v="956174" />
	</node>
	<node id="-22246" lat="59.7908416679" lon="10.9478499977">
		<tag k="bridge" v="yes" />
		<tag k="layer" v="1" />
		<tag k="name" v="Fjellhagen" />
		<tag k="ssr:stedsnr" v="228164" />
	</node>
	<node id="-22245" lat="59.7585500024" lon="10.841899996">
		<tag k="bridge" v="yes" />
		<tag k="layer" v="1" />
		<tag k="name" v="Vevelstadåsen" />
		<tag k="ssr:stedsnr" v="228142" />
	</node>
	<node id="-22758" lat="59.7754111078" lon="10.8374805497">
		<tag k="bridge" v="yes" />
		<tag k="layer" v="1" />
		<tag k="name" v="Slåbråten" />
		<tag k="ssr:stedsnr" v="956150" />
	</node>
	<node id="-22747" lat="59.7215027738" lon="10.8472333398">
		<tag k="junction" v="yes" />
		<tag k="name" v="Sander" />
		<tag k="place" v="locality" />
		<tag k="ssr:stedsnr" v="932379" />
	</node>
	<node id="-21978" lat="59.6608138912" lon="10.9444361058">
		<tag k="junction" v="yes" />
		<tag k="name" v="Røys" />
		<tag k="place" v="locality" />
		<tag k="ssr:stedsnr" v="385516" />
	</node>
	<node id="-22353" lat="59.7071638873" lon="10.8817555589">
		<tag k="aeroway" v="aerodrome" />
		<tag k="name" v="Ski flyplass" />
		<tag k="ssr:stedsnr" v="484227" />
	</node>
	<node id="-22352" lat="59.6488833375" lon="10.8857333369">
		<tag k="bridge" v="yes" />
		<tag k="layer" v="1" />
		<tag k="name" v="Holt" />
		<tag k="ssr:stedsnr" v="471163" />
	</node>
	<node id="-22351" lat="59.7096944471" lon="10.8724944392">
		<tag k="alt_name" v="Ustvedt" />
		<tag k="bridge" v="yes" />
		<tag k="layer" v="1" />
		<tag k="name" v="Østvet" />
		<tag k="ssr:stedsnr" v="471136" />
	</node>
	<node id="-22350" lat="59.7623166642" lon="10.8201138812">
		<tag k="bridge" v="yes" />
		<tag k="layer" v="1" />
		<tag k="name" v="Nordlifallet" />
		<tag k="ssr:stedsnr" v="471135" />
	</node>
	<node id="-22089" lat="59.7186033631" lon="10.8352753293">
		<tag k="alt_name" v="Ski" />
		<tag k="name" v="Ski stasjon" />
		<tag k="railway" v="station" />
		<tag k="ssr:stedsnr" v="64559" />
		<tag k="train" v="yes" />
	</node>
	<node id="-22087" lat="59.6835059609" lon="10.8906624239">
		<tag k="alt_name" v="Kråkstad" />
		<tag k="name" v="Kråkstad stasjon" />
		<tag k="railway" v="station" />
		<tag k="ssr:stedsnr" v="64437" />
		<tag k="train" v="yes" />
	</node>
	<node id="-22458" lat="59.7553888919" lon="10.8454305508">
		<tag k="bridge" v="yes" />
		<tag k="layer" v="1" />
		<tag k="name" v="Langhus senter" />
		<tag k="ssr:stedsnr" v="592168" />
	</node>
	<node id="-22449" lat="59.6510416651" lon="10.8726527835">
		<tag k="junction" v="yes" />
		<tag k="name" v="Myrvoll" />
		<tag k="place" v="locality" />
		<tag k="ssr:stedsnr" v="567511" />
	</node>
	<node id="-22573" lat="59.6727055512" lon="10.8864888915">
		<tag k="bridge" v="yes" />
		<tag k="layer" v="1" />
		<tag k="name" v="Elveveien" />
		<tag k="ssr:stedsnr" v="713169" />
	</node>
	<node id="-22599" lat="59.7917694433" lon="10.873350006">
		<tag k="highway" v="path" />
		<tag k="name" v="Fuglestien" />
		<tag k="ssr:stedsnr" v="750262" />
	</node>
	<node id="-22440" lat="59.7229277808" lon="10.866930555">
		<tag k="junction" v="yes" />
		<tag k="name" v="Klokkerud" />
		<tag k="place" v="locality" />
		<tag k="ssr:stedsnr" v="567359" />
	</node>
	<node id="-22705" lat="59.662711112" lon="10.9005388957">
		<tag k="highway" v="path" />
		<tag k="name" v="Kongeveien" />
		<tag k="ssr:stedsnr" v="871466" />
	</node>
	<node id="-22618" lat="59.7820694461" lon="10.9713138846">
		<tag k="bridge" v="yes" />
		<tag k="layer" v="1" />
		<tag k="name" v="Bindingsvann" />
		<tag k="ssr:stedsnr" v="774179" />
	</node>
	<node id="-21908" lat="59.7820444464" lon="10.8427527797">
		<tag k="bridge" v="yes" />
		<tag k="layer" v="1" />
		<tag k="name" v="Assurdalen" />
		<tag k="ssr:stedsnr" v="289146" />
	</node>
	<node id="-21907" lat="59.7868472179" lon="10.9571638911">
		<tag k="bridge" v="yes" />
		<tag k="layer" v="1" />
		<tag k="name" v="Fjell" />
		<tag k="ssr:stedsnr" v="289145" />
	</node>
	<node id="-22414" lat="59.7611666689" lon="10.8147861061">
		<tag k="bridge" v="yes" />
		<tag k="layer" v="1" />
		<tag k="name" v="Stenfelt" />
		<tag k="ssr:stedsnr" v="531142" />
	</node>
	<node id="-22276" lat="59.7103555561" lon="10.8724361067">
		<tag k="junction" v="yes" />
		<tag k="name" v="Kjeppestad" />
		<tag k="place" v="locality" />
		<tag k="ssr:stedsnr" v="264376" />
	</node>
</osm>
