<?xml version="1.0" encoding="UTF-8"?>
<osm generator="osmapis" version="0.6">
	<node id="-22528" lat="59.757727779" lon="10.8222499968">
		<tag k="fixme" v="consider natural=peak for the most distinct mountains in the district" />
		<tag k="name" v="Fossholtet" />
		<tag k="natural" v="hill" />
		<tag k="place" v="locality" />
		<tag k="ssr:stedsnr" v="672366" />
	</node>
	<node id="-22526" lat="59.7979305556" lon="10.9157388804">
		<tag k="fixme" v="consider natural=peak for the most distinct mountains in the district" />
		<tag k="name" v="Snikedalsåsen" />
		<tag k="natural" v="hill" />
		<tag k="place" v="locality" />
		<tag k="ssr:stedsnr" v="672317" />
	</node>
	<node id="-22524" lat="59.8240249974" lon="10.9144527785">
		<tag k="alt_name" v="Lille Malmen" />
		<tag k="fixme" v="consider natural=peak for the most distinct mountains in the district" />
		<tag k="name" v="Veståsen" />
		<tag k="natural" v="hill" />
		<tag k="place" v="locality" />
		<tag k="ssr:stedsnr" v="672260" />
	</node>
	<node id="-22522" lat="59.807094449" lon="10.9017722152">
		<tag k="alt_name" v="Syverudåsen" />
		<tag k="fixme" v="consider natural=peak for the most distinct mountains in the district" />
		<tag k="name" v="Syverrudåsen" />
		<tag k="natural" v="hill" />
		<tag k="place" v="locality" />
		<tag k="ssr:stedsnr" v="672232" />
	</node>
	<node id="-22006" lat="59.8509055513" lon="10.9748500049">
		<tag k="name" v="Østmarka" />
		<tag k="natural" v="wood" />
		<tag k="ssr:stedsnr" v="490224" />
	</node>
	<node id="-21990" lat="59.7186472182" lon="10.9220000057">
		<tag k="name" v="Kølabonn" />
		<tag k="place" v="locality" />
		<tag k="ssr:stedsnr" v="386615" />
	</node>
	<node id="-21987" lat="59.695644444" lon="10.9470638877">
		<tag k="name" v="Grasdalen" />
		<tag k="natural" v="valley" />
		<tag k="place" v="locality" />
		<tag k="ssr:stedsnr" v="386562" />
	</node>
	<node id="-21982" lat="59.7541222222" lon="10.9329555585">
		<tag k="fixme" v="consider natural=peak for the most distinct mountains in the district" />
		<tag k="name" v="Buåsen" />
		<tag k="natural" v="hill" />
		<tag k="place" v="locality" />
		<tag k="ssr:stedsnr" v="386455" />
	</node>
	<node id="-22493" lat="59.7647054995" lon="10.882090609">
		<tag k="fixme" v="consider natural=peak for the most distinct mountains in the district" />
		<tag k="name" v="Nylendeåsen" />
		<tag k="natural" v="hill" />
		<tag k="place" v="locality" />
		<tag k="ssr:stedsnr" v="628484" />
	</node>
	<node id="-21978" lat="59.7363416642" lon="10.9726527857">
		<tag k="name" v="Torebråtabakken" />
		<tag k="natural" v="slope" />
		<tag k="place" v="locality" />
		<tag k="ssr:stedsnr" v="386402" />
	</node>
	<node id="-22487" lat="59.7267611116" lon="10.9278444379">
		<tag k="fixme" v="consider natural=peak for the most distinct mountains in the district" />
		<tag k="name" v="Bekkevaråsen" />
		<tag k="natural" v="hill" />
		<tag k="place" v="locality" />
		<tag k="ssr:stedsnr" v="628436" />
	</node>
	<node id="-21973" lat="59.8030111143" lon="10.8596805574">
		<tag k="name" v="Askedalen" />
		<tag k="natural" v="valley" />
		<tag k="place" v="locality" />
		<tag k="ssr:stedsnr" v="386294" />
	</node>
	<node id="-22484" lat="59.8289888855" lon="10.9340500067">
		<tag k="fixme" v="consider natural=peak for the most distinct mountains in the district" />
		<tag k="name" v="Nygårdskollen" />
		<tag k="natural" v="hill" />
		<tag k="place" v="locality" />
		<tag k="ssr:stedsnr" v="628364" />
	</node>
	<node id="-21969" lat="59.785108334" lon="10.9489249974">
		<tag k="fixme" v="consider natural=peak for the most distinct mountains in the district" />
		<tag k="name" v="Sponåsen" />
		<tag k="natural" v="hill" />
		<tag k="place" v="locality" />
		<tag k="ssr:stedsnr" v="386350" />
	</node>
	<node id="-22480" lat="59.798997224" lon="10.9755972298">
		<tag k="fixme" v="consider natural=peak for the most distinct mountains in the district" />
		<tag k="name" v="Tømtåsen" />
		<tag k="natural" v="hill" />
		<tag k="place" v="locality" />
		<tag k="ssr:stedsnr" v="628343" />
	</node>
	<node id="-22478" lat="59.726505559" lon="10.9357861028">
		<tag k="name" v="Trolldalen" />
		<tag k="natural" v="valley" />
		<tag k="place" v="locality" />
		<tag k="ssr:stedsnr" v="628303" />
	</node>
	<node id="-22475" lat="59.7680305591" lon="10.852083327">
		<tag k="name" v="Damplassen" />
		<tag k="place" v="locality" />
		<tag k="ssr:stedsnr" v="628261" />
	</node>
	<node id="-21921" lat="59.7165750031" lon="10.8494722202">
		<tag k="fixme" v="consider natural=peak for the most distinct mountains in the district" />
		<tag k="name" v="Skoroåsen" />
		<tag k="natural" v="hill" />
		<tag k="place" v="locality" />
		<tag k="ssr:stedsnr" v="325396" />
	</node>
	<node id="-22465" lat="59.7902500031" lon="10.9396388847">
		<tag k="fixme" v="consider natural=peak for the most distinct mountains in the district" />
		<tag k="name" v="Greverudåsen" />
		<tag k="natural" v="hill" />
		<tag k="place" v="locality" />
		<tag k="ssr:stedsnr" v="611340" />
	</node>
	<node id="-21952" lat="59.7865861119" lon="10.8517083379">
		<tag k="fixme" v="consider natural=peak for the most distinct mountains in the district" />
		<tag k="name" v="Buåsen" />
		<tag k="natural" v="hill" />
		<tag k="place" v="locality" />
		<tag k="ssr:stedsnr" v="368348" />
	</node>
	<node id="-22601" lat="59.6803638876" lon="10.9493944466">
		<tag k="fixme" v="consider natural=peak for the most distinct mountains in the district" />
		<tag k="name" v="Brennekleivåsen" />
		<tag k="natural" v="hill" />
		<tag k="place" v="locality" />
		<tag k="ssr:stedsnr" v="750548" />
	</node>
	<node id="-21934" lat="59.6781111151" lon="10.908980554">
		<tag k="fixme" v="consider natural=peak for the most distinct mountains in the district" />
		<tag k="name" v="Sørumåsen" />
		<tag k="natural" v="hill" />
		<tag k="place" v="locality" />
		<tag k="ssr:stedsnr" v="325486" />
	</node>
	<node id="-21926" lat="59.7083500015" lon="10.9107833304">
		<tag k="fixme" v="consider natural=peak for the most distinct mountains in the district" />
		<tag k="name" v="Søråsen" />
		<tag k="natural" v="hill" />
		<tag k="place" v="locality" />
		<tag k="ssr:stedsnr" v="325608" />
	</node>
	<node id="-22437" lat="59.6888777747" lon="10.9423305532">
		<tag k="fixme" v="consider natural=peak for the most distinct mountains in the district" />
		<tag k="name" v="Tyrigravåsen" />
		<tag k="natural" v="hill" />
		<tag k="place" v="locality" />
		<tag k="ssr:stedsnr" v="567521" />
	</node>
	<node id="-21922" lat="59.7726833356" lon="10.8896222203">
		<tag k="name" v="Delingsdalen" />
		<tag k="natural" v="valley" />
		<tag k="place" v="locality" />
		<tag k="ssr:stedsnr" v="325274" />
	</node>
	<node id="-22433" lat="59.7477138902" lon="10.9324361041">
		<tag k="name" v="Bogerkollen" />
		<tag k="natural" v="hill" />
		<tag k="place" v="locality" />
		<tag k="ssr:stedsnr" v="567437" />
	</node>
	<node id="-22432" lat="59.7312111125" lon="10.9235138954">
		<tag k="name" v="Nordli" />
		<tag k="place" v="locality" />
		<tag k="ssr:stedsnr" v="567435" />
	</node>
	<node id="-21919" lat="59.8101333335" lon="10.9541722299">
		<tag k="name" v="Styggdalen" />
		<tag k="natural" v="valley" />
		<tag k="place" v="locality" />
		<tag k="ssr:stedsnr" v="325366" />
	</node>
	<node id="-21918" lat="59.7687277821" lon="10.9571972284">
		<tag k="name" v="Merradalen" />
		<tag k="natural" v="valley" />
		<tag k="place" v="locality" />
		<tag k="ssr:stedsnr" v="325356" />
	</node>
	<node id="-21916" lat="59.7506777821" lon="10.9474305638">
		<tag k="fixme" v="consider natural=peak for the most distinct mountains in the district" />
		<tag k="name" v="Vestre Kollåsen" />
		<tag k="natural" v="hill" />
		<tag k="place" v="locality" />
		<tag k="ssr:stedsnr" v="325316" />
	</node>
	<node id="-21915" lat="59.8056499979" lon="10.8693472292">
		<tag k="name" v="Borkedalen" />
		<tag k="natural" v="valley" />
		<tag k="place" v="locality" />
		<tag k="ssr:stedsnr" v="325314" />
	</node>
	<node id="-21908" lat="59.8007249973" lon="10.9045611198">
		<tag k="fixme" v="consider natural=peak for the most distinct mountains in the district" />
		<tag k="name" v="Sauåsen" />
		<tag k="natural" v="hill" />
		<tag k="place" v="locality" />
		<tag k="ssr:stedsnr" v="308324" />
	</node>
	<node id="-22419" lat="59.8046388886" lon="10.8557249925">
		<tag k="fixme" v="consider natural=peak for the most distinct mountains in the district" />
		<tag k="name" v="Langåsen" />
		<tag k="natural" v="hill" />
		<tag k="place" v="locality" />
		<tag k="ssr:stedsnr" v="551274" />
	</node>
	<node id="-21906" lat="59.7872472204" lon="10.8341555513">
		<tag k="fixme" v="consider natural=peak for the most distinct mountains in the district" />
		<tag k="name" v="Flatåsen" />
		<tag k="natural" v="hill" />
		<tag k="place" v="locality" />
		<tag k="ssr:stedsnr" v="308302" />
	</node>
	<node id="-22416" lat="59.7701722182" lon="10.8734333362">
		<tag k="fixme" v="consider natural=peak for the most distinct mountains in the district" />
		<tag k="name" v="Lauvåsen" />
		<tag k="natural" v="hill" />
		<tag k="place" v="locality" />
		<tag k="ssr:stedsnr" v="550399" />
	</node>
	<node id="-22412" lat="59.7767666657" lon="10.891677775">
		<tag k="alt_name" v="Størthølet" />
		<tag k="name" v="Størtholet" />
		<tag k="natural" v="valley" />
		<tag k="old_name" v="Styrteholet" />
		<tag k="place" v="locality" />
		<tag k="ssr:stedsnr" v="550300" />
	</node>
	<node id="-22406" lat="59.7462451278" lon="10.917524328">
		<tag k="fixme" v="consider natural=peak for the most distinct mountains in the district" />
		<tag k="name" v="Stunneråsen" />
		<tag k="natural" v="hill" />
		<tag k="place" v="locality" />
		<tag k="ssr:stedsnr" v="549476" />
	</node>
	<node id="-22396" lat="59.7066222194" lon="10.9081972308">
		<tag k="name" v="Oppsandbråten" />
		<tag k="natural" v="hill" />
		<tag k="place" v="locality" />
		<tag k="ssr:stedsnr" v="507618" />
	</node>
	<node id="-22385" lat="59.7569111152" lon="10.8581444358">
		<tag k="name" v="Sloratoppen" />
		<tag k="natural" v="hill" />
		<tag k="place" v="locality" />
		<tag k="ssr:stedsnr" v="507459" />
	</node>
	<node id="-22383" lat="59.7659583303" lon="10.905230551">
		<tag k="fixme" v="consider natural=peak for the most distinct mountains in the district" />
		<tag k="name" v="Sterkerudåsen" />
		<tag k="natural" v="hill" />
		<tag k="place" v="locality" />
		<tag k="ssr:stedsnr" v="507442" />
	</node>
	<node id="-22378" lat="59.7581916665" lon="10.8216194409">
		<tag k="fixme" v="consider natural=peak for the most distinct mountains in the district" />
		<tag k="name" v="Furusetåsen" />
		<tag k="natural" v="hill" />
		<tag k="place" v="locality" />
		<tag k="ssr:stedsnr" v="507395" />
	</node>
	<node id="-22377" lat="59.7624361113" lon="10.8469194506">
		<tag k="name" v="Skoglia" />
		<tag k="natural" v="slope" />
		<tag k="place" v="locality" />
		<tag k="ssr:stedsnr" v="507363" />
	</node>
	<node id="-22376" lat="59.7988472264" lon="10.9797833354">
		<tag k="fixme" v="consider natural=peak for the most distinct mountains in the district" />
		<tag k="name" v="Damåsen" />
		<tag k="natural" v="hill" />
		<tag k="place" v="locality" />
		<tag k="ssr:stedsnr" v="507331" />
	</node>
	<node id="-22374" lat="59.8037361075" lon="10.8791916667">
		<tag k="fixme" v="consider natural=peak for the most distinct mountains in the district" />
		<tag k="name" v="Galteryggen" />
		<tag k="natural" v="hill" />
		<tag k="place" v="locality" />
		<tag k="ssr:stedsnr" v="507281" />
	</node>
	<node id="-22371" lat="59.7804388849" lon="10.8898916746">
		<tag k="fixme" v="consider natural=peak for the most distinct mountains in the district" />
		<tag k="name" v="Mellomåsen" />
		<tag k="natural" v="hill" />
		<tag k="place" v="locality" />
		<tag k="ssr:stedsnr" v="507249" />
	</node>
	<node id="-22370" lat="59.7608527809" lon="10.9188472172">
		<tag k="fixme" v="consider natural=peak for the most distinct mountains in the district" />
		<tag k="name" v="Bonndalsåsen" />
		<tag k="natural" v="hill" />
		<tag k="place" v="locality" />
		<tag k="ssr:stedsnr" v="490387" />
	</node>
	<node id="-22367" lat="59.7978611113" lon="10.8895138949">
		<tag k="alt_name" v="Grytebråtåsen" />
		<tag k="fixme" v="consider natural=peak for the most distinct mountains in the district" />
		<tag k="name" v="Sagåsen" />
		<tag k="natural" v="hill" />
		<tag k="place" v="locality" />
		<tag k="ssr:stedsnr" v="490344" />
	</node>
	<node id="-22363" lat="59.7791555519" lon="10.8343416662">
		<tag k="alt_name" v="Pinnåsen" />
		<tag k="fixme" v="consider natural=peak for the most distinct mountains in the district" />
		<tag k="name" v="Pinåsen" />
		<tag k="natural" v="hill" />
		<tag k="place" v="locality" />
		<tag k="ssr:stedsnr" v="490301" />
	</node>
	<node id="-22347" lat="59.7282027785" lon="10.8063416593">
		<tag k="fixme" v="consider natural=peak for the most distinct mountains in the district" />
		<tag k="name" v="Bollerudåsen" />
		<tag k="natural" v="hill" />
		<tag k="place" v="locality" />
		<tag k="ssr:stedsnr" v="488565" />
	</node>
	<node id="-22334" lat="59.7220861098" lon="10.9205111048">
		<tag k="name" v="Ødegården" />
		<tag k="place" v="locality" />
		<tag k="ssr:stedsnr" v="447601" />
	</node>
	<node id="-22333" lat="59.7385472236" lon="10.8287500014">
		<tag k="name" v="Møllebakken" />
		<tag k="natural" v="slope" />
		<tag k="place" v="locality" />
		<tag k="ssr:stedsnr" v="447577" />
	</node>
	<node id="-22332" lat="59.6939444487" lon="10.9648083362">
		<tag k="name" v="Tjuvroa" />
		<tag k="place" v="locality" />
		<tag k="ssr:stedsnr" v="447548" />
	</node>
	<node id="-22325" lat="59.7452861081" lon="10.8412194525">
		<tag k="name" v="Ramstadlia" />
		<tag k="natural" v="slope" />
		<tag k="place" v="locality" />
		<tag k="ssr:stedsnr" v="447410" />
	</node>
	<node id="-22323" lat="59.725561108" lon="10.9537861101">
		<tag k="name" v="Moen" />
		<tag k="place" v="locality" />
		<tag k="ssr:stedsnr" v="447393" />
	</node>
	<node id="-22318" lat="59.7849666627" lon="10.9414111156">
		<tag k="fixme" v="consider natural=peak for the most distinct mountains in the district" />
		<tag k="name" v="Fjellstadåsen" />
		<tag k="natural" v="hill" />
		<tag k="place" v="locality" />
		<tag k="ssr:stedsnr" v="447233" />
	</node>
	<node id="-22302" lat="59.7105527741" lon="10.9818555637">
		<tag k="fixme" v="consider natural=peak for the most distinct mountains in the district" />
		<tag k="name" v="Teigåsen" />
		<tag k="natural" v="hill" />
		<tag k="place" v="locality" />
		<tag k="ssr:stedsnr" v="428526" />
	</node>
	<node id="-22285" lat="59.7117888886" lon="10.8194805518">
		<tag k="name" v="Vellingberget" />
		<tag k="natural" v="hill" />
		<tag k="place" v="locality" />
		<tag k="ssr:stedsnr" v="265618" />
	</node>
	<node id="-22284" lat="59.6925583357" lon="10.9564888932">
		<tag k="fixme" v="consider natural=peak for the most distinct mountains in the district" />
		<tag k="name" v="Hjellsåsen" />
		<tag k="natural" v="hill" />
		<tag k="place" v="locality" />
		<tag k="ssr:stedsnr" v="265593" />
	</node>
	<node id="-22282" lat="59.6265499999" lon="10.891347219">
		<tag k="name" v="Enden" />
		<tag k="place" v="locality" />
		<tag k="ssr:stedsnr" v="264733" />
	</node>
	<node id="-22281" lat="59.7034694441" lon="10.9216444377">
		<tag k="fixme" v="consider natural=peak for the most distinct mountains in the district" />
		<tag k="name" v="Tømtåsen" />
		<tag k="natural" v="hill" />
		<tag k="place" v="locality" />
		<tag k="ssr:stedsnr" v="264591" />
	</node>
	<node id="-22280" lat="59.7079777793" lon="10.9767944361">
		<tag k="name" v="Sververdalen" />
		<tag k="natural" v="valley" />
		<tag k="place" v="locality" />
		<tag k="ssr:stedsnr" v="264539" />
	</node>
	<node id="-22273" lat="59.758622222" lon="10.8638611096">
		<tag k="fixme" v="consider natural=peak for the most distinct mountains in the district" />
		<tag k="name" v="Jonsrudåsene" />
		<tag k="natural" v="hill" />
		<tag k="place" v="locality" />
		<tag k="ssr:stedsnr" v="264485" />
	</node>
	<node id="-22270" lat="59.7249333301" lon="10.8459305535">
		<tag k="name" v="Haugerbakken" />
		<tag k="natural" v="slope" />
		<tag k="place" v="locality" />
		<tag k="ssr:stedsnr" v="264457" />
	</node>
	<node id="-22267" lat="59.7412749975" lon="10.9340138911">
		<tag k="fixme" v="consider natural=peak for the most distinct mountains in the district" />
		<tag k="name" v="Stubberudåsen" />
		<tag k="natural" v="hill" />
		<tag k="place" v="locality" />
		<tag k="ssr:stedsnr" v="264443" />
	</node>
	<node id="-22265" lat="59.7415972262" lon="10.84049444">
		<tag k="fixme" v="consider natural=peak for the most distinct mountains in the district" />
		<tag k="name" v="Bjerkås" />
		<tag k="natural" v="hill" />
		<tag k="place" v="locality" />
		<tag k="ssr:stedsnr" v="264434" />
	</node>
	<node id="-22264" lat="59.7334333348" lon="10.9722583296">
		<tag k="fixme" v="consider natural=peak for the most distinct mountains in the district" />
		<tag k="name" v="Kollerøysåsen" />
		<tag k="natural" v="hill" />
		<tag k="place" v="locality" />
		<tag k="ssr:stedsnr" v="264424" />
	</node>
	<node id="-22263" lat="59.7275027741" lon="10.9614777785">
		<tag k="fixme" v="consider natural=peak for the most distinct mountains in the district" />
		<tag k="name" v="Sagstuåsen" />
		<tag k="natural" v="hill" />
		<tag k="place" v="locality" />
		<tag k="ssr:stedsnr" v="264416" />
	</node>
	<node id="-22260" lat="59.8098861108" lon="10.8520083376">
		<tag k="fixme" v="consider natural=peak for the most distinct mountains in the district" />
		<tag k="name" v="Teigenåsen" />
		<tag k="natural" v="hill" />
		<tag k="place" v="locality" />
		<tag k="ssr:stedsnr" v="264303" />
	</node>
	<node id="-22251" lat="59.8077777733" lon="10.9582388907">
		<tag k="fixme" v="consider natural=peak for the most distinct mountains in the district" />
		<tag k="name" v="Tømmerås" />
		<tag k="natural" v="hill" />
		<tag k="place" v="locality" />
		<tag k="ssr:stedsnr" v="248258" />
	</node>
	<node id="-22246" lat="59.7948472253" lon="10.9239388875">
		<tag k="fixme" v="consider natural=peak for the most distinct mountains in the district" />
		<tag k="name" v="Piggåsen" />
		<tag k="natural" v="hill" />
		<tag k="place" v="locality" />
		<tag k="ssr:stedsnr" v="247333" />
	</node>
	<node id="-22244" lat="59.776852774" lon="10.8850750026">
		<tag k="alt_name" v="Torvet" />
		<tag k="name" v="Torget" />
		<tag k="place" v="locality" />
		<tag k="ssr:stedsnr" v="247292" />
	</node>
	<node id="-21968" lat="59.783291668" lon="10.9556805614">
		<tag k="name" v="Muskedalen" />
		<tag k="natural" v="valley" />
		<tag k="place" v="locality" />
		<tag k="ssr:stedsnr" v="386351" />
	</node>
	<node id="-22228" lat="59.718701267" lon="10.9733465803">
		<tag k="name" v="Helvete" />
		<tag k="natural" v="valley" />
		<tag k="place" v="locality" />
		<tag k="ssr:stedsnr" v="204510" />
	</node>
	<node id="-22738" lat="59.728263888" lon="10.8459583356">
		<tag k="fixme" v="consider natural=peak for the most distinct mountains in the district" />
		<tag k="name" v="Vardåsen" />
		<tag k="natural" v="hill" />
		<tag k="place" v="locality" />
		<tag k="ssr:stedsnr" v="932447" />
	</node>
	<node id="-22737" lat="59.7328777819" lon="10.844519446">
		<tag k="name" v="Vabakken" />
		<tag k="natural" v="slope" />
		<tag k="place" v="locality" />
		<tag k="ssr:stedsnr" v="932445" />
	</node>
	<node id="-22223" lat="59.6997083318" lon="10.921569453">
		<tag k="name" v="Bakkane" />
		<tag k="natural" v="slope" />
		<tag k="place" v="locality" />
		<tag k="ssr:stedsnr" v="204490" />
	</node>
	<node id="-22665" lat="59.7136083336" lon="10.9632611036">
		<tag k="fixme" v="consider natural=peak for the most distinct mountains in the district" />
		<tag k="name" v="Høgesset" />
		<tag k="natural" v="hill" />
		<tag k="place" v="locality" />
		<tag k="ssr:stedsnr" v="853544" />
	</node>
	<node id="-22682" lat="59.8155916687" lon="10.9005277751">
		<tag k="fixme" v="consider natural=peak for the most distinct mountains in the district" />
		<tag k="name" v="Kalvåsen" />
		<tag k="natural" v="hill" />
		<tag k="place" v="locality" />
		<tag k="ssr:stedsnr" v="871340" />
	</node>
	<node id="-22730" lat="59.7744055564" lon="10.9599805511">
		<tag k="name" v="Grubedalen" />
		<tag k="natural" v="valley" />
		<tag k="place" v="locality" />
		<tag k="ssr:stedsnr" v="932343" />
	</node>
	<node id="-22216" lat="59.812611111" lon="10.9139333375">
		<tag k="fixme" v="consider natural=peak for the most distinct mountains in the district" />
		<tag k="name" v="Barkeflåingen" />
		<tag k="natural" v="hill" />
		<tag k="place" v="locality" />
		<tag k="ssr:stedsnr" v="204322" />
	</node>
	<node id="-22727" lat="59.792497219" lon="10.885588885">
		<tag k="fixme" v="consider natural=peak for the most distinct mountains in the district" />
		<tag k="name" v="Kirkekollen" />
		<tag k="natural" v="hill" />
		<tag k="place" v="locality" />
		<tag k="ssr:stedsnr" v="932287" />
	</node>
	<node id="-22725" lat="59.7701583295" lon="10.8849111112">
		<tag k="fixme" v="consider natural=peak for the most distinct mountains in the district" />
		<tag k="name" v="Brandsrudåsen" />
		<tag k="natural" v="hill" />
		<tag k="place" v="locality" />
		<tag k="ssr:stedsnr" v="932259" />
	</node>
	<node id="-22209" lat="59.7611444482" lon="10.8864527823">
		<tag k="name" v="Grauthølet" />
		<tag k="natural" v="valley" />
		<tag k="place" v="locality" />
		<tag k="ssr:stedsnr" v="204431" />
	</node>
	<node id="-22719" lat="59.7745805591" lon="10.861836115">
		<tag k="fixme" v="consider natural=peak for the most distinct mountains in the district" />
		<tag k="name" v="Fugleåsen" />
		<tag k="natural" v="hill" />
		<tag k="place" v="locality" />
		<tag k="ssr:stedsnr" v="915302" />
	</node>
	<node id="-22718" lat="59.7774361141" lon="10.8394083412">
		<tag k="name" v="Assurdalen" />
		<tag k="natural" v="valley" />
		<tag k="place" v="locality" />
		<tag k="ssr:stedsnr" v="915300" />
	</node>
	<node id="-22716" lat="59.8075805574" lon="10.8743555563">
		<tag k="fixme" v="consider natural=peak for the most distinct mountains in the district" />
		<tag k="name" v="Bråtenåsen" />
		<tag k="natural" v="hill" />
		<tag k="place" v="locality" />
		<tag k="ssr:stedsnr" v="915230" />
	</node>
	<node id="-22200" lat="59.8181583314" lon="10.9254749922">
		<tag k="alt_name" v="Store Malmen" />
		<tag k="fixme" v="consider natural=peak for the most distinct mountains in the district" />
		<tag k="name" v="Malmen" />
		<tag k="natural" v="hill" />
		<tag k="place" v="locality" />
		<tag k="ssr:stedsnr" v="187282" />
	</node>
	<node id="-22199" lat="59.8104749967" lon="10.845577777">
		<tag k="fixme" v="consider natural=peak for the most distinct mountains in the district" />
		<tag k="name" v="Taraldrudåsen" />
		<tag k="natural" v="hill" />
		<tag k="place" v="locality" />
		<tag k="ssr:stedsnr" v="187269" />
	</node>
	<node id="-22198" lat="59.7997055592" lon="10.955002771">
		<tag k="fixme" v="consider natural=peak for the most distinct mountains in the district" />
		<tag k="name" v="Kadettåsen" />
		<tag k="natural" v="hill" />
		<tag k="place" v="locality" />
		<tag k="ssr:stedsnr" v="187245" />
	</node>
	<node id="-22197" lat="59.8075472249" lon="10.8625138843">
		<tag k="fixme" v="consider natural=peak for the most distinct mountains in the district" />
		<tag k="name" v="Slettåsen" />
		<tag k="natural" v="hill" />
		<tag k="place" v="locality" />
		<tag k="ssr:stedsnr" v="187237" />
	</node>
	<node id="-22191" lat="59.7707416683" lon="10.9077388894">
		<tag k="fixme" v="consider natural=peak for the most distinct mountains in the district" />
		<tag k="name" v="Haugfjell" />
		<tag k="natural" v="hill" />
		<tag k="old_name" v="Høgfjell" />
		<tag k="place" v="locality" />
		<tag k="ssr:stedsnr" v="186453" />
	</node>
	<node id="-22698" lat="59.7058138902" lon="10.9481249912">
		<tag k="fixme" v="consider natural=peak for the most distinct mountains in the district" />
		<tag k="name" v="Fuglåsen" />
		<tag k="natural" v="hill" />
		<tag k="place" v="locality" />
		<tag k="ssr:stedsnr" v="871527" />
	</node>
	<node id="-22696" lat="59.6852333368" lon="10.9199388808">
		<tag k="name" v="Kølabonn" />
		<tag k="place" v="locality" />
		<tag k="ssr:stedsnr" v="871504" />
	</node>
	<node id="-22177" lat="59.8108527789" lon="10.9251722292">
		<tag k="fixme" v="consider natural=peak for the most distinct mountains in the district" />
		<tag k="name" v="Kuklemåsen" />
		<tag k="natural" v="hill" />
		<tag k="old_name" v="Kuklamåsen;Kuklemåsan" />
		<tag k="place" v="locality" />
		<tag k="ssr:stedsnr" v="162269" />
	</node>
	<node id="-22175" lat="59.7110000007" lon="10.9328472308">
		<tag k="name" v="Strevoppbråten" />
		<tag k="natural" v="slope" />
		<tag k="place" v="locality" />
		<tag k="ssr:stedsnr" v="143612" />
	</node>
	<node id="-22172" lat="59.698319446" lon="10.9579861086">
		<tag k="fixme" v="consider natural=peak for the most distinct mountains in the district" />
		<tag k="name" v="Hveinåsen" />
		<tag k="natural" v="hill" />
		<tag k="place" v="locality" />
		<tag k="ssr:stedsnr" v="143565" />
	</node>
	<node id="-22170" lat="59.6805361137" lon="10.9085694409">
		<tag k="fixme" v="consider natural=peak for the most distinct mountains in the district" />
		<tag k="name" v="Missumberget" />
		<tag k="natural" v="hill" />
		<tag k="place" v="locality" />
		<tag k="ssr:stedsnr" v="143495" />
	</node>
	<node id="-22169" lat="59.7629444455" lon="10.8756416676">
		<tag k="fixme" v="consider natural=peak for the most distinct mountains in the district" />
		<tag k="name" v="Store Gampehue" />
		<tag k="natural" v="hill" />
		<tag k="place" v="locality" />
		<tag k="ssr:stedsnr" v="143487" />
	</node>
	<node id="-22680" lat="59.7967972247" lon="10.8623638932">
		<tag k="fixme" v="consider natural=peak for the most distinct mountains in the district" />
		<tag k="name" v="Paddetjernkollen" />
		<tag k="natural" v="hill" />
		<tag k="place" v="locality" />
		<tag k="ssr:stedsnr" v="871279" />
	</node>
	<node id="-22679" lat="59.7733888879" lon="10.891655563">
		<tag k="fixme" v="consider natural=peak for the most distinct mountains in the district" />
		<tag k="name" v="Bruåsen" />
		<tag k="natural" v="hill" />
		<tag k="place" v="locality" />
		<tag k="ssr:stedsnr" v="871246" />
	</node>
	<node id="-22677" lat="59.7704888888" lon="10.9668722195">
		<tag k="alt_name" v="Grubeåsen" />
		<tag k="fixme" v="consider natural=peak for the most distinct mountains in the district" />
		<tag k="name" v="Sotåsen" />
		<tag k="natural" v="hill" />
		<tag k="place" v="locality" />
		<tag k="ssr:stedsnr" v="855523" />
	</node>
	<node id="-22163" lat="59.7428765813" lon="10.9144631445">
		<tag k="fixme" v="consider natural=peak for the most distinct mountains in the district" />
		<tag k="name" v="Stokstadåsen" />
		<tag k="natural" v="hill" />
		<tag k="place" v="locality" />
		<tag k="ssr:stedsnr" v="143434" />
	</node>
	<node id="-22162" lat="59.7367361095" lon="10.9682472257">
		<tag k="name" v="Torebråtan" />
		<tag k="natural" v="slope" />
		<tag k="place" v="locality" />
		<tag k="ssr:stedsnr" v="143411" />
	</node>
	<node id="-22673" lat="59.76960556" lon="10.9514611169">
		<tag k="fixme" v="consider natural=peak for the most distinct mountains in the district" />
		<tag k="name" v="Klemmaåsen" />
		<tag k="natural" v="hill" />
		<tag k="place" v="locality" />
		<tag k="ssr:stedsnr" v="854393" />
	</node>
	<node id="-22159" lat="59.7871166649" lon="10.8834611135">
		<tag k="fixme" v="consider natural=peak for the most distinct mountains in the district" />
		<tag k="name" v="Hyttengåsen" />
		<tag k="natural" v="hill" />
		<tag k="place" v="locality" />
		<tag k="ssr:stedsnr" v="143245" />
	</node>
	<node id="-22153" lat="59.8005305552" lon="10.9332138905">
		<tag k="fixme" v="consider natural=peak for the most distinct mountains in the district" />
		<tag k="name" v="Smieåsen" />
		<tag k="natural" v="hill" />
		<tag k="place" v="locality" />
		<tag k="ssr:stedsnr" v="143257" />
	</node>
	<node id="-22152" lat="59.7974472235" lon="10.9275999913">
		<tag k="name" v="Soldalen" />
		<tag k="natural" v="valley" />
		<tag k="place" v="locality" />
		<tag k="ssr:stedsnr" v="143255" />
	</node>
	<node id="-22149" lat="59.8061138847" lon="10.9414750061">
		<tag k="fixme" v="consider natural=peak for the most distinct mountains in the district" />
		<tag k="name" v="Svarvestolen" />
		<tag k="natural" v="hill" />
		<tag k="place" v="locality" />
		<tag k="ssr:stedsnr" v="126238" />
	</node>
	<node id="-22144" lat="59.8210750011" lon="10.9416805479">
		<tag k="alt_name" v="Flatåsen" />
		<tag k="fixme" v="consider natural=peak for the most distinct mountains in the district" />
		<tag k="name" v="Flaåsen" />
		<tag k="natural" v="hill" />
		<tag k="place" v="locality" />
		<tag k="ssr:stedsnr" v="126278" />
	</node>
	<node id="-22653" lat="59.6924666636" lon="10.9424083271">
		<tag k="name" v="Pinadalen" />
		<tag k="natural" v="valley" />
		<tag k="place" v="locality" />
		<tag k="ssr:stedsnr" v="811549" />
	</node>
	<node id="-22651" lat="59.757044449" lon="10.861258325">
		<tag k="name" v="Slorabakken" />
		<tag k="natural" v="slope" />
		<tag k="place" v="locality" />
		<tag k="ssr:stedsnr" v="811468" />
	</node>
	<node id="-22646" lat="59.7423111116" lon="10.8369055612">
		<tag k="fixme" v="consider natural=peak for the most distinct mountains in the district" />
		<tag k="name" v="Norås" />
		<tag k="natural" v="hill" />
		<tag k="place" v="locality" />
		<tag k="ssr:stedsnr" v="811424" />
	</node>
	<node id="-22642" lat="59.7997861155" lon="10.9770111047">
		<tag k="name" v="Langfurudalen" />
		<tag k="natural" v="valley" />
		<tag k="place" v="locality" />
		<tag k="ssr:stedsnr" v="811341" />
	</node>
	<node id="-22129" lat="59.7821361111" lon="10.950305553">
		<tag k="fixme" v="consider natural=peak for the most distinct mountains in the district" />
		<tag k="name" v="Hyttåsen" />
		<tag k="natural" v="hill" />
		<tag k="place" v="locality" />
		<tag k="ssr:stedsnr" v="125443" />
	</node>
	<node id="-22638" lat="59.6688777749" lon="10.948286118">
		<tag k="fixme" v="consider natural=peak for the most distinct mountains in the district" />
		<tag k="name" v="Kirkeåsen" />
		<tag k="natural" v="hill" />
		<tag k="place" v="locality" />
		<tag k="ssr:stedsnr" v="810553" />
	</node>
	<node id="-22125" lat="59.7821388869" lon="10.8753222254">
		<tag k="fixme" v="consider natural=peak for the most distinct mountains in the district" />
		<tag k="name" v="Verpåsen" />
		<tag k="natural" v="hill" />
		<tag k="place" v="locality" />
		<tag k="ssr:stedsnr" v="125336" />
	</node>
	<node id="-22546" lat="59.7354250041" lon="10.9208916742">
		<tag k="fixme" v="consider natural=peak for the most distinct mountains in the district" />
		<tag k="name" v="Pukksteinåsen" />
		<tag k="natural" v="hill" />
		<tag k="place" v="locality" />
		<tag k="ssr:stedsnr" v="689432" />
	</node>
	<node id="-22119" lat="59.7090638925" lon="10.845500008">
		<tag k="name" v="Ellingsrudkleiva" />
		<tag k="natural" v="slope" />
		<tag k="place" v="locality" />
		<tag k="ssr:stedsnr" v="83399" />
	</node>
	<node id="-22118" lat="59.7097444481" lon="10.8465499957">
		<tag k="fixme" v="consider natural=peak for the most distinct mountains in the district" />
		<tag k="name" v="Ellingsrudåsen" />
		<tag k="natural" v="hill" />
		<tag k="place" v="locality" />
		<tag k="ssr:stedsnr" v="83397" />
	</node>
	<node id="-22117" lat="59.7600388904" lon="10.8457194475">
		<tag k="fixme" v="consider natural=peak for the most distinct mountains in the district" />
		<tag k="name" v="Vevelstadåsen" />
		<tag k="natural" v="hill" />
		<tag k="place" v="locality" />
		<tag k="ssr:stedsnr" v="83390" />
	</node>
	<node id="-22115" lat="59.7162055533" lon="10.9275999967">
		<tag k="fixme" v="consider natural=peak for the most distinct mountains in the district" />
		<tag k="name" v="Grøstadåsen" />
		<tag k="natural" v="hill" />
		<tag k="place" v="locality" />
		<tag k="ssr:stedsnr" v="83607" />
	</node>
	<node id="-22626" lat="59.7752805593" lon="10.8856888917">
		<tag k="fixme" v="consider natural=peak for the most distinct mountains in the district" />
		<tag k="name" v="Steinryggen" />
		<tag k="natural" v="hill" />
		<tag k="place" v="locality" />
		<tag k="ssr:stedsnr" v="793328" />
	</node>
	<node id="-22113" lat="59.6793916626" lon="10.8853638874">
		<tag k="name" v="Sigtunskogen" />
		<tag k="place" v="locality" />
		<tag k="ssr:stedsnr" v="82731" />
	</node>
	<node id="-22112" lat="59.7420166681" lon="10.9627027837">
		<tag k="fixme" v="consider natural=peak for the most distinct mountains in the district" />
		<tag k="name" v="Bæråsen" />
		<tag k="natural" v="hill" />
		<tag k="place" v="locality" />
		<tag k="ssr:stedsnr" v="82584" />
	</node>
	<node id="-22106" lat="59.7434249966" lon="10.9372277774">
		<tag k="fixme" v="consider natural=peak for the most distinct mountains in the district" />
		<tag k="name" v="Løkketoppen" />
		<tag k="natural" v="hill" />
		<tag k="place" v="locality" />
		<tag k="ssr:stedsnr" v="82447" />
	</node>
	<node id="-22105" lat="59.7447916634" lon="10.8840083374">
		<tag k="fixme" v="consider natural=peak for the most distinct mountains in the district" />
		<tag k="name" v="Furukollen" />
		<tag k="natural" v="hill" />
		<tag k="place" v="locality" />
		<tag k="ssr:stedsnr" v="82435" />
	</node>
	<node id="-22100" lat="59.7673527809" lon="10.9205444366">
		<tag k="name" v="Rumpa" />
		<tag k="natural" v="hill" />
		<tag k="place" v="locality" />
		<tag k="ssr:stedsnr" v="82466" />
	</node>
	<node id="-22097" lat="59.7366499969" lon="10.8858527834">
		<tag k="fixme" v="consider natural=peak for the most distinct mountains in the district" />
		<tag k="name" v="Lunneråsen" />
		<tag k="natural" v="hill" />
		<tag k="place" v="locality" />
		<tag k="ssr:stedsnr" v="82456" />
	</node>
	<node id="-22096" lat="59.8012638901" lon="10.9494444458">
		<tag k="name" v="Søndre Paddetjerndalen" />
		<tag k="natural" v="valley" />
		<tag k="place" v="locality" />
		<tag k="ssr:stedsnr" v="82349" />
	</node>
	<node id="-22712" lat="59.6991249968" lon="10.9391305555">
		<tag k="alt_name" v="Hølåsen" />
		<tag k="fixme" v="consider natural=peak for the most distinct mountains in the district" />
		<tag k="name" v="Holåsen" />
		<tag k="natural" v="hill" />
		<tag k="place" v="locality" />
		<tag k="ssr:stedsnr" v="914394" />
	</node>
	<node id="-22093" lat="59.7643999972" lon="10.8467138817">
		<tag k="fixme" v="consider natural=peak for the most distinct mountains in the district" />
		<tag k="name" v="Lyngåsen" />
		<tag k="natural" v="hill" />
		<tag k="place" v="locality" />
		<tag k="ssr:stedsnr" v="82365" />
	</node>
	<node id="-22092" lat="59.814900004" lon="10.9264388904">
		<tag k="fixme" v="consider natural=peak for the most distinct mountains in the district" />
		<tag k="name" v="Hagåsen" />
		<tag k="natural" v="hill" />
		<tag k="place" v="locality" />
		<tag k="ssr:stedsnr" v="82355" />
	</node>
	<node id="-22603" lat="59.7078527784" lon="10.9371083343">
		<tag k="name" v="Svenskesletta" />
		<tag k="place" v="locality" />
		<tag k="ssr:stedsnr" v="750609" />
	</node>
	<node id="-22602" lat="59.7093416687" lon="10.931466674">
		<tag k="fixme" v="consider natural=peak for the most distinct mountains in the district" />
		<tag k="name" v="Asgjerrudåsen" />
		<tag k="natural" v="hill" />
		<tag k="place" v="locality" />
		<tag k="ssr:stedsnr" v="750606" />
	</node>
	<node id="-22089" lat="59.8094638851" lon="10.8938555609">
		<tag k="name" v="Kjøredalen" />
		<tag k="natural" v="valley" />
		<tag k="place" v="locality" />
		<tag k="ssr:stedsnr" v="82275" />
	</node>
	<node id="-22088" lat="59.8005250039" lon="10.9195722203">
		<tag k="name" v="Delingsdalen" />
		<tag k="natural" v="valley" />
		<tag k="place" v="locality" />
		<tag k="ssr:stedsnr" v="82271" />
	</node>
	<node id="-22598" lat="59.6927972258" lon="10.8950694454">
		<tag k="name" v="St. Hanshaugen" />
		<tag k="natural" v="hill" />
		<tag k="place" v="locality" />
		<tag k="ssr:stedsnr" v="750519" />
	</node>
	<node id="-22594" lat="59.765288891" lon="10.9197666675">
		<tag k="name" v="Sandvollia" />
		<tag k="natural" v="slope" />
		<tag k="place" v="locality" />
		<tag k="ssr:stedsnr" v="750453" />
	</node>
	<node id="-22079" lat="59.7565249995" lon="10.8838138864">
		<tag k="fixme" v="consider natural=peak for the most distinct mountains in the district" />
		<tag k="name" v="Mørkåsen" />
		<tag k="natural" v="hill" />
		<tag k="place" v="locality" />
		<tag k="ssr:stedsnr" v="65380" />
	</node>
	<node id="-22588" lat="59.8143777758" lon="10.9383222159">
		<tag k="fixme" v="consider natural=peak for the most distinct mountains in the district" />
		<tag k="name" v="Hanseåsen" />
		<tag k="natural" v="hill" />
		<tag k="place" v="locality" />
		<tag k="ssr:stedsnr" v="750332" />
	</node>
	<node id="-22584" lat="59.805241671" lon="10.9433805558">
		<tag k="name" v="Nordre Paddetjerndalen" />
		<tag k="natural" v="valley" />
		<tag k="place" v="locality" />
		<tag k="ssr:stedsnr" v="750249" />
	</node>
	<node id="-22581" lat="59.7742166701" lon="10.8841305571">
		<tag k="name" v="Djupdalen" />
		<tag k="natural" v="valley" />
		<tag k="place" v="locality" />
		<tag k="ssr:stedsnr" v="750236" />
	</node>
	<node id="-22580" lat="59.7761000026" lon="10.9231583323">
		<tag k="fixme" v="consider natural=peak for the most distinct mountains in the district" />
		<tag k="name" v="Brånaåsen" />
		<tag k="natural" v="hill" />
		<tag k="place" v="locality" />
		<tag k="ssr:stedsnr" v="750232" />
	</node>
	<node id="-22066" lat="59.7943222244" lon="10.8974055544">
		<tag k="fixme" v="consider natural=peak for the most distinct mountains in the district" />
		<tag k="name" v="Tangefjellet" />
		<tag k="natural" v="hill" />
		<tag k="place" v="locality" />
		<tag k="ssr:stedsnr" v="65336" />
	</node>
	<node id="-22536" lat="59.7819444412" lon="10.8836500043">
		<tag k="fixme" v="consider natural=peak for the most distinct mountains in the district" />
		<tag k="name" v="Delingsåsen" />
		<tag k="natural" v="hill" />
		<tag k="place" v="locality" />
		<tag k="ssr:stedsnr" v="689285" />
	</node>
	<node id="-22059" lat="59.7055777803" lon="10.9099333274">
		<tag k="name" v="Steinmølbakken" />
		<tag k="natural" v="slope" />
		<tag k="place" v="locality" />
		<tag k="ssr:stedsnr" v="22605" />
	</node>
	<node id="-22058" lat="59.7228249969" lon="10.8119055525">
		<tag k="name" v="Myrsletta" />
		<tag k="place" v="locality" />
		<tag k="ssr:stedsnr" v="22576" />
	</node>
	<node id="-22566" lat="59.780761107" lon="10.892366658">
		<tag k="alt_name" v="Kullebunnåsen" />
		<tag k="fixme" v="consider natural=peak for the most distinct mountains in the district" />
		<tag k="name" v="Kolabonnåsen" />
		<tag k="natural" v="hill" />
		<tag k="place" v="locality" />
		<tag k="ssr:stedsnr" v="732316" />
	</node>
	<node id="-22050" lat="59.7546083296" lon="10.8734499978">
		<tag k="fixme" v="consider natural=peak for the most distinct mountains in the district" />
		<tag k="name" v="Rudåsen" />
		<tag k="natural" v="hill" />
		<tag k="place" v="locality" />
		<tag k="ssr:stedsnr" v="22467" />
	</node>
	<node id="-22049" lat="59.76149722" lon="10.8674138812">
		<tag k="fixme" v="consider natural=peak for the most distinct mountains in the district" />
		<tag k="name" v="Lille Gampehue" />
		<tag k="natural" v="hill" />
		<tag k="place" v="locality" />
		<tag k="ssr:stedsnr" v="22462" />
	</node>
	<node id="-22048" lat="59.7498555512" lon="10.9051972288">
		<tag k="name" v="Pettersgrinda" />
		<tag k="natural" v="hill" />
		<tag k="place" v="locality" />
		<tag k="ssr:stedsnr" v="22449" />
	</node>
	<node id="-22047" lat="59.7428444406" lon="10.8834111183">
		<tag k="fixme" v="consider natural=peak for the most distinct mountains in the district" />
		<tag k="name" v="Nordliåsen" />
		<tag k="natural" v="hill" />
		<tag k="place" v="locality" />
		<tag k="ssr:stedsnr" v="22437" />
	</node>
	<node id="-22046" lat="59.7299388909" lon="10.9550083354">
		<tag k="name" v="Kleiva" />
		<tag k="natural" v="slope" />
		<tag k="place" v="locality" />
		<tag k="ssr:stedsnr" v="22405" />
	</node>
	<node id="-22554" lat="59.656047219" lon="10.9446166592">
		<tag k="fixme" v="consider natural=peak for the most distinct mountains in the district" />
		<tag k="name" v="Hanakropåsen" />
		<tag k="natural" v="hill" />
		<tag k="place" v="locality" />
		<tag k="ssr:stedsnr" v="689501" />
	</node>
	<node id="-22040" lat="59.7569250021" lon="10.9582000083">
		<tag k="name" v="Østli" />
		<tag k="natural" v="slope" />
		<tag k="place" v="locality" />
		<tag k="ssr:stedsnr" v="22290" />
	</node>
	<node id="-22551" lat="59.6459249989" lon="10.9319777733">
		<tag k="alt_name" v="Brekkaåsen" />
		<tag k="fixme" v="consider natural=peak for the most distinct mountains in the district" />
		<tag k="name" v="Brekkeåsen" />
		<tag k="natural" v="hill" />
		<tag k="place" v="locality" />
		<tag k="ssr:stedsnr" v="689481" />
	</node>
	<node id="-22038" lat="59.8090416661" lon="10.8978861032">
		<tag k="name" v="Lauvdalen" />
		<tag k="natural" v="valley" />
		<tag k="place" v="locality" />
		<tag k="ssr:stedsnr" v="22274" />
	</node>
	<node id="-22037" lat="59.796652777" lon="10.9195416605">
		<tag k="name" v="Holeveien" />
		<tag k="natural" v="valley" />
		<tag k="place" v="locality" />
		<tag k="ssr:stedsnr" v="22271" />
	</node>
	<node id="-22034" lat="59.8184361135" lon="10.8952861183">
		<tag k="fixme" v="consider natural=peak for the most distinct mountains in the district" />
		<tag k="name" v="Sagåsen" />
		<tag k="natural" v="hill" />
		<tag k="place" v="locality" />
		<tag k="ssr:stedsnr" v="22234" />
	</node>
	<node id="-22545" lat="59.7492777783" lon="10.8251222221">
		<tag k="name" v="Dalstubben" />
		<tag k="natural" v="hill" />
		<tag k="place" v="locality" />
		<tag k="ssr:stedsnr" v="689415" />
	</node>
	<node id="-22032" lat="59.751212876" lon="10.9512216833">
		<tag k="fixme" v="consider natural=peak for the most distinct mountains in the district" />
		<tag k="name" v="Kollåsen" />
		<tag k="natural" v="hill" />
		<tag k="place" v="locality" />
		<tag k="ssr:stedsnr" v="5466" />
	</node>
	<node id="-22543" lat="59.8066444469" lon="10.9722166689">
		<tag k="fixme" v="consider natural=peak for the most distinct mountains in the district" />
		<tag k="name" v="Langfuruåsen" />
		<tag k="natural" v="hill" />
		<tag k="place" v="locality" />
		<tag k="ssr:stedsnr" v="689359" />
	</node>
	<node id="-22540" lat="59.7506638921" lon="10.9550611147">
		<tag k="fixme" v="consider natural=peak for the most distinct mountains in the district" />
		<tag k="name" v="Østre Kollåsen" />
		<tag k="natural" v="hill" />
		<tag k="place" v="locality" />
		<tag k="ssr:stedsnr" v="689315" />
	</node>
	<node id="-22538" lat="59.7985666693" lon="10.9411777768">
		<tag k="fixme" v="consider natural=peak for the most distinct mountains in the district" />
		<tag k="name" v="Sagstuåsen" />
		<tag k="natural" v="hill" />
		<tag k="place" v="locality" />
		<tag k="ssr:stedsnr" v="689290" />
	</node>
	<node id="-22537" lat="59.7806972197" lon="10.8829305474">
		<tag k="name" v="Styggdalen" />
		<tag k="natural" v="valley" />
		<tag k="place" v="locality" />
		<tag k="ssr:stedsnr" v="689288" />
	</node>
	<node id="-22024" lat="59.7648750008" lon="10.8605527839">
		<tag k="alt_name" v="Bølerkollen" />
		<tag k="fixme" v="consider natural=peak for the most distinct mountains in the district" />
		<tag k="name" v="Bøleråsen" />
		<tag k="natural" v="hill" />
		<tag k="place" v="locality" />
		<tag k="ssr:stedsnr" v="4427" />
	</node>
	<node id="-22532" lat="59.7757527759" lon="10.9548833257">
		<tag k="fixme" v="consider natural=peak for the most distinct mountains in the district" />
		<tag k="loc_name" v="Gjevikåsen" />
		<tag k="name" v="Jevikåsen" />
		<tag k="natural" v="hill" />
		<tag k="place" v="locality" />
		<tag k="ssr:stedsnr" v="672404" />
	</node>
</osm>
