<?xml version="1.0" encoding="UTF-8"?>
<<<<<<< HEAD
<osm version="0.6" generator="osmapis">
	<node lat="59.23912509555211" lon="10.44889623223296" id="-19765">
		<tag k="alt_name" v="Bjørnebo" />
		<tag k="fixme" v="consider place=hamlet" />
		<tag k="name" v="Bjørnebu" />
		<tag k="place" v="farm" />
		<tag k="ssr:stedsnr" v="1040" />
	</node>
	<node lat="59.19543987928752" lon="10.377303198876637" id="-19769">
		<tag k="fixme" v="consider place=hamlet" />
		<tag k="name" v="Snipetorp" />
		<tag k="place" v="farm" />
		<tag k="ssr:stedsnr" v="1091" />
	</node>
	<node lat="59.18943156907267" lon="10.427521127090776" id="-19770">
		<tag k="fixme" v="consider place=hamlet" />
		<tag k="name" v="Buer" />
=======
<osm generator="osmapis" version="0.6">
	<node id="-429055" lat="59.1591305552" lon="10.347830561">
		<tag k="alt_name" v="Vestgården" />
		<tag k="name" v="Vestgarden" />
		<tag k="place" v="farm" />
		<tag k="ssr:stedsnr" v="184117" />
	</node>
	<node id="-429053" lat="59.1412317764" lon="10.3605370094">
		<tag k="name" v="Rønningen" />
		<tag k="place" v="farm" />
		<tag k="ssr:stedsnr" v="184096" />
	</node>
	<node id="-429051" lat="59.1748472187" lon="10.3968972302">
		<tag k="name" v="Styrsvik" />
		<tag k="place" v="farm" />
		<tag k="ssr:stedsnr" v="184087" />
	</node>
	<node id="-428536" lat="59.0751388876" lon="10.4043749992">
		<tag k="name" v="Bjørnevåg" />
		<tag k="place" v="isolated_dwelling" />
		<tag k="ssr:stedsnr" v="486470" />
	</node>
	<node id="-428535" lat="59.0995249983" lon="10.3936333347">
		<tag k="name" v="Gon" />
		<tag k="place" v="farm" />
		<tag k="ssr:stedsnr" v="486455" />
	</node>
	<node id="-429046" lat="59.1876111129" lon="10.446613884">
		<tag k="name" v="Agerup" />
		<tag k="place" v="farm" />
		<tag k="ssr:stedsnr" v="183069" />
	</node>
	<node id="-429045" lat="59.1798055544" lon="10.3827916681">
		<tag k="name" v="Bjørndalen" />
		<tag k="place" v="farm" />
		<tag k="ssr:stedsnr" v="183065" />
	</node>
	<node id="-429044" lat="59.2084249985" lon="10.4535499993">
		<tag k="name" v="Knarrberg" />
		<tag k="place" v="village" />
		<tag k="ssr:stedsnr" v="183052" />
	</node>
	<node id="-429043" lat="59.2201805535" lon="10.4536055619">
		<tag k="name" v="Nesbrygga" />
		<tag k="place" v="village" />
		<tag k="ssr:stedsnr" v="183038" />
	</node>
	<node id="-429041" lat="59.2260249968" lon="10.4186777847">
		<tag k="name" v="Gipø" />
		<tag k="place" v="farm" />
		<tag k="ssr:stedsnr" v="183012" />
	</node>
	<node id="-428541" lat="59.0630694442" lon="10.4130388935">
		<tag k="name" v="Grepan" />
		<tag k="ssr:stedsnr" v="487477" />
		<tag k="tourism" v="guest_house" />
	</node>
	<node id="-428524" lat="59.1904777804" lon="10.4343833369">
		<tag k="name" v="Bergsøen" />
		<tag k="place" v="isolated_dwelling" />
		<tag k="ssr:stedsnr" v="328932" />
	</node>
	<node id="-429030" lat="59.1131027806" lon="10.3818944522">
		<tag k="alt_name" v="Bærstad" />
		<tag k="name" v="Berstad" />
		<tag k="place" v="farm" />
		<tag k="ssr:stedsnr" v="183379" />
	</node>
	<node id="-429028" lat="59.0856583347" lon="10.4140138865">
		<tag k="name" v="Ottersti" />
		<tag k="place" v="isolated_dwelling" />
		<tag k="ssr:stedsnr" v="183371" />
	</node>
	<node id="-428513" lat="59.1035888914" lon="10.3855749977">
		<tag k="alt_name" v="Barkevik" />
		<tag k="name" v="Barkevika" />
		<tag k="place" v="isolated_dwelling" />
		<tag k="ssr:stedsnr" v="304422" />
	</node>
	<node id="-428512" lat="59.1909027803" lon="10.3782805496">
		<tag k="name" v="Grinda" />
>>>>>>> e1d4bc35ff8a6074a6f2e91616a996b547c36f15
		<tag k="place" v="farm" />
		<tag k="ssr:stedsnr" v="1094" />
	</node>
<<<<<<< HEAD
	<node lat="59.1796459385058" lon="10.388058769174123" id="-19772">
		<tag k="fixme" v="consider place=hamlet" />
		<tag k="name" v="Landsrød" />
=======
	<node id="-428510" lat="59.0732944479" lon="10.4014916647">
		<tag k="name" v="Hellesmo" />
>>>>>>> e1d4bc35ff8a6074a6f2e91616a996b547c36f15
		<tag k="place" v="farm" />
		<tag k="ssr:stedsnr" v="1110" />
	</node>
<<<<<<< HEAD
	<node lat="59.18378253254682" lon="10.423993773514445" id="-19773">
		<tag k="fixme" v="consider place=hamlet" />
		<tag k="name" v="Buerteigen" />
		<tag k="place" v="farm" />
		<tag k="ssr:stedsnr" v="1111" />
	</node>
	<node lat="59.093032559157244" lon="10.42747253580657" id="-19788">
		<tag k="name" v="Brøtsø" />
		<tag k="place" v="hamlet" />
		<tag k="ssr:stedsnr" v="25983" />
	</node>
	<node lat="59.21503055587357" lon="10.436730562494462" id="-19789">
		<tag k="name" v="Lilleng" />
		<tag k="place" v="farm" />
		<tag k="ssr:stedsnr" v="25993" />
	</node>
	<node lat="59.20662131800633" lon="10.365541553595568" id="-19798">
		<tag k="name" v="Holmen" />
		<tag k="place" v="hamlet" />
		<tag k="ssr:stedsnr" v="244066" />
	</node>
	<node lat="59.19146944696928" lon="10.37325833159403" id="-19799">
		<tag k="name" v="Horperød" />
=======
	<node id="-429019" lat="59.2133166682" lon="10.4251027847">
		<tag k="name" v="Vollen" />
		<tag k="place" v="farm" />
		<tag k="ssr:stedsnr" v="146995" />
	</node>
	<node id="-429018" lat="59.221394444" lon="10.4394944471">
		<tag k="name" v="Bugården" />
		<tag k="place" v="isolated_dwelling" />
		<tag k="ssr:stedsnr" v="146992" />
	</node>
	<node id="-429015" lat="59.1576666664" lon="10.4171555547">
		<tag k="name" v="Østre Kråkere" />
		<tag k="place" v="farm" />
		<tag k="ssr:stedsnr" v="146640" />
	</node>
	<node id="-428502" lat="59.16098056" lon="10.3943194406">
		<tag k="name" v="Mellemskauen" />
		<tag k="place" v="locality" />
		<tag k="ssr:stedsnr" v="267705" />
	</node>
	<node id="-429013" lat="59.1593722179" lon="10.3974166632">
		<tag k="name" v="Kynna gård" />
		<tag k="place" v="farm" />
		<tag k="ssr:stedsnr" v="146635" />
	</node>
	<node id="-428498" lat="59.1873944431" lon="10.3834000007">
		<tag k="alt_name" v="Bjørndalen" />
		<tag k="name" v="Bjørndal" />
>>>>>>> e1d4bc35ff8a6074a6f2e91616a996b547c36f15
		<tag k="place" v="farm" />
		<tag k="ssr:stedsnr" v="244074" />
	</node>
<<<<<<< HEAD
	<node lat="59.19900464280701" lon="10.436318501449598" id="-19800">
		<tag k="fixme" v="consider place=hamlet" />
		<tag k="name" v="Oserød" />
=======
	<node id="-428497" lat="59.0783277784" lon="10.4430111085">
		<tag k="name" v="Hertås" />
>>>>>>> e1d4bc35ff8a6074a6f2e91616a996b547c36f15
		<tag k="place" v="farm" />
		<tag k="ssr:stedsnr" v="244079" />
	</node>
<<<<<<< HEAD
	<node lat="59.23165351005809" lon="10.431723932815185" id="-19804">
		<tag k="alt_name" v="Eiknes" />
		<tag k="name" v="Ekenes" />
		<tag k="place" v="hamlet" />
		<tag k="ssr:stedsnr" v="244026" />
	</node>
	<node lat="59.07020914889079" lon="10.401202533711285" id="-19807">
		<tag k="fixme" v="consider place=hamlet" />
=======
	<node id="-428983" lat="59.2192055526" lon="10.4290833373">
		<tag k="name" v="Bjønnes" />
		<tag k="place" v="farm" />
		<tag k="ssr:stedsnr" v="123043" />
	</node>
	<node id="-428485" lat="59.0704833331" lon="10.4022499941">
>>>>>>> e1d4bc35ff8a6074a6f2e91616a996b547c36f15
		<tag k="name" v="Midtgården" />
		<tag k="place" v="farm" />
		<tag k="ssr:stedsnr" v="244471" />
	</node>
<<<<<<< HEAD
	<node lat="59.1469138929691" lon="10.36650832701641" id="-19811">
		<tag k="name" v="Sjølyst" />
		<tag k="place" v="farm" />
		<tag k="ssr:stedsnr" v="85228" />
	</node>
	<node lat="59.199771076152714" lon="10.430117608606269" id="-19814">
		<tag k="fixme" v="consider place=hamlet" />
		<tag k="name" v="Hengerød" />
		<tag k="place" v="farm" />
		<tag k="ssr:stedsnr" v="85928" />
	</node>
	<node lat="59.19962499731673" lon="10.411302782545976" id="-19815">
		<tag k="name" v="Anildrød" />
=======
	<node id="-428534" lat="59.1110027759" lon="10.4026083409">
		<tag k="alt_name" v="Pytt" />
		<tag k="name" v="Solvang" />
		<tag k="place" v="farm" />
		<tag k="ssr:stedsnr" v="486452" />
	</node>
	<node id="-428875" lat="59.2087333295" lon="10.4322166597">
		<tag k="name" v="Rubberød" />
		<tag k="place" v="farm" />
		<tag k="ssr:stedsnr" v="1080" />
	</node>
	<node id="-428992" lat="59.1263733237" lon="10.4206645391">
		<tag k="name" v="Engø" />
>>>>>>> e1d4bc35ff8a6074a6f2e91616a996b547c36f15
		<tag k="place" v="farm" />
		<tag k="ssr:stedsnr" v="85930" />
	</node>
<<<<<<< HEAD
	<node lat="59.07623333182541" lon="10.440444437032916" id="-19821">
		<tag k="amenity" v="school" />
		<tag k="name" v="Hvasser skole" />
		<tag k="ssr:stedsnr" v="86385" />
	</node>
	<node lat="59.0777861095719" lon="10.445241672639034" id="-19822">
		<tag k="name" v="Kviet" />
		<tag k="place" v="hamlet" />
		<tag k="ssr:stedsnr" v="86386" />
	</node>
	<node lat="59.10178611080448" lon="10.394538888468373" id="-19823">
		<tag k="name" v="Gon" />
		<tag k="place" v="locality" />
		<tag k="ssr:stedsnr" v="86627" />
	</node>
	<node lat="59.231986475745046" lon="10.407306070886303" id="-19827">
		<tag k="name" v="Elgestad" />
		<tag k="place" v="hamlet" />
		<tag k="ssr:stedsnr" v="86981" />
	</node>
	<node lat="59.084942993327886" lon="10.443872362004338" id="-19829">
		<tag k="fixme" v="consider place=hamlet" />
		<tag k="name" v="Vestgarden" />
=======
	<node id="-428479" lat="59.1987416709" lon="10.4086888926">
		<tag k="name" v="Engås" />
		<tag k="place" v="farm" />
		<tag k="ssr:stedsnr" v="244054" />
	</node>
	<node id="-428477" lat="59.2320027806" lon="10.433386119">
		<tag k="alt_name" v="Eiknes" />
		<tag k="name" v="Ekenes" />
		<tag k="place" v="farm" />
		<tag k="ssr:stedsnr" v="244026" />
	</node>
	<node id="-428988" lat="59.1859305551" lon="10.4297583371">
		<tag k="name" v="Buberg" />
		<tag k="place" v="farm" />
		<tag k="ssr:stedsnr" v="123103" />
	</node>
	<node id="-428987" lat="59.1872527735" lon="10.3955388864">
		<tag k="name" v="Skauen" />
>>>>>>> e1d4bc35ff8a6074a6f2e91616a996b547c36f15
		<tag k="place" v="farm" />
		<tag k="ssr:stedsnr" v="122414" />
	</node>
<<<<<<< HEAD
	<node lat="59.08727222430535" lon="10.448830557728044" id="-19830">
		<tag k="name" v="Eide" />
=======
	<node id="-428986" lat="59.1843611099" lon="10.3625388862">
		<tag k="name" v="Storebukt" />
>>>>>>> e1d4bc35ff8a6074a6f2e91616a996b547c36f15
		<tag k="place" v="isolated_dwelling" />
		<tag k="ssr:stedsnr" v="122416" />
	</node>
<<<<<<< HEAD
	<node lat="59.0873333289806" lon="10.426586117714265" id="-19831">
		<tag k="name" v="Øra" />
		<tag k="place" v="isolated_dwelling" />
		<tag k="ssr:stedsnr" v="122417" />
	</node>
	<node lat="59.18718905873272" lon="10.395954494596664" id="-19833">
		<tag k="fixme" v="consider place=hamlet" />
		<tag k="name" v="Skauen" />
		<tag k="place" v="farm" />
		<tag k="ssr:stedsnr" v="123102" />
	</node>
	<node lat="59.186720989618905" lon="10.430105433051407" id="-19834">
		<tag k="fixme" v="consider place=hamlet" />
		<tag k="name" v="Buberg" />
=======
	<node id="-428985" lat="59.1817472225" lon="10.4452805487">
		<tag k="name" v="Svensrød" />
		<tag k="place" v="farm" />
		<tag k="ssr:stedsnr" v="123094" />
	</node>
	<node id="-428532" lat="59.0890027779" lon="10.4313555509">
		<tag k="name" v="Sand" />
		<tag k="place" v="isolated_dwelling" />
		<tag k="ssr:stedsnr" v="486441" />
	</node>
	<node id="-428982" lat="59.2118527737" lon="10.4472972206">
		<tag k="fixme" v="multiple name tags, choose one and add the other to alt_name" />
		<tag k="name" v="Nes;Nes søndre" />
>>>>>>> e1d4bc35ff8a6074a6f2e91616a996b547c36f15
		<tag k="place" v="farm" />
		<tag k="ssr:stedsnr" v="123103" />
	</node>
<<<<<<< HEAD
	<node lat="59.22694161895875" lon="10.418705710269897" id="-19848">
		<tag k="name" v="Gipø" />
		<tag k="place" v="hamlet" />
		<tag k="ssr:stedsnr" v="183012" />
	</node>
	<node lat="59.20842499853962" lon="10.453549999337767" id="-19849">
		<tag k="name" v="Knarrberg" />
		<tag k="place" v="village" />
		<tag k="ssr:stedsnr" v="183052" />
	</node>
	<node lat="59.08604667782765" lon="10.413646641965716" id="-19853">
		<tag k="fixme" v="consider place=hamlet" />
		<tag k="name" v="Ottersti" />
=======
	<node id="-428980" lat="59.2422999956" lon="10.4299250022">
		<tag k="name" v="Skjæret" />
		<tag k="place" v="farm" />
		<tag k="ssr:stedsnr" v="123013" />
	</node>
	<node id="-428446" lat="59.1492611084" lon="10.4058333356">
		<tag k="name" v="Honerød" />
		<tag k="place" v="isolated_dwelling" />
		<tag k="ssr:stedsnr" v="268686" />
	</node>
	<node id="-428978" lat="59.1017194443" lon="10.4228888934">
		<tag k="name" v="Rød" />
>>>>>>> e1d4bc35ff8a6074a6f2e91616a996b547c36f15
		<tag k="place" v="farm" />
		<tag k="ssr:stedsnr" v="183371" />
	</node>
<<<<<<< HEAD
	<node lat="59.074930553078566" lon="10.424144450375929" id="-19856">
		<tag k="name" v="Ramsen" />
=======
	<node id="-428977" lat="59.087333329" lon="10.4265861177">
		<tag k="name" v="Øra" />
>>>>>>> e1d4bc35ff8a6074a6f2e91616a996b547c36f15
		<tag k="place" v="isolated_dwelling" />
		<tag k="ssr:stedsnr" v="183408" />
	</node>
<<<<<<< HEAD
	<node lat="59.17638590726368" lon="10.397162626512834" id="-19857">
		<tag k="fixme" v="consider place=hamlet" />
		<tag k="name" v="Styrsvik" />
		<tag k="place" v="farm" />
		<tag k="ssr:stedsnr" v="184087" />
	</node>
	<node lat="59.14123177639188" lon="10.36053700936424" id="-19859">
		<tag k="name" v="Rønningen" />
=======
	<node id="-428976" lat="59.0872722243" lon="10.4488305577">
		<tag k="name" v="Eide" />
		<tag k="place" v="isolated_dwelling" />
		<tag k="ssr:stedsnr" v="122416" />
	</node>
	<node id="-428975" lat="59.0847250022" lon="10.4445138899">
		<tag k="name" v="Vestgarden" />
>>>>>>> e1d4bc35ff8a6074a6f2e91616a996b547c36f15
		<tag k="place" v="farm" />
		<tag k="ssr:stedsnr" v="184096" />
	</node>
<<<<<<< HEAD
	<node lat="59.15929449614048" lon="10.348175961575263" id="-19861">
		<tag k="alt_name" v="Vestgården" />
		<tag k="fixme" v="consider place=hamlet" />
		<tag k="name" v="Vestgarden" />
=======
	<node id="-428968" lat="59.2110722245" lon="10.4225972175">
		<tag k="alt_name" v="Fykås;Føikås" />
		<tag k="name" v="Føykås" />
>>>>>>> e1d4bc35ff8a6074a6f2e91616a996b547c36f15
		<tag k="place" v="farm" />
		<tag k="ssr:stedsnr" v="184117" />
	</node>
<<<<<<< HEAD
	<node lat="59.12201110908612" lon="10.387391663558189" id="-19864">
		<tag k="name" v="Tjøme prestegård" />
=======
	<node id="-428966" lat="59.2317333375" lon="10.4068361083">
		<tag k="name" v="Elgestad" />
>>>>>>> e1d4bc35ff8a6074a6f2e91616a996b547c36f15
		<tag k="place" v="farm" />
		<tag k="ssr:stedsnr" v="267185" />
	</node>
<<<<<<< HEAD
	<node lat="59.24495555946386" lon="10.399097225049283" id="-19868">
		<tag k="name" v="Vestskogen" />
		<tag k="place" v="village" />
		<tag k="ssr:stedsnr" v="203057" />
	</node>
	<node lat="59.19982777362364" lon="10.441208332826339" id="-19869">
		<tag k="name" v="Hårkollen" />
		<tag k="place" v="village" />
		<tag k="ssr:stedsnr" v="202993" />
	</node>
	<node lat="59.07352292816136" lon="10.401450840315437" id="-19878">
		<tag k="fixme" v="consider place=hamlet" />
		<tag k="name" v="Hellesmo" />
		<tag k="place" v="farm" />
		<tag k="ssr:stedsnr" v="268375" />
	</node>
	<node lat="59.14521519052974" lon="10.365230041830674" id="-19887">
		<tag k="fixme" v="consider place=hamlet" />
		<tag k="name" v="Oslebakke" />
=======
	<node id="-428959" lat="59.1028416624" lon="10.4295444429">
		<tag k="name" v="Søndre Holme" />
>>>>>>> e1d4bc35ff8a6074a6f2e91616a996b547c36f15
		<tag k="place" v="farm" />
		<tag k="ssr:stedsnr" v="207291" />
	</node>
<<<<<<< HEAD
	<node lat="59.10833611318944" lon="10.402205548268" id="-19889">
		<tag k="amenity" v="school" />
		<tag k="name" v="Lindhøy skole" />
		<tag k="ssr:stedsnr" v="207606" />
	</node>
	<node lat="59.102083335860485" lon="10.422338895585648" id="-19890">
		<tag k="name" v="Rød" />
		<tag k="place" v="isolated_dwelling" />
		<tag k="ssr:stedsnr" v="207611" />
	</node>
	<node lat="59.190997560822964" lon="10.378719510602739" id="-19899">
		<tag k="fixme" v="consider place=hamlet" />
		<tag k="name" v="Grinda" />
		<tag k="place" v="farm" />
		<tag k="ssr:stedsnr" v="269966" />
	</node>
	<node lat="59.18739444310316" lon="10.383400000738654" id="-19917">
		<tag k="alt_name" v="Bjørndalen" />
		<tag k="name" v="Bjørndal" />
		<tag k="place" v="farm" />
		<tag k="ssr:stedsnr" v="451957" />
	</node>
	<node lat="59.236572226022005" lon="10.40899721557337" id="-19919">
=======
	<node id="-428958" lat="59.1017861108" lon="10.3945388885">
		<tag k="name" v="Gon" />
		<tag k="place" v="locality" />
		<tag k="ssr:stedsnr" v="86627" />
	</node>
	<node id="-428955" lat="59.0777861096" lon="10.4452416726">
		<tag k="name" v="Kviet" />
		<tag k="place" v="hamlet" />
		<tag k="ssr:stedsnr" v="86386" />
	</node>
	<node id="-428954" lat="59.0762333318" lon="10.440444437">
>>>>>>> e1d4bc35ff8a6074a6f2e91616a996b547c36f15
		<tag k="amenity" v="school" />
		<tag k="name" v="Herstad" />
		<tag k="ssr:stedsnr" v="244036" />
	</node>
<<<<<<< HEAD
	<node lat="59.221609659538515" lon="10.401565877756514" id="-19922">
		<tag k="name" v="Gunnestad" />
		<tag k="place" v="hamlet" />
		<tag k="ssr:stedsnr" v="244047" />
	</node>
	<node lat="59.19874167087701" lon="10.40868889257183" id="-19923">
		<tag k="name" v="Engås" />
		<tag k="place" v="farm" />
		<tag k="ssr:stedsnr" v="244054" />
	</node>
	<node lat="59.19818150302061" lon="10.367455545913968" id="-19924">
		<tag k="fixme" v="consider place=hamlet" />
		<tag k="name" v="Glomstein" />
		<tag k="place" v="farm" />
		<tag k="ssr:stedsnr" v="244056" />
	</node>
	<node lat="59.17328429536273" lon="10.379389688201924" id="-19926">
		<tag k="fixme" v="consider place=hamlet" />
		<tag k="name" v="Tokenes" />
		<tag k="place" v="farm" />
		<tag k="ssr:stedsnr" v="244115" />
	</node>
	<node lat="59.196224998573896" lon="10.459180557303501" id="-19928">
		<tag k="name" v="Sparrønningen" />
=======
	<node id="-429459" lat="59.1249406397" lon="10.3570654921">
		<tag k="name" v="Camp Hudøy" />
		<tag k="ssr:stedsnr" v="988106" />
		<tag k="tourism" v="camp_site" />
	</node>
	<node id="-429458" lat="59.2025937319" lon="10.5700855152">
		<tag k="fixme" v="consider tourism=alpine_hut or tourism=chalet" />
		<tag k="name" v="Kommandantboligen" />
		<tag k="ssr:stedsnr" v="988105" />
		<tag k="tourism" v="wilderness_hut" />
	</node>
	<node id="-428945" lat="59.1999361097" lon="10.4293250044">
		<tag k="name" v="Hengerød" />
>>>>>>> e1d4bc35ff8a6074a6f2e91616a996b547c36f15
		<tag k="place" v="isolated_dwelling" />
		<tag k="ssr:stedsnr" v="244081" />
	</node>
<<<<<<< HEAD
	<node lat="59.18320555419627" lon="10.457425001165891" id="-19929">
		<tag k="fixme" v="consider place=suburb, village or hamlet" />
		<tag k="name" v="Årøysund" />
		<tag k="place" v="quarter" />
		<tag k="ssr:stedsnr" v="244091" />
	</node>
	<node lat="59.14973284375058" lon="10.39138708797853" id="-19930">
		<tag k="fixme" v="consider place=hamlet" />
		<tag k="name" v="Gjervåg" />
=======
	<node id="-429456" lat="59.1214024742" lon="10.461844887">
		<tag k="fixme" v="consider tourism=alpine_hut or tourism=chalet" />
		<tag k="name" v="Ildverket" />
		<tag k="ssr:stedsnr" v="987814" />
		<tag k="tourism" v="wilderness_hut" />
	</node>
	<node id="-429455" lat="59.2154245878" lon="10.5424907781">
		<tag k="fixme" v="consider tourism=alpine_hut or tourism=chalet" />
		<tag k="name" v="Rønningen" />
		<tag k="ssr:stedsnr" v="987665" />
		<tag k="tourism" v="wilderness_hut" />
	</node>
	<node id="-428942" lat="59.146913893" lon="10.366508327">
		<tag k="name" v="Sjølyst" />
>>>>>>> e1d4bc35ff8a6074a6f2e91616a996b547c36f15
		<tag k="place" v="farm" />
		<tag k="ssr:stedsnr" v="244403" />
	</node>
<<<<<<< HEAD
	<node lat="59.14142443472417" lon="10.406318104606088" id="-19932">
		<tag k="fixme" v="consider place=hamlet" />
		<tag k="name" v="Holtekjær" />
		<tag k="place" v="farm" />
		<tag k="ssr:stedsnr" v="244410" />
	</node>
	<node lat="59.111093022145674" lon="10.39093790008772" id="-19934">
		<tag k="name" v="Rød" />
		<tag k="place" v="hamlet" />
		<tag k="ssr:stedsnr" v="244435" />
	</node>
	<node lat="59.16098055997191" lon="10.394319440622159" id="-19947">
		<tag k="name" v="Mellemskauen" />
		<tag k="place" v="locality" />
		<tag k="ssr:stedsnr" v="267705" />
	</node>
	<node lat="59.149261108361145" lon="10.405833335556748" id="-19956">
		<tag k="name" v="Honerød" />
=======
	<node id="-429037" lat="59.0749305531" lon="10.4241444504">
		<tag k="name" v="Ramsen" />
		<tag k="place" v="isolated_dwelling" />
		<tag k="ssr:stedsnr" v="183408" />
	</node>
	<node id="-428940" lat="59.0792972199" lon="10.3930250033">
		<tag k="name" v="Mostranda" />
		<tag k="old_name" v="Mostrand" />
		<tag k="ssr:stedsnr" v="62460" />
		<tag k="tourism" v="camp_site" />
	</node>
	<node id="-428939" lat="59.1004972208" lon="10.4036194399">
		<tag k="name" v="Eidene" />
>>>>>>> e1d4bc35ff8a6074a6f2e91616a996b547c36f15
		<tag k="place" v="isolated_dwelling" />
		<tag k="ssr:stedsnr" v="268686" />
	</node>
<<<<<<< HEAD
	<node lat="59.103588891433326" lon="10.385574997655642" id="-19961">
		<tag k="alt_name" v="Barkevik" />
		<tag k="name" v="Barkevika" />
=======
	<node id="-428938" lat="59.1108277764" lon="10.3957777829">
		<tag k="name" v="Gon" />
>>>>>>> e1d4bc35ff8a6074a6f2e91616a996b547c36f15
		<tag k="place" v="isolated_dwelling" />
		<tag k="ssr:stedsnr" v="304422" />
	</node>
<<<<<<< HEAD
	<node lat="59.17581385859419" lon="10.414593960537513" id="-19963">
		<tag k="fixme" v="consider place=hamlet" />
		<tag k="name" v="Rønningen" />
		<tag k="place" v="farm" />
		<tag k="ssr:stedsnr" v="305106" />
	</node>
	<node lat="59.17236388556088" lon="10.410111118175829" id="-19964">
		<tag k="name" v="Strengsdal" />
		<tag k="place" v="farm" />
		<tag k="ssr:stedsnr" v="305107" />
	</node>
	<node lat="59.15719999654035" lon="10.389025005960615" id="-19965">
		<tag k="name" v="Søndre Sundene" />
=======
	<node id="-429449" lat="59.1156694487" lon="10.3928111148">
		<tag k="name" v="Kirkebygda" />
		<tag k="place" v="village" />
		<tag k="ssr:stedsnr" v="875498" />
	</node>
	<node id="-428608" lat="59.0998138906" lon="10.4125249955">
		<tag k="name" v="Ødekjære" />
		<tag k="place" v="farm" />
		<tag k="ssr:stedsnr" v="668449" />
	</node>
	<node id="-428926" lat="59.1552111088" lon="10.4102722288">
		<tag k="name" v="Kråkere" />
>>>>>>> e1d4bc35ff8a6074a6f2e91616a996b547c36f15
		<tag k="place" v="farm" />
		<tag k="ssr:stedsnr" v="305111" />
	</node>
<<<<<<< HEAD
	<node lat="59.149936109554055" lon="10.423097226621909" id="-19968">
		<tag k="name" v="Vallekjær" />
		<tag k="place" v="isolated_dwelling" />
		<tag k="ssr:stedsnr" v="305414" />
	</node>
	<node lat="59.13588161532872" lon="10.404787420724334" id="-19969">
		<tag k="fixme" v="consider place=hamlet" />
		<tag k="name" v="Grimestad" />
=======
	<node id="-429437" lat="59.2110465106" lon="10.4136907707">
		<tag k="name" v="Nattvall" />
		<tag k="place" v="farm" />
		<tag k="ssr:stedsnr" v="870052" />
	</node>
	<node id="-429436" lat="59.1884916635" lon="10.3879583325">
		<tag k="name" v="Torbjørnrød" />
>>>>>>> e1d4bc35ff8a6074a6f2e91616a996b547c36f15
		<tag k="place" v="farm" />
		<tag k="ssr:stedsnr" v="305424" />
	</node>
<<<<<<< HEAD
	<node lat="59.15112778007564" lon="10.35235277065044" id="-19978">
		<tag k="name" v="Kriken" />
		<tag k="place" v="isolated_dwelling" />
		<tag k="ssr:stedsnr" v="328255" />
	</node>
	<node lat="59.092711114141835" lon="10.406149994832678" id="-19982">
		<tag k="name" v="Dagali" />
		<tag k="place" v="isolated_dwelling" />
		<tag k="ssr:stedsnr" v="328610" />
	</node>
	<node lat="59.224900915114745" lon="10.396396882815104" id="-19991">
		<tag k="name" v="Sande" />
		<tag k="place" v="hamlet" />
		<tag k="ssr:stedsnr" v="365015" />
	</node>
	<node lat="59.18027778034672" lon="10.440449994300707" id="-20002">
		<tag k="fixme" v="consider place=hamlet" />
		<tag k="name" v="Torød" />
		<tag k="place" v="village" />
		<tag k="ssr:stedsnr" v="388941" />
	</node>
	<node lat="59.13980000212157" lon="10.405377771551137" id="-20004">
		<tag k="amenity" v="nursing_home" />
		<tag k="name" v="Tjøme pleiehjem" />
		<tag k="ssr:stedsnr" v="389216" />
	</node>
	<node lat="59.08855278183151" lon="10.431716672749403" id="-20009">
		<tag k="name" v="Sand" />
=======
	<node id="-429435" lat="59.192658874" lon="10.410534499">
		<tag k="name" v="Kjønnerød" />
		<tag k="place" v="farm" />
		<tag k="ssr:stedsnr" v="869990" />
	</node>
	<node id="-429433" lat="59.1058527804" lon="10.404577779">
		<tag k="name" v="Kjære" />
>>>>>>> e1d4bc35ff8a6074a6f2e91616a996b547c36f15
		<tag k="place" v="farm" />
		<tag k="ssr:stedsnr" v="389625" />
	</node>
<<<<<<< HEAD
	<node lat="59.09133889185415" lon="10.43102499581897" id="-20010">
		<tag k="name" v="Kjellekrøk" />
=======
	<node id="-428919" lat="59.2063472208" lon="10.4417861092">
		<tag k="name" v="Skallestad" />
>>>>>>> e1d4bc35ff8a6074a6f2e91616a996b547c36f15
		<tag k="place" v="farm" />
		<tag k="ssr:stedsnr" v="389639" />
	</node>
<<<<<<< HEAD
	<node lat="59.217935543425654" lon="10.445578143384202" id="-20012">
		<tag k="fixme" v="consider place=hamlet" />
		<tag k="name" v="Nordre Nes" />
		<tag k="place" v="farm" />
		<tag k="ssr:stedsnr" v="389988" />
	</node>
	<node lat="59.121086111854694" lon="10.382988895155208" id="-20013">
		<tag k="name" v="Langvika" />
		<tag k="place" v="isolated_dwelling" />
		<tag k="ssr:stedsnr" v="390948" />
	</node>
	<node lat="59.251494667316344" lon="10.414556247752557" id="-20014">
		<tag k="alt_name" v="Teige" />
		<tag k="name" v="Teie" />
		<tag k="place" v="village" />
		<tag k="ssr:stedsnr" v="392042" />
	</node>
	<node lat="59.07538570089242" lon="10.404565599099051" id="-20015">
		<tag k="fixme" v="consider place=hamlet" />
		<tag k="name" v="Bjørnevåg" />
=======
	<node id="-429429" lat="59.1237277802" lon="10.406252781">
		<tag k="alt_name" v="Nedre Haug" />
		<tag k="name" v="Haug" />
>>>>>>> e1d4bc35ff8a6074a6f2e91616a996b547c36f15
		<tag k="place" v="farm" />
		<tag k="ssr:stedsnr" v="486470" />
	</node>
<<<<<<< HEAD
	<node lat="59.08900277786986" lon="10.431355550870567" id="-20019">
		<tag k="name" v="Sand" />
=======
	<node id="-429428" lat="59.1178722255" lon="10.4163249966">
		<tag k="name" v="Dalen" />
>>>>>>> e1d4bc35ff8a6074a6f2e91616a996b547c36f15
		<tag k="place" v="isolated_dwelling" />
		<tag k="ssr:stedsnr" v="486441" />
	</node>
<<<<<<< HEAD
	<node lat="59.11100277593039" lon="10.402608340937217" id="-20021">
		<tag k="alt_name" v="Pytt" />
		<tag k="name" v="Solvang" />
		<tag k="place" v="farm" />
		<tag k="ssr:stedsnr" v="486452" />
	</node>
	<node lat="59.099768451573574" lon="10.393262543733785" id="-20022">
		<tag k="fixme" v="consider place=hamlet" />
		<tag k="name" v="Gon" />
=======
	<node id="-428403" lat="59.2219972214" lon="10.4029749987">
		<tag k="name" v="Gunnestad" />
>>>>>>> e1d4bc35ff8a6074a6f2e91616a996b547c36f15
		<tag k="place" v="farm" />
		<tag k="ssr:stedsnr" v="486455" />
	</node>
<<<<<<< HEAD
	<node lat="59.20994999935131" lon="10.390094436101032" id="-20024">
		<tag k="name" v="Støyten" />
=======
	<node id="-429426" lat="59.1557972193" lon="10.3532027853">
		<tag k="name" v="Kriken" />
		<tag k="place" v="farm" />
		<tag k="ssr:stedsnr" v="851117" />
	</node>
	<node id="-428913" lat="59.2150305559" lon="10.4367305625">
		<tag k="name" v="Lilleng" />
>>>>>>> e1d4bc35ff8a6074a6f2e91616a996b547c36f15
		<tag k="place" v="farm" />
		<tag k="ssr:stedsnr" v="487045" />
	</node>
<<<<<<< HEAD
	<node lat="59.13590542959665" lon="10.383178661404088" id="-20028">
		<tag k="fixme" v="consider place=hamlet" />
		<tag k="name" v="Svelvik" />
=======
	<node id="-428912" lat="59.0930361092" lon="10.4247805549">
		<tag k="name" v="Brøtsø" />
>>>>>>> e1d4bc35ff8a6074a6f2e91616a996b547c36f15
		<tag k="place" v="farm" />
		<tag k="ssr:stedsnr" v="487436" />
	</node>
<<<<<<< HEAD
	<node lat="59.18474818720522" lon="10.414103276097887" id="-20032">
		<tag k="fixme" v="consider place=hamlet" />
		<tag k="name" v="Strengsdal" />
		<tag k="place" v="farm" />
		<tag k="ssr:stedsnr" v="426100" />
	</node>
	<node lat="59.12132657538057" lon="10.422767722720916" id="-20041">
		<tag k="name" v="Engøbrygga" />
		<tag k="place" v="farm" />
		<tag k="ssr:stedsnr" v="427412" />
	</node>
	<node lat="59.12856667112013" lon="10.409350003215417" id="-20050">
		<tag k="name" v="Hagan" />
=======
	<node id="-428399" lat="59.1832055542" lon="10.4574250012">
		<tag k="fixme" v="consider place=suburb, village or hamlet" />
		<tag k="name" v="Årøysund" />
		<tag k="place" v="quarter" />
		<tag k="ssr:stedsnr" v="244091" />
	</node>
	<node id="-429422" lat="59.1855972185" lon="10.4361055609">
		<tag k="alt_name" v="Torød, n;Torød, nordre;Torød" />
		<tag k="name" v="Nordre Torød" />
		<tag k="place" v="farm" />
		<tag k="ssr:stedsnr" v="851078" />
	</node>
	<node id="-428397" lat="59.1987500002" lon="10.436300001">
		<tag k="name" v="Oserød" />
		<tag k="place" v="farm" />
		<tag k="ssr:stedsnr" v="244079" />
	</node>
	<node id="-428908" lat="59.1830111093" lon="10.3937055575">
		<tag k="name" v="Lysheim" />
>>>>>>> e1d4bc35ff8a6074a6f2e91616a996b547c36f15
		<tag k="place" v="isolated_dwelling" />
		<tag k="ssr:stedsnr" v="450215" />
	</node>
<<<<<<< HEAD
	<node lat="59.07832777837701" lon="10.443011108491492" id="-20054">
		<tag k="name" v="Hertås" />
		<tag k="place" v="farm" />
		<tag k="ssr:stedsnr" v="450984" />
	</node>
	<node lat="59.24086666841369" lon="10.384799996928788" id="-20056">
		<tag k="name" v="Tørkopp" />
		<tag k="place" v="farm" />
		<tag k="ssr:stedsnr" v="487003" />
	</node>
	<node lat="59.23212777995606" lon="10.385902782483013" id="-20057">
		<tag k="name" v="Hella" />
		<tag k="place" v="hamlet" />
		<tag k="ssr:stedsnr" v="487016" />
	</node>
	<node lat="59.240299996504746" lon="10.40552776952115" id="-20058">
		<tag k="name" v="Kjærnås" />
		<tag k="place" v="farm" />
		<tag k="ssr:stedsnr" v="487018" />
	</node>
	<node lat="59.234105552829384" lon="10.402677769762777" id="-20059">
		<tag k="name" v="Nygård" />
=======
	<node id="-428946" lat="59.1996249973" lon="10.4113027825">
		<tag k="name" v="Anildrød" />
		<tag k="place" v="farm" />
		<tag k="ssr:stedsnr" v="85930" />
	</node>
	<node id="-429418" lat="59.2111500021" lon="10.5561388829">
		<tag k="name" v="Grevestuen" />
		<tag k="place" v="isolated_dwelling" />
		<tag k="ssr:stedsnr" v="851057" />
	</node>
	<node id="-428905" lat="59.1450999971" lon="10.391661104">
		<tag k="name" v="Søndre Gjervåg" />
		<tag k="place" v="farm" />
		<tag k="ssr:stedsnr" v="25696" />
	</node>
	<node id="-428392" lat="59.236572226" lon="10.4089972156">
		<tag k="amenity" v="school" />
		<tag k="name" v="Herstad" />
		<tag k="ssr:stedsnr" v="244036" />
	</node>
	<node id="-429413" lat="59.2181305573" lon="10.4064722167">
		<tag k="name" v="Stangeby" />
>>>>>>> e1d4bc35ff8a6074a6f2e91616a996b547c36f15
		<tag k="place" v="farm" />
		<tag k="ssr:stedsnr" v="487020" />
	</node>
<<<<<<< HEAD
	<node lat="59.239675000234946" lon="10.427838892972158" id="-20060">
		<tag k="name" v="Sjølyst" />
=======
	<node id="-429411" lat="59.2312527801" lon="10.416408325">
		<tag k="name" v="Tanstad" />
>>>>>>> e1d4bc35ff8a6074a6f2e91616a996b547c36f15
		<tag k="place" v="farm" />
		<tag k="ssr:stedsnr" v="487022" />
	</node>
<<<<<<< HEAD
	<node lat="59.12926601164056" lon="10.43009300740634" id="-20063">
		<tag k="fixme" v="consider place=hamlet" />
		<tag k="name" v="Hønsø" />
=======
	<node id="-429410" lat="59.246427775" lon="10.4291861045">
		<tag k="name" v="Hjertnes" />
>>>>>>> e1d4bc35ff8a6074a6f2e91616a996b547c36f15
		<tag k="place" v="farm" />
		<tag k="ssr:stedsnr" v="487412" />
	</node>
<<<<<<< HEAD
	<node lat="59.063069444233456" lon="10.41303889349368" id="-20064">
		<tag k="name" v="Grepan" />
		<tag k="ssr:stedsnr" v="487477" />
		<tag k="tourism" v="guest_house" />
	</node>
	<node lat="59.1407083306184" lon="10.4038583379897" id="-20068">
		<tag k="name" v="Glova" />
		<tag k="place" v="isolated_dwelling" />
		<tag k="ssr:stedsnr" v="510201" />
	</node>
	<node lat="59.11124739682334" lon="10.397805729997309" id="-20074">
		<tag k="fixme" v="consider place=hamlet" />
		<tag k="name" v="Østjordet" />
=======
	<node id="-429408" lat="59.2362972192" lon="10.4481833406">
		<tag k="name" v="Nordål" />
>>>>>>> e1d4bc35ff8a6074a6f2e91616a996b547c36f15
		<tag k="place" v="farm" />
		<tag k="ssr:stedsnr" v="510662" />
	</node>
<<<<<<< HEAD
	<node lat="59.1552944476559" lon="10.390916662413519" id="-20075">
		<tag k="name" v="Lille Gjervåg" />
		<tag k="place" v="farm" />
		<tag k="ssr:stedsnr" v="510672" />
	</node>
	<node lat="59.21343055518029" lon="10.443544448734906" id="-20079">
		<tag k="name" v="Nes" />
=======
	<node id="-429406" lat="59.0888888865" lon="10.4249749947">
		<tag k="name" v="Haugfjell" />
>>>>>>> e1d4bc35ff8a6074a6f2e91616a996b547c36f15
		<tag k="place" v="farm" />
		<tag k="ssr:stedsnr" v="512308" />
	</node>
<<<<<<< HEAD
	<node lat="59.2262916635464" lon="10.407447223228672" id="-20080">
		<tag k="fixme" v="consider place=suburb, village or hamlet" />
		<tag k="name" v="Borgheim" />
		<tag k="place" v="quarter" />
		<tag k="ssr:stedsnr" v="512325" />
	</node>
	<node lat="59.23615950659102" lon="10.444085459884908" id="-20082">
		<tag k="fixme" v="consider place=hamlet" />
		<tag k="name" v="Nordre Føyn" />
=======
	<node id="-429405" lat="59.2455361102" lon="10.4118749963">
		<tag k="name" v="Frogner" />
>>>>>>> e1d4bc35ff8a6074a6f2e91616a996b547c36f15
		<tag k="place" v="farm" />
		<tag k="ssr:stedsnr" v="547033" />
	</node>
<<<<<<< HEAD
	<node lat="59.2136222266959" lon="10.457208335978358" id="-20083">
		<tag k="name" v="Duken" />
		<tag k="place" v="isolated_dwelling" />
		<tag k="ssr:stedsnr" v="547069" />
	</node>
	<node lat="59.211141683912984" lon="10.408649090324218" id="-20084">
		<tag k="fixme" v="consider place=hamlet" />
		<tag k="name" v="Meum" />
		<tag k="place" v="farm" />
		<tag k="ssr:stedsnr" v="547072" />
	</node>
	<node lat="59.188827781289" lon="10.417352770232627" id="-20085">
		<tag k="name" v="Krokgrinda" />
=======
	<node id="-428379" lat="59.1680027738" lon="10.4363055596">
		<tag k="name" v="Brevik" />
>>>>>>> e1d4bc35ff8a6074a6f2e91616a996b547c36f15
		<tag k="place" v="farm" />
		<tag k="ssr:stedsnr" v="547079" />
	</node>
<<<<<<< HEAD
	<node lat="59.111149999045345" lon="10.402816665080152" id="-20090">
		<tag k="name" v="Solvang" />
		<tag k="place" v="quarter" />
		<tag k="ssr:stedsnr" v="687990" />
	</node>
	<node lat="59.066880553031" lon="10.444602773435648" id="-20098">
		<tag k="name" v="Sønstegard" />
		<tag k="place" v="isolated_dwelling" />
		<tag k="ssr:stedsnr" v="693397" />
	</node>
	<node lat="59.217919442114066" lon="10.452819450998744" id="-20100">
		<tag k="name" v="Breidablikk" />
		<tag k="place" v="isolated_dwelling" />
		<tag k="ssr:stedsnr" v="692987" />
	</node>
	<node lat="59.23317499980642" lon="10.417141668170654" id="-20104">
		<tag k="name" v="Tandstad" />
=======
	<node id="-429401" lat="59.0860805578" lon="10.3995361136">
		<tag k="name" v="Kjøye" />
		<tag k="place" v="locality" />
		<tag k="ssr:stedsnr" v="814641" />
	</node>
	<node id="-428888" lat="59.2224722265" lon="10.4404916621">
		<tag k="name" v="Hjemseng" />
>>>>>>> e1d4bc35ff8a6074a6f2e91616a996b547c36f15
		<tag k="place" v="village" />
		<tag k="ssr:stedsnr" v="692966" />
	</node>
<<<<<<< HEAD
	<node lat="59.15026111235068" lon="10.339591666497308" id="-20105">
		<tag k="name" v="Tangen" />
=======
	<node id="-428886" lat="59.1493611098" lon="10.4104166742">
		<tag k="name" v="Honerød" />
>>>>>>> e1d4bc35ff8a6074a6f2e91616a996b547c36f15
		<tag k="place" v="farm" />
		<tag k="ssr:stedsnr" v="693344" />
	</node>
<<<<<<< HEAD
	<node lat="59.152230551741276" lon="10.337677771413071" id="-20106">
		<tag k="name" v="Båsløkka" />
=======
	<node id="-428373" lat="59.1835222245" lon="10.423852786">
		<tag k="name" v="Buerteigen" />
		<tag k="place" v="farm" />
		<tag k="ssr:stedsnr" v="1111" />
	</node>
	<node id="-428884" lat="59.0626666677" lon="10.4035138945">
		<tag k="name" v="Helgerød" />
>>>>>>> e1d4bc35ff8a6074a6f2e91616a996b547c36f15
		<tag k="place" v="isolated_dwelling" />
		<tag k="ssr:stedsnr" v="693345" />
	</node>
<<<<<<< HEAD
	<node lat="59.16910555396153" lon="10.442525001692708" id="-20114">
		<tag k="name" v="Nestvik" />
=======
	<node id="-428430" lat="59.1220111091" lon="10.3873916636">
		<tag k="name" v="Tjøme prestegård" />
		<tag k="place" v="farm" />
		<tag k="ssr:stedsnr" v="267185" />
	</node>
	<node id="-429394" lat="59.0748388879" lon="10.4421166746">
		<tag k="name" v="Austheim" />
		<tag k="place" v="hamlet" />
		<tag k="ssr:stedsnr" v="814400" />
	</node>
	<node id="-428880" lat="59.2389750011" lon="10.4402194397">
		<tag k="alt_name" v="Bjørnebo" />
		<tag k="name" v="Bjørnebu" />
>>>>>>> e1d4bc35ff8a6074a6f2e91616a996b547c36f15
		<tag k="place" v="farm" />
		<tag k="ssr:stedsnr" v="695040" />
	</node>
<<<<<<< HEAD
	<node lat="59.196911748410464" lon="10.390591085698997" id="-20120">
		<tag k="fixme" v="consider place=hamlet" />
		<tag k="name" v="Brattås" />
=======
	<node id="-428879" lat="59.2271666684" lon="10.4078500006">
		<tag k="name" v="Nøtterø" />
		<tag k="old_name" v="Borgheim" />
>>>>>>> e1d4bc35ff8a6074a6f2e91616a996b547c36f15
		<tag k="place" v="farm" />
		<tag k="ssr:stedsnr" v="608040" />
	</node>
<<<<<<< HEAD
	<node lat="59.210839341131056" lon="10.397880677177525" id="-20121">
		<tag k="fixme" v="consider place=hamlet" />
		<tag k="name" v="Hovland" />
=======
	<node id="-428878" lat="59.1894083319" lon="10.426980563">
		<tag k="name" v="Buer" />
>>>>>>> e1d4bc35ff8a6074a6f2e91616a996b547c36f15
		<tag k="place" v="farm" />
		<tag k="ssr:stedsnr" v="608048" />
	</node>
<<<<<<< HEAD
	<node lat="59.16379806930265" lon="10.392045217645698" id="-20123">
		<tag k="name" v="Sundene" />
		<tag k="place" v="hamlet" />
		<tag k="ssr:stedsnr" v="608112" />
	</node>
	<node lat="59.15129047169982" lon="10.38584989705263" id="-20127">
		<tag k="fixme" v="consider place=hamlet" />
		<tag k="name" v="Bukkeli" />
		<tag k="place" v="farm" />
		<tag k="ssr:stedsnr" v="608407" />
	</node>
	<node lat="59.175658909023724" lon="10.422309772411118" id="-20133">
		<tag k="fixme" v="consider place=hamlet" />
		<tag k="name" v="Vallers" />
		<tag k="place" v="farm" />
		<tag k="ssr:stedsnr" v="627047" />
	</node>
	<node lat="59.21891312113984" lon="10.41844654040727" id="-20149">
		<tag k="name" v="Sem" />
		<tag k="place" v="hamlet" />
		<tag k="ssr:stedsnr" v="669027" />
	</node>
	<node lat="59.15133055516786" lon="10.361436118309298" id="-20152">
		<tag k="name" v="Brekke" />
=======
	<node id="-428877" lat="59.1958305575" lon="10.3757444457">
		<tag k="name" v="Snipetorp" />
		<tag k="place" v="farm" />
		<tag k="ssr:stedsnr" v="1091" />
	</node>
	<node id="-429387" lat="59.1264444462" lon="10.3840055478">
		<tag k="fixme" v="consider place=suburb, village or hamlet" />
		<tag k="name" v="Budal" />
		<tag k="place" v="quarter" />
		<tag k="ssr:stedsnr" v="814274" />
	</node>
	<node id="-428599" lat="59.1285666711" lon="10.4093500032">
		<tag k="name" v="Hagan" />
		<tag k="place" v="isolated_dwelling" />
		<tag k="ssr:stedsnr" v="450215" />
	</node>
	<node id="-428863" lat="59.0980888859" lon="10.4053833416">
		<tag k="name" v="Eidene" />
		<tag k="ssr:stedsnr" v="935625" />
		<tag k="tourism" v="hotel" />
	</node>
	<node id="-428862" lat="59.1507861127" lon="10.3544722301">
		<tag k="name" v="Gråten" />
		<tag k="place" v="locality" />
		<tag k="ssr:stedsnr" v="935241" />
	</node>
	<node id="-429373" lat="59.1942250034" lon="10.391919452">
		<tag k="name" v="Possås" />
>>>>>>> e1d4bc35ff8a6074a6f2e91616a996b547c36f15
		<tag k="place" v="farm" />
		<tag k="ssr:stedsnr" v="669101" />
	</node>
<<<<<<< HEAD
	<node lat="59.25866174178262" lon="10.421791827057664" id="-20164">
		<tag k="amenity" v="cafe" />
		<tag k="name" v="Sjøormen" />
		<tag k="ssr:stedsnr" v="695022" />
	</node>
	<node lat="59.0899750029339" lon="10.44315000349122" id="-20170">
		<tag k="name" v="Nordhavna" />
=======
	<node id="-429369" lat="59.0750611082" lon="10.4529888938">
		<tag k="name" v="Fyn" />
		<tag k="place" v="isolated_dwelling" />
		<tag k="ssr:stedsnr" v="790464" />
	</node>
	<node id="-429367" lat="59.1695638872" lon="10.4242638844">
		<tag k="name" v="Buerstad" />
>>>>>>> e1d4bc35ff8a6074a6f2e91616a996b547c36f15
		<tag k="place" v="isolated_dwelling" />
		<tag k="ssr:stedsnr" v="729412" />
	</node>
<<<<<<< HEAD
	<node lat="59.08958333268964" lon="10.42313889205293" id="-20172">
		<tag k="name" v="Espevika" />
		<tag k="place" v="isolated_dwelling" />
		<tag k="ssr:stedsnr" v="729421" />
	</node>
	<node lat="59.2475171806411" lon="10.38601713908429" id="-20173">
		<tag k="name" v="Munkerekka" />
		<tag k="place" v="village" />
		<tag k="ssr:stedsnr" v="730011" />
	</node>
	<node lat="59.14071767262781" lon="10.386437912429129" id="-20177">
		<tag k="fixme" v="consider place=hamlet" />
		<tag k="name" v="Glenne" />
=======
	<node id="-429365" lat="59.1864750034" lon="10.3681749997">
		<tag k="name" v="Skjerpe" />
		<tag k="place" v="farm" />
		<tag k="ssr:stedsnr" v="790079" />
	</node>
	<node id="-429364" lat="59.1783916711" lon="10.4327527762">
		<tag k="alt_name" v="Haukmyr" />
		<tag k="name" v="Haukemyr" />
		<tag k="place" v="farm" />
		<tag k="ssr:stedsnr" v="790067" />
	</node>
	<node id="-429363" lat="59.2019361082" lon="10.4500583274">
		<tag k="name" v="Ulvø" />
>>>>>>> e1d4bc35ff8a6074a6f2e91616a996b547c36f15
		<tag k="place" v="farm" />
		<tag k="ssr:stedsnr" v="730420" />
	</node>
<<<<<<< HEAD
	<node lat="59.19173610872378" lon="10.372708330440851" id="-20181">
		<tag k="name" v="Horperød" />
=======
	<node id="-428654" lat="59.2134305552" lon="10.4435444487">
		<tag k="name" v="Nes" />
		<tag k="place" v="farm" />
		<tag k="ssr:stedsnr" v="512308" />
	</node>
	<node id="-428549" lat="59.2015388929" lon="10.4063249946">
		<tag k="name" v="Håvaldsrød" />
		<tag k="place" v="isolated_dwelling" />
		<tag k="ssr:stedsnr" v="388918" />
	</node>
	<node id="-429358" lat="59.2082833374" lon="10.5581805477">
		<tag k="name" v="Solvik" />
>>>>>>> e1d4bc35ff8a6074a6f2e91616a996b547c36f15
		<tag k="place" v="isolated_dwelling" />
		<tag k="ssr:stedsnr" v="753409" />
	</node>
<<<<<<< HEAD
	<node lat="59.15881659815862" lon="10.39739610203056" id="-20182">
		<tag k="fixme" v="consider place=hamlet" />
		<tag k="name" v="Kynnemarka" />
		<tag k="place" v="farm" />
		<tag k="ssr:stedsnr" v="753618" />
	</node>
	<node lat="59.19527499962844" lon="10.443777781680021" id="-20185">
		<tag k="name" v="Hårkollen" />
		<tag k="place" v="quarter" />
		<tag k="ssr:stedsnr" v="753955" />
	</node>
	<node lat="59.14360833414927" lon="10.414086109058669" id="-20191">
		<tag k="name" v="Flekken" />
		<tag k="place" v="isolated_dwelling" />
		<tag k="ssr:stedsnr" v="754910" />
	</node>
	<node lat="59.15078611274644" lon="10.354472230141923" id="-20196">
		<tag k="name" v="Gråten" />
		<tag k="place" v="locality" />
		<tag k="ssr:stedsnr" v="935241" />
	</node>
	<node lat="59.15736388822605" lon="10.376738893280145" id="-20197">
		<tag k="name" v="Saltbu" />
=======
	<node id="-429277" lat="59.1971499998" lon="10.3914166595">
		<tag k="name" v="Brattås" />
		<tag k="place" v="farm" />
		<tag k="ssr:stedsnr" v="608040" />
	</node>
	<node id="-429356" lat="59.1573638882" lon="10.3767388933">
		<tag k="name" v="Saltbu" />
		<tag k="place" v="farm" />
		<tag k="ssr:stedsnr" v="786922" />
	</node>
	<node id="-428839" lat="59.2179777809" lon="10.4571722273">
		<tag k="name" v="Breidablikk" />
		<tag k="place" v="farm" />
		<tag k="ssr:stedsnr" v="938814" />
	</node>
	<node id="-429348" lat="59.2182472263" lon="10.4397555551">
		<tag k="name" v="Belgen" />
		<tag k="place" v="farm" />
		<tag k="ssr:stedsnr" v="753990" />
	</node>
	<node id="-428835" lat="59.0723777783" lon="10.4381749964">
		<tag k="name" v="Oppegård" />
>>>>>>> e1d4bc35ff8a6074a6f2e91616a996b547c36f15
		<tag k="place" v="farm" />
		<tag k="ssr:stedsnr" v="786922" />
	</node>
<<<<<<< HEAD
	<node lat="59.20828333738265" lon="10.558180547716924" id="-20198">
		<tag k="name" v="Solvik" />
		<tag k="place" v="isolated_dwelling" />
		<tag k="ssr:stedsnr" v="790046" />
	</node>
	<node lat="59.20212599951287" lon="10.449534809673107" id="-20199">
		<tag k="fixme" v="consider place=hamlet" />
		<tag k="name" v="Ulvø" />
		<tag k="place" v="farm" />
		<tag k="ssr:stedsnr" v="790061" />
	</node>
	<node lat="59.09418871664231" lon="10.403506207360095" id="-20201">
		<tag k="fixme" v="consider place=hamlet" />
		<tag k="name" v="Eidene" />
		<tag k="place" v="farm" />
		<tag k="ssr:stedsnr" v="911426" />
	</node>
	<node lat="59.230877775723584" lon="10.399797226541745" id="-20208">
		<tag k="name" v="Nyhus" />
		<tag k="place" v="farm" />
		<tag k="ssr:stedsnr" v="912020" />
	</node>
	<node lat="59.22946666769208" lon="10.457974991554007" id="-20209">
		<tag k="name" v="Myra" />
		<tag k="place" v="farm" />
		<tag k="ssr:stedsnr" v="912022" />
	</node>
	<node lat="59.2209881090843" lon="10.43396571109494" id="-20210">
		<tag k="alt_name" v="Bugarden" />
		<tag k="fixme" v="consider place=hamlet" />
		<tag k="name" v="Bugården" />
=======
	<node id="-428832" lat="59.1789722222" lon="10.394683325">
		<tag k="name" v="Sevik" />
		<tag k="place" v="isolated_dwelling" />
		<tag k="ssr:stedsnr" v="935967" />
	</node>
	<node id="-429342" lat="59.1952749996" lon="10.4437777817">
		<tag k="name" v="Hårkollen" />
		<tag k="place" v="quarter" />
		<tag k="ssr:stedsnr" v="753955" />
	</node>
	<node id="-428828" lat="59.1541527781" lon="10.4341388862">
		<tag k="name" v="Mågerø verft" />
		<tag k="place" v="quarter" />
		<tag k="ssr:stedsnr" v="935711" />
	</node>
	<node id="-429336" lat="59.1143611106" lon="10.4068361086">
		<tag k="name" v="Solvangfeltet" />
		<tag k="place" v="quarter" />
		<tag k="ssr:stedsnr" v="753597" />
	</node>
	<node id="-429335" lat="59.0978083313" lon="10.3948638974">
		<tag k="name" v="Gon" />
		<tag k="place" v="locality" />
		<tag k="ssr:stedsnr" v="753589" />
	</node>
	<node id="-429334" lat="59.1917361087" lon="10.3727083304">
		<tag k="name" v="Horperød" />
		<tag k="place" v="isolated_dwelling" />
		<tag k="ssr:stedsnr" v="753409" />
	</node>
	<node id="-429332" lat="59.1644777767" lon="10.3442500014">
		<tag k="name" v="Vestgården" />
>>>>>>> e1d4bc35ff8a6074a6f2e91616a996b547c36f15
		<tag k="place" v="farm" />
		<tag k="ssr:stedsnr" v="912033" />
	</node>
<<<<<<< HEAD
	<node lat="59.2043574505283" lon="10.41313209256912" id="-20212">
		<tag k="name" v="Skjerve" />
=======
	<node id="-428819" lat="59.0616083334" lon="10.4012944358">
		<tag k="name" v="Velvika" />
>>>>>>> e1d4bc35ff8a6074a6f2e91616a996b547c36f15
		<tag k="place" v="hamlet" />
		<tag k="ssr:stedsnr" v="912040" />
	</node>
<<<<<<< HEAD
	<node lat="59.205337070349294" lon="10.404787016167946" id="-20213">
		<tag k="fixme" v="consider place=hamlet" />
		<tag k="name" v="Trolltorød" />
		<tag k="place" v="farm" />
		<tag k="ssr:stedsnr" v="912042" />
	</node>
	<node lat="59.19884334128582" lon="10.37364760757359" id="-20214">
		<tag k="fixme" v="consider place=hamlet" />
		<tag k="name" v="Tømmerholt" />
=======
	<node id="-429324" lat="59.1217916704" lon="10.3963861155">
		<tag k="name" v="Øvre Haug" />
>>>>>>> e1d4bc35ff8a6074a6f2e91616a996b547c36f15
		<tag k="place" v="farm" />
		<tag k="ssr:stedsnr" v="912043" />
	</node>
<<<<<<< HEAD
	<node lat="59.26567154505903" lon="10.387421705440401" id="-20217">
		<tag k="fixme" v="consider place=hamlet" />
		<tag k="name" v="Ramdal" />
=======
	<node id="-428808" lat="59.1461583361" lon="10.3462083376">
		<tag k="name" v="Søndre Tangen" />
>>>>>>> e1d4bc35ff8a6074a6f2e91616a996b547c36f15
		<tag k="place" v="farm" />
		<tag k="ssr:stedsnr" v="792635" />
	</node>
<<<<<<< HEAD
	<node lat="59.2131829020494" lon="10.433986890542132" id="-20218">
		<tag k="name" v="Kjøle" />
		<tag k="place" v="hamlet" />
		<tag k="ssr:stedsnr" v="912056" />
	</node>
	<node lat="59.19462605663745" lon="10.448979384142206" id="-20219">
		<tag k="name" v="Oterbekk" />
		<tag k="place" v="hamlet" />
		<tag k="ssr:stedsnr" v="912065" />
	</node>
	<node lat="59.126444446210876" lon="10.384005547797722" id="-20237">
		<tag k="fixme" v="consider place=suburb, village or hamlet" />
		<tag k="name" v="Budal" />
		<tag k="place" v="quarter" />
		<tag k="ssr:stedsnr" v="814274" />
	</node>
	<node lat="59.24553611019846" lon="10.411874996282021" id="-20243">
		<tag k="name" v="Frogner" />
		<tag k="place" v="farm" />
		<tag k="ssr:stedsnr" v="814986" />
	</node>
	<node lat="59.185597218476644" lon="10.43610556093932" id="-20249">
		<tag k="alt_name" v="Torød, n;Torød, nordre;Torød" />
		<tag k="name" v="Nordre Torød" />
=======
	<node id="-428807" lat="59.2361527756" lon="10.4565805582">
		<tag k="name" v="Myra" />
		<tag k="place" v="isolated_dwelling" />
		<tag k="ssr:stedsnr" v="814970" />
	</node>
	<node id="-428801" lat="59.2656777821" lon="10.3874499936">
		<tag k="name" v="Ramdal" />
>>>>>>> e1d4bc35ff8a6074a6f2e91616a996b547c36f15
		<tag k="place" v="farm" />
		<tag k="ssr:stedsnr" v="792635" />
	</node>
<<<<<<< HEAD
	<node lat="59.14615833607285" lon="10.346208337557298" id="-20257">
		<tag k="name" v="Søndre Tangen" />
=======
	<node id="-429312" lat="59.1923694453" lon="10.445019438">
		<tag k="alt_name" v="Petterrød" />
		<tag k="name" v="Petterød" />
>>>>>>> e1d4bc35ff8a6074a6f2e91616a996b547c36f15
		<tag k="place" v="farm" />
		<tag k="ssr:stedsnr" v="930987" />
	</node>
<<<<<<< HEAD
	<node lat="59.06160833341251" lon="10.401294435771035" id="-20275">
		<tag k="name" v="Velvika" />
		<tag k="place" v="hamlet" />
		<tag k="ssr:stedsnr" v="935363" />
	</node>
	<node lat="59.17700956679182" lon="10.436778554870113" id="-20280">
		<tag k="fixme" v="consider place=hamlet" />
		<tag k="name" v="Tømmereik" />
=======
	<node id="-429309" lat="59.2036166637" lon="10.4242888859">
		<tag k="name" v="Furulund" />
		<tag k="place" v="farm" />
		<tag k="ssr:stedsnr" v="631941" />
	</node>
	<node id="-428793" lat="59.0821499997" lon="10.4049861084">
		<tag k="name" v="Kolabekk" />
>>>>>>> e1d4bc35ff8a6074a6f2e91616a996b547c36f15
		<tag k="place" v="farm" />
		<tag k="ssr:stedsnr" v="912109" />
	</node>
<<<<<<< HEAD
	<node lat="59.1661775553716" lon="10.426863446445688" id="-20281">
		<tag k="name" v="Movik" />
		<tag k="place" v="hamlet" />
		<tag k="ssr:stedsnr" v="912120" />
	</node>
	<node lat="59.12631264954693" lon="10.42575134539289" id="-20285">
=======
	<node id="-428404" lat="59.1731222209" lon="10.3791138959">
		<tag k="name" v="Tokenes" />
		<tag k="place" v="farm" />
		<tag k="ssr:stedsnr" v="244115" />
	</node>
	<node id="-428786" lat="59.1257749955" lon="10.4254000041">
>>>>>>> e1d4bc35ff8a6074a6f2e91616a996b547c36f15
		<tag k="fixme" v="consider place=hamlet" />
		<tag k="name" v="Medø" />
		<tag k="place" v="farm" />
		<tag k="ssr:stedsnr" v="912407" />
	</node>
<<<<<<< HEAD
	<node lat="59.2285833338035" lon="10.435438894554874" id="-20293">
		<tag k="name" v="Brua" />
		<tag k="place" v="village" />
		<tag k="ssr:stedsnr" v="938037" />
	</node>
	<node lat="59.21797778086995" lon="10.457172227345103" id="-20294">
		<tag k="name" v="Breidablikk" />
=======
	<node id="-428755" lat="59.1404583306" lon="10.3865249965">
		<tag k="name" v="Glenne" />
		<tag k="place" v="farm" />
		<tag k="ssr:stedsnr" v="730420" />
	</node>
	<node id="-429419" lat="59.2015722205" lon="10.4342833245">
		<tag k="name" v="Roppestad" />
>>>>>>> e1d4bc35ff8a6074a6f2e91616a996b547c36f15
		<tag k="place" v="farm" />
		<tag k="ssr:stedsnr" v="938814" />
	</node>
<<<<<<< HEAD
	<node lat="59.124940639711006" lon="10.357065492098716" id="-20298">
		<tag k="name" v="Camp Hudøy" />
		<tag k="ssr:stedsnr" v="988106" />
		<tag k="tourism" v="camp_site" />
	</node>
	<node lat="59.22716666841403" lon="10.407850000628324" id="-20311">
		<tag k="name" v="Nøtterø" />
		<tag k="old_name" v="Borgheim" />
		<tag k="place" v="farm" />
		<tag k="ssr:stedsnr" v="1021" />
	</node>
	<node lat="59.16823874325623" lon="10.436735234764067" id="-20314">
		<tag k="fixme" v="consider place=hamlet" />
		<tag k="name" v="Brevik" />
		<tag k="place" v="farm" />
		<tag k="ssr:stedsnr" v="1132" />
	</node>
	<node lat="59.2091799738814" lon="10.43271211581808" id="-20316">
		<tag k="fixme" v="consider place=hamlet" />
		<tag k="name" v="Rubberød" />
=======
	<node id="-428782" lat="59.1664777796" lon="10.4254305563">
		<tag k="name" v="Movik" />
		<tag k="place" v="isolated_dwelling" />
		<tag k="ssr:stedsnr" v="912120" />
	</node>
	<node id="-428925" lat="59.1796611108" lon="10.3939277808">
		<tag k="name" v="Sevika" />
		<tag k="place" v="isolated_dwelling" />
		<tag k="ssr:stedsnr" v="62093" />
	</node>
	<node id="-429290" lat="59.1752722238" lon="10.4226777762">
		<tag k="name" v="Vallers" />
		<tag k="place" v="farm" />
		<tag k="ssr:stedsnr" v="627047" />
	</node>
	<node id="-429289" lat="59.199546379" lon="10.3797645539">
		<tag k="name" v="Snarrønningen" />
		<tag k="place" v="farm" />
		<tag k="ssr:stedsnr" v="626990" />
	</node>
	<node id="-428774" lat="59.1945666691" lon="10.4491083312">
		<tag k="name" v="Oterbekk" />
>>>>>>> e1d4bc35ff8a6074a6f2e91616a996b547c36f15
		<tag k="place" v="farm" />
		<tag k="ssr:stedsnr" v="1080" />
	</node>
<<<<<<< HEAD
	<node lat="59.06292852713848" lon="10.403167495005345" id="-20318">
		<tag k="fixme" v="consider place=hamlet" />
		<tag k="name" v="Helgerød" />
		<tag k="place" v="farm" />
		<tag k="ssr:stedsnr" v="1470" />
	</node>
	<node lat="59.15021301329977" lon="10.41015152039103" id="-20320">
		<tag k="fixme" v="consider place=hamlet" />
		<tag k="name" v="Honerød" />
=======
	<node id="-428773" lat="59.2131416634" lon="10.4332083299">
		<tag k="name" v="Kjøle" />
		<tag k="place" v="farm" />
		<tag k="ssr:stedsnr" v="912056" />
	</node>
	<node id="-429283" lat="59.1656083343" lon="10.3923361044">
		<tag k="name" v="Sundene" />
		<tag k="place" v="isolated_dwelling" />
		<tag k="ssr:stedsnr" v="608112" />
	</node>
	<node id="-428770" lat="59.1963416641" lon="10.3743722265">
		<tag k="name" v="Tømmerholt" />
>>>>>>> e1d4bc35ff8a6074a6f2e91616a996b547c36f15
		<tag k="place" v="farm" />
		<tag k="ssr:stedsnr" v="2412" />
	</node>
<<<<<<< HEAD
	<node lat="59.22247222653952" lon="10.440491662124927" id="-20321">
		<tag k="name" v="Hjemseng" />
		<tag k="place" v="village" />
		<tag k="ssr:stedsnr" v="21056" />
	</node>
	<node lat="59.14509999711032" lon="10.391661103987502" id="-20335">
		<tag k="name" v="Søndre Gjervåg" />
=======
	<node id="-428769" lat="59.2048749989" lon="10.4047722228">
		<tag k="name" v="Trolltorød" />
		<tag k="place" v="farm" />
		<tag k="ssr:stedsnr" v="912042" />
	</node>
	<node id="-428768" lat="59.2039138876" lon="10.4121916593">
		<tag k="name" v="Skjerve" />
>>>>>>> e1d4bc35ff8a6074a6f2e91616a996b547c36f15
		<tag k="place" v="farm" />
		<tag k="ssr:stedsnr" v="25696" />
	</node>
<<<<<<< HEAD
	<node lat="59.18301110925001" lon="10.39370555752438" id="-20342">
		<tag k="name" v="Lysheim" />
		<tag k="place" v="isolated_dwelling" />
		<tag k="ssr:stedsnr" v="25961" />
	</node>
	<node lat="59.17883445278985" lon="10.395123465271789" id="-20346">
		<tag k="fixme" v="consider place=hamlet" />
		<tag k="name" v="Sevika" />
=======
	<node id="-428766" lat="59.2211694475" lon="10.4340277737">
		<tag k="alt_name" v="Bugarden" />
		<tag k="name" v="Bugården" />
>>>>>>> e1d4bc35ff8a6074a6f2e91616a996b547c36f15
		<tag k="place" v="farm" />
		<tag k="ssr:stedsnr" v="62093" />
	</node>
<<<<<<< HEAD
	<node lat="59.206258897236886" lon="10.44197298199103" id="-20347">
		<tag k="fixme" v="consider place=hamlet" />
		<tag k="name" v="Skallestad" />
		<tag k="place" v="farm" />
		<tag k="ssr:stedsnr" v="62055" />
	</node>
	<node lat="59.15582885200149" lon="10.410439473035343" id="-20349">
		<tag k="fixme" v="consider place=hamlet" />
		<tag k="name" v="Kråkere" />
		<tag k="place" v="farm" />
		<tag k="ssr:stedsnr" v="62099" />
	</node>
	<node lat="59.11082777638793" lon="10.39577778293842" id="-20361">
		<tag k="name" v="Gon" />
=======
	<node id="-428941" lat="59.0720861137" lon="10.4091166596">
		<tag k="name" v="Hola" />
		<tag k="place" v="farm" />
		<tag k="ssr:stedsnr" v="62462" />
	</node>
	<node id="-429276" lat="59.2310472181" lon="10.4468416675">
		<tag k="name" v="Søndre Føyn" />
		<tag k="place" v="farm" />
		<tag k="ssr:stedsnr" v="608029" />
	</node>
	<node id="-428761" lat="59.0939750012" lon="10.4041805561">
		<tag k="name" v="Eidene" />
>>>>>>> e1d4bc35ff8a6074a6f2e91616a996b547c36f15
		<tag k="place" v="isolated_dwelling" />
		<tag k="ssr:stedsnr" v="62432" />
	</node>
<<<<<<< HEAD
	<node lat="59.10049722081518" lon="10.403619439905617" id="-20362">
		<tag k="name" v="Eidene" />
=======
	<node id="-428760" lat="59.1436083341" lon="10.4140861091">
		<tag k="name" v="Flekken" />
>>>>>>> e1d4bc35ff8a6074a6f2e91616a996b547c36f15
		<tag k="place" v="isolated_dwelling" />
		<tag k="ssr:stedsnr" v="62438" />
	</node>
<<<<<<< HEAD
	<node lat="59.07929721987147" lon="10.393025003332077" id="-20363">
		<tag k="name" v="Mostranda" />
		<tag k="old_name" v="Mostrand" />
		<tag k="ssr:stedsnr" v="62460" />
		<tag k="tourism" v="camp_site" />
	</node>
	<node lat="59.072086113723586" lon="10.40911665962264" id="-20364">
		<tag k="name" v="Hola" />
=======
	<node id="-428836" lat="59.2285833338" lon="10.4354388946">
		<tag k="name" v="Brua" />
		<tag k="place" v="village" />
		<tag k="ssr:stedsnr" v="938037" />
	</node>
	<node id="-429269" lat="59.2281444443" lon="10.4170111188">
		<tag k="name" v="Gipø nordre" />
>>>>>>> e1d4bc35ff8a6074a6f2e91616a996b547c36f15
		<tag k="place" v="farm" />
		<tag k="ssr:stedsnr" v="62462" />
	</node>
<<<<<<< HEAD
	<node lat="59.10284166237317" lon="10.429544442909979" id="-20375">
		<tag k="name" v="Søndre Holme" />
=======
	<node id="-429268" lat="59.2143499978" lon="10.4288527817">
		<tag k="name" v="Kjøle v" />
>>>>>>> e1d4bc35ff8a6074a6f2e91616a996b547c36f15
		<tag k="place" v="farm" />
		<tag k="ssr:stedsnr" v="86634" />
	</node>
<<<<<<< HEAD
	<node lat="59.21093571109567" lon="10.422697471902083" id="-20383">
		<tag k="alt_name" v="Fykås;Føikås" />
		<tag k="fixme" v="consider place=hamlet" />
		<tag k="name" v="Føykås" />
		<tag k="place" v="farm" />
		<tag k="ssr:stedsnr" v="87971" />
	</node>
	<node lat="59.10152711394651" lon="10.42289897803062" id="-20389">
		<tag k="fixme" v="consider place=hamlet" />
		<tag k="name" v="Rød" />
		<tag k="place" v="farm" />
		<tag k="ssr:stedsnr" v="122428" />
	</node>
	<node lat="59.242299995606906" lon="10.429925002212409" id="-20391">
		<tag k="name" v="Skjæret" />
		<tag k="place" v="farm" />
		<tag k="ssr:stedsnr" v="123013" />
	</node>
	<node lat="59.18083439630907" lon="10.44513776262261" id="-20392">
		<tag k="fixme" v="consider place=hamlet" />
		<tag k="name" v="Svensrød" />
		<tag k="place" v="farm" />
		<tag k="ssr:stedsnr" v="123094" />
	</node>
	<node lat="59.18436110985247" lon="10.36253888618153" id="-20393">
		<tag k="name" v="Storebukt" />
		<tag k="place" v="isolated_dwelling" />
		<tag k="ssr:stedsnr" v="123100" />
	</node>
	<node lat="59.21324200824811" lon="10.44649667028608" id="-20395">
		<tag k="name" v="Nes" />
		<tag k="place" v="hamlet" />
		<tag k="ssr:stedsnr" v="123041" />
	</node>
	<node lat="59.219160867154514" lon="10.429492132696192" id="-20396">
		<tag k="fixme" v="consider place=hamlet" />
		<tag k="name" v="Bjønnes" />
		<tag k="place" v="farm" />
		<tag k="ssr:stedsnr" v="123043" />
	</node>
	<node lat="59.126033754400716" lon="10.420633739931528" id="-20397">
		<tag k="fixme" v="consider place=hamlet" />
		<tag k="name" v="Engø" />
		<tag k="place" v="farm" />
		<tag k="ssr:stedsnr" v="123417" />
	</node>
	<node lat="59.22139444398641" lon="10.43949444706259" id="-20411">
		<tag k="name" v="Bugården" />
=======
	<node id="-429267" lat="59.071661112" lon="10.4365777809">
		<tag k="name" v="Megård" />
		<tag k="place" v="farm" />
		<tag k="ssr:stedsnr" v="571982" />
	</node>
	<node id="-428395" lat="59.2078083369" lon="10.3655555523">
		<tag k="name" v="Holmen" />
		<tag k="place" v="farm" />
		<tag k="ssr:stedsnr" v="244066" />
	</node>
	<node id="-428578" lat="59.1087027793" lon="10.4025194423">
		<tag k="name" v="Lindhøy" />
		<tag k="place" v="isolated_dwelling" />
		<tag k="ssr:stedsnr" v="511962" />
	</node>
	<node id="-428745" lat="59.1731166624" lon="10.3675888884">
		<tag k="name" v="Småvik" />
		<tag k="place" v="isolated_dwelling" />
		<tag k="ssr:stedsnr" v="693482" />
	</node>
	<node id="-428480" lat="59.198158329" lon="10.3670722274">
		<tag k="name" v="Glomstein" />
		<tag k="place" v="farm" />
		<tag k="ssr:stedsnr" v="244056" />
	</node>
	<node id="-428743" lat="59.2331749998" lon="10.4171416682">
		<tag k="name" v="Tandstad" />
		<tag k="place" v="village" />
		<tag k="ssr:stedsnr" v="692966" />
	</node>
	<node id="-429230" lat="59.2238583309" lon="10.446938887">
		<tag k="name" v="Neslund" />
		<tag k="place" v="farm" />
		<tag k="ssr:stedsnr" v="547062" />
	</node>
	<node id="-429249" lat="59.1348166668" lon="10.4071277825">
		<tag k="name" v="Geiteglova" />
		<tag k="place" v="isolated_dwelling" />
		<tag k="ssr:stedsnr" v="570168" />
	</node>
	<node id="-428736" lat="59.1768250002" lon="10.4464444375">
		<tag k="name" v="Middelborg" />
		<tag k="place" v="village" />
		<tag k="ssr:stedsnr" v="878975" />
	</node>
	<node id="-428735" lat="59.2538442942" lon="10.4249478905">
		<tag k="alt_name" v="Ørnes" />
		<tag k="name" v="Ørsnes" />
		<tag k="place" v="quarter" />
		<tag k="ssr:stedsnr" v="877034" />
	</node>
	<node id="-428407" lat="59.1116638931" lon="10.3914750004">
		<tag k="name" v="Rød" />
		<tag k="place" v="farm" />
		<tag k="ssr:stedsnr" v="244435" />
	</node>
	<node id="-429240" lat="59.1084500012" lon="10.4168277851">
		<tag k="fixme" v="consider place=suburb, village or hamlet" />
		<tag k="name" v="Ormelet" />
		<tag k="place" v="quarter" />
		<tag k="ssr:stedsnr" v="547459" />
	</node>
	<node id="-428727" lat="59.1198277753" lon="10.4310249983">
		<tag k="name" v="Gåsø" />
>>>>>>> e1d4bc35ff8a6074a6f2e91616a996b547c36f15
		<tag k="place" v="isolated_dwelling" />
		<tag k="ssr:stedsnr" v="146992" />
	</node>
<<<<<<< HEAD
	<node lat="59.21331666819004" lon="10.425102784730456" id="-20412">
		<tag k="name" v="Vollen" />
		<tag k="place" v="farm" />
		<tag k="ssr:stedsnr" v="146995" />
	</node>
	<node lat="59.159372217866874" lon="10.397416663221517" id="-20424">
		<tag k="name" v="Kynna gård" />
=======
	<node id="-429237" lat="59.147425" lon="10.4026999954">
		<tag k="name" v="Skauen" />
>>>>>>> e1d4bc35ff8a6074a6f2e91616a996b547c36f15
		<tag k="place" v="farm" />
		<tag k="ssr:stedsnr" v="146635" />
	</node>
<<<<<<< HEAD
	<node lat="59.15766666636731" lon="10.417155554701093" id="-20426">
		<tag k="name" v="Østre Kråkere" />
		<tag k="place" v="farm" />
		<tag k="ssr:stedsnr" v="146640" />
	</node>
	<node lat="59.179805554430665" lon="10.382791668053894" id="-20436">
		<tag k="name" v="Bjørndalen" />
=======
	<node id="-429236" lat="59.1465694485" lon="10.3453027759">
		<tag k="name" v="Tangen" />
		<tag k="place" v="farm" />
		<tag k="ssr:stedsnr" v="547128" />
	</node>
	<node id="-428723" lat="59.247530557" lon="10.3860000076">
		<tag k="name" v="Munkerekka" />
		<tag k="place" v="village" />
		<tag k="ssr:stedsnr" v="730011" />
	</node>
	<node id="-428722" lat="59.0701527815" lon="10.4070611106">
		<tag k="name" v="Gunnarsrød" />
>>>>>>> e1d4bc35ff8a6074a6f2e91616a996b547c36f15
		<tag k="place" v="farm" />
		<tag k="ssr:stedsnr" v="183065" />
	</node>
<<<<<<< HEAD
	<node lat="59.1876412661813" lon="10.446864708864776" id="-20437">
		<tag k="fixme" v="consider place=hamlet" />
		<tag k="name" v="Agerup" />
=======
	<node id="-428721" lat="59.0739805518" lon="10.4368805579">
		<tag k="name" v="Megarden" />
>>>>>>> e1d4bc35ff8a6074a6f2e91616a996b547c36f15
		<tag k="place" v="farm" />
		<tag k="ssr:stedsnr" v="183069" />
	</node>
<<<<<<< HEAD
	<node lat="59.113102780612884" lon="10.381894452243252" id="-20440">
		<tag k="alt_name" v="Bærstad" />
		<tag k="name" v="Berstad" />
		<tag k="place" v="farm" />
		<tag k="ssr:stedsnr" v="183379" />
	</node>
	<node lat="59.22018055350655" lon="10.453605561893125" id="-20447">
		<tag k="name" v="Nesbrygga" />
		<tag k="place" v="village" />
		<tag k="ssr:stedsnr" v="183038" />
	</node>
	<node lat="59.14296313135736" lon="10.399468235121548" id="-20453">
		<tag k="alt_name" v="Holtene;Havna;Holtan" />
		<tag k="name" v="Holtane" />
		<tag k="place" v="hamlet" />
		<tag k="ssr:stedsnr" v="184405" />
	</node>
	<node lat="59.13520167656938" lon="10.392886402910626" id="-20454">
		<tag k="fixme" v="consider place=hamlet" />
		<tag k="name" v="Sandbekk" />
=======
	<node id="-429232" lat="59.2106333293" lon="10.4090555575">
		<tag k="name" v="Meum" />
		<tag k="place" v="farm" />
		<tag k="ssr:stedsnr" v="547072" />
	</node>
	<node id="-429231" lat="59.2136222267" lon="10.457208336">
		<tag k="name" v="Duken" />
		<tag k="place" v="isolated_dwelling" />
		<tag k="ssr:stedsnr" v="547069" />
	</node>
	<node id="-428718" lat="59.0895833327" lon="10.4231388921">
		<tag k="name" v="Espevika" />
		<tag k="place" v="isolated_dwelling" />
		<tag k="ssr:stedsnr" v="729421" />
	</node>
	<node id="-429228" lat="59.2359194455" lon="10.4441250044">
		<tag k="name" v="Nordre Føyn" />
>>>>>>> e1d4bc35ff8a6074a6f2e91616a996b547c36f15
		<tag k="place" v="farm" />
		<tag k="ssr:stedsnr" v="184411" />
	</node>
<<<<<<< HEAD
	<node lat="59.1205388863988" lon="10.395466670567172" id="-20455">
		<tag k="alt_name" v="Øvre Haug" />
		<tag k="name" v="Haug" />
		<tag k="place" v="farm" />
		<tag k="ssr:stedsnr" v="184381" />
	</node>
	<node lat="59.12961944578557" lon="10.402797227032552" id="-20458">
		<tag k="name" v="Grimestadgrinda" />
		<tag k="place" v="hamlet" />
		<tag k="ssr:stedsnr" v="207208" />
	</node>
	<node lat="59.14277222656062" lon="10.342347213732866" id="-20461">
		<tag k="name" v="Hverven" />
=======
	<node id="-429219" lat="59.0639944415" lon="10.414241667">
		<tag k="name" v="Haukevika" />
		<tag k="ssr:stedsnr" v="426450" />
		<tag k="tourism" v="hotel" />
	</node>
	<node id="-429218" lat="59.0657166689" lon="10.4319666687">
		<tag k="name" v="Sønstegard" />
>>>>>>> e1d4bc35ff8a6074a6f2e91616a996b547c36f15
		<tag k="place" v="isolated_dwelling" />
		<tag k="ssr:stedsnr" v="207261" />
	</node>
<<<<<<< HEAD
	<node lat="59.14232778155499" lon="10.38757777979101" id="-20465">
		<tag k="name" v="Holme" />
		<tag k="place" v="isolated_dwelling" />
		<tag k="ssr:stedsnr" v="207221" />
	</node>
	<node lat="59.072763891935175" lon="10.40789167446074" id="-20468">
		<tag k="name" v="Hola" />
		<tag k="place" v="hamlet" />
		<tag k="ssr:stedsnr" v="207363" />
	</node>
	<node lat="59.08290555452384" lon="10.44287777667021" id="-20474">
		<tag k="name" v="Vestgarden" />
=======
	<node id="-429216" lat="59.1847722203" lon="10.4141166605">
		<tag k="name" v="Strengsdal" />
		<tag k="place" v="farm" />
		<tag k="ssr:stedsnr" v="426100" />
	</node>
	<node id="-429215" lat="59.1859500038" lon="10.4626472255">
		<tag k="name" v="Rønningen" />
>>>>>>> e1d4bc35ff8a6074a6f2e91616a996b547c36f15
		<tag k="place" v="farm" />
		<tag k="ssr:stedsnr" v="207639" />
	</node>
<<<<<<< HEAD
	<node lat="59.26220277557875" lon="10.39724444961989" id="-20477">
		<tag k="alt_name" v="Valhalle" />
		<tag k="name" v="Valhalla" />
		<tag k="place" v="quarter" />
		<tag k="ssr:stedsnr" v="207741" />
	</node>
	<node lat="59.23277332040407" lon="10.401566108820983" id="-20478">
		<tag k="alt_name" v="Prestegård" />
		<tag k="fixme" v="consider place=hamlet" />
		<tag k="name" v="Nøtterøy prestegård" />
=======
	<node id="-429214" lat="59.1975638885" lon="10.4270416651">
		<tag k="name" v="Kårød" />
>>>>>>> e1d4bc35ff8a6074a6f2e91616a996b547c36f15
		<tag k="place" v="farm" />
		<tag k="ssr:stedsnr" v="207964" />
	</node>
<<<<<<< HEAD
	<node lat="59.2147694438655" lon="10.428830547010637" id="-20480">
		<tag k="name" v="Vollen" />
=======
	<node id="-429212" lat="59.1959055549" lon="10.402900001">
		<tag k="name" v="Lofterød" />
>>>>>>> e1d4bc35ff8a6074a6f2e91616a996b547c36f15
		<tag k="place" v="farm" />
		<tag k="ssr:stedsnr" v="210075" />
	</node>
<<<<<<< HEAD
	<node lat="59.24190290990567" lon="10.419648124142178" id="-20485">
		<tag k="name" v="Smidsrød" />
		<tag k="place" v="hamlet" />
		<tag k="ssr:stedsnr" v="305008" />
	</node>
	<node lat="59.199729565932984" lon="10.415141350558736" id="-20487">
		<tag k="fixme" v="consider place=hamlet" />
		<tag k="name" v="Anildrød" />
=======
	<node id="-429211" lat="59.2172638845" lon="10.3759027769">
		<tag k="name" v="Sanderønningen" />
		<tag k="place" v="isolated_dwelling" />
		<tag k="ssr:stedsnr" v="426038" />
	</node>
	<node id="-428696" lat="59.1513472217" lon="10.3873472246">
		<tag k="name" v="Bukkeli" />
>>>>>>> e1d4bc35ff8a6074a6f2e91616a996b547c36f15
		<tag k="place" v="farm" />
		<tag k="ssr:stedsnr" v="305044" />
	</node>
<<<<<<< HEAD
	<node lat="59.19316111495891" lon="10.463463884564598" id="-20489">
		<tag k="name" v="Bukta" />
		<tag k="place" v="isolated_dwelling" />
		<tag k="ssr:stedsnr" v="305060" />
	</node>
	<node lat="59.19882500110462" lon="10.452225006076892" id="-20491">
		<tag k="name" v="Arås" />
		<tag k="place" v="isolated_dwelling" />
		<tag k="ssr:stedsnr" v="305064" />
	</node>
	<node lat="59.18334722467816" lon="10.377555559348863" id="-20492">
		<tag k="alt_name" v="Engrønning" />
		<tag k="name" v="Engrønningen" />
=======
	<node id="-429205" lat="59.2514638877" lon="10.4145694398">
		<tag k="alt_name" v="Teige" />
		<tag k="name" v="Teie" />
		<tag k="place" v="village" />
		<tag k="ssr:stedsnr" v="392042" />
	</node>
	<node id="-429204" lat="59.1994749996" lon="10.3863638887">
		<tag k="alt_name" v="Gurre" />
		<tag k="name" v="Gurød" />
>>>>>>> e1d4bc35ff8a6074a6f2e91616a996b547c36f15
		<tag k="place" v="farm" />
		<tag k="ssr:stedsnr" v="305086" />
	</node>
<<<<<<< HEAD
	<node lat="59.18651795192176" lon="10.408856549347572" id="-20493">
		<tag k="fixme" v="consider place=hamlet" />
		<tag k="name" v="Tjæregrav" />
		<tag k="place" v="farm" />
		<tag k="ssr:stedsnr" v="305091" />
	</node>
	<node lat="59.17480908645449" lon="10.36547236354683" id="-20496">
		<tag k="alt_name" v="Tennvik" />
		<tag k="name" v="Tenvik" />
		<tag k="place" v="hamlet" />
		<tag k="ssr:stedsnr" v="305101" />
	</node>
	<node lat="59.12631949830968" lon="10.409775325760183" id="-20497">
		<tag k="alt_name" v="Hulebakk" />
		<tag k="fixme" v="consider place=hamlet" />
		<tag k="name" v="Hulebak" />
		<tag k="place" v="farm" />
		<tag k="ssr:stedsnr" v="305399" />
	</node>
	<node lat="59.17311439555118" lon="10.368782654718405" id="-20498">
		<tag k="fixme" v="consider place=hamlet" />
		<tag k="name" v="Småvik" />
		<tag k="place" v="farm" />
		<tag k="ssr:stedsnr" v="323993" />
	</node>
	<node lat="59.16317777368339" lon="10.344705561969434" id="-20500">
		<tag k="name" v="Vestgården" />
		<tag k="place" v="farm" />
		<tag k="ssr:stedsnr" v="328252" />
	</node>
	<node lat="59.153524998391156" lon="10.405480557544484" id="-20506">
		<tag k="name" v="Lufta" />
		<tag k="place" v="isolated_dwelling" />
		<tag k="ssr:stedsnr" v="328646" />
	</node>
	<node lat="59.16130555188158" lon="10.390569437313044" id="-20508">
		<tag k="name" v="Lund" />
		<tag k="place" v="isolated_dwelling" />
		<tag k="ssr:stedsnr" v="328651" />
	</node>
	<node lat="59.19050390596105" lon="10.434595158654698" id="-20509">
		<tag k="fixme" v="consider place=hamlet" />
		<tag k="name" v="Bergsøen" />
=======
	<node id="-428398" lat="59.1962249986" lon="10.4591805573">
		<tag k="name" v="Sparrønningen" />
		<tag k="place" v="isolated_dwelling" />
		<tag k="ssr:stedsnr" v="244081" />
	</node>
	<node id="-429202" lat="59.1210861119" lon="10.3829888952">
		<tag k="name" v="Langvika" />
		<tag k="place" v="isolated_dwelling" />
		<tag k="ssr:stedsnr" v="390948" />
	</node>
	<node id="-428483" lat="59.1402222262" lon="10.40701667">
		<tag k="name" v="Holtekjær" />
		<tag k="place" v="farm" />
		<tag k="ssr:stedsnr" v="244410" />
	</node>
	<node id="-429199" lat="59.1172833372" lon="10.3957583281">
		<tag k="name" v="Fredtunfeltet" />
		<tag k="place" v="quarter" />
		<tag k="ssr:stedsnr" v="389649" />
	</node>
	<node id="-429196" lat="59.0913388919" lon="10.4310249958">
		<tag k="name" v="Kjellekrøk" />
>>>>>>> e1d4bc35ff8a6074a6f2e91616a996b547c36f15
		<tag k="place" v="farm" />
		<tag k="ssr:stedsnr" v="328932" />
	</node>
<<<<<<< HEAD
	<node lat="59.06720426291824" lon="10.442310755342808" id="-20518">
		<tag k="fixme" v="consider place=hamlet" />
		<tag k="name" v="Sønstegård" />
=======
	<node id="-429195" lat="59.0885527818" lon="10.4317166727">
		<tag k="name" v="Sand" />
>>>>>>> e1d4bc35ff8a6074a6f2e91616a996b547c36f15
		<tag k="place" v="farm" />
		<tag k="ssr:stedsnr" v="329982" />
	</node>
<<<<<<< HEAD
	<node lat="59.17503888740788" lon="10.47499445120532" id="-20523">
		<tag k="name" v="Vassholmen" />
=======
	<node id="-428680" lat="59.169105554" lon="10.4425250017">
		<tag k="name" v="Nestvik" />
>>>>>>> e1d4bc35ff8a6074a6f2e91616a996b547c36f15
		<tag k="place" v="farm" />
		<tag k="ssr:stedsnr" v="343380" />
	</node>
<<<<<<< HEAD
	<node lat="59.208100003782775" lon="10.43863622998733" id="-20530">
		<tag k="fixme" v="consider place=hamlet" />
		<tag k="name" v="Bergan" />
		<tag k="place" v="farm" />
		<tag k="ssr:stedsnr" v="365065" />
	</node>
	<node lat="59.19035520175609" lon="10.363787364651056" id="-20531">
		<tag k="name" v="Grøtterød" />
		<tag k="place" v="hamlet" />
		<tag k="ssr:stedsnr" v="365072" />
	</node>
	<node lat="59.19608486398976" lon="10.417748180755426" id="-20533">
		<tag k="fixme" v="consider place=hamlet" />
		<tag k="name" v="Skrafskjær" />
=======
	<node id="-428396" lat="59.191469447" lon="10.3732583316">
		<tag k="name" v="Horperød" />
		<tag k="place" v="farm" />
		<tag k="ssr:stedsnr" v="244074" />
	</node>
	<node id="-428481" lat="59.1500250017" lon="10.391386114">
		<tag k="name" v="Gjervåg" />
		<tag k="place" v="farm" />
		<tag k="ssr:stedsnr" v="244403" />
	</node>
	<node id="-429188" lat="59.1802777803" lon="10.4404499943">
		<tag k="fixme" v="consider place=hamlet" />
		<tag k="name" v="Torød" />
		<tag k="place" v="village" />
		<tag k="ssr:stedsnr" v="388941" />
	</node>
	<node id="-428673" lat="59.1522305517" lon="10.3376777714">
		<tag k="name" v="Båsløkka" />
		<tag k="place" v="isolated_dwelling" />
		<tag k="ssr:stedsnr" v="693345" />
	</node>
	<node id="-428672" lat="59.1502611124" lon="10.3395916665">
		<tag k="name" v="Tangen" />
>>>>>>> e1d4bc35ff8a6074a6f2e91616a996b547c36f15
		<tag k="place" v="farm" />
		<tag k="ssr:stedsnr" v="365075" />
	</node>
<<<<<<< HEAD
	<node lat="59.23613561704093" lon="10.417377987712802" id="-20535">
		<tag k="fixme" v="consider place=hamlet" />
		<tag k="name" v="Skarphaga" />
		<tag k="place" v="farm" />
		<tag k="ssr:stedsnr" v="365034" />
	</node>
	<node lat="59.16327589775" lon="10.352852951732434" id="-20538">
		<tag k="fixme" v="consider place=hamlet" />
		<tag k="name" v="Alby" />
		<tag k="place" v="farm" />
		<tag k="ssr:stedsnr" v="365112" />
	</node>
	<node lat="59.17283332988005" lon="10.446008335898288" id="-20540">
		<tag k="name" v="Stranda" />
=======
	<node id="-428671" lat="59.066880553" lon="10.4446027734">
		<tag k="name" v="Sønstegard" />
		<tag k="place" v="isolated_dwelling" />
		<tag k="ssr:stedsnr" v="693397" />
	</node>
	<node id="-428669" lat="59.2179194421" lon="10.452819451">
		<tag k="name" v="Breidablikk" />
		<tag k="place" v="isolated_dwelling" />
		<tag k="ssr:stedsnr" v="692987" />
	</node>
	<node id="-428650" lat="59.1518472198" lon="10.4089944369">
		<tag k="name" v="Fredheim" />
		<tag k="place" v="isolated_dwelling" />
		<tag k="ssr:stedsnr" v="510678" />
	</node>
	<node id="-429178" lat="59.0720861108" lon="10.442711112">
		<tag k="name" v="Lia" />
>>>>>>> e1d4bc35ff8a6074a6f2e91616a996b547c36f15
		<tag k="place" v="farm" />
		<tag k="ssr:stedsnr" v="365118" />
	</node>
<<<<<<< HEAD
	<node lat="59.07792748952873" lon="10.405535033324444" id="-20544">
=======
	<node id="-429177" lat="59.0779274895" lon="10.4055350333">
>>>>>>> e1d4bc35ff8a6074a6f2e91616a996b547c36f15
		<tag k="building" v="industrial" />
		<tag k="industrial" v="factory" />
		<tag k="name" v="Tjøme radio" />
		<tag k="ssr:stedsnr" v="365466" />
	</node>
<<<<<<< HEAD
	<node lat="59.07208611081663" lon="10.442711111961412" id="-20545">
		<tag k="name" v="Lia" />
=======
	<node id="-428662" lat="59.1461555564" lon="10.3462555526">
		<tag k="name" v="Søndre Tangen" />
>>>>>>> e1d4bc35ff8a6074a6f2e91616a996b547c36f15
		<tag k="place" v="farm" />
		<tag k="ssr:stedsnr" v="365470" />
	</node>
<<<<<<< HEAD
	<node lat="59.20153889285519" lon="10.40632499463273" id="-20553">
		<tag k="name" v="Håvaldsrød" />
		<tag k="place" v="isolated_dwelling" />
		<tag k="ssr:stedsnr" v="388918" />
	</node>
	<node lat="59.12154722452456" lon="10.397975004180697" id="-20555">
		<tag k="name" v="Vestre Haug" />
=======
	<node id="-429173" lat="59.1728333299" lon="10.4460083359">
		<tag k="name" v="Stranda" />
		<tag k="place" v="farm" />
		<tag k="ssr:stedsnr" v="365118" />
	</node>
	<node id="-429201" lat="59.2177916697" lon="10.4452027733">
		<tag k="name" v="Nes nordre" />
		<tag k="place" v="farm" />
		<tag k="ssr:stedsnr" v="389988" />
	</node>
	<node id="-429171" lat="59.1634055566" lon="10.3525388963">
		<tag k="name" v="Alby" />
>>>>>>> e1d4bc35ff8a6074a6f2e91616a996b547c36f15
		<tag k="place" v="farm" />
		<tag k="ssr:stedsnr" v="389218" />
	</node>
<<<<<<< HEAD
	<node lat="59.11728333722154" lon="10.395758328053445" id="-20560">
		<tag k="name" v="Fredtunfeltet" />
		<tag k="place" v="quarter" />
		<tag k="ssr:stedsnr" v="389649" />
	</node>
	<node lat="59.15805833569212" lon="10.40495833806517" id="-20566">
		<tag k="fixme" v="consider place=suburb, village or hamlet" />
		<tag k="name" v="Kråkererønningen" />
=======
	<node id="-429169" lat="59.1962888859" lon="10.4173055584">
		<tag k="name" v="Skrafskjær" />
		<tag k="place" v="farm" />
		<tag k="ssr:stedsnr" v="365075" />
	</node>
	<node id="-428656" lat="59.111149999" lon="10.4028166651">
		<tag k="name" v="Solvang" />
>>>>>>> e1d4bc35ff8a6074a6f2e91616a996b547c36f15
		<tag k="place" v="quarter" />
		<tag k="ssr:stedsnr" v="389670" />
	</node>
<<<<<<< HEAD
	<node lat="59.19947499963723" lon="10.386363888715854" id="-20570">
		<tag k="alt_name" v="Gurre" />
		<tag k="name" v="Gurød" />
=======
	<node id="-429167" lat="59.1903500011" lon="10.3637916736">
		<tag k="name" v="Grøtterød" />
>>>>>>> e1d4bc35ff8a6074a6f2e91616a996b547c36f15
		<tag k="place" v="farm" />
		<tag k="ssr:stedsnr" v="390971" />
	</node>
<<<<<<< HEAD
	<node lat="59.172867202985465" lon="10.383295262717699" id="-20576">
		<tag k="name" v="Kjøpmannskjær" />
		<tag k="place" v="hamlet" />
		<tag k="ssr:stedsnr" v="426119" />
	</node>
	<node lat="59.21726388448331" lon="10.375902776914943" id="-20578">
		<tag k="name" v="Sanderønningen" />
		<tag k="place" v="isolated_dwelling" />
		<tag k="ssr:stedsnr" v="426038" />
	</node>
	<node lat="59.196902608629195" lon="10.403849302402133" id="-20579">
		<tag k="fixme" v="consider place=hamlet" />
		<tag k="name" v="Lofterød" />
=======
	<node id="-429166" lat="59.2080583361" lon="10.4392694517">
		<tag k="name" v="Bergan" />
>>>>>>> e1d4bc35ff8a6074a6f2e91616a996b547c36f15
		<tag k="place" v="farm" />
		<tag k="ssr:stedsnr" v="426064" />
	</node>
	<node lat="59.197513188583635" lon="10.427291867912077" id="-20581">
		<tag k="fixme" v="consider place=hamlet" />
		<tag k="name" v="Kårød" />
		<tag k="place" v="farm" />
		<tag k="ssr:stedsnr" v="426075" />
	</node>
	<node lat="59.18595000384633" lon="10.462647225451171" id="-20582">
		<tag k="name" v="Rønningen" />
		<tag k="place" v="farm" />
		<tag k="ssr:stedsnr" v="426080" />
	</node>
	<node lat="59.06571666889805" lon="10.431966668689387" id="-20583">
		<tag k="name" v="Sønstegard" />
		<tag k="place" v="isolated_dwelling" />
		<tag k="ssr:stedsnr" v="426446" />
	</node>
	<node lat="59.0639944415099" lon="10.41424166699487" id="-20584">
		<tag k="name" v="Haukevika" />
		<tag k="ssr:stedsnr" v="426450" />
		<tag k="tourism" v="hotel" />
	</node>
	<node lat="59.15184721978171" lon="10.40899443686162" id="-20597">
		<tag k="name" v="Fredheim" />
		<tag k="place" v="isolated_dwelling" />
		<tag k="ssr:stedsnr" v="510678" />
	</node>
<<<<<<< HEAD
	<node lat="59.09900277458239" lon="10.413391669271197" id="-20599">
=======
	<node id="-428652" lat="59.0990027746" lon="10.4133916693">
>>>>>>> e1d4bc35ff8a6074a6f2e91616a996b547c36f15
		<tag k="name" v="Ødekjære" />
		<tag k="ssr:stedsnr" v="510693" />
		<tag k="tourism" v="hotel" />
	</node>
<<<<<<< HEAD
	<node lat="59.108702779305" lon="10.402519442293984" id="-20604">
		<tag k="name" v="Lindhøy" />
		<tag k="place" v="isolated_dwelling" />
		<tag k="ssr:stedsnr" v="511962" />
	</node>
	<node lat="59.146562186646925" lon="10.346393652809489" id="-20609">
		<tag k="fixme" v="consider place=hamlet" />
		<tag k="name" v="Tangen" />
=======
	<node id="-429162" lat="59.2362138849" lon="10.4170166604">
		<tag k="name" v="Skarphaga" />
>>>>>>> e1d4bc35ff8a6074a6f2e91616a996b547c36f15
		<tag k="place" v="farm" />
		<tag k="ssr:stedsnr" v="547128" />
	</node>
<<<<<<< HEAD
	<node lat="59.223858330898736" lon="10.446938887018932" id="-20611">
		<tag k="name" v="Neslund" />
=======
	<node id="-428649" lat="59.1552944477" lon="10.3909166624">
		<tag k="name" v="Lille Gjervåg" />
>>>>>>> e1d4bc35ff8a6074a6f2e91616a996b547c36f15
		<tag k="place" v="farm" />
		<tag k="ssr:stedsnr" v="547062" />
	</node>
<<<<<<< HEAD
	<node lat="59.14742499995425" lon="10.402699995362571" id="-20615">
		<tag k="name" v="Skauen" />
=======
	<node id="-429160" lat="59.2249111111" lon="10.3958527844">
		<tag k="name" v="Sande" />
>>>>>>> e1d4bc35ff8a6074a6f2e91616a996b547c36f15
		<tag k="place" v="farm" />
		<tag k="ssr:stedsnr" v="547423" />
	</node>
<<<<<<< HEAD
	<node lat="59.08403448439102" lon="10.431752991704412" id="-20617">
		<tag k="fixme" v="consider place=hamlet" />
		<tag k="name" v="Nes" />
		<tag k="place" v="farm" />
		<tag k="ssr:stedsnr" v="547444" />
	</node>
	<node lat="59.10846647085271" lon="10.416760585220526" id="-20618">
		<tag k="fixme" v="consider place=suburb, village or hamlet" />
		<tag k="name" v="Ormelet" />
		<tag k="place" v="quarter" />
		<tag k="ssr:stedsnr" v="547459" />
	</node>
	<node lat="59.13481666679223" lon="10.407127782483384" id="-20622">
		<tag k="name" v="Geiteglova" />
		<tag k="place" v="isolated_dwelling" />
		<tag k="ssr:stedsnr" v="570168" />
	</node>
	<node lat="59.07166111203334" lon="10.4365777808677" id="-20643">
		<tag k="name" v="Megård" />
		<tag k="place" v="farm" />
		<tag k="ssr:stedsnr" v="571982" />
	</node>
	<node lat="59.21434999784284" lon="10.428852781664862" id="-20644">
		<tag k="name" v="Kjøle v" />
=======
	<node id="-429278" lat="59.2109138859" lon="10.3970861066">
		<tag k="name" v="Hovland" />
		<tag k="place" v="farm" />
		<tag k="ssr:stedsnr" v="608048" />
	</node>
	<node id="-429154" lat="59.1750388874" lon="10.4749944512">
		<tag k="name" v="Vassholmen" />
>>>>>>> e1d4bc35ff8a6074a6f2e91616a996b547c36f15
		<tag k="place" v="farm" />
		<tag k="ssr:stedsnr" v="571988" />
	</node>
<<<<<<< HEAD
	<node lat="59.22814444434238" lon="10.417011118812615" id="-20645">
		<tag k="fixme" v="consider place=hamlet" />
		<tag k="name" v="Gipø nordre" />
		<tag k="place" v="farm" />
		<tag k="ssr:stedsnr" v="571993" />
	</node>
	<node lat="59.231076589824525" lon="10.447401866639485" id="-20651">
		<tag k="fixme" v="consider place=hamlet" />
		<tag k="name" v="Søndre Føyn" />
		<tag k="place" v="farm" />
		<tag k="ssr:stedsnr" v="608029" />
	</node>
	<node lat="59.072023586081066" lon="10.399822273839037" id="-20655">
		<tag k="fixme" v="consider place=hamlet" />
		<tag k="name" v="Mo" />
=======
	<node id="-428640" lat="59.1353388879" lon="10.3821388921">
		<tag k="name" v="Svelvik" />
		<tag k="place" v="isolated_dwelling" />
		<tag k="ssr:stedsnr" v="487436" />
	</node>
	<node id="-429150" lat="59.0667638854" lon="10.4420583348">
		<tag k="name" v="Sønstegård" />
>>>>>>> e1d4bc35ff8a6074a6f2e91616a996b547c36f15
		<tag k="place" v="farm" />
		<tag k="ssr:stedsnr" v="608474" />
	</node>
<<<<<<< HEAD
	<node lat="59.199571307948545" lon="10.380262480941402" id="-20656">
		<tag k="fixme" v="consider place=hamlet" />
		<tag k="name" v="Snarrønningen" />
=======
	<node id="-428637" lat="59.12940278" lon="10.4309666734">
		<tag k="name" v="Hønsø" />
>>>>>>> e1d4bc35ff8a6074a6f2e91616a996b547c36f15
		<tag k="place" v="farm" />
		<tag k="ssr:stedsnr" v="626990" />
	</node>
<<<<<<< HEAD
	<node lat="59.18279999874303" lon="10.370158332795066" id="-20665">
		<tag k="name" v="Skjerpe" />
=======
	<node id="-428635" lat="59.2099499994" lon="10.3900944361">
		<tag k="name" v="Støyten" />
>>>>>>> e1d4bc35ff8a6074a6f2e91616a996b547c36f15
		<tag k="place" v="farm" />
		<tag k="ssr:stedsnr" v="631426" />
	</node>
<<<<<<< HEAD
	<node lat="59.203616663710484" lon="10.424288885920793" id="-20672">
		<tag k="name" v="Furulund" />
=======
	<node id="-428632" lat="59.2396750002" lon="10.427838893">
		<tag k="name" v="Sjølyst" />
>>>>>>> e1d4bc35ff8a6074a6f2e91616a996b547c36f15
		<tag k="place" v="farm" />
		<tag k="ssr:stedsnr" v="631941" />
	</node>
<<<<<<< HEAD
	<node lat="59.19239584260125" lon="10.445340179617201" id="-20680">
		<tag k="alt_name" v="Petterrød" />
		<tag k="fixme" v="consider place=hamlet" />
		<tag k="name" v="Petterød" />
		<tag k="place" v="farm" />
		<tag k="ssr:stedsnr" v="633971" />
	</node>
	<node lat="59.10024910846645" lon="10.412593019991045" id="-20687">
		<tag k="fixme" v="consider place=hamlet" />
		<tag k="name" v="Ødekjære" />
=======
	<node id="-428703" lat="59.1827999987" lon="10.3701583328">
		<tag k="name" v="Skjerpe" />
		<tag k="place" v="farm" />
		<tag k="ssr:stedsnr" v="631426" />
	</node>
	<node id="-428630" lat="59.2402999965" lon="10.4055277695">
		<tag k="name" v="Kjærnås" />
>>>>>>> e1d4bc35ff8a6074a6f2e91616a996b547c36f15
		<tag k="place" v="farm" />
		<tag k="ssr:stedsnr" v="668449" />
	</node>
<<<<<<< HEAD
	<node lat="59.23673844020524" lon="10.424182776881755" id="-20689">
		<tag k="name" v="Øre" />
=======
	<node id="-428629" lat="59.23212778" lon="10.3859027825">
		<tag k="name" v="Hella" />
>>>>>>> e1d4bc35ff8a6074a6f2e91616a996b547c36f15
		<tag k="place" v="hamlet" />
		<tag k="ssr:stedsnr" v="669023" />
	</node>
<<<<<<< HEAD
	<node lat="59.12357499781053" lon="10.386825004573522" id="-20694">
		<tag k="fixme" v="consider place=hamlet" />
		<tag k="name" v="Budal" />
		<tag k="place" v="farm" />
		<tag k="ssr:stedsnr" v="669369" />
	</node>
	<node lat="59.07934786295931" lon="10.40013999368541" id="-20699">
		<tag k="fixme" v="consider place=hamlet" />
=======
	<node id="-428628" lat="59.2408666684" lon="10.3847999969">
		<tag k="name" v="Tørkopp" />
		<tag k="place" v="farm" />
		<tag k="ssr:stedsnr" v="487003" />
	</node>
	<node id="-429141" lat="59.1613055519" lon="10.3905694373">
		<tag k="name" v="Lund" />
		<tag k="place" v="isolated_dwelling" />
		<tag k="ssr:stedsnr" v="328651" />
	</node>
	<node id="-429286" lat="59.0719638881" lon="10.4011611068">
		<tag k="name" v="Mo" />
		<tag k="place" v="farm" />
		<tag k="ssr:stedsnr" v="608474" />
	</node>
	<node id="-428624" lat="59.0793861118" lon="10.4005805528">
>>>>>>> e1d4bc35ff8a6074a6f2e91616a996b547c36f15
		<tag k="name" v="Treidene" />
		<tag k="place" v="farm" />
		<tag k="ssr:stedsnr" v="669470" />
	</node>
<<<<<<< HEAD
	<node lat="59.105460568763974" lon="10.428809111463822" id="-20703">
		<tag k="alt_name" v="Nordre Holme" />
		<tag k="fixme" v="consider place=hamlet" />
		<tag k="name" v="Holme" />
		<tag k="place" v="farm" />
		<tag k="ssr:stedsnr" v="729440" />
	</node>
	<node lat="59.0724634047496" lon="10.436009607637413" id="-20704">
		<tag k="fixme" v="consider place=hamlet" />
		<tag k="name" v="Megarden" />
		<tag k="place" v="farm" />
		<tag k="ssr:stedsnr" v="729457" />
	</node>
	<node lat="59.07066458808462" lon="10.40645787405563" id="-20705">
		<tag k="fixme" v="consider place=hamlet" />
		<tag k="name" v="Gunnarsrød" />
=======
	<node id="-428728" lat="59.1177722255" lon="10.395130554">
		<tag k="alt_name" v="Kirkelyrønningen" />
		<tag k="name" v="Kirkely" />
		<tag k="place" v="isolated_dwelling" />
		<tag k="ssr:stedsnr" v="730402" />
	</node>
	<node id="-429134" lat="59.0927111141" lon="10.4061499948">
		<tag k="name" v="Dagali" />
		<tag k="place" v="isolated_dwelling" />
		<tag k="ssr:stedsnr" v="328610" />
	</node>
	<node id="-428619" lat="59.1235749978" lon="10.3868250046">
		<tag k="name" v="Budal" />
>>>>>>> e1d4bc35ff8a6074a6f2e91616a996b547c36f15
		<tag k="place" v="farm" />
		<tag k="ssr:stedsnr" v="729459" />
	</node>
<<<<<<< HEAD
	<node lat="59.11982777530559" lon="10.43102499828151" id="-20713">
		<tag k="name" v="Gåsø" />
=======
	<node id="-429130" lat="59.1511277801" lon="10.3523527707">
		<tag k="name" v="Kriken" />
>>>>>>> e1d4bc35ff8a6074a6f2e91616a996b547c36f15
		<tag k="place" v="isolated_dwelling" />
		<tag k="ssr:stedsnr" v="730400" />
	</node>
<<<<<<< HEAD
	<node lat="59.117772225508915" lon="10.395130553976983" id="-20714">
		<tag k="alt_name" v="Kirkelyrønningen" />
		<tag k="name" v="Kirkely" />
		<tag k="place" v="isolated_dwelling" />
		<tag k="ssr:stedsnr" v="730402" />
	</node>
	<node lat="59.12179167040992" lon="10.39638611550016" id="-20723">
		<tag k="name" v="Øvre Haug" />
=======
	<node id="-429129" lat="59.1631777737" lon="10.344705562">
		<tag k="name" v="Vestgården" />
		<tag k="place" v="farm" />
		<tag k="ssr:stedsnr" v="328252" />
	</node>
	<node id="-428616" lat="59.1513305552" lon="10.3614361183">
		<tag k="name" v="Brekke" />
		<tag k="place" v="farm" />
		<tag k="ssr:stedsnr" v="669101" />
	</node>
	<node id="-429127" lat="59.1731249984" lon="10.3675111191">
		<tag k="name" v="Småvik" />
>>>>>>> e1d4bc35ff8a6074a6f2e91616a996b547c36f15
		<tag k="place" v="farm" />
		<tag k="ssr:stedsnr" v="753182" />
	</node>
<<<<<<< HEAD
	<node lat="59.16447777674625" lon="10.344250001423408" id="-20731">
		<tag k="name" v="Vestgården" />
		<tag k="place" v="farm" />
		<tag k="ssr:stedsnr" v="753393" />
	</node>
	<node lat="59.09780833132385" lon="10.394863897358016" id="-20733">
		<tag k="name" v="Gon" />
		<tag k="place" v="locality" />
		<tag k="ssr:stedsnr" v="753589" />
	</node>
	<node lat="59.11436111056541" lon="10.406836108599805" id="-20734">
		<tag k="name" v="Solvangfeltet" />
		<tag k="place" v="quarter" />
		<tag k="ssr:stedsnr" v="753597" />
	</node>
	<node lat="59.21824722633029" lon="10.439755555089107" id="-20737">
		<tag k="name" v="Belgen" />
		<tag k="place" v="farm" />
		<tag k="ssr:stedsnr" v="753990" />
	</node>
	<node lat="59.179119664457936" lon="10.433740925421365" id="-20747">
		<tag k="alt_name" v="Haukmyr" />
		<tag k="fixme" v="consider place=hamlet" />
		<tag k="name" v="Haukemyr" />
=======
	<node id="-428612" lat="59.2183083358" lon="10.4190777705">
		<tag k="name" v="Sem" />
		<tag k="place" v="farm" />
		<tag k="ssr:stedsnr" v="669027" />
	</node>
	<node id="-429123" lat="59.1357861148" lon="10.4048611072">
		<tag k="name" v="Grimestad" />
		<tag k="place" v="isolated_dwelling" />
		<tag k="ssr:stedsnr" v="305424" />
	</node>
	<node id="-429122" lat="59.1499361096" lon="10.4230972266">
		<tag k="name" v="Vallekjær" />
		<tag k="place" v="isolated_dwelling" />
		<tag k="ssr:stedsnr" v="305414" />
	</node>
	<node id="-429121" lat="59.12608889" lon="10.4088305482">
		<tag k="alt_name" v="Hulebakk" />
		<tag k="name" v="Hulebak" />
		<tag k="place" v="farm" />
		<tag k="ssr:stedsnr" v="305399" />
	</node>
	<node id="-429120" lat="59.1571999965" lon="10.389025006">
		<tag k="name" v="Søndre Sundene" />
		<tag k="place" v="farm" />
		<tag k="ssr:stedsnr" v="305111" />
	</node>
	<node id="-429119" lat="59.1723638856" lon="10.4101111182">
		<tag k="name" v="Strengsdal" />
>>>>>>> e1d4bc35ff8a6074a6f2e91616a996b547c36f15
		<tag k="place" v="farm" />
		<tag k="ssr:stedsnr" v="790067" />
	</node>
<<<<<<< HEAD
	<node lat="59.18643593760501" lon="10.3689781647797" id="-20748">
		<tag k="fixme" v="consider place=hamlet" />
		<tag k="name" v="Skjerpe" />
=======
	<node id="-429118" lat="59.1755555565" lon="10.413622227">
		<tag k="name" v="Rønningen" />
>>>>>>> e1d4bc35ff8a6074a6f2e91616a996b547c36f15
		<tag k="place" v="farm" />
		<tag k="ssr:stedsnr" v="790079" />
	</node>
<<<<<<< HEAD
	<node lat="59.16968575923468" lon="10.424153349082847" id="-20750">
		<tag k="name" v="Buerstad" />
		<tag k="place" v="hamlet" />
		<tag k="ssr:stedsnr" v="790088" />
	</node>
	<node lat="59.08245821764319" lon="10.404801314466114" id="-20751">
		<tag k="fixme" v="consider place=hamlet" />
		<tag k="name" v="Kolabekk" />
		<tag k="place" v="farm" />
		<tag k="ssr:stedsnr" v="790417" />
	</node>
	<node lat="59.07506110817111" lon="10.452988893788474" id="-20761">
		<tag k="name" v="Fyn" />
=======
	<node id="-429117" lat="59.1748000031" lon="10.3654888858">
		<tag k="alt_name" v="Tennvik" />
		<tag k="name" v="Tenvik" />
		<tag k="place" v="hamlet" />
		<tag k="ssr:stedsnr" v="305101" />
	</node>
	<node id="-429114" lat="59.1865249982" lon="10.4089555563">
		<tag k="name" v="Tjæregrav" />
		<tag k="place" v="farm" />
		<tag k="ssr:stedsnr" v="305091" />
	</node>
	<node id="-429113" lat="59.1833472247" lon="10.3775555593">
		<tag k="alt_name" v="Engrønning" />
		<tag k="name" v="Engrønningen" />
		<tag k="place" v="farm" />
		<tag k="ssr:stedsnr" v="305086" />
	</node>
	<node id="-429112" lat="59.1988250011" lon="10.4522250061">
		<tag k="name" v="Arås" />
		<tag k="place" v="isolated_dwelling" />
		<tag k="ssr:stedsnr" v="305064" />
	</node>
	<node id="-428765" lat="59.2294666677" lon="10.4579749916">
		<tag k="name" v="Myra" />
		<tag k="place" v="farm" />
		<tag k="ssr:stedsnr" v="912022" />
	</node>
	<node id="-429110" lat="59.193161115" lon="10.4634638846">
		<tag k="name" v="Bukta" />
>>>>>>> e1d4bc35ff8a6074a6f2e91616a996b547c36f15
		<tag k="place" v="isolated_dwelling" />
		<tag k="ssr:stedsnr" v="790464" />
	</node>
<<<<<<< HEAD
	<node lat="59.194019919062036" lon="10.391891554248085" id="-20764">
		<tag k="fixme" v="consider place=hamlet" />
		<tag k="name" v="Possås" />
=======
	<node id="-429108" lat="59.1996888853" lon="10.4150500002">
		<tag k="name" v="Anildrød" />
>>>>>>> e1d4bc35ff8a6074a6f2e91616a996b547c36f15
		<tag k="place" v="farm" />
		<tag k="ssr:stedsnr" v="809046" />
	</node>
<<<<<<< HEAD
	<node lat="59.08608055784426" lon="10.399536113621082" id="-20774">
		<tag k="name" v="Kjøye" />
		<tag k="place" v="locality" />
		<tag k="ssr:stedsnr" v="814641" />
	</node>
	<node lat="59.074838887921" lon="10.442116674629633" id="-20780">
		<tag k="name" v="Austheim" />
		<tag k="place" v="hamlet" />
		<tag k="ssr:stedsnr" v="814400" />
	</node>
	<node lat="59.066811110132534" lon="10.441844451095415" id="-20782">
		<tag k="name" v="Høgenhatt" />
		<tag k="place" v="farm" />
		<tag k="ssr:stedsnr" v="814403" />
	</node>
	<node lat="59.23615277563607" lon="10.456580558185875" id="-20785">
		<tag k="name" v="Myra" />
		<tag k="place" v="isolated_dwelling" />
		<tag k="ssr:stedsnr" v="814970" />
	</node>
	<node lat="59.236297219174496" lon="10.448183340610651" id="-20786">
		<tag k="name" v="Nordål" />
=======
	<node id="-429396" lat="59.0668111101" lon="10.4418444511">
		<tag k="name" v="Høgenhatt" />
		<tag k="place" v="farm" />
		<tag k="ssr:stedsnr" v="814403" />
	</node>
	<node id="-429104" lat="59.2418527778" lon="10.419830558">
		<tag k="name" v="Smidsrød" />
		<tag k="place" v="farm" />
		<tag k="ssr:stedsnr" v="305008" />
	</node>
	<node id="-428590" lat="59.1213265754" lon="10.4227677227">
		<tag k="name" v="Engøbrygga" />
		<tag k="place" v="farm" />
		<tag k="ssr:stedsnr" v="427412" />
	</node>
	<node id="-429101" lat="59.2147694439" lon="10.428830547">
		<tag k="name" v="Vollen" />
>>>>>>> e1d4bc35ff8a6074a6f2e91616a996b547c36f15
		<tag k="place" v="farm" />
		<tag k="ssr:stedsnr" v="817042" />
	</node>
<<<<<<< HEAD
	<node lat="59.246427774973355" lon="10.429186104462069" id="-20788">
		<tag k="name" v="Hjertnes" />
=======
	<node id="-429233" lat="59.1888277813" lon="10.4173527702">
		<tag k="name" v="Krokgrinda" />
		<tag k="place" v="farm" />
		<tag k="ssr:stedsnr" v="547079" />
	</node>
	<node id="-428551" lat="59.1398000021" lon="10.4053777716">
		<tag k="amenity" v="nursing_home" />
		<tag k="name" v="Tjøme pleiehjem" />
		<tag k="ssr:stedsnr" v="389216" />
	</node>
	<node id="-429096" lat="59.2323250017" lon="10.4008583324">
		<tag k="name" v="Prestegård" />
>>>>>>> e1d4bc35ff8a6074a6f2e91616a996b547c36f15
		<tag k="place" v="farm" />
		<tag k="ssr:stedsnr" v="851011" />
	</node>
<<<<<<< HEAD
	<node lat="59.23154016555976" lon="10.41693203584792" id="-20789">
		<tag k="name" v="Tanstad" />
		<tag k="place" v="hamlet" />
		<tag k="ssr:stedsnr" v="851018" />
	</node>
	<node lat="59.21670565791586" lon="10.40440182859757" id="-20790">
		<tag k="fixme" v="consider place=hamlet" />
		<tag k="name" v="Stangeby" />
		<tag k="place" v="farm" />
		<tag k="ssr:stedsnr" v="851039" />
	</node>
	<node lat="59.21115000207746" lon="10.556138882857732" id="-20795">
		<tag k="name" v="Grevestuen" />
=======
	<node id="-428583" lat="59.1728861131" lon="10.3833472197">
		<tag k="name" v="Kjøpmannskjær" />
		<tag k="place" v="hamlet" />
		<tag k="ssr:stedsnr" v="426119" />
	</node>
	<node id="-428582" lat="59.2262916635" lon="10.4074472232">
		<tag k="fixme" v="consider place=suburb, village or hamlet" />
		<tag k="name" v="Borgheim" />
		<tag k="place" v="quarter" />
		<tag k="ssr:stedsnr" v="512325" />
	</node>
	<node id="-429093" lat="59.2622027756" lon="10.3972444496">
		<tag k="alt_name" v="Valhalle" />
		<tag k="name" v="Valhalla" />
		<tag k="place" v="quarter" />
		<tag k="ssr:stedsnr" v="207741" />
	</node>
	<node id="-429090" lat="59.0829055545" lon="10.4428777767">
		<tag k="name" v="Vestgarden" />
		<tag k="place" v="farm" />
		<tag k="ssr:stedsnr" v="207639" />
	</node>
	<node id="-428720" lat="59.1057249961" lon="10.4295249975">
		<tag k="alt_name" v="Nordre Holme" />
		<tag k="name" v="Holme" />
		<tag k="place" v="farm" />
		<tag k="ssr:stedsnr" v="729440" />
	</node>
	<node id="-428611" lat="59.2367472194" lon="10.4239083267">
		<tag k="name" v="Øre" />
		<tag k="place" v="farm" />
		<tag k="ssr:stedsnr" v="669023" />
	</node>
	<node id="-428372" lat="59.1796500006" lon="10.3880055607">
		<tag k="name" v="Landsrød" />
		<tag k="place" v="farm" />
		<tag k="ssr:stedsnr" v="1110" />
	</node>
	<node id="-429084" lat="59.1020833359" lon="10.4223388956">
		<tag k="name" v="Rød" />
>>>>>>> e1d4bc35ff8a6074a6f2e91616a996b547c36f15
		<tag k="place" v="isolated_dwelling" />
		<tag k="ssr:stedsnr" v="851057" />
	</node>
<<<<<<< HEAD
	<node lat="59.200832524619784" lon="10.434905920543374" id="-20796">
		<tag k="fixme" v="consider place=hamlet" />
		<tag k="name" v="Roppestad" />
		<tag k="place" v="farm" />
		<tag k="ssr:stedsnr" v="851069" />
	</node>
	<node lat="59.15589831072899" lon="10.35339990526502" id="-20797">
		<tag k="fixme" v="consider place=hamlet" />
		<tag k="name" v="Kriken" />
		<tag k="place" v="farm" />
		<tag k="ssr:stedsnr" v="851117" />
	</node>
	<node lat="59.10550561604562" lon="10.405010177557276" id="-20798">
		<tag k="name" v="Kjære" />
		<tag k="place" v="hamlet" />
		<tag k="ssr:stedsnr" v="851400" />
	</node>
	<node lat="59.11787222552334" lon="10.416324996575213" id="-20800">
		<tag k="name" v="Dalen" />
=======
	<node id="-429083" lat="59.1083361132" lon="10.4022055483">
		<tag k="amenity" v="school" />
		<tag k="name" v="Lindhøy skole" />
		<tag k="ssr:stedsnr" v="207606" />
	</node>
	<node id="-428764" lat="59.2308777757" lon="10.3997972265">
		<tag k="name" v="Nyhus" />
		<tag k="place" v="farm" />
		<tag k="ssr:stedsnr" v="912020" />
	</node>
	<node id="-428781" lat="59.1767499987" lon="10.4369333349">
		<tag k="name" v="Tømmereik" />
		<tag k="place" v="farm" />
		<tag k="ssr:stedsnr" v="912109" />
	</node>
	<node id="-428567" lat="59.1407083306" lon="10.403858338">
		<tag k="name" v="Glova" />
		<tag k="place" v="isolated_dwelling" />
		<tag k="ssr:stedsnr" v="510201" />
	</node>
	<node id="-429139" lat="59.1535249984" lon="10.4054805575">
		<tag k="name" v="Lufta" />
		<tag k="place" v="isolated_dwelling" />
		<tag k="ssr:stedsnr" v="328646" />
	</node>
	<node id="-429077" lat="59.0727638919" lon="10.4078916745">
		<tag k="name" v="Hola" />
		<tag k="place" v="hamlet" />
		<tag k="ssr:stedsnr" v="207363" />
	</node>
	<node id="-429075" lat="59.1450555548" lon="10.3650305475">
		<tag k="name" v="Oslebakke" />
		<tag k="place" v="isolated_dwelling" />
		<tag k="ssr:stedsnr" v="207291" />
	</node>
	<node id="-428560" lat="59.1580583357" lon="10.4049583381">
		<tag k="fixme" v="consider place=suburb, village or hamlet" />
		<tag k="name" v="Kråkererønningen" />
		<tag k="place" v="quarter" />
		<tag k="ssr:stedsnr" v="389670" />
	</node>
	<node id="-429071" lat="59.1427722266" lon="10.3423472137">
		<tag k="name" v="Hverven" />
		<tag k="place" v="isolated_dwelling" />
		<tag k="ssr:stedsnr" v="207261" />
	</node>
	<node id="-429068" lat="59.1423277816" lon="10.3875777798">
		<tag k="name" v="Holme" />
>>>>>>> e1d4bc35ff8a6074a6f2e91616a996b547c36f15
		<tag k="place" v="isolated_dwelling" />
		<tag k="ssr:stedsnr" v="851365" />
	</node>
<<<<<<< HEAD
	<node lat="59.12333581018547" lon="10.403896476884773" id="-20801">
		<tag k="alt_name" v="Nedre Haug" />
		<tag k="name" v="Haug" />
=======
	<node id="-429066" lat="59.1296194458" lon="10.402797227">
		<tag k="name" v="Grimestadgrinda" />
>>>>>>> e1d4bc35ff8a6074a6f2e91616a996b547c36f15
		<tag k="place" v="hamlet" />
		<tag k="ssr:stedsnr" v="851366" />
	</node>
<<<<<<< HEAD
	<node lat="59.188449061454605" lon="10.388035914987315" id="-20802">
		<tag k="fixme" v="consider place=hamlet" />
		<tag k="name" v="Torbjørnrød" />
=======
	<node id="-428631" lat="59.2341055528" lon="10.4026777698">
		<tag k="name" v="Nygård" />
		<tag k="place" v="farm" />
		<tag k="ssr:stedsnr" v="487020" />
	</node>
	<node id="-428552" lat="59.1215472245" lon="10.3979750042">
		<tag k="name" v="Vestre Haug" />
>>>>>>> e1d4bc35ff8a6074a6f2e91616a996b547c36f15
		<tag k="place" v="farm" />
		<tag k="ssr:stedsnr" v="870051" />
	</node>
<<<<<<< HEAD
	<node lat="59.21105661095308" lon="10.413955498268216" id="-20803">
		<tag k="fixme" v="consider place=hamlet" />
		<tag k="name" v="Nattvall" />
		<tag k="place" v="farm" />
		<tag k="ssr:stedsnr" v="870052" />
	</node>
	<node lat="59.19255527308527" lon="10.410684894705101" id="-20804">
		<tag k="fixme" v="consider place=hamlet" />
		<tag k="name" v="Kjønnerød" />
		<tag k="place" v="farm" />
		<tag k="ssr:stedsnr" v="869990" />
	</node>
	<node lat="59.11566944873198" lon="10.392811114791716" id="-20823">
		<tag k="name" v="Kirkebygda" />
=======
	<node id="-428716" lat="59.0899750029" lon="10.4431500035">
		<tag k="name" v="Nordhavna" />
		<tag k="place" v="isolated_dwelling" />
		<tag k="ssr:stedsnr" v="729412" />
	</node>
	<node id="-429062" lat="59.2449555595" lon="10.399097225">
		<tag k="name" v="Vestskogen" />
>>>>>>> e1d4bc35ff8a6074a6f2e91616a996b547c36f15
		<tag k="place" v="village" />
		<tag k="ssr:stedsnr" v="875498" />
	</node>
<<<<<<< HEAD
	<node lat="59.253844294242974" lon="10.424947890487868" id="-20826">
		<tag k="alt_name" v="Ørnes" />
		<tag k="name" v="Ørsnes" />
		<tag k="place" v="quarter" />
		<tag k="ssr:stedsnr" v="877034" />
	</node>
	<node lat="59.176825000241834" lon="10.446444437486193" id="-20827">
		<tag k="name" v="Middelborg" />
		<tag k="place" v="village" />
		<tag k="ssr:stedsnr" v="878975" />
	</node>
	<node lat="59.098088885944144" lon="10.405383341620182" id="-20829">
		<tag k="name" v="Eidene" />
		<tag k="ssr:stedsnr" v="935625" />
		<tag k="tourism" v="hotel" />
	</node>
	<node lat="59.154152778080025" lon="10.434138886164359" id="-20837">
		<tag k="name" v="Mågerø verft" />
		<tag k="place" v="quarter" />
		<tag k="ssr:stedsnr" v="935711" />
	</node>
	<node lat="59.17897222220409" lon="10.39468332499115" id="-20839">
		<tag k="name" v="Sevik" />
		<tag k="place" v="isolated_dwelling" />
		<tag k="ssr:stedsnr" v="935967" />
	</node>
	<node lat="59.07403264485642" lon="10.436539349713415" id="-20842">
		<tag k="fixme" v="consider place=hamlet" />
		<tag k="name" v="Oppegård" />
		<tag k="place" v="farm" />
		<tag k="ssr:stedsnr" v="937949" />
	</node>
	<node lat="59.21542458782819" lon="10.542490778097717" id="-20850">
		<tag k="fixme" v="consider tourism=alpine_hut or tourism=chalet" />
		<tag k="name" v="Rønningen" />
		<tag k="ssr:stedsnr" v="987665" />
		<tag k="tourism" v="wilderness_hut" />
	</node>
	<node lat="59.121402474212815" lon="10.461844886981547" id="-20851">
		<tag k="fixme" v="consider tourism=alpine_hut or tourism=chalet" />
		<tag k="name" v="Ildverket" />
		<tag k="ssr:stedsnr" v="987814" />
		<tag k="tourism" v="wilderness_hut" />
	</node>
	<node lat="59.20259373189793" lon="10.570085515208952" id="-20852">
		<tag k="fixme" v="consider tourism=alpine_hut or tourism=chalet" />
		<tag k="name" v="Kommandantboligen" />
		<tag k="ssr:stedsnr" v="988105" />
		<tag k="tourism" v="wilderness_hut" />
	</node>
	<node lat="59.13249014224757" lon="10.379430450099882" id="-20919">
		<tag k="name" v="Nebba" />
		<tag k="old_name" v="Solstua" />
		<tag k="place" v="farm" />
		<tag k="ssr:stedsnr" v="1078327" />
	</node>
	<node lat="59.17069628039049" lon="10.433547764244896" id="-20920">
		<tag k="fixme" v="consider place=hamlet" />
		<tag k="name" v="Bakkerydningen" />
		<tag k="place" v="farm" />
		<tag k="ssr:stedsnr" v="1079710" />
	</node>
	<node lat="59.21469825904913" lon="10.398346812864892" id="-20921">
		<tag k="fixme" v="consider place=hamlet" />
		<tag k="name" v="Hovlandsteigen" />
		<tag k="place" v="farm" />
		<tag k="ssr:stedsnr" v="1079800" />
	</node>
	<node lat="59.227746900385924" lon="10.403319726470325" id="-20922">
		<tag k="name" v="Nøtterøy" />
		<tag k="place" v="hamlet" />
		<tag k="ssr:stedsnr" v="1079801" />
	</node>
	<node lat="59.21190317377051" lon="10.447430847476674" id="-20923">
		<tag k="fixme" v="consider place=hamlet" />
		<tag k="name" v="Søndre Nes" />
		<tag k="place" v="farm" />
		<tag k="ssr:stedsnr" v="1079833" />
	</node>
	<node lat="59.081576391633604" lon="10.445154626911675" id="-20924">
		<tag k="alt_name" v="Østgården" />
		<tag k="fixme" v="consider place=hamlet" />
		<tag k="name" v="Østgarden" />
		<tag k="place" v="farm" />
		<tag k="ssr:stedsnr" v="1079835" />
	</node>
	<node lat="59.19323346055603" lon="10.37326260119909" id="-20928">
		<tag k="fixme" v="consider place=hamlet" />
		<tag k="name" v="Lille Horperød" />
		<tag k="place" v="farm" />
		<tag k="ssr:stedsnr" v="1079779" />
	</node>
	<node lat="59.19571176073359" lon="10.380273223663973" id="-20929">
		<tag k="fixme" v="consider place=hamlet" />
		<tag k="name" v="Samstykket" />
		<tag k="place" v="farm" />
		<tag k="ssr:stedsnr" v="1079781" />
	</node>
	<node lat="59.19253836765552" lon="10.376548810344879" id="-20930">
		<tag k="fixme" v="consider place=hamlet" />
		<tag k="name" v="Rydningen" />
		<tag k="place" v="farm" />
		<tag k="ssr:stedsnr" v="1079782" />
	</node>
=======
	<node id="-429061" lat="59.1998277736" lon="10.4412083328">
		<tag k="name" v="Hårkollen" />
		<tag k="place" v="village" />
		<tag k="ssr:stedsnr" v="202993" />
	</node>
	<node id="-429060" lat="59.13573056" lon="10.3926222209">
		<tag k="name" v="Sandbekk" />
		<tag k="place" v="farm" />
		<tag k="ssr:stedsnr" v="184411" />
	</node>
	<node id="-429059" lat="59.1430249956" lon="10.4011527756">
		<tag k="alt_name" v="Holtene;Havna;Holtan" />
		<tag k="name" v="Holtane" />
		<tag k="place" v="farm" />
		<tag k="ssr:stedsnr" v="184405" />
	</node>
	<node id="-429057" lat="59.1205388864" lon="10.3954666706">
		<tag k="alt_name" v="Øvre Haug" />
		<tag k="name" v="Haug" />
		<tag k="place" v="farm" />
		<tag k="ssr:stedsnr" v="184381" />
	</node>
>>>>>>> e1d4bc35ff8a6074a6f2e91616a996b547c36f15
</osm>
