<?xml version="1.0" encoding="UTF-8"?>
<osm generator="osmapis" version="0.6">
	<node id="-429056" lat="59.2035000016" lon="10.4269027865">
		<tag k="fixme" v="consider natural=peak for the most distinct mountains in the district" />
		<tag k="name" v="Vardås" />
		<tag k="natural" v="hill" />
		<tag k="place" v="locality" />
		<tag k="ssr:stedsnr" v="184306" />
	</node>
	<node id="-428422" lat="59.0831138919" lon="10.4122833348">
		<tag k="name" v="Rønningen" />
		<tag k="natural" v="slope" />
		<tag k="place" v="locality" />
		<tag k="ssr:stedsnr" v="86618" />
	</node>
	<node id="-428531" lat="59.263461107" lon="10.3861749963">
		<tag k="name" v="Bjørneglova" />
		<tag k="natural" v="valley" />
		<tag k="place" v="locality" />
		<tag k="ssr:stedsnr" v="480839" />
	</node>
	<node id="-428530" lat="59.0663416688" lon="10.5203138855">
		<tag k="name" v="Matkollen" />
		<tag k="natural" v="hill" />
		<tag k="place" v="locality" />
		<tag k="ssr:stedsnr" v="330904" />
	</node>
	<node id="-428529" lat="59.2148249979" lon="10.4278555469">
		<tag k="fixme" v="consider natural=peak for the most distinct mountains in the district" />
		<tag k="name" v="Kjøleåsen" />
		<tag k="natural" v="hill" />
		<tag k="place" v="locality" />
		<tag k="ssr:stedsnr" v="330323" />
	</node>
	<node id="-428522" lat="59.1178194424" lon="10.3574444502">
		<tag k="name" v="Buveitsletta" />
		<tag k="place" v="locality" />
		<tag k="ssr:stedsnr" v="328303" />
	</node>
	<node id="-428516" lat="59.1412666652" lon="10.3873777828">
		<tag k="name" v="Glennebakken" />
		<tag k="natural" v="slope" />
		<tag k="place" v="locality" />
		<tag k="ssr:stedsnr" v="328204" />
	</node>
	<node id="-429023" lat="59.1554222225" lon="10.3610277861">
		<tag k="fixme" v="consider natural=peak for the most distinct mountains in the district" />
		<tag k="name" v="Brentås" />
		<tag k="natural" v="hill" />
		<tag k="place" v="locality" />
		<tag k="ssr:stedsnr" v="149047" />
	</node>
	<node id="-429020" lat="59.2243444406" lon="10.4083888815">
		<tag k="name" v="Tinghaug" />
		<tag k="natural" v="hill" />
		<tag k="place" v="locality" />
		<tag k="ssr:stedsnr" v="146996" />
	</node>
	<node id="-428452" lat="59.1603944435" lon="10.3969722139">
		<tag k="name" v="Madsebakken" />
		<tag k="natural" v="slope" />
		<tag k="place" v="locality" />
		<tag k="ssr:stedsnr" v="268646" />
	</node>
	<node id="-429012" lat="59.112591666" lon="10.3889638912">
		<tag k="name" v="Kirkebakken" />
		<tag k="natural" v="slope" />
		<tag k="place" v="locality" />
		<tag k="ssr:stedsnr" v="146626" />
	</node>
	<node id="-429011" lat="59.1479361127" lon="10.4326305483">
		<tag k="name" v="Løkka" />
		<tag k="place" v="locality" />
		<tag k="ssr:stedsnr" v="146683" />
	</node>
	<node id="-429010" lat="59.1511111098" lon="10.4222805594">
		<tag k="fixme" v="consider natural=peak for the most distinct mountains in the district" />
		<tag k="name" v="Tjømekollen" />
		<tag k="natural" v="hill" />
		<tag k="place" v="locality" />
		<tag k="ssr:stedsnr" v="146682" />
	</node>
	<node id="-429009" lat="59.2048722226" lon="10.3727055554">
		<tag k="name" v="Brånan" />
		<tag k="natural" v="hill" />
		<tag k="place" v="locality" />
		<tag k="ssr:stedsnr" v="146427" />
	</node>
	<node id="-429006" lat="59.0690333356" lon="10.4039527781">
		<tag k="name" v="Kleiveberget" />
		<tag k="natural" v="slope" />
		<tag k="place" v="locality" />
		<tag k="ssr:stedsnr" v="146341" />
	</node>
	<node id="-428492" lat="59.207527775" lon="10.3744805631">
		<tag k="name" v="Holmsbrekkene" />
		<tag k="natural" v="slope" />
		<tag k="place" v="locality" />
		<tag k="ssr:stedsnr" v="450411" />
	</node>
	<node id="-429003" lat="59.073030557" lon="10.4437805562">
		<tag k="name" v="Liaberget" />
		<tag k="natural" v="hill" />
		<tag k="place" v="locality" />
		<tag k="ssr:stedsnr" v="146329" />
	</node>
	<node id="-428999" lat="59.1165972186" lon="10.3624972175">
		<tag k="name" v="Elserønningen" />
		<tag k="place" v="locality" />
		<tag k="ssr:stedsnr" v="145315" />
	</node>
	<node id="-428448" lat="59.0789527745" lon="10.4061555558">
		<tag k="name" v="Radioberget" />
		<tag k="natural" v="hill" />
		<tag k="place" v="locality" />
		<tag k="ssr:stedsnr" v="268616" />
	</node>
	<node id="-428468" lat="59.2381444451" lon="10.4104555565">
		<tag k="fixme" v="consider natural=peak for the most distinct mountains in the district" />
		<tag k="name" v="Herstadås" />
		<tag k="natural" v="hill" />
		<tag k="place" v="locality" />
		<tag k="ssr:stedsnr" v="146974" />
	</node>
	<node id="-428463" lat="59.1580166655" lon="10.3395611181">
		<tag k="name" v="Meglova" />
		<tag k="place" v="locality" />
		<tag k="ssr:stedsnr" v="146266" />
	</node>
	<node id="-428445" lat="59.1592916658" lon="10.3543416598">
		<tag k="fixme" v="consider natural=peak for the most distinct mountains in the district" />
		<tag k="name" v="Krikaåsen" />
		<tag k="natural" v="hill" />
		<tag k="place" v="locality" />
		<tag k="ssr:stedsnr" v="268292" />
	</node>
	<node id="-428460" lat="59.0761861075" lon="10.4347527862">
		<tag k="name" v="Tjønnåsbakken" />
		<tag k="natural" v="slope" />
		<tag k="place" v="locality" />
		<tag k="ssr:stedsnr" v="146363" />
	</node>
	<node id="-428453" lat="59.1569972229" lon="10.4155416607">
		<tag k="name" v="Smedbakken" />
		<tag k="natural" v="slope" />
		<tag k="place" v="locality" />
		<tag k="ssr:stedsnr" v="268650" />
	</node>
	<node id="-428964" lat="59.1490833326" lon="10.4187527714">
		<tag k="fixme" v="consider natural=peak for the most distinct mountains in the district" />
		<tag k="name" v="Ormestiåsen" />
		<tag k="natural" v="hill" />
		<tag k="place" v="locality" />
		<tag k="ssr:stedsnr" v="86690" />
	</node>
	<node id="-428963" lat="59.1552444408" lon="10.4426833295">
		<tag k="fixme" v="consider natural=peak for the most distinct mountains in the district" />
		<tag k="name" v="Vardås" />
		<tag k="natural" v="hill" />
		<tag k="place" v="locality" />
		<tag k="ssr:stedsnr" v="86685" />
	</node>
	<node id="-428961" lat="59.1631416691" lon="10.3930333382">
		<tag k="name" v="Sandbakken" />
		<tag k="natural" v="slope" />
		<tag k="place" v="locality" />
		<tag k="ssr:stedsnr" v="86651" />
	</node>
	<node id="-428960" lat="59.1520999995" lon="10.3885277761">
		<tag k="name" v="Pålseroa" />
		<tag k="natural" v="slope" />
		<tag k="place" v="locality" />
		<tag k="ssr:stedsnr" v="86646" />
	</node>
	<node id="-428447" lat="59.1478000039" lon="10.4259416625">
		<tag k="name" v="Ødegården" />
		<tag k="place" v="locality" />
		<tag k="ssr:stedsnr" v="268691" />
	</node>
	<node id="-428957" lat="59.2107833353" lon="10.3812444502">
		<tag k="fixme" v="consider natural=peak for the most distinct mountains in the district" />
		<tag k="name" v="Kleivåsen" />
		<tag k="natural" v="hill" />
		<tag k="place" v="locality" />
		<tag k="ssr:stedsnr" v="86412" />
	</node>
	<node id="-428443" lat="59.0713722196" lon="10.423161112">
		<tag k="name" v="Grønne Lund" />
		<tag k="place" v="locality" />
		<tag k="ssr:stedsnr" v="268377" />
	</node>
	<node id="-428442" lat="59.1809083329" lon="10.4156388866">
		<tag k="name" v="Grindvad" />
		<tag k="place" v="locality" />
		<tag k="ssr:stedsnr" v="267951" />
	</node>
	<node id="-428952" lat="59.1327194439" lon="10.4077388964">
		<tag k="fixme" v="consider natural=peak for the most distinct mountains in the district" />
		<tag k="name" v="Slottåsen" />
		<tag k="natural" v="hill" />
		<tag k="place" v="locality" />
		<tag k="ssr:stedsnr" v="86235" />
	</node>
	<node id="-428439" lat="59.2466194474" lon="10.3827194464">
		<tag k="name" v="Fjordgløtt" />
		<tag k="place" v="locality" />
		<tag k="ssr:stedsnr" v="267979" />
	</node>
	<node id="-428950" lat="59.1313166648" lon="10.3998583325">
		<tag k="name" v="Grimestadrønningen" />
		<tag k="natural" v="slope" />
		<tag k="place" v="locality" />
		<tag k="ssr:stedsnr" v="86228" />
	</node>
	<node id="-428433" lat="59.1489472232" lon="10.3614944405">
		<tag k="name" v="Veierløkka" />
		<tag k="place" v="locality" />
		<tag k="ssr:stedsnr" v="267242" />
	</node>
	<node id="-428429" lat="59.1214138897" lon="10.4140083319">
		<tag k="name" v="Dalen" />
		<tag k="natural" v="valley" />
		<tag k="place" v="locality" />
		<tag k="ssr:stedsnr" v="267179" />
	</node>
	<node id="-429446" lat="59.0597999971" lon="10.4033805574">
		<tag k="fixme" v="consider natural=peak for the most distinct mountains in the district" />
		<tag k="name" v="Storås" />
		<tag k="natural" v="hill" />
		<tag k="place" v="locality" />
		<tag k="ssr:stedsnr" v="875387" />
	</node>
	<node id="-429444" lat="59.1655972208" lon="10.3938249949">
		<tag k="fixme" v="consider natural=peak for the most distinct mountains in the district" />
		<tag k="name" v="Kjonåsen" />
		<tag k="natural" v="hill" />
		<tag k="place" v="locality" />
		<tag k="ssr:stedsnr" v="874939" />
	</node>
	<node id="-429439" lat="59.1231361143" lon="10.4021166627">
		<tag k="name" v="Grøttås" />
		<tag k="natural" v="hill" />
		<tag k="place" v="locality" />
		<tag k="ssr:stedsnr" v="874238" />
	</node>
	<node id="-429438" lat="59.1231361119" lon="10.4173611153">
		<tag k="fixme" v="consider natural=peak for the most distinct mountains in the district" />
		<tag k="name" v="Jordesåsen" />
		<tag k="natural" v="hill" />
		<tag k="place" v="locality" />
		<tag k="ssr:stedsnr" v="874223" />
	</node>
	<node id="-428915" lat="59.2280750003" lon="10.398900004">
		<tag k="fixme" v="consider natural=peak for the most distinct mountains in the district" />
		<tag k="name" v="Magnhildås" />
		<tag k="natural" v="hill" />
		<tag k="place" v="locality" />
		<tag k="ssr:stedsnr" v="25998" />
	</node>
	<node id="-428906" lat="59.1517555595" lon="10.433180555">
		<tag k="name" v="Løkka" />
		<tag k="place" v="locality" />
		<tag k="ssr:stedsnr" v="25700" />
	</node>
	<node id="-428903" lat="59.0879583296" lon="10.4443277744">
		<tag k="name" v="Dalen" />
		<tag k="natural" v="valley" />
		<tag k="place" v="locality" />
		<tag k="ssr:stedsnr" v="25679" />
	</node>
	<node id="-428902" lat="59.1601777773" lon="10.4183777692">
		<tag k="name" v="Kråkerebakken" />
		<tag k="natural" v="slope" />
		<tag k="place" v="locality" />
		<tag k="ssr:stedsnr" v="25668" />
	</node>
	<node id="-428901" lat="59.157561115" lon="10.3869888818">
		<tag k="fixme" v="consider natural=peak for the most distinct mountains in the district" />
		<tag k="name" v="Saueåsen" />
		<tag k="natural" v="hill" />
		<tag k="place" v="locality" />
		<tag k="ssr:stedsnr" v="25658" />
	</node>
	<node id="-428900" lat="59.1138527754" lon="10.4087833342">
		<tag k="fixme" v="consider natural=peak for the most distinct mountains in the district" />
		<tag k="name" v="Vardåsen" />
		<tag k="natural" v="hill" />
		<tag k="place" v="locality" />
		<tag k="ssr:stedsnr" v="25652" />
	</node>
	<node id="-428387" lat="59.1230416692" lon="10.4648444519">
		<tag k="name" v="Oterkløfta" />
		<tag k="natural" v="valley" />
		<tag k="place" v="locality" />
		<tag k="ssr:stedsnr" v="25941" />
	</node>
	<node id="-428897" lat="59.0810277785" lon="10.401941674">
		<tag k="fixme" v="consider natural=peak for the most distinct mountains in the district" />
		<tag k="name" v="Seilerås" />
		<tag k="natural" v="hill" />
		<tag k="place" v="locality" />
		<tag k="ssr:stedsnr" v="25624" />
	</node>
	<node id="-428896" lat="59.080447219" lon="10.4056527792">
		<tag k="name" v="Brekka" />
		<tag k="natural" v="slope" />
		<tag k="place" v="locality" />
		<tag k="ssr:stedsnr" v="25622" />
	</node>
	<node id="-428895" lat="59.0770916631" lon="10.4315861185">
		<tag k="fixme" v="consider natural=peak for the most distinct mountains in the district" />
		<tag k="name" v="Dramsås" />
		<tag k="natural" v="hill" />
		<tag k="place" v="locality" />
		<tag k="ssr:stedsnr" v="25385" />
	</node>
	<node id="-428892" lat="59.1431166668" lon="10.3603833315">
		<tag k="name" v="Vestmarka" />
		<tag k="place" v="locality" />
		<tag k="ssr:stedsnr" v="24266" />
	</node>
	<node id="-429402" lat="59.102222218" lon="10.4315972275">
		<tag k="fixme" v="consider natural=peak for the most distinct mountains in the district" />
		<tag k="name" v="Alleglova" />
		<tag k="natural" v="hill" />
		<tag k="place" v="locality" />
		<tag k="ssr:stedsnr" v="814645" />
	</node>
	<node id="-429400" lat="59.0889829151" lon="10.4252164167">
		<tag k="fixme" v="consider natural=peak for the most distinct mountains in the district" />
		<tag k="name" v="Haugfjell" />
		<tag k="natural" v="hill" />
		<tag k="place" v="locality" />
		<tag k="ssr:stedsnr" v="814635" />
	</node>
	<node id="-429391" lat="59.1605111132" lon="10.3424777856">
		<tag k="name" v="Løkka" />
		<tag k="place" v="locality" />
		<tag k="ssr:stedsnr" v="814336" />
	</node>
	<node id="-429389" lat="59.1232833307" lon="10.4281305544">
		<tag k="name" v="Møyebakken" />
		<tag k="natural" v="slope" />
		<tag k="place" v="locality" />
		<tag k="ssr:stedsnr" v="814284" />
	</node>
	<node id="-429388" lat="59.1277027736" lon="10.4232499995">
		<tag k="name" v="Kjellsbrekka" />
		<tag k="natural" v="slope" />
		<tag k="place" v="locality" />
		<tag k="ssr:stedsnr" v="814283" />
	</node>
	<node id="-429385" lat="59.1357416654" lon="10.4129166696">
		<tag k="fixme" v="consider natural=peak for the most distinct mountains in the district" />
		<tag k="name" v="Ramsås" />
		<tag k="natural" v="hill" />
		<tag k="place" v="locality" />
		<tag k="ssr:stedsnr" v="814141" />
	</node>
	<node id="-429384" lat="59.1911138854" lon="10.3965666694">
		<tag k="fixme" v="consider natural=peak for the most distinct mountains in the district" />
		<tag k="name" v="Høgås" />
		<tag k="natural" v="hill" />
		<tag k="place" v="locality" />
		<tag k="ssr:stedsnr" v="813958" />
	</node>
	<node id="-429381" lat="59.1936027782" lon="10.4074333348">
		<tag k="name" v="Veibakken" />
		<tag k="natural" v="slope" />
		<tag k="place" v="locality" />
		<tag k="ssr:stedsnr" v="813924" />
	</node>
	<node id="-428866" lat="59.1314777772" lon="10.4393555508">
		<tag k="name" v="Kjerringskrevet" />
		<tag k="natural" v="valley" />
		<tag k="place" v="locality" />
		<tag k="ssr:stedsnr" v="935944" />
	</node>
	<node id="-428864" lat="59.0966555597" lon="10.3917444402">
		<tag k="fixme" v="consider natural=peak for the most distinct mountains in the district" />
		<tag k="name" v="Tuppåsen" />
		<tag k="natural" v="hill" />
		<tag k="place" v="locality" />
		<tag k="ssr:stedsnr" v="935626" />
	</node>
	<node id="-429371" lat="59.0682777794" lon="10.4334000018">
		<tag k="fixme" v="consider natural=peak for the most distinct mountains in the district" />
		<tag k="name" v="Tjønneberget" />
		<tag k="natural" v="hill" />
		<tag k="place" v="locality" />
		<tag k="ssr:stedsnr" v="790477" />
	</node>
	<node id="-428858" lat="59.1258138849" lon="10.4340416708">
		<tag k="name" v="Hønsøbakken" />
		<tag k="natural" v="slope" />
		<tag k="place" v="locality" />
		<tag k="ssr:stedsnr" v="935208" />
	</node>
	<node id="-428854" lat="59.0953083331" lon="10.4483583285">
		<tag k="name" v="Bråhellene" />
		<tag k="natural" v="hill" />
		<tag k="place" v="locality" />
		<tag k="ssr:stedsnr" v="875651" />
	</node>
	<node id="-428852" lat="59.1516583305" lon="10.4055833389">
		<tag k="fixme" v="consider natural=peak for the most distinct mountains in the district" />
		<tag k="name" v="Brannåsen" />
		<tag k="natural" v="hill" />
		<tag k="place" v="locality" />
		<tag k="ssr:stedsnr" v="875625" />
	</node>
	<node id="-428848" lat="59.2358305526" lon="10.433191663">
		<tag k="name" v="Lahelle" />
		<tag k="place" v="locality" />
		<tag k="ssr:stedsnr" v="874962" />
	</node>
	<node id="-428847" lat="59.1931055515" lon="10.4231083379">
		<tag k="fixme" v="consider natural=peak for the most distinct mountains in the district" />
		<tag k="name" v="Leirfjell" />
		<tag k="natural" v="hill" />
		<tag k="place" v="locality" />
		<tag k="ssr:stedsnr" v="874914" />
	</node>
	<node id="-428846" lat="59.1948666702" lon="10.3932499998">
		<tag k="fixme" v="consider natural=peak for the most distinct mountains in the district" />
		<tag k="name" v="Possås" />
		<tag k="natural" v="hill" />
		<tag k="place" v="locality" />
		<tag k="ssr:stedsnr" v="874911" />
	</node>
	<node id="-429347" lat="59.2348472236" lon="10.4174222305">
		<tag k="name" v="Tandstadåsen" />
		<tag k="natural" v="hill" />
		<tag k="place" v="locality" />
		<tag k="ssr:stedsnr" v="753968" />
	</node>
	<node id="-428831" lat="59.1665944458" lon="10.3926138958">
		<tag k="name" v="Blåsenberg" />
		<tag k="natural" v="hill" />
		<tag k="place" v="locality" />
		<tag k="ssr:stedsnr" v="935961" />
	</node>
	<node id="-429340" lat="59.1513083368" lon="10.4371388932">
		<tag k="fixme" v="consider natural=peak for the most distinct mountains in the district" />
		<tag k="name" v="Geiteglova" />
		<tag k="natural" v="hill" />
		<tag k="place" v="locality" />
		<tag k="ssr:stedsnr" v="753664" />
	</node>
	<node id="-428826" lat="59.1503388895" lon="10.3871583362">
		<tag k="name" v="Kjonebakken" />
		<tag k="natural" v="slope" />
		<tag k="place" v="locality" />
		<tag k="ssr:stedsnr" v="935654" />
	</node>
	<node id="-428824" lat="59.2011944402" lon="10.3717611047">
		<tag k="name" v="Rispa" />
		<tag k="place" v="locality" />
		<tag k="ssr:stedsnr" v="935478" />
	</node>
	<node id="-428823" lat="59.0741361094" lon="10.4164250013">
		<tag k="name" v="Omdal" />
		<tag k="natural" v="valley" />
		<tag k="place" v="locality" />
		<tag k="ssr:stedsnr" v="935380" />
	</node>
	<node id="-428822" lat="59.0623638858" lon="10.4068944436">
		<tag k="fixme" v="consider natural=peak for the most distinct mountains in the district" />
		<tag k="name" v="Grepankolten" />
		<tag k="natural" v="hill" />
		<tag k="place" v="locality" />
		<tag k="ssr:stedsnr" v="935374" />
	</node>
	<node id="-428821" lat="59.0695361094" lon="10.4133611184">
		<tag k="name" v="Gunnarsløkka" />
		<tag k="place" v="locality" />
		<tag k="ssr:stedsnr" v="935373" />
	</node>
	<node id="-428820" lat="59.0703694413" lon="10.3988833367">
		<tag k="fixme" v="consider natural=peak for the most distinct mountains in the district" />
		<tag k="name" v="Seileråsen" />
		<tag k="natural" v="hill" />
		<tag k="place" v="locality" />
		<tag k="ssr:stedsnr" v="935370" />
	</node>
	<node id="-428817" lat="59.0694138898" lon="10.4516861049">
		<tag k="name" v="Sandkarsberg" />
		<tag k="natural" v="hill" />
		<tag k="place" v="locality" />
		<tag k="ssr:stedsnr" v="935358" />
	</node>
	<node id="-429328" lat="59.1544111155" lon="10.3601222282">
		<tag k="name" v="Dynås" />
		<tag k="natural" v="hill" />
		<tag k="place" v="locality" />
		<tag k="ssr:stedsnr" v="753245" />
	</node>
	<node id="-428814" lat="59.1122611105" lon="10.3609083398">
		<tag k="fixme" v="consider natural=peak for the most distinct mountains in the district" />
		<tag k="name" v="Brendtås" />
		<tag k="natural" v="hill" />
		<tag k="place" v="locality" />
		<tag k="ssr:stedsnr" v="935320" />
	</node>
	<node id="-428813" lat="59.1116805522" lon="10.3586861069">
		<tag k="name" v="Kvie" />
		<tag k="place" v="locality" />
		<tag k="ssr:stedsnr" v="935318" />
	</node>
	<node id="-428812" lat="59.1265083304" lon="10.3975972243">
		<tag k="name" v="Olavsbakken" />
		<tag k="natural" v="slope" />
		<tag k="place" v="locality" />
		<tag k="ssr:stedsnr" v="935189" />
	</node>
	<node id="-429323" lat="59.1237083334" lon="10.412852785">
		<tag k="name" v="Dalsløkka" />
		<tag k="place" v="locality" />
		<tag k="ssr:stedsnr" v="753178" />
	</node>
	<node id="-429322" lat="59.121950004" lon="10.4206194363">
		<tag k="name" v="Jordet" />
		<tag k="place" v="locality" />
		<tag k="ssr:stedsnr" v="753176" />
	</node>
	<node id="-428806" lat="59.093099998" lon="10.4451111192">
		<tag k="name" v="Nordhavna" />
		<tag k="natural" v="hill" />
		<tag k="place" v="locality" />
		<tag k="ssr:stedsnr" v="814677" />
	</node>
	<node id="-429307" lat="59.1522833313" lon="10.4429166671">
		<tag k="name" v="Herberg" />
		<tag k="natural" v="hill" />
		<tag k="place" v="locality" />
		<tag k="ssr:stedsnr" v="631700" />
	</node>
	<node id="-429306" lat="59.1145166643" lon="10.3918444456">
		<tag k="name" v="Kirkely" />
		<tag k="place" v="locality" />
		<tag k="ssr:stedsnr" v="631639" />
	</node>
	<node id="-429301" lat="59.1501666708" lon="10.3812361181">
		<tag k="name" v="Kilebånn" />
		<tag k="natural" v="valley" />
		<tag k="place" v="locality" />
		<tag k="ssr:stedsnr" v="631237" />
	</node>
	<node id="-429300" lat="59.0591249978" lon="10.4081333305">
		<tag k="name" v="Digersglova" />
		<tag k="natural" v="valley" />
		<tag k="place" v="locality" />
		<tag k="ssr:stedsnr" v="631344" />
	</node>
	<node id="-428784" lat="59.1271805563" lon="10.399369447">
		<tag k="fixme" v="consider natural=peak for the most distinct mountains in the district" />
		<tag k="name" v="Kikut" />
		<tag k="natural" v="hill" />
		<tag k="place" v="locality" />
		<tag k="ssr:stedsnr" v="912395" />
	</node>
	<node id="-429295" lat="59.1262722237" lon="10.4280027721">
		<tag k="fixme" v="consider natural=peak for the most distinct mountains in the district" />
		<tag k="name" v="Møyeåsen" />
		<tag k="natural" v="hill" />
		<tag k="place" v="locality" />
		<tag k="ssr:stedsnr" v="631211" />
	</node>
	<node id="-429294" lat="59.1246055593" lon="10.4068694532">
		<tag k="fixme" v="consider natural=peak for the most distinct mountains in the district" />
		<tag k="name" v="Kirke-åsen" />
		<tag k="natural" v="hill" />
		<tag k="place" v="locality" />
		<tag k="ssr:stedsnr" v="631202" />
	</node>
	<node id="-429292" lat="59.1238527734" lon="10.4206722185">
		<tag k="fixme" v="consider natural=peak for the most distinct mountains in the district" />
		<tag k="name" v="Engåsen" />
		<tag k="natural" v="hill" />
		<tag k="place" v="locality" />
		<tag k="ssr:stedsnr" v="631183" />
	</node>
	<node id="-429291" lat="59.2225333334" lon="10.4284111119">
		<tag k="fixme" v="consider natural=peak for the most distinct mountains in the district" />
		<tag k="name" v="Bjønnesåsen" />
		<tag k="natural" v="hill" />
		<tag k="place" v="locality" />
		<tag k="ssr:stedsnr" v="627048" />
	</node>
	<node id="-428494" lat="59.1551083309" lon="10.4184555538">
		<tag k="fixme" v="consider natural=peak for the most distinct mountains in the district" />
		<tag k="name" v="Kråkereåsen" />
		<tag k="natural" v="hill" />
		<tag k="place" v="locality" />
		<tag k="ssr:stedsnr" v="450675" />
	</node>
	<node id="-429263" lat="59.1541472254" lon="10.4091250011">
		<tag k="name" v="Gallisbakken" />
		<tag k="natural" v="slope" />
		<tag k="place" v="locality" />
		<tag k="ssr:stedsnr" v="571623" />
	</node>
	<node id="-429261" lat="59.0917861075" lon="10.42795556">
		<tag k="fixme" v="consider natural=peak for the most distinct mountains in the district" />
		<tag k="name" v="Storefjell" />
		<tag k="natural" v="hill" />
		<tag k="place" v="locality" />
		<tag k="ssr:stedsnr" v="571608" />
	</node>
	<node id="-428744" lat="59.1592083302" lon="10.3836277762">
		<tag k="name" v="Kalveløkka" />
		<tag k="natural" v="slope" />
		<tag k="place" v="locality" />
		<tag k="ssr:stedsnr" v="693672" />
	</node>
	<node id="-429255" lat="59.1595583329" lon="10.3602388876">
		<tag k="fixme" v="consider natural=peak for the most distinct mountains in the district" />
		<tag k="name" v="Sjøholmåsen" />
		<tag k="natural" v="hill" />
		<tag k="place" v="locality" />
		<tag k="ssr:stedsnr" v="571277" />
	</node>
	<node id="-429254" lat="59.1291888864" lon="10.43319723">
		<tag k="fixme" v="consider natural=peak for the most distinct mountains in the district" />
		<tag k="name" v="Hønsøåsen" />
		<tag k="natural" v="hill" />
		<tag k="place" v="locality" />
		<tag k="ssr:stedsnr" v="571230" />
	</node>
	<node id="-429253" lat="59.1571472248" lon="10.3824138904">
		<tag k="fixme" v="consider natural=peak for the most distinct mountains in the district" />
		<tag k="name" v="Rødnesåsen" />
		<tag k="natural" v="hill" />
		<tag k="place" v="locality" />
		<tag k="ssr:stedsnr" v="570223" />
	</node>
	<node id="-428740" lat="59.2042305566" lon="10.3658999939">
		<tag k="name" v="Holmen" />
		<tag k="place" v="locality" />
		<tag k="ssr:stedsnr" v="692439" />
	</node>
	<node id="-429251" lat="59.1421833313" lon="10.3987777834">
		<tag k="name" v="Holteskåret" />
		<tag k="natural" v="valley" />
		<tag k="place" v="locality" />
		<tag k="ssr:stedsnr" v="570172" />
	</node>
	<node id="-429250" lat="59.1424555577" lon="10.4028805586">
		<tag k="name" v="Holtan" />
		<tag k="place" v="locality" />
		<tag k="ssr:stedsnr" v="570171" />
	</node>
	<node id="-428733" lat="59.2587527806" lon="10.3865888869">
		<tag k="fixme" v="consider natural=peak for the most distinct mountains in the district" />
		<tag k="name" v="Rambergåsen" />
		<tag k="natural" v="hill" />
		<tag k="place" v="locality" />
		<tag k="ssr:stedsnr" v="731646" />
	</node>
	<node id="-428725" lat="59.1762972262" lon="10.4280472274">
		<tag k="alt_name" v="Veten" />
		<tag k="fixme" v="consider natural=peak for the most distinct mountains in the district" />
		<tag k="name" v="Vetan" />
		<tag k="natural" v="hill" />
		<tag k="place" v="locality" />
		<tag k="ssr:stedsnr" v="730098" />
	</node>
	<node id="-428573" lat="59.183402777" lon="10.3735888892">
		<tag k="fixme" v="consider natural=peak for the most distinct mountains in the district" />
		<tag k="name" v="Skjerpeåsen" />
		<tag k="natural" v="hill" />
		<tag k="place" v="locality" />
		<tag k="ssr:stedsnr" v="510443" />
	</node>
	<node id="-429227" lat="59.2486305599" lon="10.3906055561">
		<tag k="name" v="Munkerekka" />
		<tag k="natural" v="hill" />
		<tag k="place" v="locality" />
		<tag k="ssr:stedsnr" v="541791" />
	</node>
	<node id="-428711" lat="59.2088888884" lon="10.4256611166">
		<tag k="fixme" v="consider natural=peak for the most distinct mountains in the district" />
		<tag k="name" v="Venås" />
		<tag k="natural" v="hill" />
		<tag k="place" v="locality" />
		<tag k="ssr:stedsnr" v="631992" />
	</node>
	<node id="-428709" lat="59.1647277793" lon="10.3905388912">
		<tag k="name" v="Hagan" />
		<tag k="place" v="locality" />
		<tag k="ssr:stedsnr" v="631958" />
	</node>
	<node id="-428706" lat="59.1484777794" lon="10.4250583308">
		<tag k="name" v="Fanteflekken" />
		<tag k="place" v="locality" />
		<tag k="ssr:stedsnr" v="631709" />
	</node>
	<node id="-428705" lat="59.0844833295" lon="10.449113883">
		<tag k="fixme" v="consider natural=peak for the most distinct mountains in the district" />
		<tag k="name" v="Kikut" />
		<tag k="natural" v="hill" />
		<tag k="place" v="locality" />
		<tag k="ssr:stedsnr" v="631667" />
	</node>
	<node id="-428704" lat="59.0835583359" lon="10.4404000045">
		<tag k="name" v="Vadberget" />
		<tag k="natural" v="hill" />
		<tag k="place" v="locality" />
		<tag k="ssr:stedsnr" v="631665" />
	</node>
	<node id="-428701" lat="59.0745305557" lon="10.4210833292">
		<tag k="name" v="Ramsesletta" />
		<tag k="place" v="locality" />
		<tag k="ssr:stedsnr" v="631365" />
	</node>
	<node id="-428700" lat="59.07144722" lon="10.4052388822">
		<tag k="fixme" v="consider natural=peak for the most distinct mountains in the district" />
		<tag k="name" v="Holaås" />
		<tag k="natural" v="hill" />
		<tag k="place" v="locality" />
		<tag k="ssr:stedsnr" v="631358" />
	</node>
	<node id="-429208" lat="59.2646444411" lon="10.3872222298">
		<tag k="name" v="Ramberg" />
		<tag k="natural" v="hill" />
		<tag k="place" v="locality" />
		<tag k="ssr:stedsnr" v="420839" />
	</node>
	<node id="-428695" lat="59.1495055558" lon="10.4019416687">
		<tag k="fixme" v="consider natural=peak for the most distinct mountains in the district" />
		<tag k="name" v="Herkelås" />
		<tag k="natural" v="hill" />
		<tag k="place" v="locality" />
		<tag k="ssr:stedsnr" v="608405" />
	</node>
	<node id="-428684" lat="59.1199388929" lon="10.3523722181">
		<tag k="fixme" v="consider natural=peak for the most distinct mountains in the district" />
		<tag k="name" v="Vesterås" />
		<tag k="natural" v="hill" />
		<tag k="place" v="locality" />
		<tag k="ssr:stedsnr" v="570265" />
	</node>
	<node id="-429192" lat="59.0594277747" lon="10.3988750055">
		<tag k="fixme" v="consider natural=peak for the most distinct mountains in the district" />
		<tag k="name" v="Skåefjell" />
		<tag k="natural" v="hill" />
		<tag k="place" v="locality" />
		<tag k="ssr:stedsnr" v="389391" />
	</node>
	<node id="-428674" lat="59.0790305533" lon="10.4331166664">
		<tag k="name" v="Nesberget" />
		<tag k="natural" v="hill" />
		<tag k="place" v="locality" />
		<tag k="ssr:stedsnr" v="693689" />
	</node>
	<node id="-428670" lat="59.2126833291" lon="10.4148888857">
		<tag k="fixme" v="consider natural=peak for the most distinct mountains in the district" />
		<tag k="name" v="Semsåsen" />
		<tag k="natural" v="hill" />
		<tag k="place" v="locality" />
		<tag k="ssr:stedsnr" v="692992" />
	</node>
	<node id="-428667" lat="59.1096083319" lon="10.411627774">
		<tag k="fixme" v="consider natural=peak for the most distinct mountains in the district" />
		<tag k="name" v="Fløyåsen" />
		<tag k="natural" v="hill" />
		<tag k="place" v="locality" />
		<tag k="ssr:stedsnr" v="692620" />
	</node>
	<node id="-428664" lat="59.0712555538" lon="10.4495222161">
		<tag k="name" v="Fagerbakke" />
		<tag k="natural" v="slope" />
		<tag k="place" v="locality" />
		<tag k="ssr:stedsnr" v="692319" />
	</node>
	<node id="-428651" lat="59.0841972212" lon="10.4503194441">
		<tag k="fixme" v="consider natural=peak for the most distinct mountains in the district" />
		<tag k="name" v="Brattås" />
		<tag k="natural" v="hill" />
		<tag k="place" v="locality" />
		<tag k="ssr:stedsnr" v="510688" />
	</node>
	<node id="-428647" lat="59.1199250012" lon="10.3870222156">
		<tag k="name" v="Budal" />
		<tag k="natural" v="valley" />
		<tag k="place" v="locality" />
		<tag k="ssr:stedsnr" v="510661" />
	</node>
	<node id="-428644" lat="59.1536722204" lon="10.3468916589">
		<tag k="name" v="Thorsløkka" />
		<tag k="place" v="locality" />
		<tag k="ssr:stedsnr" v="510268" />
	</node>
	<node id="-428816" lat="59.0766527813" lon="10.4440499986">
		<tag k="name" v="Kvieberget" />
		<tag k="natural" v="hill" />
		<tag k="place" v="locality" />
		<tag k="ssr:stedsnr" v="935353" />
	</node>
	<node id="-428420" lat="59.2464638934" lon="10.407577779">
		<tag k="name" v="Kolberg" />
		<tag k="natural" v="slope" />
		<tag k="place" v="locality" />
		<tag k="ssr:stedsnr" v="85973" />
	</node>
	<node id="-429147" lat="59.2079222238" lon="10.4006027693">
		<tag k="fixme" v="consider natural=peak for the most distinct mountains in the district" />
		<tag k="name" v="Guriås" />
		<tag k="natural" v="hill" />
		<tag k="place" v="locality" />
		<tag k="ssr:stedsnr" v="328988" />
	</node>
	<node id="-429146" lat="59.2373999985" lon="10.440805554">
		<tag k="fixme" v="consider natural=peak for the most distinct mountains in the district" />
		<tag k="name" v="Burås" />
		<tag k="natural" v="hill" />
		<tag k="place" v="locality" />
		<tag k="ssr:stedsnr" v="328970" />
	</node>
	<node id="-429145" lat="59.2502166634" lon="10.4239722288">
		<tag k="name" v="Rosahaug" />
		<tag k="natural" v="hill" />
		<tag k="place" v="locality" />
		<tag k="ssr:stedsnr" v="328969" />
	</node>
	<node id="-429144" lat="59.0893638929" lon="10.4461444363">
		<tag k="fixme" v="consider natural=peak for the most distinct mountains in the district" />
		<tag k="name" v="Ørnekollen" />
		<tag k="natural" v="hill" />
		<tag k="place" v="locality" />
		<tag k="ssr:stedsnr" v="328673" />
	</node>
	<node id="-429140" lat="59.1531361141" lon="10.4157277756">
		<tag k="name" v="Kråkere-Hagan" />
		<tag k="place" v="locality" />
		<tag k="ssr:stedsnr" v="328649" />
	</node>
	<node id="-429138" lat="59.157572224" lon="10.3889527763">
		<tag k="name" v="Smedbakken" />
		<tag k="natural" v="slope" />
		<tag k="place" v="locality" />
		<tag k="ssr:stedsnr" v="328640" />
	</node>
	<node id="-429126" lat="59.077124997" lon="10.414174992">
		<tag k="fixme" v="consider natural=peak for the most distinct mountains in the district" />
		<tag k="name" v="Torås" />
		<tag k="natural" v="hill" />
		<tag k="place" v="locality" />
		<tag k="ssr:stedsnr" v="305493" />
	</node>
	<node id="-428811" lat="59.1392833339" lon="10.3980027731">
		<tag k="fixme" v="consider natural=peak for the most distinct mountains in the district" />
		<tag k="name" v="Holtekjæråsen" />
		<tag k="natural" v="hill" />
		<tag k="place" v="locality" />
		<tag k="ssr:stedsnr" v="935187" />
	</node>
	<node id="-429097" lat="59.2289777754" lon="10.4251222194">
		<tag k="fixme" v="consider natural=peak for the most distinct mountains in the district" />
		<tag k="name" v="Seileråsen" />
		<tag k="natural" v="hill" />
		<tag k="place" v="locality" />
		<tag k="ssr:stedsnr" v="207967" />
	</node>
	<node id="-428380" lat="59.2148944448" lon="10.4296777718">
		<tag k="name" v="Kjølelia" />
		<tag k="natural" v="slope" />
		<tag k="place" v="locality" />
		<tag k="ssr:stedsnr" v="1051" />
	</node>
	<node id="-428576" lat="59.1997083344" lon="10.4494444454">
		<tag k="name" v="Stokken" />
		<tag k="natural" v="slope" />
		<tag k="place" v="locality" />
		<tag k="ssr:stedsnr" v="510962" />
	</node>
	<node id="-429087" lat="59.1502472203" lon="10.384752779">
		<tag k="name" v="Ramsløkka" />
		<tag k="natural" v="slope" />
		<tag k="place" v="locality" />
		<tag k="ssr:stedsnr" v="207628" />
	</node>
	<node id="-428574" lat="59.1671805558" lon="10.3898472164">
		<tag k="name" v="Hageberget" />
		<tag k="natural" v="hill" />
		<tag k="place" v="locality" />
		<tag k="ssr:stedsnr" v="510955" />
	</node>
	<node id="-429085" lat="59.1124388921" lon="10.3962749942">
		<tag k="fixme" v="consider natural=peak for the most distinct mountains in the district" />
		<tag k="name" v="Mølleråsen" />
		<tag k="natural" v="hill" />
		<tag k="place" v="locality" />
		<tag k="ssr:stedsnr" v="207620" />
	</node>
	<node id="-428569" lat="59.134158335" lon="10.4095249929">
		<tag k="fixme" v="consider natural=peak for the most distinct mountains in the district" />
		<tag k="name" v="Kalveløkkåsen" />
		<tag k="natural" v="hill" />
		<tag k="place" v="locality" />
		<tag k="ssr:stedsnr" v="510211" />
	</node>
	<node id="-429079" lat="59.0837583358" lon="10.4298972272">
		<tag k="name" v="Bukkeberget" />
		<tag k="natural" v="hill" />
		<tag k="place" v="locality" />
		<tag k="ssr:stedsnr" v="207592" />
	</node>
	<node id="-429072" lat="59.1494472204" lon="10.3774944448">
		<tag k="name" v="Skautangen" />
		<tag k="place" v="locality" />
		<tag k="ssr:stedsnr" v="207262" />
	</node>
	<node id="-428558" lat="59.1525666654" lon="10.4094472189">
		<tag k="name" v="Vigrid" />
		<tag k="place" v="locality" />
		<tag k="ssr:stedsnr" v="389664" />
	</node>
	<node id="-428557" lat="59.1117527797" lon="10.4044166601">
		<tag k="name" v="Pytteberget" />
		<tag k="natural" v="hill" />
		<tag k="place" v="locality" />
		<tag k="ssr:stedsnr" v="389656" />
	</node>
	<node id="-429067" lat="59.1214499972" lon="10.385563885">
		<tag k="fixme" v="consider natural=peak for the most distinct mountains in the district" />
		<tag k="name" v="Preståsen" />
		<tag k="natural" v="hill" />
		<tag k="place" v="locality" />
		<tag k="ssr:stedsnr" v="207218" />
	</node>
	<node id="-428550" lat="59.2036361105" lon="10.4539555604">
		<tag k="fixme" v="consider natural=peak for the most distinct mountains in the district" />
		<tag k="name" v="Ulvøåsen" />
		<tag k="natural" v="hill" />
		<tag k="place" v="locality" />
		<tag k="ssr:stedsnr" v="388959" />
	</node>
</osm>
