<?xml version="1.0" encoding="UTF-8"?>
<osm version="0.6" generator="osmapis">
	<node lat="59.11357200982715" lon="10.391480039895187" id="-24667">
		<tag k="alt_name" v="Tjøme" />
		<tag k="amenity" v="place_of_worship" />
		<tag k="denomination" v="lutheran" />
		<tag k="name" v="Tjøme kirke" />
		<tag k="religion" v="christian" />
		<tag k="ssr:stedsnr" v="244438" />
	</node>
	<node lat="59.08023179427945" lon="10.443178916599972" id="-24886">
		<tag k="amenity" v="place_of_worship" />
		<tag k="denomination" v="lutheran" />
		<tag k="name" v="Hvasser kirke" />
		<tag k="religion" v="christian" />
		<tag k="ssr:stedsnr" v="669432" />
	</node>
	<node lat="59.23022864749809" lon="10.40652715000573" id="-24906">
		<tag k="alt_name" v="Nøtterøy" />
		<tag k="amenity" v="place_of_worship" />
		<tag k="denomination" v="lutheran" />
		<tag k="name" v="Nøtterøy kirke" />
		<tag k="religion" v="christian" />
		<tag k="ssr:stedsnr" v="730019" />
	</node>
	<node lat="59.072263887875664" lon="10.397080548950045" id="-25365">
		<tag k="amenity" v="place_of_worship" />
		<tag k="denomination" v="lutheran" />
		<tag k="name" v="Mokjerka" />
		<tag k="religion" v="christian" />
		<tag k="ssr:stedsnr" v="571386" />
	</node>
	<node lat="59.18116760611677" lon="10.44144843300789" id="-25386">
		<tag k="amenity" v="place_of_worship" />
		<tag k="denomination" v="lutheran" />
		<tag k="name" v="Torød kirke" />
		<tag k="religion" v="christian" />
		<tag k="ssr:stedsnr" v="608075" />
	</node>
</osm>
