<?xml version="1.0" encoding="UTF-8"?>
<osm version="0.6" generator="osmapis">
	<node lat="59.21504166974341" lon="10.371977770551277" id="-19767">
		<tag k="name" v="Øra" />
		<tag k="natural" v="beach" />
		<tag k="ssr:stedsnr" v="1058" />
	</node>
	<node lat="59.185659662480376" lon="10.527614297585501" id="-19771">
		<tag k="name" v="Skjellerøy" />
		<tag k="place" v="island" />
		<tag k="ssr:stedsnr" v="1103" />
	</node>
	<node lat="59.172727778632954" lon="10.518366670660722" id="-19774">
		<tag k="fixme" v="consider seamark:type=rock or natural=shoal" />
		<tag k="name" v="Kråkene" />
		<tag k="place" v="islet" />
		<tag k="ssr:stedsnr" v="1113" />
	</node>
	<node lat="59.17906287533344" lon="10.488077818306047" id="-19775">
		<tag k="name" v="Lindholmen" />
		<tag k="place" v="islet" />
		<tag k="ssr:stedsnr" v="1114" />
	</node>
	<node lat="59.16013611539826" lon="10.378641670359809" id="-19776">
		<tag k="alt_name" v="Rødnestangen" />
		<tag k="name" v="Rødnes" />
		<tag k="natural" v="cape" />
		<tag k="ssr:stedsnr" v="1117" />
	</node>
	<node lat="59.09725000401767" lon="10.381847223554479" id="-19777">
		<tag k="name" v="Dirhue" />
		<tag k="natural" v="cape" />
		<tag k="ssr:stedsnr" v="1409" />
	</node>
	<node lat="59.063641663552744" lon="10.443450001793591" id="-19778">
		<tag k="name" v="Krøkle" />
		<tag k="place" v="islet" />
		<tag k="ssr:stedsnr" v="20994" />
	</node>
	<node lat="59.104922219855126" lon="10.379388885256352" id="-19779">
		<tag k="name" v="Eplevika" />
		<tag k="natural" v="bay" />
		<tag k="ssr:stedsnr" v="24309" />
	</node>
	<node lat="59.11687499634928" lon="10.381969436885681" id="-19780">
		<tag k="name" v="Bekkevika" />
		<tag k="natural" v="bay" />
		<tag k="ssr:stedsnr" v="24313" />
	</node>
	<node lat="59.150475710493254" lon="10.475029319985419" id="-19781">
		<tag k="name" v="Reierbåen" />
		<tag k="natural" v="shoal" />
		<tag k="place" v="locality" />
		<tag k="ssr:stedsnr" v="24703" />
	</node>
	<node lat="59.13265555770317" lon="10.420150005970584" id="-19782">
		<tag k="fixme" v="consider seamark:type=rock or natural=shoal" />
		<tag k="name" v="Løkeskjær" />
		<tag k="place" v="islet" />
		<tag k="ssr:stedsnr" v="25122" />
	</node>
	<node lat="59.062363885242455" lon="10.414294452731761" id="-19783">
		<tag k="name" v="Grepanbukta" />
		<tag k="natural" v="bay" />
		<tag k="ssr:stedsnr" v="25379" />
	</node>
	<node lat="59.06633888572228" lon="10.419524991218713" id="-19784">
		<tag k="name" v="Vesle Grevik" />
		<tag k="natural" v="beach" />
		<tag k="ssr:stedsnr" v="25380" />
	</node>
	<node lat="59.059183331949576" lon="10.454208331334453" id="-19790">
		<tag k="name" v="Kløvningbåen" />
		<tag k="natural" v="shoal" />
		<tag k="place" v="locality" />
		<tag k="ssr:stedsnr" v="25995" />
	</node>
	<node lat="59.043436112755465" lon="10.53304443742071" id="-19793">
		<tag k="name" v="Monshausen" />
		<tag k="natural" v="shoal" />
		<tag k="ssr:stedsnr" v="54517" />
	</node>
	<node lat="59.24374444202087" lon="10.444700008496364" id="-19794">
		<tag k="name" v="Kalvetangen" />
		<tag k="natural" v="cape" />
		<tag k="ssr:stedsnr" v="62004" />
	</node>
	<node lat="59.18079360890629" lon="10.558362181785345" id="-19795">
		<tag k="alt_name" v="Klauver, vestre" />
		<tag k="name" v="Vestre Klauver" />
		<tag k="place" v="island" />
		<tag k="ssr:stedsnr" v="62076" />
	</node>
	<node lat="59.188622221121314" lon="10.576766664712254" id="-19796">
		<tag k="name" v="Skarvesetet" />
		<tag k="place" v="islet" />
		<tag k="ssr:stedsnr" v="62082" />
	</node>
	<node lat="59.18185940633819" lon="10.559561245472661" id="-19801">
		<tag k="alt_name" v="Klauver" />
		<tag k="name" v="Klauver, m" />
		<tag k="place" v="island" />
		<tag k="ssr:stedsnr" v="244096" />
	</node>
	<node lat="59.187747218242315" lon="10.566627772075709" id="-19802">
		<tag k="fixme" v="consider seamark:type=rock or natural=shoal" />
		<tag k="name" v="Svartskjæra" />
		<tag k="place" v="islet" />
		<tag k="ssr:stedsnr" v="244097" />
	</node>
	<node lat="59.1931555541135" lon="10.547147217822772" id="-19803">
		<tag k="name" v="Ramsholmen" />
		<tag k="place" v="islet" />
		<tag k="ssr:stedsnr" v="244099" />
	</node>
	<node lat="59.099088891046065" lon="10.472738886255957" id="-19806">
		<tag k="fixme" v="consider seamark:type=rock or natural=shoal" />
		<tag k="name" v="Selskjæra" />
		<tag k="place" v="islet" />
		<tag k="ssr:stedsnr" v="244441" />
	</node>
	<node lat="59.13852500271575" lon="10.526594442033325" id="-19808">
		<tag k="alt_name" v="Kjeleboen" />
		<tag k="name" v="Kjelebåen" />
		<tag k="natural" v="shoal" />
		<tag k="place" v="locality" />
		<tag k="ssr:stedsnr" v="84814" />
	</node>
	<node lat="59.14287222126034" lon="10.354666660948595" id="-19810">
		<tag k="name" v="Taraldkilen" />
		<tag k="natural" v="bay" />
		<tag k="ssr:stedsnr" v="85210" />
	</node>
	<node lat="59.24612222575934" lon="10.378486114074878" id="-19812">
		<tag k="bay" v="fjord" />
		<tag k="name" v="Vestfjorden" />
		<tag k="natural" v="bay" />
		<tag k="ssr:stedsnr" v="245295" />
	</node>
	<node lat="59.220669448559576" lon="10.561530554404065" id="-19813">
		<tag k="name" v="Labuktbåen" />
		<tag k="place" v="locality" />
		<tag k="seamark:type" v="rock" />
		<tag k="ssr:stedsnr" v="85790" />
	</node>
	<node lat="59.14198611033516" lon="10.384349996095349" id="-19820">
		<tag k="name" v="Erland" />
		<tag k="natural" v="cape" />
		<tag k="ssr:stedsnr" v="86236" />
	</node>
	<node lat="59.14523055526902" lon="10.429672222479336" id="-19826">
		<tag k="name" v="Sydvesten" />
		<tag k="natural" v="cape" />
		<tag k="ssr:stedsnr" v="86692" />
	</node>
	<node lat="59.088816665116184" lon="10.42015000077132" id="-19828">
		<tag k="alt_name" v="Røssesundet" />
		<tag k="name" v="Røssesund" />
		<tag k="natural" v="strait" />
		<tag k="ssr:stedsnr" v="122413" />
	</node>
	<node lat="59.20262458590717" lon="10.466888824162183" id="-19832">
		<tag k="name" v="Bjerkøy" />
		<tag k="place" v="island" />
		<tag k="ssr:stedsnr" v="123085" />
	</node>
	<node lat="59.180577775727414" lon="10.592741671026372" id="-19835">
		<tag k="fixme" v="consider seamark:type=rock or natural=shoal" />
		<tag k="name" v="Tova" />
		<tag k="place" v="islet" />
		<tag k="ssr:stedsnr" v="123115" />
	</node>
	<node lat="59.167376422769586" lon="10.493769072057864" id="-19836">
		<tag k="name" v="Roppestadholmen" />
		<tag k="place" v="island" />
		<tag k="ssr:stedsnr" v="123133" />
	</node>
	<node lat="59.16917279532148" lon="10.45495455661954" id="-19837">
		<tag k="name" v="Søndre Årøy" />
		<tag k="place" v="island" />
		<tag k="ssr:stedsnr" v="123136" />
	</node>
	<node lat="59.03061110686438" lon="10.530166668399941" id="-19838">
		<tag k="fixme" v="consider seamark:type=rock or natural=shoal" />
		<tag k="name" v="Bøla" />
		<tag k="place" v="islet" />
		<tag k="ssr:stedsnr" v="123536" />
	</node>
	<node lat="59.037202778449064" lon="10.529961104180273" id="-19839">
		<tag k="name" v="Bølebåen" />
		<tag k="natural" v="shoal" />
		<tag k="place" v="locality" />
		<tag k="ssr:stedsnr" v="146031" />
	</node>
	<node lat="59.135902775446525" lon="10.431461109304804" id="-19840">
		<tag k="name" v="Simensmettet" />
		<tag k="natural" v="strait" />
		<tag k="ssr:stedsnr" v="146217" />
	</node>
	<node lat="59.136752777061865" lon="10.435830561962186" id="-19841">
		<tag k="fixme" v="consider seamark:type=rock or natural=shoal" />
		<tag k="name" v="Hummerskjær" />
		<tag k="place" v="islet" />
		<tag k="ssr:stedsnr" v="146220" />
	</node>
	<node lat="59.098827781764534" lon="10.432086109259926" id="-19843">
		<tag k="fixme" v="consider seamark:type=rock or natural=shoal" />
		<tag k="name" v="Rødeskjær" />
		<tag k="place" v="islet" />
		<tag k="ssr:stedsnr" v="146607" />
	</node>
	<node lat="59.13844167037693" lon="10.440913897409976" id="-19844">
		<tag k="name" v="Burøsund" />
		<tag k="natural" v="strait" />
		<tag k="ssr:stedsnr" v="148169" />
	</node>
	<node lat="59.19076485997144" lon="10.497731947272221" id="-19845">
		<tag k="fixme" v="consider seamark:type=rock or natural=shoal" />
		<tag k="name" v="Bannsatt" />
		<tag k="place" v="islet" />
		<tag k="ssr:stedsnr" v="149071" />
	</node>
	<node lat="59.21079444633432" lon="10.484016673145701" id="-19846">
		<tag k="fixme" v="consider seamark:type=rock or natural=shoal" />
		<tag k="name" v="Aslak" />
		<tag k="place" v="islet" />
		<tag k="ssr:stedsnr" v="149073" />
	</node>
	<node lat="59.247424998336456" lon="10.440574994401999" id="-19847">
		<tag k="bay" v="fjord" />
		<tag k="name" v="Træla" />
		<tag k="natural" v="bay" />
		<tag k="ssr:stedsnr" v="183004" />
	</node>
	<node lat="59.09761666280387" lon="10.445341663778521" id="-19850">
		<tag k="name" v="Oddane" />
		<tag k="natural" v="cape" />
		<tag k="ssr:stedsnr" v="183364" />
	</node>
	<node lat="59.09617263370405" lon="10.417407730980422" id="-19851">
		<tag k="name" v="Tangen" />
		<tag k="natural" v="cape" />
		<tag k="ssr:stedsnr" v="183367" />
	</node>
	<node lat="59.07377500178048" lon="10.458255554545353" id="-19854">
		<tag k="name" v="Sandøsund" />
		<tag k="natural" v="strait" />
		<tag k="ssr:stedsnr" v="183406" />
	</node>
	<node lat="59.06938611257757" lon="10.452122222856934" id="-19855">
		<tag k="name" v="Jørestranda" />
		<tag k="natural" v="beach" />
		<tag k="ssr:stedsnr" v="183407" />
	</node>
	<node lat="59.157352780922515" lon="10.476047226198016" id="-19858">
		<tag k="fixme" v="consider seamark:type=rock or natural=shoal" />
		<tag k="name" v="Kalven" />
		<tag k="place" v="islet" />
		<tag k="ssr:stedsnr" v="184094" />
	</node>
	<node lat="59.158741664119546" lon="10.54279165847101" id="-19860">
		<tag k="fixme" v="consider seamark:type=rock or natural=shoal" />
		<tag k="name" v="Vierskjæra" />
		<tag k="place" v="islet" />
		<tag k="ssr:stedsnr" v="184105" />
	</node>
	<node lat="59.09455277883204" lon="10.578774999963445" id="-19862">
		<tag k="name" v="Hellegrunnen" />
		<tag k="natural" v="shoal" />
		<tag k="place" v="locality" />
		<tag k="ssr:stedsnr" v="266798" />
	</node>
	<node lat="59.21134166555076" lon="10.539497229390857" id="-19863">
		<tag k="name" v="Knappen" />
		<tag k="natural" v="cape" />
		<tag k="ssr:stedsnr" v="266800" />
	</node>
	<node lat="59.12021944635021" lon="10.3497777783868" id="-19865">
		<tag k="name" v="Vestre Hui" />
		<tag k="natural" v="cape" />
		<tag k="ssr:stedsnr" v="267282" />
	</node>
	<node lat="59.11047222450128" lon="10.35981944788126" id="-19866">
		<tag k="name" v="Stokkandkriken" />
		<tag k="natural" v="bay" />
		<tag k="ssr:stedsnr" v="267287" />
	</node>
	<node lat="59.12734999782994" lon="10.446500006034245" id="-19870">
		<tag k="fixme" v="consider seamark:type=rock or natural=shoal" />
		<tag k="name" v="Buskeskjæra" />
		<tag k="place" v="islet" />
		<tag k="ssr:stedsnr" v="267946" />
	</node>
	<node lat="59.16983888959984" lon="10.444816662189222" id="-19872">
		<tag k="name" v="Nestvik" />
		<tag k="natural" v="bay" />
		<tag k="ssr:stedsnr" v="267952" />
	</node>
	<node lat="59.168599999006695" lon="10.407633326368757" id="-19873">
		<tag k="fixme" v="consider seamark:type=rock or natural=shoal" />
		<tag k="name" v="Gryteskjær" />
		<tag k="place" v="islet" />
		<tag k="ssr:stedsnr" v="267961" />
	</node>
	<node lat="59.236899999588616" lon="10.430388896174357" id="-19874">
		<tag k="name" v="Øhrebukta" />
		<tag k="natural" v="bay" />
		<tag k="ssr:stedsnr" v="267975" />
	</node>
	<node lat="59.06837777942053" lon="10.392536106031903" id="-19876">
		<tag k="name" v="Taradynga" />
		<tag k="natural" v="beach" />
		<tag k="ssr:stedsnr" v="268371" />
	</node>
	<node lat="59.07738055202022" lon="10.427452773016633" id="-19877">
		<tag k="fixme" v="consider seamark:type=rock or natural=shoal" />
		<tag k="name" v="Seiskjæra" />
		<tag k="place" v="islet" />
		<tag k="ssr:stedsnr" v="268373" />
	</node>
	<node lat="59.15358610722443" lon="10.430044443424137" id="-19880">
		<tag k="fixme" v="consider seamark:type=rock or natural=shoal" />
		<tag k="name" v="Løkkeskjær" />
		<tag k="place" v="islet" />
		<tag k="ssr:stedsnr" v="268645" />
	</node>
	<node lat="59.08306666967297" lon="10.450605560759595" id="-19883">
		<tag k="name" v="Kruke" />
		<tag k="natural" v="bay" />
		<tag k="ssr:stedsnr" v="268652" />
	</node>
	<node lat="59.10718888713363" lon="10.443061106111536" id="-19885">
		<tag k="fixme" v="consider seamark:type=rock or natural=shoal" />
		<tag k="name" v="Isenskjær" />
		<tag k="place" v="islet" />
		<tag k="ssr:stedsnr" v="268621" />
	</node>
	<node lat="59.131061111200346" lon="10.415122223306543" id="-19886">
		<tag k="fixme" v="consider seamark:type=rock or natural=shoal" />
		<tag k="name" v="Vaskjær" />
		<tag k="place" v="islet" />
		<tag k="ssr:stedsnr" v="207121" />
	</node>
	<node lat="59.11603333293545" lon="10.346574993974867" id="-19888">
		<tag k="name" v="Galten" />
		<tag k="place" v="locality" />
		<tag k="seamark:type" v="rock" />
		<tag k="ssr:stedsnr" v="207605" />
	</node>
	<node lat="59.15480555301254" lon="10.430577774381595" id="-19894">
		<tag k="name" v="Mågerøkilen" />
		<tag k="natural" v="bay" />
		<tag k="ssr:stedsnr" v="207635" />
	</node>
	<node lat="59.168136110922866" lon="10.389905547515177" id="-19895">
		<tag k="alt_name" v="Ferjeodden" />
		<tag k="name" v="Fergeodden" />
		<tag k="natural" v="cape" />
		<tag k="ssr:stedsnr" v="207941" />
	</node>
	<node lat="59.166133335308764" lon="10.387283339817673" id="-19896">
		<tag k="name" v="Mørkholmen" />
		<tag k="natural" v="cape" />
		<tag k="ssr:stedsnr" v="207956" />
	</node>
	<node lat="59.060105554299994" lon="10.365136103575866" id="-19897">
		<tag k="name" v="Gullhaugene" />
		<tag k="natural" v="shoal" />
		<tag k="place" v="locality" />
		<tag k="ssr:stedsnr" v="208949" />
	</node>
	<node lat="59.06321944716292" lon="10.37241110914589" id="-19898">
		<tag k="name" v="Teinehausen" />
		<tag k="natural" v="shoal" />
		<tag k="place" v="locality" />
		<tag k="ssr:stedsnr" v="208995" />
	</node>
	<node lat="59.02211389316352" lon="10.435747221184435" id="-19900">
		<tag k="name" v="Østre Osgrunn" />
		<tag k="natural" v="shoal" />
		<tag k="place" v="locality" />
		<tag k="ssr:stedsnr" v="269998" />
	</node>
	<node lat="59.20387499765678" lon="10.45662777368255" id="-19901">
		<tag k="name" v="Ulvøytangen" />
		<tag k="natural" v="cape" />
		<tag k="ssr:stedsnr" v="271084" />
	</node>
	<node lat="59.21450000126254" lon="10.525866673341095" id="-19902">
		<tag k="name" v="Bringebærbåen" />
		<tag k="place" v="locality" />
		<tag k="seamark:type" v="rock" />
		<tag k="ssr:stedsnr" v="271979" />
	</node>
	<node lat="59.170316669205434" lon="10.411616661068978" id="-19903">
		<tag k="name" v="Sjøstrand" />
		<tag k="natural" v="beach" />
		<tag k="ssr:stedsnr" v="271990" />
	</node>
	<node lat="59.10874999983992" lon="10.361805549722709" id="-19904">
		<tag k="name" v="Trælsodden" />
		<tag k="natural" v="cape" />
		<tag k="ssr:stedsnr" v="449298" />
	</node>
	<node lat="59.1428583304525" lon="10.481355560233848" id="-19905">
		<tag k="name" v="Klokkerbåen" />
		<tag k="natural" v="shoal" />
		<tag k="place" v="locality" />
		<tag k="ssr:stedsnr" v="449674" />
	</node>
	<node lat="59.129155551206786" lon="10.461977770930181" id="-19906">
		<tag k="name" v="Galiotbåen" />
		<tag k="natural" v="shoal" />
		<tag k="place" v="locality" />
		<tag k="ssr:stedsnr" v="449695" />
	</node>
	<node lat="59.12967221865114" lon="10.414422217174883" id="-19907">
		<tag k="name" v="Hagakilen" />
		<tag k="natural" v="bay" />
		<tag k="ssr:stedsnr" v="450198" />
	</node>
	<node lat="59.09315000390425" lon="10.43278333744126" id="-19910">
		<tag k="name" v="Ørahavna" />
		<tag k="natural" v="cape" />
		<tag k="ssr:stedsnr" v="450645" />
	</node>
	<node lat="59.09746944847361" lon="10.43220832920588" id="-19911">
		<tag k="fixme" v="consider seamark:type=rock or natural=shoal" />
		<tag k="name" v="Garpeskjær" />
		<tag k="place" v="islet" />
		<tag k="ssr:stedsnr" v="450648" />
	</node>
	<node lat="58.98920277500284" lon="10.635730550662254" id="-19914">
		<tag k="name" v="Mefjordgrunnen" />
		<tag k="natural" v="shoal" />
		<tag k="place" v="locality" />
		<tag k="ssr:stedsnr" v="451093" />
	</node>
	<node lat="59.15583888475122" lon="10.446713890161286" id="-19915">
		<tag k="alt_name" v="Pusene" />
		<tag k="fixme" v="consider seamark:type=rock or natural=shoal" />
		<tag k="name" v="Pusane" />
		<tag k="place" v="islet" />
		<tag k="ssr:stedsnr" v="240913" />
	</node>
	<node lat="59.2269749972145" lon="10.381452783063834" id="-19916">
		<tag k="name" v="Furuodden" />
		<tag k="natural" v="cape" />
		<tag k="ssr:stedsnr" v="240978" />
	</node>
	<node lat="59.23549999783821" lon="10.492536118381128" id="-19918">
		<tag k="name" v="Ormøysteinane" />
		<tag k="natural" v="shoal" />
		<tag k="place" v="locality" />
		<tag k="ssr:stedsnr" v="244031" />
	</node>
	<node lat="59.2185805571596" lon="10.538852782114136" id="-19920">
		<tag k="fixme" v="consider seamark:type=rock or natural=shoal" />
		<tag k="name" v="Jenseskjær" />
		<tag k="place" v="islet" />
		<tag k="ssr:stedsnr" v="244039" />
	</node>
	<node lat="59.22033055655538" lon="10.511511105221055" id="-19921">
		<tag k="name" v="Masseløy" />
		<tag k="place" v="islet" />
		<tag k="ssr:stedsnr" v="244041" />
	</node>
	<node lat="59.17593611440245" lon="10.594494442932444" id="-19925">
		<tag k="alt_name" v="Rauer, l;Rauer, lille;Rauer lille" />
		<tag k="name" v="Lille Rauer" />
		<tag k="place" v="island" />
		<tag k="ssr:stedsnr" v="244104" />
	</node>
	<node lat="59.18472500410153" lon="10.589733327644549" id="-19927">
		<tag k="fixme" v="consider seamark:type=rock or natural=shoal" />
		<tag k="name" v="Garnskjær" />
		<tag k="place" v="islet" />
		<tag k="ssr:stedsnr" v="244117" />
	</node>
	<node lat="59.136552775811055" lon="10.486325003461909" id="-19931">
		<tag k="fixme" v="consider seamark:type=rock or natural=shoal" />
		<tag k="name" v="Leisteinskjæra" />
		<tag k="place" v="islet" />
		<tag k="ssr:stedsnr" v="244404" />
	</node>
	<node lat="59.09393055705902" lon="10.497322229853756" id="-19933">
		<tag k="fixme" v="consider seamark:type=rock or natural=shoal" />
		<tag k="name" v="Melleskjær" />
		<tag k="place" v="islet" />
		<tag k="ssr:stedsnr" v="244414" />
	</node>
	<node lat="59.1213442458399" lon="10.35800003783046" id="-19936">
		<tag k="name" v="Hui" />
		<tag k="place" v="island" />
		<tag k="ssr:stedsnr" v="244384" />
	</node>
	<node lat="59.117577779003724" lon="10.502111118900267" id="-19937">
		<tag k="alt_name" v="Drilleneflakket" />
		<tag k="name" v="Drillaneflaket" />
		<tag k="natural" v="shoal" />
		<tag k="place" v="locality" />
		<tag k="ssr:stedsnr" v="244392" />
	</node>
	<node lat="59.15175881322015" lon="10.43707759429532" id="-19938">
		<tag k="name" v="Mågerø" />
		<tag k="natural" v="cape" />
		<tag k="ssr:stedsnr" v="244397" />
	</node>
	<node lat="59.142588885749625" lon="10.424297220007691" id="-19939">
		<tag k="name" v="Galten" />
		<tag k="place" v="islet" />
		<tag k="ssr:stedsnr" v="244398" />
	</node>
	<node lat="59.06888055127544" lon="10.391930558334836" id="-19940">
		<tag k="fixme" v="consider seamark:type=rock or natural=shoal" />
		<tag k="name" v="Taredyngrevet" />
		<tag k="place" v="islet" />
		<tag k="ssr:stedsnr" v="244477" />
	</node>
	<node lat="59.23268611226132" lon="10.531641663548319" id="-19941">
		<tag k="name" v="Østerbåen" />
		<tag k="place" v="locality" />
		<tag k="seamark:type" v="rock" />
		<tag k="ssr:stedsnr" v="453064" />
	</node>
	<node lat="59.232858328996066" lon="10.488288883549732" id="-19942">
		<tag k="name" v="Langskjærbåen" />
		<tag k="place" v="locality" />
		<tag k="seamark:type" v="rock" />
		<tag k="ssr:stedsnr" v="453037" />
	</node>
	<node lat="59.15488888950266" lon="10.37479722092207" id="-19943">
		<tag k="name" v="Langestrand" />
		<tag k="natural" v="beach" />
		<tag k="ssr:stedsnr" v="267224" />
	</node>
	<node lat="59.141778848713095" lon="10.379016138380763" id="-19944">
		<tag k="alt_name" v="Bukkeli-Odden" />
		<tag k="name" v="Bukkeliodden" />
		<tag k="natural" v="cape" />
		<tag k="ssr:stedsnr" v="267226" />
	</node>
	<node lat="59.14271111081348" lon="10.353138886314524" id="-19946">
		<tag k="name" v="Taraldkilodden" />
		<tag k="natural" v="cape" />
		<tag k="ssr:stedsnr" v="267248" />
	</node>
	<node lat="59.26749999920446" lon="10.389699995977429" id="-19948">
		<tag k="name" v="Danholmen" />
		<tag k="natural" v="cape" />
		<tag k="ssr:stedsnr" v="267726" />
	</node>
	<node lat="59.20886666896383" lon="10.572897223508035" id="-19950">
		<tag k="name" v="Hestbårumpa" />
		<tag k="place" v="locality" />
		<tag k="seamark:type" v="rock" />
		<tag k="ssr:stedsnr" v="267828" />
	</node>
	<node lat="59.131041668119344" lon="10.441769444551094" id="-19951">
		<tag k="name" v="Søndrebukta" />
		<tag k="natural" v="bay" />
		<tag k="ssr:stedsnr" v="267938" />
	</node>
	<node lat="59.22950833064293" lon="10.440538885690797" id="-19958">
		<tag k="name" v="Sandodden" />
		<tag k="natural" v="cape" />
		<tag k="ssr:stedsnr" v="268980" />
	</node>
	<node lat="59.097508331760665" lon="10.425430557340716" id="-19962">
		<tag k="name" v="Brøtsø" />
		<tag k="place" v="island" />
		<tag k="ssr:stedsnr" v="304430" />
	</node>
	<node lat="59.2318333373502" lon="10.540133334185692" id="-19966">
		<tag k="alt_name" v="Teinebåane" />
		<tag k="name" v="Teinebåen" />
		<tag k="natural" v="shoal" />
		<tag k="place" v="locality" />
		<tag k="ssr:stedsnr" v="305022" />
	</node>
	<node lat="59.21920000135495" lon="10.501861119159035" id="-19967">
		<tag k="name" v="Espelund" />
		<tag k="place" v="islet" />
		<tag k="ssr:stedsnr" v="305032" />
	</node>
	<node lat="59.05401666871037" lon="10.401502781503247" id="-19970">
		<tag k="fixme" v="consider seamark:type=rock or natural=shoal" />
		<tag k="name" v="Velvikskjær" />
		<tag k="place" v="islet" />
		<tag k="ssr:stedsnr" v="305462" />
	</node>
	<node lat="59.040663888113286" lon="10.396338888613165" id="-19971">
		<tag k="fixme" v="consider seamark:type=rock or natural=shoal" />
		<tag k="name" v="Svartskjær" />
		<tag k="place" v="islet" />
		<tag k="ssr:stedsnr" v="305480" />
	</node>
	<node lat="59.10117777667257" lon="10.51273055746376" id="-19972">
		<tag k="name" v="Fjærskjærbåene" />
		<tag k="natural" v="shoal" />
		<tag k="place" v="locality" />
		<tag k="ssr:stedsnr" v="327708" />
	</node>
	<node lat="59.12406944841625" lon="10.431025003766699" id="-19974">
		<tag k="fixme" v="consider seamark:type=rock or natural=shoal" />
		<tag k="name" v="Møyeskjæra" />
		<tag k="place" v="islet" />
		<tag k="ssr:stedsnr" v="328209" />
	</node>
	<node lat="59.12140555235892" lon="10.423686118646657" id="-19975">
		<tag k="fixme" v="consider seamark:type=rock or natural=shoal" />
		<tag k="name" v="Skuteskjær" />
		<tag k="place" v="islet" />
		<tag k="ssr:stedsnr" v="328210" />
	</node>
	<node lat="59.142077781342195" lon="10.348655558882195" id="-19976">
		<tag k="name" v="Krikakilen" />
		<tag k="natural" v="bay" />
		<tag k="ssr:stedsnr" v="328211" />
	</node>
	<node lat="59.1404416649334" lon="10.334602772421368" id="-19977">
		<tag k="fixme" v="consider seamark:type=rock or natural=shoal" />
		<tag k="name" v="Kjeleskjær" />
		<tag k="place" v="islet" />
		<tag k="ssr:stedsnr" v="328212" />
	</node>
	<node lat="59.17093333328513" lon="10.355444439060076" id="-19979">
		<tag k="name" v="Saueholmen" />
		<tag k="place" v="islet" />
		<tag k="ssr:stedsnr" v="328418" />
	</node>
	<node lat="59.09219166745501" lon="10.39856389228521" id="-19981">
		<tag k="name" v="Furusund" />
		<tag k="natural" v="strait" />
		<tag k="ssr:stedsnr" v="328608" />
	</node>
	<node lat="59.08490833720737" lon="10.397663889639917" id="-19983">
		<tag k="name" v="Kolabekkstranda" />
		<tag k="natural" v="beach" />
		<tag k="ssr:stedsnr" v="328612" />
	</node>
	<node lat="59.13402222428357" lon="10.344133325605778" id="-19984">
		<tag k="name" v="Brudebåen" />
		<tag k="place" v="locality" />
		<tag k="seamark:type" v="rock" />
		<tag k="ssr:stedsnr" v="328621" />
	</node>
	<node lat="59.085866671017236" lon="10.440588888089579" id="-19985">
		<tag k="name" v="Verven" />
		<tag k="natural" v="bay" />
		<tag k="ssr:stedsnr" v="328662" />
	</node>
	<node lat="59.20361111216734" lon="10.558938882549086" id="-19992">
		<tag k="alt_name" v="Kultane" />
		<tag k="fixme" v="consider seamark:type=rock or natural=shoal" />
		<tag k="name" v="Kultene" />
		<tag k="place" v="islet" />
		<tag k="ssr:stedsnr" v="365054" />
	</node>
	<node lat="59.14513889121628" lon="10.365908335567955" id="-19993">
		<tag k="name" v="Oslebakke" />
		<tag k="natural" v="cape" />
		<tag k="ssr:stedsnr" v="365412" />
	</node>
	<node lat="59.05430277515535" lon="10.413336118957776" id="-19994">
		<tag k="alt_name" v="Sandholmene" />
		<tag k="name" v="Sandholmen" />
		<tag k="place" v="islet" />
		<tag k="ssr:stedsnr" v="365458" />
	</node>
	<node lat="59.142710383075254" lon="10.36942861400797" id="-19995">
		<tag k="alt_name" v="Oslebakkholmen" />
		<tag k="name" v="Oslebakkholmane" />
		<tag k="place" v="islet" />
		<tag k="ssr:stedsnr" v="366408" />
	</node>
	<node lat="59.13550000142139" lon="10.471313895582192" id="-19996">
		<tag k="fixme" v="consider seamark:type=rock or natural=shoal" />
		<tag k="name" v="Mosteinskjæra" />
		<tag k="place" v="islet" />
		<tag k="ssr:stedsnr" v="366410" />
	</node>
	<node lat="59.15066877735509" lon="10.538689684117005" id="-19998">
		<tag k="name" v="Vestre Vierskjærflakket" />
		<tag k="natural" v="shoal" />
		<tag k="place" v="locality" />
		<tag k="ssr:stedsnr" v="387791" />
	</node>
	<node lat="59.127758335572224" lon="10.381077778324629" id="-20000">
		<tag k="name" v="Ålebråten" />
		<tag k="natural" v="cape" />
		<tag k="ssr:stedsnr" v="388199" />
	</node>
	<node lat="59.11127222012356" lon="10.362855561398963" id="-20001">
		<tag k="name" v="Dødningsbukta" />
		<tag k="natural" v="bay" />
		<tag k="ssr:stedsnr" v="388293" />
	</node>
	<node lat="59.177063888735596" lon="10.39001388129755" id="-20003">
		<tag k="name" v="Sevik-kilen" />
		<tag k="natural" v="bay" />
		<tag k="ssr:stedsnr" v="388948" />
	</node>
	<node lat="59.05975278122252" lon="10.41736110955786" id="-20006">
		<tag k="name" v="Rundlindholmen" />
		<tag k="place" v="islet" />
		<tag k="ssr:stedsnr" v="389399" />
	</node>
	<node lat="59.06052777675949" lon="10.427141674072613" id="-20007">
		<tag k="fixme" v="consider seamark:type=rock or natural=shoal" />
		<tag k="name" v="Svartskjær" />
		<tag k="place" v="islet" />
		<tag k="ssr:stedsnr" v="389400" />
	</node>
	<node lat="59.14946389102234" lon="10.424325008332303" id="-20011">
		<tag k="name" v="Ødegårdskilen" />
		<tag k="natural" v="bay" />
		<tag k="ssr:stedsnr" v="389700" />
	</node>
	<node lat="59.06202499897163" lon="10.436133326956833" id="-20016">
		<tag k="name" v="Uleholmsundet" />
		<tag k="natural" v="strait" />
		<tag k="ssr:stedsnr" v="486482" />
	</node>
	<node lat="59.18128680848951" lon="10.465284064178938" id="-20017">
		<tag k="name" v="Nordre Årøy" />
		<tag k="place" v="island" />
		<tag k="ssr:stedsnr" v="487068" />
	</node>
	<node lat="59.18634799253007" lon="10.501096457710284" id="-20018">
		<tag k="fixme" v="consider seamark:type=rock or natural=shoal" />
		<tag k="name" v="Bassen" />
		<tag k="place" v="islet" />
		<tag k="ssr:stedsnr" v="487069" />
	</node>
	<node lat="59.23770000200158" lon="10.445797225020428" id="-20023">
		<tag k="name" v="Føynland" />
		<tag k="place" v="island" />
		<tag k="ssr:stedsnr" v="487034" />
	</node>
	<node lat="59.17061388915187" lon="10.538411115366635" id="-20025">
		<tag k="fixme" v="consider seamark:type=rock or natural=shoal" />
		<tag k="name" v="Hestskjær" />
		<tag k="place" v="islet" />
		<tag k="ssr:stedsnr" v="487084" />
	</node>
	<node lat="59.15062221871672" lon="10.468244443207297" id="-20026">
		<tag k="alt_name" v="Reieren" />
		<tag k="name" v="Reiaren" />
		<tag k="place" v="islet" />
		<tag k="ssr:stedsnr" v="487422" />
	</node>
	<node lat="59.143938890791645" lon="10.496800007816889" id="-20027">
		<tag k="name" v="Leistein" />
		<tag k="place" v="island" />
		<tag k="ssr:stedsnr" v="487424" />
	</node>
	<node lat="59.015655557548605" lon="10.515575005531927" id="-20029">
		<tag k="name" v="Tristeingrunnen" />
		<tag k="natural" v="shoal" />
		<tag k="place" v="locality" />
		<tag k="ssr:stedsnr" v="487527" />
	</node>
	<node lat="59.17198055210885" lon="10.362838882182558" id="-20031">
		<tag k="fixme" v="consider seamark:type=rock or natural=shoal" />
		<tag k="name" v="Tenvikskjær" />
		<tag k="place" v="islet" />
		<tag k="ssr:stedsnr" v="422919" />
	</node>
	<node lat="59.109038888082644" lon="10.471091666177255" id="-20033">
		<tag k="alt_name" v="Pussane;Pusene" />
		<tag k="fixme" v="consider seamark:type=rock or natural=shoal" />
		<tag k="name" v="Pusane" />
		<tag k="place" v="islet" />
		<tag k="ssr:stedsnr" v="426402" />
	</node>
	<node lat="59.09970555576845" lon="10.461991663862827" id="-20034">
		<tag k="alt_name" v="Matkoll" />
		<tag k="name" v="Matkollen" />
		<tag k="place" v="islet" />
		<tag k="ssr:stedsnr" v="426412" />
	</node>
	<node lat="59.1041944477499" lon="10.505472226114616" id="-20035">
		<tag k="fixme" v="consider seamark:type=rock or natural=shoal" />
		<tag k="name" v="Lille Fjærskjær" />
		<tag k="place" v="islet" />
		<tag k="ssr:stedsnr" v="426415" />
	</node>
	<node lat="59.09885207963502" lon="10.446251157385573" id="-20036">
		<tag k="alt_name" v="Vasskalvsundet" />
		<tag k="name" v="Vasskalvsund" />
		<tag k="natural" v="strait" />
		<tag k="ssr:stedsnr" v="426417" />
	</node>
	<node lat="59.05495000029742" lon="10.405708332104078" id="-20037">
		<tag k="name" v="Helgerødtangen" />
		<tag k="natural" v="cape" />
		<tag k="ssr:stedsnr" v="426434" />
	</node>
	<node lat="59.16563888570224" lon="10.373374999231663" id="-20039">
		<tag k="name" v="Monstangen" />
		<tag k="natural" v="cape" />
		<tag k="ssr:stedsnr" v="427109" />
	</node>
	<node lat="59.10913888828904" lon="10.355813897205278" id="-20040">
		<tag k="name" v="Bukkholmen" />
		<tag k="place" v="islet" />
		<tag k="ssr:stedsnr" v="427404" />
	</node>
	<node lat="59.1357555544859" lon="10.352972214146815" id="-20042">
		<tag k="name" v="Terneholmen" />
		<tag k="place" v="islet" />
		<tag k="ssr:stedsnr" v="427421" />
	</node>
	<node lat="59.13310277705897" lon="10.372924994665755" id="-20043">
		<tag k="name" v="Vakersholmen" />
		<tag k="place" v="islet" />
		<tag k="ssr:stedsnr" v="449237" />
	</node>
	<node lat="59.14106944463923" lon="10.339094451349593" id="-20044">
		<tag k="name" v="Brydeholmen" />
		<tag k="place" v="islet" />
		<tag k="ssr:stedsnr" v="449239" />
	</node>
	<node lat="59.18103611553128" lon="10.599780560569423" id="-20045">
		<tag k="name" v="Lena" />
		<tag k="natural" v="shoal" />
		<tag k="place" v="locality" />
		<tag k="ssr:stedsnr" v="449803" />
	</node>
	<node lat="59.12129444464788" lon="10.467561104344247" id="-20046">
		<tag k="fixme" v="consider seamark:type=rock or natural=shoal" />
		<tag k="name" v="Småskjæra" />
		<tag k="place" v="islet" />
		<tag k="ssr:stedsnr" v="449910" />
	</node>
	<node lat="59.1277666684759" lon="10.44515833902046" id="-20047">
		<tag k="name" v="Raue-hue" />
		<tag k="natural" v="cape" />
		<tag k="ssr:stedsnr" v="449916" />
	</node>
	<node lat="59.17552927721061" lon="10.475352019624397" id="-20048">
		<tag k="name" v="Vassholmen" />
		<tag k="place" v="islet" />
		<tag k="ssr:stedsnr" v="449922" />
	</node>
	<node lat="59.17621388684149" lon="10.46310277312997" id="-20049">
		<tag k="fixme" v="consider seamark:type=rock or natural=shoal" />
		<tag k="name" v="Geiteskjæra" />
		<tag k="place" v="islet" />
		<tag k="ssr:stedsnr" v="449925" />
	</node>
	<node lat="59.138138888765425" lon="10.41311111393174" id="-20051">
		<tag k="name" v="Kustranda" />
		<tag k="natural" v="beach" />
		<tag k="ssr:stedsnr" v="450107" />
	</node>
	<node lat="59.06309999826765" lon="10.437486108312788" id="-20053">
		<tag k="name" v="Pirane" />
		<tag k="natural" v="beach" />
		<tag k="ssr:stedsnr" v="450380" />
	</node>
	<node lat="59.176227780604805" lon="10.38958611953518" id="-20055">
		<tag k="name" v="Sevika" />
		<tag k="natural" v="bay" />
		<tag k="ssr:stedsnr" v="453977" />
	</node>
	<node lat="59.21819503003213" lon="10.475694401036547" id="-20061">
		<tag k="name" v="Steinkloss" />
		<tag k="place" v="island" />
		<tag k="ssr:stedsnr" v="487027" />
	</node>
	<node lat="59.166033332304515" lon="10.416758331282413" id="-20062">
		<tag k="bay" v="fjord" />
		<tag k="name" v="Vrengen" />
		<tag k="natural" v="bay" />
		<tag k="ssr:stedsnr" v="487113" />
	</node>
	<node lat="59.035680553532565" lon="10.417747216466397" id="-20065">
		<tag k="fixme" v="consider seamark:type=rock or natural=shoal" />
		<tag k="name" v="Sydosthella" />
		<tag k="place" v="islet" />
		<tag k="ssr:stedsnr" v="487483" />
	</node>
	<node lat="59.0436749967622" lon="10.513333339661944" id="-20066">
		<tag k="fixme" v="consider seamark:type=rock or natural=shoal" />
		<tag k="name" v="Hjerteskjærbrottet" />
		<tag k="place" v="islet" />
		<tag k="ssr:stedsnr" v="487485" />
	</node>
	<node lat="59.05034444461438" lon="10.40844166104453" id="-20071">
		<tag k="fixme" v="consider seamark:type=rock or natural=shoal" />
		<tag k="name" v="Garnskjær" />
		<tag k="place" v="islet" />
		<tag k="ssr:stedsnr" v="510657" />
	</node>
	<node lat="59.054519439949104" lon="10.422944450194919" id="-20072">
		<tag k="name" v="Faenshølet" />
		<tag k="place" v="sea" />
		<tag k="ssr:stedsnr" v="510660" />
	</node>
	<node lat="59.04724722612609" lon="10.396002772055722" id="-20078">
		<tag k="name" v="Langebåen" />
		<tag k="natural" v="shoal" />
		<tag k="place" v="locality" />
		<tag k="ssr:stedsnr" v="511969" />
	</node>
	<node lat="59.057458329854505" lon="10.395525006229324" id="-20087">
		<tag k="name" v="Skåetangen" />
		<tag k="natural" v="cape" />
		<tag k="ssr:stedsnr" v="547465" />
	</node>
	<node lat="59.058319446476595" lon="10.407088883008926" id="-20088">
		<tag k="name" v="Verdens ende" />
		<tag k="natural" v="cape" />
		<tag k="ssr:stedsnr" v="547478" />
	</node>
	<node lat="59.03068610983414" lon="10.375933324802252" id="-20089">
		<tag k="alt_name" v="Osgrunn, vestre;Osgrunn" />
		<tag k="name" v="Vestre Osgrunn" />
		<tag k="natural" v="shoal" />
		<tag k="place" v="locality" />
		<tag k="ssr:stedsnr" v="547486" />
	</node>
	<node lat="59.107327775191834" lon="10.433897223262768" id="-20092">
		<tag k="name" v="Vaholmen" />
		<tag k="place" v="islet" />
		<tag k="ssr:stedsnr" v="692600" />
	</node>
	<node lat="59.137033332259286" lon="10.425011103196349" id="-20093">
		<tag k="fixme" v="consider seamark:type=rock or natural=shoal" />
		<tag k="name" v="Langeskjæra" />
		<tag k="place" v="islet" />
		<tag k="ssr:stedsnr" v="692122" />
	</node>
	<node lat="59.13788055417973" lon="10.426186115551353" id="-20094">
		<tag k="fixme" v="consider seamark:type=rock or natural=shoal" />
		<tag k="name" v="Kjølhalskjær" />
		<tag k="place" v="islet" />
		<tag k="ssr:stedsnr" v="692123" />
	</node>
	<node lat="59.1368527778224" lon="10.431719443792819" id="-20095">
		<tag k="name" v="Båthølet" />
		<tag k="natural" v="strait" />
		<tag k="ssr:stedsnr" v="692210" />
	</node>
	<node lat="59.11490277484153" lon="10.364213895208655" id="-20096">
		<tag k="name" v="Elsebukta" />
		<tag k="natural" v="bay" />
		<tag k="ssr:stedsnr" v="692294" />
	</node>
	<node lat="59.138636112830085" lon="10.457574994182476" id="-20099">
		<tag k="name" v="Burøbåene" />
		<tag k="natural" v="shoal" />
		<tag k="place" v="locality" />
		<tag k="ssr:stedsnr" v="692704" />
	</node>
	<node lat="59.16528611189695" lon="10.434844451151307" id="-20102">
		<tag k="name" v="Brevikbukta" />
		<tag k="natural" v="bay" />
		<tag k="ssr:stedsnr" v="692942" />
	</node>
	<node lat="59.16923610966338" lon="10.402205547092358" id="-20103">
		<tag k="name" v="Saueholmen" />
		<tag k="place" v="islet" />
		<tag k="ssr:stedsnr" v="692959" />
	</node>
	<node lat="59.14215833239591" lon="10.340591670815256" id="-20107">
		<tag k="name" v="Vestre Tangekilen" />
		<tag k="natural" v="bay" />
		<tag k="ssr:stedsnr" v="570203" />
	</node>
	<node lat="59.08927500044486" lon="10.422233341031475" id="-20109">
		<tag k="name" v="Espevika" />
		<tag k="natural" v="bay" />
		<tag k="ssr:stedsnr" v="693635" />
	</node>
	<node lat="59.09601666332387" lon="10.409866666721912" id="-20110">
		<tag k="name" v="Tangekilen" />
		<tag k="natural" v="bay" />
		<tag k="ssr:stedsnr" v="693645" />
	</node>
	<node lat="59.16880000236807" lon="10.347474993857514" id="-20112">
		<tag k="name" v="Jutodden" />
		<tag k="natural" v="cape" />
		<tag k="old_name" v="Tutodden" />
		<tag k="ssr:stedsnr" v="571464" />
	</node>
	<node lat="59.10407778048751" lon="10.348580562491035" id="-20113">
		<tag k="name" v="Unnholmen" />
		<tag k="place" v="islet" />
		<tag k="ssr:stedsnr" v="693748" />
	</node>
	<node lat="59.24208889301551" lon="10.548052771657765" id="-20115">
		<tag k="name" v="Truls" />
		<tag k="natural" v="shoal" />
		<tag k="place" v="locality" />
		<tag k="ssr:stedsnr" v="695051" />
	</node>
	<node lat="59.18336388459486" lon="10.361441664550613" id="-20116">
		<tag k="alt_name" v="Storebukt" />
		<tag k="name" v="Storebukta" />
		<tag k="natural" v="bay" />
		<tag k="ssr:stedsnr" v="695055" />
	</node>
	<node lat="59.24590555290782" lon="10.384391674999382" id="-20117">
		<tag k="name" v="Håkebakkbukta" />
		<tag k="natural" v="bay" />
		<tag k="ssr:stedsnr" v="601817" />
	</node>
	<node lat="59.148577778492836" lon="10.33718611896646" id="-20118">
		<tag k="name" v="Veierland" />
		<tag k="place" v="island" />
		<tag k="ssr:stedsnr" v="607011" />
	</node>
	<node lat="59.15878888857376" lon="10.598305560486066" id="-20122">
		<tag k="name" v="Rauergrunnen" />
		<tag k="natural" v="shoal" />
		<tag k="place" v="locality" />
		<tag k="ssr:stedsnr" v="608102" />
	</node>
	<node lat="59.145388884887986" lon="10.41826389143151" id="-20125">
		<tag k="name" v="Honerødstranda" />
		<tag k="natural" v="beach" />
		<tag k="ssr:stedsnr" v="608402" />
	</node>
	<node lat="59.13996389076491" lon="10.45456666764384" id="-20128">
		<tag k="fixme" v="consider seamark:type=rock or natural=shoal" />
		<tag k="name" v="Burøskjæra" />
		<tag k="place" v="islet" />
		<tag k="ssr:stedsnr" v="608409" />
	</node>
	<node lat="59.12266388451467" lon="10.494300006302012" id="-20129">
		<tag k="alt_name" v="Store Drillen;Drillene" />
		<tag k="name" v="Drillane" />
		<tag k="place" v="islet" />
		<tag k="ssr:stedsnr" v="608390" />
	</node>
	<node lat="59.12326110852645" lon="10.436549993557836" id="-20130">
		<tag k="alt_name" v="Uleholmen;Ule-holmen" />
		<tag k="name" v="Urdeholmen" />
		<tag k="place" v="islet" />
		<tag k="ssr:stedsnr" v="608397" />
	</node>
	<node lat="59.02102500230691" lon="10.415313883460824" id="-20131">
		<tag k="name" v="Tjømebåen" />
		<tag k="natural" v="shoal" />
		<tag k="place" v="locality" />
		<tag k="ssr:stedsnr" v="608516" />
	</node>
	<node lat="59.06606389311117" lon="10.467974997691364" id="-20132">
		<tag k="fixme" v="consider seamark:type=rock or natural=shoal" />
		<tag k="name" v="Krabbeskjær" />
		<tag k="place" v="islet" />
		<tag k="ssr:stedsnr" v="608493" />
	</node>
	<node lat="59.074277775754865" lon="10.461224991479453" id="-20139">
		<tag k="fixme" v="consider seamark:type=rock or natural=shoal" />
		<tag k="name" v="Kalvedansane" />
		<tag k="place" v="islet" />
		<tag k="ssr:stedsnr" v="631334" />
	</node>
	<node lat="59.05718055767952" lon="10.40967222353157" id="-20140">
		<tag k="fixme" v="consider seamark:type=rock or natural=shoal" />
		<tag k="name" v="Påleskjær" />
		<tag k="place" v="islet" />
		<tag k="ssr:stedsnr" v="631339" />
	</node>
	<node lat="59.1654749979265" lon="10.345458334519671" id="-20143">
		<tag k="alt_name" v="Vestgårdskilen" />
		<tag k="name" v="Vestgårdkilen" />
		<tag k="natural" v="bay" />
		<tag k="ssr:stedsnr" v="631432" />
	</node>
	<node lat="59.083466671263714" lon="10.437733325930425" id="-20144">
		<tag k="fixme" v="consider seamark:type=rock or natural=shoal" />
		<tag k="name" v="Skjeppaskjær" />
		<tag k="place" v="islet" />
		<tag k="ssr:stedsnr" v="631613" />
	</node>
	<node lat="59.25255833204168" lon="10.38369721863829" id="-20147">
		<tag k="name" v="Munkerekkbukta" />
		<tag k="natural" v="bay" />
		<tag k="ssr:stedsnr" v="662824" />
	</node>
	<node lat="59.24218888703445" lon="10.490325005618908" id="-20148">
		<tag k="name" v="Ormøy" />
		<tag k="place" v="islet" />
		<tag k="ssr:stedsnr" v="669004" />
	</node>
	<node lat="59.203653698501675" lon="10.493906905701023" id="-20150">
		<tag k="name" v="Hvaløy" />
		<tag k="place" v="island" />
		<tag k="ssr:stedsnr" v="669038" />
	</node>
	<node lat="59.08148611546304" lon="10.472733334259106" id="-20153">
		<tag k="name" v="Kåvikribba" />
		<tag k="natural" v="cape" />
		<tag k="ssr:stedsnr" v="669431" />
	</node>
	<node lat="59.14590833455468" lon="10.434744439061141" id="-20161">
		<tag k="fixme" v="consider seamark:type=rock or natural=shoal" />
		<tag k="name" v="Løkkeskjær" />
		<tag k="place" v="islet" />
		<tag k="ssr:stedsnr" v="693721" />
	</node>
	<node lat="59.08473947059216" lon="10.433370736978588" id="-20163">
		<tag k="name" v="Nes" />
		<tag k="natural" v="cape" />
		<tag k="ssr:stedsnr" v="693979" />
	</node>
	<node lat="59.21051388716723" lon="10.54099999824434" id="-20165">
		<tag k="fixme" v="consider seamark:type=rock or natural=shoal" />
		<tag k="name" v="Knappeskjær" />
		<tag k="place" v="islet" />
		<tag k="ssr:stedsnr" v="695068" />
	</node>
	<node lat="59.08993888941363" lon="10.52318889180985" id="-20169">
		<tag k="name" v="Dårami" />
		<tag k="natural" v="shoal" />
		<tag k="place" v="locality" />
		<tag k="ssr:stedsnr" v="729410" />
	</node>
	<node lat="59.07501389264657" lon="10.44344723070853" id="-20171">
		<tag k="name" v="Hvasser" />
		<tag k="place" v="island" />
		<tag k="ssr:stedsnr" v="729416" />
	</node>
	<node lat="59.18399229063202" lon="10.561416597732478" id="-20175">
		<tag k="alt_name" v="Klauver, østre" />
		<tag k="name" v="Østre Klauver" />
		<tag k="place" v="island" />
		<tag k="ssr:stedsnr" v="730077" />
	</node>
	<node lat="59.18496388583993" lon="10.582236111914975" id="-20176">
		<tag k="fixme" v="consider seamark:type=rock or natural=shoal" />
		<tag k="name" v="Utfisken" />
		<tag k="place" v="islet" />
		<tag k="ssr:stedsnr" v="730079" />
	</node>
	<node lat="59.13461111355332" lon="10.379780554876431" id="-20178">
		<tag k="name" v="Svelvikstranda" />
		<tag k="natural" v="beach" />
		<tag k="ssr:stedsnr" v="752209" />
	</node>
	<node lat="59.09499166605692" lon="10.380049996573948" id="-20179">
		<tag k="fixme" v="consider seamark:type=rock or natural=shoal" />
		<tag k="name" v="Dirhuelorten" />
		<tag k="place" v="islet" />
		<tag k="ssr:stedsnr" v="752260" />
	</node>
	<node lat="59.145819445628135" lon="10.441963886102451" id="-20183">
		<tag k="name" v="Salt-pusta" />
		<tag k="natural" v="bay" />
		<tag k="ssr:stedsnr" v="753655" />
	</node>
	<node lat="59.04682777712983" lon="10.434511109439482" id="-20186">
		<tag k="name" v="Ytre Haraldsbåen" />
		<tag k="natural" v="shoal" />
		<tag k="place" v="locality" />
		<tag k="ssr:stedsnr" v="753960" />
	</node>
	<node lat="59.046619440311275" lon="10.412713882774776" id="-20187">
		<tag k="name" v="Finnpå" />
		<tag k="natural" v="shoal" />
		<tag k="place" v="locality" />
		<tag k="ssr:stedsnr" v="753962" />
	</node>
	<node lat="59.04034999960876" lon="10.451669437135905" id="-20188">
		<tag k="name" v="Indre Jakopsbåen" />
		<tag k="natural" v="shoal" />
		<tag k="place" v="locality" />
		<tag k="ssr:stedsnr" v="753965" />
	</node>
	<node lat="59.24755833234176" lon="10.428383326730987" id="-20192">
		<tag k="name" v="Hjertneset" />
		<tag k="natural" v="cape" />
		<tag k="ssr:stedsnr" v="905232" />
	</node>
	<node lat="59.18960000347868" lon="10.358788890601069" id="-20193">
		<tag k="name" v="Grøtterødskjær" />
		<tag k="place" v="islet" />
		<tag k="ssr:stedsnr" v="756062" />
	</node>
	<node lat="59.227480557940666" lon="10.532711105984232" id="-20194">
		<tag k="name" v="Kvernbåane" />
		<tag k="place" v="locality" />
		<tag k="seamark:type" v="rock" />
		<tag k="ssr:stedsnr" v="756802" />
	</node>
	<node lat="59.15343045959035" lon="10.51086633713889" id="-20200">
		<tag k="alt_name" v="Leiesteinskrakken;Leira" />
		<tag k="name" v="Leisteinskrakken" />
		<tag k="natural" v="shoal" />
		<tag k="place" v="locality" />
		<tag k="ssr:stedsnr" v="790096" />
	</node>
	<node lat="59.09177222341829" lon="10.39143333423785" id="-20202">
		<tag k="fixme" v="consider seamark:type=rock or natural=shoal" />
		<tag k="name" v="Goneskjæra" />
		<tag k="place" v="islet" />
		<tag k="ssr:stedsnr" v="911428" />
	</node>
	<node lat="59.123038891166516" lon="10.396761106711045" id="-20203">
		<tag k="name" v="Tjøme" />
		<tag k="place" v="island" />
		<tag k="ssr:stedsnr" v="911434" />
	</node>
	<node lat="59.08826110750241" lon="10.384416670471035" id="-20204">
		<tag k="fixme" v="consider seamark:type=rock or natural=shoal" />
		<tag k="name" v="Kjøybåen" />
		<tag k="place" v="islet" />
		<tag k="ssr:stedsnr" v="790407" />
	</node>
	<node lat="59.05115278097133" lon="10.386724991716177" id="-20205">
		<tag k="alt_name" v="Kråka, s;Kråka, søndre" />
		<tag k="fixme" v="consider seamark:type=rock or natural=shoal" />
		<tag k="name" v="Søndre Kråka" />
		<tag k="old_name" v="Kraaka s" />
		<tag k="place" v="islet" />
		<tag k="ssr:stedsnr" v="790447" />
	</node>
	<node lat="59.04700000052259" lon="10.515188891038244" id="-20206">
		<tag k="fixme" v="consider seamark:type=rock or natural=shoal" />
		<tag k="name" v="Hjerteskjær" />
		<tag k="place" v="islet" />
		<tag k="ssr:stedsnr" v="790454" />
	</node>
	<node lat="59.0500805517314" lon="10.519802784126767" id="-20207">
		<tag k="name" v="Langøya" />
		<tag k="place" v="islet" />
		<tag k="ssr:stedsnr" v="790456" />
	</node>
	<node lat="59.196352780874996" lon="10.346827775265133" id="-20211">
		<tag k="bay" v="fjord" />
		<tag k="name" v="Tønsbergfjorden" />
		<tag k="natural" v="bay" />
		<tag k="ssr:stedsnr" v="912038" />
	</node>
	<node lat="59.21142500331852" lon="10.47426389459834" id="-20216">
		<tag k="fixme" v="consider seamark:type=rock or natural=shoal" />
		<tag k="name" v="Stampa" />
		<tag k="place" v="islet" />
		<tag k="ssr:stedsnr" v="912053" />
	</node>
	<node lat="59.18712014871265" lon="10.48059116011975" id="-20220">
		<tag k="name" v="Kjøleholmen" />
		<tag k="place" v="island" />
		<tag k="ssr:stedsnr" v="912067" />
	</node>
	<node lat="59.18892499721862" lon="10.533841667565941" id="-20221">
		<tag k="bay" v="fjord" />
		<tag k="name" v="Huikjæla" />
		<tag k="natural" v="bay" />
		<tag k="ssr:stedsnr" v="912074" />
	</node>
	<node lat="59.1637750007664" lon="10.522666660653428" id="-20222">
		<tag k="alt_name" v="Lindholmenkjæla" />
		<tag k="bay" v="fjord" />
		<tag k="name" v="Lindholmkjæla" />
		<tag k="natural" v="bay" />
		<tag k="ssr:stedsnr" v="912076" />
	</node>
	<node lat="59.179915564793326" lon="10.534239967995351" id="-20223">
		<tag k="alt_name" v="Hui, l" />
		<tag k="name" v="Lille Hui" />
		<tag k="old_name" v="Hui, lille" />
		<tag k="place" v="island" />
		<tag k="ssr:stedsnr" v="912085" />
	</node>
	<node lat="59.18714722313419" lon="10.521200002687015" id="-20225">
		<tag k="name" v="Kalven" />
		<tag k="place" v="islet" />
		<tag k="ssr:stedsnr" v="912087" />
	</node>
	<node lat="59.05703055419771" lon="10.513727783099219" id="-20226">
		<tag k="name" v="Hoftøya" />
		<tag k="place" v="island" />
		<tag k="ssr:stedsnr" v="912461" />
	</node>
	<node lat="59.06997221870077" lon="10.472816660192152" id="-20227">
		<tag k="fixme" v="consider seamark:type=rock or natural=shoal" />
		<tag k="name" v="Saltskjær" />
		<tag k="place" v="islet" />
		<tag k="ssr:stedsnr" v="912485" />
	</node>
	<node lat="59.06348333565381" lon="10.449883337396523" id="-20228">
		<tag k="name" v="Vadholmen" />
		<tag k="natural" v="cape" />
		<tag k="ssr:stedsnr" v="912487" />
	</node>
	<node lat="59.14030277742015" lon="10.33808333717289" id="-20230">
		<tag k="name" v="Brydesundet" />
		<tag k="natural" v="strait" />
		<tag k="ssr:stedsnr" v="813203" />
	</node>
	<node lat="59.1413999977965" lon="10.334750002342197" id="-20231">
		<tag k="name" v="Kjelane" />
		<tag k="natural" v="cape" />
		<tag k="ssr:stedsnr" v="813205" />
	</node>
	<node lat="59.16481110786341" lon="10.41155555596624" id="-20234">
		<tag k="name" v="Bustangodden" />
		<tag k="natural" v="cape" />
		<tag k="ssr:stedsnr" v="813951" />
	</node>
	<node lat="59.16333888456466" lon="10.36115833059553" id="-20236">
		<tag k="name" v="Sjøholmen" />
		<tag k="natural" v="beach" />
		<tag k="ssr:stedsnr" v="814333" />
	</node>
	<node lat="59.07204999780911" lon="10.42927500836295" id="-20238">
		<tag k="name" v="Langestrand" />
		<tag k="natural" v="beach" />
		<tag k="ssr:stedsnr" v="814425" />
	</node>
	<node lat="59.14752222511189" lon="10.418605553267" id="-20239">
		<tag k="name" v="Ormestibukta" />
		<tag k="natural" v="bay" />
		<tag k="ssr:stedsnr" v="814708" />
	</node>
	<node lat="59.09332499870333" lon="10.43644443676454" id="-20240">
		<tag k="fixme" v="consider seamark:type=rock or natural=shoal" />
		<tag k="name" v="Grødeklepp" />
		<tag k="place" v="islet" />
		<tag k="ssr:stedsnr" v="814674" />
	</node>
	<node lat="59.03626944657499" lon="10.454983325618135" id="-20242">
		<tag k="name" v="Ytre Jakopsbåen" />
		<tag k="natural" v="shoal" />
		<tag k="place" v="locality" />
		<tag k="ssr:stedsnr" v="814981" />
	</node>
	<node lat="59.087522223412336" lon="10.367447216746715" id="-20244">
		<tag k="name" v="Nylandsbåen" />
		<tag k="natural" v="shoal" />
		<tag k="place" v="locality" />
		<tag k="ssr:stedsnr" v="814995" />
	</node>
	<node lat="59.166980557658356" lon="10.403163893872085" id="-20245">
		<tag k="name" v="Vindåsen" />
		<tag k="natural" v="cape" />
		<tag k="ssr:stedsnr" v="851113" />
	</node>
	<node lat="59.20376111258614" lon="10.569150003553126" id="-20246">
		<tag k="alt_name" v="Bolærne, østre;Østre-Bolærne;Østre Bolærne" />
		<tag k="name" v="Østre Bolæren" />
		<tag k="place" v="island" />
		<tag k="ssr:stedsnr" v="851033" />
	</node>
	<node lat="59.19615000157352" lon="10.566033332406645" id="-20247">
		<tag k="alt_name" v="Langholmane" />
		<tag k="name" v="Langholmene" />
		<tag k="place" v="islet" />
		<tag k="ssr:stedsnr" v="851075" />
	</node>
	<node lat="59.19892777820558" lon="10.55415000871354" id="-20248">
		<tag k="alt_name" v="Sviveskallen" />
		<tag k="name" v="Siveskallen" />
		<tag k="place" v="islet" />
		<tag k="ssr:stedsnr" v="851076" />
	</node>
	<node lat="59.16968333568017" lon="10.577633330700525" id="-20250">
		<tag k="alt_name" v="Rauer, store" />
		<tag k="fixme" v="multiple name tags, choose one and add the other to alt_name" />
		<tag k="name" v="Rauer;Store Rauer" />
		<tag k="place" v="island" />
		<tag k="ssr:stedsnr" v="851092" />
	</node>
	<node lat="59.17213888644243" lon="10.349600001597144" id="-20251">
		<tag k="alt_name" v="Håholmene" />
		<tag k="name" v="Håholmane" />
		<tag k="place" v="islet" />
		<tag k="ssr:stedsnr" v="851098" />
	</node>
	<node lat="59.140247221693095" lon="10.438988893512484" id="-20252">
		<tag k="name" v="Håholmen" />
		<tag k="place" v="islet" />
		<tag k="ssr:stedsnr" v="851375" />
	</node>
	<node lat="59.092936108189804" lon="10.448177775567707" id="-20253">
		<tag k="name" v="Lilleskagen" />
		<tag k="natural" v="beach" />
		<tag k="ssr:stedsnr" v="851378" />
	</node>
	<node lat="59.112855556616346" lon="10.436149998077303" id="-20254">
		<tag k="fixme" v="consider seamark:type=rock or natural=shoal" />
		<tag k="name" v="Gryteskjær" />
		<tag k="place" v="islet" />
		<tag k="ssr:stedsnr" v="851394" />
	</node>
	<node lat="59.09536944016172" lon="10.436802774875911" id="-20258">
		<tag k="name" v="Uleholmen" />
		<tag k="place" v="islet" />
		<tag k="ssr:stedsnr" v="875606" />
	</node>
	<node lat="59.11190277552973" lon="10.421808327757262" id="-20260">
		<tag k="name" v="Ternesund" />
		<tag k="natural" v="strait" />
		<tag k="ssr:stedsnr" v="875621" />
	</node>
	<node lat="59.03502222157287" lon="10.405266674203403" id="-20263">
		<tag k="fixme" v="consider seamark:type=rock or natural=shoal" />
		<tag k="name" v="Knulrene" />
		<tag k="place" v="islet" />
		<tag k="ssr:stedsnr" v="875971" />
	</node>
	<node lat="59.042994444386856" lon="10.45613888719544" id="-20264">
		<tag k="name" v="Gloskjærbåene" />
		<tag k="natural" v="shoal" />
		<tag k="place" v="locality" />
		<tag k="ssr:stedsnr" v="875976" />
	</node>
	<node lat="59.061669440181475" lon="10.472624992325036" id="-20265">
		<tag k="name" v="Sandøbåen" />
		<tag k="natural" v="shoal" />
		<tag k="place" v="locality" />
		<tag k="ssr:stedsnr" v="875991" />
	</node>
	<node lat="59.24647499704193" lon="10.490561104641893" id="-20266">
		<tag k="name" v="Ormøydynga" />
		<tag k="natural" v="shoal" />
		<tag k="place" v="locality" />
		<tag k="ssr:stedsnr" v="877113" />
	</node>
	<node lat="59.13373055853869" lon="10.377011108924773" id="-20269">
		<tag k="name" v="Tjømekjæla" />
		<tag k="natural" v="bay" />
		<tag k="ssr:stedsnr" v="935216" />
	</node>
	<node lat="59.13543332930979" lon="10.356383332615698" id="-20270">
		<tag k="fixme" v="consider seamark:type=rock or natural=shoal" />
		<tag k="name" v="Terneskjær" />
		<tag k="place" v="islet" />
		<tag k="ssr:stedsnr" v="935219" />
	</node>
	<node lat="59.14601388662948" lon="10.35348055119183" id="-20271">
		<tag k="name" v="Krikakilen" />
		<tag k="natural" v="bay" />
		<tag k="ssr:stedsnr" v="935268" />
	</node>
	<node lat="59.05895183871872" lon="10.415119666074174" id="-20274">
		<tag k="fixme" v="consider seamark:type=rock or natural=shoal" />
		<tag k="name" v="Skjeppaskjær" />
		<tag k="place" v="islet" />
		<tag k="ssr:stedsnr" v="935362" />
	</node>
	<node lat="59.169416666872884" lon="10.402083341853709" id="-20282">
		<tag k="alt_name" v="Grindholmene" />
		<tag k="name" v="Grindholmane" />
		<tag k="place" v="islet" />
		<tag k="ssr:stedsnr" v="912124" />
	</node>
	<node lat="59.120702781510374" lon="10.530616669533105" id="-20284">
		<tag k="name" v="Hanshausen" />
		<tag k="natural" v="shoal" />
		<tag k="place" v="locality" />
		<tag k="ssr:stedsnr" v="912400" />
	</node>
	<node lat="59.10018055867421" lon="10.50578888590319" id="-20286">
		<tag k="name" v="Fjærskjærfluene" />
		<tag k="natural" v="shoal" />
		<tag k="place" v="locality" />
		<tag k="ssr:stedsnr" v="934687" />
	</node>
	<node lat="59.120558332568436" lon="10.374097222986084" id="-20289">
		<tag k="fixme" v="consider seamark:type=rock or natural=shoal" />
		<tag k="name" v="Svartskjær" />
		<tag k="place" v="islet" />
		<tag k="ssr:stedsnr" v="935325" />
	</node>
	<node lat="59.13506666800189" lon="10.421394448728373" id="-20290">
		<tag k="name" v="Grimestadbukta" />
		<tag k="natural" v="bay" />
		<tag k="ssr:stedsnr" v="935203" />
	</node>
	<node lat="59.172080109957946" lon="10.3971044067273" id="-20295">
		<tag k="name" v="Sundebåen" />
		<tag k="place" v="locality" />
		<tag k="seamark:type" v="rock" />
		<tag k="ssr:stedsnr" v="938816" />
	</node>
	<node lat="59.252569443339844" lon="10.427627785614655" id="-20296">
		<tag k="name" v="Rosanes" />
		<tag k="natural" v="cape" />
		<tag k="ssr:stedsnr" v="966933" />
	</node>
	<node lat="59.197401498710256" lon="10.478195073162142" id="-20299">
		<tag k="name" v="Ekornholmbåen" />
		<tag k="place" v="locality" />
		<tag k="seamark:type" v="rock" />
		<tag k="ssr:stedsnr" v="988526" />
	</node>
	<node lat="59.18777031790437" lon="10.473614268309722" id="-20300">
		<tag k="name" v="Nordre Årøybåen" />
		<tag k="place" v="locality" />
		<tag k="seamark:type" v="rock" />
		<tag k="ssr:stedsnr" v="988527" />
	</node>
	<node lat="59.12889949525381" lon="10.455427914492335" id="-20301">
		<tag k="name" v="Elsebåen" />
		<tag k="place" v="locality" />
		<tag k="seamark:type" v="rock" />
		<tag k="ssr:stedsnr" v="988528" />
	</node>
	<node lat="59.16147454401913" lon="10.441081476504431" id="-20302">
		<tag k="name" v="Mågerøbåen" />
		<tag k="natural" v="shoal" />
		<tag k="place" v="locality" />
		<tag k="ssr:stedsnr" v="988626" />
	</node>
	<node lat="59.16099100712434" lon="10.430138098196698" id="-20303">
		<tag k="name" v="Mågerødynga" />
		<tag k="natural" v="shoal" />
		<tag k="place" v="locality" />
		<tag k="ssr:stedsnr" v="988627" />
	</node>
	<node lat="59.16222198836369" lon="10.422118043717743" id="-20304">
		<tag k="name" v="Kråkerebåen" />
		<tag k="natural" v="shoal" />
		<tag k="place" v="locality" />
		<tag k="ssr:stedsnr" v="988628" />
	</node>
	<node lat="59.15844500467107" lon="10.442321157602539" id="-20306">
		<tag k="name" v="Mågerøtangen" />
		<tag k="natural" v="cape" />
		<tag k="ssr:stedsnr" v="988630" />
	</node>
	<node lat="59.17294763876186" lon="10.39126460596714" id="-20308">
		<tag k="name" v="Sevikbåen" />
		<tag k="place" v="locality" />
		<tag k="seamark:type" v="rock" />
		<tag k="ssr:stedsnr" v="988633" />
	</node>
	<node lat="59.05368539422662" lon="10.387152088685392" id="-20309">
		<tag k="name" v="Kråkene" />
		<tag k="place" v="islet" />
		<tag k="ssr:stedsnr" v="988792" />
	</node>
	<node lat="59.122993768190696" lon="10.37462546535603" id="-20310">
		<tag k="name" v="Svartskjærskaten" />
		<tag k="natural" v="shoal" />
		<tag k="place" v="locality" />
		<tag k="ssr:stedsnr" v="988794" />
	</node>
	<node lat="59.163588888112145" lon="10.411283336447097" id="-20313">
		<tag k="name" v="Bustangen" />
		<tag k="natural" v="cape" />
		<tag k="ssr:stedsnr" v="1131" />
	</node>
	<node lat="59.098058330191364" lon="10.368475003670287" id="-20315">
		<tag k="fixme" v="consider seamark:type=rock or natural=shoal" />
		<tag k="name" v="Bølene" />
		<tag k="place" v="islet" />
		<tag k="ssr:stedsnr" v="1430" />
	</node>
	<node lat="59.046183335962766" lon="10.379113897490264" id="-20317">
		<tag k="fixme" v="consider seamark:type=rock or natural=shoal" />
		<tag k="name" v="Knattane" />
		<tag k="place" v="islet" />
		<tag k="ssr:stedsnr" v="1450" />
	</node>
	<node lat="59.107849996928444" lon="10.347172223730908" id="-20319">
		<tag k="name" v="Lindholmen" />
		<tag k="place" v="islet" />
		<tag k="ssr:stedsnr" v="2399" />
	</node>
	<node lat="59.14668333269115" lon="10.347916672610705" id="-20322">
		<tag k="name" v="Østre Tangenkilen" />
		<tag k="natural" v="bay" />
		<tag k="ssr:stedsnr" v="24265" />
	</node>
	<node lat="59.12503055427823" lon="10.435233330114892" id="-20326">
		<tag k="name" v="Nirillen" />
		<tag k="natural" v="strait" />
		<tag k="ssr:stedsnr" v="25228" />
	</node>
	<node lat="59.13709166337315" lon="10.357297229462176" id="-20328">
		<tag k="name" v="Lirekil" />
		<tag k="natural" v="bay" />
		<tag k="ssr:stedsnr" v="25254" />
	</node>
	<node lat="59.10682222487265" lon="10.426441659654255" id="-20329">
		<tag k="name" v="Holmekilen" />
		<tag k="natural" v="bay" />
		<tag k="ssr:stedsnr" v="25643" />
	</node>
	<node lat="59.110149998145005" lon="10.444030558091443" id="-20330">
		<tag k="name" v="Hesteholmene" />
		<tag k="place" v="islet" />
		<tag k="ssr:stedsnr" v="25645" />
	</node>
	<node lat="59.14510278136687" lon="10.442844447988648" id="-20334">
		<tag k="name" v="Sydosten" />
		<tag k="natural" v="cape" />
		<tag k="ssr:stedsnr" v="25695" />
	</node>
	<node lat="59.25715833360064" lon="10.42509443927468" id="-20338">
		<tag k="name" v="Ørsnes" />
		<tag k="natural" v="cape" />
		<tag k="ssr:stedsnr" v="25767" />
	</node>
	<node lat="59.084441667474096" lon="10.427211115064024" id="-20340">
		<tag k="name" v="Vikerholmen" />
		<tag k="natural" v="cape" />
		<tag k="ssr:stedsnr" v="25979" />
	</node>
	<node lat="59.15993055440303" lon="10.385094440792384" id="-20343">
		<tag k="name" v="Møllebukta" />
		<tag k="natural" v="bay" />
		<tag k="ssr:stedsnr" v="28063" />
	</node>
	<node lat="59.20056666642633" lon="10.579736115149629" id="-20348">
		<tag k="name" v="Garnholmen" />
		<tag k="place" v="islet" />
		<tag k="ssr:stedsnr" v="62059" />
	</node>
	<node lat="59.15730555355563" lon="10.428108327358435" id="-20350">
		<tag k="alt_name" v="Nautnes" />
		<tag k="name" v="Nautenes" />
		<tag k="natural" v="cape" />
		<tag k="ssr:stedsnr" v="62100" />
	</node>
	<node lat="59.124591664219786" lon="10.367361110542898" id="-20351">
		<tag k="name" v="Granø" />
		<tag k="place" v="islet" />
		<tag k="ssr:stedsnr" v="62378" />
	</node>
	<node lat="59.12810833184228" lon="10.480013887979448" id="-20352">
		<tag k="name" v="Nuvle" />
		<tag k="place" v="islet" />
		<tag k="ssr:stedsnr" v="62382" />
	</node>
	<node lat="59.12494999659709" lon="10.462386106662072" id="-20353">
		<tag k="alt_name" v="Ildverkstuten" />
		<tag k="name" v="Stuten" />
		<tag k="place" v="islet" />
		<tag k="ssr:stedsnr" v="62383" />
	</node>
	<node lat="59.139632571998554" lon="10.470207497914124" id="-20355">
		<tag k="alt_name" v="Mostein, nordre" />
		<tag k="name" v="Nordre Mostein" />
		<tag k="place" v="islet" />
		<tag k="ssr:stedsnr" v="62399" />
	</node>
	<node lat="59.136069440544645" lon="10.46770832770264" id="-20356">
		<tag k="alt_name" v="Mostein, s;Mostein;Mostein, søndre" />
		<tag k="name" v="Søndre Mostein" />
		<tag k="place" v="islet" />
		<tag k="ssr:stedsnr" v="62400" />
	</node>
	<node lat="59.134178586135484" lon="10.446867646412867" id="-20357">
		<tag k="name" v="Burø" />
		<tag k="place" v="island" />
		<tag k="ssr:stedsnr" v="62404" />
	</node>
	<node lat="59.136449999278476" lon="10.414063884229902" id="-20358">
		<tag k="name" v="Grimestadstranda" />
		<tag k="natural" v="beach" />
		<tag k="ssr:stedsnr" v="62408" />
	</node>
	<node lat="59.14962500173384" lon="10.372486103239764" id="-20359">
		<tag k="bay" v="fjord" />
		<tag k="name" v="Tjømekjæla" />
		<tag k="natural" v="bay" />
		<tag k="ssr:stedsnr" v="62410" />
	</node>
	<node lat="59.11510833234905" lon="10.354249997737032" id="-20365">
		<tag k="name" v="Geitungholmen" />
		<tag k="place" v="islet" />
		<tag k="ssr:stedsnr" v="85266" />
	</node>
	<node lat="59.12682222244982" lon="10.448622226154312" id="-20366">
		<tag k="fixme" v="consider seamark:type=rock or natural=shoal" />
		<tag k="name" v="Øsekaret" />
		<tag k="place" v="islet" />
		<tag k="ssr:stedsnr" v="85934" />
	</node>
	<node lat="59.14176388733829" lon="10.417577776656701" id="-20368">
		<tag k="name" v="Holtekjærstranda" />
		<tag k="natural" v="beach" />
		<tag k="ssr:stedsnr" v="86126" />
	</node>
	<node lat="59.13990000135262" lon="10.425691665839022" id="-20369">
		<tag k="fixme" v="consider seamark:type=rock or natural=shoal" />
		<tag k="name" v="Terneskjær" />
		<tag k="place" v="islet" />
		<tag k="ssr:stedsnr" v="86128" />
	</node>
	<node lat="59.059958329844626" lon="10.395558327701742" id="-20371">
		<tag k="name" v="Skåebukta" />
		<tag k="natural" v="bay" />
		<tag k="ssr:stedsnr" v="86398" />
	</node>
	<node lat="59.11742499783764" lon="10.342261107989616" id="-20373">
		<tag k="name" v="Sua" />
		<tag k="natural" v="shoal" />
		<tag k="place" v="locality" />
		<tag k="ssr:stedsnr" v="86601" />
	</node>
	<node lat="59.16052222337931" lon="10.386680550519175" id="-20378">
		<tag k="name" v="Sundenestranda" />
		<tag k="natural" v="beach" />
		<tag k="ssr:stedsnr" v="86653" />
	</node>
	<node lat="59.08783333571664" lon="10.451297230557499" id="-20381">
		<tag k="fixme" v="consider seamark:type=rock or natural=shoal" />
		<tag k="name" v="Måkeskjær" />
		<tag k="place" v="islet" />
		<tag k="ssr:stedsnr" v="86666" />
	</node>
	<node lat="59.073141668109" lon="10.524941671058622" id="-20382">
		<tag k="name" v="Løkbukta" />
		<tag k="natural" v="bay" />
		<tag k="ssr:stedsnr" v="87863" />
	</node>
	<node lat="59.166867159320205" lon="10.419698385827973" id="-20384">
		<tag k="name" v="Buerstadbåen" />
		<tag k="place" v="locality" />
		<tag k="seamark:type" v="rock" />
		<tag k="ssr:stedsnr" v="89055" />
	</node>
	<node lat="59.15471388658533" lon="10.370458328279632" id="-20385">
		<tag k="name" v="Havnebåen" />
		<tag k="place" v="locality" />
		<tag k="seamark:type" v="rock" />
		<tag k="ssr:stedsnr" v="89061" />
	</node>
	<node lat="59.238452777882245" lon="10.517633331328911" id="-20386">
		<tag k="name" v="Rennebåane" />
		<tag k="place" v="locality" />
		<tag k="seamark:type" v="rock" />
		<tag k="ssr:stedsnr" v="89793" />
	</node>
	<node lat="59.18660833558402" lon="10.591719436298009" id="-20387">
		<tag k="bay" v="fjord" />
		<tag k="name" v="Tovekjæla" />
		<tag k="natural" v="bay" />
		<tag k="ssr:stedsnr" v="89990" />
	</node>
	<node lat="59.07819721994084" lon="10.389227784144644" id="-20390">
		<tag k="fixme" v="consider seamark:type=rock or natural=shoal" />
		<tag k="name" v="Hetteskjæra" />
		<tag k="place" v="islet" />
		<tag k="ssr:stedsnr" v="122439" />
	</node>
	<node lat="59.144550003952396" lon="10.340311105210294" id="-20394">
		<tag k="alt_name" v="Hvervekilen" />
		<tag k="name" v="Vervekilen" />
		<tag k="natural" v="bay" />
		<tag k="ssr:stedsnr" v="123030" />
	</node>
	<node lat="59.04969722068084" lon="10.45962222705552" id="-20398">
		<tag k="fixme" v="consider seamark:type=rock or natural=shoal" />
		<tag k="name" v="Gloskjær" />
		<tag k="place" v="islet" />
		<tag k="ssr:stedsnr" v="123494" />
	</node>
	<node lat="59.05506111277525" lon="10.533816662492951" id="-20399">
		<tag k="name" v="Knappen" />
		<tag k="place" v="islet" />
		<tag k="ssr:stedsnr" v="123499" />
	</node>
	<node lat="59.14005129083362" lon="10.418896265745143" id="-20400">
		<tag k="name" v="Holtekjærkilen" />
		<tag k="natural" v="bay" />
		<tag k="ssr:stedsnr" v="123450" />
	</node>
	<node lat="59.143952779370984" lon="10.366297217327809" id="-20401">
		<tag k="name" v="Oslebakksundet" />
		<tag k="natural" v="strait" />
		<tag k="ssr:stedsnr" v="145270" />
	</node>
	<node lat="59.11666944099123" lon="10.367100002038475" id="-20402">
		<tag k="fixme" v="consider seamark:type=rock or natural=shoal" />
		<tag k="name" v="Barkeskjær" />
		<tag k="place" v="islet" />
		<tag k="ssr:stedsnr" v="145312" />
	</node>
	<node lat="59.2187055595216" lon="10.569277771220797" id="-20405">
		<tag k="name" v="Salebåen" />
		<tag k="place" v="locality" />
		<tag k="seamark:type" v="rock" />
		<tag k="ssr:stedsnr" v="145832" />
	</node>
	<node lat="59.16856110738393" lon="10.402313892601702" id="-20406">
		<tag k="name" v="Vindåshølet" />
		<tag k="natural" v="strait" />
		<tag k="ssr:stedsnr" v="146958" />
	</node>
	<node lat="59.04809721819819" lon="10.404755559678483" id="-20407">
		<tag k="name" v="Hellebåen" />
		<tag k="natural" v="shoal" />
		<tag k="place" v="locality" />
		<tag k="ssr:stedsnr" v="146969" />
	</node>
	<node lat="59.031327778959366" lon="10.414699999903535" id="-20408">
		<tag k="name" v="Kjemshausen" />
		<tag k="natural" v="shoal" />
		<tag k="place" v="locality" />
		<tag k="ssr:stedsnr" v="146972" />
	</node>
	<node lat="59.13516111006839" lon="10.352663896087451" id="-20415">
		<tag k="fixme" v="consider seamark:type=rock or natural=shoal" />
		<tag k="name" v="Pikeskjær S" />
		<tag k="place" v="islet" />
		<tag k="ssr:stedsnr" v="146230" />
	</node>
	<node lat="59.063624995479294" lon="10.448380562015675" id="-20418">
		<tag k="name" v="Gregershøl" />
		<tag k="natural" v="bay" />
		<tag k="ssr:stedsnr" v="146333" />
	</node>
	<node lat="59.06633055570892" lon="10.420541662302117" id="-20422">
		<tag k="name" v="Grevikfloa" />
		<tag k="natural" v="bay" />
		<tag k="ssr:stedsnr" v="146351" />
	</node>
	<node lat="59.08618611261428" lon="10.441149992405157" id="-20427">
		<tag k="name" v="Lissabon" />
		<tag k="natural" v="bay" />
		<tag k="ssr:stedsnr" v="146641" />
	</node>
	<node lat="59.081202775034534" lon="10.453922230750322" id="-20428">
		<tag k="name" v="Odden" />
		<tag k="natural" v="cape" />
		<tag k="ssr:stedsnr" v="146651" />
	</node>
	<node lat="59.022019443998296" lon="10.361188888896567" id="-20431">
		<tag k="name" v="Pershålbåene" />
		<tag k="natural" v="shoal" />
		<tag k="place" v="locality" />
		<tag k="ssr:stedsnr" v="147998" />
	</node>
	<node lat="59.06035833144235" lon="10.536094436782163" id="-20432">
		<tag k="fixme" v="consider seamark:type=rock or natural=shoal" />
		<tag k="name" v="Knappeskjær" />
		<tag k="place" v="islet" />
		<tag k="ssr:stedsnr" v="148885" />
	</node>
	<node lat="59.217055558242095" lon="10.530691674488288" id="-20435">
		<tag k="alt_name" v="Bolærne, vestre;Vestre Bolærne" />
		<tag k="name" v="Vestre Bolæren" />
		<tag k="place" v="island" />
		<tag k="ssr:stedsnr" v="183028" />
	</node>
	<node lat="59.20233055282499" lon="10.533899992421027" id="-20438">
		<tag k="fixme" v="consider seamark:type=rock or natural=shoal" />
		<tag k="name" v="Selskjæra" />
		<tag k="place" v="islet" />
		<tag k="ssr:stedsnr" v="183076" />
	</node>
	<node lat="59.110708328942735" lon="10.375508330663484" id="-20439">
		<tag k="fixme" v="consider seamark:type=rock or natural=shoal" />
		<tag k="name" v="Rødskjær" />
		<tag k="place" v="islet" />
		<tag k="ssr:stedsnr" v="183378" />
	</node>
	<node lat="59.104658331132555" lon="10.496325007436349" id="-20441">
		<tag k="fixme" v="consider seamark:type=rock or natural=shoal" />
		<tag k="name" v="Store Fjærskjær" />
		<tag k="place" v="islet" />
		<tag k="ssr:stedsnr" v="183389" />
	</node>
	<node lat="59.05887500108552" lon="10.38869443699055" id="-20442">
		<tag k="alt_name" v="Kråka, nordre;Hetteskjæra" />
		<tag k="fixme" v="consider seamark:type=rock or natural=shoal" />
		<tag k="name" v="Nordre Kråka" />
		<tag k="place" v="islet" />
		<tag k="ssr:stedsnr" v="183393" />
	</node>
	<node lat="59.050780555630496" lon="10.419972221836904" id="-20443">
		<tag k="fixme" v="consider seamark:type=rock or natural=shoal" />
		<tag k="name" v="Jonskjær" />
		<tag k="place" v="islet" />
		<tag k="ssr:stedsnr" v="183399" />
	</node>
	<node lat="59.03404166383726" lon="10.437597225231919" id="-20444">
		<tag k="name" v="Kløvningbåen" />
		<tag k="natural" v="shoal" />
		<tag k="place" v="locality" />
		<tag k="ssr:stedsnr" v="183400" />
	</node>
	<node lat="59.06648151032074" lon="10.419915367369926" id="-20445">
		<tag k="name" v="Grevik" />
		<tag k="natural" v="beach" />
		<tag k="ssr:stedsnr" v="183411" />
	</node>
	<node lat="59.06447499806439" lon="10.431663891525824" id="-20446">
		<tag k="name" v="Mølen" />
		<tag k="natural" v="cape" />
		<tag k="ssr:stedsnr" v="183412" />
	</node>
	<node lat="59.027944447776136" lon="10.523816663096394" id="-20448">
		<tag k="alt_name" v="Tristeinen;Lille Færder" />
		<tag k="name" v="Tristein" />
		<tag k="place" v="island" />
		<tag k="ssr:stedsnr" v="183437" />
	</node>
	<node lat="59.17844715871063" lon="10.540571662155394" id="-20449">
		<tag k="alt_name" v="Hui, store" />
		<tag k="name" v="Store Hui" />
		<tag k="place" v="island" />
		<tag k="ssr:stedsnr" v="184060" />
	</node>
	<node lat="59.17238610759332" lon="10.598997221938223" id="-20450">
		<tag k="fixme" v="consider seamark:type=rock or natural=shoal" />
		<tag k="name" v="Søndre Fulehukskjær" />
		<tag k="place" v="islet" />
		<tag k="ssr:stedsnr" v="184079" />
	</node>
	<node lat="59.12932499619867" lon="10.349936111878367" id="-20452">
		<tag k="fixme" v="consider seamark:type=rock or natural=shoal" />
		<tag k="name" v="Kariskjær" />
		<tag k="place" v="islet" />
		<tag k="ssr:stedsnr" v="184391" />
	</node>
	<node lat="59.11240555237648" lon="10.366461115996211" id="-20456">
		<tag k="fixme" v="consider seamark:type=rock or natural=shoal" />
		<tag k="name" v="Terneskjær" />
		<tag k="place" v="islet" />
		<tag k="ssr:stedsnr" v="206312" />
	</node>
	<node lat="59.13273055409712" lon="10.502761109262114" id="-20457">
		<tag k="name" v="Leisteinsbåene" />
		<tag k="natural" v="shoal" />
		<tag k="place" v="locality" />
		<tag k="ssr:stedsnr" v="206673" />
	</node>
	<node lat="59.16089166409419" lon="10.376861109421883" id="-20460">
		<tag k="fixme" v="consider seamark:type=rock or natural=shoal" />
		<tag k="name" v="Saltbuskjær" />
		<tag k="place" v="islet" />
		<tag k="ssr:stedsnr" v="207260" />
	</node>
	<node lat="59.14831110876866" lon="10.38068889659668" id="-20463">
		<tag k="name" v="Bukkelistranda" />
		<tag k="natural" v="beach" />
		<tag k="ssr:stedsnr" v="207264" />
	</node>
	<node lat="59.14735555602463" lon="10.379827770524624" id="-20464">
		<tag k="name" v="Bukkelikilen" />
		<tag k="natural" v="bay" />
		<tag k="ssr:stedsnr" v="207267" />
	</node>
	<node lat="59.13828333129107" lon="10.433219446049215" id="-20466">
		<tag k="fixme" v="consider seamark:type=rock or natural=shoal" />
		<tag k="name" v="Hønsøskjæra" />
		<tag k="place" v="islet" />
		<tag k="ssr:stedsnr" v="207226" />
	</node>
	<node lat="59.06121389285413" lon="10.414236112946476" id="-20467">
		<tag k="name" v="Humlesekken" />
		<tag k="natural" v="bay" />
		<tag k="ssr:stedsnr" v="207358" />
	</node>
	<node lat="59.068836111454225" lon="10.423816669517649" id="-20469">
		<tag k="name" v="Gærnegrevik" />
		<tag k="natural" v="beach" />
		<tag k="ssr:stedsnr" v="207370" />
	</node>
	<node lat="59.096458333462905" lon="10.42149444664684" id="-20471">
		<tag k="name" v="Hestvika" />
		<tag k="natural" v="bay" />
		<tag k="ssr:stedsnr" v="207594" />
	</node>
	<node lat="59.09796111455392" lon="10.389622223268532" id="-20472">
		<tag k="name" v="Bukkholmen" />
		<tag k="place" v="islet" />
		<tag k="ssr:stedsnr" v="207598" />
	</node>
	<node lat="59.0863111109805" lon="10.440480556520281" id="-20473">
		<tag k="name" v="Båtskjær" />
		<tag k="natural" v="cape" />
		<tag k="ssr:stedsnr" v="207637" />
	</node>
	<node lat="59.082177779954684" lon="10.42842500732788" id="-20475">
		<tag k="name" v="Lagmannsund" />
		<tag k="natural" v="strait" />
		<tag k="ssr:stedsnr" v="207650" />
	</node>
	<node lat="59.09174444725622" lon="10.4106861042069" id="-20476">
		<tag k="name" v="Nordre Otterstig" />
		<tag k="natural" v="beach" />
		<tag k="ssr:stedsnr" v="207651" />
	</node>
	<node lat="59.160300001162504" lon="10.468497227017895" id="-20481">
		<tag k="name" v="Årøybåen" />
		<tag k="place" v="locality" />
		<tag k="seamark:type" v="rock" />
		<tag k="ssr:stedsnr" v="210050" />
	</node>
	<node lat="59.16369722246036" lon="10.430949992872785" id="-20482">
		<tag k="name" v="Hønstangen" />
		<tag k="natural" v="cape" />
		<tag k="ssr:stedsnr" v="210835" />
	</node>
	<node lat="59.24633611258612" lon="10.535505561965147" id="-20483">
		<tag k="name" v="Rumpa" />
		<tag k="natural" v="shoal" />
		<tag k="place" v="locality" />
		<tag k="ssr:stedsnr" v="210993" />
	</node>
	<node lat="59.224677774660414" lon="10.51235277717055" id="-20486">
		<tag k="alt_name" v="Aalborgholmen" />
		<tag k="name" v="Ålborgholmen" />
		<tag k="place" v="islet" />
		<tag k="ssr:stedsnr" v="305038" />
	</node>
	<node lat="59.201652778711285" lon="10.361563895248294" id="-20488">
		<tag k="fixme" v="multiple name tags, choose one and add the other to alt_name; consider seamark:type=rock or natural=shoal" />
		<tag k="name" v="Holmskjær;Glomsteinskjær" />
		<tag k="old_name" v="Glomsteinskjæs" />
		<tag k="place" v="islet" />
		<tag k="ssr:stedsnr" v="305046" />
	</node>
	<node lat="59.20411388764986" lon="10.48235555133191" id="-20490">
		<tag k="name" v="Ekornholmen" />
		<tag k="place" v="islet" />
		<tag k="ssr:stedsnr" v="305061" />
	</node>
	<node lat="59.17609166749155" lon="10.464100003135423" id="-20494">
		<tag k="name" v="Middelborg" />
		<tag k="place" v="islet" />
		<tag k="ssr:stedsnr" v="305093" />
	</node>
	<node lat="59.163697226454154" lon="10.381252778309761" id="-20495">
		<tag k="name" v="Bjønnhue" />
		<tag k="natural" v="cape" />
		<tag k="ssr:stedsnr" v="305096" />
	</node>
	<node lat="59.0561527795579" lon="10.398566658743203" id="-20501">
		<tag k="name" v="Skåetangen" />
		<tag k="natural" v="cape" />
		<tag k="ssr:stedsnr" v="328333" />
	</node>
	<node lat="59.11028611112382" lon="10.380050006478289" id="-20502">
		<tag k="name" v="Båtsvika" />
		<tag k="natural" v="bay" />
		<tag k="ssr:stedsnr" v="328297" />
	</node>
	<node lat="59.11713333291785" lon="10.354736119652083" id="-20503">
		<tag k="name" v="Huibukta" />
		<tag k="natural" v="bay" />
		<tag k="ssr:stedsnr" v="328299" />
	</node>
	<node lat="59.117600001059046" lon="10.427963892575029" id="-20504">
		<tag k="name" v="Gåsø" />
		<tag k="place" v="islet" />
		<tag k="ssr:stedsnr" v="328626" />
	</node>
	<node lat="59.127122224494876" lon="10.441805559306136" id="-20510">
		<tag k="fixme" v="consider seamark:type=rock or natural=shoal" />
		<tag k="name" v="Kileskjær" />
		<tag k="place" v="islet" />
		<tag k="ssr:stedsnr" v="328935" />
	</node>
	<node lat="59.12952222057288" lon="10.441836114265149" id="-20511">
		<tag k="name" v="Mjælkebukta" />
		<tag k="natural" v="bay" />
		<tag k="ssr:stedsnr" v="328936" />
	</node>
	<node lat="59.1211166709116" lon="10.442427775068873" id="-20512">
		<tag k="fixme" v="consider seamark:type=rock or natural=shoal" />
		<tag k="name" v="Selstein" />
		<tag k="place" v="islet" />
		<tag k="ssr:stedsnr" v="328939" />
	</node>
	<node lat="59.13160000303623" lon="10.488997225581178" id="-20513">
		<tag k="fixme" v="consider seamark:type=rock or natural=shoal" />
		<tag k="name" v="Svarteskjær" />
		<tag k="place" v="islet" />
		<tag k="ssr:stedsnr" v="328944" />
	</node>
	<node lat="59.22511389298072" lon="10.450697230439696" id="-20515">
		<tag k="name" v="Nesbryggsundet" />
		<tag k="natural" v="strait" />
		<tag k="ssr:stedsnr" v="328990" />
	</node>
	<node lat="59.03939999590005" lon="10.534241663293304" id="-20516">
		<tag k="name" v="Nordre Bølebåen" />
		<tag k="natural" v="shoal" />
		<tag k="place" v="locality" />
		<tag k="ssr:stedsnr" v="329051" />
	</node>
	<node lat="59.21452957582147" lon="10.545541156165669" id="-20520">
		<tag k="name" v="Bolærne" />
		<tag k="place" v="island" />
		<tag k="ssr:stedsnr" v="331049" />
	</node>
	<node lat="59.23919166317862" lon="10.526277781004978" id="-20521">
		<tag k="name" v="Langgrunnen" />
		<tag k="natural" v="shoal" />
		<tag k="place" v="locality" />
		<tag k="ssr:stedsnr" v="331051" />
	</node>
	<node lat="59.20304444504921" lon="10.457547224529911" id="-20522">
		<tag k="name" v="Bjerkøysundet" />
		<tag k="natural" v="strait" />
		<tag k="ssr:stedsnr" v="331984" />
	</node>
	<node lat="59.02649999794495" lon="10.636300005833757" id="-20525">
		<tag k="name" v="Stilhaushola" />
		<tag k="natural" v="shoal" />
		<tag k="place" v="locality" />
		<tag k="ssr:stedsnr" v="357478" />
	</node>
	<node lat="58.95511111396169" lon="10.50815277775068" id="-20526">
		<tag k="name" v="Tristen" />
		<tag k="natural" v="shoal" />
		<tag k="place" v="locality" />
		<tag k="ssr:stedsnr" v="357528" />
	</node>
	<node lat="59.23856666630074" lon="10.3835694457621" id="-20528">
		<tag k="name" v="Tørkoppdynga" />
		<tag k="natural" v="shoal" />
		<tag k="place" v="locality" />
		<tag k="ssr:stedsnr" v="359830" />
	</node>
	<node lat="59.18725000178667" lon="10.409150003561095" id="-20529">
		<tag k="name" v="Nøtterøy" />
		<tag k="place" v="island" />
		<tag k="ssr:stedsnr" v="365062" />
	</node>
	<node lat="59.1958694479461" lon="10.581619442277301" id="-20532">
		<tag k="alt_name" v="Kjellholmen" />
		<tag k="name" v="Kjeldholmen" />
		<tag k="place" v="islet" />
		<tag k="ssr:stedsnr" v="365073" />
	</node>
	<node lat="59.214972223183594" lon="10.636341670814504" id="-20534">
		<tag k="bay" v="fjord" />
		<tag k="name" v="Oslofjorden" />
		<tag k="natural" v="bay" />
		<tag k="ssr:stedsnr" v="365030" />
	</node>
	<node lat="59.21297499927575" lon="10.549883339894775" id="-20536">
		<tag k="alt_name" v="Bolærne, m.;Mellom Bolæren;Midtre Bolærne;Bolærne, midtre;Bolærne, Mellom" />
		<tag k="name" v="Mellom-Bolæren" />
		<tag k="place" v="island" />
		<tag k="ssr:stedsnr" v="365037" />
	</node>
	<node lat="59.19266111410265" lon="10.582941674849316" id="-20537">
		<tag k="fixme" v="consider seamark:type=rock or natural=shoal" />
		<tag k="name" v="Flatskjær" />
		<tag k="place" v="islet" />
		<tag k="ssr:stedsnr" v="365098" />
	</node>
	<node lat="59.17071666551153" lon="10.589713883173168" id="-20539">
		<tag k="alt_name" v="Havskaaren" />
		<tag k="fixme" v="consider seamark:type=rock or natural=shoal" />
		<tag k="name" v="Havskåren" />
		<tag k="place" v="islet" />
		<tag k="ssr:stedsnr" v="365114" />
	</node>
	<node lat="59.15675635532846" lon="10.485575326295812" id="-20541">
		<tag k="name" v="Skrøslingen" />
		<tag k="place" v="island" />
		<tag k="ssr:stedsnr" v="365123" />
	</node>
	<node lat="59.16600278045455" lon="10.385475003001481" id="-20542">
		<tag k="name" v="Vrengen" />
		<tag k="natural" v="strait" />
		<tag k="ssr:stedsnr" v="365127" />
	</node>
	<node lat="59.04757499998353" lon="10.369377779831082" id="-20543">
		<tag k="fixme" v="consider seamark:type=rock or natural=shoal" />
		<tag k="name" v="Oskjær" />
		<tag k="place" v="islet" />
		<tag k="ssr:stedsnr" v="365461" />
	</node>
	<node lat="59.14110555530558" lon="10.33530555992557" id="-20546">
		<tag k="name" v="Breibukta" />
		<tag k="natural" v="bay" />
		<tag k="ssr:stedsnr" v="388203" />
	</node>
	<node lat="59.160907206833805" lon="10.51104768870618" id="-20547">
		<tag k="alt_name" v="Rønneskjærflaket" />
		<tag k="name" v="Rønneskjærflakket" />
		<tag k="natural" v="shoal" />
		<tag k="place" v="locality" />
		<tag k="ssr:stedsnr" v="387787" />
	</node>
	<node lat="59.15016991008103" lon="10.508810821246167" id="-20548">
		<tag k="name" v="Sydostgrunnen" />
		<tag k="natural" v="shoal" />
		<tag k="place" v="locality" />
		<tag k="ssr:stedsnr" v="387789" />
	</node>
	<node lat="59.14546666518278" lon="10.350269440129173" id="-20549">
		<tag k="name" v="Hverveodden" />
		<tag k="natural" v="cape" />
		<tag k="ssr:stedsnr" v="388248" />
	</node>
	<node lat="59.14495277845985" lon="10.35064722099195" id="-20550">
		<tag k="name" v="Hverveoddbukta" />
		<tag k="natural" v="bay" />
		<tag k="ssr:stedsnr" v="388254" />
	</node>
	<node lat="59.11976110988687" lon="10.381863890175097" id="-20551">
		<tag k="alt_name" v="Langvika" />
		<tag k="name" v="Langvik" />
		<tag k="natural" v="bay" />
		<tag k="ssr:stedsnr" v="388274" />
	</node>
	<node lat="59.13123610877357" lon="10.41333055271496" id="-20554">
		<tag k="name" v="Hagastrand" />
		<tag k="natural" v="beach" />
		<tag k="ssr:stedsnr" v="389128" />
	</node>
	<node lat="59.10233332980733" lon="10.38635833324657" id="-20558">
		<tag k="name" v="Barkevika" />
		<tag k="natural" v="bay" />
		<tag k="ssr:stedsnr" v="389644" />
	</node>
	<node lat="59.1071611110763" lon="10.43232222597193" id="-20559">
		<tag k="name" v="Holmebukta" />
		<tag k="natural" v="bay" />
		<tag k="ssr:stedsnr" v="389645" />
	</node>
	<node lat="59.111708333803115" lon="10.420588893333361" id="-20561">
		<tag k="fixme" v="consider seamark:type=rock or natural=shoal" />
		<tag k="name" v="Terneskjær" />
		<tag k="place" v="islet" />
		<tag k="ssr:stedsnr" v="389652" />
	</node>
	<node lat="59.11654999689944" lon="10.419427775135075" id="-20562">
		<tag k="name" v="Dalskilen" />
		<tag k="natural" v="strait" />
		<tag k="ssr:stedsnr" v="389653" />
	</node>
	<node lat="59.15971944459239" lon="10.42008333188664" id="-20565">
		<tag k="name" v="Kråkerestranda" />
		<tag k="natural" v="beach" />
		<tag k="ssr:stedsnr" v="389668" />
	</node>
	<node lat="59.09783888891326" lon="10.46136944014589" id="-20567">
		<tag k="fixme" v="consider seamark:type=rock or natural=shoal" />
		<tag k="name" v="Matkoll" />
		<tag k="place" v="islet" />
		<tag k="ssr:stedsnr" v="389677" />
	</node>
	<node lat="59.04298332974245" lon="10.41657222009381" id="-20568">
		<tag k="name" v="Hellene" />
		<tag k="natural" v="shoal" />
		<tag k="place" v="locality" />
		<tag k="ssr:stedsnr" v="389972" />
	</node>
	<node lat="59.07983897375736" lon="10.43859071188995" id="-20569">
		<tag k="name" v="Vestgardskilen" />
		<tag k="natural" v="bay" />
		<tag k="ssr:stedsnr" v="390950" />
	</node>
	<node lat="59.24084166743772" lon="10.535505551097911" id="-20571">
		<tag k="name" v="Medkrakken" />
		<tag k="natural" v="shoal" />
		<tag k="place" v="locality" />
		<tag k="ssr:stedsnr" v="392069" />
	</node>
	<node lat="59.15976388477935" lon="10.626866658101079" id="-20573">
		<tag k="name" v="Hollenderbåen" />
		<tag k="natural" v="shoal" />
		<tag k="place" v="locality" />
		<tag k="ssr:stedsnr" v="418952" />
	</node>
	<node lat="59.08877777359631" lon="10.403100003004779" id="-20574">
		<tag k="name" v="Kolabekkilen" />
		<tag k="natural" v="bay" />
		<tag k="ssr:stedsnr" v="426395" />
	</node>
	<node lat="59.0814138930092" lon="10.421900007976497" id="-20575">
		<tag k="name" v="Sjøbusand" />
		<tag k="natural" v="beach" />
		<tag k="ssr:stedsnr" v="426397" />
	</node>
	<node lat="59.21817222468198" lon="10.46328889552954" id="-20577">
		<tag k="fixme" v="consider seamark:type=rock or natural=shoal" />
		<tag k="name" v="Barneskjær" />
		<tag k="place" v="islet" />
		<tag k="ssr:stedsnr" v="426034" />
	</node>
	<node lat="59.19121388865112" lon="10.470627771480311" id="-20580">
		<tag k="fixme" v="consider seamark:type=rock or natural=shoal" />
		<tag k="name" v="Pølsa" />
		<tag k="place" v="islet" />
		<tag k="ssr:stedsnr" v="426067" />
	</node>
	<node lat="59.11737221965866" lon="10.371861114044325" id="-20585">
		<tag k="fixme" v="consider seamark:type=rock or natural=shoal" />
		<tag k="name" v="Hvitskjær" />
		<tag k="place" v="islet" />
		<tag k="ssr:stedsnr" v="427400" />
	</node>
	<node lat="59.15855000273819" lon="10.497416668802256" id="-20586">
		<tag k="fixme" v="consider seamark:type=rock or natural=shoal" />
		<tag k="name" v="Rønneskjæra" />
		<tag k="place" v="islet" />
		<tag k="ssr:stedsnr" v="427123" />
	</node>
	<node lat="59.169116666967014" lon="10.446008325177324" id="-20587">
		<tag k="name" v="Årøysundet" />
		<tag k="natural" v="strait" />
		<tag k="ssr:stedsnr" v="427131" />
	</node>
	<node lat="59.15123333476301" lon="10.455488882283557" id="-20589">
		<tag k="alt_name" v="Mågerøflaket" />
		<tag k="name" v="Mågerøflakket" />
		<tag k="natural" v="shoal" />
		<tag k="place" v="locality" />
		<tag k="ssr:stedsnr" v="509678" />
	</node>
	<node lat="59.208558335550684" lon="10.562105561779005" id="-20591">
		<tag k="name" v="Kongshavnsund" />
		<tag k="natural" v="strait" />
		<tag k="ssr:stedsnr" v="509751" />
	</node>
	<node lat="59.10413610839411" lon="10.348097216764081" id="-20592">
		<tag k="fixme" v="consider seamark:type=rock or natural=shoal" />
		<tag k="name" v="Kovaveggene" />
		<tag k="place" v="islet" />
		<tag k="ssr:stedsnr" v="510293" />
	</node>
	<node lat="59.12730833702376" lon="10.430358324888989" id="-20594">
		<tag k="name" v="Hønsøkilen" />
		<tag k="natural" v="bay" />
		<tag k="ssr:stedsnr" v="510226" />
	</node>
	<node lat="59.13676666376796" lon="10.339175004350317" id="-20596">
		<tag k="name" v="Kjelebåen" />
		<tag k="natural" v="shoal" />
		<tag k="place" v="locality" />
		<tag k="ssr:stedsnr" v="510593" />
	</node>
	<node lat="59.23690833503157" lon="10.458105563016922" id="-20600">
		<tag k="name" v="Myrasundet" />
		<tag k="natural" v="strait" />
		<tag k="ssr:stedsnr" v="510997" />
	</node>
	<node lat="59.04018889130089" lon="10.375849994981385" id="-20602">
		<tag k="name" v="Knattebåene" />
		<tag k="natural" v="shoal" />
		<tag k="place" v="locality" />
		<tag k="ssr:stedsnr" v="511993" />
	</node>
	<node lat="59.04759444733568" lon="10.463147213708687" id="-20603">
		<tag k="fixme" v="consider seamark:type=rock or natural=shoal" />
		<tag k="name" v="Laksskjær" />
		<tag k="place" v="islet" />
		<tag k="ssr:stedsnr" v="511997" />
	</node>
	<node lat="59.235008651897374" lon="10.502028147276244" id="-20605">
		<tag k="name" v="Kjerkebåen" />
		<tag k="place" v="locality" />
		<tag k="seamark:type" v="rock" />
		<tag k="ssr:stedsnr" v="513067" />
	</node>
	<node lat="59.06354128715126" lon="10.499901798066976" id="-20607">
		<tag k="fixme" v="consider seamark:type=rock or natural=shoal" />
		<tag k="loc_name" v="Mefjæra" />
		<tag k="name" v="Medfjæra" />
		<tag k="place" v="islet" />
		<tag k="ssr:stedsnr" v="547508" />
	</node>
	<node lat="59.22022777442453" lon="10.520233333299993" id="-20610">
		<tag k="name" v="Haneflu" />
		<tag k="place" v="islet" />
		<tag k="ssr:stedsnr" v="547042" />
	</node>
	<node lat="59.198004018248724" lon="10.507174090835024" id="-20612">
		<tag k="name" v="Gåsøy" />
		<tag k="place" v="island" />
		<tag k="ssr:stedsnr" v="547092" />
	</node>
	<node lat="59.17847777485824" lon="10.525988893341822" id="-20613">
		<tag k="name" v="Hellesholmen" />
		<tag k="place" v="islet" />
		<tag k="ssr:stedsnr" v="547097" />
	</node>
	<node lat="59.1716166703802" lon="10.50357499653232" id="-20614">
		<tag k="fixme" v="consider seamark:type=rock or natural=shoal" />
		<tag k="name" v="Svarten" />
		<tag k="place" v="islet" />
		<tag k="ssr:stedsnr" v="547111" />
	</node>
	<node lat="59.09158055929039" lon="10.506297229720218" id="-20616">
		<tag k="name" v="Melleskjærhausen" />
		<tag k="natural" v="shoal" />
		<tag k="place" v="locality" />
		<tag k="ssr:stedsnr" v="547439" />
	</node>
	<node lat="59.14025555608294" lon="10.37226666824973" id="-20619">
		<tag k="name" v="Korsholmen" />
		<tag k="place" v="islet" />
		<tag k="ssr:stedsnr" v="565988" />
	</node>
	<node lat="59.15462162405885" lon="10.551904069260157" id="-20620">
		<tag k="name" v="Østre Vierskjærflakket" />
		<tag k="natural" v="shoal" />
		<tag k="place" v="locality" />
		<tag k="ssr:stedsnr" v="569770" />
	</node>
	<node lat="59.1722972204236" lon="10.339286118936247" id="-20626">
		<tag k="name" v="Arøbåen" />
		<tag k="natural" v="shoal" />
		<tag k="place" v="locality" />
		<tag k="ssr:stedsnr" v="570525" />
	</node>
	<node lat="59.12211944443269" lon="10.444883337986164" id="-20627">
		<tag k="fixme" v="consider seamark:type=rock or natural=shoal" />
		<tag k="name" v="Froungskjær" />
		<tag k="place" v="islet" />
		<tag k="ssr:stedsnr" v="570927" />
	</node>
	<node lat="59.12251666316626" lon="10.461888894768824" id="-20628">
		<tag k="name" v="Nordre bukta" />
		<tag k="natural" v="bay" />
		<tag k="ssr:stedsnr" v="570930" />
	</node>
	<node lat="59.16964721838626" lon="10.396158334224708" id="-20629">
		<tag k="fixme" v="consider seamark:type=rock or natural=shoal" />
		<tag k="name" v="Terneskjæra" />
		<tag k="place" v="islet" />
		<tag k="ssr:stedsnr" v="570947" />
	</node>
	<node lat="59.06012991005035" lon="10.411235993285496" id="-20632">
		<tag k="fixme" v="consider seamark:type=rock or natural=shoal" />
		<tag k="name" v="Hoffskjær" />
		<tag k="place" v="islet" />
		<tag k="ssr:stedsnr" v="571377" />
	</node>
	<node lat="59.08826388900159" lon="10.43715555701458" id="-20634">
		<tag k="fixme" v="consider seamark:type=rock or natural=shoal" />
		<tag k="name" v="Krukeskjæra" />
		<tag k="place" v="islet" />
		<tag k="ssr:stedsnr" v="571595" />
	</node>
	<node lat="59.052700003358694" lon="10.413175004177493" id="-20636">
		<tag k="fixme" v="consider seamark:type=rock or natural=shoal" />
		<tag k="name" v="Trytemuren" />
		<tag k="place" v="islet" />
		<tag k="ssr:stedsnr" v="571616" />
	</node>
	<node lat="59.0909749985488" lon="10.449011102682285" id="-20638">
		<tag k="name" v="Sandvika" />
		<tag k="natural" v="bay" />
		<tag k="ssr:stedsnr" v="571636" />
	</node>
	<node lat="59.15899166407565" lon="10.438597229052546" id="-20639">
		<tag k="name" v="Mågerøodden" />
		<tag k="natural" v="cape" />
		<tag k="ssr:stedsnr" v="571666" />
	</node>
	<node lat="59.05182222181718" lon="10.508816661702017" id="-20641">
		<tag k="fixme" v="consider seamark:type=rock or natural=shoal" />
		<tag k="name" v="Hoftøybrottet" />
		<tag k="place" v="islet" />
		<tag k="ssr:stedsnr" v="571972" />
	</node>
	<node lat="59.053791662988765" lon="10.372033326537077" id="-20642">
		<tag k="fixme" v="consider seamark:type=rock or natural=shoal" />
		<tag k="name" v="Oskjærbrott" />
		<tag k="place" v="islet" />
		<tag k="ssr:stedsnr" v="571973" />
	</node>
	<node lat="59.240455559858546" lon="10.450230563315333" id="-20646">
		<tag k="name" v="Bjørnebusundet" />
		<tag k="natural" v="strait" />
		<tag k="ssr:stedsnr" v="571994" />
	</node>
	<node lat="59.24431388639847" lon="10.541319440383228" id="-20647">
		<tag k="name" v="Djupkrakken" />
		<tag k="natural" v="shoal" />
		<tag k="place" v="locality" />
		<tag k="ssr:stedsnr" v="574825" />
	</node>
	<node lat="59.22673888570419" lon="10.46981388038693" id="-20648">
		<tag k="name" v="Fjærholmenbåen" />
		<tag k="place" v="locality" />
		<tag k="seamark:type" v="rock" />
		<tag k="ssr:stedsnr" v="574826" />
	</node>
	<node lat="59.2328249993527" lon="10.438283324874652" id="-20649">
		<tag k="name" v="Ekenessundet" />
		<tag k="natural" v="strait" />
		<tag k="ssr:stedsnr" v="574987" />
	</node>
	<node lat="59.164988890546915" lon="10.377613896073527" id="-20650">
		<tag k="alt_name" v="Fuglevik" />
		<tag k="name" v="Fuglevika" />
		<tag k="natural" v="bay" />
		<tag k="ssr:stedsnr" v="574991" />
	</node>
	<node lat="59.10435277827895" lon="10.479427781409035" id="-20652">
		<tag k="alt_name" v="Bustein, vestre" />
		<tag k="name" v="Vestre Bustein" />
		<tag k="place" v="island" />
		<tag k="ssr:stedsnr" v="607439" />
	</node>
	<node lat="59.201541666756235" lon="10.54344721545569" id="-20653">
		<tag k="name" v="Hatten" />
		<tag k="place" v="islet" />
		<tag k="ssr:stedsnr" v="608072" />
	</node>
	<node lat="59.11719952066118" lon="10.421532573554094" id="-20657">
		<tag k="name" v="Bukkholmen" />
		<tag k="place" v="islet" />
		<tag k="ssr:stedsnr" v="630657" />
	</node>
	<node lat="59.13882499932741" lon="10.344099997031623" id="-20660">
		<tag k="name" v="Djupekil" />
		<tag k="natural" v="bay" />
		<tag k="ssr:stedsnr" v="631215" />
	</node>
	<node lat="59.120505558226405" lon="10.368697221605375" id="-20661">
		<tag k="alt_name" v="Brentholmen" />
		<tag k="name" v="Brendtholmen" />
		<tag k="place" v="islet" />
		<tag k="ssr:stedsnr" v="631279" />
	</node>
	<node lat="59.16433055996669" lon="10.35728055068403" id="-20664">
		<tag k="name" v="Albykilen" />
		<tag k="natural" v="bay" />
		<tag k="ssr:stedsnr" v="631422" />
	</node>
	<node lat="59.09100555502942" lon="10.411583340011294" id="-20668">
		<tag k="name" v="Paradisbukta" />
		<tag k="natural" v="bay" />
		<tag k="ssr:stedsnr" v="631615" />
	</node>
	<node lat="59.09709444293944" lon="10.407902780041558" id="-20669">
		<tag k="name" v="Eidenekilen" />
		<tag k="natural" v="bay" />
		<tag k="ssr:stedsnr" v="631620" />
	</node>
	<node lat="59.14202221860862" lon="10.449069445997994" id="-20673">
		<tag k="name" v="Burøodden" />
		<tag k="natural" v="cape" />
		<tag k="ssr:stedsnr" v="631950" />
	</node>
	<node lat="59.17340832897949" lon="10.394783339062755" id="-20674">
		<tag k="name" v="Roper'n" />
		<tag k="natural" v="cape" />
		<tag k="ssr:stedsnr" v="631956" />
	</node>
	<node lat="59.16801111385776" lon="10.410086104702485" id="-20675">
		<tag k="fixme" v="consider seamark:type=rock or natural=shoal" />
		<tag k="name" v="Jakobskjær" />
		<tag k="place" v="islet" />
		<tag k="ssr:stedsnr" v="631957" />
	</node>
	<node lat="59.02576944465577" lon="10.34618055432559" id="-20678">
		<tag k="name" v="Storegrunn" />
		<tag k="natural" v="shoal" />
		<tag k="place" v="locality" />
		<tag k="ssr:stedsnr" v="632937" />
	</node>
	<node lat="59.048825002169494" lon="10.416288894975628" id="-20679">
		<tag k="fixme" v="consider seamark:type=rock or natural=shoal" />
		<tag k="name" v="Brottene" />
		<tag k="place" v="islet" />
		<tag k="ssr:stedsnr" v="632964" />
	</node>
	<node lat="59.188997221235795" lon="10.466880556379033" id="-20681">
		<tag k="name" v="Sommarstadberga" />
		<tag k="natural" v="cape" />
		<tag k="ssr:stedsnr" v="634055" />
	</node>
	<node lat="59.189577775058574" lon="10.354094437749024" id="-20682">
		<tag k="name" v="Grøtterødbåen" />
		<tag k="place" v="locality" />
		<tag k="seamark:type" v="rock" />
		<tag k="ssr:stedsnr" v="634069" />
	</node>
	<node lat="59.2418527768452" lon="10.432527768999774" id="-20684">
		<tag k="name" v="Smidsrødodden" />
		<tag k="natural" v="cape" />
		<tag k="ssr:stedsnr" v="662216" />
	</node>
	<node lat="59.09380000018339" lon="10.361738880574933" id="-20685">
		<tag k="fixme" v="consider seamark:type=rock or natural=shoal" />
		<tag k="name" v="Sydostskjæra" />
		<tag k="place" v="islet" />
		<tag k="ssr:stedsnr" v="668433" />
	</node>
	<node lat="59.10081389131962" lon="10.35412499662428" id="-20686">
		<tag k="fixme" v="consider seamark:type=rock or natural=shoal" />
		<tag k="name" v="Langskjæra" />
		<tag k="place" v="islet" />
		<tag k="ssr:stedsnr" v="668443" />
	</node>
	<node lat="59.16558611294187" lon="10.48738610904879" id="-20692">
		<tag k="alt_name" v="Bukkholmane" />
		<tag k="name" v="Bukkholmen" />
		<tag k="place" v="islet" />
		<tag k="ssr:stedsnr" v="669113" />
	</node>
	<node lat="59.19638889006539" lon="10.538783335877" id="-20693">
		<tag k="name" v="Trollholmen" />
		<tag k="place" v="islet" />
		<tag k="ssr:stedsnr" v="669062" />
	</node>
	<node lat="59.117861109311974" lon="10.464100000183354" id="-20695">
		<tag k="name" v="Ildverket" />
		<tag k="place" v="island" />
		<tag k="ssr:stedsnr" v="669379" />
	</node>
	<node lat="59.06728888732182" lon="10.523755549489447" id="-20696">
		<tag k="name" v="Store Færder" />
		<tag k="place" v="island" />
		<tag k="ssr:stedsnr" v="669457" />
	</node>
	<node lat="59.05916389159458" lon="10.526483336954007" id="-20697">
		<tag k="alt_name" v="Dønneskjær" />
		<tag k="fixme" v="consider seamark:type=rock or natural=shoal" />
		<tag k="name" v="Knappeskjær" />
		<tag k="place" v="islet" />
		<tag k="ssr:stedsnr" v="669458" />
	</node>
	<node lat="59.05270832907586" lon="10.446274997300746" id="-20698">
		<tag k="name" v="Kløvningen" />
		<tag k="place" v="island" />
		<tag k="ssr:stedsnr" v="669461" />
	</node>
	<node lat="59.08644166887079" lon="10.489386117606232" id="-20700">
		<tag k="name" v="Kringlene" />
		<tag k="natural" v="shoal" />
		<tag k="place" v="locality" />
		<tag k="ssr:stedsnr" v="669471" />
	</node>
	<node lat="59.08007500370122" lon="10.476880555470744" id="-20701">
		<tag k="fixme" v="consider seamark:type=rock or natural=shoal" />
		<tag k="name" v="Kåviklorten" />
		<tag k="place" v="islet" />
		<tag k="ssr:stedsnr" v="669473" />
	</node>
	<node lat="59.10367499635075" lon="10.448649999194249" id="-20702">
		<tag k="name" v="Vasskalven" />
		<tag k="place" v="island" />
		<tag k="ssr:stedsnr" v="729432" />
	</node>
	<node lat="59.056363893429605" lon="10.387336104852952" id="-20708">
		<tag k="alt_name" v="Kråka, m" />
		<tag k="fixme" v="consider seamark:type=rock or natural=shoal" />
		<tag k="name" v="Midtre Kråka" />
		<tag k="place" v="islet" />
		<tag k="ssr:stedsnr" v="730451" />
	</node>
	<node lat="59.06031666919921" lon="10.364963887745482" id="-20709">
		<tag k="fixme" v="consider seamark:type=rock or natural=shoal" />
		<tag k="name" v="Mefjæra" />
		<tag k="place" v="islet" />
		<tag k="ssr:stedsnr" v="730454" />
	</node>
	<node lat="59.0579499988616" lon="10.460216669430949" id="-20710">
		<tag k="fixme" v="consider seamark:type=rock or natural=shoal" />
		<tag k="name" v="Torskjæra" />
		<tag k="place" v="islet" />
		<tag k="ssr:stedsnr" v="730457" />
	</node>
	<node lat="59.059397226522066" lon="10.434383334307839" id="-20711">
		<tag k="name" v="Uleholmen" />
		<tag k="place" v="islet" />
		<tag k="ssr:stedsnr" v="730460" />
	</node>
	<node lat="59.14636388551532" lon="10.449163890305462" id="-20717">
		<tag k="name" v="Herbergbåen" />
		<tag k="natural" v="shoal" />
		<tag k="place" v="locality" />
		<tag k="ssr:stedsnr" v="752681" />
	</node>
	<node lat="59.13034444060785" lon="10.47043611679975" id="-20718">
		<tag k="name" v="Mosteinsbåen" />
		<tag k="natural" v="shoal" />
		<tag k="place" v="locality" />
		<tag k="ssr:stedsnr" v="752685" />
	</node>
	<node lat="59.124424998822114" lon="10.48707500862247" id="-20719">
		<tag k="name" v="Drillenebåen" />
		<tag k="natural" v="shoal" />
		<tag k="place" v="locality" />
		<tag k="ssr:stedsnr" v="752686" />
	</node>
	<node lat="59.13840833516885" lon="10.423563885224436" id="-20720">
		<tag k="fixme" v="consider seamark:type=rock or natural=shoal" />
		<tag k="name" v="Buskeskjær" />
		<tag k="place" v="islet" />
		<tag k="ssr:stedsnr" v="753091" />
	</node>
	<node lat="59.12579999833846" lon="10.436541662190118" id="-20724">
		<tag k="fixme" v="consider seamark:type=rock or natural=shoal" />
		<tag k="name" v="Hønsøbakkstuten" />
		<tag k="place" v="islet" />
		<tag k="ssr:stedsnr" v="753184" />
	</node>
	<node lat="59.13302500020408" lon="10.434088896246289" id="-20725">
		<tag k="name" v="Gunnarshavn" />
		<tag k="natural" v="bay" />
		<tag k="ssr:stedsnr" v="753190" />
	</node>
	<node lat="59.073463892968356" lon="10.393072220728701" id="-20728">
		<tag k="name" v="Norildsand" />
		<tag k="natural" v="beach" />
		<tag k="ssr:stedsnr" v="753325" />
	</node>
	<node lat="59.07196666818289" lon="10.426955550428378" id="-20729">
		<tag k="name" v="Røssesund" />
		<tag k="natural" v="strait" />
		<tag k="ssr:stedsnr" v="753337" />
	</node>
	<node lat="59.14111111298781" lon="10.365919448653809" id="-20730">
		<tag k="name" v="Oslebakksundet" />
		<tag k="natural" v="bay" />
		<tag k="ssr:stedsnr" v="753198" />
	</node>
	<node lat="59.17015555965345" lon="10.371805556958806" id="-20732">
		<tag k="name" v="Tokeneskilen" />
		<tag k="natural" v="bay" />
		<tag k="ssr:stedsnr" v="753396" />
	</node>
	<node lat="59.25121667051445" lon="10.381938895067169" id="-20736">
		<tag k="name" v="Munkholmen" />
		<tag k="natural" v="cape" />
		<tag k="ssr:stedsnr" v="753734" />
	</node>
	<node lat="59.12996110789011" lon="10.440113882533801" id="-20738">
		<tag k="name" v="Jøransodden" />
		<tag k="natural" v="cape" />
		<tag k="ssr:stedsnr" v="753926" />
	</node>
	<node lat="59.12504166897345" lon="10.491713884369702" id="-20739">
		<tag k="fixme" v="consider seamark:type=rock or natural=shoal" />
		<tag k="name" v="Små Drillen" />
		<tag k="place" v="islet" />
		<tag k="ssr:stedsnr" v="753937" />
	</node>
	<node lat="59.14125277764573" lon="10.382525004950274" id="-20740">
		<tag k="name" v="Glennekilen" />
		<tag k="natural" v="bay" />
		<tag k="ssr:stedsnr" v="754633" />
	</node>
	<node lat="59.06285555950228" lon="10.521800008023265" id="-20741">
		<tag k="name" v="Hovik" />
		<tag k="natural" v="bay" />
		<tag k="ssr:stedsnr" v="755883" />
	</node>
	<node lat="59.179054775828014" lon="10.538125601753265" id="-20742">
		<tag k="name" v="Hui" />
		<tag k="place" v="island" />
		<tag k="ssr:stedsnr" v="756040" />
	</node>
	<node lat="59.167672220230045" lon="10.546291663771225" id="-20743">
		<tag k="alt_name" v="Hestskjærbåen" />
		<tag k="name" v="Hestskjærbåene" />
		<tag k="place" v="locality" />
		<tag k="seamark:type" v="rock" />
		<tag k="ssr:stedsnr" v="756991" />
	</node>
	<node lat="59.21230832928706" lon="10.367738892245857" id="-20744">
		<tag k="name" v="Kausen" />
		<tag k="natural" v="cape" />
		<tag k="ssr:stedsnr" v="786986" />
	</node>
	<node lat="59.23609999563425" lon="10.508038891026933" id="-20745">
		<tag k="name" v="Tørfest" />
		<tag k="place" v="islet" />
		<tag k="ssr:stedsnr" v="790027" />
	</node>
	<node lat="59.21584166267246" lon="10.476174997925526" id="-20746">
		<tag k="fixme" v="consider seamark:type=rock or natural=shoal" />
		<tag k="name" v="Tjeldeskjær" />
		<tag k="place" v="islet" />
		<tag k="ssr:stedsnr" v="790036" />
	</node>
	<node lat="59.17992647514989" lon="10.3550088100976" id="-20749">
		<tag k="name" v="Håøya" />
		<tag k="place" v="island" />
		<tag k="ssr:stedsnr" v="790080" />
	</node>
	<node lat="59.08139722491904" lon="10.390597214876358" id="-20752">
		<tag k="name" v="Teinetangen" />
		<tag k="natural" v="cape" />
		<tag k="ssr:stedsnr" v="790419" />
	</node>
	<node lat="59.109391668322154" lon="10.499450007263489" id="-20754">
		<tag k="fixme" v="consider seamark:type=rock or natural=shoal" />
		<tag k="name" v="Svarten" />
		<tag k="place" v="islet" />
		<tag k="ssr:stedsnr" v="790425" />
	</node>
	<node lat="59.09984444567242" lon="10.488766662685121" id="-20755">
		<tag k="alt_name" v="Bustein, østre" />
		<tag k="name" v="Østre Bustein" />
		<tag k="place" v="island" />
		<tag k="ssr:stedsnr" v="790439" />
	</node>
	<node lat="59.03549166308022" lon="10.411133334215865" id="-20756">
		<tag k="fixme" v="consider seamark:type=rock or natural=shoal" />
		<tag k="name" v="Sydvesthella" />
		<tag k="place" v="islet" />
		<tag k="ssr:stedsnr" v="790501" />
	</node>
	<node lat="59.12528055969684" lon="10.451183333434054" id="-20757">
		<tag k="name" v="Buskholmen" />
		<tag k="place" v="islet" />
		<tag k="ssr:stedsnr" v="790372" />
	</node>
	<node lat="59.12058055852748" lon="10.590113897262306" id="-20758">
		<tag k="alt_name" v="Søndre Mefjordbåen" />
		<tag k="name" v="Mefjordbåen" />
		<tag k="natural" v="shoal" />
		<tag k="place" v="locality" />
		<tag k="ssr:stedsnr" v="790377" />
	</node>
	<node lat="59.13792777691598" lon="10.352099996827178" id="-20760">
		<tag k="fixme" v="consider seamark:type=rock or natural=shoal" />
		<tag k="name" v="Pikeskjæra" />
		<tag k="place" v="islet" />
		<tag k="ssr:stedsnr" v="790387" />
	</node>
	<node lat="59.07801871102126" lon="10.466373538156407" id="-20762">
		<tag k="name" v="Sandø" />
		<tag k="place" v="island" />
		<tag k="ssr:stedsnr" v="790472" />
	</node>
	<node lat="59.10351666731931" lon="10.365547228253298" id="-20765">
		<tag k="fixme" v="consider seamark:type=rock or natural=shoal" />
		<tag k="name" v="Bølene" />
		<tag k="place" v="islet" />
		<tag k="ssr:stedsnr" v="813268" />
	</node>
	<node lat="59.1688472195762" lon="10.59891388997254" id="-20768">
		<tag k="name" v="Fulehukskatet" />
		<tag k="natural" v="shoal" />
		<tag k="place" v="locality" />
		<tag k="ssr:stedsnr" v="813819" />
	</node>
	<node lat="59.11446944342866" lon="10.424936118337682" id="-20776">
		<tag k="name" v="Dragholmen" />
		<tag k="place" v="islet" />
		<tag k="ssr:stedsnr" v="814649" />
	</node>
	<node lat="59.055136108513125" lon="10.46580555441159" id="-20778">
		<tag k="name" v="Torsholmgrunnen" />
		<tag k="natural" v="shoal" />
		<tag k="place" v="locality" />
		<tag k="ssr:stedsnr" v="814392" />
	</node>
	<node lat="59.04541666594169" lon="10.4403611169732" id="-20779">
		<tag k="name" v="Flaten" />
		<tag k="natural" v="shoal" />
		<tag k="place" v="locality" />
		<tag k="ssr:stedsnr" v="814394" />
	</node>
	<node lat="59.05699444504751" lon="10.443480552723521" id="-20781">
		<tag k="name" v="Kløvningebåene" />
		<tag k="place" v="locality" />
		<tag k="seamark:type" v="rock" />
		<tag k="ssr:stedsnr" v="814402" />
	</node>
	<node lat="59.0846055566629" lon="10.468505559037654" id="-20783">
		<tag k="name" v="Nordhavna" />
		<tag k="natural" v="bay" />
		<tag k="ssr:stedsnr" v="814666" />
	</node>
	<node lat="59.16300833756916" lon="10.387299992740806" id="-20784">
		<tag k="name" v="Lille Sverige" />
		<tag k="natural" v="beach" />
		<tag k="ssr:stedsnr" v="814669" />
	</node>
	<node lat="59.24313055923107" lon="10.51755555955527" id="-20787">
		<tag k="fixme" v="consider seamark:type=rock or natural=shoal" />
		<tag k="name" v="Fjærskjær" />
		<tag k="place" v="islet" />
		<tag k="ssr:stedsnr" v="851001" />
	</node>
	<node lat="59.22394166919602" lon="10.464397229512329" id="-20791">
		<tag k="name" v="Fjærholmen" />
		<tag k="natural" v="cape" />
		<tag k="ssr:stedsnr" v="851047" />
	</node>
	<node lat="59.124299998122396" lon="10.341919446418128" id="-20792">
		<tag k="name" v="Flåteskjær" />
		<tag k="place" v="islet" />
		<tag k="ssr:stedsnr" v="851048" />
	</node>
	<node lat="59.22479999693753" lon="10.4886833323101" id="-20793">
		<tag k="fixme" v="consider seamark:type=rock or natural=shoal" />
		<tag k="name" v="Langskjæra" />
		<tag k="place" v="islet" />
		<tag k="ssr:stedsnr" v="851049" />
	</node>
	<node lat="59.21013889063058" lon="10.57178611737558" id="-20794">
		<tag k="alt_name" v="Hestbåen" />
		<tag k="name" v="Hestbåene" />
		<tag k="natural" v="shoal" />
		<tag k="place" v="locality" />
		<tag k="ssr:stedsnr" v="851053" />
	</node>
	<node lat="59.11732221880769" lon="10.44967778239287" id="-20799">
		<tag k="name" v="Froungen" />
		<tag k="place" v="island" />
		<tag k="ssr:stedsnr" v="851364" />
	</node>
	<node lat="59.106411112611376" lon="10.379513883568913" id="-20805">
		<tag k="name" v="Skrålevika" />
		<tag k="natural" v="bay" />
		<tag k="ssr:stedsnr" v="874338" />
	</node>
	<node lat="59.139619445438825" lon="10.369147217656097" id="-20806">
		<tag k="name" v="Søndre Oslebakkholmen" />
		<tag k="place" v="islet" />
		<tag k="ssr:stedsnr" v="874261" />
	</node>
	<node lat="59.132277781712745" lon="10.476458338842333" id="-20808">
		<tag k="name" v="Fluene" />
		<tag k="natural" v="shoal" />
		<tag k="place" v="locality" />
		<tag k="ssr:stedsnr" v="874359" />
	</node>
	<node lat="59.20786944778461" lon="10.52702777253313" id="-20812">
		<tag k="name" v="Sydvestbåen" />
		<tag k="natural" v="shoal" />
		<tag k="place" v="locality" />
		<tag k="ssr:stedsnr" v="874643" />
	</node>
	<node lat="59.22597777792811" lon="10.560016659927534" id="-20813">
		<tag k="name" v="Bolærkrakken" />
		<tag k="natural" v="shoal" />
		<tag k="place" v="locality" />
		<tag k="ssr:stedsnr" v="874826" />
	</node>
	<node lat="59.134436107152936" lon="10.489449997823334" id="-20816">
		<tag k="fixme" v="consider seamark:type=rock or natural=shoal" />
		<tag k="name" v="Kulpen" />
		<tag k="place" v="islet" />
		<tag k="ssr:stedsnr" v="874928" />
	</node>
	<node lat="59.164219445878764" lon="10.408752775773447" id="-20817">
		<tag k="name" v="Bustangbukta" />
		<tag k="natural" v="bay" />
		<tag k="ssr:stedsnr" v="874936" />
	</node>
	<node lat="59.057066662710824" lon="10.400749996342125" id="-20819">
		<tag k="name" v="Velvikbukta" />
		<tag k="natural" v="bay" />
		<tag k="ssr:stedsnr" v="875386" />
	</node>
	<node lat="59.05684999764002" lon="10.412672224807825" id="-20821">
		<tag k="name" v="Sandholmene" />
		<tag k="place" v="islet" />
		<tag k="ssr:stedsnr" v="875390" />
	</node>
	<node lat="59.16490833534853" lon="10.360177778126943" id="-20822">
		<tag k="name" v="Kjølholmen" />
		<tag k="place" v="islet" />
		<tag k="ssr:stedsnr" v="875460" />
	</node>
	<node lat="59.080821830655495" lon="10.454098093363696" id="-20824">
		<tag k="name" v="Krukeholmen" />
		<tag k="natural" v="cape" />
		<tag k="ssr:stedsnr" v="875645" />
	</node>
	<node lat="59.19242777615778" lon="10.554597222549413" id="-20828">
		<tag k="bay" v="fjord" />
		<tag k="name" v="Ramsholmkjæla" />
		<tag k="natural" v="bay" />
		<tag k="ssr:stedsnr" v="878978" />
	</node>
	<node lat="59.09657221992961" lon="10.430708335887214" id="-20831">
		<tag k="name" v="Purkestranda" />
		<tag k="natural" v="beach" />
		<tag k="ssr:stedsnr" v="935631" />
	</node>
	<node lat="59.08698610928469" lon="10.45077777132316" id="-20833">
		<tag k="name" v="Krukehavna" />
		<tag k="natural" v="bay" />
		<tag k="ssr:stedsnr" v="935669" />
	</node>
	<node lat="59.096038887209296" lon="10.461297224641953" id="-20834">
		<tag k="fixme" v="consider seamark:type=rock or natural=shoal" />
		<tag k="name" v="Matkoll-lorten" />
		<tag k="place" v="islet" />
		<tag k="ssr:stedsnr" v="935685" />
	</node>
	<node lat="59.147091670301464" lon="10.42800555075357" id="-20836">
		<tag k="name" v="Torbjørnkilen" />
		<tag k="natural" v="bay" />
		<tag k="ssr:stedsnr" v="935710" />
	</node>
	<node lat="59.04975277678353" lon="10.371872228027375" id="-20840">
		<tag k="name" v="Ragnhild" />
		<tag k="natural" v="shoal" />
		<tag k="place" v="locality" />
		<tag k="ssr:stedsnr" v="936994" />
	</node>
	<node lat="59.02211389316352" lon="10.435747221184435" id="-20841">
		<tag k="name" v="Tjømebåskatet" />
		<tag k="natural" v="shoal" />
		<tag k="place" v="locality" />
		<tag k="ssr:stedsnr" v="936997" />
	</node>
	<node lat="59.16399444528476" lon="10.40861111270009" id="-20843">
		<tag k="name" v="Kilen" />
		<tag k="natural" v="bay" />
		<tag k="ssr:stedsnr" v="938053" />
	</node>
	<node lat="59.169880559599655" lon="10.352619450312874" id="-20844">
		<tag k="name" v="Håholmgrunnen" />
		<tag k="natural" v="shoal" />
		<tag k="place" v="locality" />
		<tag k="ssr:stedsnr" v="938070" />
	</node>
	<node lat="59.161441664462004" lon="10.37569444753441" id="-20845">
		<tag k="name" v="Saltbuflua" />
		<tag k="natural" v="shoal" />
		<tag k="place" v="locality" />
		<tag k="ssr:stedsnr" v="938984" />
	</node>
	<node lat="59.17611666807946" lon="10.594502781193532" id="-20847">
		<tag k="name" v="Rauer" />
		<tag k="place" v="island" />
		<tag k="ssr:stedsnr" v="961869" />
	</node>
	<node lat="59.02045555833846" lon="10.649094449532255" id="-20848">
		<tag k="name" v="Stilhausen" />
		<tag k="natural" v="shoal" />
		<tag k="ssr:stedsnr" v="964495" />
	</node>
	<node lat="59.16863549537117" lon="10.409822006473187" id="-20853">
		<tag k="name" v="Gryteskjærbåen" />
		<tag k="place" v="locality" />
		<tag k="seamark:type" v="rock" />
		<tag k="ssr:stedsnr" v="988653" />
	</node>
	<node lat="59.0494460668531" lon="10.45665633510741" id="-20854">
		<tag k="name" v="Gloskjærrenna" />
		<tag k="natural" v="strait" />
		<tag k="ssr:stedsnr" v="988680" />
	</node>
	<node lat="59.05110498998451" lon="10.45361184701174" id="-20855">
		<tag k="fixme" v="consider seamark:type=rock or natural=shoal" />
		<tag k="name" v="Hundbrott" />
		<tag k="place" v="islet" />
		<tag k="ssr:stedsnr" v="988681" />
	</node>
	<node lat="59.19197703974337" lon="10.496583226496758" id="-20856">
		<tag k="name" v="Bannsattbåane" />
		<tag k="place" v="locality" />
		<tag k="seamark:type" v="rock" />
		<tag k="ssr:stedsnr" v="988625" />
	</node>
	<node lat="59.062496196638314" lon="10.459205696334076" id="-20857">
		<tag k="fixme" v="consider seamark:type=rock or natural=shoal" />
		<tag k="name" v="Store Torskjær" />
		<tag k="place" v="islet" />
		<tag k="ssr:stedsnr" v="988682" />
	</node>
	<node lat="59.06768236713949" lon="10.459135736506266" id="-20858">
		<tag k="name" v="Burvikbåen" />
		<tag k="place" v="locality" />
		<tag k="seamark:type" v="rock" />
		<tag k="ssr:stedsnr" v="988946" />
	</node>
	<node lat="59.12758673195987" lon="10.37041763564374" id="-20859">
		<tag k="name" v="Grisholmene" />
		<tag k="place" v="islet" />
		<tag k="ssr:stedsnr" v="988806" />
	</node>
	<node lat="58.88086692413532" lon="9.405034013126404" id="-20916">
		<tag k="name" v="Kalstadkilen" />
		<tag k="natural" v="bay" />
		<tag k="ssr:stedsnr" v="1074475" />
	</node>
</osm>
