<?xml version="1.0" encoding="UTF-8"?>
<<<<<<< HEAD
<osm version="0.6" generator="osmapis">
	<node lat="60.231783330627" lon="11.115702776107923" id="-13252">
		<tag k="name" v="Vekatosøkket" />
		<tag k="natural" v="wetland" />
		<tag k="ssr:stedsnr" v="179628" />
	</node>
	<node lat="60.165391663773114" lon="11.220319452343565" id="-13260">
=======
<osm generator="osmapis" version="0.6">
	<node id="-260599" lat="60.0939777822" lon="11.3111444419">
		<tag k="name" v="Fåmåsan" />
		<tag k="natural" v="wetland" />
		<tag k="ssr:stedsnr" v="466710" />
	</node>
	<node id="-260969" lat="60.1653916638" lon="11.2203194523">
>>>>>>> e1d4bc35ff8a6074a6f2e91616a996b547c36f15
		<tag k="name" v="Liamåsan" />
		<tag k="natural" v="wetland" />
		<tag k="ssr:stedsnr" v="187202" />
	</node>
<<<<<<< HEAD
	<node lat="60.16499166537512" lon="11.135394437853165" id="-13290">
		<tag k="name" v="Prestegårdsmoen" />
=======
	<node id="-260980" lat="60.2190222221" lon="11.1313277771">
		<tag k="name" v="Melbymyrene" />
		<tag k="natural" v="wetland" />
		<tag k="ssr:stedsnr" v="300641" />
	</node>
	<node id="-260589" lat="60.2387055515" lon="11.1367055556">
		<tag k="name" v="Mellomkulpen" />
		<tag k="natural" v="wetland" />
		<tag k="ssr:stedsnr" v="664598" />
	</node>
	<node id="-260713" lat="60.1978970936" lon="11.2096800649">
		<tag k="name" v="Hauersetermåsan" />
		<tag k="natural" v="wetland" />
		<tag k="ssr:stedsnr" v="734288" />
	</node>
	<node id="-260568" lat="60.1038861081" lon="11.3127555535">
		<tag k="name" v="Reierstadmåsan" />
		<tag k="natural" v="wetland" />
		<tag k="ssr:stedsnr" v="405714" />
	</node>
	<node id="-260951" lat="60.1976083353" lon="11.1263111075">
		<tag k="historic" v="shieling" />
		<tag k="name" v="Låkeseter" />
		<tag k="place" v="locality" />
		<tag k="ssr:stedsnr" v="179747" />
	</node>
	<node id="-261204" lat="60.1471333318" lon="11.2820333396">
		<tag k="name" v="Gudmundsrudteie" />
		<tag k="place" v="locality" />
		<tag k="ssr:stedsnr" v="786905" />
	</node>
	<node id="-260819" lat="60.1166944447" lon="11.1618361049">
		<tag k="name" v="Haugsmarka" />
>>>>>>> e1d4bc35ff8a6074a6f2e91616a996b547c36f15
		<tag k="place" v="locality" />
		<tag k="ssr:stedsnr" v="284502" />
	</node>
<<<<<<< HEAD
	<node lat="60.120352775109616" lon="11.222991673137583" id="-13318">
		<tag k="name" v="Åsmarka" />
=======
	<node id="-260471" lat="60.1580138884" lon="11.2194972133">
		<tag k="name" v="Brennimåsan" />
		<tag k="natural" v="wetland" />
		<tag k="ssr:stedsnr" v="102516" />
	</node>
	<node id="-261192" lat="60.1259666631" lon="11.1961111066">
		<tag k="name" v="Jernbanemarka" />
>>>>>>> e1d4bc35ff8a6074a6f2e91616a996b547c36f15
		<tag k="place" v="locality" />
		<tag k="ssr:stedsnr" v="369128" />
	</node>
<<<<<<< HEAD
	<node lat="60.093977782211134" lon="11.311144441943302" id="-13386">
		<tag k="name" v="Fåmåsan" />
		<tag k="natural" v="wetland" />
		<tag k="ssr:stedsnr" v="466710" />
	</node>
	<node lat="60.235547226652685" lon="11.117966661405104" id="-13397">
		<tag k="name" v="Fuglemyra" />
		<tag k="natural" v="wetland" />
		<tag k="ssr:stedsnr" v="482626" />
	</node>
	<node lat="60.18767778077761" lon="11.242711111926198" id="-13399">
=======
	<node id="-260422" lat="60.1757722226" lon="11.1635194496">
		<tag k="alt_name" v="Hovinmoen grustak" />
		<tag k="landuse" v="quarry" />
		<tag k="name" v="Hovimoen grustak" />
		<tag k="ssr:stedsnr" v="223367" />
	</node>
	<node id="-260805" lat="60.0807777801" lon="11.2489999957">
		<tag k="name" v="Ingjersmarka" />
		<tag k="place" v="locality" />
		<tag k="ssr:stedsnr" v="908937" />
	</node>
	<node id="-260546" lat="60.1876777808" lon="11.2427111119">
>>>>>>> e1d4bc35ff8a6074a6f2e91616a996b547c36f15
		<tag k="name" v="Støvnermåsan" />
		<tag k="natural" v="wetland" />
		<tag k="ssr:stedsnr" v="490218" />
	</node>
<<<<<<< HEAD
	<node lat="60.215183332385195" lon="11.29560832980466" id="-13425">
		<tag k="name" v="Svindalsmåsan" />
=======
	<node id="-261056" lat="60.2021166676" lon="11.2403222177">
		<tag k="name" v="Tjernsmyrene" />
>>>>>>> e1d4bc35ff8a6074a6f2e91616a996b547c36f15
		<tag k="natural" v="wetland" />
		<tag k="ssr:stedsnr" v="541764" />
	</node>
<<<<<<< HEAD
	<node lat="60.093766668984905" lon="11.261002783909825" id="-13482">
		<tag k="name" v="Ingjersmyr" />
		<tag k="natural" v="wetland" />
		<tag k="ssr:stedsnr" v="709377" />
	</node>
	<node lat="60.197897093646766" lon="11.20968006486476" id="-13528">
		<tag k="name" v="Hauersetermåsan" />
		<tag k="natural" v="wetland" />
		<tag k="ssr:stedsnr" v="734288" />
	</node>
	<node lat="60.23167777674263" lon="11.112280557003734" id="-13532">
		<tag k="name" v="Storkulpen" />
=======
	<node id="-260662" lat="60.093766669" lon="11.2610027839">
		<tag k="name" v="Ingjersmyr" />
>>>>>>> e1d4bc35ff8a6074a6f2e91616a996b547c36f15
		<tag k="natural" v="wetland" />
		<tag k="ssr:stedsnr" v="907592" />
	</node>
<<<<<<< HEAD
	<node lat="60.080777780097236" lon="11.248999995671426" id="-13540">
		<tag k="name" v="Ingjersmarka" />
		<tag k="place" v="locality" />
		<tag k="ssr:stedsnr" v="908937" />
	</node>
	<node lat="60.14713333184792" lon="11.28203333960407" id="-13546">
		<tag k="name" v="Gudmundsrudteie" />
		<tag k="place" v="locality" />
		<tag k="ssr:stedsnr" v="786905" />
	</node>
	<node lat="60.22905277826999" lon="11.200658335473051" id="-13653">
		<tag k="name" v="Dal skog" />
=======
	<node id="-260884" lat="60.0747222179" lon="11.3033083313">
		<tag k="name" v="Holtmarka" />
		<tag k="place" v="locality" />
		<tag k="ssr:stedsnr" v="59897" />
	</node>
	<node id="-260649" lat="60.2151833324" lon="11.2956083298">
		<tag k="name" v="Svindalsmåsan" />
		<tag k="natural" v="wetland" />
		<tag k="ssr:stedsnr" v="541764" />
	</node>
	<node id="-260900" lat="60.2055111098" lon="11.3074388834">
		<tag k="name" v="Grøndalsmåsan" />
		<tag k="natural" v="wetland" />
		<tag k="ssr:stedsnr" v="66274" />
	</node>
	<node id="-261018" lat="60.1415111134" lon="11.2835000091">
		<tag k="name" v="Sømoen" />
>>>>>>> e1d4bc35ff8a6074a6f2e91616a996b547c36f15
		<tag k="place" v="locality" />
		<tag k="ssr:stedsnr" v="57585" />
	</node>
<<<<<<< HEAD
	<node lat="60.07472221785164" lon="11.303308331333229" id="-13661">
		<tag k="name" v="Holtmarka" />
=======
	<node id="-261140" lat="60.145805559" lon="11.2865361156">
		<tag k="name" v="Vestmoen" />
>>>>>>> e1d4bc35ff8a6074a6f2e91616a996b547c36f15
		<tag k="place" v="locality" />
		<tag k="ssr:stedsnr" v="603932" />
	</node>
<<<<<<< HEAD
	<node lat="60.20551110980307" lon="11.307438883385084" id="-13667">
		<tag k="name" v="Grøndalsmåsan" />
=======
	<node id="-260754" lat="60.2316777767" lon="11.112280557">
		<tag k="name" v="Storkulpen" />
>>>>>>> e1d4bc35ff8a6074a6f2e91616a996b547c36f15
		<tag k="natural" v="wetland" />
		<tag k="ssr:stedsnr" v="66274" />
	</node>
<<<<<<< HEAD
	<node lat="60.15801388836021" lon="11.21949721329912" id="-13682">
		<tag k="name" v="Brennimåsan" />
=======
	<node id="-260495" lat="60.2317833306" lon="11.1157027761">
		<tag k="name" v="Vekatosøkket" />
>>>>>>> e1d4bc35ff8a6074a6f2e91616a996b547c36f15
		<tag k="natural" v="wetland" />
		<tag k="ssr:stedsnr" v="102516" />
	</node>
<<<<<<< HEAD
	<node lat="60.197608335335524" lon="11.126311107464021" id="-13722">
		<tag k="historic" v="shieling" />
		<tag k="name" v="Låkeseter" />
		<tag k="place" v="locality" />
		<tag k="ssr:stedsnr" v="179747" />
	</node>
	<node lat="60.175772222617375" lon="11.163519449551107" id="-13745">
		<tag k="alt_name" v="Hovinmoen grustak" />
		<tag k="landuse" v="quarry" />
		<tag k="name" v="Hovimoen grustak" />
		<tag k="ssr:stedsnr" v="223367" />
	</node>
	<node lat="60.129197221809115" lon="11.189808330316765" id="-13750">
=======
	<node id="-261133" lat="60.1811305541" lon="11.2415611117">
		<tag k="name" v="Havnemyra" />
		<tag k="natural" v="wetland" />
		<tag k="ssr:stedsnr" v="603695" />
	</node>
	<node id="-260619" lat="60.2355472267" lon="11.1179666614">
		<tag k="name" v="Fuglemyra" />
		<tag k="natural" v="wetland" />
		<tag k="ssr:stedsnr" v="482626" />
	</node>
	<node id="-260489" lat="60.1291972218" lon="11.1898083303">
>>>>>>> e1d4bc35ff8a6074a6f2e91616a996b547c36f15
		<tag k="name" v="Rambymarka" />
		<tag k="place" v="locality" />
		<tag k="ssr:stedsnr" v="284655" />
	</node>
<<<<<<< HEAD
	<node lat="60.219022222119385" lon="11.131327777062925" id="-13753">
		<tag k="name" v="Melbymyrene" />
		<tag k="natural" v="wetland" />
		<tag k="ssr:stedsnr" v="300641" />
	</node>
	<node lat="60.14151111339979" lon="11.283500009116432" id="-13788">
		<tag k="name" v="Sømoen" />
=======
	<node id="-260488" lat="60.1649916654" lon="11.1353944379">
		<tag k="name" v="Prestegårdsmoen" />
		<tag k="place" v="locality" />
		<tag k="ssr:stedsnr" v="284502" />
	</node>
	<node id="-260870" lat="60.2290527783" lon="11.2006583355">
		<tag k="name" v="Dal skog" />
>>>>>>> e1d4bc35ff8a6074a6f2e91616a996b547c36f15
		<tag k="place" v="locality" />
		<tag k="ssr:stedsnr" v="361946" />
	</node>
<<<<<<< HEAD
	<node lat="60.103886108114835" lon="11.31275555352815" id="-13808">
		<tag k="name" v="Reierstadmåsan" />
=======
	<node id="-260739" lat="60.2279000006" lon="11.1851055551">
		<tag k="name" v="Delsmyra" />
>>>>>>> e1d4bc35ff8a6074a6f2e91616a996b547c36f15
		<tag k="natural" v="wetland" />
		<tag k="ssr:stedsnr" v="405714" />
	</node>
<<<<<<< HEAD
	<node lat="60.20211666762946" lon="11.240322217664415" id="-13817">
		<tag k="name" v="Tjernsmyrene" />
		<tag k="natural" v="wetland" />
		<tag k="ssr:stedsnr" v="422636" />
	</node>
	<node lat="60.1811305540626" lon="11.241561111655159" id="-13880">
		<tag k="name" v="Havnemyra" />
		<tag k="natural" v="wetland" />
		<tag k="ssr:stedsnr" v="603695" />
	</node>
	<node lat="60.145805558950656" lon="11.28653611555159" id="-13884">
		<tag k="name" v="Vestmoen" />
		<tag k="place" v="locality" />
		<tag k="ssr:stedsnr" v="603932" />
	</node>
	<node lat="60.238705551474254" lon="11.136705555583243" id="-13922">
		<tag k="name" v="Mellomkulpen" />
		<tag k="natural" v="wetland" />
		<tag k="ssr:stedsnr" v="664598" />
	</node>
	<node lat="60.22790000055185" lon="11.185105555100344" id="-13935">
		<tag k="name" v="Delsmyra" />
		<tag k="natural" v="wetland" />
		<tag k="ssr:stedsnr" v="725558" />
	</node>
	<node lat="60.125966663051194" lon="11.19611110661907" id="-13961">
		<tag k="name" v="Jernbanemarka" />
		<tag k="place" v="locality" />
		<tag k="ssr:stedsnr" v="769632" />
	</node>
	<node lat="60.1166944447188" lon="11.161836104942145" id="-14011">
		<tag k="name" v="Haugsmarka" />
		<tag k="place" v="locality" />
		<tag k="ssr:stedsnr" v="951674" />
=======
	<node id="-261035" lat="60.1203527751" lon="11.2229916731">
		<tag k="name" v="Åsmarka" />
		<tag k="place" v="locality" />
		<tag k="ssr:stedsnr" v="369128" />
>>>>>>> e1d4bc35ff8a6074a6f2e91616a996b547c36f15
	</node>
</osm>
