<?xml version="1.0" encoding="UTF-8"?>
<osm generator="osmapis" version="0.6">
	<node id="-249695" lat="60.1447732888" lon="11.175324983">
		<tag k="amenity" v="place_of_worship" />
		<tag k="denomination" v="lutheran" />
		<tag k="name" v="Jessheim kirke" />
		<tag k="religion" v="christian" />
		<tag k="ssr:stedsnr" v="990995" />
	</node>
	<node id="-249694" lat="60.1927401902" lon="11.0965469975">
		<tag k="name" v="Gardermoen stasjon" />
		<tag k="railway" v="station" />
		<tag k="ssr:stedsnr" v="989989" />
		<tag k="train" v="yes" />
	</node>
	<node id="-249693" lat="60.1554140332" lon="11.1815996099">
		<tag k="name" v="Nordby holdeplass" />
		<tag k="railway" v="halt" />
		<tag k="ssr:stedsnr" v="989642" />
		<tag k="train" v="yes" />
	</node>
	<node id="-249692" lat="60.1657304128" lon="11.1642997297">
		<tag k="amenity" v="hospital" />
		<tag k="name" v="LHL-sykehuset Gardermoen" />
		<tag k="ssr:stedsnr" v="986756" />
	</node>
	<node id="-249691" lat="60.2383318811" lon="11.2032616585">
		<tag k="name" v="Sætrefeltet" />
		<tag k="place" v="quarter" />
		<tag k="ssr:stedsnr" v="981970" />
	</node>
	<node id="-249688" lat="60.1939592564" lon="11.2000181257">
		<tag k="name" v="Haugersæteren" />
		<tag k="place" v="locality" />
		<tag k="ssr:stedsnr" v="979786" />
	</node>
	<node id="-249687" lat="60.0624166699" lon="11.1491194359">
		<tag k="name" v="Isingrud" />
		<tag k="place" v="farm" />
		<tag k="ssr:stedsnr" v="969951" />
	</node>
	<node id="-249685" lat="60.0888361141" lon="11.2245361125">
		<tag k="name" v="Søndre Nafstad" />
		<tag k="place" v="farm" />
		<tag k="ssr:stedsnr" v="969899" />
	</node>
	<node id="-249684" lat="60.0879638894" lon="11.1922694522">
		<tag k="name" v="Gladbakk" />
		<tag k="place" v="isolated_dwelling" />
		<tag k="ssr:stedsnr" v="969896" />
	</node>
	<node id="-249683" lat="60.1519638918" lon="11.1554861105">
		<tag k="name" v="Kverndalen" />
		<tag k="place" v="quarter" />
		<tag k="ssr:stedsnr" v="969639" />
	</node>
	<node id="-249682" lat="60.1511500024" lon="11.1342444486">
		<tag k="junction" v="yes" />
		<tag k="name" v="Gravhaugen" />
		<tag k="place" v="locality" />
		<tag k="ssr:stedsnr" v="969638" />
	</node>
	<node id="-249681" lat="60.2432972245" lon="11.1921305489">
		<tag k="amenity" v="nursing_home" />
		<tag k="name" v="Herregårdshuset pleiehjem" />
		<tag k="ssr:stedsnr" v="969292" />
	</node>
	<node id="-249680" lat="60.2484416705" lon="11.1682222164">
		<tag k="name" v="Vestvoll" />
		<tag k="place" v="farm" />
		<tag k="ssr:stedsnr" v="969288" />
	</node>
	<node id="-249679" lat="60.1757666698" lon="11.0773361112">
		<tag k="alt_name" v="Røgler store" />
		<tag k="name" v="Store Røgler" />
		<tag k="place" v="farm" />
		<tag k="ssr:stedsnr" v="969282" />
	</node>
	<node id="-249678" lat="60.1141583296" lon="11.1400027747">
		<tag k="alt_name" v="Ullern vestre;Vestre Ullern" />
		<tag k="name" v="Vestre Ulleren" />
		<tag k="place" v="farm" />
		<tag k="ssr:stedsnr" v="969196" />
	</node>
	<node id="-249677" lat="60.2030083302" lon="11.1289166725">
		<tag k="name" v="Danielseter" />
		<tag k="place" v="locality" />
		<tag k="ssr:stedsnr" v="967680" />
	</node>
	<node id="-249676" lat="60.182030555" lon="11.2663111078">
		<tag k="name" v="Skrythagen" />
		<tag k="place" v="hamlet" />
		<tag k="ssr:stedsnr" v="967667" />
	</node>
	<node id="-249675" lat="60.1900587072" lon="11.2589873789">
		<tag k="amenity" v="school" />
		<tag k="name" v="Nordkisa skole" />
		<tag k="ssr:stedsnr" v="967664" />
	</node>
	<node id="-249674" lat="60.0884250026" lon="11.1472777739">
		<tag k="bridge" v="yes" />
		<tag k="layer" v="1" />
		<tag k="name" v="Hauger" />
		<tag k="ssr:stedsnr" v="956777" />
	</node>
	<node id="-249673" lat="60.173466665" lon="11.1737361071">
		<tag k="fixme" v="consider boundary=protected_area and relevant protect_class if not nature reserve" />
		<tag k="leisure" v="nature_reserve" />
		<tag k="name" v="Svenskestutjern naturreservat" />
		<tag k="old_name" v="Svenskestujern naturreservat" />
		<tag k="ssr:stedsnr" v="951499" />
	</node>
	<node id="-249672" lat="60.167325001" lon="11.1703361166">
		<tag k="name" v="Trøgstadmoen" />
		<tag k="place" v="quarter" />
		<tag k="ssr:stedsnr" v="951486" />
	</node>
	<node id="-249671" lat="60.1673416652" lon="11.2176388883">
		<tag k="fixme" v="consider natural=peak for the most distinct mountains in the district" />
		<tag k="name" v="Holmsfjellet" />
		<tag k="natural" v="hill" />
		<tag k="place" v="locality" />
		<tag k="ssr:stedsnr" v="951330" />
	</node>
	<node id="-249670" lat="60.2181638906" lon="11.1450444517">
		<tag k="name" v="Fløgstad" />
		<tag k="place" v="farm" />
		<tag k="ssr:stedsnr" v="876133" />
	</node>
	<node id="-249669" lat="60.1856944417" lon="11.1959333257">
		<tag k="name" v="Hauerseter" />
		<tag k="place" v="hamlet" />
		<tag k="ssr:stedsnr" v="855235" />
	</node>
	<node id="-249668" lat="60.2238111102" lon="11.2346499972">
		<tag k="fixme" v="multiple name tags, choose one and add the other to alt_name" />
		<tag k="name" v="Enga;Sætre" />
		<tag k="place" v="farm" />
		<tag k="ssr:stedsnr" v="855301" />
	</node>
	<node id="-249667" lat="60.1997166701" lon="11.2903416726">
		<tag k="alt_name" v="Hagen;Hagen søndre" />
		<tag k="name" v="Søhagen" />
		<tag k="place" v="farm" />
		<tag k="ssr:stedsnr" v="855282" />
	</node>
	<node id="-249666" lat="60.1236190111" lon="11.2658276279">
		<tag k="fixme" v="consider place=hamlet" />
		<tag k="name" v="Støvre" />
		<tag k="place" v="farm" />
		<tag k="ssr:stedsnr" v="855146" />
	</node>
	<node id="-249665" lat="60.1415027761" lon="11.1751555498">
		<tag k="name" v="Jessheim" />
		<tag k="place" v="town" />
		<tag k="ssr:stedsnr" v="855131" />
	</node>
	<node id="-249664" lat="60.0873416639" lon="11.2342722157">
		<tag k="name" v="Måstad" />
		<tag k="place" v="farm" />
		<tag k="ssr:stedsnr" v="855093" />
	</node>
	<node id="-249663" lat="60.0858750031" lon="11.2659250061">
		<tag k="name" v="Kauserud" />
		<tag k="place" v="farm" />
		<tag k="ssr:stedsnr" v="855091" />
	</node>
	<node id="-249662" lat="60.0780388886" lon="11.3159972215">
		<tag k="fixme" v="consider natural=peak for the most distinct mountains in the district" />
		<tag k="name" v="Holtfjellet" />
		<tag k="natural" v="hill" />
		<tag k="place" v="locality" />
		<tag k="ssr:stedsnr" v="855036" />
	</node>
	<node id="-249661" lat="60.0617027764" lon="11.2171333287">
		<tag k="alt_name" v="Stokker nedre;Nedre Stokker" />
		<tag k="name" v="Kvernenga" />
		<tag k="place" v="farm" />
		<tag k="ssr:stedsnr" v="855001" />
	</node>
	<node id="-249660" lat="60.0606527817" lon="11.1152999946">
		<tag k="name" v="Snilehaugen" />
		<tag k="natural" v="hill" />
		<tag k="place" v="locality" />
		<tag k="ssr:stedsnr" v="848974" />
	</node>
	<node id="-249659" lat="60.0756861134" lon="11.2756722175">
		<tag k="junction" v="yes" />
		<tag k="name" v="Ormstad" />
		<tag k="place" v="locality" />
		<tag k="ssr:stedsnr" v="848903" />
	</node>
	<node id="-249658" lat="60.1492555591" lon="11.1678833295">
		<tag k="building" v="commercial" />
		<tag k="name" v="Idrettens hus" />
		<tag k="ssr:stedsnr" v="848641" />
	</node>
	<node id="-249657" lat="60.151572219" lon="11.1258222236">
		<tag k="name" v="Sand" />
		<tag k="place" v="farm" />
		<tag k="ssr:stedsnr" v="848618" />
	</node>
	<node id="-249656" lat="60.1451388892" lon="11.2282111171">
		<tag k="name" v="Nygård" />
		<tag k="place" v="farm" />
		<tag k="ssr:stedsnr" v="848598" />
	</node>
	<node id="-249655" lat="60.147030554" lon="11.1234583264">
		<tag k="name" v="Fuglebekken" />
		<tag k="ssr:stedsnr" v="848550" />
		<tag k="waterway" v="stream" />
	</node>
	<node id="-249654" lat="60.1340128277" lon="11.1052873005">
		<tag k="name" v="Åstad" />
		<tag k="place" v="farm" />
		<tag k="ssr:stedsnr" v="848544" />
	</node>
	<node id="-249653" lat="60.1466472225" lon="11.1417361116">
		<tag k="name" v="Haug" />
		<tag k="place" v="farm" />
		<tag k="ssr:stedsnr" v="848534" />
	</node>
	<node id="-249652" lat="60.1324305572" lon="11.2885583279">
		<tag k="alt_name" v="Onsrud østre" />
		<tag k="name" v="Østre Onsrud" />
		<tag k="place" v="farm" />
		<tag k="ssr:stedsnr" v="847943" />
	</node>
	<node id="-249651" lat="60.1600527765" lon="11.0873888927">
		<tag k="alt_name" v="Kjos nordre" />
		<tag k="name" v="Nordre Kjos" />
		<tag k="place" v="farm" />
		<tag k="ssr:stedsnr" v="847907" />
	</node>
	<node id="-249650" lat="60.2096422493" lon="11.2568852513">
		<tag k="alt_name" v="Kopperud søndre" />
		<tag k="name" v="Søndre Kopperud" />
		<tag k="place" v="farm" />
		<tag k="ssr:stedsnr" v="847657" />
	</node>
	<node id="-249649" lat="60.2227583362" lon="11.150763884">
		<tag k="name" v="Søndre Nordmyren" />
		<tag k="place" v="farm" />
		<tag k="ssr:stedsnr" v="847650" />
	</node>
	<node id="-249648" lat="60.199666667" lon="11.307658329">
		<tag k="name" v="Fjellstua" />
		<tag k="place" v="isolated_dwelling" />
		<tag k="ssr:stedsnr" v="847647" />
	</node>
	<node id="-249647" lat="60.1793055523" lon="11.2690472288">
		<tag k="name" v="Skryta" />
		<tag k="place" v="farm" />
		<tag k="ssr:stedsnr" v="846743" />
	</node>
	<node id="-249646" lat="60.1901333293" lon="11.266222214">
		<tag k="amenity" v="community_centre" />
		<tag k="name" v="Nore" />
		<tag k="ssr:stedsnr" v="846715" />
	</node>
	<node id="-249645" lat="60.1807416622" lon="11.2780166667">
		<tag k="name" v="Klarbekken" />
		<tag k="ssr:stedsnr" v="846700" />
		<tag k="waterway" v="stream" />
	</node>
	<node id="-249644" lat="60.2046638902" lon="11.1565805549">
		<tag k="name" v="Bjørtomtbekken" />
		<tag k="ssr:stedsnr" v="846677" />
		<tag k="waterway" v="stream" />
	</node>
	<node id="-249643" lat="60.1095249976" lon="11.1404583373">
		<tag k="name" v="Ukna" />
		<tag k="place" v="farm" />
		<tag k="ssr:stedsnr" v="846344" />
	</node>
	<node id="-249642" lat="60.0987333307" lon="11.1764361035">
		<tag k="alt_name" v="Ramby øvre" />
		<tag k="name" v="Øvre Ramby" />
		<tag k="place" v="farm" />
		<tag k="ssr:stedsnr" v="846329" />
	</node>
	<node id="-249641" lat="60.1492694439" lon="11.148733336">
		<tag k="bridge" v="yes" />
		<tag k="layer" v="1" />
		<tag k="name" v="Kverndalen" />
		<tag k="old_name" v="Kværndalen" />
		<tag k="ssr:stedsnr" v="835777" />
	</node>
	<node id="-249640" lat="60.1288444434" lon="11.2827638968">
		<tag k="bridge" v="yes" />
		<tag k="layer" v="1" />
		<tag k="name" v="Nesten" />
		<tag k="ssr:stedsnr" v="835774" />
	</node>
	<node id="-249639" lat="60.1139194456" lon="11.1391944496">
		<tag k="alt_name" v="Vestre Ulleren;Vestre Ullern" />
		<tag k="name" v="Ullern vestre" />
		<tag k="place" v="farm" />
		<tag k="ssr:stedsnr" v="830664" />
	</node>
	<node id="-249638" lat="60.1556055526" lon="11.1733833394">
		<tag k="amenity" v="nursing_home" />
		<tag k="name" v="Skogtun" />
		<tag k="ssr:stedsnr" v="830452" />
	</node>
	<node id="-249636" lat="60.0912805556" lon="11.2195388946">
		<tag k="alt_name" v="Nafstad søndre" />
		<tag k="name" v="Søndre Nafstad" />
		<tag k="place" v="farm" />
		<tag k="ssr:stedsnr" v="830357" />
	</node>
	<node id="-249634" lat="60.1845111133" lon="11.1640055615">
		<tag k="junction" v="yes" />
		<tag k="name" v="Vilberg" />
		<tag k="place" v="locality" />
		<tag k="ssr:stedsnr" v="830326" />
	</node>
	<node id="-249633" lat="60.2291703157" lon="11.22496317">
		<tag k="fixme" v="consider place=hamlet" />
		<tag k="name" v="Sætre" />
		<tag k="place" v="farm" />
		<tag k="ssr:stedsnr" v="794296" />
	</node>
	<node id="-249632" lat="60.2223777736" lon="11.2505722205">
		<tag k="name" v="Toppenhaug" />
		<tag k="place" v="farm" />
		<tag k="ssr:stedsnr" v="794280" />
	</node>
	<node id="-249631" lat="60.2147277746" lon="11.1616055549">
		<tag k="name" v="Nordheim" />
		<tag k="place" v="farm" />
		<tag k="ssr:stedsnr" v="794269" />
	</node>
	<node id="-249630" lat="60.2037472216" lon="11.1394305558">
		<tag k="alt_name" v="Skråtjern" />
		<tag k="name" v="Skråtjernet" />
		<tag k="natural" v="water" />
		<tag k="ssr:stedsnr" v="794252" />
	</node>
	<node id="-249629" lat="60.196924997" lon="11.1401722217">
		<tag k="alt_name" v="Bakketjern" />
		<tag k="name" v="Bakketjernet" />
		<tag k="natural" v="water" />
		<tag k="ssr:stedsnr" v="794231" />
	</node>
	<node id="-249628" lat="60.1786222226" lon="11.2148999986">
		<tag k="name" v="Korslund" />
		<tag k="place" v="farm" />
		<tag k="ssr:stedsnr" v="794228" />
	</node>
	<node id="-249627" lat="60.1888694444" lon="11.1744277839">
		<tag k="name" v="Helgebostad" />
		<tag k="place" v="isolated_dwelling" />
		<tag k="ssr:stedsnr" v="794215" />
	</node>
	<node id="-249626" lat="60.1652999967" lon="11.1710861195">
		<tag k="name" v="Grønvoll" />
		<tag k="place" v="farm" />
		<tag k="ssr:stedsnr" v="794210" />
	</node>
	<node id="-249625" lat="60.0909111074" lon="11.2248000014">
		<tag k="fixme" v="consider place=hamlet" />
		<tag k="name" v="Nafstad" />
		<tag k="place" v="farm" />
		<tag k="ssr:stedsnr" v="794090" />
	</node>
	<node id="-249624" lat="60.087721509" lon="11.1217980339">
		<tag k="fixme" v="consider place=hamlet" />
		<tag k="name" v="Olstad" />
		<tag k="place" v="farm" />
		<tag k="ssr:stedsnr" v="794073" />
	</node>
	<node id="-249623" lat="60.0643722212" lon="11.1320500082">
		<tag k="name" v="Bakke" />
		<tag k="place" v="farm" />
		<tag k="ssr:stedsnr" v="794003" />
	</node>
	<node id="-249622" lat="60.1399500021" lon="11.303600009">
		<tag k="name" v="Moen" />
		<tag k="place" v="farm" />
		<tag k="ssr:stedsnr" v="794161" />
	</node>
	<node id="-249621" lat="60.1479472222" lon="11.1137722188">
		<tag k="name" v="Gislevoll" />
		<tag k="place" v="farm" />
		<tag k="ssr:stedsnr" v="794153" />
	</node>
	<node id="-249620" lat="60.0680083322" lon="11.2136250035">
		<tag k="alt_name" v="Stokker søndre" />
		<tag k="name" v="Søndre Stokker" />
		<tag k="place" v="farm" />
		<tag k="ssr:stedsnr" v="787948" />
	</node>
	<node id="-249619" lat="60.0690083306" lon="11.114136116">
		<tag k="name" v="Nordre Hilton" />
		<tag k="place" v="farm" />
		<tag k="ssr:stedsnr" v="787947" />
	</node>
	<node id="-249618" lat="60.0731916686" lon="11.1930694427">
		<tag k="name" v="Frognerbråten" />
		<tag k="place" v="farm" />
		<tag k="ssr:stedsnr" v="787916" />
	</node>
	<node id="-249617" lat="60.07627222" lon="11.2765388842">
		<tag k="name" v="Selje" />
		<tag k="place" v="farm" />
		<tag k="ssr:stedsnr" v="787892" />
	</node>
	<node id="-249615" lat="60.1743694444" lon="11.0947722283">
		<tag k="alt_name" v="Brudalen nordre" />
		<tag k="name" v="Nordre Brudalen" />
		<tag k="place" v="farm" />
		<tag k="ssr:stedsnr" v="786921" />
	</node>
	<node id="-249614" lat="60.1488861116" lon="11.2949277866">
		<tag k="name" v="Nordhaugen" />
		<tag k="place" v="farm" />
		<tag k="ssr:stedsnr" v="786909" />
	</node>
	<node id="-249613" lat="60.1471333318" lon="11.2820333396">
		<tag k="name" v="Gudmundsrudteie" />
		<tag k="place" v="locality" />
		<tag k="ssr:stedsnr" v="786905" />
	</node>
	<node id="-249612" lat="60.1586583298" lon="11.0709555492">
		<tag k="name" v="Øvre Hallingstad" />
		<tag k="place" v="farm" />
		<tag k="ssr:stedsnr" v="786902" />
	</node>
	<node id="-249611" lat="60.2378444452" lon="11.1180805527">
		<tag k="name" v="Fugletjernet" />
		<tag k="natural" v="water" />
		<tag k="ssr:stedsnr" v="785611" />
	</node>
	<node id="-249610" lat="60.2213666647" lon="11.1279027854">
		<tag k="name" v="Hveimshøgda" />
		<tag k="natural" v="hill" />
		<tag k="place" v="locality" />
		<tag k="ssr:stedsnr" v="785609" />
	</node>
	<node id="-249609" lat="60.2169027737" lon="11.2519666703">
		<tag k="alt_name" v="Kopperud nordre" />
		<tag k="name" v="Nordre Kopperud" />
		<tag k="place" v="farm" />
		<tag k="ssr:stedsnr" v="785599" />
	</node>
	<node id="-249608" lat="60.2234916648" lon="11.1493111062">
		<tag k="name" v="Nordre Nordmyren" />
		<tag k="place" v="farm" />
		<tag k="ssr:stedsnr" v="785594" />
	</node>
	<node id="-249607" lat="60.0906972223" lon="11.1316472286">
		<tag k="alt_name" v="Holum søndre" />
		<tag k="name" v="Søndre Holum" />
		<tag k="place" v="farm" />
		<tag k="ssr:stedsnr" v="785323" />
	</node>
	<node id="-249606" lat="60.2376222222" lon="11.1765722259">
		<tag k="bridge" v="yes" />
		<tag k="layer" v="1" />
		<tag k="name" v="Baskop" />
		<tag k="ssr:stedsnr" v="774794" />
	</node>
	<node id="-249605" lat="60.1413861111" lon="11.1759194489">
		<tag k="bridge" v="yes" />
		<tag k="layer" v="1" />
		<tag k="name" v="Jessheim" />
		<tag k="ssr:stedsnr" v="774790" />
	</node>
	<node id="-249604" lat="60.0695138872" lon="11.1554388799">
		<tag k="bridge" v="yes" />
		<tag k="layer" v="1" />
		<tag k="name" v="Ile" />
		<tag k="old_name" v="Ihle" />
		<tag k="ssr:stedsnr" v="774786" />
	</node>
	<node id="-249603" lat="60.1158166687" lon="11.1940138853">
		<tag k="name" v="Sydseter" />
		<tag k="place" v="farm" />
		<tag k="ssr:stedsnr" v="769650" />
	</node>
	<node id="-249602" lat="60.1300269172" lon="11.1554550976">
		<tag k="name" v="Nordre Langeland" />
		<tag k="place" v="farm" />
		<tag k="ssr:stedsnr" v="769641" />
	</node>
	<node id="-249601" lat="60.1259666631" lon="11.1961111066">
		<tag k="name" v="Jernbanemarka" />
		<tag k="place" v="locality" />
		<tag k="ssr:stedsnr" v="769632" />
	</node>
	<node id="-249600" lat="60.0923444421" lon="11.2753277756">
		<tag k="alt_name" v="Vettal store" />
		<tag k="name" v="Store Vettal" />
		<tag k="place" v="farm" />
		<tag k="ssr:stedsnr" v="769378" />
	</node>
	<node id="-249599" lat="60.1550694488" lon="11.1759444364">
		<tag k="name" v="Nordbymoen" />
		<tag k="place" v="quarter" />
		<tag k="ssr:stedsnr" v="769485" />
	</node>
	<node id="-249598" lat="60.0944666662" lon="11.2132249913">
		<tag k="alt_name" v="Borgen lille" />
		<tag k="name" v="Lille Borgen" />
		<tag k="place" v="farm" />
		<tag k="ssr:stedsnr" v="769366" />
	</node>
	<node id="-249597" lat="60.0941805576" lon="11.2045361075">
		<tag k="name" v="Borgen" />
		<tag k="place" v="farm" />
		<tag k="ssr:stedsnr" v="769364" />
	</node>
	<node id="-249596" lat="60.093305554" lon="11.1912749926">
		<tag k="name" v="Store Flatby" />
		<tag k="place" v="farm" />
		<tag k="ssr:stedsnr" v="769362" />
	</node>
	<node id="-249595" lat="60.1713472222" lon="11.3080888882">
		<tag k="alt_name" v="Oppistun" />
		<tag k="name" v="Oppistuen" />
		<tag k="place" v="farm" />
		<tag k="ssr:stedsnr" v="769353" />
	</node>
	<node id="-249594" lat="60.1960500023" lon="11.2855916699">
		<tag k="bridge" v="yes" />
		<tag k="layer" v="1" />
		<tag k="name" v="Rømua" />
		<tag k="ssr:stedsnr" v="653780" />
	</node>
	<node id="-249593" lat="60.1610472222" lon="11.1428805605">
		<tag k="bridge" v="yes" />
		<tag k="layer" v="1" />
		<tag k="name" v="Vestmoen" />
		<tag k="ssr:stedsnr" v="653776" />
	</node>
	<node id="-249592" lat="60.1216555586" lon="11.2058138828">
		<tag k="name" v="Flatner" />
		<tag k="place" v="locality" />
		<tag k="ssr:stedsnr" v="648647" />
	</node>
	<node id="-249591" lat="60.0956916655" lon="11.1893111139">
		<tag k="name" v="Store Flatby" />
		<tag k="place" v="farm" />
		<tag k="ssr:stedsnr" v="648383" />
	</node>
	<node id="-249590" lat="60.1709166669" lon="11.2068833373">
		<tag k="name" v="Brauta" />
		<tag k="place" v="farm" />
		<tag k="ssr:stedsnr" v="648352" />
	</node>
	<node id="-249589" lat="60.1546555587" lon="11.2634361149">
		<tag k="alt_name" v="Furuset nedre" />
		<tag k="name" v="Nedre Furuset" />
		<tag k="place" v="farm" />
		<tag k="ssr:stedsnr" v="648348" />
	</node>
	<node id="-249588" lat="60.1552805559" lon="11.1828055576">
		<tag k="amenity" v="nursing_home" />
		<tag k="name" v="Østafor" />
		<tag k="ssr:stedsnr" v="648500" />
	</node>
	<node id="-249587" lat="60.1725083345" lon="11.1708055622">
		<tag k="amenity" v="nursing_home" />
		<tag k="name" v="Jessheim helseheim" />
		<tag k="ssr:stedsnr" v="648485" />
	</node>
	<node id="-249586" lat="60.2260527808" lon="11.2361055494">
		<tag k="name" v="Jelkerud" />
		<tag k="place" v="farm" />
		<tag k="ssr:stedsnr" v="612329" />
	</node>
	<node id="-249585" lat="60.2106173545" lon="11.2573553853">
		<tag k="fixme" v="consider place=hamlet" />
		<tag k="name" v="Kopperud" />
		<tag k="place" v="farm" />
		<tag k="ssr:stedsnr" v="612309" />
	</node>
	<node id="-249584" lat="60.2176500005" lon="11.1881750007">
		<tag k="name" v="Sandtjernet" />
		<tag k="natural" v="water" />
		<tag k="ssr:stedsnr" v="612307" />
	</node>
	<node id="-249583" lat="60.1545527789" lon="11.3143472198">
		<tag k="fixme" v="multiple name tags, choose one and add the other to alt_name" />
		<tag k="name" v="Haugen;Nordmoen" />
		<tag k="place" v="farm" />
		<tag k="ssr:stedsnr" v="612231" />
	</node>
	<node id="-249582" lat="60.1393444453" lon="11.2304138926">
		<tag k="name" v="Åsmoen" />
		<tag k="place" v="farm" />
		<tag k="ssr:stedsnr" v="612205" />
	</node>
	<node id="-249581" lat="60.1412194461" lon="11.1196528109">
		<tag k="fixme" v="consider place=hamlet" />
		<tag k="name" v="Hovin" />
		<tag k="place" v="farm" />
		<tag k="ssr:stedsnr" v="612204" />
	</node>
	<node id="-249580" lat="60.1459944417" lon="11.1172611079">
		<tag k="name" v="Lauten" />
		<tag k="place" v="farm" />
		<tag k="ssr:stedsnr" v="612200" />
	</node>
	<node id="-249579" lat="60.084486112" lon="11.2705805501">
		<tag k="name" v="Hellerud" />
		<tag k="place" v="farm" />
		<tag k="ssr:stedsnr" v="612113" />
	</node>
	<node id="-249578" lat="60.0846527734" lon="11.2595638937">
		<tag k="alt_name" v="Dronsrud" />
		<tag k="name" v="Dromsrud" />
		<tag k="place" v="farm" />
		<tag k="ssr:stedsnr" v="612111" />
	</node>
	<node id="-249577" lat="60.0881305559" lon="11.2049416588">
		<tag k="name" v="Kåstadhagen" />
		<tag k="place" v="farm" />
		<tag k="ssr:stedsnr" v="612097" />
	</node>
	<node id="-249576" lat="60.0861985033" lon="11.1628394422">
		<tag k="name" v="Hauger" />
		<tag k="place" v="hamlet" />
		<tag k="ssr:stedsnr" v="612093" />
	</node>
	<node id="-249575" lat="60.060127778" lon="11.1093722214">
		<tag k="alt_name" v="Brotnov" />
		<tag k="name" v="Brotnu" />
		<tag k="place" v="farm" />
		<tag k="ssr:stedsnr" v="612071" />
	</node>
	<node id="-249574" lat="60.0629944484" lon="11.1698222252">
		<tag k="alt_name" v="Ile, søndre;Ile søndre" />
		<tag k="name" v="Søndre Ile" />
		<tag k="place" v="farm" />
		<tag k="ssr:stedsnr" v="612001" />
	</node>
	<node id="-249573" lat="60.1581166683" lon="11.0718166752">
		<tag k="fixme" v="consider place=hamlet" />
		<tag k="name" v="Hallingstad" />
		<tag k="place" v="farm" />
		<tag k="ssr:stedsnr" v="611730" />
	</node>
	<node id="-249572" lat="60.1794000019" lon="11.305749998">
		<tag k="alt_name" v="Stendalen" />
		<tag k="name" v="Steindalen" />
		<tag k="place" v="farm" />
		<tag k="ssr:stedsnr" v="611247" />
	</node>
	<node id="-249571" lat="60.1730250022" lon="11.3089416651">
		<tag k="name" v="Østmo" />
		<tag k="place" v="farm" />
		<tag k="ssr:stedsnr" v="611246" />
	</node>
	<node id="-249570" lat="60.1857777768" lon="11.2630166656">
		<tag k="name" v="Nordkisa" />
		<tag k="place" v="village" />
		<tag k="ssr:stedsnr" v="611243" />
	</node>
	<node id="-249569" lat="60.1867666702" lon="11.1723861066">
		<tag k="name" v="Li" />
		<tag k="place" v="farm" />
		<tag k="ssr:stedsnr" v="611231" />
	</node>
	<node id="-249568" lat="60.186377782" lon="11.1597805614">
		<tag k="name" v="Vilberg" />
		<tag k="old_name" v="Viberg" />
		<tag k="place" v="farm" />
		<tag k="ssr:stedsnr" v="611230" />
	</node>
	<node id="-249567" lat="60.1261194463" lon="11.1706111094">
		<tag k="fixme" v="consider natural=peak for the most distinct mountains in the district" />
		<tag k="name" v="Presterudtoppen" />
		<tag k="natural" v="hill" />
		<tag k="place" v="locality" />
		<tag k="ssr:stedsnr" v="611137" />
	</node>
	<node id="-249566" lat="60.1291135081" lon="11.2729648253">
		<tag k="fixme" v="consider place=hamlet" />
		<tag k="name" v="Nesten" />
		<tag k="place" v="farm" />
		<tag k="ssr:stedsnr" v="611123" />
	</node>
	<node id="-249565" lat="60.1321083302" lon="11.3152027845">
		<tag k="name" v="Nesgård" />
		<tag k="place" v="farm" />
		<tag k="ssr:stedsnr" v="611121" />
	</node>
	<node id="-249564" lat="60.1339416636" lon="11.2284638854">
		<tag k="name" v="Bjørnseter" />
		<tag k="place" v="isolated_dwelling" />
		<tag k="ssr:stedsnr" v="611116" />
	</node>
	<node id="-249563" lat="60.0755755617" lon="11.1328263793">
		<tag k="name" v="Fredly søndre" />
		<tag k="place" v="quarter" />
		<tag k="ssr:stedsnr" v="604949" />
	</node>
	<node id="-249562" lat="60.0802222188" lon="11.1764027861">
		<tag k="name" v="Hynnebekken" />
		<tag k="ssr:stedsnr" v="604942" />
		<tag k="waterway" v="stream" />
	</node>
	<node id="-249561" lat="60.0883055581" lon="11.1206500016">
		<tag k="alt_name" v="Olstad nedre" />
		<tag k="name" v="Nedre Olstad" />
		<tag k="place" v="farm" />
		<tag k="ssr:stedsnr" v="604939" />
	</node>
	<node id="-249560" lat="60.0872061922" lon="11.161522712">
		<tag k="fixme" v="consider place=hamlet" />
		<tag k="name" v="Nordre Hauger" />
		<tag k="place" v="farm" />
		<tag k="ssr:stedsnr" v="604935" />
	</node>
	<node id="-249559" lat="60.0892666676" lon="11.1763861115">
		<tag k="name" v="Flatbybekken" />
		<tag k="ssr:stedsnr" v="604930" />
		<tag k="waterway" v="stream" />
	</node>
	<node id="-249558" lat="60.0763583343" lon="11.2725916749">
		<tag k="name" v="Ormstad" />
		<tag k="place" v="farm" />
		<tag k="ssr:stedsnr" v="604912" />
	</node>
	<node id="-249557" lat="60.0855250009" lon="11.2681527837">
		<tag k="building" v="industrial" />
		<tag k="name" v="Kauserud mølle" />
		<tag k="ssr:stedsnr" v="604911" />
	</node>
	<node id="-249556" lat="60.1124083375" lon="11.2999472189">
		<tag k="alt_name" v="Reierstad nordre" />
		<tag k="name" v="Nordre Reierstad" />
		<tag k="place" v="farm" />
		<tag k="ssr:stedsnr" v="604544" />
	</node>
	<node id="-249555" lat="60.1475999997" lon="11.1746222202">
		<tag k="amenity" v="school" />
		<tag k="name" v="Jessheim skole" />
		<tag k="ssr:stedsnr" v="604530" />
	</node>
	<node id="-249554" lat="60.1280055573" lon="11.2946083327">
		<tag k="amenity" v="community_centre" />
		<tag k="name" v="Fram forsamlingslokale" />
		<tag k="ssr:stedsnr" v="604575" />
	</node>
	<node id="-249553" lat="60.1172694472" lon="11.2952638975">
		<tag k="alt_name" v="Kverner vestre" />
		<tag k="name" v="Vestre Kverner" />
		<tag k="place" v="farm" />
		<tag k="ssr:stedsnr" v="604570" />
	</node>
	<node id="-249552" lat="60.1297777744" lon="11.2731416668">
		<tag k="name" v="Øvre Nesten" />
		<tag k="place" v="farm" />
		<tag k="ssr:stedsnr" v="604568" />
	</node>
	<node id="-249551" lat="60.2391055535" lon="11.1870805543">
		<tag k="name" v="Smedbråten" />
		<tag k="place" v="farm" />
		<tag k="ssr:stedsnr" v="604274" />
	</node>
	<node id="-249550" lat="60.1480749983" lon="11.26157778">
		<tag k="amenity" v="community_centre" />
		<tag k="name" v="Folkvang" />
		<tag k="ssr:stedsnr" v="603940" />
	</node>
	<node id="-249549" lat="60.145805559" lon="11.2865361156">
		<tag k="name" v="Vestmoen" />
		<tag k="place" v="locality" />
		<tag k="ssr:stedsnr" v="603932" />
	</node>
	<node id="-249547" lat="60.1723916675" lon="11.0778055638">
		<tag k="alt_name" v="Røgler lille" />
		<tag k="name" v="Lille Røgler" />
		<tag k="place" v="farm" />
		<tag k="ssr:stedsnr" v="603915" />
	</node>
	<node id="-249546" lat="60.1405305518" lon="11.3094388933">
		<tag k="name" v="Sand" />
		<tag k="place" v="farm" />
		<tag k="ssr:stedsnr" v="603891" />
	</node>
	<node id="-249545" lat="60.1962833357" lon="11.1631388919">
		<tag k="alt_name" v="Furulund nordre" />
		<tag k="name" v="Nordre Furulund" />
		<tag k="place" v="farm" />
		<tag k="ssr:stedsnr" v="603713" />
	</node>
	<node id="-249544" lat="60.1966166668" lon="11.1565916628">
		<tag k="name" v="Kringlemyren" />
		<tag k="place" v="farm" />
		<tag k="ssr:stedsnr" v="603712" />
	</node>
	<node id="-249543" lat="60.1935356394" lon="11.2005890512">
		<tag k="fixme" v="consider place=hamlet" />
		<tag k="loc_name" v="Hauersetra" />
		<tag k="name" v="Hauerseteren" />
		<tag k="place" v="farm" />
		<tag k="ssr:stedsnr" v="603704" />
	</node>
	<node id="-249542" lat="60.1811305541" lon="11.2415611117">
		<tag k="name" v="Havnemyra" />
		<tag k="natural" v="wetland" />
		<tag k="ssr:stedsnr" v="603695" />
	</node>
	<node id="-249541" lat="60.1849805527" lon="11.1956166689">
		<tag k="name" v="Hauerseter stasjon" />
		<tag k="railway" v="station" />
		<tag k="ssr:stedsnr" v="603693" />
		<tag k="train" v="yes" />
	</node>
	<node id="-249540" lat="60.1863416627" lon="11.2574111104">
		<tag k="name" v="Østre Støvner" />
		<tag k="place" v="farm" />
		<tag k="ssr:stedsnr" v="603680" />
	</node>
	<node id="-249539" lat="60.0910472183" lon="11.1361472263">
		<tag k="name" v="Olstadløkken" />
		<tag k="place" v="farm" />
		<tag k="ssr:stedsnr" v="602347" />
	</node>
	<node id="-249538" lat="60.1475111125" lon="11.321766674">
		<tag k="alt_name" v="Ellingbekken" />
		<tag k="name" v="Ellingsbekken" />
		<tag k="ssr:stedsnr" v="601474" />
		<tag k="waterway" v="stream" />
	</node>
	<node id="-249537" lat="60.0617166683" lon="11.1515833291">
		<tag k="bridge" v="yes" />
		<tag k="layer" v="1" />
		<tag k="name" v="Isingrud" />
		<tag k="ssr:stedsnr" v="592816" />
	</node>
	<node id="-249536" lat="60.0927972224" lon="11.1823916677">
		<tag k="name" v="Lille Flatby" />
		<tag k="place" v="farm" />
		<tag k="ssr:stedsnr" v="587384" />
	</node>
	<node id="-249535" lat="60.1613555541" lon="11.2984666748">
		<tag k="name" v="Søndre Berg" />
		<tag k="place" v="farm" />
		<tag k="ssr:stedsnr" v="587375" />
	</node>
	<node id="-249534" lat="60.2012499978" lon="11.2207388867">
		<tag k="alt_name" v="Hovinfjellet" />
		<tag k="fixme" v="consider natural=peak for the most distinct mountains in the district" />
		<tag k="name" v="Hovifjellet" />
		<tag k="natural" v="hill" />
		<tag k="old_name" v="Hovindfjeld" />
		<tag k="place" v="locality" />
		<tag k="ssr:stedsnr" v="551284" />
	</node>
	<node id="-249533" lat="60.2050583295" lon="11.1508277742">
		<tag k="name" v="Elstadjordet" />
		<tag k="place" v="farm" />
		<tag k="ssr:stedsnr" v="551280" />
	</node>
	<node id="-249532" lat="60.1903166639" lon="11.2987194415">
		<tag k="name" v="Flaen" />
		<tag k="place" v="farm" />
		<tag k="ssr:stedsnr" v="551271" />
	</node>
	<node id="-249531" lat="60.1907999999" lon="11.2692638812">
		<tag k="alt_name" v="Rotneby" />
		<tag k="name" v="Rotnebu" />
		<tag k="place" v="farm" />
		<tag k="ssr:stedsnr" v="551268" />
	</node>
	<node id="-249530" lat="60.1959387971" lon="11.1660069404">
		<tag k="fixme" v="consider place=hamlet" />
		<tag k="name" v="Furulund" />
		<tag k="place" v="farm" />
		<tag k="ssr:stedsnr" v="551265" />
	</node>
	<node id="-249529" lat="60.1691666709" lon="11.2135249954">
		<tag k="name" v="Fjellberg" />
		<tag k="place" v="farm" />
		<tag k="ssr:stedsnr" v="551216" />
	</node>
	<node id="-249528" lat="60.1705749976" lon="11.1713777809">
		<tag k="name" v="Svenskestutjernet" />
		<tag k="natural" v="water" />
		<tag k="ssr:stedsnr" v="551215" />
	</node>
	<node id="-249527" lat="60.1648666663" lon="11.3095749923">
		<tag k="name" v="Oppigarden" />
		<tag k="place" v="farm" />
		<tag k="ssr:stedsnr" v="551210" />
	</node>
	<node id="-249526" lat="60.1599749961" lon="11.1131527775">
		<tag k="name" v="Brattval" />
		<tag k="place" v="farm" />
		<tag k="ssr:stedsnr" v="551205" />
	</node>
	<node id="-249525" lat="60.1564777812" lon="11.1347166728">
		<tag k="name" v="Grorudholtet" />
		<tag k="place" v="farm" />
		<tag k="ssr:stedsnr" v="551200" />
	</node>
	<node id="-249524" lat="60.1462416678" lon="11.3111027734">
		<tag k="name" v="Holtbråten" />
		<tag k="place" v="farm" />
		<tag k="ssr:stedsnr" v="551185" />
	</node>
	<node id="-249523" lat="60.1516305585" lon="11.1180944497">
		<tag k="name" v="Skinnebøl" />
		<tag k="place" v="farm" />
		<tag k="ssr:stedsnr" v="551180" />
	</node>
	<node id="-249522" lat="60.1491027799" lon="11.102508333">
		<tag k="fixme" v="consider place=hamlet" />
		<tag k="name" v="Låke" />
		<tag k="place" v="farm" />
		<tag k="ssr:stedsnr" v="551179" />
	</node>
	<node id="-249521" lat="60.1241499997" lon="11.3068833396">
		<tag k="name" v="Dalstua" />
		<tag k="place" v="isolated_dwelling" />
		<tag k="ssr:stedsnr" v="551162" />
	</node>
	<node id="-249520" lat="60.1317518003" lon="11.1037067908">
		<tag k="fixme" v="consider place=hamlet" />
		<tag k="name" v="Sundby" />
		<tag k="place" v="farm" />
		<tag k="ssr:stedsnr" v="551150" />
	</node>
	<node id="-249519" lat="60.1342904784" lon="11.1063182526">
		<tag k="fixme" v="consider place=hamlet" />
		<tag k="name" v="Åstad" />
		<tag k="place" v="farm" />
		<tag k="ssr:stedsnr" v="551148" />
	</node>
	<node id="-249518" lat="60.1058444469" lon="11.2016083252">
		<tag k="name" v="Uranienborg" />
		<tag k="place" v="farm" />
		<tag k="ssr:stedsnr" v="551133" />
	</node>
	<node id="-249517" lat="60.11708889" lon="11.3300583274">
		<tag k="fixme" v="consider natural=peak for the most distinct mountains in the district" />
		<tag k="name" v="Bøleråsen" />
		<tag k="natural" v="hill" />
		<tag k="place" v="locality" />
		<tag k="ssr:stedsnr" v="551111" />
	</node>
	<node id="-249516" lat="60.1210930498" lon="11.100001035">
		<tag k="fixme" v="consider place=hamlet" />
		<tag k="name" v="Taugland" />
		<tag k="place" v="farm" />
		<tag k="ssr:stedsnr" v="551105" />
	</node>
	<node id="-249515" lat="60.0985972215" lon="11.2586333325">
		<tag k="alt_name" v="Sletner" />
		<tag k="name" v="Slettner" />
		<tag k="place" v="farm" />
		<tag k="ssr:stedsnr" v="551077" />
	</node>
	<node id="-249514" lat="60.0643472226" lon="11.1230277771">
		<tag k="alt_name" v="Gamle Klufta" />
		<tag k="name" v="Gamlekløfta" />
		<tag k="place" v="quarter" />
		<tag k="ssr:stedsnr" v="551056" />
	</node>
	<node id="-249513" lat="60.0641555551" lon="11.1477888971">
		<tag k="fixme" v="consider place=hamlet" />
		<tag k="name" v="Isingrud" />
		<tag k="place" v="farm" />
		<tag k="ssr:stedsnr" v="551004" />
	</node>
	<node id="-249512" lat="60.1949047441" lon="11.06123326">
		<tag k="alt_name" v="Garder, østre;Garder østre" />
		<tag k="name" v="Østre Garder" />
		<tag k="place" v="farm" />
		<tag k="ssr:stedsnr" v="551759" />
	</node>
	<node id="-249511" lat="60.138238893" lon="11.2207027736">
		<tag k="name" v="Holmsrøa" />
		<tag k="place" v="quarter" />
		<tag k="ssr:stedsnr" v="544626" />
	</node>
	<node id="-249510" lat="60.1365138884" lon="11.2352638929">
		<tag k="name" v="Meiserudbekken" />
		<tag k="ssr:stedsnr" v="544624" />
		<tag k="waterway" v="stream" />
	</node>
	<node id="-249509" lat="60.1347472228" lon="11.2201250067">
		<tag k="name" v="Pinnebekken" />
		<tag k="ssr:stedsnr" v="544621" />
		<tag k="waterway" v="stream" />
	</node>
	<node id="-249508" lat="60.1426527739" lon="11.2179222149">
		<tag k="name" v="Holm" />
		<tag k="place" v="farm" />
		<tag k="ssr:stedsnr" v="544611" />
	</node>
	<node id="-249507" lat="60.1525083317" lon="11.1224416744">
		<tag k="amenity" v="community_centre" />
		<tag k="name" v="Solvang" />
		<tag k="ssr:stedsnr" v="544599" />
	</node>
	<node id="-249506" lat="60.1409666661" lon="11.2101888891">
		<tag k="junction" v="yes" />
		<tag k="name" v="Gystad" />
		<tag k="place" v="locality" />
		<tag k="ssr:stedsnr" v="544588" />
	</node>
	<node id="-249505" lat="60.0712000032" lon="11.1347555526">
		<tag k="amenity" v="school" />
		<tag k="name" v="Kløfta gamle skole" />
		<tag k="ssr:stedsnr" v="544963" />
	</node>
	<node id="-249504" lat="60.077591664" lon="11.1137055497">
		<tag k="name" v="Bekkevoll" />
		<tag k="place" v="isolated_dwelling" />
		<tag k="ssr:stedsnr" v="544960" />
	</node>
	<node id="-249503" lat="60.2273777737" lon="11.2619500067">
		<tag k="name" v="Finnhølet" />
		<tag k="place" v="farm" />
		<tag k="ssr:stedsnr" v="544271" />
	</node>
	<node id="-249502" lat="60.1759277783" lon="11.0916777697">
		<tag k="name" v="Lundby" />
		<tag k="place" v="farm" />
		<tag k="ssr:stedsnr" v="543894" />
	</node>
	<node id="-249501" lat="60.1490861147" lon="11.2848527746">
		<tag k="name" v="Gudmundsrud" />
		<tag k="place" v="farm" />
		<tag k="ssr:stedsnr" v="543870" />
	</node>
	<node id="-249500" lat="60.1584583365" lon="11.0716833351">
		<tag k="name" v="Nedre Hallingstad" />
		<tag k="place" v="farm" />
		<tag k="ssr:stedsnr" v="543866" />
	</node>
	<node id="-249499" lat="60.1860527746" lon="11.2727388875">
		<tag k="name" v="Nedre Jaren" />
		<tag k="place" v="farm" />
		<tag k="ssr:stedsnr" v="543701" />
	</node>
	<node id="-249498" lat="60.1994666693" lon="11.1314277867">
		<tag k="name" v="Låkesetertjern" />
		<tag k="natural" v="water" />
		<tag k="ssr:stedsnr" v="543688" />
	</node>
	<node id="-249497" lat="60.1868166644" lon="11.1850166597">
		<tag k="bridge" v="yes" />
		<tag k="layer" v="1" />
		<tag k="name" v="Li" />
		<tag k="ssr:stedsnr" v="531783" />
	</node>
	<node id="-249496" lat="60.1250555511" lon="11.0971972303">
		<tag k="name" v="Øvre Kolby" />
		<tag k="place" v="farm" />
		<tag k="ssr:stedsnr" v="527661" />
	</node>
	<node id="-249495" lat="60.1152888921" lon="11.1423611177">
		<tag k="name" v="Haugsdyet" />
		<tag k="place" v="locality" />
		<tag k="ssr:stedsnr" v="527651" />
	</node>
	<node id="-249494" lat="60.130991663" lon="11.1034833279">
		<tag k="name" v="Nedre Sundby" />
		<tag k="place" v="farm" />
		<tag k="ssr:stedsnr" v="527647" />
	</node>
	<node id="-249493" lat="60.1720111154" lon="11.2133555495">
		<tag k="name" v="Sletten" />
		<tag k="place" v="farm" />
		<tag k="ssr:stedsnr" v="527325" />
	</node>
	<node id="-249492" lat="60.1558055574" lon="11.2613166741">
		<tag k="alt_name" v="Furuset øvre" />
		<tag k="name" v="Øvre Furuset" />
		<tag k="place" v="farm" />
		<tag k="ssr:stedsnr" v="527318" />
	</node>
	<node id="-249491" lat="60.1712361105" lon="11.2640166646">
		<tag k="name" v="Svarverud" />
		<tag k="place" v="farm" />
		<tag k="ssr:stedsnr" v="527316" />
	</node>
	<node id="-249490" lat="60.113704485" lon="11.1391148146">
		<tag k="alt_name" v="Ullern vestre;Vestre Ullern" />
		<tag k="fixme" v="consider place=hamlet" />
		<tag k="name" v="Vestre Ulleren" />
		<tag k="place" v="farm" />
		<tag k="ssr:stedsnr" v="527077" />
	</node>
	<node id="-249489" lat="60.0951694487" lon="11.1872083274">
		<tag k="name" v="Lille Flatby" />
		<tag k="place" v="farm" />
		<tag k="ssr:stedsnr" v="526347" />
	</node>
	<node id="-249488" lat="60.1219138855" lon="11.2475944482">
		<tag k="fixme" v="consider place=hamlet" />
		<tag k="name" v="Vogstad" />
		<tag k="place" v="farm" />
		<tag k="ssr:stedsnr" v="526119" />
	</node>
	<node id="-249487" lat="60.1485555515" lon="11.1346722213">
		<tag k="alt_name" v="Ljøgodt" />
		<tag k="fixme" v="consider place=hamlet" />
		<tag k="name" v="Ljøgot" />
		<tag k="place" v="farm" />
		<tag k="ssr:stedsnr" v="431973" />
	</node>
	<node id="-249486" lat="60.2309249984" lon="11.1218916667">
		<tag k="alt_name" v="Aurtjernet" />
		<tag k="name" v="Aurtjern" />
		<tag k="natural" v="water" />
		<tag k="ssr:stedsnr" v="430322" />
	</node>
	<node id="-249485" lat="60.2237722243" lon="11.1495055506">
		<tag k="fixme" v="consider place=hamlet" />
		<tag k="name" v="Nordmyra" />
		<tag k="place" v="farm" />
		<tag k="ssr:stedsnr" v="430302" />
	</node>
	<node id="-249484" lat="60.2245277767" lon="11.1650888972">
		<tag k="name" v="Møllerstad" />
		<tag k="place" v="farm" />
		<tag k="ssr:stedsnr" v="430301" />
	</node>
	<node id="-249483" lat="60.1941638851" lon="11.0431194386">
		<tag k="name" v="Sogna" />
		<tag k="ssr:stedsnr" v="430743" />
		<tag k="waterway" v="river" />
	</node>
	<node id="-249482" lat="60.1736861156" lon="11.1690972206">
		<tag k="name" v="Smedstua" />
		<tag k="place" v="farm" />
		<tag k="ssr:stedsnr" v="430195" />
	</node>
	<node id="-249481" lat="60.1683888893" lon="11.2629555523">
		<tag k="alt_name" v="Sanderud" />
		<tag k="name" v="Sannerud" />
		<tag k="place" v="farm" />
		<tag k="ssr:stedsnr" v="430191" />
	</node>
	<node id="-249480" lat="60.1508499978" lon="11.1775750045">
		<tag k="name" v="Nordby" />
		<tag k="place" v="quarter" />
		<tag k="ssr:stedsnr" v="430159" />
	</node>
	<node id="-249479" lat="60.0855777812" lon="11.1348583251">
		<tag k="alt_name" v="Åreppen" />
		<tag k="amenity" v="school" />
		<tag k="name" v="Åreppen skole" />
		<tag k="ssr:stedsnr" v="430080" />
	</node>
	<node id="-249478" lat="60.077280552" lon="11.1101083335">
		<tag k="name" v="Nordli" />
		<tag k="place" v="farm" />
		<tag k="ssr:stedsnr" v="423967" />
	</node>
	<node id="-249477" lat="60.0739777742" lon="11.1413166612">
		<tag k="name" v="Ullersmo" />
		<tag k="place" v="farm" />
		<tag k="ssr:stedsnr" v="423962" />
	</node>
	<node id="-249476" lat="60.0884111081" lon="11.1236055546">
		<tag k="alt_name" v="Olstad nedre" />
		<tag k="name" v="Nedre Olstad" />
		<tag k="place" v="farm" />
		<tag k="ssr:stedsnr" v="423945" />
	</node>
	<node id="-249475" lat="60.0854010595" lon="11.1618723974">
		<tag k="fixme" v="consider place=hamlet" />
		<tag k="name" v="Søndre Hauger" />
		<tag k="place" v="farm" />
		<tag k="ssr:stedsnr" v="423939" />
	</node>
	<node id="-249474" lat="60.0868089315" lon="11.1547221433">
		<tag k="name" v="Haugerhaugen" />
		<tag k="place" v="farm" />
		<tag k="ssr:stedsnr" v="423938" />
	</node>
	<node id="-249473" lat="60.0693388859" lon="11.1821722259">
		<tag k="alt_name" v="Romsås nordre" />
		<tag k="name" v="Nordre Romsås" />
		<tag k="place" v="farm" />
		<tag k="ssr:stedsnr" v="423935" />
	</node>
	<node id="-249472" lat="60.1513805569" lon="11.093991663">
		<tag k="name" v="Vestre Kjos" />
		<tag k="place" v="farm" />
		<tag k="ssr:stedsnr" v="423574" />
	</node>
	<node id="-249471" lat="60.1406916655" lon="11.1181500053">
		<tag k="name" v="Nedre Hovin" />
		<tag k="place" v="farm" />
		<tag k="ssr:stedsnr" v="423572" />
	</node>
	<node id="-249470" lat="60.1404916643" lon="11.1694333269">
		<tag k="name" v="Gartnerløkka" />
		<tag k="place" v="locality" />
		<tag k="ssr:stedsnr" v="423558" />
	</node>
	<node id="-249469" lat="60.1483597118" lon="11.138336974">
		<tag k="fixme" v="consider boundary=protected_area and relevant protect_class if not nature reserve" />
		<tag k="leisure" v="nature_reserve" />
		<tag k="name" v="Ljøgodttjern naturreservat" />
		<tag k="ssr:stedsnr" v="423664" />
	</node>
	<node id="-249468" lat="60.143627774" lon="11.224091661">
		<tag k="alt_name" v="Holm søndre" />
		<tag k="name" v="Søndre Holm" />
		<tag k="place" v="farm" />
		<tag k="ssr:stedsnr" v="423656" />
	</node>
	<node id="-249467" lat="60.1534333322" lon="11.2619472204">
		<tag k="alt_name" v="Furuset nedre" />
		<tag k="name" v="Nedre Furuset" />
		<tag k="place" v="farm" />
		<tag k="ssr:stedsnr" v="422901" />
	</node>
	<node id="-249466" lat="60.157719443" lon="11.0918194432">
		<tag k="alt_name" v="Kjos lille" />
		<tag k="name" v="Lille Kjos" />
		<tag k="place" v="farm" />
		<tag k="ssr:stedsnr" v="422895" />
	</node>
	<node id="-249465" lat="60.2021166676" lon="11.2403222177">
		<tag k="name" v="Tjernsmyrene" />
		<tag k="natural" v="wetland" />
		<tag k="ssr:stedsnr" v="422636" />
	</node>
	<node id="-249464" lat="60.1993472196" lon="11.3053999972">
		<tag k="name" v="Fjellstad" />
		<tag k="place" v="isolated_dwelling" />
		<tag k="ssr:stedsnr" v="422631" />
	</node>
	<node id="-249463" lat="60.2381583357" lon="11.1703444426">
		<tag k="alt_name" v="Risebru vestre" />
		<tag k="name" v="Vestre Risebru" />
		<tag k="place" v="farm" />
		<tag k="ssr:stedsnr" v="422626" />
	</node>
	<node id="-249462" lat="60.2252472268" lon="11.2375666601">
		<tag k="alt_name" v="Søndre Hjelkerud" />
		<tag k="name" v="Søndre Jelkerud" />
		<tag k="place" v="farm" />
		<tag k="ssr:stedsnr" v="422617" />
	</node>
	<node id="-249461" lat="60.1414250024" lon="11.1543388812">
		<tag k="bridge" v="yes" />
		<tag k="layer" v="1" />
		<tag k="name" v="Døli" />
		<tag k="ssr:stedsnr" v="410768" />
	</node>
	<node id="-249460" lat="60.1881972207" lon="11.1939361069">
		<tag k="bridge" v="yes" />
		<tag k="layer" v="1" />
		<tag k="name" v="Hauerseter" />
		<tag k="ssr:stedsnr" v="410762" />
	</node>
	<node id="-249459" lat="60.2304499997" lon="11.173180552">
		<tag k="bridge" v="yes" />
		<tag k="layer" v="1" />
		<tag k="name" v="Mogreina" />
		<tag k="ssr:stedsnr" v="410761" />
	</node>
	<node id="-249458" lat="60.1327111075" lon="11.0822194391">
		<tag k="name" v="Mølledalen" />
		<tag k="place" v="isolated_dwelling" />
		<tag k="ssr:stedsnr" v="405680" />
	</node>
	<node id="-249457" lat="60.0902333348" lon="11.2555083373">
		<tag k="name" v="Bjørklund" />
		<tag k="place" v="farm" />
		<tag k="ssr:stedsnr" v="405389" />
	</node>
	<node id="-249456" lat="60.161569442" lon="11.2709416623">
		<tag k="alt_name" v="Stokstad nedre" />
		<tag k="name" v="Nedre Stokstad" />
		<tag k="place" v="farm" />
		<tag k="ssr:stedsnr" v="405334" />
	</node>
	<node id="-249455" lat="60.1642916636" lon="11.2687666724">
		<tag k="alt_name" v="Stokstad øvre" />
		<tag k="name" v="Øvre Stokstad" />
		<tag k="place" v="farm" />
		<tag k="ssr:stedsnr" v="405332" />
	</node>
	<node id="-249454" lat="60.17713611" lon="11.0760138955">
		<tag k="name" v="Store Røgler" />
		<tag k="old_name" v="Øvre Røgler;Røgler, øvre" />
		<tag k="place" v="farm" />
		<tag k="ssr:stedsnr" v="369674" />
	</node>
	<node id="-249453" lat="60.2149333314" lon="11.2809861063">
		<tag k="alt_name" v="Rømådalen" />
		<tag k="name" v="Rømudalen" />
		<tag k="natural" v="valley" />
		<tag k="place" v="locality" />
		<tag k="ssr:stedsnr" v="369289" />
	</node>
	<node id="-249452" lat="60.2224861081" lon="11.1638694415">
		<tag k="name" v="Elstadmoen" />
		<tag k="place" v="farm" />
		<tag k="ssr:stedsnr" v="369285" />
	</node>
	<node id="-249451" lat="60.2167333338" lon="11.2522027781">
		<tag k="fixme" v="consider place=hamlet" />
		<tag k="name" v="Kopperud" />
		<tag k="place" v="farm" />
		<tag k="ssr:stedsnr" v="369277" />
	</node>
	<node id="-249450" lat="60.2106694472" lon="11.1642638977">
		<tag k="name" v="Grinda" />
		<tag k="place" v="farm" />
		<tag k="ssr:stedsnr" v="369272" />
	</node>
	<node id="-249449" lat="60.2122083358" lon="11.1368555542">
		<tag k="name" v="Transjøen" />
		<tag k="natural" v="water" />
		<tag k="ssr:stedsnr" v="369267" />
		<tag k="water" v="lake" />
	</node>
	<node id="-249448" lat="60.2067388844" lon="11.2654527825">
		<tag k="fixme" v="consider natural=peak for the most distinct mountains in the district" />
		<tag k="name" v="Kopperudåsen" />
		<tag k="natural" v="hill" />
		<tag k="place" v="locality" />
		<tag k="ssr:stedsnr" v="369257" />
	</node>
	<node id="-249447" lat="60.1749749969" lon="11.1748583315">
		<tag k="alt_name" v="Bonntjern" />
		<tag k="name" v="Bonntjernet" />
		<tag k="natural" v="water" />
		<tag k="ssr:stedsnr" v="369230" />
	</node>
	<node id="-249446" lat="60.1870722198" lon="11.2979361045">
		<tag k="name" v="Botolvshaugen" />
		<tag k="place" v="farm" />
		<tag k="ssr:stedsnr" v="369213" />
	</node>
	<node id="-249445" lat="60.1566250043" lon="11.2139416689">
		<tag k="name" v="Holmsmarka" />
		<tag k="place" v="farm" />
		<tag k="ssr:stedsnr" v="369205" />
	</node>
	<node id="-249444" lat="60.1203527751" lon="11.2229916731">
		<tag k="name" v="Åsmarka" />
		<tag k="place" v="locality" />
		<tag k="ssr:stedsnr" v="369128" />
	</node>
	<node id="-249443" lat="60.1033779524" lon="11.1503847807">
		<tag k="fixme" v="consider place=hamlet" />
		<tag k="name" v="Stanger" />
		<tag k="place" v="farm" />
		<tag k="ssr:stedsnr" v="369107" />
	</node>
	<node id="-249442" lat="60.1174005196" lon="11.2380131422">
		<tag k="fixme" v="consider place=hamlet" />
		<tag k="name" v="Ås" />
		<tag k="place" v="farm" />
		<tag k="ssr:stedsnr" v="369103" />
	</node>
	<node id="-249441" lat="60.1149861135" lon="11.307325002">
		<tag k="name" v="Rolstad" />
		<tag k="old_name" v="Rolvstad" />
		<tag k="place" v="hamlet" />
		<tag k="ssr:stedsnr" v="369090" />
	</node>
	<node id="-249440" lat="60.087355556" lon="11.2410833365">
		<tag k="alt_name" v="Ingjer" />
		<tag k="name" v="Inngjerd" />
		<tag k="place" v="farm" />
		<tag k="ssr:stedsnr" v="369083" />
	</node>
	<node id="-249439" lat="60.0980104758" lon="11.1887027559">
		<tag k="fixme" v="consider place=hamlet" />
		<tag k="name" v="Flatby" />
		<tag k="place" v="farm" />
		<tag k="ssr:stedsnr" v="369050" />
	</node>
	<node id="-249438" lat="60.093944442" lon="11.2129194496">
		<tag k="alt_name" v="Børgen" />
		<tag k="name" v="Borgen" />
		<tag k="place" v="hamlet" />
		<tag k="ssr:stedsnr" v="369047" />
	</node>
	<node id="-249437" lat="60.1004444467" lon="11.236905555">
		<tag k="fixme" v="consider place=hamlet" />
		<tag k="name" v="Lund" />
		<tag k="place" v="farm" />
		<tag k="ssr:stedsnr" v="369044" />
	</node>
	<node id="-249436" lat="60.0790416657" lon="11.1687527716">
		<tag k="alt_name" v="Hillern" />
		<tag k="name" v="Hilleren" />
		<tag k="place" v="farm" />
		<tag k="ssr:stedsnr" v="369018" />
	</node>
	<node id="-249435" lat="60.0810748345" lon="11.179754483">
		<tag k="fixme" v="consider place=hamlet" />
		<tag k="name" v="Lauten" />
		<tag k="place" v="farm" />
		<tag k="ssr:stedsnr" v="369017" />
	</node>
	<node id="-249433" lat="60.0885805598" lon="11.1325361123">
		<tag k="name" v="Olstad" />
		<tag k="place" v="farm" />
		<tag k="ssr:stedsnr" v="362922" />
	</node>
	<node id="-249432" lat="60.088986111" lon="11.2632999968">
		<tag k="junction" v="yes" />
		<tag k="name" v="Kauserud" />
		<tag k="place" v="locality" />
		<tag k="ssr:stedsnr" v="362902" />
	</node>
	<node id="-249431" lat="60.0869333306" lon="11.2499416576">
		<tag k="name" v="Ingjerhaugen" />
		<tag k="place" v="farm" />
		<tag k="ssr:stedsnr" v="362900" />
	</node>
	<node id="-249430" lat="60.1333638871" lon="11.1460944509">
		<tag k="name" v="Døli" />
		<tag k="place" v="farm" />
		<tag k="ssr:stedsnr" v="362547" />
	</node>
	<node id="-249429" lat="60.1487111096" lon="11.1019111169">
		<tag k="name" v="Låke" />
		<tag k="place" v="farm" />
		<tag k="ssr:stedsnr" v="362536" />
	</node>
	<node id="-249428" lat="60.1476583368" lon="11.2225277772">
		<tag k="alt_name" v="Holm nordre" />
		<tag k="name" v="Nordre Holm" />
		<tag k="place" v="farm" />
		<tag k="ssr:stedsnr" v="362592" />
	</node>
	<node id="-249427" lat="60.1415111134" lon="11.2835000091">
		<tag k="name" v="Sømoen" />
		<tag k="place" v="locality" />
		<tag k="ssr:stedsnr" v="361946" />
	</node>
	<node id="-249426" lat="60.2075750041" lon="11.139263896">
		<tag k="name" v="Lilleng" />
		<tag k="place" v="farm" />
		<tag k="ssr:stedsnr" v="360675" />
	</node>
	<node id="-249425" lat="60.2042472182" lon="11.1462666687">
		<tag k="name" v="Kattjern" />
		<tag k="natural" v="water" />
		<tag k="ssr:stedsnr" v="360670" />
	</node>
	<node id="-249423" lat="60.1641250045" lon="11.1718138835">
		<tag k="bridge" v="yes" />
		<tag k="layer" v="1" />
		<tag k="name" v="Grønvold" />
		<tag k="ssr:stedsnr" v="349800" />
	</node>
	<node id="-249422" lat="60.0799277768" lon="11.1490611099">
		<tag k="bridge" v="yes" />
		<tag k="layer" v="1" />
		<tag k="name" v="Skibakk I" />
		<tag k="ssr:stedsnr" v="349788" />
	</node>
	<node id="-249421" lat="60.1650027738" lon="11.1571361145">
		<tag k="bridge" v="yes" />
		<tag k="layer" v="1" />
		<tag k="name" v="Valhall undergang" />
		<tag k="ssr:stedsnr" v="349780" />
	</node>
	<node id="-249419" lat="60.1175555516" lon="11.2006444375">
		<tag k="name" v="Rambydalen" />
		<tag k="natural" v="valley" />
		<tag k="place" v="locality" />
		<tag k="ssr:stedsnr" v="344650" />
	</node>
	<node id="-249418" lat="60.0914750032" lon="11.247483331">
		<tag k="name" v="Strandenga" />
		<tag k="place" v="farm" />
		<tag k="ssr:stedsnr" v="344396" />
	</node>
	<node id="-249416" lat="60.228055558" lon="11.1531861141">
		<tag k="name" v="Sørli" />
		<tag k="place" v="farm" />
		<tag k="ssr:stedsnr" v="309370" />
	</node>
	<node id="-249415" lat="60.2378888921" lon="11.1725833291">
		<tag k="name" v="Risebru" />
		<tag k="place" v="farm" />
		<tag k="ssr:stedsnr" v="309365" />
	</node>
	<node id="-249414" lat="60.1931249991" lon="11.2377083343">
		<tag k="name" v="Kurverud" />
		<tag k="place" v="farm" />
		<tag k="ssr:stedsnr" v="309292" />
	</node>
	<node id="-249413" lat="60.1597250043" lon="11.1690555591">
		<tag k="amenity" v="university" />
		<tag k="name" v="Romerike folkehøgskole" />
		<tag k="ssr:stedsnr" v="309252" />
	</node>
	<node id="-249412" lat="60.1552758493" lon="11.2636879862">
		<tag k="fixme" v="consider place=hamlet" />
		<tag k="name" v="Furuset" />
		<tag k="place" v="farm" />
		<tag k="ssr:stedsnr" v="309248" />
	</node>
	<node id="-249411" lat="60.1587305576" lon="11.1334166583">
		<tag k="name" v="Jørnstua" />
		<tag k="place" v="farm" />
		<tag k="ssr:stedsnr" v="309211" />
	</node>
	<node id="-249410" lat="60.1442583305" lon="11.1555583399">
		<tag k="amenity" v="nursing_home" />
		<tag k="name" v="Gjestad" />
		<tag k="ssr:stedsnr" v="309210" />
	</node>
	<node id="-249409" lat="60.1506527784" lon="11.2270138832">
		<tag k="name" v="Habbarstadmoen" />
		<tag k="place" v="farm" />
		<tag k="ssr:stedsnr" v="309200" />
	</node>
	<node id="-249408" lat="60.1129166636" lon="11.2852444382">
		<tag k="name" v="Langbakk" />
		<tag k="place" v="farm" />
		<tag k="ssr:stedsnr" v="309108" />
	</node>
	<node id="-249407" lat="60.1888277796" lon="11.0594916758">
		<tag k="alt_name" v="Sundby, øvre" />
		<tag k="name" v="Øvre Sundby" />
		<tag k="old_name" v="Sundby, søndre" />
		<tag k="place" v="farm" />
		<tag k="ssr:stedsnr" v="308753" />
	</node>
	<node id="-249406" lat="60.2454138933" lon="11.1644444447">
		<tag k="name" v="Sesvoll" />
		<tag k="place" v="farm" />
		<tag k="ssr:stedsnr" v="308306" />
	</node>
	<node id="-249405" lat="60.2385027756" lon="11.1814000005">
		<tag k="name" v="Baskopp" />
		<tag k="place" v="farm" />
		<tag k="ssr:stedsnr" v="308303" />
	</node>
	<node id="-249404" lat="60.123722221" lon="11.1628388877">
		<tag k="name" v="Presterud" />
		<tag k="place" v="locality" />
		<tag k="ssr:stedsnr" v="308122" />
	</node>
	<node id="-249403" lat="60.1217305539" lon="11.2546222268">
		<tag k="name" v="Skedsmo" />
		<tag k="place" v="farm" />
		<tag k="ssr:stedsnr" v="308119" />
	</node>
	<node id="-249402" lat="60.0980388869" lon="11.2641861197">
		<tag k="name" v="Elvhaug" />
		<tag k="place" v="farm" />
		<tag k="ssr:stedsnr" v="308066" />
	</node>
	<node id="-249401" lat="60.0795111138" lon="11.1492749972">
		<tag k="name" v="Skibak" />
		<tag k="place" v="farm" />
		<tag k="ssr:stedsnr" v="308032" />
	</node>
	<node id="-249400" lat="60.0883250022" lon="11.2892055481">
		<tag k="alt_name" v="Vettal lille" />
		<tag k="name" v="Lille Vettal" />
		<tag k="place" v="farm" />
		<tag k="ssr:stedsnr" v="302890" />
	</node>
	<node id="-249399" lat="60.0830694485" lon="11.2218277813">
		<tag k="name" v="Vestre Sørby" />
		<tag k="place" v="farm" />
		<tag k="ssr:stedsnr" v="301932" />
	</node>
	<node id="-249398" lat="60.0868222241" lon="11.1960611079">
		<tag k="name" v="Frydenlund" />
		<tag k="place" v="farm" />
		<tag k="ssr:stedsnr" v="301929" />
	</node>
	<node id="-249397" lat="60.0851666645" lon="11.1945833401">
		<tag k="name" v="Kykvin" />
		<tag k="place" v="farm" />
		<tag k="ssr:stedsnr" v="301928" />
	</node>
	<node id="-249396" lat="60.133724999" lon="11.124094437">
		<tag k="name" v="Bjørke" />
		<tag k="place" v="farm" />
		<tag k="ssr:stedsnr" v="301544" />
	</node>
	<node id="-249395" lat="60.1385111087" lon="11.109041658">
		<tag k="name" v="Nordli" />
		<tag k="place" v="farm" />
		<tag k="ssr:stedsnr" v="301543" />
	</node>
	<node id="-249394" lat="60.1396249982" lon="11.2049638798">
		<tag k="name" v="Gystad" />
		<tag k="place" v="farm" />
		<tag k="ssr:stedsnr" v="301584" />
	</node>
	<node id="-249393" lat="60.1419611142" lon="11.1870361077">
		<tag k="name" v="Myrtangen" />
		<tag k="place" v="quarter" />
		<tag k="ssr:stedsnr" v="301580" />
	</node>
	<node id="-249392" lat="60.1341055591" lon="11.0975416677">
		<tag k="name" v="Ekelund" />
		<tag k="place" v="farm" />
		<tag k="ssr:stedsnr" v="301539" />
	</node>
	<node id="-249391" lat="60.1817222182" lon="11.2384111055">
		<tag k="name" v="Moen" />
		<tag k="place" v="farm" />
		<tag k="ssr:stedsnr" v="300730" />
	</node>
	<node id="-249390" lat="60.2541777773" lon="11.126761116">
		<tag k="fixme" v="consider boundary=protected_area and relevant protect_class if not nature reserve" />
		<tag k="leisure" v="nature_reserve" />
		<tag k="name" v="Aurmoen landskapsvernområde" />
		<tag k="ssr:stedsnr" v="300646" />
	</node>
	<node id="-249389" lat="60.2190222221" lon="11.1313277771">
		<tag k="name" v="Melbymyrene" />
		<tag k="natural" v="wetland" />
		<tag k="ssr:stedsnr" v="300641" />
	</node>
	<node id="-249388" lat="60.2334416657" lon="11.1544083273">
		<tag k="name" v="Østli" />
		<tag k="place" v="quarter" />
		<tag k="ssr:stedsnr" v="300623" />
	</node>
	<node id="-249386" lat="60.1440055524" lon="11.2527416681">
		<tag k="fixme" v="consider place=suburb, village or hamlet" />
		<tag k="name" v="Algarheim" />
		<tag k="place" v="quarter" />
		<tag k="ssr:stedsnr" v="188208" />
	</node>
	<node id="-249385" lat="60.2182138867" lon="11.1862444521">
		<tag k="name" v="Sand" />
		<tag k="place" v="farm" />
		<tag k="ssr:stedsnr" v="187299" />
	</node>
	<node id="-249384" lat="60.2098999972" lon="11.2404888828">
		<tag k="alt_name" v="Langtjern" />
		<tag k="name" v="Langtjernet" />
		<tag k="natural" v="water" />
		<tag k="ssr:stedsnr" v="187277" />
	</node>
	<node id="-249383" lat="60.2011638889" lon="11.2411916591">
		<tag k="alt_name" v="Vesletjern" />
		<tag k="name" v="Vesletjernet" />
		<tag k="natural" v="water" />
		<tag k="ssr:stedsnr" v="187260" />
	</node>
	<node id="-249382" lat="60.1739999978" lon="11.2144416698">
		<tag k="name" v="Bråten" />
		<tag k="place" v="farm" />
		<tag k="ssr:stedsnr" v="187234" />
	</node>
	<node id="-249381" lat="60.1704388876" lon="11.2607527694">
		<tag k="name" v="Stubberud" />
		<tag k="place" v="farm" />
		<tag k="ssr:stedsnr" v="187232" />
	</node>
	<node id="-249380" lat="60.1619638882" lon="11.3133555574">
		<tag k="name" v="Bergmoen" />
		<tag k="place" v="locality" />
		<tag k="ssr:stedsnr" v="187210" />
	</node>
	<node id="-249379" lat="60.1562694423" lon="11.325569439">
		<tag k="name" v="Ellingdalen" />
		<tag k="place" v="farm" />
		<tag k="ssr:stedsnr" v="187209" />
	</node>
	<node id="-249378" lat="60.1653916638" lon="11.2203194523">
		<tag k="name" v="Liamåsan" />
		<tag k="natural" v="wetland" />
		<tag k="ssr:stedsnr" v="187202" />
	</node>
	<node id="-249377" lat="60.1713723911" lon="11.3061865411">
		<tag k="name" v="Jødal" />
		<tag k="place" v="hamlet" />
		<tag k="ssr:stedsnr" v="187200" />
	</node>
	<node id="-249376" lat="60.15342222" lon="11.2662527705">
		<tag k="name" v="Haugen" />
		<tag k="place" v="farm" />
		<tag k="ssr:stedsnr" v="187177" />
	</node>
	<node id="-249375" lat="60.1487000038" lon="11.2099111121">
		<tag k="name" v="Langemo" />
		<tag k="place" v="farm" />
		<tag k="ssr:stedsnr" v="187176" />
	</node>
	<node id="-249374" lat="60.1218777806" lon="11.274972231">
		<tag k="name" v="Vårum" />
		<tag k="place" v="farm" />
		<tag k="ssr:stedsnr" v="187152" />
	</node>
	<node id="-249373" lat="60.1291345743" lon="11.156686466">
		<tag k="fixme" v="consider place=hamlet" />
		<tag k="name" v="Langeland" />
		<tag k="place" v="farm" />
		<tag k="ssr:stedsnr" v="187141" />
	</node>
	<node id="-249372" lat="60.1351833365" lon="11.1754222181">
		<tag k="alt_name" v="Allergot" />
		<tag k="name" v="Allergodt" />
		<tag k="place" v="farm" />
		<tag k="ssr:stedsnr" v="187129" />
	</node>
	<node id="-249371" lat="60.1075777778" lon="11.1267777821">
		<tag k="fixme" v="consider place=hamlet" />
		<tag k="name" v="Lystad" />
		<tag k="place" v="farm" />
		<tag k="ssr:stedsnr" v="187110" />
	</node>
	<node id="-249370" lat="60.0838388923" lon="11.1645222279">
		<tag k="alt_name" v="Ullensaker" />
		<tag k="amenity" v="place_of_worship" />
		<tag k="denomination" v="lutheran" />
		<tag k="name" v="Ullensaker kirke" />
		<tag k="religion" v="christian" />
		<tag k="ssr:stedsnr" v="187075" />
	</node>
	<node id="-249369" lat="60.072586112" lon="11.2804194464">
		<tag k="name" v="Nyslett" />
		<tag k="place" v="farm" />
		<tag k="ssr:stedsnr" v="187040" />
	</node>
	<node id="-249368" lat="60.0605833332" lon="11.2228277792">
		<tag k="name" v="Haskoldrud" />
		<tag k="place" v="farm" />
		<tag k="ssr:stedsnr" v="187002" />
	</node>
	<node id="-249367" lat="60.0887361066" lon="11.2457666733">
		<tag k="building" v="industrial" />
		<tag k="name" v="Ingjer mølle" />
		<tag k="ssr:stedsnr" v="180895" />
	</node>
	<node id="-249366" lat="60.1232527742" lon="11.3034777813">
		<tag k="junction" v="yes" />
		<tag k="name" v="Nybakk" />
		<tag k="place" v="locality" />
		<tag k="ssr:stedsnr" v="180545" />
	</node>
	<node id="-249365" lat="60.129355555" lon="11.2751666693">
		<tag k="name" v="Søndre Nesten" />
		<tag k="place" v="locality" />
		<tag k="ssr:stedsnr" v="180537" />
	</node>
	<node id="-249364" lat="60.1420611121" lon="11.2114500083">
		<tag k="name" v="Engeløkka" />
		<tag k="place" v="farm" />
		<tag k="ssr:stedsnr" v="180583" />
	</node>
	<node id="-249363" lat="60.2445166624" lon="11.1298944526">
		<tag k="name" v="Kammerherrehøgda" />
		<tag k="natural" v="hill" />
		<tag k="place" v="locality" />
		<tag k="ssr:stedsnr" v="180284" />
	</node>
	<node id="-249362" lat="60.1333749996" lon="11.2885722259">
		<tag k="alt_name" v="Onsrud østre" />
		<tag k="name" v="Østre Onsrud" />
		<tag k="place" v="farm" />
		<tag k="ssr:stedsnr" v="179959" />
	</node>
	<node id="-249361" lat="60.1378611081" lon="11.285227774">
		<tag k="name" v="Granerud" />
		<tag k="place" v="farm" />
		<tag k="ssr:stedsnr" v="179947" />
	</node>
	<node id="-249360" lat="60.1976083353" lon="11.1263111075">
		<tag k="historic" v="shieling" />
		<tag k="name" v="Låkeseter" />
		<tag k="place" v="locality" />
		<tag k="ssr:stedsnr" v="179747" />
	</node>
	<node id="-249359" lat="60.1943777805" lon="11.1687500066">
		<tag k="alt_name" v="Furulund søndre" />
		<tag k="name" v="Søndre Furulund" />
		<tag k="place" v="farm" />
		<tag k="ssr:stedsnr" v="179743" />
	</node>
	<node id="-249358" lat="60.1932694457" lon="11.201094449">
		<tag k="name" v="Østeng" />
		<tag k="place" v="farm" />
		<tag k="ssr:stedsnr" v="179730" />
	</node>
	<node id="-249357" lat="60.1038416638" lon="11.1519444372">
		<tag k="name" v="Vestre Stanger" />
		<tag k="place" v="farm" />
		<tag k="ssr:stedsnr" v="178336" />
	</node>
	<node id="-249356" lat="60.206172223" lon="11.1583472219">
		<tag k="bridge" v="yes" />
		<tag k="layer" v="1" />
		<tag k="name" v="Bjørtomt" />
		<tag k="ssr:stedsnr" v="167787" />
	</node>
	<node id="-249355" lat="60.2280611134" lon="11.1673138802">
		<tag k="bridge" v="yes" />
		<tag k="layer" v="1" />
		<tag k="name" v="Mogreina skole" />
		<tag k="ssr:stedsnr" v="167780" />
	</node>
	<node id="-249354" lat="60.1928000021" lon="11.1898805578">
		<tag k="bridge" v="yes" />
		<tag k="layer" v="1" />
		<tag k="name" v="Lidelta" />
		<tag k="ssr:stedsnr" v="167779" />
	</node>
	<node id="-249353" lat="60.1795638914" lon="11.1713305551">
		<tag k="bridge" v="yes" />
		<tag k="layer" v="1" />
		<tag k="name" v="Kristenstudalen" />
		<tag k="ssr:stedsnr" v="167775" />
	</node>
	<node id="-249352" lat="60.1900111106" lon="11.2712888881">
		<tag k="name" v="Rotnebu" />
		<tag k="place" v="farm" />
		<tag k="ssr:stedsnr" v="167372" />
	</node>
	<node id="-249351" lat="60.0932305562" lon="11.1543833353">
		<tag k="fixme" v="multiple name tags, choose one and add the other to alt_name" />
		<tag k="name" v="Bogstad;Søndre Bogstad" />
		<tag k="place" v="farm" />
		<tag k="ssr:stedsnr" v="163477" />
	</node>
	<node id="-249350" lat="60.1745888918" lon="11.2946666731">
		<tag k="name" v="Nybråten" />
		<tag k="place" v="farm" />
		<tag k="ssr:stedsnr" v="162365" />
	</node>
	<node id="-249349" lat="60.1280472219" lon="11.0988999972">
		<tag k="name" v="Nordre Kolby" />
		<tag k="place" v="farm" />
		<tag k="ssr:stedsnr" v="162688" />
	</node>
	<node id="-249348" lat="60.1201611139" lon="11.0999638873">
		<tag k="name" v="Søndre Taugland" />
		<tag k="place" v="farm" />
		<tag k="ssr:stedsnr" v="162686" />
	</node>
	<node id="-249347" lat="60.141061107" lon="11.0880944443">
		<tag k="alt_name" v="Rudbekken" />
		<tag k="name" v="Rudsbekken" />
		<tag k="ssr:stedsnr" v="127679" />
		<tag k="waterway" v="stream" />
	</node>
	<node id="-249346" lat="60.1428111091" lon="11.1255083286">
		<tag k="alt_name" v="Hovin" />
		<tag k="amenity" v="place_of_worship" />
		<tag k="denomination" v="lutheran" />
		<tag k="name" v="Hovin kirke" />
		<tag k="religion" v="christian" />
		<tag k="ssr:stedsnr" v="127201" />
	</node>
	<node id="-249345" lat="60.0921916639" lon="11.2022250001">
		<tag k="name" v="Holen" />
		<tag k="place" v="farm" />
		<tag k="ssr:stedsnr" v="127067" />
	</node>
	<node id="-249344" lat="60.0937138858" lon="11.2483722302">
		<tag k="name" v="Nygard" />
		<tag k="place" v="farm" />
		<tag k="ssr:stedsnr" v="127066" />
	</node>
	<node id="-249343" lat="60.1956347981" lon="11.0608535442">
		<tag k="alt_name" v="Garder, nordre" />
		<tag k="name" v="Nordre Garder" />
		<tag k="place" v="farm" />
		<tag k="ssr:stedsnr" v="126726" />
	</node>
	<node id="-249342" lat="60.2338583315" lon="11.1601027825">
		<tag k="name" v="Sjøvik" />
		<tag k="place" v="farm" />
		<tag k="ssr:stedsnr" v="126321" />
	</node>
	<node id="-249341" lat="60.174869446" lon="11.2695500021">
		<tag k="name" v="Austad" />
		<tag k="place" v="farm" />
		<tag k="ssr:stedsnr" v="126233" />
	</node>
	<node id="-249340" lat="60.1660999995" lon="11.1406777822">
		<tag k="alt_name" v="Langdalen" />
		<tag k="name" v="Langdal" />
		<tag k="place" v="farm" />
		<tag k="ssr:stedsnr" v="126196" />
	</node>
	<node id="-249339" lat="60.1269138931" lon="11.3324861176">
		<tag k="name" v="Ilang" />
		<tag k="place" v="farm" />
		<tag k="ssr:stedsnr" v="126125" />
	</node>
	<node id="-249338" lat="60.1116944468" lon="11.2969055529">
		<tag k="fixme" v="consider place=hamlet" />
		<tag k="name" v="Reierstad" />
		<tag k="place" v="farm" />
		<tag k="ssr:stedsnr" v="126099" />
	</node>
	<node id="-249337" lat="60.1136032526" lon="11.1405465323">
		<tag k="alt_name" v="Ullern" />
		<tag k="name" v="Ulleren" />
		<tag k="place" v="hamlet" />
		<tag k="ssr:stedsnr" v="126095" />
	</node>
	<node id="-249336" lat="60.0872805574" lon="11.1816499997">
		<tag k="fixme" v="multiple name tags, choose one and add the other to alt_name" />
		<tag k="name" v="Bakken;Lautenbakken" />
		<tag k="place" v="farm" />
		<tag k="ssr:stedsnr" v="126075" />
	</node>
	<node id="-249335" lat="60.0748111099" lon="11.1556055527">
		<tag k="name" v="Gotland" />
		<tag k="place" v="locality" />
		<tag k="ssr:stedsnr" v="126044" />
	</node>
	<node id="-249334" lat="60.0790305591" lon="11.1824499944">
		<tag k="name" v="Frogner" />
		<tag k="place" v="farm" />
		<tag k="ssr:stedsnr" v="126034" />
	</node>
	<node id="-249332" lat="60.078194447" lon="11.1388583311">
		<tag k="building" v="industrial" />
		<tag k="industrial" v="factory" />
		<tag k="name" v="K. Kverner Bruk" />
		<tag k="ssr:stedsnr" v="119948" />
	</node>
	<node id="-249331" lat="60.0857694476" lon="11.1962583348">
		<tag k="name" v="Granhaug" />
		<tag k="place" v="farm" />
		<tag k="ssr:stedsnr" v="119931" />
	</node>
	<node id="-249330" lat="60.08214444" lon="11.2244805601">
		<tag k="name" v="Østre Sørby" />
		<tag k="place" v="farm" />
		<tag k="ssr:stedsnr" v="119930" />
	</node>
	<node id="-249329" lat="60.1233166646" lon="11.2648666627">
		<tag k="name" v="Støverud" />
		<tag k="place" v="farm" />
		<tag k="ssr:stedsnr" v="119578" />
	</node>
	<node id="-249328" lat="60.1409777787" lon="11.1193583347">
		<tag k="name" v="Øvre Hovin" />
		<tag k="place" v="farm" />
		<tag k="ssr:stedsnr" v="119571" />
	</node>
	<node id="-249327" lat="60.1480444456" lon="11.1596250016">
		<tag k="name" v="Gjestadhagen" />
		<tag k="place" v="quarter" />
		<tag k="ssr:stedsnr" v="119555" />
	</node>
	<node id="-249326" lat="60.1448638847" lon="11.1263444412">
		<tag k="name" v="Østre Hovin" />
		<tag k="place" v="farm" />
		<tag k="ssr:stedsnr" v="119551" />
	</node>
	<node id="-249325" lat="60.1377611104" lon="11.1677749931">
		<tag k="amenity" v="school" />
		<tag k="name" v="Døli skole" />
		<tag k="ssr:stedsnr" v="119546" />
	</node>
	<node id="-249324" lat="60.1334972233" lon="11.2441166688">
		<tag k="name" v="Habbarstad" />
		<tag k="place" v="farm" />
		<tag k="ssr:stedsnr" v="118944" />
	</node>
	<node id="-249323" lat="60.14238333" lon="11.3087416611">
		<tag k="name" v="Rømo" />
		<tag k="place" v="farm" />
		<tag k="ssr:stedsnr" v="118890" />
	</node>
	<node id="-249322" lat="60.2200277791" lon="11.1245138814">
		<tag k="name" v="Djupdalskulpen" />
		<tag k="natural" v="valley" />
		<tag k="place" v="locality" />
		<tag k="ssr:stedsnr" v="118596" />
	</node>
	<node id="-249321" lat="60.1992472217" lon="11.3065666699">
		<tag k="name" v="Furuheim" />
		<tag k="place" v="isolated_dwelling" />
		<tag k="ssr:stedsnr" v="118590" />
	</node>
	<node id="-249320" lat="60.1513638847" lon="11.1954083355">
		<tag k="name" v="Gystadmarka" />
		<tag k="place" v="quarter" />
		<tag k="ssr:stedsnr" v="118418" />
	</node>
	<node id="-249319" lat="60.0990583332" lon="11.1333388953">
		<tag k="name" v="Holum" />
		<tag k="place" v="farm" />
		<tag k="ssr:stedsnr" v="117367" />
	</node>
	<node id="-249318" lat="60.0973555563" lon="11.1325277756">
		<tag k="alt_name" v="Holum nordre" />
		<tag k="name" v="Nordre Holum" />
		<tag k="place" v="farm" />
		<tag k="ssr:stedsnr" v="117364" />
	</node>
	<node id="-249317" lat="60.1326194419" lon="11.1224916699">
		<tag k="name" v="Bjørke" />
		<tag k="place" v="farm" />
		<tag k="ssr:stedsnr" v="102696" />
	</node>
	<node id="-249316" lat="60.1282066682" lon="11.1547338059">
		<tag k="name" v="Søndre Langeland" />
		<tag k="place" v="farm" />
		<tag k="ssr:stedsnr" v="102692" />
	</node>
	<node id="-249314" lat="60.1327456815" lon="11.2439931159">
		<tag k="name" v="Habbarstad" />
		<tag k="place" v="farm" />
		<tag k="ssr:stedsnr" v="100858" />
	</node>
	<node id="-249312" lat="60.2084555573" lon="11.2484611053">
		<tag k="name" v="Stensbyfjellet" />
		<tag k="natural" v="hill" />
		<tag k="place" v="locality" />
		<tag k="ssr:stedsnr" v="66291" />
	</node>
	<node id="-249311" lat="60.2185432521" lon="11.15467378">
		<tag k="name" v="Hersjøen" />
		<tag k="natural" v="water" />
		<tag k="ssr:stedsnr" v="66286" />
		<tag k="water" v="lake" />
	</node>
	<node id="-249310" lat="60.2178027808" lon="11.1358833352">
		<tag k="name" v="Melby" />
		<tag k="place" v="farm" />
		<tag k="ssr:stedsnr" v="66282" />
	</node>
	<node id="-249309" lat="60.2055111098" lon="11.3074388834">
		<tag k="name" v="Grøndalsmåsan" />
		<tag k="natural" v="wetland" />
		<tag k="ssr:stedsnr" v="66274" />
	</node>
	<node id="-249308" lat="60.0672361153" lon="11.1063388834">
		<tag k="name" v="Hilton" />
		<tag k="place" v="farm" />
		<tag k="ssr:stedsnr" v="66378" />
	</node>
	<node id="-249307" lat="60.1721296489" lon="11.0955426642">
		<tag k="fixme" v="consider place=hamlet" />
		<tag k="name" v="Brudalen" />
		<tag k="place" v="farm" />
		<tag k="ssr:stedsnr" v="66194" />
	</node>
	<node id="-249306" lat="60.1718472244" lon="11.2199083296">
		<tag k="name" v="Lia" />
		<tag k="place" v="locality" />
		<tag k="ssr:stedsnr" v="66193" />
	</node>
	<node id="-249305" lat="60.1375027777" lon="11.3076916668">
		<tag k="alt_name" v="Røstad" />
		<tag k="name" v="Rødstad" />
		<tag k="place" v="farm" />
		<tag k="ssr:stedsnr" v="66170" />
	</node>
	<node id="-249304" lat="60.1417166701" lon="11.3223305518">
		<tag k="name" v="Nordmo" />
		<tag k="place" v="farm" />
		<tag k="ssr:stedsnr" v="66169" />
	</node>
	<node id="-249303" lat="60.1390750019" lon="11.278430547">
		<tag k="alt_name" v="Songna" />
		<tag k="name" v="Songa" />
		<tag k="ssr:stedsnr" v="66166" />
		<tag k="waterway" v="stream" />
	</node>
	<node id="-249302" lat="60.1519388877" lon="11.317177775">
		<tag k="name" v="Østberg" />
		<tag k="place" v="farm" />
		<tag k="ssr:stedsnr" v="66163" />
	</node>
	<node id="-249301" lat="60.1980027782" lon="11.2911000053">
		<tag k="alt_name" v="Botolvshaugen" />
		<tag k="fixme" v="multiple name tags, choose one and add the other to alt_name" />
		<tag k="name" v="Haugen;Nordre Grøndalen" />
		<tag k="place" v="farm" />
		<tag k="ssr:stedsnr" v="66244" />
	</node>
	<node id="-249300" lat="60.1805333358" lon="11.2258305568">
		<tag k="name" v="Ellingsrud" />
		<tag k="place" v="farm" />
		<tag k="ssr:stedsnr" v="66236" />
	</node>
	<node id="-249299" lat="60.1923444448" lon="11.1588166679">
		<tag k="name" v="Dagsjøen" />
		<tag k="natural" v="water" />
		<tag k="ssr:stedsnr" v="66229" />
	</node>
	<node id="-249298" lat="60.180063891" lon="11.1170944359">
		<tag k="name" v="Gardermoen" />
		<tag k="place" v="locality" />
		<tag k="ssr:stedsnr" v="66228" />
	</node>
	<node id="-249297" lat="60.1842472232" lon="11.2368499985">
		<tag k="name" v="Enga" />
		<tag k="place" v="farm" />
		<tag k="ssr:stedsnr" v="66221" />
	</node>
	<node id="-249296" lat="60.0977722263" lon="11.1796833381">
		<tag k="name" v="Lundberg" />
		<tag k="place" v="farm" />
		<tag k="ssr:stedsnr" v="66067" />
	</node>
	<node id="-249294" lat="60.0622277764" lon="11.1749111065">
		<tag k="alt_name" v="Ile søndre" />
		<tag k="name" v="Søndre Ile" />
		<tag k="place" v="farm" />
		<tag k="ssr:stedsnr" v="59954" />
	</node>
	<node id="-249293" lat="60.0747222179" lon="11.3033083313">
		<tag k="name" v="Holtmarka" />
		<tag k="place" v="locality" />
		<tag k="ssr:stedsnr" v="59897" />
	</node>
	<node id="-249292" lat="60.1399527816" lon="11.2261500012">
		<tag k="name" v="Åsmoen" />
		<tag k="place" v="quarter" />
		<tag k="ssr:stedsnr" v="59611" />
	</node>
	<node id="-249291" lat="60.1500305566" lon="11.1694666644">
		<tag k="amenity" v="school" />
		<tag k="name" v="Nordby skole" />
		<tag k="ssr:stedsnr" v="59602" />
	</node>
	<node id="-249290" lat="60.1450277819" lon="11.2107305526">
		<tag k="name" v="Vang" />
		<tag k="place" v="farm" />
		<tag k="ssr:stedsnr" v="59589" />
	</node>
	<node id="-249289" lat="60.1271972189" lon="11.3019527796">
		<tag k="name" v="Sagmoen" />
		<tag k="place" v="farm" />
		<tag k="ssr:stedsnr" v="59554" />
	</node>
	<node id="-249288" lat="60.1292138864" lon="11.277191675">
		<tag k="name" v="Nedre Nesten" />
		<tag k="place" v="farm" />
		<tag k="ssr:stedsnr" v="59543" />
	</node>
	<node id="-249287" lat="60.1303194408" lon="11.2593333332">
		<tag k="name" v="Laskerud" />
		<tag k="place" v="farm" />
		<tag k="ssr:stedsnr" v="59542" />
	</node>
	<node id="-249286" lat="60.142321837" lon="11.1699629395">
		<tag k="alt_name" v="Døli Østre" />
		<tag k="name" v="Østre Døli" />
		<tag k="place" v="farm" />
		<tag k="ssr:stedsnr" v="59515" />
	</node>
	<node id="-249285" lat="60.2423722216" lon="11.1253999958">
		<tag k="name" v="Gamle Grensehaug" />
		<tag k="natural" v="hill" />
		<tag k="place" v="locality" />
		<tag k="ssr:stedsnr" v="59296" />
	</node>
	<node id="-249284" lat="60.1446308233" lon="11.2506675713">
		<tag k="amenity" v="school" />
		<tag k="name" v="Algarheim skole" />
		<tag k="ssr:stedsnr" v="58945" />
	</node>
	<node id="-249282" lat="60.1944888917" lon="11.2935111044">
		<tag k="alt_name" v="Grøndalen vestre" />
		<tag k="name" v="Vestre Grøndalen" />
		<tag k="place" v="farm" />
		<tag k="ssr:stedsnr" v="57701" />
	</node>
	<node id="-249281" lat="60.1873833357" lon="11.2830222184">
		<tag k="alt_name" v="Nedre Jaeren;Jaren nedre" />
		<tag k="name" v="Nedre Jaren" />
		<tag k="place" v="farm" />
		<tag k="ssr:stedsnr" v="57690" />
	</node>
	<node id="-249280" lat="60.2041055534" lon="11.1660361193">
		<tag k="name" v="Kloppeløkken" />
		<tag k="place" v="hamlet" />
		<tag k="ssr:stedsnr" v="57663" />
	</node>
	<node id="-249279" lat="60.2290527783" lon="11.2006583355">
		<tag k="name" v="Dal skog" />
		<tag k="place" v="locality" />
		<tag k="ssr:stedsnr" v="57585" />
	</node>
	<node id="-249278" lat="60.1066888898" lon="11.1336888861">
		<tag k="alt_name" v="Lystad østre" />
		<tag k="name" v="Østre Lystad" />
		<tag k="place" v="farm" />
		<tag k="ssr:stedsnr" v="57337" />
	</node>
	<node id="-249277" lat="60.103030556" lon="11.1620749959">
		<tag k="name" v="Loding" />
		<tag k="place" v="farm" />
		<tag k="ssr:stedsnr" v="57328" />
	</node>
	<node id="-249276" lat="60.1014333306" lon="11.1259555586">
		<tag k="name" v="Klomstad" />
		<tag k="place" v="farm" />
		<tag k="ssr:stedsnr" v="57318" />
	</node>
	<node id="-249275" lat="60.0937861124" lon="11.1367027811">
		<tag k="alt_name" v="Holum østre" />
		<tag k="name" v="Østre Holum" />
		<tag k="place" v="farm" />
		<tag k="ssr:stedsnr" v="57311" />
	</node>
	<node id="-249274" lat="60.0925666643" lon="11.1548250066">
		<tag k="name" v="Søndre Bogstad" />
		<tag k="place" v="farm" />
		<tag k="ssr:stedsnr" v="57309" />
	</node>
	<node id="-249273" lat="60.1913694445" lon="11.0406194378">
		<tag k="bridge" v="yes" />
		<tag k="layer" v="1" />
		<tag k="name" v="Sogna" />
		<tag k="ssr:stedsnr" v="46897" />
	</node>
	<node id="-249272" lat="60.0820222187" lon="11.1740972188">
		<tag k="bridge" v="yes" />
		<tag k="layer" v="1" />
		<tag k="name" v="Hynnebekk" />
		<tag k="ssr:stedsnr" v="46791" />
	</node>
	<node id="-249271" lat="60.2401666672" lon="11.1787166645">
		<tag k="bridge" v="yes" />
		<tag k="layer" v="1" />
		<tag k="name" v="Rise" />
		<tag k="ssr:stedsnr" v="46785" />
	</node>
	<node id="-249270" lat="60.2455250007" lon="11.1968805592">
		<tag k="bridge" v="yes" />
		<tag k="layer" v="1" />
		<tag k="name" v="Risa" />
		<tag k="ssr:stedsnr" v="46783" />
	</node>
	<node id="-249269" lat="60.1076805521" lon="11.3001027803">
		<tag k="alt_name" v="Reierstad nordre" />
		<tag k="name" v="Nordre Reierstad" />
		<tag k="place" v="farm" />
		<tag k="ssr:stedsnr" v="41695" />
	</node>
	<node id="-249268" lat="60.1352444408" lon="11.1513500027">
		<tag k="name" v="Dølibekken" />
		<tag k="ssr:stedsnr" v="41643" />
		<tag k="waterway" v="stream" />
	</node>
	<node id="-249267" lat="60.1267888906" lon="11.212047217">
		<tag k="name" v="Åsheim" />
		<tag k="place" v="locality" />
		<tag k="ssr:stedsnr" v="41641" />
	</node>
	<node id="-249266" lat="60.0915944426" lon="11.2525250025">
		<tag k="name" v="Skoveng" />
		<tag k="place" v="farm" />
		<tag k="ssr:stedsnr" v="41385" />
	</node>
	<node id="-249265" lat="60.1008388883" lon="11.2147138973">
		<tag k="name" v="Borgenåsen" />
		<tag k="place" v="quarter" />
		<tag k="ssr:stedsnr" v="41380" />
	</node>
	<node id="-249264" lat="60.0963805582" lon="11.21756111">
		<tag k="alt_name" v="Borgen lille" />
		<tag k="name" v="Lille Borgen" />
		<tag k="place" v="farm" />
		<tag k="ssr:stedsnr" v="41378" />
	</node>
	<node id="-249263" lat="60.1567722216" lon="11.2350361135">
		<tag k="alt_name" v="Brenni nordre" />
		<tag k="name" v="Nordre Brenni" />
		<tag k="place" v="farm" />
		<tag k="ssr:stedsnr" v="41347" />
	</node>
	<node id="-249262" lat="60.1714888914" lon="11.2134638944">
		<tag k="name" v="Fjellmo" />
		<tag k="place" v="isolated_dwelling" />
		<tag k="ssr:stedsnr" v="41341" />
	</node>
	<node id="-249261" lat="60.1481472238" lon="11.1383027794">
		<tag k="alt_name" v="Ljøgodttjern" />
		<tag k="name" v="Ljøgottjernet" />
		<tag k="natural" v="water" />
		<tag k="ssr:stedsnr" v="17971" />
	</node>
	<node id="-249260" lat="60.192563886" lon="11.1747805613">
		<tag k="name" v="Nygård" />
		<tag k="place" v="farm" />
		<tag k="ssr:stedsnr" v="6261" />
	</node>
	<node id="-249259" lat="60.187447224" lon="11.0587027719">
		<tag k="alt_name" v="Sundby, øvre" />
		<tag k="name" v="Øvre Sundby" />
		<tag k="old_name" v="Sundby, nedre" />
		<tag k="place" v="farm" />
		<tag k="ssr:stedsnr" v="5786" />
	</node>
	<node id="-249258" lat="60.2307250039" lon="11.1681333404">
		<tag k="name" v="Stensrud" />
		<tag k="place" v="isolated_dwelling" />
		<tag k="ssr:stedsnr" v="5312" />
	</node>
	<node id="-249257" lat="60.228069446" lon="11.2393638875">
		<tag k="alt_name" v="Dalum" />
		<tag k="name" v="Dalom" />
		<tag k="place" v="farm" />
		<tag k="ssr:stedsnr" v="5309" />
	</node>
	<node id="-249256" lat="60.1900666645" lon="11.2207583274">
		<tag k="name" v="Syverstad" />
		<tag k="place" v="farm" />
		<tag k="ssr:stedsnr" v="5231" />
	</node>
	<node id="-249255" lat="60.156311107" lon="11.1641472289">
		<tag k="name" v="Nordbytjernet" />
		<tag k="natural" v="water" />
		<tag k="ssr:stedsnr" v="5225" />
	</node>
	<node id="-249254" lat="60.1614483935" lon="11.29925839">
		<tag k="fixme" v="consider place=hamlet" />
		<tag k="name" v="Berg" />
		<tag k="place" v="farm" />
		<tag k="ssr:stedsnr" v="5216" />
	</node>
	<node id="-249253" lat="60.1686527738" lon="11.2753222144">
		<tag k="name" v="Nyjordet" />
		<tag k="place" v="farm" />
		<tag k="ssr:stedsnr" v="5203" />
	</node>
	<node id="-249252" lat="60.1513027816" lon="11.3052055537">
		<tag k="name" v="Fjellet" />
		<tag k="place" v="farm" />
		<tag k="ssr:stedsnr" v="5175" />
	</node>
	<node id="-249251" lat="60.1496611132" lon="11.2013805575">
		<tag k="name" v="Nyholm" />
		<tag k="place" v="farm" />
		<tag k="ssr:stedsnr" v="5173" />
	</node>
	<node id="-249250" lat="60.1541694485" lon="11.1195944529">
		<tag k="alt_name" v="Hannestad" />
		<tag k="name" v="Hanastad" />
		<tag k="place" v="farm" />
		<tag k="ssr:stedsnr" v="5167" />
	</node>
	<node id="-249249" lat="60.1219138855" lon="11.2475944482">
		<tag k="fixme" v="consider place=hamlet" />
		<tag k="name" v="Vogstad" />
		<tag k="place" v="farm" />
		<tag k="ssr:stedsnr" v="5140" />
	</node>
	<node id="-249248" lat="60.1333674025" lon="11.1210358056">
		<tag k="fixme" v="consider place=hamlet" />
		<tag k="name" v="Bjørke" />
		<tag k="place" v="farm" />
		<tag k="ssr:stedsnr" v="5135" />
	</node>
	<node id="-249247" lat="60.1059999999" lon="11.2873194507">
		<tag k="name" v="Lørdagsrud" />
		<tag k="place" v="farm" />
		<tag k="ssr:stedsnr" v="5119" />
	</node>
	<node id="-249246" lat="60.0936749993" lon="11.2694444393">
		<tag k="name" v="Åmot" />
		<tag k="place" v="farm" />
		<tag k="ssr:stedsnr" v="5069" />
	</node>
	<node id="-249245" lat="60.0953138932" lon="11.16832777">
		<tag k="name" v="Løken" />
		<tag k="place" v="farm" />
		<tag k="ssr:stedsnr" v="5052" />
	</node>
	<node id="-249244" lat="60.1041891961" lon="11.1602190059">
		<tag k="fixme" v="consider place=hamlet" />
		<tag k="name" v="Loding" />
		<tag k="place" v="farm" />
		<tag k="ssr:stedsnr" v="5051" />
	</node>
	<node id="-249243" lat="60.0704527789" lon="11.1420416713">
		<tag k="amenity" v="prison" />
		<tag k="name" v="Ullersmo fengsel" />
		<tag k="ssr:stedsnr" v="5033" />
	</node>
	<node id="-249242" lat="60.0740666692" lon="11.1380500073">
		<tag k="name" v="Kløfta" />
		<tag k="place" v="village" />
		<tag k="ssr:stedsnr" v="5032" />
	</node>
	<node id="-249241" lat="60.0549361118" lon="11.1292111043">
		<tag k="name" v="Skjelmerud" />
		<tag k="place" v="farm" />
		<tag k="ssr:stedsnr" v="5010" />
	</node>
	<node id="-249240" lat="60.0596027737" lon="11.1994416653">
		<tag k="name" v="Hynna" />
		<tag k="ssr:stedsnr" v="5003" />
		<tag k="waterway" v="stream" />
	</node>
	<node id="-249239" lat="60.1260015999" lon="11.2127128501">
		<tag k="name" v="Sollia" />
		<tag k="place" v="quarter" />
		<tag k="ssr:stedsnr" v="981919" />
	</node>
	<node id="-249238" lat="60.1516328226" lon="11.1438358791">
		<tag k="name" v="Haug" />
		<tag k="place" v="quarter" />
		<tag k="ssr:stedsnr" v="981967" />
	</node>
	<node id="-249235" lat="60.076611115" lon="11.1278972224">
		<tag k="junction" v="yes" />
		<tag k="name" v="Ånerudkrysset" />
		<tag k="place" v="locality" />
		<tag k="ssr:stedsnr" v="969915" />
	</node>
	<node id="-249234" lat="60.0774750012" lon="11.1254916728">
		<tag k="name" v="Dørre" />
		<tag k="place" v="locality" />
		<tag k="ssr:stedsnr" v="969914" />
	</node>
	<node id="-249233" lat="60.0740027791" lon="11.1946138964">
		<tag k="name" v="Nordhagen" />
		<tag k="place" v="locality" />
		<tag k="ssr:stedsnr" v="969906" />
	</node>
	<node id="-249232" lat="60.1147916643" lon="11.3076361119">
		<tag k="name" v="Øvre Rolstad" />
		<tag k="place" v="farm" />
		<tag k="ssr:stedsnr" v="969570" />
	</node>
	<node id="-249231" lat="60.1056888878" lon="11.1647861164">
		<tag k="name" v="Loding" />
		<tag k="place" v="farm" />
		<tag k="ssr:stedsnr" v="967314" />
	</node>
	<node id="-249230" lat="60.0944138889" lon="11.1533444481">
		<tag k="name" v="Nordre Bogstad" />
		<tag k="place" v="farm" />
		<tag k="ssr:stedsnr" v="967310" />
	</node>
	<node id="-249229" lat="60.1347055529" lon="11.118952772">
		<tag k="alt_name" v="Bjørke østre" />
		<tag k="name" v="Østre Bjørke" />
		<tag k="place" v="farm" />
		<tag k="ssr:stedsnr" v="951677" />
	</node>
	<node id="-249228" lat="60.1166944447" lon="11.1618361049">
		<tag k="name" v="Haugsmarka" />
		<tag k="place" v="locality" />
		<tag k="ssr:stedsnr" v="951674" />
	</node>
	<node id="-249227" lat="60.1280361152" lon="11.1730250004">
		<tag k="name" v="Langelandsfjellet" />
		<tag k="natural" v="slope" />
		<tag k="place" v="locality" />
		<tag k="ssr:stedsnr" v="951664" />
	</node>
	<node id="-249226" lat="60.0971833356" lon="11.2119138821">
		<tag k="alt_name" v="Borgen store" />
		<tag k="name" v="Store Borgen" />
		<tag k="place" v="farm" />
		<tag k="ssr:stedsnr" v="951363" />
	</node>
	<node id="-249225" lat="60.1539666623" lon="11.0850222209">
		<tag k="name" v="Kjosbekken" />
		<tag k="ssr:stedsnr" v="936408" />
		<tag k="waterway" v="stream" />
	</node>
	<node id="-249224" lat="60.1983591532" lon="11.3048167733">
		<tag k="fixme" v="consider place=hamlet" />
		<tag k="name" v="Grøndalen" />
		<tag k="place" v="farm" />
		<tag k="ssr:stedsnr" v="916272" />
	</node>
	<node id="-249223" lat="60.2017527736" lon="11.1338138939">
		<tag k="alt_name" v="Danielsetertjern" />
		<tag k="name" v="Danielsetertjernet" />
		<tag k="natural" v="water" />
		<tag k="ssr:stedsnr" v="916266" />
	</node>
	<node id="-249222" lat="60.1407555576" lon="11.2531694367">
		<tag k="name" v="Fonbekk" />
		<tag k="place" v="farm" />
		<tag k="ssr:stedsnr" v="916180" />
	</node>
	<node id="-249221" lat="60.1442555551" lon="11.2868944404">
		<tag k="name" v="Fossen" />
		<tag k="place" v="farm" />
		<tag k="ssr:stedsnr" v="916178" />
	</node>
	<node id="-249220" lat="60.1038999994" lon="11.1903749927">
		<tag k="name" v="Plogstad" />
		<tag k="place" v="farm" />
		<tag k="ssr:stedsnr" v="916116" />
	</node>
	<node id="-249219" lat="60.2346444404" lon="11.2096138891">
		<tag k="name" v="Rullnes" />
		<tag k="place" v="farm" />
		<tag k="ssr:stedsnr" v="915377" />
	</node>
	<node id="-249218" lat="60.2393861083" lon="11.153513896">
		<tag k="name" v="Vollsnes" />
		<tag k="place" v="farm" />
		<tag k="ssr:stedsnr" v="915317" />
	</node>
	<node id="-249217" lat="60.1774222189" lon="11.2707111114">
		<tag k="fixme" v="consider place=hamlet" />
		<tag k="name" v="Skryta" />
		<tag k="place" v="farm" />
		<tag k="ssr:stedsnr" v="915218" />
	</node>
	<node id="-249216" lat="60.1871277822" lon="11.2549583302">
		<tag k="fixme" v="consider place=hamlet" />
		<tag k="name" v="Støvner" />
		<tag k="place" v="farm" />
		<tag k="ssr:stedsnr" v="915206" />
	</node>
	<node id="-249215" lat="60.0690777749" lon="11.2167527856">
		<tag k="name" v="Nedre Stokker" />
		<tag k="place" v="farm" />
		<tag k="ssr:stedsnr" v="908948" />
	</node>
	<node id="-249214" lat="60.0807777801" lon="11.2489999957">
		<tag k="name" v="Ingjersmarka" />
		<tag k="place" v="locality" />
		<tag k="ssr:stedsnr" v="908937" />
	</node>
	<node id="-249213" lat="60.1065472265" lon="11.2464222164">
		<tag k="alt_name" v="Flindrum" />
		<tag k="name" v="Vestre Flindrum" />
		<tag k="place" v="farm" />
		<tag k="ssr:stedsnr" v="908324" />
	</node>
	<node id="-249212" lat="60.2435416623" lon="11.1712055532">
		<tag k="name" v="Borgentjern" />
		<tag k="natural" v="water" />
		<tag k="ssr:stedsnr" v="908316" />
	</node>
	<node id="-249211" lat="60.1524944402" lon="11.3198666652">
		<tag k="name" v="Syltenga" />
		<tag k="place" v="farm" />
		<tag k="ssr:stedsnr" v="907855" />
	</node>
	<node id="-249210" lat="60.1753888894" lon="11.0927638892">
		<tag k="bridge" v="yes" />
		<tag k="layer" v="1" />
		<tag k="name" v="Gardermoen" />
		<tag k="ssr:stedsnr" v="896815" />
	</node>
	<node id="-249209" lat="60.1478027798" lon="11.1498777706">
		<tag k="bridge" v="yes" />
		<tag k="layer" v="1" />
		<tag k="name" v="Gropavegen" />
		<tag k="ssr:stedsnr" v="896813" />
	</node>
	<node id="-249208" lat="60.0913833331" lon="11.1461222151">
		<tag k="bridge" v="yes" />
		<tag k="layer" v="1" />
		<tag k="name" v="Bogstad" />
		<tag k="ssr:stedsnr" v="896810" />
	</node>
	<node id="-249207" lat="60.0894472265" lon="11.2421083381">
		<tag k="bridge" v="yes" />
		<tag k="layer" v="1" />
		<tag k="name" v="Ingjer" />
		<tag k="ssr:stedsnr" v="896808" />
	</node>
	<node id="-249206" lat="60.1947910231" lon="11.0587108526">
		<tag k="alt_name" v="Garder, vestre;Garder vestre" />
		<tag k="name" v="Vestre Garder" />
		<tag k="place" v="farm" />
		<tag k="ssr:stedsnr" v="855770" />
	</node>
	<node id="-249205" lat="60.1809250038" lon="11.1852416587">
		<tag k="name" v="Hovimoen" />
		<tag k="place" v="locality" />
		<tag k="ssr:stedsnr" v="855258" />
	</node>
	<node id="-249204" lat="60.1802805586" lon="11.1527249918">
		<tag k="name" v="Vilbergmoen" />
		<tag k="place" v="locality" />
		<tag k="ssr:stedsnr" v="855256" />
	</node>
	<node id="-249203" lat="60.1005805524" lon="11.2837416593">
		<tag k="name" v="Sulta" />
		<tag k="ssr:stedsnr" v="855125" />
		<tag k="waterway" v="river" />
	</node>
	<node id="-249202" lat="60.1087972205" lon="11.2761749931">
		<tag k="name" v="Smedstua" />
		<tag k="place" v="farm" />
		<tag k="ssr:stedsnr" v="855123" />
	</node>
	<node id="-249201" lat="60.160974998" lon="11.2647361059">
		<tag k="name" v="Julset" />
		<tag k="place" v="farm" />
		<tag k="ssr:stedsnr" v="855214" />
	</node>
	<node id="-249200" lat="60.1589861098" lon="11.2627777798">
		<tag k="alt_name" v="Furuset" />
		<tag k="amenity" v="place_of_worship" />
		<tag k="denomination" v="lutheran" />
		<tag k="name" v="Furuset kirke" />
		<tag k="religion" v="christian" />
		<tag k="ssr:stedsnr" v="855211" />
	</node>
	<node id="-249199" lat="60.090811112" lon="11.1339388971">
		<tag k="name" v="Ladderud" />
		<tag k="place" v="isolated_dwelling" />
		<tag k="ssr:stedsnr" v="855072" />
	</node>
	<node id="-249198" lat="60.1843833329" lon="11.1669361192">
		<tag k="name" v="Petterløkken" />
		<tag k="place" v="farm" />
		<tag k="ssr:stedsnr" v="830325" />
	</node>
	<node id="-249197" lat="60.1718833289" lon="11.2518222255">
		<tag k="name" v="Stokkstadmoen" />
		<tag k="place" v="farm" />
		<tag k="ssr:stedsnr" v="830304" />
	</node>
	<node id="-249196" lat="60.1374138894" lon="11.1427749935">
		<tag k="name" v="Tveia" />
		<tag k="ssr:stedsnr" v="794141" />
		<tag k="waterway" v="stream" />
	</node>
	<node id="-249195" lat="60.1252552938" lon="11.1480372202">
		<tag k="fixme" v="consider place=hamlet" />
		<tag k="name" v="Trøgstad" />
		<tag k="place" v="farm" />
		<tag k="ssr:stedsnr" v="794137" />
	</node>
	<node id="-249194" lat="60.1279611112" lon="11.2095499958">
		<tag k="alt_name" v="Randbybråten" />
		<tag k="name" v="Rambybråten" />
		<tag k="place" v="farm" />
		<tag k="ssr:stedsnr" v="794136" />
	</node>
	<node id="-249193" lat="60.1072055547" lon="11.1491750024">
		<tag k="name" v="Haug" />
		<tag k="place" v="farm" />
		<tag k="ssr:stedsnr" v="794112" />
	</node>
	<node id="-249192" lat="60.1194055545" lon="11.2119833274">
		<tag k="alt_name" v="Sollien" />
		<tag k="name" v="Sollia" />
		<tag k="place" v="locality" />
		<tag k="ssr:stedsnr" v="794106" />
	</node>
	<node id="-249191" lat="60.0991555575" lon="11.1189194528">
		<tag k="name" v="Rud" />
		<tag k="place" v="farm" />
		<tag k="ssr:stedsnr" v="794060" />
	</node>
	<node id="-249190" lat="60.1202138919" lon="11.2636249994">
		<tag k="name" v="Støverud" />
		<tag k="place" v="farm" />
		<tag k="ssr:stedsnr" v="787565" />
	</node>
	<node id="-249189" lat="60.1412638896" lon="11.2031305521">
		<tag k="name" v="Renskog" />
		<tag k="place" v="farm" />
		<tag k="ssr:stedsnr" v="787616" />
	</node>
	<node id="-249188" lat="60.1622805517" lon="11.1210861158">
		<tag k="name" v="Midtskogen" />
		<tag k="place" v="locality" />
		<tag k="ssr:stedsnr" v="916202" />
	</node>
	<node id="-249187" lat="60.1446637582" lon="11.2190191814">
		<tag k="fixme" v="consider place=hamlet" />
		<tag k="name" v="Holm" />
		<tag k="place" v="farm" />
		<tag k="ssr:stedsnr" v="916200" />
	</node>
	<node id="-249186" lat="60.0967027812" lon="11.133144447">
		<tag k="fixme" v="consider place=hamlet" />
		<tag k="name" v="Holum" />
		<tag k="place" v="farm" />
		<tag k="ssr:stedsnr" v="916074" />
	</node>
	<node id="-249185" lat="60.0845361151" lon="11.2119472239">
		<tag k="alt_name" v="Villersrud" />
		<tag k="name" v="Viljesrud" />
		<tag k="place" v="farm" />
		<tag k="ssr:stedsnr" v="915093" />
	</node>
	<node id="-249184" lat="60.1047249961" lon="11.3012472231">
		<tag k="name" v="Granli" />
		<tag k="place" v="farm" />
		<tag k="ssr:stedsnr" v="769702" />
	</node>
	<node id="-249183" lat="60.1200083376" lon="11.1147694363">
		<tag k="alt_name" v="Haga" />
		<tag k="name" v="Nordre Haga" />
		<tag k="place" v="farm" />
		<tag k="ssr:stedsnr" v="769666" />
	</node>
	<node id="-249182" lat="60.0693972236" lon="11.1268222179">
		<tag k="name" v="Statfram" />
		<tag k="place" v="locality" />
		<tag k="ssr:stedsnr" v="908970" />
	</node>
	<node id="-249181" lat="60.1306555565" lon="11.1751361065">
		<tag k="name" v="Fjelly" />
		<tag k="place" v="isolated_dwelling" />
		<tag k="ssr:stedsnr" v="915139" />
	</node>
	<node id="-249180" lat="60.06967153" lon="11.2143400101">
		<tag k="fixme" v="consider place=hamlet" />
		<tag k="name" v="Stokker" />
		<tag k="place" v="farm" />
		<tag k="ssr:stedsnr" v="915052" />
	</node>
	<node id="-249179" lat="60.0715750009" lon="11.2001138805">
		<tag k="name" v="Sørli" />
		<tag k="place" v="farm" />
		<tag k="ssr:stedsnr" v="915050" />
	</node>
	<node id="-249178" lat="60.0742666662" lon="11.1181083412">
		<tag k="name" v="Tveiter" />
		<tag k="place" v="farm" />
		<tag k="ssr:stedsnr" v="915046" />
	</node>
	<node id="-249177" lat="60.0823416662" lon="11.2245416597">
		<tag k="fixme" v="consider place=hamlet" />
		<tag k="name" v="Sørby" />
		<tag k="place" v="farm" />
		<tag k="ssr:stedsnr" v="915034" />
	</node>
	<node id="-249176" lat="60.144149996" lon="11.2179861037">
		<tag k="name" v="Holm" />
		<tag k="place" v="farm" />
		<tag k="ssr:stedsnr" v="908650" />
	</node>
	<node id="-249175" lat="60.1415750015" lon="11.2146777828">
		<tag k="name" v="Brekkedal" />
		<tag k="place" v="farm" />
		<tag k="ssr:stedsnr" v="908632" />
	</node>
	<node id="-249174" lat="60.1407611108" lon="11.2133444364">
		<tag k="name" v="Gystadflaen" />
		<tag k="place" v="farm" />
		<tag k="ssr:stedsnr" v="908630" />
	</node>
	<node id="-249173" lat="60.142213887" lon="11.1794166585">
		<tag k="building" v="industrial" />
		<tag k="name" v="Ullensaker dampsag og høvleri" />
		<tag k="ssr:stedsnr" v="908625" />
	</node>
	<node id="-249172" lat="60.1370972188" lon="11.1637888908">
		<tag k="name" v="Brinken" />
		<tag k="place" v="quarter" />
		<tag k="ssr:stedsnr" v="908576" />
	</node>
	<node id="-249171" lat="60.1447305558" lon="11.2618527865">
		<tag k="name" v="Søndre Algarheim" />
		<tag k="place" v="farm" />
		<tag k="ssr:stedsnr" v="907913" />
	</node>
	<node id="-249170" lat="60.1513833322" lon="11.2875527774">
		<tag k="name" v="Engen" />
		<tag k="place" v="farm" />
		<tag k="ssr:stedsnr" v="907862" />
	</node>
	<node id="-249169" lat="60.1914277795" lon="11.2599416753">
		<tag k="leisure" v="pitch" />
		<tag k="name" v="Stensby stadion" />
		<tag k="ssr:stedsnr" v="907676" />
	</node>
	<node id="-249168" lat="60.1842333299" lon="11.246588888">
		<tag k="name" v="Skrytmoen" />
		<tag k="place" v="locality" />
		<tag k="ssr:stedsnr" v="907666" />
	</node>
	<node id="-249167" lat="60.1869441833" lon="11.2550943068">
		<tag k="name" v="Vestre Støvner" />
		<tag k="place" v="farm" />
		<tag k="ssr:stedsnr" v="907665" />
	</node>
	<node id="-249166" lat="60.2084583337" lon="11.1501861038">
		<tag k="alt_name" v="Elstad østre" />
		<tag k="name" v="Østre Elstad" />
		<tag k="place" v="farm" />
		<tag k="ssr:stedsnr" v="907650" />
	</node>
	<node id="-249165" lat="60.2093000006" lon="11.1493583339">
		<tag k="alt_name" v="Elstad vestre" />
		<tag k="name" v="Vestre Elstad" />
		<tag k="place" v="farm" />
		<tag k="ssr:stedsnr" v="907649" />
	</node>
	<node id="-249164" lat="60.203372226" lon="11.1658777743">
		<tag k="name" v="Klopphaugen" />
		<tag k="place" v="locality" />
		<tag k="ssr:stedsnr" v="907643" />
	</node>
	<node id="-249163" lat="60.2316777767" lon="11.112280557">
		<tag k="name" v="Storkulpen" />
		<tag k="natural" v="wetland" />
		<tag k="ssr:stedsnr" v="907592" />
	</node>
	<node id="-249162" lat="60.2258583364" lon="11.2364722143">
		<tag k="alt_name" v="Nordre Hjelkerud" />
		<tag k="name" v="Nordre Jelkerud" />
		<tag k="place" v="farm" />
		<tag k="ssr:stedsnr" v="907570" />
	</node>
	<node id="-249161" lat="60.1805722234" lon="11.2326138917">
		<tag k="name" v="Moen" />
		<tag k="place" v="farm" />
		<tag k="ssr:stedsnr" v="733236" />
	</node>
	<node id="-249160" lat="60.1393708778" lon="11.2047965833">
		<tag k="fixme" v="consider place=hamlet" />
		<tag k="name" v="Gystad" />
		<tag k="place" v="farm" />
		<tag k="ssr:stedsnr" v="733144" />
	</node>
	<node id="-249159" lat="60.1147166641" lon="11.2374555578">
		<tag k="alt_name" v="Ødegården" />
		<tag k="name" v="Ødegarden" />
		<tag k="old_name" v="Ødegaarden" />
		<tag k="place" v="farm" />
		<tag k="ssr:stedsnr" v="733123" />
	</node>
	<node id="-249158" lat="60.1116222189" lon="11.1809027776">
		<tag k="alt_name" v="Høgfjellet" />
		<tag k="name" v="Høyfjellet" />
		<tag k="place" v="farm" />
		<tag k="ssr:stedsnr" v="733120" />
	</node>
	<node id="-249157" lat="60.1170972183" lon="11.144908339">
		<tag k="name" v="Dragvoll" />
		<tag k="place" v="farm" />
		<tag k="ssr:stedsnr" v="733109" />
	</node>
	<node id="-249156" lat="60.0650527787" lon="11.1366583298">
		<tag k="name" v="Søndre Bakke" />
		<tag k="place" v="quarter" />
		<tag k="ssr:stedsnr" v="726973" />
	</node>
	<node id="-249155" lat="60.0772861086" lon="11.1075388955">
		<tag k="name" v="Elverhøy" />
		<tag k="place" v="isolated_dwelling" />
		<tag k="ssr:stedsnr" v="726963" />
	</node>
	<node id="-249154" lat="60.0780777802" lon="11.1904277868">
		<tag k="name" v="Rogndalsbekken" />
		<tag k="ssr:stedsnr" v="726961" />
		<tag k="waterway" v="stream" />
	</node>
	<node id="-249152" lat="60.1495305578" lon="11.1504444462">
		<tag k="name" v="Holen" />
		<tag k="place" v="farm" />
		<tag k="ssr:stedsnr" v="726554" />
	</node>
	<node id="-249151" lat="60.143575" lon="11.125594437">
		<tag k="name" v="Nordre Hovin" />
		<tag k="place" v="farm" />
		<tag k="ssr:stedsnr" v="726552" />
	</node>
	<node id="-249150" lat="60.2154916622" lon="11.2397555624">
		<tag k="name" v="Tjernstutjern" />
		<tag k="natural" v="water" />
		<tag k="ssr:stedsnr" v="725588" />
	</node>
	<node id="-249149" lat="60.198016667" lon="11.3040083369">
		<tag k="alt_name" v="Grøndalen nordre" />
		<tag k="name" v="Nordre Grøndalen" />
		<tag k="place" v="farm" />
		<tag k="ssr:stedsnr" v="725576" />
	</node>
	<node id="-249148" lat="60.2279000006" lon="11.1851055551">
		<tag k="name" v="Delsmyra" />
		<tag k="natural" v="wetland" />
		<tag k="ssr:stedsnr" v="725558" />
	</node>
	<node id="-249147" lat="60.1700888883" lon="11.3080888862">
		<tag k="name" v="Haraldstad" />
		<tag k="place" v="farm" />
		<tag k="ssr:stedsnr" v="709357" />
	</node>
	<node id="-249145" lat="60.1545277824" lon="11.2392999938">
		<tag k="name" v="Brenni" />
		<tag k="place" v="farm" />
		<tag k="ssr:stedsnr" v="709346" />
	</node>
	<node id="-249144" lat="60.1309963495" lon="11.1034761188">
		<tag k="alt_name" v="Sundby nedre" />
		<tag k="name" v="Nedre Sundby" />
		<tag k="place" v="farm" />
		<tag k="ssr:stedsnr" v="891672" />
	</node>
	<node id="-249143" lat="60.1690333324" lon="11.1713333374">
		<tag k="leisure" v="park" />
		<tag k="name" v="Svenskestusletta" />
		<tag k="ssr:stedsnr" v="891506" />
	</node>
	<node id="-249142" lat="60.1101166703" lon="11.2376861049">
		<tag k="name" v="Hesthagen" />
		<tag k="place" v="farm" />
		<tag k="ssr:stedsnr" v="891420" />
	</node>
	<node id="-249141" lat="60.0958722227" lon="11.2901250051">
		<tag k="alt_name" v="Vettal søndre" />
		<tag k="name" v="Søndre Vettal" />
		<tag k="place" v="farm" />
		<tag k="ssr:stedsnr" v="891417" />
	</node>
	<node id="-249140" lat="60.0942138875" lon="11.2836944487">
		<tag k="alt_name" v="Vettal mellom" />
		<tag k="name" v="Mellom-Vettal" />
		<tag k="place" v="farm" />
		<tag k="ssr:stedsnr" v="891414" />
	</node>
	<node id="-249138" lat="60.1638666663" lon="11.2516499944">
		<tag k="name" v="Furusetbråten" />
		<tag k="place" v="farm" />
		<tag k="ssr:stedsnr" v="891361" />
	</node>
	<node id="-249137" lat="60.1361916634" lon="11.2260749972">
		<tag k="name" v="Rismoen" />
		<tag k="place" v="quarter" />
		<tag k="ssr:stedsnr" v="665666" />
	</node>
	<node id="-249136" lat="60.0825222236" lon="11.1692527745">
		<tag k="name" v="Ullensaker prestegård" />
		<tag k="place" v="farm" />
		<tag k="ssr:stedsnr" v="665949" />
	</node>
	<node id="-249135" lat="60.0829527786" lon="11.1605611099">
		<tag k="name" v="Kirkedalen" />
		<tag k="place" v="farm" />
		<tag k="ssr:stedsnr" v="665947" />
	</node>
	<node id="-249133" lat="60.0811500033" lon="11.1833138925">
		<tag k="amenity" v="community_centre" />
		<tag k="name" v="Ullindhof forsamlingslokale" />
		<tag k="ssr:stedsnr" v="665929" />
	</node>
	<node id="-249132" lat="60.2024861141" lon="11.1486055535">
		<tag k="fixme" v="consider boundary=protected_area and relevant protect_class if not nature reserve" />
		<tag k="leisure" v="nature_reserve" />
		<tag k="name" v="Elstad landskapsvernområde" />
		<tag k="ssr:stedsnr" v="664686" />
	</node>
	<node id="-249131" lat="60.2134333327" lon="11.0981305521">
		<tag k="name" v="Nordre Garderfjellet" />
		<tag k="natural" v="hill" />
		<tag k="place" v="locality" />
		<tag k="ssr:stedsnr" v="664720" />
	</node>
	<node id="-249130" lat="60.1955972252" lon="11.2428361185">
		<tag k="name" v="Igleputten" />
		<tag k="natural" v="water" />
		<tag k="ssr:stedsnr" v="664708" />
	</node>
	<node id="-249129" lat="60.191899997" lon="11.2763027704">
		<tag k="name" v="Nordset" />
		<tag k="place" v="farm" />
		<tag k="ssr:stedsnr" v="664704" />
	</node>
	<node id="-249128" lat="60.0949277773" lon="11.1768861111">
		<tag k="alt_name" v="Ramby nedre" />
		<tag k="name" v="Nedre Ramby" />
		<tag k="place" v="farm" />
		<tag k="ssr:stedsnr" v="663322" />
	</node>
	<node id="-249127" lat="60.0947777761" lon="11.1169277787">
		<tag k="alt_name" v="Holum nordre" />
		<tag k="name" v="Nordre Holum" />
		<tag k="place" v="farm" />
		<tag k="ssr:stedsnr" v="663317" />
	</node>
	<node id="-249126" lat="60.130497218" lon="11.1001388822">
		<tag k="name" v="Kolbyhaugen" />
		<tag k="place" v="farm" />
		<tag k="ssr:stedsnr" v="648668" />
	</node>
	<node id="-249125" lat="60.1257361137" lon="11.1007888824">
		<tag k="name" v="Nedre Kolby" />
		<tag k="place" v="farm" />
		<tag k="ssr:stedsnr" v="648667" />
	</node>
	<node id="-249124" lat="60.1591361089" lon="11.1624805591">
		<tag k="fixme" v="consider boundary=protected_area and relevant protect_class if not nature reserve" />
		<tag k="leisure" v="nature_reserve" />
		<tag k="name" v="Nordbytjern landskapsvernområde" />
		<tag k="ssr:stedsnr" v="648468" />
	</node>
	<node id="-249123" lat="60.1962861114" lon="11.2704361056">
		<tag k="name" v="Nordby" />
		<tag k="place" v="farm" />
		<tag k="ssr:stedsnr" v="734292" />
	</node>
	<node id="-249122" lat="60.1978970936" lon="11.2096800649">
		<tag k="name" v="Hauersetermåsan" />
		<tag k="natural" v="wetland" />
		<tag k="ssr:stedsnr" v="734288" />
	</node>
	<node id="-249120" lat="60.2513027777" lon="11.1651333273">
		<tag k="name" v="Sesvolltjernet" />
		<tag k="natural" v="water" />
		<tag k="ssr:stedsnr" v="734246" />
	</node>
	<node id="-249119" lat="60.1512232363" lon="11.0932722682">
		<tag k="fixme" v="consider place=hamlet" />
		<tag k="name" v="Kjos" />
		<tag k="place" v="farm" />
		<tag k="ssr:stedsnr" v="734183" />
	</node>
	<node id="-249118" lat="60.0942749984" lon="11.1528999991">
		<tag k="fixme" v="consider place=hamlet" />
		<tag k="name" v="Bogstad" />
		<tag k="place" v="farm" />
		<tag k="ssr:stedsnr" v="734071" />
	</node>
	<node id="-249117" lat="59.9878888898" lon="11.0846555606">
		<tag k="alt_name" v="Leirelva" />
		<tag k="name" v="Leira" />
		<tag k="ssr:stedsnr" v="733534" />
		<tag k="waterway" v="river" />
	</node>
	<node id="-249116" lat="60.2731444481" lon="11.2089194508">
		<tag k="name" v="Risa" />
		<tag k="ssr:stedsnr" v="733302" />
		<tag k="waterway" v="river" />
	</node>
	<node id="-249115" lat="60.1657891055" lon="11.1050354767">
		<tag k="alt_name" v="Mjæleberg" />
		<tag k="fixme" v="consider place=hamlet" />
		<tag k="name" v="Mjælaberg" />
		<tag k="place" v="farm" />
		<tag k="ssr:stedsnr" v="733190" />
	</node>
	<node id="-249114" lat="60.1614861113" lon="11.1091083353">
		<tag k="name" v="Melby" />
		<tag k="place" v="farm" />
		<tag k="ssr:stedsnr" v="733188" />
	</node>
	<node id="-249113" lat="60.0843277807" lon="11.2461333268">
		<tag k="name" v="Bjørnli" />
		<tag k="place" v="farm" />
		<tag k="ssr:stedsnr" v="733101" />
	</node>
	<node id="-249112" lat="60.0774944475" lon="11.2156444481">
		<tag k="name" v="Lykkja" />
		<tag k="place" v="isolated_dwelling" />
		<tag k="ssr:stedsnr" v="733052" />
	</node>
	<node id="-249111" lat="60.08214444" lon="11.1941277828">
		<tag k="name" v="Kyken" />
		<tag k="place" v="farm" />
		<tag k="ssr:stedsnr" v="733049" />
	</node>
	<node id="-249110" lat="60.1074972197" lon="11.2475666626">
		<tag k="name" v="Østre Flindrum" />
		<tag k="place" v="farm" />
		<tag k="ssr:stedsnr" v="728093" />
	</node>
	<node id="-249109" lat="60.0809416695" lon="11.1828499965">
		<tag k="junction" v="yes" />
		<tag k="name" v="Lauten" />
		<tag k="place" v="locality" />
		<tag k="ssr:stedsnr" v="726921" />
	</node>
	<node id="-249108" lat="60.0887305595" lon="11.2376027697">
		<tag k="name" v="Molstad" />
		<tag k="place" v="farm" />
		<tag k="ssr:stedsnr" v="726914" />
	</node>
	<node id="-249107" lat="60.1472444473" lon="11.125236116">
		<tag k="building" v="commercial" />
		<tag k="name" v="Hjørnet" />
		<tag k="ssr:stedsnr" v="726649" />
	</node>
	<node id="-249106" lat="60.1412111154" lon="11.2154277854">
		<tag k="name" v="Holm" />
		<tag k="place" v="locality" />
		<tag k="ssr:stedsnr" v="726638" />
	</node>
	<node id="-249105" lat="60.1319138848" lon="11.2395083244">
		<tag k="name" v="Løvstad" />
		<tag k="place" v="farm" />
		<tag k="ssr:stedsnr" v="726571" />
	</node>
	<node id="-249104" lat="60.1328222188" lon="11.2457472167">
		<tag k="name" v="Habbarstad" />
		<tag k="place" v="farm" />
		<tag k="ssr:stedsnr" v="725948" />
	</node>
	<node id="-249103" lat="60.133536115" lon="11.2870527816">
		<tag k="landuse" v="military" />
		<tag k="name" v="Onsrud" />
		<tag k="ssr:stedsnr" v="725947" />
	</node>
	<node id="-249102" lat="60.1491138931" lon="11.2780638929">
		<tag k="alt_name" v="Stokstad nedre" />
		<tag k="name" v="Nedre Stokstad" />
		<tag k="place" v="farm" />
		<tag k="ssr:stedsnr" v="725937" />
	</node>
	<node id="-249101" lat="60.1478499968" lon="11.3002777719">
		<tag k="name" v="Nordheim" />
		<tag k="place" v="farm" />
		<tag k="ssr:stedsnr" v="725895" />
	</node>
	<node id="-249100" lat="60.1813305524" lon="11.2360750035">
		<tag k="name" v="Moheim" />
		<tag k="place" v="isolated_dwelling" />
		<tag k="ssr:stedsnr" v="725688" />
	</node>
	<node id="-249099" lat="60.1923777813" lon="11.2573555493">
		<tag k="name" v="Stensbybråten" />
		<tag k="place" v="farm" />
		<tag k="ssr:stedsnr" v="725672" />
	</node>
	<node id="-249098" lat="60.219002781" lon="11.1887027764">
		<tag k="fixme" v="consider boundary=protected_area and relevant protect_class if not nature reserve" />
		<tag k="leisure" v="nature_reserve" />
		<tag k="name" v="Sandtjern naturreservat" />
		<tag k="ssr:stedsnr" v="725657" />
	</node>
	<node id="-249097" lat="60.2076666662" lon="11.1331333247">
		<tag k="name" v="Vesletjern" />
		<tag k="natural" v="water" />
		<tag k="ssr:stedsnr" v="725654" />
	</node>
	<node id="-249096" lat="60.2080083357" lon="11.1380305628">
		<tag k="name" v="Mjøntjern" />
		<tag k="natural" v="water" />
		<tag k="ssr:stedsnr" v="725653" />
	</node>
	<node id="-249095" lat="60.1053833365" lon="11.1422222273">
		<tag k="name" v="Stangerhaugen" />
		<tag k="place" v="locality" />
		<tag k="ssr:stedsnr" v="724331" />
	</node>
	<node id="-249094" lat="60.090894445" lon="11.168113881">
		<tag k="name" v="Løken" />
		<tag k="place" v="farm" />
		<tag k="ssr:stedsnr" v="724319" />
	</node>
	<node id="-249093" lat="60.1684555567" lon="11.0744583294">
		<tag k="name" v="Vikka" />
		<tag k="ssr:stedsnr" v="612725" />
		<tag k="waterway" v="stream" />
	</node>
	<node id="-249092" lat="60.0755888924" lon="11.1865750039">
		<tag k="name" v="Fredheim" />
		<tag k="place" v="farm" />
		<tag k="ssr:stedsnr" v="612047" />
	</node>
	<node id="-249091" lat="60.080438886" lon="11.1094777823">
		<tag k="name" v="Averstad" />
		<tag k="place" v="farm" />
		<tag k="ssr:stedsnr" v="612043" />
	</node>
	<node id="-249090" lat="60.1885805567" lon="11.2366055571">
		<tag k="name" v="Inngjerdinga" />
		<tag k="place" v="farm" />
		<tag k="ssr:stedsnr" v="611227" />
	</node>
	<node id="-249089" lat="60.0681777796" lon="11.1818249992">
		<tag k="alt_name" v="Romsås søndre" />
		<tag k="name" v="Søndre Romsås" />
		<tag k="place" v="farm" />
		<tag k="ssr:stedsnr" v="604985" />
	</node>
	<node id="-249088" lat="60.0676583331" lon="11.1360722287">
		<tag k="name" v="Nordre Bakke" />
		<tag k="place" v="quarter" />
		<tag k="ssr:stedsnr" v="604982" />
	</node>
	<node id="-249087" lat="60.0878271891" lon="11.1249127262">
		<tag k="fixme" v="consider place=hamlet" />
		<tag k="name" v="Nedre Olstad" />
		<tag k="place" v="farm" />
		<tag k="ssr:stedsnr" v="604821" />
	</node>
	<node id="-249086" lat="60.1335388849" lon="11.1732416631">
		<tag k="name" v="Tungen" />
		<tag k="place" v="quarter" />
		<tag k="ssr:stedsnr" v="604559" />
	</node>
	<node id="-249085" lat="60.1394527787" lon="11.2098888976">
		<tag k="name" v="Gystad" />
		<tag k="place" v="farm" />
		<tag k="ssr:stedsnr" v="604604" />
	</node>
	<node id="-249084" lat="60.2295861093" lon="11.2253305578">
		<tag k="name" v="Sætre" />
		<tag k="place" v="farm" />
		<tag k="ssr:stedsnr" v="603586" />
	</node>
	<node id="-249083" lat="60.1036666653" lon="11.1522749919">
		<tag k="name" v="Østre Stanger" />
		<tag k="place" v="farm" />
		<tag k="ssr:stedsnr" v="602355" />
	</node>
	<node id="-249082" lat="60.1102583324" lon="11.1487749963">
		<tag k="bridge" v="yes" />
		<tag k="layer" v="1" />
		<tag k="name" v="Haug" />
		<tag k="ssr:stedsnr" v="714752" />
	</node>
	<node id="-249081" lat="60.1569777759" lon="11.1512944449">
		<tag k="bridge" v="yes" />
		<tag k="layer" v="1" />
		<tag k="name" v="Svarttjern" />
		<tag k="ssr:stedsnr" v="714746" />
	</node>
	<node id="-249080" lat="60.165163886" lon="11.1582888829">
		<tag k="bridge" v="yes" />
		<tag k="layer" v="1" />
		<tag k="name" v="Valhall" />
		<tag k="ssr:stedsnr" v="714738" />
	</node>
	<node id="-249079" lat="60.1173833327" lon="11.1282611101">
		<tag k="name" v="Bergstuen" />
		<tag k="place" v="farm" />
		<tag k="ssr:stedsnr" v="587673" />
	</node>
	<node id="-249078" lat="60.1181638888" lon="11.1238833273">
		<tag k="name" v="Haga" />
		<tag k="place" v="farm" />
		<tag k="ssr:stedsnr" v="587670" />
	</node>
	<node id="-249077" lat="60.1108388908" lon="11.3039416654">
		<tag k="alt_name" v="Reierstad søndre" />
		<tag k="name" v="Søndre Reierstad" />
		<tag k="place" v="farm" />
		<tag k="ssr:stedsnr" v="587718" />
	</node>
	<node id="-249076" lat="60.1597388883" lon="11.1728111108">
		<tag k="name" v="Krusestua" />
		<tag k="place" v="farm" />
		<tag k="ssr:stedsnr" v="587506" />
	</node>
	<node id="-249075" lat="60.1169222244" lon="11.1250444368">
		<tag k="name" v="Haga" />
		<tag k="place" v="farm" />
		<tag k="ssr:stedsnr" v="709639" />
	</node>
	<node id="-249074" lat="60.1707333335" lon="11.1435027745">
		<tag k="name" v="Kjøltjerndumpa" />
		<tag k="natural" v="water" />
		<tag k="ssr:stedsnr" v="709500" />
	</node>
	<node id="-249073" lat="60.1613111084" lon="11.1352638925">
		<tag k="leisure" v="pitch" />
		<tag k="name" v="Olaløkka" />
		<tag k="ssr:stedsnr" v="709481" />
	</node>
	<node id="-249072" lat="60.1010083361" lon="11.2377166683">
		<tag k="alt_name" v="Lund nedre" />
		<tag k="name" v="Nedre Lund" />
		<tag k="place" v="farm" />
		<tag k="ssr:stedsnr" v="709382" />
	</node>
	<node id="-249071" lat="60.093766669" lon="11.2610027839">
		<tag k="name" v="Ingjersmyr" />
		<tag k="natural" v="wetland" />
		<tag k="ssr:stedsnr" v="709377" />
	</node>
	<node id="-249070" lat="60.1003666651" lon="11.2342722184">
		<tag k="alt_name" v="Lund øvre" />
		<tag k="name" v="Øvre Lund" />
		<tag k="place" v="farm" />
		<tag k="ssr:stedsnr" v="709371" />
	</node>
	<node id="-249069" lat="60.0655944452" lon="11.2799916594">
		<tag k="name" v="Jordbærdalen" />
		<tag k="natural" v="valley" />
		<tag k="place" v="locality" />
		<tag k="ssr:stedsnr" v="707441" />
	</node>
	<node id="-249068" lat="60.2179999982" lon="11.1180694527">
		<tag k="name" v="Trandumskogen" />
		<tag k="ssr:stedsnr" v="694389" />
		<tag k="tourism" v="attraction" />
	</node>
	<node id="-249067" lat="60.0815749992" lon="11.1808972173">
		<tag k="name" v="Lauten" />
		<tag k="place" v="farm" />
		<tag k="ssr:stedsnr" v="544915" />
	</node>
	<node id="-249065" lat="60.1261305555" lon="11.3063250072">
		<tag k="name" v="Dalstua" />
		<tag k="place" v="farm" />
		<tag k="ssr:stedsnr" v="544556" />
	</node>
	<node id="-249064" lat="60.150913887" lon="11.1064472238">
		<tag k="name" v="Låke" />
		<tag k="place" v="farm" />
		<tag k="ssr:stedsnr" v="544537" />
	</node>
	<node id="-249063" lat="60.1457611142" lon="11.1641944455">
		<tag k="amenity" v="school" />
		<tag k="name" v="Jessheim skolesenter" />
		<tag k="ssr:stedsnr" v="544525" />
	</node>
	<node id="-249062" lat="60.1466444448" lon="11.1439694497">
		<tag k="alt_name" v="Haug nedre" />
		<tag k="name" v="Nedre Haug" />
		<tag k="place" v="farm" />
		<tag k="ssr:stedsnr" v="544523" />
	</node>
	<node id="-249061" lat="60.1807194486" lon="11.2551500006">
		<tag k="name" v="Austadmoen" />
		<tag k="place" v="locality" />
		<tag k="ssr:stedsnr" v="543736" />
	</node>
	<node id="-249060" lat="60.1933222229" lon="11.2636638942">
		<tag k="alt_name" v="Stensby øvre" />
		<tag k="name" v="Øvre Stensby" />
		<tag k="place" v="farm" />
		<tag k="ssr:stedsnr" v="543703" />
	</node>
	<node id="-249059" lat="60.2272027819" lon="11.1275611138">
		<tag k="name" v="Vollnesputten" />
		<tag k="natural" v="water" />
		<tag k="ssr:stedsnr" v="543612" />
	</node>
	<node id="-249058" lat="60.2151833324" lon="11.2956083298">
		<tag k="name" v="Svindalsmåsan" />
		<tag k="natural" v="wetland" />
		<tag k="ssr:stedsnr" v="541764" />
	</node>
	<node id="-249057" lat="60.1792305547" lon="11.0593333295">
		<tag k="fixme" v="consider boundary=protected_area and relevant protect_class if not nature reserve" />
		<tag k="leisure" v="nature_reserve" />
		<tag k="name" v="Romerike landskapsvernområde" />
		<tag k="ssr:stedsnr" v="690305" />
	</node>
	<node id="-249056" lat="60.1062916678" lon="11.2738222244">
		<tag k="bridge" v="yes" />
		<tag k="layer" v="1" />
		<tag k="name" v="Rømju" />
		<tag k="ssr:stedsnr" v="531778" />
	</node>
	<node id="-249055" lat="60.2375583318" lon="11.1705416598">
		<tag k="bridge" v="yes" />
		<tag k="layer" v="1" />
		<tag k="name" v="Rise" />
		<tag k="ssr:stedsnr" v="531777" />
	</node>
	<node id="-249054" lat="60.1140944475" lon="11.1949777692">
		<tag k="name" v="Sørli" />
		<tag k="place" v="farm" />
		<tag k="ssr:stedsnr" v="527643" />
	</node>
	<node id="-249053" lat="60.1197111125" lon="11.2375805474">
		<tag k="name" v="Ås" />
		<tag k="place" v="farm" />
		<tag k="ssr:stedsnr" v="527640" />
	</node>
	<node id="-249052" lat="60.1166194451" lon="11.2377499952">
		<tag k="name" v="Ås" />
		<tag k="place" v="farm" />
		<tag k="ssr:stedsnr" v="527639" />
	</node>
	<node id="-249051" lat="60.1682750039" lon="11.3013638927">
		<tag k="alt_name" v="Hjødal søndre" />
		<tag k="name" v="Søndre Hjødal" />
		<tag k="place" v="farm" />
		<tag k="ssr:stedsnr" v="527359" />
	</node>
	<node id="-249050" lat="60.1558638899" lon="11.3213111124">
		<tag k="name" v="Bergshaugen" />
		<tag k="place" v="locality" />
		<tag k="ssr:stedsnr" v="527357" />
	</node>
	<node id="-249049" lat="60.161958337" lon="11.2989222141">
		<tag k="name" v="Nordre Berg" />
		<tag k="place" v="farm" />
		<tag k="ssr:stedsnr" v="527356" />
	</node>
	<node id="-249047" lat="60.1015305517" lon="11.2461166695">
		<tag k="alt_name" v="Lund nedre" />
		<tag k="name" v="Nedre Lund" />
		<tag k="place" v="farm" />
		<tag k="ssr:stedsnr" v="526380" />
	</node>
	<node id="-249046" lat="60.101650001" lon="11.2612555645">
		<tag k="amenity" v="school" />
		<tag k="name" v="Lund skole" />
		<tag k="ssr:stedsnr" v="526377" />
	</node>
	<node id="-249045" lat="60.0946805569" lon="11.2831694459">
		<tag k="alt_name" v="Vettal store" />
		<tag k="name" v="Store Vettal" />
		<tag k="place" v="farm" />
		<tag k="ssr:stedsnr" v="526369" />
	</node>
	<node id="-249044" lat="60.0939000003" lon="11.2831888856">
		<tag k="alt_name" v="Vettal store" />
		<tag k="name" v="Store Vettal" />
		<tag k="place" v="farm" />
		<tag k="ssr:stedsnr" v="526367" />
	</node>
	<node id="-249043" lat="60.1131555581" lon="11.2608388957">
		<tag k="name" v="Horsla" />
		<tag k="ssr:stedsnr" v="490103" />
		<tag k="waterway" v="river" />
	</node>
	<node id="-249042" lat="60.2320694415" lon="11.1560333321">
		<tag k="name" v="Østli" />
		<tag k="place" v="isolated_dwelling" />
		<tag k="ssr:stedsnr" v="673354" />
	</node>
	<node id="-249041" lat="60.2211805567" lon="11.25215">
		<tag k="name" v="Østli" />
		<tag k="place" v="farm" />
		<tag k="ssr:stedsnr" v="673330" />
	</node>
	<node id="-249040" lat="60.2080611086" lon="11.1578499934">
		<tag k="name" v="Bjørtomt" />
		<tag k="place" v="farm" />
		<tag k="ssr:stedsnr" v="673295" />
	</node>
	<node id="-249039" lat="60.1550059554" lon="11.23896219">
		<tag k="fixme" v="consider place=hamlet" />
		<tag k="name" v="Brenni" />
		<tag k="place" v="farm" />
		<tag k="ssr:stedsnr" v="673239" />
	</node>
	<node id="-249038" lat="60.1606361137" lon="11.225708334">
		<tag k="fixme" v="consider natural=peak for the most distinct mountains in the district" />
		<tag k="name" v="Brennifjellet" />
		<tag k="natural" v="hill" />
		<tag k="place" v="locality" />
		<tag k="ssr:stedsnr" v="673237" />
	</node>
	<node id="-249037" lat="60.1429416633" lon="11.0962250062">
		<tag k="name" v="Rud" />
		<tag k="place" v="farm" />
		<tag k="ssr:stedsnr" v="673198" />
	</node>
	<node id="-249036" lat="60.1337893373" lon="11.1459971252">
		<tag k="name" v="Døli" />
		<tag k="place" v="farm" />
		<tag k="ssr:stedsnr" v="483573" />
	</node>
	<node id="-249035" lat="60.1093486922" lon="11.241491692">
		<tag k="fixme" v="consider place=hamlet" />
		<tag k="name" v="Flindrum" />
		<tag k="place" v="farm" />
		<tag k="ssr:stedsnr" v="673137" />
	</node>
	<node id="-249034" lat="60.1039333304" lon="11.1941916676">
		<tag k="name" v="Myrhus" />
		<tag k="place" v="farm" />
		<tag k="ssr:stedsnr" v="673125" />
	</node>
	<node id="-249033" lat="60.1157611143" lon="11.2070222305">
		<tag k="fixme" v="consider natural=peak for the most distinct mountains in the district" />
		<tag k="name" v="Oppenfjellet" />
		<tag k="natural" v="hill" />
		<tag k="place" v="locality" />
		<tag k="ssr:stedsnr" v="673123" />
	</node>
	<node id="-249032" lat="60.0969121998" lon="11.175403202">
		<tag k="fixme" v="consider place=hamlet" />
		<tag k="name" v="Ramby" />
		<tag k="place" v="farm" />
		<tag k="ssr:stedsnr" v="673079" />
	</node>
	<node id="-249031" lat="60.0930749966" lon="11.2117277747">
		<tag k="name" v="Kåstad" />
		<tag k="place" v="farm" />
		<tag k="ssr:stedsnr" v="673075" />
	</node>
	<node id="-249030" lat="60.0710805522" lon="11.2820749914">
		<tag k="name" v="Fjellet" />
		<tag k="place" v="farm" />
		<tag k="ssr:stedsnr" v="673062" />
	</node>
	<node id="-249029" lat="60.0762245657" lon="11.2738252378">
		<tag k="fixme" v="consider place=hamlet" />
		<tag k="name" v="Ormstad" />
		<tag k="place" v="farm" />
		<tag k="ssr:stedsnr" v="673044" />
	</node>
	<node id="-249028" lat="60.2355472267" lon="11.1179666614">
		<tag k="name" v="Fuglemyra" />
		<tag k="natural" v="wetland" />
		<tag k="ssr:stedsnr" v="482626" />
	</node>
	<node id="-249027" lat="60.1974583311" lon="11.3061138971">
		<tag k="alt_name" v="Grøndalen østre" />
		<tag k="name" v="Østre Grøndalen" />
		<tag k="place" v="farm" />
		<tag k="ssr:stedsnr" v="482621" />
	</node>
	<node id="-249026" lat="60.2199638907" lon="11.1635972308">
		<tag k="name" v="Moen" />
		<tag k="place" v="farm" />
		<tag k="ssr:stedsnr" v="482611" />
	</node>
	<node id="-249025" lat="60.2299194406" lon="11.16219445">
		<tag k="name" v="Løvenberg" />
		<tag k="place" v="farm" />
		<tag k="ssr:stedsnr" v="482610" />
	</node>
	<node id="-249024" lat="60.2277250029" lon="11.2280916709">
		<tag k="name" v="Sætre" />
		<tag k="place" v="farm" />
		<tag k="ssr:stedsnr" v="482605" />
	</node>
	<node id="-249022" lat="60.1037194453" lon="11.1566500071">
		<tag k="name" v="Stanger" />
		<tag k="place" v="farm" />
		<tag k="ssr:stedsnr" v="481364" />
	</node>
	<node id="-249020" lat="60.2012111119" lon="11.0655305521">
		<tag k="name" v="Fehagen" />
		<tag k="place" v="farm" />
		<tag k="ssr:stedsnr" v="672759" />
	</node>
	<node id="-249019" lat="60.1634499964" lon="11.0782083388">
		<tag k="fixme" v="consider place=hamlet" />
		<tag k="name" v="Bjørningstad" />
		<tag k="place" v="farm" />
		<tag k="ssr:stedsnr" v="672728" />
	</node>
	<node id="-249018" lat="60.1609416701" lon="11.0851861054">
		<tag k="fixme" v="consider place=hamlet" />
		<tag k="name" v="Kjos" />
		<tag k="place" v="farm" />
		<tag k="ssr:stedsnr" v="672708" />
	</node>
	<node id="-249017" lat="60.1315416693" lon="11.0812083245">
		<tag k="alt_name" v="Krokfoss" />
		<tag k="fixme" v="consider place=hamlet" />
		<tag k="name" v="Kråkfoss" />
		<tag k="old_name" v="Kraakfoss;Kraakfos" />
		<tag k="place" v="farm" />
		<tag k="ssr:stedsnr" v="672620" />
	</node>
	<node id="-249016" lat="60.2411472216" lon="11.1562333307">
		<tag k="name" v="Moen" />
		<tag k="place" v="farm" />
		<tag k="ssr:stedsnr" v="672299" />
	</node>
	<node id="-249015" lat="60.1858333361" lon="11.2728333418">
		<tag k="fixme" v="consider place=hamlet" />
		<tag k="name" v="Jaren" />
		<tag k="old_name" v="Jaeren" />
		<tag k="place" v="farm" />
		<tag k="ssr:stedsnr" v="672214" />
	</node>
	<node id="-249014" lat="60.0780638894" lon="11.2679083355">
		<tag k="name" v="Holt" />
		<tag k="place" v="farm" />
		<tag k="ssr:stedsnr" v="672045" />
	</node>
	<node id="-249013" lat="59.9922777818" lon="11.2086527771">
		<tag k="name" v="Rømua" />
		<tag k="ssr:stedsnr" v="671500" />
		<tag k="waterway" v="river" />
	</node>
	<node id="-249012" lat="60.1123305521" lon="11.1446361086">
		<tag k="alt_name" v="Ullern østre;Østre Ullern" />
		<tag k="fixme" v="consider place=hamlet" />
		<tag k="name" v="Østre Ulleren" />
		<tag k="place" v="farm" />
		<tag k="ssr:stedsnr" v="466677" />
	</node>
	<node id="-249011" lat="60.1140555583" lon="11.1529361157">
		<tag k="name" v="Bråten" />
		<tag k="place" v="locality" />
		<tag k="ssr:stedsnr" v="466674" />
	</node>
	<node id="-249010" lat="60.1319666675" lon="11.1727055521">
		<tag k="name" v="Fjellheim" />
		<tag k="place" v="farm" />
		<tag k="ssr:stedsnr" v="466668" />
	</node>
	<node id="-249009" lat="60.0903944434" lon="11.3173333274">
		<tag k="name" v="Trondshaugen" />
		<tag k="natural" v="hill" />
		<tag k="place" v="locality" />
		<tag k="ssr:stedsnr" v="466712" />
	</node>
	<node id="-249008" lat="60.0939777822" lon="11.3111444419">
		<tag k="name" v="Fåmåsan" />
		<tag k="natural" v="wetland" />
		<tag k="ssr:stedsnr" v="466710" />
	</node>
	<node id="-249007" lat="60.0957000004" lon="11.2561527841">
		<tag k="name" v="Lundsmoen" />
		<tag k="place" v="locality" />
		<tag k="ssr:stedsnr" v="466410" />
	</node>
	<node id="-249006" lat="60.0927666676" lon="11.2889722156">
		<tag k="alt_name" v="Vettal søndre" />
		<tag k="name" v="Søndre Vettal" />
		<tag k="place" v="farm" />
		<tag k="ssr:stedsnr" v="466406" />
	</node>
	<node id="-249005" lat="60.1742111111" lon="11.2926194403">
		<tag k="name" v="Mysen" />
		<tag k="place" v="farm" />
		<tag k="ssr:stedsnr" v="466355" />
	</node>
	<node id="-249004" lat="60.0722388891" lon="11.130527773">
		<tag k="name" v="Gislebekken" />
		<tag k="ssr:stedsnr" v="665978" />
		<tag k="waterway" v="stream" />
	</node>
	<node id="-249002" lat="60.1261305513" lon="11.3012111125">
		<tag k="name" v="Vollset" />
		<tag k="place" v="farm" />
		<tag k="ssr:stedsnr" v="665611" />
	</node>
	<node id="-249001" lat="60.1505472266" lon="11.0932194454">
		<tag k="name" v="Østre Kjos" />
		<tag k="place" v="farm" />
		<tag k="ssr:stedsnr" v="665591" />
	</node>
	<node id="-249000" lat="60.1112312926" lon="11.296221038">
		<tag k="alt_name" v="Reierstad søndre" />
		<tag k="name" v="Søndre Reierstad" />
		<tag k="place" v="farm" />
		<tag k="ssr:stedsnr" v="665583" />
	</node>
	<node id="-248999" lat="60.1503166689" lon="11.3190638822">
		<tag k="name" v="Syltenga" />
		<tag k="place" v="farm" />
		<tag k="ssr:stedsnr" v="664891" />
	</node>
	<node id="-248998" lat="60.2387055515" lon="11.1367055556">
		<tag k="name" v="Mellomkulpen" />
		<tag k="natural" v="wetland" />
		<tag k="ssr:stedsnr" v="664598" />
	</node>
	<node id="-248997" lat="60.1931333364" lon="11.1541638971">
		<tag k="name" v="Dagsjøen" />
		<tag k="place" v="farm" />
		<tag k="ssr:stedsnr" v="664755" />
	</node>
	<node id="-248996" lat="60.1469361116" lon="11.1371055607">
		<tag k="name" v="Raknehaugen" />
		<tag k="place" v="locality" />
		<tag k="ssr:stedsnr" v="431205" />
	</node>
	<node id="-248995" lat="60.1613527743" lon="11.1371249985">
		<tag k="name" v="Korsmo" />
		<tag k="place" v="farm" />
		<tag k="ssr:stedsnr" v="430216" />
	</node>
	<node id="-248994" lat="60.1469166638" lon="11.3235583329">
		<tag k="alt_name" v="Samega" />
		<tag k="name" v="Sameiga" />
		<tag k="place" v="farm" />
		<tag k="ssr:stedsnr" v="430143" />
	</node>
	<node id="-248993" lat="60.1254277766" lon="11.2347277817">
		<tag k="alt_name" v="Ødegard;Ødegården" />
		<tag k="name" v="Ødegarden" />
		<tag k="old_name" v="Ødegaarden" />
		<tag k="place" v="farm" />
		<tag k="ssr:stedsnr" v="430124" />
	</node>
	<node id="-248992" lat="60.1335808705" lon="11.1463432943">
		<tag k="fixme" v="consider place=hamlet" />
		<tag k="name" v="Døli" />
		<tag k="place" v="farm" />
		<tag k="ssr:stedsnr" v="430122" />
	</node>
	<node id="-248991" lat="60.1333138931" lon="11.3081777833">
		<tag k="name" v="Granholt" />
		<tag k="place" v="farm" />
		<tag k="ssr:stedsnr" v="430120" />
	</node>
	<node id="-248990" lat="60.129958336" lon="11.2388527691">
		<tag k="name" v="Ekornrud" />
		<tag k="place" v="farm" />
		<tag k="ssr:stedsnr" v="430116" />
	</node>
	<node id="-248989" lat="60.1083749974" lon="11.2890666649">
		<tag k="name" v="Fossen" />
		<tag k="place" v="farm" />
		<tag k="ssr:stedsnr" v="430112" />
	</node>
	<node id="-248988" lat="60.1074055515" lon="11.2288249985">
		<tag k="fixme" v="multiple name tags, choose one and add the other to alt_name" />
		<tag k="name" v="Borgenfjellet;Fjellet" />
		<tag k="place" v="farm" />
		<tag k="ssr:stedsnr" v="430111" />
	</node>
	<node id="-248987" lat="60.0697513007" lon="11.1840009873">
		<tag k="fixme" v="consider place=hamlet" />
		<tag k="name" v="Romsås" />
		<tag k="place" v="farm" />
		<tag k="ssr:stedsnr" v="430050" />
	</node>
	<node id="-248986" lat="60.0794638917" lon="11.3023249922">
		<tag k="historic" v="shieling" />
		<tag k="name" v="Holtsetra" />
		<tag k="place" v="locality" />
		<tag k="ssr:stedsnr" v="430033" />
	</node>
	<node id="-248985" lat="60.0897416653" lon="11.2250277809">
		<tag k="name" v="Nordre Nafstad" />
		<tag k="place" v="farm" />
		<tag k="ssr:stedsnr" v="423921" />
	</node>
	<node id="-248984" lat="60.1395916638" lon="11.1957583408">
		<tag k="name" v="Skogheim" />
		<tag k="place" v="farm" />
		<tag k="ssr:stedsnr" v="423628" />
	</node>
	<node id="-248983" lat="60.144588889" lon="11.1912111048">
		<tag k="building" v="industrial" />
		<tag k="name" v="Jessheim pelsdyrfarm" />
		<tag k="ssr:stedsnr" v="423627" />
	</node>
	<node id="-248982" lat="60.1967305598" lon="11.2733888849">
		<tag k="name" v="Nordpolen" />
		<tag k="place" v="farm" />
		<tag k="ssr:stedsnr" v="422720" />
	</node>
	<node id="-248981" lat="60.193041669" lon="11.2945472218">
		<tag k="alt_name" v="Grøndalen søndre" />
		<tag k="name" v="Søndre Grøndalen" />
		<tag k="place" v="farm" />
		<tag k="ssr:stedsnr" v="422718" />
	</node>
	<node id="-248980" lat="60.2050250005" lon="11.1509194515">
		<tag k="alt_name" v="Elstad mellom" />
		<tag k="fixme" v="multiple name tags, choose one and add the other to alt_name" />
		<tag k="name" v="Elstadjordet;Mellom-Elstad" />
		<tag k="place" v="farm" />
		<tag k="ssr:stedsnr" v="422702" />
	</node>
	<node id="-248979" lat="60.0942722245" lon="11.125511118">
		<tag k="alt_name" v="Holum vestre" />
		<tag k="name" v="Vestre Holum" />
		<tag k="place" v="farm" />
		<tag k="ssr:stedsnr" v="421323" />
	</node>
	<node id="-248978" lat="60.1058722198" lon="11.3168555476">
		<tag k="name" v="Hvamseterbekken" />
		<tag k="ssr:stedsnr" v="405720" />
		<tag k="waterway" v="stream" />
	</node>
	<node id="-248977" lat="60.1038861081" lon="11.3127555535">
		<tag k="name" v="Reierstadmåsan" />
		<tag k="natural" v="wetland" />
		<tag k="ssr:stedsnr" v="405714" />
	</node>
	<node id="-248976" lat="60.2341750004" lon="11.1447388845">
		<tag k="landuse" v="military" />
		<tag k="name" v="Sessvollmoen" />
		<tag k="old_name" v="Sesvoll" />
		<tag k="ssr:stedsnr" v="390202" />
	</node>
	<node id="-248975" lat="60.0634722196" lon="11.1487222208">
		<tag k="name" v="Isingrud" />
		<tag k="place" v="farm" />
		<tag k="ssr:stedsnr" v="362961" />
	</node>
	<node id="-248974" lat="60.1136138871" lon="11.3076083416">
		<tag k="name" v="Nedre Rolstad" />
		<tag k="place" v="farm" />
		<tag k="ssr:stedsnr" v="362557" />
	</node>
	<node id="-248973" lat="60.1172083364" lon="11.3023527849">
		<tag k="alt_name" v="Kverner nordre" />
		<tag k="name" v="Nordre Kverner" />
		<tag k="place" v="farm" />
		<tag k="ssr:stedsnr" v="362555" />
	</node>
	<node id="-248972" lat="60.1149249972" lon="11.2937527819">
		<tag k="alt_name" v="Kverner vestre" />
		<tag k="name" v="Vestre Kverner" />
		<tag k="place" v="farm" />
		<tag k="ssr:stedsnr" v="362552" />
	</node>
	<node id="-248971" lat="60.1722777771" lon="11.0975416756">
		<tag k="name" v="Brudalen" />
		<tag k="place" v="farm" />
		<tag k="ssr:stedsnr" v="361923" />
	</node>
	<node id="-248970" lat="60.1628166698" lon="11.1119694514">
		<tag k="amenity" v="school" />
		<tag k="name" v="Furusmo planteskole" />
		<tag k="ssr:stedsnr" v="361919" />
	</node>
	<node id="-248968" lat="60.1952222206" lon="11.2806277856">
		<tag k="name" v="Rotnebuhaugen" />
		<tag k="place" v="farm" />
		<tag k="ssr:stedsnr" v="360704" />
	</node>
	<node id="-248967" lat="60.1014972231" lon="11.1640777731">
		<tag k="name" v="Loding" />
		<tag k="place" v="farm" />
		<tag k="ssr:stedsnr" v="360321" />
	</node>
	<node id="-248966" lat="60.2174916706" lon="11.1636138937">
		<tag k="amenity" v="place_of_worship" />
		<tag k="denomination" v="lutheran" />
		<tag k="name" v="Mogreina kirke" />
		<tag k="old_name" v="Mogreina kapell" />
		<tag k="religion" v="christian" />
		<tag k="ssr:stedsnr" v="491304" />
	</node>
	<node id="-248965" lat="60.2074510861" lon="11.1501885613">
		<tag k="fixme" v="consider place=hamlet" />
		<tag k="name" v="Elstad" />
		<tag k="place" v="farm" />
		<tag k="ssr:stedsnr" v="491277" />
	</node>
	<node id="-248964" lat="60.1955000018" lon="11.2631416678">
		<tag k="name" v="Vestenga" />
		<tag k="place" v="farm" />
		<tag k="ssr:stedsnr" v="491259" />
	</node>
	<node id="-248963" lat="60.1570305579" lon="11.1564083279">
		<tag k="alt_name" v="Svarttjern" />
		<tag k="name" v="Svarttjernet" />
		<tag k="natural" v="water" />
		<tag k="ssr:stedsnr" v="491219" />
	</node>
	<node id="-248962" lat="60.1467438665" lon="11.1443779173">
		<tag k="fixme" v="consider place=hamlet" />
		<tag k="name" v="Haug" />
		<tag k="place" v="farm" />
		<tag k="ssr:stedsnr" v="491189" />
	</node>
	<node id="-248961" lat="60.1379361146" lon="11.3201000058">
		<tag k="name" v="Trettemo" />
		<tag k="place" v="farm" />
		<tag k="ssr:stedsnr" v="491184" />
	</node>
	<node id="-248960" lat="60.1116527771" lon="11.1310777703">
		<tag k="name" v="Asper" />
		<tag k="place" v="farm" />
		<tag k="ssr:stedsnr" v="491112" />
	</node>
	<node id="-248959" lat="60.1940055578" lon="11.0993611125">
		<tag k="aeroway" v="aerodrome" />
		<tag k="fixme" v="multiple name tags, choose one and add the other to alt_name" />
		<tag k="loc_name" v="Oslo Lufthavn, Gardermoen" />
		<tag k="name" v="Oslo lufthavn;Oslo lufthavn, Gardermoen" />
		<tag k="old_name" v="Oslo lufthavn Gardermoen;Gardermoen" />
		<tag k="ssr:stedsnr" v="490768" />
	</node>
	<node id="-248958" lat="60.241758331" lon="11.1903611021">
		<tag k="name" v="Dal" />
		<tag k="place" v="farm" />
		<tag k="ssr:stedsnr" v="490302" />
	</node>
	<node id="-248957" lat="60.219150003" lon="11.2113333269">
		<tag k="alt_name" v="Majorsæter" />
		<tag k="name" v="Majorseter" />
		<tag k="place" v="farm" />
		<tag k="ssr:stedsnr" v="490292" />
	</node>
	<node id="-248956" lat="60.2264000012" lon="11.1558361081">
		<tag k="name" v="Tangen" />
		<tag k="place" v="farm" />
		<tag k="ssr:stedsnr" v="490287" />
	</node>
	<node id="-248955" lat="60.1876777808" lon="11.2427111119">
		<tag k="name" v="Støvnermåsan" />
		<tag k="natural" v="wetland" />
		<tag k="ssr:stedsnr" v="490218" />
	</node>
	<node id="-248954" lat="60.1720638907" lon="11.2650666729">
		<tag k="name" v="Dreierud" />
		<tag k="place" v="farm" />
		<tag k="ssr:stedsnr" v="490195" />
	</node>
	<node id="-248952" lat="60.1261953466" lon="11.1009771264">
		<tag k="fixme" v="consider place=hamlet" />
		<tag k="name" v="Kolby" />
		<tag k="place" v="farm" />
		<tag k="ssr:stedsnr" v="490148" />
	</node>
	<node id="-248951" lat="60.1275166708" lon="11.2461055471">
		<tag k="name" v="Ukuset" />
		<tag k="place" v="farm" />
		<tag k="ssr:stedsnr" v="490137" />
	</node>
	<node id="-248950" lat="60.13446944" lon="11.2151555545">
		<tag k="alt_name" v="Flatbysæter" />
		<tag k="name" v="Flatbyseter" />
		<tag k="place" v="farm" />
		<tag k="ssr:stedsnr" v="490131" />
	</node>
	<node id="-248949" lat="60.1330773297" lon="11.2445376234">
		<tag k="fixme" v="consider place=hamlet" />
		<tag k="name" v="Habbarstad" />
		<tag k="old_name" v="Haberstad" />
		<tag k="place" v="farm" />
		<tag k="ssr:stedsnr" v="490129" />
	</node>
	<node id="-248948" lat="60.0952944477" lon="11.2846250086">
		<tag k="fixme" v="consider place=hamlet" />
		<tag k="name" v="Vettal" />
		<tag k="place" v="farm" />
		<tag k="ssr:stedsnr" v="490078" />
	</node>
	<node id="-248947" lat="60.0749249971" lon="11.1580055619">
		<tag k="alt_name" v="Kroksrud arbeidskoloni" />
		<tag k="amenity" v="prison" />
		<tag k="name" v="Kroksrud avdeling" />
		<tag k="ssr:stedsnr" v="490056" />
	</node>
	<node id="-248946" lat="60.0689574397" lon="11.1116093228">
		<tag k="fixme" v="consider place=hamlet" />
		<tag k="name" v="Hilton" />
		<tag k="place" v="farm" />
		<tag k="ssr:stedsnr" v="490054" />
	</node>
	<node id="-248945" lat="60.1137750017" lon="11.2449527851">
		<tag k="name" v="Styggedalsbekken" />
		<tag k="ssr:stedsnr" v="344656" />
		<tag k="waterway" v="stream" />
	</node>
	<node id="-248944" lat="60.1582666691" lon="11.2151333348">
		<tag k="name" v="Myrvoll" />
		<tag k="place" v="farm" />
		<tag k="ssr:stedsnr" v="344464" />
	</node>
	<node id="-248943" lat="60.1106305541" lon="11.2807305587">
		<tag k="name" v="Etterstua" />
		<tag k="place" v="farm" />
		<tag k="ssr:stedsnr" v="344405" />
	</node>
	<node id="-248942" lat="60.0839250016" lon="11.1790555487">
		<tag k="name" v="Nordre Lauten" />
		<tag k="place" v="farm" />
		<tag k="ssr:stedsnr" v="483932" />
	</node>
	<node id="-248941" lat="60.0814555579" lon="11.184897221">
		<tag k="name" v="Lauten" />
		<tag k="place" v="farm" />
		<tag k="ssr:stedsnr" v="483931" />
	</node>
	<node id="-248940" lat="60.073174996" lon="11.2717083283">
		<tag k="name" v="Ormstad" />
		<tag k="place" v="farm" />
		<tag k="ssr:stedsnr" v="483929" />
	</node>
	<node id="-248939" lat="60.1438749991" lon="11.1602361161">
		<tag k="name" v="Solstua" />
		<tag k="place" v="isolated_dwelling" />
		<tag k="ssr:stedsnr" v="483543" />
	</node>
	<node id="-248938" lat="60.1470361085" lon="11.1269166652">
		<tag k="amenity" v="school" />
		<tag k="name" v="Hovin skole" />
		<tag k="ssr:stedsnr" v="483646" />
	</node>
	<node id="-248937" lat="60.1912722225" lon="11.1554833266">
		<tag k="name" v="Vilberg" />
		<tag k="place" v="farm" />
		<tag k="ssr:stedsnr" v="482743" />
	</node>
	<node id="-248936" lat="60.1777388929" lon="11.2709222291">
		<tag k="name" v="Skryta" />
		<tag k="place" v="farm" />
		<tag k="ssr:stedsnr" v="482730" />
	</node>
	<node id="-248935" lat="60.1934666689" lon="11.2708888893">
		<tag k="alt_name" v="Stensby nedre" />
		<tag k="name" v="Nedre Stensby" />
		<tag k="place" v="farm" />
		<tag k="ssr:stedsnr" v="482695" />
	</node>
	<node id="-248934" lat="60.2113250032" lon="11.1628833357">
		<tag k="amenity" v="nursing_home" />
		<tag k="name" v="Bjørtomthagen pleiehjem" />
		<tag k="ssr:stedsnr" v="482686" />
	</node>
	<node id="-248933" lat="60.0868277772" lon="11.2890861174">
		<tag k="name" v="Sønstegård" />
		<tag k="place" v="farm" />
		<tag k="ssr:stedsnr" v="337487" />
	</node>
	<node id="-248932" lat="60.1312249986" lon="11.1609194461">
		<tag k="bridge" v="yes" />
		<tag k="layer" v="1" />
		<tag k="name" v="Langeland" />
		<tag k="ssr:stedsnr" v="471771" />
	</node>
	<node id="-248931" lat="60.0855611148" lon="11.2686611125">
		<tag k="bridge" v="yes" />
		<tag k="layer" v="1" />
		<tag k="name" v="Kauserud" />
		<tag k="ssr:stedsnr" v="471769" />
	</node>
	<node id="-248930" lat="60.074986113" lon="11.1388666605">
		<tag k="name" v="Kløfta stasjon" />
		<tag k="railway" v="station" />
		<tag k="ssr:stedsnr" v="301953" />
		<tag k="train" v="yes" />
	</node>
	<node id="-248929" lat="60.1317333305" lon="11.2612666743">
		<tag k="name" v="Sømoen" />
		<tag k="place" v="farm" />
		<tag k="ssr:stedsnr" v="301556" />
	</node>
	<node id="-248928" lat="60.12686389" lon="11.2899555475">
		<tag k="name" v="Onsrud ødegården" />
		<tag k="place" v="farm" />
		<tag k="ssr:stedsnr" v="301553" />
	</node>
	<node id="-248927" lat="60.1371416651" lon="11.1705638936">
		<tag k="name" v="Sundbyjordet" />
		<tag k="place" v="quarter" />
		<tag k="ssr:stedsnr" v="301521" />
	</node>
	<node id="-248926" lat="60.1396222177" lon="11.1780750023">
		<tag k="amenity" v="school" />
		<tag k="name" v="Allergot ungdomsskole" />
		<tag k="ssr:stedsnr" v="301518" />
	</node>
	<node id="-248925" lat="60.1073611078" lon="11.1270555626">
		<tag k="alt_name" v="Lystad vestre" />
		<tag k="name" v="Vestre Lystad" />
		<tag k="place" v="farm" />
		<tag k="ssr:stedsnr" v="299376" />
	</node>
	<node id="-248924" lat="60.0987444442" lon="11.1421861087">
		<tag k="name" v="Bogstadbråten" />
		<tag k="place" v="locality" />
		<tag k="ssr:stedsnr" v="299365" />
	</node>
	<node id="-248923" lat="60.097541669" lon="11.2233583246">
		<tag k="name" v="Lyshaug" />
		<tag k="place" v="farm" />
		<tag k="ssr:stedsnr" v="466398" />
	</node>
	<node id="-248922" lat="60.1724361091" lon="11.3090666609">
		<tag k="name" v="Bjørkely" />
		<tag k="place" v="farm" />
		<tag k="ssr:stedsnr" v="466383" />
	</node>
	<node id="-248921" lat="60.1722888934" lon="11.3049999961">
		<tag k="alt_name" v="Hjødal nordre" />
		<tag k="name" v="Nordre Hjødal" />
		<tag k="place" v="farm" />
		<tag k="ssr:stedsnr" v="466380" />
	</node>
	<node id="-248920" lat="60.1940112492" lon="11.0597382626">
		<tag k="fixme" v="consider place=hamlet" />
		<tag k="name" v="Garder" />
		<tag k="place" v="farm" />
		<tag k="ssr:stedsnr" v="466377" />
	</node>
	<node id="-248919" lat="60.1548305561" lon="11.234038887">
		<tag k="name" v="Brenni" />
		<tag k="place" v="farm" />
		<tag k="ssr:stedsnr" v="466367" />
	</node>
	<node id="-248918" lat="60.1254805596" lon="11.3158916614">
		<tag k="alt_name" v="Rolstad" />
		<tag k="name" v="Øvre Rolstad" />
		<tag k="place" v="farm" />
		<tag k="ssr:stedsnr" v="465536" />
	</node>
	<node id="-248917" lat="60.0659638849" lon="11.1224499973">
		<tag k="name" v="Hilton" />
		<tag k="place" v="quarter" />
		<tag k="ssr:stedsnr" v="241971" />
	</node>
	<node id="-248916" lat="60.0709249966" lon="11.1323833253">
		<tag k="name" v="Reisopp" />
		<tag k="place" v="locality" />
		<tag k="ssr:stedsnr" v="241962" />
	</node>
	<node id="-248915" lat="60.0779055555" lon="11.2046166615">
		<tag k="name" v="Huseby" />
		<tag k="place" v="farm" />
		<tag k="ssr:stedsnr" v="241920" />
	</node>
	<node id="-248914" lat="60.1436666645" lon="11.1620055639">
		<tag k="building" v="industrial" />
		<tag k="industrial" v="factory" />
		<tag k="name" v="Jessheim meieri" />
		<tag k="ssr:stedsnr" v="241503" />
	</node>
	<node id="-248913" lat="60.2530472256" lon="11.1805777863">
		<tag k="bridge" v="yes" />
		<tag k="layer" v="1" />
		<tag k="name" v="Dal" />
		<tag k="ssr:stedsnr" v="228625" />
	</node>
	<node id="-248912" lat="60.0895222212" lon="11.173455555">
		<tag k="name" v="Rambybekken" />
		<tag k="ssr:stedsnr" v="180922" />
		<tag k="waterway" v="stream" />
	</node>
	<node id="-248911" lat="60.0725083331" lon="11.207077773">
		<tag k="name" v="Enger" />
		<tag k="place" v="farm" />
		<tag k="ssr:stedsnr" v="180917" />
	</node>
	<node id="-248910" lat="60.0699361154" lon="11.2122083254">
		<tag k="name" v="Øvre Stokker" />
		<tag k="place" v="farm" />
		<tag k="ssr:stedsnr" v="180916" />
	</node>
	<node id="-248909" lat="60.0771111066" lon="11.2036472255">
		<tag k="name" v="Solhaug" />
		<tag k="place" v="farm" />
		<tag k="ssr:stedsnr" v="180911" />
	</node>
	<node id="-248908" lat="60.1376138925" lon="11.1078305492">
		<tag k="name" v="Bakketun" />
		<tag k="place" v="farm" />
		<tag k="ssr:stedsnr" v="180516" />
	</node>
	<node id="-248907" lat="60.1421500007" lon="11.1766749934">
		<tag k="name" v="Jessheim stasjon" />
		<tag k="railway" v="station" />
		<tag k="ssr:stedsnr" v="180508" />
		<tag k="train" v="yes" />
	</node>
	<node id="-248906" lat="60.1637611092" lon="11.077711114">
		<tag k="name" v="Nordre Bjørningstad" />
		<tag k="place" v="farm" />
		<tag k="ssr:stedsnr" v="179913" />
	</node>
	<node id="-248905" lat="60.1904666652" lon="11.228525002">
		<tag k="name" v="Sofrutjern" />
		<tag k="natural" v="water" />
		<tag k="ssr:stedsnr" v="179724" />
	</node>
	<node id="-248904" lat="60.2317833306" lon="11.1157027761">
		<tag k="name" v="Vekatosøkket" />
		<tag k="natural" v="wetland" />
		<tag k="ssr:stedsnr" v="179628" />
	</node>
	<node id="-248903" lat="60.1984361107" lon="11.2999944424">
		<tag k="name" v="Grønli" />
		<tag k="place" v="farm" />
		<tag k="ssr:stedsnr" v="179624" />
	</node>
	<node id="-248902" lat="60.2277722182" lon="11.1567444384">
		<tag k="alt_name" v="Fløgstad søndre" />
		<tag k="name" v="Søndre Fløgstad" />
		<tag k="place" v="farm" />
		<tag k="ssr:stedsnr" v="179612" />
	</node>
	<node id="-248901" lat="60.2284361084" lon="11.1661416662">
		<tag k="amenity" v="school" />
		<tag k="name" v="Mogreina skole" />
		<tag k="ssr:stedsnr" v="179609" />
	</node>
	<node id="-248900" lat="60.2260972238" lon="11.2293361039">
		<tag k="name" v="Sætre" />
		<tag k="place" v="farm" />
		<tag k="ssr:stedsnr" v="179602" />
	</node>
	<node id="-248899" lat="60.1310638898" lon="11.0802416745">
		<tag k="building" v="industrial" />
		<tag k="name" v="Kråkfoss mølle" />
		<tag k="ssr:stedsnr" v="284671" />
	</node>
	<node id="-248898" lat="60.1291972218" lon="11.1898083303">
		<tag k="name" v="Rambymarka" />
		<tag k="place" v="locality" />
		<tag k="ssr:stedsnr" v="284655" />
	</node>
	<node id="-248897" lat="60.1649916654" lon="11.1353944379">
		<tag k="name" v="Prestegårdsmoen" />
		<tag k="place" v="locality" />
		<tag k="ssr:stedsnr" v="284502" />
	</node>
	<node id="-248896" lat="60.1723694419" lon="11.1502083364">
		<tag k="landuse" v="military" />
		<tag k="name" v="Langdalsleiren" />
		<tag k="ssr:stedsnr" v="284501" />
	</node>
	<node id="-248895" lat="60.1111166676" lon="11.2406861043">
		<tag k="name" v="Grinderud" />
		<tag k="place" v="farm" />
		<tag k="ssr:stedsnr" v="284392" />
	</node>
	<node id="-248894" lat="60.0916638863" lon="11.250013886">
		<tag k="name" v="Heiberg" />
		<tag k="place" v="farm" />
		<tag k="ssr:stedsnr" v="284375" />
	</node>
	<node id="-248893" lat="60.1213444406" lon="11.3130111146">
		<tag k="alt_name" v="Braaten;Rolstad" />
		<tag k="fixme" v="multiple name tags, choose one and add the other to alt_name" />
		<tag k="name" v="Rolstadbråten;Bråten" />
		<tag k="old_name" v="Rolstadvangen" />
		<tag k="place" v="farm" />
		<tag k="ssr:stedsnr" v="283120" />
	</node>
	<node id="-248892" lat="60.1249444486" lon="11.1473277826">
		<tag k="alt_name" v="Trøgstad nedre" />
		<tag k="name" v="Nedre Trøgstad" />
		<tag k="place" v="farm" />
		<tag k="ssr:stedsnr" v="162677" />
	</node>
	<node id="-248891" lat="60.1268555578" lon="11.2274250071">
		<tag k="name" v="Åssand" />
		<tag k="place" v="farm" />
		<tag k="ssr:stedsnr" v="162665" />
	</node>
	<node id="-248890" lat="60.1865722191" lon="11.1632388887">
		<tag k="name" v="Vilbergtjern" />
		<tag k="natural" v="water" />
		<tag k="ssr:stedsnr" v="162354" />
	</node>
	<node id="-248889" lat="60.1875861112" lon="11.251291664">
		<tag k="alt_name" v="Søndre Støvner" />
		<tag k="name" v="Støvner" />
		<tag k="place" v="farm" />
		<tag k="ssr:stedsnr" v="162259" />
	</node>
	<node id="-248888" lat="60.2287583349" lon="11.1673916609">
		<tag k="fixme" v="consider place=suburb, village or hamlet" />
		<tag k="name" v="Mogreina" />
		<tag k="place" v="quarter" />
		<tag k="ssr:stedsnr" v="269348" />
	</node>
	<node id="-248887" lat="60.1647833321" lon="11.0571222194">
		<tag k="name" v="Sognemunn" />
		<tag k="natural" v="bay" />
		<tag k="ssr:stedsnr" v="266228" />
	</node>
	<node id="-248886" lat="60.2143138933" lon="11.2415805491">
		<tag k="name" v="Tjernstua" />
		<tag k="place" v="locality" />
		<tag k="ssr:stedsnr" v="127315" />
	</node>
	<node id="-248885" lat="60.2126694475" lon="11.1275388975">
		<tag k="landuse" v="military" />
		<tag k="name" v="Trandum" />
		<tag k="ssr:stedsnr" v="127309" />
	</node>
	<node id="-248884" lat="60.1559055598" lon="11.2861166659">
		<tag k="name" v="Bløyerud" />
		<tag k="place" v="farm" />
		<tag k="ssr:stedsnr" v="127238" />
	</node>
	<node id="-248883" lat="60.1857722244" lon="11.2691499988">
		<tag k="name" v="Vestre Jaren" />
		<tag k="place" v="farm" />
		<tag k="ssr:stedsnr" v="118682" />
	</node>
	<node id="-248882" lat="60.2090833336" lon="11.1426833372">
		<tag k="alt_name" v="Elstad mellom" />
		<tag k="name" v="Mellom-Elstad" />
		<tag k="place" v="farm" />
		<tag k="ssr:stedsnr" v="118675" />
	</node>
	<node id="-248881" lat="60.1594277751" lon="11.1406222275">
		<tag k="name" v="Skåntjern" />
		<tag k="natural" v="water" />
		<tag k="ssr:stedsnr" v="102544" />
	</node>
	<node id="-248880" lat="60.1580138884" lon="11.2194972133">
		<tag k="name" v="Brennimåsan" />
		<tag k="natural" v="wetland" />
		<tag k="ssr:stedsnr" v="102516" />
	</node>
	<node id="-248879" lat="60.2360750008" lon="11.1302444432">
		<tag k="name" v="Aurmoen" />
		<tag k="place" v="locality" />
		<tag k="ssr:stedsnr" v="248316" />
	</node>
	<node id="-248878" lat="60.2018999972" lon="11.2901444499">
		<tag k="alt_name" v="Grøndalshagen" />
		<tag k="fixme" v="multiple name tags, choose one and add the other to alt_name" />
		<tag k="name" v="Haugen;Nordhagen" />
		<tag k="place" v="farm" />
		<tag k="ssr:stedsnr" v="248265" />
	</node>
	<node id="-248877" lat="60.1942005044" lon="11.2661906377">
		<tag k="fixme" v="consider place=hamlet" />
		<tag k="name" v="Stensby" />
		<tag k="place" v="farm" />
		<tag k="ssr:stedsnr" v="248259" />
	</node>
	<node id="-248876" lat="60.1913944479" lon="11.2249750084">
		<tag k="alt_name" v="Gravtjern" />
		<tag k="name" v="Gravtjernet" />
		<tag k="natural" v="water" />
		<tag k="ssr:stedsnr" v="248256" />
	</node>
	<node id="-248875" lat="60.1781416703" lon="11.2184027732">
		<tag k="name" v="Vangen" />
		<tag k="place" v="farm" />
		<tag k="ssr:stedsnr" v="248246" />
	</node>
	<node id="-248874" lat="60.1556555536" lon="11.2877777767">
		<tag k="name" v="Tronrud" />
		<tag k="place" v="farm" />
		<tag k="ssr:stedsnr" v="248210" />
	</node>
	<node id="-248873" lat="60.1433166652" lon="11.2020555537">
		<tag k="name" v="Storbråten" />
		<tag k="place" v="farm" />
		<tag k="ssr:stedsnr" v="248177" />
	</node>
	<node id="-248872" lat="60.150908333" lon="11.3004555497">
		<tag k="name" v="Søberg" />
		<tag k="place" v="locality" />
		<tag k="ssr:stedsnr" v="248164" />
	</node>
	<node id="-248871" lat="60.1543249966" lon="11.1284138868">
		<tag k="name" v="Sand" />
		<tag k="place" v="village" />
		<tag k="ssr:stedsnr" v="248161" />
	</node>
	<node id="-248870" lat="60.1311527781" lon="11.2303444425">
		<tag k="name" v="Brattfoss" />
		<tag k="place" v="farm" />
		<tag k="ssr:stedsnr" v="248126" />
	</node>
	<node id="-248869" lat="60.0927249996" lon="11.2531249917">
		<tag k="name" v="Snippen" />
		<tag k="place" v="quarter" />
		<tag k="ssr:stedsnr" v="248072" />
	</node>
	<node id="-248868" lat="60.0743416648" lon="11.2127694407">
		<tag k="fixme" v="multiple name tags, choose one and add the other to alt_name" />
		<tag k="loc_name" v="Stubbebråten" />
		<tag k="name" v="Hagan;Stubbråten" />
		<tag k="place" v="farm" />
		<tag k="ssr:stedsnr" v="248049" />
	</node>
	<node id="-248867" lat="60.1892999998" lon="11.0646916667">
		<tag k="alt_name" v="Garder, søndre" />
		<tag k="name" v="Søndre Garder" />
		<tag k="place" v="farm" />
		<tag k="ssr:stedsnr" v="66741" />
	</node>
	<node id="-248866" lat="60.1751388865" lon="11.0727166754">
		<tag k="alt_name" v="Røgler, store;Røgler store" />
		<tag k="name" v="Store Røgler" />
		<tag k="old_name" v="Røgler, nedre" />
		<tag k="place" v="farm" />
		<tag k="ssr:stedsnr" v="66708" />
	</node>
	<node id="-248865" lat="60.161324756" lon="11.2731270357">
		<tag k="fixme" v="consider place=hamlet" />
		<tag k="name" v="Stokkstad" />
		<tag k="place" v="farm" />
		<tag k="ssr:stedsnr" v="66207" />
	</node>
	<node id="-248864" lat="60.0685138864" lon="11.1662499929">
		<tag k="alt_name" v="Ile, nordre;Ile nordre" />
		<tag k="name" v="Nordre Ile" />
		<tag k="place" v="farm" />
		<tag k="ssr:stedsnr" v="66046" />
	</node>
	<node id="-248863" lat="60.1328745079" lon="11.2904090035">
		<tag k="fixme" v="consider place=hamlet" />
		<tag k="name" v="Onsrud" />
		<tag k="place" v="farm" />
		<tag k="ssr:stedsnr" v="66127" />
	</node>
	<node id="-248862" lat="60.1031500037" lon="11.2054222151">
		<tag k="name" v="Oppen" />
		<tag k="place" v="farm" />
		<tag k="ssr:stedsnr" v="66121" />
	</node>
	<node id="-248861" lat="60.1147308955" lon="11.294278907">
		<tag k="fixme" v="consider place=hamlet" />
		<tag k="name" v="Kverner" />
		<tag k="place" v="farm" />
		<tag k="ssr:stedsnr" v="66111" />
	</node>
	<node id="-248860" lat="60.1195027763" lon="11.1143055531">
		<tag k="fixme" v="consider place=hamlet" />
		<tag k="name" v="Haga" />
		<tag k="place" v="farm" />
		<tag k="ssr:stedsnr" v="66102" />
	</node>
	<node id="-248859" lat="60.0761083357" lon="11.1249722226">
		<tag k="name" v="Tviterhellinga" />
		<tag k="place" v="quarter" />
		<tag k="ssr:stedsnr" v="241942" />
	</node>
	<node id="-248858" lat="60.0814305572" lon="11.1558416727">
		<tag k="name" v="Galgehaugen" />
		<tag k="natural" v="hill" />
		<tag k="place" v="locality" />
		<tag k="ssr:stedsnr" v="241938" />
	</node>
	<node id="-248857" lat="60.0853583306" lon="11.1212333293">
		<tag k="alt_name" v="Søndre Olstad" />
		<tag k="name" v="Olstad" />
		<tag k="place" v="farm" />
		<tag k="ssr:stedsnr" v="241936" />
	</node>
	<node id="-248856" lat="60.0871694453" lon="11.1303583327">
		<tag k="alt_name" v="Olstad øvre" />
		<tag k="name" v="Øvre Olstad" />
		<tag k="place" v="farm" />
		<tag k="ssr:stedsnr" v="241932" />
	</node>
	<node id="-248855" lat="60.1249555543" lon="11.3042972269">
		<tag k="name" v="Ringvoll" />
		<tag k="place" v="farm" />
		<tag k="ssr:stedsnr" v="241541" />
	</node>
	<node id="-248854" lat="60.1533138875" lon="11.171341668">
		<tag k="name" v="Grønbekk" />
		<tag k="place" v="farm" />
		<tag k="ssr:stedsnr" v="241599" />
	</node>
	<node id="-248853" lat="60.1420444445" lon="11.1820722312">
		<tag k="name" v="Tomtemoen" />
		<tag k="place" v="quarter" />
		<tag k="ssr:stedsnr" v="241586" />
	</node>
	<node id="-248852" lat="60.146216669" lon="11.1974805611">
		<tag k="name" v="Myrheim" />
		<tag k="place" v="farm" />
		<tag k="ssr:stedsnr" v="241582" />
	</node>
	<node id="-248851" lat="60.1366666658" lon="11.1076249974">
		<tag k="name" v="Åstad" />
		<tag k="place" v="farm" />
		<tag k="ssr:stedsnr" v="241513" />
	</node>
	<node id="-248849" lat="60.148766665" lon="11.2584361055">
		<tag k="name" v="Algarheimbråtan" />
		<tag k="place" v="farm" />
		<tag k="ssr:stedsnr" v="239954" />
	</node>
	<node id="-248848" lat="60.1458083299" lon="11.2633138896">
		<tag k="name" v="Nordre Algarheim" />
		<tag k="place" v="farm" />
		<tag k="ssr:stedsnr" v="239949" />
	</node>
	<node id="-248847" lat="60.1927083288" lon="11.1471194503">
		<tag k="name" v="Bråten" />
		<tag k="place" v="farm" />
		<tag k="ssr:stedsnr" v="239775" />
	</node>
	<node id="-248846" lat="60.1936194438" lon="11.207036113">
		<tag k="building" v="industrial" />
		<tag k="name" v="Ullensaker almenningssag" />
		<tag k="ssr:stedsnr" v="239764" />
	</node>
	<node id="-248845" lat="60.2338222239" lon="11.1207638845">
		<tag k="name" v="Bjørkehøgda" />
		<tag k="natural" v="hill" />
		<tag k="place" v="locality" />
		<tag k="ssr:stedsnr" v="239638" />
	</node>
	<node id="-248844" lat="60.1028444435" lon="11.1799083266">
		<tag k="name" v="Øvre Ramby" />
		<tag k="place" v="farm" />
		<tag k="ssr:stedsnr" v="239336" />
	</node>
	<node id="-248843" lat="60.1631750011" lon="11.0779805499">
		<tag k="name" v="Søndre Bjørningstad" />
		<tag k="place" v="farm" />
		<tag k="ssr:stedsnr" v="58915" />
	</node>
	<node id="-248842" lat="60.1531305541" lon="11.2862333343">
		<tag k="name" v="Tangen" />
		<tag k="place" v="farm" />
		<tag k="ssr:stedsnr" v="58903" />
	</node>
	<node id="-248841" lat="60.0962611118" lon="11.2225361034">
		<tag k="leisure" v="pitch" />
		<tag k="name" v="Borgen idrettsplass" />
		<tag k="ssr:stedsnr" v="41662" />
	</node>
	<node id="-248840" lat="60.1215277742" lon="11.1530444383">
		<tag k="alt_name" v="Trøgstad øvre" />
		<tag k="name" v="Øvre Trøgstad" />
		<tag k="place" v="farm" />
		<tag k="ssr:stedsnr" v="41654" />
	</node>
	<node id="-248839" lat="60.2396944412" lon="11.1783000087">
		<tag k="bridge" v="yes" />
		<tag k="layer" v="1" />
		<tag k="name" v="Søberg" />
		<tag k="ssr:stedsnr" v="228794" />
	</node>
	<node id="-248838" lat="60.1212972191" lon="11.0986499983">
		<tag k="name" v="Nordre Taugland" />
		<tag k="place" v="farm" />
		<tag k="ssr:stedsnr" v="223705" />
	</node>
	<node id="-248837" lat="60.1216277808" lon="11.2384666637">
		<tag k="name" v="Hestehagen" />
		<tag k="place" v="farm" />
		<tag k="ssr:stedsnr" v="223674" />
	</node>
	<node id="-248836" lat="60.154755556" lon="11.1677416699">
		<tag k="name" v="Tjernstua" />
		<tag k="place" v="locality" />
		<tag k="ssr:stedsnr" v="223482" />
	</node>
	<node id="-248835" lat="60.1063361093" lon="11.2714194373">
		<tag k="alt_name" v="Lund nedre" />
		<tag k="name" v="Nedre Lund" />
		<tag k="place" v="farm" />
		<tag k="ssr:stedsnr" v="223407" />
	</node>
	<node id="-248834" lat="60.1093361146" lon="11.239755561">
		<tag k="name" v="Fjellhvil" />
		<tag k="place" v="farm" />
		<tag k="ssr:stedsnr" v="223405" />
	</node>
	<node id="-248833" lat="60.1015111139" lon="11.2362027827">
		<tag k="alt_name" v="Lund øvre" />
		<tag k="name" v="Øvre Lund" />
		<tag k="place" v="farm" />
		<tag k="ssr:stedsnr" v="223403" />
	</node>
	<node id="-248832" lat="60.0990916642" lon="11.2129055614">
		<tag k="name" v="Borgenbråten" />
		<tag k="place" v="farm" />
		<tag k="ssr:stedsnr" v="223391" />
	</node>
	<node id="-248831" lat="60.1757722226" lon="11.1635194496">
		<tag k="alt_name" v="Hovinmoen grustak" />
		<tag k="landuse" v="quarry" />
		<tag k="name" v="Hovimoen grustak" />
		<tag k="ssr:stedsnr" v="223367" />
	</node>
	<node id="-248830" lat="60.1729916668" lon="11.2133138875">
		<tag k="name" v="Lisletten" />
		<tag k="place" v="isolated_dwelling" />
		<tag k="ssr:stedsnr" v="223350" />
	</node>
	<node id="-248829" lat="60.1670555579" lon="11.2589888881">
		<tag k="name" v="Sogndalen" />
		<tag k="place" v="farm" />
		<tag k="ssr:stedsnr" v="223343" />
	</node>
</osm>
