<?xml version="1.0" encoding="UTF-8"?>
<osm version="0.6" generator="osmapis">
	<node lat="60.05558288534093" lon="11.132455538568228" id="-18247">
		<tag k="fixme" v="consider place=hamlet" />
		<tag k="name" v="Skjelmerud" />
		<tag k="place" v="farm" />
		<tag k="ssr:stedsnr" v="5010" />
	</node>
	<node lat="60.09367499930836" lon="11.269444439324408" id="-18248">
		<tag k="name" v="Åmot" />
		<tag k="place" v="farm" />
		<tag k="ssr:stedsnr" v="5069" />
	</node>
	<node lat="60.168652773827375" lon="11.275322214447327" id="-18249">
		<tag k="name" v="Nyjordet" />
		<tag k="place" v="farm" />
		<tag k="ssr:stedsnr" v="5203" />
	</node>
	<node lat="60.16272956437429" lon="11.29381832209378" id="-18250">
		<tag k="fixme" v="consider place=hamlet" />
		<tag k="name" v="Berg" />
		<tag k="place" v="farm" />
		<tag k="ssr:stedsnr" v="5216" />
	</node>
	<node lat="60.10599999993143" lon="11.287319450720618" id="-18252">
		<tag k="name" v="Lørdagsrud" />
		<tag k="place" v="farm" />
		<tag k="ssr:stedsnr" v="5119" />
	</node>
	<node lat="60.15335908804054" lon="11.119183531671199" id="-18253">
		<tag k="alt_name" v="Hannestad" />
		<tag k="fixme" v="consider place=hamlet" />
		<tag k="name" v="Hanastad" />
		<tag k="place" v="farm" />
		<tag k="ssr:stedsnr" v="5167" />
	</node>
	<node lat="60.149661113171064" lon="11.201380557455417" id="-18254">
		<tag k="name" v="Nyholm" />
		<tag k="place" v="farm" />
		<tag k="ssr:stedsnr" v="5173" />
	</node>
	<node lat="60.15130278155576" lon="11.305205553668372" id="-18255">
		<tag k="name" v="Fjellet" />
		<tag k="place" v="farm" />
		<tag k="ssr:stedsnr" v="5175" />
	</node>
	<node lat="60.22806944597231" lon="11.239363887502744" id="-18256">
		<tag k="alt_name" v="Dalum" />
		<tag k="name" v="Dalom" />
		<tag k="place" v="farm" />
		<tag k="ssr:stedsnr" v="5309" />
	</node>
	<node lat="60.23072500392263" lon="11.168133340434123" id="-18257">
		<tag k="name" v="Stensrud" />
		<tag k="place" v="isolated_dwelling" />
		<tag k="ssr:stedsnr" v="5312" />
	</node>
	<node lat="60.19256388601657" lon="11.17478056131482" id="-18258">
		<tag k="name" v="Nygård" />
		<tag k="place" v="farm" />
		<tag k="ssr:stedsnr" v="6261" />
	</node>
	<node lat="60.17148889139671" lon="11.213463894415717" id="-18259">
		<tag k="name" v="Fjellmo" />
		<tag k="place" v="isolated_dwelling" />
		<tag k="ssr:stedsnr" v="41341" />
	</node>
	<node lat="60.09638055821469" lon="11.217561109976703" id="-18260">
		<tag k="alt_name" v="Borgen lille" />
		<tag k="name" v="Lille Borgen" />
		<tag k="place" v="farm" />
		<tag k="ssr:stedsnr" v="41378" />
	</node>
	<node lat="60.10083888826981" lon="11.214713897250697" id="-18261">
		<tag k="name" v="Borgenåsen" />
		<tag k="place" v="quarter" />
		<tag k="ssr:stedsnr" v="41380" />
	</node>
	<node lat="60.091594442587905" lon="11.252525002465138" id="-18262">
		<tag k="name" v="Skoveng" />
		<tag k="place" v="farm" />
		<tag k="ssr:stedsnr" v="41385" />
	</node>
	<node lat="60.193619443800806" lon="11.207036112986305" id="-18267">
		<tag k="building" v="industrial" />
		<tag k="name" v="Ullensaker almenningssag" />
		<tag k="ssr:stedsnr" v="239764" />
	</node>
	<node lat="60.19270832880862" lon="11.147119450318694" id="-18268">
		<tag k="name" v="Bråten" />
		<tag k="place" v="farm" />
		<tag k="ssr:stedsnr" v="239775" />
	</node>
	<node lat="60.14744450862624" lon="11.263799532293161" id="-18269">
		<tag k="alt_name" v="Nordre Algarheim" />
		<tag k="fixme" v="consider place=hamlet" />
		<tag k="name" v="Nordre Algrem" />
		<tag k="place" v="farm" />
		<tag k="ssr:stedsnr" v="239949" />
	</node>
	<node lat="60.14876666496691" lon="11.2584361055221" id="-18270">
		<tag k="name" v="Algarheimbråtan" />
		<tag k="place" v="farm" />
		<tag k="ssr:stedsnr" v="239954" />
	</node>
	<node lat="60.09256666432548" lon="11.154825006559616" id="-18271">
		<tag k="name" v="Søndre Bogstad" />
		<tag k="place" v="farm" />
		<tag k="ssr:stedsnr" v="57309" />
	</node>
	<node lat="60.09358942916188" lon="11.13287156411972" id="-18272">
		<tag k="alt_name" v="Holum østre" />
		<tag k="fixme" v="consider place=hamlet" />
		<tag k="name" v="Østre Holum" />
		<tag k="place" v="farm" />
		<tag k="ssr:stedsnr" v="57311" />
	</node>
	<node lat="60.10143333056936" lon="11.125955558620536" id="-18273">
		<tag k="name" v="Klomstad" />
		<tag k="place" v="farm" />
		<tag k="ssr:stedsnr" v="57318" />
	</node>
	<node lat="60.103030556009706" lon="11.162074995875102" id="-18274">
		<tag k="name" v="Loding" />
		<tag k="place" v="farm" />
		<tag k="ssr:stedsnr" v="57328" />
	</node>
	<node lat="60.10615726851359" lon="11.134477365642816" id="-18275">
		<tag k="alt_name" v="Lystad østre" />
		<tag k="fixme" v="consider place=hamlet" />
		<tag k="name" v="Østre Lystad" />
		<tag k="place" v="farm" />
		<tag k="ssr:stedsnr" v="57337" />
	</node>
	<node lat="60.19400457543827" lon="11.289354734525336" id="-18276">
		<tag k="alt_name" v="Grøndalen vestre" />
		<tag k="fixme" v="consider place=hamlet" />
		<tag k="name" v="Vestre Grøndalen" />
		<tag k="place" v="farm" />
		<tag k="ssr:stedsnr" v="57701" />
	</node>
	<node lat="60.15313055409421" lon="11.286233334281809" id="-18278">
		<tag k="name" v="Tangen" />
		<tag k="place" v="farm" />
		<tag k="ssr:stedsnr" v="58903" />
	</node>
	<node lat="60.16317500109695" lon="11.077980549853876" id="-18279">
		<tag k="name" v="Søndre Bjørningstad" />
		<tag k="place" v="farm" />
		<tag k="ssr:stedsnr" v="58915" />
	</node>
	<node lat="60.14502778187941" lon="11.210730552629832" id="-18281">
		<tag k="name" v="Vang" />
		<tag k="place" v="farm" />
		<tag k="ssr:stedsnr" v="59589" />
	</node>
	<node lat="60.15003055663124" lon="11.16946666439481" id="-18282">
		<tag k="amenity" v="school" />
		<tag k="name" v="Nordby skole" />
		<tag k="ssr:stedsnr" v="59602" />
	</node>
	<node lat="60.139952781557675" lon="11.226150001161383" id="-18283">
		<tag k="name" v="Åsmoen" />
		<tag k="place" v="quarter" />
		<tag k="ssr:stedsnr" v="59611" />
	</node>
	<node lat="60.13666666581976" lon="11.107624997362905" id="-18284">
		<tag k="name" v="Åstad" />
		<tag k="place" v="farm" />
		<tag k="ssr:stedsnr" v="241513" />
	</node>
	<node lat="60.11810955212656" lon="11.117575944699343" id="-18285">
		<tag k="fixme" v="consider place=hamlet" />
		<tag k="name" v="Haga" />
		<tag k="place" v="farm" />
		<tag k="ssr:stedsnr" v="66102" />
	</node>
	<node lat="60.151938887732" lon="11.317177775037457" id="-18286">
		<tag k="name" v="Østberg" />
		<tag k="place" v="farm" />
		<tag k="ssr:stedsnr" v="66163" />
	</node>
	<node lat="60.141716670121426" lon="11.322330551754513" id="-18288">
		<tag k="name" v="Nordmo" />
		<tag k="place" v="farm" />
		<tag k="ssr:stedsnr" v="66169" />
	</node>
	<node lat="60.068132904782935" lon="11.16717646418977" id="-18289">
		<tag k="alt_name" v="Ile, nordre;Ile nordre" />
		<tag k="fixme" v="consider place=hamlet" />
		<tag k="name" v="Nordre Ile" />
		<tag k="place" v="farm" />
		<tag k="ssr:stedsnr" v="66046" />
	</node>
	<node lat="60.16360550003541" lon="11.271216287262282" id="-18290">
		<tag k="name" v="Stokkstad" />
		<tag k="place" v="hamlet" />
		<tag k="ssr:stedsnr" v="66207" />
	</node>
	<node lat="60.184247223220076" lon="11.236849998490532" id="-18291">
		<tag k="name" v="Enga" />
		<tag k="place" v="farm" />
		<tag k="ssr:stedsnr" v="66221" />
	</node>
	<node lat="60.15331388753598" lon="11.171341668044343" id="-18292">
		<tag k="name" v="Grønbekk" />
		<tag k="place" v="farm" />
		<tag k="ssr:stedsnr" v="241599" />
	</node>
	<node lat="60.1758278741461" lon="11.073933889828915" id="-18293">
		<tag k="alt_name" v="Røgler, store;Røgler store" />
		<tag k="fixme" v="consider place=hamlet" />
		<tag k="name" v="Store Røgler" />
		<tag k="old_name" v="Røgler, nedre" />
		<tag k="place" v="farm" />
		<tag k="ssr:stedsnr" v="66708" />
	</node>
	<node lat="60.085647144167154" lon="11.125136326740387" id="-18294">
		<tag k="alt_name" v="Olstad øvre" />
		<tag k="fixme" v="consider place=hamlet" />
		<tag k="name" v="Øvre Olstad" />
		<tag k="place" v="farm" />
		<tag k="ssr:stedsnr" v="241932" />
	</node>
	<node lat="60.08535833060763" lon="11.121233329321422" id="-18295">
		<tag k="alt_name" v="Søndre Olstad" />
		<tag k="name" v="Olstad" />
		<tag k="place" v="farm" />
		<tag k="ssr:stedsnr" v="241936" />
	</node>
	<node lat="60.07610833574255" lon="11.124972222580745" id="-18297">
		<tag k="name" v="Tviterhellinga" />
		<tag k="place" v="quarter" />
		<tag k="ssr:stedsnr" v="241942" />
	</node>
	<node lat="60.06596388490719" lon="11.12244999732533" id="-18299">
		<tag k="name" v="Hilton" />
		<tag k="place" v="quarter" />
		<tag k="ssr:stedsnr" v="241971" />
	</node>
	<node lat="60.07434166482615" lon="11.21276944065358" id="-18301">
		<tag k="fixme" v="multiple name tags, choose one and add the other to alt_name" />
		<tag k="loc_name" v="Stubbebråten" />
		<tag k="name" v="Hagan;Stubbråten" />
		<tag k="place" v="farm" />
		<tag k="ssr:stedsnr" v="248049" />
	</node>
	<node lat="60.131152778140056" lon="11.23034444251027" id="-18302">
		<tag k="name" v="Brattfoss" />
		<tag k="place" v="farm" />
		<tag k="ssr:stedsnr" v="248126" />
	</node>
	<node lat="60.20189999717024" lon="11.290144449878996" id="-18303">
		<tag k="alt_name" v="Grøndalshagen" />
		<tag k="fixme" v="multiple name tags, choose one and add the other to alt_name" />
		<tag k="name" v="Nordhagen;Haugen" />
		<tag k="place" v="farm" />
		<tag k="ssr:stedsnr" v="248265" />
	</node>
	<node lat="60.17792013065004" lon="11.221194620106665" id="-18304">
		<tag k="fixme" v="consider place=hamlet" />
		<tag k="name" v="Vangen" />
		<tag k="place" v="farm" />
		<tag k="ssr:stedsnr" v="248246" />
	</node>
	<node lat="60.20912769439957" lon="11.142776294546056" id="-18305">
		<tag k="alt_name" v="Elstad mellom" />
		<tag k="name" v="Mellom-Elstad" />
		<tag k="place" v="farm" />
		<tag k="ssr:stedsnr" v="118675" />
	</node>
	<node lat="60.18577222436013" lon="11.269149998806878" id="-18306">
		<tag k="name" v="Vestre Jaren" />
		<tag k="place" v="farm" />
		<tag k="ssr:stedsnr" v="118682" />
	</node>
	<node lat="60.13993114076636" lon="11.119507593754467" id="-18307">
		<tag k="fixme" v="consider place=hamlet" />
		<tag k="name" v="Øvre Hovin" />
		<tag k="place" v="farm" />
		<tag k="ssr:stedsnr" v="119571" />
	</node>
	<node lat="60.081862169874825" lon="11.229743753635159" id="-18308">
		<tag k="name" v="Østre Sørby" />
		<tag k="place" v="farm" />
		<tag k="ssr:stedsnr" v="119930" />
	</node>
	<node lat="60.08576944758027" lon="11.196258334808766" id="-18309">
		<tag k="name" v="Granhaug" />
		<tag k="place" v="farm" />
		<tag k="ssr:stedsnr" v="119931" />
	</node>
	<node lat="60.126913893093885" lon="11.332486117631635" id="-18311">
		<tag k="name" v="Ilang" />
		<tag k="place" v="farm" />
		<tag k="ssr:stedsnr" v="126125" />
	</node>
	<node lat="60.08728055735586" lon="11.181649999679536" id="-18313">
		<tag k="fixme" v="multiple name tags, choose one and add the other to alt_name" />
		<tag k="name" v="Bakken;Lautenbakken" />
		<tag k="place" v="farm" />
		<tag k="ssr:stedsnr" v="126075" />
	</node>
	<node lat="60.1142048620955" lon="11.14303217209372" id="-18314">
		<tag k="alt_name" v="Ullern" />
		<tag k="name" v="Ulleren" />
		<tag k="place" v="hamlet" />
		<tag k="ssr:stedsnr" v="126095" />
	</node>
	<node lat="60.1116728706887" lon="11.297171510058936" id="-18315">
		<tag k="alt_name" v="Restad" />
		<tag k="fixme" v="consider place=hamlet" />
		<tag k="name" v="Reierstad" />
		<tag k="place" v="farm" />
		<tag k="ssr:stedsnr" v="126099" />
	</node>
	<node lat="60.16609999947943" lon="11.140677782188481" id="-18316">
		<tag k="alt_name" v="Langdalen" />
		<tag k="name" v="Langdal" />
		<tag k="place" v="farm" />
		<tag k="ssr:stedsnr" v="126196" />
	</node>
	<node lat="60.21266944745543" lon="11.127538897538894" id="-18318">
		<tag k="landuse" v="military" />
		<tag k="name" v="Trandum" />
		<tag k="ssr:stedsnr" v="127309" />
	</node>
	<node lat="60.21431389326422" lon="11.241580549053598" id="-18319">
		<tag k="name" v="Tjernstua" />
		<tag k="place" v="locality" />
		<tag k="ssr:stedsnr" v="127315" />
	</node>
	<node lat="60.18681474153998" lon="11.251712863459183" id="-18320">
		<tag k="alt_name" v="Søndre Støvner" />
		<tag k="fixme" v="consider place=hamlet" />
		<tag k="name" v="Støvner" />
		<tag k="place" v="farm" />
		<tag k="ssr:stedsnr" v="162259" />
	</node>
	<node lat="60.19001111059356" lon="11.27128888809162" id="-18322">
		<tag k="name" v="Rotnebu" />
		<tag k="place" v="farm" />
		<tag k="ssr:stedsnr" v="167372" />
	</node>
	<node lat="60.22609722382617" lon="11.229336103921673" id="-18325">
		<tag k="name" v="Sætre" />
		<tag k="place" v="farm" />
		<tag k="ssr:stedsnr" v="179602" />
	</node>
	<node lat="60.22843610843947" lon="11.166141666210294" id="-18326">
		<tag k="amenity" v="school" />
		<tag k="name" v="Mogreina skole" />
		<tag k="ssr:stedsnr" v="179609" />
	</node>
	<node lat="60.22777221821573" lon="11.156744438369811" id="-18327">
		<tag k="alt_name" v="Fløgstad søndre" />
		<tag k="name" v="Søndre Fløgstad" />
		<tag k="place" v="farm" />
		<tag k="ssr:stedsnr" v="179612" />
	</node>
	<node lat="60.198436110710944" lon="11.299994442434318" id="-18328">
		<tag k="name" v="Grønli" />
		<tag k="place" v="farm" />
		<tag k="ssr:stedsnr" v="179624" />
	</node>
	<node lat="60.163761109240106" lon="11.077711114032645" id="-18331">
		<tag k="name" v="Nordre Bjørningstad" />
		<tag k="place" v="farm" />
		<tag k="ssr:stedsnr" v="179913" />
	</node>
	<node lat="60.13337499964373" lon="11.288572225918388" id="-18332">
		<tag k="alt_name" v="Onsrud østre" />
		<tag k="name" v="Østre Onsrud" />
		<tag k="place" v="farm" />
		<tag k="ssr:stedsnr" v="179959" />
	</node>
	<node lat="60.07711110662619" lon="11.203647225461053" id="-18333">
		<tag k="name" v="Solhaug" />
		<tag k="place" v="farm" />
		<tag k="ssr:stedsnr" v="180911" />
	</node>
	<node lat="60.135153526573646" lon="11.173948302356878" id="-18334">
		<tag k="alt_name" v="Allergot" />
		<tag k="fixme" v="consider place=hamlet" />
		<tag k="name" v="Allergodt" />
		<tag k="place" v="farm" />
		<tag k="ssr:stedsnr" v="187129" />
	</node>
	<node lat="60.106411501407074" lon="11.128029593237196" id="-18335">
		<tag k="name" v="Lystad" />
		<tag k="place" v="hamlet" />
		<tag k="ssr:stedsnr" v="187110" />
	</node>
	<node lat="60.17043888762568" lon="11.260752769424741" id="-18338">
		<tag k="name" v="Stubberud" />
		<tag k="place" v="farm" />
		<tag k="ssr:stedsnr" v="187232" />
	</node>
	<node lat="60.17502880771818" lon="11.213691754617242" id="-18339">
		<tag k="fixme" v="consider place=hamlet" />
		<tag k="name" v="Bråten" />
		<tag k="place" v="farm" />
		<tag k="ssr:stedsnr" v="187234" />
	</node>
	<node lat="60.14400555236065" lon="11.252741668136396" id="-18341">
		<tag k="fixme" v="consider place=suburb, village or hamlet" />
		<tag k="name" v="Algarheim" />
		<tag k="place" v="quarter" />
		<tag k="ssr:stedsnr" v="188208" />
	</node>
	<node lat="60.228758334884006" lon="11.167391660917472" id="-18344">
		<tag k="fixme" v="consider place=suburb, village or hamlet" />
		<tag k="name" v="Mogreina" />
		<tag k="place" v="quarter" />
		<tag k="ssr:stedsnr" v="269348" />
	</node>
	<node lat="60.102294437266565" lon="11.234128702040284" id="-18345">
		<tag k="alt_name" v="Lund øvre" />
		<tag k="fixme" v="consider place=hamlet" />
		<tag k="name" v="Øvre Lund" />
		<tag k="place" v="farm" />
		<tag k="ssr:stedsnr" v="223403" />
	</node>
	<node lat="60.10933611458065" lon="11.239755561003397" id="-18346">
		<tag k="name" v="Fjellhvil" />
		<tag k="place" v="farm" />
		<tag k="ssr:stedsnr" v="223405" />
	</node>
	<node lat="60.10633610927236" lon="11.271419437348897" id="-18347">
		<tag k="alt_name" v="Lund nedre" />
		<tag k="name" v="Nedre Lund" />
		<tag k="place" v="farm" />
		<tag k="ssr:stedsnr" v="223407" />
	</node>
	<node lat="60.09909166421037" lon="11.212905561434175" id="-18348">
		<tag k="name" v="Borgenbråten" />
		<tag k="place" v="farm" />
		<tag k="ssr:stedsnr" v="223391" />
	</node>
	<node lat="60.121926823775645" lon="11.10158463198426" id="-18349">
		<tag k="fixme" v="consider place=hamlet" />
		<tag k="name" v="Nordre Taugland" />
		<tag k="place" v="farm" />
		<tag k="ssr:stedsnr" v="223705" />
	</node>
	<node lat="60.1028444435052" lon="11.179908326613942" id="-18351">
		<tag k="name" v="Øvre Ramby" />
		<tag k="place" v="farm" />
		<tag k="ssr:stedsnr" v="239336" />
	</node>
	<node lat="60.12495555432259" lon="11.304297226940658" id="-18353">
		<tag k="name" v="Ringvoll" />
		<tag k="place" v="farm" />
		<tag k="ssr:stedsnr" v="241541" />
	</node>
	<node lat="60.14366666447793" lon="11.162005563920548" id="-18354">
		<tag k="building" v="industrial" />
		<tag k="industrial" v="factory" />
		<tag k="name" v="Jessheim meieri" />
		<tag k="ssr:stedsnr" v="241503" />
	</node>
	<node lat="60.146216669006165" lon="11.19748056109703" id="-18355">
		<tag k="name" v="Myrheim" />
		<tag k="place" v="farm" />
		<tag k="ssr:stedsnr" v="241582" />
	</node>
	<node lat="60.142044444460296" lon="11.182072231150878" id="-18356">
		<tag k="name" v="Tomtemoen" />
		<tag k="place" v="quarter" />
		<tag k="ssr:stedsnr" v="241586" />
	</node>
	<node lat="60.077905555537946" lon="11.204616661471302" id="-18357">
		<tag k="name" v="Huseby" />
		<tag k="place" v="farm" />
		<tag k="ssr:stedsnr" v="241920" />
	</node>
	<node lat="60.09272499963636" lon="11.253124991689734" id="-18358">
		<tag k="name" v="Snippen" />
		<tag k="place" v="quarter" />
		<tag k="ssr:stedsnr" v="248072" />
	</node>
	<node lat="60.155655553583344" lon="11.287777776681773" id="-18359">
		<tag k="name" v="Tronrud" />
		<tag k="place" v="farm" />
		<tag k="ssr:stedsnr" v="248210" />
	</node>
	<node lat="60.15432499657194" lon="11.128413886810499" id="-18360">
		<tag k="name" v="Sand" />
		<tag k="place" v="village" />
		<tag k="ssr:stedsnr" v="248161" />
	</node>
	<node lat="60.15090833303377" lon="11.300455549724589" id="-18361">
		<tag k="name" v="Søberg" />
		<tag k="place" v="locality" />
		<tag k="ssr:stedsnr" v="248164" />
	</node>
	<node lat="60.143316665232035" lon="11.202055553720838" id="-18362">
		<tag k="name" v="Storbråten" />
		<tag k="place" v="farm" />
		<tag k="ssr:stedsnr" v="248177" />
	</node>
	<node lat="60.1933865163713" lon="11.26668855182279" id="-18365">
		<tag k="name" v="Stensby" />
		<tag k="place" v="hamlet" />
		<tag k="ssr:stedsnr" v="248259" />
	</node>
	<node lat="60.12134444056633" lon="11.3130111146307" id="-18366">
		<tag k="alt_name" v="Braaten;Rolstad" />
		<tag k="fixme" v="multiple name tags, choose one and add the other to alt_name" />
		<tag k="name" v="Rolstadbråten;Bråten" />
		<tag k="old_name" v="Rolstadvangen" />
		<tag k="place" v="farm" />
		<tag k="ssr:stedsnr" v="283120" />
	</node>
	<node lat="60.10752056983015" lon="11.124266469996929" id="-18368">
		<tag k="alt_name" v="Lystad vestre" />
		<tag k="fixme" v="consider place=hamlet" />
		<tag k="name" v="Vestre Lystad" />
		<tag k="place" v="farm" />
		<tag k="ssr:stedsnr" v="299376" />
	</node>
	<node lat="60.13962221773376" lon="11.178075002348512" id="-18369">
		<tag k="amenity" v="school" />
		<tag k="name" v="Allergot ungdomsskole" />
		<tag k="ssr:stedsnr" v="301518" />
	</node>
	<node lat="60.13714166507044" lon="11.17056389360836" id="-18370">
		<tag k="name" v="Sundbyjordet" />
		<tag k="place" v="quarter" />
		<tag k="ssr:stedsnr" v="301521" />
	</node>
	<node lat="60.14196111416149" lon="11.187036107698628" id="-18371">
		<tag k="name" v="Myrtangen" />
		<tag k="place" v="quarter" />
		<tag k="ssr:stedsnr" v="301580" />
	</node>
	<node lat="60.13962499822747" lon="11.204963879844811" id="-18372">
		<tag k="name" v="Gystad" />
		<tag k="place" v="farm" />
		<tag k="ssr:stedsnr" v="301584" />
	</node>
	<node lat="60.085166664469774" lon="11.194583340086613" id="-18373">
		<tag k="name" v="Kykvin" />
		<tag k="place" v="farm" />
		<tag k="ssr:stedsnr" v="301928" />
	</node>
	<node lat="60.086822224067944" lon="11.196061107942084" id="-18374">
		<tag k="name" v="Frydenlund" />
		<tag k="place" v="farm" />
		<tag k="ssr:stedsnr" v="301929" />
	</node>
	<node lat="60.08951059854514" lon="11.287672931532091" id="-18375">
		<tag k="alt_name" v="Vettal lille" />
		<tag k="fixme" v="consider place=hamlet" />
		<tag k="name" v="Lille Vettal" />
		<tag k="place" v="farm" />
		<tag k="ssr:stedsnr" v="302890" />
	</node>
	<node lat="60.07951111382838" lon="11.149274997158042" id="-18376">
		<tag k="name" v="Skibak" />
		<tag k="place" v="farm" />
		<tag k="ssr:stedsnr" v="308032" />
	</node>
	<node lat="60.23850277563371" lon="11.181400000476444" id="-18377">
		<tag k="name" v="Baskopp" />
		<tag k="place" v="farm" />
		<tag k="ssr:stedsnr" v="308303" />
	</node>
	<node lat="60.24538308832639" lon="11.167557164378536" id="-18378">
		<tag k="fixme" v="consider place=hamlet" />
		<tag k="name" v="Sesvoll" />
		<tag k="place" v="farm" />
		<tag k="ssr:stedsnr" v="308306" />
	</node>
	<node lat="60.12548055958103" lon="11.315891661371243" id="-18379">
		<tag k="alt_name" v="Rolstad" />
		<tag k="name" v="Øvre Rolstad" />
		<tag k="place" v="farm" />
		<tag k="ssr:stedsnr" v="465536" />
	</node>
	<node lat="60.188827779570126" lon="11.059491675770245" id="-18380">
		<tag k="alt_name" v="Sundby, øvre" />
		<tag k="name" v="Øvre Sundby" />
		<tag k="old_name" v="Sundby, søndre" />
		<tag k="place" v="farm" />
		<tag k="ssr:stedsnr" v="308753" />
	</node>
	<node lat="60.17243610911397" lon="11.309066660924216" id="-18381">
		<tag k="name" v="Bjørkely" />
		<tag k="place" v="farm" />
		<tag k="ssr:stedsnr" v="466383" />
	</node>
	<node lat="60.1742111110992" lon="11.292619440318914" id="-18382">
		<tag k="name" v="Mysen" />
		<tag k="place" v="farm" />
		<tag k="ssr:stedsnr" v="466355" />
	</node>
	<node lat="60.097541669043125" lon="11.223358324577193" id="-18384">
		<tag k="name" v="Lyshaug" />
		<tag k="place" v="farm" />
		<tag k="ssr:stedsnr" v="466398" />
	</node>
	<node lat="60.11063055412985" lon="11.280730558708765" id="-18385">
		<tag k="name" v="Etterstua" />
		<tag k="place" v="farm" />
		<tag k="ssr:stedsnr" v="344405" />
	</node>
	<node lat="60.15826666906021" lon="11.215133334843275" id="-18386">
		<tag k="name" v="Myrvoll" />
		<tag k="place" v="farm" />
		<tag k="ssr:stedsnr" v="344464" />
	</node>
	<node lat="60.09147500318521" lon="11.247483330987507" id="-18387">
		<tag k="name" v="Strandenga" />
		<tag k="place" v="farm" />
		<tag k="ssr:stedsnr" v="344396" />
	</node>
	<node lat="60.10149722306129" lon="11.164077773113382" id="-18390">
		<tag k="name" v="Loding" />
		<tag k="place" v="farm" />
		<tag k="ssr:stedsnr" v="360321" />
	</node>
	<node lat="60.08204800548096" lon="11.181372630680741" id="-18391">
		<tag k="alt_name" v="Lauten" />
		<tag k="fixme" v="consider place=hamlet" />
		<tag k="name" v="Store Lauten" />
		<tag k="place" v="farm" />
		<tag k="ssr:stedsnr" v="369017" />
	</node>
	<node lat="60.07950863655782" lon="11.169027498787832" id="-18392">
		<tag k="alt_name" v="Hillern" />
		<tag k="fixme" v="consider place=hamlet" />
		<tag k="name" v="Hilleren" />
		<tag k="place" v="farm" />
		<tag k="ssr:stedsnr" v="369018" />
	</node>
	<node lat="60.11726013841371" lon="11.241025148184535" id="-18393">
		<tag k="fixme" v="consider place=hamlet" />
		<tag k="name" v="Ås" />
		<tag k="place" v="farm" />
		<tag k="ssr:stedsnr" v="369103" />
	</node>
	<node lat="60.1029040548412" lon="11.150034370874295" id="-18394">
		<tag k="name" v="Stanger" />
		<tag k="place" v="hamlet" />
		<tag k="ssr:stedsnr" v="369107" />
	</node>
	<node lat="60.15662500432675" lon="11.21394166886718" id="-18396">
		<tag k="name" v="Holmsmarka" />
		<tag k="place" v="farm" />
		<tag k="ssr:stedsnr" v="369205" />
	</node>
	<node lat="60.18707221984094" lon="11.29793610453066" id="-18397">
		<tag k="name" v="Botolvshaugen" />
		<tag k="place" v="farm" />
		<tag k="ssr:stedsnr" v="369213" />
	</node>
	<node lat="60.21066944723889" lon="11.164263897677042" id="-18399">
		<tag k="name" v="Grinda" />
		<tag k="place" v="farm" />
		<tag k="ssr:stedsnr" v="369272" />
	</node>
	<node lat="60.21959594486883" lon="11.169119820974966" id="-18400">
		<tag k="fixme" v="consider place=hamlet" />
		<tag k="name" v="Elstadmoen" />
		<tag k="place" v="farm" />
		<tag k="ssr:stedsnr" v="369285" />
	</node>
	<node lat="60.17713611002034" lon="11.076013895500006" id="-18402">
		<tag k="name" v="Store Røgler" />
		<tag k="old_name" v="Øvre Røgler;Røgler, øvre" />
		<tag k="place" v="farm" />
		<tag k="ssr:stedsnr" v="369674" />
	</node>
	<node lat="60.211325003249364" lon="11.162883335711138" id="-18403">
		<tag k="amenity" v="nursing_home" />
		<tag k="name" v="Bjørtomthagen pleiehjem" />
		<tag k="ssr:stedsnr" v="482686" />
	</node>
	<node lat="60.192822189156935" lon="11.268803246677003" id="-18404">
		<tag k="alt_name" v="Stensby nedre" />
		<tag k="fixme" v="consider place=hamlet" />
		<tag k="name" v="Nedre Stensby" />
		<tag k="place" v="farm" />
		<tag k="ssr:stedsnr" v="482695" />
	</node>
	<node lat="60.17773889290693" lon="11.27092222905746" id="-18405">
		<tag k="name" v="Skryta" />
		<tag k="place" v="farm" />
		<tag k="ssr:stedsnr" v="482730" />
	</node>
	<node lat="60.191272222545145" lon="11.155483326559489" id="-18406">
		<tag k="name" v="Vilberg" />
		<tag k="place" v="farm" />
		<tag k="ssr:stedsnr" v="482743" />
	</node>
	<node lat="60.234175000353936" lon="11.144738884480326" id="-18407">
		<tag k="landuse" v="military" />
		<tag k="name" v="Sessvollmoen" />
		<tag k="old_name" v="Sesvoll" />
		<tag k="ssr:stedsnr" v="390202" />
	</node>
	<node lat="60.143874999140465" lon="11.160236116119112" id="-18408">
		<tag k="name" v="Solstua" />
		<tag k="place" v="isolated_dwelling" />
		<tag k="ssr:stedsnr" v="483543" />
	</node>
	<node lat="60.14703610847073" lon="11.126916665194967" id="-18409">
		<tag k="amenity" v="school" />
		<tag k="name" v="Hovin skole" />
		<tag k="ssr:stedsnr" v="483646" />
	</node>
	<node lat="60.07317499601819" lon="11.2717083283102" id="-18410">
		<tag k="name" v="Ormstad" />
		<tag k="place" v="farm" />
		<tag k="ssr:stedsnr" v="483929" />
	</node>
	<node lat="60.081455557934014" lon="11.18489722096776" id="-18411">
		<tag k="name" v="Lauten" />
		<tag k="place" v="farm" />
		<tag k="ssr:stedsnr" v="483931" />
	</node>
	<node lat="60.08435603604576" lon="11.177562574387428" id="-18412">
		<tag k="fixme" v="consider place=hamlet" />
		<tag k="name" v="Nordre Lauten" />
		<tag k="place" v="farm" />
		<tag k="ssr:stedsnr" v="483932" />
	</node>
	<node lat="60.16486423925932" lon="11.271311209367276" id="-18413">
		<tag k="alt_name" v="Stokstad øvre;Øvre Stokstad" />
		<tag k="fixme" v="consider place=hamlet" />
		<tag k="name" v="Øvre Stokkstad" />
		<tag k="place" v="farm" />
		<tag k="ssr:stedsnr" v="405332" />
	</node>
	<node lat="60.16149851723501" lon="11.274619317312347" id="-18414">
		<tag k="alt_name" v="Stokstad nedre;Nedre Stokstad" />
		<tag k="fixme" v="consider place=hamlet" />
		<tag k="name" v="Nedre Stokkstad" />
		<tag k="place" v="farm" />
		<tag k="ssr:stedsnr" v="405334" />
	</node>
	<node lat="60.090233334847646" lon="11.25550833727677" id="-18415">
		<tag k="name" v="Bjørklund" />
		<tag k="place" v="farm" />
		<tag k="ssr:stedsnr" v="405389" />
	</node>
	<node lat="60.205025000487026" lon="11.150919451523773" id="-18416">
		<tag k="alt_name" v="Elstad mellom;Mellom-Elstad" />
		<tag k="name" v="Elstadjordet" />
		<tag k="place" v="farm" />
		<tag k="ssr:stedsnr" v="422702" />
	</node>
	<node lat="60.1445888889762" lon="11.191211104790877" id="-18417">
		<tag k="building" v="industrial" />
		<tag k="name" v="Jessheim pelsdyrfarm" />
		<tag k="ssr:stedsnr" v="423627" />
	</node>
	<node lat="60.139591663844975" lon="11.195758340797084" id="-18418">
		<tag k="name" v="Skogheim" />
		<tag k="place" v="farm" />
		<tag k="ssr:stedsnr" v="423628" />
	</node>
	<node lat="60.143627774044546" lon="11.22409166098555" id="-18419">
		<tag k="alt_name" v="Holm søndre" />
		<tag k="name" v="Søndre Holm" />
		<tag k="place" v="farm" />
		<tag k="ssr:stedsnr" v="423656" />
	</node>
	<node lat="60.09066506904677" lon="11.22782692303565" id="-18420">
		<tag k="fixme" v="consider place=hamlet" />
		<tag k="name" v="Nordre Nafstad" />
		<tag k="place" v="farm" />
		<tag k="ssr:stedsnr" v="423921" />
	</node>
	<node lat="60.08841110813664" lon="11.123605554640237" id="-18421">
		<tag k="alt_name" v="Olstad nedre" />
		<tag k="name" v="Nedre Olstad" />
		<tag k="place" v="farm" />
		<tag k="ssr:stedsnr" v="423945" />
	</node>
	<node lat="60.133514198878125" lon="11.242959127834519" id="-18422">
		<tag k="fixme" v="consider place=hamlet" />
		<tag k="name" v="Habbarstad" />
		<tag k="old_name" v="Haberstad" />
		<tag k="place" v="farm" />
		<tag k="ssr:stedsnr" v="490129" />
	</node>
	<node lat="60.06806626252473" lon="11.119500354502394" id="-18423">
		<tag k="name" v="Hilton" />
		<tag k="place" v="hamlet" />
		<tag k="ssr:stedsnr" v="490054" />
	</node>
	<node lat="60.07492499711172" lon="11.158005561851033" id="-18424">
		<tag k="alt_name" v="Kroksrud arbeidskoloni" />
		<tag k="amenity" v="prison" />
		<tag k="name" v="Kroksrud avdeling" />
		<tag k="ssr:stedsnr" v="490056" />
	</node>
	<node lat="60.09156691996334" lon="11.286347493130085" id="-18425">
		<tag k="name" v="Vettal" />
		<tag k="place" v="hamlet" />
		<tag k="ssr:stedsnr" v="490078" />
	</node>
	<node lat="60.12689188849181" lon="11.096915636119517" id="-18426">
		<tag k="fixme" v="consider place=hamlet" />
		<tag k="name" v="Kolby" />
		<tag k="place" v="farm" />
		<tag k="ssr:stedsnr" v="490148" />
	</node>
	<node lat="60.22576903138113" lon="11.155647577761174" id="-18427">
		<tag k="fixme" v="consider place=hamlet" />
		<tag k="name" v="Tangen" />
		<tag k="place" v="farm" />
		<tag k="ssr:stedsnr" v="490287" />
	</node>
	<node lat="60.21915000299144" lon="11.211333326880853" id="-18428">
		<tag k="alt_name" v="Majorsæter" />
		<tag k="name" v="Majorseter" />
		<tag k="place" v="farm" />
		<tag k="ssr:stedsnr" v="490292" />
	</node>
	<node lat="60.06908851394756" lon="11.178870234646071" id="-18430">
		<tag k="name" v="Romsås" />
		<tag k="place" v="hamlet" />
		<tag k="ssr:stedsnr" v="430050" />
	</node>
	<node lat="60.1613527743423" lon="11.137124998458708" id="-18431">
		<tag k="name" v="Korsmo" />
		<tag k="place" v="farm" />
		<tag k="ssr:stedsnr" v="430216" />
	</node>
	<node lat="60.15084999783131" lon="11.177575004462009" id="-18432">
		<tag k="name" v="Nordby" />
		<tag k="place" v="quarter" />
		<tag k="ssr:stedsnr" v="430159" />
	</node>
	<node lat="60.22439716764737" lon="11.148338457776898" id="-18433">
		<tag k="fixme" v="consider place=hamlet" />
		<tag k="name" v="Nordmyra" />
		<tag k="place" v="farm" />
		<tag k="ssr:stedsnr" v="430302" />
	</node>
	<node lat="60.2245277766759" lon="11.165088897168003" id="-18435">
		<tag k="name" v="Møllerstad" />
		<tag k="place" v="farm" />
		<tag k="ssr:stedsnr" v="430301" />
	</node>
	<node lat="60.112822349275945" lon="11.129117640659336" id="-18437">
		<tag k="fixme" v="consider place=hamlet" />
		<tag k="name" v="Asper" />
		<tag k="place" v="farm" />
		<tag k="ssr:stedsnr" v="491112" />
	</node>
	<node lat="60.19594790679554" lon="11.260809750428798" id="-18439">
		<tag k="fixme" v="consider place=hamlet" />
		<tag k="name" v="Vestenga" />
		<tag k="place" v="farm" />
		<tag k="ssr:stedsnr" v="491259" />
	</node>
	<node lat="60.07913312352713" lon="11.271919118729178" id="-18441">
		<tag k="fixme" v="consider place=hamlet" />
		<tag k="name" v="Holt" />
		<tag k="place" v="farm" />
		<tag k="ssr:stedsnr" v="672045" />
	</node>
	<node lat="60.24114722160791" lon="11.156233330722094" id="-18442">
		<tag k="name" v="Moen" />
		<tag k="place" v="farm" />
		<tag k="ssr:stedsnr" v="672299" />
	</node>
	<node lat="60.13133028780873" lon="11.084242814028988" id="-18443">
		<tag k="alt_name" v="Krokfoss" />
		<tag k="fixme" v="consider place=hamlet" />
		<tag k="name" v="Kråkfoss" />
		<tag k="old_name" v="Kraakfoss;Kraakfos" />
		<tag k="place" v="farm" />
		<tag k="ssr:stedsnr" v="672620" />
	</node>
	<node lat="60.159224497859014" lon="11.08115959368872" id="-18444">
		<tag k="alt_name" v="Kjos" />
		<tag k="fixme" v="consider place=hamlet" />
		<tag k="name" v="Store Kjos" />
		<tag k="place" v="farm" />
		<tag k="ssr:stedsnr" v="672708" />
	</node>
	<node lat="60.20121111188928" lon="11.065530552051793" id="-18445">
		<tag k="name" v="Fehagen" />
		<tag k="place" v="farm" />
		<tag k="ssr:stedsnr" v="672759" />
	</node>
	<node lat="60.071080552161774" lon="11.282074991447217" id="-18446">
		<tag k="name" v="Fjellet" />
		<tag k="place" v="farm" />
		<tag k="ssr:stedsnr" v="673062" />
	</node>
	<node lat="60.09311538366109" lon="11.211333845556688" id="-18447">
		<tag k="fixme" v="consider place=hamlet" />
		<tag k="name" v="Kåstad" />
		<tag k="place" v="farm" />
		<tag k="ssr:stedsnr" v="673075" />
	</node>
	<node lat="60.07440882365516" lon="11.272577715301768" id="-18448">
		<tag k="fixme" v="consider place=hamlet" />
		<tag k="name" v="Ormstad" />
		<tag k="place" v="farm" />
		<tag k="ssr:stedsnr" v="673044" />
	</node>
	<node lat="60.097201686117515" lon="11.176644351847273" id="-18449">
		<tag k="name" v="Ramby" />
		<tag k="place" v="hamlet" />
		<tag k="ssr:stedsnr" v="673079" />
	</node>
	<node lat="60.10393333038292" lon="11.194191667573058" id="-18451">
		<tag k="name" v="Myrhus" />
		<tag k="place" v="farm" />
		<tag k="ssr:stedsnr" v="673125" />
	</node>
	<node lat="60.10681893379853" lon="11.247816853208098" id="-18452">
		<tag k="fixme" v="consider place=hamlet" />
		<tag k="name" v="Flindrum" />
		<tag k="place" v="farm" />
		<tag k="ssr:stedsnr" v="673137" />
	</node>
	<node lat="60.143299828765215" lon="11.093311276663803" id="-18453">
		<tag k="fixme" v="consider place=hamlet" />
		<tag k="name" v="Rud" />
		<tag k="place" v="farm" />
		<tag k="ssr:stedsnr" v="673198" />
	</node>
	<node lat="60.207588898524406" lon="11.159893254646084" id="-18454">
		<tag k="fixme" v="consider place=hamlet" />
		<tag k="name" v="Bjørtomt" />
		<tag k="place" v="farm" />
		<tag k="ssr:stedsnr" v="673295" />
	</node>
	<node lat="60.23206944147526" lon="11.156033332118106" id="-18455">
		<tag k="name" v="Østli" />
		<tag k="place" v="isolated_dwelling" />
		<tag k="ssr:stedsnr" v="673354" />
	</node>
	<node lat="60.092831878557256" lon="11.284485639528373" id="-18456">
		<tag k="alt_name" v="Vettal søndre" />
		<tag k="fixme" v="consider place=hamlet" />
		<tag k="name" v="Søndre Vettal" />
		<tag k="place" v="farm" />
		<tag k="ssr:stedsnr" v="466406" />
	</node>
	<node lat="60.15483055609873" lon="11.234038886958434" id="-18457">
		<tag k="name" v="Brenni" />
		<tag k="place" v="farm" />
		<tag k="ssr:stedsnr" v="466367" />
	</node>
	<node lat="60.19283760402262" lon="11.062815460884085" id="-18458">
		<tag k="fixme" v="consider place=hamlet" />
		<tag k="name" v="Garder" />
		<tag k="place" v="farm" />
		<tag k="ssr:stedsnr" v="466377" />
	</node>
	<node lat="60.17393562186669" lon="11.306480750939825" id="-18459">
		<tag k="alt_name" v="Hjødal nordre;Nordre Hjødal" />
		<tag k="name" v="Nordre Jødal" />
		<tag k="place" v="farm" />
		<tag k="ssr:stedsnr" v="466380" />
	</node>
	<node lat="60.13196666746607" lon="11.172705552081084" id="-18460">
		<tag k="name" v="Fjellheim" />
		<tag k="place" v="farm" />
		<tag k="ssr:stedsnr" v="466668" />
	</node>
	<node lat="60.11405555826623" lon="11.152936115742738" id="-18461">
		<tag k="name" v="Bråten" />
		<tag k="place" v="locality" />
		<tag k="ssr:stedsnr" v="466674" />
	</node>
	<node lat="60.11169394875195" lon="11.142787032678992" id="-18462">
		<tag k="alt_name" v="Ullern østre;Østre Ullern" />
		<tag k="fixme" v="consider place=hamlet" />
		<tag k="name" v="Østre Ulleren" />
		<tag k="place" v="farm" />
		<tag k="ssr:stedsnr" v="466677" />
	</node>
	<node lat="60.10371944529087" lon="11.15665000713978" id="-18468">
		<tag k="name" v="Stanger" />
		<tag k="place" v="farm" />
		<tag k="ssr:stedsnr" v="481364" />
	</node>
	<node lat="60.22772500294244" lon="11.228091670915294" id="-18470">
		<tag k="name" v="Sætre" />
		<tag k="place" v="farm" />
		<tag k="ssr:stedsnr" v="482605" />
	</node>
	<node lat="60.229919440641865" lon="11.16219445000309" id="-18471">
		<tag k="name" v="Løvenberg" />
		<tag k="place" v="farm" />
		<tag k="ssr:stedsnr" v="482610" />
	</node>
	<node lat="60.21996389068494" lon="11.163597230796029" id="-18472">
		<tag k="name" v="Moen" />
		<tag k="place" v="farm" />
		<tag k="ssr:stedsnr" v="482611" />
	</node>
	<node lat="60.19726209544803" lon="11.308422823586891" id="-18473">
		<tag k="alt_name" v="Grøndalen østre" />
		<tag k="fixme" v="consider place=hamlet" />
		<tag k="name" v="Østre Grøndalen" />
		<tag k="place" v="farm" />
		<tag k="ssr:stedsnr" v="482621" />
	</node>
	<node lat="60.13378933725419" lon="11.14599712521305" id="-18475">
		<tag k="name" v="Døli" />
		<tag k="place" v="farm" />
		<tag k="ssr:stedsnr" v="483573" />
	</node>
	<node lat="60.13446944000913" lon="11.215155554499853" id="-18478">
		<tag k="alt_name" v="Flatbysæter" />
		<tag k="name" v="Flatbyseter" />
		<tag k="place" v="farm" />
		<tag k="ssr:stedsnr" v="490131" />
	</node>
	<node lat="60.1281258509681" lon="11.244696906094106" id="-18479">
		<tag k="fixme" v="consider place=hamlet" />
		<tag k="name" v="Ukuset" />
		<tag k="place" v="farm" />
		<tag k="ssr:stedsnr" v="490137" />
	</node>
	<node lat="60.172063890725404" lon="11.265066672894314" id="-18481">
		<tag k="name" v="Dreierud" />
		<tag k="place" v="farm" />
		<tag k="ssr:stedsnr" v="490195" />
	</node>
	<node lat="60.24061828697916" lon="11.191073614871993" id="-18482">
		<tag k="fixme" v="consider place=hamlet" />
		<tag k="name" v="Dal" />
		<tag k="place" v="farm" />
		<tag k="ssr:stedsnr" v="490302" />
	</node>
	<node lat="60.13793611460888" lon="11.320100005841283" id="-18483">
		<tag k="name" v="Trettemo" />
		<tag k="place" v="farm" />
		<tag k="ssr:stedsnr" v="491184" />
	</node>
	<node lat="60.14762631972797" lon="11.14374527692906" id="-18484">
		<tag k="fixme" v="consider place=hamlet" />
		<tag k="name" v="Haug" />
		<tag k="place" v="farm" />
		<tag k="ssr:stedsnr" v="491189" />
	</node>
	<node lat="60.207451086133894" lon="11.150188561290074" id="-18486">
		<tag k="name" v="Elstad" />
		<tag k="place" v="hamlet" />
		<tag k="ssr:stedsnr" v="491277" />
	</node>
	<node lat="60.121913885480225" lon="11.247594448209671" id="-18487">
		<tag k="name" v="Vogstad" />
		<tag k="place" v="farm" />
		<tag k="ssr:stedsnr" v="526119" />
	</node>
	<node lat="60.09480953611591" lon="11.279877603343467" id="-18488">
		<tag k="alt_name" v="Vettal store" />
		<tag k="fixme" v="consider place=hamlet" />
		<tag k="name" v="Store Vettal" />
		<tag k="place" v="farm" />
		<tag k="ssr:stedsnr" v="526367" />
	</node>
	<node lat="60.094680556851564" lon="11.283169445873188" id="-18489">
		<tag k="alt_name" v="Vettal store" />
		<tag k="name" v="Store Vettal" />
		<tag k="place" v="farm" />
		<tag k="ssr:stedsnr" v="526369" />
	</node>
	<node lat="60.10165000097475" lon="11.261255564530506" id="-18490">
		<tag k="amenity" v="school" />
		<tag k="name" v="Lund skole" />
		<tag k="ssr:stedsnr" v="526377" />
	</node>
	<node lat="60.101530551747686" lon="11.246116669506176" id="-18491">
		<tag k="alt_name" v="Lund nedre" />
		<tag k="name" v="Nedre Lund" />
		<tag k="place" v="farm" />
		<tag k="ssr:stedsnr" v="526380" />
	</node>
	<node lat="60.11470023882113" lon="11.139041533241047" id="-18492">
		<tag k="alt_name" v="Ullern vestre;Vestre Ullern" />
		<tag k="fixme" v="consider place=hamlet" />
		<tag k="name" v="Vestre Ulleren" />
		<tag k="place" v="farm" />
		<tag k="ssr:stedsnr" v="527077" />
	</node>
	<node lat="60.171236110520994" lon="11.264016664553774" id="-18493">
		<tag k="name" v="Svarverud" />
		<tag k="place" v="farm" />
		<tag k="ssr:stedsnr" v="527316" />
	</node>
	<node lat="60.15749986569966" lon="11.259288771155296" id="-18494">
		<tag k="alt_name" v="Furuset øvre" />
		<tag k="fixme" v="consider place=hamlet" />
		<tag k="name" v="Øvre Furuset" />
		<tag k="place" v="farm" />
		<tag k="ssr:stedsnr" v="527318" />
	</node>
	<node lat="60.17168295258766" lon="11.214886879333998" id="-18495">
		<tag k="alt_name" v="Sletten" />
		<tag k="name" v="Sletta" />
		<tag k="place" v="farm" />
		<tag k="ssr:stedsnr" v="527325" />
	</node>
	<node lat="60.1166194451307" lon="11.237749995206128" id="-18496">
		<tag k="name" v="Ås" />
		<tag k="place" v="farm" />
		<tag k="ssr:stedsnr" v="527639" />
	</node>
	<node lat="60.119711112488744" lon="11.237580547355321" id="-18497">
		<tag k="name" v="Ås" />
		<tag k="place" v="farm" />
		<tag k="ssr:stedsnr" v="527640" />
	</node>
	<node lat="60.1140944474932" lon="11.194977769208482" id="-18498">
		<tag k="name" v="Sørli" />
		<tag k="place" v="farm" />
		<tag k="ssr:stedsnr" v="527643" />
	</node>
	<node lat="60.1939040258428" lon="11.260754711004845" id="-18504">
		<tag k="alt_name" v="Stensby øvre" />
		<tag k="fixme" v="consider place=hamlet" />
		<tag k="name" v="Øvre Stensby" />
		<tag k="place" v="farm" />
		<tag k="ssr:stedsnr" v="543703" />
	</node>
	<node lat="60.158458336513256" lon="11.071683335055736" id="-18505">
		<tag k="name" v="Nedre Hallingstad" />
		<tag k="place" v="farm" />
		<tag k="ssr:stedsnr" v="543866" />
	</node>
	<node lat="60.14908611470178" lon="11.284852774581935" id="-18506">
		<tag k="name" v="Gudmundsrud" />
		<tag k="place" v="farm" />
		<tag k="ssr:stedsnr" v="543870" />
	</node>
	<node lat="60.22737777372653" lon="11.261950006688116" id="-18507">
		<tag k="name" v="Finnhølet" />
		<tag k="place" v="farm" />
		<tag k="ssr:stedsnr" v="544271" />
	</node>
	<node lat="60.146644444784364" lon="11.14396944970969" id="-18508">
		<tag k="alt_name" v="Haug nedre" />
		<tag k="name" v="Nedre Haug" />
		<tag k="place" v="farm" />
		<tag k="ssr:stedsnr" v="544523" />
	</node>
	<node lat="60.142652773919345" lon="11.217922214886451" id="-18510">
		<tag k="name" v="Holm" />
		<tag k="place" v="farm" />
		<tag k="ssr:stedsnr" v="544611" />
	</node>
	<node lat="60.13823889304683" lon="11.22070277364318" id="-18513">
		<tag k="name" v="Holmsrøa" />
		<tag k="place" v="quarter" />
		<tag k="ssr:stedsnr" v="544626" />
	</node>
	<node lat="60.08157499920628" lon="11.18089721731813" id="-18515">
		<tag k="name" v="Lauten" />
		<tag k="place" v="farm" />
		<tag k="ssr:stedsnr" v="544915" />
	</node>
	<node lat="60.12085057771874" lon="11.099648822458128" id="-18516">
		<tag k="name" v="Taugland" />
		<tag k="place" v="hamlet" />
		<tag k="ssr:stedsnr" v="551105" />
	</node>
	<node lat="60.13488210524648" lon="11.106853404093366" id="-18518">
		<tag k="fixme" v="consider place=hamlet" />
		<tag k="name" v="Åstad" />
		<tag k="place" v="farm" />
		<tag k="ssr:stedsnr" v="551148" />
	</node>
	<node lat="60.13104050428887" lon="11.106896450370115" id="-18519">
		<tag k="alt_name" v="Nedre Sundby" />
		<tag k="fixme" v="consider place=hamlet" />
		<tag k="name" v="Sundby" />
		<tag k="place" v="farm" />
		<tag k="ssr:stedsnr" v="551150" />
	</node>
	<node lat="60.1241499996511" lon="11.306883339582212" id="-18520">
		<tag k="name" v="Dalstua" />
		<tag k="place" v="isolated_dwelling" />
		<tag k="ssr:stedsnr" v="551162" />
	</node>
	<node lat="60.06429572485823" lon="11.148484320549157" id="-18521">
		<tag k="name" v="Isingrud" />
		<tag k="place" v="farm" />
		<tag k="ssr:stedsnr" v="551004" />
	</node>
	<node lat="60.064347222604" lon="11.123027777145825" id="-18522">
		<tag k="alt_name" v="Gamle Klufta" />
		<tag k="name" v="Gamlekløfta" />
		<tag k="place" v="quarter" />
		<tag k="ssr:stedsnr" v="551056" />
	</node>
	<node lat="60.16012395235944" lon="11.111458037660782" id="-18523">
		<tag k="fixme" v="consider place=hamlet" />
		<tag k="name" v="Brattval" />
		<tag k="place" v="farm" />
		<tag k="ssr:stedsnr" v="551205" />
	</node>
	<node lat="60.16486666633476" lon="11.309574992261744" id="-18524">
		<tag k="name" v="Oppigarden" />
		<tag k="place" v="farm" />
		<tag k="ssr:stedsnr" v="551210" />
	</node>
	<node lat="60.16868137566051" lon="11.214552285404125" id="-18526">
		<tag k="fixme" v="consider place=hamlet" />
		<tag k="name" v="Fjellberg" />
		<tag k="place" v="farm" />
		<tag k="ssr:stedsnr" v="551216" />
	</node>
	<node lat="60.15973888832359" lon="11.172811110792349" id="-18528">
		<tag k="name" v="Krusestua" />
		<tag k="place" v="farm" />
		<tag k="ssr:stedsnr" v="587506" />
	</node>
	<node lat="60.11816388876097" lon="11.123883327331216" id="-18529">
		<tag k="name" v="Haga" />
		<tag k="place" v="farm" />
		<tag k="ssr:stedsnr" v="587670" />
	</node>
	<node lat="60.117383332651286" lon="11.128261110071632" id="-18530">
		<tag k="name" v="Bergstuen" />
		<tag k="place" v="farm" />
		<tag k="ssr:stedsnr" v="587673" />
	</node>
	<node lat="60.11083889078686" lon="11.303941665370603" id="-18531">
		<tag k="alt_name" v="Reierstad søndre" />
		<tag k="name" v="Søndre Reierstad" />
		<tag k="place" v="farm" />
		<tag k="ssr:stedsnr" v="587718" />
	</node>
	<node lat="60.09104721832198" lon="11.136147226273259" id="-18533">
		<tag k="name" v="Olstadløkken" />
		<tag k="place" v="farm" />
		<tag k="ssr:stedsnr" v="602347" />
	</node>
	<node lat="60.19476716306895" lon="11.201296724976986" id="-18534">
		<tag k="alt_name" v="Haugersæteren" />
		<tag k="fixme" v="consider place=hamlet" />
		<tag k="loc_name" v="Hauersetra" />
		<tag k="name" v="Hauerseteren" />
		<tag k="place" v="farm" />
		<tag k="ssr:stedsnr" v="603704" />
	</node>
	<node lat="60.195867102800875" lon="11.15669756901561" id="-18535">
		<tag k="fixme" v="consider place=hamlet" />
		<tag k="name" v="Kringlemyren" />
		<tag k="place" v="farm" />
		<tag k="ssr:stedsnr" v="603712" />
	</node>
	<node lat="60.197737016668476" lon="11.164146776205863" id="-18536">
		<tag k="alt_name" v="Furulund nordre" />
		<tag k="fixme" v="consider place=hamlet" />
		<tag k="name" v="Nordre Furulund" />
		<tag k="place" v="farm" />
		<tag k="ssr:stedsnr" v="603713" />
	</node>
	<node lat="60.14759999972187" lon="11.174622220249079" id="-18537">
		<tag k="amenity" v="school" />
		<tag k="name" v="Jessheim skole" />
		<tag k="ssr:stedsnr" v="604530" />
	</node>
	<node lat="60.11240833750776" lon="11.29994721893034" id="-18538">
		<tag k="name" v="Reierstad nordre" />
		<tag k="old_name" v="Nordre Restad;Restad nordre" />
		<tag k="place" v="farm" />
		<tag k="ssr:stedsnr" v="604544" />
	</node>
	<node lat="60.13353888493283" lon="11.173241663108517" id="-18539">
		<tag k="name" v="Tungen" />
		<tag k="place" v="quarter" />
		<tag k="ssr:stedsnr" v="604559" />
	</node>
	<node lat="60.13945277874249" lon="11.209888897645639" id="-18540">
		<tag k="name" v="Gystad" />
		<tag k="place" v="farm" />
		<tag k="ssr:stedsnr" v="604604" />
	</node>
	<node lat="60.08552500087743" lon="11.268152783652495" id="-18541">
		<tag k="building" v="industrial" />
		<tag k="name" v="Kauserud mølle" />
		<tag k="ssr:stedsnr" v="604911" />
	</node>
	<node lat="60.07635833432587" lon="11.272591674905357" id="-18542">
		<tag k="name" v="Ormstad" />
		<tag k="place" v="farm" />
		<tag k="ssr:stedsnr" v="604912" />
	</node>
	<node lat="60.13394166356981" lon="11.228463885367534" id="-18543">
		<tag k="name" v="Bjørnseter" />
		<tag k="place" v="isolated_dwelling" />
		<tag k="ssr:stedsnr" v="611116" />
	</node>
	<node lat="60.13210833015673" lon="11.315202784478188" id="-18544">
		<tag k="name" v="Nesgård" />
		<tag k="place" v="farm" />
		<tag k="ssr:stedsnr" v="611121" />
	</node>
	<node lat="60.128568809166865" lon="11.272967974401144" id="-18545">
		<tag k="fixme" v="consider place=hamlet" />
		<tag k="name" v="Nesten" />
		<tag k="place" v="farm" />
		<tag k="ssr:stedsnr" v="611123" />
	</node>
	<node lat="60.189482801225765" lon="11.237288870213947" id="-18546">
		<tag k="fixme" v="consider place=hamlet" />
		<tag k="name" v="Inngjerdinga" />
		<tag k="place" v="farm" />
		<tag k="ssr:stedsnr" v="611227" />
	</node>
	<node lat="60.157686261215126" lon="11.07068320226403" id="-18547">
		<tag k="fixme" v="consider place=hamlet" />
		<tag k="name" v="Hallingstad" />
		<tag k="place" v="farm" />
		<tag k="ssr:stedsnr" v="611730" />
	</node>
	<node lat="60.061387197836204" lon="11.109124323924433" id="-18548">
		<tag k="alt_name" v="Brotnov" />
		<tag k="fixme" v="consider place=hamlet" />
		<tag k="name" v="Brotnu" />
		<tag k="place" v="farm" />
		<tag k="ssr:stedsnr" v="612071" />
	</node>
	<node lat="60.14173840877414" lon="11.121724048503758" id="-18549">
		<tag k="name" v="Hovin" />
		<tag k="place" v="hamlet" />
		<tag k="ssr:stedsnr" v="612204" />
	</node>
	<node lat="60.13934444534342" lon="11.230413892560465" id="-18550">
		<tag k="name" v="Åsmoen" />
		<tag k="place" v="farm" />
		<tag k="ssr:stedsnr" v="612205" />
	</node>
	<node lat="60.21445934985766" lon="11.25124986734491" id="-18552">
		<tag k="name" v="Kopperud" />
		<tag k="place" v="hamlet" />
		<tag k="ssr:stedsnr" v="612309" />
	</node>
	<node lat="60.154655558713316" lon="11.263436114919289" id="-18554">
		<tag k="alt_name" v="Furuset nedre" />
		<tag k="name" v="Nedre Furuset" />
		<tag k="place" v="farm" />
		<tag k="ssr:stedsnr" v="648348" />
	</node>
	<node lat="60.170916666934026" lon="11.20688333730824" id="-18555">
		<tag k="name" v="Brauta" />
		<tag k="place" v="farm" />
		<tag k="ssr:stedsnr" v="648352" />
	</node>
	<node lat="60.155280555947876" lon="11.182805557564645" id="-18556">
		<tag k="amenity" v="nursing_home" />
		<tag k="name" v="Østafor" />
		<tag k="ssr:stedsnr" v="648500" />
	</node>
	<node lat="60.12165555860599" lon="11.205813882789403" id="-18557">
		<tag k="name" v="Flatner" />
		<tag k="place" v="locality" />
		<tag k="ssr:stedsnr" v="648647" />
	</node>
	<node lat="60.100550582569646" lon="11.240148294153656" id="-18560">
		<tag k="alt_name" v="Lund nedre" />
		<tag k="fixme" v="consider place=hamlet" />
		<tag k="name" v="Nedre Lund" />
		<tag k="place" v="farm" />
		<tag k="ssr:stedsnr" v="709382" />
	</node>
	<node lat="60.15452778236444" lon="11.23929999377636" id="-18561">
		<tag k="name" v="Brenni" />
		<tag k="place" v="farm" />
		<tag k="ssr:stedsnr" v="709346" />
	</node>
	<node lat="60.170088888265276" lon="11.308088886163754" id="-18563">
		<tag k="name" v="Haraldstad" />
		<tag k="place" v="farm" />
		<tag k="ssr:stedsnr" v="709357" />
	</node>
	<node lat="60.094777776121965" lon="11.116927778738818" id="-18564">
		<tag k="alt_name" v="Holum nordre" />
		<tag k="name" v="Nordre Holum" />
		<tag k="place" v="farm" />
		<tag k="ssr:stedsnr" v="663317" />
	</node>
	<node lat="60.10036666513809" lon="11.234272218443557" id="-18565">
		<tag k="alt_name" v="Lund øvre" />
		<tag k="name" v="Øvre Lund" />
		<tag k="place" v="farm" />
		<tag k="ssr:stedsnr" v="709371" />
	</node>
	<node lat="60.16131110839057" lon="11.135263892522755" id="-18566">
		<tag k="leisure" v="pitch" />
		<tag k="name" v="Olaløkka" />
		<tag k="ssr:stedsnr" v="709481" />
	</node>
	<node lat="60.191899996995375" lon="11.276302770387646" id="-18569">
		<tag k="name" v="Nordset" />
		<tag k="place" v="farm" />
		<tag k="ssr:stedsnr" v="664704" />
	</node>
	<node lat="60.116922224379586" lon="11.125044436756808" id="-18571">
		<tag k="name" v="Haga" />
		<tag k="place" v="farm" />
		<tag k="ssr:stedsnr" v="709639" />
	</node>
	<node lat="60.150316668940626" lon="11.319063882236096" id="-18572">
		<tag k="name" v="Syltenga" />
		<tag k="place" v="farm" />
		<tag k="ssr:stedsnr" v="664891" />
	</node>
	<node lat="60.12613055134997" lon="11.301211112455148" id="-18573">
		<tag k="name" v="Vollset" />
		<tag k="place" v="farm" />
		<tag k="ssr:stedsnr" v="665611" />
	</node>
	<node lat="60.11123129258305" lon="11.296221037985138" id="-18574">
		<tag k="alt_name" v="Reierstad søndre" />
		<tag k="loc_name" v="Restadødegården" />
		<tag k="name" v="Søndre Reierstad" />
		<tag k="place" v="farm" />
		<tag k="ssr:stedsnr" v="665583" />
	</node>
	<node lat="60.14946091170996" lon="11.094576945463967" id="-18575">
		<tag k="fixme" v="consider place=hamlet" />
		<tag k="name" v="Østre Kjos" />
		<tag k="place" v="farm" />
		<tag k="ssr:stedsnr" v="665591" />
	</node>
	<node lat="60.08295277862173" lon="11.160561109867832" id="-18577">
		<tag k="name" v="Kirkedalen" />
		<tag k="place" v="farm" />
		<tag k="ssr:stedsnr" v="665947" />
	</node>
	<node lat="60.18546882864918" lon="11.276223459701217" id="-18578">
		<tag k="fixme" v="consider place=hamlet" />
		<tag k="name" v="Jaren" />
		<tag k="old_name" v="Jaeren" />
		<tag k="place" v="farm" />
		<tag k="ssr:stedsnr" v="672214" />
	</node>
	<node lat="60.16365473558731" lon="11.072852223286095" id="-18579">
		<tag k="fixme" v="consider place=hamlet" />
		<tag k="name" v="Bjørningstad" />
		<tag k="place" v="farm" />
		<tag k="ssr:stedsnr" v="672728" />
	</node>
	<node lat="60.155542500242035" lon="11.236807420801355" id="-18581">
		<tag k="fixme" v="consider place=hamlet" />
		<tag k="name" v="Brenni" />
		<tag k="place" v="farm" />
		<tag k="ssr:stedsnr" v="673239" />
	</node>
	<node lat="60.22118055668592" lon="11.252150000048205" id="-18582">
		<tag k="name" v="Østli" />
		<tag k="place" v="farm" />
		<tag k="ssr:stedsnr" v="673330" />
	</node>
	<node lat="60.16903333241762" lon="11.171333337388301" id="-18583">
		<tag k="leisure" v="park" />
		<tag k="name" v="Svenskestusletta" />
		<tag k="ssr:stedsnr" v="891506" />
	</node>
	<node lat="60.090894445038074" lon="11.16811388098284" id="-18586">
		<tag k="name" v="Løken" />
		<tag k="place" v="farm" />
		<tag k="ssr:stedsnr" v="724319" />
	</node>
	<node lat="60.19237778132811" lon="11.257355549295331" id="-18587">
		<tag k="name" v="Stensbybråten" />
		<tag k="place" v="farm" />
		<tag k="ssr:stedsnr" v="725672" />
	</node>
	<node lat="60.131913884792894" lon="11.239508324406051" id="-18588">
		<tag k="name" v="Løvstad" />
		<tag k="place" v="farm" />
		<tag k="ssr:stedsnr" v="726571" />
	</node>
	<node lat="60.088730559489015" lon="11.237602769666179" id="-18589">
		<tag k="name" v="Molstad" />
		<tag k="place" v="farm" />
		<tag k="ssr:stedsnr" v="726914" />
	</node>
	<node lat="60.0650527787412" lon="11.136658329804538" id="-18591">
		<tag k="name" v="Søndre Bakke" />
		<tag k="place" v="quarter" />
		<tag k="ssr:stedsnr" v="726973" />
	</node>
	<node lat="60.08170602016437" lon="11.191153619626544" id="-18592">
		<tag k="fixme" v="consider place=hamlet" />
		<tag k="name" v="Kyken" />
		<tag k="place" v="farm" />
		<tag k="ssr:stedsnr" v="733049" />
	</node>
	<node lat="60.077494447515065" lon="11.215644448052792" id="-18593">
		<tag k="name" v="Lykkja" />
		<tag k="place" v="isolated_dwelling" />
		<tag k="ssr:stedsnr" v="733052" />
	</node>
	<node lat="60.08432778074195" lon="11.246133326781486" id="-18594">
		<tag k="name" v="Bjørnli" />
		<tag k="place" v="farm" />
		<tag k="ssr:stedsnr" v="733101" />
	</node>
	<node lat="60.11768085324243" lon="11.147014932883783" id="-18595">
		<tag k="fixme" v="consider place=hamlet" />
		<tag k="name" v="Dragvoll" />
		<tag k="place" v="farm" />
		<tag k="ssr:stedsnr" v="733109" />
	</node>
	<node lat="60.11162221887789" lon="11.180902777559531" id="-18596">
		<tag k="alt_name" v="Høgfjellet" />
		<tag k="name" v="Høyfjellet" />
		<tag k="place" v="farm" />
		<tag k="ssr:stedsnr" v="733120" />
	</node>
	<node lat="60.114716664079104" lon="11.237455557757505" id="-18597">
		<tag k="alt_name" v="Ødegården" />
		<tag k="name" v="Ødegarden" />
		<tag k="old_name" v="Ødegaarden" />
		<tag k="place" v="farm" />
		<tag k="ssr:stedsnr" v="733123" />
	</node>
	<node lat="60.13919507545366" lon="11.206942895555045" id="-18598">
		<tag k="fixme" v="consider place=hamlet" />
		<tag k="name" v="Gystad" />
		<tag k="place" v="farm" />
		<tag k="ssr:stedsnr" v="733144" />
	</node>
	<node lat="60.165697761216826" lon="11.10336581410972" id="-18599">
		<tag k="alt_name" v="Mjæleberg" />
		<tag k="fixme" v="consider place=hamlet" />
		<tag k="name" v="Mjælaberg" />
		<tag k="place" v="farm" />
		<tag k="ssr:stedsnr" v="733190" />
	</node>
	<node lat="60.154931472580074" lon="11.091038915295004" id="-18603">
		<tag k="name" v="Kjos" />
		<tag k="place" v="hamlet" />
		<tag k="ssr:stedsnr" v="734183" />
	</node>
	<node lat="60.19685771422374" lon="11.270001442512642" id="-18606">
		<tag k="fixme" v="consider place=hamlet" />
		<tag k="name" v="Nordby" />
		<tag k="place" v="farm" />
		<tag k="ssr:stedsnr" v="734292" />
	</node>
	<node lat="60.104724996111464" lon="11.301247223096771" id="-18607">
		<tag k="name" v="Granli" />
		<tag k="place" v="farm" />
		<tag k="ssr:stedsnr" v="769702" />
	</node>
	<node lat="60.203372225964046" lon="11.165877774282519" id="-18608">
		<tag k="name" v="Klopphaugen" />
		<tag k="place" v="locality" />
		<tag k="ssr:stedsnr" v="907643" />
	</node>
	<node lat="60.19142777946497" lon="11.259941675282455" id="-18610">
		<tag k="leisure" v="pitch" />
		<tag k="name" v="Stensby stadion" />
		<tag k="ssr:stedsnr" v="907676" />
	</node>
	<node lat="60.20922420515853" lon="11.14744318003666" id="-18611">
		<tag k="alt_name" v="Elstad vestre" />
		<tag k="fixme" v="consider place=hamlet" />
		<tag k="name" v="Vestre Elstad" />
		<tag k="place" v="farm" />
		<tag k="ssr:stedsnr" v="907649" />
	</node>
	<node lat="60.15138333219429" lon="11.287552777393046" id="-18612">
		<tag k="name" v="Engen" />
		<tag k="place" v="farm" />
		<tag k="ssr:stedsnr" v="907862" />
	</node>
	<node lat="60.14221388698044" lon="11.17941665854639" id="-18613">
		<tag k="building" v="industrial" />
		<tag k="name" v="Ullensaker dampsag og høvleri" />
		<tag k="ssr:stedsnr" v="908625" />
	</node>
	<node lat="60.14076111084449" lon="11.21334443637459" id="-18614">
		<tag k="name" v="Gystadflaen" />
		<tag k="place" v="farm" />
		<tag k="ssr:stedsnr" v="908630" />
	</node>
	<node lat="60.141575001529155" lon="11.214677782831178" id="-18615">
		<tag k="name" v="Brekkedal" />
		<tag k="place" v="farm" />
		<tag k="ssr:stedsnr" v="908632" />
	</node>
	<node lat="60.13709721879562" lon="11.163788890797532" id="-18616">
		<tag k="name" v="Brinken" />
		<tag k="place" v="quarter" />
		<tag k="ssr:stedsnr" v="908576" />
	</node>
	<node lat="60.06711532195341" lon="11.219606442051115" id="-18618">
		<tag k="fixme" v="consider place=hamlet" />
		<tag k="name" v="Nedre Stokker" />
		<tag k="place" v="farm" />
		<tag k="ssr:stedsnr" v="908948" />
	</node>
	<node lat="60.090697222339436" lon="11.131647228616496" id="-18619">
		<tag k="alt_name" v="Holum søndre" />
		<tag k="name" v="Søndre Holum" />
		<tag k="place" v="farm" />
		<tag k="ssr:stedsnr" v="785323" />
	</node>
	<node lat="60.21767280752431" lon="11.253425527066916" id="-18620">
		<tag k="alt_name" v="Kopperud nordre" />
		<tag k="fixme" v="consider place=hamlet" />
		<tag k="name" v="Nordre Kopperud" />
		<tag k="place" v="farm" />
		<tag k="ssr:stedsnr" v="785599" />
	</node>
	<node lat="60.14888611163451" lon="11.294927786552211" id="-18624">
		<tag k="name" v="Nordhaugen" />
		<tag k="place" v="farm" />
		<tag k="ssr:stedsnr" v="786909" />
	</node>
	<node lat="60.17436944440356" lon="11.09477222830828" id="-18625">
		<tag k="alt_name" v="Brudalen nordre" />
		<tag k="name" v="Nordre Brudalen" />
		<tag k="place" v="farm" />
		<tag k="ssr:stedsnr" v="786921" />
	</node>
	<node lat="60.141263889552285" lon="11.203130552051668" id="-18626">
		<tag k="name" v="Renskog" />
		<tag k="place" v="farm" />
		<tag k="ssr:stedsnr" v="787616" />
	</node>
	<node lat="60.12021389185831" lon="11.26362499938627" id="-18627">
		<tag k="name" v="Støverud" />
		<tag k="place" v="farm" />
		<tag k="ssr:stedsnr" v="787565" />
	</node>
	<node lat="60.07627222003517" lon="11.276538884155258" id="-18628">
		<tag k="name" v="Selje" />
		<tag k="place" v="farm" />
		<tag k="ssr:stedsnr" v="787892" />
	</node>
	<node lat="60.069008330583074" lon="11.114136116032405" id="-18629">
		<tag k="name" v="Nordre Hilton" />
		<tag k="place" v="farm" />
		<tag k="ssr:stedsnr" v="787947" />
	</node>
	<node lat="60.07319166863665" lon="11.193069442669657" id="-18630">
		<tag k="name" v="Frognerbråten" />
		<tag k="place" v="farm" />
		<tag k="ssr:stedsnr" v="787916" />
	</node>
	<node lat="60.068008332179616" lon="11.213625003516634" id="-18631">
		<tag k="alt_name" v="Stokker søndre" />
		<tag k="name" v="Søndre Stokker" />
		<tag k="place" v="farm" />
		<tag k="ssr:stedsnr" v="787948" />
	</node>
	<node lat="60.06437222117403" lon="11.132050008228358" id="-18632">
		<tag k="name" v="Bakke" />
		<tag k="place" v="farm" />
		<tag k="ssr:stedsnr" v="794003" />
	</node>
	<node lat="60.090389148391246" lon="11.223934767188167" id="-18633">
		<tag k="name" v="Nafstad" />
		<tag k="place" v="hamlet" />
		<tag k="ssr:stedsnr" v="794090" />
	</node>
	<node lat="60.16529999668519" lon="11.171086119540115" id="-18634">
		<tag k="name" v="Grønvoll" />
		<tag k="place" v="farm" />
		<tag k="ssr:stedsnr" v="794210" />
	</node>
	<node lat="60.189452842885" lon="11.17371042327737" id="-18635">
		<tag k="fixme" v="consider place=hamlet" />
		<tag k="name" v="Helgebostad" />
		<tag k="place" v="farm" />
		<tag k="ssr:stedsnr" v="794215" />
	</node>
	<node lat="60.177905427637825" lon="11.213020404356866" id="-18636">
		<tag k="fixme" v="consider place=hamlet" />
		<tag k="name" v="Korslund" />
		<tag k="place" v="farm" />
		<tag k="ssr:stedsnr" v="794228" />
	</node>
	<node lat="60.119405554450466" lon="11.211983327414343" id="-18638">
		<tag k="alt_name" v="Sollien" />
		<tag k="name" v="Sollia" />
		<tag k="place" v="locality" />
		<tag k="ssr:stedsnr" v="794106" />
	</node>
	<node lat="60.106118771293325" lon="11.149022761207299" id="-18639">
		<tag k="fixme" v="consider place=hamlet" />
		<tag k="name" v="Haug" />
		<tag k="place" v="farm" />
		<tag k="ssr:stedsnr" v="794112" />
	</node>
	<node lat="60.08088393471891" lon="11.223420382806758" id="-18640">
		<tag k="name" v="Sørby" />
		<tag k="place" v="hamlet" />
		<tag k="ssr:stedsnr" v="915034" />
	</node>
	<node lat="60.0734122782581" lon="11.117655012523759" id="-18641">
		<tag k="fixme" v="consider place=hamlet" />
		<tag k="name" v="Tveiter" />
		<tag k="place" v="farm" />
		<tag k="ssr:stedsnr" v="915046" />
	</node>
	<node lat="60.071575000857536" lon="11.200113880479188" id="-18642">
		<tag k="name" v="Sørli" />
		<tag k="place" v="farm" />
		<tag k="ssr:stedsnr" v="915050" />
	</node>
	<node lat="60.06955637045358" lon="11.2138907155593" id="-18643">
		<tag k="name" v="Stokker" />
		<tag k="place" v="hamlet" />
		<tag k="ssr:stedsnr" v="915052" />
	</node>
	<node lat="60.187555794533004" lon="11.25130968123801" id="-18644">
		<tag k="alt_name" v="Støvner" />
		<tag k="name" v="Søndre Støvner" />
		<tag k="place" v="farm" />
		<tag k="ssr:stedsnr" v="915206" />
	</node>
	<node lat="60.178879688937194" lon="11.272803174006627" id="-18645">
		<tag k="fixme" v="consider place=hamlet" />
		<tag k="name" v="Skryta" />
		<tag k="place" v="farm" />
		<tag k="ssr:stedsnr" v="915218" />
	</node>
	<node lat="60.13065555648373" lon="11.175136106479338" id="-18646">
		<tag k="name" v="Fjelly" />
		<tag k="place" v="isolated_dwelling" />
		<tag k="ssr:stedsnr" v="915139" />
	</node>
	<node lat="60.14425555514501" lon="11.28689444038757" id="-18647">
		<tag k="name" v="Fossen" />
		<tag k="place" v="farm" />
		<tag k="ssr:stedsnr" v="916178" />
	</node>
	<node lat="60.140024531916744" lon="11.25121800254721" id="-18648">
		<tag k="fixme" v="consider place=hamlet" />
		<tag k="name" v="Fonbekk" />
		<tag k="place" v="farm" />
		<tag k="ssr:stedsnr" v="916180" />
	</node>
	<node lat="60.1456925654732" lon="11.222089571455202" id="-18649">
		<tag k="fixme" v="consider place=hamlet" />
		<tag k="name" v="Holm" />
		<tag k="place" v="farm" />
		<tag k="ssr:stedsnr" v="916200" />
	</node>
	<node lat="60.19654586103419" lon="11.300944392890113" id="-18651">
		<tag k="name" v="Grøndalen" />
		<tag k="place" v="hamlet" />
		<tag k="ssr:stedsnr" v="916272" />
	</node>
	<node lat="60.17188332885003" lon="11.25182222553328" id="-18653">
		<tag k="name" v="Stokkstadmoen" />
		<tag k="place" v="farm" />
		<tag k="ssr:stedsnr" v="830304" />
	</node>
	<node lat="60.18438333286091" lon="11.166936119195626" id="-18654">
		<tag k="name" v="Petterløkken" />
		<tag k="place" v="farm" />
		<tag k="ssr:stedsnr" v="830325" />
	</node>
	<node lat="60.09927424015681" lon="11.173696165725456" id="-18657">
		<tag k="alt_name" v="Ramby øvre" />
		<tag k="fixme" v="consider place=hamlet" />
		<tag k="name" v="Øvre Ramby" />
		<tag k="place" v="farm" />
		<tag k="ssr:stedsnr" v="846329" />
	</node>
	<node lat="60.17930555232902" lon="11.269047228811663" id="-18659">
		<tag k="name" v="Skryta" />
		<tag k="place" v="farm" />
		<tag k="ssr:stedsnr" v="846743" />
	</node>
	<node lat="60.151017301217244" lon="11.125957582687185" id="-18661">
		<tag k="fixme" v="consider place=hamlet" />
		<tag k="name" v="Sand" />
		<tag k="place" v="farm" />
		<tag k="ssr:stedsnr" v="848618" />
	</node>
	<node lat="60.10879722045427" lon="11.276174993076005" id="-18664">
		<tag k="name" v="Smedstua" />
		<tag k="place" v="farm" />
		<tag k="ssr:stedsnr" v="855123" />
	</node>
	<node lat="60.141502776079385" lon="11.175155549791937" id="-18666">
		<tag k="name" v="Jessheim" />
		<tag k="place" v="town" />
		<tag k="ssr:stedsnr" v="855131" />
	</node>
	<node lat="60.08682819034409" lon="11.264379345229573" id="-18667">
		<tag k="fixme" v="consider place=hamlet" />
		<tag k="name" v="Kauserud" />
		<tag k="place" v="farm" />
		<tag k="ssr:stedsnr" v="855091" />
	</node>
	<node lat="60.08693343166274" lon="11.234117011287214" id="-18668">
		<tag k="fixme" v="consider place=hamlet" />
		<tag k="name" v="Måstad" />
		<tag k="place" v="farm" />
		<tag k="ssr:stedsnr" v="855093" />
	</node>
	<node lat="60.16111227285766" lon="11.266652236530907" id="-18670">
		<tag k="fixme" v="consider place=hamlet" />
		<tag k="name" v="Julset" />
		<tag k="place" v="farm" />
		<tag k="ssr:stedsnr" v="855214" />
	</node>
	<node lat="60.22381111024908" lon="11.23464999722804" id="-18671">
		<tag k="fixme" v="multiple name tags, choose one and add the other to alt_name" />
		<tag k="name" v="Enga;Sætre" />
		<tag k="place" v="farm" />
		<tag k="ssr:stedsnr" v="855301" />
	</node>
	<node lat="60.0942138875147" lon="11.28369444868292" id="-18672">
		<tag k="alt_name" v="Vettal mellom" />
		<tag k="name" v="Mellom-Vettal" />
		<tag k="place" v="farm" />
		<tag k="ssr:stedsnr" v="891414" />
	</node>
	<node lat="60.09587222270752" lon="11.290125005108482" id="-18673">
		<tag k="alt_name" v="Vettal søndre" />
		<tag k="name" v="Søndre Vettal" />
		<tag k="place" v="farm" />
		<tag k="ssr:stedsnr" v="891417" />
	</node>
	<node lat="60.11011667032448" lon="11.237686104885956" id="-18674">
		<tag k="name" v="Hesthagen" />
		<tag k="place" v="farm" />
		<tag k="ssr:stedsnr" v="891420" />
	</node>
	<node lat="60.16386666628106" lon="11.251649994354224" id="-18675">
		<tag k="name" v="Furusetbråten" />
		<tag k="place" v="farm" />
		<tag k="ssr:stedsnr" v="891361" />
	</node>
	<node lat="60.13099634949728" lon="11.103476118750612" id="-18677">
		<tag k="alt_name" v="Sundby nedre" />
		<tag k="name" v="Nedre Sundby" />
		<tag k="place" v="farm" />
		<tag k="ssr:stedsnr" v="891672" />
	</node>
	<node lat="60.2258583363861" lon="11.236472214330847" id="-18681">
		<tag k="alt_name" v="Nordre Hjelkerud" />
		<tag k="name" v="Nordre Jelkerud" />
		<tag k="place" v="farm" />
		<tag k="ssr:stedsnr" v="907570" />
	</node>
	<node lat="60.20831915350973" lon="11.152626994882128" id="-18682">
		<tag k="alt_name" v="Elstad østre" />
		<tag k="fixme" v="consider place=hamlet" />
		<tag k="name" v="Østre Elstad" />
		<tag k="place" v="farm" />
		<tag k="ssr:stedsnr" v="907650" />
	</node>
	<node lat="60.186944183308675" lon="11.255094306777535" id="-18683">
		<tag k="name" v="Vestre Støvner" />
		<tag k="place" v="farm" />
		<tag k="ssr:stedsnr" v="907665" />
	</node>
	<node lat="60.14362389420761" lon="11.263536846292043" id="-18685">
		<tag k="alt_name" v="Søndre Algarheim" />
		<tag k="fixme" v="consider place=hamlet" />
		<tag k="name" v="Søndre Algrem" />
		<tag k="place" v="farm" />
		<tag k="ssr:stedsnr" v="907913" />
	</node>
	<node lat="60.152494440188576" lon="11.319866665163172" id="-18686">
		<tag k="name" v="Syltenga" />
		<tag k="place" v="farm" />
		<tag k="ssr:stedsnr" v="907855" />
	</node>
	<node lat="60.106547226450175" lon="11.2464222163701" id="-18688">
		<tag k="alt_name" v="Flindrum" />
		<tag k="name" v="Vestre Flindrum" />
		<tag k="place" v="farm" />
		<tag k="ssr:stedsnr" v="908324" />
	</node>
	<node lat="60.14414999604569" lon="11.21798610367788" id="-18689">
		<tag k="name" v="Holm" />
		<tag k="place" v="farm" />
		<tag k="ssr:stedsnr" v="908650" />
	</node>
	<node lat="60.08542353399852" lon="11.213080691434094" id="-18691">
		<tag k="alt_name" v="Villersrud" />
		<tag k="fixme" v="consider place=hamlet" />
		<tag k="name" v="Viljesrud" />
		<tag k="place" v="farm" />
		<tag k="ssr:stedsnr" v="915093" />
	</node>
	<node lat="60.23938610830661" lon="11.153513896019808" id="-18692">
		<tag k="name" v="Vollsnes" />
		<tag k="place" v="farm" />
		<tag k="ssr:stedsnr" v="915317" />
	</node>
	<node lat="60.234644440394156" lon="11.209613889095001" id="-18693">
		<tag k="name" v="Rullnes" />
		<tag k="place" v="farm" />
		<tag k="ssr:stedsnr" v="915377" />
	</node>
	<node lat="60.102979321480404" lon="11.188783420980212" id="-18694">
		<tag k="fixme" v="consider place=hamlet" />
		<tag k="name" v="Plogstad" />
		<tag k="place" v="farm" />
		<tag k="ssr:stedsnr" v="916116" />
	</node>
	<node lat="60.09549449953281" lon="11.130397319616637" id="-18695">
		<tag k="name" v="Holum" />
		<tag k="place" v="hamlet" />
		<tag k="ssr:stedsnr" v="916074" />
	</node>
	<node lat="60.167325001045185" lon="11.170336116561888" id="-18699">
		<tag k="name" v="Trøgstadmoen" />
		<tag k="place" v="quarter" />
		<tag k="ssr:stedsnr" v="951486" />
	</node>
	<node lat="60.09590358784597" lon="11.151101799004627" id="-18701">
		<tag k="fixme" v="consider place=hamlet" />
		<tag k="name" v="Nordre Bogstad" />
		<tag k="place" v="farm" />
		<tag k="ssr:stedsnr" v="967310" />
	</node>
	<node lat="60.10568888777097" lon="11.164786116355776" id="-18702">
		<tag k="name" v="Loding" />
		<tag k="place" v="farm" />
		<tag k="ssr:stedsnr" v="967314" />
	</node>
	<node lat="60.11415832958544" lon="11.14000277470323" id="-18703">
		<tag k="alt_name" v="Ullern vestre;Vestre Ullern" />
		<tag k="name" v="Vestre Ulleren" />
		<tag k="place" v="farm" />
		<tag k="ssr:stedsnr" v="969196" />
	</node>
	<node lat="60.1519638918052" lon="11.155486110489448" id="-18705">
		<tag k="name" v="Kverndalen" />
		<tag k="place" v="quarter" />
		<tag k="ssr:stedsnr" v="969639" />
	</node>
	<node lat="60.087963889385236" lon="11.192269452217838" id="-18706">
		<tag k="name" v="Gladbakk" />
		<tag k="place" v="isolated_dwelling" />
		<tag k="ssr:stedsnr" v="969896" />
	</node>
	<node lat="60.08713450537629" lon="11.225082429553517" id="-18707">
		<tag k="fixme" v="consider place=hamlet" />
		<tag k="name" v="Søndre Nafstad" />
		<tag k="place" v="farm" />
		<tag k="ssr:stedsnr" v="969899" />
	</node>
	<node lat="60.07400277914902" lon="11.194613896431006" id="-18708">
		<tag k="name" v="Nordhagen" />
		<tag k="place" v="locality" />
		<tag k="ssr:stedsnr" v="969906" />
	</node>
	<node lat="60.074066669221935" lon="11.138050007282747" id="-18714">
		<tag k="name" v="Kløfta" />
		<tag k="place" v="village" />
		<tag k="ssr:stedsnr" v="5032" />
	</node>
	<node lat="60.07045277888541" lon="11.142041671268192" id="-18715">
		<tag k="amenity" v="prison" />
		<tag k="name" v="Ullersmo fengsel" />
		<tag k="ssr:stedsnr" v="5033" />
	</node>
	<node lat="60.10394889119098" lon="11.163484017067884" id="-18716">
		<tag k="fixme" v="consider place=hamlet" />
		<tag k="name" v="Loding" />
		<tag k="place" v="farm" />
		<tag k="ssr:stedsnr" v="5051" />
	</node>
	<node lat="60.095313893230674" lon="11.168327770038413" id="-18717">
		<tag k="name" v="Løken" />
		<tag k="place" v="farm" />
		<tag k="ssr:stedsnr" v="5052" />
	</node>
	<node lat="60.13348336710085" lon="11.120040655072485" id="-18718">
		<tag k="fixme" v="consider place=hamlet" />
		<tag k="name" v="Bjørke" />
		<tag k="place" v="farm" />
		<tag k="ssr:stedsnr" v="5135" />
	</node>
	<node lat="60.12158487484625" lon="11.246085151641093" id="-18719">
		<tag k="fixme" v="consider place=hamlet" />
		<tag k="name" v="Vogstad" />
		<tag k="place" v="farm" />
		<tag k="ssr:stedsnr" v="5140" />
	</node>
	<node lat="60.190066664501614" lon="11.220758327393739" id="-18720">
		<tag k="name" v="Syverstad" />
		<tag k="place" v="farm" />
		<tag k="ssr:stedsnr" v="5231" />
	</node>
	<node lat="60.1874472239689" lon="11.058702771891063" id="-18721">
		<tag k="alt_name" v="Sundby, øvre" />
		<tag k="name" v="Øvre Sundby" />
		<tag k="old_name" v="Sundby, nedre" />
		<tag k="place" v="farm" />
		<tag k="ssr:stedsnr" v="5786" />
	</node>
	<node lat="60.15677222160363" lon="11.235036113455354" id="-18723">
		<tag k="alt_name" v="Brenni nordre" />
		<tag k="name" v="Nordre Brenni" />
		<tag k="place" v="farm" />
		<tag k="ssr:stedsnr" v="41347" />
	</node>
	<node lat="60.12678889056183" lon="11.212047216953161" id="-18724">
		<tag k="name" v="Åsheim" />
		<tag k="place" v="locality" />
		<tag k="ssr:stedsnr" v="41641" />
	</node>
	<node lat="60.12152777418404" lon="11.153044438287017" id="-18726">
		<tag k="alt_name" v="Trøgstad øvre" />
		<tag k="name" v="Øvre Trøgstad" />
		<tag k="place" v="farm" />
		<tag k="ssr:stedsnr" v="41654" />
	</node>
	<node lat="60.096261111804715" lon="11.222536103385224" id="-18727">
		<tag k="leisure" v="pitch" />
		<tag k="name" v="Borgen idrettsplass" />
		<tag k="ssr:stedsnr" v="41662" />
	</node>
	<node lat="60.10768055214698" lon="11.300102780252503" id="-18728">
		<tag k="alt_name" v="Reierstad nordre" />
		<tag k="loc_name" v="Restadhagan" />
		<tag k="name" v="Nordre Reierstad" />
		<tag k="place" v="farm" />
		<tag k="ssr:stedsnr" v="41695" />
	</node>
	<node lat="60.18738333566435" lon="11.283022218445133" id="-18731">
		<tag k="alt_name" v="Nedre Jaeren;Jaren nedre" />
		<tag k="name" v="Nedre Jaren" />
		<tag k="place" v="farm" />
		<tag k="ssr:stedsnr" v="57690" />
	</node>
	<node lat="60.204105553399586" lon="11.166036119257868" id="-18732">
		<tag k="name" v="Kloppeløkken" />
		<tag k="place" v="hamlet" />
		<tag k="ssr:stedsnr" v="57663" />
	</node>
	<node lat="60.13031944081049" lon="11.2593333331946" id="-18733">
		<tag k="name" v="Laskerud" />
		<tag k="place" v="farm" />
		<tag k="ssr:stedsnr" v="59542" />
	</node>
	<node lat="60.12921388644332" lon="11.277191674968751" id="-18734">
		<tag k="name" v="Nedre Nesten" />
		<tag k="place" v="farm" />
		<tag k="ssr:stedsnr" v="59543" />
	</node>
	<node lat="60.12719721889669" lon="11.301952779597734" id="-18735">
		<tag k="name" v="Sagmoen" />
		<tag k="place" v="farm" />
		<tag k="ssr:stedsnr" v="59554" />
	</node>
	<node lat="60.14463082332061" lon="11.250667571344449" id="-18736">
		<tag k="amenity" v="school" />
		<tag k="name" v="Algarheim skole" />
		<tag k="ssr:stedsnr" v="58945" />
	</node>
	<node lat="60.14232183697871" lon="11.169962939490963" id="-18737">
		<tag k="alt_name" v="Døli Østre" />
		<tag k="name" v="Østre Døli" />
		<tag k="place" v="farm" />
		<tag k="ssr:stedsnr" v="59515" />
	</node>
	<node lat="60.06222777644161" lon="11.174911106540435" id="-18739">
		<tag k="alt_name" v="Ile søndre" />
		<tag k="name" v="Søndre Ile" />
		<tag k="place" v="farm" />
		<tag k="ssr:stedsnr" v="59954" />
	</node>
	<node lat="60.06268466682181" lon="11.146478319311178" id="-18740">
		<tag k="fixme" v="consider place=hamlet" />
		<tag k="name" v="Isingrud" />
		<tag k="place" v="farm" />
		<tag k="ssr:stedsnr" v="59955" />
	</node>
	<node lat="60.137502777737964" lon="11.307691666809493" id="-18741">
		<tag k="alt_name" v="Røstad" />
		<tag k="name" v="Rødstad" />
		<tag k="place" v="farm" />
		<tag k="ssr:stedsnr" v="66170" />
	</node>
	<node lat="60.17184722436976" lon="11.219908329642802" id="-18742">
		<tag k="name" v="Lia" />
		<tag k="place" v="locality" />
		<tag k="ssr:stedsnr" v="66193" />
	</node>
	<node lat="60.17211082537154" lon="11.094676765312483" id="-18743">
		<tag k="fixme" v="consider place=hamlet" />
		<tag k="name" v="Brudalen" />
		<tag k="place" v="farm" />
		<tag k="ssr:stedsnr" v="66194" />
	</node>
	<node lat="60.21899536805122" lon="11.13734612864132" id="-18745">
		<tag k="fixme" v="consider place=hamlet" />
		<tag k="name" v="Melby" />
		<tag k="place" v="farm" />
		<tag k="ssr:stedsnr" v="66282" />
	</node>
	<node lat="60.067236115287336" lon="11.106338883440426" id="-18748">
		<tag k="name" v="Hilton" />
		<tag k="place" v="farm" />
		<tag k="ssr:stedsnr" v="66378" />
	</node>
	<node lat="60.115151303680555" lon="11.297223705461546" id="-18749">
		<tag k="fixme" v="consider place=hamlet" />
		<tag k="name" v="Kverner" />
		<tag k="place" v="farm" />
		<tag k="ssr:stedsnr" v="66111" />
	</node>
	<node lat="60.102566065348704" lon="11.204365595647525" id="-18750">
		<tag k="name" v="Oppen" />
		<tag k="place" v="hamlet" />
		<tag k="ssr:stedsnr" v="66121" />
	</node>
	<node lat="60.13453522874056" lon="11.288701733113973" id="-18751">
		<tag k="name" v="Onsrud" />
		<tag k="place" v="hamlet" />
		<tag k="ssr:stedsnr" v="66127" />
	</node>
	<node lat="60.099209334600715" lon="11.179208612736698" id="-18752">
		<tag k="fixme" v="consider place=hamlet" />
		<tag k="name" v="Lundberg" />
		<tag k="place" v="farm" />
		<tag k="ssr:stedsnr" v="66067" />
	</node>
	<node lat="60.179914591307366" lon="11.225886588517414" id="-18755">
		<tag k="fixme" v="consider place=hamlet" />
		<tag k="name" v="Ellingsrud" />
		<tag k="place" v="farm" />
		<tag k="ssr:stedsnr" v="66236" />
	</node>
	<node lat="60.198002778154304" lon="11.29110000531583" id="-18756">
		<tag k="alt_name" v="Botolvshaugen" />
		<tag k="fixme" v="multiple name tags, choose one and add the other to alt_name" />
		<tag k="name" v="Haugen;Nordre Grøndalen" />
		<tag k="place" v="farm" />
		<tag k="ssr:stedsnr" v="66244" />
	</node>
	<node lat="60.18929999984478" lon="11.06469166667846" id="-18757">
		<tag k="alt_name" v="Garder, søndre" />
		<tag k="name" v="Søndre Garder" />
		<tag k="place" v="farm" />
		<tag k="ssr:stedsnr" v="66741" />
	</node>
	<node lat="60.1327456814822" lon="11.243993115852911" id="-18758">
		<tag k="name" v="Habbarstad" />
		<tag k="place" v="farm" />
		<tag k="ssr:stedsnr" v="100858" />
	</node>
	<node lat="60.12820666818627" lon="11.154733805879223" id="-18762">
		<tag k="name" v="Søndre Langeland" />
		<tag k="place" v="farm" />
		<tag k="ssr:stedsnr" v="102692" />
	</node>
	<node lat="60.132619441912766" lon="11.122491669928328" id="-18763">
		<tag k="name" v="Bjørke" />
		<tag k="place" v="farm" />
		<tag k="ssr:stedsnr" v="102696" />
	</node>
	<node lat="60.09716832360653" lon="11.130440312350785" id="-18764">
		<tag k="alt_name" v="Holum nordre" />
		<tag k="fixme" v="consider place=hamlet" />
		<tag k="name" v="Nordre Holum" />
		<tag k="place" v="farm" />
		<tag k="ssr:stedsnr" v="117364" />
	</node>
	<node lat="60.09905833315197" lon="11.133338895330983" id="-18765">
		<tag k="name" v="Holum" />
		<tag k="place" v="farm" />
		<tag k="ssr:stedsnr" v="117367" />
	</node>
	<node lat="60.19924722171368" lon="11.30656666988702" id="-18766">
		<tag k="name" v="Furuheim" />
		<tag k="place" v="isolated_dwelling" />
		<tag k="ssr:stedsnr" v="118590" />
	</node>
	<node lat="60.151363884734536" lon="11.195408335502542" id="-18768">
		<tag k="name" v="Gystadmarka" />
		<tag k="place" v="quarter" />
		<tag k="ssr:stedsnr" v="118418" />
	</node>
	<node lat="60.1423833299537" lon="11.308741661068565" id="-18769">
		<tag k="name" v="Rømo" />
		<tag k="place" v="farm" />
		<tag k="ssr:stedsnr" v="118890" />
	</node>
	<node lat="60.1334972232923" lon="11.24411666883134" id="-18770">
		<tag k="name" v="Habbarstad" />
		<tag k="place" v="farm" />
		<tag k="ssr:stedsnr" v="118944" />
	</node>
	<node lat="60.123316664592885" lon="11.264866662654045" id="-18771">
		<tag k="name" v="Støverud" />
		<tag k="place" v="farm" />
		<tag k="ssr:stedsnr" v="119578" />
	</node>
	<node lat="60.13776111035929" lon="11.167774993121098" id="-18772">
		<tag k="amenity" v="school" />
		<tag k="name" v="Døli skole" />
		<tag k="ssr:stedsnr" v="119546" />
	</node>
	<node lat="60.14435209109534" lon="11.129809712502817" id="-18773">
		<tag k="fixme" v="consider place=hamlet" />
		<tag k="name" v="Østre Hovin" />
		<tag k="place" v="farm" />
		<tag k="ssr:stedsnr" v="119551" />
	</node>
	<node lat="60.14804444555842" lon="11.159625001582304" id="-18774">
		<tag k="name" v="Gjestadhagen" />
		<tag k="place" v="quarter" />
		<tag k="ssr:stedsnr" v="119555" />
	</node>
	<node lat="60.0781944469701" lon="11.138858331115882" id="-18775">
		<tag k="alt_name" v="K. Kverner Bruk" />
		<tag k="building" v="industrial" />
		<tag k="industrial" v="factory" />
		<tag k="name" v="K. Kværner Industri" />
		<tag k="ssr:stedsnr" v="119948" />
	</node>
	<node lat="60.07829758437128" lon="11.184256228322731" id="-18776">
		<tag k="name" v="Frogner" />
		<tag k="place" v="hamlet" />
		<tag k="ssr:stedsnr" v="126034" />
	</node>
	<node lat="60.17450703756797" lon="11.267581396990233" id="-18777">
		<tag k="fixme" v="consider place=hamlet" />
		<tag k="name" v="Austad" />
		<tag k="place" v="farm" />
		<tag k="ssr:stedsnr" v="126233" />
	</node>
	<node lat="60.233858331463985" lon="11.16010278251499" id="-18778">
		<tag k="name" v="Sjøvik" />
		<tag k="place" v="farm" />
		<tag k="ssr:stedsnr" v="126321" />
	</node>
	<node lat="60.195634798135345" lon="11.06085354417276" id="-18779">
		<tag k="alt_name" v="Garder, nordre" />
		<tag k="name" v="Nordre Garder" />
		<tag k="place" v="farm" />
		<tag k="ssr:stedsnr" v="126726" />
	</node>
	<node lat="60.093713885801236" lon="11.248372230210819" id="-18780">
		<tag k="name" v="Nygard" />
		<tag k="place" v="farm" />
		<tag k="ssr:stedsnr" v="127066" />
	</node>
	<node lat="60.091385083442496" lon="11.201113242610102" id="-18781">
		<tag k="fixme" v="consider place=hamlet" />
		<tag k="name" v="Holen" />
		<tag k="place" v="farm" />
		<tag k="ssr:stedsnr" v="127067" />
	</node>
	<node lat="60.155905559778226" lon="11.286116665861943" id="-18782">
		<tag k="name" v="Bløyerud" />
		<tag k="place" v="farm" />
		<tag k="ssr:stedsnr" v="127238" />
	</node>
	<node lat="60.17458889175331" lon="11.29466667309044" id="-18784">
		<tag k="name" v="Nybråten" />
		<tag k="place" v="farm" />
		<tag k="ssr:stedsnr" v="162365" />
	</node>
	<node lat="60.12685555777541" lon="11.227425007128653" id="-18785">
		<tag k="name" v="Åssand" />
		<tag k="place" v="farm" />
		<tag k="ssr:stedsnr" v="162665" />
	</node>
	<node lat="60.12494444855833" lon="11.147327782566071" id="-18786">
		<tag k="alt_name" v="Trøgstad nedre" />
		<tag k="name" v="Nedre Trøgstad" />
		<tag k="place" v="farm" />
		<tag k="ssr:stedsnr" v="162677" />
	</node>
	<node lat="60.11980191124192" lon="11.100538315393337" id="-18787">
		<tag k="fixme" v="consider place=hamlet" />
		<tag k="name" v="Søndre Taugland" />
		<tag k="place" v="farm" />
		<tag k="ssr:stedsnr" v="162686" />
	</node>
	<node lat="60.12804722186514" lon="11.098899997245033" id="-18788">
		<tag k="name" v="Nordre Kolby" />
		<tag k="place" v="farm" />
		<tag k="ssr:stedsnr" v="162688" />
	</node>
	<node lat="60.09282650626921" lon="11.156614102355686" id="-18789">
		<tag k="alt_name" v="Bogstad" />
		<tag k="fixme" v="consider place=hamlet" />
		<tag k="name" v="Søndre Bogstad" />
		<tag k="place" v="farm" />
		<tag k="ssr:stedsnr" v="163477" />
	</node>
	<node lat="60.104265647590026" lon="11.149469815491306" id="-18793">
		<tag k="fixme" v="consider place=hamlet" />
		<tag k="name" v="Vestre Stanger" />
		<tag k="place" v="farm" />
		<tag k="ssr:stedsnr" v="178336" />
	</node>
	<node lat="60.0703413385961" lon="11.209364648263403" id="-18794">
		<tag k="fixme" v="consider place=hamlet" />
		<tag k="name" v="Øvre Stokker" />
		<tag k="place" v="farm" />
		<tag k="ssr:stedsnr" v="180916" />
	</node>
	<node lat="60.07250833311942" lon="11.207077772961062" id="-18795">
		<tag k="name" v="Enger" />
		<tag k="place" v="farm" />
		<tag k="ssr:stedsnr" v="180917" />
	</node>
	<node lat="60.1932694456639" lon="11.201094448983937" id="-18797">
		<tag k="name" v="Østeng" />
		<tag k="place" v="farm" />
		<tag k="ssr:stedsnr" v="179730" />
	</node>
	<node lat="60.19364339868693" lon="11.168423988131481" id="-18798">
		<tag k="alt_name" v="Furulund søndre" />
		<tag k="fixme" v="consider place=hamlet" />
		<tag k="name" v="Søndre Furulund" />
		<tag k="place" v="farm" />
		<tag k="ssr:stedsnr" v="179743" />
	</node>
	<node lat="60.1378611080864" lon="11.285227773997894" id="-18800">
		<tag k="name" v="Granerud" />
		<tag k="place" v="farm" />
		<tag k="ssr:stedsnr" v="179947" />
	</node>
	<node lat="60.14206111208429" lon="11.211450008282293" id="-18801">
		<tag k="name" v="Engeløkka" />
		<tag k="place" v="farm" />
		<tag k="ssr:stedsnr" v="180583" />
	</node>
	<node lat="60.13761389252788" lon="11.107830549169883" id="-18803">
		<tag k="name" v="Bakketun" />
		<tag k="place" v="farm" />
		<tag k="ssr:stedsnr" v="180516" />
	</node>
	<node lat="60.12935555504194" lon="11.275166669279129" id="-18804">
		<tag k="name" v="Søndre Nesten" />
		<tag k="place" v="locality" />
		<tag k="ssr:stedsnr" v="180537" />
	</node>
	<node lat="60.0887361066083" lon="11.245766673271783" id="-18806">
		<tag k="building" v="industrial" />
		<tag k="name" v="Ingjer mølle" />
		<tag k="ssr:stedsnr" v="180895" />
	</node>
	<node lat="60.059665825182805" lon="11.222902099539533" id="-18807">
		<tag k="fixme" v="consider place=hamlet" />
		<tag k="name" v="Haskoldrud" />
		<tag k="place" v="farm" />
		<tag k="ssr:stedsnr" v="187002" />
	</node>
	<node lat="60.129233753318275" lon="11.153051865794179" id="-18808">
		<tag k="fixme" v="consider place=hamlet" />
		<tag k="name" v="Langeland" />
		<tag k="place" v="farm" />
		<tag k="ssr:stedsnr" v="187141" />
	</node>
	<node lat="60.12070099218182" lon="11.273913559059647" id="-18809">
		<tag k="fixme" v="consider place=hamlet" />
		<tag k="name" v="Vårum" />
		<tag k="place" v="farm" />
		<tag k="ssr:stedsnr" v="187152" />
	</node>
	<node lat="60.072586111956404" lon="11.28041944640953" id="-18810">
		<tag k="name" v="Nyslett" />
		<tag k="place" v="farm" />
		<tag k="ssr:stedsnr" v="187040" />
	</node>
	<node lat="60.14870000381871" lon="11.209911112108303" id="-18811">
		<tag k="name" v="Langemo" />
		<tag k="place" v="farm" />
		<tag k="ssr:stedsnr" v="187176" />
	</node>
	<node lat="60.15342222003494" lon="11.266252770486547" id="-18812">
		<tag k="name" v="Haugen" />
		<tag k="place" v="farm" />
		<tag k="ssr:stedsnr" v="187177" />
	</node>
	<node lat="60.17178657608541" lon="11.303053461495766" id="-18813">
		<tag k="name" v="Jødal" />
		<tag k="place" v="hamlet" />
		<tag k="ssr:stedsnr" v="187200" />
	</node>
	<node lat="60.156269442282216" lon="11.325569438971769" id="-18814">
		<tag k="name" v="Ellingdalen" />
		<tag k="place" v="farm" />
		<tag k="ssr:stedsnr" v="187209" />
	</node>
	<node lat="60.21821388668787" lon="11.186244452144095" id="-18816">
		<tag k="name" v="Sand" />
		<tag k="place" v="farm" />
		<tag k="ssr:stedsnr" v="187299" />
	</node>
	<node lat="60.12162778079312" lon="11.238466663738821" id="-18818">
		<tag k="name" v="Hestehagen" />
		<tag k="place" v="farm" />
		<tag k="ssr:stedsnr" v="223674" />
	</node>
	<node lat="60.15475555598654" lon="11.167741669937314" id="-18819">
		<tag k="name" v="Tjernstua" />
		<tag k="place" v="locality" />
		<tag k="ssr:stedsnr" v="223482" />
	</node>
	<node lat="60.167055557868544" lon="11.258988888107488" id="-18820">
		<tag k="name" v="Sogndalen" />
		<tag k="place" v="farm" />
		<tag k="ssr:stedsnr" v="223343" />
	</node>
	<node lat="60.17299166676394" lon="11.213313887534875" id="-18821">
		<tag k="name" v="Lisletten" />
		<tag k="place" v="isolated_dwelling" />
		<tag k="ssr:stedsnr" v="223350" />
	</node>
	<node lat="60.172369441913204" lon="11.150208336428301" id="-18824">
		<tag k="landuse" v="military" />
		<tag k="name" v="Langdalsleiren" />
		<tag k="ssr:stedsnr" v="284501" />
	</node>
	<node lat="60.09166388633014" lon="11.250013886017726" id="-18825">
		<tag k="name" v="Heiberg" />
		<tag k="place" v="farm" />
		<tag k="ssr:stedsnr" v="284375" />
	</node>
	<node lat="60.1111166675726" lon="11.24068610432004" id="-18826">
		<tag k="name" v="Grinderud" />
		<tag k="place" v="farm" />
		<tag k="ssr:stedsnr" v="284392" />
	</node>
	<node lat="60.131063889825825" lon="11.080241674452962" id="-18828">
		<tag k="building" v="industrial" />
		<tag k="name" v="Kråkfoss mølle" />
		<tag k="ssr:stedsnr" v="284671" />
	</node>
	<node lat="60.23344166567741" lon="11.154408327347673" id="-18829">
		<tag k="name" v="Østli" />
		<tag k="place" v="quarter" />
		<tag k="ssr:stedsnr" v="300623" />
	</node>
	<node lat="60.098744444177626" lon="11.142186108720798" id="-18832">
		<tag k="name" v="Bogstadbråten" />
		<tag k="place" v="locality" />
		<tag k="ssr:stedsnr" v="299365" />
	</node>
	<node lat="60.180929508960226" lon="11.237783316699401" id="-18833">
		<tag k="fixme" v="consider place=hamlet" />
		<tag k="name" v="Moen" />
		<tag k="place" v="farm" />
		<tag k="ssr:stedsnr" v="300730" />
	</node>
	<node lat="60.13410555906313" lon="11.09754166767993" id="-18834">
		<tag k="name" v="Ekelund" />
		<tag k="place" v="farm" />
		<tag k="ssr:stedsnr" v="301539" />
	</node>
	<node lat="60.13851110868944" lon="11.109041658020743" id="-18835">
		<tag k="name" v="Nordli" />
		<tag k="place" v="farm" />
		<tag k="ssr:stedsnr" v="301543" />
	</node>
	<node lat="60.13372499898997" lon="11.124094437018844" id="-18836">
		<tag k="name" v="Bjørke" />
		<tag k="place" v="farm" />
		<tag k="ssr:stedsnr" v="301544" />
	</node>
	<node lat="60.12686389001949" lon="11.28995554754973" id="-18837">
		<tag k="name" v="Onsrud ødegården" />
		<tag k="place" v="farm" />
		<tag k="ssr:stedsnr" v="301553" />
	</node>
	<node lat="60.13173333046685" lon="11.261266674316545" id="-18838">
		<tag k="name" v="Sømoen" />
		<tag k="place" v="farm" />
		<tag k="ssr:stedsnr" v="301556" />
	</node>
	<node lat="60.08240703710691" lon="11.22006657045611" id="-18839">
		<tag k="fixme" v="consider place=hamlet" />
		<tag k="name" v="Vestre Sørby" />
		<tag k="place" v="farm" />
		<tag k="ssr:stedsnr" v="301932" />
	</node>
	<node lat="60.09803888690638" lon="11.264186119749068" id="-18841">
		<tag k="name" v="Elvhaug" />
		<tag k="place" v="farm" />
		<tag k="ssr:stedsnr" v="308066" />
	</node>
	<node lat="60.12095877627507" lon="11.254593855406858" id="-18842">
		<tag k="fixme" v="consider place=hamlet" />
		<tag k="name" v="Skedsmo" />
		<tag k="place" v="farm" />
		<tag k="ssr:stedsnr" v="308119" />
	</node>
	<node lat="60.12372222102313" lon="11.162838887673505" id="-18843">
		<tag k="name" v="Presterud" />
		<tag k="place" v="locality" />
		<tag k="ssr:stedsnr" v="308122" />
	</node>
	<node lat="60.11291666355027" lon="11.285244438189968" id="-18844">
		<tag k="name" v="Langbakk" />
		<tag k="place" v="farm" />
		<tag k="ssr:stedsnr" v="309108" />
	</node>
	<node lat="60.150652778435145" lon="11.22701388323093" id="-18845">
		<tag k="name" v="Habbarstadmoen" />
		<tag k="place" v="farm" />
		<tag k="ssr:stedsnr" v="309200" />
	</node>
	<node lat="60.14462559869462" lon="11.154884400261468" id="-18846">
		<tag k="fixme" v="consider place=hamlet" />
		<tag k="name" v="Gjestad" />
		<tag k="place" v="farm" />
		<tag k="ssr:stedsnr" v="309210" />
	</node>
	<node lat="60.15873055764701" lon="11.13341665825309" id="-18847">
		<tag k="name" v="Jørnstua" />
		<tag k="place" v="farm" />
		<tag k="ssr:stedsnr" v="309211" />
	</node>
	<node lat="60.15592189982822" lon="11.263595200131835" id="-18848">
		<tag k="name" v="Furuset" />
		<tag k="place" v="hamlet" />
		<tag k="ssr:stedsnr" v="309248" />
	</node>
	<node lat="60.15972500432392" lon="11.169055559055533" id="-18849">
		<tag k="amenity" v="university" />
		<tag k="name" v="Romerike folkehøgskole" />
		<tag k="ssr:stedsnr" v="309252" />
	</node>
	<node lat="60.19312499912022" lon="11.237708334322825" id="-18850">
		<tag k="name" v="Kurverud" />
		<tag k="place" v="farm" />
		<tag k="ssr:stedsnr" v="309292" />
	</node>
	<node lat="60.23834079563034" lon="11.174793936266752" id="-18851">
		<tag k="fixme" v="consider place=hamlet" />
		<tag k="name" v="Risebru" />
		<tag k="place" v="farm" />
		<tag k="ssr:stedsnr" v="309365" />
	</node>
	<node lat="60.22805555804688" lon="11.153186114122656" id="-18852">
		<tag k="name" v="Sørli" />
		<tag k="place" v="farm" />
		<tag k="ssr:stedsnr" v="309370" />
	</node>
	<node lat="60.086827777178044" lon="11.289086117436103" id="-18853">
		<tag k="name" v="Sønstegård" />
		<tag k="place" v="farm" />
		<tag k="ssr:stedsnr" v="337487" />
	</node>
	<node lat="60.207575004100754" lon="11.13926389603217" id="-18861">
		<tag k="name" v="Lilleng" />
		<tag k="place" v="farm" />
		<tag k="ssr:stedsnr" v="360675" />
	</node>
	<node lat="60.19522222061605" lon="11.280627785606312" id="-18862">
		<tag k="name" v="Rotnebuhaugen" />
		<tag k="place" v="farm" />
		<tag k="ssr:stedsnr" v="360704" />
	</node>
	<node lat="60.16281666982061" lon="11.111969451429664" id="-18864">
		<tag k="amenity" v="school" />
		<tag k="name" v="Furusmo planteskole" />
		<tag k="ssr:stedsnr" v="361919" />
	</node>
	<node lat="60.17227777710308" lon="11.097541675596606" id="-18865">
		<tag k="name" v="Brudalen" />
		<tag k="place" v="farm" />
		<tag k="ssr:stedsnr" v="361923" />
	</node>
	<node lat="60.11492499717185" lon="11.293752781865598" id="-18867">
		<tag k="alt_name" v="Kverner vestre" />
		<tag k="name" v="Vestre Kverner" />
		<tag k="place" v="farm" />
		<tag k="ssr:stedsnr" v="362552" />
	</node>
	<node lat="60.117208336445785" lon="11.302352784858616" id="-18868">
		<tag k="alt_name" v="Kverner nordre" />
		<tag k="name" v="Nordre Kverner" />
		<tag k="place" v="farm" />
		<tag k="ssr:stedsnr" v="362555" />
	</node>
	<node lat="60.11255962288726" lon="11.307926192064587" id="-18869">
		<tag k="fixme" v="consider place=hamlet" />
		<tag k="name" v="Nedre Rolstad" />
		<tag k="place" v="farm" />
		<tag k="ssr:stedsnr" v="362557" />
	</node>
	<node lat="60.14765833680975" lon="11.222527777188201" id="-18870">
		<tag k="alt_name" v="Holm nordre" />
		<tag k="name" v="Nordre Holm" />
		<tag k="place" v="farm" />
		<tag k="ssr:stedsnr" v="362592" />
	</node>
	<node lat="60.14871110961861" lon="11.101911116891113" id="-18871">
		<tag k="name" v="Låke" />
		<tag k="place" v="farm" />
		<tag k="ssr:stedsnr" v="362536" />
	</node>
	<node lat="60.13336388705443" lon="11.14609445094995" id="-18872">
		<tag k="name" v="Døli" />
		<tag k="place" v="farm" />
		<tag k="ssr:stedsnr" v="362547" />
	</node>
	<node lat="60.06347221960212" lon="11.148722220808905" id="-18873">
		<tag k="name" v="Isingrud" />
		<tag k="place" v="farm" />
		<tag k="ssr:stedsnr" v="362961" />
	</node>
	<node lat="60.08693333063438" lon="11.249941657602639" id="-18874">
		<tag k="name" v="Ingjerhaugen" />
		<tag k="place" v="farm" />
		<tag k="ssr:stedsnr" v="362900" />
	</node>
	<node lat="60.088580559763514" lon="11.132536112258586" id="-18876">
		<tag k="name" v="Olstad" />
		<tag k="place" v="farm" />
		<tag k="ssr:stedsnr" v="362922" />
	</node>
	<node lat="60.099379966829936" lon="11.234938029136556" id="-18878">
		<tag k="name" v="Lund" />
		<tag k="place" v="hamlet" />
		<tag k="ssr:stedsnr" v="369044" />
	</node>
	<node lat="60.09487716292485" lon="11.210979872408078" id="-18879">
		<tag k="alt_name" v="Børgen" />
		<tag k="name" v="Borgen" />
		<tag k="place" v="hamlet" />
		<tag k="ssr:stedsnr" v="369047" />
	</node>
	<node lat="60.097923458103224" lon="11.189153106343912" id="-18880">
		<tag k="name" v="Flatby" />
		<tag k="place" v="hamlet" />
		<tag k="ssr:stedsnr" v="369050" />
	</node>
	<node lat="60.08718535645722" lon="11.242767299710257" id="-18881">
		<tag k="alt_name" v="Ingjer" />
		<tag k="fixme" v="consider place=hamlet" />
		<tag k="name" v="Inngjerd" />
		<tag k="place" v="farm" />
		<tag k="ssr:stedsnr" v="369083" />
	</node>
	<node lat="60.11435472887048" lon="11.308475340169467" id="-18882">
		<tag k="name" v="Rolstad" />
		<tag k="old_name" v="Rolvstad" />
		<tag k="place" v="hamlet" />
		<tag k="ssr:stedsnr" v="369090" />
	</node>
	<node lat="60.132711107549156" lon="11.082219439128787" id="-18885">
		<tag k="name" v="Mølledalen" />
		<tag k="place" v="isolated_dwelling" />
		<tag k="ssr:stedsnr" v="405680" />
	</node>
	<node lat="60.09546904254515" lon="11.12568457416292" id="-18891">
		<tag k="alt_name" v="Holum vestre" />
		<tag k="fixme" v="consider place=hamlet" />
		<tag k="name" v="Vestre Holum" />
		<tag k="place" v="farm" />
		<tag k="ssr:stedsnr" v="421323" />
	</node>
	<node lat="60.225247226768886" lon="11.237566660086086" id="-18892">
		<tag k="alt_name" v="Søndre Hjelkerud" />
		<tag k="name" v="Søndre Jelkerud" />
		<tag k="place" v="farm" />
		<tag k="ssr:stedsnr" v="422617" />
	</node>
	<node lat="60.23815833573597" lon="11.170344442591096" id="-18893">
		<tag k="alt_name" v="Risebru vestre" />
		<tag k="name" v="Vestre Risebru" />
		<tag k="place" v="farm" />
		<tag k="ssr:stedsnr" v="422626" />
	</node>
	<node lat="60.19934721962122" lon="11.305399997216968" id="-18894">
		<tag k="name" v="Fjellstad" />
		<tag k="place" v="isolated_dwelling" />
		<tag k="ssr:stedsnr" v="422631" />
	</node>
	<node lat="60.1930416690397" lon="11.294547221761048" id="-18896">
		<tag k="alt_name" v="Grøndalen søndre" />
		<tag k="name" v="Søndre Grøndalen" />
		<tag k="place" v="farm" />
		<tag k="ssr:stedsnr" v="422718" />
	</node>
	<node lat="60.19673055975016" lon="11.273388884854308" id="-18897">
		<tag k="name" v="Nordpolen" />
		<tag k="place" v="farm" />
		<tag k="ssr:stedsnr" v="422720" />
	</node>
	<node lat="60.15842702391813" lon="11.088961557818486" id="-18898">
		<tag k="alt_name" v="Kjos lille" />
		<tag k="fixme" v="consider place=hamlet" />
		<tag k="name" v="Lille Kjos" />
		<tag k="place" v="farm" />
		<tag k="ssr:stedsnr" v="422895" />
	</node>
	<node lat="60.15270336078258" lon="11.264625917430198" id="-18899">
		<tag k="alt_name" v="Furuset nedre" />
		<tag k="fixme" v="consider place=hamlet" />
		<tag k="name" v="Nedre Furuset" />
		<tag k="place" v="farm" />
		<tag k="ssr:stedsnr" v="422901" />
	</node>
	<node lat="60.14069166545211" lon="11.118150005281043" id="-18901">
		<tag k="name" v="Nedre Hovin" />
		<tag k="place" v="farm" />
		<tag k="ssr:stedsnr" v="423572" />
	</node>
	<node lat="60.15217978599237" lon="11.092271579378254" id="-18902">
		<tag k="fixme" v="consider place=hamlet" />
		<tag k="name" v="Vestre Kjos" />
		<tag k="place" v="farm" />
		<tag k="ssr:stedsnr" v="423574" />
	</node>
	<node lat="60.069949248574886" lon="11.185083316355964" id="-18903">
		<tag k="alt_name" v="Romsås nordre" />
		<tag k="fixme" v="consider place=hamlet" />
		<tag k="name" v="Nordre Romsås" />
		<tag k="place" v="farm" />
		<tag k="ssr:stedsnr" v="423935" />
	</node>
	<node lat="60.086808931502816" lon="11.154722143341036" id="-18904">
		<tag k="name" v="Haugerhaugen" />
		<tag k="place" v="farm" />
		<tag k="ssr:stedsnr" v="423938" />
	</node>
	<node lat="60.08576791337924" lon="11.164044419155678" id="-18905">
		<tag k="fixme" v="consider place=hamlet" />
		<tag k="name" v="Søndre Hauger" />
		<tag k="place" v="farm" />
		<tag k="ssr:stedsnr" v="423939" />
	</node>
	<node lat="60.073977774191455" lon="11.141316661216003" id="-18907">
		<tag k="name" v="Ullersmo" />
		<tag k="place" v="farm" />
		<tag k="ssr:stedsnr" v="423962" />
	</node>
	<node lat="60.07728055204732" lon="11.110108333469345" id="-18908">
		<tag k="name" v="Nordli" />
		<tag k="place" v="farm" />
		<tag k="ssr:stedsnr" v="423967" />
	</node>
	<node lat="60.08557778124354" lon="11.134858325111605" id="-18909">
		<tag k="alt_name" v="Åreppen" />
		<tag k="amenity" v="school" />
		<tag k="name" v="Åreppen skole" />
		<tag k="ssr:stedsnr" v="430080" />
	</node>
	<node lat="60.168388889325044" lon="11.262955552337006" id="-18910">
		<tag k="alt_name" v="Sanderud" />
		<tag k="name" v="Sannerud" />
		<tag k="place" v="farm" />
		<tag k="ssr:stedsnr" v="430191" />
	</node>
	<node lat="60.1736861156093" lon="11.169097220561689" id="-18911">
		<tag k="name" v="Smedstua" />
		<tag k="place" v="farm" />
		<tag k="ssr:stedsnr" v="430195" />
	</node>
	<node lat="60.079463891667146" lon="11.302324992179875" id="-18912">
		<tag k="historic" v="shieling" />
		<tag k="name" v="Holtsetra" />
		<tag k="place" v="isolated_dwelling" />
		<tag k="ssr:stedsnr" v="430033" />
	</node>
	<node lat="60.10740555148993" lon="11.228824998531966" id="-18913">
		<tag k="fixme" v="multiple name tags, choose one and add the other to alt_name" />
		<tag k="name" v="Fjellet;Borgenfjellet" />
		<tag k="place" v="farm" />
		<tag k="ssr:stedsnr" v="430111" />
	</node>
	<node lat="60.10837499736538" lon="11.289066664857272" id="-18914">
		<tag k="name" v="Fossen" />
		<tag k="place" v="farm" />
		<tag k="ssr:stedsnr" v="430112" />
	</node>
	<node lat="60.12995833604438" lon="11.23885276911801" id="-18915">
		<tag k="name" v="Ekornrud" />
		<tag k="place" v="farm" />
		<tag k="ssr:stedsnr" v="430116" />
	</node>
	<node lat="60.13331389307259" lon="11.308177783315156" id="-18916">
		<tag k="name" v="Granholt" />
		<tag k="place" v="farm" />
		<tag k="ssr:stedsnr" v="430120" />
	</node>
	<node lat="60.133580870461465" lon="11.146343294315477" id="-18917">
		<tag k="fixme" v="consider place=hamlet" />
		<tag k="name" v="Døli" />
		<tag k="place" v="farm" />
		<tag k="ssr:stedsnr" v="430122" />
	</node>
	<node lat="60.125427776592446" lon="11.234727781663993" id="-18918">
		<tag k="alt_name" v="Ødegard;Ødegården" />
		<tag k="name" v="Ødegarden" />
		<tag k="old_name" v="Ødegaarden" />
		<tag k="place" v="farm" />
		<tag k="ssr:stedsnr" v="430124" />
	</node>
	<node lat="60.14691666382617" lon="11.32355833287994" id="-18919">
		<tag k="alt_name" v="Samega" />
		<tag k="name" v="Sameiga" />
		<tag k="place" v="farm" />
		<tag k="ssr:stedsnr" v="430143" />
	</node>
	<node lat="60.14832367881043" lon="11.134879333213748" id="-18921">
		<tag k="alt_name" v="Ljøgodt" />
		<tag k="fixme" v="consider place=hamlet" />
		<tag k="name" v="Ljøgot" />
		<tag k="place" v="farm" />
		<tag k="ssr:stedsnr" v="431973" />
	</node>
	<node lat="60.09478331223634" lon="11.183764512672113" id="-18922">
		<tag k="fixme" v="consider place=hamlet" />
		<tag k="name" v="Lille Flatby" />
		<tag k="place" v="farm" />
		<tag k="ssr:stedsnr" v="526347" />
	</node>
	<node lat="60.16195833703193" lon="11.298922214075565" id="-18924">
		<tag k="name" v="Nordre Berg" />
		<tag k="place" v="farm" />
		<tag k="ssr:stedsnr" v="527356" />
	</node>
	<node lat="60.155863889887755" lon="11.321311112428843" id="-18925">
		<tag k="alt_name" v="Haugen" />
		<tag k="name" v="Bergshaugen" />
		<tag k="place" v="locality" />
		<tag k="ssr:stedsnr" v="527357" />
	</node>
	<node lat="60.168518225358945" lon="11.299108414649845" id="-18926">
		<tag k="alt_name" v="Hjødal søndre;Søndre Hjødal" />
		<tag k="fixme" v="consider place=hamlet" />
		<tag k="name" v="Søndre Jødal" />
		<tag k="place" v="farm" />
		<tag k="ssr:stedsnr" v="527359" />
	</node>
	<node lat="60.13099166304894" lon="11.103483327883824" id="-18927">
		<tag k="name" v="Nedre Sundby" />
		<tag k="place" v="farm" />
		<tag k="ssr:stedsnr" v="527647" />
	</node>
	<node lat="60.12505555111195" lon="11.097197230254107" id="-18929">
		<tag k="name" v="Øvre Kolby" />
		<tag k="place" v="farm" />
		<tag k="ssr:stedsnr" v="527661" />
	</node>
	<node lat="60.18605277457054" lon="11.272738887515247" id="-18931">
		<tag k="name" v="Nedre Jaren" />
		<tag k="place" v="farm" />
		<tag k="ssr:stedsnr" v="543701" />
	</node>
	<node lat="60.1759277783208" lon="11.09167776969204" id="-18932">
		<tag k="name" v="Lundby" />
		<tag k="place" v="farm" />
		<tag k="ssr:stedsnr" v="543894" />
	</node>
	<node lat="60.14576111419337" lon="11.164194445546478" id="-18935">
		<tag k="amenity" v="school" />
		<tag k="name" v="Jessheim skolesenter" />
		<tag k="ssr:stedsnr" v="544525" />
	</node>
	<node lat="60.15091388699166" lon="11.106447223823745" id="-18936">
		<tag k="name" v="Låke" />
		<tag k="place" v="farm" />
		<tag k="ssr:stedsnr" v="544537" />
	</node>
	<node lat="60.12613055546504" lon="11.306325007248274" id="-18937">
		<tag k="name" v="Dalstua" />
		<tag k="place" v="farm" />
		<tag k="ssr:stedsnr" v="544556" />
	</node>
	<node lat="60.07759166395362" lon="11.113705549721606" id="-18938">
		<tag k="name" v="Bekkevoll" />
		<tag k="place" v="isolated_dwelling" />
		<tag k="ssr:stedsnr" v="544960" />
	</node>
	<node lat="60.07120000321849" lon="11.134755552633234" id="-18939">
		<tag k="amenity" v="school" />
		<tag k="name" v="Kløfta gamle skole" />
		<tag k="ssr:stedsnr" v="544963" />
	</node>
	<node lat="60.15036619176753" lon="11.102800984883238" id="-18940">
		<tag k="fixme" v="consider place=hamlet" />
		<tag k="name" v="Låke" />
		<tag k="place" v="farm" />
		<tag k="ssr:stedsnr" v="551179" />
	</node>
	<node lat="60.151630558490254" lon="11.118094449723221" id="-18941">
		<tag k="name" v="Skinnebøl" />
		<tag k="place" v="farm" />
		<tag k="ssr:stedsnr" v="551180" />
	</node>
	<node lat="60.14624166782268" lon="11.311102773386926" id="-18942">
		<tag k="name" v="Holtbråten" />
		<tag k="place" v="farm" />
		<tag k="ssr:stedsnr" v="551185" />
	</node>
	<node lat="60.19575571869503" lon="11.166008186558791" id="-18943">
		<tag k="name" v="Furulund" />
		<tag k="place" v="hamlet" />
		<tag k="ssr:stedsnr" v="551265" />
	</node>
	<node lat="60.19158573933915" lon="11.273028936505083" id="-18944">
		<tag k="alt_name" v="Rotneby" />
		<tag k="fixme" v="consider place=hamlet" />
		<tag k="name" v="Rotnebu" />
		<tag k="place" v="farm" />
		<tag k="ssr:stedsnr" v="551268" />
	</node>
	<node lat="60.19031666393608" lon="11.298719441472437" id="-18945">
		<tag k="name" v="Flaen" />
		<tag k="place" v="farm" />
		<tag k="ssr:stedsnr" v="551271" />
	</node>
	<node lat="60.105844446862505" lon="11.201608325175961" id="-18947">
		<tag k="name" v="Uranienborg" />
		<tag k="place" v="farm" />
		<tag k="ssr:stedsnr" v="551133" />
	</node>
	<node lat="60.15647778115217" lon="11.134716672818515" id="-18948">
		<tag k="name" v="Grorudholtet" />
		<tag k="place" v="farm" />
		<tag k="ssr:stedsnr" v="551200" />
	</node>
	<node lat="60.098597221470726" lon="11.258633332488554" id="-18949">
		<tag k="alt_name" v="Sletner" />
		<tag k="name" v="Slettner" />
		<tag k="place" v="farm" />
		<tag k="ssr:stedsnr" v="551077" />
	</node>
	<node lat="60.195490222436504" lon="11.063684016434001" id="-18950">
		<tag k="alt_name" v="Garder, østre;Garder østre" />
		<tag k="fixme" v="consider place=hamlet" />
		<tag k="name" v="Østre Garder" />
		<tag k="place" v="farm" />
		<tag k="ssr:stedsnr" v="551759" />
	</node>
	<node lat="60.16135555410833" lon="11.298466674792428" id="-18951">
		<tag k="name" v="Søndre Berg" />
		<tag k="place" v="farm" />
		<tag k="ssr:stedsnr" v="587375" />
	</node>
	<node lat="60.09279722244756" lon="11.182391667696523" id="-18952">
		<tag k="name" v="Lille Flatby" />
		<tag k="place" v="farm" />
		<tag k="ssr:stedsnr" v="587384" />
	</node>
	<node lat="60.103291530363435" lon="11.154136037590233" id="-18954">
		<tag k="name" v="Østre Stanger" />
		<tag k="place" v="farm" />
		<tag k="ssr:stedsnr" v="602355" />
	</node>
	<node lat="60.229586109274784" lon="11.225330557827341" id="-18955">
		<tag k="name" v="Sætre" />
		<tag k="place" v="farm" />
		<tag k="ssr:stedsnr" v="603586" />
	</node>
	<node lat="60.18634166274423" lon="11.257411110430377" id="-18956">
		<tag k="name" v="Østre Støvner" />
		<tag k="place" v="farm" />
		<tag k="ssr:stedsnr" v="603680" />
	</node>
	<node lat="60.140530551832036" lon="11.309438893319784" id="-18959">
		<tag k="name" v="Sand" />
		<tag k="place" v="farm" />
		<tag k="ssr:stedsnr" v="603891" />
	</node>
	<node lat="60.17275395707555" lon="11.080618357379244" id="-18960">
		<tag k="alt_name" v="Røgler lille" />
		<tag k="fixme" v="consider place=hamlet" />
		<tag k="name" v="Lille Røgler" />
		<tag k="place" v="farm" />
		<tag k="ssr:stedsnr" v="603915" />
	</node>
	<node lat="60.08916665114944" lon="11.121099142816426" id="-18964">
		<tag k="fixme" v="consider place=hamlet" />
		<tag k="name" v="Nedre Olstad" />
		<tag k="place" v="farm" />
		<tag k="ssr:stedsnr" v="604821" />
	</node>
	<node lat="60.239105553451175" lon="11.187080554296406" id="-18965">
		<tag k="name" v="Smedbråten" />
		<tag k="place" v="farm" />
		<tag k="ssr:stedsnr" v="604274" />
	</node>
	<node lat="60.12977777435121" lon="11.273141666833205" id="-18966">
		<tag k="name" v="Øvre Nesten" />
		<tag k="place" v="farm" />
		<tag k="ssr:stedsnr" v="604568" />
	</node>
	<node lat="60.11726944722917" lon="11.295263897453339" id="-18967">
		<tag k="alt_name" v="Kverner vestre" />
		<tag k="name" v="Vestre Kverner" />
		<tag k="place" v="farm" />
		<tag k="ssr:stedsnr" v="604570" />
	</node>
	<node lat="60.07557556169457" lon="11.132826379294245" id="-18969">
		<tag k="name" v="Fredly søndre" />
		<tag k="place" v="quarter" />
		<tag k="ssr:stedsnr" v="604949" />
	</node>
	<node lat="60.067658333087465" lon="11.136072228652942" id="-18970">
		<tag k="name" v="Nordre Bakke" />
		<tag k="place" v="quarter" />
		<tag k="ssr:stedsnr" v="604982" />
	</node>
	<node lat="60.06728887847318" lon="11.180540527058707" id="-18971">
		<tag k="alt_name" v="Romsås søndre" />
		<tag k="fixme" v="consider place=hamlet" />
		<tag k="name" v="Søndre Romsås" />
		<tag k="place" v="farm" />
		<tag k="ssr:stedsnr" v="604985" />
	</node>
	<node lat="60.087542114162936" lon="11.157944271218836" id="-18973">
		<tag k="fixme" v="consider place=hamlet" />
		<tag k="name" v="Nordre Hauger" />
		<tag k="place" v="farm" />
		<tag k="ssr:stedsnr" v="604935" />
	</node>
	<node lat="60.088305558092586" lon="11.120650001552287" id="-18974">
		<tag k="alt_name" v="Olstad nedre" />
		<tag k="name" v="Nedre Olstad" />
		<tag k="place" v="farm" />
		<tag k="ssr:stedsnr" v="604939" />
	</node>
	<node lat="60.18728879738852" lon="11.159244630030205" id="-18976">
		<tag k="fixme" v="consider place=hamlet" />
		<tag k="name" v="Vilberg" />
		<tag k="old_name" v="Viberg" />
		<tag k="place" v="farm" />
		<tag k="ssr:stedsnr" v="611230" />
	</node>
	<node lat="60.18741372967968" lon="11.168923500887626" id="-18977">
		<tag k="fixme" v="consider place=hamlet" />
		<tag k="name" v="Li" />
		<tag k="place" v="farm" />
		<tag k="ssr:stedsnr" v="611231" />
	</node>
	<node lat="60.185777776782544" lon="11.263016665556274" id="-18978">
		<tag k="name" v="Nordkisa" />
		<tag k="place" v="village" />
		<tag k="ssr:stedsnr" v="611243" />
	</node>
	<node lat="60.17302500223777" lon="11.308941665134014" id="-18979">
		<tag k="name" v="Østmo" />
		<tag k="place" v="farm" />
		<tag k="ssr:stedsnr" v="611246" />
	</node>
	<node lat="60.17940000193373" lon="11.30574999801938" id="-18980">
		<tag k="alt_name" v="Stendalen" />
		<tag k="name" v="Steindalen" />
		<tag k="place" v="farm" />
		<tag k="ssr:stedsnr" v="611247" />
	</node>
	<node lat="60.062090204155645" lon="11.168453815377324" id="-18982">
		<tag k="alt_name" v="Ile, søndre;Ile søndre" />
		<tag k="fixme" v="consider place=hamlet" />
		<tag k="name" v="Søndre Ile" />
		<tag k="place" v="farm" />
		<tag k="ssr:stedsnr" v="612001" />
	</node>
	<node lat="60.07949510577163" lon="11.109531365976771" id="-18983">
		<tag k="fixme" v="consider place=hamlet" />
		<tag k="name" v="Averstad" />
		<tag k="place" v="farm" />
		<tag k="ssr:stedsnr" v="612043" />
	</node>
	<node lat="60.07558889243417" lon="11.186575003915836" id="-18984">
		<tag k="name" v="Fredheim" />
		<tag k="place" v="farm" />
		<tag k="ssr:stedsnr" v="612047" />
	</node>
	<node lat="60.145994441667995" lon="11.117261107943678" id="-18985">
		<tag k="fixme" v="consider place=hamlet" />
		<tag k="name" v="Lauten" />
		<tag k="place" v="farm" />
		<tag k="ssr:stedsnr" v="612200" />
	</node>
	<node lat="60.08609652027157" lon="11.158858674629322" id="-18986">
		<tag k="name" v="Hauger" />
		<tag k="place" v="hamlet" />
		<tag k="ssr:stedsnr" v="612093" />
	</node>
	<node lat="60.088130555861206" lon="11.20494165877451" id="-18987">
		<tag k="name" v="Kåstadhagen" />
		<tag k="place" v="farm" />
		<tag k="ssr:stedsnr" v="612097" />
	</node>
	<node lat="60.08465277343995" lon="11.259563893717822" id="-18988">
		<tag k="alt_name" v="Dronsrud" />
		<tag k="name" v="Dromsrud" />
		<tag k="place" v="farm" />
		<tag k="ssr:stedsnr" v="612111" />
	</node>
	<node lat="60.08448611202634" lon="11.270580550109973" id="-18989">
		<tag k="name" v="Hellerud" />
		<tag k="place" v="farm" />
		<tag k="ssr:stedsnr" v="612113" />
	</node>
	<node lat="60.15455277886274" lon="11.314347219766718" id="-18990">
		<tag k="name" v="Nordmoen" />
		<tag k="place" v="farm" />
		<tag k="ssr:stedsnr" v="612231" />
	</node>
	<node lat="60.226052780832326" lon="11.236105549359634" id="-18991">
		<tag k="name" v="Jelkerud" />
		<tag k="place" v="farm" />
		<tag k="ssr:stedsnr" v="612329" />
	</node>
	<node lat="60.095170455276325" lon="11.19058596874086" id="-18992">
		<tag k="fixme" v="consider place=hamlet" />
		<tag k="name" v="Store Flatby" />
		<tag k="place" v="farm" />
		<tag k="ssr:stedsnr" v="648383" />
	</node>
	<node lat="60.172508334492655" lon="11.170805562219925" id="-18994">
		<tag k="amenity" v="nursing_home" />
		<tag k="name" v="Jessheim helseheim" />
		<tag k="ssr:stedsnr" v="648485" />
	</node>
	<node lat="60.12573611366644" lon="11.100788882420657" id="-18995">
		<tag k="name" v="Nedre Kolby" />
		<tag k="place" v="farm" />
		<tag k="ssr:stedsnr" v="648667" />
	</node>
	<node lat="60.13049721799068" lon="11.100138882165641" id="-18996">
		<tag k="name" v="Kolbyhaugen" />
		<tag k="place" v="farm" />
		<tag k="ssr:stedsnr" v="648668" />
	</node>
	<node lat="60.094669667627386" lon="11.178365446372606" id="-18999">
		<tag k="alt_name" v="Ramby nedre" />
		<tag k="fixme" v="consider place=hamlet" />
		<tag k="name" v="Nedre Ramby" />
		<tag k="place" v="farm" />
		<tag k="ssr:stedsnr" v="663322" />
	</node>
	<node lat="60.19313333638163" lon="11.154163897147972" id="-19003">
		<tag k="name" v="Dagsjøen" />
		<tag k="place" v="farm" />
		<tag k="ssr:stedsnr" v="664755" />
	</node>
	<node lat="60.13619166339772" lon="11.226074997239637" id="-19005">
		<tag k="name" v="Rismoen" />
		<tag k="place" v="quarter" />
		<tag k="ssr:stedsnr" v="665666" />
	</node>
	<node lat="60.082039566294085" lon="11.167455668765578" id="-19006">
		<tag k="fixme" v="consider place=hamlet" />
		<tag k="name" v="Ullensaker prestegård" />
		<tag k="place" v="farm" />
		<tag k="ssr:stedsnr" v="665949" />
	</node>
	<node lat="60.105383336474965" lon="11.14222222731279" id="-19011">
		<tag k="name" v="Stangerhaugen" />
		<tag k="place" v="locality" />
		<tag k="ssr:stedsnr" v="724331" />
	</node>
	<node lat="60.18133055241035" lon="11.23607500349098" id="-19012">
		<tag k="name" v="Moheim" />
		<tag k="place" v="isolated_dwelling" />
		<tag k="ssr:stedsnr" v="725688" />
	</node>
	<node lat="60.198016666969075" lon="11.304008336948495" id="-19017">
		<tag k="alt_name" v="Grøndalen nordre" />
		<tag k="name" v="Nordre Grøndalen" />
		<tag k="place" v="farm" />
		<tag k="ssr:stedsnr" v="725576" />
	</node>
	<node lat="60.149113893066335" lon="11.278063892904868" id="-19019">
		<tag k="alt_name" v="Stokstad nedre" />
		<tag k="name" v="Nedre Stokstad" />
		<tag k="place" v="farm" />
		<tag k="ssr:stedsnr" v="725937" />
	</node>
	<node lat="60.13353611496728" lon="11.287052781568457" id="-19020">
		<tag k="landuse" v="military" />
		<tag k="name" v="Onsrud" />
		<tag k="ssr:stedsnr" v="725947" />
	</node>
	<node lat="60.13282221880916" lon="11.245747216742998" id="-19021">
		<tag k="name" v="Habbarstad" />
		<tag k="place" v="farm" />
		<tag k="ssr:stedsnr" v="725948" />
	</node>
	<node lat="60.147849996806315" lon="11.300277771874972" id="-19022">
		<tag k="name" v="Nordheim" />
		<tag k="place" v="farm" />
		<tag k="ssr:stedsnr" v="725895" />
	</node>
	<node lat="60.14448689659463" lon="11.122371634580883" id="-19023">
		<tag k="fixme" v="consider place=hamlet" />
		<tag k="name" v="Nordre Hovin" />
		<tag k="place" v="farm" />
		<tag k="ssr:stedsnr" v="726552" />
	</node>
	<node lat="60.14953055779952" lon="11.15044444619605" id="-19024">
		<tag k="name" v="Holen" />
		<tag k="place" v="farm" />
		<tag k="ssr:stedsnr" v="726554" />
	</node>
	<node lat="60.14724444734739" lon="11.125236115996065" id="-19026">
		<tag k="building" v="commercial" />
		<tag k="name" v="Hjørnet" />
		<tag k="ssr:stedsnr" v="726649" />
	</node>
	<node lat="60.07728610858389" lon="11.10753889552065" id="-19029">
		<tag k="name" v="Elverhøy" />
		<tag k="place" v="isolated_dwelling" />
		<tag k="ssr:stedsnr" v="726963" />
	</node>
	<node lat="60.10749721968692" lon="11.247566662634409" id="-19030">
		<tag k="name" v="Østre Flindrum" />
		<tag k="place" v="farm" />
		<tag k="ssr:stedsnr" v="728093" />
	</node>
	<node lat="60.16217224964819" lon="11.10736635402897" id="-19031">
		<tag k="fixme" v="consider place=hamlet" />
		<tag k="name" v="Melby" />
		<tag k="place" v="farm" />
		<tag k="ssr:stedsnr" v="733188" />
	</node>
	<node lat="60.180572223423226" lon="11.232613891714397" id="-19032">
		<tag k="name" v="Moen" />
		<tag k="place" v="farm" />
		<tag k="ssr:stedsnr" v="733236" />
	</node>
	<node lat="60.093512985865274" lon="11.151771959620332" id="-19033">
		<tag k="name" v="Bogstad" />
		<tag k="place" v="hamlet" />
		<tag k="ssr:stedsnr" v="734071" />
	</node>
	<node lat="60.17134722220205" lon="11.308088888218919" id="-19034">
		<tag k="alt_name" v="Oppistun" />
		<tag k="name" v="Oppistuen" />
		<tag k="place" v="farm" />
		<tag k="ssr:stedsnr" v="769353" />
	</node>
	<node lat="60.093305554016005" lon="11.191274992610564" id="-19035">
		<tag k="name" v="Store Flatby" />
		<tag k="place" v="farm" />
		<tag k="ssr:stedsnr" v="769362" />
	</node>
	<node lat="60.09463412379526" lon="11.203622542938332" id="-19036">
		<tag k="alt_name" v="Store Borgen" />
		<tag k="fixme" v="consider place=hamlet" />
		<tag k="name" v="Borgen" />
		<tag k="place" v="farm" />
		<tag k="ssr:stedsnr" v="769364" />
	</node>
	<node lat="60.09409411897522" lon="11.214540903607784" id="-19037">
		<tag k="alt_name" v="Borgen lille" />
		<tag k="fixme" v="consider place=hamlet" />
		<tag k="name" v="Lille Borgen" />
		<tag k="place" v="farm" />
		<tag k="ssr:stedsnr" v="769366" />
	</node>
	<node lat="60.09234444214912" lon="11.275327775632642" id="-19038">
		<tag k="alt_name" v="Vettal store" />
		<tag k="name" v="Store Vettal" />
		<tag k="place" v="farm" />
		<tag k="ssr:stedsnr" v="769378" />
	</node>
	<node lat="60.13002691724943" lon="11.155455097555263" id="-19040">
		<tag k="name" v="Nordre Langeland" />
		<tag k="place" v="farm" />
		<tag k="ssr:stedsnr" v="769641" />
	</node>
	<node lat="60.1550694487723" lon="11.1759444364182" id="-19041">
		<tag k="name" v="Nordbymoen" />
		<tag k="place" v="quarter" />
		<tag k="ssr:stedsnr" v="769485" />
	</node>
	<node lat="60.11581666866727" lon="11.194013885256956" id="-19042">
		<tag k="name" v="Sydseter" />
		<tag k="place" v="farm" />
		<tag k="ssr:stedsnr" v="769650" />
	</node>
	<node lat="60.12000833755832" lon="11.11476943628606" id="-19043">
		<tag k="alt_name" v="Haga" />
		<tag k="name" v="Nordre Haga" />
		<tag k="place" v="farm" />
		<tag k="ssr:stedsnr" v="769666" />
	</node>
	<node lat="60.22349166483236" lon="11.149311106227108" id="-19047">
		<tag k="name" v="Nordre Nordmyra" />
		<tag k="place" v="farm" />
		<tag k="ssr:stedsnr" v="785594" />
	</node>
	<node lat="60.158658329777715" lon="11.070955549153403" id="-19048">
		<tag k="name" v="Øvre Hallingstad" />
		<tag k="place" v="farm" />
		<tag k="ssr:stedsnr" v="786902" />
	</node>
	<node lat="60.10029432030772" lon="11.119887967236126" id="-19051">
		<tag k="fixme" v="consider place=hamlet" />
		<tag k="name" v="Rud" />
		<tag k="place" v="farm" />
		<tag k="ssr:stedsnr" v="794060" />
	</node>
	<node lat="60.127961111196484" lon="11.209549995771292" id="-19052">
		<tag k="alt_name" v="Randbybråten" />
		<tag k="name" v="Rambybråten" />
		<tag k="place" v="farm" />
		<tag k="ssr:stedsnr" v="794136" />
	</node>
	<node lat="60.12320990682173" lon="11.150852588133194" id="-19053">
		<tag k="fixme" v="consider place=hamlet" />
		<tag k="name" v="Trøgstad" />
		<tag k="place" v="farm" />
		<tag k="ssr:stedsnr" v="794137" />
	</node>
	<node lat="60.087287338461756" lon="11.123224046842626" id="-19055">
		<tag k="name" v="Olstad" />
		<tag k="place" v="hamlet" />
		<tag k="ssr:stedsnr" v="794073" />
	</node>
	<node lat="60.14753912244756" lon="11.111838580788998" id="-19056">
		<tag k="fixme" v="consider place=hamlet" />
		<tag k="name" v="Gislevoll" />
		<tag k="place" v="farm" />
		<tag k="ssr:stedsnr" v="794153" />
	</node>
	<node lat="60.139950002061234" lon="11.303600009028232" id="-19057">
		<tag k="name" v="Moen" />
		<tag k="place" v="farm" />
		<tag k="ssr:stedsnr" v="794161" />
	</node>
	<node lat="60.214727774590884" lon="11.161605554938673" id="-19058">
		<tag k="name" v="Nordheim" />
		<tag k="place" v="farm" />
		<tag k="ssr:stedsnr" v="794269" />
	</node>
	<node lat="60.222377773597096" lon="11.250572220548213" id="-19059">
		<tag k="name" v="Toppenhaug" />
		<tag k="place" v="farm" />
		<tag k="ssr:stedsnr" v="794280" />
	</node>
	<node lat="60.22879220442118" lon="11.225798290019275" id="-19060">
		<tag k="fixme" v="consider place=hamlet" />
		<tag k="name" v="Sætre" />
		<tag k="place" v="farm" />
		<tag k="ssr:stedsnr" v="794296" />
	</node>
	<node lat="60.09128055563878" lon="11.219538894611588" id="-19062">
		<tag k="alt_name" v="Nafstad søndre" />
		<tag k="name" v="Søndre Nafstad" />
		<tag k="place" v="farm" />
		<tag k="ssr:stedsnr" v="830357" />
	</node>
	<node lat="60.15560555255072" lon="11.173383339406172" id="-19063">
		<tag k="amenity" v="nursing_home" />
		<tag k="name" v="Skogtun" />
		<tag k="ssr:stedsnr" v="830452" />
	</node>
	<node lat="60.11388822423982" lon="11.138862619860666" id="-19064">
		<tag k="alt_name" v="Ullern vestre;Vestre Ullern" />
		<tag k="name" v="Vestre Ulleren" />
		<tag k="place" v="farm" />
		<tag k="ssr:stedsnr" v="830664" />
	</node>
	<node lat="60.061702776357826" lon="11.21713332865469" id="-19066">
		<tag k="alt_name" v="Stokker nedre;Nedre Stokker" />
		<tag k="name" v="Kvernenga" />
		<tag k="place" v="farm" />
		<tag k="ssr:stedsnr" v="855001" />
	</node>
	<node lat="60.09081111196931" lon="11.13393889712536" id="-19068">
		<tag k="name" v="Ladderud" />
		<tag k="place" v="isolated_dwelling" />
		<tag k="ssr:stedsnr" v="855072" />
	</node>
	<node lat="60.10952499762239" lon="11.14045833734706" id="-19070">
		<tag k="name" v="Ukna" />
		<tag k="place" v="farm" />
		<tag k="ssr:stedsnr" v="846344" />
	</node>
	<node lat="60.13256164019362" lon="11.292826131647697" id="-19071">
		<tag k="alt_name" v="Onsrud østre" />
		<tag k="fixme" v="consider place=hamlet" />
		<tag k="name" v="Østre Onsrud" />
		<tag k="place" v="farm" />
		<tag k="ssr:stedsnr" v="847943" />
	</node>
	<node lat="60.199666667008394" lon="11.307658329000912" id="-19072">
		<tag k="name" v="Fjellstua" />
		<tag k="place" v="isolated_dwelling" />
		<tag k="ssr:stedsnr" v="847647" />
	</node>
	<node lat="60.22275833615664" lon="11.150763883960249" id="-19073">
		<tag k="name" v="Søndre Nordmyra" />
		<tag k="place" v="farm" />
		<tag k="ssr:stedsnr" v="847650" />
	</node>
	<node lat="60.209760161535854" lon="11.254658237916045" id="-19074">
		<tag k="alt_name" v="Kopperud søndre" />
		<tag k="fixme" v="consider place=hamlet" />
		<tag k="name" v="Søndre Kopperud" />
		<tag k="place" v="farm" />
		<tag k="ssr:stedsnr" v="847657" />
	</node>
	<node lat="60.16241665699202" lon="11.086454227248995" id="-19075">
		<tag k="alt_name" v="Kjos nordre" />
		<tag k="fixme" v="consider place=hamlet" />
		<tag k="name" v="Nordre Kjos" />
		<tag k="place" v="farm" />
		<tag k="ssr:stedsnr" v="847907" />
	</node>
	<node lat="60.146647222536885" lon="11.141736111587358" id="-19076">
		<tag k="name" v="Haug" />
		<tag k="place" v="farm" />
		<tag k="ssr:stedsnr" v="848534" />
	</node>
	<node lat="60.13401282765385" lon="11.105287300464271" id="-19077">
		<tag k="name" v="Åstad" />
		<tag k="place" v="farm" />
		<tag k="ssr:stedsnr" v="848544" />
	</node>
	<node lat="60.145138889213435" lon="11.228211117141225" id="-19079">
		<tag k="name" v="Nygård" />
		<tag k="place" v="farm" />
		<tag k="ssr:stedsnr" v="848598" />
	</node>
	<node lat="60.14925555905613" lon="11.167883329472094" id="-19080">
		<tag k="building" v="commercial" />
		<tag k="name" v="Idrettens hus" />
		<tag k="ssr:stedsnr" v="848641" />
	</node>
	<node lat="60.121366330915016" lon="11.26350606894564" id="-19081">
		<tag k="fixme" v="consider place=hamlet" />
		<tag k="name" v="Støvre" />
		<tag k="place" v="farm" />
		<tag k="ssr:stedsnr" v="855146" />
	</node>
	<node lat="60.18569444171418" lon="11.195933325742036" id="-19082">
		<tag k="name" v="Hauerseter" />
		<tag k="place" v="hamlet" />
		<tag k="ssr:stedsnr" v="855235" />
	</node>
	<node lat="60.199716670055246" lon="11.290341672586125" id="-19085">
		<tag k="alt_name" v="Hagen;Hagen søndre" />
		<tag k="name" v="Søhagen" />
		<tag k="place" v="farm" />
		<tag k="ssr:stedsnr" v="855282" />
	</node>
	<node lat="60.19418821327765" lon="11.055406695242134" id="-19086">
		<tag k="alt_name" v="Garder, vestre;Garder vestre" />
		<tag k="fixme" v="consider place=hamlet" />
		<tag k="name" v="Vestre Garder" />
		<tag k="place" v="farm" />
		<tag k="ssr:stedsnr" v="855770" />
	</node>
	<node lat="60.218163890579106" lon="11.145044451671863" id="-19087">
		<tag k="fixme" v="consider place=hamlet" />
		<tag k="name" v="Fløgstad" />
		<tag k="place" v="farm" />
		<tag k="ssr:stedsnr" v="876133" />
	</node>
	<node lat="60.13470555289506" lon="11.118952771958952" id="-19090">
		<tag k="alt_name" v="Bjørke østre" />
		<tag k="name" v="Østre Bjørke" />
		<tag k="place" v="farm" />
		<tag k="ssr:stedsnr" v="951677" />
	</node>
	<node lat="60.09718333558757" lon="11.211913882111022" id="-19091">
		<tag k="alt_name" v="Borgen store" />
		<tag k="name" v="Store Borgen" />
		<tag k="place" v="farm" />
		<tag k="ssr:stedsnr" v="951363" />
	</node>
	<node lat="60.19005870720891" lon="11.258987378855164" id="-19093">
		<tag k="amenity" v="school" />
		<tag k="name" v="Nordkisa skole" />
		<tag k="ssr:stedsnr" v="967664" />
	</node>
	<node lat="60.18203055501975" lon="11.266311107774817" id="-19094">
		<tag k="name" v="Skrythagen" />
		<tag k="place" v="hamlet" />
		<tag k="ssr:stedsnr" v="967667" />
	</node>
	<node lat="60.20300833017625" lon="11.128916672489197" id="-19095">
		<tag k="name" v="Danielseter" />
		<tag k="place" v="locality" />
		<tag k="ssr:stedsnr" v="967680" />
	</node>
	<node lat="60.11505606969055" lon="11.306016122469638" id="-19096">
		<tag k="name" v="Øvre Rolstad" />
		<tag k="place" v="farm" />
		<tag k="ssr:stedsnr" v="969570" />
	</node>
	<node lat="60.24844167048541" lon="11.168222216435993" id="-19097">
		<tag k="name" v="Vestvoll" />
		<tag k="place" v="farm" />
		<tag k="ssr:stedsnr" v="969288" />
	</node>
	<node lat="60.175766669791216" lon="11.077336111186542" id="-19099">
		<tag k="alt_name" v="Røgler store" />
		<tag k="name" v="Store Røgler" />
		<tag k="place" v="farm" />
		<tag k="ssr:stedsnr" v="969282" />
	</node>
	<node lat="60.06170396231831" lon="11.150396712921252" id="-19100">
		<tag k="name" v="Isingrud" />
		<tag k="place" v="farm" />
		<tag k="ssr:stedsnr" v="969951" />
	</node>
	<node lat="60.12600159989647" lon="11.212712850078443" id="-19102">
		<tag k="name" v="Sollia" />
		<tag k="place" v="quarter" />
		<tag k="ssr:stedsnr" v="981919" />
	</node>
	<node lat="60.15163282255373" lon="11.143835879110428" id="-19105">
		<tag k="name" v="Haug" />
		<tag k="place" v="quarter" />
		<tag k="ssr:stedsnr" v="981967" />
	</node>
	<node lat="60.2383318811049" lon="11.203261658480796" id="-19108">
		<tag k="name" v="Sætrefeltet" />
		<tag k="place" v="quarter" />
		<tag k="ssr:stedsnr" v="981970" />
	</node>
	<node lat="60.16573041276609" lon="11.164299729718175" id="-19109">
		<tag k="amenity" v="hospital" />
		<tag k="name" v="LHL-sykehuset Gardermoen" />
		<tag k="ssr:stedsnr" v="986756" />
	</node>
	<node lat="60.065152914761924" lon="11.16645901035065" id="-19125">
		<tag k="name" v="Ile" />
		<tag k="place" v="hamlet" />
		<tag k="ssr:stedsnr" v="1078181" />
	</node>
	<node lat="60.10753938219492" lon="11.128407699712524" id="-19127">
		<tag k="fixme" v="consider place=hamlet" />
		<tag k="name" v="Østre Lystad" />
		<tag k="place" v="farm" />
		<tag k="ssr:stedsnr" v="1078870" />
	</node>
	<node lat="60.07570615215127" lon="11.16301817230591" id="-19128">
		<tag k="fixme" v="consider place=hamlet" />
		<tag k="name" v="Kroksrud" />
		<tag k="place" v="farm" />
		<tag k="ssr:stedsnr" v="1078874" />
	</node>
	<node lat="60.2134964469706" lon="11.222177675057694" id="-19129">
		<tag k="name" v="Nedre Hovin" />
		<tag k="place" v="locality" />
		<tag k="ssr:stedsnr" v="1078940" />
	</node>
	<node lat="60.17378864911378" lon="11.078536857440799" id="-19130">
		<tag k="name" v="Røgler" />
		<tag k="place" v="hamlet" />
		<tag k="ssr:stedsnr" v="1078961" />
	</node>
	<node lat="60.18814678902229" lon="11.054478190626964" id="-19131">
		<tag k="fixme" v="consider place=hamlet" />
		<tag k="name" v="Øvre Sundby" />
		<tag k="place" v="farm" />
		<tag k="ssr:stedsnr" v="1078962" />
	</node>
	<node lat="60.19406301576468" lon="11.059806811846364" id="-19132">
		<tag k="name" v="Garder" />
		<tag k="place" v="hamlet" />
		<tag k="ssr:stedsnr" v="1078963" />
	</node>
	<node lat="60.093344828977784" lon="11.168442520012219" id="-19133">
		<tag k="fixme" v="consider place=hamlet" />
		<tag k="name" v="Løken" />
		<tag k="place" v="farm" />
		<tag k="ssr:stedsnr" v="1078876" />
	</node>
	<node lat="60.10185373813873" lon="11.207110159425069" id="-19134">
		<tag k="fixme" v="consider place=hamlet" />
		<tag k="name" v="Nedre Oppen" />
		<tag k="place" v="farm" />
		<tag k="ssr:stedsnr" v="1078893" />
	</node>
	<node lat="60.10436111733192" lon="11.200545326648532" id="-19135">
		<tag k="fixme" v="consider place=hamlet" />
		<tag k="name" v="Øvre Oppen" />
		<tag k="place" v="farm" />
		<tag k="ssr:stedsnr" v="1078895" />
	</node>
	<node lat="60.084020905371666" lon="11.18292196082215" id="-19136">
		<tag k="name" v="Lauten" />
		<tag k="place" v="hamlet" />
		<tag k="ssr:stedsnr" v="1078897" />
	</node>
	<node lat="60.07843397885767" lon="11.187002156088768" id="-19137">
		<tag k="fixme" v="consider place=hamlet" />
		<tag k="name" v="Store Frogner" />
		<tag k="place" v="farm" />
		<tag k="ssr:stedsnr" v="1078898" />
	</node>
	<node lat="60.07721995569358" lon="11.188646216035082" id="-19138">
		<tag k="fixme" v="consider place=hamlet" />
		<tag k="name" v="Lille Frogner" />
		<tag k="place" v="farm" />
		<tag k="ssr:stedsnr" v="1078899" />
	</node>
	<node lat="60.1357691953556" lon="11.28314835379032" id="-19139">
		<tag k="fixme" v="consider place=hamlet" />
		<tag k="name" v="Vestre Onsrud" />
		<tag k="place" v="farm" />
		<tag k="ssr:stedsnr" v="1078909" />
	</node>
	<node lat="60.145316444112694" lon="11.266574035086729" id="-19140">
		<tag k="name" v="Algrem" />
		<tag k="place" v="hamlet" />
		<tag k="ssr:stedsnr" v="1078922" />
	</node>
	<node lat="60.16706527168001" lon="11.174304807114025" id="-19141">
		<tag k="fixme" v="consider place=hamlet" />
		<tag k="name" v="Øvre Trøgstad" />
		<tag k="place" v="farm" />
		<tag k="ssr:stedsnr" v="1078938" />
	</node>
	<node lat="60.14474789625085" lon="11.155629208787104" id="-19142">
		<tag k="amenity" v="nursing_home" />
		<tag k="name" v="Gjestad bo og aktivitetssenter" />
		<tag k="ssr:stedsnr" v="1078939" />
	</node>
	<node lat="60.23114040640008" lon="11.156764959071566" id="-19143">
		<tag k="fixme" v="consider place=hamlet" />
		<tag k="name" v="Nordli" />
		<tag k="place" v="farm" />
		<tag k="ssr:stedsnr" v="1078999" />
	</node>
	<node lat="60.18938425840656" lon="11.193659073543849" id="-19144">
		<tag k="name" v="Spolen" />
		<tag k="place" v="locality" />
		<tag k="ssr:stedsnr" v="1079000" />
	</node>
	<node lat="60.17750435447053" lon="11.181836011955435" id="-19145">
		<tag k="alt_name" v="Bonntjern" />
		<tag k="fixme" v="consider place=hamlet" />
		<tag k="name" v="Barnkjenn" />
		<tag k="place" v="farm" />
		<tag k="ssr:stedsnr" v="1078970" />
	</node>
	<node lat="60.2037895544322" lon="11.150160805554666" id="-19146">
		<tag k="alt_name" v="Elstad mellom" />
		<tag k="fixme" v="consider place=hamlet" />
		<tag k="name" v="Mellom-Elstad" />
		<tag k="place" v="farm" />
		<tag k="ssr:stedsnr" v="1078972" />
	</node>
</osm>
