<?xml version="1.0" encoding="UTF-8"?>
<osm version="0.6" generator="osmapis">
	<node lat="60.24552500068931" lon="11.196880559157323" id="-16367">
		<tag k="bridge" v="yes" />
		<tag k="layer" v="1" />
		<tag k="name" v="Risa" />
		<tag k="ssr:stedsnr" v="46783" />
	</node>
	<node lat="60.24016666720381" lon="11.178716664469599" id="-16368">
		<tag k="bridge" v="yes" />
		<tag k="layer" v="1" />
		<tag k="name" v="Rise" />
		<tag k="ssr:stedsnr" v="46785" />
	</node>
	<node lat="60.08202221868646" lon="11.17409721883782" id="-16369">
		<tag k="bridge" v="yes" />
		<tag k="layer" v="1" />
		<tag k="name" v="Hynnebekk" />
		<tag k="ssr:stedsnr" v="46791" />
	</node>
	<node lat="60.17956389136332" lon="11.171330555146248" id="-16427">
		<tag k="bridge" v="yes" />
		<tag k="layer" v="1" />
		<tag k="name" v="Kristenstudalen" />
		<tag k="ssr:stedsnr" v="167775" />
	</node>
	<node lat="60.19280000214404" lon="11.189880557772756" id="-16428">
		<tag k="bridge" v="yes" />
		<tag k="layer" v="1" />
		<tag k="name" v="Lidelta" />
		<tag k="ssr:stedsnr" v="167779" />
	</node>
	<node lat="60.23969444119487" lon="11.178300008677251" id="-16454">
		<tag k="bridge" v="yes" />
		<tag k="layer" v="1" />
		<tag k="name" v="Søberg" />
		<tag k="ssr:stedsnr" v="228794" />
	</node>
	<node lat="60.16500277376917" lon="11.157136114501894" id="-16492">
		<tag k="bridge" v="yes" />
		<tag k="layer" v="1" />
		<tag k="name" v="Valhall undergang" />
		<tag k="ssr:stedsnr" v="349780" />
	</node>
	<node lat="60.07992777676302" lon="11.149061109874795" id="-16493">
		<tag k="bridge" v="yes" />
		<tag k="layer" v="1" />
		<tag k="name" v="Skibakk I" />
		<tag k="ssr:stedsnr" v="349788" />
	</node>
	<node lat="60.19400555776823" lon="11.099361112511474" id="-16533">
		<tag k="aeroway" v="aerodrome" />
		<tag k="fixme" v="multiple name tags, choose one and add the other to alt_name" />
		<tag k="name" v="Oslo lufthavn, Gardermoen;Oslo lufthavn" />
		<tag k="old_name" v="Oslo lufthavn Gardermoen;Gardermoen" />
		<tag k="ssr:stedsnr" v="490768" />
	</node>
	<node lat="60.085561114841425" lon="11.268661112507832" id="-16569">
		<tag k="bridge" v="yes" />
		<tag k="layer" v="1" />
		<tag k="name" v="Kauserud" />
		<tag k="ssr:stedsnr" v="471769" />
	</node>
	<node lat="60.13122499855508" lon="11.160919446098783" id="-16570">
		<tag k="bridge" v="yes" />
		<tag k="layer" v="1" />
		<tag k="name" v="Langeland" />
		<tag k="ssr:stedsnr" v="471771" />
	</node>
	<node lat="60.23755833177115" lon="11.170541659779387" id="-16603">
		<tag k="bridge" v="yes" />
		<tag k="layer" v="1" />
		<tag k="name" v="Rise" />
		<tag k="ssr:stedsnr" v="531777" />
	</node>
	<node lat="60.10629166783349" lon="11.273822224394666" id="-16604">
		<tag k="bridge" v="yes" />
		<tag k="layer" v="1" />
		<tag k="name" v="Rømju" />
		<tag k="ssr:stedsnr" v="531778" />
	</node>
	<node lat="60.186816664426345" lon="11.18501665970088" id="-16605">
		<tag k="bridge" v="yes" />
		<tag k="layer" v="1" />
		<tag k="name" v="Li" />
		<tag k="ssr:stedsnr" v="531783" />
	</node>
	<node lat="60.140966666112654" lon="11.21018888906666" id="-16613">
		<tag k="junction" v="yes" />
		<tag k="name" v="Gystad" />
		<tag k="place" v="locality" />
		<tag k="ssr:stedsnr" v="544588" />
	</node>
	<node lat="60.06171666828671" lon="11.151583329134079" id="-16636">
		<tag k="bridge" v="yes" />
		<tag k="layer" v="1" />
		<tag k="name" v="Isingrud" />
		<tag k="ssr:stedsnr" v="592816" />
	</node>
	<node lat="60.17538888942512" lon="11.092763889185605" id="-16689">
		<tag k="bridge" v="yes" />
		<tag k="layer" v="1" />
		<tag k="name" v="Gardermoen" />
		<tag k="ssr:stedsnr" v="896815" />
	</node>
	<node lat="60.08094166949435" lon="11.18284999647361" id="-16694">
		<tag k="junction" v="yes" />
		<tag k="name" v="Lauten" />
		<tag k="place" v="locality" />
		<tag k="ssr:stedsnr" v="726921" />
	</node>
	<node lat="60.18451111332628" lon="11.164005561484244" id="-16759">
		<tag k="junction" v="yes" />
		<tag k="name" v="Vilberg" />
		<tag k="place" v="locality" />
		<tag k="ssr:stedsnr" v="830326" />
	</node>
	<node lat="60.14926944389426" lon="11.148733336049233" id="-16760">
		<tag k="bridge" v="yes" />
		<tag k="layer" v="1" />
		<tag k="name" v="Kverndalen" />
		<tag k="old_name" v="Kværndalen" />
		<tag k="ssr:stedsnr" v="835777" />
	</node>
	<node lat="60.07568611340764" lon="11.2756722174983" id="-16766">
		<tag k="junction" v="yes" />
		<tag k="name" v="Ormstad" />
		<tag k="place" v="locality" />
		<tag k="ssr:stedsnr" v="848903" />
	</node>
	<node lat="60.08944722646427" lon="11.242108338117545" id="-16782">
		<tag k="bridge" v="yes" />
		<tag k="layer" v="1" />
		<tag k="name" v="Ingjer" />
		<tag k="ssr:stedsnr" v="896808" />
	</node>
	<node lat="60.09138333311481" lon="11.146122215145166" id="-16783">
		<tag k="bridge" v="yes" />
		<tag k="layer" v="1" />
		<tag k="name" v="Bogstad" />
		<tag k="ssr:stedsnr" v="896810" />
	</node>
	<node lat="60.1478027797777" lon="11.149877770621995" id="-16784">
		<tag k="bridge" v="yes" />
		<tag k="layer" v="1" />
		<tag k="name" v="Gropavegen" />
		<tag k="ssr:stedsnr" v="896813" />
	</node>
	<node lat="60.15115000236445" lon="11.134244448564607" id="-16808">
		<tag k="junction" v="yes" />
		<tag k="name" v="Gravhaugen" />
		<tag k="place" v="locality" />
		<tag k="ssr:stedsnr" v="969638" />
	</node>
	<node lat="60.07661111501179" lon="11.127897222443197" id="-16814">
		<tag k="junction" v="yes" />
		<tag k="name" v="Ånerudkrysset" />
		<tag k="place" v="locality" />
		<tag k="ssr:stedsnr" v="969915" />
	</node>
	<node lat="60.15541403317727" lon="11.181599609947355" id="-16815">
		<tag k="name" v="Nordby holdeplass" />
		<tag k="railway" v="halt" />
		<tag k="ssr:stedsnr" v="989642" />
		<tag k="train" v="yes" />
	</node>
	<node lat="60.19136944450125" lon="11.040619437753454" id="-16833">
		<tag k="bridge" v="yes" />
		<tag k="layer" v="1" />
		<tag k="name" v="Sogna" />
		<tag k="ssr:stedsnr" v="46897" />
	</node>
	<node lat="60.228061113380384" lon="11.167313880168294" id="-16895">
		<tag k="bridge" v="yes" />
		<tag k="layer" v="1" />
		<tag k="name" v="Mogreina skole" />
		<tag k="ssr:stedsnr" v="167780" />
	</node>
	<node lat="60.20617222298411" lon="11.158347221925984" id="-16896">
		<tag k="bridge" v="yes" />
		<tag k="layer" v="1" />
		<tag k="name" v="Bjørtomt" />
		<tag k="ssr:stedsnr" v="167787" />
	</node>
	<node lat="60.14215000068411" lon="11.176674993361598" id="-16906">
		<tag k="name" v="Jessheim stasjon" />
		<tag k="railway" v="station" />
		<tag k="ssr:stedsnr" v="180508" />
		<tag k="train" v="yes" />
	</node>
	<node lat="60.123252774155" lon="11.303477781258174" id="-16909">
		<tag k="junction" v="yes" />
		<tag k="name" v="Nybakk" />
		<tag k="place" v="locality" />
		<tag k="ssr:stedsnr" v="180545" />
	</node>
	<node lat="60.25304722555441" lon="11.180577786309463" id="-16927">
		<tag k="bridge" v="yes" />
		<tag k="layer" v="1" />
		<tag k="name" v="Dal" />
		<tag k="ssr:stedsnr" v="228625" />
	</node>
	<node lat="60.074986112950235" lon="11.138866660486569" id="-16944">
		<tag k="name" v="Kløfta stasjon" />
		<tag k="railway" v="station" />
		<tag k="ssr:stedsnr" v="301953" />
		<tag k="train" v="yes" />
	</node>
	<node lat="60.16412500448033" lon="11.171813883467573" id="-16962">
		<tag k="bridge" v="yes" />
		<tag k="layer" v="1" />
		<tag k="name" v="Grønvold" />
		<tag k="ssr:stedsnr" v="349800" />
	</node>
	<node lat="60.088986111039574" lon="11.26329999678159" id="-16979">
		<tag k="junction" v="yes" />
		<tag k="name" v="Kauserud" />
		<tag k="place" v="locality" />
		<tag k="ssr:stedsnr" v="362902" />
	</node>
	<node lat="60.230449999727085" lon="11.173180552018483" id="-16992">
		<tag k="bridge" v="yes" />
		<tag k="layer" v="1" />
		<tag k="name" v="Mogreina" />
		<tag k="ssr:stedsnr" v="410761" />
	</node>
	<node lat="60.1881972207011" lon="11.193936106947204" id="-16993">
		<tag k="bridge" v="yes" />
		<tag k="layer" v="1" />
		<tag k="name" v="Hauerseter" />
		<tag k="ssr:stedsnr" v="410762" />
	</node>
	<node lat="60.141425002422764" lon="11.154338881208037" id="-16994">
		<tag k="bridge" v="yes" />
		<tag k="layer" v="1" />
		<tag k="name" v="Døli" />
		<tag k="ssr:stedsnr" v="410768" />
	</node>
	<node lat="60.184980552670226" lon="11.195616668927094" id="-17061">
		<tag k="name" v="Hauerseter stasjon" />
		<tag k="railway" v="station" />
		<tag k="ssr:stedsnr" v="603693" />
		<tag k="train" v="yes" />
	</node>
	<node lat="60.161047222196174" lon="11.142880560548388" id="-17101">
		<tag k="bridge" v="yes" />
		<tag k="layer" v="1" />
		<tag k="name" v="Vestmoen" />
		<tag k="ssr:stedsnr" v="653776" />
	</node>
	<node lat="60.19605000226348" lon="11.28559166993217" id="-17102">
		<tag k="bridge" v="yes" />
		<tag k="layer" v="1" />
		<tag k="name" v="Rømua" />
		<tag k="ssr:stedsnr" v="653780" />
	</node>
	<node lat="60.16516388596241" lon="11.158288882900443" id="-17112">
		<tag k="bridge" v="yes" />
		<tag k="layer" v="1" />
		<tag k="name" v="Valhall" />
		<tag k="ssr:stedsnr" v="714738" />
	</node>
	<node lat="60.15697777593973" lon="11.151294444853434" id="-17113">
		<tag k="bridge" v="yes" />
		<tag k="layer" v="1" />
		<tag k="name" v="Svarttjern" />
		<tag k="ssr:stedsnr" v="714746" />
	</node>
	<node lat="60.11025833237199" lon="11.148774996340263" id="-17114">
		<tag k="bridge" v="yes" />
		<tag k="layer" v="1" />
		<tag k="name" v="Haug" />
		<tag k="ssr:stedsnr" v="714752" />
	</node>
	<node lat="60.06951388717059" lon="11.155438879867098" id="-17148">
		<tag k="bridge" v="yes" />
		<tag k="layer" v="1" />
		<tag k="name" v="Ile" />
		<tag k="old_name" v="Ihle" />
		<tag k="ssr:stedsnr" v="774786" />
	</node>
	<node lat="60.14138611110979" lon="11.175919448925313" id="-17149">
		<tag k="bridge" v="yes" />
		<tag k="layer" v="1" />
		<tag k="name" v="Jessheim" />
		<tag k="ssr:stedsnr" v="774790" />
	</node>
	<node lat="60.23762222220018" lon="11.176572225889862" id="-17150">
		<tag k="bridge" v="yes" />
		<tag k="layer" v="1" />
		<tag k="name" v="Baskop" />
		<tag k="ssr:stedsnr" v="774794" />
	</node>
	<node lat="60.128844443353174" lon="11.282763896784116" id="-17169">
		<tag k="bridge" v="yes" />
		<tag k="layer" v="1" />
		<tag k="name" v="Nesten" />
		<tag k="ssr:stedsnr" v="835774" />
	</node>
	<node lat="60.08842500256467" lon="11.147277773905758" id="-17196">
		<tag k="bridge" v="yes" />
		<tag k="layer" v="1" />
		<tag k="name" v="Hauger" />
		<tag k="ssr:stedsnr" v="956777" />
	</node>
	<node lat="60.19274019017288" lon="11.096546997463268" id="-17214">
		<tag k="name" v="Gardermoen stasjon" />
		<tag k="railway" v="station" />
		<tag k="ssr:stedsnr" v="989989" />
		<tag k="train" v="yes" />
	</node>
</osm>
