<?xml version="1.0" encoding="UTF-8"?>
<<<<<<< HEAD
<osm version="0.6" generator="osmapis">
	<node lat="60.059602773709614" lon="11.199441665309756" id="-13169">
		<tag k="name" v="Hynna" />
		<tag k="ssr:stedsnr" v="5003" />
		<tag k="waterway" v="stream" />
	</node>
	<node lat="60.15676179512398" lon="11.16532930501728" id="-13174">
		<tag k="name" v="Nordbytjernet" />
		<tag k="natural" v="water" />
		<tag k="ssr:stedsnr" v="5225" />
	</node>
	<node lat="60.13907500188297" lon="11.278430546987234" id="-13210">
		<tag k="alt_name" v="Songna" />
		<tag k="name" v="Songa" />
		<tag k="ssr:stedsnr" v="66166" />
		<tag k="waterway" v="stream" />
	</node>
	<node lat="60.18657221907489" lon="11.163238888749937" id="-13244">
		<tag k="name" v="Vilbergtjern" />
=======
<osm generator="osmapis" version="0.6">
	<node id="-261119" lat="60.1705749976" lon="11.1713777809">
		<tag k="name" v="Svenskestutjernet" />
		<tag k="natural" v="water" />
		<tag k="ssr:stedsnr" v="551215" />
	</node>
	<node id="-261246" lat="60.147030554" lon="11.1234583264">
		<tag k="name" v="Fuglebekken" />
		<tag k="ssr:stedsnr" v="848550" />
		<tag k="waterway" v="stream" />
	</node>
	<node id="-260604" lat="59.9922777818" lon="11.2086527771">
		<tag k="name" v="Rømua" />
		<tag k="ssr:stedsnr" v="671500" />
		<tag k="waterway" v="river" />
	</node>
	<node id="-260859" lat="60.1352444408" lon="11.1513500027">
		<tag k="name" v="Dølibekken" />
		<tag k="ssr:stedsnr" v="41643" />
		<tag k="waterway" v="stream" />
	</node>
	<node id="-260472" lat="60.1594277751" lon="11.1406222275">
		<tag k="name" v="Skåntjern" />
		<tag k="natural" v="water" />
		<tag k="ssr:stedsnr" v="102544" />
	</node>
	<node id="-261236" lat="60.1807416622" lon="11.2780166667">
		<tag k="name" v="Klarbekken" />
		<tag k="ssr:stedsnr" v="846700" />
		<tag k="waterway" v="stream" />
	</node>
	<node id="-260852" lat="60.1481472238" lon="11.1383027794">
		<tag k="alt_name" v="Ljøgodttjern" />
		<tag k="name" v="Ljøgottjernet" />
		<tag k="natural" v="water" />
		<tag k="ssr:stedsnr" v="17971" />
	</node>
	<node id="-261235" lat="60.2046638902" lon="11.1565805549">
		<tag k="name" v="Bjørtomtbekken" />
		<tag k="ssr:stedsnr" v="846677" />
		<tag k="waterway" v="stream" />
	</node>
	<node id="-260721" lat="60.1955972252" lon="11.2428361185">
		<tag k="name" v="Igleputten" />
		<tag k="natural" v="water" />
		<tag k="ssr:stedsnr" v="664708" />
	</node>
	<node id="-260975" lat="60.2098999972" lon="11.2404888828">
		<tag k="alt_name" v="Langtjern" />
		<tag k="name" v="Langtjernet" />
		<tag k="natural" v="water" />
		<tag k="ssr:stedsnr" v="187277" />
	</node>
	<node id="-260974" lat="60.2011638889" lon="11.2411916591">
		<tag k="alt_name" v="Vesletjern" />
		<tag k="name" v="Vesletjernet" />
		<tag k="natural" v="water" />
		<tag k="ssr:stedsnr" v="187260" />
	</node>
	<node id="-261101" lat="60.1365138884" lon="11.2352638929">
		<tag k="name" v="Meiserudbekken" />
		<tag k="ssr:stedsnr" v="544624" />
		<tag k="waterway" v="stream" />
	</node>
	<node id="-261100" lat="60.1347472228" lon="11.2201250067">
		<tag k="name" v="Pinnebekken" />
		<tag k="ssr:stedsnr" v="544621" />
		<tag k="waterway" v="stream" />
	</node>
	<node id="-261074" lat="60.1941638851" lon="11.0431194386">
		<tag k="name" v="Sogna" />
		<tag k="ssr:stedsnr" v="430743" />
		<tag k="waterway" v="river" />
	</node>
	<node id="-260711" lat="60.2513027777" lon="11.1651333273">
		<tag k="name" v="Sesvolltjernet" />
		<tag k="natural" v="water" />
		<tag k="ssr:stedsnr" v="734246" />
	</node>
	<node id="-261221" lat="60.2037472216" lon="11.1394305558">
		<tag k="alt_name" v="Skråtjern" />
		<tag k="name" v="Skråtjernet" />
>>>>>>> e1d4bc35ff8a6074a6f2e91616a996b547c36f15
		<tag k="natural" v="water" />
		<tag k="ssr:stedsnr" v="162354" />
	</node>
<<<<<<< HEAD
	<node lat="60.19046666524433" lon="11.228525001980865" id="-13253">
		<tag k="name" v="Sofrutjern" />
		<tag k="natural" v="water" />
		<tag k="ssr:stedsnr" v="179724" />
	</node>
	<node lat="60.2098999972322" lon="11.240488882836754" id="-13263">
		<tag k="alt_name" v="Langtjern" />
		<tag k="name" v="Langtjernet" />
		<tag k="natural" v="water" />
		<tag k="ssr:stedsnr" v="187277" />
	</node>
	<node lat="60.16478333206004" lon="11.05712221941315" id="-13265">
		<tag k="name" v="Sognemunn" />
		<tag k="natural" v="bay" />
		<tag k="ssr:stedsnr" v="266228" />
	</node>
	<node lat="60.19139444787403" lon="11.224975008427853" id="-13287">
		<tag k="alt_name" v="Gravtjern" />
		<tag k="name" v="Gravtjernet" />
		<tag k="natural" v="water" />
		<tag k="ssr:stedsnr" v="248256" />
	</node>
	<node lat="60.21220833582879" lon="11.136855554155355" id="-13321">
		<tag k="name" v="Transjøen" />
		<tag k="natural" v="water" />
		<tag k="ssr:stedsnr" v="369267" />
		<tag k="water" v="lake" />
	</node>
	<node lat="60.23092499844998" lon="11.121891666671857" id="-13357">
=======
	<node id="-261220" lat="60.196924997" lon="11.1401722217">
		<tag k="alt_name" v="Bakketjern" />
		<tag k="name" v="Bakketjernet" />
		<tag k="natural" v="water" />
		<tag k="ssr:stedsnr" v="794231" />
	</node>
	<node id="-260707" lat="60.2731444481" lon="11.2089194508">
		<tag k="name" v="Risa" />
		<tag k="ssr:stedsnr" v="733302" />
		<tag k="waterway" v="river" />
	</node>
	<node id="-261089" lat="60.1994666693" lon="11.1314277867">
		<tag k="name" v="Låkesetertjern" />
		<tag k="natural" v="water" />
		<tag k="ssr:stedsnr" v="543688" />
	</node>
	<node id="-260831" lat="60.0596027737" lon="11.1994416653">
		<tag k="name" v="Hynna" />
		<tag k="ssr:stedsnr" v="5003" />
		<tag k="waterway" v="stream" />
	</node>
	<node id="-260569" lat="60.1058722198" lon="11.3168555476">
		<tag k="name" v="Hvamseterbekken" />
		<tag k="ssr:stedsnr" v="405720" />
		<tag k="waterway" v="stream" />
	</node>
	<node id="-260708" lat="59.9878888898" lon="11.0846555606">
		<tag k="alt_name" v="Leirelva" />
		<tag k="name" v="Leira" />
		<tag k="ssr:stedsnr" v="733534" />
		<tag k="waterway" v="river" />
	</node>
	<node id="-261077" lat="60.2309249984" lon="11.1218916667">
>>>>>>> e1d4bc35ff8a6074a6f2e91616a996b547c36f15
		<tag k="alt_name" v="Aurtjernet" />
		<tag k="name" v="Aurtjern" />
		<tag k="natural" v="water" />
		<tag k="ssr:stedsnr" v="430322" />
	</node>
<<<<<<< HEAD
	<node lat="60.157030557863465" lon="11.156408327921449" id="-13359">
		<tag k="alt_name" v="Svarttjern" />
		<tag k="name" v="Svarttjernet" />
=======
	<node id="-261202" lat="60.2378444452" lon="11.1180805527">
		<tag k="name" v="Fugletjernet" />
>>>>>>> e1d4bc35ff8a6074a6f2e91616a996b547c36f15
		<tag k="natural" v="water" />
		<tag k="ssr:stedsnr" v="491219" />
	</node>
<<<<<<< HEAD
	<node lat="59.99227778178751" lon="11.208652777142927" id="-13363">
		<tag k="name" v="Rømua" />
		<tag k="ssr:stedsnr" v="671500" />
		<tag k="waterway" v="river" />
	</node>
	<node lat="60.11315555814144" lon="11.260838895669297" id="-13400">
		<tag k="name" v="Horsla" />
		<tag k="ssr:stedsnr" v="490103" />
		<tag k="waterway" v="river" />
	</node>
	<node lat="60.22720278185438" lon="11.127561113803566" id="-13426">
		<tag k="name" v="Vollnesputten" />
		<tag k="natural" v="water" />
		<tag k="ssr:stedsnr" v="543612" />
	</node>
	<node lat="60.134747222754974" lon="11.22012500672334" id="-13434">
		<tag k="name" v="Pinnebekken" />
		<tag k="ssr:stedsnr" v="544621" />
		<tag k="waterway" v="stream" />
	</node>
	<node lat="60.13651388838927" lon="11.235263892928854" id="-13435">
		<tag k="name" v="Meiserudbekken" />
		<tag k="ssr:stedsnr" v="544624" />
		<tag k="waterway" v="stream" />
	</node>
	<node lat="60.17057499756136" lon="11.171377780945068" id="-13448">
		<tag k="name" v="Svenskestutjernet" />
=======
	<node id="-260816" lat="60.1539666623" lon="11.0850222209">
		<tag k="name" v="Kjosbekken" />
		<tag k="ssr:stedsnr" v="936408" />
		<tag k="waterway" v="stream" />
	</node>
	<node id="-260687" lat="60.2080083357" lon="11.1380305628">
		<tag k="name" v="Mjøntjern" />
>>>>>>> e1d4bc35ff8a6074a6f2e91616a996b547c36f15
		<tag k="natural" v="water" />
		<tag k="ssr:stedsnr" v="551215" />
	</node>
<<<<<<< HEAD
	<node lat="60.21765000046883" lon="11.188175000694242" id="-13474">
		<tag k="name" v="Sandtjernet" />
=======
	<node id="-260814" lat="60.2017527736" lon="11.1338138939">
		<tag k="alt_name" v="Danielsetertjern" />
		<tag k="name" v="Danielsetertjernet" />
>>>>>>> e1d4bc35ff8a6074a6f2e91616a996b547c36f15
		<tag k="natural" v="water" />
		<tag k="ssr:stedsnr" v="612307" />
	</node>
<<<<<<< HEAD
	<node lat="60.16845555666035" lon="11.07445832943122" id="-13476">
=======
	<node id="-260684" lat="60.1684555567" lon="11.0744583294">
>>>>>>> e1d4bc35ff8a6074a6f2e91616a996b547c36f15
		<tag k="name" v="Vikka" />
		<tag k="ssr:stedsnr" v="612725" />
		<tag k="waterway" v="stream" />
	</node>
<<<<<<< HEAD
	<node lat="60.170733333456916" lon="11.14350277446861" id="-13490">
		<tag k="name" v="Kjøltjerndumpa" />
		<tag k="natural" v="water" />
		<tag k="ssr:stedsnr" v="709500" />
	</node>
	<node lat="60.19559722517853" lon="11.242836118529134" id="-13493">
		<tag k="name" v="Igleputten" />
=======
	<node id="-260938" lat="60.141061107" lon="11.0880944443">
		<tag k="alt_name" v="Rudbekken" />
		<tag k="name" v="Rudsbekken" />
		<tag k="ssr:stedsnr" v="127679" />
		<tag k="waterway" v="stream" />
	</node>
	<node id="-260595" lat="60.0722388891" lon="11.130527773">
		<tag k="name" v="Gislebekken" />
		<tag k="ssr:stedsnr" v="665978" />
		<tag k="waterway" v="stream" />
	</node>
	<node id="-260803" lat="60.2435416623" lon="11.1712055532">
		<tag k="name" v="Borgentjern" />
>>>>>>> e1d4bc35ff8a6074a6f2e91616a996b547c36f15
		<tag k="natural" v="water" />
		<tag k="ssr:stedsnr" v="664708" />
	</node>
<<<<<<< HEAD
	<node lat="60.27314444807673" lon="11.208919450833507" id="-13523">
		<tag k="name" v="Risa" />
		<tag k="ssr:stedsnr" v="733302" />
		<tag k="waterway" v="river" />
	</node>
	<node lat="59.98788888984426" lon="11.084655560632108" id="-13524">
		<tag k="alt_name" v="Leirelva" />
		<tag k="name" v="Leira" />
		<tag k="ssr:stedsnr" v="733534" />
		<tag k="waterway" v="river" />
	</node>
	<node lat="60.251302777720085" lon="11.165133327255061" id="-13525">
		<tag k="name" v="Sesvolltjernet" />
=======
	<node id="-260554" lat="60.1570305579" lon="11.1564083279">
		<tag k="alt_name" v="Svarttjern" />
		<tag k="name" v="Svarttjernet" />
		<tag k="natural" v="water" />
		<tag k="ssr:stedsnr" v="491219" />
	</node>
	<node id="-260794" lat="60.1005805524" lon="11.2837416593">
		<tag k="name" v="Sulta" />
		<tag k="ssr:stedsnr" v="855125" />
		<tag k="waterway" v="river" />
	</node>
	<node id="-260665" lat="60.1707333335" lon="11.1435027745">
		<tag k="name" v="Kjøltjerndumpa" />
>>>>>>> e1d4bc35ff8a6074a6f2e91616a996b547c36f15
		<tag k="natural" v="water" />
		<tag k="ssr:stedsnr" v="734246" />
	</node>
<<<<<<< HEAD
	<node lat="60.2378444451824" lon="11.118080552684507" id="-13545">
		<tag k="name" v="Fugletjernet" />
		<tag k="natural" v="water" />
		<tag k="ssr:stedsnr" v="785611" />
	</node>
	<node lat="60.19692499699116" lon="11.140172221674591" id="-13560">
		<tag k="alt_name" v="Bakketjern" />
		<tag k="name" v="Bakketjernet" />
=======
	<node id="-260536" lat="60.1137750017" lon="11.2449527851">
		<tag k="name" v="Styggedalsbekken" />
		<tag k="ssr:stedsnr" v="344656" />
		<tag k="waterway" v="stream" />
	</node>
	<node id="-261175" lat="60.2176500005" lon="11.1881750007">
		<tag k="name" v="Sandtjernet" />
>>>>>>> e1d4bc35ff8a6074a6f2e91616a996b547c36f15
		<tag k="natural" v="water" />
		<tag k="ssr:stedsnr" v="794231" />
	</node>
<<<<<<< HEAD
	<node lat="60.204663890184" lon="11.156580554916307" id="-13583">
		<tag k="name" v="Bjørtomtbekken" />
		<tag k="ssr:stedsnr" v="846677" />
		<tag k="waterway" v="stream" />
	</node>
	<node lat="60.10058055241594" lon="11.283741659304907" id="-13588">
		<tag k="name" v="Sulta" />
		<tag k="ssr:stedsnr" v="855125" />
		<tag k="waterway" v="river" />
	</node>
	<node lat="60.24354166225512" lon="11.171205553249859" id="-13610">
		<tag k="name" v="Borgentjern" />
=======
	<node id="-260745" lat="60.0780777802" lon="11.1904277868">
		<tag k="name" v="Rogndalsbekken" />
		<tag k="ssr:stedsnr" v="726961" />
		<tag k="waterway" v="stream" />
	</node>
	<node id="-260787" lat="60.1374138894" lon="11.1427749935">
		<tag k="name" v="Tveia" />
		<tag k="ssr:stedsnr" v="794141" />
		<tag k="waterway" v="stream" />
	</node>
	<node id="-260467" lat="60.1913944479" lon="11.2249750084">
		<tag k="alt_name" v="Gravtjern" />
		<tag k="name" v="Gravtjernet" />
		<tag k="natural" v="water" />
		<tag k="ssr:stedsnr" v="248256" />
	</node>
	<node id="-261040" lat="60.2122083358" lon="11.1368555542">
		<tag k="name" v="Transjøen" />
>>>>>>> e1d4bc35ff8a6074a6f2e91616a996b547c36f15
		<tag k="natural" v="water" />
		<tag k="ssr:stedsnr" v="908316" />
	</node>
<<<<<<< HEAD
	<node lat="60.20175277364475" lon="11.133813893875026" id="-13619">
		<tag k="alt_name" v="Danielsetertjern" />
		<tag k="name" v="Danielsetertjernet" />
=======
	<node id="-261038" lat="60.1749749969" lon="11.1748583315">
		<tag k="alt_name" v="Bonntjern" />
		<tag k="name" v="Bonntjernet" />
>>>>>>> e1d4bc35ff8a6074a6f2e91616a996b547c36f15
		<tag k="natural" v="water" />
		<tag k="ssr:stedsnr" v="916266" />
	</node>
<<<<<<< HEAD
	<node lat="60.153966662279196" lon="11.085022220864593" id="-13620">
		<tag k="name" v="Kjosbekken" />
		<tag k="ssr:stedsnr" v="936408" />
		<tag k="waterway" v="stream" />
	</node>
	<node lat="60.148147223783546" lon="11.138302779352532" id="-13645">
		<tag k="alt_name" v="Ljøgodttjern" />
		<tag k="name" v="Ljøgottjernet" />
=======
	<node id="-260688" lat="60.2076666662" lon="11.1331333247">
		<tag k="name" v="Vesletjern" />
		<tag k="natural" v="water" />
		<tag k="ssr:stedsnr" v="725654" />
	</node>
	<node id="-260650" lat="60.2272027819" lon="11.1275611138">
		<tag k="name" v="Vollnesputten" />
>>>>>>> e1d4bc35ff8a6074a6f2e91616a996b547c36f15
		<tag k="natural" v="water" />
		<tag k="ssr:stedsnr" v="17971" />
	</node>
	<node lat="60.13524444081792" lon="11.151350002747325" id="-13648">
		<tag k="name" v="Dølibekken" />
		<tag k="ssr:stedsnr" v="41643" />
		<tag k="waterway" v="stream" />
	</node>
<<<<<<< HEAD
	<node lat="60.218543252111374" lon="11.154673780045119" id="-13669">
=======
	<node id="-260902" lat="60.2185432521" lon="11.15467378">
>>>>>>> e1d4bc35ff8a6074a6f2e91616a996b547c36f15
		<tag k="name" v="Hersjøen" />
		<tag k="natural" v="water" />
		<tag k="ssr:stedsnr" v="66286" />
		<tag k="water" v="lake" />
	</node>
<<<<<<< HEAD
	<node lat="60.19234444479797" lon="11.15881666788534" id="-13677">
		<tag k="name" v="Dagsjøen" />
		<tag k="natural" v="water" />
		<tag k="ssr:stedsnr" v="66229" />
	</node>
	<node lat="60.159427775079266" lon="11.14062222748336" id="-13683">
		<tag k="name" v="Skåntjern" />
		<tag k="natural" v="water" />
		<tag k="ssr:stedsnr" v="102544" />
	</node>
	<node lat="60.14106110699659" lon="11.088094444301847" id="-13706">
		<tag k="alt_name" v="Rudbekken" />
		<tag k="name" v="Rudsbekken" />
		<tag k="ssr:stedsnr" v="127679" />
		<tag k="waterway" v="stream" />
	</node>
	<node lat="60.08952222124562" lon="11.173455554989168" id="-13719">
=======
	<node id="-261153" lat="60.0802222188" lon="11.1764027861">
		<tag k="name" v="Hynnebekken" />
		<tag k="ssr:stedsnr" v="604942" />
		<tag k="waterway" v="stream" />
	</node>
	<node id="-261150" lat="60.0892666676" lon="11.1763861115">
		<tag k="name" v="Flatbybekken" />
		<tag k="ssr:stedsnr" v="604930" />
		<tag k="waterway" v="stream" />
	</node>
	<node id="-260894" lat="60.1390750019" lon="11.278430547">
		<tag k="alt_name" v="Songna" />
		<tag k="name" v="Songa" />
		<tag k="ssr:stedsnr" v="66166" />
		<tag k="waterway" v="stream" />
	</node>
	<node id="-260634" lat="60.1131555581" lon="11.2608388957">
		<tag k="name" v="Horsla" />
		<tag k="ssr:stedsnr" v="490103" />
		<tag k="waterway" v="river" />
	</node>
	<node id="-260890" lat="60.1923444448" lon="11.1588166679">
		<tag k="name" v="Dagsjøen" />
		<tag k="natural" v="water" />
		<tag k="ssr:stedsnr" v="66229" />
	</node>
	<node id="-261016" lat="60.2042472182" lon="11.1462666687">
		<tag k="name" v="Kattjern" />
		<tag k="natural" v="water" />
		<tag k="ssr:stedsnr" v="360670" />
	</node>
	<node id="-260503" lat="60.0895222212" lon="11.173455555">
>>>>>>> e1d4bc35ff8a6074a6f2e91616a996b547c36f15
		<tag k="name" v="Rambybekken" />
		<tag k="ssr:stedsnr" v="180922" />
		<tag k="waterway" v="stream" />
	</node>
<<<<<<< HEAD
	<node lat="60.201163888877545" lon="11.241191659106255" id="-13740">
		<tag k="alt_name" v="Vesletjern" />
		<tag k="name" v="Vesletjernet" />
		<tag k="natural" v="water" />
		<tag k="ssr:stedsnr" v="187260" />
	</node>
	<node lat="60.1137750016724" lon="11.244952785112838" id="-13778">
		<tag k="name" v="Styggedalsbekken" />
		<tag k="ssr:stedsnr" v="344656" />
		<tag k="waterway" v="stream" />
	</node>
	<node lat="60.20424721816955" lon="11.146266668711723" id="-13782">
		<tag k="name" v="Kattjern" />
		<tag k="natural" v="water" />
		<tag k="ssr:stedsnr" v="360670" />
	</node>
	<node lat="60.17497499688204" lon="11.174858331465487" id="-13805">
		<tag k="alt_name" v="Bonntjern" />
		<tag k="name" v="Bonntjernet" />
		<tag k="natural" v="water" />
		<tag k="ssr:stedsnr" v="369230" />
	</node>
	<node lat="60.10587221975195" lon="11.31685554759318" id="-13809">
		<tag k="name" v="Hvamseterbekken" />
		<tag k="ssr:stedsnr" v="405720" />
		<tag k="waterway" v="stream" />
	</node>
	<node lat="60.1919979064028" lon="11.0408662471875" id="-13842">
		<tag k="name" v="Sogna" />
		<tag k="ssr:stedsnr" v="430743" />
		<tag k="waterway" v="river" />
	</node>
	<node lat="60.19946666928227" lon="11.131427786725443" id="-13852">
		<tag k="name" v="Låkesetertjern" />
		<tag k="natural" v="water" />
		<tag k="ssr:stedsnr" v="543688" />
	</node>
	<node lat="60.147511112534886" lon="11.321766673986652" id="-13875">
		<tag k="alt_name" v="Ellingbekken" />
		<tag k="name" v="Ellingsbekken" />
		<tag k="ssr:stedsnr" v="601474" />
		<tag k="waterway" v="stream" />
	</node>
	<node lat="60.089266667562605" lon="11.176386111482486" id="-13894">
		<tag k="name" v="Flatbybekken" />
		<tag k="ssr:stedsnr" v="604930" />
		<tag k="waterway" v="stream" />
	</node>
	<node lat="60.08022221883636" lon="11.176402786080983" id="-13897">
		<tag k="name" v="Hynnebekken" />
		<tag k="ssr:stedsnr" v="604942" />
		<tag k="waterway" v="stream" />
	</node>
	<node lat="60.072238889052535" lon="11.130527773021935" id="-13929">
		<tag k="name" v="Gislebekken" />
		<tag k="ssr:stedsnr" v="665978" />
		<tag k="waterway" v="stream" />
	</node>
	<node lat="60.20800833569136" lon="11.138030562812496" id="-13936">
		<tag k="name" v="Mjøntjern" />
		<tag k="natural" v="water" />
		<tag k="ssr:stedsnr" v="725653" />
	</node>
	<node lat="60.20766666618074" lon="11.133133324687288" id="-13937">
		<tag k="name" v="Vesletjern" />
		<tag k="natural" v="water" />
		<tag k="ssr:stedsnr" v="725654" />
	</node>
	<node lat="60.215491662211285" lon="11.239755562438601" id="-13940">
		<tag k="name" v="Tjernstutjern" />
		<tag k="natural" v="water" />
		<tag k="ssr:stedsnr" v="725588" />
	</node>
	<node lat="60.07807778015141" lon="11.190427786784072" id="-13950">
		<tag k="name" v="Rogndalsbekken" />
		<tag k="ssr:stedsnr" v="726961" />
		<tag k="waterway" v="stream" />
	</node>
	<node lat="60.20374722155454" lon="11.139430555809128" id="-13972">
		<tag k="alt_name" v="Skråtjern" />
		<tag k="name" v="Skråtjernet" />
		<tag k="natural" v="water" />
		<tag k="ssr:stedsnr" v="794252" />
	</node>
	<node lat="60.137413889391084" lon="11.142774993456829" id="-13976">
		<tag k="name" v="Tveia" />
		<tag k="ssr:stedsnr" v="794141" />
		<tag k="waterway" v="stream" />
	</node>
	<node lat="60.18074166220832" lon="11.278016666721024" id="-13991">
		<tag k="name" v="Klarbekken" />
		<tag k="ssr:stedsnr" v="846700" />
		<tag k="waterway" v="stream" />
	</node>
	<node lat="60.147030553975526" lon="11.1234583263821" id="-14000">
		<tag k="name" v="Fuglebekken" />
		<tag k="ssr:stedsnr" v="848550" />
		<tag k="waterway" v="stream" />
=======
	<node id="-260846" lat="60.156311107" lon="11.1641472289">
		<tag k="name" v="Nordbytjernet" />
		<tag k="natural" v="water" />
		<tag k="ssr:stedsnr" v="5225" />
	</node>
	<node id="-260496" lat="60.1904666652" lon="11.228525002">
		<tag k="name" v="Sofrutjern" />
		<tag k="natural" v="water" />
		<tag k="ssr:stedsnr" v="179724" />
	</node>
	<node id="-260478" lat="60.1647833321" lon="11.0571222194">
		<tag k="name" v="Sognemunn" />
		<tag k="natural" v="bay" />
		<tag k="ssr:stedsnr" v="266228" />
	</node>
	<node id="-261129" lat="60.1475111125" lon="11.321766674">
		<tag k="alt_name" v="Ellingbekken" />
		<tag k="name" v="Ellingsbekken" />
		<tag k="ssr:stedsnr" v="601474" />
		<tag k="waterway" v="stream" />
	</node>
	<node id="-260741" lat="60.2154916622" lon="11.2397555624">
		<tag k="name" v="Tjernstutjern" />
		<tag k="natural" v="water" />
		<tag k="ssr:stedsnr" v="725588" />
	</node>
	<node id="-260481" lat="60.1865722191" lon="11.1632388887">
		<tag k="name" v="Vilbergtjern" />
		<tag k="natural" v="water" />
		<tag k="ssr:stedsnr" v="162354" />
>>>>>>> e1d4bc35ff8a6074a6f2e91616a996b547c36f15
	</node>
</osm>
