<?xml version="1.0" encoding="UTF-8"?>
<osm generator="osmapis" version="0.6">
	<node id="-902396" lat="64.6599083368" lon="11.2664277702">
		<tag k="name" v="Fosnes kommune" />
		<tag k="ssr:date" v="2018-01-09" />
		<tag k="ssr:gruppe" v="administrativeIndelinger" />
		<tag k="ssr:hovedgruppe" v="offentligAdministrasjon" />
		<tag k="ssr:stedsnr" v="147247" />
		<tag k="ssr:type" v="kommune" />
	</node>
	<node id="-901627" lat="64.6837972221" lon="11.2486222259">
		<tag k="name" v="Hundstien" />
		<tag k="ssr:date" v="2018-01-09" />
		<tag k="ssr:gruppe" v="veg" />
		<tag k="ssr:hovedgruppe" v="infrastruktur" />
		<tag k="ssr:stedsnr" v="532853" />
		<tag k="ssr:type" v="vegstrekning" />
	</node>
	<node id="-901726" lat="64.6387027802" lon="11.3584638923">
		<tag k="name" v="Ølhammaren" />
		<tag k="ssr:date" v="2018-01-09" />
		<tag k="ssr:gruppe" v="navigasjon" />
		<tag k="ssr:hovedgruppe" v="infrastruktur" />
		<tag k="ssr:stedsnr" v="226074" />
		<tag k="ssr:type" v="lanterne" />
	</node>
	<node id="-901211" lat="64.7117444407" lon="11.406005551">
		<tag k="name" v="Rypneset" />
		<tag k="ssr:date" v="2018-01-09" />
		<tag k="ssr:gruppe" v="navigasjon" />
		<tag k="ssr:hovedgruppe" v="infrastruktur" />
		<tag k="ssr:stedsnr" v="175576" />
		<tag k="ssr:type" v="fyrlykt" />
	</node>
	<node id="-901210" lat="64.6553999992" lon="11.3099166655">
		<tag k="name" v="Gammelvegen" />
		<tag k="old_name" v="Gammelveien" />
		<tag k="ssr:date" v="2018-01-09" />
		<tag k="ssr:gruppe" v="veg" />
		<tag k="ssr:hovedgruppe" v="infrastruktur" />
		<tag k="ssr:stedsnr" v="168779" />
		<tag k="ssr:type" v="vegstrekning" />
	</node>
	<node id="-901461" lat="64.7657394493" lon="11.8976164622">
		<tag k="name" v="Godfisktjønna" />
		<tag k="ssr:date" v="2019-05-31" />
		<tag k="ssr:gruppe" v="veg" />
		<tag k="ssr:hovedgruppe" v="infrastruktur" />
		<tag k="ssr:stedsnr" v="975152" />
		<tag k="ssr:type" v="adressenavn" />
	</node>
	<node id="-901459" lat="64.6507818222" lon="11.7811838057">
		<tag k="name" v="Storengan" />
		<tag k="ssr:date" v="2019-05-31" />
		<tag k="ssr:gruppe" v="veg" />
		<tag k="ssr:hovedgruppe" v="infrastruktur" />
		<tag k="ssr:stedsnr" v="975151" />
		<tag k="ssr:type" v="adressenavn" />
	</node>
	<node id="-901450" lat="64.656977766" lon="11.4938348753">
		<tag k="name" v="Seiertuva" />
		<tag k="ssr:date" v="2019-05-31" />
		<tag k="ssr:gruppe" v="veg" />
		<tag k="ssr:hovedgruppe" v="infrastruktur" />
		<tag k="ssr:stedsnr" v="975150" />
		<tag k="ssr:type" v="adressenavn" />
	</node>
	<node id="-901448" lat="64.6411346373" lon="11.4657684955">
		<tag k="name" v="Storvatnet" />
		<tag k="ssr:date" v="2019-05-31" />
		<tag k="ssr:gruppe" v="veg" />
		<tag k="ssr:hovedgruppe" v="infrastruktur" />
		<tag k="ssr:stedsnr" v="975149" />
		<tag k="ssr:type" v="adressenavn" />
	</node>
	<node id="-901447" lat="64.6481272484" lon="11.4075953321">
		<tag k="name" v="Kjelbotnet" />
		<tag k="ssr:date" v="2019-05-31" />
		<tag k="ssr:gruppe" v="veg" />
		<tag k="ssr:hovedgruppe" v="infrastruktur" />
		<tag k="ssr:stedsnr" v="975148" />
		<tag k="ssr:type" v="adressenavn" />
	</node>
	<node id="-901445" lat="64.62336124" lon="11.4805405105">
		<tag k="name" v="Mastervikvatnet" />
		<tag k="ssr:date" v="2019-05-31" />
		<tag k="ssr:gruppe" v="veg" />
		<tag k="ssr:hovedgruppe" v="infrastruktur" />
		<tag k="ssr:stedsnr" v="975147" />
		<tag k="ssr:type" v="adressenavn" />
	</node>
	<node id="-901572" lat="64.7098572813" lon="11.4100577204">
		<tag k="name" v="Ryneset" />
		<tag k="ssr:date" v="2019-05-31" />
		<tag k="ssr:gruppe" v="veg" />
		<tag k="ssr:hovedgruppe" v="infrastruktur" />
		<tag k="ssr:stedsnr" v="975651" />
		<tag k="ssr:type" v="adressenavn" />
	</node>
	<node id="-901441" lat="64.7192473635" lon="11.5589116088">
		<tag k="name" v="Gravvika" />
		<tag k="ssr:date" v="2019-05-31" />
		<tag k="ssr:gruppe" v="veg" />
		<tag k="ssr:hovedgruppe" v="infrastruktur" />
		<tag k="ssr:stedsnr" v="975146" />
		<tag k="ssr:type" v="adressenavn" />
	</node>
	<node id="-901437" lat="64.7143207269" lon="11.7404005301">
		<tag k="name" v="Eida" />
		<tag k="ssr:date" v="2019-05-31" />
		<tag k="ssr:gruppe" v="veg" />
		<tag k="ssr:hovedgruppe" v="infrastruktur" />
		<tag k="ssr:stedsnr" v="975145" />
		<tag k="ssr:type" v="adressenavn" />
	</node>
	<node id="-901433" lat="64.741294848" lon="11.8213021646">
		<tag k="name" v="Leisåk" />
		<tag k="ssr:date" v="2019-05-31" />
		<tag k="ssr:gruppe" v="veg" />
		<tag k="ssr:hovedgruppe" v="infrastruktur" />
		<tag k="ssr:stedsnr" v="975144" />
		<tag k="ssr:type" v="adressenavn" />
	</node>
	<node id="-901429" lat="64.7106840293" lon="11.4796128663">
		<tag k="name" v="Storvassvika" />
		<tag k="ssr:date" v="2019-05-31" />
		<tag k="ssr:gruppe" v="veg" />
		<tag k="ssr:hovedgruppe" v="infrastruktur" />
		<tag k="ssr:stedsnr" v="975143" />
		<tag k="ssr:type" v="adressenavn" />
	</node>
	<node id="-901426" lat="64.6534194456" lon="11.3913071229">
		<tag k="name" v="Tingstaden" />
		<tag k="ssr:date" v="2019-05-31" />
		<tag k="ssr:gruppe" v="veg" />
		<tag k="ssr:hovedgruppe" v="infrastruktur" />
		<tag k="ssr:stedsnr" v="975142" />
		<tag k="ssr:type" v="adressenavn" />
	</node>
	<node id="-901424" lat="64.6354948885" lon="11.4125468713">
		<tag k="name" v="Innerbotnet" />
		<tag k="ssr:date" v="2019-05-31" />
		<tag k="ssr:gruppe" v="veg" />
		<tag k="ssr:hovedgruppe" v="infrastruktur" />
		<tag k="ssr:stedsnr" v="975140" />
		<tag k="ssr:type" v="adressenavn" />
	</node>
	<node id="-901576" lat="64.8096330543" lon="12.081466691">
		<tag k="name" v="Mjøsundvatnet" />
		<tag k="ssr:date" v="2019-05-31" />
		<tag k="ssr:gruppe" v="veg" />
		<tag k="ssr:hovedgruppe" v="infrastruktur" />
		<tag k="ssr:stedsnr" v="975652" />
		<tag k="ssr:type" v="adressenavn" />
	</node>
	<node id="-901415" lat="64.5888514014" lon="11.4186542311">
		<tag k="name" v="Årbuvatnet" />
		<tag k="ssr:date" v="2019-05-31" />
		<tag k="ssr:gruppe" v="veg" />
		<tag k="ssr:hovedgruppe" v="infrastruktur" />
		<tag k="ssr:stedsnr" v="975098" />
		<tag k="ssr:type" v="adressenavn" />
	</node>
	<node id="-901532" lat="64.670713891" lon="11.227038899">
		<tag k="alt_name" v="Nordveien" />
		<tag k="name" v="Nordvegen" />
		<tag k="ssr:date" v="2018-01-09" />
		<tag k="ssr:gruppe" v="veg" />
		<tag k="ssr:hovedgruppe" v="infrastruktur" />
		<tag k="ssr:stedsnr" v="803324" />
		<tag k="ssr:type" v="vegstrekning" />
	</node>
	<node id="-901423" lat="64.6440313563" lon="11.4005317351">
		<tag k="name" v="Kjelneset" />
		<tag k="ssr:date" v="2019-05-31" />
		<tag k="ssr:gruppe" v="veg" />
		<tag k="ssr:hovedgruppe" v="infrastruktur" />
		<tag k="ssr:stedsnr" v="975141" />
		<tag k="ssr:type" v="adressenavn" />
	</node>
	<node id="-901656" lat="64.6708787687" lon="11.6401055806">
		<tag k="name" v="Breivika" />
		<tag k="ssr:date" v="2019-05-31" />
		<tag k="ssr:gruppe" v="veg" />
		<tag k="ssr:hovedgruppe" v="infrastruktur" />
		<tag k="ssr:stedsnr" v="975154" />
		<tag k="ssr:type" v="adressenavn" />
	</node>
	<node id="-901655" lat="64.6761157058" lon="11.5462674281">
		<tag k="name" v="Råfjellvatna" />
		<tag k="ssr:date" v="2019-05-31" />
		<tag k="ssr:gruppe" v="veg" />
		<tag k="ssr:hovedgruppe" v="infrastruktur" />
		<tag k="ssr:stedsnr" v="975153" />
		<tag k="ssr:type" v="adressenavn" />
	</node>
	<node id="-902804" lat="64.0144468016" lon="11.4818866293">
		<tag k="fixme" v="multiple name tags, choose one and add the other to alt_name" />
		<tag k="name" v="Trøndelag fylke - Trööndelage;Trööndelagen fylhke" />
		<tag k="name:no" v="Trøndelag fylke" />
		<tag k="name:sma" v="Trööndelage;Trööndelagen fylhke" />
		<tag k="ssr:date" v="2019-11-14" />
		<tag k="ssr:gruppe" v="administrativeIndelinger" />
		<tag k="ssr:hovedgruppe" v="offentligAdministrasjon" />
		<tag k="ssr:stedsnr" v="980645" />
		<tag k="ssr:type" v="fylke" />
	</node>
	<node id="-902291" lat="64.6856750007" lon="11.4598944474">
		<tag k="name" v="Kolhusvegen" />
		<tag k="ssr:date" v="2018-01-09" />
		<tag k="ssr:gruppe" v="veg" />
		<tag k="ssr:hovedgruppe" v="infrastruktur" />
		<tag k="ssr:stedsnr" v="924309" />
		<tag k="ssr:type" v="vegstrekning" />
	</node>
	<node id="-902593" lat="64.7519805575" lon="11.9926749937">
		<tag k="alt_name" v="Skavveien" />
		<tag k="name" v="Skavvegen" />
		<tag k="ssr:date" v="2018-01-09" />
		<tag k="ssr:gruppe" v="veg" />
		<tag k="ssr:hovedgruppe" v="infrastruktur" />
		<tag k="ssr:stedsnr" v="596099" />
		<tag k="ssr:type" v="vegstrekning" />
	</node>
	<node id="-901124" lat="64.6245027749" lon="11.4642638814">
		<tag k="name" v="Hestveien" />
		<tag k="ssr:date" v="2018-01-09" />
		<tag k="ssr:gruppe" v="veg" />
		<tag k="ssr:hovedgruppe" v="infrastruktur" />
		<tag k="ssr:stedsnr" v="47703" />
		<tag k="ssr:type" v="vegstrekning" />
	</node>
	<node id="-901379" lat="64.6288060642" lon="11.2615918704">
		<tag k="name" v="Letvika hyttefelt" />
		<tag k="ssr:date" v="2019-05-31" />
		<tag k="ssr:gruppe" v="veg" />
		<tag k="ssr:hovedgruppe" v="infrastruktur" />
		<tag k="ssr:stedsnr" v="975104" />
		<tag k="ssr:type" v="adressenavn" />
	</node>
	<node id="-901378" lat="64.6213412833" lon="11.2683143361">
		<tag k="name" v="Olavika hyttefelt" />
		<tag k="ssr:date" v="2019-05-31" />
		<tag k="ssr:gruppe" v="veg" />
		<tag k="ssr:hovedgruppe" v="infrastruktur" />
		<tag k="ssr:stedsnr" v="975105" />
		<tag k="ssr:type" v="adressenavn" />
	</node>
</osm>
