<?xml version="1.0" encoding="UTF-8"?>
<osm generator="osmapis" version="0.6">
	<node id="-102400" lat="62.4781222219" lon="11.0735944538">
		<tag k="name" v="Slettknausen" />
		<tag k="natural" v="hill" />
		<tag k="place" v="locality" />
		<tag k="ssr:stedsnr" v="419014" />
	</node>
	<node id="-104437" lat="62.241277777" lon="11.8454333351">
		<tag k="fixme" v="consider natural=peak for the most distinct mountains in the district" />
		<tag k="name" v="Tælet" />
		<tag k="natural" v="hill" />
		<tag k="place" v="locality" />
		<tag k="ssr:stedsnr" v="860399" />
	</node>
	<node id="-104431" lat="62.6009500001" lon="11.0550472169">
		<tag k="name" v="Bangengkvølvet" />
		<tag k="natural" v="valley" />
		<tag k="place" v="locality" />
		<tag k="ssr:stedsnr" v="846406" />
	</node>
	<node id="-104424" lat="62.1699583351" lon="11.7942388962">
		<tag k="name" v="Nedre Åsen" />
		<tag k="natural" v="hill" />
		<tag k="place" v="locality" />
		<tag k="ssr:stedsnr" v="844928" />
	</node>
	<node id="-104420" lat="62.4351805521" lon="11.4125972168">
		<tag k="name" v="Skolerya" />
		<tag k="place" v="locality" />
		<tag k="ssr:stedsnr" v="844806" />
	</node>
	<node id="-104415" lat="62.5122833306" lon="11.0627166725">
		<tag k="name" v="Bruåsen" />
		<tag k="natural" v="hill" />
		<tag k="place" v="locality" />
		<tag k="ssr:stedsnr" v="844724" />
	</node>
	<node id="-104414" lat="62.5045277758" lon="11.0295194506">
		<tag k="name" v="Storhåegga" />
		<tag k="natural" v="hill" />
		<tag k="place" v="locality" />
		<tag k="ssr:stedsnr" v="844720" />
	</node>
	<node id="-104412" lat="62.4386027813" lon="11.1260861159">
		<tag k="alt_name" v="Hummelgrubba" />
		<tag k="name" v="Håmmålgrubba" />
		<tag k="natural" v="valley" />
		<tag k="place" v="locality" />
		<tag k="ssr:stedsnr" v="844713" />
	</node>
	<node id="-104409" lat="62.4924611152" lon="11.2528500067">
		<tag k="name" v="Bingegga" />
		<tag k="natural" v="hill" />
		<tag k="place" v="locality" />
		<tag k="ssr:stedsnr" v="844574" />
	</node>
	<node id="-104407" lat="62.4671638853" lon="11.2883944435">
		<tag k="name" v="Brattbakken" />
		<tag k="natural" v="slope" />
		<tag k="place" v="locality" />
		<tag k="ssr:stedsnr" v="844503" />
	</node>
	<node id="-104398" lat="62.3068444412" lon="11.6263777704">
		<tag k="name" v="Sæterbekkåsen" />
		<tag k="natural" v="hill" />
		<tag k="place" v="locality" />
		<tag k="ssr:stedsnr" v="844320" />
	</node>
	<node id="-104397" lat="62.4697333366" lon="11.1714194513">
		<tag k="name" v="Langskrebakken" />
		<tag k="natural" v="slope" />
		<tag k="place" v="locality" />
		<tag k="ssr:stedsnr" v="844321" />
	</node>
	<node id="-104390" lat="62.335669447" lon="11.5432361156">
		<tag k="name" v="Rokkrøsta" />
		<tag k="natural" v="slope" />
		<tag k="place" v="locality" />
		<tag k="ssr:stedsnr" v="844237" />
	</node>
	<node id="-104389" lat="62.2879305526" lon="11.7631333342">
		<tag k="name" v="Nedre Koiehaugen" />
		<tag k="natural" v="hill" />
		<tag k="place" v="locality" />
		<tag k="ssr:stedsnr" v="844225" />
	</node>
	<node id="-104380" lat="62.2083611122" lon="11.7972916698">
		<tag k="name" v="Storsletta" />
		<tag k="place" v="locality" />
		<tag k="ssr:stedsnr" v="844114" />
	</node>
	<node id="-104377" lat="62.2239222251" lon="11.81897778">
		<tag k="name" v="Storkartrøsta" />
		<tag k="natural" v="hill" />
		<tag k="place" v="locality" />
		<tag k="ssr:stedsnr" v="844102" />
	</node>
	<node id="-104374" lat="62.2421083355" lon="11.7574944414">
		<tag k="name" v="Sandegga" />
		<tag k="natural" v="hill" />
		<tag k="place" v="locality" />
		<tag k="ssr:stedsnr" v="844069" />
	</node>
	<node id="-104373" lat="62.2523638901" lon="11.7943166719">
		<tag k="name" v="Rennseleia" />
		<tag k="place" v="locality" />
		<tag k="ssr:stedsnr" v="844062" />
	</node>
	<node id="-104367" lat="62.2794750004" lon="11.7811805531">
		<tag k="name" v="Midtåsen" />
		<tag k="natural" v="hill" />
		<tag k="place" v="locality" />
		<tag k="ssr:stedsnr" v="844027" />
	</node>
	<node id="-104365" lat="62.2696472266" lon="11.7872305612">
		<tag k="name" v="Lauvrøsta" />
		<tag k="natural" v="hill" />
		<tag k="place" v="locality" />
		<tag k="ssr:stedsnr" v="844016" />
	</node>
	<node id="-104356" lat="62.4368555516" lon="11.1551861017">
		<tag k="name" v="Bakosvolltomta" />
		<tag k="place" v="locality" />
		<tag k="ssr:stedsnr" v="843513" />
	</node>
	<node id="-104355" lat="62.4197416647" lon="11.1707222154">
		<tag k="alt_name" v="Hummeldalen" />
		<tag k="name" v="Håmmåldalen" />
		<tag k="natural" v="valley" />
		<tag k="place" v="locality" />
		<tag k="ssr:stedsnr" v="843512" />
	</node>
	<node id="-104350" lat="62.3289388898" lon="11.4668805482">
		<tag k="name" v="Bonkryhaugen" />
		<tag k="natural" v="hill" />
		<tag k="place" v="locality" />
		<tag k="ssr:stedsnr" v="843480" />
	</node>
	<node id="-104347" lat="62.5641722206" lon="10.947358331">
		<tag k="name" v="Hamran" />
		<tag k="natural" v="hill" />
		<tag k="place" v="locality" />
		<tag k="ssr:stedsnr" v="843401" />
	</node>
	<node id="-104346" lat="62.5632277791" lon="10.958102773">
		<tag k="name" v="Halterikdalen" />
		<tag k="natural" v="valley" />
		<tag k="place" v="locality" />
		<tag k="ssr:stedsnr" v="843396" />
	</node>
	<node id="-104344" lat="62.1543138902" lon="11.8299444516">
		<tag k="name" v="Berget" />
		<tag k="natural" v="hill" />
		<tag k="place" v="locality" />
		<tag k="ssr:stedsnr" v="843214" />
	</node>
	<node id="-104341" lat="62.3076972196" lon="11.7647250069">
		<tag k="name" v="Høgegga" />
		<tag k="natural" v="hill" />
		<tag k="place" v="locality" />
		<tag k="ssr:stedsnr" v="843198" />
	</node>
	<node id="-104339" lat="62.5454944462" lon="11.2042388865">
		<tag k="name" v="Djupdalen" />
		<tag k="natural" v="valley" />
		<tag k="place" v="locality" />
		<tag k="ssr:stedsnr" v="843065" />
	</node>
	<node id="-104337" lat="62.2346722254" lon="11.7267138888">
		<tag k="name" v="Tjukkrøsta" />
		<tag k="natural" v="slope" />
		<tag k="place" v="locality" />
		<tag k="ssr:stedsnr" v="842115" />
	</node>
	<node id="-104330" lat="62.5632805557" lon="11.0312583324">
		<tag k="name" v="Vangrøftdalen" />
		<tag k="natural" v="valley" />
		<tag k="place" v="locality" />
		<tag k="ssr:stedsnr" v="801785" />
	</node>
	<node id="-104328" lat="62.2552611133" lon="11.7147611128">
		<tag k="fixme" v="consider natural=peak for the most distinct mountains in the district" />
		<tag k="name" v="Tangen" />
		<tag k="natural" v="hill" />
		<tag k="place" v="locality" />
		<tag k="ssr:stedsnr" v="801519" />
	</node>
	<node id="-104326" lat="62.2845777786" lon="11.514299997">
		<tag k="name" v="Tynsethøgda" />
		<tag k="natural" v="hill" />
		<tag k="place" v="locality" />
		<tag k="ssr:stedsnr" v="801465" />
	</node>
	<node id="-104324" lat="62.6474500043" lon="10.9268999959">
		<tag k="name" v="Falkpiggen" />
		<tag k="natural" v="hill" />
		<tag k="place" v="locality" />
		<tag k="ssr:stedsnr" v="801204" />
	</node>
	<node id="-104322" lat="62.6366111107" lon="10.8953944539">
		<tag k="fixme" v="consider natural=peak for the most distinct mountains in the district" />
		<tag k="name" v="Kløftåstangen" />
		<tag k="natural" v="hill" />
		<tag k="place" v="locality" />
		<tag k="ssr:stedsnr" v="801192" />
	</node>
	<node id="-104310" lat="62.5095277732" lon="11.2087333389">
		<tag k="fixme" v="consider natural=peak for the most distinct mountains in the district" />
		<tag k="name" v="Høgåsen" />
		<tag k="natural" v="hill" />
		<tag k="place" v="locality" />
		<tag k="ssr:stedsnr" v="800742" />
	</node>
	<node id="-104306" lat="62.3439805521" lon="11.5701027828">
		<tag k="fixme" v="consider natural=peak for the most distinct mountains in the district" />
		<tag k="name" v="Hollberget" />
		<tag k="natural" v="hill" />
		<tag k="place" v="locality" />
		<tag k="ssr:stedsnr" v="800458" />
	</node>
	<node id="-104305" lat="62.3285999994" lon="11.5215194442">
		<tag k="fixme" v="consider natural=peak for the most distinct mountains in the district" />
		<tag k="name" v="Skalleråsen" />
		<tag k="natural" v="hill" />
		<tag k="place" v="locality" />
		<tag k="ssr:stedsnr" v="800438" />
	</node>
	<node id="-104298" lat="62.6156638909" lon="10.7713166577">
		<tag k="fixme" v="consider natural=peak for the most distinct mountains in the district" />
		<tag k="name" v="Tverrfjellet" />
		<tag k="natural" v="hill" />
		<tag k="place" v="locality" />
		<tag k="ssr:stedsnr" v="800195" />
	</node>
	<node id="-104293" lat="62.5843027799" lon="11.112983342">
		<tag k="fixme" v="consider natural=peak for the most distinct mountains in the district" />
		<tag k="name" v="Langryåsen" />
		<tag k="natural" v="hill" />
		<tag k="place" v="locality" />
		<tag k="ssr:stedsnr" v="800160" />
	</node>
	<node id="-104292" lat="62.5830861153" lon="10.9730250044">
		<tag k="name" v="Storbekkdalen" />
		<tag k="natural" v="valley" />
		<tag k="place" v="locality" />
		<tag k="ssr:stedsnr" v="800157" />
	</node>
	<node id="-104289" lat="62.572505559" lon="10.8361888864">
		<tag k="fixme" v="consider natural=peak for the most distinct mountains in the district" />
		<tag k="name" v="Håkkårabben" />
		<tag k="natural" v="hill" />
		<tag k="place" v="locality" />
		<tag k="ssr:stedsnr" v="800121" />
	</node>
	<node id="-104284" lat="62.402011113" lon="11.477919435">
		<tag k="name" v="Mushollia" />
		<tag k="natural" v="slope" />
		<tag k="place" v="locality" />
		<tag k="ssr:stedsnr" v="798748" />
	</node>
	<node id="-104282" lat="62.5905000023" lon="11.1550472278">
		<tag k="name" v="Skårreggan" />
		<tag k="natural" v="hill" />
		<tag k="place" v="locality" />
		<tag k="ssr:stedsnr" v="783976" />
	</node>
	<node id="-104275" lat="62.4653055556" lon="11.3534416756">
		<tag k="name" v="Nesspiggen" />
		<tag k="natural" v="hill" />
		<tag k="place" v="locality" />
		<tag k="ssr:stedsnr" v="783746" />
	</node>
	<node id="-104273" lat="62.4464638892" lon="11.3786111162">
		<tag k="name" v="Mastusletta" />
		<tag k="place" v="locality" />
		<tag k="ssr:stedsnr" v="783739" />
	</node>
	<node id="-104268" lat="62.5075972257" lon="11.0744833256">
		<tag k="name" v="Brattegga" />
		<tag k="natural" v="hill" />
		<tag k="place" v="locality" />
		<tag k="ssr:stedsnr" v="783711" />
	</node>
	<node id="-104267" lat="62.5106083323" lon="11.0611833412">
		<tag k="name" v="Tømmersletta" />
		<tag k="place" v="locality" />
		<tag k="ssr:stedsnr" v="783710" />
	</node>
	<node id="-104264" lat="62.4812472251" lon="11.0845027807">
		<tag k="fixme" v="consider natural=peak for the most distinct mountains in the district" />
		<tag k="name" v="Slettknausen" />
		<tag k="natural" v="hill" />
		<tag k="ssr:stedsnr" v="783695" />
	</node>
	<node id="-104261" lat="62.4726222259" lon="11.2558138964">
		<tag k="name" v="Kvitrabben" />
		<tag k="natural" v="hill" />
		<tag k="place" v="locality" />
		<tag k="ssr:stedsnr" v="783623" />
	</node>
	<node id="-104258" lat="62.4978527776" lon="11.2367833333">
		<tag k="name" v="Sundmoen" />
		<tag k="place" v="locality" />
		<tag k="ssr:stedsnr" v="783573" />
	</node>
	<node id="-104254" lat="62.5422666634" lon="11.2393388853">
		<tag k="name" v="Gunhildhaugen" />
		<tag k="natural" v="hill" />
		<tag k="place" v="locality" />
		<tag k="ssr:stedsnr" v="783469" />
	</node>
	<node id="-104252" lat="62.4852083307" lon="11.2879027712">
		<tag k="name" v="Flygelen" />
		<tag k="natural" v="valley" />
		<tag k="place" v="locality" />
		<tag k="ssr:stedsnr" v="783367" />
	</node>
	<node id="-104251" lat="62.5685194429" lon="11.0603444538">
		<tag k="name" v="Husmåssåbakkan" />
		<tag k="natural" v="slope" />
		<tag k="place" v="locality" />
		<tag k="ssr:stedsnr" v="783357" />
	</node>
	<node id="-104248" lat="62.4619722226" lon="11.1714972142">
		<tag k="name" v="Tuvmoen" />
		<tag k="place" v="locality" />
		<tag k="ssr:stedsnr" v="783344" />
	</node>
	<node id="-104244" lat="62.3140111123" lon="11.6098527794">
		<tag k="name" v="Rabban" />
		<tag k="natural" v="hill" />
		<tag k="place" v="locality" />
		<tag k="ssr:stedsnr" v="783330" />
	</node>
	<node id="-104242" lat="62.4780833356" lon="11.1893472246">
		<tag k="name" v="Midtegga" />
		<tag k="natural" v="hill" />
		<tag k="place" v="locality" />
		<tag k="ssr:stedsnr" v="783316" />
	</node>
	<node id="-104241" lat="62.3263888853" lon="11.5851749971">
		<tag k="name" v="Strypet" />
		<tag k="place" v="locality" />
		<tag k="ssr:stedsnr" v="783310" />
	</node>
	<node id="-104239" lat="62.5719888877" lon="10.9404333389">
		<tag k="name" v="Fossbakken" />
		<tag k="place" v="locality" />
		<tag k="ssr:stedsnr" v="783294" />
	</node>
	<node id="-104235" lat="62.3421638889" lon="11.5967472228">
		<tag k="name" v="Storrøsta" />
		<tag k="natural" v="slope" />
		<tag k="place" v="locality" />
		<tag k="ssr:stedsnr" v="783289" />
	</node>
	<node id="-104228" lat="62.336161115" lon="11.5574722261">
		<tag k="name" v="Langmyregga" />
		<tag k="natural" v="hill" />
		<tag k="place" v="locality" />
		<tag k="ssr:stedsnr" v="783220" />
	</node>
	<node id="-104226" lat="62.52525833" lon="11.1139583386">
		<tag k="name" v="Langegga" />
		<tag k="natural" v="hill" />
		<tag k="place" v="locality" />
		<tag k="ssr:stedsnr" v="783186" />
	</node>
	<node id="-104222" lat="62.3107638874" lon="11.655091658">
		<tag k="name" v="Djupdalen" />
		<tag k="natural" v="valley" />
		<tag k="place" v="locality" />
		<tag k="ssr:stedsnr" v="783135" />
	</node>
	<node id="-104220" lat="62.215972226" lon="11.7934888918">
		<tag k="name" v="Litjsletta" />
		<tag k="place" v="locality" />
		<tag k="ssr:stedsnr" v="783105" />
	</node>
	<node id="-104217" lat="62.2350055584" lon="11.8200333326">
		<tag k="name" v="Tuvjota" />
		<tag k="natural" v="hill" />
		<tag k="place" v="locality" />
		<tag k="ssr:stedsnr" v="783077" />
	</node>
	<node id="-104216" lat="62.242225001" lon="11.7443194539">
		<tag k="name" v="Brottet" />
		<tag k="natural" v="slope" />
		<tag k="place" v="locality" />
		<tag k="ssr:stedsnr" v="783055" />
	</node>
	<node id="-104214" lat="62.4915555563" lon="10.9898527821">
		<tag k="name" v="Svensegga" />
		<tag k="natural" v="hill" />
		<tag k="place" v="locality" />
		<tag k="ssr:stedsnr" v="783051" />
	</node>
	<node id="-104212" lat="62.6053027749" lon="11.1160249928">
		<tag k="name" v="Sjøgrubba" />
		<tag k="place" v="locality" />
		<tag k="ssr:stedsnr" v="782914" />
	</node>
	<node id="-104208" lat="62.3363333366" lon="11.3588000077">
		<tag k="name" v="Løvslettåsen" />
		<tag k="natural" v="hill" />
		<tag k="place" v="locality" />
		<tag k="ssr:stedsnr" v="782630" />
	</node>
	<node id="-104205" lat="62.5406861117" lon="11.0494777862">
		<tag k="name" v="Blæstertjønnegga" />
		<tag k="natural" v="hill" />
		<tag k="place" v="locality" />
		<tag k="ssr:stedsnr" v="782592" />
	</node>
	<node id="-104203" lat="62.5318277808" lon="11.0546250096">
		<tag k="name" v="Storkåshaugan" />
		<tag k="natural" v="hill" />
		<tag k="place" v="locality" />
		<tag k="ssr:stedsnr" v="782568" />
	</node>
	<node id="-104197" lat="62.5565361121" lon="11.0699472271">
		<tag k="name" v="Klokkaregga" />
		<tag k="natural" v="hill" />
		<tag k="place" v="locality" />
		<tag k="ssr:stedsnr" v="782418" />
	</node>
	<node id="-104189" lat="62.2171083313" lon="11.7597138942">
		<tag k="name" v="Vassmyregga" />
		<tag k="natural" v="hill" />
		<tag k="place" v="locality" />
		<tag k="ssr:stedsnr" v="781119" />
	</node>
	<node id="-104183" lat="62.5536777755" lon="11.2174916709">
		<tag k="alt_name" v="Høgkletten" />
		<tag k="fixme" v="consider natural=peak for the most distinct mountains in the district" />
		<tag k="name" v="Kletten" />
		<tag k="natural" v="hill" />
		<tag k="place" v="locality" />
		<tag k="ssr:stedsnr" v="740812" />
	</node>
	<node id="-104182" lat="62.5202777783" lon="11.2392888974">
		<tag k="name" v="Langkloppbakken" />
		<tag k="natural" v="slope" />
		<tag k="place" v="locality" />
		<tag k="ssr:stedsnr" v="740594" />
	</node>
	<node id="-104174" lat="62.4035277796" lon="11.4913138823">
		<tag k="name" v="Musholhøgda" />
		<tag k="natural" v="hill" />
		<tag k="place" v="locality" />
		<tag k="ssr:stedsnr" v="740374" />
	</node>
	<node id="-104173" lat="62.4093638929" lon="11.4118499994">
		<tag k="fixme" v="consider natural=peak for the most distinct mountains in the district" />
		<tag k="name" v="Jopålsakletten" />
		<tag k="natural" v="hill" />
		<tag k="place" v="locality" />
		<tag k="ssr:stedsnr" v="740364" />
	</node>
	<node id="-104171" lat="62.6600777822" lon="11.0799583339">
		<tag k="name" v="Rundhøgda" />
		<tag k="natural" v="hill" />
		<tag k="place" v="locality" />
		<tag k="ssr:stedsnr" v="740212" />
	</node>
	<node id="-104170" lat="62.6614944452" lon="10.9124277721">
		<tag k="name" v="Veslhøgda" />
		<tag k="natural" v="hill" />
		<tag k="place" v="locality" />
		<tag k="ssr:stedsnr" v="740209" />
	</node>
	<node id="-104169" lat="62.6392777812" lon="10.8050277753">
		<tag k="name" v="Snuddalen" />
		<tag k="natural" v="valley" />
		<tag k="place" v="locality" />
		<tag k="ssr:stedsnr" v="740188" />
	</node>
	<node id="-104167" lat="62.5716444418" lon="11.1594083378">
		<tag k="fixme" v="consider natural=peak for the most distinct mountains in the district" />
		<tag k="name" v="Gammelstukletten" />
		<tag k="natural" v="hill" />
		<tag k="ssr:stedsnr" v="740134" />
	</node>
	<node id="-104154" lat="62.2925333337" lon="11.6507249953">
		<tag k="alt_name" v="Langtjørnhøgda" />
		<tag k="name" v="Langtjønnhøgda" />
		<tag k="natural" v="hill" />
		<tag k="place" v="locality" />
		<tag k="ssr:stedsnr" v="739473" />
	</node>
	<node id="-104141" lat="62.4829972206" lon="11.0821416757">
		<tag k="name" v="Osvåttåkletten" />
		<tag k="natural" v="hill" />
		<tag k="place" v="locality" />
		<tag k="ssr:stedsnr" v="739062" />
	</node>
	<node id="-104138" lat="62.5846583296" lon="11.0788777802">
		<tag k="name" v="Olbakkan" />
		<tag k="natural" v="slope" />
		<tag k="place" v="locality" />
		<tag k="ssr:stedsnr" v="724371" />
	</node>
	<node id="-104130" lat="62.4856499972" lon="11.0294805545">
		<tag k="name" v="Småhaugan" />
		<tag k="natural" v="hill" />
		<tag k="place" v="locality" />
		<tag k="ssr:stedsnr" v="722770" />
	</node>
	<node id="-104128" lat="62.4653027741" lon="11.4496527685">
		<tag k="name" v="Neverbukåsa" />
		<tag k="place" v="locality" />
		<tag k="ssr:stedsnr" v="722763" />
	</node>
	<node id="-104116" lat="62.5213444438" lon="11.01144166">
		<tag k="fixme" v="consider natural=peak for the most distinct mountains in the district" />
		<tag k="name" v="Skarvåsen" />
		<tag k="natural" v="hill" />
		<tag k="place" v="locality" />
		<tag k="ssr:stedsnr" v="722662" />
	</node>
	<node id="-104114" lat="62.5067749964" lon="10.9684083308">
		<tag k="name" v="Storrabben" />
		<tag k="natural" v="hill" />
		<tag k="place" v="locality" />
		<tag k="ssr:stedsnr" v="722652" />
	</node>
	<node id="-104112" lat="62.4753833357" lon="11.3121249961">
		<tag k="name" v="Bekkfettan" />
		<tag k="place" v="locality" />
		<tag k="ssr:stedsnr" v="722533" />
	</node>
	<node id="-104111" lat="62.4763277758" lon="11.2873472239">
		<tag k="name" v="Åsan" />
		<tag k="natural" v="slope" />
		<tag k="place" v="locality" />
		<tag k="ssr:stedsnr" v="722527" />
	</node>
	<node id="-104110" lat="62.5252500007" lon="11.2152916712">
		<tag k="name" v="Litjbakken" />
		<tag k="natural" v="slope" />
		<tag k="place" v="locality" />
		<tag k="ssr:stedsnr" v="722478" />
	</node>
	<node id="-104107" lat="62.3244472178" lon="11.6815583362">
		<tag k="name" v="Roan" />
		<tag k="natural" v="slope" />
		<tag k="place" v="locality" />
		<tag k="ssr:stedsnr" v="722360" />
	</node>
	<node id="-104099" lat="62.3312805571" lon="11.657233342">
		<tag k="name" v="Erlirabben" />
		<tag k="natural" v="hill" />
		<tag k="place" v="locality" />
		<tag k="ssr:stedsnr" v="722293" />
	</node>
	<node id="-104089" lat="62.3095638887" lon="11.6734111078">
		<tag k="name" v="Brattbakken" />
		<tag k="natural" v="slope" />
		<tag k="place" v="locality" />
		<tag k="ssr:stedsnr" v="722172" />
	</node>
	<node id="-104088" lat="62.3195666638" lon="11.7007500013">
		<tag k="name" v="Solansberget" />
		<tag k="natural" v="hill" />
		<tag k="place" v="locality" />
		<tag k="ssr:stedsnr" v="722164" />
	</node>
	<node id="-104087" lat="62.4979500022" lon="11.1375611093">
		<tag k="name" v="Mosengåsen" />
		<tag k="natural" v="hill" />
		<tag k="place" v="locality" />
		<tag k="ssr:stedsnr" v="722159" />
	</node>
	<node id="-104082" lat="62.5788277801" lon="11.1551694353">
		<tag k="name" v="Nystukletten" />
		<tag k="natural" v="hill" />
		<tag k="place" v="locality" />
		<tag k="ssr:stedsnr" v="722097" />
	</node>
	<node id="-104075" lat="62.5594472266" lon="11.1245972248">
		<tag k="name" v="Bratthaugen" />
		<tag k="natural" v="hill" />
		<tag k="place" v="locality" />
		<tag k="ssr:stedsnr" v="722080" />
	</node>
	<node id="-104074" lat="62.2414472199" lon="11.7366555535">
		<tag k="name" v="Tyllerabben" />
		<tag k="natural" v="hill" />
		<tag k="place" v="locality" />
		<tag k="ssr:stedsnr" v="722079" />
	</node>
	<node id="-104068" lat="62.473219442" lon="11.0721972211">
		<tag k="name" v="Munksletta" />
		<tag k="place" v="locality" />
		<tag k="ssr:stedsnr" v="722018" />
	</node>
	<node id="-104067" lat="62.2543388876" lon="11.7069277705">
		<tag k="name" v="Kvernbekkroa" />
		<tag k="natural" v="valley" />
		<tag k="place" v="locality" />
		<tag k="ssr:stedsnr" v="722006" />
	</node>
	<node id="-104066" lat="62.4350444465" lon="11.1931083285">
		<tag k="name" v="Inner Lausletta" />
		<tag k="place" v="locality" />
		<tag k="ssr:stedsnr" v="721499" />
	</node>
	<node id="-104058" lat="62.2581750028" lon="11.7856694412">
		<tag k="fixme" v="consider natural=peak for the most distinct mountains in the district" />
		<tag k="name" v="Svartmyråsen" />
		<tag k="natural" v="hill" />
		<tag k="place" v="locality" />
		<tag k="ssr:stedsnr" v="688848" />
	</node>
	<node id="-104056" lat="62.5269527764" lon="10.9317249944">
		<tag k="fixme" v="consider natural=peak for the most distinct mountains in the district" />
		<tag k="name" v="Nørderhogna" />
		<tag k="natural" v="hill" />
		<tag k="place" v="locality" />
		<tag k="ssr:stedsnr" v="679857" />
	</node>
	<node id="-104047" lat="62.2593388908" lon="11.6988111044">
		<tag k="name" v="Blåvola" />
		<tag k="natural" v="hill" />
		<tag k="place" v="locality" />
		<tag k="ssr:stedsnr" v="679505" />
	</node>
	<node id="-104046" lat="62.2524499984" lon="11.6868472285">
		<tag k="name" v="Finnrohøgda" />
		<tag k="natural" v="hill" />
		<tag k="place" v="locality" />
		<tag k="ssr:stedsnr" v="679490" />
	</node>
	<node id="-104040" lat="62.4541027818" lon="11.2160277848">
		<tag k="name" v="Elvhøgda" />
		<tag k="natural" v="hill" />
		<tag k="place" v="locality" />
		<tag k="ssr:stedsnr" v="679311" />
	</node>
	<node id="-104037" lat="62.6424277807" lon="11.0370833339">
		<tag k="name" v="Kvernhøgda" />
		<tag k="natural" v="hill" />
		<tag k="place" v="locality" />
		<tag k="ssr:stedsnr" v="679180" />
	</node>
	<node id="-104034" lat="62.4331666662" lon="11.1257944464">
		<tag k="alt_name" v="Håmålmoen;Hummelmoen" />
		<tag k="name" v="Håmmålmoen" />
		<tag k="place" v="locality" />
		<tag k="ssr:stedsnr" v="679104" />
	</node>
	<node id="-104026" lat="62.1770750045" lon="11.7282833288">
		<tag k="alt_name" v="Kvernlia" />
		<tag k="name" v="Kvennlia" />
		<tag k="natural" v="slope" />
		<tag k="old_name" v="Kvernlien" />
		<tag k="place" v="locality" />
		<tag k="ssr:stedsnr" v="678351" />
	</node>
	<node id="-104025" lat="62.6301166672" lon="11.1518166622">
		<tag k="alt_name" v="Vardehøgda" />
		<tag k="name" v="Vardhøgda" />
		<tag k="natural" v="hill" />
		<tag k="place" v="locality" />
		<tag k="ssr:stedsnr" v="678208" />
	</node>
	<node id="-104019" lat="62.6041166658" lon="11.1844722215">
		<tag k="name" v="Finnemana" />
		<tag k="natural" v="hill" />
		<tag k="place" v="locality" />
		<tag k="ssr:stedsnr" v="661963" />
	</node>
	<node id="-104016" lat="62.3551249998" lon="11.4597277724">
		<tag k="name" v="Stendalen" />
		<tag k="natural" v="valley" />
		<tag k="place" v="locality" />
		<tag k="ssr:stedsnr" v="661952" />
	</node>
	<node id="-104015" lat="62.1654638871" lon="11.8206416739">
		<tag k="name" v="Kløvstenåsen" />
		<tag k="natural" v="hill" />
		<tag k="place" v="locality" />
		<tag k="ssr:stedsnr" v="661938" />
	</node>
	<node id="-104014" lat="62.1689416632" lon="11.8163916677">
		<tag k="name" v="Storflorøsta" />
		<tag k="natural" v="hill" />
		<tag k="place" v="locality" />
		<tag k="ssr:stedsnr" v="661931" />
	</node>
	<node id="-104013" lat="62.1791833375" lon="11.7802638956">
		<tag k="name" v="Storfloåsen" />
		<tag k="natural" v="hill" />
		<tag k="place" v="locality" />
		<tag k="ssr:stedsnr" v="661908" />
	</node>
	<node id="-104008" lat="62.3935583304" lon="11.4592222215">
		<tag k="name" v="Stabbstøe" />
		<tag k="place" v="locality" />
		<tag k="ssr:stedsnr" v="661807" />
	</node>
	<node id="-104007" lat="62.617124996" lon="11.1013194407">
		<tag k="name" v="Skarvlia" />
		<tag k="natural" v="slope" />
		<tag k="place" v="locality" />
		<tag k="ssr:stedsnr" v="661800" />
	</node>
	<node id="-104004" lat="62.5317527797" lon="11.2140777781">
		<tag k="name" v="Måssåbakken" />
		<tag k="natural" v="slope" />
		<tag k="place" v="locality" />
		<tag k="ssr:stedsnr" v="661721" />
	</node>
	<node id="-104003" lat="62.4518305573" lon="11.4329166653">
		<tag k="name" v="Kojesletta" />
		<tag k="place" v="locality" />
		<tag k="ssr:stedsnr" v="661718" />
	</node>
	<node id="-104002" lat="62.52705" lon="11.206447222">
		<tag k="name" v="Stor-Peråsen" />
		<tag k="natural" v="hill" />
		<tag k="place" v="locality" />
		<tag k="ssr:stedsnr" v="661719" />
	</node>
	<node id="-103998" lat="62.507063891" lon="11.2181361023">
		<tag k="alt_name" v="Kvernåsen" />
		<tag k="name" v="Kvennåsen" />
		<tag k="natural" v="hill" />
		<tag k="place" v="locality" />
		<tag k="ssr:stedsnr" v="661700" />
	</node>
	<node id="-103992" lat="62.5107888892" lon="11.0344750015">
		<tag k="name" v="Skålgrubba" />
		<tag k="natural" v="valley" />
		<tag k="place" v="locality" />
		<tag k="ssr:stedsnr" v="661668" />
	</node>
	<node id="-103991" lat="62.4841000024" lon="11.0813222249">
		<tag k="fixme" v="consider natural=peak for the most distinct mountains in the district" />
		<tag k="name" v="Storkletten" />
		<tag k="natural" v="hill" />
		<tag k="ssr:stedsnr" v="661662" />
	</node>
	<node id="-103990" lat="62.4820527761" lon="11.0210805474">
		<tag k="fixme" v="consider natural=peak for the most distinct mountains in the district" />
		<tag k="name" v="Søljeåsen" />
		<tag k="natural" v="hill" />
		<tag k="place" v="locality" />
		<tag k="ssr:stedsnr" v="661659" />
	</node>
	<node id="-103986" lat="62.4898333371" lon="11.2642277702">
		<tag k="name" v="Korseggan" />
		<tag k="natural" v="hill" />
		<tag k="place" v="locality" />
		<tag k="ssr:stedsnr" v="661586" />
	</node>
	<node id="-103985" lat="62.544088885" lon="11.0250694519">
		<tag k="name" v="Brennvollhaugen" />
		<tag k="natural" v="hill" />
		<tag k="place" v="locality" />
		<tag k="ssr:stedsnr" v="661572" />
	</node>
	<node id="-103980" lat="62.4208666687" lon="11.1375555636">
		<tag k="name" v="Øver Gravåsknausen" />
		<tag k="natural" v="hill" />
		<tag k="place" v="locality" />
		<tag k="ssr:stedsnr" v="661488" />
	</node>
	<node id="-103978" lat="62.5642055579" lon="11.0884916678">
		<tag k="name" v="Grønnbekkhaugen" />
		<tag k="natural" v="hill" />
		<tag k="place" v="locality" />
		<tag k="ssr:stedsnr" v="661426" />
	</node>
	<node id="-103974" lat="62.5525027742" lon="10.9451500041">
		<tag k="name" v="Litjskarven" />
		<tag k="natural" v="hill" />
		<tag k="place" v="locality" />
		<tag k="ssr:stedsnr" v="661391" />
	</node>
	<node id="-103973" lat="62.5463805546" lon="10.9159333264">
		<tag k="name" v="Piggegga" />
		<tag k="natural" v="hill" />
		<tag k="place" v="locality" />
		<tag k="ssr:stedsnr" v="661386" />
	</node>
	<node id="-103967" lat="62.5730055556" lon="10.9498944457">
		<tag k="name" v="Fosskleva" />
		<tag k="natural" v="slope" />
		<tag k="place" v="locality" />
		<tag k="ssr:stedsnr" v="661297" />
	</node>
	<node id="-103963" lat="62.31701389" lon="11.5525444517">
		<tag k="name" v="Nordigardrøstan" />
		<tag k="natural" v="slope" />
		<tag k="place" v="locality" />
		<tag k="ssr:stedsnr" v="661266" />
	</node>
	<node id="-103962" lat="62.3444944449" lon="11.7371583253">
		<tag k="name" v="Flensbekkegga" />
		<tag k="natural" v="hill" />
		<tag k="place" v="locality" />
		<tag k="ssr:stedsnr" v="661205" />
	</node>
	<node id="-103961" lat="62.5319361109" lon="11.1319555593">
		<tag k="name" v="Engegrubba" />
		<tag k="natural" v="valley" />
		<tag k="place" v="locality" />
		<tag k="ssr:stedsnr" v="661203" />
	</node>
	<node id="-103959" lat="62.1958750033" lon="11.8474861172">
		<tag k="name" v="Bostrømrøsta" />
		<tag k="natural" v="hill" />
		<tag k="place" v="locality" />
		<tag k="ssr:stedsnr" v="661155" />
	</node>
	<node id="-103958" lat="62.4974111131" lon="11.1249027792">
		<tag k="name" v="Mosenggruva" />
		<tag k="natural" v="valley" />
		<tag k="place" v="locality" />
		<tag k="ssr:stedsnr" v="661156" />
	</node>
	<node id="-103956" lat="62.3116861149" lon="11.6829249983">
		<tag k="name" v="Sjørabben" />
		<tag k="natural" v="hill" />
		<tag k="place" v="locality" />
		<tag k="ssr:stedsnr" v="661131" />
	</node>
	<node id="-103955" lat="62.2285472227" lon="11.7135694404">
		<tag k="name" v="Tiurleken" />
		<tag k="natural" v="hill" />
		<tag k="place" v="locality" />
		<tag k="ssr:stedsnr" v="661118" />
	</node>
	<node id="-103952" lat="62.2363972244" lon="11.795924991">
		<tag k="name" v="Røstan" />
		<tag k="natural" v="hill" />
		<tag k="place" v="locality" />
		<tag k="ssr:stedsnr" v="661081" />
	</node>
	<node id="-103944" lat="62.4312138885" lon="11.1798055595">
		<tag k="name" v="Brøttet" />
		<tag k="natural" v="hill" />
		<tag k="place" v="locality" />
		<tag k="ssr:stedsnr" v="660529" />
	</node>
	<node id="-103943" lat="62.3459194404" lon="11.5490777689">
		<tag k="name" v="Daumannsletta" />
		<tag k="place" v="locality" />
		<tag k="ssr:stedsnr" v="660509" />
	</node>
	<node id="-103935" lat="62.2765341896" lon="11.7155269847">
		<tag k="name" v="Brattbakken" />
		<tag k="natural" v="slope" />
		<tag k="place" v="locality" />
		<tag k="ssr:stedsnr" v="660219" />
	</node>
	<node id="-103930" lat="62.3283833305" lon="11.7138666621">
		<tag k="name" v="Ytre Såttå" />
		<tag k="natural" v="slope" />
		<tag k="place" v="locality" />
		<tag k="ssr:stedsnr" v="660189" />
	</node>
	<node id="-103928" lat="62.2298888859" lon="11.7293055464">
		<tag k="name" v="Granrøstan" />
		<tag k="natural" v="slope" />
		<tag k="place" v="locality" />
		<tag k="ssr:stedsnr" v="660114" />
	</node>
	<node id="-103915" lat="62.5177166683" lon="10.9223055504">
		<tag k="fixme" v="consider natural=peak for the most distinct mountains in the district" />
		<tag k="name" v="Midthogna" />
		<tag k="natural" v="hill" />
		<tag k="place" v="locality" />
		<tag k="ssr:stedsnr" v="618733" />
	</node>
	<node id="-103911" lat="62.5312777774" lon="11.2392138891">
		<tag k="fixme" v="consider natural=peak for the most distinct mountains in the district" />
		<tag k="name" v="Vangsåsen" />
		<tag k="natural" v="hill" />
		<tag k="place" v="locality" />
		<tag k="ssr:stedsnr" v="618590" />
	</node>
	<node id="-103905" lat="62.506863888" lon="11.3488583278">
		<tag k="name" v="Hallstenshøgda" />
		<tag k="natural" v="hill" />
		<tag k="place" v="locality" />
		<tag k="ssr:stedsnr" v="618518" />
	</node>
	<node id="-103901" lat="62.324358334" lon="11.416980552">
		<tag k="name" v="Sletthøa" />
		<tag k="natural" v="hill" />
		<tag k="place" v="locality" />
		<tag k="ssr:stedsnr" v="618429" />
	</node>
	<node id="-103890" lat="62.6059416649" lon="10.9405999928">
		<tag k="name" v="Mastukåsa" />
		<tag k="natural" v="slope" />
		<tag k="place" v="locality" />
		<tag k="ssr:stedsnr" v="618144" />
	</node>
	<node id="-103880" lat="62.2231805589" lon="11.6465249939">
		<tag k="name" v="Gråhøgda" />
		<tag k="natural" v="hill" />
		<tag k="place" v="locality" />
		<tag k="ssr:stedsnr" v="617488" />
	</node>
	<node id="-103876" lat="62.5882861093" lon="11.0887499909">
		<tag k="name" v="Storegga" />
		<tag k="natural" v="hill" />
		<tag k="place" v="locality" />
		<tag k="ssr:stedsnr" v="602412" />
	</node>
	<node id="-103874" lat="62.5677333332" lon="11.0878555502">
		<tag k="name" v="Floegga" />
		<tag k="natural" v="hill" />
		<tag k="place" v="locality" />
		<tag k="ssr:stedsnr" v="602399" />
	</node>
	<node id="-103862" lat="62.6300555578" lon="11.1445555526">
		<tag k="name" v="Gammelengrabben" />
		<tag k="natural" v="hill" />
		<tag k="place" v="locality" />
		<tag k="ssr:stedsnr" v="600796" />
	</node>
	<node id="-103859" lat="62.5072583371" lon="11.2552666664">
		<tag k="name" v="Eidemoen" />
		<tag k="place" v="locality" />
		<tag k="ssr:stedsnr" v="600721" />
	</node>
	<node id="-103858" lat="62.508605554" lon="11.0771916593">
		<tag k="name" v="Åkeregga" />
		<tag k="natural" v="hill" />
		<tag k="place" v="locality" />
		<tag k="ssr:stedsnr" v="600681" />
	</node>
	<node id="-103857" lat="62.5126111106" lon="11.0333694528">
		<tag k="fixme" v="consider natural=peak for the most distinct mountains in the district" />
		<tag k="name" v="Skåleggan" />
		<tag k="natural" v="hill" />
		<tag k="place" v="locality" />
		<tag k="ssr:stedsnr" v="600676" />
	</node>
	<node id="-103853" lat="62.5059694427" lon="10.9778722151">
		<tag k="name" v="Måssåtjønnrabben" />
		<tag k="natural" v="hill" />
		<tag k="place" v="locality" />
		<tag k="ssr:stedsnr" v="600609" />
	</node>
	<node id="-103852" lat="62.5225750036" lon="10.9679749994">
		<tag k="name" v="Litjhøgda" />
		<tag k="natural" v="hill" />
		<tag k="place" v="locality" />
		<tag k="ssr:stedsnr" v="600603" />
	</node>
	<node id="-103850" lat="62.4940555555" lon="11.2702222278">
		<tag k="name" v="Holmsegga" />
		<tag k="natural" v="hill" />
		<tag k="place" v="locality" />
		<tag k="ssr:stedsnr" v="600582" />
	</node>
	<node id="-102641" lat="62.2476416695" lon="11.6676361088">
		<tag k="name" v="Sæterberget" />
		<tag k="natural" v="hill" />
		<tag k="place" v="locality" />
		<tag k="ssr:stedsnr" v="375403" />
	</node>
	<node id="-103844" lat="62.4373749968" lon="11.1670222211">
		<tag k="name" v="Gammelannehiet" />
		<tag k="place" v="locality" />
		<tag k="ssr:stedsnr" v="600501" />
	</node>
	<node id="-103841" lat="62.4192305596" lon="11.1675083256">
		<tag k="name" v="Storodden" />
		<tag k="place" v="locality" />
		<tag k="ssr:stedsnr" v="600492" />
	</node>
	<node id="-103835" lat="62.4882333297" lon="11.2920916698">
		<tag k="name" v="Måssåbakkan" />
		<tag k="natural" v="slope" />
		<tag k="place" v="locality" />
		<tag k="ssr:stedsnr" v="600356" />
	</node>
	<node id="-103831" lat="62.3270333363" lon="11.5998583343">
		<tag k="name" v="Tangen" />
		<tag k="place" v="locality" />
		<tag k="ssr:stedsnr" v="600320" />
	</node>
	<node id="-103830" lat="62.3352305514" lon="11.5949444354">
		<tag k="name" v="Hakketuvan" />
		<tag k="natural" v="hill" />
		<tag k="place" v="locality" />
		<tag k="ssr:stedsnr" v="600319" />
	</node>
	<node id="-103823" lat="62.3413305559" lon="11.6161027706">
		<tag k="name" v="Siksjølia" />
		<tag k="natural" v="slope" />
		<tag k="place" v="locality" />
		<tag k="ssr:stedsnr" v="600304" />
	</node>
	<node id="-103816" lat="62.324852778" lon="11.5738083352">
		<tag k="name" v="Kvannhølet" />
		<tag k="natural" v="valley" />
		<tag k="place" v="locality" />
		<tag k="ssr:stedsnr" v="600287" />
	</node>
	<node id="-103815" lat="62.3358083346" lon="11.5695055546">
		<tag k="name" v="Tallegga" />
		<tag k="natural" v="hill" />
		<tag k="place" v="locality" />
		<tag k="ssr:stedsnr" v="600279" />
	</node>
	<node id="-103812" lat="62.3437472235" lon="11.757036118">
		<tag k="name" v="Smårøstan" />
		<tag k="natural" v="slope" />
		<tag k="place" v="locality" />
		<tag k="ssr:stedsnr" v="600223" />
	</node>
	<node id="-103808" lat="62.5175888867" lon="11.1129638945">
		<tag k="name" v="Mæleggan" />
		<tag k="place" v="locality" />
		<tag k="ssr:stedsnr" v="600195" />
	</node>
	<node id="-103803" lat="62.4838694467" lon="11.0899250013">
		<tag k="fixme" v="consider natural=peak for the most distinct mountains in the district" />
		<tag k="name" v="Stenkletten" />
		<tag k="natural" v="hill" />
		<tag k="ssr:stedsnr" v="600156" />
	</node>
	<node id="-103801" lat="62.215797225" lon="11.7358722269">
		<tag k="name" v="Svartbekkrøstan" />
		<tag k="natural" v="hill" />
		<tag k="place" v="locality" />
		<tag k="ssr:stedsnr" v="600138" />
	</node>
	<node id="-103800" lat="62.1993000008" lon="11.7711694381">
		<tag k="name" v="Eksinghølet" />
		<tag k="natural" v="valley" />
		<tag k="place" v="locality" />
		<tag k="ssr:stedsnr" v="600120" />
	</node>
	<node id="-103789" lat="62.497922221" lon="11.0053749997">
		<tag k="alt_name" v="Oustuegga" />
		<tag k="name" v="Auststuegga" />
		<tag k="natural" v="hill" />
		<tag k="place" v="locality" />
		<tag k="ssr:stedsnr" v="600029" />
	</node>
	<node id="-102631" lat="62.644572223" lon="10.9605694536">
		<tag k="name" v="Falkhøgda" />
		<tag k="natural" v="hill" />
		<tag k="place" v="locality" />
		<tag k="ssr:stedsnr" v="375176" />
	</node>
	<node id="-103781" lat="62.3364194426" lon="11.4593472207">
		<tag k="name" v="Bonkrydalen" />
		<tag k="natural" v="valley" />
		<tag k="place" v="locality" />
		<tag k="ssr:stedsnr" v="599475" />
	</node>
	<node id="-103779" lat="62.2937888894" lon="11.7128638947">
		<tag k="name" v="Gråvikjerrøstan" />
		<tag k="natural" v="slope" />
		<tag k="place" v="locality" />
		<tag k="ssr:stedsnr" v="599222" />
	</node>
	<node id="-103777" lat="62.268863889" lon="11.7213833295">
		<tag k="name" v="Rubbrøsta" />
		<tag k="natural" v="slope" />
		<tag k="place" v="locality" />
		<tag k="ssr:stedsnr" v="599208" />
	</node>
	<node id="-103773" lat="62.2141305559" lon="11.7451194451">
		<tag k="name" v="Sætersrøstan" />
		<tag k="natural" v="hill" />
		<tag k="place" v="locality" />
		<tag k="ssr:stedsnr" v="599087" />
	</node>
	<node id="-103769" lat="62.4347999964" lon="11.466533332">
		<tag k="fixme" v="consider natural=peak for the most distinct mountains in the district" />
		<tag k="name" v="Borrtangen" />
		<tag k="natural" v="hill" />
		<tag k="place" v="locality" />
		<tag k="ssr:stedsnr" v="574865" />
	</node>
	<node id="-103760" lat="62.553611107" lon="10.8459944388">
		<tag k="name" v="Storhøgda" />
		<tag k="natural" v="hill" />
		<tag k="place" v="locality" />
		<tag k="ssr:stedsnr" v="557817" />
	</node>
	<node id="-103748" lat="62.3093111123" lon="11.5131722205">
		<tag k="name" v="Engådalshøgda" />
		<tag k="natural" v="hill" />
		<tag k="place" v="locality" />
		<tag k="ssr:stedsnr" v="557464" />
	</node>
	<node id="-103744" lat="62.3601305515" lon="11.3920250046">
		<tag k="name" v="Narskaftet" />
		<tag k="natural" v="hill" />
		<tag k="place" v="locality" />
		<tag k="ssr:stedsnr" v="557399" />
	</node>
	<node id="-103742" lat="62.4170361132" lon="11.4961916739">
		<tag k="alt_name" v="Museholhøgda, øvre" />
		<tag k="name" v="Øvre Musholhøgda" />
		<tag k="natural" v="ridge" />
		<tag k="place" v="locality" />
		<tag k="ssr:stedsnr" v="557364" />
	</node>
	<node id="-103739" lat="62.4844777735" lon="11.3756944528">
		<tag k="name" v="Storsletthøgda" />
		<tag k="natural" v="hill" />
		<tag k="place" v="locality" />
		<tag k="ssr:stedsnr" v="557298" />
	</node>
	<node id="-103734" lat="62.6423111083" lon="11.1316638966">
		<tag k="alt_name" v="Kjurrudalen" />
		<tag k="name" v="Tjurudalen" />
		<tag k="natural" v="valley" />
		<tag k="place" v="locality" />
		<tag k="ssr:stedsnr" v="557200" />
	</node>
	<node id="-103733" lat="62.6317638892" lon="10.7775416613">
		<tag k="name" v="Litlhøgda" />
		<tag k="natural" v="hill" />
		<tag k="place" v="locality" />
		<tag k="ssr:stedsnr" v="557197" />
	</node>
	<node id="-103732" lat="62.6321805576" lon="10.8005805649">
		<tag k="name" v="Såttåhaugberga" />
		<tag k="natural" v="slope" />
		<tag k="place" v="locality" />
		<tag k="ssr:stedsnr" v="557196" />
	</node>
	<node id="-103731" lat="62.6025083319" lon="10.7899361188">
		<tag k="fixme" v="consider natural=peak for the most distinct mountains in the district" />
		<tag k="name" v="Bortertangen" />
		<tag k="natural" v="hill" />
		<tag k="place" v="locality" />
		<tag k="ssr:stedsnr" v="557172" />
	</node>
	<node id="-102621" lat="62.5800333297" lon="11.0555722142">
		<tag k="name" v="Stenola" />
		<tag k="natural" v="slope" />
		<tag k="place" v="locality" />
		<tag k="ssr:stedsnr" v="360360" />
	</node>
	<node id="-103718" lat="62.1782385001" lon="11.6957889213">
		<tag k="alt_name" v="Kvernvikhøgda" />
		<tag k="fixme" v="consider natural=peak for the most distinct mountains in the district" />
		<tag k="name" v="Kvennvikhøgda" />
		<tag k="natural" v="hill" />
		<tag k="place" v="locality" />
		<tag k="ssr:stedsnr" v="556533" />
	</node>
	<node id="-103717" lat="62.2449638888" lon="11.6910305503">
		<tag k="name" v="Finnroa" />
		<tag k="place" v="locality" />
		<tag k="ssr:stedsnr" v="556491" />
	</node>
	<node id="-103714" lat="62.4834583335" lon="11.0868111105">
		<tag k="fixme" v="consider natural=peak for the most distinct mountains in the district" />
		<tag k="name" v="Våttåkletten" />
		<tag k="natural" v="hill" />
		<tag k="ssr:stedsnr" v="541058" />
	</node>
	<node id="-103713" lat="62.597777775" lon="11.154608341">
		<tag k="name" v="Ryan" />
		<tag k="place" v="locality" />
		<tag k="ssr:stedsnr" v="540947" />
	</node>
	<node id="-103712" lat="62.3854361135" lon="11.4845972206">
		<tag k="name" v="Storhålia" />
		<tag k="natural" v="slope" />
		<tag k="place" v="locality" />
		<tag k="ssr:stedsnr" v="540934" />
	</node>
	<node id="-103711" lat="62.1581249963" lon="11.7995972263">
		<tag k="name" v="Kluru" />
		<tag k="natural" v="valley" />
		<tag k="place" v="locality" />
		<tag k="ssr:stedsnr" v="540924" />
	</node>
	<node id="-103706" lat="62.4692138863" lon="11.4273777684">
		<tag k="name" v="Neverbutangen" />
		<tag k="natural" v="slope" />
		<tag k="place" v="locality" />
		<tag k="ssr:stedsnr" v="540731" />
	</node>
	<node id="-102617" lat="62.4366222185" lon="11.1430416639">
		<tag k="name" v="Geitryggrubba" />
		<tag k="natural" v="valley" />
		<tag k="place" v="locality" />
		<tag k="ssr:stedsnr" v="237536" />
	</node>
	<node id="-103699" lat="62.4478555581" lon="11.1314805581">
		<tag k="name" v="Dalen" />
		<tag k="natural" v="valley" />
		<tag k="place" v="locality" />
		<tag k="ssr:stedsnr" v="540679" />
	</node>
	<node id="-103695" lat="62.4592722191" lon="11.3049472146">
		<tag k="name" v="Skrangelrabban" />
		<tag k="natural" v="slope" />
		<tag k="place" v="locality" />
		<tag k="ssr:stedsnr" v="540514" />
	</node>
	<node id="-102541" lat="62.2656472251" lon="11.7204694434">
		<tag k="name" v="Langbakken" />
		<tag k="natural" v="slope" />
		<tag k="place" v="locality" />
		<tag k="ssr:stedsnr" v="356224" />
	</node>
	<node id="-103684" lat="62.4693111117" lon="11.2088638796">
		<tag k="name" v="Langgrubba" />
		<tag k="natural" v="slope" />
		<tag k="place" v="locality" />
		<tag k="ssr:stedsnr" v="540338" />
	</node>
	<node id="-103683" lat="62.4792750035" lon="11.1892472318">
		<tag k="name" v="Bløtstrypet" />
		<tag k="natural" v="valley" />
		<tag k="place" v="locality" />
		<tag k="ssr:stedsnr" v="540332" />
	</node>
	<node id="-103681" lat="62.4670166669" lon="11.0946250028">
		<tag k="name" v="Høgste" />
		<tag k="place" v="locality" />
		<tag k="ssr:stedsnr" v="540314" />
	</node>
	<node id="-103677" lat="62.3420583317" lon="11.6408888855">
		<tag k="name" v="Fjordingskletten" />
		<tag k="natural" v="hill" />
		<tag k="place" v="locality" />
		<tag k="ssr:stedsnr" v="540304" />
	</node>
	<node id="-103673" lat="62.3355194436" lon="11.5551000047">
		<tag k="name" v="Vingelsrøsta" />
		<tag k="natural" v="slope" />
		<tag k="place" v="locality" />
		<tag k="ssr:stedsnr" v="540248" />
	</node>
	<node id="-103671" lat="62.2957249962" lon="11.7478305543">
		<tag k="name" v="Sigridmoen" />
		<tag k="place" v="locality" />
		<tag k="ssr:stedsnr" v="540239" />
	</node>
	<node id="-103670" lat="62.5326027757" lon="11.0922222291">
		<tag k="fixme" v="consider natural=peak for the most distinct mountains in the district" />
		<tag k="name" v="Brattåsen" />
		<tag k="natural" v="hill" />
		<tag k="place" v="locality" />
		<tag k="ssr:stedsnr" v="540213" />
	</node>
	<node id="-103666" lat="62.3018166673" lon="11.6658583257">
		<tag k="name" v="Gørtjønnegga" />
		<tag k="natural" v="hill" />
		<tag k="place" v="locality" />
		<tag k="ssr:stedsnr" v="540168" />
	</node>
	<node id="-103661" lat="62.2978305586" lon="11.680633331">
		<tag k="name" v="Gammelsæterberget" />
		<tag k="natural" v="hill" />
		<tag k="place" v="locality" />
		<tag k="ssr:stedsnr" v="540151" />
	</node>
	<node id="-103658" lat="62.5520749962" lon="11.1270805491">
		<tag k="name" v="Rundhaugen" />
		<tag k="natural" v="hill" />
		<tag k="place" v="locality" />
		<tag k="ssr:stedsnr" v="540083" />
	</node>
	<node id="-103657" lat="62.2441888908" lon="11.7468694511">
		<tag k="name" v="Olderrøsta" />
		<tag k="natural" v="hill" />
		<tag k="place" v="locality" />
		<tag k="ssr:stedsnr" v="540082" />
	</node>
	<node id="-103654" lat="62.2473888867" lon="11.7936611202">
		<tag k="name" v="Holman" />
		<tag k="natural" v="hill" />
		<tag k="place" v="locality" />
		<tag k="ssr:stedsnr" v="540060" />
	</node>
	<node id="-103652" lat="62.2738111074" lon="11.7541722158">
		<tag k="name" v="Kronmoen" />
		<tag k="place" v="locality" />
		<tag k="ssr:stedsnr" v="540044" />
	</node>
	<node id="-103651" lat="62.2677277795" lon="11.7660388847">
		<tag k="name" v="Olderrøsta" />
		<tag k="natural" v="hill" />
		<tag k="place" v="locality" />
		<tag k="ssr:stedsnr" v="540017" />
	</node>
	<node id="-103644" lat="62.5291499963" lon="11.0560916753">
		<tag k="name" v="Brattegga" />
		<tag k="natural" v="hill" />
		<tag k="place" v="locality" />
		<tag k="ssr:stedsnr" v="539591" />
	</node>
	<node id="-103641" lat="62.5657666697" lon="10.9485749923">
		<tag k="name" v="Hammerdalen" />
		<tag k="natural" v="valley" />
		<tag k="place" v="locality" />
		<tag k="ssr:stedsnr" v="539362" />
	</node>
	<node id="-103630" lat="62.2200527804" lon="11.7524138814">
		<tag k="name" v="Granodden" />
		<tag k="natural" v="hill" />
		<tag k="place" v="locality" />
		<tag k="ssr:stedsnr" v="539103" />
	</node>
	<node id="-103626" lat="62.5608944409" lon="11.1742555588">
		<tag k="name" v="Brøttet" />
		<tag k="natural" v="slope" />
		<tag k="place" v="locality" />
		<tag k="ssr:stedsnr" v="539057" />
	</node>
	<node id="-103621" lat="62.341519447" lon="11.6315361042">
		<tag k="name" v="Skrekletten" />
		<tag k="natural" v="hill" />
		<tag k="place" v="locality" />
		<tag k="ssr:stedsnr" v="506463" />
	</node>
	<node id="-103602" lat="62.5260277803" lon="10.9058972141">
		<tag k="name" v="Kløvsteinen" />
		<tag k="natural" v="hill" />
		<tag k="place" v="locality" />
		<tag k="ssr:stedsnr" v="496860" />
	</node>
	<node id="-103586" lat="62.6369750024" lon="10.9195472243">
		<tag k="fixme" v="consider natural=peak for the most distinct mountains in the district" />
		<tag k="name" v="Falken" />
		<tag k="natural" v="hill" />
		<tag k="place" v="locality" />
		<tag k="ssr:stedsnr" v="496209" />
	</node>
	<node id="-103585" lat="62.6130999962" lon="10.9656611026">
		<tag k="name" v="Mastukåshøgda" />
		<tag k="natural" v="hill" />
		<tag k="place" v="locality" />
		<tag k="ssr:stedsnr" v="496188" />
	</node>
	<node id="-103577" lat="62.6031749969" lon="11.0695999954">
		<tag k="name" v="Sundregnan" />
		<tag k="natural" v="slope" />
		<tag k="place" v="locality" />
		<tag k="ssr:stedsnr" v="481457" />
	</node>
	<node id="-103573" lat="62.3514666706" lon="11.7347861194">
		<tag k="name" v="Flendalen" />
		<tag k="natural" v="valley" />
		<tag k="place" v="locality" />
		<tag k="ssr:stedsnr" v="445863" />
	</node>
	<node id="-103562" lat="62.2991138913" lon="11.811772232">
		<tag k="alt_name" v="Buhøgda, s" />
		<tag k="name" v="Søndre Buhøgda" />
		<tag k="natural" v="hill" />
		<tag k="place" v="locality" />
		<tag k="ssr:stedsnr" v="436577" />
	</node>
	<node id="-103560" lat="62.2901861131" lon="11.5569916719">
		<tag k="fixme" v="consider natural=peak for the most distinct mountains in the district" />
		<tag k="name" v="Nørfjellet" />
		<tag k="natural" v="hill" />
		<tag k="place" v="locality" />
		<tag k="ssr:stedsnr" v="436476" />
	</node>
	<node id="-103557" lat="62.3145138923" lon="11.6182361024">
		<tag k="name" v="Moberget" />
		<tag k="natural" v="hill" />
		<tag k="place" v="locality" />
		<tag k="ssr:stedsnr" v="436425" />
	</node>
	<node id="-103554" lat="62.3787444474" lon="11.3889611175">
		<tag k="name" v="Skjerhøgda" />
		<tag k="natural" v="hill" />
		<tag k="place" v="locality" />
		<tag k="ssr:stedsnr" v="436395" />
	</node>
	<node id="-103553" lat="62.4271944426" lon="11.4736583427">
		<tag k="fixme" v="consider natural=peak for the most distinct mountains in the district" />
		<tag k="name" v="Borrfjellet" />
		<tag k="natural" v="hill" />
		<tag k="place" v="locality" />
		<tag k="ssr:stedsnr" v="436379" />
	</node>
	<node id="-103549" lat="62.1811222216" lon="11.7323222141">
		<tag k="name" v="Heggholet" />
		<tag k="natural" v="valley" />
		<tag k="place" v="locality" />
		<tag k="ssr:stedsnr" v="436301" />
	</node>
	<node id="-103544" lat="62.6090305587" lon="11.0969666741">
		<tag k="fixme" v="consider natural=peak for the most distinct mountains in the district" />
		<tag k="name" v="Svartåsen" />
		<tag k="natural" v="hill" />
		<tag k="place" v="locality" />
		<tag k="ssr:stedsnr" v="436168" />
	</node>
	<node id="-103541" lat="62.5931000042" lon="11.0202444407">
		<tag k="name" v="Åslidalen" />
		<tag k="natural" v="valley" />
		<tag k="place" v="locality" />
		<tag k="ssr:stedsnr" v="436151" />
	</node>
	<node id="-103536" lat="62.4240861079" lon="11.133558329">
		<tag k="alt_name" v="Gravaråsen" />
		<tag k="fixme" v="consider natural=peak for the most distinct mountains in the district" />
		<tag k="name" v="Gravåsen" />
		<tag k="natural" v="hill" />
		<tag k="place" v="locality" />
		<tag k="ssr:stedsnr" v="436110" />
	</node>
	<node id="-103535" lat="62.4584666636" lon="11.1869527746">
		<tag k="name" v="Elvlia" />
		<tag k="natural" v="slope" />
		<tag k="place" v="locality" />
		<tag k="ssr:stedsnr" v="436047" />
	</node>
	<node id="-103530" lat="62.2598916698" lon="11.7587694444">
		<tag k="name" v="Tufsingdalen" />
		<tag k="natural" v="valley" />
		<tag k="place" v="locality" />
		<tag k="ssr:stedsnr" v="435366" />
	</node>
	<node id="-103524" lat="62.3605444454" lon="11.5244666616">
		<tag k="name" v="Bjønnhåmmårkåsa" />
		<tag k="natural" v="slope" />
		<tag k="place" v="locality" />
		<tag k="ssr:stedsnr" v="419942" />
	</node>
	<node id="-103520" lat="62.1848055537" lon="11.8019277792">
		<tag k="name" v="Granrøsta" />
		<tag k="natural" v="hill" />
		<tag k="place" v="locality" />
		<tag k="ssr:stedsnr" v="419893" />
	</node>
	<node id="-103514" lat="62.5189777818" lon="11.2305083242">
		<tag k="name" v="Stormyrhaugen" />
		<tag k="natural" v="hill" />
		<tag k="place" v="locality" />
		<tag k="ssr:stedsnr" v="419746" />
	</node>
	<node id="-103513" lat="62.5067444421" lon="11.2438277852">
		<tag k="name" v="Lermæleggan" />
		<tag k="natural" v="hill" />
		<tag k="place" v="locality" />
		<tag k="ssr:stedsnr" v="419740" />
	</node>
	<node id="-103512" lat="62.4573888911" lon="11.1733472206">
		<tag k="name" v="Røsa" />
		<tag k="natural" v="slope" />
		<tag k="place" v="locality" />
		<tag k="ssr:stedsnr" v="419739" />
	</node>
	<node id="-103511" lat="62.5055222181" lon="11.0494222253">
		<tag k="name" v="Langsåbakkan" />
		<tag k="natural" v="hill" />
		<tag k="place" v="locality" />
		<tag k="ssr:stedsnr" v="419712" />
	</node>
	<node id="-103509" lat="62.4489749961" lon="11.1320777859">
		<tag k="name" v="Firkanthaugen" />
		<tag k="natural" v="hill" />
		<tag k="place" v="locality" />
		<tag k="ssr:stedsnr" v="419705" />
	</node>
	<node id="-103503" lat="62.4994611077" lon="11.3459944382">
		<tag k="name" v="Storhøgda" />
		<tag k="natural" v="hill" />
		<tag k="place" v="locality" />
		<tag k="ssr:stedsnr" v="419501" />
	</node>
	<node id="-103501" lat="62.5809361097" lon="11.0260472307">
		<tag k="name" v="Olbekkroa" />
		<tag k="natural" v="valley" />
		<tag k="place" v="locality" />
		<tag k="ssr:stedsnr" v="419450" />
	</node>
	<node id="-103493" lat="62.3231638921" lon="11.5534472287">
		<tag k="name" v="Stygglandet" />
		<tag k="natural" v="hill" />
		<tag k="place" v="locality" />
		<tag k="ssr:stedsnr" v="419288" />
	</node>
	<node id="-103491" lat="62.3350694448" lon="11.5761611168">
		<tag k="name" v="Bergesletta" />
		<tag k="place" v="locality" />
		<tag k="ssr:stedsnr" v="419276" />
	</node>
	<node id="-103489" lat="62.292566669" lon="11.7442555602">
		<tag k="name" v="Stormoegga" />
		<tag k="natural" v="hill" />
		<tag k="place" v="locality" />
		<tag k="ssr:stedsnr" v="419246" />
	</node>
	<node id="-103486" lat="62.5045055558" lon="11.103594442">
		<tag k="name" v="Saghaugen" />
		<tag k="natural" v="hill" />
		<tag k="place" v="locality" />
		<tag k="ssr:stedsnr" v="419197" />
	</node>
	<node id="-103484" lat="62.5260472241" lon="11.1006083241">
		<tag k="name" v="Storsandgrubba" />
		<tag k="natural" v="valley" />
		<tag k="place" v="locality" />
		<tag k="ssr:stedsnr" v="419188" />
	</node>
	<node id="-103482" lat="62.5144611084" lon="11.1931583347">
		<tag k="name" v="Djupgrubba" />
		<tag k="natural" v="valley" />
		<tag k="place" v="locality" />
		<tag k="ssr:stedsnr" v="419173" />
	</node>
	<node id="-103480" lat="62.5104388854" lon="11.1726166738">
		<tag k="name" v="Snurruegga" />
		<tag k="natural" v="hill" />
		<tag k="place" v="locality" />
		<tag k="ssr:stedsnr" v="419170" />
	</node>
	<node id="-103478" lat="62.2169194417" lon="11.8148027743">
		<tag k="name" v="Ytre Øya" />
		<tag k="place" v="locality" />
		<tag k="ssr:stedsnr" v="419139" />
	</node>
	<node id="-103476" lat="62.2069722204" lon="11.764247219">
		<tag k="name" v="Svartbekkåsen" />
		<tag k="natural" v="hill" />
		<tag k="place" v="locality" />
		<tag k="ssr:stedsnr" v="419134" />
	</node>
	<node id="-103470" lat="62.4996861096" lon="10.9885861044">
		<tag k="fixme" v="consider natural=peak for the most distinct mountains in the district" />
		<tag k="name" v="Litjvollåsen" />
		<tag k="natural" v="hill" />
		<tag k="place" v="locality" />
		<tag k="ssr:stedsnr" v="419071" />
	</node>
	<node id="-102578" lat="62.3391055543" lon="11.6357027812">
		<tag k="name" v="Håmmåren" />
		<tag k="natural" v="hill" />
		<tag k="place" v="locality" />
		<tag k="ssr:stedsnr" v="358293" />
	</node>
	<node id="-103462" lat="62.5313777773" lon="11.0434527721">
		<tag k="name" v="Kvennhusegga" />
		<tag k="natural" v="hill" />
		<tag k="place" v="locality" />
		<tag k="ssr:stedsnr" v="418578" />
	</node>
	<node id="-103461" lat="62.5521583338" lon="11.0183499949">
		<tag k="name" v="Bomskyttarhaugen" />
		<tag k="natural" v="hill" />
		<tag k="place" v="locality" />
		<tag k="ssr:stedsnr" v="418523" />
	</node>
	<node id="-103458" lat="62.4322388916" lon="11.1677027843">
		<tag k="name" v="Grandalen" />
		<tag k="natural" v="valley" />
		<tag k="place" v="locality" />
		<tag k="ssr:stedsnr" v="418495" />
	</node>
	<node id="-103451" lat="62.5462388917" lon="10.9397388881">
		<tag k="name" v="Kneken" />
		<tag k="place" v="locality" />
		<tag k="ssr:stedsnr" v="418412" />
	</node>
	<node id="-103447" lat="62.3121638853" lon="11.7612333327">
		<tag k="name" v="Potetgrubba" />
		<tag k="place" v="locality" />
		<tag k="ssr:stedsnr" v="418193" />
	</node>
	<node id="-103441" lat="62.2275416663" lon="11.7614000019">
		<tag k="name" v="Litjåkrokåsen" />
		<tag k="natural" v="hill" />
		<tag k="place" v="locality" />
		<tag k="ssr:stedsnr" v="417123" />
	</node>
	<node id="-103431" lat="62.1787944465" lon="11.7901555636">
		<tag k="name" v="Storflosundet" />
		<tag k="natural" v="valley" />
		<tag k="place" v="locality" />
		<tag k="ssr:stedsnr" v="479903" />
	</node>
	<node id="-103427" lat="62.3916249969" lon="11.4535500071">
		<tag k="name" v="Musholberget" />
		<tag k="natural" v="hill" />
		<tag k="place" v="locality" />
		<tag k="ssr:stedsnr" v="479820" />
	</node>
	<node id="-103422" lat="62.5189499956" lon="11.252486109">
		<tag k="name" v="Leimyråsen" />
		<tag k="natural" v="hill" />
		<tag k="place" v="locality" />
		<tag k="ssr:stedsnr" v="479745" />
	</node>
	<node id="-103420" lat="62.4838055581" lon="11.0361722184">
		<tag k="name" v="Rundhaugen" />
		<tag k="natural" v="hill" />
		<tag k="place" v="locality" />
		<tag k="ssr:stedsnr" v="479742" />
	</node>
	<node id="-103419" lat="62.5085555531" lon="11.2393166741">
		<tag k="name" v="Eidemyreggan" />
		<tag k="natural" v="hill" />
		<tag k="place" v="locality" />
		<tag k="ssr:stedsnr" v="479737" />
	</node>
	<node id="-103405" lat="62.4784277746" lon="11.2652805505">
		<tag k="name" v="Verjådalen" />
		<tag k="natural" v="valley" />
		<tag k="place" v="locality" />
		<tag k="ssr:stedsnr" v="479607" />
	</node>
	<node id="-103403" lat="62.489727776" lon="11.2382138927">
		<tag k="name" v="Litjmyreggan" />
		<tag k="natural" v="hill" />
		<tag k="place" v="locality" />
		<tag k="ssr:stedsnr" v="479573" />
	</node>
	<node id="-103401" lat="62.2481472237" lon="11.8023277831">
		<tag k="fixme" v="consider natural=peak for the most distinct mountains in the district" />
		<tag k="name" v="Brentåsen" />
		<tag k="natural" v="hill" />
		<tag k="place" v="locality" />
		<tag k="ssr:stedsnr" v="263466" />
	</node>
	<node id="-102436" lat="62.5977083294" lon="10.9480583364">
		<tag k="name" v="Finnholet" />
		<tag k="natural" v="valley" />
		<tag k="place" v="locality" />
		<tag k="ssr:stedsnr" v="297312" />
	</node>
	<node id="-103397" lat="62.4779722226" lon="11.3042472158">
		<tag k="name" v="Svarthølmoen" />
		<tag k="place" v="locality" />
		<tag k="ssr:stedsnr" v="479503" />
	</node>
	<node id="-103395" lat="62.4571777813" lon="11.1778000088">
		<tag k="name" v="Skredalan" />
		<tag k="natural" v="valley" />
		<tag k="place" v="locality" />
		<tag k="ssr:stedsnr" v="479462" />
	</node>
	<node id="-103390" lat="62.5322583376" lon="10.9003833338">
		<tag k="name" v="Gråbeinrya" />
		<tag k="natural" v="hill" />
		<tag k="place" v="locality" />
		<tag k="ssr:stedsnr" v="254840" />
	</node>
	<node id="-103389" lat="62.5420555561" lon="11.1709111076">
		<tag k="name" v="Langhaugen" />
		<tag k="natural" v="hill" />
		<tag k="place" v="locality" />
		<tag k="ssr:stedsnr" v="254837" />
	</node>
	<node id="-103380" lat="62.5441083356" lon="11.2251833324">
		<tag k="fixme" v="consider natural=peak for the most distinct mountains in the district" />
		<tag k="name" v="Risåsan" />
		<tag k="natural" v="hill" />
		<tag k="place" v="locality" />
		<tag k="ssr:stedsnr" v="254574" />
	</node>
	<node id="-103375" lat="62.3683305559" lon="11.4112388833">
		<tag k="name" v="Veslegråhøgda" />
		<tag k="natural" v="hill" />
		<tag k="place" v="locality" />
		<tag k="ssr:stedsnr" v="254383" />
	</node>
	<node id="-103371" lat="62.4168999978" lon="11.4659666761">
		<tag k="alt_name" v="Ytre Åshøgda" />
		<tag k="name" v="Åshøgda" />
		<tag k="natural" v="hill" />
		<tag k="place" v="locality" />
		<tag k="ssr:stedsnr" v="254342" />
	</node>
	<node id="-103363" lat="62.6280944413" lon="11.0452972155">
		<tag k="name" v="Svartådalshøgda" />
		<tag k="natural" v="hill" />
		<tag k="place" v="locality" />
		<tag k="ssr:stedsnr" v="254169" />
	</node>
	<node id="-103357" lat="62.5627916694" lon="11.160011105">
		<tag k="alt_name" v="Sætersjøvorda" />
		<tag k="fixme" v="consider natural=peak for the most distinct mountains in the district" />
		<tag k="name" v="Sætersjøvola" />
		<tag k="natural" v="hill" />
		<tag k="place" v="locality" />
		<tag k="ssr:stedsnr" v="254117" />
	</node>
	<node id="-103351" lat="62.2877388899" lon="11.7102611131">
		<tag k="fixme" v="consider natural=peak for the most distinct mountains in the district" />
		<tag k="name" v="Høgåsen" />
		<tag k="natural" v="hill" />
		<tag k="place" v="locality" />
		<tag k="ssr:stedsnr" v="254438" />
	</node>
	<node id="-103335" lat="62.355763888" lon="11.4562083365">
		<tag k="name" v="Litjrya" />
		<tag k="place" v="locality" />
		<tag k="ssr:stedsnr" v="237817" />
	</node>
	<node id="-103334" lat="62.3603249977" lon="11.455297228">
		<tag k="name" v="Hansmoen" />
		<tag k="place" v="locality" />
		<tag k="ssr:stedsnr" v="237818" />
	</node>
	<node id="-103330" lat="62.4188833309" lon="11.4736638844">
		<tag k="name" v="Øvre Åshøgda" />
		<tag k="natural" v="hill" />
		<tag k="place" v="locality" />
		<tag k="ssr:stedsnr" v="237766" />
	</node>
	<node id="-102555" lat="62.5373000029" lon="11.0805638845">
		<tag k="name" v="Langenghaugen" />
		<tag k="natural" v="hill" />
		<tag k="place" v="locality" />
		<tag k="ssr:stedsnr" v="357581" />
	</node>
	<node id="-103328" lat="62.5137138885" lon="11.0341388842">
		<tag k="name" v="Gjethåmmåren" />
		<tag k="natural" v="hill" />
		<tag k="place" v="locality" />
		<tag k="ssr:stedsnr" v="237722" />
	</node>
	<node id="-103326" lat="62.494900004" lon="11.0786194482">
		<tag k="name" v="Gammelvollåsen" />
		<tag k="natural" v="hill" />
		<tag k="place" v="locality" />
		<tag k="ssr:stedsnr" v="237714" />
	</node>
	<node id="-103324" lat="62.5337527823" lon="11.22137777">
		<tag k="name" v="Ingulfsletta" />
		<tag k="place" v="locality" />
		<tag k="ssr:stedsnr" v="237497" />
	</node>
	<node id="-103318" lat="62.4614916674" lon="11.1812777806">
		<tag k="name" v="Skrea" />
		<tag k="natural" v="valley" />
		<tag k="place" v="locality" />
		<tag k="ssr:stedsnr" v="237341" />
	</node>
	<node id="-103317" lat="62.4796750002" lon="11.1904944409">
		<tag k="name" v="Østeregga" />
		<tag k="natural" v="hill" />
		<tag k="place" v="locality" />
		<tag k="ssr:stedsnr" v="237342" />
	</node>
	<node id="-103314" lat="62.3443972264" lon="11.5970444523">
		<tag k="name" v="Storrøstbakken" />
		<tag k="natural" v="slope" />
		<tag k="place" v="locality" />
		<tag k="ssr:stedsnr" v="237310" />
	</node>
	<node id="-103308" lat="62.3411388865" lon="11.54234445">
		<tag k="name" v="Hakketuvan" />
		<tag k="natural" v="hill" />
		<tag k="place" v="locality" />
		<tag k="ssr:stedsnr" v="237249" />
	</node>
	<node id="-103303" lat="62.2889888893" lon="11.7090833404">
		<tag k="name" v="Midtgapet" />
		<tag k="natural" v="valley" />
		<tag k="place" v="locality" />
		<tag k="ssr:stedsnr" v="237234" />
	</node>
	<node id="-103302" lat="62.2896027785" lon="11.742072215">
		<tag k="name" v="Stormoen" />
		<tag k="place" v="locality" />
		<tag k="ssr:stedsnr" v="237232" />
	</node>
	<node id="-103298" lat="62.5124361146" lon="11.1948527828">
		<tag k="name" v="Rundegga" />
		<tag k="natural" v="hill" />
		<tag k="place" v="locality" />
		<tag k="ssr:stedsnr" v="237172" />
	</node>
	<node id="-103296" lat="62.2252527752" lon="11.8188333357">
		<tag k="name" v="Tuvjota" />
		<tag k="natural" v="hill" />
		<tag k="place" v="locality" />
		<tag k="ssr:stedsnr" v="237095" />
	</node>
	<node id="-103295" lat="62.2193833318" lon="11.8120638825">
		<tag k="name" v="Øvre Øya" />
		<tag k="place" v="locality" />
		<tag k="ssr:stedsnr" v="237079" />
	</node>
	<node id="-103294" lat="62.2568916651" lon="11.7547888922">
		<tag k="name" v="Litjøybakken" />
		<tag k="place" v="locality" />
		<tag k="ssr:stedsnr" v="237059" />
	</node>
	<node id="-103290" lat="62.2767611081" lon="11.7605138952">
		<tag k="name" v="Saghaugan" />
		<tag k="natural" v="hill" />
		<tag k="place" v="locality" />
		<tag k="ssr:stedsnr" v="237031" />
	</node>
	<node id="-103284" lat="62.3182472206" lon="11.7046027759">
		<tag k="name" v="Litjkletten" />
		<tag k="natural" v="hill" />
		<tag k="place" v="locality" />
		<tag k="ssr:stedsnr" v="237145" />
	</node>
	<node id="-103281" lat="62.1974833332" lon="11.8090666589">
		<tag k="name" v="Sandkollen" />
		<tag k="natural" v="hill" />
		<tag k="place" v="locality" />
		<tag k="ssr:stedsnr" v="237116" />
	</node>
	<node id="-103280" lat="62.19721111" lon="11.7849666605">
		<tag k="name" v="Vassrøsta" />
		<tag k="natural" v="hill" />
		<tag k="place" v="locality" />
		<tag k="ssr:stedsnr" v="237114" />
	</node>
	<node id="-103279" lat="62.2004944469" lon="11.7910388984">
		<tag k="name" v="Djupdalen" />
		<tag k="natural" v="valley" />
		<tag k="place" v="locality" />
		<tag k="ssr:stedsnr" v="237112" />
	</node>
	<node id="-103277" lat="62.5560833342" lon="11.0043527811">
		<tag k="fixme" v="consider natural=peak for the most distinct mountains in the district" />
		<tag k="name" v="Koieåsen" />
		<tag k="natural" v="hill" />
		<tag k="place" v="locality" />
		<tag k="ssr:stedsnr" v="236516" />
	</node>
	<node id="-103273" lat="62.4334527799" lon="11.159008331">
		<tag k="name" v="Saltingssletta" />
		<tag k="place" v="locality" />
		<tag k="ssr:stedsnr" v="236489" />
	</node>
	<node id="-103269" lat="62.5615250022" lon="10.9404944436">
		<tag k="name" v="Rundhaugen" />
		<tag k="natural" v="hill" />
		<tag k="place" v="locality" />
		<tag k="ssr:stedsnr" v="236368" />
	</node>
	<node id="-103266" lat="62.4937749996" lon="11.1649333343">
		<tag k="name" v="Åsberget" />
		<tag k="natural" v="hill" />
		<tag k="place" v="locality" />
		<tag k="ssr:stedsnr" v="236170" />
	</node>
	<node id="-103265" lat="62.4919750037" lon="11.1604666586">
		<tag k="fixme" v="consider natural=peak for the most distinct mountains in the district" />
		<tag k="name" v="Fabroåsen" />
		<tag k="natural" v="hill" />
		<tag k="place" v="locality" />
		<tag k="ssr:stedsnr" v="236168" />
	</node>
	<node id="-103264" lat="62.5393611122" lon="11.0244000013">
		<tag k="name" v="Brennvollåsen" />
		<tag k="natural" v="hill" />
		<tag k="place" v="locality" />
		<tag k="ssr:stedsnr" v="236619" />
	</node>
	<node id="-103259" lat="62.5483111134" lon="11.2051777721">
		<tag k="name" v="Sjølia" />
		<tag k="natural" v="slope" />
		<tag k="place" v="locality" />
		<tag k="ssr:stedsnr" v="236065" />
	</node>
	<node id="-103258" lat="62.4798944423" lon="11.0225777807">
		<tag k="name" v="Storklopphaugen" />
		<tag k="natural" v="hill" />
		<tag k="place" v="locality" />
		<tag k="ssr:stedsnr" v="236058" />
	</node>
	<node id="-103255" lat="62.3391444409" lon="11.5801777785">
		<tag k="name" v="Gubbrøsta" />
		<tag k="natural" v="slope" />
		<tag k="place" v="locality" />
		<tag k="ssr:stedsnr" v="235273" />
	</node>
	<node id="-103249" lat="62.3313805528" lon="11.4833416731">
		<tag k="name" v="Brattbakken" />
		<tag k="natural" v="slope" />
		<tag k="place" v="locality" />
		<tag k="ssr:stedsnr" v="235517" />
	</node>
	<node id="-103245" lat="62.5527388858" lon="10.9453194409">
		<tag k="fixme" v="consider natural=peak for the most distinct mountains in the district" />
		<tag k="name" v="Rabban" />
		<tag k="natural" v="hill" />
		<tag k="place" v="locality" />
		<tag k="ssr:stedsnr" v="194819" />
	</node>
	<node id="-103237" lat="62.6795805517" lon="10.9833749956">
		<tag k="fixme" v="consider natural=peak for the most distinct mountains in the district" />
		<tag k="name" v="Dalbusjøhøgda" />
		<tag k="natural" v="hill" />
		<tag k="place" v="locality" />
		<tag k="ssr:stedsnr" v="194207" />
	</node>
	<node id="-103235" lat="62.6435944446" lon="11.0154083266">
		<tag k="fixme" v="consider natural=peak for the most distinct mountains in the district" />
		<tag k="name" v="Åslifjellet" />
		<tag k="natural" v="hill" />
		<tag k="place" v="locality" />
		<tag k="ssr:stedsnr" v="194192" />
	</node>
	<node id="-103233" lat="62.6390444481" lon="11.1474694391">
		<tag k="name" v="Tjurudalsmåna" />
		<tag k="natural" v="hill" />
		<tag k="place" v="locality" />
		<tag k="ssr:stedsnr" v="194189" />
	</node>
	<node id="-103223" lat="62.5467777755" lon="11.0311055474">
		<tag k="fixme" v="consider natural=peak for the most distinct mountains in the district" />
		<tag k="name" v="Vangsåsan" />
		<tag k="natural" v="hill" />
		<tag k="place" v="locality" />
		<tag k="ssr:stedsnr" v="193847" />
	</node>
	<node id="-103215" lat="62.2020944467" lon="11.7139638949">
		<tag k="name" v="Tverrhøgda" />
		<tag k="natural" v="hill" />
		<tag k="place" v="locality" />
		<tag k="ssr:stedsnr" v="193497" />
	</node>
	<node id="-103213" lat="62.3524694409" lon="11.6364138944">
		<tag k="name" v="Litleberget" />
		<tag k="natural" v="hill" />
		<tag k="place" v="locality" />
		<tag k="ssr:stedsnr" v="193468" />
	</node>
	<node id="-103211" lat="62.3349138914" lon="11.6902138861">
		<tag k="fixme" v="multiple name tags, choose one and add the other to alt_name" />
		<tag k="name" v="Brente;Storkletten" />
		<tag k="natural" v="hill" />
		<tag k="place" v="locality" />
		<tag k="ssr:stedsnr" v="193456" />
	</node>
	<node id="-103199" lat="62.5818805515" lon="10.8686027743">
		<tag k="name" v="Hemattenga" />
		<tag k="place" v="locality" />
		<tag k="ssr:stedsnr" v="193140" />
	</node>
	<node id="-103192" lat="62.6051333354" lon="10.9446111149">
		<tag k="fixme" v="consider natural=peak for the most distinct mountains in the district" />
		<tag k="name" v="Nygårdsåsen" />
		<tag k="natural" v="hill" />
		<tag k="place" v="locality" />
		<tag k="ssr:stedsnr" v="178301" />
	</node>
	<node id="-103191" lat="62.607236113" lon="11.1606472209">
		<tag k="name" v="Sandtjønnrabben" />
		<tag k="natural" v="hill" />
		<tag k="place" v="locality" />
		<tag k="ssr:stedsnr" v="176940" />
	</node>
	<node id="-103188" lat="62.3584472259" lon="11.3955361102">
		<tag k="name" v="Veslehøgda" />
		<tag k="natural" v="hill" />
		<tag k="place" v="locality" />
		<tag k="ssr:stedsnr" v="176841" />
	</node>
	<node id="-103185" lat="62.4451916676" lon="11.427508332">
		<tag k="name" v="Hunden" />
		<tag k="place" v="locality" />
		<tag k="ssr:stedsnr" v="176747" />
	</node>
	<node id="-103178" lat="62.4430472202" lon="11.3723583239">
		<tag k="name" v="Fåsetbotnen" />
		<tag k="place" v="locality" />
		<tag k="ssr:stedsnr" v="176727" />
	</node>
	<node id="-103174" lat="62.5203555518" lon="11.0671194503">
		<tag k="name" v="Brennegga" />
		<tag k="natural" v="hill" />
		<tag k="place" v="locality" />
		<tag k="ssr:stedsnr" v="176706" />
	</node>
	<node id="-103172" lat="62.4928388867" lon="11.2460472308">
		<tag k="name" v="Storegga" />
		<tag k="natural" v="hill" />
		<tag k="place" v="locality" />
		<tag k="ssr:stedsnr" v="176530" />
	</node>
	<node id="-103169" lat="62.4913611127" lon="11.2254777733">
		<tag k="name" v="Kristoferegga" />
		<tag k="natural" v="hill" />
		<tag k="place" v="locality" />
		<tag k="ssr:stedsnr" v="176524" />
	</node>
	<node id="-103166" lat="62.6096833374" lon="11.0174416642">
		<tag k="fixme" v="consider natural=peak for the most distinct mountains in the district" />
		<tag k="name" v="Åslifjellet" />
		<tag k="natural" v="hill" />
		<tag k="place" v="locality" />
		<tag k="ssr:stedsnr" v="176417" />
	</node>
	<node id="-103165" lat="62.6072138906" lon="10.9863388887">
		<tag k="name" v="Sarakvølvet" />
		<tag k="natural" v="valley" />
		<tag k="place" v="locality" />
		<tag k="ssr:stedsnr" v="176414" />
	</node>
	<node id="-103164" lat="62.5729472181" lon="11.0391361162">
		<tag k="name" v="Nordre Skardet" />
		<tag k="natural" v="valley" />
		<tag k="place" v="locality" />
		<tag k="ssr:stedsnr" v="176346" />
	</node>
	<node id="-103158" lat="62.4747777799" lon="11.1794833397">
		<tag k="name" v="Fjordingsegga" />
		<tag k="natural" v="hill" />
		<tag k="place" v="locality" />
		<tag k="ssr:stedsnr" v="176320" />
	</node>
	<node id="-103156" lat="62.4736944426" lon="11.1589361168">
		<tag k="name" v="Storgrubba" />
		<tag k="natural" v="valley" />
		<tag k="place" v="locality" />
		<tag k="ssr:stedsnr" v="176312" />
	</node>
	<node id="-103150" lat="62.5068583367" lon="11.1441666724">
		<tag k="name" v="Storbakken" />
		<tag k="natural" v="hill" />
		<tag k="place" v="locality" />
		<tag k="ssr:stedsnr" v="176206" />
	</node>
	<node id="-103148" lat="62.5093361145" lon="11.1250833428">
		<tag k="name" v="Henningsegga" />
		<tag k="natural" v="hill" />
		<tag k="place" v="locality" />
		<tag k="ssr:stedsnr" v="176197" />
	</node>
	<node id="-103145" lat="62.4869333377" lon="11.0984055474">
		<tag k="name" v="Haugskletten" />
		<tag k="natural" v="hill" />
		<tag k="place" v="locality" />
		<tag k="ssr:stedsnr" v="176162" />
	</node>
	<node id="-103142" lat="62.2203194439" lon="11.8228472266">
		<tag k="name" v="Summundsrøsta" />
		<tag k="natural" v="hill" />
		<tag k="place" v="locality" />
		<tag k="ssr:stedsnr" v="176095" />
	</node>
	<node id="-103140" lat="62.2517249975" lon="11.7518777843">
		<tag k="name" v="Nyklopprøsta" />
		<tag k="natural" v="hill" />
		<tag k="place" v="locality" />
		<tag k="ssr:stedsnr" v="176074" />
	</node>
	<node id="-103136" lat="62.2685111067" lon="11.8042888979">
		<tag k="fixme" v="consider natural=peak for the most distinct mountains in the district" />
		<tag k="name" v="Vollåsen" />
		<tag k="natural" v="hill" />
		<tag k="place" v="locality" />
		<tag k="ssr:stedsnr" v="176020" />
	</node>
	<node id="-103127" lat="62.5293805528" lon="10.976266667">
		<tag k="name" v="Regnan" />
		<tag k="natural" v="slope" />
		<tag k="place" v="locality" />
		<tag k="ssr:stedsnr" v="175660" />
	</node>
	<node id="-103121" lat="62.42021389" lon="11.1600916697">
		<tag k="name" v="Litjløsletta" />
		<tag k="place" v="locality" />
		<tag k="ssr:stedsnr" v="175508" />
	</node>
	<node id="-103119" lat="62.3442527793" lon="11.4840527762">
		<tag k="name" v="Abbormoen" />
		<tag k="place" v="locality" />
		<tag k="ssr:stedsnr" v="175486" />
	</node>
	<node id="-103117" lat="62.5606694441" lon="10.9598138841">
		<tag k="fixme" v="consider natural=peak for the most distinct mountains in the district" />
		<tag k="name" v="Gruvåsen" />
		<tag k="natural" v="hill" />
		<tag k="place" v="locality" />
		<tag k="ssr:stedsnr" v="175433" />
	</node>
	<node id="-103113" lat="62.5626250044" lon="10.9545388849">
		<tag k="name" v="Halterikrabben" />
		<tag k="natural" v="hill" />
		<tag k="place" v="locality" />
		<tag k="ssr:stedsnr" v="175389" />
	</node>
	<node id="-103107" lat="62.2828833302" lon="11.7060111155">
		<tag k="fixme" v="consider natural=peak for the most distinct mountains in the district" />
		<tag k="name" v="Litjåsen" />
		<tag k="natural" v="hill" />
		<tag k="place" v="locality" />
		<tag k="ssr:stedsnr" v="175208" />
	</node>
	<node id="-103098" lat="62.2431055523" lon="11.7974527751">
		<tag k="name" v="Langrøsta" />
		<tag k="natural" v="hill" />
		<tag k="place" v="locality" />
		<tag k="ssr:stedsnr" v="149038" />
	</node>
	<node id="-103091" lat="62.5561388852" lon="10.971941658">
		<tag k="alt_name" v="Solskinsrabben" />
		<tag k="name" v="Solskinnsrabben" />
		<tag k="natural" v="hill" />
		<tag k="place" v="locality" />
		<tag k="ssr:stedsnr" v="133818" />
	</node>
	<node id="-103089" lat="62.5640000026" lon="10.8595999951">
		<tag k="fixme" v="consider natural=peak for the most distinct mountains in the district" />
		<tag k="name" v="Dalfjellet" />
		<tag k="natural" v="hill" />
		<tag k="place" v="locality" />
		<tag k="ssr:stedsnr" v="133802" />
	</node>
	<node id="-103087" lat="62.2829333341" lon="11.66893056">
		<tag k="name" v="Storbekkdalen" />
		<tag k="natural" v="valley" />
		<tag k="place" v="locality" />
		<tag k="ssr:stedsnr" v="133418" />
	</node>
	<node id="-103086" lat="62.3846694454" lon="11.4925888931">
		<tag k="name" v="Rundhaugen" />
		<tag k="natural" v="hill" />
		<tag k="place" v="locality" />
		<tag k="ssr:stedsnr" v="133389" />
	</node>
	<node id="-103085" lat="62.3676444477" lon="11.5307222266">
		<tag k="fixme" v="consider natural=peak for the most distinct mountains in the district" />
		<tag k="name" v="Harrbekkfjellet" />
		<tag k="natural" v="hill" />
		<tag k="place" v="locality" />
		<tag k="ssr:stedsnr" v="133386" />
	</node>
	<node id="-103079" lat="62.6474999979" lon="11.0671916727">
		<tag k="name" v="Litløyhøgda" />
		<tag k="natural" v="hill" />
		<tag k="place" v="locality" />
		<tag k="ssr:stedsnr" v="133190" />
	</node>
	<node id="-103074" lat="62.5357583361" lon="11.1405749968">
		<tag k="fixme" v="consider natural=peak for the most distinct mountains in the district" />
		<tag k="name" v="Jakopåsen" />
		<tag k="natural" v="hill" />
		<tag k="place" v="locality" />
		<tag k="ssr:stedsnr" v="132842" />
	</node>
	<node id="-103067" lat="62.5592333344" lon="11.2261361154">
		<tag k="name" v="Galåkletten" />
		<tag k="natural" v="hill" />
		<tag k="place" v="locality" />
		<tag k="ssr:stedsnr" v="132575" />
	</node>
	<node id="-102511" lat="62.5926388924" lon="11.0442111133">
		<tag k="alt_name" v="Oltangen" />
		<tag k="fixme" v="consider natural=peak for the most distinct mountains in the district" />
		<tag k="name" v="Urdtangen" />
		<tag k="natural" v="hill" />
		<tag k="place" v="locality" />
		<tag k="ssr:stedsnr" v="315153" />
	</node>
	<node id="-103057" lat="62.2326055561" lon="11.7543999934">
		<tag k="name" v="Småmyrhøgda" />
		<tag k="natural" v="hill" />
		<tag k="place" v="locality" />
		<tag k="ssr:stedsnr" v="132295" />
	</node>
	<node id="-103050" lat="62.5846944427" lon="11.1233305628">
		<tag k="fixme" v="consider natural=peak for the most distinct mountains in the district" />
		<tag k="name" v="Storrya" />
		<tag k="natural" v="hill" />
		<tag k="place" v="locality" />
		<tag k="ssr:stedsnr" v="132154" />
	</node>
	<node id="-103040" lat="62.6018944402" lon="11.060686102">
		<tag k="name" v="Bangengrabben" />
		<tag k="natural" v="hill" />
		<tag k="place" v="locality" />
		<tag k="ssr:stedsnr" v="117452" />
	</node>
	<node id="-103030" lat="62.4250583365" lon="11.4036722305">
		<tag k="name" v="Kølbotnegga" />
		<tag k="natural" v="hill" />
		<tag k="place" v="locality" />
		<tag k="ssr:stedsnr" v="115791" />
	</node>
	<node id="-103024" lat="62.447283332" lon="11.437883331">
		<tag k="name" v="Tørleken" />
		<tag k="place" v="locality" />
		<tag k="ssr:stedsnr" v="115684" />
	</node>
	<node id="-103021" lat="62.5069750027" lon="11.029797219">
		<tag k="name" v="Bamsegga" />
		<tag k="natural" v="hill" />
		<tag k="place" v="locality" />
		<tag k="ssr:stedsnr" v="115659" />
	</node>
	<node id="-103017" lat="62.4815666703" lon="11.2195944494">
		<tag k="name" v="Elvelia" />
		<tag k="natural" v="slope" />
		<tag k="place" v="locality" />
		<tag k="ssr:stedsnr" v="115582" />
	</node>
	<node id="-103015" lat="62.5378749971" lon="10.9828277738">
		<tag k="name" v="Statubakken" />
		<tag k="natural" v="slope" />
		<tag k="place" v="locality" />
		<tag k="ssr:stedsnr" v="115567" />
	</node>
	<node id="-103011" lat="62.4283833326" lon="11.1671416628">
		<tag k="name" v="Berget" />
		<tag k="natural" v="hill" />
		<tag k="place" v="locality" />
		<tag k="ssr:stedsnr" v="115504" />
	</node>
	<node id="-103007" lat="62.5899916623" lon="11.00270833">
		<tag k="name" v="Gjetryggen" />
		<tag k="natural" v="hill" />
		<tag k="place" v="locality" />
		<tag k="ssr:stedsnr" v="115449" />
	</node>
	<node id="-103006" lat="62.6023111097" lon="11.0030000089">
		<tag k="fixme" v="consider natural=peak for the most distinct mountains in the district" />
		<tag k="name" v="Åslitangen" />
		<tag k="natural" v="hill" />
		<tag k="place" v="locality" />
		<tag k="ssr:stedsnr" v="115448" />
	</node>
	<node id="-103004" lat="62.5611000038" lon="10.9255583357">
		<tag k="name" v="Skarvdalen" />
		<tag k="natural" v="valley" />
		<tag k="place" v="locality" />
		<tag k="ssr:stedsnr" v="115421" />
	</node>
	<node id="-103002" lat="62.3262583368" lon="11.6817527751">
		<tag k="name" v="Laumyrroa" />
		<tag k="natural" v="valley" />
		<tag k="place" v="locality" />
		<tag k="ssr:stedsnr" v="115364" />
	</node>
	<node id="-102500" lat="62.3486611135" lon="11.5462999935">
		<tag k="name" v="Borren" />
		<tag k="natural" v="hill" />
		<tag k="place" v="locality" />
		<tag k="ssr:stedsnr" v="314515" />
	</node>
	<node id="-102998" lat="62.3136111149" lon="11.5692666759">
		<tag k="name" v="Mostea" />
		<tag k="place" v="locality" />
		<tag k="ssr:stedsnr" v="115290" />
	</node>
	<node id="-102997" lat="62.3126444433" lon="11.5658444406">
		<tag k="name" v="Nyvollrøstan" />
		<tag k="natural" v="slope" />
		<tag k="place" v="locality" />
		<tag k="ssr:stedsnr" v="115291" />
	</node>
	<node id="-102994" lat="62.2976972214" lon="11.7601749921">
		<tag k="name" v="Stenrøsta" />
		<tag k="natural" v="slope" />
		<tag k="place" v="locality" />
		<tag k="ssr:stedsnr" v="115254" />
	</node>
	<node id="-102992" lat="62.5039277774" lon="11.0948916676">
		<tag k="fixme" v="consider natural=peak for the most distinct mountains in the district" />
		<tag k="name" v="Kåsåsen" />
		<tag k="natural" v="hill" />
		<tag k="place" v="locality" />
		<tag k="ssr:stedsnr" v="115219" />
	</node>
	<node id="-102990" lat="62.2149722201" lon="11.849408324">
		<tag k="name" v="Tælet" />
		<tag k="natural" v="hill" />
		<tag k="place" v="locality" />
		<tag k="ssr:stedsnr" v="115194" />
	</node>
	<node id="-102988" lat="62.4892527779" lon="11.1468277704">
		<tag k="name" v="Stenbakken" />
		<tag k="natural" v="slope" />
		<tag k="place" v="locality" />
		<tag k="ssr:stedsnr" v="115171" />
	</node>
	<node id="-102986" lat="62.2931611114" lon="11.6821416656">
		<tag k="name" v="Langtjønnåsen" />
		<tag k="natural" v="hill" />
		<tag k="place" v="locality" />
		<tag k="ssr:stedsnr" v="115165" />
	</node>
	<node id="-102983" lat="62.2078555559" lon="11.7930277794">
		<tag k="name" v="Måssåbakken" />
		<tag k="natural" v="hill" />
		<tag k="place" v="locality" />
		<tag k="ssr:stedsnr" v="115122" />
	</node>
	<node id="-102970" lat="62.5016305584" lon="11.0028666705">
		<tag k="name" v="Gammelvollegga" />
		<tag k="natural" v="hill" />
		<tag k="place" v="locality" />
		<tag k="ssr:stedsnr" v="115037" />
	</node>
	<node id="-102969" lat="62.2794472212" lon="11.7907333264">
		<tag k="name" v="Ormrøsta" />
		<tag k="natural" v="hill" />
		<tag k="place" v="locality" />
		<tag k="ssr:stedsnr" v="115023" />
	</node>
	<node id="-102958" lat="62.3409694486" lon="11.6084083283">
		<tag k="name" v="Stenrøsta" />
		<tag k="natural" v="slope" />
		<tag k="place" v="locality" />
		<tag k="ssr:stedsnr" v="115316" />
	</node>
	<node id="-102953" lat="62.3448694469" lon="11.5610944468">
		<tag k="name" v="Lortitberget" />
		<tag k="natural" v="hill" />
		<tag k="place" v="locality" />
		<tag k="ssr:stedsnr" v="114262" />
	</node>
	<node id="-102939" lat="62.4999944484" lon="11.0849527719">
		<tag k="alt_name" v="Sæteråsen" />
		<tag k="fixme" v="consider natural=peak for the most distinct mountains in the district" />
		<tag k="name" v="Åsan" />
		<tag k="natural" v="hill" />
		<tag k="place" v="locality" />
		<tag k="ssr:stedsnr" v="72761" />
	</node>
	<node id="-102929" lat="62.3183000005" lon="11.5162361144">
		<tag k="name" v="Ingulfskletten" />
		<tag k="natural" v="hill" />
		<tag k="place" v="locality" />
		<tag k="ssr:stedsnr" v="72427" />
	</node>
	<node id="-102927" lat="62.3899111076" lon="11.4020444476">
		<tag k="name" v="Storlihøgda" />
		<tag k="natural" v="hill" />
		<tag k="place" v="locality" />
		<tag k="ssr:stedsnr" v="72402" />
	</node>
	<node id="-102922" lat="62.4454999974" lon="11.350827785">
		<tag k="name" v="Sjurskletten" />
		<tag k="natural" v="hill" />
		<tag k="place" v="locality" />
		<tag k="ssr:stedsnr" v="72332" />
	</node>
	<node id="-102916" lat="62.6165416687" lon="10.8929249915">
		<tag k="fixme" v="consider natural=peak for the most distinct mountains in the district" />
		<tag k="name" v="Kløftåsen" />
		<tag k="natural" v="hill" />
		<tag k="place" v="locality" />
		<tag k="ssr:stedsnr" v="72190" />
	</node>
	<node id="-102910" lat="62.5795694423" lon="10.9974611152">
		<tag k="name" v="Åslia" />
		<tag k="natural" v="slope" />
		<tag k="place" v="locality" />
		<tag k="ssr:stedsnr" v="72136" />
	</node>
	<node id="-102909" lat="62.575461114" lon="10.9091166742">
		<tag k="name" v="Storvollia" />
		<tag k="natural" v="slope" />
		<tag k="place" v="locality" />
		<tag k="ssr:stedsnr" v="72126" />
	</node>
	<node id="-102908" lat="62.5696250006" lon="11.0489583309">
		<tag k="alt_name" v="Litlåsen" />
		<tag k="fixme" v="consider natural=peak for the most distinct mountains in the district" />
		<tag k="name" v="Nordre Litjåsen" />
		<tag k="natural" v="hill" />
		<tag k="place" v="locality" />
		<tag k="ssr:stedsnr" v="72121" />
	</node>
	<node id="-102482" lat="62.6221722182" lon="11.1410916634">
		<tag k="name" v="Stiftelslia" />
		<tag k="natural" v="slope" />
		<tag k="place" v="locality" />
		<tag k="ssr:stedsnr" v="297818" />
	</node>
	<node id="-102885" lat="62.5079444445" lon="11.2250611093">
		<tag k="alt_name" v="Kvernmoen" />
		<tag k="name" v="Kvennmoen" />
		<tag k="place" v="locality" />
		<tag k="ssr:stedsnr" v="55700" />
	</node>
	<node id="-102883" lat="62.4401305548" lon="11.4471416701">
		<tag k="name" v="Brattbakken" />
		<tag k="natural" v="slope" />
		<tag k="place" v="locality" />
		<tag k="ssr:stedsnr" v="55692" />
	</node>
	<node id="-102881" lat="62.5090694443" lon="11.0371944364">
		<tag k="name" v="Litjhåegga" />
		<tag k="natural" v="hill" />
		<tag k="place" v="locality" />
		<tag k="ssr:stedsnr" v="55671" />
	</node>
	<node id="-102876" lat="62.4258916636" lon="11.131336118">
		<tag k="name" v="Yter Gravåsknausen" />
		<tag k="natural" v="hill" />
		<tag k="place" v="locality" />
		<tag k="ssr:stedsnr" v="55492" />
	</node>
	<node id="-102875" lat="62.4312638903" lon="11.1166750095">
		<tag k="name" v="Storgrubba" />
		<tag k="natural" v="valley" />
		<tag k="place" v="locality" />
		<tag k="ssr:stedsnr" v="55493" />
	</node>
	<node id="-102874" lat="62.4447916653" lon="11.1540611179">
		<tag k="name" v="Litjgravåsen" />
		<tag k="natural" v="hill" />
		<tag k="place" v="locality" />
		<tag k="ssr:stedsnr" v="55444" />
	</node>
	<node id="-102873" lat="62.5865416653" lon="10.9713833316">
		<tag k="fixme" v="consider natural=peak for the most distinct mountains in the district" />
		<tag k="name" v="Storbekkdalsklettan" />
		<tag k="natural" v="hill" />
		<tag k="place" v="locality" />
		<tag k="ssr:stedsnr" v="55440" />
	</node>
	<node id="-102478" lat="62.5316361152" lon="11.1736944425">
		<tag k="name" v="Kvennbekkvola" />
		<tag k="natural" v="hill" />
		<tag k="place" v="locality" />
		<tag k="ssr:stedsnr" v="297748" />
	</node>
	<node id="-102866" lat="62.4869749982" lon="11.2223222171">
		<tag k="name" v="Midtmoen" />
		<tag k="place" v="locality" />
		<tag k="ssr:stedsnr" v="55595" />
	</node>
	<node id="-102865" lat="62.4857305564" lon="11.2320749958">
		<tag k="name" v="Stormoen" />
		<tag k="place" v="locality" />
		<tag k="ssr:stedsnr" v="55592" />
	</node>
	<node id="-102864" lat="62.5648222195" lon="11.0573472305">
		<tag k="fixme" v="consider natural=peak for the most distinct mountains in the district" />
		<tag k="name" v="Fremre Litjåsen" />
		<tag k="natural" v="hill" />
		<tag k="place" v="locality" />
		<tag k="ssr:stedsnr" v="55505" />
	</node>
	<node id="-102860" lat="62.3379277787" lon="11.6588861203">
		<tag k="name" v="Litjrabben" />
		<tag k="natural" v="hill" />
		<tag k="place" v="locality" />
		<tag k="ssr:stedsnr" v="55287" />
	</node>
	<node id="-102856" lat="62.2944861089" lon="11.7623777737">
		<tag k="name" v="Litjåsen" />
		<tag k="natural" v="slope" />
		<tag k="place" v="locality" />
		<tag k="ssr:stedsnr" v="55236" />
	</node>
	<node id="-102848" lat="62.5182944416" lon="11.1873361088">
		<tag k="name" v="Gåstjønnåsen" />
		<tag k="natural" v="hill" />
		<tag k="place" v="locality" />
		<tag k="ssr:stedsnr" v="55169" />
	</node>
	<node id="-102845" lat="62.282430553" lon="11.7972166703">
		<tag k="name" v="Sagbekkdalen" />
		<tag k="natural" v="valley" />
		<tag k="place" v="locality" />
		<tag k="ssr:stedsnr" v="55031" />
	</node>
	<node id="-102474" lat="62.521725003" lon="11.2703416609">
		<tag k="name" v="Langlete" />
		<tag k="place" v="locality" />
		<tag k="ssr:stedsnr" v="297734" />
	</node>
	<node id="-102840" lat="62.2537638928" lon="11.7110111172">
		<tag k="name" v="Langrabben" />
		<tag k="natural" v="hill" />
		<tag k="place" v="locality" />
		<tag k="ssr:stedsnr" v="55002" />
	</node>
	<node id="-102835" lat="62.2951361072" lon="11.690069451">
		<tag k="name" v="Kvenndalen" />
		<tag k="natural" v="valley" />
		<tag k="place" v="locality" />
		<tag k="ssr:stedsnr" v="55139" />
	</node>
	<node id="-102830" lat="62.2476305551" lon="11.7278000094">
		<tag k="name" v="Nordre Granrøsta" />
		<tag k="natural" v="hill" />
		<tag k="place" v="locality" />
		<tag k="ssr:stedsnr" v="55063" />
	</node>
	<node id="-102824" lat="62.5170555563" lon="11.0244277724">
		<tag k="name" v="Husmåssåegga" />
		<tag k="natural" v="hill" />
		<tag k="place" v="locality" />
		<tag k="ssr:stedsnr" v="54626" />
	</node>
	<node id="-102823" lat="62.5454388922" lon="11.0582361127">
		<tag k="name" v="Jotegga" />
		<tag k="natural" v="hill" />
		<tag k="place" v="locality" />
		<tag k="ssr:stedsnr" v="54619" />
	</node>
	<node id="-102822" lat="62.5445666651" lon="11.0696722176">
		<tag k="name" v="Torgeirkroken" />
		<tag k="place" v="locality" />
		<tag k="ssr:stedsnr" v="54620" />
	</node>
	<node id="-102821" lat="62.5244027807" lon="11.0329277877">
		<tag k="name" v="Stullen" />
		<tag k="place" v="locality" />
		<tag k="ssr:stedsnr" v="54607" />
	</node>
	<node id="-102820" lat="62.5430361106" lon="10.9861194453">
		<tag k="name" v="Langrabben" />
		<tag k="natural" v="hill" />
		<tag k="place" v="locality" />
		<tag k="ssr:stedsnr" v="54605" />
	</node>
	<node id="-102818" lat="62.5302472224" lon="11.0552888938">
		<tag k="name" v="Storkåsa" />
		<tag k="natural" v="valley" />
		<tag k="place" v="locality" />
		<tag k="ssr:stedsnr" v="54594" />
	</node>
	<node id="-102814" lat="62.3410444435" lon="11.7399944465">
		<tag k="name" v="Lerbekkegga" />
		<tag k="natural" v="hill" />
		<tag k="place" v="locality" />
		<tag k="ssr:stedsnr" v="54227" />
	</node>
	<node id="-102812" lat="62.5547388932" lon="10.9376444468">
		<tag k="name" v="Djupdalen" />
		<tag k="natural" v="valley" />
		<tag k="place" v="locality" />
		<tag k="ssr:stedsnr" v="54438" />
	</node>
	<node id="-102811" lat="62.4865916661" lon="11.1828472169">
		<tag k="name" v="Abborpiken" />
		<tag k="natural" v="hill" />
		<tag k="place" v="locality" />
		<tag k="ssr:stedsnr" v="54172" />
	</node>
	<node id="-102807" lat="62.5800222219" lon="11.1546611093">
		<tag k="name" v="Nirskletten" />
		<tag k="natural" v="hill" />
		<tag k="place" v="locality" />
		<tag k="ssr:stedsnr" v="54083" />
	</node>
	<node id="-102806" lat="62.5682166671" lon="11.1365583281">
		<tag k="name" v="Ryan" />
		<tag k="place" v="locality" />
		<tag k="ssr:stedsnr" v="54069" />
	</node>
	<node id="-102797" lat="62.5158111086" lon="11.253811112">
		<tag k="name" v="Gammelvollia" />
		<tag k="natural" v="slope" />
		<tag k="place" v="locality" />
		<tag k="ssr:stedsnr" v="12512" />
	</node>
	<node id="-102466" lat="62.3420444429" lon="11.3536888933">
		<tag k="name" v="Nordre Galådalen" />
		<tag k="natural" v="valley" />
		<tag k="place" v="locality" />
		<tag k="ssr:stedsnr" v="297646" />
	</node>
	<node id="-102793" lat="62.3666277736" lon="11.68651945">
		<tag k="alt_name" v="Håmmåren" />
		<tag k="fixme" v="consider natural=peak for the most distinct mountains in the district" />
		<tag k="name" v="Storhogna" />
		<tag k="natural" v="hill" />
		<tag k="place" v="locality" />
		<tag k="ssr:stedsnr" v="12391" />
	</node>
	<node id="-102791" lat="62.4020611103" lon="11.4395611187">
		<tag k="name" v="Henningsrya" />
		<tag k="place" v="locality" />
		<tag k="ssr:stedsnr" v="12371" />
	</node>
	<node id="-102789" lat="62.6640750013" lon="10.7772333263">
		<tag k="fixme" v="consider natural=peak for the most distinct mountains in the district" />
		<tag k="name" v="Slettfjellet" />
		<tag k="natural" v="hill" />
		<tag k="place" v="locality" />
		<tag k="ssr:stedsnr" v="12221" />
	</node>
	<node id="-102784" lat="62.5433499998" lon="10.9491583249">
		<tag k="fixme" v="consider natural=peak for the most distinct mountains in the district" />
		<tag k="name" v="Skarvan" />
		<tag k="natural" v="hill" />
		<tag k="place" v="locality" />
		<tag k="ssr:stedsnr" v="11858" />
	</node>
	<node id="-102783" lat="62.5115638869" lon="11.015616663">
		<tag k="fixme" v="consider natural=peak for the most distinct mountains in the district" />
		<tag k="name" v="Langsåsen" />
		<tag k="natural" v="hill" />
		<tag k="place" v="locality" />
		<tag k="ssr:stedsnr" v="11769" />
	</node>
	<node id="-102781" lat="62.5227944485" lon="11.0956027773">
		<tag k="name" v="Breansmoen" />
		<tag k="place" v="locality" />
		<tag k="ssr:stedsnr" v="11757" />
	</node>
	<node id="-102763" lat="62.6085499966" lon="10.8097305632">
		<tag k="name" v="Midttangen" />
		<tag k="natural" v="hill" />
		<tag k="place" v="locality" />
		<tag k="ssr:stedsnr" v="11175" />
	</node>
	<node id="-102762" lat="62.6106027791" lon="10.8230111037">
		<tag k="name" v="Svartbekkdalen" />
		<tag k="natural" v="valley" />
		<tag k="place" v="locality" />
		<tag k="ssr:stedsnr" v="11173" />
	</node>
	<node id="-102760" lat="62.5910194403" lon="10.7740750032">
		<tag k="name" v="Bratthøroa" />
		<tag k="natural" v="valley" />
		<tag k="place" v="locality" />
		<tag k="ssr:stedsnr" v="11145" />
	</node>
	<node id="-102755" lat="62.491483331" lon="10.9404972303">
		<tag k="alt_name" v="Aunsrabben" />
		<tag k="name" v="Øvensrabben" />
		<tag k="natural" v="hill" />
		<tag k="place" v="locality" />
		<tag k="ssr:stedsnr" v="11038" />
	</node>
	<node id="-102746" lat="62.2058638918" lon="11.6516416746">
		<tag k="loc_name" v="Vardhøgda" />
		<tag k="name" v="Vardehøgda" />
		<tag k="natural" v="hill" />
		<tag k="place" v="locality" />
		<tag k="ssr:stedsnr" v="253506" />
	</node>
	<node id="-102744" lat="62.3215416699" lon="11.3745805551">
		<tag k="name" v="Galådalen" />
		<tag k="natural" v="valley" />
		<tag k="place" v="locality" />
		<tag k="ssr:stedsnr" v="800446" />
	</node>
	<node id="-102456" lat="62.4335305516" lon="11.1931416683">
		<tag k="name" v="Trångdalen" />
		<tag k="natural" v="valley" />
		<tag k="place" v="locality" />
		<tag k="ssr:stedsnr" v="297509" />
	</node>
	<node id="-102724" lat="62.1868555512" lon="11.8432916669">
		<tag k="name" v="Elgrøsta" />
		<tag k="natural" v="hill" />
		<tag k="place" v="locality" />
		<tag k="ssr:stedsnr" v="479175" />
	</node>
	<node id="-102721" lat="62.299388887" lon="11.7014805613">
		<tag k="name" v="Heggrøsta" />
		<tag k="natural" v="slope" />
		<tag k="place" v="locality" />
		<tag k="ssr:stedsnr" v="479147" />
	</node>
	<node id="-102720" lat="62.2991055587" lon="11.6945333326">
		<tag k="name" v="Langrabben" />
		<tag k="natural" v="slope" />
		<tag k="place" v="locality" />
		<tag k="ssr:stedsnr" v="479142" />
	</node>
	<node id="-102719" lat="62.5878527786" lon="11.1668611192">
		<tag k="name" v="Djupskårra" />
		<tag k="natural" v="valley" />
		<tag k="place" v="locality" />
		<tag k="ssr:stedsnr" v="479075" />
	</node>
	<node id="-102716" lat="62.584708333" lon="11.1142166714">
		<tag k="name" v="Langryåshammeren" />
		<tag k="natural" v="hill" />
		<tag k="place" v="locality" />
		<tag k="ssr:stedsnr" v="479066" />
	</node>
	<node id="-102711" lat="62.2423777788" lon="11.7718750014">
		<tag k="name" v="Tyllerøya" />
		<tag k="place" v="locality" />
		<tag k="ssr:stedsnr" v="479050" />
	</node>
	<node id="-102709" lat="62.2449194405" lon="11.8189694491">
		<tag k="name" v="Stortalla" />
		<tag k="natural" v="slope" />
		<tag k="place" v="locality" />
		<tag k="ssr:stedsnr" v="479035" />
	</node>
	<node id="-102707" lat="62.4737166687" lon="11.0889722189">
		<tag k="name" v="Sæteråsen" />
		<tag k="natural" v="hill" />
		<tag k="place" v="locality" />
		<tag k="ssr:stedsnr" v="479015" />
	</node>
	<node id="-102451" lat="62.5275499995" lon="11.2494944507">
		<tag k="name" v="Gammelvollia" />
		<tag k="natural" v="slope" />
		<tag k="place" v="locality" />
		<tag k="ssr:stedsnr" v="297447" />
	</node>
	<node id="-102700" lat="62.3140583306" lon="11.7634583274">
		<tag k="name" v="Knallen" />
		<tag k="natural" v="hill" />
		<tag k="place" v="locality" />
		<tag k="ssr:stedsnr" v="478186" />
	</node>
	<node id="-102699" lat="62.335466667" lon="11.7520027814">
		<tag k="name" v="Lerbekkroa" />
		<tag k="natural" v="valley" />
		<tag k="place" v="locality" />
		<tag k="ssr:stedsnr" v="478178" />
	</node>
	<node id="-102698" lat="62.3338138919" lon="11.7312777756">
		<tag k="name" v="Finnskjeggrya" />
		<tag k="place" v="locality" />
		<tag k="ssr:stedsnr" v="478176" />
	</node>
	<node id="-102695" lat="62.5745472229" lon="11.0612888849">
		<tag k="name" v="Litjbekksletta" />
		<tag k="place" v="locality" />
		<tag k="ssr:stedsnr" v="479360" />
	</node>
	<node id="-102694" lat="62.4786222196" lon="11.186175009">
		<tag k="name" v="Tørrstrypet" />
		<tag k="natural" v="valley" />
		<tag k="place" v="locality" />
		<tag k="ssr:stedsnr" v="479338" />
	</node>
	<node id="-102693" lat="62.4760611115" lon="11.1591472293">
		<tag k="name" v="Slettegga" />
		<tag k="natural" v="hill" />
		<tag k="place" v="locality" />
		<tag k="ssr:stedsnr" v="479336" />
	</node>
	<node id="-102691" lat="62.3176694489" lon="11.6187944404">
		<tag k="name" v="Molia" />
		<tag k="natural" v="slope" />
		<tag k="place" v="locality" />
		<tag k="ssr:stedsnr" v="479317" />
	</node>
	<node id="-102680" lat="62.5701722244" lon="10.9979888959">
		<tag k="name" v="Storegga" />
		<tag k="natural" v="hill" />
		<tag k="place" v="locality" />
		<tag k="ssr:stedsnr" v="237433" />
	</node>
	<node id="-102677" lat="62.3605027739" lon="11.5052472274">
		<tag k="name" v="Storharrbekkåsen" />
		<tag k="natural" v="hill" />
		<tag k="place" v="locality" />
		<tag k="ssr:stedsnr" v="392231" />
	</node>
	<node id="-102674" lat="62.3591944419" lon="11.6728638921">
		<tag k="name" v="Kattugleberget" />
		<tag k="natural" v="hill" />
		<tag k="place" v="locality" />
		<tag k="ssr:stedsnr" v="376431" />
	</node>
	<node id="-102648" lat="62.3046750006" lon="11.6485499961">
		<tag k="alt_name" v="Rundtjørnkletten" />
		<tag k="name" v="Rundtjønnkletten" />
		<tag k="natural" v="hill" />
		<tag k="place" v="locality" />
		<tag k="ssr:stedsnr" v="375438" />
	</node>
	<node id="-102647" lat="62.3365277797" lon="11.4972666726">
		<tag k="fixme" v="consider natural=peak for the most distinct mountains in the district" />
		<tag k="name" v="Abboråsen" />
		<tag k="natural" v="hill" />
		<tag k="place" v="locality" />
		<tag k="ssr:stedsnr" v="375426" />
	</node>
	<node id="-104691" lat="62.6095027762" lon="11.0797805565">
		<tag k="name" v="Steinbakken" />
		<tag k="natural" v="slope" />
		<tag k="place" v="locality" />
		<tag k="ssr:stedsnr" v="967402" />
	</node>
	<node id="-104689" lat="62.3614305556" lon="11.5186777849">
		<tag k="name" v="Bjønnhåmmåren" />
		<tag k="natural" v="hill" />
		<tag k="place" v="locality" />
		<tag k="ssr:stedsnr" v="965965" />
	</node>
	<node id="-102639" lat="62.4284750025" lon="11.3665388889">
		<tag k="name" v="Hamran" />
		<tag k="natural" v="hill" />
		<tag k="place" v="locality" />
		<tag k="ssr:stedsnr" v="375370" />
	</node>
	<node id="-102638" lat="62.4296722248" lon="11.274472225">
		<tag k="fixme" v="consider natural=peak for the most distinct mountains in the district" />
		<tag k="name" v="Gråhøgda" />
		<tag k="natural" v="hill" />
		<tag k="ssr:stedsnr" v="375369" />
	</node>
	<node id="-104682" lat="62.5043305543" lon="11.2695749903">
		<tag k="name" v="Røstlia" />
		<tag k="natural" v="slope" />
		<tag k="place" v="locality" />
		<tag k="ssr:stedsnr" v="965734" />
	</node>
	<node id="-104679" lat="62.4454361122" lon="11.3946861018">
		<tag k="name" v="Tårnegga" />
		<tag k="natural" v="hill" />
		<tag k="place" v="locality" />
		<tag k="ssr:stedsnr" v="965725" />
	</node>
	<node id="-104674" lat="62.4857250004" lon="11.2155305604">
		<tag k="name" v="Bersvendsmoen" />
		<tag k="place" v="locality" />
		<tag k="ssr:stedsnr" v="965640" />
	</node>
	<node id="-102625" lat="62.4864138903" lon="11.0563305484">
		<tag k="fixme" v="consider natural=peak for the most distinct mountains in the district" />
		<tag k="name" v="Seljeåsen" />
		<tag k="natural" v="hill" />
		<tag k="place" v="locality" />
		<tag k="ssr:stedsnr" v="375050" />
	</node>
	<node id="-104671" lat="62.4795722251" lon="11.2797666699">
		<tag k="name" v="Halvmilengmoen" />
		<tag k="place" v="locality" />
		<tag k="ssr:stedsnr" v="965522" />
	</node>
	<node id="-102622" lat="62.2136305573" lon="11.7971888919">
		<tag k="fixme" v="consider natural=peak for the most distinct mountains in the district" />
		<tag k="name" v="Brenna" />
		<tag k="natural" v="hill" />
		<tag k="place" v="locality" />
		<tag k="ssr:stedsnr" v="374365" />
	</node>
	<node id="-104669" lat="62.4481055528" lon="11.1672027728">
		<tag k="name" v="Fremre Fjellkåsa" />
		<tag k="natural" v="slope" />
		<tag k="place" v="locality" />
		<tag k="ssr:stedsnr" v="965479" />
	</node>
	<node id="-104665" lat="62.3264972185" lon="11.6772638961">
		<tag k="name" v="Stenrøstroa" />
		<tag k="natural" v="valley" />
		<tag k="place" v="locality" />
		<tag k="ssr:stedsnr" v="965374" />
	</node>
	<node id="-102615" lat="62.3689083313" lon="11.4957499987">
		<tag k="name" v="Storberget" />
		<tag k="natural" v="hill" />
		<tag k="place" v="locality" />
		<tag k="ssr:stedsnr" v="358954" />
	</node>
	<node id="-104661" lat="62.5746722245" lon="10.9562888895">
		<tag k="name" v="Høgegga" />
		<tag k="natural" v="hill" />
		<tag k="place" v="locality" />
		<tag k="ssr:stedsnr" v="965346" />
	</node>
	<node id="-104660" lat="62.5881611087" lon="10.9535138923">
		<tag k="fixme" v="consider natural=peak for the most distinct mountains in the district" />
		<tag k="name" v="Brøttangen" />
		<tag k="natural" v="hill" />
		<tag k="place" v="locality" />
		<tag k="ssr:stedsnr" v="965341" />
	</node>
	<node id="-104657" lat="62.2888888878" lon="11.7118916725">
		<tag k="name" v="Håvardsbakken" />
		<tag k="natural" v="slope" />
		<tag k="place" v="locality" />
		<tag k="ssr:stedsnr" v="965254" />
	</node>
	<node id="-102608" lat="62.4508861126" lon="11.4195638798">
		<tag k="name" v="Rødalen" />
		<tag k="natural" v="valley" />
		<tag k="place" v="locality" />
		<tag k="ssr:stedsnr" v="358753" />
	</node>
	<node id="-102605" lat="62.5091694425" lon="11.2553416667">
		<tag k="name" v="Stenmoen" />
		<tag k="place" v="locality" />
		<tag k="ssr:stedsnr" v="358742" />
	</node>
	<node id="-102603" lat="62.5089333356" lon="11.2268611103">
		<tag k="name" v="Tatersletta" />
		<tag k="place" v="locality" />
		<tag k="ssr:stedsnr" v="358740" />
	</node>
	<node id="-104650" lat="62.2240194481" lon="11.768219451">
		<tag k="name" v="Krokegga" />
		<tag k="natural" v="slope" />
		<tag k="place" v="locality" />
		<tag k="ssr:stedsnr" v="965085" />
	</node>
	<node id="-102601" lat="62.5156861071" lon="11.0831194475">
		<tag k="name" v="Nirsengmoen" />
		<tag k="place" v="locality" />
		<tag k="ssr:stedsnr" v="358723" />
	</node>
	<node id="-102597" lat="62.5511888898" lon="11.0508583358">
		<tag k="name" v="Lermælen" />
		<tag k="natural" v="hill" />
		<tag k="place" v="locality" />
		<tag k="ssr:stedsnr" v="358546" />
	</node>
	<node id="-104644" lat="62.2831861095" lon="11.7829499929">
		<tag k="name" v="Øvre Koierabben" />
		<tag k="natural" v="hill" />
		<tag k="place" v="locality" />
		<tag k="ssr:stedsnr" v="965038" />
	</node>
	<node id="-102595" lat="62.4800472219" lon="11.3104527842">
		<tag k="name" v="Torgersenget" />
		<tag k="place" v="locality" />
		<tag k="ssr:stedsnr" v="358528" />
	</node>
	<node id="-102594" lat="62.4758333339" lon="11.3306888933">
		<tag k="name" v="Lensmannsmoen" />
		<tag k="place" v="locality" />
		<tag k="ssr:stedsnr" v="358529" />
	</node>
	<node id="-102591" lat="62.5241027734" lon="11.2177000014">
		<tag k="name" v="Brattegga" />
		<tag k="natural" v="hill" />
		<tag k="place" v="locality" />
		<tag k="ssr:stedsnr" v="358466" />
	</node>
	<node id="-102589" lat="62.5696277803" lon="10.9919361041">
		<tag k="name" v="Myrtrøbekkdalen" />
		<tag k="natural" v="valley" />
		<tag k="place" v="locality" />
		<tag k="ssr:stedsnr" v="358417" />
	</node>
	<node id="-104636" lat="62.5416999996" lon="11.1987944436">
		<tag k="name" v="Gladhaugan" />
		<tag k="natural" v="hill" />
		<tag k="place" v="locality" />
		<tag k="ssr:stedsnr" v="964697" />
	</node>
	<node id="-104635" lat="62.5361999983" lon="10.9702638962">
		<tag k="name" v="Rabban" />
		<tag k="natural" v="hill" />
		<tag k="place" v="locality" />
		<tag k="ssr:stedsnr" v="964587" />
	</node>
	<node id="-102584" lat="62.4671361088" lon="11.1997194462">
		<tag k="name" v="Storeggan" />
		<tag k="natural" v="hill" />
		<tag k="place" v="locality" />
		<tag k="ssr:stedsnr" v="358330" />
	</node>
	<node id="-104631" lat="62.4288222205" lon="11.1866416629">
		<tag k="name" v="Lautomta" />
		<tag k="place" v="locality" />
		<tag k="ssr:stedsnr" v="964501" />
	</node>
	<node id="-102581" lat="62.5883805563" lon="10.961844444">
		<tag k="name" v="Mestuskarvdalen" />
		<tag k="natural" v="valley" />
		<tag k="place" v="locality" />
		<tag k="ssr:stedsnr" v="358302" />
	</node>
	<node id="-104628" lat="62.2985444444" lon="11.7294416693">
		<tag k="name" v="Hølmoen" />
		<tag k="place" v="locality" />
		<tag k="ssr:stedsnr" v="964270" />
	</node>
	<node id="-104626" lat="62.4841999982" lon="11.1923499982">
		<tag k="name" v="Hølbekkmoen" />
		<tag k="place" v="locality" />
		<tag k="ssr:stedsnr" v="964197" />
	</node>
	<node id="-102575" lat="62.3154194441" lon="11.5713805575">
		<tag k="name" v="Stenåsen" />
		<tag k="natural" v="hill" />
		<tag k="place" v="locality" />
		<tag k="ssr:stedsnr" v="358264" />
	</node>
	<node id="-104621" lat="62.3381527755" lon="11.5190249928">
		<tag k="name" v="Superheia" />
		<tag k="place" v="locality" />
		<tag k="ssr:stedsnr" v="963535" />
	</node>
	<node id="-104620" lat="62.5622305543" lon="10.9893999989">
		<tag k="name" v="Rabblia" />
		<tag k="natural" v="slope" />
		<tag k="place" v="locality" />
		<tag k="ssr:stedsnr" v="964524" />
	</node>
	<node id="-104619" lat="62.5655777775" lon="11.0249777815">
		<tag k="name" v="Fosseggan" />
		<tag k="natural" v="hill" />
		<tag k="place" v="locality" />
		<tag k="ssr:stedsnr" v="964523" />
	</node>
	<node id="-104617" lat="62.3400583302" lon="11.571383339">
		<tag k="name" v="Storstenberget" />
		<tag k="natural" v="hill" />
		<tag k="place" v="locality" />
		<tag k="ssr:stedsnr" v="963285" />
	</node>
	<node id="-102565" lat="62.2828472188" lon="11.8152249993">
		<tag k="name" v="Sagbekkrøsta" />
		<tag k="natural" v="hill" />
		<tag k="place" v="locality" />
		<tag k="ssr:stedsnr" v="358044" />
	</node>
	<node id="-102564" lat="62.2732444465" lon="11.7446777812">
		<tag k="name" v="Brennmoen" />
		<tag k="place" v="locality" />
		<tag k="ssr:stedsnr" v="358045" />
	</node>
	<node id="-102563" lat="62.2774138866" lon="11.8098083281">
		<tag k="name" v="Søndre Brattbakken" />
		<tag k="natural" v="slope" />
		<tag k="place" v="locality" />
		<tag k="ssr:stedsnr" v="358028" />
	</node>
	<node id="-104609" lat="62.3639083314" lon="11.4979583347">
		<tag k="name" v="Litjharrbekkåsen" />
		<tag k="natural" v="hill" />
		<tag k="place" v="locality" />
		<tag k="ssr:stedsnr" v="938203" />
	</node>
	<node id="-104608" lat="62.3247472239" lon="11.7705888872">
		<tag k="fixme" v="consider natural=peak for the most distinct mountains in the district" />
		<tag k="name" v="Stenfjellet" />
		<tag k="natural" v="hill" />
		<tag k="place" v="locality" />
		<tag k="ssr:stedsnr" v="931872" />
	</node>
	<node id="-104607" lat="62.1996499997" lon="11.8121944463">
		<tag k="name" v="Bagghaugen" />
		<tag k="natural" v="hill" />
		<tag k="place" v="locality" />
		<tag k="ssr:stedsnr" v="931468" />
	</node>
	<node id="-104603" lat="62.5335361154" lon="11.0629416746">
		<tag k="fixme" v="consider natural=peak for the most distinct mountains in the district" />
		<tag k="name" v="Nonsåsen" />
		<tag k="natural" v="hill" />
		<tag k="place" v="locality" />
		<tag k="ssr:stedsnr" v="922842" />
	</node>
	<node id="-102554" lat="62.5482611108" lon="10.9986222247">
		<tag k="name" v="Langrabben" />
		<tag k="natural" v="hill" />
		<tag k="place" v="locality" />
		<tag k="ssr:stedsnr" v="357562" />
	</node>
	<node id="-102551" lat="62.546574996" lon="10.9304527779">
		<tag k="name" v="Røbakken" />
		<tag k="natural" v="slope" />
		<tag k="place" v="locality" />
		<tag k="ssr:stedsnr" v="357408" />
	</node>
	<node id="-102547" lat="62.3263722262" lon="11.7314916728">
		<tag k="name" v="Synnersmåbekksletta" />
		<tag k="place" v="locality" />
		<tag k="ssr:stedsnr" v="357191" />
	</node>
	<node id="-102543" lat="62.2267277786" lon="11.7405277777">
		<tag k="name" v="Nylaurøsta" />
		<tag k="natural" v="slope" />
		<tag k="place" v="locality" />
		<tag k="ssr:stedsnr" v="357116" />
	</node>
	<node id="-102542" lat="62.5568944467" lon="11.1788972253">
		<tag k="name" v="Sæterlia" />
		<tag k="natural" v="slope" />
		<tag k="place" v="locality" />
		<tag k="ssr:stedsnr" v="357084" />
	</node>
	<node id="-104589" lat="62.6520638869" lon="10.8766750024">
		<tag k="name" v="Fjellsjøhøgda" />
		<tag k="natural" v="hill" />
		<tag k="place" v="locality" />
		<tag k="ssr:stedsnr" v="922192" />
	</node>
	<node id="-102538" lat="62.2811583364" lon="11.797819438">
		<tag k="fixme" v="consider natural=peak for the most distinct mountains in the district" />
		<tag k="name" v="Sagbekkåsen" />
		<tag k="natural" v="hill" />
		<tag k="place" v="locality" />
		<tag k="ssr:stedsnr" v="324844" />
	</node>
	<node id="-104584" lat="62.462033336" lon="11.1039916712">
		<tag k="fixme" v="consider natural=peak for the most distinct mountains in the district" />
		<tag k="name" v="Anvisåsen" />
		<tag k="natural" v="hill" />
		<tag k="place" v="locality" />
		<tag k="ssr:stedsnr" v="922081" />
	</node>
	<node id="-102533" lat="62.5235555571" lon="11.004900009">
		<tag k="fixme" v="consider natural=peak for the most distinct mountains in the district" />
		<tag k="name" v="Flatskarvåsen" />
		<tag k="natural" v="hill" />
		<tag k="place" v="locality" />
		<tag k="ssr:stedsnr" v="315870" />
	</node>
	<node id="-102532" lat="62.5218138935" lon="11.0305916578">
		<tag k="fixme" v="consider natural=peak for the most distinct mountains in the district" />
		<tag k="name" v="Gruvåsen" />
		<tag k="natural" v="hill" />
		<tag k="place" v="locality" />
		<tag k="ssr:stedsnr" v="315867" />
	</node>
	<node id="-102523" lat="62.2973611139" lon="11.6288083268">
		<tag k="name" v="Gråhøgda" />
		<tag k="natural" v="hill" />
		<tag k="place" v="locality" />
		<tag k="ssr:stedsnr" v="315478" />
	</node>
	<node id="-102519" lat="62.3223416709" lon="11.6998833404">
		<tag k="name" v="Bakkekletten" />
		<tag k="natural" v="hill" />
		<tag k="place" v="locality" />
		<tag k="ssr:stedsnr" v="315426" />
	</node>
	<node id="-102514" lat="62.4974469869" lon="11.3403377704">
		<tag k="fixme" v="consider natural=peak for the most distinct mountains in the district" />
		<tag k="name" v="Høskletten" />
		<tag k="natural" v="hill" />
		<tag k="place" v="locality" />
		<tag k="ssr:stedsnr" v="315294" />
	</node>
	<node id="-104561" lat="62.3917305541" lon="11.4873277707">
		<tag k="name" v="Langrabben" />
		<tag k="natural" v="slope" />
		<tag k="place" v="locality" />
		<tag k="ssr:stedsnr" v="904957" />
	</node>
	<node id="-104559" lat="62.5966194429" lon="11.1345805507">
		<tag k="fixme" v="consider natural=peak for the most distinct mountains in the district" />
		<tag k="name" v="Undliåsen" />
		<tag k="natural" v="hill" />
		<tag k="place" v="locality" />
		<tag k="ssr:stedsnr" v="904945" />
	</node>
	<node id="-104550" lat="62.4902944405" lon="11.1069416575">
		<tag k="name" v="Utstuklettan" />
		<tag k="natural" v="hill" />
		<tag k="place" v="locality" />
		<tag k="ssr:stedsnr" v="904709" />
	</node>
	<node id="-104548" lat="62.5224000011" lon="11.0719972159">
		<tag k="name" v="Kvennegga" />
		<tag k="natural" v="hill" />
		<tag k="place" v="locality" />
		<tag k="ssr:stedsnr" v="904686" />
	</node>
	<node id="-104546" lat="62.4994416639" lon="11.0413805619">
		<tag k="name" v="Stortjønnhaugen" />
		<tag k="natural" v="hill" />
		<tag k="place" v="locality" />
		<tag k="ssr:stedsnr" v="904664" />
	</node>
	<node id="-102493" lat="62.6097583336" lon="10.9961944512">
		<tag k="name" v="Sarakvolvet" />
		<tag k="natural" v="valley" />
		<tag k="place" v="locality" />
		<tag k="ssr:stedsnr" v="314189" />
	</node>
	<node id="-102491" lat="62.6170388875" lon="10.8361333422">
		<tag k="fixme" v="consider natural=peak for the most distinct mountains in the district" />
		<tag k="name" v="Snuddtangen" />
		<tag k="natural" v="hill" />
		<tag k="place" v="locality" />
		<tag k="ssr:stedsnr" v="314211" />
	</node>
	<node id="-104536" lat="62.4669750024" lon="11.3078694504">
		<tag k="name" v="Hårråberget" />
		<tag k="natural" v="hill" />
		<tag k="place" v="locality" />
		<tag k="ssr:stedsnr" v="904497" />
	</node>
	<node id="-104532" lat="62.546502777" lon="10.9540833406">
		<tag k="fixme" v="consider natural=peak for the most distinct mountains in the district" />
		<tag k="name" v="Storskarven" />
		<tag k="natural" v="hill" />
		<tag k="place" v="locality" />
		<tag k="ssr:stedsnr" v="904409" />
	</node>
	<node id="-102483" lat="62.3992222263" lon="11.4081138971">
		<tag k="name" v="Tangan" />
		<tag k="natural" v="slope" />
		<tag k="place" v="locality" />
		<tag k="ssr:stedsnr" v="297822" />
	</node>
	<node id="-104530" lat="62.4983666674" lon="11.3070305511">
		<tag k="name" v="Sundhøgda" />
		<tag k="natural" v="hill" />
		<tag k="place" v="locality" />
		<tag k="ssr:stedsnr" v="904362" />
	</node>
	<node id="-102481" lat="62.4245472234" lon="11.4072611066">
		<tag k="name" v="Hårråegga" />
		<tag k="natural" v="hill" />
		<tag k="place" v="locality" />
		<tag k="ssr:stedsnr" v="297810" />
	</node>
	<node id="-102479" lat="62.2655000042" lon="11.4719361209">
		<tag k="name" v="Bjønnrøsta" />
		<tag k="natural" v="slope" />
		<tag k="place" v="locality" />
		<tag k="ssr:stedsnr" v="297762" />
	</node>
	<node id="-104526" lat="62.5701611088" lon="10.9073944446">
		<tag k="name" v="Fjellkåsa" />
		<tag k="natural" v="slope" />
		<tag k="place" v="locality" />
		<tag k="ssr:stedsnr" v="904326" />
	</node>
	<node id="-102476" lat="62.4462111125" lon="11.4011722192">
		<tag k="name" v="Røbekkmoen" />
		<tag k="place" v="locality" />
		<tag k="ssr:stedsnr" v="297739" />
	</node>
	<node id="-104522" lat="62.6010611069" lon="10.9273888844">
		<tag k="name" v="Kløftåshaugan" />
		<tag k="natural" v="hill" />
		<tag k="place" v="locality" />
		<tag k="ssr:stedsnr" v="904309" />
	</node>
	<node id="-102473" lat="62.5158250017" lon="11.2341027742">
		<tag k="name" v="Sagmoen" />
		<tag k="place" v="locality" />
		<tag k="ssr:stedsnr" v="297731" />
	</node>
	<node id="-102470" lat="62.5058388852" lon="11.2238999934">
		<tag k="name" v="Brestet" />
		<tag k="natural" v="slope" />
		<tag k="place" v="locality" />
		<tag k="ssr:stedsnr" v="297719" />
	</node>
	<node id="-102467" lat="62.339275002" lon="11.3590527799">
		<tag k="name" v="Vasskåslia" />
		<tag k="natural" v="slope" />
		<tag k="place" v="locality" />
		<tag k="ssr:stedsnr" v="297652" />
	</node>
	<node id="-104514" lat="62.5410583367" lon="11.1268527714">
		<tag k="name" v="Lia" />
		<tag k="natural" v="slope" />
		<tag k="place" v="locality" />
		<tag k="ssr:stedsnr" v="904216" />
	</node>
	<node id="-104513" lat="62.5071861156" lon="11.0914777718">
		<tag k="name" v="Kåsåspiggen" />
		<tag k="natural" v="hill" />
		<tag k="place" v="locality" />
		<tag k="ssr:stedsnr" v="904204" />
	</node>
	<node id="-104505" lat="62.2953611116" lon="11.693852772">
		<tag k="name" v="Kvenndalsrabban" />
		<tag k="natural" v="slope" />
		<tag k="place" v="locality" />
		<tag k="ssr:stedsnr" v="904145" />
	</node>
	<node id="-104504" lat="62.2090638875" lon="11.7349916651">
		<tag k="name" v="Flåa" />
		<tag k="natural" v="hill" />
		<tag k="place" v="locality" />
		<tag k="ssr:stedsnr" v="904120" />
	</node>
	<node id="-102454" lat="62.4346861155" lon="11.1956583326">
		<tag k="name" v="Kutardalen" />
		<tag k="natural" v="valley" />
		<tag k="place" v="locality" />
		<tag k="ssr:stedsnr" v="297493" />
	</node>
	<node id="-104499" lat="62.2274111067" lon="11.8101805625">
		<tag k="name" v="Bråttet" />
		<tag k="natural" v="slope" />
		<tag k="place" v="locality" />
		<tag k="ssr:stedsnr" v="904084" />
	</node>
	<node id="-102450" lat="62.5868138932" lon="11.0076611211">
		<tag k="name" v="Høgegga" />
		<tag k="natural" v="hill" />
		<tag k="place" v="locality" />
		<tag k="ssr:stedsnr" v="297434" />
	</node>
	<node id="-104497" lat="62.5561861111" lon="11.1005833304">
		<tag k="name" v="Bergehåmmåren" />
		<tag k="natural" v="hill" />
		<tag k="place" v="locality" />
		<tag k="ssr:stedsnr" v="904056" />
	</node>
	<node id="-102448" lat="62.548105554" lon="10.9399472258">
		<tag k="name" v="Bjønndalen" />
		<tag k="natural" v="valley" />
		<tag k="place" v="locality" />
		<tag k="ssr:stedsnr" v="297411" />
	</node>
	<node id="-104495" lat="62.2834750017" lon="11.7733083311">
		<tag k="name" v="Litjåsen" />
		<tag k="natural" v="hill" />
		<tag k="place" v="locality" />
		<tag k="ssr:stedsnr" v="904023" />
	</node>
	<node id="-104494" lat="62.2763833312" lon="11.8232166709">
		<tag k="name" v="Skrivarvollrøsta" />
		<tag k="natural" v="hill" />
		<tag k="place" v="locality" />
		<tag k="ssr:stedsnr" v="904020" />
	</node>
	<node id="-104491" lat="62.3455833299" lon="11.5451861075">
		<tag k="name" v="Aspbakken" />
		<tag k="natural" v="slope" />
		<tag k="place" v="locality" />
		<tag k="ssr:stedsnr" v="903475" />
	</node>
	<node id="-102441" lat="62.3117361092" lon="11.5864916634">
		<tag k="name" v="Stenåsen" />
		<tag k="natural" v="hill" />
		<tag k="place" v="locality" />
		<tag k="ssr:stedsnr" v="297345" />
	</node>
	<node id="-102440" lat="62.3335111073" lon="11.6001055529">
		<tag k="name" v="Tangrøsta" />
		<tag k="place" v="locality" />
		<tag k="ssr:stedsnr" v="297329" />
	</node>
	<node id="-102438" lat="62.3235277818" lon="11.6105388979">
		<tag k="name" v="Korstalla" />
		<tag k="place" v="locality" />
		<tag k="ssr:stedsnr" v="297318" />
	</node>
	<node id="-104485" lat="62.2684694405" lon="11.721100004">
		<tag k="name" v="Tallhaugen" />
		<tag k="natural" v="hill" />
		<tag k="place" v="locality" />
		<tag k="ssr:stedsnr" v="903204" />
	</node>
	<node id="-104484" lat="62.2727249992" lon="11.718333334">
		<tag k="name" v="Granrøsta" />
		<tag k="natural" v="slope" />
		<tag k="place" v="locality" />
		<tag k="ssr:stedsnr" v="903205" />
	</node>
	<node id="-104483" lat="62.3167416682" lon="11.709336112">
		<tag k="name" v="Litjkletten" />
		<tag k="natural" v="hill" />
		<tag k="place" v="locality" />
		<tag k="ssr:stedsnr" v="903182" />
	</node>
	<node id="-104482" lat="62.32655556" lon="11.7072472184">
		<tag k="name" v="Fjellroa" />
		<tag k="natural" v="slope" />
		<tag k="place" v="locality" />
		<tag k="ssr:stedsnr" v="903181" />
	</node>
	<node id="-102433" lat="62.3385416674" lon="11.5357305486">
		<tag k="name" v="Jordbærkåsa" />
		<tag k="place" v="locality" />
		<tag k="ssr:stedsnr" v="297258" />
	</node>
	<node id="-102431" lat="62.2880777763" lon="11.7370305542">
		<tag k="name" v="Storøya" />
		<tag k="place" v="locality" />
		<tag k="ssr:stedsnr" v="297246" />
	</node>
	<node id="-104478" lat="62.3186333355" lon="11.7394111202">
		<tag k="name" v="Djupdalen" />
		<tag k="natural" v="valley" />
		<tag k="place" v="locality" />
		<tag k="ssr:stedsnr" v="870849" />
	</node>
	<node id="-102424" lat="62.1860722194" lon="11.8413027786">
		<tag k="fixme" v="consider natural=peak for the most distinct mountains in the district" />
		<tag k="name" v="Telefonåsen" />
		<tag k="natural" v="hill" />
		<tag k="place" v="locality" />
		<tag k="ssr:stedsnr" v="297193" />
	</node>
	<node id="-102423" lat="62.498013892" lon="11.1776277721">
		<tag k="name" v="Moan" />
		<tag k="place" v="locality" />
		<tag k="ssr:stedsnr" v="297191" />
	</node>
	<node id="-102421" lat="62.3061194443" lon="11.6872972199">
		<tag k="name" v="Finnskjeggrya" />
		<tag k="place" v="locality" />
		<tag k="ssr:stedsnr" v="297168" />
	</node>
	<node id="-104467" lat="62.5202694415" lon="11.1842305532">
		<tag k="fixme" v="consider natural=peak for the most distinct mountains in the district" />
		<tag k="name" v="Bruåsen" />
		<tag k="natural" v="hill" />
		<tag k="place" v="locality" />
		<tag k="ssr:stedsnr" v="861730" />
	</node>
	<node id="-102413" lat="62.2660388881" lon="11.8038333296">
		<tag k="name" v="Mosturøsta" />
		<tag k="natural" v="hill" />
		<tag k="place" v="locality" />
		<tag k="ssr:stedsnr" v="297028" />
	</node>
	<node id="-102412" lat="62.4718944449" lon="11.067741663">
		<tag k="name" v="Litjåsen" />
		<tag k="natural" v="hill" />
		<tag k="place" v="locality" />
		<tag k="ssr:stedsnr" v="297006" />
	</node>
	<node id="-102410" lat="62.3390250011" lon="11.5701944499">
		<tag k="name" v="Kvitberget" />
		<tag k="natural" v="hill" />
		<tag k="place" v="locality" />
		<tag k="ssr:stedsnr" v="296227" />
	</node>
	<node id="-102406" lat="62.3200527746" lon="11.7342305592">
		<tag k="name" v="Stor-Øybakken" />
		<tag k="natural" v="hill" />
		<tag k="place" v="locality" />
		<tag k="ssr:stedsnr" v="296170" />
	</node>
	<node id="-102405" lat="62.3304416656" lon="11.7109444531">
		<tag k="name" v="Øvre Såttå" />
		<tag k="natural" v="slope" />
		<tag k="place" v="locality" />
		<tag k="ssr:stedsnr" v="296163" />
	</node>
	<node id="-102404" lat="62.5226222258" lon="10.973102773">
		<tag k="name" v="Egga" />
		<tag k="natural" v="hill" />
		<tag k="place" v="locality" />
		<tag k="ssr:stedsnr" v="297632" />
	</node>
	<node id="-102403" lat="62.5317694426" lon="10.9990527868">
		<tag k="name" v="Granbakken" />
		<tag k="natural" v="slope" />
		<tag k="place" v="locality" />
		<tag k="ssr:stedsnr" v="297629" />
	</node>
	<node id="-102401" lat="62.5178222203" lon="10.9868666629">
		<tag k="fixme" v="consider natural=peak for the most distinct mountains in the district" />
		<tag k="name" v="Brøttet" />
		<tag k="natural" v="hill" />
		<tag k="place" v="locality" />
		<tag k="ssr:stedsnr" v="297621" />
	</node>
</osm>
