<?xml version="1.0" encoding="UTF-8"?>
<osm generator="osmapis" version="0.6">
	<node id="-103423" lat="62.4485833348" lon="11.4096333326">
		<tag k="bridge" v="yes" />
		<tag k="layer" v="1" />
		<tag k="name" v="Sagbrua" />
		<tag k="ssr:stedsnr" v="479747" />
	</node>
	<node id="-103933" lat="62.308583334" lon="11.7480944501">
		<tag k="fixme" v="consider highway=path" />
		<tag k="highway" v="track" />
		<tag k="name" v="Hyttvegen" />
		<tag k="ssr:stedsnr" v="660201" />
	</node>
	<node id="-103162" lat="62.46092778" lon="11.16448611">
		<tag k="highway" v="path" />
		<tag k="name" v="Hodals sommerveg" />
		<tag k="ssr:stedsnr" v="176339" />
	</node>
	<node id="-103929" lat="62.3310083363" lon="11.7171166633">
		<tag k="highway" v="path" />
		<tag k="name" v="Såttåvegen" />
		<tag k="ssr:stedsnr" v="660186" />
	</node>
	<node id="-102434" lat="62.3384833361" lon="11.5592749943">
		<tag k="fixme" v="consider highway=path" />
		<tag k="highway" v="track" />
		<tag k="name" v="Gammelvegen" />
		<tag k="ssr:stedsnr" v="297259" />
	</node>
	<node id="-103926" lat="62.5134250017" lon="11.229572218">
		<tag k="bridge" v="yes" />
		<tag k="layer" v="1" />
		<tag k="name" v="Kvernbekk" />
		<tag k="ssr:stedsnr" v="653338" />
	</node>
	<node id="-103028" lat="62.4521555577" lon="11.4258722303">
		<tag k="alt_name" v="Brattfallvaet" />
		<tag k="ford" v="yes" />
		<tag k="name" v="Brattfallvadet" />
		<tag k="place" v="locality" />
		<tag k="ssr:stedsnr" v="115713" />
	</node>
	<node id="-103665" lat="62.3112694415" lon="11.6680250053">
		<tag k="fixme" v="consider highway=path" />
		<tag k="highway" v="track" />
		<tag k="name" v="Gammelvegen" />
		<tag k="ssr:stedsnr" v="540167" />
	</node>
	<node id="-103404" lat="62.5302527805" lon="11.0678166675">
		<tag k="ford" v="yes" />
		<tag k="name" v="Kattvadet" />
		<tag k="place" v="locality" />
		<tag k="ssr:stedsnr" v="479595" />
	</node>
	<node id="-104683" lat="62.4706055591" lon="11.3772999911">
		<tag k="highway" v="path" />
		<tag k="name" v="Gamle Kirkevegen" />
		<tag k="ssr:stedsnr" v="965735" />
	</node>
	<node id="-104549" lat="62.4430833379" lon="11.4465361086">
		<tag k="highway" v="path" />
		<tag k="name" v="Borvegen" />
		<tag k="ssr:stedsnr" v="904706" />
	</node>
	<node id="-103456" lat="62.345347218" lon="11.5438861191">
		<tag k="junction" v="yes" />
		<tag k="name" v="Korsen" />
		<tag k="place" v="locality" />
		<tag k="ssr:stedsnr" v="418480" />
	</node>
	<node id="-104670" lat="62.4557222247" lon="11.1756666693">
		<tag k="highway" v="path" />
		<tag k="name" v="Litjfjellvegen" />
		<tag k="ssr:stedsnr" v="965489" />
	</node>
	<node id="-102805" lat="62.2747249961" lon="11.7161861094">
		<tag k="highway" v="path" />
		<tag k="name" v="Blåvolvegen" />
		<tag k="ssr:stedsnr" v="53219" />
	</node>
	<node id="-102842" lat="62.4689916711" lon="11.055574996">
		<tag k="highway" v="path" />
		<tag k="name" v="Båttjønnvegen" />
		<tag k="ssr:stedsnr" v="55010" />
	</node>
	<node id="-104538" lat="62.4325972238" lon="11.1480777709">
		<tag k="highway" v="path" />
		<tag k="name" v="Hodals sommerveg" />
		<tag k="ssr:stedsnr" v="904509" />
	</node>
	<node id="-103253" lat="62.2806305512" lon="11.7083472166">
		<tag k="highway" v="path" />
		<tag k="name" v="Langtjønnvegen" />
		<tag k="ssr:stedsnr" v="235235" />
	</node>
	<node id="-103506" lat="62.4683277741" lon="11.0360861016">
		<tag k="bridge" v="yes" />
		<tag k="layer" v="1" />
		<tag k="name" v="Hørtkloppa" />
		<tag k="ssr:stedsnr" v="419684" />
	</node>
	<node id="-103248" lat="62.186272224" lon="11.7502250067">
		<tag k="bridge" v="yes" />
		<tag k="layer" v="1" />
		<tag k="name" v="Kvenna" />
		<tag k="ssr:stedsnr" v="228377" />
	</node>
	<node id="-104271" lat="62.4407083351" lon="11.4390416742">
		<tag k="highway" v="path" />
		<tag k="name" v="Hestrøstvegen" />
		<tag k="ssr:stedsnr" v="783728" />
	</node>
	<node id="-104270" lat="62.4472777808" lon="11.4510722246">
		<tag k="highway" v="path" />
		<tag k="name" v="Midtvegen" />
		<tag k="ssr:stedsnr" v="783726" />
	</node>
	<node id="-104396" lat="62.3206305585" lon="11.5849138807">
		<tag k="highway" v="path" />
		<tag k="name" v="Hollstien" />
		<tag k="ssr:stedsnr" v="844308" />
	</node>
	<node id="-102987" lat="62.3141138893" lon="11.6847194417">
		<tag k="highway" v="path" />
		<tag k="name" v="Sjøvegen" />
		<tag k="ssr:stedsnr" v="115169" />
	</node>
	<node id="-102730" lat="62.3329638898" lon="11.5395750081">
		<tag k="bridge" v="yes" />
		<tag k="layer" v="1" />
		<tag k="name" v="Litjnørbrua" />
		<tag k="ssr:stedsnr" v="479250" />
	</node>
	<node id="-104009" lat="62.3872194481" lon="11.455008326">
		<tag k="highway" v="path" />
		<tag k="name" v="Kjerkvegen" />
		<tag k="ssr:stedsnr" v="661808" />
	</node>
	<node id="-103624" lat="62.347783331" lon="11.5570444519">
		<tag k="fixme" v="consider highway=path" />
		<tag k="highway" v="track" />
		<tag k="name" v="Hallvegen" />
		<tag k="ssr:stedsnr" v="539468" />
	</node>
	<node id="-104262" lat="62.4385999996" lon="11.1305416592">
		<tag k="bridge" v="yes" />
		<tag k="layer" v="1" />
		<tag k="name" v="Sagkloppa" />
		<tag k="ssr:stedsnr" v="783688" />
	</node>
	<node id="-104131" lat="62.4153305575" lon="11.4415111068">
		<tag k="highway" v="path" />
		<tag k="name" v="Østre Åsvegen" />
		<tag k="ssr:stedsnr" v="722850" />
	</node>
	<node id="-103106" lat="62.2771222217" lon="11.7059388852">
		<tag k="highway" v="path" />
		<tag k="name" v="Fjellvegen" />
		<tag k="ssr:stedsnr" v="175210" />
	</node>
	<node id="-102593" lat="62.4758499983" lon="11.2922416749">
		<tag k="highway" v="path" />
		<tag k="name" v="Åsvegen" />
		<tag k="ssr:stedsnr" v="358524" />
	</node>
	<node id="-103104" lat="62.5754694437" lon="11.1350250059">
		<tag k="highway" v="path" />
		<tag k="name" v="Per Nilsaveien" />
		<tag k="ssr:stedsnr" v="175049" />
	</node>
	<node id="-104639" lat="62.5919527742" lon="11.1098166685">
		<tag k="highway" v="path" />
		<tag k="name" v="Gamle Kjurrudalsvei" />
		<tag k="ssr:stedsnr" v="964904" />
	</node>
	<node id="-103995" lat="62.4519861155" lon="11.4415222263">
		<tag k="highway" v="path" />
		<tag k="name" v="Korssjøvegen" />
		<tag k="ssr:stedsnr" v="661690" />
	</node>
	<node id="-103866" lat="62.4218972228" lon="11.441688887">
		<tag k="highway" v="path" />
		<tag k="name" v="Nordre Åsvegen" />
		<tag k="ssr:stedsnr" v="600827" />
	</node>
	<node id="-102585" lat="62.4790972211" lon="11.1344111133">
		<tag k="highway" v="path" />
		<tag k="name" v="Strandvegen" />
		<tag k="ssr:stedsnr" v="358347" />
	</node>
	<node id="-102455" lat="62.4272944435" lon="11.1738611139">
		<tag k="highway" v="path" />
		<tag k="name" v="Fjellvegen" />
		<tag k="ssr:stedsnr" v="297497" />
	</node>
	<node id="-102582" lat="62.4795000003" lon="11.1590611192">
		<tag k="highway" v="path" />
		<tag k="name" v="Bråttvegen" />
		<tag k="ssr:stedsnr" v="358325" />
	</node>
	<node id="-104117" lat="62.4415055582" lon="11.1363138929">
		<tag k="fixme" v="consider highway=path" />
		<tag k="highway" v="track" />
		<tag k="name" v="Korsvegen" />
		<tag k="ssr:stedsnr" v="722712" />
	</node>
	<node id="-103092" lat="62.5073499999" lon="11.2638611076">
		<tag k="landuse" v="industrial" />
		<tag k="name" v="Røstefossen Kraftverk" />
		<tag k="power" v="plant" />
		<tag k="ssr:stedsnr" v="140797" />
	</node>
	<node id="-102963" lat="62.4767694461" lon="11.1788749963">
		<tag k="bridge" v="yes" />
		<tag k="layer" v="1" />
		<tag k="name" v="Stormyrundergangen" />
		<tag k="ssr:stedsnr" v="115344" />
	</node>
	<node id="-102706" lat="62.4635083355" lon="11.0876250005">
		<tag k="highway" v="path" />
		<tag k="name" v="Kjerklivegen" />
		<tag k="ssr:stedsnr" v="479003" />
	</node>
	<node id="-103342" lat="62.598758331" lon="11.1544666659">
		<tag k="alt_name" v="Gammel Kjurrudalsvei" />
		<tag k="highway" v="path" />
		<tag k="name" v="Gamle Kjurrudalsvei" />
		<tag k="ssr:stedsnr" v="237988" />
	</node>
	<node id="-103341" lat="62.5990888867" lon="11.1605055521">
		<tag k="highway" v="path" />
		<tag k="name" v="Fjellveien" />
		<tag k="ssr:stedsnr" v="237989" />
	</node>
	<node id="-102572" lat="62.3011944456" lon="11.694986109">
		<tag k="highway" v="path" />
		<tag k="name" v="Langrabbvegen" />
		<tag k="ssr:stedsnr" v="358168" />
	</node>
	<node id="-103497" lat="62.3252583315" lon="11.5880944503">
		<tag k="highway" v="path" />
		<tag k="name" v="Hollstien" />
		<tag k="ssr:stedsnr" v="419332" />
	</node>
	<node id="-103081" lat="62.4973290758" lon="11.2273516438">
		<tag k="name" v="Os stasjon" />
		<tag k="railway" v="station" />
		<tag k="ssr:stedsnr" v="133288" />
		<tag k="train" v="yes" />
	</node>
	<node id="-102951" lat="62.2041611139" lon="11.7923388825">
		<tag k="bridge" v="yes" />
		<tag k="layer" v="1" />
		<tag k="name" v="Nordre Lilleåen" />
		<tag k="ssr:stedsnr" v="107350" />
	</node>
	<node id="-103860" lat="62.5140388911" lon="11.2416638979">
		<tag k="highway" v="path" />
		<tag k="name" v="Stamphusveien" />
		<tag k="ssr:stedsnr" v="600722" />
	</node>
	<node id="-102692" lat="62.3345750035" lon="11.5847361028">
		<tag k="highway" v="path" />
		<tag k="name" v="Vintervegen" />
		<tag k="ssr:stedsnr" v="479332" />
	</node>
	<node id="-104354" lat="62.3494694479" lon="11.5776722254">
		<tag k="fixme" v="consider highway=path" />
		<tag k="highway" v="track" />
		<tag k="name" v="Sætervegen" />
		<tag k="ssr:stedsnr" v="843501" />
	</node>
	<node id="-104481" lat="62.3154000013" lon="11.7162166655">
		<tag k="highway" v="path" />
		<tag k="name" v="Fjellrovegen" />
		<tag k="ssr:stedsnr" v="903178" />
	</node>
	<node id="-103840" lat="62.4638166636" lon="11.2993972166">
		<tag k="highway" v="path" />
		<tag k="name" v="Måssåvegen" />
		<tag k="ssr:stedsnr" v="600488" />
	</node>
	<node id="-102428" lat="62.5356305549" lon="11.1477222287">
		<tag k="highway" v="path" />
		<tag k="name" v="Gamle Sætersjøveien" />
		<tag k="ssr:stedsnr" v="297229" />
	</node>
	<node id="-103834" lat="62.4758527817" lon="11.1458055485">
		<tag k="highway" v="path" />
		<tag k="name" v="Meliesvegen" />
		<tag k="ssr:stedsnr" v="600344" />
	</node>
	<node id="-103448" lat="62.1815722204" lon="11.8462055627">
		<tag k="highway" v="path" />
		<tag k="name" v="Postvegen" />
		<tag k="ssr:stedsnr" v="418198" />
	</node>
	<node id="-103829" lat="62.3206305585" lon="11.5849138807">
		<tag k="highway" v="path" />
		<tag k="name" v="Kvilvangstien" />
		<tag k="ssr:stedsnr" v="600315" />
	</node>
	<node id="-102800" lat="62.3330694448" lon="11.5396138811">
		<tag k="bridge" v="yes" />
		<tag k="layer" v="1" />
		<tag k="name" v="Vesle Nøra bru" />
		<tag k="ssr:stedsnr" v="46365" />
	</node>
	<node id="-102808" lat="62.5854694415" lon="11.1881916589">
		<tag k="highway" v="path" />
		<tag k="name" v="Plassvegen" />
		<tag k="ssr:stedsnr" v="54084" />
	</node>
	<node id="-103309" lat="62.3392916701" lon="11.5543361137">
		<tag k="highway" v="path" />
		<tag k="name" v="Stien" />
		<tag k="ssr:stedsnr" v="237253" />
	</node>
	<node id="-103948" lat="62.2445694488" lon="11.8021027719">
		<tag k="highway" v="path" />
		<tag k="name" v="Langrøstvegen" />
		<tag k="ssr:stedsnr" v="661042" />
	</node>
	<node id="-102409" lat="62.3124138851" lon="11.7147666741">
		<tag k="highway" v="path" />
		<tag k="name" v="Øvre Sætervegen" />
		<tag k="ssr:stedsnr" v="296201" />
	</node>
	<node id="-103939" lat="62.3060499972" lon="11.7224833352">
		<tag k="junction" v="yes" />
		<tag k="name" v="Mobakken" />
		<tag k="place" v="locality" />
		<tag k="ssr:stedsnr" v="660240" />
	</node>
	<node id="-103426" lat="62.6141194471" lon="11.1480861145">
		<tag k="highway" v="path" />
		<tag k="name" v="Gammelengveien" />
		<tag k="ssr:stedsnr" v="479818" />
	</node>
	<node id="-104065" lat="62.4260361122" lon="11.1603333327">
		<tag k="highway" v="path" />
		<tag k="name" v="Nommerlinja" />
		<tag k="ssr:stedsnr" v="721498" />
	</node>
</osm>
