<?xml version="1.0" encoding="UTF-8"?>
<osm generator="osmapis" version="0.6">
	<node id="-305183" lat="58.7650305534" lon="8.48479445032">
		<tag k="name" v="Åmli kommune" />
		<tag k="ssr:date" v="2016-05-10" />
		<tag k="ssr:gruppe" v="administrativeIndelinger" />
		<tag k="ssr:hovedgruppe" v="offentligAdministrasjon" />
		<tag k="ssr:stedsnr" v="631247" />
		<tag k="ssr:type" v="kommune" />
	</node>
	<node id="-302172" lat="58.7402444432" lon="8.26511388755">
		<tag k="name" v="Vestskogvegen" />
		<tag k="ssr:date" v="2016-05-10" />
		<tag k="ssr:gruppe" v="veg" />
		<tag k="ssr:hovedgruppe" v="infrastruktur" />
		<tag k="ssr:stedsnr" v="354344" />
		<tag k="ssr:type" v="vegstrekning" />
	</node>
	<node id="-302171" lat="58.9430861152" lon="8.18490554685">
		<tag k="name" v="Øyktedalsvegen" />
		<tag k="ssr:date" v="2016-05-10" />
		<tag k="ssr:gruppe" v="veg" />
		<tag k="ssr:hovedgruppe" v="infrastruktur" />
		<tag k="ssr:stedsnr" v="354269" />
		<tag k="ssr:type" v="vegstrekning" />
	</node>
	<node id="-303289" lat="58.7088666669" lon="8.31158333711">
		<tag k="name" v="Øykilvegen" />
		<tag k="ssr:date" v="2016-05-10" />
		<tag k="ssr:gruppe" v="veg" />
		<tag k="ssr:hovedgruppe" v="infrastruktur" />
		<tag k="ssr:stedsnr" v="112589" />
		<tag k="ssr:type" v="vegstrekning" />
	</node>
	<node id="-302808" lat="58.7601166653" lon="8.50966111035">
		<tag k="name" v="Fjellvegen" />
		<tag k="ssr:date" v="2016-05-10" />
		<tag k="ssr:gruppe" v="veg" />
		<tag k="ssr:hovedgruppe" v="infrastruktur" />
		<tag k="ssr:stedsnr" v="31231" />
		<tag k="ssr:type" v="vegstrekning" />
	</node>
	<node id="-304851" lat="58.8981722231" lon="8.53806665828">
		<tag k="name" v="Tjønnveien" />
		<tag k="ssr:date" v="2016-05-10" />
		<tag k="ssr:gruppe" v="veg" />
		<tag k="ssr:hovedgruppe" v="infrastruktur" />
		<tag k="ssr:stedsnr" v="577045" />
		<tag k="ssr:type" v="vegstrekning" />
	</node>
	<node id="-304883" lat="58.7665944415" lon="8.54517500236">
		<tag k="name" v="Ljosvassvegen" />
		<tag k="ssr:date" v="2016-05-10" />
		<tag k="ssr:gruppe" v="veg" />
		<tag k="ssr:hovedgruppe" v="infrastruktur" />
		<tag k="ssr:stedsnr" v="577243" />
		<tag k="ssr:type" v="vegstrekning" />
	</node>
	<node id="-305615" lat="58.7086499983" lon="8.35067777839">
		<tag k="name" v="Krokstevegen" />
		<tag k="ssr:date" v="2016-05-11" />
		<tag k="ssr:gruppe" v="veg" />
		<tag k="ssr:hovedgruppe" v="infrastruktur" />
		<tag k="ssr:stedsnr" v="700426" />
		<tag k="ssr:type" v="vegstrekning" />
	</node>
	<node id="-306924" lat="58.7569583377" lon="8.56962499755">
		<tag k="name" v="Rotevegen" />
		<tag k="ssr:date" v="2016-05-11" />
		<tag k="ssr:gruppe" v="veg" />
		<tag k="ssr:hovedgruppe" v="infrastruktur" />
		<tag k="ssr:stedsnr" v="942346" />
		<tag k="ssr:type" v="vegstrekning" />
	</node>
	<node id="-305025" lat="58.7355999998" lon="8.21585000379">
		<tag k="name" v="Vågsdalsvegen" />
		<tag k="ssr:date" v="2016-05-10" />
		<tag k="ssr:gruppe" v="veg" />
		<tag k="ssr:hovedgruppe" v="infrastruktur" />
		<tag k="ssr:stedsnr" v="597013" />
		<tag k="ssr:type" v="vegstrekning" />
	</node>
</osm>
