<?xml version="1.0" encoding="UTF-8"?>
<osm version="0.6" generator="osmapis">
	<node id="9088805933" lat="61.2269722" lon="7.6834445" version="1" timestamp="2021-09-13T18:00:46Z" changeset="111158738" uid="435265" user="Ansgar G Grimsrud">
		<tag k="bay" v="fjord" />
		<tag k="name" v="Årdalsfjorden" />
		<tag k="natural" v="bay" />
		<tag k="ssr:stedsnr" v="859298" />
	</node>
	<node id="9088871434" lat="61.1711212" lon="7.5992522" version="1" timestamp="2021-09-13T18:16:15Z" changeset="111159385" uid="435265" user="Ansgar G Grimsrud">
		<tag k="name" v="Fosse" />
		<tag k="place" v="isolated_dwelling" />
		<tag k="ssr:date" v="2019-12-27" />
		<tag k="ssr:gruppe" v="bolighus" />
		<tag k="ssr:hovedgruppe" v="bebyggelse" />
		<tag k="ssr:stedsnr" v="494980" />
		<tag k="ssr:type" v="fritidsbolig" />
	</node>
	<node id="9088871452" lat="61.1470374" lon="7.7602383" version="1" timestamp="2021-09-13T18:16:15Z" changeset="111159385" uid="435265" user="Ansgar G Grimsrud">
		<tag k="name" v="Kolsmork" />
		<tag k="place" v="isolated_dwelling" />
		<tag k="ssr:date" v="2019-12-27" />
		<tag k="ssr:gruppe" v="bolighus" />
		<tag k="ssr:hovedgruppe" v="bebyggelse" />
		<tag k="ssr:stedsnr" v="798945" />
		<tag k="ssr:type" v="fritidsbolig" />
	</node>
	<node id="9088871458" lat="61.1223767" lon="7.6499415" version="1" timestamp="2021-09-13T18:16:15Z" changeset="111159385" uid="435265" user="Ansgar G Grimsrud">
		<tag k="name" v="Brøyni" />
		<tag k="place" v="isolated_dwelling" />
		<tag k="ssr:date" v="2019-12-27" />
		<tag k="ssr:gruppe" v="bolighus" />
		<tag k="ssr:hovedgruppe" v="bebyggelse" />
		<tag k="ssr:stedsnr" v="859510" />
		<tag k="ssr:type" v="eneboligMindreBoligbygg" />
	</node>
	<node id="9088871460" lat="61.2143272" lon="7.7407771" version="1" timestamp="2021-09-13T18:16:15Z" changeset="111159385" uid="435265" user="Ansgar G Grimsrud">
		<tag k="name" v="Sluten" />
		<tag k="place" v="isolated_dwelling" />
		<tag k="ssr:date" v="2019-12-27" />
		<tag k="ssr:gruppe" v="bolighus" />
		<tag k="ssr:hovedgruppe" v="bebyggelse" />
		<tag k="ssr:stedsnr" v="70851" />
		<tag k="ssr:type" v="fritidsbolig" />
	</node>
</osm>
