<?xml version="1.0" encoding="UTF-8"?>
<osm generator="osmapis" version="0.6">
	<node id="-484672" lat="60.6359361108" lon="4.80753332777">
		<tag k="name" v="Trollevatnet" />
		<tag k="natural" v="water" />
		<tag k="ssr:stedsnr" v="552625" />
	</node>
	<node id="-484856" lat="60.5992619402" lon="4.81953773536">
		<tag k="name" v="Barbustekkvatnet" />
		<tag k="natural" v="water" />
		<tag k="ssr:stedsnr" v="712275" />
		<tag k="water" v="lake" />
	</node>
	<node id="-484983" lat="60.5500460419" lon="4.86945281233">
		<tag k="name" v="Trondalsvatnet" />
		<tag k="natural" v="water" />
		<tag k="ssr:stedsnr" v="795735" />
	</node>
	<node id="-483958" lat="60.5287944483" lon="4.88978333368">
		<tag k="name" v="Stora Kvernevatnet" />
		<tag k="natural" v="water" />
		<tag k="ssr:stedsnr" v="349832" />
		<tag k="water" v="lake" />
	</node>
	<node id="-484852" lat="60.6138222188" lon="4.80700555921">
		<tag k="name" v="Storneset" />
		<tag k="natural" v="cape" />
		<tag k="ssr:stedsnr" v="712248" />
	</node>
	<node id="-484977" lat="60.6186283978" lon="4.83461170909">
		<tag k="name" v="Sturevatnet" />
		<tag k="natural" v="water" />
		<tag k="ssr:stedsnr" v="795631" />
	</node>
	<node id="-484591" lat="60.6085527813" lon="4.81100276885">
		<tag k="name" v="Storavatnet" />
		<tag k="natural" v="water" />
		<tag k="ssr:stedsnr" v="491554" />
		<tag k="water" v="lake" />
	</node>
	<node id="-484461" lat="60.6127995878" lon="4.81142380128">
		<tag k="name" v="Stekketjørna" />
		<tag k="natural" v="water" />
		<tag k="ssr:stedsnr" v="228210" />
	</node>
	<node id="-484458" lat="60.6477138346" lon="4.80001417287">
		<tag k="name" v="Stakksskartjørna" />
		<tag k="natural" v="water" />
		<tag k="ssr:stedsnr" v="228173" />
	</node>
	<node id="-484135" lat="60.6032862487" lon="4.81486760589">
		<tag k="name" v="Dalsvatnet" />
		<tag k="natural" v="water" />
		<tag k="ssr:stedsnr" v="6569" />
	</node>
	<node id="-484968" lat="60.4655814384" lon="4.95323152092">
		<tag k="name" v="Stegeviksvatnet" />
		<tag k="natural" v="water" />
		<tag k="ssr:stedsnr" v="794226" />
	</node>
	<node id="-484166" lat="60.6507328543" lon="4.80503322299">
		<tag k="name" v="Stakkstjørna" />
		<tag k="natural" v="water" />
		<tag k="ssr:stedsnr" v="45176" />
	</node>
	<node id="-484835" lat="60.5469759187" lon="4.8746193139">
		<tag k="name" v="Heiavatnet" />
		<tag k="natural" v="water" />
		<tag k="ssr:stedsnr" v="674736" />
	</node>
	<node id="-484667" lat="60.6008438957" lon="4.83034641602">
		<tag k="alt_name" v="Tjeldstøvatnet" />
		<tag k="name" v="Rotevatnet" />
		<tag k="natural" v="water" />
		<tag k="ssr:stedsnr" v="552604" />
	</node>
	<node id="-484703" lat="60.614605558" lon="4.80599722063">
		<tag k="name" v="Trongen" />
		<tag k="natural" v="bay" />
		<tag k="ssr:stedsnr" v="590770" />
	</node>
	<node id="-484574" lat="60.6298055548" lon="4.8203250041">
		<tag k="name" v="Mækvatnet" />
		<tag k="natural" v="water" />
		<tag k="ssr:stedsnr" v="470857" />
		<tag k="water" v="lake" />
	</node>
	<node id="-483932" lat="60.4824194405" lon="4.94078611454">
		<tag k="name" v="Kvernebekken" />
		<tag k="ssr:stedsnr" v="348477" />
		<tag k="waterway" v="stream" />
	</node>
	<node id="-484827" lat="60.5586944803" lon="4.84344034285">
		<tag k="name" v="Vardheivatnet" />
		<tag k="natural" v="water" />
		<tag k="ssr:stedsnr" v="674509" />
	</node>
	<node id="-484185" lat="60.6260015263" lon="4.84825539085">
		<tag k="name" v="Stekketjørna" />
		<tag k="natural" v="water" />
		<tag k="ssr:stedsnr" v="45857" />
	</node>
	<node id="-484055" lat="60.5603472257" lon="4.8348000065">
		<tag k="name" v="Stemmevatnet" />
		<tag k="natural" v="water" />
		<tag k="ssr:stedsnr" v="895015" />
		<tag k="water" v="lake" />
	</node>
	<node id="-484950" lat="60.6102027816" lon="4.81015555401">
		<tag k="name" v="Gardsneset" />
		<tag k="natural" v="cape" />
		<tag k="ssr:stedsnr" v="774218" />
	</node>
	<node id="-484431" lat="60.569324999" lon="4.85081111873">
		<tag k="name" v="Røyrevatnet" />
		<tag k="natural" v="water" />
		<tag k="ssr:stedsnr" v="227030" />
		<tag k="water" v="lake" />
	</node>
	<node id="-484046" lat="60.4887111121" lon="4.93672777138">
		<tag k="name" v="Kvernevatnet" />
		<tag k="natural" v="water" />
		<tag k="ssr:stedsnr" v="410816" />
		<tag k="water" v="lake" />
	</node>
	<node id="-484044" lat="60.5773833301" lon="4.86496110561">
		<tag k="name" v="Kupa" />
		<tag k="natural" v="water" />
		<tag k="ssr:stedsnr" v="410479" />
		<tag k="water" v="lake" />
	</node>
	<node id="-483970" lat="60.5552176681" lon="4.87590731722">
		<tag k="name" v="Hellevatnet" />
		<tag k="natural" v="water" />
		<tag k="ssr:stedsnr" v="370563" />
	</node>
	<node id="-484554" lat="60.6198749957" lon="4.81822500633">
		<tag k="name" v="Gåsetjørna" />
		<tag k="natural" v="water" />
		<tag k="ssr:stedsnr" v="470192" />
		<tag k="water" v="lake" />
	</node>
	<node id="-484937" lat="60.597190508" lon="4.82217207468">
		<tag k="name" v="Illetjørna" />
		<tag k="natural" v="water" />
		<tag k="ssr:stedsnr" v="773322" />
	</node>
	<node id="-484936" lat="60.5698999998" lon="4.81206388936">
		<tag k="name" v="Kledvatnet" />
		<tag k="natural" v="water" />
		<tag k="ssr:stedsnr" v="773109" />
		<tag k="water" v="lake" />
	</node>
	<node id="-484294" lat="60.4799452606" lon="4.9540984506">
		<tag k="name" v="Midtvatnet" />
		<tag k="natural" v="water" />
		<tag k="ssr:stedsnr" v="126222" />
	</node>
	<node id="-484038" lat="60.607797224" lon="4.80724167547">
		<tag k="name" v="Lisneset" />
		<tag k="natural" v="cape" />
		<tag k="ssr:stedsnr" v="410205" />
	</node>
	<node id="-484547" lat="60.585058337" lon="4.85671110475">
		<tag k="name" v="Straumøyvatnet" />
		<tag k="natural" v="water" />
		<tag k="ssr:stedsnr" v="470135" />
		<tag k="water" v="lake" />
	</node>
	<node id="-484674" lat="60.6320648648" lon="4.80564207199">
		<tag k="name" v="Stølevatnet" />
		<tag k="natural" v="water" />
		<tag k="ssr:stedsnr" v="552627" />
	</node>
	<node id="-485056" lat="60.5483749979" lon="4.84628888722">
		<tag k="name" v="Kollsnesvatnet" />
		<tag k="natural" v="water" />
		<tag k="ssr:stedsnr" v="856577" />
	</node>
	<node id="-484285" lat="60.6112722259" lon="4.79879166244">
		<tag k="name" v="Vassholmen" />
		<tag k="place" v="islet" />
		<tag k="ssr:stedsnr" v="107187" />
	</node>
	<node id="-485051" lat="60.5723498276" lon="4.85849552958">
		<tag k="name" v="Stølevatnet" />
		<tag k="natural" v="water" />
		<tag k="ssr:stedsnr" v="856561" />
	</node>
	<node id="-484026" lat="60.4748138861" lon="4.96069722301">
		<tag k="name" v="Kvernhuselva" />
		<tag k="ssr:stedsnr" v="409493" />
		<tag k="waterway" v="river" />
	</node>
	<node id="-483897" lat="60.5967520562" lon="4.83626598593">
		<tag k="name" v="Husvatnet" />
		<tag k="natural" v="water" />
		<tag k="ssr:stedsnr" v="310034" />
	</node>
	<node id="-484191" lat="60.616149404" lon="4.83129492389">
		<tag k="name" v="Inste Tjørna" />
		<tag k="natural" v="water" />
		<tag k="ssr:stedsnr" v="46194" />
	</node>
	<node id="-484406" lat="60.5423605091" lon="4.87495989026">
		<tag k="name" v="Åmundsvatnet" />
		<tag k="natural" v="water" />
		<tag k="ssr:stedsnr" v="188754" />
	</node>
	<node id="-484041" lat="60.5905972182" lon="4.7983083382">
		<tag k="name" v="Brurevatnet" />
		<tag k="natural" v="water" />
		<tag k="ssr:stedsnr" v="410215" />
		<tag k="water" v="lake" />
	</node>
	<node id="-485043" lat="60.48806001" lon="4.95207538572">
		<tag k="name" v="Orrdalsvatnet" />
		<tag k="natural" v="water" />
		<tag k="ssr:stedsnr" v="855228" />
	</node>
	<node id="-484015" lat="60.5398357685" lon="4.87470705445">
		<tag k="name" v="Korevatnet" />
		<tag k="natural" v="water" />
		<tag k="ssr:stedsnr" v="409057" />
		<tag k="water" v="lake" />
	</node>
	<node id="-484268" lat="60.4708001676" lon="4.95055632951">
		<tag k="name" v="Søgardsvatnet" />
		<tag k="natural" v="water" />
		<tag k="ssr:stedsnr" v="106807" />
		<tag k="water" v="lake" />
	</node>
	<node id="-484651" lat="60.6243462183" lon="4.81808110015">
		<tag k="name" v="Hattetjørna" />
		<tag k="natural" v="water" />
		<tag k="ssr:stedsnr" v="531876" />
	</node>
	<node id="-484263" lat="60.6105194465" lon="4.81428056271">
		<tag k="name" v="Skjoldåna" />
		<tag k="ssr:stedsnr" v="106470" />
		<tag k="waterway" v="stream" />
	</node>
	<node id="-484134" lat="60.5406411502" lon="4.86707412032">
		<tag k="name" v="Steinsvatnet" />
		<tag k="natural" v="water" />
		<tag k="ssr:stedsnr" v="6561" />
	</node>
	<node id="-484517" lat="60.6431057852" lon="4.81499897329">
		<tag k="name" v="Hjelmevatnet" />
		<tag k="natural" v="water" />
		<tag k="ssr:stedsnr" v="431590" />
		<tag k="water" v="lake" />
	</node>
	<node id="-484899" lat="60.5530212969" lon="4.84117743814">
		<tag k="name" v="Søra Rotevatnet" />
		<tag k="natural" v="water" />
		<tag k="ssr:stedsnr" v="734579" />
	</node>
	<node id="-484072" lat="60.6465013439" lon="4.80135648372">
		<tag k="name" v="Lomtjørna" />
		<tag k="natural" v="water" />
		<tag k="ssr:stedsnr" v="895168" />
	</node>
	<node id="-484315" lat="60.5466058804" lon="4.88953256418">
		<tag k="name" v="Ljøsnesvatnet" />
		<tag k="natural" v="water" />
		<tag k="ssr:stedsnr" v="127758" />
	</node>
	<node id="-485150" lat="60.6149661705" lon="4.82800177124">
		<tag k="name" v="Ytste Tjørna" />
		<tag k="natural" v="water" />
		<tag k="ssr:stedsnr" v="956208" />
	</node>
	<node id="-483869" lat="60.6291805526" lon="4.80278888467">
		<tag k="name" v="Parisvatnet" />
		<tag k="natural" v="water" />
		<tag k="ssr:stedsnr" v="288849" />
		<tag k="water" v="lake" />
	</node>
	<node id="-485020" lat="60.6559762421" lon="4.8050078742">
		<tag k="name" v="Brutjørna" />
		<tag k="natural" v="water" />
		<tag k="ssr:stedsnr" v="835178" />
	</node>
	<node id="-484507" lat="60.476184943" lon="4.9541740197">
		<tag k="alt_name" v="Norlavatnet" />
		<tag k="name" v="Nordlavatnet" />
		<tag k="natural" v="water" />
		<tag k="ssr:stedsnr" v="430235" />
	</node>
	<node id="-484377" lat="60.5327888405" lon="4.89031789428">
		<tag k="name" v="Blomvatnet" />
		<tag k="natural" v="water" />
		<tag k="ssr:stedsnr" v="167820" />
		<tag k="water" v="lake" />
	</node>
	<node id="-484248" lat="60.6541684148" lon="4.80000500439">
		<tag k="name" v="Selkartjørna" />
		<tag k="natural" v="water" />
		<tag k="ssr:stedsnr" v="106178" />
		<tag k="water" v="lake" />
	</node>
	<node id="-484886" lat="60.6325486062" lon="4.83981063689">
		<tag k="name" v="Midttjørna" />
		<tag k="natural" v="water" />
		<tag k="ssr:stedsnr" v="713859" />
	</node>
	<node id="-484626" lat="60.5653583314" lon="4.85791111058">
		<tag k="name" v="Hildalsvatnet" />
		<tag k="natural" v="water" />
		<tag k="ssr:stedsnr" v="530975" />
		<tag k="water" v="lake" />
	</node>
	<node id="-485007" lat="60.5692916652" lon="4.8050750079">
		<tag k="name" v="Smågardsvatnet" />
		<tag k="natural" v="water" />
		<tag k="ssr:stedsnr" v="834114" />
		<tag k="water" v="lake" />
	</node>
	<node id="-484237" lat="60.5709611071" lon="4.85538888119">
		<tag k="name" v="Vardevatnet" />
		<tag k="natural" v="water" />
		<tag k="ssr:stedsnr" v="106022" />
		<tag k="water" v="lake" />
	</node>
	<node id="-485003" lat="60.6210472193" lon="4.80796666587">
		<tag k="name" v="Søre Skjoldpollen" />
		<tag k="natural" v="bay" />
		<tag k="ssr:stedsnr" v="834045" />
	</node>
	<node id="-483846" lat="60.6176072629" lon="4.81011406724">
		<tag k="name" v="Svartetjørna" />
		<tag k="natural" v="water" />
		<tag k="ssr:stedsnr" v="288209" />
	</node>
	<node id="-483971" lat="60.5970262582" lon="4.81360914909">
		<tag k="name" v="Alvheimsvatnet" />
		<tag k="natural" v="water" />
		<tag k="ssr:stedsnr" v="370565" />
	</node>
	<node id="-484866" lat="60.6529942868" lon="4.80713280201">
		<tag k="name" v="Badetjørna" />
		<tag k="natural" v="water" />
		<tag k="ssr:stedsnr" v="713175" />
	</node>
	<node id="-484040" lat="60.5929388896" lon="4.80553333648">
		<tag k="name" v="Musevatnet" />
		<tag k="natural" v="water" />
		<tag k="ssr:stedsnr" v="410211" />
		<tag k="water" v="lake" />
	</node>
</osm>
