<?xml version="1.0" encoding="UTF-8"?>
<osm generator="osmapis" version="0.6">
	<node id="-484864" lat="60.5854527746" lon="4.86057778354">
		<tag k="fixme" v="consider natural=peak for the most distinct mountains in the district" />
		<tag k="name" v="Straumøyvarden" />
		<tag k="natural" v="hill" />
		<tag k="ssr:stedsnr" v="106159" />
	</node>
	<node id="-485372" lat="60.6204694457" lon="4.79878888493">
		<tag k="fixme" v="consider natural=peak for the most distinct mountains in the district" />
		<tag k="name" v="Mehøyen" />
		<tag k="natural" v="hill" />
		<tag k="place" v="locality" />
		<tag k="ssr:stedsnr" v="613569" />
	</node>
	<node id="-484859" lat="60.5406805528" lon="4.88434999647">
		<tag k="fixme" v="consider natural=peak for the most distinct mountains in the district" />
		<tag k="name" v="Åsen" />
		<tag k="natural" v="hill" />
		<tag k="place" v="locality" />
		<tag k="ssr:stedsnr" v="106042" />
	</node>
	<node id="-484857" lat="60.5627083358" lon="4.82964167295">
		<tag k="name" v="Svensterhøyen" />
		<tag k="natural" v="hill" />
		<tag k="place" v="locality" />
		<tag k="ssr:stedsnr" v="106019" />
	</node>
	<node id="-484855" lat="60.4806611069" lon="4.93140556152">
		<tag k="name" v="Torvhaugen" />
		<tag k="natural" v="hill" />
		<tag k="old_name" v="Janhaugen" />
		<tag k="place" v="locality" />
		<tag k="ssr:stedsnr" v="105989" />
	</node>
	<node id="-484846" lat="60.4898972248" lon="4.88002777529">
		<tag k="name" v="Kletten" />
		<tag k="natural" v="hill" />
		<tag k="place" v="locality" />
		<tag k="ssr:stedsnr" v="85997" />
	</node>
	<node id="-485353" lat="60.4888305514" lon="4.95718054843">
		<tag k="name" v="Anekletten" />
		<tag k="natural" v="hill" />
		<tag k="place" v="locality" />
		<tag k="ssr:stedsnr" v="611218" />
	</node>
	<node id="-485337" lat="60.6135611091" lon="4.81466389526">
		<tag k="name" v="Høghøyen" />
		<tag k="natural" v="hill" />
		<tag k="place" v="locality" />
		<tag k="ssr:stedsnr" v="591198" />
	</node>
	<node id="-485335" lat="60.6313416636" lon="4.79082222856">
		<tag k="name" v="Vardneshøyen" />
		<tag k="natural" v="hill" />
		<tag k="place" v="locality" />
		<tag k="ssr:stedsnr" v="591147" />
	</node>
	<node id="-484816" lat="60.6282055565" lon="4.80306388637">
		<tag k="name" v="Parishaugen" />
		<tag k="natural" v="hill" />
		<tag k="place" v="locality" />
		<tag k="ssr:stedsnr" v="46875" />
	</node>
	<node id="-484808" lat="60.5248138898" lon="4.90189444136">
		<tag k="name" v="Sælevågsdalen" />
		<tag k="natural" v="valley" />
		<tag k="place" v="locality" />
		<tag k="ssr:stedsnr" v="45975" />
	</node>
	<node id="-484805" lat="60.6339833316" lon="4.81258332455">
		<tag k="name" v="Storhelleren" />
		<tag k="place" v="locality" />
		<tag k="ssr:stedsnr" v="45846" />
	</node>
	<node id="-484800" lat="60.4947944402" lon="4.91682499351">
		<tag k="name" v="Hesthaugen" />
		<tag k="natural" v="hill" />
		<tag k="place" v="locality" />
		<tag k="ssr:stedsnr" v="45815" />
	</node>
	<node id="-484797" lat="60.4674000013" lon="4.94413889078">
		<tag k="fixme" v="consider natural=peak for the most distinct mountains in the district" />
		<tag k="name" v="Stegeviksåsen" />
		<tag k="natural" v="hill" />
		<tag k="place" v="locality" />
		<tag k="ssr:stedsnr" v="45790" />
	</node>
	<node id="-485305" lat="60.6206499997" lon="4.82721110527">
		<tag k="name" v="Sjonarhøyen" />
		<tag k="natural" v="hill" />
		<tag k="place" v="locality" />
		<tag k="ssr:stedsnr" v="570568" />
	</node>
	<node id="-484791" lat="60.591863885" lon="4.83673611705">
		<tag k="fixme" v="consider natural=peak for the most distinct mountains in the district" />
		<tag k="name" v="Jensvarden" />
		<tag k="natural" v="hill" />
		<tag k="ssr:stedsnr" v="45149" />
	</node>
	<node id="-485302" lat="60.7152305577" lon="4.73135000015">
		<tag k="name" v="Nordøybjørnen" />
		<tag k="natural" v="hill" />
		<tag k="place" v="locality" />
		<tag k="ssr:stedsnr" v="570177" />
	</node>
	<node id="-484786" lat="60.5467277754" lon="4.86439444383">
		<tag k="fixme" v="consider natural=peak for the most distinct mountains in the district" />
		<tag k="name" v="Krossevardane" />
		<tag k="natural" v="hill" />
		<tag k="ssr:stedsnr" v="45055" />
	</node>
	<node id="-484784" lat="60.5612750002" lon="4.84450834085">
		<tag k="fixme" v="consider natural=peak for the most distinct mountains in the district" />
		<tag k="name" v="Vardheia" />
		<tag k="natural" v="hill" />
		<tag k="ssr:stedsnr" v="45022" />
	</node>
	<node id="-484783" lat="60.5533888866" lon="4.79739722082">
		<tag k="name" v="Skogsøytua" />
		<tag k="natural" v="hill" />
		<tag k="place" v="locality" />
		<tag k="ssr:stedsnr" v="45008" />
	</node>
	<node id="-484779" lat="60.5743888891" lon="4.85994166305">
		<tag k="name" v="Otua" />
		<tag k="natural" v="hill" />
		<tag k="place" v="locality" />
		<tag k="ssr:stedsnr" v="25950" />
	</node>
	<node id="-485788" lat="60.6280027801" lon="4.84096388326">
		<tag k="name" v="Nordra Aurtua" />
		<tag k="natural" v="hill" />
		<tag k="place" v="locality" />
		<tag k="ssr:stedsnr" v="956887" />
	</node>
	<node id="-485787" lat="60.6339527785" lon="4.8413055564">
		<tag k="name" v="Ådnestua" />
		<tag k="natural" v="hill" />
		<tag k="place" v="locality" />
		<tag k="ssr:stedsnr" v="956852" />
	</node>
	<node id="-484761" lat="60.6138000023" lon="4.8321472208">
		<tag k="fixme" v="consider natural=peak for the most distinct mountains in the district" />
		<tag k="name" v="Skarhaugane" />
		<tag k="natural" v="hill" />
		<tag k="place" v="locality" />
		<tag k="ssr:stedsnr" v="6614" />
	</node>
	<node id="-485785" lat="60.5137111125" lon="4.89691943905">
		<tag k="fixme" v="consider natural=peak for the most distinct mountains in the district" />
		<tag k="name" v="Vardane" />
		<tag k="natural" v="hill" />
		<tag k="ssr:stedsnr" v="956814" />
	</node>
	<node id="-485778" lat="60.5327083365" lon="4.90335556244">
		<tag k="name" v="Gongstøklubben" />
		<tag k="natural" v="hill" />
		<tag k="place" v="locality" />
		<tag k="ssr:stedsnr" v="956318" />
	</node>
	<node id="-485777" lat="60.5978888854" lon="4.80095832955">
		<tag k="name" v="Storhøyen" />
		<tag k="natural" v="hill" />
		<tag k="place" v="locality" />
		<tag k="ssr:stedsnr" v="956259" />
	</node>
	<node id="-485259" lat="60.6001527766" lon="4.84540277766">
		<tag k="name" v="Ådneshøyen" />
		<tag k="natural" v="hill" />
		<tag k="place" v="locality" />
		<tag k="ssr:stedsnr" v="531228" />
	</node>
	<node id="-485255" lat="60.6226361069" lon="4.8488277802">
		<tag k="name" v="Apalen" />
		<tag k="natural" v="hill" />
		<tag k="place" v="locality" />
		<tag k="ssr:stedsnr" v="531185" />
	</node>
	<node id="-485764" lat="60.5916555571" lon="4.82856666292">
		<tag k="name" v="Storhøyen" />
		<tag k="natural" v="hill" />
		<tag k="place" v="locality" />
		<tag k="ssr:stedsnr" v="956154" />
	</node>
	<node id="-485761" lat="60.6164249971" lon="4.83318610968">
		<tag k="alt_name" v="Grindevadfjellet" />
		<tag k="fixme" v="consider natural=peak for the most distinct mountains in the district" />
		<tag k="name" v="Grindevardfjellet" />
		<tag k="natural" v="hill" />
		<tag k="place" v="locality" />
		<tag k="ssr:stedsnr" v="955774" />
	</node>
	<node id="-485248" lat="60.6506222187" lon="4.819955562">
		<tag k="name" v="Olsberget" />
		<tag k="natural" v="hill" />
		<tag k="place" v="locality" />
		<tag k="ssr:stedsnr" v="530997" />
	</node>
	<node id="-485751" lat="60.5487194443" lon="4.85080555304">
		<tag k="name" v="Flepen" />
		<tag k="place" v="locality" />
		<tag k="ssr:stedsnr" v="955054" />
	</node>
	<node id="-485749" lat="60.5745666627" lon="4.85959166536">
		<tag k="name" v="Særberget" />
		<tag k="natural" v="hill" />
		<tag k="place" v="locality" />
		<tag k="ssr:stedsnr" v="955024" />
	</node>
	<node id="-485744" lat="60.5508342617" lon="4.86149786355">
		<tag k="name" v="Rauneberget" />
		<tag k="natural" v="hill" />
		<tag k="place" v="locality" />
		<tag k="ssr:stedsnr" v="936935" />
	</node>
	<node id="-484712" lat="60.4943555595" lon="4.93418888005">
		<tag k="name" v="Vågsnova" />
		<tag k="natural" v="hill" />
		<tag k="place" v="locality" />
		<tag k="ssr:stedsnr" v="895813" />
	</node>
	<node id="-484710" lat="60.5272694449" lon="4.90776388559">
		<tag k="name" v="Orrhøyen" />
		<tag k="natural" v="hill" />
		<tag k="place" v="locality" />
		<tag k="ssr:stedsnr" v="895797" />
	</node>
	<node id="-484704" lat="60.5365555528" lon="4.89016666202">
		<tag k="fixme" v="consider natural=peak for the most distinct mountains in the district" />
		<tag k="name" v="Gongstøåsen" />
		<tag k="natural" v="hill" />
		<tag k="place" v="locality" />
		<tag k="ssr:stedsnr" v="895351" />
	</node>
	<node id="-485724" lat="60.5385333353" lon="4.87868611194">
		<tag k="fixme" v="consider natural=peak for the most distinct mountains in the district" />
		<tag k="name" v="Blomøyknuten" />
		<tag k="natural" v="hill" />
		<tag k="place" v="locality" />
		<tag k="ssr:stedsnr" v="916758" />
	</node>
	<node id="-484696" lat="60.6177305521" lon="4.81147499938">
		<tag k="name" v="Storhallen" />
		<tag k="place" v="locality" />
		<tag k="ssr:stedsnr" v="895203" />
	</node>
	<node id="-484694" lat="60.6039111081" lon="4.81974721613">
		<tag k="fixme" v="consider natural=peak for the most distinct mountains in the district" />
		<tag k="name" v="Pordalsfjellet" />
		<tag k="natural" v="hill" />
		<tag k="place" v="locality" />
		<tag k="ssr:stedsnr" v="895180" />
	</node>
	<node id="-484691" lat="60.6490277805" lon="4.78633055703">
		<tag k="name" v="Glyvra" />
		<tag k="place" v="locality" />
		<tag k="ssr:stedsnr" v="895172" />
	</node>
	<node id="-484686" lat="60.638213887" lon="4.80550277986">
		<tag k="name" v="Skomakaren" />
		<tag k="natural" v="hill" />
		<tag k="place" v="locality" />
		<tag k="ssr:stedsnr" v="895163" />
	</node>
	<node id="-485196" lat="60.630505553" lon="4.8136749997">
		<tag k="name" v="Storhaugen" />
		<tag k="natural" v="hill" />
		<tag k="place" v="locality" />
		<tag k="ssr:stedsnr" v="470860" />
	</node>
	<node id="-485192" lat="60.5078805543" lon="4.90512221466">
		<tag k="name" v="Navrestøhøyen" />
		<tag k="natural" v="hill" />
		<tag k="place" v="locality" />
		<tag k="ssr:stedsnr" v="470767" />
	</node>
	<node id="-484679" lat="60.5116472192" lon="4.87316388649">
		<tag k="fixme" v="consider natural=peak for the most distinct mountains in the district" />
		<tag k="name" v="Brattlivarden" />
		<tag k="natural" v="hill" />
		<tag k="ssr:stedsnr" v="895127" />
	</node>
	<node id="-485190" lat="60.5831666651" lon="4.83533055795">
		<tag k="name" v="Støberget" />
		<tag k="place" v="locality" />
		<tag k="ssr:stedsnr" v="470482" />
	</node>
	<node id="-485700" lat="60.4778583351" lon="4.95928055134">
		<tag k="name" v="Mildeshaugen" />
		<tag k="natural" v="hill" />
		<tag k="place" v="locality" />
		<tag k="ssr:stedsnr" v="874863" />
	</node>
	<node id="-485771" lat="60.6130500036" lon="4.84573611321">
		<tag k="name" v="Sydneshøyen" />
		<tag k="natural" v="hill" />
		<tag k="place" v="locality" />
		<tag k="ssr:stedsnr" v="956213" />
	</node>
	<node id="-485691" lat="60.5220583293" lon="4.89170554766">
		<tag k="fixme" v="consider natural=peak for the most distinct mountains in the district" />
		<tag k="name" v="Tøkhøyen" />
		<tag k="natural" v="hill" />
		<tag k="place" v="locality" />
		<tag k="ssr:stedsnr" v="856753" />
	</node>
	<node id="-485177" lat="60.6194361073" lon="4.84358611559">
		<tag k="name" v="Kuholene" />
		<tag k="natural" v="valley" />
		<tag k="place" v="locality" />
		<tag k="ssr:stedsnr" v="470251" />
	</node>
	<node id="-484659" lat="60.6028222269" lon="4.83821389616">
		<tag k="name" v="Grønhøyen" />
		<tag k="natural" v="hill" />
		<tag k="place" v="locality" />
		<tag k="ssr:stedsnr" v="410232" />
	</node>
	<node id="-484656" lat="60.5916361074" lon="4.80564999295">
		<tag k="name" v="Ruskelia" />
		<tag k="natural" v="slope" />
		<tag k="place" v="locality" />
		<tag k="ssr:stedsnr" v="410209" />
	</node>
	<node id="-485165" lat="60.5659444432" lon="4.81121388259">
		<tag k="name" v="Lynghøyen" />
		<tag k="natural" v="hill" />
		<tag k="place" v="locality" />
		<tag k="ssr:stedsnr" v="470084" />
	</node>
	<node id="-485676" lat="60.5551083308" lon="4.8485861117">
		<tag k="fixme" v="consider natural=peak for the most distinct mountains in the district" />
		<tag k="name" v="Ørndalshøyen" />
		<tag k="natural" v="hill" />
		<tag k="place" v="locality" />
		<tag k="ssr:stedsnr" v="856578" />
	</node>
	<node id="-485163" lat="60.5737416633" lon="4.84436389209">
		<tag k="name" v="Spileberget" />
		<tag k="natural" v="hill" />
		<tag k="place" v="locality" />
		<tag k="ssr:stedsnr" v="470024" />
	</node>
	<node id="-484650" lat="60.590566669" lon="4.83227221981">
		<tag k="fixme" v="consider natural=peak for the most distinct mountains in the district" />
		<tag k="name" v="Stekkevarden" />
		<tag k="natural" v="hill" />
		<tag k="ssr:stedsnr" v="410134" />
	</node>
	<node id="-485767" lat="60.6488249959" lon="4.79260278132">
		<tag k="name" v="Ramberget" />
		<tag k="natural" v="hill" />
		<tag k="place" v="locality" />
		<tag k="ssr:stedsnr" v="956182" />
	</node>
	<node id="-484633" lat="60.5564194433" lon="4.84225000025">
		<tag k="fixme" v="consider natural=peak for the most distinct mountains in the district" />
		<tag k="name" v="Skjenaråsen" />
		<tag k="natural" v="hill" />
		<tag k="place" v="locality" />
		<tag k="ssr:stedsnr" v="409073" />
	</node>
	<node id="-485653" lat="60.6267250023" lon="4.84321388352">
		<tag k="name" v="Søra Aurtua" />
		<tag k="natural" v="hill" />
		<tag k="place" v="locality" />
		<tag k="ssr:stedsnr" v="835890" />
	</node>
	<node id="-485652" lat="60.6254000019" lon="4.81378054816">
		<tag k="fixme" v="consider natural=peak for the most distinct mountains in the district" />
		<tag k="name" v="Svartevarden" />
		<tag k="natural" v="hill" />
		<tag k="ssr:stedsnr" v="835870" />
	</node>
	<node id="-484622" lat="60.4698249974" lon="4.96136111572">
		<tag k="name" v="Eikeskora" />
		<tag k="natural" v="valley" />
		<tag k="place" v="locality" />
		<tag k="ssr:stedsnr" v="397379" />
	</node>
	<node id="-485639" lat="60.6576222208" lon="4.81891943669">
		<tag k="fixme" v="consider natural=peak for the most distinct mountains in the district" />
		<tag k="name" v="Storevarden" />
		<tag k="natural" v="hill" />
		<tag k="ssr:stedsnr" v="835132" />
	</node>
	<node id="-485637" lat="60.4720499963" lon="4.95965277422">
		<tag k="name" v="Nesekletten" />
		<tag k="natural" v="hill" />
		<tag k="place" v="locality" />
		<tag k="ssr:stedsnr" v="834985" />
	</node>
	<node id="-485636" lat="60.6260222259" lon="4.82183611383">
		<tag k="name" v="Haugane" />
		<tag k="natural" v="hill" />
		<tag k="place" v="locality" />
		<tag k="ssr:stedsnr" v="834975" />
	</node>
	<node id="-485621" lat="60.5359694479" lon="4.86358889685">
		<tag k="name" v="Jøreshøyen" />
		<tag k="natural" v="hill" />
		<tag k="place" v="locality" />
		<tag k="ssr:stedsnr" v="833085" />
	</node>
	<node id="-485620" lat="60.4776611087" lon="4.9354000016">
		<tag k="name" v="Klovhøyen" />
		<tag k="natural" v="hill" />
		<tag k="place" v="locality" />
		<tag k="ssr:stedsnr" v="823294" />
	</node>
	<node id="-485619" lat="60.4869051332" lon="4.9398513364">
		<tag k="name" v="Jervhella" />
		<tag k="natural" v="hill" />
		<tag k="place" v="locality" />
		<tag k="ssr:stedsnr" v="823292" />
	</node>
	<node id="-485618" lat="60.6253416664" lon="4.85082221727">
		<tag k="name" v="Arsæta" />
		<tag k="natural" v="hill" />
		<tag k="place" v="locality" />
		<tag k="ssr:stedsnr" v="814638" />
	</node>
	<node id="-485617" lat="60.5439319247" lon="4.832353999">
		<tag k="name" v="Njupen" />
		<tag k="natural" v="hill" />
		<tag k="place" v="locality" />
		<tag k="ssr:stedsnr" v="813932" />
	</node>
	<node id="-484579" lat="60.6713111134" lon="4.79759165772">
		<tag k="name" v="Ørneberget" />
		<tag k="natural" v="hill" />
		<tag k="place" v="locality" />
		<tag k="ssr:stedsnr" v="349900" />
	</node>
	<node id="-485602" lat="60.5018638911" lon="4.92139444265">
		<tag k="fixme" v="consider natural=peak for the most distinct mountains in the district" />
		<tag k="name" v="Storevarden" />
		<tag k="natural" v="hill" />
		<tag k="place" v="locality" />
		<tag k="ssr:stedsnr" v="795705" />
	</node>
	<node id="-485088" lat="60.624141666" lon="4.81233055186">
		<tag k="name" v="Arseta" />
		<tag k="place" v="locality" />
		<tag k="ssr:stedsnr" v="228880" />
	</node>
	<node id="-485086" lat="60.4870277821" lon="4.93959722712">
		<tag k="name" v="Gjerdhella" />
		<tag k="place" v="locality" />
		<tag k="ssr:stedsnr" v="228867" />
	</node>
	<node id="-485081" lat="60.6121499995" lon="4.83765833241">
		<tag k="name" v="Molddiket" />
		<tag k="natural" v="valley" />
		<tag k="place" v="locality" />
		<tag k="ssr:stedsnr" v="228189" />
	</node>
	<node id="-485080" lat="60.6127083371" lon="4.82574999041">
		<tag k="name" v="Storhøyen" />
		<tag k="natural" v="hill" />
		<tag k="place" v="locality" />
		<tag k="ssr:stedsnr" v="228186" />
	</node>
	<node id="-484567" lat="60.6695944416" lon="4.80437221807">
		<tag k="name" v="Torvsåta" />
		<tag k="natural" v="hill" />
		<tag k="place" v="locality" />
		<tag k="ssr:stedsnr" v="349502" />
	</node>
	<node id="-485074" lat="60.6188000033" lon="4.80746110197">
		<tag k="name" v="Hovdhøyen" />
		<tag k="natural" v="hill" />
		<tag k="place" v="locality" />
		<tag k="ssr:stedsnr" v="228039" />
	</node>
	<node id="-484561" lat="60.6194000044" lon="4.84767221846">
		<tag k="name" v="Nordra Eidtua" />
		<tag k="natural" v="hill" />
		<tag k="place" v="locality" />
		<tag k="ssr:stedsnr" v="349218" />
	</node>
	<node id="-484559" lat="60.6355333376" lon="4.80203889276">
		<tag k="name" v="Stareberget" />
		<tag k="natural" v="hill" />
		<tag k="place" v="locality" />
		<tag k="ssr:stedsnr" v="349191" />
	</node>
	<node id="-485070" lat="60.5085055545" lon="4.90101388001">
		<tag k="name" v="Askjelhøyen" />
		<tag k="natural" v="hill" />
		<tag k="place" v="locality" />
		<tag k="ssr:stedsnr" v="227759" />
	</node>
	<node id="-484556" lat="60.5983222213" lon="4.84164722857">
		<tag k="name" v="Sjurhøyen" />
		<tag k="natural" v="hill" />
		<tag k="place" v="locality" />
		<tag k="ssr:stedsnr" v="349167" />
	</node>
	<node id="-485574" lat="60.5961472233" lon="4.80217499097">
		<tag k="fixme" v="consider natural=peak for the most distinct mountains in the district" />
		<tag k="name" v="Nipene" />
		<tag k="natural" v="hill" />
		<tag k="ssr:stedsnr" v="774249" />
	</node>
	<node id="-484545" lat="60.4584472236" lon="4.94859723059">
		<tag k="name" v="Otretjørnsbrota" />
		<tag k="natural" v="hill" />
		<tag k="place" v="locality" />
		<tag k="ssr:stedsnr" v="348367" />
	</node>
	<node id="-485566" lat="60.6430694483" lon="4.79809722147">
		<tag k="name" v="Stølhøyen" />
		<tag k="natural" v="hill" />
		<tag k="place" v="locality" />
		<tag k="ssr:stedsnr" v="774181" />
	</node>
	<node id="-484541" lat="60.5653444468" lon="4.79040556304">
		<tag k="name" v="Seta" />
		<tag k="natural" v="hill" />
		<tag k="place" v="locality" />
		<tag k="ssr:stedsnr" v="348096" />
	</node>
	<node id="-484540" lat="60.5345944408" lon="4.87962778577">
		<tag k="name" v="Høgeseta" />
		<tag k="natural" v="hill" />
		<tag k="place" v="locality" />
		<tag k="ssr:stedsnr" v="348086" />
	</node>
	<node id="-484539" lat="60.54153333" lon="4.88033332667">
		<tag k="name" v="Gjenekletten" />
		<tag k="natural" v="hill" />
		<tag k="place" v="locality" />
		<tag k="ssr:stedsnr" v="348039" />
	</node>
	<node id="-484538" lat="60.5617361105" lon="4.81307777813">
		<tag k="name" v="Husberget" />
		<tag k="natural" v="hill" />
		<tag k="place" v="locality" />
		<tag k="ssr:stedsnr" v="348025" />
	</node>
	<node id="-484537" lat="60.561186107" lon="4.82748054764">
		<tag k="name" v="Seta" />
		<tag k="natural" v="hill" />
		<tag k="place" v="locality" />
		<tag k="ssr:stedsnr" v="348013" />
	</node>
	<node id="-485559" lat="60.5120111104" lon="4.91620832488">
		<tag k="name" v="Knapphøyen" />
		<tag k="natural" v="hill" />
		<tag k="place" v="locality" />
		<tag k="ssr:stedsnr" v="773751" />
	</node>
	<node id="-485556" lat="60.5510749981" lon="4.8747027812">
		<tag k="name" v="Gjengardshøyen" />
		<tag k="natural" v="hill" />
		<tag k="place" v="locality" />
		<tag k="ssr:stedsnr" v="773057" />
	</node>
	<node id="-485554" lat="60.5654611123" lon="4.82092500563">
		<tag k="fixme" v="consider natural=peak for the most distinct mountains in the district" />
		<tag k="name" v="Stølevarden" />
		<tag k="natural" v="hill" />
		<tag k="ssr:stedsnr" v="773036" />
	</node>
	<node id="-485039" lat="60.650761113" lon="4.7864722129">
		<tag k="fixme" v="consider natural=peak for the most distinct mountains in the district" />
		<tag k="name" v="Benkene" />
		<tag k="natural" v="hill" />
		<tag k="place" v="locality" />
		<tag k="ssr:stedsnr" v="206710" />
	</node>
	<node id="-485550" lat="60.5475611144" lon="4.83745277976">
		<tag k="name" v="Kollsnesdalen" />
		<tag k="natural" v="valley" />
		<tag k="place" v="locality" />
		<tag k="ssr:stedsnr" v="772961" />
	</node>
	<node id="-485036" lat="60.5120166447" lon="4.90978305277">
		<tag k="name" v="Arseta" />
		<tag k="natural" v="hill" />
		<tag k="place" v="locality" />
		<tag k="ssr:stedsnr" v="206351" />
	</node>
	<node id="-484494" lat="60.4742416708" lon="4.9286555611">
		<tag k="name" v="Klubben" />
		<tag k="natural" v="hill" />
		<tag k="place" v="locality" />
		<tag k="ssr:stedsnr" v="308207" />
	</node>
	<node id="-484488" lat="60.6724027817" lon="4.79309443932">
		<tag k="name" v="Tåberget" />
		<tag k="natural" v="hill" />
		<tag k="place" v="locality" />
		<tag k="ssr:stedsnr" v="288865" />
	</node>
	<node id="-484999" lat="60.5174888848" lon="4.90688332843">
		<tag k="name" v="Svartevikhøyen" />
		<tag k="natural" v="hill" />
		<tag k="place" v="locality" />
		<tag k="ssr:stedsnr" v="167827" />
	</node>
	<node id="-484997" lat="60.4677638919" lon="4.93240278475">
		<tag k="name" v="Ådråtten" />
		<tag k="place" v="locality" />
		<tag k="ssr:stedsnr" v="167807" />
	</node>
	<node id="-484482" lat="60.4879361128" lon="4.89298888725">
		<tag k="name" v="Narøytua" />
		<tag k="natural" v="hill" />
		<tag k="place" v="locality" />
		<tag k="ssr:stedsnr" v="288812" />
	</node>
	<node id="-485504" lat="60.462163887" lon="4.93041111818">
		<tag k="name" v="Gjugrefethaugen" />
		<tag k="natural" v="hill" />
		<tag k="place" v="locality" />
		<tag k="ssr:stedsnr" v="713811" />
	</node>
	<node id="-484991" lat="60.4669388916" lon="4.95891388743">
		<tag k="fixme" v="consider natural=peak for the most distinct mountains in the district" />
		<tag k="name" v="Varden" />
		<tag k="natural" v="hill" />
		<tag k="ssr:stedsnr" v="167477" />
	</node>
	<node id="-485502" lat="60.6344888915" lon="4.81976667358">
		<tag k="name" v="Bareidet" />
		<tag k="natural" v="hill" />
		<tag k="place" v="locality" />
		<tag k="ssr:stedsnr" v="713517" />
	</node>
	<node id="-484477" lat="60.5120166711" lon="4.91346667137">
		<tag k="name" v="Medarseta" />
		<tag k="natural" v="hill" />
		<tag k="place" v="locality" />
		<tag k="ssr:stedsnr" v="288737" />
	</node>
	<node id="-485491" lat="60.593719441" lon="4.79083888974">
		<tag k="name" v="Hjartøyhøyen" />
		<tag k="natural" v="hill" />
		<tag k="place" v="locality" />
		<tag k="ssr:stedsnr" v="713236" />
	</node>
	<node id="-485489" lat="60.6058194413" lon="4.81637223031">
		<tag k="name" v="Pordalane" />
		<tag k="natural" v="valley" />
		<tag k="place" v="locality" />
		<tag k="ssr:stedsnr" v="713214" />
	</node>
	<node id="-485486" lat="60.6519416628" lon="4.80791945146">
		<tag k="fixme" v="consider natural=peak for the most distinct mountains in the district" />
		<tag k="name" v="Selsnipa" />
		<tag k="natural" v="hill" />
		<tag k="ssr:stedsnr" v="713173" />
	</node>
	<node id="-484461" lat="60.6148333334" lon="4.8540388893">
		<tag k="name" v="Grønhøyen" />
		<tag k="natural" v="hill" />
		<tag k="place" v="locality" />
		<tag k="ssr:stedsnr" v="288195" />
	</node>
	<node id="-484460" lat="60.619261114" lon="4.84981111104">
		<tag k="name" v="Sandvikshøyen" />
		<tag k="natural" v="hill" />
		<tag k="place" v="locality" />
		<tag k="ssr:stedsnr" v="288187" />
	</node>
	<node id="-484970" lat="60.5751527805" lon="4.85739722135">
		<tag k="name" v="Vardneshøyen" />
		<tag k="natural" v="hill" />
		<tag k="place" v="locality" />
		<tag k="ssr:stedsnr" v="166315" />
	</node>
	<node id="-485481" lat="60.6397805586" lon="4.8059027757">
		<tag k="name" v="Selseidet" />
		<tag k="natural" v="valley" />
		<tag k="place" v="locality" />
		<tag k="ssr:stedsnr" v="712785" />
	</node>
	<node id="-484456" lat="60.5875055603" lon="4.83954445207">
		<tag k="fixme" v="consider natural=peak for the most distinct mountains in the district" />
		<tag k="name" v="Harkestadvarden" />
		<tag k="natural" v="hill" />
		<tag k="ssr:stedsnr" v="288158" />
	</node>
	<node id="-485564" lat="60.665708334" lon="4.79345555394">
		<tag k="name" v="Raudaberget" />
		<tag k="natural" v="hill" />
		<tag k="place" v="locality" />
		<tag k="ssr:stedsnr" v="774145" />
	</node>
	<node id="-484965" lat="60.5113916703" lon="4.88035276984">
		<tag k="fixme" v="consider natural=peak for the most distinct mountains in the district" />
		<tag k="name" v="Ono" />
		<tag k="natural" v="hill" />
		<tag k="ssr:stedsnr" v="166139" />
	</node>
	<node id="-484452" lat="60.5628666689" lon="4.79909999864">
		<tag k="name" v="Helrane" />
		<tag k="natural" v="ridge" />
		<tag k="place" v="locality" />
		<tag k="ssr:stedsnr" v="288109" />
	</node>
	<node id="-484450" lat="60.5509361073" lon="4.86158332894">
		<tag k="name" v="Ramberget" />
		<tag k="natural" v="hill" />
		<tag k="place" v="locality" />
		<tag k="ssr:stedsnr" v="288061" />
	</node>
	<node id="-485563" lat="60.6608138858" lon="4.81605555595">
		<tag k="fixme" v="consider natural=peak for the most distinct mountains in the district" />
		<tag k="name" v="Nordre Varden" />
		<tag k="natural" v="hill" />
		<tag k="ssr:stedsnr" v="774141" />
	</node>
	<node id="-484960" lat="60.5495250038" lon="4.8600750038">
		<tag k="name" v="Krossdalshøyen" />
		<tag k="natural" v="hill" />
		<tag k="place" v="locality" />
		<tag k="ssr:stedsnr" v="166056" />
	</node>
	<node id="-484447" lat="60.570538889" lon="4.85210555052">
		<tag k="name" v="Gultona" />
		<tag k="natural" v="hill" />
		<tag k="place" v="locality" />
		<tag k="ssr:stedsnr" v="288032" />
	</node>
	<node id="-485468" lat="60.5211555573" lon="4.85987500517">
		<tag k="alt_name" v="Rambogen" />
		<tag k="name" v="Ramboghøyen" />
		<tag k="natural" v="hill" />
		<tag k="place" v="locality" />
		<tag k="ssr:stedsnr" v="712090" />
	</node>
	<node id="-485562" lat="60.6590805573" lon="4.80272778662">
		<tag k="name" v="Utnesdalen" />
		<tag k="natural" v="valley" />
		<tag k="place" v="locality" />
		<tag k="ssr:stedsnr" v="774134" />
	</node>
	<node id="-485476" lat="60.5605000013" lon="4.82423054658">
		<tag k="name" v="Tempelen" />
		<tag k="place" v="locality" />
		<tag k="ssr:stedsnr" v="712272" />
	</node>
	<node id="-484933" lat="60.6510166646" lon="4.80014999792">
		<tag k="fixme" v="consider natural=peak for the most distinct mountains in the district" />
		<tag k="name" v="Selsstakken" />
		<tag k="natural" v="hill" />
		<tag k="place" v="locality" />
		<tag k="ssr:stedsnr" v="127664" />
	</node>
	<node id="-484916" lat="60.4965305597" lon="4.92214166063">
		<tag k="name" v="Rongaloftet" />
		<tag k="natural" v="hill" />
		<tag k="place" v="locality" />
		<tag k="ssr:stedsnr" v="127241" />
	</node>
	<node id="-485424" lat="60.6362527795" lon="4.82968054964">
		<tag k="fixme" v="consider natural=peak for the most distinct mountains in the district" />
		<tag k="name" v="Høgevarden" />
		<tag k="natural" v="hill" />
		<tag k="ssr:stedsnr" v="652839" />
	</node>
	<node id="-484895" lat="60.4899555529" lon="4.95527777196">
		<tag k="fixme" v="consider natural=peak for the most distinct mountains in the district" />
		<tag k="name" v="Orrdalsåsen" />
		<tag k="natural" v="hill" />
		<tag k="place" v="locality" />
		<tag k="ssr:stedsnr" v="106848" />
	</node>
	<node id="-485551" lat="60.5663722261" lon="4.84586388084">
		<tag k="name" v="Setredalen" />
		<tag k="natural" v="valley" />
		<tag k="place" v="locality" />
		<tag k="ssr:stedsnr" v="772964" />
	</node>
	<node id="-484888" lat="60.5005916686" lon="4.91847777261">
		<tag k="name" v="Grønhelleren" />
		<tag k="natural" v="slope" />
		<tag k="place" v="locality" />
		<tag k="ssr:stedsnr" v="106784" />
	</node>
	<node id="-485380" lat="60.4771166662" lon="4.94755278043">
		<tag k="name" v="Dalekletten" />
		<tag k="natural" v="hill" />
		<tag k="place" v="locality" />
		<tag k="ssr:stedsnr" v="631882" />
	</node>
	<node id="-484881" lat="60.5732750025" lon="4.8468250067">
		<tag k="name" v="Båtevikdalen" />
		<tag k="natural" v="valley" />
		<tag k="place" v="locality" />
		<tag k="ssr:stedsnr" v="106461" />
	</node>
	<node id="-484872" lat="60.5529944411" lon="4.84594722665">
		<tag k="name" v="Budalen" />
		<tag k="natural" v="valley" />
		<tag k="place" v="locality" />
		<tag k="ssr:stedsnr" v="106294" />
	</node>
	<node id="-484868" lat="60.6458944462" lon="4.79339165941">
		<tag k="name" v="Stekkeberget" />
		<tag k="natural" v="hill" />
		<tag k="place" v="locality" />
		<tag k="ssr:stedsnr" v="106175" />
	</node>
	<node id="-484867" lat="60.6469611099" lon="4.80531388801">
		<tag k="name" v="Håkletten" />
		<tag k="natural" v="hill" />
		<tag k="place" v="locality" />
		<tag k="ssr:stedsnr" v="106174" />
	</node>
</osm>
