<?xml version="1.0" encoding="UTF-8"?>
<osm generator="osmapis" version="0.6">
	<node id="-485375" lat="60.5340281975" lon="4.88790374213">
		<tag k="fixme" v="consider place=hamlet" />
		<tag k="name" v="Blom" />
		<tag k="place" v="farm" />
		<tag k="ssr:stedsnr" v="613716" />
	</node>
	<node id="-485374" lat="60.5373916664" lon="4.89316110933">
		<tag k="name" v="Blomgongstøa" />
		<tag k="old_name" v="Blomgongstøi" />
		<tag k="place" v="quarter" />
		<tag k="ssr:stedsnr" v="613703" />
	</node>
	<node id="-485357" lat="60.6153833319" lon="4.82185833879">
		<tag k="fixme" v="consider place=hamlet" />
		<tag k="name" v="Skjold" />
		<tag k="place" v="farm" />
		<tag k="ssr:stedsnr" v="612607" />
	</node>
	<node id="-485354" lat="60.4805888871" lon="4.93713055906">
		<tag k="alt_name" v="Toftevåg" />
		<tag k="name" v="Toftevågen" />
		<tag k="place" v="farm" />
		<tag k="ssr:stedsnr" v="611226" />
	</node>
	<node id="-485348" lat="60.5128332564" lon="4.90912973461">
		<tag k="name" v="Rong" />
		<tag k="place" v="farm" />
		<tag k="ssr:stedsnr" v="591794" />
	</node>
	<node id="-485345" lat="60.6102333301" lon="4.80203611888">
		<tag k="name" v="Gardskrokane" />
		<tag k="place" v="farm" />
		<tag k="ssr:stedsnr" v="591465" />
	</node>
	<node id="-484687" lat="60.6387638851" lon="4.80010000156">
		<tag k="name" v="Gjerde" />
		<tag k="place" v="farm" />
		<tag k="ssr:stedsnr" v="895165" />
	</node>
	<node id="-485333" lat="60.6569861099" lon="4.79601667369">
		<tag k="name" v="Bakken" />
		<tag k="place" v="farm" />
		<tag k="ssr:stedsnr" v="591121" />
	</node>
	<node id="-484819" lat="60.4915166663" lon="4.93778888336">
		<tag k="fixme" v="consider place=suburb, village or hamlet" />
		<tag k="name" v="Torsteinsvik" />
		<tag k="place" v="quarter" />
		<tag k="ssr:stedsnr" v="66204" />
	</node>
	<node id="-484817" lat="60.498200002" lon="4.9255250059">
		<tag k="name" v="Pålsneset" />
		<tag k="place" v="quarter" />
		<tag k="ssr:stedsnr" v="55386" />
	</node>
	<node id="-485328" lat="60.5575527817" lon="4.8115777813">
		<tag k="name" v="Skogsøyna" />
		<tag k="place" v="farm" />
		<tag k="ssr:stedsnr" v="591005" />
	</node>
	<node id="-485321" lat="60.53494167" lon="4.87914445214">
		<tag k="amenity" v="school" />
		<tag k="name" v="Blomvåg skule" />
		<tag k="ssr:stedsnr" v="590101" />
	</node>
	<node id="-485290" lat="60.5902848436" lon="4.83131743822">
		<tag k="fixme" v="consider place=hamlet" />
		<tag k="name" v="Eide" />
		<tag k="place" v="farm" />
		<tag k="ssr:stedsnr" v="552609" />
	</node>
	<node id="-485792" lat="60.619986115" lon="4.8537805602">
		<tag k="alt_name" v="Sture;Stura oljeterminal" />
		<tag k="name" v="Stureterminalen" />
		<tag k="place" v="quarter" />
		<tag k="ssr:stedsnr" v="968534" />
	</node>
	<node id="-485786" lat="60.4901055553" lon="4.93781944129">
		<tag k="name" v="Torsvik" />
		<tag k="place" v="farm" />
		<tag k="ssr:stedsnr" v="956826" />
	</node>
	<node id="-485271" lat="60.4758638934" lon="4.94293611675">
		<tag k="fixme" v="consider place=hamlet" />
		<tag k="name" v="Toft" />
		<tag k="place" v="farm" />
		<tag k="ssr:stedsnr" v="531859" />
	</node>
	<node id="-484758" lat="60.5962305574" lon="4.84448888269">
		<tag k="name" v="Tjeldstø" />
		<tag k="place" v="hamlet" />
		<tag k="ssr:stedsnr" v="6575" />
	</node>
	<node id="-485776" lat="60.6207111093" lon="4.83598611128">
		<tag k="name" v="Stura" />
		<tag k="place" v="farm" />
		<tag k="ssr:stedsnr" v="956251" />
	</node>
	<node id="-485772" lat="60.6047472251" lon="4.79919443565">
		<tag k="fixme" v="consider place=hamlet" />
		<tag k="name" v="Naustdal" />
		<tag k="place" v="farm" />
		<tag k="ssr:stedsnr" v="956230" />
	</node>
	<node id="-485258" lat="60.5917138869" lon="4.82365556425">
		<tag k="amenity" v="school" />
		<tag k="name" v="Alvheim skule" />
		<tag k="ssr:stedsnr" v="531224" />
	</node>
	<node id="-485257" lat="60.588472226" lon="4.79488888502">
		<tag k="name" v="Veket" />
		<tag k="place" v="farm" />
		<tag k="ssr:stedsnr" v="531220" />
	</node>
	<node id="-485249" lat="60.6605305546" lon="4.78589443665">
		<tag k="name" v="Hellesøyna" />
		<tag k="place" v="farm" />
		<tag k="ssr:stedsnr" v="531124" />
	</node>
	<node id="-485754" lat="60.5685419948" lon="4.81154123054">
		<tag k="fixme" v="consider place=hamlet" />
		<tag k="name" v="Herdlevær" />
		<tag k="place" v="farm" />
		<tag k="ssr:stedsnr" v="955113" />
	</node>
	<node id="-484726" lat="60.5858455495" lon="4.79766290006">
		<tag k="fixme" v="consider place=hamlet" />
		<tag k="name" v="Heggholmen" />
		<tag k="place" v="farm" />
		<tag k="ssr:stedsnr" v="989723" />
	</node>
	<node id="-484725" lat="60.4956819853" lon="4.93893865121">
		<tag k="name" v="Torsteinsvik" />
		<tag k="place" v="hamlet" />
		<tag k="ssr:stedsnr" v="989708" />
	</node>
	<node id="-484724" lat="60.7033665907" lon="4.74410240076">
		<tag k="fixme" v="consider place=hamlet" />
		<tag k="name" v="Sanden" />
		<tag k="place" v="farm" />
		<tag k="ssr:stedsnr" v="989705" />
	</node>
	<node id="-484716" lat="60.6258333296" lon="4.79930000473">
		<tag k="fixme" v="consider place=hamlet" />
		<tag k="name" v="Nautnes" />
		<tag k="place" v="farm" />
		<tag k="ssr:stedsnr" v="895849" />
	</node>
	<node id="-485227" lat="60.6241388235" lon="4.82274156999">
		<tag k="fixme" v="consider place=hamlet" />
		<tag k="name" v="Hatten" />
		<tag k="place" v="farm" />
		<tag k="ssr:stedsnr" v="492543" />
	</node>
	<node id="-485213" lat="60.6021344228" lon="4.8002305656">
		<tag k="alt_name" v="Alveim" />
		<tag k="fixme" v="consider place=hamlet" />
		<tag k="name" v="Alvheim" />
		<tag k="place" v="village" />
		<tag k="ssr:stedsnr" v="491559" />
	</node>
	<node id="-485723" lat="60.5321738442" lon="4.8947367645">
		<tag k="alt_name" v="Sele;Sæle" />
		<tag k="fixme" v="consider place=hamlet" />
		<tag k="name" v="Søre Sæle" />
		<tag k="place" v="farm" />
		<tag k="ssr:stedsnr" v="916754" />
	</node>
	<node id="-485719" lat="60.6605757352" lon="4.80526933603">
		<tag k="fixme" v="consider place=hamlet" />
		<tag k="name" v="Hellesundet" />
		<tag k="place" v="village" />
		<tag k="ssr:stedsnr" v="916639" />
	</node>
	<node id="-485206" lat="60.619793119" lon="4.80664301347">
		<tag k="fixme" v="consider place=hamlet" />
		<tag k="name" v="Hovden" />
		<tag k="place" v="farm" />
		<tag k="ssr:stedsnr" v="491605" />
	</node>
	<node id="-484693" lat="60.6023259025" lon="4.80930168082">
		<tag k="fixme" v="consider place=hamlet" />
		<tag k="loc_name" v="Alveim" />
		<tag k="name" v="Alvheim" />
		<tag k="place" v="farm" />
		<tag k="ssr:stedsnr" v="895178" />
	</node>
	<node id="-484688" lat="60.6382583307" lon="4.79568054716">
		<tag k="name" v="Ørnnipa" />
		<tag k="place" v="farm" />
		<tag k="ssr:stedsnr" v="895164" />
	</node>
	<node id="-485711" lat="60.585745067" lon="4.84077897639">
		<tag k="fixme" v="consider place=hamlet" />
		<tag k="name" v="Harkestad" />
		<tag k="place" v="farm" />
		<tag k="ssr:stedsnr" v="916586" />
	</node>
	<node id="-485197" lat="60.6245750018" lon="4.83662221825">
		<tag k="name" v="Stura" />
		<tag k="place" v="farm" />
		<tag k="ssr:stedsnr" v="470866" />
	</node>
	<node id="-484683" lat="60.5902999975" lon="4.82988610989">
		<tag k="name" v="Eide" />
		<tag k="place" v="farm" />
		<tag k="ssr:stedsnr" v="895142" />
	</node>
	<node id="-484674" lat="60.5661111153" lon="4.82389999365">
		<tag k="name" v="Snarhella" />
		<tag k="place" v="farm" />
		<tag k="ssr:stedsnr" v="895028" />
	</node>
	<node id="-484668" lat="60.5015416656" lon="4.91485833864">
		<tag k="name" v="Raudhammaren" />
		<tag k="place" v="quarter" />
		<tag k="ssr:stedsnr" v="889366" />
	</node>
	<node id="-485176" lat="60.6022336799" lon="4.80558532221">
		<tag k="name" v="Alvheim" />
		<tag k="place" v="farm" />
		<tag k="ssr:stedsnr" v="470216" />
	</node>
	<node id="-485687" lat="60.5263833296" lon="4.87505278723">
		<tag k="alt_name" v="Knarvika" />
		<tag k="name" v="Knarrviki" />
		<tag k="place" v="farm" />
		<tag k="ssr:stedsnr" v="856733" />
	</node>
	<node id="-484662" lat="60.4623250006" lon="4.95842221736">
		<tag k="name" v="Knappen" />
		<tag k="place" v="farm" />
		<tag k="ssr:stedsnr" v="410787" />
	</node>
	<node id="-484654" lat="60.6135972187" lon="4.79867500667">
		<tag k="name" v="Grøna" />
		<tag k="place" v="farm" />
		<tag k="ssr:stedsnr" v="410202" />
	</node>
	<node id="-484651" lat="60.5927277793" lon="4.84353889407">
		<tag k="name" v="Neset" />
		<tag k="place" v="farm" />
		<tag k="ssr:stedsnr" v="410135" />
	</node>
	<node id="-485160" lat="60.50192778" lon="4.88183332984">
		<tag k="name" v="Ono" />
		<tag k="place" v="farm" />
		<tag k="ssr:stedsnr" v="469127" />
	</node>
	<node id="-485158" lat="60.6688972254" lon="4.80652777957">
		<tag k="name" v="Sprengsneset" />
		<tag k="place" v="neighbourhood" />
		<tag k="ssr:stedsnr" v="465468" />
	</node>
	<node id="-485668" lat="60.4691916644" lon="4.9583750039">
		<tag k="fixme" v="consider place=suburb, village or hamlet" />
		<tag k="name" v="Vikavågen" />
		<tag k="place" v="quarter" />
		<tag k="ssr:stedsnr" v="855254" />
	</node>
	<node id="-485665" lat="60.4775638893" lon="4.94458056102">
		<tag k="fixme" v="consider place=hamlet" />
		<tag k="name" v="Toft" />
		<tag k="place" v="village" />
		<tag k="ssr:stedsnr" v="855237" />
	</node>
	<node id="-485658" lat="60.6240888882" lon="4.82935555367">
		<tag k="name" v="Hatten" />
		<tag k="place" v="neighbourhood" />
		<tag k="ssr:stedsnr" v="848521" />
	</node>
	<node id="-485657" lat="60.5608916678" lon="4.86134166352">
		<tag k="name" v="Rossnes" />
		<tag k="place" v="quarter" />
		<tag k="ssr:stedsnr" v="848434" />
	</node>
	<node id="-485655" lat="60.4960999968" lon="4.93326111468">
		<tag k="name" v="Kjøpmannsvågen" />
		<tag k="place" v="quarter" />
		<tag k="ssr:stedsnr" v="844392" />
	</node>
	<node id="-484630" lat="60.565913892" lon="4.83185833478">
		<tag k="name" v="Breivik" />
		<tag k="place" v="farm" />
		<tag k="ssr:stedsnr" v="409017" />
	</node>
	<node id="-485648" lat="60.483158335" lon="4.93531388111">
		<tag k="name" v="Løten" />
		<tag k="place" v="farm" />
		<tag k="ssr:stedsnr" v="835855" />
	</node>
	<node id="-485638" lat="60.6567444445" lon="4.78493889387">
		<tag k="name" v="Svellingen" />
		<tag k="place" v="farm" />
		<tag k="ssr:stedsnr" v="835131" />
	</node>
	<node id="-485123" lat="60.5028000031" lon="4.92162777053">
		<tag k="name" v="Storevarden" />
		<tag k="place" v="quarter" />
		<tag k="ssr:stedsnr" v="419397" />
	</node>
	<node id="-485122" lat="60.4805416669" lon="4.95945554684">
		<tag k="name" v="Breivika" />
		<tag k="place" v="neighbourhood" />
		<tag k="ssr:stedsnr" v="419391" />
	</node>
	<node id="-485419" lat="60.5096416629" lon="4.89088056021">
		<tag k="name" v="Ono" />
		<tag k="place" v="farm" />
		<tag k="ssr:stedsnr" v="652785" />
	</node>
	<node id="-484597" lat="60.6343750042" lon="4.82086111004">
		<tag k="name" v="Bareidet" />
		<tag k="place" v="farm" />
		<tag k="ssr:stedsnr" v="370595" />
	</node>
	<node id="-485098" lat="60.620765123" lon="4.83755871769">
		<tag k="fixme" v="consider place=hamlet" />
		<tag k="name" v="Stura" />
		<tag k="place" v="farm" />
		<tag k="ssr:stedsnr" v="248606" />
	</node>
	<node id="-484585" lat="60.5690749973" lon="4.86345556138">
		<tag k="alt_name" v="One" />
		<tag k="name" v="Oni" />
		<tag k="place" v="hamlet" />
		<tag k="ssr:stedsnr" v="370548" />
	</node>
	<node id="-484584" lat="60.4724382648" lon="4.95614781796">
		<tag k="fixme" v="consider place=hamlet" />
		<tag k="name" v="Vik" />
		<tag k="place" v="farm" />
		<tag k="ssr:stedsnr" v="369218" />
	</node>
	<node id="-485605" lat="60.5298388878" lon="4.87587500811">
		<tag k="name" v="Blomvåg" />
		<tag k="place" v="hamlet" />
		<tag k="ssr:stedsnr" v="795739" />
	</node>
	<node id="-485090" lat="60.6322444446" lon="4.79778333582">
		<tag k="name" v="Stordiket" />
		<tag k="place" v="farm" />
		<tag k="ssr:stedsnr" v="228885" />
	</node>
	<node id="-485089" lat="60.6282472198" lon="4.80843333181">
		<tag k="name" v="Stølsnes" />
		<tag k="place" v="farm" />
		<tag k="ssr:stedsnr" v="228882" />
	</node>
	<node id="-485084" lat="60.588622226" lon="4.79792778506">
		<tag k="name" v="Solberg" />
		<tag k="place" v="farm" />
		<tag k="ssr:stedsnr" v="228225" />
	</node>
	<node id="-485078" lat="60.6400304583" lon="4.79561529674">
		<tag k="alt_name" v="Sæle" />
		<tag k="fixme" v="consider place=hamlet" />
		<tag k="loc_name" v="Nordre Sæle" />
		<tag k="name" v="Sele" />
		<tag k="place" v="farm" />
		<tag k="ssr:stedsnr" v="228166" />
	</node>
	<node id="-485582" lat="60.6240990764" lon="4.80355803782">
		<tag k="fixme" v="consider place=hamlet" />
		<tag k="name" v="Nordvik" />
		<tag k="place" v="farm" />
		<tag k="ssr:stedsnr" v="774872" />
	</node>
	<node id="-484547" lat="60.6882878707" lon="4.7450720545">
		<tag k="fixme" v="consider place=hamlet" />
		<tag k="name" v="Hernar" />
		<tag k="place" v="farm" />
		<tag k="ssr:stedsnr" v="348409" />
	</node>
	<node id="-485568" lat="60.6481249997" lon="4.81829723023">
		<tag k="fixme" v="consider place=hamlet" />
		<tag k="name" v="Hjelme" />
		<tag k="place" v="farm" />
		<tag k="ssr:stedsnr" v="774186" />
	</node>
	<node id="-485051" lat="60.5685388862" lon="4.86256388244">
		<tag k="fixme" v="consider place=hamlet" />
		<tag k="name" v="One" />
		<tag k="place" v="farm" />
		<tag k="ssr:stedsnr" v="227029" />
	</node>
	<node id="-485045" lat="60.5533333292" lon="4.83055555652">
		<tag k="name" v="Kollsnes" />
		<tag k="place" v="quarter" />
		<tag k="ssr:stedsnr" v="210409" />
	</node>
	<node id="-484499" lat="60.5566750038" lon="4.86004999795">
		<tag k="name" v="Rossnes" />
		<tag k="place" v="farm" />
		<tag k="ssr:stedsnr" v="309567" />
	</node>
	<node id="-484497" lat="60.5658589607" lon="4.83685162662">
		<tag k="alt_name" v="Breidvik" />
		<tag k="fixme" v="consider place=hamlet" />
		<tag k="name" v="Breivik" />
		<tag k="place" v="farm" />
		<tag k="ssr:stedsnr" v="309545" />
	</node>
	<node id="-485510" lat="60.6356638885" lon="4.81134444551">
		<tag k="name" v="Trollvatn" />
		<tag k="place" v="neighbourhood" />
		<tag k="ssr:stedsnr" v="726527" />
	</node>
	<node id="-485509" lat="60.5869777784" lon="4.83169721589">
		<tag k="name" v="Ådnevika" />
		<tag k="place" v="quarter" />
		<tag k="ssr:stedsnr" v="726441" />
	</node>
	<node id="-484982" lat="60.6152861106" lon="4.82314165802">
		<tag k="name" v="Skjold" />
		<tag k="place" v="farm" />
		<tag k="ssr:stedsnr" v="167219" />
	</node>
	<node id="-484980" lat="60.6153000013" lon="4.82499721465">
		<tag k="name" v="Skjold" />
		<tag k="place" v="farm" />
		<tag k="ssr:stedsnr" v="167203" />
	</node>
	<node id="-484974" lat="60.6541388917" lon="4.79615832509">
		<tag k="amenity" v="school" />
		<tag k="name" v="Bakken skule" />
		<tag k="ssr:stedsnr" v="167136" />
	</node>
	<node id="-484963" lat="60.5772749993" lon="4.79465000387">
		<tag k="name" v="Geitingen" />
		<tag k="place" v="farm" />
		<tag k="ssr:stedsnr" v="166119" />
	</node>
	<node id="-484959" lat="60.5639694425" lon="4.82517499585">
		<tag k="name" v="Garden" />
		<tag k="place" v="farm" />
		<tag k="ssr:stedsnr" v="166035" />
	</node>
	<node id="-484956" lat="60.7101611076" lon="4.73644444949">
		<tag k="name" v="Sulo" />
		<tag k="place" v="neighbourhood" />
		<tag k="ssr:stedsnr" v="161462" />
	</node>
	<node id="-485466" lat="60.5370416639" lon="4.88059722656">
		<tag k="name" v="Blom" />
		<tag k="place" v="quarter" />
		<tag k="ssr:stedsnr" v="707395" />
	</node>
	<node id="-484437" lat="60.5075222188" lon="4.9126277717">
		<tag k="name" v="Austemarka" />
		<tag k="place" v="quarter" />
		<tag k="ssr:stedsnr" v="283313" />
	</node>
	<node id="-484945" lat="60.6261027797" lon="4.80290555381">
		<tag k="name" v="Nautnes" />
		<tag k="place" v="village" />
		<tag k="ssr:stedsnr" v="145061" />
	</node>
	<node id="-485428" lat="60.6494083344" lon="4.82393332633">
		<tag k="name" v="Hjelmo" />
		<tag k="place" v="hamlet" />
		<tag k="ssr:stedsnr" v="674621" />
	</node>
	<node id="-484913" lat="60.5931138848" lon="4.83737777922">
		<tag k="name" v="Jensvarden" />
		<tag k="place" v="quarter" />
		<tag k="ssr:stedsnr" v="119451" />
	</node>
	<node id="-484911" lat="60.4633611113" lon="4.95937500312">
		<tag k="name" v="Knappen" />
		<tag k="place" v="quarter" />
		<tag k="ssr:stedsnr" v="116401" />
	</node>
	<node id="-485725" lat="60.5347516997" lon="4.86975702753">
		<tag k="fixme" v="consider place=hamlet" />
		<tag k="name" v="Dale" />
		<tag k="place" v="farm" />
		<tag k="ssr:stedsnr" v="916760" />
	</node>
	<node id="-484907" lat="60.6043611134" lon="4.8090722135">
		<tag k="name" v="Åkletten" />
		<tag k="place" v="farm" />
		<tag k="ssr:stedsnr" v="107191" />
	</node>
	<node id="-485414" lat="60.4996805592" lon="4.8896249956">
		<tag k="name" v="Ono" />
		<tag k="place" v="farm" />
		<tag k="ssr:stedsnr" v="652731" />
	</node>
	<node id="-484897" lat="60.480072224" lon="4.93514722448">
		<tag k="name" v="Brekka" />
		<tag k="place" v="farm" />
		<tag k="ssr:stedsnr" v="106852" />
	</node>
	<node id="-485408" lat="60.5898472203" lon="4.80906111569">
		<tag k="name" v="Solheim" />
		<tag k="place" v="farm" />
		<tag k="ssr:stedsnr" v="652187" />
	</node>
	<node id="-484892" lat="60.5099427524" lon="4.89997531352">
		<tag k="fixme" v="consider place=hamlet" />
		<tag k="name" v="Rong" />
		<tag k="place" v="farm" />
		<tag k="ssr:stedsnr" v="106824" />
	</node>
	<node id="-484890" lat="60.5109055539" lon="4.90036389703">
		<tag k="amenity" v="school" />
		<tag k="name" v="Rong skule" />
		<tag k="ssr:stedsnr" v="106818" />
	</node>
	<node id="-485401" lat="60.5968194453" lon="4.84319721967">
		<tag k="fixme" v="consider place=hamlet" />
		<tag k="name" v="Tjeldstø" />
		<tag k="place" v="farm" />
		<tag k="ssr:stedsnr" v="652123" />
	</node>
	<node id="-485400" lat="60.6611805565" lon="4.80114443909">
		<tag k="fixme" v="consider place=hamlet" />
		<tag k="name" v="Hellesund" />
		<tag k="place" v="farm" />
		<tag k="ssr:stedsnr" v="652118" />
	</node>
	<node id="-485393" lat="60.5300944417" lon="4.87252778669">
		<tag k="name" v="Neset" />
		<tag k="place" v="farm" />
		<tag k="ssr:stedsnr" v="651096" />
	</node>
	<node id="-485388" lat="60.5683465811" lon="4.83723943169">
		<tag k="name" v="Breivik" />
		<tag k="place" v="farm" />
		<tag k="ssr:stedsnr" v="651014" />
	</node>
	<node id="-485386" lat="60.5348833324" lon="4.88081666846">
		<tag k="name" v="Høgeseta" />
		<tag k="place" v="quarter" />
		<tag k="ssr:stedsnr" v="646363" />
	</node>
	<node id="-485384" lat="60.5116403998" lon="4.89791233686">
		<tag k="name" v="Rong" />
		<tag k="place" v="farm" />
		<tag k="ssr:stedsnr" v="632986" />
	</node>
	<node id="-485377" lat="60.5122333318" lon="4.90266111195">
		<tag k="fixme" v="consider place=hamlet" />
		<tag k="name" v="Rong" />
		<tag k="place" v="village" />
		<tag k="ssr:stedsnr" v="613730" />
	</node>
	<node id="-484865" lat="60.6364416669" lon="4.79011666478">
		<tag k="name" v="Svintræet" />
		<tag k="place" v="farm" />
		<tag k="ssr:stedsnr" v="106166" />
	</node>
</osm>
