<?xml version="1.0" encoding="UTF-8"?>
<osm generator="osmapis" version="0.6">
	<node id="-485024" lat="60.526758329" lon="4.90542222689">
		<tag k="name" v="Storemyra" />
		<tag k="natural" v="wetland" />
		<tag k="ssr:stedsnr" v="835392" />
	</node>
	<node id="-484287" lat="60.598105554" lon="4.80665555581">
		<tag k="name" v="Sekkjene" />
		<tag k="natural" v="wetland" />
		<tag k="ssr:stedsnr" v="107227" />
	</node>
	<node id="-484926" lat="60.5252417312" lon="4.86595769149">
		<tag k="name" v="Stølemyra" />
		<tag k="natural" v="wetland" />
		<tag k="ssr:stedsnr" v="772090" />
	</node>
	<node id="-485143" lat="60.6188249961" lon="4.80196945167">
		<tag k="name" v="Kjerringmyra" />
		<tag k="natural" v="wetland" />
		<tag k="ssr:stedsnr" v="956040" />
	</node>
	<node id="-484080" lat="60.5934083317" lon="4.80710278177">
		<tag k="name" v="Bruene" />
		<tag k="place" v="locality" />
		<tag k="ssr:stedsnr" v="895212" />
	</node>
	<node id="-484048" lat="60.6334861096" lon="4.80128611504">
		<tag k="name" v="Lislamarka" />
		<tag k="place" v="locality" />
		<tag k="ssr:stedsnr" v="410863" />
	</node>
	<node id="-485004" lat="60.5403666689" lon="4.86034999203">
		<tag k="name" v="Stekkedalsmyra" />
		<tag k="natural" v="wetland" />
		<tag k="ssr:stedsnr" v="834050" />
	</node>
	<node id="-485163" lat="60.4634722201" lon="4.95614167048">
		<tag k="name" v="Knappemyra" />
		<tag k="natural" v="wetland" />
		<tag k="ssr:stedsnr" v="956802" />
	</node>
	<node id="-483847" lat="60.609258335" lon="4.81680277284">
		<tag k="name" v="Stuvbøen" />
		<tag k="place" v="locality" />
		<tag k="ssr:stedsnr" v="288214" />
	</node>
	<node id="-484775" lat="60.5783277797" lon="4.8590138864">
		<tag k="name" v="Selnesmyra" />
		<tag k="natural" v="wetland" />
		<tag k="ssr:stedsnr" v="651310" />
	</node>
	<node id="-484450" lat="60.464613892" lon="4.94825555319">
		<tag k="name" v="Pordalsmyra" />
		<tag k="natural" v="wetland" />
		<tag k="ssr:stedsnr" v="227789" />
	</node>
</osm>
