<?xml version="1.0" encoding="UTF-8"?>
<osm generator="osmapis" version="0.6">
	<node id="-484384" lat="60.554941666" lon="4.86509165928">
		<tag k="bridge" v="yes" />
		<tag k="layer" v="1" />
		<tag k="name" v="Osundet" />
		<tag k="ssr:stedsnr" v="168034" />
	</node>
	<node id="-484730" lat="60.454111108" lon="4.92769445372">
		<tag k="bridge" v="yes" />
		<tag k="layer" v="1" />
		<tag k="name" v="Turøy" />
		<tag k="ssr:stedsnr" v="593033" />
	</node>
	<node id="-484729" lat="60.5685166656" lon="4.81931944455">
		<tag k="bridge" v="yes" />
		<tag k="layer" v="1" />
		<tag k="name" v="Herdlevær" />
		<tag k="ssr:stedsnr" v="593006" />
	</node>
	<node id="-484472" lat="60.5668833371" lon="4.81912777904">
		<tag k="bridge" v="yes" />
		<tag k="layer" v="1" />
		<tag k="name" v="Langholmsundet" />
		<tag k="ssr:stedsnr" v="229032" />
	</node>
	<node id="-484289" lat="60.4581694473" lon="4.93413889527">
		<tag k="bridge" v="yes" />
		<tag k="layer" v="1" />
		<tag k="name" v="Skårasund" />
		<tag k="ssr:stedsnr" v="108032" />
	</node>
	<node id="-484470" lat="60.6608166701" lon="4.80448333109">
		<tag k="bridge" v="yes" />
		<tag k="layer" v="1" />
		<tag k="name" v="Hellesundkanalen" />
		<tag k="ssr:stedsnr" v="229003" />
	</node>
	<node id="-484050" lat="60.6610363757" lon="4.80455306364">
		<tag k="name" v="Hellesundkanalen" />
		<tag k="old_name" v="Hellesund kanal" />
		<tag k="ssr:stedsnr" v="479366" />
		<tag k="waterway" v="canal" />
	</node>
	<node id="-485169" lat="60.5367138892" lon="4.87649167057">
		<tag k="bridge" v="yes" />
		<tag k="layer" v="1" />
		<tag k="name" v="Dale" />
		<tag k="ssr:stedsnr" v="957002" />
	</node>
	<node id="-484049" lat="60.5170361093" lon="4.90337221428">
		<tag k="bridge" v="yes" />
		<tag k="layer" v="1" />
		<tag k="name" v="Ulvsundet" />
		<tag k="ssr:stedsnr" v="411023" />
	</node>
	<node id="-484109" lat="60.6670518993" lon="4.74755409931">
		<tag k="landuse" v="harbour" />
		<tag k="name" v="Lyngøyhamn" />
		<tag k="seamark:type" v="harbour" />
		<tag k="ssr:stedsnr" v="991215" />
	</node>
	<node id="-485164" lat="60.4651999961" lon="4.93352500926">
		<tag k="ford" v="yes" />
		<tag k="name" v="Vadet" />
		<tag k="place" v="locality" />
		<tag k="ssr:stedsnr" v="956805" />
	</node>
	<node id="-484653" lat="60.4974500009" lon="4.93624444718">
		<tag k="bridge" v="yes" />
		<tag k="layer" v="1" />
		<tag k="name" v="Rongesundet" />
		<tag k="ssr:stedsnr" v="533032" />
	</node>
	<node id="-485033" lat="60.5860000045" lon="4.85717500307">
		<tag k="bridge" v="yes" />
		<tag k="layer" v="1" />
		<tag k="name" v="Straumsund Nordre" />
		<tag k="old_name" v="Straumsund Nore" />
		<tag k="ssr:stedsnr" v="836018" />
	</node>
	<node id="-484332" lat="60.5283250015" lon="4.88303889178">
		<tag k="alt_name" v="Sælstø" />
		<tag k="landuse" v="harbour" />
		<tag k="name" v="Sælstøa" />
		<tag k="old_name" v="Sælstøi" />
		<tag k="seamark:type" v="harbour" />
		<tag k="ssr:stedsnr" v="146927" />
	</node>
	<node id="-484102" lat="60.5911388886" lon="4.82445833964">
		<tag k="bridge" v="yes" />
		<tag k="layer" v="1" />
		<tag k="name" v="Dåvøy" />
		<tag k="ssr:stedsnr" v="897003" />
	</node>
	<node id="-484965" lat="60.581244445" lon="4.86258056007">
		<tag k="bridge" v="yes" />
		<tag k="layer" v="1" />
		<tag k="name" v="Straumsund Søre" />
		<tag k="ssr:stedsnr" v="775028" />
	</node>
	<node id="-484577" lat="60.5641749963" lon="4.82750277075">
		<tag k="bridge" v="yes" />
		<tag k="layer" v="1" />
		<tag k="name" v="Breiviksund" />
		<tag k="ssr:stedsnr" v="472001" />
	</node>
</osm>
