<?xml version="1.0" encoding="UTF-8"?>
<osm version="0.6" generator="osmapis">
	<node lat="60.56995063676524" lon="6.953663049687847" id="-71408">
		<tag k="name" v="Nedre Torblå" />
		<tag k="ssr:date" v="2019-12-27" />
		<tag k="ssr:gruppe" v="veg" />
		<tag k="ssr:hovedgruppe" v="infrastruktur" />
		<tag k="ssr:stedsnr" v="422418" />
		<tag k="ssr:type" v="adressenavn" />
	</node>
	<node lat="60.569861663163586" lon="6.91425139893096" id="-71465">
		<tag k="name" v="Espelandsvegen" />
		<tag k="ssr:date" v="2019-12-27" />
		<tag k="ssr:gruppe" v="veg" />
		<tag k="ssr:hovedgruppe" v="infrastruktur" />
		<tag k="ssr:stedsnr" v="482405" />
		<tag k="ssr:type" v="adressenavn" />
	</node>
	<node lat="60.58314706176389" lon="7.120949225878916" id="-71466">
		<tag k="name" v="Osafjellsvegen" />
		<tag k="ssr:date" v="2019-12-27" />
		<tag k="ssr:gruppe" v="veg" />
		<tag k="ssr:hovedgruppe" v="infrastruktur" />
		<tag k="ssr:stedsnr" v="482408" />
		<tag k="ssr:type" v="adressenavn" />
	</node>
	<node lat="60.579421586651684" lon="6.940596476242452" id="-71483">
		<tag k="name" v="Solhovdvegen" />
		<tag k="ssr:date" v="2019-12-27" />
		<tag k="ssr:gruppe" v="veg" />
		<tag k="ssr:hovedgruppe" v="infrastruktur" />
		<tag k="ssr:stedsnr" v="543408" />
		<tag k="ssr:type" v="adressenavn" />
	</node>
	<node lat="60.574547695263895" lon="6.95416484777189" id="-71505">
		<tag k="name" v="Øvre Lekve" />
		<tag k="ssr:date" v="2019-12-27" />
		<tag k="ssr:gruppe" v="veg" />
		<tag k="ssr:hovedgruppe" v="infrastruktur" />
		<tag k="ssr:stedsnr" v="605858" />
		<tag k="ssr:type" v="adressenavn" />
	</node>
	<node lat="60.56638290067721" lon="6.962924688661088" id="-71523">
		<tag k="name" v="Indre Torblå" />
		<tag k="ssr:date" v="2019-12-27" />
		<tag k="ssr:gruppe" v="veg" />
		<tag k="ssr:hovedgruppe" v="infrastruktur" />
		<tag k="ssr:stedsnr" v="725385" />
		<tag k="ssr:type" v="adressenavn" />
	</node>
	<node lat="60.602949998675626" lon="7.503444443804566" id="-71602">
		<tag k="name" v="Finse" />
		<tag k="ssr:date" v="2019-12-27" />
		<tag k="ssr:gruppe" v="veg" />
		<tag k="ssr:hovedgruppe" v="infrastruktur" />
		<tag k="ssr:stedsnr" v="907359" />
		<tag k="ssr:type" v="adressenavn" />
	</node>
	<node lat="60.58976415703516" lon="7.032710331155136" id="-71603">
		<tag k="name" v="Sævartveitvegen" />
		<tag k="ssr:date" v="2019-12-27" />
		<tag k="ssr:gruppe" v="veg" />
		<tag k="ssr:hovedgruppe" v="infrastruktur" />
		<tag k="ssr:stedsnr" v="907365" />
		<tag k="ssr:type" v="adressenavn" />
	</node>
	<node lat="60.56707113599131" lon="6.957727548756035" id="-71604">
		<tag k="name" v="Kvålsvegen" />
		<tag k="ssr:date" v="2019-12-27" />
		<tag k="ssr:gruppe" v="veg" />
		<tag k="ssr:hovedgruppe" v="infrastruktur" />
		<tag k="ssr:stedsnr" v="907460" />
		<tag k="ssr:type" v="adressenavn" />
	</node>
	<node lat="60.564741103363296" lon="6.8990679394831025" id="-71607">
		<tag k="name" v="Sponheimsvegen" />
		<tag k="ssr:date" v="2019-12-27" />
		<tag k="ssr:gruppe" v="veg" />
		<tag k="ssr:hovedgruppe" v="infrastruktur" />
		<tag k="ssr:stedsnr" v="786508" />
		<tag k="ssr:type" v="adressenavn" />
	</node>
	<node lat="60.581561598658226" lon="6.883113976321368" id="-71608">
		<tag k="name" v="Aurdalsvegen" />
		<tag k="ssr:date" v="2019-12-27" />
		<tag k="ssr:gruppe" v="veg" />
		<tag k="ssr:hovedgruppe" v="infrastruktur" />
		<tag k="ssr:stedsnr" v="786423" />
		<tag k="ssr:type" v="adressenavn" />
	</node>
	<node lat="60.48705542145727" lon="6.8773180664092655" id="-71659">
		<tag k="name" v="Grønskål" />
		<tag k="ssr:date" v="2019-12-27" />
		<tag k="ssr:gruppe" v="veg" />
		<tag k="ssr:hovedgruppe" v="infrastruktur" />
		<tag k="ssr:stedsnr" v="974644" />
		<tag k="ssr:type" v="adressenavn" />
	</node>
	<node lat="60.487031263611044" lon="6.877471766935778" id="-71660">
		<tag k="name" v="Åsheim" />
		<tag k="ssr:date" v="2019-12-27" />
		<tag k="ssr:gruppe" v="veg" />
		<tag k="ssr:hovedgruppe" v="infrastruktur" />
		<tag k="ssr:stedsnr" v="974645" />
		<tag k="ssr:type" v="adressenavn" />
	</node>
	<node lat="60.492590506546655" lon="6.853105630990706" id="-71662">
		<tag k="name" v="Dalsete" />
		<tag k="ssr:date" v="2019-12-27" />
		<tag k="ssr:gruppe" v="veg" />
		<tag k="ssr:hovedgruppe" v="infrastruktur" />
		<tag k="ssr:stedsnr" v="974647" />
		<tag k="ssr:type" v="adressenavn" />
	</node>
	<node lat="60.48991893606603" lon="6.823734973244081" id="-71697">
		<tag k="name" v="Hardangerbruvegen" />
		<tag k="ssr:date" v="2019-12-27" />
		<tag k="ssr:gruppe" v="veg" />
		<tag k="ssr:hovedgruppe" v="infrastruktur" />
		<tag k="ssr:stedsnr" v="974485" />
		<tag k="ssr:type" v="adressenavn" />
	</node>
	<node lat="60.64598548050922" lon="7.519829155171631" id="-71698">
		<tag k="name" v="Klemsbu" />
		<tag k="ssr:date" v="2019-12-27" />
		<tag k="ssr:gruppe" v="veg" />
		<tag k="ssr:hovedgruppe" v="infrastruktur" />
		<tag k="ssr:stedsnr" v="974563" />
		<tag k="ssr:type" v="adressenavn" />
	</node>
	<node lat="60.664035831980236" lon="7.242121352450671" id="-71701">
		<tag k="name" v="Hallingskeid" />
		<tag k="ssr:date" v="2019-12-27" />
		<tag k="ssr:gruppe" v="veg" />
		<tag k="ssr:hovedgruppe" v="infrastruktur" />
		<tag k="ssr:stedsnr" v="974568" />
		<tag k="ssr:type" v="adressenavn" />
	</node>
	<node lat="60.5752943190631" lon="6.922783989407694" id="-71743">
		<tag k="name" v="Vestrheimsvegen" />
		<tag k="ssr:date" v="2019-12-27" />
		<tag k="ssr:gruppe" v="veg" />
		<tag k="ssr:hovedgruppe" v="infrastruktur" />
		<tag k="ssr:stedsnr" v="58435" />
		<tag k="ssr:type" v="adressenavn" />
	</node>
	<node lat="60.55372856397642" lon="6.928439714006537" id="-71744">
		<tag k="name" v="Vattatveitvegen" />
		<tag k="ssr:date" v="2019-12-27" />
		<tag k="ssr:gruppe" v="veg" />
		<tag k="ssr:hovedgruppe" v="infrastruktur" />
		<tag k="ssr:stedsnr" v="58450" />
		<tag k="ssr:type" v="adressenavn" />
	</node>
	<node lat="60.560733467272115" lon="6.965664170730703" id="-71745">
		<tag k="name" v="Osavegen" />
		<tag k="ssr:date" v="2019-12-27" />
		<tag k="ssr:gruppe" v="veg" />
		<tag k="ssr:hovedgruppe" v="infrastruktur" />
		<tag k="ssr:stedsnr" v="58453" />
		<tag k="ssr:type" v="adressenavn" />
	</node>
	<node lat="60.56814477552757" lon="6.958397367463268" id="-71746">
		<tag k="name" v="Ytre Torblå" />
		<tag k="ssr:date" v="2019-12-27" />
		<tag k="ssr:gruppe" v="veg" />
		<tag k="ssr:hovedgruppe" v="infrastruktur" />
		<tag k="ssr:stedsnr" v="58464" />
		<tag k="ssr:type" v="adressenavn" />
	</node>
	<node lat="60.57065036637086" lon="6.952443850715452" id="-71791">
		<tag k="name" v="Nedre Lekve" />
		<tag k="ssr:date" v="2019-12-27" />
		<tag k="ssr:gruppe" v="veg" />
		<tag k="ssr:hovedgruppe" v="infrastruktur" />
		<tag k="ssr:stedsnr" v="118389" />
		<tag k="ssr:type" v="adressenavn" />
	</node>
	<node lat="60.48651454914406" lon="6.881018836209219" id="-71792">
		<tag k="name" v="Nesheimsvegen" />
		<tag k="ssr:date" v="2019-12-27" />
		<tag k="ssr:gruppe" v="veg" />
		<tag k="ssr:hovedgruppe" v="infrastruktur" />
		<tag k="ssr:stedsnr" v="118367" />
		<tag k="ssr:type" v="adressenavn" />
	</node>
	<node lat="60.48752522713398" lon="6.830328416959818" id="-71920">
		<tag k="name" v="Hallangervegen" />
		<tag k="ssr:date" v="2019-12-27" />
		<tag k="ssr:gruppe" v="veg" />
		<tag k="ssr:hovedgruppe" v="infrastruktur" />
		<tag k="ssr:stedsnr" v="361450" />
		<tag k="ssr:type" v="adressenavn" />
	</node>
	<node lat="60.567186109638314" lon="6.918705551455947" id="-71941">
		<tag k="alt_name" v="Ulvik" />
		<tag k="name" v="Ulvik herad" />
		<tag k="ssr:date" v="2019-12-27" />
		<tag k="ssr:gruppe" v="administrativeIndelinger" />
		<tag k="ssr:hovedgruppe" v="offentligAdministrasjon" />
		<tag k="ssr:stedsnr" v="388095" />
		<tag k="ssr:type" v="kommune" />
	</node>
	<node lat="60.4887906885146" lon="6.836436404644468" id="-71962">
		<tag k="name" v="Tjoflotvegen" />
		<tag k="ssr:date" v="2019-12-27" />
		<tag k="ssr:gruppe" v="veg" />
		<tag k="ssr:hovedgruppe" v="infrastruktur" />
		<tag k="ssr:stedsnr" v="422399" />
		<tag k="ssr:type" v="adressenavn" />
	</node>
	<node lat="60.69764157909017" lon="6.946042452114891" id="-72001">
		<tag k="name" v="Uppsetevegen" />
		<tag k="ssr:date" v="2019-12-27" />
		<tag k="ssr:gruppe" v="veg" />
		<tag k="ssr:hovedgruppe" v="infrastruktur" />
		<tag k="ssr:stedsnr" v="545843" />
		<tag k="ssr:type" v="adressenavn" />
	</node>
	<node lat="60.5609167490844" lon="6.879999875203943" id="-72076">
		<tag k="name" v="Lindebrekkevegen" />
		<tag k="ssr:date" v="2019-12-27" />
		<tag k="ssr:gruppe" v="veg" />
		<tag k="ssr:hovedgruppe" v="infrastruktur" />
		<tag k="ssr:stedsnr" v="664363" />
		<tag k="ssr:type" v="adressenavn" />
	</node>
	<node lat="60.55902006629364" lon="6.907150123517119" id="-72077">
		<tag k="name" v="Frystevegen" />
		<tag k="ssr:date" v="2019-12-27" />
		<tag k="ssr:gruppe" v="veg" />
		<tag k="ssr:hovedgruppe" v="infrastruktur" />
		<tag k="ssr:stedsnr" v="664365" />
		<tag k="ssr:type" v="adressenavn" />
	</node>
	<node lat="60.56112726053396" lon="6.903505259339103" id="-72078">
		<tag k="name" v="Vambheimsvegen" />
		<tag k="ssr:date" v="2019-12-27" />
		<tag k="ssr:gruppe" v="veg" />
		<tag k="ssr:hovedgruppe" v="infrastruktur" />
		<tag k="ssr:stedsnr" v="664400" />
		<tag k="ssr:type" v="adressenavn" />
	</node>
	<node lat="60.54934604405596" lon="6.930502443544437" id="-72129">
		<tag k="name" v="Hjeltnesvegen" />
		<tag k="ssr:date" v="2019-12-27" />
		<tag k="ssr:gruppe" v="veg" />
		<tag k="ssr:hovedgruppe" v="infrastruktur" />
		<tag k="ssr:stedsnr" v="786444" />
		<tag k="ssr:type" v="adressenavn" />
	</node>
	<node lat="60.57086664999247" lon="6.90168606142994" id="-72210">
		<tag k="name" v="Byrsevegen" />
		<tag k="ssr:date" v="2019-12-27" />
		<tag k="ssr:gruppe" v="veg" />
		<tag k="ssr:hovedgruppe" v="infrastruktur" />
		<tag k="ssr:stedsnr" v="967356" />
		<tag k="ssr:type" v="adressenavn" />
	</node>
	<node lat="60.58473388446077" lon="7.031486110115061" id="-72211">
		<tag k="name" v="Sjovegen" />
		<tag k="ssr:date" v="2019-12-27" />
		<tag k="ssr:gruppe" v="veg" />
		<tag k="ssr:hovedgruppe" v="infrastruktur" />
		<tag k="ssr:stedsnr" v="967374" />
		<tag k="ssr:type" v="adressenavn" />
	</node>
	<node lat="60.563299723967184" lon="6.956670526607176" id="-72212">
		<tag k="name" v="Håheimsvegen" />
		<tag k="ssr:date" v="2019-12-27" />
		<tag k="ssr:gruppe" v="veg" />
		<tag k="ssr:hovedgruppe" v="infrastruktur" />
		<tag k="ssr:stedsnr" v="967383" />
		<tag k="ssr:type" v="adressenavn" />
	</node>
	<node lat="60.53002626429578" lon="6.910539093035777" id="-72225">
		<tag k="name" v="Taumasete" />
		<tag k="ssr:date" v="2019-12-27" />
		<tag k="ssr:gruppe" v="veg" />
		<tag k="ssr:hovedgruppe" v="infrastruktur" />
		<tag k="ssr:stedsnr" v="974488" />
		<tag k="ssr:type" v="adressenavn" />
	</node>
	<node lat="60.530257086644234" lon="6.9105961377502325" id="-72226">
		<tag k="name" v="Bagne" />
		<tag k="ssr:date" v="2019-12-27" />
		<tag k="ssr:gruppe" v="veg" />
		<tag k="ssr:hovedgruppe" v="infrastruktur" />
		<tag k="ssr:stedsnr" v="974490" />
		<tag k="ssr:type" v="adressenavn" />
	</node>
	<node lat="60.682749847773465" lon="7.210813296690191" id="-72228">
		<tag k="name" v="Tuftene" />
		<tag k="ssr:date" v="2019-12-27" />
		<tag k="ssr:gruppe" v="veg" />
		<tag k="ssr:hovedgruppe" v="infrastruktur" />
		<tag k="ssr:stedsnr" v="974569" />
		<tag k="ssr:type" v="adressenavn" />
	</node>
	<node lat="60.71223124049159" lon="6.990277787043691" id="-72231">
		<tag k="name" v="Dalen" />
		<tag k="ssr:date" v="2019-12-27" />
		<tag k="ssr:gruppe" v="veg" />
		<tag k="ssr:hovedgruppe" v="infrastruktur" />
		<tag k="ssr:stedsnr" v="974572" />
		<tag k="ssr:type" v="adressenavn" />
	</node>
	<node lat="60.60001917142735" lon="6.946651271363264" id="-72236">
		<tag k="name" v="Horgo" />
		<tag k="ssr:date" v="2019-12-27" />
		<tag k="ssr:gruppe" v="veg" />
		<tag k="ssr:hovedgruppe" v="infrastruktur" />
		<tag k="ssr:stedsnr" v="974577" />
		<tag k="ssr:type" v="adressenavn" />
	</node>
	<node lat="60.60003497747822" lon="6.946748264697656" id="-72237">
		<tag k="name" v="Vassdalane" />
		<tag k="ssr:date" v="2019-12-27" />
		<tag k="ssr:gruppe" v="veg" />
		<tag k="ssr:hovedgruppe" v="infrastruktur" />
		<tag k="ssr:stedsnr" v="974578" />
		<tag k="ssr:type" v="adressenavn" />
	</node>
	<node lat="60.59406769640078" lon="7.038762830152012" id="-72238">
		<tag k="name" v="Ossete" />
		<tag k="ssr:date" v="2019-12-27" />
		<tag k="ssr:gruppe" v="veg" />
		<tag k="ssr:hovedgruppe" v="infrastruktur" />
		<tag k="ssr:stedsnr" v="974579" />
		<tag k="ssr:type" v="adressenavn" />
	</node>
	<node lat="60.578307913534715" lon="6.913086606301952" id="-72239">
		<tag k="name" v="Vestrheimskleppe" />
		<tag k="ssr:date" v="2019-12-27" />
		<tag k="ssr:gruppe" v="veg" />
		<tag k="ssr:hovedgruppe" v="infrastruktur" />
		<tag k="ssr:stedsnr" v="974580" />
		<tag k="ssr:type" v="adressenavn" />
	</node>
	<node lat="60.53010944185142" lon="6.91056655801343" id="-72243">
		<tag k="name" v="Bagnsstrondi" />
		<tag k="ssr:date" v="2019-12-27" />
		<tag k="ssr:gruppe" v="veg" />
		<tag k="ssr:hovedgruppe" v="infrastruktur" />
		<tag k="ssr:stedsnr" v="975769" />
		<tag k="ssr:type" v="adressenavn" />
	</node>
</osm>
