<?xml version="1.0" encoding="UTF-8"?>
<<<<<<< HEAD
<osm version="0.6" generator="osmapis">
	<node lat="60.22773481030073" lon="5.797477430504155" id="-27308">
		<tag k="name" v="Stemmetjørna" />
		<tag k="natural" v="water" />
		<tag k="ssr:stedsnr" v="4022" />
	</node>
	<node lat="60.27801370056341" lon="5.712462185837017" id="-27323">
		<tag k="name" v="Remavatnet" />
		<tag k="natural" v="water" />
		<tag k="ssr:stedsnr" v="5302" />
	</node>
	<node lat="60.30321641088986" lon="5.833303855934845" id="-27325">
		<tag k="name" v="Setehaugtjørna" />
		<tag k="natural" v="water" />
		<tag k="ssr:stedsnr" v="5259" />
	</node>
	<node lat="60.254661107165155" lon="5.852925007199443" id="-27329">
		<tag k="alt_name" v="Gjønvatnet" />
		<tag k="name" v="Gjønavatnet" />
		<tag k="natural" v="water" />
		<tag k="ssr:stedsnr" v="5806" />
		<tag k="water" v="lake" />
	</node>
	<node lat="60.120963887406475" lon="5.853838894429378" id="-27331">
		<tag k="name" v="Horgatjørna" />
		<tag k="natural" v="water" />
		<tag k="ssr:stedsnr" v="5867" />
	</node>
	<node lat="60.28581711926557" lon="5.881565580057394" id="-27334">
		<tag k="name" v="Gurigrøvatnet" />
		<tag k="natural" v="water" />
		<tag k="ssr:stedsnr" v="5920" />
	</node>
	<node lat="60.218102781666055" lon="5.884233339980314" id="-27355">
		<tag k="name" v="Klubben" />
		<tag k="natural" v="cape" />
		<tag k="ssr:stedsnr" v="37262" />
	</node>
	<node lat="60.13044444263875" lon="5.838827779963108" id="-27369">
		<tag k="name" v="Tverrelva" />
		<tag k="ssr:stedsnr" v="37370" />
		<tag k="waterway" v="river" />
	</node>
	<node lat="60.1441916677611" lon="5.805958325246966" id="-27371">
		<tag k="name" v="Vasabekken" />
		<tag k="ssr:stedsnr" v="37608" />
		<tag k="waterway" v="stream" />
	</node>
	<node lat="60.29368611196547" lon="5.763005559208618" id="-27373">
		<tag k="name" v="Storaneset" />
		<tag k="natural" v="cape" />
		<tag k="ssr:stedsnr" v="37670" />
	</node>
	<node lat="60.32083055960867" lon="5.700983330115831" id="-27385">
		<tag k="name" v="Skarebekken" />
		<tag k="ssr:stedsnr" v="37974" />
		<tag k="waterway" v="stream" />
	</node>
	<node lat="60.051631866739626" lon="5.770340205667401" id="-27396">
		<tag k="name" v="Pasåstjørna" />
		<tag k="natural" v="water" />
		<tag k="ssr:stedsnr" v="65304" />
	</node>
	<node lat="60.035328985509274" lon="5.786830085020839" id="-27399">
		<tag k="name" v="Brothølen" />
		<tag k="natural" v="water" />
		<tag k="ssr:stedsnr" v="65619" />
		<tag k="water" v="lake" />
	</node>
	<node lat="60.05489649580291" lon="5.73243699745954" id="-27405">
		<tag k="name" v="Teigatjørna" />
		<tag k="natural" v="water" />
		<tag k="ssr:stedsnr" v="66347" />
	</node>
	<node lat="60.098313893420986" lon="5.820963893977154" id="-27408">
		<tag k="name" v="Krokvatnet" />
		<tag k="natural" v="water" />
		<tag k="ssr:stedsnr" v="66407" />
	</node>
	<node lat="60.104002776522755" lon="5.78313889135009" id="-27410">
		<tag k="name" v="Svartavatnet" />
		<tag k="natural" v="water" />
		<tag k="ssr:stedsnr" v="66414" />
	</node>
	<node lat="60.11491068724758" lon="5.781769250565462" id="-27411">
		<tag k="name" v="Austedalstjørna" />
		<tag k="natural" v="water" />
		<tag k="ssr:stedsnr" v="66417" />
	</node>
	<node lat="60.23822807030284" lon="5.482018888070888" id="-27421">
		<tag k="name" v="Hundabekktjørnane" />
		<tag k="natural" v="water" />
		<tag k="ssr:stedsnr" v="247191" />
		<tag k="water" v="lake" />
	</node>
	<node lat="60.24866788837471" lon="5.886065820441341" id="-27442">
		<tag k="name" v="Åsetjørna" />
		<tag k="natural" v="water" />
		<tag k="ssr:stedsnr" v="247687" />
	</node>
	<node lat="60.20699044151809" lon="5.41278389056237" id="-27447">
		<tag k="alt_name" v="Åsavatnet" />
		<tag k="name" v="Åsatjørnane" />
		<tag k="natural" v="water" />
		<tag k="ssr:stedsnr" v="247751" />
		<tag k="water" v="lake" />
	</node>
	<node lat="60.272550001628225" lon="5.838127769668514" id="-27449">
		<tag k="name" v="Borgsholmen" />
		<tag k="place" v="islet" />
		<tag k="ssr:stedsnr" v="97460" />
	</node>
	<node lat="60.25371385018107" lon="5.473509266239433" id="-27454">
		<tag k="name" v="Lona" />
		<tag k="natural" v="water" />
		<tag k="ssr:stedsnr" v="98015" />
		<tag k="water" v="lake" />
	</node>
	<node lat="60.21734444872262" lon="5.82234445033244" id="-27457">
		<tag k="name" v="Rennesvikselva" />
		<tag k="ssr:stedsnr" v="98217" />
		<tag k="waterway" v="river" />
	</node>
	<node lat="60.25751299587109" lon="5.531398489695914" id="-27459">
		<tag k="name" v="Instatjørna" />
		<tag k="natural" v="water" />
		<tag k="ssr:stedsnr" v="98220" />
	</node>
	<node lat="60.222377775074364" lon="5.462008335862366" id="-27463">
		<tag k="name" v="Teinavika" />
		<tag k="natural" v="bay" />
		<tag k="ssr:stedsnr" v="98302" />
	</node>
	<node lat="60.27393785240353" lon="5.494294097833237" id="-27464">
		<tag k="name" v="Sineset" />
		<tag k="natural" v="cape" />
		<tag k="ssr:stedsnr" v="98309" />
	</node>
	<node lat="60.28004444799294" lon="5.551188885665462" id="-27466">
		<tag k="name" v="Slåtteneset" />
		<tag k="natural" v="cape" />
		<tag k="ssr:stedsnr" v="98264" />
	</node>
	<node lat="60.25965833599856" lon="5.523050007798907" id="-27503">
		<tag k="name" v="Steindalselva" />
		<tag k="ssr:stedsnr" v="248283" />
		<tag k="waterway" v="stream" />
	</node>
	<node lat="60.265353619647804" lon="5.4892715796673635" id="-27504">
		<tag k="name" v="Ytsta Raudlivatnet" />
		<tag k="natural" v="water" />
		<tag k="ssr:stedsnr" v="248294" />
		<tag k="water" v="lake" />
	</node>
	<node lat="60.203844443289434" lon="5.8887055583735215" id="-27511">
		<tag k="name" v="Skogseidelva" />
		<tag k="ssr:stedsnr" v="248531" />
		<tag k="waterway" v="stream" />
	</node>
	<node lat="60.245832387406054" lon="5.782925156161394" id="-27519">
		<tag k="name" v="Skjelbreidvatnet" />
		<tag k="natural" v="water" />
		<tag k="ssr:stedsnr" v="125056" />
		<tag k="water" v="lake" />
	</node>
	<node lat="60.20698889227615" lon="5.836986110784527" id="-27532">
		<tag k="name" v="Blekaneset" />
		<tag k="natural" v="cape" />
		<tag k="ssr:stedsnr" v="126080" />
	</node>
	<node lat="60.11747259593506" lon="5.825385185243512" id="-27539">
		<tag k="name" v="Horgavatnet" />
		<tag k="natural" v="water" />
		<tag k="ssr:stedsnr" v="126449" />
	</node>
	<node lat="60.31967885836331" lon="5.769760024818254" id="-27543">
		<tag k="name" v="Skadvatnet" />
		<tag k="natural" v="water" />
		<tag k="ssr:stedsnr" v="127260" />
	</node>
	<node lat="60.26713055683283" lon="5.93031944059019" id="-27544">
		<tag k="name" v="Storelva" />
		<tag k="ssr:stedsnr" v="127619" />
		<tag k="waterway" v="river" />
	</node>
	<node lat="60.248780421868865" lon="5.507952677171008" id="-27592">
		<tag k="name" v="Rundatjørna" />
		<tag k="natural" v="water" />
		<tag k="ssr:stedsnr" v="159268" />
	</node>
	<node lat="60.28064722290484" lon="5.548836107699934" id="-27597">
		<tag k="name" v="Ramsneset" />
		<tag k="natural" v="cape" />
		<tag k="ssr:stedsnr" v="159308" />
	</node>
	<node lat="60.21575833440095" lon="5.430105563404831" id="-27598">
		<tag k="name" v="Kvernavika" />
		<tag k="natural" v="bay" />
		<tag k="ssr:stedsnr" v="159309" />
	</node>
	<node lat="60.21738889004643" lon="5.67850555002763" id="-27607">
		<tag k="alt_name" v="Kokeelva" />
		<tag k="name" v="Kokelva" />
		<tag k="ssr:stedsnr" v="186002" />
		<tag k="waterway" v="stream" />
	</node>
	<node lat="60.21957777660153" lon="5.806691663704986" id="-27609">
		<tag k="name" v="Sætratjørna" />
		<tag k="natural" v="water" />
		<tag k="ssr:stedsnr" v="186008" />
	</node>
	<node lat="60.20321110742776" lon="5.782036115371729" id="-27620">
		<tag k="name" v="Gråklubbelva" />
		<tag k="ssr:stedsnr" v="186077" />
		<tag k="waterway" v="stream" />
	</node>
	<node lat="60.081019448383834" lon="5.771477776705061" id="-27621">
		<tag k="name" v="Slåttelva" />
		<tag k="ssr:stedsnr" v="186280" />
		<tag k="waterway" v="stream" />
	</node>
	<node lat="60.17423606591649" lon="5.850001100476924" id="-27631">
		<tag k="name" v="Svartavatnet" />
		<tag k="natural" v="water" />
		<tag k="ssr:stedsnr" v="187506" />
	</node>
	<node lat="60.28103611373975" lon="5.501033327755465" id="-27632">
		<tag k="name" v="Sølverelva" />
		<tag k="ssr:stedsnr" v="187236" />
		<tag k="waterway" v="stream" />
	</node>
	<node lat="60.10249041746854" lon="5.811602263483765" id="-27636">
		<tag k="alt_name" v="Stegvatnet" />
		<tag k="name" v="Stevatnet" />
		<tag k="natural" v="water" />
		<tag k="ssr:stedsnr" v="187414" />
	</node>
	<node lat="60.19574444555228" lon="5.869058336012123" id="-27637">
		<tag k="alt_name" v="Tomreelva" />
		<tag k="name" v="Tomraelva" />
		<tag k="ssr:stedsnr" v="187479" />
		<tag k="waterway" v="stream" />
	</node>
	<node lat="60.255607049452806" lon="5.884816076931847" id="-27639">
		<tag k="name" v="Stemmetjørna" />
		<tag k="natural" v="water" />
		<tag k="ssr:stedsnr" v="187824" />
	</node>
	<node lat="60.251891663552406" lon="5.926827779776487" id="-27640">
		<tag k="name" v="Orraelva" />
		<tag k="ssr:stedsnr" v="187779" />
		<tag k="waterway" v="river" />
	</node>
	<node lat="60.34530793678931" lon="5.738517531063206" id="-27689">
		<tag k="name" v="Altasetredalstjørna" />
		<tag k="natural" v="water" />
		<tag k="ssr:stedsnr" v="219687" />
		<tag k="water" v="lake" />
	</node>
	<node lat="60.307796706012965" lon="5.661146627397805" id="-27693">
		<tag k="name" v="Hopstjørna" />
		<tag k="natural" v="water" />
		<tag k="ssr:stedsnr" v="219981" />
	</node>
	<node lat="60.25711398563392" lon="5.52387373995069" id="-27703">
		<tag k="name" v="Svartebottstjørna" />
		<tag k="natural" v="water" />
		<tag k="ssr:stedsnr" v="220304" />
	</node>
	<node lat="60.2345222231016" lon="5.449963895001449" id="-27706">
		<tag k="name" v="Trosavika" />
		<tag k="natural" v="bay" />
		<tag k="ssr:stedsnr" v="220374" />
	</node>
	<node lat="60.22671977190281" lon="5.803748626262762" id="-27731">
		<tag k="name" v="Halvgjengetjørna" />
		<tag k="natural" v="water" />
		<tag k="ssr:stedsnr" v="247025" />
	</node>
	<node lat="60.21561944855823" lon="5.477688884105546" id="-27732">
		<tag k="alt_name" v="Tøsdalselva" />
		<tag k="name" v="Tyssdalselva" />
		<tag k="ssr:stedsnr" v="247027" />
		<tag k="waterway" v="stream" />
	</node>
	<node lat="60.21368888655682" lon="5.828266663943419" id="-27735">
		<tag k="name" v="Rennesvika" />
		<tag k="natural" v="bay" />
		<tag k="ssr:stedsnr" v="247111" />
	</node>
	<node lat="60.08001388445093" lon="5.838769441491946" id="-27736">
		<tag k="name" v="Eikedalstjørna" />
		<tag k="natural" v="water" />
		<tag k="ssr:stedsnr" v="247287" />
	</node>
	<node lat="60.13268889306654" lon="5.767294452556522" id="-27738">
		<tag k="name" v="Svinasteinstjørna" />
		<tag k="natural" v="water" />
		<tag k="ssr:stedsnr" v="247470" />
		<tag k="water" v="lake" />
	</node>
	<node lat="60.13871028118271" lon="5.836560588782424" id="-27739">
		<tag k="name" v="Vetlavatnet" />
		<tag k="natural" v="water" />
		<tag k="ssr:stedsnr" v="247472" />
	</node>
	<node lat="60.20544167083103" lon="5.847547229354588" id="-27782">
		<tag k="name" v="Trosavika" />
		<tag k="natural" v="bay" />
		<tag k="ssr:stedsnr" v="280213" />
	</node>
	<node lat="60.09208333093278" lon="5.833636104585508" id="-27790">
		<tag k="name" v="Kjeaholmen" />
		<tag k="place" v="islet" />
		<tag k="ssr:stedsnr" v="280309" />
	</node>
	<node lat="60.18343200893058" lon="5.439553785233155" id="-27791">
		<tag k="name" v="Havrheitjørna" />
		<tag k="natural" v="water" />
		<tag k="ssr:stedsnr" v="280315" />
	</node>
	<node lat="60.22822354762237" lon="5.438854421941789" id="-27797">
		<tag k="name" v="Grønavika" />
		<tag k="natural" v="bay" />
		<tag k="ssr:stedsnr" v="280291" />
	</node>
	<node lat="60.27150555814129" lon="5.489777786234599" id="-27799">
		<tag k="name" v="Raudlistraumen" />
		<tag k="natural" v="strait" />
		<tag k="ssr:stedsnr" v="280296" />
	</node>
	<node lat="60.15321436627748" lon="5.828264231153649" id="-27806">
		<tag k="alt_name" v="Øystølvatnet" />
		<tag k="name" v="Øysetervatnet" />
		<tag k="natural" v="water" />
		<tag k="ssr:stedsnr" v="280505" />
		<tag k="water" v="lake" />
	</node>
	<node lat="60.214840860505" lon="5.410026741836385" id="-27809">
		<tag k="name" v="Abbedstjørna" />
		<tag k="natural" v="water" />
		<tag k="ssr:stedsnr" v="280516" />
	</node>
	<node lat="60.13637499687404" lon="5.816491673951881" id="-27831">
		<tag k="name" v="Rotadalsbekken" />
		<tag k="ssr:stedsnr" v="461593" />
		<tag k="waterway" v="stream" />
	</node>
	<node lat="60.18436091055469" lon="5.6288636848122735" id="-27845">
		<tag k="name" v="Hagatjørna" />
		<tag k="natural" v="water" />
		<tag k="ssr:stedsnr" v="461847" />
	</node>
	<node lat="60.20367553884293" lon="5.3514406709176985" id="-27848">
		<tag k="name" v="Drangsvatnet" />
		<tag k="natural" v="water" />
		<tag k="ssr:stedsnr" v="462008" />
		<tag k="water" v="lake" />
	</node>
	<node lat="60.210281194694346" lon="5.417370344500868" id="-27859">
		<tag k="name" v="Rundatjørna" />
		<tag k="natural" v="water" />
		<tag k="ssr:stedsnr" v="462254" />
	</node>
	<node lat="60.231166663904595" lon="5.440533331763235" id="-27866">
		<tag k="name" v="Klubbsvika" />
		<tag k="natural" v="bay" />
		<tag k="ssr:stedsnr" v="462289" />
	</node>
	<node lat="60.274372219755264" lon="5.843138894054256" id="-27882">
		<tag k="name" v="Tausaholmen" />
		<tag k="place" v="islet" />
		<tag k="ssr:stedsnr" v="462492" />
	</node>
	<node lat="60.224912036857695" lon="5.511704308525374" id="-27884">
		<tag k="name" v="Hegglandstjørna" />
		<tag k="natural" v="water" />
		<tag k="ssr:stedsnr" v="462499" />
	</node>
	<node lat="60.142697341235795" lon="5.8073813712823235" id="-27887">
		<tag k="name" v="Krokvasstjørna" />
		<tag k="natural" v="water" />
		<tag k="ssr:stedsnr" v="462587" />
	</node>
	<node lat="60.300358336864775" lon="5.79019999349804" id="-27892">
		<tag k="name" v="Spongatjørnelva" />
		<tag k="ssr:stedsnr" v="462651" />
		<tag k="waterway" v="river" />
	</node>
	<node lat="60.279447222371516" lon="5.590497224506195" id="-27918">
		<tag k="name" v="Strandaelva" />
		<tag k="ssr:stedsnr" v="308265" />
		<tag k="waterway" v="stream" />
	</node>
	<node lat="60.27766788813115" lon="5.550979582764265" id="-27920">
		<tag k="name" v="Øvredalsvatnet" />
		<tag k="natural" v="water" />
		<tag k="ssr:stedsnr" v="308269" />
		<tag k="water" v="lake" />
	</node>
	<node lat="60.073947223926254" lon="5.837916662605459" id="-27923">
		<tag k="name" v="Fossaelva" />
		<tag k="ssr:stedsnr" v="308272" />
		<tag k="waterway" v="stream" />
	</node>
	<node lat="60.098444448099784" lon="5.753161103863105" id="-27925">
		<tag k="name" v="Hjartåkerelva" />
		<tag k="ssr:stedsnr" v="308402" />
		<tag k="waterway" v="stream" />
	</node>
	<node lat="60.19923432274771" lon="5.462520490011749" id="-27928">
		<tag k="name" v="Banktjørna" />
		<tag k="natural" v="water" />
		<tag k="ssr:stedsnr" v="308742" />
	</node>
	<node lat="60.103674657093784" lon="5.862082044248238" id="-27932">
		<tag k="name" v="Grunnavatnet" />
		<tag k="natural" v="water" />
		<tag k="ssr:stedsnr" v="308891" />
	</node>
	<node lat="60.25526387532782" lon="5.439272947067423" id="-27937">
		<tag k="name" v="Røykenesvatnet" />
		<tag k="natural" v="water" />
		<tag k="ssr:stedsnr" v="324090" />
		<tag k="water" v="lake" />
	</node>
	<node lat="60.19761389162405" lon="5.79172776935064" id="-27967">
		<tag k="name" v="Kvernhusvika" />
		<tag k="natural" v="bay" />
		<tag k="ssr:stedsnr" v="340604" />
	</node>
	<node lat="60.24282499575506" lon="5.793461108207247" id="-27974">
		<tag k="name" v="Kilen" />
		<tag k="natural" v="bay" />
		<tag k="ssr:stedsnr" v="340646" />
	</node>
	<node lat="60.221061114599586" lon="5.456583327101513" id="-27984">
		<tag k="name" v="Skiftesvika" />
		<tag k="natural" v="bay" />
		<tag k="ssr:stedsnr" v="341351" />
	</node>
	<node lat="60.15514444583766" lon="5.793191665535128" id="-28002">
		<tag k="name" v="Laugarvatnet" />
		<tag k="natural" v="water" />
		<tag k="ssr:stedsnr" v="368424" />
		<tag k="water" v="lake" />
	</node>
	<node lat="60.19511666713267" lon="5.682652779383191" id="-28005">
		<tag k="name" v="Stemelva" />
		<tag k="ssr:stedsnr" v="368124" />
		<tag k="waterway" v="stream" />
	</node>
	<node lat="60.25525000193903" lon="5.78475000616594" id="-28010">
		<tag k="name" v="Hestabekken" />
		<tag k="ssr:stedsnr" v="369311" />
		<tag k="waterway" v="stream" />
	</node>
	<node lat="60.31979976729244" lon="5.8129472691831365" id="-28016">
		<tag k="alt_name" v="Trælatjørna, austre" />
		<tag k="name" v="Austre Trælatjørna" />
		<tag k="natural" v="water" />
		<tag k="ssr:stedsnr" v="369226" />
	</node>
	<node lat="60.268265216672404" lon="5.769044336823426" id="-28018">
		<tag k="name" v="Koldalstjørna" />
		<tag k="natural" v="water" />
		<tag k="ssr:stedsnr" v="369276" />
	</node>
	<node lat="60.2139250035983" lon="5.8710083244746105" id="-28024">
		<tag k="name" v="Storeholmen" />
		<tag k="place" v="islet" />
		<tag k="ssr:stedsnr" v="369686" />
	</node>
	<node lat="60.19673332932615" lon="5.594997222519654" id="-28028">
		<tag k="name" v="Storholmen" />
		<tag k="place" v="islet" />
		<tag k="ssr:stedsnr" v="388703" />
	</node>
	<node lat="60.22887969960697" lon="5.770597761896724" id="-28035">
		<tag k="name" v="Martinestjørna" />
		<tag k="natural" v="water" />
		<tag k="ssr:stedsnr" v="400534" />
	</node>
	<node lat="60.09193889256296" lon="5.856152768499832" id="-28054">
		<tag k="name" v="Vassnesa" />
		<tag k="natural" v="cape" />
		<tag k="ssr:stedsnr" v="401331" />
	</node>
	<node lat="60.085027775362015" lon="5.8237833410504685" id="-28057">
		<tag k="name" v="Klokkevika" />
		<tag k="natural" v="bay" />
		<tag k="ssr:stedsnr" v="401334" />
	</node>
	<node lat="60.22062777365796" lon="5.853369441986291" id="-28059">
		<tag k="name" v="Bjørgvika" />
		<tag k="natural" v="bay" />
		<tag k="ssr:stedsnr" v="401285" />
	</node>
	<node lat="60.23359253294137" lon="5.464876030300344" id="-28063">
		<tag k="name" v="Sandholmen" />
		<tag k="place" v="islet" />
		<tag k="ssr:stedsnr" v="401298" />
	</node>
	<node lat="60.27015833140284" lon="5.675872219532406" id="-28085">
		<tag k="name" v="Matlandselva" />
		<tag k="ssr:stedsnr" v="401775" />
		<tag k="waterway" v="river" />
	</node>
	<node lat="60.06951042748177" lon="5.757111292037114" id="-28101">
		<tag k="alt_name" v="Grunnasund" />
		<tag k="name" v="Grunnasundet" />
		<tag k="natural" v="strait" />
		<tag k="ssr:stedsnr" v="418245" />
	</node>
	<node lat="60.168942261733605" lon="5.839462630696024" id="-28112">
		<tag k="name" v="Fagravatnet" />
		<tag k="natural" v="water" />
		<tag k="ssr:stedsnr" v="490364" />
		<tag k="water" v="lake" />
	</node>
	<node lat="60.139293217165424" lon="5.796045200164371" id="-28113">
		<tag k="name" v="Krokvatnet" />
		<tag k="natural" v="water" />
		<tag k="ssr:stedsnr" v="490451" />
		<tag k="water" v="lake" />
	</node>
	<node lat="60.12074999636342" lon="5.777433334890298" id="-28115">
		<tag k="name" v="Femangerelva" />
		<tag k="ssr:stedsnr" v="490468" />
		<tag k="waterway" v="stream" />
	</node>
	<node lat="60.130905559184924" lon="5.808577779872803" id="-28116">
		<tag k="name" v="Halavasselva" />
		<tag k="ssr:stedsnr" v="490477" />
		<tag k="waterway" v="stream" />
	</node>
	<node lat="60.21291434302331" lon="5.779396616679198" id="-28118">
		<tag k="name" v="Brandaskartjørnane" />
		<tag k="natural" v="water" />
		<tag k="ssr:stedsnr" v="429107" />
		<tag k="water" v="lake" />
	</node>
	<node lat="60.196936604688496" lon="5.370435753608668" id="-28132">
		<tag k="name" v="Langavatnet" />
		<tag k="natural" v="water" />
		<tag k="ssr:stedsnr" v="429764" />
	</node>
	<node lat="60.28201294112742" lon="5.7737142118100815" id="-28137">
		<tag k="name" v="Svartetjørn" />
		<tag k="natural" v="water" />
		<tag k="ssr:stedsnr" v="430307" />
	</node>
	<node lat="60.26878687262674" lon="5.697504521372115" id="-28144">
		<tag k="name" v="Hafskorvatnet" />
		<tag k="natural" v="water" />
		<tag k="ssr:stedsnr" v="491301" />
	</node>
	<node lat="60.2069999988271" lon="5.870080557444782" id="-28145">
		<tag k="name" v="Tomraholmen" />
		<tag k="place" v="islet" />
		<tag k="ssr:stedsnr" v="430513" />
	</node>
	<node lat="60.315002945776925" lon="5.756190788604263" id="-28147">
		<tag k="name" v="Trollabotnstjørna" />
		<tag k="natural" v="water" />
		<tag k="ssr:stedsnr" v="491238" />
	</node>
	<node lat="60.27253888721964" lon="5.85998056268662" id="-28148">
		<tag k="name" v="Skarvaelva" />
		<tag k="ssr:stedsnr" v="430908" />
		<tag k="waterway" v="stream" />
	</node>
	<node lat="60.192825002270645" lon="5.436833326578935" id="-28160">
		<tag k="name" v="Ulvenvatnet" />
		<tag k="natural" v="water" />
		<tag k="ssr:stedsnr" v="671787" />
		<tag k="water" v="lake" />
	</node>
	<node lat="60.22669128611746" lon="5.449901519138762" id="-28163">
		<tag k="name" v="Gåsakilen" />
		<tag k="natural" v="water" />
		<tag k="ssr:stedsnr" v="671860" />
	</node>
	<node lat="60.12548436402954" lon="5.784381592066745" id="-28178">
		<tag k="name" v="Senafjelltjørna" />
		<tag k="natural" v="water" />
		<tag k="ssr:stedsnr" v="672450" />
	</node>
	<node lat="60.32455498303742" lon="5.69347675347825" id="-28188">
		<tag k="alt_name" v="Sævlavatnet" />
		<tag k="name" v="Sævellavatnet" />
		<tag k="natural" v="water" />
		<tag k="ssr:stedsnr" v="673246" />
		<tag k="water" v="lake" />
	</node>
	<node lat="60.176332744988315" lon="5.673613899734957" id="-28190">
		<tag k="name" v="Trongskartjørna" />
		<tag k="natural" v="water" />
		<tag k="ssr:stedsnr" v="460863" />
	</node>
	<node lat="60.15820278090223" lon="5.782838885288459" id="-28194">
		<tag k="name" v="Laugarelva" />
		<tag k="ssr:stedsnr" v="461510" />
		<tag k="waterway" v="river" />
	</node>
	<node lat="60.160055553186254" lon="5.784805560305491" id="-28198">
		<tag k="name" v="Melkeholsbekken" />
		<tag k="ssr:stedsnr" v="461523" />
		<tag k="waterway" v="stream" />
	</node>
	<node lat="60.214986112983446" lon="5.445397222384295" id="-28217">
		<tag k="name" v="Skogavika" />
		<tag k="natural" v="bay" />
		<tag k="ssr:stedsnr" v="462256" />
	</node>
	<node lat="60.19325833053003" lon="5.896963883934991" id="-28230">
		<tag k="name" v="Dyrabekken" />
		<tag k="ssr:stedsnr" v="462315" />
		<tag k="waterway" v="stream" />
	</node>
	<node lat="60.2880416690506" lon="5.545775006403067" id="-28233">
		<tag k="name" v="Træselva" />
		<tag k="ssr:stedsnr" v="462318" />
		<tag k="waterway" v="river" />
	</node>
	<node lat="60.26851109316414" lon="5.779164085961068" id="-28242">
		<tag k="name" v="Sætratjønna" />
		<tag k="natural" v="water" />
		<tag k="ssr:stedsnr" v="462715" />
	</node>
	<node lat="60.106073863226605" lon="5.729537013022494" id="-28248">
		<tag k="name" v="Hjartnestjørna" />
		<tag k="natural" v="water" />
		<tag k="ssr:stedsnr" v="462908" />
	</node>
	<node lat="60.08904444003137" lon="5.7614805544834775" id="-28258">
		<tag k="name" v="Knappelva" />
		<tag k="ssr:stedsnr" v="489494" />
		<tag k="waterway" v="stream" />
	</node>
	<node lat="60.20799616899648" lon="5.774867698978027" id="-28265">
		<tag k="name" v="Setratjørna" />
		<tag k="natural" v="water" />
		<tag k="ssr:stedsnr" v="490109" />
	</node>
	<node lat="60.198488892885074" lon="5.9197694361532545" id="-28268">
		<tag k="name" v="Grovvatnet" />
		<tag k="natural" v="water" />
		<tag k="ssr:stedsnr" v="490495" />
	</node>
	<node lat="60.28513610984885" lon="5.941188887166574" id="-28271">
		<tag k="name" v="Botnaelva" />
		<tag k="ssr:stedsnr" v="490917" />
		<tag k="waterway" v="stream" />
	</node>
	<node lat="60.322877780934" lon="5.88417778262552" id="-28290">
		<tag k="name" v="Skaraelva" />
		<tag k="ssr:stedsnr" v="521072" />
		<tag k="waterway" v="river" />
	</node>
	<node lat="60.20868181043107" lon="5.7097942038938045" id="-28295">
		<tag k="name" v="Grasdalstjørna" />
		<tag k="natural" v="water" />
		<tag k="ssr:stedsnr" v="521716" />
	</node>
	<node lat="60.21416111524983" lon="5.889322228243329" id="-28304">
		<tag k="name" v="Nordvika" />
		<tag k="natural" v="bay" />
		<tag k="ssr:stedsnr" v="522279" />
	</node>
	<node lat="60.31392499824413" lon="5.9017750079244475" id="-28312">
		<tag k="name" v="Tåka" />
		<tag k="ssr:stedsnr" v="522403" />
		<tag k="waterway" v="stream" />
	</node>
	<node lat="60.148528568205464" lon="5.418888202719978" id="-28332">
		<tag k="name" v="Iglavatnet" />
		<tag k="natural" v="water" />
		<tag k="ssr:stedsnr" v="523008" />
	</node>
	<node lat="60.31908888663287" lon="5.69430834201697" id="-28335">
		<tag k="name" v="Fiskebekken" />
		<tag k="ssr:stedsnr" v="522964" />
		<tag k="waterway" v="stream" />
	</node>
	<node lat="60.32267777507924" lon="5.700402785757784" id="-28336">
		<tag k="name" v="Løken" />
		<tag k="natural" v="bay" />
		<tag k="ssr:stedsnr" v="522970" />
	</node>
	<node lat="60.170613250409936" lon="5.343202454573031" id="-28348">
		<tag k="name" v="Strønevatnet" />
		<tag k="natural" v="water" />
		<tag k="ssr:stedsnr" v="523512" />
		<tag k="water" v="lake" />
	</node>
	<node lat="60.222694443353035" lon="5.515030557948976" id="-28352">
		<tag k="name" v="Kvernelva" />
		<tag k="ssr:stedsnr" v="523568" />
		<tag k="waterway" v="river" />
	</node>
	<node lat="60.22658333784511" lon="5.540475004636805" id="-28360">
		<tag k="name" v="Tveitavatnet" />
		<tag k="natural" v="water" />
		<tag k="ssr:stedsnr" v="550050" />
		<tag k="water" v="lake" />
	</node>
	<node lat="60.04475110370919" lon="5.724491619980851" id="-28362">
		<tag k="name" v="Svartatjørna" />
		<tag k="natural" v="water" />
		<tag k="ssr:stedsnr" v="550301" />
	</node>
	<node lat="60.26095278205779" lon="5.901094439674329" id="-28387">
		<tag k="name" v="Eidesbakktjørna" />
		<tag k="natural" v="water" />
		<tag k="ssr:stedsnr" v="551851" />
	</node>
	<node lat="60.25768610851027" lon="5.483675008269349" id="-28389">
		<tag k="name" v="Nordelva" />
		<tag k="ssr:stedsnr" v="552650" />
		<tag k="waterway" v="river" />
	</node>
	<node lat="60.20359432415733" lon="5.856021990261404" id="-28408">
		<tag k="name" v="Inste Kilhola" />
		<tag k="natural" v="water" />
		<tag k="ssr:stedsnr" v="582299" />
	</node>
	<node lat="60.17319444901915" lon="5.77143889336957" id="-28416">
		<tag k="name" v="Markhuselva" />
		<tag k="ssr:stedsnr" v="582508" />
		<tag k="waterway" v="river" />
	</node>
	<node lat="60.180258331907446" lon="5.60962222813852" id="-28420">
		<tag k="name" v="Skjørsandselva" />
		<tag k="ssr:stedsnr" v="582843" />
		<tag k="waterway" v="river" />
	</node>
	<node lat="60.239297222646115" lon="5.460130556709592" id="-28432">
		<tag k="name" v="Oselva" />
		<tag k="ssr:stedsnr" v="583308" />
		<tag k="waterway" v="river" />
	</node>
	<node lat="60.31620833422569" lon="5.736261113967388" id="-28446">
		<tag k="name" v="Fosselva" />
		<tag k="ssr:stedsnr" v="583623" />
		<tag k="waterway" v="river" />
	</node>
	<node lat="60.05994999583879" lon="5.74140833534775" id="-28452">
		<tag k="name" v="Kvernhusbekken" />
		<tag k="ssr:stedsnr" v="583898" />
		<tag k="waterway" v="stream" />
	</node>
	<node lat="60.29475680957095" lon="5.686394653464354" id="-28458">
		<tag k="name" v="Ramshaugtjørna" />
		<tag k="natural" v="water" />
		<tag k="ssr:stedsnr" v="584000" />
	</node>
	<node lat="60.269819443138125" lon="5.810988894923251" id="-28460">
		<tag k="name" v="Åreidselva" />
		<tag k="ssr:stedsnr" v="599651" />
		<tag k="waterway" v="river" />
	</node>
	<node lat="60.19993646708057" lon="5.798971412089745" id="-28466">
		<tag k="name" v="Henangervatnet" />
		<tag k="natural" v="water" />
		<tag k="ssr:stedsnr" v="611083" />
		<tag k="water" v="lake" />
	</node>
	<node lat="60.240091669177254" lon="5.536969441245023" id="-28472">
		<tag k="name" v="Spannsteigselva" />
		<tag k="old_name" v="Gjemna;Gjefna" />
		<tag k="ssr:stedsnr" v="611188" />
		<tag k="waterway" v="stream" />
	</node>
	<node lat="60.17083610714905" lon="5.799025005793751" id="-28474">
		<tag k="alt_name" v="Stølaelva" />
		<tag k="name" v="Setraelva" />
		<tag k="ssr:stedsnr" v="611391" />
		<tag k="waterway" v="stream" />
	</node>
	<node lat="60.217269445025856" lon="5.849505564397737" id="-28476">
		<tag k="name" v="Klubben" />
		<tag k="natural" v="cape" />
		<tag k="ssr:stedsnr" v="611736" />
	</node>
	<node lat="60.21827222079633" lon="5.402636111257136" id="-28479">
		<tag k="name" v="Sjøbøelva" />
		<tag k="ssr:stedsnr" v="611874" />
		<tag k="waterway" v="stream" />
	</node>
	<node lat="60.273985108631834" lon="5.73986227893088" id="-28487">
		<tag k="name" v="Stemmetjørna" />
		<tag k="natural" v="water" />
		<tag k="ssr:stedsnr" v="612305" />
	</node>
	<node lat="60.25672633352995" lon="5.515047877962113" id="-28489">
		<tag k="name" v="Krokvatnet" />
		<tag k="natural" v="water" />
		<tag k="ssr:stedsnr" v="612316" />
		<tag k="water" v="lake" />
	</node>
	<node lat="60.19706666653861" lon="5.613452780632826" id="-28497">
		<tag k="name" v="Steinbruelva" />
		<tag k="ssr:stedsnr" v="703832" />
		<tag k="waterway" v="river" />
	</node>
	<node lat="60.10993333660517" lon="5.861044441823041" id="-28499">
		<tag k="name" v="Gjottebekken" />
		<tag k="ssr:stedsnr" v="704329" />
		<tag k="waterway" v="stream" />
	</node>
	<node lat="60.09541944628839" lon="5.861650000996683" id="-28500">
		<tag k="name" v="Tømmervika" />
		<tag k="natural" v="bay" />
		<tag k="ssr:stedsnr" v="704332" />
	</node>
	<node lat="60.20125833714445" lon="5.870869452352825" id="-28506">
		<tag k="name" v="Tomravika" />
		<tag k="natural" v="bay" />
		<tag k="ssr:stedsnr" v="704254" />
	</node>
	<node lat="60.248677781693694" lon="5.874666660763405" id="-28513">
		<tag k="name" v="Fosselva" />
		<tag k="ssr:stedsnr" v="704414" />
		<tag k="waterway" v="river" />
	</node>
	<node lat="60.26841111180635" lon="5.841750004942546" id="-28519">
		<tag k="name" v="Bukkaholmen" />
		<tag k="place" v="islet" />
		<tag k="ssr:stedsnr" v="704448" />
	</node>
	<node lat="60.2528166661938" lon="5.8232861133736" id="-28520">
		<tag k="name" v="Heihellerneset" />
		<tag k="natural" v="cape" />
		<tag k="ssr:stedsnr" v="704406" />
	</node>
	<node lat="60.29155833729717" lon="5.770399993110802" id="-28528">
		<tag k="name" v="Vetlaneset" />
		<tag k="natural" v="cape" />
		<tag k="ssr:stedsnr" v="704627" />
	</node>
	<node lat="60.24383122713488" lon="5.411614581413124" id="-28552">
		<tag k="name" v="Mørkatjørna" />
		<tag k="natural" v="water" />
		<tag k="ssr:stedsnr" v="705336" />
	</node>
	<node lat="60.26669394336475" lon="5.533753655585958" id="-28553">
		<tag k="name" v="Langaneset" />
		<tag k="natural" v="cape" />
		<tag k="ssr:stedsnr" v="705340" />
	</node>
	<node lat="60.23982317867487" lon="5.477174711425759" id="-28566">
		<tag k="name" v="Mørkevågen" />
		<tag k="natural" v="bay" />
		<tag k="ssr:stedsnr" v="705549" />
	</node>
	<node lat="60.27560277977418" lon="5.839172226378562" id="-28575">
		<tag k="name" v="Kattaneset" />
		<tag k="natural" v="cape" />
		<tag k="ssr:stedsnr" v="643112" />
	</node>
	<node lat="60.233293368016305" lon="5.84822761101683" id="-28579">
		<tag k="name" v="Lomatjørna" />
=======
<osm generator="osmapis" version="0.6">
	<node id="-630781" lat="60.2691472258" lon="5.54756110388">
		<tag k="name" v="Midtseterelva" />
		<tag k="ssr:stedsnr" v="38319" />
		<tag k="waterway" v="river" />
	</node>
	<node id="-630779" lat="60.3208305596" lon="5.70098333012">
		<tag k="name" v="Skarebekken" />
		<tag k="ssr:stedsnr" v="37974" />
		<tag k="waterway" v="stream" />
	</node>
	<node id="-632825" lat="60.2363000006" lon="5.47701944476">
		<tag k="name" v="Hundabekken" />
		<tag k="ssr:stedsnr" v="308178" />
		<tag k="waterway" v="stream" />
	</node>
	<node id="-630762" lat="60.293686112" lon="5.76300555921">
		<tag k="name" v="Storaneset" />
		<tag k="natural" v="cape" />
		<tag k="ssr:stedsnr" v="37670" />
	</node>
	<node id="-630759" lat="60.1441916678" lon="5.80595832525">
		<tag k="name" v="Vasabekken" />
		<tag k="ssr:stedsnr" v="37608" />
		<tag k="waterway" v="stream" />
	</node>
	<node id="-630757" lat="60.2621805554" lon="5.85176110336">
		<tag k="name" v="Sandvikane" />
		<tag k="natural" v="bay" />
		<tag k="ssr:stedsnr" v="37466" />
	</node>
	<node id="-630751" lat="60.1304444426" lon="5.83882777996">
		<tag k="name" v="Tverrelva" />
		<tag k="ssr:stedsnr" v="37370" />
		<tag k="waterway" v="river" />
	</node>
	<node id="-632780" lat="60.3231750044" lon="5.72889445214">
		<tag k="alt_name" v="Breidvatnet" />
		<tag k="name" v="Breivatnet" />
		<tag k="natural" v="water" />
		<tag k="ssr:stedsnr" v="188250" />
	</node>
	<node id="-632779" lat="60.3000933004" lon="5.93291171297">
		<tag k="name" v="Osadalsvatnet" />
		<tag k="natural" v="water" />
		<tag k="ssr:stedsnr" v="187985" />
	</node>
	<node id="-630729" lat="60.2097611069" lon="5.88802778215">
		<tag k="name" v="Bogen" />
		<tag k="natural" v="bay" />
		<tag k="ssr:stedsnr" v="37251" />
	</node>
	<node id="-632771" lat="60.2518916636" lon="5.92682777978">
		<tag k="name" v="Orraelva" />
		<tag k="ssr:stedsnr" v="187779" />
		<tag k="waterway" v="river" />
	</node>
	<node id="-632765" lat="60.1742360659" lon="5.85000110048">
		<tag k="name" v="Svartavatnet" />
		<tag k="natural" v="water" />
		<tag k="ssr:stedsnr" v="187506" />
	</node>
	<node id="-632764" lat="60.1957444456" lon="5.86905833601">
		<tag k="alt_name" v="Tomreelva" />
		<tag k="name" v="Tomraelva" />
		<tag k="ssr:stedsnr" v="187479" />
		<tag k="waterway" v="stream" />
	</node>
	<node id="-632762" lat="60.1024904175" lon="5.81160226348">
		<tag k="alt_name" v="Stegvatnet" />
		<tag k="name" v="Stevatnet" />
		<tag k="natural" v="water" />
		<tag k="ssr:stedsnr" v="187414" />
	</node>
	<node id="-632758" lat="60.0364527761" lon="5.76070832682">
		<tag k="name" v="Båtavika" />
		<tag k="natural" v="bay" />
		<tag k="ssr:stedsnr" v="187320" />
	</node>
	<node id="-632137" lat="60.2822742288" lon="5.53018937055">
		<tag k="name" v="Lammadiket" />
		<tag k="natural" v="water" />
		<tag k="ssr:stedsnr" v="887324" />
		<tag k="water" v="pond" />
	</node>
	<node id="-632753" lat="60.069363193" lon="5.83051327538">
		<tag k="alt_name" v="Hølen" />
		<tag k="name" v="Skarahølen" />
		<tag k="natural" v="water" />
		<tag k="ssr:stedsnr" v="187265" />
	</node>
	<node id="-630702" lat="60.1877405173" lon="5.43074956795">
		<tag k="name" v="Skoltabrottjørna" />
		<tag k="natural" v="water" />
		<tag k="ssr:stedsnr" v="220457" />
	</node>
	<node id="-632749" lat="60.2958540792" lon="5.76722198875">
		<tag k="fixme" v="multiple name tags, choose one and add the other to alt_name" />
		<tag k="name" v="Botnavatnet;Hellandsvatnet" />
		<tag k="natural" v="water" />
		<tag k="ssr:stedsnr" v="187244" />
		<tag k="water" v="lake" />
	</node>
	<node id="-632748" lat="60.2810361137" lon="5.50103332776">
		<tag k="name" v="Sølverelva" />
		<tag k="ssr:stedsnr" v="187236" />
		<tag k="waterway" v="stream" />
	</node>
	<node id="-630694" lat="60.2345222231" lon="5.449963895">
		<tag k="name" v="Trosavika" />
		<tag k="natural" v="bay" />
		<tag k="ssr:stedsnr" v="220374" />
	</node>
	<node id="-631625" lat="60.173194449" lon="5.77143889337">
		<tag k="name" v="Markhuselva" />
		<tag k="ssr:stedsnr" v="582508" />
		<tag k="waterway" v="river" />
	</node>
	<node id="-630690" lat="60.2473147779" lon="5.49903646591">
		<tag k="name" v="Øvreeidstjørna" />
		<tag k="natural" v="water" />
		<tag k="ssr:stedsnr" v="220350" />
	</node>
	<node id="-630685" lat="60.2571139856" lon="5.52387373995">
		<tag k="name" v="Svartebottstjørna" />
		<tag k="natural" v="water" />
		<tag k="ssr:stedsnr" v="220304" />
	</node>
	<node id="-632730" lat="60.1519666692" lon="5.75494443944">
		<tag k="name" v="Baldersheimelva" />
		<tag k="ssr:stedsnr" v="186422" />
		<tag k="waterway" v="river" />
	</node>
	<node id="-632726" lat="60.0810194484" lon="5.77147777671">
		<tag k="name" v="Slåttelva" />
		<tag k="ssr:stedsnr" v="186280" />
		<tag k="waterway" v="stream" />
	</node>
	<node id="-632725" lat="60.2032111074" lon="5.78203611537">
		<tag k="name" v="Gråklubbelva" />
		<tag k="ssr:stedsnr" v="186077" />
		<tag k="waterway" v="stream" />
	</node>
	<node id="-630676" lat="60.307796706" lon="5.6611466274">
		<tag k="name" v="Hopstjørna" />
		<tag k="natural" v="water" />
		<tag k="ssr:stedsnr" v="219981" />
	</node>
	<node id="-632716" lat="60.2195777766" lon="5.8066916637">
		<tag k="name" v="Sætratjørna" />
		<tag k="natural" v="water" />
		<tag k="ssr:stedsnr" v="186008" />
	</node>
	<node id="-632714" lat="60.21738889" lon="5.67850555003">
		<tag k="alt_name" v="Kokeelva" />
		<tag k="name" v="Kokelva" />
		<tag k="ssr:stedsnr" v="186002" />
		<tag k="waterway" v="stream" />
	</node>
	<node id="-630660" lat="60.2730250038" lon="5.70384722231">
		<tag k="name" v="Gaddelva" />
		<tag k="ssr:stedsnr" v="219815" />
		<tag k="waterway" v="river" />
	</node>
	<node id="-632707" lat="60.1914694432" lon="5.47148611885">
		<tag k="name" v="Oselva" />
		<tag k="ssr:stedsnr" v="159445" />
		<tag k="waterway" v="river" />
	</node>
	<node id="-632703" lat="60.2501880037" lon="5.53952570141">
		<tag k="name" v="Stemmetjørna" />
		<tag k="natural" v="water" />
		<tag k="ssr:stedsnr" v="159382" />
	</node>
	<node id="-630647" lat="60.3453079368" lon="5.73851753106">
		<tag k="name" v="Altasetredalstjørna" />
		<tag k="natural" v="water" />
		<tag k="ssr:stedsnr" v="219687" />
		<tag k="water" v="lake" />
	</node>
	<node id="-631443" lat="60.125484364" lon="5.78438159207">
		<tag k="name" v="Senafjelltjørna" />
		<tag k="natural" v="water" />
		<tag k="ssr:stedsnr" v="672450" />
	</node>
	<node id="-631784" lat="60.13882222" lon="5.7607916753">
		<tag k="name" v="Årvikelva" />
		<tag k="ssr:stedsnr" v="886942" />
		<tag k="waterway" v="river" />
	</node>
	<node id="-630635" lat="60.2397527781" lon="5.79606666801">
		<tag k="name" v="Lurabekken" />
		<tag k="ssr:stedsnr" v="219558" />
		<tag k="waterway" v="stream" />
	</node>
	<node id="-632670" lat="60.1984250018" lon="5.78431110623">
		<tag k="name" v="Gråklubben" />
		<tag k="natural" v="cape" />
		<tag k="ssr:stedsnr" v="158688" />
	</node>
	<node id="-632669" lat="60.278415925" lon="5.73852862543">
		<tag k="name" v="Brekketjørna" />
		<tag k="natural" v="water" />
		<tag k="ssr:stedsnr" v="158685" />
	</node>
	<node id="-632665" lat="60.3275938239" lon="5.73238117904">
		<tag k="name" v="Langatjørna" />
		<tag k="natural" v="water" />
		<tag k="ssr:stedsnr" v="158644" />
	</node>
	<node id="-632663" lat="60.3189385908" lon="5.74614950965">
		<tag k="name" v="Nordre Trollabotstjørna" />
		<tag k="natural" v="water" />
		<tag k="ssr:stedsnr" v="158632" />
	</node>
	<node id="-630603" lat="60.2145861105" lon="5.88430554764">
		<tag k="name" v="Nordvikholmane" />
		<tag k="place" v="islet" />
		<tag k="ssr:stedsnr" v="219264" />
	</node>
	<node id="-630601" lat="60.2229722251" lon="5.89440000635">
		<tag k="name" v="Mørkevågen" />
		<tag k="natural" v="bay" />
		<tag k="ssr:stedsnr" v="219251" />
	</node>
	<node id="-632638" lat="60.1298026418" lon="5.84342512909">
		<tag k="name" v="Træstjørna" />
		<tag k="natural" v="water" />
		<tag k="ssr:stedsnr" v="158389" />
	</node>
	<node id="-632619" lat="60.216738893" lon="5.87016944623">
		<tag k="name" v="Kykejeholmen" />
		<tag k="place" v="islet" />
		<tag k="ssr:stedsnr" v="158273" />
	</node>
	<node id="-632588" lat="60.3196788584" lon="5.76976002482">
		<tag k="name" v="Skadvatnet" />
		<tag k="natural" v="water" />
		<tag k="ssr:stedsnr" v="127260" />
	</node>
	<node id="-632579" lat="60.2597362587" lon="5.913234446">
		<tag k="name" v="Sætraelva" />
		<tag k="ssr:stedsnr" v="126829" />
		<tag k="waterway" v="stream" />
	</node>
	<node id="-632578" lat="60.2519388866" lon="5.90361388558">
		<tag k="name" v="Høljane" />
		<tag k="place" v="locality" />
		<tag k="ssr:stedsnr" v="126769" />
	</node>
	<node id="-632576" lat="60.1217083329" lon="5.79540277818">
		<tag k="alt_name" v="Bosvatnet" />
		<tag k="name" v="Botsvatnet" />
		<tag k="natural" v="water" />
		<tag k="ssr:stedsnr" v="126489" />
		<tag k="water" v="lake" />
	</node>
	<node id="-632573" lat="60.1451117582" lon="5.83246422168">
		<tag k="name" v="Kutjørna" />
		<tag k="natural" v="water" />
		<tag k="ssr:stedsnr" v="126475" />
	</node>
	<node id="-632570" lat="60.1174725959" lon="5.82538518524">
		<tag k="name" v="Horgavatnet" />
		<tag k="natural" v="water" />
		<tag k="ssr:stedsnr" v="126449" />
	</node>
	<node id="-632567" lat="60.1837805523" lon="5.83828332711">
		<tag k="name" v="Hjortedalselva" />
		<tag k="ssr:stedsnr" v="126418" />
		<tag k="waterway" v="stream" />
	</node>
	<node id="-632561" lat="60.0454166641" lon="5.77520833599">
		<tag k="name" v="Kilen" />
		<tag k="natural" v="bay" />
		<tag k="ssr:stedsnr" v="126340" />
	</node>
	<node id="-632558" lat="60.2669500039" lon="5.79528888049">
		<tag k="name" v="Kvanndalselva" />
		<tag k="ssr:stedsnr" v="126326" />
		<tag k="waterway" v="river" />
	</node>
	<node id="-632553" lat="60.246166669" lon="5.479955548">
		<tag k="name" v="Klubben" />
		<tag k="natural" v="cape" />
		<tag k="ssr:stedsnr" v="126193" />
	</node>
	<node id="-632547" lat="60.2069888923" lon="5.83698611078">
		<tag k="name" v="Blekaneset" />
		<tag k="natural" v="cape" />
		<tag k="ssr:stedsnr" v="126080" />
	</node>
	<node id="-632541" lat="60.231072348" lon="5.82229418664">
		<tag k="alt_name" v="Vesletjørna" />
		<tag k="name" v="Vetlatjørna" />
		<tag k="natural" v="water" />
		<tag k="ssr:stedsnr" v="126019" />
	</node>
	<node id="-632528" lat="60.0972750013" lon="5.80051388014">
		<tag k="name" v="Lygreselva" />
		<tag k="ssr:stedsnr" v="125488" />
		<tag k="waterway" v="stream" />
	</node>
	<node id="-632525" lat="60.0492268947" lon="5.72480312722">
		<tag k="name" v="Bergstjørna" />
		<tag k="natural" v="water" />
		<tag k="ssr:stedsnr" v="125337" />
	</node>
	<node id="-632521" lat="60.2458323874" lon="5.78292515616">
		<tag k="name" v="Skjelbreidvatnet" />
		<tag k="natural" v="water" />
		<tag k="ssr:stedsnr" v="125056" />
		<tag k="water" v="lake" />
	</node>
	<node id="-630731" lat="60.2181027817" lon="5.88423333998">
		<tag k="name" v="Klubben" />
		<tag k="natural" v="cape" />
		<tag k="ssr:stedsnr" v="37262" />
	</node>
	<node id="-632498" lat="60.3032469865" lon="5.76173993093">
		<tag k="name" v="Ytstatjørna" />
		<tag k="natural" v="water" />
		<tag k="ssr:stedsnr" v="98694" />
	</node>
	<node id="-632494" lat="60.3144700236" lon="5.71035635258">
		<tag k="name" v="Bjergabrottjørna" />
		<tag k="natural" v="water" />
		<tag k="ssr:stedsnr" v="98642" />
	</node>
	<node id="-632486" lat="60.2203527772" lon="5.43274167521">
		<tag k="name" v="Teinavika" />
		<tag k="natural" v="bay" />
		<tag k="ssr:stedsnr" v="98299" />
	</node>
	<node id="-632477" lat="60.280044448" lon="5.55118888567">
		<tag k="name" v="Slåtteneset" />
		<tag k="natural" v="cape" />
		<tag k="ssr:stedsnr" v="98264" />
	</node>
	<node id="-632467" lat="60.20221944" lon="5.84810832894">
		<tag k="name" v="Svinahola" />
		<tag k="natural" v="bay" />
		<tag k="ssr:stedsnr" v="98248" />
	</node>
	<node id="-632464" lat="60.2040638925" lon="5.86291943977">
		<tag k="name" v="Neset" />
		<tag k="natural" v="cape" />
		<tag k="ssr:stedsnr" v="98238" />
	</node>
	<node id="-632463" lat="60.201774998" lon="5.86906388801">
		<tag k="name" v="Anneneset" />
		<tag k="natural" v="cape" />
		<tag k="ssr:stedsnr" v="98236" />
	</node>
	<node id="-632448" lat="60.2725500016" lon="5.83812776967">
		<tag k="name" v="Borgsholmen" />
		<tag k="place" v="islet" />
		<tag k="ssr:stedsnr" v="97460" />
	</node>
	<node id="-632447" lat="60.0723472218" lon="5.83552777118">
		<tag k="name" v="Fossaelva" />
		<tag k="ssr:stedsnr" v="97086" />
		<tag k="waterway" v="river" />
	</node>
	<node id="-632446" lat="60.1746583325" lon="5.598905561">
		<tag k="name" v="Holsneselva" />
		<tag k="ssr:stedsnr" v="96820" />
		<tag k="waterway" v="river" />
	</node>
	<node id="-631402" lat="60.1928250023" lon="5.43683332658">
		<tag k="name" v="Ulvenvatnet" />
		<tag k="natural" v="water" />
		<tag k="ssr:stedsnr" v="671787" />
		<tag k="water" v="lake" />
	</node>
	<node id="-632431" lat="60.2816638865" lon="5.93160000718">
		<tag k="alt_name" v="Bolstadelva, øvre" />
		<tag k="name" v="Øvre Bolstadelva" />
		<tag k="ssr:stedsnr" v="66918" />
		<tag k="waterway" v="stream" />
	</node>
	<node id="-632430" lat="60.2715249982" lon="5.92285277442">
		<tag k="name" v="Segllibekken" />
		<tag k="ssr:stedsnr" v="66856" />
		<tag k="waterway" v="stream" />
	</node>
	<node id="-632422" lat="60.0548964958" lon="5.73243699746">
		<tag k="name" v="Teigatjørna" />
		<tag k="natural" v="water" />
		<tag k="ssr:stedsnr" v="66347" />
	</node>
	<node id="-632398" lat="60.1541249254" lon="5.77952075287">
		<tag k="name" v="Lometjørna" />
		<tag k="natural" v="water" />
		<tag k="ssr:stedsnr" v="65374" />
	</node>
	<node id="-633781" lat="60.2416833339" lon="5.48624444699">
		<tag k="name" v="Stokkedalselva" />
		<tag k="ssr:stedsnr" v="644304" />
		<tag k="waterway" v="river" />
	</node>
	<node id="-632378" lat="60.1883472229" lon="5.45766389449">
		<tag k="name" v="Kvernelva" />
		<tag k="ssr:stedsnr" v="38485" />
		<tag k="waterway" v="river" />
	</node>
	<node id="-631681" lat="60.3026555511" lon="5.90585276984">
		<tag k="name" v="Gjoelva" />
		<tag k="ssr:stedsnr" v="612982" />
		<tag k="waterway" v="stream" />
	</node>
	<node id="-630700" lat="60.1825145128" lon="5.40902639436">
		<tag k="fixme" v="multiple name tags, choose one and add the other to alt_name" />
		<tag k="name" v="Irgenstjørna;Skeistjørna" />
		<tag k="natural" v="water" />
		<tag k="ssr:stedsnr" v="220434" />
	</node>
	<node id="-631382" lat="60.2213944426" lon="5.69380000222">
		<tag k="alt_name" v="Bergeelva" />
		<tag k="name" v="Bergselva" />
		<tag k="ssr:stedsnr" v="660001" />
		<tag k="waterway" v="stream" />
	</node>
	<node id="-632319" lat="60.2017638913" lon="5.80691110798">
		<tag k="name" v="Leitesneset" />
		<tag k="natural" v="cape" />
		<tag k="ssr:stedsnr" v="36691" />
	</node>
	<node id="-632313" lat="60.2287777809" lon="5.82127222764">
		<tag k="name" v="Eidet" />
		<tag k="natural" v="strait" />
		<tag k="ssr:stedsnr" v="36494" />
	</node>
	<node id="-632310" lat="60.2884388851" lon="5.83314166343">
		<tag k="name" v="Fossane" />
		<tag k="natural" v="waterfall" />
		<tag k="ssr:stedsnr" v="36371" />
	</node>
	<node id="-632293" lat="60.2858171193" lon="5.88156558006">
		<tag k="name" v="Gurigrøvatnet" />
		<tag k="natural" v="water" />
		<tag k="ssr:stedsnr" v="5920" />
	</node>
	<node id="-632289" lat="60.1209638874" lon="5.85383889443">
		<tag k="name" v="Horgatjørna" />
		<tag k="natural" v="water" />
		<tag k="ssr:stedsnr" v="5867" />
	</node>
	<node id="-632288" lat="60.2405687934" lon="5.47504975329">
		<tag k="name" v="Gåssandvatnet" />
		<tag k="natural" v="water" />
		<tag k="ssr:stedsnr" v="5844" />
		<tag k="water" v="lake" />
	</node>
	<node id="-632287" lat="60.2716892065" lon="5.95914505893">
		<tag k="name" v="Stigatjørna" />
		<tag k="natural" v="water" />
		<tag k="ssr:stedsnr" v="5839" />
	</node>
	<node id="-632285" lat="60.2546611072" lon="5.8529250072">
		<tag k="alt_name" v="Gjønvatnet" />
		<tag k="name" v="Gjønavatnet" />
		<tag k="natural" v="water" />
		<tag k="ssr:stedsnr" v="5806" />
		<tag k="water" v="lake" />
	</node>
	<node id="-632283" lat="60.3200324609" lon="5.85848025596">
		<tag k="name" v="Raudabergsvatnet" />
		<tag k="natural" v="water" />
		<tag k="ssr:stedsnr" v="5497" />
	</node>
	<node id="-631374" lat="60.2126190667" lon="5.77958595594">
		<tag k="name" v="Brandaskartjørnane" />
		<tag k="natural" v="water" />
		<tag k="ssr:stedsnr" v="429107" />
		<tag k="water" v="lake" />
	</node>
	<node id="-632274" lat="60.2780137006" lon="5.71246218584">
		<tag k="name" v="Remavatnet" />
		<tag k="natural" v="water" />
		<tag k="ssr:stedsnr" v="5302" />
	</node>
	<node id="-632266" lat="60.2888603422" lon="5.73880046008">
		<tag k="name" v="Budeietjørnane" />
		<tag k="natural" v="water" />
		<tag k="ssr:stedsnr" v="5261" />
		<tag k="water" v="lake" />
	</node>
	<node id="-632265" lat="60.3032164109" lon="5.83330385593">
		<tag k="name" v="Setehaugtjørna" />
		<tag k="natural" v="water" />
		<tag k="ssr:stedsnr" v="5259" />
	</node>
	<node id="-632264" lat="60.3050472197" lon="5.57057500047">
		<tag k="name" v="Utløelva" />
		<tag k="ssr:stedsnr" v="5244" />
		<tag k="waterway" v="stream" />
	</node>
	<node id="-632243" lat="60.1903596339" lon="5.38944917774">
		<tag k="name" v="Hovlandsvatnet" />
		<tag k="natural" v="water" />
		<tag k="ssr:stedsnr" v="4779" />
	</node>
	<node id="-632225" lat="60.2277348103" lon="5.7974774305">
		<tag k="name" v="Stemmetjørna" />
		<tag k="natural" v="water" />
		<tag k="ssr:stedsnr" v="4022" />
	</node>
	<node id="-632219" lat="60.1960361104" lon="5.47701389464">
		<tag k="name" v="Vallaelva" />
		<tag k="ssr:stedsnr" v="948553" />
		<tag k="waterway" v="river" />
	</node>
	<node id="-632216" lat="60.2275638889" lon="5.54173055458">
		<tag k="name" v="Tveitaholmen" />
		<tag k="place" v="islet" />
		<tag k="ssr:stedsnr" v="948364" />
	</node>
	<node id="-632215" lat="60.2292638849" lon="5.46063889378">
		<tag k="name" v="Storestraumen" />
		<tag k="natural" v="strait" />
		<tag k="ssr:stedsnr" v="948353" />
	</node>
	<node id="-634254" lat="60.0353289855" lon="5.78683008502">
		<tag k="name" v="Brothølen" />
		<tag k="natural" v="water" />
		<tag k="ssr:stedsnr" v="65619" />
		<tag k="water" v="lake" />
	</node>
	<node id="-634253" lat="60.0447511037" lon="5.72449161998">
		<tag k="name" v="Svartatjørna" />
		<tag k="natural" v="water" />
		<tag k="ssr:stedsnr" v="550301" />
	</node>
	<node id="-634251" lat="60.3247593987" lon="5.76688420084">
		<tag k="name" v="Svartatjørni" />
		<tag k="natural" v="water" />
		<tag k="ssr:stedsnr" v="583664" />
	</node>
	<node id="-634249" lat="60.030608333" lon="5.75797499115">
		<tag k="alt_name" v="Håvikavatn;Håvikavatnet" />
		<tag k="name" v="Håvikvatnet" />
		<tag k="natural" v="water" />
		<tag k="ssr:stedsnr" v="611654" />
		<tag k="water" v="lake" />
	</node>
	<node id="-632200" lat="60.3282279113" lon="5.75674123143">
		<tag k="name" v="Markskilatjørna" />
		<tag k="natural" v="water" />
		<tag k="ssr:stedsnr" v="947355" />
	</node>
	<node id="-632197" lat="60.3166447325" lon="5.72092415533">
		<tag k="name" v="Svarttjørna" />
		<tag k="natural" v="water" />
		<tag k="ssr:stedsnr" v="947612" />
	</node>
	<node id="-634243" lat="60.2424426809" lon="5.47587867073">
		<tag k="name" v="Midtholmen" />
		<tag k="place" v="islet" />
		<tag k="ssr:stedsnr" v="1074658" />
	</node>
	<node id="-632186" lat="60.3219635646" lon="5.55192223829">
		<tag k="name" v="Langetjørnane" />
		<tag k="natural" v="water" />
		<tag k="ssr:stedsnr" v="931045" />
		<tag k="water" v="lake" />
	</node>
	<node id="-634230" lat="60.2748902791" lon="5.49958211878">
		<tag k="name" v="Ytsta Raudlitjørna" />
		<tag k="natural" v="water" />
		<tag k="ssr:stedsnr" v="991171" />
	</node>
	<node id="-632176" lat="60.124786113" lon="5.8146083313">
		<tag k="alt_name" v="Speldalstjørna" />
		<tag k="name" v="Spilldalstjørna" />
		<tag k="natural" v="water" />
		<tag k="ssr:stedsnr" v="915471" />
	</node>
	<node id="-632172" lat="60.2927083292" lon="5.55634721639">
		<tag k="name" v="Øvredalselva" />
		<tag k="ssr:stedsnr" v="915268" />
		<tag k="waterway" v="river" />
	</node>
	<node id="-632167" lat="60.2056000026" lon="5.50169723054">
		<tag k="name" v="Vallaelva" />
		<tag k="ssr:stedsnr" v="915004" />
		<tag k="waterway" v="stream" />
	</node>
	<node id="-632166" lat="60.2143728683" lon="5.78662437489">
		<tag k="name" v="Vardabotntjørna" />
		<tag k="natural" v="water" />
		<tag k="ssr:stedsnr" v="915119" />
	</node>
	<node id="-632151" lat="60.0538338744" lon="5.77132249254">
		<tag k="name" v="Midttjørna" />
		<tag k="natural" v="water" />
		<tag k="ssr:stedsnr" v="887908" />
	</node>
	<node id="-632140" lat="60.1646951029" lon="5.4411133914">
		<tag k="name" v="Lekvenvatnet" />
		<tag k="natural" v="water" />
		<tag k="ssr:stedsnr" v="887368" />
		<tag k="water" v="lake" />
	</node>
	<node id="-632139" lat="60.1278599643" lon="5.84034068931">
		<tag k="name" v="Dyrhaugtjørna" />
		<tag k="natural" v="water" />
		<tag k="ssr:stedsnr" v="887364" />
	</node>
	<node id="-634186" lat="60.3057555516" lon="5.55863054983">
		<tag k="name" v="Skredlielva" />
		<tag k="ssr:stedsnr" v="855249" />
		<tag k="waterway" v="stream" />
	</node>
	<node id="-634185" lat="60.3194027749" lon="5.80603333832">
		<tag k="alt_name" v="Trælatjørna, vestre" />
		<tag k="name" v="Vestre Trælatjørna" />
		<tag k="natural" v="water" />
		<tag k="ssr:stedsnr" v="855243" />
	</node>
	<node id="-634183" lat="60.3273388844" lon="5.67966944306">
		<tag k="name" v="Botnavatnet" />
		<tag k="natural" v="water" />
		<tag k="ssr:stedsnr" v="855229" />
	</node>
	<node id="-634176" lat="60.088501603" lon="5.85219426566">
		<tag k="name" v="Langedalstjørna" />
		<tag k="natural" v="water" />
		<tag k="ssr:stedsnr" v="854929" />
	</node>
	<node id="-634175" lat="60.1906812182" lon="5.36685428642">
		<tag k="name" v="Mørkatjørna" />
		<tag k="natural" v="water" />
		<tag k="ssr:stedsnr" v="854752" />
	</node>
	<node id="-634173" lat="60.2472907388" lon="5.50920388131">
		<tag k="name" v="Lønningdalstjørna" />
		<tag k="natural" v="water" />
		<tag k="ssr:stedsnr" v="855198" />
	</node>
	<node id="-634166" lat="60.0965500021" lon="5.78908611881">
		<tag k="name" v="Lygrestjørna" />
		<tag k="natural" v="water" />
		<tag k="ssr:stedsnr" v="854449" />
	</node>
	<node id="-634162" lat="60.1601495763" lon="5.77881358513">
		<tag k="name" v="Svartavasstjørna" />
		<tag k="natural" v="water" />
		<tag k="ssr:stedsnr" v="854381" />
	</node>
	<node id="-632100" lat="60.1535444471" lon="5.33542222901">
		<tag k="name" v="Ervikabekken" />
		<tag k="ssr:stedsnr" v="948528" />
		<tag k="waterway" v="stream" />
	</node>
	<node id="-634144" lat="60.2188803269" lon="5.7885175213">
		<tag k="name" v="Blåtjørna" />
		<tag k="natural" v="water" />
		<tag k="ssr:stedsnr" v="854006" />
	</node>
	<node id="-634138" lat="60.238659672" lon="5.5046333054">
		<tag k="name" v="Tømmerskartjørna" />
		<tag k="natural" v="water" />
		<tag k="ssr:stedsnr" v="827540" />
	</node>
	<node id="-632084" lat="60.1582927506" lon="5.39315363498">
		<tag k="name" v="Lepsøyvatnet" />
		<tag k="natural" v="water" />
		<tag k="ssr:stedsnr" v="948373" />
		<tag k="water" v="lake" />
	</node>
	<node id="-633389" lat="60.3190888866" lon="5.69430834202">
		<tag k="name" v="Fiskebekken" />
		<tag k="ssr:stedsnr" v="522964" />
		<tag k="waterway" v="stream" />
	</node>
	<node id="-632076" lat="60.220194445" lon="5.38956943885">
		<tag k="name" v="Sjøbøelva" />
		<tag k="ssr:stedsnr" v="948035" />
		<tag k="waterway" v="river" />
	</node>
	<node id="-632075" lat="60.2416666623" lon="5.45389444307">
		<tag k="name" v="Oselva" />
		<tag k="ssr:stedsnr" v="948016" />
		<tag k="waterway" v="river" />
	</node>
	<node id="-634118" lat="60.2389722186" lon="5.44755278406">
		<tag k="name" v="Oselva" />
		<tag k="ssr:stedsnr" v="827350" />
		<tag k="waterway" v="river" />
	</node>
	<node id="-634117" lat="60.232633334" lon="5.46518055982">
		<tag k="name" v="Nordra Straumsvika" />
		<tag k="natural" v="bay" />
		<tag k="ssr:stedsnr" v="827345" />
	</node>
	<node id="-630998" lat="60.2073611068" lon="5.84084443826">
		<tag k="name" v="Midteidvika" />
		<tag k="natural" v="bay" />
		<tag k="ssr:stedsnr" v="280179" />
	</node>
	<node id="-632066" lat="60.3039125" lon="5.69763218908">
		<tag k="name" v="Storhaugtjørnane" />
		<tag k="natural" v="water" />
		<tag k="ssr:stedsnr" v="947989" />
		<tag k="water" v="lake" />
	</node>
	<node id="-634108" lat="60.2579977694" lon="5.52644304126">
		<tag k="name" v="Ytstatjørna" />
		<tag k="natural" v="water" />
		<tag k="ssr:stedsnr" v="827295" />
	</node>
	<node id="-634094" lat="60.2242222202" lon="5.68563888596">
		<tag k="name" v="Kvernelva" />
		<tag k="ssr:stedsnr" v="826857" />
		<tag k="waterway" v="river" />
	</node>
	<node id="-632045" lat="60.2455555582" lon="5.85076111827">
		<tag k="name" v="Steinsvika" />
		<tag k="natural" v="bay" />
		<tag k="ssr:stedsnr" v="947442" />
	</node>
	<node id="-634084" lat="60.316412559" lon="5.81628103502">
		<tag k="name" v="Selsmurstjørna" />
		<tag k="natural" v="water" />
		<tag k="ssr:stedsnr" v="826672" />
	</node>
	<node id="-634082" lat="60.310908232" lon="5.77113639512">
		<tag k="name" v="Instatjørna" />
		<tag k="natural" v="water" />
		<tag k="ssr:stedsnr" v="826669" />
	</node>
	<node id="-634081" lat="60.3329805583" lon="5.74000833963">
		<tag k="name" v="Lonelva" />
		<tag k="ssr:stedsnr" v="826664" />
		<tag k="waterway" v="river" />
	</node>
	<node id="-632030" lat="60.2296527793" lon="5.87038610556">
		<tag k="name" v="Eidselva" />
		<tag k="ssr:stedsnr" v="947293" />
		<tag k="waterway" v="river" />
	</node>
	<node id="-632028" lat="60.212300001" lon="5.879572217">
		<tag k="name" v="Lyklaholmen" />
		<tag k="place" v="islet" />
		<tag k="ssr:stedsnr" v="947268" />
	</node>
	<node id="-634072" lat="60.1954944403" lon="5.78630000533">
		<tag k="name" v="Breivika" />
		<tag k="natural" v="bay" />
		<tag k="ssr:stedsnr" v="826609" />
	</node>
	<node id="-632019" lat="60.1108149099" lon="5.81706110667">
		<tag k="name" v="Løken" />
		<tag k="natural" v="water" />
		<tag k="ssr:stedsnr" v="855426" />
	</node>
	<node id="-632012" lat="60.0559191498" lon="5.77195911938">
		<tag k="name" v="Trollbotntjørna" />
		<tag k="natural" v="water" />
		<tag k="ssr:stedsnr" v="855358" />
	</node>
	<node id="-632011" lat="60.2631777734" lon="5.47234166458">
		<tag k="name" v="Setrebekken" />
		<tag k="ssr:stedsnr" v="855304" />
		<tag k="waterway" v="stream" />
	</node>
	<node id="-632695" lat="60.2242000003" lon="5.46213888756">
		<tag k="name" v="Hatlevika" />
		<tag k="natural" v="bay" />
		<tag k="ssr:stedsnr" v="159340" />
	</node>
	<node id="-634056" lat="60.2772444471" lon="5.8430833345">
		<tag k="name" v="Bjørkeneset" />
		<tag k="natural" v="cape" />
		<tag k="ssr:stedsnr" v="826486" />
	</node>
	<node id="-632006" lat="60.1397250009" lon="5.78132500858">
		<tag k="name" v="Krokvasselva" />
		<tag k="ssr:stedsnr" v="854458" />
		<tag k="waterway" v="stream" />
	</node>
	<node id="-634053" lat="60.2477999974" lon="5.82279722683">
		<tag k="name" v="Kilaneset" />
		<tag k="natural" v="cape" />
		<tag k="ssr:stedsnr" v="826466" />
	</node>
	<node id="-634052" lat="60.2504972206" lon="5.82109999603">
		<tag k="name" v="Klenaneset" />
		<tag k="natural" v="cape" />
		<tag k="ssr:stedsnr" v="826462" />
	</node>
	<node id="-634051" lat="60.2572277738" lon="5.84261665991">
		<tag k="name" v="Tømmervikane" />
		<tag k="natural" v="bay" />
		<tag k="ssr:stedsnr" v="826457" />
	</node>
	<node id="-632001" lat="60.2127694479" lon="5.75778888934">
		<tag k="name" v="Langedalsvatnet" />
		<tag k="natural" v="water" />
		<tag k="ssr:stedsnr" v="854093" />
		<tag k="water" v="lake" />
	</node>
	<node id="-631998" lat="60.0427722213" lon="5.77871667445">
		<tag k="alt_name" v="Sunnfjordelva" />
		<tag k="name" v="Sundfjordelva" />
		<tag k="ssr:stedsnr" v="843317" />
		<tag k="waterway" v="stream" />
	</node>
	<node id="-634041" lat="60.2683916692" lon="5.48990277755">
		<tag k="name" v="Grasholmen" />
		<tag k="place" v="islet" />
		<tag k="ssr:stedsnr" v="826350" />
	</node>
	<node id="-634040" lat="60.2127328222" lon="5.41459001868">
		<tag k="name" v="Hestatjørna" />
>>>>>>> e1d4bc35ff8a6074a6f2e91616a996b547c36f15
		<tag k="natural" v="water" />
		<tag k="ssr:stedsnr" v="826349" />
	</node>
<<<<<<< HEAD
	<node lat="60.23411666258955" lon="5.900394438090998" id="-28582">
		<tag k="name" v="Rusevika" />
		<tag k="natural" v="bay" />
		<tag k="ssr:stedsnr" v="643290" />
	</node>
	<node lat="60.25118611132865" lon="5.825319443987255" id="-28583">
		<tag k="name" v="Skoltane" />
		<tag k="natural" v="cape" />
		<tag k="ssr:stedsnr" v="643428" />
	</node>
	<node lat="60.22807222350124" lon="5.405580562772778" id="-28607">
		<tag k="name" v="Klosterelva" />
		<tag k="ssr:stedsnr" v="644005" />
		<tag k="waterway" v="river" />
	</node>
	<node lat="60.221394442600094" lon="5.693800002220637" id="-28620">
		<tag k="alt_name" v="Bergeelva" />
		<tag k="name" v="Bergselva" />
		<tag k="ssr:stedsnr" v="660001" />
		<tag k="waterway" v="stream" />
	</node>
	<node lat="60.21431253427536" lon="5.725104245545492" id="-28623">
		<tag k="name" v="Austestadtjørna" />
		<tag k="natural" v="water" />
		<tag k="ssr:stedsnr" v="672005" />
	</node>
	<node lat="60.24536655951266" lon="5.502733668655888" id="-28633">
		<tag k="name" v="Svartatjørna" />
		<tag k="natural" v="water" />
		<tag k="ssr:stedsnr" v="672189" />
	</node>
	<node lat="60.21825019448536" lon="5.871599371446885" id="-28650">
		<tag k="name" v="Skogseidvatnet" />
		<tag k="natural" v="water" />
		<tag k="ssr:stedsnr" v="672731" />
		<tag k="water" v="lake" />
	</node>
	<node lat="60.25819853562007" lon="5.538194103342427" id="-28658">
		<tag k="name" v="Svartatjørna" />
		<tag k="natural" v="water" />
		<tag k="ssr:stedsnr" v="673317" />
	</node>
	<node lat="60.0776944478426" lon="5.8402166611395385" id="-28675">
		<tag k="name" v="Elvakroken" />
		<tag k="ssr:stedsnr" v="704324" />
		<tag k="waterway" v="river" />
	</node>
	<node lat="60.27989166545785" lon="5.816861104405181" id="-28683">
		<tag k="name" v="Fossane" />
		<tag k="natural" v="waterfall" />
		<tag k="ssr:stedsnr" v="704721" />
	</node>
	<node lat="60.28159722248949" lon="5.677602769983791" id="-28685">
		<tag k="name" v="Heiatjørna" />
		<tag k="natural" v="water" />
		<tag k="ssr:stedsnr" v="704766" />
	</node>
	<node lat="60.26733055526838" lon="5.688369447822262" id="-28686">
		<tag k="name" v="Eidet" />
		<tag k="place" v="locality" />
		<tag k="ssr:stedsnr" v="704773" />
	</node>
	<node lat="60.25123333493705" lon="5.81677777325486" id="-28710">
		<tag k="name" v="Steganeset" />
=======
	<node id="-634039" lat="60.2616573735" lon="5.5206192221">
		<tag k="name" v="Steindalstjørna" />
		<tag k="natural" v="water" />
		<tag k="ssr:stedsnr" v="826347" />
	</node>
	<node id="-634034" lat="60.2623595614" lon="5.46157260733">
		<tag k="name" v="Nordliskartjørna" />
		<tag k="natural" v="water" />
		<tag k="ssr:stedsnr" v="826324" />
		<tag k="water" v="pond" />
	</node>
	<node id="-631981" lat="60.2330472221" lon="5.83618332973">
		<tag k="name" v="Krusasmoget" />
		<tag k="ssr:stedsnr" v="826305" />
		<tag k="waterway" v="river" />
	</node>
	<node id="-634027" lat="60.2033916687" lon="5.84045556432">
		<tag k="name" v="Godvika" />
		<tag k="natural" v="bay" />
		<tag k="ssr:stedsnr" v="826287" />
	</node>
	<node id="-634023" lat="60.2243722189" lon="5.88780833393">
		<tag k="name" v="Furenestangen" />
		<tag k="natural" v="cape" />
		<tag k="ssr:stedsnr" v="826266" />
	</node>
	<node id="-631972" lat="60.2566466232" lon="5.89211713489">
		<tag k="name" v="Fotaretjørna" />
		<tag k="natural" v="water" />
		<tag k="ssr:stedsnr" v="794826" />
	</node>
	<node id="-634018" lat="60.2128361103" lon="5.86499722971">
		<tag k="name" v="Tobakksholmen" />
		<tag k="place" v="islet" />
		<tag k="ssr:stedsnr" v="826258" />
	</node>
	<node id="-634017" lat="60.2058138862" lon="5.84480277404">
		<tag k="name" v="Rotaholmen" />
		<tag k="place" v="islet" />
		<tag k="ssr:stedsnr" v="826254" />
	</node>
	<node id="-634016" lat="60.2046972264" lon="5.85936388806">
		<tag k="name" v="Sundet" />
		<tag k="natural" v="strait" />
		<tag k="ssr:stedsnr" v="826249" />
	</node>
	<node id="-631962" lat="60.1024919586" lon="5.75579928689">
		<tag k="name" v="Vetlavatnet" />
		<tag k="natural" v="water" />
		<tag k="ssr:stedsnr" v="794428" />
	</node>
	<node id="-634009" lat="60.2510682094" lon="5.79832692319">
		<tag k="name" v="Rundatjørna" />
		<tag k="natural" v="water" />
		<tag k="ssr:stedsnr" v="825611" />
	</node>
	<node id="-631958" lat="60.1443295783" lon="5.85282228618">
		<tag k="name" v="Yddalsvatnet" />
		<tag k="natural" v="water" />
		<tag k="ssr:stedsnr" v="793642" />
		<tag k="water" v="lake" />
	</node>
	<node id="-631951" lat="60.2661623474" lon="5.5304052251">
		<tag k="name" v="Steindalsvatnet" />
		<tag k="natural" v="water" />
		<tag k="ssr:stedsnr" v="916328" />
		<tag k="water" v="lake" />
	</node>
	<node id="-634049" lat="60.134233329" lon="5.83995277045">
		<tag k="name" v="Yddalselva" />
		<tag k="ssr:stedsnr" v="826382" />
		<tag k="waterway" v="river" />
	</node>
	<node id="-633980" lat="60.2042499993" lon="5.84373333073">
		<tag k="name" v="Klubben" />
>>>>>>> e1d4bc35ff8a6074a6f2e91616a996b547c36f15
		<tag k="natural" v="cape" />
		<tag k="ssr:stedsnr" v="794600" />
	</node>
<<<<<<< HEAD
	<node lat="60.32311944399993" lon="5.735372221622537" id="-28711">
		<tag k="name" v="Lisetreelva" />
		<tag k="ssr:stedsnr" v="705727" />
		<tag k="waterway" v="river" />
	</node>
	<node lat="60.220806657246534" lon="5.76179144505391" id="-28717">
		<tag k="name" v="Eikelandsvatnet" />
		<tag k="natural" v="water" />
		<tag k="ssr:stedsnr" v="732005" />
		<tag k="water" v="lake" />
	</node>
	<node lat="60.249253581106416" lon="5.819480983060495" id="-28722">
		<tag k="name" v="Vengsvatnet" />
		<tag k="natural" v="water" />
		<tag k="ssr:stedsnr" v="732062" />
		<tag k="water" v="lake" />
	</node>
	<node lat="60.24272499984281" lon="5.8079638899099395" id="-28728">
		<tag k="name" v="Sørelva" />
		<tag k="ssr:stedsnr" v="733051" />
		<tag k="waterway" v="river" />
	</node>
	<node lat="60.24914847140955" lon="5.663453223645379" id="-28730">
		<tag k="name" v="Altanestjørna" />
		<tag k="natural" v="water" />
		<tag k="ssr:stedsnr" v="733058" />
	</node>
	<node lat="60.2048175033256" lon="5.739131175912186" id="-28732">
		<tag k="name" v="Svarturtjørna" />
		<tag k="natural" v="water" />
		<tag k="ssr:stedsnr" v="733113" />
	</node>
	<node lat="60.19776111353251" lon="5.472941659070836" id="-28736">
		<tag k="name" v="Oselva" />
		<tag k="ssr:stedsnr" v="733142" />
		<tag k="waterway" v="river" />
	</node>
	<node lat="60.07804166749761" lon="5.8255249909862785" id="-28744">
		<tag k="name" v="Høynestjørna" />
		<tag k="natural" v="water" />
		<tag k="ssr:stedsnr" v="733295" />
	</node>
	<node lat="60.214036114232805" lon="5.878586105459934" id="-28750">
		<tag k="name" v="Svenaholmen" />
		<tag k="place" v="islet" />
		<tag k="ssr:stedsnr" v="733694" />
	</node>
	<node lat="60.225205815736075" lon="5.39264531489757" id="-28752">
		<tag k="name" v="Holevatnet" />
		<tag k="natural" v="water" />
		<tag k="ssr:stedsnr" v="733857" />
	</node>
	<node lat="60.29480278052292" lon="5.837586106224864" id="-28773">
		<tag k="alt_name" v="Kikedalselva" />
		<tag k="name" v="Skarelva" />
		<tag k="ssr:stedsnr" v="764404" />
		<tag k="waterway" v="river" />
	</node>
	<node lat="60.21009243416957" lon="5.5030261505219" id="-28781">
		<tag k="name" v="Gottjørna" />
		<tag k="natural" v="water" />
		<tag k="ssr:stedsnr" v="765295" />
	</node>
	<node lat="60.22625563519965" lon="5.378771733473405" id="-28784">
		<tag k="name" v="Lomatjørna" />
		<tag k="natural" v="water" />
		<tag k="ssr:stedsnr" v="765298" />
	</node>
	<node lat="60.16017679783928" lon="5.842909527606912" id="-28791">
		<tag k="name" v="Nutatjørna" />
		<tag k="natural" v="water" />
		<tag k="ssr:stedsnr" v="765304" />
	</node>
	<node lat="60.08338374126387" lon="5.852076322638153" id="-28795">
		<tag k="name" v="Høyneset" />
		<tag k="natural" v="cape" />
		<tag k="ssr:stedsnr" v="765320" />
	</node>
	<node lat="60.27715555724842" lon="5.5749999991444215" id="-28825">
		<tag k="name" v="Glåmsdalselva" />
		<tag k="ssr:stedsnr" v="766302" />
		<tag k="waterway" v="river" />
	</node>
	<node lat="60.07622963807875" lon="5.823859335835651" id="-28838">
		<tag k="name" v="Tuveteigtjørna" />
		<tag k="natural" v="water" />
		<tag k="ssr:stedsnr" v="793327" />
	</node>
	<node lat="60.146937216814074" lon="5.822268548589593" id="-28844">
		<tag k="name" v="Halavatnet" />
		<tag k="natural" v="water" />
		<tag k="ssr:stedsnr" v="793519" />
		<tag k="water" v="lake" />
	</node>
	<node lat="60.19762133044014" lon="5.399232510438359" id="-28854">
		<tag k="name" v="Mikkelsvatnet" />
		<tag k="natural" v="water" />
		<tag k="ssr:stedsnr" v="793780" />
	</node>
	<node lat="60.102491958562624" lon="5.755799286887871" id="-28864">
		<tag k="name" v="Vetlavatnet" />
		<tag k="natural" v="water" />
		<tag k="ssr:stedsnr" v="794428" />
	</node>
	<node lat="60.317234519651954" lon="5.890597562481388" id="-28869">
		<tag k="name" v="Skaratjørna" />
		<tag k="natural" v="water" />
		<tag k="ssr:stedsnr" v="794505" />
	</node>
	<node lat="60.2566466232019" lon="5.892117134888893" id="-28872">
		<tag k="name" v="Fotaretjørna" />
		<tag k="natural" v="water" />
		<tag k="ssr:stedsnr" v="794826" />
	</node>
	<node lat="60.205600002603006" lon="5.501697230544956" id="-28877">
		<tag k="name" v="Vallaelva" />
		<tag k="ssr:stedsnr" v="915004" />
		<tag k="waterway" v="stream" />
	</node>
	<node lat="60.2247697427125" lon="5.800205658820094" id="-28879">
		<tag k="name" v="Klypetjørna" />
		<tag k="natural" v="water" />
		<tag k="ssr:stedsnr" v="915009" />
	</node>
	<node lat="60.21437286826947" lon="5.786624374885658" id="-28886">
		<tag k="name" v="Vardabotntjørna" />
		<tag k="natural" v="water" />
		<tag k="ssr:stedsnr" v="915119" />
	</node>
	<node lat="60.222625131671506" lon="5.459730441892567" id="-28889">
		<tag k="name" v="Hetleflotvatnet" />
		<tag k="natural" v="water" />
		<tag k="ssr:stedsnr" v="914860" />
		<tag k="water" v="lake" />
	</node>
	<node lat="60.29270832921729" lon="5.556347216385983" id="-28892">
		<tag k="name" v="Øvredalselva" />
		<tag k="ssr:stedsnr" v="915268" />
		<tag k="waterway" v="river" />
	</node>
	<node lat="60.195494440347645" lon="5.7863000053321265" id="-28930">
		<tag k="name" v="Breivika" />
		<tag k="natural" v="bay" />
		<tag k="ssr:stedsnr" v="826609" />
	</node>
	<node lat="60.13423332899367" lon="5.839952770445806" id="-28939">
		<tag k="name" v="Yddalselva" />
		<tag k="ssr:stedsnr" v="826382" />
		<tag k="waterway" v="river" />
	</node>
	<node lat="60.21635277475312" lon="5.3951833267889695" id="-28948">
		<tag k="name" v="Sjøbøelva" />
		<tag k="ssr:stedsnr" v="827008" />
		<tag k="waterway" v="river" />
	</node>
	<node lat="60.21888032688398" lon="5.78851752129798" id="-28966">
		<tag k="name" v="Blåtjørna" />
		<tag k="natural" v="water" />
		<tag k="ssr:stedsnr" v="854006" />
	</node>
	<node lat="60.09655000211751" lon="5.789086118808359" id="-28981">
		<tag k="name" v="Lygrestjørna" />
		<tag k="natural" v="water" />
		<tag k="ssr:stedsnr" v="854449" />
	</node>
	<node lat="60.13972500094518" lon="5.781325008580978" id="-28982">
		<tag k="name" v="Krokvasselva" />
		<tag k="ssr:stedsnr" v="854458" />
		<tag k="waterway" v="stream" />
	</node>
	<node lat="60.190681218249516" lon="5.366854286419991" id="-28984">
		<tag k="name" v="Mørkatjørna" />
		<tag k="natural" v="water" />
		<tag k="ssr:stedsnr" v="854752" />
	</node>
	<node lat="60.26317777338276" lon="5.47234166457992" id="-28986">
		<tag k="name" v="Setrebekken" />
		<tag k="ssr:stedsnr" v="855304" />
		<tag k="waterway" v="stream" />
	</node>
	<node lat="60.163541670822866" lon="5.778455546444856" id="-29011">
		<tag k="name" v="Steindalselva" />
		<tag k="ssr:stedsnr" v="886497" />
		<tag k="waterway" v="river" />
	</node>
	<node lat="60.12785996429886" lon="5.840340689310368" id="-29021">
		<tag k="name" v="Dyrhaugtjørna" />
		<tag k="natural" v="water" />
		<tag k="ssr:stedsnr" v="887364" />
	</node>
	<node lat="60.16469510287083" lon="5.44111339139655" id="-29022">
		<tag k="name" v="Lekvenvatnet" />
		<tag k="natural" v="water" />
		<tag k="ssr:stedsnr" v="887368" />
		<tag k="water" v="lake" />
	</node>
	<node lat="60.27406666677977" lon="5.5508333380174655" id="-29026">
		<tag k="name" v="Brakaneset" />
		<tag k="natural" v="cape" />
		<tag k="ssr:stedsnr" v="887297" />
	</node>
	<node lat="60.053833874354744" lon="5.771322492536033" id="-29034">
		<tag k="name" v="Midttjørna" />
		<tag k="natural" v="water" />
		<tag k="ssr:stedsnr" v="887908" />
	</node>
	<node lat="60.20766361062501" lon="5.396679353689091" id="-29050">
		<tag k="name" v="Søvikvatnet" />
		<tag k="natural" v="water" />
		<tag k="ssr:stedsnr" v="914773" />
	</node>
	<node lat="60.12478611301158" lon="5.814608331298922" id="-29063">
		<tag k="alt_name" v="Speldalstjørna" />
		<tag k="name" v="Spilldalstjørna" />
		<tag k="natural" v="water" />
		<tag k="ssr:stedsnr" v="915471" />
	</node>
	<node lat="60.26616234737676" lon="5.530405225100274" id="-29073">
		<tag k="name" v="Steindalsvatnet" />
		<tag k="natural" v="water" />
		<tag k="ssr:stedsnr" v="916328" />
		<tag k="water" v="lake" />
	</node>
	<node lat="60.32196356455346" lon="5.5519222382877285" id="-29074">
		<tag k="name" v="Langetjørnane" />
		<tag k="natural" v="water" />
		<tag k="ssr:stedsnr" v="931045" />
		<tag k="water" v="lake" />
	</node>
	<node lat="60.24555555821924" lon="5.8507611182728185" id="-29090">
		<tag k="name" v="Steinsvika" />
		<tag k="natural" v="bay" />
		<tag k="ssr:stedsnr" v="947442" />
	</node>
	<node lat="60.31664473254113" lon="5.720924155331052" id="-29103">
		<tag k="name" v="Svarttjørna" />
		<tag k="natural" v="water" />
		<tag k="ssr:stedsnr" v="947612" />
	</node>
	<node lat="60.30391249996598" lon="5.697632189079271" id="-29115">
		<tag k="name" v="Storhaugtjørnane" />
		<tag k="natural" v="water" />
		<tag k="ssr:stedsnr" v="947989" />
		<tag k="water" v="lake" />
	</node>
	<node lat="60.24166666226474" lon="5.453894443066031" id="-29117">
		<tag k="name" v="Oselva" />
		<tag k="ssr:stedsnr" v="948016" />
		<tag k="waterway" v="river" />
	</node>
	<node lat="60.15354444705069" lon="5.335422229010247" id="-29126">
		<tag k="name" v="Ervikabekken" />
		<tag k="ssr:stedsnr" v="948528" />
		<tag k="waterway" v="stream" />
	</node>
	<node lat="60.190359633886615" lon="5.389449177741812" id="-29157">
		<tag k="name" v="Hovlandsvatnet" />
		<tag k="natural" v="water" />
		<tag k="ssr:stedsnr" v="4779" />
	</node>
	<node lat="60.288860342189125" lon="5.738800460084559" id="-29165">
		<tag k="name" v="Budeietjørnane" />
		<tag k="natural" v="water" />
		<tag k="ssr:stedsnr" v="5261" />
		<tag k="water" v="lake" />
	</node>
	<node lat="60.30504721974705" lon="5.570575000465178" id="-29176">
		<tag k="name" v="Utløelva" />
		<tag k="ssr:stedsnr" v="5244" />
		<tag k="waterway" v="stream" />
	</node>
	<node lat="60.320032460929866" lon="5.858480255959663" id="-29181">
		<tag k="name" v="Raudabergsvatnet" />
		<tag k="natural" v="water" />
		<tag k="ssr:stedsnr" v="5497" />
	</node>
	<node lat="60.27168920645385" lon="5.959145058932498" id="-29183">
		<tag k="name" v="Stigatjørna" />
		<tag k="natural" v="water" />
		<tag k="ssr:stedsnr" v="5839" />
	</node>
	<node lat="60.24056879342594" lon="5.475049753292691" id="-29184">
		<tag k="name" v="Gåssandvatnet" />
		<tag k="natural" v="water" />
		<tag k="ssr:stedsnr" v="5844" />
		<tag k="water" v="lake" />
	</node>
	<node lat="60.28843888507358" lon="5.833141663427385" id="-29194">
		<tag k="name" v="Fossane" />
		<tag k="natural" v="waterfall" />
		<tag k="ssr:stedsnr" v="36371" />
	</node>
	<node lat="60.22877778091664" lon="5.821272227642063" id="-29199">
		<tag k="name" v="Eidet" />
		<tag k="place" v="locality" />
		<tag k="ssr:stedsnr" v="36494" />
	</node>
	<node lat="60.2017638912572" lon="5.806911107976327" id="-29200">
		<tag k="name" v="Leitesneset" />
		<tag k="natural" v="cape" />
		<tag k="ssr:stedsnr" v="36691" />
	</node>
	<node lat="60.2439546302204" lon="5.408845393439702" id="-29224">
		<tag k="name" v="Blomlitjørna" />
		<tag k="natural" v="water" />
		<tag k="ssr:stedsnr" v="37238" />
	</node>
	<node lat="60.209761106939666" lon="5.888027782149923" id="-29227">
		<tag k="name" v="Bogen" />
		<tag k="natural" v="bay" />
		<tag k="ssr:stedsnr" v="37251" />
	</node>
	<node lat="60.262180555361006" lon="5.851761103364803" id="-29244">
		<tag k="name" v="Sandvikane" />
		<tag k="natural" v="bay" />
		<tag k="ssr:stedsnr" v="37466" />
	</node>
	<node lat="60.269147225831176" lon="5.547561103878639" id="-29278">
		<tag k="name" v="Midtseterelva" />
		<tag k="ssr:stedsnr" v="38319" />
		<tag k="waterway" v="river" />
	</node>
	<node lat="60.18834722291967" lon="5.4576638944850675" id="-29284">
		<tag k="name" v="Kvernelva" />
		<tag k="ssr:stedsnr" v="38485" />
		<tag k="waterway" v="river" />
	</node>
	<node lat="60.1541249254328" lon="5.779520752873608" id="-29303">
		<tag k="name" v="Lometjørna" />
		<tag k="natural" v="water" />
		<tag k="ssr:stedsnr" v="65374" />
	</node>
	<node lat="60.11782500189511" lon="5.767563891228229" id="-29318">
		<tag k="name" v="Sørelva" />
		<tag k="ssr:stedsnr" v="66455" />
		<tag k="waterway" v="stream" />
	</node>
	<node lat="60.27152499824321" lon="5.922852774418556" id="-29330">
		<tag k="name" v="Segllibekken" />
		<tag k="ssr:stedsnr" v="66856" />
		<tag k="waterway" v="stream" />
	</node>
	<node lat="60.28166388648477" lon="5.931600007184224" id="-29333">
		<tag k="alt_name" v="Bolstadelva, øvre" />
		<tag k="name" v="Øvre Bolstadelva" />
		<tag k="ssr:stedsnr" v="66918" />
		<tag k="waterway" v="stream" />
	</node>
	<node lat="60.0723472217913" lon="5.8355277711753955" id="-29346">
		<tag k="name" v="Fossaelva" />
		<tag k="ssr:stedsnr" v="97086" />
		<tag k="waterway" v="river" />
	</node>
	<node lat="60.17465833246947" lon="5.598905560998155" id="-29347">
		<tag k="name" v="Holsneselva" />
		<tag k="ssr:stedsnr" v="96820" />
		<tag k="waterway" v="river" />
	</node>
	<node lat="60.22035277721915" lon="5.43274167521182" id="-29366">
		<tag k="name" v="Teinavika" />
		<tag k="natural" v="bay" />
		<tag k="ssr:stedsnr" v="98299" />
	</node>
	<node lat="60.303246986464686" lon="5.761739930930971" id="-29371">
		<tag k="name" v="Ytstatjørna" />
		<tag k="natural" v="water" />
		<tag k="ssr:stedsnr" v="98694" />
	</node>
	<node lat="60.20177499796062" lon="5.869063888005821" id="-29372">
		<tag k="name" v="Anneneset" />
		<tag k="natural" v="cape" />
		<tag k="ssr:stedsnr" v="98236" />
	</node>
	<node lat="60.20406389251066" lon="5.86291943976521" id="-29373">
		<tag k="name" v="Neset" />
		<tag k="natural" v="cape" />
		<tag k="ssr:stedsnr" v="98238" />
	</node>
	<node lat="60.20221943995521" lon="5.848108328942203" id="-29376">
		<tag k="name" v="Svinahola" />
		<tag k="natural" v="bay" />
		<tag k="ssr:stedsnr" v="98248" />
	</node>
	<node lat="60.1906138858203" lon="5.361100001457023" id="-29393">
		<tag k="name" v="Langavasselva" />
		<tag k="ssr:stedsnr" v="98453" />
		<tag k="waterway" v="river" />
	</node>
	<node lat="60.31447002364067" lon="5.710356352576794" id="-29396">
		<tag k="name" v="Bjergabrottjørna" />
		<tag k="natural" v="water" />
		<tag k="ssr:stedsnr" v="98642" />
	</node>
	<node lat="60.09727500131785" lon="5.800513880142222" id="-29415">
		<tag k="name" v="Lygreselva" />
		<tag k="ssr:stedsnr" v="125488" />
		<tag k="waterway" v="stream" />
	</node>
	<node lat="60.049226894654964" lon="5.724803127221956" id="-29421">
		<tag k="name" v="Bergstjørna" />
		<tag k="natural" v="water" />
		<tag k="ssr:stedsnr" v="125337" />
	</node>
	<node lat="60.14511175822559" lon="5.8324642216817475" id="-29427">
		<tag k="name" v="Kutjørna" />
		<tag k="natural" v="water" />
		<tag k="ssr:stedsnr" v="126475" />
	</node>
	<node lat="60.12170833289708" lon="5.795402778177976" id="-29430">
		<tag k="alt_name" v="Bosvatnet" />
		<tag k="name" v="Botsvatnet" />
		<tag k="natural" v="water" />
		<tag k="ssr:stedsnr" v="126489" />
		<tag k="water" v="lake" />
	</node>
	<node lat="60.246166668982944" lon="5.479955547997171" id="-29436">
		<tag k="name" v="Klubben" />
		<tag k="natural" v="cape" />
		<tag k="ssr:stedsnr" v="126193" />
	</node>
	<node lat="60.23107234799156" lon="5.822294186643523" id="-29443">
		<tag k="alt_name" v="Vesletjørna" />
		<tag k="name" v="Vetlatjørna" />
		<tag k="natural" v="water" />
		<tag k="ssr:stedsnr" v="126019" />
	</node>
	<node lat="60.26695000393592" lon="5.795288880492234" id="-29447">
		<tag k="name" v="Kvanndalselva" />
		<tag k="ssr:stedsnr" v="126326" />
		<tag k="waterway" v="river" />
	</node>
	<node lat="60.0454166640891" lon="5.775208335987181" id="-29450">
		<tag k="name" v="Kilen" />
		<tag k="natural" v="bay" />
		<tag k="ssr:stedsnr" v="126340" />
	</node>
	<node lat="60.1837805522801" lon="5.83828332711408" id="-29453">
		<tag k="name" v="Hjortedalselva" />
		<tag k="ssr:stedsnr" v="126418" />
		<tag k="waterway" v="stream" />
	</node>
	<node lat="60.25193888658171" lon="5.903613885582929" id="-29455">
		<tag k="name" v="Høljane" />
		<tag k="place" v="locality" />
		<tag k="ssr:stedsnr" v="126769" />
	</node>
	<node lat="60.259736258733824" lon="5.913234446000047" id="-29456">
		<tag k="name" v="Sætraelva" />
		<tag k="ssr:stedsnr" v="126829" />
		<tag k="waterway" v="stream" />
	</node>
	<node lat="60.28871190532924" lon="5.873769379974748" id="-29462">
		<tag k="name" v="Kvitingsvatnet" />
		<tag k="natural" v="water" />
		<tag k="ssr:stedsnr" v="127933" />
	</node>
	<node lat="60.21673889296941" lon="5.870169446231279" id="-29491">
		<tag k="name" v="Kykejeholmen" />
		<tag k="place" v="islet" />
		<tag k="ssr:stedsnr" v="158273" />
	</node>
	<node lat="60.12980264184744" lon="5.843425129087326" id="-29502">
		<tag k="name" v="Træstjørna" />
		<tag k="natural" v="water" />
		<tag k="ssr:stedsnr" v="158389" />
	</node>
	<node lat="60.27841592502307" lon="5.738528625426552" id="-29506">
		<tag k="name" v="Brekketjørna" />
		<tag k="natural" v="water" />
		<tag k="ssr:stedsnr" v="158685" />
	</node>
	<node lat="60.19842500181807" lon="5.784311106226684" id="-29507">
		<tag k="name" v="Gråklubben" />
		<tag k="natural" v="cape" />
		<tag k="ssr:stedsnr" v="158688" />
	</node>
	<node lat="60.31893859084656" lon="5.746149509653714" id="-29516">
		<tag k="name" v="Nordre Trollabotstjørna" />
		<tag k="natural" v="water" />
		<tag k="ssr:stedsnr" v="158632" />
	</node>
	<node lat="60.32759382388062" lon="5.732381179038147" id="-29518">
		<tag k="name" v="Langatjørna" />
		<tag k="natural" v="water" />
		<tag k="ssr:stedsnr" v="158644" />
	</node>
	<node lat="60.224200000256516" lon="5.462138887558675" id="-29533">
		<tag k="name" v="Hatlevika" />
		<tag k="natural" v="bay" />
		<tag k="ssr:stedsnr" v="159340" />
	</node>
	<node lat="60.19146944315819" lon="5.471486118854747" id="-29536">
		<tag k="name" v="Oselva" />
		<tag k="ssr:stedsnr" v="159445" />
		<tag k="waterway" v="river" />
	</node>
	<node lat="60.250188003728525" lon="5.539525701414154" id="-29540">
		<tag k="name" v="Stemmetjørna" />
		<tag k="natural" v="water" />
		<tag k="ssr:stedsnr" v="159382" />
	</node>
	<node lat="60.151966669165795" lon="5.754944439437943" id="-29553">
		<tag k="name" v="Baldersheimelva" />
		<tag k="ssr:stedsnr" v="186422" />
		<tag k="waterway" v="river" />
	</node>
	<node lat="60.29585407920546" lon="5.76722198875391" id="-29560">
		<tag k="fixme" v="multiple name tags, choose one and add the other to alt_name" />
		<tag k="name" v="Hellandsvatnet;Botnavatnet" />
		<tag k="natural" v="water" />
		<tag k="ssr:stedsnr" v="187244" />
		<tag k="water" v="lake" />
	</node>
	<node lat="60.03645277612465" lon="5.760708326824966" id="-29567">
		<tag k="name" v="Båtavika" />
		<tag k="natural" v="bay" />
		<tag k="ssr:stedsnr" v="187320" />
	</node>
	<node lat="60.30009330043136" lon="5.932911712972458" id="-29570">
		<tag k="name" v="Osadalsvatnet" />
		<tag k="natural" v="water" />
		<tag k="ssr:stedsnr" v="187985" />
	</node>
	<node lat="60.06936319299018" lon="5.830513275380122" id="-29574">
		<tag k="alt_name" v="Hølen" />
		<tag k="name" v="Skarahølen" />
		<tag k="natural" v="water" />
		<tag k="ssr:stedsnr" v="187265" />
	</node>
	<node lat="60.271975003185325" lon="5.945855556575576" id="-29582">
		<tag k="name" v="Vetlelva" />
		<tag k="ssr:stedsnr" v="187855" />
		<tag k="waterway" v="stream" />
	</node>
	<node lat="60.3231750043839" lon="5.728894452136131" id="-29588">
		<tag k="alt_name" v="Breidvatnet" />
		<tag k="name" v="Breivatnet" />
		<tag k="natural" v="water" />
		<tag k="ssr:stedsnr" v="188250" />
	</node>
	<node lat="60.222972225111036" lon="5.894400006349602" id="-29622">
		<tag k="name" v="Mørkevågen" />
		<tag k="natural" v="bay" />
		<tag k="ssr:stedsnr" v="219251" />
	</node>
	<node lat="60.21458611051597" lon="5.884305547635034" id="-29624">
		<tag k="name" v="Nordvikholmane" />
		<tag k="place" v="islet" />
		<tag k="ssr:stedsnr" v="219264" />
	</node>
	<node lat="60.2170710133346" lon="5.49669607729004" id="-29633">
		<tag k="name" v="Idlakleivtjørna" />
		<tag k="natural" v="water" />
		<tag k="ssr:stedsnr" v="219360" />
	</node>
	<node lat="60.23975277813173" lon="5.7960666680115285" id="-29641">
		<tag k="name" v="Lurabekken" />
		<tag k="ssr:stedsnr" v="219558" />
		<tag k="waterway" v="stream" />
	</node>
	<node lat="60.27302500381023" lon="5.703847222309065" id="-29662">
		<tag k="name" v="Gaddelva" />
		<tag k="ssr:stedsnr" v="219815" />
		<tag k="waterway" v="river" />
	</node>
	<node lat="60.24731477789296" lon="5.49903646590655" id="-29670">
		<tag k="name" v="Øvreeidstjørna" />
		<tag k="natural" v="water" />
		<tag k="ssr:stedsnr" v="220350" />
	</node>
	<node lat="60.18251451276397" lon="5.4090263943564425" id="-29674">
		<tag k="fixme" v="multiple name tags, choose one and add the other to alt_name" />
		<tag k="name" v="Skeistjørna;Irgenstjørna" />
		<tag k="natural" v="water" />
		<tag k="ssr:stedsnr" v="220434" />
	</node>
	<node lat="60.187740517332195" lon="5.430749567948071" id="-29676">
		<tag k="name" v="Skoltabrottjørna" />
		<tag k="natural" v="water" />
		<tag k="ssr:stedsnr" v="220457" />
	</node>
	<node lat="60.19212601515442" lon="5.340725465716759" id="-29686">
		<tag k="name" v="Ballandsvatnet" />
		<tag k="natural" v="water" />
		<tag k="ssr:stedsnr" v="280464" />
		<tag k="water" v="lake" />
	</node>
	<node lat="60.204869447438014" lon="5.843547217073056" id="-29688">
		<tag k="name" v="Skarholmen" />
		<tag k="place" v="islet" />
		<tag k="ssr:stedsnr" v="279085" />
	</node>
	<node lat="60.25883055287167" lon="5.932155554079169" id="-29691">
		<tag k="name" v="Gullbekken" />
		<tag k="ssr:stedsnr" v="279454" />
		<tag k="waterway" v="stream" />
	</node>
	<node lat="60.20736110680195" lon="5.840844438262765" id="-29705">
		<tag k="name" v="Midteidvika" />
		<tag k="natural" v="bay" />
		<tag k="ssr:stedsnr" v="280179" />
	</node>
	<node lat="60.20940833646977" lon="5.388416670730829" id="-29717">
		<tag k="name" v="Søvikelva" />
		<tag k="ssr:stedsnr" v="280217" />
		<tag k="waterway" v="river" />
	</node>
	<node lat="60.22072499731684" lon="5.858888892608998" id="-29726">
		<tag k="name" v="Kjeaneset" />
		<tag k="natural" v="cape" />
		<tag k="ssr:stedsnr" v="280253" />
	</node>
	<node lat="60.25924831021918" lon="5.532497587752919" id="-29732">
		<tag k="name" v="Tjørnane" />
		<tag k="natural" v="water" />
		<tag k="ssr:stedsnr" v="280343" />
		<tag k="water" v="lake" />
	</node>
	<node lat="60.28733333138508" lon="5.780272230477405" id="-29742">
		<tag k="name" v="Langaneset" />
		<tag k="natural" v="cape" />
		<tag k="ssr:stedsnr" v="280672" />
	</node>
	<node lat="60.2363000006232" lon="5.477019444760939" id="-29786">
		<tag k="name" v="Hundabekken" />
		<tag k="ssr:stedsnr" v="308178" />
		<tag k="waterway" v="stream" />
	</node>
	<node lat="60.12904274564688" lon="5.822734999687505" id="-29793">
		<tag k="name" v="Grøndalstjørna" />
		<tag k="natural" v="water" />
		<tag k="ssr:stedsnr" v="308454" />
	</node>
	<node lat="60.14219499990007" lon="5.825244931090794" id="-29794">
		<tag k="name" v="Midttjørna" />
		<tag k="natural" v="water" />
		<tag k="ssr:stedsnr" v="308458" />
	</node>
	<node lat="60.268238888343625" lon="5.955827771563174" id="-29803">
		<tag k="name" v="Tverrelva" />
		<tag k="ssr:stedsnr" v="309608" />
		<tag k="waterway" v="stream" />
	</node>
	<node lat="60.29781667069592" lon="5.850733335766291" id="-29808">
		<tag k="name" v="Togene" />
		<tag k="natural" v="waterfall" />
		<tag k="ssr:stedsnr" v="309967" />
	</node>
	<node lat="60.27837777383493" lon="5.493130552350655" id="-29837">
		<tag k="name" v="Langaneset" />
		<tag k="natural" v="cape" />
		<tag k="ssr:stedsnr" v="340338" />
	</node>
	<node lat="60.2110916709297" lon="5.845547222255845" id="-29838">
		<tag k="name" v="Øpste Geitskeidvika" />
		<tag k="natural" v="bay" />
		<tag k="ssr:stedsnr" v="340265" />
	</node>
	<node lat="60.20921666316977" lon="5.882855548251921" id="-29840">
		<tag k="name" v="Hundsteinaneset" />
		<tag k="natural" v="cape" />
		<tag k="ssr:stedsnr" v="340279" />
	</node>
	<node lat="60.20429166395223" lon="5.846472231435783" id="-29841">
		<tag k="name" v="Naustvika" />
		<tag k="natural" v="bay" />
		<tag k="ssr:stedsnr" v="340284" />
	</node>
	<node lat="60.136079223119836" lon="5.861679915758617" id="-29843">
		<tag k="name" v="Buksevatnet" />
		<tag k="natural" v="water" />
		<tag k="ssr:stedsnr" v="340368" />
		<tag k="water" v="lake" />
	</node>
	<node lat="60.134793984466846" lon="5.762776670535197" id="-29850">
		<tag k="name" v="Nordre Svinasteinstjørna" />
		<tag k="natural" v="water" />
		<tag k="ssr:stedsnr" v="340589" />
	</node>
	<node lat="60.3207277768724" lon="5.727858338734495" id="-29855">
		<tag k="name" v="Breielva" />
		<tag k="ssr:stedsnr" v="340636" />
		<tag k="waterway" v="river" />
	</node>
	<node lat="60.31154517448138" lon="5.745621227665079" id="-29857">
		<tag k="name" v="Fossabottsvatnet" />
		<tag k="natural" v="water" />
		<tag k="ssr:stedsnr" v="340641" />
	</node>
	<node lat="60.215237872128874" lon="5.415332454845749" id="-29886">
		<tag k="name" v="Ospelitjørna" />
		<tag k="natural" v="water" />
		<tag k="ssr:stedsnr" v="341364" />
	</node>
	<node lat="60.29774166952051" lon="5.92585555533002" id="-29903">
		<tag k="name" v="Eitro" />
		<tag k="ssr:stedsnr" v="357938" />
		<tag k="waterway" v="river" />
	</node>
	<node lat="60.22368586145971" lon="5.789212077599347" id="-29905">
		<tag k="name" v="Mauratjørna" />
		<tag k="natural" v="water" />
		<tag k="ssr:stedsnr" v="368006" />
	</node>
	<node lat="60.19715000059268" lon="5.633511106784513" id="-29911">
		<tag k="name" v="Sagelva" />
		<tag k="ssr:stedsnr" v="368110" />
		<tag k="waterway" v="stream" />
	</node>
	<node lat="60.208516662976656" lon="5.663025000682476" id="-29914">
		<tag k="name" v="Tjørnane" />
		<tag k="natural" v="water" />
		<tag k="ssr:stedsnr" v="368134" />
		<tag k="water" v="lake" />
	</node>
	<node lat="60.166477607968176" lon="5.61010129691301" id="-29917">
		<tag k="alt_name" v="Skotavatnet" />
		<tag k="name" v="Skåtavatnet" />
		<tag k="natural" v="water" />
		<tag k="ssr:stedsnr" v="368455" />
	</node>
	<node lat="60.21171897507837" lon="5.460019552049001" id="-29929">
		<tag k="name" v="Tyssdalsvatnet" />
		<tag k="natural" v="water" />
		<tag k="ssr:stedsnr" v="368810" />
	</node>
	<node lat="60.33430761556975" lon="5.735368030307924" id="-29938">
		<tag k="name" v="Altasetrevatnet" />
		<tag k="natural" v="water" />
		<tag k="ssr:stedsnr" v="369195" />
	</node>
	<node lat="60.10967609815981" lon="5.813356516325868" id="-29940">
		<tag k="name" v="Taskedalstjørna" />
		<tag k="natural" v="water" />
		<tag k="ssr:stedsnr" v="369396" />
	</node>
	<node lat="60.12012499587599" lon="5.808577783823096" id="-29952">
		<tag k="name" v="Yddalselva" />
		<tag k="ssr:stedsnr" v="369429" />
		<tag k="waterway" v="stream" />
	</node>
	<node lat="60.273558329844924" lon="5.8788777756024455" id="-29962">
=======
	<node id="-631925" lat="60.2226251317" lon="5.45973044189">
		<tag k="name" v="Hetleflotvatnet" />
		<tag k="natural" v="water" />
		<tag k="ssr:stedsnr" v="914860" />
		<tag k="water" v="lake" />
	</node>
	<node id="-633972" lat="60.277463518" lon="5.50371848765">
		<tag k="name" v="Insta Raudlitjørna" />
		<tag k="natural" v="water" />
		<tag k="ssr:stedsnr" v="794277" />
	</node>
	<node id="-631923" lat="60.2076636106" lon="5.39667935369">
		<tag k="name" v="Søvikvatnet" />
		<tag k="natural" v="water" />
		<tag k="ssr:stedsnr" v="914773" />
	</node>
	<node id="-633955" lat="60.2098099204" lon="5.46257460786">
		<tag k="name" v="Tyssdals-Sponga" />
		<tag k="natural" v="water" />
		<tag k="ssr:stedsnr" v="793795" />
	</node>
	<node id="-633953" lat="60.1976213304" lon="5.39923251044">
		<tag k="name" v="Mikkelsvatnet" />
		<tag k="natural" v="water" />
		<tag k="ssr:stedsnr" v="793780" />
	</node>
	<node id="-633951" lat="60.1469372168" lon="5.82226854859">
		<tag k="name" v="Halavatnet" />
		<tag k="natural" v="water" />
		<tag k="ssr:stedsnr" v="793519" />
		<tag k="water" v="lake" />
	</node>
	<node id="-633948" lat="60.0762296381" lon="5.82385933584">
		<tag k="name" v="Tuveteigtjørna" />
		<tag k="natural" v="water" />
		<tag k="ssr:stedsnr" v="793327" />
	</node>
	<node id="-631887" lat="60.1305611122" lon="5.8225611073">
		<tag k="name" v="Dalabekken" />
		<tag k="ssr:stedsnr" v="765342" />
		<tag k="waterway" v="stream" />
	</node>
	<node id="-631882" lat="60.0833837413" lon="5.85207632264">
		<tag k="name" v="Høyneset" />
		<tag k="natural" v="cape" />
		<tag k="ssr:stedsnr" v="765320" />
	</node>
	<node id="-631878" lat="60.1601767978" lon="5.84290952761">
		<tag k="name" v="Nutatjørna" />
		<tag k="natural" v="water" />
		<tag k="ssr:stedsnr" v="765304" />
	</node>
	<node id="-633917" lat="60.2771555572" lon="5.57499999914">
		<tag k="name" v="Glåmsdalselva" />
		<tag k="ssr:stedsnr" v="766302" />
		<tag k="waterway" v="river" />
	</node>
	<node id="-631866" lat="60.2247697427" lon="5.80020565882">
		<tag k="name" v="Klypetjørna" />
		<tag k="natural" v="water" />
		<tag k="ssr:stedsnr" v="915009" />
	</node>
	<node id="-630964" lat="60.2588305529" lon="5.93215555408">
		<tag k="name" v="Gullbekken" />
		<tag k="ssr:stedsnr" v="279454" />
		<tag k="waterway" v="stream" />
	</node>
	<node id="-633908" lat="60.2671339592" lon="5.68713020588">
		<tag k="name" v="Hafskortjørna" />
		<tag k="natural" v="water" />
		<tag k="ssr:stedsnr" v="765800" />
	</node>
	<node id="-631854" lat="60.1977611135" lon="5.47294165907">
		<tag k="name" v="Oselva" />
		<tag k="ssr:stedsnr" v="733142" />
		<tag k="waterway" v="river" />
	</node>
	<node id="-631986" lat="60.2163527748" lon="5.39518332679">
		<tag k="name" v="Sjøbøelva" />
		<tag k="ssr:stedsnr" v="827008" />
		<tag k="waterway" v="river" />
	</node>
	<node id="-631850" lat="60.2048175033" lon="5.73913117591">
		<tag k="name" v="Svarturtjørna" />
		<tag k="natural" v="water" />
		<tag k="ssr:stedsnr" v="733113" />
	</node>
	<node id="-631846" lat="60.2208066572" lon="5.76179144505">
		<tag k="name" v="Eikelandsvatnet" />
		<tag k="natural" v="water" />
		<tag k="ssr:stedsnr" v="732005" />
		<tag k="water" v="lake" />
	</node>
	<node id="-631837" lat="60.2666939434" lon="5.53375365559">
		<tag k="name" v="Langaneset" />
		<tag k="natural" v="cape" />
		<tag k="ssr:stedsnr" v="705340" />
	</node>
	<node id="-631836" lat="60.2438312271" lon="5.41161458141">
		<tag k="name" v="Mørkatjørna" />
		<tag k="natural" v="water" />
		<tag k="ssr:stedsnr" v="705336" />
	</node>
	<node id="-633880" lat="60.1422586031" lon="5.79530436164">
		<tag k="name" v="Boksetjørna" />
		<tag k="natural" v="water" />
		<tag k="ssr:stedsnr" v="765556" />
	</node>
	<node id="-631831" lat="60.2798916655" lon="5.81686110441">
		<tag k="name" v="Fossane" />
		<tag k="natural" v="waterfall" />
		<tag k="ssr:stedsnr" v="704721" />
	</node>
	<node id="-631825" lat="60.3099138882" lon="5.66503056282">
		<tag k="name" v="Hopselva" />
		<tag k="ssr:stedsnr" v="887987" />
		<tag k="waterway" v="river" />
	</node>
	<node id="-631824" lat="60.3248916634" lon="5.69925556364">
		<tag k="name" v="Gullrineset" />
		<tag k="natural" v="cape" />
		<tag k="ssr:stedsnr" v="887984" />
	</node>
	<node id="-631809" lat="60.0836111109" lon="5.82483332619">
		<tag k="name" v="Fløpollen" />
		<tag k="natural" v="bay" />
		<tag k="ssr:stedsnr" v="887348" />
	</node>
	<node id="-631805" lat="60.1705611143" lon="5.41372222376">
		<tag k="name" v="Døsjaelva" />
		<tag k="ssr:stedsnr" v="887338" />
		<tag k="waterway" v="river" />
	</node>
	<node id="-633851" lat="60.2124083321" lon="5.83289444237">
		<tag k="name" v="Skotavika" />
		<tag k="natural" v="bay" />
		<tag k="ssr:stedsnr" v="765237" />
	</node>
	<node id="-633848" lat="60.2262556352" lon="5.37877173347">
		<tag k="name" v="Lomatjørna" />
		<tag k="natural" v="water" />
		<tag k="ssr:stedsnr" v="765298" />
	</node>
	<node id="-633845" lat="60.2100924342" lon="5.50302615052">
		<tag k="name" v="Gottjørna" />
		<tag k="natural" v="water" />
		<tag k="ssr:stedsnr" v="765295" />
	</node>
	<node id="-631796" lat="60.2740666668" lon="5.55083333802">
		<tag k="name" v="Brakaneset" />
		<tag k="natural" v="cape" />
		<tag k="ssr:stedsnr" v="887297" />
	</node>
	<node id="-633839" lat="60.2492694462" lon="5.775569442">
		<tag k="name" v="Sandvikane" />
		<tag k="natural" v="bay" />
		<tag k="ssr:stedsnr" v="764631" />
	</node>
	<node id="-631790" lat="60.2109916654" lon="5.86821666726">
		<tag k="name" v="Klumpane" />
		<tag k="place" v="islet" />
		<tag k="ssr:stedsnr" v="887241" />
	</node>
	<node id="-633836" lat="60.2025833359" lon="5.81837222487">
		<tag k="name" v="Kløvsneset" />
		<tag k="natural" v="cape" />
		<tag k="ssr:stedsnr" v="764689" />
	</node>
	<node id="-633832" lat="60.2948027805" lon="5.83758610622">
		<tag k="alt_name" v="Kikedalselva" />
		<tag k="name" v="Skarelva" />
		<tag k="ssr:stedsnr" v="764404" />
		<tag k="waterway" v="river" />
	</node>
	<node id="-631780" lat="60.2750777097" lon="5.77298179558">
		<tag k="name" v="Skjenhaugtjønna" />
		<tag k="natural" v="water" />
		<tag k="ssr:stedsnr" v="886752" />
	</node>
	<node id="-631776" lat="60.1635416708" lon="5.77845554644">
		<tag k="name" v="Steindalselva" />
		<tag k="ssr:stedsnr" v="886497" />
		<tag k="waterway" v="river" />
	</node>
	<node id="-631754" lat="60.2252058157" lon="5.3926453149">
		<tag k="name" v="Holevatnet" />
		<tag k="natural" v="water" />
		<tag k="ssr:stedsnr" v="733857" />
	</node>
	<node id="-631749" lat="60.2331944479" lon="5.8439638811">
		<tag k="name" v="Svartatjørna" />
		<tag k="natural" v="water" />
		<tag k="ssr:stedsnr" v="733735" />
	</node>
	<node id="-631745" lat="60.2140361142" lon="5.87858610546">
		<tag k="name" v="Svenaholmen" />
		<tag k="place" v="islet" />
		<tag k="ssr:stedsnr" v="733694" />
	</node>
	<node id="-631968" lat="60.3172345197" lon="5.89059756248">
		<tag k="name" v="Skaratjørna" />
		<tag k="natural" v="water" />
		<tag k="ssr:stedsnr" v="794505" />
	</node>
	<node id="-631742" lat="60.3078638879" lon="5.85363611608">
		<tag k="name" v="Stolavatnet" />
		<tag k="natural" v="water" />
		<tag k="ssr:stedsnr" v="733466" />
	</node>
	<node id="-631736" lat="60.1393583325" lon="5.76851389698">
		<tag k="name" v="Bårtveitvatnet" />
		<tag k="natural" v="water" />
		<tag k="ssr:stedsnr" v="733434" />
		<tag k="water" v="lake" />
	</node>
	<node id="-631733" lat="60.1578611154" lon="5.77253610871">
		<tag k="name" v="Svartavatnet" />
		<tag k="natural" v="water" />
		<tag k="ssr:stedsnr" v="733381" />
	</node>
	<node id="-631725" lat="60.0780416675" lon="5.82552499099">
		<tag k="name" v="Høynestjørna" />
		<tag k="natural" v="water" />
		<tag k="ssr:stedsnr" v="733295" />
	</node>
	<node id="-631713" lat="60.2491484714" lon="5.66345322365">
		<tag k="name" v="Altanestjørna" />
		<tag k="natural" v="water" />
		<tag k="ssr:stedsnr" v="733058" />
	</node>
	<node id="-631711" lat="60.2427249998" lon="5.80796388991">
		<tag k="name" v="Sørelva" />
		<tag k="ssr:stedsnr" v="733051" />
		<tag k="waterway" v="river" />
	</node>
	<node id="-631710" lat="60.253408335" lon="5.44842499136">
		<tag k="name" v="Botnabekken" />
		<tag k="ssr:stedsnr" v="644009" />
		<tag k="waterway" v="stream" />
	</node>
	<node id="-631709" lat="60.2280722235" lon="5.40558056277">
		<tag k="name" v="Klosterelva" />
		<tag k="ssr:stedsnr" v="644005" />
		<tag k="waterway" v="river" />
	</node>
	<node id="-633754" lat="60.213700004" lon="5.6414222261">
		<tag k="name" v="Botnali-elva" />
		<tag k="ssr:stedsnr" v="643765" />
		<tag k="waterway" v="river" />
	</node>
	<node id="-631705" lat="60.2217954496" lon="5.38905308574">
		<tag k="name" v="Pøyla" />
		<tag k="natural" v="water" />
		<tag k="ssr:stedsnr" v="732839" />
	</node>
	<node id="-633750" lat="60.2665566364" lon="5.79895279344">
		<tag k="name" v="Holdhustjørna" />
		<tag k="natural" v="water" />
		<tag k="ssr:stedsnr" v="643713" />
	</node>
	<node id="-631701" lat="60.1753500017" lon="5.82983889095">
		<tag k="name" v="Nipstjørna" />
		<tag k="natural" v="water" />
		<tag k="ssr:stedsnr" v="732456" />
		<tag k="water" v="lake" />
	</node>
	<node id="-633741" lat="60.2534361152" lon="5.81288055724">
		<tag k="name" v="Stegavika" />
		<tag k="natural" v="bay" />
		<tag k="ssr:stedsnr" v="643645" />
	</node>
	<node id="-631689" lat="60.2492535811" lon="5.81948098306">
		<tag k="name" v="Vengsvatnet" />
		<tag k="natural" v="water" />
		<tag k="ssr:stedsnr" v="732062" />
		<tag k="water" v="lake" />
	</node>
	<node id="-633729" lat="60.1372861073" lon="5.77246666131">
		<tag k="name" v="Skiftesbekken" />
		<tag k="ssr:stedsnr" v="643556" />
		<tag k="waterway" v="stream" />
	</node>
	<node id="-631680" lat="60.2604750027" lon="5.86578888995">
		<tag k="name" v="Gjønelva" />
		<tag k="ssr:stedsnr" v="612832" />
		<tag k="waterway" v="stream" />
	</node>
	<node id="-631674" lat="60.214883687" lon="5.42575405412">
		<tag k="name" v="Kvernatjørna" />
		<tag k="natural" v="water" />
		<tag k="ssr:stedsnr" v="611792" />
	</node>
	<node id="-633719" lat="60.2459333355" lon="5.92032499441">
		<tag k="name" v="Orraosen" />
		<tag k="natural" v="bay" />
		<tag k="ssr:stedsnr" v="643449" />
	</node>
	<node id="-631668" lat="60.1708361071" lon="5.79902500579">
		<tag k="alt_name" v="Stølaelva" />
		<tag k="name" v="Setraelva" />
		<tag k="ssr:stedsnr" v="611391" />
		<tag k="waterway" v="stream" />
	</node>
	<node id="-631667" lat="60.057253792" lon="5.74026384744">
		<tag k="name" v="Øletjørna" />
		<tag k="natural" v="water" />
		<tag k="ssr:stedsnr" v="611363" />
	</node>
	<node id="-631666" lat="60.1729638869" lon="5.65249723013">
		<tag k="name" v="Vikaelva" />
		<tag k="ssr:stedsnr" v="611428" />
		<tag k="waterway" v="stream" />
	</node>
	<node id="-633712" lat="60.2511861113" lon="5.82531944399">
		<tag k="name" v="Skoltane" />
		<tag k="natural" v="cape" />
		<tag k="ssr:stedsnr" v="643428" />
	</node>
	<node id="-631663" lat="60.2310381507" lon="5.77303006827">
		<tag k="name" v="Mosatjørna" />
		<tag k="natural" v="water" />
		<tag k="ssr:stedsnr" v="611027" />
	</node>
	<node id="-633705" lat="60.2397361119" lon="5.85919165786">
		<tag k="name" v="Beinavika" />
		<tag k="natural" v="bay" />
		<tag k="ssr:stedsnr" v="643319" />
	</node>
	<node id="-633701" lat="60.2341166626" lon="5.90039443809">
		<tag k="name" v="Rusevika" />
		<tag k="natural" v="bay" />
		<tag k="ssr:stedsnr" v="643290" />
	</node>
	<node id="-631652" lat="60.321766785" lon="5.78747837267">
		<tag k="name" v="Hestaskotjørna" />
		<tag k="natural" v="water" />
		<tag k="ssr:stedsnr" v="583661" />
	</node>
	<node id="-633698" lat="60.233293368" lon="5.84822761102">
		<tag k="name" v="Lomatjørna" />
		<tag k="natural" v="water" />
		<tag k="ssr:stedsnr" v="643280" />
	</node>
	<node id="-633695" lat="60.2112416637" lon="5.88796667155">
		<tag k="name" v="Kjeaneset" />
		<tag k="natural" v="cape" />
		<tag k="ssr:stedsnr" v="643270" />
	</node>
	<node id="-633692" lat="60.2756027798" lon="5.83917222638">
		<tag k="name" v="Kattaneset" />
		<tag k="natural" v="cape" />
		<tag k="ssr:stedsnr" v="643112" />
	</node>
	<node id="-631636" lat="60.1958583315" lon="5.91151667256">
		<tag k="name" v="Storehølen" />
		<tag k="ssr:stedsnr" v="583331" />
		<tag k="waterway" v="river" />
	</node>
	<node id="-631630" lat="60.2392972226" lon="5.46013055671">
		<tag k="name" v="Oselva" />
		<tag k="ssr:stedsnr" v="583308" />
		<tag k="waterway" v="river" />
	</node>
	<node id="-631626" lat="60.2514427194" lon="5.80386701622">
		<tag k="name" v="Lygrestjørna" />
		<tag k="natural" v="water" />
		<tag k="ssr:stedsnr" v="582661" />
	</node>
	<node id="-633673" lat="60.2518083327" lon="5.48842499369">
		<tag k="name" v="Sagelva" />
		<tag k="ssr:stedsnr" v="613612" />
		<tag k="waterway" v="river" />
	</node>
	<node id="-633672" lat="60.2901083372" lon="5.9179750012">
		<tag k="name" v="Svobekkene" />
		<tag k="ssr:stedsnr" v="612943" />
		<tag k="waterway" v="stream" />
	</node>
	<node id="-633671" lat="60.2830111133" lon="5.88154167088">
		<tag k="name" v="Glumelielva" />
		<tag k="ssr:stedsnr" v="612942" />
		<tag k="waterway" v="stream" />
	</node>
	<node id="-633665" lat="60.2567263335" lon="5.51504787796">
		<tag k="name" v="Krokvatnet" />
		<tag k="natural" v="water" />
		<tag k="ssr:stedsnr" v="612316" />
		<tag k="water" v="lake" />
	</node>
	<node id="-633663" lat="60.2739851086" lon="5.73986227893">
		<tag k="name" v="Stemmetjørna" />
		<tag k="natural" v="water" />
		<tag k="ssr:stedsnr" v="612305" />
	</node>
	<node id="-633660" lat="60.2557611097" lon="5.79066667143">
		<tag k="name" v="Ormabekken" />
		<tag k="ssr:stedsnr" v="612359" />
		<tag k="waterway" v="stream" />
	</node>
	<node id="-631611" lat="60.323119444" lon="5.73537222162">
		<tag k="name" v="Lisetreelva" />
		<tag k="ssr:stedsnr" v="705727" />
		<tag k="waterway" v="river" />
	</node>
	<node id="-631610" lat="60.2512333349" lon="5.81677777325">
		<tag k="name" v="Steganeset" />
		<tag k="natural" v="cape" />
		<tag k="ssr:stedsnr" v="705715" />
	</node>
	<node id="-633654" lat="60.2182722208" lon="5.40263611126">
		<tag k="name" v="Sjøbøelva" />
		<tag k="ssr:stedsnr" v="611874" />
		<tag k="waterway" v="stream" />
	</node>
	<node id="-633653" lat="60.2460361089" lon="5.440666674">
		<tag k="name" v="Teinebekken" />
		<tag k="ssr:stedsnr" v="611844" />
		<tag k="waterway" v="stream" />
	</node>
	<node id="-631603" lat="60.2398231787" lon="5.47717471143">
		<tag k="name" v="Mørkevågen" />
		<tag k="natural" v="bay" />
		<tag k="ssr:stedsnr" v="705549" />
	</node>
	<node id="-633647" lat="60.217269445" lon="5.8495055644">
		<tag k="name" v="Klubben" />
		<tag k="natural" v="cape" />
		<tag k="ssr:stedsnr" v="611736" />
	</node>
	<node id="-633643" lat="60.1348760787" lon="5.81920502367">
		<tag k="name" v="Lomstjørna" />
		<tag k="natural" v="water" />
		<tag k="ssr:stedsnr" v="611493" />
	</node>
	<node id="-633634" lat="60.3077999991" lon="5.8048305596">
		<tag k="name" v="Spongatjørna" />
		<tag k="natural" v="water" />
		<tag k="ssr:stedsnr" v="611260" />
		<tag k="water" v="lake" />
	</node>
	<node id="-633626" lat="60.1999364671" lon="5.79897141209">
		<tag k="name" v="Henangervatnet" />
		<tag k="natural" v="water" />
		<tag k="ssr:stedsnr" v="611083" />
		<tag k="water" v="lake" />
	</node>
	<node id="-633622" lat="60.2400916692" lon="5.53696944125">
		<tag k="name" v="Spannsteigselva" />
		<tag k="old_name" v="Gjemna;Gjefna" />
		<tag k="ssr:stedsnr" v="611188" />
		<tag k="waterway" v="stream" />
	</node>
	<node id="-633619" lat="60.2158111137" lon="5.51897777381">
		<tag k="name" v="Hegglandsvatnet" />
		<tag k="natural" v="water" />
		<tag k="ssr:stedsnr" v="611032" />
		<tag k="water" v="lake" />
	</node>
	<node id="-633617" lat="60.2698194431" lon="5.81098889492">
		<tag k="name" v="Åreidselva" />
		<tag k="ssr:stedsnr" v="599651" />
		<tag k="waterway" v="river" />
	</node>
	<node id="-631256" lat="60.1426973412" lon="5.80738137128">
		<tag k="name" v="Krokvasstjørna" />
		<tag k="natural" v="water" />
		<tag k="ssr:stedsnr" v="462587" />
	</node>
	<node id="-633614" lat="60.2947568096" lon="5.68639465346">
		<tag k="name" v="Ramshaugtjørna" />
		<tag k="natural" v="water" />
		<tag k="ssr:stedsnr" v="584000" />
	</node>
	<node id="-633610" lat="60.3231861138" lon="5.69248889455">
		<tag k="name" v="Snauholmen" />
		<tag k="place" v="islet" />
		<tag k="ssr:stedsnr" v="583968" />
	</node>
	<node id="-631559" lat="60.2673305553" lon="5.68836944782">
		<tag k="name" v="Eidet" />
		<tag k="natural" v="strait" />
		<tag k="ssr:stedsnr" v="704773" />
	</node>
	<node id="-631558" lat="60.2815972225" lon="5.67760276998">
		<tag k="name" v="Heiatjørna" />
		<tag k="natural" v="water" />
		<tag k="ssr:stedsnr" v="704766" />
	</node>
	<node id="-631552" lat="60.2915583373" lon="5.77039999311">
		<tag k="name" v="Vetlaneset" />
		<tag k="natural" v="cape" />
		<tag k="ssr:stedsnr" v="704627" />
	</node>
	<node id="-633596" lat="60.0599499958" lon="5.74140833535">
		<tag k="name" v="Kvernhusbekken" />
		<tag k="ssr:stedsnr" v="583898" />
		<tag k="waterway" v="stream" />
	</node>
	<node id="-633594" lat="60.3162083342" lon="5.73626111397">
		<tag k="name" v="Fosselva" />
		<tag k="ssr:stedsnr" v="583623" />
		<tag k="waterway" v="river" />
	</node>
	<node id="-631541" lat="60.2684111118" lon="5.84175000494">
		<tag k="name" v="Bukkaholmen" />
		<tag k="place" v="islet" />
		<tag k="ssr:stedsnr" v="704448" />
	</node>
	<node id="-631251" lat="60.2743722198" lon="5.84313889405">
		<tag k="name" v="Tausaholmen" />
		<tag k="place" v="islet" />
		<tag k="ssr:stedsnr" v="462492" />
	</node>
	<node id="-631535" lat="60.2486777817" lon="5.87466666076">
		<tag k="name" v="Fosselva" />
		<tag k="ssr:stedsnr" v="704414" />
		<tag k="waterway" v="river" />
	</node>
	<node id="-631534" lat="60.2528166662" lon="5.82328611337">
		<tag k="name" v="Heihellerneset" />
		<tag k="natural" v="cape" />
		<tag k="ssr:stedsnr" v="704406" />
	</node>
	<node id="-631531" lat="60.0954194463" lon="5.861650001">
		<tag k="name" v="Tømmervika" />
		<tag k="natural" v="bay" />
		<tag k="ssr:stedsnr" v="704332" />
	</node>
	<node id="-631530" lat="60.1099333366" lon="5.86104444182">
		<tag k="name" v="Gjottebekken" />
		<tag k="ssr:stedsnr" v="704329" />
		<tag k="waterway" v="stream" />
	</node>
	<node id="-631529" lat="60.0776944478" lon="5.84021666114">
		<tag k="name" v="Elvakroken" />
		<tag k="ssr:stedsnr" v="704324" />
		<tag k="waterway" v="river" />
	</node>
	<node id="-631517" lat="60.2012583371" lon="5.87086945235">
		<tag k="name" v="Tomravika" />
		<tag k="natural" v="bay" />
		<tag k="ssr:stedsnr" v="704254" />
	</node>
	<node id="-631513" lat="60.1970666665" lon="5.61345278063">
		<tag k="name" v="Steinbruelva" />
		<tag k="ssr:stedsnr" v="703832" />
		<tag k="waterway" v="river" />
	</node>
	<node id="-633548" lat="60.1802583319" lon="5.60962222814">
		<tag k="name" v="Skjørsandselva" />
		<tag k="ssr:stedsnr" v="582843" />
		<tag k="waterway" v="river" />
	</node>
	<node id="-633547" lat="60.1198111104" lon="5.78285277809">
		<tag k="name" v="Skratlebekken" />
		<tag k="ssr:stedsnr" v="582636" />
		<tag k="waterway" v="stream" />
	</node>
	<node id="-633543" lat="60.2775339357" lon="5.80536827711">
		<tag k="name" v="Vindestegtjønna" />
		<tag k="natural" v="water" />
		<tag k="ssr:stedsnr" v="582762" />
	</node>
	<node id="-631493" lat="60.2226944434" lon="5.51503055795">
		<tag k="name" v="Kvernelva" />
		<tag k="ssr:stedsnr" v="523568" />
		<tag k="waterway" v="river" />
	</node>
	<node id="-631486" lat="60.2086818104" lon="5.70979420389">
		<tag k="name" v="Grasdalstjørna" />
		<tag k="natural" v="water" />
		<tag k="ssr:stedsnr" v="521716" />
	</node>
	<node id="-633973" lat="60.275873366" lon="5.49425753757">
		<tag k="name" v="Insta Raudlivatnet" />
		<tag k="natural" v="water" />
		<tag k="ssr:stedsnr" v="794278" />
		<tag k="water" v="lake" />
	</node>
	<node id="-633530" lat="60.2035943242" lon="5.85602199026">
		<tag k="name" v="Inste Kilhola" />
		<tag k="natural" v="water" />
		<tag k="ssr:stedsnr" v="582299" />
	</node>
	<node id="-631481" lat="60.2851361098" lon="5.94118888717">
		<tag k="name" v="Botnaelva" />
		<tag k="ssr:stedsnr" v="490917" />
		<tag k="waterway" v="stream" />
	</node>
	<node id="-631479" lat="60.207996169" lon="5.77486769898">
		<tag k="name" v="Setratjørna" />
		<tag k="natural" v="water" />
		<tag k="ssr:stedsnr" v="490109" />
	</node>
	<node id="-631468" lat="60.2581985356" lon="5.53819410334">
		<tag k="name" v="Svartatjørna" />
		<tag k="natural" v="water" />
		<tag k="ssr:stedsnr" v="673317" />
	</node>
	<node id="-633513" lat="60.2576861085" lon="5.48367500827">
		<tag k="name" v="Nordelva" />
		<tag k="ssr:stedsnr" v="552650" />
		<tag k="waterway" v="river" />
	</node>
	<node id="-631464" lat="60.324554983" lon="5.69347675348">
		<tag k="alt_name" v="Sævlavatnet" />
		<tag k="name" v="Sævellavatnet" />
		<tag k="natural" v="water" />
		<tag k="ssr:stedsnr" v="673246" />
		<tag k="water" v="lake" />
	</node>
	<node id="-633507" lat="60.2609527821" lon="5.90109443967">
		<tag k="name" v="Eidesbakktjørna" />
		<tag k="natural" v="water" />
		<tag k="ssr:stedsnr" v="551851" />
	</node>
	<node id="-633502" lat="60.225577896" lon="5.44024263266">
		<tag k="name" v="Vinddalsvatnet" />
		<tag k="natural" v="water" />
		<tag k="ssr:stedsnr" v="551886" />
		<tag k="water" v="lake" />
	</node>
	<node id="-631450" lat="60.2018256198" lon="5.44324196433">
		<tag k="name" v="Mørkatjørna" />
		<tag k="natural" v="water" />
		<tag k="ssr:stedsnr" v="672749" />
	</node>
	<node id="-633497" lat="60.2411525518" lon="5.84318943615">
		<tag k="name" v="Berhovdatjørna" />
		<tag k="natural" v="water" />
		<tag k="ssr:stedsnr" v="551693" />
	</node>
	<node id="-631448" lat="60.2182501945" lon="5.87159937145">
		<tag k="name" v="Skogseidvatnet" />
		<tag k="natural" v="water" />
		<tag k="ssr:stedsnr" v="672731" />
		<tag k="water" v="lake" />
	</node>
	<node id="-633491" lat="60.1277027786" lon="5.82635833212">
		<tag k="name" v="Elvatjørna" />
		<tag k="natural" v="water" />
		<tag k="ssr:stedsnr" v="551475" />
	</node>
	<node id="-633482" lat="60.3123557071" lon="5.54482988037">
		<tag k="name" v="Søtetjørna" />
		<tag k="natural" v="water" />
		<tag k="ssr:stedsnr" v="551254" />
	</node>
	<node id="-633481" lat="60.3185166668" lon="5.83101944468">
		<tag k="alt_name" v="Skoratjørn" />
		<tag k="name" v="Skaratjørna" />
		<tag k="natural" v="water" />
		<tag k="ssr:stedsnr" v="551250" />
	</node>
	<node id="-631421" lat="60.2453665595" lon="5.50273366866">
		<tag k="name" v="Svartatjørna" />
		<tag k="natural" v="water" />
		<tag k="ssr:stedsnr" v="672189" />
	</node>
	<node id="-630889" lat="60.2575129959" lon="5.5313984897">
		<tag k="name" v="Instatjørna" />
		<tag k="natural" v="water" />
		<tag k="ssr:stedsnr" v="98220" />
	</node>
	<node id="-633456" lat="60.087138891" lon="5.78206944843">
		<tag k="name" v="Kjeonnebekken" />
		<tag k="ssr:stedsnr" v="550271" />
		<tag k="waterway" v="stream" />
	</node>
	<node id="-631406" lat="60.2143125343" lon="5.72510424555">
		<tag k="name" v="Austestadtjørna" />
		<tag k="natural" v="water" />
		<tag k="ssr:stedsnr" v="672005" />
	</node>
	<node id="-631405" lat="60.2266912861" lon="5.44990151914">
		<tag k="name" v="Gåsakilen" />
		<tag k="natural" v="water" />
		<tag k="ssr:stedsnr" v="671860" />
	</node>
	<node id="-633450" lat="60.2000361083" lon="5.82805278634">
		<tag k="name" v="Markavika" />
		<tag k="natural" v="bay" />
		<tag k="ssr:stedsnr" v="550092" />
	</node>
	<node id="-630887" lat="60.2173444487" lon="5.82234445033">
		<tag k="name" v="Rennesvikselva" />
		<tag k="ssr:stedsnr" v="98217" />
		<tag k="waterway" v="river" />
	</node>
	<node id="-633446" lat="60.2265833378" lon="5.54047500464">
		<tag k="name" v="Tveitavatnet" />
		<tag k="natural" v="water" />
		<tag k="ssr:stedsnr" v="550050" />
		<tag k="water" v="lake" />
	</node>
	<node id="-631392" lat="60.1060738632" lon="5.72953701302">
		<tag k="name" v="Hjartnestjørna" />
		<tag k="natural" v="water" />
		<tag k="ssr:stedsnr" v="462908" />
	</node>
	<node id="-630885" lat="60.2537138502" lon="5.47350926624">
		<tag k="name" v="Lona" />
		<tag k="natural" v="water" />
		<tag k="ssr:stedsnr" v="98015" />
		<tag k="water" v="lake" />
	</node>
	<node id="-633430" lat="60.1706132504" lon="5.34320245457">
		<tag k="name" v="Strønevatnet" />
		<tag k="natural" v="water" />
		<tag k="ssr:stedsnr" v="523512" />
		<tag k="water" v="lake" />
	</node>
	<node id="-631381" lat="60.2725388872" lon="5.85998056269">
		<tag k="name" v="Skarvaelva" />
		<tag k="ssr:stedsnr" v="430908" />
		<tag k="waterway" v="stream" />
	</node>
	<node id="-633422" lat="60.2321615895" lon="5.44227923603">
		<tag k="name" v="Rugdaneset" />
		<tag k="natural" v="cape" />
		<tag k="ssr:stedsnr" v="523351" />
	</node>
	<node id="-631373" lat="60.2237944484" lon="5.82017499301">
		<tag k="name" v="Storatjørna" />
		<tag k="natural" v="water" />
		<tag k="ssr:stedsnr" v="429011" />
	</node>
	<node id="-633417" lat="60.2161250033" lon="5.44933055641">
		<tag k="name" v="Brandneset" />
		<tag k="natural" v="cape" />
		<tag k="ssr:stedsnr" v="523315" />
	</node>
	<node id="-633411" lat="60.2124083341" lon="5.45417777703">
		<tag k="name" v="Hetlestraumen" />
		<tag k="natural" v="strait" />
		<tag k="ssr:stedsnr" v="523288" />
	</node>
	<node id="-631355" lat="60.1947222188" lon="5.47240834086">
		<tag k="name" v="Oselva" />
		<tag k="ssr:stedsnr" v="389268" />
		<tag k="waterway" v="river" />
	</node>
	<node id="-631354" lat="60.1967333293" lon="5.59499722252">
		<tag k="name" v="Storholmen" />
		<tag k="place" v="islet" />
		<tag k="ssr:stedsnr" v="388703" />
	</node>
	<node id="-633401" lat="60.2000077417" lon="5.51944139955">
		<tag k="name" v="Lonaelva" />
		<tag k="ssr:stedsnr" v="523033" />
		<tag k="waterway" v="river" />
	</node>
	<node id="-633400" lat="60.2439472207" lon="5.44222500189">
		<tag k="name" v="Oselva" />
		<tag k="ssr:stedsnr" v="523028" />
		<tag k="waterway" v="river" />
	</node>
	<node id="-631351" lat="60.2977416695" lon="5.92585555533">
		<tag k="name" v="Eitro" />
		<tag k="ssr:stedsnr" v="357938" />
		<tag k="waterway" v="river" />
	</node>
	<node id="-633397" lat="60.1485285682" lon="5.41888820272">
		<tag k="name" v="Iglavatnet" />
		<tag k="natural" v="water" />
		<tag k="ssr:stedsnr" v="523008" />
	</node>
	<node id="-633396" lat="60.2954777809" lon="5.55329167231">
		<tag k="name" v="Saubottsbekken" />
		<tag k="ssr:stedsnr" v="523001" />
		<tag k="waterway" v="stream" />
	</node>
	<node id="-633390" lat="60.3226777751" lon="5.70040278576">
		<tag k="name" v="Løken" />
		<tag k="natural" v="bay" />
		<tag k="ssr:stedsnr" v="522970" />
	</node>
	<node id="-631341" lat="60.2687868726" lon="5.69750452137">
		<tag k="name" v="Hafskorvatnet" />
		<tag k="natural" v="water" />
		<tag k="ssr:stedsnr" v="491301" />
	</node>
	<node id="-631340" lat="60.3150029458" lon="5.7561907886">
		<tag k="name" v="Trollabotnstjørna" />
		<tag k="natural" v="water" />
		<tag k="ssr:stedsnr" v="491238" />
	</node>
	<node id="-631335" lat="60.1984888929" lon="5.91976943615">
		<tag k="name" v="Grovvatnet" />
		<tag k="natural" v="water" />
		<tag k="ssr:stedsnr" v="490495" />
	</node>
	<node id="-631334" lat="60.1309055592" lon="5.80857777987">
		<tag k="name" v="Halavasselva" />
		<tag k="ssr:stedsnr" v="490477" />
		<tag k="waterway" v="stream" />
	</node>
	<node id="-631333" lat="60.1207499964" lon="5.77743333489">
		<tag k="name" v="Femangerelva" />
		<tag k="ssr:stedsnr" v="490468" />
		<tag k="waterway" v="stream" />
	</node>
	<node id="-631331" lat="60.1392932172" lon="5.79604520016">
		<tag k="name" v="Krokvatnet" />
		<tag k="natural" v="water" />
		<tag k="ssr:stedsnr" v="490451" />
		<tag k="water" v="lake" />
	</node>
	<node id="-631329" lat="60.1689422617" lon="5.8394626307">
		<tag k="name" v="Fagravatnet" />
		<tag k="natural" v="water" />
		<tag k="ssr:stedsnr" v="490364" />
		<tag k="water" v="lake" />
	</node>
	<node id="-633371" lat="60.2762472181" lon="5.67410277287">
		<tag k="name" v="Ådlandselva" />
		<tag k="ssr:stedsnr" v="522790" />
		<tag k="waterway" v="river" />
	</node>
	<node id="-631316" lat="60.08904444" lon="5.76148055448">
		<tag k="name" v="Knappelva" />
		<tag k="ssr:stedsnr" v="489494" />
		<tag k="waterway" v="stream" />
	</node>
	<node id="-633346" lat="60.1635333792" lon="5.79013860228">
		<tag k="name" v="Stordalstjørna" />
		<tag k="natural" v="water" />
		<tag k="ssr:stedsnr" v="522525" />
	</node>
	<node id="-633339" lat="60.2544500021" lon="5.84510832918">
		<tag k="name" v="Potetholmen" />
		<tag k="place" v="islet" />
		<tag k="ssr:stedsnr" v="522436" />
	</node>
	<node id="-633335" lat="60.3139249982" lon="5.90177500792">
		<tag k="name" v="Tåka" />
		<tag k="ssr:stedsnr" v="522403" />
		<tag k="waterway" v="stream" />
	</node>
	<node id="-633331" lat="60.098038888" lon="5.84267222784">
		<tag k="name" v="Austefjordselva" />
		<tag k="ssr:stedsnr" v="522348" />
		<tag k="waterway" v="river" />
	</node>
	<node id="-633329" lat="60.2383388894" lon="5.8622694482">
		<tag k="name" v="Vikaneset" />
		<tag k="natural" v="cape" />
		<tag k="ssr:stedsnr" v="522327" />
	</node>
	<node id="-633321" lat="60.2141611152" lon="5.88932222824">
		<tag k="name" v="Nordvika" />
		<tag k="natural" v="bay" />
		<tag k="ssr:stedsnr" v="522279" />
	</node>
	<node id="-633316" lat="60.2072583334" lon="5.8442888918">
		<tag k="name" v="Nedste Geitskeidvika" />
		<tag k="natural" v="bay" />
		<tag k="ssr:stedsnr" v="522256" />
	</node>
	<node id="-631265" lat="60.2685110932" lon="5.77916408596">
		<tag k="name" v="Sætratjønna" />
		<tag k="natural" v="water" />
		<tag k="ssr:stedsnr" v="462715" />
	</node>
	<node id="-631261" lat="60.3003583369" lon="5.7901999935">
		<tag k="name" v="Spongatjørnelva" />
		<tag k="ssr:stedsnr" v="462651" />
		<tag k="waterway" v="river" />
	</node>
	<node id="-633304" lat="60.3228777809" lon="5.88417778263">
		<tag k="name" v="Skaraelva" />
		<tag k="ssr:stedsnr" v="521072" />
		<tag k="waterway" v="river" />
	</node>
	<node id="-631253" lat="60.2249120369" lon="5.51170430853">
		<tag k="name" v="Hegglandstjørna" />
		<tag k="natural" v="water" />
		<tag k="ssr:stedsnr" v="462499" />
	</node>
	<node id="-633299" lat="60.1427935804" lon="5.44314910666">
		<tag k="name" v="Bjørnavatnet" />
		<tag k="natural" v="water" />
		<tag k="ssr:stedsnr" v="430980" />
	</node>
	<node id="-633293" lat="60.2069999988" lon="5.87008055744">
		<tag k="name" v="Tomraholmen" />
		<tag k="place" v="islet" />
		<tag k="ssr:stedsnr" v="430513" />
	</node>
	<node id="-633291" lat="60.2547250016" lon="5.74648610444">
		<tag k="name" v="Lundarvikselva" />
		<tag k="ssr:stedsnr" v="430332" />
		<tag k="waterway" v="stream" />
	</node>
	<node id="-633289" lat="60.2820129411" lon="5.77371421181">
		<tag k="name" v="Svartetjørn" />
		<tag k="natural" v="water" />
		<tag k="ssr:stedsnr" v="430307" />
	</node>
	<node id="-633284" lat="60.2376333321" lon="5.93277499954">
		<tag k="alt_name" v="Teglandsdemma" />
		<tag k="name" v="Stemmetjørna" />
		<tag k="natural" v="water" />
		<tag k="ssr:stedsnr" v="430682" />
	</node>
	<node id="-631228" lat="60.2880416691" lon="5.5457750064">
		<tag k="name" v="Træselva" />
		<tag k="ssr:stedsnr" v="462318" />
		<tag k="waterway" v="river" />
	</node>
	<node id="-633930" lat="60.1944305597" lon="5.78385555721">
		<tag k="name" v="Hestaneset" />
		<tag k="natural" v="cape" />
		<tag k="ssr:stedsnr" v="774737" />
	</node>
	<node id="-631225" lat="60.1932583305" lon="5.89696388393">
		<tag k="name" v="Dyrabekken" />
		<tag k="ssr:stedsnr" v="462315" />
		<tag k="waterway" v="stream" />
	</node>
	<node id="-633269" lat="60.1969366047" lon="5.37043575361">
		<tag k="name" v="Langavatnet" />
		<tag k="natural" v="water" />
		<tag k="ssr:stedsnr" v="429764" />
	</node>
	<node id="-631219" lat="60.2311666639" lon="5.44053333176">
		<tag k="name" v="Klubbsvika" />
		<tag k="natural" v="bay" />
		<tag k="ssr:stedsnr" v="462289" />
	</node>
	<node id="-633266" lat="60.2007333305" lon="5.38235000727">
		<tag k="name" v="Vikelva" />
		<tag k="ssr:stedsnr" v="429742" />
		<tag k="waterway" v="stream" />
	</node>
	<node id="-631206" lat="60.214986113" lon="5.44539722238">
		<tag k="name" v="Skogavika" />
		<tag k="natural" v="bay" />
		<tag k="ssr:stedsnr" v="462256" />
	</node>
	<node id="-631205" lat="60.2102811947" lon="5.4173703445">
		<tag k="name" v="Rundatjørna" />
		<tag k="natural" v="water" />
		<tag k="ssr:stedsnr" v="462254" />
	</node>
	<node id="-633252" lat="60.2050249992" lon="5.7602444484">
		<tag k="name" v="Haugaelva" />
		<tag k="ssr:stedsnr" v="429098" />
		<tag k="waterway" v="river" />
	</node>
	<node id="-633238" lat="60.0695104275" lon="5.75711129204">
		<tag k="alt_name" v="Grunnasund" />
		<tag k="name" v="Grunnasundet" />
		<tag k="natural" v="strait" />
		<tag k="ssr:stedsnr" v="418245" />
	</node>
	<node id="-633234" lat="60.228950003" lon="5.46142500515">
		<tag k="name" v="Søra Straumsvika" />
		<tag k="natural" v="bay" />
		<tag k="ssr:stedsnr" v="402500" />
	</node>
	<node id="-631185" lat="60.2036755388" lon="5.35144067092">
		<tag k="name" v="Drangsvatnet" />
		<tag k="natural" v="water" />
		<tag k="ssr:stedsnr" v="462008" />
		<tag k="water" v="lake" />
	</node>
	<node id="-631183" lat="60.1843609106" lon="5.62886368481">
		<tag k="name" v="Hagatjørna" />
		<tag k="natural" v="water" />
		<tag k="ssr:stedsnr" v="461847" />
	</node>
	<node id="-632323" lat="60.2439546302" lon="5.40884539344">
		<tag k="name" v="Blomlitjørna" />
		<tag k="natural" v="water" />
		<tag k="ssr:stedsnr" v="37238" />
	</node>
	<node id="-631172" lat="60.1363749969" lon="5.81649167395">
		<tag k="name" v="Rotadalsbekken" />
		<tag k="ssr:stedsnr" v="461593" />
		<tag k="waterway" v="stream" />
	</node>
	<node id="-631165" lat="60.1600555532" lon="5.78480556031">
		<tag k="name" v="Melkeholsbekken" />
		<tag k="ssr:stedsnr" v="461523" />
		<tag k="waterway" v="stream" />
	</node>
	<node id="-631161" lat="60.1582027809" lon="5.78283888529">
		<tag k="name" v="Laugarelva" />
		<tag k="ssr:stedsnr" v="461510" />
		<tag k="waterway" v="river" />
	</node>
	<node id="-633202" lat="60.2877249998" lon="5.64981943753">
		<tag k="name" v="Samnøytjørnane" />
		<tag k="natural" v="water" />
		<tag k="ssr:stedsnr" v="401846" />
		<tag k="water" v="lake" />
	</node>
	<node id="-631153" lat="60.176332745" lon="5.67361389973">
		<tag k="name" v="Trongskartjørna" />
		<tag k="natural" v="water" />
		<tag k="ssr:stedsnr" v="460863" />
	</node>
	<node id="-633199" lat="60.2701583314" lon="5.67587221953">
		<tag k="name" v="Matlandselva" />
		<tag k="ssr:stedsnr" v="401775" />
		<tag k="waterway" v="river" />
	</node>
	<node id="-631145" lat="60.2148408605" lon="5.41002674184">
		<tag k="name" v="Abbedstjørna" />
		<tag k="natural" v="water" />
		<tag k="ssr:stedsnr" v="280516" />
	</node>
	<node id="-633190" lat="60.2935861101" lon="5.77831943897">
		<tag k="name" v="Heihellerneset" />
		<tag k="natural" v="cape" />
		<tag k="ssr:stedsnr" v="401657" />
	</node>
	<node id="-633188" lat="60.2449000023" lon="5.81346666765">
		<tag k="name" v="Gåsakilen" />
		<tag k="natural" v="bay" />
		<tag k="ssr:stedsnr" v="401644" />
	</node>
	<node id="-633186" lat="60.2489833368" lon="5.81204444819">
		<tag k="name" v="Hopen" />
		<tag k="natural" v="bay" />
		<tag k="ssr:stedsnr" v="401640" />
	</node>
	<node id="-631136" lat="60.1834320089" lon="5.43955378523">
		<tag k="name" v="Havrheitjørna" />
		<tag k="natural" v="water" />
		<tag k="ssr:stedsnr" v="280315" />
	</node>
	<node id="-631135" lat="60.0920833309" lon="5.83363610459">
		<tag k="name" v="Kjeaholmen" />
		<tag k="place" v="islet" />
		<tag k="ssr:stedsnr" v="280309" />
	</node>
	<node id="-631113" lat="60.0800138845" lon="5.83876944149">
		<tag k="name" v="Eikedalstjørna" />
		<tag k="natural" v="water" />
		<tag k="ssr:stedsnr" v="247287" />
	</node>
	<node id="-633159" lat="60.1330420399" lon="5.84811136014">
		<tag k="name" v="Olderbotstjørna" />
		<tag k="natural" v="water" />
		<tag k="ssr:stedsnr" v="401363" />
	</node>
	<node id="-631106" lat="60.2170710133" lon="5.49669607729">
		<tag k="name" v="Idlakleivtjørna" />
		<tag k="natural" v="water" />
		<tag k="ssr:stedsnr" v="219360" />
	</node>
	<node id="-633153" lat="60.0850277754" lon="5.82378334105">
		<tag k="name" v="Klokkevika" />
		<tag k="natural" v="bay" />
		<tag k="ssr:stedsnr" v="401334" />
	</node>
	<node id="-633150" lat="60.0919388926" lon="5.8561527685">
		<tag k="name" v="Vassnesa" />
		<tag k="natural" v="cape" />
		<tag k="ssr:stedsnr" v="401331" />
	</node>
	<node id="-631095" lat="60.2719750032" lon="5.94585555658">
		<tag k="name" v="Vetlelva" />
		<tag k="ssr:stedsnr" v="187855" />
		<tag k="waterway" v="stream" />
	</node>
	<node id="-633142" lat="60.2335925329" lon="5.4648760303">
		<tag k="name" v="Sandholmen" />
		<tag k="place" v="islet" />
		<tag k="ssr:stedsnr" v="401298" />
	</node>
	<node id="-631093" lat="60.2556070495" lon="5.88481607693">
		<tag k="name" v="Stemmetjørna" />
		<tag k="natural" v="water" />
		<tag k="ssr:stedsnr" v="187824" />
	</node>
	<node id="-633138" lat="60.2206277737" lon="5.85336944199">
		<tag k="name" v="Bjørgvika" />
		<tag k="natural" v="bay" />
		<tag k="ssr:stedsnr" v="401285" />
	</node>
	<node id="-633136" lat="60.2145824143" lon="5.42019031864">
		<tag k="name" v="Langelitjørna" />
		<tag k="natural" v="water" />
		<tag k="ssr:stedsnr" v="401272" />
	</node>
	<node id="-633134" lat="60.2328277754" lon="5.86764166002">
		<tag k="name" v="Eidsosen" />
		<tag k="natural" v="bay" />
		<tag k="ssr:stedsnr" v="401263" />
	</node>
	<node id="-633119" lat="60.2496361133" lon="5.79752222736">
		<tag k="name" v="Nordelva" />
		<tag k="ssr:stedsnr" v="400643" />
		<tag k="waterway" v="river" />
	</node>
	<node id="-633118" lat="60.2288796996" lon="5.7705977619">
		<tag k="name" v="Martinestjørna" />
		<tag k="natural" v="water" />
		<tag k="ssr:stedsnr" v="400534" />
	</node>
	<node id="-631064" lat="60.2873333314" lon="5.78027223048">
		<tag k="name" v="Langaneset" />
		<tag k="natural" v="cape" />
		<tag k="ssr:stedsnr" v="280672" />
	</node>
	<node id="-631053" lat="60.1921260152" lon="5.34072546572">
		<tag k="name" v="Ballandsvatnet" />
		<tag k="natural" v="water" />
		<tag k="ssr:stedsnr" v="280464" />
		<tag k="water" v="lake" />
	</node>
	<node id="-630955" lat="60.2048694474" lon="5.84354721707">
		<tag k="name" v="Skarholmen" />
		<tag k="place" v="islet" />
		<tag k="ssr:stedsnr" v="279085" />
	</node>
	<node id="-633092" lat="60.2940333326" lon="5.84488333718">
		<tag k="name" v="Stolaelva" />
		<tag k="ssr:stedsnr" v="369960" />
		<tag k="waterway" v="stream" />
	</node>
	<node id="-633091" lat="60.2735583298" lon="5.8788777756">
>>>>>>> e1d4bc35ff8a6074a6f2e91616a996b547c36f15
		<tag k="name" v="Gjønaelva" />
		<tag k="ssr:stedsnr" v="369896" />
		<tag k="waterway" v="river" />
	</node>
<<<<<<< HEAD
	<node lat="60.29403333256772" lon="5.8448833371822735" id="-29963">
		<tag k="name" v="Stolaelva" />
		<tag k="ssr:stedsnr" v="369960" />
		<tag k="waterway" v="stream" />
	</node>
	<node lat="60.194722218779724" lon="5.472408340861961" id="-29974">
		<tag k="name" v="Oselva" />
		<tag k="ssr:stedsnr" v="389268" />
		<tag k="waterway" v="river" />
	</node>
	<node lat="60.24963611329463" lon="5.797522227355283" id="-29979">
		<tag k="name" v="Nordelva" />
		<tag k="ssr:stedsnr" v="400643" />
		<tag k="waterway" v="river" />
	</node>
	<node lat="60.23282777543558" lon="5.867641660020227" id="-29988">
		<tag k="name" v="Eidsosen" />
		<tag k="natural" v="bay" />
		<tag k="ssr:stedsnr" v="401263" />
	</node>
	<node lat="60.21458241432658" lon="5.420190318641813" id="-29990">
		<tag k="name" v="Langelitjørna" />
		<tag k="natural" v="water" />
		<tag k="ssr:stedsnr" v="401272" />
	</node>
	<node lat="60.13304203988031" lon="5.848111360135164" id="-29996">
		<tag k="name" v="Olderbotstjørna" />
		<tag k="natural" v="water" />
		<tag k="ssr:stedsnr" v="401363" />
	</node>
	<node lat="60.24898333677859" lon="5.812044448188135" id="-30005">
		<tag k="name" v="Hopen" />
		<tag k="natural" v="bay" />
		<tag k="ssr:stedsnr" v="401640" />
	</node>
	<node lat="60.24490000233994" lon="5.813466667650292" id="-30007">
		<tag k="name" v="Gåsakilen" />
		<tag k="natural" v="bay" />
		<tag k="ssr:stedsnr" v="401644" />
	</node>
	<node lat="60.29358611010231" lon="5.778319438967794" id="-30009">
		<tag k="name" v="Heihellerneset" />
		<tag k="natural" v="cape" />
		<tag k="ssr:stedsnr" v="401657" />
	</node>
	<node lat="60.287724999791" lon="5.649819437526814" id="-30017">
		<tag k="name" v="Samnøytjørnane" />
		<tag k="natural" v="water" />
		<tag k="ssr:stedsnr" v="401846" />
		<tag k="water" v="lake" />
	</node>
	<node lat="60.22895000303806" lon="5.461425005150982" id="-30034">
		<tag k="name" v="Søra Straumsvika" />
		<tag k="natural" v="bay" />
		<tag k="ssr:stedsnr" v="402500" />
	</node>
	<node lat="60.223794448432216" lon="5.820174993008243" id="-30044">
		<tag k="name" v="Storatjørna" />
		<tag k="natural" v="water" />
		<tag k="ssr:stedsnr" v="429011" />
	</node>
	<node lat="60.20502499922872" lon="5.760244448395143" id="-30056">
		<tag k="name" v="Haugaelva" />
		<tag k="ssr:stedsnr" v="429098" />
		<tag k="waterway" v="river" />
	</node>
	<node lat="60.200733330454156" lon="5.382350007268705" id="-30061">
		<tag k="name" v="Vikelva" />
		<tag k="ssr:stedsnr" v="429742" />
		<tag k="waterway" v="stream" />
	</node>
	<node lat="60.25472500163435" lon="5.746486104441943" id="-30072">
		<tag k="name" v="Lundarvikselva" />
		<tag k="ssr:stedsnr" v="430332" />
		<tag k="waterway" v="stream" />
	</node>
	<node lat="60.23763333213996" lon="5.932774999537258" id="-30077">
		<tag k="alt_name" v="Teglandsdemma" />
		<tag k="name" v="Stemmetjørna" />
		<tag k="natural" v="water" />
		<tag k="ssr:stedsnr" v="430682" />
	</node>
	<node lat="60.14279358037764" lon="5.4431491066610205" id="-30081">
		<tag k="name" v="Bjørnavatnet" />
		<tag k="natural" v="water" />
		<tag k="ssr:stedsnr" v="430980" />
	</node>
	<node lat="60.20725833344024" lon="5.8442888918000895" id="-30099">
		<tag k="name" v="Nedste Geitskeidvika" />
		<tag k="natural" v="bay" />
		<tag k="ssr:stedsnr" v="522256" />
	</node>
	<node lat="60.23833888937676" lon="5.862269448195632" id="-30103">
		<tag k="name" v="Vikaneset" />
		<tag k="natural" v="cape" />
		<tag k="ssr:stedsnr" v="522327" />
	</node>
	<node lat="60.09803888797128" lon="5.842672227844879" id="-30105">
		<tag k="name" v="Austefjordselva" />
		<tag k="ssr:stedsnr" v="522348" />
		<tag k="waterway" v="river" />
	</node>
	<node lat="60.25445000206923" lon="5.8451083291831285" id="-30108">
		<tag k="name" v="Potetholmen" />
		<tag k="place" v="islet" />
		<tag k="ssr:stedsnr" v="522436" />
	</node>
	<node lat="60.16353337916996" lon="5.790138602281691" id="-30116">
		<tag k="name" v="Stordalstjørna" />
		<tag k="natural" v="water" />
		<tag k="ssr:stedsnr" v="522525" />
	</node>
	<node lat="60.27624721809811" lon="5.674102772868128" id="-30125">
		<tag k="name" v="Ådlandselva" />
		<tag k="ssr:stedsnr" v="522790" />
		<tag k="waterway" v="river" />
	</node>
	<node lat="60.29547778092845" lon="5.553291672306265" id="-30128">
		<tag k="name" v="Saubottsbekken" />
		<tag k="ssr:stedsnr" v="523001" />
		<tag k="waterway" v="stream" />
	</node>
	<node lat="60.24394722071727" lon="5.442225001894807" id="-30141">
		<tag k="name" v="Oselva" />
		<tag k="ssr:stedsnr" v="523028" />
		<tag k="waterway" v="river" />
	</node>
	<node lat="60.20000774174681" lon="5.519441399553946" id="-30142">
		<tag k="name" v="Lonaelva" />
		<tag k="ssr:stedsnr" v="523033" />
		<tag k="waterway" v="river" />
	</node>
	<node lat="60.21612500329497" lon="5.449330556409896" id="-30144">
		<tag k="name" v="Brandneset" />
		<tag k="natural" v="cape" />
		<tag k="ssr:stedsnr" v="523315" />
	</node>
	<node lat="60.21240833412704" lon="5.454177777033627" id="-30154">
		<tag k="name" v="Hetlestraumen" />
		<tag k="natural" v="strait" />
		<tag k="ssr:stedsnr" v="523288" />
	</node>
	<node lat="60.23216158952903" lon="5.442279236030208" id="-30164">
		<tag k="name" v="Rugdaneset" />
		<tag k="natural" v="cape" />
		<tag k="ssr:stedsnr" v="523351" />
	</node>
	<node lat="60.200036108257045" lon="5.8280527863404314" id="-30179">
		<tag k="name" v="Markavika" />
		<tag k="natural" v="bay" />
		<tag k="ssr:stedsnr" v="550092" />
	</node>
	<node lat="60.08713889103686" lon="5.782069448425967" id="-30182">
		<tag k="name" v="Kjeonnebekken" />
		<tag k="ssr:stedsnr" v="550271" />
		<tag k="waterway" v="stream" />
	</node>
	<node lat="60.31851666679269" lon="5.831019444677573" id="-30186">
		<tag k="alt_name" v="Skoratjørn" />
		<tag k="name" v="Skaratjørna" />
		<tag k="natural" v="water" />
		<tag k="ssr:stedsnr" v="551250" />
	</node>
	<node lat="60.312355707130266" lon="5.544829880374082" id="-30187">
		<tag k="name" v="Søtetjørna" />
		<tag k="natural" v="water" />
		<tag k="ssr:stedsnr" v="551254" />
	</node>
	<node lat="60.12770277861055" lon="5.8263583321155386" id="-30198">
		<tag k="name" v="Elvatjørna" />
		<tag k="natural" v="water" />
		<tag k="ssr:stedsnr" v="551475" />
	</node>
	<node lat="60.24115255175204" lon="5.84318943615" id="-30201">
		<tag k="name" v="Berhovdatjørna" />
		<tag k="natural" v="water" />
		<tag k="ssr:stedsnr" v="551693" />
	</node>
	<node lat="60.22557789601654" lon="5.440242632655548" id="-30210">
		<tag k="name" v="Vinddalsvatnet" />
		<tag k="natural" v="water" />
		<tag k="ssr:stedsnr" v="551886" />
		<tag k="water" v="lake" />
	</node>
	<node lat="60.119811110421914" lon="5.782852778087543" id="-30240">
		<tag k="name" v="Skratlebekken" />
		<tag k="ssr:stedsnr" v="582636" />
		<tag k="waterway" v="stream" />
	</node>
	<node lat="60.25144271940495" lon="5.803867016223157" id="-30241">
		<tag k="name" v="Lygrestjørna" />
		<tag k="natural" v="water" />
		<tag k="ssr:stedsnr" v="582661" />
	</node>
	<node lat="60.277533935659996" lon="5.805368277114508" id="-30242">
		<tag k="name" v="Vindestegtjønna" />
		<tag k="natural" v="water" />
		<tag k="ssr:stedsnr" v="582762" />
	</node>
	<node lat="60.32176678502112" lon="5.787478372669324" id="-30244">
		<tag k="name" v="Hestaskotjørna" />
		<tag k="natural" v="water" />
		<tag k="ssr:stedsnr" v="583661" />
	</node>
	<node lat="60.32475939873532" lon="5.766884200842757" id="-30245">
		<tag k="name" v="Svartatjørni" />
		<tag k="natural" v="water" />
		<tag k="ssr:stedsnr" v="583664" />
	</node>
	<node lat="60.19585833146763" lon="5.9115166725619055" id="-30255">
		<tag k="name" v="Storehølen" />
		<tag k="ssr:stedsnr" v="583331" />
		<tag k="waterway" v="river" />
	</node>
	<node lat="60.32318611375626" lon="5.692488894548949" id="-30298">
		<tag k="name" v="Snauholmen" />
		<tag k="place" v="islet" />
		<tag k="ssr:stedsnr" v="583968" />
	</node>
	<node lat="60.307799999066894" lon="5.804830559598683" id="-30301">
		<tag k="name" v="Spongatjørna" />
		<tag k="natural" v="water" />
		<tag k="ssr:stedsnr" v="611260" />
		<tag k="water" v="lake" />
	</node>
	<node lat="60.23103815065518" lon="5.773030068270641" id="-30304">
		<tag k="name" v="Mosatjørna" />
		<tag k="natural" v="water" />
		<tag k="ssr:stedsnr" v="611027" />
	</node>
	<node lat="60.21581111372563" lon="5.518977773813816" id="-30305">
		<tag k="name" v="Hegglandsvatnet" />
		<tag k="natural" v="water" />
		<tag k="ssr:stedsnr" v="611032" />
		<tag k="water" v="lake" />
	</node>
	<node lat="60.13487607872184" lon="5.819205023669114" id="-30317">
		<tag k="name" v="Lomstjørna" />
		<tag k="natural" v="water" />
		<tag k="ssr:stedsnr" v="611493" />
	</node>
	<node lat="60.24603610893245" lon="5.440666673995873" id="-30319">
		<tag k="name" v="Teinebekken" />
		<tag k="ssr:stedsnr" v="611844" />
		<tag k="waterway" v="stream" />
	</node>
	<node lat="60.05725379201016" lon="5.7402638474401515" id="-30321">
		<tag k="name" v="Øletjørna" />
		<tag k="natural" v="water" />
		<tag k="ssr:stedsnr" v="611363" />
	</node>
	<node lat="60.172963886878954" lon="5.65249723013295" id="-30322">
		<tag k="name" v="Vikaelva" />
		<tag k="ssr:stedsnr" v="611428" />
		<tag k="waterway" v="stream" />
	</node>
	<node lat="60.030608332954365" lon="5.757974991145776" id="-30327">
		<tag k="alt_name" v="Håvikavatn;Håvikavatnet" />
		<tag k="name" v="Håvikvatnet" />
		<tag k="natural" v="water" />
		<tag k="ssr:stedsnr" v="611654" />
		<tag k="water" v="lake" />
	</node>
	<node lat="60.214883686968044" lon="5.42575405411604" id="-30329">
		<tag k="name" v="Kvernatjørna" />
		<tag k="natural" v="water" />
		<tag k="ssr:stedsnr" v="611792" />
	</node>
	<node lat="60.255761109693886" lon="5.790666671429277" id="-30339">
		<tag k="name" v="Ormabekken" />
		<tag k="ssr:stedsnr" v="612359" />
		<tag k="waterway" v="stream" />
	</node>
	<node lat="60.260475002663384" lon="5.865788889953861" id="-30341">
		<tag k="name" v="Gjønelva" />
		<tag k="ssr:stedsnr" v="612832" />
		<tag k="waterway" v="stream" />
	</node>
	<node lat="60.28301111328342" lon="5.881541670879017" id="-30343">
		<tag k="name" v="Glumelielva" />
		<tag k="ssr:stedsnr" v="612942" />
		<tag k="waterway" v="stream" />
	</node>
	<node lat="60.29010833719" lon="5.917975001200733" id="-30344">
		<tag k="name" v="Svobekkene" />
		<tag k="ssr:stedsnr" v="612943" />
		<tag k="waterway" v="stream" />
	</node>
	<node lat="60.302655551068725" lon="5.905852769838083" id="-30345">
		<tag k="name" v="Gjoelva" />
		<tag k="ssr:stedsnr" v="612982" />
		<tag k="waterway" v="stream" />
	</node>
	<node lat="60.25180833271334" lon="5.488424993692744" id="-30348">
		<tag k="name" v="Sagelva" />
		<tag k="ssr:stedsnr" v="613612" />
		<tag k="waterway" v="river" />
	</node>
	<node lat="60.23973611190757" lon="5.859191657857654" id="-30365">
		<tag k="name" v="Beinavika" />
		<tag k="natural" v="bay" />
		<tag k="ssr:stedsnr" v="643319" />
	</node>
	<node lat="60.21124166367869" lon="5.887966671551422" id="-30370">
		<tag k="name" v="Kjeaneset" />
		<tag k="natural" v="cape" />
		<tag k="ssr:stedsnr" v="643270" />
	</node>
	<node lat="60.24593333546969" lon="5.920324994406944" id="-30377">
		<tag k="name" v="Orraosen" />
		<tag k="natural" v="bay" />
		<tag k="ssr:stedsnr" v="643449" />
	</node>
	<node lat="60.13728610726924" lon="5.7724666613141355" id="-30381">
		<tag k="name" v="Skiftesbekken" />
		<tag k="ssr:stedsnr" v="643556" />
		<tag k="waterway" v="stream" />
	</node>
	<node lat="60.266556636376485" lon="5.798952793440783" id="-30394">
		<tag k="name" v="Holdhustjørna" />
		<tag k="natural" v="water" />
		<tag k="ssr:stedsnr" v="643713" />
	</node>
	<node lat="60.25340833502232" lon="5.448424991358922" id="-30398">
		<tag k="name" v="Botnabekken" />
		<tag k="ssr:stedsnr" v="644009" />
		<tag k="waterway" v="stream" />
	</node>
	<node lat="60.2534361151829" lon="5.812880557239323" id="-30400">
		<tag k="name" v="Stegavika" />
		<tag k="natural" v="bay" />
		<tag k="ssr:stedsnr" v="643645" />
	</node>
	<node lat="60.21370000398739" lon="5.641422226101461" id="-30406">
		<tag k="name" v="Botnali-elva" />
		<tag k="ssr:stedsnr" v="643765" />
		<tag k="waterway" v="river" />
	</node>
	<node lat="60.24168333388221" lon="5.48624444698806" id="-30419">
		<tag k="name" v="Stokkedalselva" />
		<tag k="ssr:stedsnr" v="644304" />
		<tag k="waterway" v="river" />
=======
	<node id="-633083" lat="60.2139250036" lon="5.87100832447">
		<tag k="name" v="Storeholmen" />
		<tag k="place" v="islet" />
		<tag k="ssr:stedsnr" v="369686" />
	</node>
	<node id="-631034" lat="60.2592483102" lon="5.53249758775">
		<tag k="name" v="Tjørnane" />
		<tag k="natural" v="water" />
		<tag k="ssr:stedsnr" v="280343" />
		<tag k="water" v="lake" />
	</node>
	<node id="-631030" lat="60.2715055581" lon="5.48977778623">
		<tag k="name" v="Raudlistraumen" />
		<tag k="natural" v="strait" />
		<tag k="ssr:stedsnr" v="280296" />
	</node>
	<node id="-631028" lat="60.2282235476" lon="5.43885442194">
		<tag k="name" v="Grønavika" />
		<tag k="natural" v="bay" />
		<tag k="ssr:stedsnr" v="280291" />
	</node>
	<node id="-633071" lat="60.1201249959" lon="5.80857778382">
		<tag k="name" v="Yddalselva" />
		<tag k="ssr:stedsnr" v="369429" />
		<tag k="waterway" v="stream" />
	</node>
	<node id="-631019" lat="60.2207249973" lon="5.85888889261">
		<tag k="name" v="Kjeaneset" />
		<tag k="natural" v="cape" />
		<tag k="ssr:stedsnr" v="280253" />
	</node>
	<node id="-633066" lat="60.1096760982" lon="5.81335651633">
		<tag k="name" v="Taskedalstjørna" />
		<tag k="natural" v="water" />
		<tag k="ssr:stedsnr" v="369396" />
	</node>
	<node id="-633062" lat="60.2552500019" lon="5.78475000617">
		<tag k="name" v="Hestabekken" />
		<tag k="ssr:stedsnr" v="369311" />
		<tag k="waterway" v="stream" />
	</node>
	<node id="-633060" lat="60.2682652167" lon="5.76904433682">
		<tag k="name" v="Koldalstjørna" />
		<tag k="natural" v="water" />
		<tag k="ssr:stedsnr" v="369276" />
	</node>
	<node id="-631010" lat="60.2094083365" lon="5.38841667073">
		<tag k="name" v="Søvikelva" />
		<tag k="ssr:stedsnr" v="280217" />
		<tag k="waterway" v="river" />
	</node>
	<node id="-631008" lat="60.2054416708" lon="5.84754722935">
		<tag k="name" v="Trosavika" />
		<tag k="natural" v="bay" />
		<tag k="ssr:stedsnr" v="280213" />
	</node>
	<node id="-633049" lat="60.3197997673" lon="5.81294726918">
		<tag k="alt_name" v="Trælatjørna, austre" />
		<tag k="name" v="Austre Trælatjørna" />
		<tag k="natural" v="water" />
		<tag k="ssr:stedsnr" v="369226" />
	</node>
	<node id="-633046" lat="60.3343076156" lon="5.73536803031">
		<tag k="name" v="Altasetrevatnet" />
		<tag k="natural" v="water" />
		<tag k="ssr:stedsnr" v="369195" />
	</node>
	<node id="-630985" lat="60.2157583344" lon="5.4301055634">
		<tag k="name" v="Kvernavika" />
		<tag k="natural" v="bay" />
		<tag k="ssr:stedsnr" v="159309" />
	</node>
	<node id="-630984" lat="60.2806472229" lon="5.5488361077">
		<tag k="name" v="Ramsneset" />
		<tag k="natural" v="cape" />
		<tag k="ssr:stedsnr" v="159308" />
	</node>
	<node id="-630981" lat="60.2487804219" lon="5.50795267717">
		<tag k="name" v="Rundatjørna" />
		<tag k="natural" v="water" />
		<tag k="ssr:stedsnr" v="159268" />
	</node>
	<node id="-633023" lat="60.2117189751" lon="5.46001955205">
		<tag k="name" v="Tyssdalsvatnet" />
		<tag k="natural" v="water" />
		<tag k="ssr:stedsnr" v="368810" />
	</node>
	<node id="-633019" lat="60.166477608" lon="5.61010129691">
		<tag k="alt_name" v="Skotavatnet" />
		<tag k="name" v="Skåtavatnet" />
		<tag k="natural" v="water" />
		<tag k="ssr:stedsnr" v="368455" />
	</node>
	<node id="-633017" lat="60.1551444458" lon="5.79319166554">
		<tag k="name" v="Laugarvatnet" />
		<tag k="natural" v="water" />
		<tag k="ssr:stedsnr" v="368424" />
		<tag k="water" v="lake" />
	</node>
	<node id="-633012" lat="60.208516663" lon="5.66302500068">
		<tag k="name" v="Tjørnane" />
		<tag k="natural" v="water" />
		<tag k="ssr:stedsnr" v="368134" />
	</node>
	<node id="-633011" lat="60.1951166671" lon="5.68265277938">
		<tag k="name" v="Stemelva" />
		<tag k="ssr:stedsnr" v="368124" />
		<tag k="waterway" v="stream" />
	</node>
	<node id="-633007" lat="60.1971500006" lon="5.63351110678">
		<tag k="name" v="Sagelva" />
		<tag k="ssr:stedsnr" v="368110" />
		<tag k="waterway" v="stream" />
	</node>
	<node id="-631702" lat="60.0998483963" lon="5.83203034473">
		<tag k="name" v="Stemmetjørna" />
		<tag k="natural" v="water" />
		<tag k="ssr:stedsnr" v="732487" />
	</node>
	<node id="-633000" lat="60.2236858615" lon="5.7892120776">
		<tag k="name" v="Mauratjørna" />
		<tag k="natural" v="water" />
		<tag k="ssr:stedsnr" v="368006" />
	</node>
	<node id="-632983" lat="60.2152378721" lon="5.41533245485">
		<tag k="name" v="Ospelitjørna" />
		<tag k="natural" v="water" />
		<tag k="ssr:stedsnr" v="341364" />
	</node>
	<node id="-632980" lat="60.2210611146" lon="5.4565833271">
		<tag k="name" v="Skiftesvika" />
		<tag k="natural" v="bay" />
		<tag k="ssr:stedsnr" v="341351" />
	</node>
	<node id="-630931" lat="60.2887119053" lon="5.87376937997">
		<tag k="name" v="Kvitingsvatnet" />
		<tag k="natural" v="water" />
		<tag k="ssr:stedsnr" v="127933" />
	</node>
	<node id="-630930" lat="60.2671305568" lon="5.93031944059">
		<tag k="name" v="Storelva" />
		<tag k="ssr:stedsnr" v="127619" />
		<tag k="waterway" v="river" />
	</node>
	<node id="-630910" lat="60.1906138858" lon="5.36110000146">
		<tag k="name" v="Langavasselva" />
		<tag k="ssr:stedsnr" v="98453" />
		<tag k="waterway" v="river" />
	</node>
	<node id="-630895" lat="60.2739378524" lon="5.49429409783">
		<tag k="name" v="Sineset" />
		<tag k="natural" v="cape" />
		<tag k="ssr:stedsnr" v="98309" />
	</node>
	<node id="-630894" lat="60.2223777751" lon="5.46200833586">
		<tag k="name" v="Teinavika" />
		<tag k="natural" v="bay" />
		<tag k="ssr:stedsnr" v="98302" />
	</node>
	<node id="-632938" lat="60.2428249958" lon="5.79346110821">
		<tag k="name" v="Kilen" />
		<tag k="natural" v="bay" />
		<tag k="ssr:stedsnr" v="340646" />
	</node>
	<node id="-632937" lat="60.3115451745" lon="5.74562122767">
		<tag k="name" v="Fossabottsvatnet" />
		<tag k="natural" v="water" />
		<tag k="ssr:stedsnr" v="340641" />
	</node>
	<node id="-632935" lat="60.3207277769" lon="5.72785833873">
		<tag k="name" v="Breielva" />
		<tag k="ssr:stedsnr" v="340636" />
		<tag k="waterway" v="river" />
	</node>
	<node id="-632933" lat="60.1976138916" lon="5.79172776935">
		<tag k="name" v="Kvernhusvika" />
		<tag k="natural" v="bay" />
		<tag k="ssr:stedsnr" v="340604" />
	</node>
	<node id="-632932" lat="60.1347939845" lon="5.76277667054">
		<tag k="name" v="Nordre Svinasteinstjørna" />
		<tag k="natural" v="water" />
		<tag k="ssr:stedsnr" v="340589" />
	</node>
	<node id="-631142" lat="60.1532143663" lon="5.82826423115">
		<tag k="alt_name" v="Øystølvatnet" />
		<tag k="name" v="Øysetervatnet" />
		<tag k="natural" v="water" />
		<tag k="ssr:stedsnr" v="280505" />
		<tag k="water" v="lake" />
	</node>
	<node id="-632917" lat="60.1360792231" lon="5.86167991576">
		<tag k="name" v="Buksevatnet" />
		<tag k="natural" v="water" />
		<tag k="ssr:stedsnr" v="340368" />
		<tag k="water" v="lake" />
	</node>
	<node id="-630868" lat="60.2038444433" lon="5.88870555837">
		<tag k="name" v="Skogseidelva" />
		<tag k="ssr:stedsnr" v="248531" />
		<tag k="waterway" v="stream" />
	</node>
	<node id="-632913" lat="60.2783777738" lon="5.49313055235">
		<tag k="name" v="Langaneset" />
		<tag k="natural" v="cape" />
		<tag k="ssr:stedsnr" v="340338" />
	</node>
	<node id="-630797" lat="60.1149106872" lon="5.78176925057">
		<tag k="name" v="Austedalstjørna" />
		<tag k="natural" v="water" />
		<tag k="ssr:stedsnr" v="66417" />
	</node>
	<node id="-630857" lat="60.2653536196" lon="5.48927157967">
		<tag k="name" v="Ytsta Raudlivatnet" />
		<tag k="natural" v="water" />
		<tag k="ssr:stedsnr" v="248294" />
		<tag k="water" v="lake" />
	</node>
	<node id="-630856" lat="60.259658336" lon="5.5230500078">
		<tag k="name" v="Steindalselva" />
		<tag k="ssr:stedsnr" v="248283" />
		<tag k="waterway" v="stream" />
	</node>
	<node id="-632903" lat="60.204291664" lon="5.84647223144">
		<tag k="name" v="Naustvika" />
		<tag k="natural" v="bay" />
		<tag k="ssr:stedsnr" v="340284" />
	</node>
	<node id="-632902" lat="60.2092166632" lon="5.88285554825">
		<tag k="name" v="Hundsteinaneset" />
		<tag k="natural" v="cape" />
		<tag k="ssr:stedsnr" v="340279" />
	</node>
	<node id="-632900" lat="60.2110916709" lon="5.84554722226">
		<tag k="name" v="Øpste Geitskeidvika" />
		<tag k="natural" v="bay" />
		<tag k="ssr:stedsnr" v="340265" />
	</node>
	<node id="-630840" lat="60.2069904415" lon="5.41278389056">
		<tag k="alt_name" v="Åsavatnet" />
		<tag k="name" v="Åsatjørnane" />
		<tag k="natural" v="water" />
		<tag k="ssr:stedsnr" v="247751" />
		<tag k="water" v="lake" />
	</node>
	<node id="-630837" lat="60.2486678884" lon="5.88606582044">
		<tag k="name" v="Åsetjørna" />
		<tag k="natural" v="water" />
		<tag k="ssr:stedsnr" v="247687" />
	</node>
	<node id="-630832" lat="60.1387102812" lon="5.83656058878">
		<tag k="name" v="Vetlavatnet" />
		<tag k="natural" v="water" />
		<tag k="ssr:stedsnr" v="247472" />
	</node>
	<node id="-630831" lat="60.1326888931" lon="5.76729445256">
		<tag k="name" v="Svinasteinstjørna" />
		<tag k="natural" v="water" />
		<tag k="ssr:stedsnr" v="247470" />
		<tag k="water" v="lake" />
	</node>
	<node id="-632871" lat="60.2552638753" lon="5.43927294707">
		<tag k="name" v="Røykenesvatnet" />
		<tag k="natural" v="water" />
		<tag k="ssr:stedsnr" v="324090" />
		<tag k="water" v="lake" />
	</node>
	<node id="-632869" lat="60.2978166707" lon="5.85073333577">
		<tag k="name" v="Togene" />
		<tag k="natural" v="waterfall" />
		<tag k="ssr:stedsnr" v="309967" />
	</node>
	<node id="-630819" lat="60.2382280703" lon="5.48201888807">
		<tag k="name" v="Hundabekktjørnane" />
		<tag k="natural" v="water" />
		<tag k="ssr:stedsnr" v="247191" />
		<tag k="water" v="lake" />
	</node>
	<node id="-630818" lat="60.2136888866" lon="5.82826666394">
		<tag k="name" v="Rennesvika" />
		<tag k="natural" v="bay" />
		<tag k="ssr:stedsnr" v="247111" />
	</node>
	<node id="-632864" lat="60.2682388883" lon="5.95582777156">
		<tag k="name" v="Tverrelva" />
		<tag k="ssr:stedsnr" v="309608" />
		<tag k="waterway" v="stream" />
	</node>
	<node id="-630809" lat="60.2156194486" lon="5.47768888411">
		<tag k="alt_name" v="Tøsdalselva" />
		<tag k="name" v="Tyssdalselva" />
		<tag k="ssr:stedsnr" v="247027" />
		<tag k="waterway" v="stream" />
	</node>
	<node id="-630808" lat="60.2267197719" lon="5.80374862626">
		<tag k="name" v="Halvgjengetjørna" />
		<tag k="natural" v="water" />
		<tag k="ssr:stedsnr" v="247025" />
	</node>
	<node id="-632853" lat="60.1036746571" lon="5.86208204425">
		<tag k="name" v="Grunnavatnet" />
		<tag k="natural" v="water" />
		<tag k="ssr:stedsnr" v="308891" />
	</node>
	<node id="-632851" lat="60.1992343227" lon="5.46252049001">
		<tag k="name" v="Banktjørna" />
		<tag k="natural" v="water" />
		<tag k="ssr:stedsnr" v="308742" />
	</node>
	<node id="-632849" lat="60.1421949999" lon="5.82524493109">
		<tag k="name" v="Midttjørna" />
		<tag k="natural" v="water" />
		<tag k="ssr:stedsnr" v="308458" />
	</node>
	<node id="-632848" lat="60.1290427456" lon="5.82273499969">
		<tag k="name" v="Grøndalstjørna" />
		<tag k="natural" v="water" />
		<tag k="ssr:stedsnr" v="308454" />
	</node>
	<node id="-630798" lat="60.1178250019" lon="5.76756389123">
		<tag k="name" v="Sørelva" />
		<tag k="ssr:stedsnr" v="66455" />
		<tag k="waterway" v="stream" />
	</node>
	<node id="-632845" lat="60.0984444481" lon="5.75316110386">
		<tag k="name" v="Hjartåkerelva" />
		<tag k="ssr:stedsnr" v="308402" />
		<tag k="waterway" v="stream" />
	</node>
	<node id="-630796" lat="60.1040027765" lon="5.78313889135">
		<tag k="name" v="Svartavatnet" />
		<tag k="natural" v="water" />
		<tag k="ssr:stedsnr" v="66414" />
	</node>
	<node id="-630794" lat="60.0983138934" lon="5.82096389398">
		<tag k="name" v="Krokvatnet" />
		<tag k="natural" v="water" />
		<tag k="ssr:stedsnr" v="66407" />
	</node>
	<node id="-630791" lat="60.0516318667" lon="5.77034020567">
		<tag k="name" v="Pasåstjørna" />
		<tag k="natural" v="water" />
		<tag k="ssr:stedsnr" v="65304" />
	</node>
	<node id="-632838" lat="60.0739472239" lon="5.83791666261">
		<tag k="name" v="Fossaelva" />
		<tag k="ssr:stedsnr" v="308272" />
		<tag k="waterway" v="stream" />
	</node>
	<node id="-632835" lat="60.2776678881" lon="5.55097958276">
		<tag k="name" v="Øvredalsvatnet" />
		<tag k="natural" v="water" />
		<tag k="ssr:stedsnr" v="308269" />
		<tag k="water" v="lake" />
	</node>
	<node id="-632833" lat="60.2794472224" lon="5.59049722451">
		<tag k="name" v="Strandaelva" />
		<tag k="ssr:stedsnr" v="308265" />
		<tag k="waterway" v="stream" />
>>>>>>> e1d4bc35ff8a6074a6f2e91616a996b547c36f15
	</node>
</osm>
