<?xml version="1.0" encoding="UTF-8"?>
<osm version="0.6" generator="osmapis">
	<node lat="60.210313888979826" lon="5.781086119783648" id="-31845">
		<tag k="historic" v="shieling" />
		<tag k="name" v="Sævareidstølen" />
		<tag k="place" v="locality" />
		<tag k="ssr:stedsnr" v="4116" />
	</node>
	<node lat="60.21859999644119" lon="5.642152772498562" id="-31916">
		<tag k="historic" v="shieling" />
		<tag k="name" v="Stølane" />
		<tag k="place" v="locality" />
		<tag k="ssr:stedsnr" v="37777" />
	</node>
	<node lat="60.20773889232177" lon="5.680666675260355" id="-31919">
		<tag k="historic" v="shieling" />
		<tag k="name" v="Urstøl" />
		<tag k="place" v="locality" />
		<tag k="ssr:stedsnr" v="37781" />
	</node>
	<node lat="60.181416668939995" lon="5.412788882380608" id="-31989">
		<tag k="name" v="Skeismyrane" />
		<tag k="natural" v="wetland" />
		<tag k="ssr:stedsnr" v="247798" />
	</node>
	<node lat="60.23438055678076" lon="5.895302770063142" id="-32005">
		<tag k="historic" v="shieling" />
		<tag k="name" v="Stølane" />
		<tag k="place" v="locality" />
		<tag k="ssr:stedsnr" v="98270" />
	</node>
	<node lat="60.23132222663515" lon="5.40019166989818" id="-32012">
		<tag k="name" v="Tveitane" />
		<tag k="place" v="locality" />
		<tag k="ssr:stedsnr" v="98360" />
	</node>
	<node lat="60.304655552716184" lon="5.767013881974425" id="-32017">
		<tag k="historic" v="shieling" />
		<tag k="name" v="Gamlasetret" />
		<tag k="place" v="locality" />
		<tag k="ssr:stedsnr" v="98663" />
	</node>
	<node lat="60.20540277754191" lon="5.696019446890469" id="-32026">
		<tag k="historic" v="shieling" />
		<tag k="name" v="Setret" />
		<tag k="place" v="locality" />
		<tag k="ssr:stedsnr" v="98782" />
	</node>
	<node lat="60.23296388922631" lon="5.7939166679116285" id="-32088">
		<tag k="name" v="Storemyra" />
		<tag k="natural" v="wetland" />
		<tag k="ssr:stedsnr" v="157505" />
	</node>
	<node lat="60.23499999961423" lon="5.84954445009506" id="-32092">
		<tag k="name" v="Lyningssteinen" />
		<tag k="natural" v="stone" />
		<tag k="ssr:stedsnr" v="158307" />
	</node>
	<node lat="60.20035277719753" lon="5.6911333371635155" id="-32155">
		<tag k="name" v="Åremyra" />
		<tag k="natural" v="wetland" />
		<tag k="ssr:stedsnr" v="186106" />
	</node>
	<node lat="60.26573888508208" lon="5.5062583358258" id="-32173">
		<tag k="historic" v="shieling" />
		<tag k="name" v="Bøsetret" />
		<tag k="place" v="locality" />
		<tag k="ssr:stedsnr" v="187297" />
	</node>
	<node lat="60.18704166284805" lon="5.871741660466144" id="-32206">
		<tag k="historic" v="shieling" />
		<tag k="name" v="Gamlestølen" />
		<tag k="place" v="locality" />
		<tag k="ssr:stedsnr" v="219325" />
	</node>
	<node lat="60.30232778192853" lon="5.821327786159852" id="-32215">
		<tag k="name" v="Lindura" />
		<tag k="natural" v="scree" />
		<tag k="ssr:stedsnr" v="219415" />
	</node>
	<node lat="60.28324166581009" lon="5.704911104599058" id="-32229">
		<tag k="name" v="Leinene" />
		<tag k="natural" v="stone" />
		<tag k="ssr:stedsnr" v="219806" />
	</node>
	<node lat="60.2560166697695" lon="5.494597230418271" id="-32243">
		<tag k="name" v="Bastiansmyra" />
		<tag k="natural" v="wetland" />
		<tag k="ssr:stedsnr" v="220310" />
	</node>
	<node lat="60.23706388935966" lon="5.528694451434538" id="-32249">
		<tag k="historic" v="shieling" />
		<tag k="name" v="Steinsetra" />
		<tag k="place" v="locality" />
		<tag k="ssr:stedsnr" v="220525" />
	</node>
	<node lat="60.184686115518474" lon="5.715775000677052" id="-32283">
		<tag k="name" v="Storura" />
		<tag k="natural" v="scree" />
		<tag k="ssr:stedsnr" v="248062" />
	</node>
	<node lat="60.20777777338487" lon="5.759366666792797" id="-32296">
		<tag k="historic" v="shieling" />
		<tag k="name" v="Gamlestølen" />
		<tag k="place" v="locality" />
		<tag k="ssr:stedsnr" v="278569" />
	</node>
	<node lat="60.2070583328377" lon="5.725650004928251" id="-32297">
		<tag k="historic" v="shieling" />
		<tag k="name" v="Ljotåsetret" />
		<tag k="place" v="locality" />
		<tag k="ssr:stedsnr" v="278719" />
	</node>
	<node lat="60.19579166491645" lon="5.641483337928712" id="-32299">
		<tag k="historic" v="shieling" />
		<tag k="name" v="Vetlasetret" />
		<tag k="place" v="locality" />
		<tag k="ssr:stedsnr" v="278825" />
	</node>
	<node lat="60.159855552323855" lon="5.787741675470112" id="-32304">
		<tag k="historic" v="shieling" />
		<tag k="name" v="Baldersheimsetret" />
		<tag k="place" v="locality" />
		<tag k="ssr:stedsnr" v="279513" />
	</node>
	<node lat="60.169394448217346" lon="5.8153694413456" id="-32305">
		<tag k="historic" v="shieling" />
		<tag k="name" v="Sauaseteret" />
		<tag k="place" v="locality" />
		<tag k="ssr:stedsnr" v="279518" />
	</node>
	<node lat="60.28211111469601" lon="5.833636108052504" id="-32345">
		<tag k="historic" v="shieling" />
		<tag k="name" v="Skaråsetret" />
		<tag k="place" v="locality" />
		<tag k="ssr:stedsnr" v="280506" />
	</node>
	<node lat="60.254947223099194" lon="5.459069439108915" id="-32360">
		<tag k="name" v="Slåttemyra" />
		<tag k="natural" v="wetland" />
		<tag k="ssr:stedsnr" v="462199" />
	</node>
	<node lat="60.16990277390848" lon="5.740430562968812" id="-32373">
		<tag k="name" v="Gråsteinen" />
		<tag k="natural" v="stone" />
		<tag k="ssr:stedsnr" v="461616" />
	</node>
	<node lat="60.18203889150902" lon="5.799094436809897" id="-32374">
		<tag k="historic" v="shieling" />
		<tag k="name" v="Setret" />
		<tag k="place" v="locality" />
		<tag k="ssr:stedsnr" v="461622" />
	</node>
	<node lat="60.254030552400025" lon="5.722813887814001" id="-32382">
		<tag k="historic" v="shieling" />
		<tag k="name" v="Storasetret" />
		<tag k="place" v="locality" />
		<tag k="ssr:stedsnr" v="461745" />
	</node>
	<node lat="60.187013886151306" lon="5.4217277712091" id="-32417">
		<tag k="name" v="Rosemyra" />
		<tag k="natural" v="wetland" />
		<tag k="ssr:stedsnr" v="462402" />
	</node>
	<node lat="60.265722220845944" lon="5.844855547898369" id="-32421">
		<tag k="name" v="Blåura" />
		<tag k="natural" v="scree" />
		<tag k="ssr:stedsnr" v="462498" />
	</node>
	<node lat="60.22326666511164" lon="5.757963888332886" id="-32486">
		<tag k="historic" v="shieling" />
		<tag k="name" v="Setekinna" />
		<tag k="place" v="locality" />
		<tag k="ssr:stedsnr" v="339506" />
	</node>
	<node lat="60.23157500089642" lon="5.9140833314076575" id="-32493">
		<tag k="historic" v="shieling" />
		<tag k="name" v="Setremarka" />
		<tag k="place" v="locality" />
		<tag k="ssr:stedsnr" v="340302" />
	</node>
	<node lat="60.14290555091357" lon="5.4363638805397985" id="-32515">
		<tag k="name" v="Halhjemsmarkjo" />
		<tag k="place" v="locality" />
		<tag k="ssr:stedsnr" v="341004" />
	</node>
	<node lat="60.22569721963921" lon="5.428580564021651" id="-32521">
		<tag k="name" v="Lonemyra" />
		<tag k="natural" v="wetland" />
		<tag k="ssr:stedsnr" v="341350" />
	</node>
	<node lat="60.234188889082446" lon="5.418925003029712" id="-32523">
		<tag k="name" v="Kråmyra" />
		<tag k="natural" v="wetland" />
		<tag k="ssr:stedsnr" v="341352" />
	</node>
	<node lat="60.34093055803983" lon="5.74931110968841" id="-32552">
		<tag k="historic" v="shieling" />
		<tag k="name" v="Kleppssetret" />
		<tag k="place" v="locality" />
		<tag k="ssr:stedsnr" v="369206" />
	</node>
	<node lat="60.23730000313667" lon="5.426102781595004" id="-32588">
		<tag k="name" v="Raunåsmyrane" />
		<tag k="natural" v="wetland" />
		<tag k="ssr:stedsnr" v="401303" />
	</node>
	<node lat="60.18532777854197" lon="5.406927778572393" id="-32607">
		<tag k="name" v="Kloppamyra" />
		<tag k="natural" v="wetland" />
		<tag k="ssr:stedsnr" v="401382" />
	</node>
	<node lat="60.16321388590093" lon="5.770983335278066" id="-32608">
		<tag k="name" v="Skarsmyra" />
		<tag k="natural" v="wetland" />
		<tag k="ssr:stedsnr" v="401508" />
	</node>
	<node lat="60.13548888631735" lon="5.7602277704158755" id="-32611">
		<tag k="historic" v="shieling" />
		<tag k="name" v="Stølane" />
		<tag k="place" v="locality" />
		<tag k="ssr:stedsnr" v="401582" />
	</node>
	<node lat="60.15414722110864" lon="5.783019450071262" id="-32612">
		<tag k="historic" v="shieling" />
		<tag k="name" v="Lågåsstølen" />
		<tag k="place" v="locality" />
		<tag k="ssr:stedsnr" v="401584" />
	</node>
	<node lat="60.16145555869885" lon="5.759402775066156" id="-32614">
		<tag k="name" v="Asmyra" />
		<tag k="natural" v="wetland" />
		<tag k="ssr:stedsnr" v="401589" />
	</node>
	<node lat="60.16500555935863" lon="5.360569444183993" id="-32633">
		<tag k="name" v="Langamyra" />
		<tag k="natural" v="wetland" />
		<tag k="ssr:stedsnr" v="402025" />
	</node>
	<node lat="60.17165277692846" lon="5.802833331913137" id="-32737">
		<tag k="historic" v="shieling" />
		<tag k="name" v="Revneseter" />
		<tag k="place" v="locality" />
		<tag k="ssr:stedsnr" v="461535" />
	</node>
	<node lat="60.223047224393774" lon="5.912894450895306" id="-32747">
		<tag k="historic" v="shieling" />
		<tag k="name" v="Furenesstølen" />
		<tag k="place" v="locality" />
		<tag k="ssr:stedsnr" v="462211" />
	</node>
	<node lat="60.198066662276986" lon="5.441405551343153" id="-32759">
		<tag k="name" v="Kolskogen" />
		<tag k="place" v="locality" />
		<tag k="ssr:stedsnr" v="462273" />
	</node>
	<node lat="60.19423888798381" lon="5.384686114913564" id="-32775">
		<tag k="historic" v="shieling" />
		<tag k="name" v="Setret" />
		<tag k="place" v="locality" />
		<tag k="ssr:stedsnr" v="462414" />
	</node>
	<node lat="60.099841663339305" lon="5.791861109976642" id="-32787">
		<tag k="historic" v="shieling" />
		<tag k="name" v="Lygresetret" />
		<tag k="place" v="locality" />
		<tag k="ssr:stedsnr" v="462920" />
	</node>
	<node lat="60.22035000436699" lon="5.907980549730207" id="-32839">
		<tag k="historic" v="shieling" />
		<tag k="name" v="Aspenesstølen" />
		<tag k="place" v="locality" />
		<tag k="ssr:stedsnr" v="522263" />
	</node>
	<node lat="60.18156389291063" lon="5.857516657844052" id="-32845">
		<tag k="historic" v="shieling" />
		<tag k="name" v="Seltuftena" />
		<tag k="place" v="locality" />
		<tag k="ssr:stedsnr" v="522309" />
	</node>
	<node lat="60.20154166651022" lon="5.643036106638928" id="-32861">
		<tag k="historic" v="shieling" />
		<tag k="name" v="Fusasetret" />
		<tag k="place" v="locality" />
		<tag k="ssr:stedsnr" v="522767" />
	</node>
	<node lat="60.05081389199478" lon="5.754022212965542" id="-32869">
		<tag k="name" v="Hagen" />
		<tag k="place" v="locality" />
		<tag k="ssr:stedsnr" v="522883" />
	</node>
	<node lat="60.226858332653386" lon="5.453772216060858" id="-32882">
		<tag k="name" v="Hjellamarka" />
		<tag k="place" v="locality" />
		<tag k="ssr:stedsnr" v="523362" />
	</node>
	<node lat="60.18651111382038" lon="5.361302771561044" id="-32907">
		<tag k="name" v="Storamyra" />
		<tag k="natural" v="wetland" />
		<tag k="ssr:stedsnr" v="550802" />
	</node>
	<node lat="60.1905777794998" lon="5.852994451344449" id="-32968">
		<tag k="historic" v="shieling" />
		<tag k="name" v="Kilasetret" />
		<tag k="place" v="locality" />
		<tag k="ssr:stedsnr" v="583305" />
	</node>
	<node lat="60.24557777344875" lon="5.572677778777529" id="-32976">
		<tag k="name" v="Rødssteinen" />
		<tag k="natural" v="stone" />
		<tag k="ssr:stedsnr" v="583353" />
	</node>
	<node lat="60.27105277696962" lon="5.80788888874432" id="-32987">
		<tag k="historic" v="shieling" />
		<tag k="name" v="Bjørndalstølen" />
		<tag k="place" v="locality" />
		<tag k="ssr:stedsnr" v="583716" />
	</node>
	<node lat="60.304258330462766" lon="5.686799995774576" id="-32994">
		<tag k="historic" v="shieling" />
		<tag k="name" v="Kolamilstølen" />
		<tag k="place" v="locality" />
		<tag k="ssr:stedsnr" v="583991" />
	</node>
	<node lat="60.236288890241326" lon="5.774886104541033" id="-33059">
		<tag k="name" v="Midtskogsmyra" />
		<tag k="natural" v="wetland" />
		<tag k="ssr:stedsnr" v="704500" />
	</node>
	<node lat="60.143591663328024" lon="5.8065916665852395" id="-33062">
		<tag k="historic" v="shieling" />
		<tag k="name" v="Krokvavass-stølen" />
		<tag k="place" v="locality" />
		<tag k="ssr:stedsnr" v="704537" />
	</node>
	<node lat="60.19055555166159" lon="5.82359721455298" id="-33064">
		<tag k="historic" v="shieling" />
		<tag k="name" v="Vardastøl" />
		<tag k="place" v="locality" />
		<tag k="ssr:stedsnr" v="704564" />
	</node>
	<node lat="60.16523611519483" lon="5.353213885142348" id="-33103">
		<tag k="name" v="Skiftesmyra" />
		<tag k="natural" v="wetland" />
		<tag k="ssr:stedsnr" v="705542" />
	</node>
	<node lat="60.22988333338957" lon="5.911222224949777" id="-33118">
		<tag k="historic" v="shieling" />
		<tag k="name" v="Setret" />
		<tag k="place" v="locality" />
		<tag k="ssr:stedsnr" v="643283" />
	</node>
	<node lat="60.10864166961483" lon="5.807655562267051" id="-33179">
		<tag k="historic" v="shieling" />
		<tag k="name" v="Stølen" />
		<tag k="place" v="locality" />
		<tag k="ssr:stedsnr" v="672418" />
	</node>
	<node lat="60.20582777908996" lon="5.758572213428551" id="-33202">
		<tag k="historic" v="shieling" />
		<tag k="name" v="Vetlestølen" />
		<tag k="place" v="locality" />
		<tag k="ssr:stedsnr" v="703560" />
	</node>
	<node lat="60.23450000110863" lon="5.922463884506908" id="-33206">
		<tag k="historic" v="shieling" />
		<tag k="name" v="Teglandstølen" />
		<tag k="place" v="locality" />
		<tag k="ssr:stedsnr" v="704278" />
	</node>
	<node lat="60.19748055671483" lon="5.688375005461212" id="-33273">
		<tag k="name" v="Bjørkelundane" />
		<tag k="place" v="locality" />
		<tag k="ssr:stedsnr" v="733121" />
	</node>
	<node lat="60.19430555810289" lon="5.677519436951725" id="-33294">
		<tag k="alt_name" v="Breidstølhytta" />
		<tag k="historic" v="shieling" />
		<tag k="name" v="Breisetret" />
		<tag k="place" v="locality" />
		<tag k="ssr:stedsnr" v="903077" />
	</node>
	<node lat="60.22083333693064" lon="5.406408336296876" id="-33317">
		<tag k="name" v="Korsabrumyrane" />
		<tag k="natural" v="wetland" />
		<tag k="ssr:stedsnr" v="765293" />
	</node>
	<node lat="60.27044166813638" lon="5.793061109078825" id="-33342">
		<tag k="historic" v="shieling" />
		<tag k="name" v="Holdhusstølen" />
		<tag k="place" v="locality" />
		<tag k="ssr:stedsnr" v="765728" />
	</node>
	<node lat="60.25237222388451" lon="5.61330556113362" id="-33353">
		<tag k="name" v="Kleppemyra" />
		<tag k="natural" v="wetland" />
		<tag k="ssr:stedsnr" v="765961" />
	</node>
	<node lat="60.19806944280497" lon="5.4457249948000275" id="-33388">
		<tag k="name" v="Kolskogen" />
		<tag k="place" v="locality" />
		<tag k="ssr:stedsnr" v="793811" />
	</node>
	<node lat="60.2108999973976" lon="5.689511103873376" id="-33422">
		<tag k="name" v="Storemyra" />
		<tag k="natural" v="wetland" />
		<tag k="ssr:stedsnr" v="915107" />
	</node>
	<node lat="60.27872758674299" lon="5.715363174108129" id="-33462">
		<tag k="historic" v="shieling" />
		<tag k="name" v="Skitnestølen" />
		<tag k="place" v="locality" />
		<tag k="ssr:stedsnr" v="825671" />
	</node>
	<node lat="60.18032499976208" lon="5.761594452020117" id="-33469">
		<tag k="historic" v="shieling" />
		<tag k="name" v="Lyngstølen" />
		<tag k="place" v="locality" />
		<tag k="ssr:stedsnr" v="826611" />
	</node>
	<node lat="60.1645527736795" lon="5.789144440842503" id="-33481">
		<tag k="historic" v="shieling" />
		<tag k="name" v="Bjørkestølen" />
		<tag k="place" v="locality" />
		<tag k="ssr:stedsnr" v="826522" />
	</node>
	<node lat="60.151052777311925" lon="5.615308333300893" id="-33537">
		<tag k="historic" v="shieling" />
		<tag k="name" v="Stølen" />
		<tag k="place" v="locality" />
		<tag k="ssr:stedsnr" v="885803" />
	</node>
	<node lat="60.24670555477017" lon="5.839144439382172" id="-33541">
		<tag k="historic" v="shieling" />
		<tag k="name" v="Gamlestølen" />
		<tag k="place" v="locality" />
		<tag k="ssr:stedsnr" v="886420" />
	</node>
	<node lat="60.275869445786704" lon="5.820955554442195" id="-33542">
		<tag k="historic" v="shieling" />
		<tag k="name" v="Bygdastølen" />
		<tag k="place" v="locality" />
		<tag k="ssr:stedsnr" v="886450" />
	</node>
	<node lat="60.25581110704064" lon="5.475433336156781" id="-33555">
		<tag k="name" v="Strilamyra" />
		<tag k="natural" v="wetland" />
		<tag k="ssr:stedsnr" v="887307" />
	</node>
	<node lat="60.2839444448085" lon="5.883602776590642" id="-33563">
		<tag k="historic" v="shieling" />
		<tag k="name" v="Øvstasetret" />
		<tag k="place" v="locality" />
		<tag k="ssr:stedsnr" v="887522" />
	</node>
	<node lat="60.177608333592836" lon="5.348519438541382" id="-33568">
		<tag k="name" v="Havnamyra" />
		<tag k="natural" v="wetland" />
		<tag k="ssr:stedsnr" v="887459" />
	</node>
	<node lat="60.10199722007793" lon="5.779763895520046" id="-33577">
		<tag k="historic" v="shieling" />
		<tag k="name" v="Nordtveitsetret" />
		<tag k="place" v="locality" />
		<tag k="ssr:stedsnr" v="887916" />
	</node>
	<node lat="60.272572225159976" lon="5.786322214407864" id="-33639">
		<tag k="historic" v="shieling" />
		<tag k="name" v="Gamlestølen" />
		<tag k="place" v="locality" />
		<tag k="ssr:stedsnr" v="947733" />
	</node>
	<node lat="60.24314722512674" lon="5.649436103914964" id="-33726">
		<tag k="name" v="Storura" />
		<tag k="natural" v="scree" />
		<tag k="ssr:stedsnr" v="24141" />
	</node>
	<node lat="60.29243610917136" lon="5.8312694391884605" id="-33733">
		<tag k="name" v="Vetlalindura" />
		<tag k="natural" v="scree" />
		<tag k="ssr:stedsnr" v="36374" />
	</node>
	<node lat="60.205930552788914" lon="5.353013887569335" id="-33747">
		<tag k="name" v="Høljamyra" />
		<tag k="natural" v="wetland" />
		<tag k="ssr:stedsnr" v="37438" />
	</node>
	<node lat="60.19378611447631" lon="5.4000194491927465" id="-33749">
		<tag k="name" v="Ådnedalsmyra" />
		<tag k="natural" v="wetland" />
		<tag k="ssr:stedsnr" v="37449" />
	</node>
	<node lat="60.204558334848265" lon="5.463736119871717" id="-33753">
		<tag k="name" v="Prestegardskogen" />
		<tag k="place" v="locality" />
		<tag k="ssr:stedsnr" v="37288" />
	</node>
	<node lat="60.247419446811485" lon="5.532302786429706" id="-33779">
		<tag k="name" v="Bjørkeskoghalsen" />
		<tag k="place" v="locality" />
		<tag k="ssr:stedsnr" v="37353" />
	</node>
	<node lat="60.16081388854403" lon="5.757427778405771" id="-33800">
		<tag k="historic" v="shieling" />
		<tag k="name" v="Djupedalsstølen" />
		<tag k="place" v="locality" />
		<tag k="ssr:stedsnr" v="37619" />
	</node>
	<node lat="60.27085833418167" lon="5.873261118549343" id="-33866">
		<tag k="name" v="Gjønsætermarka" />
		<tag k="place" v="locality" />
		<tag k="ssr:stedsnr" v="66850" />
	</node>
	<node lat="60.22454166250851" lon="5.433063882160841" id="-33903">
		<tag k="name" v="Storemyrane" />
		<tag k="natural" v="wetland" />
		<tag k="ssr:stedsnr" v="98297" />
	</node>
	<node lat="60.15101944166122" lon="5.348297228920141" id="-33912">
		<tag k="name" v="Storamyra" />
		<tag k="natural" v="wetland" />
		<tag k="ssr:stedsnr" v="98242" />
	</node>
	<node lat="60.234197218359085" lon="5.871769451418737" id="-33916">
		<tag k="historic" v="shieling" />
		<tag k="name" v="Gamlestølen" />
		<tag k="place" v="locality" />
		<tag k="ssr:stedsnr" v="98253" />
	</node>
	<node lat="60.22564444414965" lon="5.412052783641747" id="-33926">
		<tag k="name" v="Kristiansmyra" />
		<tag k="natural" v="wetland" />
		<tag k="ssr:stedsnr" v="98358" />
	</node>
	<node lat="60.3231888922524" lon="5.743627785631987" id="-33932">
		<tag k="historic" v="shieling" />
		<tag k="name" v="Lisetret" />
		<tag k="place" v="locality" />
		<tag k="ssr:stedsnr" v="98633" />
	</node>
	<node lat="60.290519448425165" lon="5.747099999330067" id="-33937">
		<tag k="historic" v="shieling" />
		<tag k="name" v="Lundarviksetret" />
		<tag k="place" v="locality" />
		<tag k="ssr:stedsnr" v="98697" />
	</node>
	<node lat="60.165994445108865" lon="5.774291673178677" id="-34034">
		<tag k="name" v="Setramyra" />
		<tag k="natural" v="wetland" />
		<tag k="ssr:stedsnr" v="158517" />
	</node>
	<node lat="60.154347217918556" lon="5.832149991402492" id="-34039">
		<tag k="historic" v="shieling" />
		<tag k="name" v="Øyseter" />
		<tag k="place" v="locality" />
		<tag k="ssr:stedsnr" v="158387" />
	</node>
	<node lat="60.287605551785255" lon="5.645463881871076" id="-34067">
		<tag k="name" v="Pøylemyra" />
		<tag k="natural" v="wetland" />
		<tag k="ssr:stedsnr" v="158994" />
	</node>
	<node lat="60.21110555734169" lon="5.75911944103949" id="-34143">
		<tag k="name" v="Pinnura" />
		<tag k="natural" v="scree" />
		<tag k="ssr:stedsnr" v="218499" />
	</node>
	<node lat="60.220586107742676" lon="5.491827778849316" id="-34217">
		<tag k="historic" v="shieling" />
		<tag k="name" v="Grytestølen" />
		<tag k="place" v="locality" />
		<tag k="ssr:stedsnr" v="220544" />
	</node>
	<node lat="60.17750555400525" lon="5.648991665941056" id="-34225">
		<tag k="historic" v="shieling" />
		<tag k="name" v="Setret" />
		<tag k="place" v="locality" />
		<tag k="ssr:stedsnr" v="278841" />
	</node>
	<node lat="60.252216664480684" lon="5.889599998422501" id="-34230">
		<tag k="name" v="Moltemyr" />
		<tag k="natural" v="wetland" />
		<tag k="ssr:stedsnr" v="279457" />
	</node>
	<node lat="60.26094721809344" lon="5.714705562332609" id="-34236">
		<tag k="historic" v="shieling" />
		<tag k="name" v="Nysetret" />
		<tag k="place" v="locality" />
		<tag k="ssr:stedsnr" v="279741" />
	</node>
	<node lat="60.227463888376086" lon="5.375094442041839" id="-34244">
		<tag k="name" v="Fureskogmyra" />
		<tag k="natural" v="wetland" />
		<tag k="ssr:stedsnr" v="280266" />
	</node>
	<node lat="60.2744249993331" lon="5.548513894302344" id="-34265">
		<tag k="name" v="Storura" />
		<tag k="natural" v="scree" />
		<tag k="ssr:stedsnr" v="280256" />
	</node>
	<node lat="60.23169166600865" lon="5.405958338697508" id="-34273">
		<tag k="name" v="Utgjerdet" />
		<tag k="place" v="locality" />
		<tag k="ssr:stedsnr" v="280356" />
	</node>
	<node lat="60.26559166991056" lon="5.631772228553175" id="-34287">
		<tag k="historic" v="shieling" />
		<tag k="name" v="Skarvastølen" />
		<tag k="place" v="locality" />
		<tag k="ssr:stedsnr" v="280790" />
	</node>
	<node lat="60.16301944038867" lon="5.608519445512745" id="-34308">
		<tag k="historic" v="shieling" />
		<tag k="name" v="Dallandsstølane" />
		<tag k="place" v="locality" />
		<tag k="ssr:stedsnr" v="307433" />
	</node>
	<node lat="60.25091388536347" lon="5.469088893613467" id="-34366">
		<tag k="name" v="Lonmyrane" />
		<tag k="natural" v="wetland" />
		<tag k="ssr:stedsnr" v="341276" />
	</node>
	<node lat="60.28858889214852" lon="5.788686108903227" id="-34389">
		<tag k="name" v="Storura" />
		<tag k="natural" v="scree" />
		<tag k="ssr:stedsnr" v="340652" />
	</node>
	<node lat="60.269994445773875" lon="5.636919438488231" id="-34402">
		<tag k="historic" v="shieling" />
		<tag k="name" v="Dalastølen" />
		<tag k="place" v="locality" />
		<tag k="ssr:stedsnr" v="340786" />
	</node>
	<node lat="60.179213888915584" lon="5.365800006929395" id="-34417">
		<tag k="landuse" v="meadow" />
		<tag k="name" v="Midtmarka" />
		<tag k="ssr:stedsnr" v="341427" />
	</node>
	<node lat="60.28388888509637" lon="5.501252782787611" id="-34480">
		<tag k="name" v="Raudlibøen" />
		<tag k="place" v="locality" />
		<tag k="ssr:stedsnr" v="369235" />
	</node>
	<node lat="60.20747500220677" lon="5.757202768628311" id="-34516">
		<tag k="historic" v="shieling" />
		<tag k="name" v="Setret" />
		<tag k="place" v="locality" />
		<tag k="ssr:stedsnr" v="400525" />
	</node>
	<node lat="60.286347220045926" lon="5.650594444922712" id="-34554">
		<tag k="historic" v="shieling" />
		<tag k="name" v="Samnøysetret" />
		<tag k="place" v="locality" />
		<tag k="ssr:stedsnr" v="401844" />
	</node>
	<node lat="60.24551666819015" lon="5.633455549152104" id="-34560">
		<tag k="name" v="Luesteinane" />
		<tag k="natural" v="stone" />
		<tag k="ssr:stedsnr" v="401943" />
	</node>
	<node lat="60.259294314951234" lon="5.563550716075622" id="-34611">
		<tag k="name" v="Hestasteinen" />
		<tag k="natural" v="stone" />
		<tag k="ssr:stedsnr" v="430294" />
	</node>
	<node lat="60.28474166713699" lon="5.541919441470077" id="-34642">
		<tag k="name" v="Ospeskogen" />
		<tag k="place" v="locality" />
		<tag k="ssr:stedsnr" v="522336" />
	</node>
	<node lat="60.269572218999464" lon="5.856358339452482" id="-34653">
		<tag k="historic" v="shieling" />
		<tag k="name" v="Grønestølen" />
		<tag k="place" v="locality" />
		<tag k="ssr:stedsnr" v="522495" />
	</node>
	<node lat="60.128652778440774" lon="5.805733333432461" id="-34738">
		<tag k="historic" v="shieling" />
		<tag k="name" v="Sørtveitstølen" />
		<tag k="place" v="locality" />
		<tag k="ssr:stedsnr" v="551482" />
	</node>
	<node lat="60.29476944203059" lon="5.917011105711718" id="-34749">
		<tag k="name" v="Helleura" />
		<tag k="natural" v="scree" />
		<tag k="ssr:stedsnr" v="551958" />
	</node>
	<node lat="60.21443333095908" lon="5.703408339947657" id="-34759">
		<tag k="historic" v="shieling" />
		<tag k="name" v="Setret" />
		<tag k="place" v="locality" />
		<tag k="ssr:stedsnr" v="581552" />
	</node>
	<node lat="60.227958334798274" lon="5.50749166859807" id="-34798">
		<tag k="name" v="Storura" />
		<tag k="natural" v="scree" />
		<tag k="ssr:stedsnr" v="583513" />
	</node>
	<node lat="60.180597218941486" lon="5.379719451588493" id="-34815">
		<tag k="name" v="Vågsmyra" />
		<tag k="natural" v="wetland" />
		<tag k="ssr:stedsnr" v="583386" />
	</node>
	<node lat="60.25600278115807" lon="5.929783341609524" id="-34912">
		<tag k="name" v="Mosasteinane" />
		<tag k="natural" v="stone" />
		<tag k="ssr:stedsnr" v="643441" />
	</node>
	<node lat="60.31757499621939" lon="5.705941670347284" id="-34928">
		<tag k="historic" v="shieling" />
		<tag k="name" v="Skorestølen" />
		<tag k="place" v="locality" />
		<tag k="ssr:stedsnr" v="643631" />
	</node>
	<node lat="60.26991110923369" lon="5.77526666985497" id="-34933">
		<tag k="historic" v="shieling" />
		<tag k="name" v="Skjelbreidsetret" />
		<tag k="place" v="locality" />
		<tag k="ssr:stedsnr" v="643717" />
	</node>
	<node lat="60.21031110954712" lon="5.402197217498844" id="-34954">
		<tag k="name" v="Høljamyra" />
		<tag k="natural" v="wetland" />
		<tag k="ssr:stedsnr" v="644288" />
	</node>
	<node lat="60.15944166270675" lon="5.411744444506507" id="-34970">
		<tag k="name" v="Storamyra" />
		<tag k="natural" v="wetland" />
		<tag k="ssr:stedsnr" v="644360" />
	</node>
	<node lat="60.2129166653275" lon="5.39363056152163" id="-34975">
		<tag k="name" v="Skitmyrane" />
		<tag k="natural" v="wetland" />
		<tag k="ssr:stedsnr" v="644522" />
	</node>
	<node lat="60.191583332479865" lon="5.676355554579171" id="-34981">
		<tag k="name" v="Løkjene" />
		<tag k="natural" v="wetland" />
		<tag k="ssr:stedsnr" v="721181" />
	</node>
</osm>
