<?xml version="1.0" encoding="UTF-8"?>
<osm version="0.6" generator="osmapis">
	<node lat="60.202205558914486" lon="5.3268777752181835" id="-27312">
		<tag k="name" v="Vetle Havreholmen" />
		<tag k="place" v="islet" />
		<tag k="ssr:stedsnr" v="4802" />
	</node>
	<node lat="60.163888893332775" lon="5.303619444624819" id="-27314">
		<tag k="name" v="Teistaneset" />
		<tag k="natural" v="cape" />
		<tag k="ssr:stedsnr" v="4814" />
	</node>
	<node lat="60.19269444557215" lon="5.349244449971112" id="-27315">
		<tag k="alt_name" v="Drangsvågen" />
		<tag k="name" v="Ytredrangsvågen" />
		<tag k="natural" v="bay" />
		<tag k="ssr:stedsnr" v="4773" />
	</node>
	<node lat="60.18951944185528" lon="5.581288883857713" id="-27317">
		<tag k="name" v="Nordflu" />
		<tag k="natural" v="shoal" />
		<tag k="place" v="locality" />
		<tag k="ssr:stedsnr" v="5074" />
	</node>
	<node lat="60.15510555362197" lon="5.371105560646297" id="-27320">
		<tag k="name" v="Lepsøyosen" />
		<tag k="natural" v="strait" />
		<tag k="ssr:stedsnr" v="4960" />
	</node>
	<node lat="60.150624995656116" lon="5.308608334183256" id="-27321">
		<tag k="name" v="Alholmen" />
		<tag k="place" v="islet" />
		<tag k="ssr:stedsnr" v="4961" />
	</node>
	<node lat="60.15689444076691" lon="5.30777778167854" id="-27322">
		<tag k="name" v="Storeknappen" />
		<tag k="natural" v="cape" />
		<tag k="ssr:stedsnr" v="4963" />
	</node>
	<node lat="60.14020555924629" lon="5.744375007062031" id="-27326">
		<tag k="alt_name" v="Tveiteneset" />
		<tag k="name" v="Tveitneset" />
		<tag k="natural" v="cape" />
		<tag k="ssr:stedsnr" v="5458" />
	</node>
	<node lat="60.131994444115755" lon="5.644805562040661" id="-27328">
		<tag k="name" v="Grunna" />
		<tag k="natural" v="shoal" />
		<tag k="place" v="locality" />
		<tag k="ssr:stedsnr" v="5473" />
	</node>
	<node lat="60.12999166326677" lon="5.381911113956008" id="-27336">
		<tag k="name" v="Gulholmane" />
		<tag k="place" v="islet" />
		<tag k="ssr:stedsnr" v="5958" />
	</node>
	<node lat="60.141544443122626" lon="5.380747221452374" id="-27337">
		<tag k="name" v="Brattholmen" />
		<tag k="place" v="islet" />
		<tag k="ssr:stedsnr" v="5972" />
	</node>
	<node lat="60.07814166806792" lon="5.803891667487548" id="-27341">
		<tag k="name" v="Eidet" />
		<tag k="place" v="locality" />
		<tag k="ssr:stedsnr" v="24132" />
	</node>
	<node lat="60.29164722007655" lon="5.640213882182269" id="-27342">
		<tag k="name" v="Tångane" />
		<tag k="natural" v="cape" />
		<tag k="ssr:stedsnr" v="24133" />
	</node>
	<node lat="60.0733749997445" lon="5.753419443631337" id="-27344">
		<tag k="name" v="Øyasundet" />
		<tag k="natural" v="strait" />
		<tag k="ssr:stedsnr" v="24228" />
	</node>
	<node lat="60.19627777502312" lon="5.600986107565763" id="-27345">
		<tag k="name" v="Otravika" />
		<tag k="natural" v="bay" />
		<tag k="ssr:stedsnr" v="25689" />
	</node>
	<node lat="60.144080554851705" lon="5.348470498776218" id="-27346">
		<tag k="name" v="Vetla Molvika" />
		<tag k="natural" v="bay" />
		<tag k="ssr:stedsnr" v="25982" />
	</node>
	<node lat="60.145816667489306" lon="5.391005560005363" id="-27347">
		<tag k="name" v="Brattholmen" />
		<tag k="place" v="islet" />
		<tag k="ssr:stedsnr" v="25994" />
	</node>
	<node lat="60.08009515706065" lon="5.792431413589487" id="-27349">
		<tag k="alt_name" v="Lygrefjorden" />
		<tag k="name" v="Lygresfjorden" />
		<tag k="natural" v="bay" />
		<tag k="ssr:stedsnr" v="236282" />
	</node>
	<node lat="60.26067221865502" lon="5.564333329041372" id="-27363">
		<tag k="name" v="Notaneset" />
		<tag k="natural" v="cape" />
		<tag k="ssr:stedsnr" v="37363" />
	</node>
	<node lat="60.260650001726574" lon="5.568786113570946" id="-27364">
		<tag k="name" v="Hetlevika" />
		<tag k="natural" v="bay" />
		<tag k="ssr:stedsnr" v="37366" />
	</node>
	<node lat="60.279363890641456" lon="5.659772223010338" id="-27375">
		<tag k="name" v="Kastevika" />
		<tag k="natural" v="bay" />
		<tag k="ssr:stedsnr" v="37823" />
	</node>
	<node lat="60.18405555330752" lon="5.599074995958978" id="-27390">
		<tag k="name" v="Saltneset" />
		<tag k="natural" v="cape" />
		<tag k="ssr:stedsnr" v="65064" />
	</node>
	<node lat="60.19670833244489" lon="5.599041660861708" id="-27393">
		<tag k="name" v="Otraneset" />
		<tag k="natural" v="cape" />
		<tag k="ssr:stedsnr" v="65076" />
	</node>
	<node lat="60.15866388535347" lon="5.580133342053682" id="-27397">
		<tag k="name" v="Skåtavika" />
		<tag k="natural" v="bay" />
		<tag k="ssr:stedsnr" v="65410" />
	</node>
	<node lat="60.18267777646567" lon="5.335702782216748" id="-27401">
		<tag k="name" v="Raudøya" />
		<tag k="place" v="islet" />
		<tag k="ssr:stedsnr" v="65806" />
	</node>
	<node lat="60.20202290270223" lon="5.364679118990442" id="-27403">
		<tag k="name" v="Bjoarvika" />
		<tag k="natural" v="bay" />
		<tag k="ssr:stedsnr" v="65760" />
	</node>
	<node lat="60.29359999968748" lon="5.6476277706622025" id="-27406">
		<tag k="name" v="Børøysundet" />
		<tag k="natural" v="strait" />
		<tag k="ssr:stedsnr" v="66253" />
	</node>
	<node lat="60.30947222666102" lon="5.65187222090627" id="-27407">
		<tag k="name" v="Gongvika" />
		<tag k="natural" v="bay" />
		<tag k="ssr:stedsnr" v="66265" />
	</node>
	<node lat="60.06780411950648" lon="5.762889148393481" id="-27413">
		<tag k="alt_name" v="Kyrkjeholmen" />
		<tag k="name" v="Kyrkjeholmane" />
		<tag k="place" v="islet" />
		<tag k="ssr:stedsnr" v="85126" />
	</node>
	<node lat="60.1605416684167" lon="5.679780562972761" id="-27414">
		<tag k="name" v="Ådnavika" />
		<tag k="natural" v="bay" />
		<tag k="ssr:stedsnr" v="85094" />
	</node>
	<node lat="60.1420722190491" lon="5.416863893430658" id="-27415">
		<tag k="name" v="Langavika" />
		<tag k="natural" v="bay" />
		<tag k="ssr:stedsnr" v="86993" />
	</node>
	<node lat="60.23266944358745" lon="5.621661111989555" id="-27416">
		<tag k="name" v="Altanesodden" />
		<tag k="natural" v="cape" />
		<tag k="ssr:stedsnr" v="247029" />
	</node>
	<node lat="60.17584444218134" lon="5.4920749979340115" id="-27419">
		<tag k="name" v="Nyskallen" />
		<tag k="natural" v="shoal" />
		<tag k="place" v="locality" />
		<tag k="ssr:stedsnr" v="247055" />
	</node>
	<node lat="60.155850000707126" lon="5.672805549309795" id="-27423">
		<tag k="name" v="Knappholmen" />
		<tag k="place" v="islet" />
		<tag k="ssr:stedsnr" v="247386" />
	</node>
	<node lat="60.16339166515218" lon="5.572444447809625" id="-27424">
		<tag k="name" v="Skåtholmen" />
		<tag k="place" v="islet" />
		<tag k="ssr:stedsnr" v="247401" />
	</node>
	<node lat="60.15505832889701" lon="5.426105548282985" id="-27455">
		<tag k="name" v="Indre Hauglandssjøen" />
		<tag k="natural" v="bay" />
		<tag k="ssr:stedsnr" v="98029" />
	</node>
	<node lat="60.168091670680774" lon="5.317216673420814" id="-27471">
		<tag k="name" v="Stallskjerneset" />
		<tag k="natural" v="cape" />
		<tag k="ssr:stedsnr" v="98464" />
	</node>
	<node lat="60.1863083355414" lon="5.355794446755059" id="-27472">
		<tag k="name" v="Eidsvika" />
		<tag k="natural" v="bay" />
		<tag k="ssr:stedsnr" v="98471" />
	</node>
	<node lat="60.14044722547504" lon="5.417652782507556" id="-27477">
		<tag k="name" v="Langesundet" />
		<tag k="natural" v="strait" />
		<tag k="ssr:stedsnr" v="247980" />
	</node>
	<node lat="60.14132778032133" lon="5.389530562208109" id="-27478">
		<tag k="name" v="Bjørnarøya" />
		<tag k="place" v="islet" />
		<tag k="ssr:stedsnr" v="247983" />
	</node>
	<node lat="60.27816110938095" lon="5.645074993328004" id="-27487">
		<tag k="name" v="Fureneset" />
		<tag k="natural" v="cape" />
		<tag k="ssr:stedsnr" v="98771" />
	</node>
	<node lat="60.15858333766403" lon="5.422277783218384" id="-27496">
		<tag k="name" v="Nordstølen" />
		<tag k="natural" v="cape" />
		<tag k="ssr:stedsnr" v="247951" />
	</node>
	<node lat="60.14709444630141" lon="5.404941664087697" id="-27497">
		<tag k="name" v="Ytterøyosen" />
		<tag k="natural" v="strait" />
		<tag k="ssr:stedsnr" v="247998" />
	</node>
	<node lat="60.10210000264501" lon="5.729366660550768" id="-27508">
		<tag k="name" v="Naustneset" />
		<tag k="natural" v="cape" />
		<tag k="ssr:stedsnr" v="248440" />
	</node>
	<node lat="60.10682777819559" lon="5.721030554156576" id="-27509">
		<tag k="name" v="Hjartneset" />
		<tag k="natural" v="cape" />
		<tag k="ssr:stedsnr" v="248479" />
	</node>
	<node lat="60.206011114245726" lon="5.597883338130155" id="-27517">
		<tag k="name" v="Klemetsholmen" />
		<tag k="place" v="islet" />
		<tag k="ssr:stedsnr" v="125009" />
	</node>
	<node lat="60.2093333316415" lon="5.544786106758731" id="-27518">
		<tag k="alt_name" v="Hatvikneset" />
		<tag k="name" v="Hattvikneset" />
		<tag k="natural" v="cape" />
		<tag k="ssr:stedsnr" v="125012" />
	</node>
	<node lat="60.162925001455406" lon="5.301002779413073" id="-27523">
		<tag k="fixme" v="consider seamark:type=rock or natural=shoal" />
		<tag k="name" v="Teistane" />
		<tag k="place" v="islet" />
		<tag k="ssr:stedsnr" v="125805" />
	</node>
	<node lat="60.16513333518899" lon="5.395574991794777" id="-27524">
		<tag k="name" v="Skeisholmen" />
		<tag k="place" v="islet" />
		<tag k="ssr:stedsnr" v="125809" />
	</node>
	<node lat="60.17788055363453" lon="5.3029805518265185" id="-27525">
		<tag k="fixme" v="consider seamark:type=rock or natural=shoal" />
		<tag k="name" v="Låtreskjeret" />
		<tag k="place" v="islet" />
		<tag k="ssr:stedsnr" v="125816" />
	</node>
	<node lat="60.16983611075965" lon="5.298455554774857" id="-27526">
		<tag k="name" v="Fluaneset" />
		<tag k="natural" v="cape" />
		<tag k="ssr:stedsnr" v="125827" />
	</node>
	<node lat="60.186899996919685" lon="5.605055560075565" id="-27531">
		<tag k="name" v="Storlineset" />
		<tag k="natural" v="cape" />
		<tag k="ssr:stedsnr" v="126076" />
	</node>
	<node lat="60.1516083358868" lon="5.360294435759114" id="-27540">
		<tag k="name" v="Selvågen" />
		<tag k="natural" v="bay" />
		<tag k="ssr:stedsnr" v="126932" />
	</node>
	<node lat="60.066123545832255" lon="5.765771874880487" id="-27547">
		<tag k="name" v="Djupevika" />
		<tag k="natural" v="bay" />
		<tag k="ssr:stedsnr" v="145140" />
	</node>
	<node lat="60.112147224170585" lon="5.730730560592924" id="-27569">
		<tag k="name" v="Fagravika" />
		<tag k="natural" v="bay" />
		<tag k="ssr:stedsnr" v="158558" />
	</node>
	<node lat="60.11711667049636" lon="5.7330388877403955" id="-27570">
		<tag k="name" v="Geitaryggen" />
		<tag k="natural" v="cape" />
		<tag k="ssr:stedsnr" v="158560" />
	</node>
	<node lat="60.127541664634286" lon="5.762047219771838" id="-27571">
		<tag k="name" v="Teigneset" />
		<tag k="natural" v="cape" />
		<tag k="ssr:stedsnr" v="158564" />
	</node>
	<node lat="60.17668888507492" lon="5.738041667237995" id="-27577">
		<tag k="name" v="Bogen" />
		<tag k="natural" v="bay" />
		<tag k="ssr:stedsnr" v="158612" />
	</node>
	<node lat="60.06355833499566" lon="5.791127782924974" id="-27582">
		<tag k="name" v="Leiteneset" />
		<tag k="natural" v="cape" />
		<tag k="ssr:stedsnr" v="158903" />
	</node>
	<node lat="60.109816662421096" lon="5.732730547029355" id="-27583">
		<tag k="name" v="Bjørnsvikane" />
		<tag k="natural" v="bay" />
		<tag k="ssr:stedsnr" v="158908" />
	</node>
	<node lat="60.138350000976104" lon="5.753572222555158" id="-27584">
		<tag k="name" v="Sagneset" />
		<tag k="natural" v="cape" />
		<tag k="ssr:stedsnr" v="158951" />
	</node>
	<node lat="60.13989722460395" lon="5.748275005885494" id="-27585">
		<tag k="name" v="Sørtveitfjæra" />
		<tag k="natural" v="bay" />
		<tag k="ssr:stedsnr" v="158953" />
	</node>
	<node lat="60.29773611474945" lon="5.653708326952411" id="-27588">
		<tag k="name" v="Øyatangen" />
		<tag k="natural" v="cape" />
		<tag k="ssr:stedsnr" v="158998" />
	</node>
	<node lat="60.06113689161197" lon="5.802479542434022" id="-27590">
		<tag k="name" v="Storeolderneset" />
		<tag k="natural" v="cape" />
		<tag k="ssr:stedsnr" v="158901" />
	</node>
	<node lat="60.173705551913315" lon="5.380311109671542" id="-27601">
		<tag k="name" v="Askvikneset" />
		<tag k="natural" v="cape" />
		<tag k="ssr:stedsnr" v="159364" />
	</node>
	<node lat="60.22155277898328" lon="5.345247217112128" id="-27603">
		<tag k="name" v="Lindholmen" />
		<tag k="place" v="islet" />
		<tag k="ssr:stedsnr" v="159501" />
	</node>
	<node lat="60.239405553367924" lon="5.746877783957616" id="-27613">
		<tag k="name" v="Leira" />
		<tag k="natural" v="beach" />
		<tag k="ssr:stedsnr" v="186034" />
	</node>
	<node lat="60.2432138910199" lon="5.694886116704134" id="-27615">
		<tag k="name" v="Haganeset" />
		<tag k="natural" v="cape" />
		<tag k="ssr:stedsnr" v="186047" />
	</node>
	<node lat="60.1740222185891" lon="5.337011113303597" id="-27622">
		<tag k="name" v="Langøya" />
		<tag k="place" v="islet" />
		<tag k="ssr:stedsnr" v="186803" />
	</node>
	<node lat="60.21501666832042" lon="5.361155552775622" id="-27625">
		<tag k="name" v="Lysøya" />
		<tag k="place" v="island" />
		<tag k="ssr:stedsnr" v="186783" />
	</node>
	<node lat="60.19014444616415" lon="5.697233324308136" id="-27626">
		<tag k="name" v="Håvika" />
		<tag k="natural" v="bay" />
		<tag k="ssr:stedsnr" v="187085" />
	</node>
	<node lat="60.17236389118936" lon="5.689911117502865" id="-27628">
		<tag k="alt_name" v="Djupavågen" />
		<tag k="name" v="Djupevågen" />
		<tag k="natural" v="bay" />
		<tag k="ssr:stedsnr" v="187380" />
	</node>
	<node lat="60.183897219013836" lon="5.745486109086066" id="-27629">
		<tag k="name" v="Nautaneset" />
		<tag k="natural" v="cape" />
		<tag k="ssr:stedsnr" v="187387" />
	</node>
	<node lat="60.1707277745617" lon="5.468952771382168" id="-27630">
		<tag k="name" v="Raudholmane" />
		<tag k="place" v="islet" />
		<tag k="ssr:stedsnr" v="187391" />
	</node>
	<node lat="60.26452499987801" lon="5.65179999431923" id="-27634">
		<tag k="alt_name" v="Årlandsholmen" />
		<tag k="name" v="Ådlandsholmen" />
		<tag k="place" v="islet" />
		<tag k="ssr:stedsnr" v="187281" />
	</node>
	<node lat="60.09143055617784" lon="5.793258340594398" id="-27647">
		<tag k="name" v="Mjelkevika" />
		<tag k="natural" v="bay" />
		<tag k="ssr:stedsnr" v="267099" />
	</node>
	<node lat="60.25750555993511" lon="5.59154167511719" id="-27648">
		<tag k="name" v="Stora Karlhovden" />
		<tag k="natural" v="bay" />
		<tag k="ssr:stedsnr" v="267117" />
	</node>
	<node lat="60.072621199711314" lon="5.768669666537013" id="-27649">
		<tag k="name" v="Indra Eleshamn" />
		<tag k="natural" v="bay" />
		<tag k="ssr:stedsnr" v="267119" />
	</node>
	<node lat="60.091102781349704" lon="5.833772220787386" id="-27650">
		<tag k="name" v="Kjeholmen" />
		<tag k="place" v="islet" />
		<tag k="ssr:stedsnr" v="267120" />
	</node>
	<node lat="60.162911110252814" lon="5.405449997212423" id="-27651">
		<tag k="name" v="Storomsvågen" />
		<tag k="natural" v="bay" />
		<tag k="ssr:stedsnr" v="267070" />
	</node>
	<node lat="60.19401111188212" lon="5.599144447519832" id="-27652">
		<tag k="fixme" v="consider seamark:type=rock or natural=shoal" />
		<tag k="name" v="Skarvaskjeret" />
		<tag k="place" v="islet" />
		<tag k="ssr:stedsnr" v="267695" />
	</node>
	<node lat="60.1877861120732" lon="5.306399997398582" id="-27653">
		<tag k="name" v="Hundaflua" />
		<tag k="natural" v="shoal" />
		<tag k="place" v="locality" />
		<tag k="ssr:stedsnr" v="268032" />
	</node>
	<node lat="60.18798333656315" lon="5.345869442223553" id="-27654">
		<tag k="name" v="Danielsvika" />
		<tag k="natural" v="bay" />
		<tag k="ssr:stedsnr" v="268064" />
	</node>
	<node lat="60.1830361077191" lon="5.343116660860027" id="-27655">
		<tag k="fixme" v="consider seamark:type=rock or natural=shoal" />
		<tag k="name" v="Kvitaskjeret" />
		<tag k="place" v="islet" />
		<tag k="ssr:stedsnr" v="268067" />
	</node>
	<node lat="60.28198611023152" lon="5.6373138880730815" id="-27656">
		<tag k="name" v="Komfarholmen" />
		<tag k="place" v="islet" />
		<tag k="ssr:stedsnr" v="206347" />
	</node>
	<node lat="60.20889460940777" lon="5.3479544952876745" id="-27657">
		<tag k="name" v="Straumsvika" />
		<tag k="natural" v="bay" />
		<tag k="ssr:stedsnr" v="207042" />
	</node>
	<node lat="60.30105833585669" lon="5.661991660976985" id="-27658">
		<tag k="name" v="Kalven" />
		<tag k="natural" v="bay" />
		<tag k="ssr:stedsnr" v="207145" />
	</node>
	<node lat="60.174636110204915" lon="5.461013886272498" id="-27660">
		<tag k="name" v="Tellevika" />
		<tag k="natural" v="bay" />
		<tag k="ssr:stedsnr" v="268952" />
	</node>
	<node lat="60.179894446144395" lon="5.464094452732335" id="-27661">
		<tag k="name" v="Mobergsvika" />
		<tag k="natural" v="bay" />
		<tag k="ssr:stedsnr" v="268956" />
	</node>
	<node lat="60.12517868059583" lon="5.767959585348235" id="-27681">
		<tag k="name" v="Høyneset" />
		<tag k="natural" v="cape" />
		<tag k="ssr:stedsnr" v="219590" />
	</node>
	<node lat="60.28294999981165" lon="5.66162499861121" id="-27690">
		<tag k="name" v="Vetleholmen" />
		<tag k="place" v="islet" />
		<tag k="ssr:stedsnr" v="219802" />
	</node>
	<node lat="60.304169440632286" lon="5.655944452970028" id="-27695">
		<tag k="name" v="Svartavika" />
		<tag k="natural" v="bay" />
		<tag k="ssr:stedsnr" v="219990" />
	</node>
	<node lat="60.181091670481926" lon="5.350533330103581" id="-27709">
		<tag k="name" v="Glireneset" />
		<tag k="natural" v="cape" />
		<tag k="ssr:stedsnr" v="220506" />
	</node>
	<node lat="60.15510555735308" lon="5.310916663212827" id="-27710">
		<tag k="name" v="Sørevågen" />
		<tag k="natural" v="bay" />
		<tag k="ssr:stedsnr" v="220516" />
	</node>
	<node lat="60.15443055834925" lon="5.42505554728464" id="-27713">
		<tag k="name" v="Storholmen" />
		<tag k="place" v="islet" />
		<tag k="ssr:stedsnr" v="220422" />
	</node>
	<node lat="60.178791665797206" lon="5.397325002616515" id="-27714">
		<tag k="name" v="Hagavika" />
		<tag k="natural" v="bay" />
		<tag k="ssr:stedsnr" v="220426" />
	</node>
	<node lat="60.20913333077043" lon="5.350852777464061" id="-27715">
		<tag k="name" v="Brandaneset" />
		<tag k="natural" v="cape" />
		<tag k="ssr:stedsnr" v="220470" />
	</node>
	<node lat="60.13072500413202" lon="5.379319444199883" id="-27717">
		<tag k="name" v="Momfrubakkneset" />
		<tag k="natural" v="cape" />
		<tag k="ssr:stedsnr" v="220477" />
	</node>
	<node lat="60.1697305519728" lon="5.327627772085751" id="-27718">
		<tag k="name" v="Store Naustholmen" />
		<tag k="place" v="islet" />
		<tag k="ssr:stedsnr" v="220492" />
	</node>
	<node lat="60.19342222008176" lon="5.317680548618157" id="-27721">
		<tag k="fixme" v="consider seamark:type=rock or natural=shoal" />
		<tag k="name" v="Aumaskjeret" />
		<tag k="place" v="islet" />
		<tag k="ssr:stedsnr" v="450036" />
	</node>
	<node lat="60.2198222230768" lon="5.358366663096344" id="-27722">
		<tag k="name" v="Furholmen" />
		<tag k="place" v="islet" />
		<tag k="ssr:stedsnr" v="450055" />
	</node>
	<node lat="60.16530000338192" lon="5.376691674719209" id="-27723">
		<tag k="name" v="Hjelthavna" />
		<tag k="natural" v="bay" />
		<tag k="ssr:stedsnr" v="450926" />
	</node>
	<node lat="60.27832777471936" lon="5.603127774440263" id="-27724">
		<tag k="name" v="Kråkeneset" />
		<tag k="natural" v="cape" />
		<tag k="ssr:stedsnr" v="450937" />
	</node>
	<node lat="60.19146111077177" lon="5.499561115616886" id="-27725">
		<tag k="name" v="Moldevika" />
		<tag k="natural" v="bay" />
		<tag k="ssr:stedsnr" v="450953" />
	</node>
	<node lat="60.15463333642619" lon="5.375108339156919" id="-27726">
		<tag k="name" v="Teistane" />
		<tag k="natural" v="shoal" />
		<tag k="place" v="locality" />
		<tag k="ssr:stedsnr" v="450997" />
	</node>
	<node lat="60.205972226498226" lon="5.59261388414477" id="-27728">
		<tag k="name" v="Venjaneset" />
		<tag k="natural" v="cape" />
		<tag k="ssr:stedsnr" v="247016" />
	</node>
	<node lat="60.21761944874499" lon="5.639502778886803" id="-27730">
		<tag k="name" v="Stølsneset" />
		<tag k="natural" v="cape" />
		<tag k="ssr:stedsnr" v="247002" />
	</node>
	<node lat="60.19342499726066" lon="5.525088894851113" id="-27734">
		<tag k="name" v="Ådnavika" />
		<tag k="natural" v="bay" />
		<tag k="ssr:stedsnr" v="247079" />
	</node>
	<node lat="60.169633335286626" lon="5.498111105564507" id="-27750">
		<tag k="name" v="Holmabratten" />
		<tag k="natural" v="shoal" />
		<tag k="place" v="locality" />
		<tag k="ssr:stedsnr" v="248400" />
	</node>
	<node lat="60.14129167010179" lon="5.720124998932441" id="-27754">
		<tag k="name" v="Henriksflu" />
		<tag k="natural" v="shoal" />
		<tag k="place" v="locality" />
		<tag k="ssr:stedsnr" v="267091" />
	</node>
	<node lat="60.24666667069072" lon="5.736194439762336" id="-27755">
		<tag k="name" v="Lundevika" />
		<tag k="natural" v="bay" />
		<tag k="ssr:stedsnr" v="267211" />
	</node>
	<node lat="60.269102778491245" lon="5.643505551832369" id="-27756">
		<tag k="name" v="Kjettevika" />
		<tag k="natural" v="bay" />
		<tag k="ssr:stedsnr" v="267319" />
	</node>
	<node lat="60.16943333360176" lon="5.330363897569134" id="-27757">
		<tag k="name" v="Naustholmen" />
		<tag k="place" v="islet" />
		<tag k="ssr:stedsnr" v="268965" />
	</node>
	<node lat="60.19706388831236" lon="5.326155550903568" id="-27800">
		<tag k="name" v="Havreholmsundet" />
		<tag k="natural" v="strait" />
		<tag k="ssr:stedsnr" v="280405" />
	</node>
	<node lat="60.21095555479275" lon="5.349155556074812" id="-27801">
		<tag k="name" v="Purkevika" />
		<tag k="natural" v="bay" />
		<tag k="ssr:stedsnr" v="280415" />
	</node>
	<node lat="60.19991944853903" lon="5.334677786287377" id="-27802">
		<tag k="name" v="Krabbevågen" />
		<tag k="natural" v="bay" />
		<tag k="ssr:stedsnr" v="280423" />
	</node>
	<node lat="60.131744444674965" lon="5.362994438912729" id="-27803">
		<tag k="name" v="Rossnesklubben" />
		<tag k="natural" v="cape" />
		<tag k="ssr:stedsnr" v="280425" />
	</node>
	<node lat="60.1426666696275" lon="5.7393222184234185" id="-27816">
		<tag k="name" v="Steinaneset" />
		<tag k="natural" v="cape" />
		<tag k="ssr:stedsnr" v="280935" />
	</node>
	<node lat="60.13920833669298" lon="5.754041670165405" id="-27817">
		<tag k="name" v="Båtavika" />
		<tag k="natural" v="bay" />
		<tag k="ssr:stedsnr" v="280937" />
	</node>
	<node lat="60.30112222248714" lon="5.651316671913082" id="-27818">
		<tag k="name" v="Kalven" />
		<tag k="natural" v="cape" />
		<tag k="ssr:stedsnr" v="280992" />
	</node>
	<node lat="60.18421944588631" lon="5.726416667230585" id="-27821">
		<tag k="name" v="Ljotåneset" />
		<tag k="natural" v="cape" />
		<tag k="ssr:stedsnr" v="461098" />
	</node>
	<node lat="60.1953527802116" lon="5.439022230810721" id="-27823">
		<tag k="name" v="Klubben" />
		<tag k="natural" v="cape" />
		<tag k="ssr:stedsnr" v="462370" />
	</node>
	<node lat="60.13050278090391" lon="5.758366661575569" id="-27832">
		<tag k="name" v="Steinevika" />
		<tag k="natural" v="bay" />
		<tag k="ssr:stedsnr" v="461594" />
	</node>
	<node lat="60.125000001270834" lon="5.753883325874678" id="-27833">
		<tag k="name" v="Bjørnbergeneset" />
		<tag k="natural" v="cape" />
		<tag k="ssr:stedsnr" v="461595" />
	</node>
	<node lat="60.24126110761644" lon="5.742530552499282" id="-27841">
		<tag k="name" v="Neset" />
		<tag k="natural" v="cape" />
		<tag k="ssr:stedsnr" v="461737" />
	</node>
	<node lat="60.2187111123527" lon="5.359505559009987" id="-27861">
		<tag k="name" v="Lysøya" />
		<tag k="place" v="island" />
		<tag k="ssr:stedsnr" v="462279" />
	</node>
	<node lat="60.144900000445595" lon="5.383680546715982" id="-27874">
		<tag k="name" v="Kjerringahavet" />
		<tag k="natural" v="strait" />
		<tag k="ssr:stedsnr" v="462427" />
	</node>
	<node lat="60.16831666591587" lon="5.302997219165238" id="-27875">
		<tag k="name" v="Nordre Ternevågen" />
		<tag k="natural" v="bay" />
		<tag k="ssr:stedsnr" v="462433" />
	</node>
	<node lat="60.17654722066927" lon="5.313783332129023" id="-27876">
		<tag k="name" v="Kjeholmane" />
		<tag k="place" v="islet" />
		<tag k="ssr:stedsnr" v="462442" />
	</node>
	<node lat="60.21858055143474" lon="5.345094441661833" id="-27878">
		<tag k="name" v="Sandsegene" />
		<tag k="place" v="island" />
		<tag k="ssr:stedsnr" v="462454" />
	</node>
	<node lat="60.175013886809225" lon="5.3135000062721875" id="-27880">
		<tag k="name" v="Austre Floren" />
		<tag k="natural" v="strait" />
		<tag k="ssr:stedsnr" v="462484" />
	</node>
	<node lat="60.12334722215829" lon="5.745172217938531" id="-27886">
		<tag k="name" v="Havnakråa" />
		<tag k="natural" v="bay" />
		<tag k="ssr:stedsnr" v="462579" />
	</node>
	<node lat="60.27096110859945" lon="5.644333330630676" id="-27897">
		<tag k="name" v="Eidsneset" />
		<tag k="natural" v="cape" />
		<tag k="ssr:stedsnr" v="462782" />
	</node>
	<node lat="60.270119442341155" lon="5.644525006262912" id="-27898">
		<tag k="name" v="Tveitaholmen" />
		<tag k="place" v="islet" />
		<tag k="ssr:stedsnr" v="462785" />
	</node>
	<node lat="60.27047326136818" lon="5.695920403153399" id="-27900">
		<tag k="name" v="Hellandsvika" />
		<tag k="natural" v="bay" />
		<tag k="ssr:stedsnr" v="462796" />
	</node>
	<node lat="60.268972218432836" lon="5.651258334379241" id="-27901">
		<tag k="name" v="Russholmen" />
		<tag k="place" v="islet" />
		<tag k="ssr:stedsnr" v="462801" />
	</node>
	<node lat="60.23091666661485" lon="5.675638880748148" id="-27902">
		<tag k="fixme" v="consider seamark:type=rock or natural=shoal" />
		<tag k="name" v="Botnaskjeret" />
		<tag k="place" v="islet" />
		<tag k="ssr:stedsnr" v="462879" />
	</node>
	<node lat="60.07079166430663" lon="5.816444452151392" id="-27905">
		<tag k="alt_name" v="Gråurevika" />
		<tag k="name" v="Gråurvika" />
		<tag k="natural" v="bay" />
		<tag k="ssr:stedsnr" v="296233" />
	</node>
	<node lat="60.080650002125985" lon="5.819555553392814" id="-27910">
		<tag k="name" v="Austefjorden" />
		<tag k="natural" v="bay" />
		<tag k="ssr:stedsnr" v="307316" />
	</node>
	<node lat="60.08840833222299" lon="5.7393999975675705" id="-27912">
		<tag k="alt_name" v="Båtanes" />
		<tag k="name" v="Båtaneset" />
		<tag k="natural" v="cape" />
		<tag k="ssr:stedsnr" v="307463" />
	</node>
	<node lat="60.079788888123424" lon="5.802549996652707" id="-27921">
		<tag k="name" v="Slåttevika" />
		<tag k="natural" v="bay" />
		<tag k="ssr:stedsnr" v="308270" />
	</node>
	<node lat="60.16575555160433" lon="5.721525008551939" id="-27926">
		<tag k="alt_name" v="Marstein" />
		<tag k="name" v="Marsteinen" />
		<tag k="natural" v="cape" />
		<tag k="ssr:stedsnr" v="308355" />
	</node>
	<node lat="60.16338055770308" lon="5.693230560774643" id="-27927">
		<tag k="alt_name" v="Notholmen" />
		<tag k="name" v="Lauholmen" />
		<tag k="place" v="islet" />
		<tag k="ssr:stedsnr" v="308356" />
	</node>
	<node lat="60.15352222103828" lon="5.328711104737138" id="-27930">
		<tag k="name" v="Ervika" />
		<tag k="natural" v="bay" />
		<tag k="ssr:stedsnr" v="308954" />
	</node>
	<node lat="60.21262777779568" lon="5.636008327539091" id="-27940">
		<tag k="name" v="Gjerdavika" />
		<tag k="natural" v="bay" />
		<tag k="ssr:stedsnr" v="327612" />
	</node>
	<node lat="60.17597777388642" lon="5.688686108146602" id="-27941">
		<tag k="alt_name" v="Håvikvågen" />
		<tag k="name" v="Håvikevågen" />
		<tag k="natural" v="bay" />
		<tag k="ssr:stedsnr" v="328259" />
	</node>
	<node lat="60.251783336021056" lon="5.5833916746866965" id="-27952">
		<tag k="name" v="Barendehola" />
		<tag k="natural" v="bay" />
		<tag k="ssr:stedsnr" v="339812" />
	</node>
	<node lat="60.06291944861147" lon="5.804024997188174" id="-27971">
		<tag k="name" v="Orfallet" />
		<tag k="natural" v="cape" />
		<tag k="ssr:stedsnr" v="340902" />
	</node>
	<node lat="60.146013889403974" lon="5.42004999147821" id="-27978">
		<tag k="name" v="Innerøyna" />
		<tag k="place" v="island" />
		<tag k="ssr:stedsnr" v="341006" />
	</node>
	<node lat="60.16101842843964" lon="5.3289734882536335" id="-27991">
		<tag k="name" v="Lønnevågen" />
		<tag k="natural" v="bay" />
		<tag k="ssr:stedsnr" v="341505" />
	</node>
	<node lat="60.23561111450598" lon="5.596163889776989" id="-27996">
		<tag k="alt_name" v="Storholmen" />
		<tag k="name" v="Holsundøy" />
		<tag k="place" v="islet" />
		<tag k="ssr:stedsnr" v="368079" />
	</node>
	<node lat="60.23552500342566" lon="5.733450000030473" id="-27998">
		<tag k="name" v="Austestadholmane" />
		<tag k="place" v="islet" />
		<tag k="ssr:stedsnr" v="368038" />
	</node>
	<node lat="60.214477774288596" lon="5.375902784114479" id="-28008">
		<tag k="name" v="Seiasundet" />
		<tag k="natural" v="strait" />
		<tag k="ssr:stedsnr" v="368868" />
	</node>
	<node lat="60.05597500086316" lon="5.715175006129686" id="-28011">
		<tag k="name" v="Ospeneset" />
		<tag k="natural" v="cape" />
		<tag k="ssr:stedsnr" v="369328" />
	</node>
	<node lat="60.19021667018975" lon="5.602727769470514" id="-28012">
		<tag k="alt_name" v="Foraskjeret" />
		<tag k="fixme" v="consider seamark:type=rock or natural=shoal" />
		<tag k="name" v="Fureskjerene" />
		<tag k="place" v="islet" />
		<tag k="ssr:stedsnr" v="369066" />
	</node>
	<node lat="60.18363055870232" lon="5.576594449351664" id="-28013">
		<tag k="name" v="Midtskallen" />
		<tag k="natural" v="shoal" />
		<tag k="place" v="locality" />
		<tag k="ssr:stedsnr" v="369069" />
	</node>
	<node lat="60.149552776491745" lon="5.408422223756792" id="-28027">
		<tag k="name" v="Stokkholneset" />
		<tag k="natural" v="cape" />
		<tag k="ssr:stedsnr" v="369998" />
	</node>
	<node lat="60.15211667243849" lon="5.425047266117619" id="-28029">
		<tag k="name" v="Trollholmen" />
		<tag k="place" v="islet" />
		<tag k="ssr:stedsnr" v="389098" />
	</node>
	<node lat="60.131416668581934" lon="5.416674997947083" id="-28030">
		<tag k="name" v="Skaget" />
		<tag k="natural" v="shoal" />
		<tag k="place" v="locality" />
		<tag k="ssr:stedsnr" v="389994" />
	</node>
	<node lat="60.13154166787365" lon="5.419327776187934" id="-28031">
		<tag k="fixme" v="consider seamark:type=rock or natural=shoal" />
		<tag k="name" v="Jøtlandsskjeret" />
		<tag k="place" v="islet" />
		<tag k="ssr:stedsnr" v="389995" />
	</node>
	<node lat="60.236041670876766" lon="5.739980551415474" id="-28040">
		<tag k="name" v="Lauvneset" />
		<tag k="natural" v="cape" />
		<tag k="ssr:stedsnr" v="400499" />
	</node>
	<node lat="60.14517777621955" lon="5.613838890000872" id="-28045">
		<tag k="fixme" v="consider seamark:type=rock or natural=shoal" />
		<tag k="name" v="Tretteskjeret" />
		<tag k="place" v="islet" />
		<tag k="ssr:stedsnr" v="400827" />
	</node>
	<node lat="60.14283333706711" lon="5.597186116096921" id="-28046">
		<tag k="name" v="Kistevika" />
		<tag k="natural" v="bay" />
		<tag k="ssr:stedsnr" v="400830" />
	</node>
	<node lat="60.20369444265769" lon="5.5403805537783475" id="-28062">
		<tag k="name" v="Inste Baikroken" />
		<tag k="natural" v="bay" />
		<tag k="ssr:stedsnr" v="401297" />
	</node>
	<node lat="60.208400003006865" lon="5.3427722273967" id="-28068">
		<tag k="name" v="Vassvikatangen" />
		<tag k="natural" v="cape" />
		<tag k="ssr:stedsnr" v="401428" />
	</node>
	<node lat="60.074558330571904" lon="5.780388892056725" id="-28087">
		<tag k="name" v="Lyvika" />
		<tag k="natural" v="bay" />
		<tag k="ssr:stedsnr" v="401910" />
	</node>
	<node lat="60.249938891686305" lon="5.600011115059657" id="-28088">
		<tag k="name" v="Baransvika" />
		<tag k="natural" v="bay" />
		<tag k="ssr:stedsnr" v="401927" />
	</node>
	<node lat="60.05786761939547" lon="5.800798762643739" id="-28091">
		<tag k="name" v="Vetleolderneset" />
		<tag k="natural" v="cape" />
		<tag k="ssr:stedsnr" v="401877" />
	</node>
	<node lat="60.10238055848102" lon="5.731563889936306" id="-28092">
		<tag k="name" v="Hjartnesvika" />
		<tag k="natural" v="bay" />
		<tag k="ssr:stedsnr" v="401882" />
	</node>
	<node lat="60.18857222479095" lon="5.329127782963059" id="-28099">
		<tag k="name" v="Labergvågen" />
		<tag k="natural" v="bay" />
		<tag k="ssr:stedsnr" v="402482" />
	</node>
	<node lat="60.153680555211515" lon="5.321049998659923" id="-28100">
		<tag k="name" v="Øksavågen" />
		<tag k="natural" v="bay" />
		<tag k="ssr:stedsnr" v="402486" />
	</node>
	<node lat="60.22858055826707" lon="5.611494438352462" id="-28106">
		<tag k="name" v="Altanesflua" />
		<tag k="natural" v="shoal" />
		<tag k="place" v="locality" />
		<tag k="ssr:stedsnr" v="490027" />
	</node>
	<node lat="60.06505833617228" lon="5.8102694434789965" id="-28109">
		<tag k="name" v="Fossåvika" />
		<tag k="natural" v="bay" />
		<tag k="ssr:stedsnr" v="490259" />
	</node>
	<node lat="60.04108333560913" lon="5.710238895415978" id="-28111">
		<tag k="alt_name" v="Moseknappen" />
		<tag k="name" v="Mosaknappen" />
		<tag k="natural" v="cape" />
		<tag k="ssr:stedsnr" v="490326" />
	</node>
	<node lat="60.202269442400436" lon="5.605061113802455" id="-28119">
		<tag k="name" v="Brunavika" />
		<tag k="natural" v="bay" />
		<tag k="ssr:stedsnr" v="429109" />
	</node>
	<node lat="60.18155278108593" lon="5.759797220358637" id="-28125">
		<tag k="name" v="Engjavik" />
		<tag k="natural" v="bay" />
		<tag k="ssr:stedsnr" v="429420" />
	</node>
	<node lat="60.18815555882589" lon="5.312855559122963" id="-28131">
		<tag k="fixme" v="consider seamark:type=rock or natural=shoal" />
		<tag k="name" v="Hundaflesa" />
		<tag k="place" v="islet" />
		<tag k="ssr:stedsnr" v="429754" />
	</node>
	<node lat="60.19576389283063" lon="5.328230546711475" id="-28133">
		<tag k="name" v="Smørøya" />
		<tag k="place" v="islet" />
		<tag k="ssr:stedsnr" v="429775" />
	</node>
	<node lat="60.159880559688716" lon="5.343455562171479" id="-28134">
		<tag k="name" v="Strøno" />
		<tag k="place" v="island" />
		<tag k="ssr:stedsnr" v="429960" />
	</node>
	<node lat="60.18505277750574" lon="5.728961105111184" id="-28135">
		<tag k="alt_name" v="Gjotevika" />
		<tag k="name" v="Ljotavika" />
		<tag k="natural" v="bay" />
		<tag k="ssr:stedsnr" v="430064" />
	</node>
	<node lat="60.13748333433522" lon="5.362416658665593" id="-28136">
		<tag k="name" v="Vestrevågen" />
		<tag k="natural" v="bay" />
		<tag k="ssr:stedsnr" v="490985" />
	</node>
	<node lat="60.14739721814564" lon="5.4180861139594985" id="-28139">
		<tag k="name" v="Innerøya" />
		<tag k="place" v="island" />
		<tag k="ssr:stedsnr" v="490999" />
	</node>
	<node lat="60.13686944525202" lon="5.758599992715438" id="-28142">
		<tag k="name" v="Årvika" />
		<tag k="natural" v="bay" />
		<tag k="ssr:stedsnr" v="430451" />
	</node>
	<node lat="60.070036110374055" lon="5.767355552585899" id="-28169">
		<tag k="alt_name" v="Lauvholmen" />
		<tag k="name" v="Laukholmen" />
		<tag k="place" v="islet" />
		<tag k="ssr:stedsnr" v="672242" />
	</node>
	<node lat="60.1477111102134" lon="5.544588896395815" id="-28173">
		<tag k="alt_name" v="Ysteflu" />
		<tag k="name" v="Ysteflua" />
		<tag k="natural" v="shoal" />
		<tag k="place" v="locality" />
		<tag k="ssr:stedsnr" v="672348" />
	</node>
	<node lat="60.170408335467144" lon="5.588361103466196" id="-28175">
		<tag k="alt_name" v="Skotaklubben" />
		<tag k="name" v="Skåtaklubben" />
		<tag k="natural" v="cape" />
		<tag k="ssr:stedsnr" v="672384" />
	</node>
	<node lat="60.15122500428733" lon="5.729513888379929" id="-28177">
		<tag k="alt_name" v="Revnenes" />
		<tag k="name" v="Revneneset" />
		<tag k="natural" v="cape" />
		<tag k="ssr:stedsnr" v="672448" />
	</node>
	<node lat="60.169727773335076" lon="5.372463887475347" id="-28179">
		<tag k="name" v="Kattaneset" />
		<tag k="natural" v="cape" />
		<tag k="ssr:stedsnr" v="672778" />
	</node>
	<node lat="60.1719333321511" lon="5.403758339402776" id="-28180">
		<tag k="name" v="Skeisleira" />
		<tag k="natural" v="bay" />
		<tag k="ssr:stedsnr" v="672782" />
	</node>
	<node lat="60.16646666747073" lon="5.301447213907966" id="-28181">
		<tag k="name" v="Ternøya" />
		<tag k="place" v="islet" />
		<tag k="ssr:stedsnr" v="672791" />
	</node>
	<node lat="60.09892777456759" lon="5.385069442727308" id="-28183">
		<tag k="bay" v="fjord" />
		<tag k="name" v="Bjørnafjorden" />
		<tag k="natural" v="bay" />
		<tag k="ssr:stedsnr" v="672894" />
	</node>
	<node lat="60.13521388859546" lon="5.420222227289748" id="-28184">
		<tag k="name" v="Ramsholmen" />
		<tag k="place" v="islet" />
		<tag k="ssr:stedsnr" v="672985" />
	</node>
	<node lat="60.1916888876276" lon="5.4990805548371755" id="-28211">
		<tag k="name" v="Moldefjæra" />
		<tag k="natural" v="bay" />
		<tag k="ssr:stedsnr" v="462217" />
	</node>
	<node lat="60.13286389017252" lon="5.35723055701138" id="-28215">
		<tag k="name" v="Vestrevågen" />
		<tag k="natural" v="bay" />
		<tag k="ssr:stedsnr" v="462225" />
	</node>
	<node lat="60.20623333711774" lon="5.6269138885803685" id="-28243">
		<tag k="name" v="Fusaneset" />
		<tag k="natural" v="cape" />
		<tag k="ssr:stedsnr" v="462743" />
	</node>
	<node lat="60.27800833710697" lon="5.665444447169095" id="-28246">
		<tag k="name" v="Skoravågen" />
		<tag k="natural" v="bay" />
		<tag k="ssr:stedsnr" v="462806" />
	</node>
	<node lat="60.26123610949135" lon="5.654300008844902" id="-28251">
		<tag k="name" v="Ytre Breivikneset" />
		<tag k="natural" v="cape" />
		<tag k="ssr:stedsnr" v="462961" />
	</node>
	<node lat="60.260091668153926" lon="5.65285000273353" id="-28252">
		<tag k="name" v="Arholmen" />
		<tag k="place" v="islet" />
		<tag k="ssr:stedsnr" v="462965" />
	</node>
	<node lat="60.21329166782629" lon="5.635341672032344" id="-28254">
		<tag k="alt_name" v="Gjerdevikneset" />
		<tag k="name" v="Gjerdavikneset" />
		<tag k="natural" v="cape" />
		<tag k="ssr:stedsnr" v="489007" />
	</node>
	<node lat="60.231277780771904" lon="5.685861109439611" id="-28255">
		<tag k="name" v="Kvålsneset" />
		<tag k="natural" v="cape" />
		<tag k="ssr:stedsnr" v="489040" />
	</node>
	<node lat="60.23022499790314" lon="5.693538886565055" id="-28256">
		<tag k="name" v="Bergeholmen" />
		<tag k="place" v="islet" />
		<tag k="ssr:stedsnr" v="489041" />
	</node>
	<node lat="60.17725278161747" lon="5.358969437671551" id="-28260">
		<tag k="name" v="Krokane" />
		<tag k="natural" v="strait" />
		<tag k="ssr:stedsnr" v="489811" />
	</node>
	<node lat="60.181988891843446" lon="5.47945276941929" id="-28262">
		<tag k="name" v="Langhamarneset" />
		<tag k="natural" v="cape" />
		<tag k="ssr:stedsnr" v="490084" />
	</node>
	<node lat="60.20925833236913" lon="5.632269446357653" id="-28266">
		<tag k="name" v="Fagersandneset" />
		<tag k="natural" v="cape" />
		<tag k="ssr:stedsnr" v="490112" />
	</node>
	<node lat="60.27805000142166" lon="5.663172231080988" id="-28267">
		<tag k="name" v="Ytstaneset" />
		<tag k="natural" v="cape" />
		<tag k="ssr:stedsnr" v="490280" />
	</node>
	<node lat="60.156591664965454" lon="5.690727770782857" id="-28270">
		<tag k="fixme" v="consider seamark:type=rock or natural=shoal" />
		<tag k="name" v="Terneskjeret" />
		<tag k="place" v="islet" />
		<tag k="ssr:stedsnr" v="490385" />
	</node>
	<node lat="60.267124999641105" lon="5.614050008784198" id="-28274">
		<tag k="name" v="Årsvågtangen" />
		<tag k="natural" v="cape" />
		<tag k="ssr:stedsnr" v="491307" />
	</node>
	<node lat="60.189772225463145" lon="5.322799993183681" id="-28279">
		<tag k="name" v="Laksholmen" />
		<tag k="place" v="islet" />
		<tag k="ssr:stedsnr" v="510043" />
	</node>
	<node lat="60.204488892992806" lon="5.32839444217949" id="-28280">
		<tag k="name" v="Havreholmflua" />
		<tag k="natural" v="shoal" />
		<tag k="place" v="locality" />
		<tag k="ssr:stedsnr" v="510052" />
	</node>
	<node lat="60.0523250010977" lon="5.711891664742484" id="-28281">
		<tag k="name" v="Bergsvågflua" />
		<tag k="natural" v="shoal" />
		<tag k="place" v="locality" />
		<tag k="ssr:stedsnr" v="510078" />
	</node>
	<node lat="60.182019441427535" lon="5.758566668993477" id="-28282">
		<tag k="name" v="Hamnavågen" />
		<tag k="natural" v="bay" />
		<tag k="ssr:stedsnr" v="510251" />
	</node>
	<node lat="60.11814167028343" lon="5.37873055238521" id="-28284">
		<tag k="name" v="Fluaskallen" />
		<tag k="natural" v="shoal" />
		<tag k="place" v="locality" />
		<tag k="ssr:stedsnr" v="510968" />
	</node>
	<node lat="60.11612499754353" lon="5.350494440817888" id="-28285">
		<tag k="name" v="Måsaskallen" />
		<tag k="natural" v="shoal" />
		<tag k="place" v="locality" />
		<tag k="ssr:stedsnr" v="510969" />
	</node>
	<node lat="60.12176111411589" lon="5.358013894884496" id="-28286">
		<tag k="name" v="Harpeskallen" />
		<tag k="natural" v="shoal" />
		<tag k="place" v="locality" />
		<tag k="ssr:stedsnr" v="510970" />
	</node>
	<node lat="60.1437666700241" lon="5.5869499965750276" id="-28289">
		<tag k="name" v="Knappen" />
		<tag k="natural" v="cape" />
		<tag k="ssr:stedsnr" v="521067" />
	</node>
	<node lat="60.27494722669223" lon="5.633458340641717" id="-28322">
		<tag k="name" v="Persneset" />
		<tag k="natural" v="cape" />
		<tag k="ssr:stedsnr" v="522765" />
	</node>
	<node lat="60.26385833268452" lon="5.612752782565403" id="-28327">
		<tag k="name" v="Årsvågen" />
		<tag k="natural" v="bay" />
		<tag k="ssr:stedsnr" v="522776" />
	</node>
	<node lat="60.263077781378456" lon="5.658269439872024" id="-28328">
		<tag k="name" v="Indre Breivikneset" />
		<tag k="natural" v="cape" />
		<tag k="ssr:stedsnr" v="522783" />
	</node>
	<node lat="60.06559444054383" lon="5.741441660030986" id="-28330">
		<tag k="name" v="Vika" />
		<tag k="natural" v="bay" />
		<tag k="ssr:stedsnr" v="522871" />
	</node>
	<node lat="60.300152775558594" lon="5.648669447301762" id="-28339">
		<tag k="name" v="Vestre Kalvavika" />
		<tag k="natural" v="bay" />
		<tag k="ssr:stedsnr" v="522980" />
	</node>
	<node lat="60.15727777929528" lon="5.421688884741862" id="-28340">
		<tag k="name" v="Einingsneset" />
		<tag k="natural" v="cape" />
		<tag k="ssr:stedsnr" v="523409" />
	</node>
	<node lat="60.21638017278168" lon="5.369629513514565" id="-28345">
		<tag k="name" v="Nordre Notavika" />
		<tag k="natural" v="bay" />
		<tag k="ssr:stedsnr" v="523373" />
	</node>
	<node lat="60.16790833255759" lon="5.401866672769409" id="-28346">
		<tag k="name" v="Skeisstøa" />
		<tag k="natural" v="bay" />
		<tag k="ssr:stedsnr" v="523380" />
	</node>
	<node lat="60.17635555201297" lon="5.305444436808225" id="-28349">
		<tag k="name" v="Vestre Floren" />
		<tag k="natural" v="strait" />
		<tag k="ssr:stedsnr" v="523518" />
	</node>
	<node lat="60.21658055657711" lon="5.338661110321442" id="-28350">
		<tag k="name" v="Splintholmen" />
		<tag k="place" v="islet" />
		<tag k="ssr:stedsnr" v="523529" />
	</node>
	<node lat="60.1961250016104" lon="5.343505559541258" id="-28351">
		<tag k="name" v="Drangsvågen" />
		<tag k="natural" v="bay" />
		<tag k="ssr:stedsnr" v="523565" />
	</node>
	<node lat="60.153108337421074" lon="5.400105553360045" id="-28354">
		<tag k="name" v="Blindasundet" />
		<tag k="natural" v="strait" />
		<tag k="ssr:stedsnr" v="523467" />
	</node>
	<node lat="60.23000000241167" lon="5.667725005005288" id="-28359">
		<tag k="alt_name" v="Bjånes" />
		<tag k="name" v="Bjåneset" />
		<tag k="natural" v="cape" />
		<tag k="ssr:stedsnr" v="550019" />
	</node>
	<node lat="60.16799167041844" lon="5.325688895681177" id="-28372">
		<tag k="name" v="Sauøya" />
		<tag k="place" v="islet" />
		<tag k="ssr:stedsnr" v="550808" />
	</node>
	<node lat="60.13371111180498" lon="5.425197213433724" id="-28374">
		<tag k="name" v="Skjerholmen" />
		<tag k="place" v="islet" />
		<tag k="ssr:stedsnr" v="550902" />
	</node>
	<node lat="60.15001388557226" lon="5.328072229054543" id="-28375">
		<tag k="name" v="Store Hestholmen" />
		<tag k="place" v="islet" />
		<tag k="ssr:stedsnr" v="550962" />
	</node>
	<node lat="60.14201111312482" lon="5.4106000047884955" id="-28377">
		<tag k="name" v="Påskapøyla" />
		<tag k="natural" v="bay" />
		<tag k="ssr:stedsnr" v="551000" />
	</node>
	<node lat="60.23829166342467" lon="5.597663888169368" id="-28378">
		<tag k="name" v="Sandvika" />
		<tag k="natural" v="bay" />
		<tag k="ssr:stedsnr" v="551208" />
	</node>
	<node lat="60.12900277933702" lon="5.737830547108926" id="-28390">
		<tag k="name" v="Skoreflu" />
		<tag k="natural" v="shoal" />
		<tag k="place" v="locality" />
		<tag k="ssr:stedsnr" v="691167" />
	</node>
	<node lat="60.25279166952114" lon="5.586083334777938" id="-28392">
		<tag k="name" v="Hovdaneset" />
		<tag k="natural" v="cape" />
		<tag k="ssr:stedsnr" v="692328" />
	</node>
	<node lat="60.06593055970134" lon="5.741980563326833" id="-28394">
		<tag k="name" v="Brotavika" />
		<tag k="natural" v="bay" />
		<tag k="ssr:stedsnr" v="692135" />
	</node>
	<node lat="60.139108332160106" lon="5.441283332876595" id="-28395">
		<tag k="name" v="Sørneset" />
		<tag k="natural" v="cape" />
		<tag k="ssr:stedsnr" v="692168" />
	</node>
	<node lat="60.31177777778028" lon="5.650916661120843" id="-28396">
		<tag k="alt_name" v="Bakarneset" />
		<tag k="name" v="Bakarnes" />
		<tag k="natural" v="cape" />
		<tag k="ssr:stedsnr" v="692369" />
	</node>
	<node lat="60.14656110685271" lon="5.456736115203418" id="-28398">
		<tag k="name" v="Asneset" />
		<tag k="natural" v="cape" />
		<tag k="ssr:stedsnr" v="692986" />
	</node>
	<node lat="60.14112499654787" lon="5.451733332195187" id="-28399">
		<tag k="name" v="Bjørnavika" />
		<tag k="natural" v="bay" />
		<tag k="ssr:stedsnr" v="692991" />
	</node>
	<node lat="60.16308888697629" lon="5.2897861057449225" id="-28400">
		<tag k="name" v="Teistaflua" />
		<tag k="natural" v="shoal" />
		<tag k="place" v="locality" />
		<tag k="ssr:stedsnr" v="692935" />
	</node>
	<node lat="60.125834478736735" lon="5.765013726080891" id="-28401">
		<tag k="alt_name" v="Femangerbukta" />
		<tag k="name" v="Femangersjøen" />
		<tag k="natural" v="bay" />
		<tag k="ssr:stedsnr" v="570108" />
	</node>
	<node lat="60.07764166495105" lon="5.784563896187991" id="-28402">
		<tag k="name" v="Indra Leitnes" />
		<tag k="natural" v="cape" />
		<tag k="ssr:stedsnr" v="570116" />
	</node>
	<node lat="60.16120733004986" lon="5.327284991096597" id="-28404">
		<tag k="name" v="Blåbergholmen" />
		<tag k="place" v="islet" />
		<tag k="ssr:stedsnr" v="571939" />
	</node>
	<node lat="60.154130554645306" lon="5.578611104546825" id="-28407">
		<tag k="name" v="Vinnessundet" />
		<tag k="natural" v="strait" />
		<tag k="ssr:stedsnr" v="581096" />
	</node>
	<node lat="60.189908331690205" lon="5.441502774340229" id="-28441">
		<tag k="name" v="Breivika" />
		<tag k="natural" v="bay" />
		<tag k="ssr:stedsnr" v="583406" />
	</node>
	<node lat="60.170908335115584" lon="5.332808337988583" id="-28443">
		<tag k="name" v="Ytsta Langøya" />
		<tag k="place" v="island" />
		<tag k="ssr:stedsnr" v="583490" />
	</node>
	<node lat="60.16681666516795" lon="5.304805554911752" id="-28445">
		<tag k="name" v="Søre Ternevågen" />
		<tag k="natural" v="bay" />
		<tag k="ssr:stedsnr" v="583491" />
	</node>
	<node lat="60.22022778129753" lon="5.550869450398951" id="-28462">
		<tag k="name" v="Skavhellehola" />
		<tag k="natural" v="bay" />
		<tag k="ssr:stedsnr" v="611018" />
	</node>
	<node lat="60.187033333506825" lon="5.527858329468726" id="-28465">
		<tag k="name" v="Sandholmflua" />
		<tag k="natural" v="shoal" />
		<tag k="place" v="locality" />
		<tag k="ssr:stedsnr" v="611082" />
	</node>
	<node lat="60.19965833402649" lon="5.59836111870464" id="-28467">
		<tag k="name" v="Venjanesvågen" />
		<tag k="natural" v="bay" />
		<tag k="ssr:stedsnr" v="611090" />
	</node>
	<node lat="60.24467500452208" lon="5.620858334239411" id="-28471">
		<tag k="alt_name" v="Årlandsfjorden" />
		<tag k="bay" v="fjord" />
		<tag k="name" v="Ådlandsfjorden" />
		<tag k="natural" v="bay" />
		<tag k="ssr:stedsnr" v="611181" />
	</node>
	<node lat="60.15679911989192" lon="5.319836112159784" id="-28484">
		<tag k="name" v="Forstrøno" />
		<tag k="place" v="island" />
		<tag k="ssr:stedsnr" v="611968" />
	</node>
	<node lat="60.1405238356687" lon="5.420878920092464" id="-28486">
		<tag k="name" v="Haljemsøya" />
		<tag k="place" v="island" />
		<tag k="ssr:stedsnr" v="611984" />
	</node>
	<node lat="60.26241388646043" lon="5.562247214014969" id="-28488">
		<tag k="name" v="Øyra" />
		<tag k="natural" v="shoal" />
		<tag k="place" v="locality" />
		<tag k="ssr:stedsnr" v="612314" />
	</node>
	<node lat="60.09883055229871" lon="5.736727785612532" id="-28492">
		<tag k="name" v="Leirvika" />
		<tag k="natural" v="bay" />
		<tag k="ssr:stedsnr" v="612614" />
	</node>
	<node lat="60.162000000442355" lon="5.389788883287288" id="-28501">
		<tag k="name" v="Strussvågen" />
		<tag k="natural" v="bay" />
		<tag k="ssr:stedsnr" v="631085" />
	</node>
	<node lat="60.160730557615324" lon="5.425219435241869" id="-28502">
		<tag k="name" v="Særvollvika" />
		<tag k="natural" v="bay" />
		<tag k="ssr:stedsnr" v="631091" />
	</node>
	<node lat="60.17655555602541" lon="5.738722225955903" id="-28503">
		<tag k="name" v="Bogavika" />
		<tag k="natural" v="bay" />
		<tag k="ssr:stedsnr" v="631235" />
	</node>
	<node lat="60.25486110948477" lon="5.6486166645000635" id="-28504">
		<tag k="name" v="Nubben" />
		<tag k="natural" v="cape" />
		<tag k="ssr:stedsnr" v="631300" />
	</node>
	<node lat="60.18488055701878" lon="5.763858337413124" id="-28527">
		<tag k="name" v="Sveneset" />
		<tag k="natural" v="cape" />
		<tag k="ssr:stedsnr" v="704579" />
	</node>
	<node lat="60.16595833437293" lon="5.320613887698297" id="-28534">
		<tag k="name" v="Brattholmen" />
		<tag k="place" v="islet" />
		<tag k="ssr:stedsnr" v="705536" />
	</node>
	<node lat="60.29897222171323" lon="5.655302768858901" id="-28540">
		<tag k="name" v="Kollesundet" />
		<tag k="natural" v="strait" />
		<tag k="ssr:stedsnr" v="704987" />
	</node>
	<node lat="60.223850003005154" lon="5.536933340106246" id="-28541">
		<tag k="name" v="Langeholmen" />
		<tag k="place" v="islet" />
		<tag k="ssr:stedsnr" v="705006" />
	</node>
	<node lat="60.1943277786209" lon="5.334999993145373" id="-28562">
		<tag k="name" v="Ballandsneset" />
		<tag k="natural" v="cape" />
		<tag k="ssr:stedsnr" v="705565" />
	</node>
	<node lat="60.171233335169525" lon="5.595313890587346" id="-28573">
		<tag k="name" v="Erevika" />
		<tag k="natural" v="bay" />
		<tag k="ssr:stedsnr" v="642831" />
	</node>
	<node lat="60.05954999900738" lon="5.788988885265754" id="-28595">
		<tag k="name" v="Krabbavågen" />
		<tag k="natural" v="bay" />
		<tag k="ssr:stedsnr" v="643904" />
	</node>
	<node lat="60.1518583290691" lon="5.392694436242852" id="-28612">
		<tag k="name" v="Mørkevågen" />
		<tag k="natural" v="bay" />
		<tag k="ssr:stedsnr" v="644439" />
	</node>
	<node lat="60.14312499747165" lon="5.40561388904607" id="-28613">
		<tag k="name" v="Kuholmen" />
		<tag k="place" v="islet" />
		<tag k="ssr:stedsnr" v="644441" />
	</node>
	<node lat="60.18959166497662" lon="5.322250000652795" id="-28615">
		<tag k="name" v="Laksholmen" />
		<tag k="place" v="islet" />
		<tag k="ssr:stedsnr" v="644484" />
	</node>
	<node lat="60.07106388825874" lon="5.713713889378133" id="-28621">
		<tag k="name" v="Neset" />
		<tag k="natural" v="cape" />
		<tag k="ssr:stedsnr" v="660985" />
	</node>
	<node lat="60.236980559654214" lon="5.623749996499926" id="-28622">
		<tag k="alt_name" v="Sjondaneset" />
		<tag k="name" v="Sjonaneset" />
		<tag k="natural" v="cape" />
		<tag k="ssr:stedsnr" v="671035" />
	</node>
	<node lat="60.18069999593661" lon="5.705200005147262" id="-28626">
		<tag k="alt_name" v="Mulodden" />
		<tag k="name" v="Mulsodden" />
		<tag k="natural" v="cape" />
		<tag k="ssr:stedsnr" v="672072" />
	</node>
	<node lat="60.241749998395825" lon="5.660383329541268" id="-28631">
		<tag k="name" v="Hafskorholmen" />
		<tag k="place" v="islet" />
		<tag k="ssr:stedsnr" v="672179" />
	</node>
	<node lat="60.07583055962649" lon="5.804930555791592" id="-28635">
		<tag k="fixme" v="consider seamark:type=rock or natural=shoal" />
		<tag k="name" v="Tretteskjera" />
		<tag k="place" v="islet" />
		<tag k="ssr:stedsnr" v="672270" />
	</node>
	<node lat="60.07653333164173" lon="5.819969445822097" id="-28637">
		<tag k="name" v="Høynesvika" />
		<tag k="natural" v="bay" />
		<tag k="ssr:stedsnr" v="672279" />
	</node>
	<node lat="60.077630555890266" lon="5.807975002853291" id="-28638">
		<tag k="name" v="Munkholmen" />
		<tag k="place" v="islet" />
		<tag k="ssr:stedsnr" v="672280" />
	</node>
	<node lat="60.1051666649291" lon="5.720763880400098" id="-28642">
		<tag k="name" v="Hjartnestangen" />
		<tag k="natural" v="cape" />
		<tag k="ssr:stedsnr" v="672419" />
	</node>
	<node lat="60.086038886174094" lon="5.744216671188687" id="-28645">
		<tag k="name" v="Haugavika" />
		<tag k="natural" v="bay" />
		<tag k="ssr:stedsnr" v="672427" />
	</node>
	<node lat="60.131122219895886" lon="5.367713893985569" id="-28653">
		<tag k="name" v="Kobbholmane" />
		<tag k="place" v="islet" />
		<tag k="ssr:stedsnr" v="672977" />
	</node>
	<node lat="60.170311106974665" lon="5.397011107846633" id="-28660">
		<tag k="name" v="Baraflua" />
		<tag k="natural" v="shoal" />
		<tag k="place" v="locality" />
		<tag k="ssr:stedsnr" v="692083" />
	</node>
	<node lat="60.164747219052586" lon="5.32538333331169" id="-28661">
		<tag k="fixme" v="consider seamark:type=rock or natural=shoal" />
		<tag k="name" v="Klammerskjeret" />
		<tag k="place" v="islet" />
		<tag k="ssr:stedsnr" v="692908" />
	</node>
	<node lat="60.148883334016546" lon="5.368727786700499" id="-28662">
		<tag k="name" v="Brattholmen" />
		<tag k="place" v="islet" />
		<tag k="ssr:stedsnr" v="692979" />
	</node>
	<node lat="60.0718833349694" lon="5.770963885249725" id="-28695">
		<tag k="name" v="Dyrklubben" />
		<tag k="natural" v="cape" />
		<tag k="ssr:stedsnr" v="704912" />
	</node>
	<node lat="60.243952780805195" lon="5.683250000960977" id="-28697">
		<tag k="name" v="Kjosaneset" />
		<tag k="natural" v="cape" />
		<tag k="ssr:stedsnr" v="704972" />
	</node>
	<node lat="60.24178055437149" lon="5.717683330770339" id="-28720">
		<tag k="alt_name" v="Grimaneset" />
		<tag k="name" v="Grimeneset" />
		<tag k="natural" v="cape" />
		<tag k="ssr:stedsnr" v="732056" />
	</node>
	<node lat="60.24449444054188" lon="5.729500001928303" id="-28721">
		<tag k="name" v="Svaneneset" />
		<tag k="natural" v="cape" />
		<tag k="ssr:stedsnr" v="732057" />
	</node>
	<node lat="60.16826389226594" lon="5.722466658066695" id="-28725">
		<tag k="name" v="Aplavika" />
		<tag k="natural" v="bay" />
		<tag k="ssr:stedsnr" v="732401" />
	</node>
	<node lat="60.16153889035432" lon="5.723636104698342" id="-28726">
		<tag k="alt_name" v="Tjugavika" />
		<tag k="name" v="Tjuavika" />
		<tag k="natural" v="bay" />
		<tag k="ssr:stedsnr" v="732402" />
	</node>
	<node lat="60.050216663933746" lon="5.793372222807779" id="-28738">
		<tag k="name" v="Nystølsvågen" />
		<tag k="natural" v="bay" />
		<tag k="ssr:stedsnr" v="733305" />
	</node>
	<node lat="60.066553985276265" lon="5.767316493540357" id="-28742">
		<tag k="alt_name" v="Nesjeøya" />
		<tag k="name" v="Nesjaøya" />
		<tag k="place" v="islet" />
		<tag k="ssr:stedsnr" v="733252" />
	</node>
	<node lat="60.14745277405551" lon="5.738033327245541" id="-28745">
		<tag k="name" v="Revnestrand" />
		<tag k="natural" v="beach" />
		<tag k="ssr:stedsnr" v="733442" />
	</node>
	<node lat="60.12667499878301" lon="5.760608342194104" id="-28748">
		<tag k="name" v="Femangerholmen" />
		<tag k="place" v="islet" />
		<tag k="ssr:stedsnr" v="733452" />
	</node>
	<node lat="60.22263333686985" lon="5.348224991361861" id="-28754">
		<tag k="name" v="Kløverholmen" />
		<tag k="place" v="islet" />
		<tag k="ssr:stedsnr" v="733860" />
	</node>
	<node lat="60.0727000030363" lon="5.817116665461977" id="-28761">
		<tag k="alt_name" v="Makkholet" />
		<tag k="name" v="Makkaholo" />
		<tag k="natural" v="bay" />
		<tag k="ssr:stedsnr" v="752123" />
	</node>
	<node lat="60.09070000313343" lon="5.836419437330828" id="-28762">
		<tag k="name" v="Gamlevika" />
		<tag k="natural" v="bay" />
		<tag k="ssr:stedsnr" v="752218" />
	</node>
	<node lat="60.270341670354064" lon="5.649511109932025" id="-28764">
		<tag k="name" v="Holmefjordholmen" />
		<tag k="place" v="islet" />
		<tag k="ssr:stedsnr" v="752358" />
	</node>
	<node lat="60.26239722638576" lon="5.647699990831087" id="-28765">
		<tag k="name" v="Kyrkjeflua" />
		<tag k="natural" v="shoal" />
		<tag k="place" v="locality" />
		<tag k="ssr:stedsnr" v="752373" />
	</node>
	<node lat="60.17334721918696" lon="5.393230558598492" id="-28766">
		<tag k="fixme" v="consider seamark:type=rock or natural=shoal" />
		<tag k="name" v="Seinaskjeret" />
		<tag k="place" v="islet" />
		<tag k="ssr:stedsnr" v="753056" />
	</node>
	<node lat="60.20448055784345" lon="5.603694435926991" id="-28767">
		<tag k="name" v="Saltbuneset" />
		<tag k="natural" v="cape" />
		<tag k="ssr:stedsnr" v="753617" />
	</node>
	<node lat="60.14799722576061" lon="5.5689166641509615" id="-28768">
		<tag k="name" v="Nordausten" />
		<tag k="natural" v="shoal" />
		<tag k="place" v="locality" />
		<tag k="ssr:stedsnr" v="753752" />
	</node>
	<node lat="60.12769999914514" lon="5.382525005202264" id="-28769">
		<tag k="name" v="Gulholmflua" />
		<tag k="natural" v="shoal" />
		<tag k="place" v="locality" />
		<tag k="ssr:stedsnr" v="753969" />
	</node>
	<node lat="60.271858604250376" lon="5.587417101243784" id="-28770">
		<tag k="name" v="Oldervika" />
		<tag k="natural" v="bay" />
		<tag k="ssr:stedsnr" v="753812" />
	</node>
	<node lat="60.16013611226044" lon="5.679224999244215" id="-28777">
		<tag k="name" v="Ådnavika" />
		<tag k="natural" v="bay" />
		<tag k="ssr:stedsnr" v="764890" />
	</node>
	<node lat="60.21862667418154" lon="5.381507822650058" id="-28780">
		<tag k="name" v="Bordvikneset" />
		<tag k="natural" v="cape" />
		<tag k="ssr:stedsnr" v="765294" />
	</node>
	<node lat="60.21507583795204" lon="5.370887541535544" id="-28793">
		<tag k="name" v="Søre Notavika" />
		<tag k="natural" v="bay" />
		<tag k="ssr:stedsnr" v="765312" />
	</node>
	<node lat="60.16175833674491" lon="5.371425004630627" id="-28797">
		<tag k="name" v="Gangstøholmane" />
		<tag k="place" v="islet" />
		<tag k="ssr:stedsnr" v="765334" />
	</node>
	<node lat="60.23114166418258" lon="5.701513894224391" id="-28813">
		<tag k="name" v="Dorganeset" />
		<tag k="natural" v="cape" />
		<tag k="ssr:stedsnr" v="765850" />
	</node>
	<node lat="60.24134722439633" lon="5.606919447049142" id="-28818">
		<tag k="name" v="Leirhola" />
		<tag k="natural" v="bay" />
		<tag k="ssr:stedsnr" v="765971" />
	</node>
	<node lat="60.101605559517886" lon="5.737394453013912" id="-28820">
		<tag k="name" v="Slettavik" />
		<tag k="natural" v="bay" />
		<tag k="ssr:stedsnr" v="765898" />
	</node>
	<node lat="60.14654722220517" lon="5.4113972196995865" id="-28826">
		<tag k="name" v="Ytrepollen" />
		<tag k="natural" v="bay" />
		<tag k="ssr:stedsnr" v="766406" />
	</node>
	<node lat="60.20691666800947" lon="5.337447219119479" id="-28828">
		<tag k="name" v="Olsknappen" />
		<tag k="natural" v="cape" />
		<tag k="ssr:stedsnr" v="766413" />
	</node>
	<node lat="60.19600833220605" lon="5.340372220657217" id="-28831">
		<tag k="name" v="Størjepollholmen" />
		<tag k="place" v="islet" />
		<tag k="ssr:stedsnr" v="766489" />
	</node>
	<node lat="60.23746111276323" lon="5.664761116701233" id="-28833">
		<tag k="bay" v="fjord" />
		<tag k="name" v="Eikelandsfjorden" />
		<tag k="natural" v="bay" />
		<tag k="ssr:stedsnr" v="793020" />
	</node>
	<node lat="60.076630552344945" lon="5.750774995767534" id="-28837">
		<tag k="name" v="Janholmen" />
		<tag k="place" v="islet" />
		<tag k="ssr:stedsnr" v="793315" />
	</node>
	<node lat="60.14613055325632" lon="5.554600000522458" id="-28846">
		<tag k="alt_name" v="Midtflu" />
		<tag k="name" v="Midtflua" />
		<tag k="natural" v="shoal" />
		<tag k="place" v="locality" />
		<tag k="ssr:stedsnr" v="793416" />
	</node>
	<node lat="60.15884999987638" lon="5.326061105168304" id="-28847">
		<tag k="name" v="Forstrønesundet" />
		<tag k="natural" v="strait" />
		<tag k="ssr:stedsnr" v="793806" />
	</node>
	<node lat="60.167419448361024" lon="5.371477768903291" id="-28848">
		<tag k="name" v="Ullsundet" />
		<tag k="natural" v="strait" />
		<tag k="ssr:stedsnr" v="793808" />
	</node>
	<node lat="60.17066666254678" lon="5.378716673423567" id="-28849">
		<tag k="name" v="Skeisosen" />
		<tag k="natural" v="strait" />
		<tag k="ssr:stedsnr" v="793809" />
	</node>
	<node lat="60.186452539715795" lon="5.3563189211383" id="-28851">
		<tag k="name" v="Gardvika" />
		<tag k="natural" v="bay" />
		<tag k="ssr:stedsnr" v="793817" />
	</node>
	<node lat="60.17142221868327" lon="5.308527785396329" id="-28852">
		<tag k="name" v="Skorpo" />
		<tag k="place" v="island" />
		<tag k="ssr:stedsnr" v="793822" />
	</node>
	<node lat="60.16820833733139" lon="5.454291669553526" id="-28857">
		<tag k="name" v="Lekvenvågen" />
		<tag k="natural" v="bay" />
		<tag k="ssr:stedsnr" v="793976" />
	</node>
	<node lat="60.28616327335266" lon="5.6261639680514675" id="-28858">
		<tag k="bay" v="fjord" />
		<tag k="name" v="Samnangerfjorden" />
		<tag k="natural" v="bay" />
		<tag k="ssr:stedsnr" v="794176" />
	</node>
	<node lat="60.12022375278482" lon="5.739811955900211" id="-28865">
		<tag k="alt_name" v="Søra Skorevågen" />
		<tag k="name" v="Lyngnesvågen" />
		<tag k="natural" v="bay" />
		<tag k="ssr:stedsnr" v="794471" />
	</node>
	<node lat="60.17562777394333" lon="5.3466666693567495" id="-28866">
		<tag k="name" v="Gardvika" />
		<tag k="natural" v="bay" />
		<tag k="ssr:stedsnr" v="794606" />
	</node>
	<node lat="60.171325004174335" lon="5.513574993579235" id="-28868">
		<tag k="name" v="Sønsteflua" />
		<tag k="natural" v="shoal" />
		<tag k="place" v="locality" />
		<tag k="ssr:stedsnr" v="794387" />
	</node>
	<node lat="60.22599167069894" lon="5.649549993654016" id="-28881">
		<tag k="name" v="Gjerdavikflua" />
		<tag k="natural" v="shoal" />
		<tag k="place" v="locality" />
		<tag k="ssr:stedsnr" v="915012" />
	</node>
	<node lat="60.16575833047405" lon="5.585111105214012" id="-28887">
		<tag k="name" v="Skjelevika" />
		<tag k="natural" v="bay" />
		<tag k="ssr:stedsnr" v="915388" />
	</node>
	<node lat="60.221272224496204" lon="5.378838897230506" id="-28888">
		<tag k="name" v="Sperrevika" />
		<tag k="natural" v="bay" />
		<tag k="ssr:stedsnr" v="914837" />
	</node>
	<node lat="60.2907888855301" lon="5.655705554986043" id="-28891">
		<tag k="name" v="Tveitasundet" />
		<tag k="natural" v="strait" />
		<tag k="ssr:stedsnr" v="915248" />
	</node>
	<node lat="60.18459722581663" lon="5.741263887769753" id="-28893">
		<tag k="alt_name" v="Mørkevågen" />
		<tag k="name" v="Myrkevågen" />
		<tag k="natural" v="bay" />
		<tag k="ssr:stedsnr" v="915398" />
	</node>
	<node lat="60.163236108438554" lon="5.580599992450333" id="-28894">
		<tag k="name" v="Træsneset" />
		<tag k="natural" v="cape" />
		<tag k="ssr:stedsnr" v="915402" />
	</node>
	<node lat="60.102497223098396" lon="5.738647223688542" id="-28896">
		<tag k="name" v="Hjartnesvågen" />
		<tag k="natural" v="bay" />
		<tag k="ssr:stedsnr" v="915427" />
	</node>
	<node lat="60.079302779513284" lon="5.746466666041165" id="-28898">
		<tag k="name" v="Høyneset" />
		<tag k="natural" v="cape" />
		<tag k="ssr:stedsnr" v="915436" />
	</node>
	<node lat="60.17439999716375" lon="5.3810833346583" id="-28899">
		<tag k="name" v="Askvikneset" />
		<tag k="natural" v="cape" />
		<tag k="ssr:stedsnr" v="915775" />
	</node>
	<node lat="60.15389166432387" lon="5.446605547969216" id="-28901">
		<tag k="name" v="Vargavågen" />
		<tag k="natural" v="bay" />
		<tag k="ssr:stedsnr" v="915949" />
	</node>
	<node lat="60.16226388698491" lon="5.380844441677018" id="-28903">
		<tag k="alt_name" v="Nordrenes" />
		<tag k="name" v="Nordreneset" />
		<tag k="natural" v="cape" />
		<tag k="ssr:stedsnr" v="915786" />
	</node>
	<node lat="60.06631666737837" lon="5.773494446725923" id="-28911">
		<tag k="name" v="Lambursvika" />
		<tag k="natural" v="bay" />
		<tag k="ssr:stedsnr" v="813131" />
	</node>
	<node lat="60.17886944176049" lon="5.386183334739641" id="-28914">
		<tag k="name" v="Askvikvågen" />
		<tag k="natural" v="bay" />
		<tag k="ssr:stedsnr" v="814086" />
	</node>
	<node lat="60.11742222594442" lon="5.365661106453155" id="-28915">
		<tag k="name" v="Ytreskallen" />
		<tag k="natural" v="shoal" />
		<tag k="place" v="locality" />
		<tag k="ssr:stedsnr" v="814977" />
	</node>
	<node lat="60.13926944367904" lon="5.4279111098151205" id="-28916">
		<tag k="name" v="Bleikja" />
		<tag k="place" v="islet" />
		<tag k="ssr:stedsnr" v="814996" />
	</node>
	<node lat="60.146438886310044" lon="5.609233339047909" id="-28926">
		<tag k="name" v="Sommarvika" />
		<tag k="natural" v="bay" />
		<tag k="ssr:stedsnr" v="825817" />
	</node>
	<node lat="60.11564722503469" lon="5.796861117438207" id="-28933">
		<tag k="name" v="Vasslineset" />
		<tag k="natural" v="cape" />
		<tag k="ssr:stedsnr" v="826624" />
	</node>
	<node lat="60.23212777443291" lon="5.72593888540041" id="-28940">
		<tag k="name" v="Indre Austestadvågen" />
		<tag k="natural" v="bay" />
		<tag k="ssr:stedsnr" v="826513" />
	</node>
	<node lat="60.1461722240414" lon="5.737613885076005" id="-28945">
		<tag k="name" v="Laukholmen" />
		<tag k="place" v="islet" />
		<tag k="ssr:stedsnr" v="826943" />
	</node>
	<node lat="60.25639166828642" lon="5.634869439663933" id="-28946">
		<tag k="name" v="Torvaneset" />
		<tag k="natural" v="cape" />
		<tag k="ssr:stedsnr" v="826949" />
	</node>
	<node lat="60.18120277438591" lon="5.473669438865597" id="-28957">
		<tag k="name" v="Steinneset" />
		<tag k="natural" v="cape" />
		<tag k="ssr:stedsnr" v="827431" />
	</node>
	<node lat="60.14413332929936" lon="5.426241672228291" id="-28961">
		<tag k="name" v="Halgjemsosen" />
		<tag k="natural" v="strait" />
		<tag k="ssr:stedsnr" v="827483" />
	</node>
	<node lat="60.208049998025444" lon="5.537138888673838" id="-28965">
		<tag k="alt_name" v="Hatvika" />
		<tag k="name" v="Hattvika" />
		<tag k="natural" v="bay" />
		<tag k="ssr:stedsnr" v="854004" />
	</node>
	<node lat="60.15133888545095" lon="5.581436107475607" id="-28974">
		<tag k="name" v="Skagen" />
		<tag k="natural" v="cape" />
		<tag k="ssr:stedsnr" v="854357" />
	</node>
	<node lat="60.17719167123652" lon="5.69036111838399" id="-28988">
		<tag k="name" v="Vågsneset" />
		<tag k="natural" v="cape" />
		<tag k="ssr:stedsnr" v="855402" />
	</node>
	<node lat="60.13511111311264" lon="5.756500007774564" id="-28993">
		<tag k="alt_name" v="Otranes" />
		<tag k="name" v="Otraneset" />
		<tag k="natural" v="cape" />
		<tag k="ssr:stedsnr" v="855604" />
	</node>
	<node lat="60.19463888849619" lon="5.443425004005328" id="-29015">
		<tag k="name" v="Teinevika" />
		<tag k="natural" v="bay" />
		<tag k="ssr:stedsnr" v="887005" />
	</node>
	<node lat="60.28236944150517" lon="5.608563894263723" id="-29016">
		<tag k="name" v="Åspenes" />
		<tag k="natural" v="cape" />
		<tag k="ssr:stedsnr" v="887249" />
	</node>
	<node lat="60.0835763854763" lon="5.826380845679275" id="-29019">
		<tag k="name" v="Fløpollen" />
		<tag k="natural" v="bay" />
		<tag k="ssr:stedsnr" v="887348" />
	</node>
	<node lat="60.17885277368939" lon="5.36022221557169" id="-29023">
		<tag k="name" v="Havnaklubben" />
		<tag k="natural" v="cape" />
		<tag k="ssr:stedsnr" v="887398" />
	</node>
	<node lat="60.268102778349764" lon="5.642561118024565" id="-29033">
		<tag k="fixme" v="consider seamark:type=rock or natural=shoal" />
		<tag k="name" v="Kjetteviksskjeret" />
		<tag k="place" v="islet" />
		<tag k="ssr:stedsnr" v="887798" />
	</node>
	<node lat="60.058927775918335" lon="5.790769452686664" id="-29035">
		<tag k="name" v="Sørevika" />
		<tag k="natural" v="bay" />
		<tag k="ssr:stedsnr" v="887910" />
	</node>
	<node lat="60.072163884920684" lon="5.765947215560356" id="-29041">
		<tag k="name" v="Ytra Eleshamn" />
		<tag k="natural" v="bay" />
		<tag k="ssr:stedsnr" v="935151" />
	</node>
	<node lat="60.26562500150941" lon="5.663711117982486" id="-29042">
		<tag k="name" v="Vadvika" />
		<tag k="natural" v="bay" />
		<tag k="ssr:stedsnr" v="887807" />
	</node>
	<node lat="60.060330553949065" lon="5.754294439703655" id="-29044">
		<tag k="name" v="Ytstehola" />
		<tag k="natural" v="bay" />
		<tag k="ssr:stedsnr" v="887898" />
	</node>
	<node lat="60.076266664787326" lon="5.724919451181786" id="-29049">
		<tag k="name" v="Nesbjørgneset" />
		<tag k="natural" v="cape" />
		<tag k="ssr:stedsnr" v="903606" />
	</node>
	<node lat="60.189041670570866" lon="5.5037861030574815" id="-29052">
		<tag k="name" v="Moldaneset" />
		<tag k="natural" v="cape" />
		<tag k="ssr:stedsnr" v="915073" />
	</node>
	<node lat="60.23603333082095" lon="5.626375008461449" id="-29059">
		<tag k="name" v="Altaneset" />
		<tag k="natural" v="cape" />
		<tag k="ssr:stedsnr" v="915176" />
	</node>
	<node lat="60.082255552492185" lon="5.787094438917927" id="-29060">
		<tag k="name" v="Lauvskåra" />
		<tag k="natural" v="cape" />
		<tag k="ssr:stedsnr" v="915269" />
	</node>
	<node lat="60.17459999933535" lon="5.730994446789583" id="-29061">
		<tag k="name" v="Mjånesvågen" />
		<tag k="natural" v="bay" />
		<tag k="ssr:stedsnr" v="915408" />
	</node>
	<node lat="60.118705559282624" lon="5.732938897008027" id="-29065">
		<tag k="alt_name" v="Lyngnes" />
		<tag k="name" v="Lyngneset" />
		<tag k="natural" v="cape" />
		<tag k="ssr:stedsnr" v="915474" />
	</node>
	<node lat="60.13726944586445" lon="5.398986102705711" id="-29070">
		<tag k="name" v="Ytterøya" />
		<tag k="place" v="islet" />
		<tag k="ssr:stedsnr" v="915985" />
	</node>
	<node lat="60.13709722148198" lon="5.3906611119207595" id="-29071">
		<tag k="name" v="Bjørnarøyosen" />
		<tag k="natural" v="strait" />
		<tag k="ssr:stedsnr" v="915986" />
	</node>
	<node lat="60.26007222481104" lon="5.643155563072645" id="-29072">
		<tag k="name" v="Samnøyholmen" />
		<tag k="place" v="islet" />
		<tag k="ssr:stedsnr" v="916308" />
	</node>
	<node lat="60.218158329975694" lon="5.356347230902374" id="-29077">
		<tag k="name" v="Supaneset" />
		<tag k="natural" v="cape" />
		<tag k="ssr:stedsnr" v="935050" />
	</node>
	<node lat="60.17770447002985" lon="5.362497852806016" id="-29078">
		<tag k="name" v="Hillershavn" />
		<tag k="natural" v="bay" />
		<tag k="ssr:stedsnr" v="935064" />
	</node>
	<node lat="60.15421666961461" lon="5.427566657755312" id="-29079">
		<tag k="name" v="Storholmen" />
		<tag k="place" v="islet" />
		<tag k="ssr:stedsnr" v="935087" />
	</node>
	<node lat="60.156455559899975" lon="5.426622216742002" id="-29080">
		<tag k="name" v="Hauglandsosen" />
		<tag k="natural" v="bay" />
		<tag k="ssr:stedsnr" v="935089" />
	</node>
	<node lat="60.184258332966294" lon="5.76112500036508" id="-29081">
		<tag k="name" v="Sanddalsflua" />
		<tag k="natural" v="shoal" />
		<tag k="place" v="locality" />
		<tag k="ssr:stedsnr" v="935144" />
	</node>
	<node lat="60.147066671217566" lon="5.431372223580755" id="-29082">
		<tag k="name" v="Naustvågen" />
		<tag k="natural" v="bay" />
		<tag k="ssr:stedsnr" v="935994" />
	</node>
	<node lat="60.157059545738186" lon="5.675846951200999" id="-29087">
		<tag k="fixme" v="consider seamark:type=rock or natural=shoal" />
		<tag k="name" v="Gåseskjeret" />
		<tag k="place" v="islet" />
		<tag k="ssr:stedsnr" v="947079" />
	</node>
	<node lat="60.119863889682726" lon="5.799616659133209" id="-29102">
		<tag k="name" v="Drabbavågen" />
		<tag k="natural" v="bay" />
		<tag k="ssr:stedsnr" v="947607" />
	</node>
	<node lat="60.147252776387425" lon="5.735749993398567" id="-29110">
		<tag k="name" v="Marineset" />
		<tag k="natural" v="cape" />
		<tag k="ssr:stedsnr" v="947931" />
	</node>
	<node lat="60.16306944318457" lon="5.324525006011936" id="-29127">
		<tag k="name" v="Vetlaneset" />
		<tag k="natural" v="cape" />
		<tag k="ssr:stedsnr" v="948536" />
	</node>
	<node lat="60.188866662386886" lon="5.4896111087040405" id="-29129">
		<tag k="name" v="Lyssandfjæra" />
		<tag k="natural" v="bay" />
		<tag k="ssr:stedsnr" v="948288" />
	</node>
	<node lat="60.213300003375565" lon="5.339508327854993" id="-29131">
		<tag k="name" v="Mortholmosen" />
		<tag k="natural" v="strait" />
		<tag k="ssr:stedsnr" v="948293" />
	</node>
	<node lat="60.17606666936721" lon="5.372111118014126" id="-29132">
		<tag k="name" v="Ramsvika" />
		<tag k="natural" v="bay" />
		<tag k="ssr:stedsnr" v="948406" />
	</node>
	<node lat="60.14574166339507" lon="5.428713895716158" id="-29134">
		<tag k="name" v="Naustvågen" />
		<tag k="natural" v="bay" />
		<tag k="ssr:stedsnr" v="948487" />
	</node>
	<node lat="60.143336108060986" lon="5.45410278139904" id="-29135">
		<tag k="name" v="Labergsvika" />
		<tag k="natural" v="bay" />
		<tag k="ssr:stedsnr" v="948495" />
	</node>
	<node lat="60.15567777682443" lon="5.684797230211192" id="-29153">
		<tag k="fixme" v="consider seamark:type=rock or natural=shoal" />
		<tag k="name" v="Åmeskjeret" />
		<tag k="place" v="islet" />
		<tag k="ssr:stedsnr" v="4394" />
	</node>
	<node lat="60.1593916662488" lon="5.726591675252571" id="-29154">
		<tag k="alt_name" v="Rusavika" />
		<tag k="name" v="Russevika" />
		<tag k="natural" v="bay" />
		<tag k="ssr:stedsnr" v="4396" />
	</node>
	<node lat="60.09010555480894" lon="5.740758340308198" id="-29155">
		<tag k="name" v="Hjartåkervika" />
		<tag k="natural" v="bay" />
		<tag k="ssr:stedsnr" v="4460" />
	</node>
	<node lat="60.189102777489424" lon="5.330438888623382" id="-29156">
		<tag k="name" v="Skotøya" />
		<tag k="place" v="island" />
		<tag k="ssr:stedsnr" v="4778" />
	</node>
	<node lat="60.19629722426376" lon="5.333569441460103" id="-29160">
		<tag k="name" v="Nesvågen" />
		<tag k="natural" v="bay" />
		<tag k="ssr:stedsnr" v="4798" />
	</node>
	<node lat="60.199758335135954" lon="5.325505564277718" id="-29161">
		<tag k="name" v="Store Havreholmen" />
		<tag k="place" v="islet" />
		<tag k="ssr:stedsnr" v="4800" />
	</node>
	<node lat="60.27593332909178" lon="5.636736106905491" id="-29172">
		<tag k="name" v="Viersvågen" />
		<tag k="natural" v="bay" />
		<tag k="ssr:stedsnr" v="5292" />
	</node>
	<node lat="60.17419999944885" lon="5.493783330852344" id="-29173">
		<tag k="name" v="Skallen" />
		<tag k="natural" v="shoal" />
		<tag k="place" v="locality" />
		<tag k="ssr:stedsnr" v="5046" />
	</node>
	<node lat="60.10816666348796" lon="5.728999999024379" id="-29178">
		<tag k="name" v="Eidesvika" />
		<tag k="natural" v="bay" />
		<tag k="ssr:stedsnr" v="5432" />
	</node>
	<node lat="60.27708055804887" lon="5.643769443799402" id="-29189">
		<tag k="name" v="Eidsvågen" />
		<tag k="natural" v="bay" />
		<tag k="ssr:stedsnr" v="24343" />
	</node>
	<node lat="60.249780553314075" lon="5.642030557526929" id="-29190">
		<tag k="name" v="Bremingen" />
		<tag k="natural" v="cape" />
		<tag k="ssr:stedsnr" v="24661" />
	</node>
	<node lat="60.21110758902307" lon="5.383000500028736" id="-29191">
		<tag k="name" v="Søvikvågen" />
		<tag k="natural" v="bay" />
		<tag k="ssr:stedsnr" v="25054" />
	</node>
	<node lat="60.16685555495174" lon="5.5807805536396735" id="-29192">
		<tag k="name" v="Skjeljeviksfluene" />
		<tag k="natural" v="shoal" />
		<tag k="place" v="locality" />
		<tag k="ssr:stedsnr" v="25784" />
	</node>
	<node lat="60.146802777095374" lon="5.619163890317454" id="-29204">
		<tag k="name" v="Nesodden" />
		<tag k="natural" v="cape" />
		<tag k="ssr:stedsnr" v="36830" />
	</node>
	<node lat="60.14601111196427" lon="5.621425006606431" id="-29205">
		<tag k="name" v="Skåtodden" />
		<tag k="natural" v="cape" />
		<tag k="ssr:stedsnr" v="36831" />
	</node>
	<node lat="60.19111388922779" lon="5.511780560629224" id="-29228">
		<tag k="name" v="Bjånesfjæra" />
		<tag k="natural" v="bay" />
		<tag k="ssr:stedsnr" v="37255" />
	</node>
	<node lat="60.21715170685756" lon="5.3672096940859" id="-29234">
		<tag k="name" v="Midtneset" />
		<tag k="natural" v="cape" />
		<tag k="ssr:stedsnr" v="37332" />
	</node>
	<node lat="60.22904444385464" lon="5.5458555499918045" id="-29238">
		<tag k="name" v="Klubben" />
		<tag k="natural" v="cape" />
		<tag k="ssr:stedsnr" v="37345" />
	</node>
	<node lat="60.172127781515016" lon="5.366525001161959" id="-29239">
		<tag k="name" v="Kvernavika" />
		<tag k="natural" v="bay" />
		<tag k="ssr:stedsnr" v="37346" />
	</node>
	<node lat="60.11694166546618" lon="5.735269450753959" id="-29252">
		<tag k="name" v="Holmen" />
		<tag k="place" v="islet" />
		<tag k="ssr:stedsnr" v="37593" />
	</node>
	<node lat="60.23543888686271" lon="5.598047225731625" id="-29258">
		<tag k="name" v="Vetleholmen" />
		<tag k="place" v="islet" />
		<tag k="ssr:stedsnr" v="37879" />
	</node>
	<node lat="60.23356389095345" lon="5.593597213901574" id="-29259">
		<tag k="fixme" v="consider seamark:type=rock or natural=shoal" />
		<tag k="name" v="Varden" />
		<tag k="place" v="islet" />
		<tag k="ssr:stedsnr" v="37880" />
	</node>
	<node lat="60.05472777569298" lon="5.792366675285918" id="-29264">
		<tag k="name" v="Klubben" />
		<tag k="natural" v="cape" />
		<tag k="ssr:stedsnr" v="37912" />
	</node>
	<node lat="60.107491669661364" lon="5.739658329260868" id="-29265">
		<tag k="name" v="Eidet" />
		<tag k="place" v="locality" />
		<tag k="ssr:stedsnr" v="37914" />
	</node>
	<node lat="60.04710833690949" lon="5.750861112942237" id="-29266">
		<tag k="name" v="Øvrevågen" />
		<tag k="natural" v="bay" />
		<tag k="ssr:stedsnr" v="37916" />
	</node>
	<node lat="60.250025003234946" lon="5.598783340367183" id="-29271">
		<tag k="name" v="Dalavika" />
		<tag k="natural" v="bay" />
		<tag k="ssr:stedsnr" v="37947" />
	</node>
	<node lat="60.24238055553589" lon="5.596524996695139" id="-29274">
		<tag k="name" v="Seineset" />
		<tag k="natural" v="cape" />
		<tag k="ssr:stedsnr" v="37956" />
	</node>
	<node lat="60.268577778782046" lon="5.582463882326961" id="-29281">
		<tag k="name" v="Hestahola" />
		<tag k="natural" v="bay" />
		<tag k="ssr:stedsnr" v="38328" />
	</node>
	<node lat="60.19130555977544" lon="5.351974994360763" id="-29282">
		<tag k="name" v="Korsvika" />
		<tag k="natural" v="bay" />
		<tag k="ssr:stedsnr" v="38463" />
	</node>
	<node lat="60.15576666515719" lon="5.326513895056378" id="-29283">
		<tag k="name" v="Leirvågen" />
		<tag k="natural" v="bay" />
		<tag k="ssr:stedsnr" v="38469" />
	</node>
	<node lat="60.20001111508615" lon="5.340102782105659" id="-29286">
		<tag k="name" v="Hatlevika" />
		<tag k="natural" v="bay" />
		<tag k="ssr:stedsnr" v="38433" />
	</node>
	<node lat="60.075330557642516" lon="5.7236027768466124" id="-29299">
		<tag k="alt_name" v="Nesbjørtoa" />
		<tag k="name" v="Nesbjørgtoa" />
		<tag k="natural" v="cape" />
		<tag k="ssr:stedsnr" v="65291" />
	</node>
	<node lat="60.15385555150708" lon="5.683175008610789" id="-29304">
		<tag k="name" v="Stegleholmen" />
		<tag k="place" v="islet" />
		<tag k="ssr:stedsnr" v="65384" />
	</node>
	<node lat="60.174302774626256" lon="5.726158329381193" id="-29308">
		<tag k="name" v="Mjånes" />
		<tag k="natural" v="cape" />
		<tag k="ssr:stedsnr" v="65422" />
	</node>
	<node lat="60.24503055762589" lon="5.599669446789446" id="-29314">
		<tag k="name" v="Annesvika" />
		<tag k="natural" v="bay" />
		<tag k="ssr:stedsnr" v="66185" />
	</node>
	<node lat="60.301866662125754" lon="5.652974992729267" id="-29315">
		<tag k="name" v="Klurasundet" />
		<tag k="natural" v="strait" />
		<tag k="ssr:stedsnr" v="66275" />
	</node>
	<node lat="60.12165277497465" lon="5.748533333982523" id="-29319">
		<tag k="alt_name" v="Nordra Skorevågen" />
		<tag k="name" v="Skåravågen" />
		<tag k="natural" v="bay" />
		<tag k="ssr:stedsnr" v="66459" />
	</node>
	<node lat="60.21283611236288" lon="5.381574993139182" id="-29322">
		<tag k="name" v="Søvika" />
		<tag k="natural" v="bay" />
		<tag k="ssr:stedsnr" v="65787" />
	</node>
	<node lat="60.18087777556385" lon="5.693044453219004" id="-29323">
		<tag k="name" v="Låtro" />
		<tag k="natural" v="cape" />
		<tag k="ssr:stedsnr" v="66072" />
	</node>
	<node lat="60.13790555240488" lon="5.369633334737135" id="-29331">
		<tag k="name" v="Røtinga" />
		<tag k="place" v="island" />
		<tag k="ssr:stedsnr" v="66980" />
	</node>
	<node lat="60.234305554302765" lon="5.594477769205488" id="-29336">
		<tag k="fixme" v="consider seamark:type=rock or natural=shoal" />
		<tag k="name" v="Langskjeret" />
		<tag k="place" v="islet" />
		<tag k="ssr:stedsnr" v="85601" />
	</node>
	<node lat="60.19326111497842" lon="5.347197218838655" id="-29337">
		<tag k="name" v="Notabuholmen" />
		<tag k="place" v="islet" />
		<tag k="ssr:stedsnr" v="86158" />
	</node>
	<node lat="60.23426389028386" lon="5.732344447772517" id="-29349">
		<tag k="name" v="Haganeset" />
		<tag k="natural" v="cape" />
		<tag k="ssr:stedsnr" v="97480" />
	</node>
	<node lat="60.26177777988932" lon="5.572105556886382" id="-29383">
		<tag k="name" v="Fureneset" />
		<tag k="natural" v="cape" />
		<tag k="ssr:stedsnr" v="98350" />
	</node>
	<node lat="60.16004166535515" lon="5.423669441819471" id="-29385">
		<tag k="name" v="Særvoldsvika" />
		<tag k="natural" v="bay" />
		<tag k="ssr:stedsnr" v="98352" />
	</node>
	<node lat="60.14449444856294" lon="5.41354444741184" id="-29389">
		<tag k="name" v="Innerøyna" />
		<tag k="place" v="island" />
		<tag k="ssr:stedsnr" v="98429" />
	</node>
	<node lat="60.216477778789354" lon="5.351130555546165" id="-29390">
		<tag k="name" v="Skinneset" />
		<tag k="natural" v="cape" />
		<tag k="ssr:stedsnr" v="98439" />
	</node>
	<node lat="60.296555555500866" lon="5.658333329263194" id="-29405">
		<tag k="name" v="Skotholmen" />
		<tag k="place" v="islet" />
		<tag k="ssr:stedsnr" v="98998" />
	</node>
	<node lat="60.13456111139738" lon="5.754983325103159" id="-29407">
		<tag k="name" v="Otravika" />
		<tag k="natural" v="bay" />
		<tag k="ssr:stedsnr" v="98928" />
	</node>
	<node lat="60.2521027792117" lon="5.627269442583643" id="-29408">
		<tag k="name" v="Ærevika" />
		<tag k="natural" v="bay" />
		<tag k="ssr:stedsnr" v="98938" />
	</node>
	<node lat="60.232416670073796" lon="5.716774998246317" id="-29417">
		<tag k="name" v="Lammaneset" />
		<tag k="natural" v="cape" />
		<tag k="ssr:stedsnr" v="125034" />
	</node>
	<node lat="60.20704166813881" lon="5.629155563592632" id="-29419">
		<tag k="name" v="Fusavika" />
		<tag k="natural" v="bay" />
		<tag k="ssr:stedsnr" v="125118" />
	</node>
	<node lat="60.05706111041227" lon="5.7965472231210855" id="-29420">
		<tag k="alt_name" v="Sunnfjordvågen;Sundfjordvågen" />
		<tag k="name" v="Sundfjorden" />
		<tag k="natural" v="bay" />
		<tag k="ssr:stedsnr" v="125379" />
	</node>
	<node lat="60.15358610939788" lon="5.539627772814114" id="-29424">
		<tag k="name" v="Godfaren" />
		<tag k="natural" v="shoal" />
		<tag k="place" v="locality" />
		<tag k="ssr:stedsnr" v="126379" />
	</node>
	<node lat="60.09514166801784" lon="5.733908328228793" id="-29425">
		<tag k="alt_name" v="Andeneset" />
		<tag k="name" v="Andaneset" />
		<tag k="natural" v="cape" />
		<tag k="ssr:stedsnr" v="126469" />
	</node>
	<node lat="60.13824999584874" lon="5.665863882700742" id="-29428">
		<tag k="name" v="Stallane" />
		<tag k="natural" v="shoal" />
		<tag k="place" v="locality" />
		<tag k="ssr:stedsnr" v="126481" />
	</node>
	<node lat="60.21310555222129" lon="5.352463881864359" id="-29431">
		<tag k="name" v="Mortholmen" />
		<tag k="place" v="islet" />
		<tag k="ssr:stedsnr" v="125785" />
	</node>
	<node lat="60.247169444955865" lon="5.5740666661172495" id="-29435">
		<tag k="fixme" v="consider seamark:type=rock or natural=shoal" />
		<tag k="name" v="Rødssteinskjera" />
		<tag k="place" v="islet" />
		<tag k="ssr:stedsnr" v="126192" />
	</node>
	<node lat="60.21506111411703" lon="5.358549995584895" id="-29439">
		<tag k="name" v="Lysevågen" />
		<tag k="natural" v="bay" />
		<tag k="ssr:stedsnr" v="125853" />
	</node>
	<node lat="60.22607499858237" lon="5.656794452999131" id="-29440">
		<tag k="name" v="Slåttaneset" />
		<tag k="natural" v="cape" />
		<tag k="ssr:stedsnr" v="126011" />
	</node>
	<node lat="60.224741667605" lon="5.595594435600043" id="-29441">
		<tag k="name" v="Skallen" />
		<tag k="natural" v="shoal" />
		<tag k="place" v="locality" />
		<tag k="ssr:stedsnr" v="126013" />
	</node>
	<node lat="60.168566668824305" lon="5.593350004739335" id="-29451">
		<tag k="alt_name" v="Skotavågen" />
		<tag k="name" v="Skåtavågen" />
		<tag k="natural" v="bay" />
		<tag k="ssr:stedsnr" v="126403" />
	</node>
	<node lat="60.1824500000413" lon="5.755236111235078" id="-29452">
		<tag k="name" v="Hamnaneset" />
		<tag k="natural" v="cape" />
		<tag k="ssr:stedsnr" v="126413" />
	</node>
	<node lat="60.146230756708704" lon="5.345776739108317" id="-29458">
		<tag k="name" v="Stora Molvika" />
		<tag k="natural" v="bay" />
		<tag k="ssr:stedsnr" v="126938" />
	</node>
	<node lat="60.071358336041456" lon="5.760947220380221" id="-29465">
		<tag k="name" v="Fureneset" />
		<tag k="natural" v="cape" />
		<tag k="ssr:stedsnr" v="145166" />
	</node>
	<node lat="60.229544440585926" lon="5.673091663013602" id="-29467">
		<tag k="name" v="Blomvågen" />
		<tag k="natural" v="bay" />
		<tag k="ssr:stedsnr" v="145244" />
	</node>
	<node lat="60.304763888014776" lon="5.658155562533215" id="-29468">
		<tag k="name" v="Hopsvika" />
		<tag k="natural" v="bay" />
		<tag k="ssr:stedsnr" v="145368" />
	</node>
	<node lat="60.11245277565637" lon="5.333091670057156" id="-29470">
		<tag k="name" v="Hausen" />
		<tag k="natural" v="shoal" />
		<tag k="place" v="locality" />
		<tag k="ssr:stedsnr" v="146977" />
	</node>
	<node lat="60.140077779730895" lon="5.4046638895070025" id="-29471">
		<tag k="name" v="Kvalesundet" />
		<tag k="natural" v="strait" />
		<tag k="ssr:stedsnr" v="146997" />
	</node>
	<node lat="60.20509444406408" lon="5.371594446188431" id="-29472">
		<tag k="name" v="Vikaflua" />
		<tag k="natural" v="shoal" />
		<tag k="place" v="locality" />
		<tag k="ssr:stedsnr" v="146048" />
	</node>
	<node lat="60.14467221808368" lon="5.588727783683372" id="-29475">
		<tag k="fixme" v="consider seamark:type=rock or natural=shoal" />
		<tag k="name" v="Ternskjeret" />
		<tag k="place" v="islet" />
		<tag k="ssr:stedsnr" v="146696" />
	</node>
	<node lat="60.07224721842646" lon="5.769002785509003" id="-29486">
		<tag k="name" v="Elishavnen" />
		<tag k="natural" v="bay" />
		<tag k="ssr:stedsnr" v="158091" />
	</node>
	<node lat="60.20254166915679" lon="5.595347214434536" id="-29511">
		<tag k="name" v="Høganeset" />
		<tag k="natural" v="cape" />
		<tag k="ssr:stedsnr" v="158767" />
	</node>
	<node lat="60.203772222828654" lon="5.619061105270322" id="-29512">
		<tag k="name" v="Landsvika" />
		<tag k="natural" v="bay" />
		<tag k="ssr:stedsnr" v="158774" />
	</node>
	<node lat="60.28188611450859" lon="5.662416666139629" id="-29525">
		<tag k="name" v="Straumvika" />
		<tag k="natural" v="bay" />
		<tag k="ssr:stedsnr" v="158796" />
	</node>
	<node lat="60.153797221952615" lon="5.366205550010725" id="-29539">
		<tag k="name" v="Strøneneset" />
		<tag k="natural" v="cape" />
		<tag k="ssr:stedsnr" v="159379" />
	</node>
	<node lat="60.16333333332115" lon="5.402336104213038" id="-29541">
		<tag k="name" v="Notabuholmen" />
		<tag k="place" v="islet" />
		<tag k="ssr:stedsnr" v="159386" />
	</node>
	<node lat="60.188377779324476" lon="5.343691665470259" id="-29543">
		<tag k="name" v="Danielsvika" />
		<tag k="natural" v="bay" />
		<tag k="ssr:stedsnr" v="159491" />
	</node>
	<node lat="60.04988055868853" lon="5.7105666606720895" id="-29548">
		<tag k="name" v="Bergsvågen" />
		<tag k="natural" v="bay" />
		<tag k="ssr:stedsnr" v="186320" />
	</node>
	<node lat="60.159991586850445" lon="5.6835119386374355" id="-29552">
		<tag k="name" v="Storasundet" />
		<tag k="natural" v="strait" />
		<tag k="ssr:stedsnr" v="186410" />
	</node>
	<node lat="60.13026389220045" lon="5.471155558485653" id="-29555">
		<tag k="name" v="Storaflua" />
		<tag k="natural" v="shoal" />
		<tag k="place" v="locality" />
		<tag k="ssr:stedsnr" v="186430" />
	</node>
	<node lat="60.21007778095358" lon="5.354424996954574" id="-29557">
		<tag k="name" v="Lysesundet" />
		<tag k="natural" v="strait" />
		<tag k="ssr:stedsnr" v="186791" />
	</node>
	<node lat="60.221377773789456" lon="5.351236108607718" id="-29559">
		<tag k="name" v="Jonsholmen" />
		<tag k="place" v="islet" />
		<tag k="ssr:stedsnr" v="186853" />
	</node>
	<node lat="60.15684166826049" lon="5.360005551984979" id="-29561">
		<tag k="name" v="Strønevågen" />
		<tag k="natural" v="bay" />
		<tag k="ssr:stedsnr" v="186953" />
	</node>
	<node lat="60.15189444081751" lon="5.327955548629071" id="-29562">
		<tag k="name" v="Vetle Hestholmen" />
		<tag k="place" v="islet" />
		<tag k="ssr:stedsnr" v="186956" />
	</node>
	<node lat="60.174808328967316" lon="5.471311107652825" id="-29563">
		<tag k="name" v="Raudholmskallen" />
		<tag k="natural" v="shoal" />
		<tag k="place" v="locality" />
		<tag k="ssr:stedsnr" v="187056" />
	</node>
	<node lat="60.06689167020221" lon="5.7149305541627005" id="-29572">
		<tag k="name" v="Nesbjørhamn" />
		<tag k="natural" v="bay" />
		<tag k="ssr:stedsnr" v="187249" />
	</node>
	<node lat="60.0702781132767" lon="5.758634440159611" id="-29573">
		<tag k="name" v="Bukkholmane" />
		<tag k="place" v="islet" />
		<tag k="ssr:stedsnr" v="187250" />
	</node>
	<node lat="60.190849999104955" lon="5.515974993323885" id="-29577">
		<tag k="name" v="Bjåneset" />
		<tag k="natural" v="cape" />
		<tag k="ssr:stedsnr" v="187560" />
	</node>
	<node lat="60.23259999959659" lon="5.724813882485786" id="-29578">
		<tag k="name" v="Klubben" />
		<tag k="natural" v="cape" />
		<tag k="ssr:stedsnr" v="187562" />
	</node>
	<node lat="60.15856389274641" lon="5.389388894078883" id="-29585">
		<tag k="name" v="Lepsøya" />
		<tag k="place" v="island" />
		<tag k="ssr:stedsnr" v="187938" />
	</node>
	<node lat="60.134499999243126" lon="5.402244441310594" id="-29587">
		<tag k="name" v="Rogamælsholmen" />
		<tag k="place" v="islet" />
		<tag k="ssr:stedsnr" v="187965" />
	</node>
	<node lat="60.11731110775716" lon="5.637986112996105" id="-29593">
		<tag k="name" v="Synsteflu" />
		<tag k="natural" v="shoal" />
		<tag k="place" v="locality" />
		<tag k="ssr:stedsnr" v="206140" />
	</node>
	<node lat="60.13576944313508" lon="5.688550008537425" id="-29594">
		<tag k="name" v="Flategrunn" />
		<tag k="natural" v="shoal" />
		<tag k="place" v="locality" />
		<tag k="ssr:stedsnr" v="206141" />
	</node>
	<node lat="60.055111110061105" lon="5.79971667093254" id="-29595">
		<tag k="name" v="Mjelkevika" />
		<tag k="natural" v="bay" />
		<tag k="ssr:stedsnr" v="206150" />
	</node>
	<node lat="60.232463885030384" lon="5.727977782986697" id="-29596">
		<tag k="name" v="Austestadvågen" />
		<tag k="natural" v="bay" />
		<tag k="ssr:stedsnr" v="206243" />
	</node>
	<node lat="60.26831388771906" lon="5.623705559851261" id="-29597">
		<tag k="name" v="Gongstoneset" />
		<tag k="natural" v="cape" />
		<tag k="ssr:stedsnr" v="206331" />
	</node>
	<node lat="60.143208336503726" lon="5.573074992052943" id="-29599">
		<tag k="name" v="Hatlemnesskallane" />
		<tag k="natural" v="shoal" />
		<tag k="place" v="locality" />
		<tag k="ssr:stedsnr" v="207766" />
	</node>
	<node lat="60.27221667024335" lon="5.589791667901357" id="-29600">
		<tag k="fixme" v="consider seamark:type=rock or natural=shoal" />
		<tag k="name" v="Strandaskjeret" />
		<tag k="place" v="islet" />
		<tag k="ssr:stedsnr" v="207838" />
	</node>
	<node lat="60.12283888537005" lon="5.370791668673712" id="-29601">
		<tag k="name" v="Flua" />
		<tag k="natural" v="shoal" />
		<tag k="place" v="locality" />
		<tag k="ssr:stedsnr" v="207969" />
	</node>
	<node lat="60.14530833421591" lon="5.3772888810749135" id="-29602">
		<tag k="name" v="Vedholmen" />
		<tag k="place" v="islet" />
		<tag k="ssr:stedsnr" v="207971" />
	</node>
	<node lat="60.17197777836692" lon="5.366899993121698" id="-29603">
		<tag k="name" v="Kvernavika" />
		<tag k="natural" v="bay" />
		<tag k="ssr:stedsnr" v="207926" />
	</node>
	<node lat="60.23368888929339" lon="5.7321694360131925" id="-29610">
		<tag k="name" v="Hagafjøra" />
		<tag k="natural" v="bay" />
		<tag k="ssr:stedsnr" v="219518" />
	</node>
	<node lat="60.21890000274446" lon="5.384341660434975" id="-29640">
		<tag k="name" v="Sørstraumen" />
		<tag k="natural" v="cape" />
		<tag k="ssr:stedsnr" v="220037" />
	</node>
	<node lat="60.187516662224176" lon="5.766594445002292" id="-29643">
		<tag k="name" v="Nordvika" />
		<tag k="natural" v="bay" />
		<tag k="ssr:stedsnr" v="219634" />
	</node>
	<node lat="60.204894440443184" lon="5.622058331449969" id="-29660">
		<tag k="name" v="Opsalneset" />
		<tag k="natural" v="cape" />
		<tag k="ssr:stedsnr" v="219777" />
	</node>
	<node lat="60.27430833464865" lon="5.632436110668901" id="-29661">
		<tag k="fixme" v="consider seamark:type=rock or natural=shoal" />
		<tag k="name" v="Torbjørnsskjeret" />
		<tag k="place" v="islet" />
		<tag k="ssr:stedsnr" v="219791" />
	</node>
	<node lat="60.10165833388729" lon="5.725386117693996" id="-29667">
		<tag k="fixme" v="consider seamark:type=rock or natural=shoal" />
		<tag k="name" v="Øyreskjeret" />
		<tag k="place" v="islet" />
		<tag k="ssr:stedsnr" v="219919" />
	</node>
	<node lat="60.20770277432104" lon="5.374061120296168" id="-29668">
		<tag k="name" v="Ospevika" />
		<tag k="natural" v="bay" />
		<tag k="ssr:stedsnr" v="220331" />
	</node>
	<node lat="60.13825555422087" lon="5.381180556531018" id="-29677">
		<tag k="name" v="Toreidpollen" />
		<tag k="natural" v="bay" />
		<tag k="ssr:stedsnr" v="220460" />
	</node>
	<node lat="60.13407500141489" lon="5.365824991052629" id="-29683">
		<tag k="name" v="Skitnevågen" />
		<tag k="natural" v="bay" />
		<tag k="ssr:stedsnr" v="280433" />
	</node>
	<node lat="60.135799999810494" lon="5.433202775989644" id="-29684">
		<tag k="name" v="Mjølkevika" />
		<tag k="natural" v="bay" />
		<tag k="ssr:stedsnr" v="280440" />
	</node>
	<node lat="60.17889722268316" lon="5.354672226723706" id="-29685">
		<tag k="name" v="Svensvika" />
		<tag k="natural" v="bay" />
		<tag k="ssr:stedsnr" v="280450" />
	</node>
	<node lat="60.17871111389362" lon="5.393650001070029" id="-29710">
		<tag k="name" v="Hovlandsvika" />
		<tag k="natural" v="bay" />
		<tag k="ssr:stedsnr" v="280366" />
	</node>
	<node lat="60.27207222483615" lon="5.643758336147703" id="-29748">
		<tag k="name" v="Eidet" />
		<tag k="place" v="locality" />
		<tag k="ssr:stedsnr" v="280781" />
	</node>
	<node lat="60.26425833140788" lon="5.611466665842303" id="-29758">
		<tag k="name" v="Skotevågen" />
		<tag k="natural" v="bay" />
		<tag k="ssr:stedsnr" v="280799" />
	</node>
	<node lat="60.05897499588725" lon="5.755169445536105" id="-29760">
		<tag k="name" v="Holmen" />
		<tag k="place" v="islet" />
		<tag k="ssr:stedsnr" v="280893" />
	</node>
	<node lat="60.301586115034624" lon="5.658961107184805" id="-29762">
		<tag k="name" v="Kolleid" />
		<tag k="place" v="locality" />
		<tag k="ssr:stedsnr" v="280991" />
	</node>
	<node lat="60.15773055116223" lon="5.578083328635437" id="-29769">
		<tag k="name" v="Skipaneset" />
		<tag k="natural" v="cape" />
		<tag k="ssr:stedsnr" v="307429" />
	</node>
	<node lat="60.19503055798224" lon="5.547050001477525" id="-29776">
		<tag k="bay" v="fjord" />
		<tag k="name" v="Fusafjorden" />
		<tag k="natural" v="bay" />
		<tag k="ssr:stedsnr" v="308083" />
	</node>
	<node lat="60.195936115450124" lon="5.531483326841664" id="-29777">
		<tag k="name" v="Salbuvika" />
		<tag k="natural" v="bay" />
		<tag k="ssr:stedsnr" v="308085" />
	</node>
	<node lat="60.24056944367094" lon="5.5730166747519965" id="-29784">
		<tag k="name" v="Moldvika" />
		<tag k="natural" v="bay" />
		<tag k="ssr:stedsnr" v="308174" />
	</node>
	<node lat="60.154961109477384" lon="5.712411118530307" id="-29789">
		<tag k="alt_name" v="Skrubba" />
		<tag k="name" v="Skrubbo" />
		<tag k="natural" v="shoal" />
		<tag k="place" v="locality" />
		<tag k="ssr:stedsnr" v="308367" />
	</node>
	<node lat="60.14707777341205" lon="5.697177777227363" id="-29791">
		<tag k="alt_name" v="Kalderassen" />
		<tag k="name" v="Kallerasen" />
		<tag k="natural" v="shoal" />
		<tag k="place" v="locality" />
		<tag k="ssr:stedsnr" v="308442" />
	</node>
	<node lat="60.148561108133514" lon="5.645008328376344" id="-29792">
		<tag k="alt_name" v="Refsnes" />
		<tag k="name" v="Revsneset" />
		<tag k="natural" v="cape" />
		<tag k="ssr:stedsnr" v="308445" />
	</node>
	<node lat="60.16626388758459" lon="5.31724165798562" id="-29797">
		<tag k="name" v="Skorpeosen" />
		<tag k="natural" v="strait" />
		<tag k="ssr:stedsnr" v="308786" />
	</node>
	<node lat="60.1438750024058" lon="5.361133326601291" id="-29799">
		<tag k="name" v="Strøneosen" />
		<tag k="natural" v="strait" />
		<tag k="ssr:stedsnr" v="308985" />
	</node>
	<node lat="60.223779969946676" lon="5.372655017671231" id="-29802">
		<tag k="name" v="Leirvågen" />
		<tag k="natural" v="bay" />
		<tag k="ssr:stedsnr" v="308861" />
	</node>
	<node lat="60.071655555627046" lon="5.758480550919368" id="-29811">
		<tag k="name" v="Tjøreholmane" />
		<tag k="place" v="islet" />
		<tag k="ssr:stedsnr" v="328149" />
	</node>
	<node lat="60.28922777775366" lon="5.656863884459939" id="-29812">
		<tag k="name" v="Tveitavika" />
		<tag k="natural" v="bay" />
		<tag k="ssr:stedsnr" v="327373" />
	</node>
	<node lat="60.276191667850576" lon="5.6349250039513885" id="-29813">
		<tag k="name" v="Parsneset" />
		<tag k="natural" v="cape" />
		<tag k="ssr:stedsnr" v="327384" />
	</node>
	<node lat="60.193805557056244" lon="5.309188888082257" id="-29814">
		<tag k="name" v="Aumaflua" />
		<tag k="natural" v="shoal" />
		<tag k="place" v="locality" />
		<tag k="ssr:stedsnr" v="328035" />
	</node>
	<node lat="60.188233336525364" lon="5.316602778803085" id="-29815">
		<tag k="fixme" v="consider seamark:type=rock or natural=shoal" />
		<tag k="name" v="Grannen" />
		<tag k="place" v="islet" />
		<tag k="ssr:stedsnr" v="328039" />
	</node>
	<node lat="60.183072219392876" lon="5.350602780909042" id="-29816">
		<tag k="name" v="Tjoholmen" />
		<tag k="place" v="islet" />
		<tag k="ssr:stedsnr" v="328046" />
	</node>
	<node lat="60.17174444617073" lon="5.457791669325413" id="-29818">
		<tag k="name" v="Holsvika" />
		<tag k="natural" v="bay" />
		<tag k="ssr:stedsnr" v="328937" />
	</node>
	<node lat="60.197416667064864" lon="5.532594442372082" id="-29819">
		<tag k="name" v="Salbuneset" />
		<tag k="natural" v="cape" />
		<tag k="ssr:stedsnr" v="328950" />
	</node>
	<node lat="60.15524722153533" lon="5.458541659414623" id="-29820">
		<tag k="name" v="Esjeneset" />
		<tag k="natural" v="cape" />
		<tag k="ssr:stedsnr" v="328986" />
	</node>
	<node lat="60.15501688121741" lon="5.576010361043666" id="-29825">
		<tag k="name" v="Vinnesholmen" />
		<tag k="place" v="islet" />
		<tag k="ssr:stedsnr" v="339091" />
	</node>
	<node lat="60.11735555852293" lon="5.731686112760106" id="-29848">
		<tag k="name" v="Geitavika" />
		<tag k="natural" v="bay" />
		<tag k="ssr:stedsnr" v="340572" />
	</node>
	<node lat="60.12454722106429" lon="5.747500007300808" id="-29849">
		<tag k="name" v="Skåraholmen" />
		<tag k="place" v="islet" />
		<tag k="ssr:stedsnr" v="340574" />
	</node>
	<node lat="60.24332221862218" lon="5.737724991842359" id="-29859">
		<tag k="name" v="Tollaneset" />
		<tag k="natural" v="cape" />
		<tag k="ssr:stedsnr" v="340721" />
	</node>
	<node lat="60.266230551595946" lon="5.618863881761277" id="-29865">
		<tag k="name" v="Barua" />
		<tag k="natural" v="bay" />
		<tag k="ssr:stedsnr" v="340789" />
	</node>
	<node lat="60.23098055456613" lon="5.682530553574792" id="-29868">
		<tag k="name" v="Bakkavika" />
		<tag k="natural" v="bay" />
		<tag k="ssr:stedsnr" v="340874" />
	</node>
	<node lat="60.290772220796995" lon="5.647611103921033" id="-29873">
		<tag k="name" v="Mørkevågen" />
		<tag k="natural" v="bay" />
		<tag k="ssr:stedsnr" v="340997" />
	</node>
	<node lat="60.17897500406325" lon="5.385697221654086" id="-29877">
		<tag k="name" v="Askvikvågen" />
		<tag k="natural" v="bay" />
		<tag k="ssr:stedsnr" v="341408" />
	</node>
	<node lat="60.219788885147956" lon="5.352647213942031" id="-29880">
		<tag k="name" v="Seiasundet" />
		<tag k="natural" v="strait" />
		<tag k="ssr:stedsnr" v="341497" />
	</node>
	<node lat="60.156766665024186" lon="5.312536120195979" id="-29881">
		<tag k="name" v="Oksabåsen" />
		<tag k="natural" v="bay" />
		<tag k="ssr:stedsnr" v="341501" />
	</node>
	<node lat="60.146330552335755" lon="5.425291671813829" id="-29882">
		<tag k="bay" v="fjord" />
		<tag k="name" v="Halgjemssjøen" />
		<tag k="natural" v="bay" />
		<tag k="ssr:stedsnr" v="341518" />
	</node>
	<node lat="60.17498333268625" lon="5.398844441709615" id="-29883">
		<tag k="name" v="Djupevika" />
		<tag k="natural" v="bay" />
		<tag k="ssr:stedsnr" v="341531" />
	</node>
	<node lat="60.16739999587193" lon="5.310441662537767" id="-29890">
		<tag k="name" v="Teinevika" />
		<tag k="natural" v="bay" />
		<tag k="ssr:stedsnr" v="341477" />
	</node>
	<node lat="60.17181666610647" lon="5.318716662291788" id="-29894">
		<tag k="name" v="Lendevika" />
		<tag k="natural" v="bay" />
		<tag k="ssr:stedsnr" v="341490" />
	</node>
	<node lat="60.16758333438953" lon="5.319330548458753" id="-29901">
		<tag k="fixme" v="consider seamark:type=rock or natural=shoal" />
		<tag k="name" v="Straumskjeret" />
		<tag k="place" v="islet" />
		<tag k="ssr:stedsnr" v="357175" />
	</node>
	<node lat="60.14891389268982" lon="5.387544439146759" id="-29908">
		<tag k="name" v="Brimsholmen" />
		<tag k="place" v="islet" />
		<tag k="ssr:stedsnr" v="368945" />
	</node>
	<node lat="60.14516111276645" lon="5.3598555599144975" id="-29909">
		<tag k="name" v="Langøya" />
		<tag k="place" v="islet" />
		<tag k="ssr:stedsnr" v="368947" />
	</node>
	<node lat="60.160241662497974" lon="5.3857416650080765" id="-29910">
		<tag k="name" v="Nordrevågen" />
		<tag k="natural" v="bay" />
		<tag k="ssr:stedsnr" v="368960" />
	</node>
	<node lat="60.196966668683096" lon="5.577699998084368" id="-29912">
		<tag k="name" v="Halvorskallen" />
		<tag k="natural" v="shoal" />
		<tag k="place" v="locality" />
		<tag k="ssr:stedsnr" v="368112" />
	</node>
	<node lat="60.199964178717586" lon="5.536275946771557" id="-29913">
		<tag k="name" v="Baikroken" />
		<tag k="natural" v="bay" />
		<tag k="ssr:stedsnr" v="368114" />
	</node>
	<node lat="60.16949444290591" lon="5.402311117501454" id="-29920">
		<tag k="name" v="Leiro" />
		<tag k="natural" v="cape" />
		<tag k="ssr:stedsnr" v="368823" />
	</node>
	<node lat="60.21164166283391" lon="5.379049993823981" id="-29928">
		<tag k="name" v="Vetlaneset" />
		<tag k="natural" v="cape" />
		<tag k="ssr:stedsnr" v="368805" />
	</node>
	<node lat="60.13295833407403" lon="5.441566670670773" id="-29931">
		<tag k="name" v="Bjørnatrynet" />
		<tag k="natural" v="cape" />
		<tag k="ssr:stedsnr" v="368904" />
	</node>
	<node lat="60.180158329621314" lon="5.596700004513872" id="-29935">
		<tag k="name" v="Leirvika" />
		<tag k="natural" v="bay" />
		<tag k="ssr:stedsnr" v="369063" />
	</node>
	<node lat="60.29533889174651" lon="5.644083331166275" id="-29949">
		<tag k="name" v="Børøya" />
		<tag k="place" v="island" />
		<tag k="ssr:stedsnr" v="369261" />
	</node>
	<node lat="60.16872468283335" lon="5.586872088682042" id="-29951">
		<tag k="name" v="Steinavika" />
		<tag k="natural" v="bay" />
		<tag k="ssr:stedsnr" v="369364" />
	</node>
	<node lat="60.14726666263815" lon="5.631175003818174" id="-29958">
		<tag k="name" v="Salbuvika" />
		<tag k="natural" v="bay" />
		<tag k="ssr:stedsnr" v="369543" />
	</node>
	<node lat="60.148450000900496" lon="5.599488884796035" id="-29959">
		<tag k="name" v="Leira" />
		<tag k="natural" v="beach" />
		<tag k="ssr:stedsnr" v="369544" />
	</node>
	<node lat="60.183974997339554" lon="5.482516669611608" id="-29960">
		<tag k="name" v="Haugsneset" />
		<tag k="natural" v="cape" />
		<tag k="ssr:stedsnr" v="369546" />
	</node>
	<node lat="60.08420000341499" lon="5.800813890890995" id="-29969">
		<tag k="name" v="Skillevika" />
		<tag k="natural" v="bay" />
		<tag k="ssr:stedsnr" v="388215" />
	</node>
	<node lat="60.18711389058358" lon="5.766600002546539" id="-29970">
		<tag k="name" v="Hatletveitvågen" />
		<tag k="natural" v="bay" />
		<tag k="ssr:stedsnr" v="388229" />
	</node>
	<node lat="60.0513777817836" lon="5.707708331372751" id="-29971">
		<tag k="name" v="Bergsvågklubben" />
		<tag k="natural" v="cape" />
		<tag k="ssr:stedsnr" v="388071" />
	</node>
	<node lat="60.21573611238316" lon="5.370905556004028" id="-29973">
		<tag k="name" v="Notaneset" />
		<tag k="natural" v="cape" />
		<tag k="ssr:stedsnr" v="389060" />
	</node>
	<node lat="60.1709361078578" lon="5.333352772147723" id="-29975">
		<tag k="name" v="Vetla Langøya" />
		<tag k="place" v="island" />
		<tag k="ssr:stedsnr" v="389944" />
	</node>
	<node lat="60.153224995633444" lon="5.366752775391099" id="-29976">
		<tag k="name" v="Vågsholmen" />
		<tag k="place" v="islet" />
		<tag k="ssr:stedsnr" v="389979" />
	</node>
	<node lat="60.15656944712835" lon="5.40122776978359" id="-29991">
		<tag k="name" v="Austre Hølen" />
		<tag k="natural" v="bay" />
		<tag k="ssr:stedsnr" v="401338" />
	</node>
	<node lat="60.1628166708679" lon="5.388999998171613" id="-29992">
		<tag k="name" v="Strussvågen" />
		<tag k="natural" v="bay" />
		<tag k="ssr:stedsnr" v="401340" />
	</node>
	<node lat="60.15649444618909" lon="5.425102776748745" id="-29997">
		<tag k="name" v="Ytre Hauglandssjøen" />
		<tag k="natural" v="bay" />
		<tag k="ssr:stedsnr" v="401364" />
	</node>
	<node lat="60.132594442899865" lon="5.4215305631212605" id="-29999">
		<tag k="name" v="Lauvholmen" />
		<tag k="place" v="islet" />
		<tag k="ssr:stedsnr" v="401446" />
	</node>
	<node lat="60.198416665461686" lon="5.593747215040497" id="-30013">
		<tag k="fixme" v="consider seamark:type=rock or natural=shoal" />
		<tag k="name" v="Prestaskjeret" />
		<tag k="place" v="islet" />
		<tag k="ssr:stedsnr" v="401758" />
	</node>
	<node lat="60.14383333220573" lon="5.739869441140819" id="-30020">
		<tag k="name" v="Steinavika" />
		<tag k="natural" v="bay" />
		<tag k="ssr:stedsnr" v="401917" />
	</node>
	<node lat="60.26217777834888" lon="5.656941674616891" id="-30024">
		<tag k="name" v="Matlandsbreivika" />
		<tag k="natural" v="bay" />
		<tag k="ssr:stedsnr" v="401956" />
	</node>
	<node lat="60.15576110810875" lon="5.397586115864248" id="-30029">
		<tag k="name" v="Vestre Hølen" />
		<tag k="natural" v="bay" />
		<tag k="ssr:stedsnr" v="402024" />
	</node>
	<node lat="60.142333334244874" lon="5.429047224333213" id="-30037">
		<tag k="name" v="Aurevika" />
		<tag k="natural" v="bay" />
		<tag k="ssr:stedsnr" v="402470" />
	</node>
	<node lat="60.071340649493166" lon="5.7941515576476865" id="-30041">
		<tag k="alt_name" v="Lygrepollen" />
		<tag k="bay" v="fjord" />
		<tag k="name" v="Lygrespollen" />
		<tag k="natural" v="bay" />
		<tag k="ssr:stedsnr" v="418574" />
	</node>
	<node lat="60.17133055328769" lon="5.383350003746913" id="-30042">
		<tag k="name" v="Askvikeholmen" />
		<tag k="place" v="islet" />
		<tag k="ssr:stedsnr" v="429785" />
	</node>
	<node lat="60.07243888717185" lon="5.751761115339762" id="-30051">
		<tag k="alt_name" v="Sundvordøya" />
		<tag k="name" v="Sundvorøya" />
		<tag k="place" v="islet" />
		<tag k="ssr:stedsnr" v="429273" />
	</node>
	<node lat="60.07559999583351" lon="5.782658326449323" id="-30052">
		<tag k="name" v="Leitesneset" />
		<tag k="natural" v="cape" />
		<tag k="ssr:stedsnr" v="429280" />
	</node>
	<node lat="60.14998610984676" lon="5.589633329654232" id="-30057">
		<tag k="name" v="Selsvika" />
		<tag k="natural" v="bay" />
		<tag k="ssr:stedsnr" v="429361" />
	</node>
	<node lat="60.166594446224856" lon="5.691700007253827" id="-30059">
		<tag k="name" v="Lindarsundholmen" />
		<tag k="place" v="islet" />
		<tag k="ssr:stedsnr" v="429368" />
	</node>
	<node lat="60.144049998773546" lon="5.368452782379074" id="-30063">
		<tag k="name" v="Tøkjet" />
		<tag k="natural" v="cape" />
		<tag k="ssr:stedsnr" v="429946" />
	</node>
	<node lat="60.14673333367407" lon="5.374191674537794" id="-30064">
		<tag k="name" v="Sunnøya" />
		<tag k="place" v="islet" />
		<tag k="ssr:stedsnr" v="429947" />
	</node>
	<node lat="60.14266944660695" lon="5.585741670546349" id="-30065">
		<tag k="name" v="Hatlemnet" />
		<tag k="place" v="islet" />
		<tag k="ssr:stedsnr" v="429381" />
	</node>
	<node lat="60.192908336249126" lon="5.603677779378237" id="-30066">
		<tag k="name" v="Utlebøvika" />
		<tag k="natural" v="bay" />
		<tag k="ssr:stedsnr" v="430077" />
	</node>
	<node lat="60.14404444839003" lon="5.37780555069267" id="-30079">
		<tag k="name" v="Bruarøya" />
		<tag k="place" v="islet" />
		<tag k="ssr:stedsnr" v="430938" />
	</node>
	<node lat="60.13439722390527" lon="5.372777784476181" id="-30082">
		<tag k="name" v="Kobbavågen" />
		<tag k="natural" v="bay" />
		<tag k="ssr:stedsnr" v="430984" />
	</node>
	<node lat="60.3031972242583" lon="5.659816663975807" id="-30088">
		<tag k="name" v="Kalven" />
		<tag k="natural" v="cape" />
		<tag k="ssr:stedsnr" v="510145" />
	</node>
	<node lat="60.16684999990584" lon="5.45658611491997" id="-30089">
		<tag k="name" v="Ferstadvågen" />
		<tag k="natural" v="bay" />
		<tag k="ssr:stedsnr" v="510987" />
	</node>
	<node lat="60.13506944515299" lon="5.446458325051972" id="-30090">
		<tag k="name" v="Kista" />
		<tag k="natural" v="cape" />
		<tag k="ssr:stedsnr" v="510990" />
	</node>
	<node lat="60.16848333685432" lon="5.290458326115192" id="-30091">
		<tag k="name" v="Skorpeflua" />
		<tag k="natural" v="shoal" />
		<tag k="place" v="locality" />
		<tag k="ssr:stedsnr" v="510946" />
	</node>
	<node lat="60.178919444164535" lon="5.5844694489242555" id="-30093">
		<tag k="name" v="Leirvikfluene" />
		<tag k="natural" v="shoal" />
		<tag k="place" v="locality" />
		<tag k="ssr:stedsnr" v="511735" />
	</node>
	<node lat="60.06670277682565" lon="5.8111611082009285" id="-30094">
		<tag k="alt_name" v="Laksnes" />
		<tag k="name" v="Laksneset" />
		<tag k="natural" v="cape" />
		<tag k="ssr:stedsnr" v="522887" />
	</node>
	<node lat="60.29163888770932" lon="5.646950006932804" id="-30127">
		<tag k="name" v="Svartevikane" />
		<tag k="natural" v="bay" />
		<tag k="ssr:stedsnr" v="522994" />
	</node>
	<node lat="60.0774888870865" lon="5.818930557857195" id="-30131">
		<tag k="name" v="Høyneset" />
		<tag k="natural" v="cape" />
		<tag k="ssr:stedsnr" v="522915" />
	</node>
	<node lat="60.13920555250053" lon="5.744305555248762" id="-30134">
		<tag k="name" v="Klubben" />
		<tag k="natural" v="cape" />
		<tag k="ssr:stedsnr" v="522931" />
	</node>
	<node lat="60.26213888918092" lon="5.638608327366337" id="-30136">
		<tag k="fixme" v="consider seamark:type=rock or natural=shoal" />
		<tag k="name" v="Vetlaskjeret" />
		<tag k="place" v="islet" />
		<tag k="ssr:stedsnr" v="522938" />
	</node>
	<node lat="60.19142499611609" lon="5.502744443409055" id="-30150">
		<tag k="name" v="Smievågen" />
		<tag k="natural" v="bay" />
		<tag k="ssr:stedsnr" v="523277" />
	</node>
	<node lat="60.18666389161733" lon="5.484655548272537" id="-30151">
		<tag k="name" v="Solstrandfjæra" />
		<tag k="natural" v="bay" />
		<tag k="ssr:stedsnr" v="523280" />
	</node>
	<node lat="60.28065277782586" lon="5.608027783809584" id="-30152">
		<tag k="name" v="Skrubbaneset" />
		<tag k="natural" v="cape" />
		<tag k="ssr:stedsnr" v="523282" />
	</node>
	<node lat="60.21136944430074" lon="5.382227775848565" id="-30156">
		<tag k="name" v="Søvikvågen" />
		<tag k="natural" v="bay" />
		<tag k="ssr:stedsnr" v="523297" />
	</node>
	<node lat="60.199672224358004" lon="5.536327783472717" id="-30163">
		<tag k="name" v="Ytste Baikroken" />
		<tag k="natural" v="bay" />
		<tag k="ssr:stedsnr" v="523347" />
	</node>
	<node lat="60.16264444240345" lon="5.320227784714933" id="-30167">
		<tag k="name" v="Vetleknappen" />
		<tag k="natural" v="cape" />
		<tag k="ssr:stedsnr" v="523534" />
	</node>
	<node lat="60.14537777834668" lon="5.370647216611505" id="-30169">
		<tag k="name" v="Tøkjesundet" />
		<tag k="natural" v="strait" />
		<tag k="ssr:stedsnr" v="523549" />
	</node>
	<node lat="60.23760555962206" lon="5.600655554994422" id="-30175">
		<tag k="name" v="Holsund" />
		<tag k="natural" v="cape" />
		<tag k="ssr:stedsnr" v="550040" />
	</node>
	<node lat="60.06719166947094" lon="5.75196944144514" id="-30180">
		<tag k="name" v="Langaneset" />
		<tag k="natural" v="cape" />
		<tag k="ssr:stedsnr" v="550259" />
	</node>
	<node lat="60.172680558648985" lon="5.4588777832706326" id="-30194">
		<tag k="name" v="Kuvågen" />
		<tag k="natural" v="bay" />
		<tag k="ssr:stedsnr" v="550789" />
	</node>
	<node lat="60.15255833423454" lon="5.3125000051433675" id="-30195">
		<tag k="name" v="Flatøya" />
		<tag k="place" v="islet" />
		<tag k="ssr:stedsnr" v="550964" />
	</node>
	<node lat="60.1092888847724" lon="5.740986109959981" id="-30202">
		<tag k="name" v="Selvågen" />
		<tag k="natural" v="bay" />
		<tag k="ssr:stedsnr" v="551432" />
	</node>
	<node lat="60.12389444378211" lon="5.741913887373762" id="-30203">
		<tag k="name" v="Fureneset" />
		<tag k="natural" v="cape" />
		<tag k="ssr:stedsnr" v="551590" />
	</node>
	<node lat="60.26179444015764" lon="5.659791658434858" id="-30214">
		<tag k="name" v="Breidvika" />
		<tag k="natural" v="bay" />
		<tag k="ssr:stedsnr" v="570348" />
	</node>
	<node lat="60.150797220539616" lon="5.370572230711609" id="-30218">
		<tag k="fixme" v="consider seamark:type=rock or natural=shoal" />
		<tag k="name" v="Gulaskjeret" />
		<tag k="place" v="islet" />
		<tag k="ssr:stedsnr" v="571986" />
	</node>
	<node lat="60.12349444151354" lon="5.742922221104689" id="-30227">
		<tag k="name" v="Vossavika" />
		<tag k="natural" v="bay" />
		<tag k="ssr:stedsnr" v="582557" />
	</node>
	<node lat="60.16356110760498" lon="5.687433338430778" id="-30237">
		<tag k="name" v="Skjelevika" />
		<tag k="natural" v="bay" />
		<tag k="ssr:stedsnr" v="582871" />
	</node>
	<node lat="60.22486388721204" lon="5.368938883089647" id="-30253">
		<tag k="name" v="Leirvågneset" />
		<tag k="natural" v="cape" />
		<tag k="ssr:stedsnr" v="583301" />
	</node>
	<node lat="60.193608332340894" lon="5.432186113831684" id="-30257">
		<tag k="name" v="Bramdsneset" />
		<tag k="natural" v="cape" />
		<tag k="ssr:stedsnr" v="583411" />
	</node>
	<node lat="60.136847218954195" lon="5.406655556920798" id="-30258">
		<tag k="name" v="Kolneset" />
		<tag k="natural" v="cape" />
		<tag k="ssr:stedsnr" v="583419" />
	</node>
	<node lat="60.215038885684656" lon="5.337269452088754" id="-30279">
		<tag k="name" v="Rundholmen" />
		<tag k="place" v="islet" />
		<tag k="ssr:stedsnr" v="583471" />
	</node>
	<node lat="60.2120972230476" lon="5.634191658714625" id="-30285">
		<tag k="name" v="Gjerdevikvågen" />
		<tag k="natural" v="bay" />
		<tag k="ssr:stedsnr" v="583761" />
	</node>
	<node lat="60.281666666698776" lon="5.635180552734068" id="-30289">
		<tag k="name" v="Jutholmen" />
		<tag k="place" v="islet" />
		<tag k="ssr:stedsnr" v="583768" />
	</node>
	<node lat="60.24461110941825" lon="5.679438896046185" id="-30296">
		<tag k="name" v="Hafskorvika" />
		<tag k="natural" v="bay" />
		<tag k="ssr:stedsnr" v="583961" />
	</node>
	<node lat="60.30023611233069" lon="5.652358341369379" id="-30299">
		<tag k="name" v="Austre Kalvavika" />
		<tag k="natural" v="bay" />
		<tag k="ssr:stedsnr" v="583986" />
	</node>
	<node lat="60.227736108040105" lon="5.692255563607661" id="-30303">
		<tag k="alt_name" v="Bergevika" />
		<tag k="name" v="Bergsvika" />
		<tag k="natural" v="bay" />
		<tag k="ssr:stedsnr" v="611024" />
	</node>
	<node lat="60.14740833085747" lon="5.619500001085991" id="-30315">
		<tag k="name" v="Djupvika" />
		<tag k="natural" v="bay" />
		<tag k="ssr:stedsnr" v="611485" />
	</node>
	<node lat="60.17290833412205" lon="5.3030750047297035" id="-30318">
		<tag k="name" v="Breiabukta" />
		<tag k="natural" v="bay" />
		<tag k="ssr:stedsnr" v="611823" />
	</node>
	<node lat="60.17776388928212" lon="5.708925001300943" id="-30323">
		<tag k="bay" v="fjord" />
		<tag k="name" v="Sævareidfjorden" />
		<tag k="natural" v="bay" />
		<tag k="ssr:stedsnr" v="611439" />
	</node>
	<node lat="60.146711110717575" lon="5.455383330608464" id="-30325">
		<tag k="name" v="Ferstadvollen" />
		<tag k="natural" v="cape" />
		<tag k="ssr:stedsnr" v="611999" />
	</node>
	<node lat="60.21044444378889" lon="5.340658337759935" id="-30328">
		<tag k="name" v="Løholmen" />
		<tag k="place" v="islet" />
		<tag k="ssr:stedsnr" v="611790" />
	</node>
	<node lat="60.18228055544303" lon="5.345674996410057" id="-30331">
		<tag k="name" v="Teineholmen" />
		<tag k="place" v="islet" />
		<tag k="ssr:stedsnr" v="611814" />
	</node>
	<node lat="60.181094442792315" lon="5.327597215080793" id="-30332">
		<tag k="name" v="Bjørnarøya" />
		<tag k="place" v="islet" />
		<tag k="ssr:stedsnr" v="611815" />
	</node>
	<node lat="60.142288888357456" lon="5.35051111444593" id="-30333">
		<tag k="name" v="Husfjelltangen" />
		<tag k="natural" v="cape" />
		<tag k="ssr:stedsnr" v="611954" />
	</node>
	<node lat="60.15854166986156" lon="5.399436116503364" id="-30334">
		<tag k="name" v="Geitarøya" />
		<tag k="place" v="islet" />
		<tag k="ssr:stedsnr" v="611962" />
	</node>
	<node lat="60.31453888934537" lon="5.652255558313951" id="-30336">
		<tag k="name" v="Skiftesvika" />
		<tag k="natural" v="bay" />
		<tag k="ssr:stedsnr" v="612260" />
	</node>
	<node lat="60.15174722548502" lon="5.704825007754785" id="-30350">
		<tag k="name" v="Ådnamed" />
		<tag k="natural" v="shoal" />
		<tag k="place" v="locality" />
		<tag k="ssr:stedsnr" v="630145" />
	</node>
	<node lat="60.053975002765135" lon="5.790227769096272" id="-30351">
		<tag k="alt_name" v="Mørkevågen" />
		<tag k="name" v="Myrkevågen" />
		<tag k="natural" v="bay" />
		<tag k="ssr:stedsnr" v="630150" />
	</node>
	<node lat="60.20253888868341" lon="5.335599991454303" id="-30353">
		<tag k="fixme" v="consider seamark:type=rock or natural=shoal" />
		<tag k="name" v="Vågsskjeret" />
		<tag k="place" v="islet" />
		<tag k="ssr:stedsnr" v="631050" />
	</node>
	<node lat="60.180033332722864" lon="5.3515916743555785" id="-30356">
		<tag k="name" v="Jaktavika" />
		<tag k="natural" v="bay" />
		<tag k="ssr:stedsnr" v="631932" />
	</node>
	<node lat="60.13448333186129" lon="5.768319436895194" id="-30382">
		<tag k="name" v="Eidet" />
		<tag k="place" v="locality" />
		<tag k="ssr:stedsnr" v="643557" />
	</node>
	<node lat="60.18383611483321" lon="5.741722221298739" id="-30388">
		<tag k="name" v="Mørkevågneset" />
		<tag k="natural" v="cape" />
		<tag k="ssr:stedsnr" v="643599" />
	</node>
	<node lat="60.14953889099936" lon="5.3332055500639095" id="-30414">
		<tag k="name" v="Langetangen" />
		<tag k="natural" v="cape" />
		<tag k="ssr:stedsnr" v="644280" />
	</node>
	<node lat="60.150026829760115" lon="5.332768567069535" id="-30415">
		<tag k="name" v="Langetangsvågen" />
		<tag k="natural" v="bay" />
		<tag k="ssr:stedsnr" v="644281" />
	</node>
	<node lat="60.173569441268086" lon="5.392097229780331" id="-30428">
		<tag k="fixme" v="consider seamark:type=rock or natural=shoal" />
		<tag k="name" v="Seinaskjeret" />
		<tag k="place" v="islet" />
		<tag k="ssr:stedsnr" v="644349" />
	</node>
	<node lat="60.16340277732843" lon="5.329441675325618" id="-30436">
		<tag k="name" v="Øyjordsvika" />
		<tag k="natural" v="bay" />
		<tag k="ssr:stedsnr" v="644500" />
	</node>
</osm>
