<?xml version="1.0" encoding="UTF-8"?>
<osm version="0.6" generator="osmapis">
	<node lat="60.19772778108669" lon="5.828647213562543" id="-73085">
		<tag k="fixme" v="specify shooting=range, clay_pigeon etc" />
		<tag k="leisure" v="pitch" />
		<tag k="name" v="Klakkane" />
		<tag k="sport" v="shooting" />
		<tag k="ssr:stedsnr" v="158379" />
	</node>
	<node lat="60.21116110665085" lon="5.369244435980117" id="-73709">
		<tag k="fixme" v="consider boundary=protected_area and relevant protect_class if not nature reserve" />
		<tag k="leisure" v="nature_reserve" />
		<tag k="name" v="Ole Bulls Villa" />
		<tag k="ssr:stedsnr" v="523300" />
	</node>
	<node lat="60.21527500283895" lon="5.543452778507524" id="-74133">
		<tag k="fixme" v="consider boundary=protected_area and relevant protect_class if not nature reserve" />
		<tag k="leisure" v="nature_reserve" />
		<tag k="name" v="Floget naturreservat" />
		<tag k="ssr:stedsnr" v="765297" />
	</node>
	<node lat="60.17402853141939" lon="5.747328891170154" id="-74730">
		<tag k="fixme" v="consider boundary=protected_area and relevant protect_class if not nature reserve" />
		<tag k="leisure" v="nature_reserve" />
		<tag k="name" v="Steinen naturreservat" />
		<tag k="ssr:stedsnr" v="1074729" />
	</node>
	<node lat="60.09318596714667" lon="5.764876144161163" id="-74731">
		<tag k="fixme" v="consider boundary=protected_area and relevant protect_class if not nature reserve" />
		<tag k="leisure" v="nature_reserve" />
		<tag k="name" v="Setråsen naturreservat" />
		<tag k="ssr:stedsnr" v="1074730" />
	</node>
	<node lat="60.0745431512926" lon="5.847904088619821" id="-74732">
		<tag k="fixme" v="consider boundary=protected_area and relevant protect_class if not nature reserve" />
		<tag k="leisure" v="nature_reserve" />
		<tag k="name" v="Austefjorden og Blånuten naturreservat" />
		<tag k="ssr:stedsnr" v="1074731" />
	</node>
	<node lat="60.02854858926544" lon="5.771275034967428" id="-74733">
		<tag k="fixme" v="consider boundary=protected_area and relevant protect_class if not nature reserve" />
		<tag k="leisure" v="nature_reserve" />
		<tag k="name" v="Håvikevatnet naturreservat" />
		<tag k="ssr:stedsnr" v="1074733" />
	</node>
	<node lat="60.04249647100203" lon="5.718099019158056" id="-74740">
		<tag k="fixme" v="consider boundary=protected_area and relevant protect_class if not nature reserve" />
		<tag k="leisure" v="nature_reserve" />
		<tag k="name" v="Stussvikhovda naturreservat" />
		<tag k="ssr:stedsnr" v="1079542" />
	</node>
	<node lat="60.19658725356621" lon="5.40477462005415" id="-74741">
		<tag k="fixme" v="consider boundary=protected_area and relevant protect_class if not nature reserve" />
		<tag k="leisure" v="nature_reserve" />
		<tag k="name" v="Ulvenfjellet naturreservat" />
		<tag k="ssr:stedsnr" v="1079543" />
	</node>
	<node lat="60.32554026719473" lon="5.66632301438458" id="-74743">
		<tag k="fixme" v="consider boundary=protected_area and relevant protect_class if not nature reserve" />
		<tag k="leisure" v="nature_reserve" />
		<tag k="name" v="Hopslia naturreservat" />
		<tag k="ssr:stedsnr" v="1081033" />
	</node>
</osm>
