<?xml version="1.0" encoding="UTF-8"?>
<osm version="0.6" generator="osmapis">
	<node lat="60.30032222408791" lon="5.560475007114958" id="-71071">
		<tag k="highway" v="path" />
		<tag k="name" v="Vegaskiftet" />
		<tag k="ssr:stedsnr" v="248240" />
	</node>
	<node lat="60.270630551650086" lon="5.747761106759909" id="-71152">
		<tag k="highway" v="path" />
		<tag k="name" v="Engelistien" />
		<tag k="ssr:stedsnr" v="158699" />
	</node>
	<node lat="60.20808333480751" lon="5.431041665771623" id="-71176">
		<tag k="layer" v="-1" />
		<tag k="name" v="Skogafjellstunnelen" />
		<tag k="ssr:stedsnr" v="162927" />
		<tag k="tunnel" v="yes" />
	</node>
	<node lat="60.15303333751257" lon="5.394080563935546" id="-71177">
		<tag k="bridge" v="yes" />
		<tag k="layer" v="1" />
		<tag k="name" v="Mørkevåg" />
		<tag k="ssr:stedsnr" v="169222" />
	</node>
	<node lat="60.15925555097907" lon="5.366736106634486" id="-71231">
		<tag k="fixme" v="verify maritime location" />
		<tag k="mooring" v="yes" />
		<tag k="name" v="Gangstøa" />
		<tag k="place" v="locality" />
		<tag k="ssr:stedsnr" v="207942" />
	</node>
	<node lat="60.20105367160818" lon="5.848224498753847" id="-71291">
		<tag k="layer" v="-1" />
		<tag k="name" v="Kilen" />
		<tag k="ssr:stedsnr" v="226286" />
		<tag k="tunnel" v="yes" />
	</node>
	<node lat="60.27961388842943" lon="5.68003054922924" id="-71292">
		<tag k="bridge" v="yes" />
		<tag k="layer" v="1" />
		<tag k="name" v="Aadlandselva" />
		<tag k="ssr:stedsnr" v="229229" />
	</node>
	<node lat="60.26450833532246" lon="5.784616662774676" id="-71347">
		<tag k="highway" v="path" />
		<tag k="name" v="Bjønnsteg" />
		<tag k="ssr:stedsnr" v="279724" />
	</node>
	<node lat="60.20958055853475" lon="5.838124993160496" id="-71357">
		<tag k="name" v="Drageidskanalen" />
		<tag k="ssr:stedsnr" v="280183" />
		<tag k="waterway" v="canal" />
	</node>
	<node lat="60.25939444316269" lon="5.3868138964094125" id="-71393">
		<tag k="layer" v="-1" />
		<tag k="name" v="Lyshorntunnelen" />
		<tag k="ssr:stedsnr" v="284932" />
		<tag k="tunnel" v="yes" />
	</node>
	<node lat="60.20234722019701" lon="5.455349996258679" id="-71420">
		<tag k="bridge" v="yes" />
		<tag k="layer" v="1" />
		<tag k="name" v="Flåten" />
		<tag k="ssr:stedsnr" v="290228" />
	</node>
	<node lat="60.21980000382559" lon="5.386988881013219" id="-71517">
		<tag k="bridge" v="yes" />
		<tag k="layer" v="1" />
		<tag k="name" v="Nore Straumen" />
		<tag k="ssr:stedsnr" v="472229" />
	</node>
	<node lat="60.178036114294265" lon="5.362580564215385" id="-71518">
		<tag k="bridge" v="yes" />
		<tag k="layer" v="1" />
		<tag k="name" v="Hildershavn" />
		<tag k="ssr:stedsnr" v="472233" />
	</node>
	<node lat="60.19323888684723" lon="5.783300002276439" id="-71520">
		<tag k="bridge" v="yes" />
		<tag k="layer" v="1" />
		<tag k="name" v="Lona" />
		<tag k="ssr:stedsnr" v="472145" />
	</node>
	<node lat="60.193747224872205" lon="5.494286102504061" id="-71566">
		<tag k="bridge" v="yes" />
		<tag k="layer" v="1" />
		<tag k="name" v="Bøtre" />
		<tag k="ssr:stedsnr" v="350211" />
	</node>
	<node lat="60.18475000288998" lon="5.471308342005242" id="-71567">
		<tag k="bridge" v="yes" />
		<tag k="layer" v="1" />
		<tag k="name" v="Osøyro" />
		<tag k="ssr:stedsnr" v="350214" />
	</node>
	<node lat="60.25093933286573" lon="5.692769408122077" id="-71568">
		<tag k="layer" v="-1" />
		<tag k="name" v="Moshovdatunnelen" />
		<tag k="ssr:stedsnr" v="350812" />
		<tag k="tunnel" v="yes" />
	</node>
	<node lat="60.26575833645748" lon="5.862297226619995" id="-71711">
		<tag k="barrier" v="toll_booth" />
		<tag k="name" v="Stussekleiva" />
		<tag k="ssr:stedsnr" v="490858" />
	</node>
	<node lat="60.319063890834094" lon="5.835430554114091" id="-71772">
		<tag k="highway" v="path" />
		<tag k="name" v="Dyrasteghjellen" />
		<tag k="ssr:stedsnr" v="461402" />
	</node>
	<node lat="60.04304055655648" lon="5.711281828761318" id="-71835">
		<tag k="alt_name" v="Stussvikhovda" />
		<tag k="layer" v="-1" />
		<tag k="name" v="Stussvikhovdatunnelen" />
		<tag k="ssr:stedsnr" v="467702" />
		<tag k="tunnel" v="yes" />
	</node>
	<node lat="60.19173889105543" lon="5.421211118211446" id="-72152">
		<tag k="aeroway" v="airstrip" />
		<tag k="alt_name" v="Ulven flyplass" />
		<tag k="name" v="Os flyplass, Vaksinen" />
		<tag k="ssr:stedsnr" v="705555" />
	</node>
	<node lat="60.04960833003871" lon="5.701797223115396" id="-72203">
		<tag k="bridge" v="yes" />
		<tag k="layer" v="1" />
		<tag k="name" v="Lukksund" />
		<tag k="ssr:stedsnr" v="652798" />
	</node>
	<node lat="60.186113979848855" lon="5.449177952178061" id="-72245">
		<tag k="layer" v="-1" />
		<tag k="name" v="Liafjellstunnelen" />
		<tag k="ssr:stedsnr" v="688542" />
		<tag k="tunnel" v="yes" />
	</node>
	<node lat="60.2718944435581" lon="5.672508326717782" id="-72300">
		<tag k="bridge" v="yes" />
		<tag k="layer" v="1" />
		<tag k="name" v="Matlandselva" />
		<tag k="ssr:stedsnr" v="897147" />
	</node>
	<node lat="60.157841670401524" lon="5.404694435447573" id="-72301">
		<tag k="bridge" v="yes" />
		<tag k="layer" v="1" />
		<tag k="name" v="Storum" />
		<tag k="ssr:stedsnr" v="897233" />
	</node>
	<node lat="60.19351666909292" lon="5.740133331506007" id="-72521">
		<tag k="highway" v="path" />
		<tag k="name" v="Skarsvegen" />
		<tag k="ssr:stedsnr" v="826616" />
	</node>
	<node lat="60.19161944477352" lon="5.769997216769534" id="-72552">
		<tag k="bridge" v="yes" />
		<tag k="layer" v="1" />
		<tag k="name" v="Vassli" />
		<tag k="ssr:stedsnr" v="836182" />
	</node>
	<node lat="60.199958335131655" lon="5.87782777910918" id="-72635">
		<tag k="bridge" v="yes" />
		<tag k="layer" v="1" />
		<tag k="name" v="Tombre Austre" />
		<tag k="ssr:stedsnr" v="897212" />
	</node>
	<node lat="60.26459166328356" lon="5.802916672005737" id="-72699">
		<tag k="highway" v="path" />
		<tag k="name" v="Rotastegen" />
		<tag k="ssr:stedsnr" v="947697" />
	</node>
	<node lat="60.20553861516169" lon="5.593394467141029" id="-72732">
		<tag k="amenity" v="ferry_terminal" />
		<tag k="name" v="Venjaneset ferjekai" />
		<tag k="ssr:stedsnr" v="978588" />
	</node>
	<node lat="60.18909451336025" lon="5.445337100254986" id="-72780">
		<tag k="bridge" v="yes" />
		<tag k="layer" v="1" />
		<tag k="name" v="Mobergsbrua" />
		<tag k="ssr:stedsnr" v="21563" />
	</node>
	<node lat="60.28538698441442" lon="5.678999642894095" id="-72882">
		<tag k="alt_name" v="Kråkeskar;Kråkeskaret" />
		<tag k="layer" v="-1" />
		<tag k="name" v="Kråkeskartunnelen" />
		<tag k="ssr:stedsnr" v="44287" />
		<tag k="tunnel" v="yes" />
	</node>
	<node lat="60.14905278008432" lon="5.382952777164418" id="-72883">
		<tag k="bridge" v="yes" />
		<tag k="layer" v="1" />
		<tag k="name" v="Lepsøysundet" />
		<tag k="ssr:stedsnr" v="47244" />
	</node>
	<node lat="60.262130558676404" lon="5.562530552447888" id="-72884">
		<tag k="bridge" v="yes" />
		<tag k="layer" v="1" />
		<tag k="name" v="Lønningdal Nedre" />
		<tag k="ssr:stedsnr" v="229245" />
	</node>
	<node lat="60.169891667171036" lon="5.4436916654669325" id="-72885">
		<tag k="bridge" v="yes" />
		<tag k="layer" v="1" />
		<tag k="name" v="Trolldalen" />
		<tag k="ssr:stedsnr" v="229249" />
	</node>
	<node lat="60.14570000067586" lon="5.426691660139551" id="-73010">
		<tag k="amenity" v="ferry_terminal" />
		<tag k="name" v="Halhjem ferjekai" />
		<tag k="ssr:stedsnr" v="108234" />
	</node>
	<node lat="60.20845277699882" lon="5.537049994564619" id="-73011">
		<tag k="amenity" v="ferry_terminal" />
		<tag k="loc_name" v="Hattvik ferjekai" />
		<tag k="name" v="Hatvik ferjekai" />
		<tag k="ssr:stedsnr" v="108245" />
	</node>
	<node lat="60.232019445746786" lon="5.869313893588545" id="-73012">
		<tag k="bridge" v="yes" />
		<tag k="layer" v="1" />
		<tag k="name" v="Eide" />
		<tag k="ssr:stedsnr" v="108148" />
	</node>
	<node lat="60.3259416654796" lon="5.720422219021424" id="-73103">
		<tag k="ford" v="yes" />
		<tag k="name" v="Kjøpmannavadet" />
		<tag k="place" v="locality" />
		<tag k="ssr:stedsnr" v="158675" />
	</node>
	<node lat="60.27759166577006" lon="5.792116665086999" id="-73118">
		<tag k="highway" v="path" />
		<tag k="name" v="Våtestegen" />
		<tag k="ssr:stedsnr" v="158747" />
	</node>
	<node lat="60.237447225884765" lon="5.8333666638208355" id="-73143">
		<tag k="bridge" v="yes" />
		<tag k="layer" v="1" />
		<tag k="name" v="Holdhus" />
		<tag k="ssr:stedsnr" v="169132" />
	</node>
	<node lat="60.18079722622926" lon="5.607922220839872" id="-73365">
		<tag k="bridge" v="yes" />
		<tag k="layer" v="1" />
		<tag k="name" v="Skjørsandelv" />
		<tag k="ssr:stedsnr" v="290163" />
	</node>
	<node lat="60.25486666682077" lon="5.496116658815398" id="-73427">
		<tag k="landuse" v="industrial" />
		<tag k="name" v="Os El-verk" />
		<tag k="power" v="plant" />
		<tag k="ssr:stedsnr" v="341274" />
	</node>
	<node lat="60.26574999761916" lon="5.85666944673244" id="-73454">
		<tag k="highway" v="path" />
		<tag k="name" v="Kaldestegen" />
		<tag k="ssr:stedsnr" v="340488" />
	</node>
	<node lat="60.19634166331149" lon="5.794405559428768" id="-73495">
		<tag k="bridge" v="yes" />
		<tag k="layer" v="1" />
		<tag k="name" v="Henanger" />
		<tag k="ssr:stedsnr" v="350135" />
	</node>
	<node lat="60.27183611403241" lon="5.644022216818457" id="-73496">
		<tag k="bridge" v="yes" />
		<tag k="layer" v="1" />
		<tag k="name" v="Eide" />
		<tag k="ssr:stedsnr" v="350138" />
	</node>
	<node lat="60.303083331572566" lon="5.569041674902148" id="-73702">
		<tag k="ford" v="yes" />
		<tag k="name" v="Utløvadet" />
		<tag k="place" v="locality" />
		<tag k="ssr:stedsnr" v="522289" />
	</node>
	<node lat="60.232363886747535" lon="5.455888898051158" id="-73771">
		<tag k="bridge" v="yes" />
		<tag k="layer" v="1" />
		<tag k="name" v="Søfteland" />
		<tag k="ssr:stedsnr" v="533247" />
	</node>
	<node lat="60.17771389165154" lon="5.361386107420505" id="-73772">
		<tag k="bridge" v="yes" />
		<tag k="layer" v="1" />
		<tag k="name" v="Strøno" />
		<tag k="ssr:stedsnr" v="533248" />
	</node>
	<node lat="60.28367222668137" lon="5.935175005142393" id="-73773">
		<tag k="bridge" v="yes" />
		<tag k="layer" v="1" />
		<tag k="name" v="Bråthus" />
		<tag k="ssr:stedsnr" v="533148" />
	</node>
	<node lat="60.20329166563585" lon="5.412313895610538" id="-73869">
		<tag k="junction" v="yes" />
		<tag k="name" v="Åsaskiftet" />
		<tag k="place" v="locality" />
		<tag k="ssr:stedsnr" v="583265" />
	</node>
	<node lat="60.1234027794552" lon="5.7666249977079795" id="-73963">
		<tag k="bridge" v="yes" />
		<tag k="layer" v="1" />
		<tag k="name" v="Femanger" />
		<tag k="ssr:stedsnr" v="654144" />
	</node>
	<node lat="60.15895278153085" lon="5.6664861017343275" id="-74047">
		<tag k="bridge" v="yes" />
		<tag k="layer" v="1" />
		<tag k="name" v="Strandvik" />
		<tag k="ssr:stedsnr" v="715231" />
	</node>
	<node lat="60.18032777830774" lon="5.452122224042745" id="-74048">
		<tag k="bridge" v="yes" />
		<tag k="layer" v="1" />
		<tag k="name" v="Villelibrua" />
		<tag k="ssr:stedsnr" v="715256" />
	</node>
	<node lat="60.198591662432705" lon="5.487494436158249" id="-74049">
		<tag k="bridge" v="yes" />
		<tag k="layer" v="1" />
		<tag k="name" v="Valla" />
		<tag k="ssr:stedsnr" v="715258" />
	</node>
	<node lat="60.325042850451915" lon="5.718031641622639" id="-74174">
		<tag k="ford" v="yes" />
		<tag k="name" v="Bastavadet" />
		<tag k="place" v="locality" />
		<tag k="ssr:stedsnr" v="765631" />
	</node>
	<node lat="60.2006138905784" lon="5.8353777845318815" id="-74202">
		<tag k="bridge" v="yes" />
		<tag k="layer" v="1" />
		<tag k="name" v="Hjortedal" />
		<tag k="ssr:stedsnr" v="775131" />
	</node>
	<node lat="60.06944444825383" lon="5.758744447147551" id="-74203">
		<tag k="bridge" v="yes" />
		<tag k="layer" v="1" />
		<tag k="name" v="Grunnasund" />
		<tag k="ssr:stedsnr" v="775132" />
	</node>
	<node lat="60.15477222341483" lon="5.398683327716453" id="-74204">
		<tag k="bridge" v="yes" />
		<tag k="layer" v="1" />
		<tag k="name" v="Blindesund II" />
		<tag k="ssr:stedsnr" v="775220" />
	</node>
	<node lat="60.20843610818432" lon="5.44777777546887" id="-74264">
		<tag k="junction" v="yes" />
		<tag k="name" v="Ulvenskiftet" />
		<tag k="place" v="locality" />
		<tag k="ssr:stedsnr" v="826319" />
	</node>
	<node lat="60.272394447558234" lon="5.804700004398434" id="-74431">
		<tag k="highway" v="path" />
		<tag k="name" v="Bjønnsteg" />
		<tag k="ssr:stedsnr" v="886766" />
	</node>
	<node lat="60.09353333745842" lon="5.807027779809022" id="-74524">
		<tag k="highway" v="path" />
		<tag k="name" v="Krokvassvegen" />
		<tag k="ssr:stedsnr" v="947914" />
	</node>
	<node lat="60.25486110788543" lon="5.925422213843547" id="-74542">
		<tag k="bridge" v="yes" />
		<tag k="layer" v="1" />
		<tag k="name" v="Orraosen" />
		<tag k="ssr:stedsnr" v="958156" />
	</node>
	<node lat="60.22451944838331" lon="5.691961113648304" id="-74543">
		<tag k="bridge" v="yes" />
		<tag k="layer" v="1" />
		<tag k="name" v="Berge" />
		<tag k="ssr:stedsnr" v="958162" />
	</node>
	<node lat="60.153405557974445" lon="5.432483339387667" id="-74544">
		<tag k="bridge" v="yes" />
		<tag k="layer" v="1" />
		<tag k="name" v="Halhjem" />
		<tag k="ssr:stedsnr" v="958244" />
	</node>
	<node lat="60.260633333079454" lon="5.562600008511294" id="-74545">
		<tag k="bridge" v="yes" />
		<tag k="layer" v="1" />
		<tag k="name" v="Lønningdal" />
		<tag k="ssr:stedsnr" v="958251" />
	</node>
	<node lat="60.1476205088672" lon="5.741165915440416" id="-74850">
		<tag k="layer" v="-1" />
		<tag k="name" v="Baldersheimtunnelen" />
		<tag k="ssr:stedsnr" v="1079307" />
		<tag k="tunnel" v="yes" />
	</node>
	<node lat="60.18785942109017" lon="5.469859640760699" id="-74858">
		<tag k="amenity" v="parking" />
		<tag k="name" v="Giskavollen parkering" />
		<tag k="ssr:stedsnr" v="1082977" />
	</node>
</osm>
