<?xml version="1.0" encoding="UTF-8"?>
<osm version="0.6" generator="osmapis">
	<node lat="60.20206144767381" lon="5.633764785625889" id="-72353">
		<tag k="alt_name" v="Oppstad" />
		<tag k="fixme" v="consider place=hamlet" />
		<tag k="name" v="Øpstad" />
		<tag k="place" v="farm" />
		<tag k="ssr:stedsnr" v="4097" />
	</node>
	<node lat="60.05054999861123" lon="5.791150005531908" id="-72354">
		<tag k="name" v="Nystølen" />
		<tag k="place" v="farm" />
		<tag k="ssr:stedsnr" v="4320" />
	</node>
	<node lat="60.160514743782926" lon="5.6529993784397625" id="-72355">
		<tag k="fixme" v="consider place=hamlet" />
		<tag k="name" v="Kvåle" />
		<tag k="place" v="farm" />
		<tag k="ssr:stedsnr" v="4418" />
	</node>
	<node lat="60.17885000422914" lon="5.6882111053682936" id="-72360">
		<tag k="name" v="Vågen" />
		<tag k="place" v="farm" />
		<tag k="ssr:stedsnr" v="5062" />
	</node>
	<node lat="60.25125000214226" lon="5.606580560504684" id="-72368">
		<tag k="alt_name" v="Boga, øvre" />
		<tag k="name" v="Øvre Boga" />
		<tag k="place" v="farm" />
		<tag k="ssr:stedsnr" v="5318" />
	</node>
	<node lat="60.28341088708399" lon="5.9374038169749" id="-72376">
		<tag k="fixme" v="consider place=hamlet" />
		<tag k="name" v="Bratthus" />
		<tag k="place" v="farm" />
		<tag k="ssr:stedsnr" v="5917" />
	</node>
	<node lat="60.0565861143456" lon="5.782677778535726" id="-72387">
		<tag k="name" v="Sveå" />
		<tag k="place" v="farm" />
		<tag k="ssr:stedsnr" v="24138" />
	</node>
	<node lat="60.167330557575994" lon="5.402777768677787" id="-72404">
		<tag k="amenity" v="nursing_home" />
		<tag k="name" v="Ravneberghaugen" />
		<tag k="ssr:stedsnr" v="37358" />
	</node>
	<node lat="60.25057222377088" lon="5.617572214273623" id="-72427">
		<tag k="name" v="Nymark" />
		<tag k="place" v="farm" />
		<tag k="ssr:stedsnr" v="37961" />
	</node>
	<node lat="60.1885916658093" lon="5.486844439436574" id="-72436">
		<tag k="name" v="Solstrand" />
		<tag k="ssr:stedsnr" v="65068" />
		<tag k="tourism" v="hotel" />
	</node>
	<node lat="60.213058334449485" lon="5.823255548716535" id="-72439">
		<tag k="fixme" v="consider place=hamlet" />
		<tag k="name" v="Rennesvik" />
		<tag k="place" v="farm" />
		<tag k="ssr:stedsnr" v="65110" />
	</node>
	<node lat="60.16602500421344" lon="5.657100003323487" id="-72443">
		<tag k="name" v="Stølen" />
		<tag k="place" v="farm" />
		<tag k="ssr:stedsnr" v="65412" />
	</node>
	<node lat="60.192525391418215" lon="5.446445390715519" id="-72445">
		<tag k="name" v="Kuventræ" />
		<tag k="place" v="locality" />
		<tag k="ssr:stedsnr" v="65803" />
	</node>
	<node lat="60.20523619233173" lon="5.375840542986781" id="-72449">
		<tag k="fixme" v="consider place=hamlet" />
		<tag k="name" v="Salbuvika" />
		<tag k="place" v="farm" />
		<tag k="ssr:stedsnr" v="65762" />
	</node>
	<node lat="60.198740968866474" lon="5.479545501706283" id="-72465">
		<tag k="fixme" v="consider place=hamlet" />
		<tag k="name" v="Borgen" />
		<tag k="place" v="farm" />
		<tag k="ssr:stedsnr" v="247008" />
	</node>
	<node lat="60.24058055631037" lon="5.804916672161655" id="-72466">
		<tag k="name" v="Heimstad" />
		<tag k="place" v="farm" />
		<tag k="ssr:stedsnr" v="247034" />
	</node>
	<node lat="60.09747499839188" lon="5.795941659797814" id="-72476">
		<tag k="name" v="Skukkane" />
		<tag k="place" v="farm" />
		<tag k="ssr:stedsnr" v="247435" />
	</node>
	<node lat="60.09388629491275" lon="5.799582726848535" id="-72477">
		<tag k="fixme" v="consider place=hamlet" />
		<tag k="name" v="Lygre" />
		<tag k="place" v="farm" />
		<tag k="ssr:stedsnr" v="247437" />
	</node>
	<node lat="60.14872500023361" lon="5.791077771332406" id="-72479">
		<tag k="alt_name" v="Laugstølen" />
		<tag k="historic" v="shieling" />
		<tag k="name" v="Laugstøl" />
		<tag k="place" v="isolated_dwelling" />
		<tag k="ssr:stedsnr" v="247450" />
	</node>
	<node lat="60.17649650160921" lon="5.444773760005442" id="-72491">
		<tag k="fixme" v="consider place=hamlet" />
		<tag k="name" v="Moberglia" />
		<tag k="place" v="farm" />
		<tag k="ssr:stedsnr" v="247780" />
	</node>
	<node lat="60.166074773187404" lon="5.339687007550623" id="-72492">
		<tag k="fixme" v="consider place=hamlet" />
		<tag k="name" v="Nordstrøno" />
		<tag k="place" v="farm" />
		<tag k="ssr:stedsnr" v="247783" />
	</node>
	<node lat="60.207450000808215" lon="5.455327779201848" id="-72494">
		<tag k="name" v="Fagertun" />
		<tag k="place" v="farm" />
		<tag k="ssr:stedsnr" v="247750" />
	</node>
	<node lat="60.22344166773568" lon="5.3957444370220555" id="-72496">
		<tag k="name" v="Rindedal" />
		<tag k="place" v="farm" />
		<tag k="ssr:stedsnr" v="247828" />
	</node>
	<node lat="60.19648055491022" lon="5.486469453046716" id="-72509">
		<tag k="name" v="Holen" />
		<tag k="place" v="farm" />
		<tag k="ssr:stedsnr" v="98223" />
	</node>
	<node lat="60.238536114406266" lon="5.888783339444699" id="-72516">
		<tag k="name" v="Solbakken" />
		<tag k="place" v="farm" />
		<tag k="ssr:stedsnr" v="98273" />
	</node>
	<node lat="60.18924722446763" lon="5.468644450749174" id="-72517">
		<tag k="amenity" v="school" />
		<tag k="name" v="Os barneskule" />
		<tag k="old_name" v="Os skule;Os" />
		<tag k="ssr:stedsnr" v="98405" />
	</node>
	<node lat="60.182285793484425" lon="5.766004034198002" id="-72555">
		<tag k="fixme" v="consider place=hamlet" />
		<tag k="name" v="Sanddal" />
		<tag k="place" v="farm" />
		<tag k="ssr:stedsnr" v="248397" />
	</node>
	<node lat="60.19522632882535" lon="5.502234223476794" id="-72577">
		<tag k="fixme" v="consider place=hamlet" />
		<tag k="name" v="Klyva" />
		<tag k="place" v="farm" />
		<tag k="ssr:stedsnr" v="126118" />
	</node>
	<node lat="60.19310555761791" lon="5.500102783866102" id="-72578">
		<tag k="name" v="Moldegård" />
		<tag k="place" v="farm" />
		<tag k="ssr:stedsnr" v="126119" />
	</node>
	<node lat="60.183686114593726" lon="5.688769436294239" id="-72580">
		<tag k="name" v="Nymark" />
		<tag k="place" v="farm" />
		<tag k="ssr:stedsnr" v="126069" />
	</node>
	<node lat="60.18541555739861" lon="5.609721512215726" id="-72583">
		<tag k="fixme" v="consider place=hamlet" />
		<tag k="name" v="Litlli" />
		<tag k="place" v="farm" />
		<tag k="ssr:stedsnr" v="126090" />
	</node>
	<node lat="60.05801668291665" lon="5.716662889731768" id="-72585">
		<tag k="fixme" v="consider place=hamlet" />
		<tag k="name" v="Teiga" />
		<tag k="place" v="farm" />
		<tag k="ssr:stedsnr" v="126352" />
	</node>
	<node lat="60.192746735235154" lon="5.892003164791142" id="-72587">
		<tag k="alt_name" v="Mehus" />
		<tag k="fixme" v="consider place=hamlet" />
		<tag k="name" v="Medhus" />
		<tag k="place" v="farm" />
		<tag k="ssr:stedsnr" v="126517" />
	</node>
	<node lat="60.234402776699085" lon="5.745463887103938" id="-72615">
		<tag k="fixme" v="consider place=hamlet" />
		<tag k="name" v="Øvre Eikeland" />
		<tag k="place" v="farm" />
		<tag k="ssr:stedsnr" v="158503" />
	</node>
	<node lat="60.17679722252465" lon="5.772975007850585" id="-72625">
		<tag k="name" v="Norheim" />
		<tag k="place" v="farm" />
		<tag k="ssr:stedsnr" v="158603" />
	</node>
	<node lat="60.200842814592804" lon="5.48458353462371" id="-72658">
		<tag k="fixme" v="consider place=hamlet" />
		<tag k="name" v="Hjella" />
		<tag k="place" v="farm" />
		<tag k="ssr:stedsnr" v="186006" />
	</node>
	<node lat="60.21954842677917" lon="5.527949294998416" id="-72664">
		<tag k="name" v="Eide" />
		<tag k="place" v="hamlet" />
		<tag k="ssr:stedsnr" v="186044" />
	</node>
	<node lat="60.19481110905092" lon="5.637758327429022" id="-72666">
		<tag k="name" v="Ørnabrotet" />
		<tag k="place" v="locality" />
		<tag k="ssr:stedsnr" v="186104" />
	</node>
	<node lat="60.197288442832836" lon="5.476754744249181" id="-72669">
		<tag k="fixme" v="consider place=hamlet" />
		<tag k="name" v="Lunden" />
		<tag k="place" v="farm" />
		<tag k="ssr:stedsnr" v="186114" />
	</node>
	<node lat="60.162899996781384" lon="5.339802771970666" id="-72673">
		<tag k="name" v="Øyjorda" />
		<tag k="place" v="isolated_dwelling" />
		<tag k="ssr:stedsnr" v="186812" />
	</node>
	<node lat="60.192030327247906" lon="5.457703562576358" id="-72674">
		<tag k="fixme" v="consider place=hamlet" />
		<tag k="name" v="Kuven" />
		<tag k="place" v="farm" />
		<tag k="ssr:stedsnr" v="186815" />
	</node>
	<node lat="60.205897220813156" lon="5.442286115814765" id="-72714">
		<tag k="name" v="Vaktdal" />
		<tag k="place" v="farm" />
		<tag k="ssr:stedsnr" v="219302" />
	</node>
	<node lat="60.15951944811571" lon="5.664013883219537" id="-72749">
		<tag k="name" v="Åkre" />
		<tag k="place" v="farm" />
		<tag k="ssr:stedsnr" v="219885" />
	</node>
	<node lat="60.26075556002865" lon="5.514441668708625" id="-72751">
		<tag k="historic" v="shieling" />
		<tag k="name" v="Eikestølen" />
		<tag k="place" v="isolated_dwelling" />
		<tag k="ssr:stedsnr" v="220302" />
	</node>
	<node lat="60.239208332630604" lon="5.462116661517235" id="-72757">
		<tag k="fixme" v="consider place=hamlet" />
		<tag k="name" v="Sanden" />
		<tag k="place" v="farm" />
		<tag k="ssr:stedsnr" v="220376" />
	</node>
	<node lat="60.1968250001489" lon="5.353569440207539" id="-72766">
		<tag k="alt_name" v="Drange, yt" />
		<tag k="fixme" v="consider place=hamlet" />
		<tag k="name" v="Ytre Drange" />
		<tag k="place" v="farm" />
		<tag k="ssr:stedsnr" v="220472" />
	</node>
	<node lat="60.152527777178754" lon="5.636294439553921" id="-72791">
		<tag k="name" v="Heimdal" />
		<tag k="place" v="farm" />
		<tag k="ssr:stedsnr" v="247366" />
	</node>
	<node lat="60.15978153555994" lon="5.663934646110578" id="-72792">
		<tag k="fixme" v="consider place=hamlet" />
		<tag k="name" v="Åkre" />
		<tag k="place" v="farm" />
		<tag k="ssr:stedsnr" v="247368" />
	</node>
	<node lat="60.241074491171496" lon="5.4503272995872925" id="-72794">
		<tag k="fixme" v="consider place=hamlet" />
		<tag k="name" v="Sæla" />
		<tag k="place" v="farm" />
		<tag k="ssr:stedsnr" v="247807" />
	</node>
	<node lat="60.17905555281164" lon="5.605252771249397" id="-72797">
		<tag k="name" v="Fagerheim" />
		<tag k="place" v="farm" />
		<tag k="ssr:stedsnr" v="248070" />
	</node>
	<node lat="60.178900993708915" lon="5.744386455702572" id="-72800">
		<tag k="fixme" v="consider place=hamlet" />
		<tag k="name" v="Engjavik" />
		<tag k="place" v="farm" />
		<tag k="ssr:stedsnr" v="248399" />
	</node>
	<node lat="60.19477500367524" lon="5.496702786110015" id="-72830">
		<tag k="name" v="Bøtræet" />
		<tag k="place" v="farm" />
		<tag k="ssr:stedsnr" v="280202" />
	</node>
	<node lat="60.18951388750713" lon="5.484047229225378" id="-72832">
		<tag k="name" v="Hauge" />
		<tag k="place" v="farm" />
		<tag k="ssr:stedsnr" v="280207" />
	</node>
	<node lat="60.14196111120694" lon="5.764111104758499" id="-72939">
		<tag k="name" v="Brattebø" />
		<tag k="place" v="farm" />
		<tag k="ssr:stedsnr" v="462589" />
	</node>
	<node lat="60.33552555758572" lon="5.734819838430386" id="-72944">
		<tag k="historic" v="shieling" />
		<tag k="name" v="Altasetret" />
		<tag k="place" v="isolated_dwelling" />
		<tag k="ssr:stedsnr" v="462668" />
	</node>
	<node lat="60.25444999927881" lon="5.622741665529056" id="-72955">
		<tag k="name" v="Åsen" />
		<tag k="place" v="farm" />
		<tag k="ssr:stedsnr" v="462937" />
	</node>
	<node lat="60.21410238002841" lon="5.639672417832155" id="-72959">
		<tag k="alt_name" v="Gjerdevik" />
		<tag k="name" v="Gjerdavik" />
		<tag k="place" v="hamlet" />
		<tag k="ssr:stedsnr" v="307001" />
	</node>
	<node lat="60.085263888201915" lon="5.803352781781544" id="-72960">
		<tag k="name" v="Skjelevik" />
		<tag k="place" v="isolated_dwelling" />
		<tag k="ssr:stedsnr" v="307313" />
	</node>
	<node lat="60.085713884917176" lon="5.748458328593264" id="-72964">
		<tag k="name" v="Fjellstad" />
		<tag k="place" v="farm" />
		<tag k="ssr:stedsnr" v="307468" />
	</node>
	<node lat="60.275310641651366" lon="5.595281886285806" id="-72968">
		<tag k="fixme" v="consider place=hamlet" />
		<tag k="name" v="Bogstranda" />
		<tag k="place" v="farm" />
		<tag k="ssr:stedsnr" v="308264" />
	</node>
	<node lat="60.16143816982859" lon="5.446244274193209" id="-72980">
		<tag k="fixme" v="consider place=hamlet" />
		<tag k="name" v="Lunde" />
		<tag k="place" v="farm" />
		<tag k="ssr:stedsnr" v="308948" />
	</node>
	<node lat="60.237197218514986" lon="5.598986104540713" id="-72993">
		<tag k="name" v="Holsund" />
		<tag k="place" v="farm" />
		<tag k="ssr:stedsnr" v="328907" />
	</node>
	<node lat="60.215769447391956" lon="5.480074992163165" id="-73008">
		<tag k="historic" v="shieling" />
		<tag k="name" v="Botnastølen" />
		<tag k="place" v="isolated_dwelling" />
		<tag k="ssr:stedsnr" v="340360" />
	</node>
	<node lat="60.2436305580377" lon="5.835627774267665" id="-73017">
		<tag k="fixme" v="consider place=hamlet" />
		<tag k="name" v="Haugarvoll" />
		<tag k="place" v="farm" />
		<tag k="ssr:stedsnr" v="340451" />
	</node>
	<node lat="60.191322218051965" lon="5.491011119082947" id="-73037">
		<tag k="name" v="Midtbø" />
		<tag k="place" v="farm" />
		<tag k="ssr:stedsnr" v="341292" />
	</node>
	<node lat="60.24526816440349" lon="5.719704859756437" id="-73053">
		<tag k="fixme" v="consider place=hamlet" />
		<tag k="name" v="Helland" />
		<tag k="place" v="farm" />
		<tag k="ssr:stedsnr" v="368056" />
	</node>
	<node lat="60.216295101173266" lon="5.4406522527237975" id="-73062">
		<tag k="fixme" v="consider place=hamlet" />
		<tag k="name" v="Hetlefloten" />
		<tag k="place" v="farm" />
		<tag k="ssr:stedsnr" v="368877" />
	</node>
	<node lat="60.31548055677343" lon="5.724986102534089" id="-73068">
		<tag k="historic" v="shieling" />
		<tag k="name" v="Ådlandssetret" />
		<tag k="place" v="isolated_dwelling" />
		<tag k="ssr:stedsnr" v="369225" />
	</node>
	<node lat="60.2689750033355" lon="5.580697216792861" id="-73070">
		<tag k="name" v="Bogavika" />
		<tag k="place" v="farm" />
		<tag k="ssr:stedsnr" v="369270" />
	</node>
	<node lat="60.14125000069498" lon="5.758813887925972" id="-73072">
		<tag k="name" v="Solvang" />
		<tag k="place" v="farm" />
		<tag k="ssr:stedsnr" v="369416" />
	</node>
	<node lat="60.259881015639415" lon="5.631095445768571" id="-73105">
		<tag k="alt_name" v="Samnøy ytre" />
		<tag k="fixme" v="consider place=hamlet" />
		<tag k="name" v="Ytre Samnøy" />
		<tag k="place" v="farm" />
		<tag k="ssr:stedsnr" v="401314" />
	</node>
	<node lat="60.240763886132704" lon="5.85165833740722" id="-73106">
		<tag k="name" v="Paradishaugen" />
		<tag k="place" v="farm" />
		<tag k="ssr:stedsnr" v="401316" />
	</node>
	<node lat="60.198700002604056" lon="5.441322217851074" id="-73159">
		<tag k="name" v="Kolskogen" />
		<tag k="place" v="quarter" />
		<tag k="ssr:stedsnr" v="421917" />
	</node>
	<node lat="60.238742360018705" lon="5.8132761260953485" id="-73164">
		<tag k="name" v="Rødo" />
		<tag k="place" v="hamlet" />
		<tag k="ssr:stedsnr" v="490048" />
	</node>
	<node lat="60.06774444287026" lon="5.715888896915684" id="-73167">
		<tag k="alt_name" v="Synninga" />
		<tag k="name" v="Syninga" />
		<tag k="place" v="farm" />
		<tag k="ssr:stedsnr" v="490255" />
	</node>
	<node lat="60.27833610773885" lon="5.601200002037243" id="-73169">
		<tag k="name" v="Sørbakken" />
		<tag k="place" v="farm" />
		<tag k="ssr:stedsnr" v="490284" />
	</node>
	<node lat="60.235615604572324" lon="5.547152881049324" id="-73176">
		<tag k="fixme" v="consider place=hamlet" />
		<tag k="name" v="Møs" />
		<tag k="place" v="farm" />
		<tag k="ssr:stedsnr" v="429055" />
	</node>
	<node lat="60.21084514950951" lon="5.838640474837918" id="-73179">
		<tag k="fixme" v="consider place=hamlet" />
		<tag k="name" v="Drageid" />
		<tag k="place" v="farm" />
		<tag k="ssr:stedsnr" v="429119" />
	</node>
	<node lat="60.21357777710577" lon="5.837925008540517" id="-73180">
		<tag k="name" v="Skåra" />
		<tag k="place" v="farm" />
		<tag k="ssr:stedsnr" v="429120" />
	</node>
	<node lat="60.16619203136805" lon="5.419372228852591" id="-73181">
		<tag k="fixme" v="consider place=hamlet" />
		<tag k="name" v="Storom" />
		<tag k="place" v="farm" />
		<tag k="ssr:stedsnr" v="490795" />
	</node>
	<node lat="60.16421944518807" lon="5.656200004855328" id="-73183">
		<tag k="name" v="Heia" />
		<tag k="place" v="farm" />
		<tag k="ssr:stedsnr" v="429414" />
	</node>
	<node lat="60.17734999654677" lon="5.403074994519579" id="-73188">
		<tag k="name" v="Hagavik" />
		<tag k="place" v="farm" />
		<tag k="ssr:stedsnr" v="429812" />
	</node>
	<node lat="60.26399273662079" lon="5.839902581860026" id="-73197">
		<tag k="alt_name" v="Hammersland" />
		<tag k="fixme" v="consider place=hamlet" />
		<tag k="name" v="Hammarland" />
		<tag k="place" v="farm" />
		<tag k="ssr:stedsnr" v="430326" />
	</node>
	<node lat="60.29169722137337" lon="5.925674992285668" id="-73208">
		<tag k="alt_name" v="Tveita, in;Tveita, indre" />
		<tag k="name" v="Indre Tveita" />
		<tag k="place" v="farm" />
		<tag k="ssr:stedsnr" v="430957" />
	</node>
	<node lat="60.25217499916371" lon="5.59734444335089" id="-73209">
		<tag k="alt_name" v="Boga, nedre" />
		<tag k="name" v="Nedre Boga" />
		<tag k="place" v="farm" />
		<tag k="ssr:stedsnr" v="491351" />
	</node>
	<node lat="60.22630374841086" lon="5.685810813429128" id="-73216">
		<tag k="name" v="Kvåle" />
		<tag k="place" v="farm" />
		<tag k="ssr:stedsnr" v="449246" />
	</node>
	<node lat="60.258311759196694" lon="5.62583310351471" id="-73217">
		<tag k="fixme" v="consider place=hamlet" />
		<tag k="name" v="Rosvoll" />
		<tag k="place" v="farm" />
		<tag k="ssr:stedsnr" v="449382" />
	</node>
	<node lat="60.05095277463352" lon="5.749905557703586" id="-73218">
		<tag k="fixme" v="consider place=hamlet" />
		<tag k="name" v="Øvrevågen" />
		<tag k="place" v="farm" />
		<tag k="ssr:stedsnr" v="672290" />
	</node>
	<node lat="60.184788888568356" lon="5.409497215851649" id="-73220">
		<tag k="name" v="Hjorthaugen" />
		<tag k="place" v="farm" />
		<tag k="ssr:stedsnr" v="671795" />
	</node>
	<node lat="60.21865050685799" lon="5.386690867447187" id="-73221">
		<tag k="fixme" v="consider place=hamlet" />
		<tag k="name" v="Sørstraumen" />
		<tag k="place" v="farm" />
		<tag k="ssr:stedsnr" v="671848" />
	</node>
	<node lat="60.201292781467366" lon="5.628721088854757" id="-73225">
		<tag k="fixme" v="consider place=hamlet" />
		<tag k="name" v="Håland" />
		<tag k="place" v="farm" />
		<tag k="ssr:stedsnr" v="672092" />
	</node>
	<node lat="60.22231944111295" lon="5.527880557989603" id="-73226">
		<tag k="name" v="Hegglandstræ" />
		<tag k="place" v="farm" />
		<tag k="ssr:stedsnr" v="672048" />
	</node>
	<node lat="60.24265237073527" lon="5.84642963308306" id="-73229">
		<tag k="fixme" v="consider place=hamlet" />
		<tag k="name" v="Berhovda" />
		<tag k="place" v="farm" />
		<tag k="ssr:stedsnr" v="672671" />
	</node>
	<node lat="60.24264444301013" lon="5.917175008921523" id="-73230">
		<tag k="name" v="Kvernnes" />
		<tag k="place" v="farm" />
		<tag k="ssr:stedsnr" v="672676" />
	</node>
	<node lat="60.157588924365804" lon="5.740696481290193" id="-73231">
		<tag k="fixme" v="consider place=hamlet" />
		<tag k="name" v="Selsvoll" />
		<tag k="place" v="farm" />
		<tag k="ssr:stedsnr" v="672379" />
	</node>
	<node lat="60.161966176005635" lon="5.654349772362184" id="-73233">
		<tag k="fixme" v="consider place=hamlet" />
		<tag k="name" v="Store Vik" />
		<tag k="place" v="farm" />
		<tag k="ssr:stedsnr" v="672354" />
	</node>
	<node lat="60.167638889285016" lon="5.4407722198217545" id="-73241">
		<tag k="name" v="Tuven" />
		<tag k="place" v="farm" />
		<tag k="ssr:stedsnr" v="672798" />
	</node>
	<node lat="60.250470488364826" lon="5.443957806310284" id="-73245">
		<tag k="fixme" v="consider place=hamlet" />
		<tag k="name" v="Tømmernes" />
		<tag k="place" v="farm" />
		<tag k="ssr:stedsnr" v="672992" />
	</node>
	<node lat="60.23643611514268" lon="5.7514722206823095" id="-73254">
		<tag k="fixme" v="consider place=hamlet" />
		<tag k="name" v="Nedre Eikeland" />
		<tag k="place" v="farm" />
		<tag k="ssr:stedsnr" v="461512" />
	</node>
	<node lat="60.260171847424616" lon="5.861633404965165" id="-73262">
		<tag k="fixme" v="consider place=hamlet" />
		<tag k="name" v="Gjøn" />
		<tag k="place" v="farm" />
		<tag k="ssr:stedsnr" v="673843" />
	</node>
	<node lat="60.26629999960621" lon="5.923488895054802" id="-73266">
		<tag k="historic" v="shieling" />
		<tag k="name" v="Støna" />
		<tag k="place" v="isolated_dwelling" />
		<tag k="ssr:stedsnr" v="673869" />
	</node>
	<node lat="60.25145833706708" lon="5.863863882169668" id="-73284">
		<tag k="fixme" v="consider place=hamlet" />
		<tag k="name" v="Nerhovda" />
		<tag k="place" v="farm" />
		<tag k="ssr:stedsnr" v="673803" />
	</node>
	<node lat="60.23955555696398" lon="5.492694435964299" id="-73298">
		<tag k="historic" v="shieling" />
		<tag k="name" v="Stokkedalssetra" />
		<tag k="place" v="isolated_dwelling" />
		<tag k="ssr:stedsnr" v="462475" />
	</node>
	<node lat="60.25285488557414" lon="5.600209398834174" id="-73312">
		<tag k="name" v="Boga" />
		<tag k="place" v="hamlet" />
		<tag k="ssr:stedsnr" v="467262" />
	</node>
	<node lat="60.227186316159006" lon="5.682180397033203" id="-73322">
		<tag k="alt_name" v="Bakke" />
		<tag k="fixme" v="consider place=hamlet" />
		<tag k="name" v="Bakka" />
		<tag k="place" v="farm" />
		<tag k="ssr:stedsnr" v="490031" />
	</node>
	<node lat="60.263355551633765" lon="5.573275000696076" id="-73336">
		<tag k="name" v="Sandbrekka" />
		<tag k="place" v="farm" />
		<tag k="ssr:stedsnr" v="491311" />
	</node>
	<node lat="60.087936113121195" lon="5.7502944471024175" id="-73344">
		<tag k="name" v="Storebotn" />
		<tag k="place" v="farm" />
		<tag k="ssr:stedsnr" v="510156" />
	</node>
	<node lat="60.22780277506224" lon="5.537702779202133" id="-73394">
		<tag k="amenity" v="school" />
		<tag k="name" v="Hegglandsdalen barneskule" />
		<tag k="old_name" v="Hegglandsdalen" />
		<tag k="ssr:stedsnr" v="523018" />
	</node>
	<node lat="60.16764167025393" lon="5.430316671218233" id="-73403">
		<tag k="name" v="Tuen" />
		<tag k="place" v="hamlet" />
		<tag k="ssr:stedsnr" v="523414" />
	</node>
	<node lat="60.210980558669" lon="5.410769443031941" id="-73404">
		<tag k="name" v="Åsen" />
		<tag k="place" v="farm" />
		<tag k="ssr:stedsnr" v="523306" />
	</node>
	<node lat="60.195905552444344" lon="5.636563882551908" id="-73418">
		<tag k="name" v="Ågotstølen" />
		<tag k="place" v="locality" />
		<tag k="ssr:stedsnr" v="550106" />
	</node>
	<node lat="60.1932449420625" lon="5.483858363292913" id="-73419">
		<tag k="fixme" v="consider place=hamlet" />
		<tag k="name" v="Lyssand" />
		<tag k="place" v="farm" />
		<tag k="ssr:stedsnr" v="550127" />
	</node>
	<node lat="60.14494359280652" lon="5.756249600804878" id="-73429">
		<tag k="fixme" v="consider place=hamlet" />
		<tag k="name" v="Kleppe" />
		<tag k="place" v="farm" />
		<tag k="ssr:stedsnr" v="550465" />
	</node>
	<node lat="60.18313119795978" lon="5.452776864233393" id="-73433">
		<tag k="fixme" v="consider place=hamlet" />
		<tag k="name" v="Ytre Moberg" />
		<tag k="place" v="farm" />
		<tag k="ssr:stedsnr" v="550805" />
	</node>
	<node lat="60.23803055652081" lon="5.452849998157617" id="-73435">
		<tag k="name" v="Syfteland" />
		<tag k="place" v="village" />
		<tag k="ssr:stedsnr" v="550822" />
	</node>
	<node lat="60.148652781537486" lon="5.429341673548399" id="-73438">
		<tag k="alt_name" v="Halhjem" />
		<tag k="fixme" v="consider place=suburb, village or hamlet" />
		<tag k="name" v="Haljem" />
		<tag k="place" v="quarter" />
		<tag k="ssr:stedsnr" v="550997" />
	</node>
	<node lat="60.270780891196495" lon="5.669279311635828" id="-73443">
		<tag k="fixme" v="consider place=hamlet" />
		<tag k="name" v="Matland" />
		<tag k="place" v="farm" />
		<tag k="ssr:stedsnr" v="551298" />
	</node>
	<node lat="60.23233226669612" lon="5.8986103681441655" id="-73445">
		<tag k="fixme" v="consider place=hamlet" />
		<tag k="name" v="Tveitnes" />
		<tag k="place" v="farm" />
		<tag k="ssr:stedsnr" v="551746" />
	</node>
	<node lat="60.27766388510568" lon="5.887677773730836" id="-73446">
		<tag k="alt_name" v="Nerhovdasete" />
		<tag k="historic" v="shieling" />
		<tag k="name" v="Nerhovdasetret" />
		<tag k="place" v="isolated_dwelling" />
		<tag k="ssr:stedsnr" v="551902" />
	</node>
	<node lat="60.25024147789618" lon="5.882961394907063" id="-73448">
		<tag k="fixme" v="consider place=hamlet" />
		<tag k="name" v="Åse" />
		<tag k="place" v="farm" />
		<tag k="ssr:stedsnr" v="551823" />
	</node>
	<node lat="60.251027201639964" lon="5.4412915136239475" id="-73450">
		<tag k="fixme" v="consider place=hamlet" />
		<tag k="name" v="Røykenes" />
		<tag k="place" v="farm" />
		<tag k="ssr:stedsnr" v="552000" />
	</node>
	<node lat="60.245272221020294" lon="5.717894452776785" id="-73453">
		<tag k="name" v="Fredheim" />
		<tag k="place" v="farm" />
		<tag k="ssr:stedsnr" v="692289" />
	</node>
	<node lat="60.19561401172256" lon="5.450088073026576" id="-73521">
		<tag k="amenity" v="school" />
		<tag k="name" v="Kuventræ barneskule" />
		<tag k="ssr:stedsnr" v="587515" />
	</node>
	<node lat="60.20724166315571" lon="5.631030548617999" id="-73526">
		<tag k="name" v="Flatebø" />
		<tag k="place" v="farm" />
		<tag k="ssr:stedsnr" v="611104" />
	</node>
	<node lat="60.208627774143444" lon="5.632894450302717" id="-73527">
		<tag k="name" v="Fagerli" />
		<tag k="place" v="farm" />
		<tag k="ssr:stedsnr" v="611106" />
	</node>
	<node lat="60.24518333631589" lon="5.915025007317579" id="-73538">
		<tag k="name" v="Kleiva" />
		<tag k="place" v="farm" />
		<tag k="ssr:stedsnr" v="611696" />
	</node>
	<node lat="60.23638300264298" lon="5.90910296289506" id="-73540">
		<tag k="fixme" v="consider place=hamlet" />
		<tag k="name" v="Tegland" />
		<tag k="place" v="farm" />
		<tag k="ssr:stedsnr" v="611749" />
	</node>
	<node lat="60.18360417101052" lon="5.394598131537357" id="-73541">
		<tag k="fixme" v="consider place=hamlet" />
		<tag k="name" v="Hovland" />
		<tag k="place" v="farm" />
		<tag k="ssr:stedsnr" v="611820" />
	</node>
	<node lat="60.28155555833563" lon="5.935677784626438" id="-73546">
		<tag k="alt_name" v="Bolstad, øvre" />
		<tag k="name" v="Øvre Bolstad" />
		<tag k="place" v="farm" />
		<tag k="ssr:stedsnr" v="611915" />
	</node>
	<node lat="60.274758333613" lon="5.938233330302834" id="-73556">
		<tag k="alt_name" v="Bolstad, nedre;Bolstad" />
		<tag k="name" v="Nedre Bolstad" />
		<tag k="place" v="farm" />
		<tag k="ssr:stedsnr" v="612908" />
	</node>
	<node lat="60.147463885760615" lon="5.374925002263766" id="-73602">
		<tag k="amenity" v="school" />
		<tag k="name" v="Søre Øyane barneskule" />
		<tag k="old_name" v="Søre Øyane skule" />
		<tag k="ssr:stedsnr" v="705034" />
	</node>
	<node lat="60.26257222587626" lon="5.49950555641621" id="-73619">
		<tag k="historic" v="shieling" />
		<tag k="name" v="Maristølen" />
		<tag k="place" v="isolated_dwelling" />
		<tag k="ssr:stedsnr" v="705356" />
	</node>
	<node lat="60.236622218289604" lon="5.4501777718655875" id="-73620">
		<tag k="amenity" v="school" />
		<tag k="name" v="Søfteland skule" />
		<tag k="ssr:stedsnr" v="705357" />
	</node>
	<node lat="60.287419440521724" lon="5.552400001108052" id="-73653">
		<tag k="name" v="Øvredal" />
		<tag k="place" v="farm" />
		<tag k="ssr:stedsnr" v="643327" />
	</node>
	<node lat="60.18835277875061" lon="5.469786107898645" id="-73674">
		<tag k="name" v="Os" />
		<tag k="place" v="farm" />
		<tag k="ssr:stedsnr" v="644424" />
	</node>
	<node lat="60.18956388941715" lon="5.350586103150664" id="-73677">
		<tag k="fixme" v="consider place=hamlet" />
		<tag k="name" v="Balland" />
		<tag k="place" v="farm" />
		<tag k="ssr:stedsnr" v="644482" />
	</node>
	<node lat="60.22847778112026" lon="5.699316674645249" id="-73687">
		<tag k="name" v="Vikane" />
		<tag k="place" v="farm" />
		<tag k="ssr:stedsnr" v="672020" />
	</node>
	<node lat="60.191214045305195" lon="5.762945506918696" id="-73688">
		<tag k="fixme" v="consider place=hamlet" />
		<tag k="name" v="Sævareid" />
		<tag k="place" v="farm" />
		<tag k="ssr:stedsnr" v="672069" />
	</node>
	<node lat="60.19695317941229" lon="5.483160446114548" id="-73693">
		<tag k="fixme" v="consider place=hamlet" />
		<tag k="name" v="Valla" />
		<tag k="place" v="farm" />
		<tag k="ssr:stedsnr" v="672111" />
	</node>
	<node lat="60.239661110836366" lon="5.599230553100088" id="-73695">
		<tag k="name" v="Minde" />
		<tag k="place" v="farm" />
		<tag k="ssr:stedsnr" v="672184" />
	</node>
	<node lat="60.0590382807826" lon="5.750718359645836" id="-73697">
		<tag k="alt_name" v="Nedrevågen" />
		<tag k="fixme" v="consider place=hamlet" />
		<tag k="name" v="Nedrevåg" />
		<tag k="place" v="farm" />
		<tag k="ssr:stedsnr" v="672309" />
	</node>
	<node lat="60.10310905084826" lon="5.730526940508665" id="-73706">
		<tag k="fixme" v="consider place=hamlet" />
		<tag k="name" v="Hjartnes" />
		<tag k="place" v="farm" />
		<tag k="ssr:stedsnr" v="672421" />
	</node>
	<node lat="60.15628888623391" lon="5.648494440851666" id="-73709">
		<tag k="alt_name" v="Rauvoll" />
		<tag k="name" v="Raudvoll" />
		<tag k="place" v="farm" />
		<tag k="ssr:stedsnr" v="672368" />
	</node>
	<node lat="60.24504381228668" lon="5.456377965345802" id="-73717">
		<tag k="fixme" v="consider place=hamlet" />
		<tag k="name" v="Haukeland" />
		<tag k="place" v="farm" />
		<tag k="ssr:stedsnr" v="672835" />
	</node>
	<node lat="60.23368333256055" lon="5.44115833857386" id="-73718">
		<tag k="name" v="Grønli" />
		<tag k="place" v="isolated_dwelling" />
		<tag k="ssr:stedsnr" v="672872" />
	</node>
	<node lat="60.267382428018585" lon="5.557235695362998" id="-73719">
		<tag k="fixme" v="consider place=hamlet" />
		<tag k="name" v="Løyningdalen" />
		<tag k="place" v="farm" />
		<tag k="ssr:stedsnr" v="673309" />
	</node>
	<node lat="60.26809769724408" lon="5.630206495304475" id="-73720">
		<tag k="fixme" v="consider place=hamlet" />
		<tag k="name" v="Gongstøa" />
		<tag k="place" v="farm" />
		<tag k="ssr:stedsnr" v="673310" />
	</node>
	<node lat="60.282291668997175" lon="5.607250006005304" id="-73722">
		<tag k="name" v="Ospeneset" />
		<tag k="place" v="farm" />
		<tag k="ssr:stedsnr" v="673318" />
	</node>
	<node lat="60.284897220001795" lon="5.547558334656998" id="-73736">
		<tag k="name" v="Træ" />
		<tag k="place" v="farm" />
		<tag k="ssr:stedsnr" v="704316" />
	</node>
	<node lat="60.29303333649384" lon="5.557900003093745" id="-73738">
		<tag k="historic" v="shieling" />
		<tag k="name" v="Stormyrstølen" />
		<tag k="place" v="isolated_dwelling" />
		<tag k="ssr:stedsnr" v="704320" />
	</node>
	<node lat="60.27864722641699" lon="5.601530547871857" id="-73757">
		<tag k="name" v="Sørbakken" />
		<tag k="place" v="farm" />
		<tag k="ssr:stedsnr" v="705018" />
	</node>
	<node lat="60.19851944094492" lon="5.480286117514368" id="-73762">
		<tag k="name" v="Borgen" />
		<tag k="place" v="farm" />
		<tag k="ssr:stedsnr" v="705416" />
	</node>
	<node lat="60.180105558430355" lon="5.392613880057299" id="-73764">
		<tag k="amenity" v="hospital" />
		<tag k="name" v="Kysthospitalet" />
		<tag k="ssr:stedsnr" v="705432" />
	</node>
	<node lat="60.18392222650114" lon="5.392933326088413" id="-73765">
		<tag k="name" v="Hovland" />
		<tag k="place" v="farm" />
		<tag k="ssr:stedsnr" v="705445" />
	</node>
	<node lat="60.21910278013838" lon="5.45046667057455" id="-73767">
		<tag k="name" v="Træet" />
		<tag k="place" v="farm" />
		<tag k="ssr:stedsnr" v="705361" />
	</node>
	<node lat="60.23968055961478" lon="5.543724995481667" id="-73768">
		<tag k="historic" v="shieling" />
		<tag k="name" v="Høgestølen" />
		<tag k="place" v="isolated_dwelling" />
		<tag k="ssr:stedsnr" v="705378" />
	</node>
	<node lat="60.14601491264522" lon="5.391357341337312" id="-73780">
		<tag k="name" v="Munkholmen" />
		<tag k="place" v="farm" />
		<tag k="ssr:stedsnr" v="897331" />
	</node>
	<node lat="60.22068629237055" lon="5.391882628260343" id="-73791">
		<tag k="fixme" v="consider place=hamlet" />
		<tag k="name" v="Sjøbøen" />
		<tag k="place" v="farm" />
		<tag k="ssr:stedsnr" v="732845" />
	</node>
	<node lat="60.24408941589762" lon="5.563278931166789" id="-73801">
		<tag k="name" v="Rød" />
		<tag k="place" v="hamlet" />
		<tag k="ssr:stedsnr" v="733194" />
	</node>
	<node lat="60.2857333342485" lon="5.611419447509155" id="-73805">
		<tag k="name" v="Ospevika" />
		<tag k="place" v="farm" />
		<tag k="ssr:stedsnr" v="733248" />
	</node>
	<node lat="60.071644796581765" lon="5.716354177589037" id="-73807">
		<tag k="alt_name" v="Nesbjørneset" />
		<tag k="fixme" v="consider place=hamlet" />
		<tag k="name" v="Nesbjørgneset" />
		<tag k="place" v="farm" />
		<tag k="ssr:stedsnr" v="733293" />
	</node>
	<node lat="60.12327264800646" lon="5.754691503649801" id="-73811">
		<tag k="fixme" v="consider place=hamlet" />
		<tag k="name" v="Skår" />
		<tag k="place" v="farm" />
		<tag k="ssr:stedsnr" v="733451" />
	</node>
	<node lat="60.22207777359685" lon="5.852583338043809" id="-73815">
		<tag k="fixme" v="consider place=hamlet" />
		<tag k="name" v="Bjørndal" />
		<tag k="place" v="farm" />
		<tag k="ssr:stedsnr" v="733701" />
	</node>
	<node lat="60.266808329873996" lon="5.666244453354868" id="-73827">
		<tag k="name" v="Leite" />
		<tag k="place" v="farm" />
		<tag k="ssr:stedsnr" v="752355" />
	</node>
	<node lat="60.21188611513324" lon="5.541902772006329" id="-73835">
		<tag k="name" v="Kilen" />
		<tag k="place" v="locality" />
		<tag k="ssr:stedsnr" v="753865" />
	</node>
	<node lat="60.19220555604219" lon="5.895091661269042" id="-73856">
		<tag k="name" v="Uglehus" />
		<tag k="place" v="farm" />
		<tag k="ssr:stedsnr" v="765308" />
	</node>
	<node lat="60.176888886052964" lon="5.408533341723456" id="-73885">
		<tag k="name" v="Skeie" />
		<tag k="place" v="farm" />
		<tag k="ssr:stedsnr" v="766376" />
	</node>
	<node lat="60.141802773416984" lon="5.365863892074999" id="-73891">
		<tag k="name" v="Sundøyhagen" />
		<tag k="place" v="farm" />
		<tag k="ssr:stedsnr" v="766412" />
	</node>
	<node lat="60.194240857732666" lon="5.49265255989608" id="-73899">
		<tag k="fixme" v="consider place=hamlet" />
		<tag k="name" v="Bø" />
		<tag k="place" v="farm" />
		<tag k="ssr:stedsnr" v="793119" />
	</node>
	<node lat="60.23700555921649" lon="5.813108340109726" id="-73901">
		<tag k="loc_name" v="Midtrødo" />
		<tag k="name" v="Midrødo" />
		<tag k="place" v="farm" />
		<tag k="ssr:stedsnr" v="793030" />
	</node>
	<node lat="60.24561819099649" lon="5.75430053214145" id="-73903">
		<tag k="fixme" v="consider place=hamlet" />
		<tag k="name" v="Koldal" />
		<tag k="place" v="farm" />
		<tag k="ssr:stedsnr" v="793047" />
	</node>
	<node lat="60.06339166315553" lon="5.807430547986611" id="-73907">
		<tag k="name" v="Solheim" />
		<tag k="place" v="farm" />
		<tag k="ssr:stedsnr" v="793378" />
	</node>
	<node lat="60.09185277970995" lon="5.748519450140545" id="-73909">
		<tag k="name" v="Heidal" />
		<tag k="place" v="farm" />
		<tag k="ssr:stedsnr" v="793506" />
	</node>
	<node lat="60.141105846687836" lon="5.752085429800156" id="-73910">
		<tag k="fixme" v="consider place=hamlet" />
		<tag k="name" v="Sørtveit" />
		<tag k="place" v="farm" />
		<tag k="ssr:stedsnr" v="793516" />
	</node>
	<node lat="60.06517500154492" lon="5.751850003291446" id="-73912">
		<tag k="name" v="Stølen" />
		<tag k="place" v="isolated_dwelling" />
		<tag k="ssr:stedsnr" v="793273" />
	</node>
	<node lat="60.1996092876464" lon="5.366475548656539" id="-73920">
		<tag k="fixme" v="consider place=hamlet" />
		<tag k="name" v="Bjoarvika" />
		<tag k="place" v="farm" />
		<tag k="ssr:stedsnr" v="793773" />
	</node>
	<node lat="60.25817499950001" lon="5.841324994581858" id="-73928">
		<tag k="name" v="Ropeidet" />
		<tag k="place" v="farm" />
		<tag k="ssr:stedsnr" v="794311" />
	</node>
	<node lat="60.244231995843" lon="5.831609791365554" id="-73942">
		<tag k="fixme" v="consider place=hamlet" />
		<tag k="name" v="Håland" />
		<tag k="place" v="farm" />
		<tag k="ssr:stedsnr" v="914058" />
	</node>
	<node lat="60.22616844031623" lon="5.687088272920382" id="-73949">
		<tag k="fixme" v="consider place=hamlet" />
		<tag k="name" v="Kvåle" />
		<tag k="place" v="farm" />
		<tag k="ssr:stedsnr" v="915020" />
	</node>
	<node lat="60.287050595777465" lon="5.553174227133087" id="-73957">
		<tag k="fixme" v="consider place=hamlet" />
		<tag k="name" v="Øvredalen" />
		<tag k="place" v="farm" />
		<tag k="ssr:stedsnr" v="915232" />
	</node>
	<node lat="60.18771944399074" lon="5.356547224755301" id="-73967">
		<tag k="name" v="Eidsvika" />
		<tag k="place" v="isolated_dwelling" />
		<tag k="ssr:stedsnr" v="915755" />
	</node>
	<node lat="60.15620414952588" lon="5.438654402366104" id="-73969">
		<tag k="name" v="Haugland" />
		<tag k="place" v="hamlet" />
		<tag k="ssr:stedsnr" v="915951" />
	</node>
	<node lat="60.27325277470353" lon="5.871438896663858" id="-73972">
		<tag k="historic" v="shieling" />
		<tag k="name" v="Elvastølen" />
		<tag k="place" v="isolated_dwelling" />
		<tag k="ssr:stedsnr" v="915900" />
	</node>
	<node lat="60.22955555799676" lon="5.702683333190058" id="-73979">
		<tag k="name" v="Borganeset" />
		<tag k="place" v="farm" />
		<tag k="ssr:stedsnr" v="813215" />
	</node>
	<node lat="60.20371944266945" lon="5.629519443561142" id="-73980">
		<tag k="fixme" v="consider place=suburb, village or hamlet" />
		<tag k="name" v="Fusa" />
		<tag k="place" v="quarter" />
		<tag k="ssr:stedsnr" v="813895" />
	</node>
	<node lat="60.243058337884854" lon="5.555947225478458" id="-74002">
		<tag k="historic" v="shieling" />
		<tag k="name" v="Stølskleiva" />
		<tag k="place" v="isolated_dwelling" />
		<tag k="ssr:stedsnr" v="826364" />
	</node>
	<node lat="60.17876666280867" lon="5.410874991571548" id="-74021">
		<tag k="amenity" v="school" />
		<tag k="name" v="Nore Neset skule" />
		<tag k="ssr:stedsnr" v="827413" />
	</node>
	<node lat="60.18103333756378" lon="5.397047221405294" id="-74023">
		<tag k="name" v="Hagavik" />
		<tag k="place" v="farm" />
		<tag k="ssr:stedsnr" v="827423" />
	</node>
	<node lat="60.22412489341304" lon="5.691010936222559" id="-74036">
		<tag k="alt_name" v="Vanvik" />
		<tag k="fixme" v="consider place=hamlet" />
		<tag k="name" v="Vandvik" />
		<tag k="place" v="farm" />
		<tag k="ssr:stedsnr" v="854017" />
	</node>
	<node lat="60.208988886837126" lon="5.533624991526171" id="-74037">
		<tag k="name" v="Berge" />
		<tag k="place" v="farm" />
		<tag k="ssr:stedsnr" v="854021" />
	</node>
	<node lat="60.05343611408539" lon="5.788208335980044" id="-74044">
		<tag k="name" v="Jonsvoll" />
		<tag k="place" v="farm" />
		<tag k="ssr:stedsnr" v="854298" />
	</node>
	<node lat="60.16771388808815" lon="5.657211109244522" id="-74046">
		<tag k="name" v="Nyland" />
		<tag k="place" v="farm" />
		<tag k="ssr:stedsnr" v="854410" />
	</node>
	<node lat="60.17341737773342" lon="5.729460098634371" id="-74047">
		<tag k="fixme" v="consider place=hamlet" />
		<tag k="name" v="Mjånes" />
		<tag k="place" v="farm" />
		<tag k="ssr:stedsnr" v="854423" />
	</node>
	<node lat="60.19944141713771" lon="5.867097270003892" id="-74057">
		<tag k="alt_name" v="Tomre" />
		<tag k="fixme" v="consider place=hamlet" />
		<tag k="name" v="Tomra" />
		<tag k="place" v="farm" />
		<tag k="ssr:stedsnr" v="855507" />
	</node>
	<node lat="60.30214352613288" lon="5.663603452684819" id="-74058">
		<tag k="fixme" v="consider place=hamlet" />
		<tag k="name" v="Kolle" />
		<tag k="place" v="farm" />
		<tag k="ssr:stedsnr" v="855292" />
	</node>
	<node lat="60.2637444463016" lon="5.61227221441042" id="-74065">
		<tag k="name" v="Årsvåg" />
		<tag k="place" v="farm" />
		<tag k="ssr:stedsnr" v="934323" />
	</node>
	<node lat="60.17744444507235" lon="5.596436105021663" id="-74120">
		<tag k="name" v="Solberg" />
		<tag k="place" v="farm" />
		<tag k="ssr:stedsnr" v="915070" />
	</node>
	<node lat="60.18796339484269" lon="5.61031336832433" id="-74124">
		<tag k="fixme" v="consider place=hamlet" />
		<tag k="name" v="Haga" />
		<tag k="place" v="farm" />
		<tag k="ssr:stedsnr" v="915092" />
	</node>
	<node lat="60.18659320247655" lon="5.611815409049233" id="-74125">
		<tag k="fixme" v="consider place=hamlet" />
		<tag k="name" v="Storli" />
		<tag k="place" v="farm" />
		<tag k="ssr:stedsnr" v="915095" />
	</node>
	<node lat="60.12185501400834" lon="5.770940376994267" id="-74133">
		<tag k="fixme" v="consider place=hamlet" />
		<tag k="name" v="Femanger" />
		<tag k="place" v="farm" />
		<tag k="ssr:stedsnr" v="915473" />
	</node>
	<node lat="60.25668611494926" lon="5.927916669894088" id="-74135">
		<tag k="alt_name" v="Kalhagen" />
		<tag k="name" v="Kalvhagen" />
		<tag k="place" v="farm" />
		<tag k="ssr:stedsnr" v="915840" />
	</node>
	<node lat="60.16585213792049" lon="5.4387887376514765" id="-74136">
		<tag k="name" v="Lekven" />
		<tag k="place" v="hamlet" />
		<tag k="ssr:stedsnr" v="915967" />
	</node>
	<node lat="60.06356666437762" lon="5.79073333215001" id="-74145">
		<tag k="name" v="Leitesnes" />
		<tag k="place" v="farm" />
		<tag k="ssr:stedsnr" v="934149" />
	</node>
	<node lat="60.256163889044444" lon="5.601100004371618" id="-74180">
		<tag k="name" v="Stølen" />
		<tag k="place" v="farm" />
		<tag k="ssr:stedsnr" v="947940" />
	</node>
	<node lat="60.158816663692996" lon="5.431886120019034" id="-74190">
		<tag k="name" v="Ytre Haugland" />
		<tag k="place" v="farm" />
		<tag k="ssr:stedsnr" v="948379" />
	</node>
	<node lat="60.151556943172785" lon="5.433293161544776" id="-74211">
		<tag k="alt_name" v="Halhjem" />
		<tag k="fixme" v="consider place=hamlet" />
		<tag k="name" v="Haljem" />
		<tag k="place" v="farm" />
		<tag k="ssr:stedsnr" v="981453" />
	</node>
	<node lat="60.27643534577729" lon="5.938458175520068" id="-74214">
		<tag k="name" v="Bolstad" />
		<tag k="place" v="hamlet" />
		<tag k="ssr:stedsnr" v="990018" />
	</node>
	<node lat="60.158304633999386" lon="5.668158152590597" id="-74215">
		<tag k="fixme" v="consider place=hamlet" />
		<tag k="name" v="Særvoll" />
		<tag k="place" v="farm" />
		<tag k="ssr:stedsnr" v="990019" />
	</node>
	<node lat="60.14150086860567" lon="5.757618956913592" id="-74216">
		<tag k="fixme" v="consider place=hamlet" />
		<tag k="name" v="Svinastein" />
		<tag k="place" v="farm" />
		<tag k="ssr:stedsnr" v="990020" />
	</node>
	<node lat="60.24334999864246" lon="5.702755561793405" id="-74218">
		<tag k="name" v="Nyheim" />
		<tag k="place" v="farm" />
		<tag k="ssr:stedsnr" v="4051" />
	</node>
	<node lat="60.230561024581334" lon="5.561236361631282" id="-74220">
		<tag k="alt_name" v="Lio" />
		<tag k="fixme" v="consider place=hamlet" />
		<tag k="name" v="Lia" />
		<tag k="place" v="farm" />
		<tag k="ssr:stedsnr" v="4062" />
	</node>
	<node lat="60.0450051561519" lon="5.708596309197402" id="-74223">
		<tag k="alt_name" v="Biskopshavn" />
		<tag k="fixme" v="consider place=hamlet" />
		<tag k="name" v="Biskopshamn" />
		<tag k="place" v="farm" />
		<tag k="ssr:stedsnr" v="4308" />
	</node>
	<node lat="60.15411944823982" lon="5.641630549426484" id="-74224">
		<tag k="name" v="Norddal" />
		<tag k="place" v="farm" />
		<tag k="ssr:stedsnr" v="4365" />
	</node>
	<node lat="60.212907212221914" lon="5.407260641413485" id="-74230">
		<tag k="fixme" v="consider place=hamlet" />
		<tag k="name" v="Åsen" />
		<tag k="place" v="farm" />
		<tag k="ssr:stedsnr" v="4789" />
	</node>
	<node lat="60.20583333759932" lon="5.449724996717634" id="-74231">
		<tag k="fixme" v="consider place=suburb, village or hamlet" />
		<tag k="name" v="Ulven" />
		<tag k="place" v="quarter" />
		<tag k="ssr:stedsnr" v="4794" />
	</node>
	<node lat="60.220229430532946" lon="5.384031961330404" id="-74234">
		<tag k="fixme" v="consider place=hamlet" />
		<tag k="name" v="Nordstraumen" />
		<tag k="place" v="farm" />
		<tag k="ssr:stedsnr" v="4856" />
	</node>
	<node lat="60.15998200436236" lon="5.360337261866581" id="-74235">
		<tag k="fixme" v="consider place=hamlet" />
		<tag k="name" v="Sørstrøno" />
		<tag k="old_name" v="Sør Strøno" />
		<tag k="place" v="farm" />
		<tag k="ssr:stedsnr" v="4958" />
	</node>
	<node lat="60.163063231828176" lon="5.449192449361074" id="-74236">
		<tag k="fixme" v="consider place=hamlet" />
		<tag k="name" v="Ferstad" />
		<tag k="place" v="farm" />
		<tag k="ssr:stedsnr" v="4969" />
	</node>
	<node lat="60.065073064367226" lon="5.742983408321374" id="-74238">
		<tag k="fixme" v="consider place=hamlet" />
		<tag k="name" v="Skutlabrotet" />
		<tag k="place" v="farm" />
		<tag k="ssr:stedsnr" v="5267" />
	</node>
	<node lat="60.30880686067708" lon="5.663827286155" id="-74239">
		<tag k="fixme" v="consider place=hamlet" />
		<tag k="name" v="Hope" />
		<tag k="place" v="farm" />
		<tag k="ssr:stedsnr" v="5272" />
	</node>
	<node lat="60.064333986962424" lon="5.815082433692112" id="-74240">
		<tag k="alt_name" v="Fosso" />
		<tag k="fixme" v="consider place=hamlet" />
		<tag k="name" v="Fosså" />
		<tag k="place" v="farm" />
		<tag k="ssr:stedsnr" v="5273" />
	</node>
	<node lat="60.25428081384248" lon="5.485327581797992" id="-74242">
		<tag k="fixme" v="consider place=hamlet" />
		<tag k="name" v="Gåssand" />
		<tag k="place" v="farm" />
		<tag k="ssr:stedsnr" v="5279" />
	</node>
	<node lat="60.19375555406266" lon="5.78597500905587" id="-74246">
		<tag k="name" v="Torsheim" />
		<tag k="place" v="farm" />
		<tag k="ssr:stedsnr" v="5055" />
	</node>
	<node lat="60.13787778060713" lon="5.761275008317247" id="-74251">
		<tag k="name" v="Årvik" />
		<tag k="place" v="farm" />
		<tag k="ssr:stedsnr" v="5455" />
	</node>
	<node lat="60.190546735274324" lon="5.895198164436251" id="-74252">
		<tag k="fixme" v="consider place=hamlet" />
		<tag k="name" v="Uglhus" />
		<tag k="place" v="farm" />
		<tag k="ssr:stedsnr" v="5489" />
	</node>
	<node lat="60.18124166890072" lon="5.602324999049581" id="-74259">
		<tag k="name" v="Nygard" />
		<tag k="place" v="farm" />
		<tag k="ssr:stedsnr" v="24222" />
	</node>
	<node lat="60.19750440006048" lon="5.359107163258831" id="-74266">
		<tag k="name" v="Drange" />
		<tag k="place" v="hamlet" />
		<tag k="ssr:stedsnr" v="25882" />
	</node>
	<node lat="60.17573889201959" lon="5.382686103542021" id="-74295">
		<tag k="amenity" v="nursing_home" />
		<tag k="name" v="Askviknes sjukeheim" />
		<tag k="ssr:stedsnr" v="37390" />
	</node>
	<node lat="60.276908333685746" lon="5.522488888264224" id="-74305">
		<tag k="historic" v="shieling" />
		<tag k="name" v="Pinnestølen" />
		<tag k="place" v="isolated_dwelling" />
		<tag k="ssr:stedsnr" v="37322" />
	</node>
	<node lat="60.21703889162137" lon="5.385213889617978" id="-74308">
		<tag k="alt_name" v="Buene" />
		<tag k="name" v="Buena" />
		<tag k="place" v="farm" />
		<tag k="ssr:stedsnr" v="37333" />
	</node>
	<node lat="60.242136112184774" lon="5.561413881704622" id="-74315">
		<tag k="name" v="Træ" />
		<tag k="place" v="farm" />
		<tag k="ssr:stedsnr" v="37357" />
	</node>
	<node lat="60.24347500124109" lon="5.839508329627559" id="-74318">
		<tag k="name" v="Nyheim" />
		<tag k="place" v="farm" />
		<tag k="ssr:stedsnr" v="37484" />
	</node>
	<node lat="60.18954332350195" lon="5.776178131272615" id="-74368">
		<tag k="fixme" v="consider place=hamlet" />
		<tag k="name" v="Hatletveit" />
		<tag k="place" v="farm" />
		<tag k="ssr:stedsnr" v="65057" />
	</node>
	<node lat="60.23141409966161" lon="5.725354780834498" id="-74372">
		<tag k="fixme" v="consider place=hamlet" />
		<tag k="name" v="Austestad" />
		<tag k="place" v="farm" />
		<tag k="ssr:stedsnr" v="65019" />
	</node>
	<node lat="60.06349999762252" lon="5.769738893976221" id="-74374">
		<tag k="name" v="Berglund" />
		<tag k="place" v="farm" />
		<tag k="ssr:stedsnr" v="65248" />
	</node>
	<node lat="60.15621982119652" lon="5.6015365199392635" id="-74377">
		<tag k="fixme" v="consider place=hamlet" />
		<tag k="name" v="Dalland" />
		<tag k="place" v="farm" />
		<tag k="ssr:stedsnr" v="65363" />
	</node>
	<node lat="60.15037727253293" lon="5.617672057452558" id="-74378">
		<tag k="alt_name" v="Djupvik" />
		<tag k="fixme" v="consider place=hamlet" />
		<tag k="name" v="Juvik" />
		<tag k="place" v="farm" />
		<tag k="ssr:stedsnr" v="65365" />
	</node>
	<node lat="60.15687499796873" lon="5.731550008508664" id="-74381">
		<tag k="name" v="Revna" />
		<tag k="place" v="farm" />
		<tag k="ssr:stedsnr" v="65388" />
	</node>
	<node lat="60.06155833409098" lon="5.809366663230885" id="-74382">
		<tag k="name" v="Solstad" />
		<tag k="place" v="farm" />
		<tag k="ssr:stedsnr" v="65345" />
	</node>
	<node lat="60.097508336897135" lon="5.741699993261842" id="-74385">
		<tag k="name" v="Bøen" />
		<tag k="place" v="farm" />
		<tag k="ssr:stedsnr" v="65456" />
	</node>
	<node lat="60.143345350120896" lon="5.760445983492809" id="-74388">
		<tag k="name" v="Bårtveit" />
		<tag k="place" v="hamlet" />
		<tag k="ssr:stedsnr" v="65460" />
	</node>
	<node lat="60.0569305563922" lon="5.757277780880906" id="-74402">
		<tag k="alt_name" v="Indrevågen" />
		<tag k="name" v="Indrevåg" />
		<tag k="place" v="farm" />
		<tag k="ssr:stedsnr" v="66344" />
	</node>
	<node lat="60.25056110930214" lon="5.746847215146016" id="-74431">
		<tag k="name" v="Lund" />
		<tag k="place" v="farm" />
		<tag k="ssr:stedsnr" v="97751" />
	</node>
	<node lat="60.196594447179514" lon="5.509038890887845" id="-74433">
		<tag k="name" v="Geilane" />
		<tag k="place" v="farm" />
		<tag k="ssr:stedsnr" v="98228" />
	</node>
	<node lat="60.285811107088364" lon="5.609583334666609" id="-74435">
		<tag k="name" v="Aspevik" />
		<tag k="place" v="farm" />
		<tag k="ssr:stedsnr" v="98003" />
	</node>
	<node lat="60.23443889152964" lon="5.4557777715729845" id="-74438">
		<tag k="name" v="Bergstø" />
		<tag k="place" v="farm" />
		<tag k="ssr:stedsnr" v="98291" />
	</node>
	<node lat="60.16346389343835" lon="5.33381666860764" id="-74446">
		<tag k="name" v="Sanderstølen" />
		<tag k="place" v="farm" />
		<tag k="ssr:stedsnr" v="98498" />
	</node>
	<node lat="60.26346388899118" lon="5.613011114192975" id="-74476">
		<tag k="name" v="Bogevåg" />
		<tag k="place" v="farm" />
		<tag k="ssr:stedsnr" v="98801" />
	</node>
	<node lat="60.262858331817405" lon="5.928944439963907" id="-74487">
		<tag k="name" v="Orra" />
		<tag k="place" v="farm" />
		<tag k="ssr:stedsnr" v="104267" />
	</node>
	<node lat="60.09474709772624" lon="5.742163756725876" id="-74492">
		<tag k="fixme" v="consider place=hamlet" />
		<tag k="name" v="Nordtveit" />
		<tag k="place" v="farm" />
		<tag k="ssr:stedsnr" v="125491" />
	</node>
	<node lat="60.23765934470092" lon="5.802638528725089" id="-74494">
		<tag k="fixme" v="consider place=hamlet" />
		<tag k="loc_name" v="Ytsterødo" />
		<tag k="name" v="Ytrerødo" />
		<tag k="place" v="farm" />
		<tag k="ssr:stedsnr" v="125038" />
	</node>
	<node lat="60.065824996728544" lon="5.782011104675187" id="-74498">
		<tag k="alt_name" v="Kleivland" />
		<tag k="name" v="Kleiva" />
		<tag k="place" v="farm" />
		<tag k="ssr:stedsnr" v="126252" />
	</node>
	<node lat="60.20863644745998" lon="5.410659268314849" id="-74508">
		<tag k="name" v="Lidarås" />
		<tag k="place" v="farm" />
		<tag k="ssr:stedsnr" v="125788" />
	</node>
	<node lat="60.240241665855855" lon="5.604683340559406" id="-74510">
		<tag k="name" v="Solheim" />
		<tag k="place" v="farm" />
		<tag k="ssr:stedsnr" v="126177" />
	</node>
	<node lat="60.27279444795844" lon="5.921866667748478" id="-74513">
		<tag k="historic" v="shieling" />
		<tag k="name" v="Sætra" />
		<tag k="place" v="isolated_dwelling" />
		<tag k="ssr:stedsnr" v="126887" />
	</node>
	<node lat="60.22889018179593" lon="5.701792197727334" id="-74518">
		<tag k="fixme" v="consider place=hamlet" />
		<tag k="name" v="Berge" />
		<tag k="place" v="farm" />
		<tag k="ssr:stedsnr" v="126015" />
	</node>
	<node lat="60.28817778066933" lon="5.613227778690111" id="-74522">
		<tag k="name" v="Myra" />
		<tag k="place" v="farm" />
		<tag k="ssr:stedsnr" v="126242" />
	</node>
	<node lat="60.25547499946083" lon="5.834961112404108" id="-74536">
		<tag k="name" v="Solvang" />
		<tag k="place" v="farm" />
		<tag k="ssr:stedsnr" v="127357" />
	</node>
	<node lat="60.300386111252315" lon="5.670624993715073" id="-74545">
		<tag k="name" v="Øygard" />
		<tag k="place" v="farm" />
		<tag k="ssr:stedsnr" v="145373" />
	</node>
	<node lat="60.225091668401895" lon="5.375630563002414" id="-74549">
		<tag k="name" v="Leirvågen" />
		<tag k="place" v="farm" />
		<tag k="ssr:stedsnr" v="146050" />
	</node>
	<node lat="60.2123730167328" lon="5.385021623976774" id="-74550">
		<tag k="fixme" v="consider place=hamlet" />
		<tag k="loc_name" v="Søvika" />
		<tag k="name" v="Søvik" />
		<tag k="place" v="farm" />
		<tag k="ssr:stedsnr" v="146052" />
	</node>
	<node lat="60.18076111084724" lon="5.401458331638018" id="-74554">
		<tag k="fixme" v="consider place=suburb, village or hamlet" />
		<tag k="name" v="Hagavik" />
		<tag k="place" v="quarter" />
		<tag k="ssr:stedsnr" v="155517" />
	</node>
	<node lat="60.19954444214443" lon="5.806422225208339" id="-74584">
		<tag k="name" v="Austrheim" />
		<tag k="place" v="farm" />
		<tag k="ssr:stedsnr" v="158690" />
	</node>
	<node lat="60.04815093725979" lon="5.709534768470215" id="-74622">
		<tag k="alt_name" v="Bergsvåg" />
		<tag k="fixme" v="consider place=hamlet" />
		<tag k="name" v="Bergsvågen" />
		<tag k="place" v="farm" />
		<tag k="ssr:stedsnr" v="175309" />
	</node>
	<node lat="60.24785833055011" lon="5.797755548048689" id="-74625">
		<tag k="fixme" v="consider place=hamlet" />
		<tag k="name" v="Skjelbreid" />
		<tag k="place" v="farm" />
		<tag k="ssr:stedsnr" v="186055" />
	</node>
	<node lat="60.23660832949342" lon="5.567594442734072" id="-74626">
		<tag k="name" v="Ølskåra" />
		<tag k="place" v="isolated_dwelling" />
		<tag k="ssr:stedsnr" v="186064" />
	</node>
	<node lat="60.15377216223941" lon="5.746806176121567" id="-74632">
		<tag k="fixme" v="consider place=hamlet" />
		<tag k="name" v="Russås" />
		<tag k="place" v="farm" />
		<tag k="ssr:stedsnr" v="186446" />
	</node>
	<node lat="60.171727780940074" lon="5.313941661671521" id="-74634">
		<tag k="name" v="Skorpo" />
		<tag k="place" v="isolated_dwelling" />
		<tag k="ssr:stedsnr" v="186829" />
	</node>
	<node lat="60.236649997786806" lon="5.871766668670657" id="-74655">
		<tag k="name" v="Luren" />
		<tag k="place" v="farm" />
		<tag k="ssr:stedsnr" v="187654" />
	</node>
	<node lat="60.24625565621" lon="5.899565035367603" id="-74656">
		<tag k="fixme" v="consider place=hamlet" />
		<tag k="name" v="Berland" />
		<tag k="place" v="farm" />
		<tag k="ssr:stedsnr" v="187669" />
	</node>
	<node lat="60.223115626370735" lon="5.392235048488906" id="-74657">
		<tag k="fixme" v="consider place=hamlet" />
		<tag k="name" v="Kalvatræ" />
		<tag k="place" v="farm" />
		<tag k="ssr:stedsnr" v="187854" />
	</node>
	<node lat="60.15138336704868" lon="5.383930487843626" id="-74660">
		<tag k="fixme" v="consider place=hamlet" />
		<tag k="name" v="Lepsøy" />
		<tag k="place" v="farm" />
		<tag k="ssr:stedsnr" v="187937" />
	</node>
	<node lat="60.194200003763484" lon="5.605497230450449" id="-74674">
		<tag k="name" v="Utleboen" />
		<tag k="place" v="farm" />
		<tag k="ssr:stedsnr" v="207668" />
	</node>
	<node lat="60.16155555922679" lon="5.586463884901601" id="-74689">
		<tag k="name" v="Skåtun" />
		<tag k="place" v="farm" />
		<tag k="ssr:stedsnr" v="219068" />
	</node>
	<node lat="60.20295833205387" lon="5.522438895727978" id="-74710">
		<tag k="name" v="Steglet" />
		<tag k="place" v="farm" />
		<tag k="ssr:stedsnr" v="219363" />
	</node>
	<node lat="60.18809167018723" lon="5.770355561213588" id="-74718">
		<tag k="amenity" v="kindergarten" />
		<tag k="name" v="Sævareidfjorden" />
		<tag k="ssr:stedsnr" v="219623" />
	</node>
	<node lat="60.25032777453999" lon="5.7924444478134305" id="-74725">
		<tag k="name" v="Træena" />
		<tag k="place" v="farm" />
		<tag k="ssr:stedsnr" v="219669" />
	</node>
	<node lat="60.05878435401728" lon="5.751365629980418" id="-74739">
		<tag k="name" v="Nedrevågen" />
		<tag k="place" v="farm" />
		<tag k="ssr:stedsnr" v="219898" />
	</node>
	<node lat="60.19673610715332" lon="5.892763894021127" id="-74784">
		<tag k="name" v="Uglehus" />
		<tag k="place" v="farm" />
		<tag k="ssr:stedsnr" v="280269" />
	</node>
	<node lat="60.1964472213174" lon="5.440877780012207" id="-74787">
		<tag k="amenity" v="school" />
		<tag k="name" v="Os yrkesskule" />
		<tag k="ssr:stedsnr" v="280369" />
	</node>
	<node lat="60.18626388915952" lon="5.4572138921819136" id="-74790">
		<tag k="fixme" v="consider place=hamlet" />
		<tag k="name" v="Indre Moberg" />
		<tag k="place" v="farm" />
		<tag k="ssr:stedsnr" v="280385" />
	</node>
	<node lat="60.19462778121411" lon="5.472872215752421" id="-74791">
		<tag k="name" v="Lyssandtræet" />
		<tag k="place" v="farm" />
		<tag k="ssr:stedsnr" v="280395" />
	</node>
	<node lat="60.19317777719556" lon="5.469744444447969" id="-74792">
		<tag k="name" v="Utgjerdet" />
		<tag k="place" v="farm" />
		<tag k="ssr:stedsnr" v="280396" />
	</node>
	<node lat="60.20694721839057" lon="5.4442333284110305" id="-74801">
		<tag k="name" v="Nymark" />
		<tag k="place" v="farm" />
		<tag k="ssr:stedsnr" v="280250" />
	</node>
	<node lat="60.20595632202547" lon="5.534865505975971" id="-74846">
		<tag k="alt_name" v="Hatvik" />
		<tag k="fixme" v="consider place=hamlet" />
		<tag k="name" v="Hattvik" />
		<tag k="place" v="farm" />
		<tag k="ssr:stedsnr" v="307018" />
	</node>
	<node lat="60.09325224350732" lon="5.836090193605418" id="-74851">
		<tag k="fixme" v="consider place=hamlet" />
		<tag k="name" v="Austefjord" />
		<tag k="place" v="farm" />
		<tag k="ssr:stedsnr" v="307482" />
	</node>
	<node lat="60.178519448643016" lon="5.595874993267563" id="-74852">
		<tag k="name" v="Fredheim" />
		<tag k="place" v="farm" />
		<tag k="ssr:stedsnr" v="308067" />
	</node>
	<node lat="60.189977309285794" lon="5.485250160382243" id="-74856">
		<tag k="fixme" v="consider place=hamlet" />
		<tag k="name" v="Hauge" />
		<tag k="place" v="farm" />
		<tag k="ssr:stedsnr" v="308098" />
	</node>
	<node lat="60.22544166596881" lon="5.532808327117641" id="-74857">
		<tag k="name" v="Øvereide" />
		<tag k="place" v="farm" />
		<tag k="ssr:stedsnr" v="308043" />
	</node>
	<node lat="60.28972004230179" lon="5.660593510712154" id="-74859">
		<tag k="fixme" v="consider place=hamlet" />
		<tag k="name" v="Tveita" />
		<tag k="place" v="farm" />
		<tag k="ssr:stedsnr" v="308239" />
	</node>
	<node lat="60.28796709883709" lon="5.930307568266198" id="-74861">
		<tag k="fixme" v="consider place=hamlet" />
		<tag k="name" v="Tveita" />
		<tag k="place" v="farm" />
		<tag k="ssr:stedsnr" v="308934" />
	</node>
	<node lat="60.18707500277835" lon="5.732169448880868" id="-74868">
		<tag k="fixme" v="consider place=hamlet" />
		<tag k="name" v="Ljotå" />
		<tag k="place" v="farm" />
		<tag k="ssr:stedsnr" v="308377" />
	</node>
	<node lat="60.23568611325452" lon="5.885430561062988" id="-74874">
		<tag k="name" v="Skogly" />
		<tag k="place" v="farm" />
		<tag k="ssr:stedsnr" v="308713" />
	</node>
	<node lat="60.247750274873056" lon="5.4387449334509546" id="-74878">
		<tag k="name" v="Kampen" />
		<tag k="place" v="farm" />
		<tag k="ssr:stedsnr" v="308829" />
	</node>
	<node lat="60.26004722376553" lon="5.480577773821089" id="-74883">
		<tag k="alt_name" v="Hattelia" />
		<tag k="name" v="Hatlelia" />
		<tag k="place" v="farm" />
		<tag k="ssr:stedsnr" v="309323" />
	</node>
	<node lat="60.21218888777527" lon="5.389874992102688" id="-74963">
		<tag k="leisure" v="pitch" />
		<tag k="name" v="Idrettsplass" />
		<tag k="ssr:stedsnr" v="341355" />
	</node>
	<node lat="60.25972419954064" lon="5.927977125730282" id="-74975">
		<tag k="fixme" v="consider place=hamlet" />
		<tag k="name" v="Orra" />
		<tag k="place" v="farm" />
		<tag k="ssr:stedsnr" v="369831" />
	</node>
	<node lat="60.26339444520308" lon="5.848758333857529" id="-74976">
		<tag k="name" v="Gjønaneset" />
		<tag k="place" v="farm" />
		<tag k="ssr:stedsnr" v="369845" />
	</node>
	<node lat="60.266044444738654" lon="5.9323555589774815" id="-74978">
		<tag k="alt_name" v="Fredheim" />
		<tag k="name" v="Krokane" />
		<tag k="place" v="farm" />
		<tag k="ssr:stedsnr" v="369855" />
	</node>
	<node lat="60.20421856315235" lon="5.527258163712949" id="-74985">
		<tag k="name" v="Lonane" />
		<tag k="place" v="farm" />
		<tag k="ssr:stedsnr" v="368015" />
	</node>
	<node lat="60.081602775201084" lon="5.748683328827833" id="-74997">
		<tag k="name" v="Knappane" />
		<tag k="place" v="farm" />
		<tag k="ssr:stedsnr" v="368492" />
	</node>
	<node lat="60.17247152471267" lon="5.421633541372004" id="-75000">
		<tag k="fixme" v="consider place=hamlet" />
		<tag k="name" v="Døsa" />
		<tag k="place" v="farm" />
		<tag k="ssr:stedsnr" v="368835" />
	</node>
	<node lat="60.1846267828373" lon="5.469071796385179" id="-75001">
		<tag k="name" v="Osøyro" />
		<tag k="place" v="village" />
		<tag k="ssr:stedsnr" v="368844" />
	</node>
	<node lat="60.186008335062674" lon="5.451052777869046" id="-75002">
		<tag k="alt_name" v="Mobergstølane;Stølane" />
		<tag k="name" v="Mobergsstølane" />
		<tag k="place" v="farm" />
		<tag k="ssr:stedsnr" v="368845" />
	</node>
	<node lat="60.20911388769401" lon="5.4446888872354595" id="-75009">
		<tag k="name" v="Nygard" />
		<tag k="place" v="farm" />
		<tag k="ssr:stedsnr" v="368812" />
	</node>
	<node lat="60.19153660259963" lon="5.693739152762437" id="-75015">
		<tag k="fixme" v="consider place=hamlet" />
		<tag k="name" v="Håvik" />
		<tag k="place" v="farm" />
		<tag k="ssr:stedsnr" v="369078" />
	</node>
	<node lat="60.06911695677603" lon="5.717781288175691" id="-75026">
		<tag k="alt_name" v="Nesbjør" />
		<tag k="fixme" v="consider place=hamlet" />
		<tag k="name" v="Nesbjørg" />
		<tag k="place" v="farm" />
		<tag k="ssr:stedsnr" v="369248" />
	</node>
	<node lat="60.28934018131498" lon="5.669133972941451" id="-75027">
		<tag k="name" v="Holmefjord" />
		<tag k="place" v="hamlet" />
		<tag k="ssr:stedsnr" v="369250" />
	</node>
	<node lat="60.167771283908614" lon="5.623227807708965" id="-75029">
		<tag k="fixme" v="consider place=hamlet" />
		<tag k="name" v="Rein" />
		<tag k="place" v="farm" />
		<tag k="ssr:stedsnr" v="369361" />
	</node>
	<node lat="60.19432935093162" lon="5.890019311413016" id="-75033">
		<tag k="fixme" v="consider place=hamlet" />
		<tag k="name" v="Bakka" />
		<tag k="place" v="farm" />
		<tag k="ssr:stedsnr" v="369449" />
	</node>
	<node lat="60.203761111771605" lon="5.912830556882292" id="-75034">
		<tag k="historic" v="shieling" />
		<tag k="name" v="Uglhussetret" />
		<tag k="place" v="isolated_dwelling" />
		<tag k="ssr:stedsnr" v="369461" />
	</node>
	<node lat="60.24040511458151" lon="5.888179058651818" id="-75035">
		<tag k="fixme" v="consider place=hamlet" />
		<tag k="name" v="Solås" />
		<tag k="place" v="farm" />
		<tag k="ssr:stedsnr" v="369638" />
	</node>
	<node lat="60.24327214566569" lon="5.904531174361007" id="-75036">
		<tag k="fixme" v="consider place=hamlet" />
		<tag k="name" v="Berlandstveit" />
		<tag k="place" v="farm" />
		<tag k="ssr:stedsnr" v="369641" />
	</node>
	<node lat="60.19030555994724" lon="5.694586117160881" id="-75051">
		<tag k="name" v="Leitet" />
		<tag k="place" v="farm" />
		<tag k="ssr:stedsnr" v="388249" />
	</node>
	<node lat="60.18018055347427" lon="5.377044450818937" id="-75077">
		<tag k="name" v="Askvik" />
		<tag k="place" v="farm" />
		<tag k="ssr:stedsnr" v="401367" />
	</node>
	<node lat="60.26897500137531" lon="5.629416663418458" id="-75093">
		<tag k="alt_name" v="Gangstø øvre" />
		<tag k="name" v="Øvre Gangstø" />
		<tag k="place" v="farm" />
		<tag k="ssr:stedsnr" v="401764" />
	</node>
	<node lat="60.14385747089507" lon="5.439443979543421" id="-75117">
		<tag k="amenity" v="school" />
		<tag k="name" v="Halhjem barneskule" />
		<tag k="ssr:stedsnr" v="406512" />
	</node>
	<node lat="60.1721979808644" lon="5.418497313818323" id="-75122">
		<tag k="fixme" v="consider place=hamlet" />
		<tag k="name" v="Skeie" />
		<tag k="place" v="farm" />
		<tag k="ssr:stedsnr" v="429791" />
	</node>
	<node lat="60.239329904108125" lon="5.791332334549506" id="-75124">
		<tag k="alt_name" v="Ragnhildstveit" />
		<tag k="fixme" v="consider place=hamlet" />
		<tag k="name" v="Rongestveit" />
		<tag k="place" v="farm" />
		<tag k="ssr:stedsnr" v="429029" />
	</node>
	<node lat="60.2387110457815" lon="5.83202949593665" id="-75125">
		<tag k="fixme" v="consider place=hamlet" />
		<tag k="name" v="Holdhus" />
		<tag k="place" v="farm" />
		<tag k="ssr:stedsnr" v="429034" />
	</node>
	<node lat="60.21856628421981" lon="5.518623025466697" id="-75126">
		<tag k="fixme" v="consider place=hamlet" />
		<tag k="name" v="Heggland" />
		<tag k="place" v="farm" />
		<tag k="ssr:stedsnr" v="429037" />
	</node>
	<node lat="60.244491665217446" lon="5.802005552540412" id="-75128">
		<tag k="name" v="Myrvang" />
		<tag k="place" v="farm" />
		<tag k="ssr:stedsnr" v="429046" />
	</node>
	<node lat="60.193275855409695" lon="5.515208746756067" id="-75132">
		<tag k="fixme" v="consider place=hamlet" />
		<tag k="name" v="Bjånes" />
		<tag k="place" v="farm" />
		<tag k="ssr:stedsnr" v="429083" />
	</node>
	<node lat="60.161990805501304" lon="5.673085740624373" id="-75137">
		<tag k="fixme" v="consider place=hamlet" />
		<tag k="name" v="Legland" />
		<tag k="place" v="farm" />
		<tag k="ssr:stedsnr" v="429367" />
	</node>
	<node lat="60.0576944475956" lon="5.78297776921033" id="-75139">
		<tag k="name" v="Dalheim" />
		<tag k="place" v="farm" />
		<tag k="ssr:stedsnr" v="429343" />
	</node>
	<node lat="60.19964167127076" lon="5.3642000040852755" id="-75141">
		<tag k="alt_name" v="Drange, in;Indra Drange" />
		<tag k="name" v="Indre Drange" />
		<tag k="place" v="farm" />
		<tag k="ssr:stedsnr" v="429745" />
	</node>
	<node lat="60.244177781131874" lon="5.667691668363318" id="-75147">
		<tag k="name" v="Vika" />
		<tag k="place" v="isolated_dwelling" />
		<tag k="ssr:stedsnr" v="430179" />
	</node>
	<node lat="60.247488603299885" lon="5.612367233238199" id="-75148">
		<tag k="fixme" v="consider place=hamlet" />
		<tag k="name" v="Gaukstad" />
		<tag k="place" v="farm" />
		<tag k="ssr:stedsnr" v="430181" />
	</node>
	<node lat="60.29236819760209" lon="5.698946083661532" id="-75150">
		<tag k="fixme" v="consider place=hamlet" />
		<tag k="name" v="Dale" />
		<tag k="place" v="farm" />
		<tag k="ssr:stedsnr" v="430254" />
	</node>
	<node lat="60.20486235007304" lon="5.886889986084838" id="-75154">
		<tag k="fixme" v="consider place=hamlet" />
		<tag k="name" v="Skogseid" />
		<tag k="place" v="farm" />
		<tag k="ssr:stedsnr" v="430515" />
	</node>
	<node lat="60.24399459103072" lon="5.908472365777768" id="-75155">
		<tag k="fixme" v="consider place=hamlet" />
		<tag k="name" v="Berge" />
		<tag k="place" v="farm" />
		<tag k="ssr:stedsnr" v="430678" />
	</node>
	<node lat="60.2322490815276" lon="5.871353101892512" id="-75157">
		<tag k="fixme" v="consider place=hamlet" />
		<tag k="name" v="Eide" />
		<tag k="place" v="farm" />
		<tag k="ssr:stedsnr" v="430726" />
	</node>
	<node lat="60.12893888918883" lon="5.819011108558917" id="-75197">
		<tag k="name" v="Yddal" />
		<tag k="place" v="farm" />
		<tag k="ssr:stedsnr" v="522553" />
	</node>
	<node lat="60.15305833601492" lon="5.737944436477677" id="-75211">
		<tag k="name" v="Halsen" />
		<tag k="place" v="farm" />
		<tag k="ssr:stedsnr" v="522922" />
	</node>
	<node lat="60.25303888730361" lon="5.622650008835684" id="-75217">
		<tag k="name" v="Medås" />
		<tag k="place" v="farm" />
		<tag k="ssr:stedsnr" v="522947" />
	</node>
	<node lat="60.21003333637042" lon="5.380541664486701" id="-75234">
		<tag k="name" v="Søviknes" />
		<tag k="place" v="farm" />
		<tag k="ssr:stedsnr" v="523296" />
	</node>
	<node lat="60.202116670760994" lon="5.449930561881049" id="-75241">
		<tag k="name" v="Varåsgrenda" />
		<tag k="place" v="quarter" />
		<tag k="ssr:stedsnr" v="523339" />
	</node>
	<node lat="60.178669443672305" lon="5.448811117050459" id="-75245">
		<tag k="name" v="Mobergslia" />
		<tag k="place" v="farm" />
		<tag k="ssr:stedsnr" v="523453" />
	</node>
	<node lat="60.2612055547705" lon="5.6250916620800435" id="-75252">
		<tag k="alt_name" v="Samnøya" />
		<tag k="name" v="Samnøy" />
		<tag k="place" v="locality" />
		<tag k="ssr:stedsnr" v="542292" />
	</node>
	<node lat="60.24175277579563" lon="5.744330551721475" id="-75258">
		<tag k="name" v="Eikelandsosen" />
		<tag k="place" v="village" />
		<tag k="ssr:stedsnr" v="550042" />
	</node>
	<node lat="60.189647646697466" lon="5.757789001135226" id="-75259">
		<tag k="alt_name" v="Haugen søndre;Haugen, s;Haugen;Søndre Haugen" />
		<tag k="fixme" v="consider place=hamlet" />
		<tag k="name" v="Søre Haugen" />
		<tag k="place" v="farm" />
		<tag k="ssr:stedsnr" v="550078" />
	</node>
	<node lat="60.077199997001294" lon="5.78253332824239" id="-75265">
		<tag k="name" v="Lyberg" />
		<tag k="place" v="farm" />
		<tag k="ssr:stedsnr" v="550287" />
	</node>
	<node lat="60.16467117890398" lon="5.66971592868373" id="-75267">
		<tag k="fixme" v="consider place=hamlet" />
		<tag k="name" v="Hauge" />
		<tag k="place" v="farm" />
		<tag k="ssr:stedsnr" v="550372" />
	</node>
	<node lat="60.17987284950753" lon="5.377173029127321" id="-75274">
		<tag k="fixme" v="consider place=hamlet" />
		<tag k="name" v="Askvik" />
		<tag k="place" v="farm" />
		<tag k="ssr:stedsnr" v="550781" />
	</node>
	<node lat="60.17160833490895" lon="5.692674997408059" id="-75279">
		<tag k="name" v="Gilja" />
		<tag k="place" v="isolated_dwelling" />
		<tag k="ssr:stedsnr" v="551393" />
	</node>
	<node lat="60.155101907716364" lon="5.731931640138716" id="-75286">
		<tag k="alt_name" v="Revne" />
		<tag k="fixme" v="consider place=hamlet" />
		<tag k="name" v="Revna" />
		<tag k="place" v="farm" />
		<tag k="ssr:stedsnr" v="551594" />
	</node>
	<node lat="60.13859362908676" lon="5.3692119963228695" id="-75295">
		<tag k="fixme" v="consider place=hamlet" />
		<tag k="name" v="Røtinga" />
		<tag k="place" v="farm" />
		<tag k="ssr:stedsnr" v="551985" />
	</node>
	<node lat="60.05761388766019" lon="5.783205562115823" id="-75298">
		<tag k="name" v="Lii" />
		<tag k="place" v="farm" />
		<tag k="ssr:stedsnr" v="570139" />
	</node>
	<node lat="60.180347221058305" lon="5.748630559813024" id="-75299">
		<tag k="name" v="Haugland" />
		<tag k="place" v="farm" />
		<tag k="ssr:stedsnr" v="570231" />
	</node>
	<node lat="60.15076111374365" lon="5.624477769291665" id="-75305">
		<tag k="name" v="Fure" />
		<tag k="place" v="farm" />
		<tag k="ssr:stedsnr" v="581844" />
	</node>
	<node lat="60.19596388983976" lon="5.458283341402332" id="-75357">
		<tag k="name" v="Flåten" />
		<tag k="place" v="farm" />
		<tag k="ssr:stedsnr" v="583378" />
	</node>
	<node lat="60.16219722545541" lon="5.33865554672374" id="-75362">
		<tag k="fixme" v="consider place=hamlet" />
		<tag k="name" v="Økland" />
		<tag k="place" v="farm" />
		<tag k="ssr:stedsnr" v="583480" />
	</node>
	<node lat="60.09560833745281" lon="5.798816660873434" id="-75365">
		<tag k="name" v="Bøen" />
		<tag k="place" v="farm" />
		<tag k="ssr:stedsnr" v="583921" />
	</node>
	<node lat="60.268650002368304" lon="5.628697230844327" id="-75373">
		<tag k="alt_name" v="Gangstø nedre" />
		<tag k="name" v="Nedre Gangstø" />
		<tag k="place" v="farm" />
		<tag k="ssr:stedsnr" v="583771" />
	</node>
	<node lat="60.24013333026748" lon="5.783436116796154" id="-75388">
		<tag k="name" v="Lundheim" />
		<tag k="place" v="farm" />
		<tag k="ssr:stedsnr" v="611044" />
	</node>
	<node lat="60.234446105069516" lon="5.546512806481943" id="-75389">
		<tag k="fixme" v="consider place=hamlet" />
		<tag k="name" v="Tveit" />
		<tag k="place" v="farm" />
		<tag k="ssr:stedsnr" v="611064" />
	</node>
	<node lat="60.19953275202146" lon="5.6234244482287306" id="-75390">
		<tag k="fixme" v="consider place=hamlet" />
		<tag k="name" v="Gjerde" />
		<tag k="place" v="farm" />
		<tag k="ssr:stedsnr" v="611094" />
	</node>
	<node lat="60.15508786887254" lon="5.585202796668088" id="-75392">
		<tag k="fixme" v="consider place=hamlet" />
		<tag k="name" v="Vinnes" />
		<tag k="place" v="farm" />
		<tag k="ssr:stedsnr" v="611396" />
	</node>
	<node lat="60.1470337777558" lon="5.748489409367208" id="-75394">
		<tag k="name" v="Baldersheim" />
		<tag k="place" v="hamlet" />
		<tag k="ssr:stedsnr" v="611478" />
	</node>
	<node lat="60.14380051381502" lon="5.746120664590176" id="-75395">
		<tag k="fixme" v="consider place=hamlet" />
		<tag k="name" v="Tveit" />
		<tag k="place" v="farm" />
		<tag k="ssr:stedsnr" v="611480" />
	</node>
	<node lat="60.14962676402962" lon="5.741506716598116" id="-75396">
		<tag k="name" v="Haga" />
		<tag k="place" v="hamlet" />
		<tag k="ssr:stedsnr" v="611481" />
	</node>
	<node lat="60.13156409671871" lon="5.821688497958253" id="-75398">
		<tag k="fixme" v="consider place=hamlet" />
		<tag k="name" v="Yddal" />
		<tag k="place" v="farm" />
		<tag k="ssr:stedsnr" v="611490" />
	</node>
	<node lat="60.213526746312596" lon="5.468160490729425" id="-75412">
		<tag k="alt_name" v="Tøsdal" />
		<tag k="fixme" v="consider place=hamlet" />
		<tag k="name" v="Tyssdal" />
		<tag k="place" v="farm" />
		<tag k="ssr:stedsnr" v="611797" />
	</node>
	<node lat="60.228547218887705" lon="5.699061103636455" id="-75434">
		<tag k="name" v="Vikamyri" />
		<tag k="place" v="farm" />
		<tag k="ssr:stedsnr" v="631225" />
	</node>
	<node lat="60.21020278241719" lon="5.379555562108201" id="-75436">
		<tag k="name" v="Søvikneset" />
		<tag k="place" v="farm" />
		<tag k="ssr:stedsnr" v="631055" />
	</node>
	<node lat="60.14469166594291" lon="5.377155555099678" id="-75437">
		<tag k="fixme" v="consider place=suburb, village or hamlet" />
		<tag k="name" v="Søre Øyane" />
		<tag k="place" v="quarter" />
		<tag k="ssr:stedsnr" v="631549" />
	</node>
	<node lat="60.24078611187491" lon="5.832216658516622" id="-75446">
		<tag k="name" v="Haugen" />
		<tag k="place" v="farm" />
		<tag k="ssr:stedsnr" v="643318" />
	</node>
	<node lat="60.25076388540887" lon="5.786319445997372" id="-75481">
		<tag k="name" v="Nordstrand" />
		<tag k="place" v="farm" />
		<tag k="ssr:stedsnr" v="643639" />
	</node>
	<node lat="60.22743055731062" lon="5.397219451736396" id="-75503">
		<tag k="fixme" v="consider place=hamlet" />
		<tag k="name" v="Lysekloster" />
		<tag k="place" v="farm" />
		<tag k="ssr:stedsnr" v="644316" />
	</node>
	<node lat="60.194380556381084" lon="5.457969446389091" id="-75505">
		<tag k="amenity" v="school" />
		<tag k="name" v="Os gymnas" />
		<tag k="ssr:stedsnr" v="644430" />
	</node>
	<node lat="60.21558055747873" lon="5.38443056176536" id="-75509">
		<tag k="name" v="Høgestølen" />
		<tag k="place" v="farm" />
		<tag k="ssr:stedsnr" v="644340" />
	</node>
	<node lat="60.16869721956049" lon="5.423991664053834" id="-75516">
		<tag k="fixme" v="consider place=hamlet" />
		<tag k="name" v="Grindevoll" />
		<tag k="place" v="farm" />
		<tag k="ssr:stedsnr" v="644376" />
	</node>
	<node lat="60.07390191001157" lon="5.755418072383109" id="-75534">
		<tag k="fixme" v="consider place=hamlet" />
		<tag k="name" v="Sundvor" />
		<tag k="place" v="farm" />
		<tag k="ssr:stedsnr" v="727862" />
	</node>
	<node lat="60.234766803220346" lon="5.749396001528624" id="-75537">
		<tag k="name" v="Eikeland" />
		<tag k="place" v="hamlet" />
		<tag k="ssr:stedsnr" v="732038" />
	</node>
	<node lat="60.16654444799772" lon="5.661083331319083" id="-75539">
		<tag k="name" v="Gjerde" />
		<tag k="place" v="farm" />
		<tag k="ssr:stedsnr" v="732396" />
	</node>
	<node lat="60.09049145346383" lon="5.744385365513411" id="-75544">
		<tag k="fixme" v="consider place=hamlet" />
		<tag k="name" v="Hjartåker" />
		<tag k="place" v="farm" />
		<tag k="ssr:stedsnr" v="732490" />
	</node>
	<node lat="60.184127469108006" lon="5.6084921345909855" id="-75550">
		<tag k="fixme" v="consider place=hamlet" />
		<tag k="name" v="Skjørsand" />
		<tag k="place" v="farm" />
		<tag k="ssr:stedsnr" v="733085" />
	</node>
	<node lat="60.055574025704175" lon="5.7177414983910735" id="-75552">
		<tag k="fixme" v="consider place=hamlet" />
		<tag k="name" v="Berge" />
		<tag k="place" v="farm" />
		<tag k="ssr:stedsnr" v="733330" />
	</node>
	<node lat="60.27436658759061" lon="5.538651621642949" id="-75554">
		<tag k="alt_name" v="Midtseter" />
		<tag k="fixme" v="consider place=hamlet" />
		<tag k="name" v="Midsætret" />
		<tag k="place" v="farm" />
		<tag k="ssr:stedsnr" v="733287" />
	</node>
	<node lat="60.15712083691907" lon="5.662055852651895" id="-75558">
		<tag k="fixme" v="consider place=hamlet" />
		<tag k="name" v="Tuft" />
		<tag k="place" v="farm" />
		<tag k="ssr:stedsnr" v="733375" />
	</node>
	<node lat="60.20359444619562" lon="5.852225006794867" id="-75562">
		<tag k="fixme" v="consider place=hamlet" />
		<tag k="name" v="Kilen" />
		<tag k="place" v="farm" />
		<tag k="ssr:stedsnr" v="733488" />
	</node>
	<node lat="60.22535000399997" lon="5.8982999907101314" id="-75566">
		<tag k="name" v="Fureneset" />
		<tag k="place" v="isolated_dwelling" />
		<tag k="ssr:stedsnr" v="733711" />
	</node>
	<node lat="60.19935277656478" lon="5.423594438503082" id="-75568">
		<tag k="landuse" v="military" />
		<tag k="name" v="Ulven" />
		<tag k="ssr:stedsnr" v="733742" />
	</node>
	<node lat="60.276541666659554" lon="5.926938894665103" id="-75572">
		<tag k="historic" v="shieling" />
		<tag k="name" v="Storefjellstølen" />
		<tag k="place" v="isolated_dwelling" />
		<tag k="ssr:stedsnr" v="733896" />
	</node>
	<node lat="60.05692777615029" lon="5.7846027845343" id="-75584">
		<tag k="name" v="Bø" />
		<tag k="place" v="farm" />
		<tag k="ssr:stedsnr" v="752147" />
	</node>
	<node lat="60.0671638862133" lon="5.716974998588314" id="-75585">
		<tag k="name" v="Bjørkheim" />
		<tag k="place" v="farm" />
		<tag k="ssr:stedsnr" v="752158" />
	</node>
	<node lat="60.19657777845878" lon="5.473488890825681" id="-75610">
		<tag k="name" v="Lundetræet" />
		<tag k="place" v="farm" />
		<tag k="ssr:stedsnr" v="765388" />
	</node>
	<node lat="60.28862222348459" lon="5.660816669110847" id="-75656">
		<tag k="name" v="Tveit" />
		<tag k="place" v="farm" />
		<tag k="ssr:stedsnr" v="765863" />
	</node>
	<node lat="60.28721110873094" lon="5.612205550736861" id="-75665">
		<tag k="name" v="Myra" />
		<tag k="place" v="farm" />
		<tag k="ssr:stedsnr" v="766253" />
	</node>
	<node lat="60.17385703358813" lon="5.34874630598381" id="-75673">
		<tag k="amenity" v="school" />
		<tag k="name" v="Strøno barneskule" />
		<tag k="old_name" v="Nore Øyane" />
		<tag k="ssr:stedsnr" v="766456" />
	</node>
	<node lat="60.197688892889595" lon="5.477380553531873" id="-75674">
		<tag k="name" v="Lund" />
		<tag k="place" v="farm" />
		<tag k="ssr:stedsnr" v="766482" />
	</node>
	<node lat="60.19649307831502" lon="5.796503131009976" id="-75688">
		<tag k="fixme" v="consider place=hamlet" />
		<tag k="name" v="Henanger" />
		<tag k="place" v="farm" />
		<tag k="ssr:stedsnr" v="793065" />
	</node>
	<node lat="60.17540237453869" lon="5.769031305707287" id="-75697">
		<tag k="fixme" v="consider place=hamlet" />
		<tag k="name" v="Markhus" />
		<tag k="place" v="farm" />
		<tag k="ssr:stedsnr" v="793458" />
	</node>
	<node lat="60.14098997252245" lon="5.44948795122879" id="-75702">
		<tag k="fixme" v="consider place=hamlet" />
		<tag k="name" v="Bjørnen" />
		<tag k="place" v="farm" />
		<tag k="ssr:stedsnr" v="794985" />
	</node>
	<node lat="60.27182387763134" lon="5.667934606870381" id="-75704">
		<tag k="alt_name" v="Årland" />
		<tag k="fixme" v="consider place=hamlet" />
		<tag k="name" v="Ådland" />
		<tag k="place" v="farm" />
		<tag k="ssr:stedsnr" v="794268" />
	</node>
	<node lat="60.27043611351117" lon="5.54177222458819" id="-75709">
		<tag k="name" v="Kleiva" />
		<tag k="place" v="farm" />
		<tag k="ssr:stedsnr" v="794279" />
	</node>
	<node lat="60.170866670160706" lon="5.635499998063984" id="-75711">
		<tag k="fixme" v="consider place=hamlet" />
		<tag k="name" v="Boga" />
		<tag k="place" v="farm" />
		<tag k="ssr:stedsnr" v="794395" />
	</node>
	<node lat="60.190894441017846" lon="5.76723889734919" id="-75712">
		<tag k="fixme" v="consider place=hamlet" />
		<tag k="name" v="Sævareid" />
		<tag k="place" v="village" />
		<tag k="ssr:stedsnr" v="794396" />
	</node>
	<node lat="60.223041666260286" lon="5.870880562115747" id="-75716">
		<tag k="name" v="Kalvaneset" />
		<tag k="place" v="isolated_dwelling" />
		<tag k="ssr:stedsnr" v="794726" />
	</node>
	<node lat="60.221516665828105" lon="5.893963891259481" id="-75717">
		<tag k="name" v="Ospeneset" />
		<tag k="place" v="farm" />
		<tag k="ssr:stedsnr" v="794729" />
	</node>
	<node lat="60.234369448271224" lon="5.736769436153756" id="-75722">
		<tag k="name" v="Hagavik" />
		<tag k="place" v="farm" />
		<tag k="ssr:stedsnr" v="813223" />
	</node>
	<node lat="60.18783610768037" lon="5.754619449317535" id="-75723">
		<tag k="name" v="Fjellheim" />
		<tag k="place" v="farm" />
		<tag k="ssr:stedsnr" v="813225" />
	</node>
	<node lat="60.16993333440837" lon="5.408180563366913" id="-75725">
		<tag k="name" v="Leiro" />
		<tag k="place" v="farm" />
		<tag k="ssr:stedsnr" v="814098" />
	</node>
	<node lat="60.26589167079952" lon="5.482466668216994" id="-75745">
		<tag k="historic" v="shieling" />
		<tag k="name" v="Jonasetra" />
		<tag k="place" v="isolated_dwelling" />
		<tag k="ssr:stedsnr" v="826337" />
	</node>
	<node lat="60.211316663108484" lon="5.388841658735955" id="-75757">
		<tag k="amenity" v="school" />
		<tag k="name" v="Lysekloster barneskule" />
		<tag k="old_name" v="Lysekloster skule" />
		<tag k="ssr:stedsnr" v="826301" />
	</node>
	<node lat="60.26566026465069" lon="5.638388885286941" id="-75802">
		<tag k="alt_name" v="Samnøy indre" />
		<tag k="fixme" v="consider place=hamlet" />
		<tag k="name" v="Indre Samnøy" />
		<tag k="place" v="farm" />
		<tag k="ssr:stedsnr" v="826783" />
	</node>
	<node lat="60.19445555580958" lon="5.450683338995754" id="-75820">
		<tag k="amenity" v="sports_centre" />
		<tag k="name" v="Os idrettshall" />
		<tag k="ssr:stedsnr" v="827441" />
	</node>
	<node lat="60.16124166479311" lon="5.441538887803045" id="-75823">
		<tag k="amenity" v="school" />
		<tag k="name" v="Søre Neset skule" />
		<tag k="ssr:stedsnr" v="827514" />
	</node>
	<node lat="60.221727774063496" lon="5.52502221675713" id="-75825">
		<tag k="name" v="Heggland" />
		<tag k="place" v="farm" />
		<tag k="ssr:stedsnr" v="827525" />
	</node>
	<node lat="60.24539721969435" lon="5.761338892093042" id="-75839">
		<tag k="alt_name" v="Brunes" />
		<tag k="name" v="Bruneset" />
		<tag k="place" v="farm" />
		<tag k="ssr:stedsnr" v="854036" />
	</node>
	<node lat="60.06484167128823" lon="5.766211116464872" id="-75845">
		<tag k="name" v="Bergvik" />
		<tag k="place" v="farm" />
		<tag k="ssr:stedsnr" v="854239" />
	</node>
	<node lat="60.162854449025936" lon="5.663536226796852" id="-75846">
		<tag k="fixme" v="consider place=hamlet" />
		<tag k="name" v="Litle Vik" />
		<tag k="place" v="farm" />
		<tag k="ssr:stedsnr" v="854368" />
	</node>
	<node lat="60.211700000019455" lon="5.443197214385478" id="-75857">
		<tag k="name" v="Skogen" />
		<tag k="place" v="farm" />
		<tag k="ssr:stedsnr" v="854766" />
	</node>
	<node lat="60.16443792868856" lon="5.424820629173159" id="-75858">
		<tag k="alt_name" v="Særvold" />
		<tag k="fixme" v="consider place=hamlet" />
		<tag k="name" v="Særvoll" />
		<tag k="place" v="farm" />
		<tag k="ssr:stedsnr" v="854778" />
	</node>
	<node lat="60.24022566743874" lon="5.550010331426829" id="-75860">
		<tag k="fixme" v="consider place=hamlet" />
		<tag k="name" v="Gjemdal" />
		<tag k="place" v="farm" />
		<tag k="ssr:stedsnr" v="855190" />
	</node>
	<node lat="60.26039529154391" lon="5.825854452944397" id="-75866">
		<tag k="fixme" v="consider place=hamlet" />
		<tag k="name" v="Heihiller" />
		<tag k="place" v="farm" />
		<tag k="ssr:stedsnr" v="855323" />
	</node>
	<node lat="60.28535833371201" lon="5.547019443052487" id="-75871">
		<tag k="name" v="Øvredalstrædet" />
		<tag k="place" v="farm" />
		<tag k="ssr:stedsnr" v="855262" />
	</node>
	<node lat="60.093991668399845" lon="5.796247215025569" id="-75886">
		<tag k="name" v="Haugen" />
		<tag k="place" v="farm" />
		<tag k="ssr:stedsnr" v="874173" />
	</node>
	<node lat="60.08657499634095" lon="5.747138886189443" id="-75887">
		<tag k="name" v="Skitnabotn" />
		<tag k="place" v="farm" />
		<tag k="ssr:stedsnr" v="874174" />
	</node>
	<node lat="60.09938333369074" lon="5.738494450321652" id="-75888">
		<tag k="fixme" v="consider place=hamlet" />
		<tag k="name" v="Nordtveitgrend" />
		<tag k="place" v="village" />
		<tag k="ssr:stedsnr" v="874179" />
	</node>
	<node lat="60.082400002471346" lon="5.823850004643468" id="-75891">
		<tag k="name" v="Fløneset" />
		<tag k="place" v="farm" />
		<tag k="ssr:stedsnr" v="875180" />
	</node>
	<node lat="60.165050002552555" lon="5.661805559853299" id="-75915">
		<tag k="name" v="Solberg" />
		<tag k="place" v="farm" />
		<tag k="ssr:stedsnr" v="886876" />
	</node>
	<node lat="60.19181388521815" lon="5.453744439915055" id="-75930">
		<tag k="name" v="Heia" />
		<tag k="place" v="farm" />
		<tag k="ssr:stedsnr" v="887410" />
	</node>
	<node lat="60.18828611162132" lon="5.486502771959831" id="-75937">
		<tag k="name" v="Solstrand fjordhotell" />
		<tag k="ssr:stedsnr" v="887267" />
		<tag k="tourism" v="hotel" />
	</node>
	<node lat="60.24368889238072" lon="5.804141660476007" id="-75947">
		<tag k="name" v="Bruland" />
		<tag k="place" v="farm" />
		<tag k="ssr:stedsnr" v="887670" />
	</node>
	<node lat="60.272127778150924" lon="5.836611111929515" id="-75971">
		<tag k="name" v="Herborg" />
		<tag k="place" v="farm" />
		<tag k="ssr:stedsnr" v="947474" />
	</node>
	<node lat="60.28405833052993" lon="5.808713891541906" id="-75977">
		<tag k="name" v="Søre Kvangre" />
		<tag k="place" v="farm" />
		<tag k="ssr:stedsnr" v="947721" />
	</node>
	<node lat="60.14655475903167" lon="5.371980067187934" id="-76026">
		<tag k="fixme" v="consider place=hamlet" />
		<tag k="name" v="Sunnøya" />
		<tag k="place" v="farm" />
		<tag k="ssr:stedsnr" v="989964" />
	</node>
	<node lat="60.14129654613629" lon="5.406381953417566" id="-76027">
		<tag k="fixme" v="consider place=hamlet" />
		<tag k="name" v="Kvalesund" />
		<tag k="place" v="farm" />
		<tag k="ssr:stedsnr" v="989965" />
	</node>
	<node lat="60.20145779836235" lon="5.424524143799911" id="-76028">
		<tag k="fixme" v="consider place=hamlet" />
		<tag k="name" v="Ulven" />
		<tag k="place" v="farm" />
		<tag k="ssr:stedsnr" v="989967" />
	</node>
	<node lat="60.202467077178554" lon="5.466064073979315" id="-76029">
		<tag k="fixme" v="consider place=hamlet" />
		<tag k="name" v="Os prestegard" />
		<tag k="place" v="farm" />
		<tag k="ssr:stedsnr" v="989970" />
	</node>
	<node lat="60.213277576561644" lon="5.441473702390936" id="-76030">
		<tag k="fixme" v="consider place=hamlet" />
		<tag k="name" v="Garvik" />
		<tag k="place" v="farm" />
		<tag k="ssr:stedsnr" v="989971" />
	</node>
	<node lat="60.19275076621404" lon="5.499757859044038" id="-76031">
		<tag k="fixme" v="consider place=hamlet" />
		<tag k="name" v="Molde" />
		<tag k="place" v="farm" />
		<tag k="ssr:stedsnr" v="989974" />
	</node>
	<node lat="60.21015580939421" lon="5.535717836931665" id="-76032">
		<tag k="fixme" v="consider place=hamlet" />
		<tag k="name" v="Vestre Berge" />
		<tag k="place" v="farm" />
		<tag k="ssr:stedsnr" v="989981" />
	</node>
	<node lat="60.23724325955645" lon="5.5476279868868215" id="-76033">
		<tag k="fixme" v="consider place=hamlet" />
		<tag k="name" v="Heggeland" />
		<tag k="place" v="farm" />
		<tag k="ssr:stedsnr" v="989983" />
	</node>
	<node lat="60.299634947250105" lon="5.670645669567819" id="-76034">
		<tag k="fixme" v="consider place=hamlet" />
		<tag k="name" v="Vafet" />
		<tag k="place" v="farm" />
		<tag k="ssr:stedsnr" v="989997" />
	</node>
	<node lat="60.20549504723387" lon="5.628951723807246" id="-76035">
		<tag k="fixme" v="consider place=hamlet" />
		<tag k="name" v="Fusa" />
		<tag k="place" v="farm" />
		<tag k="ssr:stedsnr" v="990001" />
	</node>
	<node lat="60.22196235927322" lon="5.379089050608537" id="-76036">
		<tag k="fixme" v="consider place=hamlet" />
		<tag k="name" v="Sperrevika" />
		<tag k="place" v="farm" />
		<tag k="ssr:stedsnr" v="989957" />
	</node>
	<node lat="60.21232278999726" lon="5.367404061042118" id="-76037">
		<tag k="fixme" v="consider place=hamlet" />
		<tag k="name" v="Lysøya" />
		<tag k="place" v="farm" />
		<tag k="ssr:stedsnr" v="989958" />
	</node>
	<node lat="60.15882427540179" lon="5.322260933916505" id="-76038">
		<tag k="fixme" v="consider place=hamlet" />
		<tag k="name" v="Forstrøno" />
		<tag k="place" v="farm" />
		<tag k="ssr:stedsnr" v="989959" />
	</node>
	<node lat="60.184779259049286" lon="5.454103128042189" id="-76334">
		<tag k="name" v="Moberg" />
		<tag k="place" v="hamlet" />
		<tag k="ssr:stedsnr" v="1080317" />
	</node>
</osm>
