<?xml version="1.0" encoding="UTF-8"?>
<osm version="0.6" generator="osmapis">
	<node id="1737293029" lat="60.4302214" lon="9.4617848" version="2" timestamp="2022-04-12T16:19:47Z" changeset="119629110" uid="3497659" user="NKA">
		<tag k="name" v="Flå" />
		<tag k="place" v="village" />
		<tag k="ssr:stedsnr" v="234929" />
	</node>
	<node id="2354962407" lat="60.389597" lon="9.345389" version="2" timestamp="2018-05-02T17:04:11Z" changeset="58620907" uid="3497659" user="NKA">
		<tag k="name" v="Ufsin" />
		<tag k="natural" v="peak" />
		<tag k="source" v="Kartverket" />
		<tag k="ssr:stedsnr" v="249208" />
	</node>
	<node id="2354989455" lat="60.348778" lon="9.656" version="2" timestamp="2018-05-02T17:04:12Z" changeset="58620907" uid="3497659" user="NKA">
		<tag k="name" v="Djupedal" />
		<tag k="place" v="locality" />
		<tag k="source" v="Kartverket" />
		<tag k="ssr:stedsnr" v="707587" />
	</node>
	<node id="2354989747" lat="60.405397" lon="9.474756" version="2" timestamp="2018-05-02T17:04:12Z" changeset="58620907" uid="3497659" user="NKA">
		<tag k="name" v="Brekkene" />
		<tag k="place" v="locality" />
		<tag k="source" v="Kartverket" />
		<tag k="ssr:stedsnr" v="946136" />
	</node>
	<node id="2354989869" lat="60.417369" lon="9.365567" version="2" timestamp="2018-05-02T17:04:12Z" changeset="58620907" uid="3497659" user="NKA">
		<tag k="name" v="Bakko" />
		<tag k="place" v="locality" />
		<tag k="source" v="Kartverket" />
		<tag k="ssr:stedsnr" v="239059" />
	</node>
	<node id="4100513489" lat="60.4350533" lon="9.6692419" version="2" timestamp="2022-04-12T16:19:47Z" changeset="119629110" uid="3497659" user="NKA">
		<tag k="historic" v="shieling" />
		<tag k="name" v="Sørbølsetran" />
		<tag k="place" v="hamlet" />
		<tag k="ssr:stedsnr" v="248982" />
	</node>
	<node id="5068810318" lat="60.3424138" lon="9.5260167" version="2" timestamp="2022-04-12T16:19:47Z" changeset="119629110" uid="3497659" user="NKA">
		<tag k="name" v="Dollhus" />
		<tag k="place" v="locality" />
		<tag k="ssr:stedsnr" v="40197" />
	</node>
	<node id="5068828893" lat="60.3351028" lon="9.4986389" version="3" timestamp="2022-04-12T16:19:47Z" changeset="119629110" uid="3497659" user="NKA">
		<tag k="historic" v="shieling" />
		<tag k="name" v="Kroksetre" />
		<tag k="place" v="isolated_dwelling" />
		<tag k="ssr:stedsnr" v="127047" />
	</node>
	<node id="5068831033" lat="60.3376747" lon="9.5026206" version="2" timestamp="2022-04-12T16:19:47Z" changeset="119629110" uid="3497659" user="NKA">
		<tag k="name" v="Fjellblink" />
		<tag k="place" v="locality" />
		<tag k="ssr:stedsnr" v="40189" />
	</node>
	<node id="5069212609" lat="60.3393203" lon="9.5332469" version="2" timestamp="2022-04-12T16:19:47Z" changeset="119629110" uid="3497659" user="NKA">
		<tag k="name" v="Leirvollen" />
		<tag k="place" v="isolated_dwelling" />
		<tag k="ssr:stedsnr" v="795079" />
	</node>
	<node id="5073588164" lat="60.3190863" lon="9.470615" version="2" timestamp="2022-04-12T16:19:47Z" changeset="119629110" uid="3497659" user="NKA">
		<tag k="historic" v="shieling" />
		<tag k="name" v="Gulsviksetran" />
		<tag k="place" v="hamlet" />
		<tag k="ssr:stedsnr" v="856037" />
	</node>
	<node id="5077679933" lat="60.3533907" lon="9.5307665" version="2" timestamp="2022-04-12T16:19:47Z" changeset="119629110" uid="3497659" user="NKA">
		<tag k="alt_name" v="Gulsvik heimseter" />
		<tag k="historic" v="shieling" />
		<tag k="name" v="Bjørnsetre" />
		<tag k="place" v="isolated_dwelling" />
		<tag k="ssr:stedsnr" v="734012" />
	</node>
	<node id="5510697723" lat="60.4346083" lon="9.6490028" version="2" timestamp="2022-04-12T16:19:47Z" changeset="119629110" uid="3497659" user="NKA">
		<tag k="historic" v="shieling" />
		<tag k="name" v="Solheimsetran" />
		<tag k="place" v="isolated_dwelling" />
		<tag k="ssr:stedsnr" v="5974" />
	</node>
	<node id="5942471890" lat="60.3825901" lon="9.6090272" version="2" timestamp="2022-04-12T16:19:47Z" changeset="119629110" uid="3497659" user="NKA">
		<tag k="name" v="Gulsvik" />
		<tag k="place" v="village" />
		<tag k="ssr:stedsnr" v="491960" />
	</node>
	<node id="6710601197" lat="60.3885949" lon="9.5639374" version="2" timestamp="2022-01-31T06:42:31Z" changeset="116807300" uid="3497659" user="NKA">
		<tag k="junction" v="yes" />
		<tag k="name" v="Veterkrysset" />
		<tag k="ssr:stedsnr" v="300491" />
	</node>
	<node id="9661184411" lat="60.3734285" lon="9.6430188" version="1" timestamp="2022-04-12T16:19:47Z" changeset="119629110" uid="3497659" user="NKA">
		<tag k="alt_name" v="Vestre Tromald" />
		<tag k="name" v="Vestre Trommald" />
		<tag k="place" v="farm" />
		<tag k="ssr:stedsnr" v="586422" />
	</node>
	<node id="9661184412" lat="60.4281864" lon="9.4701598" version="1" timestamp="2022-04-12T16:19:47Z" changeset="119629110" uid="3497659" user="NKA">
		<tag k="name" v="Solvang" />
		<tag k="place" v="farm" />
		<tag k="ssr:stedsnr" v="586236" />
	</node>
	<node id="9661184413" lat="60.3584989" lon="9.6484206" version="1" timestamp="2022-04-12T16:19:47Z" changeset="119629110" uid="3497659" user="NKA">
		<tag k="name" v="Nordre Sønsteby" />
		<tag k="place" v="farm" />
		<tag k="ssr:stedsnr" v="889556" />
	</node>
	<node id="9661184414" lat="60.4087" lon="9.7762861" version="1" timestamp="2022-04-12T16:19:47Z" changeset="119629110" uid="3497659" user="NKA">
		<tag k="alt_name" v="Buvannsvollen" />
		<tag k="name" v="Buvassvollen" />
		<tag k="place" v="isolated_dwelling" />
		<tag k="ssr:stedsnr" v="249955" />
	</node>
	<node id="9661184415" lat="60.3076401" lon="9.5887195" version="1" timestamp="2022-04-12T16:19:47Z" changeset="119629110" uid="3497659" user="NKA">
		<tag k="name" v="Stormyrhytta" />
		<tag k="place" v="isolated_dwelling" />
		<tag k="ssr:stedsnr" v="464182" />
	</node>
	<node id="9661184416" lat="60.3873135" lon="9.7960133" version="1" timestamp="2022-04-12T16:19:47Z" changeset="119629110" uid="3497659" user="NKA">
		<tag k="name" v="Tømmerkoia" />
		<tag k="place" v="isolated_dwelling" />
		<tag k="ssr:stedsnr" v="846456" />
	</node>
	<node id="9661216917" lat="60.3753333" lon="9.6519778" version="1" timestamp="2022-04-12T16:19:47Z" changeset="119629110" uid="3497659" user="NKA">
		<tag k="alt_name" v="Hagen" />
		<tag k="name" v="Hagan" />
		<tag k="place" v="farm" />
		<tag k="ssr:stedsnr" v="613782" />
	</node>
	<node id="9661216918" lat="60.3444015" lon="9.5313738" version="1" timestamp="2022-04-12T16:19:47Z" changeset="119629110" uid="3497659" user="NKA">
		<tag k="name" v="Solbu" />
		<tag k="place" v="isolated_dwelling" />
		<tag k="ssr:stedsnr" v="734020" />
	</node>
	<node id="9661216919" lat="60.4158278" lon="9.5435778" version="1" timestamp="2022-04-12T16:19:47Z" changeset="119629110" uid="3497659" user="NKA">
		<tag k="historic" v="shieling" />
		<tag k="name" v="Mosetre" />
		<tag k="place" v="isolated_dwelling" />
		<tag k="ssr:stedsnr" v="613217" />
	</node>
	<node id="9661216920" lat="60.3723296" lon="9.634957" version="1" timestamp="2022-04-12T16:19:47Z" changeset="119629110" uid="3497659" user="NKA">
		<tag k="name" v="Fossmo" />
		<tag k="place" v="farm" />
		<tag k="ssr:stedsnr" v="586390" />
	</node>
	<node id="9661216921" lat="60.3818525" lon="9.7060169" version="1" timestamp="2022-04-12T16:19:47Z" changeset="119629110" uid="3497659" user="NKA">
		<tag k="alt_name" v="Megårdshaugen" />
		<tag k="name" v="Megardshaugen" />
		<tag k="place" v="isolated_dwelling" />
		<tag k="ssr:stedsnr" v="431965" />
	</node>
	<node id="9661216922" lat="60.3490167" lon="9.653361" version="1" timestamp="2022-04-12T16:19:47Z" changeset="119629110" uid="3497659" user="NKA">
		<tag k="alt_name" v="Glahaugen" />
		<tag k="name" v="Gladhaug" />
		<tag k="place" v="locality" />
		<tag k="ssr:stedsnr" v="161552" />
	</node>
	<node id="9661216923" lat="60.3266281" lon="9.6644522" version="1" timestamp="2022-04-12T16:19:47Z" changeset="119629110" uid="3497659" user="NKA">
		<tag k="alt_name" v="Lindelien" />
		<tag k="loc_name" v="Lindelie" />
		<tag k="name" v="Lindelia" />
		<tag k="place" v="farm" />
		<tag k="ssr:stedsnr" v="310857" />
	</node>
	<node id="9661216924" lat="60.3358393" lon="9.7201306" version="1" timestamp="2022-04-12T16:19:47Z" changeset="119629110" uid="3497659" user="NKA">
		<tag k="name" v="Svarttjernkoia" />
		<tag k="place" v="isolated_dwelling" />
		<tag k="ssr:stedsnr" v="67861" />
	</node>
	<node id="9661216925" lat="60.3730389" lon="9.726975" version="1" timestamp="2022-04-12T16:19:47Z" changeset="119629110" uid="3497659" user="NKA">
		<tag k="name" v="Langtjernhytta" />
		<tag k="place" v="isolated_dwelling" />
		<tag k="ssr:stedsnr" v="127816" />
	</node>
	<node id="9661216926" lat="60.3779258" lon="9.5698944" version="1" timestamp="2022-04-12T16:19:47Z" changeset="119629110" uid="3497659" user="NKA">
		<tag k="alt_name" v="Sæterstøi" />
		<tag k="loc_name" v="Seterstø;Seterstøa" />
		<tag k="name" v="Sæterstøa" />
		<tag k="place" v="farm" />
		<tag k="ssr:stedsnr" v="6028" />
	</node>
	<node id="9661216927" lat="60.380225" lon="9.6329945" version="1" timestamp="2022-04-12T16:19:47Z" changeset="119629110" uid="3497659" user="NKA">
		<tag k="name" v="Myrvad" />
		<tag k="place" v="farm" />
		<tag k="ssr:stedsnr" v="6972" />
	</node>
	<node id="9661216928" lat="60.4215083" lon="9.5967361" version="1" timestamp="2022-04-12T16:19:47Z" changeset="119629110" uid="3497659" user="NKA">
		<tag k="name" v="Stillingdalshytta" />
		<tag k="place" v="isolated_dwelling" />
		<tag k="ssr:stedsnr" v="846476" />
	</node>
	<node id="9661216929" lat="60.39424" lon="9.5508251" version="1" timestamp="2022-04-12T16:19:47Z" changeset="119629110" uid="3497659" user="NKA">
		<tag k="name" v="Roppe" />
		<tag k="place" v="farm" />
		<tag k="ssr:stedsnr" v="6248" />
	</node>
	<node id="9661216930" lat="60.3790874" lon="9.5647569" version="1" timestamp="2022-04-12T16:19:47Z" changeset="119629110" uid="3497659" user="NKA">
		<tag k="alt_name" v="Gandrudbakken" />
		<tag k="name" v="Gandrudhaugen" />
		<tag k="place" v="farm" />
		<tag k="ssr:stedsnr" v="525403" />
	</node>
	<node id="9661216931" lat="60.3892868" lon="9.5683034" version="1" timestamp="2022-04-12T16:19:47Z" changeset="119629110" uid="3497659" user="NKA">
		<tag k="name" v="Mellom-Gulsvik" />
		<tag k="place" v="farm" />
		<tag k="ssr:stedsnr" v="846464" />
	</node>
	<node id="9661216932" lat="60.3507307" lon="9.6083531" version="1" timestamp="2022-04-12T16:19:47Z" changeset="119629110" uid="3497659" user="NKA">
		<tag k="name" v="Veteren" />
		<tag k="old_name" v="Væteren" />
		<tag k="place" v="farm" />
		<tag k="ssr:stedsnr" v="646592" />
	</node>
	<node id="9661216933" lat="60.4222222" lon="9.5165334" version="1" timestamp="2022-04-12T16:19:47Z" changeset="119629110" uid="3497659" user="NKA">
		<tag k="name" v="Fattigset" />
		<tag k="place" v="locality" />
		<tag k="ssr:stedsnr" v="602197" />
	</node>
	<node id="9661216934" lat="60.3931899" lon="9.552014" version="1" timestamp="2022-04-12T16:19:47Z" changeset="119629110" uid="3497659" user="NKA">
		<tag k="name" v="Roppeøyni" />
		<tag k="place" v="isolated_dwelling" />
		<tag k="ssr:stedsnr" v="724444" />
	</node>
	<node id="9661216935" lat="60.3728192" lon="9.4733027" version="1" timestamp="2022-04-12T16:19:47Z" changeset="119629110" uid="3497659" user="NKA">
		<tag k="name" v="Svarthaugen" />
		<tag k="place" v="isolated_dwelling" />
		<tag k="ssr:stedsnr" v="127249" />
	</node>
	<node id="9661216936" lat="60.412297" lon="9.5056705" version="1" timestamp="2022-04-12T16:19:47Z" changeset="119629110" uid="3497659" user="NKA">
		<tag k="alt_name" v="Engene" />
		<tag k="name" v="Engan" />
		<tag k="place" v="farm" />
		<tag k="ssr:stedsnr" v="309228" />
	</node>
	<node id="9661216937" lat="60.4284359" lon="9.4840444" version="1" timestamp="2022-04-12T16:19:47Z" changeset="119629110" uid="3497659" user="NKA">
		<tag k="name" v="Vesberg" />
		<tag k="place" v="farm" />
		<tag k="ssr:stedsnr" v="795210" />
	</node>
	<node id="9661216938" lat="60.3605916" lon="9.5136751" version="1" timestamp="2022-04-12T16:19:47Z" changeset="119629110" uid="3497659" user="NKA">
		<tag k="historic" v="shieling" />
		<tag k="name" v="Gandrudsetre" />
		<tag k="place" v="isolated_dwelling" />
		<tag k="ssr:stedsnr" v="67010" />
	</node>
	<node id="9661216939" lat="60.42995" lon="9.481" version="1" timestamp="2022-04-12T16:19:47Z" changeset="119629110" uid="3497659" user="NKA">
		<tag k="name" v="Kvernjordet" />
		<tag k="place" v="farm" />
		<tag k="ssr:stedsnr" v="6179" />
	</node>
	<node id="9661216940" lat="60.4095943" lon="9.4964177" version="1" timestamp="2022-04-12T16:19:47Z" changeset="119629110" uid="3497659" user="NKA">
		<tag k="name" v="Tangen" />
		<tag k="place" v="farm" />
		<tag k="ssr:stedsnr" v="724161" />
	</node>
	<node id="9661216941" lat="60.4281033" lon="9.4645908" version="1" timestamp="2022-04-12T16:19:47Z" changeset="119629110" uid="3497659" user="NKA">
		<tag k="name" v="Voll" />
		<tag k="place" v="farm" />
		<tag k="ssr:stedsnr" v="890240" />
	</node>
	<node id="9661216942" lat="60.4117032" lon="9.2472134" version="1" timestamp="2022-04-12T16:19:47Z" changeset="119629110" uid="3497659" user="NKA">
		<tag k="historic" v="shieling" />
		<tag k="name" v="Nysetre" />
		<tag k="place" v="isolated_dwelling" />
		<tag k="ssr:stedsnr" v="6228" />
	</node>
	<node id="9661216943" lat="60.4008624" lon="9.1748301" version="1" timestamp="2022-04-12T16:19:47Z" changeset="119629110" uid="3497659" user="NKA">
		<tag k="historic" v="shieling" />
		<tag k="name" v="Trøgaset" />
		<tag k="place" v="hamlet" />
		<tag k="ssr:stedsnr" v="310348" />
	</node>
	<node id="9661216944" lat="60.3853889" lon="9.6352779" version="1" timestamp="2022-04-12T16:19:47Z" changeset="119629110" uid="3497659" user="NKA">
		<tag k="name" v="Øvre Rudningen" />
		<tag k="place" v="locality" />
		<tag k="ssr:stedsnr" v="967275" />
	</node>
	<node id="9661216945" lat="60.443575" lon="9.8317833" version="1" timestamp="2022-04-12T16:19:47Z" changeset="119629110" uid="3497659" user="NKA">
		<tag k="historic" v="shieling" />
		<tag k="name" v="Skardsetre" />
		<tag k="place" v="isolated_dwelling" />
		<tag k="ssr:stedsnr" v="794892" />
	</node>
	<node id="9661216946" lat="60.3784028" lon="9.5550139" version="1" timestamp="2022-04-12T16:19:47Z" changeset="119629110" uid="3497659" user="NKA">
		<tag k="name" v="Kvernhusmoen" />
		<tag k="place" v="locality" />
		<tag k="ssr:stedsnr" v="829377" />
	</node>
	<node id="9661216947" lat="60.4415389" lon="9.3851167" version="1" timestamp="2022-04-12T16:19:47Z" changeset="119629110" uid="3497659" user="NKA">
		<tag k="historic" v="shieling" />
		<tag k="name" v="Nylio" />
		<tag k="place" v="isolated_dwelling" />
		<tag k="ssr:stedsnr" v="734134" />
	</node>
	<node id="9661216948" lat="60.3588207" lon="9.6785127" version="1" timestamp="2022-04-12T16:19:47Z" changeset="119629110" uid="3497659" user="NKA">
		<tag k="name" v="Åsbu" />
		<tag k="place" v="isolated_dwelling" />
		<tag k="ssr:stedsnr" v="734760" />
	</node>
	<node id="9661216949" lat="60.4755154" lon="9.3781964" version="1" timestamp="2022-04-12T16:19:47Z" changeset="119629110" uid="3497659" user="NKA">
		<tag k="historic" v="shieling" />
		<tag k="name" v="Grønlisetran" />
		<tag k="place" v="isolated_dwelling" />
		<tag k="ssr:stedsnr" v="673373" />
	</node>
	<node id="9661216950" lat="60.4321507" lon="9.3566444" version="1" timestamp="2022-04-12T16:19:47Z" changeset="119629110" uid="3497659" user="NKA">
		<tag k="name" v="Austvoll" />
		<tag k="place" v="hamlet" />
		<tag k="ssr:stedsnr" v="674178" />
	</node>
	<node id="9661216951" lat="60.4915333" lon="9.3243778" version="1" timestamp="2022-04-12T16:19:47Z" changeset="119629110" uid="3497659" user="NKA">
		<tag k="name" v="Øvre Nyseter" />
		<tag k="place" v="locality" />
		<tag k="ssr:stedsnr" v="466545" />
	</node>
	<node id="9661216952" lat="60.4234539" lon="9.340749" version="1" timestamp="2022-04-12T16:19:47Z" changeset="119629110" uid="3497659" user="NKA">
		<tag k="alt_name" v="Ødegården" />
		<tag k="name" v="Øygarden" />
		<tag k="old_name" v="Øydgd" />
		<tag k="place" v="farm" />
		<tag k="ssr:stedsnr" v="492123" />
	</node>
	<node id="9661216953" lat="60.4225411" lon="9.3151396" version="1" timestamp="2022-04-12T16:19:47Z" changeset="119629110" uid="3497659" user="NKA">
		<tag k="alt_name" v="Larsebråten" />
		<tag k="name" v="Framgardsbråten" />
		<tag k="place" v="farm" />
		<tag k="ssr:stedsnr" v="249153" />
	</node>
	<node id="9661216954" lat="60.419003" lon="9.3815517" version="1" timestamp="2022-04-12T16:19:47Z" changeset="119629110" uid="3497659" user="NKA">
		<tag k="name" v="Botolfshus" />
		<tag k="place" v="farm" />
		<tag k="ssr:stedsnr" v="300018" />
	</node>
	<node id="9661216955" lat="60.4086759" lon="9.3432438" version="1" timestamp="2022-04-12T16:19:47Z" changeset="119629110" uid="3497659" user="NKA">
		<tag k="historic" v="shieling" />
		<tag k="name" v="Rakhalsen" />
		<tag k="place" v="isolated_dwelling" />
		<tag k="ssr:stedsnr" v="6223" />
	</node>
	<node id="9661216956" lat="60.4022356" lon="9.3741826" version="1" timestamp="2022-04-12T16:19:47Z" changeset="119629110" uid="3497659" user="NKA">
		<tag k="alt_name" v="Brakketomta" />
		<tag k="name" v="Brakketomti" />
		<tag k="place" v="isolated_dwelling" />
		<tag k="ssr:stedsnr" v="127211" />
	</node>
	<node id="9661216957" lat="60.4259085" lon="9.4036307" version="1" timestamp="2022-04-12T16:19:47Z" changeset="119629110" uid="3497659" user="NKA">
		<tag k="name" v="Nordre Åvestrud" />
		<tag k="place" v="farm" />
		<tag k="ssr:stedsnr" v="542012" />
	</node>
	<node id="9661216958" lat="60.4475064" lon="9.3718259" version="1" timestamp="2022-04-12T16:19:47Z" changeset="119629110" uid="3497659" user="NKA">
		<tag k="name" v="Rime" />
		<tag k="place" v="farm" />
		<tag k="ssr:stedsnr" v="6149" />
	</node>
	<node id="9661216959" lat="60.433201" lon="9.3593081" version="1" timestamp="2022-04-12T16:19:47Z" changeset="119629110" uid="3497659" user="NKA">
		<tag k="name" v="Ballanby" />
		<tag k="place" v="locality" />
		<tag k="ssr:stedsnr" v="343877" />
	</node>
	<node id="9661216960" lat="60.4322235" lon="9.3525359" version="1" timestamp="2022-04-12T16:19:47Z" changeset="119629110" uid="3497659" user="NKA">
		<tag k="alt_name" v="Bråtejordet" />
		<tag k="name" v="Bråtajordet" />
		<tag k="place" v="farm" />
		<tag k="ssr:stedsnr" v="309204" />
	</node>
	<node id="9661216961" lat="60.5045778" lon="9.3358278" version="1" timestamp="2022-04-12T16:19:47Z" changeset="119629110" uid="3497659" user="NKA">
		<tag k="alt_name" v="Kolsrudbødalen" />
		<tag k="historic" v="shieling" />
		<tag k="name" v="Nordre Kolsrudbødalen" />
		<tag k="place" v="isolated_dwelling" />
		<tag k="ssr:stedsnr" v="371800" />
	</node>
	<node id="9661216962" lat="60.4026592" lon="9.3484732" version="1" timestamp="2022-04-12T16:19:47Z" changeset="119629110" uid="3497659" user="NKA">
		<tag k="name" v="Samuelslihytta" />
		<tag k="place" v="isolated_dwelling" />
		<tag k="ssr:stedsnr" v="67229" />
	</node>
	<node id="9661216963" lat="60.4252161" lon="9.3274036" version="1" timestamp="2022-04-12T16:19:47Z" changeset="119629110" uid="3497659" user="NKA">
		<tag k="name" v="Teigen" />
		<tag k="place" v="farm" />
		<tag k="ssr:stedsnr" v="370191" />
	</node>
	<node id="9661216964" lat="60.470775" lon="9.3331751" version="1" timestamp="2022-04-12T16:19:47Z" changeset="119629110" uid="3497659" user="NKA">
		<tag k="historic" v="shieling" />
		<tag k="loc_name" v="Fjøssetre" />
		<tag k="name" v="Fjossetre" />
		<tag k="place" v="isolated_dwelling" />
		<tag k="ssr:stedsnr" v="66345" />
	</node>
	<node id="9661216965" lat="60.3659556" lon="9.1833277" version="1" timestamp="2022-04-12T16:19:47Z" changeset="119629110" uid="3497659" user="NKA">
		<tag k="historic" v="shieling" />
		<tag k="name" v="Bergesetre" />
		<tag k="place" v="isolated_dwelling" />
		<tag k="ssr:stedsnr" v="673402" />
	</node>
	<node id="9661216966" lat="60.4316139" lon="9.3256362" version="1" timestamp="2022-04-12T16:19:47Z" changeset="119629110" uid="3497659" user="NKA">
		<tag k="alt_name" v="Engen" />
		<tag k="name" v="Engi" />
		<tag k="place" v="isolated_dwelling" />
		<tag k="ssr:stedsnr" v="67211" />
	</node>
	<node id="9661216967" lat="60.4856139" lon="9.4461584" version="1" timestamp="2022-04-12T16:19:47Z" changeset="119629110" uid="3497659" user="NKA">
		<tag k="alt_name" v="Hangshytta" />
		<tag k="name" v="Hangstjernhytta" />
		<tag k="place" v="isolated_dwelling" />
		<tag k="ssr:stedsnr" v="612368" />
	</node>
	<node id="9661216968" lat="60.3774311" lon="9.1783678" version="1" timestamp="2022-04-12T16:19:47Z" changeset="119629110" uid="3497659" user="NKA">
		<tag k="historic" v="shieling" />
		<tag k="name" v="Flenten" />
		<tag k="place" v="isolated_dwelling" />
		<tag k="ssr:stedsnr" v="66353" />
	</node>
	<node id="9661216969" lat="60.4646477" lon="9.5634142" version="1" timestamp="2022-04-12T16:19:47Z" changeset="119629110" uid="3497659" user="NKA">
		<tag k="loc_name" v="Skarsdalen" />
		<tag k="name" v="Skardsdalen" />
		<tag k="place" v="neighbourhood" />
		<tag k="ssr:stedsnr" v="602876" />
	</node>
	<node id="9661216970" lat="60.5233417" lon="9.3673721" version="1" timestamp="2022-04-12T16:19:47Z" changeset="119629110" uid="3497659" user="NKA">
		<tag k="alt_name" v="Dagaliseter" />
		<tag k="historic" v="shieling" />
		<tag k="name" v="Dagali" />
		<tag k="place" v="hamlet" />
		<tag k="ssr:stedsnr" v="613749" />
	</node>
	<node id="9661216971" lat="60.5048583" lon="9.4657389" version="1" timestamp="2022-04-12T16:19:47Z" changeset="119629110" uid="3497659" user="NKA">
		<tag k="alt_name" v="Veneli hyttegrend" />
		<tag k="name" v="Veneli" />
		<tag k="place" v="neighbourhood" />
		<tag k="ssr:stedsnr" v="432785" />
	</node>
	<node id="9661216972" lat="60.4915112" lon="9.383325" version="1" timestamp="2022-04-12T16:19:47Z" changeset="119629110" uid="3497659" user="NKA">
		<tag k="alt_name" v="Veslefekjan" />
		<tag k="name" v="Veslefetjan" />
		<tag k="place" v="locality" />
		<tag k="ssr:stedsnr" v="586744" />
	</node>
	<node id="9661216973" lat="60.4480417" lon="9.4350564" version="1" timestamp="2022-04-12T16:19:47Z" changeset="119629110" uid="3497659" user="NKA">
		<tag k="name" v="Solhaug" />
		<tag k="place" v="farm" />
		<tag k="ssr:stedsnr" v="239984" />
	</node>
	<node id="9661216974" lat="60.485953" lon="9.3730394" version="1" timestamp="2022-04-12T16:19:47Z" changeset="119629110" uid="3497659" user="NKA">
		<tag k="historic" v="shieling" />
		<tag k="name" v="Ransarhaugen" />
		<tag k="place" v="isolated_dwelling" />
		<tag k="ssr:stedsnr" v="127356" />
	</node>
	<node id="9661216975" lat="60.46705" lon="9.5613278" version="1" timestamp="2022-04-12T16:19:47Z" changeset="119629110" uid="3497659" user="NKA">
		<tag k="name" v="Flagligrende" />
		<tag k="place" v="hamlet" />
		<tag k="ssr:stedsnr" v="300295" />
	</node>
	<node id="9661216976" lat="60.4926972" lon="9.4414889" version="1" timestamp="2022-04-12T16:19:47Z" changeset="119629110" uid="3497659" user="NKA">
		<tag k="name" v="Rismyrhytta" />
		<tag k="place" v="isolated_dwelling" />
		<tag k="ssr:stedsnr" v="127345" />
	</node>
	<node id="9661216977" lat="60.4279653" lon="9.4729269" version="1" timestamp="2022-04-12T16:19:47Z" changeset="119629110" uid="3497659" user="NKA">
		<tag k="name" v="Ve" />
		<tag k="place" v="hamlet" />
		<tag k="ssr:stedsnr" v="127179" />
	</node>
	<node id="9661216978" lat="60.4484794" lon="9.4370966" version="1" timestamp="2022-04-12T16:19:47Z" changeset="119629110" uid="3497659" user="NKA">
		<tag k="name" v="Heiplass" />
		<tag k="place" v="farm" />
		<tag k="ssr:stedsnr" v="431159" />
	</node>
	<node id="9661216979" lat="60.4237385" lon="9.3945053" version="1" timestamp="2022-04-12T16:19:47Z" changeset="119629110" uid="3497659" user="NKA">
		<tag k="name" v="Steinmoen" />
		<tag k="place" v="farm" />
		<tag k="ssr:stedsnr" v="734171" />
	</node>
	<node id="9661216980" lat="60.428575" lon="9.7629001" version="1" timestamp="2022-04-12T16:19:47Z" changeset="119629110" uid="3497659" user="NKA">
		<tag k="historic" v="shieling" />
		<tag k="name" v="Oppsalsetre" />
		<tag k="place" v="isolated_dwelling" />
		<tag k="ssr:stedsnr" v="612966" />
	</node>
	<node id="9661216981" lat="60.3635445" lon="9.6037806" version="1" timestamp="2022-04-12T16:19:47Z" changeset="119629110" uid="3497659" user="NKA">
		<tag k="name" v="Mælingen" />
		<tag k="place" v="farm" />
		<tag k="ssr:stedsnr" v="161559" />
	</node>
	<node id="9661216982" lat="60.4307924" lon="9.4609231" version="1" timestamp="2022-04-12T16:19:47Z" changeset="119629110" uid="3497659" user="NKA">
		<tag k="name" v="Grønvoll" />
		<tag k="place" v="farm" />
		<tag k="ssr:stedsnr" v="586240" />
	</node>
	<node id="9661216983" lat="60.3759027" lon="9.5749583" version="1" timestamp="2022-04-12T16:19:47Z" changeset="119629110" uid="3497659" user="NKA">
		<tag k="name" v="Gamlerudningen" />
		<tag k="place" v="locality" />
		<tag k="ssr:stedsnr" v="40389" />
	</node>
	<node id="9661216984" lat="60.3798649" lon="9.5616366" version="1" timestamp="2022-04-12T16:19:47Z" changeset="119629110" uid="3497659" user="NKA">
		<tag k="alt_name" v="Gandrud" />
		<tag k="name" v="Store Gandrud" />
		<tag k="place" v="farm" />
		<tag k="ssr:stedsnr" v="309255" />
	</node>
	<node id="9661216985" lat="60.3948" lon="9.5097306" version="1" timestamp="2022-04-12T16:19:47Z" changeset="119629110" uid="3497659" user="NKA">
		<tag k="name" v="Lieng" />
		<tag k="place" v="farm" />
		<tag k="ssr:stedsnr" v="127263" />
	</node>
	<node id="9661216986" lat="60.3811972" lon="9.5164833" version="1" timestamp="2022-04-12T16:19:47Z" changeset="119629110" uid="3497659" user="NKA">
		<tag k="name" v="Likleivi" />
		<tag k="place" v="isolated_dwelling" />
		<tag k="ssr:stedsnr" v="309271" />
	</node>
	<node id="9661216987" lat="60.3747133" lon="9.4041404" version="1" timestamp="2022-04-12T16:19:47Z" changeset="119629110" uid="3497659" user="NKA">
		<tag k="alt_name" v="Trøstheimsætri" />
		<tag k="historic" v="shieling" />
		<tag k="name" v="Trøstheimseter" />
		<tag k="old_name" v="Trøstheimsetri" />
		<tag k="place" v="isolated_dwelling" />
		<tag k="ssr:stedsnr" v="67249" />
	</node>
	<node id="9661216988" lat="60.4346028" lon="9.6138109" version="1" timestamp="2022-04-12T16:19:47Z" changeset="119629110" uid="3497659" user="NKA">
		<tag k="name" v="Vaktartjernhytta" />
		<tag k="place" v="isolated_dwelling" />
		<tag k="ssr:stedsnr" v="673979" />
	</node>
	<node id="9661216989" lat="60.4077917" lon="9.3119279" version="1" timestamp="2022-04-12T16:19:47Z" changeset="119629110" uid="3497659" user="NKA">
		<tag k="historic" v="shieling" />
		<tag k="name" v="Bjørnehaugsetre" />
		<tag k="place" v="isolated_dwelling" />
		<tag k="ssr:stedsnr" v="127228" />
	</node>
	<node id="9661216990" lat="60.3507443" lon="9.6083805" version="1" timestamp="2022-04-12T16:19:47Z" changeset="119629110" uid="3497659" user="NKA">
		<tag k="alt_name" v="Veteren" />
		<tag k="name" v="Nordre Veteren" />
		<tag k="place" v="farm" />
		<tag k="ssr:stedsnr" v="673761" />
	</node>
	<node id="9661216991" lat="60.3682712" lon="9.6471142" version="1" timestamp="2022-04-12T16:19:47Z" changeset="119629110" uid="3497659" user="NKA">
		<tag k="name" v="Sørbygde" />
		<tag k="place" v="quarter" />
		<tag k="ssr:stedsnr" v="492779" />
	</node>
	<node id="9661216992" lat="60.3981529" lon="9.6298111" version="1" timestamp="2022-04-12T16:19:47Z" changeset="119629110" uid="3497659" user="NKA">
		<tag k="name" v="Torehus" />
		<tag k="place" v="locality" />
		<tag k="ssr:stedsnr" v="856963" />
	</node>
	<node id="9661216993" lat="60.5127667" lon="9.4119501" version="1" timestamp="2022-04-12T16:19:47Z" changeset="119629110" uid="3497659" user="NKA">
		<tag k="historic" v="shieling" />
		<tag k="name" v="Nedre Raudfjellsetre" />
		<tag k="place" v="isolated_dwelling" />
		<tag k="ssr:stedsnr" v="675815" />
	</node>
	<node id="9661216994" lat="60.400906" lon="9.3589941" version="1" timestamp="2022-04-12T16:19:47Z" changeset="119629110" uid="3497659" user="NKA">
		<tag k="historic" v="shieling" />
		<tag k="name" v="Slåttemyr" />
		<tag k="place" v="isolated_dwelling" />
		<tag k="ssr:stedsnr" v="552207" />
	</node>
	<node id="9661216995" lat="60.3838277" lon="9.6346305" version="1" timestamp="2022-04-12T16:19:47Z" changeset="119629110" uid="3497659" user="NKA">
		<tag k="name" v="Nedre Rudningen" />
		<tag k="place" v="locality" />
		<tag k="ssr:stedsnr" v="40427" />
	</node>
	<node id="9661216996" lat="60.4032568" lon="9.4239954" version="1" timestamp="2022-04-12T16:19:47Z" changeset="119629110" uid="3497659" user="NKA">
		<tag k="name" v="Trøgabekkhytta" />
		<tag k="place" v="isolated_dwelling" />
		<tag k="ssr:stedsnr" v="431221" />
	</node>
	<node id="9661216997" lat="60.392818" lon="9.6283337" version="1" timestamp="2022-04-12T16:19:47Z" changeset="119629110" uid="3497659" user="NKA">
		<tag k="alt_name" v="Bråten" />
		<tag k="name" v="Bråtan" />
		<tag k="place" v="farm" />
		<tag k="ssr:stedsnr" v="431975" />
	</node>
	<node id="9661216998" lat="60.3757472" lon="9.2909834" version="1" timestamp="2022-04-12T16:19:47Z" changeset="119629110" uid="3497659" user="NKA">
		<tag k="historic" v="shieling" />
		<tag k="name" v="Tollevsrudsetre" />
		<tag k="place" v="hamlet" />
		<tag k="ssr:stedsnr" v="795254" />
	</node>
	<node id="9661216999" lat="60.44545" lon="9.4651777" version="1" timestamp="2022-04-12T16:19:47Z" changeset="119629110" uid="3497659" user="NKA">
		<tag k="name" v="Leipa" />
		<tag k="place" v="locality" />
		<tag k="ssr:stedsnr" v="613133" />
	</node>
	<node id="9661217000" lat="60.4827806" lon="9.3568758" version="1" timestamp="2022-04-12T16:19:47Z" changeset="119629110" uid="3497659" user="NKA">
		<tag k="historic" v="shieling" />
		<tag k="name" v="Rimesetre" />
		<tag k="place" v="hamlet" />
		<tag k="ssr:stedsnr" v="552373" />
	</node>
	<node id="9661217001" lat="60.3893719" lon="9.3913338" version="1" timestamp="2022-04-12T16:19:47Z" changeset="119629110" uid="3497659" user="NKA">
		<tag k="historic" v="shieling" />
		<tag k="name" v="Veslesetre" />
		<tag k="place" v="isolated_dwelling" />
		<tag k="ssr:stedsnr" v="491249" />
	</node>
	<node id="9661217002" lat="60.4396306" lon="9.4662261" version="1" timestamp="2022-04-12T16:19:47Z" changeset="119629110" uid="3497659" user="NKA">
		<tag k="name" v="Åsly" />
		<tag k="place" v="farm" />
		<tag k="ssr:stedsnr" v="118999" />
	</node>
	<node id="9661217003" lat="60.4324432" lon="9.4868411" version="1" timestamp="2022-04-12T16:19:47Z" changeset="119629110" uid="3497659" user="NKA">
		<tag k="name" v="Vesbråten" />
		<tag k="place" v="isolated_dwelling" />
		<tag k="ssr:stedsnr" v="249177" />
	</node>
	<node id="9661217004" lat="60.494375" lon="9.3838857" version="1" timestamp="2022-04-12T16:19:47Z" changeset="119629110" uid="3497659" user="NKA">
		<tag k="alt_name" v="Fekjan" />
		<tag k="historic" v="shieling" />
		<tag k="name" v="Fetjan" />
		<tag k="place" v="isolated_dwelling" />
		<tag k="ssr:stedsnr" v="6342" />
	</node>
	<node id="9661217005" lat="60.4583805" lon="9.3793167" version="1" timestamp="2022-04-12T16:19:47Z" changeset="119629110" uid="3497659" user="NKA">
		<tag k="name" v="Larsliu" />
		<tag k="place" v="locality" />
		<tag k="ssr:stedsnr" v="102609" />
	</node>
	<node id="9661217006" lat="60.5654666" lon="9.4070528" version="1" timestamp="2022-04-12T16:19:47Z" changeset="119629110" uid="3497659" user="NKA">
		<tag k="name" v="Arnebu" />
		<tag k="place" v="locality" />
		<tag k="ssr:stedsnr" v="674833" />
	</node>
	<node id="9661217007" lat="60.5370243" lon="9.3734193" version="1" timestamp="2022-04-12T16:19:47Z" changeset="119629110" uid="3497659" user="NKA">
		<tag k="alt_name" v="Domfetseter" />
		<tag k="historic" v="shieling" />
		<tag k="name" v="Domfet" />
		<tag k="place" v="hamlet" />
		<tag k="ssr:stedsnr" v="796773" />
	</node>
	<node id="9661217008" lat="60.5507194" lon="9.4114444" version="1" timestamp="2022-04-12T16:19:47Z" changeset="119629110" uid="3497659" user="NKA">
		<tag k="name" v="Olsonheimen" />
		<tag k="place" v="isolated_dwelling" />
		<tag k="ssr:stedsnr" v="371850" />
	</node>
	<node id="9661217009" lat="60.5273471" lon="9.5131095" version="1" timestamp="2022-04-12T16:19:47Z" changeset="119629110" uid="3497659" user="NKA">
		<tag k="name" v="Greineløkhytta" />
		<tag k="place" v="isolated_dwelling" />
		<tag k="ssr:stedsnr" v="646663" />
	</node>
	<node id="9661217010" lat="60.3875004" lon="9.4246562" version="1" timestamp="2022-04-12T16:19:47Z" changeset="119629110" uid="3497659" user="NKA">
		<tag k="historic" v="shieling" />
		<tag k="name" v="Jonsevollen" />
		<tag k="place" v="isolated_dwelling" />
		<tag k="ssr:stedsnr" v="969353" />
	</node>
	<node id="9661217011" lat="60.5378389" lon="9.6026861" version="1" timestamp="2022-04-12T16:19:47Z" changeset="119629110" uid="3497659" user="NKA">
		<tag k="name" v="Damstua" />
		<tag k="place" v="isolated_dwelling" />
		<tag k="ssr:stedsnr" v="542285" />
	</node>
	<node id="9661217012" lat="60.4457567" lon="9.4254593" version="1" timestamp="2022-04-12T16:19:47Z" changeset="119629110" uid="3497659" user="NKA">
		<tag k="name" v="Kviheim" />
		<tag k="place" v="farm" />
		<tag k="ssr:stedsnr" v="967728" />
	</node>
	<node id="9661217013" lat="60.4888849" lon="9.4339312" version="1" timestamp="2022-04-12T16:19:47Z" changeset="119629110" uid="3497659" user="NKA">
		<tag k="name" v="Hangen" />
		<tag k="place" v="locality" />
		<tag k="ssr:stedsnr" v="67341" />
	</node>
	<node id="9661217014" lat="60.4172124" lon="9.483474" version="1" timestamp="2022-04-12T16:19:47Z" changeset="119629110" uid="3497659" user="NKA">
		<tag k="name" v="Rud" />
		<tag k="place" v="hamlet" />
		<tag k="ssr:stedsnr" v="967185" />
	</node>
	<node id="9661217015" lat="60.3160389" lon="9.5687444" version="1" timestamp="2022-04-12T16:19:47Z" changeset="119629110" uid="3497659" user="NKA">
		<tag k="historic" v="shieling" />
		<tag k="loc_name" v="Gamlevollen" />
		<tag k="name" v="Nybu" />
		<tag k="place" v="isolated_dwelling" />
		<tag k="ssr:stedsnr" v="768175" />
	</node>
	<node id="9661217016" lat="60.38231" lon="9.5182554" version="1" timestamp="2022-04-12T16:19:47Z" changeset="119629110" uid="3497659" user="NKA">
		<tag k="name" v="Li" />
		<tag k="place" v="farm" />
		<tag k="ssr:stedsnr" v="734252" />
	</node>
	<node id="9661217017" lat="60.4193555" lon="9.4906667" version="1" timestamp="2022-04-12T16:19:47Z" changeset="119629110" uid="3497659" user="NKA">
		<tag k="name" v="Buheim" />
		<tag k="place" v="farm" />
		<tag k="ssr:stedsnr" v="734235" />
	</node>
	<node id="9661217018" lat="60.4316215" lon="9.4706165" version="1" timestamp="2022-04-12T16:19:47Z" changeset="119629110" uid="3497659" user="NKA">
		<tag k="name" v="Elvetun" />
		<tag k="place" v="farm" />
		<tag k="ssr:stedsnr" v="724990" />
	</node>
	<node id="9661217019" lat="60.4434357" lon="9.446891" version="1" timestamp="2022-04-12T16:19:47Z" changeset="119629110" uid="3497659" user="NKA">
		<tag k="alt_name" v="Heie" />
		<tag k="name" v="Hei" />
		<tag k="place" v="farm" />
		<tag k="ssr:stedsnr" v="726548" />
	</node>
	<node id="9661217020" lat="60.3964306" lon="9.6185083" version="1" timestamp="2022-04-12T16:19:47Z" changeset="119629110" uid="3497659" user="NKA">
		<tag k="name" v="Tunga" />
		<tag k="place" v="farm" />
		<tag k="ssr:stedsnr" v="724452" />
	</node>
	<node id="9661217021" lat="60.4127598" lon="9.4324492" version="1" timestamp="2022-04-12T16:19:47Z" changeset="119629110" uid="3497659" user="NKA">
		<tag k="name" v="Skogbu" />
		<tag k="place" v="isolated_dwelling" />
		<tag k="ssr:stedsnr" v="916229" />
	</node>
	<node id="9661217022" lat="60.3885233" lon="9.569019" version="1" timestamp="2022-04-12T16:19:47Z" changeset="119629110" uid="3497659" user="NKA">
		<tag k="alt_name" v="Søndre Gulsvik" />
		<tag k="name" v="Søre Gulsvik" />
		<tag k="place" v="farm" />
		<tag k="ssr:stedsnr" v="724445" />
	</node>
	<node id="9661217023" lat="60.4461306" lon="9.5921001" version="1" timestamp="2022-04-12T16:19:47Z" changeset="119629110" uid="3497659" user="NKA">
		<tag k="name" v="Svangtjernhytta" />
		<tag k="place" v="isolated_dwelling" />
		<tag k="ssr:stedsnr" v="724219" />
	</node>
	<node id="9661217024" lat="60.354175" lon="9.6106028" version="1" timestamp="2022-04-12T16:19:47Z" changeset="119629110" uid="3497659" user="NKA">
		<tag k="name" v="Bera" />
		<tag k="place" v="locality" />
		<tag k="ssr:stedsnr" v="707597" />
	</node>
	<node id="9661217025" lat="60.4802861" lon="9.5166556" version="1" timestamp="2022-04-12T16:19:47Z" changeset="119629110" uid="3497659" user="NKA">
		<tag k="name" v="Trollbu" />
		<tag k="place" v="isolated_dwelling" />
		<tag k="ssr:stedsnr" v="795394" />
	</node>
	<node id="9661217026" lat="60.455104" lon="9.5732299" version="1" timestamp="2022-04-12T16:19:47Z" changeset="119629110" uid="3497659" user="NKA">
		<tag k="historic" v="shieling" />
		<tag k="name" v="Skardsetre" />
		<tag k="place" v="hamlet" />
		<tag k="ssr:stedsnr" v="673161" />
	</node>
	<node id="9661217027" lat="60.3945527" lon="9.5354944" version="1" timestamp="2022-04-12T16:19:47Z" changeset="119629110" uid="3497659" user="NKA">
		<tag k="name" v="Haramoen" />
		<tag k="place" v="locality" />
		<tag k="ssr:stedsnr" v="673258" />
	</node>
	<node id="9661217028" lat="60.4079444" lon="9.4956332" version="1" timestamp="2022-04-12T16:19:47Z" changeset="119629110" uid="3497659" user="NKA">
		<tag k="name" v="Bergom" />
		<tag k="place" v="farm" />
		<tag k="ssr:stedsnr" v="662186" />
	</node>
	<node id="9661217029" lat="60.4180491" lon="9.4941724" version="1" timestamp="2022-04-12T16:19:47Z" changeset="119629110" uid="3497659" user="NKA">
		<tag k="name" v="Vesbuøen" />
		<tag k="place" v="farm" />
		<tag k="ssr:stedsnr" v="785187" />
	</node>
	<node id="9661217030" lat="60.4265244" lon="9.452728" version="1" timestamp="2022-04-12T16:19:47Z" changeset="119629110" uid="3497659" user="NKA">
		<tag k="name" v="Svingen" />
		<tag k="place" v="farm" />
		<tag k="ssr:stedsnr" v="734195" />
	</node>
	<node id="9661217031" lat="60.4146664" lon="9.6386453" version="1" timestamp="2022-04-12T16:19:47Z" changeset="119629110" uid="3497659" user="NKA">
		<tag k="name" v="Veåshytta" />
		<tag k="place" v="isolated_dwelling" />
		<tag k="ssr:stedsnr" v="603497" />
	</node>
	<node id="9661217032" lat="60.3944972" lon="9.4621695" version="1" timestamp="2022-04-12T16:19:47Z" changeset="119629110" uid="3497659" user="NKA">
		<tag k="historic" v="shieling" />
		<tag k="name" v="Sjugurdsetre" />
		<tag k="place" v="isolated_dwelling" />
		<tag k="ssr:stedsnr" v="734278" />
	</node>
	<node id="9661217033" lat="60.4273985" lon="9.4729044" version="1" timestamp="2022-04-12T16:19:47Z" changeset="119629110" uid="3497659" user="NKA">
		<tag k="name" v="Nedre Ve" />
		<tag k="place" v="farm" />
		<tag k="ssr:stedsnr" v="586237" />
	</node>
	<node id="9661217034" lat="60.4390848" lon="9.4563617" version="1" timestamp="2022-04-12T16:19:47Z" changeset="119629110" uid="3497659" user="NKA">
		<tag k="name" v="Heiland" />
		<tag k="place" v="farm" />
		<tag k="ssr:stedsnr" v="724998" />
	</node>
	<node id="9661217035" lat="60.455261" lon="9.4976217" version="1" timestamp="2022-04-12T16:19:47Z" changeset="119629110" uid="3497659" user="NKA">
		<tag k="name" v="Vesleånhytta" />
		<tag k="place" v="isolated_dwelling" />
		<tag k="ssr:stedsnr" v="587552" />
	</node>
	<node id="9661217036" lat="60.43103" lon="9.4161336" version="1" timestamp="2022-04-12T16:19:47Z" changeset="119629110" uid="3497659" user="NKA">
		<tag k="name" v="Viskop" />
		<tag k="place" v="farm" />
		<tag k="ssr:stedsnr" v="724012" />
	</node>
	<node id="9661217037" lat="60.4450026" lon="9.4289368" version="1" timestamp="2022-04-12T16:19:47Z" changeset="119629110" uid="3497659" user="NKA">
		<tag k="alt_name" v="Engen" />
		<tag k="name" v="Engi" />
		<tag k="place" v="farm" />
		<tag k="ssr:stedsnr" v="673150" />
	</node>
	<node id="9661217038" lat="60.4218947" lon="9.3705231" version="1" timestamp="2022-04-12T16:19:47Z" changeset="119629110" uid="3497659" user="NKA">
		<tag k="alt_name" v="Reiarsgarden" />
		<tag k="name" v="Reiarsgard" />
		<tag k="old_name" v="Reiarskard" />
		<tag k="place" v="farm" />
		<tag k="ssr:stedsnr" v="674161" />
	</node>
	<node id="9661217039" lat="60.4757176" lon="9.5500911" version="1" timestamp="2022-04-12T16:19:47Z" changeset="119629110" uid="3497659" user="NKA">
		<tag k="alt_name" v="Knutestova" />
		<tag k="name" v="Knutestua" />
		<tag k="place" v="isolated_dwelling" />
		<tag k="ssr:stedsnr" v="491379" />
	</node>
	<node id="9661217040" lat="60.4202389" lon="9.4900445" version="1" timestamp="2022-04-12T16:19:47Z" changeset="119629110" uid="3497659" user="NKA">
		<tag k="alt_name" v="Vesbuøen" />
		<tag k="name" v="Vesbuøyni" />
		<tag k="old_name" v="Vestbuøyni" />
		<tag k="place" v="farm" />
		<tag k="ssr:stedsnr" v="492175" />
	</node>
	<node id="9661217041" lat="60.4362583" lon="9.4065008" version="1" timestamp="2022-04-12T16:19:47Z" changeset="119629110" uid="3497659" user="NKA">
		<tag k="name" v="Øvre Gaptjern" />
		<tag k="old_name" v="Øvre Goptjern" />
		<tag k="place" v="farm" />
		<tag k="ssr:stedsnr" v="431146" />
	</node>
	<node id="9661217042" lat="60.403575" lon="9.3918029" version="1" timestamp="2022-04-12T16:19:47Z" changeset="119629110" uid="3497659" user="NKA">
		<tag k="name" v="Vikhytta" />
		<tag k="place" v="isolated_dwelling" />
		<tag k="ssr:stedsnr" v="612208" />
	</node>
	<node id="9661217043" lat="60.3507611" lon="9.645614" version="1" timestamp="2022-04-12T16:19:47Z" changeset="119629110" uid="3497659" user="NKA">
		<tag k="name" v="Ottersplass" />
		<tag k="place" v="farm" />
		<tag k="ssr:stedsnr" v="370788" />
	</node>
	<node id="9661217044" lat="60.4700117" lon="9.3683251" version="1" timestamp="2022-04-12T16:19:47Z" changeset="119629110" uid="3497659" user="NKA">
		<tag k="name" v="Haugesethytta" />
		<tag k="place" v="isolated_dwelling" />
		<tag k="ssr:stedsnr" v="491384" />
	</node>
	<node id="9661217045" lat="60.4015361" lon="9.5340667" version="1" timestamp="2022-04-12T16:19:47Z" changeset="119629110" uid="3497659" user="NKA">
		<tag k="alt_name" v="Trabendal" />
		<tag k="name" v="Travendal" />
		<tag k="place" v="isolated_dwelling" />
		<tag k="ssr:stedsnr" v="431267" />
	</node>
	<node id="9661217046" lat="60.4248" lon="9.55475" version="1" timestamp="2022-04-12T16:19:47Z" changeset="119629110" uid="3497659" user="NKA">
		<tag k="historic" v="shieling" />
		<tag k="name" v="Mosetre" />
		<tag k="place" v="isolated_dwelling" />
		<tag k="ssr:stedsnr" v="310147" />
	</node>
	<node id="9661217047" lat="60.4465999" lon="9.4481594" version="1" timestamp="2022-04-12T16:19:47Z" changeset="119629110" uid="3497659" user="NKA">
		<tag k="name" v="Oldebråten" />
		<tag k="place" v="farm" />
		<tag k="ssr:stedsnr" v="249128" />
	</node>
	<node id="9661217048" lat="60.4430613" lon="9.4603631" version="1" timestamp="2022-04-12T16:19:47Z" changeset="119629110" uid="3497659" user="NKA">
		<tag k="name" v="Ormerud" />
		<tag k="place" v="farm" />
		<tag k="ssr:stedsnr" v="300977" />
	</node>
	<node id="9661217049" lat="60.3965723" lon="9.5086694" version="1" timestamp="2022-04-12T16:19:47Z" changeset="119629110" uid="3497659" user="NKA">
		<tag k="name" v="Gandrudhaugen" />
		<tag k="place" v="farm" />
		<tag k="ssr:stedsnr" v="403145" />
	</node>
	<node id="9661217050" lat="60.4202286" lon="9.4648825" version="1" timestamp="2022-04-12T16:19:47Z" changeset="119629110" uid="3497659" user="NKA">
		<tag k="name" v="Myre" />
		<tag k="place" v="farm" />
		<tag k="ssr:stedsnr" v="370190" />
	</node>
	<node id="9661217051" lat="60.3530249" lon="9.6187915" version="1" timestamp="2022-04-12T16:19:47Z" changeset="119629110" uid="3497659" user="NKA">
		<tag k="name" v="Ottersholet" />
		<tag k="place" v="farm" />
		<tag k="ssr:stedsnr" v="161551" />
	</node>
	<node id="9661217052" lat="60.4218949" lon="9.3913994" version="1" timestamp="2022-04-12T16:19:47Z" changeset="119629110" uid="3497659" user="NKA">
		<tag k="name" v="Grøsland" />
		<tag k="place" v="farm" />
		<tag k="ssr:stedsnr" v="249149" />
	</node>
	<node id="9661217053" lat="60.4812778" lon="9.3567694" version="1" timestamp="2022-04-12T16:19:47Z" changeset="119629110" uid="3497659" user="NKA">
		<tag k="historic" v="shieling" />
		<tag k="name" v="Rimeplassetran" />
		<tag k="place" v="isolated_dwelling" />
		<tag k="ssr:stedsnr" v="249335" />
	</node>
	<node id="9661217054" lat="60.4287209" lon="9.4595208" version="1" timestamp="2022-04-12T16:19:47Z" changeset="119629110" uid="3497659" user="NKA">
		<tag k="name" v="Øvre Voll" />
		<tag k="place" v="farm" />
		<tag k="ssr:stedsnr" v="161228" />
	</node>
	<node id="9661217055" lat="60.4009326" lon="9.4527175" version="1" timestamp="2022-04-12T16:19:47Z" changeset="119629110" uid="3497659" user="NKA">
		<tag k="alt_name" v="Nordsæter" />
		<tag k="historic" v="shieling" />
		<tag k="name" v="Nordseter" />
		<tag k="place" v="isolated_dwelling" />
		<tag k="ssr:stedsnr" v="127216" />
	</node>
	<node id="9661217056" lat="60.4278777" lon="9.4823638" version="1" timestamp="2022-04-12T16:19:47Z" changeset="119629110" uid="3497659" user="NKA">
		<tag k="name" v="Løken" />
		<tag k="place" v="farm" />
		<tag k="ssr:stedsnr" v="249159" />
	</node>
	<node id="9661217057" lat="60.4509333" lon="9.4632612" version="1" timestamp="2022-04-12T16:19:47Z" changeset="119629110" uid="3497659" user="NKA">
		<tag k="name" v="Karirud" />
		<tag k="place" v="locality" />
		<tag k="ssr:stedsnr" v="127137" />
	</node>
	<node id="9661217058" lat="60.4388723" lon="9.4095777" version="1" timestamp="2022-04-12T16:19:47Z" changeset="119629110" uid="3497659" user="NKA">
		<tag k="name" v="Stillingen" />
		<tag k="place" v="locality" />
		<tag k="ssr:stedsnr" v="118762" />
	</node>
	<node id="9661217059" lat="60.3991583" lon="9.6109917" version="1" timestamp="2022-04-12T16:19:47Z" changeset="119629110" uid="3497659" user="NKA">
		<tag k="name" v="Bråten" />
		<tag k="place" v="isolated_dwelling" />
		<tag k="ssr:stedsnr" v="118444" />
	</node>
	<node id="9661217060" lat="60.4369917" lon="9.4679693" version="1" timestamp="2022-04-12T16:19:47Z" changeset="119629110" uid="3497659" user="NKA">
		<tag k="name" v="Øvre Hilde" />
		<tag k="place" v="farm" />
		<tag k="ssr:stedsnr" v="57978" />
	</node>
	<node id="9661217061" lat="60.3942182" lon="9.5107927" version="1" timestamp="2022-04-12T16:19:47Z" changeset="119629110" uid="3497659" user="NKA">
		<tag k="alt_name" v="Engen" />
		<tag k="name" v="Engi" />
		<tag k="place" v="farm" />
		<tag k="ssr:stedsnr" v="67268" />
	</node>
	<node id="9661217062" lat="60.3879935" lon="9.5975548" version="1" timestamp="2022-04-12T16:19:47Z" changeset="119629110" uid="3497659" user="NKA">
		<tag k="alt_name" v="Kittilsviken" />
		<tag k="name" v="Kittilsviki" />
		<tag k="place" v="hamlet" />
		<tag k="ssr:stedsnr" v="856960" />
	</node>
	<node id="9661217063" lat="60.4019384" lon="9.4022741" version="1" timestamp="2022-04-12T16:19:47Z" changeset="119629110" uid="3497659" user="NKA">
		<tag k="name" v="Lynghaughytta" />
		<tag k="place" v="isolated_dwelling" />
		<tag k="ssr:stedsnr" v="67216" />
	</node>
	<node id="9661217064" lat="60.4381403" lon="9.4479488" version="1" timestamp="2022-04-12T16:19:47Z" changeset="119629110" uid="3497659" user="NKA">
		<tag k="name" v="Tyttebærmoen" />
		<tag k="place" v="farm" />
		<tag k="ssr:stedsnr" v="846998" />
	</node>
	<node id="9661217065" lat="60.444275" lon="9.375175" version="1" timestamp="2022-04-12T16:19:47Z" changeset="119629110" uid="3497659" user="NKA">
		<tag k="alt_name" v="Rimeplass" />
		<tag k="historic" v="shieling" />
		<tag k="name" v="Rimeplassen" />
		<tag k="place" v="isolated_dwelling" />
		<tag k="ssr:stedsnr" v="67161" />
	</node>
	<node id="9661217066" lat="60.4344487" lon="9.4656693" version="1" timestamp="2022-04-12T16:19:47Z" changeset="119629110" uid="3497659" user="NKA">
		<tag k="name" v="Nedre Hilde" />
		<tag k="place" v="farm" />
		<tag k="ssr:stedsnr" v="542985" />
	</node>
	<node id="9661217067" lat="60.4312254" lon="9.4725479" version="1" timestamp="2022-04-12T16:19:47Z" changeset="119629110" uid="3497659" user="NKA">
		<tag k="name" v="Fjellheim" />
		<tag k="place" v="farm" />
		<tag k="ssr:stedsnr" v="542992" />
	</node>
	<node id="9661217068" lat="60.4761811" lon="9.5173428" version="1" timestamp="2022-04-12T16:19:47Z" changeset="119629110" uid="3497659" user="NKA">
		<tag k="historic" v="shieling" />
		<tag k="name" v="Olasetran" />
		<tag k="place" v="isolated_dwelling" />
		<tag k="ssr:stedsnr" v="369326" />
	</node>
	<node id="9661217069" lat="60.4202806" lon="9.4284306" version="1" timestamp="2022-04-12T16:19:47Z" changeset="119629110" uid="3497659" user="NKA">
		<tag k="alt_name" v="Tvigrein" />
		<tag k="name" v="Tvigreinene" />
		<tag k="place" v="locality" />
		<tag k="ssr:stedsnr" v="542016" />
	</node>
	<node id="9661217070" lat="60.4362733" lon="9.407361" version="1" timestamp="2022-04-12T16:19:47Z" changeset="119629110" uid="3497659" user="NKA">
		<tag k="name" v="Gaptjern" />
		<tag k="old_name" v="Gapkin;Gapkjenn" />
		<tag k="place" v="hamlet" />
		<tag k="ssr:stedsnr" v="222798" />
	</node>
	<node id="9661217071" lat="60.4319174" lon="9.3787876" version="1" timestamp="2022-04-12T16:19:47Z" changeset="119629110" uid="3497659" user="NKA">
		<tag k="name" v="Granmo" />
		<tag k="place" v="farm" />
		<tag k="ssr:stedsnr" v="282813" />
	</node>
	<node id="9661217072" lat="60.3519228" lon="9.6445859" version="1" timestamp="2022-04-12T16:19:47Z" changeset="119629110" uid="3497659" user="NKA">
		<tag k="name" v="Noreng" />
		<tag k="place" v="farm" />
		<tag k="ssr:stedsnr" v="950564" />
	</node>
	<node id="9661217073" lat="60.4350763" lon="9.4213679" version="1" timestamp="2022-04-12T16:19:47Z" changeset="119629110" uid="3497659" user="NKA">
		<tag k="name" v="Gjestemoen" />
		<tag k="place" v="farm" />
		<tag k="ssr:stedsnr" v="222801" />
	</node>
	<node id="9661217074" lat="60.3156083" lon="9.6421861" version="1" timestamp="2022-04-12T16:19:47Z" changeset="119629110" uid="3497659" user="NKA">
		<tag k="name" v="Hytta" />
		<tag k="place" v="isolated_dwelling" />
		<tag k="ssr:stedsnr" v="917820" />
	</node>
	<node id="9661217075" lat="60.4211917" lon="9.4616027" version="1" timestamp="2022-04-12T16:19:47Z" changeset="119629110" uid="3497659" user="NKA">
		<tag k="name" v="Håkonsrud" />
		<tag k="place" v="locality" />
		<tag k="ssr:stedsnr" v="404221" />
	</node>
	<node id="9661217076" lat="60.312927" lon="9.627803" version="1" timestamp="2022-04-12T16:19:47Z" changeset="119629110" uid="3497659" user="NKA">
		<tag k="name" v="Ranten" />
		<tag k="place" v="isolated_dwelling" />
		<tag k="ssr:stedsnr" v="795822" />
	</node>
	<node id="9661217077" lat="60.3366624" lon="9.6167947" version="1" timestamp="2022-04-12T16:19:47Z" changeset="119629110" uid="3497659" user="NKA">
		<tag k="name" v="Eilev-Veteren" />
		<tag k="place" v="farm" />
		<tag k="ssr:stedsnr" v="180901" />
	</node>
	<node id="9661217078" lat="60.4006361" lon="9.5188055" version="1" timestamp="2022-04-12T16:19:47Z" changeset="119629110" uid="3497659" user="NKA">
		<tag k="name" v="Øvre Strømbråtan" />
		<tag k="place" v="locality" />
		<tag k="ssr:stedsnr" v="176210" />
	</node>
	<node id="9661217079" lat="60.4334899" lon="9.4729637" version="1" timestamp="2022-04-12T16:19:47Z" changeset="119629110" uid="3497659" user="NKA">
		<tag k="alt_name" v="Søndre Hilde" />
		<tag k="name" v="Søre Hilde" />
		<tag k="place" v="farm" />
		<tag k="ssr:stedsnr" v="178983" />
	</node>
	<node id="9661217080" lat="60.4396708" lon="9.4294647" version="1" timestamp="2022-04-12T16:19:47Z" changeset="119629110" uid="3497659" user="NKA">
		<tag k="alt_name" v="Nordre Trøsteim;Trøstheim" />
		<tag k="name" v="Nordre Trøstheim" />
		<tag k="place" v="farm" />
		<tag k="ssr:stedsnr" v="145002" />
	</node>
	<node id="9661217081" lat="60.4096111" lon="9.4944926" version="1" timestamp="2022-04-12T16:19:47Z" changeset="119629110" uid="3497659" user="NKA">
		<tag k="name" v="Roen" />
		<tag k="place" v="farm" />
		<tag k="ssr:stedsnr" v="118168" />
	</node>
	<node id="9661217082" lat="60.3151138" lon="9.7094055" version="1" timestamp="2022-04-12T16:19:47Z" changeset="119629110" uid="3497659" user="NKA">
		<tag k="historic" v="shieling" />
		<tag k="name" v="Lindelisetre" />
		<tag k="place" v="isolated_dwelling" />
		<tag k="ssr:stedsnr" v="612820" />
	</node>
	<node id="9661217083" lat="60.3817" lon="9.6375028" version="1" timestamp="2022-04-12T16:19:47Z" changeset="119629110" uid="3497659" user="NKA">
		<tag k="name" v="Plassen" />
		<tag k="place" v="farm" />
		<tag k="ssr:stedsnr" v="188972" />
	</node>
	<node id="9661217084" lat="60.4206961" lon="9.4743262" version="1" timestamp="2022-04-12T16:19:47Z" changeset="119629110" uid="3497659" user="NKA">
		<tag k="name" v="Nordre Rud" />
		<tag k="place" v="farm" />
		<tag k="ssr:stedsnr" v="188238" />
	</node>
	<node id="9661217085" lat="60.3747025" lon="9.6224733" version="1" timestamp="2022-04-12T16:19:47Z" changeset="119629110" uid="3497659" user="NKA">
		<tag k="name" v="Fjellheim" />
		<tag k="place" v="farm" />
		<tag k="ssr:stedsnr" v="101406" />
	</node>
	<node id="9661217086" lat="60.3850344" lon="9.4265594" version="1" timestamp="2022-04-12T16:19:47Z" changeset="119629110" uid="3497659" user="NKA">
		<tag k="historic" v="shieling" />
		<tag k="name" v="Trytetjernsetre" />
		<tag k="place" v="isolated_dwelling" />
		<tag k="ssr:stedsnr" v="188258" />
	</node>
	<node id="9661217087" lat="60.3776591" lon="9.6387401" version="1" timestamp="2022-04-12T16:19:47Z" changeset="119629110" uid="3497659" user="NKA">
		<tag k="alt_name" v="Lien" />
		<tag k="name" v="Lii" />
		<tag k="place" v="farm" />
		<tag k="ssr:stedsnr" v="552814" />
	</node>
	<node id="9661217088" lat="60.4404614" lon="9.4130167" version="1" timestamp="2022-04-12T16:19:47Z" changeset="119629110" uid="3497659" user="NKA">
		<tag k="alt_name" v="Jorde" />
		<tag k="name" v="Jordet" />
		<tag k="place" v="farm" />
		<tag k="ssr:stedsnr" v="188149" />
	</node>
	<node id="9661217089" lat="60.444141" lon="9.4231468" version="1" timestamp="2022-04-12T16:19:47Z" changeset="119629110" uid="3497659" user="NKA">
		<tag k="name" v="Kvi" />
		<tag k="place" v="farm" />
		<tag k="ssr:stedsnr" v="188164" />
	</node>
	<node id="9661217090" lat="60.3544204" lon="9.651034" version="1" timestamp="2022-04-12T16:19:47Z" changeset="119629110" uid="3497659" user="NKA">
		<tag k="name" v="Haugen" />
		<tag k="place" v="farm" />
		<tag k="ssr:stedsnr" v="491752" />
	</node>
	<node id="9661217091" lat="60.4302583" lon="9.6772917" version="1" timestamp="2022-04-12T16:19:47Z" changeset="119629110" uid="3497659" user="NKA">
		<tag k="historic" v="shieling" />
		<tag k="name" v="Aslesetre" />
		<tag k="place" v="isolated_dwelling" />
		<tag k="ssr:stedsnr" v="309976" />
	</node>
	<node id="9661217092" lat="60.3758778" lon="9.5922001" version="1" timestamp="2022-04-12T16:19:47Z" changeset="119629110" uid="3497659" user="NKA">
		<tag k="name" v="Kårmo" />
		<tag k="place" v="farm" />
		<tag k="ssr:stedsnr" v="188024" />
	</node>
	<node id="9661217093" lat="60.4063083" lon="9.5697944" version="1" timestamp="2022-04-12T16:19:47Z" changeset="119629110" uid="3497659" user="NKA">
		<tag k="name" v="Turufjellkoia" />
		<tag k="place" v="isolated_dwelling" />
		<tag k="ssr:stedsnr" v="6217" />
	</node>
	<node id="9661217094" lat="60.4224223" lon="9.5726917" version="1" timestamp="2022-04-12T16:19:47Z" changeset="119629110" uid="3497659" user="NKA">
		<tag k="name" v="Steinbu" />
		<tag k="place" v="isolated_dwelling" />
		<tag k="ssr:stedsnr" v="239484" />
	</node>
	<node id="9661217095" lat="60.4110469" lon="9.4877346" version="1" timestamp="2022-04-12T16:19:47Z" changeset="119629110" uid="3497659" user="NKA">
		<tag k="name" v="Ytre Voll" />
		<tag k="place" v="farm" />
		<tag k="ssr:stedsnr" v="67226" />
	</node>
	<node id="9661217096" lat="60.4085528" lon="9.5550389" version="1" timestamp="2022-04-12T16:19:47Z" changeset="119629110" uid="3497659" user="NKA">
		<tag k="alt_name" v="Turufjell T.k." />
		<tag k="name" v="Turufjellhytta" />
		<tag k="place" v="isolated_dwelling" />
		<tag k="ssr:stedsnr" v="118436" />
	</node>
	<node id="9661217097" lat="60.362825" lon="9.6713111" version="1" timestamp="2022-04-12T16:19:47Z" changeset="119629110" uid="3497659" user="NKA">
		<tag k="name" v="Sætri" />
		<tag k="place" v="locality" />
		<tag k="ssr:stedsnr" v="552832" />
	</node>
	<node id="9661217098" lat="60.398725" lon="9.4124" version="1" timestamp="2022-04-12T16:19:47Z" changeset="119629110" uid="3497659" user="NKA">
		<tag k="name" v="Kastehytta" />
		<tag k="place" v="isolated_dwelling" />
		<tag k="ssr:stedsnr" v="67215" />
	</node>
	<node id="9661217099" lat="60.3749639" lon="9.6892779" version="1" timestamp="2022-04-12T16:19:47Z" changeset="119629110" uid="3497659" user="NKA">
		<tag k="name" v="Piniklo" />
		<tag k="place" v="isolated_dwelling" />
		<tag k="ssr:stedsnr" v="404385" />
	</node>
	<node id="9661217100" lat="60.4015957" lon="9.4897546" version="1" timestamp="2022-04-12T16:19:47Z" changeset="119629110" uid="3497659" user="NKA">
		<tag k="alt_name" v="Trælup" />
		<tag k="name" v="Trælopp" />
		<tag k="place" v="farm" />
		<tag k="ssr:stedsnr" v="67219" />
	</node>
	<node id="9661217101" lat="60.315075" lon="9.5724" version="1" timestamp="2022-04-12T16:19:47Z" changeset="119629110" uid="3497659" user="NKA">
		<tag k="historic" v="shieling" />
		<tag k="name" v="Hestgjuvsetran" />
		<tag k="place" v="isolated_dwelling" />
		<tag k="ssr:stedsnr" v="67055" />
	</node>
	<node id="9661217102" lat="60.4354629" lon="9.4652804" version="1" timestamp="2022-04-12T16:19:47Z" changeset="119629110" uid="3497659" user="NKA">
		<tag k="name" v="Hilde" />
		<tag k="place" v="hamlet" />
		<tag k="ssr:stedsnr" v="67214" />
	</node>
	<node id="9661217103" lat="60.529478" lon="9.5486472" version="1" timestamp="2022-04-12T16:19:47Z" changeset="119629110" uid="3497659" user="NKA">
		<tag k="name" v="Busand" />
		<tag k="place" v="isolated_dwelling" />
		<tag k="ssr:stedsnr" v="735765" />
	</node>
	<node id="9661217104" lat="60.4425188" lon="9.4627502" version="1" timestamp="2022-04-12T16:19:47Z" changeset="119629110" uid="3497659" user="NKA">
		<tag k="name" v="Padderud" />
		<tag k="place" v="hamlet" />
		<tag k="ssr:stedsnr" v="67154" />
	</node>
	<node id="9661217105" lat="60.531801" lon="9.5735529" version="1" timestamp="2022-04-12T16:19:47Z" changeset="119629110" uid="3497659" user="NKA">
		<tag k="name" v="Kanan" />
		<tag k="place" v="farm" />
		<tag k="ssr:stedsnr" v="1081261" />
	</node>
	<node id="9661217106" lat="60.3363194" lon="9.6498278" version="1" timestamp="2022-04-12T16:19:47Z" changeset="119629110" uid="3497659" user="NKA">
		<tag k="name" v="Haugen" />
		<tag k="place" v="locality" />
		<tag k="ssr:stedsnr" v="59904" />
	</node>
	<node id="9661217107" lat="60.3317972" lon="9.7669139" version="1" timestamp="2022-04-12T16:19:47Z" changeset="119629110" uid="3497659" user="NKA">
		<tag k="name" v="Klemtjernhytta" />
		<tag k="place" v="isolated_dwelling" />
		<tag k="ssr:stedsnr" v="302923" />
	</node>
	<node id="9661217108" lat="60.4365504" lon="9.4151436" version="1" timestamp="2022-04-12T16:19:47Z" changeset="119629110" uid="3497659" user="NKA">
		<tag k="alt_name" v="Gaptjern nedre" />
		<tag k="name" v="Nedre Gaptjern" />
		<tag k="old_name" v="Nedre Goptjern" />
		<tag k="place" v="farm" />
		<tag k="ssr:stedsnr" v="6202" />
	</node>
	<node id="9661217109" lat="60.4524759" lon="9.582343" version="1" timestamp="2022-04-12T16:19:47Z" changeset="119629110" uid="3497659" user="NKA">
		<tag k="name" v="Nordhei" />
		<tag k="place" v="isolated_dwelling" />
		<tag k="ssr:stedsnr" v="967235" />
	</node>
	<node id="9661217110" lat="60.4653445" lon="9.3000417" version="1" timestamp="2022-04-12T16:19:47Z" changeset="119629110" uid="3497659" user="NKA">
		<tag k="name" v="Kvelven" />
		<tag k="place" v="locality" />
		<tag k="ssr:stedsnr" v="916379" />
	</node>
	<node id="9661217111" lat="60.4452861" lon="9.2839194" version="1" timestamp="2022-04-12T16:19:47Z" changeset="119629110" uid="3497659" user="NKA">
		<tag k="name" v="Johanmoen" />
		<tag k="place" v="locality" />
		<tag k="ssr:stedsnr" v="829855" />
	</node>
	<node id="9661217112" lat="60.4147927" lon="9.3145498" version="1" timestamp="2022-04-12T16:19:47Z" changeset="119629110" uid="3497659" user="NKA">
		<tag k="name" v="Åsen" />
		<tag k="place" v="farm" />
		<tag k="ssr:stedsnr" v="916223" />
	</node>
	<node id="9661217113" lat="60.3229889" lon="9.730675" version="1" timestamp="2022-04-12T16:19:47Z" changeset="119629110" uid="3497659" user="NKA">
		<tag k="name" v="Svarttjernhytta" />
		<tag k="place" v="isolated_dwelling" />
		<tag k="ssr:stedsnr" v="431835" />
	</node>
	<node id="9661217114" lat="60.427417" lon="9.3136949" version="1" timestamp="2022-04-12T16:19:47Z" changeset="119629110" uid="3497659" user="NKA">
		<tag k="alt_name" v="Stavnsbråten" />
		<tag k="name" v="Nordbråten" />
		<tag k="place" v="farm" />
		<tag k="ssr:stedsnr" v="907050" />
	</node>
	<node id="9661217115" lat="60.3646972" lon="9.7353083" version="1" timestamp="2022-04-12T16:19:47Z" changeset="119629110" uid="3497659" user="NKA">
		<tag k="name" v="Slåttohytta" />
		<tag k="place" v="isolated_dwelling" />
		<tag k="ssr:stedsnr" v="707579" />
	</node>
	<node id="9661217116" lat="60.4337467" lon="9.3154155" version="1" timestamp="2022-04-12T16:19:47Z" changeset="119629110" uid="3497659" user="NKA">
		<tag k="name" v="Botten" />
		<tag k="place" v="farm" />
		<tag k="ssr:stedsnr" v="829849" />
	</node>
	<node id="9661217117" lat="60.398947" lon="9.7949326" version="1" timestamp="2022-04-12T16:19:47Z" changeset="119629110" uid="3497659" user="NKA">
		<tag k="historic" v="shieling" />
		<tag k="name" v="Fossebråtan" />
		<tag k="place" v="isolated_dwelling" />
		<tag k="ssr:stedsnr" v="542497" />
	</node>
	<node id="9661217118" lat="60.4162028" lon="9.739975" version="1" timestamp="2022-04-12T16:19:47Z" changeset="119629110" uid="3497659" user="NKA">
		<tag k="alt_name" v="Tjernmyrhytta" />
		<tag k="name" v="Tjernsmyrhytta" />
		<tag k="place" v="isolated_dwelling" />
		<tag k="ssr:stedsnr" v="856995" />
	</node>
	<node id="9661217119" lat="60.4447657" lon="9.3240892" version="1" timestamp="2022-04-12T16:19:47Z" changeset="119629110" uid="3497659" user="NKA">
		<tag k="alt_name" v="Søndre Kolsrud;Kolsrud søndre" />
		<tag k="name" v="Søre Kolsrud" />
		<tag k="place" v="farm" />
		<tag k="ssr:stedsnr" v="795180" />
	</node>
	<node id="9661217120" lat="60.3460928" lon="9.7301047" version="1" timestamp="2022-04-12T16:19:47Z" changeset="119629110" uid="3497659" user="NKA">
		<tag k="name" v="Elgebuss" />
		<tag k="place" v="isolated_dwelling" />
		<tag k="ssr:stedsnr" v="646574" />
	</node>
	<node id="9661217121" lat="60.3800611" lon="9.6509278" version="1" timestamp="2022-04-12T16:19:47Z" changeset="119629110" uid="3497659" user="NKA">
		<tag k="alt_name" v="Tranumbråten" />
		<tag k="name" v="Tranebråtan" />
		<tag k="place" v="farm" />
		<tag k="ssr:stedsnr" v="552978" />
	</node>
	<node id="9661217122" lat="60.3637333" lon="9.6458779" version="1" timestamp="2022-04-12T16:19:47Z" changeset="119629110" uid="3497659" user="NKA">
		<tag k="alt_name" v="Søndre Medbøen" />
		<tag k="name" v="Søre Medbøen" />
		<tag k="place" v="farm" />
		<tag k="ssr:stedsnr" v="889551" />
	</node>
	<node id="9661217123" lat="60.4069291" lon="9.3008657" version="1" timestamp="2022-04-12T16:19:47Z" changeset="119629110" uid="3497659" user="NKA">
		<tag k="name" v="Bjørnehaug" />
		<tag k="place" v="isolated_dwelling" />
		<tag k="ssr:stedsnr" v="612218" />
	</node>
	<node id="9661217124" lat="60.4035389" lon="9.6545251" version="1" timestamp="2022-04-12T16:19:47Z" changeset="119629110" uid="3497659" user="NKA">
		<tag k="name" v="Drikkarmyrhytta" />
		<tag k="place" v="isolated_dwelling" />
		<tag k="ssr:stedsnr" v="542486" />
	</node>
	<node id="9661217125" lat="60.3867661" lon="9.231961" version="1" timestamp="2022-04-12T16:19:47Z" changeset="119629110" uid="3497659" user="NKA">
		<tag k="historic" v="shieling" />
		<tag k="name" v="Liseter" />
		<tag k="place" v="hamlet" />
		<tag k="ssr:stedsnr" v="491241" />
	</node>
	<node id="9661217126" lat="60.3729213" lon="9.1823067" version="1" timestamp="2022-04-12T16:19:47Z" changeset="119629110" uid="3497659" user="NKA">
		<tag k="historic" v="shieling" />
		<tag k="name" v="Flatvollen" />
		<tag k="place" v="isolated_dwelling" />
		<tag k="ssr:stedsnr" v="612384" />
	</node>
	<node id="9661217127" lat="60.3482941" lon="9.6995717" version="1" timestamp="2022-04-12T16:19:47Z" changeset="119629110" uid="3497659" user="NKA">
		<tag k="name" v="Solbu" />
		<tag k="place" v="isolated_dwelling" />
		<tag k="ssr:stedsnr" v="178287" />
	</node>
	<node id="9661217128" lat="60.4319493" lon="9.7497155" version="1" timestamp="2022-04-12T16:19:47Z" changeset="119629110" uid="3497659" user="NKA">
		<tag k="name" v="Erikbu" />
		<tag k="place" v="isolated_dwelling" />
		<tag k="ssr:stedsnr" v="724253" />
	</node>
	<node id="9661217129" lat="60.4321291" lon="9.7528482" version="1" timestamp="2022-04-12T16:19:47Z" changeset="119629110" uid="3497659" user="NKA">
		<tag k="name" v="Steinkollvollen" />
		<tag k="place" v="isolated_dwelling" />
		<tag k="ssr:stedsnr" v="663268" />
	</node>
	<node id="9661217130" lat="60.4452404" lon="9.3012606" version="1" timestamp="2022-04-12T16:19:47Z" changeset="119629110" uid="3497659" user="NKA">
		<tag k="alt_name" v="Søndre Gislerud" />
		<tag k="name" v="Søre Gislerud" />
		<tag k="place" v="farm" />
		<tag k="ssr:stedsnr" v="491155" />
	</node>
	<node id="9661217131" lat="60.4225416" lon="9.8078611" version="1" timestamp="2022-04-12T16:19:47Z" changeset="119629110" uid="3497659" user="NKA">
		<tag k="name" v="Maribohytta" />
		<tag k="place" v="isolated_dwelling" />
		<tag k="ssr:stedsnr" v="300276" />
	</node>
	<node id="9661217132" lat="60.4229139" lon="9.7772251" version="1" timestamp="2022-04-12T16:19:47Z" changeset="119629110" uid="3497659" user="NKA">
		<tag k="name" v="Bukollplassen" />
		<tag k="place" v="isolated_dwelling" />
		<tag k="ssr:stedsnr" v="612968" />
	</node>
	<node id="9661217133" lat="60.4371861" lon="9.7764999" version="1" timestamp="2022-04-12T16:19:47Z" changeset="119629110" uid="3497659" user="NKA">
		<tag k="name" v="Brennsetre" />
		<tag k="place" v="locality" />
		<tag k="ssr:stedsnr" v="542274" />
	</node>
	<node id="9661217134" lat="60.401881" lon="9.3255004" version="1" timestamp="2022-04-12T16:19:47Z" changeset="119629110" uid="3497659" user="NKA">
		<tag k="historic" v="shieling" />
		<tag k="name" v="Brandenborgsetre" />
		<tag k="place" v="isolated_dwelling" />
		<tag k="ssr:stedsnr" v="431229" />
	</node>
	<node id="9661217135" lat="60.3771421" lon="9.4305792" version="1" timestamp="2022-04-12T16:19:47Z" changeset="119629110" uid="3497659" user="NKA">
		<tag k="name" v="Baklihytta" />
		<tag k="place" v="isolated_dwelling" />
		<tag k="ssr:stedsnr" v="916238" />
	</node>
	<node id="9661217136" lat="60.459275" lon="9.3162723" version="1" timestamp="2022-04-12T16:19:47Z" changeset="119629110" uid="3497659" user="NKA">
		<tag k="name" v="Flagebu" />
		<tag k="place" v="locality" />
		<tag k="ssr:stedsnr" v="6164" />
	</node>
	<node id="9661217137" lat="60.4745921" lon="9.4515993" version="1" timestamp="2022-04-12T16:19:47Z" changeset="119629110" uid="3497659" user="NKA">
		<tag k="name" v="Guribu" />
		<tag k="place" v="isolated_dwelling" />
		<tag k="ssr:stedsnr" v="794336" />
	</node>
	<node id="9661217138" lat="60.451688" lon="9.2936603" version="1" timestamp="2022-04-12T16:19:47Z" changeset="119629110" uid="3497659" user="NKA">
		<tag k="name" v="Vassfarmoen" />
		<tag k="place" v="farm" />
		<tag k="ssr:stedsnr" v="734406" />
	</node>
	<node id="9661217139" lat="60.3860278" lon="9.4278362" version="1" timestamp="2022-04-12T16:19:47Z" changeset="119629110" uid="3497659" user="NKA">
		<tag k="name" v="Frihetsstykket" />
		<tag k="place" v="locality" />
		<tag k="ssr:stedsnr" v="727345" />
	</node>
	<node id="9661217140" lat="60.4943843" lon="9.4587517" version="1" timestamp="2022-04-12T16:19:47Z" changeset="119629110" uid="3497659" user="NKA">
		<tag k="name" v="Nybu" />
		<tag k="place" v="isolated_dwelling" />
		<tag k="ssr:stedsnr" v="612342" />
	</node>
	<node id="9661217141" lat="60.4233634" lon="9.3743951" version="1" timestamp="2022-04-12T16:19:47Z" changeset="119629110" uid="3497659" user="NKA">
		<tag k="alt_name" v="Stillingen" />
		<tag k="name" v="Stillingi" />
		<tag k="place" v="farm" />
		<tag k="ssr:stedsnr" v="249154" />
	</node>
	<node id="9661217142" lat="60.3896965" lon="9.2530325" version="1" timestamp="2022-04-12T16:19:47Z" changeset="119629110" uid="3497659" user="NKA">
		<tag k="alt_name" v="Damhaugen;Damhaugsr" />
		<tag k="historic" v="shieling" />
		<tag k="name" v="Damhaug" />
		<tag k="place" v="isolated_dwelling" />
		<tag k="ssr:stedsnr" v="370292" />
	</node>
	<node id="9661217143" lat="60.4427566" lon="9.4468787" version="1" timestamp="2022-04-12T16:19:47Z" changeset="119629110" uid="3497659" user="NKA">
		<tag k="alt_name" v="Nørdre Hei" />
		<tag k="name" v="Nordre Hei" />
		<tag k="place" v="farm" />
		<tag k="ssr:stedsnr" v="431210" />
	</node>
	<node id="9661217144" lat="60.4906773" lon="9.3475415" version="1" timestamp="2022-04-12T16:19:47Z" changeset="119629110" uid="3497659" user="NKA">
		<tag k="historic" v="shieling" />
		<tag k="loc_name" v="Haugeset" />
		<tag k="name" v="Haugesetsetre" />
		<tag k="place" v="isolated_dwelling" />
		<tag k="ssr:stedsnr" v="248304" />
	</node>
	<node id="9661217145" lat="60.4494782" lon="9.2763893" version="1" timestamp="2022-04-12T16:19:47Z" changeset="119629110" uid="3497659" user="NKA">
		<tag k="name" v="Sørsmoen" />
		<tag k="place" v="farm" />
		<tag k="ssr:stedsnr" v="188174" />
	</node>
	<node id="9661217146" lat="60.3930409" lon="9.5149231" version="1" timestamp="2022-04-12T16:19:47Z" changeset="119629110" uid="3497659" user="NKA">
		<tag k="name" v="Listøl" />
		<tag k="place" v="farm" />
		<tag k="ssr:stedsnr" v="916251" />
	</node>
	<node id="9661217147" lat="60.3679549" lon="9.6458679" version="1" timestamp="2022-04-12T16:19:47Z" changeset="119629110" uid="3497659" user="NKA">
		<tag k="name" v="Vestbøen" />
		<tag k="place" v="farm" />
		<tag k="ssr:stedsnr" v="916818" />
	</node>
	<node id="9661217148" lat="60.3478306" lon="9.6082334" version="1" timestamp="2022-04-12T16:19:47Z" changeset="119629110" uid="3497659" user="NKA">
		<tag k="alt_name" v="Søndre Veteren" />
		<tag k="name" v="Søre Veteren" />
		<tag k="place" v="farm" />
		<tag k="ssr:stedsnr" v="916798" />
	</node>
	<node id="9661217149" lat="60.4223857" lon="9.4923" version="1" timestamp="2022-04-12T16:19:47Z" changeset="119629110" uid="3497659" user="NKA">
		<tag k="name" v="Øystre" />
		<tag k="place" v="farm" />
		<tag k="ssr:stedsnr" v="674207" />
	</node>
	<node id="9661217150" lat="60.3578536" lon="9.6510856" version="1" timestamp="2022-04-12T16:19:47Z" changeset="119629110" uid="3497659" user="NKA">
		<tag k="name" v="Sønsteby" />
		<tag k="place" v="hamlet" />
		<tag k="ssr:stedsnr" v="916778" />
	</node>
	<node id="9661217151" lat="60.3983815" lon="9.512745" version="1" timestamp="2022-04-12T16:19:47Z" changeset="119629110" uid="3497659" user="NKA">
		<tag k="alt_name" v="Bårdsplass" />
		<tag k="name" v="Bårdsplassen" />
		<tag k="place" v="farm" />
		<tag k="ssr:stedsnr" v="249223" />
	</node>
	<node id="9661217152" lat="60.3490916" lon="9.5470166" version="1" timestamp="2022-04-12T16:19:47Z" changeset="119629110" uid="3497659" user="NKA">
		<tag k="name" v="Gulsvikseter" />
		<tag k="place" v="isolated_dwelling" />
		<tag k="ssr:stedsnr" v="464594" />
	</node>
	<node id="9661217153" lat="60.3967752" lon="9.5195696" version="1" timestamp="2022-04-12T16:19:47Z" changeset="119629110" uid="3497659" user="NKA">
		<tag k="name" v="Hoffmannsmoen" />
		<tag k="place" v="farm" />
		<tag k="ssr:stedsnr" v="127267" />
	</node>
	<node id="9661217154" lat="60.3441094" lon="9.6460722" version="1" timestamp="2022-04-12T16:19:47Z" changeset="119629110" uid="3497659" user="NKA">
		<tag k="name" v="Leknes" />
		<tag k="place" v="farm" />
		<tag k="ssr:stedsnr" v="673762" />
	</node>
	<node id="9661217155" lat="60.38285" lon="9.5622528" version="1" timestamp="2022-04-12T16:19:47Z" changeset="119629110" uid="3497659" user="NKA">
		<tag k="name" v="Vesle Gandrud" />
		<tag k="place" v="farm" />
		<tag k="ssr:stedsnr" v="552254" />
	</node>
	<node id="9661217156" lat="60.3686843" lon="9.6110652" version="1" timestamp="2022-04-12T16:19:47Z" changeset="119629110" uid="3497659" user="NKA">
		<tag k="name" v="Kniveberg" />
		<tag k="place" v="isolated_dwelling" />
		<tag k="ssr:stedsnr" v="40399" />
	</node>
	<node id="9661217157" lat="60.3530336" lon="9.6521893" version="1" timestamp="2022-04-12T16:19:47Z" changeset="119629110" uid="3497659" user="NKA">
		<tag k="name" v="Øvre Haug" />
		<tag k="place" v="farm" />
		<tag k="ssr:stedsnr" v="585539" />
	</node>
	<node id="9661217158" lat="60.3724943" lon="9.4842834" version="1" timestamp="2022-04-12T16:19:47Z" changeset="119629110" uid="3497659" user="NKA">
		<tag k="historic" v="shieling" />
		<tag k="name" v="Lisetre" />
		<tag k="place" v="isolated_dwelling" />
		<tag k="ssr:stedsnr" v="309260" />
	</node>
	<node id="9661217159" lat="60.3658209" lon="9.5990974" version="1" timestamp="2022-04-12T16:19:47Z" changeset="119629110" uid="3497659" user="NKA">
		<tag k="name" v="Slåtta" />
		<tag k="place" v="farm" />
		<tag k="ssr:stedsnr" v="916816" />
	</node>
	<node id="9661217160" lat="60.4146601" lon="9.4967315" version="1" timestamp="2022-04-12T16:19:47Z" changeset="119629110" uid="3497659" user="NKA">
		<tag k="alt_name" v="Engen" />
		<tag k="name" v="Engi" />
		<tag k="place" v="farm" />
		<tag k="ssr:stedsnr" v="916214" />
	</node>
	<node id="9661217161" lat="60.3281945" lon="9.6252749" version="1" timestamp="2022-04-12T16:19:47Z" changeset="119629110" uid="3497659" user="NKA">
		<tag k="alt_name" v="Nordre Veteren" />
		<tag k="name" v="Veterhytta" />
		<tag k="place" v="isolated_dwelling" />
		<tag k="ssr:stedsnr" v="309863" />
	</node>
	<node id="9661217162" lat="60.3879343" lon="9.6167098" version="1" timestamp="2022-04-12T16:19:47Z" changeset="119629110" uid="3497659" user="NKA">
		<tag k="name" v="Solheim" />
		<tag k="place" v="farm" />
		<tag k="ssr:stedsnr" v="856972" />
	</node>
	<node id="9661217163" lat="60.3404055" lon="9.5798222" version="1" timestamp="2022-04-12T16:19:47Z" changeset="119629110" uid="3497659" user="NKA">
		<tag k="historic" v="shieling" />
		<tag k="name" v="Buøynsetre" />
		<tag k="place" v="isolated_dwelling" />
		<tag k="ssr:stedsnr" v="127051" />
	</node>
	<node id="9661217164" lat="60.4264612" lon="9.4056319" version="1" timestamp="2022-04-12T16:19:47Z" changeset="119629110" uid="3497659" user="NKA">
		<tag k="name" v="Åvestrud" />
		<tag k="place" v="hamlet" />
		<tag k="ssr:stedsnr" v="856182" />
	</node>
	<node id="9661217165" lat="60.3764694" lon="9.5470223" version="1" timestamp="2022-04-12T16:19:47Z" changeset="119629110" uid="3497659" user="NKA">
		<tag k="name" v="Brakka" />
		<tag k="place" v="locality" />
		<tag k="ssr:stedsnr" v="161361" />
	</node>
	<node id="9661217166" lat="60.3695811" lon="9.6525492" version="1" timestamp="2022-04-12T16:19:47Z" changeset="119629110" uid="3497659" user="NKA">
		<tag k="name" v="Oppsal" />
		<tag k="place" v="hamlet" />
		<tag k="ssr:stedsnr" v="6819" />
	</node>
	<node id="9661217167" lat="60.3754988" lon="9.5678037" version="1" timestamp="2022-04-12T16:19:47Z" changeset="119629110" uid="3497659" user="NKA">
		<tag k="name" v="Vestheim" />
		<tag k="place" v="farm" />
		<tag k="ssr:stedsnr" v="890386" />
	</node>
	<node id="9661217168" lat="60.3869492" lon="9.5545663" version="1" timestamp="2022-04-12T16:19:47Z" changeset="119629110" uid="3497659" user="NKA">
		<tag k="name" v="Skogtun" />
		<tag k="place" v="isolated_dwelling" />
		<tag k="ssr:stedsnr" v="283307" />
	</node>
	<node id="9661217169" lat="60.4580611" lon="9.5031583" version="1" timestamp="2022-04-12T16:19:47Z" changeset="119629110" uid="3497659" user="NKA">
		<tag k="name" v="Furutangen" />
		<tag k="place" v="isolated_dwelling" />
		<tag k="ssr:stedsnr" v="891539" />
	</node>
	<node id="9661217170" lat="60.3641087" lon="9.6023366" version="1" timestamp="2022-04-12T16:19:47Z" changeset="119629110" uid="3497659" user="NKA">
		<tag k="name" v="Fjordgløtt" />
		<tag k="place" v="farm" />
		<tag k="ssr:stedsnr" v="222541" />
	</node>
	<node id="9661217171" lat="60.3744767" lon="9.6272684" version="1" timestamp="2022-04-12T16:19:47Z" changeset="119629110" uid="3497659" user="NKA">
		<tag k="name" v="Lieng" />
		<tag k="place" v="farm" />
		<tag k="ssr:stedsnr" v="222388" />
	</node>
	<node id="9661217172" lat="60.4273192" lon="9.4083778" version="1" timestamp="2022-04-12T16:19:47Z" changeset="119629110" uid="3497659" user="NKA">
		<tag k="alt_name" v="Søndre Åvestrud" />
		<tag k="name" v="Søre Åvestrud" />
		<tag k="place" v="farm" />
		<tag k="ssr:stedsnr" v="724010" />
	</node>
	<node id="9661217175" lat="60.3148667" lon="9.6257083" version="1" timestamp="2022-04-12T16:19:47Z" changeset="119629110" uid="3497659" user="NKA">
		<tag k="name" v="Tuftehytta" />
		<tag k="place" v="isolated_dwelling" />
		<tag k="ssr:stedsnr" v="222150" />
	</node>
	<node id="9661217176" lat="60.349875" lon="9.6457611" version="1" timestamp="2022-04-12T16:19:47Z" changeset="119629110" uid="3497659" user="NKA">
		<tag k="name" v="Hansbråtan" />
		<tag k="place" v="farm" />
		<tag k="ssr:stedsnr" v="856789" />
	</node>
	<node id="9661217177" lat="60.3954593" lon="9.4987632" version="1" timestamp="2022-04-12T16:19:47Z" changeset="119629110" uid="3497659" user="NKA">
		<tag k="name" v="Strindeberg" />
		<tag k="place" v="farm" />
		<tag k="ssr:stedsnr" v="856245" />
	</node>
	<node id="9661217178" lat="60.37155" lon="9.6560167" version="1" timestamp="2022-04-12T16:19:47Z" changeset="119629110" uid="3497659" user="NKA">
		<tag k="name" v="Oppheim" />
		<tag k="place" v="farm" />
		<tag k="ssr:stedsnr" v="856802" />
	</node>
	<node id="9661217179" lat="60.3541738" lon="9.6252621" version="1" timestamp="2022-04-12T16:19:47Z" changeset="119629110" uid="3497659" user="NKA">
		<tag k="name" v="Halsan" />
		<tag k="place" v="farm" />
		<tag k="ssr:stedsnr" v="856766" />
	</node>
	<node id="9661217180" lat="60.3751696" lon="9.5699773" version="1" timestamp="2022-04-12T16:19:47Z" changeset="119629110" uid="3497659" user="NKA">
		<tag k="name" v="Jonebråten" />
		<tag k="place" v="farm" />
		<tag k="ssr:stedsnr" v="343340" />
	</node>
	<node id="9661217181" lat="60.4420543" lon="9.4495352" version="1" timestamp="2022-04-12T16:19:47Z" changeset="119629110" uid="3497659" user="NKA">
		<tag k="name" v="Hugnadheim" />
		<tag k="place" v="farm" />
		<tag k="ssr:stedsnr" v="967959" />
	</node>
	<node id="9661217182" lat="60.450425" lon="9.3360999" version="1" timestamp="2022-04-12T16:19:47Z" changeset="119629110" uid="3497659" user="NKA">
		<tag k="name" v="Heiun" />
		<tag k="place" v="isolated_dwelling" />
		<tag k="ssr:stedsnr" v="916152" />
	</node>
	<node id="9661217183" lat="60.4181644" lon="9.3710552" version="1" timestamp="2022-04-12T16:19:47Z" changeset="119629110" uid="3497659" user="NKA">
		<tag k="name" v="Plassen" />
		<tag k="place" v="farm" />
		<tag k="ssr:stedsnr" v="917126" />
	</node>
	<node id="9661217184" lat="60.4827" lon="9.3838583" version="1" timestamp="2022-04-12T16:19:47Z" changeset="119629110" uid="3497659" user="NKA">
		<tag k="historic" v="shieling" />
		<tag k="name" v="Kvisetran" />
		<tag k="place" v="hamlet" />
		<tag k="ssr:stedsnr" v="795381" />
	</node>
	<node id="9661217185" lat="60.4269283" lon="9.4681196" version="1" timestamp="2022-04-12T16:19:47Z" changeset="119629110" uid="3497659" user="NKA">
		<tag k="alt_name" v="Søndre Voll" />
		<tag k="name" v="Søre Voll" />
		<tag k="place" v="farm" />
		<tag k="ssr:stedsnr" v="646229" />
	</node>
	<node id="9661217186" lat="60.4407919" lon="9.4541591" version="1" timestamp="2022-04-12T16:19:47Z" changeset="119629110" uid="3497659" user="NKA">
		<tag k="name" v="Åsheim" />
		<tag k="place" v="farm" />
		<tag k="ssr:stedsnr" v="907973" />
	</node>
	<node id="9661217187" lat="60.3398867" lon="9.6493036" version="1" timestamp="2022-04-12T16:19:47Z" changeset="119629110" uid="3497659" user="NKA">
		<tag k="name" v="Nyland" />
		<tag k="place" v="farm" />
		<tag k="ssr:stedsnr" v="848911" />
	</node>
	<node id="9661217188" lat="60.3721927" lon="9.4888645" version="1" timestamp="2022-04-12T16:19:47Z" changeset="119629110" uid="3497659" user="NKA">
		<tag k="historic" v="shieling" />
		<tag k="name" v="Gandrudsetre" />
		<tag k="place" v="isolated_dwelling" />
		<tag k="ssr:stedsnr" v="613027" />
	</node>
	<node id="9661217189" lat="60.4273987" lon="9.4513157" version="1" timestamp="2022-04-12T16:19:47Z" changeset="119629110" uid="3497659" user="NKA">
		<tag k="alt_name" v="Larsplass" />
		<tag k="name" v="Larsplassen" />
		<tag k="place" v="farm" />
		<tag k="ssr:stedsnr" v="613165" />
	</node>
	<node id="9661217190" lat="60.4112528" lon="9.4796695" version="1" timestamp="2022-04-12T16:19:47Z" changeset="119629110" uid="3497659" user="NKA">
		<tag k="name" v="Rudslykkja" />
		<tag k="place" v="locality" />
		<tag k="ssr:stedsnr" v="846200" />
	</node>
	<node id="9661217191" lat="60.382052" lon="9.6103901" version="1" timestamp="2022-04-12T16:19:47Z" changeset="119629110" uid="3497659" user="NKA">
		<tag k="name" v="Granheim" />
		<tag k="place" v="farm" />
		<tag k="ssr:stedsnr" v="586400" />
	</node>
	<node id="9661217192" lat="60.4456118" lon="9.4340803" version="1" timestamp="2022-04-12T16:19:47Z" changeset="119629110" uid="3497659" user="NKA">
		<tag k="name" v="Kvarve" />
		<tag k="place" v="farm" />
		<tag k="ssr:stedsnr" v="491149" />
	</node>
	<node id="9661217193" lat="60.4398908" lon="9.4558221" version="1" timestamp="2022-04-12T16:19:47Z" changeset="119629110" uid="3497659" user="NKA">
		<tag k="name" v="Dalen" />
		<tag k="place" v="farm" />
		<tag k="ssr:stedsnr" v="603993" />
	</node>
	<node id="9661217194" lat="60.4168533" lon="9.4823652" version="1" timestamp="2022-04-12T16:19:47Z" changeset="119629110" uid="3497659" user="NKA">
		<tag k="alt_name" v="Søndre Rud" />
		<tag k="name" v="Søre Rud" />
		<tag k="place" v="farm" />
		<tag k="ssr:stedsnr" v="552230" />
	</node>
	<node id="9661217195" lat="60.429562" lon="9.4665965" version="1" timestamp="2022-04-12T16:19:47Z" changeset="119629110" uid="3497659" user="NKA">
		<tag k="name" v="Vik" />
		<tag k="place" v="farm" />
		<tag k="ssr:stedsnr" v="1072302" />
	</node>
	<node id="9661217196" lat="60.3761351" lon="9.4608626" version="1" timestamp="2022-04-12T16:19:47Z" changeset="119629110" uid="3497659" user="NKA">
		<tag k="historic" v="shieling" />
		<tag k="name" v="Rudsheimsetre" />
		<tag k="place" v="isolated_dwelling" />
		<tag k="ssr:stedsnr" v="552244" />
	</node>
	<node id="9661217197" lat="60.4306" lon="9.3801194" version="1" timestamp="2022-04-12T16:19:47Z" changeset="119629110" uid="3497659" user="NKA">
		<tag k="name" v="Velta" />
		<tag k="place" v="farm" />
		<tag k="ssr:stedsnr" v="431200" />
	</node>
	<node id="9661217198" lat="60.4417277" lon="9.4033084" version="1" timestamp="2022-04-12T16:19:47Z" changeset="119629110" uid="3497659" user="NKA">
		<tag k="name" v="Haugaseter" />
		<tag k="place" v="locality" />
		<tag k="ssr:stedsnr" v="239792" />
	</node>
	<node id="9661217199" lat="60.3485798" lon="9.428035" version="1" timestamp="2022-04-12T16:19:47Z" changeset="119629110" uid="3497659" user="NKA">
		<tag k="historic" v="shieling" />
		<tag k="name" v="Jakobslisetre" />
		<tag k="place" v="isolated_dwelling" />
		<tag k="ssr:stedsnr" v="552003" />
	</node>
	<node id="9661217200" lat="60.3935509" lon="9.1895608" version="1" timestamp="2022-04-12T16:19:47Z" changeset="119629110" uid="3497659" user="NKA">
		<tag k="name" v="Reinsjøfjell" />
		<tag k="place" v="neighbourhood" />
		<tag k="ssr:stedsnr" v="981819" />
	</node>
	<node id="9661217201" lat="60.4090255" lon="9.4858433" version="1" timestamp="2022-04-12T16:19:47Z" changeset="119629110" uid="3497659" user="NKA">
		<tag k="name" v="Bråten" />
		<tag k="place" v="farm" />
		<tag k="ssr:stedsnr" v="856212" />
	</node>
	<node id="9661217202" lat="60.3264468" lon="9.5892736" version="1" timestamp="2022-04-12T16:19:47Z" changeset="119629110" uid="3497659" user="NKA">
		<tag k="name" v="Løken" />
		<tag k="place" v="isolated_dwelling" />
		<tag k="ssr:stedsnr" v="544033" />
	</node>
	<node id="9661217203" lat="60.4405073" lon="9.4561673" version="1" timestamp="2022-04-12T16:19:47Z" changeset="119629110" uid="3497659" user="NKA">
		<tag k="name" v="Elvelund" />
		<tag k="place" v="farm" />
		<tag k="ssr:stedsnr" v="542999" />
	</node>
	<node id="9661217204" lat="60.4307611" lon="9.4188306" version="1" timestamp="2022-04-12T16:19:47Z" changeset="119629110" uid="3497659" user="NKA">
		<tag k="name" v="Øvre Viskop" />
		<tag k="place" v="locality" />
		<tag k="ssr:stedsnr" v="542007" />
	</node>
	<node id="9661217205" lat="60.3946584" lon="9.5600083" version="1" timestamp="2022-04-12T16:19:47Z" changeset="119629110" uid="3497659" user="NKA">
		<tag k="name" v="Langeros" />
		<tag k="place" v="farm" />
		<tag k="ssr:stedsnr" v="542484" />
	</node>
	<node id="9661217206" lat="60.4447549" lon="9.4548816" version="1" timestamp="2022-04-12T16:19:47Z" changeset="119629110" uid="3497659" user="NKA">
		<tag k="name" v="Heimoen" />
		<tag k="place" v="neighbourhood" />
		<tag k="ssr:stedsnr" v="981817" />
	</node>
	<node id="9661217207" lat="60.4372722" lon="9.4518556" version="1" timestamp="2022-04-12T16:19:47Z" changeset="119629110" uid="3497659" user="NKA">
		<tag k="name" v="Odden" />
		<tag k="place" v="locality" />
		<tag k="ssr:stedsnr" v="542224" />
	</node>
	<node id="9661217208" lat="60.4285367" lon="9.4785139" version="1" timestamp="2022-04-12T16:19:47Z" changeset="119629110" uid="3497659" user="NKA">
		<tag k="name" v="Øvre Ve" />
		<tag k="place" v="farm" />
		<tag k="ssr:stedsnr" v="950244" />
	</node>
	<node id="9661217209" lat="60.4383378" lon="9.4652077" version="1" timestamp="2022-04-12T16:19:47Z" changeset="119629110" uid="3497659" user="NKA">
		<tag k="name" v="Haugen" />
		<tag k="place" v="farm" />
		<tag k="ssr:stedsnr" v="421999" />
	</node>
	<node id="9661217210" lat="60.4336752" lon="9.4754658" version="1" timestamp="2022-04-12T16:19:47Z" changeset="119629110" uid="3497659" user="NKA">
		<tag k="name" v="Sølvberg" />
		<tag k="place" v="farm" />
		<tag k="ssr:stedsnr" v="421989" />
	</node>
	<node id="9661217211" lat="60.4003889" lon="9.498839" version="1" timestamp="2022-04-12T16:19:47Z" changeset="119629110" uid="3497659" user="NKA">
		<tag k="name" v="Skår" />
		<tag k="place" v="farm" />
		<tag k="ssr:stedsnr" v="419210" />
	</node>
	<node id="9661217212" lat="60.401865" lon="9.4885789" version="1" timestamp="2022-04-12T16:19:47Z" changeset="119629110" uid="3497659" user="NKA">
		<tag k="name" v="Hellerud" />
		<tag k="place" v="farm" />
		<tag k="ssr:stedsnr" v="370232" />
	</node>
	<node id="9661217213" lat="60.434275" lon="9.4021" version="1" timestamp="2022-04-12T16:19:47Z" changeset="119629110" uid="3497659" user="NKA">
		<tag k="name" v="Nørdre Gaptjern" />
		<tag k="old_name" v="Nordre Goptjern" />
		<tag k="place" v="farm" />
		<tag k="ssr:stedsnr" v="916198" />
	</node>
	<node id="9661217214" lat="60.3658875" lon="9.6090009" version="1" timestamp="2022-04-12T16:19:47Z" changeset="119629110" uid="3497659" user="NKA">
		<tag k="alt_name" v="Vika" />
		<tag k="name" v="Viki" />
		<tag k="place" v="hamlet" />
		<tag k="ssr:stedsnr" v="309799" />
	</node>
	<node id="9661217215" lat="60.4638806" lon="9.4394973" version="1" timestamp="2022-04-12T16:19:47Z" changeset="119629110" uid="3497659" user="NKA">
		<tag k="alt_name" v="Hesteortjernhytta" />
		<tag k="name" v="Hesteorttjernhytta" />
		<tag k="place" v="isolated_dwelling" />
		<tag k="ssr:stedsnr" v="369337" />
	</node>
	<node id="9661217216" lat="60.4250974" lon="9.3300607" version="1" timestamp="2022-04-12T16:19:47Z" changeset="119629110" uid="3497659" user="NKA">
		<tag k="name" v="Stavn" />
		<tag k="place" v="hamlet" />
		<tag k="ssr:stedsnr" v="309209" />
	</node>
	<node id="9661217217" lat="60.4459332" lon="9.3017251" version="1" timestamp="2022-04-12T16:19:47Z" changeset="119629110" uid="3497659" user="NKA">
		<tag k="name" v="Gislerud" />
		<tag k="place" v="hamlet" />
		<tag k="ssr:stedsnr" v="423557" />
	</node>
	<node id="9661217218" lat="60.3953944" lon="9.6246584" version="1" timestamp="2022-04-12T16:19:47Z" changeset="119629110" uid="3497659" user="NKA">
		<tag k="name" v="Djupdal" />
		<tag k="place" v="locality" />
		<tag k="ssr:stedsnr" v="421474" />
	</node>
	<node id="9661217219" lat="60.4373421" lon="9.4351085" version="1" timestamp="2022-04-12T16:19:47Z" changeset="119629110" uid="3497659" user="NKA">
		<tag k="name" v="Øvre Trøstheim" />
		<tag k="place" v="farm" />
		<tag k="ssr:stedsnr" v="785994" />
	</node>
	<node id="9661217220" lat="60.5165714" lon="9.4170202" version="1" timestamp="2022-04-12T16:19:47Z" changeset="119629110" uid="3497659" user="NKA">
		<tag k="historic" v="shieling" />
		<tag k="name" v="Øvre Raudfjellsetre" />
		<tag k="place" v="isolated_dwelling" />
		<tag k="ssr:stedsnr" v="674773" />
	</node>
	<node id="9661217221" lat="60.4579472" lon="9.3331334" version="1" timestamp="2022-04-12T16:19:47Z" changeset="119629110" uid="3497659" user="NKA">
		<tag k="name" v="Suserud" />
		<tag k="place" v="isolated_dwelling" />
		<tag k="ssr:stedsnr" v="734170" />
	</node>
	<node id="9661217222" lat="60.3822151" lon="9.485158" version="1" timestamp="2022-04-12T16:19:47Z" changeset="119629110" uid="3497659" user="NKA">
		<tag k="name" v="Stormyrhytta" />
		<tag k="place" v="isolated_dwelling" />
		<tag k="ssr:stedsnr" v="249213" />
	</node>
	<node id="9661217223" lat="60.4278406" lon="9.3768078" version="1" timestamp="2022-04-12T16:19:47Z" changeset="119629110" uid="3497659" user="NKA">
		<tag k="alt_name" v="Dokken" />
		<tag k="name" v="Dokki" />
		<tag k="place" v="farm" />
		<tag k="ssr:stedsnr" v="674176" />
	</node>
	<node id="9661217224" lat="60.4315689" lon="9.3424778" version="1" timestamp="2022-04-12T16:19:47Z" changeset="119629110" uid="3497659" user="NKA">
		<tag k="name" v="Melbråten" />
		<tag k="place" v="farm" />
		<tag k="ssr:stedsnr" v="674175" />
	</node>
	<node id="9661217225" lat="60.3098572" lon="9.5472941" version="1" timestamp="2022-04-12T16:19:47Z" changeset="119629110" uid="3497659" user="NKA">
		<tag k="name" v="Fiskebekkhytta" />
		<tag k="place" v="isolated_dwelling" />
		<tag k="ssr:stedsnr" v="283101" />
	</node>
	<node id="9661217226" lat="60.4559307" lon="9.4272346" version="1" timestamp="2022-04-12T16:19:47Z" changeset="119629110" uid="3497659" user="NKA">
		<tag k="historic" v="shieling" />
		<tag k="name" v="Kviheimsetre" />
		<tag k="place" v="isolated_dwelling" />
		<tag k="ssr:stedsnr" v="612167" />
	</node>
	<node id="9661217227" lat="60.4551241" lon="9.3856216" version="1" timestamp="2022-04-12T16:19:47Z" changeset="119629110" uid="3497659" user="NKA">
		<tag k="historic" v="shieling" />
		<tag k="name" v="Sørstølan" />
		<tag k="place" v="hamlet" />
		<tag k="ssr:stedsnr" v="612169" />
	</node>
	<node id="9661217228" lat="60.4897528" lon="9.4439583" version="1" timestamp="2022-04-12T16:19:47Z" changeset="119629110" uid="3497659" user="NKA">
		<tag k="name" v="Langebrennsnaret" />
		<tag k="place" v="isolated_dwelling" />
		<tag k="ssr:stedsnr" v="491341" />
	</node>
	<node id="9661217229" lat="60.5443917" lon="9.42595" version="1" timestamp="2022-04-12T16:19:47Z" changeset="119629110" uid="3497659" user="NKA">
		<tag k="name" v="Sundehytta" />
		<tag k="place" v="locality" />
		<tag k="ssr:stedsnr" v="586695" />
	</node>
	<node id="9661217230" lat="60.3733334" lon="9.6363305" version="1" timestamp="2022-04-12T16:19:47Z" changeset="119629110" uid="3497659" user="NKA">
		<tag k="name" v="Trommald" />
		<tag k="place" v="hamlet" />
		<tag k="ssr:stedsnr" v="161403" />
	</node>
	<node id="9661217231" lat="60.3504611" lon="9.5436861" version="1" timestamp="2022-04-12T16:19:47Z" changeset="119629110" uid="3497659" user="NKA">
		<tag k="name" v="Seterlihytta" />
		<tag k="place" v="isolated_dwelling" />
		<tag k="ssr:stedsnr" v="403570" />
	</node>
	<node id="9661217232" lat="60.3947889" lon="9.5193111" version="1" timestamp="2022-04-12T16:19:47Z" changeset="119629110" uid="3497659" user="NKA">
		<tag k="name" v="Nedre Strømbråtan" />
		<tag k="place" v="locality" />
		<tag k="ssr:stedsnr" v="218171" />
	</node>
	<node id="9661217233" lat="60.4376806" lon="9.4556416" version="1" timestamp="2022-04-12T16:19:47Z" changeset="119629110" uid="3497659" user="NKA">
		<tag k="name" v="Elvemo" />
		<tag k="place" v="locality" />
		<tag k="ssr:stedsnr" v="178988" />
	</node>
	<node id="9661217234" lat="60.4383967" lon="9.4632454" version="1" timestamp="2022-04-12T16:19:47Z" changeset="119629110" uid="3497659" user="NKA">
		<tag k="name" v="Saramoen" />
		<tag k="place" v="farm" />
		<tag k="ssr:stedsnr" v="300998" />
	</node>
	<node id="9661217235" lat="60.4413675" lon="9.455991" version="1" timestamp="2022-04-12T16:19:47Z" changeset="119629110" uid="3497659" user="NKA">
		<tag k="name" v="Sagadalen" />
		<tag k="place" v="farm" />
		<tag k="ssr:stedsnr" v="178970" />
	</node>
	<node id="9661217236" lat="60.378371" lon="9.5802606" version="1" timestamp="2022-04-12T16:19:47Z" changeset="119629110" uid="3497659" user="NKA">
		<tag k="alt_name" v="Gamlemoen" />
		<tag k="name" v="Moen" />
		<tag k="place" v="farm" />
		<tag k="ssr:stedsnr" v="431026" />
	</node>
	<node id="9661217237" lat="60.432004" lon="9.4569818" version="1" timestamp="2022-04-12T16:19:47Z" changeset="119629110" uid="3497659" user="NKA">
		<tag k="alt_name" v="Vik" />
		<tag k="name" v="Vik gjestgiveri" />
		<tag k="place" v="farm" />
		<tag k="ssr:stedsnr" v="310162" />
	</node>
	<node id="9661217238" lat="60.3546" lon="9.4518001" version="1" timestamp="2022-04-12T16:19:47Z" changeset="119629110" uid="3497659" user="NKA">
		<tag k="historic" v="shieling" />
		<tag k="name" v="Rudsetran" />
		<tag k="place" v="isolated_dwelling" />
		<tag k="ssr:stedsnr" v="127009" />
	</node>
	<node id="9661217239" lat="60.3408795" lon="9.6493067" version="1" timestamp="2022-04-12T16:19:47Z" changeset="119629110" uid="3497659" user="NKA">
		<tag k="name" v="Frydenlund" />
		<tag k="place" v="farm" />
		<tag k="ssr:stedsnr" v="120914" />
	</node>
	<node id="9661217240" lat="60.4222079" lon="9.3820818" version="1" timestamp="2022-04-12T16:19:47Z" changeset="119629110" uid="3497659" user="NKA">
		<tag k="name" v="Brubakken" />
		<tag k="place" v="farm" />
		<tag k="ssr:stedsnr" v="906007" />
	</node>
	<node id="9661217241" lat="60.4500004" lon="9.3145374" version="1" timestamp="2022-04-12T16:19:47Z" changeset="119629110" uid="3497659" user="NKA">
		<tag k="name" v="Kolsrud" />
		<tag k="place" v="hamlet" />
		<tag k="ssr:stedsnr" v="163490" />
	</node>
	<node id="9661217242" lat="60.4469337" lon="9.3193269" version="1" timestamp="2022-04-12T16:19:47Z" changeset="119629110" uid="3497659" user="NKA">
		<tag k="name" v="Alfheim" />
		<tag k="place" v="farm" />
		<tag k="ssr:stedsnr" v="889828" />
	</node>
	<node id="9661217243" lat="60.4296848" lon="9.4682774" version="1" timestamp="2022-04-12T16:19:47Z" changeset="119629110" uid="3497659" user="NKA">
		<tag k="name" v="Nedre Vik" />
		<tag k="place" v="farm" />
		<tag k="ssr:stedsnr" v="161239" />
	</node>
	<node id="9661217244" lat="60.4444369" lon="9.4421398" version="1" timestamp="2022-04-12T16:19:47Z" changeset="119629110" uid="3497659" user="NKA">
		<tag k="name" v="Heiengen" />
		<tag k="place" v="farm" />
		<tag k="ssr:stedsnr" v="846978" />
	</node>
	<node id="9661217245" lat="60.4451917" lon="9.4184" version="1" timestamp="2022-04-12T16:19:47Z" changeset="119629110" uid="3497659" user="NKA">
		<tag k="name" v="Øvre Kvi" />
		<tag k="place" v="locality" />
		<tag k="ssr:stedsnr" v="118747" />
	</node>
	<node id="9661217246" lat="60.3991889" lon="9.2836806" version="1" timestamp="2022-04-12T16:19:47Z" changeset="119629110" uid="3497659" user="NKA">
		<tag k="historic" v="shieling" />
		<tag k="name" v="Tungsetre" />
		<tag k="place" v="isolated_dwelling" />
		<tag k="ssr:stedsnr" v="848419" />
	</node>
	<node id="9661217247" lat="60.479075" lon="9.4548" version="1" timestamp="2022-04-12T16:19:47Z" changeset="119629110" uid="3497659" user="NKA">
		<tag k="historic" v="shieling" />
		<tag k="name" v="Vesbråtenseter" />
		<tag k="place" v="isolated_dwelling" />
		<tag k="ssr:stedsnr" v="856381" />
	</node>
	<node id="9661217248" lat="60.3688" lon="9.3433388" version="1" timestamp="2022-04-12T16:19:47Z" changeset="119629110" uid="3497659" user="NKA">
		<tag k="historic" v="shieling" />
		<tag k="name" v="Åvestrudsetre" />
		<tag k="place" v="hamlet" />
		<tag k="ssr:stedsnr" v="856026" />
	</node>
	<node id="9661217249" lat="60.4255332" lon="9.3216482" version="1" timestamp="2022-04-12T16:19:47Z" changeset="119629110" uid="3497659" user="NKA">
		<tag k="name" v="Lykkja" />
		<tag k="place" v="farm" />
		<tag k="ssr:stedsnr" v="846038" />
	</node>
	<node id="9661217250" lat="60.3495991" lon="9.6963982" version="1" timestamp="2022-04-12T16:19:47Z" changeset="119629110" uid="3497659" user="NKA">
		<tag k="name" v="Kringsjå" />
		<tag k="place" v="isolated_dwelling" />
		<tag k="ssr:stedsnr" v="795779" />
	</node>
	<node id="9661217251" lat="60.3723151" lon="9.6444529" version="1" timestamp="2022-04-12T16:19:47Z" changeset="119629110" uid="3497659" user="NKA">
		<tag k="alt_name" v="Østre Tromald;Østre Trommald" />
		<tag k="name" v="Austre Trommald" />
		<tag k="place" v="farm" />
		<tag k="ssr:stedsnr" v="950408" />
	</node>
	<node id="9661217252" lat="60.4387944" lon="9.433431" version="1" timestamp="2022-04-12T16:19:47Z" changeset="119629110" uid="3497659" user="NKA">
		<tag k="name" v="Trøstheim" />
		<tag k="place" v="hamlet" />
		<tag k="ssr:stedsnr" v="552199" />
	</node>
	<node id="9661217253" lat="60.3484573" lon="9.7885649" version="1" timestamp="2022-04-12T16:19:47Z" changeset="119629110" uid="3497659" user="NKA">
		<tag k="name" v="Tranetjernhytta" />
		<tag k="place" v="isolated_dwelling" />
		<tag k="ssr:stedsnr" v="829576" />
	</node>
	<node id="9661217254" lat="60.4402751" lon="9.7705567" version="1" timestamp="2022-04-12T16:19:47Z" changeset="119629110" uid="3497659" user="NKA">
		<tag k="name" v="Fjellandvollen" />
		<tag k="place" v="isolated_dwelling" />
		<tag k="ssr:stedsnr" v="673982" />
	</node>
	<node id="9661217255" lat="60.4742784" lon="9.4041883" version="1" timestamp="2022-04-12T16:19:47Z" changeset="119629110" uid="3497659" user="NKA">
		<tag k="name" v="Kvitjernhytta" />
		<tag k="place" v="isolated_dwelling" />
		<tag k="ssr:stedsnr" v="551343" />
	</node>
	<node id="9661217256" lat="60.4406371" lon="9.459355" version="1" timestamp="2022-04-12T16:19:47Z" changeset="119629110" uid="3497659" user="NKA">
		<tag k="name" v="Haugen" />
		<tag k="place" v="farm" />
		<tag k="ssr:stedsnr" v="360994" />
	</node>
	<node id="9661217257" lat="60.414" lon="9.29205" version="1" timestamp="2022-04-12T16:19:47Z" changeset="119629110" uid="3497659" user="NKA">
		<tag k="historic" v="shieling" />
		<tag k="name" v="Stavnheimsetran" />
		<tag k="place" v="isolated_dwelling" />
		<tag k="ssr:stedsnr" v="370255" />
	</node>
	<node id="9661217258" lat="60.401675" lon="9.3551722" version="1" timestamp="2022-04-12T16:19:47Z" changeset="119629110" uid="3497659" user="NKA">
		<tag k="name" v="Slåttemyrbråten" />
		<tag k="place" v="locality" />
		<tag k="ssr:stedsnr" v="423442" />
	</node>
	<node id="9661217259" lat="60.3791138" lon="9.7834722" version="1" timestamp="2022-04-12T16:19:47Z" changeset="119629110" uid="3497659" user="NKA">
		<tag k="name" v="Åshytta" />
		<tag k="place" v="isolated_dwelling" />
		<tag k="ssr:stedsnr" v="492772" />
	</node>
	<node id="9661217260" lat="60.4314029" lon="9.7526467" version="1" timestamp="2022-04-12T16:19:47Z" changeset="119629110" uid="3497659" user="NKA">
		<tag k="historic" v="shieling" />
		<tag k="name" v="Steinkollsetre" />
		<tag k="place" v="isolated_dwelling" />
		<tag k="ssr:stedsnr" v="187972" />
	</node>
	<node id="9661217261" lat="60.422374" lon="9.3859306" version="1" timestamp="2022-04-12T16:19:47Z" changeset="119629110" uid="3497659" user="NKA">
		<tag k="name" v="Bråten" />
		<tag k="place" v="farm" />
		<tag k="ssr:stedsnr" v="421008" />
	</node>
	<node id="9661217262" lat="60.3875028" lon="9.8051055" version="1" timestamp="2022-04-12T16:19:47Z" changeset="119629110" uid="3497659" user="NKA">
		<tag k="name" v="Langodden" />
		<tag k="place" v="isolated_dwelling" />
		<tag k="ssr:stedsnr" v="481501" />
	</node>
	<node id="9661217263" lat="60.3828082" lon="9.807485" version="1" timestamp="2022-04-12T16:19:47Z" changeset="119629110" uid="3497659" user="NKA">
		<tag k="name" v="Lomsdalshytta" />
		<tag k="place" v="isolated_dwelling" />
		<tag k="ssr:stedsnr" v="542476" />
	</node>
	<node id="9661217264" lat="60.3889229" lon="9.5608425" version="1" timestamp="2022-04-12T16:19:47Z" changeset="119629110" uid="3497659" user="NKA">
		<tag k="name" v="Nordre Gulsvik" />
		<tag k="place" v="farm" />
		<tag k="ssr:stedsnr" v="602488" />
	</node>
	<node id="9661217265" lat="60.4126188" lon="9.4993755" version="1" timestamp="2022-04-12T16:19:47Z" changeset="119629110" uid="3497659" user="NKA">
		<tag k="name" v="Engheim" />
		<tag k="place" v="farm" />
		<tag k="ssr:stedsnr" v="612214" />
	</node>
	<node id="9661217266" lat="60.3697389" lon="9.5609612" version="1" timestamp="2022-04-12T16:19:47Z" changeset="119629110" uid="3497659" user="NKA">
		<tag k="alt_name" v="Aslehusbråten" />
		<tag k="name" v="Bråten" />
		<tag k="place" v="locality" />
		<tag k="ssr:stedsnr" v="127032" />
	</node>
	<node id="9661217267" lat="60.4053696" lon="9.491815" version="1" timestamp="2022-04-12T16:19:47Z" changeset="119629110" uid="3497659" user="NKA">
		<tag k="name" v="Kjøsenga" />
		<tag k="place" v="farm" />
		<tag k="ssr:stedsnr" v="601183" />
	</node>
	<node id="9661217268" lat="60.4169889" lon="9.3980639" version="1" timestamp="2022-04-12T16:19:47Z" changeset="119629110" uid="3497659" user="NKA">
		<tag k="name" v="Liabråten" />
		<tag k="place" v="farm" />
		<tag k="ssr:stedsnr" v="552167" />
	</node>
	<node id="9661217269" lat="60.4626302" lon="9.3475083" version="1" timestamp="2022-04-12T16:19:47Z" changeset="119629110" uid="3497659" user="NKA">
		<tag k="alt_name" v="Nysæter" />
		<tag k="historic" v="shieling" />
		<tag k="name" v="Nyseter" />
		<tag k="place" v="isolated_dwelling" />
		<tag k="ssr:stedsnr" v="916389" />
	</node>
	<node id="9661217270" lat="60.3964333" lon="9.5671362" version="1" timestamp="2022-04-12T16:19:47Z" changeset="119629110" uid="3497659" user="NKA">
		<tag k="name" v="Koksum" />
		<tag k="place" v="locality" />
		<tag k="ssr:stedsnr" v="421471" />
	</node>
	<node id="9661217271" lat="60.4161598" lon="9.5031055" version="1" timestamp="2022-04-12T16:19:47Z" changeset="119629110" uid="3497659" user="NKA">
		<tag k="name" v="Natten" />
		<tag k="place" v="farm" />
		<tag k="ssr:stedsnr" v="300210" />
	</node>
	<node id="9661217272" lat="60.3805545" lon="9.56234" version="1" timestamp="2022-04-12T16:19:47Z" changeset="119629110" uid="3497659" user="NKA">
		<tag k="name" v="Gandrud" />
		<tag k="place" v="hamlet" />
		<tag k="ssr:stedsnr" v="404373" />
	</node>
	<node id="9661217273" lat="60.4916618" lon="9.413836" version="1" timestamp="2022-04-12T16:19:47Z" changeset="119629110" uid="3497659" user="NKA">
		<tag k="name" v="Langebrennsnaret" />
		<tag k="place" v="isolated_dwelling" />
		<tag k="ssr:stedsnr" v="404720" />
	</node>
	<node id="9661217274" lat="60.506259" lon="9.4835801" version="1" timestamp="2022-04-12T16:19:47Z" changeset="119629110" uid="3497659" user="NKA">
		<tag k="alt_name" v="Veneliseter" />
		<tag k="historic" v="shieling" />
		<tag k="name" v="Veneli" />
		<tag k="place" v="isolated_dwelling" />
		<tag k="ssr:stedsnr" v="189756" />
	</node>
	<node id="9661217275" lat="60.4199864" lon="9.3726186" version="1" timestamp="2022-04-12T16:19:47Z" changeset="119629110" uid="3497659" user="NKA">
		<tag k="name" v="Stensrud" />
		<tag k="place" v="farm" />
		<tag k="ssr:stedsnr" v="178027" />
	</node>
	<node id="9661217276" lat="60.4914989" lon="9.4535014" version="1" timestamp="2022-04-12T16:19:47Z" changeset="119629110" uid="3497659" user="NKA">
		<tag k="name" v="Veneknatten" />
		<tag k="place" v="isolated_dwelling" />
		<tag k="ssr:stedsnr" v="40772" />
	</node>
	<node id="9661217277" lat="60.4889669" lon="9.3780682" version="1" timestamp="2022-04-12T16:19:47Z" changeset="119629110" uid="3497659" user="NKA">
		<tag k="historic" v="shieling" />
		<tag k="name" v="Kuluset" />
		<tag k="place" v="isolated_dwelling" />
		<tag k="ssr:stedsnr" v="127341" />
	</node>
	<node id="9661217278" lat="60.4059083" lon="9.6801777" version="1" timestamp="2022-04-12T16:19:47Z" changeset="119629110" uid="3497659" user="NKA">
		<tag k="name" v="Strengsmyrhytta" />
		<tag k="place" v="isolated_dwelling" />
		<tag k="ssr:stedsnr" v="916987" />
	</node>
	<node id="9661217279" lat="60.3890932" lon="9.5656144" version="1" timestamp="2022-04-12T16:19:47Z" changeset="119629110" uid="3497659" user="NKA">
		<tag k="name" v="Gulsvik" />
		<tag k="place" v="hamlet" />
		<tag k="ssr:stedsnr" v="795272" />
	</node>
	<node id="9661217280" lat="60.3901348" lon="9.7960443" version="1" timestamp="2022-04-12T16:19:47Z" changeset="119629110" uid="3497659" user="NKA">
		<tag k="name" v="Frivannshytta" />
		<tag k="place" v="isolated_dwelling" />
		<tag k="ssr:stedsnr" v="57463" />
	</node>
	<node id="9661217281" lat="60.3598958" lon="9.7007039" version="1" timestamp="2022-04-12T16:19:47Z" changeset="119629110" uid="3497659" user="NKA">
		<tag k="name" v="Granbu" />
		<tag k="place" v="isolated_dwelling" />
		<tag k="ssr:stedsnr" v="309757" />
	</node>
	<node id="9661217282" lat="60.3376361" lon="9.6576083" version="1" timestamp="2022-04-12T16:19:47Z" changeset="119629110" uid="3497659" user="NKA">
		<tag k="name" v="Rugbråtan" />
		<tag k="place" v="locality" />
		<tag k="ssr:stedsnr" v="6861" />
	</node>
	<node id="9661217283" lat="60.3694358" lon="9.6571826" version="1" timestamp="2022-04-12T16:19:47Z" changeset="119629110" uid="3497659" user="NKA">
		<tag k="name" v="Slenta" />
		<tag k="place" v="farm" />
		<tag k="ssr:stedsnr" v="795806" />
	</node>
	<node id="9661217284" lat="60.3660114" lon="9.6496678" version="1" timestamp="2022-04-12T16:19:47Z" changeset="119629110" uid="3497659" user="NKA">
		<tag k="name" v="Mebøen" />
		<tag k="place" v="hamlet" />
		<tag k="ssr:stedsnr" v="370816" />
	</node>
	<node id="9661217285" lat="60.374096" lon="9.6252677" version="1" timestamp="2022-04-12T16:19:47Z" changeset="119629110" uid="3497659" user="NKA">
		<tag k="name" v="Vikstrand" />
		<tag k="place" v="farm" />
		<tag k="ssr:stedsnr" v="646392" />
	</node>
	<node id="9661217286" lat="60.3395083" lon="9.6494028" version="1" timestamp="2022-04-12T16:19:47Z" changeset="119629110" uid="3497659" user="NKA">
		<tag k="name" v="Danmark" />
		<tag k="place" v="farm" />
		<tag k="ssr:stedsnr" v="362912" />
	</node>
	<node id="9661217287" lat="60.4060583" lon="9.7523612" version="1" timestamp="2022-04-12T16:19:47Z" changeset="119629110" uid="3497659" user="NKA">
		<tag k="name" v="Trillegården" />
		<tag k="place" v="farm" />
		<tag k="ssr:stedsnr" v="542496" />
	</node>
	<node id="9661217288" lat="60.4017338" lon="9.722256" version="1" timestamp="2022-04-12T16:19:47Z" changeset="119629110" uid="3497659" user="NKA">
		<tag k="name" v="Oppsallegret" />
		<tag k="place" v="isolated_dwelling" />
		<tag k="ssr:stedsnr" v="421481" />
	</node>
	<node id="9661217289" lat="60.3675383" lon="9.6480108" version="1" timestamp="2022-04-12T16:19:47Z" changeset="119629110" uid="3497659" user="NKA">
		<tag k="name" v="Nordre Medbøen" />
		<tag k="place" v="farm" />
		<tag k="ssr:stedsnr" v="283326" />
	</node>
	<node id="9661217290" lat="60.4131418" lon="9.7514749" version="1" timestamp="2022-04-12T16:19:47Z" changeset="119629110" uid="3497659" user="NKA">
		<tag k="name" v="Kalkemoen" />
		<tag k="place" v="isolated_dwelling" />
		<tag k="ssr:stedsnr" v="370987" />
	</node>
	<node id="9661217291" lat="60.3577979" lon="9.6494766" version="1" timestamp="2022-04-12T16:19:47Z" changeset="119629110" uid="3497659" user="NKA">
		<tag k="alt_name" v="Søndre Sønsteby" />
		<tag k="name" v="Søre Sønsteby" />
		<tag k="place" v="farm" />
		<tag k="ssr:stedsnr" v="161548" />
	</node>
	<node id="9661217292" lat="60.4787719" lon="9.6114014" version="1" timestamp="2022-04-12T16:19:47Z" changeset="119629110" uid="3497659" user="NKA">
		<tag k="name" v="Harehopp" />
		<tag k="place" v="locality" />
		<tag k="ssr:stedsnr" v="976227" />
	</node>
	<node id="9661217293" lat="60.3492194" lon="9.6483806" version="1" timestamp="2022-04-12T16:19:47Z" changeset="119629110" uid="3497659" user="NKA">
		<tag k="name" v="Reset" />
		<tag k="place" v="locality" />
		<tag k="ssr:stedsnr" v="585543" />
	</node>
	<node id="9661217294" lat="60.3968575" lon="9.5026403" version="1" timestamp="2022-04-12T16:19:47Z" changeset="119629110" uid="3497659" user="NKA">
		<tag k="name" v="Strandi" />
		<tag k="place" v="farm" />
		<tag k="ssr:stedsnr" v="6245" />
	</node>
	<node id="9661217295" lat="60.416496" lon="9.4961214" version="1" timestamp="2022-04-12T16:19:47Z" changeset="119629110" uid="3497659" user="NKA">
		<tag k="alt_name" v="Ves-Buøen" />
		<tag k="name" v="Vesbuøyni" />
		<tag k="place" v="farm" />
		<tag k="ssr:stedsnr" v="431240" />
	</node>
	<node id="9661217296" lat="60.3746334" lon="9.5024722" version="1" timestamp="2022-04-12T16:19:47Z" changeset="119629110" uid="3497659" user="NKA">
		<tag k="name" v="Høgslepa" />
		<tag k="place" v="isolated_dwelling" />
		<tag k="ssr:stedsnr" v="370031" />
	</node>
	<node id="9661217297" lat="60.4420055" lon="9.6439167" version="1" timestamp="2022-04-12T16:19:47Z" changeset="119629110" uid="3497659" user="NKA">
		<tag k="name" v="Gamlevollen" />
		<tag k="place" v="isolated_dwelling" />
		<tag k="ssr:stedsnr" v="551901" />
	</node>
	<node id="9661217298" lat="60.4472139" lon="9.297675" version="1" timestamp="2022-04-12T16:19:47Z" changeset="119629110" uid="3497659" user="NKA">
		<tag k="name" v="Gamletunet" />
		<tag k="place" v="locality" />
		<tag k="ssr:stedsnr" v="646835" />
	</node>
	<node id="9661217299" lat="60.380925" lon="9.4686695" version="1" timestamp="2022-04-12T16:19:47Z" changeset="119629110" uid="3497659" user="NKA">
		<tag k="historic" v="shieling" />
		<tag k="name" v="Sølesetre" />
		<tag k="place" v="isolated_dwelling" />
		<tag k="ssr:stedsnr" v="552250" />
	</node>
	<node id="9661217300" lat="60.4398077" lon="9.4347769" version="1" timestamp="2022-04-12T16:19:47Z" changeset="119629110" uid="3497659" user="NKA">
		<tag k="name" v="Nedre Trøstheim" />
		<tag k="place" v="farm" />
		<tag k="ssr:stedsnr" v="118994" />
	</node>
	<node id="9661217301" lat="60.4096714" lon="9.5070221" version="1" timestamp="2022-04-12T16:19:47Z" changeset="119629110" uid="3497659" user="NKA">
		<tag k="name" v="Engebo" />
		<tag k="place" v="farm" />
		<tag k="ssr:stedsnr" v="785179" />
	</node>
	<node id="9661217302" lat="60.495338" lon="9.4674422" version="1" timestamp="2022-04-12T16:19:47Z" changeset="119629110" uid="3497659" user="NKA">
		<tag k="name" v="Knutsbu" />
		<tag k="old_name" v="Pålsbu" />
		<tag k="place" v="farm" />
		<tag k="ssr:stedsnr" v="1078332" />
	</node>
	<node id="9661217303" lat="60.4194347" lon="9.2494073" version="1" timestamp="2022-04-12T16:19:47Z" changeset="119629110" uid="3497659" user="NKA">
		<tag k="alt_name" v="Gammalsæter" />
		<tag k="historic" v="shieling" />
		<tag k="name" v="Gamalseter" />
		<tag k="place" v="isolated_dwelling" />
		<tag k="ssr:stedsnr" v="492125" />
	</node>
	<node id="9661217304" lat="60.3524" lon="9.4476001" version="1" timestamp="2022-04-12T16:19:47Z" changeset="119629110" uid="3497659" user="NKA">
		<tag k="historic" v="shieling" />
		<tag k="name" v="Vollsetran" />
		<tag k="place" v="isolated_dwelling" />
		<tag k="ssr:stedsnr" v="6004" />
	</node>
	<node id="9661217305" lat="60.3889093" lon="9.2469646" version="1" timestamp="2022-04-12T16:19:47Z" changeset="119629110" uid="3497659" user="NKA">
		<tag k="alt_name" v="Vieranseter" />
		<tag k="historic" v="shieling" />
		<tag k="name" v="Vieran" />
		<tag k="place" v="isolated_dwelling" />
		<tag k="ssr:stedsnr" v="856255" />
	</node>
	<node id="9661217306" lat="60.4250917" lon="9.271975" version="1" timestamp="2022-04-12T16:19:47Z" changeset="119629110" uid="3497659" user="NKA">
		<tag k="alt_name" v="Jeppeseter;Jeppesr" />
		<tag k="historic" v="shieling" />
		<tag k="name" v="Jeppe" />
		<tag k="place" v="isolated_dwelling" />
		<tag k="ssr:stedsnr" v="310150" />
	</node>
	<node id="9661217307" lat="60.4206366" lon="9.3811148" version="1" timestamp="2022-04-12T16:19:47Z" changeset="119629110" uid="3497659" user="NKA">
		<tag k="name" v="Elverud" />
		<tag k="place" v="farm" />
		<tag k="ssr:stedsnr" v="481021" />
	</node>
	<node id="9661217308" lat="60.4144167" lon="9.434236" version="1" timestamp="2022-04-12T16:19:47Z" changeset="119629110" uid="3497659" user="NKA">
		<tag k="alt_name" v="Bjønndalshytta" />
		<tag k="name" v="Bjørnedalshytta" />
		<tag k="place" v="isolated_dwelling" />
		<tag k="ssr:stedsnr" v="612225" />
	</node>
	<node id="9661217309" lat="60.4386055" lon="9.3230167" version="1" timestamp="2022-04-12T16:19:47Z" changeset="119629110" uid="3497659" user="NKA">
		<tag k="name" v="Kråkenes" />
		<tag k="place" v="locality" />
		<tag k="ssr:stedsnr" v="282824" />
	</node>
	<node id="9661217310" lat="60.4381195" lon="9.4178917" version="1" timestamp="2022-04-12T16:19:47Z" changeset="119629110" uid="3497659" user="NKA">
		<tag k="name" v="Tangen" />
		<tag k="place" v="farm" />
		<tag k="ssr:stedsnr" v="249174" />
	</node>
	<node id="9661217311" lat="60.3893362" lon="9.7905251" version="1" timestamp="2022-04-12T16:19:47Z" changeset="119629110" uid="3497659" user="NKA">
		<tag k="alt_name" v="Myrhus" />
		<tag k="name" v="Myrehus" />
		<tag k="place" v="isolated_dwelling" />
		<tag k="ssr:stedsnr" v="613962" />
	</node>
	<node id="9661217312" lat="60.3962584" lon="9.7831583" version="1" timestamp="2022-04-12T16:19:47Z" changeset="119629110" uid="3497659" user="NKA">
		<tag k="historic" v="shieling" />
		<tag k="name" v="Frisvassetre" />
		<tag k="place" v="isolated_dwelling" />
		<tag k="ssr:stedsnr" v="127948" />
	</node>
	<node id="9661217313" lat="60.4254522" lon="9.3470792" version="1" timestamp="2022-04-12T16:19:47Z" changeset="119629110" uid="3497659" user="NKA">
		<tag k="alt_name" v="Tollefsrud" />
		<tag k="name" v="Tollevsrud" />
		<tag k="place" v="hamlet" />
		<tag k="ssr:stedsnr" v="431197" />
	</node>
	<node id="9661217314" lat="60.4495193" lon="9.3131466" version="1" timestamp="2022-04-12T16:19:47Z" changeset="119629110" uid="3497659" user="NKA">
		<tag k="name" v="Nordre Kolsrud" />
		<tag k="place" v="farm" />
		<tag k="ssr:stedsnr" v="734155" />
	</node>
	<node id="9661217315" lat="60.4444806" lon="9.2954694" version="1" timestamp="2022-04-12T16:19:47Z" changeset="119629110" uid="3497659" user="NKA">
		<tag k="alt_name" v="Nordre Gislerud" />
		<tag k="name" v="Øvre Gislerud" />
		<tag k="place" v="farm" />
		<tag k="ssr:stedsnr" v="6155" />
	</node>
	<node id="9661217316" lat="60.4705889" lon="9.3035445" version="1" timestamp="2022-04-12T16:19:47Z" changeset="119629110" uid="3497659" user="NKA">
		<tag k="name" v="Vesleseter" />
		<tag k="place" v="locality" />
		<tag k="ssr:stedsnr" v="466624" />
	</node>
	<node id="9661217317" lat="60.3589718" lon="9.6087796" version="1" timestamp="2022-04-12T16:19:47Z" changeset="119629110" uid="3497659" user="NKA">
		<tag k="alt_name" v="Buøen" />
		<tag k="loc_name" v="Buøyni" />
		<tag k="name" v="Buøyna" />
		<tag k="place" v="farm" />
		<tag k="ssr:stedsnr" v="552772" />
	</node>
	<node id="9661217318" lat="60.3883079" lon="9.5712221" version="1" timestamp="2022-04-12T16:19:47Z" changeset="119629110" uid="3497659" user="NKA">
		<tag k="name" v="Nedre Gulsvik" />
		<tag k="place" v="farm" />
		<tag k="ssr:stedsnr" v="907437" />
	</node>
	<node id="9661217319" lat="60.426226" lon="9.460694" version="1" timestamp="2022-04-12T16:19:47Z" changeset="119629110" uid="3497659" user="NKA">
		<tag k="name" v="Evjo" />
		<tag k="place" v="farm" />
		<tag k="ssr:stedsnr" v="734192" />
	</node>
	<node id="9661217320" lat="60.3316611" lon="9.5812778" version="1" timestamp="2022-04-12T16:19:47Z" changeset="119629110" uid="3497659" user="NKA">
		<tag k="name" v="Svarttjernhytta" />
		<tag k="place" v="isolated_dwelling" />
		<tag k="ssr:stedsnr" v="666048" />
	</node>
	<node id="9661217321" lat="60.4204389" lon="9.8023417" version="1" timestamp="2022-04-12T16:19:47Z" changeset="119629110" uid="3497659" user="NKA">
		<tag k="name" v="Størrmyrhytta" />
		<tag k="place" v="isolated_dwelling" />
		<tag k="ssr:stedsnr" v="663246" />
	</node>
	<node id="9661217322" lat="60.3758778" lon="9.6243556" version="1" timestamp="2022-04-12T16:19:47Z" changeset="119629110" uid="3497659" user="NKA">
		<tag k="name" v="Bråten" />
		<tag k="place" v="farm" />
		<tag k="ssr:stedsnr" v="586425" />
	</node>
	<node id="9661217323" lat="60.4102805" lon="9.7010555" version="1" timestamp="2022-04-12T16:19:47Z" changeset="119629110" uid="3497659" user="NKA">
		<tag k="historic" v="shieling" />
		<tag k="name" v="Øvstevassetran" />
		<tag k="place" v="isolated_dwelling" />
		<tag k="ssr:stedsnr" v="612985" />
	</node>
</osm>
