<?xml version="1.0" encoding="UTF-8"?>
<osm generator="osmapis" version="0.6">
	<node id="-474333" lat="60.2419861121" lon="5.06992778448">
		<tag k="bridge" v="yes" />
		<tag k="layer" v="1" />
		<tag k="name" v="Årvika" />
		<tag k="ssr:stedsnr" v="533193" />
	</node>
	<node id="-474844" lat="60.2232632963" lon="5.15774824818">
		<tag k="amenity" v="ferry_terminal" />
		<tag k="name" v="Klokkarvik ferjekai" />
		<tag k="ssr:stedsnr" v="978604" />
	</node>
	<node id="-474843" lat="60.2415915853" lon="5.22142400646">
		<tag k="amenity" v="ferry_terminal" />
		<tag k="name" v="Bjelkarøyna ferjekai" />
		<tag k="ssr:stedsnr" v="978602" />
	</node>
	<node id="-474842" lat="60.2326536173" lon="5.16973752437">
		<tag k="amenity" v="ferry_terminal" />
		<tag k="name" v="Lerøyna ferjekai" />
		<tag k="ssr:stedsnr" v="978601" />
	</node>
	<node id="-474127" lat="60.2240083325" lon="5.06983610266">
		<tag k="bridge" v="yes" />
		<tag k="layer" v="1" />
		<tag k="name" v="Vorland" />
		<tag k="ssr:stedsnr" v="229196" />
	</node>
	<node id="-474840" lat="60.1716250022" lon="5.05584443862">
		<tag k="bridge" v="yes" />
		<tag k="layer" v="1" />
		<tag k="name" v="Spannsteigen" />
		<tag k="ssr:stedsnr" v="957181" />
	</node>
	<node id="-473877" lat="60.1782222253" lon="5.0940250072">
		<tag k="amenity" v="ferry_terminal" />
		<tag k="name" v="Austefjorden ferjekai" />
		<tag k="ssr:stedsnr" v="47199" />
	</node>
	<node id="-474415" lat="60.2069527799" lon="5.07331665821">
		<tag k="bridge" v="yes" />
		<tag k="layer" v="1" />
		<tag k="loc_name" v="Toftøybrua" />
		<tag k="name" v="Tofterøy" />
		<tag k="ssr:stedsnr" v="593187" />
	</node>
	<node id="-474414" lat="60.2614194487" lon="4.98200555728">
		<tag k="bridge" v="yes" />
		<tag k="layer" v="1" />
		<tag k="name" v="Midttveit" />
		<tag k="ssr:stedsnr" v="593184" />
	</node>
	<node id="-474093" lat="60.2459694432" lon="5.07335000337">
		<tag k="highway" v="path" />
		<tag k="name" v="Fjellvegen" />
		<tag k="ssr:stedsnr" v="227181" />
	</node>
	<node id="-473579" lat="60.2657833341" lon="5.07794721985">
		<tag k="bridge" v="yes" />
		<tag k="layer" v="1" />
		<tag k="name" v="Skogsvatnet" />
		<tag k="ssr:stedsnr" v="290197" />
	</node>
	<node id="-473802" lat="60.1690755628" lon="5.00509971488">
		<tag k="name" v="Fugløyhamn" />
		<tag k="place" v="locality" />
		<tag k="ssr:stedsnr" v="991219" />
	</node>
	<node id="-474241" lat="60.262058337" lon="4.99062499184">
		<tag k="bridge" v="yes" />
		<tag k="layer" v="1" />
		<tag k="name" v="Tælasundet" />
		<tag k="ssr:stedsnr" v="472185" />
	</node>
	<node id="-474413" lat="60.2192555556" lon="5.15530833214">
		<tag k="bridge" v="yes" />
		<tag k="layer" v="1" />
		<tag k="name" v="Limavågen" />
		<tag k="ssr:stedsnr" v="593182" />
	</node>
</osm>
