<?xml version="1.0" encoding="UTF-8"?>
<osm generator="osmapis" version="0.6">
	<node id="-474618" lat="60.2469538133" lon="5.10383553782">
		<tag k="fixme" v="consider place=hamlet" />
		<tag k="name" v="Dommedal" />
		<tag k="place" v="farm" />
		<tag k="ssr:stedsnr" v="753569" />
	</node>
	<node id="-473589" lat="60.2275694139" lon="5.04373304652">
		<tag k="fixme" v="consider place=hamlet" />
		<tag k="name" v="Kausland" />
		<tag k="place" v="farm" />
		<tag k="ssr:stedsnr" v="307710" />
	</node>
	<node id="-473588" lat="60.2176429215" lon="5.00728839249">
		<tag k="alt_name" v="Golta, nedre" />
		<tag k="fixme" v="consider place=hamlet" />
		<tag k="name" v="Nedre Golta" />
		<tag k="place" v="farm" />
		<tag k="ssr:stedsnr" v="307705" />
	</node>
	<node id="-474098" lat="60.2461416653" lon="5.13498888435">
		<tag k="name" v="Stordal" />
		<tag k="place" v="farm" />
		<tag k="ssr:stedsnr" v="227206" />
	</node>
	<node id="-474608" lat="60.2330583296" lon="5.18361666922">
		<tag k="name" v="Lerøyna" />
		<tag k="place" v="farm" />
		<tag k="ssr:stedsnr" v="749887" />
	</node>
	<node id="-474607" lat="60.2349666664" lon="5.17369166005">
		<tag k="name" v="Lerøyna" />
		<tag k="place" v="farm" />
		<tag k="ssr:stedsnr" v="749886" />
	</node>
	<node id="-474606" lat="60.1729861115" lon="5.01258889498">
		<tag k="name" v="Vardøyna" />
		<tag k="place" v="farm" />
		<tag k="ssr:stedsnr" v="749860" />
	</node>
	<node id="-474605" lat="60.1732752931" lon="5.01363905927">
		<tag k="fixme" v="consider place=hamlet" />
		<tag k="name" v="Vardøyna" />
		<tag k="place" v="farm" />
		<tag k="ssr:stedsnr" v="749856" />
	</node>
	<node id="-474604" lat="60.2609388897" lon="5.11148334166">
		<tag k="name" v="Store-Sangolt" />
		<tag k="place" v="farm" />
		<tag k="ssr:stedsnr" v="748905" />
	</node>
	<node id="-474603" lat="60.2270555516" lon="5.06723332764">
		<tag k="name" v="Vorland" />
		<tag k="place" v="farm" />
		<tag k="ssr:stedsnr" v="748900" />
	</node>
	<node id="-474602" lat="60.2343249959" lon="5.1755861123">
		<tag k="name" v="Lerøyna" />
		<tag k="place" v="farm" />
		<tag k="ssr:stedsnr" v="748883" />
	</node>
	<node id="-474601" lat="60.2992277803" lon="5.1632472226">
		<tag k="name" v="Tyssøyna" />
		<tag k="place" v="farm" />
		<tag k="ssr:stedsnr" v="748825" />
	</node>
	<node id="-474595" lat="60.1886918917" lon="5.13452446948">
		<tag k="fixme" v="consider place=hamlet" />
		<tag k="name" v="Kleppe" />
		<tag k="place" v="farm" />
		<tag k="ssr:stedsnr" v="733757" />
	</node>
	<node id="-473594" lat="60.2096050559" lon="5.0407704341">
		<tag k="fixme" v="consider place=hamlet" />
		<tag k="name" v="Glesnes" />
		<tag k="place" v="farm" />
		<tag k="ssr:stedsnr" v="308660" />
	</node>
	<node id="-474073" lat="60.2549611114" lon="5.10166666262">
		<tag k="name" v="Litle-Sangolt" />
		<tag k="place" v="farm" />
		<tag k="ssr:stedsnr" v="203884" />
	</node>
	<node id="-474072" lat="60.2429222195" lon="5.21708333999">
		<tag k="name" v="Bjelkarøyna" />
		<tag k="place" v="farm" />
		<tag k="ssr:stedsnr" v="203874" />
	</node>
	<node id="-474071" lat="60.24260833" lon="5.21118610929">
		<tag k="name" v="Bjelkarøyna" />
		<tag k="place" v="farm" />
		<tag k="ssr:stedsnr" v="203875" />
	</node>
	<node id="-474070" lat="60.2979638855" lon="5.15798056346">
		<tag k="name" v="Tyssøyna" />
		<tag k="place" v="farm" />
		<tag k="ssr:stedsnr" v="203830" />
	</node>
	<node id="-474069" lat="60.1836492213" lon="5.0449291374">
		<tag k="fixme" v="consider place=hamlet" />
		<tag k="name" v="Trellevika" />
		<tag k="place" v="farm" />
		<tag k="ssr:stedsnr" v="203823" />
	</node>
	<node id="-474063" lat="60.1712592508" lon="5.05447841739">
		<tag k="fixme" v="consider place=hamlet" />
		<tag k="name" v="Hummelsund" />
		<tag k="place" v="farm" />
		<tag k="ssr:stedsnr" v="187693" />
	</node>
	<node id="-473847" lat="60.2410333366" lon="5.06294444292">
		<tag k="name" v="Eidesund" />
		<tag k="place" v="farm" />
		<tag k="ssr:stedsnr" v="44195" />
	</node>
	<node id="-474055" lat="60.2272909661" lon="5.06824360976">
		<tag k="fixme" v="consider place=hamlet" />
		<tag k="name" v="Vorland" />
		<tag k="place" v="farm" />
		<tag k="ssr:stedsnr" v="186733" />
	</node>
	<node id="-474052" lat="60.2391416704" lon="5.14489999284">
		<tag k="name" v="Laksen" />
		<tag k="place" v="farm" />
		<tag k="ssr:stedsnr" v="186707" />
	</node>
	<node id="-474186" lat="60.2636138915" lon="4.98831667452">
		<tag k="name" v="Telle" />
		<tag k="place" v="farm" />
		<tag k="ssr:stedsnr" v="446264" />
	</node>
	<node id="-474520" lat="60.2343000041" lon="5.17450555396">
		<tag k="name" v="Lerøyna" />
		<tag k="place" v="farm" />
		<tag k="ssr:stedsnr" v="688877" />
	</node>
	<node id="-474268" lat="60.1717055524" lon="5.05478610324">
		<tag k="name" v="Hummelsund" />
		<tag k="place" v="farm" />
		<tag k="ssr:stedsnr" v="506919" />
	</node>
	<node id="-473926" lat="60.180908337" lon="5.09158889328">
		<tag k="name" v="Austefjorden" />
		<tag k="old_name" v="Austafjord" />
		<tag k="place" v="locality" />
		<tag k="ssr:stedsnr" v="85517" />
	</node>
	<node id="-474525" lat="60.2605694472" lon="4.99078333051">
		<tag k="name" v="Søre Nipa" />
		<tag k="place" v="farm" />
		<tag k="ssr:stedsnr" v="693300" />
	</node>
	<node id="-474778" lat="60.2582849815" lon="4.99006837963">
		<tag k="fixme" v="consider place=hamlet" />
		<tag k="name" v="Nipa" />
		<tag k="place" v="farm" />
		<tag k="ssr:stedsnr" v="916518" />
	</node>
	<node id="-474522" lat="60.1975666666" lon="5.14999443736">
		<tag k="name" v="Høyland" />
		<tag k="place" v="farm" />
		<tag k="ssr:stedsnr" v="688939" />
	</node>
	<node id="-474521" lat="60.2577333305" lon="5.10496389386">
		<tag k="name" v="Store-Sangolt" />
		<tag k="place" v="farm" />
		<tag k="ssr:stedsnr" v="688889" />
	</node>
	<node id="-474008" lat="60.2296888906" lon="5.1735638833">
		<tag k="alt_name" v="Seilbakken" />
		<tag k="building" v="industrial" />
		<tag k="name" v="Seglbakken" />
		<tag k="ssr:stedsnr" v="146317" />
	</node>
	<node id="-474519" lat="60.2410833295" lon="5.21582777799">
		<tag k="name" v="Bjelkarøyna" />
		<tag k="place" v="farm" />
		<tag k="ssr:stedsnr" v="688871" />
	</node>
	<node id="-474518" lat="60.2416611078" lon="5.21471389544">
		<tag k="name" v="Bjelkarøyna" />
		<tag k="place" v="farm" />
		<tag k="ssr:stedsnr" v="688867" />
	</node>
	<node id="-474517" lat="60.2353166696" lon="5.17223889609">
		<tag k="name" v="Lerøyna" />
		<tag k="place" v="farm" />
		<tag k="ssr:stedsnr" v="688862" />
	</node>
	<node id="-474516" lat="60.2633583299" lon="4.9842972227">
		<tag k="name" v="Telle" />
		<tag k="place" v="farm" />
		<tag k="ssr:stedsnr" v="688245" />
	</node>
	<node id="-474513" lat="60.2572527815" lon="5.06958888105">
		<tag k="fixme" v="consider place=suburb, village or hamlet" />
		<tag k="name" v="Hammarsland" />
		<tag k="place" v="quarter" />
		<tag k="ssr:stedsnr" v="673496" />
	</node>
	<node id="-474000" lat="60.2625722244" lon="4.98806111009">
		<tag k="name" v="Telle" />
		<tag k="place" v="farm" />
		<tag k="ssr:stedsnr" v="143000" />
	</node>
	<node id="-473999" lat="60.2569583299" lon="5.11237499854">
		<tag k="name" v="Store-Sangolt" />
		<tag k="place" v="farm" />
		<tag k="ssr:stedsnr" v="142888" />
	</node>
	<node id="-473998" lat="60.1697666696" lon="5.05972778216">
		<tag k="name" v="Hummelsund" />
		<tag k="place" v="farm" />
		<tag k="ssr:stedsnr" v="141916" />
	</node>
	<node id="-474509" lat="60.1898237918" lon="5.10155494223">
		<tag k="fixme" v="consider place=hamlet" />
		<tag k="name" v="Forland" />
		<tag k="place" v="farm" />
		<tag k="ssr:stedsnr" v="672756" />
	</node>
	<node id="-473665" lat="60.1769788538" lon="5.0226591499">
		<tag k="fixme" v="consider place=hamlet" />
		<tag k="name" v="Opsøyna" />
		<tag k="place" v="farm" />
		<tag k="ssr:stedsnr" v="362613" />
	</node>
	<node id="-474498" lat="60.1955472233" lon="5.05109166689">
		<tag k="alt_name" v="Søndre Træet" />
		<tag k="name" v="Søra Træet" />
		<tag k="place" v="farm" />
		<tag k="ssr:stedsnr" v="665655" />
	</node>
	<node id="-474497" lat="60.2175689556" lon="5.15482650063">
		<tag k="fixme" v="consider place=hamlet" />
		<tag k="name" v="Børnesvågen" />
		<tag k="place" v="farm" />
		<tag k="ssr:stedsnr" v="665651" />
	</node>
	<node id="-473976" lat="60.2086026012" lon="5.08013350407">
		<tag k="fixme" v="consider place=hamlet" />
		<tag k="name" v="Hamre" />
		<tag k="place" v="farm" />
		<tag k="ssr:stedsnr" v="107955" />
	</node>
	<node id="-474478" lat="60.2107861146" lon="5.03727777634">
		<tag k="name" v="Storegarden" />
		<tag k="place" v="farm" />
		<tag k="ssr:stedsnr" v="652026" />
	</node>
	<node id="-473657" lat="60.199280559" lon="5.15783611182">
		<tag k="name" v="Høylandssjøen" />
		<tag k="place" v="farm" />
		<tag k="ssr:stedsnr" v="349963" />
	</node>
	<node id="-474441" lat="60.1968749996" lon="5.1486055554">
		<tag k="name" v="Høyland" />
		<tag k="place" v="farm" />
		<tag k="ssr:stedsnr" v="627950" />
	</node>
	<node id="-474440" lat="60.1722861096" lon="5.05223055249">
		<tag k="name" v="Hummelsund" />
		<tag k="place" v="farm" />
		<tag k="ssr:stedsnr" v="627947" />
	</node>
	<node id="-474439" lat="60.259702779" lon="5.11059722101">
		<tag k="name" v="Store-Sangolt" />
		<tag k="place" v="farm" />
		<tag k="ssr:stedsnr" v="627904" />
	</node>
	<node id="-474438" lat="60.2456861155" lon="5.13566667097">
		<tag k="name" v="Store-Sangolt" />
		<tag k="place" v="farm" />
		<tag k="ssr:stedsnr" v="627902" />
	</node>
	<node id="-474437" lat="60.2464361138" lon="5.1351027719">
		<tag k="name" v="Store-Sangolt" />
		<tag k="place" v="farm" />
		<tag k="ssr:stedsnr" v="627899" />
	</node>
	<node id="-474436" lat="60.2348499977" lon="5.17486945196">
		<tag k="name" v="Lerøyna" />
		<tag k="place" v="farm" />
		<tag k="ssr:stedsnr" v="627884" />
	</node>
	<node id="-474434" lat="60.2956444463" lon="5.15504444105">
		<tag k="name" v="Tyssøyna" />
		<tag k="place" v="farm" />
		<tag k="ssr:stedsnr" v="627830" />
	</node>
	<node id="-474433" lat="60.2598599848" lon="5.11138118766">
		<tag k="fixme" v="consider place=hamlet" />
		<tag k="name" v="Store-Sangolt" />
		<tag k="place" v="farm" />
		<tag k="ssr:stedsnr" v="612912" />
	</node>
	<node id="-474431" lat="60.2564995366" lon="4.97789756294">
		<tag k="fixme" v="consider place=hamlet" />
		<tag k="name" v="Øvretveita" />
		<tag k="place" v="farm" />
		<tag k="ssr:stedsnr" v="612521" />
	</node>
	<node id="-474427" lat="60.1883163587" lon="5.15046612886">
		<tag k="fixme" v="consider place=hamlet" />
		<tag k="name" v="Kleppevik" />
		<tag k="place" v="farm" />
		<tag k="ssr:stedsnr" v="611783" />
	</node>
	<node id="-474426" lat="60.168737552" lon="5.03748311515">
		<tag k="fixme" v="consider place=hamlet" />
		<tag k="name" v="Vikso" />
		<tag k="place" v="farm" />
		<tag k="ssr:stedsnr" v="611762" />
	</node>
	<node id="-473912" lat="60.2525666699" lon="5.10048888084">
		<tag k="name" v="Litle-Sangolt" />
		<tag k="place" v="farm" />
		<tag k="ssr:stedsnr" v="82890" />
	</node>
	<node id="-474423" lat="60.2102866633" lon="5.07380971313">
		<tag k="fixme" v="consider place=hamlet" />
		<tag k="name" v="Bakka" />
		<tag k="place" v="farm" />
		<tag k="ssr:stedsnr" v="611723" />
	</node>
	<node id="-473910" lat="60.2268444463" lon="5.07014445306">
		<tag k="name" v="Vorland" />
		<tag k="place" v="farm" />
		<tag k="ssr:stedsnr" v="81894" />
	</node>
	<node id="-473909" lat="60.2409555524" lon="5.21402777128">
		<tag k="name" v="Bjelkarøyna" />
		<tag k="place" v="farm" />
		<tag k="ssr:stedsnr" v="81881" />
	</node>
	<node id="-473908" lat="60.2350981755" lon="5.17444517674">
		<tag k="fixme" v="consider place=hamlet" />
		<tag k="name" v="Lerøyna" />
		<tag k="place" v="farm" />
		<tag k="ssr:stedsnr" v="81880" />
	</node>
	<node id="-473907" lat="60.2404166712" lon="5.21416667513">
		<tag k="name" v="Bjelkarøyna" />
		<tag k="place" v="farm" />
		<tag k="ssr:stedsnr" v="81876" />
	</node>
	<node id="-473906" lat="60.2971055514" lon="5.16111665963">
		<tag k="name" v="Tyssøyna" />
		<tag k="place" v="farm" />
		<tag k="ssr:stedsnr" v="81834" />
	</node>
	<node id="-474417" lat="60.1976027772" lon="5.05030277057">
		<tag k="name" v="Nordre Træet" />
		<tag k="place" v="farm" />
		<tag k="ssr:stedsnr" v="604627" />
	</node>
	<node id="-474416" lat="60.218974591" lon="5.15537905318">
		<tag k="fixme" v="consider place=hamlet" />
		<tag k="name" v="Limavågen" />
		<tag k="place" v="farm" />
		<tag k="ssr:stedsnr" v="604624" />
	</node>
	<node id="-473897" lat="60.1956888893" lon="5.10289721668">
		<tag k="amenity" v="school" />
		<tag k="name" v="Stranda" />
		<tag k="ssr:stedsnr" v="65789" />
	</node>
	<node id="-473563" lat="60.260263893" lon="4.99054999288">
		<tag k="name" v="Nipa" />
		<tag k="place" v="farm" />
		<tag k="ssr:stedsnr" v="288805" />
	</node>
	<node id="-473884" lat="60.2419472236" lon="5.2198388966">
		<tag k="name" v="Vika" />
		<tag k="place" v="isolated_dwelling" />
		<tag k="ssr:stedsnr" v="65667" />
	</node>
	<node id="-473883" lat="60.2387500024" lon="5.06309722398">
		<tag k="name" v="Eidesund" />
		<tag k="place" v="farm" />
		<tag k="ssr:stedsnr" v="65548" />
	</node>
	<node id="-473880" lat="60.2490450268" lon="5.04453756036">
		<tag k="fixme" v="consider place=hamlet" />
		<tag k="name" v="Spilda" />
		<tag k="place" v="farm" />
		<tag k="ssr:stedsnr" v="65541" />
	</node>
	<node id="-473879" lat="60.2457222209" lon="5.03241667048">
		<tag k="alt_name" v="Osphaugen" />
		<tag k="name" v="Ospehaugen" />
		<tag k="place" v="farm" />
		<tag k="ssr:stedsnr" v="65540" />
	</node>
	<node id="-473878" lat="60.243415556" lon="5.0460413857">
		<tag k="alt_name" v="Kårevik" />
		<tag k="fixme" v="consider place=hamlet" />
		<tag k="name" v="Kåravika" />
		<tag k="place" v="farm" />
		<tag k="ssr:stedsnr" v="65537" />
	</node>
	<node id="-474755" lat="60.2623722248" lon="4.99302222829">
		<tag k="name" v="Nordre Nipa" />
		<tag k="place" v="farm" />
		<tag k="ssr:stedsnr" v="875261" />
	</node>
	<node id="-474368" lat="60.2336444449" lon="5.17262499332">
		<tag k="name" v="Lerøyna" />
		<tag k="place" v="farm" />
		<tag k="ssr:stedsnr" v="571347" />
	</node>
	<node id="-474163" lat="60.2140717338" lon="5.15446797665">
		<tag k="name" v="Børnes" />
		<tag k="place" v="hamlet" />
		<tag k="ssr:stedsnr" v="268328" />
	</node>
	<node id="-474361" lat="60.2616055586" lon="4.98505832986">
		<tag k="name" v="Telle" />
		<tag k="place" v="farm" />
		<tag k="ssr:stedsnr" v="566962" />
	</node>
	<node id="-474360" lat="60.2640749972" lon="4.98987499806">
		<tag k="name" v="Telle" />
		<tag k="place" v="farm" />
		<tag k="ssr:stedsnr" v="566960" />
	</node>
	<node id="-474359" lat="60.1957666708" lon="5.15211665879">
		<tag k="name" v="Høyland" />
		<tag k="place" v="farm" />
		<tag k="ssr:stedsnr" v="566933" />
	</node>
	<node id="-474358" lat="60.1859972205" lon="5.05159444209">
		<tag k="name" v="Trellevika" />
		<tag k="place" v="farm" />
		<tag k="ssr:stedsnr" v="566831" />
	</node>
	<node id="-474357" lat="60.2654249956" lon="4.98229443683">
		<tag k="name" v="Telle" />
		<tag k="place" v="farm" />
		<tag k="ssr:stedsnr" v="566231" />
	</node>
	<node id="-473841" lat="60.1971341688" lon="5.0589008082">
		<tag k="fixme" v="consider place=hamlet" />
		<tag k="loc_name" v="Toft nedre" />
		<tag k="name" v="Søre Tofta" />
		<tag k="place" v="farm" />
		<tag k="ssr:stedsnr" v="39030" />
	</node>
	<node id="-473833" lat="60.2613694451" lon="4.98607777289">
		<tag k="name" v="Telle" />
		<tag k="place" v="farm" />
		<tag k="ssr:stedsnr" v="21998" />
	</node>
	<node id="-473832" lat="60.2599083344" lon="5.11297499751">
		<tag k="name" v="Store-Sangolt" />
		<tag k="place" v="farm" />
		<tag k="ssr:stedsnr" v="21873" />
	</node>
	<node id="-473831" lat="60.2349611132" lon="5.17275277571">
		<tag k="name" v="Lerøyna" />
		<tag k="place" v="farm" />
		<tag k="ssr:stedsnr" v="21858" />
	</node>
	<node id="-473830" lat="60.1959916636" lon="5.1505249962">
		<tag k="name" v="Høyland" />
		<tag k="place" v="farm" />
		<tag k="ssr:stedsnr" v="20936" />
	</node>
	<node id="-473829" lat="60.2467444463" lon="5.13424722732">
		<tag k="name" v="Store-Sangolt" />
		<tag k="place" v="farm" />
		<tag k="ssr:stedsnr" v="20896" />
	</node>
	<node id="-473828" lat="60.2277277757" lon="5.07217500207">
		<tag k="name" v="Vorland" />
		<tag k="place" v="farm" />
		<tag k="ssr:stedsnr" v="20893" />
	</node>
	<node id="-473826" lat="60.2615172855" lon="4.97126737042">
		<tag k="fixme" v="consider place=hamlet" />
		<tag k="name" v="Midttveita" />
		<tag k="place" v="farm" />
		<tag k="ssr:stedsnr" v="6540" />
	</node>
	<node id="-473820" lat="60.298737561" lon="5.15885958399">
		<tag k="fixme" v="consider place=hamlet" />
		<tag k="name" v="Tyssøyna" />
		<tag k="place" v="farm" />
		<tag k="ssr:stedsnr" v="5828" />
	</node>
	<node id="-474323" lat="60.2345861071" lon="5.17720556025">
		<tag k="name" v="Lerøyna" />
		<tag k="place" v="village" />
		<tag k="ssr:stedsnr" v="531904" />
	</node>
	<node id="-473810" lat="60.2043972223" lon="5.04036388792">
		<tag k="fixme" v="consider place=suburb, village or hamlet" />
		<tag k="name" v="Glesvær" />
		<tag k="place" v="quarter" />
		<tag k="ssr:stedsnr" v="4729" />
	</node>
	<node id="-473806" lat="60.246797224" lon="5.13428611808">
		<tag k="name" v="Stordalen" />
		<tag k="place" v="isolated_dwelling" />
		<tag k="ssr:stedsnr" v="4683" />
	</node>
	<node id="-473794" lat="60.2036907573" lon="5.03702577116">
		<tag k="fixme" v="consider place=hamlet" />
		<tag k="name" v="Glesnesholmen" />
		<tag k="place" v="farm" />
		<tag k="ssr:stedsnr" v="989803" />
	</node>
	<node id="-473793" lat="60.2246885267" lon="5.14620707158">
		<tag k="fixme" v="consider place=hamlet" />
		<tag k="name" v="Sund prestegard" />
		<tag k="place" v="farm" />
		<tag k="ssr:stedsnr" v="989802" />
	</node>
	<node id="-473792" lat="60.2418623392" lon="5.20028138494">
		<tag k="fixme" v="consider place=hamlet" />
		<tag k="name" v="Bukken" />
		<tag k="place" v="farm" />
		<tag k="ssr:stedsnr" v="989801" />
	</node>
	<node id="-474297" lat="60.2092000016" lon="5.04928888592">
		<tag k="name" v="Vollen" />
		<tag k="place" v="farm" />
		<tag k="ssr:stedsnr" v="530556" />
	</node>
	<node id="-474167" lat="60.2202466492" lon="5.15763253587">
		<tag k="fixme" v="consider place=hamlet" />
		<tag k="name" v="Nygård" />
		<tag k="place" v="farm" />
		<tag k="ssr:stedsnr" v="423641" />
	</node>
	<node id="-474289" lat="60.2557074192" lon="5.07135432966">
		<tag k="fixme" v="consider place=hamlet" />
		<tag k="name" v="Hammarsland" />
		<tag k="place" v="farm" />
		<tag k="ssr:stedsnr" v="530237" />
	</node>
	<node id="-474796" lat="60.1838361088" lon="5.0463444521">
		<tag k="alt_name" v="Trælevika" />
		<tag k="fixme" v="consider place=hamlet" />
		<tag k="name" v="Trellevika" />
		<tag k="place" v="village" />
		<tag k="ssr:stedsnr" v="949692" />
	</node>
	<node id="-474784" lat="60.2556000032" lon="5.10182778331">
		<tag k="name" v="Litle-Sangolt" />
		<tag k="place" v="farm" />
		<tag k="ssr:stedsnr" v="931980" />
	</node>
	<node id="-474783" lat="60.2578361115" lon="5.09954166528">
		<tag k="name" v="Litle-Sangolt" />
		<tag k="place" v="farm" />
		<tag k="ssr:stedsnr" v="931896" />
	</node>
	<node id="-474782" lat="60.2360861128" lon="5.17324721973">
		<tag k="name" v="Lerøyna" />
		<tag k="place" v="farm" />
		<tag k="ssr:stedsnr" v="931879" />
	</node>
	<node id="-474781" lat="60.1840694431" lon="5.04244445334">
		<tag k="name" v="Trellevika" />
		<tag k="place" v="farm" />
		<tag k="ssr:stedsnr" v="931838" />
	</node>
	<node id="-474780" lat="60.2639861154" lon="4.98413055377">
		<tag k="name" v="Telle" />
		<tag k="place" v="farm" />
		<tag k="ssr:stedsnr" v="931239" />
	</node>
	<node id="-474267" lat="60.2413472223" lon="5.21898056058">
		<tag k="name" v="Bjelkarøyna" />
		<tag k="place" v="farm" />
		<tag k="ssr:stedsnr" v="506864" />
	</node>
	<node id="-474266" lat="60.1709583356" lon="5.01135554834">
		<tag k="name" v="Vardøyna" />
		<tag k="place" v="farm" />
		<tag k="ssr:stedsnr" v="506831" />
	</node>
	<node id="-474265" lat="60.2960750035" lon="5.15734723064">
		<tag k="name" v="Tyssøyna" />
		<tag k="place" v="farm" />
		<tag k="ssr:stedsnr" v="506804" />
	</node>
	<node id="-473750" lat="60.1995222229" lon="5.06137777457">
		<tag k="fixme" v="consider place=hamlet" />
		<tag k="name" v="Nordre Tofta" />
		<tag k="old_name" v="Nordre Toft" />
		<tag k="place" v="farm" />
		<tag k="ssr:stedsnr" v="894556" />
	</node>
	<node id="-474773" lat="60.2233472215" lon="5.13168610457">
		<tag k="name" v="Førdesdalen" />
		<tag k="place" v="farm" />
		<tag k="ssr:stedsnr" v="915809" />
	</node>
	<node id="-474258" lat="60.214322634" lon="5.15260455628">
		<tag k="fixme" v="consider place=hamlet" />
		<tag k="name" v="Nedre Børnes" />
		<tag k="place" v="farm" />
		<tag k="ssr:stedsnr" v="490874" />
	</node>
	<node id="-474254" lat="60.224744442" lon="5.1509305603">
		<tag k="name" v="Klokkarvik" />
		<tag k="place" v="village" />
		<tag k="ssr:stedsnr" v="490808" />
	</node>
	<node id="-474247" lat="60.214006748" lon="5.00927640384">
		<tag k="alt_name" v="Golta, øvre" />
		<tag k="fixme" v="consider place=hamlet" />
		<tag k="name" v="Øvre Golta" />
		<tag k="place" v="farm" />
		<tag k="ssr:stedsnr" v="489728" />
	</node>
	<node id="-474243" lat="60.2457842964" lon="5.06507963316">
		<tag k="fixme" v="consider place=hamlet" />
		<tag k="name" v="Eide" />
		<tag k="place" v="farm" />
		<tag k="ssr:stedsnr" v="489576" />
	</node>
	<node id="-474753" lat="60.1987196182" lon="5.05823107587">
		<tag k="name" v="Tofta" />
		<tag k="place" v="hamlet" />
		<tag k="ssr:stedsnr" v="874933" />
	</node>
	<node id="-474752" lat="60.2115611074" lon="5.14362777402">
		<tag k="alt_name" v="Mjelkevik" />
		<tag k="name" v="Mjølkevik" />
		<tag k="place" v="farm" />
		<tag k="ssr:stedsnr" v="875339" />
	</node>
	<node id="-474746" lat="60.2595916633" lon="5.11273333953">
		<tag k="name" v="Store-Sangolt" />
		<tag k="place" v="farm" />
		<tag k="ssr:stedsnr" v="870872" />
	</node>
	<node id="-474745" lat="60.1721416669" lon="5.00780555593">
		<tag k="name" v="Vardøyna" />
		<tag k="place" v="farm" />
		<tag k="ssr:stedsnr" v="870841" />
	</node>
	<node id="-474744" lat="60.1722805589" lon="5.01071944122">
		<tag k="name" v="Vardøyna" />
		<tag k="place" v="farm" />
		<tag k="ssr:stedsnr" v="870835" />
	</node>
	<node id="-474740" lat="60.2571969017" lon="5.10158644564">
		<tag k="fixme" v="consider place=hamlet" />
		<tag k="name" v="Litle-Sangolt" />
		<tag k="place" v="farm" />
		<tag k="ssr:stedsnr" v="855905" />
	</node>
	<node id="-474739" lat="60.2644095935" lon="4.9848212788">
		<tag k="fixme" v="consider place=hamlet" />
		<tag k="name" v="Telle" />
		<tag k="place" v="farm" />
		<tag k="ssr:stedsnr" v="855475" />
	</node>
	<node id="-474730" lat="60.2094749996" lon="5.05084166382">
		<tag k="alt_name" v="Vollen" />
		<tag k="name" v="Voll" />
		<tag k="place" v="farm" />
		<tag k="ssr:stedsnr" v="854672" />
	</node>
	<node id="-474204" lat="60.197374997" lon="5.04968056101">
		<tag k="fixme" v="consider place=hamlet" />
		<tag k="name" v="Toftatræet" />
		<tag k="place" v="farm" />
		<tag k="ssr:stedsnr" v="469587" />
	</node>
	<node id="-473689" lat="60.2564833337" lon="5.09968888875">
		<tag k="name" v="Litle-Sangolt" />
		<tag k="place" v="farm" />
		<tag k="ssr:stedsnr" v="385881" />
	</node>
	<node id="-473688" lat="60.2352890853" lon="5.17485656223">
		<tag k="name" v="Lerøyna" />
		<tag k="place" v="farm" />
		<tag k="ssr:stedsnr" v="384856" />
	</node>
	<node id="-473680" lat="60.2677513063" lon="5.08831060963">
		<tag k="fixme" v="consider place=hamlet" />
		<tag k="name" v="Skoge" />
		<tag k="place" v="farm" />
		<tag k="ssr:stedsnr" v="369415" />
	</node>
	<node id="-473678" lat="60.1980572165" lon="5.14644064574">
		<tag k="fixme" v="consider place=hamlet" />
		<tag k="name" v="Høyland" />
		<tag k="place" v="farm" />
		<tag k="ssr:stedsnr" v="368881" />
	</node>
	<node id="-473677" lat="60.2074249961" lon="5.15075833276">
		<tag k="name" v="Keila" />
		<tag k="place" v="isolated_dwelling" />
		<tag k="ssr:stedsnr" v="368872" />
	</node>
	<node id="-474188" lat="60.2585885335" lon="5.09865040179">
		<tag k="name" v="Litle-Sangolt" />
		<tag k="place" v="farm" />
		<tag k="ssr:stedsnr" v="446878" />
	</node>
	<node id="-474187" lat="60.2540444436" lon="5.10156667314">
		<tag k="name" v="Litle-Sangolt" />
		<tag k="place" v="farm" />
		<tag k="ssr:stedsnr" v="446876" />
	</node>
	<node id="-474698" lat="60.2301750005" lon="5.06116389238">
		<tag k="name" v="Træet" />
		<tag k="place" v="farm" />
		<tag k="ssr:stedsnr" v="834580" />
	</node>
	<node id="-474185" lat="60.2262722256" lon="5.06330278261">
		<tag k="name" v="Vorland" />
		<tag k="place" v="farm" />
		<tag k="ssr:stedsnr" v="445931" />
	</node>
	<node id="-474184" lat="60.2973888876" lon="5.15806944322">
		<tag k="name" v="Tyssøyna" />
		<tag k="place" v="farm" />
		<tag k="ssr:stedsnr" v="445827" />
	</node>
	<node id="-473911" lat="60.2260027793" lon="5.06701110356">
		<tag k="name" v="Vorland" />
		<tag k="place" v="farm" />
		<tag k="ssr:stedsnr" v="81936" />
	</node>
	<node id="-474177" lat="60.2629250021" lon="4.98643610397">
		<tag k="fixme" v="consider place=hamlet" />
		<tag k="name" v="Telavåg" />
		<tag k="place" v="village" />
		<tag k="ssr:stedsnr" v="430468" />
	</node>
	<node id="-474682" lat="60.2576166647" lon="5.10905000561">
		<tag k="name" v="Store-Sangolt" />
		<tag k="place" v="farm" />
		<tag k="ssr:stedsnr" v="810898" />
	</node>
	<node id="-474681" lat="60.2509944475" lon="5.09903611936">
		<tag k="name" v="Litle-Sangolt" />
		<tag k="place" v="farm" />
		<tag k="ssr:stedsnr" v="810887" />
	</node>
	<node id="-474680" lat="60.2362749991" lon="5.17179722295">
		<tag k="name" v="Lerøyna" />
		<tag k="place" v="farm" />
		<tag k="ssr:stedsnr" v="810867" />
	</node>
	<node id="-474679" lat="60.2286777811" lon="5.06709166997">
		<tag k="name" v="Vorland" />
		<tag k="place" v="farm" />
		<tag k="ssr:stedsnr" v="809932" />
	</node>
	<node id="-474678" lat="60.2977972264" lon="5.15874444176">
		<tag k="name" v="Tyssøyna" />
		<tag k="place" v="farm" />
		<tag k="ssr:stedsnr" v="809827" />
	</node>
	<node id="-474677" lat="60.2962361074" lon="5.15889721635">
		<tag k="name" v="Tyssøyna" />
		<tag k="place" v="farm" />
		<tag k="ssr:stedsnr" v="809825" />
	</node>
	<node id="-474676" lat="60.2997055527" lon="5.15833055493">
		<tag k="name" v="Tyssøyna" />
		<tag k="place" v="farm" />
		<tag k="ssr:stedsnr" v="809822" />
	</node>
	<node id="-474675" lat="60.2619240632" lon="5.10986523203">
		<tag k="fixme" v="consider place=hamlet" />
		<tag k="name" v="Skaga" />
		<tag k="place" v="farm" />
		<tag k="ssr:stedsnr" v="794919" />
	</node>
	<node id="-474668" lat="60.1804751273" lon="5.04335998511">
		<tag k="fixme" v="consider place=hamlet" />
		<tag k="name" v="Tyrnevika" />
		<tag k="place" v="farm" />
		<tag k="ssr:stedsnr" v="793753" />
	</node>
	<node id="-474155" lat="60.2364972179" lon="5.17413888051">
		<tag k="name" v="Lerøyna" />
		<tag k="place" v="farm" />
		<tag k="ssr:stedsnr" v="263865" />
	</node>
	<node id="-474182" lat="60.2551194434" lon="5.10163334137">
		<tag k="fixme" v="consider place=suburb, village or hamlet" />
		<tag k="name" v="Skogsvågen" />
		<tag k="place" v="quarter" />
		<tag k="ssr:stedsnr" v="430906" />
	</node>
	<node id="-474145" lat="60.1756805563" lon="5.10839722363">
		<tag k="name" v="Håkonsund" />
		<tag k="place" v="farm" />
		<tag k="ssr:stedsnr" v="247792" />
	</node>
	<node id="-474139" lat="60.1688865251" lon="5.07732593091">
		<tag k="fixme" v="consider place=hamlet" />
		<tag k="name" v="Sæle" />
		<tag k="place" v="farm" />
		<tag k="ssr:stedsnr" v="247707" />
	</node>
	<node id="-474137" lat="60.202962334" lon="5.08820777314">
		<tag k="fixme" v="consider place=hamlet" />
		<tag k="name" v="Steinsland" />
		<tag k="place" v="farm" />
		<tag k="ssr:stedsnr" v="247693" />
	</node>
	<node id="-474134" lat="60.2127251637" lon="5.07208576584">
		<tag k="fixme" v="consider place=hamlet" />
		<tag k="name" v="Berge" />
		<tag k="place" v="farm" />
		<tag k="ssr:stedsnr" v="247679" />
	</node>
	<node id="-474129" lat="60.2477807409" lon="5.06909630068">
		<tag k="alt_name" v="Tveit" />
		<tag k="fixme" v="consider place=hamlet" />
		<tag k="name" v="Tveita" />
		<tag k="place" v="farm" />
		<tag k="ssr:stedsnr" v="247524" />
	</node>
	<node id="-474123" lat="60.2060083355" lon="5.15682776855">
		<tag k="name" v="Førdestraumen" />
		<tag k="place" v="farm" />
		<tag k="ssr:stedsnr" v="228951" />
	</node>
	<node id="-474122" lat="60.2165722217" lon="5.14639443717">
		<tag k="fixme" v="consider place=hamlet" />
		<tag k="name" v="Øvre Børnes" />
		<tag k="place" v="farm" />
		<tag k="ssr:stedsnr" v="228949" />
	</node>
	<node id="-473608" lat="60.258080554" lon="5.10867500062">
		<tag k="name" v="Store-Sangolt" />
		<tag k="place" v="farm" />
		<tag k="ssr:stedsnr" v="324885" />
	</node>
	<node id="-473607" lat="60.229091663" lon="5.06475278703">
		<tag k="name" v="Vorland" />
		<tag k="place" v="farm" />
		<tag k="ssr:stedsnr" v="324879" />
	</node>
	<node id="-473606" lat="60.25837944" lon="5.09867003549">
		<tag k="name" v="Litle-Sangolt" />
		<tag k="place" v="farm" />
		<tag k="ssr:stedsnr" v="324878" />
	</node>
	<node id="-473605" lat="60.2437397997" lon="5.21577464768">
		<tag k="fixme" v="consider place=hamlet" />
		<tag k="name" v="Bjelkarøyna" />
		<tag k="place" v="farm" />
		<tag k="ssr:stedsnr" v="324868" />
	</node>
	<node id="-473604" lat="60.2503955164" lon="4.99331945982">
		<tag k="fixme" v="consider place=hamlet" />
		<tag k="name" v="Selstøa" />
		<tag k="place" v="farm" />
		<tag k="ssr:stedsnr" v="309517" />
	</node>
	<node id="-473603" lat="60.2153381957" lon="5.13483190315">
		<tag k="fixme" v="consider place=hamlet" />
		<tag k="name" v="Førde" />
		<tag k="place" v="farm" />
		<tag k="ssr:stedsnr" v="308870" />
	</node>
</osm>
