<?xml version="1.0" encoding="UTF-8"?>
<osm generator="osmapis" version="0.6">
	<node id="-473088" lat="60.2375083307" lon="5.05276389321">
		<tag k="name" v="Spildholmen" />
		<tag k="place" v="islet" />
		<tag k="ssr:stedsnr" v="388060" />
	</node>
	<node id="-473087" lat="60.2452277761" lon="5.14089443629">
		<tag k="fixme" v="consider seamark:type=rock or natural=shoal" />
		<tag k="name" v="Grønevikskjeret" />
		<tag k="place" v="islet" />
		<tag k="ssr:stedsnr" v="389164" />
	</node>
	<node id="-473085" lat="60.1842583333" lon="4.97116665824">
		<tag k="name" v="Kuggsflua" />
		<tag k="natural" v="shoal" />
		<tag k="place" v="locality" />
		<tag k="ssr:stedsnr" v="389114" />
	</node>
	<node id="-473082" lat="60.2898444426" lon="4.95370278407">
		<tag k="name" v="Selvågen" />
		<tag k="natural" v="bay" />
		<tag k="ssr:stedsnr" v="370549" />
	</node>
	<node id="-473079" lat="60.295886108" lon="5.14983333006">
		<tag k="name" v="Kjeholmen" />
		<tag k="place" v="islet" />
		<tag k="ssr:stedsnr" v="369843" />
	</node>
	<node id="-473078" lat="60.1562944467" lon="5.00965554768">
		<tag k="name" v="Tekslo" />
		<tag k="place" v="island" />
		<tag k="ssr:stedsnr" v="369717" />
	</node>
	<node id="-473077" lat="60.263497222" lon="4.93675833759">
		<tag k="name" v="Teistholmen" />
		<tag k="place" v="islet" />
		<tag k="ssr:stedsnr" v="369428" />
	</node>
	<node id="-473076" lat="60.253594442" lon="4.9424500064">
		<tag k="name" v="Osafluene" />
		<tag k="natural" v="shoal" />
		<tag k="place" v="locality" />
		<tag k="ssr:stedsnr" v="369414" />
	</node>
	<node id="-473074" lat="60.2505194434" lon="4.9467916587">
		<tag k="name" v="Store Lambholmen" />
		<tag k="place" v="islet" />
		<tag k="ssr:stedsnr" v="369413" />
	</node>
	<node id="-473069" lat="60.1577638858" lon="4.95938888029">
		<tag k="name" v="Jørshamaren" />
		<tag k="natural" v="shoal" />
		<tag k="place" v="locality" />
		<tag k="ssr:stedsnr" v="368758" />
	</node>
	<node id="-473068" lat="60.1720527772" lon="5.09216666682">
		<tag k="name" v="Usholmane" />
		<tag k="place" v="islet" />
		<tag k="ssr:stedsnr" v="368755" />
	</node>
	<node id="-473067" lat="60.198511109" lon="4.98792777688">
		<tag k="name" v="Boarosen" />
		<tag k="natural" v="strait" />
		<tag k="ssr:stedsnr" v="368750" />
	</node>
	<node id="-473066" lat="60.2215444444" lon="4.99325833364">
		<tag k="name" v="Lutavika" />
		<tag k="natural" v="bay" />
		<tag k="ssr:stedsnr" v="368733" />
	</node>
	<node id="-473065" lat="60.2359361071" lon="5.15465833516">
		<tag k="name" v="Lerøyosen" />
		<tag k="natural" v="strait" />
		<tag k="ssr:stedsnr" v="368724" />
	</node>
	<node id="-473064" lat="60.2461555595" lon="5.17636944413">
		<tag k="name" v="Skjerholmen" />
		<tag k="place" v="islet" />
		<tag k="ssr:stedsnr" v="368719" />
	</node>
	<node id="-473063" lat="60.22733889" lon="4.97830833157">
		<tag k="name" v="Lutatangen" />
		<tag k="natural" v="cape" />
		<tag k="ssr:stedsnr" v="368588" />
	</node>
	<node id="-473061" lat="60.2700305577" lon="5.10758055855">
		<tag k="name" v="Skogsvågen" />
		<tag k="natural" v="strait" />
		<tag k="ssr:stedsnr" v="369925" />
	</node>
	<node id="-473059" lat="60.2842159337" lon="5.07269895394">
		<tag k="name" v="Anskotet" />
		<tag k="place" v="locality" />
		<tag k="ssr:stedsnr" v="360048" />
	</node>
	<node id="-473058" lat="60.2083611158" lon="5.07278889708">
		<tag k="name" v="Skipavika" />
		<tag k="natural" v="bay" />
		<tag k="ssr:stedsnr" v="349998" />
	</node>
	<node id="-473057" lat="60.188661114" lon="5.15765000344">
		<tag k="name" v="Vardavika" />
		<tag k="natural" v="bay" />
		<tag k="ssr:stedsnr" v="349993" />
	</node>
	<node id="-473048" lat="60.2334666646" lon="5.16789999732">
		<tag k="fixme" v="consider seamark:type=rock or natural=shoal" />
		<tag k="name" v="Storaskjeret" />
		<tag k="place" v="islet" />
		<tag k="ssr:stedsnr" v="349934" />
	</node>
	<node id="-473047" lat="60.2331250013" lon="5.21678888303">
		<tag k="name" v="Vibærsundet" />
		<tag k="natural" v="strait" />
		<tag k="ssr:stedsnr" v="349924" />
	</node>
	<node id="-473046" lat="60.2682333321" lon="4.95428055617">
		<tag k="name" v="Nordre Søvikholmen" />
		<tag k="place" v="islet" />
		<tag k="ssr:stedsnr" v="349909" />
	</node>
	<node id="-473045" lat="60.2599444449" lon="4.91909999784">
		<tag k="name" v="Malmsundet" />
		<tag k="natural" v="strait" />
		<tag k="ssr:stedsnr" v="349886" />
	</node>
	<node id="-473041" lat="60.291080555" lon="4.99363889009">
		<tag k="name" v="Brotasundet" />
		<tag k="natural" v="strait" />
		<tag k="ssr:stedsnr" v="349798" />
	</node>
	<node id="-473040" lat="60.2995388891" lon="4.94466943763">
		<tag k="name" v="Klemraholmen" />
		<tag k="place" v="islet" />
		<tag k="ssr:stedsnr" v="349789" />
	</node>
	<node id="-473039" lat="60.3045611077" lon="4.95074443935">
		<tag k="fixme" v="consider seamark:type=rock or natural=shoal" />
		<tag k="name" v="Sandskjera" />
		<tag k="place" v="islet" />
		<tag k="ssr:stedsnr" v="349781" />
	</node>
	<node id="-473037" lat="60.1692222215" lon="5.10320833899">
		<tag k="name" v="Brakholmen" />
		<tag k="place" v="islet" />
		<tag k="ssr:stedsnr" v="348998" />
	</node>
	<node id="-473032" lat="60.1627638861" lon="5.0422611156">
		<tag k="name" v="Vågsneset" />
		<tag k="natural" v="cape" />
		<tag k="ssr:stedsnr" v="348597" />
	</node>
	<node id="-473031" lat="60.2042027751" lon="5.04745832906">
		<tag k="name" v="Skjelviksholmen" />
		<tag k="place" v="islet" />
		<tag k="ssr:stedsnr" v="348594" />
	</node>
	<node id="-473030" lat="60.2032222185" lon="5.03355277692">
		<tag k="fixme" v="consider seamark:type=rock or natural=shoal" />
		<tag k="name" v="Englabogskjeret" />
		<tag k="place" v="islet" />
		<tag k="ssr:stedsnr" v="348592" />
	</node>
	<node id="-473029" lat="60.2368583325" lon="4.98502499571">
		<tag k="name" v="Båarvågen" />
		<tag k="natural" v="bay" />
		<tag k="ssr:stedsnr" v="348568" />
	</node>
	<node id="-473028" lat="60.1887527753" lon="5.02914444286">
		<tag k="fixme" v="consider seamark:type=rock or natural=shoal" />
		<tag k="name" v="Skarvaskjeret" />
		<tag k="place" v="islet" />
		<tag k="ssr:stedsnr" v="348562" />
	</node>
	<node id="-473025" lat="60.1786388882" lon="5.00351667066">
		<tag k="name" v="Båthola" />
		<tag k="natural" v="bay" />
		<tag k="ssr:stedsnr" v="348537" />
	</node>
	<node id="-473020" lat="60.3037055597" lon="5.15380833422">
		<tag k="name" v="Søre Trettholmen" />
		<tag k="place" v="islet" />
		<tag k="ssr:stedsnr" v="348237" />
	</node>
	<node id="-473016" lat="60.2396916702" lon="5.1781138864">
		<tag k="name" v="Kverndalsholmen" />
		<tag k="place" v="island" />
		<tag k="ssr:stedsnr" v="348169" />
	</node>
	<node id="-473015" lat="60.242138892" lon="5.22241944243">
		<tag k="name" v="Naustvika" />
		<tag k="natural" v="bay" />
		<tag k="ssr:stedsnr" v="348139" />
	</node>
	<node id="-473014" lat="60.2227277815" lon="5.0205666711">
		<tag k="name" v="Midthølen" />
		<tag k="natural" v="strait" />
		<tag k="ssr:stedsnr" v="348049" />
	</node>
	<node id="-473013" lat="60.1854722194" lon="5.14974167449">
		<tag k="name" v="Kleppasjøen" />
		<tag k="natural" v="bay" />
		<tag k="ssr:stedsnr" v="329340" />
	</node>
	<node id="-473012" lat="60.2543611127" lon="4.98528333228">
		<tag k="name" v="Stekholmen" />
		<tag k="place" v="islet" />
		<tag k="ssr:stedsnr" v="329270" />
	</node>
	<node id="-473011" lat="60.250713886" lon="4.96936110589">
		<tag k="name" v="Rynjelsosen" />
		<tag k="natural" v="strait" />
		<tag k="ssr:stedsnr" v="329267" />
	</node>
	<node id="-473010" lat="60.2428972237" lon="5.06289166451">
		<tag k="name" v="Eidespollen" />
		<tag k="natural" v="bay" />
		<tag k="ssr:stedsnr" v="329261" />
	</node>
	<node id="-473009" lat="60.2201805554" lon="5.18856111225">
		<tag k="fixme" v="consider seamark:type=rock or natural=shoal" />
		<tag k="name" v="Bruarøyskjeret" />
		<tag k="place" v="islet" />
		<tag k="ssr:stedsnr" v="329186" />
	</node>
	<node id="-473008" lat="60.1944138892" lon="4.99475000824">
		<tag k="name" v="Skrottastallen" />
		<tag k="natural" v="shoal" />
		<tag k="place" v="locality" />
		<tag k="ssr:stedsnr" v="329129" />
	</node>
	<node id="-473007" lat="60.1645694434" lon="5.08158888205">
		<tag k="name" v="Træsvikflua" />
		<tag k="natural" v="shoal" />
		<tag k="place" v="locality" />
		<tag k="ssr:stedsnr" v="329125" />
	</node>
	<node id="-473006" lat="60.1879194467" lon="4.95853332631">
		<tag k="name" v="Fangen" />
		<tag k="natural" v="shoal" />
		<tag k="place" v="locality" />
		<tag k="ssr:stedsnr" v="329082" />
	</node>
	<node id="-473005" lat="60.1684004792" lon="5.10094911816">
		<tag k="fixme" v="consider seamark:type=rock or natural=shoal" />
		<tag k="name" v="Ytstaskjeret" />
		<tag k="place" v="islet" />
		<tag k="ssr:stedsnr" v="328113" />
	</node>
	<node id="-472997" lat="60.2345382722" lon="5.17814951911">
		<tag k="name" v="Lerøyna" />
		<tag k="place" v="island" />
		<tag k="ssr:stedsnr" v="308838" />
	</node>
	<node id="-472994" lat="60.2828833302" lon="4.9478888911">
		<tag k="name" v="Skaget" />
		<tag k="natural" v="cape" />
		<tag k="ssr:stedsnr" v="308777" />
	</node>
	<node id="-472993" lat="60.1650111125" lon="5.04213333533">
		<tag k="name" v="Viksavågen" />
		<tag k="natural" v="bay" />
		<tag k="ssr:stedsnr" v="308728" />
	</node>
	<node id="-472992" lat="60.1626916658" lon="5.05027777942">
		<tag k="name" v="Russholmen" />
		<tag k="place" v="islet" />
		<tag k="ssr:stedsnr" v="308727" />
	</node>
	<node id="-472991" lat="60.1990944406" lon="5.01976666369">
		<tag k="name" v="Nordra Risøysundet" />
		<tag k="natural" v="strait" />
		<tag k="ssr:stedsnr" v="308683" />
	</node>
	<node id="-472990" lat="60.2001666697" lon="5.00991944952">
		<tag k="fixme" v="consider seamark:type=rock or natural=shoal" />
		<tag k="name" v="Risøyskjeret" />
		<tag k="place" v="islet" />
		<tag k="ssr:stedsnr" v="308680" />
	</node>
	<node id="-472988" lat="60.2395444444" lon="5.19683055113">
		<tag k="name" v="Mariholmen" />
		<tag k="place" v="islet" />
		<tag k="ssr:stedsnr" v="308645" />
	</node>
	<node id="-472986" lat="60.2484111146" lon="4.97885000286">
		<tag k="name" v="Søre Stuvholmen" />
		<tag k="place" v="islet" />
		<tag k="ssr:stedsnr" v="308514" />
	</node>
	<node id="-472985" lat="60.2994027767" lon="4.94690833246">
		<tag k="name" v="Klumbraholmen" />
		<tag k="place" v="islet" />
		<tag k="ssr:stedsnr" v="308412" />
	</node>
	<node id="-472973" lat="60.1988333376" lon="5.07998889149">
		<tag k="name" v="Grunnevika" />
		<tag k="natural" v="bay" />
		<tag k="ssr:stedsnr" v="289992" />
	</node>
	<node id="-472967" lat="60.2383736744" lon="5.20041150582">
		<tag k="name" v="Klungerholmen" />
		<tag k="place" v="islet" />
		<tag k="ssr:stedsnr" v="289947" />
	</node>
	<node id="-472966" lat="60.2083638927" lon="5.16136111102">
		<tag k="name" v="Dalafjæra" />
		<tag k="natural" v="bay" />
		<tag k="ssr:stedsnr" v="289938" />
	</node>
	<node id="-472965" lat="60.2273111127" lon="5.17110000073">
		<tag k="name" v="Lyngholmen" />
		<tag k="place" v="islet" />
		<tag k="ssr:stedsnr" v="289931" />
	</node>
	<node id="-472962" lat="60.2647194413" lon="4.95460832573">
		<tag k="name" v="Selsteinsvika" />
		<tag k="natural" v="bay" />
		<tag k="ssr:stedsnr" v="288860" />
	</node>
	<node id="-472961" lat="60.2689194474" lon="4.93351110493">
		<tag k="name" v="Nordre Lyngøyvågen" />
		<tag k="natural" v="bay" />
		<tag k="ssr:stedsnr" v="288847" />
	</node>
	<node id="-472951" lat="60.2434083329" lon="5.06633333156">
		<tag k="name" v="Årvika" />
		<tag k="natural" v="bay" />
		<tag k="ssr:stedsnr" v="287811" />
	</node>
	<node id="-472949" lat="60.1642333334" lon="5.05864167191">
		<tag k="name" v="Osen" />
		<tag k="natural" v="strait" />
		<tag k="ssr:stedsnr" v="287657" />
	</node>
	<node id="-472947" lat="60.2068111143" lon="5.05074999714">
		<tag k="name" v="Søravika" />
		<tag k="natural" v="bay" />
		<tag k="ssr:stedsnr" v="287641" />
	</node>
	<node id="-472946" lat="60.2142361124" lon="5.05464166551">
		<tag k="name" v="Mjelkneset" />
		<tag k="natural" v="cape" />
		<tag k="ssr:stedsnr" v="287635" />
	</node>
	<node id="-472945" lat="60.2102555522" lon="5.01125277772">
		<tag k="name" v="Storeklubben" />
		<tag k="natural" v="cape" />
		<tag k="ssr:stedsnr" v="287631" />
	</node>
	<node id="-472944" lat="60.2148861109" lon="4.99663889568">
		<tag k="name" v="Nautavika" />
		<tag k="natural" v="bay" />
		<tag k="ssr:stedsnr" v="287629" />
	</node>
	<node id="-472940" lat="60.1650833353" lon="5.00873611729">
		<tag k="name" v="Svinaræva" />
		<tag k="natural" v="bay" />
		<tag k="ssr:stedsnr" v="287547" />
	</node>
	<node id="-474227" lat="60.2133305534" lon="5.14732778253">
		<tag k="name" v="Notholmen" />
		<tag k="place" v="islet" />
		<tag k="ssr:stedsnr" v="956920" />
	</node>
	<node id="-474226" lat="60.2348460962" lon="5.21658865847">
		<tag k="name" v="Jaktavika" />
		<tag k="natural" v="bay" />
		<tag k="ssr:stedsnr" v="956905" />
	</node>
	<node id="-474225" lat="60.237905559" lon="5.20608055343">
		<tag k="name" v="Klumbra" />
		<tag k="natural" v="bay" />
		<tag k="ssr:stedsnr" v="956902" />
	</node>
	<node id="-474224" lat="60.26470556" lon="4.99172222123">
		<tag k="name" v="Indrevågen" />
		<tag k="natural" v="bay" />
		<tag k="ssr:stedsnr" v="956864" />
	</node>
	<node id="-474223" lat="60.2610611125" lon="4.91902500836">
		<tag k="fixme" v="consider seamark:type=rock or natural=shoal" />
		<tag k="name" v="Instaskjeret" />
		<tag k="place" v="islet" />
		<tag k="ssr:stedsnr" v="956858" />
	</node>
	<node id="-474222" lat="60.2628555584" lon="4.92782499319">
		<tag k="fixme" v="consider seamark:type=rock or natural=shoal" />
		<tag k="name" v="Groten" />
		<tag k="place" v="islet" />
		<tag k="ssr:stedsnr" v="956857" />
	</node>
	<node id="-474215" lat="60.297233334" lon="4.9885388934">
		<tag k="name" v="Notholmen" />
		<tag k="place" v="islet" />
		<tag k="ssr:stedsnr" v="956782" />
	</node>
	<node id="-474207" lat="60.213100001" lon="5.05859721326">
		<tag k="name" v="Huldholmen" />
		<tag k="place" v="islet" />
		<tag k="ssr:stedsnr" v="955623" />
	</node>
	<node id="-474205" lat="60.1965611082" lon="5.04924166456">
		<tag k="name" v="Træsvika" />
		<tag k="natural" v="bay" />
		<tag k="ssr:stedsnr" v="955610" />
	</node>
	<node id="-474204" lat="60.1941333301" lon="5.04594999666">
		<tag k="name" v="Rossavika" />
		<tag k="natural" v="bay" />
		<tag k="ssr:stedsnr" v="955606" />
	</node>
	<node id="-474203" lat="60.2270416686" lon="4.99039999595">
		<tag k="name" v="Bøttevika" />
		<tag k="natural" v="bay" />
		<tag k="ssr:stedsnr" v="955600" />
	</node>
	<node id="-474201" lat="60.1900999988" lon="5.00190278522">
		<tag k="name" v="Litle Ådnarholmen" />
		<tag k="place" v="islet" />
		<tag k="ssr:stedsnr" v="955564" />
	</node>
	<node id="-474198" lat="60.2865527782" lon="5.15705555857">
		<tag k="name" v="Austraneset" />
		<tag k="natural" v="cape" />
		<tag k="ssr:stedsnr" v="955243" />
	</node>
	<node id="-474194" lat="60.2670055555" lon="5.10843333894">
		<tag k="name" v="Ospevika" />
		<tag k="natural" v="bay" />
		<tag k="ssr:stedsnr" v="955160" />
	</node>
	<node id="-474192" lat="60.1705222185" lon="5.09130277375">
		<tag k="fixme" v="consider seamark:type=rock or natural=shoal" />
		<tag k="name" v="Gullskaget" />
		<tag k="place" v="islet" />
		<tag k="ssr:stedsnr" v="955061" />
	</node>
	<node id="-474191" lat="60.2028000004" lon="5.0744666692">
		<tag k="name" v="Steinslandstangen" />
		<tag k="natural" v="cape" />
		<tag k="ssr:stedsnr" v="955051" />
	</node>
	<node id="-474188" lat="60.2776833367" lon="4.9161472205">
		<tag k="name" v="Teigen" />
		<tag k="natural" v="shoal" />
		<tag k="place" v="locality" />
		<tag k="ssr:stedsnr" v="936300" />
	</node>
	<node id="-474187" lat="60.2075805595" lon="5.05939723054">
		<tag k="name" v="Galten" />
		<tag k="natural" v="cape" />
		<tag k="ssr:stedsnr" v="936261" />
	</node>
	<node id="-474186" lat="60.233713893" lon="4.98126944867">
		<tag k="name" v="Svartetangen" />
		<tag k="natural" v="cape" />
		<tag k="ssr:stedsnr" v="936232" />
	</node>
	<node id="-474184" lat="60.2282750045" lon="5.15147499911">
		<tag k="name" v="Nordrevågen" />
		<tag k="natural" v="bay" />
		<tag k="ssr:stedsnr" v="936154" />
	</node>
	<node id="-474183" lat="60.2499833374" lon="5.2185527851">
		<tag k="name" v="Pallavika" />
		<tag k="natural" v="bay" />
		<tag k="ssr:stedsnr" v="936153" />
	</node>
	<node id="-474182" lat="60.2497055541" lon="5.20881945039">
		<tag k="name" v="Lauvholmflua" />
		<tag k="natural" v="shoal" />
		<tag k="place" v="locality" />
		<tag k="ssr:stedsnr" v="936151" />
	</node>
	<node id="-474181" lat="60.2872833323" lon="5.18074444289">
		<tag k="name" v="Alvøyflua" />
		<tag k="natural" v="shoal" />
		<tag k="place" v="locality" />
		<tag k="ssr:stedsnr" v="936149" />
	</node>
	<node id="-474180" lat="60.1662666665" lon="4.98555278451">
		<tag k="name" v="Søre Oddane" />
		<tag k="place" v="islet" />
		<tag k="ssr:stedsnr" v="935094" />
	</node>
	<node id="-474179" lat="60.2945750028" lon="4.96255832963">
		<tag k="name" v="Midthola" />
		<tag k="natural" v="bay" />
		<tag k="ssr:stedsnr" v="935072" />
	</node>
	<node id="-474178" lat="60.2937055531" lon="4.95904443823">
		<tag k="name" v="Søra Hola" />
		<tag k="natural" v="bay" />
		<tag k="ssr:stedsnr" v="935070" />
	</node>
	<node id="-474172" lat="60.2670027742" lon="5.10118889519">
		<tag k="name" v="Skaganeset" />
		<tag k="natural" v="cape" />
		<tag k="ssr:stedsnr" v="916927" />
	</node>
	<node id="-474168" lat="60.2987544961" lon="5.14027173581">
		<tag k="bay" v="fjord" />
		<tag k="name" v="Kobbaleia" />
		<tag k="natural" v="bay" />
		<tag k="ssr:stedsnr" v="915849" />
	</node>
	<node id="-474165" lat="60.2851569498" lon="5.13854958102">
		<tag k="name" v="Nordra Røssevika" />
		<tag k="natural" v="bay" />
		<tag k="ssr:stedsnr" v="915810" />
	</node>
	<node id="-474164" lat="60.2216166648" lon="5.16022221606">
		<tag k="name" v="Daganeset" />
		<tag k="natural" v="cape" />
		<tag k="ssr:stedsnr" v="915806" />
	</node>
	<node id="-474163" lat="60.1833416673" lon="5.10975832879">
		<tag k="name" v="Forlandsvågen" />
		<tag k="natural" v="bay" />
		<tag k="ssr:stedsnr" v="915753" />
	</node>
	<node id="-474162" lat="60.1652499968" lon="5.02045555749">
		<tag k="name" v="Narøyna" />
		<tag k="place" v="islet" />
		<tag k="ssr:stedsnr" v="915740" />
	</node>
	<node id="-474161" lat="60.1638472248" lon="5.00161388476">
		<tag k="name" v="Stora Fugløyna" />
		<tag k="place" v="island" />
		<tag k="ssr:stedsnr" v="915741" />
	</node>
	<node id="-474160" lat="60.1507888898" lon="4.94327776989">
		<tag k="name" v="Djupshammaren" />
		<tag k="natural" v="shoal" />
		<tag k="place" v="locality" />
		<tag k="ssr:stedsnr" v="915735" />
	</node>
	<node id="-474159" lat="60.2121198668" lon="5.06128523899">
		<tag k="name" v="Bergsholmen" />
		<tag k="place" v="islet" />
		<tag k="ssr:stedsnr" v="915701" />
	</node>
	<node id="-474158" lat="60.2033861153" lon="5.01800833739">
		<tag k="name" v="Færøyna" />
		<tag k="place" v="islet" />
		<tag k="ssr:stedsnr" v="915696" />
	</node>
	<node id="-474157" lat="60.2164027794" lon="5.04957499237">
		<tag k="name" v="Kvernavika" />
		<tag k="natural" v="bay" />
		<tag k="ssr:stedsnr" v="915674" />
	</node>
	<node id="-474156" lat="60.2462138886" lon="4.95394444963">
		<tag k="name" v="Skarvøyna" />
		<tag k="place" v="islet" />
		<tag k="ssr:stedsnr" v="915520" />
	</node>
	<node id="-474155" lat="60.2931444409" lon="4.98810555303">
		<tag k="name" v="Kjeøyna" />
		<tag k="place" v="islet" />
		<tag k="ssr:stedsnr" v="915431" />
	</node>
	<node id="-474153" lat="60.2202166638" lon="4.98507221744">
		<tag k="fixme" v="consider seamark:type=rock or natural=shoal" />
		<tag k="name" v="Storaskjeret" />
		<tag k="place" v="islet" />
		<tag k="ssr:stedsnr" v="914719" />
	</node>
	<node id="-474151" lat="60.2405250035" lon="4.97052221795">
		<tag k="name" v="Valøyna" />
		<tag k="place" v="islet" />
		<tag k="ssr:stedsnr" v="914565" />
	</node>
	<node id="-474150" lat="60.2444638864" lon="4.96655000322">
		<tag k="name" v="Litla Gåsøyna" />
		<tag k="place" v="islet" />
		<tag k="ssr:stedsnr" v="914556" />
	</node>
	<node id="-474147" lat="60.2372055585" lon="5.16488888034">
		<tag k="name" v="Tangafluene" />
		<tag k="natural" v="shoal" />
		<tag k="place" v="locality" />
		<tag k="ssr:stedsnr" v="875194" />
	</node>
	<node id="-474144" lat="60.2644250034" lon="4.93115554682">
		<tag k="name" v="Kvassholmen" />
		<tag k="place" v="islet" />
		<tag k="ssr:stedsnr" v="875326" />
	</node>
	<node id="-474143" lat="60.1873805549" lon="5.02990833404">
		<tag k="name" v="Kubbholmane" />
		<tag k="place" v="islet" />
		<tag k="ssr:stedsnr" v="874139" />
	</node>
	<node id="-474142" lat="60.2622444429" lon="4.90502499613">
		<tag k="name" v="Hufteskjerflua" />
		<tag k="natural" v="shoal" />
		<tag k="place" v="locality" />
		<tag k="ssr:stedsnr" v="874107" />
	</node>
	<node id="-474141" lat="60.2246861089" lon="4.97026666259">
		<tag k="name" v="Håstallane" />
		<tag k="natural" v="shoal" />
		<tag k="place" v="locality" />
		<tag k="ssr:stedsnr" v="874093" />
	</node>
	<node id="-474140" lat="60.2990444483" lon="4.93961667375">
		<tag k="fixme" v="consider seamark:type=rock or natural=shoal" />
		<tag k="name" v="Salen" />
		<tag k="place" v="islet" />
		<tag k="ssr:stedsnr" v="874060" />
	</node>
	<node id="-474136" lat="60.2689373021" lon="5.16966680278">
		<tag k="bay" v="fjord" />
		<tag k="name" v="Raunefjorden" />
		<tag k="natural" v="bay" />
		<tag k="ssr:stedsnr" v="855941" />
	</node>
	<node id="-474135" lat="60.2705083332" lon="5.09503610426">
		<tag k="name" v="Stekholmen" />
		<tag k="place" v="islet" />
		<tag k="ssr:stedsnr" v="855937" />
	</node>
	<node id="-474134" lat="60.2654325367" lon="5.11642632258">
		<tag k="name" v="Skotaneset" />
		<tag k="natural" v="cape" />
		<tag k="ssr:stedsnr" v="855926" />
	</node>
	<node id="-474130" lat="60.2856305528" lon="4.93021945312">
		<tag k="name" v="Ertnsfluene" />
		<tag k="natural" v="shoal" />
		<tag k="place" v="locality" />
		<tag k="ssr:stedsnr" v="855452" />
	</node>
	<node id="-474129" lat="60.2084237333" lon="5.16089893517">
		<tag k="name" v="Kvalvika" />
		<tag k="natural" v="bay" />
		<tag k="ssr:stedsnr" v="854846" />
	</node>
	<node id="-474128" lat="60.2367293567" lon="5.20334099043">
		<tag k="name" v="Store Bukken" />
		<tag k="place" v="islet" />
		<tag k="ssr:stedsnr" v="854834" />
	</node>
	<node id="-474127" lat="60.1707416662" lon="5.10502500683">
		<tag k="name" v="Flatøyna" />
		<tag k="place" v="islet" />
		<tag k="ssr:stedsnr" v="854799" />
	</node>
	<node id="-474126" lat="60.1898555527" lon="4.96898054765">
		<tag k="fixme" v="consider seamark:type=rock or natural=shoal" />
		<tag k="name" v="Boarskjeret" />
		<tag k="place" v="islet" />
		<tag k="ssr:stedsnr" v="854688" />
	</node>
	<node id="-474124" lat="60.2366194448" lon="5.07946110317">
		<tag k="alt_name" v="Stora Sotra;Store Sotra" />
		<tag k="name" v="Sotra" />
		<tag k="place" v="island" />
		<tag k="ssr:stedsnr" v="854682" />
	</node>
	<node id="-474121" lat="60.1694888905" lon="5.09955276885">
		<tag k="name" v="Fluholmen" />
		<tag k="place" v="islet" />
		<tag k="ssr:stedsnr" v="836000" />
	</node>
	<node id="-474119" lat="60.1756472232" lon="5.10990278658">
		<tag k="name" v="Håkelsundet" />
		<tag k="natural" v="strait" />
		<tag k="ssr:stedsnr" v="835981" />
	</node>
	<node id="-474113" lat="60.2688916642" lon="4.94370833318">
		<tag k="name" v="Ærholmen" />
		<tag k="place" v="islet" />
		<tag k="ssr:stedsnr" v="835860" />
	</node>
	<node id="-474111" lat="60.2544277761" lon="5.03453333967">
		<tag k="name" v="Steinneset" />
		<tag k="natural" v="cape" />
		<tag k="ssr:stedsnr" v="835790" />
	</node>
	<node id="-474110" lat="60.2892694435" lon="4.9760555597">
		<tag k="name" v="Sævarvika" />
		<tag k="natural" v="bay" />
		<tag k="ssr:stedsnr" v="835784" />
	</node>
	<node id="-474109" lat="60.2826305515" lon="4.94963888868">
		<tag k="name" v="Ytra Skagavika" />
		<tag k="natural" v="bay" />
		<tag k="ssr:stedsnr" v="835776" />
	</node>
	<node id="-474104" lat="60.2401638907" lon="5.04624722246">
		<tag k="name" v="Vestrevågen" />
		<tag k="natural" v="bay" />
		<tag k="ssr:stedsnr" v="834787" />
	</node>
	<node id="-474101" lat="60.1701694468" lon="5.00742776934">
		<tag k="name" v="Vardøyholmen" />
		<tag k="place" v="islet" />
		<tag k="ssr:stedsnr" v="834669" />
	</node>
	<node id="-474099" lat="60.2337861095" lon="5.06017221999">
		<tag k="name" v="Breivika" />
		<tag k="natural" v="bay" />
		<tag k="ssr:stedsnr" v="834635" />
	</node>
	<node id="-474098" lat="60.2259722205" lon="5.06085000019">
		<tag k="name" v="Knappen" />
		<tag k="natural" v="cape" />
		<tag k="ssr:stedsnr" v="834634" />
	</node>
	<node id="-474096" lat="60.2088611087" lon="5.05201667099">
		<tag k="name" v="Vollasjøen" />
		<tag k="natural" v="bay" />
		<tag k="ssr:stedsnr" v="834624" />
	</node>
	<node id="-474095" lat="60.2122527742" lon="5.01498888299">
		<tag k="name" v="Klubben" />
		<tag k="natural" v="cape" />
		<tag k="ssr:stedsnr" v="834616" />
	</node>
	<node id="-474094" lat="60.1735083317" lon="5.03553334141">
		<tag k="name" v="Djupevika" />
		<tag k="natural" v="bay" />
		<tag k="ssr:stedsnr" v="834609" />
	</node>
	<node id="-474093" lat="60.1655249961" lon="5.02889443927">
		<tag k="name" v="Mulosen" />
		<tag k="natural" v="strait" />
		<tag k="ssr:stedsnr" v="834594" />
	</node>
	<node id="-474092" lat="60.1828527784" lon="5.01525278139">
		<tag k="name" v="Sandøysundet" />
		<tag k="natural" v="strait" />
		<tag k="ssr:stedsnr" v="834587" />
	</node>
	<node id="-474086" lat="60.1538055576" lon="5.01128334">
		<tag k="name" v="Tekslekalven" />
		<tag k="place" v="islet" />
		<tag k="ssr:stedsnr" v="834505" />
	</node>
	<node id="-474085" lat="60.3026638846" lon="5.14459444713">
		<tag k="name" v="Liholmane" />
		<tag k="place" v="island" />
		<tag k="ssr:stedsnr" v="834253" />
	</node>
	<node id="-474081" lat="60.2710194447" lon="5.1006611081">
		<tag k="name" v="Langskipavika" />
		<tag k="natural" v="bay" />
		<tag k="ssr:stedsnr" v="834168" />
	</node>
	<node id="-474078" lat="60.2415722259" lon="5.19325278159">
		<tag k="name" v="Bleikjene" />
		<tag k="place" v="islet" />
		<tag k="ssr:stedsnr" v="834159" />
	</node>
	<node id="-474077" lat="60.1751166686" lon="5.04059166166">
		<tag k="name" v="Tarlevika" />
		<tag k="natural" v="bay" />
		<tag k="ssr:stedsnr" v="814320" />
	</node>
	<node id="-474076" lat="60.2847861101" lon="5.17831944475">
		<tag k="name" v="Austre Synstholmen" />
		<tag k="place" v="islet" />
		<tag k="ssr:stedsnr" v="814195" />
	</node>
	<node id="-474067" lat="60.3055888857" lon="5.15461388193">
		<tag k="name" v="Trettholmane" />
		<tag k="place" v="islet" />
		<tag k="ssr:stedsnr" v="794866" />
	</node>
	<node id="-474066" lat="60.2262138896" lon="5.20591388655">
		<tag k="name" v="Horsøyna" />
		<tag k="place" v="islet" />
		<tag k="ssr:stedsnr" v="794817" />
	</node>
	<node id="-474065" lat="60.2942194419" lon="4.94039444299">
		<tag k="name" v="Augnarholmen" />
		<tag k="place" v="islet" />
		<tag k="ssr:stedsnr" v="794442" />
	</node>
	<node id="-474063" lat="60.179283332" lon="4.97551388469">
		<tag k="fixme" v="consider seamark:type=rock or natural=shoal" />
		<tag k="name" v="Kvernholmsskjera" />
		<tag k="place" v="islet" />
		<tag k="ssr:stedsnr" v="793760" />
	</node>
	<node id="-474062" lat="60.1808916699" lon="5.02643055707">
		<tag k="name" v="Myrbærholmen" />
		<tag k="place" v="islet" />
		<tag k="ssr:stedsnr" v="793755" />
	</node>
	<node id="-474059" lat="60.1991444426" lon="5.03003611925">
		<tag k="name" v="Måsholmen" />
		<tag k="place" v="islet" />
		<tag k="ssr:stedsnr" v="793738" />
	</node>
	<node id="-474058" lat="60.2041166711" lon="5.02182777881">
		<tag k="name" v="Færøysundet" />
		<tag k="natural" v="strait" />
		<tag k="ssr:stedsnr" v="793736" />
	</node>
	<node id="-474053" lat="60.2484138887" lon="4.97389444752">
		<tag k="name" v="Grimsøyna" />
		<tag k="place" v="islet" />
		<tag k="ssr:stedsnr" v="793577" />
	</node>
	<node id="-474052" lat="60.1722416682" lon="5.10666666955">
		<tag k="name" v="Flatøysundet" />
		<tag k="natural" v="strait" />
		<tag k="ssr:stedsnr" v="774995" />
	</node>
	<node id="-474051" lat="60.178244442" lon="5.11155555919">
		<tag k="name" v="Grønevika" />
		<tag k="natural" v="bay" />
		<tag k="ssr:stedsnr" v="774977" />
	</node>
	<node id="-474047" lat="60.2323444424" lon="5.16836388669">
		<tag k="name" v="Naustneset" />
		<tag k="natural" v="cape" />
		<tag k="ssr:stedsnr" v="774915" />
	</node>
	<node id="-474046" lat="60.2338771054" lon="5.21003905747">
		<tag k="name" v="Bjørnbærvika" />
		<tag k="natural" v="bay" />
		<tag k="ssr:stedsnr" v="774902" />
	</node>
	<node id="-474045" lat="60.2560555519" lon="4.95497221859">
		<tag k="name" v="Søra Spøtøyna" />
		<tag k="place" v="island" />
		<tag k="ssr:stedsnr" v="774894" />
	</node>
	<node id="-474042" lat="60.2957944487" lon="4.9780027803">
		<tag k="name" v="Skorasundet" />
		<tag k="natural" v="strait" />
		<tag k="ssr:stedsnr" v="774787" />
	</node>
	<node id="-474041" lat="60.2865416701" lon="4.93968611133">
		<tag k="fixme" v="consider seamark:type=rock or natural=shoal" />
		<tag k="name" v="Ertnsskjeret" />
		<tag k="place" v="islet" />
		<tag k="ssr:stedsnr" v="774781" />
	</node>
	<node id="-474040" lat="60.2916222214" lon="4.94685832761">
		<tag k="name" v="Myrbærvågen" />
		<tag k="natural" v="bay" />
		<tag k="ssr:stedsnr" v="774778" />
	</node>
	<node id="-474033" lat="60.1697777744" lon="5.00072500315">
		<tag k="fixme" v="consider seamark:type=rock or natural=shoal" />
		<tag k="name" v="Vardøyskjera" />
		<tag k="place" v="islet" />
		<tag k="ssr:stedsnr" v="773640" />
	</node>
	<node id="-474032" lat="60.1595166669" lon="5.00520277891">
		<tag k="name" v="Seiskjerålen" />
		<tag k="natural" v="strait" />
		<tag k="ssr:stedsnr" v="773638" />
	</node>
	<node id="-474031" lat="60.1617416692" lon="5.06572499714">
		<tag k="name" v="Hellerskutvika" />
		<tag k="natural" v="bay" />
		<tag k="ssr:stedsnr" v="773598" />
	</node>
	<node id="-474030" lat="60.2091750034" lon="5.06748888608">
		<tag k="name" v="Kyrkjesundet" />
		<tag k="natural" v="strait" />
		<tag k="ssr:stedsnr" v="773585" />
	</node>
	<node id="-474029" lat="60.1776194405" lon="5.02211666958">
		<tag k="name" v="Opsøyvika" />
		<tag k="natural" v="bay" />
		<tag k="ssr:stedsnr" v="773576" />
	</node>
	<node id="-474028" lat="60.1814055577" lon="5.01572500669">
		<tag k="name" v="Stora Flatøyna" />
		<tag k="place" v="island" />
		<tag k="ssr:stedsnr" v="773560" />
	</node>
	<node id="-474021" lat="60.2424111107" lon="5.16664167127">
		<tag k="name" v="Vestra Tangavika" />
		<tag k="natural" v="bay" />
		<tag k="ssr:stedsnr" v="773182" />
	</node>
	<node id="-474020" lat="60.2658888881" lon="5.1102138917">
		<tag k="name" v="Skagasjøen" />
		<tag k="natural" v="bay" />
		<tag k="ssr:stedsnr" v="773174" />
	</node>
	<node id="-474019" lat="60.2413555524" lon="5.18647778197">
		<tag k="name" v="Langøysundet" />
		<tag k="natural" v="strait" />
		<tag k="ssr:stedsnr" v="773154" />
	</node>
	<node id="-474018" lat="60.2484305575" lon="5.13754443771">
		<tag k="name" v="Vedaneset" />
		<tag k="natural" v="cape" />
		<tag k="ssr:stedsnr" v="773152" />
	</node>
	<node id="-474016" lat="60.1984305561" lon="5.05168333873">
		<tag k="name" v="Toftavika" />
		<tag k="natural" v="bay" />
		<tag k="ssr:stedsnr" v="773051" />
	</node>
	<node id="-474015" lat="60.2170138876" lon="5.06841944614">
		<tag k="name" v="Leitesvika" />
		<tag k="natural" v="bay" />
		<tag k="ssr:stedsnr" v="772611" />
	</node>
	<node id="-474014" lat="60.2357777811" lon="5.04984722431">
		<tag k="name" v="Solvika" />
		<tag k="natural" v="bay" />
		<tag k="ssr:stedsnr" v="772608" />
	</node>
	<node id="-474013" lat="60.2874083374" lon="5.14993056022">
		<tag k="name" v="Vestraneset" />
		<tag k="natural" v="cape" />
		<tag k="ssr:stedsnr" v="772265" />
	</node>
	<node id="-474010" lat="60.1734250019" lon="5.00227223006">
		<tag k="name" v="Vardøysundet" />
		<tag k="natural" v="strait" />
		<tag k="ssr:stedsnr" v="753406" />
	</node>
	<node id="-474009" lat="60.1802250032" lon="5.12146388134">
		<tag k="alt_name" v="Gongstøa" />
		<tag k="name" v="Gangstøa" />
		<tag k="natural" v="bay" />
		<tag k="ssr:stedsnr" v="753278" />
	</node>
	<node id="-474008" lat="60.2216888926" lon="4.97222499411">
		<tag k="name" v="Hetta" />
		<tag k="natural" v="shoal" />
		<tag k="place" v="locality" />
		<tag k="ssr:stedsnr" v="753197" />
	</node>
	<node id="-474007" lat="60.1956277749" lon="5.1571083308">
		<tag k="name" v="Slettevika" />
		<tag k="natural" v="bay" />
		<tag k="ssr:stedsnr" v="753139" />
	</node>
	<node id="-474006" lat="60.1826111153" lon="5.11152499577">
		<tag k="name" v="Vågsholmen" />
		<tag k="place" v="islet" />
		<tag k="ssr:stedsnr" v="753137" />
	</node>
	<node id="-474005" lat="60.1685583364" lon="5.10741388967">
		<tag k="name" v="Kyrreflua" />
		<tag k="natural" v="shoal" />
		<tag k="place" v="locality" />
		<tag k="ssr:stedsnr" v="753104" />
	</node>
	<node id="-474003" lat="60.1538194458" lon="4.97534999945">
		<tag k="name" v="Hysteinen" />
		<tag k="natural" v="shoal" />
		<tag k="place" v="locality" />
		<tag k="ssr:stedsnr" v="753078" />
	</node>
	<node id="-474002" lat="60.2836317252" lon="5.13867474242">
		<tag k="name" v="Søra Røssevika" />
		<tag k="natural" v="bay" />
		<tag k="ssr:stedsnr" v="752127" />
	</node>
	<node id="-473993" lat="60.25736389" lon="4.90161944043">
		<tag k="name" v="Breigrunnen" />
		<tag k="natural" v="shoal" />
		<tag k="place" v="locality" />
		<tag k="ssr:stedsnr" v="734555" />
	</node>
	<node id="-473992" lat="60.2504861127" lon="4.95815554837">
		<tag k="name" v="Mikkjelsøyna" />
		<tag k="place" v="islet" />
		<tag k="ssr:stedsnr" v="734531" />
	</node>
	<node id="-473989" lat="60.288541668" lon="5.15480833806">
		<tag k="name" v="Smivågen" />
		<tag k="natural" v="bay" />
		<tag k="ssr:stedsnr" v="733795" />
	</node>
	<node id="-473987" lat="60.1773194467" lon="5.01973332988">
		<tag k="name" v="Opsøyna" />
		<tag k="place" v="islet" />
		<tag k="ssr:stedsnr" v="733706" />
	</node>
	<node id="-473986" lat="60.1707166666" lon="4.98410555608">
		<tag k="name" v="Nordre Oddane" />
		<tag k="place" v="islet" />
		<tag k="ssr:stedsnr" v="733695" />
	</node>
	<node id="-473984" lat="60.1917111103" lon="4.96649721879">
		<tag k="name" v="Storeboen" />
		<tag k="natural" v="shoal" />
		<tag k="place" v="locality" />
		<tag k="ssr:stedsnr" v="733684" />
	</node>
	<node id="-473983" lat="60.1895122766" lon="5.00994736971">
		<tag k="name" v="Ådnarholmen" />
		<tag k="place" v="islet" />
		<tag k="ssr:stedsnr" v="733681" />
	</node>
	<node id="-473981" lat="60.2473250037" lon="4.94644722728">
		<tag k="name" v="Klystrholmen" />
		<tag k="place" v="islet" />
		<tag k="ssr:stedsnr" v="733514" />
	</node>
	<node id="-473979" lat="60.2864750025" lon="4.94391388727">
		<tag k="name" v="Ertnsholmen" />
		<tag k="place" v="islet" />
		<tag k="ssr:stedsnr" v="733429" />
	</node>
	<node id="-473976" lat="60.2768416681" lon="4.95751944308">
		<tag k="name" v="Nesvika" />
		<tag k="natural" v="bay" />
		<tag k="ssr:stedsnr" v="733410" />
	</node>
	<node id="-473974" lat="60.2099527774" lon="5.01189166431">
		<tag k="name" v="Svegjasundet" />
		<tag k="natural" v="strait" />
		<tag k="ssr:stedsnr" v="732705" />
	</node>
	<node id="-473973" lat="60.2404246801" lon="5.20430236615">
		<tag k="name" v="Bukkasundet" />
		<tag k="natural" v="strait" />
		<tag k="ssr:stedsnr" v="732696" />
	</node>
	<node id="-473970" lat="60.1753000039" lon="5.09486944917">
		<tag k="name" v="Usholmvika" />
		<tag k="natural" v="bay" />
		<tag k="ssr:stedsnr" v="713986" />
	</node>
	<node id="-473966" lat="60.2633944455" lon="4.95450000286">
		<tag k="name" v="Nordra Mannsvika" />
		<tag k="natural" v="bay" />
		<tag k="ssr:stedsnr" v="713870" />
	</node>
	<node id="-473965" lat="60.2632249962" lon="4.95451944569">
		<tag k="name" v="Mannsvika" />
		<tag k="natural" v="bay" />
		<tag k="ssr:stedsnr" v="713869" />
	</node>
	<node id="-473964" lat="60.2630722256" lon="4.91591110555">
		<tag k="fixme" v="consider seamark:type=rock or natural=shoal" />
		<tag k="name" v="Langaskjeret" />
		<tag k="place" v="islet" />
		<tag k="ssr:stedsnr" v="713865" />
	</node>
	<node id="-473963" lat="60.2591333349" lon="4.95097499728">
		<tag k="fixme" v="consider seamark:type=rock or natural=shoal" />
		<tag k="name" v="Nordra Spøto" />
		<tag k="place" v="islet" />
		<tag k="ssr:stedsnr" v="713860" />
	</node>
	<node id="-473958" lat="60.2861861107" lon="4.94659167365">
		<tag k="name" v="Ertnssundet" />
		<tag k="natural" v="strait" />
		<tag k="ssr:stedsnr" v="713783" />
	</node>
	<node id="-473943" lat="60.2082111151" lon="5.02155277515">
		<tag k="fixme" v="consider seamark:type=rock or natural=shoal" />
		<tag k="name" v="Rivnabergsskjeret" />
		<tag k="place" v="islet" />
		<tag k="ssr:stedsnr" v="712580" />
	</node>
	<node id="-473942" lat="60.2155111074" lon="5.00246943822">
		<tag k="name" v="Neset" />
		<tag k="natural" v="cape" />
		<tag k="ssr:stedsnr" v="712576" />
	</node>
	<node id="-473941" lat="60.2366027771" lon="4.98179721537">
		<tag k="fixme" v="consider seamark:type=rock or natural=shoal" />
		<tag k="name" v="Båarskjeret" />
		<tag k="place" v="islet" />
		<tag k="ssr:stedsnr" v="712572" />
	</node>
	<node id="-473940" lat="60.2344472186" lon="4.97786944394">
		<tag k="name" v="Storeslumpen" />
		<tag k="natural" v="cape" />
		<tag k="ssr:stedsnr" v="712571" />
	</node>
	<node id="-473939" lat="60.1677194488" lon="5.0246472296">
		<tag k="name" v="Firikviten" />
		<tag k="place" v="islet" />
		<tag k="ssr:stedsnr" v="712563" />
	</node>
	<node id="-473938" lat="60.1593666628" lon="5.04562778176">
		<tag k="name" v="Storeflesen" />
		<tag k="place" v="island" />
		<tag k="ssr:stedsnr" v="712562" />
	</node>
	<node id="-473937" lat="60.1918166657" lon="5.0262500002">
		<tag k="name" v="Vågsholmen" />
		<tag k="place" v="islet" />
		<tag k="ssr:stedsnr" v="712552" />
	</node>
	<node id="-473928" lat="60.301075002" lon="5.15357500662">
		<tag k="fixme" v="consider seamark:type=rock or natural=shoal" />
		<tag k="name" v="Skarvaskjeret" />
		<tag k="place" v="islet" />
		<tag k="ssr:stedsnr" v="712202" />
	</node>
	<node id="-473927" lat="60.2838530657" lon="5.07415793027">
		<tag k="name" v="Anskotet" />
		<tag k="natural" v="strait" />
		<tag k="ssr:stedsnr" v="712201" />
	</node>
	<node id="-473923" lat="60.2409305567" lon="5.1755250014">
		<tag k="name" v="Skjervika" />
		<tag k="natural" v="bay" />
		<tag k="ssr:stedsnr" v="712152" />
	</node>
	<node id="-473922" lat="60.2420143848" lon="5.19609185183">
		<tag k="name" v="Søre Høgholmen" />
		<tag k="place" v="islet" />
		<tag k="ssr:stedsnr" v="712137" />
	</node>
	<node id="-473921" lat="60.2398060201" lon="5.19930433008">
		<tag k="name" v="Ringen" />
		<tag k="place" v="islet" />
		<tag k="ssr:stedsnr" v="712138" />
	</node>
	<node id="-473920" lat="60.2522249996" lon="5.22089999588">
		<tag k="name" v="Kinnasundet" />
		<tag k="natural" v="strait" />
		<tag k="ssr:stedsnr" v="712132" />
	</node>
	<node id="-473919" lat="60.2016138924" lon="5.07277499949">
		<tag k="name" v="Rophamro" />
		<tag k="natural" v="cape" />
		<tag k="ssr:stedsnr" v="693335" />
	</node>
	<node id="-473917" lat="60.1751944407" lon="5.11916944316">
		<tag k="name" v="Djupeflua" />
		<tag k="natural" v="shoal" />
		<tag k="place" v="locality" />
		<tag k="ssr:stedsnr" v="693208" />
	</node>
	<node id="-473916" lat="60.2864305511" lon="4.94864443707">
		<tag k="name" v="Mortholmen" />
		<tag k="place" v="islet" />
		<tag k="ssr:stedsnr" v="692041" />
	</node>
	<node id="-473908" lat="60.1912416626" lon="5.08528055683">
		<tag k="name" v="Grunnavågen" />
		<tag k="natural" v="bay" />
		<tag k="ssr:stedsnr" v="673591" />
	</node>
	<node id="-473907" lat="60.2614805557" lon="4.91734999959">
		<tag k="fixme" v="consider seamark:type=rock or natural=shoal" />
		<tag k="name" v="Hufteskjera" />
		<tag k="place" v="islet" />
		<tag k="ssr:stedsnr" v="673517" />
	</node>
	<node id="-473905" lat="60.2515555593" lon="4.95306666645">
		<tag k="name" v="Litle Lambholmen" />
		<tag k="place" v="islet" />
		<tag k="ssr:stedsnr" v="673484" />
	</node>
	<node id="-473904" lat="60.2308111068" lon="5.21768888376">
		<tag k="name" v="Bjelkarøy-Buarøyna" />
		<tag k="place" v="island" />
		<tag k="ssr:stedsnr" v="672848" />
	</node>
	<node id="-473901" lat="60.1719944471" lon="5.04630832949">
		<tag k="name" v="Hummelsundet" />
		<tag k="natural" v="strait" />
		<tag k="ssr:stedsnr" v="672707" />
	</node>
	<node id="-473900" lat="60.1991250024" lon="4.97822499968">
		<tag k="name" v="Nakkane" />
		<tag k="natural" v="shoal" />
		<tag k="place" v="locality" />
		<tag k="ssr:stedsnr" v="672698" />
	</node>
	<node id="-473899" lat="60.1967416707" lon="4.99861666624">
		<tag k="fixme" v="consider seamark:type=rock or natural=shoal" />
		<tag k="name" v="Barden" />
		<tag k="place" v="islet" />
		<tag k="ssr:stedsnr" v="672697" />
	</node>
	<node id="-473897" lat="60.214297226" lon="5.06215000484">
		<tag k="name" v="Litle Ramsholmen" />
		<tag k="place" v="islet" />
		<tag k="ssr:stedsnr" v="672677" />
	</node>
	<node id="-473893" lat="60.2465449332" lon="5.19602696033">
		<tag k="name" v="Brattholmen" />
		<tag k="place" v="islet" />
		<tag k="ssr:stedsnr" v="672663" />
	</node>
	<node id="-473892" lat="60.2930083327" lon="4.94579999423">
		<tag k="name" v="Myrbærholmen" />
		<tag k="place" v="islet" />
		<tag k="ssr:stedsnr" v="672430" />
	</node>
	<node id="-473884" lat="60.2273444407" lon="5.20876389262">
		<tag k="fixme" v="consider seamark:type=rock or natural=shoal" />
		<tag k="name" v="Horsøyskjeret" />
		<tag k="place" v="islet" />
		<tag k="ssr:stedsnr" v="652905" />
	</node>
	<node id="-473883" lat="60.2145527813" lon="5.1463833338">
		<tag k="name" v="Hopen" />
		<tag k="natural" v="bay" />
		<tag k="ssr:stedsnr" v="652899" />
	</node>
	<node id="-473882" lat="60.2730305572" lon="4.99697499268">
		<tag k="name" v="Søre Resavika" />
		<tag k="natural" v="bay" />
		<tag k="ssr:stedsnr" v="652843" />
	</node>
	<node id="-473881" lat="60.2603777741" lon="4.98778333218">
		<tag k="name" v="Timbervika" />
		<tag k="natural" v="bay" />
		<tag k="ssr:stedsnr" v="652841" />
	</node>
	<node id="-473880" lat="60.2708944413" lon="4.9474805629">
		<tag k="name" v="Granosen" />
		<tag k="natural" v="strait" />
		<tag k="ssr:stedsnr" v="652838" />
	</node>
	<node id="-473872" lat="60.2695944439" lon="4.93639443602">
		<tag k="name" v="Nordresalen" />
		<tag k="place" v="islet" />
		<tag k="ssr:stedsnr" v="652160" />
	</node>
	<node id="-473870" lat="60.1799055564" lon="5.13564444939">
		<tag k="name" v="Insta Fiksnesvika" />
		<tag k="natural" v="bay" />
		<tag k="ssr:stedsnr" v="652023" />
	</node>
	<node id="-473865" lat="60.256086107" lon="5.04953888523">
		<tag k="name" v="Storavika" />
		<tag k="natural" v="bay" />
		<tag k="ssr:stedsnr" v="651790" />
	</node>
	<node id="-473858" lat="60.2209833337" lon="5.0237083258">
		<tag k="name" v="Bansvika" />
		<tag k="natural" v="bay" />
		<tag k="ssr:stedsnr" v="651627" />
	</node>
	<node id="-473857" lat="60.1951527773" lon="5.04772778587">
		<tag k="name" v="Søra Træet" />
		<tag k="place" v="island" />
		<tag k="ssr:stedsnr" v="651619" />
	</node>
	<node id="-473856" lat="60.1955999961" lon="5.03183056093">
		<tag k="name" v="Kobbevågen" />
		<tag k="natural" v="bay" />
		<tag k="ssr:stedsnr" v="651613" />
	</node>
	<node id="-473855" lat="60.1909500002" lon="5.02122500177">
		<tag k="name" v="Klungervågsholmen" />
		<tag k="place" v="islet" />
		<tag k="ssr:stedsnr" v="651594" />
	</node>
	<node id="-473854" lat="60.2283027771" lon="5.06070832746">
		<tag k="name" v="Stålneset" />
		<tag k="natural" v="cape" />
		<tag k="ssr:stedsnr" v="651590" />
	</node>
	<node id="-473848" lat="60.1640527763" lon="5.06267777661">
		<tag k="name" v="Mjelkevika" />
		<tag k="natural" v="bay" />
		<tag k="ssr:stedsnr" v="651532" />
	</node>
	<node id="-473843" lat="60.2779388847" lon="5.08472778248">
		<tag k="name" v="Litla Ådnavika" />
		<tag k="natural" v="bay" />
		<tag k="ssr:stedsnr" v="651173" />
	</node>
	<node id="-473842" lat="60.2502694486" lon="5.22300277019">
		<tag k="name" v="Paltaneset" />
		<tag k="natural" v="cape" />
		<tag k="ssr:stedsnr" v="651164" />
	</node>
	<node id="-473841" lat="60.2431750018" lon="5.22333055936">
		<tag k="name" v="Naustneset" />
		<tag k="natural" v="cape" />
		<tag k="ssr:stedsnr" v="651163" />
	</node>
	<node id="-473840" lat="60.2432694437" lon="5.17180000373">
		<tag k="name" v="Austra Tangavika" />
		<tag k="natural" v="bay" />
		<tag k="ssr:stedsnr" v="651155" />
	</node>
	<node id="-473838" lat="60.2302138902" lon="5.18739445171">
		<tag k="name" v="Storlarken" />
		<tag k="natural" v="bay" />
		<tag k="ssr:stedsnr" v="632205" />
	</node>
	<node id="-473837" lat="60.2901500034" lon="5.13695000311">
		<tag k="name" v="Søra Skagavika" />
		<tag k="natural" v="bay" />
		<tag k="ssr:stedsnr" v="632198" />
	</node>
	<node id="-473836" lat="60.1838638849" lon="5.07780277236">
		<tag k="name" v="Skjelevikholmen" />
		<tag k="place" v="islet" />
		<tag k="ssr:stedsnr" v="631119" />
	</node>
	<node id="-473835" lat="60.1680249975" lon="5.04397222674">
		<tag k="name" v="Torlevika" />
		<tag k="natural" v="bay" />
		<tag k="ssr:stedsnr" v="631117" />
	</node>
	<node id="-473828" lat="60.2935583303" lon="5.15705278018">
		<tag k="name" v="Tyssøyna" />
		<tag k="place" v="island" />
		<tag k="ssr:stedsnr" v="627834" />
	</node>
	<node id="-473825" lat="60.2890333322" lon="5.17774722524">
		<tag k="name" v="Alvøyklubben" />
		<tag k="place" v="islet" />
		<tag k="ssr:stedsnr" v="612815" />
	</node>
	<node id="-473823" lat="60.2980666644" lon="5.15465000824">
		<tag k="name" v="Kylleren" />
		<tag k="natural" v="strait" />
		<tag k="ssr:stedsnr" v="611885" />
	</node>
	<node id="-473822" lat="60.2041222208" lon="5.15743055819">
		<tag k="name" v="Høylandsvika" />
		<tag k="natural" v="bay" />
		<tag k="ssr:stedsnr" v="611869" />
	</node>
	<node id="-473821" lat="60.1787666627" lon="5.13190278574">
		<tag k="name" v="Fiksneset" />
		<tag k="natural" v="cape" />
		<tag k="ssr:stedsnr" v="611812" />
	</node>
	<node id="-473818" lat="60.1813638878" lon="5.01576110681">
		<tag k="name" v="Flatøyna" />
		<tag k="place" v="islet" />
		<tag k="ssr:stedsnr" v="611742" />
	</node>
	<node id="-473817" lat="60.1719694444" lon="4.93948888993">
		<tag k="name" v="Leineskallen" />
		<tag k="natural" v="shoal" />
		<tag k="place" v="locality" />
		<tag k="ssr:stedsnr" v="611737" />
	</node>
	<node id="-473815" lat="60.2038166643" lon="5.05283611114">
		<tag k="name" v="Døscherholmen" />
		<tag k="place" v="islet" />
		<tag k="ssr:stedsnr" v="611724" />
	</node>
	<node id="-473814" lat="60.2216416682" lon="5.00360278318">
		<tag k="name" v="Golta" />
		<tag k="place" v="island" />
		<tag k="ssr:stedsnr" v="611699" />
	</node>
	<node id="-473812" lat="60.2894666681" lon="4.94721389503">
		<tag k="name" v="Tårnholmen" />
		<tag k="place" v="islet" />
		<tag k="ssr:stedsnr" v="611461" />
	</node>
	<node id="-473811" lat="60.2959138856" lon="4.95523611346">
		<tag k="name" v="Rabbarosen" />
		<tag k="natural" v="strait" />
		<tag k="ssr:stedsnr" v="611458" />
	</node>
	<node id="-473805" lat="60.1680916669" lon="5.0826833353">
		<tag k="name" v="Mannhola" />
		<tag k="natural" v="bay" />
		<tag k="ssr:stedsnr" v="592997" />
	</node>
	<node id="-473803" lat="60.173986115" lon="5.10560000763">
		<tag k="name" v="Kylleren" />
		<tag k="natural" v="bay" />
		<tag k="ssr:stedsnr" v="592983" />
	</node>
	<node id="-473801" lat="60.2317733496" lon="5.19821959997">
		<tag k="name" v="Sveneset" />
		<tag k="natural" v="cape" />
		<tag k="ssr:stedsnr" v="592934" />
	</node>
	<node id="-473800" lat="60.2011611096" lon="5.17111388414">
		<tag k="name" v="Karihola" />
		<tag k="natural" v="bay" />
		<tag k="ssr:stedsnr" v="592929" />
	</node>
	<node id="-473799" lat="60.2290388927" lon="5.19157777489">
		<tag k="name" v="Åsneset" />
		<tag k="natural" v="cape" />
		<tag k="ssr:stedsnr" v="592920" />
	</node>
	<node id="-473798" lat="60.2355944472" lon="5.20665555437">
		<tag k="name" v="Tøket" />
		<tag k="natural" v="bay" />
		<tag k="ssr:stedsnr" v="592918" />
	</node>
	<node id="-473797" lat="60.2379638869" lon="5.19391110486">
		<tag k="name" v="Skarpaneset" />
		<tag k="natural" v="cape" />
		<tag k="ssr:stedsnr" v="592932" />
	</node>
	<node id="-473794" lat="60.2601638895" lon="4.95611110625">
		<tag k="name" v="Svanaboholmen" />
		<tag k="place" v="islet" />
		<tag k="ssr:stedsnr" v="591862" />
	</node>
	<node id="-473793" lat="60.2676638873" lon="4.96180000492">
		<tag k="name" v="Hoset" />
		<tag k="natural" v="bay" />
		<tag k="ssr:stedsnr" v="591854" />
	</node>
	<node id="-473785" lat="60.2677916666" lon="4.92742778024">
		<tag k="name" v="Vestre Lyngøyvågen" />
		<tag k="natural" v="bay" />
		<tag k="ssr:stedsnr" v="591172" />
	</node>
	<node id="-473778" lat="60.1913666677" lon="5.00876943912">
		<tag k="name" v="Børnesvågsluten" />
		<tag k="place" v="islet" />
		<tag k="ssr:stedsnr" v="590675" />
	</node>
	<node id="-473777" lat="60.1716250005" lon="4.9945388808">
		<tag k="name" v="Hysekriken" />
		<tag k="natural" v="cape" />
		<tag k="ssr:stedsnr" v="590663" />
	</node>
	<node id="-473776" lat="60.2169694439" lon="5.0588722219">
		<tag k="name" v="Bogen" />
		<tag k="natural" v="bay" />
		<tag k="ssr:stedsnr" v="590627" />
	</node>
	<node id="-473775" lat="60.2163888888" lon="5.05494999425">
		<tag k="name" v="Stillesnova" />
		<tag k="natural" v="cape" />
		<tag k="ssr:stedsnr" v="590625" />
	</node>
	<node id="-473774" lat="60.1632055512" lon="5.04516666423">
		<tag k="name" v="Grøneviksneset" />
		<tag k="natural" v="cape" />
		<tag k="ssr:stedsnr" v="590621" />
	</node>
	<node id="-473773" lat="60.2244472246" lon="5.05469444196">
		<tag k="name" v="Kauslandsvika" />
		<tag k="natural" v="bay" />
		<tag k="ssr:stedsnr" v="590618" />
	</node>
	<node id="-473772" lat="60.1972500032" lon="5.00513054883">
		<tag k="name" v="Risøynova" />
		<tag k="natural" v="cape" />
		<tag k="ssr:stedsnr" v="590593" />
	</node>
	<node id="-473770" lat="60.2908666632" lon="5.17287778624">
		<tag k="name" v="Spelemannsneset" />
		<tag k="natural" v="cape" />
		<tag k="ssr:stedsnr" v="590252" />
	</node>
	<node id="-473769" lat="60.3026944485" lon="5.14963333173">
		<tag k="name" v="Kjelen" />
		<tag k="place" v="islet" />
		<tag k="ssr:stedsnr" v="590250" />
	</node>
	<node id="-473768" lat="60.3008944435" lon="5.16103332987">
		<tag k="name" v="Træsvika" />
		<tag k="natural" v="bay" />
		<tag k="ssr:stedsnr" v="590235" />
	</node>
	<node id="-473764" lat="60.2493388858" lon="5.20746388319">
		<tag k="fixme" v="consider seamark:type=rock or natural=shoal" />
		<tag k="name" v="Vestra Lauvholmskjeret" />
		<tag k="place" v="islet" />
		<tag k="ssr:stedsnr" v="590154" />
	</node>
	<node id="-473763" lat="60.2328555522" lon="5.21340278179">
		<tag k="name" v="Vibærholmen" />
		<tag k="place" v="islet" />
		<tag k="ssr:stedsnr" v="572368" />
	</node>
	<node id="-473760" lat="60.2051388878" lon="5.15960554907">
		<tag k="name" v="Straumen" />
		<tag k="natural" v="strait" />
		<tag k="old_name" v="Førdestraumen;Førrestrømmen" />
		<tag k="ssr:stedsnr" v="571163" />
	</node>
	<node id="-473759" lat="60.2851804856" lon="5.13849188936">
		<tag k="fixme" v="consider seamark:type=rock or natural=shoal" />
		<tag k="name" v="Tyssøyskjeret" />
		<tag k="place" v="islet" />
		<tag k="ssr:stedsnr" v="571162" />
	</node>
	<node id="-473758" lat="60.2634638912" lon="4.92013611231">
		<tag k="fixme" v="consider seamark:type=rock or natural=shoal" />
		<tag k="name" v="Skarvaskjeret" />
		<tag k="place" v="islet" />
		<tag k="ssr:stedsnr" v="570079" />
	</node>
	<node id="-473757" lat="60.2392083326" lon="4.9748083403">
		<tag k="name" v="Valøyflua" />
		<tag k="natural" v="shoal" />
		<tag k="place" v="locality" />
		<tag k="ssr:stedsnr" v="570068" />
	</node>
	<node id="-473756" lat="60.2172111132" lon="5.02033334036">
		<tag k="name" v="Kastevågen" />
		<tag k="natural" v="bay" />
		<tag k="ssr:stedsnr" v="570049" />
	</node>
	<node id="-473755" lat="60.2137750024" lon="4.98696388626">
		<tag k="name" v="Hellesfluene" />
		<tag k="natural" v="shoal" />
		<tag k="place" v="locality" />
		<tag k="ssr:stedsnr" v="570047" />
	</node>
	<node id="-473749" lat="60.2227694444" lon="5.19422778307">
		<tag k="name" v="Buarøyna" />
		<tag k="place" v="island" />
		<tag k="ssr:stedsnr" v="551847" />
	</node>
	<node id="-473747" lat="60.2717527773" lon="4.93555278115">
		<tag k="name" v="Svartholmen" />
		<tag k="place" v="islet" />
		<tag k="ssr:stedsnr" v="551479" />
	</node>
	<node id="-473745" lat="60.2518861123" lon="4.92135276974">
		<tag k="name" v="Storeboen" />
		<tag k="natural" v="shoal" />
		<tag k="place" v="locality" />
		<tag k="ssr:stedsnr" v="551454" />
	</node>
	<node id="-473744" lat="60.2538555577" lon="4.94903611931">
		<tag k="name" v="Brosma" />
		<tag k="place" v="islet" />
		<tag k="ssr:stedsnr" v="551452" />
	</node>
	<node id="-473743" lat="60.2919694426" lon="4.97374166393">
		<tag k="name" v="Skora" />
		<tag k="natural" v="bay" />
		<tag k="ssr:stedsnr" v="551445" />
	</node>
	<node id="-473742" lat="60.2673916697" lon="4.9321944481">
		<tag k="name" v="Lyngøyna" />
		<tag k="place" v="islet" />
		<tag k="ssr:stedsnr" v="551426" />
	</node>
	<node id="-473741" lat="60.3020527806" lon="4.95104999061">
		<tag k="name" v="Roksneset" />
		<tag k="natural" v="cape" />
		<tag k="ssr:stedsnr" v="551296" />
	</node>
	<node id="-473738" lat="60.2164111145" lon="5.1583138974">
		<tag k="name" v="Limavågen" />
		<tag k="natural" v="bay" />
		<tag k="ssr:stedsnr" v="550812" />
	</node>
	<node id="-473737" lat="60.1624611099" lon="5.07390000124">
		<tag k="name" v="Helleren" />
		<tag k="natural" v="cape" />
		<tag k="ssr:stedsnr" v="550731" />
	</node>
	<node id="-473736" lat="60.1579777798" lon="5.00494166836">
		<tag k="fixme" v="consider seamark:type=rock or natural=shoal" />
		<tag k="name" v="Skjegget" />
		<tag k="place" v="islet" />
		<tag k="ssr:stedsnr" v="550729" />
	</node>
	<node id="-473735" lat="60.1752138881" lon="4.98537778632">
		<tag k="name" v="Rossmunnen" />
		<tag k="place" v="islet" />
		<tag k="ssr:stedsnr" v="550712" />
	</node>
	<node id="-473734" lat="60.1722111095" lon="4.99965834219">
		<tag k="name" v="Litla Vardøyna" />
		<tag k="place" v="islet" />
		<tag k="ssr:stedsnr" v="550713" />
	</node>
	<node id="-473733" lat="60.2254030796" lon="5.00552534909">
		<tag k="name" v="Goltasundet" />
		<tag k="natural" v="strait" />
		<tag k="ssr:stedsnr" v="550695" />
	</node>
	<node id="-473730" lat="60.2439583347" lon="5.16811111947">
		<tag k="name" v="Tangen" />
		<tag k="natural" v="cape" />
		<tag k="ssr:stedsnr" v="550660" />
	</node>
	<node id="-473728" lat="60.2304722209" lon="4.98132499593">
		<tag k="name" v="Ternneset" />
		<tag k="natural" v="cape" />
		<tag k="ssr:stedsnr" v="550544" />
	</node>
	<node id="-473725" lat="60.200822221" lon="5.07772499965">
		<tag k="name" v="Djupevika" />
		<tag k="natural" v="bay" />
		<tag k="ssr:stedsnr" v="531994" />
	</node>
	<node id="-473724" lat="60.1951805558" lon="5.07652499514">
		<tag k="name" v="Vestreflueneset" />
		<tag k="natural" v="cape" />
		<tag k="ssr:stedsnr" v="531993" />
	</node>
	<node id="-473717" lat="60.2279805581" lon="5.18345278198">
		<tag k="name" v="Fuglavika" />
		<tag k="natural" v="bay" />
		<tag k="ssr:stedsnr" v="531911" />
	</node>
	<node id="-473715" lat="60.2597444478" lon="4.95798055172">
		<tag k="name" v="Skogholmen" />
		<tag k="place" v="islet" />
		<tag k="ssr:stedsnr" v="531887" />
	</node>
	<node id="-473714" lat="60.2582638868" lon="4.95719166464">
		<tag k="name" v="Breivika" />
		<tag k="natural" v="bay" />
		<tag k="ssr:stedsnr" v="531884" />
	</node>
	<node id="-473709" lat="60.2886777801" lon="4.9977833323">
		<tag k="name" v="Lauvøysundet" />
		<tag k="natural" v="strait" />
		<tag k="ssr:stedsnr" v="531785" />
	</node>
	<node id="-473708" lat="60.2514472254" lon="4.98048610775">
		<tag k="name" v="Lavikaneset" />
		<tag k="natural" v="cape" />
		<tag k="ssr:stedsnr" v="531774" />
	</node>
	<node id="-473703" lat="60.1803083315" lon="4.97517222761">
		<tag k="fixme" v="consider seamark:type=rock or natural=shoal" />
		<tag k="name" v="Svarteskjera" />
		<tag k="place" v="islet" />
		<tag k="ssr:stedsnr" v="530686" />
	</node>
	<node id="-473702" lat="60.1896972194" lon="5.00966666781">
		<tag k="name" v="Store Ådnarholmen" />
		<tag k="place" v="islet" />
		<tag k="ssr:stedsnr" v="530679" />
	</node>
	<node id="-473701" lat="60.1629555556" lon="5.01256389249">
		<tag k="name" v="Bleikja" />
		<tag k="place" v="islet" />
		<tag k="ssr:stedsnr" v="530674" />
	</node>
	<node id="-473700" lat="60.1626833342" lon="5.00573610603">
		<tag k="name" v="Russaræva" />
		<tag k="natural" v="bay" />
		<tag k="ssr:stedsnr" v="530672" />
	</node>
	<node id="-473697" lat="60.2368833344" lon="5.0505222222">
		<tag k="name" v="Hølssundet" />
		<tag k="natural" v="strait" />
		<tag k="ssr:stedsnr" v="530636" />
	</node>
	<node id="-473696" lat="60.1985527754" lon="5.03807777745">
		<tag k="name" v="Litle Mosholmen" />
		<tag k="place" v="islet" />
		<tag k="ssr:stedsnr" v="530626" />
	</node>
	<node id="-473695" lat="60.1889750042" lon="5.0415194527">
		<tag k="name" v="Risvika" />
		<tag k="natural" v="bay" />
		<tag k="ssr:stedsnr" v="530613" />
	</node>
	<node id="-473689" lat="60.1814694456" lon="4.98093888414">
		<tag k="name" v="Kylleren" />
		<tag k="natural" v="bay" />
		<tag k="ssr:stedsnr" v="530541" />
	</node>
	<node id="-473688" lat="60.1840527786" lon="4.97698056298">
		<tag k="name" v="Svartekuggen" />
		<tag k="place" v="islet" />
		<tag k="ssr:stedsnr" v="530539" />
	</node>
	<node id="-473687" lat="60.289802775" lon="5.16374167449">
		<tag k="name" v="Slettevikklubben" />
		<tag k="natural" v="cape" />
		<tag k="ssr:stedsnr" v="530286" />
	</node>
	<node id="-473676" lat="60.2674472216" lon="5.09424999188">
		<tag k="name" v="Stekasundet" />
		<tag k="natural" v="strait" />
		<tag k="ssr:stedsnr" v="530190" />
	</node>
	<node id="-473675" lat="60.2681611103" lon="5.09747778446">
		<tag k="name" v="Kylpa" />
		<tag k="natural" v="bay" />
		<tag k="ssr:stedsnr" v="530188" />
	</node>
	<node id="-473674" lat="60.244493247" lon="5.1897972518">
		<tag k="name" v="Langøyholmen" />
		<tag k="place" v="islet" />
		<tag k="ssr:stedsnr" v="530167" />
	</node>
	<node id="-473670" lat="60.1793111078" lon="5.09190000227">
		<tag k="name" v="Jørshammaren" />
		<tag k="natural" v="cape" />
		<tag k="ssr:stedsnr" v="511323" />
	</node>
	<node id="-473669" lat="60.259169442" lon="4.95715833202">
		<tag k="name" v="Nordre Knappen" />
		<tag k="natural" v="cape" />
		<tag k="ssr:stedsnr" v="511255" />
	</node>
	<node id="-473668" lat="60.2440715521" lon="5.1982818635">
		<tag k="alt_name" v="Litle Brattholmen" />
		<tag k="name" v="Rakken" />
		<tag k="place" v="islet" />
		<tag k="ssr:stedsnr" v="511192" />
	</node>
	<node id="-473667" lat="60.2630305553" lon="5.09491944964">
		<tag k="name" v="Kvalvika" />
		<tag k="natural" v="bay" />
		<tag k="ssr:stedsnr" v="511183" />
	</node>
	<node id="-473666" lat="60.1729666657" lon="5.09534443903">
		<tag k="name" v="Storeusholmen" />
		<tag k="place" v="islet" />
		<tag k="ssr:stedsnr" v="510128" />
	</node>
	<node id="-473665" lat="60.1664222246" lon="5.05048054745">
		<tag k="name" v="Indravågen" />
		<tag k="natural" v="bay" />
		<tag k="ssr:stedsnr" v="510124" />
	</node>
	<node id="-473664" lat="60.2566194403" lon="4.98569443862">
		<tag k="name" v="Årvikaflua" />
		<tag k="natural" v="shoal" />
		<tag k="place" v="locality" />
		<tag k="ssr:stedsnr" v="510086" />
	</node>
	<node id="-473663" lat="60.2303083343" lon="5.06158332895">
		<tag k="name" v="Træsneset" />
		<tag k="place" v="islet" />
		<tag k="ssr:stedsnr" v="510070" />
	</node>
	<node id="-473662" lat="60.2092000019" lon="5.00215556337">
		<tag k="name" v="Naleflua" />
		<tag k="natural" v="shoal" />
		<tag k="place" v="locality" />
		<tag k="ssr:stedsnr" v="510060" />
	</node>
	<node id="-473657" lat="60.2725055579" lon="5.09488611111">
		<tag k="name" v="Kyrkjeholmen" />
		<tag k="place" v="islet" />
		<tag k="ssr:stedsnr" v="491938" />
	</node>
	<node id="-473656" lat="60.2598944434" lon="4.93363333248">
		<tag k="fixme" v="consider seamark:type=rock or natural=shoal" />
		<tag k="name" v="Ølnaskjeret" />
		<tag k="place" v="islet" />
		<tag k="ssr:stedsnr" v="491529" />
	</node>
	<node id="-473650" lat="60.2313888908" lon="5.15253611822">
		<tag k="name" v="Kråneset" />
		<tag k="natural" v="cape" />
		<tag k="ssr:stedsnr" v="490821" />
	</node>
	<node id="-473649" lat="60.2743583332" lon="5.13068334107">
		<tag k="name" v="Lundaneset" />
		<tag k="natural" v="cape" />
		<tag k="ssr:stedsnr" v="490815" />
	</node>
	<node id="-473648" lat="60.2864361133" lon="5.17236943777">
		<tag k="name" v="Vestre Synstholmen" />
		<tag k="place" v="islet" />
		<tag k="ssr:stedsnr" v="490813" />
	</node>
	<node id="-473646" lat="60.1819277758" lon="5.07471389126">
		<tag k="name" v="Skjelevika" />
		<tag k="natural" v="bay" />
		<tag k="ssr:stedsnr" v="490738" />
	</node>
	<node id="-473644" lat="60.1849722247" lon="4.97988889153">
		<tag k="name" v="Litle Kvernholmen" />
		<tag k="place" v="islet" />
		<tag k="ssr:stedsnr" v="490713" />
	</node>
	<node id="-473643" lat="60.2160055575" lon="5.01411666198">
		<tag k="name" v="Goltosen" />
		<tag k="natural" v="strait" />
		<tag k="ssr:stedsnr" v="490697" />
	</node>
	<node id="-473639" lat="60.240102775" lon="5.04756665952">
		<tag k="name" v="Vestrepollen" />
		<tag k="natural" v="bay" />
		<tag k="old_name" v="Spildapollen;Spildepollen" />
		<tag k="ssr:stedsnr" v="489592" />
	</node>
	<node id="-473638" lat="60.2229277758" lon="4.98671110398">
		<tag k="name" v="Midtvika" />
		<tag k="natural" v="bay" />
		<tag k="ssr:stedsnr" v="489590" />
	</node>
	<node id="-473635" lat="60.2415888887" lon="4.99429721909">
		<tag k="name" v="Grunnevågen" />
		<tag k="natural" v="bay" />
		<tag k="ssr:stedsnr" v="489571" />
	</node>
	<node id="-473633" lat="60.1691083357" lon="5.10723334162">
		<tag k="name" v="Matholmen" />
		<tag k="place" v="islet" />
		<tag k="ssr:stedsnr" v="471000" />
	</node>
	<node id="-473632" lat="60.1726833348" lon="5.10961943639">
		<tag k="name" v="Kråkevågen" />
		<tag k="natural" v="bay" />
		<tag k="ssr:stedsnr" v="470999" />
	</node>
	<node id="-473630" lat="60.1777550519" lon="5.12977577251">
		<tag k="name" v="Ytsta Fiksneset" />
		<tag k="natural" v="cape" />
		<tag k="ssr:stedsnr" v="470990" />
	</node>
	<node id="-473626" lat="60.2014916629" lon="5.15746944887">
		<tag k="name" v="Setravika" />
		<tag k="natural" v="bay" />
		<tag k="ssr:stedsnr" v="470908" />
	</node>
	<node id="-473625" lat="60.2145249954" lon="5.15956388061">
		<tag k="name" v="Krekebærholmen" />
		<tag k="place" v="islet" />
		<tag k="ssr:stedsnr" v="470905" />
	</node>
	<node id="-473624" lat="60.227625004" lon="5.17961944946">
		<tag k="name" v="Grøningen" />
		<tag k="place" v="islet" />
		<tag k="ssr:stedsnr" v="470898" />
	</node>
	<node id="-473623" lat="60.2260972243" lon="5.17424444922">
		<tag k="name" v="Brakholmen" />
		<tag k="place" v="islet" />
		<tag k="ssr:stedsnr" v="470895" />
	</node>
	<node id="-473622" lat="60.2501499965" lon="4.96620277402">
		<tag k="name" v="Høgholmen" />
		<tag k="place" v="islet" />
		<tag k="ssr:stedsnr" v="470872" />
	</node>
	<node id="-473621" lat="60.2520027739" lon="4.96078056078">
		<tag k="fixme" v="consider seamark:type=rock or natural=shoal" />
		<tag k="name" v="Skjenkjarane" />
		<tag k="place" v="islet" />
		<tag k="ssr:stedsnr" v="470871" />
	</node>
	<node id="-473618" lat="60.2521222242" lon="5.04056111854">
		<tag k="name" v="Træsholmen" />
		<tag k="place" v="islet" />
		<tag k="ssr:stedsnr" v="470787" />
	</node>
	<node id="-473617" lat="60.2985249996" lon="4.95388610736">
		<tag k="name" v="Sandeidet" />
		<tag k="place" v="locality" />
		<tag k="ssr:stedsnr" v="470782" />
	</node>
	<node id="-473616" lat="60.2511583304" lon="4.98345276997">
		<tag k="name" v="Nordre Hovden" />
		<tag k="natural" v="cape" />
		<tag k="ssr:stedsnr" v="470761" />
	</node>
	<node id="-473604" lat="60.2283305571" lon="5.0565249931">
		<tag k="name" v="Knuskenova" />
		<tag k="natural" v="cape" />
		<tag k="ssr:stedsnr" v="469643" />
	</node>
	<node id="-473603" lat="60.2364250008" lon="5.05860555119">
		<tag k="name" v="Nyevågsskaget" />
		<tag k="natural" v="cape" />
		<tag k="ssr:stedsnr" v="469641" />
	</node>
	<node id="-473602" lat="60.2269472181" lon="5.06131110808">
		<tag k="name" v="Vorlandsvika" />
		<tag k="natural" v="bay" />
		<tag k="ssr:stedsnr" v="469634" />
	</node>
	<node id="-473601" lat="60.1913972232" lon="5.03195278278">
		<tag k="fixme" v="consider seamark:type=rock or natural=shoal" />
		<tag k="name" v="Risøyskjeret" />
		<tag k="place" v="islet" />
		<tag k="ssr:stedsnr" v="469613" />
	</node>
	<node id="-473600" lat="60.1612611145" lon="5.05061666586">
		<tag k="name" v="Stålhatten" />
		<tag k="place" v="islet" />
		<tag k="ssr:stedsnr" v="469607" />
	</node>
	<node id="-473599" lat="60.1757944475" lon="5.01854999565">
		<tag k="name" v="Opsøysundet" />
		<tag k="natural" v="strait" />
		<tag k="ssr:stedsnr" v="469602" />
	</node>
	<node id="-473598" lat="60.2095055575" lon="5.05673888422">
		<tag k="name" v="Toftatangen" />
		<tag k="natural" v="cape" />
		<tag k="ssr:stedsnr" v="469591" />
	</node>
	<node id="-473594" lat="60.1862611082" lon="5.01002221388">
		<tag k="name" v="Sandøyskaget" />
		<tag k="natural" v="cape" />
		<tag k="ssr:stedsnr" v="469548" />
	</node>
	<node id="-473593" lat="60.2511333315" lon="5.21331944506">
		<tag k="name" v="Lauvholmen" />
		<tag k="place" v="islet" />
		<tag k="ssr:stedsnr" v="469233" />
	</node>
	<node id="-473592" lat="60.2914750029" lon="5.15045833458">
		<tag k="name" v="Skjervika" />
		<tag k="natural" v="bay" />
		<tag k="ssr:stedsnr" v="469228" />
	</node>
	<node id="-473591" lat="60.2960249992" lon="5.15318889425">
		<tag k="name" v="Tyssøyvågen" />
		<tag k="natural" v="bay" />
		<tag k="ssr:stedsnr" v="469225" />
	</node>
	<node id="-473589" lat="60.2487111082" lon="5.22297221579">
		<tag k="name" v="Kjerringavika" />
		<tag k="natural" v="bay" />
		<tag k="ssr:stedsnr" v="469156" />
	</node>
	<node id="-473588" lat="60.2398638886" lon="5.20574166516">
		<tag k="name" v="Dalsfjæra" />
		<tag k="natural" v="bay" />
		<tag k="ssr:stedsnr" v="469153" />
	</node>
	<node id="-473587" lat="60.2500722215" lon="5.20969722495">
		<tag k="fixme" v="consider seamark:type=rock or natural=shoal" />
		<tag k="name" v="Austra Lauvholmskjeret" />
		<tag k="place" v="islet" />
		<tag k="ssr:stedsnr" v="469149" />
	</node>
	<node id="-473586" lat="60.212858334" lon="5.16072500066">
		<tag k="name" v="Kvalen" />
		<tag k="natural" v="shoal" />
		<tag k="place" v="locality" />
		<tag k="ssr:stedsnr" v="450321" />
	</node>
	<node id="-473585" lat="60.2109305559" lon="5.06558888499">
		<tag k="name" v="Dotholmen" />
		<tag k="place" v="islet" />
		<tag k="ssr:stedsnr" v="450282" />
	</node>
	<node id="-473584" lat="60.1833222219" lon="5.02949443565">
		<tag k="name" v="Myrbærholmsflua" />
		<tag k="natural" v="shoal" />
		<tag k="place" v="locality" />
		<tag k="ssr:stedsnr" v="449116" />
	</node>
	<node id="-473583" lat="60.2683888884" lon="4.9440722249">
		<tag k="name" v="Erholmen" />
		<tag k="place" v="islet" />
		<tag k="ssr:stedsnr" v="449080" />
	</node>
	<node id="-473582" lat="60.2240944414" lon="5.01371388413">
		<tag k="fixme" v="consider seamark:type=rock or natural=shoal" />
		<tag k="name" v="Vinskjeret" />
		<tag k="place" v="islet" />
		<tag k="ssr:stedsnr" v="449068" />
	</node>
	<node id="-473576" lat="60.1561120971" lon="4.99142704635">
		<tag k="name" v="Teksleboen" />
		<tag k="natural" v="shoal" />
		<tag k="place" v="locality" />
		<tag k="ssr:stedsnr" v="480137" />
	</node>
	<node id="-473574" lat="60.1593722223" lon="5.04627499272">
		<tag k="name" v="Flesen" />
		<tag k="place" v="islet" />
		<tag k="ssr:stedsnr" v="430730" />
	</node>
	<node id="-473572" lat="60.2611694422" lon="4.95998333386">
		<tag k="name" v="Svanaboen" />
		<tag k="natural" v="bay" />
		<tag k="ssr:stedsnr" v="430473" />
	</node>
	<node id="-473569" lat="60.2835499989" lon="4.94781944814">
		<tag k="name" v="Skaget" />
		<tag k="place" v="islet" />
		<tag k="ssr:stedsnr" v="430442" />
	</node>
	<node id="-473566" lat="60.1853611143" lon="5.15303333563">
		<tag k="name" v="Kleppholmen" />
		<tag k="place" v="islet" />
		<tag k="ssr:stedsnr" v="429755" />
	</node>
	<node id="-473565" lat="60.1821277775" lon="4.98335833846">
		<tag k="name" v="Kvernholmen" />
		<tag k="place" v="islet" />
		<tag k="ssr:stedsnr" v="429727" />
	</node>
	<node id="-473564" lat="60.1938666697" lon="5.07951389732">
		<tag k="name" v="Russholmen" />
		<tag k="place" v="islet" />
		<tag k="ssr:stedsnr" v="429725" />
	</node>
	<node id="-473563" lat="60.1975125795" lon="5.04993166973">
		<tag k="name" v="Tofta" />
		<tag k="natural" v="cape" />
		<tag k="ssr:stedsnr" v="429702" />
	</node>
	<node id="-473562" lat="60.2106472212" lon="5.00095000254">
		<tag k="name" v="Naleskaget" />
		<tag k="natural" v="cape" />
		<tag k="ssr:stedsnr" v="429676" />
	</node>
	<node id="-473559" lat="60.1561944428" lon="4.99143610468">
		<tag k="name" v="Teksleflua" />
		<tag k="natural" v="shoal" />
		<tag k="place" v="locality" />
		<tag k="ssr:stedsnr" v="268753" />
	</node>
	<node id="-473558" lat="60.180086115" lon="4.9640277772">
		<tag k="name" v="Skileflua" />
		<tag k="natural" v="shoal" />
		<tag k="place" v="locality" />
		<tag k="ssr:stedsnr" v="268451" />
	</node>
	<node id="-473557" lat="60.233322225" lon="5.16924721567">
		<tag k="name" v="Vika" />
		<tag k="natural" v="bay" />
		<tag k="ssr:stedsnr" v="268340" />
	</node>
	<node id="-473554" lat="60.2365888847" lon="5.06025000298">
		<tag k="name" v="Nyvågsneset" />
		<tag k="natural" v="cape" />
		<tag k="ssr:stedsnr" v="268288" />
	</node>
	<node id="-473553" lat="60.2262694432" lon="5.004449997">
		<tag k="name" v="Vomba" />
		<tag k="natural" v="bay" />
		<tag k="ssr:stedsnr" v="268236" />
	</node>
	<node id="-473552" lat="60.2578277805" lon="4.95616389135">
		<tag k="name" v="Søre Knappen" />
		<tag k="natural" v="cape" />
		<tag k="ssr:stedsnr" v="268229" />
	</node>
	<node id="-473551" lat="60.2017749958" lon="5.0754833372">
		<tag k="name" v="Steinslandsflua" />
		<tag k="natural" v="shoal" />
		<tag k="place" v="locality" />
		<tag k="ssr:stedsnr" v="267085" />
	</node>
	<node id="-473550" lat="60.2123583324" lon="5.05344165911">
		<tag k="name" v="Porsvika" />
		<tag k="natural" v="bay" />
		<tag k="ssr:stedsnr" v="267082" />
	</node>
	<node id="-473549" lat="60.2983861068" lon="4.95484166927">
		<tag k="name" v="Ytra Sandeidet" />
		<tag k="place" v="locality" />
		<tag k="ssr:stedsnr" v="267054" />
	</node>
	<node id="-473547" lat="60.2649333323" lon="5.09832500511">
		<tag k="name" v="Kvalvågen" />
		<tag k="natural" v="bay" />
		<tag k="ssr:stedsnr" v="248934" />
	</node>
	<node id="-473545" lat="60.2914611149" lon="5.17668611721">
		<tag k="name" v="Alvøyna" />
		<tag k="place" v="island" />
		<tag k="ssr:stedsnr" v="248851" />
	</node>
	<node id="-473543" lat="60.2526944462" lon="4.95724999803">
		<tag k="name" v="Ommundsholmen" />
		<tag k="place" v="islet" />
		<tag k="ssr:stedsnr" v="248457" />
	</node>
	<node id="-473542" lat="60.2900083304" lon="4.99674722621">
		<tag k="name" v="Lauvøyna" />
		<tag k="place" v="islet" />
		<tag k="ssr:stedsnr" v="248428" />
	</node>
	<node id="-473541" lat="60.283691668" lon="4.99408333355">
		<tag k="name" v="Brotet" />
		<tag k="natural" v="cape" />
		<tag k="ssr:stedsnr" v="248421" />
	</node>
	<node id="-473539" lat="60.2264361145" lon="5.1883583324">
		<tag k="name" v="Kalsneset" />
		<tag k="natural" v="cape" />
		<tag k="ssr:stedsnr" v="247812" />
	</node>
	<node id="-473536" lat="60.162383335" lon="5.03121111948">
		<tag k="name" v="Mulen" />
		<tag k="natural" v="cape" />
		<tag k="ssr:stedsnr" v="247746" />
	</node>
	<node id="-473535" lat="60.1658583365" lon="5.07995276857">
		<tag k="name" v="Træsvika" />
		<tag k="natural" v="bay" />
		<tag k="ssr:stedsnr" v="247742" />
	</node>
	<node id="-473534" lat="60.1745388888" lon="5.0103944416">
		<tag k="name" v="Stora Vardøyna" />
		<tag k="place" v="island" />
		<tag k="ssr:stedsnr" v="247710" />
	</node>
	<node id="-473533" lat="60.1716527795" lon="5.08000278046">
		<tag k="fixme" v="multiple name tags, choose one and add the other to alt_name" />
		<tag k="name" v="Sælsvika;Austra Sælsvika" />
		<tag k="natural" v="bay" />
		<tag k="ssr:stedsnr" v="247706" />
	</node>
	<node id="-473531" lat="60.1954083365" lon="5.00006111186">
		<tag k="name" v="Skrotten" />
		<tag k="place" v="islet" />
		<tag k="ssr:stedsnr" v="247698" />
	</node>
	<node id="-473529" lat="60.1888888876" lon="5.07296111877">
		<tag k="name" v="Timbervika" />
		<tag k="natural" v="bay" />
		<tag k="ssr:stedsnr" v="247689" />
	</node>
	<node id="-473528" lat="60.1925111086" lon="5.03596389069">
		<tag k="name" v="Litla Risøyna" />
		<tag k="place" v="islet" />
		<tag k="ssr:stedsnr" v="247688" />
	</node>
	<node id="-473525" lat="60.2167527788" lon="5.06073333535">
		<tag k="name" v="Store Ramsholmen" />
		<tag k="place" v="islet" />
		<tag k="ssr:stedsnr" v="247675" />
	</node>
	<node id="-473524" lat="60.2047361132" lon="5.03393055946">
		<tag k="name" v="Englabogen" />
		<tag k="natural" v="bay" />
		<tag k="ssr:stedsnr" v="247669" />
	</node>
	<node id="-473523" lat="60.2423416686" lon="5.22491111658">
		<tag k="name" v="Kinnarosen" />
		<tag k="natural" v="strait" />
		<tag k="ssr:stedsnr" v="247651" />
	</node>
	<node id="-473521" lat="60.2441305573" lon="4.97499721456">
		<tag k="name" v="Telavågen" />
		<tag k="natural" v="bay" />
		<tag k="ssr:stedsnr" v="247521" />
	</node>
	<node id="-473519" lat="60.183266665" lon="5.14685554811">
		<tag k="name" v="Laksvågen" />
		<tag k="natural" v="bay" />
		<tag k="ssr:stedsnr" v="228990" />
	</node>
	<node id="-473518" lat="60.1883472237" lon="5.08482500356">
		<tag k="name" v="Grønevika" />
		<tag k="natural" v="bay" />
		<tag k="ssr:stedsnr" v="228986" />
	</node>
	<node id="-473517" lat="60.1749722236" lon="5.11236388338">
		<tag k="name" v="Laksvågen" />
		<tag k="natural" v="bay" />
		<tag k="ssr:stedsnr" v="228981" />
	</node>
	<node id="-473514" lat="60.206927779" lon="5.15931945231">
		<tag k="name" v="Skitnavika" />
		<tag k="natural" v="bay" />
		<tag k="ssr:stedsnr" v="228933" />
	</node>
	<node id="-473513" lat="60.2343527735" lon="5.16620833094">
		<tag k="name" v="Sjøbuneset" />
		<tag k="natural" v="cape" />
		<tag k="ssr:stedsnr" v="228919" />
	</node>
	<node id="-473512" lat="60.2249166633" lon="5.15602777932">
		<tag k="name" v="Skuleneset" />
		<tag k="natural" v="cape" />
		<tag k="ssr:stedsnr" v="228916" />
	</node>
	<node id="-473511" lat="60.230733335" lon="5.21330277468">
		<tag k="name" v="Buøyvågen" />
		<tag k="natural" v="bay" />
		<tag k="ssr:stedsnr" v="228912" />
	</node>
	<node id="-473510" lat="60.2617722213" lon="4.91477499361">
		<tag k="fixme" v="consider seamark:type=rock or natural=shoal" />
		<tag k="name" v="Vestreskjera" />
		<tag k="place" v="islet" />
		<tag k="ssr:stedsnr" v="228875" />
	</node>
	<node id="-473506" lat="60.2978916683" lon="4.97343611437">
		<tag k="name" v="Buoldesvika" />
		<tag k="natural" v="bay" />
		<tag k="ssr:stedsnr" v="228804" />
	</node>
	<node id="-473500" lat="60.1788722186" lon="4.98101110444">
		<tag k="name" v="Meholmsundet" />
		<tag k="natural" v="strait" />
		<tag k="ssr:stedsnr" v="227661" />
	</node>
	<node id="-473498" lat="60.1651277779" lon="4.98334444081">
		<tag k="name" v="Ytste Odden" />
		<tag k="place" v="islet" />
		<tag k="ssr:stedsnr" v="227645" />
	</node>
	<node id="-473497" lat="60.1626194413" lon="4.99754167489">
		<tag k="name" v="Avløypet" />
		<tag k="place" v="islet" />
		<tag k="ssr:stedsnr" v="227641" />
	</node>
	<node id="-473496" lat="60.1706166666" lon="5.01274722635">
		<tag k="name" v="Hundaneset" />
		<tag k="natural" v="cape" />
		<tag k="ssr:stedsnr" v="227636" />
	</node>
	<node id="-473493" lat="60.2947888877" lon="5.17414445142">
		<tag k="fixme" v="consider seamark:type=rock or natural=shoal" />
		<tag k="name" v="Svinaskjeret" />
		<tag k="place" v="islet" />
		<tag k="ssr:stedsnr" v="227234" />
	</node>
	<node id="-473484" lat="60.2447626804" lon="5.20583868118">
		<tag k="name" v="Træsneset" />
		<tag k="natural" v="cape" />
		<tag k="ssr:stedsnr" v="227147" />
	</node>
	<node id="-473481" lat="60.2098500046" lon="5.06855000758">
		<tag k="name" v="Langholmen" />
		<tag k="place" v="islet" />
		<tag k="ssr:stedsnr" v="226635" />
	</node>
	<node id="-473480" lat="60.1853555591" lon="5.01814722844">
		<tag k="name" v="Sandøyvågen" />
		<tag k="natural" v="bay" />
		<tag k="ssr:stedsnr" v="226581" />
	</node>
	<node id="-473479" lat="60.1538305569" lon="5.00683333051">
		<tag k="name" v="Gryteskaget" />
		<tag k="natural" v="cape" />
		<tag k="ssr:stedsnr" v="226549" />
	</node>
	<node id="-473478" lat="60.1612388848" lon="5.00645555713">
		<tag k="fixme" v="consider seamark:type=rock or natural=shoal" />
		<tag k="name" v="Fugløyskjera" />
		<tag k="place" v="islet" />
		<tag k="ssr:stedsnr" v="226544" />
	</node>
	<node id="-473477" lat="60.2297944435" lon="5.19630000225">
		<tag k="name" v="Belekholmen" />
		<tag k="place" v="islet" />
		<tag k="ssr:stedsnr" v="208364" />
	</node>
	<node id="-473476" lat="60.2295638906" lon="5.05491111917">
		<tag k="name" v="Pollen" />
		<tag k="natural" v="strait" />
		<tag k="ssr:stedsnr" v="207254" />
	</node>
	<node id="-473475" lat="60.234492756" lon="5.19993332436">
		<tag k="name" v="Litlebukken" />
		<tag k="place" v="islet" />
		<tag k="ssr:stedsnr" v="207160" />
	</node>
	<node id="-473474" lat="60.2916083294" lon="5.13460556479">
		<tag k="name" v="Nordra Skagavika" />
		<tag k="natural" v="bay" />
		<tag k="ssr:stedsnr" v="207152" />
	</node>
	<node id="-473473" lat="60.1710649723" lon="5.09021309228">
		<tag k="name" v="Litleusholmen" />
		<tag k="place" v="islet" />
		<tag k="ssr:stedsnr" v="207129" />
	</node>
	<node id="-473472" lat="60.1754361072" lon="4.96782777407">
		<tag k="name" v="Rossmunnsflua" />
		<tag k="natural" v="shoal" />
		<tag k="place" v="locality" />
		<tag k="ssr:stedsnr" v="207104" />
	</node>
	<node id="-473471" lat="60.1982861092" lon="4.96538333997">
		<tag k="name" v="Grunnavågsvadet" />
		<tag k="natural" v="shoal" />
		<tag k="place" v="locality" />
		<tag k="ssr:stedsnr" v="207050" />
	</node>
	<node id="-473470" lat="60.2729194447" lon="4.95111388647">
		<tag k="name" v="Granavika" />
		<tag k="natural" v="bay" />
		<tag k="ssr:stedsnr" v="206099" />
	</node>
	<node id="-473469" lat="60.2441249961" lon="4.94436666246">
		<tag k="name" v="Gåsøyane" />
		<tag k="place" v="islet" />
		<tag k="ssr:stedsnr" v="206083" />
	</node>
	<node id="-473468" lat="60.2204416678" lon="5.06836945245">
		<tag k="name" v="Kvernavika" />
		<tag k="natural" v="bay" />
		<tag k="ssr:stedsnr" v="206067" />
	</node>
	<node id="-473461" lat="60.2767888882" lon="5.08972499789">
		<tag k="name" v="Barholmen" />
		<tag k="place" v="islet" />
		<tag k="ssr:stedsnr" v="188558" />
	</node>
	<node id="-473458" lat="60.1513333306" lon="4.922977772">
		<tag k="name" v="Svenshammaren" />
		<tag k="natural" v="shoal" />
		<tag k="place" v="locality" />
		<tag k="ssr:stedsnr" v="187720" />
	</node>
	<node id="-473457" lat="60.1811055588" lon="5.00359166117">
		<tag k="name" v="Skarholmen" />
		<tag k="place" v="islet" />
		<tag k="ssr:stedsnr" v="187705" />
	</node>
	<node id="-473454" lat="60.2168888875" lon="5.16363055714">
		<tag k="name" v="Svenestangen" />
		<tag k="natural" v="cape" />
		<tag k="ssr:stedsnr" v="187858" />
	</node>
	<node id="-473453" lat="60.3048861092" lon="5.14549722423">
		<tag k="name" v="Liaholmane" />
		<tag k="place" v="islet" />
		<tag k="ssr:stedsnr" v="187857" />
	</node>
	<node id="-473452" lat="60.2286555539" lon="5.19518334205">
		<tag k="name" v="Skurvholmen" />
		<tag k="place" v="islet" />
		<tag k="ssr:stedsnr" v="187830" />
	</node>
	<node id="-473450" lat="60.2757861127" lon="4.94883610247">
		<tag k="name" v="Stallen" />
		<tag k="natural" v="cape" />
		<tag k="ssr:stedsnr" v="187410" />
	</node>
	<node id="-473449" lat="60.1932805589" lon="5.02727777581">
		<tag k="name" v="Risøyvågen" />
		<tag k="natural" v="bay" />
		<tag k="ssr:stedsnr" v="186734" />
	</node>
	<node id="-473447" lat="60.2163888863" lon="5.00147777866">
		<tag k="name" v="Vogga" />
		<tag k="natural" v="bay" />
		<tag k="ssr:stedsnr" v="186722" />
	</node>
	<node id="-473444" lat="60.2439916656" lon="5.21582777199">
		<tag k="name" v="Bjelkarøyna" />
		<tag k="place" v="island" />
		<tag k="ssr:stedsnr" v="186702" />
	</node>
	<node id="-473443" lat="60.2246361115" lon="4.96275278243">
		<tag k="fixme" v="consider seamark:type=rock or natural=shoal" />
		<tag k="name" v="Goltasteinen" />
		<tag k="place" v="islet" />
		<tag k="ssr:stedsnr" v="186603" />
	</node>
	<node id="-473441" lat="60.2438027756" lon="4.98141389406">
		<tag k="name" v="Nordra Skogsneset" />
		<tag k="natural" v="cape" />
		<tag k="ssr:stedsnr" v="186590" />
	</node>
	<node id="-473440" lat="60.1727722184" lon="5.10041945037">
		<tag k="name" v="Blokkebærskaget" />
		<tag k="natural" v="cape" />
		<tag k="ssr:stedsnr" v="167998" />
	</node>
	<node id="-473436" lat="60.2297777776" lon="5.17899443852">
		<tag k="name" v="Litlelarken" />
		<tag k="natural" v="bay" />
		<tag k="ssr:stedsnr" v="167918" />
	</node>
	<node id="-473435" lat="60.2319944473" lon="5.21710556149">
		<tag k="name" v="Kalvavika" />
		<tag k="natural" v="bay" />
		<tag k="ssr:stedsnr" v="167911" />
	</node>
	<node id="-473434" lat="60.2662166628" lon="4.94535555895">
		<tag k="fixme" v="consider seamark:type=rock or natural=shoal" />
		<tag k="name" v="Nordra Fløskjeret" />
		<tag k="place" v="islet" />
		<tag k="ssr:stedsnr" v="167861" />
	</node>
	<node id="-473433" lat="60.2649388867" lon="4.94556944103">
		<tag k="fixme" v="consider seamark:type=rock or natural=shoal" />
		<tag k="name" v="Søra Fløskjeret" />
		<tag k="place" v="islet" />
		<tag k="ssr:stedsnr" v="167858" />
	</node>
	<node id="-473429" lat="60.2975000001" lon="4.98241110365">
		<tag k="name" v="Krabbakeila" />
		<tag k="natural" v="bay" />
		<tag k="ssr:stedsnr" v="167786" />
	</node>
	<node id="-473428" lat="60.2898694418" lon="4.94598333047">
		<tag k="name" v="Tårnholmen" />
		<tag k="place" v="islet" />
		<tag k="ssr:stedsnr" v="167778" />
	</node>
	<node id="-473419" lat="60.1844472244" lon="4.98129444981">
		<tag k="name" v="Kvernholmsundet" />
		<tag k="natural" v="strait" />
		<tag k="ssr:stedsnr" v="166656" />
	</node>
	<node id="-473418" lat="60.1829861102" lon="5.04340833361">
		<tag k="name" v="Trælevika" />
		<tag k="natural" v="bay" />
		<tag k="ssr:stedsnr" v="166585" />
	</node>
	<node id="-473417" lat="60.1766999959" lon="5.04384721782">
		<tag k="name" v="Nesjavika" />
		<tag k="natural" v="bay" />
		<tag k="ssr:stedsnr" v="166584" />
	</node>
	<node id="-473416" lat="60.2256861101" lon="5.00748333964">
		<tag k="name" v="Djupavågen" />
		<tag k="natural" v="bay" />
		<tag k="ssr:stedsnr" v="166578" />
	</node>
	<node id="-473415" lat="60.1713472198" lon="5.03182777678">
		<tag k="name" v="Nordra Grøtvika" />
		<tag k="natural" v="bay" />
		<tag k="ssr:stedsnr" v="166569" />
	</node>
	<node id="-473414" lat="60.1874583332" lon="5.03966388993">
		<tag k="name" v="Sønnavindskvilet" />
		<tag k="natural" v="bay" />
		<tag k="ssr:stedsnr" v="166567" />
	</node>
	<node id="-473413" lat="60.178927779" lon="4.99957499539">
		<tag k="name" v="Vardøynova" />
		<tag k="natural" v="cape" />
		<tag k="ssr:stedsnr" v="166551" />
	</node>
	<node id="-473411" lat="60.1653333314" lon="5.02432500912">
		<tag k="name" v="Narøyskaget" />
		<tag k="natural" v="cape" />
		<tag k="ssr:stedsnr" v="166510" />
	</node>
	<node id="-473406" lat="60.2576694423" lon="5.1262111142">
		<tag k="name" v="Molvika" />
		<tag k="natural" v="bay" />
		<tag k="ssr:stedsnr" v="166174" />
	</node>
	<node id="-473404" lat="60.2438383755" lon="5.20170509645">
		<tag k="name" v="Franskmannen" />
		<tag k="place" v="islet" />
		<tag k="ssr:stedsnr" v="166164" />
	</node>
	<node id="-473403" lat="60.2431750002" lon="5.19475832794">
		<tag k="name" v="Nordre Høgholmen" />
		<tag k="place" v="islet" />
		<tag k="ssr:stedsnr" v="166154" />
	</node>
	<node id="-473402" lat="60.2489805527" lon="5.17924445125">
		<tag k="name" v="Spikaren" />
		<tag k="natural" v="shoal" />
		<tag k="place" v="locality" />
		<tag k="ssr:stedsnr" v="146320" />
	</node>
	<node id="-473400" lat="60.244644446" lon="5.20470277645">
		<tag k="name" v="Træsflua" />
		<tag k="natural" v="shoal" />
		<tag k="place" v="locality" />
		<tag k="ssr:stedsnr" v="146152" />
	</node>
	<node id="-473399" lat="60.1826222189" lon="4.99131388651">
		<tag k="name" v="Gunnaren" />
		<tag k="natural" v="shoal" />
		<tag k="place" v="locality" />
		<tag k="ssr:stedsnr" v="146094" />
	</node>
	<node id="-473398" lat="60.2014583321" lon="5.00472499993">
		<tag k="fixme" v="consider seamark:type=rock or natural=shoal" />
		<tag k="name" v="Gauskjera" />
		<tag k="place" v="islet" />
		<tag k="ssr:stedsnr" v="146051" />
	</node>
	<node id="-473397" lat="60.1622777803" lon="5.05919722808">
		<tag k="name" v="Store Stongarholmen" />
		<tag k="place" v="islet" />
		<tag k="ssr:stedsnr" v="145110" />
	</node>
	<node id="-473396" lat="60.1697888877" lon="5.04285833706">
		<tag k="name" v="Vikso" />
		<tag k="place" v="island" />
		<tag k="ssr:stedsnr" v="145108" />
	</node>
	<node id="-473395" lat="60.2980777735" lon="4.95941110304">
		<tag k="name" v="Indra Sandeidet" />
		<tag k="place" v="locality" />
		<tag k="ssr:stedsnr" v="145088" />
	</node>
	<node id="-473394" lat="60.2466222267" lon="4.98203611598">
		<tag k="name" v="Skitflua" />
		<tag k="natural" v="shoal" />
		<tag k="place" v="locality" />
		<tag k="ssr:stedsnr" v="145075" />
	</node>
	<node id="-473390" lat="60.1856361083" lon="5.00240833642">
		<tag k="name" v="Tovo" />
		<tag k="natural" v="shoal" />
		<tag k="place" v="locality" />
		<tag k="ssr:stedsnr" v="268469" />
	</node>
	<node id="-473389" lat="60.1661944407" lon="5.01083611983">
		<tag k="name" v="Fugløyflua" />
		<tag k="natural" v="shoal" />
		<tag k="place" v="locality" />
		<tag k="ssr:stedsnr" v="268463" />
	</node>
	<node id="-473388" lat="60.2548000032" lon="5.12776666237">
		<tag k="name" v="Sangoltshella" />
		<tag k="natural" v="cape" />
		<tag k="ssr:stedsnr" v="127902" />
	</node>
	<node id="-473387" lat="60.2626222237" lon="5.01839443694">
		<tag k="bay" v="fjord" />
		<tag k="name" v="Kørelen" />
		<tag k="natural" v="bay" />
		<tag k="ssr:stedsnr" v="127522" />
	</node>
	<node id="-473386" lat="60.2137499988" lon="5.1453916754">
		<tag k="name" v="Førdespollen" />
		<tag k="natural" v="bay" />
		<tag k="ssr:stedsnr" v="126869" />
	</node>
	<node id="-473385" lat="60.1660805525" lon="5.06684722396">
		<tag k="name" v="Vestra Sælsvika" />
		<tag k="natural" v="bay" />
		<tag k="ssr:stedsnr" v="126721" />
	</node>
	<node id="-473384" lat="60.1886416643" lon="5.06250000313">
		<tag k="alt_name" v="Toftarøyna" />
		<tag k="loc_name" v="Toftøyna" />
		<tag k="name" v="Toftøya" />
		<tag k="place" v="island" />
		<tag k="ssr:stedsnr" v="126692" />
	</node>
	<node id="-473383" lat="60.2290722206" lon="5.15264444663">
		<tag k="name" v="Sundssjøen" />
		<tag k="natural" v="cape" />
		<tag k="ssr:stedsnr" v="126840" />
	</node>
	<node id="-473382" lat="60.2241000031" lon="5.18237777978">
		<tag k="name" v="Visterøyna" />
		<tag k="natural" v="cape" />
		<tag k="ssr:stedsnr" v="126813" />
	</node>
	<node id="-473381" lat="60.2685194477" lon="4.95686943568">
		<tag k="name" v="Søvika" />
		<tag k="natural" v="bay" />
		<tag k="ssr:stedsnr" v="126494" />
	</node>
	<node id="-473380" lat="60.2719861106" lon="4.93088611316">
		<tag k="name" v="Svartholmsfluene" />
		<tag k="natural" v="shoal" />
		<tag k="place" v="locality" />
		<tag k="ssr:stedsnr" v="126492" />
	</node>
	<node id="-473379" lat="60.1733722182" lon="5.11279722444">
		<tag k="name" v="Håkholmen" />
		<tag k="place" v="islet" />
		<tag k="ssr:stedsnr" v="125817" />
	</node>
	<node id="-473378" lat="60.2431277796" lon="5.18798887978">
		<tag k="name" v="Langøyna" />
		<tag k="place" v="islet" />
		<tag k="ssr:stedsnr" v="125704" />
	</node>
	<node id="-473377" lat="60.2402158814" lon="5.17190043717">
		<tag k="name" v="Vågen" />
		<tag k="natural" v="bay" />
		<tag k="ssr:stedsnr" v="125702" />
	</node>
	<node id="-473375" lat="60.2447944457" lon="4.98730555506">
		<tag k="name" v="Selstøvågen" />
		<tag k="natural" v="bay" />
		<tag k="ssr:stedsnr" v="125547" />
	</node>
	<node id="-473374" lat="60.2452333326" lon="4.96131666271">
		<tag k="name" v="Stora Gåsøyna" />
		<tag k="place" v="islet" />
		<tag k="ssr:stedsnr" v="125545" />
	</node>
	<node id="-473373" lat="60.1655361071" lon="5.08010833801">
		<tag k="name" v="Træsneset" />
		<tag k="natural" v="cape" />
		<tag k="ssr:stedsnr" v="107997" />
	</node>
	<node id="-473367" lat="60.2344138929" lon="5.20852500683">
		<tag k="name" v="Søra Træsneset" />
		<tag k="natural" v="cape" />
		<tag k="ssr:stedsnr" v="107935" />
	</node>
	<node id="-473366" lat="60.2351459526" lon="5.21772294866">
		<tag k="name" v="Fløsneset" />
		<tag k="natural" v="cape" />
		<tag k="ssr:stedsnr" v="107931" />
	</node>
	<node id="-473365" lat="60.209258333" lon="5.15266389766">
		<tag k="name" v="Nesjaneset" />
		<tag k="natural" v="cape" />
		<tag k="ssr:stedsnr" v="107922" />
	</node>
	<node id="-473364" lat="60.1984499995" lon="5.1698138919">
		<tag k="name" v="Tangaskaget" />
		<tag k="natural" v="cape" />
		<tag k="ssr:stedsnr" v="107920" />
	</node>
	<node id="-473363" lat="60.2345943865" lon="5.2151592097">
		<tag k="name" v="Djupevika" />
		<tag k="natural" v="bay" />
		<tag k="ssr:stedsnr" v="107907" />
	</node>
	<node id="-473362" lat="60.2654888915" lon="4.93270556163">
		<tag k="name" v="Stykket" />
		<tag k="natural" v="cape" />
		<tag k="ssr:stedsnr" v="107877" />
	</node>
	<node id="-473360" lat="60.2281138853" lon="5.17732778631">
		<tag k="name" v="Kubbholmen" />
		<tag k="place" v="islet" />
		<tag k="ssr:stedsnr" v="107917" />
	</node>
	<node id="-473359" lat="60.2889750027" lon="5.00586111329">
		<tag k="name" v="Kjereidosen" />
		<tag k="natural" v="strait" />
		<tag k="ssr:stedsnr" v="106785" />
	</node>
	<node id="-473348" lat="60.2514388869" lon="5.04173054684">
		<tag k="name" v="Hopen" />
		<tag k="natural" v="bay" />
		<tag k="ssr:stedsnr" v="105789" />
	</node>
	<node id="-473344" lat="60.1724111081" lon="5.04553888384">
		<tag k="name" v="Sundet" />
		<tag k="natural" v="strait" />
		<tag k="ssr:stedsnr" v="105631" />
	</node>
	<node id="-473343" lat="60.2326055575" lon="4.97824166024">
		<tag k="name" v="Seiholene" />
		<tag k="natural" v="bay" />
		<tag k="ssr:stedsnr" v="105601" />
	</node>
	<node id="-473342" lat="60.1608305523" lon="5.05478610298">
		<tag k="name" v="Litleflesen" />
		<tag k="place" v="islet" />
		<tag k="ssr:stedsnr" v="105592" />
	</node>
	<node id="-473341" lat="60.1801000032" lon="5.01418333649">
		<tag k="name" v="Litla Flatøyna" />
		<tag k="place" v="island" />
		<tag k="ssr:stedsnr" v="105585" />
	</node>
	<node id="-473335" lat="60.296061112" lon="5.1684722253">
		<tag k="name" v="Storeklubben" />
		<tag k="natural" v="cape" />
		<tag k="ssr:stedsnr" v="105278" />
	</node>
	<node id="-473334" lat="60.28924722" lon="5.1617138853">
		<tag k="name" v="Børvika" />
		<tag k="natural" v="bay" />
		<tag k="ssr:stedsnr" v="105273" />
	</node>
	<node id="-473333" lat="60.2983888861" lon="5.15002223083">
		<tag k="name" v="Småholmane" />
		<tag k="place" v="islet" />
		<tag k="ssr:stedsnr" v="105250" />
	</node>
	<node id="-473327" lat="60.2634722213" lon="5.09837777747">
		<tag k="name" v="Kvalvikeskaget" />
		<tag k="natural" v="cape" />
		<tag k="ssr:stedsnr" v="105169" />
	</node>
	<node id="-473326" lat="60.2534416625" lon="5.21854721878">
		<tag k="fixme" v="consider seamark:type=rock or natural=shoal" />
		<tag k="name" v="Litla Kinnaskjeret" />
		<tag k="place" v="islet" />
		<tag k="ssr:stedsnr" v="105156" />
	</node>
	<node id="-473325" lat="60.1698000004" lon="5.02075555651">
		<tag k="name" v="Ausa" />
		<tag k="place" v="islet" />
		<tag k="ssr:stedsnr" v="86469" />
	</node>
	<node id="-473324" lat="60.2025249983" lon="5.16552777785">
		<tag k="name" v="Børnestangen" />
		<tag k="natural" v="cape" />
		<tag k="ssr:stedsnr" v="86342" />
	</node>
	<node id="-473323" lat="60.2197487546" lon="5.0210118187">
		<tag k="name" v="Goltastraumen" />
		<tag k="natural" v="strait" />
		<tag k="ssr:stedsnr" v="86310" />
	</node>
	<node id="-473322" lat="60.2385750035" lon="5.16563333274">
		<tag k="name" v="Prøvika" />
		<tag k="natural" v="bay" />
		<tag k="ssr:stedsnr" v="86178" />
	</node>
	<node id="-473321" lat="60.1903055514" lon="5.15953610361">
		<tag k="fixme" v="consider seamark:type=rock or natural=shoal" />
		<tag k="name" v="Høylandsskjeret" />
		<tag k="place" v="islet" />
		<tag k="ssr:stedsnr" v="86176" />
	</node>
	<node id="-473320" lat="60.2019388885" lon="4.96132222313">
		<tag k="name" v="Djupavågsvadet" />
		<tag k="natural" v="shoal" />
		<tag k="place" v="locality" />
		<tag k="ssr:stedsnr" v="86064" />
	</node>
	<node id="-473318" lat="60.2215583332" lon="5.18334166808">
		<tag k="fixme" v="consider seamark:type=rock or natural=shoal" />
		<tag k="name" v="Kaggariskjeret" />
		<tag k="place" v="islet" />
		<tag k="ssr:stedsnr" v="85132" />
	</node>
	<node id="-473317" lat="60.2205666706" lon="5.19574443541">
		<tag k="name" v="Mebunesflua" />
		<tag k="natural" v="shoal" />
		<tag k="place" v="locality" />
		<tag k="ssr:stedsnr" v="85130" />
	</node>
	<node id="-473316" lat="60.1781583348" lon="5.08245554768">
		<tag k="name" v="Breivika" />
		<tag k="natural" v="bay" />
		<tag k="ssr:stedsnr" v="85102" />
	</node>
	<node id="-473315" lat="60.1676194412" lon="5.10301666704">
		<tag k="name" v="Ytstaskjerboen" />
		<tag k="natural" v="shoal" />
		<tag k="place" v="locality" />
		<tag k="ssr:stedsnr" v="85099" />
	</node>
	<node id="-473314" lat="60.1723138896" lon="5.11292500376">
		<tag k="name" v="Bondesahola" />
		<tag k="natural" v="strait" />
		<tag k="ssr:stedsnr" v="85098" />
	</node>
	<node id="-473313" lat="60.1625777753" lon="5.06089999173">
		<tag k="name" v="Litle Stongarholmen" />
		<tag k="place" v="islet" />
		<tag k="ssr:stedsnr" v="85085" />
	</node>
	<node id="-473311" lat="60.2720444402" lon="4.94597222311">
		<tag k="name" v="Granaboen" />
		<tag k="natural" v="shoal" />
		<tag k="place" v="locality" />
		<tag k="ssr:stedsnr" v="85068" />
	</node>
	<node id="-473310" lat="60.2553305572" lon="4.9876611163">
		<tag k="name" v="Årvika" />
		<tag k="natural" v="bay" />
		<tag k="ssr:stedsnr" v="85069" />
	</node>
	<node id="-473309" lat="60.2844844757" lon="5.0724844022">
		<tag k="name" v="Anskotvågen" />
		<tag k="natural" v="bay" />
		<tag k="ssr:stedsnr" v="85052" />
	</node>
	<node id="-473308" lat="60.2332416628" lon="5.05378333873">
		<tag k="fixme" v="consider seamark:type=rock or natural=shoal" />
		<tag k="name" v="Storaskjeret" />
		<tag k="place" v="islet" />
		<tag k="ssr:stedsnr" v="85049" />
	</node>
	<node id="-473307" lat="60.162499997" lon="5.06069166356">
		<tag k="name" v="Stongarholmane" />
		<tag k="place" v="islet" />
		<tag k="ssr:stedsnr" v="268112" />
	</node>
	<node id="-473306" lat="60.1661805552" lon="4.98306388156">
		<tag k="name" v="Lyrodden" />
		<tag k="place" v="islet" />
		<tag k="ssr:stedsnr" v="268106" />
	</node>
	<node id="-473298" lat="60.1436944479" lon="4.93949999896">
		<tag k="name" v="Leirhamaren" />
		<tag k="natural" v="shoal" />
		<tag k="place" v="locality" />
		<tag k="ssr:stedsnr" v="66730" />
	</node>
	<node id="-473297" lat="60.2598694484" lon="4.94952499915">
		<tag k="name" v="Årsholmen" />
		<tag k="place" v="islet" />
		<tag k="ssr:stedsnr" v="66465" />
	</node>
	<node id="-473296" lat="60.2575749974" lon="4.921208334">
		<tag k="name" v="Malmen" />
		<tag k="place" v="islet" />
		<tag k="ssr:stedsnr" v="66464" />
	</node>
	<node id="-473292" lat="60.3038833348" lon="4.96778333744">
		<tag k="alt_name" v="Syltosen, søre;Syltøyosen" />
		<tag k="name" v="Syltosen" />
		<tag k="natural" v="strait" />
		<tag k="ssr:stedsnr" v="66285" />
	</node>
	<node id="-473289" lat="60.1661111125" lon="4.99774722156">
		<tag k="name" v="Litla Fugløyna" />
		<tag k="place" v="island" />
		<tag k="ssr:stedsnr" v="65759" />
	</node>
	<node id="-473288" lat="60.1595972246" lon="5.01630556062">
		<tag k="fixme" v="consider seamark:type=rock or natural=shoal" />
		<tag k="name" v="Seiskjeret" />
		<tag k="place" v="islet" />
		<tag k="ssr:stedsnr" v="65755" />
	</node>
	<node id="-473287" lat="60.1855638899" lon="5.01459999657">
		<tag k="name" v="Sandøyna" />
		<tag k="place" v="islet" />
		<tag k="ssr:stedsnr" v="65735" />
	</node>
	<node id="-473286" lat="60.1782638927" lon="4.98110278062">
		<tag k="name" v="Meholmen" />
		<tag k="place" v="islet" />
		<tag k="ssr:stedsnr" v="65733" />
	</node>
	<node id="-473285" lat="60.1760166688" lon="5.02823610473">
		<tag k="alt_name" v="Toftøyosen" />
		<tag k="name" v="Toftosen" />
		<tag k="natural" v="strait" />
		<tag k="ssr:stedsnr" v="65730" />
	</node>
	<node id="-473284" lat="60.1741391262" lon="5.00186972698">
		<tag k="name" v="Smetto" />
		<tag k="natural" v="strait" />
		<tag k="ssr:stedsnr" v="65724" />
	</node>
	<node id="-473282" lat="60.1870361113" lon="4.98866110579">
		<tag k="name" v="Kvernholmsosen" />
		<tag k="natural" v="strait" />
		<tag k="ssr:stedsnr" v="65708" />
	</node>
	<node id="-473281" lat="60.1895583338" lon="5.01770832612">
		<tag k="name" v="Søra Risøysundet" />
		<tag k="natural" v="strait" />
		<tag k="ssr:stedsnr" v="65706" />
	</node>
	<node id="-473278" lat="60.2054166698" lon="5.0227750023">
		<tag k="name" v="Nordøyna" />
		<tag k="place" v="islet" />
		<tag k="ssr:stedsnr" v="65688" />
	</node>
	<node id="-473275" lat="60.2258527758" lon="4.98501389486">
		<tag k="name" v="Sandvika" />
		<tag k="natural" v="bay" />
		<tag k="ssr:stedsnr" v="65546" />
	</node>
	<node id="-473274" lat="60.234294444" lon="4.98589722793">
		<tag k="name" v="Slumpavågen" />
		<tag k="natural" v="bay" />
		<tag k="ssr:stedsnr" v="65543" />
	</node>
	<node id="-473269" lat="60.1705277767" lon="5.11226665876">
		<tag k="name" v="Fyrholmen" />
		<tag k="place" v="islet" />
		<tag k="ssr:stedsnr" v="46999" />
	</node>
	<node id="-473268" lat="60.1977499992" lon="5.07318333653">
		<tag k="name" v="Rottholet" />
		<tag k="natural" v="bay" />
		<tag k="ssr:stedsnr" v="46989" />
	</node>
	<node id="-473266" lat="60.1753388851" lon="5.08491389347">
		<tag k="name" v="Kobbavika" />
		<tag k="natural" v="bay" />
		<tag k="ssr:stedsnr" v="46979" />
	</node>
	<node id="-473260" lat="60.2097666631" lon="5.1567944397">
		<tag k="name" v="Apalvika" />
		<tag k="natural" v="bay" />
		<tag k="ssr:stedsnr" v="46919" />
	</node>
	<node id="-473259" lat="60.2745472254" lon="4.94903055684">
		<tag k="name" v="Sildhola" />
		<tag k="natural" v="bay" />
		<tag k="ssr:stedsnr" v="46853" />
	</node>
	<node id="-473256" lat="60.288561109" lon="4.9456777786">
		<tag k="fixme" v="consider seamark:type=rock or natural=shoal" />
		<tag k="name" v="Skjenkjarane" />
		<tag k="place" v="islet" />
		<tag k="ssr:stedsnr" v="45757" />
	</node>
	<node id="-473255" lat="60.2876138919" lon="4.94860556015">
		<tag k="name" v="Risaræva" />
		<tag k="natural" v="cape" />
		<tag k="ssr:stedsnr" v="45756" />
	</node>
	<node id="-473249" lat="60.1739861127" lon="5.00210834014">
		<tag k="name" v="Litla Vardøysundet" />
		<tag k="natural" v="strait" />
		<tag k="ssr:stedsnr" v="44676" />
	</node>
	<node id="-473246" lat="60.1921305527" lon="5.04415554769">
		<tag k="name" v="Kvernavika" />
		<tag k="natural" v="bay" />
		<tag k="ssr:stedsnr" v="44502" />
	</node>
	<node id="-473245" lat="60.1801388848" lon="5.01943334157">
		<tag k="fixme" v="consider seamark:type=rock or natural=shoal" />
		<tag k="name" v="Flatøyskjeret" />
		<tag k="place" v="islet" />
		<tag k="ssr:stedsnr" v="44580" />
	</node>
	<node id="-473244" lat="60.1646444428" lon="5.02399722174">
		<tag k="name" v="Narøyvika" />
		<tag k="natural" v="bay" />
		<tag k="ssr:stedsnr" v="44571" />
	</node>
	<node id="-473243" lat="60.2973972221" lon="5.16494722889">
		<tag k="name" v="Støene" />
		<tag k="natural" v="bay" />
		<tag k="ssr:stedsnr" v="44242" />
	</node>
	<node id="-473236" lat="60.2407798802" lon="5.2022120285">
		<tag k="name" v="Stongholmen" />
		<tag k="place" v="islet" />
		<tag k="ssr:stedsnr" v="44154" />
	</node>
	<node id="-473235" lat="60.2385722228" lon="5.12879167475">
		<tag k="name" v="Breivika" />
		<tag k="natural" v="bay" />
		<tag k="ssr:stedsnr" v="44145" />
	</node>
	<node id="-473233" lat="60.2482444428" lon="4.95327777058">
		<tag k="name" v="Sængen" />
		<tag k="place" v="islet" />
		<tag k="ssr:stedsnr" v="25312" />
	</node>
	<node id="-473232" lat="60.2649138902" lon="5.11412778525">
		<tag k="name" v="Hopen" />
		<tag k="natural" v="bay" />
		<tag k="ssr:stedsnr" v="25307" />
	</node>
	<node id="-473231" lat="60.2233722242" lon="5.01954999103">
		<tag k="name" v="Midthølen" />
		<tag k="natural" v="bay" />
		<tag k="ssr:stedsnr" v="25290" />
	</node>
	<node id="-473230" lat="60.1760249965" lon="5.11681665911">
		<tag k="name" v="Grunnaflua" />
		<tag k="natural" v="shoal" />
		<tag k="place" v="locality" />
		<tag k="ssr:stedsnr" v="25127" />
	</node>
	<node id="-473229" lat="60.2968694462" lon="4.96408611915">
		<tag k="name" v="Nordra Hola" />
		<tag k="natural" v="bay" />
		<tag k="ssr:stedsnr" v="24074" />
	</node>
	<node id="-473228" lat="60.2478805538" lon="4.93485833181">
		<tag k="name" v="Vestra Lambholmsflua" />
		<tag k="natural" v="shoal" />
		<tag k="place" v="locality" />
		<tag k="ssr:stedsnr" v="24062" />
	</node>
	<node id="-473227" lat="60.2213500035" lon="4.97880832582">
		<tag k="name" v="Breiflua" />
		<tag k="natural" v="shoal" />
		<tag k="place" v="locality" />
		<tag k="ssr:stedsnr" v="24057" />
	</node>
	<node id="-473218" lat="60.2504694448" lon="4.97682500363">
		<tag k="name" v="Nordre Stuvholmen" />
		<tag k="place" v="islet" />
		<tag k="ssr:stedsnr" v="6526" />
	</node>
	<node id="-473215" lat="60.2515916686" lon="5.21968056403">
		<tag k="name" v="Litlakinna" />
		<tag k="place" v="islet" />
		<tag k="ssr:stedsnr" v="5857" />
	</node>
	<node id="-473214" lat="60.2536249954" lon="5.22376944121">
		<tag k="name" v="Storakinna" />
		<tag k="place" v="island" />
		<tag k="ssr:stedsnr" v="5853" />
	</node>
	<node id="-473211" lat="60.2915138883" lon="4.97818333716">
		<tag k="name" v="Skorosen" />
		<tag k="natural" v="strait" />
		<tag k="ssr:stedsnr" v="5450" />
	</node>
	<node id="-473207" lat="60.1986416655" lon="5.07598333834">
		<tag k="bay" v="fjord" />
		<tag k="name" v="Austefjorden" />
		<tag k="natural" v="bay" />
		<tag k="ssr:stedsnr" v="4753" />
	</node>
	<node id="-473206" lat="60.175955552" lon="4.99298055264">
		<tag k="fixme" v="consider seamark:type=rock or natural=shoal" />
		<tag k="name" v="Brørne" />
		<tag k="place" v="islet" />
		<tag k="ssr:stedsnr" v="4750" />
	</node>
	<node id="-473205" lat="60.1867722226" lon="5.02400277645">
		<tag k="name" v="Geitøyna" />
		<tag k="place" v="islet" />
		<tag k="ssr:stedsnr" v="4746" />
	</node>
	<node id="-473204" lat="60.1952583365" lon="5.01965277388">
		<tag k="name" v="Stora Risøyna" />
		<tag k="place" v="island" />
		<tag k="ssr:stedsnr" v="4730" />
	</node>
	<node id="-473202" lat="60.1944888911" lon="5.05087500821">
		<tag k="name" v="Leirvågen" />
		<tag k="natural" v="bay" />
		<tag k="ssr:stedsnr" v="4715" />
	</node>
	<node id="-473201" lat="60.2169999975" lon="5.02088055124">
		<tag k="name" v="Ådnavika" />
		<tag k="natural" v="bay" />
		<tag k="ssr:stedsnr" v="4706" />
	</node>
	<node id="-473200" lat="60.2158916646" lon="4.99362499621">
		<tag k="fixme" v="consider seamark:type=rock or natural=shoal" />
		<tag k="name" v="Voggeskjeret" />
		<tag k="place" v="islet" />
		<tag k="ssr:stedsnr" v="4703" />
	</node>
	<node id="-473198" lat="60.2422333357" lon="5.20002500706">
		<tag k="name" v="Bukken" />
		<tag k="place" v="island" />
		<tag k="ssr:stedsnr" v="4676" />
	</node>
	<node id="-473196" lat="60.2405194466" lon="4.98361665908">
		<tag k="name" v="Broka" />
		<tag k="natural" v="bay" />
		<tag k="ssr:stedsnr" v="4542" />
	</node>
	<node id="-473194" lat="60.2267435821" lon="5.06264831891">
		<tag k="name" v="Vorlandssjøen" />
		<tag k="natural" v="bay" />
		<tag k="ssr:stedsnr" v="991218" />
	</node>
	<node id="-473193" lat="60.2049121082" lon="5.07261430142">
		<tag k="name" v="Steinslandsbåen" />
		<tag k="natural" v="shoal" />
		<tag k="place" v="locality" />
		<tag k="ssr:stedsnr" v="991217" />
	</node>
	<node id="-473192" lat="60.2372719246" lon="5.19837578691">
		<tag k="name" v="Lyrholmen" />
		<tag k="place" v="islet" />
		<tag k="ssr:stedsnr" v="991198" />
	</node>
	<node id="-473190" lat="60.2317500271" lon="5.20415739858">
		<tag k="name" v="Lerøyflaket" />
		<tag k="place" v="locality" />
		<tag k="ssr:stedsnr" v="991125" />
	</node>
	<node id="-473189" lat="60.1683514716" lon="4.98592494442">
		<tag k="name" v="Oddane" />
		<tag k="place" v="islet" />
		<tag k="ssr:stedsnr" v="991099" />
	</node>
	<node id="-473188" lat="60.1574076015" lon="5.11690733628">
		<tag k="bay" v="fjord" />
		<tag k="name" v="Krossfjorden" />
		<tag k="natural" v="bay" />
		<tag k="ssr:stedsnr" v="947512" />
	</node>
	<node id="-473184" lat="60.1819694453" lon="5.10950834208">
		<tag k="name" v="Jaktafløytet" />
		<tag k="natural" v="bay" />
		<tag k="ssr:stedsnr" v="896980" />
	</node>
	<node id="-473176" lat="60.2364761109" lon="5.19196719199">
		<tag k="name" v="Seljehølen" />
		<tag k="natural" v="bay" />
		<tag k="ssr:stedsnr" v="895881" />
	</node>
	<node id="-473175" lat="60.2490222236" lon="4.98325833693">
		<tag k="name" v="Stegavika" />
		<tag k="natural" v="bay" />
		<tag k="ssr:stedsnr" v="895857" />
	</node>
	<node id="-473174" lat="60.2798111135" lon="4.95444445236">
		<tag k="name" v="Søra Kaldagjona" />
		<tag k="natural" v="bay" />
		<tag k="ssr:stedsnr" v="895848" />
	</node>
	<node id="-473161" lat="60.2052527782" lon="5.04848055696">
		<tag k="name" v="Låkaneset" />
		<tag k="natural" v="cape" />
		<tag k="ssr:stedsnr" v="895043" />
	</node>
	<node id="-473155" lat="60.164308331" lon="4.99353611978">
		<tag k="fixme" v="consider seamark:type=rock or natural=shoal" />
		<tag k="name" v="Drivskjeret" />
		<tag k="place" v="islet" />
		<tag k="ssr:stedsnr" v="894688" />
	</node>
	<node id="-473154" lat="60.1667250004" lon="4.99316943916">
		<tag k="name" v="Drevsundet" />
		<tag k="natural" v="strait" />
		<tag k="ssr:stedsnr" v="894686" />
	</node>
	<node id="-473151" lat="60.2212277776" lon="5.05609166333">
		<tag k="name" v="Espevika" />
		<tag k="natural" v="bay" />
		<tag k="ssr:stedsnr" v="894645" />
	</node>
	<node id="-473150" lat="60.2264361127" lon="5.05382777751">
		<tag k="name" v="Kverndalsvika" />
		<tag k="natural" v="bay" />
		<tag k="ssr:stedsnr" v="894642" />
	</node>
	<node id="-473149" lat="60.1997194442" lon="5.02798334131">
		<tag k="name" v="Store Mosholmen" />
		<tag k="place" v="islet" />
		<tag k="ssr:stedsnr" v="894634" />
	</node>
	<node id="-473148" lat="60.2016416622" lon="5.03002499733">
		<tag k="name" v="Færøyskaget" />
		<tag k="natural" v="cape" />
		<tag k="ssr:stedsnr" v="894620" />
	</node>
	<node id="-473147" lat="60.1790388889" lon="5.04369444321">
		<tag k="name" v="Tyrnevika" />
		<tag k="natural" v="bay" />
		<tag k="ssr:stedsnr" v="894617" />
	</node>
	<node id="-473146" lat="60.183080554" lon="4.97915555965">
		<tag k="name" v="Kvitekuggen" />
		<tag k="place" v="islet" />
		<tag k="ssr:stedsnr" v="894567" />
	</node>
	<node id="-473144" lat="60.2910612464" lon="5.13611585278">
		<tag k="name" v="Skaget" />
		<tag k="natural" v="cape" />
		<tag k="ssr:stedsnr" v="894281" />
	</node>
	<node id="-473143" lat="60.3056972248" lon="5.15483889177">
		<tag k="name" v="Nordre Trettholmen" />
		<tag k="place" v="islet" />
		<tag k="ssr:stedsnr" v="894277" />
	</node>
	<node id="-473140" lat="60.2428415038" lon="5.20203684356">
		<tag k="name" v="Peraskaget" />
		<tag k="place" v="islet" />
		<tag k="ssr:stedsnr" v="894165" />
	</node>
	<node id="-473139" lat="60.1936666634" lon="5.15795832921">
		<tag k="name" v="Laksnotskaget" />
		<tag k="natural" v="cape" />
		<tag k="ssr:stedsnr" v="410991" />
	</node>
	<node id="-473138" lat="60.1839888874" lon="5.14887777822">
		<tag k="name" v="Adnaskaget" />
		<tag k="natural" v="cape" />
		<tag k="ssr:stedsnr" v="410990" />
	</node>
	<node id="-473137" lat="60.2346750028" lon="5.14858888627">
		<tag k="name" v="Aurebekkvika" />
		<tag k="natural" v="bay" />
		<tag k="ssr:stedsnr" v="410989" />
	</node>
	<node id="-473134" lat="60.1806805525" lon="5.11149721575">
		<tag k="name" v="Sveneset" />
		<tag k="natural" v="cape" />
		<tag k="ssr:stedsnr" v="410973" />
	</node>
	<node id="-473128" lat="60.2309966216" lon="5.19563948292">
		<tag k="name" v="Landbelekholmen" />
		<tag k="place" v="islet" />
		<tag k="ssr:stedsnr" v="410923" />
	</node>
	<node id="-473127" lat="60.2617472229" lon="4.95840555525">
		<tag k="name" v="Inste Kvitholmen" />
		<tag k="place" v="islet" />
		<tag k="ssr:stedsnr" v="410871" />
	</node>
	<node id="-473126" lat="60.2776027742" lon="5.00071388117">
		<tag k="name" v="Nordra Resavika" />
		<tag k="natural" v="bay" />
		<tag k="ssr:stedsnr" v="410856" />
	</node>
	<node id="-473125" lat="60.2380861122" lon="5.05740555358">
		<tag k="name" v="Knappen" />
		<tag k="natural" v="cape" />
		<tag k="ssr:stedsnr" v="410777" />
	</node>
	<node id="-473118" lat="60.2424527779" lon="5.06363611194">
		<tag k="name" v="Mjelkevika" />
		<tag k="natural" v="bay" />
		<tag k="ssr:stedsnr" v="409777" />
	</node>
	<node id="-473114" lat="60.1646527763" lon="5.05336666806">
		<tag k="name" v="Vardaleggen" />
		<tag k="natural" v="cape" />
		<tag k="ssr:stedsnr" v="409612" />
	</node>
	<node id="-473113" lat="60.1698472208" lon="5.05553333922">
		<tag k="name" v="Sukkerholmen" />
		<tag k="place" v="islet" />
		<tag k="ssr:stedsnr" v="409609" />
	</node>
	<node id="-473112" lat="60.2043416643" lon="5.04276945238">
		<tag k="name" v="Glesnesholmen" />
		<tag k="place" v="islet" />
		<tag k="ssr:stedsnr" v="409608" />
	</node>
	<node id="-473111" lat="60.2067611112" lon="5.05719167356">
		<tag k="name" v="Ådnavika" />
		<tag k="natural" v="bay" />
		<tag k="ssr:stedsnr" v="409599" />
	</node>
	<node id="-473110" lat="60.2060277787" lon="5.02843332885">
		<tag k="name" v="Høset" />
		<tag k="natural" v="strait" />
		<tag k="ssr:stedsnr" v="409598" />
	</node>
	<node id="-473109" lat="60.1671361112" lon="5.02632778445">
		<tag k="name" v="Øyarholmen" />
		<tag k="place" v="islet" />
		<tag k="ssr:stedsnr" v="409578" />
	</node>
	<node id="-473102" lat="60.2029250019" lon="5.03971944424">
		<tag k="name" v="Tjørnaskaget" />
		<tag k="natural" v="cape" />
		<tag k="ssr:stedsnr" v="408570" />
	</node>
	<node id="-473098" lat="60.2513604644" lon="5.22948457032">
		<tag k="name" v="Åleknappsundet" />
		<tag k="natural" v="strait" />
		<tag k="ssr:stedsnr" v="408236" />
	</node>
	<node id="-473097" lat="60.1759305564" lon="5.02415278661">
		<tag k="name" v="Likholmen" />
		<tag k="place" v="islet" />
		<tag k="ssr:stedsnr" v="389485" />
	</node>
	<node id="-473096" lat="60.1861861143" lon="5.08608333107">
		<tag k="name" v="Lendinga" />
		<tag k="natural" v="bay" />
		<tag k="ssr:stedsnr" v="389342" />
	</node>
	<node id="-473094" lat="60.199547224" lon="5.07912499193">
		<tag k="name" v="Grunnevikshausen" />
		<tag k="natural" v="shoal" />
		<tag k="place" v="locality" />
		<tag k="ssr:stedsnr" v="389302" />
	</node>
	<node id="-473093" lat="60.2023277818" lon="5.01511388423">
		<tag k="name" v="Hella" />
		<tag k="place" v="island" />
		<tag k="ssr:stedsnr" v="389281" />
	</node>
	<node id="-473092" lat="60.2825750038" lon="4.95227222699">
		<tag k="name" v="Skagavika" />
		<tag k="natural" v="bay" />
		<tag k="ssr:stedsnr" v="388076" />
	</node>
	<node id="-473091" lat="60.2385333329" lon="4.98006389372">
		<tag k="fixme" v="consider seamark:type=rock or natural=shoal" />
		<tag k="name" v="Staklaboskjeret" />
		<tag k="place" v="islet" />
		<tag k="ssr:stedsnr" v="388070" />
	</node>
	<node id="-473090" lat="60.2414166644" lon="4.98113888069">
		<tag k="name" v="Søra Skogsneset" />
		<tag k="natural" v="cape" />
		<tag k="ssr:stedsnr" v="388063" />
	</node>
	<node id="-473089" lat="60.2357055597" lon="5.05261665876">
		<tag k="name" v="Spildholmflua" />
		<tag k="natural" v="shoal" />
		<tag k="place" v="locality" />
		<tag k="ssr:stedsnr" v="388061" />
	</node>
</osm>
