<?xml version="1.0" encoding="UTF-8"?>
<osm generator="osmapis" version="0.6">
	<node id="-474110" lat="60.2855416656" lon="4.99986667333">
		<tag k="name" v="Ryggjastykket" />
		<tag k="place" v="locality" />
		<tag k="ssr:stedsnr" v="227811" />
	</node>
	<node id="-473725" lat="60.2524416646" lon="5.05425555804">
		<tag k="name" v="Revadalsmyra" />
		<tag k="natural" v="wetland" />
		<tag k="ssr:stedsnr" v="409806" />
	</node>
	<node id="-473724" lat="60.2546388867" lon="5.0054972222">
		<tag k="name" v="Såtemyra" />
		<tag k="natural" v="wetland" />
		<tag k="ssr:stedsnr" v="409804" />
	</node>
	<node id="-473975" lat="60.1817083357" lon="5.09721666387">
		<tag k="name" v="Vardamyra" />
		<tag k="natural" v="wetland" />
		<tag k="ssr:stedsnr" v="107942" />
	</node>
	<node id="-474480" lat="60.2457722191" lon="5.2141027853">
		<tag k="name" v="Rotamyra" />
		<tag k="natural" v="wetland" />
		<tag k="ssr:stedsnr" v="652183" />
	</node>
	<node id="-474457" lat="60.2314749984" lon="4.98988054698">
		<tag k="name" v="Seiholeteigen" />
		<tag k="place" v="locality" />
		<tag k="ssr:stedsnr" v="651556" />
	</node>
	<node id="-473962" lat="60.2915138921" lon="5.15314444151">
		<tag k="name" v="Høljamyra" />
		<tag k="natural" v="wetland" />
		<tag k="ssr:stedsnr" v="106216" />
	</node>
	<node id="-474729" lat="60.2354027764" lon="5.00566667215">
		<tag k="name" v="Storamyra" />
		<tag k="natural" v="wetland" />
		<tag k="ssr:stedsnr" v="854530" />
	</node>
	<node id="-473575" lat="60.1982000018" lon="5.15538888562">
		<tag k="name" v="Steinamyra" />
		<tag k="natural" v="wetland" />
		<tag k="ssr:stedsnr" v="289970" />
	</node>
	<node id="-473574" lat="60.1849055567" lon="5.13938610858">
		<tag k="name" v="Storamyra" />
		<tag k="natural" v="wetland" />
		<tag k="ssr:stedsnr" v="289957" />
	</node>
	<node id="-473956" lat="60.2702722188" lon="4.95954443682">
		<tag k="name" v="Granamyra" />
		<tag k="natural" v="wetland" />
		<tag k="ssr:stedsnr" v="105829" />
	</node>
	<node id="-474722" lat="60.1922583327" lon="5.10913889654">
		<tag k="name" v="Reikemyra" />
		<tag k="natural" v="wetland" />
		<tag k="ssr:stedsnr" v="835939" />
	</node>
	<node id="-474721" lat="60.1939083338" lon="5.15043056273">
		<tag k="name" v="Osphaugmyra" />
		<tag k="natural" v="wetland" />
		<tag k="ssr:stedsnr" v="835938" />
	</node>
	<node id="-473947" lat="60.2215333307" lon="5.02835556194">
		<tag k="name" v="Mehagen" />
		<tag k="place" v="locality" />
		<tag k="ssr:stedsnr" v="105548" />
	</node>
	<node id="-474458" lat="60.2274305582" lon="5.03588055548">
		<tag k="name" v="Koldalshaugmyra" />
		<tag k="natural" v="wetland" />
		<tag k="ssr:stedsnr" v="651559" />
	</node>
	<node id="-474713" lat="60.2615944464" lon="5.01477777352">
		<tag k="name" v="Breiamyra" />
		<tag k="natural" v="wetland" />
		<tag k="ssr:stedsnr" v="834818" />
	</node>
	<node id="-474839" lat="60.2122166662" lon="5.13157221471">
		<tag k="name" v="Træna" />
		<tag k="place" v="locality" />
		<tag k="ssr:stedsnr" v="956968" />
	</node>
	<node id="-474326" lat="60.2093722224" lon="5.13685000089">
		<tag k="name" v="Hestastallsmyra" />
		<tag k="natural" v="wetland" />
		<tag k="ssr:stedsnr" v="531953" />
	</node>
	<node id="-474325" lat="60.2319499993" lon="5.0759555627">
		<tag k="name" v="Langavassmyra" />
		<tag k="natural" v="wetland" />
		<tag k="ssr:stedsnr" v="531937" />
	</node>
	<node id="-474836" lat="60.2127472192" lon="5.10212777322">
		<tag k="name" v="Grindamyra" />
		<tag k="natural" v="wetland" />
		<tag k="ssr:stedsnr" v="956944" />
	</node>
	<node id="-474835" lat="60.1917138914" lon="5.08920832581">
		<tag k="name" v="Grunnavågsmyra" />
		<tag k="natural" v="wetland" />
		<tag k="ssr:stedsnr" v="956935" />
	</node>
	<node id="-473547" lat="60.1755805599" lon="5.01300833837">
		<tag k="name" v="Storamyra" />
		<tag k="natural" v="wetland" />
		<tag k="ssr:stedsnr" v="287571" />
	</node>
	<node id="-474389" lat="60.2506388865" lon="5.05027500338">
		<tag k="name" v="Storamyra" />
		<tag k="natural" v="wetland" />
		<tag k="ssr:stedsnr" v="590813" />
	</node>
	<node id="-474312" lat="60.2720833362" lon="4.95690000858">
		<tag k="name" v="Pitemyra" />
		<tag k="natural" v="wetland" />
		<tag k="ssr:stedsnr" v="530810" />
	</node>
	<node id="-474695" lat="60.2288055569" lon="5.05246666648">
		<tag k="name" v="Sletta" />
		<tag k="place" v="locality" />
		<tag k="ssr:stedsnr" v="834540" />
	</node>
	<node id="-474694" lat="60.2195249964" lon="5.00689444949">
		<tag k="name" v="Storåkeren" />
		<tag k="place" v="locality" />
		<tag k="ssr:stedsnr" v="834532" />
	</node>
	<node id="-473782" lat="60.1875555553" lon="5.09658611982">
		<tag k="name" v="Stølsmyra" />
		<tag k="natural" v="wetland" />
		<tag k="ssr:stedsnr" v="895909" />
	</node>
	<node id="-474817" lat="60.2557805557" lon="4.95808332565">
		<tag k="name" v="Bleket" />
		<tag k="place" v="locality" />
		<tag k="ssr:stedsnr" v="955822" />
	</node>
	<node id="-473783" lat="60.2024333363" lon="5.14386111617">
		<tag k="name" v="Torvmyra" />
		<tag k="natural" v="wetland" />
		<tag k="ssr:stedsnr" v="895928" />
	</node>
	<node id="-473654" lat="60.2224833349" lon="5.07222500263">
		<tag k="name" v="Formarmyra" />
		<tag k="natural" v="wetland" />
		<tag k="ssr:stedsnr" v="349956" />
	</node>
	<node id="-474292" lat="60.2511222215" lon="5.12849165791">
		<tag k="name" v="Hellemyrane" />
		<tag k="natural" v="wetland" />
		<tag k="ssr:stedsnr" v="530266" />
	</node>
	<node id="-474291" lat="60.2432527741" lon="5.11889166272">
		<tag k="name" v="Setramyra" />
		<tag k="natural" v="wetland" />
		<tag k="ssr:stedsnr" v="530264" />
	</node>
	<node id="-474290" lat="60.2516499979" lon="5.07649999456">
		<tag k="name" v="Klettamyra" />
		<tag k="natural" v="wetland" />
		<tag k="ssr:stedsnr" v="530262" />
	</node>
	<node id="-474030" lat="60.2423305577" lon="5.05912500629">
		<tag k="name" v="Djupevikmyra" />
		<tag k="natural" v="wetland" />
		<tag k="ssr:stedsnr" v="166814" />
	</node>
	<node id="-473769" lat="60.2491999982" lon="5.08228333563">
		<tag k="name" v="Høljamyra" />
		<tag k="natural" v="wetland" />
		<tag k="ssr:stedsnr" v="895204" />
	</node>
	<node id="-473765" lat="60.2512138927" lon="5.00668888369">
		<tag k="name" v="Øyjorda" />
		<tag k="place" v="locality" />
		<tag k="ssr:stedsnr" v="894836" />
	</node>
	<node id="-474402" lat="60.2139777769" lon="5.13675833116">
		<tag k="name" v="Heimamyra" />
		<tag k="natural" v="wetland" />
		<tag k="ssr:stedsnr" v="591937" />
	</node>
	<node id="-473691" lat="60.2381055568" lon="5.14941665876">
		<tag k="name" v="Ura" />
		<tag k="natural" v="scree" />
		<tag k="ssr:stedsnr" v="389163" />
	</node>
	<node id="-474656" lat="60.2288055532" lon="5.13102500107">
		<tag k="name" v="Skogatjørnsmyra" />
		<tag k="natural" v="wetland" />
		<tag k="ssr:stedsnr" v="774951" />
	</node>
	<node id="-473946" lat="60.2253444425" lon="5.03798056425">
		<tag k="name" v="Holsmyra" />
		<tag k="natural" v="wetland" />
		<tag k="ssr:stedsnr" v="105547" />
	</node>
	<node id="-473945" lat="60.1865861099" lon="5.04695556217">
		<tag k="name" v="Rotamyra" />
		<tag k="natural" v="wetland" />
		<tag k="ssr:stedsnr" v="105542" />
	</node>
	<node id="-473870" lat="60.1997722233" lon="5.15183888143">
		<tag k="name" v="Engjamyra" />
		<tag k="natural" v="wetland" />
		<tag k="ssr:stedsnr" v="46949" />
	</node>
	<node id="-473868" lat="60.2257722188" lon="5.10543055392">
		<tag k="name" v="Engjamyra" />
		<tag k="natural" v="wetland" />
		<tag k="ssr:stedsnr" v="46928" />
	</node>
	<node id="-473735" lat="60.2280805579" lon="5.12135278574">
		<tag k="name" v="Langamyra" />
		<tag k="natural" v="wetland" />
		<tag k="ssr:stedsnr" v="410944" />
	</node>
</osm>
