<?xml version="1.0" encoding="UTF-8"?>
<osm generator="osmapis" version="0.6">
	<node id="-474112" lat="60.2581388925" lon="5.01391111068">
		<tag k="name" v="Naustdalen" />
		<tag k="natural" v="valley" />
		<tag k="place" v="locality" />
		<tag k="ssr:stedsnr" v="835842" />
	</node>
	<node id="-474108" lat="60.2041861122" lon="5.09861944685">
		<tag k="name" v="Katthaugane" />
		<tag k="natural" v="hill" />
		<tag k="place" v="locality" />
		<tag k="ssr:stedsnr" v="834931" />
	</node>
	<node id="-474107" lat="60.2150944466" lon="5.07160278342">
		<tag k="name" v="Bergsleitet" />
		<tag k="natural" v="hill" />
		<tag k="place" v="locality" />
		<tag k="ssr:stedsnr" v="834930" />
	</node>
	<node id="-473080" lat="60.2503222236" lon="5.1131083322">
		<tag k="fixme" v="consider natural=peak for the most distinct mountains in the district" />
		<tag k="name" v="Sangoltshornet" />
		<tag k="natural" v="hill" />
		<tag k="place" v="locality" />
		<tag k="ssr:stedsnr" v="369883" />
	</node>
	<node id="-474103" lat="60.1774222258" lon="5.05211389147">
		<tag k="name" v="Ravnaberget" />
		<tag k="natural" v="hill" />
		<tag k="place" v="locality" />
		<tag k="ssr:stedsnr" v="834689" />
	</node>
	<node id="-474102" lat="60.215333337" lon="5.03007499066">
		<tag k="name" v="Heimadalshaugane" />
		<tag k="natural" v="hill" />
		<tag k="place" v="locality" />
		<tag k="ssr:stedsnr" v="834687" />
	</node>
	<node id="-473107" lat="60.2303638897" lon="5.07203888001">
		<tag k="name" v="Vardhaugen" />
		<tag k="natural" v="hill" />
		<tag k="place" v="locality" />
		<tag k="ssr:stedsnr" v="409535" />
	</node>
	<node id="-474100" lat="60.1938055583" lon="5.0536611198">
		<tag k="name" v="Ramshelleren" />
		<tag k="natural" v="hill" />
		<tag k="place" v="locality" />
		<tag k="ssr:stedsnr" v="834638" />
	</node>
	<node id="-473499" lat="60.1949833341" lon="5.01949999613">
		<tag k="name" v="Liavarden" />
		<tag k="natural" v="hill" />
		<tag k="place" v="locality" />
		<tag k="ssr:stedsnr" v="227648" />
	</node>
	<node id="-473071" lat="60.2206999968" lon="5.10266943684">
		<tag k="fixme" v="consider natural=peak for the most distinct mountains in the district" />
		<tag k="name" v="Randifjellet" />
		<tag k="natural" v="hill" />
		<tag k="place" v="locality" />
		<tag k="ssr:stedsnr" v="368850" />
	</node>
	<node id="-473070" lat="60.1964138864" lon="5.12700554981">
		<tag k="fixme" v="consider natural=peak for the most distinct mountains in the district" />
		<tag k="name" v="Kleppaksla" />
		<tag k="natural" v="hill" />
		<tag k="place" v="locality" />
		<tag k="ssr:stedsnr" v="368818" />
	</node>
	<node id="-473960" lat="60.2756333317" lon="4.97866388648">
		<tag k="name" v="Haugen" />
		<tag k="natural" v="hill" />
		<tag k="place" v="locality" />
		<tag k="ssr:stedsnr" v="713833" />
	</node>
	<node id="-474090" lat="60.2202388865" lon="5.11942221746">
		<tag k="name" v="Eidslia" />
		<tag k="natural" v="slope" />
		<tag k="place" v="locality" />
		<tag k="ssr:stedsnr" v="834566" />
	</node>
	<node id="-474089" lat="60.22371667" lon="5.07369165891">
		<tag k="name" v="Storehaugen" />
		<tag k="natural" v="hill" />
		<tag k="place" v="locality" />
		<tag k="ssr:stedsnr" v="834557" />
	</node>
	<node id="-473619" lat="60.249494442" lon="4.98958889275">
		<tag k="name" v="Håvarden" />
		<tag k="natural" v="hill" />
		<tag k="place" v="locality" />
		<tag k="ssr:stedsnr" v="470826" />
	</node>
	<node id="-473573" lat="60.2756749958" lon="5.07795000567">
		<tag k="name" v="Storhaugen" />
		<tag k="natural" v="hill" />
		<tag k="place" v="locality" />
		<tag k="ssr:stedsnr" v="430474" />
	</node>
	<node id="-474084" lat="60.2546444454" lon="5.09813333882">
		<tag k="name" v="Litleåsen" />
		<tag k="place" v="locality" />
		<tag k="ssr:stedsnr" v="834220" />
	</node>
	<node id="-474083" lat="60.2614361125" lon="5.10578054838">
		<tag k="name" v="Storhaugen" />
		<tag k="natural" v="hill" />
		<tag k="place" v="locality" />
		<tag k="ssr:stedsnr" v="834195" />
	</node>
	<node id="-474082" lat="60.2869027802" lon="5.12067500245">
		<tag k="fixme" v="consider natural=peak for the most distinct mountains in the district" />
		<tag k="name" v="Indrafjellet" />
		<tag k="natural" v="hill" />
		<tag k="place" v="locality" />
		<tag k="ssr:stedsnr" v="834188" />
	</node>
	<node id="-473056" lat="60.2383249972" lon="5.21346389493">
		<tag k="name" v="Tyska" />
		<tag k="natural" v="hill" />
		<tag k="place" v="locality" />
		<tag k="ssr:stedsnr" v="349990" />
	</node>
	<node id="-473055" lat="60.2033333365" lon="5.13655834193">
		<tag k="name" v="Skjenet" />
		<tag k="place" v="locality" />
		<tag k="ssr:stedsnr" v="349988" />
	</node>
	<node id="-473054" lat="60.2296416681" lon="5.12149167009">
		<tag k="name" v="Søre Breistegen" />
		<tag k="natural" v="valley" />
		<tag k="place" v="locality" />
		<tag k="ssr:stedsnr" v="349970" />
	</node>
	<node id="-473053" lat="60.2371083305" lon="5.11727500018">
		<tag k="fixme" v="consider natural=peak for the most distinct mountains in the district" />
		<tag k="name" v="Bullåsen" />
		<tag k="natural" v="hill" />
		<tag k="place" v="locality" />
		<tag k="ssr:stedsnr" v="349968" />
	</node>
	<node id="-473116" lat="60.2359833325" lon="5.03088889792">
		<tag k="name" v="Djupedalen" />
		<tag k="natural" v="valley" />
		<tag k="place" v="locality" />
		<tag k="ssr:stedsnr" v="409671" />
	</node>
	<node id="-473561" lat="60.2333666687" lon="5.09510833015">
		<tag k="fixme" v="consider natural=peak for the most distinct mountains in the district" />
		<tag k="name" v="Brakafjellet" />
		<tag k="natural" v="hill" />
		<tag k="place" v="locality" />
		<tag k="ssr:stedsnr" v="429672" />
	</node>
	<node id="-473104" lat="60.2199111111" lon="5.11457778435">
		<tag k="name" v="Tangen" />
		<tag k="place" v="locality" />
		<tag k="ssr:stedsnr" v="409082" />
	</node>
	<node id="-473044" lat="60.2423611141" lon="5.02387777951">
		<tag k="name" v="Såta" />
		<tag k="natural" v="hill" />
		<tag k="place" v="locality" />
		<tag k="ssr:stedsnr" v="349880" />
	</node>
	<node id="-473043" lat="60.2531611084" lon="4.98970554721">
		<tag k="fixme" v="consider natural=peak for the most distinct mountains in the district" />
		<tag k="name" v="Buafjellet" />
		<tag k="natural" v="hill" />
		<tag k="place" v="locality" />
		<tag k="ssr:stedsnr" v="349865" />
	</node>
	<node id="-473042" lat="60.2670638859" lon="4.98957223088">
		<tag k="name" v="Ådnakletten" />
		<tag k="natural" v="hill" />
		<tag k="place" v="locality" />
		<tag k="ssr:stedsnr" v="349840" />
	</node>
	<node id="-474064" lat="60.198661108" lon="5.11372221737">
		<tag k="name" v="Fansaren" />
		<tag k="natural" v="hill" />
		<tag k="place" v="locality" />
		<tag k="ssr:stedsnr" v="793794" />
	</node>
	<node id="-473038" lat="60.1740500012" lon="5.00511944914">
		<tag k="name" v="Huldastova" />
		<tag k="place" v="locality" />
		<tag k="ssr:stedsnr" v="349687" />
	</node>
	<node id="-473165" lat="60.1693444474" lon="5.07969166859">
		<tag k="name" v="Stålhaugen" />
		<tag k="natural" v="hill" />
		<tag k="place" v="locality" />
		<tag k="ssr:stedsnr" v="895515" />
	</node>
	<node id="-473036" lat="60.2129194476" lon="5.12524999213">
		<tag k="name" v="Raunedalen" />
		<tag k="natural" v="valley" />
		<tag k="place" v="locality" />
		<tag k="ssr:stedsnr" v="348952" />
	</node>
	<node id="-473035" lat="60.2264166669" lon="5.02914999738">
		<tag k="name" v="Hestamaurhaugane" />
		<tag k="natural" v="hill" />
		<tag k="place" v="locality" />
		<tag k="ssr:stedsnr" v="348659" />
	</node>
	<node id="-473034" lat="60.2074638843" lon="5.06750554805">
		<tag k="name" v="Ærvikhaugen" />
		<tag k="natural" v="hill" />
		<tag k="place" v="locality" />
		<tag k="ssr:stedsnr" v="348646" />
	</node>
	<node id="-473033" lat="60.2131583328" lon="5.00799444179">
		<tag k="name" v="Sødalen" />
		<tag k="natural" v="valley" />
		<tag k="place" v="locality" />
		<tag k="ssr:stedsnr" v="348609" />
	</node>
	<node id="-474055" lat="60.2359607191" lon="4.99133448267">
		<tag k="name" v="Sauhaugen" />
		<tag k="natural" v="hill" />
		<tag k="place" v="locality" />
		<tag k="ssr:stedsnr" v="793590" />
	</node>
	<node id="-474054" lat="60.2321777757" lon="5.03292222437">
		<tag k="name" v="Storenipen" />
		<tag k="natural" v="hill" />
		<tag k="place" v="locality" />
		<tag k="ssr:stedsnr" v="793584" />
	</node>
	<node id="-473505" lat="60.2309583308" lon="5.08129721845">
		<tag k="name" v="Kleiva" />
		<tag k="natural" v="slope" />
		<tag k="place" v="locality" />
		<tag k="ssr:stedsnr" v="227942" />
	</node>
	<node id="-473027" lat="60.1849805598" lon="5.09369444808">
		<tag k="fixme" v="consider natural=peak for the most distinct mountains in the district" />
		<tag k="name" v="Arareirsfjellet" />
		<tag k="natural" v="hill" />
		<tag k="place" v="locality" />
		<tag k="ssr:stedsnr" v="348553" />
	</node>
	<node id="-473026" lat="60.2016916638" lon="5.05313888341">
		<tag k="name" v="Kalvbakken" />
		<tag k="natural" v="slope" />
		<tag k="place" v="locality" />
		<tag k="ssr:stedsnr" v="348544" />
	</node>
	<node id="-473537" lat="60.1830861076" lon="5.11666389664">
		<tag k="name" v="Knappen" />
		<tag k="natural" v="hill" />
		<tag k="place" v="locality" />
		<tag k="ssr:stedsnr" v="247756" />
	</node>
	<node id="-473024" lat="60.1770277796" lon="5.00870833493">
		<tag k="name" v="Loshyttehaugen" />
		<tag k="natural" v="hill" />
		<tag k="place" v="locality" />
		<tag k="ssr:stedsnr" v="348535" />
	</node>
	<node id="-473023" lat="60.1830972253" lon="5.10155832718">
		<tag k="name" v="Skuggen" />
		<tag k="natural" v="hill" />
		<tag k="place" v="locality" />
		<tag k="ssr:stedsnr" v="348513" />
	</node>
	<node id="-473021" lat="60.1742222198" lon="5.01494445362">
		<tag k="name" v="Storhaugen" />
		<tag k="natural" v="hill" />
		<tag k="place" v="locality" />
		<tag k="ssr:stedsnr" v="348490" />
	</node>
	<node id="-474044" lat="60.2522027745" lon="5.0141944377">
		<tag k="name" v="Småstegane" />
		<tag k="natural" v="hill" />
		<tag k="place" v="locality" />
		<tag k="ssr:stedsnr" v="774853" />
	</node>
	<node id="-473019" lat="60.2445250039" lon="5.08317499639">
		<tag k="name" v="Svehaugen" />
		<tag k="natural" v="hill" />
		<tag k="place" v="locality" />
		<tag k="ssr:stedsnr" v="348196" />
	</node>
	<node id="-473018" lat="60.2808472217" lon="5.12896666896">
		<tag k="name" v="Hansafjellet" />
		<tag k="natural" v="hill" />
		<tag k="place" v="locality" />
		<tag k="ssr:stedsnr" v="348182" />
	</node>
	<node id="-473017" lat="60.2517777769" lon="5.08591388348">
		<tag k="name" v="Snørstegen" />
		<tag k="place" v="locality" />
		<tag k="ssr:stedsnr" v="348172" />
	</node>
	<node id="-474039" lat="60.1999444482" lon="5.10283333354">
		<tag k="fixme" v="consider natural=peak for the most distinct mountains in the district" />
		<tag k="name" v="Lamhusfjellet" />
		<tag k="natural" v="hill" />
		<tag k="place" v="locality" />
		<tag k="ssr:stedsnr" v="773965" />
	</node>
	<node id="-474038" lat="60.2060888926" lon="5.11321943616">
		<tag k="name" v="Vetadalen" />
		<tag k="natural" v="valley" />
		<tag k="place" v="locality" />
		<tag k="ssr:stedsnr" v="773962" />
	</node>
	<node id="-474037" lat="60.2011916704" lon="5.11360278429">
		<tag k="name" v="Kleppadalen" />
		<tag k="natural" v="valley" />
		<tag k="place" v="locality" />
		<tag k="ssr:stedsnr" v="773959" />
	</node>
	<node id="-474036" lat="60.2287861101" lon="5.09258055029">
		<tag k="name" v="Blombakken" />
		<tag k="natural" v="slope" />
		<tag k="place" v="locality" />
		<tag k="ssr:stedsnr" v="773938" />
	</node>
	<node id="-474035" lat="60.1624055542" lon="5.03438610788">
		<tag k="name" v="Snerten" />
		<tag k="place" v="locality" />
		<tag k="ssr:stedsnr" v="773665" />
	</node>
	<node id="-474034" lat="60.1795111089" lon="5.05949999541">
		<tag k="name" v="Ørnhaugen" />
		<tag k="natural" v="hill" />
		<tag k="place" v="locality" />
		<tag k="ssr:stedsnr" v="773658" />
	</node>
	<node id="-473483" lat="60.1983361156" lon="5.11309167269">
		<tag k="name" v="Gjona" />
		<tag k="place" v="locality" />
		<tag k="ssr:stedsnr" v="227069" />
	</node>
	<node id="-474213" lat="60.2016250011" lon="5.12023611444">
		<tag k="name" v="Ramnaberget" />
		<tag k="natural" v="hill" />
		<tag k="place" v="locality" />
		<tag k="ssr:stedsnr" v="955970" />
	</node>
	<node id="-473004" lat="60.2650611079" lon="5.11798889546">
		<tag k="name" v="Slåtto" />
		<tag k="natural" v="slope" />
		<tag k="place" v="locality" />
		<tag k="ssr:stedsnr" v="105207" />
	</node>
	<node id="-474027" lat="60.2273416662" lon="5.08448056289">
		<tag k="fixme" v="consider natural=peak for the most distinct mountains in the district" />
		<tag k="name" v="Såta" />
		<tag k="natural" v="hill" />
		<tag k="place" v="locality" />
		<tag k="ssr:stedsnr" v="773530" />
	</node>
	<node id="-474026" lat="60.226894447" lon="5.07387499969">
		<tag k="name" v="Vollane" />
		<tag k="natural" v="hill" />
		<tag k="place" v="locality" />
		<tag k="ssr:stedsnr" v="773526" />
	</node>
	<node id="-474025" lat="60.2346805516" lon="5.07734999599">
		<tag k="name" v="Storhaugen" />
		<tag k="natural" v="hill" />
		<tag k="place" v="locality" />
		<tag k="ssr:stedsnr" v="773522" />
	</node>
	<node id="-474024" lat="60.1936027792" lon="5.12246389407">
		<tag k="name" v="Mannen" />
		<tag k="natural" v="hill" />
		<tag k="place" v="locality" />
		<tag k="ssr:stedsnr" v="773518" />
	</node>
	<node id="-474023" lat="60.2551138912" lon="5.12831666322">
		<tag k="name" v="Helleskaget" />
		<tag k="natural" v="hill" />
		<tag k="place" v="locality" />
		<tag k="ssr:stedsnr" v="773194" />
	</node>
	<node id="-474022" lat="60.246802781" lon="5.09304721442">
		<tag k="name" v="Kjerringastegen" />
		<tag k="place" v="locality" />
		<tag k="ssr:stedsnr" v="773191" />
	</node>
	<node id="-473509" lat="60.2476583302" lon="5.05842778718">
		<tag k="name" v="Kyrkjehaugen" />
		<tag k="natural" v="hill" />
		<tag k="place" v="locality" />
		<tag k="ssr:stedsnr" v="228870" />
	</node>
	<node id="-473508" lat="60.2429694463" lon="5.04166666057">
		<tag k="name" v="Blokkebærhaugen" />
		<tag k="natural" v="hill" />
		<tag k="place" v="locality" />
		<tag k="ssr:stedsnr" v="228866" />
	</node>
	<node id="-473507" lat="60.2933416705" lon="4.9702861061">
		<tag k="name" v="Kavlane" />
		<tag k="place" v="locality" />
		<tag k="ssr:stedsnr" v="228855" />
	</node>
	<node id="-474017" lat="60.2119027737" lon="5.07364445173">
		<tag k="name" v="Seilberget" />
		<tag k="place" v="locality" />
		<tag k="ssr:stedsnr" v="773075" />
	</node>
	<node id="-473504" lat="60.2069027752" lon="5.12095834161">
		<tag k="fixme" v="consider natural=peak for the most distinct mountains in the district" />
		<tag k="name" v="Lyngfjellet" />
		<tag k="natural" v="hill" />
		<tag k="place" v="locality" />
		<tag k="ssr:stedsnr" v="227927" />
	</node>
	<node id="-474216" lat="60.2633611125" lon="4.96488610935">
		<tag k="name" v="Brunndalen" />
		<tag k="natural" v="valley" />
		<tag k="place" v="locality" />
		<tag k="ssr:stedsnr" v="956832" />
	</node>
	<node id="-473501" lat="60.2316000035" lon="5.0457555467">
		<tag k="name" v="Vardane" />
		<tag k="natural" v="hill" />
		<tag k="place" v="locality" />
		<tag k="ssr:stedsnr" v="227662" />
	</node>
	<node id="-472987" lat="60.2449305517" lon="5.09976944124">
		<tag k="name" v="Dommedal" />
		<tag k="natural" v="valley" />
		<tag k="place" v="locality" />
		<tag k="ssr:stedsnr" v="308630" />
	</node>
	<node id="-473121" lat="60.2026833332" lon="5.09543888809">
		<tag k="name" v="Kyrkjestølen" />
		<tag k="natural" v="hill" />
		<tag k="place" v="locality" />
		<tag k="ssr:stedsnr" v="409932" />
	</node>
	<node id="-473495" lat="60.1910749961" lon="5.07446945219">
		<tag k="name" v="Torskaberget" />
		<tag k="natural" v="hill" />
		<tag k="place" v="locality" />
		<tag k="ssr:stedsnr" v="227572" />
	</node>
	<node id="-473494" lat="60.1943666641" lon="5.11338054737">
		<tag k="name" v="Stordalen" />
		<tag k="natural" v="valley" />
		<tag k="place" v="locality" />
		<tag k="ssr:stedsnr" v="227544" />
	</node>
	<node id="-473172" lat="60.2482083318" lon="5.04894444584">
		<tag k="name" v="Sjonakletten" />
		<tag k="natural" v="hill" />
		<tag k="place" v="locality" />
		<tag k="ssr:stedsnr" v="895831" />
	</node>
	<node id="-474004" lat="60.1969111093" lon="5.0630638881">
		<tag k="name" v="Hagastølen" />
		<tag k="natural" v="hill" />
		<tag k="place" v="locality" />
		<tag k="ssr:stedsnr" v="753102" />
	</node>
	<node id="-473490" lat="60.2545111153" lon="5.0732527734">
		<tag k="name" v="Vardhaugen" />
		<tag k="natural" v="hill" />
		<tag k="place" v="locality" />
		<tag k="ssr:stedsnr" v="227203" />
	</node>
	<node id="-473489" lat="60.2699444413" lon="5.10482499539">
		<tag k="name" v="Vindhammaren" />
		<tag k="natural" v="hill" />
		<tag k="place" v="locality" />
		<tag k="ssr:stedsnr" v="227199" />
	</node>
	<node id="-473488" lat="60.2774416678" lon="5.12477221362">
		<tag k="fixme" v="consider natural=peak for the most distinct mountains in the district" />
		<tag k="name" v="Kjempa" />
		<tag k="natural" v="hill" />
		<tag k="ssr:stedsnr" v="227200" />
	</node>
	<node id="-473487" lat="60.2395944481" lon="5.18006110365">
		<tag k="name" v="Klubben" />
		<tag k="natural" v="hill" />
		<tag k="place" v="locality" />
		<tag k="ssr:stedsnr" v="227188" />
	</node>
	<node id="-473485" lat="60.253905557" lon="5.0838722169">
		<tag k="name" v="Brota" />
		<tag k="natural" v="cliff" />
		<tag k="ssr:stedsnr" v="227177" />
	</node>
	<node id="-472972" lat="60.2376000027" lon="5.1787166595">
		<tag k="name" v="Kverndalen" />
		<tag k="natural" v="valley" />
		<tag k="place" v="locality" />
		<tag k="ssr:stedsnr" v="289979" />
	</node>
	<node id="-472971" lat="60.2375305519" lon="5.10061945362">
		<tag k="name" v="Lauvbotnen" />
		<tag k="natural" v="valley" />
		<tag k="place" v="locality" />
		<tag k="ssr:stedsnr" v="289978" />
	</node>
	<node id="-473482" lat="60.2038361129" lon="5.07670556057">
		<tag k="name" v="Hammaren" />
		<tag k="natural" v="hill" />
		<tag k="place" v="locality" />
		<tag k="ssr:stedsnr" v="227055" />
	</node>
	<node id="-473990" lat="60.2280972222" lon="5.10755555354">
		<tag k="fixme" v="consider natural=peak for the most distinct mountains in the district" />
		<tag k="name" v="Storlåsen" />
		<tag k="natural" v="hill" />
		<tag k="place" v="locality" />
		<tag k="ssr:stedsnr" v="733813" />
	</node>
	<node id="-472964" lat="60.2547805559" lon="5.00902500416">
		<tag k="name" v="Såtene" />
		<tag k="natural" v="hill" />
		<tag k="place" v="locality" />
		<tag k="ssr:stedsnr" v="289883" />
	</node>
	<node id="-472963" lat="60.1907305542" lon="5.14028611858">
		<tag k="name" v="Heia" />
		<tag k="natural" v="hill" />
		<tag k="place" v="locality" />
		<tag k="ssr:stedsnr" v="288966" />
	</node>
	<node id="-473985" lat="60.1727250012" lon="5.06377777809">
		<tag k="fixme" v="consider natural=peak for the most distinct mountains in the district" />
		<tag k="name" v="Sælsfjellet" />
		<tag k="natural" v="hill" />
		<tag k="place" v="locality" />
		<tag k="ssr:stedsnr" v="733693" />
	</node>
	<node id="-472960" lat="60.2511305563" lon="5.01968888072">
		<tag k="name" v="Smalhushaugen" />
		<tag k="natural" v="hill" />
		<tag k="place" v="locality" />
		<tag k="ssr:stedsnr" v="288828" />
	</node>
	<node id="-472959" lat="60.2649222216" lon="4.95887222985">
		<tag k="name" v="Midtre Selsteinen" />
		<tag k="natural" v="hill" />
		<tag k="place" v="locality" />
		<tag k="ssr:stedsnr" v="288811" />
	</node>
	<node id="-474200" lat="60.2191666694" lon="5.08093888245">
		<tag k="name" v="Heiane" />
		<tag k="natural" v="hill" />
		<tag k="place" v="locality" />
		<tag k="ssr:stedsnr" v="955553" />
	</node>
	<node id="-472956" lat="60.1913916646" lon="5.01540277376">
		<tag k="name" v="Torskaberget" />
		<tag k="place" v="locality" />
		<tag k="ssr:stedsnr" v="288197" />
	</node>
	<node id="-472955" lat="60.2332833355" lon="5.05116944967">
		<tag k="name" v="Torskeberga" />
		<tag k="place" v="locality" />
		<tag k="ssr:stedsnr" v="288198" />
	</node>
	<node id="-472954" lat="60.256266667" lon="5.07725833274">
		<tag k="name" v="Skjenet" />
		<tag k="place" v="locality" />
		<tag k="ssr:stedsnr" v="288193" />
	</node>
	<node id="-473975" lat="60.2256027823" lon="5.08972500041">
		<tag k="name" v="Vorlandstua" />
		<tag k="natural" v="hill" />
		<tag k="place" v="locality" />
		<tag k="ssr:stedsnr" v="732719" />
	</node>
	<node id="-472950" lat="60.171725" lon="5.04045278204">
		<tag k="name" v="Kvithaugen" />
		<tag k="natural" v="hill" />
		<tag k="place" v="locality" />
		<tag k="ssr:stedsnr" v="287714" />
	</node>
	<node id="-473608" lat="60.1697194455" lon="5.03931110511">
		<tag k="name" v="Ørnahaugen" />
		<tag k="natural" v="hill" />
		<tag k="place" v="locality" />
		<tag k="ssr:stedsnr" v="469705" />
	</node>
	<node id="-473972" lat="60.2435166671" lon="5.07717222871">
		<tag k="fixme" v="consider natural=peak for the most distinct mountains in the district" />
		<tag k="name" v="Tveitafjellet" />
		<tag k="natural" v="hill" />
		<tag k="place" v="locality" />
		<tag k="ssr:stedsnr" v="732589" />
	</node>
	<node id="-473971" lat="60.2374027805" lon="5.20906666745">
		<tag k="name" v="Varden" />
		<tag k="natural" v="hill" />
		<tag k="place" v="locality" />
		<tag k="ssr:stedsnr" v="713993" />
	</node>
	<node id="-473969" lat="60.2334972242" lon="5.08644443721">
		<tag k="name" v="Rindane" />
		<tag k="natural" v="hill" />
		<tag k="place" v="locality" />
		<tag k="ssr:stedsnr" v="713959" />
	</node>
	<node id="-473968" lat="60.2320527751" lon="5.11545277285">
		<tag k="name" v="Langevassleitet" />
		<tag k="natural" v="hill" />
		<tag k="place" v="locality" />
		<tag k="ssr:stedsnr" v="713955" />
	</node>
	<node id="-473455" lat="60.2101944471" lon="5.11016945185">
		<tag k="fixme" v="consider natural=peak for the most distinct mountains in the district" />
		<tag k="name" v="Veten" />
		<tag k="natural" v="hill" />
		<tag k="place" v="locality" />
		<tag k="ssr:stedsnr" v="187862" />
	</node>
	<node id="-473451" lat="60.2728388893" lon="4.97128332484">
		<tag k="name" v="Lynghovdo" />
		<tag k="natural" v="hill" />
		<tag k="place" v="locality" />
		<tag k="ssr:stedsnr" v="187452" />
	</node>
	<node id="-472938" lat="60.2545722215" lon="5.09091111097">
		<tag k="name" v="Rundehaugen" />
		<tag k="natural" v="hill" />
		<tag k="place" v="locality" />
		<tag k="ssr:stedsnr" v="287217" />
	</node>
	<node id="-472937" lat="60.2640305527" lon="5.08519722047">
		<tag k="fixme" v="consider natural=peak for the most distinct mountains in the district" />
		<tag k="name" v="Senafjellet" />
		<tag k="natural" v="hill" />
		<tag k="place" v="locality" />
		<tag k="ssr:stedsnr" v="287209" />
	</node>
	<node id="-472936" lat="60.2396833343" lon="5.13998889317">
		<tag k="name" v="Laksafjellet" />
		<tag k="natural" v="hill" />
		<tag k="place" v="locality" />
		<tag k="ssr:stedsnr" v="287205" />
	</node>
	<node id="-473959" lat="60.2655972222" lon="5.00328888456">
		<tag k="name" v="Vardhaugane" />
		<tag k="natural" v="hill" />
		<tag k="place" v="locality" />
		<tag k="ssr:stedsnr" v="713827" />
	</node>
	<node id="-472934" lat="60.2584472205" lon="5.12002778489">
		<tag k="name" v="Trollhaugen" />
		<tag k="natural" v="hill" />
		<tag k="place" v="locality" />
		<tag k="ssr:stedsnr" v="287195" />
	</node>
	<node id="-473957" lat="60.2357277762" lon="4.99556666977">
		<tag k="name" v="Tobakksnuten" />
		<tag k="natural" v="hill" />
		<tag k="place" v="locality" />
		<tag k="ssr:stedsnr" v="713664" />
	</node>
	<node id="-473954" lat="60.2424777821" lon="5.13589445274">
		<tag k="name" v="Rindane" />
		<tag k="place" v="locality" />
		<tag k="ssr:stedsnr" v="713193" />
	</node>
	<node id="-473953" lat="60.2488888928" lon="5.1110555469">
		<tag k="fixme" v="consider natural=peak for the most distinct mountains in the district" />
		<tag k="name" v="Haukafjellet" />
		<tag k="natural" v="hill" />
		<tag k="place" v="locality" />
		<tag k="ssr:stedsnr" v="713183" />
	</node>
	<node id="-473952" lat="60.2212416632" lon="5.15142778514">
		<tag k="fixme" v="consider natural=peak for the most distinct mountains in the district" />
		<tag k="name" v="Grønabrekka" />
		<tag k="natural" v="hill" />
		<tag k="place" v="locality" />
		<tag k="ssr:stedsnr" v="713036" />
	</node>
	<node id="-473951" lat="60.185808336" lon="5.13185555988">
		<tag k="name" v="Sauevardane" />
		<tag k="natural" v="hill" />
		<tag k="place" v="locality" />
		<tag k="ssr:stedsnr" v="712967" />
	</node>
	<node id="-473950" lat="60.190727779" lon="5.14347222799">
		<tag k="name" v="Elvabakkane" />
		<tag k="natural" v="slope" />
		<tag k="place" v="locality" />
		<tag k="ssr:stedsnr" v="712966" />
	</node>
	<node id="-473693" lat="60.2316277767" lon="5.09975000847">
		<tag k="name" v="Skiftesvarden" />
		<tag k="natural" v="hill" />
		<tag k="place" v="locality" />
		<tag k="ssr:stedsnr" v="530575" />
	</node>
	<node id="-473946" lat="60.1722416644" lon="5.06052778429">
		<tag k="name" v="Varden" />
		<tag k="natural" v="hill" />
		<tag k="place" v="locality" />
		<tag k="ssr:stedsnr" v="712662" />
	</node>
	<node id="-473945" lat="60.234994448" lon="5.02849722045">
		<tag k="name" v="Dumbeklakken" />
		<tag k="natural" v="hill" />
		<tag k="place" v="locality" />
		<tag k="ssr:stedsnr" v="712655" />
	</node>
	<node id="-473944" lat="60.2171305542" lon="5.04224166194">
		<tag k="name" v="Store Vasshaugen" />
		<tag k="natural" v="hill" />
		<tag k="place" v="locality" />
		<tag k="ssr:stedsnr" v="712653" />
	</node>
	<node id="-473431" lat="60.2494361142" lon="5.00408889396">
		<tag k="name" v="Krekhaugen" />
		<tag k="natural" v="hill" />
		<tag k="place" v="locality" />
		<tag k="ssr:stedsnr" v="167835" />
	</node>
	<node id="-473430" lat="60.2710527817" lon="5.00025276834">
		<tag k="name" v="Trollaneshaugen" />
		<tag k="natural" v="hill" />
		<tag k="place" v="locality" />
		<tag k="ssr:stedsnr" v="167834" />
	</node>
	<node id="-473427" lat="60.1899027786" lon="5.15038888988">
		<tag k="name" v="Florshaugen" />
		<tag k="natural" v="hill" />
		<tag k="place" v="locality" />
		<tag k="ssr:stedsnr" v="166962" />
	</node>
	<node id="-473426" lat="60.1992055589" lon="5.08546389667">
		<tag k="name" v="Lamhushaugen" />
		<tag k="natural" v="hill" />
		<tag k="place" v="locality" />
		<tag k="ssr:stedsnr" v="166939" />
	</node>
	<node id="-473571" lat="60.2576583348" lon="4.99443056083">
		<tag k="alt_name" v="Nipafjellet" />
		<tag k="fixme" v="consider natural=peak for the most distinct mountains in the district" />
		<tag k="name" v="Nipa" />
		<tag k="natural" v="hill" />
		<tag k="place" v="locality" />
		<tag k="ssr:stedsnr" v="430469" />
	</node>
	<node id="-473936" lat="60.2089249967" lon="5.02796111923">
		<tag k="name" v="Storevarden" />
		<tag k="natural" v="hill" />
		<tag k="place" v="locality" />
		<tag k="ssr:stedsnr" v="712547" />
	</node>
	<node id="-473935" lat="60.1856194419" lon="5.11722222268">
		<tag k="name" v="Skjådalen" />
		<tag k="natural" v="valley" />
		<tag k="place" v="locality" />
		<tag k="ssr:stedsnr" v="712521" />
	</node>
	<node id="-473421" lat="60.1704305565" lon="5.04641944489">
		<tag k="name" v="Indravågsdalen" />
		<tag k="natural" v="valley" />
		<tag k="place" v="locality" />
		<tag k="ssr:stedsnr" v="166677" />
	</node>
	<node id="-473420" lat="60.2202888855" lon="5.01968055622">
		<tag k="name" v="Storseto" />
		<tag k="natural" v="hill" />
		<tag k="place" v="locality" />
		<tag k="ssr:stedsnr" v="166665" />
	</node>
	<node id="-473681" lat="60.2706805573" lon="5.08298889699">
		<tag k="fixme" v="consider natural=peak for the most distinct mountains in the district" />
		<tag k="name" v="Storafjellet" />
		<tag k="natural" v="hill" />
		<tag k="place" v="locality" />
		<tag k="ssr:stedsnr" v="530221" />
	</node>
	<node id="-473930" lat="60.1910833366" lon="5.05775000615">
		<tag k="name" v="Grønhelleren" />
		<tag k="natural" v="hill" />
		<tag k="place" v="locality" />
		<tag k="ssr:stedsnr" v="712491" />
	</node>
	<node id="-473926" lat="60.258594444" lon="5.07608610379">
		<tag k="fixme" v="consider natural=peak for the most distinct mountains in the district" />
		<tag k="name" v="Steinafjellet" />
		<tag k="natural" v="hill" />
		<tag k="place" v="locality" />
		<tag k="ssr:stedsnr" v="712174" />
	</node>
	<node id="-473925" lat="60.2447499989" lon="5.12841666628">
		<tag k="name" v="Kona" />
		<tag k="natural" v="hill" />
		<tag k="place" v="locality" />
		<tag k="ssr:stedsnr" v="712165" />
	</node>
	<node id="-473924" lat="60.2569722226" lon="5.08489722068">
		<tag k="name" v="Krontareiret" />
		<tag k="place" v="locality" />
		<tag k="ssr:stedsnr" v="712156" />
	</node>
	<node id="-473425" lat="60.2141249969" lon="5.090563884">
		<tag k="name" v="Skjenet" />
		<tag k="natural" v="hill" />
		<tag k="place" v="locality" />
		<tag k="ssr:stedsnr" v="166938" />
	</node>
	<node id="-473409" lat="60.2420333318" lon="5.10046389542">
		<tag k="name" v="Tveitahøgda" />
		<tag k="natural" v="hill" />
		<tag k="place" v="locality" />
		<tag k="ssr:stedsnr" v="166206" />
	</node>
	<node id="-473408" lat="60.2612444417" lon="5.09277222599">
		<tag k="fixme" v="consider natural=peak for the most distinct mountains in the district" />
		<tag k="name" v="Varden" />
		<tag k="natural" v="hill" />
		<tag k="ssr:stedsnr" v="166203" />
	</node>
	<node id="-473407" lat="60.2411944428" lon="5.08228332863">
		<tag k="name" v="Orkedalen" />
		<tag k="natural" v="valley" />
		<tag k="place" v="locality" />
		<tag k="ssr:stedsnr" v="166179" />
	</node>
	<node id="-473405" lat="60.2480333328" lon="5.21325277391">
		<tag k="name" v="Langedalen" />
		<tag k="natural" v="valley" />
		<tag k="place" v="locality" />
		<tag k="ssr:stedsnr" v="166166" />
	</node>
	<node id="-473253" lat="60.2178111084" lon="5.11906389393">
		<tag k="name" v="Kulten" />
		<tag k="natural" v="hill" />
		<tag k="place" v="locality" />
		<tag k="ssr:stedsnr" v="45531" />
	</node>
	<node id="-473169" lat="60.2519805588" lon="4.97235276938">
		<tag k="name" v="Låkavikdalen" />
		<tag k="natural" v="valley" />
		<tag k="place" v="locality" />
		<tag k="ssr:stedsnr" v="895818" />
	</node>
	<node id="-474079" lat="60.2999472218" lon="5.15939444237">
		<tag k="name" v="Storhaugen" />
		<tag k="natural" v="hill" />
		<tag k="place" v="locality" />
		<tag k="ssr:stedsnr" v="834163" />
	</node>
	<node id="-473424" lat="60.2078722218" lon="5.09556110402">
		<tag k="name" v="Liavarden" />
		<tag k="natural" v="hill" />
		<tag k="place" v="locality" />
		<tag k="ssr:stedsnr" v="166929" />
	</node>
	<node id="-473889" lat="60.1963194488" lon="5.15599166853">
		<tag k="name" v="Ørnatua" />
		<tag k="natural" v="hill" />
		<tag k="place" v="locality" />
		<tag k="ssr:stedsnr" v="652982" />
	</node>
	<node id="-473888" lat="60.2699638869" lon="4.95701944555">
		<tag k="name" v="Skotene" />
		<tag k="natural" v="hill" />
		<tag k="place" v="locality" />
		<tag k="ssr:stedsnr" v="652938" />
	</node>
	<node id="-473492" lat="60.2432472222" lon="5.07236111834">
		<tag k="name" v="Fjellet" />
		<tag k="place" v="locality" />
		<tag k="ssr:stedsnr" v="227216" />
	</node>
	<node id="-473168" lat="60.2593194435" lon="4.96842500092">
		<tag k="name" v="Klettane" />
		<tag k="natural" v="hill" />
		<tag k="place" v="locality" />
		<tag k="ssr:stedsnr" v="895811" />
	</node>
	<node id="-473372" lat="60.232155559" lon="5.19004722876">
		<tag k="fixme" v="consider natural=peak for the most distinct mountains in the district" />
		<tag k="name" v="Åsen" />
		<tag k="natural" v="hill" />
		<tag k="place" v="locality" />
		<tag k="ssr:stedsnr" v="107992" />
	</node>
	<node id="-473371" lat="60.2074833325" lon="5.13969445266">
		<tag k="name" v="Langaberget" />
		<tag k="natural" v="hill" />
		<tag k="place" v="locality" />
		<tag k="ssr:stedsnr" v="107989" />
	</node>
	<node id="-473370" lat="60.2292611073" lon="5.098713887">
		<tag k="name" v="Karet" />
		<tag k="natural" v="valley" />
		<tag k="place" v="locality" />
		<tag k="ssr:stedsnr" v="107965" />
	</node>
	<node id="-473135" lat="60.202908331" lon="5.13030277147">
		<tag k="fixme" v="consider natural=peak for the most distinct mountains in the district" />
		<tag k="name" v="Midtfjellet" />
		<tag k="natural" v="hill" />
		<tag k="place" v="locality" />
		<tag k="ssr:stedsnr" v="410985" />
	</node>
	<node id="-473879" lat="60.2501277764" lon="5.02642222689">
		<tag k="name" v="Gjerdhaugen" />
		<tag k="natural" v="hill" />
		<tag k="place" v="locality" />
		<tag k="ssr:stedsnr" v="652831" />
	</node>
	<node id="-473878" lat="60.258011114" lon="5.05197778433">
		<tag k="name" v="Storhelleren" />
		<tag k="natural" v="hill" />
		<tag k="place" v="locality" />
		<tag k="ssr:stedsnr" v="652824" />
	</node>
	<node id="-473877" lat="60.2833222197" lon="4.97960277905">
		<tag k="fixme" v="consider natural=peak for the most distinct mountains in the district" />
		<tag k="name" v="Liafjellet" />
		<tag k="natural" v="hill" />
		<tag k="place" v="locality" />
		<tag k="ssr:stedsnr" v="652822" />
	</node>
	<node id="-473876" lat="60.2826638864" lon="4.96534167165">
		<tag k="name" v="Hundane" />
		<tag k="natural" v="hill" />
		<tag k="place" v="locality" />
		<tag k="ssr:stedsnr" v="652821" />
	</node>
	<node id="-473875" lat="60.2409250028" lon="5.04103055057">
		<tag k="name" v="Vestrevågdalen" />
		<tag k="natural" v="valley" />
		<tag k="place" v="locality" />
		<tag k="ssr:stedsnr" v="652818" />
	</node>
	<node id="-473874" lat="60.2754555516" lon="4.98216944385">
		<tag k="name" v="Heiagardshaugen" />
		<tag k="natural" v="hill" />
		<tag k="place" v="locality" />
		<tag k="ssr:stedsnr" v="652801" />
	</node>
	<node id="-473361" lat="60.2520611106" lon="5.00083333005">
		<tag k="name" v="Nolten" />
		<tag k="natural" v="hill" />
		<tag k="place" v="locality" />
		<tag k="ssr:stedsnr" v="107837" />
	</node>
	<node id="-473358" lat="60.2230250013" lon="5.094191672">
		<tag k="fixme" v="consider natural=peak for the most distinct mountains in the district" />
		<tag k="name" v="Kvitursfjellet" />
		<tag k="natural" v="hill" />
		<tag k="place" v="locality" />
		<tag k="ssr:stedsnr" v="106535" />
	</node>
	<node id="-473357" lat="60.1907250035" lon="5.12280277747">
		<tag k="name" v="Hestadalen" />
		<tag k="natural" v="valley" />
		<tag k="place" v="locality" />
		<tag k="ssr:stedsnr" v="106527" />
	</node>
	<node id="-473356" lat="60.1822055553" lon="5.09168333215">
		<tag k="name" v="Hellehaugen" />
		<tag k="natural" v="hill" />
		<tag k="place" v="locality" />
		<tag k="ssr:stedsnr" v="106524" />
	</node>
	<node id="-473867" lat="60.2132083347" lon="5.11948889537">
		<tag k="name" v="Gombestegen" />
		<tag k="natural" v="hill" />
		<tag k="place" v="locality" />
		<tag k="ssr:stedsnr" v="651950" />
	</node>
	<node id="-473354" lat="60.2093277816" lon="5.0237111167">
		<tag k="name" v="Rivnaberget" />
		<tag k="place" v="locality" />
		<tag k="ssr:stedsnr" v="106203" />
	</node>
	<node id="-473353" lat="60.2306999972" lon="5.03898610352">
		<tag k="name" v="Telavågsleitet" />
		<tag k="place" v="locality" />
		<tag k="ssr:stedsnr" v="106204" />
	</node>
	<node id="-473864" lat="60.1695055557" lon="5.0515638944">
		<tag k="fixme" v="consider natural=peak for the most distinct mountains in the district" />
		<tag k="name" v="Stovefjellet" />
		<tag k="natural" v="hill" />
		<tag k="place" v="locality" />
		<tag k="ssr:stedsnr" v="651683" />
	</node>
	<node id="-473863" lat="60.1838944448" lon="5.06835554758">
		<tag k="name" v="Skjeleviksbotnen" />
		<tag k="natural" v="valley" />
		<tag k="place" v="locality" />
		<tag k="ssr:stedsnr" v="651682" />
	</node>
	<node id="-473862" lat="60.2112888904" lon="5.04345554825">
		<tag k="name" v="Hakhaugen" />
		<tag k="natural" v="hill" />
		<tag k="place" v="locality" />
		<tag k="ssr:stedsnr" v="651679" />
	</node>
	<node id="-473861" lat="60.2254444421" lon="5.01921111812">
		<tag k="name" v="Hølshaugen" />
		<tag k="natural" v="hill" />
		<tag k="place" v="locality" />
		<tag k="ssr:stedsnr" v="651677" />
	</node>
	<node id="-473860" lat="60.1927166662" lon="5.02971388019">
		<tag k="name" v="Risaklubben" />
		<tag k="natural" v="hill" />
		<tag k="place" v="locality" />
		<tag k="ssr:stedsnr" v="651640" />
	</node>
	<node id="-473859" lat="60.2280083325" lon="5.00309999226">
		<tag k="name" v="Lynghaugen" />
		<tag k="natural" v="hill" />
		<tag k="place" v="locality" />
		<tag k="ssr:stedsnr" v="651638" />
	</node>
	<node id="-473346" lat="60.2069277808" lon="5.02961387993">
		<tag k="name" v="Krekebærvarden" />
		<tag k="natural" v="hill" />
		<tag k="place" v="locality" />
		<tag k="ssr:stedsnr" v="105690" />
	</node>
	<node id="-473345" lat="60.2249416639" lon="4.99855833423">
		<tag k="name" v="Lutavarden" />
		<tag k="natural" v="hill" />
		<tag k="place" v="locality" />
		<tag k="ssr:stedsnr" v="105638" />
	</node>
	<node id="-473167" lat="60.2747333349" lon="5.00019721324">
		<tag k="name" v="Skåko" />
		<tag k="natural" v="hill" />
		<tag k="place" v="locality" />
		<tag k="ssr:stedsnr" v="895805" />
	</node>
	<node id="-473332" lat="60.261733331" lon="5.07353054901">
		<tag k="name" v="Hammarslandsdalen" />
		<tag k="natural" v="valley" />
		<tag k="place" v="locality" />
		<tag k="ssr:stedsnr" v="105209" />
	</node>
	<node id="-473852" lat="60.2166138914" lon="5.0844388851">
		<tag k="name" v="Brothaugen" />
		<tag k="natural" v="hill" />
		<tag k="place" v="locality" />
		<tag k="ssr:stedsnr" v="651568" />
	</node>
	<node id="-473849" lat="60.1815972262" lon="5.05110555864">
		<tag k="name" v="Båtabakkane" />
		<tag k="natural" v="slope" />
		<tag k="place" v="locality" />
		<tag k="ssr:stedsnr" v="651538" />
	</node>
	<node id="-473847" lat="60.2727944447" lon="5.07435833989">
		<tag k="name" v="Klumpelhaugen" />
		<tag k="natural" v="hill" />
		<tag k="place" v="locality" />
		<tag k="ssr:stedsnr" v="651201" />
	</node>
	<node id="-473846" lat="60.2386527776" lon="5.12087221616">
		<tag k="name" v="Skaret" />
		<tag k="natural" v="valley" />
		<tag k="place" v="locality" />
		<tag k="ssr:stedsnr" v="651194" />
	</node>
	<node id="-473845" lat="60.2578416687" lon="5.11215277808">
		<tag k="name" v="Stemhaugen" />
		<tag k="natural" v="hill" />
		<tag k="place" v="locality" />
		<tag k="ssr:stedsnr" v="651190" />
	</node>
	<node id="-473844" lat="60.2872583357" lon="5.13762500384">
		<tag k="name" v="Skaghaugen" />
		<tag k="natural" v="hill" />
		<tag k="place" v="locality" />
		<tag k="ssr:stedsnr" v="651172" />
	</node>
	<node id="-473331" lat="60.2631749993" lon="5.10195277199">
		<tag k="name" v="Ytste Storhaugen" />
		<tag k="natural" v="hill" />
		<tag k="place" v="locality" />
		<tag k="ssr:stedsnr" v="105200" />
	</node>
	<node id="-473330" lat="60.2730000011" lon="5.0831833248">
		<tag k="name" v="Midtstegen" />
		<tag k="natural" v="hill" />
		<tag k="place" v="locality" />
		<tag k="ssr:stedsnr" v="105196" />
	</node>
	<node id="-473329" lat="60.245908334" lon="5.2176611099">
		<tag k="name" v="Ørnakulten" />
		<tag k="natural" v="hill" />
		<tag k="place" v="locality" />
		<tag k="ssr:stedsnr" v="105190" />
	</node>
	<node id="-473328" lat="60.2571611092" lon="5.08764167235">
		<tag k="name" v="Stordalen" />
		<tag k="natural" v="valley" />
		<tag k="place" v="locality" />
		<tag k="ssr:stedsnr" v="105179" />
	</node>
	<node id="-473839" lat="60.2193777782" lon="5.08775277084">
		<tag k="name" v="Ravnastegen" />
		<tag k="place" v="locality" />
		<tag k="ssr:stedsnr" v="651071" />
	</node>
	<node id="-474217" lat="60.2771638852" lon="4.96052223041">
		<tag k="name" v="Lasken" />
		<tag k="place" v="locality" />
		<tag k="ssr:stedsnr" v="956833" />
	</node>
	<node id="-473792" lat="60.2403555578" lon="5.05184444967">
		<tag k="name" v="Høgnova" />
		<tag k="natural" v="hill" />
		<tag k="place" v="locality" />
		<tag k="ssr:stedsnr" v="591838" />
	</node>
	<node id="-473312" lat="60.2541416655" lon="4.97803889408">
		<tag k="name" v="Telaburet" />
		<tag k="natural" v="hill" />
		<tag k="place" v="locality" />
		<tag k="ssr:stedsnr" v="85070" />
	</node>
	<node id="-473217" lat="60.2565527776" lon="5.09217776953">
		<tag k="fixme" v="consider natural=peak for the most distinct mountains in the district" />
		<tag k="name" v="Storåsen" />
		<tag k="natural" v="hill" />
		<tag k="place" v="locality" />
		<tag k="ssr:stedsnr" v="6518" />
	</node>
	<node id="-473978" lat="60.2855694423" lon="4.96573055469">
		<tag k="fixme" v="consider natural=peak for the most distinct mountains in the district" />
		<tag k="name" v="Nipa" />
		<tag k="natural" v="hill" />
		<tag k="place" v="locality" />
		<tag k="ssr:stedsnr" v="733424" />
	</node>
	<node id="-474195" lat="60.2524027739" lon="5.09264166298">
		<tag k="name" v="Ormadalen" />
		<tag k="natural" v="valley" />
		<tag k="place" v="locality" />
		<tag k="ssr:stedsnr" v="955169" />
	</node>
	<node id="-473699" lat="60.2131222211" lon="4.99727500056">
		<tag k="name" v="Goltaberget" />
		<tag k="natural" v="hill" />
		<tag k="place" v="locality" />
		<tag k="ssr:stedsnr" v="530645" />
	</node>
	<node id="-474190" lat="60.1870805555" lon="5.10921667069">
		<tag k="name" v="Vassbotnen" />
		<tag k="natural" v="valley" />
		<tag k="place" v="locality" />
		<tag k="ssr:stedsnr" v="955052" />
	</node>
	<node id="-473123" lat="60.1931888912" lon="5.14541944962">
		<tag k="name" v="Bjøllhaugen" />
		<tag k="natural" v="hill" />
		<tag k="place" v="locality" />
		<tag k="ssr:stedsnr" v="409961" />
	</node>
	<node id="-473293" lat="60.28555556" lon="4.98358611483">
		<tag k="fixme" v="consider natural=peak for the most distinct mountains in the district" />
		<tag k="name" v="Brotavarden" />
		<tag k="natural" v="hill" />
		<tag k="place" v="locality" />
		<tag k="ssr:stedsnr" v="66431" />
	</node>
	<node id="-473804" lat="60.2062916682" lon="5.13644443634">
		<tag k="name" v="Manndalen" />
		<tag k="natural" v="valley" />
		<tag k="place" v="locality" />
		<tag k="ssr:stedsnr" v="592990" />
	</node>
	<node id="-473291" lat="60.2222361077" lon="5.11361944012">
		<tag k="name" v="Førdesdalen" />
		<tag k="natural" v="valley" />
		<tag k="place" v="locality" />
		<tag k="ssr:stedsnr" v="65816" />
	</node>
	<node id="-473802" lat="60.2276694463" lon="5.11554444397">
		<tag k="name" v="Grasdalen" />
		<tag k="natural" v="valley" />
		<tag k="place" v="locality" />
		<tag k="ssr:stedsnr" v="592966" />
	</node>
	<node id="-473869" lat="60.215091667" lon="5.07771943871">
		<tag k="name" v="Brothaugen" />
		<tag k="natural" v="hill" />
		<tag k="place" v="locality" />
		<tag k="ssr:stedsnr" v="651956" />
	</node>
	<node id="-473796" lat="60.2031361146" lon="5.10200000379">
		<tag k="name" v="Heiane" />
		<tag k="natural" v="hill" />
		<tag k="place" v="locality" />
		<tag k="ssr:stedsnr" v="591948" />
	</node>
	<node id="-473283" lat="60.2142361117" lon="5.09050278149">
		<tag k="fixme" v="consider natural=peak for the most distinct mountains in the district" />
		<tag k="name" v="Strandafjellet" />
		<tag k="natural" v="hill" />
		<tag k="place" v="locality" />
		<tag k="ssr:stedsnr" v="65717" />
	</node>
	<node id="-473280" lat="60.227711112" lon="5.00430833364">
		<tag k="name" v="Litlehaugen" />
		<tag k="natural" v="hill" />
		<tag k="place" v="locality" />
		<tag k="ssr:stedsnr" v="65701" />
	</node>
	<node id="-473791" lat="60.2540583345" lon="4.97832778355">
		<tag k="name" v="Tælaburet" />
		<tag k="natural" v="hill" />
		<tag k="place" v="locality" />
		<tag k="ssr:stedsnr" v="591819" />
	</node>
	<node id="-473790" lat="60.2585055532" lon="5.00642222629">
		<tag k="name" v="Steinakletten" />
		<tag k="natural" v="hill" />
		<tag k="place" v="locality" />
		<tag k="ssr:stedsnr" v="591816" />
	</node>
	<node id="-473789" lat="60.2775444421" lon="4.9934249986">
		<tag k="name" v="Heiane" />
		<tag k="natural" v="mountain_range" />
		<tag k="ssr:stedsnr" v="591809" />
	</node>
	<node id="-473788" lat="60.1901638931" lon="5.11104445158">
		<tag k="name" v="Storhaugen" />
		<tag k="natural" v="hill" />
		<tag k="place" v="locality" />
		<tag k="ssr:stedsnr" v="591522" />
	</node>
	<node id="-473787" lat="60.1638944443" lon="5.02037500143">
		<tag k="name" v="Narøykulten" />
		<tag k="place" v="locality" />
		<tag k="ssr:stedsnr" v="591182" />
	</node>
	<node id="-473786" lat="60.2396250012" lon="5.08424722403">
		<tag k="name" v="Djupskaret" />
		<tag k="natural" v="hill" />
		<tag k="place" v="locality" />
		<tag k="ssr:stedsnr" v="591180" />
	</node>
	<node id="-473784" lat="60.2237027807" lon="5.06707221909">
		<tag k="name" v="Steinhaugen" />
		<tag k="natural" v="hill" />
		<tag k="place" v="locality" />
		<tag k="ssr:stedsnr" v="591045" />
	</node>
	<node id="-473779" lat="60.2277833337" lon="5.06416944638">
		<tag k="name" v="Litlehaugen" />
		<tag k="natural" v="hill" />
		<tag k="place" v="locality" />
		<tag k="ssr:stedsnr" v="590698" />
	</node>
	<node id="-473265" lat="60.232188892" lon="5.18319444169">
		<tag k="name" v="Kråkedalen" />
		<tag k="natural" v="valley" />
		<tag k="place" v="locality" />
		<tag k="ssr:stedsnr" v="46967" />
	</node>
	<node id="-473264" lat="60.2339999962" lon="5.09533611388">
		<tag k="name" v="Eidesbrota" />
		<tag k="natural" v="hill" />
		<tag k="place" v="locality" />
		<tag k="ssr:stedsnr" v="46963" />
	</node>
	<node id="-473673" lat="60.2335694449" lon="5.12428055867">
		<tag k="name" v="Stora Blåfjellet" />
		<tag k="place" v="locality" />
		<tag k="ssr:stedsnr" v="530092" />
	</node>
	<node id="-473262" lat="60.2656194443" lon="4.95580554721">
		<tag k="name" v="Store Selsteinen" />
		<tag k="natural" v="hill" />
		<tag k="place" v="locality" />
		<tag k="ssr:stedsnr" v="46944" />
	</node>
	<node id="-473117" lat="60.2288388848" lon="5.06879723044">
		<tag k="name" v="Høgestølen" />
		<tag k="natural" v="hill" />
		<tag k="place" v="locality" />
		<tag k="ssr:stedsnr" v="409681" />
	</node>
	<node id="-473771" lat="60.1953055563" lon="5.06706667063">
		<tag k="name" v="Hellebrota" />
		<tag k="place" v="locality" />
		<tag k="ssr:stedsnr" v="590565" />
	</node>
	<node id="-473258" lat="60.2671527815" lon="4.97968055038">
		<tag k="name" v="Kvernhaugen" />
		<tag k="natural" v="hill" />
		<tag k="place" v="locality" />
		<tag k="ssr:stedsnr" v="46827" />
	</node>
	<node id="-473257" lat="60.2113583305" lon="5.09430278621">
		<tag k="name" v="Kletten" />
		<tag k="natural" v="hill" />
		<tag k="place" v="locality" />
		<tag k="ssr:stedsnr" v="45921" />
	</node>
	<node id="-473767" lat="60.2479027732" lon="5.07967777178">
		<tag k="name" v="Kuhaugen" />
		<tag k="natural" v="hill" />
		<tag k="place" v="locality" />
		<tag k="ssr:stedsnr" v="590207" />
	</node>
	<node id="-473766" lat="60.243622225" lon="5.20879443827">
		<tag k="name" v="Stonga" />
		<tag k="natural" v="hill" />
		<tag k="place" v="locality" />
		<tag k="ssr:stedsnr" v="590190" />
	</node>
	<node id="-473765" lat="60.2499916623" lon="5.12595833594">
		<tag k="fixme" v="consider natural=peak for the most distinct mountains in the district" />
		<tag k="name" v="Marasmogfjellet" />
		<tag k="natural" v="hill" />
		<tag k="place" v="locality" />
		<tag k="ssr:stedsnr" v="590187" />
	</node>
	<node id="-473252" lat="60.2732555566" lon="5.08130834042">
		<tag k="name" v="Seljehaugen" />
		<tag k="natural" v="hill" />
		<tag k="place" v="locality" />
		<tag k="ssr:stedsnr" v="45065" />
	</node>
	<node id="-473251" lat="60.1896388923" lon="5.1300999949">
		<tag k="name" v="Stengene" />
		<tag k="place" v="locality" />
		<tag k="ssr:stedsnr" v="45058" />
	</node>
	<node id="-473115" lat="60.2209027764" lon="5.04485832528">
		<tag k="name" v="Skatehaugen" />
		<tag k="natural" v="hill" />
		<tag k="place" v="locality" />
		<tag k="ssr:stedsnr" v="409670" />
	</node>
	<node id="-473590" lat="60.2439472196" lon="5.09118611336">
		<tag k="name" v="Kvernhushaugen" />
		<tag k="natural" v="hill" />
		<tag k="place" v="locality" />
		<tag k="ssr:stedsnr" v="469191" />
	</node>
	<node id="-473241" lat="60.2643694419" lon="5.11656110516">
		<tag k="name" v="Kanna" />
		<tag k="natural" v="hill" />
		<tag k="place" v="locality" />
		<tag k="ssr:stedsnr" v="44197" />
	</node>
	<node id="-474043" lat="60.2543611097" lon="4.9828277724">
		<tag k="name" v="Sulakletten" />
		<tag k="natural" v="hill" />
		<tag k="place" v="locality" />
		<tag k="ssr:stedsnr" v="774846" />
	</node>
	<node id="-473239" lat="60.2539527738" lon="5.12904999805">
		<tag k="name" v="Trappene" />
		<tag k="natural" v="hill" />
		<tag k="place" v="locality" />
		<tag k="ssr:stedsnr" v="44184" />
	</node>
	<node id="-473238" lat="60.2494777765" lon="5.13382221845">
		<tag k="name" v="Gulesteinen" />
		<tag k="natural" v="hill" />
		<tag k="place" v="locality" />
		<tag k="ssr:stedsnr" v="44180" />
	</node>
	<node id="-473237" lat="60.2534611102" lon="5.10800833566">
		<tag k="fixme" v="consider natural=peak for the most distinct mountains in the district" />
		<tag k="name" v="Bringebærfjellet" />
		<tag k="natural" v="hill" />
		<tag k="place" v="locality" />
		<tag k="ssr:stedsnr" v="44176" />
	</node>
	<node id="-474118" lat="60.2017611147" lon="5.07413055317">
		<tag k="name" v="Rophammaren" />
		<tag k="natural" v="hill" />
		<tag k="place" v="locality" />
		<tag k="ssr:stedsnr" v="835968" />
	</node>
	<node id="-474050" lat="60.2050249994" lon="5.08154999561">
		<tag k="name" v="Gjeldshaugen" />
		<tag k="natural" v="hill" />
		<tag k="place" v="locality" />
		<tag k="ssr:stedsnr" v="774959" />
	</node>
	<node id="-473412" lat="60.175841665" lon="5.10217221474">
		<tag k="name" v="Varden" />
		<tag k="natural" v="hill" />
		<tag k="place" v="locality" />
		<tag k="ssr:stedsnr" v="166537" />
	</node>
	<node id="-473678" lat="60.241472225" lon="5.11283888714">
		<tag k="name" v="Gjerdhaugen" />
		<tag k="natural" v="hill" />
		<tag k="place" v="locality" />
		<tag k="ssr:stedsnr" v="530200" />
	</node>
	<node id="-473729" lat="60.2454416646" lon="5.12764721346">
		<tag k="name" v="Mannen" />
		<tag k="natural" v="hill" />
		<tag k="place" v="locality" />
		<tag k="ssr:stedsnr" v="550635" />
	</node>
	<node id="-473727" lat="60.247163888" lon="5.0907138902">
		<tag k="name" v="Storaskjenet" />
		<tag k="natural" v="hill" />
		<tag k="place" v="locality" />
		<tag k="ssr:stedsnr" v="550542" />
	</node>
	<node id="-473212" lat="60.2935250001" lon="5.16101388186">
		<tag k="name" v="Varden" />
		<tag k="natural" v="hill" />
		<tag k="place" v="locality" />
		<tag k="ssr:stedsnr" v="5807" />
	</node>
	<node id="-473723" lat="60.2077861133" lon="5.16039722034">
		<tag k="name" v="Eidet" />
		<tag k="place" v="locality" />
		<tag k="ssr:stedsnr" v="531990" />
	</node>
	<node id="-473722" lat="60.2361361145" lon="5.12909444874">
		<tag k="fixme" v="consider natural=peak for the most distinct mountains in the district" />
		<tag k="name" v="Preståsen" />
		<tag k="natural" v="hill" />
		<tag k="place" v="locality" />
		<tag k="ssr:stedsnr" v="531974" />
	</node>
	<node id="-473721" lat="60.2255472194" lon="5.13373611589">
		<tag k="name" v="Vonelvbakkane" />
		<tag k="natural" v="slope" />
		<tag k="place" v="locality" />
		<tag k="ssr:stedsnr" v="531969" />
	</node>
	<node id="-473720" lat="60.2101583325" lon="5.08460278533">
		<tag k="name" v="Storestølen" />
		<tag k="natural" v="hill" />
		<tag k="place" v="locality" />
		<tag k="ssr:stedsnr" v="531960" />
	</node>
	<node id="-474231" lat="60.1875694426" lon="5.12679722976">
		<tag k="name" v="Fardalen" />
		<tag k="natural" v="valley" />
		<tag k="place" v="locality" />
		<tag k="ssr:stedsnr" v="956967" />
	</node>
	<node id="-473961" lat="60.2696333314" lon="4.99618611544">
		<tag k="name" v="Katlaskorane" />
		<tag k="place" v="locality" />
		<tag k="ssr:stedsnr" v="713840" />
	</node>
	<node id="-473713" lat="60.2488583331" lon="5.01734722174">
		<tag k="name" v="Lonasmoget" />
		<tag k="natural" v="valley" />
		<tag k="place" v="locality" />
		<tag k="ssr:stedsnr" v="531860" />
	</node>
	<node id="-473712" lat="60.2550138895" lon="5.0198416655">
		<tag k="name" v="Heistadklubben" />
		<tag k="natural" v="hill" />
		<tag k="place" v="locality" />
		<tag k="ssr:stedsnr" v="531853" />
	</node>
	<node id="-473711" lat="60.2680944443" lon="4.96830277739">
		<tag k="name" v="Ravnaberget" />
		<tag k="natural" v="hill" />
		<tag k="place" v="locality" />
		<tag k="ssr:stedsnr" v="531842" />
	</node>
	<node id="-473710" lat="60.2791444404" lon="4.9851194384">
		<tag k="name" v="Rindane" />
		<tag k="natural" v="mountain_range" />
		<tag k="ssr:stedsnr" v="531840" />
	</node>
	<node id="-474221" lat="60.2463388921" lon="5.06046666509">
		<tag k="name" v="Varden" />
		<tag k="natural" v="hill" />
		<tag k="place" v="locality" />
		<tag k="ssr:stedsnr" v="956851" />
	</node>
	<node id="-474220" lat="60.2869277747" lon="4.98718889249">
		<tag k="name" v="Ølnadalen" />
		<tag k="natural" v="valley" />
		<tag k="place" v="locality" />
		<tag k="ssr:stedsnr" v="956843" />
	</node>
	<node id="-474219" lat="60.252897221" lon="4.98815277157">
		<tag k="name" v="Juvikanova" />
		<tag k="natural" v="cliff" />
		<tag k="ssr:stedsnr" v="956837" />
	</node>
	<node id="-474218" lat="60.2462416632" lon="5.06655554918">
		<tag k="name" v="Eidesdalen" />
		<tag k="natural" v="valley" />
		<tag k="place" v="locality" />
		<tag k="ssr:stedsnr" v="956834" />
	</node>
	<node id="-472935" lat="60.2556916671" lon="5.12276667357">
		<tag k="name" v="Storhaugen" />
		<tag k="natural" v="hill" />
		<tag k="place" v="locality" />
		<tag k="ssr:stedsnr" v="287196" />
	</node>
	<node id="-473704" lat="60.2303611122" lon="5.06660833685">
		<tag k="name" v="Grøndalen" />
		<tag k="natural" v="valley" />
		<tag k="place" v="locality" />
		<tag k="ssr:stedsnr" v="530694" />
	</node>
	<node id="-474214" lat="60.2125666685" lon="5.08601666529">
		<tag k="name" v="Hiknaberget" />
		<tag k="natural" v="hill" />
		<tag k="place" v="locality" />
		<tag k="ssr:stedsnr" v="955971" />
	</node>
	<node id="-473105" lat="60.2400888886" lon="5.22365556445">
		<tag k="name" v="Havnastølen" />
		<tag k="place" v="locality" />
		<tag k="ssr:stedsnr" v="409200" />
	</node>
	<node id="-474212" lat="60.2015027812" lon="5.09685277794">
		<tag k="name" v="Moldbrekka" />
		<tag k="natural" v="hill" />
		<tag k="place" v="locality" />
		<tag k="ssr:stedsnr" v="955965" />
	</node>
	<node id="-474211" lat="60.1926583368" lon="5.13133056072">
		<tag k="name" v="Fenadalen" />
		<tag k="natural" v="valley" />
		<tag k="place" v="locality" />
		<tag k="ssr:stedsnr" v="955951" />
	</node>
	<node id="-473698" lat="60.1874444446" lon="5.05105277198">
		<tag k="name" v="Bandelen" />
		<tag k="natural" v="hill" />
		<tag k="place" v="locality" />
		<tag k="ssr:stedsnr" v="530642" />
	</node>
	<node id="-474209" lat="60.2179444459" lon="5.05184165791">
		<tag k="name" v="Klovningane" />
		<tag k="natural" v="hill" />
		<tag k="place" v="locality" />
		<tag k="ssr:stedsnr" v="955685" />
	</node>
	<node id="-474208" lat="60.1833388847" lon="5.0574333343">
		<tag k="name" v="Sandhaugen" />
		<tag k="natural" v="hill" />
		<tag k="place" v="locality" />
		<tag k="ssr:stedsnr" v="955638" />
	</node>
	<node id="-473183" lat="60.2330833324" lon="5.18198611925">
		<tag k="name" v="Grønhaugen" />
		<tag k="natural" v="hill" />
		<tag k="place" v="locality" />
		<tag k="ssr:stedsnr" v="896973" />
	</node>
	<node id="-473694" lat="60.1927388875" lon="5.09455278109">
		<tag k="name" v="Storaberget" />
		<tag k="natural" v="hill" />
		<tag k="place" v="locality" />
		<tag k="ssr:stedsnr" v="530593" />
	</node>
	<node id="-473181" lat="60.1964138868" lon="5.08266111134">
		<tag k="name" v="Sjotræet" />
		<tag k="natural" v="slope" />
		<tag k="place" v="locality" />
		<tag k="ssr:stedsnr" v="895965" />
	</node>
	<node id="-473180" lat="60.2357027771" lon="5.08689722904">
		<tag k="name" v="Vollane" />
		<tag k="natural" v="hill" />
		<tag k="place" v="locality" />
		<tag k="ssr:stedsnr" v="895954" />
	</node>
	<node id="-473691" lat="60.1927694409" lon="5.10111110283">
		<tag k="name" v="Grønebakkane" />
		<tag k="natural" v="slope" />
		<tag k="place" v="locality" />
		<tag k="ssr:stedsnr" v="530564" />
	</node>
	<node id="-474202" lat="60.2121916634" lon="5.0188999999">
		<tag k="name" v="Gløpsa" />
		<tag k="natural" v="hill" />
		<tag k="place" v="locality" />
		<tag k="ssr:stedsnr" v="955575" />
	</node>
	<node id="-473707" lat="60.2328555576" lon="4.99621666922">
		<tag k="name" v="Øvste Luten" />
		<tag k="natural" v="hill" />
		<tag k="place" v="locality" />
		<tag k="ssr:stedsnr" v="531677" />
	</node>
	<node id="-473173" lat="60.2480083334" lon="5.0360861036">
		<tag k="name" v="Mathelleren" />
		<tag k="natural" v="hill" />
		<tag k="place" v="locality" />
		<tag k="ssr:stedsnr" v="895833" />
	</node>
	<node id="-474196" lat="60.2771750035" lon="5.07065277862">
		<tag k="name" v="Trengereidskjenet" />
		<tag k="natural" v="ridge" />
		<tag k="place" v="locality" />
		<tag k="ssr:stedsnr" v="955181" />
	</node>
	<node id="-473171" lat="60.2544027762" lon="4.99229722527">
		<tag k="name" v="Arvikadalen" />
		<tag k="natural" v="valley" />
		<tag k="place" v="locality" />
		<tag k="ssr:stedsnr" v="895825" />
	</node>
	<node id="-473170" lat="60.2778083315" lon="4.98865555138">
		<tag k="name" v="Vestre Røsedalen" />
		<tag k="natural" v="valley" />
		<tag k="place" v="locality" />
		<tag k="ssr:stedsnr" v="895820" />
	</node>
	<node id="-474193" lat="60.2904499971" lon="5.15930554866">
		<tag k="name" v="Børvikhaugen" />
		<tag k="natural" v="hill" />
		<tag k="place" v="locality" />
		<tag k="ssr:stedsnr" v="955157" />
	</node>
	<node id="-473680" lat="60.2442694433" lon="5.12408055822">
		<tag k="name" v="Setramoen" />
		<tag k="place" v="locality" />
		<tag k="ssr:stedsnr" v="530210" />
	</node>
	<node id="-473679" lat="60.2459972226" lon="5.12326388341">
		<tag k="name" v="Blågjerddalen" />
		<tag k="natural" v="valley" />
		<tag k="place" v="locality" />
		<tag k="ssr:stedsnr" v="530204" />
	</node>
	<node id="-473166" lat="60.2188388848" lon="5.12009444435">
		<tag k="name" v="Vardabrekkene" />
		<tag k="natural" v="slope" />
		<tag k="place" v="locality" />
		<tag k="ssr:stedsnr" v="895524" />
	</node>
	<node id="-473677" lat="60.2389805535" lon="5.07182221658">
		<tag k="name" v="Høljadalen" />
		<tag k="natural" v="valley" />
		<tag k="place" v="locality" />
		<tag k="ssr:stedsnr" v="530197" />
	</node>
	<node id="-473163" lat="60.2212749966" lon="4.99918610546">
		<tag k="name" v="Kokkelursdalen" />
		<tag k="natural" v="valley" />
		<tag k="place" v="locality" />
		<tag k="ssr:stedsnr" v="895181" />
	</node>
	<node id="-473162" lat="60.1986305537" lon="5.09198610832">
		<tag k="name" v="Lauvåsen" />
		<tag k="place" v="locality" />
		<tag k="ssr:stedsnr" v="895056" />
	</node>
	<node id="-474185" lat="60.2683555532" lon="4.99418055922">
		<tag k="name" v="Vågsbotnen" />
		<tag k="natural" v="valley" />
		<tag k="place" v="locality" />
		<tag k="ssr:stedsnr" v="936228" />
	</node>
	<node id="-473672" lat="60.2289111092" lon="5.14737222592">
		<tag k="name" v="Bessadalen" />
		<tag k="natural" v="valley" />
		<tag k="place" v="locality" />
		<tag k="ssr:stedsnr" v="530062" />
	</node>
	<node id="-473868" lat="60.2051500033" lon="5.0912555548">
		<tag k="name" v="Hagastølen" />
		<tag k="natural" v="hill" />
		<tag k="place" v="locality" />
		<tag k="ssr:stedsnr" v="651953" />
	</node>
	<node id="-473157" lat="60.1716416677" lon="5.03844165854">
		<tag k="name" v="Djupeviksdalen" />
		<tag k="natural" v="valley" />
		<tag k="place" v="locality" />
		<tag k="ssr:stedsnr" v="894713" />
	</node>
	<node id="-473156" lat="60.1858888933" lon="5.04095555065">
		<tag k="name" v="Træshaugen" />
		<tag k="natural" v="hill" />
		<tag k="place" v="locality" />
		<tag k="ssr:stedsnr" v="894707" />
	</node>
	<node id="-473526" lat="60.2179694462" lon="5.07657777945">
		<tag k="fixme" v="consider natural=peak for the most distinct mountains in the district" />
		<tag k="name" v="Åsen" />
		<tag k="natural" v="hill" />
		<tag k="place" v="locality" />
		<tag k="ssr:stedsnr" v="247678" />
	</node>
	<node id="-473962" lat="60.2420388893" lon="5.06687499382">
		<tag k="name" v="Skjenhaugen" />
		<tag k="natural" v="hill" />
		<tag k="place" v="locality" />
		<tag k="ssr:stedsnr" v="713855" />
	</node>
	<node id="-473153" lat="60.2242694448" lon="4.99471666283">
		<tag k="name" v="Jonsvikadalen" />
		<tag k="natural" v="valley" />
		<tag k="place" v="locality" />
		<tag k="ssr:stedsnr" v="894672" />
	</node>
	<node id="-473152" lat="60.2243000031" lon="4.9975472149">
		<tag k="name" v="Trolldalen" />
		<tag k="natural" v="valley" />
		<tag k="place" v="locality" />
		<tag k="ssr:stedsnr" v="894670" />
	</node>
	<node id="-473706" lat="60.2144861149" lon="5.11025833031">
		<tag k="name" v="Åsendalen" />
		<tag k="natural" v="valley" />
		<tag k="place" v="locality" />
		<tag k="ssr:stedsnr" v="530964" />
	</node>
	<node id="-473439" lat="60.2285777803" lon="5.10340277039">
		<tag k="fixme" v="consider natural=peak for the most distinct mountains in the district" />
		<tag k="name" v="Blåfjellet" />
		<tag k="natural" v="hill" />
		<tag k="place" v="locality" />
		<tag k="ssr:stedsnr" v="167959" />
	</node>
	<node id="-473654" lat="60.2501861109" lon="5.07322500114">
		<tag k="name" v="Kletten" />
		<tag k="natural" v="hill" />
		<tag k="place" v="locality" />
		<tag k="ssr:stedsnr" v="491502" />
	</node>
	<node id="-473141" lat="60.2620472233" lon="5.11625555475">
		<tag k="name" v="Høghaugen" />
		<tag k="natural" v="hill" />
		<tag k="place" v="locality" />
		<tag k="ssr:stedsnr" v="894206" />
	</node>
	<node id="-473652" lat="60.2642861086" lon="5.06867778351">
		<tag k="name" v="Hammarslandshaugen" />
		<tag k="natural" v="hill" />
		<tag k="place" v="locality" />
		<tag k="ssr:stedsnr" v="491491" />
	</node>
	<node id="-473182" lat="60.2200083309" lon="5.07853333025">
		<tag k="name" v="Erdalen" />
		<tag k="natural" v="valley" />
		<tag k="place" v="locality" />
		<tag k="ssr:stedsnr" v="896969" />
	</node>
	<node id="-473267" lat="60.2114694483" lon="5.15482221538">
		<tag k="name" v="Hegraberget" />
		<tag k="natural" v="hill" />
		<tag k="place" v="locality" />
		<tag k="ssr:stedsnr" v="46981" />
	</node>
	<node id="-473136" lat="60.1979361125" lon="5.13789999382">
		<tag k="fixme" v="consider natural=peak for the most distinct mountains in the district" />
		<tag k="name" v="Høylandsfjellet" />
		<tag k="natural" v="hill" />
		<tag k="place" v="locality" />
		<tag k="ssr:stedsnr" v="410987" />
	</node>
	<node id="-473352" lat="60.2493750006" lon="5.1161194465">
		<tag k="name" v="Snutane" />
		<tag k="place" v="locality" />
		<tag k="ssr:stedsnr" v="106200" />
	</node>
	<node id="-473133" lat="60.2368083306" lon="5.16952777385">
		<tag k="name" v="Porsdalen" />
		<tag k="natural" v="valley" />
		<tag k="place" v="locality" />
		<tag k="ssr:stedsnr" v="410965" />
	</node>
	<node id="-473132" lat="60.2381166668" lon="5.22030554723">
		<tag k="name" v="Haktoren" />
		<tag k="place" v="locality" />
		<tag k="ssr:stedsnr" v="410958" />
	</node>
	<node id="-473131" lat="60.2237277794" lon="5.14312499494">
		<tag k="fixme" v="consider natural=peak for the most distinct mountains in the district" />
		<tag k="name" v="Skautakleiva" />
		<tag k="natural" v="hill" />
		<tag k="place" v="locality" />
		<tag k="ssr:stedsnr" v="410957" />
	</node>
	<node id="-473351" lat="60.2058305561" lon="5.0371111188">
		<tag k="name" v="Arhaugen" />
		<tag k="natural" v="hill" />
		<tag k="place" v="locality" />
		<tag k="ssr:stedsnr" v="106066" />
	</node>
	<node id="-473692" lat="60.2274666634" lon="5.08212500106">
		<tag k="name" v="Svartaberget" />
		<tag k="natural" v="hill" />
		<tag k="place" v="locality" />
		<tag k="ssr:stedsnr" v="530571" />
	</node>
	<node id="-473637" lat="60.22411667" lon="4.9915527693">
		<tag k="name" v="Luten" />
		<tag k="natural" v="hill" />
		<tag k="place" v="locality" />
		<tag k="ssr:stedsnr" v="489589" />
	</node>
	<node id="-473124" lat="60.2068499965" lon="5.10781944905">
		<tag k="name" v="Middagsberget" />
		<tag k="natural" v="hill" />
		<tag k="place" v="locality" />
		<tag k="ssr:stedsnr" v="409969" />
	</node>
	<node id="-473350" lat="60.2726222251" lon="5.08909166957">
		<tag k="name" v="Paradiset" />
		<tag k="place" v="locality" />
		<tag k="ssr:stedsnr" v="106046" />
	</node>
	<node id="-473122" lat="60.1970805544" lon="5.11668332917">
		<tag k="name" v="Langedalen" />
		<tag k="natural" v="valley" />
		<tag k="place" v="locality" />
		<tag k="ssr:stedsnr" v="409957" />
	</node>
	<node id="-473179" lat="60.2045861129" lon="5.10859722751">
		<tag k="name" v="Storevarden" />
		<tag k="natural" v="hill" />
		<tag k="place" v="locality" />
		<tag k="ssr:stedsnr" v="895940" />
	</node>
	<node id="-473671" lat="60.2134416636" lon="5.041813891">
		<tag k="name" v="Orrtua" />
		<tag k="natural" v="hill" />
		<tag k="place" v="locality" />
		<tag k="ssr:stedsnr" v="530055" />
	</node>
	<node id="-473629" lat="60.2321444479" lon="5.0861666628">
		<tag k="name" v="Laurdalen" />
		<tag k="natural" v="valley" />
		<tag k="place" v="locality" />
		<tag k="ssr:stedsnr" v="470955" />
	</node>
	<node id="-473628" lat="60.206563893" lon="5.08361110782">
		<tag k="name" v="Vasshaugen" />
		<tag k="natural" v="hill" />
		<tag k="place" v="locality" />
		<tag k="ssr:stedsnr" v="470952" />
	</node>
	<node id="-473627" lat="60.2074111145" lon="5.07368889621">
		<tag k="name" v="Hovden" />
		<tag k="natural" v="hill" />
		<tag k="place" v="locality" />
		<tag k="ssr:stedsnr" v="470950" />
	</node>
	<node id="-474080" lat="60.2888638929" lon="5.15161944986">
		<tag k="name" v="Gurifluberget" />
		<tag k="natural" v="hill" />
		<tag k="place" v="locality" />
		<tag k="ssr:stedsnr" v="834165" />
	</node>
	<node id="-473432" lat="60.2510694444" lon="4.96956111453">
		<tag k="name" v="Branden" />
		<tag k="natural" v="hill" />
		<tag k="place" v="locality" />
		<tag k="ssr:stedsnr" v="167840" />
	</node>
	<node id="-473620" lat="60.247969442" lon="5.02262222038">
		<tag k="name" v="Spildhelleren" />
		<tag k="natural" v="hill" />
		<tag k="place" v="locality" />
		<tag k="ssr:stedsnr" v="470842" />
	</node>
	<node id="-473108" lat="60.2124444467" lon="5.02837222315">
		<tag k="name" v="Langedalen" />
		<tag k="natural" v="valley" />
		<tag k="place" v="locality" />
		<tag k="ssr:stedsnr" v="409554" />
	</node>
	<node id="-473106" lat="60.1942305599" lon="5.12057222276">
		<tag k="fixme" v="consider natural=peak for the most distinct mountains in the district" />
		<tag k="name" v="Stovefjellet" />
		<tag k="natural" v="hill" />
		<tag k="place" v="locality" />
		<tag k="ssr:stedsnr" v="409528" />
	</node>
	<node id="-473347" lat="60.2043416667" lon="5.03607222978">
		<tag k="name" v="Klakken" />
		<tag k="natural" v="hill" />
		<tag k="place" v="locality" />
		<tag k="ssr:stedsnr" v="105691" />
	</node>
	<node id="-473142" lat="60.2701111144" lon="5.07578055596">
		<tag k="name" v="Grønebakkane" />
		<tag k="natural" v="slope" />
		<tag k="place" v="locality" />
		<tag k="ssr:stedsnr" v="894209" />
	</node>
	<node id="-473615" lat="60.1776666712" lon="5.07161389506">
		<tag k="name" v="Sælskletten" />
		<tag k="natural" v="hill" />
		<tag k="place" v="locality" />
		<tag k="ssr:stedsnr" v="470569" />
	</node>
	<node id="-473614" lat="60.2361027747" lon="5.07221111218">
		<tag k="name" v="Svehaugane" />
		<tag k="natural" v="hill" />
		<tag k="place" v="locality" />
		<tag k="ssr:stedsnr" v="470546" />
	</node>
	<node id="-473613" lat="60.1778638855" lon="5.09862500876">
		<tag k="name" v="Usholmdalen" />
		<tag k="natural" v="valley" />
		<tag k="place" v="locality" />
		<tag k="ssr:stedsnr" v="470543" />
	</node>
	<node id="-473100" lat="60.1884583313" lon="5.05093333229">
		<tag k="name" v="Bandlatua" />
		<tag k="natural" v="hill" />
		<tag k="place" v="locality" />
		<tag k="ssr:stedsnr" v="408540" />
	</node>
	<node id="-473610" lat="60.2523166656" lon="5.04273611393">
		<tag k="name" v="Skorane" />
		<tag k="natural" v="hill" />
		<tag k="place" v="locality" />
		<tag k="ssr:stedsnr" v="470027" />
	</node>
	<node id="-474120" lat="60.2096222259" lon="5.13065278592">
		<tag k="name" v="Vandskaret" />
		<tag k="natural" v="valley" />
		<tag k="place" v="locality" />
		<tag k="ssr:stedsnr" v="835992" />
	</node>
	<node id="-473607" lat="60.1805638849" lon="5.04936389783">
		<tag k="name" v="Sjuren" />
		<tag k="natural" v="hill" />
		<tag k="place" v="locality" />
		<tag k="ssr:stedsnr" v="469698" />
	</node>
	<node id="-473606" lat="60.233305552" lon="5.03467499233">
		<tag k="name" v="Huldhaugen" />
		<tag k="natural" v="hill" />
		<tag k="place" v="locality" />
		<tag k="ssr:stedsnr" v="469692" />
	</node>
	<node id="-473605" lat="60.2319083303" lon="5.03881943852">
		<tag k="name" v="Smånipa" />
		<tag k="natural" v="hill" />
		<tag k="place" v="locality" />
		<tag k="ssr:stedsnr" v="469689" />
	</node>
</osm>
