<?xml version="1.0" encoding="UTF-8"?>
<osm generator="osmapis" version="0.6">
	<node id="-473596" lat="60.2305799675" lon="5.0219786199">
		<tag k="name" v="Lauvholmen" />
		<tag k="place" v="islet" />
		<tag k="ssr:stedsnr" v="469556" />
	</node>
	<node id="-473595" lat="60.1818833341" lon="5.05383888585">
		<tag k="name" v="Uraholmane" />
		<tag k="place" v="islet" />
		<tag k="ssr:stedsnr" v="469555" />
	</node>
	<node id="-473081" lat="60.2544283278" lon="5.11803663403">
		<tag k="name" v="Sangoltsvatnet" />
		<tag k="natural" v="water" />
		<tag k="ssr:stedsnr" v="369901" />
		<tag k="water" v="lake" />
	</node>
	<node id="-474097" lat="60.2240804876" lon="4.98774713682">
		<tag k="name" v="Midtviktjørna" />
		<tag k="natural" v="water" />
		<tag k="ssr:stedsnr" v="834625" />
	</node>
	<node id="-473062" lat="60.2331972253" lon="5.02619999758">
		<tag k="name" v="Lauvvatnet" />
		<tag k="natural" v="water" />
		<tag k="ssr:stedsnr" v="368583" />
	</node>
	<node id="-473977" lat="60.2759549206" lon="4.96991836783">
		<tag k="name" v="Nesvikavatnet" />
		<tag k="natural" v="water" />
		<tag k="ssr:stedsnr" v="733412" />
	</node>
	<node id="-473568" lat="60.2366083326" lon="5.13849167141">
		<tag k="name" v="Krokvatnet" />
		<tag k="natural" v="water" />
		<tag k="ssr:stedsnr" v="429837" />
	</node>
	<node id="-473567" lat="60.2228974949" lon="5.13611604201">
		<tag k="name" v="Børnesvatnet" />
		<tag k="natural" v="water" />
		<tag k="ssr:stedsnr" v="429825" />
	</node>
	<node id="-473051" lat="60.2234333375" lon="5.11098332918">
		<tag k="name" v="Hestatjørna" />
		<tag k="natural" v="water" />
		<tag k="ssr:stedsnr" v="349961" />
	</node>
	<node id="-473050" lat="60.1860888931" lon="5.09950555689">
		<tag k="name" v="Ortadammen" />
		<tag k="natural" v="water" />
		<tag k="ssr:stedsnr" v="349958" />
		<tag k="water" v="lake" />
	</node>
	<node id="-474105" lat="60.2773638844" lon="4.98234444024">
		<tag k="name" v="Kanalen" />
		<tag k="natural" v="bay" />
		<tag k="ssr:stedsnr" v="834798" />
	</node>
	<node id="-473422" lat="60.2420031509" lon="5.05363029927">
		<tag k="name" v="Torvatjørna" />
		<tag k="natural" v="water" />
		<tag k="ssr:stedsnr" v="166801" />
	</node>
	<node id="-474060" lat="60.1866724398" lon="5.0611448383">
		<tag k="alt_name" v="Måsavatnet" />
		<tag k="name" v="Raudtjørnavatnet" />
		<tag k="natural" v="water" />
		<tag k="ssr:stedsnr" v="793752" />
	</node>
	<node id="-473546" lat="60.288607548" lon="5.11523545824">
		<tag k="name" v="Brattestigvatnet" />
		<tag k="natural" v="water" />
		<tag k="ssr:stedsnr" v="248867" />
	</node>
	<node id="-474056" lat="60.2345267831" lon="5.07439115221">
		<tag k="name" v="Langavatnet" />
		<tag k="natural" v="water" />
		<tag k="ssr:stedsnr" v="793595" />
	</node>
	<node id="-473540" lat="60.2055166675" lon="5.14845278539">
		<tag k="name" v="Høylandsvatnet" />
		<tag k="natural" v="water" />
		<tag k="ssr:stedsnr" v="247850" />
	</node>
	<node id="-474048" lat="60.2368162611" lon="5.12520702731">
		<tag k="name" v="Nordra Sundstjørna" />
		<tag k="natural" v="water" />
		<tag k="ssr:stedsnr" v="774944" />
	</node>
	<node id="-473022" lat="60.2376006904" lon="5.04028827164">
		<tag k="name" v="Longstangtjørna" />
		<tag k="natural" v="water" />
		<tag k="ssr:stedsnr" v="348502" />
	</node>
	<node id="-472996" lat="60.2293333309" lon="5.14241943972">
		<tag k="name" v="Sundsvatnet" />
		<tag k="natural" v="water" />
		<tag k="ssr:stedsnr" v="308828" />
	</node>
	<node id="-472995" lat="60.2188166631" lon="5.13565278242">
		<tag k="name" v="Førdesvatnet" />
		<tag k="natural" v="water" />
		<tag k="ssr:stedsnr" v="308818" />
		<tag k="water" v="lake" />
	</node>
	<node id="-473502" lat="60.2382350814" lon="5.01443742851">
		<tag k="name" v="Vindkjeften" />
		<tag k="natural" v="water" />
		<tag k="ssr:stedsnr" v="227797" />
	</node>
	<node id="-472982" lat="60.2389574082" lon="5.01358583953">
		<tag k="name" v="Stovevatnet" />
		<tag k="natural" v="water" />
		<tag k="ssr:stedsnr" v="307561" />
	</node>
	<node id="-472968" lat="60.2309694415" lon="5.1410000018">
		<tag k="name" v="Lambatjørna" />
		<tag k="natural" v="water" />
		<tag k="ssr:stedsnr" v="289952" />
	</node>
	<node id="-473991" lat="60.255991666" lon="5.03126388608">
		<tag k="name" v="Sauholmen" />
		<tag k="place" v="islet" />
		<tag k="ssr:stedsnr" v="734529" />
	</node>
	<node id="-473982" lat="60.1927050918" lon="5.05762016796">
		<tag k="name" v="Monsavatnet" />
		<tag k="natural" v="water" />
		<tag k="ssr:stedsnr" v="733676" />
	</node>
	<node id="-472957" lat="60.2397619979" lon="5.16633795557">
		<tag k="name" v="Vestra tjørna" />
		<tag k="natural" v="water" />
		<tag k="ssr:stedsnr" v="288204" />
	</node>
	<node id="-473980" lat="60.2672542284" lon="4.97417349816">
		<tag k="name" v="Skiteklettsvatnet" />
		<tag k="natural" v="water" />
		<tag k="ssr:stedsnr" v="733445" />
	</node>
	<node id="-472953" lat="60.242930948" lon="5.03297119614">
		<tag k="name" v="Midttjørna" />
		<tag k="natural" v="water" />
		<tag k="ssr:stedsnr" v="287824" />
	</node>
	<node id="-472952" lat="60.283896579" lon="4.97388317721">
		<tag k="fixme" v="multiple name tags, choose one and add the other to alt_name" />
		<tag k="name" v="Mjåvasstjørna;Søra Gullkjelda" />
		<tag k="natural" v="water" />
		<tag k="ssr:stedsnr" v="287819" />
	</node>
	<node id="-472948" lat="60.2231928532" lon="5.00877175482">
		<tag k="name" v="Kvernavatnet" />
		<tag k="natural" v="water" />
		<tag k="ssr:stedsnr" v="287647" />
		<tag k="water" v="lake" />
	</node>
	<node id="-473459" lat="60.2678401229" lon="5.08049501418">
		<tag k="fixme" v="multiple name tags, choose one and add the other to alt_name" />
		<tag k="name" v="Kvernavatnet;Skogsvatnet" />
		<tag k="natural" v="water" />
		<tag k="ssr:stedsnr" v="188523" />
	</node>
	<node id="-472943" lat="60.1958333341" lon="5.05894166169">
		<tag k="name" v="Klesvatnet" />
		<tag k="natural" v="water" />
		<tag k="ssr:stedsnr" v="287570" />
		<tag k="water" v="lake" />
	</node>
	<node id="-472941" lat="60.2261530663" lon="5.02337419133">
		<tag k="name" v="Goltatjørna" />
		<tag k="natural" v="water" />
		<tag k="ssr:stedsnr" v="287561" />
	</node>
	<node id="-472939" lat="60.2603210951" lon="5.11948593222">
		<tag k="name" v="Støtjørna" />
		<tag k="natural" v="water" />
		<tag k="ssr:stedsnr" v="287249" />
	</node>
	<node id="-473446" lat="60.236736918" lon="5.13234632702">
		<tag k="name" v="Lensmannsvatnet" />
		<tag k="natural" v="water" />
		<tag k="ssr:stedsnr" v="186709" />
	</node>
	<node id="-473956" lat="60.2559223752" lon="5.11940039318">
		<tag k="name" v="Eidestjørna" />
		<tag k="natural" v="water" />
		<tag k="ssr:stedsnr" v="713226" />
	</node>
	<node id="-473955" lat="60.2552225981" lon="5.11496371875">
		<tag k="name" v="Ytsta Sangoltsvatnet" />
		<tag k="natural" v="water" />
		<tag k="ssr:stedsnr" v="713224" />
	</node>
	<node id="-473442" lat="60.2483294861" lon="5.03044127805">
		<tag k="name" v="Klokkarvatnet" />
		<tag k="natural" v="water" />
		<tag k="ssr:stedsnr" v="186599" />
	</node>
	<node id="-473438" lat="60.2350388891" lon="5.12634444913">
		<tag k="name" v="Søra Sundstjørna" />
		<tag k="natural" v="water" />
		<tag k="ssr:stedsnr" v="167953" />
	</node>
	<node id="-473949" lat="60.2494576939" lon="5.05747573782">
		<tag k="name" v="Ormadalstjørna" />
		<tag k="natural" v="water" />
		<tag k="ssr:stedsnr" v="712793" />
	</node>
	<node id="-473948" lat="60.2750305594" lon="4.98890277226">
		<tag k="name" v="Litlekørelen" />
		<tag k="natural" v="water" />
		<tag k="ssr:stedsnr" v="712791" />
		<tag k="water" v="lake" />
	</node>
	<node id="-473947" lat="60.2620833371" lon="4.980266662">
		<tag k="name" v="Midttveitvatnet" />
		<tag k="natural" v="water" />
		<tag k="ssr:stedsnr" v="712786" />
		<tag k="water" v="lake" />
	</node>
	<node id="-473934" lat="60.2237138931" lon="5.02900833503">
		<tag k="name" v="Trolldalsvika" />
		<tag k="natural" v="bay" />
		<tag k="ssr:stedsnr" v="712506" />
	</node>
	<node id="-473933" lat="60.2315388906" lon="5.01521666032">
		<tag k="name" v="Vassvika" />
		<tag k="natural" v="bay" />
		<tag k="ssr:stedsnr" v="712504" />
	</node>
	<node id="-473932" lat="60.2330000014" lon="5.01924166201">
		<tag k="name" v="Lauvneset" />
		<tag k="natural" v="cape" />
		<tag k="ssr:stedsnr" v="712505" />
	</node>
	<node id="-473931" lat="60.2339840947" lon="5.06596598132">
		<tag k="name" v="Allerstjørna" />
		<tag k="natural" v="water" />
		<tag k="ssr:stedsnr" v="712499" />
	</node>
	<node id="-473929" lat="60.2594999968" lon="5.10811111848">
		<tag k="name" v="Bakkatjørna" />
		<tag k="natural" v="water" />
		<tag k="ssr:stedsnr" v="712206" />
	</node>
	<node id="-473410" lat="60.2542342396" lon="5.12058609478">
		<tag k="name" v="Insta Sangoltsvatnet" />
		<tag k="natural" v="water" />
		<tag k="ssr:stedsnr" v="166249" />
	</node>
	<node id="-473898" lat="60.2030147949" lon="5.06270412414">
		<tag k="name" v="Kvernavatnet" />
		<tag k="natural" v="water" />
		<tag k="ssr:stedsnr" v="672687" />
	</node>
	<node id="-473895" lat="60.2387084959" lon="5.10360807278">
		<tag k="name" v="Langavatnet" />
		<tag k="natural" v="water" />
		<tag k="ssr:stedsnr" v="672669" />
		<tag k="water" v="lake" />
	</node>
	<node id="-473894" lat="60.2399642219" lon="5.1133530254">
		<tag k="name" v="Sauatjørna" />
		<tag k="natural" v="water" />
		<tag k="ssr:stedsnr" v="672667" />
	</node>
	<node id="-473376" lat="60.2474820222" lon="5.0148546233">
		<tag k="name" v="Kvernavatnet" />
		<tag k="natural" v="water" />
		<tag k="ssr:stedsnr" v="125550" />
	</node>
	<node id="-473887" lat="60.2302333293" lon="5.10313888153">
		<tag k="name" v="Storelåsvatnet" />
		<tag k="natural" v="water" />
		<tag k="ssr:stedsnr" v="652931" />
		<tag k="water" v="lake" />
	</node>
	<node id="-473886" lat="60.1993827831" lon="5.12344020353">
		<tag k="name" v="Djupatjørna" />
		<tag k="natural" v="water" />
		<tag k="ssr:stedsnr" v="652927" />
	</node>
	<node id="-473885" lat="60.1982499998" lon="5.08975000451">
		<tag k="name" v="Langavatnet" />
		<tag k="natural" v="water" />
		<tag k="ssr:stedsnr" v="652925" />
		<tag k="water" v="lake" />
	</node>
	<node id="-473866" lat="60.2725083375" lon="5.00092221918">
		<tag k="name" v="Hjeltabekken" />
		<tag k="ssr:stedsnr" v="651808" />
		<tag k="waterway" v="stream" />
	</node>
	<node id="-473853" lat="60.1986222192" lon="5.06478611063">
		<tag k="name" v="Eriksvatnet" />
		<tag k="natural" v="water" />
		<tag k="ssr:stedsnr" v="651583" />
		<tag k="water" v="lake" />
	</node>
	<node id="-474154" lat="60.2790159573" lon="4.97894556993">
		<tag k="name" v="Mjåvatnet" />
		<tag k="natural" v="water" />
		<tag k="ssr:stedsnr" v="915418" />
	</node>
	<node id="-473337" lat="60.1864722189" lon="5.05769445074">
		<tag k="name" v="Lonane" />
		<tag k="natural" v="water" />
		<tag k="ssr:stedsnr" v="105539" />
		<tag k="water" v="lake" />
	</node>
	<node id="-473336" lat="60.2191749976" lon="5.03099166687">
		<tag k="name" v="Litlatjørna" />
		<tag k="natural" v="water" />
		<tag k="ssr:stedsnr" v="105540" />
	</node>
	<node id="-473129" lat="60.2067138903" lon="5.08645277985">
		<tag k="name" v="Hamravatnet" />
		<tag k="natural" v="water" />
		<tag k="ssr:stedsnr" v="410942" />
		<tag k="water" v="lake" />
	</node>
	<node id="-473813" lat="60.2213611125" lon="5.02241110363">
		<tag k="name" v="Hølen" />
		<tag k="place" v="locality" />
		<tag k="ssr:stedsnr" v="611694" />
	</node>
	<node id="-473295" lat="60.2749686857" lon="4.98928968558">
		<tag k="name" v="Litlekørelen" />
		<tag k="natural" v="water" />
		<tag k="ssr:stedsnr" v="66456" />
		<tag k="water" v="lake" />
	</node>
	<node id="-473294" lat="60.2690439285" lon="5.00420425124">
		<tag k="name" v="Trollavatnet" />
		<tag k="natural" v="water" />
		<tag k="ssr:stedsnr" v="66451" />
	</node>
	<node id="-473460" lat="60.2538388843" lon="5.03863332625">
		<tag k="name" v="Bleikja" />
		<tag k="place" v="islet" />
		<tag k="ssr:stedsnr" v="188535" />
	</node>
	<node id="-473781" lat="60.2640388888" lon="5.00893610537">
		<tag k="name" v="Lona" />
		<tag k="natural" v="water" />
		<tag k="ssr:stedsnr" v="590794" />
		<tag k="water" v="lake" />
	</node>
	<node id="-473780" lat="60.2611944453" lon="4.9729416715">
		<tag k="name" v="Skrubbisvatnet" />
		<tag k="natural" v="water" />
		<tag k="ssr:stedsnr" v="590790" />
		<tag k="water" v="lake" />
	</node>
	<node id="-473544" lat="60.2706555531" lon="4.98403888512">
		<tag k="name" v="Krokavatnet" />
		<tag k="natural" v="water" />
		<tag k="ssr:stedsnr" v="248485" />
		<tag k="water" v="lake" />
	</node>
	<node id="-473437" lat="60.2331660708" lon="5.10546261951">
		<tag k="name" v="Hestatjørna" />
		<tag k="natural" v="water" />
		<tag k="ssr:stedsnr" v="167945" />
	</node>
	<node id="-473254" lat="60.2316774229" lon="5.04104448767">
		<tag k="name" v="Smånipetjørna" />
		<tag k="natural" v="water" />
		<tag k="ssr:stedsnr" v="45549" />
	</node>
	<node id="-473250" lat="60.2767027774" lon="4.97673333095">
		<tag k="name" v="Otrastokkvatnet" />
		<tag k="natural" v="water" />
		<tag k="ssr:stedsnr" v="44791" />
		<tag k="water" v="lake" />
	</node>
	<node id="-473248" lat="60.1845500031" lon="5.05339999342">
		<tag k="name" v="Vassenden" />
		<tag k="natural" v="bay" />
		<tag k="ssr:stedsnr" v="44517" />
	</node>
	<node id="-473247" lat="60.180158335" lon="5.05484443701">
		<tag k="name" v="Kyrkjesundet" />
		<tag k="natural" v="strait" />
		<tag k="ssr:stedsnr" v="44515" />
	</node>
	<node id="-473242" lat="60.2409527764" lon="5.09730277962">
		<tag k="name" v="Vassneset" />
		<tag k="natural" v="cape" />
		<tag k="ssr:stedsnr" v="44238" />
	</node>
	<node id="-473967" lat="60.2377833331" lon="5.08459999835">
		<tag k="name" v="Djupeskarvatnet" />
		<tag k="natural" v="water" />
		<tag k="ssr:stedsnr" v="713930" />
		<tag k="water" v="lake" />
	</node>
	<node id="-473746" lat="60.2598243803" lon="5.08380433283">
		<tag k="name" v="Hesttjørna" />
		<tag k="natural" v="water" />
		<tag k="ssr:stedsnr" v="551456" />
	</node>
	<node id="-473740" lat="60.2351385395" lon="5.18398993407">
		<tag k="name" v="Storavatnet" />
		<tag k="natural" v="water" />
		<tag k="ssr:stedsnr" v="550843" />
	</node>
	<node id="-473220" lat="60.2642970207" lon="4.97925413901">
		<tag k="name" v="Kaldavatnet" />
		<tag k="natural" v="water" />
		<tag k="ssr:stedsnr" v="6542" />
	</node>
	<node id="-473731" lat="60.2241639695" lon="5.07786905202">
		<tag k="name" v="Vorlandsvatnet" />
		<tag k="natural" v="water" />
		<tag k="ssr:stedsnr" v="550667" />
		<tag k="water" v="lake" />
	</node>
	<node id="-473216" lat="60.2591749974" lon="5.05407500177">
		<tag k="name" v="Purkeneset" />
		<tag k="natural" v="cape" />
		<tag k="ssr:stedsnr" v="6512" />
	</node>
	<node id="-473210" lat="60.2841398078" lon="5.00359475554">
		<tag k="name" v="Kjereidet" />
		<tag k="natural" v="strait" />
		<tag k="ssr:stedsnr" v="5433" />
	</node>
	<node id="-473208" lat="60.2170357768" lon="5.10151435142">
		<tag k="name" v="Grindavatnet" />
		<tag k="natural" v="water" />
		<tag k="ssr:stedsnr" v="4841" />
	</node>
	<node id="-474230" lat="60.2034416653" lon="5.11784999725">
		<tag k="name" v="Trollavatnet" />
		<tag k="natural" v="water" />
		<tag k="ssr:stedsnr" v="956958" />
		<tag k="water" v="lake" />
	</node>
	<node id="-473197" lat="60.2399806588" lon="5.00036626165">
		<tag k="name" v="Sandvikvatnet" />
		<tag k="natural" v="water" />
		<tag k="ssr:stedsnr" v="4547" />
	</node>
	<node id="-473191" lat="60.240507458" lon="5.17024014209">
		<tag k="name" v="Austra tjørna" />
		<tag k="natural" v="water" />
		<tag k="ssr:stedsnr" v="991197" />
	</node>
	<node id="-474206" lat="60.1746916689" lon="5.05797499316">
		<tag k="name" v="Litlavatnet" />
		<tag k="natural" v="water" />
		<tag k="ssr:stedsnr" v="955617" />
		<tag k="water" v="lake" />
	</node>
	<node id="-474199" lat="60.1936388917" lon="5.06398055834">
		<tag k="name" v="Ilkjervatnet" />
		<tag k="natural" v="water" />
		<tag k="ssr:stedsnr" v="955527" />
		<tag k="water" v="lake" />
	</node>
	<node id="-473686" lat="60.2558333336" lon="5.07547500875">
		<tag k="name" v="Skjentjørna" />
		<tag k="natural" v="water" />
		<tag k="ssr:stedsnr" v="530271" />
	</node>
	<node id="-474197" lat="60.2640666696" lon="5.10652777766">
		<tag k="name" v="Skagatjørna" />
		<tag k="natural" v="water" />
		<tag k="ssr:stedsnr" v="955224" />
	</node>
	<node id="-473101" lat="60.2257264536" lon="5.03356779311">
		<tag k="name" v="Botnatjørna" />
		<tag k="natural" v="water" />
		<tag k="ssr:stedsnr" v="408555" />
	</node>
	<node id="-473159" lat="60.2394363801" lon="5.02498407283">
		<tag k="name" v="Krokodillen" />
		<tag k="natural" v="water" />
		<tag k="ssr:stedsnr" v="894824" />
	</node>
	<node id="-473158" lat="60.2501409477" lon="5.03047970059">
		<tag k="name" v="Mjåneset" />
		<tag k="natural" v="cape" />
		<tag k="ssr:stedsnr" v="894820" />
	</node>
	<node id="-473099" lat="60.2403277782" lon="5.09772222654">
		<tag k="name" v="Vassvika" />
		<tag k="natural" v="bay" />
		<tag k="ssr:stedsnr" v="408246" />
	</node>
	<node id="-473655" lat="60.254852782" lon="5.04393889375">
		<tag k="name" v="Verasundet" />
		<tag k="natural" v="strait" />
		<tag k="ssr:stedsnr" v="491510" />
	</node>
	<node id="-474170" lat="60.2535000024" lon="5.05620278118">
		<tag k="name" v="Smedvika" />
		<tag k="natural" v="bay" />
		<tag k="ssr:stedsnr" v="916504" />
	</node>
	<node id="-474169" lat="60.2157694434" lon="5.11451110703">
		<tag k="name" v="Nyatrævatnet" />
		<tag k="natural" v="water" />
		<tag k="ssr:stedsnr" v="915873" />
	</node>
	<node id="-474167" lat="60.286553001" lon="5.13496050051">
		<tag k="name" v="Røssevikvatnet" />
		<tag k="natural" v="water" />
		<tag k="ssr:stedsnr" v="915814" />
	</node>
	<node id="-473653" lat="60.2620666626" lon="5.00211944121">
		<tag k="name" v="Gåsavatnet" />
		<tag k="natural" v="water" />
		<tag k="ssr:stedsnr" v="491495" />
		<tag k="water" v="lake" />
	</node>
	<node id="-473645" lat="60.1789472213" lon="5.05481943768">
		<tag k="name" v="Storavatnet" />
		<tag k="natural" v="water" />
		<tag k="ssr:stedsnr" v="490736" />
		<tag k="water" v="lake" />
	</node>
	<node id="-473642" lat="60.2476776493" lon="5.10636772624">
		<tag k="name" v="Dommedalsvatnet" />
		<tag k="natural" v="water" />
		<tag k="ssr:stedsnr" v="490664" />
		<tag k="water" v="lake" />
	</node>
	<node id="-473641" lat="60.2859961187" lon="4.97496304786">
		<tag k="alt_name" v="Sævartjørna" />
		<tag k="name" v="Nordra Gullkjelda" />
		<tag k="natural" v="water" />
		<tag k="ssr:stedsnr" v="490443" />
	</node>
	<node id="-474152" lat="60.2222912597" lon="5.03431265135">
		<tag k="name" v="Kvernaviksvatnet" />
		<tag k="natural" v="water" />
		<tag k="ssr:stedsnr" v="914716" />
	</node>
	<node id="-473631" lat="60.1713826635" lon="5.09102198382">
		<tag k="name" v="Kyrkjesundet" />
		<tag k="place" v="locality" />
		<tag k="ssr:stedsnr" v="470995" />
	</node>
	<node id="-474131" lat="60.2693555585" lon="4.96816388142">
		<tag k="name" v="Trollavatnet" />
		<tag k="natural" v="water" />
		<tag k="ssr:stedsnr" v="855470" />
	</node>
	<node id="-473103" lat="60.2405433303" lon="5.06936263741">
		<tag k="name" v="Kvernavatnet" />
		<tag k="natural" v="water" />
		<tag k="ssr:stedsnr" v="409043" />
		<tag k="water" v="lake" />
	</node>
	<node id="-474125" lat="60.1908472214" lon="5.04725278552">
		<tag k="name" v="Trelleviksvatnet" />
		<tag k="natural" v="water" />
		<tag k="ssr:stedsnr" v="854685" />
	</node>
	<node id="-473612" lat="60.2402232507" lon="5.1053957938">
		<tag k="name" v="Stora Torvhustjørna" />
		<tag k="natural" v="water" />
		<tag k="ssr:stedsnr" v="470207" />
	</node>
	<node id="-473611" lat="60.2412916682" lon="5.12448055459">
		<tag k="name" v="Setratjørna" />
		<tag k="natural" v="water" />
		<tag k="ssr:stedsnr" v="470205" />
	</node>
	<node id="-473609" lat="60.2539416688" lon="5.06103610638">
		<tag k="name" v="Kørelen" />
		<tag k="natural" v="water" />
		<tag k="ssr:stedsnr" v="469805" />
		<tag k="water" v="lake" />
	</node>
	<node id="-474117" lat="60.217975003" lon="5.11490555872">
		<tag k="name" v="Tangavatnet" />
		<tag k="natural" v="water" />
		<tag k="ssr:stedsnr" v="835943" />
		<tag k="water" v="lake" />
	</node>
	<node id="-474116" lat="60.2268416661" lon="5.07549444104">
		<tag k="name" v="Vassvika" />
		<tag k="natural" v="bay" />
		<tag k="ssr:stedsnr" v="835940" />
	</node>
</osm>
