<?xml version="1.0" encoding="UTF-8"?>
<osm version="0.6" generator="osmapis">
	<node id="29879223" lat="60.5680817" lon="9.102749" version="5" timestamp="2022-04-02T05:57:18Z" changeset="119224206" uid="3497659" user="NKA">
		<tag k="name" v="Nesbyen" />
		<tag k="place" v="village" />
		<tag k="population" v="2118" />
		<tag k="population:date" v="2021-01-01" />
		<tag k="ref:ssb_tettsted" v="2051" />
		<tag k="source:population" v="SSB - befolkning i tettstedet" />
		<tag k="ssr:stedsnr" v="613433" />
	</node>
	<node id="820266543" lat="60.535716" lon="8.8216071" version="2" timestamp="2022-04-02T05:57:18Z" changeset="119224206" uid="3497659" user="NKA">
		<tag k="name" v="Myking" />
		<tag k="place" v="quarter" />
		<tag k="ssr:stedsnr" v="674213" />
	</node>
	<node id="820266885" lat="60.53255" lon="8.7629695" version="2" timestamp="2022-04-02T05:57:18Z" changeset="119224206" uid="3497659" user="NKA">
		<tag k="name" v="Grønhovd" />
		<tag k="place" v="hamlet" />
		<tag k="ssr:stedsnr" v="613216" />
	</node>
	<node id="2400054934" lat="60.607458" lon="9.0765301" version="2" timestamp="2022-04-02T05:57:18Z" changeset="119224206" uid="3497659" user="NKA">
		<tag k="name" v="Skogen" />
		<tag k="official_name" v="Skogen" />
		<tag k="place" v="farm" />
		<tag k="ssr:stedsnr" v="189423" />
	</node>
	<node id="5511785994" lat="60.575965" lon="9.3288129" version="2" timestamp="2022-04-02T05:57:18Z" changeset="119224206" uid="3497659" user="NKA">
		<tag k="historic" v="shieling" />
		<tag k="name" v="Kråkehaugen" />
		<tag k="place" v="hamlet" />
		<tag k="ssr:stedsnr" v="735822" />
	</node>
	<node id="9630861283" lat="60.4863872" lon="8.8178931" version="1" timestamp="2022-04-02T05:57:18Z" changeset="119224206" uid="3497659" user="NKA">
		<tag k="name" v="Buvassbrenna" />
		<tag k="place" v="farm" />
		<tag k="ssr:stedsnr" v="309092" />
	</node>
	<node id="9630861284" lat="60.6415384" lon="9.031102" version="1" timestamp="2022-04-02T05:57:18Z" changeset="119224206" uid="3497659" user="NKA">
		<tag k="name" v="Søre Garnås" />
		<tag k="place" v="farm" />
		<tag k="ssr:stedsnr" v="328810" />
	</node>
	<node id="9630861285" lat="60.529158" lon="8.9054714" version="1" timestamp="2022-04-02T05:57:18Z" changeset="119224206" uid="3497659" user="NKA">
		<tag k="name" v="Rukkelien" />
		<tag k="place" v="hamlet" />
		<tag k="ssr:stedsnr" v="432598" />
	</node>
	<node id="9630861286" lat="60.5619615" lon="9.1319085" version="1" timestamp="2022-04-02T05:57:18Z" changeset="119224206" uid="3497659" user="NKA">
		<tag k="name" v="Halsteinplass" />
		<tag k="place" v="farm" />
		<tag k="ssr:stedsnr" v="631067" />
	</node>
	<node id="9630861287" lat="60.6191056" lon="9.0102862" version="1" timestamp="2022-04-02T05:57:18Z" changeset="119224206" uid="3497659" user="NKA">
		<tag k="name" v="Furumohytta" />
		<tag k="place" v="isolated_dwelling" />
		<tag k="ssr:stedsnr" v="917420" />
	</node>
	<node id="9630861288" lat="60.5255306" lon="9.0290388" version="1" timestamp="2022-04-02T05:57:18Z" changeset="119224206" uid="3497659" user="NKA">
		<tag k="name" v="Tverrlie" />
		<tag k="place" v="neighbourhood" />
		<tag k="ssr:stedsnr" v="163350" />
	</node>
	<node id="9630861289" lat="60.5400306" lon="8.9787112" version="1" timestamp="2022-04-02T05:57:18Z" changeset="119224206" uid="3497659" user="NKA">
		<tag k="name" v="Veslestølen" />
		<tag k="place" v="locality" />
		<tag k="ssr:stedsnr" v="613563" />
	</node>
	<node id="9630861290" lat="60.6416861" lon="9.1479666" version="1" timestamp="2022-04-02T05:57:18Z" changeset="119224206" uid="3497659" user="NKA">
		<tag k="historic" v="shieling" />
		<tag k="name" v="Møne" />
		<tag k="place" v="isolated_dwelling" />
		<tag k="ssr:stedsnr" v="249493" />
	</node>
	<node id="9630861291" lat="60.4852123" lon="9.2054243" version="1" timestamp="2022-04-02T05:57:18Z" changeset="119224206" uid="3497659" user="NKA">
		<tag k="name" v="Islandsrud" />
		<tag k="place" v="farm" />
		<tag k="ssr:stedsnr" v="612283" />
	</node>
	<node id="9630861292" lat="60.5444167" lon="9.143386" version="1" timestamp="2022-04-02T05:57:18Z" changeset="119224206" uid="3497659" user="NKA">
		<tag k="name" v="Bringerud" />
		<tag k="place" v="farm" />
		<tag k="ssr:stedsnr" v="7582" />
	</node>
	<node id="9630861293" lat="60.5633211" lon="9.0226689" version="1" timestamp="2022-04-02T05:57:18Z" changeset="119224206" uid="3497659" user="NKA">
		<tag k="name" v="Eidal" />
		<tag k="place" v="quarter" />
		<tag k="ssr:stedsnr" v="388650" />
	</node>
	<node id="9630861294" lat="60.5702862" lon="9.0627092" version="1" timestamp="2022-04-02T05:57:18Z" changeset="119224206" uid="3497659" user="NKA">
		<tag k="name" v="Djupedokk" />
		<tag k="place" v="farm" />
		<tag k="ssr:stedsnr" v="874574" />
	</node>
	<node id="9630861295" lat="60.5913305" lon="8.832164" version="1" timestamp="2022-04-02T05:57:18Z" changeset="119224206" uid="3497659" user="NKA">
		<tag k="historic" v="shieling" />
		<tag k="name" v="Buglebjørk" />
		<tag k="place" v="isolated_dwelling" />
		<tag k="ssr:stedsnr" v="362435" />
	</node>
	<node id="9630861296" lat="60.5629531" lon="9.2228617" version="1" timestamp="2022-04-02T05:57:18Z" changeset="119224206" uid="3497659" user="NKA">
		<tag k="name" v="Tovasslihytta" />
		<tag k="place" v="isolated_dwelling" />
		<tag k="ssr:stedsnr" v="631438" />
	</node>
	<node id="9630861297" lat="60.628236" lon="9.0717961" version="1" timestamp="2022-04-02T05:57:18Z" changeset="119224206" uid="3497659" user="NKA">
		<tag k="alt_name" v="Bråten" />
		<tag k="name" v="Nedre Bråten" />
		<tag k="place" v="farm" />
		<tag k="ssr:stedsnr" v="189458" />
	</node>
	<node id="9630861298" lat="60.5731836" lon="9.0282929" version="1" timestamp="2022-04-02T05:57:18Z" changeset="119224206" uid="3497659" user="NKA">
		<tag k="name" v="Medås" />
		<tag k="place" v="farm" />
		<tag k="ssr:stedsnr" v="310448" />
	</node>
	<node id="9630861299" lat="60.6572528" lon="8.9451778" version="1" timestamp="2022-04-02T05:57:18Z" changeset="119224206" uid="3497659" user="NKA">
		<tag k="historic" v="shieling" />
		<tag k="name" v="Joneflatdalen" />
		<tag k="place" v="isolated_dwelling" />
		<tag k="ssr:stedsnr" v="370317" />
	</node>
	<node id="9630861300" lat="60.4687361" lon="9.2605972" version="1" timestamp="2022-04-02T05:57:18Z" changeset="119224206" uid="3497659" user="NKA">
		<tag k="name" v="Padderud" />
		<tag k="place" v="locality" />
		<tag k="ssr:stedsnr" v="693914" />
	</node>
	<node id="9630861301" lat="60.5541523" lon="9.1342631" version="1" timestamp="2022-04-02T05:57:18Z" changeset="119224206" uid="3497659" user="NKA">
		<tag k="name" v="Persmoen" />
		<tag k="place" v="farm" />
		<tag k="ssr:stedsnr" v="450054" />
	</node>
	<node id="9630861302" lat="60.6552388" lon="9.1466888" version="1" timestamp="2022-04-02T05:57:18Z" changeset="119224206" uid="3497659" user="NKA">
		<tag k="historic" v="shieling" />
		<tag k="name" v="Dokkmøne" />
		<tag k="place" v="isolated_dwelling" />
		<tag k="ssr:stedsnr" v="328442" />
	</node>
	<node id="9630861303" lat="60.5725811" lon="9.0512866" version="1" timestamp="2022-04-02T05:57:18Z" changeset="119224206" uid="3497659" user="NKA">
		<tag k="name" v="Træo" />
		<tag k="place" v="farm" />
		<tag k="ssr:stedsnr" v="207621" />
	</node>
	<node id="9630861304" lat="60.5631431" lon="9.037159" version="1" timestamp="2022-04-02T05:57:18Z" changeset="119224206" uid="3497659" user="NKA">
		<tag k="name" v="Kvarve" />
		<tag k="place" v="farm" />
		<tag k="ssr:stedsnr" v="249394" />
	</node>
	<node id="9630861305" lat="60.6442408" lon="9.0973197" version="1" timestamp="2022-04-02T05:57:18Z" changeset="119224206" uid="3497659" user="NKA">
		<tag k="name" v="Øvre Kastet" />
		<tag k="place" v="farm" />
		<tag k="ssr:stedsnr" v="856537" />
	</node>
	<node id="9630861306" lat="60.4669821" lon="9.1944667" version="1" timestamp="2022-04-02T05:57:18Z" changeset="119224206" uid="3497659" user="NKA">
		<tag k="name" v="Nørdre Mjølid" />
		<tag k="place" v="farm" />
		<tag k="ssr:stedsnr" v="207699" />
	</node>
	<node id="9630861307" lat="60.5587423" lon="9.053183" version="1" timestamp="2022-04-02T05:57:18Z" changeset="119224206" uid="3497659" user="NKA">
		<tag k="name" v="Langeslett" />
		<tag k="place" v="farm" />
		<tag k="ssr:stedsnr" v="432371" />
	</node>
	<node id="9630861308" lat="60.529" lon="9.2485195" version="1" timestamp="2022-04-02T05:57:18Z" changeset="119224206" uid="3497659" user="NKA">
		<tag k="historic" v="shieling" />
		<tag k="name" v="Heimstølan" />
		<tag k="place" v="isolated_dwelling" />
		<tag k="ssr:stedsnr" v="7749" />
	</node>
	<node id="9630861309" lat="60.5420611" lon="9.1555861" version="1" timestamp="2022-04-02T05:57:18Z" changeset="119224206" uid="3497659" user="NKA">
		<tag k="name" v="Nørdre Rudsviken" />
		<tag k="place" v="farm" />
		<tag k="ssr:stedsnr" v="796591" />
	</node>
	<node id="9630861310" lat="60.5713221" lon="9.133045" version="1" timestamp="2022-04-02T05:57:18Z" changeset="119224206" uid="3497659" user="NKA">
		<tag k="name" v="Dalen" />
		<tag k="place" v="farm" />
		<tag k="ssr:stedsnr" v="795483" />
	</node>
	<node id="9630861311" lat="60.4553118" lon="9.1794399" version="1" timestamp="2022-04-02T05:57:18Z" changeset="119224206" uid="3497659" user="NKA">
		<tag k="historic" v="shieling" />
		<tag k="name" v="Sverigseter" />
		<tag k="place" v="isolated_dwelling" />
		<tag k="ssr:stedsnr" v="693726" />
	</node>
	<node id="9630861312" lat="60.4648" lon="8.98425" version="1" timestamp="2022-04-02T05:57:18Z" changeset="119224206" uid="3497659" user="NKA">
		<tag k="historic" v="shieling" />
		<tag k="name" v="Vestre Brynhildstølen" />
		<tag k="place" v="isolated_dwelling" />
		<tag k="ssr:stedsnr" v="249286" />
	</node>
	<node id="9630861313" lat="60.564875" lon="9.1092389" version="1" timestamp="2022-04-02T05:57:18Z" changeset="119224206" uid="3497659" user="NKA">
		<tag k="alt_name" v="Jørenmoen" />
		<tag k="name" v="Jørgenmoen" />
		<tag k="place" v="farm" />
		<tag k="ssr:stedsnr" v="917356" />
	</node>
	<node id="9630861314" lat="60.5568695" lon="9.3197445" version="1" timestamp="2022-04-02T05:57:18Z" changeset="119224206" uid="3497659" user="NKA">
		<tag k="historic" v="shieling" />
		<tag k="name" v="Båtstjernlie" />
		<tag k="place" v="isolated_dwelling" />
		<tag k="ssr:stedsnr" v="310851" />
	</node>
	<node id="9630861315" lat="60.5408695" lon="9.0448194" version="1" timestamp="2022-04-02T05:57:18Z" changeset="119224206" uid="3497659" user="NKA">
		<tag k="name" v="Natten" />
		<tag k="place" v="neighbourhood" />
		<tag k="ssr:stedsnr" v="492553" />
	</node>
	<node id="9630861316" lat="60.4756274" lon="9.2234707" version="1" timestamp="2022-04-02T05:57:18Z" changeset="119224206" uid="3497659" user="NKA">
		<tag k="name" v="Geiterygghaugen" />
		<tag k="place" v="farm" />
		<tag k="ssr:stedsnr" v="754898" />
	</node>
	<node id="9630863417" lat="60.4855778" lon="9.1986751" version="1" timestamp="2022-04-02T05:57:18Z" changeset="119224206" uid="3497659" user="NKA">
		<tag k="name" v="Nedre Bakko" />
		<tag k="place" v="farm" />
		<tag k="ssr:stedsnr" v="146127" />
	</node>
	<node id="9630863418" lat="60.5590723" lon="8.8737973" version="1" timestamp="2022-04-02T05:57:18Z" changeset="119224206" uid="3497659" user="NKA">
		<tag k="name" v="Belgefet" />
		<tag k="place" v="hamlet" />
		<tag k="ssr:stedsnr" v="450810" />
	</node>
	<node id="9630863419" lat="60.4730188" lon="9.1860354" version="1" timestamp="2022-04-02T05:57:18Z" changeset="119224206" uid="3497659" user="NKA">
		<tag k="name" v="Nedre Børdalen" />
		<tag k="place" v="farm" />
		<tag k="ssr:stedsnr" v="369273" />
	</node>
	<node id="9630863420" lat="60.5411611" lon="9.1469528" version="1" timestamp="2022-04-02T05:57:18Z" changeset="119224206" uid="3497659" user="NKA">
		<tag k="name" v="Hornløkken" />
		<tag k="place" v="farm" />
		<tag k="ssr:stedsnr" v="389177" />
	</node>
	<node id="9630863421" lat="60.4563778" lon="9.1970361" version="1" timestamp="2022-04-02T05:57:18Z" changeset="119224206" uid="3497659" user="NKA">
		<tag k="name" v="Heiehaugen" />
		<tag k="place" v="farm" />
		<tag k="ssr:stedsnr" v="6319" />
	</node>
	<node id="9630863422" lat="60.5646306" lon="9.0586945" version="1" timestamp="2022-04-02T05:57:18Z" changeset="119224206" uid="3497659" user="NKA">
		<tag k="name" v="Valdresbråten" />
		<tag k="place" v="farm" />
		<tag k="ssr:stedsnr" v="674373" />
	</node>
	<node id="9630863423" lat="60.4946889" lon="9.1385695" version="1" timestamp="2022-04-02T05:57:18Z" changeset="119224206" uid="3497659" user="NKA">
		<tag k="historic" v="shieling" />
		<tag k="name" v="Gireliseter" />
		<tag k="place" v="isolated_dwelling" />
		<tag k="ssr:stedsnr" v="814722" />
	</node>
	<node id="9630863424" lat="60.482975" lon="9.17735" version="1" timestamp="2022-04-02T05:57:18Z" changeset="119224206" uid="3497659" user="NKA">
		<tag k="name" v="Brenno" />
		<tag k="place" v="farm" />
		<tag k="ssr:stedsnr" v="5266" />
	</node>
	<node id="9630863425" lat="60.5171389" lon="9.1599834" version="1" timestamp="2022-04-02T05:57:18Z" changeset="119224206" uid="3497659" user="NKA">
		<tag k="name" v="Årtun" />
		<tag k="place" v="farm" />
		<tag k="ssr:stedsnr" v="67626" />
	</node>
	<node id="9630863426" lat="60.5293791" lon="8.900987" version="1" timestamp="2022-04-02T05:57:18Z" changeset="119224206" uid="3497659" user="NKA">
		<tag k="name" v="Nedrestølen" />
		<tag k="place" v="farm" />
		<tag k="ssr:stedsnr" v="735598" />
	</node>
	<node id="9630863427" lat="60.5706935" lon="9.0099441" version="1" timestamp="2022-04-02T05:57:18Z" changeset="119224206" uid="3497659" user="NKA">
		<tag k="name" v="Nedre Sandanbråten" />
		<tag k="place" v="isolated_dwelling" />
		<tag k="ssr:stedsnr" v="753927" />
	</node>
	<node id="9630863428" lat="60.6551277" lon="9.2686777" version="1" timestamp="2022-04-02T05:57:18Z" changeset="119224206" uid="3497659" user="NKA">
		<tag k="historic" v="shieling" />
		<tag k="name" v="Storelie" />
		<tag k="place" v="isolated_dwelling" />
		<tag k="ssr:stedsnr" v="674738" />
	</node>
	<node id="9630863429" lat="60.5028222" lon="9.178539" version="1" timestamp="2022-04-02T05:57:18Z" changeset="119224206" uid="3497659" user="NKA">
		<tag k="name" v="Sundet" />
		<tag k="place" v="farm" />
		<tag k="ssr:stedsnr" v="674510" />
	</node>
	<node id="9630863430" lat="60.6409306" lon="9.0164166" version="1" timestamp="2022-04-02T05:57:18Z" changeset="119224206" uid="3497659" user="NKA">
		<tag k="name" v="Livgard" />
		<tag k="old_name" v="Livgaarden" />
		<tag k="place" v="farm" />
		<tag k="ssr:stedsnr" v="796470" />
	</node>
	<node id="9630863431" lat="60.5169351" lon="9.177887" version="1" timestamp="2022-04-02T05:57:18Z" changeset="119224206" uid="3497659" user="NKA">
		<tag k="name" v="Bentehaugen" />
		<tag k="place" v="farm" />
		<tag k="ssr:stedsnr" v="917583" />
	</node>
	<node id="9630863432" lat="60.6175472" lon="9.1435277" version="1" timestamp="2022-04-02T05:57:18Z" changeset="119224206" uid="3497659" user="NKA">
		<tag k="historic" v="shieling" />
		<tag k="name" v="Fingarvollen" />
		<tag k="place" v="isolated_dwelling" />
		<tag k="ssr:stedsnr" v="128423" />
	</node>
	<node id="9630863433" lat="60.5998806" lon="9.2868445" version="1" timestamp="2022-04-02T05:57:18Z" changeset="119224206" uid="3497659" user="NKA">
		<tag k="historic" v="shieling" />
		<tag k="name" v="Lyseren" />
		<tag k="place" v="hamlet" />
		<tag k="ssr:stedsnr" v="310670" />
	</node>
	<node id="9630863434" lat="60.529456" lon="8.9188595" version="1" timestamp="2022-04-02T05:57:18Z" changeset="119224206" uid="3497659" user="NKA">
		<tag k="name" v="Låflate" />
		<tag k="place" v="farm" />
		<tag k="ssr:stedsnr" v="917589" />
	</node>
	<node id="9630863435" lat="60.5314392" lon="8.9127063" version="1" timestamp="2022-04-02T05:57:18Z" changeset="119224206" uid="3497659" user="NKA">
		<tag k="name" v="Myrerukke" />
		<tag k="place" v="farm" />
		<tag k="ssr:stedsnr" v="492580" />
	</node>
	<node id="9630863436" lat="60.5551917" lon="8.7822416" version="1" timestamp="2022-04-02T05:57:18Z" changeset="119224206" uid="3497659" user="NKA">
		<tag k="alt_name" v="Skårsrudstølen" />
		<tag k="historic" v="shieling" />
		<tag k="name" v="Skålsrudstølen" />
		<tag k="place" v="isolated_dwelling" />
		<tag k="ssr:stedsnr" v="726291" />
	</node>
	<node id="9630863437" lat="60.5367528" lon="9.273675" version="1" timestamp="2022-04-02T05:57:18Z" changeset="119224206" uid="3497659" user="NKA">
		<tag k="name" v="Urdelie" />
		<tag k="place" v="isolated_dwelling" />
		<tag k="ssr:stedsnr" v="371873" />
	</node>
	<node id="9630863438" lat="60.5663174" lon="9.1550002" version="1" timestamp="2022-04-02T05:57:18Z" changeset="119224206" uid="3497659" user="NKA">
		<tag k="name" v="Paddedokk" />
		<tag k="place" v="isolated_dwelling" />
		<tag k="ssr:stedsnr" v="631204" />
	</node>
	<node id="9630863439" lat="60.52315" lon="9.1708361" version="1" timestamp="2022-04-02T05:57:18Z" changeset="119224206" uid="3497659" user="NKA">
		<tag k="name" v="Rødningen" />
		<tag k="place" v="farm" />
		<tag k="ssr:stedsnr" v="370623" />
	</node>
	<node id="9630863440" lat="60.5644666" lon="9.3125223" version="1" timestamp="2022-04-02T05:57:18Z" changeset="119224206" uid="3497659" user="NKA">
		<tag k="historic" v="shieling" />
		<tag k="name" v="Sandfet" />
		<tag k="place" v="isolated_dwelling" />
		<tag k="ssr:stedsnr" v="856852" />
	</node>
	<node id="9630863441" lat="60.5384694" lon="9.1904527" version="1" timestamp="2022-04-02T05:57:18Z" changeset="119224206" uid="3497659" user="NKA">
		<tag k="name" v="Nedre Storeli" />
		<tag k="place" v="farm" />
		<tag k="ssr:stedsnr" v="250612" />
	</node>
	<node id="9630863442" lat="60.6449139" lon="9.2286279" version="1" timestamp="2022-04-02T05:57:18Z" changeset="119224206" uid="3497659" user="NKA">
		<tag k="historic" v="shieling" />
		<tag k="name" v="Dypilen" />
		<tag k="place" v="isolated_dwelling" />
		<tag k="ssr:stedsnr" v="268414" />
	</node>
	<node id="9630863443" lat="60.4845945" lon="9.1990167" version="1" timestamp="2022-04-02T05:57:18Z" changeset="119224206" uid="3497659" user="NKA">
		<tag k="name" v="Øvre Bakko" />
		<tag k="place" v="farm" />
		<tag k="ssr:stedsnr" v="510133" />
	</node>
	<node id="9630863444" lat="60.5548778" lon="9.1148222" version="1" timestamp="2022-04-02T05:57:18Z" changeset="119224206" uid="3497659" user="NKA">
		<tag k="name" v="Olsenbråten" />
		<tag k="place" v="farm" />
		<tag k="ssr:stedsnr" v="128568" />
	</node>
	<node id="9630863445" lat="60.5607336" lon="9.1083695" version="1" timestamp="2022-04-02T05:57:18Z" changeset="119224206" uid="3497659" user="NKA">
		<tag k="name" v="Roen" />
		<tag k="place" v="farm" />
		<tag k="ssr:stedsnr" v="310581" />
	</node>
	<node id="9630863446" lat="60.6505051" lon="9.0256373" version="1" timestamp="2022-04-02T05:57:18Z" changeset="119224206" uid="3497659" user="NKA">
		<tag k="name" v="Holtegardsbråten" />
		<tag k="place" v="farm" />
		<tag k="ssr:stedsnr" v="856295" />
	</node>
	<node id="9630863447" lat="60.474875" lon="9.2301501" version="1" timestamp="2022-04-02T05:57:18Z" changeset="119224206" uid="3497659" user="NKA">
		<tag k="name" v="Kleven" />
		<tag k="place" v="farm" />
		<tag k="ssr:stedsnr" v="188385" />
	</node>
	<node id="9630863448" lat="60.5329667" lon="9.1551417" version="1" timestamp="2022-04-02T05:57:18Z" changeset="119224206" uid="3497659" user="NKA">
		<tag k="alt_name" v="Viki" />
		<tag k="name" v="Viken" />
		<tag k="place" v="farm" />
		<tag k="ssr:stedsnr" v="613613" />
	</node>
	<node id="9630863449" lat="60.6536931" lon="9.3534262" version="1" timestamp="2022-04-02T05:57:18Z" changeset="119224206" uid="3497659" user="NKA">
		<tag k="historic" v="shieling" />
		<tag k="name" v="Indre Trytehølet" />
		<tag k="place" v="isolated_dwelling" />
		<tag k="ssr:stedsnr" v="753244" />
	</node>
	<node id="9630863450" lat="60.5611882" lon="9.0203797" version="1" timestamp="2022-04-02T05:57:18Z" changeset="119224206" uid="3497659" user="NKA">
		<tag k="name" v="Brusletten" />
		<tag k="place" v="farm" />
		<tag k="ssr:stedsnr" v="7379" />
	</node>
	<node id="9630863451" lat="60.5779641" lon="9.0945711" version="1" timestamp="2022-04-02T05:57:18Z" changeset="119224206" uid="3497659" user="NKA">
		<tag k="name" v="Støen" />
		<tag k="place" v="farm" />
		<tag k="ssr:stedsnr" v="510090" />
	</node>
	<node id="9630863452" lat="60.51175" lon="9.1617055" version="1" timestamp="2022-04-02T05:57:18Z" changeset="119224206" uid="3497659" user="NKA">
		<tag k="name" v="Skreddargarden" />
		<tag k="place" v="farm" />
		<tag k="ssr:stedsnr" v="674527" />
	</node>
	<node id="9630863453" lat="60.572417" lon="9.0231332" version="1" timestamp="2022-04-02T05:57:18Z" changeset="119224206" uid="3497659" user="NKA">
		<tag k="name" v="Nybråten" />
		<tag k="place" v="farm" />
		<tag k="ssr:stedsnr" v="25964" />
	</node>
	<node id="9630863454" lat="60.4259642" lon="9.1961172" version="1" timestamp="2022-04-02T05:57:18Z" changeset="119224206" uid="3497659" user="NKA">
		<tag k="name" v="Panten" />
		<tag k="place" v="hamlet" />
		<tag k="ssr:stedsnr" v="571669" />
	</node>
	<node id="9630863455" lat="60.4339056" lon="9.1076945" version="1" timestamp="2022-04-02T05:57:18Z" changeset="119224206" uid="3497659" user="NKA">
		<tag k="name" v="Buvasslie" />
		<tag k="place" v="hamlet" />
		<tag k="ssr:stedsnr" v="856377" />
	</node>
	<node id="9630863456" lat="60.6280151" lon="9.0626751" version="1" timestamp="2022-04-02T05:57:18Z" changeset="119224206" uid="3497659" user="NKA">
		<tag k="name" v="Gunbjørndokk" />
		<tag k="place" v="farm" />
		<tag k="ssr:stedsnr" v="631866" />
	</node>
	<node id="9630863457" lat="60.5736333" lon="9.3780916" version="1" timestamp="2022-04-02T05:57:18Z" changeset="119224206" uid="3497659" user="NKA">
		<tag k="historic" v="shieling" />
		<tag k="name" v="Nyseter" />
		<tag k="place" v="isolated_dwelling" />
		<tag k="ssr:stedsnr" v="268425" />
	</node>
	<node id="9630863458" lat="60.5554738" lon="9.1317074" version="1" timestamp="2022-04-02T05:57:18Z" changeset="119224206" uid="3497659" user="NKA">
		<tag k="name" v="Plassen" />
		<tag k="place" v="farm" />
		<tag k="ssr:stedsnr" v="692062" />
	</node>
	<node id="9630863459" lat="60.629225" lon="9.3358473" version="1" timestamp="2022-04-02T05:57:18Z" changeset="119224206" uid="3497659" user="NKA">
		<tag k="historic" v="shieling" />
		<tag k="name" v="Bekkevollan" />
		<tag k="place" v="isolated_dwelling" />
		<tag k="ssr:stedsnr" v="249618" />
	</node>
	<node id="9630863460" lat="60.6139945" lon="9.0757611" version="1" timestamp="2022-04-02T05:57:18Z" changeset="119224206" uid="3497659" user="NKA">
		<tag k="name" v="Nørdre Brennelien" />
		<tag k="place" v="farm" />
		<tag k="ssr:stedsnr" v="814789" />
	</node>
	<node id="9630863461" lat="60.4634868" lon="9.2551116" version="1" timestamp="2022-04-02T05:57:18Z" changeset="119224206" uid="3497659" user="NKA">
		<tag k="name" v="Rauk" />
		<tag k="place" v="farm" />
		<tag k="ssr:stedsnr" v="389862" />
	</node>
	<node id="9630863462" lat="60.5016351" lon="8.9565953" version="1" timestamp="2022-04-02T05:57:18Z" changeset="119224206" uid="3497659" user="NKA">
		<tag k="historic" v="shieling" />
		<tag k="name" v="Båtstjernlie" />
		<tag k="place" v="isolated_dwelling" />
		<tag k="ssr:stedsnr" v="67542" />
	</node>
	<node id="9630863463" lat="60.4660921" lon="9.1958728" version="1" timestamp="2022-04-02T05:57:18Z" changeset="119224206" uid="3497659" user="NKA">
		<tag k="name" v="Søre Mjølid" />
		<tag k="place" v="farm" />
		<tag k="ssr:stedsnr" v="875695" />
	</node>
	<node id="9630863464" lat="60.5801911" lon="9.1048631" version="1" timestamp="2022-04-02T05:57:18Z" changeset="119224206" uid="3497659" user="NKA">
		<tag k="alt_name" v="Østenfor" />
		<tag k="name" v="Austafor" />
		<tag k="place" v="farm" />
		<tag k="ssr:stedsnr" v="544449" />
	</node>
	<node id="9630863465" lat="60.5561555" lon="9.0952222" version="1" timestamp="2022-04-02T05:57:18Z" changeset="119224206" uid="3497659" user="NKA">
		<tag k="name" v="Veslekleive" />
		<tag k="place" v="farm" />
		<tag k="ssr:stedsnr" v="86068" />
	</node>
	<node id="9630863466" lat="60.5186918" lon="9.1814143" version="1" timestamp="2022-04-02T05:57:18Z" changeset="119224206" uid="3497659" user="NKA">
		<tag k="name" v="Haugajordet" />
		<tag k="place" v="farm" />
		<tag k="ssr:stedsnr" v="917587" />
	</node>
	<node id="9630863467" lat="60.5662583" lon="9.1958333" version="1" timestamp="2022-04-02T05:57:18Z" changeset="119224206" uid="3497659" user="NKA">
		<tag k="name" v="Nørdre Toen" />
		<tag k="place" v="hamlet" />
		<tag k="ssr:stedsnr" v="856445" />
	</node>
	<node id="9630863468" lat="60.5317889" lon="8.8859889" version="1" timestamp="2022-04-02T05:57:18Z" changeset="119224206" uid="3497659" user="NKA">
		<tag k="name" v="Nedre Foss" />
		<tag k="place" v="hamlet" />
		<tag k="ssr:stedsnr" v="268826" />
	</node>
	<node id="9630863469" lat="60.4921484" lon="9.1760676" version="1" timestamp="2022-04-02T05:57:18Z" changeset="119224206" uid="3497659" user="NKA">
		<tag k="name" v="Melum" />
		<tag k="place" v="farm" />
		<tag k="ssr:stedsnr" v="842168" />
	</node>
	<node id="9630863470" lat="60.562638" lon="9.1112652" version="1" timestamp="2022-04-02T05:57:18Z" changeset="119224206" uid="3497659" user="NKA">
		<tag k="name" v="Hagaled" />
		<tag k="place" v="farm" />
		<tag k="ssr:stedsnr" v="67397" />
	</node>
	<node id="9630863471" lat="60.4721427" lon="9.1943919" version="1" timestamp="2022-04-02T05:57:18Z" changeset="119224206" uid="3497659" user="NKA">
		<tag k="name" v="Heio" />
		<tag k="place" v="farm" />
		<tag k="ssr:stedsnr" v="430284" />
	</node>
	<node id="9630863472" lat="60.5899417" lon="9.3742278" version="1" timestamp="2022-04-02T05:57:18Z" changeset="119224206" uid="3497659" user="NKA">
		<tag k="historic" v="shieling" />
		<tag k="name" v="Saulie" />
		<tag k="place" v="isolated_dwelling" />
		<tag k="ssr:stedsnr" v="432803" />
	</node>
	<node id="9630863473" lat="60.561025" lon="9.1161144" version="1" timestamp="2022-04-02T05:57:18Z" changeset="119224206" uid="3497659" user="NKA">
		<tag k="name" v="Moan" />
		<tag k="place" v="quarter" />
		<tag k="ssr:stedsnr" v="7571" />
	</node>
	<node id="9630863474" lat="60.4900502" lon="9.0698575" version="1" timestamp="2022-04-02T05:57:18Z" changeset="119224206" uid="3497659" user="NKA">
		<tag k="name" v="Sisselhaugen" />
		<tag k="place" v="isolated_dwelling" />
		<tag k="ssr:stedsnr" v="86687" />
	</node>
	<node id="9630863475" lat="60.4667698" lon="9.1956905" version="1" timestamp="2022-04-02T05:57:18Z" changeset="119224206" uid="3497659" user="NKA">
		<tag k="name" v="Midtre Mjølid" />
		<tag k="place" v="farm" />
		<tag k="ssr:stedsnr" v="875694" />
	</node>
	<node id="9630863476" lat="60.4708802" lon="9.2118951" version="1" timestamp="2022-04-02T05:57:18Z" changeset="119224206" uid="3497659" user="NKA">
		<tag k="name" v="Brøto" />
		<tag k="place" v="farm" />
		<tag k="ssr:stedsnr" v="126269" />
	</node>
	<node id="9630863477" lat="60.5453361" lon="9.1562583" version="1" timestamp="2022-04-02T05:57:18Z" changeset="119224206" uid="3497659" user="NKA">
		<tag k="name" v="Svang" />
		<tag k="place" v="hamlet" />
		<tag k="ssr:stedsnr" v="250583" />
	</node>
	<node id="9630863478" lat="60.4755873" lon="9.2492757" version="1" timestamp="2022-04-02T05:57:18Z" changeset="119224206" uid="3497659" user="NKA">
		<tag k="name" v="Bergheim" />
		<tag k="place" v="locality" />
		<tag k="ssr:stedsnr" v="1083319" />
	</node>
	<node id="9630863479" lat="60.5184006" lon="9.1590566" version="1" timestamp="2022-04-02T05:57:18Z" changeset="119224206" uid="3497659" user="NKA">
		<tag k="name" v="Brunsvoll" />
		<tag k="place" v="farm" />
		<tag k="ssr:stedsnr" v="25144" />
	</node>
	<node id="9630863480" lat="60.6345043" lon="9.2270998" version="1" timestamp="2022-04-02T05:57:18Z" changeset="119224206" uid="3497659" user="NKA">
		<tag k="historic" v="shieling" />
		<tag k="name" v="Langevassenden" />
		<tag k="place" v="isolated_dwelling" />
		<tag k="ssr:stedsnr" v="693440" />
	</node>
	<node id="9630863481" lat="60.564736" lon="9.0038317" version="1" timestamp="2022-04-02T05:57:18Z" changeset="119224206" uid="3497659" user="NKA">
		<tag k="name" v="Skjervemoen" />
		<tag k="place" v="farm" />
		<tag k="ssr:stedsnr" v="753947" />
	</node>
	<node id="9630863482" lat="60.5392278" lon="9.1478917" version="1" timestamp="2022-04-02T05:57:18Z" changeset="119224206" uid="3497659" user="NKA">
		<tag k="alt_name" v="Rolykkja" />
		<tag k="name" v="Roløkken" />
		<tag k="place" v="hamlet" />
		<tag k="ssr:stedsnr" v="917556" />
	</node>
	<node id="9630863483" lat="60.5641631" lon="9.0100483" version="1" timestamp="2022-04-02T05:57:18Z" changeset="119224206" uid="3497659" user="NKA">
		<tag k="name" v="Søre Klypet" />
		<tag k="place" v="farm" />
		<tag k="ssr:stedsnr" v="146952" />
	</node>
	<node id="9630863484" lat="60.477793" lon="9.1779818" version="1" timestamp="2022-04-02T05:57:18Z" changeset="119224206" uid="3497659" user="NKA">
		<tag k="name" v="Rustad" />
		<tag k="place" v="farm" />
		<tag k="ssr:stedsnr" v="430287" />
	</node>
	<node id="9630863485" lat="60.5382113" lon="8.9337598" version="1" timestamp="2022-04-02T05:57:18Z" changeset="119224206" uid="3497659" user="NKA">
		<tag k="name" v="Stakkestø" />
		<tag k="place" v="isolated_dwelling" />
		<tag k="ssr:stedsnr" v="388957" />
	</node>
	<node id="9630863486" lat="60.5374262" lon="8.7800408" version="1" timestamp="2022-04-02T05:57:18Z" changeset="119224206" uid="3497659" user="NKA">
		<tag k="name" v="Nilsebu" />
		<tag k="place" v="isolated_dwelling" />
		<tag k="ssr:stedsnr" v="466217" />
	</node>
	<node id="9630863487" lat="60.5729563" lon="8.737926" version="1" timestamp="2022-04-02T05:57:18Z" changeset="119224206" uid="3497659" user="NKA">
		<tag k="historic" v="shieling" />
		<tag k="name" v="Gamle Fjellset" />
		<tag k="place" v="isolated_dwelling" />
		<tag k="ssr:stedsnr" v="6034" />
	</node>
	<node id="9630863488" lat="60.4738" lon="9.1519779" version="1" timestamp="2022-04-02T05:57:18Z" changeset="119224206" uid="3497659" user="NKA">
		<tag k="historic" v="shieling" />
		<tag k="name" v="Rustadstølen" />
		<tag k="place" v="isolated_dwelling" />
		<tag k="ssr:stedsnr" v="248281" />
	</node>
	<node id="9630863489" lat="60.5933924" lon="9.0828302" version="1" timestamp="2022-04-02T05:57:18Z" changeset="119224206" uid="3497659" user="NKA">
		<tag k="name" v="Mattismoen" />
		<tag k="place" v="farm" />
		<tag k="ssr:stedsnr" v="857433" />
	</node>
	<node id="9630863490" lat="60.5795527" lon="8.9440305" version="1" timestamp="2022-04-02T05:57:18Z" changeset="119224206" uid="3497659" user="NKA">
		<tag k="name" v="Gammalvollen" />
		<tag k="place" v="isolated_dwelling" />
		<tag k="ssr:stedsnr" v="917372" />
	</node>
	<node id="9630863491" lat="60.4685161" lon="9.0072647" version="1" timestamp="2022-04-02T05:57:18Z" changeset="119224206" uid="3497659" user="NKA">
		<tag k="name" v="Brynhildstølen" />
		<tag k="place" v="hamlet" />
		<tag k="ssr:stedsnr" v="101289" />
	</node>
	<node id="9630863492" lat="60.5560101" lon="8.9479434" version="1" timestamp="2022-04-02T05:57:18Z" changeset="119224206" uid="3497659" user="NKA">
		<tag k="name" v="Gudbrandsrud" />
		<tag k="place" v="farm" />
		<tag k="ssr:stedsnr" v="613413" />
	</node>
	<node id="9630863493" lat="60.4565" lon="9.1994556" version="1" timestamp="2022-04-02T05:57:18Z" changeset="119224206" uid="3497659" user="NKA">
		<tag k="name" v="Vollen" />
		<tag k="place" v="farm" />
		<tag k="ssr:stedsnr" v="249299" />
	</node>
	<node id="9630863494" lat="60.4867045" lon="9.1902457" version="1" timestamp="2022-04-02T05:57:18Z" changeset="119224206" uid="3497659" user="NKA">
		<tag k="name" v="Lysenvoll" />
		<tag k="place" v="isolated_dwelling" />
		<tag k="ssr:stedsnr" v="510129" />
	</node>
	<node id="9630863495" lat="60.5645562" lon="9.0906597" version="1" timestamp="2022-04-02T05:57:18Z" changeset="119224206" uid="3497659" user="NKA">
		<tag k="name" v="Prestbakken" />
		<tag k="place" v="farm" />
		<tag k="ssr:stedsnr" v="1072309" />
	</node>
	<node id="9630863496" lat="60.5102695" lon="9.1623166" version="1" timestamp="2022-04-02T05:57:18Z" changeset="119224206" uid="3497659" user="NKA">
		<tag k="name" v="Desarud" />
		<tag k="place" v="farm" />
		<tag k="ssr:stedsnr" v="249536" />
	</node>
	<node id="9630863497" lat="60.5656161" lon="9.0165753" version="1" timestamp="2022-04-02T05:57:18Z" changeset="119224206" uid="3497659" user="NKA">
		<tag k="name" v="Skollerud" />
		<tag k="place" v="farm" />
		<tag k="ssr:stedsnr" v="571955" />
	</node>
	<node id="9630863498" lat="60.4758345" lon="9.2471677" version="1" timestamp="2022-04-02T05:57:18Z" changeset="119224206" uid="3497659" user="NKA">
		<tag k="name" v="Nørdre Berg" />
		<tag k="place" v="farm" />
		<tag k="ssr:stedsnr" v="552385" />
	</node>
	<node id="9630863499" lat="60.5583444" lon="9.0620944" version="1" timestamp="2022-04-02T05:57:18Z" changeset="119224206" uid="3497659" user="NKA">
		<tag k="name" v="Tamburplassen" />
		<tag k="place" v="farm" />
		<tag k="ssr:stedsnr" v="128372" />
	</node>
	<node id="9630863500" lat="60.5128772" lon="9.1453123" version="1" timestamp="2022-04-02T05:57:18Z" changeset="119224206" uid="3497659" user="NKA">
		<tag k="name" v="Vardan" />
		<tag k="place" v="locality" />
		<tag k="ssr:stedsnr" v="310540" />
	</node>
	<node id="9630863501" lat="60.5676818" lon="9.0089361" version="1" timestamp="2022-04-02T05:57:18Z" changeset="119224206" uid="3497659" user="NKA">
		<tag k="name" v="Kolhus" />
		<tag k="place" v="farm" />
		<tag k="ssr:stedsnr" v="267964" />
	</node>
	<node id="9630863502" lat="60.562285" lon="9.0182022" version="1" timestamp="2022-04-02T05:57:18Z" changeset="119224206" uid="3497659" user="NKA">
		<tag k="name" v="Gjerdingen" />
		<tag k="place" v="farm" />
		<tag k="ssr:stedsnr" v="25116" />
	</node>
	<node id="9630863503" lat="60.6535327" lon="9.3410614" version="1" timestamp="2022-04-02T05:57:18Z" changeset="119224206" uid="3497659" user="NKA">
		<tag k="name" v="Fremre Trytehølet" />
		<tag k="place" v="neighbourhood" />
		<tag k="ssr:stedsnr" v="41415" />
	</node>
	<node id="9630863504" lat="60.4691302" lon="9.192524" version="1" timestamp="2022-04-02T05:57:18Z" changeset="119224206" uid="3497659" user="NKA">
		<tag k="name" v="Ålton" />
		<tag k="place" v="farm" />
		<tag k="ssr:stedsnr" v="734349" />
	</node>
	<node id="9630863505" lat="60.5537584" lon="9.1321223" version="1" timestamp="2022-04-02T05:57:18Z" changeset="119224206" uid="3497659" user="NKA">
		<tag k="name" v="Døleplass" />
		<tag k="place" v="farm" />
		<tag k="ssr:stedsnr" v="432559" />
	</node>
	<node id="9630863506" lat="60.46745" lon="9.2136334" version="1" timestamp="2022-04-02T05:57:18Z" changeset="119224206" uid="3497659" user="NKA">
		<tag k="name" v="Skaret" />
		<tag k="place" v="farm" />
		<tag k="ssr:stedsnr" v="916336" />
	</node>
	<node id="9630863507" lat="60.5718056" lon="9.0426945" version="1" timestamp="2022-04-02T05:57:18Z" changeset="119224206" uid="3497659" user="NKA">
		<tag k="name" v="Nørdre Espeset" />
		<tag k="place" v="farm" />
		<tag k="ssr:stedsnr" v="874651" />
	</node>
	<node id="9630863508" lat="60.6572672" lon="9.2029001" version="1" timestamp="2022-04-02T05:57:18Z" changeset="119224206" uid="3497659" user="NKA">
		<tag k="historic" v="shieling" />
		<tag k="name" v="Nørdre Fjellset" />
		<tag k="place" v="isolated_dwelling" />
		<tag k="ssr:stedsnr" v="917242" />
	</node>
	<node id="9630863509" lat="60.6319583" lon="9.0348723" version="1" timestamp="2022-04-02T05:57:18Z" changeset="119224206" uid="3497659" user="NKA">
		<tag k="name" v="Brabant" />
		<tag k="old_name" v="Braband" />
		<tag k="place" v="farm" />
		<tag k="ssr:stedsnr" v="371450" />
	</node>
	<node id="9630863510" lat="60.6349916" lon="9.3278111" version="1" timestamp="2022-04-02T05:57:18Z" changeset="119224206" uid="3497659" user="NKA">
		<tag k="historic" v="shieling" />
		<tag k="name" v="Løken" />
		<tag k="place" v="isolated_dwelling" />
		<tag k="ssr:stedsnr" v="431671" />
	</node>
	<node id="9630863511" lat="60.5594683" lon="9.0019007" version="1" timestamp="2022-04-02T05:57:18Z" changeset="119224206" uid="3497659" user="NKA">
		<tag k="name" v="Ivarsbråten" />
		<tag k="place" v="locality" />
		<tag k="ssr:stedsnr" v="432361" />
	</node>
	<node id="9630863512" lat="60.5020972" lon="9.2909861" version="1" timestamp="2022-04-02T05:57:18Z" changeset="119224206" uid="3497659" user="NKA">
		<tag k="historic" v="shieling" />
		<tag k="name" v="Siggeset" />
		<tag k="place" v="isolated_dwelling" />
		<tag k="ssr:stedsnr" v="613779" />
	</node>
	<node id="9630863513" lat="60.4758381" lon="9.2517113" version="1" timestamp="2022-04-02T05:57:18Z" changeset="119224206" uid="3497659" user="NKA">
		<tag k="name" v="Søre Berg" />
		<tag k="place" v="farm" />
		<tag k="ssr:stedsnr" v="795397" />
	</node>
	<node id="9630863514" lat="60.5001166" lon="9.0817167" version="1" timestamp="2022-04-02T05:57:18Z" changeset="119224206" uid="3497659" user="NKA">
		<tag k="historic" v="shieling" />
		<tag k="name" v="Liaset" />
		<tag k="place" v="isolated_dwelling" />
		<tag k="ssr:stedsnr" v="674500" />
	</node>
	<node id="9630863515" lat="60.461075" lon="9.2038112" version="1" timestamp="2022-04-02T05:57:18Z" changeset="119224206" uid="3497659" user="NKA">
		<tag k="name" v="Malstenbråten" />
		<tag k="place" v="farm" />
		<tag k="ssr:stedsnr" v="491324" />
	</node>
	<node id="9630863516" lat="60.6314306" lon="9.1123277" version="1" timestamp="2022-04-02T05:57:18Z" changeset="119224206" uid="3497659" user="NKA">
		<tag k="historic" v="shieling" />
		<tag k="name" v="Røyrpipetjern" />
		<tag k="place" v="isolated_dwelling" />
		<tag k="ssr:stedsnr" v="146433" />
	</node>
	<node id="9630863517" lat="60.5852278" lon="9.0872223" version="1" timestamp="2022-04-02T05:57:18Z" changeset="119224206" uid="3497659" user="NKA">
		<tag k="name" v="Frekeplass" />
		<tag k="place" v="farm" />
		<tag k="ssr:stedsnr" v="856465" />
	</node>
	<node id="9630863518" lat="60.472675" lon="9.2396833" version="1" timestamp="2022-04-02T05:57:18Z" changeset="119224206" uid="3497659" user="NKA">
		<tag k="name" v="Nedre Berg" />
		<tag k="place" v="farm" />
		<tag k="ssr:stedsnr" v="249347" />
	</node>
	<node id="9630863519" lat="60.5740419" lon="9.0940704" version="1" timestamp="2022-04-02T05:57:18Z" changeset="119224206" uid="3497659" user="NKA">
		<tag k="name" v="Sjåheim" />
		<tag k="place" v="farm" />
		<tag k="ssr:stedsnr" v="128403" />
	</node>
	<node id="9630863520" lat="60.4865305" lon="9.1827" version="1" timestamp="2022-04-02T05:57:18Z" changeset="119224206" uid="3497659" user="NKA">
		<tag k="name" v="Hankenhus" />
		<tag k="place" v="farm" />
		<tag k="ssr:stedsnr" v="187254" />
	</node>
	<node id="9630863521" lat="60.4924944" lon="9.0532501" version="1" timestamp="2022-04-02T05:57:18Z" changeset="119224206" uid="3497659" user="NKA">
		<tag k="historic" v="shieling" />
		<tag k="name" v="Liaset" />
		<tag k="place" v="isolated_dwelling" />
		<tag k="ssr:stedsnr" v="370299" />
	</node>
	<node id="9630863522" lat="60.4744788" lon="9.1843371" version="1" timestamp="2022-04-02T05:57:18Z" changeset="119224206" uid="3497659" user="NKA">
		<tag k="name" v="Øvre Børdalen" />
		<tag k="place" v="farm" />
		<tag k="ssr:stedsnr" v="268703" />
	</node>
	<node id="9630863523" lat="60.503552" lon="8.8997679" version="1" timestamp="2022-04-02T05:57:18Z" changeset="119224206" uid="3497659" user="NKA">
		<tag k="historic" v="shieling" />
		<tag k="name" v="Eivindslie" />
		<tag k="place" v="isolated_dwelling" />
		<tag k="ssr:stedsnr" v="371486" />
	</node>
	<node id="9630863524" lat="60.6624972" lon="9.0021389" version="1" timestamp="2022-04-02T05:57:18Z" changeset="119224206" uid="3497659" user="NKA">
		<tag k="historic" v="shieling" />
		<tag k="name" v="Øvrestølen" />
		<tag k="place" v="isolated_dwelling" />
		<tag k="ssr:stedsnr" v="492224" />
	</node>
	<node id="9630863525" lat="60.6045252" lon="9.1548478" version="1" timestamp="2022-04-02T05:57:18Z" changeset="119224206" uid="3497659" user="NKA">
		<tag k="name" v="Todalsdammen" />
		<tag k="place" v="isolated_dwelling" />
		<tag k="ssr:stedsnr" v="310481" />
	</node>
	<node id="9630863526" lat="60.490306" lon="9.1766971" version="1" timestamp="2022-04-02T05:57:18Z" changeset="119224206" uid="3497659" user="NKA">
		<tag k="name" v="Søre Melum" />
		<tag k="place" v="farm" />
		<tag k="ssr:stedsnr" v="329497" />
	</node>
	<node id="9630863527" lat="60.6184223" lon="8.9935862" version="1" timestamp="2022-04-02T05:57:18Z" changeset="119224206" uid="3497659" user="NKA">
		<tag k="historic" v="shieling" />
		<tag k="name" v="Miljostølen" />
		<tag k="place" v="isolated_dwelling" />
		<tag k="ssr:stedsnr" v="613455" />
	</node>
	<node id="9630863528" lat="60.5862084" lon="9.2196418" version="1" timestamp="2022-04-02T05:57:18Z" changeset="119224206" uid="3497659" user="NKA">
		<tag k="name" v="Bravollen" />
		<tag k="place" v="isolated_dwelling" />
		<tag k="ssr:stedsnr" v="86472" />
	</node>
	<node id="9630863529" lat="60.4633746" lon="9.2533093" version="1" timestamp="2022-04-02T05:57:18Z" changeset="119224206" uid="3497659" user="NKA">
		<tag k="name" v="Nørdre Rauk" />
		<tag k="place" v="farm" />
		<tag k="ssr:stedsnr" v="5346" />
	</node>
	<node id="9630863530" lat="60.5080889" lon="9.1560806" version="1" timestamp="2022-04-02T05:57:18Z" changeset="119224206" uid="3497659" user="NKA">
		<tag k="name" v="Skåterud" />
		<tag k="place" v="locality" />
		<tag k="ssr:stedsnr" v="874866" />
	</node>
	<node id="9630863531" lat="60.6410758" lon="9.0276109" version="1" timestamp="2022-04-02T05:57:18Z" changeset="119224206" uid="3497659" user="NKA">
		<tag k="name" v="Garnås" />
		<tag k="place" v="hamlet" />
		<tag k="ssr:stedsnr" v="735273" />
	</node>
	<node id="9630863532" lat="60.5819722" lon="9.1088973" version="1" timestamp="2022-04-02T05:57:18Z" changeset="119224206" uid="3497659" user="NKA">
		<tag k="name" v="Østenforskogen" />
		<tag k="place" v="quarter" />
		<tag k="ssr:stedsnr" v="769417" />
	</node>
	<node id="9630863533" lat="60.5343722" lon="9.2317777" version="1" timestamp="2022-04-02T05:57:18Z" changeset="119224206" uid="3497659" user="NKA">
		<tag k="name" v="Liaberg" />
		<tag k="place" v="isolated_dwelling" />
		<tag k="ssr:stedsnr" v="613869" />
	</node>
	<node id="9630863534" lat="60.5459806" lon="9.2962834" version="1" timestamp="2022-04-02T05:57:18Z" changeset="119224206" uid="3497659" user="NKA">
		<tag k="name" v="Krokset" />
		<tag k="place" v="isolated_dwelling" />
		<tag k="ssr:stedsnr" v="856879" />
	</node>
	<node id="9630863535" lat="60.5629009" lon="9.0635925" version="1" timestamp="2022-04-02T05:57:18Z" changeset="119224206" uid="3497659" user="NKA">
		<tag k="name" v="Renslo" />
		<tag k="place" v="farm" />
		<tag k="ssr:stedsnr" v="917353" />
	</node>
	<node id="9630863536" lat="60.5802889" lon="9.1135806" version="1" timestamp="2022-04-02T05:57:18Z" changeset="119224206" uid="3497659" user="NKA">
		<tag k="name" v="Jordet" />
		<tag k="place" v="farm" />
		<tag k="ssr:stedsnr" v="118096" />
	</node>
	<node id="9630863537" lat="60.4984555" lon="9.1674833" version="1" timestamp="2022-04-02T05:57:18Z" changeset="119224206" uid="3497659" user="NKA">
		<tag k="alt_name" v="Nordre Nordhagen" />
		<tag k="name" v="Nørdre Nordhagen" />
		<tag k="place" v="farm" />
		<tag k="ssr:stedsnr" v="309318" />
	</node>
	<node id="9630863538" lat="60.5576334" lon="8.9375028" version="1" timestamp="2022-04-02T05:57:18Z" changeset="119224206" uid="3497659" user="NKA">
		<tag k="historic" v="shieling" />
		<tag k="name" v="Stigen" />
		<tag k="place" v="isolated_dwelling" />
		<tag k="ssr:stedsnr" v="674380" />
	</node>
	<node id="9630863539" lat="60.5497571" lon="8.8618272" version="1" timestamp="2022-04-02T05:57:18Z" changeset="119224206" uid="3497659" user="NKA">
		<tag k="historic" v="shieling" />
		<tag k="name" v="Nystølen" />
		<tag k="place" v="isolated_dwelling" />
		<tag k="ssr:stedsnr" v="128572" />
	</node>
	<node id="9630863540" lat="60.5499" lon="9.1393972" version="1" timestamp="2022-04-02T05:57:18Z" changeset="119224206" uid="3497659" user="NKA">
		<tag k="name" v="Husemoen" />
		<tag k="place" v="farm" />
		<tag k="ssr:stedsnr" v="68599" />
	</node>
	<node id="9630863541" lat="60.5537745" lon="9.0298597" version="1" timestamp="2022-04-02T05:57:18Z" changeset="119224206" uid="3497659" user="NKA">
		<tag k="name" v="Lien" />
		<tag k="place" v="farm" />
		<tag k="ssr:stedsnr" v="189369" />
	</node>
	<node id="9630863542" lat="60.5601389" lon="9.0647612" version="1" timestamp="2022-04-02T05:57:18Z" changeset="119224206" uid="3497659" user="NKA">
		<tag k="name" v="Renslo" />
		<tag k="place" v="farm" />
		<tag k="ssr:stedsnr" v="371362" />
	</node>
	<node id="9630863543" lat="60.4685032" lon="9.0095282" version="1" timestamp="2022-04-02T05:57:18Z" changeset="119224206" uid="3497659" user="NKA">
		<tag k="historic" v="shieling" />
		<tag k="name" v="Austre Brynhildstølen" />
		<tag k="place" v="isolated_dwelling" />
		<tag k="ssr:stedsnr" v="916301" />
	</node>
	<node id="9630863544" lat="60.6254139" lon="9.2212083" version="1" timestamp="2022-04-02T05:57:18Z" changeset="119224206" uid="3497659" user="NKA">
		<tag k="historic" v="shieling" />
		<tag k="name" v="Tjernset" />
		<tag k="place" v="isolated_dwelling" />
		<tag k="ssr:stedsnr" v="492606" />
	</node>
	<node id="9630863545" lat="60.5726463" lon="9.0984472" version="1" timestamp="2022-04-02T05:57:18Z" changeset="119224206" uid="3497659" user="NKA">
		<tag k="name" v="Låplassen" />
		<tag k="place" v="farm" />
		<tag k="ssr:stedsnr" v="268097" />
	</node>
	<node id="9630863546" lat="60.5399028" lon="9.2823889" version="1" timestamp="2022-04-02T05:57:18Z" changeset="119224206" uid="3497659" user="NKA">
		<tag k="name" v="Tjernsetlie" />
		<tag k="place" v="isolated_dwelling" />
		<tag k="ssr:stedsnr" v="249868" />
	</node>
	<node id="9630863547" lat="60.5020806" lon="9.1688861" version="1" timestamp="2022-04-02T05:57:18Z" changeset="119224206" uid="3497659" user="NKA">
		<tag k="name" v="Sanden" />
		<tag k="place" v="hamlet" />
		<tag k="ssr:stedsnr" v="492473" />
	</node>
	<node id="9630863548" lat="60.6126917" lon="9.0756056" version="1" timestamp="2022-04-02T05:57:18Z" changeset="119224206" uid="3497659" user="NKA">
		<tag k="name" v="Brennelien" />
		<tag k="place" v="farm" />
		<tag k="ssr:stedsnr" v="7433" />
	</node>
	<node id="9630863549" lat="60.47545" lon="9.18975" version="1" timestamp="2022-04-02T05:57:18Z" changeset="119224206" uid="3497659" user="NKA">
		<tag k="name" v="Høllo" />
		<tag k="place" v="farm" />
		<tag k="ssr:stedsnr" v="66288" />
	</node>
	<node id="9630863550" lat="60.5833389" lon="8.9366862" version="1" timestamp="2022-04-02T05:57:18Z" changeset="119224206" uid="3497659" user="NKA">
		<tag k="historic" v="shieling" />
		<tag k="name" v="Feten" />
		<tag k="place" v="isolated_dwelling" />
		<tag k="ssr:stedsnr" v="128388" />
	</node>
	<node id="9630863551" lat="60.5739305" lon="8.75925" version="1" timestamp="2022-04-02T05:57:18Z" changeset="119224206" uid="3497659" user="NKA">
		<tag k="historic" v="shieling" />
		<tag k="name" v="Fjellset" />
		<tag k="place" v="isolated_dwelling" />
		<tag k="ssr:stedsnr" v="370004" />
	</node>
	<node id="9630863552" lat="60.6211333" lon="9.314975" version="1" timestamp="2022-04-02T05:57:18Z" changeset="119224206" uid="3497659" user="NKA">
		<tag k="historic" v="shieling" />
		<tag k="name" v="Nystølen" />
		<tag k="place" v="isolated_dwelling" />
		<tag k="ssr:stedsnr" v="492661" />
	</node>
	<node id="9630863553" lat="60.6409589" lon="9.0520974" version="1" timestamp="2022-04-02T05:57:18Z" changeset="119224206" uid="3497659" user="NKA">
		<tag k="name" v="Hallibakken" />
		<tag k="place" v="farm" />
		<tag k="ssr:stedsnr" v="875837" />
	</node>
	<node id="9630863554" lat="60.5281334" lon="9.1909389" version="1" timestamp="2022-04-02T05:57:18Z" changeset="119224206" uid="3497659" user="NKA">
		<tag k="name" v="Fluto" />
		<tag k="place" v="farm" />
		<tag k="ssr:stedsnr" v="492585" />
	</node>
	<node id="9630863555" lat="60.5451306" lon="9.1968918" version="1" timestamp="2022-04-02T05:57:18Z" changeset="119224206" uid="3497659" user="NKA">
		<tag k="name" v="Espelund" />
		<tag k="place" v="farm" />
		<tag k="ssr:stedsnr" v="674565" />
	</node>
	<node id="9630863556" lat="60.6233722" lon="9.0676759" version="1" timestamp="2022-04-02T05:57:18Z" changeset="119224206" uid="3497659" user="NKA">
		<tag k="name" v="Laddemoen" />
		<tag k="place" v="hamlet" />
		<tag k="ssr:stedsnr" v="432470" />
	</node>
	<node id="9630863557" lat="60.5148695" lon="8.9591861" version="1" timestamp="2022-04-02T05:57:18Z" changeset="119224206" uid="3497659" user="NKA">
		<tag k="historic" v="shieling" />
		<tag k="name" v="Nystølen" />
		<tag k="place" v="isolated_dwelling" />
		<tag k="ssr:stedsnr" v="613583" />
	</node>
	<node id="9630863558" lat="60.6444736" lon="9.0975338" version="1" timestamp="2022-04-02T05:57:18Z" changeset="119224206" uid="3497659" user="NKA">
		<tag k="name" v="Kastet" />
		<tag k="place" v="farm" />
		<tag k="ssr:stedsnr" v="55443" />
	</node>
	<node id="9630863559" lat="60.5849194" lon="9.365614" version="1" timestamp="2022-04-02T05:57:18Z" changeset="119224206" uid="3497659" user="NKA">
		<tag k="historic" v="shieling" />
		<tag k="name" v="Strøslie" />
		<tag k="place" v="isolated_dwelling" />
		<tag k="ssr:stedsnr" v="857823" />
	</node>
	<node id="9630863560" lat="60.5987207" lon="9.0768466" version="1" timestamp="2022-04-02T05:57:18Z" changeset="119224206" uid="3497659" user="NKA">
		<tag k="alt_name" v="Øvre Sjong" />
		<tag k="name" v="Øvre Skjong" />
		<tag k="place" v="farm" />
		<tag k="ssr:stedsnr" v="328845" />
	</node>
	<node id="9630863561" lat="60.6330584" lon="8.9842055" version="1" timestamp="2022-04-02T05:57:18Z" changeset="119224206" uid="3497659" user="NKA">
		<tag k="name" v="Meksiko" />
		<tag k="place" v="isolated_dwelling" />
		<tag k="ssr:stedsnr" v="371452" />
	</node>
	<node id="9630863562" lat="60.6037671" lon="9.030282" version="1" timestamp="2022-04-02T05:57:18Z" changeset="119224206" uid="3497659" user="NKA">
		<tag k="historic" v="shieling" />
		<tag k="name" v="Melevollen" />
		<tag k="place" v="isolated_dwelling" />
		<tag k="ssr:stedsnr" v="389834" />
	</node>
	<node id="9630863563" lat="60.68" lon="9.2479612" version="1" timestamp="2022-04-02T05:57:18Z" changeset="119224206" uid="3497659" user="NKA">
		<tag k="historic" v="shieling" />
		<tag k="name" v="Bekkjeset" />
		<tag k="place" v="isolated_dwelling" />
		<tag k="ssr:stedsnr" v="613686" />
	</node>
	<node id="9630863564" lat="60.5202417" lon="9.2777249" version="1" timestamp="2022-04-02T05:57:18Z" changeset="119224206" uid="3497659" user="NKA">
		<tag k="historic" v="shieling" />
		<tag k="name" v="Lauvåsen" />
		<tag k="place" v="isolated_dwelling" />
		<tag k="ssr:stedsnr" v="735761" />
	</node>
	<node id="9630863565" lat="60.5117111" lon="9.1019389" version="1" timestamp="2022-04-02T05:57:18Z" changeset="119224206" uid="3497659" user="NKA">
		<tag k="historic" v="shieling" />
		<tag k="name" v="Bekkeset" />
		<tag k="place" v="isolated_dwelling" />
		<tag k="ssr:stedsnr" v="674518" />
	</node>
	<node id="9630863566" lat="60.45805" lon="9.0989638" version="1" timestamp="2022-04-02T05:57:18Z" changeset="119224206" uid="3497659" user="NKA">
		<tag k="historic" v="shieling" />
		<tag k="name" v="Imlan" />
		<tag k="place" v="hamlet" />
		<tag k="ssr:stedsnr" v="856337" />
	</node>
	<node id="9630863567" lat="60.5611723" lon="9.0343584" version="1" timestamp="2022-04-02T05:57:18Z" changeset="119224206" uid="3497659" user="NKA">
		<tag k="name" v="Stuvengen" />
		<tag k="place" v="farm" />
		<tag k="ssr:stedsnr" v="249393" />
	</node>
	<node id="9630863568" lat="60.4170972" lon="9.1543889" version="1" timestamp="2022-04-02T05:57:18Z" changeset="119224206" uid="3497659" user="NKA">
		<tag k="name" v="Gislerudhytta" />
		<tag k="place" v="isolated_dwelling" />
		<tag k="ssr:stedsnr" v="874656" />
	</node>
	<node id="9630863569" lat="60.5648723" lon="9.2783083" version="1" timestamp="2022-04-02T05:57:18Z" changeset="119224206" uid="3497659" user="NKA">
		<tag k="historic" v="shieling" />
		<tag k="name" v="Krøren" />
		<tag k="place" v="isolated_dwelling" />
		<tag k="ssr:stedsnr" v="249842" />
	</node>
	<node id="9630863570" lat="60.6475862" lon="9.272956" version="1" timestamp="2022-04-02T05:57:18Z" changeset="119224206" uid="3497659" user="NKA">
		<tag k="name" v="Langevasshytta" />
		<tag k="place" v="isolated_dwelling" />
		<tag k="ssr:stedsnr" v="85866" />
	</node>
	<node id="9630863571" lat="60.4873414" lon="9.191436" version="1" timestamp="2022-04-02T05:57:18Z" changeset="119224206" uid="3497659" user="NKA">
		<tag k="name" v="Bromma" />
		<tag k="place" v="quarter" />
		<tag k="ssr:stedsnr" v="145026" />
	</node>
	<node id="9630863572" lat="60.5513111" lon="9.2894221" version="1" timestamp="2022-04-02T05:57:18Z" changeset="119224206" uid="3497659" user="NKA">
		<tag k="historic" v="shieling" />
		<tag k="name" v="Lushøl" />
		<tag k="place" v="isolated_dwelling" />
		<tag k="ssr:stedsnr" v="552878" />
	</node>
	<node id="9630863573" lat="60.5923277" lon="8.8393695" version="1" timestamp="2022-04-02T05:57:18Z" changeset="119224206" uid="3497659" user="NKA">
		<tag k="historic" v="shieling" />
		<tag k="name" v="Buglebjørk" />
		<tag k="place" v="isolated_dwelling" />
		<tag k="ssr:stedsnr" v="7049" />
	</node>
	<node id="9630863574" lat="60.4951602" lon="9.1786423" version="1" timestamp="2022-04-02T05:57:18Z" changeset="119224206" uid="3497659" user="NKA">
		<tag k="alt_name" v="Engen" />
		<tag k="name" v="Hovdeengen" />
		<tag k="old_name" v="Hofdeengen" />
		<tag k="place" v="farm" />
		<tag k="ssr:stedsnr" v="571696" />
	</node>
	<node id="9630863575" lat="60.4949361" lon="9.1659416" version="1" timestamp="2022-04-02T05:57:18Z" changeset="119224206" uid="3497659" user="NKA">
		<tag k="name" v="Bergo" />
		<tag k="place" v="farm" />
		<tag k="ssr:stedsnr" v="6293" />
	</node>
	<node id="9630863576" lat="60.536125" lon="9.1406223" version="1" timestamp="2022-04-02T05:57:18Z" changeset="119224206" uid="3497659" user="NKA">
		<tag k="name" v="Majorbråten" />
		<tag k="place" v="locality" />
		<tag k="ssr:stedsnr" v="388964" />
	</node>
	<node id="9630863577" lat="60.6024917" lon="9.3814944" version="1" timestamp="2022-04-02T05:57:18Z" changeset="119224206" uid="3497659" user="NKA">
		<tag k="historic" v="shieling" />
		<tag k="name" v="Skardet" />
		<tag k="place" v="isolated_dwelling" />
		<tag k="ssr:stedsnr" v="371652" />
	</node>
	<node id="9630863578" lat="60.4933921" lon="9.1601503" version="1" timestamp="2022-04-02T05:57:18Z" changeset="119224206" uid="3497659" user="NKA">
		<tag k="name" v="Isakbråten" />
		<tag k="place" v="farm" />
		<tag k="ssr:stedsnr" v="86510" />
	</node>
	<node id="9630863579" lat="60.5577673" lon="8.9846362" version="1" timestamp="2022-04-02T05:57:18Z" changeset="119224206" uid="3497659" user="NKA">
		<tag k="name" v="Grasdokk" />
		<tag k="place" v="farm" />
		<tag k="ssr:stedsnr" v="25121" />
	</node>
	<node id="9630863580" lat="60.6030278" lon="9.2759527" version="1" timestamp="2022-04-02T05:57:18Z" changeset="119224206" uid="3497659" user="NKA">
		<tag k="historic" v="shieling" />
		<tag k="name" v="Syningset" />
		<tag k="place" v="hamlet" />
		<tag k="ssr:stedsnr" v="68679" />
	</node>
	<node id="9630863581" lat="60.4919841" lon="8.7791293" version="1" timestamp="2022-04-02T05:57:18Z" changeset="119224206" uid="3497659" user="NKA">
		<tag k="historic" v="shieling" />
		<tag k="name" v="Krafselien" />
		<tag k="place" v="isolated_dwelling" />
		<tag k="ssr:stedsnr" v="916034" />
	</node>
	<node id="9630863582" lat="60.4807972" lon="9.2244195" version="1" timestamp="2022-04-02T05:57:18Z" changeset="119224206" uid="3497659" user="NKA">
		<tag k="name" v="Bjørnaengen" />
		<tag k="place" v="farm" />
		<tag k="ssr:stedsnr" v="814628" />
	</node>
	<node id="9630863583" lat="60.6259389" lon="9.0689139" version="1" timestamp="2022-04-02T05:57:18Z" changeset="119224206" uid="3497659" user="NKA">
		<tag k="alt_name" v="Tolpinnrud;Tolpinrud" />
		<tag k="name" v="Tollpinnrud" />
		<tag k="place" v="farm" />
		<tag k="ssr:stedsnr" v="963536" />
	</node>
	<node id="9630863584" lat="60.56425" lon="9.1354305" version="1" timestamp="2022-04-02T05:57:18Z" changeset="119224206" uid="3497659" user="NKA">
		<tag k="name" v="Bottolvssletten" />
		<tag k="place" v="farm" />
		<tag k="ssr:stedsnr" v="674368" />
	</node>
	<node id="9630863585" lat="60.469683" lon="9.2016415" version="1" timestamp="2022-04-02T05:57:18Z" changeset="119224206" uid="3497659" user="NKA">
		<tag k="name" v="Hallen" />
		<tag k="place" v="farm" />
		<tag k="ssr:stedsnr" v="248274" />
	</node>
	<node id="9630863586" lat="60.5826184" lon="9.1770783" version="1" timestamp="2022-04-02T05:57:18Z" changeset="119224206" uid="3497659" user="NKA">
		<tag k="name" v="Toplassen" />
		<tag k="place" v="isolated_dwelling" />
		<tag k="ssr:stedsnr" v="25229" />
	</node>
	<node id="9630863587" lat="60.5418055" lon="9.1920778" version="1" timestamp="2022-04-02T05:57:18Z" changeset="119224206" uid="3497659" user="NKA">
		<tag k="name" v="Halland" />
		<tag k="place" v="isolated_dwelling" />
		<tag k="ssr:stedsnr" v="310580" />
	</node>
	<node id="9630863588" lat="60.5172028" lon="8.920425" version="1" timestamp="2022-04-02T05:57:18Z" changeset="119224206" uid="3497659" user="NKA">
		<tag k="historic" v="shieling" />
		<tag k="name" v="Jordeslie" />
		<tag k="place" v="isolated_dwelling" />
		<tag k="ssr:stedsnr" v="67612" />
	</node>
	<node id="9630863589" lat="60.5277584" lon="8.9050639" version="1" timestamp="2022-04-02T05:57:18Z" changeset="119224206" uid="3497659" user="NKA">
		<tag k="name" v="Nedre Rukkelien" />
		<tag k="place" v="farm" />
		<tag k="ssr:stedsnr" v="328827" />
	</node>
	<node id="9630863590" lat="60.6509215" lon="9.193694" version="1" timestamp="2022-04-02T05:57:18Z" changeset="119224206" uid="3497659" user="NKA">
		<tag k="historic" v="shieling" />
		<tag k="name" v="Preinset" />
		<tag k="place" v="isolated_dwelling" />
		<tag k="ssr:stedsnr" v="631449" />
	</node>
	<node id="9630863591" lat="60.5576584" lon="9.14525" version="1" timestamp="2022-04-02T05:57:18Z" changeset="119224206" uid="3497659" user="NKA">
		<tag k="name" v="Grønna" />
		<tag k="place" v="hamlet" />
		<tag k="ssr:stedsnr" v="189546" />
	</node>
	<node id="9630863592" lat="60.5680002" lon="9.0967089" version="1" timestamp="2022-04-02T05:57:18Z" changeset="119224206" uid="3497659" user="NKA">
		<tag k="name" v="Devegge" />
		<tag k="place" v="farm" />
		<tag k="ssr:stedsnr" v="553368" />
	</node>
	<node id="9630863593" lat="60.572277" lon="9.0451021" version="1" timestamp="2022-04-02T05:57:18Z" changeset="119224206" uid="3497659" user="NKA">
		<tag k="name" v="Mellom-Espeset" />
		<tag k="place" v="farm" />
		<tag k="ssr:stedsnr" v="813665" />
	</node>
	<node id="9630863594" lat="60.5599639" lon="9.0153917" version="1" timestamp="2022-04-02T05:57:18Z" changeset="119224206" uid="3497659" user="NKA">
		<tag k="name" v="Granli" />
		<tag k="place" v="farm" />
		<tag k="ssr:stedsnr" v="128363" />
	</node>
	<node id="9630863595" lat="60.644588" lon="9.031842" version="1" timestamp="2022-04-02T05:57:18Z" changeset="119224206" uid="3497659" user="NKA">
		<tag k="name" v="Nørdre Garnås" />
		<tag k="place" v="farm" />
		<tag k="ssr:stedsnr" v="631821" />
	</node>
	<node id="9630863596" lat="60.5432707" lon="9.1463803" version="1" timestamp="2022-04-02T05:57:18Z" changeset="119224206" uid="3497659" user="NKA">
		<tag k="name" v="Hansamoen" />
		<tag k="place" v="farm" />
		<tag k="ssr:stedsnr" v="146180" />
	</node>
	<node id="9630863597" lat="60.5082139" lon="9.1829194" version="1" timestamp="2022-04-02T05:57:18Z" changeset="119224206" uid="3497659" user="NKA">
		<tag k="name" v="Fløten" />
		<tag k="place" v="farm" />
		<tag k="ssr:stedsnr" v="492484" />
	</node>
	<node id="9630863598" lat="60.5689502" lon="9.1200983" version="1" timestamp="2022-04-02T05:57:18Z" changeset="119224206" uid="3497659" user="NKA">
		<tag k="name" v="Brattestø" />
		<tag k="place" v="farm" />
		<tag k="ssr:stedsnr" v="692080" />
	</node>
	<node id="9630863599" lat="60.5586277" lon="9.0690417" version="1" timestamp="2022-04-02T05:57:18Z" changeset="119224206" uid="3497659" user="NKA">
		<tag k="name" v="Medrødningen" />
		<tag k="place" v="farm" />
		<tag k="ssr:stedsnr" v="371364" />
	</node>
	<node id="9630863600" lat="60.4810479" lon="9.2313148" version="1" timestamp="2022-04-02T05:57:18Z" changeset="119224206" uid="3497659" user="NKA">
		<tag k="name" v="Velta" />
		<tag k="place" v="farm" />
		<tag k="ssr:stedsnr" v="632877" />
	</node>
	<node id="9630863601" lat="60.5164491" lon="9.185896" version="1" timestamp="2022-04-02T05:57:18Z" changeset="119224206" uid="3497659" user="NKA">
		<tag k="name" v="Li" />
		<tag k="place" v="farm" />
		<tag k="ssr:stedsnr" v="525189" />
	</node>
	<node id="9630863602" lat="60.5643139" lon="9.063164" version="1" timestamp="2022-04-02T05:57:18Z" changeset="119224206" uid="3497659" user="NKA">
		<tag k="name" v="Brattli" />
		<tag k="place" v="farm" />
		<tag k="ssr:stedsnr" v="310391" />
	</node>
	<node id="9630863603" lat="60.5169778" lon="8.9933889" version="1" timestamp="2022-04-02T05:57:18Z" changeset="119224206" uid="3497659" user="NKA">
		<tag k="name" v="Bøgaset" />
		<tag k="place" v="neighbourhood" />
		<tag k="ssr:stedsnr" v="249583" />
	</node>
	<node id="9630863604" lat="60.6222436" lon="9.0324747" version="1" timestamp="2022-04-02T05:57:18Z" changeset="119224206" uid="3497659" user="NKA">
		<tag k="name" v="Brabantstølen" />
		<tag k="place" v="locality" />
		<tag k="ssr:stedsnr" v="7437" />
	</node>
	<node id="9630863605" lat="60.5420917" lon="9.1934278" version="1" timestamp="2022-04-02T05:57:18Z" changeset="119224206" uid="3497659" user="NKA">
		<tag k="name" v="Øvre Storeli" />
		<tag k="place" v="farm" />
		<tag k="ssr:stedsnr" v="432557" />
	</node>
	<node id="9630863606" lat="60.5290306" lon="9.1798472" version="1" timestamp="2022-04-02T05:57:18Z" changeset="119224206" uid="3497659" user="NKA">
		<tag k="name" v="Bråten" />
		<tag k="place" v="farm" />
		<tag k="ssr:stedsnr" v="674619" />
	</node>
	<node id="9630863607" lat="60.6220166" lon="9.0662" version="1" timestamp="2022-04-02T05:57:18Z" changeset="119224206" uid="3497659" user="NKA">
		<tag k="name" v="Bråten" />
		<tag k="place" v="farm" />
		<tag k="ssr:stedsnr" v="432427" />
	</node>
	<node id="9630863608" lat="60.555625" lon="9.2741083" version="1" timestamp="2022-04-02T05:57:18Z" changeset="119224206" uid="3497659" user="NKA">
		<tag k="historic" v="shieling" />
		<tag k="name" v="Venelie" />
		<tag k="place" v="isolated_dwelling" />
		<tag k="ssr:stedsnr" v="735840" />
	</node>
	<node id="9630863609" lat="60.5686123" lon="9.0187042" version="1" timestamp="2022-04-02T05:57:18Z" changeset="119224206" uid="3497659" user="NKA">
		<tag k="name" v="Solheim" />
		<tag k="place" v="farm" />
		<tag k="ssr:stedsnr" v="856425" />
	</node>
	<node id="9630863610" lat="60.6136122" lon="9.0692915" version="1" timestamp="2022-04-02T05:57:18Z" changeset="119224206" uid="3497659" user="NKA">
		<tag k="name" v="Søre Brenno" />
		<tag k="place" v="farm" />
		<tag k="ssr:stedsnr" v="328770" />
	</node>
	<node id="9630863611" lat="60.5637855" lon="9.1166342" version="1" timestamp="2022-04-02T05:57:18Z" changeset="119224206" uid="3497659" user="NKA">
		<tag k="name" v="Rødningen" />
		<tag k="place" v="farm" />
		<tag k="ssr:stedsnr" v="856419" />
	</node>
	<node id="9630863612" lat="60.471625" lon="9.225875" version="1" timestamp="2022-04-02T05:57:18Z" changeset="119224206" uid="3497659" user="NKA">
		<tag k="name" v="Sevrestøen" />
		<tag k="place" v="hamlet" />
		<tag k="ssr:stedsnr" v="612375" />
	</node>
	<node id="9630863613" lat="60.6328848" lon="9.0704612" version="1" timestamp="2022-04-02T05:57:18Z" changeset="119224206" uid="3497659" user="NKA">
		<tag k="alt_name" v="Haugen" />
		<tag k="name" v="Nedre Haugen" />
		<tag k="place" v="farm" />
		<tag k="ssr:stedsnr" v="613485" />
	</node>
	<node id="9630863614" lat="60.442475" lon="9.22295" version="1" timestamp="2022-04-02T05:57:18Z" changeset="119224206" uid="3497659" user="NKA">
		<tag k="historic" v="shieling" />
		<tag k="name" v="Nysetre" />
		<tag k="place" v="isolated_dwelling" />
		<tag k="ssr:stedsnr" v="856124" />
	</node>
	<node id="9630863615" lat="60.5240503" lon="9.0095231" version="1" timestamp="2022-04-02T05:57:18Z" changeset="119224206" uid="3497659" user="NKA">
		<tag k="name" v="Nesfjellet" />
		<tag k="place" v="quarter" />
		<tag k="ssr:stedsnr" v="1078903" />
	</node>
	<node id="9630863616" lat="60.5779227" lon="9.1088161" version="1" timestamp="2022-04-02T05:57:18Z" changeset="119224206" uid="3497659" user="NKA">
		<tag k="name" v="Bæken" />
		<tag k="place" v="farm" />
		<tag k="ssr:stedsnr" v="692077" />
	</node>
	<node id="9630863617" lat="60.5392278" lon="9.1598916" version="1" timestamp="2022-04-02T05:57:18Z" changeset="119224206" uid="3497659" user="NKA">
		<tag k="name" v="Blingsmoen" />
		<tag k="place" v="farm" />
		<tag k="ssr:stedsnr" v="128563" />
	</node>
	<node id="9630863618" lat="60.5706044" lon="9.0544615" version="1" timestamp="2022-04-02T05:57:18Z" changeset="119224206" uid="3497659" user="NKA">
		<tag k="name" v="Espeset" />
		<tag k="place" v="farm" />
		<tag k="ssr:stedsnr" v="492371" />
	</node>
	<node id="9630863619" lat="60.5212686" lon="9.1882792" version="1" timestamp="2022-04-02T05:57:18Z" changeset="119224206" uid="3497659" user="NKA">
		<tag k="name" v="Myro" />
		<tag k="place" v="farm" />
		<tag k="ssr:stedsnr" v="735595" />
	</node>
	<node id="9630863620" lat="60.5336444" lon="9.1920279" version="1" timestamp="2022-04-02T05:57:18Z" changeset="119224206" uid="3497659" user="NKA">
		<tag k="name" v="Hestedokken" />
		<tag k="place" v="farm" />
		<tag k="ssr:stedsnr" v="917588" />
	</node>
	<node id="9630863621" lat="60.5642329" lon="9.1123438" version="1" timestamp="2022-04-02T05:57:18Z" changeset="119224206" uid="3497659" user="NKA">
		<tag k="name" v="Peiseplassen" />
		<tag k="place" v="farm" />
		<tag k="ssr:stedsnr" v="973801" />
	</node>
	<node id="9630863622" lat="60.4904055" lon="8.885825" version="1" timestamp="2022-04-02T05:57:18Z" changeset="119224206" uid="3497659" user="NKA">
		<tag k="name" v="Liaset" />
		<tag k="place" v="hamlet" />
		<tag k="ssr:stedsnr" v="309290" />
	</node>
	<node id="9630863623" lat="60.5541972" lon="8.9748722" version="1" timestamp="2022-04-02T05:57:18Z" changeset="119224206" uid="3497659" user="NKA">
		<tag k="name" v="Søre Johannesgarden" />
		<tag k="place" v="farm" />
		<tag k="ssr:stedsnr" v="68420" />
	</node>
	<node id="9630863624" lat="60.5586278" lon="9.0437306" version="1" timestamp="2022-04-02T05:57:18Z" changeset="119224206" uid="3497659" user="NKA">
		<tag k="name" v="Vestheim" />
		<tag k="place" v="farm" />
		<tag k="ssr:stedsnr" v="310396" />
	</node>
	<node id="9630863625" lat="60.482025" lon="9.23255" version="1" timestamp="2022-04-02T05:57:18Z" changeset="119224206" uid="3497659" user="NKA">
		<tag k="name" v="Lauvskardbråten" />
		<tag k="place" v="farm" />
		<tag k="ssr:stedsnr" v="370383" />
	</node>
	<node id="9630863626" lat="60.5600195" lon="9.0048667" version="1" timestamp="2022-04-02T05:57:18Z" changeset="119224206" uid="3497659" user="NKA">
		<tag k="name" v="Jørgenenge" />
		<tag k="place" v="farm" />
		<tag k="ssr:stedsnr" v="613399" />
	</node>
	<node id="9630863627" lat="60.5791584" lon="9.1782472" version="1" timestamp="2022-04-02T05:57:18Z" changeset="119224206" uid="3497659" user="NKA">
		<tag k="name" v="Torydningen" />
		<tag k="place" v="isolated_dwelling" />
		<tag k="ssr:stedsnr" v="795492" />
	</node>
	<node id="9630863628" lat="60.4784262" lon="9.2109653" version="1" timestamp="2022-04-02T05:57:18Z" changeset="119224206" uid="3497659" user="NKA">
		<tag k="name" v="Kåterud" />
		<tag k="place" v="farm" />
		<tag k="ssr:stedsnr" v="612311" />
	</node>
	<node id="9630863629" lat="60.4738729" lon="9.1856922" version="1" timestamp="2022-04-02T05:57:18Z" changeset="119224206" uid="3497659" user="NKA">
		<tag k="name" v="Børdalen" />
		<tag k="place" v="hamlet" />
		<tag k="ssr:stedsnr" v="1080326" />
	</node>
	<node id="9630863630" lat="60.556078" lon="8.8039635" version="1" timestamp="2022-04-02T05:57:18Z" changeset="119224206" uid="3497659" user="NKA">
		<tag k="alt_name" v="Skårsrudstølen;Skålsrudstølane" />
		<tag k="loc_name" v="Skålsrudstølan" />
		<tag k="name" v="Skålsrudstølen" />
		<tag k="old_name" v="Skardsrud Sr;Skaalsrud-Stølene;Skårsrudstølane;Skaarsrudstølanne;Skaalsrudstølen" />
		<tag k="place" v="hamlet" />
		<tag k="ssr:stedsnr" v="968943" />
	</node>
	<node id="9630863631" lat="60.5742028" lon="8.9495861" version="1" timestamp="2022-04-02T05:57:18Z" changeset="119224206" uid="3497659" user="NKA">
		<tag k="name" v="Slåtta" />
		<tag k="place" v="isolated_dwelling" />
		<tag k="ssr:stedsnr" v="735424" />
	</node>
	<node id="9630863632" lat="60.5614873" lon="9.1094371" version="1" timestamp="2022-04-02T05:57:18Z" changeset="119224206" uid="3497659" user="NKA">
		<tag k="name" v="Majormoen" />
		<tag k="place" v="farm" />
		<tag k="ssr:stedsnr" v="674365" />
	</node>
	<node id="9630863633" lat="60.5530389" lon="9.1506249" version="1" timestamp="2022-04-02T05:57:18Z" changeset="119224206" uid="3497659" user="NKA">
		<tag k="name" v="Nymoen" />
		<tag k="place" v="farm" />
		<tag k="ssr:stedsnr" v="613576" />
	</node>
	<node id="9630863634" lat="60.5714701" lon="9.043127" version="1" timestamp="2022-04-02T05:57:18Z" changeset="119224206" uid="3497659" user="NKA">
		<tag k="name" v="Sommarhaugen" />
		<tag k="place" v="farm" />
		<tag k="ssr:stedsnr" v="753634" />
	</node>
	<node id="9630863635" lat="60.6137333" lon="9.1659806" version="1" timestamp="2022-04-02T05:57:18Z" changeset="119224206" uid="3497659" user="NKA">
		<tag k="name" v="Todalen" />
		<tag k="place" v="farm" />
		<tag k="ssr:stedsnr" v="917444" />
	</node>
	<node id="9630863636" lat="60.5586944" lon="8.9631777" version="1" timestamp="2022-04-02T05:57:18Z" changeset="119224206" uid="3497659" user="NKA">
		<tag k="name" v="Fusserud" />
		<tag k="place" v="farm" />
		<tag k="ssr:stedsnr" v="189380" />
	</node>
	<node id="9630863637" lat="60.5367444" lon="8.9273917" version="1" timestamp="2022-04-02T05:57:18Z" changeset="119224206" uid="3497659" user="NKA">
		<tag k="alt_name" v="Slettumplass" />
		<tag k="loc_name" v="Slettumplassen" />
		<tag k="name" v="Slettom" />
		<tag k="old_name" v="Slettumpladsen" />
		<tag k="place" v="farm" />
		<tag k="ssr:stedsnr" v="128552" />
	</node>
	<node id="9630863638" lat="60.6537762" lon="9.1935977" version="1" timestamp="2022-04-02T05:57:18Z" changeset="119224206" uid="3497659" user="NKA">
		<tag k="name" v="Slåtta" />
		<tag k="place" v="locality" />
		<tag k="ssr:stedsnr" v="6292" />
	</node>
	<node id="9630863639" lat="60.5291661" lon="8.9107881" version="1" timestamp="2022-04-02T05:57:18Z" changeset="119224206" uid="3497659" user="NKA">
		<tag k="name" v="Gunvaldsrukke" />
		<tag k="place" v="farm" />
		<tag k="ssr:stedsnr" v="371605" />
	</node>
	<node id="9630863640" lat="60.5069333" lon="8.9646027" version="1" timestamp="2022-04-02T05:57:18Z" changeset="119224206" uid="3497659" user="NKA">
		<tag k="historic" v="shieling" />
		<tag k="name" v="Timmermannsstølen" />
		<tag k="place" v="hamlet" />
		<tag k="ssr:stedsnr" v="128503" />
	</node>
	<node id="9630863641" lat="60.5259222" lon="9.1871001" version="1" timestamp="2022-04-02T05:57:18Z" changeset="119224206" uid="3497659" user="NKA">
		<tag k="name" v="Nørdre Li" />
		<tag k="place" v="hamlet" />
		<tag k="ssr:stedsnr" v="128580" />
	</node>
	<node id="9630863642" lat="60.551782" lon="8.9668634" version="1" timestamp="2022-04-02T05:57:18Z" changeset="119224206" uid="3497659" user="NKA">
		<tag k="name" v="Nørdre Johannesgarden" />
		<tag k="place" v="farm" />
		<tag k="ssr:stedsnr" v="450806" />
	</node>
	<node id="9630863643" lat="60.472375" lon="9.232825" version="1" timestamp="2022-04-02T05:57:18Z" changeset="119224206" uid="3497659" user="NKA">
		<tag k="name" v="Bergshagen" />
		<tag k="place" v="farm" />
		<tag k="ssr:stedsnr" v="491369" />
	</node>
	<node id="9630863644" lat="60.5388389" lon="9.1354917" version="1" timestamp="2022-04-02T05:57:18Z" changeset="119224206" uid="3497659" user="NKA">
		<tag k="name" v="Knutsbråten" />
		<tag k="place" v="locality" />
		<tag k="ssr:stedsnr" v="571969" />
	</node>
	<node id="9630863645" lat="60.5432111" lon="8.9911583" version="1" timestamp="2022-04-02T05:57:18Z" changeset="119224206" uid="3497659" user="NKA">
		<tag k="name" v="Bjørnerud" />
		<tag k="place" v="farm" />
		<tag k="ssr:stedsnr" v="857601" />
	</node>
	<node id="9630863646" lat="60.4605347" lon="9.2543741" version="1" timestamp="2022-04-02T05:57:18Z" changeset="119224206" uid="3497659" user="NKA">
		<tag k="name" v="Søre Rauk" />
		<tag k="place" v="farm" />
		<tag k="ssr:stedsnr" v="794343" />
	</node>
	<node id="9630863647" lat="60.6376611" lon="8.9746778" version="1" timestamp="2022-04-02T05:57:18Z" changeset="119224206" uid="3497659" user="NKA">
		<tag k="name" v="Nyhytta" />
		<tag k="place" v="isolated_dwelling" />
		<tag k="ssr:stedsnr" v="7464" />
	</node>
	<node id="9630863648" lat="60.6547222" lon="9.214439" version="1" timestamp="2022-04-02T05:57:18Z" changeset="119224206" uid="3497659" user="NKA">
		<tag k="historic" v="shieling" />
		<tag k="name" v="Søre Fjellset" />
		<tag k="place" v="isolated_dwelling" />
		<tag k="ssr:stedsnr" v="145603" />
	</node>
	<node id="9630863649" lat="60.5662749" lon="9.0129277" version="1" timestamp="2022-04-02T05:57:18Z" changeset="119224206" uid="3497659" user="NKA">
		<tag k="name" v="Stupa" />
		<tag k="place" v="farm" />
		<tag k="ssr:stedsnr" v="207953" />
	</node>
	<node id="9630863650" lat="60.6402945" lon="9.0490139" version="1" timestamp="2022-04-02T05:57:18Z" changeset="119224206" uid="3497659" user="NKA">
		<tag k="name" v="Solli" />
		<tag k="place" v="farm" />
		<tag k="ssr:stedsnr" v="856529" />
	</node>
	<node id="9630863651" lat="60.4571973" lon="9.2639694" version="1" timestamp="2022-04-02T05:57:18Z" changeset="119224206" uid="3497659" user="NKA">
		<tag k="name" v="Kleivi" />
		<tag k="place" v="locality" />
		<tag k="ssr:stedsnr" v="41587" />
	</node>
	<node id="9630863652" lat="60.4784" lon="9.2413501" version="1" timestamp="2022-04-02T05:57:18Z" changeset="119224206" uid="3497659" user="NKA">
		<tag k="name" v="Torgerhus" />
		<tag k="place" v="farm" />
		<tag k="ssr:stedsnr" v="673367" />
	</node>
	<node id="9630863653" lat="60.6331391" lon="9.0720825" version="1" timestamp="2022-04-02T05:57:18Z" changeset="119224206" uid="3497659" user="NKA">
		<tag k="name" v="Øvre Haugen" />
		<tag k="place" v="farm" />
		<tag k="ssr:stedsnr" v="389844" />
	</node>
	<node id="9630863654" lat="60.4812583" lon="9.1991499" version="1" timestamp="2022-04-02T05:57:18Z" changeset="119224206" uid="3497659" user="NKA">
		<tag k="name" v="Dokken" />
		<tag k="place" v="farm" />
		<tag k="ssr:stedsnr" v="491273" />
	</node>
	<node id="9630863655" lat="60.5530539" lon="8.956446" version="1" timestamp="2022-04-02T05:57:18Z" changeset="119224206" uid="3497659" user="NKA">
		<tag k="name" v="Jordet" />
		<tag k="place" v="farm" />
		<tag k="ssr:stedsnr" v="67424" />
	</node>
	<node id="9630863656" lat="60.5680361" lon="9.2686305" version="1" timestamp="2022-04-02T05:57:18Z" changeset="119224206" uid="3497659" user="NKA">
		<tag k="historic" v="shieling" />
		<tag k="name" v="Kvitevasslie" />
		<tag k="place" v="hamlet" />
		<tag k="ssr:stedsnr" v="189816" />
	</node>
	<node id="9630863657" lat="60.5724112" lon="9.0093131" version="1" timestamp="2022-04-02T05:57:18Z" changeset="119224206" uid="3497659" user="NKA">
		<tag k="name" v="Øvre Sandanbråten" />
		<tag k="place" v="isolated_dwelling" />
		<tag k="ssr:stedsnr" v="310449" />
	</node>
	<node id="9630863658" lat="60.5374469" lon="8.9288595" version="1" timestamp="2022-04-02T05:57:18Z" changeset="119224206" uid="3497659" user="NKA">
		<tag k="name" v="Velta" />
		<tag k="place" v="farm" />
		<tag k="ssr:stedsnr" v="128553" />
	</node>
	<node id="9630863659" lat="60.5641071" lon="9.0063252" version="1" timestamp="2022-04-02T05:57:18Z" changeset="119224206" uid="3497659" user="NKA">
		<tag k="name" v="Klypet" />
		<tag k="place" v="farm" />
		<tag k="ssr:stedsnr" v="328955" />
	</node>
	<node id="9630863660" lat="60.5580941" lon="9.1164104" version="1" timestamp="2022-04-02T05:57:18Z" changeset="119224206" uid="3497659" user="NKA">
		<tag k="name" v="Haraldset" />
		<tag k="place" v="farm" />
		<tag k="ssr:stedsnr" v="613571" />
	</node>
	<node id="9630863661" lat="60.5690482" lon="9.0922755" version="1" timestamp="2022-04-02T05:57:18Z" changeset="119224206" uid="3497659" user="NKA">
		<tag k="name" v="Høva" />
		<tag k="place" v="farm" />
		<tag k="ssr:stedsnr" v="189349" />
	</node>
	<node id="9630863662" lat="60.6029831" lon="9.0726966" version="1" timestamp="2022-04-02T05:57:18Z" changeset="119224206" uid="3497659" user="NKA">
		<tag k="alt_name" v="Nedre Sjong" />
		<tag k="name" v="Nedre Skjong" />
		<tag k="old_name" v="ned Skjong" />
		<tag k="place" v="farm" />
		<tag k="ssr:stedsnr" v="667750" />
	</node>
	<node id="9630863663" lat="60.6615942" lon="9.0401011" version="1" timestamp="2022-04-02T05:57:18Z" changeset="119224206" uid="3497659" user="NKA">
		<tag k="name" v="Øyne" />
		<tag k="place" v="farm" />
		<tag k="ssr:stedsnr" v="735253" />
	</node>
	<node id="9630863664" lat="60.6537908" lon="9.0448522" version="1" timestamp="2022-04-02T05:57:18Z" changeset="119224206" uid="3497659" user="NKA">
		<tag k="name" v="Svenkerud" />
		<tag k="place" v="farm" />
		<tag k="ssr:stedsnr" v="6283" />
	</node>
	<node id="9630863665" lat="60.5535972" lon="9.2353973" version="1" timestamp="2022-04-02T05:57:18Z" changeset="119224206" uid="3497659" user="NKA">
		<tag k="historic" v="shieling" />
		<tag k="name" v="Nybu" />
		<tag k="place" v="hamlet" />
		<tag k="ssr:stedsnr" v="856862" />
	</node>
	<node id="9630863666" lat="60.644525" lon="9.1283779" version="1" timestamp="2022-04-02T05:57:18Z" changeset="119224206" uid="3497659" user="NKA">
		<tag k="name" v="Gråbeinhytta" />
		<tag k="place" v="isolated_dwelling" />
		<tag k="ssr:stedsnr" v="249491" />
	</node>
	<node id="9630863667" lat="60.6299111" lon="9.0595083" version="1" timestamp="2022-04-02T05:57:18Z" changeset="119224206" uid="3497659" user="NKA">
		<tag k="name" v="Nørdre Dokken" />
		<tag k="place" v="farm" />
		<tag k="ssr:stedsnr" v="432472" />
	</node>
	<node id="9630863668" lat="60.4919361" lon="9.200475" version="1" timestamp="2022-04-02T05:57:18Z" changeset="119224206" uid="3497659" user="NKA">
		<tag k="name" v="Lauvviken" />
		<tag k="place" v="farm" />
		<tag k="ssr:stedsnr" v="66281" />
	</node>
	<node id="9630863669" lat="60.4708274" lon="9.1978701" version="1" timestamp="2022-04-02T05:57:18Z" changeset="119224206" uid="3497659" user="NKA">
		<tag k="name" v="Bråten" />
		<tag k="place" v="farm" />
		<tag k="ssr:stedsnr" v="814734" />
	</node>
	<node id="9630863670" lat="60.493125" lon="9.1835" version="1" timestamp="2022-04-02T05:57:18Z" changeset="119224206" uid="3497659" user="NKA">
		<tag k="name" v="Gråsult" />
		<tag k="place" v="farm" />
		<tag k="ssr:stedsnr" v="369266" />
	</node>
	<node id="9630863671" lat="60.5952694" lon="9.0452222" version="1" timestamp="2022-04-02T05:57:18Z" changeset="119224206" uid="3497659" user="NKA">
		<tag k="historic" v="shieling" />
		<tag k="name" v="Gunvaldvollen" />
		<tag k="place" v="isolated_dwelling" />
		<tag k="ssr:stedsnr" v="68428" />
	</node>
	<node id="9630863672" lat="60.5102472" lon="9.133364" version="1" timestamp="2022-04-02T05:57:18Z" changeset="119224206" uid="3497659" user="NKA">
		<tag k="name" v="Sjugurdsbråten" />
		<tag k="place" v="farm" />
		<tag k="ssr:stedsnr" v="7511" />
	</node>
	<node id="9630863673" lat="60.4618111" lon="9.2679361" version="1" timestamp="2022-04-02T05:57:18Z" changeset="119224206" uid="3497659" user="NKA">
		<tag k="name" v="Dekkin" />
		<tag k="place" v="locality" />
		<tag k="ssr:stedsnr" v="369332" />
	</node>
	<node id="9630863674" lat="60.6415231" lon="9.026281" version="1" timestamp="2022-04-02T05:57:18Z" changeset="119224206" uid="3497659" user="NKA">
		<tag k="name" v="Ellingbråten" />
		<tag k="place" v="farm" />
		<tag k="ssr:stedsnr" v="510981" />
	</node>
	<node id="9630863675" lat="60.5773222" lon="9.2536527" version="1" timestamp="2022-04-02T05:57:18Z" changeset="119224206" uid="3497659" user="NKA">
		<tag k="historic" v="shieling" />
		<tag k="name" v="Rundestølen" />
		<tag k="place" v="isolated_dwelling" />
		<tag k="ssr:stedsnr" v="796842" />
	</node>
	<node id="9630863676" lat="60.4785" lon="9.2215001" version="1" timestamp="2022-04-02T05:57:18Z" changeset="119224206" uid="3497659" user="NKA">
		<tag k="name" v="Geiterygg" />
		<tag k="place" v="farm" />
		<tag k="ssr:stedsnr" v="309373" />
	</node>
	<node id="9630863677" lat="60.6452195" lon="9.2411444" version="1" timestamp="2022-04-02T05:57:18Z" changeset="119224206" uid="3497659" user="NKA">
		<tag k="historic" v="shieling" />
		<tag k="name" v="Langevasstølan" />
		<tag k="place" v="hamlet" />
		<tag k="ssr:stedsnr" v="917704" />
	</node>
	<node id="9630863678" lat="60.5014056" lon="8.8223778" version="1" timestamp="2022-04-02T05:57:18Z" changeset="119224206" uid="3497659" user="NKA">
		<tag k="name" v="Lyseren" />
		<tag k="place" v="hamlet" />
		<tag k="ssr:stedsnr" v="492890" />
	</node>
	<node id="9630863679" lat="60.5925152" lon="9.092757" version="1" timestamp="2022-04-02T05:57:18Z" changeset="119224206" uid="3497659" user="NKA">
		<tag k="name" v="Rud" />
		<tag k="place" v="farm" />
		<tag k="ssr:stedsnr" v="68439" />
	</node>
	<node id="9630863680" lat="60.5456833" lon="9.2712333" version="1" timestamp="2022-04-02T05:57:18Z" changeset="119224206" uid="3497659" user="NKA">
		<tag k="historic" v="shieling" />
		<tag k="name" v="Tjernset" />
		<tag k="place" v="isolated_dwelling" />
		<tag k="ssr:stedsnr" v="856875" />
	</node>
	<node id="9630863681" lat="60.5470972" lon="8.946511" version="1" timestamp="2022-04-02T05:57:18Z" changeset="119224206" uid="3497659" user="NKA">
		<tag k="name" v="Sjugurdsrudplassen" />
		<tag k="place" v="farm" />
		<tag k="ssr:stedsnr" v="735571" />
	</node>
	<node id="9630863682" lat="60.5006027" lon="9.2003806" version="1" timestamp="2022-04-02T05:57:18Z" changeset="119224206" uid="3497659" user="NKA">
		<tag k="name" v="Skaret" />
		<tag k="place" v="farm" />
		<tag k="ssr:stedsnr" v="189482" />
	</node>
	<node id="9630863683" lat="60.444681" lon="9.1458179" version="1" timestamp="2022-04-02T05:57:18Z" changeset="119224206" uid="3497659" user="NKA">
		<tag k="historic" v="shieling" />
		<tag k="name" v="Myte" />
		<tag k="place" v="hamlet" />
		<tag k="ssr:stedsnr" v="6345" />
	</node>
	<node id="9630863684" lat="60.4847472" lon="9.2297583" version="1" timestamp="2022-04-02T05:57:18Z" changeset="119224206" uid="3497659" user="NKA">
		<tag k="name" v="Martinsbråten" />
		<tag k="place" v="farm" />
		<tag k="ssr:stedsnr" v="208896" />
	</node>
	<node id="9630863685" lat="60.5325839" lon="8.9133073" version="1" timestamp="2022-04-02T05:57:18Z" changeset="119224206" uid="3497659" user="NKA">
		<tag k="name" v="Rukke" />
		<tag k="place" v="farm" />
		<tag k="ssr:stedsnr" v="1072307" />
	</node>
	<node id="9630863686" lat="60.5185445" lon="8.8083501" version="1" timestamp="2022-04-02T05:57:18Z" changeset="119224206" uid="3497659" user="NKA">
		<tag k="name" v="Bruset" />
		<tag k="place" v="hamlet" />
		<tag k="ssr:stedsnr" v="917167" />
	</node>
	<node id="9630863687" lat="60.6173583" lon="9.1942806" version="1" timestamp="2022-04-02T05:57:18Z" changeset="119224206" uid="3497659" user="NKA">
		<tag k="name" v="Vardevollen" />
		<tag k="place" v="isolated_dwelling" />
		<tag k="ssr:stedsnr" v="796436" />
	</node>
	<node id="9630863688" lat="60.5443028" lon="8.9944669" version="1" timestamp="2022-04-02T05:57:18Z" changeset="119224206" uid="3497659" user="NKA">
		<tag k="name" v="Tronrud" />
		<tag k="place" v="farm" />
		<tag k="ssr:stedsnr" v="371577" />
	</node>
	<node id="9630863689" lat="60.5325695" lon="8.8770555" version="1" timestamp="2022-04-02T05:57:18Z" changeset="119224206" uid="3497659" user="NKA">
		<tag k="name" v="Øvre Foss" />
		<tag k="place" v="hamlet" />
		<tag k="ssr:stedsnr" v="553612" />
	</node>
	<node id="9630863690" lat="60.5285379" lon="8.9148737" version="1" timestamp="2022-04-02T05:57:18Z" changeset="119224206" uid="3497659" user="NKA">
		<tag k="name" v="Nedre Rukke" />
		<tag k="place" v="farm" />
		<tag k="ssr:stedsnr" v="450819" />
	</node>
	<node id="9630863691" lat="60.5653301" lon="9.034527" version="1" timestamp="2022-04-02T05:57:18Z" changeset="119224206" uid="3497659" user="NKA">
		<tag k="name" v="Sveinegarden" />
		<tag k="place" v="farm" />
		<tag k="ssr:stedsnr" v="570635" />
	</node>
	<node id="9630863692" lat="60.5700178" lon="9.1279101" version="1" timestamp="2022-04-02T05:57:18Z" changeset="119224206" uid="3497659" user="NKA">
		<tag k="name" v="Dokken" />
		<tag k="place" v="isolated_dwelling" />
		<tag k="ssr:stedsnr" v="146069" />
	</node>
	<node id="9630863693" lat="60.4746" lon="9.180675" version="1" timestamp="2022-04-02T05:57:18Z" changeset="119224206" uid="3497659" user="NKA">
		<tag k="name" v="Stensrud" />
		<tag k="place" v="farm" />
		<tag k="ssr:stedsnr" v="491312" />
	</node>
	<node id="9630863694" lat="60.6171462" lon="9.0680798" version="1" timestamp="2022-04-02T05:57:18Z" changeset="119224206" uid="3497659" user="NKA">
		<tag k="name" v="Fingarmoen" />
		<tag k="place" v="farm" />
		<tag k="ssr:stedsnr" v="753763" />
	</node>
	<node id="9630863695" lat="60.5743277" lon="9.0258694" version="1" timestamp="2022-04-02T05:57:18Z" changeset="119224206" uid="3497659" user="NKA">
		<tag k="name" v="Sletten" />
		<tag k="place" v="farm" />
		<tag k="ssr:stedsnr" v="370481" />
	</node>
	<node id="9630863696" lat="60.4787444" lon="9.0402389" version="1" timestamp="2022-04-02T05:57:18Z" changeset="119224206" uid="3497659" user="NKA">
		<tag k="name" v="Fetjan-Brynhildstjernsameiet" />
		<tag k="place" v="locality" />
		<tag k="ssr:stedsnr" v="146622" />
	</node>
	<node id="9630863697" lat="60.485355" lon="9.1885589" version="1" timestamp="2022-04-02T05:57:18Z" changeset="119224206" uid="3497659" user="NKA">
		<tag k="name" v="Lauvli" />
		<tag k="place" v="isolated_dwelling" />
		<tag k="ssr:stedsnr" v="571153" />
	</node>
	<node id="9630863698" lat="60.497988" lon="9.0517908" version="1" timestamp="2022-04-02T05:57:18Z" changeset="119224206" uid="3497659" user="NKA">
		<tag k="historic" v="shieling" />
		<tag k="name" v="Heimlie" />
		<tag k="place" v="isolated_dwelling" />
		<tag k="ssr:stedsnr" v="310506" />
	</node>
	<node id="9630863699" lat="60.572589" lon="9.0307611" version="1" timestamp="2022-04-02T05:57:18Z" changeset="119224206" uid="3497659" user="NKA">
		<tag k="name" v="Renslebråten" />
		<tag k="place" v="farm" />
		<tag k="ssr:stedsnr" v="207654" />
	</node>
	<node id="9630863700" lat="60.570125" lon="9.0292778" version="1" timestamp="2022-04-02T05:57:18Z" changeset="119224206" uid="3497659" user="NKA">
		<tag k="name" v="Bakkerud" />
		<tag k="place" v="farm" />
		<tag k="ssr:stedsnr" v="856495" />
	</node>
	<node id="9630863701" lat="60.4579011" lon="9.2059852" version="1" timestamp="2022-04-02T05:57:18Z" changeset="119224206" uid="3497659" user="NKA">
		<tag k="name" v="Juvhaugen" />
		<tag k="place" v="farm" />
		<tag k="ssr:stedsnr" v="188321" />
	</node>
	<node id="9630863702" lat="60.5117832" lon="9.1786001" version="1" timestamp="2022-04-02T05:57:18Z" changeset="119224206" uid="3497659" user="NKA">
		<tag k="name" v="Haugo" />
		<tag k="place" v="farm" />
		<tag k="ssr:stedsnr" v="674525" />
	</node>
	<node id="9630863703" lat="60.5159936" lon="9.1370095" version="1" timestamp="2022-04-02T05:57:18Z" changeset="119224206" uid="3497659" user="NKA">
		<tag k="name" v="Påverud" />
		<tag k="place" v="farm" />
		<tag k="ssr:stedsnr" v="310538" />
	</node>
	<node id="9630863704" lat="60.5461528" lon="9.1972972" version="1" timestamp="2022-04-02T05:57:18Z" changeset="119224206" uid="3497659" user="NKA">
		<tag k="name" v="Berget" />
		<tag k="place" v="farm" />
		<tag k="ssr:stedsnr" v="674564" />
	</node>
	<node id="9630863705" lat="60.562357" lon="9.0087684" version="1" timestamp="2022-04-02T05:57:18Z" changeset="119224206" uid="3497659" user="NKA">
		<tag k="name" v="Jørnengen" />
		<tag k="place" v="locality" />
		<tag k="ssr:stedsnr" v="631105" />
	</node>
	<node id="9630863706" lat="60.6768778" lon="9.2749556" version="1" timestamp="2022-04-02T05:57:18Z" changeset="119224206" uid="3497659" user="NKA">
		<tag k="historic" v="shieling" />
		<tag k="name" v="Valdreslie" />
		<tag k="place" v="isolated_dwelling" />
		<tag k="ssr:stedsnr" v="674706" />
	</node>
	<node id="9630863707" lat="60.6186611" lon="9.0673666" version="1" timestamp="2022-04-02T05:57:18Z" changeset="119224206" uid="3497659" user="NKA">
		<tag k="name" v="Brenno" />
		<tag k="place" v="farm" />
		<tag k="ssr:stedsnr" v="328773" />
	</node>
	<node id="9630863708" lat="60.6259639" lon="9.1191473" version="1" timestamp="2022-04-02T05:57:18Z" changeset="119224206" uid="3497659" user="NKA">
		<tag k="name" v="Lysverkhytta" />
		<tag k="place" v="isolated_dwelling" />
		<tag k="ssr:stedsnr" v="147440" />
	</node>
	<node id="9630863709" lat="60.4118936" lon="9.1649936" version="1" timestamp="2022-04-02T05:57:18Z" changeset="119224206" uid="3497659" user="NKA">
		<tag k="historic" v="shieling" />
		<tag k="name" v="Søre Buhovd" />
		<tag k="place" v="hamlet" />
		<tag k="ssr:stedsnr" v="67378" />
	</node>
	<node id="9630863710" lat="60.4591111" lon="9.2007972" version="1" timestamp="2022-04-02T05:57:18Z" changeset="119224206" uid="3497659" user="NKA">
		<tag k="name" v="Lykkja" />
		<tag k="place" v="hamlet" />
		<tag k="ssr:stedsnr" v="612322" />
	</node>
	<node id="9630863711" lat="60.5685778" lon="9.1397888" version="1" timestamp="2022-04-02T05:57:18Z" changeset="119224206" uid="3497659" user="NKA">
		<tag k="name" v="Skriubråten" />
		<tag k="place" v="farm" />
		<tag k="ssr:stedsnr" v="128402" />
	</node>
	<node id="9630863712" lat="60.4799305" lon="9.0980751" version="1" timestamp="2022-04-02T05:57:18Z" changeset="119224206" uid="3497659" user="NKA">
		<tag k="name" v="Purkeset" />
		<tag k="place" v="isolated_dwelling" />
		<tag k="ssr:stedsnr" v="612287" />
	</node>
	<node id="9630863713" lat="60.6707306" lon="9.2640861" version="1" timestamp="2022-04-02T05:57:18Z" changeset="119224206" uid="3497659" user="NKA">
		<tag k="historic" v="shieling" />
		<tag k="name" v="Valdreslie" />
		<tag k="place" v="isolated_dwelling" />
		<tag k="ssr:stedsnr" v="795702" />
	</node>
	<node id="9630863714" lat="60.5691575" lon="9.0493613" version="1" timestamp="2022-04-02T05:57:18Z" changeset="119224206" uid="3497659" user="NKA">
		<tag k="name" v="Sjugurdjordet" />
		<tag k="place" v="farm" />
		<tag k="ssr:stedsnr" v="207625" />
	</node>
	<node id="9630863715" lat="60.6560222" lon="8.9734584" version="1" timestamp="2022-04-02T05:57:18Z" changeset="119224206" uid="3497659" user="NKA">
		<tag k="historic" v="shieling" />
		<tag k="name" v="Lie" />
		<tag k="place" v="isolated_dwelling" />
		<tag k="ssr:stedsnr" v="674257" />
	</node>
	<node id="9630863716" lat="60.4702778" lon="9.2595667" version="1" timestamp="2022-04-02T05:57:18Z" changeset="119224206" uid="3497659" user="NKA">
		<tag k="name" v="Kolbråten" />
		<tag k="place" v="locality" />
		<tag k="ssr:stedsnr" v="874786" />
	</node>
	<node id="9630863717" lat="60.5712031" lon="9.0356072" version="1" timestamp="2022-04-02T05:57:18Z" changeset="119224206" uid="3497659" user="NKA">
		<tag k="name" v="Storebråten" />
		<tag k="place" v="farm" />
		<tag k="ssr:stedsnr" v="449624" />
	</node>
	<node id="9630863718" lat="60.4861391" lon="9.1916363" version="1" timestamp="2022-04-02T05:57:18Z" changeset="119224206" uid="3497659" user="NKA">
		<tag k="name" v="Børtnes" />
		<tag k="old_name" v="Børtnæs" />
		<tag k="place" v="hamlet" />
		<tag k="ssr:stedsnr" v="53063" />
	</node>
	<node id="9630863719" lat="60.4779694" lon="8.9624834" version="1" timestamp="2022-04-02T05:57:18Z" changeset="119224206" uid="3497659" user="NKA">
		<tag k="name" v="Saupeset sameie" />
		<tag k="place" v="locality" />
		<tag k="ssr:stedsnr" v="86640" />
	</node>
	<node id="9630863720" lat="60.6288379" lon="9.0630079" version="1" timestamp="2022-04-02T05:57:18Z" changeset="119224206" uid="3497659" user="NKA">
		<tag k="name" v="Velta" />
		<tag k="place" v="farm" />
		<tag k="ssr:stedsnr" v="814855" />
	</node>
	<node id="9630863721" lat="60.638546" lon="9.036464" version="1" timestamp="2022-04-02T05:57:18Z" changeset="119224206" uid="3497659" user="NKA">
		<tag k="name" v="Garnåsjordet" />
		<tag k="place" v="farm" />
		<tag k="ssr:stedsnr" v="67503" />
	</node>
	<node id="9630863722" lat="60.6482417" lon="9.0499972" version="1" timestamp="2022-04-02T05:57:18Z" changeset="119224206" uid="3497659" user="NKA">
		<tag k="name" v="Svenkerud" />
		<tag k="place" v="hamlet" />
		<tag k="ssr:stedsnr" v="935852" />
	</node>
	<node id="9630863723" lat="60.4822833" lon="9.2613249" version="1" timestamp="2022-04-02T05:57:18Z" changeset="119224206" uid="3497659" user="NKA">
		<tag k="name" v="Finneset" />
		<tag k="place" v="locality" />
		<tag k="ssr:stedsnr" v="856356" />
	</node>
	<node id="9630863724" lat="60.6417075" lon="9.0363357" version="1" timestamp="2022-04-02T05:57:18Z" changeset="119224206" uid="3497659" user="NKA">
		<tag k="name" v="Garnåshaugen" />
		<tag k="place" v="farm" />
		<tag k="ssr:stedsnr" v="552558" />
	</node>
	<node id="9630863725" lat="60.5595192" lon="9.1250679" version="1" timestamp="2022-04-02T05:57:18Z" changeset="119224206" uid="3497659" user="NKA">
		<tag k="name" v="Bringo" />
		<tag k="place" v="farm" />
		<tag k="ssr:stedsnr" v="86072" />
	</node>
	<node id="9630863726" lat="60.5959416" lon="9.2492528" version="1" timestamp="2022-04-02T05:57:18Z" changeset="119224206" uid="3497659" user="NKA">
		<tag k="historic" v="shieling" />
		<tag k="name" v="Brøtset" />
		<tag k="place" v="isolated_dwelling" />
		<tag k="ssr:stedsnr" v="613661" />
	</node>
	<node id="9630863727" lat="60.5071111" lon="9.1734805" version="1" timestamp="2022-04-02T05:57:18Z" changeset="119224206" uid="3497659" user="NKA">
		<tag k="name" v="Støen" />
		<tag k="place" v="farm" />
		<tag k="ssr:stedsnr" v="735511" />
	</node>
	<node id="9630863728" lat="60.4821669" lon="9.2308112" version="1" timestamp="2022-04-02T05:57:18Z" changeset="119224206" uid="3497659" user="NKA">
		<tag k="name" v="Isakbråten" />
		<tag k="place" v="farm" />
		<tag k="ssr:stedsnr" v="571889" />
	</node>
	<node id="9630863729" lat="60.4931389" lon="9.0649277" version="1" timestamp="2022-04-02T05:57:18Z" changeset="119224206" uid="3497659" user="NKA">
		<tag k="historic" v="shieling" />
		<tag k="name" v="Ormelie" />
		<tag k="place" v="isolated_dwelling" />
		<tag k="ssr:stedsnr" v="431275" />
	</node>
	<node id="9630863730" lat="60.5671722" lon="9.1332694" version="1" timestamp="2022-04-02T05:57:18Z" changeset="119224206" uid="3497659" user="NKA">
		<tag k="name" v="Todokk" />
		<tag k="place" v="farm" />
		<tag k="ssr:stedsnr" v="553374" />
	</node>
	<node id="9630863731" lat="60.5073027" lon="9.2983638" version="1" timestamp="2022-04-02T05:57:18Z" changeset="119224206" uid="3497659" user="NKA">
		<tag k="historic" v="shieling" />
		<tag k="name" v="Rakketjern" />
		<tag k="place" v="isolated_dwelling" />
		<tag k="ssr:stedsnr" v="329085" />
	</node>
	<node id="9630863732" lat="60.5280033" lon="9.1669004" version="1" timestamp="2022-04-02T05:57:18Z" changeset="119224206" uid="3497659" user="NKA">
		<tag k="name" v="Gullingsrudodden" />
		<tag k="place" v="farm" />
		<tag k="ssr:stedsnr" v="146157" />
	</node>
	<node id="9630863733" lat="60.5862389" lon="8.8468638" version="1" timestamp="2022-04-02T05:57:18Z" changeset="119224206" uid="3497659" user="NKA">
		<tag k="historic" v="shieling" />
		<tag k="name" v="Haugostølen" />
		<tag k="place" v="isolated_dwelling" />
		<tag k="ssr:stedsnr" v="68435" />
	</node>
	<node id="9630863734" lat="60.5209028" lon="9.1584195" version="1" timestamp="2022-04-02T05:57:18Z" changeset="119224206" uid="3497659" user="NKA">
		<tag k="name" v="Bø" />
		<tag k="place" v="hamlet" />
		<tag k="ssr:stedsnr" v="128588" />
	</node>
	<node id="9630863735" lat="60.6530333" lon="8.9271499" version="1" timestamp="2022-04-02T05:57:18Z" changeset="119224206" uid="3497659" user="NKA">
		<tag k="historic" v="shieling" />
		<tag k="name" v="Flatdalsstølen" />
		<tag k="place" v="isolated_dwelling" />
		<tag k="ssr:stedsnr" v="6282" />
	</node>
	<node id="9630863736" lat="60.5638444" lon="8.9970971" version="1" timestamp="2022-04-02T05:57:18Z" changeset="119224206" uid="3497659" user="NKA">
		<tag k="name" v="Moen" />
		<tag k="place" v="farm" />
		<tag k="ssr:stedsnr" v="935973" />
	</node>
	<node id="9630863737" lat="60.5632555" lon="9.1981306" version="1" timestamp="2022-04-02T05:57:18Z" changeset="119224206" uid="3497659" user="NKA">
		<tag k="name" v="Søre Toen" />
		<tag k="place" v="farm" />
		<tag k="ssr:stedsnr" v="856442" />
	</node>
	<node id="9630863738" lat="60.4422778" lon="9.103175" version="1" timestamp="2022-04-02T05:57:18Z" changeset="119224206" uid="3497659" user="NKA">
		<tag k="historic" v="shieling" />
		<tag k="name" v="Gørrbu" />
		<tag k="place" v="hamlet" />
		<tag k="ssr:stedsnr" v="127340" />
	</node>
	<node id="9630863739" lat="60.46355" lon="9.2034083" version="1" timestamp="2022-04-02T05:57:18Z" changeset="119224206" uid="3497659" user="NKA">
		<tag k="name" v="Myrhaugen" />
		<tag k="place" v="farm" />
		<tag k="ssr:stedsnr" v="249307" />
	</node>
	<node id="9630863740" lat="60.556555" lon="9.0571572" version="1" timestamp="2022-04-02T05:57:18Z" changeset="119224206" uid="3497659" user="NKA">
		<tag k="name" v="Søre Langeslett" />
		<tag k="place" v="farm" />
		<tag k="ssr:stedsnr" v="814145" />
	</node>
	<node id="9630863741" lat="60.5540611" lon="9.2622777" version="1" timestamp="2022-04-02T05:57:18Z" changeset="119224206" uid="3497659" user="NKA">
		<tag k="historic" v="shieling" />
		<tag k="name" v="Mortetjernhaugen" />
		<tag k="place" v="isolated_dwelling" />
		<tag k="ssr:stedsnr" v="189829" />
	</node>
	<node id="9630863742" lat="60.5933683" lon="8.8548091" version="1" timestamp="2022-04-02T05:57:18Z" changeset="119224206" uid="3497659" user="NKA">
		<tag k="historic" v="shieling" />
		<tag k="name" v="Buglebjørk" />
		<tag k="place" v="isolated_dwelling" />
		<tag k="ssr:stedsnr" v="180432" />
	</node>
	<node id="9630863743" lat="60.4770696" lon="9.1868739" version="1" timestamp="2022-04-02T05:57:18Z" changeset="119224206" uid="3497659" user="NKA">
		<tag k="name" v="Mikkelsplass" />
		<tag k="place" v="farm" />
		<tag k="ssr:stedsnr" v="491310" />
	</node>
	<node id="9630863744" lat="60.6012428" lon="9.0738743" version="1" timestamp="2022-04-02T05:57:18Z" changeset="119224206" uid="3497659" user="NKA">
		<tag k="name" v="Skjong" />
		<tag k="place" v="hamlet" />
		<tag k="ssr:stedsnr" v="841449" />
	</node>
	<node id="9630863745" lat="60.4902905" lon="8.8902716" version="1" timestamp="2022-04-02T05:57:18Z" changeset="119224206" uid="3497659" user="NKA">
		<tag k="historic" v="shieling" />
		<tag k="name" v="Liasethaugen" />
		<tag k="place" v="isolated_dwelling" />
		<tag k="ssr:stedsnr" v="268610" />
	</node>
	<node id="9630863746" lat="60.5168083" lon="8.9606971" version="1" timestamp="2022-04-02T05:57:18Z" changeset="119224206" uid="3497659" user="NKA">
		<tag k="name" v="Kuluset" />
		<tag k="place" v="neighbourhood" />
		<tag k="ssr:stedsnr" v="552655" />
	</node>
	<node id="9630863747" lat="60.4770209" lon="9.241006" version="1" timestamp="2022-04-02T05:57:18Z" changeset="119224206" uid="3497659" user="NKA">
		<tag k="name" v="Lauvskarmoen" />
		<tag k="place" v="farm" />
		<tag k="ssr:stedsnr" v="511888" />
	</node>
	<node id="9630863748" lat="60.5815833" lon="9.0897695" version="1" timestamp="2022-04-02T05:57:18Z" changeset="119224206" uid="3497659" user="NKA">
		<tag k="name" v="Bankeplassen" />
		<tag k="place" v="farm" />
		<tag k="ssr:stedsnr" v="935190" />
	</node>
	<node id="9630863749" lat="60.6459278" lon="9.2800862" version="1" timestamp="2022-04-02T05:57:18Z" changeset="119224206" uid="3497659" user="NKA">
		<tag k="name" v="Åsgrende" />
		<tag k="place" v="neighbourhood" />
		<tag k="ssr:stedsnr" v="145897" />
	</node>
	<node id="9630863750" lat="60.6554111" lon="9.3414611" version="1" timestamp="2022-04-02T05:57:18Z" changeset="119224206" uid="3497659" user="NKA">
		<tag k="historic" v="shieling" />
		<tag k="name" v="Trytehølstølan" />
		<tag k="place" v="isolated_dwelling" />
		<tag k="ssr:stedsnr" v="67721" />
	</node>
	<node id="9630863751" lat="60.5694462" lon="9.045629" version="1" timestamp="2022-04-02T05:57:18Z" changeset="119224206" uid="3497659" user="NKA">
		<tag k="name" v="Rolfshus" />
		<tag k="place" v="farm" />
		<tag k="ssr:stedsnr" v="874655" />
	</node>
	<node id="9630863752" lat="60.5695333" lon="9.1422194" version="1" timestamp="2022-04-02T05:57:18Z" changeset="119224206" uid="3497659" user="NKA">
		<tag k="name" v="Ellingsbråten" />
		<tag k="place" v="farm" />
		<tag k="ssr:stedsnr" v="432375" />
	</node>
	<node id="9630863753" lat="60.4877833" lon="9.1570499" version="1" timestamp="2022-04-02T05:57:18Z" changeset="119224206" uid="3497659" user="NKA">
		<tag k="historic" v="shieling" />
		<tag k="name" v="Kvelven" />
		<tag k="place" v="isolated_dwelling" />
		<tag k="ssr:stedsnr" v="612297" />
	</node>
	<node id="9630863754" lat="60.5179917" lon="9.0956583" version="1" timestamp="2022-04-02T05:57:18Z" changeset="119224206" uid="3497659" user="NKA">
		<tag k="name" v="Bakkeset" />
		<tag k="place" v="isolated_dwelling" />
		<tag k="ssr:stedsnr" v="310608" />
	</node>
	<node id="9630863755" lat="60.4503834" lon="9.15365" version="1" timestamp="2022-04-02T05:57:18Z" changeset="119224206" uid="3497659" user="NKA">
		<tag k="name" v="Tjørnset" />
		<tag k="place" v="isolated_dwelling" />
		<tag k="ssr:stedsnr" v="431347" />
	</node>
	<node id="9630863756" lat="60.5015641" lon="9.1166792" version="1" timestamp="2022-04-02T05:57:18Z" changeset="119224206" uid="3497659" user="NKA">
		<tag k="historic" v="shieling" />
		<tag k="name" v="Buhovdseter" />
		<tag k="place" v="isolated_dwelling" />
		<tag k="ssr:stedsnr" v="874865" />
	</node>
	<node id="9630863757" lat="60.6085333" lon="8.9200723" version="1" timestamp="2022-04-02T05:57:18Z" changeset="119224206" uid="3497659" user="NKA">
		<tag k="historic" v="shieling" />
		<tag k="name" v="Nystølen" />
		<tag k="place" v="isolated_dwelling" />
		<tag k="ssr:stedsnr" v="371419" />
	</node>
	<node id="9630863758" lat="60.5321664" lon="8.9149066" version="1" timestamp="2022-04-02T05:57:18Z" changeset="119224206" uid="3497659" user="NKA">
		<tag k="name" v="Smedrukke" />
		<tag k="place" v="farm" />
		<tag k="ssr:stedsnr" v="268821" />
	</node>
	<node id="9630863759" lat="60.570246" lon="9.097735" version="1" timestamp="2022-04-02T05:57:18Z" changeset="119224206" uid="3497659" user="NKA">
		<tag k="name" v="Bruvollen" />
		<tag k="place" v="farm" />
		<tag k="ssr:stedsnr" v="631083" />
	</node>
	<node id="9630863760" lat="60.5177195" lon="8.9461055" version="1" timestamp="2022-04-02T05:57:18Z" changeset="119224206" uid="3497659" user="NKA">
		<tag k="historic" v="shieling" />
		<tag k="name" v="Brennskogtjernan" />
		<tag k="place" v="isolated_dwelling" />
		<tag k="ssr:stedsnr" v="328799" />
	</node>
	<node id="9630863761" lat="60.5872806" lon="9.3125055" version="1" timestamp="2022-04-02T05:57:18Z" changeset="119224206" uid="3497659" user="NKA">
		<tag k="historic" v="shieling" />
		<tag k="name" v="Tverrlie" />
		<tag k="place" v="isolated_dwelling" />
		<tag k="ssr:stedsnr" v="7630" />
	</node>
	<node id="9630863762" lat="60.5641748" lon="9.0419182" version="1" timestamp="2022-04-02T05:57:18Z" changeset="119224206" uid="3497659" user="NKA">
		<tag k="name" v="Øygarden" />
		<tag k="place" v="farm" />
		<tag k="ssr:stedsnr" v="552427" />
	</node>
	<node id="9630863763" lat="60.659648" lon="9.0046402" version="1" timestamp="2022-04-02T05:57:18Z" changeset="119224206" uid="3497659" user="NKA">
		<tag k="historic" v="shieling" />
		<tag k="name" v="Nedrestølen" />
		<tag k="place" v="isolated_dwelling" />
		<tag k="ssr:stedsnr" v="431284" />
	</node>
	<node id="9630863764" lat="60.5632884" lon="9.00229" version="1" timestamp="2022-04-02T05:57:18Z" changeset="119224206" uid="3497659" user="NKA">
		<tag k="name" v="Huse" />
		<tag k="place" v="farm" />
		<tag k="ssr:stedsnr" v="1078465" />
	</node>
	<node id="9630863765" lat="60.5614695" lon="9.0256222" version="1" timestamp="2022-04-02T05:57:18Z" changeset="119224206" uid="3497659" user="NKA">
		<tag k="name" v="Engen" />
		<tag k="place" v="farm" />
		<tag k="ssr:stedsnr" v="492369" />
	</node>
	<node id="9630863766" lat="60.6217917" lon="8.9036861" version="1" timestamp="2022-04-02T05:57:18Z" changeset="119224206" uid="3497659" user="NKA">
		<tag k="historic" v="shieling" />
		<tag k="name" v="Sollie" />
		<tag k="place" v="isolated_dwelling" />
		<tag k="ssr:stedsnr" v="7442" />
	</node>
	<node id="9630863767" lat="60.5747555" lon="8.9264417" version="1" timestamp="2022-04-02T05:57:18Z" changeset="119224206" uid="3497659" user="NKA">
		<tag k="historic" v="shieling" />
		<tag k="name" v="Fussestølen" />
		<tag k="place" v="isolated_dwelling" />
		<tag k="ssr:stedsnr" v="370475" />
	</node>
	<node id="9630863769" lat="60.5065972" lon="9.1953372" version="1" timestamp="2022-04-02T05:57:18Z" changeset="119224206" uid="3497659" user="NKA">
		<tag k="name" v="Benterud" />
		<tag k="place" v="farm" />
		<tag k="ssr:stedsnr" v="7502" />
	</node>
	<node id="9630863770" lat="60.4887056" lon="8.9564611" version="1" timestamp="2022-04-02T05:57:18Z" changeset="119224206" uid="3497659" user="NKA">
		<tag k="name" v="Bardalhytta" />
		<tag k="place" v="isolated_dwelling" />
		<tag k="ssr:stedsnr" v="370304" />
	</node>
	<node id="9630863771" lat="60.6187083" lon="9.0526362" version="1" timestamp="2022-04-02T05:57:18Z" changeset="119224206" uid="3497659" user="NKA">
		<tag k="name" v="Tyribakken" />
		<tag k="place" v="farm" />
		<tag k="ssr:stedsnr" v="917424" />
	</node>
	<node id="9630863772" lat="60.4626583" lon="9.2007278" version="1" timestamp="2022-04-02T05:57:18Z" changeset="119224206" uid="3497659" user="NKA">
		<tag k="name" v="Tørrisplassen" />
		<tag k="place" v="farm" />
		<tag k="ssr:stedsnr" v="734348" />
	</node>
	<node id="9630863773" lat="60.5611741" lon="9.0428322" version="1" timestamp="2022-04-02T05:57:18Z" changeset="119224206" uid="3497659" user="NKA">
		<tag k="name" v="Ytterengen" />
		<tag k="place" v="farm" />
		<tag k="ssr:stedsnr" v="389127" />
	</node>
	<node id="9630863774" lat="60.5853473" lon="9.0980278" version="1" timestamp="2022-04-02T05:57:18Z" changeset="119224206" uid="3497659" user="NKA">
		<tag k="name" v="Fagervik" />
		<tag k="place" v="farm" />
		<tag k="ssr:stedsnr" v="917375" />
	</node>
	<node id="9630863775" lat="60.4683787" lon="9.2347963" version="1" timestamp="2022-04-02T05:57:18Z" changeset="119224206" uid="3497659" user="NKA">
		<tag k="alt_name" v="Nordre Sevre" />
		<tag k="name" v="Nørdre Sevre" />
		<tag k="place" v="farm" />
		<tag k="ssr:stedsnr" v="328761" />
	</node>
	<node id="9630863776" lat="60.5648971" lon="9.0223142" version="1" timestamp="2022-04-02T05:57:18Z" changeset="119224206" uid="3497659" user="NKA">
		<tag k="name" v="Smette" />
		<tag k="place" v="farm" />
		<tag k="ssr:stedsnr" v="509182" />
	</node>
	<node id="9630863777" lat="60.5084949" lon="9.1890169" version="1" timestamp="2022-04-02T05:57:18Z" changeset="119224206" uid="3497659" user="NKA">
		<tag k="name" v="Hovde" />
		<tag k="place" v="farm" />
		<tag k="ssr:stedsnr" v="796524" />
	</node>
	<node id="9630863778" lat="60.4869639" lon="9.2540833" version="1" timestamp="2022-04-02T05:57:18Z" changeset="119224206" uid="3497659" user="NKA">
		<tag k="historic" v="shieling" />
		<tag k="name" v="Veslesetran" />
		<tag k="place" v="isolated_dwelling" />
		<tag k="ssr:stedsnr" v="145942" />
	</node>
	<node id="9630863779" lat="60.5636943" lon="9.1987758" version="1" timestamp="2022-04-02T05:57:18Z" changeset="119224206" uid="3497659" user="NKA">
		<tag k="name" v="Toen" />
		<tag k="place" v="farm" />
		<tag k="ssr:stedsnr" v="1072304" />
	</node>
	<node id="9630863780" lat="60.5172889" lon="8.9008639" version="1" timestamp="2022-04-02T05:57:18Z" changeset="119224206" uid="3497659" user="NKA">
		<tag k="alt_name" v="Skreddarstølan" />
		<tag k="historic" v="shieling" />
		<tag k="name" v="Skreddarstølen" />
		<tag k="place" v="hamlet" />
		<tag k="ssr:stedsnr" v="492554" />
	</node>
	<node id="9630863781" lat="60.4749007" lon="9.248723" version="1" timestamp="2022-04-02T05:57:18Z" changeset="119224206" uid="3497659" user="NKA">
		<tag k="name" v="Berg" />
		<tag k="place" v="hamlet" />
		<tag k="ssr:stedsnr" v="1072303" />
	</node>
	<node id="9630863782" lat="60.5605962" lon="9.0470421" version="1" timestamp="2022-04-02T05:57:18Z" changeset="119224206" uid="3497659" user="NKA">
		<tag k="name" v="Engen" />
		<tag k="place" v="farm" />
		<tag k="ssr:stedsnr" v="389129" />
	</node>
	<node id="9630863783" lat="60.4473361" lon="9.196925" version="1" timestamp="2022-04-02T05:57:18Z" changeset="119224206" uid="3497659" user="NKA">
		<tag k="historic" v="shieling" />
		<tag k="name" v="Svangtjernseter" />
		<tag k="place" v="hamlet" />
		<tag k="ssr:stedsnr" v="6349" />
	</node>
	<node id="9630863784" lat="60.6039976" lon="9.3907355" version="1" timestamp="2022-04-02T05:57:18Z" changeset="119224206" uid="3497659" user="NKA">
		<tag k="name" v="Venedokk" />
		<tag k="place" v="locality" />
		<tag k="ssr:stedsnr" v="553676" />
	</node>
	<node id="9630863785" lat="60.4923028" lon="9.25755" version="1" timestamp="2022-04-02T05:57:18Z" changeset="119224206" uid="3497659" user="NKA">
		<tag k="name" v="Nyhytta" />
		<tag k="place" v="isolated_dwelling" />
		<tag k="ssr:stedsnr" v="916329" />
	</node>
	<node id="9630863786" lat="60.5948639" lon="9.1701" version="1" timestamp="2022-04-02T05:57:18Z" changeset="119224206" uid="3497659" user="NKA">
		<tag k="historic" v="shieling" />
		<tag k="name" v="Hølskogen" />
		<tag k="place" v="isolated_dwelling" />
		<tag k="ssr:stedsnr" v="68441" />
	</node>
	<node id="9630863787" lat="60.5434305" lon="9.2420139" version="1" timestamp="2022-04-02T05:57:18Z" changeset="119224206" uid="3497659" user="NKA">
		<tag k="name" v="Granlie" />
		<tag k="place" v="isolated_dwelling" />
		<tag k="ssr:stedsnr" v="128862" />
	</node>
	<node id="9630863788" lat="60.6309417" lon="9.0717555" version="1" timestamp="2022-04-02T05:57:18Z" changeset="119224206" uid="3497659" user="NKA">
		<tag k="name" v="Øvre Bråten" />
		<tag k="place" v="farm" />
		<tag k="ssr:stedsnr" v="814859" />
	</node>
	<node id="9630863789" lat="60.5380346" lon="8.8182028" version="1" timestamp="2022-04-02T05:57:18Z" changeset="119224206" uid="3497659" user="NKA">
		<tag k="historic" v="shieling" />
		<tag k="name" v="Venehalle" />
		<tag k="place" v="isolated_dwelling" />
		<tag k="ssr:stedsnr" v="874207" />
	</node>
	<node id="9630863790" lat="60.6283917" lon="9.1191945" version="1" timestamp="2022-04-02T05:57:18Z" changeset="119224206" uid="3497659" user="NKA">
		<tag k="name" v="Lomtjernhytta" />
		<tag k="place" v="isolated_dwelling" />
		<tag k="ssr:stedsnr" v="371465" />
	</node>
	<node id="9630863791" lat="60.4213611" lon="9.15675" version="1" timestamp="2022-04-02T05:57:18Z" changeset="119224206" uid="3497659" user="NKA">
		<tag k="historic" v="shieling" />
		<tag k="name" v="Nørdre Buhovd" />
		<tag k="place" v="hamlet" />
		<tag k="ssr:stedsnr" v="188363" />
	</node>
	<node id="9630863792" lat="60.5375305" lon="9.2044027" version="1" timestamp="2022-04-02T05:57:18Z" changeset="119224206" uid="3497659" user="NKA">
		<tag k="historic" v="shieling" />
		<tag k="name" v="Djupeskard" />
		<tag k="place" v="isolated_dwelling" />
		<tag k="ssr:stedsnr" v="250609" />
	</node>
	<node id="9630863793" lat="60.5585581" lon="9.0258891" version="1" timestamp="2022-04-02T05:57:18Z" changeset="119224206" uid="3497659" user="NKA">
		<tag k="name" v="Nedre Vissebråten" />
		<tag k="place" v="farm" />
		<tag k="ssr:stedsnr" v="796395" />
	</node>
	<node id="9630863794" lat="60.6471083" lon="9.3036139" version="1" timestamp="2022-04-02T05:57:18Z" changeset="119224206" uid="3497659" user="NKA">
		<tag k="name" v="Bjørnalie" />
		<tag k="place" v="hamlet" />
		<tag k="ssr:stedsnr" v="189605" />
	</node>
	<node id="9630863795" lat="60.5589472" lon="9.1371018" version="1" timestamp="2022-04-02T05:57:18Z" changeset="119224206" uid="3497659" user="NKA">
		<tag k="name" v="Kvarteig" />
		<tag k="place" v="farm" />
		<tag k="ssr:stedsnr" v="128567" />
	</node>
	<node id="9630863796" lat="60.5457667" lon="8.9101666" version="1" timestamp="2022-04-02T05:57:18Z" changeset="119224206" uid="3497659" user="NKA">
		<tag k="name" v="Saupeset" />
		<tag k="place" v="neighbourhood" />
		<tag k="ssr:stedsnr" v="674583" />
	</node>
	<node id="9630863797" lat="60.5871111" lon="9.0873473" version="1" timestamp="2022-04-02T05:57:18Z" changeset="119224206" uid="3497659" user="NKA">
		<tag k="name" v="Melen" />
		<tag k="place" v="hamlet" />
		<tag k="ssr:stedsnr" v="370456" />
	</node>
	<node id="9630863798" lat="60.4578694" lon="9.1928056" version="1" timestamp="2022-04-02T05:57:18Z" changeset="119224206" uid="3497659" user="NKA">
		<tag k="name" v="Setra" />
		<tag k="place" v="locality" />
		<tag k="ssr:stedsnr" v="693742" />
	</node>
	<node id="9630863799" lat="60.4734096" lon="9.1912996" version="1" timestamp="2022-04-02T05:57:18Z" changeset="119224206" uid="3497659" user="NKA">
		<tag k="name" v="Teigen" />
		<tag k="place" v="farm" />
		<tag k="ssr:stedsnr" v="632704" />
	</node>
	<node id="9630863800" lat="60.5819952" lon="9.0914131" version="1" timestamp="2022-04-02T05:57:18Z" changeset="119224206" uid="3497659" user="NKA">
		<tag k="name" v="Solvang" />
		<tag k="place" v="farm" />
		<tag k="ssr:stedsnr" v="268096" />
	</node>
	<node id="9630863801" lat="60.5686611" lon="9.3861833" version="1" timestamp="2022-04-02T05:57:18Z" changeset="119224206" uid="3497659" user="NKA">
		<tag k="historic" v="shieling" />
		<tag k="name" v="Gamlevollen" />
		<tag k="place" v="isolated_dwelling" />
		<tag k="ssr:stedsnr" v="450080" />
	</node>
	<node id="9630863802" lat="60.5185306" lon="9.1094111" version="1" timestamp="2022-04-02T05:57:18Z" changeset="119224206" uid="3497659" user="NKA">
		<tag k="name" v="Saupeset" />
		<tag k="place" v="neighbourhood" />
		<tag k="ssr:stedsnr" v="552660" />
	</node>
	<node id="9630863803" lat="60.5742427" lon="9.2200951" version="1" timestamp="2022-04-02T05:57:18Z" changeset="119224206" uid="3497659" user="NKA">
		<tag k="name" v="Slåttelien" />
		<tag k="place" v="locality" />
		<tag k="ssr:stedsnr" v="310830" />
	</node>
	<node id="9630863804" lat="60.495706" lon="9.1703681" version="1" timestamp="2022-04-02T05:57:18Z" changeset="119224206" uid="3497659" user="NKA">
		<tag k="alt_name" v="Nordhagen" />
		<tag k="name" v="Søre Nordhagen" />
		<tag k="place" v="farm" />
		<tag k="ssr:stedsnr" v="612296" />
	</node>
	<node id="9630863805" lat="60.5019194" lon="9.1373722" version="1" timestamp="2022-04-02T05:57:18Z" changeset="119224206" uid="3497659" user="NKA">
		<tag k="name" v="Kleppebråten" />
		<tag k="place" v="isolated_dwelling" />
		<tag k="ssr:stedsnr" v="128496" />
	</node>
	<node id="9630863806" lat="60.4802114" lon="9.1444229" version="1" timestamp="2022-04-02T05:57:18Z" changeset="119224206" uid="3497659" user="NKA">
		<tag k="name" v="Nordhagahaugen" />
		<tag k="place" v="farm" />
		<tag k="ssr:stedsnr" v="491278" />
	</node>
	<node id="9630863807" lat="60.5316639" lon="8.9844361" version="1" timestamp="2022-04-02T05:57:18Z" changeset="119224206" uid="3497659" user="NKA">
		<tag k="historic" v="shieling" />
		<tag k="name" v="Sollistølan" />
		<tag k="place" v="isolated_dwelling" />
		<tag k="ssr:stedsnr" v="613607" />
	</node>
	<node id="9630863808" lat="60.6258889" lon="8.8648749" version="1" timestamp="2022-04-02T05:57:18Z" changeset="119224206" uid="3497659" user="NKA">
		<tag k="historic" v="shieling" />
		<tag k="name" v="Billestølen" />
		<tag k="place" v="isolated_dwelling" />
		<tag k="ssr:stedsnr" v="7478" />
	</node>
	<node id="9630863809" lat="60.6106479" lon="9.1596962" version="1" timestamp="2022-04-02T05:57:18Z" changeset="119224206" uid="3497659" user="NKA">
		<tag k="name" v="Todalshytta" />
		<tag k="place" v="isolated_dwelling" />
		<tag k="ssr:stedsnr" v="631806" />
	</node>
	<node id="9630863810" lat="60.5249278" lon="8.964786" version="1" timestamp="2022-04-02T05:57:18Z" changeset="119224206" uid="3497659" user="NKA">
		<tag k="name" v="Trollset" />
		<tag k="place" v="neighbourhood" />
		<tag k="ssr:stedsnr" v="630952" />
	</node>
	<node id="9630863811" lat="60.6070584" lon="9.3321306" version="1" timestamp="2022-04-02T05:57:18Z" changeset="119224206" uid="3497659" user="NKA">
		<tag k="historic" v="shieling" />
		<tag k="name" v="Brenthøl" />
		<tag k="place" v="isolated_dwelling" />
		<tag k="ssr:stedsnr" v="917656" />
	</node>
	<node id="9630863812" lat="60.62025" lon="9.3553416" version="1" timestamp="2022-04-02T05:57:18Z" changeset="119224206" uid="3497659" user="NKA">
		<tag k="historic" v="shieling" />
		<tag k="name" v="Raunelie" />
		<tag k="place" v="isolated_dwelling" />
		<tag k="ssr:stedsnr" v="674690" />
	</node>
	<node id="9630863813" lat="60.5058552" lon="9.1370531" version="1" timestamp="2022-04-02T05:57:18Z" changeset="119224206" uid="3497659" user="NKA">
		<tag k="name" v="Gire" />
		<tag k="place" v="hamlet" />
		<tag k="ssr:stedsnr" v="492493" />
	</node>
	<node id="9630863814" lat="60.6568306" lon="9.2307722" version="1" timestamp="2022-04-02T05:57:18Z" changeset="119224206" uid="3497659" user="NKA">
		<tag k="historic" v="shieling" />
		<tag k="name" v="Fjellstølen" />
		<tag k="place" v="isolated_dwelling" />
		<tag k="ssr:stedsnr" v="614769" />
	</node>
	<node id="9630863815" lat="60.5693167" lon="9.021741" version="1" timestamp="2022-04-02T05:57:18Z" changeset="119224206" uid="3497659" user="NKA">
		<tag k="name" v="Nybråten" />
		<tag k="place" v="farm" />
		<tag k="ssr:stedsnr" v="1072306" />
	</node>
	<node id="9630863816" lat="60.5562111" lon="9.250389" version="1" timestamp="2022-04-02T05:57:18Z" changeset="119224206" uid="3497659" user="NKA">
		<tag k="historic" v="shieling" />
		<tag k="name" v="Haugan" />
		<tag k="place" v="isolated_dwelling" />
		<tag k="ssr:stedsnr" v="856864" />
	</node>
	<node id="9630863817" lat="60.4755847" lon="9.2439946" version="1" timestamp="2022-04-02T05:57:18Z" changeset="119224206" uid="3497659" user="NKA">
		<tag k="name" v="Langåker" />
		<tag k="place" v="farm" />
		<tag k="ssr:stedsnr" v="612373" />
	</node>
	<node id="9630863818" lat="60.5423082" lon="8.9413874" version="1" timestamp="2022-04-02T05:57:18Z" changeset="119224206" uid="3497659" user="NKA">
		<tag k="name" v="Sjugurdsrud" />
		<tag k="place" v="farm" />
		<tag k="ssr:stedsnr" v="432561" />
	</node>
	<node id="9630863819" lat="60.4844243" lon="9.1982313" version="1" timestamp="2022-04-02T05:57:18Z" changeset="119224206" uid="3497659" user="NKA">
		<tag k="name" v="Bakko" />
		<tag k="place" v="locality" />
		<tag k="ssr:stedsnr" v="692721" />
	</node>
	<node id="9630863820" lat="60.4907913" lon="9.0356562" version="1" timestamp="2022-04-02T05:57:18Z" changeset="119224206" uid="3497659" user="NKA">
		<tag k="historic" v="shieling" />
		<tag k="name" v="Smylilie" />
		<tag k="place" v="hamlet" />
		<tag k="ssr:stedsnr" v="188274" />
	</node>
	<node id="9630863821" lat="60.5366305" lon="9.1497417" version="1" timestamp="2022-04-02T05:57:18Z" changeset="119224206" uid="3497659" user="NKA">
		<tag k="name" v="Grøtodden" />
		<tag k="place" v="farm" />
		<tag k="ssr:stedsnr" v="796581" />
	</node>
	<node id="9630863822" lat="60.457075" lon="9.1683527" version="1" timestamp="2022-04-02T05:57:18Z" changeset="119224206" uid="3497659" user="NKA">
		<tag k="name" v="Bratteli" />
		<tag k="place" v="isolated_dwelling" />
		<tag k="ssr:stedsnr" v="916327" />
	</node>
	<node id="9630863823" lat="60.5571497" lon="9.0271319" version="1" timestamp="2022-04-02T05:57:18Z" changeset="119224206" uid="3497659" user="NKA">
		<tag k="name" v="Øvre Vissebråten" />
		<tag k="place" v="farm" />
		<tag k="ssr:stedsnr" v="7391" />
	</node>
	<node id="9630863824" lat="60.4876581" lon="9.1868953" version="1" timestamp="2022-04-02T05:57:18Z" changeset="119224206" uid="3497659" user="NKA">
		<tag k="name" v="Sverig" />
		<tag k="place" v="farm" />
		<tag k="ssr:stedsnr" v="5265" />
	</node>
	<node id="9630863825" lat="60.5690657" lon="9.1656516" version="1" timestamp="2022-04-02T05:57:18Z" changeset="119224206" uid="3497659" user="NKA">
		<tag k="name" v="Røyremyr" />
		<tag k="place" v="farm" />
		<tag k="ssr:stedsnr" v="268221" />
	</node>
	<node id="9630863826" lat="60.6524693" lon="9.2080179" version="1" timestamp="2022-04-02T05:57:18Z" changeset="119224206" uid="3497659" user="NKA">
		<tag k="alt_name" v="Leinastølen" />
		<tag k="historic" v="shieling" />
		<tag k="name" v="Leina" />
		<tag k="place" v="isolated_dwelling" />
		<tag k="ssr:stedsnr" v="67302" />
	</node>
	<node id="9630863827" lat="60.5261639" lon="9.1680083" version="1" timestamp="2022-04-02T05:57:18Z" changeset="119224206" uid="3497659" user="NKA">
		<tag k="name" v="Liodden" />
		<tag k="place" v="hamlet" />
		<tag k="ssr:stedsnr" v="370631" />
	</node>
	<node id="9630863828" lat="60.4915382" lon="9.175383" version="1" timestamp="2022-04-02T05:57:18Z" changeset="119224206" uid="3497659" user="NKA">
		<tag k="name" v="Nørdre Melum" />
		<tag k="place" v="farm" />
		<tag k="ssr:stedsnr" v="855293" />
	</node>
	<node id="9630863829" lat="60.6034472" lon="8.8890584" version="1" timestamp="2022-04-02T05:57:18Z" changeset="119224206" uid="3497659" user="NKA">
		<tag k="historic" v="shieling" />
		<tag k="name" v="Vardan" />
		<tag k="place" v="isolated_dwelling" />
		<tag k="ssr:stedsnr" v="553451" />
	</node>
	<node id="9630863830" lat="60.4865124" lon="9.2270124" version="1" timestamp="2022-04-02T05:57:18Z" changeset="119224206" uid="3497659" user="NKA">
		<tag k="name" v="Søre Geitsund" />
		<tag k="place" v="farm" />
		<tag k="ssr:stedsnr" v="571884" />
	</node>
	<node id="9630863831" lat="60.6086157" lon="9.0657347" version="1" timestamp="2022-04-02T05:57:18Z" changeset="119224206" uid="3497659" user="NKA">
		<tag k="name" v="Målarmoen" />
		<tag k="place" v="farm" />
		<tag k="ssr:stedsnr" v="68461" />
	</node>
	<node id="9630863832" lat="60.4664511" lon="9.2006632" version="1" timestamp="2022-04-02T05:57:18Z" changeset="119224206" uid="3497659" user="NKA">
		<tag k="name" v="Øvre-Hallen" />
		<tag k="place" v="farm" />
		<tag k="ssr:stedsnr" v="874583" />
	</node>
	<node id="9630863833" lat="60.5193528" lon="9.3110305" version="1" timestamp="2022-04-02T05:57:18Z" changeset="119224206" uid="3497659" user="NKA">
		<tag k="historic" v="shieling" />
		<tag k="name" v="Bergsbødalen" />
		<tag k="place" v="isolated_dwelling" />
		<tag k="ssr:stedsnr" v="128760" />
	</node>
	<node id="9630863834" lat="60.6064156" lon="9.195954" version="1" timestamp="2022-04-02T05:57:18Z" changeset="119224206" uid="3497659" user="NKA">
		<tag k="name" v="Stormyrhytta" />
		<tag k="place" v="isolated_dwelling" />
		<tag k="ssr:stedsnr" v="814801" />
	</node>
	<node id="9630863835" lat="60.5656194" lon="8.9251583" version="1" timestamp="2022-04-02T05:57:18Z" changeset="119224206" uid="3497659" user="NKA">
		<tag k="name" v="Nybue" />
		<tag k="place" v="isolated_dwelling" />
		<tag k="ssr:stedsnr" v="189357" />
	</node>
	<node id="9630863836" lat="60.4809278" lon="9.1841695" version="1" timestamp="2022-04-02T05:57:18Z" changeset="119224206" uid="3497659" user="NKA">
		<tag k="name" v="Asleplassen" />
		<tag k="place" v="locality" />
		<tag k="ssr:stedsnr" v="85689" />
	</node>
	<node id="9630863837" lat="60.5289888" lon="8.7296063" version="1" timestamp="2022-04-02T05:57:18Z" changeset="119224206" uid="3497659" user="NKA">
		<tag k="historic" v="shieling" />
		<tag k="name" v="Olfisken" />
		<tag k="old_name" v="Orfisklien St" />
		<tag k="place" v="isolated_dwelling" />
		<tag k="ssr:stedsnr" v="613215" />
	</node>
	<node id="9630863838" lat="60.5647745" lon="9.0359615" version="1" timestamp="2022-04-02T05:57:18Z" changeset="119224206" uid="3497659" user="NKA">
		<tag k="name" v="Søre Eidal" />
		<tag k="place" v="farm" />
		<tag k="ssr:stedsnr" v="813664" />
	</node>
	<node id="9630863839" lat="60.5657972" lon="9.0943789" version="1" timestamp="2022-04-02T05:57:18Z" changeset="119224206" uid="3497659" user="NKA">
		<tag k="name" v="Arnegård" />
		<tag k="place" v="farm" />
		<tag k="ssr:stedsnr" v="371365" />
	</node>
	<node id="9630863840" lat="60.58745" lon="9.0968694" version="1" timestamp="2022-04-02T05:57:18Z" changeset="119224206" uid="3497659" user="NKA">
		<tag k="name" v="Rud" />
		<tag k="place" v="quarter" />
		<tag k="ssr:stedsnr" v="223415" />
	</node>
	<node id="9630863841" lat="60.6655305" lon="9.3003278" version="1" timestamp="2022-04-02T05:57:18Z" changeset="119224206" uid="3497659" user="NKA">
		<tag k="name" v="Buvasstølan" />
		<tag k="place" v="hamlet" />
		<tag k="ssr:stedsnr" v="917721" />
	</node>
	<node id="9630863842" lat="60.5461934" lon="9.1439565" version="1" timestamp="2022-04-02T05:57:18Z" changeset="119224206" uid="3497659" user="NKA">
		<tag k="name" v="Skåterudmoen" />
		<tag k="place" v="farm" />
		<tag k="ssr:stedsnr" v="935180" />
	</node>
	<node id="9630863843" lat="60.4854897" lon="9.1983228" version="1" timestamp="2022-04-02T05:57:18Z" changeset="119224206" uid="3497659" user="NKA">
		<tag k="name" v="Fjordblink" />
		<tag k="place" v="isolated_dwelling" />
		<tag k="ssr:stedsnr" v="146128" />
	</node>
	<node id="9630863844" lat="60.5306361" lon="9.1870555" version="1" timestamp="2022-04-02T05:57:18Z" changeset="119224206" uid="3497659" user="NKA">
		<tag k="name" v="Djupedal" />
		<tag k="place" v="farm" />
		<tag k="ssr:stedsnr" v="431638" />
	</node>
	<node id="9630863845" lat="60.5394389" lon="8.8784527" version="1" timestamp="2022-04-02T05:57:18Z" changeset="119224206" uid="3497659" user="NKA">
		<tag k="name" v="Volelie" />
		<tag k="place" v="hamlet" />
		<tag k="ssr:stedsnr" v="796565" />
	</node>
	<node id="9630863846" lat="60.5289801" lon="8.910335" version="1" timestamp="2022-04-02T05:57:18Z" changeset="119224206" uid="3497659" user="NKA">
		<tag k="name" v="Timelidokken" />
		<tag k="place" v="farm" />
		<tag k="ssr:stedsnr" v="735602" />
	</node>
	<node id="9630863847" lat="60.5041278" lon="8.950025" version="1" timestamp="2022-04-02T05:57:18Z" changeset="119224206" uid="3497659" user="NKA">
		<tag k="name" v="Båtstjernlie" />
		<tag k="place" v="neighbourhood" />
		<tag k="ssr:stedsnr" v="223410" />
	</node>
	<node id="9630863848" lat="60.5612805" lon="9.1343417" version="1" timestamp="2022-04-02T05:57:18Z" changeset="119224206" uid="3497659" user="NKA">
		<tag k="name" v="Monseplassen" />
		<tag k="place" v="farm" />
		<tag k="ssr:stedsnr" v="432351" />
	</node>
	<node id="9630863849" lat="60.4450111" lon="9.1813216" version="1" timestamp="2022-04-02T05:57:18Z" changeset="119224206" uid="3497659" user="NKA">
		<tag k="name" v="Bukkemyr" />
		<tag k="place" v="farm" />
		<tag k="ssr:stedsnr" v="632502" />
	</node>
	<node id="9630863850" lat="60.5833935" lon="9.4102178" version="1" timestamp="2022-04-02T05:57:18Z" changeset="119224206" uid="3497659" user="NKA">
		<tag k="name" v="Trytetjernvelta" />
		<tag k="place" v="locality" />
		<tag k="ssr:stedsnr" v="735816" />
	</node>
	<node id="9630863851" lat="60.6054833" lon="8.9844195" version="1" timestamp="2022-04-02T05:57:18Z" changeset="119224206" uid="3497659" user="NKA">
		<tag k="historic" v="shieling" />
		<tag k="name" v="Melestølan" />
		<tag k="place" v="isolated_dwelling" />
		<tag k="ssr:stedsnr" v="128421" />
	</node>
	<node id="9630863852" lat="60.5126305" lon="8.9458778" version="1" timestamp="2022-04-02T05:57:18Z" changeset="119224206" uid="3497659" user="NKA">
		<tag k="name" v="Storhalle" />
		<tag k="place" v="neighbourhood" />
		<tag k="ssr:stedsnr" v="648393" />
	</node>
	<node id="9630863853" lat="60.4640223" lon="9.1756722" version="1" timestamp="2022-04-02T05:57:18Z" changeset="119224206" uid="3497659" user="NKA">
		<tag k="historic" v="shieling" />
		<tag k="name" v="Skriustølen" />
		<tag k="place" v="isolated_dwelling" />
		<tag k="ssr:stedsnr" v="207703" />
	</node>
	<node id="9630863854" lat="60.5241286" lon="9.180125" version="1" timestamp="2022-04-02T05:57:18Z" changeset="119224206" uid="3497659" user="NKA">
		<tag k="name" v="Gullingsrud" />
		<tag k="place" v="farm" />
		<tag k="ssr:stedsnr" v="552673" />
	</node>
	<node id="9630863855" lat="60.561115" lon="9.1194143" version="1" timestamp="2022-04-02T05:57:18Z" changeset="119224206" uid="3497659" user="NKA">
		<tag k="name" v="Haga" />
		<tag k="place" v="farm" />
		<tag k="ssr:stedsnr" v="268063" />
	</node>
	<node id="9630863856" lat="60.5222361" lon="9.1433417" version="1" timestamp="2022-04-02T05:57:18Z" changeset="119224206" uid="3497659" user="NKA">
		<tag k="name" v="Grøteplass" />
		<tag k="place" v="farm" />
		<tag k="ssr:stedsnr" v="389175" />
	</node>
	<node id="9630863857" lat="60.5666006" lon="9.0925322" version="1" timestamp="2022-04-02T05:57:18Z" changeset="119224206" uid="3497659" user="NKA">
		<tag k="name" v="Nes prestegård" />
		<tag k="place" v="farm" />
		<tag k="ssr:stedsnr" v="1072310" />
	</node>
	<node id="9630863858" lat="60.442486" lon="9.1579717" version="1" timestamp="2022-04-02T05:57:18Z" changeset="119224206" uid="3497659" user="NKA">
		<tag k="historic" v="shieling" />
		<tag k="name" v="Hovdesetre" />
		<tag k="place" v="isolated_dwelling" />
		<tag k="ssr:stedsnr" v="370374" />
	</node>
	<node id="9630863859" lat="60.5501945" lon="8.9473806" version="1" timestamp="2022-04-02T05:57:18Z" changeset="119224206" uid="3497659" user="NKA">
		<tag k="name" v="Isakrud" />
		<tag k="place" v="farm" />
		<tag k="ssr:stedsnr" v="553396" />
	</node>
	<node id="9630863860" lat="60.5703694" lon="9.1775972" version="1" timestamp="2022-04-02T05:57:18Z" changeset="119224206" uid="3497659" user="NKA">
		<tag k="name" v="Toengan" />
		<tag k="place" v="farm" />
		<tag k="ssr:stedsnr" v="917379" />
	</node>
	<node id="9630863861" lat="60.5608528" lon="9.287064" version="1" timestamp="2022-04-02T05:57:18Z" changeset="119224206" uid="3497659" user="NKA">
		<tag k="name" v="Dypilen" />
		<tag k="place" v="neighbourhood" />
		<tag k="ssr:stedsnr" v="527412" />
	</node>
	<node id="9630863862" lat="60.5694931" lon="9.0392622" version="1" timestamp="2022-04-02T05:57:18Z" changeset="119224206" uid="3497659" user="NKA">
		<tag k="name" v="Hermundsgarden" />
		<tag k="place" v="farm" />
		<tag k="ssr:stedsnr" v="631643" />
	</node>
	<node id="9630863863" lat="60.5629889" lon="9.1303361" version="1" timestamp="2022-04-02T05:57:18Z" changeset="119224206" uid="3497659" user="NKA">
		<tag k="name" v="Engen" />
		<tag k="place" v="farm" />
		<tag k="ssr:stedsnr" v="553372" />
	</node>
	<node id="9630863864" lat="60.6741972" lon="9.2448611" version="1" timestamp="2022-04-02T05:57:18Z" changeset="119224206" uid="3497659" user="NKA">
		<tag k="historic" v="shieling" />
		<tag k="name" v="Nystølen" />
		<tag k="place" v="isolated_dwelling" />
		<tag k="ssr:stedsnr" v="128671" />
	</node>
	<node id="9630863865" lat="60.4940585" lon="9.0500415" version="1" timestamp="2022-04-02T05:57:18Z" changeset="119224206" uid="3497659" user="NKA">
		<tag k="historic" v="shieling" />
		<tag k="name" v="Lisleset" />
		<tag k="place" v="isolated_dwelling" />
		<tag k="ssr:stedsnr" v="127278" />
	</node>
	<node id="9630863866" lat="60.5477" lon="9.1959945" version="1" timestamp="2022-04-02T05:57:18Z" changeset="119224206" uid="3497659" user="NKA">
		<tag k="name" v="Ankerbråten" />
		<tag k="place" v="isolated_dwelling" />
		<tag k="ssr:stedsnr" v="7551" />
	</node>
	<node id="9630863867" lat="60.5181444" lon="9.1710667" version="1" timestamp="2022-04-02T05:57:18Z" changeset="119224206" uid="3497659" user="NKA">
		<tag k="name" v="Skomakarhaugen" />
		<tag k="place" v="farm" />
		<tag k="ssr:stedsnr" v="856635" />
	</node>
	<node id="9630863868" lat="60.488375" lon="9.2222249" version="1" timestamp="2022-04-02T05:57:18Z" changeset="119224206" uid="3497659" user="NKA">
		<tag k="name" v="Geitsund" />
		<tag k="place" v="hamlet" />
		<tag k="ssr:stedsnr" v="855303" />
	</node>
	<node id="9630863869" lat="60.6240711" lon="9.0563471" version="1" timestamp="2022-04-02T05:57:18Z" changeset="119224206" uid="3497659" user="NKA">
		<tag k="name" v="Søre Dokken" />
		<tag k="place" v="farm" />
		<tag k="ssr:stedsnr" v="432471" />
	</node>
	<node id="9630863870" lat="60.4747111" lon="9.1778001" version="1" timestamp="2022-04-02T05:57:18Z" changeset="119224206" uid="3497659" user="NKA">
		<tag k="name" v="Guteplass" />
		<tag k="place" v="farm" />
		<tag k="ssr:stedsnr" v="734332" />
	</node>
	<node id="9630863871" lat="60.4861679" lon="9.1410244" version="1" timestamp="2022-04-02T05:57:18Z" changeset="119224206" uid="3497659" user="NKA">
		<tag k="name" v="Bakvendt" />
		<tag k="place" v="locality" />
		<tag k="ssr:stedsnr" v="916281" />
	</node>
	<node id="9630863872" lat="60.4669361" lon="9.2443139" version="1" timestamp="2022-04-02T05:57:18Z" changeset="119224206" uid="3497659" user="NKA">
		<tag k="name" v="Søre Sevre" />
		<tag k="place" v="farm" />
		<tag k="ssr:stedsnr" v="673379" />
	</node>
	<node id="9630863873" lat="60.6358555" lon="9.0472296" version="1" timestamp="2022-04-02T05:57:18Z" changeset="119224206" uid="3497659" user="NKA">
		<tag k="name" v="Hanserud" />
		<tag k="place" v="farm" />
		<tag k="ssr:stedsnr" v="249482" />
	</node>
	<node id="9630863874" lat="60.5805558" lon="9.0924151" version="1" timestamp="2022-04-02T05:57:18Z" changeset="119224206" uid="3497659" user="NKA">
		<tag k="name" v="Endreplass" />
		<tag k="place" v="farm" />
		<tag k="ssr:stedsnr" v="814101" />
	</node>
	<node id="9630863875" lat="60.5285111" lon="9.3105917" version="1" timestamp="2022-04-02T05:57:18Z" changeset="119224206" uid="3497659" user="NKA">
		<tag k="historic" v="shieling" />
		<tag k="name" v="Fjølaset" />
		<tag k="place" v="isolated_dwelling" />
		<tag k="ssr:stedsnr" v="917749" />
	</node>
	<node id="9630863876" lat="60.5734162" lon="9.2285371" version="1" timestamp="2022-04-02T05:57:18Z" changeset="119224206" uid="3497659" user="NKA">
		<tag k="historic" v="shieling" />
		<tag k="name" v="Tabor" />
		<tag k="place" v="isolated_dwelling" />
		<tag k="ssr:stedsnr" v="146417" />
	</node>
	<node id="9630863877" lat="60.5837139" lon="9.099564" version="1" timestamp="2022-04-02T05:57:18Z" changeset="119224206" uid="3497659" user="NKA">
		<tag k="name" v="Danmark" />
		<tag k="place" v="farm" />
		<tag k="ssr:stedsnr" v="86079" />
	</node>
	<node id="9630863878" lat="60.5480071" lon="9.1978131" version="1" timestamp="2022-04-02T05:57:18Z" changeset="119224206" uid="3497659" user="NKA">
		<tag k="name" v="Skriu" />
		<tag k="place" v="farm" />
		<tag k="ssr:stedsnr" v="917542" />
	</node>
	<node id="9630863879" lat="60.5127695" lon="9.1918862" version="1" timestamp="2022-04-02T05:57:18Z" changeset="119224206" uid="3497659" user="NKA">
		<tag k="name" v="Søre Li" />
		<tag k="place" v="hamlet" />
		<tag k="ssr:stedsnr" v="856575" />
	</node>
	<node id="9630863880" lat="60.5296389" lon="8.8896305" version="1" timestamp="2022-04-02T05:57:18Z" changeset="119224206" uid="3497659" user="NKA">
		<tag k="name" v="Storeli" />
		<tag k="place" v="farm" />
		<tag k="ssr:stedsnr" v="432585" />
	</node>
	<node id="9630863881" lat="60.4893081" lon="9.0516803" version="1" timestamp="2022-04-02T05:57:18Z" changeset="119224206" uid="3497659" user="NKA">
		<tag k="historic" v="shieling" />
		<tag k="name" v="Fetjan" />
		<tag k="place" v="hamlet" />
		<tag k="ssr:stedsnr" v="612265" />
	</node>
	<node id="9630863882" lat="60.6321472" lon="9.0615223" version="1" timestamp="2022-04-02T05:57:18Z" changeset="119224206" uid="3497659" user="NKA">
		<tag k="name" v="Stryken" />
		<tag k="place" v="farm" />
		<tag k="ssr:stedsnr" v="371446" />
	</node>
	<node id="9630863883" lat="60.5360111" lon="9.1897306" version="1" timestamp="2022-04-02T05:57:18Z" changeset="119224206" uid="3497659" user="NKA">
		<tag k="name" v="Kultom" />
		<tag k="place" v="isolated_dwelling" />
		<tag k="ssr:stedsnr" v="814232" />
	</node>
	<node id="9630863884" lat="60.6472639" lon="9.0428639" version="1" timestamp="2022-04-02T05:57:18Z" changeset="119224206" uid="3497659" user="NKA">
		<tag k="name" v="Maribråten" />
		<tag k="place" v="farm" />
		<tag k="ssr:stedsnr" v="674474" />
	</node>
	<node id="9630863885" lat="60.499075" lon="9.090375" version="1" timestamp="2022-04-02T05:57:18Z" changeset="119224206" uid="3497659" user="NKA">
		<tag k="historic" v="shieling" />
		<tag k="name" v="Liaberg" />
		<tag k="place" v="isolated_dwelling" />
		<tag k="ssr:stedsnr" v="188276" />
	</node>
	<node id="9630863886" lat="60.5167611" lon="8.7389278" version="1" timestamp="2022-04-02T05:57:18Z" changeset="119224206" uid="3497659" user="NKA">
		<tag k="historic" v="shieling" />
		<tag k="name" v="Såten" />
		<tag k="place" v="isolated_dwelling" />
		<tag k="ssr:stedsnr" v="68206" />
	</node>
	<node id="9630863887" lat="60.5490278" lon="9.1624028" version="1" timestamp="2022-04-02T05:57:18Z" changeset="119224206" uid="3497659" user="NKA">
		<tag k="name" v="Åsen" />
		<tag k="place" v="farm" />
		<tag k="ssr:stedsnr" v="128578" />
	</node>
	<node id="9630863888" lat="60.47785" lon="9.2718499" version="1" timestamp="2022-04-02T05:57:18Z" changeset="119224206" uid="3497659" user="NKA">
		<tag k="name" v="Kvelven" />
		<tag k="place" v="isolated_dwelling" />
		<tag k="ssr:stedsnr" v="794327" />
	</node>
	<node id="9630863889" lat="60.5624682" lon="9.1127707" version="1" timestamp="2022-04-02T05:57:18Z" changeset="119224206" uid="3497659" user="NKA">
		<tag k="name" v="Søre Devegge" />
		<tag k="place" v="farm" />
		<tag k="ssr:stedsnr" v="910583" />
	</node>
	<node id="9630863890" lat="60.6278271" lon="9.1593486" version="1" timestamp="2022-04-02T05:57:18Z" changeset="119224206" uid="3497659" user="NKA">
		<tag k="name" v="Bjørhushytta" />
		<tag k="place" v="locality" />
		<tag k="ssr:stedsnr" v="25796" />
	</node>
	<node id="9630863891" lat="60.4352881" lon="9.1067165" version="1" timestamp="2022-04-02T05:57:18Z" changeset="119224206" uid="3497659" user="NKA">
		<tag k="name" v="Pederbu" />
		<tag k="place" v="isolated_dwelling" />
		<tag k="ssr:stedsnr" v="172456" />
	</node>
	<node id="9630863892" lat="60.5743636" lon="9.1020979" version="1" timestamp="2022-04-02T05:57:18Z" changeset="119224206" uid="3497659" user="NKA">
		<tag k="name" v="Deveggemyre" />
		<tag k="old_name" v="Myre;Myri" />
		<tag k="place" v="farm" />
		<tag k="ssr:stedsnr" v="189406" />
	</node>
	<node id="9630863893" lat="60.563907" lon="9.0251142" version="1" timestamp="2022-04-02T05:57:18Z" changeset="119224206" uid="3497659" user="NKA">
		<tag k="name" v="Haugen" />
		<tag k="place" v="farm" />
		<tag k="ssr:stedsnr" v="753934" />
	</node>
	<node id="9630863894" lat="60.5100092" lon="9.1768351" version="1" timestamp="2022-04-02T05:57:18Z" changeset="119224206" uid="3497659" user="NKA">
		<tag k="name" v="Velta" />
		<tag k="place" v="farm" />
		<tag k="ssr:stedsnr" v="128504" />
	</node>
	<node id="9630863895" lat="60.5222444" lon="9.1414667" version="1" timestamp="2022-04-02T05:57:18Z" changeset="119224206" uid="3497659" user="NKA">
		<tag k="name" v="Ankerbråten" />
		<tag k="place" v="isolated_dwelling" />
		<tag k="ssr:stedsnr" v="128587" />
	</node>
	<node id="9630863896" lat="60.6098778" lon="9.2346027" version="1" timestamp="2022-04-02T05:57:18Z" changeset="119224206" uid="3497659" user="NKA">
		<tag k="historic" v="shieling" />
		<tag k="name" v="Krossløken" />
		<tag k="place" v="isolated_dwelling" />
		<tag k="ssr:stedsnr" v="432654" />
	</node>
	<node id="9630863897" lat="60.5260889" lon="8.9135529" version="1" timestamp="2022-04-02T05:57:18Z" changeset="119224206" uid="3497659" user="NKA">
		<tag k="name" v="Åmellom" />
		<tag k="place" v="farm" />
		<tag k="ssr:stedsnr" v="675631" />
	</node>
	<node id="261080220" lat="60.571622" lon="9.1058394" version="2" timestamp="2018-08-22T08:02:21Z" changeset="61879377" uid="7543313" user="ENTUR Fredrik Edler" />
	<node id="5848102659" lat="60.5715059" lon="9.1056576" version="1" timestamp="2018-08-22T08:00:44Z" changeset="61879377" uid="7543313" user="ENTUR Fredrik Edler" />
	<node id="5848105672" lat="60.5715228" lon="9.1056947" version="1" timestamp="2018-08-22T08:01:07Z" changeset="61879377" uid="7543313" user="ENTUR Fredrik Edler" />
	<node id="5848108268" lat="60.5715675" lon="9.1057689" version="1" timestamp="2018-08-22T08:01:34Z" changeset="61879377" uid="7543313" user="ENTUR Fredrik Edler" />
	<node id="261080216" lat="60.572715" lon="9.1083437" version="2" timestamp="2018-08-22T08:02:21Z" changeset="61879377" uid="7543313" user="ENTUR Fredrik Edler" />
	<node id="261080217" lat="60.5723031" lon="9.1075591" version="2" timestamp="2018-08-22T08:02:21Z" changeset="61879377" uid="7543313" user="ENTUR Fredrik Edler" />
	<node id="261080219" lat="60.5719266" lon="9.1064789" version="2" timestamp="2018-08-22T08:02:21Z" changeset="61879377" uid="7543313" user="ENTUR Fredrik Edler" />
	<node id="5848100961" lat="60.5727871" lon="9.108508" version="1" timestamp="2018-08-22T08:01:29Z" changeset="61879377" uid="7543313" user="ENTUR Fredrik Edler" />
	<node id="5848103180" lat="60.5729656" lon="9.1090023" version="1" timestamp="2018-08-22T08:00:49Z" changeset="61879377" uid="7543313" user="ENTUR Fredrik Edler" />
	<node id="5848103730" lat="60.5726257" lon="9.1081972" version="1" timestamp="2018-08-22T08:00:53Z" changeset="61879377" uid="7543313" user="ENTUR Fredrik Edler" />
	<node id="5848104337" lat="60.572393" lon="9.1077604" version="1" timestamp="2018-08-22T08:00:57Z" changeset="61879377" uid="7543313" user="ENTUR Fredrik Edler" />
	<node id="5848104363" lat="60.5730373" lon="9.1092197" version="1" timestamp="2018-08-22T08:00:58Z" changeset="61879377" uid="7543313" user="ENTUR Fredrik Edler" />
	<node id="5848104785" lat="60.5719977" lon="9.1067001" version="1" timestamp="2018-08-22T08:01:01Z" changeset="61879377" uid="7543313" user="ENTUR Fredrik Edler" />
	<node id="5848105602" lat="60.5720516" lon="9.1068824" version="1" timestamp="2018-08-22T08:01:06Z" changeset="61879377" uid="7543313" user="ENTUR Fredrik Edler" />
	<node id="5848105625" lat="60.5727301" lon="9.1083781" version="1" timestamp="2018-08-22T08:01:06Z" changeset="61879377" uid="7543313" user="ENTUR Fredrik Edler" />
	<node id="5848106153" lat="60.5716758" lon="9.1058955" version="1" timestamp="2018-08-22T08:01:10Z" changeset="61879377" uid="7543313" user="ENTUR Fredrik Edler" />
	<node id="5848106179" lat="60.572482" lon="9.1079417" version="1" timestamp="2018-08-22T08:01:10Z" changeset="61879377" uid="7543313" user="ENTUR Fredrik Edler" />
	<node id="5848106885" lat="60.5721411" lon="9.1071551" version="1" timestamp="2018-08-22T08:01:15Z" changeset="61879377" uid="7543313" user="ENTUR Fredrik Edler" />
	<node id="5848108037" lat="60.5731011" lon="9.1094404" version="1" timestamp="2018-08-22T08:01:32Z" changeset="61879377" uid="7543313" user="ENTUR Fredrik Edler" />
	<node id="5848108190" lat="60.5718096" lon="9.1061326" version="1" timestamp="2018-08-22T08:01:33Z" changeset="61879377" uid="7543313" user="ENTUR Fredrik Edler" />
	<node id="5848108217" lat="60.5725354" lon="9.1080691" version="1" timestamp="2018-08-22T08:01:34Z" changeset="61879377" uid="7543313" user="ENTUR Fredrik Edler" />
	<node id="261080215" lat="60.573154" lon="9.1096594" version="3" timestamp="2018-08-22T08:02:21Z" changeset="61879377" uid="7543313" user="ENTUR Fredrik Edler" />
	<node id="5848103101" lat="60.5731447" lon="9.1095495" version="1" timestamp="2018-08-22T08:00:48Z" changeset="61879377" uid="7543313" user="ENTUR Fredrik Edler" />
	<node id="5848104637" lat="60.5731534" lon="9.1096046" version="1" timestamp="2018-08-22T08:01:00Z" changeset="61879377" uid="7543313" user="ENTUR Fredrik Edler" />
	<node id="5848106632" lat="60.5731447" lon="9.1097142" version="1" timestamp="2018-08-22T08:01:14Z" changeset="61879377" uid="7543313" user="ENTUR Fredrik Edler" />
	<node id="7280779716" lat="60.5277011" lon="9.3101221" version="1" timestamp="2020-03-09T20:41:05Z" changeset="81981944" uid="7589857" user="Marius Geitle_import" />
	<node id="7280779719" lat="60.5275482" lon="9.3104314" version="1" timestamp="2020-03-09T20:41:05Z" changeset="81981944" uid="7589857" user="Marius Geitle_import" />
	<node id="7280780121" lat="60.5277821" lon="9.3100752" version="1" timestamp="2020-03-09T20:41:05Z" changeset="81981944" uid="7589857" user="Marius Geitle_import" />
	<node id="7280780122" lat="60.5276933" lon="9.3095677" version="1" timestamp="2020-03-09T20:41:05Z" changeset="81981944" uid="7589857" user="Marius Geitle_import" />
	<node id="7280780570" lat="60.5277341" lon="9.3122881" version="1" timestamp="2020-03-09T20:41:05Z" changeset="81981944" uid="7589857" user="Marius Geitle_import" />
	<node id="7280780619" lat="60.5278081" lon="9.3118497" version="1" timestamp="2020-03-09T20:41:05Z" changeset="81981944" uid="7589857" user="Marius Geitle_import" />
	<node id="7280780620" lat="60.527895" lon="9.3118503" version="1" timestamp="2020-03-09T20:41:05Z" changeset="81981944" uid="7589857" user="Marius Geitle_import" />
	<node id="7280780650" lat="60.526523" lon="9.311737" version="1" timestamp="2020-03-09T20:41:05Z" changeset="81981944" uid="7589857" user="Marius Geitle_import" />
	<node id="7280780651" lat="60.5264878" lon="9.3118519" version="1" timestamp="2020-03-09T20:41:05Z" changeset="81981944" uid="7589857" user="Marius Geitle_import" />
	<node id="7280780662" lat="60.526512" lon="9.3121826" version="1" timestamp="2020-03-09T20:41:05Z" changeset="81981944" uid="7589857" user="Marius Geitle_import" />
	<node id="7280780769" lat="60.5271782" lon="9.3096783" version="1" timestamp="2020-03-09T20:41:05Z" changeset="81981944" uid="7589857" user="Marius Geitle_import" />
	<node id="7280780770" lat="60.5272953" lon="9.3095946" version="1" timestamp="2020-03-09T20:41:05Z" changeset="81981944" uid="7589857" user="Marius Geitle_import" />
	<node id="7280780771" lat="60.5273568" lon="9.3095906" version="1" timestamp="2020-03-09T20:41:05Z" changeset="81981944" uid="7589857" user="Marius Geitle_import" />
	<node id="7280780772" lat="60.5274102" lon="9.3095497" version="1" timestamp="2020-03-09T20:41:05Z" changeset="81981944" uid="7589857" user="Marius Geitle_import" />
	<node id="7280780773" lat="60.5270705" lon="9.3097584" version="1" timestamp="2020-03-09T20:41:05Z" changeset="81981944" uid="7589857" user="Marius Geitle_import" />
	<node id="7280780774" lat="60.5271338" lon="9.3097518" version="1" timestamp="2020-03-09T20:41:05Z" changeset="81981944" uid="7589857" user="Marius Geitle_import" />
	<node id="7280780775" lat="60.5271592" lon="9.3097252" version="1" timestamp="2020-03-09T20:41:05Z" changeset="81981944" uid="7589857" user="Marius Geitle_import" />
	<node id="7280780776" lat="60.5269166" lon="9.3099625" version="1" timestamp="2020-03-09T20:41:05Z" changeset="81981944" uid="7589857" user="Marius Geitle_import" />
	<node id="7280780777" lat="60.5269361" lon="9.3099201" version="1" timestamp="2020-03-09T20:41:05Z" changeset="81981944" uid="7589857" user="Marius Geitle_import" />
	<node id="7280780992" lat="60.5281286" lon="9.3115796" version="1" timestamp="2020-03-09T20:41:05Z" changeset="81981944" uid="7589857" user="Marius Geitle_import" />
	<node id="7280781001" lat="60.5282185" lon="9.3119295" version="1" timestamp="2020-03-09T20:41:05Z" changeset="81981944" uid="7589857" user="Marius Geitle_import" />
	<node id="7280781002" lat="60.5281809" lon="9.3118367" version="1" timestamp="2020-03-09T20:41:05Z" changeset="81981944" uid="7589857" user="Marius Geitle_import" />
	<node id="7280781461" lat="60.5275542" lon="9.3103779" version="1" timestamp="2020-03-09T20:41:05Z" changeset="81981944" uid="7589857" user="Marius Geitle_import" />
	<node id="7280781462" lat="60.5276612" lon="9.3102864" version="1" timestamp="2020-03-09T20:41:05Z" changeset="81981944" uid="7589857" user="Marius Geitle_import" />
	<node id="7280781463" lat="60.5275747" lon="9.310334" version="1" timestamp="2020-03-09T20:41:05Z" changeset="81981944" uid="7589857" user="Marius Geitle_import" />
	<node id="7280781881" lat="60.5281424" lon="9.3116338" version="1" timestamp="2020-03-09T20:41:05Z" changeset="81981944" uid="7589857" user="Marius Geitle_import" />
	<node id="7280782688" lat="60.5269967" lon="9.3118758" version="1" timestamp="2020-03-09T20:41:05Z" changeset="81981944" uid="7589857" user="Marius Geitle_import" />
	<node id="7280782689" lat="60.5270766" lon="9.3116621" version="1" timestamp="2020-03-09T20:41:05Z" changeset="81981944" uid="7589857" user="Marius Geitle_import" />
	<node id="7280782690" lat="60.5269944" lon="9.3120926" version="1" timestamp="2020-03-09T20:41:05Z" changeset="81981944" uid="7589857" user="Marius Geitle_import" />
	<node id="7280782691" lat="60.5269617" lon="9.3119933" version="1" timestamp="2020-03-09T20:41:05Z" changeset="81981944" uid="7589857" user="Marius Geitle_import" />
	<node id="7280783071" lat="60.5265163" lon="9.3115316" version="1" timestamp="2020-03-09T20:41:05Z" changeset="81981944" uid="7589857" user="Marius Geitle_import" />
	<node id="7280783087" lat="60.5264804" lon="9.3121414" version="1" timestamp="2020-03-09T20:41:05Z" changeset="81981944" uid="7589857" user="Marius Geitle_import" />
	<node id="7280783184" lat="60.5271921" lon="9.3116932" version="1" timestamp="2020-03-09T20:41:05Z" changeset="81981944" uid="7589857" user="Marius Geitle_import" />
	<node id="7280783185" lat="60.5268632" lon="9.3102175" version="1" timestamp="2020-03-09T20:41:05Z" changeset="81981944" uid="7589857" user="Marius Geitle_import" />
	<node id="7280783260" lat="60.5264713" lon="9.3119322" version="1" timestamp="2020-03-09T20:41:05Z" changeset="81981944" uid="7589857" user="Marius Geitle_import" />
	<node id="7280783261" lat="60.526407" lon="9.3112164" version="1" timestamp="2020-03-09T20:41:05Z" changeset="81981944" uid="7589857" user="Marius Geitle_import" />
	<node id="7280783262" lat="60.526372" lon="9.3111248" version="1" timestamp="2020-03-09T20:41:05Z" changeset="81981944" uid="7589857" user="Marius Geitle_import" />
	<node id="7280783263" lat="60.5264797" lon="9.3114162" version="1" timestamp="2020-03-09T20:41:05Z" changeset="81981944" uid="7589857" user="Marius Geitle_import" />
	<node id="7280783264" lat="60.5264582" lon="9.3112828" version="1" timestamp="2020-03-09T20:41:05Z" changeset="81981944" uid="7589857" user="Marius Geitle_import" />
	<node id="7280783349" lat="60.5267163" lon="9.3102602" version="1" timestamp="2020-03-09T20:41:05Z" changeset="81981944" uid="7589857" user="Marius Geitle_import" />
	<node id="7280783453" lat="60.5279238" lon="9.311835" version="1" timestamp="2020-03-09T20:41:05Z" changeset="81981944" uid="7589857" user="Marius Geitle_import" />
	<node id="7280783454" lat="60.5279523" lon="9.3117268" version="1" timestamp="2020-03-09T20:41:05Z" changeset="81981944" uid="7589857" user="Marius Geitle_import" />
	<node id="7280783455" lat="60.5280156" lon="9.3116778" version="1" timestamp="2020-03-09T20:41:05Z" changeset="81981944" uid="7589857" user="Marius Geitle_import" />
	<node id="7280783456" lat="60.5280666" lon="9.311592" version="1" timestamp="2020-03-09T20:41:05Z" changeset="81981944" uid="7589857" user="Marius Geitle_import" />
	<node id="7280783694" lat="60.5263279" lon="9.3126285" version="1" timestamp="2020-03-09T20:41:05Z" changeset="81981944" uid="7589857" user="Marius Geitle_import" />
	<node id="7280784019" lat="60.527741" lon="9.3095816" version="1" timestamp="2020-03-09T20:41:05Z" changeset="81981944" uid="7589857" user="Marius Geitle_import" />
	<node id="7280784935" lat="60.5276867" lon="9.3095498" version="1" timestamp="2020-03-09T20:41:05Z" changeset="81981944" uid="7589857" user="Marius Geitle_import" />
	<node id="7280784936" lat="60.5275056" lon="9.3095618" version="1" timestamp="2020-03-09T20:41:05Z" changeset="81981944" uid="7589857" user="Marius Geitle_import" />
	<node id="7280785147" lat="60.5277191" lon="9.3100813" version="1" timestamp="2020-03-09T20:41:05Z" changeset="81981944" uid="7589857" user="Marius Geitle_import" />
	<node id="7280785562" lat="60.5268382" lon="9.3102437" version="1" timestamp="2020-03-09T20:41:05Z" changeset="81981944" uid="7589857" user="Marius Geitle_import" />
	<node id="7280785563" lat="60.5265286" lon="9.3105732" version="1" timestamp="2020-03-09T20:41:05Z" changeset="81981944" uid="7589857" user="Marius Geitle_import" />
	<node id="7280785564" lat="60.5264787" lon="9.3107214" version="1" timestamp="2020-03-09T20:41:05Z" changeset="81981944" uid="7589857" user="Marius Geitle_import" />
	<node id="7280785908" lat="60.5277542" lon="9.3124126" version="1" timestamp="2020-03-09T20:41:05Z" changeset="81981944" uid="7589857" user="Marius Geitle_import" />
	<node id="7280785974" lat="60.5278526" lon="9.3097618" version="1" timestamp="2020-03-09T20:41:05Z" changeset="81981944" uid="7589857" user="Marius Geitle_import" />
	<node id="7280785976" lat="60.5278556" lon="9.3098779" version="1" timestamp="2020-03-09T20:41:05Z" changeset="81981944" uid="7589857" user="Marius Geitle_import" />
	<node id="7280785977" lat="60.5278628" lon="9.3098213" version="1" timestamp="2020-03-09T20:41:05Z" changeset="81981944" uid="7589857" user="Marius Geitle_import" />
	<node id="7280786053" lat="60.5277343" lon="9.3119758" version="1" timestamp="2020-03-09T20:41:05Z" changeset="81981944" uid="7589857" user="Marius Geitle_import" />
	<node id="7280786062" lat="60.5277497" lon="9.3119153" version="1" timestamp="2020-03-09T20:41:05Z" changeset="81981944" uid="7589857" user="Marius Geitle_import" />
	<node id="7280786782" lat="60.5275509" lon="9.3105553" version="1" timestamp="2020-03-09T20:41:05Z" changeset="81981944" uid="7589857" user="Marius Geitle_import" />
	<node id="7280786783" lat="60.5275796" lon="9.3107551" version="1" timestamp="2020-03-09T20:41:05Z" changeset="81981944" uid="7589857" user="Marius Geitle_import" />
	<node id="7280786784" lat="60.5275809" lon="9.3109643" version="1" timestamp="2020-03-09T20:41:05Z" changeset="81981944" uid="7589857" user="Marius Geitle_import" />
	<node id="7280786785" lat="60.5275668" lon="9.3110885" version="1" timestamp="2020-03-09T20:41:05Z" changeset="81981944" uid="7589857" user="Marius Geitle_import" />
	<node id="7280786786" lat="60.5275324" lon="9.3112439" version="1" timestamp="2020-03-09T20:41:05Z" changeset="81981944" uid="7589857" user="Marius Geitle_import" />
	<node id="7280786787" lat="60.5274968" lon="9.3113647" version="1" timestamp="2020-03-09T20:41:05Z" changeset="81981944" uid="7589857" user="Marius Geitle_import" />
	<node id="7280786788" lat="60.5273991" lon="9.3114364" version="1" timestamp="2020-03-09T20:41:05Z" changeset="81981944" uid="7589857" user="Marius Geitle_import" />
	<node id="7280786789" lat="60.5273737" lon="9.3114722" version="1" timestamp="2020-03-09T20:41:05Z" changeset="81981944" uid="7589857" user="Marius Geitle_import" />
	<node id="7280786790" lat="60.527355" lon="9.3115343" version="1" timestamp="2020-03-09T20:41:05Z" changeset="81981944" uid="7589857" user="Marius Geitle_import" />
	<node id="7280786791" lat="60.5272824" lon="9.3116918" version="1" timestamp="2020-03-09T20:41:05Z" changeset="81981944" uid="7589857" user="Marius Geitle_import" />
	<node id="7280787689" lat="60.526743" lon="9.3102451" version="1" timestamp="2020-03-09T20:41:05Z" changeset="81981944" uid="7589857" user="Marius Geitle_import" />
	<node id="7280787690" lat="60.5266048" lon="9.3104221" version="1" timestamp="2020-03-09T20:41:05Z" changeset="81981944" uid="7589857" user="Marius Geitle_import" />
	<node id="7280787691" lat="60.5265016" lon="9.3106752" version="1" timestamp="2020-03-09T20:41:05Z" changeset="81981944" uid="7589857" user="Marius Geitle_import" />
	<node id="7280787692" lat="60.526456" lon="9.3108501" version="1" timestamp="2020-03-09T20:41:05Z" changeset="81981944" uid="7589857" user="Marius Geitle_import" />
	<node id="7280787693" lat="60.5263701" lon="9.3110559" version="1" timestamp="2020-03-09T20:41:05Z" changeset="81981944" uid="7589857" user="Marius Geitle_import" />
	<node id="7280787988" lat="60.5270142" lon="9.309818" version="1" timestamp="2020-03-09T20:41:05Z" changeset="81981944" uid="7589857" user="Marius Geitle_import" />
	<node id="7280788191" lat="60.5272501" lon="9.3117057" version="1" timestamp="2020-03-09T20:41:05Z" changeset="81981944" uid="7589857" user="Marius Geitle_import" />
	<node id="7280788203" lat="60.5270756" lon="9.3121843" version="1" timestamp="2020-03-09T20:41:05Z" changeset="81981944" uid="7589857" user="Marius Geitle_import" />
	<node id="7280788341" lat="60.5277691" lon="9.3096099" version="1" timestamp="2020-03-09T20:41:05Z" changeset="81981944" uid="7589857" user="Marius Geitle_import" />
	<node id="7280788452" lat="60.5271067" lon="9.311627" version="1" timestamp="2020-03-09T20:41:05Z" changeset="81981944" uid="7589857" user="Marius Geitle_import" />
	<node id="7280788454" lat="60.5271365" lon="9.3116245" version="1" timestamp="2020-03-09T20:41:05Z" changeset="81981944" uid="7589857" user="Marius Geitle_import" />
	<node id="7280788455" lat="60.5271516" lon="9.3123393" version="1" timestamp="2020-03-09T20:41:05Z" changeset="81981944" uid="7589857" user="Marius Geitle_import" />
	<node id="7280788785" lat="60.5281738" lon="9.3126433" version="1" timestamp="2020-03-09T20:41:05Z" changeset="81981944" uid="7589857" user="Marius Geitle_import" />
	<node id="7280788786" lat="60.5281775" lon="9.3125079" version="1" timestamp="2020-03-09T20:41:05Z" changeset="81981944" uid="7589857" user="Marius Geitle_import" />
	<node id="7280788787" lat="60.5282283" lon="9.3123301" version="1" timestamp="2020-03-09T20:41:05Z" changeset="81981944" uid="7589857" user="Marius Geitle_import" />
	<node id="7280788788" lat="60.5282306" lon="9.312061" version="1" timestamp="2020-03-09T20:41:05Z" changeset="81981944" uid="7589857" user="Marius Geitle_import" />
	<node id="7280788789" lat="60.5281473" lon="9.3118159" version="1" timestamp="2020-03-09T20:41:05Z" changeset="81981944" uid="7589857" user="Marius Geitle_import" />
	<node id="7280788790" lat="60.5281349" lon="9.3117582" version="1" timestamp="2020-03-09T20:41:05Z" changeset="81981944" uid="7589857" user="Marius Geitle_import" />
	<node id="7280789054" lat="60.5271794" lon="9.3123565" version="1" timestamp="2020-03-09T20:41:05Z" changeset="81981944" uid="7589857" user="Marius Geitle_import" />
	<node id="7280789254" lat="60.5265002" lon="9.3123308" version="1" timestamp="2020-03-09T20:41:09Z" changeset="81981948" uid="7589857" user="Marius Geitle_import" />
	<node id="7280789255" lat="60.5265106" lon="9.3124429" version="1" timestamp="2020-03-09T20:41:09Z" changeset="81981948" uid="7589857" user="Marius Geitle_import" />
	<node id="7280789256" lat="60.5265285" lon="9.3122308" version="1" timestamp="2020-03-09T20:41:09Z" changeset="81981948" uid="7589857" user="Marius Geitle_import" />
	<node id="7280789257" lat="60.5265082" lon="9.3122753" version="1" timestamp="2020-03-09T20:41:09Z" changeset="81981948" uid="7589857" user="Marius Geitle_import" />
	<node id="7280789259" lat="60.526367" lon="9.3124874" version="1" timestamp="2020-03-09T20:41:09Z" changeset="81981948" uid="7589857" user="Marius Geitle_import" />
	<node id="7280789260" lat="60.5263447" lon="9.3125297" version="1" timestamp="2020-03-09T20:41:09Z" changeset="81981948" uid="7589857" user="Marius Geitle_import" />
	<node id="7280789261" lat="60.5264832" lon="9.3125438" version="1" timestamp="2020-03-09T20:41:09Z" changeset="81981948" uid="7589857" user="Marius Geitle_import" />
	<node id="7280789263" lat="60.526417" lon="9.3125533" version="1" timestamp="2020-03-09T20:41:09Z" changeset="81981948" uid="7589857" user="Marius Geitle_import" />
	<node id="7280790014" lat="60.5275642" lon="9.3125619" version="1" timestamp="2020-03-09T20:41:09Z" changeset="81981948" uid="7589857" user="Marius Geitle_import" />
	<node id="7280790015" lat="60.5275589" lon="9.312624" version="1" timestamp="2020-03-09T20:41:09Z" changeset="81981948" uid="7589857" user="Marius Geitle_import" />
	<node id="7280790016" lat="60.5274735" lon="9.3123716" version="1" timestamp="2020-03-09T20:41:09Z" changeset="81981948" uid="7589857" user="Marius Geitle_import" />
	<node id="7280790017" lat="60.5275463" lon="9.3125013" version="1" timestamp="2020-03-09T20:41:09Z" changeset="81981948" uid="7589857" user="Marius Geitle_import" />
	<node id="7280790018" lat="60.5273845" lon="9.312327" version="1" timestamp="2020-03-09T20:41:09Z" changeset="81981948" uid="7589857" user="Marius Geitle_import" />
	<node id="7280790019" lat="60.5274217" lon="9.3124169" version="1" timestamp="2020-03-09T20:41:09Z" changeset="81981948" uid="7589857" user="Marius Geitle_import" />
	<node id="7280790020" lat="60.5272934" lon="9.3123268" version="1" timestamp="2020-03-09T20:41:09Z" changeset="81981948" uid="7589857" user="Marius Geitle_import" />
	<node id="7280790021" lat="60.5273234" lon="9.3123191" version="1" timestamp="2020-03-09T20:41:09Z" changeset="81981948" uid="7589857" user="Marius Geitle_import" />
	<node id="7280790023" lat="60.5272671" lon="9.312355" version="1" timestamp="2020-03-09T20:41:09Z" changeset="81981948" uid="7589857" user="Marius Geitle_import" />
	<node id="7280780900" lat="60.5266229" lon="9.3129819" version="1" timestamp="2020-03-09T20:41:05Z" changeset="81981944" uid="7589857" user="Marius Geitle_import" />
	<node id="7280782463" lat="60.526422" lon="9.3129203" version="1" timestamp="2020-03-09T20:41:05Z" changeset="81981944" uid="7589857" user="Marius Geitle_import" />
	<node id="7280783390" lat="60.5275558" lon="9.313458" version="1" timestamp="2020-03-09T20:41:05Z" changeset="81981944" uid="7589857" user="Marius Geitle_import" />
	<node id="7280784338" lat="60.5277249" lon="9.3134191" version="1" timestamp="2020-03-09T20:41:05Z" changeset="81981944" uid="7589857" user="Marius Geitle_import" />
	<node id="7280784340" lat="60.5278714" lon="9.3132556" version="1" timestamp="2020-03-09T20:41:05Z" changeset="81981944" uid="7589857" user="Marius Geitle_import" />
	<node id="7280784342" lat="60.5279908" lon="9.3130193" version="1" timestamp="2020-03-09T20:41:05Z" changeset="81981944" uid="7589857" user="Marius Geitle_import" />
	<node id="7280784343" lat="60.5279106" lon="9.31314" version="1" timestamp="2020-03-09T20:41:05Z" changeset="81981944" uid="7589857" user="Marius Geitle_import" />
	<node id="7280785015" lat="60.5280853" lon="9.3129254" version="1" timestamp="2020-03-09T20:41:05Z" changeset="81981944" uid="7589857" user="Marius Geitle_import" />
	<node id="7280785017" lat="60.5281542" lon="9.3127604" version="1" timestamp="2020-03-09T20:41:05Z" changeset="81981944" uid="7589857" user="Marius Geitle_import" />
	<node id="7280785255" lat="60.5266272" lon="9.3131371" version="1" timestamp="2020-03-09T20:41:05Z" changeset="81981944" uid="7589857" user="Marius Geitle_import" />
	<node id="7280785445" lat="60.5271571" lon="9.3135102" version="1" timestamp="2020-03-09T20:41:05Z" changeset="81981944" uid="7589857" user="Marius Geitle_import" />
	<node id="7280785947" lat="60.5277623" lon="9.3126869" version="1" timestamp="2020-03-09T20:41:05Z" changeset="81981944" uid="7589857" user="Marius Geitle_import" />
	<node id="7280785948" lat="60.527747" lon="9.3127396" version="1" timestamp="2020-03-09T20:41:05Z" changeset="81981944" uid="7589857" user="Marius Geitle_import" />
	<node id="7280785991" lat="60.527414" lon="9.3128895" version="1" timestamp="2020-03-09T20:41:05Z" changeset="81981944" uid="7589857" user="Marius Geitle_import" />
	<node id="7280785992" lat="60.5273936" lon="9.312846" version="1" timestamp="2020-03-09T20:41:05Z" changeset="81981944" uid="7589857" user="Marius Geitle_import" />
	<node id="7280785993" lat="60.5275223" lon="9.3128708" version="1" timestamp="2020-03-09T20:41:05Z" changeset="81981944" uid="7589857" user="Marius Geitle_import" />
	<node id="7280785994" lat="60.5276938" lon="9.3128105" version="1" timestamp="2020-03-09T20:41:05Z" changeset="81981944" uid="7589857" user="Marius Geitle_import" />
	<node id="7280785995" lat="60.5276312" lon="9.312857" version="1" timestamp="2020-03-09T20:41:05Z" changeset="81981944" uid="7589857" user="Marius Geitle_import" />
	<node id="7280786192" lat="60.5270515" lon="9.3133655" version="1" timestamp="2020-03-09T20:41:05Z" changeset="81981944" uid="7589857" user="Marius Geitle_import" />
	<node id="7280786193" lat="60.5271249" lon="9.3134799" version="1" timestamp="2020-03-09T20:41:05Z" changeset="81981944" uid="7589857" user="Marius Geitle_import" />
	<node id="7280786194" lat="60.526965" lon="9.3132916" version="1" timestamp="2020-03-09T20:41:05Z" changeset="81981944" uid="7589857" user="Marius Geitle_import" />
	<node id="7280786195" lat="60.5274367" lon="9.313517" version="1" timestamp="2020-03-09T20:41:05Z" changeset="81981944" uid="7589857" user="Marius Geitle_import" />
	<node id="7280786196" lat="60.5274814" lon="9.3134552" version="1" timestamp="2020-03-09T20:41:05Z" changeset="81981944" uid="7589857" user="Marius Geitle_import" />
	<node id="7280786667" lat="60.5267022" lon="9.3132861" version="1" timestamp="2020-03-09T20:41:05Z" changeset="81981944" uid="7589857" user="Marius Geitle_import" />
	<node id="7280786675" lat="60.5269359" lon="9.3132503" version="1" timestamp="2020-03-09T20:41:05Z" changeset="81981944" uid="7589857" user="Marius Geitle_import" />
	<node id="7280786725" lat="60.5266478" lon="9.3131529" version="1" timestamp="2020-03-09T20:41:05Z" changeset="81981944" uid="7589857" user="Marius Geitle_import" />
	<node id="7280787323" lat="60.5277729" lon="9.3133268" version="1" timestamp="2020-03-09T20:41:05Z" changeset="81981944" uid="7589857" user="Marius Geitle_import" />
	<node id="7280787334" lat="60.5263444" lon="9.3128179" version="1" timestamp="2020-03-09T20:41:05Z" changeset="81981944" uid="7589857" user="Marius Geitle_import" />
	<node id="7280787335" lat="60.5263276" lon="9.3127743" version="1" timestamp="2020-03-09T20:41:05Z" changeset="81981944" uid="7589857" user="Marius Geitle_import" />
	<node id="7280787337" lat="60.5263983" lon="9.3128673" version="1" timestamp="2020-03-09T20:41:05Z" changeset="81981944" uid="7589857" user="Marius Geitle_import" />
	<node id="7280787339" lat="60.5266052" lon="9.312939" version="1" timestamp="2020-03-09T20:41:05Z" changeset="81981944" uid="7589857" user="Marius Geitle_import" />
	<node id="7280787341" lat="60.5264512" lon="9.3129433" version="1" timestamp="2020-03-09T20:41:05Z" changeset="81981944" uid="7589857" user="Marius Geitle_import" />
	<node id="7280787798" lat="60.5281834" lon="9.312716" version="1" timestamp="2020-03-09T20:41:05Z" changeset="81981944" uid="7589857" user="Marius Geitle_import" />
	<node id="7280788326" lat="60.5274084" lon="9.3135207" version="1" timestamp="2020-03-09T20:41:05Z" changeset="81981944" uid="7589857" user="Marius Geitle_import" />
	<node id="7280790212" lat="60.5268082" lon="9.3132706" version="1" timestamp="2020-03-09T20:41:09Z" changeset="81981948" uid="7589857" user="Marius Geitle_import" />
	<node id="7280790213" lat="60.5268744" lon="9.313235" version="1" timestamp="2020-03-09T20:41:09Z" changeset="81981948" uid="7589857" user="Marius Geitle_import" />
	<node id="7280790214" lat="60.5268362" lon="9.3132436" version="1" timestamp="2020-03-09T20:41:09Z" changeset="81981948" uid="7589857" user="Marius Geitle_import" />
	<node id="7280790263" lat="60.5274172" lon="9.3128086" version="1" timestamp="2020-03-09T20:41:09Z" changeset="81981948" uid="7589857" user="Marius Geitle_import" />
	<node id="7280790297" lat="60.5274388" lon="9.312912" version="1" timestamp="2020-03-09T20:41:09Z" changeset="81981948" uid="7589857" user="Marius Geitle_import" />
	<node id="7280790333" lat="60.5275198" lon="9.3127319" version="1" timestamp="2020-03-09T20:41:09Z" changeset="81981948" uid="7589857" user="Marius Geitle_import" />
	<way id="24066011" version="6" timestamp="2018-08-22T08:02:37Z" changeset="61879377" uid="7543313" user="ENTUR Fredrik Edler">
		<tag k="highway" v="residential" />
		<tag k="name" v="Øynan" />
		<tag k="source" v="Kartverket" />
		<tag k="ssr:stedsnr" v="450083" />
		<nd ref="5848102659" />
		<nd ref="5848105672" />
		<nd ref="5848108268" />
		<nd ref="261080220" />
		<nd ref="5848106153" />
		<nd ref="5848108190" />
		<nd ref="261080219" />
		<nd ref="5848104785" />
		<nd ref="5848105602" />
		<nd ref="5848106885" />
		<nd ref="261080217" />
		<nd ref="5848104337" />
		<nd ref="5848106179" />
		<nd ref="5848108217" />
		<nd ref="5848103730" />
		<nd ref="261080216" />
		<nd ref="5848105625" />
		<nd ref="5848100961" />
		<nd ref="5848103180" />
		<nd ref="5848104363" />
		<nd ref="5848108037" />
		<nd ref="5848103101" />
		<nd ref="5848104637" />
		<nd ref="261080215" />
		<nd ref="5848106632" />
	</way>
	<way id="779691008" version="1" timestamp="2020-03-09T20:41:09Z" changeset="81981948" uid="7589857" user="Marius Geitle_import">
		<tag k="source" v="Kartverket N50" />
		<tag k="source:date" v="2011-09-16" />
		<nd ref="7280780122" />
		<nd ref="7280784935" />
		<nd ref="7280784936" />
		<nd ref="7280780772" />
		<nd ref="7280780771" />
		<nd ref="7280780770" />
		<nd ref="7280780769" />
		<nd ref="7280780775" />
		<nd ref="7280780774" />
		<nd ref="7280780773" />
		<nd ref="7280787988" />
		<nd ref="7280780777" />
		<nd ref="7280780776" />
		<nd ref="7280783185" />
		<nd ref="7280785562" />
		<nd ref="7280787689" />
		<nd ref="7280783349" />
		<nd ref="7280787690" />
		<nd ref="7280785563" />
		<nd ref="7280787691" />
		<nd ref="7280785564" />
		<nd ref="7280787692" />
		<nd ref="7280787693" />
		<nd ref="7280783262" />
		<nd ref="7280783261" />
		<nd ref="7280783264" />
		<nd ref="7280783263" />
		<nd ref="7280783071" />
		<nd ref="7280780650" />
		<nd ref="7280780651" />
		<nd ref="7280783260" />
		<nd ref="7280783087" />
		<nd ref="7280780662" />
		<nd ref="7280789256" />
		<nd ref="7280789257" />
		<nd ref="7280789254" />
		<nd ref="7280789255" />
		<nd ref="7280789261" />
		<nd ref="7280789263" />
		<nd ref="7280789259" />
		<nd ref="7280789260" />
		<nd ref="7280783694" />
		<nd ref="7280787335" />
		<nd ref="7280787334" />
		<nd ref="7280787337" />
		<nd ref="7280782463" />
		<nd ref="7280787341" />
		<nd ref="7280787339" />
		<nd ref="7280780900" />
		<nd ref="7280785255" />
	</way>
	<way id="779691011" version="1" timestamp="2020-03-09T20:41:09Z" changeset="81981948" uid="7589857" user="Marius Geitle_import">
		<tag k="source" v="Kartverket N50" />
		<tag k="source:date" v="2011-09-16" />
		<nd ref="7280787798" />
		<nd ref="7280788785" />
		<nd ref="7280788786" />
		<nd ref="7280788787" />
		<nd ref="7280788788" />
		<nd ref="7280781001" />
		<nd ref="7280781002" />
		<nd ref="7280788789" />
		<nd ref="7280788790" />
		<nd ref="7280781881" />
		<nd ref="7280780992" />
		<nd ref="7280783456" />
		<nd ref="7280783455" />
		<nd ref="7280783454" />
		<nd ref="7280783453" />
		<nd ref="7280780620" />
		<nd ref="7280780619" />
		<nd ref="7280786062" />
		<nd ref="7280786053" />
		<nd ref="7280780570" />
		<nd ref="7280785908" />
		<nd ref="7280785947" />
		<nd ref="7280785948" />
		<nd ref="7280785994" />
		<nd ref="7280785995" />
		<nd ref="7280785993" />
		<nd ref="7280790297" />
		<nd ref="7280785991" />
		<nd ref="7280785992" />
		<nd ref="7280790263" />
		<nd ref="7280790333" />
		<nd ref="7280790015" />
		<nd ref="7280790014" />
		<nd ref="7280790017" />
		<nd ref="7280790016" />
		<nd ref="7280790019" />
		<nd ref="7280790018" />
		<nd ref="7280790021" />
		<nd ref="7280790020" />
		<nd ref="7280790023" />
		<nd ref="7280789054" />
		<nd ref="7280788455" />
		<nd ref="7280788203" />
		<nd ref="7280782690" />
		<nd ref="7280782691" />
		<nd ref="7280782688" />
		<nd ref="7280782689" />
		<nd ref="7280788452" />
		<nd ref="7280788454" />
		<nd ref="7280783184" />
		<nd ref="7280788191" />
		<nd ref="7280786791" />
		<nd ref="7280786790" />
		<nd ref="7280786789" />
		<nd ref="7280786788" />
		<nd ref="7280786787" />
		<nd ref="7280786786" />
		<nd ref="7280786785" />
		<nd ref="7280786784" />
		<nd ref="7280786783" />
		<nd ref="7280786782" />
		<nd ref="7280779719" />
		<nd ref="7280781461" />
		<nd ref="7280781463" />
		<nd ref="7280781462" />
		<nd ref="7280779716" />
		<nd ref="7280785147" />
		<nd ref="7280780121" />
	</way>
	<way id="779691007" version="1" timestamp="2020-03-09T20:41:09Z" changeset="81981948" uid="7589857" user="Marius Geitle_import">
		<tag k="source" v="Kartverket N50" />
		<tag k="source:date" v="2011-09-16" />
		<nd ref="7280780121" />
		<nd ref="7280785976" />
		<nd ref="7280785977" />
		<nd ref="7280785974" />
		<nd ref="7280788341" />
		<nd ref="7280784019" />
		<nd ref="7280780122" />
	</way>
	<way id="779691009" version="1" timestamp="2020-03-09T20:41:09Z" changeset="81981948" uid="7589857" user="Marius Geitle_import">
		<tag k="source" v="Kartverket N50" />
		<tag k="source:date" v="2011-09-16" />
		<nd ref="7280785255" />
		<nd ref="7280786725" />
		<nd ref="7280786667" />
	</way>
	<way id="779691010" version="1" timestamp="2020-03-09T20:41:09Z" changeset="81981948" uid="7589857" user="Marius Geitle_import">
		<tag k="source" v="Kartverket N50" />
		<tag k="source:date" v="2011-09-16" />
		<nd ref="7280786667" />
		<nd ref="7280790212" />
		<nd ref="7280790214" />
		<nd ref="7280790213" />
		<nd ref="7280786675" />
		<nd ref="7280786194" />
		<nd ref="7280786192" />
		<nd ref="7280786193" />
		<nd ref="7280785445" />
		<nd ref="7280788326" />
		<nd ref="7280786195" />
		<nd ref="7280786196" />
		<nd ref="7280783390" />
		<nd ref="7280784338" />
		<nd ref="7280787323" />
		<nd ref="7280784340" />
		<nd ref="7280784343" />
		<nd ref="7280784342" />
		<nd ref="7280785015" />
		<nd ref="7280785017" />
		<nd ref="7280787798" />
	</way>
	<relation id="10810502" version="1" timestamp="2020-03-09T20:41:09Z" changeset="81981948" uid="7589857" user="Marius Geitle_import">
		<tag k="ele" v="935" />
		<tag k="name" v="Løken" />
		<tag k="natural" v="water" />
		<tag k="ssr:stedsnr" v="449229" />
		<tag k="type" v="multipolygon" />
		<member type="way" ref="779691010" role="outer" />
		<member type="way" ref="779691009" role="outer" />
		<member type="way" ref="779691008" role="outer" />
		<member type="way" ref="779691007" role="outer" />
		<member type="way" ref="779691011" role="outer" />
	</relation>
</osm>
