<?xml version="1.0" encoding="UTF-8"?>
<osm version="0.6" generator="osmapis">
	<node id="2353322077" lat="71.134297" lon="25.958089" version="2" timestamp="2018-05-02T17:03:48Z" changeset="58620907" uid="3497659" user="NKA">
		<tag k="name" v="Bispen" />
		<tag k="name:no" v="Bispen" />
		<tag k="natural" v="peak" />
		<tag k="source" v="Kartverket" />
		<tag k="ssr:stedsnr" v="141347" />
	</node>
	<node id="2353322517" lat="71.070072" lon="25.830631" version="2" timestamp="2018-05-02T17:03:48Z" changeset="58620907" uid="3497659" user="NKA">
		<tag k="name" v="Duken" />
		<tag k="name:no" v="Duken" />
		<tag k="natural" v="peak" />
		<tag k="source" v="Kartverket" />
		<tag k="ssr:stedsnr" v="566321" />
	</node>
	<node id="2354916005" lat="71.158319" lon="25.687797" version="3" timestamp="2018-05-02T17:04:03Z" changeset="58620907" uid="3497659" user="NKA">
		<tag k="bay" v="fjord" />
		<tag k="name" v="Sandfjorden" />
		<tag k="name:no" v="Sandfjorden" />
		<tag k="natural" v="bay" />
		<tag k="source" v="Kartverket" />
		<tag k="ssr:stedsnr" v="688417" />
	</node>
	<node id="2354916146" lat="71.157717" lon="25.571539" version="3" timestamp="2018-05-02T17:04:03Z" changeset="58620907" uid="3497659" user="NKA">
		<tag k="bay" v="fjord" />
		<tag k="name" v="Sandstrandfjorden" />
		<tag k="name:no" v="Sandstrandfjorden" />
		<tag k="natural" v="bay" />
		<tag k="source" v="Kartverket" />
		<tag k="ssr:stedsnr" v="202405" />
	</node>
	<node id="2354916154" lat="71.104564" lon="25.361361" version="2" timestamp="2018-05-02T17:04:03Z" changeset="58620907" uid="3497659" user="NKA">
		<tag k="name" v="Springneset" />
		<tag k="name:no" v="Springneset" />
		<tag k="natural" v="cape" />
		<tag k="source" v="Kartverket" />
		<tag k="ssr:stedsnr" v="748390" />
	</node>
	<node id="2354916805" lat="71.110231" lon="25.619233" version="3" timestamp="2018-05-02T17:04:03Z" changeset="58620907" uid="3497659" user="NKA">
		<tag k="bay" v="fjord" />
		<tag k="name" v="Irevuotna" />
		<tag k="name:se" v="Irevuotna" />
		<tag k="natural" v="bay" />
		<tag k="source" v="Kartverket" />
		<tag k="ssr:stedsnr" v="323395" />
	</node>
	<node id="2354917314" lat="71.113156" lon="25.789269" version="3" timestamp="2018-05-02T17:04:03Z" changeset="58620907" uid="3497659" user="NKA">
		<tag k="bay" v="fjord" />
		<tag k="name" v="Mefjorden" />
		<tag k="name:no" v="Mefjorden" />
		<tag k="natural" v="bay" />
		<tag k="source" v="Kartverket" />
		<tag k="ssr:stedsnr" v="20401" />
	</node>
	<node id="2354917643" lat="71.103225" lon="25.576592" version="3" timestamp="2018-05-02T17:04:03Z" changeset="58620907" uid="3497659" user="NKA">
		<tag k="bay" v="fjord" />
		<tag k="name" v="Rissevuotna" />
		<tag k="name:se" v="Rissevuotna" />
		<tag k="natural" v="bay" />
		<tag k="source" v="Kartverket" />
		<tag k="ssr:stedsnr" v="81417" />
	</node>
	<node id="2354917971" lat="71.1124" lon="25.861714" version="3" timestamp="2018-05-02T17:04:03Z" changeset="58620907" uid="3497659" user="NKA">
		<tag k="bay" v="fjord" />
		<tag k="name" v="Risfjorden" />
		<tag k="name:no" v="Risfjorden" />
		<tag k="natural" v="bay" />
		<tag k="source" v="Kartverket" />
		<tag k="ssr:stedsnr" v="505404" />
	</node>
	<node id="2354918044" lat="71.114717" lon="25.936947" version="3" timestamp="2018-05-02T17:04:04Z" changeset="58620907" uid="3497659" user="NKA">
		<tag k="bay" v="fjord" />
		<tag k="name" v="Kaldfjorden" />
		<tag k="name:no" v="Kaldfjorden" />
		<tag k="natural" v="bay" />
		<tag k="source" v="Kartverket" />
		<tag k="ssr:stedsnr" v="566405" />
	</node>
	<node id="2354918045" lat="71.043314" lon="26.223225" version="2" timestamp="2018-05-02T17:04:04Z" changeset="58620907" uid="3497659" user="NKA">
		<tag k="name" v="Avløysinga" />
		<tag k="name:no" v="Avløysinga" />
		<tag k="natural" v="cape" />
		<tag k="source" v="Kartverket" />
		<tag k="ssr:stedsnr" v="445414" />
	</node>
	<node id="2354918521" lat="71.013817" lon="25.92805" version="3" timestamp="2018-05-02T17:04:04Z" changeset="58620907" uid="3497659" user="NKA">
		<tag k="bay" v="fjord" />
		<tag k="name" v="Skiipavuotna" />
		<tag k="name:se" v="Skiipavuotna" />
		<tag k="natural" v="bay" />
		<tag k="source" v="Kartverket" />
		<tag k="ssr:stedsnr" v="566399" />
	</node>
	<node id="2353315315" lat="71.1170497" lon="25.5205176" version="2" timestamp="2013-06-20T10:31:18Z" changeset="16628022" uid="1556391" user="relet" />
	<node id="2353315316" lat="71.1172719" lon="25.5211613" version="2" timestamp="2013-06-20T10:31:17Z" changeset="16628022" uid="1556391" user="relet" />
	<node id="2353315317" lat="71.1169733" lon="25.5209682" version="2" timestamp="2013-06-20T10:31:18Z" changeset="16628022" uid="1556391" user="relet" />
	<node id="2353321664" lat="71.1172406" lon="25.5208073" version="1" timestamp="2013-06-20T10:31:17Z" changeset="16628022" uid="1556391" user="relet" />
	<node id="2353321665" lat="71.1171573" lon="25.5211613" version="1" timestamp="2013-06-20T10:31:17Z" changeset="16628022" uid="1556391" user="relet" />
	<node id="2353321666" lat="71.1169455" lon="25.5207" version="1" timestamp="2013-06-20T10:31:17Z" changeset="16628022" uid="1556391" user="relet" />
	<way id="226540656" version="4" timestamp="2018-05-02T17:09:19Z" changeset="58620907" uid="3497659" user="NKA">
		<tag k="name" v="Kaka" />
		<tag k="name:no" v="Kaka" />
		<tag k="natural" v="rock" />
		<tag k="source" v="Kartverket" />
		<tag k="ssr:stedsnr" v="140709" />
		<nd ref="2353315315" />
		<nd ref="2353321664" />
		<nd ref="2353315316" />
		<nd ref="2353321665" />
		<nd ref="2353315317" />
		<nd ref="2353321666" />
		<nd ref="2353315315" />
	</way>
</osm>
