<?xml version="1.0" encoding="UTF-8"?>
<osm generator="osmapis" version="0.6">
	<node id="-10224" lat="59.4143666701" lon="5.26169722528">
		<tag k="loc_name" v="Lothebrygga lanterne" />
		<tag k="name" v="Lothebryggen" />
		<tag k="ssr:date" v="2016-05-10" />
		<tag k="ssr:gruppe" v="navigasjon" />
		<tag k="ssr:hovedgruppe" v="infrastruktur" />
		<tag k="ssr:stedsnr" v="648833" />
		<tag k="ssr:type" v="lanterne" />
	</node>
	<node id="-10300" lat="59.419653551" lon="5.25664062816">
		<tag k="name" v="Svinholmen" />
		<tag k="ssr:date" v="2019-05-30" />
		<tag k="ssr:gruppe" v="veg" />
		<tag k="ssr:hovedgruppe" v="infrastruktur" />
		<tag k="ssr:stedsnr" v="1026930" />
		<tag k="ssr:type" v="adressenavn" />
	</node>
	<node id="-9958" lat="59.4795666644" lon="5.22537222267">
		<tag k="alt_name" v="Bleivik" />
		<tag k="name" v="Bleivik lykt" />
		<tag k="ssr:date" v="2016-05-10" />
		<tag k="ssr:gruppe" v="navigasjon" />
		<tag k="ssr:hovedgruppe" v="infrastruktur" />
		<tag k="ssr:stedsnr" v="2690" />
		<tag k="ssr:type" v="fyrlykt" />
	</node>
	<node id="-10213" lat="59.4349055543" lon="5.09372499492">
		<tag k="name" v="Torgersnes" />
		<tag k="old_name" v="Torgernes" />
		<tag k="ssr:date" v="2016-05-10" />
		<tag k="ssr:gruppe" v="navigasjon" />
		<tag k="ssr:hovedgruppe" v="infrastruktur" />
		<tag k="ssr:stedsnr" v="632118" />
		<tag k="ssr:type" v="fyrlykt" />
	</node>
	<node id="-9956" lat="59.451661108" lon="5.06945556268">
		<tag k="name" v="Røværsholmen fyr" />
		<tag k="ssr:date" v="2017-02-07" />
		<tag k="ssr:gruppe" v="navigasjon" />
		<tag k="ssr:hovedgruppe" v="infrastruktur" />
		<tag k="ssr:stedsnr" v="2312" />
		<tag k="ssr:type" v="fyrstasjon" />
	</node>
	<node id="-9826" lat="59.4315928429" lon="5.22498495049">
		<tag k="alt_name" v="Skåre-Trebåen" />
		<tag k="name" v="Skåre-Treboen lanterne" />
		<tag k="old_name" v="Skaare-Treboen" />
		<tag k="ssr:date" v="2020-05-15" />
		<tag k="ssr:gruppe" v="navigasjon" />
		<tag k="ssr:hovedgruppe" v="infrastruktur" />
		<tag k="ssr:stedsnr" v="709707" />
		<tag k="ssr:type" v="lanterne" />
	</node>
	<node id="-9825" lat="59.4164583294" lon="5.2413083363">
		<tag k="name" v="Vibrandsøy, øvre" />
		<tag k="ssr:date" v="2016-05-11" />
		<tag k="ssr:gruppe" v="navigasjon" />
		<tag k="ssr:hovedgruppe" v="infrastruktur" />
		<tag k="ssr:stedsnr" v="709674" />
		<tag k="ssr:type" v="lanterne" />
	</node>
	<node id="-9692" lat="59.4039987056" lon="5.2754956021">
		<tag k="alt_name" v="Østre Storesundflu" />
		<tag k="name" v="Austra Storasundflua" />
		<tag k="ssr:date" v="2017-03-15" />
		<tag k="ssr:gruppe" v="navigasjon" />
		<tag k="ssr:hovedgruppe" v="infrastruktur" />
		<tag k="ssr:stedsnr" v="284829" />
		<tag k="ssr:type" v="lanterne" />
	</node>
	<node id="-9690" lat="59.4167194449" lon="5.2384749914">
		<tag k="name" v="Åkerøya lanterne" />
		<tag k="ssr:date" v="2016-05-10" />
		<tag k="ssr:gruppe" v="navigasjon" />
		<tag k="ssr:hovedgruppe" v="infrastruktur" />
		<tag k="ssr:stedsnr" v="162725" />
		<tag k="ssr:type" v="lanterne" />
	</node>
	<node id="-10276" lat="59.4174888848" lon="5.23958888097">
		<tag k="name" v="Vibrandsøy, nedre" />
		<tag k="ssr:date" v="2016-05-11" />
		<tag k="ssr:gruppe" v="navigasjon" />
		<tag k="ssr:hovedgruppe" v="infrastruktur" />
		<tag k="ssr:stedsnr" v="830710" />
		<tag k="ssr:type" v="lanterne" />
	</node>
	<node id="-9657" lat="59.4330416622" lon="5.2387277741">
		<tag k="alt_name" v="Kvalen" />
		<tag k="name" v="Kvalen lykt" />
		<tag k="ssr:date" v="2016-05-10" />
		<tag k="ssr:gruppe" v="navigasjon" />
		<tag k="ssr:hovedgruppe" v="infrastruktur" />
		<tag k="ssr:stedsnr" v="244673" />
		<tag k="ssr:type" v="fyrlykt" />
	</node>
	<node id="-9682" lat="59.3935305531" lon="5.28518610761">
		<tag k="alt_name" v="Rossebønakken" />
		<tag k="name" v="Rossebønakken lykt" />
		<tag k="ssr:date" v="2016-05-10" />
		<tag k="ssr:gruppe" v="navigasjon" />
		<tag k="ssr:hovedgruppe" v="infrastruktur" />
		<tag k="ssr:stedsnr" v="146559" />
		<tag k="ssr:type" v="fyrlykt" />
	</node>
	<node id="-10058" lat="59.4137972193" lon="5.26257222324">
		<tag k="name" v="Kortenes" />
		<tag k="ssr:date" v="2016-05-10" />
		<tag k="ssr:gruppe" v="navigasjon" />
		<tag k="ssr:hovedgruppe" v="infrastruktur" />
		<tag k="ssr:stedsnr" v="163840" />
		<tag k="ssr:type" v="lanterne" />
	</node>
	<node id="-10313" lat="69.6388889725" lon="30.5666644427">
		<tag k="fixme" v="multiple name tags, choose one and add the other to alt_name" />
		<tag k="loc_name:se" v="Norgga gonagasriika" />
		<tag k="loc_name:sma" v="Nöörjen gånkarïjhke" />
		<tag k="loc_name:smj" v="Vuona gånågisrijkka" />
		<tag k="name" v="Noreg;Norge" />
		<tag k="name:en" v="Norway" />
		<tag k="name:no" v="Noreg;Norge" />
		<tag k="ssr:date" v="2020-06-04" />
		<tag k="ssr:gruppe" v="administrativeIndelinger" />
		<tag k="ssr:hovedgruppe" v="offentligAdministrasjon" />
		<tag k="ssr:stedsnr" v="26330" />
		<tag k="ssr:type" v="nasjon" />
	</node>
	<node id="-10311" lat="59.4668874839" lon="5.24895626851">
		<tag k="name" v="Førlandsvågen" />
		<tag k="ssr:date" v="2020-05-05" />
		<tag k="ssr:gruppe" v="veg" />
		<tag k="ssr:hovedgruppe" v="infrastruktur" />
		<tag k="ssr:stedsnr" v="1076757" />
		<tag k="ssr:type" v="adressenavn" />
	</node>
	<node id="-10310" lat="59.4946071507" lon="5.25855260131">
		<tag k="name" v="Bjørgheimsvegen" />
		<tag k="ssr:date" v="2020-05-05" />
		<tag k="ssr:gruppe" v="veg" />
		<tag k="ssr:hovedgruppe" v="infrastruktur" />
		<tag k="ssr:stedsnr" v="1076756" />
		<tag k="ssr:type" v="adressenavn" />
	</node>
	<node id="-10309" lat="59.4946071507" lon="5.25855260131">
		<tag k="name" v="Lars Hanssons veg" />
		<tag k="ssr:date" v="2020-05-05" />
		<tag k="ssr:gruppe" v="veg" />
		<tag k="ssr:hovedgruppe" v="infrastruktur" />
		<tag k="ssr:stedsnr" v="1076755" />
		<tag k="ssr:type" v="adressenavn" />
	</node>
	<node id="-10308" lat="59.4942551458" lon="5.25724809229">
		<tag k="name" v="Hønsahaugen" />
		<tag k="ssr:date" v="2020-05-05" />
		<tag k="ssr:gruppe" v="veg" />
		<tag k="ssr:hovedgruppe" v="infrastruktur" />
		<tag k="ssr:stedsnr" v="1076754" />
		<tag k="ssr:type" v="adressenavn" />
	</node>
	<node id="-10307" lat="59.4096238968" lon="5.33487635475">
		<tag k="name" v="Emma Karlsens gate" />
		<tag k="ssr:date" v="2020-01-28" />
		<tag k="ssr:gruppe" v="veg" />
		<tag k="ssr:hovedgruppe" v="infrastruktur" />
		<tag k="ssr:stedsnr" v="1074728" />
		<tag k="ssr:type" v="adressenavn" />
	</node>
	<node id="-10306" lat="59.4011083208" lon="5.28648993487">
		<tag k="name" v="Camilla Colletts gate" />
		<tag k="ssr:date" v="2019-05-30" />
		<tag k="ssr:gruppe" v="veg" />
		<tag k="ssr:hovedgruppe" v="infrastruktur" />
		<tag k="ssr:stedsnr" v="1028955" />
		<tag k="ssr:type" v="adressenavn" />
	</node>
	<node id="-10305" lat="59.4207797858" lon="5.27997638256">
		<tag k="name" v="Bygdeplassen" />
		<tag k="ssr:date" v="2019-05-30" />
		<tag k="ssr:gruppe" v="veg" />
		<tag k="ssr:hovedgruppe" v="infrastruktur" />
		<tag k="ssr:stedsnr" v="1028943" />
		<tag k="ssr:type" v="adressenavn" />
	</node>
	<node id="-10304" lat="59.4102608645" lon="5.26420294803">
		<tag k="name" v="Hallelands gate" />
		<tag k="ssr:date" v="2019-05-30" />
		<tag k="ssr:gruppe" v="veg" />
		<tag k="ssr:hovedgruppe" v="infrastruktur" />
		<tag k="ssr:stedsnr" v="1028207" />
		<tag k="ssr:type" v="adressenavn" />
	</node>
	<node id="-10303" lat="59.396574439" lon="5.28700421612">
		<tag k="name" v="Stangalandvegen" />
		<tag k="ssr:date" v="2019-05-30" />
		<tag k="ssr:gruppe" v="veg" />
		<tag k="ssr:hovedgruppe" v="infrastruktur" />
		<tag k="ssr:stedsnr" v="1027065" />
		<tag k="ssr:type" v="adressenavn" />
	</node>
	<node id="-10302" lat="59.4221993956" lon="5.26297426037">
		<tag k="name" v="St. Olavs plass" />
		<tag k="ssr:date" v="2019-05-30" />
		<tag k="ssr:gruppe" v="veg" />
		<tag k="ssr:hovedgruppe" v="infrastruktur" />
		<tag k="ssr:stedsnr" v="1027004" />
		<tag k="ssr:type" v="adressenavn" />
	</node>
	<node id="-10301" lat="59.4127745781" lon="5.26440191085">
		<tag k="name" v="Strandlinjen" />
		<tag k="ssr:date" v="2019-05-30" />
		<tag k="ssr:gruppe" v="veg" />
		<tag k="ssr:hovedgruppe" v="infrastruktur" />
		<tag k="ssr:stedsnr" v="1026946" />
		<tag k="ssr:type" v="adressenavn" />
	</node>
	<node id="-9916" lat="59.4101333376" lon="5.27555555669">
		<tag k="alt_name" v="Haugesund" />
		<tag k="name" v="Haugesund kommune" />
		<tag k="ssr:date" v="2017-03-24" />
		<tag k="ssr:gruppe" v="administrativeIndelinger" />
		<tag k="ssr:hovedgruppe" v="offentligAdministrasjon" />
		<tag k="ssr:stedsnr" v="935965" />
		<tag k="ssr:type" v="kommune" />
	</node>
	<node id="-10299" lat="59.3976255435" lon="5.29677783012">
		<tag k="name" v="Karmtplassen" />
		<tag k="ssr:date" v="2019-05-30" />
		<tag k="ssr:gruppe" v="veg" />
		<tag k="ssr:hovedgruppe" v="infrastruktur" />
		<tag k="ssr:stedsnr" v="1026020" />
		<tag k="ssr:type" v="adressenavn" />
	</node>
	<node id="-10298" lat="59.4061101273" lon="5.28283870067">
		<tag k="name" v="Rossabøgata" />
		<tag k="ssr:date" v="2019-05-30" />
		<tag k="ssr:gruppe" v="veg" />
		<tag k="ssr:hovedgruppe" v="infrastruktur" />
		<tag k="ssr:stedsnr" v="1025048" />
		<tag k="ssr:type" v="adressenavn" />
	</node>
	<node id="-10169" lat="59.4290277741" lon="5.1273111192">
		<tag k="alt_name" v="Gloppene" />
		<tag k="name" v="Gloppene lykt" />
		<tag k="ssr:date" v="2016-05-10" />
		<tag k="ssr:gruppe" v="navigasjon" />
		<tag k="ssr:hovedgruppe" v="infrastruktur" />
		<tag k="ssr:stedsnr" v="547683" />
		<tag k="ssr:type" v="fyrlykt" />
	</node>
	<node id="-10294" lat="59.3932259338" lon="5.28482586919">
		<tag k="name" v="Rossabønakken" />
		<tag k="ssr:date" v="2017-03-15" />
		<tag k="ssr:gruppe" v="navigasjon" />
		<tag k="ssr:hovedgruppe" v="infrastruktur" />
		<tag k="ssr:stedsnr" v="974963" />
		<tag k="ssr:type" v="fyrlykt" />
	</node>
	<node id="-9779" lat="59.4243416658" lon="5.24022778168">
		<tag k="alt_name" v="Sørhaugøy" />
		<tag k="name" v="Sørhaugøy lykt" />
		<tag k="ssr:date" v="2016-05-10" />
		<tag k="ssr:gruppe" v="navigasjon" />
		<tag k="ssr:hovedgruppe" v="infrastruktur" />
		<tag k="ssr:stedsnr" v="450607" />
		<tag k="ssr:type" v="fyrlykt" />
	</node>
	<node id="-10026" lat="59.4170805515" lon="5.24973888744">
		<tag k="name" v="Vardøy" />
		<tag k="ssr:date" v="2016-05-10" />
		<tag k="ssr:gruppe" v="navigasjon" />
		<tag k="ssr:hovedgruppe" v="infrastruktur" />
		<tag k="ssr:stedsnr" v="103832" />
		<tag k="ssr:type" v="lanterne" />
	</node>
	<node id="-10148" lat="59.4123527818" lon="5.25514722685">
		<tag k="name" v="Garpeskjærkaia lanterne" />
		<tag k="ssr:date" v="2016-05-10" />
		<tag k="ssr:gruppe" v="navigasjon" />
		<tag k="ssr:hovedgruppe" v="infrastruktur" />
		<tag k="ssr:stedsnr" v="406878" />
		<tag k="ssr:type" v="lanterne" />
	</node>
	<node id="-10255" lat="59.4244333344" lon="5.12541943764">
		<tag k="alt_name" v="Glette" />
		<tag k="name" v="Glette lykt" />
		<tag k="ssr:date" v="2016-05-11" />
		<tag k="ssr:gruppe" v="navigasjon" />
		<tag k="ssr:hovedgruppe" v="infrastruktur" />
		<tag k="ssr:stedsnr" v="790692" />
		<tag k="ssr:type" v="fyrlykt" />
	</node>
	<node id="-10125" lat="59.4030111097" lon="5.29906389046">
		<tag k="name" v="Hemmingstad allé" />
		<tag k="ssr:date" v="2019-05-30" />
		<tag k="ssr:gruppe" v="veg" />
		<tag k="ssr:hovedgruppe" v="infrastruktur" />
		<tag k="ssr:stedsnr" v="363838" />
		<tag k="ssr:type" v="adressenavn" />
	</node>
</osm>
