<?xml version="1.0" encoding="UTF-8"?>
<osm generator="osmapis" version="0.6">
	<node id="-829642" lat="63.560950002" lon="9.39903055943">
		<tag k="name" v="Kongensvollen" />
		<tag k="ssr:date" v="2018-01-09" />
		<tag k="ssr:gruppe" v="navigasjon" />
		<tag k="ssr:hovedgruppe" v="infrastruktur" />
		<tag k="ssr:stedsnr" v="384462" />
		<tag k="ssr:type" v="fyrlykt" />
	</node>
	<node id="-831967" lat="63.5169210211" lon="10.4860505232">
		<tag k="name" v="Trøndelag fylke - Trööndelagen fylhke" />
		<tag k="name:no" v="Trøndelag fylke" />
		<tag k="name:sma" v="Trööndelagen fylhke" />
		<tag k="ssr:date" v="2018-06-27" />
		<tag k="ssr:gruppe" v="administrativeIndelinger" />
		<tag k="ssr:hovedgruppe" v="offentligAdministrasjon" />
		<tag k="ssr:stedsnr" v="980645" />
		<tag k="ssr:type" v="fylke" />
	</node>
	<node id="-830388" lat="63.5261222229" lon="9.384833331">
		<tag k="name" v="Imsterfjorden" />
		<tag k="ssr:date" v="2019-05-30" />
		<tag k="ssr:gruppe" v="veg" />
		<tag k="ssr:hovedgruppe" v="infrastruktur" />
		<tag k="ssr:stedsnr" v="605900" />
		<tag k="ssr:type" v="adressenavn" />
	</node>
	<node id="-831642" lat="63.3748361156" lon="9.3259083269">
		<tag k="name" v="Klungervika" />
		<tag k="ssr:date" v="2019-05-30" />
		<tag k="ssr:gruppe" v="veg" />
		<tag k="ssr:hovedgruppe" v="infrastruktur" />
		<tag k="ssr:stedsnr" v="849788" />
		<tag k="ssr:type" v="adressenavn" />
	</node>
	<node id="-829656" lat="63.4900666671" lon="9.1042138914">
		<tag k="name" v="Heggen" />
		<tag k="ssr:date" v="2019-05-30" />
		<tag k="ssr:gruppe" v="veg" />
		<tag k="ssr:hovedgruppe" v="infrastruktur" />
		<tag k="ssr:stedsnr" v="120224" />
		<tag k="ssr:type" v="adressenavn" />
	</node>
	<node id="-831927" lat="63.524827778" lon="9.30761389157">
		<tag k="name" v="Vingvågen" />
		<tag k="ssr:date" v="2018-01-09" />
		<tag k="ssr:gruppe" v="navigasjon" />
		<tag k="ssr:hovedgruppe" v="infrastruktur" />
		<tag k="ssr:stedsnr" v="377135" />
		<tag k="ssr:type" v="fyrlykt" />
	</node>
	<node id="-831956" lat="63.3755888856" lon="9.37139723146">
		<tag k="name" v="Villvangan" />
		<tag k="ssr:date" v="2019-05-30" />
		<tag k="ssr:gruppe" v="veg" />
		<tag k="ssr:hovedgruppe" v="infrastruktur" />
		<tag k="ssr:stedsnr" v="121749" />
		<tag k="ssr:type" v="adressenavn" />
	</node>
	<node id="-831216" lat="63.4501555536" lon="9.14371111817">
		<tag k="name" v="Jamtøya" />
		<tag k="ssr:date" v="2019-05-30" />
		<tag k="ssr:gruppe" v="veg" />
		<tag k="ssr:hovedgruppe" v="infrastruktur" />
		<tag k="ssr:stedsnr" v="242877" />
		<tag k="ssr:type" v="adressenavn" />
	</node>
	<node id="-829871" lat="63.4465194432" lon="9.30172222961">
		<tag k="name" v="Klakken" />
		<tag k="ssr:date" v="2018-01-09" />
		<tag k="ssr:gruppe" v="navigasjon" />
		<tag k="ssr:hovedgruppe" v="infrastruktur" />
		<tag k="ssr:stedsnr" v="894548" />
		<tag k="ssr:type" v="fyrlykt" />
	</node>
	<node id="-831437" lat="63.3998180248" lon="9.50211001449">
		<tag k="name" v="Snillfjord kommune" />
		<tag k="old_name" v="Snilfjord" />
		<tag k="ssr:date" v="2019-06-05" />
		<tag k="ssr:gruppe" v="administrativeIndelinger" />
		<tag k="ssr:hovedgruppe" v="offentligAdministrasjon" />
		<tag k="ssr:stedsnr" v="388643" />
		<tag k="ssr:type" v="kommune" />
	</node>
	<node id="-830507" lat="63.5011055554" lon="9.16720554917">
		<tag k="alt_name" v="Litlskogsøya" />
		<tag k="name" v="Skogøya" />
		<tag k="ssr:date" v="2018-01-09" />
		<tag k="ssr:gruppe" v="navigasjon" />
		<tag k="ssr:hovedgruppe" v="infrastruktur" />
		<tag k="ssr:stedsnr" v="256008" />
		<tag k="ssr:type" v="fyrlykt" />
	</node>
	<node id="-831786" lat="63.451186115" lon="9.21185556382">
		<tag k="name" v="Tynsøya" />
		<tag k="ssr:date" v="2019-05-30" />
		<tag k="ssr:gruppe" v="veg" />
		<tag k="ssr:hovedgruppe" v="infrastruktur" />
		<tag k="ssr:stedsnr" v="120879" />
		<tag k="ssr:type" v="adressenavn" />
	</node>
	<node id="-831145" lat="63.4743777801" lon="9.34419999258">
		<tag k="name" v="Bustlia" />
		<tag k="ssr:date" v="2019-05-30" />
		<tag k="ssr:gruppe" v="veg" />
		<tag k="ssr:hovedgruppe" v="infrastruktur" />
		<tag k="ssr:stedsnr" v="727885" />
		<tag k="ssr:type" v="adressenavn" />
	</node>
	<node id="-831365" lat="63.3858833292" lon="9.43187221397">
		<tag k="name" v="Breivika" />
		<tag k="ssr:date" v="2019-05-30" />
		<tag k="ssr:gruppe" v="veg" />
		<tag k="ssr:hovedgruppe" v="infrastruktur" />
		<tag k="ssr:stedsnr" v="667710" />
		<tag k="ssr:type" v="adressenavn" />
	</node>
</osm>
