<?xml version="1.0" encoding="UTF-8"?>
<<<<<<< HEAD
<osm version="0.6" generator="osmapis">
	<node lat="63.04449999565145" lon="7.539930549173597" id="-5415">
		<tag k="name" v="Flatsetneset" />
		<tag k="natural" v="cape" />
		<tag k="ssr:stedsnr" v="229794" />
	</node>
	<node lat="63.03917777370733" lon="7.405950003843249" id="-5420">
		<tag k="name" v="Grønholmen" />
		<tag k="place" v="islet" />
		<tag k="ssr:stedsnr" v="230380" />
	</node>
	<node lat="63.145094441764854" lon="7.3873250082961315" id="-5428">
		<tag k="name" v="Litletaren" />
		<tag k="natural" v="shoal" />
		<tag k="place" v="locality" />
		<tag k="ssr:stedsnr" v="230954" />
	</node>
	<node lat="63.13253055640578" lon="7.379791659455797" id="-5429">
		<tag k="name" v="Søre Kverna" />
		<tag k="natural" v="shoal" />
		<tag k="place" v="locality" />
		<tag k="ssr:stedsnr" v="230955" />
	</node>
	<node lat="63.10915277941577" lon="7.28496111306898" id="-5430">
		<tag k="name" v="Hatten" />
		<tag k="natural" v="shoal" />
		<tag k="place" v="locality" />
		<tag k="ssr:stedsnr" v="230959" />
	</node>
	<node lat="63.1346228207911" lon="7.451612871338806" id="-5431">
		<tag k="name" v="Muen" />
		<tag k="natural" v="shoal" />
		<tag k="place" v="locality" />
		<tag k="ssr:stedsnr" v="230969" />
	</node>
	<node lat="63.115965393658975" lon="7.628317421778862" id="-5432">
		<tag k="name" v="Øksenvågrompa" />
		<tag k="natural" v="cape" />
		<tag k="ssr:stedsnr" v="230970" />
	</node>
	<node lat="63.02006666878782" lon="7.69771944322832" id="-5436">
		<tag k="name" v="Veisetgrunnen" />
		<tag k="natural" v="shoal" />
		<tag k="place" v="locality" />
		<tag k="ssr:stedsnr" v="231418" />
	</node>
	<node lat="62.93610833368445" lon="7.491894442847357" id="-5438">
		<tag k="alt_name" v="Råneset" />
		<tag k="name" v="Rånestangen" />
		<tag k="natural" v="cape" />
		<tag k="ssr:stedsnr" v="11503" />
	</node>
	<node lat="63.069722222162" lon="7.356127783523776" id="-5440">
		<tag k="name" v="Bårdstaren" />
		<tag k="natural" v="shoal" />
		<tag k="place" v="locality" />
		<tag k="ssr:stedsnr" v="231862" />
	</node>
	<node lat="63.09437778089196" lon="7.315013896464295" id="-5441">
		<tag k="name" v="Søre Eggeflusteinen" />
		<tag k="natural" v="shoal" />
		<tag k="place" v="locality" />
		<tag k="ssr:stedsnr" v="231875" />
	</node>
	<node lat="62.99702777503559" lon="7.72842500712685" id="-5445">
		<tag k="name" v="Kvernesgrunnen" />
		<tag k="natural" v="shoal" />
		<tag k="place" v="locality" />
		<tag k="ssr:stedsnr" v="232260" />
	</node>
	<node lat="63.03271944848159" lon="7.573036112169866" id="-5446">
		<tag k="name" v="Storesundet" />
		<tag k="natural" v="strait" />
		<tag k="ssr:stedsnr" v="232414" />
	</node>
	<node lat="62.972366666269664" lon="7.395636107535253" id="-5452">
		<tag k="name" v="Kvalshaugbogen" />
		<tag k="natural" v="bay" />
		<tag k="ssr:stedsnr" v="47469" />
	</node>
	<node lat="63.04349166815502" lon="7.605652777851099" id="-5454">
		<tag k="name" v="Storvassholmen" />
		<tag k="place" v="islet" />
		<tag k="ssr:stedsnr" v="47770" />
	</node>
	<node lat="63.12820000373206" lon="7.425650000935423" id="-5456">
		<tag k="fixme" v="consider seamark:type=rock or natural=shoal" />
		<tag k="name" v="Ramnan" />
		<tag k="place" v="islet" />
		<tag k="ssr:stedsnr" v="48971" />
	</node>
	<node lat="63.01278611197214" lon="7.583274997393285" id="-5457">
		<tag k="name" v="Leirhola" />
		<tag k="natural" v="beach" />
		<tag k="ssr:stedsnr" v="50421" />
	</node>
	<node lat="63.06008889157846" lon="7.49834722790424" id="-5458">
		<tag k="name" v="Slettneset" />
		<tag k="natural" v="cape" />
		<tag k="ssr:stedsnr" v="50608" />
	</node>
	<node lat="63.02273888581359" lon="7.4494222310513445" id="-5459">
		<tag k="name" v="Kalvøyvolen" />
		<tag k="natural" v="bay" />
		<tag k="ssr:stedsnr" v="50769" />
	</node>
	<node lat="63.10405277721493" lon="7.5770888795006" id="-5460">
		<tag k="fixme" v="multiple name tags, choose one and add the other to alt_name" />
		<tag k="name" v="Raudeggholmen;Holmen" />
		<tag k="natural" v="cape" />
		<tag k="ssr:stedsnr" v="242270" />
	</node>
	<node lat="63.06476110732511" lon="7.5295916632961895" id="-5461">
		<tag k="name" v="Sau-Forøya" />
		<tag k="place" v="islet" />
		<tag k="ssr:stedsnr" v="73521" />
	</node>
	<node lat="63.033094443193406" lon="7.441022221854187" id="-5462">
		<tag k="name" v="Setervågen" />
		<tag k="natural" v="bay" />
		<tag k="ssr:stedsnr" v="73605" />
	</node>
	<node lat="63.03365833385631" lon="7.41908889269238" id="-5463">
		<tag k="name" v="Risholmen" />
		<tag k="place" v="islet" />
		<tag k="ssr:stedsnr" v="73609" />
	</node>
	<node lat="63.11751389132524" lon="7.619272218951165" id="-5466">
		<tag k="fixme" v="consider seamark:type=rock or natural=shoal" />
		<tag k="name" v="Vettmolan" />
		<tag k="place" v="islet" />
		<tag k="ssr:stedsnr" v="73709" />
	</node>
	<node lat="63.12045555317784" lon="7.480161112887872" id="-5467">
		<tag k="bay" v="fjord" />
		<tag k="name" v="Ramnfjorden" />
		<tag k="natural" v="bay" />
		<tag k="ssr:stedsnr" v="73711" />
	</node>
	<node lat="63.13244444298567" lon="7.384852772469809" id="-5468">
		<tag k="fixme" v="consider seamark:type=rock or natural=shoal" />
		<tag k="name" v="Småramnen" />
		<tag k="place" v="islet" />
		<tag k="ssr:stedsnr" v="73720" />
	</node>
	<node lat="63.13474722324315" lon="7.398849994927399" id="-5469">
		<tag k="fixme" v="consider seamark:type=rock or natural=shoal" />
		<tag k="name" v="Latramnen" />
		<tag k="place" v="islet" />
		<tag k="ssr:stedsnr" v="73722" />
	</node>
	<node lat="63.01612777810411" lon="7.586622230880852" id="-5479">
		<tag k="name" v="Kvernhusvågen" />
		<tag k="natural" v="bay" />
		<tag k="ssr:stedsnr" v="109221" />
	</node>
	<node lat="63.14444444686539" lon="7.566697216059113" id="-5481">
		<tag k="name" v="Gardstaren" />
		<tag k="natural" v="shoal" />
		<tag k="place" v="locality" />
		<tag k="ssr:stedsnr" v="109810" />
	</node>
	<node lat="63.14032222340894" lon="7.5498388965206225" id="-5482">
		<tag k="name" v="Ytre Skjellingen" />
		<tag k="natural" v="shoal" />
		<tag k="place" v="locality" />
		<tag k="ssr:stedsnr" v="109814" />
	</node>
	<node lat="63.0723722252724" lon="7.481738879534906" id="-5484">
		<tag k="name" v="Bollen" />
		<tag k="place" v="islet" />
		<tag k="ssr:stedsnr" v="111706" />
	</node>
	<node lat="63.06351111345261" lon="7.458591663015644" id="-5495">
		<tag k="name" v="Urdan" />
		<tag k="place" v="islet" />
		<tag k="ssr:stedsnr" v="133475" />
	</node>
	<node lat="63.037500003688336" lon="7.405316672731728" id="-5496">
		<tag k="name" v="Ljøsøya" />
		<tag k="place" v="island" />
		<tag k="ssr:stedsnr" v="133557" />
	</node>
	<node lat="63.05790833053891" lon="7.462450003005746" id="-5501">
		<tag k="name" v="Langøysundet" />
		<tag k="natural" v="strait" />
		<tag k="ssr:stedsnr" v="255526" />
	</node>
	<node lat="63.04207777810103" lon="7.343663885651926" id="-5502">
		<tag k="fixme" v="consider seamark:type=rock or natural=shoal" />
		<tag k="name" v="Høyåla" />
		<tag k="place" v="islet" />
		<tag k="ssr:stedsnr" v="255536" />
	</node>
	<node lat="63.056480147269845" lon="7.5874013481886875" id="-5506">
		<tag k="name" v="Kjerringa" />
		<tag k="place" v="locality" />
		<tag k="seamark:type" v="rock" />
		<tag k="ssr:stedsnr" v="255555" />
	</node>
	<node lat="63.034466669441926" lon="7.673238886597951" id="-5508">
		<tag k="name" v="Kvitneset" />
		<tag k="natural" v="cape" />
		<tag k="ssr:stedsnr" v="255560" />
	</node>
	<node lat="63.11323333474717" lon="7.289197222832739" id="-5512">
		<tag k="fixme" v="consider seamark:type=rock or natural=shoal" />
		<tag k="name" v="Hyttån" />
		<tag k="place" v="islet" />
		<tag k="ssr:stedsnr" v="255723" />
	</node>
	<node lat="63.12008889232187" lon="7.283838887169531" id="-5513">
		<tag k="fixme" v="consider seamark:type=rock or natural=shoal" />
		<tag k="name" v="Sleipskjæret" />
		<tag k="place" v="islet" />
		<tag k="ssr:stedsnr" v="255727" />
	</node>
	<node lat="63.156705554899965" lon="7.493227773504503" id="-5514">
		<tag k="fixme" v="consider seamark:type=rock or natural=shoal" />
		<tag k="name" v="Storskjelbreia" />
		<tag k="place" v="islet" />
		<tag k="ssr:stedsnr" v="255733" />
	</node>
	<node lat="63.05189166964395" lon="7.451052786361934" id="-5518">
		<tag k="name" v="Storvika" />
		<tag k="natural" v="bay" />
		<tag k="ssr:stedsnr" v="168412" />
	</node>
	<node lat="62.97094444422803" lon="7.410688888925712" id="-5519">
		<tag k="name" v="Morkabogen" />
		<tag k="natural" v="bay" />
		<tag k="ssr:stedsnr" v="168472" />
	</node>
	<node lat="62.98700833331218" lon="7.692861116766614" id="-5521">
		<tag k="alt_name" v="Strandanes" />
		<tag k="name" v="Strandaneset" />
		<tag k="natural" v="cape" />
		<tag k="ssr:stedsnr" v="168816" />
	</node>
	<node lat="63.03952222069429" lon="7.574752771389284" id="-5522">
		<tag k="bay" v="fjord" />
		<tag k="name" v="Bådalsfjorden" />
		<tag k="natural" v="bay" />
		<tag k="ssr:stedsnr" v="168762" />
	</node>
	<node lat="63.115108330628495" lon="7.647749994360147" id="-5526">
		<tag k="name" v="Vasshaugneset" />
		<tag k="natural" v="cape" />
		<tag k="ssr:stedsnr" v="169958" />
	</node>
	<node lat="63.162622224480856" lon="7.371122220976264" id="-5529">
		<tag k="name" v="Indre Steinen" />
		<tag k="natural" v="shoal" />
		<tag k="place" v="locality" />
		<tag k="ssr:stedsnr" v="170723" />
	</node>
	<node lat="63.15389166838295" lon="7.483374991970316" id="-5531">
		<tag k="name" v="Knollen" />
		<tag k="natural" v="shoal" />
		<tag k="place" v="locality" />
		<tag k="ssr:stedsnr" v="170963" />
	</node>
	<node lat="63.07049166708484" lon="7.497377773650421" id="-5532">
		<tag k="name" v="Litle Tjønnøya" />
		<tag k="place" v="islet" />
		<tag k="ssr:stedsnr" v="171766" />
	</node>
	<node lat="63.05897777491465" lon="7.513936112356293" id="-5535">
		<tag k="name" v="Hendneset" />
		<tag k="natural" v="cape" />
		<tag k="ssr:stedsnr" v="195535" />
	</node>
	<node lat="63.115041663109245" lon="7.294663890046398" id="-5543">
		<tag k="name" v="Hyttflua" />
		<tag k="natural" v="shoal" />
		<tag k="place" v="locality" />
		<tag k="ssr:stedsnr" v="230139" />
	</node>
	<node lat="63.0962444421333" lon="7.669400004610946" id="-5545">
		<tag k="name" v="Sandbukta" />
		<tag k="natural" v="bay" />
		<tag k="ssr:stedsnr" v="230981" />
	</node>
	<node lat="63.11644722281025" lon="7.611058337366846" id="-5550">
		<tag k="name" v="Gamlesveggen" />
		<tag k="natural" v="shoal" />
		<tag k="place" v="locality" />
		<tag k="ssr:stedsnr" v="232518" />
	</node>
	<node lat="63.08980555584642" lon="7.53462778398786" id="-5551">
		<tag k="fixme" v="consider seamark:type=rock or natural=shoal" />
		<tag k="name" v="Tikan" />
		<tag k="place" v="islet" />
		<tag k="ssr:stedsnr" v="232521" />
	</node>
	<node lat="63.00850189627435" lon="7.4075312233646216" id="-5556">
		<tag k="name" v="Notneset" />
		<tag k="natural" v="cape" />
		<tag k="ssr:stedsnr" v="255408" />
	</node>
	<node lat="63.01605833691018" lon="7.7117111124276425" id="-5557">
		<tag k="name" v="Gullsetholmen" />
		<tag k="place" v="islet" />
		<tag k="ssr:stedsnr" v="255415" />
	</node>
	<node lat="63.07387778068714" lon="7.5196888954752374" id="-5558">
		<tag k="name" v="Ramsøyholmen" />
		<tag k="place" v="islet" />
		<tag k="ssr:stedsnr" v="255513" />
	</node>
	<node lat="63.071961113922804" lon="7.520183340836804" id="-5559">
		<tag k="name" v="Tjønnøyholmen" />
		<tag k="place" v="islet" />
		<tag k="ssr:stedsnr" v="255515" />
	</node>
	<node lat="63.0728744613334" lon="7.578496171473004" id="-5560">
		<tag k="name" v="Ekkilsøya" />
		<tag k="place" v="island" />
		<tag k="ssr:stedsnr" v="255521" />
	</node>
	<node lat="63.0228916666113" lon="7.456230563184263" id="-5561">
		<tag k="name" v="Mjølkneset" />
		<tag k="natural" v="cape" />
		<tag k="ssr:stedsnr" v="255571" />
	</node>
	<node lat="63.021036321271666" lon="7.372065622762042" id="-5562">
		<tag k="name" v="Eldhusøya" />
=======
<osm generator="osmapis" version="0.6">
	<node id="-79110" lat="63.0536141263" lon="7.58391757566">
		<tag k="name" v="Ingeborgvikholmen" />
>>>>>>> e1d4bc35ff8a6074a6f2e91616a996b547c36f15
		<tag k="place" v="islet" />
		<tag k="ssr:stedsnr" v="255576" />
	</node>
<<<<<<< HEAD
	<node lat="63.110761108031454" lon="7.590755561528011" id="-5564">
		<tag k="name" v="Engelsundet" />
		<tag k="natural" v="strait" />
		<tag k="ssr:stedsnr" v="255713" />
	</node>
	<node lat="63.118452779284716" lon="7.639530549935615" id="-5565">
		<tag k="fixme" v="consider seamark:type=rock or natural=shoal" />
		<tag k="name" v="Øksenvågskjæra" />
		<tag k="place" v="islet" />
		<tag k="ssr:stedsnr" v="255719" />
	</node>
	<node lat="63.09473333177161" lon="7.589569443452498" id="-5569">
		<tag k="name" v="Galtøyan" />
		<tag k="place" v="islet" />
		<tag k="ssr:stedsnr" v="255773" />
	</node>
	<node lat="63.000136107792905" lon="7.392875000399818" id="-5574">
		<tag k="name" v="Bjellvågen" />
=======
	<node id="-79109" lat="63.0528460254" lon="7.58777136852">
		<tag k="name" v="Ingeborgvika" />
>>>>>>> e1d4bc35ff8a6074a6f2e91616a996b547c36f15
		<tag k="natural" v="bay" />
		<tag k="ssr:stedsnr" v="290407" />
	</node>
<<<<<<< HEAD
	<node lat="63.017788886360066" lon="7.403608331389375" id="-5575">
		<tag k="name" v="Stor Lauvøysundet" />
		<tag k="natural" v="strait" />
		<tag k="ssr:stedsnr" v="290408" />
	</node>
	<node lat="63.08501944350794" lon="7.584008331384909" id="-5577">
		<tag k="name" v="Vølen" />
		<tag k="natural" v="bay" />
		<tag k="ssr:stedsnr" v="290806" />
	</node>
	<node lat="63.14441110824909" lon="7.502799991460243" id="-5579">
		<tag k="name" v="Haugan" />
=======
	<node id="-79087" lat="63.0758638911" lon="7.30588889348">
		<tag k="name" v="Midtfjordstaren" />
		<tag k="natural" v="shoal" />
		<tag k="place" v="locality" />
		<tag k="ssr:stedsnr" v="959841" />
	</node>
	<node id="-79086" lat="63.0847749978" lon="7.351336113">
		<tag k="name" v="Hjertåstaran" />
>>>>>>> e1d4bc35ff8a6074a6f2e91616a996b547c36f15
		<tag k="natural" v="shoal" />
		<tag k="place" v="locality" />
		<tag k="ssr:stedsnr" v="291126" />
	</node>
<<<<<<< HEAD
	<node lat="63.151747219357894" lon="7.530411115591725" id="-5580">
		<tag k="name" v="Jakopgrunnen" />
		<tag k="natural" v="shoal" />
		<tag k="place" v="locality" />
		<tag k="ssr:stedsnr" v="291127" />
	</node>
	<node lat="63.08238055702855" lon="7.388997212393293" id="-5581">
		<tag k="name" v="Brørne" />
		<tag k="natural" v="shoal" />
		<tag k="place" v="locality" />
		<tag k="ssr:stedsnr" v="291778" />
	</node>
	<node lat="63.06063055319925" lon="7.58345832889238" id="-5582">
		<tag k="name" v="Sør- Aukan" />
		<tag k="natural" v="cape" />
		<tag k="ssr:stedsnr" v="291794" />
	</node>
	<node lat="63.061233336017025" lon="7.60001389320912" id="-5583">
		<tag k="name" v="Auksundet" />
		<tag k="natural" v="strait" />
		<tag k="ssr:stedsnr" v="291796" />
	</node>
	<node lat="63.04105555535211" lon="7.563850006464622" id="-5585">
		<tag k="name" v="Indre Tordøya" />
=======
	<node id="-79085" lat="63.1330722198" lon="7.31675833912">
		<tag k="name" v="Grunnkampen" />
		<tag k="natural" v="shoal" />
		<tag k="place" v="locality" />
		<tag k="ssr:stedsnr" v="959783" />
	</node>
	<node id="-79082" lat="63.0418861097" lon="7.67216111364">
		<tag k="name" v="Engvika" />
		<tag k="natural" v="cape" />
		<tag k="ssr:stedsnr" v="958980" />
	</node>
	<node id="-79078" lat="63.1362777809" lon="7.55361110964">
		<tag k="name" v="Indre Skjellingen" />
		<tag k="natural" v="shoal" />
		<tag k="place" v="locality" />
		<tag k="ssr:stedsnr" v="958847" />
	</node>
	<node id="-79073" lat="63.0303055561" lon="7.58711943703">
		<tag k="alt_name" v="Frantsvågleira;Frantsvågen" />
		<tag k="name" v="Fransvågleira" />
		<tag k="natural" v="bay" />
		<tag k="ssr:stedsnr" v="958224" />
	</node>
	<node id="-79072" lat="63.0183277745" lon="7.58255278737">
		<tag k="name" v="Omfarøya" />
		<tag k="place" v="island" />
		<tag k="ssr:stedsnr" v="958223" />
	</node>
	<node id="-79071" lat="63.1073666655" lon="7.57552777431">
		<tag k="name" v="Otterholmen" />
		<tag k="place" v="islet" />
		<tag k="ssr:stedsnr" v="957870" />
	</node>
	<node id="-79070" lat="63.0202833295" lon="7.3672249962">
		<tag k="name" v="Oksbåsen" />
		<tag k="natural" v="bay" />
		<tag k="ssr:stedsnr" v="957868" />
	</node>
	<node id="-79060" lat="63.084261111" lon="7.5692027696">
		<tag k="name" v="Litlrøssøya" />
>>>>>>> e1d4bc35ff8a6074a6f2e91616a996b547c36f15
		<tag k="place" v="island" />
		<tag k="ssr:stedsnr" v="293485" />
	</node>
<<<<<<< HEAD
	<node lat="63.05746944280204" lon="7.35782778202425" id="-5586">
		<tag k="name" v="Bararmskåkan" />
		<tag k="natural" v="shoal" />
		<tag k="place" v="locality" />
		<tag k="ssr:stedsnr" v="293674" />
	</node>
	<node lat="63.06403611418471" lon="7.335886118996156" id="-5587">
		<tag k="name" v="Myrgrunnan" />
		<tag k="natural" v="shoal" />
		<tag k="place" v="locality" />
		<tag k="ssr:stedsnr" v="293675" />
	</node>
	<node lat="63.06638333524725" lon="7.542452777409075" id="-5592">
		<tag k="name" v="Forøya" />
		<tag k="old_name" v="Furøya" />
=======
	<node id="-79059" lat="63.0750194416" lon="7.50529722172">
		<tag k="alt_name" v="Drågaskjæret" />
		<tag k="fixme" v="consider seamark:type=rock or natural=shoal" />
		<tag k="name" v="Sørdraga" />
		<tag k="place" v="islet" />
		<tag k="ssr:stedsnr" v="862726" />
	</node>
	<node id="-79058" lat="63.0815333298" lon="7.41498332978">
		<tag k="fixme" v="consider seamark:type=rock or natural=shoal" />
		<tag k="name" v="Litlsvortna" />
		<tag k="place" v="islet" />
		<tag k="ssr:stedsnr" v="862724" />
	</node>
	<node id="-79057" lat="63.0747277796" lon="7.48456667286">
		<tag k="fixme" v="consider seamark:type=rock or natural=shoal" />
		<tag k="name" v="Fluskjæret" />
>>>>>>> e1d4bc35ff8a6074a6f2e91616a996b547c36f15
		<tag k="place" v="islet" />
		<tag k="ssr:stedsnr" v="315509" />
	</node>
<<<<<<< HEAD
	<node lat="63.12739166678943" lon="7.4039555523219684" id="-5600">
		<tag k="name" v="Lønfallet" />
=======
	<node id="-79056" lat="63.1545138896" lon="7.52981110154">
		<tag k="name" v="Jakopan" />
>>>>>>> e1d4bc35ff8a6074a6f2e91616a996b547c36f15
		<tag k="natural" v="shoal" />
		<tag k="place" v="locality" />
		<tag k="ssr:stedsnr" v="316756" />
	</node>
<<<<<<< HEAD
	<node lat="63.131924996890035" lon="7.441813880661271" id="-5601">
		<tag k="fixme" v="consider seamark:type=rock or natural=shoal" />
		<tag k="name" v="Klubbtaren" />
		<tag k="place" v="islet" />
		<tag k="ssr:stedsnr" v="316758" />
	</node>
	<node lat="63.084252775566554" lon="7.491200001505867" id="-5602">
		<tag k="name" v="Hestskjæret" />
=======
	<node id="-79055" lat="63.111200004" lon="7.28890278292">
		<tag k="fixme" v="consider seamark:type=rock or natural=shoal" />
		<tag k="name" v="Oloverskjæra" />
		<tag k="place" v="islet" />
		<tag k="ssr:stedsnr" v="862700" />
	</node>
	<node id="-79052" lat="63.0179580561" lon="7.36813223158">
		<tag k="name" v="Lyngholmen" />
		<tag k="place" v="islet" />
		<tag k="ssr:stedsnr" v="862563" />
	</node>
	<node id="-79048" lat="63.0548138858" lon="7.50886666468">
		<tag k="name" v="Øysteinsbukta" />
		<tag k="natural" v="bay" />
		<tag k="ssr:stedsnr" v="862530" />
	</node>
	<node id="-79046" lat="63.0472611154" lon="7.55990277396">
		<tag k="name" v="Rundholmen" />
>>>>>>> e1d4bc35ff8a6074a6f2e91616a996b547c36f15
		<tag k="place" v="islet" />
		<tag k="ssr:stedsnr" v="470073" />
	</node>
<<<<<<< HEAD
	<node lat="63.0659833356546" lon="7.562836104187239" id="-5604">
		<tag k="name" v="Skjertangen" />
=======
	<node id="-79041" lat="63.0640972184" lon="7.55681666726">
		<tag k="name" v="Skjærneset" />
>>>>>>> e1d4bc35ff8a6074a6f2e91616a996b547c36f15
		<tag k="natural" v="cape" />
		<tag k="ssr:stedsnr" v="471227" />
	</node>
<<<<<<< HEAD
	<node lat="63.064786114863594" lon="7.523211115394749" id="-5605">
		<tag k="name" v="Steinholmen" />
		<tag k="place" v="island" />
		<tag k="ssr:stedsnr" v="471233" />
	</node>
	<node lat="63.064266667553206" lon="7.549969438042069" id="-5606">
		<tag k="name" v="Høgholmen" />
=======
	<node id="-79039" lat="63.0627021201" lon="7.48068303318">
		<tag k="name" v="Langøya" />
		<tag k="place" v="island" />
		<tag k="ssr:stedsnr" v="862485" />
	</node>
	<node id="-79038" lat="63.0599694401" lon="7.5117888857">
		<tag k="name" v="Bollneset" />
		<tag k="natural" v="cape" />
		<tag k="ssr:stedsnr" v="862483" />
	</node>
	<node id="-79034" lat="63.0243277813" lon="7.34939444205">
		<tag k="name" v="Langtaren" />
		<tag k="natural" v="shoal" />
		<tag k="place" v="locality" />
		<tag k="ssr:stedsnr" v="839826" />
	</node>
	<node id="-79033" lat="63.0514138887" lon="7.40208334212">
		<tag k="fixme" v="consider seamark:type=rock or natural=shoal" />
		<tag k="name" v="Gulhatten" />
>>>>>>> e1d4bc35ff8a6074a6f2e91616a996b547c36f15
		<tag k="place" v="islet" />
		<tag k="ssr:stedsnr" v="471234" />
	</node>
<<<<<<< HEAD
	<node lat="63.01687499968866" lon="7.353952779658472" id="-5607">
		<tag k="name" v="Storseisundet" />
		<tag k="natural" v="strait" />
		<tag k="ssr:stedsnr" v="338250" />
	</node>
	<node lat="63.100616666388795" lon="7.594311101882108" id="-5608">
		<tag k="name" v="Tangvika" />
		<tag k="natural" v="bay" />
		<tag k="ssr:stedsnr" v="471850" />
	</node>
	<node lat="63.018624998054946" lon="7.431408326553868" id="-5609">
		<tag k="name" v="Ytter Roaldsøysundet" />
		<tag k="natural" v="strait" />
		<tag k="ssr:stedsnr" v="472421" />
	</node>
	<node lat="63.11668611277245" lon="7.659161118081148" id="-5615">
		<tag k="alt_name" v="Kverven" />
		<tag k="name" v="Kverva" />
=======
	<node id="-79032" lat="63.0858818663" lon="7.50453178572">
		<tag k="fixme" v="consider seamark:type=rock or natural=shoal" />
		<tag k="name" v="Hestskjæra" />
		<tag k="place" v="islet" />
		<tag k="ssr:stedsnr" v="839722" />
	</node>
	<node id="-79031" lat="62.9398166667" lon="7.52922499288">
		<tag k="name" v="Spjutneset" />
		<tag k="natural" v="cape" />
		<tag k="ssr:stedsnr" v="839312" />
	</node>
	<node id="-79030" lat="62.9918555583" lon="7.71216667155">
		<tag k="name" v="Trøagrunnen" />
		<tag k="natural" v="shoal" />
		<tag k="place" v="locality" />
		<tag k="ssr:stedsnr" v="839266" />
	</node>
	<node id="-79029" lat="63.0944111108" lon="7.29529999149">
		<tag k="name" v="Eggeflua" />
>>>>>>> e1d4bc35ff8a6074a6f2e91616a996b547c36f15
		<tag k="natural" v="shoal" />
		<tag k="place" v="locality" />
		<tag k="ssr:stedsnr" v="473692" />
	</node>
<<<<<<< HEAD
	<node lat="63.07160833784041" lon="7.5205555633693715" id="-5618">
		<tag k="name" v="Inner Ramsøyholmen" />
		<tag k="place" v="islet" />
		<tag k="ssr:stedsnr" v="350224" />
	</node>
	<node lat="62.95697777386781" lon="7.480722219691929" id="-5619">
		<tag k="name" v="Steinsbogen" />
		<tag k="natural" v="bay" />
		<tag k="ssr:stedsnr" v="350455" />
	</node>
	<node lat="63.15441111344651" lon="7.385519447402793" id="-5622">
		<tag k="name" v="Langtarehaugan" />
=======
	<node id="-79028" lat="63.1017583308" lon="7.30923610155">
		<tag k="name" v="Nordre Eggeflusteinen" />
		<tag k="natural" v="shoal" />
		<tag k="place" v="locality" />
		<tag k="ssr:stedsnr" v="838887" />
	</node>
	<node id="-79027" lat="63.1254944479" lon="7.27634166243">
		<tag k="name" v="Stabbeflua" />
		<tag k="natural" v="shoal" />
		<tag k="place" v="locality" />
		<tag k="ssr:stedsnr" v="838822" />
	</node>
	<node id="-79026" lat="63.0868055586" lon="7.4112333412">
		<tag k="name" v="Kvitholmtaren" />
>>>>>>> e1d4bc35ff8a6074a6f2e91616a996b547c36f15
		<tag k="natural" v="shoal" />
		<tag k="place" v="locality" />
		<tag k="ssr:stedsnr" v="473949" />
	</node>
	<node lat="63.110024997735756" lon="7.667872215632611" id="-5628">
		<tag k="name" v="Steinneset" />
		<tag k="natural" v="cape" />
		<tag k="ssr:stedsnr" v="351964" />
	</node>
<<<<<<< HEAD
	<node lat="63.137561111203226" lon="7.372269437930062" id="-5629">
		<tag k="name" v="Hendtaren" />
		<tag k="natural" v="shoal" />
=======
	<node id="-79025" lat="63.0142527763" lon="7.72464445163">
		<tag k="name" v="Ragnhildegga" />
>>>>>>> e1d4bc35ff8a6074a6f2e91616a996b547c36f15
		<tag k="place" v="locality" />
		<tag k="ssr:stedsnr" v="352953" />
	</node>
<<<<<<< HEAD
	<node lat="63.15440555186726" lon="7.497838895058738" id="-5630">
		<tag k="name" v="Jakoptaren" />
=======
	<node id="-79024" lat="63.0463555558" lon="7.67437500928">
		<tag k="name" v="Steinsviktaren" />
>>>>>>> e1d4bc35ff8a6074a6f2e91616a996b547c36f15
		<tag k="natural" v="shoal" />
		<tag k="place" v="locality" />
		<tag k="ssr:stedsnr" v="352963" />
	</node>
<<<<<<< HEAD
	<node lat="63.030266667881236" lon="7.5559805510357565" id="-5631">
		<tag k="name" v="Sundsvøl" />
=======
	<node id="-79023" lat="63.0269805553" lon="7.67505555106">
		<tag k="name" v="Kjørsvikbukta" />
>>>>>>> e1d4bc35ff8a6074a6f2e91616a996b547c36f15
		<tag k="natural" v="bay" />
		<tag k="ssr:stedsnr" v="353470" />
	</node>
<<<<<<< HEAD
	<node lat="63.04148888750715" lon="7.360724990245935" id="-5632">
		<tag k="name" v="Sjurstaran" />
=======
	<node id="-79022" lat="63.1192083333" lon="7.64328333284">
		<tag k="name" v="Hildafallet" />
>>>>>>> e1d4bc35ff8a6074a6f2e91616a996b547c36f15
		<tag k="natural" v="shoal" />
		<tag k="place" v="locality" />
		<tag k="ssr:stedsnr" v="475832" />
	</node>
<<<<<<< HEAD
	<node lat="63.061408186169295" lon="7.588890843587776" id="-5635">
		<tag k="name" v="Aukan" />
		<tag k="natural" v="cape" />
		<tag k="ssr:stedsnr" v="376512" />
	</node>
	<node lat="63.06045278162007" lon="7.4531138851725265" id="-5636">
		<tag k="name" v="Busundet" />
=======
	<node id="-79021" lat="63.0525277811" lon="7.43879444232">
		<tag k="name" v="Hasløysundet" />
>>>>>>> e1d4bc35ff8a6074a6f2e91616a996b547c36f15
		<tag k="natural" v="strait" />
		<tag k="ssr:stedsnr" v="376520" />
	</node>
<<<<<<< HEAD
	<node lat="63.08164444496556" lon="7.5964916668938445" id="-5641">
		<tag k="name" v="Skjerneset" />
		<tag k="natural" v="cape" />
		<tag k="ssr:stedsnr" v="411805" />
	</node>
	<node lat="63.09796110886579" lon="7.573711118312102" id="-5642">
		<tag k="name" v="Båtvika" />
		<tag k="natural" v="bay" />
		<tag k="ssr:stedsnr" v="411833" />
	</node>
	<node lat="63.07496389052518" lon="7.491686106081263" id="-5644">
		<tag k="fixme" v="consider seamark:type=rock or natural=shoal" />
		<tag k="name" v="Langbakkskjeret" />
=======
	<node id="-79000" lat="63.1122138932" lon="7.58792777579">
		<tag k="name" v="Englan" />
>>>>>>> e1d4bc35ff8a6074a6f2e91616a996b547c36f15
		<tag k="place" v="islet" />
		<tag k="ssr:stedsnr" v="412312" />
	</node>
<<<<<<< HEAD
	<node lat="63.05835555419336" lon="7.493924998122243" id="-5648">
		<tag k="name" v="Krabbvågen" />
=======
	<node id="-78999" lat="63.1139166655" lon="7.62338889868">
		<tag k="name" v="Øksenvågen" />
>>>>>>> e1d4bc35ff8a6074a6f2e91616a996b547c36f15
		<tag k="natural" v="bay" />
		<tag k="ssr:stedsnr" v="414645" />
	</node>
<<<<<<< HEAD
	<node lat="63.060116666648355" lon="7.510180564168357" id="-5649">
		<tag k="name" v="Dropphammaren" />
		<tag k="natural" v="cape" />
		<tag k="ssr:stedsnr" v="414647" />
	</node>
	<node lat="63.065666664133225" lon="7.502947220760861" id="-5651">
		<tag k="name" v="Myrneset" />
		<tag k="natural" v="cape" />
		<tag k="ssr:stedsnr" v="437519" />
	</node>
	<node lat="63.0134305521142" lon="7.43008056097599" id="-5652">
		<tag k="name" v="Skovikneset" />
		<tag k="natural" v="cape" />
		<tag k="ssr:stedsnr" v="437598" />
	</node>
	<node lat="63.14133611111798" lon="7.472997229191364" id="-5654">
		<tag k="alt_name" v="Store Kråka" />
=======
	<node id="-78998" lat="63.1026277771" lon="7.58177777757">
		<tag k="name" v="Sveggøya" />
		<tag k="place" v="island" />
		<tag k="ssr:stedsnr" v="801671" />
	</node>
	<node id="-78996" lat="63.0479305517" lon="7.39894999644">
		<tag k="name" v="Sandøysundet" />
		<tag k="natural" v="strait" />
		<tag k="ssr:stedsnr" v="801539" />
	</node>
	<node id="-78994" lat="63.0440396087" lon="7.5575982338">
		<tag k="name" v="Tordøya" />
		<tag k="place" v="island" />
		<tag k="ssr:stedsnr" v="801535" />
	</node>
	<node id="-78993" lat="63.0383250005" lon="7.37311944864">
>>>>>>> e1d4bc35ff8a6074a6f2e91616a996b547c36f15
		<tag k="fixme" v="consider seamark:type=rock or natural=shoal" />
		<tag k="name" v="Kråka" />
		<tag k="place" v="islet" />
		<tag k="ssr:stedsnr" v="437716" />
	</node>
<<<<<<< HEAD
	<node lat="63.012669445809486" lon="7.418552786265241" id="-5659">
		<tag k="alt_name" v="Nordholmen" />
		<tag k="name" v="Kuholmen" />
		<tag k="place" v="islet" />
		<tag k="ssr:stedsnr" v="471474" />
	</node>
	<node lat="63.10886944800901" lon="7.579194439305691" id="-5660">
		<tag k="name" v="Engelneset" />
=======
	<node id="-78992" lat="63.0760888913" lon="7.66758332827">
		<tag k="name" v="Klubben" />
>>>>>>> e1d4bc35ff8a6074a6f2e91616a996b547c36f15
		<tag k="natural" v="cape" />
		<tag k="ssr:stedsnr" v="471867" />
	</node>
<<<<<<< HEAD
	<node lat="63.06390833240094" lon="7.465005550299747" id="-5665">
		<tag k="alt_name" v="Urvågen" />
		<tag k="name" v="Urdvågen" />
=======
	<node id="-78991" lat="63.0718499971" lon="7.5597027849">
		<tag k="name" v="Rakarvika" />
>>>>>>> e1d4bc35ff8a6074a6f2e91616a996b547c36f15
		<tag k="natural" v="bay" />
		<tag k="ssr:stedsnr" v="472317" />
	</node>
<<<<<<< HEAD
	<node lat="63.057933330471876" lon="7.395158336664514" id="-5674">
		<tag k="fixme" v="consider seamark:type=rock or natural=shoal" />
		<tag k="name" v="Aktensteinen" />
		<tag k="place" v="islet" />
		<tag k="ssr:stedsnr" v="475831" />
	</node>
	<node lat="63.0469361103709" lon="6.90392778067297" id="-5676">
		<tag k="bay" v="fjord" />
		<tag k="name" v="Hustadvika" />
=======
	<node id="-78981" lat="63.0057527821" lon="7.41702500265">
		<tag k="name" v="Storesvik" />
>>>>>>> e1d4bc35ff8a6074a6f2e91616a996b547c36f15
		<tag k="natural" v="bay" />
		<tag k="ssr:stedsnr" v="679056" />
	</node>
<<<<<<< HEAD
	<node lat="62.94003610717249" lon="7.483041659706029" id="-5681">
		<tag k="name" v="Rånesholmen" />
		<tag k="place" v="islet" />
		<tag k="ssr:stedsnr" v="679475" />
	</node>
	<node lat="63.07176944141083" lon="7.511983336542863" id="-5682">
		<tag k="name" v="Tjønnøya" />
		<tag k="place" v="island" />
		<tag k="ssr:stedsnr" v="679476" />
	</node>
	<node lat="63.03968333372689" lon="7.331500006719036" id="-5684">
		<tag k="fixme" v="consider seamark:type=rock or natural=shoal" />
		<tag k="name" v="Sleipskjæret" />
		<tag k="place" v="islet" />
		<tag k="ssr:stedsnr" v="679491" />
	</node>
	<node lat="63.04044166769682" lon="7.390008340362442" id="-5685">
		<tag k="fixme" v="consider seamark:type=rock or natural=shoal" />
		<tag k="name" v="Storsekken" />
		<tag k="place" v="islet" />
		<tag k="ssr:stedsnr" v="679493" />
	</node>
	<node lat="63.029652774664186" lon="7.4531055502111325" id="-5689">
		<tag k="name" v="Staurnesvågen" />
		<tag k="natural" v="bay" />
		<tag k="ssr:stedsnr" v="679544" />
	</node>
	<node lat="63.058219446819095" lon="7.592563894661668" id="-5691">
		<tag k="fixme" v="multiple name tags, choose one and add the other to alt_name" />
		<tag k="name" v="Auksundet;Gullurdsundet" />
		<tag k="natural" v="strait" />
		<tag k="ssr:stedsnr" v="680570" />
	</node>
	<node lat="63.10186111147149" lon="7.596774992435112" id="-5695">
		<tag k="name" v="Sveggesundet" />
		<tag k="natural" v="strait" />
		<tag k="ssr:stedsnr" v="680794" />
	</node>
	<node lat="63.01666666964556" lon="7.549999992496007" id="-5698">
		<tag k="name" v="Averøya" />
		<tag k="place" v="island" />
		<tag k="ssr:stedsnr" v="680928" />
	</node>
	<node lat="63.00102777682052" lon="7.390697214337755" id="-5704">
		<tag k="name" v="Kiperneset" />
=======
	<node id="-78980" lat="62.9846749975" lon="7.34565277538">
		<tag k="name" v="Jakthamngrunnan" />
		<tag k="natural" v="shoal" />
		<tag k="place" v="locality" />
		<tag k="ssr:stedsnr" v="778699" />
	</node>
	<node id="-78979" lat="63.1363500021" lon="7.403783338">
		<tag k="name" v="Sjursbogtaran" />
		<tag k="natural" v="shoal" />
		<tag k="place" v="locality" />
		<tag k="ssr:stedsnr" v="777951" />
	</node>
	<node id="-78977" lat="63.074619448" lon="7.3603055466">
		<tag k="name" v="Helbogsteinen" />
		<tag k="natural" v="shoal" />
		<tag k="place" v="locality" />
		<tag k="ssr:stedsnr" v="777811" />
	</node>
	<node id="-78976" lat="63.0812555543" lon="7.42460556233">
		<tag k="name" v="Austklakken" />
		<tag k="natural" v="shoal" />
		<tag k="place" v="locality" />
		<tag k="ssr:stedsnr" v="777769" />
	</node>
	<node id="-78975" lat="63.0706833342" lon="7.45081111577">
		<tag k="name" v="Buasundfallet" />
		<tag k="natural" v="shoal" />
		<tag k="place" v="locality" />
		<tag k="ssr:stedsnr" v="777768" />
	</node>
	<node id="-78974" lat="63.0784916671" lon="7.67366945276">
		<tag k="name" v="Smedbukttaren" />
		<tag k="natural" v="shoal" />
		<tag k="place" v="locality" />
		<tag k="ssr:stedsnr" v="777652" />
	</node>
	<node id="-78973" lat="63.0631277772" lon="7.59848055677">
		<tag k="alt_name" v="Aukneset" />
		<tag k="name" v="Nør Aukan" />
		<tag k="natural" v="cape" />
		<tag k="ssr:stedsnr" v="776781" />
	</node>
	<node id="-78972" lat="63.1140217767" lon="7.6297485096">
		<tag k="name" v="Geitaholmen" />
		<tag k="place" v="islet" />
		<tag k="ssr:stedsnr" v="776970" />
	</node>
	<node id="-78969" lat="63.1041694428" lon="7.65813333799">
		<tag k="name" v="Vorpneset" />
>>>>>>> e1d4bc35ff8a6074a6f2e91616a996b547c36f15
		<tag k="natural" v="cape" />
		<tag k="ssr:stedsnr" v="497393" />
	</node>
<<<<<<< HEAD
	<node lat="63.03926570468661" lon="7.587056322174184" id="-5706">
		<tag k="name" v="Sildvika" />
		<tag k="natural" v="bay" />
		<tag k="ssr:stedsnr" v="497522" />
	</node>
	<node lat="63.069511108191016" lon="7.4605305605994445" id="-5707">
		<tag k="fixme" v="consider seamark:type=rock or natural=shoal" />
		<tag k="name" v="Flatskjæret" />
=======
	<node id="-78961" lat="63.0594472184" lon="7.56033332474">
		<tag k="name" v="Gjengstøholmen" />
>>>>>>> e1d4bc35ff8a6074a6f2e91616a996b547c36f15
		<tag k="place" v="islet" />
		<tag k="ssr:stedsnr" v="497714" />
	</node>
<<<<<<< HEAD
	<node lat="63.07899166489349" lon="7.563972220732217" id="-5708">
		<tag k="alt_name" v="Storneset" />
		<tag k="name" v="Stavneset" />
		<tag k="natural" v="cape" />
		<tag k="ssr:stedsnr" v="497716" />
	</node>
	<node lat="63.07188888606923" lon="7.559838891082234" id="-5709">
		<tag k="name" v="Haltvika" />
=======
	<node id="-78959" lat="63.0407388845" lon="7.55742500615">
		<tag k="name" v="Klubbsundet" />
		<tag k="natural" v="strait" />
		<tag k="ssr:stedsnr" v="775767" />
	</node>
	<node id="-78950" lat="63.0938916645" lon="7.70232499022">
		<tag k="bay" v="fjord" />
		<tag k="name" v="Bremsnesfjorden" />
>>>>>>> e1d4bc35ff8a6074a6f2e91616a996b547c36f15
		<tag k="natural" v="bay" />
		<tag k="ssr:stedsnr" v="497717" />
	</node>
<<<<<<< HEAD
	<node lat="63.08108889272504" lon="7.513044450241567" id="-5710">
		<tag k="fixme" v="consider seamark:type=rock or natural=shoal" />
		<tag k="name" v="Tennskjæret" />
		<tag k="place" v="islet" />
		<tag k="ssr:stedsnr" v="497721" />
	</node>
	<node lat="63.05481666767217" lon="7.451255548461228" id="-5714">
		<tag k="name" v="Storvikholmen" />
=======
	<node id="-78944" lat="63.0041444437" lon="7.35154167595">
		<tag k="bay" v="fjord" />
		<tag k="name" v="Lauvøyfjorden" />
		<tag k="natural" v="bay" />
		<tag k="ssr:stedsnr" v="740383" />
	</node>
	<node id="-78939" lat="63.1131194465" lon="7.62450277145">
		<tag k="name" v="Holmen" />
>>>>>>> e1d4bc35ff8a6074a6f2e91616a996b547c36f15
		<tag k="place" v="islet" />
		<tag k="ssr:stedsnr" v="532396" />
	</node>
<<<<<<< HEAD
	<node lat="62.968133331871755" lon="7.426969445300211" id="-5717">
		<tag k="name" v="Nasvikbogen" />
=======
	<node id="-78938" lat="63.1073166626" lon="7.66082499559">
		<tag k="name" v="Båtbukta" />
>>>>>>> e1d4bc35ff8a6074a6f2e91616a996b547c36f15
		<tag k="natural" v="bay" />
		<tag k="ssr:stedsnr" v="532476" />
	</node>
<<<<<<< HEAD
	<node lat="63.0544750026254" lon="7.507008333610761" id="-5719">
		<tag k="name" v="Hendbukta" />
=======
	<node id="-78937" lat="63.1084555592" lon="7.66426387906">
		<tag k="name" v="Omnbukta" />
>>>>>>> e1d4bc35ff8a6074a6f2e91616a996b547c36f15
		<tag k="natural" v="bay" />
		<tag k="ssr:stedsnr" v="532797" />
	</node>
<<<<<<< HEAD
	<node lat="62.93562500454416" lon="7.502975009287511" id="-5725">
		<tag k="name" v="Håkonsrøysa" />
		<tag k="natural" v="cape" />
		<tag k="ssr:stedsnr" v="536308" />
	</node>
	<node lat="63.12471666941874" lon="7.392938887096753" id="-5736">
		<tag k="fixme" v="consider seamark:type=rock or natural=shoal" />
		<tag k="name" v="Synstramnen" />
		<tag k="place" v="islet" />
		<tag k="ssr:stedsnr" v="558744" />
	</node>
	<node lat="63.071702778288646" lon="7.502488890495021" id="-5739">
		<tag k="name" v="Honningsøysvaet" />
		<tag k="place" v="island" />
		<tag k="ssr:stedsnr" v="592261" />
	</node>
	<node lat="63.046091670632244" lon="7.564250003732404" id="-5740">
		<tag k="name" v="Torøysundet" />
=======
	<node id="-78936" lat="63.0204361101" lon="7.68311667645">
		<tag k="name" v="Gressvikbukta" />
		<tag k="natural" v="bay" />
		<tag k="ssr:stedsnr" v="654941" />
	</node>
	<node id="-78934" lat="62.95035833" lon="7.491272218">
		<tag k="name" v="Litl-Rånesbogen" />
		<tag k="natural" v="bay" />
		<tag k="ssr:stedsnr" v="654886" />
	</node>
	<node id="-78928" lat="63.0612222219" lon="7.4602666695">
		<tag k="name" v="Ostertjørna" />
		<tag k="natural" v="bay" />
		<tag k="ssr:stedsnr" v="654342" />
	</node>
	<node id="-78926" lat="63.0589916634" lon="7.45426667377">
		<tag k="name" v="Busundet" />
>>>>>>> e1d4bc35ff8a6074a6f2e91616a996b547c36f15
		<tag k="natural" v="strait" />
		<tag k="ssr:stedsnr" v="592807" />
	</node>
<<<<<<< HEAD
	<node lat="63.05691110940493" lon="7.5717555479688805" id="-5741">
		<tag k="name" v="Sør-Aukneset" />
=======
	<node id="-78923" lat="63.108869448" lon="7.57919443931">
		<tag k="name" v="Skåråhammaren" />
>>>>>>> e1d4bc35ff8a6074a6f2e91616a996b547c36f15
		<tag k="natural" v="cape" />
		<tag k="ssr:stedsnr" v="592808" />
	</node>
<<<<<<< HEAD
	<node lat="63.03417499837998" lon="7.58286389383214" id="-5743">
		<tag k="name" v="Lensmannsvika" />
		<tag k="natural" v="bay" />
		<tag k="ssr:stedsnr" v="594208" />
	</node>
	<node lat="63.10314722164259" lon="7.2769500004394905" id="-5746">
		<tag k="name" v="Buholmen" />
=======
	<node id="-78919" lat="63.0887555536" lon="7.5158833275">
		<tag k="name" v="Slikingan" />
		<tag k="place" v="islet" />
		<tag k="ssr:stedsnr" v="619769" />
	</node>
	<node id="-78918" lat="63.1161583354" lon="7.22330276802">
		<tag k="fixme" v="consider seamark:type=rock or natural=shoal" />
		<tag k="name" v="Orskjæra" />
>>>>>>> e1d4bc35ff8a6074a6f2e91616a996b547c36f15
		<tag k="place" v="islet" />
		<tag k="ssr:stedsnr" v="594949" />
	</node>
<<<<<<< HEAD
	<node lat="63.1024111100458" lon="7.657641668431862" id="-5747">
		<tag k="name" v="Vorpbukta" />
=======
	<node id="-78915" lat="63.0119444426" lon="7.57025832652">
		<tag k="name" v="Bafjorden" />
>>>>>>> e1d4bc35ff8a6074a6f2e91616a996b547c36f15
		<tag k="natural" v="bay" />
		<tag k="ssr:stedsnr" v="594954" />
	</node>
<<<<<<< HEAD
	<node lat="63.06791666230667" lon="7.611788885622663" id="-5752">
		<tag k="name" v="Rognvikgrunnen" />
		<tag k="natural" v="shoal" />
		<tag k="place" v="locality" />
		<tag k="ssr:stedsnr" v="596554" />
	</node>
	<node lat="63.10241669747688" lon="7.576855700843035" id="-5753">
		<tag k="name" v="Raudegga" />
		<tag k="natural" v="cape" />
		<tag k="ssr:stedsnr" v="605321" />
	</node>
	<node lat="63.04529999877542" lon="7.43406945152011" id="-5755">
		<tag k="name" v="Henda" />
=======
	<node id="-78914" lat="63.015483337" lon="7.5776722129">
		<tag k="name" v="Kalvøya" />
		<tag k="place" v="islet" />
		<tag k="ssr:stedsnr" v="619629" />
	</node>
	<node id="-78911" lat="63.0564029633" lon="7.4368684687">
		<tag k="name" v="Hasløya" />
>>>>>>> e1d4bc35ff8a6074a6f2e91616a996b547c36f15
		<tag k="place" v="island" />
		<tag k="ssr:stedsnr" v="618542" />
	</node>
<<<<<<< HEAD
	<node lat="63.08250832958441" lon="7.52435832955603" id="-5756">
		<tag k="name" v="Rotholman" />
		<tag k="place" v="islet" />
		<tag k="ssr:stedsnr" v="618705" />
	</node>
	<node lat="63.081475003530706" lon="7.5422305650777455" id="-5758">
=======
	<node id="-78910" lat="63.0729666677" lon="7.64110000668">
		<tag k="name" v="Kjerkevågen" />
		<tag k="natural" v="bay" />
		<tag k="ssr:stedsnr" v="619562" />
	</node>
	<node id="-78908" lat="63.0814750035" lon="7.54223056508">
>>>>>>> e1d4bc35ff8a6074a6f2e91616a996b547c36f15
		<tag k="name" v="Orøya" />
		<tag k="place" v="island" />
		<tag k="ssr:stedsnr" v="618711" />
	</node>
<<<<<<< HEAD
	<node lat="63.08875555363652" lon="7.5158833275005446" id="-5761">
		<tag k="name" v="Slikingan" />
=======
	<node id="-78906" lat="63.0825083296" lon="7.52435832956">
		<tag k="name" v="Rotholman" />
>>>>>>> e1d4bc35ff8a6074a6f2e91616a996b547c36f15
		<tag k="place" v="islet" />
		<tag k="ssr:stedsnr" v="619769" />
	</node>
<<<<<<< HEAD
	<node lat="62.99296944872515" lon="7.355783338757444" id="-5764">
		<tag k="name" v="Trovikholman" />
=======
	<node id="-78905" lat="63.0787222199" lon="7.54383610532">
		<tag k="name" v="Reipholmen" />
>>>>>>> e1d4bc35ff8a6074a6f2e91616a996b547c36f15
		<tag k="place" v="islet" />
		<tag k="ssr:stedsnr" v="619914" />
	</node>
<<<<<<< HEAD
	<node lat="63.03421389054931" lon="7.412341668886213" id="-5767">
		<tag k="name" v="Høgrisholmen" />
=======
	<node id="-78904" lat="63.0787000823" lon="7.53552437589">
		<tag k="name" v="Nørd-Ramsøya" />
>>>>>>> e1d4bc35ff8a6074a6f2e91616a996b547c36f15
		<tag k="place" v="islet" />
		<tag k="ssr:stedsnr" v="654441" />
	</node>
<<<<<<< HEAD
	<node lat="63.02283888601199" lon="7.402155561572157" id="-5768">
		<tag k="name" v="Klauvsundet" />
		<tag k="natural" v="strait" />
		<tag k="ssr:stedsnr" v="654442" />
	</node>
	<node lat="63.06122222191326" lon="7.460266669501369" id="-5769">
		<tag k="name" v="Ostertjørna" />
		<tag k="natural" v="bay" />
		<tag k="ssr:stedsnr" v="654342" />
	</node>
	<node lat="63.0204361100697" lon="7.683116676453997" id="-5770">
		<tag k="name" v="Gressvikbukta" />
		<tag k="natural" v="bay" />
		<tag k="ssr:stedsnr" v="654941" />
	</node>
	<node lat="62.95035833002178" lon="7.491272217995903" id="-5771">
		<tag k="name" v="Litl-Rånesbogen" />
=======
	<node id="-78903" lat="63.0773305567" lon="7.66010000971">
		<tag k="name" v="Smedvågen" />
		<tag k="natural" v="bay" />
		<tag k="ssr:stedsnr" v="618695" />
	</node>
	<node id="-78901" lat="63.0607111156" lon="7.53300277582">
		<tag k="name" v="Hendvika" />
		<tag k="natural" v="bay" />
		<tag k="ssr:stedsnr" v="618547" />
	</node>
	<node id="-78900" lat="63.0452999988" lon="7.43406945152">
		<tag k="name" v="Henda" />
		<tag k="place" v="island" />
		<tag k="ssr:stedsnr" v="618542" />
	</node>
	<node id="-78899" lat="63.0438027738" lon="7.38574722232">
		<tag k="name" v="Hattan" />
		<tag k="place" v="islet" />
		<tag k="ssr:stedsnr" v="618525" />
	</node>
	<node id="-78898" lat="63.067758333" lon="7.56106944621">
		<tag k="name" v="Breivika" />
>>>>>>> e1d4bc35ff8a6074a6f2e91616a996b547c36f15
		<tag k="natural" v="bay" />
		<tag k="ssr:stedsnr" v="654886" />
	</node>
<<<<<<< HEAD
	<node lat="63.10886944800901" lon="7.579194439305691" id="-5774">
		<tag k="name" v="Skåråhammaren" />
=======
	<node id="-78894" lat="63.1024166975" lon="7.57685570084">
		<tag k="name" v="Raudegga" />
>>>>>>> e1d4bc35ff8a6074a6f2e91616a996b547c36f15
		<tag k="natural" v="cape" />
		<tag k="ssr:stedsnr" v="655193" />
	</node>
<<<<<<< HEAD
	<node lat="63.08255555693344" lon="7.325102773339402" id="-5776">
		<tag k="name" v="Leitaren" />
=======
	<node id="-78892" lat="63.0510083363" lon="7.38060277338">
		<tag k="name" v="Grimen" />
>>>>>>> e1d4bc35ff8a6074a6f2e91616a996b547c36f15
		<tag k="natural" v="shoal" />
		<tag k="place" v="locality" />
		<tag k="ssr:stedsnr" v="655835" />
	</node>
<<<<<<< HEAD
	<node lat="63.0732083333938" lon="7.5046999925519735" id="-5777">
		<tag k="name" v="Knutholmen" />
		<tag k="place" v="islet" />
		<tag k="ssr:stedsnr" v="657708" />
	</node>
	<node lat="63.07691666642469" lon="7.601636107922746" id="-5782">
		<tag k="name" v="Åkviksundet" />
		<tag k="natural" v="strait" />
		<tag k="ssr:stedsnr" v="679709" />
	</node>
	<node lat="63.08545833200176" lon="7.627919444840333" id="-5783">
		<tag k="name" v="Gjengstøa" />
		<tag k="natural" v="bay" />
		<tag k="ssr:stedsnr" v="679714" />
	</node>
	<node lat="63.104763886192124" lon="7.654419442329723" id="-5786">
		<tag k="name" v="Seterbukta" />
=======
	<node id="-78891" lat="63.0058972206" lon="7.40034722429">
		<tag k="name" v="Roholmen" />
		<tag k="place" v="islet" />
		<tag k="ssr:stedsnr" v="596794" />
	</node>
	<node id="-78890" lat="63.0542722218" lon="7.3490444495">
		<tag k="name" v="Bararman" />
		<tag k="natural" v="shoal" />
		<tag k="place" v="locality" />
		<tag k="ssr:stedsnr" v="596639" />
	</node>
	<node id="-78889" lat="63.0679166623" lon="7.61178888562">
		<tag k="name" v="Rognvikgrunnen" />
		<tag k="natural" v="shoal" />
		<tag k="place" v="locality" />
		<tag k="ssr:stedsnr" v="596554" />
	</node>
	<node id="-78888" lat="63.0449416696" lon="7.55940555485">
		<tag k="name" v="Ytre Tordøya" />
		<tag k="place" v="island" />
		<tag k="ssr:stedsnr" v="596440" />
	</node>
	<node id="-78883" lat="63.0937277748" lon="7.62584166463">
		<tag k="name" v="Kobbevikbukta" />
>>>>>>> e1d4bc35ff8a6074a6f2e91616a996b547c36f15
		<tag k="natural" v="bay" />
		<tag k="ssr:stedsnr" v="680729" />
	</node>
<<<<<<< HEAD
	<node lat="62.98827499588362" lon="7.359661103975375" id="-5787">
		<tag k="name" v="Trovika" />
=======
	<node id="-78882" lat="63.1129444444" lon="7.6421388826">
		<tag k="name" v="Litløksenvågen" />
>>>>>>> e1d4bc35ff8a6074a6f2e91616a996b547c36f15
		<tag k="natural" v="bay" />
		<tag k="ssr:stedsnr" v="688642" />
	</node>
	<node lat="63.114574996100984" lon="7.664711109035058" id="-5792">
		<tag k="name" v="Stavneset" />
		<tag k="natural" v="cape" />
		<tag k="ssr:stedsnr" v="895091" />
	</node>
<<<<<<< HEAD
	<node lat="63.04044721790631" lon="7.490336102402873" id="-5794">
=======
	<node id="-78881" lat="63.128794448" lon="7.4266111167">
>>>>>>> e1d4bc35ff8a6074a6f2e91616a996b547c36f15
		<tag k="fixme" v="consider seamark:type=rock or natural=shoal" />
		<tag k="name" v="Selvågskjeret" />
		<tag k="place" v="islet" />
<<<<<<< HEAD
		<tag k="ssr:stedsnr" v="897362" />
	</node>
	<node lat="63.08181271475077" lon="7.603114938664903" id="-5799">
		<tag k="alt_name" v="Mannsholman" />
		<tag k="name" v="Mannsholmen" />
=======
		<tag k="ssr:stedsnr" v="594967" />
	</node>
	<node id="-78880" lat="63.1507750027" lon="7.42938889057">
		<tag k="name" v="Kofttaren" />
		<tag k="natural" v="shoal" />
		<tag k="place" v="locality" />
		<tag k="ssr:stedsnr" v="594965" />
	</node>
	<node id="-78879" lat="63.10241111" lon="7.65764166843">
		<tag k="name" v="Vorpbukta" />
		<tag k="natural" v="bay" />
		<tag k="ssr:stedsnr" v="594954" />
	</node>
	<node id="-78878" lat="63.1031472216" lon="7.27695000044">
		<tag k="name" v="Buholmen" />
>>>>>>> e1d4bc35ff8a6074a6f2e91616a996b547c36f15
		<tag k="place" v="islet" />
		<tag k="ssr:stedsnr" v="897785" />
	</node>
<<<<<<< HEAD
	<node lat="63.0600833294986" lon="7.416258334721209" id="-5800">
		<tag k="name" v="Storholmen" />
		<tag k="place" v="islet" />
		<tag k="ssr:stedsnr" v="897834" />
	</node>
	<node lat="63.102258336250735" lon="7.567588892304824" id="-5801">
		<tag k="name" v="Indre Litlraudegga" />
		<tag k="place" v="islet" />
		<tag k="ssr:stedsnr" v="897802" />
	</node>
	<node lat="63.10213055116627" lon="7.557408331799113" id="-5802">
		<tag k="fixme" v="multiple name tags, choose one and add the other to alt_name" />
		<tag k="name" v="Raudeggflua;Raudeggtaren" />
=======
	<node id="-78873" lat="63.0220194404" lon="7.37897500122">
		<tag k="name" v="Grisen" />
		<tag k="place" v="islet" />
		<tag k="ssr:stedsnr" v="594430" />
	</node>
	<node id="-78872" lat="63.0659361099" lon="7.48298334112">
		<tag k="name" v="Langbakkleira" />
		<tag k="natural" v="shoal" />
		<tag k="place" v="locality" />
		<tag k="ssr:stedsnr" v="594341" />
	</node>
	<node id="-78869" lat="63.0341749984" lon="7.58286389383">
		<tag k="name" v="Lensmannsvika" />
		<tag k="natural" v="bay" />
		<tag k="ssr:stedsnr" v="594208" />
	</node>
	<node id="-78868" lat="63.0744777784" lon="7.47879999749">
		<tag k="name" v="Flua" />
>>>>>>> e1d4bc35ff8a6074a6f2e91616a996b547c36f15
		<tag k="natural" v="shoal" />
		<tag k="place" v="locality" />
		<tag k="ssr:stedsnr" v="898172" />
	</node>
<<<<<<< HEAD
	<node lat="63.042980555015966" lon="7.423986107820774" id="-5803">
		<tag k="name" v="Gaupsundet" />
		<tag k="natural" v="strait" />
		<tag k="ssr:stedsnr" v="898333" />
	</node>
	<node lat="63.06743888567965" lon="7.507449997953036" id="-5804">
		<tag k="name" v="Tjønnøyneset" />
=======
	<node id="-78867" lat="63.0182166633" lon="7.36054167601">
		<tag k="name" v="Litlsundet" />
		<tag k="natural" v="strait" />
		<tag k="ssr:stedsnr" v="593828" />
	</node>
	<node id="-78866" lat="62.984199999" lon="7.35663054668">
		<tag k="name" v="Grønbukta" />
		<tag k="natural" v="bay" />
		<tag k="ssr:stedsnr" v="593821" />
	</node>
	<node id="-78855" lat="63.0569111094" lon="7.57175554797">
		<tag k="name" v="Sør-Aukneset" />
>>>>>>> e1d4bc35ff8a6074a6f2e91616a996b547c36f15
		<tag k="natural" v="cape" />
		<tag k="ssr:stedsnr" v="714194" />
	</node>
<<<<<<< HEAD
	<node lat="63.08265556007549" lon="7.532991674238375" id="-5805">
		<tag k="alt_name" v="Ramsøysundet" />
		<tag k="name" v="Nord Ramsøysundet" />
		<tag k="natural" v="strait" />
		<tag k="ssr:stedsnr" v="714201" />
	</node>
	<node lat="63.07702777475974" lon="7.670866670731686" id="-5806">
		<tag k="name" v="Klubbtaren" />
=======
	<node id="-78854" lat="63.0460916706" lon="7.56425000373">
		<tag k="name" v="Torøysundet" />
		<tag k="natural" v="strait" />
		<tag k="ssr:stedsnr" v="592807" />
	</node>
	<node id="-78853" lat="63.0717027783" lon="7.5024888905">
		<tag k="name" v="Honningsøysvaet" />
		<tag k="place" v="island" />
		<tag k="ssr:stedsnr" v="592261" />
	</node>
	<node id="-78852" lat="63.1478583299" lon="7.51453055898">
		<tag k="name" v="Krabbrumsfalla" />
>>>>>>> e1d4bc35ff8a6074a6f2e91616a996b547c36f15
		<tag k="natural" v="shoal" />
		<tag k="place" v="locality" />
		<tag k="ssr:stedsnr" v="898641" />
	</node>
<<<<<<< HEAD
	<node lat="63.087847224465015" lon="7.6231388829636435" id="-5807">
		<tag k="name" v="Gjengstøhammaren" />
		<tag k="natural" v="cape" />
		<tag k="ssr:stedsnr" v="898848" />
	</node>
	<node lat="63.10386388462513" lon="7.560155556017129" id="-5810">
		<tag k="name" v="Raudegghammaren" />
		<tag k="natural" v="cape" />
		<tag k="ssr:stedsnr" v="716206" />
	</node>
	<node lat="63.02219166448396" lon="7.684577770972182" id="-5811">
=======
	<node id="-78851" lat="63.0818527775" lon="7.66595277285">
		<tag k="name" v="Lystadleira" />
		<tag k="natural" v="bay" />
		<tag k="ssr:stedsnr" v="654995" />
	</node>
	<node id="-78848" lat="63.1247166694" lon="7.3929388871">
>>>>>>> e1d4bc35ff8a6074a6f2e91616a996b547c36f15
		<tag k="fixme" v="consider seamark:type=rock or natural=shoal" />
		<tag k="name" v="Trettvikskjæret" />
		<tag k="place" v="islet" />
		<tag k="ssr:stedsnr" v="716452" />
	</node>
	<node lat="63.09644166289531" lon="7.620591661102283" id="-5813">
		<tag k="name" v="Kuneset" />
		<tag k="natural" v="cape" />
		<tag k="ssr:stedsnr" v="716709" />
	</node>
<<<<<<< HEAD
	<node lat="63.07913610792318" lon="7.374505547231778" id="-5814">
=======
	<node id="-78847" lat="63.1133833296" lon="7.36126944149">
>>>>>>> e1d4bc35ff8a6074a6f2e91616a996b547c36f15
		<tag k="bay" v="fjord" />
		<tag k="name" v="Helbogleia" />
		<tag k="natural" v="bay" />
		<tag k="ssr:stedsnr" v="716828" />
	</node>
<<<<<<< HEAD
	<node lat="63.07271666333152" lon="7.354969443621682" id="-5815">
		<tag k="name" v="Helboghytta" />
		<tag k="natural" v="shoal" />
		<tag k="place" v="locality" />
		<tag k="ssr:stedsnr" v="716834" />
	</node>
	<node lat="63.12372222611711" lon="7.249672231600442" id="-5816">
		<tag k="name" v="Stabbetaren" />
		<tag k="natural" v="shoal" />
		<tag k="place" v="locality" />
		<tag k="ssr:stedsnr" v="899152" />
	</node>
	<node lat="62.94460833702991" lon="7.464930553592183" id="-5817">
		<tag k="name" v="Midtgrunnen" />
		<tag k="natural" v="shoal" />
		<tag k="place" v="locality" />
		<tag k="ssr:stedsnr" v="718313" />
	</node>
	<node lat="63.003822221461114" lon="7.39216666946325" id="-5818">
		<tag k="name" v="Kuholmtaren" />
		<tag k="natural" v="shoal" />
		<tag k="place" v="locality" />
		<tag k="ssr:stedsnr" v="718804" />
	</node>
	<node lat="63.0155305546142" lon="7.355641662806133" id="-5819">
		<tag k="name" v="Seiskjærsundet" />
		<tag k="natural" v="strait" />
		<tag k="ssr:stedsnr" v="718805" />
	</node>
	<node lat="62.9812861072059" lon="7.337694451648245" id="-5822">
		<tag k="name" v="Tøvikholmgrunnan" />
		<tag k="natural" v="shoal" />
		<tag k="place" v="locality" />
		<tag k="ssr:stedsnr" v="899726" />
	</node>
	<node lat="63.043516670457116" lon="7.56843611360536" id="-5823">
=======
	<node id="-78844" lat="63.0874861109" lon="7.35916388077">
		<tag k="fixme" v="consider seamark:type=rock or natural=shoal" />
		<tag k="name" v="Midtfjordsfallet" />
		<tag k="place" v="islet" />
		<tag k="ssr:stedsnr" v="558781" />
	</node>
	<node id="-78838" lat="63.0576555583" lon="7.55446388223">
		<tag k="fixme" v="multiple name tags, choose one and add the other to alt_name" />
		<tag k="name" v="Lauvøya;Låvøya" />
		<tag k="place" v="islet" />
		<tag k="ssr:stedsnr" v="558535" />
	</node>
	<node id="-78835" lat="63.0533388885" lon="7.56421388049">
		<tag k="name" v="Grindøya" />
		<tag k="place" v="islet" />
		<tag k="ssr:stedsnr" v="558581" />
	</node>
	<node id="-78834" lat="63.0523972213" lon="7.55203332617">
		<tag k="name" v="Sandholman" />
		<tag k="place" v="islet" />
		<tag k="ssr:stedsnr" v="558580" />
	</node>
	<node id="-78831" lat="63.0449611134" lon="7.47735000141">
		<tag k="fixme" v="consider seamark:type=rock or natural=shoal" />
		<tag k="name" v="Draget" />
		<tag k="place" v="islet" />
		<tag k="ssr:stedsnr" v="558567" />
	</node>
	<node id="-78823" lat="63.0665527802" lon="7.50432777051">
		<tag k="fixme" v="consider seamark:type=rock or natural=shoal" />
		<tag k="name" v="Hattskjæret" />
		<tag k="place" v="islet" />
		<tag k="ssr:stedsnr" v="536748" />
	</node>
	<node id="-78822" lat="63.0666638878" lon="7.44118889215">
>>>>>>> e1d4bc35ff8a6074a6f2e91616a996b547c36f15
		<tag k="fixme" v="consider seamark:type=rock or natural=shoal" />
		<tag k="name" v="Tordøyskjæra" />
		<tag k="place" v="islet" />
		<tag k="ssr:stedsnr" v="900449" />
	</node>
<<<<<<< HEAD
	<node lat="63.03724721816791" lon="7.4261500072618025" id="-5824">
		<tag k="name" v="Seterneset" />
=======
	<node id="-78821" lat="62.9356250045" lon="7.50297500929">
		<tag k="name" v="Håkonsrøysa" />
>>>>>>> e1d4bc35ff8a6074a6f2e91616a996b547c36f15
		<tag k="natural" v="cape" />
		<tag k="ssr:stedsnr" v="900842" />
	</node>
<<<<<<< HEAD
	<node lat="63.04073888454712" lon="7.557425006147272" id="-5833">
		<tag k="name" v="Klubbsundet" />
		<tag k="natural" v="strait" />
		<tag k="ssr:stedsnr" v="775767" />
	</node>
	<node lat="63.07046944695758" lon="7.48086943749388" id="-5838">
		<tag k="name" v="Reksundet" />
		<tag k="natural" v="strait" />
		<tag k="ssr:stedsnr" v="776312" />
	</node>
	<node lat="63.078491667062394" lon="7.673669452763759" id="-5840">
		<tag k="name" v="Smedbukttaren" />
=======
	<node id="-78820" lat="63.0417611127" lon="7.58303611185">
		<tag k="name" v="Ytre Sildevika" />
		<tag k="natural" v="bay" />
		<tag k="ssr:stedsnr" v="536443" />
	</node>
	<node id="-78819" lat="63.1364444412" lon="7.54378333258">
		<tag k="name" v="Midttaren" />
>>>>>>> e1d4bc35ff8a6074a6f2e91616a996b547c36f15
		<tag k="natural" v="shoal" />
		<tag k="place" v="locality" />
		<tag k="ssr:stedsnr" v="777652" />
	</node>
<<<<<<< HEAD
	<node lat="63.07461944801014" lon="7.3603055466003875" id="-5841">
		<tag k="name" v="Helbogsteinen" />
=======
	<node id="-78818" lat="63.0726083351" lon="7.45775555627">
		<tag k="name" v="Flatskjærbåen" />
>>>>>>> e1d4bc35ff8a6074a6f2e91616a996b547c36f15
		<tag k="natural" v="shoal" />
		<tag k="place" v="locality" />
		<tag k="ssr:stedsnr" v="777811" />
	</node>
<<<<<<< HEAD
	<node lat="62.96111389216732" lon="7.465386112909503" id="-5842">
		<tag k="name" v="Haganeset" />
		<tag k="natural" v="cape" />
		<tag k="ssr:stedsnr" v="778309" />
	</node>
	<node lat="62.98467499752828" lon="7.345652775376446" id="-5843">
		<tag k="name" v="Jakthamngrunnan" />
=======
	<node id="-78817" lat="63.0917277801" lon="7.53306388441">
		<tag k="name" v="Tikfallet" />
>>>>>>> e1d4bc35ff8a6074a6f2e91616a996b547c36f15
		<tag k="natural" v="shoal" />
		<tag k="place" v="locality" />
		<tag k="ssr:stedsnr" v="778699" />
	</node>
<<<<<<< HEAD
	<node lat="63.00575278212868" lon="7.417025002653905" id="-5844">
		<tag k="name" v="Storesvik" />
=======
	<node id="-78806" lat="63.0544750026" lon="7.50700833361">
		<tag k="name" v="Hendbukta" />
>>>>>>> e1d4bc35ff8a6074a6f2e91616a996b547c36f15
		<tag k="natural" v="bay" />
		<tag k="ssr:stedsnr" v="778803" />
	</node>
<<<<<<< HEAD
	<node lat="63.07184999711999" lon="7.559702784897119" id="-5848">
		<tag k="name" v="Rakarvika" />
		<tag k="natural" v="bay" />
		<tag k="ssr:stedsnr" v="801505" />
	</node>
	<node lat="63.07608889129274" lon="7.667583328268226" id="-5849">
		<tag k="name" v="Klubben" />
		<tag k="natural" v="cape" />
		<tag k="ssr:stedsnr" v="801512" />
	</node>
	<node lat="63.03832500046439" lon="7.373119448639671" id="-5850">
		<tag k="fixme" v="consider seamark:type=rock or natural=shoal" />
		<tag k="name" v="Oksaskjæret" />
=======
	<node id="-78804" lat="62.9681333319" lon="7.4269694453">
		<tag k="name" v="Nasvikbogen" />
		<tag k="natural" v="bay" />
		<tag k="ssr:stedsnr" v="532476" />
	</node>
	<node id="-78801" lat="63.0119305545" lon="7.40923611979">
		<tag k="name" v="Litl Lauvøysundet" />
		<tag k="natural" v="strait" />
		<tag k="ssr:stedsnr" v="532441" />
	</node>
	<node id="-78800" lat="63.0080777767" lon="7.41366944419">
		<tag k="name" v="Størkervågen" />
		<tag k="natural" v="bay" />
		<tag k="ssr:stedsnr" v="532439" />
	</node>
	<node id="-78798" lat="63.0548166677" lon="7.45125554846">
		<tag k="name" v="Storvikholmen" />
>>>>>>> e1d4bc35ff8a6074a6f2e91616a996b547c36f15
		<tag k="place" v="islet" />
		<tag k="ssr:stedsnr" v="801525" />
	</node>
<<<<<<< HEAD
	<node lat="63.102627777055794" lon="7.581777777566411" id="-5857">
		<tag k="name" v="Sveggøya" />
		<tag k="place" v="island" />
		<tag k="ssr:stedsnr" v="801671" />
	</node>
	<node lat="63.113916665459065" lon="7.623388898676335" id="-5858">
		<tag k="name" v="Øksenvågen" />
=======
	<node id="-78790" lat="63.09534167" lon="7.61018333405">
		<tag k="name" v="Kobbvika" />
		<tag k="natural" v="bay" />
		<tag k="ssr:stedsnr" v="437734" />
	</node>
	<node id="-78789" lat="63.0860388859" lon="7.60266388778">
		<tag k="name" v="Sveggevika" />
>>>>>>> e1d4bc35ff8a6074a6f2e91616a996b547c36f15
		<tag k="natural" v="bay" />
		<tag k="ssr:stedsnr" v="801686" />
	</node>
<<<<<<< HEAD
	<node lat="63.11221389322344" lon="7.587927775792567" id="-5859">
		<tag k="name" v="Englan" />
		<tag k="place" v="islet" />
		<tag k="ssr:stedsnr" v="801690" />
	</node>
	<node lat="63.0502416703952" lon="7.563797230162474" id="-5864">
		<tag k="name" v="Vardøya" />
=======
	<node id="-78787" lat="63.1413361111" lon="7.47299722919">
		<tag k="alt_name" v="Store Kråka" />
		<tag k="fixme" v="consider seamark:type=rock or natural=shoal" />
		<tag k="name" v="Kråka" />
		<tag k="place" v="islet" />
		<tag k="ssr:stedsnr" v="437716" />
	</node>
	<node id="-78786" lat="63.0221722229" lon="7.57321667408">
		<tag k="name" v="Skallnes" />
		<tag k="natural" v="cape" />
		<tag k="ssr:stedsnr" v="437613" />
	</node>
	<node id="-78784" lat="63.0134305521" lon="7.43008056098">
		<tag k="name" v="Skovikneset" />
		<tag k="natural" v="cape" />
		<tag k="ssr:stedsnr" v="437598" />
	</node>
	<node id="-78783" lat="63.034944442" lon="7.39537221846">
		<tag k="fixme" v="consider seamark:type=rock or natural=shoal" />
		<tag k="name" v="Litlsekken" />
		<tag k="place" v="islet" />
		<tag k="ssr:stedsnr" v="437595" />
	</node>
	<node id="-78782" lat="63.037613887" lon="7.44473611037">
		<tag k="name" v="Seterleira" />
		<tag k="natural" v="bay" />
		<tag k="ssr:stedsnr" v="437594" />
	</node>
	<node id="-78779" lat="63.0593166686" lon="7.56496666613">
		<tag k="name" v="Gjengstøholmen" />
		<tag k="place" v="islet" />
		<tag k="ssr:stedsnr" v="437524" />
	</node>
	<node id="-78778" lat="63.0656666641" lon="7.50294722076">
		<tag k="name" v="Myrneset" />
		<tag k="natural" v="cape" />
		<tag k="ssr:stedsnr" v="437519" />
	</node>
	<node id="-78772" lat="63.0673944456" lon="7.49132223061">
		<tag k="name" v="Myrbærholmen" />
>>>>>>> e1d4bc35ff8a6074a6f2e91616a996b547c36f15
		<tag k="place" v="islet" />
		<tag k="ssr:stedsnr" v="922521" />
	</node>
<<<<<<< HEAD
	<node lat="63.07040277860335" lon="7.4976361169005" id="-5865">
		<tag k="name" v="Flatburet" />
		<tag k="natural" v="cape" />
		<tag k="ssr:stedsnr" v="922472" />
	</node>
	<node lat="62.953736107316665" lon="7.445130559590496" id="-5868">
		<tag k="bay" v="fjord" />
		<tag k="name" v="Kornstadfjorden" />
		<tag k="natural" v="bay" />
		<tag k="ssr:stedsnr" v="922929" />
	</node>
	<node lat="63.0714833374183" lon="7.662786108849103" id="-5872">
		<tag k="name" v="Raudsandbukta" />
		<tag k="natural" v="bay" />
		<tag k="ssr:stedsnr" v="923570" />
	</node>
	<node lat="63.13696944062416" lon="7.532108342836813" id="-5874">
		<tag k="name" v="Midtfjordsfallet" />
		<tag k="natural" v="shoal" />
		<tag k="place" v="locality" />
		<tag k="ssr:stedsnr" v="923738" />
	</node>
	<node lat="63.07958889308" lon="7.60284167030771" id="-5879">
		<tag k="name" v="Skreddarbukta" />
		<tag k="natural" v="bay" />
		<tag k="ssr:stedsnr" v="836806" />
	</node>
	<node lat="63.11920833326299" lon="7.643283332844284" id="-5883">
		<tag k="name" v="Hildafallet" />
		<tag k="natural" v="shoal" />
		<tag k="place" v="locality" />
		<tag k="ssr:stedsnr" v="837693" />
	</node>
	<node lat="63.06407777501203" lon="7.59687222210326" id="-5884">
		<tag k="name" v="Ekkilsøyvågen" />
		<tag k="natural" v="bay" />
		<tag k="ssr:stedsnr" v="837805" />
	</node>
	<node lat="63.16854722191167" lon="7.363241670969492" id="-5885">
		<tag k="name" v="Ytre Steinen" />
		<tag k="natural" v="shoal" />
		<tag k="place" v="locality" />
		<tag k="ssr:stedsnr" v="838733" />
	</node>
	<node lat="63.08680555860109" lon="7.4112333412035385" id="-5886">
		<tag k="name" v="Kvitholmtaren" />
		<tag k="natural" v="shoal" />
		<tag k="place" v="locality" />
		<tag k="ssr:stedsnr" v="838811" />
	</node>
	<node lat="63.10175833077393" lon="7.309236101551043" id="-5887">
		<tag k="name" v="Nordre Eggeflusteinen" />
		<tag k="natural" v="shoal" />
		<tag k="place" v="locality" />
		<tag k="ssr:stedsnr" v="838887" />
	</node>
	<node lat="63.09441111077191" lon="7.295299991487258" id="-5888">
		<tag k="name" v="Eggeflua" />
		<tag k="natural" v="shoal" />
		<tag k="place" v="locality" />
		<tag k="ssr:stedsnr" v="838889" />
	</node>
	<node lat="62.93981666672391" lon="7.529224992878038" id="-5889">
		<tag k="name" v="Spjutneset" />
=======
	<node id="-78770" lat="63.0601166666" lon="7.51018056417">
		<tag k="name" v="Dropphammaren" />
		<tag k="natural" v="cape" />
		<tag k="ssr:stedsnr" v="414647" />
	</node>
	<node id="-78760" lat="63.1131194418" lon="7.60302499822">
		<tag k="name" v="Kråka" />
		<tag k="place" v="islet" />
		<tag k="ssr:stedsnr" v="411873" />
	</node>
	<node id="-78759" lat="63.0979611089" lon="7.57371111831">
		<tag k="name" v="Båtvika" />
		<tag k="natural" v="bay" />
		<tag k="ssr:stedsnr" v="411833" />
	</node>
	<node id="-78758" lat="63.081644445" lon="7.59649166689">
		<tag k="name" v="Skjerneset" />
		<tag k="natural" v="cape" />
		<tag k="ssr:stedsnr" v="411805" />
	</node>
	<node id="-78754" lat="63.0417111106" lon="7.60850832908">
		<tag k="name" v="Litlholmen" />
		<tag k="place" v="islet" />
		<tag k="ssr:stedsnr" v="411757" />
	</node>
	<node id="-78752" lat="63.0617999977" lon="7.50029722238">
		<tag k="name" v="Langøysundet" />
		<tag k="natural" v="strait" />
		<tag k="ssr:stedsnr" v="412317" />
	</node>
	<node id="-78751" lat="63.0749638905" lon="7.49168610608">
		<tag k="fixme" v="consider seamark:type=rock or natural=shoal" />
		<tag k="name" v="Langbakkskjeret" />
		<tag k="place" v="islet" />
		<tag k="ssr:stedsnr" v="412312" />
	</node>
	<node id="-78744" lat="63.0839444447" lon="7.55929722207">
		<tag k="name" v="Stangarodden" />
		<tag k="natural" v="cape" />
		<tag k="ssr:stedsnr" v="376761" />
	</node>
	<node id="-78743" lat="63.0768888923" lon="7.52266389793">
		<tag k="name" v="Sør-Ramsøya" />
		<tag k="place" v="islet" />
		<tag k="ssr:stedsnr" v="376753" />
	</node>
	<node id="-78739" lat="63.0988944432" lon="7.56769167232">
		<tag k="name" v="Storneset" />
		<tag k="natural" v="cape" />
		<tag k="ssr:stedsnr" v="376709" />
	</node>
	<node id="-78736" lat="63.0217805594" lon="7.58167222332">
		<tag k="bay" v="fjord" />
		<tag k="name" v="Nekkstadfjorden" />
		<tag k="natural" v="bay" />
		<tag k="ssr:stedsnr" v="376615" />
	</node>
	<node id="-78734" lat="63.0262888865" lon="7.36776111784">
		<tag k="fixme" v="consider seamark:type=rock or natural=shoal" />
		<tag k="name" v="Seiskjæret" />
		<tag k="place" v="islet" />
		<tag k="ssr:stedsnr" v="376588" />
	</node>
	<node id="-78733" lat="63.0219888874" lon="7.42153610223">
		<tag k="fixme" v="consider seamark:type=rock or natural=shoal" />
		<tag k="name" v="Kråkholmen" />
		<tag k="place" v="islet" />
		<tag k="ssr:stedsnr" v="376584" />
	</node>
	<node id="-78731" lat="63.0303194445" lon="7.56664999593">
		<tag k="name" v="Sundsøya" />
		<tag k="place" v="islet" />
		<tag k="ssr:stedsnr" v="376578" />
	</node>
	<node id="-78730" lat="63.0506166648" lon="7.42877221279">
		<tag k="name" v="Hansholmen" />
		<tag k="place" v="islet" />
		<tag k="ssr:stedsnr" v="376556" />
	</node>
	<node id="-78728" lat="63.0604527816" lon="7.45311388517">
		<tag k="alt_name" v="Buasundet" />
		<tag k="name" v="Busundet" />
		<tag k="natural" v="strait" />
		<tag k="ssr:stedsnr" v="376520" />
	</node>
	<node id="-78727" lat="63.0614081862" lon="7.58889084359">
		<tag k="name" v="Aukan" />
		<tag k="natural" v="cape" />
		<tag k="ssr:stedsnr" v="376512" />
	</node>
	<node id="-78724" lat="63.0476972209" lon="7.68218056029">
		<tag k="bay" v="fjord" />
		<tag k="name" v="Kvernesfjorden" />
		<tag k="natural" v="bay" />
		<tag k="ssr:stedsnr" v="375946" />
	</node>
	<node id="-78723" lat="63.040769447" lon="7.41979166096">
		<tag k="name" v="Indreneset" />
>>>>>>> e1d4bc35ff8a6074a6f2e91616a996b547c36f15
		<tag k="natural" v="cape" />
		<tag k="ssr:stedsnr" v="839312" />
	</node>
<<<<<<< HEAD
	<node lat="63.0472611154146" lon="7.55990277396243" id="-5893">
		<tag k="name" v="Rundholmen" />
=======
	<node id="-78722" lat="63.0569972215" lon="7.4744277839">
		<tag k="name" v="Liaholmen" />
>>>>>>> e1d4bc35ff8a6074a6f2e91616a996b547c36f15
		<tag k="place" v="islet" />
		<tag k="ssr:stedsnr" v="862521" />
	</node>
<<<<<<< HEAD
	<node lat="63.15451388960523" lon="7.529811101542361" id="-5898">
		<tag k="name" v="Jakopan" />
		<tag k="natural" v="shoal" />
		<tag k="place" v="locality" />
		<tag k="ssr:stedsnr" v="862713" />
	</node>
	<node lat="63.1112000039835" lon="7.288902782922664" id="-5900">
=======
	<node id="-78721" lat="62.9815583309" lon="7.34857222179">
		<tag k="name" v="Tevikholmen" />
		<tag k="place" v="islet" />
		<tag k="ssr:stedsnr" v="353716" />
	</node>
	<node id="-78720" lat="63.0923527781" lon="7.56948056029">
>>>>>>> e1d4bc35ff8a6074a6f2e91616a996b547c36f15
		<tag k="fixme" v="consider seamark:type=rock or natural=shoal" />
		<tag k="name" v="Oloverskjæra" />
		<tag k="place" v="islet" />
		<tag k="ssr:stedsnr" v="862700" />
	</node>
<<<<<<< HEAD
	<node lat="63.02741944406329" lon="7.4146833329569075" id="-5906">
		<tag k="name" v="Rangøynesvågen" />
		<tag k="natural" v="bay" />
		<tag k="ssr:stedsnr" v="898430" />
	</node>
	<node lat="63.087816663069596" lon="7.341041657013968" id="-5907">
		<tag k="name" v="Kleppen" />
		<tag k="natural" v="shoal" />
		<tag k="place" v="locality" />
		<tag k="ssr:stedsnr" v="898805" />
	</node>
	<node lat="63.09771110756743" lon="7.297383332073023" id="-5908">
		<tag k="name" v="Hakaskjærsteinen" />
=======
	<node id="-78719" lat="63.0302666679" lon="7.55598055104">
		<tag k="name" v="Sundsvøl" />
		<tag k="natural" v="bay" />
		<tag k="ssr:stedsnr" v="353470" />
	</node>
	<node id="-78718" lat="62.9439138905" lon="7.49039167487">
		<tag k="name" v="Sjåbergneset" />
		<tag k="natural" v="cape" />
		<tag k="ssr:stedsnr" v="353333" />
	</node>
	<node id="-78717" lat="63.1700111107" lon="7.39325000943">
		<tag k="name" v="Bådalstaren" />
		<tag k="natural" v="shoal" />
		<tag k="place" v="locality" />
		<tag k="ssr:stedsnr" v="352695" />
	</node>
	<node id="-78716" lat="63.0574250018" lon="7.6631583256">
		<tag k="alt_name" v="Kristvika" />
		<tag k="name" v="Kristvikbukta" />
		<tag k="natural" v="bay" />
		<tag k="ssr:stedsnr" v="351994" />
	</node>
	<node id="-78715" lat="63.1100249977" lon="7.66787221563">
		<tag k="name" v="Steinneset" />
		<tag k="natural" v="cape" />
		<tag k="ssr:stedsnr" v="351964" />
	</node>
	<node id="-78710" lat="63.1544055519" lon="7.49783889506">
		<tag k="name" v="Jakoptaren" />
>>>>>>> e1d4bc35ff8a6074a6f2e91616a996b547c36f15
		<tag k="natural" v="shoal" />
		<tag k="place" v="locality" />
		<tag k="ssr:stedsnr" v="898813" />
	</node>
<<<<<<< HEAD
	<node lat="63.097216669997444" lon="7.304644440675942" id="-5909">
		<tag k="name" v="Eggeflutaren" />
		<tag k="natural" v="shoal" />
		<tag k="place" v="locality" />
		<tag k="ssr:stedsnr" v="898854" />
	</node>
	<node lat="63.149674998605825" lon="7.38756943744382" id="-5911">
		<tag k="name" v="Grunntaren" />
		<tag k="natural" v="shoal" />
		<tag k="place" v="locality" />
		<tag k="ssr:stedsnr" v="898960" />
	</node>
	<node lat="63.16673333209055" lon="7.449636115329722" id="-5912">
		<tag k="name" v="Nordlandstaren" />
		<tag k="natural" v="shoal" />
=======
	<node id="-78709" lat="63.1375611112" lon="7.37226943793">
		<tag k="name" v="Hendtaren" />
		<tag k="natural" v="shoal" />
		<tag k="place" v="locality" />
		<tag k="ssr:stedsnr" v="352953" />
	</node>
	<node id="-78703" lat="63.021522221" lon="7.41150277447">
		<tag k="name" v="Vågsholmvika" />
		<tag k="natural" v="bay" />
		<tag k="ssr:stedsnr" v="351430" />
	</node>
	<node id="-78702" lat="63.0768611119" lon="7.6091472319">
		<tag k="name" v="Pålsbukta" />
		<tag k="natural" v="bay" />
		<tag k="ssr:stedsnr" v="350801" />
	</node>
	<node id="-78696" lat="62.9569777739" lon="7.48072221969">
		<tag k="name" v="Steinsbogen" />
		<tag k="natural" v="bay" />
		<tag k="ssr:stedsnr" v="350455" />
	</node>
	<node id="-78691" lat="63.0665555547" lon="7.42484445118">
		<tag k="name" v="Midtbradden" />
>>>>>>> e1d4bc35ff8a6074a6f2e91616a996b547c36f15
		<tag k="place" v="locality" />
		<tag k="ssr:stedsnr" v="899711" />
	</node>
<<<<<<< HEAD
	<node lat="63.04923333213018" lon="7.393538887185588" id="-5917">
		<tag k="name" v="Litlsandøya" />
		<tag k="place" v="islet" />
		<tag k="ssr:stedsnr" v="922513" />
	</node>
	<node lat="63.05038611278827" lon="7.409813891486624" id="-5918">
		<tag k="name" v="Kjeholmen" />
		<tag k="place" v="islet" />
		<tag k="ssr:stedsnr" v="922514" />
	</node>
	<node lat="63.02359166919187" lon="7.38931665753966" id="-5919">
=======
	<node id="-78690" lat="63.0716083378" lon="7.52055556337">
		<tag k="name" v="Inner Ramsøyholmen" />
		<tag k="place" v="islet" />
		<tag k="ssr:stedsnr" v="350224" />
	</node>
	<node id="-78684" lat="63.0168749997" lon="7.35395277966">
		<tag k="name" v="Storseisundet" />
		<tag k="natural" v="strait" />
		<tag k="ssr:stedsnr" v="338250" />
	</node>
	<node id="-78679" lat="63.0972611072" lon="7.61938334281">
		<tag k="name" v="Indre Seivågen" />
		<tag k="natural" v="bay" />
		<tag k="ssr:stedsnr" v="316788" />
	</node>
	<node id="-78678" lat="63.0859055569" lon="7.45912777435">
>>>>>>> e1d4bc35ff8a6074a6f2e91616a996b547c36f15
		<tag k="fixme" v="consider seamark:type=rock or natural=shoal" />
		<tag k="name" v="Seiskjæret" />
		<tag k="place" v="islet" />
		<tag k="ssr:stedsnr" v="922410" />
	</node>
<<<<<<< HEAD
	<node lat="63.075080556101504" lon="7.602833327344388" id="-5920">
		<tag k="name" v="Langneset" />
=======
	<node id="-78677" lat="63.114605559" lon="7.64631110141">
		<tag k="name" v="Ryggneset" />
>>>>>>> e1d4bc35ff8a6074a6f2e91616a996b547c36f15
		<tag k="natural" v="cape" />
		<tag k="ssr:stedsnr" v="922710" />
	</node>
<<<<<<< HEAD
	<node lat="63.0162472254825" lon="7.433327775293969" id="-5921">
		<tag k="name" v="Roaldsøya" />
=======
	<node id="-78674" lat="63.0179444437" lon="7.41325833921">
		<tag k="name" v="Vågsholmen" />
>>>>>>> e1d4bc35ff8a6074a6f2e91616a996b547c36f15
		<tag k="place" v="islet" />
		<tag k="ssr:stedsnr" v="923619" />
	</node>
<<<<<<< HEAD
	<node lat="63.1081638906687" lon="7.584261112196118" id="-5923">
		<tag k="name" v="Skåråvågen" />
		<tag k="natural" v="bay" />
		<tag k="ssr:stedsnr" v="923718" />
	</node>
	<node lat="63.10171388545697" lon="7.287558325212092" id="-5924">
		<tag k="fixme" v="consider seamark:type=rock or natural=shoal" />
		<tag k="name" v="Hakaskjæret" />
=======
	<node id="-78673" lat="63.0144083333" lon="7.41570278263">
		<tag k="name" v="Roholmen" />
>>>>>>> e1d4bc35ff8a6074a6f2e91616a996b547c36f15
		<tag k="place" v="islet" />
		<tag k="ssr:stedsnr" v="923725" />
	</node>
<<<<<<< HEAD
	<node lat="63.136277780921645" lon="7.553611109637548" id="-5932">
		<tag k="name" v="Indre Skjellingen" />
		<tag k="natural" v="shoal" />
		<tag k="place" v="locality" />
		<tag k="ssr:stedsnr" v="958847" />
	</node>
	<node lat="63.07586389112306" lon="7.305888893478945" id="-5933">
		<tag k="name" v="Midtfjordstaren" />
		<tag k="natural" v="shoal" />
		<tag k="place" v="locality" />
		<tag k="ssr:stedsnr" v="959841" />
	</node>
	<node lat="62.95568611065478" lon="7.481522215696783" id="-5934">
		<tag k="name" v="Steinsneset" />
		<tag k="natural" v="cape" />
		<tag k="ssr:stedsnr" v="960271" />
	</node>
	<node lat="63.03205555448294" lon="7.554547231237563" id="-5949">
		<tag k="name" v="Langneset" />
=======
	<node id="-78668" lat="63.0186444482" lon="7.58682222321">
		<tag k="name" v="Langstrand" />
		<tag k="natural" v="beach" />
		<tag k="place" v="locality" />
		<tag k="ssr:stedsnr" v="315575" />
	</node>
	<node id="-78660" lat="63.0915833326" lon="7.54953054694">
		<tag k="name" v="Raudholmen" />
		<tag k="place" v="islet" />
		<tag k="ssr:stedsnr" v="195748" />
	</node>
	<node id="-78659" lat="63.0559833309" lon="7.38798333444">
		<tag k="fixme" v="consider seamark:type=rock or natural=shoal" />
		<tag k="name" v="Aktenskjæra" />
		<tag k="place" v="islet" />
		<tag k="ssr:stedsnr" v="195561" />
	</node>
	<node id="-78658" lat="63.0635750024" lon="7.54160555499">
		<tag k="name" v="Ku-Forøya" />
		<tag k="place" v="islet" />
		<tag k="ssr:stedsnr" v="195544" />
	</node>
	<node id="-78657" lat="63.0589777749" lon="7.51393611236">
		<tag k="name" v="Hendneset" />
>>>>>>> e1d4bc35ff8a6074a6f2e91616a996b547c36f15
		<tag k="natural" v="cape" />
		<tag k="ssr:stedsnr" v="12432" />
	</node>
<<<<<<< HEAD
	<node lat="63.05662499633857" lon="7.422530551367983" id="-5952">
		<tag k="name" v="Purkholmen" />
=======
	<node id="-78656" lat="63.1038833291" lon="7.56643611353">
		<tag k="fixme" v="multiple name tags, choose one and add the other to alt_name" />
		<tag k="name" v="Ytre Litlraudegga;Litlraudegga" />
>>>>>>> e1d4bc35ff8a6074a6f2e91616a996b547c36f15
		<tag k="place" v="islet" />
		<tag k="ssr:stedsnr" v="12524" />
	</node>
<<<<<<< HEAD
	<node lat="63.0559270567722" lon="7.588700435517485" id="-5959">
		<tag k="name" v="Kallen" />
=======
	<node id="-78653" lat="63.1270861122" lon="7.42323055174">
		<tag k="fixme" v="consider seamark:type=rock or natural=shoal" />
		<tag k="name" v="Austramnan" />
>>>>>>> e1d4bc35ff8a6074a6f2e91616a996b547c36f15
		<tag k="place" v="islet" />
		<tag k="ssr:stedsnr" v="12560" />
	</node>
<<<<<<< HEAD
	<node lat="63.02763055248203" lon="7.389388891921206" id="-5961">
		<tag k="name" v="Lamholmen" />
=======
	<node id="-78652" lat="63.0475777759" lon="7.511391671">
		<tag k="name" v="Hendholmen" />
>>>>>>> e1d4bc35ff8a6074a6f2e91616a996b547c36f15
		<tag k="place" v="islet" />
		<tag k="ssr:stedsnr" v="12580" />
	</node>
<<<<<<< HEAD
	<node lat="63.087147222856565" lon="7.578727780658843" id="-5965">
		<tag k="name" v="Storrøssøya" />
=======
	<node id="-78651" lat="63.0434650937" lon="7.41204768808">
		<tag k="name" v="Storsandøya" />
>>>>>>> e1d4bc35ff8a6074a6f2e91616a996b547c36f15
		<tag k="place" v="island" />
		<tag k="ssr:stedsnr" v="12728" />
	</node>
<<<<<<< HEAD
	<node lat="63.059694448425404" lon="7.493538883036072" id="-5971">
		<tag k="alt_name" v="Tjuvnebben" />
		<tag k="name" v="Nebben" />
		<tag k="natural" v="cape" />
		<tag k="ssr:stedsnr" v="47416" />
	</node>
	<node lat="62.993980555186376" lon="7.377830563034647" id="-5973">
		<tag k="name" v="Hjertvikbukta" />
		<tag k="natural" v="bay" />
		<tag k="ssr:stedsnr" v="47468" />
	</node>
	<node lat="63.06211944036173" lon="7.411147218533702" id="-5976">
		<tag k="fixme" v="consider seamark:type=rock or natural=shoal" />
		<tag k="name" v="Teistholmsteinen" />
=======
	<node id="-78650" lat="63.0559722216" lon="7.67406111482">
		<tag k="fixme" v="consider seamark:type=rock or natural=shoal" />
		<tag k="name" v="Hestvikholman" />
		<tag k="place" v="islet" />
		<tag k="ssr:stedsnr" v="194472" />
	</node>
	<node id="-78649" lat="63.029316667" lon="7.38913888866">
		<tag k="name" v="Håholmen" />
		<tag k="place" v="islet" />
		<tag k="ssr:stedsnr" v="194542" />
	</node>
	<node id="-78643" lat="63.0003611066" lon="7.36924999163">
		<tag k="name" v="Hjertvikholmen" />
>>>>>>> e1d4bc35ff8a6074a6f2e91616a996b547c36f15
		<tag k="place" v="islet" />
		<tag k="ssr:stedsnr" v="47852" />
	</node>
<<<<<<< HEAD
	<node lat="63.06393055828949" lon="7.602691665701331" id="-5982">
		<tag k="name" v="Aukholmen" />
		<tag k="place" v="islet" />
		<tag k="ssr:stedsnr" v="48789" />
	</node>
	<node lat="63.126133329568475" lon="7.266188884579798" id="-5986">
		<tag k="name" v="Stabben" />
		<tag k="natural" v="shoal" />
		<tag k="place" v="locality" />
		<tag k="ssr:stedsnr" v="49791" />
	</node>
	<node lat="63.07646111349669" lon="7.368319445021384" id="-5987">
		<tag k="name" v="Helbogen" />
=======
	<node id="-78640" lat="63.0704916671" lon="7.49737777365">
		<tag k="name" v="Litle Tjønnøya" />
		<tag k="place" v="islet" />
		<tag k="ssr:stedsnr" v="171766" />
	</node>
	<node id="-78639" lat="63.0343277764" lon="7.58381110594">
		<tag k="name" v="Barskjulet" />
		<tag k="natural" v="bay" />
		<tag k="ssr:stedsnr" v="171451" />
	</node>
	<node id="-78638" lat="63.1538916684" lon="7.48337499197">
		<tag k="name" v="Knollen" />
		<tag k="natural" v="shoal" />
		<tag k="place" v="locality" />
		<tag k="ssr:stedsnr" v="170963" />
	</node>
	<node id="-78637" lat="63.1073527781" lon="7.28314443968">
		<tag k="name" v="Brattskjæringa" />
		<tag k="place" v="locality" />
		<tag k="ssr:stedsnr" v="170960" />
	</node>
	<node id="-78636" lat="63.152113892" lon="7.32907221919">
		<tag k="name" v="Fingalstaren" />
>>>>>>> e1d4bc35ff8a6074a6f2e91616a996b547c36f15
		<tag k="natural" v="shoal" />
		<tag k="place" v="locality" />
		<tag k="ssr:stedsnr" v="49835" />
	</node>
<<<<<<< HEAD
	<node lat="62.9673972185157" lon="7.620383331723969" id="-5989">
		<tag k="name" v="Skarsetneset" />
		<tag k="natural" v="cape" />
		<tag k="ssr:stedsnr" v="50279" />
	</node>
	<node lat="63.06971111276896" lon="7.610930564681845" id="-5996">
		<tag k="name" v="Ekkilsøyvika" />
		<tag k="natural" v="bay" />
		<tag k="ssr:stedsnr" v="73532" />
	</node>
	<node lat="63.07284166945664" lon="7.489691667520527" id="-5997">
		<tag k="name" v="Honningsøya" />
		<tag k="place" v="island" />
		<tag k="ssr:stedsnr" v="73537" />
	</node>
	<node lat="63.04571944486939" lon="7.446280558024696" id="-6000">
		<tag k="name" v="Storleira" />
=======
	<node id="-78635" lat="63.1123999985" lon="7.31854721278">
		<tag k="name" v="Boggrunnstaren" />
		<tag k="natural" v="shoal" />
		<tag k="place" v="locality" />
		<tag k="ssr:stedsnr" v="170801" />
	</node>
	<node id="-78634" lat="63.1626222245" lon="7.37112222098">
		<tag k="name" v="Indre Steinen" />
		<tag k="natural" v="shoal" />
		<tag k="place" v="locality" />
		<tag k="ssr:stedsnr" v="170723" />
	</node>
	<node id="-78631" lat="63.0925055524" lon="7.55990554787">
		<tag k="fixme" v="consider seamark:type=rock or natural=shoal" />
		<tag k="name" v="Kræmmarskjæra" />
		<tag k="place" v="islet" />
		<tag k="ssr:stedsnr" v="170188" />
	</node>
	<node id="-78628" lat="63.09481667" lon="7.50144722368">
		<tag k="bay" v="fjord" />
		<tag k="name" v="Ramnefjorden" />
>>>>>>> e1d4bc35ff8a6074a6f2e91616a996b547c36f15
		<tag k="natural" v="bay" />
		<tag k="ssr:stedsnr" v="73556" />
	</node>
<<<<<<< HEAD
	<node lat="63.040627775805156" lon="7.4867722284087215" id="-6001">
		<tag k="name" v="Hendvågen" />
		<tag k="natural" v="bay" />
		<tag k="ssr:stedsnr" v="73557" />
	</node>
	<node lat="63.04570833119253" lon="7.478438880637437" id="-6002">
		<tag k="alt_name" v="Stølsvågen" />
		<tag k="name" v="Stølavågen" />
		<tag k="natural" v="bay" />
		<tag k="ssr:stedsnr" v="73560" />
	</node>
	<node lat="63.05428610875222" lon="7.519319452247756" id="-6006">
		<tag k="name" v="Hendpurka" />
		<tag k="natural" v="cape" />
		<tag k="ssr:stedsnr" v="73573" />
	</node>
	<node lat="63.056733336358015" lon="7.595699994193527" id="-6007">
		<tag k="fixme" v="multiple name tags, choose one and add the other to alt_name" />
		<tag k="name" v="Kvernhusbukta;Vedavika" />
		<tag k="natural" v="bay" />
		<tag k="ssr:stedsnr" v="73578" />
	</node>
	<node lat="63.03351666910921" lon="7.575802773938245" id="-6009">
		<tag k="name" v="Sauholmen" />
=======
	<node id="-78627" lat="63.0624694404" lon="7.6127388921">
		<tag k="name" v="Kallarneset" />
		<tag k="natural" v="cape" />
		<tag k="ssr:stedsnr" v="169801" />
	</node>
	<node id="-78623" lat="63.1151083306" lon="7.64774999436">
		<tag k="name" v="Vasshaugneset" />
		<tag k="natural" v="cape" />
		<tag k="ssr:stedsnr" v="169958" />
	</node>
	<node id="-78618" lat="63.0051722228" lon="7.40369723096">
		<tag k="name" v="Smenessundet" />
		<tag k="natural" v="strait" />
		<tag k="ssr:stedsnr" v="168442" />
	</node>
	<node id="-78617" lat="63.0737555589" lon="7.51981944536">
		<tag k="name" v="Ytter Ramsøyholmen" />
		<tag k="place" v="islet" />
		<tag k="ssr:stedsnr" v="168235" />
	</node>
	<node id="-78616" lat="63.0685722255" lon="7.55289166236">
		<tag k="fixme" v="consider seamark:type=rock or natural=shoal" />
		<tag k="name" v="Kvalen" />
>>>>>>> e1d4bc35ff8a6074a6f2e91616a996b547c36f15
		<tag k="place" v="islet" />
		<tag k="ssr:stedsnr" v="73586" />
	</node>
<<<<<<< HEAD
	<node lat="63.03202777411487" lon="7.34870000945298" id="-6010">
=======
	<node id="-78610" lat="63.1307611102" lon="7.41545554838">
		<tag k="alt_name" v="Nordre Kverna" />
>>>>>>> e1d4bc35ff8a6074a6f2e91616a996b547c36f15
		<tag k="fixme" v="consider seamark:type=rock or natural=shoal" />
		<tag k="name" v="Mannskjæra" />
		<tag k="place" v="islet" />
		<tag k="ssr:stedsnr" v="73598" />
	</node>
<<<<<<< HEAD
	<node lat="63.07348611477079" lon="7.513930555131544" id="-6024">
		<tag k="name" v="Nothusneset" />
=======
	<node id="-78609" lat="63.0288861125" lon="7.67851389315">
		<tag k="name" v="Leitneset" />
>>>>>>> e1d4bc35ff8a6074a6f2e91616a996b547c36f15
		<tag k="natural" v="cape" />
		<tag k="ssr:stedsnr" v="107219" />
	</node>
<<<<<<< HEAD
	<node lat="63.067038888490785" lon="7.471705559925277" id="-6026">
		<tag k="name" v="Langbakken" />
=======
	<node id="-78604" lat="63.0375000037" lon="7.40531667273">
		<tag k="name" v="Ljøsøya" />
>>>>>>> e1d4bc35ff8a6074a6f2e91616a996b547c36f15
		<tag k="place" v="island" />
		<tag k="ssr:stedsnr" v="109338" />
	</node>
<<<<<<< HEAD
	<node lat="63.083524999118495" lon="7.591058338164536" id="-6028">
		<tag k="name" v="Markvikneset" />
		<tag k="natural" v="cape" />
		<tag k="ssr:stedsnr" v="108818" />
	</node>
	<node lat="63.067944444273664" lon="7.677988893623264" id="-6030">
		<tag k="name" v="Raudsandneset" />
		<tag k="natural" v="cape" />
		<tag k="ssr:stedsnr" v="109973" />
	</node>
	<node lat="63.053450186349885" lon="7.673964621305182" id="-6031">
=======
	<node id="-78602" lat="63.0439777763" lon="7.49353889115">
		<tag k="name" v="Kvistneset" />
		<tag k="natural" v="cape" />
		<tag k="ssr:stedsnr" v="133496" />
	</node>
	<node id="-78601" lat="63.0635111135" lon="7.45859166302">
		<tag k="name" v="Urdan" />
		<tag k="place" v="islet" />
		<tag k="ssr:stedsnr" v="133475" />
	</node>
	<node id="-78591" lat="62.988930552" lon="7.36116388005">
		<tag k="name" v="Trovikneset" />
		<tag k="natural" v="cape" />
		<tag k="ssr:stedsnr" v="111668" />
	</node>
	<node id="-78589" lat="63.0861166641" lon="7.29618055254">
		<tag k="name" v="Håtaren" />
		<tag k="natural" v="shoal" />
		<tag k="place" v="locality" />
		<tag k="ssr:stedsnr" v="110867" />
	</node>
	<node id="-78588" lat="63.1285972192" lon="7.28428888611">
		<tag k="name" v="Jonstaren" />
		<tag k="natural" v="shoal" />
		<tag k="place" v="locality" />
		<tag k="ssr:stedsnr" v="110798" />
	</node>
	<node id="-78586" lat="63.0540888928" lon="7.67024167043">
>>>>>>> e1d4bc35ff8a6074a6f2e91616a996b547c36f15
		<tag k="name" v="Hestvika" />
		<tag k="natural" v="bay" />
		<tag k="ssr:stedsnr" v="109981" />
	</node>
<<<<<<< HEAD
	<node lat="63.03166666605148" lon="7.409777776071941" id="-6033">
		<tag k="name" v="Rangøystraumen" />
		<tag k="natural" v="strait" />
		<tag k="ssr:stedsnr" v="109414" />
	</node>
	<node lat="63.104602776284516" lon="7.661005547891039" id="-6034">
		<tag k="fixme" v="consider seamark:type=rock or natural=shoal" />
		<tag k="name" v="Seterskjæret" />
		<tag k="place" v="islet" />
		<tag k="ssr:stedsnr" v="109672" />
	</node>
	<node lat="63.142033335913446" lon="7.486772222344001" id="-6036">
=======
	<node id="-78585" lat="63.0679444443" lon="7.67798889362">
		<tag k="name" v="Raudsandneset" />
		<tag k="natural" v="cape" />
		<tag k="ssr:stedsnr" v="109973" />
	</node>
	<node id="-78584" lat="63.1420333359" lon="7.48677222234">
>>>>>>> e1d4bc35ff8a6074a6f2e91616a996b547c36f15
		<tag k="name" v="Litletaren" />
		<tag k="natural" v="shoal" />
		<tag k="place" v="locality" />
		<tag k="ssr:stedsnr" v="109967" />
	</node>
<<<<<<< HEAD
	<node lat="63.12859721923597" lon="7.284288886107871" id="-6037">
		<tag k="name" v="Jonstaren" />
=======
	<node id="-78582" lat="63.1403222234" lon="7.54983889652">
		<tag k="name" v="Ytre Skjellingen" />
>>>>>>> e1d4bc35ff8a6074a6f2e91616a996b547c36f15
		<tag k="natural" v="shoal" />
		<tag k="place" v="locality" />
		<tag k="ssr:stedsnr" v="110798" />
	</node>
<<<<<<< HEAD
	<node lat="63.08611666408005" lon="7.296180552542593" id="-6038">
		<tag k="name" v="Håtaren" />
		<tag k="natural" v="shoal" />
		<tag k="place" v="locality" />
		<tag k="ssr:stedsnr" v="110867" />
	</node>
	<node lat="62.988930551968416" lon="7.361163880054213" id="-6039">
		<tag k="name" v="Trovikneset" />
		<tag k="natural" v="cape" />
		<tag k="ssr:stedsnr" v="111668" />
	</node>
	<node lat="63.04397777628047" lon="7.4935388911499885" id="-6048">
		<tag k="name" v="Kvistneset" />
		<tag k="natural" v="cape" />
		<tag k="ssr:stedsnr" v="133496" />
	</node>
	<node lat="63.13076111024296" lon="7.415455548378901" id="-6051">
		<tag k="alt_name" v="Nordre Kverna" />
=======
	<node id="-78581" lat="63.1046027763" lon="7.66100554789">
		<tag k="fixme" v="consider seamark:type=rock or natural=shoal" />
		<tag k="name" v="Seterskjæret" />
		<tag k="place" v="islet" />
		<tag k="ssr:stedsnr" v="109672" />
	</node>
	<node id="-78579" lat="63.0316666661" lon="7.40977777607">
		<tag k="name" v="Rangøystraumen" />
		<tag k="natural" v="strait" />
		<tag k="ssr:stedsnr" v="109414" />
	</node>
	<node id="-78578" lat="63.0670388885" lon="7.47170555993">
		<tag k="name" v="Langbakken" />
		<tag k="place" v="island" />
		<tag k="ssr:stedsnr" v="109338" />
	</node>
	<node id="-78557" lat="63.0320277741" lon="7.34870000945">
>>>>>>> e1d4bc35ff8a6074a6f2e91616a996b547c36f15
		<tag k="fixme" v="consider seamark:type=rock or natural=shoal" />
		<tag k="name" v="Kverna" />
		<tag k="place" v="islet" />
		<tag k="ssr:stedsnr" v="133699" />
	</node>
<<<<<<< HEAD
	<node lat="63.02888611249371" lon="7.678513893151826" id="-6052">
		<tag k="name" v="Leitneset" />
		<tag k="natural" v="cape" />
		<tag k="ssr:stedsnr" v="133592" />
	</node>
	<node lat="63.16016389207611" lon="7.5047444350994414" id="-6053">
		<tag k="fixme" v="consider seamark:type=rock or natural=shoal" />
		<tag k="name" v="Litlskjelbreia" />
=======
	<node id="-78556" lat="63.0335166691" lon="7.57580277394">
		<tag k="name" v="Sauholmen" />
>>>>>>> e1d4bc35ff8a6074a6f2e91616a996b547c36f15
		<tag k="place" v="islet" />
		<tag k="ssr:stedsnr" v="133705" />
	</node>
<<<<<<< HEAD
	<node lat="63.09092777390566" lon="7.393930552299188" id="-6056">
		<tag k="name" v="Storsvortna" />
		<tag k="place" v="islet" />
		<tag k="ssr:stedsnr" v="133725" />
	</node>
	<node lat="63.09555555713997" lon="7.6737833323389575" id="-6057">
		<tag k="name" v="Hogsneset" />
=======
	<node id="-78554" lat="63.0567333364" lon="7.59569999419">
		<tag k="fixme" v="multiple name tags, choose one and add the other to alt_name" />
		<tag k="name" v="Kvernhusbukta;Vedavika" />
		<tag k="natural" v="bay" />
		<tag k="ssr:stedsnr" v="73578" />
	</node>
	<node id="-78553" lat="63.0542861088" lon="7.51931945225">
		<tag k="name" v="Hendpurka" />
>>>>>>> e1d4bc35ff8a6074a6f2e91616a996b547c36f15
		<tag k="natural" v="cape" />
		<tag k="ssr:stedsnr" v="133729" />
	</node>
<<<<<<< HEAD
	<node lat="63.068572225500255" lon="7.5528916623614055" id="-6067">
		<tag k="fixme" v="consider seamark:type=rock or natural=shoal" />
		<tag k="name" v="Kvalen" />
		<tag k="place" v="islet" />
		<tag k="ssr:stedsnr" v="168233" />
	</node>
	<node lat="63.07375555885914" lon="7.5198194453609775" id="-6068">
		<tag k="name" v="Ytter Ramsøyholmen" />
		<tag k="place" v="islet" />
		<tag k="ssr:stedsnr" v="168235" />
	</node>
	<node lat="63.005172222800546" lon="7.403697230959445" id="-6069">
		<tag k="name" v="Smenessundet" />
		<tag k="natural" v="strait" />
		<tag k="ssr:stedsnr" v="168442" />
	</node>
	<node lat="63.06246944042754" lon="7.612738892095835" id="-6072">
		<tag k="name" v="Kallarneset" />
=======
	<node id="-78550" lat="63.0457083312" lon="7.47843888064">
		<tag k="alt_name" v="Stølsvågen" />
		<tag k="name" v="Stølavågen" />
		<tag k="natural" v="bay" />
		<tag k="ssr:stedsnr" v="73560" />
	</node>
	<node id="-78549" lat="63.0406277758" lon="7.48677222841">
		<tag k="name" v="Hendvågen" />
		<tag k="natural" v="bay" />
		<tag k="ssr:stedsnr" v="73557" />
	</node>
	<node id="-78548" lat="63.0457194449" lon="7.44628055802">
		<tag k="name" v="Storleira" />
		<tag k="natural" v="bay" />
		<tag k="ssr:stedsnr" v="73556" />
	</node>
	<node id="-78537" lat="62.9673972185" lon="7.62038333172">
		<tag k="name" v="Skarsetneset" />
>>>>>>> e1d4bc35ff8a6074a6f2e91616a996b547c36f15
		<tag k="natural" v="cape" />
		<tag k="ssr:stedsnr" v="169801" />
	</node>
<<<<<<< HEAD
	<node lat="63.09481666999212" lon="7.501447223684837" id="-6075">
		<tag k="bay" v="fjord" />
		<tag k="name" v="Ramnefjorden" />
		<tag k="natural" v="bay" />
		<tag k="ssr:stedsnr" v="169839" />
	</node>
	<node lat="63.09250555236614" lon="7.559905547866453" id="-6079">
		<tag k="fixme" v="consider seamark:type=rock or natural=shoal" />
		<tag k="name" v="Kræmmarskjæra" />
		<tag k="place" v="islet" />
		<tag k="ssr:stedsnr" v="170188" />
	</node>
	<node lat="63.1123999985393" lon="7.318547212784686" id="-6081">
		<tag k="name" v="Boggrunnstaren" />
=======
	<node id="-78535" lat="63.0764611135" lon="7.36831944502">
		<tag k="name" v="Helbogen" />
>>>>>>> e1d4bc35ff8a6074a6f2e91616a996b547c36f15
		<tag k="natural" v="shoal" />
		<tag k="place" v="locality" />
		<tag k="ssr:stedsnr" v="170801" />
	</node>
<<<<<<< HEAD
	<node lat="63.152113892040276" lon="7.329072219193605" id="-6082">
		<tag k="name" v="Fingalstaren" />
=======
	<node id="-78534" lat="63.1261333296" lon="7.26618888458">
		<tag k="name" v="Stabben" />
>>>>>>> e1d4bc35ff8a6074a6f2e91616a996b547c36f15
		<tag k="natural" v="shoal" />
		<tag k="place" v="locality" />
		<tag k="ssr:stedsnr" v="170954" />
	</node>
	<node lat="63.034327776430835" lon="7.583811105935492" id="-6083">
		<tag k="name" v="Barskjulet" />
		<tag k="natural" v="bay" />
		<tag k="ssr:stedsnr" v="171451" />
	</node>
	<node lat="63.0003611066177" lon="7.369249991628187" id="-6086">
		<tag k="name" v="Hjertvikholmen" />
		<tag k="place" v="islet" />
		<tag k="ssr:stedsnr" v="194361" />
	</node>
<<<<<<< HEAD
	<node lat="63.05597222162631" lon="7.674061114816321" id="-6091">
=======
	<node id="-78533" lat="63.1282000037" lon="7.42565000094">
>>>>>>> e1d4bc35ff8a6074a6f2e91616a996b547c36f15
		<tag k="fixme" v="consider seamark:type=rock or natural=shoal" />
		<tag k="name" v="Hestvikholman" />
		<tag k="place" v="islet" />
		<tag k="ssr:stedsnr" v="194472" />
	</node>
<<<<<<< HEAD
	<node lat="63.043465093655094" lon="7.412047688082789" id="-6092">
		<tag k="name" v="Storsandøya" />
		<tag k="place" v="island" />
		<tag k="ssr:stedsnr" v="194479" />
	</node>
	<node lat="63.06357500244145" lon="7.54160555498537" id="-6093">
		<tag k="name" v="Ku-Forøya" />
=======
	<node id="-78530" lat="63.0639305583" lon="7.6026916657">
		<tag k="name" v="Aukholmen" />
>>>>>>> e1d4bc35ff8a6074a6f2e91616a996b547c36f15
		<tag k="place" v="islet" />
		<tag k="ssr:stedsnr" v="195544" />
	</node>
<<<<<<< HEAD
	<node lat="63.05598333087579" lon="7.3879833344364645" id="-6094">
=======
	<node id="-78523" lat="63.0621194404" lon="7.41114721853">
>>>>>>> e1d4bc35ff8a6074a6f2e91616a996b547c36f15
		<tag k="fixme" v="consider seamark:type=rock or natural=shoal" />
		<tag k="name" v="Aktenskjæra" />
		<tag k="place" v="islet" />
		<tag k="ssr:stedsnr" v="195561" />
	</node>
<<<<<<< HEAD
	<node lat="63.04757777593277" lon="7.511391671002869" id="-6095">
		<tag k="name" v="Hendholmen" />
=======
	<node id="-78520" lat="63.0434916682" lon="7.60565277785">
		<tag k="name" v="Storvassholmen" />
>>>>>>> e1d4bc35ff8a6074a6f2e91616a996b547c36f15
		<tag k="place" v="islet" />
		<tag k="ssr:stedsnr" v="194486" />
	</node>
<<<<<<< HEAD
	<node lat="63.034183329157564" lon="7.556288880844937" id="-6097">
		<tag k="bay" v="fjord" />
		<tag k="name" v="Sundsfjorden" />
=======
	<node id="-78518" lat="62.9723666663" lon="7.39563610754">
		<tag k="name" v="Kvalshaugbogen" />
>>>>>>> e1d4bc35ff8a6074a6f2e91616a996b547c36f15
		<tag k="natural" v="bay" />
		<tag k="ssr:stedsnr" v="194518" />
	</node>
<<<<<<< HEAD
	<node lat="63.02685277972096" lon="7.40532499314765" id="-6098">
		<tag k="fixme" v="consider seamark:type=rock or natural=shoal" />
		<tag k="name" v="Fånytta" />
		<tag k="place" v="islet" />
		<tag k="ssr:stedsnr" v="194522" />
	</node>
	<node lat="63.02405555763951" lon="7.40895554786612" id="-6099">
		<tag k="name" v="Klauvsundtangen" />
		<tag k="natural" v="cape" />
		<tag k="ssr:stedsnr" v="194523" />
	</node>
	<node lat="63.03487500323538" lon="7.344030548901137" id="-6100">
		<tag k="fixme" v="consider seamark:type=rock or natural=shoal" />
		<tag k="name" v="Hummarskjæret" />
=======
	<node id="-78517" lat="62.9939805552" lon="7.37783056303">
		<tag k="name" v="Hjertvikbukta" />
		<tag k="natural" v="bay" />
		<tag k="ssr:stedsnr" v="47468" />
	</node>
	<node id="-78509" lat="63.0276305525" lon="7.38938889192">
		<tag k="name" v="Lamholmen" />
>>>>>>> e1d4bc35ff8a6074a6f2e91616a996b547c36f15
		<tag k="place" v="islet" />
		<tag k="ssr:stedsnr" v="194526" />
	</node>
<<<<<<< HEAD
	<node lat="63.029316666973514" lon="7.38913888866352" id="-6103">
		<tag k="name" v="Håholmen" />
		<tag k="place" v="islet" />
		<tag k="ssr:stedsnr" v="194542" />
	</node>
	<node lat="63.12708611218914" lon="7.423230551737942" id="-6104">
		<tag k="fixme" v="consider seamark:type=rock or natural=shoal" />
		<tag k="name" v="Austramnan" />
		<tag k="place" v="islet" />
		<tag k="ssr:stedsnr" v="194682" />
	</node>
	<node lat="63.090150004184835" lon="7.618272226740769" id="-6105">
		<tag k="alt_name" v="Jørengneset" />
		<tag k="name" v="Gjøraneset" />
=======
	<node id="-78507" lat="63.0871472229" lon="7.57872778066">
		<tag k="name" v="Storrøssøya" />
		<tag k="place" v="island" />
		<tag k="ssr:stedsnr" v="12728" />
	</node>
	<node id="-78503" lat="63.0320555545" lon="7.55454723124">
		<tag k="name" v="Langneset" />
>>>>>>> e1d4bc35ff8a6074a6f2e91616a996b547c36f15
		<tag k="natural" v="cape" />
		<tag k="ssr:stedsnr" v="194703" />
	</node>
<<<<<<< HEAD
	<node lat="63.09158333260637" lon="7.549530546943358" id="-6111">
		<tag k="name" v="Raudholmen" />
=======
	<node id="-78498" lat="63.0559270568" lon="7.58870043552">
		<tag k="name" v="Kallen" />
>>>>>>> e1d4bc35ff8a6074a6f2e91616a996b547c36f15
		<tag k="place" v="islet" />
		<tag k="ssr:stedsnr" v="195748" />
	</node>
<<<<<<< HEAD
	<node lat="63.1038833290513" lon="7.566436113525734" id="-6116">
		<tag k="fixme" v="multiple name tags, choose one and add the other to alt_name" />
		<tag k="name" v="Ytre Litlraudegga;Litlraudegga" />
=======
	<node id="-78495" lat="63.0566249963" lon="7.42253055137">
		<tag k="name" v="Purkholmen" />
>>>>>>> e1d4bc35ff8a6074a6f2e91616a996b547c36f15
		<tag k="place" v="islet" />
		<tag k="ssr:stedsnr" v="195699" />
	</node>
<<<<<<< HEAD
	<node lat="63.07054721946291" lon="7.649033338057343" id="-6120">
		<tag k="name" v="Raudsandeidet" />
		<tag k="place" v="locality" />
		<tag k="ssr:stedsnr" v="284949" />
	</node>
	<node lat="63.06416388918601" lon="7.528213879082689" id="-6121">
		<tag k="name" v="Langøy-Forøya" />
		<tag k="place" v="island" />
		<tag k="ssr:stedsnr" v="289225" />
	</node>
	<node lat="63.06233888511538" lon="7.576369445481228" id="-6122">
		<tag k="alt_name" v="Gjengstøa" />
		<tag k="name" v="Sør Gjengstøa" />
		<tag k="natural" v="bay" />
		<tag k="ssr:stedsnr" v="290762" />
	</node>
	<node lat="63.115563885280444" lon="7.647183335618408" id="-6127">
=======
	<node id="-78483" lat="63.0590222268" lon="7.47838056313">
		<tag k="name" v="Krillholman" />
		<tag k="natural" v="cape" />
		<tag k="ssr:stedsnr" v="960718" />
	</node>
	<node id="-78482" lat="62.9556861107" lon="7.4815222157">
		<tag k="name" v="Steinsneset" />
		<tag k="natural" v="cape" />
		<tag k="ssr:stedsnr" v="960271" />
	</node>
	<node id="-78479" lat="63.1017138855" lon="7.28755832521">
>>>>>>> e1d4bc35ff8a6074a6f2e91616a996b547c36f15
		<tag k="fixme" v="consider seamark:type=rock or natural=shoal" />
		<tag k="name" v="Ryggå" />
		<tag k="place" v="islet" />
		<tag k="ssr:stedsnr" v="290962" />
	</node>
<<<<<<< HEAD
	<node lat="63.05444166301105" lon="7.4207777762416605" id="-6131">
		<tag k="name" v="Blomsterholmen" />
		<tag k="place" v="islet" />
		<tag k="ssr:stedsnr" v="291369" />
	</node>
	<node lat="63.015905559042864" lon="7.439316674984653" id="-6132">
		<tag k="name" v="Kårvågen" />
=======
	<node id="-78478" lat="63.1081638907" lon="7.5842611122">
		<tag k="name" v="Skåråvågen" />
>>>>>>> e1d4bc35ff8a6074a6f2e91616a996b547c36f15
		<tag k="natural" v="bay" />
		<tag k="ssr:stedsnr" v="291462" />
	</node>
<<<<<<< HEAD
	<node lat="63.15354444692364" lon="7.5611861081109355" id="-6134">
		<tag k="name" v="Skjellingstaren" />
=======
	<node id="-78476" lat="63.1496749986" lon="7.38756943744">
		<tag k="name" v="Grunntaren" />
>>>>>>> e1d4bc35ff8a6074a6f2e91616a996b547c36f15
		<tag k="natural" v="shoal" />
		<tag k="place" v="locality" />
		<tag k="ssr:stedsnr" v="291831" />
	</node>
<<<<<<< HEAD
	<node lat="63.104827781689934" lon="7.655024997230821" id="-6135">
		<tag k="name" v="Futseterleira" />
		<tag k="natural" v="bay" />
		<tag k="ssr:stedsnr" v="291953" />
	</node>
	<node lat="63.14351110752097" lon="7.47369722403513" id="-6136">
		<tag k="name" v="Mortenstaren" />
=======
	<node id="-78474" lat="63.09721667" lon="7.30464444068">
		<tag k="name" v="Eggeflutaren" />
		<tag k="natural" v="shoal" />
		<tag k="place" v="locality" />
		<tag k="ssr:stedsnr" v="898854" />
	</node>
	<node id="-78473" lat="63.0977111076" lon="7.29738333207">
		<tag k="name" v="Hakaskjærsteinen" />
>>>>>>> e1d4bc35ff8a6074a6f2e91616a996b547c36f15
		<tag k="natural" v="shoal" />
		<tag k="place" v="locality" />
		<tag k="ssr:stedsnr" v="291960" />
	</node>
<<<<<<< HEAD
	<node lat="63.052061114151" lon="7.670330551904987" id="-6137">
		<tag k="name" v="Fossvika" />
		<tag k="natural" v="bay" />
		<tag k="ssr:stedsnr" v="291973" />
	</node>
	<node lat="63.058102773786395" lon="7.481255562647064" id="-6139">
		<tag k="name" v="Ellingvågneset" />
		<tag k="natural" v="cape" />
		<tag k="ssr:stedsnr" v="293740" />
	</node>
	<node lat="63.06598888803506" lon="7.47569999231296" id="-6140">
		<tag k="name" v="Langbakksveet" />
=======
	<node id="-78472" lat="63.0878166631" lon="7.34104165701">
		<tag k="name" v="Kleppen" />
>>>>>>> e1d4bc35ff8a6074a6f2e91616a996b547c36f15
		<tag k="natural" v="shoal" />
		<tag k="place" v="locality" />
		<tag k="ssr:stedsnr" v="293742" />
	</node>
<<<<<<< HEAD
	<node lat="63.05922500125115" lon="7.476230559002969" id="-6141">
		<tag k="name" v="Krillholmsundet" />
		<tag k="natural" v="strait" />
		<tag k="ssr:stedsnr" v="293743" />
	</node>
	<node lat="63.04503610731485" lon="7.380441664747984" id="-6142">
		<tag k="name" v="Hattakjerringa" />
=======
	<node id="-78471" lat="63.1021305512" lon="7.5574083318">
		<tag k="fixme" v="multiple name tags, choose one and add the other to alt_name" />
		<tag k="name" v="Raudeggflua;Raudeggtaren" />
>>>>>>> e1d4bc35ff8a6074a6f2e91616a996b547c36f15
		<tag k="natural" v="shoal" />
		<tag k="place" v="locality" />
		<tag k="ssr:stedsnr" v="293851" />
	</node>
<<<<<<< HEAD
	<node lat="63.01864444819152" lon="7.586822223208731" id="-6147">
		<tag k="name" v="Langstrand" />
		<tag k="natural" v="beach" />
		<tag k="ssr:stedsnr" v="315575" />
	</node>
	<node lat="63.11460555897368" lon="7.646311101411629" id="-6148">
		<tag k="name" v="Ryggneset" />
		<tag k="natural" v="cape" />
		<tag k="ssr:stedsnr" v="316741" />
	</node>
	<node lat="63.01440833329572" lon="7.415702782628557" id="-6150">
		<tag k="name" v="Roholmen" />
=======
	<node id="-78469" lat="63.0818127148" lon="7.60311493866">
		<tag k="alt_name" v="Mannsholman" />
		<tag k="name" v="Mannsholmen" />
>>>>>>> e1d4bc35ff8a6074a6f2e91616a996b547c36f15
		<tag k="place" v="islet" />
		<tag k="ssr:stedsnr" v="316633" />
	</node>
<<<<<<< HEAD
	<node lat="63.01794444369454" lon="7.413258339212516" id="-6151">
		<tag k="name" v="Vågsholmen" />
=======
	<node id="-78467" lat="63.0404472179" lon="7.4903361024">
		<tag k="fixme" v="consider seamark:type=rock or natural=shoal" />
		<tag k="name" v="Selvågskjeret" />
>>>>>>> e1d4bc35ff8a6074a6f2e91616a996b547c36f15
		<tag k="place" v="islet" />
		<tag k="ssr:stedsnr" v="316635" />
	</node>
<<<<<<< HEAD
	<node lat="63.08896389065703" lon="7.5212194421229865" id="-6153">
		<tag k="name" v="Slikingan" />
		<tag k="place" v="islet" />
		<tag k="ssr:stedsnr" v="316773" />
	</node>
	<node lat="63.085905556916906" lon="7.4591277743473094" id="-6154">
		<tag k="fixme" v="consider seamark:type=rock or natural=shoal" />
		<tag k="name" v="Brakan" />
		<tag k="place" v="islet" />
		<tag k="ssr:stedsnr" v="316777" />
	</node>
	<node lat="63.097261107247405" lon="7.619383342806529" id="-6155">
		<tag k="name" v="Indre Seivågen" />
=======
	<node id="-78465" lat="63.0714055539" lon="7.48359166491">
		<tag k="name" v="Skinnbrokneset" />
		<tag k="natural" v="cape" />
		<tag k="ssr:stedsnr" v="839746" />
	</node>
	<node id="-78464" lat="63.1685472219" lon="7.36324167097">
		<tag k="name" v="Ytre Steinen" />
		<tag k="natural" v="shoal" />
		<tag k="place" v="locality" />
		<tag k="ssr:stedsnr" v="838733" />
	</node>
	<node id="-78462" lat="63.064077775" lon="7.5968722221">
		<tag k="name" v="Ekkilsøyvågen" />
>>>>>>> e1d4bc35ff8a6074a6f2e91616a996b547c36f15
		<tag k="natural" v="bay" />
		<tag k="ssr:stedsnr" v="316788" />
	</node>
<<<<<<< HEAD
	<node lat="63.07686111192265" lon="7.609147231901559" id="-6171">
		<tag k="name" v="Pålsbukta" />
=======
	<node id="-78460" lat="63.0452805595" lon="7.57154722994">
		<tag k="name" v="Hjelsetbukta" />
>>>>>>> e1d4bc35ff8a6074a6f2e91616a996b547c36f15
		<tag k="natural" v="bay" />
		<tag k="ssr:stedsnr" v="350801" />
	</node>
<<<<<<< HEAD
	<node lat="63.021522220975065" lon="7.41150277446908" id="-6176">
		<tag k="name" v="Vågsholmvika" />
=======
	<node id="-78458" lat="63.0833888893" lon="7.54575555216">
		<tag k="name" v="Orøyvågen" />
>>>>>>> e1d4bc35ff8a6074a6f2e91616a996b547c36f15
		<tag k="natural" v="bay" />
		<tag k="ssr:stedsnr" v="351430" />
	</node>
<<<<<<< HEAD
	<node lat="63.05742500181685" lon="7.663158325596174" id="-6179">
		<tag k="alt_name" v="Kristvika" />
		<tag k="name" v="Kristvikbukta" />
=======
	<node id="-78456" lat="63.0795888931" lon="7.60284167031">
		<tag k="name" v="Skreddarbukta" />
>>>>>>> e1d4bc35ff8a6074a6f2e91616a996b547c36f15
		<tag k="natural" v="bay" />
		<tag k="ssr:stedsnr" v="351994" />
	</node>
<<<<<<< HEAD
	<node lat="63.17001111072836" lon="7.393250009425531" id="-6180">
		<tag k="name" v="Bådalstaren" />
		<tag k="natural" v="shoal" />
		<tag k="place" v="locality" />
		<tag k="ssr:stedsnr" v="352695" />
	</node>
	<node lat="62.9815583308671" lon="7.348572221787863" id="-6181">
		<tag k="name" v="Tevikholmen" />
		<tag k="place" v="islet" />
		<tag k="ssr:stedsnr" v="353716" />
	</node>
	<node lat="63.05699722152167" lon="7.474427783896432" id="-6182">
		<tag k="name" v="Liaholmen" />
=======
	<node id="-78452" lat="63.0572638865" lon="7.48070000818">
		<tag k="name" v="Ellingvågen" />
		<tag k="natural" v="bay" />
		<tag k="ssr:stedsnr" v="836373" />
	</node>
	<node id="-78448" lat="63.0168305529" lon="7.39248333132">
		<tag k="name" v="Storlauvøya" />
		<tag k="place" v="island" />
		<tag k="ssr:stedsnr" v="801579" />
	</node>
	<node id="-78447" lat="63.0136805525" lon="7.40596388015">
		<tag k="name" v="Litllauvøya" />
>>>>>>> e1d4bc35ff8a6074a6f2e91616a996b547c36f15
		<tag k="place" v="islet" />
		<tag k="ssr:stedsnr" v="353724" />
	</node>
<<<<<<< HEAD
	<node lat="62.943913890494784" lon="7.490391674873122" id="-6183">
		<tag k="name" v="Sjåbergneset" />
		<tag k="natural" v="cape" />
		<tag k="ssr:stedsnr" v="353333" />
	</node>
	<node lat="63.04076944699127" lon="7.4197916609615975" id="-6184">
		<tag k="name" v="Indreneset" />
		<tag k="natural" v="cape" />
		<tag k="ssr:stedsnr" v="353830" />
	</node>
	<node lat="63.09235277813892" lon="7.569480560291382" id="-6185">
		<tag k="fixme" v="consider seamark:type=rock or natural=shoal" />
		<tag k="name" v="Gruvsteinan" />
=======
	<node id="-78446" lat="63.0299499956" lon="7.40155832977">
		<tag k="name" v="Korsholmen" />
>>>>>>> e1d4bc35ff8a6074a6f2e91616a996b547c36f15
		<tag k="place" v="islet" />
		<tag k="ssr:stedsnr" v="353580" />
	</node>
<<<<<<< HEAD
	<node lat="63.04769722093297" lon="7.682180560289716" id="-6186">
		<tag k="bay" v="fjord" />
		<tag k="name" v="Kvernesfjorden" />
=======
	<node id="-78445" lat="63.0478388922" lon="7.66837778498">
		<tag k="name" v="Steinsvika" />
>>>>>>> e1d4bc35ff8a6074a6f2e91616a996b547c36f15
		<tag k="natural" v="bay" />
		<tag k="ssr:stedsnr" v="375946" />
	</node>
<<<<<<< HEAD
	<node lat="63.05061666483659" lon="7.428772212787537" id="-6191">
		<tag k="name" v="Hansholmen" />
		<tag k="place" v="islet" />
		<tag k="ssr:stedsnr" v="376556" />
	</node>
	<node lat="63.03031944454982" lon="7.566649995929187" id="-6193">
		<tag k="name" v="Sundsøya" />
=======
	<node id="-78437" lat="63.1369694406" lon="7.53210834284">
		<tag k="name" v="Midtfjordsfallet" />
		<tag k="natural" v="shoal" />
		<tag k="place" v="locality" />
		<tag k="ssr:stedsnr" v="923738" />
	</node>
	<node id="-78434" lat="63.0162472255" lon="7.43332777529">
		<tag k="name" v="Roaldsøya" />
>>>>>>> e1d4bc35ff8a6074a6f2e91616a996b547c36f15
		<tag k="place" v="islet" />
		<tag k="ssr:stedsnr" v="376578" />
	</node>
<<<<<<< HEAD
	<node lat="63.021988887443236" lon="7.421536102228854" id="-6195">
		<tag k="fixme" v="consider seamark:type=rock or natural=shoal" />
		<tag k="name" v="Kråkholmen" />
		<tag k="place" v="islet" />
		<tag k="ssr:stedsnr" v="376584" />
	</node>
	<node lat="63.02628888653467" lon="7.367761117836162" id="-6196">
		<tag k="fixme" v="consider seamark:type=rock or natural=shoal" />
		<tag k="name" v="Seiskjæret" />
		<tag k="place" v="islet" />
		<tag k="ssr:stedsnr" v="376588" />
	</node>
	<node lat="63.0217805593819" lon="7.581672223324333" id="-6198">
		<tag k="bay" v="fjord" />
		<tag k="name" v="Nekkstadfjorden" />
=======
	<node id="-78433" lat="63.0714833374" lon="7.66278610885">
		<tag k="name" v="Raudsandbukta" />
>>>>>>> e1d4bc35ff8a6074a6f2e91616a996b547c36f15
		<tag k="natural" v="bay" />
		<tag k="ssr:stedsnr" v="376615" />
	</node>
<<<<<<< HEAD
	<node lat="63.098894443236254" lon="7.567691672316782" id="-6200">
		<tag k="name" v="Storneset" />
=======
	<node id="-78430" lat="63.0750805561" lon="7.60283332734">
		<tag k="name" v="Langneset" />
>>>>>>> e1d4bc35ff8a6074a6f2e91616a996b547c36f15
		<tag k="natural" v="cape" />
		<tag k="ssr:stedsnr" v="376709" />
	</node>
	<node lat="63.07688889230181" lon="7.522663897932401" id="-6204">
		<tag k="name" v="Sør-Ramsøya" />
		<tag k="place" v="islet" />
		<tag k="ssr:stedsnr" v="376753" />
	</node>
	<node lat="63.083944444692925" lon="7.559297222065152" id="-6205">
		<tag k="name" v="Stangarodden" />
		<tag k="natural" v="cape" />
		<tag k="ssr:stedsnr" v="376761" />
	</node>
	<node lat="63.04171111057606" lon="7.608508329076661" id="-6215">
		<tag k="name" v="Litlholmen" />
		<tag k="place" v="islet" />
		<tag k="ssr:stedsnr" v="411757" />
	</node>
<<<<<<< HEAD
	<node lat="63.11311944179248" lon="7.6030249982205556" id="-6218">
		<tag k="name" v="Kråka" />
=======
	<node id="-78428" lat="63.0502416704" lon="7.56379723016">
		<tag k="name" v="Vardøya" />
>>>>>>> e1d4bc35ff8a6074a6f2e91616a996b547c36f15
		<tag k="place" v="islet" />
		<tag k="ssr:stedsnr" v="411873" />
	</node>
<<<<<<< HEAD
	<node lat="63.06739444560441" lon="7.49132223060703" id="-6226">
		<tag k="name" v="Myrbærholmen" />
=======
	<node id="-78427" lat="63.0503861128" lon="7.40981389149">
		<tag k="name" v="Kjeholmen" />
>>>>>>> e1d4bc35ff8a6074a6f2e91616a996b547c36f15
		<tag k="place" v="islet" />
		<tag k="ssr:stedsnr" v="414717" />
	</node>
<<<<<<< HEAD
	<node lat="63.05931666855796" lon="7.564966666129795" id="-6231">
		<tag k="name" v="Gjengstøholmen" />
=======
	<node id="-78426" lat="63.0492333321" lon="7.39353888719">
		<tag k="name" v="Litlsandøya" />
>>>>>>> e1d4bc35ff8a6074a6f2e91616a996b547c36f15
		<tag k="place" v="islet" />
		<tag k="ssr:stedsnr" v="437524" />
	</node>
<<<<<<< HEAD
	<node lat="63.022172222914364" lon="7.573216674075198" id="-6232">
		<tag k="name" v="Skallnes" />
=======
	<node id="-78425" lat="63.0704027786" lon="7.4976361169">
		<tag k="name" v="Flatburet" />
>>>>>>> e1d4bc35ff8a6074a6f2e91616a996b547c36f15
		<tag k="natural" v="cape" />
		<tag k="ssr:stedsnr" v="437613" />
	</node>
	<node lat="63.03761388704212" lon="7.444736110374225" id="-6234">
		<tag k="name" v="Seterleira" />
		<tag k="natural" v="bay" />
		<tag k="ssr:stedsnr" v="437594" />
	</node>
<<<<<<< HEAD
	<node lat="63.034944442034245" lon="7.395372218462277" id="-6235">
=======
	<node id="-78424" lat="63.0235916692" lon="7.38931665754">
>>>>>>> e1d4bc35ff8a6074a6f2e91616a996b547c36f15
		<tag k="fixme" v="consider seamark:type=rock or natural=shoal" />
		<tag k="name" v="Litlsekken" />
		<tag k="place" v="islet" />
		<tag k="ssr:stedsnr" v="437595" />
	</node>
<<<<<<< HEAD
	<node lat="63.08603888592098" lon="7.6026638877796895" id="-6237">
		<tag k="name" v="Sveggevika" />
=======
	<node id="-78418" lat="62.9537361073" lon="7.44513055959">
		<tag k="bay" v="fjord" />
		<tag k="name" v="Kornstadfjorden" />
>>>>>>> e1d4bc35ff8a6074a6f2e91616a996b547c36f15
		<tag k="natural" v="bay" />
		<tag k="ssr:stedsnr" v="437732" />
	</node>
<<<<<<< HEAD
	<node lat="63.09534166995899" lon="7.610183334047563" id="-6238">
		<tag k="name" v="Kobbvika" />
		<tag k="natural" v="bay" />
		<tag k="ssr:stedsnr" v="437734" />
	</node>
	<node lat="63.0064777775595" lon="7.726333331288268" id="-6248">
		<tag k="name" v="Lundaneset" />
=======
	<node id="-78416" lat="62.9611138922" lon="7.46538611291">
		<tag k="name" v="Haganeset" />
>>>>>>> e1d4bc35ff8a6074a6f2e91616a996b547c36f15
		<tag k="natural" v="cape" />
		<tag k="ssr:stedsnr" v="497189" />
	</node>
<<<<<<< HEAD
	<node lat="63.048544443556224" lon="7.383369449919064" id="-6251">
		<tag k="name" v="Stangarodden" />
		<tag k="place" v="islet" />
		<tag k="ssr:stedsnr" v="497491" />
	</node>
	<node lat="63.030811730520384" lon="7.416942541792498" id="-6256">
		<tag k="name" v="Rangøya" />
		<tag k="place" v="islet" />
		<tag k="ssr:stedsnr" v="497564" />
	</node>
	<node lat="63.058680552064914" lon="7.424875004304669" id="-6259">
		<tag k="name" v="Storholmen" />
=======
	<node id="-78415" lat="63.0423777802" lon="7.42766110242">
		<tag k="name" v="Hendstraumen" />
		<tag k="natural" v="strait" />
		<tag k="ssr:stedsnr" v="776319" />
	</node>
	<node id="-78414" lat="63.070469447" lon="7.48086943749">
		<tag k="name" v="Reksundet" />
		<tag k="natural" v="strait" />
		<tag k="ssr:stedsnr" v="776312" />
	</node>
	<node id="-78412" lat="63.0639611079" lon="7.43078332373">
		<tag k="alt_name" v="Svartskjeret" />
		<tag k="fixme" v="consider seamark:type=rock or natural=shoal" />
		<tag k="name" v="Svartskjæret" />
>>>>>>> e1d4bc35ff8a6074a6f2e91616a996b547c36f15
		<tag k="place" v="islet" />
		<tag k="ssr:stedsnr" v="498581" />
	</node>
<<<<<<< HEAD
	<node lat="63.058461115482636" lon="7.413469445038796" id="-6260">
		<tag k="name" v="Teistholmen" />
=======
	<node id="-78407" lat="63.0230166668" lon="7.38296388151">
		<tag k="name" v="Geitøya" />
>>>>>>> e1d4bc35ff8a6074a6f2e91616a996b547c36f15
		<tag k="place" v="islet" />
		<tag k="ssr:stedsnr" v="498585" />
	</node>
<<<<<<< HEAD
	<node lat="63.09882777834768" lon="7.656238879803598" id="-6261">
		<tag k="name" v="Løkabukta" />
		<tag k="natural" v="bay" />
		<tag k="ssr:stedsnr" v="498775" />
	</node>
	<node lat="63.01977499831367" lon="7.446949993235627" id="-6264">
		<tag k="name" v="Kalvøya" />
=======
	<node id="-78402" lat="63.0372472182" lon="7.42615000726">
		<tag k="name" v="Seterneset" />
		<tag k="natural" v="cape" />
		<tag k="ssr:stedsnr" v="900842" />
	</node>
	<node id="-78401" lat="63.0435166705" lon="7.56843611361">
		<tag k="fixme" v="consider seamark:type=rock or natural=shoal" />
		<tag k="name" v="Tordøyskjæra" />
>>>>>>> e1d4bc35ff8a6074a6f2e91616a996b547c36f15
		<tag k="place" v="islet" />
		<tag k="ssr:stedsnr" v="498611" />
	</node>
<<<<<<< HEAD
	<node lat="63.11048055862122" lon="7.609875002338034" id="-6265">
		<tag k="name" v="Ytre Seivågen" />
		<tag k="natural" v="bay" />
		<tag k="ssr:stedsnr" v="498724" />
	</node>
	<node lat="63.008077776685084" lon="7.413669444191518" id="-6270">
		<tag k="name" v="Størkervågen" />
		<tag k="natural" v="bay" />
		<tag k="ssr:stedsnr" v="532439" />
	</node>
	<node lat="63.011930554461784" lon="7.409236119792903" id="-6271">
		<tag k="name" v="Litl Lauvøysundet" />
		<tag k="natural" v="strait" />
		<tag k="ssr:stedsnr" v="532441" />
	</node>
	<node lat="63.09172778011133" lon="7.533063884411288" id="-6280">
		<tag k="name" v="Tikfallet" />
=======
	<node id="-78400" lat="62.9812861072" lon="7.33769445165">
		<tag k="name" v="Tøvikholmgrunnan" />
		<tag k="natural" v="shoal" />
		<tag k="place" v="locality" />
		<tag k="ssr:stedsnr" v="899726" />
	</node>
	<node id="-78399" lat="63.1667333321" lon="7.44963611533">
		<tag k="name" v="Nordlandstaren" />
>>>>>>> e1d4bc35ff8a6074a6f2e91616a996b547c36f15
		<tag k="natural" v="shoal" />
		<tag k="place" v="locality" />
		<tag k="ssr:stedsnr" v="534048" />
	</node>
<<<<<<< HEAD
	<node lat="63.072608335084645" lon="7.45775555626831" id="-6281">
		<tag k="name" v="Flatskjærbåen" />
		<tag k="natural" v="shoal" />
		<tag k="place" v="locality" />
		<tag k="ssr:stedsnr" v="534051" />
	</node>
	<node lat="63.1364444412216" lon="7.543783332582512" id="-6283">
		<tag k="name" v="Midttaren" />
=======
	<node id="-78397" lat="63.1237222261" lon="7.2496722316">
		<tag k="name" v="Stabbetaren" />
		<tag k="natural" v="shoal" />
		<tag k="place" v="locality" />
		<tag k="ssr:stedsnr" v="899152" />
	</node>
	<node id="-78395" lat="63.0878472245" lon="7.62313888296">
		<tag k="name" v="Gjengstøhammaren" />
		<tag k="natural" v="cape" />
		<tag k="ssr:stedsnr" v="898848" />
	</node>
	<node id="-78393" lat="63.0770277748" lon="7.67086667073">
		<tag k="name" v="Klubbtaren" />
>>>>>>> e1d4bc35ff8a6074a6f2e91616a996b547c36f15
		<tag k="natural" v="shoal" />
		<tag k="place" v="locality" />
		<tag k="ssr:stedsnr" v="534846" />
	</node>
<<<<<<< HEAD
	<node lat="63.04176111265773" lon="7.583036111852106" id="-6284">
		<tag k="name" v="Ytre Sildevika" />
		<tag k="natural" v="bay" />
		<tag k="ssr:stedsnr" v="536443" />
	</node>
	<node lat="63.0666638877942" lon="7.441188892151378" id="-6285">
		<tag k="fixme" v="consider seamark:type=rock or natural=shoal" />
		<tag k="name" v="Ytre Oddskjæret" />
=======
	<node id="-78392" lat="63.0274194441" lon="7.41468333296">
		<tag k="name" v="Rangøynesvågen" />
		<tag k="natural" v="bay" />
		<tag k="ssr:stedsnr" v="898430" />
	</node>
	<node id="-78391" lat="63.042980555" lon="7.42398610782">
		<tag k="name" v="Gaupsundet" />
		<tag k="natural" v="strait" />
		<tag k="ssr:stedsnr" v="898333" />
	</node>
	<node id="-78389" lat="63.0600833295" lon="7.41625833472">
		<tag k="name" v="Storholmen" />
>>>>>>> e1d4bc35ff8a6074a6f2e91616a996b547c36f15
		<tag k="place" v="islet" />
		<tag k="ssr:stedsnr" v="536711" />
	</node>
<<<<<<< HEAD
	<node lat="63.06655278022821" lon="7.50432777051343" id="-6286">
		<tag k="fixme" v="consider seamark:type=rock or natural=shoal" />
		<tag k="name" v="Hattskjæret" />
		<tag k="place" v="islet" />
		<tag k="ssr:stedsnr" v="536748" />
	</node>
	<node lat="63.08748611089416" lon="7.359163880766484" id="-6290">
		<tag k="fixme" v="consider seamark:type=rock or natural=shoal" />
		<tag k="name" v="Midtfjordsfallet" />
		<tag k="place" v="islet" />
		<tag k="ssr:stedsnr" v="558781" />
	</node>
	<node lat="63.05765555827557" lon="7.554463882229142" id="-6296">
		<tag k="fixme" v="multiple name tags, choose one and add the other to alt_name" />
		<tag k="name" v="Låvøya;Lauvøya" />
		<tag k="place" v="islet" />
		<tag k="ssr:stedsnr" v="558535" />
	</node>
	<node lat="63.11338332955601" lon="7.361269441492231" id="-6301">
=======
	<node id="-78388" lat="63.1022583363" lon="7.5675888923">
		<tag k="name" v="Indre Litlraudegga" />
		<tag k="place" v="islet" />
		<tag k="ssr:stedsnr" v="897802" />
	</node>
	<node id="-78383" lat="63.0155305546" lon="7.35564166281">
		<tag k="name" v="Seiskjærsundet" />
		<tag k="natural" v="strait" />
		<tag k="ssr:stedsnr" v="718805" />
	</node>
	<node id="-78382" lat="63.0038222215" lon="7.39216666946">
		<tag k="name" v="Kuholmtaren" />
		<tag k="natural" v="shoal" />
		<tag k="place" v="locality" />
		<tag k="ssr:stedsnr" v="718804" />
	</node>
	<node id="-78380" lat="63.0727166633" lon="7.35496944362">
		<tag k="name" v="Helboghytta" />
		<tag k="natural" v="shoal" />
		<tag k="place" v="locality" />
		<tag k="ssr:stedsnr" v="716834" />
	</node>
	<node id="-78379" lat="63.0791361079" lon="7.37450554723">
>>>>>>> e1d4bc35ff8a6074a6f2e91616a996b547c36f15
		<tag k="bay" v="fjord" />
		<tag k="name" v="Ramngapet" />
		<tag k="natural" v="bay" />
<<<<<<< HEAD
		<tag k="ssr:stedsnr" v="558736" />
	</node>
	<node lat="63.04496111339261" lon="7.47735000141409" id="-6302">
=======
		<tag k="ssr:stedsnr" v="716828" />
	</node>
	<node id="-78378" lat="63.0919083332" lon="7.59141112051">
		<tag k="name" v="Galten" />
		<tag k="place" v="islet" />
		<tag k="ssr:stedsnr" v="716454" />
	</node>
	<node id="-78377" lat="63.0221916645" lon="7.68457777097">
>>>>>>> e1d4bc35ff8a6074a6f2e91616a996b547c36f15
		<tag k="fixme" v="consider seamark:type=rock or natural=shoal" />
		<tag k="name" v="Draget" />
		<tag k="place" v="islet" />
		<tag k="ssr:stedsnr" v="558567" />
	</node>
<<<<<<< HEAD
	<node lat="63.052397221268414" lon="7.552033326173234" id="-6305">
		<tag k="name" v="Sandholman" />
=======
	<node id="-78374" lat="63.0593444416" lon="7.4823555552">
		<tag k="name" v="Kryssholmen" />
>>>>>>> e1d4bc35ff8a6074a6f2e91616a996b547c36f15
		<tag k="place" v="islet" />
		<tag k="ssr:stedsnr" v="558580" />
	</node>
<<<<<<< HEAD
	<node lat="63.05333888849152" lon="7.564213880489864" id="-6306">
		<tag k="name" v="Grindøya" />
		<tag k="place" v="islet" />
		<tag k="ssr:stedsnr" v="558581" />
	</node>
	<node lat="62.98419999899454" lon="7.356630546681368" id="-6312">
		<tag k="name" v="Grønbukta" />
=======
	<node id="-78373" lat="63.0135527758" lon="7.37806389866">
		<tag k="fixme" v="consider seamark:type=rock or natural=shoal" />
		<tag k="name" v="Lauvåskjeret" />
		<tag k="place" v="islet" />
		<tag k="ssr:stedsnr" v="714406" />
	</node>
	<node id="-78372" lat="63.0826555601" lon="7.53299167424">
		<tag k="name" v="Ramsøysundet" />
		<tag k="natural" v="strait" />
		<tag k="ssr:stedsnr" v="714201" />
	</node>
	<node id="-78371" lat="63.0674388857" lon="7.50744999795">
		<tag k="name" v="Tjønnøyneset" />
		<tag k="natural" v="cape" />
		<tag k="ssr:stedsnr" v="714194" />
	</node>
	<node id="-78370" lat="63.1145749961" lon="7.66471110904">
		<tag k="name" v="Stavneset" />
		<tag k="natural" v="cape" />
		<tag k="ssr:stedsnr" v="895091" />
	</node>
	<node id="-78366" lat="63.0830777774" lon="7.62550278717">
		<tag k="name" v="Djupbukta" />
		<tag k="natural" v="bay" />
		<tag k="ssr:stedsnr" v="889196" />
	</node>
	<node id="-78360" lat="63.0582194468" lon="7.59256389466">
		<tag k="fixme" v="multiple name tags, choose one and add the other to alt_name" />
		<tag k="name" v="Auksundet;Gullurdsundet" />
		<tag k="natural" v="strait" />
		<tag k="ssr:stedsnr" v="680570" />
	</node>
	<node id="-78358" lat="63.085458332" lon="7.62791944484">
		<tag k="name" v="Gjengstøa" />
>>>>>>> e1d4bc35ff8a6074a6f2e91616a996b547c36f15
		<tag k="natural" v="bay" />
		<tag k="ssr:stedsnr" v="593821" />
	</node>
<<<<<<< HEAD
	<node lat="63.01821666331455" lon="7.360541676012733" id="-6321">
		<tag k="name" v="Litlsundet" />
		<tag k="natural" v="strait" />
		<tag k="ssr:stedsnr" v="593828" />
	</node>
	<node lat="63.074477778363814" lon="7.478799997489186" id="-6322">
		<tag k="name" v="Flua" />
		<tag k="natural" v="shoal" />
		<tag k="place" v="locality" />
		<tag k="ssr:stedsnr" v="594066" />
	</node>
	<node lat="63.06593610992514" lon="7.4829833411211215" id="-6324">
		<tag k="name" v="Langbakkleira" />
		<tag k="natural" v="shoal" />
		<tag k="place" v="locality" />
		<tag k="ssr:stedsnr" v="594341" />
	</node>
	<node lat="63.02201944039987" lon="7.378975001218696" id="-6325">
		<tag k="name" v="Grisen" />
=======
	<node id="-78357" lat="63.0769166664" lon="7.60163610792">
		<tag k="name" v="Åkviksundet" />
		<tag k="natural" v="strait" />
		<tag k="ssr:stedsnr" v="679709" />
	</node>
	<node id="-78355" lat="62.9400361072" lon="7.48304165971">
		<tag k="name" v="Rånesholmen" />
		<tag k="place" v="islet" />
		<tag k="ssr:stedsnr" v="679475" />
	</node>
	<node id="-78354" lat="63.0469361104" lon="6.90392778067">
		<tag k="bay" v="fjord" />
		<tag k="name" v="Hustadvika" />
		<tag k="natural" v="bay" />
		<tag k="ssr:stedsnr" v="679056" />
	</node>
	<node id="-78353" lat="63.0732083334" lon="7.50469999255">
		<tag k="name" v="Knutholmen" />
		<tag k="place" v="islet" />
		<tag k="ssr:stedsnr" v="657708" />
	</node>
	<node id="-78351" lat="62.9812916693" lon="7.35576945411">
		<tag k="name" v="Tøvikneset" />
		<tag k="natural" v="cape" />
		<tag k="ssr:stedsnr" v="656717" />
	</node>
	<node id="-78344" lat="63.0338416646" lon="7.42588888917">
		<tag k="name" v="Buholmen" />
>>>>>>> e1d4bc35ff8a6074a6f2e91616a996b547c36f15
		<tag k="place" v="islet" />
		<tag k="ssr:stedsnr" v="594430" />
	</node>
<<<<<<< HEAD
	<node lat="63.15077500267469" lon="7.429388890573274" id="-6330">
		<tag k="name" v="Kofttaren" />
		<tag k="natural" v="shoal" />
		<tag k="place" v="locality" />
		<tag k="ssr:stedsnr" v="594965" />
	</node>
	<node lat="63.12879444796426" lon="7.426611116702125" id="-6331">
		<tag k="fixme" v="consider seamark:type=rock or natural=shoal" />
		<tag k="name" v="Ramnungan" />
=======
	<node id="-78343" lat="63.022838886" lon="7.40215556157">
		<tag k="name" v="Klauvsundet" />
		<tag k="natural" v="strait" />
		<tag k="ssr:stedsnr" v="654442" />
	</node>
	<node id="-78342" lat="63.0342138905" lon="7.41234166889">
		<tag k="name" v="Høgrisholmen" />
>>>>>>> e1d4bc35ff8a6074a6f2e91616a996b547c36f15
		<tag k="place" v="islet" />
		<tag k="ssr:stedsnr" v="594967" />
	</node>
<<<<<<< HEAD
	<node lat="63.112944444389704" lon="7.642138882600327" id="-6332">
		<tag k="name" v="Litløksenvågen" />
=======
	<node id="-78341" lat="63.1039305553" lon="7.60127222026">
		<tag k="name" v="Leirvika" />
>>>>>>> e1d4bc35ff8a6074a6f2e91616a996b547c36f15
		<tag k="natural" v="bay" />
		<tag k="ssr:stedsnr" v="594969" />
	</node>
<<<<<<< HEAD
	<node lat="63.09372777475764" lon="7.625841664626448" id="-6333">
		<tag k="name" v="Kobbevikbukta" />
		<tag k="natural" v="bay" />
		<tag k="ssr:stedsnr" v="594980" />
	</node>
	<node lat="63.09012499805683" lon="7.372880552192278" id="-6334">
		<tag k="name" v="Kårtaren" />
		<tag k="natural" v="shoal" />
		<tag k="place" v="locality" />
		<tag k="ssr:stedsnr" v="595823" />
	</node>
	<node lat="63.07228888727043" lon="7.322427774290559" id="-6335">
		<tag k="bay" v="fjord" />
		<tag k="name" v="Myrgrunnsleia" />
=======
	<node id="-78339" lat="63.0989972241" lon="7.59841666266">
		<tag k="name" v="Seivågneset" />
		<tag k="natural" v="cape" />
		<tag k="ssr:stedsnr" v="653857" />
	</node>
	<node id="-78335" lat="62.9929694487" lon="7.35578333876">
		<tag k="name" v="Trovikholman" />
		<tag k="place" v="islet" />
		<tag k="ssr:stedsnr" v="619914" />
	</node>
	<node id="-78330" lat="63.0706805574" lon="7.50665000469">
		<tag k="name" v="Fjøsbukta" />
>>>>>>> e1d4bc35ff8a6074a6f2e91616a996b547c36f15
		<tag k="natural" v="bay" />
		<tag k="ssr:stedsnr" v="595832" />
	</node>
<<<<<<< HEAD
	<node lat="63.0449416695574" lon="7.559405554852214" id="-6336">
		<tag k="name" v="Ytre Tordøya" />
		<tag k="place" v="island" />
		<tag k="ssr:stedsnr" v="596440" />
	</node>
	<node lat="63.05427222179899" lon="7.3490444494995115" id="-6337">
		<tag k="name" v="Bararman" />
		<tag k="natural" v="shoal" />
=======
	<node id="-78328" lat="63.0424666693" lon="7.48820000587">
		<tag k="name" v="Breivika" />
		<tag k="natural" v="bay" />
		<tag k="ssr:stedsnr" v="718529" />
	</node>
	<node id="-78327" lat="63.0473861098" lon="7.51607222168">
		<tag k="name" v="Naustskjærflua" />
>>>>>>> e1d4bc35ff8a6074a6f2e91616a996b547c36f15
		<tag k="place" v="locality" />
		<tag k="ssr:stedsnr" v="596639" />
	</node>
<<<<<<< HEAD
	<node lat="63.05100833634467" lon="7.380602773376326" id="-6338">
		<tag k="name" v="Grimen" />
=======
	<node id="-78326" lat="62.944608337" lon="7.46493055359">
		<tag k="name" v="Midtgrunnen" />
>>>>>>> e1d4bc35ff8a6074a6f2e91616a996b547c36f15
		<tag k="natural" v="shoal" />
		<tag k="place" v="locality" />
		<tag k="ssr:stedsnr" v="596836" />
	</node>
<<<<<<< HEAD
	<node lat="63.0058972205779" lon="7.400347224288179" id="-6340">
		<tag k="name" v="Roholmen" />
		<tag k="place" v="islet" />
		<tag k="ssr:stedsnr" v="596794" />
	</node>
	<node lat="63.06775833295315" lon="7.5610694462073385" id="-6345">
		<tag k="name" v="Breivika" />
		<tag k="natural" v="bay" />
		<tag k="ssr:stedsnr" v="618512" />
	</node>
	<node lat="63.043802773753946" lon="7.385747222324842" id="-6346">
		<tag k="name" v="Hattan" />
		<tag k="place" v="islet" />
		<tag k="ssr:stedsnr" v="618525" />
	</node>
	<node lat="63.06071111560521" lon="7.533002775821642" id="-6347">
		<tag k="name" v="Hendvika" />
=======
	<node id="-78325" lat="63.0964416629" lon="7.6205916611">
		<tag k="name" v="Kuneset" />
		<tag k="natural" v="cape" />
		<tag k="ssr:stedsnr" v="716709" />
	</node>
	<node id="-78321" lat="63.0790805536" lon="7.388155557">
		<tag k="name" v="Tuveklakken" />
		<tag k="natural" v="shoal" />
		<tag k="ssr:stedsnr" v="715874" />
	</node>
	<node id="-78320" lat="63.01760556" lon="7.36147223049">
		<tag k="fixme" v="consider seamark:type=rock or natural=shoal" />
		<tag k="name" v="Seiskjeret" />
		<tag k="place" v="islet" />
		<tag k="ssr:stedsnr" v="715868" />
	</node>
	<node id="-78318" lat="63.1038638846" lon="7.56015555602">
		<tag k="name" v="Raudegghammaren" />
		<tag k="natural" v="cape" />
		<tag k="ssr:stedsnr" v="716206" />
	</node>
	<node id="-78312" lat="63.0722888873" lon="7.32242777429">
		<tag k="bay" v="fjord" />
		<tag k="name" v="Myrgrunnsleia" />
>>>>>>> e1d4bc35ff8a6074a6f2e91616a996b547c36f15
		<tag k="natural" v="bay" />
		<tag k="ssr:stedsnr" v="618547" />
	</node>
<<<<<<< HEAD
	<node lat="63.07733055665564" lon="7.660100009705027" id="-6349">
		<tag k="name" v="Smedvågen" />
		<tag k="natural" v="bay" />
		<tag k="ssr:stedsnr" v="618695" />
	</node>
	<node lat="63.0787000823423" lon="7.5355243758920265" id="-6350">
		<tag k="name" v="Nørd-Ramsøya" />
=======
	<node id="-78311" lat="63.0901249981" lon="7.37288055219">
		<tag k="name" v="Kårtaren" />
		<tag k="natural" v="shoal" />
		<tag k="place" v="locality" />
		<tag k="ssr:stedsnr" v="595823" />
	</node>
	<node id="-78310" lat="63.0928499992" lon="7.61915277366">
		<tag k="alt_name" v="Kobbvikholman" />
		<tag k="name" v="Kåvikholman" />
>>>>>>> e1d4bc35ff8a6074a6f2e91616a996b547c36f15
		<tag k="place" v="islet" />
		<tag k="ssr:stedsnr" v="618699" />
	</node>
<<<<<<< HEAD
	<node lat="63.0787222199116" lon="7.543836105324925" id="-6351">
		<tag k="name" v="Reipholmen" />
=======
	<node id="-78309" lat="63.0470194476" lon="7.55892777179">
		<tag k="name" v="Flatholmen" />
>>>>>>> e1d4bc35ff8a6074a6f2e91616a996b547c36f15
		<tag k="place" v="islet" />
		<tag k="ssr:stedsnr" v="618700" />
	</node>
<<<<<<< HEAD
	<node lat="63.072966667695695" lon="7.64110000668076" id="-6354">
		<tag k="name" v="Kjerkevågen" />
		<tag k="natural" v="bay" />
		<tag k="ssr:stedsnr" v="619562" />
	</node>
	<node lat="63.056402963276156" lon="7.436868468695596" id="-6355">
		<tag k="name" v="Hasløya" />
		<tag k="place" v="island" />
		<tag k="ssr:stedsnr" v="619564" />
	</node>
	<node lat="63.015483337006145" lon="7.577672212896688" id="-6356">
		<tag k="name" v="Kalvøya" />
		<tag k="place" v="islet" />
		<tag k="ssr:stedsnr" v="619629" />
	</node>
	<node lat="63.011944442649664" lon="7.570258326524044" id="-6357">
		<tag k="name" v="Bafjorden" />
=======
	<node id="-78308" lat="63.01485278" lon="7.430977769">
		<tag k="name" v="Inner Roaldsøysundet" />
		<tag k="natural" v="strait" />
		<tag k="ssr:stedsnr" v="714390" />
	</node>
	<node id="-78306" lat="63.2999999993" lon="7.0566666619">
		<tag k="name" v="Bøføllingen" />
		<tag k="place" v="locality" />
		<tag k="ssr:stedsnr" v="588738" />
	</node>
	<node id="-78292" lat="62.9882749959" lon="7.35966110398">
		<tag k="name" v="Trovika" />
		<tag k="natural" v="bay" />
		<tag k="ssr:stedsnr" v="688642" />
	</node>
	<node id="-78288" lat="63.1104805586" lon="7.60987500234">
		<tag k="name" v="Ytre Seivågen" />
>>>>>>> e1d4bc35ff8a6074a6f2e91616a996b547c36f15
		<tag k="natural" v="bay" />
		<tag k="ssr:stedsnr" v="619631" />
	</node>
<<<<<<< HEAD
	<node lat="63.11615833542261" lon="7.223302768018387" id="-6364">
		<tag k="fixme" v="consider seamark:type=rock or natural=shoal" />
		<tag k="name" v="Orskjæra" />
		<tag k="place" v="islet" />
		<tag k="ssr:stedsnr" v="619746" />
	</node>
	<node lat="63.09899722411197" lon="7.598416662659855" id="-6367">
		<tag k="name" v="Seivågneset" />
		<tag k="natural" v="cape" />
		<tag k="ssr:stedsnr" v="653857" />
	</node>
	<node lat="63.10393055531804" lon="7.60127222025603" id="-6369">
		<tag k="name" v="Leirvika" />
=======
	<node id="-78283" lat="63.0166666696" lon="7.5499999925">
		<tag k="name" v="Averøya" />
		<tag k="place" v="island" />
		<tag k="ssr:stedsnr" v="680928" />
	</node>
	<node id="-78281" lat="63.1018611115" lon="7.59677499244">
		<tag k="name" v="Sveggesundet" />
		<tag k="natural" v="strait" />
		<tag k="ssr:stedsnr" v="680794" />
	</node>
	<node id="-78278" lat="63.1047638862" lon="7.65441944233">
		<tag k="name" v="Seterbukta" />
>>>>>>> e1d4bc35ff8a6074a6f2e91616a996b547c36f15
		<tag k="natural" v="bay" />
		<tag k="ssr:stedsnr" v="653877" />
	</node>
<<<<<<< HEAD
	<node lat="63.03384166459752" lon="7.425888889166918" id="-6371">
		<tag k="name" v="Buholmen" />
		<tag k="place" v="islet" />
		<tag k="ssr:stedsnr" v="654447" />
	</node>
	<node lat="63.08185277752359" lon="7.665952772848927" id="-6379">
		<tag k="name" v="Lystadleira" />
=======
	<node id="-78277" lat="63.0392657047" lon="7.58705632217">
		<tag k="name" v="Sildvika" />
>>>>>>> e1d4bc35ff8a6074a6f2e91616a996b547c36f15
		<tag k="natural" v="bay" />
		<tag k="ssr:stedsnr" v="654995" />
	</node>
<<<<<<< HEAD
	<node lat="63.10845555922424" lon="7.664263879060302" id="-6380">
		<tag k="name" v="Omnbukta" />
=======
	<node id="-78273" lat="63.0296527747" lon="7.45310555021">
		<tag k="name" v="Staurnesvågen" />
>>>>>>> e1d4bc35ff8a6074a6f2e91616a996b547c36f15
		<tag k="natural" v="bay" />
		<tag k="ssr:stedsnr" v="654963" />
	</node>
<<<<<<< HEAD
	<node lat="63.10731666261856" lon="7.660824995592655" id="-6381">
		<tag k="name" v="Båtbukta" />
		<tag k="natural" v="bay" />
		<tag k="ssr:stedsnr" v="654966" />
	</node>
	<node lat="63.11311944645461" lon="7.624502771453636" id="-6382">
		<tag k="name" v="Holmen" />
=======
	<node id="-78267" lat="63.0404416677" lon="7.39000834036">
		<tag k="fixme" v="consider seamark:type=rock or natural=shoal" />
		<tag k="name" v="Storsekken" />
		<tag k="place" v="islet" />
		<tag k="ssr:stedsnr" v="679493" />
	</node>
	<node id="-78266" lat="63.0396833337" lon="7.33150000672">
		<tag k="fixme" v="consider seamark:type=rock or natural=shoal" />
		<tag k="name" v="Sleipskjæret" />
>>>>>>> e1d4bc35ff8a6074a6f2e91616a996b547c36f15
		<tag k="place" v="islet" />
		<tag k="ssr:stedsnr" v="654968" />
	</node>
<<<<<<< HEAD
	<node lat="63.147858329871745" lon="7.5145305589785165" id="-6384">
		<tag k="name" v="Krabbrumsfalla" />
		<tag k="natural" v="shoal" />
		<tag k="place" v="locality" />
		<tag k="ssr:stedsnr" v="655145" />
	</node>
	<node lat="63.11387222335068" lon="7.2618638819335875" id="-6386">
		<tag k="name" v="Haustaren" />
=======
	<node id="-78261" lat="63.0717694414" lon="7.51198333654">
		<tag k="name" v="Tjønnøya" />
		<tag k="place" v="island" />
		<tag k="ssr:stedsnr" v="679476" />
	</node>
	<node id="-78258" lat="63.1388027746" lon="7.47850833559">
		<tag k="name" v="Kråkungen" />
>>>>>>> e1d4bc35ff8a6074a6f2e91616a996b547c36f15
		<tag k="natural" v="shoal" />
		<tag k="place" v="locality" />
		<tag k="ssr:stedsnr" v="655773" />
	</node>
<<<<<<< HEAD
	<node lat="63.10565555985861" lon="7.28021110648699" id="-6388">
=======
	<node id="-78257" lat="63.1056555599" lon="7.28021110649">
>>>>>>> e1d4bc35ff8a6074a6f2e91616a996b547c36f15
		<tag k="name" v="Maltskjæra" />
		<tag k="natural" v="shoal" />
		<tag k="place" v="locality" />
		<tag k="ssr:stedsnr" v="655961" />
	</node>
<<<<<<< HEAD
	<node lat="63.1388027746355" lon="7.478508335589041" id="-6389">
		<tag k="name" v="Kråkungen" />
=======
	<node id="-78256" lat="63.0825555569" lon="7.32510277334">
		<tag k="name" v="Leitaren" />
>>>>>>> e1d4bc35ff8a6074a6f2e91616a996b547c36f15
		<tag k="natural" v="shoal" />
		<tag k="place" v="locality" />
		<tag k="ssr:stedsnr" v="655964" />
	</node>
<<<<<<< HEAD
	<node lat="62.981291669338894" lon="7.355769454109884" id="-6390">
		<tag k="name" v="Tøvikneset" />
		<tag k="natural" v="cape" />
		<tag k="ssr:stedsnr" v="656717" />
	</node>
	<node lat="63.05934444162627" lon="7.482355555195518" id="-6393">
		<tag k="name" v="Kryssholmen" />
		<tag k="place" v="islet" />
		<tag k="ssr:stedsnr" v="714357" />
	</node>
	<node lat="63.01485277996117" lon="7.430977768997166" id="-6394">
		<tag k="name" v="Inner Roaldsøysundet" />
		<tag k="natural" v="strait" />
		<tag k="ssr:stedsnr" v="714390" />
	</node>
	<node lat="63.01355277584054" lon="7.378063898661128" id="-6395">
		<tag k="fixme" v="consider seamark:type=rock or natural=shoal" />
		<tag k="name" v="Lauvåskjeret" />
=======
	<node id="-78255" lat="63.1138722234" lon="7.26186388193">
		<tag k="name" v="Haustaren" />
		<tag k="natural" v="shoal" />
		<tag k="place" v="locality" />
		<tag k="ssr:stedsnr" v="655773" />
	</node>
	<node id="-78254" lat="63.0583555542" lon="7.49392499812">
		<tag k="name" v="Krabbvågen" />
		<tag k="natural" v="bay" />
		<tag k="ssr:stedsnr" v="414645" />
	</node>
	<node id="-78245" lat="63.0988277783" lon="7.6562388798">
		<tag k="name" v="Løkabukta" />
		<tag k="natural" v="bay" />
		<tag k="ssr:stedsnr" v="498775" />
	</node>
	<node id="-78242" lat="63.0197749983" lon="7.44694999324">
		<tag k="name" v="Kalvøya" />
>>>>>>> e1d4bc35ff8a6074a6f2e91616a996b547c36f15
		<tag k="place" v="islet" />
		<tag k="ssr:stedsnr" v="714406" />
	</node>
<<<<<<< HEAD
	<node lat="63.04701944763887" lon="7.558927771790297" id="-6396">
		<tag k="name" v="Flatholmen" />
=======
	<node id="-78241" lat="63.0584611155" lon="7.41346944504">
		<tag k="name" v="Teistholmen" />
>>>>>>> e1d4bc35ff8a6074a6f2e91616a996b547c36f15
		<tag k="place" v="islet" />
		<tag k="ssr:stedsnr" v="714786" />
	</node>
<<<<<<< HEAD
	<node lat="63.09284999916645" lon="7.619152773662704" id="-6397">
		<tag k="alt_name" v="Kobbvikholman" />
		<tag k="name" v="Kåvikholman" />
=======
	<node id="-78240" lat="63.0586805521" lon="7.4248750043">
		<tag k="name" v="Storholmen" />
>>>>>>> e1d4bc35ff8a6074a6f2e91616a996b547c36f15
		<tag k="place" v="islet" />
		<tag k="ssr:stedsnr" v="714850" />
	</node>
<<<<<<< HEAD
	<node lat="63.01760556001051" lon="7.361472230494372" id="-6405">
=======
	<node id="-78235" lat="63.0810888927" lon="7.51304445024">
>>>>>>> e1d4bc35ff8a6074a6f2e91616a996b547c36f15
		<tag k="fixme" v="consider seamark:type=rock or natural=shoal" />
		<tag k="name" v="Seiskjeret" />
		<tag k="place" v="islet" />
<<<<<<< HEAD
		<tag k="ssr:stedsnr" v="715868" />
	</node>
	<node lat="63.07908055357892" lon="7.388155557003961" id="-6408">
		<tag k="name" v="Tuveklakken" />
		<tag k="natural" v="shoal" />
		<tag k="ssr:stedsnr" v="715874" />
	</node>
	<node lat="63.09190833320559" lon="7.591411120513413" id="-6410">
		<tag k="name" v="Galten" />
=======
		<tag k="ssr:stedsnr" v="497721" />
	</node>
	<node id="-78234" lat="63.0718888861" lon="7.55983889108">
		<tag k="name" v="Haltvika" />
		<tag k="natural" v="bay" />
		<tag k="ssr:stedsnr" v="497717" />
	</node>
	<node id="-78233" lat="63.0789916649" lon="7.56397222073">
		<tag k="alt_name" v="Storneset" />
		<tag k="name" v="Stavneset" />
		<tag k="natural" v="cape" />
		<tag k="ssr:stedsnr" v="497716" />
	</node>
	<node id="-78232" lat="63.0695111082" lon="7.4605305606">
		<tag k="fixme" v="consider seamark:type=rock or natural=shoal" />
		<tag k="name" v="Flatskjæret" />
>>>>>>> e1d4bc35ff8a6074a6f2e91616a996b547c36f15
		<tag k="place" v="islet" />
		<tag k="ssr:stedsnr" v="716454" />
	</node>
<<<<<<< HEAD
	<node lat="63.047386109836964" lon="7.516072221681556" id="-6412">
		<tag k="name" v="Naustskjærflua" />
		<tag k="place" v="locality" />
		<tag k="seamark:type" v="rock" />
		<tag k="ssr:stedsnr" v="718500" />
	</node>
	<node lat="63.04246666933472" lon="7.4882000058741065" id="-6413">
		<tag k="name" v="Breivika" />
		<tag k="natural" v="bay" />
		<tag k="ssr:stedsnr" v="718529" />
	</node>
	<node lat="63.07068055735886" lon="7.506650004694084" id="-6414">
		<tag k="name" v="Fjøsbukta" />
		<tag k="natural" v="bay" />
		<tag k="ssr:stedsnr" v="718726" />
	</node>
	<node lat="63.09389166446183" lon="7.702324990223985" id="-6417">
		<tag k="bay" v="fjord" />
		<tag k="name" v="Bremsnesfjorden" />
		<tag k="natural" v="bay" />
		<tag k="ssr:stedsnr" v="740745" />
	</node>
	<node lat="63.00414444373298" lon="7.351541675949273" id="-6420">
		<tag k="bay" v="fjord" />
		<tag k="name" v="Lauvøyfjorden" />
		<tag k="natural" v="bay" />
		<tag k="ssr:stedsnr" v="740383" />
	</node>
	<node lat="63.02301666676752" lon="7.382963881508917" id="-6422">
		<tag k="name" v="Geitøya" />
=======
	<node id="-78226" lat="63.0010277768" lon="7.39069721434">
		<tag k="name" v="Kiperneset" />
		<tag k="natural" v="cape" />
		<tag k="ssr:stedsnr" v="497393" />
	</node>
	<node id="-78225" lat="63.0308117305" lon="7.41694254179">
		<tag k="name" v="Rangøya" />
		<tag k="place" v="islet" />
		<tag k="ssr:stedsnr" v="497564" />
	</node>
	<node id="-78223" lat="63.0485444436" lon="7.38336944992">
		<tag k="name" v="Stangarodden" />
		<tag k="place" v="islet" />
		<tag k="ssr:stedsnr" v="497491" />
	</node>
	<node id="-78222" lat="63.0064777776" lon="7.72633333129">
		<tag k="name" v="Lundaneset" />
		<tag k="natural" v="cape" />
		<tag k="ssr:stedsnr" v="497189" />
	</node>
	<node id="-78219" lat="63.0414888875" lon="7.36072499025">
		<tag k="name" v="Sjurstaran" />
		<tag k="natural" v="shoal" />
		<tag k="place" v="locality" />
		<tag k="ssr:stedsnr" v="475832" />
	</node>
	<node id="-78218" lat="63.0579333305" lon="7.39515833666">
		<tag k="fixme" v="consider seamark:type=rock or natural=shoal" />
		<tag k="name" v="Aktensteinen" />
>>>>>>> e1d4bc35ff8a6074a6f2e91616a996b547c36f15
		<tag k="place" v="islet" />
		<tag k="ssr:stedsnr" v="740554" />
	</node>
<<<<<<< HEAD
	<node lat="63.05944721843577" lon="7.560333324742939" id="-6433">
		<tag k="name" v="Gjengstøholmen" />
=======
	<node id="-78213" lat="63.0889638907" lon="7.52121944212">
		<tag k="name" v="Slikingan" />
>>>>>>> e1d4bc35ff8a6074a6f2e91616a996b547c36f15
		<tag k="place" v="islet" />
		<tag k="ssr:stedsnr" v="775788" />
	</node>
<<<<<<< HEAD
	<node lat="63.06396110787913" lon="7.430783323726925" id="-6434">
		<tag k="alt_name" v="Svartskjeret" />
=======
	<node id="-78212" lat="63.1319249969" lon="7.44181388066">
>>>>>>> e1d4bc35ff8a6074a6f2e91616a996b547c36f15
		<tag k="fixme" v="consider seamark:type=rock or natural=shoal" />
		<tag k="name" v="Svartskjæret" />
		<tag k="place" v="islet" />
		<tag k="ssr:stedsnr" v="775858" />
	</node>
<<<<<<< HEAD
	<node lat="63.042377780178185" lon="7.427661102419203" id="-6437">
		<tag k="name" v="Hendstraumen" />
		<tag k="natural" v="strait" />
		<tag k="ssr:stedsnr" v="776319" />
	</node>
	<node lat="63.10416944279054" lon="7.658133337985357" id="-6439">
		<tag k="name" v="Vorpneset" />
		<tag k="natural" v="cape" />
		<tag k="ssr:stedsnr" v="776698" />
	</node>
	<node lat="63.063127777237256" lon="7.59848055676754" id="-6440">
		<tag k="alt_name" v="Aukneset" />
		<tag k="name" v="Nør Aukan" />
		<tag k="natural" v="cape" />
		<tag k="ssr:stedsnr" v="776781" />
	</node>
	<node lat="63.11402177665786" lon="7.629748509602232" id="-6443">
		<tag k="name" v="Geitaholmen" />
=======
	<node id="-78211" lat="63.1273916668" lon="7.40395555232">
		<tag k="name" v="Lønfallet" />
		<tag k="natural" v="shoal" />
		<tag k="place" v="locality" />
		<tag k="ssr:stedsnr" v="316756" />
	</node>
	<node id="-78208" lat="63.0663833352" lon="7.54245277741">
		<tag k="name" v="Forøya" />
		<tag k="old_name" v="Furøya" />
>>>>>>> e1d4bc35ff8a6074a6f2e91616a996b547c36f15
		<tag k="place" v="islet" />
		<tag k="ssr:stedsnr" v="776970" />
	</node>
<<<<<<< HEAD
	<node lat="63.07068333418719" lon="7.450811115771379" id="-6445">
		<tag k="name" v="Buasundfallet" />
		<tag k="natural" v="shoal" />
		<tag k="place" v="locality" />
		<tag k="ssr:stedsnr" v="777768" />
	</node>
	<node lat="63.081255554282" lon="7.424605562332609" id="-6446">
		<tag k="name" v="Austklakken" />
=======
	<node id="-78205" lat="63.1544111134" lon="7.3855194474">
		<tag k="name" v="Langtarehaugan" />
>>>>>>> e1d4bc35ff8a6074a6f2e91616a996b547c36f15
		<tag k="natural" v="shoal" />
		<tag k="place" v="locality" />
		<tag k="ssr:stedsnr" v="777769" />
	</node>
<<<<<<< HEAD
	<node lat="63.136350002051316" lon="7.403783337996405" id="-6447">
		<tag k="name" v="Sjursbogtaran" />
=======
	<node id="-78202" lat="63.1166861128" lon="7.65916111808">
		<tag k="name" v="Kverven" />
>>>>>>> e1d4bc35ff8a6074a6f2e91616a996b547c36f15
		<tag k="natural" v="shoal" />
		<tag k="place" v="locality" />
		<tag k="ssr:stedsnr" v="777951" />
	</node>
<<<<<<< HEAD
	<node lat="63.0299499955564" lon="7.401558329765638" id="-6452">
		<tag k="name" v="Korsholmen" />
		<tag k="place" v="islet" />
		<tag k="ssr:stedsnr" v="801574" />
	</node>
	<node lat="63.01368055249404" lon="7.405963880151584" id="-6453">
		<tag k="name" v="Litllauvøya" />
		<tag k="place" v="islet" />
		<tag k="ssr:stedsnr" v="801576" />
	</node>
	<node lat="63.01683055292365" lon="7.392483331323315" id="-6454">
		<tag k="name" v="Storlauvøya" />
		<tag k="place" v="island" />
		<tag k="ssr:stedsnr" v="801579" />
	</node>
	<node lat="63.04403960870467" lon="7.55759823379618" id="-6456">
		<tag k="name" v="Tordøya" />
		<tag k="place" v="island" />
		<tag k="ssr:stedsnr" v="801535" />
	</node>
	<node lat="63.047930551749246" lon="7.398949996441788" id="-6458">
		<tag k="name" v="Sandøysundet" />
		<tag k="natural" v="strait" />
		<tag k="ssr:stedsnr" v="801539" />
	</node>
	<node lat="63.047838892193305" lon="7.668377784980743" id="-6461">
		<tag k="name" v="Steinsvika" />
=======
	<node id="-78195" lat="63.0641166708" lon="7.3963055511">
		<tag k="name" v="Halluren" />
		<tag k="place" v="locality" />
		<tag k="ssr:stedsnr" v="472865" />
	</node>
	<node id="-78188" lat="63.0186249981" lon="7.43140832655">
		<tag k="name" v="Ytter Roaldsøysundet" />
		<tag k="natural" v="strait" />
		<tag k="ssr:stedsnr" v="472421" />
	</node>
	<node id="-78187" lat="63.0639083324" lon="7.4650055503">
		<tag k="alt_name" v="Urvågen" />
		<tag k="name" v="Urdvågen" />
		<tag k="natural" v="bay" />
		<tag k="ssr:stedsnr" v="472317" />
	</node>
	<node id="-78182" lat="63.108869448" lon="7.57919443931">
		<tag k="name" v="Engelneset" />
		<tag k="natural" v="cape" />
		<tag k="ssr:stedsnr" v="471867" />
	</node>
	<node id="-78181" lat="63.1006166664" lon="7.59431110188">
		<tag k="name" v="Tangvika" />
>>>>>>> e1d4bc35ff8a6074a6f2e91616a996b547c36f15
		<tag k="natural" v="bay" />
		<tag k="ssr:stedsnr" v="801568" />
	</node>
<<<<<<< HEAD
	<node lat="63.05726388645331" lon="7.4807000081751065" id="-6472">
		<tag k="name" v="Ellingvågen" />
		<tag k="natural" v="bay" />
		<tag k="ssr:stedsnr" v="836373" />
	</node>
	<node lat="63.045280559452465" lon="7.571547229937868" id="-6478">
		<tag k="name" v="Hjelsetbukta" />
		<tag k="natural" v="bay" />
		<tag k="ssr:stedsnr" v="836764" />
	</node>
	<node lat="63.08338888927089" lon="7.545755552161523" id="-6480">
		<tag k="name" v="Orøyvågen" />
		<tag k="natural" v="bay" />
		<tag k="ssr:stedsnr" v="836864" />
	</node>
	<node lat="63.0525277810716" lon="7.438794442316391" id="-6481">
		<tag k="name" v="Hasløysundet" />
		<tag k="natural" v="strait" />
		<tag k="ssr:stedsnr" v="837346" />
	</node>
	<node lat="63.026980555341595" lon="7.6750555510584695" id="-6483">
		<tag k="name" v="Kjørsvikbukta" />
		<tag k="natural" v="bay" />
		<tag k="ssr:stedsnr" v="837933" />
	</node>
	<node lat="63.04635555579442" lon="7.674375009284654" id="-6486">
		<tag k="name" v="Steinsviktaren" />
=======
	<node id="-78180" lat="63.0126694458" lon="7.41855278627">
		<tag k="alt_name" v="Nordholmen" />
		<tag k="name" v="Kuholmen" />
		<tag k="place" v="islet" />
		<tag k="ssr:stedsnr" v="471474" />
	</node>
	<node id="-78177" lat="63.0642666676" lon="7.54996943804">
		<tag k="name" v="Høgholmen" />
		<tag k="place" v="islet" />
		<tag k="ssr:stedsnr" v="471234" />
	</node>
	<node id="-78176" lat="63.0647861149" lon="7.52321111539">
		<tag k="name" v="Steinholmen" />
		<tag k="place" v="island" />
		<tag k="ssr:stedsnr" v="471233" />
	</node>
	<node id="-78175" lat="63.0659833357" lon="7.56283610419">
		<tag k="name" v="Skjertangen" />
		<tag k="natural" v="cape" />
		<tag k="ssr:stedsnr" v="471227" />
	</node>
	<node id="-78174" lat="63.0842527756" lon="7.49120000151">
		<tag k="name" v="Hestskjæret" />
		<tag k="place" v="islet" />
		<tag k="ssr:stedsnr" v="470073" />
	</node>
	<node id="-78172" lat="63.0640361142" lon="7.335886119">
		<tag k="name" v="Myrgrunnan" />
>>>>>>> e1d4bc35ff8a6074a6f2e91616a996b547c36f15
		<tag k="natural" v="shoal" />
		<tag k="place" v="locality" />
		<tag k="ssr:stedsnr" v="838463" />
	</node>
<<<<<<< HEAD
	<node lat="63.12549444792572" lon="7.276341662426952" id="-6487">
		<tag k="name" v="Stabbeflua" />
=======
	<node id="-78171" lat="63.0574694428" lon="7.35782778202">
		<tag k="name" v="Bararmskåkan" />
>>>>>>> e1d4bc35ff8a6074a6f2e91616a996b547c36f15
		<tag k="natural" v="shoal" />
		<tag k="place" v="locality" />
		<tag k="ssr:stedsnr" v="838822" />
	</node>
<<<<<<< HEAD
	<node lat="62.99185555827376" lon="7.712166671546406" id="-6488">
		<tag k="name" v="Trøagrunnen" />
		<tag k="natural" v="shoal" />
		<tag k="place" v="locality" />
		<tag k="ssr:stedsnr" v="839266" />
	</node>
	<node lat="63.08588186630814" lon="7.50453178572369" id="-6489">
=======
	<node id="-78169" lat="63.015905559" lon="7.43931667498">
		<tag k="name" v="Kårvågen" />
		<tag k="natural" v="bay" />
		<tag k="ssr:stedsnr" v="291462" />
	</node>
	<node id="-78167" lat="63.1155638853" lon="7.64718333562">
>>>>>>> e1d4bc35ff8a6074a6f2e91616a996b547c36f15
		<tag k="fixme" v="consider seamark:type=rock or natural=shoal" />
		<tag k="name" v="Hestskjæra" />
		<tag k="place" v="islet" />
<<<<<<< HEAD
		<tag k="ssr:stedsnr" v="839722" />
	</node>
	<node lat="63.071405553927534" lon="7.483591664912479" id="-6490">
		<tag k="name" v="Skinnbrokneset" />
		<tag k="natural" v="cape" />
		<tag k="ssr:stedsnr" v="839746" />
	</node>
	<node lat="63.05141388874877" lon="7.402083342118925" id="-6491">
		<tag k="fixme" v="consider seamark:type=rock or natural=shoal" />
		<tag k="name" v="Gulhatten" />
		<tag k="place" v="islet" />
		<tag k="ssr:stedsnr" v="839822" />
	</node>
	<node lat="63.02432778128343" lon="7.34939444204798" id="-6492">
		<tag k="name" v="Langtaren" />
		<tag k="natural" v="shoal" />
		<tag k="place" v="locality" />
		<tag k="ssr:stedsnr" v="839826" />
	</node>
	<node lat="63.05481388576277" lon="7.50886666468289" id="-6494">
		<tag k="name" v="Øysteinsbukta" />
		<tag k="natural" v="bay" />
		<tag k="ssr:stedsnr" v="862530" />
	</node>
	<node lat="63.059969440064094" lon="7.511788885700921" id="-6496">
		<tag k="name" v="Bollneset" />
=======
		<tag k="ssr:stedsnr" v="290962" />
	</node>
	<node id="-78163" lat="63.0623388851" lon="7.57636944548">
		<tag k="alt_name" v="Gjengstøa" />
		<tag k="name" v="Sør Gjengstøa" />
		<tag k="natural" v="bay" />
		<tag k="ssr:stedsnr" v="290762" />
	</node>
	<node id="-78162" lat="63.0177888864" lon="7.40360833139">
		<tag k="name" v="Stor Lauvøysundet" />
		<tag k="natural" v="strait" />
		<tag k="ssr:stedsnr" v="290408" />
	</node>
	<node id="-78161" lat="63.0001361078" lon="7.3928750004">
		<tag k="name" v="Bjellvågen" />
		<tag k="natural" v="bay" />
		<tag k="ssr:stedsnr" v="290407" />
	</node>
	<node id="-78160" lat="63.0641638892" lon="7.52821387908">
		<tag k="name" v="Langøy-Forøya" />
		<tag k="place" v="island" />
		<tag k="ssr:stedsnr" v="289225" />
	</node>
	<node id="-78150" lat="63.0210363213" lon="7.37206562276">
		<tag k="name" v="Eldhusøya" />
		<tag k="place" v="islet" />
		<tag k="ssr:stedsnr" v="255576" />
	</node>
	<node id="-78149" lat="63.0228916666" lon="7.45623056318">
		<tag k="name" v="Mjølkneset" />
>>>>>>> e1d4bc35ff8a6074a6f2e91616a996b547c36f15
		<tag k="natural" v="cape" />
		<tag k="ssr:stedsnr" v="862483" />
	</node>
<<<<<<< HEAD
	<node lat="63.0627021200805" lon="7.480683033184838" id="-6497">
		<tag k="name" v="Langøya" />
		<tag k="place" v="island" />
		<tag k="ssr:stedsnr" v="862485" />
	</node>
	<node lat="63.06409721835106" lon="7.55681666725613" id="-6499">
		<tag k="name" v="Skjærneset" />
		<tag k="natural" v="cape" />
		<tag k="ssr:stedsnr" v="862490" />
	</node>
	<node lat="63.01795805607088" lon="7.368132231579256" id="-6501">
		<tag k="name" v="Lyngholmen" />
		<tag k="place" v="islet" />
		<tag k="ssr:stedsnr" v="862563" />
	</node>
	<node lat="63.07472777962366" lon="7.4845666728554745" id="-6505">
		<tag k="fixme" v="consider seamark:type=rock or natural=shoal" />
		<tag k="name" v="Fluskjæret" />
=======
	<node id="-78148" lat="63.0344666694" lon="7.6732388866">
		<tag k="name" v="Kvitneset" />
		<tag k="natural" v="cape" />
		<tag k="ssr:stedsnr" v="255560" />
	</node>
	<node id="-78146" lat="63.0564801473" lon="7.58740134819">
		<tag k="name" v="Kjerringa" />
		<tag k="place" v="locality" />
		<tag k="seamark:type" v="rock" />
		<tag k="ssr:stedsnr" v="255555" />
	</node>
	<node id="-78145" lat="63.0728744613" lon="7.57849617147">
		<tag k="name" v="Ekkilsøya" />
		<tag k="place" v="island" />
		<tag k="ssr:stedsnr" v="255521" />
	</node>
	<node id="-78144" lat="63.0719611139" lon="7.52018334084">
		<tag k="name" v="Tjønnøyholmen" />
>>>>>>> e1d4bc35ff8a6074a6f2e91616a996b547c36f15
		<tag k="place" v="islet" />
		<tag k="ssr:stedsnr" v="862723" />
	</node>
<<<<<<< HEAD
	<node lat="63.08153332976996" lon="7.414983329777268" id="-6506">
		<tag k="fixme" v="consider seamark:type=rock or natural=shoal" />
		<tag k="name" v="Litlsvortna" />
=======
	<node id="-78143" lat="63.0738777807" lon="7.51968889548">
		<tag k="name" v="Ramsøyholmen" />
>>>>>>> e1d4bc35ff8a6074a6f2e91616a996b547c36f15
		<tag k="place" v="islet" />
		<tag k="ssr:stedsnr" v="862724" />
	</node>
<<<<<<< HEAD
	<node lat="63.07501944161294" lon="7.505297221724291" id="-6507">
		<tag k="alt_name" v="Drågaskjæret" />
		<tag k="fixme" v="consider seamark:type=rock or natural=shoal" />
		<tag k="name" v="Sørdraga" />
=======
	<node id="-78142" lat="63.0160583369" lon="7.71171111243">
		<tag k="name" v="Gullsetholmen" />
>>>>>>> e1d4bc35ff8a6074a6f2e91616a996b547c36f15
		<tag k="place" v="islet" />
		<tag k="ssr:stedsnr" v="862726" />
	</node>
<<<<<<< HEAD
	<node lat="63.084261111034145" lon="7.5692027695981166" id="-6508">
		<tag k="name" v="Litlrøssøya" />
		<tag k="place" v="island" />
		<tag k="ssr:stedsnr" v="862737" />
	</node>
	<node lat="63.083077777438014" lon="7.625502787172243" id="-6513">
		<tag k="name" v="Djupbukta" />
		<tag k="natural" v="bay" />
		<tag k="ssr:stedsnr" v="889196" />
	</node>
	<node lat="63.02028332949522" lon="7.367224996196469" id="-6519">
		<tag k="name" v="Oksbåsen" />
		<tag k="natural" v="bay" />
		<tag k="ssr:stedsnr" v="957868" />
	</node>
	<node lat="63.10736666548966" lon="7.575527774311515" id="-6520">
		<tag k="name" v="Otterholmen" />
		<tag k="place" v="islet" />
		<tag k="ssr:stedsnr" v="957870" />
	</node>
	<node lat="63.01832777450169" lon="7.582552787371337" id="-6521">
		<tag k="name" v="Omfarøya" />
		<tag k="place" v="island" />
		<tag k="ssr:stedsnr" v="958223" />
	</node>
	<node lat="63.03030555614068" lon="7.5871194370309505" id="-6522">
		<tag k="alt_name" v="Frantsvågleira;Frantsvågen" />
		<tag k="name" v="Fransvågleira" />
		<tag k="natural" v="bay" />
		<tag k="ssr:stedsnr" v="958224" />
	</node>
	<node lat="63.04188610968526" lon="7.672161113635021" id="-6527">
		<tag k="name" v="Engvika" />
=======
	<node id="-78141" lat="63.0085018963" lon="7.40753122336">
		<tag k="name" v="Notneset" />
		<tag k="natural" v="cape" />
		<tag k="ssr:stedsnr" v="255408" />
	</node>
	<node id="-78137" lat="63.1040527772" lon="7.5770888795">
		<tag k="fixme" v="multiple name tags, choose one and add the other to alt_name" />
		<tag k="name" v="Holmen;Raudeggholmen" />
		<tag k="natural" v="cape" />
		<tag k="ssr:stedsnr" v="242270" />
	</node>
	<node id="-78135" lat="63.0327194485" lon="7.57303611217">
		<tag k="name" v="Storesundet" />
		<tag k="natural" v="strait" />
		<tag k="ssr:stedsnr" v="232414" />
	</node>
	<node id="-78134" lat="63.0898055558" lon="7.53462778399">
		<tag k="fixme" v="consider seamark:type=rock or natural=shoal" />
		<tag k="name" v="Tikan" />
		<tag k="place" v="islet" />
		<tag k="ssr:stedsnr" v="232521" />
	</node>
	<node id="-78133" lat="63.1164472228" lon="7.61105833737">
		<tag k="name" v="Gamlesveggen" />
		<tag k="natural" v="shoal" />
		<tag k="place" v="locality" />
		<tag k="ssr:stedsnr" v="232518" />
	</node>
	<node id="-78132" lat="62.997027775" lon="7.72842500713">
		<tag k="name" v="Kvernesgrunnen" />
		<tag k="natural" v="shoal" />
		<tag k="place" v="locality" />
		<tag k="ssr:stedsnr" v="232260" />
	</node>
	<node id="-78131" lat="63.0697222222" lon="7.35612778352">
		<tag k="name" v="Bårdstaren" />
		<tag k="natural" v="shoal" />
		<tag k="place" v="locality" />
		<tag k="ssr:stedsnr" v="231862" />
	</node>
	<node id="-78128" lat="63.0200666688" lon="7.69771944323">
		<tag k="name" v="Veisetgrunnen" />
		<tag k="natural" v="shoal" />
		<tag k="place" v="locality" />
		<tag k="ssr:stedsnr" v="231418" />
	</node>
	<node id="-78124" lat="63.1159653937" lon="7.62831742178">
		<tag k="name" v="Øksenvågrompa" />
>>>>>>> e1d4bc35ff8a6074a6f2e91616a996b547c36f15
		<tag k="natural" v="cape" />
		<tag k="ssr:stedsnr" v="958980" />
	</node>
<<<<<<< HEAD
	<node lat="63.13352718518743" lon="7.324999082145767" id="-6530">
		<tag k="name" v="Grunnkampen" />
=======
	<node id="-78123" lat="63.1347694405" lon="7.4515805582">
		<tag k="name" v="Muen" />
>>>>>>> e1d4bc35ff8a6074a6f2e91616a996b547c36f15
		<tag k="natural" v="shoal" />
		<tag k="place" v="locality" />
		<tag k="ssr:stedsnr" v="959783" />
	</node>
<<<<<<< HEAD
	<node lat="63.08477499777647" lon="7.351336112996462" id="-6531">
		<tag k="name" v="Hjertåstaran" />
=======
	<node id="-78122" lat="63.1091527794" lon="7.28496111307">
		<tag k="name" v="Hatten" />
>>>>>>> e1d4bc35ff8a6074a6f2e91616a996b547c36f15
		<tag k="natural" v="shoal" />
		<tag k="place" v="locality" />
		<tag k="ssr:stedsnr" v="959833" />
	</node>
<<<<<<< HEAD
	<node lat="63.05902222675453" lon="7.478380563125303" id="-6532">
		<tag k="name" v="Krillholman" />
		<tag k="natural" v="cape" />
		<tag k="ssr:stedsnr" v="960718" />
	</node>
	<node lat="63.05284602542827" lon="7.587771368524551" id="-6550">
		<tag k="name" v="Ingeborgvika" />
		<tag k="natural" v="bay" />
		<tag k="ssr:stedsnr" v="990977" />
	</node>
	<node lat="63.05361412631098" lon="7.583917575664038" id="-6551">
		<tag k="name" v="Ingeborgvikholmen" />
		<tag k="place" v="islet" />
		<tag k="ssr:stedsnr" v="990978" />
	</node>
	<node lat="63.13782156946678" lon="7.4588363747922655" id="-6553">
		<tag k="name" v="Kråkleia" />
=======
	<node id="-78121" lat="63.1325305564" lon="7.37979165946">
		<tag k="name" v="Søre Kverna" />
		<tag k="natural" v="shoal" />
		<tag k="place" v="locality" />
		<tag k="ssr:stedsnr" v="230955" />
	</node>
	<node id="-78120" lat="63.1450944418" lon="7.3873250083">
		<tag k="name" v="Litletaren" />
		<tag k="natural" v="shoal" />
		<tag k="place" v="locality" />
		<tag k="ssr:stedsnr" v="230954" />
	</node>
	<node id="-78107" lat="63.0450361073" lon="7.38044166475">
		<tag k="name" v="Hattakjerringa" />
		<tag k="natural" v="shoal" />
		<tag k="place" v="locality" />
		<tag k="ssr:stedsnr" v="293851" />
	</node>
	<node id="-78106" lat="63.0592250013" lon="7.476230559">
		<tag k="name" v="Krillholmsundet" />
>>>>>>> e1d4bc35ff8a6074a6f2e91616a996b547c36f15
		<tag k="natural" v="strait" />
		<tag k="ssr:stedsnr" v="1077825" />
	</node>
<<<<<<< HEAD
	<node lat="63.049160954434676" lon="7.405757273684419" id="-6554">
		<tag k="name" v="Brattholmen" />
		<tag k="place" v="islet" />
		<tag k="ssr:stedsnr" v="1077908" />
	</node>
	<node lat="63.05847983127861" lon="7.417816167066063" id="-6555">
		<tag k="name" v="Teistholmleia" />
		<tag k="natural" v="strait" />
		<tag k="ssr:stedsnr" v="1077912" />
	</node>
	<node lat="63.07881863539715" lon="7.530756126614423" id="-6557">
		<tag k="name" v="Ramsøyan" />
=======
	<node id="-78105" lat="63.065988888" lon="7.47569999231">
		<tag k="name" v="Langbakksveet" />
		<tag k="natural" v="shoal" />
		<tag k="place" v="locality" />
		<tag k="ssr:stedsnr" v="293742" />
	</node>
	<node id="-78104" lat="63.0581027738" lon="7.48125556265">
		<tag k="name" v="Ellingvågneset" />
		<tag k="natural" v="cape" />
		<tag k="ssr:stedsnr" v="293740" />
	</node>
	<node id="-78103" lat="63.0410555554" lon="7.56385000646">
		<tag k="name" v="Indre Tordøya" />
>>>>>>> e1d4bc35ff8a6074a6f2e91616a996b547c36f15
		<tag k="place" v="island" />
		<tag k="ssr:stedsnr" v="1077925" />
	</node>
<<<<<<< HEAD
	<node lat="63.08102692336452" lon="7.525475497880185" id="-6558">
		<tag k="name" v="Sør Ramsøysundet" />
		<tag k="natural" v="strait" />
		<tag k="ssr:stedsnr" v="1077930" />
=======
	<node id="-78092" lat="63.0901500042" lon="7.61827222674">
		<tag k="alt_name" v="Jørengneset" />
		<tag k="name" v="Gjøraneset" />
		<tag k="natural" v="cape" />
		<tag k="ssr:stedsnr" v="194703" />
>>>>>>> e1d4bc35ff8a6074a6f2e91616a996b547c36f15
	</node>
	<node id="-78090" lat="63.0348750032" lon="7.3440305489">
		<tag k="fixme" v="consider seamark:type=rock or natural=shoal" />
		<tag k="name" v="Hummarskjæret" />
		<tag k="place" v="islet" />
		<tag k="ssr:stedsnr" v="194526" />
	</node>
	<node id="-78089" lat="63.0240555576" lon="7.40895554787">
		<tag k="name" v="Klauvsundtangen" />
		<tag k="natural" v="cape" />
		<tag k="ssr:stedsnr" v="194523" />
	</node>
	<node id="-78088" lat="63.0268527797" lon="7.40532499315">
		<tag k="fixme" v="consider seamark:type=rock or natural=shoal" />
		<tag k="name" v="Fånytta" />
		<tag k="place" v="islet" />
		<tag k="ssr:stedsnr" v="194522" />
	</node>
	<node id="-78087" lat="63.0341833292" lon="7.55628888084">
		<tag k="bay" v="fjord" />
		<tag k="name" v="Sundsfjorden" />
		<tag k="natural" v="bay" />
		<tag k="ssr:stedsnr" v="194518" />
	</node>
	<node id="-78084" lat="63.0520611142" lon="7.6703305519">
		<tag k="name" v="Fossvika" />
		<tag k="natural" v="bay" />
		<tag k="ssr:stedsnr" v="291973" />
	</node>
	<node id="-78083" lat="63.1435111075" lon="7.47369722404">
		<tag k="name" v="Mortenstaren" />
		<tag k="natural" v="shoal" />
		<tag k="place" v="locality" />
		<tag k="ssr:stedsnr" v="291960" />
	</node>
	<node id="-78082" lat="63.1048277817" lon="7.65502499723">
		<tag k="name" v="Futseterleira" />
		<tag k="natural" v="bay" />
		<tag k="ssr:stedsnr" v="291953" />
	</node>
	<node id="-78081" lat="63.1535444469" lon="7.56118610811">
		<tag k="name" v="Skjellingstaren" />
		<tag k="natural" v="shoal" />
		<tag k="place" v="locality" />
		<tag k="ssr:stedsnr" v="291831" />
	</node>
	<node id="-78080" lat="63.061233336" lon="7.60001389321">
		<tag k="name" v="Auksundet" />
		<tag k="natural" v="strait" />
		<tag k="ssr:stedsnr" v="291796" />
	</node>
	<node id="-78079" lat="63.0606305532" lon="7.58345832889">
		<tag k="name" v="Sør- Aukan" />
		<tag k="natural" v="cape" />
		<tag k="ssr:stedsnr" v="291794" />
	</node>
	<node id="-78078" lat="63.082380557" lon="7.38899721239">
		<tag k="name" v="Brørne" />
		<tag k="natural" v="shoal" />
		<tag k="place" v="locality" />
		<tag k="ssr:stedsnr" v="291778" />
	</node>
	<node id="-78077" lat="63.054441663" lon="7.42077777624">
		<tag k="name" v="Blomsterholmen" />
		<tag k="place" v="islet" />
		<tag k="ssr:stedsnr" v="291369" />
	</node>
	<node id="-78074" lat="63.1517472194" lon="7.53041111559">
		<tag k="name" v="Jakopgrunnen" />
		<tag k="natural" v="shoal" />
		<tag k="place" v="locality" />
		<tag k="ssr:stedsnr" v="291127" />
	</node>
	<node id="-78073" lat="63.1444111082" lon="7.50279999146">
		<tag k="name" v="Haugan" />
		<tag k="natural" v="shoal" />
		<tag k="place" v="locality" />
		<tag k="ssr:stedsnr" v="291126" />
	</node>
	<node id="-78070" lat="63.0850194435" lon="7.58400833138">
		<tag k="name" v="Vølen" />
		<tag k="natural" v="bay" />
		<tag k="ssr:stedsnr" v="290806" />
	</node>
	<node id="-78068" lat="63.0705472195" lon="7.64903333806">
		<tag k="name" v="Raudsandeidet" />
		<tag k="place" v="locality" />
		<tag k="ssr:stedsnr" v="284949" />
	</node>
	<node id="-78063" lat="62.9870083333" lon="7.69286111677">
		<tag k="alt_name" v="Strandanes" />
		<tag k="name" v="Strandaneset" />
		<tag k="natural" v="cape" />
		<tag k="ssr:stedsnr" v="168816" />
	</node>
	<node id="-78062" lat="63.0395222207" lon="7.57475277139">
		<tag k="bay" v="fjord" />
		<tag k="name" v="Bådalsfjorden" />
		<tag k="natural" v="bay" />
		<tag k="ssr:stedsnr" v="168762" />
	</node>
	<node id="-78060" lat="62.9709444442" lon="7.41068888893">
		<tag k="name" v="Morkabogen" />
		<tag k="natural" v="bay" />
		<tag k="ssr:stedsnr" v="168472" />
	</node>
	<node id="-78059" lat="63.0518916696" lon="7.45105278636">
		<tag k="name" v="Storvika" />
		<tag k="natural" v="bay" />
		<tag k="ssr:stedsnr" v="168412" />
	</node>
	<node id="-78056" lat="63.0955555571" lon="7.67378333234">
		<tag k="name" v="Hogsneset" />
		<tag k="natural" v="cape" />
		<tag k="ssr:stedsnr" v="133729" />
	</node>
	<node id="-78055" lat="63.0909277739" lon="7.3939305523">
		<tag k="name" v="Storsvortna" />
		<tag k="place" v="islet" />
		<tag k="ssr:stedsnr" v="133725" />
	</node>
	<node id="-78052" lat="63.1601638921" lon="7.5047444351">
		<tag k="fixme" v="consider seamark:type=rock or natural=shoal" />
		<tag k="name" v="Litlskjelbreia" />
		<tag k="place" v="islet" />
		<tag k="ssr:stedsnr" v="133705" />
	</node>
	<node id="-78043" lat="63.0723722253" lon="7.48173887953">
		<tag k="name" v="Bollen" />
		<tag k="place" v="islet" />
		<tag k="ssr:stedsnr" v="111706" />
	</node>
	<node id="-78042" lat="63.1444444469" lon="7.56669721606">
		<tag k="name" v="Gardstaren" />
		<tag k="natural" v="shoal" />
		<tag k="place" v="locality" />
		<tag k="ssr:stedsnr" v="109810" />
	</node>
	<node id="-78040" lat="63.0161277781" lon="7.58662223088">
		<tag k="name" v="Kvernhusvågen" />
		<tag k="natural" v="bay" />
		<tag k="ssr:stedsnr" v="109221" />
	</node>
	<node id="-78038" lat="63.0835249991" lon="7.59105833816">
		<tag k="name" v="Markvikneset" />
		<tag k="natural" v="cape" />
		<tag k="ssr:stedsnr" v="108818" />
	</node>
	<node id="-78037" lat="63.0734861148" lon="7.51393055513">
		<tag k="name" v="Nothusneset" />
		<tag k="natural" v="cape" />
		<tag k="ssr:stedsnr" v="107219" />
	</node>
	<node id="-78031" lat="63.1567055549" lon="7.4932277735">
		<tag k="fixme" v="consider seamark:type=rock or natural=shoal" />
		<tag k="name" v="Storskjelbreia" />
		<tag k="place" v="islet" />
		<tag k="ssr:stedsnr" v="255733" />
	</node>
	<node id="-78030" lat="63.1200888923" lon="7.28383888717">
		<tag k="fixme" v="consider seamark:type=rock or natural=shoal" />
		<tag k="name" v="Sleipskjæret" />
		<tag k="place" v="islet" />
		<tag k="ssr:stedsnr" v="255727" />
	</node>
	<node id="-78029" lat="63.0947333318" lon="7.58956944345">
		<tag k="name" v="Galtøyan" />
		<tag k="place" v="islet" />
		<tag k="ssr:stedsnr" v="255773" />
	</node>
	<node id="-78028" lat="63.1132333347" lon="7.28919722283">
		<tag k="fixme" v="consider seamark:type=rock or natural=shoal" />
		<tag k="name" v="Hyttån" />
		<tag k="place" v="islet" />
		<tag k="ssr:stedsnr" v="255723" />
	</node>
	<node id="-78026" lat="63.1184527793" lon="7.63953054994">
		<tag k="fixme" v="consider seamark:type=rock or natural=shoal" />
		<tag k="name" v="Øksenvågskjæra" />
		<tag k="place" v="islet" />
		<tag k="ssr:stedsnr" v="255719" />
	</node>
	<node id="-78025" lat="63.110761108" lon="7.59075556153">
		<tag k="name" v="Engelsundet" />
		<tag k="natural" v="strait" />
		<tag k="ssr:stedsnr" v="255713" />
	</node>
	<node id="-78022" lat="63.0420777781" lon="7.34366388565">
		<tag k="fixme" v="consider seamark:type=rock or natural=shoal" />
		<tag k="name" v="Høyåla" />
		<tag k="place" v="islet" />
		<tag k="ssr:stedsnr" v="255536" />
	</node>
	<node id="-78020" lat="63.0579083305" lon="7.46245000301">
		<tag k="name" v="Langøysundet" />
		<tag k="natural" v="strait" />
		<tag k="ssr:stedsnr" v="255526" />
	</node>
	<node id="-78012" lat="63.0336583339" lon="7.41908889269">
		<tag k="name" v="Risholmen" />
		<tag k="place" v="islet" />
		<tag k="ssr:stedsnr" v="73609" />
	</node>
	<node id="-78011" lat="63.0330944432" lon="7.44102222185">
		<tag k="name" v="Setervågen" />
		<tag k="natural" v="bay" />
		<tag k="ssr:stedsnr" v="73605" />
	</node>
	<node id="-78010" lat="63.1347472232" lon="7.39884999493">
		<tag k="fixme" v="consider seamark:type=rock or natural=shoal" />
		<tag k="name" v="Latramnen" />
		<tag k="place" v="islet" />
		<tag k="ssr:stedsnr" v="73722" />
	</node>
	<node id="-78009" lat="63.132444443" lon="7.38485277247">
		<tag k="fixme" v="consider seamark:type=rock or natural=shoal" />
		<tag k="name" v="Småramnen" />
		<tag k="place" v="islet" />
		<tag k="ssr:stedsnr" v="73720" />
	</node>
	<node id="-78008" lat="63.1204555532" lon="7.48016111289">
		<tag k="bay" v="fjord" />
		<tag k="name" v="Ramnfjorden" />
		<tag k="natural" v="bay" />
		<tag k="ssr:stedsnr" v="73711" />
	</node>
	<node id="-78007" lat="63.1175138913" lon="7.61927221895">
		<tag k="fixme" v="consider seamark:type=rock or natural=shoal" />
		<tag k="name" v="Vettmolan" />
		<tag k="place" v="islet" />
		<tag k="ssr:stedsnr" v="73709" />
	</node>
	<node id="-78005" lat="63.0728416695" lon="7.48969166752">
		<tag k="name" v="Honningsøya" />
		<tag k="place" v="island" />
		<tag k="ssr:stedsnr" v="73537" />
	</node>
	<node id="-78004" lat="63.0697111128" lon="7.61093056468">
		<tag k="name" v="Ekkilsøyvika" />
		<tag k="natural" v="bay" />
		<tag k="ssr:stedsnr" v="73532" />
	</node>
	<node id="-78003" lat="63.0647611073" lon="7.5295916633">
		<tag k="name" v="Sau-Forøya" />
		<tag k="place" v="islet" />
		<tag k="ssr:stedsnr" v="73521" />
	</node>
	<node id="-78001" lat="63.0227388858" lon="7.44942223105">
		<tag k="name" v="Kalvøyvolen" />
		<tag k="natural" v="bay" />
		<tag k="ssr:stedsnr" v="50769" />
	</node>
	<node id="-78000" lat="63.0600888916" lon="7.4983472279">
		<tag k="name" v="Slettneset" />
		<tag k="natural" v="cape" />
		<tag k="ssr:stedsnr" v="50608" />
	</node>
	<node id="-77999" lat="63.012786112" lon="7.58327499739">
		<tag k="name" v="Leirhola" />
		<tag k="natural" v="beach" />
		<tag k="place" v="locality" />
		<tag k="ssr:stedsnr" v="50421" />
	</node>
	<node id="-77997" lat="63.0596944484" lon="7.49353888304">
		<tag k="alt_name" v="Tjuvnebben" />
		<tag k="name" v="Nebben" />
		<tag k="natural" v="cape" />
		<tag k="ssr:stedsnr" v="47416" />
	</node>
	<node id="-77993" lat="63.0943777809" lon="7.31501389646">
		<tag k="name" v="Søre Eggeflusteinen" />
		<tag k="natural" v="shoal" />
		<tag k="place" v="locality" />
		<tag k="ssr:stedsnr" v="231875" />
	</node>
	<node id="-77991" lat="63.0962444421" lon="7.66940000461">
		<tag k="name" v="Sandbukta" />
		<tag k="natural" v="bay" />
		<tag k="ssr:stedsnr" v="230981" />
	</node>
	<node id="-77988" lat="63.0391777737" lon="7.40595000384">
		<tag k="name" v="Grønholmen" />
		<tag k="place" v="islet" />
		<tag k="ssr:stedsnr" v="230380" />
	</node>
	<node id="-77985" lat="63.1150416631" lon="7.29466389005">
		<tag k="name" v="Hyttflua" />
		<tag k="natural" v="shoal" />
		<tag k="place" v="locality" />
		<tag k="ssr:stedsnr" v="230139" />
	</node>
	<node id="-77983" lat="63.0444999957" lon="7.53993054917">
		<tag k="name" v="Flatsetneset" />
		<tag k="natural" v="cape" />
		<tag k="ssr:stedsnr" v="229794" />
	</node>
	<node id="-77974" lat="62.9361083337" lon="7.49189444285">
		<tag k="alt_name" v="Råneset" />
		<tag k="name" v="Rånestangen" />
		<tag k="natural" v="cape" />
		<tag k="ssr:stedsnr" v="11503" />
	</node>
</osm>
