<?xml version="1.0" encoding="UTF-8"?>
<<<<<<< HEAD
<osm version="0.6" generator="osmapis">
	<node lat="63.10566944590924" lon="7.602297214311948" id="-5418">
		<tag k="name" v="Berget" />
		<tag k="place" v="farm" />
		<tag k="ssr:stedsnr" v="230186" />
	</node>
	<node lat="63.004203630814644" lon="7.723019014415901" id="-5425">
		<tag k="name" v="Kvernes prestegard" />
		<tag k="place" v="farm" />
		<tag k="ssr:stedsnr" v="230865" />
	</node>
	<node lat="63.03863889155172" lon="7.67194444990402" id="-5426">
		<tag k="name" v="Engvika" />
		<tag k="place" v="farm" />
		<tag k="ssr:stedsnr" v="230936" />
	</node>
	<node lat="63.040308331064466" lon="7.64783333538247" id="-5433">
		<tag k="historic" v="shieling" />
		<tag k="name" v="Steinsviksetra" />
		<tag k="place" v="isolated_dwelling" />
		<tag k="ssr:stedsnr" v="230973" />
	</node>
	<node lat="62.99983889069094" lon="7.7182305572389325" id="-5434">
		<tag k="name" v="Kvernestrøa" />
		<tag k="place" v="isolated_dwelling" />
		<tag k="ssr:stedsnr" v="231411" />
	</node>
	<node lat="63.015397222826024" lon="7.699924993938746" id="-5435">
		<tag k="name" v="Kleiva" />
		<tag k="place" v="isolated_dwelling" />
		<tag k="ssr:stedsnr" v="231417" />
	</node>
	<node lat="62.94871666372946" lon="7.551622227458231" id="-5439">
		<tag k="name" v="Leithaugen" />
		<tag k="place" v="farm" />
		<tag k="ssr:stedsnr" v="11518" />
	</node>
	<node lat="62.986836109509206" lon="7.687005558531966" id="-5444">
		<tag k="name" v="Myrateigen" />
		<tag k="place" v="farm" />
		<tag k="ssr:stedsnr" v="12919" />
	</node>
	<node lat="62.9774916625848" lon="7.602333342492916" id="-5449">
		<tag k="historic" v="shieling" />
		<tag k="name" v="Meksetra" />
		<tag k="place" v="isolated_dwelling" />
		<tag k="ssr:stedsnr" v="28505" />
	</node>
	<node lat="63.016366667979554" lon="7.45699166028302" id="-5450">
		<tag k="fixme" v="consider place=hamlet" />
		<tag k="name" v="Kårvåg" />
		<tag k="place" v="farm" />
		<tag k="ssr:stedsnr" v="237649" />
	</node>
	<node lat="62.97083039510704" lon="7.442803780693547" id="-5453">
		<tag k="alt_name" v="Tungset nedre" />
		<tag k="fixme" v="consider place=hamlet" />
		<tag k="name" v="Nedre Tungset" />
		<tag k="place" v="farm" />
		<tag k="ssr:stedsnr" v="47470" />
	</node>
	<node lat="63.0232638872706" lon="7.67742221422917" id="-5464">
		<tag k="name" v="Klipa" />
		<tag k="place" v="farm" />
		<tag k="ssr:stedsnr" v="73630" />
	</node>
	<node lat="63.111958334644896" lon="7.6295083318252335" id="-5465">
		<tag k="fixme" v="consider place=hamlet" />
		<tag k="name" v="Øksenvågen" />
		<tag k="place" v="village" />
		<tag k="ssr:stedsnr" v="73706" />
	</node>
	<node lat="62.986444441383966" lon="7.380111114519558" id="-5470">
		<tag k="name" v="Martnadssletta" />
		<tag k="place" v="farm" />
		<tag k="ssr:stedsnr" v="73903" />
	</node>
	<node lat="62.96837680563406" lon="7.619540155060994" id="-5471">
		<tag k="alt_name" v="Skardset" />
		<tag k="fixme" v="consider place=hamlet" />
		<tag k="name" v="Skarset" />
		<tag k="place" v="farm" />
		<tag k="ssr:stedsnr" v="73957" />
	</node>
	<node lat="62.96766110941635" lon="7.608277787245225" id="-5483">
		<tag k="name" v="Mekgrenda" />
		<tag k="place" v="hamlet" />
		<tag k="ssr:stedsnr" v="111280" />
	</node>
	<node lat="62.94949502368174" lon="7.548637407495515" id="-5485">
		<tag k="fixme" v="consider place=hamlet" />
		<tag k="name" v="Seljehaugen" />
		<tag k="place" v="farm" />
		<tag k="ssr:stedsnr" v="132503" />
	</node>
	<node lat="62.94984444001209" lon="7.503075000640009" id="-5487">
		<tag k="name" v="Uthaug" />
		<tag k="place" v="farm" />
		<tag k="ssr:stedsnr" v="132974" />
	</node>
	<node lat="63.05220277369317" lon="7.5023333370103025" id="-5489">
		<tag k="name" v="Rogen" />
		<tag k="place" v="farm" />
		<tag k="ssr:stedsnr" v="133508" />
	</node>
	<node lat="63.05045000287628" lon="7.593136114445311" id="-5490">
		<tag k="name" v="Vollen" />
		<tag k="place" v="farm" />
		<tag k="ssr:stedsnr" v="133511" />
	</node>
	<node lat="63.051655556301455" lon="7.620830551196754" id="-5492">
		<tag k="name" v="Heimdal" />
		<tag k="place" v="farm" />
		<tag k="ssr:stedsnr" v="133518" />
	</node>
	<node lat="63.050130554946385" lon="7.620744448867725" id="-5493">
		<tag k="name" v="Bakken" />
		<tag k="place" v="farm" />
		<tag k="ssr:stedsnr" v="133521" />
	</node>
	<node lat="63.06971111258363" lon="7.597174997605098" id="-5494">
		<tag k="name" v="Kleiva" />
		<tag k="place" v="farm" />
		<tag k="ssr:stedsnr" v="133468" />
	</node>
	<node lat="62.957067849997586" lon="7.489060921151639" id="-5498">
		<tag k="fixme" v="consider place=hamlet" />
		<tag k="name" v="Stein" />
		<tag k="place" v="farm" />
		<tag k="ssr:stedsnr" v="254972" />
	</node>
	<node lat="63.00991263228494" lon="7.535097375974143" id="-5499">
		<tag k="name" v="Rishaugen" />
		<tag k="place" v="farm" />
		<tag k="ssr:stedsnr" v="255425" />
	</node>
	<node lat="63.013755841048905" lon="7.445667060387564" id="-5504">
		<tag k="fixme" v="consider place=suburb, village or hamlet" />
		<tag k="name" v="Kårvåg" />
		<tag k="place" v="quarter" />
		<tag k="ssr:stedsnr" v="255606" />
	</node>
	<node lat="63.05449044116705" lon="7.434758186595846" id="-5505">
		<tag k="fixme" v="consider place=hamlet" />
		<tag k="name" v="Hasløya" />
		<tag k="place" v="farm" />
		<tag k="ssr:stedsnr" v="255547" />
	</node>
	<node lat="63.02043624486511" lon="7.565092609047409" id="-5509">
		<tag k="fixme" v="consider place=hamlet" />
		<tag k="name" v="Nekkstad" />
		<tag k="place" v="farm" />
		<tag k="ssr:stedsnr" v="255617" />
	</node>
	<node lat="63.02620555261128" lon="7.665569450725109" id="-5511">
		<tag k="name" v="Nylund" />
		<tag k="place" v="farm" />
		<tag k="ssr:stedsnr" v="255631" />
	</node>
	<node lat="63.08219444142172" lon="7.588869446881309" id="-5515">
		<tag k="name" v="Setra" />
		<tag k="place" v="farm" />
		<tag k="ssr:stedsnr" v="255743" />
	</node>
	<node lat="63.08720277344581" lon="7.634575005497566" id="-5516">
		<tag k="name" v="Gjengstøa" />
		<tag k="place" v="farm" />
		<tag k="ssr:stedsnr" v="255750" />
	</node>
	<node lat="63.0119250030698" lon="7.533238894003988" id="-5536">
		<tag k="name" v="Pilan" />
		<tag k="place" v="farm" />
		<tag k="ssr:stedsnr" v="195610" />
	</node>
	<node lat="63.025583333911655" lon="7.6687833333272515" id="-5537">
		<tag k="name" v="Holmen" />
		<tag k="place" v="farm" />
		<tag k="ssr:stedsnr" v="195628" />
	</node>
	<node lat="63.01431684094865" lon="7.46946532769904" id="-5540">
		<tag k="name" v="Kårvåg industriområde" />
		<tag k="place" v="quarter" />
		<tag k="ssr:stedsnr" v="224435" />
	</node>
	<node lat="63.053777781255185" lon="7.518852775781801" id="-5541">
		<tag k="name" v="Vårheim" />
		<tag k="place" v="farm" />
		<tag k="ssr:stedsnr" v="229802" />
	</node>
	<node lat="63.043747218907264" lon="7.6683694505251125" id="-5547">
		<tag k="name" v="Egga" />
		<tag k="place" v="farm" />
		<tag k="ssr:stedsnr" v="231474" />
	</node>
	<node lat="62.95524721846583" lon="7.491602781226041" id="-5549">
		<tag k="name" v="Pilhaugen" />
		<tag k="place" v="farm" />
		<tag k="ssr:stedsnr" v="232280" />
	</node>
	<node lat="62.96603611186254" lon="7.448561106941108" id="-5552">
		<tag k="alt_name" v="Leite" />
		<tag k="name" v="Leitet" />
		<tag k="place" v="farm" />
		<tag k="ssr:stedsnr" v="232631" />
	</node>
	<node lat="63.06721111141217" lon="7.653047226878922" id="-5553">
		<tag k="name" v="Damma" />
		<tag k="old_name" v="Heimvang" />
		<tag k="place" v="isolated_dwelling" />
		<tag k="ssr:stedsnr" v="233186" />
	</node>
	<node lat="62.9806273458215" lon="7.663755010707849" id="-5554">
		<tag k="fixme" v="consider place=hamlet" />
		<tag k="name" v="Rokset" />
		<tag k="place" v="farm" />
		<tag k="ssr:stedsnr" v="254914" />
	</node>
	<node lat="63.10603055230676" lon="7.653786115748089" id="-5563">
		<tag k="name" v="Bakkan" />
		<tag k="place" v="farm" />
		<tag k="ssr:stedsnr" v="255709" />
	</node>
	<node lat="63.111911109703236" lon="7.610183325731168" id="-5566">
		<tag k="name" v="Sørheim" />
		<tag k="place" v="farm" />
		<tag k="ssr:stedsnr" v="255721" />
	</node>
	<node lat="63.102202776886855" lon="7.6543777857455755" id="-5567">
		<tag k="name" v="Vorpbukta" />
		<tag k="place" v="farm" />
		<tag k="ssr:stedsnr" v="255765" />
	</node>
	<node lat="63.09928332894898" lon="7.6473611099229295" id="-5568">
		<tag k="name" v="Leitet" />
		<tag k="place" v="farm" />
		<tag k="ssr:stedsnr" v="255766" />
	</node>
	<node lat="63.10054166274174" lon="7.613183337680402" id="-5570">
		<tag k="name" v="Kallestad" />
=======
<osm generator="osmapis" version="0.6">
	<node id="-78846" lat="63.1144305568" lon="7.6197777777">
		<tag k="name" v="Nordheim" />
		<tag k="place" v="farm" />
		<tag k="ssr:stedsnr" v="558735" />
	</node>
	<node id="-78845" lat="63.0959638919" lon="7.66659444207">
		<tag k="name" v="Sandbukta" />
		<tag k="place" v="farm" />
		<tag k="ssr:stedsnr" v="558788" />
	</node>
	<node id="-78331" lat="63.0065111131" lon="7.41200555365">
		<tag k="name" v="Myrheim" />
		<tag k="place" v="farm" />
		<tag k="ssr:stedsnr" v="618383" />
	</node>
	<node id="-78329" lat="63.0618545525" lon="7.46524761171">
		<tag k="fixme" v="consider place=hamlet" />
		<tag k="name" v="Urdan" />
		<tag k="place" v="farm" />
		<tag k="ssr:stedsnr" v="718707" />
	</node>
	<node id="-78837" lat="63.0590777791" lon="7.49715277094">
		<tag k="fixme" v="consider place=hamlet" />
		<tag k="name" v="Krabbvågen" />
		<tag k="place" v="farm" />
		<tag k="ssr:stedsnr" v="558529" />
	</node>
	<node id="-78334" lat="62.9957222244" lon="7.46889999457">
		<tag k="alt_name" v="Øvergarden" />
		<tag k="name" v="Folland" />
		<tag k="place" v="farm" />
		<tag k="ssr:stedsnr" v="619912" />
	</node>
	<node id="-78833" lat="63.0499305516" lon="7.49784167047">
		<tag k="name" v="Skardet" />
		<tag k="place" v="farm" />
		<tag k="ssr:stedsnr" v="558577" />
	</node>
	<node id="-78832" lat="63.0471023253" lon="7.56811680636">
		<tag k="fixme" v="consider place=hamlet" />
		<tag k="name" v="Bogen" />
		<tag k="place" v="farm" />
		<tag k="ssr:stedsnr" v="558570" />
	</node>
	<node id="-78830" lat="63.0536944445" lon="7.66777500134">
		<tag k="name" v="Hestvika" />
		<tag k="place" v="locality" />
		<tag k="ssr:stedsnr" v="558559" />
	</node>
	<node id="-78829" lat="63.013530556" lon="7.68177500847">
		<tag k="name" v="Hjellen" />
		<tag k="place" v="farm" />
		<tag k="ssr:stedsnr" v="558449" />
	</node>
	<node id="-78827" lat="62.965366916" lon="7.45364112303">
		<tag k="fixme" v="consider place=hamlet" />
		<tag k="name" v="Kornstad" />
		<tag k="place" v="farm" />
		<tag k="ssr:stedsnr" v="557943" />
	</node>
	<node id="-78314" lat="63.0152666629" lon="7.53943055108">
		<tag k="name" v="Langhaugen" />
		<tag k="place" v="farm" />
		<tag k="ssr:stedsnr" v="715230" />
	</node>
	<node id="-78313" lat="63.0131611121" lon="7.53826943524">
		<tag k="name" v="Knutstua" />
		<tag k="place" v="farm" />
		<tag k="ssr:stedsnr" v="715229" />
	</node>
	<node id="-77990" lat="63.0386388916" lon="7.6719444499">
		<tag k="name" v="Engvika" />
		<tag k="place" v="farm" />
		<tag k="ssr:stedsnr" v="230936" />
	</node>
	<node id="-78843" lat="63.0269354633" lon="7.67102104609">
		<tag k="fixme" v="consider place=hamlet" />
		<tag k="name" v="Kjørsvika" />
		<tag k="place" v="farm" />
		<tag k="ssr:stedsnr" v="558651" />
	</node>
	<node id="-78815" lat="63.0172833315" lon="7.69136944266">
		<tag k="name" v="Veiset" />
		<tag k="place" v="farm" />
		<tag k="ssr:stedsnr" v="533900" />
	</node>
	<node id="-78814" lat="63.084694443" lon="7.66209999199">
		<tag k="fixme" v="consider place=hamlet" />
		<tag k="name" v="Bremsnes" />
		<tag k="place" v="village" />
		<tag k="ssr:stedsnr" v="533997" />
	</node>
	<node id="-78300" lat="63.0043916639" lon="7.4457333313">
		<tag k="name" v="Lauvland" />
		<tag k="place" v="farm" />
		<tag k="ssr:stedsnr" v="558461" />
	</node>
	<node id="-78421" lat="63.000505557" lon="7.71689722452">
		<tag k="name" v="Vollan" />
		<tag k="place" v="farm" />
		<tag k="ssr:stedsnr" v="922363" />
	</node>
	<node id="-78298" lat="62.9629638871" lon="7.55580832741">
		<tag k="historic" v="shieling" />
		<tag k="name" v="Morkasetra" />
		<tag k="place" v="locality" />
		<tag k="ssr:stedsnr" v="557958" />
	</node>
	<node id="-78809" lat="63.1070500002" lon="7.59315555049">
		<tag k="alt_name" v="Hundvik" />
		<tag k="loc_name" v="Hunnvika" />
		<tag k="name" v="Vika" />
		<tag k="place" v="farm" />
		<tag k="ssr:stedsnr" v="532866" />
	</node>
	<node id="-78808" lat="63.0486555561" lon="7.50461388686">
		<tag k="name" v="Midtgarden" />
		<tag k="place" v="farm" />
		<tag k="ssr:stedsnr" v="532801" />
	</node>
	<node id="-78294" lat="63.013613893" lon="7.54469166871">
		<tag k="name" v="Bjerga" />
		<tag k="place" v="farm" />
		<tag k="ssr:stedsnr" v="533227" />
	</node>
	<node id="-78289" lat="63.0370844066" lon="7.40681037689">
		<tag k="fixme" v="consider place=hamlet" />
		<tag k="name" v="Ljøsøya" />
		<tag k="place" v="farm" />
		<tag k="ssr:stedsnr" v="506471" />
	</node>
	<node id="-78799" lat="63.0436926704" lon="7.49250547028">
		<tag k="fixme" v="consider place=hamlet" />
		<tag k="name" v="Kvistnes" />
		<tag k="place" v="farm" />
		<tag k="ssr:stedsnr" v="532399" />
	</node>
	<node id="-78157" lat="62.9976629979" lon="7.39656875116">
		<tag k="alt_name" v="Mjølvågan" />
		<tag k="fixme" v="consider place=hamlet" />
		<tag k="name" v="Bjellvåg" />
		<tag k="place" v="farm" />
		<tag k="ssr:stedsnr" v="255914" />
	</node>
	<node id="-78796" lat="62.9731126901" lon="7.40954473703">
		<tag k="fixme" v="consider place=hamlet" />
		<tag k="name" v="Litl-Mork" />
		<tag k="place" v="farm" />
		<tag k="ssr:stedsnr" v="437931" />
	</node>
	<node id="-78795" lat="62.9736749959" lon="7.44200000254">
		<tag k="name" v="Bøen" />
		<tag k="old_name" v="Tungset, øvre;Øvre Tungset" />
		<tag k="place" v="farm" />
		<tag k="ssr:stedsnr" v="437925" />
	</node>
	<node id="-78282" lat="62.9922916656" lon="7.37645277826">
		<tag k="name" v="Grovaneset" />
		<tag k="place" v="farm" />
		<tag k="ssr:stedsnr" v="680924" />
	</node>
	<node id="-78071" lat="63.1020000033" lon="7.59473055884">
		<tag k="name" v="Kronborg" />
		<tag k="place" v="farm" />
		<tag k="ssr:stedsnr" v="290810" />
	</node>
	<node id="-78792" lat="62.9985180023" lon="7.62006415813">
		<tag k="fixme" v="consider place=hamlet" />
		<tag k="name" v="Myrset" />
		<tag k="place" v="farm" />
		<tag k="ssr:stedsnr" v="437875" />
	</node>
	<node id="-78338" lat="62.979333336" lon="7.55815833381">
		<tag k="name" v="Svein Drykkjen" />
		<tag k="place" v="locality" />
		<tag k="ssr:stedsnr" v="619939" />
	</node>
	<node id="-78497" lat="63.0477972217" lon="7.62538332356">
		<tag k="name" v="Lia" />
		<tag k="place" v="farm" />
		<tag k="ssr:stedsnr" v="12547" />
	</node>
	<node id="-78788" lat="63.0759499981" lon="7.59813889636">
		<tag k="name" v="Åkvika" />
>>>>>>> e1d4bc35ff8a6074a6f2e91616a996b547c36f15
		<tag k="place" v="farm" />
		<tag k="ssr:stedsnr" v="437726" />
	</node>
<<<<<<< HEAD
	<node lat="62.99766299793148" lon="7.396568751163659" id="-5572">
		<tag k="alt_name" v="Mjølvågan" />
		<tag k="fixme" v="consider place=hamlet" />
		<tag k="name" v="Bjellvåg" />
		<tag k="place" v="farm" />
		<tag k="ssr:stedsnr" v="255914" />
	</node>
	<node lat="63.102830554204736" lon="7.577733327717509" id="-5576">
		<tag k="name" v="Røeggen" />
		<tag k="place" v="farm" />
		<tag k="ssr:stedsnr" v="290802" />
	</node>
	<node lat="63.10200000332009" lon="7.594730558835992" id="-5578">
		<tag k="name" v="Kronborg" />
		<tag k="place" v="farm" />
		<tag k="ssr:stedsnr" v="290810" />
	</node>
	<node lat="63.01593888638747" lon="7.455691665016806" id="-5588">
		<tag k="name" v="Kårvåg" />
		<tag k="place" v="farm" />
		<tag k="ssr:stedsnr" v="298624" />
	</node>
	<node lat="63.04593095092469" lon="7.661605158648774" id="-5593">
		<tag k="fixme" v="consider place=hamlet" />
		<tag k="name" v="Steinsvika" />
		<tag k="place" v="farm" />
		<tag k="ssr:stedsnr" v="315558" />
	</node>
	<node lat="62.99551891739914" lon="7.632303665034661" id="-5594">
		<tag k="fixme" v="consider place=hamlet" />
		<tag k="name" v="Nedal" />
		<tag k="place" v="farm" />
		<tag k="ssr:stedsnr" v="315900" />
	</node>
	<node lat="62.993989384754116" lon="7.602977422070005" id="-5595">
		<tag k="fixme" v="consider place=hamlet" />
		<tag k="name" v="Gulstad" />
		<tag k="place" v="farm" />
		<tag k="ssr:stedsnr" v="315902" />
	</node>
	<node lat="63.021622224308416" lon="7.565911108813046" id="-5599">
		<tag k="name" v="Sandlykkja" />
		<tag k="place" v="farm" />
		<tag k="ssr:stedsnr" v="316661" />
	</node>
	<node lat="63.10076667050056" lon="7.654069450020279" id="-5616">
		<tag k="name" v="Rabben" />
		<tag k="place" v="isolated_dwelling" />
		<tag k="ssr:stedsnr" v="473694" />
	</node>
	<node lat="62.973167395404005" lon="7.443574061083149" id="-5621">
		<tag k="fixme" v="consider place=hamlet" />
		<tag k="name" v="Øvertungset" />
		<tag k="place" v="farm" />
		<tag k="ssr:stedsnr" v="350462" />
	</node>
	<node lat="62.953525002283925" lon="7.545961113562766" id="-5633">
		<tag k="name" v="Ågrenda" />
		<tag k="place" v="hamlet" />
		<tag k="ssr:stedsnr" v="475289" />
	</node>
	<node lat="63.101855553630706" lon="7.5987972126429515" id="-5634">
		<tag k="name" v="Solbakk" />
		<tag k="place" v="isolated_dwelling" />
		<tag k="ssr:stedsnr" v="475576" />
	</node>
	<node lat="63.069101085543615" lon="7.660644622094747" id="-5637">
		<tag k="fixme" v="consider place=hamlet" />
		<tag k="name" v="Raudsand" />
		<tag k="place" v="farm" />
		<tag k="ssr:stedsnr" v="376528" />
	</node>
	<node lat="63.04677499575242" lon="7.495044444699562" id="-5638">
		<tag k="name" v="Langneset" />
		<tag k="place" v="farm" />
		<tag k="ssr:stedsnr" v="411396" />
	</node>
	<node lat="63.00030555282719" lon="7.452250000649588" id="-5650">
		<tag k="name" v="Sørheim" />
		<tag k="place" v="farm" />
		<tag k="ssr:stedsnr" v="437459" />
	</node>
	<node lat="62.9963305562655" lon="7.389077770426339" id="-5658">
		<tag k="alt_name" v="Hjertvik" />
		<tag k="name" v="Hjertvika" />
		<tag k="place" v="farm" />
		<tag k="ssr:stedsnr" v="471469" />
	</node>
	<node lat="63.011252776147245" lon="7.537180547236919" id="-5664">
		<tag k="name" v="Larsstua" />
		<tag k="place" v="farm" />
		<tag k="ssr:stedsnr" v="472210" />
	</node>
	<node lat="63.010574997839726" lon="7.583838892987292" id="-5678">
		<tag k="name" v="Vebenstad" />
		<tag k="place" v="village" />
		<tag k="ssr:stedsnr" v="679392" />
	</node>
	<node lat="63.0131409470673" lon="7.709099178454854" id="-5679">
		<tag k="fixme" v="consider place=hamlet" />
		<tag k="name" v="Gullset" />
		<tag k="place" v="farm" />
		<tag k="ssr:stedsnr" v="679353" />
	</node>
	<node lat="63.004779207511895" lon="7.466056595534728" id="-5680">
		<tag k="name" v="Tuva" />
		<tag k="place" v="farm" />
		<tag k="ssr:stedsnr" v="679398" />
	</node>
	<node lat="63.04668713875344" lon="7.578674540488595" id="-5686">
		<tag k="fixme" v="consider place=hamlet" />
		<tag k="name" v="Hjelset" />
		<tag k="place" v="farm" />
		<tag k="ssr:stedsnr" v="679501" />
	</node>
	<node lat="63.04342500221885" lon="7.657269445467347" id="-5687">
		<tag k="name" v="Dalen" />
		<tag k="place" v="farm" />
		<tag k="ssr:stedsnr" v="679537" />
	</node>
	<node lat="62.960521962614074" lon="7.594254716059291" id="-5690">
		<tag k="fixme" v="consider place=hamlet" />
		<tag k="name" v="Avset" />
		<tag k="place" v="farm" />
		<tag k="ssr:stedsnr" v="679956" />
	</node>
	<node lat="63.06175832921708" lon="7.634044448821879" id="-5692">
		<tag k="name" v="Myra" />
		<tag k="place" v="farm" />
		<tag k="ssr:stedsnr" v="680572" />
	</node>
	<node lat="63.01338889261606" lon="7.443436119636749" id="-5694">
		<tag k="name" v="Seljeset" />
		<tag k="place" v="farm" />
		<tag k="ssr:stedsnr" v="680647" />
	</node>
	<node lat="62.99229166556196" lon="7.376452778259999" id="-5697">
		<tag k="name" v="Grovaneset" />
		<tag k="place" v="farm" />
		<tag k="ssr:stedsnr" v="680924" />
	</node>
	<node lat="62.99481389335758" lon="7.709133331009889" id="-5699">
		<tag k="name" v="Eikrem" />
		<tag k="place" v="farm" />
		<tag k="ssr:stedsnr" v="680933" />
	</node>
	<node lat="63.003472386897414" lon="7.412999004283402" id="-5705">
		<tag k="fixme" v="consider place=hamlet" />
		<tag k="name" v="Smedneset" />
		<tag k="place" v="farm" />
		<tag k="ssr:stedsnr" v="497394" />
	</node>
	<node lat="63.03101807117995" lon="7.671829207264859" id="-5711">
		<tag k="fixme" v="consider place=hamlet" />
		<tag k="name" v="Leitet" />
		<tag k="place" v="farm" />
		<tag k="ssr:stedsnr" v="498659" />
	</node>
	<node lat="62.97999167054828" lon="7.363777777683817" id="-5712">
		<tag k="name" v="Tøvika" />
		<tag k="place" v="farm" />
		<tag k="ssr:stedsnr" v="498942" />
	</node>
	<node lat="63.04369267045" lon="7.492505470280216" id="-5715">
		<tag k="fixme" v="consider place=hamlet" />
		<tag k="name" v="Kvistnes" />
		<tag k="place" v="farm" />
		<tag k="ssr:stedsnr" v="532399" />
	</node>
	<node lat="63.0486555561354" lon="7.504613886864438" id="-5721">
		<tag k="name" v="Midtgarden" />
		<tag k="place" v="farm" />
		<tag k="ssr:stedsnr" v="532801" />
	</node>
	<node lat="62.96296388706729" lon="7.555808327412031" id="-5727">
		<tag k="historic" v="shieling" />
		<tag k="name" v="Morkasetra" />
		<tag k="place" v="isolated_dwelling" />
		<tag k="ssr:stedsnr" v="557958" />
	</node>
	<node lat="63.013530555996326" lon="7.681775008470191" id="-5730">
		<tag k="name" v="Hjellen" />
		<tag k="place" v="farm" />
		<tag k="ssr:stedsnr" v="558449" />
	</node>
	<node lat="63.004391663888754" lon="7.445733331299712" id="-5732">
		<tag k="name" v="Lauvland" />
		<tag k="place" v="farm" />
		<tag k="ssr:stedsnr" v="558461" />
	</node>
	<node lat="63.026935463256365" lon="7.671021046090168" id="-5733">
		<tag k="fixme" v="consider place=hamlet" />
		<tag k="name" v="Kjørsvika" />
		<tag k="place" v="farm" />
		<tag k="ssr:stedsnr" v="558651" />
	</node>
	<node lat="62.96599444737873" lon="7.443041675712644" id="-5749">
		<tag k="name" v="Grønmyr" />
		<tag k="place" v="isolated_dwelling" />
		<tag k="ssr:stedsnr" v="595664" />
	</node>
	<node lat="63.07508056009736" lon="7.64256667620449" id="-5750">
		<tag k="name" v="Gjøta" />
		<tag k="place" v="isolated_dwelling" />
		<tag k="ssr:stedsnr" v="595862" />
	</node>
	<node lat="62.974791161449794" lon="7.632387448746476" id="-5751">
		<tag k="fixme" v="consider place=hamlet" />
		<tag k="name" v="Hoset" />
		<tag k="place" v="farm" />
		<tag k="ssr:stedsnr" v="596300" />
	</node>
	<node lat="63.006511113121725" lon="7.412005553651134" id="-5754">
		<tag k="name" v="Myrheim" />
		<tag k="place" v="farm" />
		<tag k="ssr:stedsnr" v="618383" />
	</node>
	<node lat="63.04398059574268" lon="7.52804488521125" id="-5760">
		<tag k="fixme" v="consider place=hamlet" />
		<tag k="name" v="Flatset" />
		<tag k="place" v="farm" />
		<tag k="ssr:stedsnr" v="619573" />
	</node>
	<node lat="63.0966861097404" lon="7.637774993220597" id="-5762">
		<tag k="name" v="Kobbvika" />
		<tag k="place" v="farm" />
		<tag k="ssr:stedsnr" v="619785" />
	</node>
	<node lat="62.995722224384956" lon="7.468899994567897" id="-5763">
		<tag k="alt_name" v="Øvergarden" />
		<tag k="name" v="Folland" />
		<tag k="place" v="farm" />
		<tag k="ssr:stedsnr" v="619912" />
	</node>
	<node lat="63.06983333155168" lon="7.597744440663918" id="-5773">
		<tag k="fixme" v="consider place=hamlet" />
		<tag k="name" v="Ekkilsøya" />
		<tag k="place" v="village" />
		<tag k="ssr:stedsnr" v="655190" />
	</node>
	<node lat="63.05371173939648" lon="7.652994797201542" id="-5781">
		<tag k="fixme" v="consider place=hamlet" />
		<tag k="name" v="Kristvika" />
		<tag k="place" v="farm" />
		<tag k="ssr:stedsnr" v="679518" />
	</node>
	<node lat="63.01197575576986" lon="7.526808765664046" id="-5784">
		<tag k="name" v="Stormyra" />
		<tag k="place" v="farm" />
		<tag k="ssr:stedsnr" v="680666" />
	</node>
	<node lat="63.048981984476264" lon="7.628280920307049" id="-5788">
		<tag k="fixme" v="consider place=hamlet" />
		<tag k="name" v="Ødegård" />
		<tag k="place" v="farm" />
		<tag k="ssr:stedsnr" v="693812" />
	</node>
	<node lat="63.00327778232969" lon="7.6188111186183285" id="-5793">
		<tag k="historic" v="shieling" />
		<tag k="name" v="Bjørsholsetra" />
		<tag k="place" v="isolated_dwelling" />
		<tag k="ssr:stedsnr" v="898232" />
	</node>
	<node lat="63.06185455250261" lon="7.46524761171061" id="-5820">
		<tag k="fixme" v="consider place=hamlet" />
		<tag k="name" v="Urdan" />
		<tag k="place" v="farm" />
		<tag k="ssr:stedsnr" v="718707" />
	</node>
	<node lat="63.01022406598081" lon="7.516453033575398" id="-5825">
		<tag k="name" v="Arvestad" />
		<tag k="place" v="farm" />
		<tag k="ssr:stedsnr" v="740403" />
	</node>
	<node lat="63.00757135140221" lon="7.534325401559927" id="-5826">
		<tag k="name" v="Elvahaugen" />
		<tag k="place" v="farm" />
		<tag k="ssr:stedsnr" v="740404" />
	</node>
	<node lat="63.00175555584309" lon="7.479011107017485" id="-5828">
		<tag k="name" v="Bakken" />
		<tag k="place" v="farm" />
		<tag k="ssr:stedsnr" v="740401" />
	</node>
	<node lat="62.99874167014738" lon="7.58389722858403" id="-5830">
		<tag k="name" v="Røssvoll" />
		<tag k="place" v="farm" />
		<tag k="ssr:stedsnr" v="740895" />
	</node>
	<node lat="63.06410278105823" lon="7.631383336216798" id="-5831">
		<tag k="name" v="Mjølkneset" />
		<tag k="place" v="farm" />
		<tag k="ssr:stedsnr" v="741601" />
	</node>
	<node lat="63.03000981194816" lon="7.41921795298475" id="-5839">
=======
	<node id="-78274" lat="62.9464788757" lon="7.5489836198">
		<tag k="alt_name" v="Fjæra" />
		<tag k="fixme" v="consider place=hamlet" />
		<tag k="name" v="Fjøra" />
		<tag k="place" v="farm" />
		<tag k="ssr:stedsnr" v="496535" />
	</node>
	<node id="-78271" lat="63.0434250022" lon="7.65726944547">
		<tag k="name" v="Dalen" />
		<tag k="place" v="farm" />
		<tag k="ssr:stedsnr" v="679537" />
	</node>
	<node id="-78270" lat="63.0537117394" lon="7.6529947972">
		<tag k="fixme" v="consider place=hamlet" />
		<tag k="name" v="Kristvika" />
		<tag k="place" v="farm" />
		<tag k="ssr:stedsnr" v="679518" />
	</node>
	<node id="-78781" lat="63.0567818211" lon="7.63390876077">
		<tag k="fixme" v="consider place=hamlet" />
		<tag k="name" v="Straum" />
		<tag k="place" v="farm" />
		<tag k="ssr:stedsnr" v="437568" />
	</node>
	<node id="-78268" lat="63.0466871388" lon="7.57867454049">
		<tag k="fixme" v="consider place=hamlet" />
		<tag k="name" v="Hjelset" />
		<tag k="place" v="farm" />
		<tag k="ssr:stedsnr" v="679501" />
	</node>
	<node id="-78410" lat="63.0777000024" lon="7.59716388743">
		<tag k="name" v="Myra" />
		<tag k="place" v="farm" />
		<tag k="ssr:stedsnr" v="740717" />
	</node>
	<node id="-78777" lat="63.0003055528" lon="7.45225000065">
		<tag k="name" v="Sørheim" />
		<tag k="place" v="farm" />
		<tag k="ssr:stedsnr" v="437459" />
	</node>
	<node id="-78264" lat="63.0105749978" lon="7.58383889299">
		<tag k="name" v="Vebenstad" />
		<tag k="place" v="village" />
		<tag k="ssr:stedsnr" v="679392" />
	</node>
	<node id="-78775" lat="62.9562305554" lon="7.53678055004">
		<tag k="name" v="Nordgard" />
		<tag k="place" v="farm" />
		<tag k="ssr:stedsnr" v="436994" />
	</node>
	<node id="-78774" lat="62.9642694403" lon="7.49868888501">
		<tag k="historic" v="shieling" />
		<tag k="name" v="Slatlemsetra" />
		<tag k="place" v="locality" />
		<tag k="ssr:stedsnr" v="436962" />
	</node>
	<node id="-78773" lat="63.1074138845" lon="7.59446665966">
		<tag k="name" v="Sanden" />
		<tag k="place" v="farm" />
		<tag k="ssr:stedsnr" v="423861" />
	</node>
	<node id="-78238" lat="63.0310180712" lon="7.67182920726">
		<tag k="fixme" v="consider place=hamlet" />
		<tag k="name" v="Leitet" />
		<tag k="place" v="farm" />
		<tag k="ssr:stedsnr" v="498659" />
	</node>
	<node id="-78769" lat="63.0357805562" lon="7.66999722705">
		<tag k="name" v="Oterbekken" />
		<tag k="place" v="isolated_dwelling" />
		<tag k="ssr:stedsnr" v="414438" />
	</node>
	<node id="-78408" lat="63.0407027766" lon="7.64764445319">
		<tag k="name" v="Setra" />
		<tag k="place" v="farm" />
		<tag k="ssr:stedsnr" v="740565" />
	</node>
	<node id="-78253" lat="63.0518869815" lon="7.59037189233">
		<tag k="fixme" v="consider place=hamlet" />
		<tag k="name" v="Ingeborgvik" />
		<tag k="place" v="farm" />
		<tag k="ssr:stedsnr" v="511793" />
	</node>
	<node id="-78251" lat="63.0467749958" lon="7.4950444447">
		<tag k="name" v="Langneset" />
		<tag k="place" v="farm" />
		<tag k="ssr:stedsnr" v="411396" />
	</node>
	<node id="-78236" lat="63.0121873609" lon="7.53872652192">
		<tag k="fixme" v="consider place=hamlet" />
		<tag k="name" v="Hol" />
		<tag k="place" v="farm" />
		<tag k="ssr:stedsnr" v="376436" />
	</node>
	<node id="-78246" lat="62.9799916705" lon="7.36377777768">
		<tag k="name" v="Tøvika" />
		<tag k="place" v="farm" />
		<tag k="ssr:stedsnr" v="498942" />
	</node>
	<node id="-78755" lat="63.0563916668" lon="7.50744444863">
		<tag k="alt_name" v="Mellomset" />
		<tag k="name" v="Mellemset" />
		<tag k="place" v="farm" />
		<tag k="ssr:stedsnr" v="411780" />
	</node>
	<node id="-78239" lat="63.0658611146" lon="7.63422778676">
		<tag k="name" v="Breivika" />
		<tag k="place" v="farm" />
		<tag k="ssr:stedsnr" v="498565" />
	</node>
	<node id="-78750" lat="62.9712638869" lon="7.40527778537">
		<tag k="name" v="Kråkneset" />
		<tag k="place" v="farm" />
		<tag k="ssr:stedsnr" v="376957" />
	</node>
	<node id="-78749" lat="62.9694477678" lon="7.42620319293">
		<tag k="fixme" v="consider place=hamlet" />
		<tag k="name" v="Nasvika" />
		<tag k="place" v="farm" />
		<tag k="ssr:stedsnr" v="376956" />
	</node>
	<node id="-78748" lat="62.9723808814" lon="7.43534341109">
		<tag k="fixme" v="consider place=hamlet" />
		<tag k="name" v="Fagerengin" />
		<tag k="place" v="farm" />
		<tag k="ssr:stedsnr" v="376954" />
	</node>
	<node id="-77978" lat="62.9868361095" lon="7.68700555853">
		<tag k="name" v="Myrateigen" />
		<tag k="place" v="farm" />
		<tag k="ssr:stedsnr" v="12919" />
	</node>
	<node id="-78742" lat="63.0909777754" lon="7.66812778319">
		<tag k="name" v="Skogheim" />
		<tag k="place" v="farm" />
		<tag k="ssr:stedsnr" v="376749" />
	</node>
	<node id="-78489" lat="63.0310802727" lon="7.41475276737">
		<tag k="fixme" v="consider place=hamlet" />
		<tag k="name" v="Rangøya" />
		<tag k="place" v="farm" />
		<tag k="ssr:stedsnr" v="980773" />
	</node>
	<node id="-78740" lat="63.1113500023" lon="7.64479721738">
		<tag k="fixme" v="multiple name tags, choose one and add the other to alt_name" />
		<tag k="name" v="Tufta;Tøfta" />
		<tag k="place" v="farm" />
		<tag k="ssr:stedsnr" v="376710" />
	</node>
	<node id="-78227" lat="63.0034723869" lon="7.41299900428">
		<tag k="fixme" v="consider place=hamlet" />
		<tag k="name" v="Smedneset" />
		<tag k="place" v="farm" />
		<tag k="ssr:stedsnr" v="497394" />
	</node>
	<node id="-78224" lat="63.0381277775" lon="7.54107776963">
		<tag k="name" v="Storlykkja" />
		<tag k="place" v="farm" />
		<tag k="ssr:stedsnr" v="497562" />
	</node>
	<node id="-78732" lat="63.0335361086" lon="7.54765278151">
		<tag k="name" v="Reitan" />
		<tag k="place" v="farm" />
		<tag k="ssr:stedsnr" v="376580" />
	</node>
	<node id="-78729" lat="63.0691010855" lon="7.66064462209">
		<tag k="fixme" v="consider place=hamlet" />
		<tag k="name" v="Raudsand" />
		<tag k="place" v="farm" />
		<tag k="ssr:stedsnr" v="376528" />
	</node>
	<node id="-78216" lat="62.9535250023" lon="7.54596111356">
		<tag k="name" v="Ågrenda" />
		<tag k="place" v="hamlet" />
		<tag k="ssr:stedsnr" v="475289" />
	</node>
	<node id="-78215" lat="63.0216222243" lon="7.56591110881">
		<tag k="name" v="Sandlykkja" />
		<tag k="place" v="farm" />
		<tag k="ssr:stedsnr" v="316661" />
	</node>
	<node id="-78725" lat="62.9607947684" lon="7.47938734901">
		<tag k="fixme" v="consider place=hamlet" />
		<tag k="name" v="Slatlem" />
		<tag k="place" v="farm" />
		<tag k="ssr:stedsnr" v="375951" />
	</node>
	<node id="-78230" lat="63.0010027737" lon="7.47922777058">
		<tag k="name" v="Storhaug" />
		<tag k="place" v="farm" />
		<tag k="ssr:stedsnr" v="497418" />
	</node>
	<node id="-78210" lat="62.9939893848" lon="7.60297742207">
		<tag k="fixme" v="consider place=hamlet" />
		<tag k="name" v="Gulstad" />
		<tag k="place" v="farm" />
		<tag k="ssr:stedsnr" v="315902" />
	</node>
	<node id="-78207" lat="63.006186111" lon="7.47210277662">
		<tag k="name" v="Øygarden" />
		<tag k="place" v="farm" />
		<tag k="ssr:stedsnr" v="315410" />
	</node>
	<node id="-78203" lat="63.1007666705" lon="7.65406945002">
		<tag k="name" v="Rabben" />
		<tag k="place" v="isolated_dwelling" />
		<tag k="ssr:stedsnr" v="473694" />
	</node>
	<node id="-78228" lat="63.0104138852" lon="7.56008056501">
		<tag k="name" v="Ba" />
		<tag k="place" v="farm" />
		<tag k="ssr:stedsnr" v="497410" />
	</node>
	<node id="-78708" lat="63.0117138871" lon="7.55758055234">
		<tag k="fixme" v="consider place=hamlet" />
		<tag k="name" v="Ba" />
		<tag k="place" v="farm" />
		<tag k="ssr:stedsnr" v="351227" />
	</node>
	<node id="-78352" lat="63.0237861155" lon="7.59092499497">
		<tag k="name" v="Åkran" />
		<tag k="place" v="farm" />
		<tag k="ssr:stedsnr" v="657463" />
	</node>
	<node id="-78186" lat="63.0112527761" lon="7.53718054724">
		<tag k="name" v="Larsstua" />
		<tag k="place" v="farm" />
		<tag k="ssr:stedsnr" v="472210" />
	</node>
	<node id="-78567" lat="62.9723540823" lon="7.40338664917">
		<tag k="fixme" v="consider place=hamlet" />
		<tag k="name" v="Bullgård" />
		<tag k="place" v="farm" />
		<tag k="ssr:stedsnr" v="73947" />
	</node>
	<node id="-78695" lat="62.9675826765" lon="7.43739928172">
		<tag k="fixme" v="consider place=hamlet" />
		<tag k="name" v="Kongshaug" />
		<tag k="place" v="farm" />
		<tag k="ssr:stedsnr" v="350451" />
	</node>
	<node id="-78179" lat="62.9963305563" lon="7.38907777043">
		<tag k="alt_name" v="Hjertvik" />
		<tag k="name" v="Hjertvika" />
		<tag k="place" v="farm" />
		<tag k="ssr:stedsnr" v="471469" />
	</node>
	<node id="-78689" lat="63.0423461336" lon="7.48378724031">
		<tag k="fixme" v="consider place=hamlet" />
		<tag k="name" v="Breivika" />
		<tag k="place" v="farm" />
		<tag k="ssr:stedsnr" v="350370" />
	</node>
	<node id="-78688" lat="63.011200004" lon="7.43772776959">
		<tag k="name" v="Utheim" />
		<tag k="place" v="hamlet" />
		<tag k="ssr:stedsnr" v="350358" />
	</node>
	<node id="-78687" lat="63.0135473035" lon="7.44930651963">
		<tag k="fixme" v="consider place=hamlet" />
		<tag k="name" v="Kummervoll" />
		<tag k="place" v="farm" />
		<tag k="ssr:stedsnr" v="350357" />
	</node>
	<node id="-79010" lat="62.9711222242" lon="7.62415277435">
		<tag k="name" v="Hosetvollen" />
		<tag k="place" v="farm" />
		<tag k="ssr:stedsnr" v="801948" />
	</node>
	<node id="-78166" lat="63.0799722216" lon="7.59291666383">
		<tag k="fixme" v="consider place=hamlet" />
		<tag k="name" v="Ekkilsøymyra" />
		<tag k="place" v="farm" />
		<tag k="ssr:stedsnr" v="290773" />
	</node>
	<node id="-78051" lat="63.0501305549" lon="7.62074444887">
		<tag k="name" v="Bakken" />
		<tag k="place" v="farm" />
		<tag k="ssr:stedsnr" v="133521" />
	</node>
	<node id="-78672" lat="63.0369924489" lon="7.54835239082">
		<tag k="fixme" v="consider place=hamlet" />
		<tag k="name" v="Søfstad" />
		<tag k="place" v="farm" />
		<tag k="ssr:stedsnr" v="316614" />
	</node>
	<node id="-78361" lat="63.0617583292" lon="7.63404444882">
		<tag k="name" v="Myra" />
		<tag k="place" v="farm" />
		<tag k="ssr:stedsnr" v="680572" />
	</node>
	<node id="-78670" lat="63.0739305537" lon="7.62007221391">
		<tag k="name" v="Rognvikan" />
		<tag k="place" v="farm" />
		<tag k="ssr:stedsnr" v="316581" />
	</node>
	<node id="-78669" lat="62.9955189174" lon="7.63230366503">
		<tag k="fixme" v="consider place=hamlet" />
		<tag k="name" v="Nedal" />
		<tag k="place" v="farm" />
		<tag k="ssr:stedsnr" v="315900" />
	</node>
	<node id="-78156" lat="63.0992833289" lon="7.64736110992">
		<tag k="name" v="Leitet" />
		<tag k="place" v="farm" />
		<tag k="ssr:stedsnr" v="255766" />
	</node>
	<node id="-78155" lat="63.1022027769" lon="7.65437778575">
		<tag k="name" v="Vorpbukta" />
		<tag k="place" v="farm" />
		<tag k="ssr:stedsnr" v="255765" />
	</node>
	<node id="-78666" lat="63.0459309509" lon="7.66160515865">
>>>>>>> e1d4bc35ff8a6074a6f2e91616a996b547c36f15
		<tag k="fixme" v="consider place=hamlet" />
		<tag k="name" v="Steinsvika" />
		<tag k="place" v="farm" />
<<<<<<< HEAD
		<tag k="ssr:stedsnr" v="776419" />
	</node>
	<node lat="62.95777222550195" lon="7.508250000776364" id="-5845">
		<tag k="name" v="Helset" />
		<tag k="place" v="farm" />
		<tag k="ssr:stedsnr" v="800992" />
	</node>
	<node lat="63.0087444480592" lon="7.455416674175857" id="-5851">
		<tag k="name" v="Kvila" />
		<tag k="place" v="farm" />
		<tag k="ssr:stedsnr" v="801423" />
	</node>
	<node lat="63.0573027798135" lon="7.488933333833858" id="-5852">
		<tag k="name" v="Slettvågen" />
		<tag k="place" v="farm" />
		<tag k="ssr:stedsnr" v="801492" />
	</node>
	<node lat="63.02558055941177" lon="7.565836109366077" id="-5853">
		<tag k="name" v="Leitet" />
		<tag k="place" v="farm" />
		<tag k="ssr:stedsnr" v="801604" />
	</node>
	<node lat="63.07958610881894" lon="7.65847500453873" id="-5854">
		<tag k="name" v="Kjerkevågen" />
		<tag k="place" v="village" />
		<tag k="ssr:stedsnr" v="801709" />
	</node>
	<node lat="63.00060555977695" lon="7.480494444667502" id="-5860">
		<tag k="alt_name" v="Folland, nedre;Negarden;Folland" />
		<tag k="name" v="Nedre Folland" />
		<tag k="place" v="farm" />
		<tag k="ssr:stedsnr" v="801880" />
	</node>
	<node lat="62.96374722331334" lon="7.511258337973105" id="-5862">
		<tag k="historic" v="shieling" />
		<tag k="name" v="Steinsetra" />
		<tag k="place" v="isolated_dwelling" />
		<tag k="ssr:stedsnr" v="921959" />
	</node>
	<node lat="63.00050555704625" lon="7.716897224521361" id="-5863">
		<tag k="name" v="Vollan" />
		<tag k="place" v="farm" />
		<tag k="ssr:stedsnr" v="922363" />
	</node>
	<node lat="63.04280555968196" lon="7.6402527808764535" id="-5866">
		<tag k="name" v="Lia" />
		<tag k="place" v="farm" />
		<tag k="ssr:stedsnr" v="922553" />
	</node>
	<node lat="62.97364166869345" lon="7.623836109336093" id="-5869">
		<tag k="name" v="Myra" />
		<tag k="place" v="farm" />
		<tag k="ssr:stedsnr" v="922936" />
	</node>
	<node lat="63.05830833642109" lon="7.5091027851814625" id="-5871">
		<tag k="name" v="Sørneset" />
		<tag k="place" v="farm" />
		<tag k="ssr:stedsnr" v="923553" />
	</node>
	<node lat="62.96650413102703" lon="7.606254823912039" id="-5890">
		<tag k="fixme" v="consider place=hamlet" />
		<tag k="name" v="Mek" />
		<tag k="place" v="farm" />
		<tag k="ssr:stedsnr" v="861975" />
	</node>
	<node lat="63.06716944139482" lon="7.595238886761262" id="-5891">
		<tag k="name" v="Garden" />
		<tag k="place" v="farm" />
		<tag k="ssr:stedsnr" v="862503" />
	</node>
	<node lat="63.05197222556858" lon="7.667852785520456" id="-5892">
		<tag k="name" v="Fossvika" />
		<tag k="place" v="farm" />
		<tag k="ssr:stedsnr" v="862516" />
	</node>
	<node lat="62.99979166846831" lon="7.414641675959779" id="-5894">
		<tag k="name" v="Kongshaug" />
		<tag k="place" v="farm" />
		<tag k="ssr:stedsnr" v="862407" />
	</node>
	<node lat="63.03307210937123" lon="7.60618347382085" id="-5897">
		<tag k="fixme" v="consider place=hamlet" />
		<tag k="name" v="Haukåsen" />
		<tag k="place" v="farm" />
		<tag k="ssr:stedsnr" v="862549" />
	</node>
	<node lat="63.0058166706023" lon="7.72251110223641" id="-5910">
		<tag k="name" v="Kvernes" />
		<tag k="place" v="hamlet" />
		<tag k="ssr:stedsnr" v="898874" />
	</node>
	<node lat="62.94171666604821" lon="7.532616675146036" id="-5913">
		<tag k="name" v="Hagen" />
		<tag k="place" v="farm" />
		<tag k="ssr:stedsnr" v="921536" />
	</node>
	<node lat="62.999208337181145" lon="7.408433339047657" id="-5925">
		<tag k="name" v="Nygard" />
		<tag k="place" v="farm" />
		<tag k="ssr:stedsnr" v="923904" />
	</node>
	<node lat="62.9975611150514" lon="7.63042499497474" id="-5931">
		<tag k="name" v="Nedal" />
=======
		<tag k="ssr:stedsnr" v="315558" />
	</node>
	<node id="-78665" lat="63.004145385" lon="7.6034992105">
		<tag k="fixme" v="consider place=hamlet" />
		<tag k="name" v="Bjørshol" />
		<tag k="place" v="farm" />
		<tag k="ssr:stedsnr" v="315399" />
	</node>
	<node id="-78664" lat="63.021009784" lon="7.67912218593">
		<tag k="fixme" v="consider place=hamlet" />
		<tag k="name" v="Trettvika" />
		<tag k="place" v="farm" />
		<tag k="ssr:stedsnr" v="315396" />
	</node>
	<node id="-78151" lat="63.1060305523" lon="7.65378611575">
		<tag k="name" v="Bakkan" />
		<tag k="place" v="farm" />
		<tag k="ssr:stedsnr" v="255709" />
	</node>
	<node id="-78662" lat="63.0637777801" lon="7.49738611994">
		<tag k="fixme" v="consider place=hamlet" />
		<tag k="loc_name" v="Langøya" />
		<tag k="name" v="Langøyneset" />
		<tag k="place" v="village" />
		<tag k="ssr:stedsnr" v="208870" />
	</node>
	<node id="-78661" lat="63.1032777761" lon="7.65100277823">
		<tag k="name" v="Futsetra" />
		<tag k="place" v="farm" />
		<tag k="ssr:stedsnr" v="195754" />
	</node>
	<node id="-78655" lat="63.1058444462" lon="7.60006945399">
		<tag k="name" v="Sveggen" />
		<tag k="place" v="village" />
		<tag k="ssr:stedsnr" v="195695" />
	</node>
	<node id="-78140" lat="62.9806273458" lon="7.66375501071">
		<tag k="fixme" v="consider place=hamlet" />
		<tag k="name" v="Rokset" />
		<tag k="place" v="farm" />
		<tag k="ssr:stedsnr" v="254914" />
	</node>
	<node id="-78138" lat="63.0685694452" lon="7.65524166207">
		<tag k="name" v="Røsand" />
		<tag k="place" v="quarter" />
		<tag k="ssr:stedsnr" v="447893" />
	</node>
	<node id="-78047" lat="63.0522027737" lon="7.50233333701">
		<tag k="name" v="Rogen" />
		<tag k="place" v="farm" />
		<tag k="ssr:stedsnr" v="133508" />
	</node>
	<node id="-78136" lat="62.9660361119" lon="7.44856110694">
		<tag k="alt_name" v="Leite" />
		<tag k="name" v="Leitet" />
		<tag k="place" v="farm" />
		<tag k="ssr:stedsnr" v="232631" />
	</node>
	<node id="-78645" lat="63.006286109" lon="7.60420833242">
		<tag k="name" v="Fossen" />
		<tag k="place" v="farm" />
		<tag k="ssr:stedsnr" v="194373" />
	</node>
	<node id="-78302" lat="63.0415485788" lon="7.66817327403">
		<tag k="fixme" v="consider place=hamlet" />
		<tag k="name" v="Engvika" />
		<tag k="place" v="farm" />
		<tag k="ssr:stedsnr" v="558614" />
	</node>
	<node id="-78642" lat="62.9565972188" lon="7.54084166212">
		<tag k="name" v="Solstad" />
		<tag k="place" v="farm" />
		<tag k="ssr:stedsnr" v="193987" />
	</node>
	<node id="-78641" lat="62.9571722202" lon="7.53136943694">
		<tag k="name" v="Kvammen" />
		<tag k="place" v="farm" />
		<tag k="ssr:stedsnr" v="193986" />
	</node>
	<node id="-78333" lat="63.0190216848" lon="7.67686232985">
		<tag k="fixme" v="consider place=hamlet" />
		<tag k="name" v="Setra" />
		<tag k="place" v="farm" />
		<tag k="ssr:stedsnr" v="618397" />
	</node>
	<node id="-78127" lat="63.0153972228" lon="7.69992499394">
		<tag k="name" v="Kleiva" />
		<tag k="place" v="isolated_dwelling" />
		<tag k="ssr:stedsnr" v="231417" />
	</node>
	<node id="-78126" lat="62.9998388907" lon="7.71823055724">
		<tag k="name" v="Kvernestrøa" />
		<tag k="place" v="isolated_dwelling" />
		<tag k="ssr:stedsnr" v="231411" />
	</node>
	<node id="-78125" lat="63.0403083311" lon="7.64783333538">
		<tag k="historic" v="shieling" />
		<tag k="name" v="Steinsviksetra" />
		<tag k="place" v="locality" />
		<tag k="ssr:stedsnr" v="230973" />
	</node>
	<node id="-78633" lat="63.0098805532" lon="7.70984999685">
		<tag k="name" v="Nyplassen" />
		<tag k="place" v="isolated_dwelling" />
		<tag k="ssr:stedsnr" v="170393" />
	</node>
	<node id="-78118" lat="63.0042036308" lon="7.72301901442">
		<tag k="name" v="Kvernes prestegard" />
		<tag k="place" v="farm" />
		<tag k="ssr:stedsnr" v="230865" />
	</node>
	<node id="-78129" lat="63.0437472189" lon="7.66836945053">
		<tag k="name" v="Egga" />
		<tag k="place" v="farm" />
		<tag k="ssr:stedsnr" v="231474" />
	</node>
	<node id="-78626" lat="63.0976638851" lon="7.63941389117">
		<tag k="name" v="Løken" />
		<tag k="place" v="isolated_dwelling" />
		<tag k="ssr:stedsnr" v="169682" />
	</node>
	<node id="-78111" lat="63.0537777813" lon="7.51885277578">
		<tag k="name" v="Vårheim" />
>>>>>>> e1d4bc35ff8a6074a6f2e91616a996b547c36f15
		<tag k="place" v="farm" />
		<tag k="ssr:stedsnr" v="958912" />
	</node>
<<<<<<< HEAD
	<node lat="63.06300564703185" lon="7.488633797997861" id="-5938">
		<tag k="fixme" v="consider place=hamlet" />
		<tag k="name" v="Langøya" />
		<tag k="place" v="farm" />
		<tag k="ssr:stedsnr" v="980752" />
	</node>
	<node lat="63.01647417101881" lon="7.433091982524615" id="-5939">
		<tag k="fixme" v="consider place=hamlet" />
		<tag k="name" v="Roaldsøya" />
		<tag k="place" v="farm" />
		<tag k="ssr:stedsnr" v="980776" />
	</node>
	<node lat="63.01779130098069" lon="7.4141807620299724" id="-5940">
		<tag k="fixme" v="consider place=hamlet" />
		<tag k="name" v="Vågsholmen" />
		<tag k="place" v="farm" />
		<tag k="ssr:stedsnr" v="980777" />
	</node>
	<node lat="63.00111829616276" lon="7.398373059298372" id="-5943">
		<tag k="fixme" v="consider place=hamlet" />
		<tag k="name" v="Kippernes" />
		<tag k="place" v="farm" />
		<tag k="ssr:stedsnr" v="980782" />
	</node>
	<node lat="63.03380381108664" lon="7.419571259359816" id="-5944">
		<tag k="fixme" v="consider place=hamlet" />
		<tag k="name" v="Risholmen" />
		<tag k="place" v="farm" />
		<tag k="ssr:stedsnr" v="980784" />
	</node>
	<node lat="63.02904373332789" lon="7.394041924443012" id="-5945">
		<tag k="fixme" v="consider place=hamlet" />
		<tag k="name" v="Håholmen" />
		<tag k="place" v="farm" />
		<tag k="ssr:stedsnr" v="980785" />
	</node>
	<node lat="62.96245045727983" lon="7.468433806779281" id="-5948">
		<tag k="fixme" v="consider place=hamlet" />
		<tag k="name" v="Haga" />
		<tag k="place" v="farm" />
		<tag k="ssr:stedsnr" v="11959" />
	</node>
	<node lat="63.0001416630584" lon="7.617555549155492" id="-5950">
		<tag k="name" v="Myrset" />
		<tag k="place" v="farm" />
		<tag k="ssr:stedsnr" v="12441" />
	</node>
	<node lat="63.06094578066654" lon="7.621066791263868" id="-5951">
		<tag k="fixme" v="consider place=hamlet" />
		<tag k="name" v="Naustvollan" />
		<tag k="place" v="farm" />
		<tag k="ssr:stedsnr" v="12497" />
	</node>
	<node lat="62.99984749992738" lon="7.5820850132686965" id="-5954">
		<tag k="fixme" v="consider place=hamlet" />
		<tag k="name" v="Dyrset" />
		<tag k="place" v="farm" />
		<tag k="ssr:stedsnr" v="12376" />
	</node>
	<node lat="63.00971189208372" lon="7.422271763155903" id="-5955">
		<tag k="fixme" v="consider place=hamlet" />
		<tag k="name" v="Utheim" />
		<tag k="place" v="farm" />
		<tag k="ssr:stedsnr" v="12387" />
	</node>
	<node lat="63.00476388935884" lon="7.577402774992325" id="-5956">
		<tag k="name" v="Brekka" />
		<tag k="place" v="farm" />
		<tag k="ssr:stedsnr" v="12409" />
	</node>
	<node lat="63.036013885653446" lon="7.432891672751363" id="-5957">
		<tag k="name" v="Hasløysetra" />
		<tag k="place" v="farm" />
		<tag k="ssr:stedsnr" v="12536" />
	</node>
	<node lat="63.0477972216704" lon="7.625383323558216" id="-5958">
		<tag k="name" v="Lia" />
		<tag k="place" v="farm" />
		<tag k="ssr:stedsnr" v="12547" />
	</node>
	<node lat="63.01293888511065" lon="7.547194452801693" id="-5962">
		<tag k="name" v="Trøa" />
		<tag k="place" v="farm" />
		<tag k="ssr:stedsnr" v="12602" />
	</node>
	<node lat="63.10731944389655" lon="7.655291669596573" id="-5963">
		<tag k="name" v="Omnbukta" />
		<tag k="place" v="farm" />
		<tag k="ssr:stedsnr" v="12693" />
	</node>
	<node lat="63.080130551505825" lon="7.606136103578788" id="-5964">
		<tag k="name" v="Langmyra" />
		<tag k="place" v="farm" />
		<tag k="ssr:stedsnr" v="12717" />
	</node>
	<node lat="62.970422221803474" lon="7.44420277614417" id="-5967">
		<tag k="name" v="Tungset" />
		<tag k="place" v="farm" />
		<tag k="ssr:stedsnr" v="12936" />
	</node>
	<node lat="62.97327419805195" lon="7.4225369582632394" id="-5968">
		<tag k="fixme" v="consider place=hamlet" />
		<tag k="name" v="Hafsgjerd" />
		<tag k="place" v="farm" />
		<tag k="ssr:stedsnr" v="12938" />
	</node>
	<node lat="62.97998888751033" lon="7.363777775488054" id="-5970">
		<tag k="name" v="Tevika" />
		<tag k="place" v="farm" />
		<tag k="ssr:stedsnr" v="41334" />
	</node>
	<node lat="63.01093888949039" lon="7.540366662857944" id="-5978">
		<tag k="name" v="Nergarden" />
		<tag k="place" v="farm" />
		<tag k="ssr:stedsnr" v="48194" />
	</node>
	<node lat="63.01213888509034" lon="7.535580561291069" id="-5979">
		<tag k="name" v="Hol" />
		<tag k="place" v="farm" />
		<tag k="ssr:stedsnr" v="48197" />
	</node>
	<node lat="63.06749722001334" lon="7.6435944493869625" id="-5988">
		<tag k="name" v="Skaret" />
		<tag k="place" v="isolated_dwelling" />
		<tag k="ssr:stedsnr" v="49862" />
	</node>
	<node lat="62.9400722234262" lon="7.506708328641318" id="-5990">
		<tag k="name" v="Rånes" />
		<tag k="place" v="farm" />
		<tag k="ssr:stedsnr" v="50291" />
	</node>
	<node lat="62.963574998164546" lon="7.560511107920879" id="-5993">
		<tag k="historic" v="shieling" />
		<tag k="name" v="Avsetsetra" />
		<tag k="place" v="isolated_dwelling" />
		<tag k="ssr:stedsnr" v="72959" />
	</node>
	<node lat="63.00671110863015" lon="7.721405551376018" id="-5995">
		<tag k="name" v="Fagerstrand" />
		<tag k="place" v="farm" />
		<tag k="ssr:stedsnr" v="73199" />
	</node>
	<node lat="63.07168055478031" lon="7.626711111549467" id="-5998">
		<tag k="name" v="Sørkjerkevågen" />
		<tag k="place" v="farm" />
		<tag k="ssr:stedsnr" v="73544" />
	</node>
	<node lat="63.0421138850776" lon="7.534233339168084" id="-6004">
		<tag k="name" v="Vikan" />
		<tag k="place" v="farm" />
		<tag k="ssr:stedsnr" v="73562" />
	</node>
	<node lat="63.05259444393302" lon="7.634158329631105" id="-6008">
		<tag k="fixme" v="consider place=suburb, village or hamlet" />
		<tag k="name" v="Bruhagen" />
		<tag k="place" v="quarter" />
		<tag k="ssr:stedsnr" v="73580" />
	</node>
	<node lat="63.108174996112474" lon="7.601761110443246" id="-6012">
		<tag k="name" v="Ytre Sveggen" />
		<tag k="place" v="farm" />
		<tag k="ssr:stedsnr" v="73696" />
	</node>
	<node lat="62.99826666836983" lon="7.454549999950402" id="-6013">
		<tag k="name" v="Sørlia" />
		<tag k="place" v="farm" />
		<tag k="ssr:stedsnr" v="73886" />
	</node>
	<node lat="62.994260087777505" lon="7.38547242988851" id="-6014">
=======
	<node id="-78621" lat="63.0308000878" lon="7.4286581882">
		<tag k="fixme" v="consider place=hamlet" />
		<tag k="name" v="Staurnes" />
		<tag k="place" v="farm" />
		<tag k="ssr:stedsnr" v="169443" />
	</node>
	<node id="-78108" lat="63.0159388864" lon="7.45569166502">
		<tag k="name" v="Kårvåg" />
		<tag k="place" v="farm" />
		<tag k="ssr:stedsnr" v="298624" />
	</node>
	<node id="-78102" lat="63.0255833339" lon="7.66878333333">
		<tag k="name" v="Holmen" />
		<tag k="place" v="farm" />
		<tag k="ssr:stedsnr" v="195628" />
	</node>
	<node id="-78613" lat="62.975722774" lon="7.63901309915">
		<tag k="fixme" v="consider place=hamlet" />
		<tag k="name" v="Heggeset" />
		<tag k="place" v="farm" />
		<tag k="ssr:stedsnr" v="133947" />
	</node>
	<node id="-78612" lat="62.9746861127" lon="7.47706388948">
		<tag k="name" v="Kornstadsetra" />
		<tag k="place" v="isolated_dwelling" />
		<tag k="ssr:stedsnr" v="133937" />
	</node>
	<node id="-78611" lat="62.9813175957" lon="7.36175492694">
		<tag k="fixme" v="consider place=hamlet" />
		<tag k="name" v="Tøvika" />
		<tag k="place" v="farm" />
		<tag k="ssr:stedsnr" v="133923" />
	</node>
	<node id="-78098" lat="63.0119250031" lon="7.533238894">
		<tag k="name" v="Pilan" />
		<tag k="place" v="farm" />
		<tag k="ssr:stedsnr" v="195610" />
	</node>
	<node id="-78608" lat="63.0289777734" lon="7.60587222428">
		<tag k="name" v="Pallan" />
		<tag k="place" v="farm" />
		<tag k="ssr:stedsnr" v="133580" />
	</node>
	<node id="-78094" lat="62.9886195775" lon="7.69054302811">
		<tag k="fixme" v="consider place=hamlet" />
		<tag k="name" v="Strand" />
		<tag k="place" v="farm" />
		<tag k="ssr:stedsnr" v="194910" />
	</node>
	<node id="-79047" lat="63.049663756" lon="7.49395448771">
		<tag k="fixme" v="consider place=hamlet" />
		<tag k="name" v="Henda" />
		<tag k="place" v="farm" />
		<tag k="ssr:stedsnr" v="862529" />
	</node>
	<node id="-78600" lat="63.0697111126" lon="7.59717499761">
		<tag k="name" v="Kleiva" />
		<tag k="place" v="farm" />
		<tag k="ssr:stedsnr" v="133468" />
	</node>
	<node id="-79111" lat="63.006295314" lon="7.44687366868">
		<tag k="name" v="Heimvang" />
		<tag k="place" v="farm" />
		<tag k="ssr:stedsnr" v="1073872" />
	</node>
	<node id="-79108" lat="63.0057833393" lon="7.72358282397">
		<tag k="name" v="Prestegardstunet" />
		<tag k="place" v="isolated_dwelling" />
		<tag k="ssr:stedsnr" v="982474" />
	</node>
	<node id="-78595" lat="62.9574020257" lon="7.56998581771">
		<tag k="fixme" v="consider place=hamlet" />
		<tag k="name" v="Mork" />
		<tag k="place" v="farm" />
		<tag k="ssr:stedsnr" v="132986" />
	</node>
	<node id="-78594" lat="62.9494555561" lon="7.55448333024">
		<tag k="name" v="Sør-Å" />
		<tag k="place" v="farm" />
		<tag k="ssr:stedsnr" v="132984" />
	</node>
	<node id="-79105" lat="63.0290437333" lon="7.39404192444">
		<tag k="fixme" v="consider place=hamlet" />
		<tag k="name" v="Håholmen" />
		<tag k="place" v="farm" />
		<tag k="ssr:stedsnr" v="980785" />
	</node>
	<node id="-79104" lat="63.0338038111" lon="7.41957125936">
		<tag k="fixme" v="consider place=hamlet" />
		<tag k="name" v="Risholmen" />
		<tag k="place" v="farm" />
		<tag k="ssr:stedsnr" v="980784" />
	</node>
	<node id="-79103" lat="63.0011182962" lon="7.3983730593">
		<tag k="fixme" v="consider place=hamlet" />
		<tag k="name" v="Kippernes" />
		<tag k="place" v="farm" />
		<tag k="ssr:stedsnr" v="980782" />
	</node>
	<node id="-78590" lat="62.9676611094" lon="7.60827778725">
		<tag k="name" v="Mekgrenda" />
		<tag k="place" v="hamlet" />
		<tag k="ssr:stedsnr" v="111280" />
	</node>
	<node id="-79100" lat="63.017791301" lon="7.41418076203">
		<tag k="fixme" v="consider place=hamlet" />
		<tag k="name" v="Vågsholmen" />
		<tag k="place" v="farm" />
		<tag k="ssr:stedsnr" v="980777" />
	</node>
	<node id="-79099" lat="63.016474171" lon="7.43309198252">
		<tag k="fixme" v="consider place=hamlet" />
		<tag k="name" v="Roaldsøya" />
		<tag k="place" v="farm" />
		<tag k="ssr:stedsnr" v="980776" />
	</node>
	<node id="-79098" lat="63.063005647" lon="7.488633798">
		<tag k="fixme" v="consider place=hamlet" />
		<tag k="name" v="Langøya" />
		<tag k="place" v="farm" />
		<tag k="ssr:stedsnr" v="980752" />
	</node>
	<node id="-79097" lat="63.0721377253" lon="7.48725986713">
		<tag k="fixme" v="consider place=hamlet" />
		<tag k="name" v="Honningsøya" />
		<tag k="place" v="farm" />
		<tag k="ssr:stedsnr" v="980672" />
	</node>
	<node id="-79095" lat="63.0659808534" lon="7.54226241112">
		<tag k="fixme" v="consider place=hamlet" />
		<tag k="name" v="Forøya" />
		<tag k="place" v="farm" />
		<tag k="ssr:stedsnr" v="980669" />
	</node>
	<node id="-79094" lat="63.0153650309" lon="7.57682693149">
		<tag k="fixme" v="consider place=hamlet" />
		<tag k="name" v="Kalvøya" />
		<tag k="place" v="farm" />
		<tag k="ssr:stedsnr" v="980667" />
	</node>
	<node id="-79093" lat="63.0094370921" lon="7.58596685126">
>>>>>>> e1d4bc35ff8a6074a6f2e91616a996b547c36f15
		<tag k="fixme" v="consider place=hamlet" />
		<tag k="name" v="Vebenstad" />
		<tag k="place" v="farm" />
		<tag k="ssr:stedsnr" v="980666" />
	</node>
<<<<<<< HEAD
	<node lat="62.99855278067039" lon="7.713488895996293" id="-6015">
		<tag k="name" v="Vollen" />
		<tag k="place" v="farm" />
		<tag k="ssr:stedsnr" v="73894" />
	</node>
	<node lat="62.972354082292476" lon="7.403386649169635" id="-6019">
		<tag k="fixme" v="consider place=hamlet" />
		<tag k="name" v="Bullgård" />
		<tag k="place" v="farm" />
		<tag k="ssr:stedsnr" v="73947" />
	</node>
	<node lat="63.10511111440319" lon="7.595852777350934" id="-6025">
		<tag k="name" v="Sørengård" />
		<tag k="place" v="farm" />
		<tag k="ssr:stedsnr" v="107897" />
	</node>
	<node lat="63.02897777338431" lon="7.605872224277714" id="-6044">
		<tag k="name" v="Pallan" />
		<tag k="place" v="farm" />
		<tag k="ssr:stedsnr" v="133580" />
	</node>
	<node lat="62.949455556138815" lon="7.554483330240664" id="-6045">
		<tag k="name" v="Sør-Å" />
		<tag k="place" v="farm" />
		<tag k="ssr:stedsnr" v="132984" />
	</node>
	<node lat="62.95740202572559" lon="7.5699858177080595" id="-6046">
		<tag k="fixme" v="consider place=hamlet" />
		<tag k="name" v="Mork" />
		<tag k="place" v="farm" />
		<tag k="ssr:stedsnr" v="132986" />
	</node>
	<node lat="62.95197410848373" lon="7.556261909974691" id="-6047">
		<tag k="fixme" v="consider place=hamlet" />
		<tag k="name" v="Å" />
		<tag k="place" v="farm" />
		<tag k="ssr:stedsnr" v="132992" />
	</node>
	<node lat="63.05950146543541" lon="7.58813591273218" id="-6049">
		<tag k="fixme" v="consider place=hamlet" />
		<tag k="name" v="Grønvika" />
		<tag k="place" v="farm" />
		<tag k="ssr:stedsnr" v="133449" />
	</node>
	<node lat="63.08403333197388" lon="7.659772226507633" id="-6055">
		<tag k="name" v="Ladegård" />
		<tag k="place" v="farm" />
		<tag k="ssr:stedsnr" v="133720" />
	</node>
	<node lat="62.981317595650914" lon="7.361754926937436" id="-6058">
		<tag k="fixme" v="consider place=hamlet" />
		<tag k="name" v="Tøvika" />
		<tag k="place" v="farm" />
		<tag k="ssr:stedsnr" v="133923" />
	</node>
	<node lat="62.97468611267436" lon="7.477063889477249" id="-6059">
		<tag k="name" v="Kornstadsetra" />
		<tag k="place" v="isolated_dwelling" />
		<tag k="ssr:stedsnr" v="133937" />
	</node>
	<node lat="62.97572277404709" lon="7.6390130991531375" id="-6060">
		<tag k="fixme" v="consider place=hamlet" />
		<tag k="name" v="Heggeset" />
		<tag k="place" v="farm" />
		<tag k="ssr:stedsnr" v="133947" />
	</node>
	<node lat="63.030800087805716" lon="7.428658188195225" id="-6070">
		<tag k="fixme" v="consider place=hamlet" />
		<tag k="name" v="Staurnes" />
		<tag k="place" v="farm" />
		<tag k="ssr:stedsnr" v="169443" />
	</node>
	<node lat="63.09766388508424" lon="7.639413891165245" id="-6071">
		<tag k="name" v="Løken" />
		<tag k="place" v="isolated_dwelling" />
		<tag k="ssr:stedsnr" v="169682" />
	</node>
	<node lat="62.98562777425031" lon="7.683741662580931" id="-6076">
		<tag k="name" v="Stranda" />
		<tag k="place" v="farm" />
		<tag k="ssr:stedsnr" v="169929" />
	</node>
	<node lat="63.00988055318877" lon="7.70984999685178" id="-6080">
		<tag k="name" v="Nyplassen" />
		<tag k="place" v="isolated_dwelling" />
		<tag k="ssr:stedsnr" v="170393" />
	</node>
	<node lat="62.957172220191104" lon="7.531369436937174" id="-6084">
		<tag k="name" v="Kvammen" />
		<tag k="place" v="farm" />
		<tag k="ssr:stedsnr" v="193986" />
	</node>
	<node lat="62.956597218773034" lon="7.540841662115369" id="-6085">
		<tag k="name" v="Solstad" />
		<tag k="place" v="farm" />
		<tag k="ssr:stedsnr" v="193987" />
	</node>
	<node lat="63.00628610901261" lon="7.604208332424149" id="-6088">
		<tag k="name" v="Fossen" />
		<tag k="place" v="farm" />
		<tag k="ssr:stedsnr" v="194373" />
	</node>
	<node lat="62.988619577547034" lon="7.690543028106428" id="-6107">
		<tag k="fixme" v="consider place=hamlet" />
		<tag k="name" v="Strand" />
		<tag k="place" v="farm" />
		<tag k="ssr:stedsnr" v="194910" />
	</node>
	<node lat="63.10584444623686" lon="7.600069453986374" id="-6115">
		<tag k="name" v="Sveggen" />
		<tag k="place" v="village" />
		<tag k="ssr:stedsnr" v="195695" />
	</node>
	<node lat="63.103277776051286" lon="7.651002778232698" id="-6117">
		<tag k="name" v="Futsetra" />
		<tag k="place" v="farm" />
		<tag k="ssr:stedsnr" v="195754" />
	</node>
	<node lat="63.06377778014441" lon="7.497386119943656" id="-6118">
		<tag k="fixme" v="consider place=hamlet" />
		<tag k="loc_name" v="Langøya" />
		<tag k="name" v="Langøyneset" />
		<tag k="place" v="village" />
		<tag k="ssr:stedsnr" v="208870" />
	</node>
	<node lat="63.0799722215535" lon="7.592916663828402" id="-6125">
		<tag k="fixme" v="consider place=hamlet" />
		<tag k="name" v="Ekkilsøymyra" />
		<tag k="place" v="farm" />
		<tag k="ssr:stedsnr" v="290773" />
	</node>
	<node lat="63.01053611542458" lon="7.617238881867109" id="-6129">
		<tag k="historic" v="shieling" />
		<tag k="name" v="Vebenstadsetra" />
		<tag k="place" v="isolated_dwelling" />
		<tag k="ssr:stedsnr" v="291247" />
	</node>
	<node lat="63.02100978398514" lon="7.679122185933588" id="-6143">
		<tag k="fixme" v="consider place=hamlet" />
		<tag k="name" v="Trettvika" />
		<tag k="place" v="farm" />
		<tag k="ssr:stedsnr" v="315396" />
	</node>
	<node lat="63.00414538497845" lon="7.603499210499739" id="-6144">
		<tag k="fixme" v="consider place=hamlet" />
		<tag k="name" v="Bjørshol" />
		<tag k="place" v="farm" />
		<tag k="ssr:stedsnr" v="315399" />
	</node>
	<node lat="63.0061861109754" lon="7.472102776618357" id="-6145">
		<tag k="name" v="Øygarden" />
		<tag k="place" v="farm" />
		<tag k="ssr:stedsnr" v="315410" />
	</node>
	<node lat="63.03699244893126" lon="7.548352390819638" id="-6149">
		<tag k="fixme" v="consider place=hamlet" />
		<tag k="name" v="Søfstad" />
		<tag k="place" v="farm" />
		<tag k="ssr:stedsnr" v="316614" />
	</node>
	<node lat="63.073930553733454" lon="7.6200722139108255" id="-6157">
		<tag k="name" v="Rognvikan" />
		<tag k="place" v="farm" />
		<tag k="ssr:stedsnr" v="316581" />
	</node>
	<node lat="63.01354730349479" lon="7.449306519629568" id="-6162">
		<tag k="fixme" v="consider place=hamlet" />
		<tag k="name" v="Kummervoll" />
		<tag k="place" v="farm" />
		<tag k="ssr:stedsnr" v="350357" />
	</node>
	<node lat="63.01120000404614" lon="7.437727769586628" id="-6163">
		<tag k="name" v="Utheim" />
		<tag k="place" v="hamlet" />
		<tag k="ssr:stedsnr" v="350358" />
	</node>
	<node lat="63.04234613357053" lon="7.483787240310175" id="-6164">
		<tag k="fixme" v="consider place=hamlet" />
		<tag k="name" v="Breivika" />
		<tag k="place" v="farm" />
		<tag k="ssr:stedsnr" v="350370" />
	</node>
	<node lat="62.96758267645062" lon="7.437399281721302" id="-6167">
		<tag k="fixme" v="consider place=hamlet" />
		<tag k="name" v="Kongshaug" />
		<tag k="place" v="farm" />
		<tag k="ssr:stedsnr" v="350451" />
	</node>
	<node lat="63.011713887068524" lon="7.55758055234042" id="-6175">
		<tag k="fixme" v="consider place=hamlet" />
		<tag k="name" v="Ba" />
		<tag k="place" v="farm" />
		<tag k="ssr:stedsnr" v="351227" />
	</node>
	<node lat="62.96079476839578" lon="7.479387349006359" id="-6187">
		<tag k="fixme" v="consider place=hamlet" />
		<tag k="name" v="Slatlem" />
		<tag k="place" v="farm" />
		<tag k="ssr:stedsnr" v="375951" />
	</node>
	<node lat="63.01218736090261" lon="7.538726521924269" id="-6188">
		<tag k="fixme" v="consider place=hamlet" />
		<tag k="name" v="Hol" />
		<tag k="place" v="farm" />
		<tag k="ssr:stedsnr" v="376436" />
	</node>
	<node lat="63.00606111490218" lon="7.442366660497559" id="-6189">
		<tag k="name" v="Flateng" />
		<tag k="place" v="farm" />
		<tag k="ssr:stedsnr" v="376445" />
	</node>
	<node lat="63.03353610860854" lon="7.547652781511552" id="-6194">
		<tag k="name" v="Reitan" />
		<tag k="place" v="farm" />
		<tag k="ssr:stedsnr" v="376580" />
	</node>
	<node lat="63.11135000227963" lon="7.644797217378283" id="-6201">
		<tag k="alt_name" v="Tufta" />
		<tag k="name" v="Tøfta" />
		<tag k="place" v="farm" />
		<tag k="ssr:stedsnr" v="376710" />
	</node>
	<node lat="63.09097777543531" lon="7.668127783188917" id="-6203">
		<tag k="name" v="Skogheim" />
		<tag k="place" v="farm" />
		<tag k="ssr:stedsnr" v="376749" />
	</node>
	<node lat="62.97238088141298" lon="7.435343411091623" id="-6209">
		<tag k="fixme" v="consider place=hamlet" />
		<tag k="name" v="Fagerengin" />
		<tag k="place" v="farm" />
		<tag k="ssr:stedsnr" v="376954" />
	</node>
	<node lat="62.969447767757366" lon="7.4262031929304335" id="-6210">
		<tag k="fixme" v="consider place=hamlet" />
		<tag k="name" v="Nasvika" />
		<tag k="place" v="farm" />
		<tag k="ssr:stedsnr" v="376956" />
	</node>
	<node lat="62.97126388685767" lon="7.405277785368748" id="-6211">
		<tag k="name" v="Kråkneset" />
		<tag k="place" v="farm" />
		<tag k="ssr:stedsnr" v="376957" />
	</node>
	<node lat="63.056391666838785" lon="7.5074444486329766" id="-6216">
		<tag k="alt_name" v="Mellomset" />
		<tag k="name" v="Mellemset" />
		<tag k="place" v="farm" />
		<tag k="ssr:stedsnr" v="411780" />
	</node>
	<node lat="63.03578055619587" lon="7.669997227046386" id="-6225">
		<tag k="name" v="Oterbekken" />
		<tag k="place" v="isolated_dwelling" />
		<tag k="ssr:stedsnr" v="414438" />
	</node>
	<node lat="63.10741388450428" lon="7.5944666596628565" id="-6227">
		<tag k="name" v="Sanden" />
=======
	<node id="-78067" lat="62.9856277743" lon="7.68374166258">
		<tag k="name" v="Stranda" />
		<tag k="place" v="farm" />
		<tag k="ssr:stedsnr" v="169929" />
	</node>
	<node id="-79090" lat="63.0893396069" lon="7.66132486809">
		<tag k="fixme" v="consider place=hamlet" />
		<tag k="name" v="Bremsnes" />
		<tag k="place" v="farm" />
		<tag k="ssr:stedsnr" v="980651" />
	</node>
	<node id="-79088" lat="63.0057958775" lon="7.72257931631">
		<tag k="fixme" v="consider place=hamlet" />
		<tag k="name" v="Kvernes" />
		<tag k="place" v="farm" />
		<tag k="ssr:stedsnr" v="980619" />
	</node>
	<node id="-78572" lat="63.1051111144" lon="7.59585277735">
		<tag k="name" v="Sørengård" />
		<tag k="place" v="farm" />
		<tag k="ssr:stedsnr" v="107897" />
	</node>
	<node id="-78237" lat="63.0060611149" lon="7.4423666605">
		<tag k="name" v="Flateng" />
		<tag k="place" v="farm" />
		<tag k="ssr:stedsnr" v="376445" />
	</node>
	<node id="-78075" lat="63.0105361154" lon="7.61723888187">
		<tag k="historic" v="shieling" />
		<tag k="name" v="Vebenstadsetra" />
		<tag k="place" v="locality" />
		<tag k="ssr:stedsnr" v="291247" />
	</node>
	<node id="-79079" lat="62.9975611151" lon="7.63042499497">
		<tag k="name" v="Nedal" />
		<tag k="place" v="farm" />
		<tag k="ssr:stedsnr" v="958912" />
	</node>
	<node id="-78054" lat="63.084033332" lon="7.65977222651">
		<tag k="name" v="Ladegård" />
		<tag k="place" v="farm" />
		<tag k="ssr:stedsnr" v="133720" />
	</node>
	<node id="-78563" lat="62.9864444414" lon="7.38011111452">
		<tag k="name" v="Martnadssletta" />
		<tag k="place" v="farm" />
		<tag k="ssr:stedsnr" v="73903" />
	</node>
	<node id="-78562" lat="62.9985527807" lon="7.713488896">
		<tag k="name" v="Vollen" />
		<tag k="place" v="farm" />
		<tag k="ssr:stedsnr" v="73894" />
	</node>
	<node id="-78561" lat="62.9942600878" lon="7.38547242989">
		<tag k="fixme" v="consider place=hamlet" />
		<tag k="name" v="Hjertvika" />
		<tag k="place" v="farm" />
		<tag k="ssr:stedsnr" v="73889" />
	</node>
	<node id="-78048" lat="63.0504500029" lon="7.59313611445">
		<tag k="name" v="Vollen" />
		<tag k="place" v="farm" />
		<tag k="ssr:stedsnr" v="133511" />
	</node>
	<node id="-78559" lat="63.1081749961" lon="7.60176111044">
		<tag k="name" v="Ytre Sveggen" />
		<tag k="place" v="farm" />
		<tag k="ssr:stedsnr" v="73696" />
	</node>
	<node id="-78046" lat="62.9494950237" lon="7.5486374075">
		<tag k="fixme" v="consider place=hamlet" />
		<tag k="name" v="Seljehaugen" />
		<tag k="place" v="farm" />
		<tag k="ssr:stedsnr" v="132503" />
	</node>
	<node id="-78555" lat="63.0525944439" lon="7.63415832963">
		<tag k="fixme" v="consider place=suburb, village or hamlet" />
		<tag k="name" v="Bruhagen" />
		<tag k="place" v="quarter" />
		<tag k="ssr:stedsnr" v="73580" />
	</node>
	<node id="-79066" lat="62.981600004" lon="7.36153611873">
		<tag k="name" v="Tøvika" />
		<tag k="place" v="farm" />
		<tag k="ssr:stedsnr" v="952333" />
	</node>
	<node id="-79064" lat="62.9928982034" lon="7.69018270634">
		<tag k="fixme" v="consider place=hamlet" />
		<tag k="name" v="Oppsal" />
		<tag k="place" v="farm" />
		<tag k="ssr:stedsnr" v="862917" />
	</node>
	<node id="-78551" lat="63.0421138851" lon="7.53423333917">
		<tag k="name" v="Vikan" />
		<tag k="place" v="farm" />
		<tag k="ssr:stedsnr" v="73562" />
	</node>
	<node id="-78547" lat="63.0232638873" lon="7.67742221423">
		<tag k="name" v="Klipa" />
		<tag k="place" v="farm" />
		<tag k="ssr:stedsnr" v="73630" />
	</node>
	<node id="-78034" lat="63.1005416627" lon="7.61318333768">
		<tag k="name" v="Kallestad" />
		<tag k="place" v="farm" />
		<tag k="ssr:stedsnr" v="255775" />
	</node>
	<node id="-78033" lat="63.0872027734" lon="7.6345750055">
		<tag k="name" v="Gjengstøa" />
		<tag k="place" v="farm" />
		<tag k="ssr:stedsnr" v="255750" />
	</node>
	<node id="-78544" lat="63.0716805548" lon="7.62671111155">
		<tag k="name" v="Sørkjerkevågen" />
		<tag k="place" v="farm" />
		<tag k="ssr:stedsnr" v="73544" />
	</node>
	<node id="-78543" lat="63.0067111086" lon="7.72140555138">
		<tag k="name" v="Fagerstrand" />
		<tag k="place" v="farm" />
		<tag k="ssr:stedsnr" v="73199" />
	</node>
	<node id="-79054" lat="63.0293803784" lon="7.59175640831">
		<tag k="fixme" v="consider place=hamlet" />
		<tag k="name" v="Fransvågen" />
		<tag k="place" v="farm" />
		<tag k="ssr:stedsnr" v="862596" />
	</node>
	<node id="-78541" lat="62.9635749982" lon="7.56051110792">
		<tag k="historic" v="shieling" />
		<tag k="name" v="Avsetsetra" />
		<tag k="place" v="locality" />
		<tag k="ssr:stedsnr" v="72959" />
	</node>
	<node id="-79051" lat="63.0330721094" lon="7.60618347382">
		<tag k="fixme" v="consider place=hamlet" />
		<tag k="name" v="Haukåsen" />
		<tag k="place" v="farm" />
		<tag k="ssr:stedsnr" v="862549" />
	</node>
	<node id="-78538" lat="62.9400722234" lon="7.50670832864">
		<tag k="name" v="Rånes" />
		<tag k="place" v="farm" />
		<tag k="ssr:stedsnr" v="50291" />
	</node>
	<node id="-79049" lat="63.0519055535" lon="7.65036943532">
		<tag k="name" v="Heimvang" />
		<tag k="place" v="farm" />
		<tag k="ssr:stedsnr" v="862543" />
	</node>
	<node id="-78536" lat="63.06749722" lon="7.64359444939">
		<tag k="name" v="Skaret" />
		<tag k="place" v="isolated_dwelling" />
		<tag k="ssr:stedsnr" v="49862" />
	</node>
	<node id="-78284" lat="62.9948138934" lon="7.70913333101">
		<tag k="name" v="Eikrem" />
		<tag k="place" v="farm" />
		<tag k="ssr:stedsnr" v="680933" />
	</node>
	<node id="-79045" lat="63.0519722256" lon="7.66785278552">
		<tag k="name" v="Fossvika" />
		<tag k="place" v="farm" />
		<tag k="ssr:stedsnr" v="862516" />
	</node>
	<node id="-79044" lat="63.0671694414" lon="7.59523888676">
		<tag k="name" v="Garden" />
		<tag k="place" v="farm" />
		<tag k="ssr:stedsnr" v="862503" />
	</node>
	<node id="-79042" lat="63.0589198834" lon="7.60444723084">
		<tag k="fixme" v="consider place=hamlet" />
		<tag k="name" v="Rossvågen" />
		<tag k="place" v="farm" />
		<tag k="ssr:stedsnr" v="862495" />
	</node>
	<node id="-78027" lat="63.1119111097" lon="7.61018332573">
		<tag k="name" v="Sørheim" />
		<tag k="place" v="farm" />
		<tag k="ssr:stedsnr" v="255721" />
	</node>
	<node id="-79040" lat="63.0648916673" lon="7.59372499668">
		<tag k="name" v="Vågen" />
		<tag k="place" v="farm" />
		<tag k="ssr:stedsnr" v="862487" />
	</node>
	<node id="-78527" lat="63.0121388851" lon="7.53558056129">
		<tag k="name" v="Hol" />
		<tag k="place" v="farm" />
		<tag k="ssr:stedsnr" v="48197" />
	</node>
	<node id="-78526" lat="63.0109388895" lon="7.54036666286">
		<tag k="name" v="Nergarden" />
		<tag k="place" v="farm" />
		<tag k="ssr:stedsnr" v="48194" />
	</node>
	<node id="-79037" lat="62.9997916685" lon="7.41464167596">
		<tag k="name" v="Kongshaug" />
		<tag k="place" v="farm" />
		<tag k="ssr:stedsnr" v="862407" />
	</node>
	<node id="-79035" lat="62.966504131" lon="7.60625482391">
		<tag k="fixme" v="consider place=hamlet" />
		<tag k="name" v="Mek" />
		<tag k="place" v="farm" />
		<tag k="ssr:stedsnr" v="861975" />
	</node>
	<node id="-78519" lat="62.9708303951" lon="7.44280378069">
		<tag k="alt_name" v="Tungset nedre" />
		<tag k="fixme" v="consider place=hamlet" />
		<tag k="name" v="Nedre Tungset" />
		<tag k="place" v="farm" />
		<tag k="ssr:stedsnr" v="47470" />
	</node>
	<node id="-78006" lat="63.1119583346" lon="7.62950833183">
		<tag k="fixme" v="consider place=hamlet" />
		<tag k="name" v="Øksenvågen" />
		<tag k="place" v="village" />
		<tag k="ssr:stedsnr" v="73706" />
	</node>
	<node id="-78515" lat="62.9799888875" lon="7.36377777549">
		<tag k="name" v="Tevika" />
		<tag k="place" v="farm" />
		<tag k="ssr:stedsnr" v="41334" />
	</node>
	<node id="-78514" lat="62.9774916626" lon="7.60233334249">
		<tag k="historic" v="shieling" />
		<tag k="name" v="Meksetra" />
		<tag k="place" v="locality" />
		<tag k="ssr:stedsnr" v="28505" />
	</node>
	<node id="-78024" lat="63.0262055526" lon="7.66556945073">
		<tag k="name" v="Nylund" />
>>>>>>> e1d4bc35ff8a6074a6f2e91616a996b547c36f15
		<tag k="place" v="farm" />
		<tag k="ssr:stedsnr" v="255631" />
	</node>
<<<<<<< HEAD
	<node lat="62.964269440269184" lon="7.498688885007235" id="-6228">
		<tag k="historic" v="shieling" />
		<tag k="name" v="Slatlemsetra" />
		<tag k="place" v="isolated_dwelling" />
		<tag k="ssr:stedsnr" v="436962" />
	</node>
	<node lat="62.956230555418" lon="7.5367805500360285" id="-6229">
		<tag k="name" v="Nordgard" />
		<tag k="place" v="farm" />
		<tag k="ssr:stedsnr" v="436994" />
	</node>
	<node lat="63.0567818211489" lon="7.633908760771138" id="-6233">
		<tag k="fixme" v="consider place=hamlet" />
		<tag k="name" v="Straum" />
		<tag k="place" v="farm" />
		<tag k="ssr:stedsnr" v="437568" />
	</node>
	<node lat="63.07594999806648" lon="7.59813889635887" id="-6236">
		<tag k="name" v="Åkvika" />
		<tag k="place" v="farm" />
		<tag k="ssr:stedsnr" v="437726" />
	</node>
	<node lat="62.99851800234518" lon="7.620064158129919" id="-6240">
		<tag k="fixme" v="consider place=hamlet" />
		<tag k="name" v="Myrset" />
		<tag k="place" v="farm" />
		<tag k="ssr:stedsnr" v="437875" />
	</node>
	<node lat="62.97367499585042" lon="7.442000002544318" id="-6242">
		<tag k="name" v="Bøen" />
		<tag k="old_name" v="Tungset, øvre;Øvre Tungset" />
		<tag k="place" v="farm" />
		<tag k="ssr:stedsnr" v="437925" />
	</node>
	<node lat="62.97311269009503" lon="7.409544737034924" id="-6243">
		<tag k="fixme" v="consider place=hamlet" />
		<tag k="name" v="Litl-Mork" />
		<tag k="place" v="farm" />
		<tag k="ssr:stedsnr" v="437931" />
	</node>
	<node lat="63.06856944520553" lon="7.655241662074704" id="-6246">
		<tag k="name" v="Røsand" />
		<tag k="place" v="quarter" />
		<tag k="ssr:stedsnr" v="447893" />
	</node>
	<node lat="62.94647887565896" lon="7.548983619802229" id="-6247">
		<tag k="alt_name" v="Fjæra" />
		<tag k="fixme" v="consider place=hamlet" />
		<tag k="name" v="Fjøra" />
		<tag k="place" v="farm" />
		<tag k="ssr:stedsnr" v="496535" />
	</node>
	<node lat="63.01041388519631" lon="7.560080565010799" id="-6252">
		<tag k="name" v="Ba" />
		<tag k="place" v="farm" />
		<tag k="ssr:stedsnr" v="497410" />
	</node>
	<node lat="63.001002773659486" lon="7.479227770580702" id="-6254">
		<tag k="name" v="Storhaug" />
=======
	<node id="-78510" lat="63.1073194439" lon="7.6552916696">
		<tag k="name" v="Omnbukta" />
		<tag k="place" v="farm" />
		<tag k="ssr:stedsnr" v="12693" />
	</node>
	<node id="-77996" lat="63.0672111114" lon="7.65304722688">
		<tag k="name" v="Damma" />
		<tag k="old_name" v="Heimvang" />
		<tag k="place" v="isolated_dwelling" />
		<tag k="ssr:stedsnr" v="233186" />
	</node>
	<node id="-77995" lat="62.9552472185" lon="7.49160278123">
		<tag k="name" v="Pilhaugen" />
		<tag k="place" v="farm" />
		<tag k="ssr:stedsnr" v="232280" />
	</node>
	<node id="-78506" lat="63.0801305515" lon="7.60613610358">
		<tag k="name" v="Langmyra" />
		<tag k="place" v="farm" />
		<tag k="ssr:stedsnr" v="12717" />
	</node>
	<node id="-78505" lat="63.0609457807" lon="7.62106679126">
		<tag k="fixme" v="consider place=hamlet" />
		<tag k="name" v="Naustvollan" />
		<tag k="place" v="farm" />
		<tag k="ssr:stedsnr" v="12497" />
	</node>
	<node id="-78504" lat="63.0001416631" lon="7.61755554916">
		<tag k="name" v="Myrset" />
		<tag k="place" v="farm" />
		<tag k="ssr:stedsnr" v="12441" />
	</node>
	<node id="-78502" lat="63.0047638894" lon="7.57740277499">
		<tag k="name" v="Brekka" />
		<tag k="place" v="farm" />
		<tag k="ssr:stedsnr" v="12409" />
	</node>
	<node id="-78501" lat="63.0097118921" lon="7.42227176316">
		<tag k="fixme" v="consider place=hamlet" />
		<tag k="name" v="Utheim" />
		<tag k="place" v="farm" />
		<tag k="ssr:stedsnr" v="12387" />
	</node>
	<node id="-78500" lat="62.9998474999" lon="7.58208501327">
		<tag k="fixme" v="consider place=hamlet" />
		<tag k="name" v="Dyrset" />
		<tag k="place" v="farm" />
		<tag k="ssr:stedsnr" v="12376" />
	</node>
	<node id="-77987" lat="63.1056694459" lon="7.60229721431">
		<tag k="name" v="Berget" />
		<tag k="place" v="farm" />
		<tag k="ssr:stedsnr" v="230186" />
	</node>
	<node id="-78243" lat="63.0158249964" lon="7.53290555934">
		<tag k="name" v="Langhaugan" />
>>>>>>> e1d4bc35ff8a6074a6f2e91616a996b547c36f15
		<tag k="place" v="farm" />
		<tag k="ssr:stedsnr" v="497418" />
	</node>
<<<<<<< HEAD
	<node lat="63.038127777526995" lon="7.541077769633056" id="-6255">
		<tag k="name" v="Storlykkja" />
		<tag k="place" v="farm" />
		<tag k="ssr:stedsnr" v="497562" />
	</node>
	<node lat="63.06586111457151" lon="7.634227786762136" id="-6258">
		<tag k="name" v="Breivika" />
		<tag k="place" v="farm" />
		<tag k="ssr:stedsnr" v="498565" />
	</node>
	<node lat="63.015824996362745" lon="7.532905559337229" id="-6262">
		<tag k="name" v="Langhaugan" />
		<tag k="place" v="farm" />
		<tag k="ssr:stedsnr" v="498641" />
	</node>
	<node lat="63.03708440659913" lon="7.406810376890729" id="-6266">
		<tag k="fixme" v="consider place=hamlet" />
		<tag k="name" v="Ljøsøya" />
		<tag k="place" v="farm" />
		<tag k="ssr:stedsnr" v="506471" />
	</node>
	<node lat="63.051886981459596" lon="7.590371892334017" id="-6267">
		<tag k="fixme" v="consider place=hamlet" />
		<tag k="name" v="Ingeborgvik" />
		<tag k="place" v="farm" />
		<tag k="ssr:stedsnr" v="511793" />
	</node>
	<node lat="63.10705000017912" lon="7.5931555504899775" id="-6274">
		<tag k="alt_name" v="Hundvik" />
		<tag k="loc_name" v="Hunnvika" />
		<tag k="name" v="Vika" />
		<tag k="place" v="farm" />
		<tag k="ssr:stedsnr" v="532866" />
	</node>
	<node lat="63.01361389302102" lon="7.544691668709266" id="-6276">
		<tag k="name" v="Bjerga" />
		<tag k="place" v="farm" />
		<tag k="ssr:stedsnr" v="533227" />
	</node>
	<node lat="63.01728333151194" lon="7.691369442663941" id="-6278">
		<tag k="name" v="Veiset" />
		<tag k="place" v="farm" />
		<tag k="ssr:stedsnr" v="533900" />
	</node>
	<node lat="63.084694443001666" lon="7.662099991986491" id="-6282">
		<tag k="fixme" v="consider place=hamlet" />
		<tag k="name" v="Bremsnes" />
		<tag k="place" v="village" />
		<tag k="ssr:stedsnr" v="533997" />
	</node>
	<node lat="62.96536691602009" lon="7.4536411230258" id="-6289">
		<tag k="fixme" v="consider place=hamlet" />
		<tag k="name" v="Kornstad" />
		<tag k="place" v="farm" />
		<tag k="ssr:stedsnr" v="557943" />
	</node>
	<node lat="63.0959638919367" lon="7.66659444207398" id="-6291">
		<tag k="name" v="Sandbukta" />
		<tag k="place" v="farm" />
		<tag k="ssr:stedsnr" v="558788" />
	</node>
	<node lat="63.05907777913563" lon="7.497152770944317" id="-6292">
		<tag k="fixme" v="consider place=hamlet" />
		<tag k="name" v="Krabbvågen" />
		<tag k="place" v="farm" />
		<tag k="ssr:stedsnr" v="558529" />
	</node>
	<node lat="63.05369444450511" lon="7.667775001337577" id="-6295">
		<tag k="name" v="Hestvika" />
		<tag k="place" v="locality" />
		<tag k="ssr:stedsnr" v="558559" />
	</node>
	<node lat="63.04154857883093" lon="7.668173274031206" id="-6297">
		<tag k="fixme" v="consider place=hamlet" />
		<tag k="name" v="Engvika" />
		<tag k="place" v="farm" />
		<tag k="ssr:stedsnr" v="558614" />
	</node>
	<node lat="63.11443055679087" lon="7.619777777702777" id="-6300">
		<tag k="name" v="Nordheim" />
		<tag k="place" v="farm" />
		<tag k="ssr:stedsnr" v="558735" />
	</node>
	<node lat="63.04710232532739" lon="7.568116806357213" id="-6303">
		<tag k="fixme" v="consider place=hamlet" />
		<tag k="name" v="Bogen" />
		<tag k="place" v="farm" />
		<tag k="ssr:stedsnr" v="558570" />
	</node>
	<node lat="63.049930551605186" lon="7.497841670472661" id="-6304">
		<tag k="name" v="Skardet" />
		<tag k="place" v="farm" />
		<tag k="ssr:stedsnr" v="558577" />
	</node>
	<node lat="62.97408662838483" lon="7.384753805567692" id="-6308">
		<tag k="alt_name" v="Kvalsvik" />
		<tag k="fixme" v="consider place=hamlet" />
		<tag k="name" v="Kvalshaug" />
		<tag k="place" v="farm" />
		<tag k="ssr:stedsnr" v="558934" />
	</node>
	<node lat="63.0506055591846" lon="7.510702774470326" id="-6318">
		<tag k="name" v="Heimgarden" />
		<tag k="place" v="farm" />
		<tag k="ssr:stedsnr" v="593750" />
	</node>
	<node lat="62.993961114767934" lon="7.694530563543532" id="-6319">
		<tag k="alt_name" v="Opsal" />
		<tag k="name" v="Oppsal" />
		<tag k="place" v="farm" />
		<tag k="ssr:stedsnr" v="593765" />
	</node>
	<node lat="62.97257778123606" lon="7.406350007900091" id="-6339">
		<tag k="name" v="Mork" />
		<tag k="place" v="farm" />
		<tag k="ssr:stedsnr" v="596910" />
	</node>
	<node lat="63.01902168484297" lon="7.6768623298483405" id="-6342">
		<tag k="fixme" v="consider place=hamlet" />
		<tag k="name" v="Setra" />
		<tag k="place" v="farm" />
		<tag k="ssr:stedsnr" v="618397" />
	</node>
	<node lat="63.00376111346742" lon="7.470869434667629" id="-6343">
		<tag k="fixme" v="consider place=hamlet" />
		<tag k="name" v="Folland" />
		<tag k="place" v="village" />
		<tag k="ssr:stedsnr" v="618419" />
	</node>
	<node lat="62.9460297864441" lon="7.497881996096782" id="-6344">
		<tag k="fixme" v="consider place=hamlet" />
		<tag k="name" v="Litl-Rånes" />
		<tag k="place" v="farm" />
		<tag k="ssr:stedsnr" v="618505" />
	</node>
	<node lat="63.10444166595694" lon="7.579072226443035" id="-6359">
		<tag k="name" v="Slottet" />
		<tag k="place" v="farm" />
		<tag k="ssr:stedsnr" v="619718" />
	</node>
	<node lat="62.97933333601029" lon="7.558158333807467" id="-6363">
		<tag k="name" v="Svein Drykkjen" />
		<tag k="place" v="locality" />
		<tag k="ssr:stedsnr" v="619939" />
	</node>
	<node lat="62.95692903852942" lon="7.516681816295045" id="-6377">
		<tag k="fixme" v="consider place=hamlet" />
		<tag k="name" v="Helset" />
		<tag k="place" v="farm" />
		<tag k="ssr:stedsnr" v="654474" />
	</node>
	<node lat="63.01635833482501" lon="7.696761119687301" id="-6378">
		<tag k="alt_name" v="Klippervik" />
		<tag k="fixme" v="consider place=hamlet" />
		<tag k="name" v="Kippervik" />
		<tag k="place" v="farm" />
		<tag k="ssr:stedsnr" v="654894" />
	</node>
	<node lat="63.09299722508124" lon="7.670711108227651" id="-6385">
		<tag k="name" v="Dalen" />
		<tag k="place" v="isolated_dwelling" />
		<tag k="ssr:stedsnr" v="655636" />
	</node>
	<node lat="63.02378611548488" lon="7.5909249949697015" id="-6391">
		<tag k="name" v="Åkran" />
		<tag k="place" v="farm" />
		<tag k="ssr:stedsnr" v="657463" />
	</node>
	<node lat="63.01316111205548" lon="7.538269435238499" id="-6398">
		<tag k="name" v="Knutstua" />
		<tag k="place" v="farm" />
		<tag k="ssr:stedsnr" v="715229" />
	</node>
	<node lat="63.0152666629026" lon="7.539430551078445" id="-6399">
		<tag k="name" v="Langhaugen" />
		<tag k="place" v="farm" />
		<tag k="ssr:stedsnr" v="715230" />
	</node>
	<node lat="63.04070277655676" lon="7.647644453193191" id="-6423">
		<tag k="name" v="Setra" />
		<tag k="place" v="farm" />
		<tag k="ssr:stedsnr" v="740565" />
	</node>
	<node lat="63.02704535394457" lon="7.559779190404648" id="-6425">
		<tag k="alt_name" v="Sundet" />
		<tag k="fixme" v="consider place=hamlet" />
		<tag k="name" v="Sund" />
		<tag k="place" v="farm" />
		<tag k="ssr:stedsnr" v="740602" />
	</node>
	<node lat="63.07770000241345" lon="7.597163887434256" id="-6426">
		<tag k="name" v="Myra" />
		<tag k="place" v="farm" />
		<tag k="ssr:stedsnr" v="740717" />
	</node>
	<node lat="62.98645555446399" lon="7.380783341800044" id="-6430">
		<tag k="name" v="Tøvika" />
		<tag k="place" v="farm" />
		<tag k="ssr:stedsnr" v="769355" />
	</node>
	<node lat="63.04049999622043" lon="7.5321166668674895" id="-6432">
		<tag k="name" v="Langdalen" />
		<tag k="place" v="farm" />
		<tag k="ssr:stedsnr" v="775784" />
	</node>
	<node lat="63.07818055256228" lon="7.60492499114074" id="-6444">
		<tag k="name" v="Solheim" />
		<tag k="place" v="isolated_dwelling" />
		<tag k="ssr:stedsnr" v="777842" />
	</node>
	<node lat="62.94173683542594" lon="7.5159068430297005" id="-6448">
		<tag k="fixme" v="consider place=hamlet" />
		<tag k="name" v="Rånes" />
		<tag k="place" v="farm" />
		<tag k="ssr:stedsnr" v="800499" />
	</node>
	<node lat="62.95956110862935" lon="7.48529721662128" id="-6449">
		<tag k="name" v="Steinsgrenda" />
		<tag k="place" v="hamlet" />
		<tag k="ssr:stedsnr" v="800965" />
	</node>
	<node lat="63.014338711296745" lon="7.682897313297763" id="-6450">
		<tag k="fixme" v="consider place=hamlet" />
		<tag k="name" v="Veiset" />
		<tag k="place" v="farm" />
		<tag k="ssr:stedsnr" v="801401" />
	</node>
	<node lat="63.06285000240411" lon="7.649763885670345" id="-6451">
		<tag k="name" v="Hyllmyra" />
		<tag k="place" v="farm" />
		<tag k="ssr:stedsnr" v="801498" />
	</node>
	<node lat="63.02457492270663" lon="7.598817439433373" id="-6455">
		<tag k="fixme" v="consider place=hamlet" />
		<tag k="name" v="Sørvika" />
		<tag k="place" v="farm" />
		<tag k="ssr:stedsnr" v="801596" />
	</node>
	<node lat="63.051408331543584" lon="7.640622222193556" id="-6459">
		<tag k="name" v="Djupmyra" />
		<tag k="place" v="farm" />
		<tag k="ssr:stedsnr" v="801555" />
	</node>
	<node lat="63.03853055225105" lon="7.621527786184669" id="-6460">
		<tag k="name" v="Straumssetra" />
		<tag k="place" v="farm" />
		<tag k="ssr:stedsnr" v="801556" />
	</node>
	<node lat="63.02246647432564" lon="7.518490986356341" id="-6462">
		<tag k="fixme" v="consider place=hamlet" />
		<tag k="name" v="Hoset" />
		<tag k="place" v="farm" />
		<tag k="ssr:stedsnr" v="801601" />
	</node>
	<node lat="62.98572222655561" lon="7.683108334317952" id="-6467">
		<tag k="name" v="Hagetun" />
		<tag k="place" v="farm" />
		<tag k="ssr:stedsnr" v="801926" />
	</node>
	<node lat="62.967677530735855" lon="7.439336542076231" id="-6468">
		<tag k="name" v="Kongshaug" />
		<tag k="place" v="farm" />
		<tag k="ssr:stedsnr" v="801938" />
	</node>
	<node lat="62.97112222418131" lon="7.624152774353856" id="-6469">
		<tag k="name" v="Hosetvollen" />
		<tag k="place" v="farm" />
		<tag k="ssr:stedsnr" v="801948" />
	</node>
	<node lat="63.047013889725115" lon="7.479005558939145" id="-6471">
		<tag k="historic" v="shieling" />
		<tag k="name" v="Stølen" />
		<tag k="place" v="isolated_dwelling" />
		<tag k="ssr:stedsnr" v="836372" />
	</node>
	<node lat="63.04349166815502" lon="7.605652777851099" id="-6477">
		<tag k="name" v="Fossabakken" />
		<tag k="place" v="farm" />
		<tag k="ssr:stedsnr" v="836761" />
	</node>
	<node lat="63.08265277487597" lon="7.623224995818311" id="-6479">
		<tag k="alt_name" v="Djupvik" />
		<tag k="name" v="Djupbukt" />
		<tag k="place" v="farm" />
		<tag k="ssr:stedsnr" v="836855" />
	</node>
	<node lat="63.04966375603729" lon="7.493954487713707" id="-6493">
		<tag k="fixme" v="consider place=hamlet" />
		<tag k="name" v="Henda" />
		<tag k="place" v="farm" />
		<tag k="ssr:stedsnr" v="862529" />
	</node>
	<node lat="63.064891667328176" lon="7.593724996683109" id="-6498">
		<tag k="name" v="Vågen" />
		<tag k="place" v="farm" />
		<tag k="ssr:stedsnr" v="862487" />
	</node>
	<node lat="63.05891988337784" lon="7.604447230844351" id="-6500">
		<tag k="fixme" v="consider place=hamlet" />
		<tag k="name" v="Rossvågen" />
		<tag k="place" v="farm" />
		<tag k="ssr:stedsnr" v="862495" />
	</node>
	<node lat="63.031375348455846" lon="7.442132049371692" id="-6502">
		<tag k="fixme" v="consider place=hamlet" />
		<tag k="name" v="Vågen" />
		<tag k="place" v="farm" />
		<tag k="ssr:stedsnr" v="862576" />
	</node>
	<node lat="63.02938037843441" lon="7.591756408314645" id="-6503">
		<tag k="fixme" v="consider place=hamlet" />
		<tag k="name" v="Fransvågen" />
		<tag k="place" v="farm" />
		<tag k="ssr:stedsnr" v="862596" />
	</node>
	<node lat="63.051905553479756" lon="7.6503694353164144" id="-6504">
		<tag k="name" v="Heimvang" />
		<tag k="place" v="farm" />
		<tag k="ssr:stedsnr" v="862543" />
	</node>
	<node lat="62.99289820335384" lon="7.69018270633974" id="-6511">
		<tag k="fixme" v="consider place=hamlet" />
		<tag k="name" v="Oppsal" />
		<tag k="place" v="farm" />
		<tag k="ssr:stedsnr" v="862917" />
	</node>
	<node lat="62.981600004035634" lon="7.361536118726721" id="-6515">
		<tag k="name" v="Tøvika" />
		<tag k="place" v="farm" />
		<tag k="ssr:stedsnr" v="952333" />
	</node>
	<node lat="62.99664444591808" lon="7.552069435098355" id="-6523">
		<tag k="historic" v="shieling" />
		<tag k="name" v="Basetra" />
		<tag k="place" v="isolated_dwelling" />
		<tag k="ssr:stedsnr" v="958225" />
	</node>
	<node lat="63.08933960690553" lon="7.6613248680883705" id="-6533">
		<tag k="fixme" v="consider place=hamlet" />
		<tag k="name" v="Bremsnes" />
		<tag k="place" v="farm" />
		<tag k="ssr:stedsnr" v="980651" />
	</node>
	<node lat="63.067132034620606" lon="7.596755040712673" id="-6534">
		<tag k="fixme" v="consider place=hamlet" />
		<tag k="name" v="Ekkilsøya" />
		<tag k="place" v="farm" />
		<tag k="ssr:stedsnr" v="980653" />
	</node>
	<node lat="63.00943709211053" lon="7.5859668512572265" id="-6536">
		<tag k="fixme" v="consider place=hamlet" />
		<tag k="name" v="Vebenstad" />
		<tag k="place" v="farm" />
		<tag k="ssr:stedsnr" v="980666" />
	</node>
	<node lat="63.01536503091496" lon="7.576826931491034" id="-6537">
		<tag k="fixme" v="consider place=hamlet" />
		<tag k="name" v="Kalvøya" />
		<tag k="place" v="farm" />
		<tag k="ssr:stedsnr" v="980667" />
	</node>
	<node lat="63.065980853435875" lon="7.5422624111245815" id="-6538">
		<tag k="fixme" v="consider place=hamlet" />
		<tag k="name" v="Forøya" />
		<tag k="place" v="farm" />
		<tag k="ssr:stedsnr" v="980669" />
	</node>
	<node lat="63.072137725279106" lon="7.487259867134145" id="-6540">
		<tag k="fixme" v="consider place=hamlet" />
		<tag k="name" v="Honningsøya" />
		<tag k="place" v="farm" />
		<tag k="ssr:stedsnr" v="980672" />
	</node>
	<node lat="63.00579587751487" lon="7.722579316311978" id="-6541">
		<tag k="fixme" v="consider place=hamlet" />
		<tag k="name" v="Kvernes" />
		<tag k="place" v="farm" />
		<tag k="ssr:stedsnr" v="980619" />
	</node>
	<node lat="63.031080272709964" lon="7.414752767374928" id="-6545">
		<tag k="fixme" v="consider place=hamlet" />
		<tag k="name" v="Rangøya" />
		<tag k="place" v="farm" />
		<tag k="ssr:stedsnr" v="980773" />
	</node>
	<node lat="63.02028932003678" lon="7.450060063771586" id="-6546">
		<tag k="fixme" v="consider place=hamlet" />
		<tag k="name" v="Kalvøya" />
		<tag k="place" v="farm" />
		<tag k="ssr:stedsnr" v="980774" />
	</node>
	<node lat="62.99943192630354" lon="7.478415778506992" id="-6547">
		<tag k="fixme" v="consider place=hamlet" />
		<tag k="name" v="Folland" />
		<tag k="place" v="farm" />
		<tag k="ssr:stedsnr" v="980775" />
	</node>
	<node lat="63.00578333925256" lon="7.723582823974419" id="-6549">
		<tag k="name" v="Prestegardstunet" />
		<tag k="place" v="isolated_dwelling" />
		<tag k="ssr:stedsnr" v="982474" />
	</node>
	<node lat="63.00629531396425" lon="7.446873668679383" id="-6552">
		<tag k="name" v="Heimvang" />
		<tag k="place" v="farm" />
		<tag k="ssr:stedsnr" v="1073872" />
=======
	<node id="-79009" lat="62.9676775307" lon="7.43933654208">
		<tag k="name" v="Kongshaug" />
		<tag k="place" v="farm" />
		<tag k="ssr:stedsnr" v="801938" />
	</node>
	<node id="-78496" lat="63.0360138857" lon="7.43289167275">
		<tag k="name" v="Hasløysetra" />
		<tag k="place" v="farm" />
		<tag k="ssr:stedsnr" v="12536" />
	</node>
	<node id="-77981" lat="62.9732741981" lon="7.42253695826">
		<tag k="fixme" v="consider place=hamlet" />
		<tag k="name" v="Hafsgjerd" />
		<tag k="place" v="farm" />
		<tag k="ssr:stedsnr" v="12938" />
	</node>
	<node id="-77980" lat="62.9704222218" lon="7.44420277614">
		<tag k="name" v="Tungset" />
		<tag k="place" v="farm" />
		<tag k="ssr:stedsnr" v="12936" />
	</node>
	<node id="-78491" lat="62.9994319263" lon="7.47841577851">
		<tag k="fixme" v="consider place=hamlet" />
		<tag k="name" v="Folland" />
		<tag k="place" v="farm" />
		<tag k="ssr:stedsnr" v="980775" />
	</node>
	<node id="-78490" lat="63.02028932" lon="7.45006006377">
		<tag k="fixme" v="consider place=hamlet" />
		<tag k="name" v="Kalvøya" />
		<tag k="place" v="farm" />
		<tag k="ssr:stedsnr" v="980774" />
	</node>
	<node id="-79001" lat="63.0795861088" lon="7.65847500454">
		<tag k="name" v="Kjerkevågen" />
		<tag k="place" v="village" />
		<tag k="ssr:stedsnr" v="801709" />
	</node>
	<node id="-77976" lat="63.0129388851" lon="7.5471944528">
		<tag k="name" v="Trøa" />
		<tag k="place" v="farm" />
		<tag k="ssr:stedsnr" v="12602" />
	</node>
	<node id="-78276" lat="63.0133888926" lon="7.44343611964">
		<tag k="name" v="Seljeset" />
		<tag k="place" v="farm" />
		<tag k="ssr:stedsnr" v="680647" />
	</node>
	<node id="-78997" lat="63.0006055598" lon="7.48049444467">
		<tag k="alt_name" v="Folland, nedre;Folland;Negarden" />
		<tag k="name" v="Nedre Folland" />
		<tag k="place" v="farm" />
		<tag k="ssr:stedsnr" v="801880" />
	</node>
	<node id="-79053" lat="63.0313753485" lon="7.44213204937">
		<tag k="fixme" v="consider place=hamlet" />
		<tag k="name" v="Vågen" />
		<tag k="place" v="farm" />
		<tag k="ssr:stedsnr" v="862576" />
	</node>
	<node id="-78990" lat="63.0628500024" lon="7.64976388567">
		<tag k="name" v="Hyllmyra" />
		<tag k="place" v="farm" />
		<tag k="ssr:stedsnr" v="801498" />
	</node>
	<node id="-78989" lat="63.0573027798" lon="7.48893333383">
		<tag k="name" v="Slettvågen" />
		<tag k="place" v="farm" />
		<tag k="ssr:stedsnr" v="801492" />
	</node>
	<node id="-78988" lat="63.0224664743" lon="7.51849098636">
		<tag k="fixme" v="consider place=hamlet" />
		<tag k="name" v="Hoset" />
		<tag k="place" v="farm" />
		<tag k="ssr:stedsnr" v="801601" />
	</node>
	<node id="-78987" lat="63.0143387113" lon="7.6828973133">
		<tag k="fixme" v="consider place=hamlet" />
		<tag k="name" v="Veiset" />
		<tag k="place" v="farm" />
		<tag k="ssr:stedsnr" v="801401" />
	</node>
	<node id="-78984" lat="62.9577722255" lon="7.50825000078">
		<tag k="name" v="Helset" />
		<tag k="place" v="farm" />
		<tag k="ssr:stedsnr" v="800992" />
	</node>
	<node id="-78983" lat="62.9595611086" lon="7.48529721662">
		<tag k="name" v="Steinsgrenda" />
		<tag k="place" v="hamlet" />
		<tag k="ssr:stedsnr" v="800965" />
	</node>
	<node id="-78982" lat="62.9417368354" lon="7.51590684303">
		<tag k="fixme" v="consider place=hamlet" />
		<tag k="name" v="Rånes" />
		<tag k="place" v="farm" />
		<tag k="ssr:stedsnr" v="800499" />
	</node>
	<node id="-78560" lat="62.9982666684" lon="7.45454999995">
		<tag k="name" v="Sørlia" />
		<tag k="place" v="farm" />
		<tag k="ssr:stedsnr" v="73886" />
	</node>
	<node id="-78978" lat="63.0781805526" lon="7.60492499114">
		<tag k="name" v="Solheim" />
		<tag k="place" v="isolated_dwelling" />
		<tag k="ssr:stedsnr" v="777842" />
	</node>
	<node id="-78016" lat="62.95706785" lon="7.48906092115">
		<tag k="fixme" v="consider place=hamlet" />
		<tag k="name" v="Stein" />
		<tag k="place" v="farm" />
		<tag k="ssr:stedsnr" v="254972" />
	</node>
	<node id="-78459" lat="63.0434916682" lon="7.60565277785">
		<tag k="name" v="Fossabakken" />
		<tag k="place" v="farm" />
		<tag k="ssr:stedsnr" v="836761" />
	</node>
	<node id="-78457" lat="63.0826527749" lon="7.62322499582">
		<tag k="alt_name" v="Djupvik" />
		<tag k="name" v="Djupbukt" />
		<tag k="place" v="farm" />
		<tag k="ssr:stedsnr" v="836855" />
	</node>
	<node id="-78967" lat="63.0300098119" lon="7.41921795298">
		<tag k="fixme" v="consider place=hamlet" />
		<tag k="name" v="Rangøynes" />
		<tag k="place" v="farm" />
		<tag k="ssr:stedsnr" v="776419" />
	</node>
	<node id="-78441" lat="63.0087444481" lon="7.45541667418">
		<tag k="name" v="Kvila" />
		<tag k="place" v="farm" />
		<tag k="ssr:stedsnr" v="801423" />
	</node>
	<node id="-78451" lat="63.0470138897" lon="7.47900555894">
		<tag k="historic" v="shieling" />
		<tag k="name" v="Stølen" />
		<tag k="place" v="locality" />
		<tag k="ssr:stedsnr" v="836372" />
	</node>
	<node id="-78449" lat="63.0245749227" lon="7.59881743943">
		<tag k="fixme" v="consider place=hamlet" />
		<tag k="name" v="Sørvika" />
		<tag k="place" v="farm" />
		<tag k="ssr:stedsnr" v="801596" />
	</node>
	<node id="-78960" lat="63.0404999962" lon="7.53211666687">
		<tag k="name" v="Langdalen" />
		<tag k="place" v="farm" />
		<tag k="ssr:stedsnr" v="775784" />
	</node>
	<node id="-78013" lat="62.9683768056" lon="7.61954015506">
		<tag k="alt_name" v="Skardset" />
		<tag k="fixme" v="consider place=hamlet" />
		<tag k="name" v="Skarset" />
		<tag k="place" v="farm" />
		<tag k="ssr:stedsnr" v="73957" />
	</node>
	<node id="-78444" lat="63.0385305523" lon="7.62152778618">
		<tag k="name" v="Straumssetra" />
		<tag k="place" v="farm" />
		<tag k="ssr:stedsnr" v="801556" />
	</node>
	<node id="-78443" lat="63.0514083315" lon="7.64062222219">
		<tag k="name" v="Djupmyra" />
		<tag k="place" v="farm" />
		<tag k="ssr:stedsnr" v="801555" />
	</node>
	<node id="-78442" lat="63.0255805594" lon="7.56583610937">
		<tag k="name" v="Leitet" />
		<tag k="place" v="farm" />
		<tag k="ssr:stedsnr" v="801604" />
	</node>
	<node id="-78953" lat="63.0641027811" lon="7.63138333622">
		<tag k="name" v="Mjølkneset" />
		<tag k="place" v="farm" />
		<tag k="ssr:stedsnr" v="741601" />
	</node>
	<node id="-78951" lat="62.9987416701" lon="7.58389722858">
		<tag k="name" v="Røssvoll" />
		<tag k="place" v="farm" />
		<tag k="ssr:stedsnr" v="740895" />
	</node>
	<node id="-78438" lat="62.9992083372" lon="7.40843333905">
		<tag k="name" v="Nygard" />
		<tag k="place" v="farm" />
		<tag k="ssr:stedsnr" v="923904" />
	</node>
	<node id="-78957" lat="62.9864555545" lon="7.3807833418">
		<tag k="name" v="Tøvika" />
		<tag k="place" v="farm" />
		<tag k="ssr:stedsnr" v="769355" />
	</node>
	<node id="-78947" lat="63.0017555558" lon="7.47901110702">
		<tag k="name" v="Bakken" />
		<tag k="place" v="farm" />
		<tag k="ssr:stedsnr" v="740401" />
	</node>
	<node id="-78432" lat="63.0583083364" lon="7.50910278518">
		<tag k="name" v="Sørneset" />
		<tag k="place" v="farm" />
		<tag k="ssr:stedsnr" v="923553" />
	</node>
	<node id="-79008" lat="62.9857222266" lon="7.68310833432">
		<tag k="name" v="Hagetun" />
		<tag k="place" v="farm" />
		<tag k="ssr:stedsnr" v="801926" />
	</node>
	<node id="-78942" lat="63.0929972251" lon="7.67071110823">
		<tag k="name" v="Dalen" />
		<tag k="place" v="isolated_dwelling" />
		<tag k="ssr:stedsnr" v="655636" />
	</node>
	<node id="-78429" lat="63.0428055597" lon="7.64025278088">
		<tag k="name" v="Lia" />
		<tag k="place" v="farm" />
		<tag k="ssr:stedsnr" v="922553" />
	</node>
	<node id="-78948" lat="63.0270453539" lon="7.5597791904">
		<tag k="alt_name" v="Sundet" />
		<tag k="fixme" v="consider place=hamlet" />
		<tag k="name" v="Sund" />
		<tag k="place" v="farm" />
		<tag k="ssr:stedsnr" v="740602" />
	</node>
	<node id="-78265" lat="63.0047792075" lon="7.46605659553">
		<tag k="name" v="Tuva" />
		<tag k="place" v="farm" />
		<tag k="ssr:stedsnr" v="679398" />
	</node>
	<node id="-78420" lat="62.9637472233" lon="7.51125833797">
		<tag k="historic" v="shieling" />
		<tag k="name" v="Steinsetra" />
		<tag k="place" v="locality" />
		<tag k="ssr:stedsnr" v="921959" />
	</node>
	<node id="-78419" lat="62.9736416687" lon="7.62383610934">
		<tag k="name" v="Myra" />
		<tag k="place" v="farm" />
		<tag k="ssr:stedsnr" v="922936" />
	</node>
	<node id="-78417" lat="62.941716666" lon="7.53261667515">
		<tag k="name" v="Hagen" />
		<tag k="place" v="farm" />
		<tag k="ssr:stedsnr" v="921536" />
	</node>
	<node id="-78922" lat="63.0698333316" lon="7.59774444066">
		<tag k="fixme" v="consider place=hamlet" />
		<tag k="name" v="Ekkilsøya" />
		<tag k="place" v="village" />
		<tag k="ssr:stedsnr" v="655190" />
	</node>
	<node id="-78920" lat="63.0966861097" lon="7.63777499322">
		<tag k="name" v="Kobbvika" />
		<tag k="place" v="farm" />
		<tag k="ssr:stedsnr" v="619785" />
	</node>
	<node id="-78917" lat="63.104441666" lon="7.57907222644">
		<tag k="name" v="Slottet" />
		<tag k="place" v="farm" />
		<tag k="ssr:stedsnr" v="619718" />
	</node>
	<node id="-78404" lat="63.010224066" lon="7.51645303358">
		<tag k="name" v="Arvestad" />
		<tag k="place" v="farm" />
		<tag k="ssr:stedsnr" v="740403" />
	</node>
	<node id="-78050" lat="63.0516555563" lon="7.6208305512">
		<tag k="name" v="Heimdal" />
		<tag k="place" v="farm" />
		<tag k="ssr:stedsnr" v="133518" />
	</node>
	<node id="-77975" lat="62.9487166637" lon="7.55162222746">
		<tag k="name" v="Leithaugen" />
		<tag k="place" v="farm" />
		<tag k="ssr:stedsnr" v="11518" />
	</node>
	<node id="-78912" lat="63.0439805957" lon="7.52804488521">
		<tag k="fixme" v="consider place=hamlet" />
		<tag k="name" v="Flatset" />
		<tag k="place" v="farm" />
		<tag k="ssr:stedsnr" v="619573" />
	</node>
	<node id="-78493" lat="62.9624504573" lon="7.46843380678">
		<tag k="fixme" v="consider place=hamlet" />
		<tag k="name" v="Haga" />
		<tag k="place" v="farm" />
		<tag k="ssr:stedsnr" v="11959" />
	</node>
	<node id="-78018" lat="63.0099126323" lon="7.53509737597">
		<tag k="name" v="Rishaugen" />
		<tag k="place" v="farm" />
		<tag k="ssr:stedsnr" v="255425" />
	</node>
	<node id="-78394" lat="63.0058166706" lon="7.72251110224">
		<tag k="name" v="Kvernes" />
		<tag k="place" v="hamlet" />
		<tag k="ssr:stedsnr" v="898874" />
	</node>
	<node id="-78069" lat="63.1028305542" lon="7.57773332772">
		<tag k="name" v="Røeggen" />
		<tag k="place" v="farm" />
		<tag k="ssr:stedsnr" v="290802" />
	</node>
	<node id="-78390" lat="63.0032777823" lon="7.61881111862">
		<tag k="historic" v="shieling" />
		<tag k="name" v="Bjørsholsetra" />
		<tag k="place" v="locality" />
		<tag k="ssr:stedsnr" v="898232" />
	</node>
	<node id="-78217" lat="63.1018555536" lon="7.59879721264">
		<tag k="name" v="Solbakk" />
		<tag k="place" v="isolated_dwelling" />
		<tag k="ssr:stedsnr" v="475576" />
	</node>
	<node id="-78897" lat="62.9460297864" lon="7.4978819961">
		<tag k="fixme" v="consider place=hamlet" />
		<tag k="name" v="Litl-Rånes" />
		<tag k="place" v="farm" />
		<tag k="ssr:stedsnr" v="618505" />
	</node>
	<node id="-78895" lat="63.0037611135" lon="7.47086943467">
		<tag k="fixme" v="consider place=hamlet" />
		<tag k="name" v="Folland" />
		<tag k="place" v="village" />
		<tag k="ssr:stedsnr" v="618419" />
	</node>
	<node id="-78893" lat="62.9725777812" lon="7.4063500079">
		<tag k="name" v="Mork" />
		<tag k="place" v="farm" />
		<tag k="ssr:stedsnr" v="596910" />
	</node>
	<node id="-78933" lat="62.9569290385" lon="7.5166818163">
		<tag k="fixme" v="consider place=hamlet" />
		<tag k="name" v="Helset" />
		<tag k="place" v="farm" />
		<tag k="ssr:stedsnr" v="654474" />
	</node>
	<node id="-78002" lat="63.016366668" lon="7.45699166028">
		<tag k="fixme" v="consider place=hamlet" />
		<tag k="name" v="Kårvåg" />
		<tag k="place" v="farm" />
		<tag k="ssr:stedsnr" v="237649" />
	</node>
	<node id="-78599" lat="63.0595014654" lon="7.58813591273">
		<tag k="fixme" v="consider place=hamlet" />
		<tag k="name" v="Grønvika" />
		<tag k="place" v="farm" />
		<tag k="ssr:stedsnr" v="133449" />
	</node>
	<node id="-78887" lat="62.9747911614" lon="7.63238744875">
		<tag k="fixme" v="consider place=hamlet" />
		<tag k="name" v="Hoset" />
		<tag k="place" v="farm" />
		<tag k="ssr:stedsnr" v="596300" />
	</node>
	<node id="-78886" lat="63.0750805601" lon="7.6425666762">
		<tag k="name" v="Gjøta" />
		<tag k="place" v="isolated_dwelling" />
		<tag k="ssr:stedsnr" v="595862" />
	</node>
	<node id="-78885" lat="62.9659944474" lon="7.44304167571">
		<tag k="name" v="Grønmyr" />
		<tag k="place" v="isolated_dwelling" />
		<tag k="ssr:stedsnr" v="595664" />
	</node>
	<node id="-79074" lat="62.9966444459" lon="7.5520694351">
		<tag k="historic" v="shieling" />
		<tag k="name" v="Basetra" />
		<tag k="place" v="locality" />
		<tag k="ssr:stedsnr" v="958225" />
	</node>
	<node id="-78365" lat="63.0489819845" lon="7.62828092031">
		<tag k="fixme" v="consider place=hamlet" />
		<tag k="name" v="Ødegård" />
		<tag k="place" v="farm" />
		<tag k="ssr:stedsnr" v="693812" />
	</node>
	<node id="-79091" lat="63.0671320346" lon="7.59675504071">
		<tag k="fixme" v="consider place=hamlet" />
		<tag k="name" v="Ekkilsøya" />
		<tag k="place" v="farm" />
		<tag k="ssr:stedsnr" v="980653" />
	</node>
	<node id="-78032" lat="63.0821944414" lon="7.58886944688">
		<tag k="name" v="Setra" />
		<tag k="place" v="farm" />
		<tag k="ssr:stedsnr" v="255743" />
	</node>
	<node id="-78362" lat="63.0118611095" lon="7.52793056025">
		<tag k="name" v="Stormyra" />
		<tag k="place" v="farm" />
		<tag k="ssr:stedsnr" v="680666" />
	</node>
	<node id="-78023" lat="63.0544904412" lon="7.4347581866">
		<tag k="fixme" v="consider place=hamlet" />
		<tag k="name" v="Hasløya" />
		<tag k="place" v="farm" />
		<tag k="ssr:stedsnr" v="255547" />
	</node>
	<node id="-78359" lat="62.9605219626" lon="7.59425471606">
		<tag k="fixme" v="consider place=hamlet" />
		<tag k="name" v="Avset" />
		<tag k="place" v="farm" />
		<tag k="ssr:stedsnr" v="679956" />
	</node>
	<node id="-78152" lat="63.0137888871" lon="7.4454138879">
		<tag k="fixme" v="consider place=suburb, village or hamlet" />
		<tag k="name" v="Kårvåg" />
		<tag k="place" v="quarter" />
		<tag k="ssr:stedsnr" v="255606" />
	</node>
	<node id="-78356" lat="63.0131409471" lon="7.70909917845">
		<tag k="fixme" v="consider place=hamlet" />
		<tag k="name" v="Gullset" />
		<tag k="place" v="farm" />
		<tag k="ssr:stedsnr" v="679353" />
	</node>
	<node id="-78153" lat="63.0204362449" lon="7.56509260905">
		<tag k="fixme" v="consider place=hamlet" />
		<tag k="name" v="Nekkstad" />
		<tag k="place" v="farm" />
		<tag k="ssr:stedsnr" v="255617" />
	</node>
	<node id="-78864" lat="62.9939611148" lon="7.69453056354">
		<tag k="alt_name" v="Opsal" />
		<tag k="name" v="Oppsal" />
		<tag k="place" v="farm" />
		<tag k="ssr:stedsnr" v="593765" />
	</node>
	<node id="-78863" lat="63.0506055592" lon="7.51070277447">
		<tag k="name" v="Heimgarden" />
		<tag k="place" v="farm" />
		<tag k="ssr:stedsnr" v="593750" />
	</node>
	<node id="-78405" lat="63.0075713514" lon="7.53432540156">
		<tag k="name" v="Elvahaugen" />
		<tag k="place" v="farm" />
		<tag k="ssr:stedsnr" v="740404" />
	</node>
	<node id="-78596" lat="62.9519741085" lon="7.55626190997">
		<tag k="fixme" v="consider place=hamlet" />
		<tag k="name" v="Å" />
		<tag k="place" v="farm" />
		<tag k="ssr:stedsnr" v="132992" />
	</node>
	<node id="-78935" lat="63.0163583348" lon="7.69676111969">
		<tag k="alt_name" v="Klippervik" />
		<tag k="fixme" v="consider place=hamlet" />
		<tag k="name" v="Kippervik" />
		<tag k="place" v="farm" />
		<tag k="ssr:stedsnr" v="654894" />
	</node>
	<node id="-78593" lat="62.94984444" lon="7.50307500064">
		<tag k="name" v="Uthaug" />
		<tag k="place" v="farm" />
		<tag k="ssr:stedsnr" v="132974" />
	</node>
	<node id="-78698" lat="62.9731673954" lon="7.44357406108">
		<tag k="fixme" v="consider place=hamlet" />
		<tag k="name" v="Øvertungset" />
		<tag k="place" v="farm" />
		<tag k="ssr:stedsnr" v="350462" />
	</node>
	<node id="-78849" lat="62.9740866284" lon="7.38475380557">
		<tag k="alt_name" v="Kvalsvik" />
		<tag k="fixme" v="consider place=hamlet" />
		<tag k="name" v="Kvalshaug" />
		<tag k="place" v="farm" />
		<tag k="ssr:stedsnr" v="558934" />
>>>>>>> e1d4bc35ff8a6074a6f2e91616a996b547c36f15
	</node>
</osm>
