<?xml version="1.0" encoding="UTF-8"?>
<osm generator="osmapis" version="0.6">
	<node id="-594218" lat="63.0144416653" lon="7.60555833097">
		<tag k="name" v="Seterelva" />
		<tag k="ssr:stedsnr" v="437604" />
		<tag k="waterway" v="stream" />
	</node>
	<node id="-594554" lat="62.9537277808" lon="7.52834722299">
		<tag k="name" v="Helsetvatnet" />
		<tag k="natural" v="water" />
		<tag k="ssr:stedsnr" v="739992" />
	</node>
	<node id="-594039" lat="62.9702666709" lon="7.55189722914">
		<tag k="name" v="Litlvatnet" />
		<tag k="natural" v="water" />
		<tag k="ssr:stedsnr" v="133950" />
	</node>
	<node id="-594417" lat="62.9514305532" lon="7.54036943479">
		<tag k="name" v="Åelva" />
		<tag k="ssr:stedsnr" v="618988" />
		<tag k="waterway" v="stream" />
	</node>
	<node id="-594415" lat="63.0917916679" lon="7.64499443875">
		<tag k="name" v="Vardvatnet" />
		<tag k="natural" v="water" />
		<tag k="ssr:stedsnr" v="618708" />
	</node>
	<node id="-594284" lat="63.0271527809" lon="7.51978611109">
		<tag k="name" v="Sytjønna" />
		<tag k="natural" v="water" />
		<tag k="ssr:stedsnr" v="498647" />
	</node>
	<node id="-593898" lat="62.9886805563" lon="7.60398332847">
		<tag k="name" v="Gulstadelva" />
		<tag k="ssr:stedsnr" v="12915" />
		<tag k="waterway" v="stream" />
	</node>
	<node id="-594471" lat="63.071213889" lon="7.64733889778">
		<tag k="name" v="Eidet" />
		<tag k="natural" v="strait" />
		<tag k="ssr:stedsnr" v="655860" />
	</node>
	<node id="-594151" lat="62.952211114" lon="7.50431667636">
		<tag k="name" v="Rånestjernet" />
		<tag k="natural" v="water" />
		<tag k="ssr:stedsnr" v="232278" />
	</node>
	<node id="-593766" lat="63.0132833354" lon="7.67574722343">
		<tag k="name" v="Ytter Veisetelva" />
		<tag k="ssr:stedsnr" v="351921" />
		<tag k="waterway" v="river" />
	</node>
	<node id="-594020" lat="63.0509083367" lon="7.59750556514">
		<tag k="name" v="Ingeborgvikvatnet" />
		<tag k="natural" v="water" />
		<tag k="ssr:stedsnr" v="133514" />
	</node>
	<node id="-594531" lat="63.0846277811" lon="7.54152499839">
		<tag k="name" v="Orøytjørna" />
		<tag k="natural" v="water" />
		<tag k="ssr:stedsnr" v="715846" />
	</node>
	<node id="-594363" lat="62.9434888895" lon="7.53936666443">
		<tag k="name" v="Skiftesbekken" />
		<tag k="ssr:stedsnr" v="593424" />
		<tag k="waterway" v="stream" />
	</node>
	<node id="-594000" lat="63.0528277774" lon="7.62810000492">
		<tag k="name" v="Strømselva" />
		<tag k="ssr:stedsnr" v="109983" />
		<tag k="waterway" v="stream" />
	</node>
	<node id="-594013" lat="63.0101317009" lon="7.54666430728">
		<tag k="alt_name" v="Baelva" />
		<tag k="name" v="Holselva" />
		<tag k="ssr:stedsnr" v="133382" />
		<tag k="waterway" v="stream" />
	</node>
	<node id="-594652" lat="63.0104638893" lon="7.42948334081">
		<tag k="name" v="Utheimselva" />
		<tag k="ssr:stedsnr" v="836406" />
		<tag k="waterway" v="river" />
	</node>
	<node id="-594651" lat="62.9986305532" lon="7.41244444514">
		<tag k="name" v="Smeneselva" />
		<tag k="ssr:stedsnr" v="836404" />
		<tag k="waterway" v="stream" />
	</node>
	<node id="-593754" lat="63.0526749981" lon="7.60645556279">
		<tag k="name" v="Lomtjønna" />
		<tag k="natural" v="water" />
		<tag k="ssr:stedsnr" v="350744" />
	</node>
	<node id="-593753" lat="63.0494527772" lon="7.61954999396">
		<tag k="name" v="Fossen" />
		<tag k="natural" v="waterfall" />
		<tag k="ssr:stedsnr" v="350742" />
	</node>
	<node id="-594007" lat="62.9614055574" lon="7.55981111137">
		<tag k="name" v="Litlelva" />
		<tag k="ssr:stedsnr" v="132959" />
		<tag k="waterway" v="stream" />
	</node>
	<node id="-594259" lat="62.9928749961" lon="7.39989443535">
		<tag k="name" v="Barhaugbekken" />
		<tag k="ssr:stedsnr" v="482527" />
		<tag k="waterway" v="stream" />
	</node>
	<node id="-594130" lat="62.9722666658" lon="7.61148333415">
		<tag k="name" v="Mekelva" />
		<tag k="old_name" v="Mek-elva" />
		<tag k="ssr:stedsnr" v="230457" />
		<tag k="waterway" v="stream" />
	</node>
	<node id="-594257" lat="63.0256305535" lon="7.62934445402">
		<tag k="name" v="Tømmerløpsbekken" />
		<tag k="ssr:stedsnr" v="472923" />
		<tag k="waterway" v="stream" />
	</node>
	<node id="-594128" lat="62.9840944439" lon="7.58150277467">
		<tag k="name" v="Grovavatnet" />
		<tag k="natural" v="water" />
		<tag k="ssr:stedsnr" v="230454" />
		<tag k="water" v="lake" />
	</node>
	<node id="-594255" lat="63.0147888916" lon="7.67004443843">
		<tag k="name" v="Seterelva" />
		<tag k="ssr:stedsnr" v="472884" />
		<tag k="waterway" v="stream" />
	</node>
	<node id="-594382" lat="63.0145083372" lon="7.68713055394">
		<tag k="name" v="Veisetelva" />
		<tag k="ssr:stedsnr" v="594908" />
		<tag k="waterway" v="stream" />
	</node>
	<node id="-594637" lat="63.0983500002" lon="7.63530000314">
		<tag k="name" v="Setervatnet" />
		<tag k="natural" v="water" />
		<tag k="ssr:stedsnr" v="801734" />
	</node>
	<node id="-593868" lat="63.0206638913" lon="7.63184167298">
		<tag k="name" v="Gressvikbukta" />
		<tag k="ssr:stedsnr" v="898941" />
		<tag k="waterway" v="stream" />
	</node>
	<node id="-593738" lat="62.9857222211" lon="7.62650556047">
		<tag k="name" v="Mekeidelva" />
		<tag k="ssr:stedsnr" v="316938" />
		<tag k="waterway" v="stream" />
	</node>
	<node id="-594505" lat="62.9974888863" lon="7.50065556292">
		<tag k="name" v="Vassdalselva" />
		<tag k="ssr:stedsnr" v="680915" />
		<tag k="waterway" v="stream" />
	</node>
	<node id="-593992" lat="62.9909055584" lon="7.68236943736">
		<tag k="name" v="Sør Strandbekken" />
		<tag k="ssr:stedsnr" v="109923" />
		<tag k="waterway" v="stream" />
	</node>
	<node id="-594252" lat="62.9685666669" lon="7.46574444683">
		<tag k="name" v="Hagaelva" />
		<tag k="ssr:stedsnr" v="472468" />
		<tag k="waterway" v="stream" />
	</node>
	<node id="-594374" lat="63.0310555565" lon="7.61691388545">
		<tag k="name" v="Ramsdalselva" />
		<tag k="ssr:stedsnr" v="594213" />
		<tag k="waterway" v="stream" />
	</node>
	<node id="-594245" lat="63.0040638869" lon="7.54743334277">
		<tag k="name" v="Lianselva" />
		<tag k="ssr:stedsnr" v="472208" />
		<tag k="waterway" v="stream" />
	</node>
	<node id="-594054" lat="63.0021166628" lon="7.5278527779">
		<tag k="name" v="Demmå" />
		<tag k="natural" v="water" />
		<tag k="ssr:stedsnr" v="169208" />
	</node>
	<node id="-594369" lat="62.9981111091" lon="7.69910832785">
		<tag k="name" v="Helgåa" />
		<tag k="ssr:stedsnr" v="593767" />
		<tag k="waterway" v="stream" />
	</node>
	<node id="-593728" lat="63.0175166661" lon="7.48731667314">
		<tag k="name" v="Kårvågtjønna" />
		<tag k="natural" v="water" />
		<tag k="ssr:stedsnr" v="316650" />
	</node>
	<node id="-593727" lat="63.013411108" lon="7.46105833043">
		<tag k="name" v="Steindalsbekken" />
		<tag k="ssr:stedsnr" v="316636" />
		<tag k="waterway" v="stream" />
	</node>
	<node id="-594621" lat="63.0471305567" lon="7.60699999274">
		<tag k="name" v="Storvatnet" />
		<tag k="natural" v="water" />
		<tag k="ssr:stedsnr" v="801537" />
		<tag k="water" v="lake" />
	</node>
	<node id="-594747" lat="62.9876333338" lon="7.47137499078">
		<tag k="name" v="Follandsvatnet" />
		<tag k="natural" v="water" />
		<tag k="ssr:stedsnr" v="923911" />
	</node>
	<node id="-594361" lat="63.0489388891" lon="7.61576667127">
		<tag k="name" v="Gammelfossen" />
		<tag k="natural" v="waterfall" />
		<tag k="ssr:stedsnr" v="592818" />
	</node>
	<node id="-594230" lat="62.9770833294" lon="7.55941388701">
		<tag k="name" v="Taraldsvatnet" />
		<tag k="natural" v="water" />
		<tag k="ssr:stedsnr" v="437945" />
	</node>
	<node id="-594612" lat="63.0062111131" lon="7.6872416686">
		<tag k="name" v="Eiddalselva" />
		<tag k="ssr:stedsnr" v="801380" />
		<tag k="waterway" v="stream" />
	</node>
	<node id="-593971" lat="62.9840305521" lon="7.50558888099">
		<tag k="name" v="Vassdalsvatnet" />
		<tag k="natural" v="water" />
		<tag k="ssr:stedsnr" v="73929" />
	</node>
	<node id="-594226" lat="62.9904055599" lon="7.61511388976">
		<tag k="name" v="Myrsettjønna" />
		<tag k="natural" v="water" />
		<tag k="ssr:stedsnr" v="437884" />
	</node>
	<node id="-594480" lat="63.0061555552" lon="7.66587500348">
		<tag k="name" v="Gullsetvatnet" />
		<tag k="place" v="locality" />
		<tag k="ssr:stedsnr" v="679389" />
	</node>
	<node id="-593827" lat="63.0043944469" lon="7.69420276812">
		<tag k="name" v="Ilvollelva" />
		<tag k="ssr:stedsnr" v="412860" />
		<tag k="waterway" v="stream" />
	</node>
	<node id="-594092" lat="63.0351500031" lon="7.45753888036">
		<tag k="name" v="Vågavatnet" />
		<tag k="natural" v="water" />
		<tag k="ssr:stedsnr" v="194535" />
	</node>
	<node id="-594346" lat="63.0346055589" lon="7.4901694373">
		<tag k="name" v="Drepartjønna" />
		<tag k="natural" v="water" />
		<tag k="ssr:stedsnr" v="558622" />
	</node>
	<node id="-593831" lat="63.0405722252" lon="7.63474445208">
		<tag k="name" v="Huslitjønna" />
		<tag k="natural" v="water" />
		<tag k="ssr:stedsnr" v="412982" />
	</node>
	<node id="-594342" lat="63.0546777737" lon="7.6426250058">
		<tag k="name" v="Straumsvågen" />
		<tag k="natural" v="water" />
		<tag k="ssr:stedsnr" v="558586" />
		<tag k="water" v="lake" />
	</node>
	<node id="-594596" lat="62.9973611102" lon="7.63832499677">
		<tag k="name" v="Nedalselva" />
		<tag k="ssr:stedsnr" v="776895" />
		<tag k="waterway" v="stream" />
	</node>
	<node id="-594502" lat="63.0238277749" lon="7.49570555548">
		<tag k="name" v="Holttjønna" />
		<tag k="natural" v="water" />
		<tag k="ssr:stedsnr" v="680670" />
	</node>
	<node id="-594081" lat="63.0044111085" lon="7.54726389715">
		<tag k="name" v="Nekkstadelva" />
		<tag k="ssr:stedsnr" v="194380" />
		<tag k="waterway" v="stream" />
	</node>
	<node id="-593823" lat="63.0073277754" lon="7.50420555396">
		<tag k="name" v="Storgjøta" />
		<tag k="ssr:stedsnr" v="412199" />
		<tag k="waterway" v="stream" />
	</node>
	<node id="-593950" lat="63.0494861095" lon="7.46491110261">
		<tag k="name" v="Ostervatnet" />
		<tag k="natural" v="water" />
		<tag k="ssr:stedsnr" v="73569" />
	</node>
	<node id="-593989" lat="62.9994611117" lon="7.52791110246">
		<tag k="name" v="Vassdalselva" />
		<tag k="ssr:stedsnr" v="109219" />
		<tag k="waterway" v="stream" />
	</node>
	<node id="-594343" lat="63.0374111088" lon="7.61537499694">
		<tag k="name" v="Haukåsvatnet" />
		<tag k="natural" v="water" />
		<tag k="ssr:stedsnr" v="558595" />
	</node>
	<node id="-594201" lat="62.9953416643" lon="7.38125833886">
		<tag k="name" v="Hjertvikelva" />
		<tag k="ssr:stedsnr" v="263643" />
		<tag k="waterway" v="river" />
	</node>
	<node id="-594200" lat="62.95535278" lon="7.56875833993">
		<tag k="name" v="Morkaelva" />
		<tag k="ssr:stedsnr" v="263641" />
		<tag k="waterway" v="river" />
	</node>
	<node id="-594711" lat="63.0953833321" lon="7.63771666413">
		<tag k="name" v="Kobbvikvatnet" />
		<tag k="natural" v="water" />
		<tag k="ssr:stedsnr" v="862742" />
	</node>
	<node id="-593945" lat="63.0419388883" lon="7.44687777763">
		<tag k="name" v="Hendvågen" />
		<tag k="natural" v="water" />
		<tag k="ssr:stedsnr" v="73551" />
	</node>
	<node id="-594590" lat="63.0148138854" lon="7.59718333956">
		<tag k="name" v="Keipdalsbekken" />
		<tag k="ssr:stedsnr" v="776214" />
		<tag k="waterway" v="stream" />
	</node>
	<node id="-593938" lat="62.9624750002" lon="7.51566110744">
		<tag k="name" v="Helsetelva" />
		<tag k="ssr:stedsnr" v="72960" />
		<tag k="waterway" v="stream" />
	</node>
	<node id="-594381" lat="62.9929805537" lon="7.68626665906">
		<tag k="name" v="Nør Strandbekken" />
		<tag k="ssr:stedsnr" v="594898" />
		<tag k="waterway" v="stream" />
	</node>
	<node id="-593959" lat="63.1046083321" lon="7.62531667032">
		<tag k="name" v="Rishaugvatnet" />
		<tag k="natural" v="water" />
		<tag k="ssr:stedsnr" v="73692" />
	</node>
	<node id="-593804" lat="62.98543333" lon="7.66648333575">
		<tag k="name" v="Roksetelva" />
		<tag k="ssr:stedsnr" v="376924" />
		<tag k="waterway" v="stream" />
	</node>
	<node id="-594059" lat="63.001230555" lon="7.66611389628">
		<tag k="name" v="Kverneseidet" />
		<tag k="natural" v="strait" />
		<tag k="ssr:stedsnr" v="169876" />
	</node>
	<node id="-594697" lat="63.0029388856" lon="7.58884721403">
		<tag k="name" v="Bådalselva" />
		<tag k="ssr:stedsnr" v="862395" />
		<tag k="waterway" v="stream" />
	</node>
	<node id="-594312" lat="62.9882500025" lon="7.59780277795">
		<tag k="name" v="Seterhaugelva" />
		<tag k="ssr:stedsnr" v="533475" />
		<tag k="waterway" v="stream" />
	</node>
	<node id="-594311" lat="62.9901305595" lon="7.59238334127">
		<tag k="name" v="Grovaelva" />
		<tag k="ssr:stedsnr" v="533473" />
		<tag k="waterway" v="stream" />
	</node>
	<node id="-594182" lat="63.0185722194" lon="7.52055554883">
		<tag k="name" v="Hosetvatnet" />
		<tag k="natural" v="water" />
		<tag k="ssr:stedsnr" v="255619" />
	</node>
	<node id="-594049" lat="62.957561112" lon="7.49361110711">
		<tag k="name" v="Steinselva" />
		<tag k="ssr:stedsnr" v="168473" />
		<tag k="waterway" v="stream" />
	</node>
	<node id="-594051" lat="63.0658750022" lon="7.57957500506">
		<tag k="name" v="Valmyrdammen" />
		<tag k="natural" v="water" />
		<tag k="ssr:stedsnr" v="168792" />
	</node>
	<node id="-593793" lat="63.0433722241" lon="7.64706666077">
		<tag k="name" v="Steinsvikvatnet" />
		<tag k="natural" v="water" />
		<tag k="ssr:stedsnr" v="376595" />
	</node>
</osm>
