<?xml version="1.0" encoding="UTF-8"?>
<osm generator="osmapis" version="0.6">
	<node id="-8192" lat="63.0383333333" lon="7.46876111928">
		<tag k="name" v="Selvågdalen" />
		<tag k="natural" v="valley" />
		<tag k="place" v="locality" />
		<tag k="ssr:stedsnr" v="194531" />
	</node>
	<node id="-8448" lat="62.9749833339" lon="7.4225416651">
		<tag k="name" v="Storhaugen" />
		<tag k="natural" v="hill" />
		<tag k="place" v="locality" />
		<tag k="ssr:stedsnr" v="654454" />
	</node>
	<node id="-8700" lat="63.0080999964" lon="7.60977221602">
		<tag k="name" v="Bjørnahaugen" />
		<tag k="natural" v="hill" />
		<tag k="place" v="locality" />
		<tag k="ssr:stedsnr" v="133377" />
	</node>
	<node id="-8187" lat="63.0385638923" lon="7.6379972266">
		<tag k="name" v="Haralia" />
		<tag k="natural" v="slope" />
		<tag k="place" v="locality" />
		<tag k="ssr:stedsnr" v="194513" />
	</node>
	<node id="-8177" lat="63.0441027818" lon="7.41133611915">
		<tag k="name" v="Midtvarden" />
		<tag k="natural" v="hill" />
		<tag k="place" v="locality" />
		<tag k="ssr:stedsnr" v="291368" />
	</node>
	<node id="-8686" lat="63.105580554" lon="7.64458611878">
		<tag k="name" v="Seterhaugen" />
		<tag k="natural" v="hill" />
		<tag k="place" v="locality" />
		<tag k="ssr:stedsnr" v="109953" />
	</node>
	<node id="-8683" lat="62.9534388892" lon="7.54073332724">
		<tag k="fixme" v="consider natural=peak for the most distinct mountains in the district" />
		<tag k="name" v="Vassåsen" />
		<tag k="natural" v="hill" />
		<tag k="place" v="locality" />
		<tag k="ssr:stedsnr" v="109433" />
	</node>
	<node id="-8680" lat="62.9610166641" lon="7.57230555963">
		<tag k="name" v="Tronskardhaugen" />
		<tag k="natural" v="hill" />
		<tag k="place" v="locality" />
		<tag k="ssr:stedsnr" v="109012" />
	</node>
	<node id="-8167" lat="62.9967555596" lon="7.659594449">
		<tag k="name" v="Kjerkehaugen" />
		<tag k="natural" v="hill" />
		<tag k="place" v="locality" />
		<tag k="ssr:stedsnr" v="169904" />
	</node>
	<node id="-8678" lat="62.9823333291" lon="7.40202222679">
		<tag k="name" v="Fiskemelen" />
		<tag k="natural" v="hill" />
		<tag k="place" v="locality" />
		<tag k="ssr:stedsnr" v="108487" />
	</node>
	<node id="-8165" lat="62.9827472186" lon="7.35565555807">
		<tag k="name" v="Jekthamna" />
		<tag k="natural" v="valley" />
		<tag k="place" v="locality" />
		<tag k="ssr:stedsnr" v="168867" />
	</node>
	<node id="-8676" lat="62.9753833364" lon="7.3959666683">
		<tag k="name" v="Hegerlia" />
		<tag k="natural" v="slope" />
		<tag k="place" v="locality" />
		<tag k="ssr:stedsnr" v="108482" />
	</node>
	<node id="-9187" lat="62.9951861108" lon="7.69611112056">
		<tag k="name" v="Oppsallia" />
		<tag k="natural" v="slope" />
		<tag k="place" v="locality" />
		<tag k="ssr:stedsnr" v="959336" />
	</node>
	<node id="-9186" lat="63.0428638862" lon="7.66284999209">
		<tag k="name" v="Struphalsen" />
		<tag k="natural" v="valley" />
		<tag k="place" v="locality" />
		<tag k="ssr:stedsnr" v="958981" />
	</node>
	<node id="-9184" lat="63.0451944412" lon="7.64018054886">
		<tag k="name" v="Bythaugen" />
		<tag k="natural" v="hill" />
		<tag k="place" v="locality" />
		<tag k="ssr:stedsnr" v="958978" />
	</node>
	<node id="-9183" lat="63.1115277756" lon="7.62547499462">
		<tag k="name" v="Høghaugen" />
		<tag k="natural" v="hill" />
		<tag k="place" v="locality" />
		<tag k="ssr:stedsnr" v="958974" />
	</node>
	<node id="-8669" lat="62.979977778" lon="7.5773055642">
		<tag k="name" v="Grova" />
		<tag k="natural" v="valley" />
		<tag k="place" v="locality" />
		<tag k="ssr:stedsnr" v="73932" />
	</node>
	<node id="-9180" lat="62.960761107" lon="7.56060556401">
		<tag k="name" v="Skårråtippen" />
		<tag k="natural" v="hill" />
		<tag k="place" v="locality" />
		<tag k="ssr:stedsnr" v="958490" />
	</node>
	<node id="-8667" lat="62.9783777789" lon="7.44423610264">
		<tag k="fixme" v="consider natural=peak for the most distinct mountains in the district" />
		<tag k="name" v="Ufsåsen" />
		<tag k="natural" v="hill" />
		<tag k="place" v="locality" />
		<tag k="ssr:stedsnr" v="73924" />
	</node>
	<node id="-8271" lat="62.9798499968" lon="7.6318722218">
		<tag k="name" v="Hosetlia" />
		<tag k="natural" v="slope" />
		<tag k="place" v="locality" />
		<tag k="ssr:stedsnr" v="291912" />
	</node>
	<node id="-9172" lat="62.9476555538" lon="7.52689444857">
		<tag k="name" v="Storskardet" />
		<tag k="natural" v="valley" />
		<tag k="place" v="locality" />
		<tag k="ssr:stedsnr" v="957463" />
	</node>
	<node id="-9171" lat="62.979433331" lon="7.50325556074">
		<tag k="name" v="Gulltanna" />
		<tag k="natural" v="hill" />
		<tag k="place" v="locality" />
		<tag k="ssr:stedsnr" v="957461" />
	</node>
	<node id="-9170" lat="62.9741861114" lon="7.46948056266">
		<tag k="name" v="Hesthaugen" />
		<tag k="natural" v="hill" />
		<tag k="place" v="locality" />
		<tag k="ssr:stedsnr" v="957460" />
	</node>
	<node id="-8099" lat="63.0024972229" lon="7.49527223059">
		<tag k="name" v="Knausen" />
		<tag k="natural" v="hill" />
		<tag k="place" v="locality" />
		<tag k="ssr:stedsnr" v="47427" />
	</node>
	<node id="-9168" lat="62.9772472204" lon="7.57986666419">
		<tag k="fixme" v="consider natural=peak for the most distinct mountains in the district" />
		<tag k="name" v="Mekknøken" />
		<tag k="natural" v="hill" />
		<tag k="place" v="locality" />
		<tag k="ssr:stedsnr" v="862936" />
	</node>
	<node id="-9166" lat="62.9952361081" lon="7.54536944658">
		<tag k="name" v="Nekkstaddalen" />
		<tag k="natural" v="valley" />
		<tag k="place" v="locality" />
		<tag k="ssr:stedsnr" v="862905" />
	</node>
	<node id="-9165" lat="62.9959249988" lon="7.64464444984">
		<tag k="name" v="Eldhusberget" />
		<tag k="natural" v="hill" />
		<tag k="place" v="locality" />
		<tag k="ssr:stedsnr" v="862901" />
	</node>
	<node id="-8137" lat="62.9857027746" lon="7.49496389832">
		<tag k="fixme" v="consider natural=peak for the most distinct mountains in the district" />
		<tag k="name" v="Storknøken" />
		<tag k="natural" v="hill" />
		<tag k="place" v="locality" />
		<tag k="ssr:stedsnr" v="255930" />
	</node>
	<node id="-8136" lat="63.1025583293" lon="7.61942778257">
		<tag k="name" v="Rishaugan" />
		<tag k="natural" v="hill" />
		<tag k="place" v="locality" />
		<tag k="ssr:stedsnr" v="255777" />
	</node>
	<node id="-8642" lat="62.9436611121" lon="7.5056166646">
		<tag k="name" v="Hjerthaugen" />
		<tag k="natural" v="hill" />
		<tag k="place" v="locality" />
		<tag k="ssr:stedsnr" v="72489" />
	</node>
	<node id="-9153" lat="63.0354638855" lon="7.6321333427">
		<tag k="name" v="Kavadalen" />
		<tag k="natural" v="valley" />
		<tag k="place" v="locality" />
		<tag k="ssr:stedsnr" v="862548" />
	</node>
	<node id="-8635" lat="63.11205" lon="7.66181666827">
		<tag k="name" v="Stavneshaugen" />
		<tag k="natural" v="hill" />
		<tag k="place" v="locality" />
		<tag k="ssr:stedsnr" v="48959" />
	</node>
	<node id="-9146" lat="63.0709305583" lon="7.58167500149">
		<tag k="name" v="Ørnstolan" />
		<tag k="natural" v="hill" />
		<tag k="place" v="locality" />
		<tag k="ssr:stedsnr" v="862501" />
	</node>
	<node id="-8120" lat="63.0112944403" lon="7.69925833363">
		<tag k="fixme" v="consider natural=peak for the most distinct mountains in the district" />
		<tag k="name" v="Gullsetåsen" />
		<tag k="natural" v="hill" />
		<tag k="place" v="locality" />
		<tag k="ssr:stedsnr" v="255386" />
	</node>
	<node id="-8631" lat="62.98584722" lon="7.61926943575">
		<tag k="name" v="Nør Kilstihammaren" />
		<tag k="natural" v="cliff" />
		<tag k="ssr:stedsnr" v="48431" />
	</node>
	<node id="-8116" lat="62.9480000001" lon="7.53324722155">
		<tag k="fixme" v="consider natural=peak for the most distinct mountains in the district" />
		<tag k="name" v="Rånesåsen" />
		<tag k="natural" v="hill" />
		<tag k="place" v="locality" />
		<tag k="ssr:stedsnr" v="254488" />
	</node>
	<node id="-8115" lat="62.9673555587" lon="7.48326389177">
		<tag k="fixme" v="consider natural=peak for the most distinct mountains in the district" />
		<tag k="name" v="Hagahornet" />
		<tag k="natural" v="hill" />
		<tag k="place" v="locality" />
		<tag k="ssr:stedsnr" v="73959" />
	</node>
	<node id="-8624" lat="63.0835444463" lon="7.61738056204">
		<tag k="name" v="Linnesklubben" />
		<tag k="natural" v="hill" />
		<tag k="place" v="locality" />
		<tag k="ssr:stedsnr" v="47840" />
	</node>
	<node id="-8093" lat="63.101722222" lon="7.62545554746">
		<tag k="name" v="Rishaugen" />
		<tag k="natural" v="hill" />
		<tag k="place" v="locality" />
		<tag k="ssr:stedsnr" v="230983" />
	</node>
	<node id="-8619" lat="62.9763222232" lon="7.41618889445">
		<tag k="name" v="Ellinghaugen" />
		<tag k="natural" v="hill" />
		<tag k="place" v="locality" />
		<tag k="ssr:stedsnr" v="47443" />
	</node>
	<node id="-8348" lat="62.9821499965" lon="7.48083888364">
		<tag k="name" v="Toskdalen" />
		<tag k="natural" v="valley" />
		<tag k="place" v="locality" />
		<tag k="ssr:stedsnr" v="498947" />
	</node>
	<node id="-8614" lat="62.9717888866" lon="7.58263611705">
		<tag k="name" v="Storvarden" />
		<tag k="natural" v="hill" />
		<tag k="place" v="locality" />
		<tag k="ssr:stedsnr" v="12950" />
	</node>
	<node id="-9123" lat="63.1059722244" lon="7.59909721286">
		<tag k="name" v="Bakken" />
		<tag k="natural" v="slope" />
		<tag k="place" v="locality" />
		<tag k="ssr:stedsnr" v="836882" />
	</node>
	<node id="-9122" lat="63.1066305551" lon="7.58836389748">
		<tag k="name" v="Skåråvarden" />
		<tag k="natural" v="hill" />
		<tag k="place" v="locality" />
		<tag k="ssr:stedsnr" v="836880" />
	</node>
	<node id="-9121" lat="63.1120777776" lon="7.60441944313">
		<tag k="name" v="Kråknakken" />
		<tag k="natural" v="ridge" />
		<tag k="place" v="locality" />
		<tag k="ssr:stedsnr" v="836878" />
	</node>
	<node id="-9120" lat="62.9668833307" lon="7.46178611613">
		<tag k="name" v="Høghaugen" />
		<tag k="natural" v="hill" />
		<tag k="place" v="locality" />
		<tag k="ssr:stedsnr" v="836448" />
	</node>
	<node id="-9119" lat="62.9773027821" lon="7.37829166732">
		<tag k="name" v="Sommarfjøshaugen" />
		<tag k="natural" v="hill" />
		<tag k="place" v="locality" />
		<tag k="ssr:stedsnr" v="836441" />
	</node>
	<node id="-9118" lat="62.9802111119" lon="7.3947166637">
		<tag k="name" v="Ø Hjertvikklumpen" />
		<tag k="natural" v="hill" />
		<tag k="place" v="locality" />
		<tag k="ssr:stedsnr" v="836438" />
	</node>
	<node id="-9117" lat="62.9746361104" lon="7.4047666719">
		<tag k="name" v="Storhaugen" />
		<tag k="natural" v="valley" />
		<tag k="place" v="locality" />
		<tag k="ssr:stedsnr" v="836433" />
	</node>
	<node id="-9116" lat="62.9771500022" lon="7.41505556171">
		<tag k="name" v="Klumpen" />
		<tag k="natural" v="hill" />
		<tag k="place" v="locality" />
		<tag k="ssr:stedsnr" v="836397" />
	</node>
	<node id="-8602" lat="63.0029250045" lon="7.66888611723">
		<tag k="name" v="Moldtuva" />
		<tag k="natural" v="hill" />
		<tag k="place" v="locality" />
		<tag k="ssr:stedsnr" v="12374" />
	</node>
	<node id="-8090" lat="63.0097638878" lon="7.65767221764">
		<tag k="name" v="Korsbekkhaugen" />
		<tag k="natural" v="hill" />
		<tag k="place" v="locality" />
		<tag k="ssr:stedsnr" v="230886" />
	</node>
	<node id="-8087" lat="63.0168833363" lon="7.5470861115">
		<tag k="name" v="Knuthamran" />
		<tag k="natural" v="cliff" />
		<tag k="ssr:stedsnr" v="230226" />
	</node>
	<node id="-9110" lat="62.9782416664" lon="7.61880554706">
		<tag k="name" v="Hosetlia" />
		<tag k="natural" v="slope" />
		<tag k="place" v="locality" />
		<tag k="ssr:stedsnr" v="801925" />
	</node>
	<node id="-9109" lat="62.978694448" lon="7.4526833348">
		<tag k="name" v="Langlia" />
		<tag k="natural" v="slope" />
		<tag k="place" v="locality" />
		<tag k="ssr:stedsnr" v="801912" />
	</node>
	<node id="-9108" lat="62.9896611122" lon="7.65583056239">
		<tag k="alt_name" v="Terrhaugen" />
		<tag k="name" v="Terhaugen" />
		<tag k="natural" v="hill" />
		<tag k="old_name" v="Steinskardberget" />
		<tag k="place" v="locality" />
		<tag k="ssr:stedsnr" v="801902" />
	</node>
	<node id="-9107" lat="62.9960722235" lon="7.52899999252">
		<tag k="fixme" v="consider natural=peak for the most distinct mountains in the district" />
		<tag k="name" v="Svarthamran" />
		<tag k="natural" v="hill" />
		<tag k="place" v="locality" />
		<tag k="ssr:stedsnr" v="801898" />
	</node>
	<node id="-8197" lat="62.9768388907" lon="7.59918333262">
		<tag k="name" v="Småhaugan" />
		<tag k="natural" v="hill" />
		<tag k="place" v="locality" />
		<tag k="ssr:stedsnr" v="194919" />
	</node>
	<node id="-8080" lat="62.9817472195" lon="7.41376388834">
		<tag k="name" v="Vikdalen" />
		<tag k="natural" v="valley" />
		<tag k="place" v="locality" />
		<tag k="ssr:stedsnr" v="12927" />
	</node>
	<node id="-8578" lat="62.9858027749" lon="7.63578055066">
		<tag k="name" v="Kuhammaren" />
		<tag k="natural" v="hill" />
		<tag k="place" v="locality" />
		<tag k="ssr:stedsnr" v="898919" />
	</node>
	<node id="-9088" lat="63.0030583306" lon="7.59810277864">
		<tag k="name" v="Øverbådalen" />
		<tag k="natural" v="valley" />
		<tag k="place" v="locality" />
		<tag k="ssr:stedsnr" v="801378" />
	</node>
	<node id="-8512" lat="63.0363000024" lon="7.52999722498">
		<tag k="name" v="Gaddhaugen" />
		<tag k="natural" v="hill" />
		<tag k="place" v="locality" />
		<tag k="ssr:stedsnr" v="740569" />
	</node>
	<node id="-8085" lat="63.0510638911" lon="7.50521388165">
		<tag k="name" v="Hendvarden" />
		<tag k="natural" v="hill" />
		<tag k="place" v="locality" />
		<tag k="ssr:stedsnr" v="229799" />
	</node>
	<node id="-8571" lat="63.0397305562" lon="7.55375834243">
		<tag k="alt_name" v="Klubben" />
		<tag k="name" v="Søftadklubben" />
		<tag k="natural" v="hill" />
		<tag k="place" v="locality" />
		<tag k="ssr:stedsnr" v="897769" />
	</node>
	<node id="-8569" lat="63.1052583335" lon="7.58816389283">
		<tag k="name" v="Stongvarden" />
		<tag k="natural" v="hill" />
		<tag k="place" v="locality" />
		<tag k="ssr:stedsnr" v="896906" />
	</node>
	<node id="-8566" lat="63.1071000008" lon="7.62642222513">
		<tag k="name" v="Dedahaugen" />
		<tag k="natural" v="hill" />
		<tag k="place" v="locality" />
		<tag k="ssr:stedsnr" v="837961" />
	</node>
	<node id="-8564" lat="62.9855416673" lon="7.60767778485">
		<tag k="name" v="Sekken" />
		<tag k="natural" v="valley" />
		<tag k="place" v="locality" />
		<tag k="ssr:stedsnr" v="837463" />
	</node>
	<node id="-8196" lat="62.9818055518" lon="7.5202861149">
		<tag k="fixme" v="consider natural=peak for the most distinct mountains in the district" />
		<tag k="name" v="Fagerfjellet" />
		<tag k="natural" v="hill" />
		<tag k="place" v="locality" />
		<tag k="ssr:stedsnr" v="194917" />
	</node>
	<node id="-9073" lat="63.0136277805" lon="7.65866110587">
		<tag k="name" v="Bjønndalen" />
		<tag k="natural" v="valley" />
		<tag k="place" v="locality" />
		<tag k="ssr:stedsnr" v="776891" />
	</node>
	<node id="-9071" lat="62.9616638852" lon="7.54804445017">
		<tag k="fixme" v="consider natural=peak for the most distinct mountains in the district" />
		<tag k="name" v="Skårrå" />
		<tag k="natural" v="hill" />
		<tag k="place" v="locality" />
		<tag k="ssr:stedsnr" v="776449" />
	</node>
	<node id="-8558" lat="63.0066055546" lon="7.42670556029">
		<tag k="fixme" v="consider natural=peak for the most distinct mountains in the district" />
		<tag k="name" v="Haråsen" />
		<tag k="natural" v="hill" />
		<tag k="place" v="locality" />
		<tag k="ssr:stedsnr" v="836408" />
	</node>
	<node id="-9068" lat="63.0243500001" lon="7.6067999919">
		<tag k="name" v="Sørviklia" />
		<tag k="natural" v="slope" />
		<tag k="place" v="locality" />
		<tag k="ssr:stedsnr" v="776198" />
	</node>
	<node id="-9067" lat="63.0211055522" lon="7.54765556416">
		<tag k="name" v="Nekstadberget" />
		<tag k="natural" v="hill" />
		<tag k="place" v="locality" />
		<tag k="ssr:stedsnr" v="776019" />
	</node>
	<node id="-9066" lat="62.9667166669" lon="7.57571387922">
		<tag k="name" v="Blåhylla" />
		<tag k="place" v="locality" />
		<tag k="ssr:stedsnr" v="776016" />
	</node>
	<node id="-9065" lat="63.0377361153" lon="7.51174444673">
		<tag k="name" v="Slottshaugen" />
		<tag k="natural" v="hill" />
		<tag k="place" v="locality" />
		<tag k="ssr:stedsnr" v="776014" />
	</node>
	<node id="-9061" lat="62.9747222265" lon="7.40797777075">
		<tag k="name" v="Nakken" />
		<tag k="natural" v="ridge" />
		<tag k="place" v="locality" />
		<tag k="ssr:stedsnr" v="775448" />
	</node>
	<node id="-8166" lat="62.99092778" lon="7.64476388926">
		<tag k="name" v="Gjedalen" />
		<tag k="natural" v="valley" />
		<tag k="place" v="locality" />
		<tag k="ssr:stedsnr" v="169903" />
	</node>
	<node id="-9055" lat="62.984525002" lon="7.65128887969">
		<tag k="fixme" v="consider natural=peak for the most distinct mountains in the district" />
		<tag k="name" v="Storåspynten" />
		<tag k="natural" v="hill" />
		<tag k="place" v="locality" />
		<tag k="ssr:stedsnr" v="740927" />
	</node>
	<node id="-8677" lat="62.9774805574" lon="7.39956387921">
		<tag k="name" v="Hammarskardshaugen" />
		<tag k="natural" v="hill" />
		<tag k="place" v="locality" />
		<tag k="ssr:stedsnr" v="108484" />
	</node>
	<node id="-9052" lat="63.0436000011" lon="7.5786944511">
		<tag k="name" v="Klubben" />
		<tag k="natural" v="hill" />
		<tag k="place" v="locality" />
		<tag k="ssr:stedsnr" v="740531" />
	</node>
	<node id="-8539" lat="63.028952775" lon="7.6618083429">
		<tag k="fixme" v="consider natural=peak for the most distinct mountains in the district" />
		<tag k="name" v="Klakkaråsen" />
		<tag k="natural" v="hill" />
		<tag k="place" v="locality" />
		<tag k="ssr:stedsnr" v="923641" />
	</node>
	<node id="-8538" lat="63.0145055588" lon="7.49353888631">
		<tag k="fixme" v="multiple name tags, choose one and add the other to alt_name" />
		<tag k="name" v="Hosettuva;Kårvågberget" />
		<tag k="natural" v="hill" />
		<tag k="place" v="locality" />
		<tag k="ssr:stedsnr" v="923629" />
	</node>
	<node id="-9049" lat="63.0102805574" lon="7.67500833868">
		<tag k="fixme" v="consider natural=peak for the most distinct mountains in the district" />
		<tag k="name" v="Middagsåsen" />
		<tag k="natural" v="hill" />
		<tag k="place" v="locality" />
		<tag k="ssr:stedsnr" v="740389" />
	</node>
	<node id="-9048" lat="63.008538887" lon="7.63250277638">
		<tag k="fixme" v="consider natural=peak for the most distinct mountains in the district" />
		<tag k="name" v="Høgheia" />
		<tag k="natural" v="hill" />
		<tag k="place" v="locality" />
		<tag k="ssr:stedsnr" v="740388" />
	</node>
	<node id="-9043" lat="63.0477805546" lon="7.64602222277">
		<tag k="name" v="Marsteinhaugen" />
		<tag k="natural" v="hill" />
		<tag k="place" v="locality" />
		<tag k="ssr:stedsnr" v="654973" />
	</node>
	<node id="-8419" lat="62.9770666706" lon="7.41095554938">
		<tag k="name" v="Mjølkvollen" />
		<tag k="place" v="locality" />
		<tag k="ssr:stedsnr" v="715492" />
	</node>
	<node id="-8526" lat="63.0019250023" lon="7.49839444898">
		<tag k="name" v="Knausen" />
		<tag k="natural" v="hill" />
		<tag k="place" v="locality" />
		<tag k="ssr:stedsnr" v="922393" />
	</node>
	<node id="-9035" lat="62.9734166667" lon="7.55525833076">
		<tag k="name" v="Storvasshaugen" />
		<tag k="natural" v="hill" />
		<tag k="place" v="locality" />
		<tag k="ssr:stedsnr" v="654472" />
	</node>
	<node id="-9034" lat="62.9665611081" lon="7.54914444179">
		<tag k="fixme" v="consider natural=peak for the most distinct mountains in the district" />
		<tag k="name" v="Bjørnbærliknoken" />
		<tag k="natural" v="hill" />
		<tag k="place" v="locality" />
		<tag k="ssr:stedsnr" v="654470" />
	</node>
	<node id="-9033" lat="63.0020055512" lon="7.62409443772">
		<tag k="name" v="Myrsetkammen" />
		<tag k="natural" v="ridge" />
		<tag k="place" v="locality" />
		<tag k="ssr:stedsnr" v="654239" />
	</node>
	<node id="-9032" lat="63.0152972213" lon="7.55333333197">
		<tag k="name" v="Nekstadberga" />
		<tag k="natural" v="hill" />
		<tag k="place" v="locality" />
		<tag k="ssr:stedsnr" v="654225" />
	</node>
	<node id="-9030" lat="63.0557333289" lon="7.59996666234">
		<tag k="name" v="Kråkstivarden" />
		<tag k="natural" v="hill" />
		<tag k="place" v="locality" />
		<tag k="ssr:stedsnr" v="653777" />
	</node>
	<node id="-8417" lat="63.0322722262" lon="7.43032777373">
		<tag k="name" v="Våghammaren" />
		<tag k="natural" v="hill" />
		<tag k="place" v="locality" />
		<tag k="ssr:stedsnr" v="715472" />
	</node>
	<node id="-8516" lat="62.9434000021" lon="7.48910000818">
		<tag k="name" v="Sjåberget" />
		<tag k="natural" v="hill" />
		<tag k="place" v="locality" />
		<tag k="ssr:stedsnr" v="775867" />
	</node>
	<node id="-9024" lat="62.9707805596" lon="7.49886667121">
		<tag k="name" v="Litlknøken" />
		<tag k="natural" v="hill" />
		<tag k="place" v="locality" />
		<tag k="ssr:stedsnr" v="619869" />
	</node>
	<node id="-8509" lat="63.0205472222" lon="7.61481111845">
		<tag k="fixme" v="consider natural=peak for the most distinct mountains in the district" />
		<tag k="name" v="Nosa" />
		<tag k="natural" v="hill" />
		<tag k="place" v="locality" />
		<tag k="ssr:stedsnr" v="740418" />
	</node>
	<node id="-9019" lat="63.0257416652" lon="7.61088888862">
		<tag k="name" v="Gaddhaugen" />
		<tag k="natural" v="hill" />
		<tag k="place" v="locality" />
		<tag k="ssr:stedsnr" v="619636" />
	</node>
	<node id="-8506" lat="63.0023944426" lon="7.68427222593">
		<tag k="name" v="Tverrlia" />
		<tag k="natural" v="slope" />
		<tag k="place" v="locality" />
		<tag k="ssr:stedsnr" v="740371" />
	</node>
	<node id="-9016" lat="63.037408333" lon="7.66181665723">
		<tag k="name" v="Engviklia" />
		<tag k="natural" v="hill" />
		<tag k="place" v="locality" />
		<tag k="ssr:stedsnr" v="619589" />
	</node>
	<node id="-9012" lat="63.0010361127" lon="7.64671666814">
		<tag k="fixme" v="consider natural=peak for the most distinct mountains in the district" />
		<tag k="name" v="Nedalskammen" />
		<tag k="natural" v="hill" />
		<tag k="place" v="locality" />
		<tag k="ssr:stedsnr" v="619431" />
	</node>
	<node id="-9005" lat="63.0808666643" lon="7.643958337">
		<tag k="name" v="Bremsneshatten" />
		<tag k="natural" v="hill" />
		<tag k="place" v="locality" />
		<tag k="ssr:stedsnr" v="618693" />
	</node>
	<node id="-8489" lat="62.9634499963" lon="7.54225556273">
		<tag k="name" v="Åseterhaugen" />
		<tag k="natural" v="hill" />
		<tag k="place" v="locality" />
		<tag k="ssr:stedsnr" v="897437" />
	</node>
	<node id="-8488" lat="62.9870361119" lon="7.59243056144">
		<tag k="name" v="Seterhaugen" />
		<tag k="natural" v="hill" />
		<tag k="place" v="locality" />
		<tag k="ssr:stedsnr" v="897434" />
	</node>
	<node id="-8487" lat="63.0096666684" lon="7.46593610158">
		<tag k="fixme" v="consider natural=peak for the most distinct mountains in the district" />
		<tag k="name" v="Hjertåsen" />
		<tag k="natural" v="hill" />
		<tag k="place" v="locality" />
		<tag k="ssr:stedsnr" v="897388" />
	</node>
	<node id="-8486" lat="63.026516665" lon="7.54044721478">
		<tag k="name" v="Storknoken" />
		<tag k="natural" v="hill" />
		<tag k="place" v="locality" />
		<tag k="ssr:stedsnr" v="897013" />
	</node>
	<node id="-8483" lat="62.9764000008" lon="7.38945000064">
		<tag k="name" v="Kvalshauglia" />
		<tag k="natural" v="slope" />
		<tag k="place" v="locality" />
		<tag k="ssr:stedsnr" v="717955" />
	</node>
	<node id="-8478" lat="63.0462166691" lon="7.6554722176">
		<tag k="name" v="Steinsvikhøgda" />
		<tag k="natural" v="hill" />
		<tag k="place" v="locality" />
		<tag k="ssr:stedsnr" v="715964" />
	</node>
	<node id="-8987" lat="62.9692777736" lon="7.44773888155">
		<tag k="name" v="Rishaugen" />
		<tag k="natural" v="hill" />
		<tag k="place" v="locality" />
		<tag k="ssr:stedsnr" v="595663" />
	</node>
	<node id="-8298" lat="63.0059555562" lon="7.6688583308">
		<tag k="name" v="Vasshaugen" />
		<tag k="natural" v="hill" />
		<tag k="place" v="locality" />
		<tag k="ssr:stedsnr" v="472911" />
	</node>
	<node id="-8979" lat="62.9694583341" lon="7.61676388219">
		<tag k="name" v="Skarsethaugen" />
		<tag k="natural" v="hill" />
		<tag k="place" v="locality" />
		<tag k="ssr:stedsnr" v="594465" />
	</node>
	<node id="-8978" lat="63.0183777809" lon="7.47280833554">
		<tag k="name" v="Litldalen" />
		<tag k="natural" v="valley" />
		<tag k="place" v="locality" />
		<tag k="ssr:stedsnr" v="594435" />
	</node>
	<node id="-8977" lat="63.0303027759" lon="7.48519723061">
		<tag k="name" v="Langsporhaugen" />
		<tag k="natural" v="hill" />
		<tag k="place" v="locality" />
		<tag k="ssr:stedsnr" v="594433" />
	</node>
	<node id="-8295" lat="62.9773583348" lon="7.45279445056">
		<tag k="name" v="Grønskardet" />
		<tag k="natural" v="valley" />
		<tag k="place" v="locality" />
		<tag k="ssr:stedsnr" v="472472" />
	</node>
	<node id="-8965" lat="62.9820527762" lon="7.49463611204">
		<tag k="name" v="Merraheia" />
		<tag k="natural" v="hill" />
		<tag k="place" v="locality" />
		<tag k="ssr:stedsnr" v="593440" />
	</node>
	<node id="-8964" lat="62.9839194434" lon="7.38768889154">
		<tag k="name" v="Kinnaneset" />
		<tag k="natural" v="slope" />
		<tag k="place" v="locality" />
		<tag k="ssr:stedsnr" v="593436" />
	</node>
	<node id="-8963" lat="62.9826861148" lon="7.4048916661">
		<tag k="name" v="Storrothaugen" />
		<tag k="natural" v="hill" />
		<tag k="place" v="locality" />
		<tag k="ssr:stedsnr" v="593434" />
	</node>
	<node id="-8449" lat="62.9935361094" lon="7.50421111603">
		<tag k="name" v="Nyseterhaugen" />
		<tag k="natural" v="hill" />
		<tag k="place" v="locality" />
		<tag k="ssr:stedsnr" v="654466" />
	</node>
	<node id="-8960" lat="63.0384249998" lon="7.54249166059">
		<tag k="name" v="Flatsethaugen" />
		<tag k="natural" v="hill" />
		<tag k="place" v="locality" />
		<tag k="ssr:stedsnr" v="593012" />
	</node>
	<node id="-8447" lat="62.9739777777" lon="7.41328888388">
		<tag k="name" v="Geithaugen" />
		<tag k="natural" v="hill" />
		<tag k="place" v="locality" />
		<tag k="ssr:stedsnr" v="654453" />
	</node>
	<node id="-8442" lat="63.0986805589" lon="7.60935555101">
		<tag k="name" v="Ellingberga" />
		<tag k="natural" v="hill" />
		<tag k="place" v="locality" />
		<tag k="ssr:stedsnr" v="653863" />
	</node>
	<node id="-8953" lat="63.0427583308" lon="7.63125000127">
		<tag k="name" v="Nossen" />
		<tag k="natural" v="hill" />
		<tag k="place" v="locality" />
		<tag k="ssr:stedsnr" v="654986" />
	</node>
	<node id="-8439" lat="62.9788472186" lon="7.40434999297">
		<tag k="name" v="Storheia" />
		<tag k="natural" v="hill" />
		<tag k="place" v="locality" />
		<tag k="ssr:stedsnr" v="619937" />
	</node>
	<node id="-8438" lat="62.9793361156" lon="7.45381389534">
		<tag k="name" v="Synnlituva" />
		<tag k="natural" v="hill" />
		<tag k="place" v="locality" />
		<tag k="ssr:stedsnr" v="619920" />
	</node>
	<node id="-8434" lat="63.0020611115" lon="7.44186944548">
		<tag k="fixme" v="consider natural=peak for the most distinct mountains in the district" />
		<tag k="name" v="Lauvåsen" />
		<tag k="natural" v="hill" />
		<tag k="place" v="locality" />
		<tag k="ssr:stedsnr" v="618384" />
	</node>
	<node id="-8945" lat="63.0189916697" lon="7.63195555813">
		<tag k="name" v="Trolldalen" />
		<tag k="natural" v="valley" />
		<tag k="place" v="locality" />
		<tag k="ssr:stedsnr" v="558633" />
	</node>
	<node id="-8944" lat="63.0295250002" lon="7.53893888761">
		<tag k="name" v="Søfstadbjerga" />
		<tag k="natural" v="hill" />
		<tag k="place" v="locality" />
		<tag k="ssr:stedsnr" v="558598" />
	</node>
	<node id="-8942" lat="63.0639777764" lon="7.66528889593">
		<tag k="name" v="Raudsandberget" />
		<tag k="natural" v="hill" />
		<tag k="place" v="locality" />
		<tag k="ssr:stedsnr" v="558548" />
	</node>
	<node id="-8573" lat="62.9986166632" lon="7.55303888392">
		<tag k="name" v="Nekstaddalen" />
		<tag k="natural" v="valley" />
		<tag k="place" v="locality" />
		<tag k="ssr:stedsnr" v="898206" />
	</node>
	<node id="-8402" lat="63.0093805557" lon="7.46703889403">
		<tag k="fixme" v="consider natural=peak for the most distinct mountains in the district" />
		<tag k="name" v="Øykjeåsen" />
		<tag k="natural" v="hill" />
		<tag k="place" v="locality" />
		<tag k="ssr:stedsnr" v="558463" />
	</node>
	<node id="-8426" lat="63.0730638877" lon="7.65254165918">
		<tag k="name" v="Langhaugen" />
		<tag k="natural" v="hill" />
		<tag k="place" v="locality" />
		<tag k="ssr:stedsnr" v="715998" />
	</node>
	<node id="-8425" lat="63.0446527759" lon="7.62629721719">
		<tag k="name" v="Gjøtlia" />
		<tag k="natural" v="slope" />
		<tag k="place" v="locality" />
		<tag k="ssr:stedsnr" v="715981" />
	</node>
	<node id="-8424" lat="63.009150004" lon="7.67089165801">
		<tag k="name" v="Pikhaugen" />
		<tag k="natural" v="hill" />
		<tag k="place" v="locality" />
		<tag k="ssr:stedsnr" v="715920" />
	</node>
	<node id="-8421" lat="62.9874249976" lon="7.36472222852">
		<tag k="name" v="Trovikdalen" />
		<tag k="natural" v="valley" />
		<tag k="place" v="locality" />
		<tag k="ssr:stedsnr" v="715861" />
	</node>
	<node id="-8931" lat="63.007455555" lon="7.65163332467">
		<tag k="name" v="Stamdalen" />
		<tag k="natural" v="valley" />
		<tag k="place" v="locality" />
		<tag k="ssr:stedsnr" v="558447" />
	</node>
	<node id="-8418" lat="62.9606222247" lon="7.51383888141">
		<tag k="name" v="Raudkollhaugen" />
		<tag k="natural" v="hill" />
		<tag k="place" v="locality" />
		<tag k="ssr:stedsnr" v="715490" />
	</node>
	<node id="-8929" lat="62.9712666695" lon="7.4830222218">
		<tag k="name" v="Breilia" />
		<tag k="natural" v="slope" />
		<tag k="place" v="locality" />
		<tag k="ssr:stedsnr" v="557942" />
	</node>
	<node id="-8928" lat="62.9836749984" lon="7.59609167008">
		<tag k="fixme" v="consider natural=peak for the most distinct mountains in the district" />
		<tag k="name" v="Nosa" />
		<tag k="natural" v="hill" />
		<tag k="place" v="locality" />
		<tag k="ssr:stedsnr" v="557911" />
	</node>
	<node id="-8408" lat="63.0087277742" lon="7.4734861095">
		<tag k="fixme" v="consider natural=peak for the most distinct mountains in the district" />
		<tag k="name" v="Øykjeåsen" />
		<tag k="natural" v="hill" />
		<tag k="place" v="locality" />
		<tag k="ssr:stedsnr" v="714344" />
	</node>
	<node id="-8919" lat="62.9886361101" lon="7.64754444302">
		<tag k="name" v="Djupskardhammaren" />
		<tag k="natural" v="hill" />
		<tag k="place" v="locality" />
		<tag k="ssr:stedsnr" v="533924" />
	</node>
	<node id="-8634" lat="62.9992527783" lon="7.70506110601">
		<tag k="name" v="Geilhaugen" />
		<tag k="natural" v="hill" />
		<tag k="place" v="locality" />
		<tag k="ssr:stedsnr" v="48875" />
	</node>
	<node id="-8914" lat="62.9806083332" lon="7.60790833448">
		<tag k="name" v="Storsekkhaugen" />
		<tag k="natural" v="hill" />
		<tag k="place" v="locality" />
		<tag k="ssr:stedsnr" v="533468" />
	</node>
	<node id="-8913" lat="63.1072916625" lon="7.61714722174">
		<tag k="name" v="Ørnhaugen" />
		<tag k="natural" v="hill" />
		<tag k="place" v="locality" />
		<tag k="ssr:stedsnr" v="532867" />
	</node>
	<node id="-8400" lat="63.0088361086" lon="7.56456388173">
		<tag k="name" v="Bådalen" />
		<tag k="natural" v="valley" />
		<tag k="place" v="locality" />
		<tag k="ssr:stedsnr" v="558452" />
	</node>
	<node id="-8910" lat="63.0401416656" lon="7.50327221244">
		<tag k="name" v="Gjelterhaugen" />
		<tag k="natural" v="hill" />
		<tag k="place" v="locality" />
		<tag k="ssr:stedsnr" v="532798" />
	</node>
	<node id="-8908" lat="62.9846222251" lon="7.46293889643">
		<tag k="name" v="Nonshaugen" />
		<tag k="natural" v="hill" />
		<tag k="place" v="locality" />
		<tag k="ssr:stedsnr" v="532479" />
	</node>
	<node id="-8906" lat="62.9795305531" lon="7.38590555059">
		<tag k="name" v="Simondalen" />
		<tag k="natural" v="valley" />
		<tag k="place" v="locality" />
		<tag k="ssr:stedsnr" v="532469" />
	</node>
	<node id="-8905" lat="62.9484555557" lon="7.53283889578">
		<tag k="fixme" v="consider natural=peak for the most distinct mountains in the district" />
		<tag k="name" v="Høgåsen" />
		<tag k="natural" v="hill" />
		<tag k="place" v="locality" />
		<tag k="ssr:stedsnr" v="532449" />
	</node>
	<node id="-8388" lat="62.9795138918" lon="7.36836110194">
		<tag k="fixme" v="consider natural=peak for the most distinct mountains in the district" />
		<tag k="name" v="Tøvikåsen" />
		<tag k="natural" v="hill" />
		<tag k="place" v="locality" />
		<tag k="ssr:stedsnr" v="680950" />
	</node>
	<node id="-8387" lat="62.9798527803" lon="7.3939944352">
		<tag k="name" v="Kvalshaugtuva" />
		<tag k="natural" v="hill" />
		<tag k="place" v="locality" />
		<tag k="ssr:stedsnr" v="680946" />
	</node>
	<node id="-8897" lat="62.9793749982" lon="7.50505555261">
		<tag k="fixme" v="consider natural=peak for the most distinct mountains in the district" />
		<tag k="name" v="Ramdalsaksla" />
		<tag k="natural" v="hill" />
		<tag k="place" v="locality" />
		<tag k="ssr:stedsnr" v="437896" />
	</node>
	<node id="-8894" lat="62.9964972216" lon="7.66971110251">
		<tag k="name" v="Storhaugen" />
		<tag k="natural" v="hill" />
		<tag k="place" v="locality" />
		<tag k="ssr:stedsnr" v="437872" />
	</node>
	<node id="-8381" lat="62.9725861074" lon="7.45892499552">
		<tag k="name" v="Bollåthaugen" />
		<tag k="natural" v="hill" />
		<tag k="place" v="locality" />
		<tag k="ssr:stedsnr" v="497932" />
	</node>
	<node id="-8380" lat="63.1118694463" lon="7.66160277667">
		<tag k="name" v="Storhaugen" />
		<tag k="natural" v="hill" />
		<tag k="place" v="locality" />
		<tag k="ssr:stedsnr" v="497681" />
	</node>
	<node id="-8394" lat="63.0455249995" lon="7.59077499264">
		<tag k="name" v="Midtkullen" />
		<tag k="natural" v="hill" />
		<tag k="place" v="locality" />
		<tag k="ssr:stedsnr" v="532757" />
	</node>
	<node id="-8292" lat="62.9794138892" lon="7.40131389252">
		<tag k="name" v="Litlheia" />
		<tag k="natural" v="hill" />
		<tag k="place" v="locality" />
		<tag k="ssr:stedsnr" v="472456" />
	</node>
	<node id="-8649" lat="63.0115277795" lon="7.49560834211">
		<tag k="name" v="Litltuva" />
		<tag k="natural" v="hill" />
		<tag k="place" v="locality" />
		<tag k="ssr:stedsnr" v="73443" />
	</node>
	<node id="-8370" lat="63.055322219" lon="7.60370278432">
		<tag k="name" v="Langdalen" />
		<tag k="natural" v="valley" />
		<tag k="place" v="locality" />
		<tag k="ssr:stedsnr" v="679516" />
	</node>
	<node id="-8879" lat="63.0065055579" lon="7.42670000256">
		<tag k="name" v="Storhaugen" />
		<tag k="natural" v="hill" />
		<tag k="place" v="locality" />
		<tag k="ssr:stedsnr" v="437434" />
	</node>
	<node id="-8361" lat="62.9486333374" lon="7.51141666829">
		<tag k="name" v="Hatthaugen" />
		<tag k="natural" v="hill" />
		<tag k="place" v="locality" />
		<tag k="ssr:stedsnr" v="678980" />
	</node>
	<node id="-8220" lat="63.1089972178" lon="7.65939721534">
		<tag k="name" v="Tipphaugen" />
		<tag k="natural" v="hill" />
		<tag k="place" v="locality" />
		<tag k="ssr:stedsnr" v="230953" />
	</node>
	<node id="-8870" lat="62.9922972178" lon="7.6843305481">
		<tag k="name" v="Gullsetlia" />
		<tag k="natural" v="slope" />
		<tag k="place" v="locality" />
		<tag k="ssr:stedsnr" v="412921" />
	</node>
	<node id="-8869" lat="62.9874972221" lon="7.67020277608">
		<tag k="name" v="Nerliberget" />
		<tag k="natural" v="hill" />
		<tag k="place" v="locality" />
		<tag k="ssr:stedsnr" v="412889" />
	</node>
	<node id="-8868" lat="62.9822500005" lon="7.63966110538">
		<tag k="name" v="Roksetskardet" />
		<tag k="natural" v="valley" />
		<tag k="place" v="locality" />
		<tag k="ssr:stedsnr" v="412886" />
	</node>
	<node id="-8353" lat="63.0552805538" lon="7.48072500982">
		<tag k="name" v="Ellingvåghaugen" />
		<tag k="natural" v="hill" />
		<tag k="place" v="locality" />
		<tag k="ssr:stedsnr" v="411397" />
	</node>
	<node id="-8351" lat="63.0050361118" lon="7.4924527815">
		<tag k="name" v="Stuådalen" />
		<tag k="natural" v="valley" />
		<tag k="place" v="locality" />
		<tag k="ssr:stedsnr" v="411383" />
	</node>
	<node id="-8349" lat="62.9880055588" lon="7.67053333475">
		<tag k="name" v="Øverlia" />
		<tag k="natural" v="slope" />
		<tag k="place" v="locality" />
		<tag k="ssr:stedsnr" v="384664" />
	</node>
	<node id="-8860" lat="63.0771111125" lon="7.58676110406">
		<tag k="name" v="Lomshaugan" />
		<tag k="natural" v="hill" />
		<tag k="place" v="locality" />
		<tag k="ssr:stedsnr" v="411802" />
	</node>
	<node id="-8856" lat="63.0422499997" lon="7.40803888868">
		<tag k="name" v="Storvarden" />
		<tag k="natural" v="hill" />
		<tag k="place" v="locality" />
		<tag k="ssr:stedsnr" v="412321" />
	</node>
	<node id="-8848" lat="62.990344444" lon="7.49646110266">
		<tag k="name" v="Litlknøken" />
		<tag k="natural" v="hill" />
		<tag k="place" v="locality" />
		<tag k="ssr:stedsnr" v="376920" />
	</node>
	<node id="-8330" lat="63.0025713938" lon="7.53271954918">
		<tag k="name" v="Seterhaugen" />
		<tag k="natural" v="hill" />
		<tag k="place" v="locality" />
		<tag k="ssr:stedsnr" v="497413" />
	</node>
	<node id="-8841" lat="63.0273554067" lon="7.64249958987">
		<tag k="name" v="Storklimpen" />
		<tag k="natural" v="hill" />
		<tag k="place" v="locality" />
		<tag k="ssr:stedsnr" v="376625" />
	</node>
	<node id="-8840" lat="63.0290361088" lon="7.50427222682">
		<tag k="name" v="Aspahaugen" />
		<tag k="natural" v="hill" />
		<tag k="place" v="locality" />
		<tag k="ssr:stedsnr" v="376619" />
	</node>
	<node id="-8322" lat="62.9600000011" lon="7.53560556332">
		<tag k="fixme" v="consider natural=peak for the most distinct mountains in the district" />
		<tag k="name" v="Storhammaren" />
		<tag k="natural" v="hill" />
		<tag k="place" v="locality" />
		<tag k="ssr:stedsnr" v="496958" />
	</node>
	<node id="-8829" lat="63.0305361072" lon="7.49838610867">
		<tag k="name" v="Langdalen" />
		<tag k="natural" v="valley" />
		<tag k="place" v="locality" />
		<tag k="ssr:stedsnr" v="376466" />
	</node>
	<node id="-8315" lat="63.0237416644" lon="7.48170000792">
		<tag k="name" v="Litllangdalen" />
		<tag k="natural" v="valley" />
		<tag k="place" v="locality" />
		<tag k="ssr:stedsnr" v="316656" />
	</node>
	<node id="-8310" lat="63.0003305558" lon="7.7007749971">
		<tag k="name" v="Røsshaugen" />
		<tag k="natural" v="hill" />
		<tag k="place" v="locality" />
		<tag k="ssr:stedsnr" v="315364" />
	</node>
	<node id="-8307" lat="63.0056416628" lon="7.55954722598">
		<tag k="fixme" v="consider natural=peak for the most distinct mountains in the district" />
		<tag k="name" v="Baåsen" />
		<tag k="natural" v="hill" />
		<tag k="place" v="locality" />
		<tag k="ssr:stedsnr" v="315406" />
	</node>
	<node id="-8817" lat="63.0230111078" lon="7.65336944977">
		<tag k="name" v="Mesterhaugen" />
		<tag k="natural" v="hill" />
		<tag k="place" v="locality" />
		<tag k="ssr:stedsnr" v="351941" />
	</node>
	<node id="-8816" lat="63.0205361089" lon="7.63830277803">
		<tag k="name" v="Steindalen" />
		<tag k="natural" v="valley" />
		<tag k="place" v="locality" />
		<tag k="ssr:stedsnr" v="351937" />
	</node>
	<node id="-8300" lat="63.0683555558" lon="7.63948332414">
		<tag k="name" v="Kråknakken" />
		<tag k="natural" v="hill" />
		<tag k="place" v="locality" />
		<tag k="ssr:stedsnr" v="472968" />
	</node>
	<node id="-8810" lat="62.9704638852" lon="7.58635554658">
		<tag k="name" v="Rishaugen" />
		<tag k="natural" v="hill" />
		<tag k="place" v="locality" />
		<tag k="ssr:stedsnr" v="351016" />
	</node>
	<node id="-8809" lat="62.963880554" lon="7.58026667484">
		<tag k="name" v="Fjøshaugen" />
		<tag k="natural" v="hill" />
		<tag k="place" v="locality" />
		<tag k="ssr:stedsnr" v="351015" />
	</node>
	<node id="-8808" lat="62.9603333358" lon="7.51658611309">
		<tag k="name" v="Berghamrane" />
		<tag k="natural" v="hill" />
		<tag k="place" v="locality" />
		<tag k="ssr:stedsnr" v="351472" />
	</node>
	<node id="-8807" lat="62.9664361092" lon="7.53862222559">
		<tag k="fixme" v="consider natural=peak for the most distinct mountains in the district" />
		<tag k="name" v="Litlhelsetknoken" />
		<tag k="natural" v="hill" />
		<tag k="place" v="locality" />
		<tag k="ssr:stedsnr" v="351470" />
	</node>
	<node id="-8293" lat="62.9789166647" lon="7.38314444133">
		<tag k="name" v="Trolldalen" />
		<tag k="natural" v="valley" />
		<tag k="place" v="locality" />
		<tag k="ssr:stedsnr" v="472461" />
	</node>
	<node id="-8804" lat="63.0449166628" lon="7.58640277818">
		<tag k="name" v="Sørkullen" />
		<tag k="natural" v="hill" />
		<tag k="place" v="locality" />
		<tag k="ssr:stedsnr" v="350745" />
	</node>
	<node id="-8291" lat="62.9678666705" lon="7.52162500824">
		<tag k="name" v="Moldhaugen" />
		<tag k="natural" v="hill" />
		<tag k="place" v="locality" />
		<tag k="ssr:stedsnr" v="472451" />
	</node>
	<node id="-8290" lat="63.0333527791" lon="7.48113056322">
		<tag k="name" v="Rundhaugen" />
		<tag k="natural" v="hill" />
		<tag k="place" v="locality" />
		<tag k="ssr:stedsnr" v="472422" />
	</node>
	<node id="-8800" lat="62.9707277813" lon="7.48555834001">
		<tag k="name" v="Rognslåa" />
		<tag k="place" v="locality" />
		<tag k="ssr:stedsnr" v="350457" />
	</node>
	<node id="-8797" lat="62.9785194472" lon="7.38663056524">
		<tag k="name" v="Einhaugen" />
		<tag k="natural" v="hill" />
		<tag k="place" v="locality" />
		<tag k="ssr:stedsnr" v="350447" />
	</node>
	<node id="-8796" lat="62.9811583327" lon="7.40188611679">
		<tag k="name" v="Skotthaugdalen" />
		<tag k="natural" v="valley" />
		<tag k="place" v="locality" />
		<tag k="ssr:stedsnr" v="350445" />
	</node>
	<node id="-8122" lat="63.0429583366" lon="7.62347499788">
		<tag k="name" v="Gjøtlia" />
		<tag k="natural" v="slope" />
		<tag k="place" v="locality" />
		<tag k="ssr:stedsnr" v="255590" />
	</node>
	<node id="-8279" lat="63.0524861131" lon="7.45672777351">
		<tag k="name" v="Storvikhaugen" />
		<tag k="natural" v="hill" />
		<tag k="place" v="locality" />
		<tag k="ssr:stedsnr" v="471422" />
	</node>
	<node id="-8788" lat="62.9442638865" lon="7.54625833125">
		<tag k="alt_name" v="Raudhaughammaren" />
		<tag k="name" v="Raudhammaren" />
		<tag k="natural" v="hill" />
		<tag k="place" v="locality" />
		<tag k="ssr:stedsnr" v="343447" />
	</node>
	<node id="-8783" lat="63.1010805534" lon="7.57963055471">
		<tag k="name" v="Raudkola" />
		<tag k="natural" v="hill" />
		<tag k="place" v="locality" />
		<tag k="ssr:stedsnr" v="316792" />
	</node>
	<node id="-8266" lat="63.0711361101" lon="7.57873610335">
		<tag k="name" v="Ørnekollen" />
		<tag k="natural" v="hill" />
		<tag k="place" v="locality" />
		<tag k="ssr:stedsnr" v="290771" />
	</node>
	<node id="-8265" lat="63.0503472195" lon="7.49954165831">
		<tag k="name" v="Skaret" />
		<tag k="natural" v="valley" />
		<tag k="place" v="locality" />
		<tag k="ssr:stedsnr" v="290764" />
	</node>
	<node id="-8774" lat="63.0339638912" lon="7.6534333308">
		<tag k="name" v="Kjørsvikskardet" />
		<tag k="natural" v="valley" />
		<tag k="place" v="locality" />
		<tag k="ssr:stedsnr" v="316609" />
	</node>
	<node id="-8770" lat="63.0465499969" lon="7.59524167">
		<tag k="name" v="Nørdkullen" />
		<tag k="natural" v="hill" />
		<tag k="place" v="locality" />
		<tag k="ssr:stedsnr" v="315533" />
	</node>
	<node id="-8543" lat="62.9790194455" lon="7.52170834146">
		<tag k="name" v="Holstuva" />
		<tag k="natural" v="hill" />
		<tag k="place" v="locality" />
		<tag k="ssr:stedsnr" v="923939" />
	</node>
	<node id="-8248" lat="63.0539388919" lon="7.6219666634">
		<tag k="name" v="Nonshaugen" />
		<tag k="natural" v="hill" />
		<tag k="place" v="locality" />
		<tag k="ssr:stedsnr" v="255556" />
	</node>
	<node id="-8628" lat="63.0347666659" lon="7.60501944401">
		<tag k="name" v="Haukåshaugen" />
		<tag k="natural" v="hill" />
		<tag k="place" v="locality" />
		<tag k="ssr:stedsnr" v="48182" />
	</node>
	<node id="-8757" lat="62.9699444489" lon="7.53889444257">
		<tag k="fixme" v="consider natural=peak for the most distinct mountains in the district" />
		<tag k="name" v="Helsetknøken" />
		<tag k="natural" v="hill" />
		<tag k="place" v="locality" />
		<tag k="ssr:stedsnr" v="194943" />
	</node>
	<node id="-8627" lat="62.9713250009" lon="7.56728611603">
		<tag k="fixme" v="consider natural=peak for the most distinct mountains in the district" />
		<tag k="name" v="Steinkorga" />
		<tag k="natural" v="hill" />
		<tag k="place" v="locality" />
		<tag k="ssr:stedsnr" v="48010" />
	</node>
	<node id="-8750" lat="63.0017638918" lon="7.62551388511">
		<tag k="fixme" v="consider natural=peak for the most distinct mountains in the district" />
		<tag k="name" v="Kammen" />
		<tag k="natural" v="hill" />
		<tag k="place" v="locality" />
		<tag k="ssr:stedsnr" v="194401" />
	</node>
	<node id="-8747" lat="63.0131805583" lon="7.64289444408">
		<tag k="alt_name" v="Hedalskammen" />
		<tag k="name" v="Ristuva" />
		<tag k="natural" v="hill" />
		<tag k="place" v="locality" />
		<tag k="ssr:stedsnr" v="194370" />
	</node>
	<node id="-8284" lat="63.0339416665" lon="7.51035555754">
		<tag k="name" v="Langdalen" />
		<tag k="natural" v="valley" />
		<tag k="place" v="locality" />
		<tag k="ssr:stedsnr" v="472007" />
	</node>
	<node id="-8611" lat="63.0306694403" lon="7.62737500854">
		<tag k="fixme" v="consider natural=peak for the most distinct mountains in the district" />
		<tag k="name" v="Spellhamran" />
		<tag k="natural" v="hill" />
		<tag k="place" v="locality" />
		<tag k="ssr:stedsnr" v="12577" />
	</node>
	<node id="-8795" lat="63.1055804159" lon="7.60328033275">
		<tag k="name" v="Berget" />
		<tag k="natural" v="hill" />
		<tag k="place" v="locality" />
		<tag k="ssr:stedsnr" v="350856" />
	</node>
	<node id="-8733" lat="63.0103777814" lon="7.64977777337">
		<tag k="name" v="Seljelia" />
		<tag k="natural" v="slope" />
		<tag k="place" v="locality" />
		<tag k="ssr:stedsnr" v="169877" />
	</node>
	<node id="-8679" lat="62.9812861142" lon="7.39213612071">
		<tag k="name" v="M Hjertvikklumpen" />
		<tag k="natural" v="hill" />
		<tag k="place" v="locality" />
		<tag k="ssr:stedsnr" v="108488" />
	</node>
	<node id="-8217" lat="62.9622416628" lon="7.52171389548">
		<tag k="name" v="Seterhaugen" />
		<tag k="natural" v="hill" />
		<tag k="place" v="locality" />
		<tag k="ssr:stedsnr" v="230456" />
	</node>
	<node id="-8728" lat="63.1021388865" lon="7.63314722597">
		<tag k="name" v="Spelhammaren" />
		<tag k="natural" v="hill" />
		<tag k="place" v="locality" />
		<tag k="ssr:stedsnr" v="169976" />
	</node>
	<node id="-8727" lat="63.1114250011" lon="7.64003889463">
		<tag k="name" v="Asphaugen" />
		<tag k="natural" v="hill" />
		<tag k="place" v="locality" />
		<tag k="ssr:stedsnr" v="169964" />
	</node>
	<node id="-8214" lat="62.980777776" lon="7.36744166117">
		<tag k="name" v="Djupskardet" />
		<tag k="natural" v="valley" />
		<tag k="place" v="locality" />
		<tag k="ssr:stedsnr" v="229871" />
	</node>
	<node id="-8725" lat="63.1072166655" lon="7.64816944638">
		<tag k="name" v="Storseterhaugen" />
		<tag k="natural" v="hill" />
		<tag k="place" v="locality" />
		<tag k="ssr:stedsnr" v="169954" />
	</node>
	<node id="-8211" lat="62.9806416669" lon="7.42834999727">
		<tag k="name" v="Trongskardet" />
		<tag k="natural" v="valley" />
		<tag k="place" v="locality" />
		<tag k="ssr:stedsnr" v="229468" />
	</node>
	<node id="-8210" lat="62.9760111088" lon="7.36703611358">
		<tag k="name" v="Skardhammaren" />
		<tag k="natural" v="hill" />
		<tag k="place" v="locality" />
		<tag k="ssr:stedsnr" v="229174" />
	</node>
	<node id="-8215" lat="63.0180444435" lon="7.62175833608">
		<tag k="name" v="Marsteinhaugen" />
		<tag k="natural" v="hill" />
		<tag k="place" v="locality" />
		<tag k="ssr:stedsnr" v="230211" />
	</node>
	<node id="-8194" lat="62.9968333359" lon="7.57189444088">
		<tag k="name" v="Dyrsetlia" />
		<tag k="natural" v="slope" />
		<tag k="place" v="locality" />
		<tag k="ssr:stedsnr" v="194906" />
	</node>
	<node id="-8202" lat="63.0232833366" lon="7.63586388792">
		<tag k="fixme" v="consider natural=peak for the most distinct mountains in the district" />
		<tag k="name" v="Nosa" />
		<tag k="natural" v="hill" />
		<tag k="place" v="locality" />
		<tag k="ssr:stedsnr" v="195625" />
	</node>
	<node id="-8201" lat="63.0345055523" lon="7.64534444407">
		<tag k="name" v="Klimpan" />
		<tag k="natural" v="hill" />
		<tag k="place" v="locality" />
		<tag k="ssr:stedsnr" v="195617" />
	</node>
	<node id="-8200" lat="63.0276694473" lon="7.61688332585">
		<tag k="name" v="Ramsdalen" />
		<tag k="natural" v="valley" />
		<tag k="place" v="locality" />
		<tag k="ssr:stedsnr" v="195615" />
	</node>
	<node id="-8710" lat="63.02070833" lon="7.54240277622">
		<tag k="name" v="Bjerga" />
		<tag k="natural" v="hill" />
		<tag k="place" v="locality" />
		<tag k="ssr:stedsnr" v="133576" />
	</node>
	<node id="-8709" lat="63.0164694445" lon="7.46650833473">
		<tag k="name" v="Hallvardhaugen" />
		<tag k="natural" v="hill" />
		<tag k="place" v="locality" />
		<tag k="ssr:stedsnr" v="133572" />
	</node>
	<node id="-8708" lat="63.0189499956" lon="7.59751943501">
		<tag k="fixme" v="consider natural=peak for the most distinct mountains in the district" />
		<tag k="name" v="Høgåsen" />
		<tag k="natural" v="hill" />
		<tag k="place" v="locality" />
		<tag k="ssr:stedsnr" v="133571" />
	</node>
	<node id="-8706" lat="63.0283777821" lon="7.46959722187">
		<tag k="name" v="Revhaugen" />
		<tag k="natural" v="hill" />
		<tag k="place" v="locality" />
		<tag k="ssr:stedsnr" v="133534" />
	</node>
</osm>
