<?xml version="1.0" encoding="UTF-8"?>
<osm version="0.6" generator="osmapis">
	<node lat="63.085547220728756" lon="7.660300005075116" id="-6295">
		<tag k="name" v="Vollan" />
		<tag k="place" v="locality" />
		<tag k="ssr:stedsnr" v="231705" />
	</node>
	<node lat="63.03985833177986" lon="7.519880558011064" id="-6400">
		<tag k="name" v="Flatsetmyran" />
		<tag k="natural" v="wetland" />
		<tag k="ssr:stedsnr" v="229805" />
	</node>
	<node lat="62.98592499880815" lon="7.362991671458824" id="-6442">
		<tag k="name" v="Trovikmyra" />
		<tag k="natural" v="wetland" />
		<tag k="ssr:stedsnr" v="292702" />
	</node>
	<node lat="62.984052778102914" lon="7.646300008632503" id="-6484">
		<tag k="name" v="Stormyra" />
		<tag k="natural" v="wetland" />
		<tag k="ssr:stedsnr" v="351903" />
	</node>
	<node lat="63.03094721785219" lon="7.506475002282031" id="-6520">
		<tag k="name" v="Hendmyran" />
		<tag k="natural" v="wetland" />
		<tag k="ssr:stedsnr" v="472009" />
	</node>
	<node lat="63.04901389079176" lon="7.649258328827302" id="-6546">
		<tag k="name" v="Langmyra" />
		<tag k="natural" v="wetland" />
		<tag k="ssr:stedsnr" v="679539" />
	</node>
	<node lat="62.98676110806527" lon="7.68147778257477" id="-6633">
		<tag k="name" v="Strandhagen" />
		<tag k="place" v="locality" />
		<tag k="ssr:stedsnr" v="655383" />
	</node>
	<node lat="63.02035000099169" lon="7.66799167156991" id="-6773">
		<tag k="name" v="Klipamyran" />
		<tag k="natural" v="wetland" />
		<tag k="ssr:stedsnr" v="922386" />
	</node>
	<node lat="62.98604722091295" lon="7.360155554250809" id="-6984">
		<tag k="name" v="Nermyran" />
		<tag k="natural" v="wetland" />
		<tag k="ssr:stedsnr" v="290840" />
	</node>
	<node lat="63.111069442827734" lon="7.633708342865732" id="-6986">
		<tag k="name" v="Myra" />
		<tag k="natural" v="wetland" />
		<tag k="ssr:stedsnr" v="290967" />
	</node>
	<node lat="63.00155833133258" lon="7.462302778939111" id="-7019">
		<tag k="name" v="Stormyra" />
		<tag k="natural" v="wetland" />
		<tag k="ssr:stedsnr" v="350352" />
	</node>
	<node lat="62.96570833096539" lon="7.567522220608975" id="-7077">
		<tag k="historic" v="shieling" />
		<tag k="name" v="Avsetstølen" />
		<tag k="place" v="locality" />
		<tag k="ssr:stedsnr" v="412015" />
	</node>
	<node lat="63.01285776440362" lon="7.519751082573059" id="-7135">
		<tag k="name" v="Stormyra" />
		<tag k="natural" v="wetland" />
		<tag k="ssr:stedsnr" v="533228" />
	</node>
	<node lat="63.00466666792165" lon="7.5178472297319" id="-7181">
		<tag k="name" v="Storslåtteteigen" />
		<tag k="place" v="locality" />
		<tag k="ssr:stedsnr" v="594224" />
	</node>
	<node lat="63.01122777710937" lon="7.550802768768594" id="-7382">
		<tag k="name" v="Trøin" />
		<tag k="place" v="locality" />
		<tag k="ssr:stedsnr" v="958226" />
	</node>
</osm>
