<?xml version="1.0" encoding="UTF-8"?>
<osm version="0.6" generator="osmapis">
	<node lat="63.15502499772748" lon="7.563891666791258" id="-7928">
		<tag k="name" v="Treflesleia" />
		<tag k="place" v="locality" />
		<tag k="ssr:stedsnr" v="473825" />
	</node>
	<node lat="63.02147500279434" lon="7.629233326335504" id="-8147">
		<tag k="highway" v="path" />
		<tag k="name" v="Stegan" />
		<tag k="ssr:stedsnr" v="898943" />
	</node>
	<node lat="63.08869444886691" lon="7.668613882553497" id="-8167">
		<tag k="amenity" v="ferry_terminal" />
		<tag k="name" v="Bremsnes ferjekai" />
		<tag k="ssr:stedsnr" v="762304" />
	</node>
	<node lat="63.0387416695332" lon="7.473333340489664" id="-8282">
		<tag k="fixme" v="consider highway=path" />
		<tag k="highway" v="track" />
		<tag k="name" v="Hasløyseterveien" />
		<tag k="old_name" v="Hasløysetervegen" />
		<tag k="ssr:stedsnr" v="957409" />
	</node>
	<node lat="62.96290277521451" lon="7.602724990738963" id="-8344">
		<tag k="man_made" v="quay" />
		<tag k="name" v="Mek Kai" />
		<tag k="place" v="locality" />
		<tag k="ssr:stedsnr" v="48441" />
	</node>
	<node lat="63.03988333272751" lon="7.549050007070583" id="-8605">
		<tag k="man_made" v="quay" />
		<tag k="name" v="Søfstad" />
		<tag k="place" v="locality" />
		<tag k="ssr:stedsnr" v="411786" />
	</node>
</osm>
