<?xml version="1.0" encoding="UTF-8"?>
<osm version="0.6" generator="osmapis">
	<node id="2354947867" lat="63.942703" lon="11.306661" version="2" timestamp="2018-05-02T17:04:09Z" changeset="58620907" uid="3497659" user="NKA">
		<tag k="name" v="Skogly" />
		<tag k="place" v="farm" />
		<tag k="source" v="Kartverket" />
		<tag k="ssr:stedsnr" v="924045" />
	</node>
	<node id="2354953950" lat="63.917353" lon="11.203833" version="2" timestamp="2018-05-02T17:04:09Z" changeset="58620907" uid="3497659" user="NKA">
		<tag k="name" v="Henja" />
		<tag k="place" v="farm" />
		<tag k="source" v="Kartverket" />
		<tag k="ssr:stedsnr" v="889739" />
	</node>
	<node id="5749836630" lat="63.8682516" lon="11.2126069" version="2" timestamp="2022-01-26T07:15:22Z" changeset="116611310" uid="3497659" user="NKA">
		<tag k="junction" v="yes" />
		<tag k="name" v="Tømte" />
		<tag k="ssr:stedsnr" v="706648" />
	</node>
	<node id="5749848127" lat="63.9582378" lon="11.3355053" version="2" timestamp="2022-01-26T07:15:22Z" changeset="116611310" uid="3497659" user="NKA">
		<tag k="junction" v="yes" />
		<tag k="name" v="Gangstadkorsen" />
		<tag k="ssr:stedsnr" v="438890" />
	</node>
	<node id="5749433432" lat="63.815825" lon="10.6651124" version="1" timestamp="2018-07-09T13:18:11Z" changeset="60540217" uid="5732597" user="ENTUR Johan Wiklund" />
	<node id="5749437353" lat="63.8159135" lon="10.6654227" version="1" timestamp="2018-07-09T13:18:48Z" changeset="60540217" uid="5732597" user="ENTUR Johan Wiklund" />
	<node id="5749449796" lat="63.8158693" lon="10.6652681" version="1" timestamp="2018-07-09T13:21:31Z" changeset="60540332" uid="5732597" user="ENTUR Johan Wiklund" />
	<node id="5749444041" lat="63.814318" lon="10.683765" version="2" timestamp="2021-09-14T18:45:24Z" changeset="111210207" uid="3497659" user="NKA" />
	<node id="9091996165" lat="63.814341" lon="10.683868" version="1" timestamp="2021-09-14T18:45:24Z" changeset="111210207" uid="3497659" user="NKA" />
	<node id="5749437419" lat="63.7924541" lon="10.7385463" version="1" timestamp="2018-07-09T13:18:50Z" changeset="60540217" uid="5732597" user="ENTUR Johan Wiklund" />
	<node id="5749443591" lat="63.7924465" lon="10.7388099" version="1" timestamp="2018-07-09T13:20:03Z" changeset="60540217" uid="5732597" user="ENTUR Johan Wiklund" />
	<node id="5749441896" lat="63.8502489" lon="10.8028686" version="1" timestamp="2018-07-09T13:19:37Z" changeset="60540217" uid="5732597" user="ENTUR Johan Wiklund" />
	<node id="5749442905" lat="63.8502584" lon="10.802965" version="1" timestamp="2018-07-09T13:19:51Z" changeset="60540217" uid="5732597" user="ENTUR Johan Wiklund" />
	<node id="5749427713" lat="63.7429891" lon="10.9262521" version="1" timestamp="2018-07-09T13:18:11Z" changeset="60540217" uid="5732597" user="ENTUR Johan Wiklund" />
	<node id="5749451653" lat="63.7429598" lon="10.9260901" version="1" timestamp="2018-07-09T13:21:50Z" changeset="60540332" uid="5732597" user="ENTUR Johan Wiklund" />
	<node id="5749433252" lat="63.809974" lon="10.9919977" version="1" timestamp="2018-07-09T13:18:08Z" changeset="60540217" uid="5732597" user="ENTUR Johan Wiklund" />
	<node id="5749441923" lat="63.8100325" lon="10.9921391" version="1" timestamp="2018-07-09T13:19:37Z" changeset="60540217" uid="5732597" user="ENTUR Johan Wiklund" />
	<node id="5749435155" lat="63.8204345" lon="11.005353" version="1" timestamp="2018-07-09T13:18:27Z" changeset="60540217" uid="5732597" user="ENTUR Johan Wiklund" />
	<node id="5749450362" lat="63.8206201" lon="11.0052366" version="2" timestamp="2022-01-24T21:00:15Z" changeset="116559033" uid="3497659" user="NKA" />
	<node id="41298297" lat="63.8415311" lon="11.0680168" version="4" timestamp="2018-07-09T13:22:57Z" changeset="60540332" uid="5732597" user="ENTUR Johan Wiklund" />
	<node id="41298640" lat="63.8411543" lon="11.0671037" version="5" timestamp="2018-07-09T13:22:57Z" changeset="60540332" uid="5732597" user="ENTUR Johan Wiklund" />
	<node id="519267385" lat="63.8413805" lon="11.0675833" version="2" timestamp="2018-07-09T13:23:13Z" changeset="60540332" uid="5732597" user="ENTUR Johan Wiklund" />
	<node id="5105343589" lat="63.8411099" lon="11.0670284" version="2" timestamp="2018-07-09T13:23:31Z" changeset="60540332" uid="5732597" user="ENTUR Johan Wiklund" />
	<node id="5749436327" lat="63.8414279" lon="11.0677071" version="1" timestamp="2018-07-09T13:18:41Z" changeset="60540217" uid="5732597" user="ENTUR Johan Wiklund" />
	<node id="5749436505" lat="63.8410121" lon="11.0668813" version="1" timestamp="2018-07-09T13:18:44Z" changeset="60540217" uid="5732597" user="ENTUR Johan Wiklund" />
	<node id="5749443100" lat="63.8414704" lon="11.0678234" version="1" timestamp="2018-07-09T13:19:54Z" changeset="60540217" uid="5732597" user="ENTUR Johan Wiklund" />
	<node id="5749444080" lat="63.8416122" lon="11.0683035" version="1" timestamp="2018-07-09T13:20:09Z" changeset="60540217" uid="5732597" user="ENTUR Johan Wiklund" />
	<node id="5749446624" lat="63.8412133" lon="11.0672125" version="1" timestamp="2018-07-09T13:20:47Z" changeset="60540217" uid="5732597" user="ENTUR Johan Wiklund" />
	<node id="5749449041" lat="63.8416893" lon="11.0686122" version="1" timestamp="2018-07-09T13:21:20Z" changeset="60540332" uid="5732597" user="ENTUR Johan Wiklund" />
	<node id="5749452093" lat="63.8412898" lon="11.0673695" version="1" timestamp="2018-07-09T13:21:58Z" changeset="60540332" uid="5732597" user="ENTUR Johan Wiklund" />
	<node id="5749440399" lat="63.8423426" lon="11.0714223" version="2" timestamp="2022-01-24T21:00:15Z" changeset="116559033" uid="3497659" user="NKA">
		<tag k="bridge:support" v="pylon" />
	</node>
	<node id="5749445251" lat="63.8445577" lon="11.0809284" version="2" timestamp="2022-01-24T21:00:15Z" changeset="116559033" uid="3497659" user="NKA">
		<tag k="bridge:support" v="pylon" />
	</node>
	<node id="41261946" lat="63.8452732" lon="11.0839761" version="5" timestamp="2018-07-09T13:22:57Z" changeset="60540332" uid="5732597" user="ENTUR Johan Wiklund" />
	<node id="5749438525" lat="63.8453448" lon="11.084295" version="1" timestamp="2018-07-09T13:18:56Z" changeset="60540217" uid="5732597" user="ENTUR Johan Wiklund" />
	<node id="5749445130" lat="63.8453646" lon="11.0843882" version="1" timestamp="2018-07-09T13:20:26Z" changeset="60540217" uid="5732597" user="ENTUR Johan Wiklund" />
	<node id="256990821" lat="63.8677415" lon="11.2969424" version="5" timestamp="2018-07-09T17:21:43Z" changeset="60547449" uid="5732597" user="ENTUR Johan Wiklund" />
	<node id="4945048012" lat="63.8674676" lon="11.2966979" version="2" timestamp="2018-07-09T17:22:47Z" changeset="60547549" uid="5732597" user="ENTUR Johan Wiklund" />
	<node id="5749850445" lat="63.8676355" lon="11.2968287" version="2" timestamp="2018-07-10T08:55:11Z" changeset="60566915" uid="5732597" user="ENTUR Johan Wiklund" />
	<node id="5749853169" lat="63.8675392" lon="11.2967375" version="2" timestamp="2018-07-10T08:55:11Z" changeset="60566915" uid="5732597" user="ENTUR Johan Wiklund" />
	<node id="5749846165" lat="63.8725412" lon="11.2981328" version="1" timestamp="2018-07-09T17:17:51Z" changeset="60547363" uid="5732597" user="ENTUR Johan Wiklund" />
	<node id="5749848623" lat="63.8724469" lon="11.2982715" version="1" timestamp="2018-07-09T17:18:16Z" changeset="60547449" uid="5732597" user="ENTUR Johan Wiklund" />
	<node id="5749857530" lat="63.8692419" lon="11.2985834" version="2" timestamp="2022-06-12T11:33:28Z" changeset="122276726" uid="420980" user="NorNorth" />
	<node id="5749844034" lat="63.9112227" lon="11.1895372" version="1" timestamp="2018-07-09T17:17:39Z" changeset="60547363" uid="5732597" user="ENTUR Johan Wiklund" />
	<node id="5749849337" lat="63.9111963" lon="11.1893296" version="1" timestamp="2018-07-09T17:18:25Z" changeset="60547449" uid="5732597" user="ENTUR Johan Wiklund" />
	<node id="5751231814" lat="63.8595419" lon="11.3990766" version="1" timestamp="2018-07-10T08:52:57Z" changeset="60566915" uid="5732597" user="ENTUR Johan Wiklund" />
	<node id="5751231975" lat="63.8596183" lon="11.3996727" version="1" timestamp="2018-07-10T08:52:58Z" changeset="60566915" uid="5732597" user="ENTUR Johan Wiklund" />
	<node id="5751233516" lat="63.8593034" lon="11.4002893" version="2" timestamp="2022-01-24T21:00:15Z" changeset="116559033" uid="3497659" user="NKA" />
	<node id="5751234344" lat="63.8597292" lon="11.3981737" version="1" timestamp="2018-07-10T08:53:30Z" changeset="60566915" uid="5732597" user="ENTUR Johan Wiklund" />
	<node id="5751235595" lat="63.8595389" lon="11.3990928" version="1" timestamp="2018-07-10T08:53:49Z" changeset="60566915" uid="5732597" user="ENTUR Johan Wiklund" />
	<way id="23729265" version="7" timestamp="2022-01-24T21:00:15Z" changeset="116559033" uid="3497659" user="NKA">
		<tag k="bridge" v="cantilever" />
		<tag k="highway" v="primary" />
		<tag k="layer" v="1" />
		<tag k="maxspeed" v="50" />
		<tag k="name" v="Straumbrua" />
		<tag k="ref" v="755" />
		<tag k="ssr:stedsnr" v="291596" />
		<tag k="surface" v="asphalt" />
		<tag k="wikidata" v="Q12003611" />
		<nd ref="4945048012" />
		<nd ref="5749853169" />
		<nd ref="5749850445" />
		<nd ref="256990821" />
		<nd ref="5749857530" />
	</way>
	<way id="25413881" version="19" timestamp="2022-01-24T21:00:15Z" changeset="116559033" uid="3497659" user="NKA">
		<tag k="bridge" v="yes" />
		<tag k="bridge:structure" v="cable-stayed" />
		<tag k="highway" v="primary" />
		<tag k="layer" v="1" />
		<tag k="maxspeed" v="80" />
		<tag k="name" v="Skarnsundbrua" />
		<tag k="name:de" v="Skarnsund-Brücke" />
		<tag k="name:en" v="Skarnsund Bridge" />
		<tag k="name:zh" v="斯堪桑德大桥" />
		<tag k="ref" v="755" />
		<tag k="ssr:stedsnr" v="86581" />
		<tag k="wikidata" v="Q852967" />
		<tag k="wikipedia" v="en:Skarnsund Bridge" />
		<nd ref="5749445130" />
		<nd ref="5749438525" />
		<nd ref="41261946" />
		<nd ref="5749445251" />
		<nd ref="5749440399" />
		<nd ref="5749449041" />
		<nd ref="5749444080" />
		<nd ref="41298297" />
		<nd ref="5749443100" />
		<nd ref="5749436327" />
		<nd ref="519267385" />
		<nd ref="5749452093" />
		<nd ref="5749446624" />
		<nd ref="41298640" />
		<nd ref="5105343589" />
		<nd ref="5749436505" />
	</way>
	<way id="83214322" version="4" timestamp="2022-01-24T21:00:15Z" changeset="116559033" uid="3497659" user="NKA">
		<tag k="bridge" v="yes" />
		<tag k="highway" v="secondary" />
		<tag k="layer" v="1" />
		<tag k="maxspeed" v="80" />
		<tag k="name" v="Fossbrua" />
		<tag k="ref" v="6918" />
		<tag k="ssr:stedsnr" v="411837" />
		<tag k="surface" v="paved" />
		<nd ref="5749442905" />
		<nd ref="5749441896" />
	</way>
	<way id="199260481" version="4" timestamp="2022-01-24T21:00:15Z" changeset="116559033" uid="3497659" user="NKA">
		<tag k="bicycle" v="designated" />
		<tag k="bridge" v="yes" />
		<tag k="foot" v="designated" />
		<tag k="highway" v="cycleway" />
		<tag k="layer" v="1" />
		<tag k="name" v="Skolebrua" />
		<tag k="ssr:stedsnr" v="472569" />
		<tag k="surface" v="paved" />
		<nd ref="5751235595" />
		<nd ref="5751231814" />
		<nd ref="5751234344" />
	</way>
	<way id="199260483" version="3" timestamp="2022-01-24T21:00:15Z" changeset="116559033" uid="3497659" user="NKA">
		<tag k="bridge" v="yes" />
		<tag k="highway" v="tertiary" />
		<tag k="layer" v="1" />
		<tag k="name" v="Rørbrua" />
		<tag k="ssr:stedsnr" v="230560" />
		<tag k="surface" v="paved" />
		<nd ref="5751233516" />
		<nd ref="5751231975" />
	</way>
	<way id="344263463" version="5" timestamp="2022-01-24T21:00:15Z" changeset="116559033" uid="3497659" user="NKA">
		<tag k="bridge" v="yes" />
		<tag k="highway" v="secondary" />
		<tag k="layer" v="1" />
		<tag k="maxspeed" v="50" />
		<tag k="name" v="Grandbrua" />
		<tag k="ref" v="6920" />
		<tag k="ssr:stedsnr" v="775834" />
		<nd ref="5749450362" />
		<nd ref="5749435155" />
	</way>
	<way id="346097106" version="4" timestamp="2022-01-24T21:00:15Z" changeset="116559033" uid="3497659" user="NKA">
		<tag k="bridge" v="yes" />
		<tag k="highway" v="secondary" />
		<tag k="layer" v="1" />
		<tag k="maxspeed" v="60" />
		<tag k="name" v="Kjerknesbrua" />
		<tag k="ref" v="6392" />
		<tag k="ssr:stedsnr" v="291605" />
		<nd ref="5749849337" />
		<nd ref="5749844034" />
	</way>
	<way id="606397949" version="3" timestamp="2022-01-24T21:00:15Z" changeset="116559033" uid="3497659" user="NKA">
		<tag k="bridge" v="yes" />
		<tag k="highway" v="secondary" />
		<tag k="layer" v="1" />
		<tag k="maxspeed" v="80" />
		<tag k="name" v="Sliperbrua" />
		<tag k="ref" v="6920" />
		<tag k="smoothness" v="intermediate" />
		<tag k="ssr:stedsnr" v="775836" />
		<tag k="surface" v="pebblestone" />
		<tag k="tracktype" v="grade2" />
		<nd ref="5749427713" />
		<nd ref="5749451653" />
	</way>
	<way id="606397967" version="2" timestamp="2022-01-24T21:00:15Z" changeset="116559033" uid="3497659" user="NKA">
		<tag k="bridge" v="yes" />
		<tag k="highway" v="primary" />
		<tag k="layer" v="1" />
		<tag k="maxspeed" v="80" />
		<tag k="name" v="Strykbrua" />
		<tag k="ref" v="755" />
		<tag k="ssr:stedsnr" v="714851" />
		<tag k="surface" v="paved" />
		<nd ref="5749443591" />
		<nd ref="5749437419" />
	</way>
	<way id="606398020" version="3" timestamp="2022-01-24T21:00:15Z" changeset="116559033" uid="3497659" user="NKA">
		<tag k="bridge" v="yes" />
		<tag k="highway" v="secondary" />
		<tag k="layer" v="1" />
		<tag k="maxspeed" v="80" />
		<tag k="name" v="Prestvågbrua" />
		<tag k="ref" v="6918" />
		<tag k="ssr:stedsnr" v="714841" />
		<nd ref="5749437353" />
		<nd ref="5749449796" />
		<nd ref="5749433432" />
	</way>
	<way id="606398156" version="3" timestamp="2022-01-24T21:00:15Z" changeset="116559033" uid="3497659" user="NKA">
		<tag k="bridge" v="yes" />
		<tag k="highway" v="secondary" />
		<tag k="layer" v="1" />
		<tag k="maxspeed" v="60" />
		<tag k="name" v="Slirbrua" />
		<tag k="ref" v="6920" />
		<tag k="ssr:stedsnr" v="47831" />
		<nd ref="5749441923" />
		<nd ref="5749433252" />
	</way>
	<way id="606449575" version="4" timestamp="2022-01-24T21:00:15Z" changeset="116559033" uid="3497659" user="NKA">
		<tag k="bridge" v="yes" />
		<tag k="highway" v="primary" />
		<tag k="layer" v="1" />
		<tag k="maxspeed" v="50" />
		<tag k="name" v="Nesbrua" />
		<tag k="ref" v="755" />
		<tag k="ssr:stedsnr" v="898579" />
		<tag k="surface" v="asphalt" />
		<nd ref="5749848623" />
		<nd ref="5749846165" />
	</way>
	<way id="983317805" version="2" timestamp="2022-01-24T21:00:15Z" changeset="116559033" uid="3497659" user="NKA">
		<tag k="bridge" v="yes" />
		<tag k="highway" v="secondary" />
		<tag k="layer" v="1" />
		<tag k="maxspeed" v="80" />
		<tag k="name" v="Prestvågvassbrua" />
		<tag k="ref" v="6922" />
		<tag k="ssr:stedsnr" v="653853" />
		<nd ref="5749444041" />
		<nd ref="9091996165" />
	</way>
</osm>
