<?xml version="1.0" encoding="UTF-8"?>
<osm generator="osmapis" version="0.6">
	<node changeset="59116087" id="5629892621" lat="59.2095972" lon="8.51685" timestamp="2018-05-20T06:05:44Z" uid="3842253" user="NKA_import" version="1">
		<tag k="alt_name" v="Nedre Rønningen" />
		<tag k="name" v="Rønningen" />
		<tag k="place" v="farm" />
		<tag k="ssr:stedsnr" v="2867" />
		<tag k="ssr:type" v="bruk" />
	</node>
	<node changeset="59116087" id="5629892622" lat="59.151325" lon="8.381725" timestamp="2018-05-20T06:05:44Z" uid="3842253" user="NKA_import" version="1">
		<tag k="name" v="Dalane" />
		<tag k="place" v="farm" />
		<tag k="ssr:stedsnr" v="244105" />
		<tag k="ssr:type" v="bruk" />
	</node>
	<node changeset="59116087" id="5629892623" lat="59.101025" lon="8.5628222" timestamp="2018-05-20T06:05:44Z" uid="3842253" user="NKA_import" version="1">
		<tag k="historic" v="shieling" />
		<tag k="name" v="Tjovehommen" />
		<tag k="place" v="locality" />
		<tag k="ssr:stedsnr" v="791612" />
		<tag k="ssr:type" v="seterStøl" />
	</node>
	<node changeset="59116087" id="5629892624" lat="59.1332547" lon="8.3565119" timestamp="2018-05-20T06:05:44Z" uid="3842253" user="NKA_import" version="1">
		<tag k="building" v="cabin" />
		<tag k="name" v="Iglehommen" />
		<tag k="place" v="isolated_dwelling" />
		<tag k="ssr:stedsnr" v="123164" />
		<tag k="ssr:type" v="fritidsbolig" />
	</node>
	<node changeset="59116087" id="5629892625" lat="59.1695293" lon="8.3464878" timestamp="2018-05-20T06:05:44Z" uid="3842253" user="NKA_import" version="1">
		<tag k="alt_name" v="Grytestøyl" />
		<tag k="building" v="cabin" />
		<tag k="historic" v="shieling" />
		<tag k="name" v="Grytstøl" />
		<tag k="place" v="isolated_dwelling" />
		<tag k="ssr:stedsnr" v="244131" />
		<tag k="ssr:type" v="fritidsbolig" />
	</node>
	<node changeset="59116087" id="5629892626" lat="59.1020556" lon="8.4876389" timestamp="2018-05-20T06:05:44Z" uid="3842253" user="NKA_import" version="1">
		<tag k="name" v="Ulvestuppa" />
		<tag k="place" v="locality" />
		<tag k="ssr:stedsnr" v="957076" />
		<tag k="ssr:type" v="gammelBosettingsplass" />
	</node>
	<node changeset="59116087" id="5629892627" lat="59.1651889" lon="8.5114222" timestamp="2018-05-20T06:05:45Z" uid="3842253" user="NKA_import" version="1">
		<tag k="name" v="Hagane" />
		<tag k="place" v="locality" />
		<tag k="ssr:stedsnr" v="791777" />
		<tag k="ssr:type" v="gammelBosettingsplass" />
	</node>
	<node changeset="59116087" id="5629892628" lat="59.1624028" lon="8.5123555" timestamp="2018-05-20T06:05:45Z" uid="3842253" user="NKA_import" version="1">
		<tag k="alt_name" v="Tveit nedre" />
		<tag k="name" v="Tveit" />
		<tag k="place" v="farm" />
		<tag k="ssr:stedsnr" v="791778" />
		<tag k="ssr:type" v="bruk" />
	</node>
	<node changeset="59116087" id="5629892629" lat="59.0193171" lon="8.524181" timestamp="2018-05-20T06:05:45Z" uid="3842253" user="NKA_import" version="1">
		<tag k="name" v="Tveitsund" />
		<tag k="place" v="farm" />
		<tag k="ssr:stedsnr" v="123519" />
		<tag k="ssr:type" v="bruk" />
	</node>
	<node changeset="59116087" id="5629892630" lat="59.2594754" lon="8.4481188" timestamp="2018-05-20T06:05:45Z" uid="3842253" user="NKA_import" version="1">
		<tag k="alt_name" v="Horgeviki" />
		<tag k="building" v="farm_auxiliary" />
		<tag k="name" v="Horgevikgarden" />
		<tag k="place" v="locality" />
		<tag k="ssr:stedsnr" v="670202" />
		<tag k="ssr:type" v="byggForJordbrukFiskeOgFangst" />
	</node>
	<node changeset="59116087" id="5629892631" lat="59.2042639" lon="8.51405" timestamp="2018-05-20T06:05:45Z" uid="3842253" user="NKA_import" version="1">
		<tag k="alt_name" v="Nordli" />
		<tag k="name" v="Nordbø" />
		<tag k="place" v="farm" />
		<tag k="ssr:stedsnr" v="816355" />
		<tag k="ssr:type" v="bruk" />
	</node>
	<node changeset="59116087" id="5629892632" lat="59.2293528" lon="8.4292778" timestamp="2018-05-20T06:05:45Z" uid="3842253" user="NKA_import" version="1">
		<tag k="name" v="Kvislebuine" />
		<tag k="place" v="locality" />
		<tag k="ssr:stedsnr" v="957116" />
		<tag k="ssr:type" v="gammelBosettingsplass" />
	</node>
	<node changeset="59116087" id="5629892633" lat="59.1943915" lon="8.5324207" timestamp="2018-05-20T06:05:45Z" uid="3842253" user="NKA_import" version="1">
		<tag k="building" v="farm_auxiliary" />
		<tag k="name" v="Bergbu" />
		<tag k="place" v="locality" />
		<tag k="ssr:stedsnr" v="32439" />
		<tag k="ssr:type" v="byggForJordbrukFiskeOgFangst" />
	</node>
	<node changeset="59116087" id="5629892634" lat="59.1121306" lon="8.562675" timestamp="2018-05-20T06:05:45Z" uid="3842253" user="NKA_import" version="1">
		<tag k="historic" v="shieling" />
		<tag k="name" v="Rapstøyl" />
		<tag k="place" v="locality" />
		<tag k="ssr:stedsnr" v="32441" />
		<tag k="ssr:type" v="gammelBosettingsplass" />
	</node>
	<node changeset="59116087" id="5629892635" lat="59.1436611" lon="8.5133389" timestamp="2018-05-20T06:05:45Z" uid="3842253" user="NKA_import" version="1">
		<tag k="name" v="Lia" />
		<tag k="place" v="locality" />
		<tag k="ssr:stedsnr" v="821509" />
		<tag k="ssr:type" v="gammelBosettingsplass" />
	</node>
	<node changeset="59116087" id="5629892636" lat="59.1987917" lon="8.518125" timestamp="2018-05-20T06:05:45Z" uid="3842253" user="NKA_import" version="1">
		<tag k="name" v="Vollin" />
		<tag k="place" v="farm" />
		<tag k="ssr:stedsnr" v="32463" />
		<tag k="ssr:type" v="bruk" />
	</node>
	<node changeset="59116087" id="5629892637" lat="59.1612806" lon="8.5059028" timestamp="2018-05-20T06:05:45Z" uid="3842253" user="NKA_import" version="1">
		<tag k="name" v="Prestegarden" />
		<tag k="place" v="isolated_dwelling" />
		<tag k="ssr:stedsnr" v="700549" />
		<tag k="ssr:type" v="eneboligMindreBoligbygg" />
	</node>
	<node changeset="68972620" id="5629892638" lat="59.1600318" lon="8.5323864" timestamp="2019-04-07T10:32:31Z" uid="3610826" user="km2bp" version="2">
		<tag k="name" v="Mule vesle" />
		<tag k="place" v="farm" />
		<tag k="ssr:stedsnr" v="821538" />
		<tag k="ssr:type" v="bruk" />
	</node>
	<node changeset="59116087" id="5629892639" lat="58.9983389" lon="8.5744694" timestamp="2018-05-20T06:05:46Z" uid="3842253" user="NKA_import" version="1">
		<tag k="alt_name" v="Sønderland nedre" />
		<tag k="name" v="Sønderland" />
		<tag k="place" v="farm" />
		<tag k="ssr:stedsnr" v="365294" />
		<tag k="ssr:type" v="bruk" />
	</node>
	<node changeset="59116087" id="5629892640" lat="59.1621528" lon="8.5139306" timestamp="2018-05-20T06:05:46Z" uid="3842253" user="NKA_import" version="1">
		<tag k="name" v="Tveit øvre" />
		<tag k="place" v="farm" />
		<tag k="ssr:stedsnr" v="821559" />
		<tag k="ssr:type" v="bruk" />
	</node>
	<node changeset="59116087" id="5629892641" lat="59.1397222" lon="8.6205306" timestamp="2018-05-20T06:05:46Z" uid="3842253" user="NKA_import" version="1">
		<tag k="name" v="Raundalen" />
		<tag k="place" v="locality" />
		<tag k="ssr:stedsnr" v="123730" />
		<tag k="ssr:type" v="gammelBosettingsplass" />
	</node>
	<node changeset="59116087" id="5629892642" lat="59.1543417" lon="8.5395222" timestamp="2018-05-20T06:05:46Z" uid="3842253" user="NKA_import" version="1">
		<tag k="name" v="Rafoss" />
		<tag k="place" v="farm" />
		<tag k="ssr:stedsnr" v="123769" />
		<tag k="ssr:type" v="bruk" />
	</node>
	<node changeset="59116087" id="5629892643" lat="59.1302722" lon="8.5430833" timestamp="2018-05-20T06:05:46Z" uid="3842253" user="NKA_import" version="1">
		<tag k="alt_name" v="Vehusstøylen" />
		<tag k="historic" v="shieling" />
		<tag k="name" v="Vehus" />
		<tag k="place" v="locality" />
		<tag k="ssr:stedsnr" v="700868" />
		<tag k="ssr:type" v="seterStøl" />
	</node>
	<node changeset="59116087" id="5629892644" lat="59.2082556" lon="8.3058111" timestamp="2018-05-20T06:05:46Z" uid="3842253" user="NKA_import" version="1">
		<tag k="building" v="cabin" />
		<tag k="name" v="Dyrvasshytta" />
		<tag k="place" v="isolated_dwelling" />
		<tag k="ssr:stedsnr" v="957173" />
		<tag k="ssr:type" v="fritidsbolig" />
	</node>
	<node changeset="59116087" id="5629892645" lat="59.1624417" lon="8.5386667" timestamp="2018-05-20T06:05:46Z" uid="3842253" user="NKA_import" version="1">
		<tag k="name" v="Grimstveit nedre" />
		<tag k="place" v="farm" />
		<tag k="ssr:stedsnr" v="821570" />
		<tag k="ssr:type" v="bruk" />
	</node>
	<node changeset="59116087" id="5629892646" lat="59.1466611" lon="8.4208278" timestamp="2018-05-20T06:05:46Z" uid="3842253" user="NKA_import" version="1">
		<tag k="historic" v="shieling" />
		<tag k="name" v="Sigurdstøyl" />
		<tag k="place" v="locality" />
		<tag k="ssr:stedsnr" v="957201" />
		<tag k="ssr:type" v="gammelBosettingsplass" />
	</node>
	<node changeset="59116087" id="5629892647" lat="59.1647167" lon="8.5492722" timestamp="2018-05-20T06:05:46Z" uid="3842253" user="NKA_import" version="1">
		<tag k="name" v="Moen" />
		<tag k="place" v="farm" />
		<tag k="ssr:stedsnr" v="123786" />
		<tag k="ssr:type" v="bruk" />
	</node>
	<node changeset="59116087" id="5629892648" lat="59.0896124" lon="8.5384271" timestamp="2018-05-20T06:05:46Z" uid="3842253" user="NKA_import" version="1">
		<tag k="alt_name" v="Midtstrond" />
		<tag k="name" v="Mellomstrånd" />
		<tag k="place" v="farm" />
		<tag k="ssr:stedsnr" v="821594" />
		<tag k="ssr:type" v="bruk" />
	</node>
	<node changeset="59116087" id="5629892649" lat="59.0033083" lon="8.6492667" timestamp="2018-05-20T06:05:46Z" uid="3842253" user="NKA_import" version="1">
		<tag k="alt_name" v="Breivasskleivane" />
		<tag k="name" v="Breidvasskleivane" />
		<tag k="place" v="locality" />
		<tag k="ssr:stedsnr" v="244503" />
		<tag k="ssr:type" v="eiendom" />
	</node>
	<node changeset="59116087" id="5629892650" lat="59.2099056" lon="8.5196028" timestamp="2018-05-20T06:05:47Z" uid="3842253" user="NKA_import" version="1">
		<tag k="name" v="Øvre Rønningen" />
		<tag k="place" v="farm" />
		<tag k="ssr:stedsnr" v="821601" />
		<tag k="ssr:type" v="bruk" />
	</node>
	<node changeset="59116087" id="5629892651" lat="59.1598917" lon="8.529775" timestamp="2018-05-20T06:05:47Z" uid="3842253" user="NKA_import" version="1">
		<tag k="alt_name" v="Mule store" />
		<tag k="name" v="Mule" />
		<tag k="place" v="hamlet" />
		<tag k="ssr:stedsnr" v="123792" />
		<tag k="ssr:type" v="bruk" />
	</node>
	<node changeset="59116087" id="5629892652" lat="59.215875" lon="8.6292167" timestamp="2018-05-20T06:05:47Z" uid="3842253" user="NKA_import" version="1">
		<tag k="alt_name" v="Floklia" />
		<tag k="name" v="Floklii" />
		<tag k="place" v="locality" />
		<tag k="ssr:stedsnr" v="123909" />
		<tag k="ssr:type" v="gammelBosettingsplass" />
	</node>
	<node changeset="59116087" id="5629892653" lat="59.2130694" lon="8.5869833" timestamp="2018-05-20T06:05:47Z" uid="3842253" user="NKA_import" version="1">
		<tag k="name" v="Jåmtveit" />
		<tag k="place" v="locality" />
		<tag k="ssr:stedsnr" v="32933" />
		<tag k="ssr:type" v="gammelBosettingsplass" />
	</node>
	<node changeset="59116087" id="5629892654" lat="59.2138611" lon="8.5227695" timestamp="2018-05-20T06:05:47Z" uid="3842253" user="NKA_import" version="1">
		<tag k="name" v="Skogen" />
		<tag k="place" v="locality" />
		<tag k="ssr:stedsnr" v="123928" />
		<tag k="ssr:type" v="gammelBosettingsplass" />
	</node>
	<node changeset="59116087" id="5629892655" lat="58.977075" lon="8.5210972" timestamp="2018-05-20T06:05:47Z" uid="3842253" user="NKA_import" version="1">
		<tag k="name" v="Vatne" />
		<tag k="place" v="isolated_dwelling" />
		<tag k="ssr:stedsnr" v="701386" />
		<tag k="ssr:type" v="eneboligMindreBoligbygg" />
	</node>
	<node changeset="59116087" id="5629892656" lat="59.0931667" lon="8.4465445" timestamp="2018-05-20T06:05:47Z" uid="3842253" user="NKA_import" version="1">
		<tag k="historic" v="shieling" />
		<tag k="name" v="Rotstøylen" />
		<tag k="place" v="locality" />
		<tag k="ssr:stedsnr" v="957253" />
		<tag k="ssr:type" v="gammelBosettingsplass" />
	</node>
	<node changeset="59116087" id="5629892657" lat="58.9987681" lon="8.4699006" timestamp="2018-05-20T06:05:47Z" uid="3842253" user="NKA_import" version="1">
		<tag k="building" v="farm_auxiliary" />
		<tag k="historic" v="shieling" />
		<tag k="name" v="Hågstøylbua" />
		<tag k="place" v="locality" />
		<tag k="ssr:stedsnr" v="957259" />
		<tag k="ssr:type" v="byggForJordbrukFiskeOgFangst" />
	</node>
	<node changeset="59116087" id="5629892658" lat="58.9186417" lon="8.680775" timestamp="2018-05-20T06:05:47Z" uid="3842253" user="NKA_import" version="1">
		<tag k="name" v="Godli" />
		<tag k="place" v="isolated_dwelling" />
		<tag k="ssr:stedsnr" v="365393" />
		<tag k="ssr:type" v="eneboligMindreBoligbygg" />
	</node>
	<node changeset="59116087" id="5629892659" lat="59.1277278" lon="8.5309889" timestamp="2018-05-20T06:05:47Z" uid="3842253" user="NKA_import" version="1">
		<tag k="historic" v="shieling" />
		<tag k="name" v="Fjellstøyl" />
		<tag k="place" v="locality" />
		<tag k="ssr:stedsnr" v="153385" />
		<tag k="ssr:type" v="gammelBosettingsplass" />
	</node>
	<node changeset="59116087" id="5629892660" lat="58.9805444" lon="8.5076167" timestamp="2018-05-20T06:05:47Z" uid="3842253" user="NKA_import" version="1">
		<tag k="building" v="farm_auxiliary" />
		<tag k="name" v="Svarthølbua" />
		<tag k="place" v="locality" />
		<tag k="ssr:stedsnr" v="701429" />
		<tag k="ssr:type" v="byggForJordbrukFiskeOgFangst" />
	</node>
	<node changeset="59116087" id="5629892661" lat="59.1651861" lon="8.5154806" timestamp="2018-05-20T06:05:48Z" uid="3842253" user="NKA_import" version="1">
		<tag k="name" v="Bråten" />
		<tag k="place" v="locality" />
		<tag k="ssr:stedsnr" v="32980" />
		<tag k="ssr:type" v="gammelBosettingsplass" />
	</node>
	<node changeset="59116087" id="5629892662" lat="59.1558333" lon="8.4525417" timestamp="2018-05-20T06:05:48Z" uid="3842253" user="NKA_import" version="1">
		<tag k="name" v="Solvang" />
		<tag k="place" v="isolated_dwelling" />
		<tag k="ssr:stedsnr" v="957404" />
		<tag k="ssr:type" v="eneboligMindreBoligbygg" />
	</node>
	<node changeset="59116087" id="5629892663" lat="59.0130472" lon="8.6357306" timestamp="2018-05-20T06:05:48Z" uid="3842253" user="NKA_import" version="1">
		<tag k="name" v="Hungersbu" />
		<tag k="place" v="locality" />
		<tag k="ssr:stedsnr" v="580126" />
		<tag k="ssr:type" v="gammelBosettingsplass" />
	</node>
	<node changeset="59116087" id="5629892664" lat="59.1577389" lon="8.534925" timestamp="2018-05-20T06:05:48Z" uid="3842253" user="NKA_import" version="1">
		<tag k="name" v="Brekke" />
		<tag k="place" v="hamlet" />
		<tag k="ssr:stedsnr" v="244766" />
		<tag k="ssr:type" v="bruk" />
	</node>
	<node changeset="59116087" id="5629892665" lat="58.9296139" lon="8.3592278" timestamp="2018-05-20T06:05:48Z" uid="3842253" user="NKA_import" version="1">
		<tag k="historic" v="shieling" />
		<tag k="name" v="Steinheimoen Espestøyl" />
		<tag k="place" v="farm" />
		<tag k="ssr:stedsnr" v="531793" />
		<tag k="ssr:type" v="bruk" />
	</node>
	<node changeset="59116087" id="5629892666" lat="58.9647917" lon="8.5156111" timestamp="2018-05-20T06:05:48Z" uid="3842253" user="NKA_import" version="1">
		<tag k="name" v="Holmen" />
		<tag k="place" v="square" />
		<tag k="ssr:stedsnr" v="33544" />
		<tag k="ssr:type" v="torg" />
	</node>
	<node changeset="59116087" id="5629892667" lat="59.0286694" lon="8.5173778" timestamp="2018-05-20T06:05:48Z" uid="3842253" user="NKA_import" version="1">
		<tag k="name" v="Stykket" />
		<tag k="place" v="farm" />
		<tag k="ssr:stedsnr" v="580199" />
		<tag k="ssr:type" v="bruk" />
	</node>
	<node changeset="59116087" id="5629892668" lat="59.1007861" lon="8.4510417" timestamp="2018-05-20T06:05:48Z" uid="3842253" user="NKA_import" version="1">
		<tag k="historic" v="shieling" />
		<tag k="name" v="Vatneli" />
		<tag k="place" v="locality" />
		<tag k="ssr:stedsnr" v="532019" />
		<tag k="ssr:type" v="seterStøl" />
	</node>
	<node changeset="59116087" id="5629892669" lat="58.9968222" lon="8.5733667" timestamp="2018-05-20T06:05:48Z" uid="3842253" user="NKA_import" version="1">
		<tag k="name" v="Åsland" />
		<tag k="place" v="farm" />
		<tag k="ssr:stedsnr" v="701781" />
		<tag k="ssr:type" v="bruk" />
	</node>
	<node changeset="59116087" id="5629892670" lat="58.9871416" lon="8.3519493" timestamp="2018-05-20T06:05:48Z" uid="3842253" user="NKA_import" version="1">
		<tag k="building" v="cabin" />
		<tag k="name" v="Fjellheim" />
		<tag k="place" v="isolated_dwelling" />
		<tag k="ssr:stedsnr" v="244857" />
		<tag k="ssr:type" v="fritidsbolig" />
	</node>
	<node changeset="59116087" id="5629892672" lat="58.9754277" lon="8.5152395" timestamp="2018-05-20T06:05:48Z" uid="3842253" user="NKA_import" version="1">
		<tag k="name" v="Tjønnefoss skole" />
		<tag k="place" v="locality" />
		<tag k="ssr:stedsnr" v="580252" />
		<tag k="ssr:type" v="skole" />
	</node>
	<node changeset="59116087" id="5629892673" lat="59.0788917" lon="8.4292056" timestamp="2018-05-20T06:05:49Z" uid="3842253" user="NKA_import" version="1">
		<tag k="historic" v="shieling" />
		<tag k="name" v="Slettåsstøylen" />
		<tag k="place" v="locality" />
		<tag k="ssr:stedsnr" v="957470" />
		<tag k="ssr:type" v="gammelBosettingsplass" />
	</node>
	<node changeset="59116087" id="5629892674" lat="59.0773278" lon="8.5551222" timestamp="2018-05-20T06:05:49Z" uid="3842253" user="NKA_import" version="1">
		<tag k="historic" v="shieling" />
		<tag k="name" v="Klyvstøyl" />
		<tag k="place" v="locality" />
		<tag k="ssr:stedsnr" v="33617" />
		<tag k="ssr:type" v="gammelBosettingsplass" />
	</node>
	<node changeset="59116087" id="5629892675" lat="59.2038528" lon="8.6067778" timestamp="2018-05-20T06:05:49Z" uid="3842253" user="NKA_import" version="1">
		<tag k="historic" v="shieling" />
		<tag k="name" v="Hongli" />
		<tag k="place" v="locality" />
		<tag k="ssr:stedsnr" v="244893" />
		<tag k="ssr:type" v="seterStøl" />
	</node>
	<node changeset="59116087" id="5629892676" lat="59.0021244" lon="8.5808296" timestamp="2018-05-20T06:05:49Z" uid="3842253" user="NKA_import" version="1">
		<tag k="building" v="industrial" />
		<tag k="name" v="Laudal sagbruk" />
		<tag k="ssr:stedsnr" v="33765" />
		<tag k="ssr:type" v="annenIndustri-OgLagerbygning" />
	</node>
	<node changeset="59116087" id="5629892677" lat="59.1687722" lon="8.4609583" timestamp="2018-05-20T06:05:49Z" uid="3842253" user="NKA_import" version="1">
		<tag k="name" v="Solheim" />
		<tag k="place" v="isolated_dwelling" />
		<tag k="ssr:stedsnr" v="957549" />
		<tag k="ssr:type" v="eneboligMindreBoligbygg" />
	</node>
	<node changeset="59116087" id="5629892678" lat="59.0525333" lon="8.5162833" timestamp="2018-05-20T06:05:49Z" uid="3842253" user="NKA_import" version="1">
		<tag k="name" v="Sandvik" />
		<tag k="place" v="locality" />
		<tag k="ssr:stedsnr" v="580452" />
		<tag k="ssr:type" v="gammelBosettingsplass" />
	</node>
	<node changeset="59116087" id="5629892679" lat="58.9954" lon="8.5770111" timestamp="2018-05-20T06:05:49Z" uid="3842253" user="NKA_import" version="1">
		<tag k="name" v="Kåsa" />
		<tag k="place" v="locality" />
		<tag k="ssr:stedsnr" v="822774" />
		<tag k="ssr:type" v="gammelBosettingsplass" />
	</node>
	<node changeset="59116087" id="5629892680" lat="59.1917639" lon="8.6050722" timestamp="2018-05-20T06:05:49Z" uid="3842253" user="NKA_import" version="1">
		<tag k="alt_name" v="Gudbjørglia" />
		<tag k="name" v="Gudbjørlii" />
		<tag k="place" v="locality" />
		<tag k="ssr:stedsnr" v="365855" />
		<tag k="ssr:type" v="gammelBosettingsplass" />
	</node>
	<node changeset="59116087" id="5629892681" lat="59.1407778" lon="8.4554306" timestamp="2018-05-20T06:05:49Z" uid="3842253" user="NKA_import" version="1">
		<tag k="name" v="Modøl" />
		<tag k="place" v="locality" />
		<tag k="ssr:stedsnr" v="957587" />
		<tag k="ssr:type" v="fritidsbolig" />
	</node>
	<node changeset="59116087" id="5629892682" lat="58.9131528" lon="8.4015861" timestamp="2018-05-20T06:05:49Z" uid="3842253" user="NKA_import" version="1">
		<tag k="historic" v="shieling" />
		<tag k="name" v="Ugledalsseteren" />
		<tag k="place" v="locality" />
		<tag k="ssr:stedsnr" v="957746" />
		<tag k="ssr:type" v="seterStøl" />
	</node>
	<node changeset="59116087" id="5629892683" lat="59.0876389" lon="8.4677861" timestamp="2018-05-20T06:05:49Z" uid="3842253" user="NKA_import" version="1">
		<tag k="name" v="Åkre" />
		<tag k="place" v="farm" />
		<tag k="ssr:stedsnr" v="245149" />
		<tag k="ssr:type" v="bruk" />
	</node>
	<node changeset="59116087" id="5629892684" lat="59.0284778" lon="8.5373861" timestamp="2018-05-20T06:05:49Z" uid="3842253" user="NKA_import" version="1">
		<tag k="name" v="Uppistog" />
		<tag k="place" v="farm" />
		<tag k="ssr:stedsnr" v="580833" />
		<tag k="ssr:type" v="bruk" />
	</node>
	<node changeset="59116087" id="5629892685" lat="59.007475" lon="8.5874305" timestamp="2018-05-20T06:05:50Z" uid="3842253" user="NKA_import" version="1">
		<tag k="name" v="Lillesand" />
		<tag k="place" v="locality" />
		<tag k="ssr:stedsnr" v="33878" />
		<tag k="ssr:type" v="badeplass" />
	</node>
	<node changeset="59116087" id="5629892686" lat="59.0132833" lon="8.4821056" timestamp="2018-05-20T06:05:50Z" uid="3842253" user="NKA_import" version="1">
		<tag k="name" v="Gaurakskleivane" />
		<tag k="place" v="locality" />
		<tag k="ssr:stedsnr" v="245434" />
		<tag k="ssr:type" v="eiendom" />
	</node>
	<node changeset="59116087" id="5629892687" lat="59.1960427" lon="8.3103275" timestamp="2018-05-20T06:05:50Z" uid="3842253" user="NKA_import" version="1">
		<tag k="building" v="cabin" />
		<tag k="name" v="Dyrvassbu" />
		<tag k="place" v="isolated_dwelling" />
		<tag k="ssr:stedsnr" v="957867" />
		<tag k="ssr:type" v="fritidsbolig" />
	</node>
	<node changeset="59116087" id="5629892688" lat="58.9531076" lon="8.5119244" timestamp="2018-05-20T06:05:50Z" uid="3842253" user="NKA_import" version="1">
		<tag k="name" v="Høgefoss" />
		<tag k="place" v="hamlet" />
		<tag k="ssr:stedsnr" v="155374" />
		<tag k="ssr:type" v="bygdelagBygd" />
	</node>
	<node changeset="59116087" id="5629892689" lat="59.000775" lon="8.5720472" timestamp="2018-05-20T06:05:50Z" uid="3842253" user="NKA_import" version="1">
		<tag k="name" v="Nordmo" />
		<tag k="place" v="farm" />
		<tag k="ssr:stedsnr" v="822937" />
		<tag k="ssr:type" v="bruk" />
	</node>
	<node changeset="59116087" id="5629892690" lat="59.2151028" lon="8.4398" timestamp="2018-05-20T06:05:50Z" uid="3842253" user="NKA_import" version="1">
		<tag k="alt_name" v="Lindefjellstøylen" />
		<tag k="historic" v="shieling" />
		<tag k="name" v="Lindefjellstøl" />
		<tag k="place" v="locality" />
		<tag k="ssr:stedsnr" v="366042" />
		<tag k="ssr:type" v="seterStøl" />
	</node>
	<node changeset="59116087" id="5629892691" lat="59.1269806" lon="8.44915" timestamp="2018-05-20T06:05:50Z" uid="3842253" user="NKA_import" version="1">
		<tag k="name" v="Håtveit" />
		<tag k="place" v="farm" />
		<tag k="ssr:stedsnr" v="366124" />
		<tag k="ssr:type" v="bruk" />
	</node>
	<node changeset="59116087" id="5629892692" lat="59.1629361" lon="8.5368167" timestamp="2018-05-20T06:05:50Z" uid="3842253" user="NKA_import" version="1">
		<tag k="alt_name" v="Grimstveit nordre" />
		<tag k="name" v="Grimstveit" />
		<tag k="place" v="hamlet" />
		<tag k="ssr:stedsnr" v="245761" />
		<tag k="ssr:type" v="bruk" />
	</node>
	<node changeset="59116087" id="5629892693" lat="59.1551528" lon="8.4481722" timestamp="2018-05-20T06:05:50Z" uid="3842253" user="NKA_import" version="1">
		<tag k="name" v="Hesmyr" />
		<tag k="place" v="isolated_dwelling" />
		<tag k="ssr:stedsnr" v="532384" />
		<tag k="ssr:type" v="eneboligMindreBoligbygg" />
	</node>
	<node changeset="59116087" id="5629892694" lat="58.8929944" lon="8.6944333" timestamp="2018-05-20T06:05:50Z" uid="3842253" user="NKA_import" version="1">
		<tag k="name" v="Modalen" />
		<tag k="place" v="locality" />
		<tag k="ssr:stedsnr" v="581113" />
		<tag k="ssr:type" v="gammelBosettingsplass" />
	</node>
	<node changeset="59116087" id="5629892695" lat="59.0953277" lon="8.4879978" timestamp="2018-05-20T06:05:50Z" uid="3842253" user="NKA_import" version="1">
		<tag k="name" v="Evja" />
		<tag k="place" v="farm" />
		<tag k="ssr:stedsnr" v="366633" />
		<tag k="ssr:type" v="bruk" />
	</node>
	<node changeset="59116087" id="5629892696" lat="58.9719944" lon="8.514325" timestamp="2018-05-20T06:05:50Z" uid="3842253" user="NKA_import" version="1">
		<tag k="name" v="Valle" />
		<tag k="place" v="isolated_dwelling" />
		<tag k="ssr:stedsnr" v="425253" />
		<tag k="ssr:type" v="eneboligMindreBoligbygg" />
	</node>
	<node changeset="59116087" id="5629892697" lat="58.9759694" lon="8.5134611" timestamp="2018-05-20T06:05:51Z" uid="3842253" user="NKA_import" version="1">
		<tag k="name" v="Holte" />
		<tag k="place" v="isolated_dwelling" />
		<tag k="ssr:stedsnr" v="425255" />
		<tag k="ssr:type" v="eneboligMindreBoligbygg" />
	</node>
	<node changeset="59116087" id="5629892698" lat="58.8717278" lon="8.7165222" timestamp="2018-05-20T06:05:51Z" uid="3842253" user="NKA_import" version="1">
		<tag k="historic" v="shieling" />
		<tag k="name" v="Ørnefjelløygard" />
		<tag k="place" v="locality" />
		<tag k="ssr:stedsnr" v="581151" />
		<tag k="ssr:type" v="seterStøl" />
	</node>
	<node changeset="59116087" id="5629892699" lat="59.0006056" lon="8.5836333" timestamp="2018-05-20T06:05:51Z" uid="3842253" user="NKA_import" version="1">
		<tag k="name" v="Jordet" />
		<tag k="place" v="farm" />
		<tag k="ssr:stedsnr" v="155749" />
		<tag k="ssr:type" v="bruk" />
	</node>
	<node changeset="59116087" id="5629892700" lat="59.0262806" lon="8.5104055" timestamp="2018-05-20T06:05:51Z" uid="3842253" user="NKA_import" version="1">
		<tag k="name" v="Smeitsund" />
		<tag k="place" v="farm" />
		<tag k="ssr:stedsnr" v="823197" />
		<tag k="ssr:type" v="bruk" />
	</node>
	<node changeset="59116087" id="5629892701" lat="59.1529444" lon="8.538979" timestamp="2018-05-20T06:05:51Z" uid="3842253" user="NKA_import" version="1">
		<tag k="name" v="Litveit" />
		<tag k="place" v="farm" />
		<tag k="ssr:stedsnr" v="366740" />
		<tag k="ssr:type" v="bruk" />
	</node>
	<node changeset="59116087" id="5629892702" lat="59.1696222" lon="8.5590278" timestamp="2018-05-20T06:05:51Z" uid="3842253" user="NKA_import" version="1">
		<tag k="alt_name" v="Lyslia" />
		<tag k="name" v="Lyslii" />
		<tag k="place" v="locality" />
		<tag k="ssr:stedsnr" v="366786" />
		<tag k="ssr:type" v="gammelBosettingsplass" />
	</node>
	<node changeset="59116087" id="5629892703" lat="58.9050573" lon="8.7407765" timestamp="2018-05-20T06:05:51Z" uid="3842253" user="NKA_import" version="1">
		<tag k="alt_name" v="Vestre Bakken" />
		<tag k="name" v="Vestigard" />
		<tag k="place" v="farm" />
		<tag k="ssr:stedsnr" v="703352" />
		<tag k="ssr:type" v="bruk" />
	</node>
	<node changeset="59116087" id="5629892704" lat="59.0123417" lon="8.5064222" timestamp="2018-05-20T06:05:51Z" uid="3842253" user="NKA_import" version="1">
		<tag k="name" v="Skibakken" />
		<tag k="place" v="locality" />
		<tag k="ssr:stedsnr" v="34939" />
		<tag k="ssr:type" v="alpinanlegg" />
	</node>
	<node changeset="59116087" id="5629892705" lat="59.0999056" lon="8.5673583" timestamp="2018-05-20T06:05:51Z" uid="3842253" user="NKA_import" version="1">
		<tag k="historic" v="shieling" />
		<tag k="name" v="Tjovhommen" />
		<tag k="place" v="locality" />
		<tag k="ssr:stedsnr" v="396217" />
		<tag k="ssr:type" v="seterStøl" />
	</node>
	<node changeset="59116087" id="5629892706" lat="59.00385" lon="8.6731111" timestamp="2018-05-20T06:05:51Z" uid="3842253" user="NKA_import" version="1">
		<tag k="building" v="cabin" />
		<tag k="name" v="Breivasshytta" />
		<tag k="place" v="isolated_dwelling" />
		<tag k="ssr:stedsnr" v="823655" />
		<tag k="ssr:type" v="fritidsbolig" />
	</node>
	<node changeset="59116087" id="5629892707" lat="58.9698472" lon="8.6511694" timestamp="2018-05-20T06:05:51Z" uid="3842253" user="NKA_import" version="1">
		<tag k="building" v="farm_auxiliary" />
		<tag k="name" v="Vøylhytta" />
		<tag k="place" v="locality" />
		<tag k="ssr:stedsnr" v="703645" />
		<tag k="ssr:type" v="byggForJordbrukFiskeOgFangst" />
	</node>
	<node changeset="59116087" id="5629892708" lat="58.8998667" lon="8.7797305" timestamp="2018-05-20T06:05:51Z" uid="3842253" user="NKA_import" version="1">
		<tag k="name" v="Skåli søndre" />
		<tag k="place" v="farm" />
		<tag k="ssr:stedsnr" v="703672" />
		<tag k="ssr:type" v="bruk" />
	</node>
	<node changeset="59116087" id="5629892709" lat="58.9788389" lon="8.6434833" timestamp="2018-05-20T06:05:52Z" uid="3842253" user="NKA_import" version="1">
		<tag k="building" v="cabin" />
		<tag k="name" v="Mjåvasshytta" />
		<tag k="place" v="isolated_dwelling" />
		<tag k="ssr:stedsnr" v="581912" />
		<tag k="ssr:type" v="fritidsbolig" />
	</node>
	<node changeset="59116087" id="5629892710" lat="58.9791308" lon="8.6477811" timestamp="2018-05-20T06:05:52Z" uid="3842253" user="NKA_import" version="1">
		<tag k="name" v="Grotåhytta" />
		<tag k="place" v="locality" />
		<tag k="ssr:stedsnr" v="703764" />
		<tag k="ssr:type" v="fritidsbolig" />
	</node>
	<node changeset="59116087" id="5629892711" lat="59.1025667" lon="8.5961667" timestamp="2018-05-20T06:05:52Z" uid="3842253" user="NKA_import" version="1">
		<tag k="historic" v="shieling" />
		<tag k="name" v="Nesdalen" />
		<tag k="place" v="locality" />
		<tag k="ssr:stedsnr" v="275441" />
		<tag k="ssr:type" v="seterStøl" />
	</node>
	<node changeset="59116087" id="5629892712" lat="59.0337861" lon="8.51745" timestamp="2018-05-20T06:05:52Z" uid="3842253" user="NKA_import" version="1">
		<tag k="name" v="Lisle Skjeggestad" />
		<tag k="place" v="locality" />
		<tag k="ssr:stedsnr" v="823810" />
		<tag k="ssr:type" v="gammelBosettingsplass" />
	</node>
	<node changeset="59116087" id="5629892713" lat="59.0448694" lon="8.4646861" timestamp="2018-05-20T06:05:52Z" uid="3842253" user="NKA_import" version="1">
		<tag k="name" v="Dalen" />
		<tag k="place" v="locality" />
		<tag k="ssr:stedsnr" v="532825" />
		<tag k="ssr:type" v="gammelBosettingsplass" />
	</node>
	<node changeset="59116087" id="5629892714" lat="59.2038444" lon="8.6067583" timestamp="2018-05-20T06:05:52Z" uid="3842253" user="NKA_import" version="1">
		<tag k="historic" v="shieling" />
		<tag k="name" v="Honglia" />
		<tag k="place" v="locality" />
		<tag k="ssr:stedsnr" v="396581" />
		<tag k="ssr:type" v="seterStøl" />
	</node>
	<node changeset="59116087" id="5629892715" lat="58.8997181" lon="8.4730651" timestamp="2018-05-20T06:05:52Z" uid="3842253" user="NKA_import" version="1">
		<tag k="building" v="farm_auxiliary" />
		<tag k="name" v="Sultenborg" />
		<tag k="place" v="locality" />
		<tag k="ssr:stedsnr" v="532836" />
		<tag k="ssr:type" v="byggForJordbrukFiskeOgFangst" />
	</node>
	<node changeset="59116087" id="5629892716" lat="58.9801333" lon="8.5232306" timestamp="2018-05-20T06:05:52Z" uid="3842253" user="NKA_import" version="1">
		<tag k="name" v="Åsen" />
		<tag k="place" v="farm" />
		<tag k="ssr:stedsnr" v="426267" />
		<tag k="ssr:type" v="bruk" />
	</node>
	<node changeset="59116087" id="5629892717" lat="58.9977865" lon="8.7366479" timestamp="2018-05-20T06:05:52Z" uid="3842253" user="NKA_import" version="1">
		<tag k="building" v="farm_auxiliary" />
		<tag k="name" v="Stolsvassøygarden" />
		<tag k="place" v="locality" />
		<tag k="ssr:stedsnr" v="426270" />
		<tag k="ssr:type" v="byggForJordbrukFiskeOgFangst" />
	</node>
	<node changeset="73147970" id="5629892718" lat="58.9878648" lon="8.4773956" timestamp="2019-08-08T10:40:40Z" uid="439928" user="peterossege" version="2">
		<tag k="name" v="Juva og Engjane" />
		<tag k="place" v="farm" />
		<tag k="ssr:stedsnr" v="426285" />
		<tag k="ssr:type" v="bruk" />
	</node>
	<node changeset="59116087" id="5629892719" lat="58.9010444" lon="8.7759083" timestamp="2018-05-20T06:05:52Z" uid="3842253" user="NKA_import" version="1">
		<tag k="name" v="Nordigard" />
		<tag k="place" v="farm" />
		<tag k="ssr:stedsnr" v="582682" />
		<tag k="ssr:type" v="bruk" />
	</node>
	<node changeset="59116087" id="5629892720" lat="58.9948775" lon="8.5390976" timestamp="2018-05-20T06:05:53Z" uid="3842253" user="NKA_import" version="1">
		<tag k="name" v="Trytetjønn hyttefelt" />
		<tag k="place" v="neighbourhood" />
		<tag k="ssr:stedsnr" v="823943" />
		<tag k="ssr:type" v="hyttefelt" />
	</node>
	<node changeset="59116087" id="5629892921" lat="59.1668472" lon="8.5682694" timestamp="2018-05-20T06:05:53Z" uid="3842253" user="NKA_import" version="1">
		<tag k="historic" v="shieling" />
		<tag k="name" v="Lidvarshaug" />
		<tag k="place" v="locality" />
		<tag k="ssr:stedsnr" v="396668" />
		<tag k="ssr:type" v="seterStøl" />
	</node>
	<node changeset="59116087" id="5629892922" lat="59.1082972" lon="8.39215" timestamp="2018-05-20T06:05:53Z" uid="3842253" user="NKA_import" version="1">
		<tag k="name" v="Ørnekro" />
		<tag k="place" v="locality" />
		<tag k="ssr:stedsnr" v="532891" />
		<tag k="ssr:type" v="byggForJordbrukFiskeOgFangst" />
	</node>
	<node changeset="59116087" id="5629892923" lat="59.2415333" lon="8.516325" timestamp="2018-05-20T06:05:53Z" uid="3842253" user="NKA_import" version="1">
		<tag k="name" v="Fonni" />
		<tag k="place" v="locality" />
		<tag k="ssr:stedsnr" v="396688" />
		<tag k="ssr:type" v="gammelBosettingsplass" />
	</node>
	<node changeset="59116087" id="5629892924" lat="58.8762417" lon="8.7475806" timestamp="2018-05-20T06:05:53Z" uid="3842253" user="NKA_import" version="1">
		<tag k="name" v="Bånmonbua" />
		<tag k="place" v="locality" />
		<tag k="ssr:stedsnr" v="35425" />
		<tag k="ssr:type" v="byggForJordbrukFiskeOgFangst" />
	</node>
	<node changeset="59116087" id="5629892925" lat="58.9287152" lon="8.7520534" timestamp="2018-05-20T06:05:53Z" uid="3842253" user="NKA_import" version="1">
		<tag k="name" v="Sandtjønnlia" />
		<tag k="place" v="neighbourhood" />
		<tag k="ssr:stedsnr" v="703963" />
		<tag k="ssr:type" v="hyttefelt" />
	</node>
	<node changeset="59116087" id="5629892926" lat="59.1331639" lon="8.5070111" timestamp="2018-05-20T06:05:53Z" uid="3842253" user="NKA_import" version="1">
		<tag k="name" v="Matufs" />
		<tag k="place" v="locality" />
		<tag k="ssr:stedsnr" v="275836" />
		<tag k="ssr:type" v="gammelBosettingsplass" />
	</node>
	<node changeset="59116087" id="5629892927" lat="59.1763944" lon="8.5099778" timestamp="2018-05-20T06:05:53Z" uid="3842253" user="NKA_import" version="1">
		<tag k="name" v="Nordal" />
		<tag k="place" v="locality" />
		<tag k="ssr:stedsnr" v="396983" />
		<tag k="ssr:type" v="gammelBosettingsplass" />
	</node>
	<node changeset="59116087" id="5629892928" lat="58.97915" lon="8.6447194" timestamp="2018-05-20T06:05:53Z" uid="3842253" user="NKA_import" version="1">
		<tag k="building" v="cabin" />
		<tag k="name" v="Grotåbua" />
		<tag k="place" v="isolated_dwelling" />
		<tag k="ssr:stedsnr" v="35905" />
		<tag k="ssr:type" v="fritidsbolig" />
	</node>
	<node changeset="59116087" id="5629892929" lat="59.1799306" lon="8.571625" timestamp="2018-05-20T06:05:53Z" uid="3842253" user="NKA_import" version="1">
		<tag k="name" v="Molandshommen" />
		<tag k="place" v="locality" />
		<tag k="ssr:stedsnr" v="275974" />
		<tag k="ssr:type" v="gammelBosettingsplass" />
	</node>
	<node changeset="59116087" id="5629892930" lat="59.1671611" lon="8.5135806" timestamp="2018-05-20T06:05:53Z" uid="3842253" user="NKA_import" version="1">
		<tag k="name" v="Lauvdal" />
		<tag k="place" v="locality" />
		<tag k="ssr:stedsnr" v="396996" />
		<tag k="ssr:type" v="gammelBosettingsplass" />
	</node>
	<node changeset="59116087" id="5629892931" lat="59.1805911" lon="8.5073553" timestamp="2018-05-20T06:05:53Z" uid="3842253" user="NKA_import" version="1">
		<tag k="building" v="industrial" />
		<tag k="name" v="Krita" />
		<tag k="ssr:stedsnr" v="396997" />
		<tag k="ssr:type" v="industriområde" />
	</node>
	<node changeset="59116087" id="5629892932" lat="59.1597889" lon="8.3923139" timestamp="2018-05-20T06:05:54Z" uid="3842253" user="NKA_import" version="1">
		<tag k="name" v="Søgard" />
		<tag k="place" v="farm" />
		<tag k="ssr:stedsnr" v="532995" />
		<tag k="ssr:type" v="bruk" />
	</node>
	<node changeset="59116087" id="5629892933" lat="58.903758" lon="8.7452835" timestamp="2018-05-20T06:05:54Z" uid="3842253" user="NKA_import" version="1">
		<tag k="name" v="Felle" />
		<tag k="place" v="village" />
		<tag k="ssr:stedsnr" v="426441" />
		<tag k="ssr:type" v="bygdelagBygd" />
	</node>
	<node changeset="59116087" id="5629892934" lat="59.1722083" lon="8.6880444" timestamp="2018-05-20T06:05:54Z" uid="3842253" user="NKA_import" version="1">
		<tag k="historic" v="shieling" />
		<tag k="name" v="Den ytre støylen" />
		<tag k="place" v="locality" />
		<tag k="ssr:stedsnr" v="715516" />
		<tag k="ssr:type" v="gammelBosettingsplass" />
	</node>
	<node changeset="59116087" id="5629892935" lat="59.0109444" lon="8.7622039" timestamp="2018-05-20T06:05:54Z" uid="3842253" user="NKA_import" version="1">
		<tag k="building" v="cabin" />
		<tag k="name" v="Hellervasshytta" />
		<tag k="place" v="isolated_dwelling" />
		<tag k="ssr:stedsnr" v="533339" />
		<tag k="ssr:type" v="fritidsbolig" />
	</node>
	<node changeset="59116087" id="5629892936" lat="59.0322081" lon="8.5159376" timestamp="2018-05-20T06:05:54Z" uid="3842253" user="NKA_import" version="1">
		<tag k="name" v="Skjeggestad" />
		<tag k="place" v="farm" />
		<tag k="ssr:stedsnr" v="426492" />
		<tag k="ssr:type" v="bruk" />
	</node>
	<node changeset="59116087" id="5629892937" lat="59.0267056" lon="8.3957278" timestamp="2018-05-20T06:05:54Z" uid="3842253" user="NKA_import" version="1">
		<tag k="name" v="Ånund Sollis bu" />
		<tag k="place" v="locality" />
		<tag k="ssr:stedsnr" v="592124" />
		<tag k="ssr:type" v="gammelBosettingsplass" />
	</node>
	<node changeset="59116087" id="5629892938" lat="59.0911556" lon="8.6365528" timestamp="2018-05-20T06:05:54Z" uid="3842253" user="NKA_import" version="1">
		<tag k="name" v="Krossvassbu" />
		<tag k="place" v="locality" />
		<tag k="ssr:stedsnr" v="533465" />
		<tag k="ssr:type" v="gammelBosettingsplass" />
	</node>
	<node changeset="59116087" id="5629892939" lat="59.0032722" lon="8.5772278" timestamp="2018-05-20T06:05:54Z" uid="3842253" user="NKA_import" version="1">
		<tag k="name" v="Bru nedre" />
		<tag k="place" v="farm" />
		<tag k="ssr:stedsnr" v="276801" />
		<tag k="ssr:type" v="bruk" />
	</node>
	<node changeset="59116087" id="5629892940" lat="59.0289694" lon="8.531275" timestamp="2018-05-20T06:05:54Z" uid="3842253" user="NKA_import" version="1">
		<tag k="name" v="Jordet" />
		<tag k="place" v="farm" />
		<tag k="ssr:stedsnr" v="426511" />
		<tag k="ssr:type" v="bruk" />
	</node>
	<node changeset="59116087" id="5629892941" lat="58.9983694" lon="8.5896222" timestamp="2018-05-20T06:05:54Z" uid="3842253" user="NKA_import" version="1">
		<tag k="name" v="Kaldåker" />
		<tag k="place" v="farm" />
		<tag k="ssr:stedsnr" v="276813" />
		<tag k="ssr:type" v="bruk" />
	</node>
	<node changeset="59116087" id="5629892942" lat="59.0456917" lon="8.5175639" timestamp="2018-05-20T06:05:54Z" uid="3842253" user="NKA_import" version="1">
		<tag k="alt_name" v="Napen" />
		<tag k="name" v="Nappen" />
		<tag k="place" v="farm" />
		<tag k="ssr:stedsnr" v="426549" />
		<tag k="ssr:type" v="bruk" />
	</node>
	<node changeset="59116087" id="5629892943" lat="59.0009972" lon="8.5863667" timestamp="2018-05-20T06:05:54Z" uid="3842253" user="NKA_import" version="1">
		<tag k="name" v="Bakkane" />
		<tag k="place" v="farm" />
		<tag k="ssr:stedsnr" v="397773" />
		<tag k="ssr:type" v="bruk" />
	</node>
	<node changeset="59116087" id="5629892944" lat="59.1036111" lon="8.3673694" timestamp="2018-05-20T06:05:54Z" uid="3842253" user="NKA_import" version="1">
		<tag k="historic" v="shieling" />
		<tag k="name" v="Fjellstøyl" />
		<tag k="place" v="locality" />
		<tag k="ssr:stedsnr" v="712697" />
		<tag k="ssr:type" v="gammelBosettingsplass" />
	</node>
	<node changeset="59116087" id="5629892945" lat="58.9972833" lon="8.5836333" timestamp="2018-05-20T06:05:55Z" uid="3842253" user="NKA_import" version="1">
		<tag k="name" v="Haugen" />
		<tag k="place" v="farm" />
		<tag k="ssr:stedsnr" v="397782" />
		<tag k="ssr:type" v="bruk" />
	</node>
	<node changeset="59116087" id="5629892946" lat="59.2148611" lon="8.6158639" timestamp="2018-05-20T06:05:55Z" uid="3842253" user="NKA_import" version="1">
		<tag k="name" v="Åsbog" />
		<tag k="place" v="locality" />
		<tag k="ssr:stedsnr" v="533529" />
		<tag k="ssr:type" v="gammelBosettingsplass" />
	</node>
	<node changeset="59116087" id="5629892947" lat="58.9063278" lon="8.7435195" timestamp="2018-05-20T06:05:55Z" uid="3842253" user="NKA_import" version="1">
		<tag k="alt_name" v="Austre Bakken" />
		<tag k="name" v="Austigard" />
		<tag k="place" v="farm" />
		<tag k="ssr:stedsnr" v="157984" />
		<tag k="ssr:type" v="bruk" />
	</node>
	<node changeset="59116087" id="5629892948" lat="59.0024611" lon="8.5846889" timestamp="2018-05-20T06:05:55Z" uid="3842253" user="NKA_import" version="1">
		<tag k="name" v="Rinden" />
		<tag k="place" v="farm" />
		<tag k="ssr:stedsnr" v="276853" />
		<tag k="ssr:type" v="bruk" />
	</node>
	<node changeset="59116087" id="5629892949" lat="59.0136167" lon="8.5626278" timestamp="2018-05-20T06:05:55Z" uid="3842253" user="NKA_import" version="1">
		<tag k="name" v="Grensen" />
		<tag k="place" v="locality" />
		<tag k="ssr:stedsnr" v="398166" />
		<tag k="ssr:type" v="gammelBosettingsplass" />
	</node>
	<node changeset="59116087" id="5629892950" lat="58.9601306" lon="8.4711389" timestamp="2018-05-20T06:05:55Z" uid="3842253" user="NKA_import" version="1">
		<tag k="name" v="Nistog" />
		<tag k="place" v="farm" />
		<tag k="ssr:stedsnr" v="46024" />
		<tag k="ssr:type" v="bruk" />
	</node>
	<node changeset="59116087" id="5629892951" lat="58.8462" lon="8.7618556" timestamp="2018-05-20T06:05:55Z" uid="3842253" user="NKA_import" version="1">
		<tag k="building" v="cabin" />
		<tag k="name" v="Blekkvasshytta" />
		<tag k="place" v="locality" />
		<tag k="ssr:stedsnr" v="825241" />
		<tag k="ssr:type" v="turisthytte" />
	</node>
	<node changeset="59116087" id="5629892952" lat="59.1767028" lon="8.6397444" timestamp="2018-05-20T06:05:55Z" uid="3842253" user="NKA_import" version="1">
		<tag k="name" v="Rjupehommen" />
		<tag k="place" v="locality" />
		<tag k="ssr:stedsnr" v="533707" />
		<tag k="ssr:type" v="gammelBosettingsplass" />
	</node>
	<node changeset="59116087" id="5629892953" lat="58.9389056" lon="8.4772" timestamp="2018-05-20T06:05:55Z" uid="3842253" user="NKA_import" version="1">
		<tag k="name" v="Berlivollen" />
		<tag k="place" v="locality" />
		<tag k="ssr:stedsnr" v="592457" />
		<tag k="ssr:type" v="gammelBosettingsplass" />
	</node>
	<node changeset="59116087" id="5629892954" lat="59.092225" lon="8.4800389" timestamp="2018-05-20T06:05:55Z" uid="3842253" user="NKA_import" version="1">
		<tag k="name" v="Fjelli" />
		<tag k="place" v="farm" />
		<tag k="ssr:stedsnr" v="46301" />
		<tag k="ssr:type" v="bruk" />
	</node>
	<node changeset="59116087" id="5629892955" lat="58.9041028" lon="8.7423528" timestamp="2018-05-20T06:05:55Z" uid="3842253" user="NKA_import" version="1">
		<tag k="alt_name" v="Nedre Bakken" />
		<tag k="name" v="Negard" />
		<tag k="place" v="farm" />
		<tag k="ssr:stedsnr" v="825253" />
		<tag k="ssr:type" v="bruk" />
	</node>
	<node changeset="59116087" id="5629892956" lat="59.1456111" lon="8.5188139" timestamp="2018-05-20T06:05:55Z" uid="3842253" user="NKA_import" version="1">
		<tag k="name" v="Bergland" />
		<tag k="place" v="farm" />
		<tag k="ssr:stedsnr" v="426745" />
		<tag k="ssr:type" v="bruk" />
	</node>
	<node changeset="59116087" id="5629892957" lat="58.93095" lon="8.4667083" timestamp="2018-05-20T06:05:56Z" uid="3842253" user="NKA_import" version="1">
		<tag k="name" v="Øvre Setane" />
		<tag k="place" v="farm" />
		<tag k="ssr:stedsnr" v="46437" />
		<tag k="ssr:type" v="bruk" />
	</node>
	<node changeset="59116087" id="5629892958" lat="59.0621864" lon="8.4020353" timestamp="2018-05-20T06:05:56Z" uid="3842253" user="NKA_import" version="1">
		<tag k="building" v="farm_auxiliary" />
		<tag k="name" v="Ånondsbu" />
		<tag k="place" v="locality" />
		<tag k="ssr:stedsnr" v="46451" />
		<tag k="ssr:type" v="byggForJordbrukFiskeOgFangst" />
	</node>
	<node changeset="59116087" id="5629892959" lat="58.9038694" lon="8.7714805" timestamp="2018-05-20T06:05:56Z" uid="3842253" user="NKA_import" version="1">
		<tag k="name" v="Skåli vestre" />
		<tag k="place" v="farm" />
		<tag k="ssr:stedsnr" v="825281" />
		<tag k="ssr:type" v="bruk" />
	</node>
	<node changeset="59116087" id="5629892960" lat="59.1581389" lon="8.4572139" timestamp="2018-05-20T06:05:56Z" uid="3842253" user="NKA_import" version="1">
		<tag k="name" v="Kvennhushaugen" />
		<tag k="place" v="isolated_dwelling" />
		<tag k="ssr:stedsnr" v="714015" />
		<tag k="ssr:type" v="eneboligMindreBoligbygg" />
	</node>
	<node changeset="59116087" id="5629892961" lat="59.0257806" lon="8.5160972" timestamp="2018-05-20T06:05:56Z" uid="3842253" user="NKA_import" version="1">
		<tag k="name" v="Leirosen" />
		<tag k="place" v="farm" />
		<tag k="ssr:stedsnr" v="277202" />
		<tag k="ssr:type" v="bruk" />
	</node>
	<node changeset="59116087" id="5629892962" lat="58.9761111" lon="8.3841194" timestamp="2018-05-20T06:05:56Z" uid="3842253" user="NKA_import" version="1">
		<tag k="name" v="Flathall" />
		<tag k="place" v="locality" />
		<tag k="ssr:stedsnr" v="592543" />
		<tag k="ssr:type" v="gammelBosettingsplass" />
	</node>
	<node changeset="59116087" id="5629892963" lat="59.0288775" lon="8.5130103" timestamp="2018-05-20T06:05:56Z" uid="3842253" user="NKA_import" version="1">
		<tag k="name" v="Smeitkollen" />
		<tag k="place" v="neighbourhood" />
		<tag k="ssr:stedsnr" v="277205" />
		<tag k="ssr:type" v="boligfelt" />
	</node>
	<node changeset="59116087" id="5629892964" lat="59.1607472" lon="8.4620611" timestamp="2018-05-20T06:05:56Z" uid="3842253" user="NKA_import" version="1">
		<tag k="name" v="Nigard Fjone" />
		<tag k="place" v="farm" />
		<tag k="ssr:stedsnr" v="714023" />
		<tag k="ssr:type" v="bruk" />
	</node>
	<node changeset="59116087" id="5629892965" lat="58.9595472" lon="8.4730833" timestamp="2018-05-20T06:05:56Z" uid="3842253" user="NKA_import" version="1">
		<tag k="name" v="Rondehaug" />
		<tag k="place" v="farm" />
		<tag k="ssr:stedsnr" v="167019" />
		<tag k="ssr:type" v="bruk" />
	</node>
	<node changeset="59116087" id="5629892966" lat="58.9760972" lon="8.5208861" timestamp="2018-05-20T06:05:56Z" uid="3842253" user="NKA_import" version="1">
		<tag k="name" v="Dalemo" />
		<tag k="place" v="isolated_dwelling" />
		<tag k="ssr:stedsnr" v="277274" />
		<tag k="ssr:type" v="eneboligMindreBoligbygg" />
	</node>
	<node changeset="59116087" id="5629892967" lat="58.9740333" lon="8.5642194" timestamp="2018-05-20T06:05:56Z" uid="3842253" user="NKA_import" version="1">
		<tag k="building" v="cabin" />
		<tag k="name" v="Eldhuset" />
		<tag k="place" v="isolated_dwelling" />
		<tag k="ssr:stedsnr" v="546335" />
		<tag k="ssr:type" v="fritidsbolig" />
	</node>
	<node changeset="59116087" id="5629892968" lat="59.1296275" lon="8.4712935" timestamp="2018-05-20T06:05:56Z" uid="3842253" user="NKA_import" version="1">
		<tag k="alt_name" v="Nygard" />
		<tag k="name" v="Nygård" />
		<tag k="place" v="isolated_dwelling" />
		<tag k="ssr:stedsnr" v="593329" />
		<tag k="ssr:type" v="eneboligMindreBoligbygg" />
	</node>
	<node changeset="59116087" id="5629892969" lat="59.1335111" lon="8.4622639" timestamp="2018-05-20T06:05:57Z" uid="3842253" user="NKA_import" version="1">
		<tag k="name" v="Heimtun" />
		<tag k="place" v="isolated_dwelling" />
		<tag k="ssr:stedsnr" v="593331" />
		<tag k="ssr:type" v="eneboligMindreBoligbygg" />
	</node>
	<node changeset="59116087" id="5629892970" lat="58.9517918" lon="8.3675913" timestamp="2018-05-20T06:05:57Z" uid="3842253" user="NKA_import" version="1">
		<tag k="name" v="Fossheim" />
		<tag k="place" v="locality" />
		<tag k="ssr:stedsnr" v="426916" />
		<tag k="ssr:type" v="fritidsbolig" />
	</node>
	<node changeset="59116087" id="5629892971" lat="59.1317861" lon="8.464025" timestamp="2018-05-20T06:05:57Z" uid="3842253" user="NKA_import" version="1">
		<tag k="name" v="Breivik" />
		<tag k="place" v="farm" />
		<tag k="ssr:stedsnr" v="593333" />
		<tag k="ssr:type" v="bruk" />
	</node>
	<node changeset="59116087" id="5629892972" lat="59.0548611" lon="8.5792722" timestamp="2018-05-20T06:05:57Z" uid="3842253" user="NKA_import" version="1">
		<tag k="building" v="cabin" />
		<tag k="name" v="To-lillbu" />
		<tag k="place" v="isolated_dwelling" />
		<tag k="ssr:stedsnr" v="277544" />
		<tag k="ssr:type" v="fritidsbolig" />
	</node>
	<node changeset="59116087" id="5629892973" lat="59.0246028" lon="8.6098694" timestamp="2018-05-20T06:05:57Z" uid="3842253" user="NKA_import" version="1">
		<tag k="historic" v="shieling" />
		<tag k="name" v="Nordgard Støyl" />
		<tag k="place" v="farm" />
		<tag k="ssr:stedsnr" v="47036" />
		<tag k="ssr:type" v="bruk" />
	</node>
	<node changeset="59116087" id="5629892974" lat="58.9292083" lon="8.3515361" timestamp="2018-05-20T06:05:57Z" uid="3842253" user="NKA_import" version="1">
		<tag k="historic" v="shieling" />
		<tag k="name" v="Moen Espestøyl" />
		<tag k="place" v="farm" />
		<tag k="ssr:stedsnr" v="167790" />
		<tag k="ssr:type" v="bruk" />
	</node>
	<node changeset="59116087" id="5629892975" lat="59.0321056" lon="8.6873639" timestamp="2018-05-20T06:05:57Z" uid="3842253" user="NKA_import" version="1">
		<tag k="name" v="Slåttebu" />
		<tag k="place" v="locality" />
		<tag k="ssr:stedsnr" v="714182" />
		<tag k="ssr:type" v="gammelBosettingsplass" />
	</node>
	<node changeset="59116087" id="5629892976" lat="59.0150639" lon="8.5243417" timestamp="2018-05-20T06:05:57Z" uid="3842253" user="NKA_import" version="1">
		<tag k="name" v="Sundsmoen" />
		<tag k="place" v="neighbourhood" />
		<tag k="ssr:stedsnr" v="277951" />
		<tag k="ssr:type" v="annenIndustri-OgLagerbygning" />
	</node>
	<node changeset="59116087" id="5629892977" lat="59.1567417" lon="8.4654083" timestamp="2018-05-20T06:05:57Z" uid="3842253" user="NKA_import" version="1">
		<tag k="name" v="Haugen" />
		<tag k="place" v="farm" />
		<tag k="ssr:stedsnr" v="593116" />
		<tag k="ssr:type" v="bruk" />
	</node>
	<node changeset="59116087" id="5629892978" lat="59.087125" lon="8.4515056" timestamp="2018-05-20T06:05:57Z" uid="3842253" user="NKA_import" version="1">
		<tag k="name" v="Øykosa" />
		<tag k="place" v="locality" />
		<tag k="ssr:stedsnr" v="714224" />
		<tag k="ssr:type" v="eiendom" />
	</node>
	<node changeset="59116087" id="5629892979" lat="59.1088028" lon="8.4670639" timestamp="2018-05-20T06:05:57Z" uid="3842253" user="NKA_import" version="1">
		<tag k="name" v="Evjekosa" />
		<tag k="place" v="locality" />
		<tag k="ssr:stedsnr" v="168008" />
		<tag k="ssr:type" v="gammelBosettingsplass" />
	</node>
	<node changeset="59116087" id="5629892980" lat="59.1640222" lon="8.4633611" timestamp="2018-05-20T06:05:58Z" uid="3842253" user="NKA_import" version="1">
		<tag k="name" v="Lindestad" />
		<tag k="place" v="isolated_dwelling" />
		<tag k="ssr:stedsnr" v="593121" />
		<tag k="ssr:type" v="eneboligMindreBoligbygg" />
	</node>
	<node changeset="59116087" id="5629892981" lat="59.1638" lon="8.4624528" timestamp="2018-05-20T06:05:58Z" uid="3842253" user="NKA_import" version="1">
		<tag k="name" v="Lauvland" />
		<tag k="place" v="isolated_dwelling" />
		<tag k="ssr:stedsnr" v="47109" />
		<tag k="ssr:type" v="eneboligMindreBoligbygg" />
	</node>
	<node changeset="59116087" id="5629892982" lat="58.9235722" lon="8.6454361" timestamp="2018-05-20T06:05:58Z" uid="3842253" user="NKA_import" version="1">
		<tag k="name" v="Onstad nordre" />
		<tag k="place" v="farm" />
		<tag k="ssr:stedsnr" v="399398" />
		<tag k="ssr:type" v="bruk" />
	</node>
	<node changeset="59116087" id="5629892983" lat="59.0257667" lon="8.6682417" timestamp="2018-05-20T06:05:58Z" uid="3842253" user="NKA_import" version="1">
		<tag k="historic" v="shieling" />
		<tag k="name" v="Mjåvasstøylen" />
		<tag k="place" v="locality" />
		<tag k="ssr:stedsnr" v="47243" />
		<tag k="ssr:type" v="gammelBosettingsplass" />
	</node>
	<node changeset="59116087" id="5629892984" lat="59.0550389" lon="8.3762" timestamp="2018-05-20T06:05:58Z" uid="3842253" user="NKA_import" version="1">
		<tag k="alt_name" v="Nuvassbu" />
		<tag k="name" v="Nuvvassbui" />
		<tag k="place" v="locality" />
		<tag k="ssr:stedsnr" v="547265" />
		<tag k="ssr:type" v="byggForJordbrukFiskeOgFangst" />
	</node>
	<node changeset="59116087" id="5629892985" lat="59.2158361" lon="8.6228194" timestamp="2018-05-20T06:05:58Z" uid="3842253" user="NKA_import" version="1">
		<tag k="historic" v="shieling" />
		<tag k="name" v="Nystøyl" />
		<tag k="place" v="locality" />
		<tag k="ssr:stedsnr" v="593486" />
		<tag k="ssr:type" v="gammelBosettingsplass" />
	</node>
	<node changeset="59116087" id="5629892986" lat="59.0939056" lon="8.4051278" timestamp="2018-05-20T06:05:58Z" uid="3842253" user="NKA_import" version="1">
		<tag k="building" v="cabin" />
		<tag k="name" v="Dukanhytta" />
		<tag k="place" v="isolated_dwelling" />
		<tag k="ssr:stedsnr" v="714413" />
		<tag k="ssr:type" v="fritidsbolig" />
	</node>
	<node changeset="59116087" id="5629892987" lat="59.0775389" lon="8.4622667" timestamp="2018-05-20T06:05:58Z" uid="3842253" user="NKA_import" version="1">
		<tag k="name" v="Øvre Svahommen" />
		<tag k="place" v="locality" />
		<tag k="ssr:stedsnr" v="593492" />
		<tag k="ssr:type" v="gammelBosettingsplass" />
	</node>
	<node changeset="59116087" id="5629892988" lat="59.2040917" lon="8.431175" timestamp="2018-05-20T06:05:58Z" uid="3842253" user="NKA_import" version="1">
		<tag k="name" v="Skuggebuholtet" />
		<tag k="place" v="locality" />
		<tag k="ssr:stedsnr" v="47270" />
		<tag k="ssr:type" v="gammelBosettingsplass" />
	</node>
	<node changeset="59116087" id="5629892989" lat="58.9230006" lon="8.6468396" timestamp="2018-05-20T06:05:58Z" uid="3842253" user="NKA_import" version="1">
		<tag k="name" v="Onstad" />
		<tag k="place" v="hamlet" />
		<tag k="ssr:stedsnr" v="547407" />
		<tag k="ssr:type" v="bruk" />
	</node>
	<node changeset="59116087" id="5629892990" lat="59.1524861" lon="8.5311083" timestamp="2018-05-20T06:05:58Z" uid="3842253" user="NKA_import" version="1">
		<tag k="name" v="Dyrås" />
		<tag k="place" v="farm" />
		<tag k="ssr:stedsnr" v="427719" />
		<tag k="ssr:type" v="bruk" />
	</node>
	<node changeset="59116087" id="5629892991" lat="59.1509917" lon="8.3684917" timestamp="2018-05-20T06:05:58Z" uid="3842253" user="NKA_import" version="1">
		<tag k="name" v="Nedre Dalen" />
		<tag k="place" v="locality" />
		<tag k="ssr:stedsnr" v="714547" />
		<tag k="ssr:type" v="gammelBosettingsplass" />
	</node>
	<node changeset="59116087" id="5629892992" lat="58.9424889" lon="8.4125417" timestamp="2018-05-20T06:05:59Z" uid="3842253" user="NKA_import" version="1">
		<tag k="name" v="Høymyrseteren" />
		<tag k="place" v="locality" />
		<tag k="ssr:stedsnr" v="835288" />
		<tag k="ssr:type" v="gammelBosettingsplass" />
	</node>
	<node changeset="59116087" id="5629892993" lat="59.1600944" lon="8.5154444" timestamp="2018-05-20T06:05:59Z" uid="3842253" user="NKA_import" version="1">
		<tag k="name" v="Bakka" />
		<tag k="place" v="farm" />
		<tag k="ssr:stedsnr" v="457527" />
		<tag k="ssr:type" v="bruk" />
	</node>
	<node changeset="59116087" id="5629892994" lat="59.2001689" lon="8.4579305" timestamp="2018-05-20T06:05:59Z" uid="3842253" user="NKA_import" version="1">
		<tag k="building" v="farm_auxiliary" />
		<tag k="name" v="Sandvikbua" />
		<tag k="place" v="locality" />
		<tag k="ssr:stedsnr" v="593648" />
		<tag k="ssr:type" v="byggForJordbrukFiskeOgFangst" />
	</node>
	<node changeset="59116087" id="5629892995" lat="59.1736194" lon="8.4629972" timestamp="2018-05-20T06:05:59Z" uid="3842253" user="NKA_import" version="1">
		<tag k="name" v="Nordskog" />
		<tag k="place" v="locality" />
		<tag k="ssr:stedsnr" v="47558" />
		<tag k="ssr:type" v="gammelBosettingsplass" />
	</node>
	<node changeset="59116087" id="5629892996" lat="59.1629861" lon="8.5397" timestamp="2018-05-20T06:05:59Z" uid="3842253" user="NKA_import" version="1">
		<tag k="name" v="Grimstveit øvre" />
		<tag k="place" v="farm" />
		<tag k="ssr:stedsnr" v="457557" />
		<tag k="ssr:type" v="bruk" />
	</node>
	<node changeset="59116087" id="5629892997" lat="59.1645528" lon="8.4625917" timestamp="2018-05-20T06:05:59Z" uid="3842253" user="NKA_import" version="1">
		<tag k="name" v="Fjellheim" />
		<tag k="place" v="isolated_dwelling" />
		<tag k="ssr:stedsnr" v="47602" />
		<tag k="ssr:type" v="eneboligMindreBoligbygg" />
	</node>
	<node changeset="59116087" id="5629892998" lat="58.9135111" lon="8.6697639" timestamp="2018-05-20T06:05:59Z" uid="3842253" user="NKA_import" version="1">
		<tag k="name" v="Krokane" />
		<tag k="place" v="locality" />
		<tag k="ssr:stedsnr" v="278987" />
		<tag k="ssr:type" v="gammelBosettingsplass" />
	</node>
	<node changeset="59116087" id="5629892999" lat="59.107921" lon="8.3522086" timestamp="2018-05-20T06:05:59Z" uid="3842253" user="NKA_import" version="1">
		<tag k="building" v="cabin" />
		<tag k="name" v="Meselhytta" />
		<tag k="place" v="isolated_dwelling" />
		<tag k="ssr:stedsnr" v="714673" />
		<tag k="ssr:type" v="fritidsbolig" />
	</node>
	<node changeset="59116087" id="5629893000" lat="58.9297889" lon="8.4562528" timestamp="2018-05-20T06:05:59Z" uid="3842253" user="NKA_import" version="1">
		<tag k="name" v="Stigen" />
		<tag k="place" v="locality" />
		<tag k="ssr:stedsnr" v="835488" />
		<tag k="ssr:type" v="gammelBosettingsplass" />
	</node>
	<node changeset="59116087" id="5629893001" lat="59.1671" lon="8.4653083" timestamp="2018-05-20T06:05:59Z" uid="3842253" user="NKA_import" version="1">
		<tag k="name" v="Vallgardsneset" />
		<tag k="place" v="isolated_dwelling" />
		<tag k="ssr:stedsnr" v="47615" />
		<tag k="ssr:type" v="eneboligMindreBoligbygg" />
	</node>
	<node changeset="59116087" id="5629893002" lat="59.2152556" lon="8.370575" timestamp="2018-05-20T06:05:59Z" uid="3842253" user="NKA_import" version="1">
		<tag k="name" v="Mjelthombua" />
		<tag k="place" v="locality" />
		<tag k="ssr:stedsnr" v="836002" />
		<tag k="ssr:type" v="gammelBosettingsplass" />
	</node>
	<node changeset="59116087" id="5629893003" lat="59.1279306" lon="8.6047778" timestamp="2018-05-20T06:05:59Z" uid="3842253" user="NKA_import" version="1">
		<tag k="alt_name" v="Tvogedokk" />
		<tag k="name" v="Tvågedokk" />
		<tag k="place" v="locality" />
		<tag k="ssr:stedsnr" v="547750" />
		<tag k="ssr:type" v="gammelBosettingsplass" />
	</node>
	<node changeset="59116087" id="5629893004" lat="58.9696194" lon="8.5867083" timestamp="2018-05-20T06:06:00Z" uid="3842253" user="NKA_import" version="1">
		<tag k="name" v="Svartvassbu" />
		<tag k="place" v="locality" />
		<tag k="ssr:stedsnr" v="458174" />
		<tag k="ssr:type" v="gammelBosettingsplass" />
	</node>
	<node changeset="59116087" id="5629893005" lat="59.1847194" lon="8.3207528" timestamp="2018-05-20T06:06:00Z" uid="3842253" user="NKA_import" version="1">
		<tag k="historic" v="shieling" />
		<tag k="name" v="Espebuene" />
		<tag k="place" v="locality" />
		<tag k="ssr:stedsnr" v="168838" />
		<tag k="ssr:type" v="seterStøl" />
	</node>
	<node changeset="59116087" id="5629893006" lat="59.1488722" lon="8.5169222" timestamp="2018-05-20T06:06:00Z" uid="3842253" user="NKA_import" version="1">
		<tag k="name" v="Århus" />
		<tag k="place" v="farm" />
		<tag k="ssr:stedsnr" v="547776" />
		<tag k="ssr:type" v="bruk" />
	</node>
	<node changeset="59116087" id="5629893007" lat="59.1611" lon="8.3952667" timestamp="2018-05-20T06:06:00Z" uid="3842253" user="NKA_import" version="1">
		<tag k="name" v="Smituft" />
		<tag k="place" v="isolated_dwelling" />
		<tag k="ssr:stedsnr" v="168974" />
		<tag k="ssr:type" v="eneboligMindreBoligbygg" />
	</node>
	<node changeset="59116087" id="5629893008" lat="59.1904028" lon="8.597425" timestamp="2018-05-20T06:06:00Z" uid="3842253" user="NKA_import" version="1">
		<tag k="name" v="Kjerri" />
		<tag k="place" v="locality" />
		<tag k="ssr:stedsnr" v="547849" />
		<tag k="ssr:type" v="byggForJordbrukFiskeOgFangst" />
	</node>
	<node changeset="59116087" id="5629893009" lat="59.1609741" lon="8.3933817" timestamp="2018-05-20T06:06:00Z" uid="3842253" user="NKA_import" version="1">
		<tag k="name" v="Nigard" />
		<tag k="place" v="farm" />
		<tag k="ssr:stedsnr" v="715000" />
		<tag k="ssr:type" v="bruk" />
	</node>
	<node changeset="59116087" id="5629893010" lat="59.1937139" lon="8.403025" timestamp="2018-05-20T06:06:00Z" uid="3842253" user="NKA_import" version="1">
		<tag k="historic" v="shieling" />
		<tag k="name" v="Fjellstøyl" />
		<tag k="place" v="locality" />
		<tag k="ssr:stedsnr" v="836299" />
		<tag k="ssr:type" v="gammelBosettingsplass" />
	</node>
	<node changeset="59116087" id="5629893011" lat="59.024221" lon="8.6522984" timestamp="2018-05-20T06:06:00Z" uid="3842253" user="NKA_import" version="1">
		<tag k="building" v="farm_auxiliary" />
		<tag k="name" v="Kleivtjønnbua" />
		<tag k="place" v="locality" />
		<tag k="ssr:stedsnr" v="169085" />
		<tag k="ssr:type" v="byggForJordbrukFiskeOgFangst" />
	</node>
	<node changeset="59116087" id="5629893012" lat="59.0244944" lon="8.4747055" timestamp="2018-05-20T06:06:00Z" uid="3842253" user="NKA_import" version="1">
		<tag k="name" v="Kyrkjeskogen" />
		<tag k="place" v="locality" />
		<tag k="ssr:stedsnr" v="410218" />
		<tag k="ssr:type" v="eiendom" />
	</node>
	<node changeset="59116087" id="5629893013" lat="59.1648083" lon="8.3962305" timestamp="2018-05-20T06:06:00Z" uid="3842253" user="NKA_import" version="1">
		<tag k="building" v="farm_auxiliary" />
		<tag k="name" v="Vårfjoset" />
		<tag k="place" v="locality" />
		<tag k="ssr:stedsnr" v="47902" />
		<tag k="ssr:type" v="byggForJordbrukFiskeOgFangst" />
	</node>
	<node changeset="59116087" id="5629893014" lat="58.9751417" lon="8.5687111" timestamp="2018-05-20T06:06:00Z" uid="3842253" user="NKA_import" version="1">
		<tag k="name" v="Loppestad" />
		<tag k="place" v="locality" />
		<tag k="ssr:stedsnr" v="458763" />
		<tag k="ssr:type" v="gammelBosettingsplass" />
	</node>
	<node changeset="59116087" id="5629893015" lat="58.9461" lon="8.5673944" timestamp="2018-05-20T06:06:00Z" uid="3842253" user="NKA_import" version="1">
		<tag k="name" v="Helleslia" />
		<tag k="place" v="farm" />
		<tag k="ssr:stedsnr" v="607327" />
		<tag k="ssr:type" v="bruk" />
	</node>
	<node changeset="59116087" id="5629893016" lat="58.9575975" lon="8.4212938" timestamp="2018-05-20T06:06:01Z" uid="3842253" user="NKA_import" version="1">
		<tag k="alt_name" v="Korstuv" />
		<tag k="building" v="cabin" />
		<tag k="name" v="Kosstuv" />
		<tag k="place" v="isolated_dwelling" />
		<tag k="ssr:stedsnr" v="547933" />
		<tag k="ssr:type" v="fritidsbolig" />
	</node>
	<node changeset="59116087" id="5629893017" lat="59.0012333" lon="8.5780694" timestamp="2018-05-20T06:06:01Z" uid="3842253" user="NKA_import" version="1">
		<tag k="name" v="Dekkane" />
		<tag k="place" v="farm" />
		<tag k="ssr:stedsnr" v="458786" />
		<tag k="ssr:type" v="bruk" />
	</node>
	<node changeset="59116087" id="5629893018" lat="58.9968472" lon="8.7226528" timestamp="2018-05-20T06:06:01Z" uid="3842253" user="NKA_import" version="1">
		<tag k="name" v="Steinbu" />
		<tag k="place" v="locality" />
		<tag k="ssr:stedsnr" v="169511" />
		<tag k="ssr:type" v="gammelBosettingsplass" />
	</node>
	<node changeset="59116087" id="5629893019" lat="59.2219278" lon="8.5422389" timestamp="2018-05-20T06:06:01Z" uid="3842253" user="NKA_import" version="1">
		<tag k="historic" v="shieling" />
		<tag k="name" v="Fjellstøyl" />
		<tag k="place" v="locality" />
		<tag k="ssr:stedsnr" v="547945" />
		<tag k="ssr:type" v="gammelBosettingsplass" />
	</node>
	<node changeset="59116087" id="5629893020" lat="59.1790583" lon="8.44725" timestamp="2018-05-20T06:06:01Z" uid="3842253" user="NKA_import" version="1">
		<tag k="name" v="Solhaug" />
		<tag k="place" v="locality" />
		<tag k="ssr:stedsnr" v="836459" />
		<tag k="ssr:type" v="fritidsbolig" />
	</node>
	<node changeset="79869835" id="736594393" lat="59.020534" lon="8.5219703" timestamp="2020-01-21T17:48:54Z" uid="3497659" user="NKA" version="4">
		<tag k="name" v="Treungen" />
		<tag k="place" v="village" />
		<tag k="population" v="568" />
		<tag k="population:date" v="2019-01-01" />
		<tag k="ref:ssb_tettsted" v="3131" />
		<tag k="ssr:stedsnr" v="730488" />
		<tag k="ssr:type" v="tettsted" />
	</node>
	<node changeset="59116087" id="1423531786" lat="58.9605149" lon="8.4749256" timestamp="2018-05-20T06:06:08Z" uid="3842253" user="NKA_import" version="2">
		<tag k="name" v="Haugsjå" />
		<tag k="place" v="hamlet" />
		<tag k="ssr:stedsnr" v="911378" />
		<tag k="ssr:type" v="grend" />
	</node>
	<node changeset="65570923" id="5629891138" lat="59.190311" lon="8.4980287" timestamp="2018-12-18T05:51:54Z" uid="3497659" user="NKA" version="2">
		<tag k="name" v="Viksodden" />
		<tag k="natural" v="cape" />
		<tag k="ssr:stedsnr" v="183843" />
		<tag k="ssr:type" v="nes" />
	</node>
	<node changeset="65570923" id="5629891139" lat="59.1788272" lon="8.4913907" timestamp="2018-12-18T05:51:54Z" uid="3497659" user="NKA" version="2">
		<tag k="alt_name" v="Sondsodden" />
		<tag k="name" v="Sundsodden" />
		<tag k="natural" v="cape" />
		<tag k="ssr:stedsnr" v="608856" />
		<tag k="ssr:type" v="nes" />
	</node>
	<node changeset="59116087" id="5629891140" lat="59.1859872" lon="8.5844061" timestamp="2018-05-20T06:05:19Z" uid="3842253" user="NKA_import" version="1">
		<tag k="building" v="cabin" />
		<tag k="name" v="Bulii" />
		<tag k="place" v="isolated_dwelling" />
		<tag k="ssr:stedsnr" v="62835" />
		<tag k="ssr:type" v="fritidsbolig" />
	</node>
	<node changeset="59116087" id="5629891141" lat="59.1381778" lon="8.6959083" timestamp="2018-05-20T06:05:19Z" uid="3842253" user="NKA_import" version="1">
		<tag k="name" v="Uvdalen" />
		<tag k="place" v="locality" />
		<tag k="ssr:stedsnr" v="730742" />
		<tag k="ssr:type" v="gammelBosettingsplass" />
	</node>
	<node changeset="59116087" id="5629891142" lat="58.9173694" lon="8.4903417" timestamp="2018-05-20T06:05:19Z" uid="3842253" user="NKA_import" version="1">
		<tag k="name" v="Dalane" />
		<tag k="place" v="farm" />
		<tag k="ssr:stedsnr" v="304401" />
		<tag k="ssr:type" v="bruk" />
	</node>
	<node changeset="59116087" id="5629891143" lat="59.1238111" lon="8.5112515" timestamp="2018-05-20T06:05:20Z" uid="3842253" user="NKA_import" version="1">
		<tag k="name" v="Nes" />
		<tag k="place" v="hamlet" />
		<tag k="ssr:stedsnr" v="730753" />
		<tag k="ssr:type" v="grend" />
	</node>
	<node changeset="59116087" id="5629891144" lat="59.0395944" lon="8.5096667" timestamp="2018-05-20T06:05:20Z" uid="3842253" user="NKA_import" version="1">
		<tag k="alt_name" v="Årak nordre" />
		<tag k="name" v="Årak" />
		<tag k="place" v="hamlet" />
		<tag k="ssr:stedsnr" v="851483" />
		<tag k="ssr:type" v="bruk" />
	</node>
	<node changeset="59116087" id="5629891145" lat="59.1688056" lon="8.4389111" timestamp="2018-05-20T06:05:20Z" uid="3842253" user="NKA_import" version="1">
		<tag k="name" v="Heggland" />
		<tag k="place" v="isolated_dwelling" />
		<tag k="ssr:stedsnr" v="184098" />
		<tag k="ssr:type" v="eneboligMindreBoligbygg" />
	</node>
	<node changeset="59116087" id="5629891146" lat="59.0458168" lon="8.6561716" timestamp="2018-05-20T06:05:20Z" uid="3842253" user="NKA_import" version="1">
		<tag k="building" v="cabin" />
		<tag k="name" v="Gama" />
		<tag k="place" v="isolated_dwelling" />
		<tag k="ssr:stedsnr" v="851530" />
		<tag k="ssr:type" v="fritidsbolig" />
	</node>
	<node changeset="59116087" id="5629891147" lat="58.960925" lon="8.4779861" timestamp="2018-05-20T06:05:20Z" uid="3842253" user="NKA_import" version="1">
		<tag k="name" v="Jore" />
		<tag k="place" v="farm" />
		<tag k="ssr:stedsnr" v="471011" />
		<tag k="ssr:type" v="bruk" />
	</node>
	<node changeset="59116087" id="5629891148" lat="59.2456583" lon="8.5198611" timestamp="2018-05-20T06:05:20Z" uid="3842253" user="NKA_import" version="1">
		<tag k="name" v="Urimleg" />
		<tag k="place" v="locality" />
		<tag k="ssr:stedsnr" v="882331" />
		<tag k="ssr:type" v="gammelBosettingsplass" />
	</node>
	<node changeset="59116087" id="5629891149" lat="59.2074167" lon="8.5118028" timestamp="2018-05-20T06:05:20Z" uid="3842253" user="NKA_import" version="1">
		<tag k="name" v="Rinden" />
		<tag k="place" v="farm" />
		<tag k="ssr:stedsnr" v="730885" />
		<tag k="ssr:type" v="bruk" />
	</node>
	<node changeset="59116087" id="5629891150" lat="59.0351854" lon="8.3923485" timestamp="2018-05-20T06:05:20Z" uid="3842253" user="NKA_import" version="1">
		<tag k="name" v="Grunntjønnbua" />
		<tag k="place" v="locality" />
		<tag k="ssr:stedsnr" v="471113" />
		<tag k="ssr:type" v="gammelBosettingsplass" />
	</node>
	<node changeset="59116087" id="5629891151" lat="59.1490444" lon="8.5250833" timestamp="2018-05-20T06:05:20Z" uid="3842253" user="NKA_import" version="1">
		<tag k="name" v="Nordbø" />
		<tag k="place" v="farm" />
		<tag k="ssr:stedsnr" v="304757" />
		<tag k="ssr:type" v="bruk" />
	</node>
	<node changeset="59116087" id="5629891152" lat="59.1184861" lon="8.5206278" timestamp="2018-05-20T06:05:20Z" uid="3842253" user="NKA_import" version="1">
		<tag k="alt_name" v="Lauvika nedre" />
		<tag k="name" v="Lauvviki" />
		<tag k="place" v="farm" />
		<tag k="ssr:stedsnr" v="851659" />
		<tag k="ssr:type" v="bruk" />
	</node>
	<node changeset="59116087" id="5629891153" lat="59.1068194" lon="8.4825833" timestamp="2018-05-20T06:05:20Z" uid="3842253" user="NKA_import" version="1">
		<tag k="alt_name" v="Nesi" />
		<tag k="name" v="Neset" />
		<tag k="place" v="locality" />
		<tag k="ssr:stedsnr" v="851671" />
		<tag k="ssr:type" v="gammelBosettingsplass" />
	</node>
	<node changeset="59116087" id="5629891154" lat="59.1618361" lon="8.5338055" timestamp="2018-05-20T06:05:20Z" uid="3842253" user="NKA_import" version="1">
		<tag k="name" v="Grimstveit vestre" />
		<tag k="place" v="farm" />
		<tag k="ssr:stedsnr" v="882509" />
		<tag k="ssr:type" v="bruk" />
	</node>
	<node changeset="59116087" id="5629891155" lat="59.2639564" lon="8.4795277" timestamp="2018-05-20T06:05:21Z" uid="3842253" user="NKA_import" version="1">
		<tag k="building" v="cabin" />
		<tag k="name" v="Lauvlunden" />
		<tag k="place" v="isolated_dwelling" />
		<tag k="ssr:stedsnr" v="63543" />
		<tag k="ssr:type" v="fritidsbolig" />
	</node>
	<node changeset="59116087" id="5629891156" lat="59.2183972" lon="8.4989194" timestamp="2018-05-20T06:05:21Z" uid="3842253" user="NKA_import" version="1">
		<tag k="name" v="Flom" />
		<tag k="place" v="locality" />
		<tag k="ssr:stedsnr" v="760582" />
		<tag k="ssr:type" v="gammelBosettingsplass" />
	</node>
	<node changeset="59116087" id="5629891157" lat="59.11255" lon="8.4714444" timestamp="2018-05-20T06:05:21Z" uid="3842253" user="NKA_import" version="1">
		<tag k="name" v="Sandvik" />
		<tag k="place" v="farm" />
		<tag k="ssr:stedsnr" v="184675" />
		<tag k="ssr:type" v="bruk" />
	</node>
	<node changeset="59116087" id="5629891158" lat="59.0906278" lon="8.4636722" timestamp="2018-05-20T06:05:21Z" uid="3842253" user="NKA_import" version="1">
		<tag k="name" v="Fjellåker" />
		<tag k="place" v="locality" />
		<tag k="ssr:stedsnr" v="471244" />
		<tag k="ssr:type" v="gammelBosettingsplass" />
	</node>
	<node changeset="59116087" id="5629891159" lat="59.1509714" lon="8.61337" timestamp="2018-05-20T06:05:21Z" uid="3842253" user="NKA_import" version="1">
		<tag k="alt_name" v="Breilistøylen" />
		<tag k="building" v="cabin" />
		<tag k="historic" v="shieling" />
		<tag k="name" v="Breidlistøylen" />
		<tag k="place" v="isolated_dwelling" />
		<tag k="ssr:stedsnr" v="63705" />
		<tag k="ssr:type" v="fritidsbolig" />
	</node>
	<node changeset="59116087" id="5629891160" lat="59.1051944" lon="8.4894" timestamp="2018-05-20T06:05:21Z" uid="3842253" user="NKA_import" version="1">
		<tag k="name" v="Raudnes" />
		<tag k="place" v="farm" />
		<tag k="ssr:stedsnr" v="184679" />
		<tag k="ssr:type" v="bruk" />
	</node>
	<node changeset="59116087" id="5629891161" lat="59.1727972" lon="8.5815556" timestamp="2018-05-20T06:05:21Z" uid="3842253" user="NKA_import" version="1">
		<tag k="historic" v="shieling" />
		<tag k="name" v="Fitjestøylane" />
		<tag k="place" v="locality" />
		<tag k="ssr:stedsnr" v="760832" />
		<tag k="ssr:type" v="gammelBosettingsplass" />
	</node>
	<node changeset="59116087" id="5629891162" lat="59.2085083" lon="8.5625889" timestamp="2018-05-20T06:05:21Z" uid="3842253" user="NKA_import" version="1">
		<tag k="name" v="Fidjevad" />
		<tag k="place" v="locality" />
		<tag k="ssr:stedsnr" v="760928" />
		<tag k="ssr:type" v="gammelBosettingsplass" />
	</node>
	<node changeset="59116087" id="5629891163" lat="59.1715167" lon="8.5533417" timestamp="2018-05-20T06:05:21Z" uid="3842253" user="NKA_import" version="1">
		<tag k="alt_name" v="Støylslia" />
		<tag k="historic" v="shieling" />
		<tag k="name" v="Støylslii" />
		<tag k="place" v="locality" />
		<tag k="ssr:stedsnr" v="184783" />
		<tag k="ssr:type" v="seterStøl" />
	</node>
	<node changeset="59116087" id="5629891164" lat="59.1912389" lon="8.5131278" timestamp="2018-05-20T06:05:21Z" uid="3842253" user="NKA_import" version="1">
		<tag k="name" v="Vik" />
		<tag k="place" v="farm" />
		<tag k="ssr:stedsnr" v="851839" />
		<tag k="ssr:type" v="bruk" />
	</node>
	<node changeset="59116087" id="5629891165" lat="59.1955722" lon="8.512425" timestamp="2018-05-20T06:05:21Z" uid="3842253" user="NKA_import" version="1">
		<tag k="name" v="Sandvik" />
		<tag k="place" v="isolated_dwelling" />
		<tag k="ssr:stedsnr" v="851862" />
		<tag k="ssr:type" v="eneboligMindreBoligbygg" />
	</node>
	<node changeset="59116087" id="5629891166" lat="59.1976888" lon="8.5190381" timestamp="2018-05-20T06:05:22Z" uid="3842253" user="NKA_import" version="1">
		<tag k="alt_name" v="Grovom" />
		<tag k="name" v="Grovum" />
		<tag k="place" v="hamlet" />
		<tag k="ssr:stedsnr" v="851864" />
		<tag k="ssr:type" v="bruk" />
	</node>
	<node changeset="59116087" id="5629891167" lat="59.0993528" lon="8.5005444" timestamp="2018-05-20T06:05:22Z" uid="3842253" user="NKA_import" version="1">
		<tag k="alt_name" v="Øya" />
		<tag k="name" v="Øyni" />
		<tag k="place" v="farm" />
		<tag k="ssr:stedsnr" v="184638" />
		<tag k="ssr:type" v="bruk" />
	</node>
	<node changeset="59116087" id="5629891168" lat="59.0372139" lon="8.510775" timestamp="2018-05-20T06:05:22Z" uid="3842253" user="NKA_import" version="1">
		<tag k="name" v="Årak søndre" />
		<tag k="place" v="farm" />
		<tag k="ssr:stedsnr" v="761559" />
		<tag k="ssr:type" v="bruk" />
	</node>
	<node changeset="59116087" id="5629891169" lat="59.1950667" lon="8.5174972" timestamp="2018-05-20T06:05:22Z" uid="3842253" user="NKA_import" version="1">
		<tag k="name" v="Dekkane" />
		<tag k="place" v="farm" />
		<tag k="ssr:stedsnr" v="93430" />
		<tag k="ssr:type" v="bruk" />
	</node>
	<node changeset="59116087" id="5629891170" lat="59.2172417" lon="8.6044639" timestamp="2018-05-20T06:05:22Z" uid="3842253" user="NKA_import" version="1">
		<tag k="alt_name" v="Bjørndalen" />
		<tag k="building" v="cabin" />
		<tag k="name" v="Bjønndalen" />
		<tag k="place" v="isolated_dwelling" />
		<tag k="ssr:stedsnr" v="851890" />
		<tag k="ssr:type" v="fritidsbolig" />
	</node>
	<node changeset="59116087" id="5629891171" lat="59.1591956" lon="8.5446616" timestamp="2018-05-20T06:05:22Z" uid="3842253" user="NKA_import" version="1">
		<tag k="name" v="Tveitane" />
		<tag k="place" v="hamlet" />
		<tag k="ssr:stedsnr" v="184741" />
		<tag k="ssr:type" v="grend" />
	</node>
	<node changeset="59116087" id="5629891172" lat="59.0760639" lon="8.4687667" timestamp="2018-05-20T06:05:22Z" uid="3842253" user="NKA_import" version="1">
		<tag k="name" v="Nedre Svahommen" />
		<tag k="place" v="locality" />
		<tag k="ssr:stedsnr" v="471549" />
		<tag k="ssr:type" v="gammelBosettingsplass" />
	</node>
	<node changeset="59116087" id="5629891173" lat="59.0319709" lon="8.5222756" timestamp="2018-05-20T06:05:22Z" uid="3842253" user="NKA_import" version="1">
		<tag k="name" v="Solli" />
		<tag k="place" v="farm" />
		<tag k="ssr:stedsnr" v="305582" />
		<tag k="ssr:type" v="bruk" />
	</node>
	<node changeset="59116087" id="5629891174" lat="59.2096972" lon="8.5578861" timestamp="2018-05-20T06:05:22Z" uid="3842253" user="NKA_import" version="1">
		<tag k="name" v="Paradis" />
		<tag k="place" v="locality" />
		<tag k="ssr:stedsnr" v="639947" />
		<tag k="ssr:type" v="gammelBosettingsplass" />
	</node>
	<node changeset="59116087" id="5629891175" lat="59.1304944" lon="8.4472722" timestamp="2018-05-20T06:05:22Z" uid="3842253" user="NKA_import" version="1">
		<tag k="name" v="Dalen" />
		<tag k="place" v="locality" />
		<tag k="ssr:stedsnr" v="471617" />
		<tag k="ssr:type" v="gammelBosettingsplass" />
	</node>
	<node changeset="59116087" id="5629891176" lat="59.0058278" lon="8.5380361" timestamp="2018-05-20T06:05:22Z" uid="3842253" user="NKA_import" version="1">
		<tag k="name" v="Nyland" />
		<tag k="place" v="farm" />
		<tag k="ssr:stedsnr" v="762934" />
		<tag k="ssr:type" v="bruk" />
	</node>
	<node changeset="59116087" id="5629891177" lat="59.1985215" lon="8.5126849" timestamp="2018-05-20T06:05:22Z" uid="3842253" user="NKA_import" version="1">
		<tag k="alt_name" v="Nordbygdi" />
		<tag k="name" v="Nordbygda" />
		<tag k="place" v="hamlet" />
		<tag k="ssr:stedsnr" v="209374" />
		<tag k="ssr:type" v="bygdelagBygd" />
	</node>
	<node changeset="59116087" id="5629891178" lat="58.9987778" lon="8.5801444" timestamp="2018-05-20T06:05:23Z" uid="3842253" user="NKA_import" version="1">
		<tag k="name" v="Midtbø" />
		<tag k="place" v="isolated_dwelling" />
		<tag k="ssr:stedsnr" v="883815" />
		<tag k="ssr:type" v="eneboligMindreBoligbygg" />
	</node>
	<node changeset="59116087" id="5629891179" lat="58.9751611" lon="8.5136667" timestamp="2018-05-20T06:05:23Z" uid="3842253" user="NKA_import" version="1">
		<tag k="name" v="Fjellheim" />
		<tag k="place" v="isolated_dwelling" />
		<tag k="ssr:stedsnr" v="762280" />
		<tag k="ssr:type" v="eneboligMindreBoligbygg" />
	</node>
	<node changeset="59116087" id="5629891180" lat="59.001409" lon="8.5989724" timestamp="2018-05-20T06:05:23Z" uid="3842253" user="NKA_import" version="1">
		<tag k="building" v="cabin" />
		<tag k="name" v="Myri" />
		<tag k="place" v="isolated_dwelling" />
		<tag k="ssr:stedsnr" v="883864" />
		<tag k="ssr:type" v="fritidsbolig" />
	</node>
	<node changeset="59116087" id="5629891181" lat="59.0516778" lon="8.5886278" timestamp="2018-05-20T06:05:23Z" uid="3842253" user="NKA_import" version="1">
		<tag k="building" v="cabin" />
		<tag k="name" v="Nokkebu" />
		<tag k="place" v="isolated_dwelling" />
		<tag k="ssr:stedsnr" v="762481" />
		<tag k="ssr:type" v="fritidsbolig" />
	</node>
	<node changeset="59116087" id="5629891182" lat="59.1654667" lon="8.5211278" timestamp="2018-05-20T06:05:23Z" uid="3842253" user="NKA_import" version="1">
		<tag k="name" v="Dalane" />
		<tag k="place" v="locality" />
		<tag k="ssr:stedsnr" v="305782" />
		<tag k="ssr:type" v="gammelBosettingsplass" />
	</node>
	<node changeset="59116087" id="5629891183" lat="59.2126973" lon="8.3334045" timestamp="2018-05-20T06:05:23Z" uid="3842253" user="NKA_import" version="1">
		<tag k="alt_name" v="Strånd" />
		<tag k="building" v="cabin" />
		<tag k="name" v="Strond" />
		<tag k="place" v="isolated_dwelling" />
		<tag k="ssr:stedsnr" v="852059" />
		<tag k="ssr:type" v="fritidsbolig" />
	</node>
	<node changeset="61585180" id="5826865776" lat="58.9035531" lon="8.7463974" timestamp="2018-08-12T11:18:22Z" uid="3842253" user="NKA_import" version="1" />
	<node changeset="61585180" id="5826865777" lat="58.9035205" lon="8.746587" timestamp="2018-08-12T11:18:22Z" uid="3842253" user="NKA_import" version="1" />
	<node changeset="61585180" id="5826865778" lat="58.9034889" lon="8.7465666" timestamp="2018-08-12T11:18:22Z" uid="3842253" user="NKA_import" version="1" />
	<node changeset="61585180" id="5826865779" lat="58.9034542" lon="8.7467683" timestamp="2018-08-12T11:18:22Z" uid="3842253" user="NKA_import" version="1" />
	<node changeset="61585180" id="5826865780" lat="58.9034045" lon="8.7463435" timestamp="2018-08-12T11:18:22Z" uid="3842253" user="NKA_import" version="1" />
	<node changeset="59116087" id="5629891189" lat="59.1815528" lon="8.6595806" timestamp="2018-05-20T06:05:23Z" uid="3842253" user="NKA_import" version="1">
		<tag k="historic" v="shieling" />
		<tag k="name" v="Lereftshommen" />
		<tag k="place" v="locality" />
		<tag k="ssr:stedsnr" v="305828" />
		<tag k="ssr:type" v="seterStøl" />
	</node>
	<node changeset="59116087" id="5629891190" lat="59.0116887" lon="8.6537405" timestamp="2018-05-20T06:05:24Z" uid="3842253" user="NKA_import" version="1">
		<tag k="building" v="cabin" />
		<tag k="name" v="Byhytta" />
		<tag k="place" v="isolated_dwelling" />
		<tag k="ssr:stedsnr" v="884130" />
		<tag k="ssr:type" v="fritidsbolig" />
	</node>
	<node changeset="59116087" id="5629891191" lat="59.1298789" lon="8.5846888" timestamp="2018-05-20T06:05:24Z" uid="3842253" user="NKA_import" version="1">
		<tag k="building" v="cabin" />
		<tag k="name" v="Sigridbu" />
		<tag k="place" v="isolated_dwelling" />
		<tag k="ssr:stedsnr" v="214847" />
		<tag k="ssr:type" v="fritidsbolig" />
	</node>
	<node changeset="59116087" id="5629891192" lat="58.9347861" lon="8.5095083" timestamp="2018-05-20T06:05:24Z" uid="3842253" user="NKA_import" version="1">
		<tag k="name" v="Ståga" />
		<tag k="place" v="locality" />
		<tag k="ssr:stedsnr" v="762965" />
		<tag k="ssr:type" v="gammelBosettingsplass" />
	</node>
	<node changeset="59116087" id="5629891193" lat="59.157981" lon="8.6436828" timestamp="2018-05-20T06:05:24Z" uid="3842253" user="NKA_import" version="1">
		<tag k="building" v="cabin" />
		<tag k="name" v="Kjempåsen" />
		<tag k="place" v="isolated_dwelling" />
		<tag k="ssr:stedsnr" v="852686" />
		<tag k="ssr:type" v="fritidsbolig" />
	</node>
	<node changeset="59116087" id="5629891194" lat="59.1497861" lon="8.5361472" timestamp="2018-05-20T06:05:24Z" uid="3842253" user="NKA_import" version="1">
		<tag k="alt_name" v="Søtveit" />
		<tag k="name" v="Sørtveit" />
		<tag k="place" v="farm" />
		<tag k="ssr:stedsnr" v="852717" />
		<tag k="ssr:type" v="bruk" />
	</node>
	<node changeset="59116087" id="5629891195" lat="59.2123139" lon="8.5149556" timestamp="2018-05-20T06:05:24Z" uid="3842253" user="NKA_import" version="1">
		<tag k="name" v="Noraberg" />
		<tag k="place" v="farm" />
		<tag k="ssr:stedsnr" v="305916" />
		<tag k="ssr:type" v="bruk" />
	</node>
	<node changeset="59116087" id="5629891196" lat="59.1742306" lon="8.6644139" timestamp="2018-05-20T06:05:24Z" uid="3842253" user="NKA_import" version="1">
		<tag k="alt_name" v="Nutstøyl, nedre" />
		<tag k="historic" v="shieling" />
		<tag k="name" v="Nedre Nutstøyl" />
		<tag k="place" v="locality" />
		<tag k="ssr:stedsnr" v="852771" />
		<tag k="ssr:type" v="seterStøl" />
	</node>
	<node changeset="59116087" id="5629891197" lat="59.2285167" lon="8.6155528" timestamp="2018-05-20T06:05:24Z" uid="3842253" user="NKA_import" version="1">
		<tag k="alt_name" v="Spilldalen" />
		<tag k="name" v="Speldalen" />
		<tag k="place" v="locality" />
		<tag k="ssr:stedsnr" v="305936" />
		<tag k="ssr:type" v="gammelBosettingsplass" />
	</node>
	<node changeset="59116087" id="5629891198" lat="59.1747278" lon="8.6587917" timestamp="2018-05-20T06:05:24Z" uid="3842253" user="NKA_import" version="1">
		<tag k="alt_name" v="Nutstøyl, øvre" />
		<tag k="historic" v="shieling" />
		<tag k="name" v="Øvre Nutstøyl" />
		<tag k="place" v="locality" />
		<tag k="ssr:stedsnr" v="852770" />
		<tag k="ssr:type" v="seterStøl" />
	</node>
	<node changeset="59116087" id="5629891199" lat="59.1597278" lon="8.4565861" timestamp="2018-05-20T06:05:24Z" uid="3842253" user="NKA_import" version="1">
		<tag k="name" v="Rui" />
		<tag k="place" v="isolated_dwelling" />
		<tag k="ssr:stedsnr" v="472109" />
		<tag k="ssr:type" v="eneboligMindreBoligbygg" />
	</node>
	<node changeset="59116087" id="5629891200" lat="59.0710361" lon="8.6078139" timestamp="2018-05-20T06:05:25Z" uid="3842253" user="NKA_import" version="1">
		<tag k="alt_name" v="Fiskebu" />
		<tag k="name" v="Fiskarbu" />
		<tag k="place" v="locality" />
		<tag k="ssr:stedsnr" v="640548" />
		<tag k="ssr:type" v="gammelBosettingsplass" />
	</node>
	<node changeset="59116087" id="5629891201" lat="59.2356222" lon="8.4205278" timestamp="2018-05-20T06:05:25Z" uid="3842253" user="NKA_import" version="1">
		<tag k="name" v="Maurstad" />
		<tag k="place" v="locality" />
		<tag k="ssr:stedsnr" v="472130" />
		<tag k="ssr:type" v="gammelBosettingsplass" />
	</node>
	<node changeset="59116087" id="5629891202" lat="59.2108861" lon="8.5692194" timestamp="2018-05-20T06:05:25Z" uid="3842253" user="NKA_import" version="1">
		<tag k="building" v="cabin" />
		<tag k="name" v="Melås" />
		<tag k="place" v="isolated_dwelling" />
		<tag k="ssr:stedsnr" v="852875" />
		<tag k="ssr:type" v="fritidsbolig" />
	</node>
	<node changeset="59116087" id="5629891203" lat="59.2117583" lon="8.5480583" timestamp="2018-05-20T06:05:25Z" uid="3842253" user="NKA_import" version="1">
		<tag k="historic" v="shieling" />
		<tag k="name" v="Listøyl" />
		<tag k="place" v="locality" />
		<tag k="ssr:stedsnr" v="215647" />
		<tag k="ssr:type" v="gammelBosettingsplass" />
	</node>
	<node changeset="59116087" id="5629891204" lat="59.1602528" lon="8.5192556" timestamp="2018-05-20T06:05:25Z" uid="3842253" user="NKA_import" version="1">
		<tag k="name" v="Ulvsbrekk" />
		<tag k="place" v="locality" />
		<tag k="ssr:stedsnr" v="335555" />
		<tag k="ssr:type" v="gammelBosettingsplass" />
	</node>
	<node changeset="59116087" id="5629891205" lat="59.0009472" lon="8.5889417" timestamp="2018-05-20T06:05:25Z" uid="3842253" user="NKA_import" version="1">
		<tag k="name" v="Bakken" />
		<tag k="place" v="farm" />
		<tag k="ssr:stedsnr" v="94807" />
		<tag k="ssr:type" v="bruk" />
	</node>
	<node changeset="59116087" id="5629891206" lat="58.9989265" lon="8.57292" timestamp="2018-05-20T06:05:25Z" uid="3842253" user="NKA_import" version="1">
		<tag k="name" v="Sønderlandsgrenda" />
		<tag k="place" v="hamlet" />
		<tag k="ssr:stedsnr" v="215923" />
		<tag k="ssr:type" v="grend" />
	</node>
	<node changeset="59116087" id="5629891207" lat="59.1606485" lon="8.392856" timestamp="2018-05-20T06:05:25Z" uid="3842253" user="NKA_import" version="1">
		<tag k="alt_name" v="Fjalestad" />
		<tag k="name" v="Fjalestadgrenda" />
		<tag k="place" v="hamlet" />
		<tag k="ssr:stedsnr" v="877372" />
		<tag k="ssr:type" v="grend" />
	</node>
	<node changeset="59116087" id="5629891208" lat="59.2281917" lon="8.4135306" timestamp="2018-05-20T06:05:25Z" uid="3842253" user="NKA_import" version="1">
		<tag k="historic" v="shieling" />
		<tag k="name" v="Tjønnstøyl" />
		<tag k="place" v="locality" />
		<tag k="ssr:stedsnr" v="472189" />
		<tag k="ssr:type" v="seterStøl" />
	</node>
	<node changeset="59116087" id="5629891209" lat="59.1569389" lon="8.5445861" timestamp="2018-05-20T06:05:25Z" uid="3842253" user="NKA_import" version="1">
		<tag k="name" v="Kåsa" />
		<tag k="place" v="farm" />
		<tag k="ssr:stedsnr" v="335579" />
		<tag k="ssr:type" v="bruk" />
	</node>
	<node changeset="59116087" id="5629891210" lat="58.9258444" lon="8.78065" timestamp="2018-05-20T06:05:25Z" uid="3842253" user="NKA_import" version="1">
		<tag k="name" v="Vehus nedre" />
		<tag k="place" v="farm" />
		<tag k="ssr:stedsnr" v="764097" />
		<tag k="ssr:type" v="bruk" />
	</node>
	<node changeset="59116087" id="5629891211" lat="59.1644555" lon="8.5018209" timestamp="2018-05-20T06:05:25Z" uid="3842253" user="NKA_import" version="1">
		<tag k="name" v="Framnes" />
		<tag k="place" v="neighbourhood" />
		<tag k="ssr:stedsnr" v="335987" />
		<tag k="ssr:type" v="boligfelt" />
	</node>
	<node changeset="59116087" id="5629891212" lat="58.8587556" lon="8.7204103" timestamp="2018-05-20T06:05:26Z" uid="3842253" user="NKA_import" version="1">
		<tag k="building" v="cabin" />
		<tag k="name" v="Sesstjønnhytta" />
		<tag k="place" v="locality" />
		<tag k="ssr:stedsnr" v="764276" />
		<tag k="ssr:type" v="turisthytte" />
	</node>
	<node changeset="59116087" id="5629891213" lat="59.1657778" lon="8.5331583" timestamp="2018-05-20T06:05:26Z" uid="3842253" user="NKA_import" version="1">
		<tag k="name" v="Tempelen" />
		<tag k="place" v="locality" />
		<tag k="ssr:stedsnr" v="335988" />
		<tag k="ssr:type" v="gammelBosettingsplass" />
	</node>
	<node changeset="59116087" id="5629891214" lat="58.9995639" lon="8.6830778" timestamp="2018-05-20T06:05:26Z" uid="3842253" user="NKA_import" version="1">
		<tag k="building" v="cabin" />
		<tag k="name" v="Berghylhytta" />
		<tag k="place" v="isolated_dwelling" />
		<tag k="ssr:stedsnr" v="95046" />
		<tag k="ssr:type" v="fritidsbolig" />
	</node>
	<node changeset="59116087" id="5629891215" lat="59.0163667" lon="8.5600667" timestamp="2018-05-20T06:05:26Z" uid="3842253" user="NKA_import" version="1">
		<tag k="name" v="Øverland søndre" />
		<tag k="place" v="farm" />
		<tag k="ssr:stedsnr" v="216134" />
		<tag k="ssr:type" v="bruk" />
	</node>
	<node changeset="59116087" id="5629891216" lat="59.1918611" lon="8.5428389" timestamp="2018-05-20T06:05:26Z" uid="3842253" user="NKA_import" version="1">
		<tag k="historic" v="shieling" />
		<tag k="name" v="Listøyl" />
		<tag k="place" v="locality" />
		<tag k="ssr:stedsnr" v="336458" />
		<tag k="ssr:type" v="gammelBosettingsplass" />
	</node>
	<node changeset="59116087" id="5629891217" lat="59.0271139" lon="8.5204556" timestamp="2018-05-20T06:05:26Z" uid="3842253" user="NKA_import" version="1">
		<tag k="name" v="Søgard" />
		<tag k="place" v="farm" />
		<tag k="ssr:stedsnr" v="216204" />
		<tag k="ssr:type" v="bruk" />
	</node>
	<node changeset="59116087" id="5629891218" lat="59.1676056" lon="8.4623361" timestamp="2018-05-20T06:05:26Z" uid="3842253" user="NKA_import" version="1">
		<tag k="name" v="Nordheim" />
		<tag k="place" v="isolated_dwelling" />
		<tag k="ssr:stedsnr" v="472599" />
		<tag k="ssr:type" v="eneboligMindreBoligbygg" />
	</node>
	<node changeset="59116087" id="5629891219" lat="58.9850278" lon="8.5725028" timestamp="2018-05-20T06:05:26Z" uid="3842253" user="NKA_import" version="1">
		<tag k="historic" v="shieling" />
		<tag k="name" v="Seteren" />
		<tag k="place" v="locality" />
		<tag k="ssr:stedsnr" v="216278" />
		<tag k="ssr:type" v="seterStøl" />
	</node>
	<node changeset="59116087" id="5629891220" lat="59.1743083" lon="8.4817639" timestamp="2018-05-20T06:05:26Z" uid="3842253" user="NKA_import" version="1">
		<tag k="name" v="Sondet" />
		<tag k="place" v="locality" />
		<tag k="ssr:stedsnr" v="472635" />
		<tag k="ssr:type" v="gammelBosettingsplass" />
	</node>
	<node changeset="59116087" id="5629892269" lat="58.9064363" lon="8.7416956" timestamp="2018-05-20T06:05:30Z" uid="3842253" user="NKA_import" version="1">
		<tag k="name" v="Bakken" />
		<tag k="place" v="farm" />
		<tag k="ssr:stedsnr" v="103278" />
		<tag k="ssr:type" v="bruk" />
	</node>
	<node changeset="59116087" id="5629893421" lat="59.1984472" lon="8.4233806" timestamp="2018-05-20T06:06:01Z" uid="3842253" user="NKA_import" version="1">
		<tag k="historic" v="shieling" />
		<tag k="name" v="Kleivanstøylen" />
		<tag k="place" v="locality" />
		<tag k="ssr:stedsnr" v="715284" />
		<tag k="ssr:type" v="gammelBosettingsplass" />
	</node>
	<node changeset="59116087" id="5629893422" lat="58.99955" lon="8.57465" timestamp="2018-05-20T06:06:01Z" uid="3842253" user="NKA_import" version="1">
		<tag k="name" v="Nordbø" />
		<tag k="place" v="farm" />
		<tag k="ssr:stedsnr" v="458787" />
		<tag k="ssr:type" v="bruk" />
	</node>
	<node changeset="59116087" id="5629893423" lat="58.9440861" lon="8.34065" timestamp="2018-05-20T06:06:01Z" uid="3842253" user="NKA_import" version="1">
		<tag k="building" v="cabin" />
		<tag k="name" v="Hurv" />
		<tag k="place" v="isolated_dwelling" />
		<tag k="ssr:stedsnr" v="547971" />
		<tag k="ssr:type" v="fritidsbolig" />
	</node>
	<node changeset="59116087" id="5629893424" lat="59.1820139" lon="8.6452917" timestamp="2018-05-20T06:06:01Z" uid="3842253" user="NKA_import" version="1">
		<tag k="historic" v="shieling" />
		<tag k="name" v="Myrstøylbua" />
		<tag k="place" v="locality" />
		<tag k="ssr:stedsnr" v="169646" />
		<tag k="ssr:type" v="gammelBosettingsplass" />
	</node>
	<node changeset="59116087" id="5629893425" lat="58.9776861" lon="8.6060917" timestamp="2018-05-20T06:06:01Z" uid="3842253" user="NKA_import" version="1">
		<tag k="historic" v="shieling" />
		<tag k="name" v="Lauvåsøygarden" />
		<tag k="place" v="locality" />
		<tag k="ssr:stedsnr" v="607391" />
		<tag k="ssr:type" v="seterStøl" />
	</node>
	<node changeset="59116087" id="5629893426" lat="59.1361528" lon="8.4589667" timestamp="2018-05-20T06:06:01Z" uid="3842253" user="NKA_import" version="1">
		<tag k="name" v="Nordstø" />
		<tag k="place" v="isolated_dwelling" />
		<tag k="ssr:stedsnr" v="836569" />
		<tag k="ssr:type" v="eneboligMindreBoligbygg" />
	</node>
	<node changeset="59116087" id="5629893427" lat="59.1546917" lon="8.3405278" timestamp="2018-05-20T06:06:02Z" uid="3842253" user="NKA_import" version="1">
		<tag k="name" v="Kvålen" />
		<tag k="place" v="locality" />
		<tag k="ssr:stedsnr" v="836570" />
		<tag k="ssr:type" v="gammelBosettingsplass" />
	</node>
	<node changeset="59116087" id="5629893428" lat="59.0122306" lon="8.5572778" timestamp="2018-05-20T06:06:02Z" uid="3842253" user="NKA_import" version="1">
		<tag k="name" v="Homme nedre" />
		<tag k="place" v="farm" />
		<tag k="ssr:stedsnr" v="458917" />
		<tag k="ssr:type" v="bruk" />
	</node>
	<node changeset="59116087" id="5629893429" lat="59.0244028" lon="8.6126889" timestamp="2018-05-20T06:06:02Z" uid="3842253" user="NKA_import" version="1">
		<tag k="historic" v="shieling" />
		<tag k="name" v="Negård Støyl" />
		<tag k="place" v="locality" />
		<tag k="ssr:stedsnr" v="411036" />
		<tag k="ssr:type" v="gammelBosettingsplass" />
	</node>
	<node changeset="59116087" id="5629893430" lat="58.9315416" lon="8.7503603" timestamp="2018-05-20T06:06:02Z" uid="3842253" user="NKA_import" version="1">
		<tag k="name" v="Sandtjennhytta" />
		<tag k="ssr:stedsnr" v="177869" />
		<tag k="ssr:type" v="turisthytte" />
		<tag k="tourism" v="chalet" />
	</node>
	<node changeset="59116087" id="5629893431" lat="59.1574222" lon="8.4518972" timestamp="2018-05-20T06:06:02Z" uid="3842253" user="NKA_import" version="1">
		<tag k="name" v="Krokane" />
		<tag k="place" v="farm" />
		<tag k="ssr:stedsnr" v="411067" />
		<tag k="ssr:type" v="bruk" />
	</node>
	<node changeset="59116087" id="5629893432" lat="58.970972" lon="8.5210059" timestamp="2018-05-20T06:06:02Z" uid="3842253" user="NKA_import" version="1">
		<tag k="name" v="Bergland" />
		<tag k="place" v="isolated_dwelling" />
		<tag k="ssr:stedsnr" v="182238" />
		<tag k="ssr:type" v="eneboligMindreBoligbygg" />
	</node>
	<node changeset="59116087" id="5629893433" lat="59.1460361" lon="8.3655611" timestamp="2018-05-20T06:06:02Z" uid="3842253" user="NKA_import" version="1">
		<tag k="name" v="Nordal" />
		<tag k="place" v="locality" />
		<tag k="ssr:stedsnr" v="836581" />
		<tag k="ssr:type" v="gammelBosettingsplass" />
	</node>
	<node changeset="59116087" id="5629893434" lat="58.942825" lon="8.49515" timestamp="2018-05-20T06:06:02Z" uid="3842253" user="NKA_import" version="1">
		<tag k="name" v="Sundsli" />
		<tag k="place" v="farm" />
		<tag k="ssr:stedsnr" v="607433" />
		<tag k="ssr:type" v="bruk" />
	</node>
	<node changeset="59116087" id="5629893435" lat="59.0383639" lon="8.41895" timestamp="2018-05-20T06:06:02Z" uid="3842253" user="NKA_import" version="1">
		<tag k="name" v="Rustedalsbua" />
		<tag k="place" v="locality" />
		<tag k="ssr:stedsnr" v="411118" />
		<tag k="ssr:type" v="byggForJordbrukFiskeOgFangst" />
	</node>
	<node changeset="59116087" id="5629893436" lat="59.0276667" lon="8.5165222" timestamp="2018-05-20T06:06:02Z" uid="3842253" user="NKA_import" version="1">
		<tag k="name" v="Kåsa nedre" />
		<tag k="place" v="farm" />
		<tag k="ssr:stedsnr" v="459221" />
		<tag k="ssr:type" v="bruk" />
	</node>
	<node changeset="59116087" id="5629893437" lat="59.2172472" lon="8.3535722" timestamp="2018-05-20T06:06:02Z" uid="3842253" user="NKA_import" version="1">
		<tag k="historic" v="shieling" />
		<tag k="name" v="Kil" />
		<tag k="place" v="locality" />
		<tag k="ssr:stedsnr" v="411126" />
		<tag k="ssr:type" v="seterStøl" />
	</node>
	<node changeset="59116087" id="5629893438" lat="58.9342917" lon="8.4771333" timestamp="2018-05-20T06:06:02Z" uid="3842253" user="NKA_import" version="1">
		<tag k="name" v="Hagane" />
		<tag k="place" v="farm" />
		<tag k="ssr:stedsnr" v="607444" />
		<tag k="ssr:type" v="bruk" />
	</node>
	<node changeset="59116087" id="5629893439" lat="59.1795333" lon="8.6124639" timestamp="2018-05-20T06:06:03Z" uid="3842253" user="NKA_import" version="1">
		<tag k="historic" v="shieling" />
		<tag k="name" v="Nystøyl" />
		<tag k="place" v="locality" />
		<tag k="ssr:stedsnr" v="836640" />
		<tag k="ssr:type" v="gammelBosettingsplass" />
	</node>
	<node changeset="59116087" id="5629893440" lat="58.9974639" lon="8.5765" timestamp="2018-05-20T06:06:03Z" uid="3842253" user="NKA_import" version="1">
		<tag k="alt_name" v="Sønderland, øvre" />
		<tag k="name" v="Øvre Sønderland" />
		<tag k="place" v="farm" />
		<tag k="ssr:stedsnr" v="607468" />
		<tag k="ssr:type" v="bruk" />
	</node>
	<node changeset="59116087" id="5629893441" lat="58.903725" lon="8.7361722" timestamp="2018-05-20T06:06:03Z" uid="3842253" user="NKA_import" version="1">
		<tag k="name" v="Åsen" />
		<tag k="place" v="isolated_dwelling" />
		<tag k="ssr:stedsnr" v="607490" />
		<tag k="ssr:type" v="eneboligMindreBoligbygg" />
	</node>
	<node changeset="59116087" id="5629893442" lat="59.0261694" lon="8.6130833" timestamp="2018-05-20T06:06:03Z" uid="3842253" user="NKA_import" version="1">
		<tag k="historic" v="shieling" />
		<tag k="name" v="Austigard Støyl" />
		<tag k="place" v="farm" />
		<tag k="ssr:stedsnr" v="290037" />
		<tag k="ssr:type" v="bruk" />
	</node>
	<node changeset="59116087" id="5629893443" lat="59.2145806" lon="8.5509056" timestamp="2018-05-20T06:06:03Z" uid="3842253" user="NKA_import" version="1">
		<tag k="historic" v="shieling" />
		<tag k="name" v="Bærstøyl" />
		<tag k="place" v="locality" />
		<tag k="ssr:stedsnr" v="578592" />
		<tag k="ssr:type" v="gammelBosettingsplass" />
	</node>
	<node changeset="59116087" id="5629893444" lat="59.0330056" lon="8.6156694" timestamp="2018-05-20T06:06:03Z" uid="3842253" user="NKA_import" version="1">
		<tag k="name" v="Karibu" />
		<tag k="place" v="locality" />
		<tag k="ssr:stedsnr" v="290051" />
		<tag k="ssr:type" v="gammelBosettingsplass" />
	</node>
	<node changeset="59116087" id="5629893445" lat="59.1064639" lon="8.3616583" timestamp="2018-05-20T06:06:03Z" uid="3842253" user="NKA_import" version="1">
		<tag k="name" v="Bergbu" />
		<tag k="place" v="locality" />
		<tag k="ssr:stedsnr" v="836680" />
		<tag k="ssr:type" v="gammelBosettingsplass" />
	</node>
	<node changeset="59116087" id="5629893446" lat="59.0238333" lon="8.6893806" timestamp="2018-05-20T06:06:03Z" uid="3842253" user="NKA_import" version="1">
		<tag k="building" v="cabin" />
		<tag k="name" v="Kråkhomkrona" />
		<tag k="place" v="isolated_dwelling" />
		<tag k="ssr:stedsnr" v="411232" />
		<tag k="ssr:type" v="fritidsbolig" />
	</node>
	<node changeset="59116087" id="5629893447" lat="59.1632528" lon="8.4624861" timestamp="2018-05-20T06:06:03Z" uid="3842253" user="NKA_import" version="1">
		<tag k="name" v="Skogheim" />
		<tag k="place" v="isolated_dwelling" />
		<tag k="ssr:stedsnr" v="290126" />
		<tag k="ssr:type" v="eneboligMindreBoligbygg" />
	</node>
	<node changeset="59116087" id="5629893448" lat="58.9516556" lon="8.5063528" timestamp="2018-05-20T06:06:03Z" uid="3842253" user="NKA_import" version="1">
		<tag k="name" v="Brekka" />
		<tag k="place" v="farm" />
		<tag k="ssr:stedsnr" v="729357" />
		<tag k="ssr:type" v="bruk" />
	</node>
	<node changeset="59116087" id="5629893449" lat="59.0778" lon="8.6156361" timestamp="2018-05-20T06:06:03Z" uid="3842253" user="NKA_import" version="1">
		<tag k="name" v="Skeimohytta" />
		<tag k="place" v="locality" />
		<tag k="ssr:stedsnr" v="290218" />
		<tag k="ssr:type" v="gammelBosettingsplass" />
	</node>
	<node changeset="59116087" id="5629893450" lat="58.9314046" lon="8.4682809" timestamp="2018-05-20T06:06:04Z" uid="3842253" user="NKA_import" version="1">
		<tag k="name" v="Setane" />
		<tag k="place" v="hamlet" />
		<tag k="ssr:stedsnr" v="61997" />
		<tag k="ssr:type" v="bruk" />
	</node>
	<node changeset="59116087" id="5629893451" lat="59.1543028" lon="8.4053167" timestamp="2018-05-20T06:06:04Z" uid="3842253" user="NKA_import" version="1">
		<tag k="name" v="Øverland" />
		<tag k="place" v="isolated_dwelling" />
		<tag k="ssr:stedsnr" v="836879" />
		<tag k="ssr:type" v="eneboligMindreBoligbygg" />
	</node>
	<node changeset="59116087" id="5629893452" lat="59.1838442" lon="8.328564" timestamp="2018-05-20T06:06:04Z" uid="3842253" user="NKA_import" version="1">
		<tag k="building" v="cabin" />
		<tag k="name" v="Myrbu" />
		<tag k="place" v="isolated_dwelling" />
		<tag k="ssr:stedsnr" v="608055" />
		<tag k="ssr:type" v="fritidsbolig" />
	</node>
	<node changeset="59116087" id="5629893453" lat="59.171925" lon="8.439575" timestamp="2018-05-20T06:06:04Z" uid="3842253" user="NKA_import" version="1">
		<tag k="name" v="Borstad" />
		<tag k="place" v="hamlet" />
		<tag k="ssr:stedsnr" v="62106" />
		<tag k="ssr:type" v="bruk" />
	</node>
	<node changeset="59116087" id="5629893454" lat="59.0123512" lon="8.535796" timestamp="2018-05-20T06:06:04Z" uid="3842253" user="NKA_import" version="1">
		<tag k="name" v="Lauvdalen" />
		<tag k="place" v="neighbourhood" />
		<tag k="ssr:stedsnr" v="459991" />
		<tag k="ssr:type" v="bygdelagBygd" />
	</node>
	<node changeset="59116087" id="5629893455" lat="59.1644528" lon="8.4010083" timestamp="2018-05-20T06:06:04Z" uid="3842253" user="NKA_import" version="1">
		<tag k="name" v="Solli" />
		<tag k="place" v="farm" />
		<tag k="ssr:stedsnr" v="62108" />
		<tag k="ssr:type" v="bruk" />
	</node>
	<node changeset="59116087" id="5629893456" lat="59.012272" lon="8.5201606" timestamp="2018-05-20T06:06:04Z" uid="3842253" user="NKA_import" version="1">
		<tag k="name" v="Sundsmoen" />
		<tag k="place" v="neighbourhood" />
		<tag k="ssr:stedsnr" v="459995" />
		<tag k="ssr:type" v="industriområde" />
	</node>
	<node changeset="59116087" id="5629893457" lat="59.0046361" lon="8.594725" timestamp="2018-05-20T06:06:04Z" uid="3842253" user="NKA_import" version="1">
		<tag k="alt_name" v="Nordheim" />
		<tag k="name" v="Norheim" />
		<tag k="place" v="farm" />
		<tag k="ssr:stedsnr" v="729466" />
		<tag k="ssr:type" v="bruk" />
	</node>
	<node changeset="59116087" id="5629893458" lat="59.1617806" lon="8.3945833" timestamp="2018-05-20T06:06:04Z" uid="3842253" user="NKA_import" version="1">
		<tag k="alt_name" v="Reini" />
		<tag k="name" v="Reine" />
		<tag k="place" v="farm" />
		<tag k="ssr:stedsnr" v="62107" />
		<tag k="ssr:type" v="bruk" />
	</node>
	<node changeset="59116087" id="5629893459" lat="59.040431" lon="8.6622836" timestamp="2018-05-20T06:06:04Z" uid="3842253" user="NKA_import" version="1">
		<tag k="alt_name" v="Rosstjørnhytta" />
		<tag k="building" v="cabin" />
		<tag k="name" v="Rosstjønnhytta" />
		<tag k="place" v="isolated_dwelling" />
		<tag k="ssr:stedsnr" v="729497" />
		<tag k="ssr:type" v="fritidsbolig" />
	</node>
	<node changeset="59116087" id="5629893460" lat="59.0039778" lon="8.58005" timestamp="2018-05-20T06:06:04Z" uid="3842253" user="NKA_import" version="1">
		<tag k="alt_name" v="Moen nedre" />
		<tag k="name" v="Moen" />
		<tag k="place" v="farm" />
		<tag k="ssr:stedsnr" v="183413" />
		<tag k="ssr:type" v="bruk" />
	</node>
	<node changeset="59116087" id="5629893461" lat="58.9742186" lon="8.5227751" timestamp="2018-05-20T06:06:05Z" uid="3842253" user="NKA_import" version="1">
		<tag k="alt_name" v="Tjørull-kroa" />
		<tag k="amenity" v="cafe" />
		<tag k="name" v="Kjørullkroa" />
		<tag k="ssr:stedsnr" v="850250" />
		<tag k="ssr:type" v="forretningsbygg" />
	</node>
	<node changeset="59116087" id="5629893462" lat="59.0009472" lon="8.5898306" timestamp="2018-05-20T06:06:05Z" uid="3842253" user="NKA_import" version="1">
		<tag k="name" v="Svalastog" />
		<tag k="place" v="farm" />
		<tag k="ssr:stedsnr" v="183417" />
		<tag k="ssr:type" v="bruk" />
	</node>
	<node changeset="59116087" id="5629893463" lat="58.9979528" lon="8.5862972" timestamp="2018-05-20T06:06:05Z" uid="3842253" user="NKA_import" version="1">
		<tag k="name" v="Nistog" />
		<tag k="place" v="farm" />
		<tag k="ssr:stedsnr" v="579797" />
		<tag k="ssr:type" v="bruk" />
	</node>
	<node changeset="59116087" id="5629893464" lat="58.9751661" lon="8.5229206" timestamp="2018-05-20T06:06:05Z" uid="3842253" user="NKA_import" version="1">
		<tag k="name" v="Tjønnefoss" />
		<tag k="place" v="hamlet" />
		<tag k="ssr:stedsnr" v="850251" />
		<tag k="ssr:type" v="grend" />
	</node>
	<node changeset="59116087" id="5629893465" lat="59.1772806" lon="8.66885" timestamp="2018-05-20T06:06:05Z" uid="3842253" user="NKA_import" version="1">
		<tag k="name" v="Myrbua" />
		<tag k="place" v="locality" />
		<tag k="ssr:stedsnr" v="411573" />
		<tag k="ssr:type" v="gammelBosettingsplass" />
	</node>
	<node changeset="59116087" id="5629893466" lat="58.9664554" lon="8.7122204" timestamp="2018-05-20T06:06:05Z" uid="3842253" user="NKA_import" version="1">
		<tag k="building" v="cabin" />
		<tag k="name" v="Ormvasslia" />
		<tag k="place" v="isolated_dwelling" />
		<tag k="ssr:stedsnr" v="850357" />
		<tag k="ssr:type" v="fritidsbolig" />
	</node>
	<node changeset="59116087" id="5629893467" lat="59.1462306" lon="8.3600555" timestamp="2018-05-20T06:06:05Z" uid="3842253" user="NKA_import" version="1">
		<tag k="name" v="Vadder" />
		<tag k="place" v="locality" />
		<tag k="ssr:stedsnr" v="411577" />
		<tag k="ssr:type" v="gammelBosettingsplass" />
	</node>
	<node changeset="59116087" id="5629893468" lat="58.8791722" lon="8.6940361" timestamp="2018-05-20T06:06:05Z" uid="3842253" user="NKA_import" version="1">
		<tag k="historic" v="shieling" />
		<tag k="name" v="Kvåve" />
		<tag k="place" v="locality" />
		<tag k="ssr:stedsnr" v="460195" />
		<tag k="ssr:type" v="seterStøl" />
	</node>
	<node changeset="59116087" id="5629893469" lat="59.145875" lon="8.3719194" timestamp="2018-05-20T06:06:05Z" uid="3842253" user="NKA_import" version="1">
		<tag k="name" v="Åbø" />
		<tag k="place" v="locality" />
		<tag k="ssr:stedsnr" v="290542" />
		<tag k="ssr:type" v="gammelBosettingsplass" />
	</node>
	<node changeset="59116087" id="5629893470" lat="59.1790389" lon="8.6336194" timestamp="2018-05-20T06:06:05Z" uid="3842253" user="NKA_import" version="1">
		<tag k="historic" v="shieling" />
		<tag k="name" v="Drangstøyl" />
		<tag k="place" v="locality" />
		<tag k="ssr:stedsnr" v="411653" />
		<tag k="ssr:type" v="gammelBosettingsplass" />
	</node>
	<node changeset="59116087" id="5629893471" lat="59.0164167" lon="8.5218528" timestamp="2018-05-20T06:06:05Z" uid="3842253" user="NKA_import" version="1">
		<tag k="name" v="Sundmoen" />
		<tag k="place" v="isolated_dwelling" />
		<tag k="ssr:stedsnr" v="608491" />
		<tag k="ssr:type" v="eneboligMindreBoligbygg" />
	</node>
	<node changeset="59116087" id="5629893472" lat="59.0285528" lon="8.5347389" timestamp="2018-05-20T06:06:05Z" uid="3842253" user="NKA_import" version="1">
		<tag k="alt_name" v="Nordgard Tveit" />
		<tag k="name" v="Tveit" />
		<tag k="place" v="hamlet" />
		<tag k="ssr:stedsnr" v="183491" />
		<tag k="ssr:type" v="bruk" />
	</node>
	<node changeset="59116087" id="5629893473" lat="59.0000894" lon="8.5243388" timestamp="2018-05-20T06:06:06Z" uid="3842253" user="NKA_import" version="1">
		<tag k="name" v="Baremsland" />
		<tag k="place" v="farm" />
		<tag k="ssr:stedsnr" v="62476" />
		<tag k="ssr:type" v="bruk" />
	</node>
	<node changeset="59116087" id="5629893474" lat="58.8964194" lon="8.6895528" timestamp="2018-05-20T06:06:06Z" uid="3842253" user="NKA_import" version="1">
		<tag k="name" v="Haugstøyl" />
		<tag k="place" v="hamlet" />
		<tag k="ssr:stedsnr" v="850481" />
		<tag k="ssr:type" v="bruk" />
	</node>
	<node changeset="59116087" id="5629893475" lat="59.0872523" lon="8.5387041" timestamp="2018-05-20T06:06:06Z" uid="3842253" user="NKA_import" version="1">
		<tag k="building" v="cabin" />
		<tag k="name" v="Sørstrond" />
		<tag k="place" v="isolated_dwelling" />
		<tag k="ssr:stedsnr" v="183645" />
		<tag k="ssr:type" v="fritidsbolig" />
	</node>
	<node changeset="59116087" id="5629893476" lat="59.1855639" lon="8.3078945" timestamp="2018-05-20T06:06:06Z" uid="3842253" user="NKA_import" version="1">
		<tag k="building" v="cabin" />
		<tag k="name" v="Fjellbu" />
		<tag k="place" v="isolated_dwelling" />
		<tag k="ssr:stedsnr" v="411836" />
		<tag k="ssr:type" v="fritidsbolig" />
	</node>
	<node changeset="59116087" id="5629893477" lat="59.1516472" lon="8.3881" timestamp="2018-05-20T06:06:06Z" uid="3842253" user="NKA_import" version="1">
		<tag k="name" v="Rørtveit" />
		<tag k="place" v="farm" />
		<tag k="ssr:stedsnr" v="290954" />
		<tag k="ssr:type" v="bruk" />
	</node>
	<node changeset="59116087" id="5629893478" lat="59.1562083" lon="8.3942361" timestamp="2018-05-20T06:06:06Z" uid="3842253" user="NKA_import" version="1">
		<tag k="name" v="Holskar" />
		<tag k="place" v="farm" />
		<tag k="ssr:stedsnr" v="290960" />
		<tag k="ssr:type" v="bruk" />
	</node>
	<node changeset="59116087" id="5629893479" lat="59.0256972" lon="8.5190389" timestamp="2018-05-20T06:06:06Z" uid="3842253" user="NKA_import" version="1">
		<tag k="alt_name" v="Tveit, nedre;Tveit nedre" />
		<tag k="name" v="Nedre Tveit" />
		<tag k="place" v="farm" />
		<tag k="ssr:stedsnr" v="62525" />
		<tag k="ssr:type" v="bruk" />
	</node>
	<node changeset="59116087" id="5629893480" lat="59.1492528" lon="8.3743646" timestamp="2018-05-20T06:06:06Z" uid="3842253" user="NKA_import" version="1">
		<tag k="name" v="Dale" />
		<tag k="place" v="hamlet" />
		<tag k="ssr:stedsnr" v="730087" />
		<tag k="ssr:type" v="bruk" />
	</node>
	<node changeset="59116087" id="5629893481" lat="59.0928361" lon="8.4850639" timestamp="2018-05-20T06:06:06Z" uid="3842253" user="NKA_import" version="1">
		<tag k="alt_name" v="Jori" />
		<tag k="name" v="Jordet" />
		<tag k="place" v="farm" />
		<tag k="ssr:stedsnr" v="608687" />
		<tag k="ssr:type" v="bruk" />
	</node>
	<node changeset="59116087" id="5629893482" lat="59.0170139" lon="8.5595472" timestamp="2018-05-20T06:06:06Z" uid="3842253" user="NKA_import" version="1">
		<tag k="alt_name" v="Øverland nordre" />
		<tag k="name" v="Øverland" />
		<tag k="place" v="hamlet" />
		<tag k="ssr:stedsnr" v="730484" />
		<tag k="ssr:type" v="bruk" />
	</node>
	<node changeset="59116087" id="5629893483" lat="59.091725" lon="8.4812528" timestamp="2018-05-20T06:06:07Z" uid="3842253" user="NKA_import" version="1">
		<tag k="name" v="Trontveit" />
		<tag k="place" v="hamlet" />
		<tag k="ssr:stedsnr" v="608690" />
		<tag k="ssr:type" v="bruk" />
	</node>
	<node changeset="59116087" id="5629893484" lat="59.0487194" lon="8.5116778" timestamp="2018-05-20T06:06:07Z" uid="3842253" user="NKA_import" version="1">
		<tag k="name" v="Lia" />
		<tag k="place" v="farm" />
		<tag k="ssr:stedsnr" v="62559" />
		<tag k="ssr:type" v="bruk" />
	</node>
	<node changeset="59116087" id="5629893485" lat="59.1658457" lon="8.444493" timestamp="2018-05-20T06:06:07Z" uid="3842253" user="NKA_import" version="1">
		<tag k="name" v="Kleivane" />
		<tag k="place" v="farm" />
		<tag k="ssr:stedsnr" v="851099" />
		<tag k="ssr:type" v="bruk" />
	</node>
	<node changeset="59116087" id="5629893486" lat="59.090971" lon="8.485182" timestamp="2018-05-20T06:06:07Z" uid="3842253" user="NKA_import" version="1">
		<tag k="name" v="Garden" />
		<tag k="place" v="farm" />
		<tag k="ssr:stedsnr" v="62663" />
		<tag k="ssr:type" v="bruk" />
	</node>
	<node changeset="59116087" id="5629893487" lat="59.0582013" lon="8.6097096" timestamp="2018-05-20T06:06:07Z" uid="3842253" user="NKA_import" version="1">
		<tag k="building" v="cabin" />
		<tag k="name" v="Godthol" />
		<tag k="place" v="isolated_dwelling" />
		<tag k="ssr:stedsnr" v="412135" />
		<tag k="ssr:type" v="fritidsbolig" />
	</node>
	<node changeset="59116087" id="5629893488" lat="59.1467056" lon="8.5163528" timestamp="2018-05-20T06:06:07Z" uid="3842253" user="NKA_import" version="1">
		<tag k="name" v="Berli" />
		<tag k="place" v="farm" />
		<tag k="ssr:stedsnr" v="608771" />
		<tag k="ssr:type" v="bruk" />
	</node>
	<node changeset="59116087" id="5629893489" lat="59.1943339" lon="8.5263971" timestamp="2018-05-20T06:06:07Z" uid="3842253" user="NKA_import" version="1">
		<tag k="name" v="Tveitane" />
		<tag k="place" v="hamlet" />
		<tag k="ssr:stedsnr" v="183872" />
		<tag k="ssr:type" v="bruk" />
	</node>
	<node changeset="59116087" id="5629893490" lat="58.9766472" lon="8.459025" timestamp="2018-05-20T06:06:07Z" uid="3842253" user="NKA_import" version="1">
		<tag k="name" v="Nygård" />
		<tag k="place" v="isolated_dwelling" />
		<tag k="ssr:stedsnr" v="463051" />
		<tag k="ssr:type" v="eneboligMindreBoligbygg" />
	</node>
	<node changeset="59116087" id="5629893491" lat="59.0040194" lon="8.7711833" timestamp="2018-05-20T06:06:07Z" uid="3842253" user="NKA_import" version="1">
		<tag k="name" v="Hellervassbua" />
		<tag k="place" v="locality" />
		<tag k="ssr:stedsnr" v="412396" />
		<tag k="ssr:type" v="gammelBosettingsplass" />
	</node>
	<node changeset="59116087" id="5629893492" lat="58.9738111" lon="8.4564639" timestamp="2018-05-20T06:06:07Z" uid="3842253" user="NKA_import" version="1">
		<tag k="name" v="Lisledale" />
		<tag k="place" v="farm" />
		<tag k="ssr:stedsnr" v="183929" />
		<tag k="ssr:type" v="bruk" />
	</node>
	<node changeset="59116087" id="5629893493" lat="59.161275" lon="8.5467167" timestamp="2018-05-20T06:06:07Z" uid="3842253" user="NKA_import" version="1">
		<tag k="name" v="Ibrekk" />
		<tag k="place" v="farm" />
		<tag k="ssr:stedsnr" v="62776" />
		<tag k="ssr:type" v="bruk" />
	</node>
	<node changeset="59116087" id="5629893494" lat="59.0955694" lon="8.485475" timestamp="2018-05-20T06:06:07Z" uid="3842253" user="NKA_import" version="1">
		<tag k="name" v="Gjevland" />
		<tag k="place" v="farm" />
		<tag k="ssr:stedsnr" v="730685" />
		<tag k="ssr:type" v="bruk" />
	</node>
	<node changeset="59116087" id="5629893495" lat="59.1230972" lon="8.3536306" timestamp="2018-05-20T06:06:08Z" uid="3842253" user="NKA_import" version="1">
		<tag k="building" v="cabin" />
		<tag k="name" v="Årtunhytta" />
		<tag k="place" v="isolated_dwelling" />
		<tag k="ssr:stedsnr" v="469562" />
		<tag k="ssr:type" v="fritidsbolig" />
	</node>
	<node changeset="59116087" id="5629893496" lat="59.1797694" lon="8.5088" timestamp="2018-05-20T06:06:08Z" uid="3842253" user="NKA_import" version="1">
		<tag k="name" v="Nesland" />
		<tag k="place" v="farm" />
		<tag k="ssr:stedsnr" v="608840" />
		<tag k="ssr:type" v="bruk" />
	</node>
	<node changeset="59116087" id="5629893497" lat="59.1712762" lon="8.5063179" timestamp="2018-05-20T06:06:08Z" uid="3842253" user="NKA_import" version="1">
		<tag k="name" v="Rønningen" />
		<tag k="place" v="hamlet" />
		<tag k="ssr:stedsnr" v="62804" />
		<tag k="ssr:type" v="bruk" />
	</node>
	<node changeset="59116087" id="5629893498" lat="58.9433361" lon="8.4363472" timestamp="2018-05-20T06:06:08Z" uid="3842253" user="NKA_import" version="1">
		<tag k="historic" v="shieling" />
		<tag k="name" v="Nybu" />
		<tag k="place" v="locality" />
		<tag k="ssr:stedsnr" v="183959" />
		<tag k="ssr:type" v="seterStøl" />
	</node>
	<node changeset="59116087" id="5629892275" lat="58.97535" lon="8.7910861" timestamp="2018-05-20T06:05:31Z" uid="3842253" user="NKA_import" version="1">
		<tag k="building" v="cabin" />
		<tag k="name" v="Uvdalsstoga" />
		<tag k="place" v="isolated_dwelling" />
		<tag k="ssr:stedsnr" v="339201" />
		<tag k="ssr:type" v="fritidsbolig" />
	</node>
	<node changeset="59116087" id="5629892281" lat="59.1468667" lon="8.5288306" timestamp="2018-05-20T06:05:32Z" uid="3842253" user="NKA_import" version="1">
		<tag k="name" v="Liland" />
		<tag k="place" v="farm" />
		<tag k="ssr:stedsnr" v="912746" />
		<tag k="ssr:type" v="bruk" />
	</node>
	<node changeset="66579344" id="1192918301" lat="59.1610734" lon="8.5112571" timestamp="2019-01-23T19:04:28Z" uid="3497659" user="NKA" version="5">
		<tag k="alt_name" v="Kyrkjebygdi;Nissedal" />
		<tag k="name" v="Kyrkjebygda" />
		<tag k="place" v="village" />
		<tag k="ssr:stedsnr" v="487272" />
		<tag k="ssr:type" v="bygdelagBygd" />
	</node>
	<node changeset="59116087" id="3001380413" lat="59.0018194" lon="8.5781497" timestamp="2018-05-20T06:06:08Z" uid="3842253" user="NKA_import" version="2">
		<tag k="alt_name" v="Heimdalsgrenda" />
		<tag k="name" v="Heimdal" />
		<tag k="place" v="hamlet" />
		<tag k="ssr:stedsnr" v="426459" />
		<tag k="ssr:type" v="grend" />
	</node>
	<node changeset="59116087" id="1423531581" lat="58.9442832" lon="8.5034946" timestamp="2018-05-20T06:06:08Z" uid="3842253" user="NKA_import" version="2">
		<tag k="alt_name" v="Haugsjåsundet" />
		<tag k="name" v="Haugsjåsund" />
		<tag k="place" v="hamlet" />
		<tag k="ssr:stedsnr" v="365338" />
		<tag k="ssr:type" v="grend" />
	</node>
	<node changeset="59116087" id="5629892221" lat="59.1559806" lon="8.6545695" timestamp="2018-05-20T06:05:26Z" uid="3842253" user="NKA_import" version="1">
		<tag k="name" v="Steinbruhommen" />
		<tag k="place" v="locality" />
		<tag k="ssr:stedsnr" v="472705" />
		<tag k="ssr:type" v="gammelBosettingsplass" />
	</node>
	<node changeset="59116087" id="5629892222" lat="58.9308083" lon="8.5996472" timestamp="2018-05-20T06:05:26Z" uid="3842253" user="NKA_import" version="1">
		<tag k="alt_name" v="Bergstøyl" />
		<tag k="historic" v="shieling" />
		<tag k="name" v="Bergstøl" />
		<tag k="place" v="farm" />
		<tag k="ssr:stedsnr" v="911416" />
		<tag k="ssr:type" v="bruk" />
	</node>
	<node changeset="61585180" id="5629892223" lat="58.9033436" lon="8.7466969" timestamp="2018-08-12T11:18:34Z" uid="3842253" user="NKA_import" version="2" />
	<node changeset="59116087" id="5629892224" lat="59.1554361" lon="8.4031833" timestamp="2018-05-20T06:05:27Z" uid="3842253" user="NKA_import" version="1">
		<tag k="name" v="Nedre Frostli" />
		<tag k="place" v="farm" />
		<tag k="ssr:stedsnr" v="472856" />
		<tag k="ssr:type" v="bruk" />
	</node>
	<node changeset="59116087" id="5629892225" lat="59.0188028" lon="8.5649194" timestamp="2018-05-20T06:05:27Z" uid="3842253" user="NKA_import" version="1">
		<tag k="name" v="Øvrebø" />
		<tag k="place" v="locality" />
		<tag k="ssr:stedsnr" v="337033" />
		<tag k="ssr:type" v="gammelBosettingsplass" />
	</node>
	<node changeset="59116087" id="5629892226" lat="59.1640083" lon="8.3924" timestamp="2018-05-20T06:05:27Z" uid="3842253" user="NKA_import" version="1">
		<tag k="name" v="Sessjordet" />
		<tag k="place" v="farm" />
		<tag k="ssr:stedsnr" v="472981" />
		<tag k="ssr:type" v="bruk" />
	</node>
	<node changeset="59116087" id="5629892227" lat="59.045425" lon="8.5138361" timestamp="2018-05-20T06:05:27Z" uid="3842253" user="NKA_import" version="1">
		<tag k="name" v="Dukane" />
		<tag k="place" v="locality" />
		<tag k="ssr:stedsnr" v="216525" />
		<tag k="ssr:type" v="gammelBosettingsplass" />
	</node>
	<node changeset="59116087" id="5629892228" lat="58.9944361" lon="8.6884445" timestamp="2018-05-20T06:05:27Z" uid="3842253" user="NKA_import" version="1">
		<tag k="name" v="Teilagsvassbua" />
		<tag k="place" v="locality" />
		<tag k="ssr:stedsnr" v="337060" />
		<tag k="ssr:type" v="byggForJordbrukFiskeOgFangst" />
	</node>
	<node changeset="59116087" id="5629892229" lat="58.8668472" lon="8.7255222" timestamp="2018-05-20T06:05:27Z" uid="3842253" user="NKA_import" version="1">
		<tag k="name" v="Eikelihytta" />
		<tag k="place" v="locality" />
		<tag k="ssr:stedsnr" v="642249" />
		<tag k="ssr:type" v="fritidsbolig" />
	</node>
	<node changeset="59116087" id="5629892230" lat="59.0458611" lon="8.5411722" timestamp="2018-05-20T06:05:27Z" uid="3842253" user="NKA_import" version="1">
		<tag k="name" v="Stompebakkbu" />
		<tag k="place" v="locality" />
		<tag k="ssr:stedsnr" v="216555" />
		<tag k="ssr:type" v="gammelBosettingsplass" />
	</node>
	<node changeset="59116087" id="5629892231" lat="58.9426917" lon="8.5117583" timestamp="2018-05-20T06:05:27Z" uid="3842253" user="NKA_import" version="1">
		<tag k="alt_name" v="Strand" />
		<tag k="name" v="Strond" />
		<tag k="place" v="farm" />
		<tag k="ssr:stedsnr" v="485369" />
		<tag k="ssr:type" v="bruk" />
	</node>
	<node changeset="59116087" id="5629892232" lat="58.9372694" lon="8.5205444" timestamp="2018-05-20T06:05:27Z" uid="3842253" user="NKA_import" version="1">
		<tag k="name" v="Gaukåsen" />
		<tag k="place" v="farm" />
		<tag k="ssr:stedsnr" v="911445" />
		<tag k="ssr:type" v="bruk" />
	</node>
	<node changeset="59116087" id="5629892233" lat="59.01605" lon="8.5066611" timestamp="2018-05-20T06:05:27Z" uid="3842253" user="NKA_import" version="1">
		<tag k="building" v="cabin" />
		<tag k="name" v="Klyvstomyra" />
		<tag k="place" v="isolated_dwelling" />
		<tag k="ssr:stedsnr" v="95949" />
		<tag k="ssr:type" v="fritidsbolig" />
	</node>
	<node changeset="59116087" id="5629892234" lat="59.0036722" lon="8.59075" timestamp="2018-05-20T06:05:28Z" uid="3842253" user="NKA_import" version="1">
		<tag k="name" v="Vangen" />
		<tag k="place" v="farm" />
		<tag k="ssr:stedsnr" v="911472" />
		<tag k="ssr:type" v="bruk" />
	</node>
	<node changeset="59116087" id="5629892235" lat="58.9026694" lon="8.6862167" timestamp="2018-05-20T06:05:28Z" uid="3842253" user="NKA_import" version="1">
		<tag k="name" v="Brunåsen" />
		<tag k="place" v="farm" />
		<tag k="ssr:stedsnr" v="911481" />
		<tag k="ssr:type" v="bruk" />
	</node>
	<node changeset="59116087" id="5629892236" lat="59.1179639" lon="8.3725972" timestamp="2018-05-20T06:05:28Z" uid="3842253" user="NKA_import" version="1">
		<tag k="name" v="Finnstea" />
		<tag k="place" v="locality" />
		<tag k="ssr:stedsnr" v="773649" />
		<tag k="ssr:type" v="gammelBosettingsplass" />
	</node>
	<node changeset="59116087" id="5629892237" lat="59.0276694" lon="8.5385833" timestamp="2018-05-20T06:05:28Z" uid="3842253" user="NKA_import" version="1">
		<tag k="name" v="Uppigard" />
		<tag k="place" v="farm" />
		<tag k="ssr:stedsnr" v="216817" />
		<tag k="ssr:type" v="bruk" />
	</node>
	<node changeset="59116087" id="5629892238" lat="59.0268694" lon="8.5141333" timestamp="2018-05-20T06:05:28Z" uid="3842253" user="NKA_import" version="1">
		<tag k="name" v="Landvik" />
		<tag k="place" v="farm" />
		<tag k="ssr:stedsnr" v="337240" />
		<tag k="ssr:type" v="bruk" />
	</node>
	<node changeset="59116087" id="5629892239" lat="59.0282496" lon="8.5277978" timestamp="2018-05-20T06:05:28Z" uid="3842253" user="NKA_import" version="1">
		<tag k="name" v="Nedrebø" />
		<tag k="place" v="farm" />
		<tag k="ssr:stedsnr" v="216824" />
		<tag k="ssr:type" v="bruk" />
	</node>
	<node changeset="59116087" id="5629892240" lat="59.11045" lon="8.3890083" timestamp="2018-05-20T06:05:28Z" uid="3842253" user="NKA_import" version="1">
		<tag k="alt_name" v="Støyldalen" />
		<tag k="historic" v="shieling" />
		<tag k="name" v="Støldalen" />
		<tag k="place" v="locality" />
		<tag k="ssr:stedsnr" v="486172" />
		<tag k="ssr:type" v="seterStøl" />
	</node>
	<node changeset="59116087" id="5629892241" lat="58.9162333" lon="8.7575945" timestamp="2018-05-20T06:05:28Z" uid="3842253" user="NKA_import" version="1">
		<tag k="name" v="Eikeland" />
		<tag k="place" v="farm" />
		<tag k="ssr:stedsnr" v="911497" />
		<tag k="ssr:type" v="bruk" />
	</node>
	<node changeset="59116087" id="5629892242" lat="58.8668306" lon="8.7579694" timestamp="2018-05-20T06:05:28Z" uid="3842253" user="NKA_import" version="1">
		<tag k="historic" v="shieling" />
		<tag k="name" v="Ljosvassøygard" />
		<tag k="place" v="locality" />
		<tag k="ssr:stedsnr" v="96294" />
		<tag k="ssr:type" v="seterStøl" />
	</node>
	<node changeset="59116087" id="5629892243" lat="59.1921833" lon="8.6128083" timestamp="2018-05-20T06:05:28Z" uid="3842253" user="NKA_import" version="1">
		<tag k="name" v="Tvijyva" />
		<tag k="place" v="locality" />
		<tag k="ssr:stedsnr" v="218135" />
		<tag k="ssr:type" v="gammelBosettingsplass" />
	</node>
	<node changeset="59116087" id="5629892244" lat="59.0026444" lon="8.5766861" timestamp="2018-05-20T06:05:28Z" uid="3842253" user="NKA_import" version="1">
		<tag k="name" v="Bru øvre" />
		<tag k="place" v="isolated_dwelling" />
		<tag k="ssr:stedsnr" v="337748" />
		<tag k="ssr:type" v="fritidsbolig" />
	</node>
	<node changeset="61585180" id="5826865774" lat="58.9034539" lon="8.7463754" timestamp="2018-08-12T11:18:22Z" uid="3842253" user="NKA_import" version="1" />
	<node changeset="59116087" id="1423531670" lat="58.951434" lon="8.4093435" timestamp="2018-05-20T06:06:08Z" uid="3842253" user="NKA_import" version="2">
		<tag k="name" v="Eikhom" />
		<tag k="old_name" v="Eiknom" />
		<tag k="place" v="hamlet" />
		<tag k="ssr:stedsnr" v="62922" />
		<tag k="ssr:type" v="bruk" />
	</node>
	<node changeset="59116087" id="5629892247" lat="59.1323083" lon="8.36695" timestamp="2018-05-20T06:05:29Z" uid="3842253" user="NKA_import" version="1">
		<tag k="name" v="Nipa" />
		<tag k="place" v="locality" />
		<tag k="ssr:stedsnr" v="651587" />
		<tag k="ssr:type" v="gammelBosettingsplass" />
	</node>
	<node changeset="59116087" id="5629892248" lat="59.148325" lon="8.3725667" timestamp="2018-05-20T06:05:29Z" uid="3842253" user="NKA_import" version="1">
		<tag k="name" v="Vestre Dale" />
		<tag k="place" v="farm" />
		<tag k="ssr:stedsnr" v="651605" />
		<tag k="ssr:type" v="bruk" />
	</node>
	<node changeset="59116087" id="5629892249" lat="59.0268583" lon="8.5318583" timestamp="2018-05-20T06:05:29Z" uid="3842253" user="NKA_import" version="1">
		<tag k="alt_name" v="Ekrene" />
		<tag k="name" v="Ækrune" />
		<tag k="place" v="farm" />
		<tag k="ssr:stedsnr" v="337840" />
		<tag k="ssr:type" v="bruk" />
	</node>
	<node changeset="59116087" id="5629892250" lat="59.0629471" lon="8.394001" timestamp="2018-05-20T06:05:29Z" uid="3842253" user="NKA_import" version="1">
		<tag k="building" v="farm_auxiliary" />
		<tag k="name" v="Gamle Ånondsbu" />
		<tag k="place" v="locality" />
		<tag k="ssr:stedsnr" v="774458" />
		<tag k="ssr:type" v="byggForJordbrukFiskeOgFangst" />
	</node>
	<node changeset="61585180" id="5826865775" lat="58.9034604" lon="8.7463375" timestamp="2018-08-12T11:18:22Z" uid="3842253" user="NKA_import" version="1" />
	<node changeset="59116087" id="5629892252" lat="58.9235194" lon="8.4618667" timestamp="2018-05-20T06:05:29Z" uid="3842253" user="NKA_import" version="1">
		<tag k="building" v="farm_auxiliary" />
		<tag k="name" v="Torsbu" />
		<tag k="place" v="locality" />
		<tag k="ssr:stedsnr" v="652620" />
		<tag k="ssr:type" v="byggForJordbrukFiskeOgFangst" />
	</node>
	<node changeset="59116087" id="5629892253" lat="59.02385" lon="8.5219937" timestamp="2018-05-20T06:05:29Z" uid="3842253" user="NKA_import" version="1">
		<tag k="name" v="Solås" />
		<tag k="place" v="neighbourhood" />
		<tag k="ssr:stedsnr" v="337929" />
		<tag k="ssr:type" v="boligfelt" />
	</node>
	<node changeset="59116087" id="5629892254" lat="58.930825" lon="8.3522972" timestamp="2018-05-20T06:05:29Z" uid="3842253" user="NKA_import" version="1">
		<tag k="historic" v="shieling" />
		<tag k="name" v="Nordre Espestøyl" />
		<tag k="place" v="farm" />
		<tag k="ssr:stedsnr" v="652765" />
		<tag k="ssr:type" v="bruk" />
	</node>
	<node changeset="59116087" id="5629892255" lat="59.1580917" lon="8.4585417" timestamp="2018-05-20T06:05:29Z" uid="3842253" user="NKA_import" version="1">
		<tag k="name" v="Årtun" />
		<tag k="place" v="farm" />
		<tag k="ssr:stedsnr" v="775010" />
		<tag k="ssr:type" v="bruk" />
	</node>
	<node changeset="59116087" id="5629892256" lat="58.9987722" lon="8.5202056" timestamp="2018-05-20T06:05:29Z" uid="3842253" user="NKA_import" version="1">
		<tag k="name" v="Øygarden" />
		<tag k="place" v="locality" />
		<tag k="ssr:stedsnr" v="337939" />
		<tag k="ssr:type" v="gammelBosettingsplass" />
	</node>
	<node changeset="59116087" id="5629891184" lat="59.1532639" lon="8.5232833" timestamp="2018-05-20T06:05:23Z" uid="3842253" user="NKA_import" version="1">
		<tag k="name" v="Haugane" />
		<tag k="place" v="farm" />
		<tag k="ssr:stedsnr" v="214554" />
		<tag k="ssr:type" v="bruk" />
	</node>
	<node changeset="59116087" id="5629892258" lat="59.0153681" lon="8.5212742" timestamp="2018-05-20T06:05:29Z" uid="3842253" user="NKA_import" version="1">
		<tag k="building" v="industrial" />
		<tag k="name" v="Treungen bruk" />
		<tag k="ssr:stedsnr" v="337940" />
		<tag k="ssr:type" v="annenIndustri-OgLagerbygning" />
	</node>
	<node changeset="59116087" id="5629892259" lat="58.9011889" lon="8.7785667" timestamp="2018-05-20T06:05:30Z" uid="3842253" user="NKA_import" version="1">
		<tag k="name" v="Skåli" />
		<tag k="place" v="hamlet" />
		<tag k="ssr:stedsnr" v="486469" />
		<tag k="ssr:type" v="bruk" />
	</node>
	<node changeset="59116087" id="5629892260" lat="59.1182889" lon="8.4722361" timestamp="2018-05-20T06:05:30Z" uid="3842253" user="NKA_import" version="1">
		<tag k="name" v="Vik heimre" />
		<tag k="place" v="farm" />
		<tag k="ssr:stedsnr" v="775037" />
		<tag k="ssr:type" v="bruk" />
	</node>
	<node changeset="59116087" id="5629892261" lat="59.0025944" lon="8.5983667" timestamp="2018-05-20T06:05:30Z" uid="3842253" user="NKA_import" version="1">
		<tag k="building" v="cabin" />
		<tag k="name" v="Solberg" />
		<tag k="place" v="isolated_dwelling" />
		<tag k="ssr:stedsnr" v="486484" />
		<tag k="ssr:type" v="fritidsbolig" />
	</node>
	<node changeset="59116087" id="5629892262" lat="59.0183944" lon="8.4949167" timestamp="2018-05-20T06:05:30Z" uid="3842253" user="NKA_import" version="1">
		<tag k="name" v="Gaurak" />
		<tag k="place" v="locality" />
		<tag k="ssr:stedsnr" v="912491" />
		<tag k="ssr:type" v="gammelBosettingsplass" />
	</node>
	<node changeset="59116087" id="5629891185" lat="59.1747083" lon="8.50705" timestamp="2018-05-20T06:05:23Z" uid="3842253" user="NKA_import" version="1">
		<tag k="name" v="Strånd" />
		<tag k="place" v="farm" />
		<tag k="ssr:stedsnr" v="93993" />
		<tag k="ssr:type" v="bruk" />
	</node>
	<node changeset="59116087" id="5629892264" lat="59.0261639" lon="8.5356333" timestamp="2018-05-20T06:05:30Z" uid="3842253" user="NKA_import" version="1">
		<tag k="alt_name" v="Utistog" />
		<tag k="name" v="Utstog" />
		<tag k="place" v="farm" />
		<tag k="ssr:stedsnr" v="912556" />
		<tag k="ssr:type" v="bruk" />
	</node>
	<node changeset="59116087" id="5629892265" lat="59.2158194" lon="8.3491673" timestamp="2018-05-20T06:05:30Z" uid="3842253" user="NKA_import" version="1">
		<tag k="building" v="cabin" />
		<tag k="name" v="Kil" />
		<tag k="place" v="isolated_dwelling" />
		<tag k="ssr:stedsnr" v="775099" />
		<tag k="ssr:type" v="fritidsbolig" />
	</node>
	<node changeset="59116087" id="5629892266" lat="59.0349194" lon="8.4000667" timestamp="2018-05-20T06:05:30Z" uid="3842253" user="NKA_import" version="1">
		<tag k="historic" v="shieling" />
		<tag k="name" v="Nordgardstøylen" />
		<tag k="place" v="locality" />
		<tag k="ssr:stedsnr" v="653120" />
		<tag k="ssr:type" v="gammelBosettingsplass" />
	</node>
	<node changeset="59116087" id="5629892267" lat="59.0036802" lon="8.416595" timestamp="2018-05-20T06:05:30Z" uid="3842253" user="NKA_import" version="1">
		<tag k="building" v="farm_auxiliary" />
		<tag k="name" v="Engjanbua" />
		<tag k="place" v="locality" />
		<tag k="ssr:stedsnr" v="896340" />
		<tag k="ssr:type" v="byggForJordbrukFiskeOgFangst" />
	</node>
	<node changeset="59116087" id="5629892268" lat="59.0356056" lon="8.4299722" timestamp="2018-05-20T06:05:30Z" uid="3842253" user="NKA_import" version="1">
		<tag k="historic" v="shieling" />
		<tag k="name" v="Sønjanstøylen" />
		<tag k="place" v="locality" />
		<tag k="ssr:stedsnr" v="108115" />
		<tag k="ssr:type" v="byggForJordbrukFiskeOgFangst" />
	</node>
	<node changeset="59116087" id="5629891186" lat="59.0669806" lon="8.5203111" timestamp="2018-05-20T06:05:23Z" uid="3842253" user="NKA_import" version="1">
		<tag k="name" v="Stråndrak" />
		<tag k="place" v="locality" />
		<tag k="ssr:stedsnr" v="883962" />
		<tag k="ssr:type" v="gammelBosettingsplass" />
	</node>
	<node changeset="59116087" id="5629892270" lat="59.0566556" lon="8.5122889" timestamp="2018-05-20T06:05:31Z" uid="3842253" user="NKA_import" version="1">
		<tag k="name" v="Vik" />
		<tag k="place" v="hamlet" />
		<tag k="ssr:stedsnr" v="912610" />
		<tag k="ssr:type" v="bruk" />
	</node>
	<node changeset="59116087" id="5629892271" lat="58.9224889" lon="8.6477361" timestamp="2018-05-20T06:05:31Z" uid="3842253" user="NKA_import" version="1">
		<tag k="name" v="Onstad søndre" />
		<tag k="place" v="farm" />
		<tag k="ssr:stedsnr" v="218359" />
		<tag k="ssr:type" v="bruk" />
	</node>
	<node changeset="59116087" id="5629892272" lat="59.1501389" lon="8.3742611" timestamp="2018-05-20T06:05:31Z" uid="3842253" user="NKA_import" version="1">
		<tag k="name" v="Østre Dale" />
		<tag k="place" v="farm" />
		<tag k="ssr:stedsnr" v="105605" />
		<tag k="ssr:type" v="bruk" />
	</node>
	<node changeset="59116087" id="5629892273" lat="59.1954411" lon="8.6685863" timestamp="2018-05-20T06:05:31Z" uid="3842253" user="NKA_import" version="1">
		<tag k="alt_name" v="Fiskevasstøyl" />
		<tag k="building" v="cabin" />
		<tag k="historic" v="shieling" />
		<tag k="name" v="Fiskvatn" />
		<tag k="place" v="isolated_dwelling" />
		<tag k="ssr:stedsnr" v="486849" />
		<tag k="ssr:type" v="fritidsbolig" />
	</node>
	<node changeset="59116087" id="5629892274" lat="59.0935434" lon="8.4922556" timestamp="2018-05-20T06:05:31Z" uid="3842253" user="NKA_import" version="1">
		<tag k="building" v="cabin" />
		<tag k="name" v="Holmane" />
		<tag k="place" v="isolated_dwelling" />
		<tag k="ssr:stedsnr" v="653323" />
		<tag k="ssr:type" v="fritidsbolig" />
	</node>
	<node changeset="59116087" id="5629891187" lat="59.1732028" lon="8.506225" timestamp="2018-05-20T06:05:23Z" uid="3842253" user="NKA_import" version="1">
		<tag k="name" v="Teigen" />
		<tag k="place" v="isolated_dwelling" />
		<tag k="ssr:stedsnr" v="93994" />
		<tag k="ssr:type" v="eneboligMindreBoligbygg" />
	</node>
	<node changeset="59116087" id="5629892276" lat="59.0738528" lon="8.3946583" timestamp="2018-05-20T06:05:31Z" uid="3842253" user="NKA_import" version="1">
		<tag k="historic" v="shieling" />
		<tag k="name" v="Støylskrona" />
		<tag k="place" v="locality" />
		<tag k="ssr:stedsnr" v="653421" />
		<tag k="ssr:type" v="byggForJordbrukFiskeOgFangst" />
	</node>
	<node changeset="59116087" id="5629892277" lat="59.0571778" lon="8.4463111" timestamp="2018-05-20T06:05:31Z" uid="3842253" user="NKA_import" version="1">
		<tag k="historic" v="shieling" />
		<tag k="name" v="Svivstøylen" />
		<tag k="place" v="locality" />
		<tag k="ssr:stedsnr" v="896600" />
		<tag k="ssr:type" v="gammelBosettingsplass" />
	</node>
	<node changeset="59116087" id="5629892278" lat="58.96075" lon="8.4740778" timestamp="2018-05-20T06:05:31Z" uid="3842253" user="NKA_import" version="1">
		<tag k="name" v="Haugane" />
		<tag k="place" v="farm" />
		<tag k="ssr:stedsnr" v="107016" />
		<tag k="ssr:type" v="bruk" />
	</node>
	<node changeset="59116087" id="5629892279" lat="59.0509306" lon="8.4663556" timestamp="2018-05-20T06:05:31Z" uid="3842253" user="NKA_import" version="1">
		<tag k="name" v="Naurak søndre" />
		<tag k="place" v="locality" />
		<tag k="ssr:stedsnr" v="896872" />
		<tag k="ssr:type" v="gammelBosettingsplass" />
	</node>
	<node changeset="59116087" id="5629892280" lat="59.2449513" lon="8.5198238" timestamp="2018-05-20T06:05:31Z" uid="3842253" user="NKA_import" version="1">
		<tag k="building" v="farm_auxiliary" />
		<tag k="name" v="Fonnemark" />
		<tag k="place" v="locality" />
		<tag k="ssr:stedsnr" v="486938" />
		<tag k="ssr:type" v="byggForJordbrukFiskeOgFangst" />
	</node>
	<node changeset="59116087" id="5629891188" lat="59.0054333" lon="8.5789278" timestamp="2018-05-20T06:05:23Z" uid="3842253" user="NKA_import" version="1">
		<tag k="name" v="Rønningen" />
		<tag k="place" v="farm" />
		<tag k="ssr:stedsnr" v="852482" />
		<tag k="ssr:type" v="bruk" />
	</node>
	<node changeset="59116087" id="5629892282" lat="59.1120722" lon="8.4661972" timestamp="2018-05-20T06:05:32Z" uid="3842253" user="NKA_import" version="1">
		<tag k="name" v="Sandvikkosa" />
		<tag k="place" v="locality" />
		<tag k="ssr:stedsnr" v="897005" />
		<tag k="ssr:type" v="gammelBosettingsplass" />
	</node>
	<node changeset="59116087" id="5629892283" lat="59.158475" lon="8.4645028" timestamp="2018-05-20T06:05:32Z" uid="3842253" user="NKA_import" version="1">
		<tag k="name" v="Søgard Fjone søndre" />
		<tag k="place" v="farm" />
		<tag k="ssr:stedsnr" v="897029" />
		<tag k="ssr:type" v="bruk" />
	</node>
	<node changeset="59116087" id="5629892284" lat="59.1561778" lon="8.535475" timestamp="2018-05-20T06:05:32Z" uid="3842253" user="NKA_import" version="1">
		<tag k="alt_name" v="Kåsi" />
		<tag k="name" v="Kåsa" />
		<tag k="place" v="farm" />
		<tag k="ssr:stedsnr" v="912755" />
		<tag k="ssr:type" v="bruk" />
	</node>
	<node changeset="59116087" id="5629892285" lat="58.9315944" lon="8.4698028" timestamp="2018-05-20T06:05:32Z" uid="3842253" user="NKA_import" version="1">
		<tag k="name" v="Nedre Setane" />
		<tag k="place" v="farm" />
		<tag k="ssr:stedsnr" v="107410" />
		<tag k="ssr:type" v="bruk" />
	</node>
	<node changeset="59116087" id="5629892286" lat="59.1597167" lon="8.6713556" timestamp="2018-05-20T06:05:32Z" uid="3842253" user="NKA_import" version="1">
		<tag k="alt_name" v="Bua" />
		<tag k="name" v="Bui" />
		<tag k="place" v="locality" />
		<tag k="ssr:stedsnr" v="912783" />
		<tag k="ssr:type" v="gammelBosettingsplass" />
	</node>
	<node changeset="59116087" id="5629892287" lat="58.9336389" lon="8.4724111" timestamp="2018-05-20T06:05:32Z" uid="3842253" user="NKA_import" version="1">
		<tag k="name" v="Setekleiv" />
		<tag k="place" v="farm" />
		<tag k="ssr:stedsnr" v="107415" />
		<tag k="ssr:type" v="bruk" />
	</node>
	<node changeset="59116087" id="5629892288" lat="59.0461667" lon="8.442425" timestamp="2018-05-20T06:05:32Z" uid="3842253" user="NKA_import" version="1">
		<tag k="historic" v="shieling" />
		<tag k="name" v="Allambergstøylen" />
		<tag k="place" v="locality" />
		<tag k="ssr:stedsnr" v="897090" />
		<tag k="ssr:type" v="gammelBosettingsplass" />
	</node>
	<node changeset="59116087" id="5629892289" lat="59.1318193" lon="8.4573858" timestamp="2018-05-20T06:05:32Z" uid="3842253" user="NKA_import" version="1">
		<tag k="building" v="cabin" />
		<tag k="name" v="Mokollen" />
		<tag k="place" v="isolated_dwelling" />
		<tag k="ssr:stedsnr" v="775566" />
		<tag k="ssr:type" v="fritidsbolig" />
	</node>
	<node changeset="59116087" id="5629892290" lat="58.9011111" lon="8.7194194" timestamp="2018-05-20T06:05:32Z" uid="3842253" user="NKA_import" version="1">
		<tag k="name" v="Honne" />
		<tag k="place" v="locality" />
		<tag k="ssr:stedsnr" v="339447" />
		<tag k="ssr:type" v="gammelBosettingsplass" />
	</node>
	<node changeset="59116087" id="5629892291" lat="59.2068944" lon="8.5227417" timestamp="2018-05-20T06:05:32Z" uid="3842253" user="NKA_import" version="1">
		<tag k="name" v="Kleiva" />
		<tag k="old_name" v="Kleivgrend" />
		<tag k="place" v="farm" />
		<tag k="ssr:stedsnr" v="912879" />
		<tag k="ssr:type" v="bruk" />
	</node>
	<node changeset="59116087" id="5629892292" lat="59.1328389" lon="8.4082556" timestamp="2018-05-20T06:05:32Z" uid="3842253" user="NKA_import" version="1">
		<tag k="name" v="Brekke" />
		<tag k="place" v="locality" />
		<tag k="ssr:stedsnr" v="227549" />
		<tag k="ssr:type" v="gammelBosettingsplass" />
	</node>
	<node changeset="59116087" id="5629892293" lat="58.9004083" lon="8.7783667" timestamp="2018-05-20T06:05:33Z" uid="3842253" user="NKA_import" version="1">
		<tag k="name" v="Skåli nordre" />
		<tag k="place" v="farm" />
		<tag k="ssr:stedsnr" v="339633" />
		<tag k="ssr:type" v="bruk" />
	</node>
	<node changeset="59116087" id="5629892294" lat="59.2131" lon="8.5207528" timestamp="2018-05-20T06:05:33Z" uid="3842253" user="NKA_import" version="1">
		<tag k="name" v="Nykås" />
		<tag k="place" v="farm" />
		<tag k="ssr:stedsnr" v="912914" />
		<tag k="ssr:type" v="bruk" />
	</node>
	<node changeset="59116087" id="5629892295" lat="59.2571069" lon="8.4094098" timestamp="2018-05-20T06:05:33Z" uid="3842253" user="NKA_import" version="1">
		<tag k="building" v="farm_auxiliary" />
		<tag k="name" v="Bjønnstoga" />
		<tag k="place" v="locality" />
		<tag k="ssr:stedsnr" v="897164" />
		<tag k="ssr:type" v="byggForJordbrukFiskeOgFangst" />
	</node>
	<node changeset="59116087" id="5629892296" lat="59.1338773" lon="8.4590063" timestamp="2018-05-20T06:05:33Z" uid="3842253" user="NKA_import" version="1">
		<tag k="name" v="Moen" />
		<tag k="place" v="hamlet" />
		<tag k="ssr:stedsnr" v="487155" />
		<tag k="ssr:type" v="bruk" />
	</node>
	<node changeset="59116087" id="5629892297" lat="59.1540778" lon="8.4071861" timestamp="2018-05-20T06:05:33Z" uid="3842253" user="NKA_import" version="1">
		<tag k="name" v="Åheim" />
		<tag k="place" v="farm" />
		<tag k="ssr:stedsnr" v="897174" />
		<tag k="ssr:type" v="bruk" />
	</node>
	<node changeset="59116087" id="5629892298" lat="59.0091667" lon="8.4458055" timestamp="2018-05-20T06:05:33Z" uid="3842253" user="NKA_import" version="1">
		<tag k="alt_name" v="Fjellstøyl" />
		<tag k="historic" v="shieling" />
		<tag k="name" v="Fjellstøl" />
		<tag k="place" v="locality" />
		<tag k="ssr:stedsnr" v="912972" />
		<tag k="ssr:type" v="seterStøl" />
	</node>
	<node changeset="59116087" id="5629892299" lat="59.1287056" lon="8.4487" timestamp="2018-05-20T06:05:33Z" uid="3842253" user="NKA_import" version="1">
		<tag k="name" v="Dukane" />
		<tag k="place" v="locality" />
		<tag k="ssr:stedsnr" v="653608" />
		<tag k="ssr:type" v="gammelBosettingsplass" />
	</node>
	<node changeset="59116087" id="5629892300" lat="59.1632889" lon="8.5423083" timestamp="2018-05-20T06:05:33Z" uid="3842253" user="NKA_import" version="1">
		<tag k="name" v="Grimstveit østre" />
		<tag k="place" v="farm" />
		<tag k="ssr:stedsnr" v="942562" />
		<tag k="ssr:type" v="bruk" />
	</node>
	<node changeset="59116087" id="5629892301" lat="59.1598056" lon="8.4074694" timestamp="2018-05-20T06:05:33Z" uid="3842253" user="NKA_import" version="1">
		<tag k="name" v="Kosa" />
		<tag k="place" v="locality" />
		<tag k="ssr:stedsnr" v="775751" />
		<tag k="ssr:type" v="gammelBosettingsplass" />
	</node>
	<node changeset="59116087" id="5629892302" lat="59.1614472" lon="8.4616417" timestamp="2018-05-20T06:05:33Z" uid="3842253" user="NKA_import" version="1">
		<tag k="name" v="Uppigard Fjone" />
		<tag k="place" v="farm" />
		<tag k="ssr:stedsnr" v="108022" />
		<tag k="ssr:type" v="bruk" />
	</node>
	<node changeset="59116087" id="5629892303" lat="59.1537056" lon="8.4305528" timestamp="2018-05-20T06:05:33Z" uid="3842253" user="NKA_import" version="1">
		<tag k="name" v="Vadtveit" />
		<tag k="place" v="locality" />
		<tag k="ssr:stedsnr" v="653786" />
		<tag k="ssr:type" v="gammelBosettingsplass" />
	</node>
	<node changeset="59116087" id="5629892304" lat="59.1646472" lon="8.5474" timestamp="2018-05-20T06:05:33Z" uid="3842253" user="NKA_import" version="1">
		<tag k="name" v="Høgtveit" />
		<tag k="place" v="farm" />
		<tag k="ssr:stedsnr" v="942969" />
		<tag k="ssr:type" v="bruk" />
	</node>
	<node changeset="59116087" id="5629892305" lat="59.0250619" lon="8.6130961" timestamp="2018-05-20T06:05:34Z" uid="3842253" user="NKA_import" version="1">
		<tag k="name" v="Støyl" />
		<tag k="place" v="hamlet" />
		<tag k="ssr:stedsnr" v="487559" />
		<tag k="ssr:type" v="bruk" />
	</node>
	<node changeset="59116087" id="5629892306" lat="59.1045" lon="8.3949056" timestamp="2018-05-20T06:05:34Z" uid="3842253" user="NKA_import" version="1">
		<tag k="historic" v="shieling" />
		<tag k="name" v="Heggbærhommen" />
		<tag k="place" v="locality" />
		<tag k="ssr:stedsnr" v="775892" />
		<tag k="ssr:type" v="seterStøl" />
	</node>
	<node changeset="59116087" id="5629892307" lat="59.0998806" lon="8.572925" timestamp="2018-05-20T06:05:34Z" uid="3842253" user="NKA_import" version="1">
		<tag k="building" v="cabin" />
		<tag k="name" v="Doktarhyttene" />
		<tag k="place" v="isolated_dwelling" />
		<tag k="ssr:stedsnr" v="943284" />
		<tag k="ssr:type" v="fritidsbolig" />
	</node>
	<node changeset="59116087" id="5629892308" lat="59.0730256" lon="8.3890718" timestamp="2018-05-20T06:05:34Z" uid="3842253" user="NKA_import" version="1">
		<tag k="building" v="farm_auxiliary" />
		<tag k="name" v="Myrbu" />
		<tag k="place" v="locality" />
		<tag k="ssr:stedsnr" v="228475" />
		<tag k="ssr:type" v="byggForJordbrukFiskeOgFangst" />
	</node>
	<node changeset="59116087" id="5629892309" lat="59.1909111" lon="8.5937111" timestamp="2018-05-20T06:05:34Z" uid="3842253" user="NKA_import" version="1">
		<tag k="name" v="Kjarr" />
		<tag k="place" v="locality" />
		<tag k="ssr:stedsnr" v="943595" />
		<tag k="ssr:type" v="gammelBosettingsplass" />
	</node>
	<node changeset="59116087" id="5629892310" lat="59.07555" lon="8.3916417" timestamp="2018-05-20T06:05:34Z" uid="3842253" user="NKA_import" version="1">
		<tag k="name" v="Myrbustykket" />
		<tag k="place" v="locality" />
		<tag k="ssr:stedsnr" v="228477" />
		<tag k="ssr:type" v="eiendom" />
	</node>
	<node changeset="59116087" id="5629892311" lat="58.9901722" lon="8.4799778" timestamp="2018-05-20T06:05:34Z" uid="3842253" user="NKA_import" version="1">
		<tag k="name" v="Larsesbu" />
		<tag k="place" v="locality" />
		<tag k="ssr:stedsnr" v="348059" />
		<tag k="ssr:type" v="gammelBosettingsplass" />
	</node>
	<node changeset="59116087" id="5629892312" lat="59.2343667" lon="8.3627167" timestamp="2018-05-20T06:05:34Z" uid="3842253" user="NKA_import" version="1">
		<tag k="name" v="Langli" />
		<tag k="place" v="locality" />
		<tag k="ssr:stedsnr" v="108135" />
		<tag k="ssr:type" v="gammelBosettingsplass" />
	</node>
	<node changeset="59116087" id="5629892313" lat="59.1040611" lon="8.6206083" timestamp="2018-05-20T06:05:34Z" uid="3842253" user="NKA_import" version="1">
		<tag k="historic" v="shieling" />
		<tag k="name" v="Sandvasstøylen" />
		<tag k="place" v="locality" />
		<tag k="ssr:stedsnr" v="487681" />
		<tag k="ssr:type" v="eiendom" />
	</node>
	<node changeset="59116087" id="5629892314" lat="59.1620889" lon="8.3916833" timestamp="2018-05-20T06:05:34Z" uid="3842253" user="NKA_import" version="1">
		<tag k="name" v="Storuppigard" />
		<tag k="place" v="farm" />
		<tag k="ssr:stedsnr" v="653994" />
		<tag k="ssr:type" v="bruk" />
	</node>
	<node changeset="59116087" id="5629892315" lat="59.1572194" lon="8.6459806" timestamp="2018-05-20T06:05:34Z" uid="3842253" user="NKA_import" version="1">
		<tag k="historic" v="shieling" />
		<tag k="name" v="Nordstøyl" />
		<tag k="place" v="locality" />
		<tag k="ssr:stedsnr" v="776280" />
		<tag k="ssr:type" v="gammelBosettingsplass" />
	</node>
	<node changeset="59116087" id="5629892316" lat="59.1489972" lon="8.6444" timestamp="2018-05-20T06:05:35Z" uid="3842253" user="NKA_import" version="1">
		<tag k="historic" v="shieling" />
		<tag k="name" v="Espelistøylen" />
		<tag k="place" v="locality" />
		<tag k="ssr:stedsnr" v="897698" />
		<tag k="ssr:type" v="gammelBosettingsplass" />
	</node>
	<node changeset="59116087" id="5629892317" lat="59.1758389" lon="8.3376639" timestamp="2018-05-20T06:05:35Z" uid="3842253" user="NKA_import" version="1">
		<tag k="building" v="cabin" />
		<tag k="name" v="Myrbua" />
		<tag k="place" v="isolated_dwelling" />
		<tag k="ssr:stedsnr" v="897760" />
		<tag k="ssr:type" v="fritidsbolig" />
	</node>
	<node changeset="59116087" id="5629892318" lat="59.2077616" lon="8.6303125" timestamp="2018-05-20T06:05:35Z" uid="3842253" user="NKA_import" version="1">
		<tag k="building" v="cabin" />
		<tag k="name" v="Måvasshytta" />
		<tag k="place" v="isolated_dwelling" />
		<tag k="ssr:stedsnr" v="776497" />
		<tag k="ssr:type" v="fritidsbolig" />
	</node>
	<node changeset="59116087" id="5629892319" lat="59.0252722" lon="8.5228667" timestamp="2018-05-20T06:05:35Z" uid="3842253" user="NKA_import" version="1">
		<tag k="name" v="Grova" />
		<tag k="place" v="farm" />
		<tag k="ssr:stedsnr" v="944262" />
		<tag k="ssr:type" v="bruk" />
	</node>
	<node changeset="59116087" id="5629892320" lat="59.1010778" lon="8.4186917" timestamp="2018-05-20T06:05:35Z" uid="3842253" user="NKA_import" version="1">
		<tag k="historic" v="shieling" />
		<tag k="name" v="Hågstøyl" />
		<tag k="place" v="locality" />
		<tag k="ssr:stedsnr" v="897771" />
		<tag k="ssr:type" v="gammelBosettingsplass" />
	</node>
	<node changeset="59116087" id="5629892321" lat="59.1540389" lon="8.4513667" timestamp="2018-05-20T06:05:35Z" uid="3842253" user="NKA_import" version="1">
		<tag k="name" v="Slettemo" />
		<tag k="place" v="isolated_dwelling" />
		<tag k="ssr:stedsnr" v="108413" />
		<tag k="ssr:type" v="eneboligMindreBoligbygg" />
	</node>
	<node changeset="59116087" id="5629892322" lat="58.9610722" lon="8.4733472" timestamp="2018-05-20T06:05:35Z" uid="3842253" user="NKA_import" version="1">
		<tag k="name" v="Austigard" />
		<tag k="place" v="farm" />
		<tag k="ssr:stedsnr" v="349021" />
		<tag k="ssr:type" v="bruk" />
	</node>
	<node changeset="59116087" id="5629892323" lat="59.2482415" lon="8.4528666" timestamp="2018-05-20T06:05:35Z" uid="3842253" user="NKA_import" version="1">
		<tag k="building" v="farm_auxiliary" />
		<tag k="name" v="Horgevikbukta" />
		<tag k="place" v="locality" />
		<tag k="ssr:stedsnr" v="654227" />
		<tag k="ssr:type" v="byggForJordbrukFiskeOgFangst" />
	</node>
	<node changeset="59116087" id="5629892324" lat="59.1593194" lon="8.4648722" timestamp="2018-05-20T06:05:35Z" uid="3842253" user="NKA_import" version="1">
		<tag k="name" v="Søgard Fjone nordre" />
		<tag k="place" v="farm" />
		<tag k="ssr:stedsnr" v="229037" />
		<tag k="ssr:type" v="bruk" />
	</node>
	<node changeset="59116087" id="5629892325" lat="58.9618861" lon="8.5583194" timestamp="2018-05-20T06:05:35Z" uid="3842253" user="NKA_import" version="1">
		<tag k="building" v="farm_auxiliary" />
		<tag k="name" v="Breidablikk" />
		<tag k="place" v="locality" />
		<tag k="ssr:stedsnr" v="944137" />
		<tag k="ssr:type" v="byggForJordbrukFiskeOgFangst" />
	</node>
	<node changeset="59116087" id="5629892326" lat="59.0029861" lon="8.58215" timestamp="2018-05-20T06:05:36Z" uid="3842253" user="NKA_import" version="1">
		<tag k="name" v="Moen øvre" />
		<tag k="place" v="farm" />
		<tag k="ssr:stedsnr" v="944815" />
		<tag k="ssr:type" v="bruk" />
	</node>
	<node changeset="59116087" id="5629892327" lat="59.0461944" lon="8.3997556" timestamp="2018-05-20T06:05:36Z" uid="3842253" user="NKA_import" version="1">
		<tag k="name" v="Finnholbua" />
		<tag k="place" v="locality" />
		<tag k="ssr:stedsnr" v="349126" />
		<tag k="ssr:type" v="byggForJordbrukFiskeOgFangst" />
	</node>
	<node changeset="59116087" id="5629892328" lat="59.2159111" lon="8.4982111" timestamp="2018-05-20T06:05:36Z" uid="3842253" user="NKA_import" version="1">
		<tag k="name" v="Kilen" />
		<tag k="place" v="farm" />
		<tag k="ssr:stedsnr" v="487925" />
		<tag k="ssr:type" v="bruk" />
	</node>
	<node changeset="59116087" id="5629892329" lat="59.1167833" lon="8.6559083" timestamp="2018-05-20T06:05:36Z" uid="3842253" user="NKA_import" version="1">
		<tag k="name" v="Raunhommen" />
		<tag k="place" v="locality" />
		<tag k="ssr:stedsnr" v="654392" />
		<tag k="ssr:type" v="gammelBosettingsplass" />
	</node>
	<node changeset="59116087" id="5629892330" lat="58.9745194" lon="8.5186361" timestamp="2018-05-20T06:05:36Z" uid="3842253" user="NKA_import" version="1">
		<tag k="name" v="Vang" />
		<tag k="place" v="isolated_dwelling" />
		<tag k="ssr:stedsnr" v="944336" />
		<tag k="ssr:type" v="eneboligMindreBoligbygg" />
	</node>
	<node changeset="59116087" id="5629892331" lat="59.0165355" lon="8.5251188" timestamp="2018-05-20T06:05:36Z" uid="3842253" user="NKA_import" version="1">
		<tag k="name" v="Tveitsund" />
		<tag k="place" v="neighbourhood" />
		<tag k="ssr:stedsnr" v="510401" />
		<tag k="ssr:type" v="tettbebyggelse" />
	</node>
	<node changeset="59116087" id="5629892332" lat="59.1352525" lon="8.4589108" timestamp="2018-05-20T06:05:36Z" uid="3842253" user="NKA_import" version="1">
		<tag k="name" v="Heimtrå" />
		<tag k="place" v="isolated_dwelling" />
		<tag k="ssr:stedsnr" v="108605" />
		<tag k="ssr:type" v="fritidsbolig" />
	</node>
	<node changeset="59116087" id="5629892333" lat="59.1909703" lon="8.6716332" timestamp="2018-05-20T06:05:36Z" uid="3842253" user="NKA_import" version="1">
		<tag k="building" v="cabin" />
		<tag k="name" v="Steinbu" />
		<tag k="place" v="isolated_dwelling" />
		<tag k="ssr:stedsnr" v="654501" />
		<tag k="ssr:type" v="fritidsbolig" />
	</node>
	<node changeset="59116087" id="5629892334" lat="59.1662056" lon="8.4637667" timestamp="2018-05-20T06:05:36Z" uid="3842253" user="NKA_import" version="1">
		<tag k="name" v="Nordjordet" />
		<tag k="place" v="farm" />
		<tag k="ssr:stedsnr" v="108611" />
		<tag k="ssr:type" v="bruk" />
	</node>
	<node changeset="59116087" id="5629892335" lat="59.1196417" lon="8.4139056" timestamp="2018-05-20T06:05:36Z" uid="3842253" user="NKA_import" version="1">
		<tag k="name" v="Breivikbuine" />
		<tag k="place" v="locality" />
		<tag k="ssr:stedsnr" v="898000" />
		<tag k="ssr:type" v="gammelBosettingsplass" />
	</node>
	<node changeset="59116087" id="5629892336" lat="59.0478083" lon="8.6303528" timestamp="2018-05-20T06:05:36Z" uid="3842253" user="NKA_import" version="1">
		<tag k="name" v="Skogbu" />
		<tag k="place" v="locality" />
		<tag k="ssr:stedsnr" v="654583" />
		<tag k="ssr:type" v="gammelBosettingsplass" />
	</node>
	<node changeset="59116087" id="5629892337" lat="58.9867624" lon="8.6228987" timestamp="2018-05-20T06:05:36Z" uid="3842253" user="NKA_import" version="1">
		<tag k="building" v="cabin" />
		<tag k="name" v="Presthyløygarden" />
		<tag k="place" v="isolated_dwelling" />
		<tag k="ssr:stedsnr" v="789271" />
		<tag k="ssr:type" v="fritidsbolig" />
	</node>
	<node changeset="59116087" id="5629892338" lat="59.1645" lon="8.4633611" timestamp="2018-05-20T06:05:36Z" uid="3842253" user="NKA_import" version="1">
		<tag k="name" v="Lauvstad" />
		<tag k="place" v="isolated_dwelling" />
		<tag k="ssr:stedsnr" v="108612" />
		<tag k="ssr:type" v="eneboligMindreBoligbygg" />
	</node>
	<node changeset="59116087" id="5629892339" lat="59.0386389" lon="8.5126945" timestamp="2018-05-20T06:05:37Z" uid="3842253" user="NKA_import" version="1">
		<tag k="name" v="Årak søndre" />
		<tag k="place" v="farm" />
		<tag k="ssr:stedsnr" v="944525" />
		<tag k="ssr:type" v="bruk" />
	</node>
	<node changeset="59116087" id="5629892340" lat="59.1676861" lon="8.4613056" timestamp="2018-05-20T06:05:37Z" uid="3842253" user="NKA_import" version="1">
		<tag k="name" v="Kosa" />
		<tag k="place" v="isolated_dwelling" />
		<tag k="ssr:stedsnr" v="108626" />
		<tag k="ssr:type" v="eneboligMindreBoligbygg" />
	</node>
	<node changeset="59116087" id="5629892341" lat="59.1579222" lon="8.5069222" timestamp="2018-05-20T06:05:37Z" uid="3842253" user="NKA_import" version="1">
		<tag k="name" v="Tingstø" />
		<tag k="place" v="locality" />
		<tag k="ssr:stedsnr" v="517556" />
		<tag k="ssr:type" v="gammelBosettingsplass" />
	</node>
	<node changeset="59116087" id="5629892342" lat="59.1578" lon="8.5132861" timestamp="2018-05-20T06:05:37Z" uid="3842253" user="NKA_import" version="1">
		<tag k="name" v="Braskerud" />
		<tag k="place" v="locality" />
		<tag k="ssr:stedsnr" v="517562" />
		<tag k="ssr:type" v="gammelBosettingsplass" />
	</node>
	<node changeset="59116087" id="5629892343" lat="59.196325" lon="8.4589167" timestamp="2018-05-20T06:05:37Z" uid="3842253" user="NKA_import" version="1">
		<tag k="historic" v="shieling" />
		<tag k="name" v="Sandvikstøylen" />
		<tag k="place" v="locality" />
		<tag k="ssr:stedsnr" v="108694" />
		<tag k="ssr:type" v="gammelBosettingsplass" />
	</node>
	<node changeset="59116087" id="5629892344" lat="58.9995306" lon="8.5818361" timestamp="2018-05-20T06:05:37Z" uid="3842253" user="NKA_import" version="1">
		<tag k="name" v="Jordhaugen" />
		<tag k="place" v="locality" />
		<tag k="ssr:stedsnr" v="944774" />
		<tag k="ssr:type" v="gammelBosettingsplass" />
	</node>
	<node changeset="59116087" id="5629892345" lat="58.9158111" lon="8.3742694" timestamp="2018-05-20T06:05:37Z" uid="3842253" user="NKA_import" version="1">
		<tag k="name" v="Sæteren ved Uvdalsvatn" />
		<tag k="place" v="locality" />
		<tag k="ssr:stedsnr" v="654976" />
		<tag k="ssr:type" v="gammelBosettingsplass" />
	</node>
	<node changeset="59116087" id="5629892346" lat="59.1606944" lon="8.4091639" timestamp="2018-05-20T06:05:37Z" uid="3842253" user="NKA_import" version="1">
		<tag k="building" v="cabin" />
		<tag k="name" v="Solstad" />
		<tag k="place" v="isolated_dwelling" />
		<tag k="ssr:stedsnr" v="108761" />
		<tag k="ssr:type" v="fritidsbolig" />
	</node>
	<node changeset="59116087" id="5629892347" lat="58.9344167" lon="8.5370833" timestamp="2018-05-20T06:05:37Z" uid="3842253" user="NKA_import" version="1">
		<tag k="name" v="Espebu" />
		<tag k="place" v="isolated_dwelling" />
		<tag k="ssr:stedsnr" v="441" />
		<tag k="ssr:type" v="eneboligMindreBoligbygg" />
	</node>
	<node changeset="59116087" id="5629892348" lat="59.0521111" lon="8.4581333" timestamp="2018-05-20T06:05:37Z" uid="3842253" user="NKA_import" version="1">
		<tag k="name" v="Svivet" />
		<tag k="place" v="locality" />
		<tag k="ssr:stedsnr" v="350094" />
		<tag k="ssr:type" v="gammelBosettingsplass" />
	</node>
	<node changeset="59116087" id="5629892349" lat="58.9927639" lon="8.6892833" timestamp="2018-05-20T06:05:37Z" uid="3842253" user="NKA_import" version="1">
		<tag k="building" v="cabin" />
		<tag k="name" v="Teilagsvasshytta" />
		<tag k="place" v="isolated_dwelling" />
		<tag k="ssr:stedsnr" v="519035" />
		<tag k="ssr:type" v="fritidsbolig" />
	</node>
	<node changeset="59116087" id="5629892350" lat="59.0513739" lon="8.4660932" timestamp="2018-05-20T06:05:38Z" uid="3842253" user="NKA_import" version="1">
		<tag k="name" v="Naurak" />
		<tag k="place" v="farm" />
		<tag k="ssr:stedsnr" v="659344" />
		<tag k="ssr:type" v="bruk" />
	</node>
	<node changeset="59116087" id="5629892351" lat="59.1742667" lon="8.4082806" timestamp="2018-05-20T06:05:38Z" uid="3842253" user="NKA_import" version="1">
		<tag k="name" v="Grånhombua" />
		<tag k="place" v="locality" />
		<tag k="ssr:stedsnr" v="108953" />
		<tag k="ssr:type" v="gammelBosettingsplass" />
	</node>
	<node changeset="59116087" id="5629892352" lat="59.1934528" lon="8.4014667" timestamp="2018-05-20T06:05:38Z" uid="3842253" user="NKA_import" version="1">
		<tag k="alt_name" v="Reinstøyl" />
		<tag k="historic" v="shieling" />
		<tag k="name" v="Reinstøl" />
		<tag k="place" v="locality" />
		<tag k="ssr:stedsnr" v="668080" />
		<tag k="ssr:type" v="seterStøl" />
	</node>
	<node changeset="59116087" id="5629892353" lat="59.0279778" lon="8.5190639" timestamp="2018-05-20T06:05:38Z" uid="3842253" user="NKA_import" version="1">
		<tag k="name" v="Kåsa" />
		<tag k="place" v="farm" />
		<tag k="ssr:stedsnr" v="519255" />
		<tag k="ssr:type" v="bruk" />
	</node>
	<node changeset="59116087" id="5629892354" lat="58.9753806" lon="8.3796583" timestamp="2018-05-20T06:05:38Z" uid="3842253" user="NKA_import" version="1">
		<tag k="alt_name" v="Store Dale" />
		<tag k="name" v="Stordale" />
		<tag k="place" v="farm" />
		<tag k="ssr:stedsnr" v="887" />
		<tag k="ssr:type" v="bruk" />
	</node>
	<node changeset="59116087" id="5629892355" lat="59.1517972" lon="8.3644722" timestamp="2018-05-20T06:05:38Z" uid="3842253" user="NKA_import" version="1">
		<tag k="name" v="Bakkane" />
		<tag k="place" v="locality" />
		<tag k="ssr:stedsnr" v="229574" />
		<tag k="ssr:type" v="gammelBosettingsplass" />
	</node>
	<node changeset="59116087" id="5629892356" lat="59.1515694" lon="8.3471194" timestamp="2018-05-20T06:05:38Z" uid="3842253" user="NKA_import" version="1">
		<tag k="name" v="Vehus" />
		<tag k="place" v="locality" />
		<tag k="ssr:stedsnr" v="229601" />
		<tag k="ssr:type" v="gammelBosettingsplass" />
	</node>
	<node changeset="59116087" id="5629892357" lat="59.162175" lon="8.402675" timestamp="2018-05-20T06:05:38Z" uid="3842253" user="NKA_import" version="1">
		<tag k="alt_name" v="Nærbø" />
		<tag k="name" v="Nedrebø" />
		<tag k="place" v="farm" />
		<tag k="ssr:stedsnr" v="1123" />
		<tag k="ssr:type" v="bruk" />
	</node>
	<node changeset="59116087" id="5629892358" lat="59.0396278" lon="8.5111139" timestamp="2018-05-20T06:05:38Z" uid="3842253" user="NKA_import" version="1">
		<tag k="name" v="Nordgard" />
		<tag k="place" v="farm" />
		<tag k="ssr:stedsnr" v="519513" />
		<tag k="ssr:type" v="bruk" />
	</node>
	<node changeset="59116087" id="5629892359" lat="58.9852687" lon="8.5726068" timestamp="2018-05-20T06:05:38Z" uid="3842253" user="NKA_import" version="1">
		<tag k="building" v="cabin" />
		<tag k="name" v="Sønderlandsætta" />
		<tag k="place" v="isolated_dwelling" />
		<tag k="ssr:stedsnr" v="121270" />
		<tag k="ssr:type" v="fritidsbolig" />
	</node>
	<node changeset="59116087" id="5629892360" lat="59.0458" lon="8.581625" timestamp="2018-05-20T06:05:38Z" uid="3842253" user="NKA_import" version="1">
		<tag k="building" v="cabin" />
		<tag k="name" v="Skrepptihytta" />
		<tag k="place" v="isolated_dwelling" />
		<tag k="ssr:stedsnr" v="519583" />
		<tag k="ssr:type" v="fritidsbolig" />
	</node>
	<node changeset="59116087" id="5629892361" lat="59.1975222" lon="8.6421556" timestamp="2018-05-20T06:05:38Z" uid="3842253" user="NKA_import" version="1">
		<tag k="name" v="Fysli" />
		<tag k="place" v="locality" />
		<tag k="ssr:stedsnr" v="946111" />
		<tag k="ssr:type" v="gammelBosettingsplass" />
	</node>
	<node changeset="59116087" id="5629892362" lat="59.1522472" lon="8.3673389" timestamp="2018-05-20T06:05:39Z" uid="3842253" user="NKA_import" version="1">
		<tag k="name" v="Øvre Dalen" />
		<tag k="place" v="locality" />
		<tag k="ssr:stedsnr" v="350552" />
		<tag k="ssr:type" v="gammelBosettingsplass" />
	</node>
	<node changeset="59116087" id="5629892363" lat="59.1373889" lon="8.4043111" timestamp="2018-05-20T06:05:39Z" uid="3842253" user="NKA_import" version="1">
		<tag k="historic" v="shieling" />
		<tag k="name" v="Mesel" />
		<tag k="place" v="locality" />
		<tag k="ssr:stedsnr" v="790134" />
		<tag k="ssr:type" v="seterStøl" />
	</node>
	<node changeset="59116087" id="5629892364" lat="59.1762472" lon="8.6607278" timestamp="2018-05-20T06:05:39Z" uid="3842253" user="NKA_import" version="1">
		<tag k="historic" v="shieling" />
		<tag k="name" v="Myrstøyl" />
		<tag k="place" v="locality" />
		<tag k="ssr:stedsnr" v="229688" />
		<tag k="ssr:type" v="gammelBosettingsplass" />
	</node>
	<node changeset="59116087" id="5629892365" lat="59.1336667" lon="8.4312528" timestamp="2018-05-20T06:05:39Z" uid="3842253" user="NKA_import" version="1">
		<tag k="name" v="Solberg" />
		<tag k="place" v="locality" />
		<tag k="ssr:stedsnr" v="790135" />
		<tag k="ssr:type" v="gammelBosettingsplass" />
	</node>
	<node changeset="59116087" id="5629892366" lat="58.9344632" lon="8.5139666" timestamp="2018-05-20T06:05:39Z" uid="3842253" user="NKA_import" version="1">
		<tag k="name" v="Åbø" />
		<tag k="place" v="farm" />
		<tag k="ssr:stedsnr" v="668452" />
		<tag k="ssr:type" v="bruk" />
	</node>
	<node changeset="59116087" id="5629892367" lat="58.9607639" lon="8.5106083" timestamp="2018-05-20T06:05:39Z" uid="3842253" user="NKA_import" version="1">
		<tag k="name" v="Espeland" />
		<tag k="place" v="farm" />
		<tag k="ssr:stedsnr" v="1348" />
		<tag k="ssr:type" v="bruk" />
	</node>
	<node changeset="59116087" id="5629892368" lat="58.9033417" lon="8.6929639" timestamp="2018-05-20T06:05:39Z" uid="3842253" user="NKA_import" version="1">
		<tag k="alt_name" v="Øygardsli" />
		<tag k="name" v="Øygardslia" />
		<tag k="place" v="farm" />
		<tag k="ssr:stedsnr" v="668494" />
		<tag k="ssr:type" v="bruk" />
	</node>
	<node changeset="59116087" id="5629892369" lat="58.9735111" lon="8.4773056" timestamp="2018-05-20T06:05:39Z" uid="3842253" user="NKA_import" version="1">
		<tag k="name" v="Nordli" />
		<tag k="place" v="isolated_dwelling" />
		<tag k="ssr:stedsnr" v="122271" />
		<tag k="ssr:type" v="eneboligMindreBoligbygg" />
	</node>
	<node changeset="59116087" id="5629892370" lat="58.9148667" lon="8.7183296" timestamp="2018-05-20T06:05:39Z" uid="3842253" user="NKA_import" version="1">
		<tag k="building" v="cabin" />
		<tag k="name" v="Link" />
		<tag k="place" v="isolated_dwelling" />
		<tag k="ssr:stedsnr" v="1504" />
		<tag k="ssr:type" v="fritidsbolig" />
	</node>
	<node changeset="59116087" id="5629892371" lat="59.1594417" lon="8.4289861" timestamp="2018-05-20T06:05:39Z" uid="3842253" user="NKA_import" version="1">
		<tag k="name" v="Berge" />
		<tag k="place" v="locality" />
		<tag k="ssr:stedsnr" v="350752" />
		<tag k="ssr:type" v="gammelBosettingsplass" />
	</node>
	<node changeset="59116087" id="5629892372" lat="58.9681667" lon="8.6426028" timestamp="2018-05-20T06:05:39Z" uid="3842253" user="NKA_import" version="1">
		<tag k="historic" v="shieling" />
		<tag k="name" v="Nybustøylen" />
		<tag k="place" v="locality" />
		<tag k="ssr:stedsnr" v="946605" />
		<tag k="ssr:type" v="gammelBosettingsplass" />
	</node>
	<node changeset="59116087" id="5629892373" lat="59.0461863" lon="8.618407" timestamp="2018-05-20T06:05:40Z" uid="3842253" user="NKA_import" version="1">
		<tag k="building" v="cabin" />
		<tag k="name" v="Fjellbu" />
		<tag k="place" v="isolated_dwelling" />
		<tag k="ssr:stedsnr" v="1564" />
		<tag k="ssr:type" v="fritidsbolig" />
	</node>
	<node changeset="59116087" id="5629892374" lat="58.9158861" lon="8.3520528" timestamp="2018-05-20T06:05:40Z" uid="3842253" user="NKA_import" version="1">
		<tag k="name" v="Stallane" />
		<tag k="place" v="locality" />
		<tag k="ssr:stedsnr" v="229965" />
		<tag k="ssr:type" v="gammelBosettingsplass" />
	</node>
	<node changeset="59116087" id="5629892375" lat="58.9547583" lon="8.631975" timestamp="2018-05-20T06:05:40Z" uid="3842253" user="NKA_import" version="1">
		<tag k="alt_name" v="Almelia" />
		<tag k="name" v="Almlia" />
		<tag k="place" v="farm" />
		<tag k="ssr:stedsnr" v="122346" />
		<tag k="ssr:type" v="bruk" />
	</node>
	<node changeset="59116087" id="5629892376" lat="58.9517833" lon="8.6812111" timestamp="2018-05-20T06:05:40Z" uid="3842253" user="NKA_import" version="1">
		<tag k="historic" v="shieling" />
		<tag k="name" v="Milskiftebua" />
		<tag k="place" v="locality" />
		<tag k="ssr:stedsnr" v="520053" />
		<tag k="ssr:type" v="seterStøl" />
	</node>
	<node changeset="59116087" id="5629892377" lat="58.9036083" lon="8.7554306" timestamp="2018-05-20T06:05:40Z" uid="3842253" user="NKA_import" version="1">
		<tag k="name" v="Helland" />
		<tag k="place" v="farm" />
		<tag k="ssr:stedsnr" v="790462" />
		<tag k="ssr:type" v="bruk" />
	</node>
	<node changeset="59116087" id="5629892378" lat="59.1613778" lon="8.3917528" timestamp="2018-05-20T06:05:40Z" uid="3842253" user="NKA_import" version="1">
		<tag k="name" v="Lisleuppigard" />
		<tag k="place" v="farm" />
		<tag k="ssr:stedsnr" v="229988" />
		<tag k="ssr:type" v="bruk" />
	</node>
	<node changeset="59116087" id="5629892379" lat="58.9570306" lon="8.5112889" timestamp="2018-05-20T06:05:40Z" uid="3842253" user="NKA_import" version="1">
		<tag k="name" v="Fossli" />
		<tag k="place" v="farm" />
		<tag k="ssr:stedsnr" v="122348" />
		<tag k="ssr:type" v="bruk" />
	</node>
	<node changeset="59116087" id="5629892380" lat="59.1539083" lon="8.4000722" timestamp="2018-05-20T06:05:40Z" uid="3842253" user="NKA_import" version="1">
		<tag k="name" v="Øvre Frostli" />
		<tag k="place" v="farm" />
		<tag k="ssr:stedsnr" v="350850" />
		<tag k="ssr:type" v="bruk" />
	</node>
	<node changeset="59116087" id="5629892381" lat="59.200175" lon="8.5186361" timestamp="2018-05-20T06:05:40Z" uid="3842253" user="NKA_import" version="1">
		<tag k="alt_name" v="Midbø" />
		<tag k="name" v="Midtbø" />
		<tag k="place" v="farm" />
		<tag k="ssr:stedsnr" v="668859" />
		<tag k="ssr:type" v="bruk" />
	</node>
	<node changeset="59116087" id="5629892382" lat="59.0030028" lon="8.6452444" timestamp="2018-05-20T06:05:40Z" uid="3842253" user="NKA_import" version="1">
		<tag k="name" v="Sanden" />
		<tag k="place" v="locality" />
		<tag k="ssr:stedsnr" v="520173" />
		<tag k="ssr:type" v="gammelBosettingsplass" />
	</node>
	<node changeset="59116087" id="5629892383" lat="59.069125" lon="8.4774639" timestamp="2018-05-20T06:05:40Z" uid="3842253" user="NKA_import" version="1">
		<tag k="name" v="Flostad" />
		<tag k="place" v="locality" />
		<tag k="ssr:stedsnr" v="1631" />
		<tag k="ssr:type" v="gammelBosettingsplass" />
	</node>
	<node changeset="59116087" id="5629892384" lat="58.9760889" lon="8.6167222" timestamp="2018-05-20T06:05:40Z" uid="3842253" user="NKA_import" version="1">
		<tag k="name" v="Lauvåshytta" />
		<tag k="place" v="locality" />
		<tag k="ssr:stedsnr" v="520273" />
		<tag k="ssr:type" v="gammelBosettingsplass" />
	</node>
	<node changeset="59116087" id="5629892385" lat="58.8409167" lon="8.73235" timestamp="2018-05-20T06:05:41Z" uid="3842253" user="NKA_import" version="1">
		<tag k="name" v="Spjotvasslia" />
		<tag k="place" v="neighbourhood" />
		<tag k="ssr:stedsnr" v="1661" />
		<tag k="ssr:type" v="hyttefelt" />
	</node>
	<node changeset="59116087" id="5629892386" lat="59.1131583" lon="8.420325" timestamp="2018-05-20T06:05:41Z" uid="3842253" user="NKA_import" version="1">
		<tag k="name" v="Rubbu" />
		<tag k="place" v="locality" />
		<tag k="ssr:stedsnr" v="350929" />
		<tag k="ssr:type" v="gammelBosettingsplass" />
	</node>
	<node changeset="59116087" id="5629892387" lat="59.1276306" lon="8.4746361" timestamp="2018-05-20T06:05:41Z" uid="3842253" user="NKA_import" version="1">
		<tag k="name" v="Furulund" />
		<tag k="place" v="isolated_dwelling" />
		<tag k="ssr:stedsnr" v="1710" />
		<tag k="ssr:type" v="eneboligMindreBoligbygg" />
	</node>
	<node changeset="59116087" id="5629892388" lat="58.9810194" lon="8.4115611" timestamp="2018-05-20T06:05:41Z" uid="3842253" user="NKA_import" version="1">
		<tag k="name" v="Persståga" />
		<tag k="place" v="locality" />
		<tag k="ssr:stedsnr" v="955349" />
		<tag k="ssr:type" v="byggForJordbrukFiskeOgFangst" />
	</node>
	<node changeset="59116087" id="5629892389" lat="59.1664722" lon="8.6319556" timestamp="2018-05-20T06:05:41Z" uid="3842253" user="NKA_import" version="1">
		<tag k="historic" v="shieling" />
		<tag k="name" v="Homme" />
		<tag k="place" v="locality" />
		<tag k="ssr:stedsnr" v="1768" />
		<tag k="ssr:type" v="seterStøl" />
	</node>
	<node changeset="59116087" id="5629892390" lat="59.1188711" lon="8.4714073" timestamp="2018-05-20T06:05:41Z" uid="3842253" user="NKA_import" version="1">
		<tag k="name" v="Vik" />
		<tag k="place" v="hamlet" />
		<tag k="ssr:stedsnr" v="790695" />
		<tag k="ssr:type" v="bruk" />
	</node>
	<node changeset="59116087" id="5629892391" lat="59.1765139" lon="8.5073889" timestamp="2018-05-20T06:05:41Z" uid="3842253" user="NKA_import" version="1">
		<tag k="alt_name" v="Skeidmo" />
		<tag k="name" v="Skeimo" />
		<tag k="place" v="farm" />
		<tag k="ssr:stedsnr" v="669808" />
		<tag k="ssr:type" v="bruk" />
	</node>
	<node changeset="59116087" id="5629892392" lat="58.998125" lon="8.4421917" timestamp="2018-05-20T06:05:41Z" uid="3842253" user="NKA_import" version="1">
		<tag k="historic" v="shieling" />
		<tag k="name" v="Gloppeøygarden" />
		<tag k="place" v="locality" />
		<tag k="ssr:stedsnr" v="1864" />
		<tag k="ssr:type" v="seterStøl" />
	</node>
	<node changeset="59116087" id="5629892393" lat="59.1112306" lon="8.5562472" timestamp="2018-05-20T06:05:41Z" uid="3842253" user="NKA_import" version="1">
		<tag k="name" v="Fjelløygarden" />
		<tag k="place" v="locality" />
		<tag k="ssr:stedsnr" v="790712" />
		<tag k="ssr:type" v="gammelBosettingsplass" />
	</node>
	<node changeset="59116087" id="5629892394" lat="59.0943404" lon="8.4922767" timestamp="2018-05-20T06:05:41Z" uid="3842253" user="NKA_import" version="1">
		<tag k="building" v="cabin" />
		<tag k="name" v="Holman" />
		<tag k="place" v="isolated_dwelling" />
		<tag k="ssr:stedsnr" v="122645" />
		<tag k="ssr:type" v="fritidsbolig" />
	</node>
	<node changeset="59116087" id="5629892395" lat="59.18895" lon="8.5161083" timestamp="2018-05-20T06:05:41Z" uid="3842253" user="NKA_import" version="1">
		<tag k="name" v="Liarheim" />
		<tag k="place" v="isolated_dwelling" />
		<tag k="ssr:stedsnr" v="669837" />
		<tag k="ssr:type" v="eneboligMindreBoligbygg" />
	</node>
	<node changeset="59116087" id="5629892396" lat="59.2188889" lon="8.4988833" timestamp="2018-05-20T06:05:41Z" uid="3842253" user="NKA_import" version="1">
		<tag k="name" v="Flåm" />
		<tag k="place" v="locality" />
		<tag k="ssr:stedsnr" v="1912" />
		<tag k="ssr:type" v="gammelBosettingsplass" />
	</node>
	<node changeset="59116087" id="5629892397" lat="59.2017956" lon="8.6133292" timestamp="2018-05-20T06:05:42Z" uid="3842253" user="NKA_import" version="1">
		<tag k="building" v="farm_auxiliary" />
		<tag k="name" v="Tarjeisbu" />
		<tag k="place" v="locality" />
		<tag k="ssr:stedsnr" v="521120" />
		<tag k="ssr:type" v="byggForJordbrukFiskeOgFangst" />
	</node>
	<node changeset="59116087" id="5629892398" lat="59.1389881" lon="8.5090511" timestamp="2018-05-20T06:05:42Z" uid="3842253" user="NKA_import" version="1">
		<tag k="name" v="Steinsland" />
		<tag k="place" v="isolated_dwelling" />
		<tag k="ssr:stedsnr" v="790734" />
		<tag k="ssr:type" v="eneboligMindreBoligbygg" />
	</node>
	<node changeset="59116087" id="5629892399" lat="59.0123028" lon="8.7240556" timestamp="2018-05-20T06:05:42Z" uid="3842253" user="NKA_import" version="1">
		<tag k="name" v="Grautedalsbua" />
		<tag k="place" v="locality" />
		<tag k="ssr:stedsnr" v="351273" />
		<tag k="ssr:type" v="gammelBosettingsplass" />
	</node>
	<node changeset="59116087" id="5629892400" lat="58.9298233" lon="8.3554812" timestamp="2018-05-20T06:05:42Z" uid="3842253" user="NKA_import" version="1">
		<tag k="name" v="Espestøyl" />
		<tag k="place" v="hamlet" />
		<tag k="ssr:stedsnr" v="1988" />
		<tag k="ssr:type" v="bruk" />
	</node>
	<node changeset="59116087" id="5629892401" lat="59.209466" lon="8.6430654" timestamp="2018-05-20T06:05:42Z" uid="3842253" user="NKA_import" version="1">
		<tag k="alt_name" v="Krisbu" />
		<tag k="building" v="cabin" />
		<tag k="name" v="Kressbu" />
		<tag k="place" v="isolated_dwelling" />
		<tag k="ssr:stedsnr" v="669876" />
		<tag k="ssr:type" v="fritidsbolig" />
	</node>
	<node changeset="59116087" id="5629892402" lat="59.1568611" lon="8.509225" timestamp="2018-05-20T06:05:42Z" uid="3842253" user="NKA_import" version="1">
		<tag k="name" v="Syftestad" />
		<tag k="place" v="farm" />
		<tag k="ssr:stedsnr" v="122756" />
		<tag k="ssr:type" v="bruk" />
	</node>
	<node changeset="59116087" id="5629892403" lat="58.8842083" lon="8.7294722" timestamp="2018-05-20T06:05:42Z" uid="3842253" user="NKA_import" version="1">
		<tag k="name" v="Goli" />
		<tag k="place" v="locality" />
		<tag k="ssr:stedsnr" v="521384" />
		<tag k="ssr:type" v="gammelBosettingsplass" />
	</node>
	<node changeset="59116087" id="5629892404" lat="59.2033488" lon="8.614357" timestamp="2018-05-20T06:05:42Z" uid="3842253" user="NKA_import" version="1">
		<tag k="building" v="farm_auxiliary" />
		<tag k="name" v="Bronane" />
		<tag k="place" v="locality" />
		<tag k="ssr:stedsnr" v="669885" />
		<tag k="ssr:type" v="byggForJordbrukFiskeOgFangst" />
	</node>
	<node changeset="59116087" id="5629892405" lat="59.0180639" lon="8.4914528" timestamp="2018-05-20T06:05:42Z" uid="3842253" user="NKA_import" version="1">
		<tag k="historic" v="shieling" />
		<tag k="name" v="Ånundsbustøylen" />
		<tag k="place" v="locality" />
		<tag k="ssr:stedsnr" v="956157" />
		<tag k="ssr:type" v="gammelBosettingsplass" />
	</node>
	<node changeset="59116087" id="5629892406" lat="58.9237694" lon="8.5102167" timestamp="2018-05-20T06:05:42Z" uid="3842253" user="NKA_import" version="1">
		<tag k="name" v="Ugledalen" />
		<tag k="place" v="isolated_dwelling" />
		<tag k="ssr:stedsnr" v="243405" />
		<tag k="ssr:type" v="eneboligMindreBoligbygg" />
	</node>
	<node changeset="59116087" id="5629892407" lat="59.020225" lon="8.5391278" timestamp="2018-05-20T06:05:42Z" uid="3842253" user="NKA_import" version="1">
		<tag k="name" v="Flangjel" />
		<tag k="place" v="locality" />
		<tag k="ssr:stedsnr" v="2488" />
		<tag k="ssr:type" v="eiendom" />
	</node>
	<node changeset="59116087" id="5629892408" lat="59.1988278" lon="8.5111361" timestamp="2018-05-20T06:05:42Z" uid="3842253" user="NKA_import" version="1">
		<tag k="name" v="Nerbø" />
		<tag k="place" v="isolated_dwelling" />
		<tag k="ssr:stedsnr" v="790883" />
		<tag k="ssr:type" v="eneboligMindreBoligbygg" />
	</node>
	<node changeset="59116087" id="5629892409" lat="59.1534083" lon="8.6938222" timestamp="2018-05-20T06:05:43Z" uid="3842253" user="NKA_import" version="1">
		<tag k="name" v="Fjelli" />
		<tag k="place" v="locality" />
		<tag k="ssr:stedsnr" v="351741" />
		<tag k="ssr:type" v="gammelBosettingsplass" />
	</node>
	<node changeset="59116087" id="5629892410" lat="59.2145444" lon="8.5851694" timestamp="2018-05-20T06:05:43Z" uid="3842253" user="NKA_import" version="1">
		<tag k="alt_name" v="Storstøylane" />
		<tag k="historic" v="shieling" />
		<tag k="name" v="Støylane" />
		<tag k="place" v="locality" />
		<tag k="ssr:stedsnr" v="790909" />
		<tag k="ssr:type" v="gammelBosettingsplass" />
	</node>
	<node changeset="59116087" id="5629892411" lat="59.2241444" lon="8.4980972" timestamp="2018-05-20T06:05:43Z" uid="3842253" user="NKA_import" version="1">
		<tag k="name" v="Sandnes" />
		<tag k="place" v="locality" />
		<tag k="ssr:stedsnr" v="790942" />
		<tag k="ssr:type" v="fritidsbolig" />
	</node>
	<node changeset="59116087" id="5629892412" lat="58.9138344" lon="8.381713" timestamp="2018-05-20T06:05:43Z" uid="3842253" user="NKA_import" version="1">
		<tag k="name" v="Kvalfangerhytta" />
		<tag k="place" v="locality" />
		<tag k="ssr:stedsnr" v="351975" />
		<tag k="ssr:type" v="fritidsbolig" />
	</node>
	<node changeset="59116087" id="5629892413" lat="59.0098667" lon="8.4285667" timestamp="2018-05-20T06:05:43Z" uid="3842253" user="NKA_import" version="1">
		<tag k="building" v="cabin" />
		<tag k="name" v="Knattheim" />
		<tag k="place" v="isolated_dwelling" />
		<tag k="ssr:stedsnr" v="956394" />
		<tag k="ssr:type" v="fritidsbolig" />
	</node>
	<node changeset="59116087" id="5629892414" lat="59.009675" lon="8.53995" timestamp="2018-05-20T06:05:43Z" uid="3842253" user="NKA_import" version="1">
		<tag k="name" v="Lauvland" />
		<tag k="place" v="isolated_dwelling" />
		<tag k="ssr:stedsnr" v="791472" />
		<tag k="ssr:type" v="eneboligMindreBoligbygg" />
	</node>
	<node changeset="59116087" id="5629892415" lat="58.9256139" lon="8.7826083" timestamp="2018-05-20T06:05:43Z" uid="3842253" user="NKA_import" version="1">
		<tag k="alt_name" v="Vehus" />
		<tag k="name" v="Vehus øvre" />
		<tag k="place" v="isolated_dwelling" />
		<tag k="ssr:stedsnr" v="364402" />
		<tag k="ssr:type" v="eneboligMindreBoligbygg" />
	</node>
	<node changeset="59116087" id="5629892416" lat="59.0134417" lon="8.5581028" timestamp="2018-05-20T06:05:43Z" uid="3842253" user="NKA_import" version="1">
		<tag k="alt_name" v="Homme øvre" />
		<tag k="name" v="Homme" />
		<tag k="place" v="hamlet" />
		<tag k="ssr:stedsnr" v="791475" />
		<tag k="ssr:type" v="bruk" />
	</node>
	<node changeset="59116087" id="5629892417" lat="59.2355465" lon="8.4516181" timestamp="2018-05-20T06:05:43Z" uid="3842253" user="NKA_import" version="1">
		<tag k="alt_name" v="Sandnesstrånda" />
		<tag k="building" v="cabin" />
		<tag k="name" v="Sandnesstrondi" />
		<tag k="place" v="isolated_dwelling" />
		<tag k="ssr:stedsnr" v="244004" />
		<tag k="ssr:type" v="fritidsbolig" />
	</node>
	<node changeset="59116087" id="5629892418" lat="58.9420944" lon="8.5253056" timestamp="2018-05-20T06:05:44Z" uid="3842253" user="NKA_import" version="1">
		<tag k="name" v="Nes" />
		<tag k="place" v="farm" />
		<tag k="ssr:stedsnr" v="364437" />
		<tag k="ssr:type" v="bruk" />
	</node>
	<node changeset="59116087" id="5629892419" lat="59.2146092" lon="8.3274378" timestamp="2018-05-20T06:05:44Z" uid="3842253" user="NKA_import" version="1">
		<tag k="alt_name" v="Lytingsdalen" />
		<tag k="building" v="cabin" />
		<tag k="name" v="Lytingsdal" />
		<tag k="place" v="isolated_dwelling" />
		<tag k="ssr:stedsnr" v="123053" />
		<tag k="ssr:type" v="fritidsbolig" />
	</node>
	<node changeset="59116087" id="5629892420" lat="59.1745194" lon="8.4704556" timestamp="2018-05-20T06:05:44Z" uid="3842253" user="NKA_import" version="1">
		<tag k="name" v="Sundsåsen" />
		<tag k="place" v="farm" />
		<tag k="ssr:stedsnr" v="2788" />
		<tag k="ssr:type" v="bruk" />
	</node>
	<node changeset="59116087" id="5629892245" lat="58.9986639" lon="8.5852417" timestamp="2018-05-20T06:05:28Z" uid="3842253" user="NKA_import" version="1">
		<tag k="name" v="Nordgard" />
		<tag k="place" v="farm" />
		<tag k="ssr:stedsnr" v="337762" />
		<tag k="ssr:type" v="bruk" />
	</node>
	<node changeset="59116087" id="5629892246" lat="58.9680333" lon="8.5133444" timestamp="2018-05-20T06:05:28Z" uid="3842253" user="NKA_import" version="1">
		<tag k="name" v="Dal" />
		<tag k="place" v="farm" />
		<tag k="ssr:stedsnr" v="486371" />
		<tag k="ssr:type" v="bruk" />
	</node>
	<node changeset="59116087" id="5629892251" lat="58.95395" lon="8.6632972" timestamp="2018-05-20T06:05:29Z" uid="3842253" user="NKA_import" version="1">
		<tag k="building" v="cabin" />
		<tag k="name" v="Rossåhytta" />
		<tag k="place" v="isolated_dwelling" />
		<tag k="ssr:stedsnr" v="96652" />
		<tag k="ssr:type" v="fritidsbolig" />
	</node>
	<node changeset="59116087" id="1423540154" lat="59.1591773" lon="8.4609617" timestamp="2018-05-20T06:06:08Z" uid="3842253" user="NKA_import" version="2">
		<tag k="name" v="Fjone" />
		<tag k="place" v="hamlet" />
		<tag k="ssr:stedsnr" v="209358" />
		<tag k="ssr:type" v="bygdelagBygd" />
	</node>
	<node changeset="68979273" id="5629892257" lat="59.1178667" lon="8.4715361" timestamp="2019-04-07T15:35:42Z" uid="3610826" user="km2bp" version="2">
		<tag k="image" v="https://images.mapillary.com/BBD7GpD9KC6ObFKTG3Vhzw/thumb-2048.jpg" />
		<tag k="name" v="Vik burtre" />
		<tag k="place" v="farm" />
		<tag k="ssr:stedsnr" v="775034" />
		<tag k="ssr:type" v="bruk" />
	</node>
	<node changeset="59116087" id="5629892263" lat="58.9612278" lon="8.4704444" timestamp="2018-05-20T06:05:30Z" uid="3842253" user="NKA_import" version="1">
		<tag k="name" v="Haugen" />
		<tag k="place" v="farm" />
		<tag k="ssr:stedsnr" v="653022" />
		<tag k="ssr:type" v="bruk" />
	</node>
	<way changeset="61585180" id="616266334" timestamp="2018-08-12T11:18:31Z" uid="3842253" user="NKA_import" version="1">
		<tag k="building" v="yes" />
		<tag k="name" v="Felle gamle skule" />
		<tag k="ssr:stedsnr" v="885415" />
		<tag k="ssr:type" v="skole" />
		<nd ref="5826865780" />
		<nd ref="5629892223" />
		<nd ref="5826865779" />
		<nd ref="5826865778" />
		<nd ref="5826865777" />
		<nd ref="5826865776" />
		<nd ref="5826865775" />
		<nd ref="5826865774" />
		<nd ref="5826865780" />
	</way>
</osm>
