<?xml version="1.0" encoding="UTF-8"?>
<osm version="0.6" generator="osmapis">
	<node lat="70.60731112009155" lon="27.00769125222306" id="-104771">
		<tag k="name" v="Lebesby" />
		<tag k="old_name" v="Stamnes lykt;Stamneset" />
		<tag k="ssr:date" v="2019-12-27" />
		<tag k="ssr:gruppe" v="navigasjon" />
		<tag k="ssr:hovedgruppe" v="infrastruktur" />
		<tag k="ssr:stedsnr" v="262622" />
		<tag k="ssr:type" v="fyrlykt" />
	</node>
	<node lat="70.94898890100218" lon="27.331219017515995" id="-104889">
		<tag k="name" v="Kjøllefjord" />
		<tag k="ssr:date" v="2019-12-27" />
		<tag k="ssr:gruppe" v="navigasjon" />
		<tag k="ssr:hovedgruppe" v="infrastruktur" />
		<tag k="ssr:stedsnr" v="268302" />
		<tag k="ssr:type" v="fyrlykt" />
	</node>
	<node lat="70.94535001137989" lon="27.351177340703867" id="-104891">
		<tag k="name" v="Lebesby kommune" />
		<tag k="ssr:date" v="2019-12-27" />
		<tag k="ssr:gruppe" v="administrativeIndelinger" />
		<tag k="ssr:hovedgruppe" v="offentligAdministrasjon" />
		<tag k="ssr:stedsnr" v="269609" />
		<tag k="ssr:type" v="kommune" />
	</node>
	<node lat="70.98205000884168" lon="27.14415794397581" id="-104924">
		<tag k="name" v="Store Finnkjerka" />
		<tag k="ssr:date" v="2019-12-27" />
		<tag k="ssr:gruppe" v="navigasjon" />
		<tag k="ssr:hovedgruppe" v="infrastruktur" />
		<tag k="ssr:stedsnr" v="328262" />
		<tag k="ssr:type" v="fyrlykt" />
	</node>
	<node lat="70.56887501524282" lon="27.00452457024932" id="-104972">
		<tag k="name" v="Nordøstre Lebesbyrenna" />
		<tag k="ssr:date" v="2019-12-27" />
		<tag k="ssr:gruppe" v="navigasjon" />
		<tag k="ssr:hovedgruppe" v="infrastruktur" />
		<tag k="ssr:stedsnr" v="405992" />
		<tag k="ssr:type" v="lanterne" />
	</node>
	<node lat="70.56344723887896" lon="27.00193845571889" id="-105010">
		<tag k="name" v="Sørøstre Lebesbyrenna" />
		<tag k="ssr:date" v="2019-12-27" />
		<tag k="ssr:gruppe" v="navigasjon" />
		<tag k="ssr:hovedgruppe" v="infrastruktur" />
		<tag k="ssr:stedsnr" v="465989" />
		<tag k="ssr:type" v="lanterne" />
	</node>
	<node lat="70.7753273400562" lon="26.732935484210557" id="-105096">
		<tag k="name" v="Henrikholmen" />
		<tag k="old_name" v="Henriksholmen" />
		<tag k="ssr:date" v="2021-01-05" />
		<tag k="ssr:gruppe" v="navigasjon" />
		<tag k="ssr:hovedgruppe" v="infrastruktur" />
		<tag k="ssr:stedsnr" v="688267" />
		<tag k="ssr:type" v="fyrlykt" />
	</node>
	<node lat="70.75571055150799" lon="27.111367969921297" id="-105130">
		<tag k="name" v="Vardnes" />
		<tag k="ssr:date" v="2020-09-17" />
		<tag k="ssr:gruppe" v="navigasjon" />
		<tag k="ssr:hovedgruppe" v="infrastruktur" />
		<tag k="ssr:stedsnr" v="566814" />
		<tag k="ssr:type" v="fyrlykt" />
	</node>
	<node lat="70.56781112059726" lon="27.003474566676836" id="-105197">
		<tag k="name" v="Renna" />
		<tag k="ssr:date" v="2019-12-27" />
		<tag k="ssr:gruppe" v="sjøbunn" />
		<tag k="ssr:hovedgruppe" v="sjø" />
		<tag k="ssr:stedsnr" v="637630" />
		<tag k="ssr:type" v="renneKløftISjø" />
	</node>
	<node lat="70.97312845899035" lon="27.55549852002379" id="-105418">
		<tag k="name" v="Oksefjord" />
		<tag k="ssr:date" v="2020-11-26" />
		<tag k="ssr:gruppe" v="navigasjon" />
		<tag k="ssr:hovedgruppe" v="infrastruktur" />
		<tag k="ssr:stedsnr" v="930204" />
		<tag k="ssr:type" v="fyrlykt" />
	</node>
	<node lat="70.56334723685906" lon="27.0008106814705" id="-105446">
		<tag k="name" v="Sørvestre Lebesbyrenna" />
		<tag k="ssr:date" v="2019-12-27" />
		<tag k="ssr:gruppe" v="navigasjon" />
		<tag k="ssr:hovedgruppe" v="infrastruktur" />
		<tag k="ssr:stedsnr" v="951989" />
		<tag k="ssr:type" v="lanterne" />
	</node>
	<node lat="70.56936945425181" lon="27.003244011718163" id="-105818">
		<tag k="name" v="Nordvestre Lebesbyrenna" />
		<tag k="ssr:date" v="2019-12-27" />
		<tag k="ssr:gruppe" v="navigasjon" />
		<tag k="ssr:hovedgruppe" v="infrastruktur" />
		<tag k="ssr:stedsnr" v="283998" />
		<tag k="ssr:type" v="lanterne" />
	</node>
	<node lat="70.61975001528702" lon="27.13946899673895" id="-105968">
		<tag k="name" v="Lilleskjeret" />
		<tag k="ssr:date" v="2019-12-27" />
		<tag k="ssr:gruppe" v="navigasjon" />
		<tag k="ssr:hovedgruppe" v="infrastruktur" />
		<tag k="ssr:stedsnr" v="390433" />
		<tag k="ssr:type" v="fyrlykt" />
	</node>
	<node lat="71.01666667404656" lon="27.066666277145266" id="-105992">
		<tag k="name" v="Mellomsleppen" />
		<tag k="ssr:date" v="2019-12-27" />
		<tag k="ssr:gruppe" v="sjøbunn" />
		<tag k="ssr:hovedgruppe" v="sjø" />
		<tag k="ssr:stedsnr" v="396873" />
		<tag k="ssr:type" v="bakkeISjø" />
	</node>
	<node lat="70.51097778816857" lon="26.750530172922833" id="-106297">
		<tag k="name" v="Bondøyskjær" />
		<tag k="ssr:date" v="2019-12-27" />
		<tag k="ssr:gruppe" v="navigasjon" />
		<tag k="ssr:hovedgruppe" v="infrastruktur" />
		<tag k="ssr:stedsnr" v="626674" />
		<tag k="ssr:type" v="fyrlykt" />
	</node>
	<node lat="70.44425001279981" lon="26.626671860445068" id="-106310">
		<tag k="name" v="Brattholmen" />
		<tag k="ssr:date" v="2019-12-27" />
		<tag k="ssr:gruppe" v="navigasjon" />
		<tag k="ssr:hovedgruppe" v="infrastruktur" />
		<tag k="ssr:stedsnr" v="625329" />
		<tag k="ssr:type" v="fyrlykt" />
	</node>
	<node lat="70.94551341122855" lon="27.349972020073796" id="-106616">
		<tag k="name" v="Rådhusvegen" />
		<tag k="ssr:date" v="2019-12-27" />
		<tag k="ssr:gruppe" v="veg" />
		<tag k="ssr:hovedgruppe" v="infrastruktur" />
		<tag k="ssr:stedsnr" v="1055198" />
		<tag k="ssr:type" v="adressenavn" />
	</node>
	<node lat="70.94501647359449" lon="27.350872529093735" id="-106617">
		<tag k="name" v="Ravegen" />
		<tag k="ssr:date" v="2019-12-27" />
		<tag k="ssr:gruppe" v="veg" />
		<tag k="ssr:hovedgruppe" v="infrastruktur" />
		<tag k="ssr:stedsnr" v="1055200" />
		<tag k="ssr:type" v="adressenavn" />
	</node>
	<node lat="70.94583225585453" lon="27.343295500854637" id="-106618">
		<tag k="name" v="Bergvegen" />
		<tag k="ssr:date" v="2019-12-27" />
		<tag k="ssr:gruppe" v="veg" />
		<tag k="ssr:hovedgruppe" v="infrastruktur" />
		<tag k="ssr:stedsnr" v="1055201" />
		<tag k="ssr:type" v="adressenavn" />
	</node>
	<node lat="70.94572512432488" lon="27.35781595544667" id="-106619">
		<tag k="name" v="Elvevegen" />
		<tag k="ssr:date" v="2019-12-27" />
		<tag k="ssr:gruppe" v="veg" />
		<tag k="ssr:hovedgruppe" v="infrastruktur" />
		<tag k="ssr:stedsnr" v="1055204" />
		<tag k="ssr:type" v="adressenavn" />
	</node>
	<node lat="70.94473004321421" lon="27.34633826129348" id="-106620">
		<tag k="name" v="Eilert Nilsens veg" />
		<tag k="ssr:date" v="2019-12-27" />
		<tag k="ssr:gruppe" v="veg" />
		<tag k="ssr:hovedgruppe" v="infrastruktur" />
		<tag k="ssr:stedsnr" v="1055208" />
		<tag k="ssr:type" v="adressenavn" />
	</node>
	<node lat="70.94471232328796" lon="27.349855142581525" id="-106621">
		<tag k="name" v="Christian Horsts vei" />
		<tag k="ssr:date" v="2019-12-27" />
		<tag k="ssr:gruppe" v="veg" />
		<tag k="ssr:hovedgruppe" v="infrastruktur" />
		<tag k="ssr:stedsnr" v="1055213" />
		<tag k="ssr:type" v="adressenavn" />
	</node>
	<node lat="70.947065765156" lon="27.33223335014412" id="-106622">
		<tag k="name" v="Dyfjordvegen" />
		<tag k="ssr:date" v="2019-12-27" />
		<tag k="ssr:gruppe" v="veg" />
		<tag k="ssr:hovedgruppe" v="infrastruktur" />
		<tag k="ssr:stedsnr" v="1055214" />
		<tag k="ssr:type" v="adressenavn" />
	</node>
	<node lat="70.94729588336753" lon="27.328163590342033" id="-106623">
		<tag k="name" v="Galgenesvegen" />
		<tag k="ssr:date" v="2019-12-27" />
		<tag k="ssr:gruppe" v="veg" />
		<tag k="ssr:hovedgruppe" v="infrastruktur" />
		<tag k="ssr:stedsnr" v="1055218" />
		<tag k="ssr:type" v="adressenavn" />
	</node>
	<node lat="70.94517083147021" lon="27.34665596599109" id="-106624">
		<tag k="name" v="Hamranvegen" />
		<tag k="ssr:date" v="2019-12-27" />
		<tag k="ssr:gruppe" v="veg" />
		<tag k="ssr:hovedgruppe" v="infrastruktur" />
		<tag k="ssr:stedsnr" v="1055219" />
		<tag k="ssr:type" v="adressenavn" />
	</node>
	<node lat="70.94607029846938" lon="27.35689515152483" id="-106625">
		<tag k="name" v="Bruvegen" />
		<tag k="ssr:date" v="2019-12-27" />
		<tag k="ssr:gruppe" v="veg" />
		<tag k="ssr:hovedgruppe" v="infrastruktur" />
		<tag k="ssr:stedsnr" v="1055222" />
		<tag k="ssr:type" v="adressenavn" />
	</node>
	<node lat="70.94530587529461" lon="27.34672694147053" id="-106626">
		<tag k="name" v="Kirkevegen" />
		<tag k="ssr:date" v="2019-12-27" />
		<tag k="ssr:gruppe" v="veg" />
		<tag k="ssr:hovedgruppe" v="infrastruktur" />
		<tag k="ssr:stedsnr" v="1055230" />
		<tag k="ssr:type" v="adressenavn" />
	</node>
	<node lat="70.94402691681813" lon="27.356716937870768" id="-106627">
		<tag k="name" v="Johan Salmillas veg" />
		<tag k="ssr:date" v="2019-12-27" />
		<tag k="ssr:gruppe" v="veg" />
		<tag k="ssr:hovedgruppe" v="infrastruktur" />
		<tag k="ssr:stedsnr" v="1055231" />
		<tag k="ssr:type" v="adressenavn" />
	</node>
	<node lat="70.94523323885815" lon="27.299135170262815" id="-106628">
		<tag k="name" v="Strandvegen" />
		<tag k="ssr:date" v="2019-12-27" />
		<tag k="ssr:gruppe" v="veg" />
		<tag k="ssr:hovedgruppe" v="infrastruktur" />
		<tag k="ssr:stedsnr" v="1055234" />
		<tag k="ssr:type" v="adressenavn" />
	</node>
	<node lat="70.94675552430952" lon="27.290694753102976" id="-106629">
		<tag k="name" v="Mostavikveien" />
		<tag k="ssr:date" v="2019-12-27" />
		<tag k="ssr:gruppe" v="veg" />
		<tag k="ssr:hovedgruppe" v="infrastruktur" />
		<tag k="ssr:stedsnr" v="1055286" />
		<tag k="ssr:type" v="adressenavn" />
	</node>
	<node lat="70.34589401981188" lon="26.50980230946553" id="-106633">
		<tag k="name" v="Golbanveien" />
		<tag k="ssr:date" v="2019-12-27" />
		<tag k="ssr:gruppe" v="veg" />
		<tag k="ssr:hovedgruppe" v="infrastruktur" />
		<tag k="ssr:stedsnr" v="1055302" />
		<tag k="ssr:type" v="adressenavn" />
	</node>
	<node lat="70.34631453189859" lon="26.505206023446306" id="-106634">
		<tag k="name" v="Sandveien" />
		<tag k="ssr:date" v="2019-12-27" />
		<tag k="ssr:gruppe" v="veg" />
		<tag k="ssr:hovedgruppe" v="infrastruktur" />
		<tag k="ssr:stedsnr" v="1055303" />
		<tag k="ssr:type" v="adressenavn" />
	</node>
	<node lat="70.94656500275497" lon="27.29360520472649" id="-106635">
		<tag k="name" v="Trottvikveien" />
		<tag k="ssr:date" v="2019-12-27" />
		<tag k="ssr:gruppe" v="veg" />
		<tag k="ssr:hovedgruppe" v="infrastruktur" />
		<tag k="ssr:stedsnr" v="1055274" />
		<tag k="ssr:type" v="adressenavn" />
	</node>
	<node lat="70.34402690012402" lon="26.50440481233316" id="-106636">
		<tag k="name" v="Laksefjordveien" />
		<tag k="ssr:date" v="2019-12-27" />
		<tag k="ssr:gruppe" v="veg" />
		<tag k="ssr:hovedgruppe" v="infrastruktur" />
		<tag k="ssr:stedsnr" v="1055277" />
		<tag k="ssr:type" v="adressenavn" />
	</node>
	<node lat="70.57359822902971" lon="27.00360102893723" id="-106637">
		<tag k="name" v="Myrveien" />
		<tag k="ssr:date" v="2019-12-27" />
		<tag k="ssr:gruppe" v="veg" />
		<tag k="ssr:hovedgruppe" v="infrastruktur" />
		<tag k="ssr:stedsnr" v="1055278" />
		<tag k="ssr:type" v="adressenavn" />
	</node>
	<node lat="70.90274864953416" lon="27.240762385057387" id="-106638">
		<tag k="name" v="Nissenveien" />
		<tag k="ssr:date" v="2019-12-27" />
		<tag k="ssr:gruppe" v="veg" />
		<tag k="ssr:hovedgruppe" v="infrastruktur" />
		<tag k="ssr:stedsnr" v="1055279" />
		<tag k="ssr:type" v="adressenavn" />
	</node>
	<node lat="70.94523323885815" lon="27.299135170262815" id="-106639">
		<tag k="name" v="Snattvikveien" />
		<tag k="ssr:date" v="2019-12-27" />
		<tag k="ssr:gruppe" v="veg" />
		<tag k="ssr:hovedgruppe" v="infrastruktur" />
		<tag k="ssr:stedsnr" v="1055281" />
		<tag k="ssr:type" v="adressenavn" />
	</node>
	<node lat="70.94638284519196" lon="27.29502420766506" id="-106640">
		<tag k="name" v="Seglvikveien" />
		<tag k="ssr:date" v="2019-12-27" />
		<tag k="ssr:gruppe" v="veg" />
		<tag k="ssr:hovedgruppe" v="infrastruktur" />
		<tag k="ssr:stedsnr" v="1055282" />
		<tag k="ssr:type" v="adressenavn" />
	</node>
	<node lat="70.94704205633037" lon="27.286939899033463" id="-106641">
		<tag k="name" v="Garteveien" />
		<tag k="ssr:date" v="2019-12-27" />
		<tag k="ssr:gruppe" v="veg" />
		<tag k="ssr:hovedgruppe" v="infrastruktur" />
		<tag k="ssr:stedsnr" v="1055283" />
		<tag k="ssr:type" v="adressenavn" />
	</node>
	<node lat="70.9469583741199" lon="27.288674314753994" id="-106642">
		<tag k="name" v="Laukvikveien" />
		<tag k="ssr:date" v="2019-12-27" />
		<tag k="ssr:gruppe" v="veg" />
		<tag k="ssr:hovedgruppe" v="infrastruktur" />
		<tag k="ssr:stedsnr" v="1055284" />
		<tag k="ssr:type" v="adressenavn" />
	</node>
	<node lat="70.94545349454137" lon="27.321533621380137" id="-106643">
		<tag k="name" v="Lille Ringveg" />
		<tag k="ssr:date" v="2019-12-27" />
		<tag k="ssr:gruppe" v="veg" />
		<tag k="ssr:hovedgruppe" v="infrastruktur" />
		<tag k="ssr:stedsnr" v="1055341" />
		<tag k="ssr:type" v="adressenavn" />
	</node>
	<node lat="70.94450794270658" lon="27.318457144996575" id="-106644">
		<tag k="name" v="Breivikvegen" />
		<tag k="ssr:date" v="2019-12-27" />
		<tag k="ssr:gruppe" v="veg" />
		<tag k="ssr:hovedgruppe" v="infrastruktur" />
		<tag k="ssr:stedsnr" v="1055320" />
		<tag k="ssr:type" v="adressenavn" />
	</node>
	<node lat="70.94690318065874" lon="27.32737679718432" id="-106645">
		<tag k="name" v="Store Ringveg" />
		<tag k="ssr:date" v="2019-12-27" />
		<tag k="ssr:gruppe" v="veg" />
		<tag k="ssr:hovedgruppe" v="infrastruktur" />
		<tag k="ssr:stedsnr" v="1055327" />
		<tag k="ssr:type" v="adressenavn" />
	</node>
	<node lat="70.94739262270602" lon="27.3264091248134" id="-106646">
		<tag k="name" v="Mollavegen" />
		<tag k="ssr:date" v="2019-12-27" />
		<tag k="ssr:gruppe" v="veg" />
		<tag k="ssr:hovedgruppe" v="infrastruktur" />
		<tag k="ssr:stedsnr" v="1055333" />
		<tag k="ssr:type" v="adressenavn" />
	</node>
	<node lat="70.94527219809783" lon="27.32529727909505" id="-106647">
		<tag k="name" v="Rundkjøring" />
		<tag k="ssr:date" v="2019-12-27" />
		<tag k="ssr:gruppe" v="veg" />
		<tag k="ssr:hovedgruppe" v="infrastruktur" />
		<tag k="ssr:stedsnr" v="1055335" />
		<tag k="ssr:type" v="adressenavn" />
	</node>
	<node lat="71.052467875737" lon="27.49845319876458" id="-106652">
		<tag k="name" v="Flyndrevika" />
		<tag k="ssr:date" v="2020-02-17" />
		<tag k="ssr:gruppe" v="veg" />
		<tag k="ssr:hovedgruppe" v="infrastruktur" />
		<tag k="ssr:stedsnr" v="1075211" />
		<tag k="ssr:type" v="adressenavn" />
	</node>
	<node lat="70.86834389177355" lon="27.52250739052827" id="-106655">
		<tag k="name" v="Siktvika" />
		<tag k="ssr:date" v="2020-02-19" />
		<tag k="ssr:gruppe" v="veg" />
		<tag k="ssr:hovedgruppe" v="infrastruktur" />
		<tag k="ssr:stedsnr" v="1075394" />
		<tag k="ssr:type" v="adressenavn" />
	</node>
	<node lat="71.02616881098102" lon="27.558343839354958" id="-106656">
		<tag k="name" v="Bjørnvika" />
		<tag k="ssr:date" v="2020-02-21" />
		<tag k="ssr:gruppe" v="veg" />
		<tag k="ssr:hovedgruppe" v="infrastruktur" />
		<tag k="ssr:stedsnr" v="1075475" />
		<tag k="ssr:type" v="adressenavn" />
	</node>
	<node lat="70.97913082697899" lon="27.305052084072646" id="-106657">
		<tag k="name" v="Mollvika" />
		<tag k="ssr:date" v="2020-02-21" />
		<tag k="ssr:gruppe" v="veg" />
		<tag k="ssr:hovedgruppe" v="infrastruktur" />
		<tag k="ssr:stedsnr" v="1075476" />
		<tag k="ssr:type" v="adressenavn" />
	</node>
	<node lat="70.89951632992639" lon="27.196377801251142" id="-106658">
		<tag k="name" v="Gartemolla" />
		<tag k="ssr:date" v="2020-02-21" />
		<tag k="ssr:gruppe" v="veg" />
		<tag k="ssr:hovedgruppe" v="infrastruktur" />
		<tag k="ssr:stedsnr" v="1075478" />
		<tag k="ssr:type" v="adressenavn" />
	</node>
	<node lat="70.47605896639448" lon="26.82481725729198" id="-106659">
		<tag k="name" v="Eikvika" />
		<tag k="ssr:date" v="2020-02-21" />
		<tag k="ssr:gruppe" v="veg" />
		<tag k="ssr:hovedgruppe" v="infrastruktur" />
		<tag k="ssr:stedsnr" v="1075483" />
		<tag k="ssr:type" v="adressenavn" />
	</node>
	<node lat="70.73210527999525" lon="27.299124614146116" id="-106660">
		<tag k="name" v="Sørfjorden" />
		<tag k="ssr:date" v="2020-02-21" />
		<tag k="ssr:gruppe" v="veg" />
		<tag k="ssr:hovedgruppe" v="infrastruktur" />
		<tag k="ssr:stedsnr" v="1075479" />
		<tag k="ssr:type" v="adressenavn" />
	</node>
	<node lat="70.69747316273562" lon="27.113691548237085" id="-106661">
		<tag k="name" v="Jordelva" />
		<tag k="ssr:date" v="2020-02-21" />
		<tag k="ssr:gruppe" v="veg" />
		<tag k="ssr:hovedgruppe" v="infrastruktur" />
		<tag k="ssr:stedsnr" v="1075480" />
		<tag k="ssr:type" v="adressenavn" />
	</node>
	<node lat="70.58544858775802" lon="27.312844424813505" id="-106662">
		<tag k="name" v="Geitvannet" />
		<tag k="ssr:date" v="2020-02-21" />
		<tag k="ssr:gruppe" v="veg" />
		<tag k="ssr:hovedgruppe" v="infrastruktur" />
		<tag k="ssr:stedsnr" v="1075481" />
		<tag k="ssr:type" v="adressenavn" />
	</node>
	<node lat="70.5949981436276" lon="26.91702141102371" id="-106663">
		<tag k="name" v="Langholmen" />
		<tag k="ssr:date" v="2020-02-21" />
		<tag k="ssr:gruppe" v="veg" />
		<tag k="ssr:hovedgruppe" v="infrastruktur" />
		<tag k="ssr:stedsnr" v="1075482" />
		<tag k="ssr:type" v="adressenavn" />
	</node>
	<node lat="70.42552365769802" lon="26.645091362011772" id="-106664">
		<tag k="name" v="Elvevika" />
		<tag k="ssr:date" v="2020-02-21" />
		<tag k="ssr:gruppe" v="veg" />
		<tag k="ssr:hovedgruppe" v="infrastruktur" />
		<tag k="ssr:stedsnr" v="1075485" />
		<tag k="ssr:type" v="adressenavn" />
	</node>
	<node lat="70.3073870425411" lon="27.297059059819922" id="-106666">
		<tag k="name" v="Komagvannet" />
		<tag k="ssr:date" v="2020-02-21" />
		<tag k="ssr:gruppe" v="veg" />
		<tag k="ssr:hovedgruppe" v="infrastruktur" />
		<tag k="ssr:stedsnr" v="1075486" />
		<tag k="ssr:type" v="adressenavn" />
	</node>
	<node lat="70.61646883727482" lon="27.194053583882425" id="-106667">
		<tag k="name" v="Krampeneset" />
		<tag k="ssr:date" v="2020-02-21" />
		<tag k="ssr:gruppe" v="veg" />
		<tag k="ssr:hovedgruppe" v="infrastruktur" />
		<tag k="ssr:stedsnr" v="1075488" />
		<tag k="ssr:type" v="adressenavn" />
	</node>
	<node lat="70.81439053058487" lon="27.47231724219892" id="-106668">
		<tag k="name" v="Hovdenakken" />
		<tag k="ssr:date" v="2020-02-21" />
		<tag k="ssr:gruppe" v="veg" />
		<tag k="ssr:hovedgruppe" v="infrastruktur" />
		<tag k="ssr:stedsnr" v="1075487" />
		<tag k="ssr:type" v="adressenavn" />
	</node>
	<node lat="70.40034841576038" lon="26.717604581802565" id="-106669">
		<tag k="name" v="Jerkum" />
		<tag k="ssr:date" v="2020-02-21" />
		<tag k="ssr:gruppe" v="veg" />
		<tag k="ssr:hovedgruppe" v="infrastruktur" />
		<tag k="ssr:stedsnr" v="1075491" />
		<tag k="ssr:type" v="adressenavn" />
	</node>
	<node lat="70.55332376306508" lon="27.33237430008072" id="-106670">
		<tag k="name" v="Steinvannet" />
		<tag k="ssr:date" v="2020-02-21" />
		<tag k="ssr:gruppe" v="veg" />
		<tag k="ssr:hovedgruppe" v="infrastruktur" />
		<tag k="ssr:stedsnr" v="1075489" />
		<tag k="ssr:type" v="adressenavn" />
	</node>
	<node lat="70.4323076983453" lon="27.293139019545432" id="-106671">
		<tag k="name" v="Jernvannet" />
		<tag k="ssr:date" v="2020-02-21" />
		<tag k="ssr:gruppe" v="veg" />
		<tag k="ssr:hovedgruppe" v="infrastruktur" />
		<tag k="ssr:stedsnr" v="1075490" />
		<tag k="ssr:type" v="adressenavn" />
	</node>
	<node lat="70.15172886949414" lon="26.57735165563399" id="-106672">
		<tag k="name" v="Važžečearru" />
		<tag k="name:se" v="Važžečearru" />
		<tag k="ssr:date" v="2020-02-21" />
		<tag k="ssr:gruppe" v="veg" />
		<tag k="ssr:hovedgruppe" v="infrastruktur" />
		<tag k="ssr:stedsnr" v="1075493" />
		<tag k="ssr:type" v="adressenavn" />
	</node>
	<node lat="70.25745088862095" lon="27.0269409077747" id="-106673">
		<tag k="name" v="Laksefjordvidda" />
		<tag k="ssr:date" v="2020-02-21" />
		<tag k="ssr:gruppe" v="veg" />
		<tag k="ssr:hovedgruppe" v="infrastruktur" />
		<tag k="ssr:stedsnr" v="1075492" />
		<tag k="ssr:type" v="adressenavn" />
	</node>
	<node lat="70.36927809397756" lon="26.472682386229472" id="-106674">
		<tag k="name" v="Bukta" />
		<tag k="ssr:date" v="2020-02-21" />
		<tag k="ssr:gruppe" v="veg" />
		<tag k="ssr:hovedgruppe" v="infrastruktur" />
		<tag k="ssr:stedsnr" v="1075494" />
		<tag k="ssr:type" v="adressenavn" />
	</node>
	<node lat="70.36299815173251" lon="26.476297635122457" id="-106675">
		<tag k="name" v="Båtvika" />
		<tag k="ssr:date" v="2020-02-21" />
		<tag k="ssr:gruppe" v="veg" />
		<tag k="ssr:hovedgruppe" v="infrastruktur" />
		<tag k="ssr:stedsnr" v="1075495" />
		<tag k="ssr:type" v="adressenavn" />
	</node>
	<node lat="70.46778709461856" lon="26.55974979216441" id="-106676">
		<tag k="name" v="Kjeldebukta" />
		<tag k="ssr:date" v="2020-02-21" />
		<tag k="ssr:gruppe" v="veg" />
		<tag k="ssr:hovedgruppe" v="infrastruktur" />
		<tag k="ssr:stedsnr" v="1075496" />
		<tag k="ssr:type" v="adressenavn" />
	</node>
	<node lat="70.01235217763693" lon="26.155122719611985" id="-106677">
		<tag k="name" v="Geaidnojávri" />
		<tag k="name:se" v="Geaidnojávri" />
		<tag k="ssr:date" v="2020-02-21" />
		<tag k="ssr:gruppe" v="veg" />
		<tag k="ssr:hovedgruppe" v="infrastruktur" />
		<tag k="ssr:stedsnr" v="1075500" />
		<tag k="ssr:type" v="adressenavn" />
	</node>
	<node lat="70.59947326360853" lon="26.61810583975851" id="-106679">
		<tag k="name" v="Aronneset" />
		<tag k="ssr:date" v="2020-02-21" />
		<tag k="ssr:gruppe" v="veg" />
		<tag k="ssr:hovedgruppe" v="infrastruktur" />
		<tag k="ssr:stedsnr" v="1075498" />
		<tag k="ssr:type" v="adressenavn" />
	</node>
	<node lat="70.21465536854039" lon="26.777506374413527" id="-106680">
		<tag k="name" v="Stálogáisá" />
		<tag k="name:se" v="Stálogáisá" />
		<tag k="ssr:date" v="2020-02-21" />
		<tag k="ssr:gruppe" v="veg" />
		<tag k="ssr:hovedgruppe" v="infrastruktur" />
		<tag k="ssr:stedsnr" v="1075499" />
		<tag k="ssr:type" v="adressenavn" />
	</node>
	<node lat="70.36909658582667" lon="26.53083536327074" id="-106681">
		<tag k="name" v="Leirbukta" />
		<tag k="ssr:date" v="2020-02-21" />
		<tag k="ssr:gruppe" v="veg" />
		<tag k="ssr:hovedgruppe" v="infrastruktur" />
		<tag k="ssr:stedsnr" v="1075501" />
		<tag k="ssr:type" v="adressenavn" />
	</node>
	<node lat="70.42061973083152" lon="26.498515140355487" id="-106682">
		<tag k="name" v="Klokkarvika" />
		<tag k="ssr:date" v="2020-02-21" />
		<tag k="ssr:gruppe" v="veg" />
		<tag k="ssr:hovedgruppe" v="infrastruktur" />
		<tag k="ssr:stedsnr" v="1075502" />
		<tag k="ssr:type" v="adressenavn" />
	</node>
	<node lat="70.48944153191565" lon="26.547083530856288" id="-106683">
		<tag k="name" v="Korsnesbukta" />
		<tag k="ssr:date" v="2020-02-21" />
		<tag k="ssr:gruppe" v="veg" />
		<tag k="ssr:hovedgruppe" v="infrastruktur" />
		<tag k="ssr:stedsnr" v="1075505" />
		<tag k="ssr:type" v="adressenavn" />
	</node>
	<node lat="70.42683469820035" lon="26.502124389199178" id="-106684">
		<tag k="name" v="Skovika" />
		<tag k="ssr:date" v="2020-02-21" />
		<tag k="ssr:gruppe" v="veg" />
		<tag k="ssr:hovedgruppe" v="infrastruktur" />
		<tag k="ssr:stedsnr" v="1075503" />
		<tag k="ssr:type" v="adressenavn" />
	</node>
	<node lat="70.55216574426414" lon="26.60216603668544" id="-106686">
		<tag k="name" v="Masterneset" />
		<tag k="ssr:date" v="2020-02-21" />
		<tag k="ssr:gruppe" v="veg" />
		<tag k="ssr:hovedgruppe" v="infrastruktur" />
		<tag k="ssr:stedsnr" v="1075506" />
		<tag k="ssr:type" v="adressenavn" />
	</node>
	<node lat="70.65006403657392" lon="26.30001595720681" id="-106687">
		<tag k="name" v="Stormyra" />
		<tag k="ssr:date" v="2020-02-21" />
		<tag k="ssr:gruppe" v="veg" />
		<tag k="ssr:hovedgruppe" v="infrastruktur" />
		<tag k="ssr:stedsnr" v="1075508" />
		<tag k="ssr:type" v="adressenavn" />
	</node>
	<node lat="70.85342762623641" lon="26.653522125130962" id="-106690">
		<tag k="name" v="Grunnvika" />
		<tag k="ssr:date" v="2020-02-21" />
		<tag k="ssr:gruppe" v="veg" />
		<tag k="ssr:hovedgruppe" v="infrastruktur" />
		<tag k="ssr:stedsnr" v="1075510" />
		<tag k="ssr:type" v="adressenavn" />
	</node>
	<node lat="70.94954283899995" lon="27.28926851820609" id="-106692">
		<tag k="name" v="Seglvika" />
		<tag k="ssr:date" v="2020-02-21" />
		<tag k="ssr:gruppe" v="veg" />
		<tag k="ssr:hovedgruppe" v="infrastruktur" />
		<tag k="ssr:stedsnr" v="1075477" />
		<tag k="ssr:type" v="adressenavn" />
	</node>
	<node lat="70.8643885922122" lon="27.533910216330543" id="-106694">
		<tag k="name" v="Ettervika" />
		<tag k="ssr:date" v="2020-02-21" />
		<tag k="ssr:gruppe" v="veg" />
		<tag k="ssr:hovedgruppe" v="infrastruktur" />
		<tag k="ssr:stedsnr" v="1075474" />
		<tag k="ssr:type" v="adressenavn" />
	</node>
	<node lat="70.90430598372099" lon="27.173945444570496" id="-106695">
		<tag k="name" v="Garte" />
		<tag k="ssr:date" v="2020-02-24" />
		<tag k="ssr:gruppe" v="veg" />
		<tag k="ssr:hovedgruppe" v="infrastruktur" />
		<tag k="ssr:stedsnr" v="1075534" />
		<tag k="ssr:type" v="adressenavn" />
	</node>
	<node lat="70.91741344608725" lon="27.424369555985564" id="-106697">
		<tag k="name" v="Kifjordbotn" />
		<tag k="ssr:date" v="2020-02-24" />
		<tag k="ssr:gruppe" v="veg" />
		<tag k="ssr:hovedgruppe" v="infrastruktur" />
		<tag k="ssr:stedsnr" v="1075547" />
		<tag k="ssr:type" v="adressenavn" />
	</node>
	<node lat="70.90383914064861" lon="27.634017491481814" id="-106698">
		<tag k="name" v="Nordfjellvannan" />
		<tag k="ssr:date" v="2020-02-24" />
		<tag k="ssr:gruppe" v="veg" />
		<tag k="ssr:hovedgruppe" v="infrastruktur" />
		<tag k="ssr:stedsnr" v="1075549" />
		<tag k="ssr:type" v="adressenavn" />
	</node>
	<node lat="70.8840313188827" lon="27.41327740155216" id="-106699">
		<tag k="name" v="Gammelvika" />
		<tag k="ssr:date" v="2020-02-24" />
		<tag k="ssr:gruppe" v="veg" />
		<tag k="ssr:hovedgruppe" v="infrastruktur" />
		<tag k="ssr:stedsnr" v="1075550" />
		<tag k="ssr:type" v="adressenavn" />
	</node>
	<node lat="70.91718337462004" lon="27.126854258390043" id="-106700">
		<tag k="name" v="Laukvika" />
		<tag k="ssr:date" v="2020-02-24" />
		<tag k="ssr:gruppe" v="veg" />
		<tag k="ssr:hovedgruppe" v="infrastruktur" />
		<tag k="ssr:stedsnr" v="1075553" />
		<tag k="ssr:type" v="adressenavn" />
	</node>
	<node lat="70.88693049779366" lon="27.47501791193396" id="-106701">
		<tag k="name" v="Djupvika" />
		<tag k="ssr:date" v="2020-02-24" />
		<tag k="ssr:gruppe" v="veg" />
		<tag k="ssr:hovedgruppe" v="infrastruktur" />
		<tag k="ssr:stedsnr" v="1075552" />
		<tag k="ssr:type" v="adressenavn" />
	</node>
	<node lat="70.88778636619783" lon="27.390165656506984" id="-106702">
		<tag k="name" v="Portvika" />
		<tag k="ssr:date" v="2020-02-24" />
		<tag k="ssr:gruppe" v="veg" />
		<tag k="ssr:hovedgruppe" v="infrastruktur" />
		<tag k="ssr:stedsnr" v="1075554" />
		<tag k="ssr:type" v="adressenavn" />
	</node>
	<node lat="70.88683900720288" lon="27.43753766528481" id="-106703">
		<tag k="name" v="Vika" />
		<tag k="ssr:date" v="2020-02-24" />
		<tag k="ssr:gruppe" v="veg" />
		<tag k="ssr:hovedgruppe" v="infrastruktur" />
		<tag k="ssr:stedsnr" v="1075555" />
		<tag k="ssr:type" v="adressenavn" />
	</node>
	<node lat="70.79275897828205" lon="27.206463189973082" id="-106704">
		<tag k="name" v="Mårøya" />
		<tag k="ssr:date" v="2020-02-24" />
		<tag k="ssr:gruppe" v="veg" />
		<tag k="ssr:hovedgruppe" v="infrastruktur" />
		<tag k="ssr:stedsnr" v="1075558" />
		<tag k="ssr:type" v="adressenavn" />
	</node>
	<node lat="70.87073932743772" lon="27.503733831964748" id="-106705">
		<tag k="name" v="Nordmannset" />
		<tag k="ssr:date" v="2020-02-24" />
		<tag k="ssr:gruppe" v="veg" />
		<tag k="ssr:hovedgruppe" v="infrastruktur" />
		<tag k="ssr:stedsnr" v="1075556" />
		<tag k="ssr:type" v="adressenavn" />
	</node>
	<node lat="70.8428536508146" lon="27.468792218410155" id="-106706">
		<tag k="name" v="Ersvåg" />
		<tag k="ssr:date" v="2020-02-24" />
		<tag k="ssr:gruppe" v="veg" />
		<tag k="ssr:hovedgruppe" v="infrastruktur" />
		<tag k="ssr:stedsnr" v="1075557" />
		<tag k="ssr:type" v="adressenavn" />
	</node>
	<node lat="70.75367598762617" lon="27.113967738648313" id="-106707">
		<tag k="name" v="Vardnes" />
		<tag k="ssr:date" v="2020-02-24" />
		<tag k="ssr:gruppe" v="veg" />
		<tag k="ssr:hovedgruppe" v="infrastruktur" />
		<tag k="ssr:stedsnr" v="1075560" />
		<tag k="ssr:type" v="adressenavn" />
	</node>
	<node lat="70.75435029665778" lon="27.34812939015117" id="-106708">
		<tag k="name" v="Vinterplassen" />
		<tag k="ssr:date" v="2020-02-24" />
		<tag k="ssr:gruppe" v="veg" />
		<tag k="ssr:hovedgruppe" v="infrastruktur" />
		<tag k="ssr:stedsnr" v="1075559" />
		<tag k="ssr:type" v="adressenavn" />
	</node>
	<node lat="70.46101574767489" lon="27.076023949165997" id="-106709">
		<tag k="name" v="Grasdal" />
		<tag k="ssr:date" v="2020-02-24" />
		<tag k="ssr:gruppe" v="veg" />
		<tag k="ssr:hovedgruppe" v="infrastruktur" />
		<tag k="ssr:stedsnr" v="1075561" />
		<tag k="ssr:type" v="adressenavn" />
	</node>
	<node lat="70.47129955969916" lon="26.76344614879278" id="-106710">
		<tag k="name" v="Sommarvika" />
		<tag k="ssr:date" v="2020-02-24" />
		<tag k="ssr:gruppe" v="veg" />
		<tag k="ssr:hovedgruppe" v="infrastruktur" />
		<tag k="ssr:stedsnr" v="1075562" />
		<tag k="ssr:type" v="adressenavn" />
	</node>
	<node lat="70.4336319104934" lon="26.58527643993557" id="-106711">
		<tag k="name" v="Laksefjordbotn" />
		<tag k="ssr:date" v="2020-02-24" />
		<tag k="ssr:gruppe" v="veg" />
		<tag k="ssr:hovedgruppe" v="infrastruktur" />
		<tag k="ssr:stedsnr" v="1075563" />
		<tag k="ssr:type" v="adressenavn" />
	</node>
	<node lat="70.89350706843497" lon="26.70679495971075" id="-106712">
		<tag k="name" v="Hellarvika" />
		<tag k="ssr:date" v="2020-02-25" />
		<tag k="ssr:gruppe" v="veg" />
		<tag k="ssr:hovedgruppe" v="infrastruktur" />
		<tag k="ssr:stedsnr" v="1075565" />
		<tag k="ssr:type" v="adressenavn" />
	</node>
	<node lat="70.62609455514362" lon="26.60542631689988" id="-106713">
		<tag k="name" v="Skjelvika" />
		<tag k="ssr:date" v="2020-02-25" />
		<tag k="ssr:gruppe" v="veg" />
		<tag k="ssr:hovedgruppe" v="infrastruktur" />
		<tag k="ssr:stedsnr" v="1075564" />
		<tag k="ssr:type" v="adressenavn" />
	</node>
	<node lat="70.43736236757283" lon="26.51016864371415" id="-106714">
		<tag k="name" v="Reinagnvika" />
		<tag k="ssr:date" v="2020-02-25" />
		<tag k="ssr:gruppe" v="veg" />
		<tag k="ssr:hovedgruppe" v="infrastruktur" />
		<tag k="ssr:stedsnr" v="1075566" />
		<tag k="ssr:type" v="adressenavn" />
	</node>
	<node lat="70.83175470190622" lon="26.66350746502019" id="-106719">
		<tag k="name" v="Tømmervika" />
		<tag k="ssr:date" v="2020-02-25" />
		<tag k="ssr:gruppe" v="veg" />
		<tag k="ssr:hovedgruppe" v="infrastruktur" />
		<tag k="ssr:stedsnr" v="1075572" />
		<tag k="ssr:type" v="adressenavn" />
	</node>
	<node lat="70.92821723046045" lon="26.709519239678535" id="-106721">
		<tag k="name" v="Sørenkeila" />
		<tag k="ssr:date" v="2020-02-25" />
		<tag k="ssr:gruppe" v="veg" />
		<tag k="ssr:hovedgruppe" v="infrastruktur" />
		<tag k="ssr:stedsnr" v="1075574" />
		<tag k="ssr:type" v="adressenavn" />
	</node>
	<node lat="70.87831634772826" lon="26.694224694664587" id="-106722">
		<tag k="name" v="Nubbenesbukta" />
		<tag k="ssr:date" v="2020-02-25" />
		<tag k="ssr:gruppe" v="veg" />
		<tag k="ssr:hovedgruppe" v="infrastruktur" />
		<tag k="ssr:stedsnr" v="1075573" />
		<tag k="ssr:type" v="adressenavn" />
	</node>
	<node lat="70.44139981336545" lon="26.793649435878404" id="-106726">
		<tag k="name" v="Tårnvikveien" />
		<tag k="ssr:date" v="2020-02-25" />
		<tag k="ssr:gruppe" v="veg" />
		<tag k="ssr:hovedgruppe" v="infrastruktur" />
		<tag k="ssr:stedsnr" v="1075626" />
		<tag k="ssr:type" v="adressenavn" />
	</node>
	<node lat="70.40757119798303" lon="26.680328706108092" id="-106727">
		<tag k="name" v="Landersfjordneset" />
		<tag k="ssr:date" v="2020-02-25" />
		<tag k="ssr:gruppe" v="veg" />
		<tag k="ssr:hovedgruppe" v="infrastruktur" />
		<tag k="ssr:stedsnr" v="1075628" />
		<tag k="ssr:type" v="adressenavn" />
	</node>
	<node lat="70.32203565440882" lon="26.411762520058893" id="-106728">
		<tag k="name" v="Børselvfjellveien" />
		<tag k="ssr:date" v="2020-02-25" />
		<tag k="ssr:gruppe" v="veg" />
		<tag k="ssr:hovedgruppe" v="infrastruktur" />
		<tag k="ssr:stedsnr" v="1075630" />
		<tag k="ssr:type" v="adressenavn" />
	</node>
	<node lat="70.96053617225395" lon="26.6835509163814" id="-106729">
		<tag k="name" v="Sværholt" />
		<tag k="ssr:date" v="2020-02-25" />
		<tag k="ssr:gruppe" v="veg" />
		<tag k="ssr:hovedgruppe" v="infrastruktur" />
		<tag k="ssr:stedsnr" v="1075631" />
		<tag k="ssr:type" v="adressenavn" />
	</node>
	<node lat="70.89255501919114" lon="27.308700517570585" id="-106730">
		<tag k="name" v="Movikveien" />
		<tag k="ssr:date" v="2020-02-25" />
		<tag k="ssr:gruppe" v="veg" />
		<tag k="ssr:hovedgruppe" v="infrastruktur" />
		<tag k="ssr:stedsnr" v="1075637" />
		<tag k="ssr:type" v="adressenavn" />
	</node>
	<node lat="70.89644328085832" lon="27.289403855796213" id="-106747">
		<tag k="name" v="Brenngamveien" />
		<tag k="ssr:date" v="2020-02-25" />
		<tag k="ssr:gruppe" v="veg" />
		<tag k="ssr:hovedgruppe" v="infrastruktur" />
		<tag k="ssr:stedsnr" v="1075594" />
		<tag k="ssr:type" v="adressenavn" />
	</node>
	<node lat="70.93524449190336" lon="27.42618990827727" id="-106748">
		<tag k="name" v="Kifjordveien" />
		<tag k="ssr:date" v="2020-02-25" />
		<tag k="ssr:gruppe" v="veg" />
		<tag k="ssr:hovedgruppe" v="infrastruktur" />
		<tag k="ssr:stedsnr" v="1075595" />
		<tag k="ssr:type" v="adressenavn" />
	</node>
	<node lat="70.93524449190336" lon="27.42618990827727" id="-106749">
		<tag k="name" v="Oksevågveien" />
		<tag k="ssr:date" v="2020-02-25" />
		<tag k="ssr:gruppe" v="veg" />
		<tag k="ssr:hovedgruppe" v="infrastruktur" />
		<tag k="ssr:stedsnr" v="1075598" />
		<tag k="ssr:type" v="adressenavn" />
	</node>
	<node lat="70.80143398787098" lon="27.720729334226025" id="-106753">
		<tag k="name" v="Eidsfjordveien" />
		<tag k="ssr:date" v="2020-02-25" />
		<tag k="ssr:gruppe" v="veg" />
		<tag k="ssr:hovedgruppe" v="infrastruktur" />
		<tag k="ssr:stedsnr" v="1075600" />
		<tag k="ssr:type" v="adressenavn" />
	</node>
	<node lat="70.61150331661457" lon="27.046963645088532" id="-106754">
		<tag k="name" v="Kalakklubbveien" />
		<tag k="ssr:date" v="2020-02-25" />
		<tag k="ssr:gruppe" v="veg" />
		<tag k="ssr:hovedgruppe" v="infrastruktur" />
		<tag k="ssr:stedsnr" v="1075602" />
		<tag k="ssr:type" v="adressenavn" />
	</node>
	<node lat="70.52634840640027" lon="26.997284476891068" id="-106755">
		<tag k="name" v="Nyrudveien" />
		<tag k="ssr:date" v="2020-02-25" />
		<tag k="ssr:gruppe" v="veg" />
		<tag k="ssr:hovedgruppe" v="infrastruktur" />
		<tag k="ssr:stedsnr" v="1075603" />
		<tag k="ssr:type" v="adressenavn" />
	</node>
	<node lat="70.48923169740823" lon="27.067490769682486" id="-106757">
		<tag k="name" v="Trollbuktveien" />
		<tag k="ssr:date" v="2020-02-25" />
		<tag k="ssr:gruppe" v="veg" />
		<tag k="ssr:hovedgruppe" v="infrastruktur" />
		<tag k="ssr:stedsnr" v="1075604" />
		<tag k="ssr:type" v="adressenavn" />
	</node>
	<node lat="70.79240365041288" lon="27.648147251109542" id="-106758">
		<tag k="name" v="Smielvdalsveien" />
		<tag k="ssr:date" v="2020-02-25" />
		<tag k="ssr:gruppe" v="veg" />
		<tag k="ssr:hovedgruppe" v="infrastruktur" />
		<tag k="ssr:stedsnr" v="1075607" />
		<tag k="ssr:type" v="adressenavn" />
	</node>
	<node lat="70.6090494814314" lon="27.09048009064539" id="-106759">
		<tag k="name" v="Kalakveien" />
		<tag k="ssr:date" v="2020-02-25" />
		<tag k="ssr:gruppe" v="veg" />
		<tag k="ssr:hovedgruppe" v="infrastruktur" />
		<tag k="ssr:stedsnr" v="1075612" />
		<tag k="ssr:type" v="adressenavn" />
	</node>
	<node lat="70.58424159766926" lon="27.248412902344867" id="-106760">
		<tag k="name" v="Martadalsveien" />
		<tag k="ssr:date" v="2020-02-25" />
		<tag k="ssr:gruppe" v="veg" />
		<tag k="ssr:hovedgruppe" v="infrastruktur" />
		<tag k="ssr:stedsnr" v="1075611" />
		<tag k="ssr:type" v="adressenavn" />
	</node>
	<node lat="70.53119556656696" lon="26.99521517856642" id="-106761">
		<tag k="name" v="Oldervikveien" />
		<tag k="ssr:date" v="2020-02-25" />
		<tag k="ssr:gruppe" v="veg" />
		<tag k="ssr:hovedgruppe" v="infrastruktur" />
		<tag k="ssr:stedsnr" v="1075613" />
		<tag k="ssr:type" v="adressenavn" />
	</node>
	<node lat="70.5083049910151" lon="27.030444995401037" id="-106762">
		<tag k="name" v="Skogvikveien" />
		<tag k="ssr:date" v="2020-02-25" />
		<tag k="ssr:gruppe" v="veg" />
		<tag k="ssr:hovedgruppe" v="infrastruktur" />
		<tag k="ssr:stedsnr" v="1075614" />
		<tag k="ssr:type" v="adressenavn" />
	</node>
	<node lat="70.48942945928181" lon="27.067373920789855" id="-106764">
		<tag k="name" v="Ifjordveien" />
		<tag k="ssr:date" v="2020-02-25" />
		<tag k="ssr:gruppe" v="veg" />
		<tag k="ssr:hovedgruppe" v="infrastruktur" />
		<tag k="ssr:stedsnr" v="1075615" />
		<tag k="ssr:type" v="adressenavn" />
	</node>
	<node lat="70.4555469809052" lon="26.90998343397383" id="-106766">
		<tag k="name" v="Nyheimveien" />
		<tag k="ssr:date" v="2020-02-25" />
		<tag k="ssr:gruppe" v="veg" />
		<tag k="ssr:hovedgruppe" v="infrastruktur" />
		<tag k="ssr:stedsnr" v="1075619" />
		<tag k="ssr:type" v="adressenavn" />
	</node>
	<node lat="70.41353375764751" lon="26.711338475675717" id="-106769">
		<tag k="name" v="Landersfjordveien" />
		<tag k="ssr:date" v="2020-02-25" />
		<tag k="ssr:gruppe" v="veg" />
		<tag k="ssr:hovedgruppe" v="infrastruktur" />
		<tag k="ssr:stedsnr" v="1075620" />
		<tag k="ssr:type" v="adressenavn" />
	</node>
	<node lat="70.40397509814144" lon="26.653166640959803" id="-106770">
		<tag k="name" v="Sommarsetveien" />
		<tag k="ssr:date" v="2020-02-25" />
		<tag k="ssr:gruppe" v="veg" />
		<tag k="ssr:hovedgruppe" v="infrastruktur" />
		<tag k="ssr:stedsnr" v="1075621" />
		<tag k="ssr:type" v="adressenavn" />
	</node>
	<node lat="70.38368870831295" lon="26.634331454904558" id="-106771">
		<tag k="name" v="Bærfjellveien" />
		<tag k="ssr:date" v="2020-02-25" />
		<tag k="ssr:gruppe" v="veg" />
		<tag k="ssr:hovedgruppe" v="infrastruktur" />
		<tag k="ssr:stedsnr" v="1075622" />
		<tag k="ssr:type" v="adressenavn" />
	</node>
	<node lat="70.65520823723628" lon="26.401066895490576" id="-106772">
		<tag k="name" v="Vassbergveien" />
		<tag k="ssr:date" v="2020-02-25" />
		<tag k="ssr:gruppe" v="veg" />
		<tag k="ssr:hovedgruppe" v="infrastruktur" />
		<tag k="ssr:stedsnr" v="1075623" />
		<tag k="ssr:type" v="adressenavn" />
	</node>
	<node lat="70.38725404136791" lon="26.637711419644948" id="-106773">
		<tag k="name" v="Adamsfjordveien" />
		<tag k="ssr:date" v="2020-02-25" />
		<tag k="ssr:gruppe" v="veg" />
		<tag k="ssr:hovedgruppe" v="infrastruktur" />
		<tag k="ssr:stedsnr" v="1075627" />
		<tag k="ssr:type" v="adressenavn" />
	</node>
	<node lat="70.66319221605949" lon="27.21031205786578" id="-106776">
		<tag k="name" v="Store Torskefjord-veien" />
		<tag k="ssr:date" v="2020-02-25" />
		<tag k="ssr:gruppe" v="veg" />
		<tag k="ssr:hovedgruppe" v="infrastruktur" />
		<tag k="ssr:stedsnr" v="1075647" />
		<tag k="ssr:type" v="adressenavn" />
	</node>
	<node lat="70.36008327902782" lon="26.892096770951962" id="-106777">
		<tag k="name" v="Loavddajárluodda" />
		<tag k="ssr:date" v="2020-02-25" />
		<tag k="ssr:gruppe" v="veg" />
		<tag k="ssr:hovedgruppe" v="infrastruktur" />
		<tag k="ssr:stedsnr" v="1075648" />
		<tag k="ssr:type" v="adressenavn" />
	</node>
	<node lat="70.36008327902782" lon="26.892096770951962" id="-106778">
		<tag k="name" v="Stálogáisluodda" />
		<tag k="ssr:date" v="2020-02-25" />
		<tag k="ssr:gruppe" v="veg" />
		<tag k="ssr:hovedgruppe" v="infrastruktur" />
		<tag k="ssr:stedsnr" v="1075650" />
		<tag k="ssr:type" v="adressenavn" />
	</node>
	<node lat="70.44177496403812" lon="26.840923372072833" id="-106779">
		<tag k="name" v="Bergvassveien" />
		<tag k="ssr:date" v="2020-02-25" />
		<tag k="ssr:gruppe" v="veg" />
		<tag k="ssr:hovedgruppe" v="infrastruktur" />
		<tag k="ssr:stedsnr" v="1075651" />
		<tag k="ssr:type" v="adressenavn" />
	</node>
	<node lat="70.46270356962133" lon="27.106516242994278" id="-106780">
		<tag k="name" v="Kuvassveien" />
		<tag k="ssr:date" v="2020-02-25" />
		<tag k="ssr:gruppe" v="veg" />
		<tag k="ssr:hovedgruppe" v="infrastruktur" />
		<tag k="ssr:stedsnr" v="1075652" />
		<tag k="ssr:type" v="adressenavn" />
	</node>
	<node lat="70.58566700295745" lon="27.24093294618937" id="-106781">
		<tag k="name" v="Elvebakken" />
		<tag k="ssr:date" v="2020-02-26" />
		<tag k="ssr:gruppe" v="veg" />
		<tag k="ssr:hovedgruppe" v="infrastruktur" />
		<tag k="ssr:stedsnr" v="1075661" />
		<tag k="ssr:type" v="adressenavn" />
	</node>
	<node lat="70.34393602234792" lon="26.508795681634727" id="-106786">
		<tag k="name" v="Stuorraskáiddiluodda" />
		<tag k="name:se" v="Stuorraskáiddiluodda" />
		<tag k="ssr:date" v="2020-02-26" />
		<tag k="ssr:gruppe" v="veg" />
		<tag k="ssr:hovedgruppe" v="infrastruktur" />
		<tag k="ssr:stedsnr" v="1075679" />
		<tag k="ssr:type" v="adressenavn" />
	</node>
	<node lat="70.45689225620845" lon="26.969905343655977" id="-106787">
		<tag k="name" v="Holmeveien" />
		<tag k="ssr:date" v="2020-02-26" />
		<tag k="ssr:gruppe" v="veg" />
		<tag k="ssr:hovedgruppe" v="infrastruktur" />
		<tag k="ssr:stedsnr" v="1075680" />
		<tag k="ssr:type" v="adressenavn" />
	</node>
	<node lat="70.61376284142348" lon="26.62111347019155" id="-106833">
		<tag k="name" v="Boas" />
		<tag k="ssr:date" v="2021-03-29" />
		<tag k="ssr:gruppe" v="veg" />
		<tag k="ssr:hovedgruppe" v="infrastruktur" />
		<tag k="ssr:stedsnr" v="1080682" />
		<tag k="ssr:type" v="adressenavn" />
	</node>
	<node lat="71.0089742053313" lon="27.393229263865276" id="-106836">
		<tag k="name" v="Rubbeskaret" />
		<tag k="ssr:date" v="2021-09-07" />
		<tag k="ssr:gruppe" v="veg" />
		<tag k="ssr:hovedgruppe" v="infrastruktur" />
		<tag k="ssr:stedsnr" v="1082136" />
		<tag k="ssr:type" v="adressenavn" />
	</node>
	<node lat="70.57845473366298" lon="26.998571429532305" id="-106838">
		<tag k="name" v="Lilleelva" />
		<tag k="ssr:date" v="2021-09-07" />
		<tag k="ssr:gruppe" v="veg" />
		<tag k="ssr:hovedgruppe" v="infrastruktur" />
		<tag k="ssr:stedsnr" v="1082133" />
		<tag k="ssr:type" v="adressenavn" />
	</node>
	<node lat="70.95883990702495" lon="27.512195477440383" id="-106840">
		<tag k="name" v="Valen" />
		<tag k="ssr:date" v="2021-09-07" />
		<tag k="ssr:gruppe" v="veg" />
		<tag k="ssr:hovedgruppe" v="infrastruktur" />
		<tag k="ssr:stedsnr" v="1082134" />
		<tag k="ssr:type" v="adressenavn" />
	</node>
	<node lat="70.84944714567983" lon="27.50908001561589" id="-106841">
		<tag k="name" v="Ørntinden" />
		<tag k="ssr:date" v="2021-09-14" />
		<tag k="ssr:gruppe" v="veg" />
		<tag k="ssr:hovedgruppe" v="infrastruktur" />
		<tag k="ssr:stedsnr" v="1082340" />
		<tag k="ssr:type" v="adressenavn" />
	</node>
</osm>
