<?xml version="1.0" encoding="UTF-8"?>
<osm version="0.6" generator="osmapis">
	<node lat="62.05706388581131" lon="10.861949991468776" id="-19365">
		<tag k="name" v="Skredmyra" />
		<tag k="natural" v="wetland" />
		<tag k="ssr:stedsnr" v="11009" />
	</node>
	<node lat="62.40750278176647" lon="10.364233343050921" id="-19376">
		<tag k="name" v="Storåsfloen" />
		<tag k="natural" v="wetland" />
		<tag k="ssr:stedsnr" v="11807" />
	</node>
	<node lat="62.55542500259242" lon="10.303102786411689" id="-19383">
		<tag k="historic" v="shieling" />
		<tag k="name" v="Sætra" />
		<tag k="place" v="locality" />
		<tag k="ssr:stedsnr" v="232027" />
	</node>
	<node lat="62.57207500284305" lon="10.363049991732309" id="-19402">
		<tag k="name" v="Storløenget" />
		<tag k="place" v="locality" />
		<tag k="ssr:stedsnr" v="233209" />
	</node>
	<node lat="62.581541664441914" lon="10.353888896659202" id="-19403">
		<tag k="name" v="Slettesmyran" />
		<tag k="natural" v="wetland" />
		<tag k="ssr:stedsnr" v="233211" />
	</node>
	<node lat="62.255311107301814" lon="10.917119440055965" id="-19410">
		<tag k="name" v="Lauvåsfloen" />
		<tag k="natural" v="wetland" />
		<tag k="ssr:stedsnr" v="233489" />
	</node>
	<node lat="62.2617083361803" lon="10.941550009547708" id="-19411">
		<tag k="alt_name" v="Hobdenga" />
		<tag k="name" v="Hovdenga" />
		<tag k="place" v="locality" />
		<tag k="ssr:stedsnr" v="233490" />
	</node>
	<node lat="62.63638610716859" lon="10.250638886150481" id="-19423">
		<tag k="historic" v="shieling" />
		<tag k="name" v="Børlisætran" />
		<tag k="place" v="locality" />
		<tag k="ssr:stedsnr" v="233985" />
	</node>
	<node lat="62.23987500386707" lon="10.997830554549225" id="-19433">
		<tag k="name" v="Søndre hølet" />
		<tag k="place" v="locality" />
		<tag k="ssr:stedsnr" v="234324" />
	</node>
	<node lat="62.17236110919171" lon="10.938944445123752" id="-19441">
		<tag k="name" v="Væråmyran" />
		<tag k="natural" v="wetland" />
		<tag k="ssr:stedsnr" v="234474" />
	</node>
	<node lat="62.399458331518126" lon="10.59232221351061" id="-19442">
		<tag k="name" v="Hølbekkenget" />
		<tag k="place" v="locality" />
		<tag k="ssr:stedsnr" v="234638" />
	</node>
	<node lat="62.530408329085695" lon="10.421375001023877" id="-19459">
		<tag k="name" v="Knekmyrene" />
		<tag k="natural" v="wetland" />
		<tag k="ssr:stedsnr" v="51873" />
	</node>
	<node lat="62.25954722345161" lon="10.966980554840458" id="-19476">
		<tag k="name" v="Nordigardkåsa" />
		<tag k="place" v="locality" />
		<tag k="ssr:stedsnr" v="52289" />
	</node>
	<node lat="62.22149999853945" lon="10.630611119464602" id="-19477">
		<tag k="name" v="Brottet" />
		<tag k="place" v="locality" />
		<tag k="ssr:stedsnr" v="52706" />
	</node>
	<node lat="62.41516666814755" lon="10.58892778072182" id="-19480">
		<tag k="name" v="Kvernhusenget" />
		<tag k="place" v="locality" />
		<tag k="ssr:stedsnr" v="52606" />
	</node>
	<node lat="62.477811115310644" lon="10.367302785697122" id="-19539">
		<tag k="name" v="Orkelbogfloene" />
		<tag k="natural" v="wetland" />
		<tag k="ssr:stedsnr" v="111726" />
	</node>
	<node lat="62.574494445918994" lon="10.352477779572087" id="-19547">
		<tag k="name" v="Slettet" />
		<tag k="place" v="locality" />
		<tag k="ssr:stedsnr" v="112226" />
	</node>
	<node lat="62.231808337398085" lon="10.617752786422031" id="-19550">
		<tag k="name" v="Flatåsen" />
		<tag k="place" v="locality" />
		<tag k="ssr:stedsnr" v="112773" />
	</node>
	<node lat="62.658855553335385" lon="10.170358330606435" id="-19556">
		<tag k="landuse" v="meadow" />
		<tag k="name" v="Ormsletta" />
		<tag k="ssr:stedsnr" v="112869" />
	</node>
	<node lat="62.41723055106742" lon="10.393755562626039" id="-19558">
		<tag k="name" v="Hesjestøbakken" />
		<tag k="place" v="locality" />
		<tag k="ssr:stedsnr" v="112971" />
	</node>
	<node lat="62.247680557509796" lon="10.762680552788948" id="-19571">
		<tag k="name" v="Veslhaversfloen" />
		<tag k="natural" v="wetland" />
		<tag k="ssr:stedsnr" v="113937" />
	</node>
	<node lat="62.130580556986324" lon="10.842950007293766" id="-19598">
		<tag k="alt_name" v="Brønnåmyra" />
		<tag k="name" v="Brønnåmyran" />
		<tag k="natural" v="wetland" />
		<tag k="ssr:stedsnr" v="253092" />
	</node>
	<node lat="62.530675002409524" lon="10.414677781869718" id="-19614">
		<tag k="name" v="Storfloen" />
		<tag k="natural" v="wetland" />
		<tag k="ssr:stedsnr" v="254044" />
	</node>
	<node lat="62.28651110904278" lon="10.478383334942679" id="-19648">
		<tag k="alt_name" v="Belsvikmyra" />
		<tag k="name" v="Bellsvikmyran" />
		<tag k="natural" v="wetland" />
		<tag k="ssr:stedsnr" v="254898" />
	</node>
	<node lat="62.521308334619526" lon="10.223077775075232" id="-19659">
		<tag k="historic" v="shieling" />
		<tag k="name" v="Gammelvangen" />
		<tag k="place" v="locality" />
		<tag k="ssr:stedsnr" v="172072" />
	</node>
	<node lat="62.25938889068883" lon="10.681080559879584" id="-19661">
		<tag k="name" v="Steenget" />
		<tag k="place" v="locality" />
		<tag k="ssr:stedsnr" v="172215" />
	</node>
	<node lat="62.61982221881408" lon="10.224269436293765" id="-19673">
		<tag k="name" v="Storengsmarka" />
		<tag k="place" v="locality" />
		<tag k="ssr:stedsnr" v="172962" />
	</node>
	<node lat="62.09592221799335" lon="10.899513884320136" id="-19682">
		<tag k="landuse" v="meadow" />
		<tag k="name" v="Vesletrøa" />
		<tag k="ssr:stedsnr" v="173364" />
	</node>
	<node lat="62.248808335805876" lon="10.624697227824912" id="-19685">
		<tag k="name" v="Brannrøste" />
		<tag k="place" v="locality" />
		<tag k="ssr:stedsnr" v="174256" />
	</node>
	<node lat="62.25041110855602" lon="10.968236116831914" id="-19688">
		<tag k="name" v="Tørkilkåsa" />
		<tag k="place" v="locality" />
		<tag k="ssr:stedsnr" v="174368" />
	</node>
	<node lat="62.14976388613301" lon="10.888533333971646" id="-19691">
		<tag k="landuse" v="meadow" />
		<tag k="name" v="Rivdalsenget" />
		<tag k="ssr:stedsnr" v="174526" />
	</node>
	<node lat="62.56641111138909" lon="10.280819450367941" id="-19698">
		<tag k="name" v="Vollmarka" />
		<tag k="place" v="locality" />
		<tag k="ssr:stedsnr" v="232034" />
	</node>
	<node lat="62.31805000127083" lon="10.721927768406415" id="-19709">
		<tag k="landuse" v="meadow" />
		<tag k="name" v="Vester lete" />
		<tag k="ssr:stedsnr" v="233130" />
	</node>
	<node lat="62.64505832989487" lon="10.168761107528107" id="-19717">
		<tag k="name" v="Bjønnlimyra" />
		<tag k="natural" v="wetland" />
		<tag k="ssr:stedsnr" v="233920" />
	</node>
	<node lat="62.43610833238195" lon="10.609977772590481" id="-19723">
		<tag k="name" v="Brennvangbua" />
		<tag k="place" v="locality" />
		<tag k="ssr:stedsnr" v="234040" />
	</node>
	<node lat="62.24278055186451" lon="10.958861116026844" id="-19729">
		<tag k="name" v="Kløftkåsa" />
		<tag k="place" v="locality" />
		<tag k="ssr:stedsnr" v="234435" />
	</node>
	<node lat="62.150061109226165" lon="10.793002775199298" id="-19731">
		<tag k="name" v="Nytrøa" />
		<tag k="place" v="locality" />
		<tag k="ssr:stedsnr" v="234877" />
	</node>
	<node lat="62.28117778081777" lon="10.910950000570308" id="-19749">
		<tag k="alt_name" v="Hobdsæterfloen;Haupsæterfloen" />
		<tag k="name" v="Hopsæterfloen" />
		<tag k="natural" v="wetland" />
		<tag k="ssr:stedsnr" v="254273" />
	</node>
	<node lat="62.24600555694431" lon="10.692605551705517" id="-19792">
		<tag k="name" v="Rundloken" />
		<tag k="natural" v="wetland" />
		<tag k="ssr:stedsnr" v="294778" />
	</node>
	<node lat="62.217661115176334" lon="10.774555551150234" id="-19793">
		<tag k="name" v="Vintervegmyra" />
		<tag k="natural" v="wetland" />
		<tag k="ssr:stedsnr" v="294914" />
	</node>
	<node lat="62.100061111128674" lon="10.910816660537293" id="-19806">
		<tag k="name" v="Bjørnrøsta" />
		<tag k="place" v="locality" />
		<tag k="ssr:stedsnr" v="295393" />
	</node>
	<node lat="62.09665000445821" lon="10.917858330429032" id="-19807">
		<tag k="name" v="Storgjota" />
		<tag k="natural" v="wetland" />
		<tag k="ssr:stedsnr" v="295395" />
	</node>
	<node lat="62.5627777769252" lon="10.304613886674394" id="-19844">
		<tag k="name" v="Vollmyra" />
		<tag k="natural" v="wetland" />
		<tag k="ssr:stedsnr" v="353057" />
	</node>
	<node lat="62.52721111023822" lon="10.227833327330309" id="-19845">
		<tag k="name" v="Flåggåen" />
		<tag k="place" v="locality" />
		<tag k="ssr:stedsnr" v="353075" />
	</node>
	<node lat="62.337802777613206" lon="10.663511117323408" id="-19861">
		<tag k="name" v="Nordjordsten" />
		<tag k="natural" v="stone" />
		<tag k="ssr:stedsnr" v="355077" />
	</node>
	<node lat="62.47004444857317" lon="10.54146388501367" id="-19866">
		<tag k="name" v="Råvåenget" />
		<tag k="place" v="locality" />
		<tag k="ssr:stedsnr" v="355324" />
	</node>
	<node lat="62.51740000305321" lon="10.386772213948282" id="-19880">
		<tag k="name" v="Sildmyra" />
		<tag k="natural" v="wetland" />
		<tag k="ssr:stedsnr" v="475788" />
	</node>
	<node lat="62.417258332172075" lon="10.59781944340646" id="-19883">
		<tag k="name" v="Nedre Lilleenget" />
		<tag k="place" v="locality" />
		<tag k="ssr:stedsnr" v="476064" />
	</node>
	<node lat="62.26401388802669" lon="10.70217499248855" id="-19900">
		<tag k="name" v="Røstbakken" />
		<tag k="place" v="locality" />
		<tag k="ssr:stedsnr" v="476189" />
	</node>
	<node lat="62.32845833743437" lon="10.976166664213421" id="-19903">
		<tag k="name" v="Hjartenget" />
		<tag k="place" v="locality" />
		<tag k="ssr:stedsnr" v="476347" />
	</node>
	<node lat="62.27664444274272" lon="10.9253083245663" id="-19914">
		<tag k="landuse" v="meadow" />
		<tag k="name" v="Husenget" />
		<tag k="ssr:stedsnr" v="476455" />
	</node>
	<node lat="62.415586114364594" lon="10.568183339040644" id="-19916">
		<tag k="name" v="Skreddarenget" />
		<tag k="place" v="locality" />
		<tag k="ssr:stedsnr" v="476642" />
	</node>
	<node lat="62.33908055607088" lon="10.572008334106942" id="-19918">
		<tag k="name" v="Vesterlifloen" />
		<tag k="natural" v="wetland" />
		<tag k="ssr:stedsnr" v="476827" />
	</node>
	<node lat="62.593458333021765" lon="10.27961943574387" id="-19926">
		<tag k="name" v="Innlegget" />
		<tag k="place" v="locality" />
		<tag k="ssr:stedsnr" v="476952" />
	</node>
	<node lat="62.14186944341846" lon="10.773100003306919" id="-19928">
		<tag k="name" v="Lauvmyra" />
		<tag k="natural" v="wetland" />
		<tag k="ssr:stedsnr" v="477052" />
	</node>
	<node lat="62.10548055287156" lon="10.87451945380743" id="-19932">
		<tag k="name" v="Vintermyra" />
		<tag k="natural" v="wetland" />
		<tag k="ssr:stedsnr" v="477484" />
	</node>
	<node lat="62.27387207733335" lon="10.928572824849532" id="-19950">
		<tag k="alt_name" v="Hobdsæterkjølen;Hovdsæterkjølen" />
		<tag k="fixme" v="multiple name tags, choose one and add the other to alt_name" />
		<tag k="name" v="Slettkjølen;Hopsæterkjølen" />
		<tag k="natural" v="wetland" />
		<tag k="old_name" v="Sletkjølen" />
		<tag k="ssr:stedsnr" v="375236" />
	</node>
	<node lat="62.37930277958215" lon="10.705830564131327" id="-19959">
		<tag k="alt_name" v="Haugrustvangen" />
		<tag k="historic" v="shieling" />
		<tag k="name" v="Haugrosvangen" />
		<tag k="place" v="locality" />
		<tag k="ssr:stedsnr" v="375737" />
	</node>
	<node lat="62.292338793957505" lon="10.687607443250895" id="-19962">
		<tag k="historic" v="shieling" />
		<tag k="name" v="Prestvangen" />
		<tag k="place" v="locality" />
		<tag k="ssr:stedsnr" v="375910" />
	</node>
	<node lat="62.31210833311872" lon="10.497527772093088" id="-19964">
		<tag k="name" v="Lokan" />
		<tag k="natural" v="wetland" />
		<tag k="ssr:stedsnr" v="375926" />
	</node>
	<node lat="62.55061110931639" lon="10.427702782798033" id="-19979">
		<tag k="landuse" v="quarry" />
		<tag k="name" v="Kvikne kopperverk" />
		<tag k="ssr:stedsnr" v="415202" />
	</node>
	<node lat="62.48161111225895" lon="10.391108340918198" id="-19980">
		<tag k="landuse" v="meadow" />
		<tag k="name" v="Enga" />
		<tag k="ssr:stedsnr" v="415810" />
	</node>
	<node lat="62.30098333043056" lon="10.731950008407006" id="-19992">
		<tag k="name" v="Styggmyra" />
		<tag k="place" v="locality" />
		<tag k="ssr:stedsnr" v="416096" />
	</node>
	<node lat="62.211552782120776" lon="10.981488889802906" id="-20013">
		<tag k="name" v="Storrøstfloen" />
		<tag k="natural" v="wetland" />
		<tag k="ssr:stedsnr" v="435267" />
	</node>
	<node lat="62.51872500384448" lon="10.228072220511704" id="-20050">
		<tag k="name" v="Stormyra" />
		<tag k="natural" v="wetland" />
		<tag k="ssr:stedsnr" v="475078" />
	</node>
	<node lat="62.50044999855448" lon="10.367519441303346" id="-20055">
		<tag k="name" v="Rundfloen" />
		<tag k="natural" v="wetland" />
		<tag k="ssr:stedsnr" v="475784" />
	</node>
	<node lat="62.44404722369258" lon="10.586708330895918" id="-20063">
		<tag k="name" v="Vangbakktrøa" />
		<tag k="place" v="locality" />
		<tag k="ssr:stedsnr" v="476364" />
	</node>
	<node lat="62.29309167086304" lon="10.340611104462115" id="-20071">
		<tag k="name" v="Storjota" />
		<tag k="natural" v="wetland" />
		<tag k="ssr:stedsnr" v="477112" />
	</node>
	<node lat="62.344063891198445" lon="10.90096110476784" id="-20075">
		<tag k="name" v="Telenget" />
		<tag k="place" v="locality" />
		<tag k="ssr:stedsnr" v="477265" />
	</node>
	<node lat="62.39288055566436" lon="10.48437778043254" id="-20117">
		<tag k="name" v="Danielsmyra" />
		<tag k="natural" v="wetland" />
		<tag k="ssr:stedsnr" v="679747" />
	</node>
	<node lat="62.48825555481032" lon="10.246594447906643" id="-20164">
		<tag k="name" v="Langmyra" />
		<tag k="natural" v="wetland" />
		<tag k="ssr:stedsnr" v="536087" />
	</node>
	<node lat="62.47982499924303" lon="10.361811104379445" id="-20173">
		<tag k="landuse" v="meadow" />
		<tag k="name" v="Dalsjordet" />
		<tag k="ssr:stedsnr" v="536781" />
	</node>
	<node lat="62.32352777427865" lon="10.68981111607848" id="-20180">
		<tag k="name" v="Madsbotten" />
		<tag k="place" v="locality" />
		<tag k="ssr:stedsnr" v="537170" />
	</node>
	<node lat="62.298852779197624" lon="10.882361118904019" id="-20183">
		<tag k="historic" v="shieling" />
		<tag k="name" v="Berget" />
		<tag k="place" v="locality" />
		<tag k="ssr:stedsnr" v="537270" />
	</node>
	<node lat="62.09662499796996" lon="10.883244444634801" id="-20189">
		<tag k="name" v="Storbråttån" />
		<tag k="place" v="locality" />
		<tag k="ssr:stedsnr" v="538425" />
	</node>
	<node lat="62.189316669966715" lon="10.922088894869603" id="-20190">
		<tag k="name" v="Rettsletta" />
		<tag k="place" v="locality" />
		<tag k="ssr:stedsnr" v="538509" />
	</node>
	<node lat="62.169305553506604" lon="10.957824994600623" id="-20191">
		<tag k="name" v="Illmyra" />
		<tag k="natural" v="wetland" />
		<tag k="ssr:stedsnr" v="538511" />
	</node>
	<node lat="62.48938333212881" lon="10.388541664193253" id="-20219">
		<tag k="landuse" v="meadow" />
		<tag k="name" v="Langenga" />
		<tag k="ssr:stedsnr" v="596749" />
	</node>
	<node lat="62.38514166923564" lon="10.660925008507663" id="-20226">
		<tag k="name" v="Livangen" />
		<tag k="place" v="locality" />
		<tag k="ssr:stedsnr" v="597018" />
	</node>
	<node lat="62.427716665206226" lon="10.596613885652987" id="-20234">
		<tag k="name" v="Sundløa" />
		<tag k="place" v="locality" />
		<tag k="ssr:stedsnr" v="597049" />
	</node>
	<node lat="62.099280558698254" lon="10.813141672329007" id="-20239">
		<tag k="landuse" v="meadow" />
		<tag k="name" v="Maribakken" />
		<tag k="ssr:stedsnr" v="597653" />
	</node>
	<node lat="62.10031111568971" lon="10.762902770662185" id="-20241">
		<tag k="name" v="Langmyra" />
		<tag k="natural" v="wetland" />
		<tag k="ssr:stedsnr" v="597659" />
	</node>
	<node lat="62.26454722663265" lon="10.971063892043075" id="-20250">
		<tag k="name" v="Stenenget" />
		<tag k="place" v="locality" />
		<tag k="ssr:stedsnr" v="598308" />
	</node>
	<node lat="62.2344305539062" lon="10.740486107219825" id="-20255">
		<tag k="name" v="Sætertjønnfloen" />
		<tag k="natural" v="wetland" />
		<tag k="ssr:stedsnr" v="598971" />
	</node>
	<node lat="62.233552773773596" lon="10.770661110336476" id="-20256">
		<tag k="name" v="Nevermyra" />
		<tag k="natural" v="wetland" />
		<tag k="ssr:stedsnr" v="598972" />
	</node>
	<node lat="62.09564444162054" lon="10.92776665918277" id="-20261">
		<tag k="name" v="Storgjotmyra" />
		<tag k="natural" v="wetland" />
		<tag k="ssr:stedsnr" v="617140" />
	</node>
	<node lat="62.200702774042064" lon="10.950108335255374" id="-20264">
		<tag k="name" v="Stormyra" />
		<tag k="natural" v="wetland" />
		<tag k="ssr:stedsnr" v="617290" />
	</node>
	<node lat="62.29780555101395" lon="10.854544453284012" id="-20276">
		<tag k="alt_name" v="Gotlandsfloen" />
		<tag k="name" v="Godtlandsfloen" />
		<tag k="natural" v="wetland" />
		<tag k="ssr:stedsnr" v="618276" />
	</node>
	<node lat="62.47140833720047" lon="10.177013887483687" id="-20282">
		<tag k="name" v="Høgfloen" />
		<tag k="natural" v="wetland" />
		<tag k="ssr:stedsnr" v="618704" />
	</node>
	<node lat="62.432527777860145" lon="10.261702784094537" id="-20285">
		<tag k="historic" v="shieling" />
		<tag k="name" v="Børsjøsætra" />
		<tag k="place" v="locality" />
		<tag k="ssr:stedsnr" v="618814" />
	</node>
	<node lat="62.57237500296489" lon="10.318700002002094" id="-20290">
		<tag k="name" v="Langmyra" />
		<tag k="natural" v="wetland" />
		<tag k="ssr:stedsnr" v="657038" />
	</node>
	<node lat="62.297797223385146" lon="10.734550006679127" id="-20297">
		<tag k="name" v="Øya" />
		<tag k="place" v="locality" />
		<tag k="ssr:stedsnr" v="658099" />
	</node>
	<node lat="62.68703888778278" lon="10.193791658562958" id="-20299">
		<tag k="name" v="Storfloen" />
		<tag k="natural" v="wetland" />
		<tag k="ssr:stedsnr" v="657993" />
	</node>
	<node lat="62.29218889139489" lon="10.941330564668194" id="-20311">
		<tag k="name" v="Dalsenga" />
		<tag k="place" v="locality" />
		<tag k="ssr:stedsnr" v="658290" />
	</node>
	<node lat="62.42205555620462" lon="10.585838885865583" id="-20313">
		<tag k="name" v="Hakktuvenget" />
		<tag k="place" v="locality" />
		<tag k="ssr:stedsnr" v="658384" />
	</node>
	<node lat="62.26703889136321" lon="10.977399993354332" id="-20315">
		<tag k="name" v="Midtenget" />
		<tag k="place" v="locality" />
		<tag k="ssr:stedsnr" v="658388" />
	</node>
	<node lat="62.48695000200264" lon="10.289244438696501" id="-20380">
		<tag k="name" v="Stillbekkrya" />
		<tag k="place" v="locality" />
		<tag k="ssr:stedsnr" v="718129" />
	</node>
	<node lat="62.56002500098952" lon="10.433966667830736" id="-20381">
		<tag k="name" v="Tuvtjønnmyra" />
		<tag k="natural" v="wetland" />
		<tag k="ssr:stedsnr" v="718207" />
	</node>
	<node lat="62.49671666290715" lon="10.374488896093995" id="-20386">
		<tag k="name" v="Myra" />
		<tag k="natural" v="wetland" />
		<tag k="ssr:stedsnr" v="718773" />
	</node>
	<node lat="62.504777779482595" lon="10.17194443695686" id="-20387">
		<tag k="name" v="Fjellenget" />
		<tag k="place" v="locality" />
		<tag k="ssr:stedsnr" v="718775" />
	</node>
	<node lat="62.32339721886039" lon="10.772619443677701" id="-20394">
		<tag k="name" v="Sukkasmyra" />
		<tag k="natural" v="wetland" />
		<tag k="ssr:stedsnr" v="719114" />
	</node>
	<node lat="62.3023138871899" lon="10.894002774821988" id="-20400">
		<tag k="name" v="Stormyra" />
		<tag k="natural" v="wetland" />
		<tag k="ssr:stedsnr" v="719287" />
	</node>
	<node lat="62.25540555680053" lon="10.909061117720068" id="-20403">
		<tag k="name" v="Brydalskjølen" />
		<tag k="natural" v="wetland" />
		<tag k="ssr:stedsnr" v="719420" />
	</node>
	<node lat="62.25933055984808" lon="10.896663897062686" id="-20404">
		<tag k="name" v="Volsvangmyran" />
		<tag k="natural" v="wetland" />
		<tag k="ssr:stedsnr" v="719422" />
	</node>
	<node lat="62.24508611133406" lon="10.654608329891625" id="-20419">
		<tag k="name" v="Finsand" />
		<tag k="natural" v="beach" />
		<tag k="ssr:stedsnr" v="720236" />
		<tag k="surface" v="sand" />
	</node>
	<node lat="62.0996444420464" lon="10.861144446961958" id="-20425">
		<tag k="name" v="Bærmyrbekken" />
		<tag k="natural" v="wetland" />
		<tag k="ssr:stedsnr" v="720475" />
	</node>
	<node lat="62.48341667109129" lon="10.301902779511453" id="-20439">
		<tag k="name" v="Brentlømyrene" />
		<tag k="natural" v="wetland" />
		<tag k="ssr:stedsnr" v="901105" />
	</node>
	<node lat="62.341486114583056" lon="10.73092222061281" id="-20440">
		<tag k="name" v="Molivangen" />
		<tag k="place" v="locality" />
		<tag k="ssr:stedsnr" v="901116" />
	</node>
	<node lat="62.355338887589596" lon="10.62002776916908" id="-20441">
		<tag k="name" v="Gammelvangfloen" />
		<tag k="natural" v="wetland" />
		<tag k="ssr:stedsnr" v="901083" />
	</node>
	<node lat="62.319116667085716" lon="10.79326944882213" id="-20445">
		<tag k="name" v="Storåsfloen" />
		<tag k="natural" v="wetland" />
		<tag k="ssr:stedsnr" v="901096" />
	</node>
	<node lat="62.30497222575835" lon="10.857372222505708" id="-20454">
		<tag k="name" v="Snaufloen" />
		<tag k="natural" v="wetland" />
		<tag k="ssr:stedsnr" v="901278" />
	</node>
	<node lat="62.43444166832279" lon="10.557147215843964" id="-20455">
		<tag k="name" v="Skjærenget" />
		<tag k="place" v="locality" />
		<tag k="ssr:stedsnr" v="901230" />
	</node>
	<node lat="62.44501111040911" lon="10.535919448896832" id="-20458">
		<tag k="name" v="Bjørntangenget" />
		<tag k="place" v="locality" />
		<tag k="ssr:stedsnr" v="901379" />
	</node>
	<node lat="62.45272777758546" lon="10.5365888923617" id="-20459">
		<tag k="name" v="Midtenget" />
		<tag k="place" v="locality" />
		<tag k="ssr:stedsnr" v="901381" />
	</node>
	<node lat="62.2711972238586" lon="10.501599991133757" id="-20461">
		<tag k="name" v="Tjønna" />
		<tag k="place" v="locality" />
		<tag k="ssr:stedsnr" v="901516" />
	</node>
	<node lat="62.38346666842392" lon="10.448183339817549" id="-20462">
		<tag k="landuse" v="meadow" />
		<tag k="name" v="Stubsjøengan" />
		<tag k="ssr:stedsnr" v="901497" />
	</node>
	<node lat="62.16108611057113" lon="10.755788882385323" id="-20472">
		<tag k="name" v="Bærmyra" />
		<tag k="natural" v="wetland" />
		<tag k="ssr:stedsnr" v="901846" />
	</node>
	<node lat="62.104561110823994" lon="10.920247216771683" id="-20482">
		<tag k="name" v="Kommerfloan" />
		<tag k="natural" v="wetland" />
		<tag k="ssr:stedsnr" v="902432" />
	</node>
	<node lat="62.08412499896798" lon="10.909052784898815" id="-20489">
		<tag k="name" v="Slåttmyra" />
		<tag k="natural" v="wetland" />
		<tag k="ssr:stedsnr" v="739023" />
	</node>
	<node lat="62.179752775649376" lon="11.087683333610208" id="-20493">
		<tag k="name" v="Storfloen" />
		<tag k="natural" v="wetland" />
		<tag k="ssr:stedsnr" v="739130" />
	</node>
	<node lat="62.487850004335115" lon="10.30521388107897" id="-20525">
		<tag k="name" v="Koieenget" />
		<tag k="place" v="locality" />
		<tag k="ssr:stedsnr" v="779107" />
	</node>
	<node lat="62.51016388831084" lon="10.28974445117224" id="-20526">
		<tag k="name" v="Floen" />
		<tag k="natural" v="wetland" />
		<tag k="ssr:stedsnr" v="779113" />
	</node>
	<node lat="62.48281389022475" lon="10.263958333909564" id="-20531">
		<tag k="name" v="Øverenget" />
		<tag k="place" v="locality" />
		<tag k="ssr:stedsnr" v="779064" />
	</node>
	<node lat="62.62972777893442" lon="10.21196110357098" id="-20539">
		<tag k="name" v="Storengsmarka" />
		<tag k="place" v="locality" />
		<tag k="ssr:stedsnr" v="779902" />
	</node>
	<node lat="62.301700002288214" lon="10.741452778957356" id="-20549">
		<tag k="name" v="Skjøttmyra" />
		<tag k="place" v="locality" />
		<tag k="ssr:stedsnr" v="780106" />
	</node>
	<node lat="62.37021667088127" lon="10.6772611196336" id="-20553">
		<tag k="name" v="Bølgenmyra" />
		<tag k="natural" v="wetland" />
		<tag k="ssr:stedsnr" v="780122" />
	</node>
	<node lat="62.10494166231501" lon="10.931030558075905" id="-20557">
		<tag k="name" v="Kvitkommerlund" />
		<tag k="place" v="locality" />
		<tag k="ssr:stedsnr" v="780359" />
	</node>
	<node lat="62.21657499624968" lon="10.798466664882005" id="-20562">
		<tag k="name" v="Langmyra" />
		<tag k="natural" v="wetland" />
		<tag k="ssr:stedsnr" v="780907" />
	</node>
	<node lat="62.27091666650604" lon="10.715283336633824" id="-20565">
		<tag k="name" v="Svesenget" />
		<tag k="place" v="locality" />
		<tag k="ssr:stedsnr" v="781157" />
	</node>
	<node lat="62.42245833752606" lon="10.421844434962972" id="-20587">
		<tag k="name" v="Brandeggmyra" />
		<tag k="natural" v="wetland" />
		<tag k="ssr:stedsnr" v="800794" />
	</node>
	<node lat="62.21406388769479" lon="10.930294450502902" id="-20604">
		<tag k="name" v="Flåmyran" />
		<tag k="natural" v="wetland" />
		<tag k="ssr:stedsnr" v="921248" />
	</node>
	<node lat="62.4551333310682" lon="10.546069440734865" id="-20612">
		<tag k="name" v="Danielsodden" />
		<tag k="place" v="locality" />
		<tag k="ssr:stedsnr" v="921853" />
	</node>
	<node lat="62.38638333538229" lon="10.638636101683584" id="-20624">
		<tag k="name" v="Fassmyra" />
		<tag k="natural" v="wetland" />
		<tag k="ssr:stedsnr" v="922737" />
	</node>
	<node lat="62.29746944144521" lon="10.655491672678547" id="-20631">
		<tag k="name" v="Stormyra" />
		<tag k="natural" v="wetland" />
		<tag k="ssr:stedsnr" v="922909" />
	</node>
	<node lat="62.063202777383616" lon="10.933766670250131" id="-20642">
		<tag k="name" v="Rokksætermarka" />
		<tag k="place" v="locality" />
		<tag k="ssr:stedsnr" v="840387" />
	</node>
	<node lat="62.29954166518226" lon="10.851219437546586" id="-20643">
		<tag k="name" v="Hakktugrubba" />
		<tag k="place" v="locality" />
		<tag k="ssr:stedsnr" v="840293" />
	</node>
	<node lat="62.29858611173854" lon="10.881955564959634" id="-20644">
		<tag k="name" v="Bergevangsflata" />
		<tag k="place" v="locality" />
		<tag k="ssr:stedsnr" v="840295" />
	</node>
	<node lat="62.527944441610224" lon="10.4061916649842" id="-20649">
		<tag k="historic" v="shieling" />
		<tag k="name" v="Grytbakkenget" />
		<tag k="place" v="locality" />
		<tag k="ssr:stedsnr" v="840730" />
	</node>
	<node lat="62.3583694443088" lon="10.701572222389391" id="-20653">
		<tag k="historic" v="shieling" />
		<tag k="name" v="Volsvangen" />
		<tag k="place" v="locality" />
		<tag k="ssr:stedsnr" v="841114" />
	</node>
	<node lat="62.31446111287918" lon="10.805347231662406" id="-20654">
		<tag k="name" v="Svartåsfloen" />
		<tag k="natural" v="wetland" />
		<tag k="ssr:stedsnr" v="841116" />
	</node>
	<node lat="62.39065555995236" lon="10.718447222229575" id="-20661">
		<tag k="name" v="Oddlivangen" />
		<tag k="place" v="locality" />
		<tag k="ssr:stedsnr" v="841277" />
	</node>
	<node lat="62.28393333389174" lon="10.697058340057282" id="-20670">
		<tag k="name" v="Heggrøsta" />
		<tag k="place" v="locality" />
		<tag k="ssr:stedsnr" v="842125" />
	</node>
	<node lat="62.02898889207904" lon="10.902708328201165" id="-20676">
		<tag k="name" v="Langmyra" />
		<tag k="natural" v="wetland" />
		<tag k="ssr:stedsnr" v="860057" />
	</node>
	<node lat="62.53574444152625" lon="10.384913897043868" id="-20717">
		<tag k="name" v="Kaltbergfloen" />
		<tag k="natural" v="wetland" />
		<tag k="ssr:stedsnr" v="900706" />
	</node>
	<node lat="62.275283332530144" lon="10.66701943503674" id="-20744">
		<tag k="name" v="Kringlettmyra" />
		<tag k="natural" v="wetland" />
		<tag k="ssr:stedsnr" v="902121" />
	</node>
	<node lat="62.285038890772434" lon="10.708594451087459" id="-20745">
		<tag k="name" v="Ingulfsbotn" />
		<tag k="place" v="locality" />
		<tag k="ssr:stedsnr" v="902126" />
	</node>
	<node lat="62.095508332575655" lon="10.920302781127141" id="-20752">
		<tag k="name" v="Gammelvangmyra" />
		<tag k="natural" v="wetland" />
		<tag k="ssr:stedsnr" v="902423" />
	</node>
	<node lat="62.30574444771856" lon="10.293536120001583" id="-20768">
		<tag k="name" v="Fallmyran" />
		<tag k="natural" v="wetland" />
		<tag k="ssr:stedsnr" v="921920" />
	</node>
	<node lat="62.57443611079699" lon="10.446841664825255" id="-20795">
		<tag k="name" v="Russumyra" />
		<tag k="natural" v="wetland" />
		<tag k="ssr:stedsnr" v="961195" />
	</node>
	<node lat="62.10226111477875" lon="10.935322229531419" id="-20798">
		<tag k="name" v="Kvitkommerlundfloen" />
		<tag k="natural" v="wetland" />
		<tag k="ssr:stedsnr" v="961405" />
	</node>
	<node lat="62.53244166895929" lon="10.376444436156696" id="-20804">
		<tag k="name" v="Mastumyra" />
		<tag k="natural" v="wetland" />
		<tag k="ssr:stedsnr" v="961748" />
	</node>
	<node lat="62.288805554358646" lon="10.6678249975563" id="-20818">
		<tag k="name" v="Åsvangen" />
		<tag k="place" v="locality" />
		<tag k="ssr:stedsnr" v="962136" />
	</node>
	<node lat="62.20730555467415" lon="10.745311111253793" id="-20828">
		<tag k="name" v="Floan" />
		<tag k="natural" v="wetland" />
		<tag k="ssr:stedsnr" v="962911" />
	</node>
	<node lat="62.237661109608716" lon="10.528272229292106" id="-20831">
		<tag k="name" v="Arnemyran" />
		<tag k="natural" v="wetland" />
		<tag k="ssr:stedsnr" v="962804" />
	</node>
	<node lat="62.1651944470337" lon="10.784769448381965" id="-20834">
		<tag k="historic" v="shieling" />
		<tag k="name" v="Veslesætra" />
		<tag k="place" v="locality" />
		<tag k="ssr:stedsnr" v="962844" />
	</node>
	<node lat="62.24611666465458" lon="10.652105562612086" id="-20838">
		<tag k="name" v="Ålborgkroken" />
		<tag k="place" v="locality" />
		<tag k="ssr:stedsnr" v="963248" />
	</node>
	<node lat="62.13584166839225" lon="10.761647224233721" id="-20917">
		<tag k="name" v="Langmyra" />
		<tag k="natural" v="wetland" />
		<tag k="ssr:stedsnr" v="52730" />
	</node>
	<node lat="62.1337999998359" lon="10.75278888038201" id="-20918">
		<tag k="name" v="Kaldåsmyran" />
		<tag k="natural" v="wetland" />
		<tag k="ssr:stedsnr" v="52732" />
	</node>
	<node lat="62.12865277357762" lon="10.772330554082313" id="-20922">
		<tag k="name" v="Øvre Røstbakken" />
		<tag k="place" v="locality" />
		<tag k="ssr:stedsnr" v="52739" />
	</node>
	<node lat="62.29969999899335" lon="10.854072227158973" id="-20925">
		<tag k="name" v="Tjønnan" />
		<tag k="natural" v="wetland" />
		<tag k="ssr:stedsnr" v="51340" />
	</node>
	<node lat="62.30469999628784" lon="10.920580553645097" id="-20927">
		<tag k="name" v="Bjønnfloen" />
		<tag k="natural" v="wetland" />
		<tag k="ssr:stedsnr" v="51362" />
	</node>
	<node lat="62.52461944658991" lon="10.1080361124225" id="-20932">
		<tag k="name" v="Leiranskogen" />
		<tag k="place" v="locality" />
		<tag k="ssr:stedsnr" v="51816" />
	</node>
	<node lat="62.387022226685595" lon="10.625180548644225" id="-20940">
		<tag k="name" v="Langmyra" />
		<tag k="natural" v="wetland" />
		<tag k="ssr:stedsnr" v="52030" />
	</node>
	<node lat="62.185174999043" lon="10.970525006921719" id="-20943">
		<tag k="name" v="Gråmyra" />
		<tag k="natural" v="wetland" />
		<tag k="ssr:stedsnr" v="52125" />
	</node>
	<node lat="62.15994166489078" lon="10.821019440877686" id="-20957">
		<tag k="historic" v="shieling" />
		<tag k="name" v="Kvannvangen" />
		<tag k="place" v="locality" />
		<tag k="ssr:stedsnr" v="52846" />
	</node>
	<node lat="62.26515278078986" lon="10.797877775483904" id="-20960">
		<tag k="name" v="Kløftmyra" />
		<tag k="natural" v="wetland" />
		<tag k="ssr:stedsnr" v="52946" />
	</node>
	<node lat="62.153922218700906" lon="10.768708323741183" id="-20962">
		<tag k="name" v="Livangsåttån" />
		<tag k="place" v="locality" />
		<tag k="ssr:stedsnr" v="53048" />
	</node>
	<node lat="62.24366666954602" lon="10.66343611559479" id="-20997">
		<tag k="name" v="Stormyra" />
		<tag k="natural" v="wetland" />
		<tag k="ssr:stedsnr" v="72399" />
	</node>
	<node lat="62.31086944531823" lon="10.328811104962112" id="-21010">
		<tag k="name" v="Bormyran" />
		<tag k="natural" v="wetland" />
		<tag k="ssr:stedsnr" v="72925" />
	</node>
	<node lat="62.280380555819725" lon="10.371513895037676" id="-21028">
		<tag k="name" v="Stormyra" />
		<tag k="natural" v="wetland" />
		<tag k="ssr:stedsnr" v="112801" />
	</node>
	<node lat="62.44988055302461" lon="10.460691661930515" id="-21031">
		<tag k="name" v="Storløenget" />
		<tag k="place" v="locality" />
		<tag k="ssr:stedsnr" v="112987" />
	</node>
	<node lat="62.66299999655637" lon="10.136430546687595" id="-21033">
		<tag k="name" v="Fossmarka" />
		<tag k="place" v="locality" />
		<tag k="ssr:stedsnr" v="112995" />
	</node>
	<node lat="62.298502778851976" lon="10.660636106367761" id="-21039">
		<tag k="name" v="Svartmarka" />
		<tag k="place" v="locality" />
		<tag k="ssr:stedsnr" v="112165" />
	</node>
	<node lat="62.088969447491586" lon="10.919111118989756" id="-21053">
		<tag k="name" v="Storbråten" />
		<tag k="place" v="locality" />
		<tag k="ssr:stedsnr" v="112420" />
	</node>
	<node lat="62.422447223985145" lon="10.573741662419119" id="-21054">
		<tag k="name" v="Utbyhaugenget" />
		<tag k="place" v="locality" />
		<tag k="ssr:stedsnr" v="112396" />
	</node>
	<node lat="62.15342499629232" lon="10.810158333155565" id="-21064">
		<tag k="historic" v="shieling" />
		<tag k="name" v="Åsvangen" />
		<tag k="place" v="locality" />
		<tag k="ssr:stedsnr" v="112849" />
	</node>
	<node lat="62.102213886549606" lon="10.912227783102834" id="-21069">
		<tag k="name" v="Koievolrøsta" />
		<tag k="place" v="locality" />
		<tag k="ssr:stedsnr" v="113371" />
	</node>
	<node lat="62.15315555708091" lon="10.962475003712433" id="-21073">
		<tag k="name" v="Gammelpermyra" />
		<tag k="natural" v="wetland" />
		<tag k="ssr:stedsnr" v="113453" />
	</node>
	<node lat="62.33828333779078" lon="10.921516666954222" id="-21075">
		<tag k="historic" v="shieling" />
		<tag k="name" v="Vangen" />
		<tag k="place" v="locality" />
		<tag k="ssr:stedsnr" v="113258" />
	</node>
	<node lat="62.28399166237088" lon="10.969897223864391" id="-21081">
		<tag k="name" v="Rya" />
		<tag k="place" v="locality" />
		<tag k="ssr:stedsnr" v="113359" />
	</node>
	<node lat="62.131108329592784" lon="10.776627781264425" id="-21088">
		<tag k="name" v="Ytre Røstbakken" />
		<tag k="place" v="locality" />
		<tag k="ssr:stedsnr" v="113742" />
	</node>
	<node lat="62.43983055574437" lon="10.43041945057993" id="-21123">
		<tag k="name" v="Langmyra" />
		<tag k="natural" v="wetland" />
		<tag k="ssr:stedsnr" v="132830" />
	</node>
	<node lat="62.40423055803252" lon="10.273516661100476" id="-21140">
		<tag k="landuse" v="quarry" />
		<tag k="name" v="Hamndalsgruva" />
		<tag k="ssr:stedsnr" v="133784" />
	</node>
	<node lat="62.55560833485506" lon="10.335625005229307" id="-21151">
		<tag k="name" v="Litlvadmoen" />
		<tag k="place" v="locality" />
		<tag k="ssr:stedsnr" v="172039" />
	</node>
	<node lat="62.42363888960714" lon="10.550238894593715" id="-21157">
		<tag k="historic" v="shieling" />
		<tag k="name" v="Nordre Motrøa" />
		<tag k="place" v="locality" />
		<tag k="ssr:stedsnr" v="172274" />
	</node>
	<node lat="62.289644448400615" lon="10.955569438683698" id="-21158">
		<tag k="name" v="Framre Brøttløeenget" />
		<tag k="place" v="locality" />
		<tag k="ssr:stedsnr" v="172326" />
	</node>
	<node lat="62.29307222649794" lon="10.468872214980061" id="-21160">
		<tag k="name" v="Stormyra" />
		<tag k="natural" v="wetland" />
		<tag k="ssr:stedsnr" v="173780" />
	</node>
	<node lat="62.24118888533415" lon="10.652019445992417" id="-21161">
		<tag k="name" v="Hektoenget" />
		<tag k="place" v="locality" />
		<tag k="ssr:stedsnr" v="173788" />
	</node>
	<node lat="62.107650003474006" lon="10.828719440412799" id="-21163">
		<tag k="name" v="Veslemyra" />
		<tag k="natural" v="wetland" />
		<tag k="ssr:stedsnr" v="172677" />
	</node>
	<node lat="62.30201388548692" lon="10.710958330124363" id="-21178">
		<tag k="name" v="Kloppmyra" />
		<tag k="natural" v="wetland" />
		<tag k="ssr:stedsnr" v="173117" />
	</node>
	<node lat="62.29181110808164" lon="10.670208333488286" id="-21180">
		<tag k="name" v="Åsvangfloen" />
		<tag k="natural" v="wetland" />
		<tag k="ssr:stedsnr" v="173121" />
	</node>
	<node lat="62.33455833298565" lon="10.809513897250744" id="-21183">
		<tag k="name" v="Granholtet" />
		<tag k="place" v="locality" />
		<tag k="ssr:stedsnr" v="173093" />
	</node>
	<node lat="62.34980833406597" lon="10.63087778458672" id="-21186">
		<tag k="name" v="Fossvangen" />
		<tag k="place" v="locality" />
		<tag k="ssr:stedsnr" v="173184" />
	</node>
	<node lat="62.25456388809145" lon="10.799677774530258" id="-21200">
		<tag k="name" v="Kvernbekkmyra" />
		<tag k="natural" v="wetland" />
		<tag k="ssr:stedsnr" v="173942" />
	</node>
	<node lat="62.24809999779689" lon="10.788019437358292" id="-21201">
		<tag k="name" v="Skarvangrøsta" />
		<tag k="place" v="locality" />
		<tag k="ssr:stedsnr" v="173949" />
	</node>
	<node lat="62.272270767176316" lon="10.803511215808463" id="-21207">
		<tag k="name" v="Stormyra" />
		<tag k="natural" v="wetland" />
		<tag k="ssr:stedsnr" v="174069" />
	</node>
	<node lat="62.27573055706551" lon="10.63141111663833" id="-21211">
		<tag k="name" v="Stormyra" />
		<tag k="natural" v="wetland" />
		<tag k="ssr:stedsnr" v="174174" />
	</node>
	<node lat="62.38322499915096" lon="10.405741671914496" id="-21271">
		<tag k="landuse" v="quarry" />
		<tag k="name" v="Røstvangen gruve" />
		<tag k="ssr:stedsnr" v="193747" />
	</node>
	<node lat="62.39556389184631" lon="10.624277782615698" id="-21308">
		<tag k="name" v="Slettrya" />
		<tag k="natural" v="wetland" />
		<tag k="ssr:stedsnr" v="194768" />
	</node>
	<node lat="62.53578055659015" lon="10.342874991598674" id="-21330">
		<tag k="name" v="Sagmyra" />
		<tag k="natural" v="wetland" />
		<tag k="ssr:stedsnr" v="293071" />
	</node>
	<node lat="62.54322777884538" lon="10.261924998102222" id="-21333">
		<tag k="name" v="Kvitsteinen" />
		<tag k="natural" v="stone" />
		<tag k="ssr:stedsnr" v="293086" />
	</node>
	<node lat="62.47459166861136" lon="10.347488887762884" id="-21340">
		<tag k="landuse" v="meadow" />
		<tag k="name" v="Fetten" />
		<tag k="ssr:stedsnr" v="293764" />
	</node>
	<node lat="62.47199444009282" lon="10.552733333254046" id="-21364">
		<tag k="name" v="Nygårdslåtten" />
		<tag k="place" v="locality" />
		<tag k="ssr:stedsnr" v="294352" />
	</node>
	<node lat="62.23366944437684" lon="10.542105556096097" id="-21369">
		<tag k="name" v="Brenna" />
		<tag k="place" v="locality" />
		<tag k="ssr:stedsnr" v="294819" />
	</node>
	<node lat="62.46630555978564" lon="10.411802773367047" id="-21371">
		<tag k="name" v="Bergenget" />
		<tag k="place" v="locality" />
		<tag k="ssr:stedsnr" v="294767" />
	</node>
	<node lat="62.16104722663725" lon="10.839919450411776" id="-21375">
		<tag k="name" v="Gråmyra" />
		<tag k="natural" v="wetland" />
		<tag k="ssr:stedsnr" v="294851" />
	</node>
	<node lat="62.29604166634479" lon="10.965177771922633" id="-21379">
		<tag k="name" v="Storløenget" />
		<tag k="place" v="locality" />
		<tag k="ssr:stedsnr" v="295344" />
	</node>
	<node lat="62.19748055671995" lon="10.83760277091165" id="-21395">
		<tag k="name" v="Flomyra" />
		<tag k="natural" v="wetland" />
		<tag k="ssr:stedsnr" v="314256" />
	</node>
	<node lat="62.40448610994464" lon="10.648991670118873" id="-21413">
		<tag k="name" v="Svartåsfloan" />
		<tag k="natural" v="wetland" />
		<tag k="ssr:stedsnr" v="315808" />
	</node>
	<node lat="62.43725278206134" lon="10.541930555843077" id="-21416">
		<tag k="alt_name" v="Magnilfloan" />
		<tag k="name" v="Magnillfloan" />
		<tag k="natural" v="wetland" />
		<tag k="ssr:stedsnr" v="315835" />
	</node>
	<node lat="62.275052774368994" lon="10.84992499480888" id="-21429">
		<tag k="alt_name" v="Kolvet" />
		<tag k="name" v="Kvolvet" />
		<tag k="place" v="locality" />
		<tag k="ssr:stedsnr" v="331879" />
	</node>
	<node lat="62.58182777675122" lon="10.272886106192272" id="-21432">
		<tag k="landuse" v="meadow" />
		<tag k="name" v="Rønningen" />
		<tag k="ssr:stedsnr" v="353025" />
	</node>
	<node lat="62.576291667692615" lon="10.336913898379645" id="-21434">
		<tag k="name" v="Dammyra" />
		<tag k="natural" v="wetland" />
		<tag k="ssr:stedsnr" v="353036" />
	</node>
	<node lat="62.49316388447855" lon="10.268397222863042" id="-21442">
		<tag k="name" v="Stormyra" />
		<tag k="natural" v="wetland" />
		<tag k="ssr:stedsnr" v="354079" />
	</node>
	<node lat="62.55931944618473" lon="10.35791665931463" id="-21447">
		<tag k="name" v="Brandeggmyra" />
		<tag k="natural" v="wetland" />
		<tag k="ssr:stedsnr" v="354197" />
	</node>
	<node lat="62.36396389227511" lon="10.626044444812136" id="-21463">
		<tag k="name" v="Starrenget" />
		<tag k="place" v="locality" />
		<tag k="ssr:stedsnr" v="355030" />
	</node>
	<node lat="62.41772778184816" lon="10.613413884624853" id="-21464">
		<tag k="name" v="Pikhaugenget" />
		<tag k="place" v="locality" />
		<tag k="ssr:stedsnr" v="355050" />
	</node>
	<node lat="62.10173611294645" lon="10.859602777296995" id="-21469">
		<tag k="name" v="Bærmyra" />
		<tag k="natural" v="wetland" />
		<tag k="ssr:stedsnr" v="355370" />
	</node>
	<node lat="62.266911109717505" lon="10.973355546135876" id="-21471">
		<tag k="name" v="Bekkekåsa" />
		<tag k="place" v="locality" />
		<tag k="ssr:stedsnr" v="355336" />
	</node>
	<node lat="62.14407222367419" lon="10.875672218364656" id="-21475">
		<tag k="name" v="Klingermyra" />
		<tag k="natural" v="wetland" />
		<tag k="ssr:stedsnr" v="355438" />
	</node>
	<node lat="62.275672220602196" lon="10.477588894967313" id="-21482">
		<tag k="name" v="Holman" />
		<tag k="place" v="locality" />
		<tag k="ssr:stedsnr" v="355466" />
	</node>
	<node lat="62.17839166971403" lon="10.81727777666737" id="-21488">
		<tag k="name" v="Ryan" />
		<tag k="natural" v="wetland" />
		<tag k="ssr:stedsnr" v="355835" />
	</node>
	<node lat="62.18645555306309" lon="10.833624994834171" id="-21491">
		<tag k="name" v="Stormyra" />
		<tag k="natural" v="wetland" />
		<tag k="ssr:stedsnr" v="355917" />
	</node>
	<node lat="62.285594447186156" lon="10.706169444747335" id="-21499">
		<tag k="name" v="Vinterveimyran" />
		<tag k="natural" v="wetland" />
		<tag k="ssr:stedsnr" v="356138" />
	</node>
	<node lat="62.23024721773739" lon="10.815288897842857" id="-21502">
		<tag k="name" v="Langmyra" />
		<tag k="natural" v="wetland" />
		<tag k="ssr:stedsnr" v="356946" />
	</node>
</osm>
