<?xml version="1.0" encoding="UTF-8"?>
<osm version="0.6" generator="osmapis">
	<node lat="62.11933610720993" lon="10.797186106938243" id="-27897">
		<tag k="name" v="Hokstadbakken" />
		<tag k="place" v="farm" />
		<tag k="ssr:stedsnr" v="10091" />
	</node>
	<node lat="62.195558336986196" lon="10.984819445752946" id="-27898">
		<tag k="name" v="Sletta" />
		<tag k="place" v="farm" />
		<tag k="ssr:stedsnr" v="10218" />
	</node>
	<node lat="62.26355833681678" lon="10.683855564826017" id="-27901">
		<tag k="name" v="Leitet" />
		<tag k="place" v="farm" />
		<tag k="ssr:stedsnr" v="11002" />
	</node>
	<node lat="62.10717778023057" lon="10.812322228190636" id="-27903">
		<tag k="name" v="Nytrøa" />
		<tag k="place" v="farm" />
		<tag k="ssr:stedsnr" v="11101" />
	</node>
	<node lat="62.10183055335012" lon="10.82398888749994" id="-27905">
		<tag k="alt_name" v="Vivoldeggen" />
		<tag k="name" v="Vivolleggjen" />
		<tag k="place" v="farm" />
		<tag k="ssr:stedsnr" v="11106" />
	</node>
	<node lat="62.178530556656824" lon="11.053419439407646" id="-27906">
		<tag k="alt_name" v="Bete" />
		<tag k="historic" v="shieling" />
		<tag k="name" v="Beitet" />
		<tag k="place" v="isolated_dwelling" />
		<tag k="ssr:stedsnr" v="11130" />
	</node>
	<node lat="62.60521944199437" lon="10.262350003055829" id="-27907">
		<tag k="alt_name" v="Frengstad, midtre;Frengstad mellom" />
		<tag k="name" v="Frendstadhaugen" />
		<tag k="place" v="farm" />
		<tag k="ssr:stedsnr" v="11081" />
	</node>
	<node lat="62.18638055538626" lon="11.154500000419446" id="-27908">
		<tag k="name" v="Ingiersvollen" />
		<tag k="place" v="isolated_dwelling" />
		<tag k="ssr:stedsnr" v="11228" />
	</node>
	<node lat="62.29377499945406" lon="10.827316675844253" id="-27909">
		<tag k="alt_name" v="Storstuegga" />
		<tag k="name" v="Øvre Åen" />
		<tag k="place" v="farm" />
		<tag k="ssr:stedsnr" v="11295" />
	</node>
	<node lat="62.226022218584404" lon="11.010183336656732" id="-27910">
		<tag k="alt_name" v="Bergesetra" />
		<tag k="historic" v="shieling" />
		<tag k="name" v="Bergesætra" />
		<tag k="place" v="isolated_dwelling" />
		<tag k="ssr:stedsnr" v="11177" />
	</node>
	<node lat="62.29210181332084" lon="10.697711402985028" id="-27915">
		<tag k="alt_name" v="Bondåsen" />
		<tag k="historic" v="shieling" />
		<tag k="name" v="Bondåsvangen" />
		<tag k="place" v="isolated_dwelling" />
		<tag k="ssr:stedsnr" v="11908" />
	</node>
	<node lat="62.26082499772737" lon="10.662763894525847" id="-27916">
		<tag k="name" v="Brutrøa" />
		<tag k="place" v="farm" />
		<tag k="ssr:stedsnr" v="12001" />
	</node>
	<node lat="62.355002781788734" lon="10.700783338295471" id="-27917">
		<tag k="alt_name" v="Bruskaret" />
		<tag k="historic" v="shieling" />
		<tag k="name" v="Bruskardet" />
		<tag k="place" v="isolated_dwelling" />
		<tag k="ssr:stedsnr" v="11991" />
	</node>
	<node lat="62.56349444227245" lon="10.32869721751918" id="-27921">
		<tag k="name" v="Rickardstuen" />
		<tag k="place" v="farm" />
		<tag k="ssr:stedsnr" v="232049" />
	</node>
	<node lat="62.3863688822069" lon="10.582499126194358" id="-27923">
		<tag k="name" v="Plassenget" />
		<tag k="place" v="locality" />
		<tag k="ssr:stedsnr" v="12768" />
	</node>
	<node lat="62.39767221921064" lon="10.45310277122202" id="-27924">
		<tag k="name" v="Myrhaug" />
		<tag k="place" v="farm" />
		<tag k="ssr:stedsnr" v="12777" />
	</node>
	<node lat="62.50851111446159" lon="10.369188894735705" id="-27930">
		<tag k="name" v="Øvre Storås" />
		<tag k="place" v="farm" />
		<tag k="ssr:stedsnr" v="232748" />
	</node>
	<node lat="62.29180000170411" lon="10.750966668329653" id="-27932">
		<tag k="name" v="Nygård" />
		<tag k="place" v="farm" />
		<tag k="ssr:stedsnr" v="233114" />
	</node>
	<node lat="62.194208334119516" lon="10.986408332300666" id="-27934">
		<tag k="name" v="Solli" />
		<tag k="place" v="isolated_dwelling" />
		<tag k="ssr:stedsnr" v="233142" />
	</node>
	<node lat="62.26564444825553" lon="10.682708334767847" id="-27938">
		<tag k="name" v="Hindalen" />
		<tag k="place" v="farm" />
		<tag k="ssr:stedsnr" v="233206" />
	</node>
	<node lat="62.08109444080276" lon="10.846805549134382" id="-27946">
		<tag k="name" v="Strømbu" />
		<tag k="place" v="farm" />
		<tag k="ssr:stedsnr" v="233417" />
	</node>
	<node lat="62.35107221963334" lon="10.559688895266783" id="-27958">
		<tag k="name" v="Steenget" />
		<tag k="place" v="isolated_dwelling" />
		<tag k="ssr:stedsnr" v="233865" />
	</node>
	<node lat="62.61545555241125" lon="10.267197214043465" id="-27962">
		<tag k="historic" v="shieling" />
		<tag k="name" v="Åsan" />
		<tag k="place" v="isolated_dwelling" />
		<tag k="ssr:stedsnr" v="233976" />
	</node>
	<node lat="62.18709166977736" lon="11.004683331827877" id="-27968">
		<tag k="name" v="Østli" />
		<tag k="place" v="farm" />
		<tag k="ssr:stedsnr" v="234126" />
	</node>
	<node lat="62.3338252951233" lon="10.866137197465195" id="-27971">
		<tag k="name" v="Sørstumoen" />
		<tag k="place" v="farm" />
		<tag k="ssr:stedsnr" v="234265" />
	</node>
	<node lat="62.21992777441797" lon="10.85120277369563" id="-27975">
		<tag k="historic" v="shieling" />
		<tag k="name" v="Aumlivangen" />
		<tag k="place" v="isolated_dwelling" />
		<tag k="ssr:stedsnr" v="234424" />
	</node>
	<node lat="62.216430557564344" lon="10.646194448461559" id="-27980">
		<tag k="name" v="Asgard" />
		<tag k="place" v="farm" />
		<tag k="ssr:stedsnr" v="234745" />
	</node>
	<node lat="62.57983333074998" lon="10.304511115085841" id="-27987">
		<tag k="name" v="Bjørgan" />
		<tag k="place" v="farm" />
		<tag k="ssr:stedsnr" v="50020" />
	</node>
	<node lat="62.57335833497371" lon="10.31189722710029" id="-27988">
		<tag k="name" v="Haugen" />
		<tag k="place" v="farm" />
		<tag k="ssr:stedsnr" v="50022" />
	</node>
	<node lat="62.25931389294983" lon="10.740905552093395" id="-27997">
		<tag k="name" v="Barstad" />
		<tag k="place" v="farm" />
		<tag k="ssr:stedsnr" v="52010" />
	</node>
	<node lat="62.278730559509185" lon="10.720155555851115" id="-27999">
		<tag k="name" v="Trøan" />
		<tag k="place" v="farm" />
		<tag k="ssr:stedsnr" v="52021" />
	</node>
	<node lat="62.29000833458172" lon="10.635605561890467" id="-28010">
		<tag k="name" v="Tune" />
		<tag k="place" v="farm" />
		<tag k="ssr:stedsnr" v="52122" />
	</node>
	<node lat="62.10376666827563" lon="10.81526111720908" id="-28020">
		<tag k="name" v="Negård" />
		<tag k="place" v="farm" />
		<tag k="ssr:stedsnr" v="52611" />
	</node>
	<node lat="62.347871144006476" lon="10.569552987198879" id="-28021">
		<tag k="fixme" v="consider place=hamlet" />
		<tag k="name" v="Søndre Kroken" />
		<tag k="place" v="farm" />
		<tag k="ssr:stedsnr" v="52816" />
	</node>
	<node lat="62.15782778214104" lon="10.780975009645724" id="-28029">
		<tag k="name" v="Dal" />
		<tag k="place" v="farm" />
		<tag k="ssr:stedsnr" v="53878" />
	</node>
	<node lat="62.14766389299532" lon="10.798769444082398" id="-28032">
		<tag k="name" v="Svarteggen" />
		<tag k="place" v="farm" />
		<tag k="ssr:stedsnr" v="53887" />
	</node>
	<node lat="62.31243055755038" lon="10.539974994606316" id="-28033">
		<tag k="name" v="Livangen" />
		<tag k="place" v="isolated_dwelling" />
		<tag k="ssr:stedsnr" v="57387" />
	</node>
	<node lat="62.050925001202685" lon="10.876438890191666" id="-28034">
		<tag k="alt_name" v="Hokstadvangen" />
		<tag k="historic" v="shieling" />
		<tag k="name" v="Hokstadvangan" />
		<tag k="place" v="isolated_dwelling" />
		<tag k="ssr:stedsnr" v="71003" />
	</node>
	<node lat="62.13633611303315" lon="10.796375008459385" id="-28035">
		<tag k="name" v="Eggjen" />
		<tag k="place" v="farm" />
		<tag k="ssr:stedsnr" v="71201" />
	</node>
	<node lat="62.132766671025934" lon="10.798177773422461" id="-28036">
		<tag k="name" v="Vollen" />
		<tag k="place" v="farm" />
		<tag k="ssr:stedsnr" v="71202" />
	</node>
	<node lat="62.1143583296243" lon="10.806808335423371" id="-28037">
		<tag k="alt_name" v="Kvernenget" />
		<tag k="name" v="Kvernmoen" />
		<tag k="place" v="farm" />
		<tag k="ssr:stedsnr" v="71069" />
	</node>
	<node lat="62.11693888893537" lon="10.800244452593926" id="-28039">
		<tag k="name" v="Åkre" />
		<tag k="place" v="farm" />
		<tag k="ssr:stedsnr" v="71074" />
	</node>
	<node lat="62.18196389196706" lon="11.00621111660996" id="-28040">
		<tag k="name" v="Grinddalen" />
		<tag k="place" v="farm" />
		<tag k="ssr:stedsnr" v="71170" />
	</node>
	<node lat="62.187386112839214" lon="11.005897214074498" id="-28041">
		<tag k="name" v="Tangen" />
		<tag k="place" v="farm" />
		<tag k="ssr:stedsnr" v="71172" />
	</node>
	<node lat="62.174325000920774" lon="10.809152769162875" id="-28042">
		<tag k="historic" v="shieling" />
		<tag k="name" v="Eliavangen" />
		<tag k="place" v="isolated_dwelling" />
		<tag k="ssr:stedsnr" v="71173" />
	</node>
	<node lat="62.13470000365694" lon="10.991044439270338" id="-28043">
		<tag k="name" v="Velta" />
		<tag k="place" v="isolated_dwelling" />
		<tag k="ssr:stedsnr" v="71190" />
	</node>
	<node lat="62.54463333005966" lon="10.422533332990529" id="-28045">
		<tag k="historic" v="shieling" />
		<tag k="name" v="Koian" />
		<tag k="place" v="isolated_dwelling" />
		<tag k="ssr:stedsnr" v="72066" />
	</node>
	<node lat="62.57445278068128" lon="10.358100000820105" id="-28047">
		<tag k="alt_name" v="Litlenget" />
		<tag k="historic" v="shieling" />
		<tag k="name" v="Litlløenget" />
		<tag k="place" v="isolated_dwelling" />
		<tag k="ssr:stedsnr" v="72077" />
	</node>
	<node lat="62.22879722052518" lon="10.644938897566528" id="-28048">
		<tag k="alt_name" v="Strømsengbakken" />
		<tag k="name" v="Straumsengbakken" />
		<tag k="place" v="farm" />
		<tag k="ssr:stedsnr" v="72081" />
	</node>
	<node lat="62.57218611460926" lon="10.337822220605975" id="-28049">
		<tag k="name" v="Oppheim" />
		<tag k="place" v="farm" />
		<tag k="ssr:stedsnr" v="72086" />
	</node>
	<node lat="62.35747222447122" lon="10.754588885177766" id="-28051">
		<tag k="alt_name" v="Åsvangen;Åsvangene" />
		<tag k="historic" v="shieling" />
		<tag k="name" v="Åsvangan" />
		<tag k="place" v="isolated_dwelling" />
		<tag k="ssr:stedsnr" v="72205" />
	</node>
	<node lat="62.35197778224662" lon="10.725191658780572" id="-28052">
		<tag k="alt_name" v="Langsætrane" />
		<tag k="name" v="Langsætran" />
		<tag k="place" v="hamlet" />
		<tag k="ssr:stedsnr" v="72208" />
	</node>
	<node lat="62.35146110977711" lon="10.776225005591908" id="-28053">
		<tag k="alt_name" v="Milskiftevangen;Øvre Milskiftet" />
		<tag k="historic" v="shieling" />
		<tag k="name" v="Milskiftvangan" />
		<tag k="place" v="isolated_dwelling" />
		<tag k="ssr:stedsnr" v="72219" />
	</node>
	<node lat="62.14966666690681" lon="10.768144444391243" id="-28056">
		<tag k="historic" v="shieling" />
		<tag k="name" v="Livangen" />
		<tag k="place" v="isolated_dwelling" />
		<tag k="ssr:stedsnr" v="72176" />
	</node>
	<node lat="62.26296666629495" lon="10.730513887986653" id="-28057">
		<tag k="name" v="Barmoen" />
		<tag k="place" v="farm" />
		<tag k="ssr:stedsnr" v="72327" />
	</node>
	<node lat="62.49256944804704" lon="10.225283333278025" id="-28060">
		<tag k="alt_name" v="Dølvadsætra, nedre" />
		<tag k="historic" v="shieling" />
		<tag k="name" v="Nedre Dølvad" />
		<tag k="place" v="isolated_dwelling" />
		<tag k="ssr:stedsnr" v="72627" />
	</node>
	<node lat="62.408060889590026" lon="10.195592402138528" id="-28061">
		<tag k="alt_name" v="Låggiasætran" />
		<tag k="historic" v="shieling" />
		<tag k="name" v="Låg-Gisætran" />
		<tag k="place" v="isolated_dwelling" />
		<tag k="ssr:stedsnr" v="72715" />
	</node>
	<node lat="62.43523342880636" lon="10.40238389063779" id="-28064">
		<tag k="fixme" v="consider place=hamlet" />
		<tag k="name" v="Bubakken" />
		<tag k="place" v="farm" />
		<tag k="ssr:stedsnr" v="72814" />
	</node>
	<node lat="62.261072224901206" lon="10.652494437473123" id="-28067">
		<tag k="name" v="Nymoen" />
		<tag k="place" v="farm" />
		<tag k="ssr:stedsnr" v="73005" />
	</node>
	<node lat="62.25629444651583" lon="10.594613898093932" id="-28068">
		<tag k="fixme" v="multiple name tags, choose one and add the other to alt_name" />
		<tag k="historic" v="shieling" />
		<tag k="name" v="Veslsætra;Nyrøsthaugvangen" />
		<tag k="place" v="isolated_dwelling" />
		<tag k="ssr:stedsnr" v="73008" />
	</node>
	<node lat="62.34084454233127" lon="10.657563835469668" id="-28069">
		<tag k="historic" v="shieling" />
		<tag k="name" v="Langsætran" />
		<tag k="place" v="isolated_dwelling" />
		<tag k="ssr:stedsnr" v="72964" />
	</node>
	<node lat="62.28818610832657" lon="10.747319437055246" id="-28078">
		<tag k="name" v="Østre Motrøa" />
		<tag k="place" v="farm" />
		<tag k="ssr:stedsnr" v="112126" />
	</node>
	<node lat="62.268963890644905" lon="10.758355546137963" id="-28079">
		<tag k="name" v="Solvang" />
		<tag k="place" v="farm" />
		<tag k="ssr:stedsnr" v="112002" />
	</node>
	<node lat="62.36257431857534" lon="10.628723215609366" id="-28080">
		<tag k="fixme" v="consider place=hamlet" />
		<tag k="name" v="Vestre Midteng" />
		<tag k="place" v="farm" />
		<tag k="ssr:stedsnr" v="112032" />
	</node>
	<node lat="62.2655169095486" lon="10.667786596532496" id="-28083">
		<tag k="fixme" v="consider place=hamlet" />
		<tag k="name" v="Dalstrøen" />
		<tag k="place" v="farm" />
		<tag k="ssr:stedsnr" v="112222" />
	</node>
	<node lat="62.327502782082874" lon="10.867447215306186" id="-28085">
		<tag k="name" v="Øygarden" />
		<tag k="place" v="farm" />
		<tag k="ssr:stedsnr" v="112337" />
	</node>
	<node lat="62.230613886726246" lon="10.64315833839868" id="-28088">
		<tag k="name" v="Helgerud" />
		<tag k="place" v="farm" />
		<tag k="ssr:stedsnr" v="112780" />
	</node>
	<node lat="62.20929999737738" lon="10.72991943691854" id="-28094">
		<tag k="historic" v="shieling" />
		<tag k="name" v="Røsteggvangen" />
		<tag k="place" v="isolated_dwelling" />
		<tag k="ssr:stedsnr" v="112891" />
	</node>
	<node lat="62.430176121755316" lon="10.423727189389677" id="-28096">
		<tag k="name" v="Motrøa" />
		<tag k="old_name" v="Hyttetomt" />
		<tag k="place" v="farm" />
		<tag k="ssr:stedsnr" v="112973" />
	</node>
	<node lat="62.29469166668153" lon="10.325152785118583" id="-28098">
		<tag k="historic" v="shieling" />
		<tag k="name" v="Rødalsætran" />
		<tag k="place" v="isolated_dwelling" />
		<tag k="ssr:stedsnr" v="113108" />
	</node>
	<node lat="62.21708889041595" lon="10.853211107714735" id="-28104">
		<tag k="historic" v="shieling" />
		<tag k="name" v="Kvernstøvangen" />
		<tag k="place" v="isolated_dwelling" />
		<tag k="ssr:stedsnr" v="113406" />
	</node>
	<node lat="62.22362222213133" lon="10.954788894001497" id="-28105">
		<tag k="historic" v="shieling" />
		<tag k="name" v="Knøsvangan" />
		<tag k="place" v="isolated_dwelling" />
		<tag k="ssr:stedsnr" v="113409" />
	</node>
	<node lat="62.22006388696887" lon="10.615927772983788" id="-28106">
		<tag k="name" v="Bua" />
		<tag k="place" v="farm" />
		<tag k="ssr:stedsnr" v="113721" />
	</node>
	<node lat="62.20912777632661" lon="10.733186106689038" id="-28110">
		<tag k="alt_name" v="Trondsvangan" />
		<tag k="name" v="Tronsvangan" />
		<tag k="old_name" v="Trondsjøvangan" />
		<tag k="place" v="hamlet" />
		<tag k="ssr:stedsnr" v="131186" />
	</node>
	<node lat="62.21735000358991" lon="10.721983341265098" id="-28111">
		<tag k="historic" v="shieling" />
		<tag k="name" v="Veslvangan" />
		<tag k="place" v="isolated_dwelling" />
		<tag k="ssr:stedsnr" v="131188" />
	</node>
	<node lat="62.12376667096222" lon="10.876438882445408" id="-28112">
		<tag k="alt_name" v="Rivlia, s" />
		<tag k="historic" v="shieling" />
		<tag k="name" v="Søndre Rivlia" />
		<tag k="place" v="isolated_dwelling" />
		<tag k="ssr:stedsnr" v="131084" />
	</node>
	<node lat="62.12316388516564" lon="10.804611106642145" id="-28114">
		<tag k="name" v="Kvernegga" />
		<tag k="place" v="farm" />
		<tag k="ssr:stedsnr" v="131089" />
	</node>
	<node lat="62.207425002827" lon="10.774949992793333" id="-28116">
		<tag k="alt_name" v="Trondsjø" />
		<tag k="name" v="Tronsjø" />
		<tag k="place" v="farm" />
		<tag k="ssr:stedsnr" v="131221" />
	</node>
	<node lat="62.172275001893055" lon="10.82147500545272" id="-28117">
		<tag k="historic" v="shieling" />
		<tag k="name" v="Småvangan" />
		<tag k="place" v="isolated_dwelling" />
		<tag k="ssr:stedsnr" v="132112" />
	</node>
	<node lat="62.28614166558796" lon="10.787411101760288" id="-28121">
		<tag k="alt_name" v="Leirjordet;Lerjordet" />
		<tag k="name" v="Steen" />
		<tag k="place" v="farm" />
		<tag k="ssr:stedsnr" v="132273" />
	</node>
	<node lat="62.368649997531335" lon="10.632975004863015" id="-28123">
		<tag k="alt_name" v="Strømsenget" />
		<tag k="name" v="Straumsenget" />
		<tag k="place" v="farm" />
		<tag k="ssr:stedsnr" v="132751" />
	</node>
	<node lat="62.34882412321714" lon="10.687863373535741" id="-28125">
		<tag k="fixme" v="consider place=hamlet" />
		<tag k="name" v="Berget" />
		<tag k="place" v="farm" />
		<tag k="ssr:stedsnr" v="132981" />
	</node>
	<node lat="62.540527781361575" lon="10.360869440993099" id="-28126">
		<tag k="fixme" v="multiple name tags, choose one and add the other to alt_name" />
		<tag k="name" v="Olkar;Grøtliplassen" />
		<tag k="place" v="farm" />
		<tag k="ssr:stedsnr" v="133064" />
	</node>
	<node lat="62.278533333168276" lon="10.724719440242891" id="-28127">
		<tag k="name" v="Tuvengtrøa" />
		<tag k="place" v="farm" />
		<tag k="ssr:stedsnr" v="133257" />
	</node>
	<node lat="62.28632777507134" lon="10.96770277172631" id="-28128">
		<tag k="alt_name" v="Kløftvangen" />
		<tag k="historic" v="shieling" />
		<tag k="name" v="Kløftvangan" />
		<tag k="place" v="isolated_dwelling" />
		<tag k="ssr:stedsnr" v="133258" />
	</node>
	<node lat="62.41277002855377" lon="10.419320257544994" id="-28130">
		<tag k="fixme" v="consider place=hamlet" />
		<tag k="name" v="Tørresvangen" />
		<tag k="place" v="farm" />
		<tag k="ssr:stedsnr" v="133815" />
	</node>
	<node lat="62.38410833449414" lon="10.494238894028644" id="-28131">
		<tag k="name" v="Sletto" />
		<tag k="place" v="farm" />
		<tag k="ssr:stedsnr" v="133776" />
	</node>
	<node lat="62.08572778045501" lon="10.830172214654773" id="-28136">
		<tag k="name" v="Bestun" />
		<tag k="place" v="farm" />
		<tag k="ssr:stedsnr" v="253095" />
	</node>
	<node lat="62.09210833180468" lon="10.830483338722322" id="-28137">
		<tag k="name" v="Rønningstad" />
		<tag k="place" v="farm" />
		<tag k="ssr:stedsnr" v="253096" />
	</node>
	<node lat="62.10301388609789" lon="10.827380562735899" id="-28140">
		<tag k="name" v="Sørli" />
		<tag k="place" v="farm" />
		<tag k="ssr:stedsnr" v="253143" />
	</node>
	<node lat="62.1746388869479" lon="10.951752779544757" id="-28142">
		<tag k="alt_name" v="Søgårdsvanga" />
		<tag k="historic" v="shieling" />
		<tag k="name" v="Søgardsvangan" />
		<tag k="place" v="isolated_dwelling" />
		<tag k="ssr:stedsnr" v="253180" />
	</node>
	<node lat="62.19750000315322" lon="10.815291660908478" id="-28145">
		<tag k="alt_name" v="Langsætra, nordre" />
		<tag k="historic" v="shieling" />
		<tag k="name" v="Nordre Langsætra" />
		<tag k="place" v="isolated_dwelling" />
		<tag k="ssr:stedsnr" v="253280" />
	</node>
	<node lat="62.201236107135735" lon="10.957430556663224" id="-28147">
		<tag k="historic" v="shieling" />
		<tag k="name" v="Østerlia" />
		<tag k="place" v="isolated_dwelling" />
		<tag k="ssr:stedsnr" v="253286" />
	</node>
	<node lat="62.24453888987733" lon="10.597161102705444" id="-28148">
		<tag k="historic" v="shieling" />
		<tag k="name" v="Røskåsen" />
		<tag k="place" v="isolated_dwelling" />
		<tag k="ssr:stedsnr" v="253475" />
	</node>
	<node lat="62.2672500005822" lon="10.800152780028668" id="-28149">
		<tag k="name" v="Grønvoll" />
		<tag k="place" v="farm" />
		<tag k="ssr:stedsnr" v="254311" />
	</node>
	<node lat="62.50614448910213" lon="10.368612378914305" id="-28150">
		<tag k="alt_name" v="Jordet" />
		<tag k="fixme" v="consider place=hamlet" />
		<tag k="name" v="Storåsen" />
		<tag k="place" v="farm" />
		<tag k="ssr:stedsnr" v="254032" />
	</node>
	<node lat="62.60875278111806" lon="10.259391660099643" id="-28155">
		<tag k="name" v="Langsletta" />
		<tag k="place" v="farm" />
		<tag k="ssr:stedsnr" v="254077" />
	</node>
	<node lat="62.57074999837464" lon="10.391555564070167" id="-28163">
		<tag k="historic" v="shieling" />
		<tag k="name" v="Storvangen" />
		<tag k="place" v="isolated_dwelling" />
		<tag k="ssr:stedsnr" v="254064" />
	</node>
	<node lat="62.3939519826801" lon="10.729495374049579" id="-28164">
		<tag k="fixme" v="multiple name tags, choose one and add the other to alt_name" />
		<tag k="historic" v="shieling" />
		<tag k="name" v="Kvannmyrvollen;Motunvollen" />
		<tag k="place" v="isolated_dwelling" />
		<tag k="ssr:stedsnr" v="254142" />
	</node>
	<node lat="62.31066110732222" lon="10.943361110443833" id="-28166">
		<tag k="alt_name" v="Toljerøstvangen" />
		<tag k="name" v="Tolgerøstvangen" />
		<tag k="place" v="isolated_dwelling" />
		<tag k="ssr:stedsnr" v="254237" />
	</node>
	<node lat="62.311363886492714" lon="10.737852774990117" id="-28167">
		<tag k="name" v="Granheim" />
		<tag k="place" v="farm" />
		<tag k="ssr:stedsnr" v="254245" />
	</node>
	<node lat="62.64216388808761" lon="10.209858334808628" id="-28171">
		<tag k="name" v="Bakken" />
		<tag k="place" v="farm" />
		<tag k="ssr:stedsnr" v="254443" />
	</node>
	<node lat="62.380533334037956" lon="10.497130562046186" id="-28175">
		<tag k="name" v="Bekkholt" />
		<tag k="place" v="isolated_dwelling" />
		<tag k="ssr:stedsnr" v="254752" />
	</node>
	<node lat="62.411725003733764" lon="10.397738895898685" id="-28177">
		<tag k="name" v="Smedplassen" />
		<tag k="place" v="isolated_dwelling" />
		<tag k="ssr:stedsnr" v="254775" />
	</node>
	<node lat="62.41558332940203" lon="10.63758056238563" id="-28178">
		<tag k="historic" v="shieling" />
		<tag k="name" v="Gjerkroken" />
		<tag k="place" v="isolated_dwelling" />
		<tag k="ssr:stedsnr" v="254782" />
	</node>
	<node lat="62.39831666812581" lon="10.404291663549296" id="-28182">
		<tag k="name" v="Røstvangen" />
		<tag k="place" v="isolated_dwelling" />
		<tag k="ssr:stedsnr" v="254762" />
	</node>
	<node lat="62.28790277835349" lon="10.654416669349649" id="-28184">
		<tag k="alt_name" v="Brenna" />
		<tag k="name" v="Brennvangen" />
		<tag k="place" v="farm" />
		<tag k="ssr:stedsnr" v="254893" />
	</node>
	<node lat="62.341240126112375" lon="10.652895258411858" id="-28189">
		<tag k="alt_name" v="Moanlangsætrene" />
		<tag k="historic" v="shieling" />
		<tag k="name" v="Moanlangsætra" />
		<tag k="place" v="isolated_dwelling" />
		<tag k="ssr:stedsnr" v="254963" />
	</node>
	<node lat="62.37227500406238" lon="10.661222214634419" id="-28190">
		<tag k="alt_name" v="Eggevangen" />
		<tag k="name" v="Eggvangen" />
		<tag k="place" v="farm" />
		<tag k="ssr:stedsnr" v="254991" />
	</node>
	<node lat="62.554769445943556" lon="10.456488892226655" id="-28197">
		<tag k="historic" v="shieling" />
		<tag k="name" v="Prestlien" />
		<tag k="place" v="isolated_dwelling" />
		<tag k="ssr:stedsnr" v="172209" />
	</node>
	<node lat="62.32916111473451" lon="10.849802786115688" id="-28201">
		<tag k="name" v="Haugsvangen" />
		<tag k="place" v="farm" />
		<tag k="ssr:stedsnr" v="172318" />
	</node>
	<node lat="62.638768978342576" lon="10.219672066825183" id="-28209">
		<tag k="fixme" v="consider place=hamlet" />
		<tag k="name" v="Ryen" />
		<tag k="place" v="farm" />
		<tag k="ssr:stedsnr" v="172905" />
	</node>
	<node lat="62.612675000924206" lon="10.259622224477496" id="-28214">
		<tag k="amenity" v="nursing_home" />
		<tag k="name" v="Kikne aldersheim" />
		<tag k="ssr:stedsnr" v="172971" />
	</node>
	<node lat="62.340716668274816" lon="10.657213886322754" id="-28216">
		<tag k="historic" v="shieling" />
		<tag k="name" v="Lilleeggvangen" />
		<tag k="place" v="isolated_dwelling" />
		<tag k="ssr:stedsnr" v="173065" />
	</node>
	<node lat="62.305898225226116" lon="10.605573324972323" id="-28218">
		<tag k="fixme" v="consider place=hamlet" />
		<tag k="name" v="Smedhaugen" />
		<tag k="place" v="farm" />
		<tag k="ssr:stedsnr" v="173162" />
	</node>
	<node lat="62.10202500282463" lon="10.816538896802694" id="-28221">
		<tag k="name" v="Nyhus" />
		<tag k="place" v="isolated_dwelling" />
		<tag k="ssr:stedsnr" v="173604" />
	</node>
	<node lat="62.227161113371885" lon="10.798319435782497" id="-28229">
		<tag k="historic" v="shieling" />
		<tag k="name" v="Stevangen" />
		<tag k="place" v="isolated_dwelling" />
		<tag k="ssr:stedsnr" v="174961" />
	</node>
	<node lat="62.26986666910116" lon="10.791358331003583" id="-28233">
		<tag k="fixme" v="multiple name tags, choose one and add the other to alt_name" />
		<tag k="name" v="Solbakken;Jørgensmoen" />
		<tag k="place" v="isolated_dwelling" />
		<tag k="ssr:stedsnr" v="210890" />
	</node>
	<node lat="62.494283336271266" lon="10.385013884290887" id="-28238">
		<tag k="name" v="Søndrestøa" />
		<tag k="place" v="farm" />
		<tag k="ssr:stedsnr" v="232742" />
	</node>
	<node lat="62.29806667091508" lon="10.743802784577872" id="-28242">
		<tag k="name" v="Nygårdshaugen" />
		<tag k="place" v="farm" />
		<tag k="ssr:stedsnr" v="233104" />
	</node>
	<node lat="62.30414999748566" lon="10.720133338052932" id="-28244">
		<tag k="name" v="Gjelten" />
		<tag k="place" v="farm" />
		<tag k="ssr:stedsnr" v="233108" />
	</node>
	<node lat="62.6515333375689" lon="10.20554166960565" id="-28256">
		<tag k="name" v="Hofstadhytta" />
		<tag k="place" v="isolated_dwelling" />
		<tag k="ssr:stedsnr" v="233901" />
	</node>
	<node lat="62.2590083317143" lon="10.736941660747554" id="-28257">
		<tag k="name" v="Bredli" />
		<tag k="place" v="farm" />
		<tag k="ssr:stedsnr" v="234010" />
	</node>
	<node lat="62.283919446305696" lon="10.762227778679904" id="-28258">
		<tag k="name" v="Åkrann" />
		<tag k="place" v="farm" />
		<tag k="ssr:stedsnr" v="234023" />
	</node>
	<node lat="62.2835555565577" lon="10.755099994001705" id="-28259">
		<tag k="name" v="Bortistuen" />
		<tag k="place" v="isolated_dwelling" />
		<tag k="ssr:stedsnr" v="234024" />
	</node>
	<node lat="62.086555556861704" lon="10.828722231599684" id="-28269">
		<tag k="name" v="Skogstad" />
		<tag k="place" v="farm" />
		<tag k="ssr:stedsnr" v="253102" />
	</node>
	<node lat="62.13186388483769" lon="10.808141659550923" id="-28274">
		<tag k="alt_name" v="Grindalen" />
		<tag k="name" v="Grinddalen" />
		<tag k="place" v="farm" />
		<tag k="ssr:stedsnr" v="253207" />
	</node>
	<node lat="62.14694444885377" lon="10.789786105227225" id="-28275">
		<tag k="name" v="Åsen" />
		<tag k="place" v="farm" />
		<tag k="ssr:stedsnr" v="253215" />
	</node>
	<node lat="62.258133333183196" lon="10.657150000562833" id="-28277">
		<tag k="name" v="Sagbakken" />
		<tag k="place" v="farm" />
		<tag k="ssr:stedsnr" v="254003" />
	</node>
	<node lat="62.22683889092343" lon="10.799502783041287" id="-28278">
		<tag k="historic" v="shieling" />
		<tag k="name" v="Hemstadvangan" />
		<tag k="place" v="isolated_dwelling" />
		<tag k="ssr:stedsnr" v="254171" />
	</node>
	<node lat="62.30646666263033" lon="10.845894445797756" id="-28282">
		<tag k="name" v="Bakken" />
		<tag k="place" v="farm" />
		<tag k="ssr:stedsnr" v="254226" />
	</node>
	<node lat="62.67457691729039" lon="10.150768096389411" id="-28283">
		<tag k="alt_name" v="Ulvvassbekken, s;Ulvassbekken, søndre" />
		<tag k="name" v="Søndre Ølvassbekken" />
		<tag k="place" v="farm" />
		<tag k="ssr:stedsnr" v="254227" />
	</node>
	<node lat="62.29790443000729" lon="10.843997620907384" id="-28284">
		<tag k="alt_name" v="Vangen øvre" />
		<tag k="fixme" v="consider place=hamlet" />
		<tag k="name" v="Vangen" />
		<tag k="place" v="farm" />
		<tag k="ssr:stedsnr" v="254228" />
	</node>
	<node lat="62.290046841593494" lon="10.739173585411981" id="-28287">
		<tag k="name" v="Linjordet" />
		<tag k="place" v="farm" />
		<tag k="ssr:stedsnr" v="254280" />
	</node>
	<node lat="62.290743581836026" lon="10.794099882080591" id="-28289">
		<tag k="name" v="Slåttåsen" />
		<tag k="place" v="locality" />
		<tag k="ssr:stedsnr" v="254289" />
	</node>
	<node lat="62.41128055619368" lon="10.59819166984884" id="-28293">
		<tag k="alt_name" v="Karlsmovangen" />
		<tag k="historic" v="shieling" />
		<tag k="name" v="Karlsvangen" />
		<tag k="place" v="isolated_dwelling" />
		<tag k="ssr:stedsnr" v="254807" />
	</node>
	<node lat="62.32055833735479" lon="10.48409167566987" id="-28301">
		<tag k="historic" v="shieling" />
		<tag k="name" v="Dalsvangen" />
		<tag k="place" v="isolated_dwelling" />
		<tag k="ssr:stedsnr" v="254928" />
	</node>
	<node lat="62.320909945692" lon="10.615636444559449" id="-28302">
		<tag k="alt_name" v="Klettvang" />
		<tag k="fixme" v="consider place=hamlet" />
		<tag k="name" v="Klettvangan" />
		<tag k="place" v="farm" />
		<tag k="ssr:stedsnr" v="254935" />
	</node>
	<node lat="62.18680277860878" lon="10.990147216545507" id="-28306">
		<tag k="fixme" v="consider place=hamlet" />
		<tag k="name" v="Brydalen" />
		<tag k="old_name" v="Brydal" />
		<tag k="place" v="village" />
		<tag k="ssr:stedsnr" v="267084" />
	</node>
	<node lat="62.5700184871989" lon="10.315582786506594" id="-28308">
		<tag k="fixme" v="consider place=hamlet" />
		<tag k="name" v="Brattbost" />
		<tag k="place" v="farm" />
		<tag k="ssr:stedsnr" v="271573" />
	</node>
	<node lat="62.37811110733096" lon="10.6512777694534" id="-28314">
		<tag k="name" v="Veslestue" />
		<tag k="place" v="farm" />
		<tag k="ssr:stedsnr" v="294023" />
	</node>
	<node lat="62.285344448040306" lon="10.769050000803524" id="-28315">
		<tag k="name" v="Haugen" />
		<tag k="place" v="farm" />
		<tag k="ssr:stedsnr" v="294024" />
	</node>
	<node lat="62.268866669613104" lon="10.748863881058437" id="-28317">
		<tag k="name" v="Kvernstøen" />
		<tag k="place" v="isolated_dwelling" />
		<tag k="ssr:stedsnr" v="294029" />
	</node>
	<node lat="62.31109444540328" lon="10.730161104640413" id="-28319">
		<tag k="name" v="Granenggjelten" />
		<tag k="place" v="farm" />
		<tag k="ssr:stedsnr" v="294107" />
	</node>
	<node lat="62.19247777936964" lon="10.984875002192618" id="-28321">
		<tag k="name" v="Skogly" />
		<tag k="place" v="isolated_dwelling" />
		<tag k="ssr:stedsnr" v="294111" />
	</node>
	<node lat="62.18636388839431" lon="10.99641943529189" id="-28322">
		<tag k="name" v="Midtvang" />
		<tag k="place" v="farm" />
		<tag k="ssr:stedsnr" v="294114" />
	</node>
	<node lat="62.290286109882544" lon="10.462016664099211" id="-28327">
		<tag k="historic" v="shieling" />
		<tag k="name" v="Nøstersletta" />
		<tag k="place" v="isolated_dwelling" />
		<tag k="ssr:stedsnr" v="294802" />
	</node>
	<node lat="62.2106444411129" lon="10.874033338492588" id="-28346">
		<tag k="historic" v="shieling" />
		<tag k="name" v="Arnemovangen" />
		<tag k="place" v="isolated_dwelling" />
		<tag k="ssr:stedsnr" v="295506" />
	</node>
	<node lat="62.11499630883687" lon="10.818536682609206" id="-28348">
		<tag k="fixme" v="consider place=hamlet" />
		<tag k="name" v="Reiten" />
		<tag k="place" v="farm" />
		<tag k="ssr:stedsnr" v="314074" />
	</node>
	<node lat="62.114911107857566" lon="10.80127777943163" id="-28349">
		<tag k="name" v="Haug" />
		<tag k="place" v="farm" />
		<tag k="ssr:stedsnr" v="314076" />
	</node>
	<node lat="62.223613887022296" lon="10.6470166623283" id="-28350">
		<tag k="name" v="Tronsbu" />
		<tag k="place" v="farm" />
		<tag k="ssr:stedsnr" v="314081" />
	</node>
	<node lat="62.217049999119965" lon="10.860527772867988" id="-28352">
		<tag k="historic" v="shieling" />
		<tag k="name" v="Aumlivangan" />
		<tag k="old_name" v="Aunlivangan" />
		<tag k="place" v="isolated_dwelling" />
		<tag k="ssr:stedsnr" v="314223" />
	</node>
	<node lat="62.34304444668792" lon="10.818066667215776" id="-28353">
		<tag k="historic" v="shieling" />
		<tag k="name" v="Sagbakkvangen" />
		<tag k="place" v="isolated_dwelling" />
		<tag k="ssr:stedsnr" v="314260" />
	</node>
	<node lat="62.187766669579375" lon="10.922874993682955" id="-28357">
		<tag k="historic" v="shieling" />
		<tag k="name" v="Framistuvangen" />
		<tag k="place" v="isolated_dwelling" />
		<tag k="ssr:stedsnr" v="314158" />
	</node>
	<node lat="62.26111111072698" lon="10.654458324167502" id="-28360">
		<tag k="name" v="Øya" />
		<tag k="place" v="farm" />
		<tag k="ssr:stedsnr" v="315005" />
	</node>
	<node lat="62.26479295565923" lon="10.741113438786199" id="-28361">
		<tag k="name" v="Skoglund" />
		<tag k="place" v="farm" />
		<tag k="ssr:stedsnr" v="315303" />
	</node>
	<node lat="62.272294440376264" lon="10.790269445159144" id="-28362">
		<tag k="name" v="Solheim" />
		<tag k="place" v="isolated_dwelling" />
		<tag k="ssr:stedsnr" v="315305" />
	</node>
	<node lat="62.26905552260239" lon="10.784081425140236" id="-28363">
		<tag k="alt_name" v="Arnemoen" />
		<tag k="fixme" v="multiple name tags, choose one and add the other to alt_name; consider place=hamlet" />
		<tag k="name" v="Ångarden;Arnemo" />
		<tag k="place" v="farm" />
		<tag k="ssr:stedsnr" v="315307" />
	</node>
	<node lat="62.5498888868117" lon="10.334963894160314" id="-28365">
		<tag k="alt_name" v="Førtuna" />
		<tag k="name" v="Fortuna" />
		<tag k="place" v="farm" />
		<tag k="ssr:stedsnr" v="315059" />
	</node>
	<node lat="62.32891388873353" lon="10.854952770194016" id="-28366">
		<tag k="name" v="Øymoen" />
		<tag k="place" v="farm" />
		<tag k="ssr:stedsnr" v="315222" />
	</node>
	<node lat="62.27690744036356" lon="10.81119029089519" id="-28367">
		<tag k="alt_name" v="Hugudal" />
		<tag k="fixme" v="consider place=hamlet" />
		<tag k="name" v="Hugudalen" />
		<tag k="place" v="farm" />
		<tag k="ssr:stedsnr" v="315271" />
	</node>
	<node lat="62.48388889171776" lon="10.397599991735543" id="-28370">
		<tag k="name" v="Haugen" />
		<tag k="place" v="farm" />
		<tag k="ssr:stedsnr" v="315635" />
	</node>
	<node lat="62.57641943994581" lon="10.300008342671234" id="-28380">
		<tag k="name" v="Bjørgli" />
		<tag k="place" v="farm" />
		<tag k="ssr:stedsnr" v="353019" />
	</node>
	<node lat="62.57206666353687" lon="10.412630553338168" id="-28383">
		<tag k="historic" v="shieling" />
		<tag k="name" v="Estensgardsvangen" />
		<tag k="place" v="isolated_dwelling" />
		<tag k="ssr:stedsnr" v="354203" />
	</node>
	<node lat="62.558483334437405" lon="10.42136388644348" id="-28384">
		<tag k="name" v="Nordre Odden" />
		<tag k="place" v="locality" />
		<tag k="ssr:stedsnr" v="354212" />
	</node>
	<node lat="62.287850002307124" lon="10.842711108689807" id="-28385">
		<tag k="name" v="Snarvoll" />
		<tag k="place" v="farm" />
		<tag k="ssr:stedsnr" v="354314" />
	</node>
	<node lat="62.280847226243814" lon="10.719730552437621" id="-28391">
		<tag k="name" v="Tuvengmoen" />
		<tag k="place" v="farm" />
		<tag k="ssr:stedsnr" v="355019" />
	</node>
	<node lat="62.26678888518238" lon="10.769502782647516" id="-28397">
		<tag k="name" v="Evensmotrøa" />
		<tag k="place" v="isolated_dwelling" />
		<tag k="ssr:stedsnr" v="355001" />
	</node>
	<node lat="62.465936112423584" lon="10.543427781808349" id="-28401">
		<tag k="name" v="Storengbua" />
		<tag k="place" v="isolated_dwelling" />
		<tag k="ssr:stedsnr" v="355320" />
	</node>
	<node lat="62.460600000957285" lon="10.560199992697092" id="-28402">
		<tag k="name" v="Åenbua" />
		<tag k="place" v="isolated_dwelling" />
		<tag k="ssr:stedsnr" v="355321" />
	</node>
	<node lat="62.217986113970404" lon="10.650305549519727" id="-28404">
		<tag k="name" v="Ødegård" />
		<tag k="place" v="farm" />
		<tag k="ssr:stedsnr" v="355706" />
	</node>
	<node lat="62.22094444277528" lon="10.595402782721077" id="-28405">
		<tag k="name" v="Strømsåsgrenda" />
		<tag k="place" v="hamlet" />
		<tag k="ssr:stedsnr" v="355708" />
	</node>
	<node lat="62.56739999760651" lon="10.412502776267209" id="-28415">
		<tag k="historic" v="shieling" />
		<tag k="name" v="Rikhardvangen" />
		<tag k="place" v="isolated_dwelling" />
		<tag k="ssr:stedsnr" v="475203" />
	</node>
	<node lat="62.296211112468825" lon="10.833686112215693" id="-28421">
		<tag k="name" v="Storstuenget" />
		<tag k="place" v="farm" />
		<tag k="ssr:stedsnr" v="476068" />
	</node>
	<node lat="62.298899997588066" lon="10.83506389015481" id="-28422">
		<tag k="name" v="Bakken" />
		<tag k="place" v="farm" />
		<tag k="ssr:stedsnr" v="476070" />
	</node>
	<node lat="62.295394442903344" lon="10.807088880713227" id="-28423">
		<tag k="alt_name" v="Lapland" />
		<tag k="name" v="Lappland" />
		<tag k="place" v="farm" />
		<tag k="ssr:stedsnr" v="476074" />
	</node>
	<node lat="62.2915000003015" lon="10.820102781985607" id="-28424">
		<tag k="name" v="Mellom-Åen" />
		<tag k="place" v="farm" />
		<tag k="ssr:stedsnr" v="476075" />
	</node>
	<node lat="62.29116388919702" lon="10.753430555897683" id="-28425">
		<tag k="name" v="Øvre Nyhus" />
		<tag k="place" v="farm" />
		<tag k="ssr:stedsnr" v="476098" />
	</node>
	<node lat="62.37053888763736" lon="10.651816670270014" id="-28432">
		<tag k="name" v="Østre Lonåsmo" />
		<tag k="place" v="farm" />
		<tag k="ssr:stedsnr" v="476036" />
	</node>
	<node lat="62.36840833418597" lon="10.594349993201622" id="-28433">
		<tag k="name" v="Solbakken" />
		<tag k="place" v="farm" />
		<tag k="ssr:stedsnr" v="476037" />
	</node>
	<node lat="62.26819444306" lon="10.750422215824472" id="-28434">
		<tag k="name" v="Fredlund" />
		<tag k="place" v="isolated_dwelling" />
		<tag k="ssr:stedsnr" v="476038" />
	</node>
	<node lat="62.292422222296224" lon="10.634136116250199" id="-28444">
		<tag k="name" v="Dalmoen" />
		<tag k="place" v="farm" />
		<tag k="ssr:stedsnr" v="476141" />
	</node>
	<node lat="62.29414166259969" lon="10.630333337964437" id="-28445">
		<tag k="name" v="Dalvang" />
		<tag k="place" v="farm" />
		<tag k="ssr:stedsnr" v="476143" />
	</node>
	<node lat="62.272108330998314" lon="10.649638891737016" id="-28446">
		<tag k="name" v="Rønning" />
		<tag k="place" v="farm" />
		<tag k="ssr:stedsnr" v="476153" />
	</node>
	<node lat="62.32657222081514" lon="10.845005552281163" id="-28447">
		<tag k="name" v="Solmo" />
		<tag k="place" v="farm" />
		<tag k="ssr:stedsnr" v="476301" />
	</node>
	<node lat="62.30723888720521" lon="10.592544447032006" id="-28458">
		<tag k="name" v="Trøan" />
		<tag k="place" v="isolated_dwelling" />
		<tag k="ssr:stedsnr" v="476734" />
	</node>
	<node lat="62.281491834758356" lon="10.716366881715324" id="-28467">
		<tag k="alt_name" v="Smågårdene" />
		<tag k="name" v="Smågardene" />
		<tag k="place" v="hamlet" />
		<tag k="ssr:stedsnr" v="477134" />
	</node>
	<node lat="62.22111110973892" lon="10.795908332946379" id="-28477">
		<tag k="historic" v="shieling" />
		<tag k="name" v="Kurøsta" />
		<tag k="place" v="isolated_dwelling" />
		<tag k="ssr:stedsnr" v="374210" />
	</node>
	<node lat="62.590633334193456" lon="10.27765832403816" id="-28480">
		<tag k="name" v="Grisibekken" />
		<tag k="place" v="farm" />
		<tag k="ssr:stedsnr" v="375082" />
	</node>
	<node lat="62.32196944306533" lon="10.75336944185761" id="-28484">
		<tag k="alt_name" v="Kvannrøstvangen;Kvannrøsta" />
		<tag k="historic" v="shieling" />
		<tag k="name" v="Kvannrøstvangan" />
		<tag k="place" v="isolated_dwelling" />
		<tag k="ssr:stedsnr" v="375204" />
	</node>
	<node lat="62.29449166656676" lon="10.750111120107505" id="-28485">
		<tag k="name" v="Utby" />
		<tag k="place" v="hamlet" />
		<tag k="ssr:stedsnr" v="375208" />
	</node>
	<node lat="62.30551666828939" lon="10.969380549156343" id="-28486">
		<tag k="historic" v="shieling" />
		<tag k="name" v="Sandbakkvangen" />
		<tag k="place" v="isolated_dwelling" />
		<tag k="ssr:stedsnr" v="375209" />
	</node>
	<node lat="62.27950747585751" lon="10.75648767831137" id="-28488">
		<tag k="fixme" v="consider place=hamlet" />
		<tag k="name" v="Framnes" />
		<tag k="place" v="farm" />
		<tag k="ssr:stedsnr" v="375245" />
	</node>
	<node lat="62.275936113143494" lon="10.78239166772175" id="-28489">
		<tag k="name" v="Tynset" />
		<tag k="place" v="town" />
		<tag k="ssr:stedsnr" v="375248" />
	</node>
	<node lat="62.344858333040435" lon="10.889441675520182" id="-28490">
		<tag k="name" v="Nyutstuneset" />
		<tag k="place" v="farm" />
		<tag k="ssr:stedsnr" v="375184" />
	</node>
	<node lat="62.25650555562403" lon="10.734380549872771" id="-28491">
		<tag k="name" v="Åshaug" />
		<tag k="place" v="farm" />
		<tag k="ssr:stedsnr" v="375303" />
	</node>
	<node lat="62.262802778330084" lon="10.738288895971364" id="-28492">
		<tag k="name" v="Solum" />
		<tag k="place" v="farm" />
		<tag k="ssr:stedsnr" v="375305" />
	</node>
	<node lat="62.24786666636285" lon="10.67438055519186" id="-28493">
		<tag k="name" v="Lindstad" />
		<tag k="place" v="farm" />
		<tag k="ssr:stedsnr" v="375392" />
	</node>
	<node lat="62.36814814892671" lon="10.63090457823277" id="-28497">
		<tag k="name" v="Tunnbrottet" />
		<tag k="place" v="farm" />
		<tag k="ssr:stedsnr" v="375742" />
	</node>
	<node lat="62.27963889247283" lon="10.451011119390042" id="-28504">
		<tag k="fixme" v="multiple name tags, choose one and add the other to alt_name" />
		<tag k="historic" v="shieling" />
		<tag k="name" v="Straumsengsætra;Sandviksæter" />
		<tag k="place" v="isolated_dwelling" />
		<tag k="ssr:stedsnr" v="375883" />
	</node>
	<node lat="62.28865833049971" lon="10.642855552310735" id="-28506">
		<tag k="name" v="Brubakken" />
		<tag k="place" v="farm" />
		<tag k="ssr:stedsnr" v="375896" />
	</node>
	<node lat="62.26499721910128" lon="10.639663888411361" id="-28507">
		<tag k="alt_name" v="Lykkjebakken" />
		<tag k="name" v="Løkkebakken" />
		<tag k="place" v="farm" />
		<tag k="ssr:stedsnr" v="376008" />
	</node>
	<node lat="62.35019722211362" lon="10.563033339466504" id="-28508">
		<tag k="name" v="Stea" />
		<tag k="place" v="isolated_dwelling" />
		<tag k="ssr:stedsnr" v="375973" />
	</node>
	<node lat="62.36253889197391" lon="10.686463887518252" id="-28510">
		<tag k="alt_name" v="Nedre Skaret" />
		<tag k="historic" v="shieling" />
		<tag k="name" v="Skardet" />
		<tag k="place" v="isolated_dwelling" />
		<tag k="ssr:stedsnr" v="375987" />
	</node>
	<node lat="62.368367703480715" lon="10.650376052153618" id="-28512">
		<tag k="fixme" v="consider place=hamlet" />
		<tag k="name" v="Lonåsmoen" />
		<tag k="place" v="farm" />
		<tag k="ssr:stedsnr" v="375993" />
	</node>
	<node lat="62.59623332984258" lon="10.257913888815892" id="-28513">
		<tag k="name" v="Øvre Stai" />
		<tag k="place" v="farm" />
		<tag k="ssr:stedsnr" v="414404" />
	</node>
	<node lat="62.50697777859136" lon="10.372991657451744" id="-28523">
		<tag k="name" v="Ytre Storås" />
		<tag k="place" v="farm" />
		<tag k="ssr:stedsnr" v="415826" />
	</node>
	<node lat="62.285055556062034" lon="10.774808336485483" id="-28527">
		<tag k="name" v="Nystuen" />
		<tag k="place" v="farm" />
		<tag k="ssr:stedsnr" v="416036" />
	</node>
	<node lat="62.28907778098876" lon="10.805297220358062" id="-28528">
		<tag k="alt_name" v="Vasmoen" />
		<tag k="name" v="Vassmoen" />
		<tag k="place" v="farm" />
		<tag k="ssr:stedsnr" v="416043" />
	</node>
	<node lat="62.179955557305085" lon="11.009888882070026" id="-28530">
		<tag k="name" v="Nordre Moen" />
		<tag k="place" v="farm" />
		<tag k="ssr:stedsnr" v="416136" />
	</node>
	<node lat="62.22021655129796" lon="10.649229415274833" id="-28535">
		<tag k="fixme" v="consider place=hamlet" />
		<tag k="name" v="Strømshoved" />
		<tag k="place" v="farm" />
		<tag k="ssr:stedsnr" v="416705" />
	</node>
	<node lat="62.22086944725699" lon="10.614619449145135" id="-28536">
		<tag k="historic" v="shieling" />
		<tag k="name" v="Væggerud" />
		<tag k="place" v="isolated_dwelling" />
		<tag k="ssr:stedsnr" v="416707" />
	</node>
	<node lat="62.129133334462395" lon="10.798436103009152" id="-28537">
		<tag k="name" v="Flata" />
		<tag k="place" v="farm" />
		<tag k="ssr:stedsnr" v="416716" />
	</node>
	<node lat="62.311847220913" lon="10.461561101497047" id="-28540">
		<tag k="historic" v="shieling" />
		<tag k="name" v="Mogardsætra" />
		<tag k="place" v="isolated_dwelling" />
		<tag k="ssr:stedsnr" v="416810" />
	</node>
	<node lat="62.14270278023131" lon="10.79392499475172" id="-28547">
		<tag k="name" v="Holjetrøa" />
		<tag k="place" v="isolated_dwelling" />
		<tag k="ssr:stedsnr" v="417897" />
	</node>
	<node lat="62.1105638888348" lon="10.825155563610164" id="-28548">
		<tag k="alt_name" v="Sørgård øvre" />
		<tag k="name" v="Øvre Søgard" />
		<tag k="old_name" v="Sørgaard øvre" />
		<tag k="place" v="farm" />
		<tag k="ssr:stedsnr" v="419837" />
	</node>
	<node lat="62.16829444177627" lon="10.805316674797549" id="-28552">
		<tag k="alt_name" v="Olsbergsnysetra" />
		<tag k="historic" v="shieling" />
		<tag k="name" v="Olsbergsnysætra" />
		<tag k="place" v="isolated_dwelling" />
		<tag k="ssr:stedsnr" v="436117" />
	</node>
	<node lat="62.145999997280484" lon="10.801297222387642" id="-28554">
		<tag k="alt_name" v="Nordgård" />
		<tag k="name" v="Nordgarden" />
		<tag k="place" v="farm" />
		<tag k="ssr:stedsnr" v="436165" />
	</node>
	<node lat="62.15277500163604" lon="10.868638893681917" id="-28555">
		<tag k="alt_name" v="Rivlia, nordre" />
		<tag k="historic" v="shieling" />
		<tag k="name" v="Nordre Rivlia" />
		<tag k="place" v="isolated_dwelling" />
		<tag k="ssr:stedsnr" v="436171" />
	</node>
	<node lat="62.34451666581001" lon="10.971741670336868" id="-28557">
		<tag k="historic" v="shieling" />
		<tag k="name" v="Støvangen" />
		<tag k="place" v="isolated_dwelling" />
		<tag k="ssr:stedsnr" v="436207" />
	</node>
	<node lat="62.33701111444674" lon="10.892194451268436" id="-28558">
		<tag k="name" v="Glåmstad" />
		<tag k="place" v="farm" />
		<tag k="ssr:stedsnr" v="436213" />
	</node>
	<node lat="62.26926388710778" lon="10.973580550837337" id="-28560">
		<tag k="alt_name" v="Sødalsvangane;Sørdalsvangan;Ytre Sødalsvangan" />
		<tag k="historic" v="shieling" />
		<tag k="name" v="Sødalsvangan" />
		<tag k="place" v="isolated_dwelling" />
		<tag k="ssr:stedsnr" v="436259" />
	</node>
	<node lat="62.28032222603858" lon="10.80493332698499" id="-28561">
		<tag k="name" v="Sørheim" />
		<tag k="place" v="farm" />
		<tag k="ssr:stedsnr" v="436264" />
	</node>
	<node lat="62.29376389283111" lon="10.97007778599231" id="-28562">
		<tag k="historic" v="shieling" />
		<tag k="name" v="Oldertrøvangen" />
		<tag k="place" v="isolated_dwelling" />
		<tag k="ssr:stedsnr" v="436274" />
	</node>
	<node lat="62.269780553655515" lon="10.791661119785479" id="-28565">
		<tag k="name" v="Jørgensmoen" />
		<tag k="place" v="farm" />
		<tag k="ssr:stedsnr" v="436309" />
	</node>
	<node lat="62.64525256219268" lon="10.217431901466856" id="-28566">
		<tag k="alt_name" v="Storlia" />
		<tag k="fixme" v="consider place=hamlet" />
		<tag k="name" v="Storli" />
		<tag k="place" v="farm" />
		<tag k="ssr:stedsnr" v="436454" />
	</node>
	<node lat="62.65230706117985" lon="10.184270896768119" id="-28567">
		<tag k="alt_name" v="Breidvad" />
		<tag k="fixme" v="consider place=hamlet" />
		<tag k="name" v="Brevad" />
		<tag k="place" v="farm" />
		<tag k="ssr:stedsnr" v="436461" />
	</node>
	<node lat="62.49100833219629" lon="10.264269448769701" id="-28568">
		<tag k="alt_name" v="Sløbekkdalen" />
		<tag k="historic" v="shieling" />
		<tag k="name" v="Sløbekksætra" />
		<tag k="place" v="isolated_dwelling" />
		<tag k="ssr:stedsnr" v="436615" />
	</node>
	<node lat="62.49747350679446" lon="10.384827184876116" id="-28569">
		<tag k="fixme" v="multiple name tags, choose one and add the other to alt_name" />
		<tag k="name" v="Framstøa;Nystøa" />
		<tag k="place" v="farm" />
		<tag k="ssr:stedsnr" v="436622" />
	</node>
	<node lat="62.36761111445349" lon="10.603150000380944" id="-28572">
		<tag k="fixme" v="multiple name tags, choose one and add the other to alt_name" />
		<tag k="name" v="Solbakken;Myrmo" />
		<tag k="place" v="farm" />
		<tag k="ssr:stedsnr" v="436751" />
	</node>
	<node lat="62.28620893199291" lon="10.468429319996023" id="-28573">
		<tag k="alt_name" v="Belsvikvangen" />
		<tag k="historic" v="shieling" />
		<tag k="name" v="Bellsvikvangan" />
		<tag k="place" v="isolated_dwelling" />
		<tag k="ssr:stedsnr" v="436904" />
	</node>
	<node lat="62.28599444525002" lon="10.348261102923933" id="-28574">
		<tag k="alt_name" v="Veslehølivangen" />
		<tag k="historic" v="shieling" />
		<tag k="name" v="Veslhølivangen" />
		<tag k="place" v="isolated_dwelling" />
		<tag k="ssr:stedsnr" v="436906" />
	</node>
	<node lat="62.30528888924143" lon="10.599261102841293" id="-28576">
		<tag k="name" v="Vangen" />
		<tag k="place" v="farm" />
		<tag k="ssr:stedsnr" v="436920" />
	</node>
	<node lat="62.2712250038629" lon="10.59427777743703" id="-28579">
		<tag k="alt_name" v="Liveslesætra" />
		<tag k="historic" v="shieling" />
		<tag k="name" v="Liveslsætra" />
		<tag k="place" v="isolated_dwelling" />
		<tag k="ssr:stedsnr" v="437853" />
	</node>
	<node lat="62.49469166428436" lon="10.38332221260078" id="-28591">
		<tag k="name" v="Næverdal" />
		<tag k="place" v="farm" />
		<tag k="ssr:stedsnr" v="475781" />
	</node>
	<node lat="62.29029444160602" lon="10.753352787049227" id="-28594">
		<tag k="name" v="Ursten" />
		<tag k="place" v="farm" />
		<tag k="ssr:stedsnr" v="476113" />
	</node>
	<node lat="62.294922225743385" lon="10.753897225237608" id="-28595">
		<tag k="name" v="Nordistuen" />
		<tag k="place" v="farm" />
		<tag k="ssr:stedsnr" v="476116" />
	</node>
	<node lat="62.61607500056687" lon="10.254213897977925" id="-28603">
		<tag k="alt_name" v="Øvre Ulset" />
		<tag k="name" v="Øvre Ølset" />
		<tag k="place" v="farm" />
		<tag k="ssr:stedsnr" v="476964" />
	</node>
	<node lat="62.26232222006029" lon="10.500336103022835" id="-28605">
		<tag k="historic" v="shieling" />
		<tag k="name" v="Hardnesvangen" />
		<tag k="place" v="isolated_dwelling" />
		<tag k="ssr:stedsnr" v="476804" />
	</node>
	<node lat="62.2674916642722" lon="10.659352768976369" id="-28610">
		<tag k="name" v="Fåvoll" />
		<tag k="place" v="farm" />
		<tag k="ssr:stedsnr" v="477159" />
	</node>
	<node lat="62.27290833200101" lon="10.673533338729715" id="-28611">
		<tag k="name" v="Livoll" />
		<tag k="place" v="farm" />
		<tag k="ssr:stedsnr" v="477163" />
	</node>
	<node lat="62.34268888742489" lon="10.894427771278393" id="-28613">
		<tag k="name" v="Telmo" />
		<tag k="place" v="farm" />
		<tag k="ssr:stedsnr" v="477266" />
	</node>
	<node lat="62.13065833784567" lon="10.918616663154877" id="-28614">
		<tag k="name" v="Lundbua" />
		<tag k="place" v="locality" />
		<tag k="ssr:stedsnr" v="477505" />
	</node>
	<node lat="62.16878333396283" lon="10.756355545998785" id="-28620">
		<tag k="alt_name" v="Haugsetra" />
		<tag k="historic" v="shieling" />
		<tag k="name" v="Haugsætra" />
		<tag k="place" v="isolated_dwelling" />
		<tag k="ssr:stedsnr" v="678138" />
	</node>
	<node lat="62.1768583375933" lon="10.762141674690257" id="-28621">
		<tag k="alt_name" v="Ådalsvangen" />
		<tag k="historic" v="shieling" />
		<tag k="name" v="Ådalen" />
		<tag k="place" v="isolated_dwelling" />
		<tag k="ssr:stedsnr" v="678155" />
	</node>
	<node lat="62.14294391276389" lon="10.804725942131913" id="-28623">
		<tag k="alt_name" v="Prestegarden" />
		<tag k="fixme" v="consider place=hamlet" />
		<tag k="name" v="Prestgarden" />
		<tag k="place" v="farm" />
		<tag k="ssr:stedsnr" v="678165" />
	</node>
	<node lat="62.37108888779981" lon="10.530116672133856" id="-28629">
		<tag k="name" v="Skardli" />
		<tag k="place" v="farm" />
		<tag k="ssr:stedsnr" v="678742" />
	</node>
	<node lat="62.374341665410014" lon="10.597763893898799" id="-28630">
		<tag k="alt_name" v="Jernsenget" />
		<tag k="historic" v="shieling" />
		<tag k="name" v="Jensenget" />
		<tag k="place" v="isolated_dwelling" />
		<tag k="ssr:stedsnr" v="678765" />
	</node>
	<node lat="62.45690807442154" lon="10.487501273143305" id="-28632">
		<tag k="name" v="Ryan" />
		<tag k="place" v="locality" />
		<tag k="ssr:stedsnr" v="678830" />
	</node>
	<node lat="62.261678657945" lon="10.678719455744655" id="-28634">
		<tag k="name" v="Fåsetbrua" />
		<tag k="place" v="locality" />
		<tag k="ssr:stedsnr" v="679001" />
	</node>
	<node lat="62.26553055677639" lon="10.708277773158914" id="-28637">
		<tag k="name" v="Åsheim" />
		<tag k="place" v="farm" />
		<tag k="ssr:stedsnr" v="679018" />
	</node>
	<node lat="62.558155460238346" lon="10.423608536235932" id="-28639">
		<tag k="name" v="Odden" />
		<tag k="place" v="locality" />
		<tag k="ssr:stedsnr" v="679065" />
	</node>
	<node lat="62.61580177436608" lon="10.254312325420987" id="-28640">
		<tag k="fixme" v="consider place=hamlet" />
		<tag k="name" v="Ølset" />
		<tag k="place" v="farm" />
		<tag k="ssr:stedsnr" v="679116" />
	</node>
	<node lat="62.3351655717829" lon="10.874397736556027" id="-28642">
		<tag k="fixme" v="consider place=hamlet" />
		<tag k="name" v="Øyan" />
		<tag k="place" v="farm" />
		<tag k="ssr:stedsnr" v="679201" />
	</node>
	<node lat="62.27012315323289" lon="10.736325327221655" id="-28644">
		<tag k="fixme" v="consider place=hamlet" />
		<tag k="name" v="Hansmoen" />
		<tag k="place" v="farm" />
		<tag k="ssr:stedsnr" v="679247" />
	</node>
	<node lat="62.272877775544046" lon="10.814669446127036" id="-28645">
		<tag k="name" v="Nesheim" />
		<tag k="place" v="farm" />
		<tag k="ssr:stedsnr" v="679255" />
	</node>
	<node lat="62.27863611383983" lon="10.971052771199505" id="-28646">
		<tag k="historic" v="shieling" />
		<tag k="name" v="Brentmoen" />
		<tag k="place" v="isolated_dwelling" />
		<tag k="ssr:stedsnr" v="679256" />
	</node>
	<node lat="62.28447168842792" lon="10.767309816581847" id="-28647">
		<tag k="fixme" v="consider place=hamlet" />
		<tag k="name" v="Østby" />
		<tag k="place" v="farm" />
		<tag k="ssr:stedsnr" v="679259" />
	</node>
	<node lat="62.25119722170529" lon="10.965488893653477" id="-28650">
		<tag k="alt_name" v="Brybotnen" />
		<tag k="name" v="Brybotn" />
		<tag k="place" v="isolated_dwelling" />
		<tag k="ssr:stedsnr" v="679287" />
	</node>
	<node lat="62.64893584394284" lon="10.182004348246615" id="-28652">
		<tag k="alt_name" v="Breidvadslia" />
		<tag k="fixme" v="consider place=hamlet" />
		<tag k="name" v="Brevadslia" />
		<tag k="place" v="farm" />
		<tag k="ssr:stedsnr" v="679441" />
	</node>
	<node lat="62.431311109041516" lon="10.435763885049766" id="-28655">
		<tag k="name" v="Movangen" />
		<tag k="place" v="farm" />
		<tag k="ssr:stedsnr" v="679826" />
	</node>
	<node lat="62.44595000110935" lon="10.586774995970012" id="-28656">
		<tag k="historic" v="shieling" />
		<tag k="name" v="Buvollen" />
		<tag k="place" v="isolated_dwelling" />
		<tag k="ssr:stedsnr" v="679842" />
	</node>
	<node lat="62.403611112874124" lon="10.589858333174067" id="-28658">
		<tag k="historic" v="shieling" />
		<tag k="name" v="Myrvangsætra" />
		<tag k="place" v="isolated_dwelling" />
		<tag k="ssr:stedsnr" v="679776" />
	</node>
	<node lat="62.322477773841705" lon="10.483258336214762" id="-28662">
		<tag k="alt_name" v="Lesvangen" />
		<tag k="historic" v="shieling" />
		<tag k="name" v="Ledsvangen" />
		<tag k="place" v="isolated_dwelling" />
		<tag k="ssr:stedsnr" v="679935" />
	</node>
	<node lat="62.29037499677723" lon="10.637752771505516" id="-28663">
		<tag k="fixme" v="consider place=hamlet" />
		<tag k="name" v="Dalvangen" />
		<tag k="place" v="village" />
		<tag k="ssr:stedsnr" v="679900" />
	</node>
	<node lat="62.323370629028524" lon="10.476401467505084" id="-28667">
		<tag k="historic" v="shieling" />
		<tag k="name" v="Sagvangen" />
		<tag k="place" v="isolated_dwelling" />
		<tag k="ssr:stedsnr" v="679938" />
	</node>
	<node lat="62.232169444239915" lon="10.7844805600154" id="-28672">
		<tag k="alt_name" v="Haversvangen" />
		<tag k="historic" v="shieling" />
		<tag k="name" v="Haversvangan" />
		<tag k="place" v="isolated_dwelling" />
		<tag k="ssr:stedsnr" v="496233" />
	</node>
	<node lat="62.19516944470964" lon="10.862372220238237" id="-28674">
		<tag k="historic" v="shieling" />
		<tag k="name" v="Gravsvangan" />
		<tag k="place" v="isolated_dwelling" />
		<tag k="ssr:stedsnr" v="496240" />
	</node>
	<node lat="62.557680551777054" lon="10.113480553961324" id="-28675">
		<tag k="alt_name" v="Sætersetra" />
		<tag k="historic" v="shieling" />
		<tag k="name" v="Sætersætra" />
		<tag k="place" v="isolated_dwelling" />
		<tag k="ssr:stedsnr" v="496453" />
	</node>
	<node lat="62.50462777480327" lon="10.163213896683176" id="-28676">
		<tag k="alt_name" v="Øvre Dølvad" />
		<tag k="historic" v="shieling" />
		<tag k="name" v="Dølvadsætra" />
		<tag k="old_name" v="Dølvadsæter" />
		<tag k="place" v="isolated_dwelling" />
		<tag k="ssr:stedsnr" v="496467" />
	</node>
	<node lat="62.371661112738785" lon="10.637305560814443" id="-28681">
		<tag k="alt_name" v="Lonåshaug" />
		<tag k="name" v="Haugen" />
		<tag k="place" v="farm" />
		<tag k="ssr:stedsnr" v="496761" />
	</node>
	<node lat="62.26212221972782" lon="10.65012221388242" id="-28682">
		<tag k="name" v="Ålborgmoen" />
		<tag k="place" v="farm" />
		<tag k="ssr:stedsnr" v="497004" />
	</node>
	<node lat="62.512400003783576" lon="10.38578055989966" id="-28686">
		<tag k="name" v="Koidalen" />
		<tag k="place" v="farm" />
		<tag k="ssr:stedsnr" v="497052" />
	</node>
	<node lat="62.2919082924387" lon="10.890178246854605" id="-28688">
		<tag k="name" v="Bergevangen" />
		<tag k="place" v="locality" />
		<tag k="ssr:stedsnr" v="497300" />
	</node>
	<node lat="62.2974833304076" lon="10.82292778518162" id="-28689">
		<tag k="name" v="Bakklia" />
		<tag k="place" v="farm" />
		<tag k="ssr:stedsnr" v="497305" />
	</node>
	<node lat="62.29925555967869" lon="10.621536113514667" id="-28692">
		<tag k="alt_name" v="Fådal, nedre;Fådalen nedre" />
		<tag k="name" v="Nedre Fådal" />
		<tag k="place" v="farm" />
		<tag k="ssr:stedsnr" v="497914" />
	</node>
	<node lat="62.27818888819607" lon="10.78028888642407" id="-28695">
		<tag k="name" v="Nytrøa" />
		<tag k="place" v="quarter" />
		<tag k="ssr:stedsnr" v="510614" />
	</node>
	<node lat="62.13752902767028" lon="10.79448186325688" id="-28696">
		<tag k="alt_name" v="Tylldal" />
		<tag k="fixme" v="consider place=hamlet" />
		<tag k="name" v="Tylldalen" />
		<tag k="place" v="village" />
		<tag k="ssr:stedsnr" v="516125" />
	</node>
	<node lat="62.267361111825906" lon="10.78660555607949" id="-28697">
		<tag k="name" v="Ångardsmoen" />
		<tag k="place" v="quarter" />
		<tag k="ssr:stedsnr" v="532523" />
	</node>
	<node lat="62.59554166782478" lon="10.260336115699147" id="-28698">
		<tag k="name" v="Søre Stai" />
		<tag k="place" v="farm" />
		<tag k="ssr:stedsnr" v="535410" />
	</node>
	<node lat="62.58230555810859" lon="10.287130550225037" id="-28699">
		<tag k="fixme" v="consider place=hamlet" />
		<tag k="name" v="Kvikne" />
		<tag k="place" v="village" />
		<tag k="ssr:stedsnr" v="535411" />
	</node>
	<node lat="62.577105551240194" lon="10.403199997874282" id="-28703">
		<tag k="historic" v="shieling" />
		<tag k="name" v="Eriksvangen" />
		<tag k="place" v="isolated_dwelling" />
		<tag k="ssr:stedsnr" v="536172" />
	</node>
	<node lat="62.64614722175115" lon="10.166986105097509" id="-28712">
		<tag k="historic" v="shieling" />
		<tag k="name" v="Bjønnliåsen" />
		<tag k="place" v="isolated_dwelling" />
		<tag k="ssr:stedsnr" v="536902" />
	</node>
	<node lat="62.30701389287652" lon="10.696011104859151" id="-28714">
		<tag k="name" v="Mælvangen" />
		<tag k="place" v="locality" />
		<tag k="ssr:stedsnr" v="537116" />
	</node>
	<node lat="62.34562777721824" lon="10.776827772002076" id="-28715">
		<tag k="historic" v="shieling" />
		<tag k="name" v="Nedre Milskiftet" />
		<tag k="place" v="isolated_dwelling" />
		<tag k="ssr:stedsnr" v="537117" />
	</node>
	<node lat="62.36961666802938" lon="10.59125277043315" id="-28721">
		<tag k="name" v="Madsvangen" />
		<tag k="place" v="farm" />
		<tag k="ssr:stedsnr" v="537710" />
	</node>
	<node lat="62.133066664165376" lon="10.791027784082784" id="-28730">
		<tag k="name" v="Tollan" />
		<tag k="place" v="locality" />
		<tag k="ssr:stedsnr" v="538770" />
	</node>
	<node lat="62.13074999620265" lon="10.79579722792398" id="-28732">
		<tag k="name" v="Tølløvsrøden" />
		<tag k="place" v="farm" />
		<tag k="ssr:stedsnr" v="556207" />
	</node>
	<node lat="62.19530467852868" lon="10.830434881288214" id="-28733">
		<tag k="fixme" v="multiple name tags, choose one and add the other to alt_name" />
		<tag k="historic" v="shieling" />
		<tag k="name" v="Skjånnåråsen;Skinnaråsvangan" />
		<tag k="place" v="isolated_dwelling" />
		<tag k="ssr:stedsnr" v="556262" />
	</node>
	<node lat="62.06586988911576" lon="10.855048216700856" id="-28734">
		<tag k="name" v="Gaupskardbua" />
		<tag k="place" v="locality" />
		<tag k="ssr:stedsnr" v="557016" />
	</node>
	<node lat="62.25292778035742" lon="10.675508338393193" id="-28735">
		<tag k="alt_name" v="Foslia" />
		<tag k="name" v="Fosås" />
		<tag k="place" v="farm" />
		<tag k="ssr:stedsnr" v="557017" />
	</node>
	<node lat="62.59925277487698" lon="10.262538898411297" id="-28736">
		<tag k="alt_name" v="Frengstad, s;Frengstad søndre" />
		<tag k="name" v="Syndre Frendstad" />
		<tag k="place" v="farm" />
		<tag k="ssr:stedsnr" v="557100" />
	</node>
	<node lat="62.33381346823805" lon="10.931790911959075" id="-28737">
		<tag k="name" v="Eggmo" />
		<tag k="place" v="farm" />
		<tag k="ssr:stedsnr" v="557223" />
	</node>
	<node lat="62.31064999592963" lon="10.95254443752296" id="-28738">
		<tag k="historic" v="shieling" />
		<tag k="name" v="Telnesvangen" />
		<tag k="place" v="isolated_dwelling" />
		<tag k="ssr:stedsnr" v="557256" />
	</node>
	<node lat="62.14210833067661" lon="10.781366659492933" id="-28740">
		<tag k="name" v="Anstensjordet" />
		<tag k="place" v="farm" />
		<tag k="ssr:stedsnr" v="557150" />
	</node>
	<node lat="62.14683055542829" lon="10.785519453193332" id="-28741">
		<tag k="alt_name" v="Gjelten" />
		<tag k="name" v="Gjelta" />
		<tag k="place" v="farm" />
		<tag k="ssr:stedsnr" v="557170" />
	</node>
	<node lat="62.254145377465534" lon="10.728534606434755" id="-28742">
		<tag k="alt_name" v="Ås nedre" />
		<tag k="fixme" v="consider place=hamlet" />
		<tag k="name" v="Ås" />
		<tag k="place" v="farm" />
		<tag k="ssr:stedsnr" v="557312" />
	</node>
	<node lat="62.271085252099454" lon="10.754574074128497" id="-28743">
		<tag k="fixme" v="consider place=hamlet" />
		<tag k="name" v="Sandbakken" />
		<tag k="place" v="farm" />
		<tag k="ssr:stedsnr" v="557317" />
	</node>
	<node lat="62.3027943557936" lon="10.720535070785076" id="-28744">
		<tag k="fixme" v="consider place=hamlet" />
		<tag k="name" v="Moan" />
		<tag k="place" v="farm" />
		<tag k="ssr:stedsnr" v="557702" />
	</node>
	<node lat="62.3771500016417" lon="10.508475007810658" id="-28745">
		<tag k="name" v="Vårli" />
		<tag k="place" v="farm" />
		<tag k="ssr:stedsnr" v="557759" />
	</node>
	<node lat="62.38016111483542" lon="10.483169452132243" id="-28746">
		<tag k="name" v="Sørsjølia" />
		<tag k="place" v="farm" />
		<tag k="ssr:stedsnr" v="557761" />
	</node>
	<node lat="62.2624833377086" lon="10.775569442775938" id="-28751">
		<tag k="name" v="Haverslia" />
		<tag k="place" v="quarter" />
		<tag k="ssr:stedsnr" v="692566" />
	</node>
	<node lat="62.25329953935391" lon="10.739717300497636" id="-28754">
		<tag k="alt_name" v="Øvre Brekken" />
		<tag k="name" v="Øvre Brekka" />
		<tag k="place" v="farm" />
		<tag k="ssr:stedsnr" v="593055" />
	</node>
	<node lat="62.49576911438387" lon="10.383248266721239" id="-28758">
		<tag k="fixme" v="consider place=hamlet" />
		<tag k="name" v="Frankstøa" />
		<tag k="place" v="farm" />
		<tag k="ssr:stedsnr" v="596756" />
	</node>
	<node lat="62.27304999640833" lon="10.774172213824848" id="-28759">
		<tag k="loc_name" v="Ramsmoen" />
		<tag k="name" v="Ransmoen" />
		<tag k="place" v="quarter" />
		<tag k="ssr:stedsnr" v="597004" />
	</node>
	<node lat="62.284906760627265" lon="10.76636639885685" id="-28762">
		<tag k="name" v="Jonstuen" />
		<tag k="place" v="farm" />
		<tag k="ssr:stedsnr" v="597017" />
	</node>
	<node lat="62.3897222258355" lon="10.710791671108822" id="-28764">
		<tag k="historic" v="shieling" />
		<tag k="name" v="Lonsjølivollen" />
		<tag k="place" v="isolated_dwelling" />
		<tag k="ssr:stedsnr" v="597019" />
	</node>
	<node lat="62.27728611548778" lon="10.722486107667178" id="-28765">
		<tag k="name" v="Melenget" />
		<tag k="place" v="farm" />
		<tag k="ssr:stedsnr" v="597022" />
	</node>
	<node lat="62.279672222947845" lon="10.742747214575568" id="-28766">
		<tag k="name" v="Tyve" />
		<tag k="place" v="locality" />
		<tag k="ssr:stedsnr" v="597024" />
	</node>
	<node lat="62.27709092655845" lon="10.773186282581332" id="-28767">
		<tag k="fixme" v="consider place=hamlet" />
		<tag k="name" v="Bjørnsmoen" />
		<tag k="place" v="farm" />
		<tag k="ssr:stedsnr" v="597025" />
	</node>
	<node lat="62.36944444144982" lon="10.650252783223666" id="-28768">
		<tag k="name" v="Tovsmoen" />
		<tag k="place" v="farm" />
		<tag k="ssr:stedsnr" v="597026" />
	</node>
	<node lat="62.29936389128725" lon="10.816138892854681" id="-28772">
		<tag k="name" v="Husgjelten" />
		<tag k="place" v="farm" />
		<tag k="ssr:stedsnr" v="597053" />
	</node>
	<node lat="62.32877221880771" lon="10.863344447119042" id="-28773">
		<tag k="name" v="Utistu" />
		<tag k="place" v="farm" />
		<tag k="ssr:stedsnr" v="597309" />
	</node>
	<node lat="62.45418332994404" lon="10.557775007884663" id="-28775">
		<tag k="name" v="Mælanbua" />
		<tag k="place" v="isolated_dwelling" />
		<tag k="ssr:stedsnr" v="597360" />
	</node>
	<node lat="62.64067500286877" lon="10.207891671561125" id="-28780">
		<tag k="name" v="Botnangardan" />
		<tag k="place" v="hamlet" />
		<tag k="ssr:stedsnr" v="597909" />
	</node>
	<node lat="62.27841944210938" lon="10.806327768797352" id="-28783">
		<tag k="name" v="Stampstuen" />
		<tag k="place" v="farm" />
		<tag k="ssr:stedsnr" v="598046" />
	</node>
	<node lat="62.626794447497815" lon="10.242586119850687" id="-28784">
		<tag k="name" v="Løberget" />
		<tag k="place" v="isolated_dwelling" />
		<tag k="ssr:stedsnr" v="597974" />
	</node>
	<node lat="62.27356389189431" lon="10.715880565017281" id="-28785">
		<tag k="name" v="Odden" />
		<tag k="place" v="farm" />
		<tag k="ssr:stedsnr" v="598157" />
	</node>
	<node lat="62.27439850893099" lon="10.713565679551094" id="-28786">
		<tag k="alt_name" v="Smedeggen" />
		<tag k="fixme" v="consider place=hamlet" />
		<tag k="name" v="Lilleeggen" />
		<tag k="place" v="farm" />
		<tag k="ssr:stedsnr" v="598161" />
	</node>
	<node lat="62.338780557697824" lon="10.897763896046738" id="-28788">
		<tag k="name" v="Øvreset" />
		<tag k="place" v="farm" />
		<tag k="ssr:stedsnr" v="598260" />
	</node>
	<node lat="62.09294166418777" lon="10.83295555170257" id="-28797">
		<tag k="name" v="Eggli" />
		<tag k="place" v="farm" />
		<tag k="ssr:stedsnr" v="617137" />
	</node>
	<node lat="62.569513892819025" lon="10.303386117662738" id="-28803">
		<tag k="name" v="Vollan" />
		<tag k="place" v="farm" />
		<tag k="ssr:stedsnr" v="618082" />
	</node>
	<node lat="62.297977776641524" lon="10.724952775980933" id="-28808">
		<tag k="name" v="Sagmoen" />
		<tag k="place" v="farm" />
		<tag k="ssr:stedsnr" v="618210" />
	</node>
	<node lat="62.29261944374579" lon="10.726724994466396" id="-28809">
		<tag k="name" v="Brumoen" />
		<tag k="place" v="farm" />
		<tag k="ssr:stedsnr" v="618213" />
	</node>
	<node lat="62.31139999986855" lon="10.863136118281911" id="-28811">
		<tag k="name" v="Øverenget" />
		<tag k="place" v="farm" />
		<tag k="ssr:stedsnr" v="618234" />
	</node>
	<node lat="62.2957532155795" lon="10.840759635803542" id="-28814">
		<tag k="alt_name" v="Gotland" />
		<tag k="fixme" v="consider place=hamlet" />
		<tag k="name" v="Godtland" />
		<tag k="place" v="farm" />
		<tag k="ssr:stedsnr" v="618278" />
	</node>
	<node lat="62.33713055525176" lon="10.857805560544511" id="-28816">
		<tag k="name" v="Gardset" />
		<tag k="place" v="farm" />
		<tag k="ssr:stedsnr" v="618189" />
	</node>
	<node lat="62.431522226031966" lon="10.438394444697822" id="-28823">
		<tag k="name" v="Bubakkvangen" />
		<tag k="place" v="farm" />
		<tag k="ssr:stedsnr" v="618815" />
	</node>
	<node lat="62.31005833496285" lon="10.575238897061448" id="-28825">
		<tag k="name" v="Nyvangen" />
		<tag k="place" v="farm" />
		<tag k="ssr:stedsnr" v="618913" />
	</node>
	<node lat="62.55667500451911" lon="10.36525832995784" id="-28829">
		<tag k="name" v="Ivarsplassen" />
		<tag k="place" v="locality" />
		<tag k="ssr:stedsnr" v="657211" />
	</node>
	<node lat="62.26910520043024" lon="10.763549310706859" id="-28831">
		<tag k="fixme" v="consider place=hamlet" />
		<tag k="name" v="Kaldbekken" />
		<tag k="place" v="farm" />
		<tag k="ssr:stedsnr" v="658004" />
	</node>
	<node lat="62.33351388890887" lon="10.694488892163603" id="-28832">
		<tag k="name" v="Tveråfetten" />
		<tag k="place" v="farm" />
		<tag k="ssr:stedsnr" v="658081" />
	</node>
	<node lat="62.29326111450247" lon="10.762875009469356" id="-28833">
		<tag k="name" v="Nygård" />
		<tag k="place" v="isolated_dwelling" />
		<tag k="ssr:stedsnr" v="658082" />
	</node>
	<node lat="62.290719448055384" lon="10.727033341268022" id="-28838">
		<tag k="name" v="Skaugum" />
		<tag k="place" v="farm" />
		<tag k="ssr:stedsnr" v="658113" />
	</node>
	<node lat="62.28784721796292" lon="10.73194443507322" id="-28839">
		<tag k="name" v="Vidsyn" />
		<tag k="place" v="farm" />
		<tag k="ssr:stedsnr" v="658114" />
	</node>
	<node lat="62.341855551938444" lon="10.768577784435301" id="-28841">
		<tag k="historic" v="shieling" />
		<tag k="name" v="Snekkermovangen" />
		<tag k="place" v="isolated_dwelling" />
		<tag k="ssr:stedsnr" v="658134" />
	</node>
	<node lat="62.30543888815706" lon="10.606586106931488" id="-28843">
		<tag k="name" v="Asheim" />
		<tag k="place" v="farm" />
		<tag k="ssr:stedsnr" v="658182" />
	</node>
	<node lat="62.3155666637029" lon="10.61376110169764" id="-28845">
		<tag k="historic" v="shieling" />
		<tag k="name" v="Kvenneggvangen" />
		<tag k="place" v="isolated_dwelling" />
		<tag k="ssr:stedsnr" v="658191" />
	</node>
	<node lat="62.330647219379905" lon="10.845408333847184" id="-28846">
		<tag k="name" v="Brentvang" />
		<tag k="place" v="farm" />
		<tag k="ssr:stedsnr" v="658311" />
	</node>
	<node lat="62.23571388573931" lon="10.527572226967145" id="-28856">
		<tag k="name" v="Wågan" />
		<tag k="place" v="isolated_dwelling" />
		<tag k="ssr:stedsnr" v="658798" />
	</node>
	<node lat="62.13399166838672" lon="10.939302785982203" id="-28870">
		<tag k="name" v="Mosbua" />
		<tag k="place" v="locality" />
		<tag k="ssr:stedsnr" v="659480" />
	</node>
	<node lat="62.213283332729645" lon="10.87341111047775" id="-28874">
		<tag k="historic" v="shieling" />
		<tag k="name" v="Haugsmovangen" />
		<tag k="place" v="isolated_dwelling" />
		<tag k="ssr:stedsnr" v="659495" />
	</node>
	<node lat="62.21082499553258" lon="10.871247225090523" id="-28875">
		<tag k="historic" v="shieling" />
		<tag k="name" v="Rønningsvangen" />
		<tag k="place" v="isolated_dwelling" />
		<tag k="ssr:stedsnr" v="659496" />
	</node>
	<node lat="62.13858333303248" lon="10.795927783426725" id="-28877">
		<tag k="name" v="Kirkemo" />
		<tag k="place" v="farm" />
		<tag k="ssr:stedsnr" v="659885" />
	</node>
	<node lat="62.14261666505355" lon="10.787194442779185" id="-28878">
		<tag k="name" v="Vesltrøa" />
		<tag k="place" v="farm" />
		<tag k="ssr:stedsnr" v="659887" />
	</node>
	<node lat="62.13739444070154" lon="10.789138880607608" id="-28879">
		<tag k="name" v="Vesterheim" />
		<tag k="place" v="farm" />
		<tag k="ssr:stedsnr" v="659888" />
	</node>
	<node lat="62.11365000383997" lon="10.769019450201542" id="-28880">
		<tag k="historic" v="shieling" />
		<tag k="name" v="Hokstadkjølen" />
		<tag k="place" v="isolated_dwelling" />
		<tag k="ssr:stedsnr" v="678086" />
	</node>
	<node lat="62.12839951949391" lon="10.813305677730495" id="-28881">
		<tag k="fixme" v="multiple name tags, choose one and add the other to alt_name; consider place=hamlet" />
		<tag k="name" v="Oppårød;Torud" />
		<tag k="place" v="farm" />
		<tag k="ssr:stedsnr" v="678095" />
	</node>
	<node lat="62.08639444634648" lon="10.843463890554558" id="-28882">
		<tag k="name" v="Åsly" />
		<tag k="place" v="farm" />
		<tag k="ssr:stedsnr" v="678101" />
	</node>
	<node lat="62.1346811087967" lon="10.780683121004987" id="-28885">
		<tag k="fixme" v="consider place=hamlet" />
		<tag k="name" v="Øverby" />
		<tag k="place" v="farm" />
		<tag k="ssr:stedsnr" v="678177" />
	</node>
	<node lat="62.66545935456367" lon="10.148718015917849" id="-28887">
		<tag k="alt_name" v="Litlefossen;Lillefoss" />
		<tag k="fixme" v="consider place=hamlet" />
		<tag k="name" v="Litlfossen" />
		<tag k="place" v="farm" />
		<tag k="ssr:stedsnr" v="678283" />
	</node>
	<node lat="62.349033336673145" lon="10.738063885334947" id="-28890">
		<tag k="alt_name" v="Nyvangen, øvre;Nyvangan, øvre;Nyvangen" />
		<tag k="historic" v="shieling" />
		<tag k="name" v="Øvre Nyvangan" />
		<tag k="place" v="isolated_dwelling" />
		<tag k="ssr:stedsnr" v="679183" />
	</node>
	<node lat="62.330427777852925" lon="10.934750000525154" id="-28894">
		<tag k="name" v="Fjellstad" />
		<tag k="place" v="farm" />
		<tag k="ssr:stedsnr" v="679215" />
	</node>
	<node lat="62.33256111039409" lon="10.9312055631663" id="-28895">
		<tag k="alt_name" v="Telmoen" />
		<tag k="name" v="Telmo" />
		<tag k="place" v="farm" />
		<tag k="ssr:stedsnr" v="679217" />
	</node>
	<node lat="62.454116663467026" lon="10.129700001944835" id="-28898">
		<tag k="historic" v="shieling" />
		<tag k="name" v="Støsætran" />
		<tag k="place" v="isolated_dwelling" />
		<tag k="ssr:stedsnr" v="679705" />
	</node>
	<node lat="62.434283337169326" lon="10.427738894423548" id="-28901">
		<tag k="name" v="Bjørkly" />
		<tag k="place" v="farm" />
		<tag k="ssr:stedsnr" v="679815" />
	</node>
	<node lat="62.26633611360288" lon="10.646338898483206" id="-28903">
		<tag k="alt_name" v="Losgård" />
		<tag k="name" v="Lossgarden" />
		<tag k="place" v="farm" />
		<tag k="ssr:stedsnr" v="679864" />
	</node>
	<node lat="62.27629999691911" lon="10.705766670231384" id="-28904">
		<tag k="name" v="Furuly" />
		<tag k="place" v="farm" />
		<tag k="ssr:stedsnr" v="679878" />
	</node>
	<node lat="62.308374998852194" lon="10.603752774976522" id="-28908">
		<tag k="name" v="Gjelta" />
		<tag k="place" v="farm" />
		<tag k="ssr:stedsnr" v="679916" />
	</node>
	<node lat="62.26723611162829" lon="10.719172214124528" id="-28928">
		<tag k="name" v="Åsmo" />
		<tag k="place" v="farm" />
		<tag k="ssr:stedsnr" v="719025" />
	</node>
	<node lat="62.35921111335807" lon="10.68954167132667" id="-28929">
		<tag k="historic" v="shieling" />
		<tag k="name" v="Øvre Skaret" />
		<tag k="place" v="isolated_dwelling" />
		<tag k="ssr:stedsnr" v="719104" />
	</node>
	<node lat="62.18951110693185" lon="10.983427782668938" id="-28933">
		<tag k="name" v="Soltun" />
		<tag k="place" v="isolated_dwelling" />
		<tag k="ssr:stedsnr" v="719117" />
	</node>
	<node lat="62.3239194429019" lon="10.944069440006512" id="-28936">
		<tag k="name" v="Teldammen" />
		<tag k="place" v="isolated_dwelling" />
		<tag k="ssr:stedsnr" v="719307" />
	</node>
	<node lat="62.11250277408209" lon="10.821091667025662" id="-28947">
		<tag k="alt_name" v="Søgårdsberget" />
		<tag k="name" v="Søgardsberget" />
		<tag k="place" v="farm" />
		<tag k="ssr:stedsnr" v="719621" />
	</node>
	<node lat="62.20832222413999" lon="10.732669440690978" id="-28949">
		<tag k="historic" v="shieling" />
		<tag k="name" v="Østivangen" />
		<tag k="place" v="isolated_dwelling" />
		<tag k="ssr:stedsnr" v="719870" />
	</node>
	<node lat="62.2122750037716" lon="10.875116666588074" id="-28965">
		<tag k="historic" v="shieling" />
		<tag k="name" v="Snarvollvangen" />
		<tag k="place" v="isolated_dwelling" />
		<tag k="ssr:stedsnr" v="720507" />
	</node>
	<node lat="62.58500275990941" lon="10.279317438323284" id="-28969">
		<tag k="fixme" v="consider place=hamlet" />
		<tag k="name" v="Moen" />
		<tag k="place" v="farm" />
		<tag k="ssr:stedsnr" v="900045" />
	</node>
	<node lat="62.56920833436541" lon="10.315922222064366" id="-28970">
		<tag k="name" v="Søndre Brattebolstad" />
		<tag k="place" v="farm" />
		<tag k="ssr:stedsnr" v="900047" />
	</node>
	<node lat="62.29235833404968" lon="10.824266670195918" id="-28974">
		<tag k="name" v="Jordegga" />
		<tag k="place" v="farm" />
		<tag k="ssr:stedsnr" v="901046" />
	</node>
	<node lat="62.27572222063888" lon="10.794058336955796" id="-28975">
		<tag k="name" v="Lillebekkmoen" />
		<tag k="place" v="quarter" />
		<tag k="ssr:stedsnr" v="901049" />
	</node>
	<node lat="62.3062583335082" lon="10.723469438612556" id="-28979">
		<tag k="name" v="Nedre Moan" />
		<tag k="place" v="farm" />
		<tag k="ssr:stedsnr" v="901088" />
	</node>
	<node lat="62.289066663595584" lon="10.72516389072739" id="-28981">
		<tag k="name" v="Lillemoen" />
		<tag k="place" v="farm" />
		<tag k="ssr:stedsnr" v="901093" />
	</node>
	<node lat="62.26915555324876" lon="10.649972213340236" id="-28989">
		<tag k="name" v="Jordet" />
		<tag k="place" v="farm" />
		<tag k="ssr:stedsnr" v="901134" />
	</node>
	<node lat="62.30879992210397" lon="10.852789532079004" id="-28990">
		<tag k="fixme" v="consider place=hamlet" />
		<tag k="name" v="Otteneset" />
		<tag k="place" v="farm" />
		<tag k="ssr:stedsnr" v="901275" />
	</node>
	<node lat="62.46097499878267" lon="10.537333326178459" id="-28994">
		<tag k="name" v="Fjellengbua" />
		<tag k="place" v="isolated_dwelling" />
		<tag k="ssr:stedsnr" v="901335" />
	</node>
	<node lat="62.35019166763955" lon="10.56693333888717" id="-29005">
		<tag k="name" v="Mellom-Kroken" />
		<tag k="place" v="farm" />
		<tag k="ssr:stedsnr" v="901833" />
	</node>
	<node lat="62.187486114256664" lon="10.773005554649265" id="-29013">
		<tag k="historic" v="shieling" />
		<tag k="name" v="Storvangen" />
		<tag k="place" v="isolated_dwelling" />
		<tag k="ssr:stedsnr" v="901941" />
	</node>
	<node lat="62.26384166720804" lon="10.644188881538334" id="-29015">
		<tag k="name" v="Løkken" />
		<tag k="place" v="farm" />
		<tag k="ssr:stedsnr" v="902149" />
	</node>
	<node lat="62.27604722556075" lon="10.966941662439073" id="-29017">
		<tag k="historic" v="shieling" />
		<tag k="name" v="Åkervangen" />
		<tag k="place" v="isolated_dwelling" />
		<tag k="ssr:stedsnr" v="902387" />
	</node>
	<node lat="62.25410277889281" lon="10.658322224763513" id="-29024">
		<tag k="name" v="Sagenget" />
		<tag k="place" v="farm" />
		<tag k="ssr:stedsnr" v="739017" />
	</node>
	<node lat="62.25322221797051" lon="10.568541673532094" id="-29025">
		<tag k="name" v="Svartåsvangen" />
		<tag k="place" v="isolated_dwelling" />
		<tag k="ssr:stedsnr" v="739022" />
	</node>
	<node lat="62.099052776595485" lon="10.819461120487965" id="-29027">
		<tag k="name" v="Holtet" />
		<tag k="place" v="isolated_dwelling" />
		<tag k="ssr:stedsnr" v="902665" />
	</node>
	<node lat="62.16224166233548" lon="11.004125004718926" id="-29028">
		<tag k="alt_name" v="Naustereggen" />
		<tag k="name" v="Nausteregga" />
		<tag k="place" v="isolated_dwelling" />
		<tag k="ssr:stedsnr" v="739120" />
	</node>
	<node lat="62.18368055448721" lon="10.933091665711725" id="-29029">
		<tag k="alt_name" v="Røsvangan" />
		<tag k="historic" v="shieling" />
		<tag k="name" v="Rødsvangan" />
		<tag k="place" v="isolated_dwelling" />
		<tag k="ssr:stedsnr" v="739126" />
	</node>
	<node lat="62.33118888552127" lon="10.839552777201128" id="-29034">
		<tag k="name" v="Bekkvang" />
		<tag k="place" v="farm" />
		<tag k="ssr:stedsnr" v="739228" />
	</node>
	<node lat="62.33309703352089" lon="10.851730107057826" id="-29035">
		<tag k="fixme" v="multiple name tags, choose one and add the other to alt_name" />
		<tag k="name" v="Øytun;Trøenget" />
		<tag k="place" v="farm" />
		<tag k="ssr:stedsnr" v="739230" />
	</node>
	<node lat="62.35893055449783" lon="10.77274445014696" id="-29038">
		<tag k="alt_name" v="Volsvangen;Volsvangene" />
		<tag k="historic" v="shieling" />
		<tag k="name" v="Volsvangan" />
		<tag k="place" v="isolated_dwelling" />
		<tag k="ssr:stedsnr" v="739200" />
	</node>
	<node lat="62.47797777588518" lon="10.387077779965107" id="-29049">
		<tag k="name" v="Bjørkeng" />
		<tag k="place" v="farm" />
		<tag k="ssr:stedsnr" v="740837" />
	</node>
	<node lat="62.42187620073644" lon="10.636283786783753" id="-29051">
		<tag k="name" v="Granengvangen" />
		<tag k="place" v="locality" />
		<tag k="ssr:stedsnr" v="740807" />
	</node>
	<node lat="62.285502774690244" lon="10.690100004407528" id="-29053">
		<tag k="historic" v="shieling" />
		<tag k="name" v="Oddlivangen" />
		<tag k="place" v="isolated_dwelling" />
		<tag k="ssr:stedsnr" v="740893" />
	</node>
	<node lat="62.282813893053316" lon="10.71263055394537" id="-29054">
		<tag k="name" v="Skogheim" />
		<tag k="place" v="farm" />
		<tag k="ssr:stedsnr" v="740898" />
	</node>
	<node lat="62.31081388544973" lon="10.522005549741875" id="-29055">
		<tag k="name" v="Savalen Fjellhotell &amp; Spa" />
		<tag k="ssr:stedsnr" v="756514" />
		<tag k="tourism" v="hotel" />
	</node>
	<node lat="62.56268610877824" lon="10.316555547429584" id="-29066">
		<tag k="name" v="Kløftet" />
		<tag k="place" v="farm" />
		<tag k="ssr:stedsnr" v="779051" />
	</node>
	<node lat="62.54196388567455" lon="10.349713887012134" id="-29072">
		<tag k="name" v="Søndre Rønning" />
		<tag k="place" v="farm" />
		<tag k="ssr:stedsnr" v="779710" />
	</node>
</osm>
