<?xml version="1.0" encoding="UTF-8"?>
<osm generator="osmapis" version="0.6">
	<node id="-43872" lat="62.2782194485" lon="10.7945194488">
		<tag k="name" v="Tynset bygdemuseum" />
		<tag k="ssr:stedsnr" v="962055" />
		<tag k="tourism" v="museum" />
	</node>
	<node id="-44272" lat="62.5628611076" lon="10.3345194347">
		<tag k="amenity" v="community_centre" />
		<tag k="name" v="Bjørklund" />
		<tag k="ssr:stedsnr" v="172054" />
	</node>
	<node id="-45180" lat="62.3107833316" lon="10.5106999942">
		<tag k="name" v="Tippen" />
		<tag k="place" v="locality" />
		<tag k="ssr:stedsnr" v="780799" />
	</node>
	<node id="-45338" lat="62.2850472255" lon="10.7541694538">
		<tag k="amenity" v="place_of_worship" />
		<tag k="denomination" v="lutheran" />
		<tag k="name" v="Tynset kirke" />
		<tag k="religion" v="christian" />
		<tag k="ssr:stedsnr" v="861280" />
	</node>
	<node id="-42455" lat="62.3032027773" lon="10.614074993">
		<tag k="amenity" v="community_centre" />
		<tag k="name" v="Fålund" />
		<tag k="ssr:stedsnr" v="52166" />
	</node>
	<node id="-44789" lat="62.4974666662" lon="10.3808833335">
		<tag k="amenity" v="community_centre" />
		<tag k="name" v="Skoglund" />
		<tag k="ssr:stedsnr" v="536791" />
	</node>
	<node id="-43284" lat="62.1878277757" lon="10.9882555631">
		<tag k="amenity" v="place_of_worship" />
		<tag k="denomination" v="lutheran" />
		<tag k="name" v="Brydalen kirke" />
		<tag k="old_name" v="Brydal;Brydal kapell" />
		<tag k="religion" v="christian" />
		<tag k="ssr:stedsnr" v="556176" />
	</node>
	<node id="-44082" lat="62.5836833311" lon="10.2850888912">
		<tag k="amenity" v="place_of_worship" />
		<tag k="denomination" v="lutheran" />
		<tag k="name" v="Kvikne kirke" />
		<tag k="religion" v="christian" />
		<tag k="ssr:stedsnr" v="72099" />
	</node>
	<node id="-44048" lat="62.2755138915" lon="10.8845472221">
		<tag k="name" v="Elggrava" />
		<tag k="place" v="locality" />
		<tag k="ssr:stedsnr" v="53481" />
	</node>
	<node id="-44688" lat="62.6124249969" lon="10.2570166761">
		<tag k="amenity" v="community_centre" />
		<tag k="name" v="Lunheim" />
		<tag k="ssr:stedsnr" v="415968" />
	</node>
	<node id="-45390" lat="62.6206472217" lon="10.3381111041">
		<tag k="name" v="Sverja Ya Russu" />
		<tag k="place" v="locality" />
		<tag k="ssr:stedsnr" v="961973" />
	</node>
	<node id="-43149" lat="62.1373583305" lon="10.7954027778">
		<tag k="amenity" v="place_of_worship" />
		<tag k="denomination" v="lutheran" />
		<tag k="name" v="Tylldalen kirke" />
		<tag k="old_name" v="Tylldal;Tyldal" />
		<tag k="religion" v="christian" />
		<tag k="ssr:stedsnr" v="663153" />
	</node>
	<node id="-42482" lat="62.3798805525" lon="10.4145277777">
		<tag k="alt_name" v="Rya" />
		<tag k="name" v="Allmannryan" />
		<tag k="place" v="locality" />
		<tag k="ssr:stedsnr" v="72746" />
	</node>
	<node id="-43849" lat="62.5403055512" lon="10.2518861148">
		<tag k="name" v="Luftvernet" />
		<tag k="place" v="locality" />
		<tag k="ssr:stedsnr" v="960067" />
	</node>
	<node id="-44328" lat="62.3383388902" lon="10.9138555501">
		<tag k="name" v="Gammelsaga" />
		<tag k="place" v="locality" />
		<tag k="ssr:stedsnr" v="173256" />
	</node>
	<node id="-42753" lat="62.3690944455" lon="10.6522833331">
		<tag k="amenity" v="community_centre" />
		<tag k="name" v="Lonåsen grendehus" />
		<tag k="ssr:stedsnr" v="233033" />
	</node>
	<node id="-45411" lat="62.3325333311" lon="10.8696138977">
		<tag k="amenity" v="community_centre" />
		<tag k="name" v="Folkvang" />
		<tag k="ssr:stedsnr" v="962252" />
	</node>
	<node id="-44033" lat="62.4293111094" lon="10.4034944448">
		<tag k="amenity" v="community_centre" />
		<tag k="name" v="Solvang" />
		<tag k="ssr:stedsnr" v="52736" />
	</node>
</osm>
