<?xml version="1.0" encoding="UTF-8"?>
<<<<<<< HEAD
<osm version="0.6" generator="osmapis">
	<node lat="62.27368888656665" lon="10.981963887017079" id="-30797">
		<tag k="highway" v="path" />
		<tag k="name" v="Vesleklettveien" />
		<tag k="ssr:stedsnr" v="234356" />
	</node>
	<node lat="62.25803888827072" lon="10.894925005172317" id="-30817">
=======
<osm generator="osmapis" version="0.6">
	<node id="-352768" lat="62.4358499985" lon="10.4581027743">
		<tag k="highway" v="path" />
		<tag k="name" v="Tunndalsvegen" />
		<tag k="ssr:stedsnr" v="112976" />
	</node>
	<node id="-353784" lat="62.2270694406" lon="10.7867250014">
		<tag k="highway" v="path" />
		<tag k="name" v="Granholtvegen" />
		<tag k="ssr:stedsnr" v="781957" />
	</node>
	<node id="-352758" lat="62.1090055601" lon="10.7625111034">
		<tag k="highway" v="path" />
		<tag k="name" v="Måssåveien" />
		<tag k="ssr:stedsnr" v="112667" />
	</node>
	<node id="-353781" lat="62.2410444447" lon="10.9159694485">
		<tag k="highway" v="path" />
		<tag k="name" v="Klettveien" />
		<tag k="ssr:stedsnr" v="781445" />
	</node>
	<node id="-352756" lat="62.1119444402" lon="10.8354388889">
		<tag k="highway" v="path" />
		<tag k="name" v="Gamle Rivlivegen" />
		<tag k="ssr:stedsnr" v="112650" />
	</node>
	<node id="-353261" lat="62.4957027745" lon="10.1296611095">
		<tag k="highway" v="path" />
		<tag k="name" v="Fjellægerveien" />
		<tag k="ssr:stedsnr" v="415753" />
	</node>
	<node id="-353772" lat="62.2208805541" lon="10.8380000014">
		<tag k="highway" v="path" />
		<tag k="name" v="Gamle Aumlivegen" />
		<tag k="ssr:stedsnr" v="780904" />
	</node>
	<node id="-353256" lat="62.3064944424" lon="10.8851583415">
		<tag k="highway" v="path" />
		<tag k="name" v="Gamle Månveien" />
		<tag k="ssr:stedsnr" v="415302" />
	</node>
	<node id="-351719" lat="62.1522583323" lon="10.7444444402">
		<tag k="highway" v="path" />
		<tag k="name" v="Gruvveien" />
		<tag k="ssr:stedsnr" v="659048" />
	</node>
	<node id="-353248" lat="62.2181611103" lon="11.0066472223">
		<tag k="highway" v="path" />
		<tag k="name" v="Bergesætervegen" />
		<tag k="ssr:stedsnr" v="415153" />
	</node>
	<node id="-353245" lat="62.3835972225" lon="10.4149972153">
		<tag k="junction" v="yes" />
		<tag k="name" v="Vinkelen" />
		<tag k="place" v="locality" />
		<tag k="ssr:stedsnr" v="414496" />
	</node>
	<node id="-353233" lat="62.3249416627" lon="10.7152888908">
		<tag k="bridge" v="yes" />
		<tag k="layer" v="1" />
		<tag k="name" v="Tverå" />
		<tag k="ssr:stedsnr" v="410380" />
	</node>
	<node id="-352719" lat="62.4103111114" lon="10.396944439">
		<tag k="highway" v="path" />
		<tag k="name" v="Gamle Mosevegen" />
		<tag k="ssr:stedsnr" v="111281" />
	</node>
	<node id="-351692" lat="62.282747224" lon="10.988938889">
		<tag k="highway" v="path" />
		<tag k="name" v="Kjølveien" />
		<tag k="ssr:stedsnr" v="658387" />
	</node>
	<node id="-351687" lat="62.307152778" lon="10.6429805487">
		<tag k="highway" v="path" />
		<tag k="name" v="Almannveien" />
		<tag k="ssr:stedsnr" v="658183" />
	</node>
	<node id="-351171" lat="62.2379333341" lon="10.9753472166">
		<tag k="fixme" v="consider highway=path" />
		<tag k="highway" v="track" />
		<tag k="name" v="Måssåveien" />
		<tag k="ssr:stedsnr" v="113321" />
	</node>
	<node id="-351169" lat="62.2526527796" lon="10.5954916611">
		<tag k="highway" v="path" />
		<tag k="name" v="Gamle almannvegen" />
		<tag k="ssr:stedsnr" v="113232" />
	</node>
	<node id="-352189" lat="62.2807211337" lon="10.7715338762">
		<tag k="alt_name" v="Ny Tynset bru" />
		<tag k="bridge" v="yes" />
		<tag k="layer" v="1" />
		<tag k="name" v="Tynset bru" />
		<tag k="ssr:stedsnr" v="774661" />
	</node>
	<node id="-352188" lat="62.3420111137" lon="10.8767666719">
		<tag k="bridge" v="yes" />
		<tag k="layer" v="1" />
		<tag k="name" v="Storbekken bru" />
		<tag k="ssr:stedsnr" v="774270" />
	</node>
	<node id="-352187" lat="62.1925750015" lon="10.9863972167">
		<tag k="bridge" v="yes" />
		<tag k="layer" v="1" />
		<tag k="name" v="Storbekken" />
		<tag k="ssr:stedsnr" v="774264" />
	</node>
	<node id="-352186" lat="62.1620027758" lon="10.7768555482">
		<tag k="bridge" v="yes" />
		<tag k="layer" v="1" />
		<tag k="name" v="Grøtå bru" />
		<tag k="ssr:stedsnr" v="774262" />
	</node>
	<node id="-352876" lat="62.3041361083" lon="10.913405546">
>>>>>>> e1d4bc35ff8a6074a6f2e91616a996b547c36f15
		<tag k="highway" v="path" />
		<tag k="name" v="Gamle Fløtningsveien" />
		<tag k="ssr:stedsnr" v="51503" />
	</node>
<<<<<<< HEAD
	<node lat="62.278630554139795" lon="10.946219447655364" id="-30818">
		<tag k="highway" v="path" />
		<tag k="name" v="Dalsliveien" />
		<tag k="ssr:stedsnr" v="51520" />
	</node>
	<node lat="62.5215805530049" lon="10.378452771130396" id="-30819">
=======
	<node id="-353715" lat="62.308638889" lon="10.8777666634">
		<tag k="highway" v="path" />
		<tag k="name" v="Tobotnflatveien" />
		<tag k="ssr:stedsnr" v="779292" />
	</node>
	<node id="-352413" lat="62.2711638877" lon="10.8475138835">
		<tag k="highway" v="path" />
		<tag k="name" v="Østre Kvolvveien" />
		<tag k="ssr:stedsnr" v="902314" />
	</node>
	<node id="-352167" lat="62.0980583349" lon="10.8767611041">
		<tag k="ford" v="yes" />
		<tag k="name" v="Vintervadet" />
		<tag k="place" v="locality" />
		<tag k="ssr:stedsnr" v="902431" />
	</node>
	<node id="-353701" lat="62.5543111082" lon="10.276255555">
		<tag k="fixme" v="consider highway=path" />
		<tag k="highway" v="track" />
		<tag k="name" v="Litlinnsjøveien" />
		<tag k="ssr:stedsnr" v="778043" />
	</node>
	<node id="-351385" lat="62.3637472239" lon="10.6119638894">
		<tag k="bridge" v="yes" />
		<tag k="layer" v="1" />
		<tag k="name" v="Tunnfoss bru" />
		<tag k="ssr:stedsnr" v="289370" />
	</node>
	<node id="-353166" lat="62.2570861114" lon="10.8246277827">
		<tag k="highway" v="path" />
		<tag k="name" v="Midtmåsåveien" />
		<tag k="ssr:stedsnr" v="355943" />
	</node>
	<node id="-353165" lat="62.2099111106" lon="10.8062888824">
		<tag k="highway" v="path" />
		<tag k="name" v="Langsætervegen" />
		<tag k="ssr:stedsnr" v="355932" />
	</node>
	<node id="-352139" lat="62.2984000025" lon="10.921408329">
		<tag k="highway" v="path" />
		<tag k="name" v="Knausveien" />
		<tag k="ssr:stedsnr" v="901265" />
	</node>
	<node id="-351626" lat="62.2761166623" lon="10.8480555524">
		<tag k="highway" v="path" />
		<tag k="name" v="Dalsveien" />
		<tag k="ssr:stedsnr" v="417308" />
	</node>
	<node id="-351625" lat="62.2782055584" lon="10.8689027826">
		<tag k="alt_name" v="Gamle Hobdsæterveien" />
		<tag k="highway" v="path" />
		<tag k="name" v="Gamle Hopsæterveien" />
		<tag k="ssr:stedsnr" v="417307" />
	</node>
	<node id="-353156" lat="62.161983334" lon="10.7513000032">
		<tag k="highway" v="path" />
		<tag k="name" v="Gruvveien" />
		<tag k="ssr:stedsnr" v="355821" />
	</node>
	<node id="-351295" lat="62.5522888912" lon="10.4033111051">
		<tag k="fixme" v="consider highway=path" />
		<tag k="highway" v="track" />
		<tag k="name" v="Gruvfjellveien" />
		<tag k="ssr:stedsnr" v="294209" />
	</node>
	<node id="-351602" lat="62.3264416676" lon="10.8182888909">
		<tag k="fixme" v="consider highway=path" />
		<tag k="highway" v="track" />
		<tag k="name" v="Såttåvegen" />
		<tag k="ssr:stedsnr" v="416110" />
	</node>
	<node id="-353134" lat="62.2661833317" lon="10.9780472147">
		<tag k="highway" v="path" />
		<tag k="name" v="Klettveien" />
		<tag k="ssr:stedsnr" v="355343" />
	</node>
	<node id="-352595" lat="62.521580553" lon="10.3784527711">
>>>>>>> e1d4bc35ff8a6074a6f2e91616a996b547c36f15
		<tag k="landuse" v="industrial" />
		<tag k="name" v="Eidsfossen kraftstasjon" />
		<tag k="power" v="plant" />
		<tag k="ssr:stedsnr" v="51819" />
	</node>
<<<<<<< HEAD
	<node lat="62.410311111447065" lon="10.396944438993772" id="-30900">
		<tag k="highway" v="path" />
		<tag k="name" v="Gamle Mosevegen" />
		<tag k="ssr:stedsnr" v="111281" />
	</node>
	<node lat="62.43584999846816" lon="10.45810277430831" id="-30922">
		<tag k="highway" v="path" />
		<tag k="name" v="Tunndalsvegen" />
		<tag k="ssr:stedsnr" v="112976" />
	</node>
	<node lat="62.23793333410114" lon="10.975347216605396" id="-30924">
		<tag k="fixme" v="consider highway=path" />
		<tag k="highway" v="track" />
		<tag k="name" v="Måssåveien" />
		<tag k="ssr:stedsnr" v="113321" />
	</node>
	<node lat="62.25265277958314" lon="10.595491661073355" id="-30927">
		<tag k="highway" v="path" />
		<tag k="name" v="Gamle almannvegen" />
		<tag k="ssr:stedsnr" v="113232" />
	</node>
	<node lat="62.36908611051923" lon="10.804100001637927" id="-31016">
		<tag k="highway" v="path" />
		<tag k="name" v="Gamle allmannvegen" />
		<tag k="ssr:stedsnr" v="145678" />
	</node>
	<node lat="62.30042777429881" lon="10.673394441281895" id="-31087">
=======
	<node id="-352593" lat="62.5091055579" lon="10.1864027781">
		<tag k="highway" v="path" />
		<tag k="name" v="Dølvadveien" />
		<tag k="ssr:stedsnr" v="51814" />
	</node>
	<node id="-352141" lat="62.3083249999" lon="10.9015749936">
		<tag k="highway" v="path" />
		<tag k="name" v="Øvre Svartmorkveien" />
		<tag k="ssr:stedsnr" v="901272" />
	</node>
	<node id="-353095" lat="62.3233527757" lon="10.9501416731">
		<tag k="highway" v="path" />
		<tag k="name" v="Kølvegen" />
		<tag k="ssr:stedsnr" v="354324" />
	</node>
	<node id="-352582" lat="62.3022805527" lon="10.8765777844">
		<tag k="highway" v="path" />
		<tag k="name" v="Bergevangsveien" />
		<tag k="ssr:stedsnr" v="51335" />
	</node>
	<node id="-353087" lat="62.2143722239" lon="10.989794435">
		<tag k="name" v="Mosevelta" />
		<tag k="place" v="locality" />
		<tag k="ssr:stedsnr" v="354172" />
	</node>
	<node id="-352571" lat="62.3391694402" lon="10.8749333308">
		<tag k="bridge" v="yes" />
		<tag k="layer" v="1" />
		<tag k="name" v="Taraldsbekk bru" />
		<tag k="ssr:stedsnr" v="46388" />
	</node>
	<node id="-352570" lat="62.363474997" lon="10.6315138839">
		<tag k="bridge" v="yes" />
		<tag k="layer" v="1" />
		<tag k="name" v="Vangbekken bru" />
		<tag k="ssr:stedsnr" v="46381" />
	</node>
	<node id="-352569" lat="62.5482694405" lon="10.3483333318">
		<tag k="bridge" v="yes" />
		<tag k="layer" v="1" />
		<tag k="name" v="Fugleåsbekk bru" />
		<tag k="ssr:stedsnr" v="46264" />
	</node>
	<node id="-351032" lat="62.2786305541" lon="10.9462194477">
>>>>>>> e1d4bc35ff8a6074a6f2e91616a996b547c36f15
		<tag k="highway" v="path" />
		<tag k="name" v="Gamle almannveien" />
		<tag k="ssr:stedsnr" v="234130" />
	</node>
<<<<<<< HEAD
	<node lat="62.20554166856352" lon="10.994847226051107" id="-31149">
=======
	<node id="-351031" lat="62.2580388883" lon="10.8949250052">
>>>>>>> e1d4bc35ff8a6074a6f2e91616a996b547c36f15
		<tag k="highway" v="path" />
		<tag k="name" v="Dalavegen" />
		<tag k="ssr:stedsnr" v="294119" />
	</node>
<<<<<<< HEAD
	<node lat="62.55228889122345" lon="10.403311105147" id="-31150">
=======
	<node id="-353078" lat="62.5505222208" lon="10.2789944504">
>>>>>>> e1d4bc35ff8a6074a6f2e91616a996b547c36f15
		<tag k="fixme" v="consider highway=path" />
		<tag k="highway" v="track" />
		<tag k="name" v="Gruvfjellveien" />
		<tag k="ssr:stedsnr" v="294209" />
	</node>
<<<<<<< HEAD
	<node lat="62.34239166327303" lon="10.62346944387277" id="-31151">
		<tag k="highway" v="path" />
		<tag k="name" v="Gamle Kongsvegen" />
		<tag k="ssr:stedsnr" v="294331" />
	</node>
	<node lat="62.19867221949006" lon="10.858394441975726" id="-31172">
		<tag k="highway" v="path" />
		<tag k="name" v="Kasttjønnveien" />
		<tag k="ssr:stedsnr" v="295509" />
	</node>
	<node lat="62.344913890605284" lon="10.90011666452033" id="-31204">
=======
	<node id="-353075" lat="62.2821444466" lon="10.7696750091">
		<tag k="bridge" v="yes" />
		<tag k="layer" v="1" />
		<tag k="name" v="Tynset flomløp" />
		<tag k="ssr:stedsnr" v="349429" />
	</node>
	<node id="-353074" lat="62.531649999" lon="10.3605277747">
>>>>>>> e1d4bc35ff8a6074a6f2e91616a996b547c36f15
		<tag k="bridge" v="yes" />
		<tag k="layer" v="1" />
		<tag k="name" v="Store Tela bru" />
		<tag k="ssr:stedsnr" v="471241" />
	</node>
<<<<<<< HEAD
	<node lat="62.32335277566527" lon="10.95014167305766" id="-31211">
		<tag k="highway" v="path" />
		<tag k="name" v="Kølvegen" />
		<tag k="ssr:stedsnr" v="354324" />
	</node>
	<node lat="62.21355277375933" lon="10.939508340494555" id="-31260">
=======
	<node id="-351012" lat="62.2736888866" lon="10.981963887">
		<tag k="highway" v="path" />
		<tag k="name" v="Vesleklettveien" />
		<tag k="ssr:stedsnr" v="234356" />
	</node>
	<node id="-352033" lat="62.1849916648" lon="10.7722527847">
>>>>>>> e1d4bc35ff8a6074a6f2e91616a996b547c36f15
		<tag k="highway" v="path" />
		<tag k="name" v="Finstadvegen" />
		<tag k="ssr:stedsnr" v="476048" />
	</node>
<<<<<<< HEAD
	<node lat="62.30807500027784" lon="10.912294446014569" id="-31263">
=======
	<node id="-351006" lat="62.3004277743" lon="10.6733944413">
>>>>>>> e1d4bc35ff8a6074a6f2e91616a996b547c36f15
		<tag k="highway" v="path" />
		<tag k="name" v="Tolgerøstveien" />
		<tag k="ssr:stedsnr" v="476307" />
	</node>
	<node lat="62.2708444412733" lon="10.955250009094764" id="-31277">
		<tag k="fixme" v="consider highway=path" />
		<tag k="highway" v="track" />
		<tag k="name" v="Sødalsveien" />
		<tag k="ssr:stedsnr" v="476458" />
	</node>
<<<<<<< HEAD
	<node lat="62.15315555777962" lon="10.933761115947567" id="-31297">
		<tag k="fixme" v="consider highway=path" />
		<tag k="highway" v="track" />
		<tag k="name" v="Dalsveien" />
		<tag k="ssr:stedsnr" v="477513" />
	</node>
	<node lat="62.22823333688502" lon="10.722908340767747" id="-31301">
=======
	<node id="-351504" lat="62.2282333369" lon="10.7229083408">
>>>>>>> e1d4bc35ff8a6074a6f2e91616a996b547c36f15
		<tag k="fixme" v="consider highway=path" />
		<tag k="highway" v="track" />
		<tag k="name" v="Røsteggsætervegen" />
		<tag k="ssr:stedsnr" v="477990" />
	</node>
<<<<<<< HEAD
	<node lat="62.383597222541944" lon="10.414997215324686" id="-31339">
		<tag k="junction" v="yes" />
		<tag k="name" v="Vinkelen" />
		<tag k="place" v="locality" />
		<tag k="ssr:stedsnr" v="414496" />
	</node>
	<node lat="62.30649444243748" lon="10.885158341475822" id="-31340">
=======
	<node id="-353542" lat="62.2536861127" lon="10.7975388863">
>>>>>>> e1d4bc35ff8a6074a6f2e91616a996b547c36f15
		<tag k="highway" v="path" />
		<tag k="name" v="Gamle Månveien" />
		<tag k="ssr:stedsnr" v="415302" />
	</node>
<<<<<<< HEAD
	<node lat="62.27820555837156" lon="10.868902782552595" id="-31369">
		<tag k="alt_name" v="Gamle Hobdsæterveien" />
=======
	<node id="-351490" lat="62.2521361116" lon="10.7722694354">
>>>>>>> e1d4bc35ff8a6074a6f2e91616a996b547c36f15
		<tag k="highway" v="path" />
		<tag k="name" v="Gamle Hopsæterveien" />
		<tag k="ssr:stedsnr" v="417307" />
	</node>
	<node lat="62.27611666229881" lon="10.848055552434554" id="-31370">
		<tag k="highway" v="path" />
		<tag k="name" v="Dalsveien" />
		<tag k="ssr:stedsnr" v="417308" />
	</node>
<<<<<<< HEAD
	<node lat="62.42275833653515" lon="10.40159166753578" id="-31429">
=======
	<node id="-351488" lat="62.4227583365" lon="10.4015916675">
>>>>>>> e1d4bc35ff8a6074a6f2e91616a996b547c36f15
		<tag k="highway" v="path" />
		<tag k="name" v="Gamle kongsvegen" />
		<tag k="ssr:stedsnr" v="476971" />
	</node>
<<<<<<< HEAD
	<node lat="62.25213611164546" lon="10.772269435408205" id="-31432">
=======
	<node id="-354042" lat="62.2747241868" lon="10.7763474411">
		<tag k="name" v="Tynset stasjon" />
		<tag k="railway" v="station" />
		<tag k="ssr:stedsnr" v="990092" />
		<tag k="train" v="yes" />
	</node>
	<node id="-353526" lat="62.2751472218" lon="10.9534916698">
		<tag k="fixme" v="consider highway=path" />
		<tag k="highway" v="track" />
		<tag k="name" v="Gammeldalsveien" />
		<tag k="ssr:stedsnr" v="597464" />
	</node>
	<node id="-351473" lat="62.3080750003" lon="10.912294446">
>>>>>>> e1d4bc35ff8a6074a6f2e91616a996b547c36f15
		<tag k="highway" v="path" />
		<tag k="name" v="Såttåveien" />
		<tag k="ssr:stedsnr" v="477015" />
	</node>
<<<<<<< HEAD
	<node lat="62.290944440287646" lon="10.333025002118996" id="-31434">
		<tag k="ford" v="yes" />
		<tag k="name" v="Folldalsvadet" />
		<tag k="place" v="locality" />
		<tag k="ssr:stedsnr" v="477114" />
	</node>
	<node lat="62.304080557901074" lon="10.906947213934144" id="-31529">
=======
	<node id="-350953" lat="62.3763194469" lon="10.5139999945">
		<tag k="bridge" v="yes" />
		<tag k="layer" v="1" />
		<tag k="name" v="Nordre Skårsbekk" />
		<tag k="ssr:stedsnr" v="228246" />
	</node>
	<node id="-354019" lat="62.1630055575" lon="10.7571916646">
>>>>>>> e1d4bc35ff8a6074a6f2e91616a996b547c36f15
		<tag k="ford" v="yes" />
		<tag k="name" v="Ørdet" />
		<tag k="place" v="locality" />
		<tag k="ssr:stedsnr" v="536316" />
	</node>
<<<<<<< HEAD
	<node lat="62.49027500161184" lon="10.191705562358626" id="-31530">
=======
	<node id="-351452" lat="62.2135527738" lon="10.9395083405">
>>>>>>> e1d4bc35ff8a6074a6f2e91616a996b547c36f15
		<tag k="highway" v="path" />
		<tag k="name" v="Støsæterveien" />
		<tag k="ssr:stedsnr" v="536703" />
	</node>
<<<<<<< HEAD
	<node lat="62.251505555122925" lon="10.698699998961223" id="-31543">
=======
	<node id="-352036" lat="62.2616333346" lon="10.8162333306">
		<tag k="highway" v="path" />
		<tag k="name" v="Østrabbveien" />
		<tag k="ssr:stedsnr" v="658930" />
	</node>
	<node id="-351954" lat="62.3804583336" lon="10.4166916626">
>>>>>>> e1d4bc35ff8a6074a6f2e91616a996b547c36f15
		<tag k="fixme" v="consider highway=path" />
		<tag k="highway" v="track" />
		<tag k="name" v="Røsteggsæterveien" />
		<tag k="ssr:stedsnr" v="537206" />
	</node>
	<node lat="62.2785666689517" lon="10.804894446533089" id="-31578">
		<tag k="bridge" v="yes" />
		<tag k="layer" v="1" />
		<tag k="name" v="Søndre Hugu" />
		<tag k="ssr:stedsnr" v="592402" />
	</node>
<<<<<<< HEAD
	<node lat="62.30715277804244" lon="10.642980548690868" id="-31669">
=======
	<node id="-351947" lat="62.2792916653" lon="10.9741527704">
>>>>>>> e1d4bc35ff8a6074a6f2e91616a996b547c36f15
		<tag k="highway" v="path" />
		<tag k="name" v="Almannveien" />
		<tag k="ssr:stedsnr" v="658183" />
	</node>
<<<<<<< HEAD
	<node lat="62.282747224007515" lon="10.988938888985427" id="-31676">
=======
	<node id="-351945" lat="62.3003083354" lon="10.874080565">
>>>>>>> e1d4bc35ff8a6074a6f2e91616a996b547c36f15
		<tag k="highway" v="path" />
		<tag k="name" v="Kjølveien" />
		<tag k="ssr:stedsnr" v="658387" />
	</node>
<<<<<<< HEAD
	<node lat="62.18499166475835" lon="10.772252784719894" id="-31685">
=======
	<node id="-351944" lat="62.3035722225" lon="10.8678527727">
>>>>>>> e1d4bc35ff8a6074a6f2e91616a996b547c36f15
		<tag k="highway" v="path" />
		<tag k="name" v="Haugvegen" />
		<tag k="ssr:stedsnr" v="658913" />
	</node>
	<node lat="62.26163333459208" lon="10.816233330555624" id="-31688">
		<tag k="highway" v="path" />
		<tag k="name" v="Østrabbveien" />
		<tag k="ssr:stedsnr" v="658930" />
	</node>
<<<<<<< HEAD
	<node lat="62.307600002222465" lon="10.890930561606694" id="-31763">
=======
	<node id="-351943" lat="62.3076000022" lon="10.8909305616">
>>>>>>> e1d4bc35ff8a6074a6f2e91616a996b547c36f15
		<tag k="highway" v="path" />
		<tag k="name" v="Nedre Svartmorkveien" />
		<tag k="ssr:stedsnr" v="719289" />
	</node>
<<<<<<< HEAD
	<node lat="62.303572222502424" lon="10.867852772727957" id="-31764">
		<tag k="highway" v="path" />
		<tag k="name" v="Bergefotveien" />
		<tag k="ssr:stedsnr" v="719291" />
	</node>
	<node lat="62.38045833359088" lon="10.416691662648693" id="-31767">
=======
	<node id="-352448" lat="62.2583277742" lon="10.6741527796">
		<tag k="aeroway" v="airstrip" />
		<tag k="name" v="Tynset flyplass" />
		<tag k="ssr:stedsnr" v="961211" />
	</node>
	<node id="-351933" lat="62.3566333324" lon="10.6393166722">
>>>>>>> e1d4bc35ff8a6074a6f2e91616a996b547c36f15
		<tag k="fixme" v="consider highway=path" />
		<tag k="highway" v="track" />
		<tag k="name" v="Gamle Sparsjøvollvegen" />
		<tag k="ssr:stedsnr" v="719451" />
	</node>
<<<<<<< HEAD
	<node lat="62.09805833490121" lon="10.876761104100304" id="-31843">
		<tag k="ford" v="yes" />
		<tag k="name" v="Vintervadet" />
		<tag k="place" v="locality" />
		<tag k="ssr:stedsnr" v="902431" />
	</node>
	<node lat="62.16200277575014" lon="10.776855548216917" id="-31882">
		<tag k="bridge" v="yes" />
		<tag k="layer" v="1" />
		<tag k="name" v="Grøtå bru" />
		<tag k="ssr:stedsnr" v="774262" />
	</node>
	<node lat="62.19257500149649" lon="10.986397216722033" id="-31883">
		<tag k="bridge" v="yes" />
		<tag k="layer" v="1" />
		<tag k="name" v="Storbekken" />
		<tag k="ssr:stedsnr" v="774264" />
	</node>
	<node lat="62.34201111366457" lon="10.876766671873076" id="-31884">
		<tag k="bridge" v="yes" />
		<tag k="layer" v="1" />
		<tag k="name" v="Storbekken bru" />
		<tag k="ssr:stedsnr" v="774270" />
	</node>
	<node lat="62.280721133716085" lon="10.77153387615215" id="-31885">
		<tag k="alt_name" v="Ny Tynset bru" />
		<tag k="bridge" v="yes" />
		<tag k="layer" v="1" />
		<tag k="name" v="Tynset bru" />
		<tag k="ssr:stedsnr" v="774661" />
	</node>
	<node lat="62.22088055411468" lon="10.83800000137027" id="-31923">
		<tag k="highway" v="path" />
		<tag k="name" v="Gamle Aumlivegen" />
		<tag k="ssr:stedsnr" v="780904" />
	</node>
	<node lat="62.22706944059445" lon="10.78672500140016" id="-31929">
		<tag k="highway" v="path" />
		<tag k="name" v="Granholtvegen" />
		<tag k="ssr:stedsnr" v="781957" />
	</node>
	<node lat="62.43952499791465" lon="10.195449998050705" id="-32057">
=======
	<node id="-353963" lat="62.2600805601" lon="10.6711499914">
		<tag k="bridge" v="yes" />
		<tag k="layer" v="1" />
		<tag k="name" v="Fåa" />
		<tag k="ssr:stedsnr" v="957255" />
	</node>
	<node id="-353961" lat="62.2674444457" lon="10.3568138833">
		<tag k="fixme" v="consider highway=path" />
		<tag k="highway" v="track" />
		<tag k="name" v="Rødalsvegen" />
		<tag k="ssr:stedsnr" v="870328" />
	</node>
	<node id="-351392" lat="62.3449138906" lon="10.9001166645">
		<tag k="bridge" v="yes" />
		<tag k="layer" v="1" />
		<tag k="name" v="Store Tela bru" />
		<tag k="ssr:stedsnr" v="471241" />
	</node>
	<node id="-352415" lat="62.1123611111" lon="10.8757611179">
		<tag k="ford" v="yes" />
		<tag k="name" v="Rokkhusvadet" />
		<tag k="place" v="locality" />
		<tag k="ssr:stedsnr" v="902504" />
	</node>
	<node id="-351389" lat="62.2481583358" lon="10.9347555628">
		<tag k="highway" v="path" />
		<tag k="name" v="Ørdveien" />
		<tag k="ssr:stedsnr" v="294472" />
	</node>
	<node id="-351897" lat="62.278566669" lon="10.8048944465">
		<tag k="bridge" v="yes" />
		<tag k="layer" v="1" />
		<tag k="name" v="Søndre Hugu" />
		<tag k="ssr:stedsnr" v="592402" />
	</node>
	<node id="-353430" lat="62.2287749991" lon="10.8176666636">
		<tag k="highway" v="path" />
		<tag k="name" v="Trolløypa" />
		<tag k="ssr:stedsnr" v="538949" />
	</node>
	<node id="-352908" lat="62.3323638919" lon="10.765611105">
		<tag k="highway" v="path" />
		<tag k="name" v="Stenvegen" />
		<tag k="ssr:stedsnr" v="173094" />
	</node>
	<node id="-352394" lat="62.3819972255" lon="10.6112027726">
		<tag k="ford" v="yes" />
		<tag k="name" v="Sætervadet" />
		<tag k="place" v="locality" />
		<tag k="ssr:stedsnr" v="901011" />
	</node>
	<node id="-353417" lat="62.1537638908" lon="10.8369583253">
		<tag k="highway" v="path" />
		<tag k="name" v="Brønnåstien" />
		<tag k="ssr:stedsnr" v="537834" />
	</node>
	<node id="-352392" lat="62.2624138902" lon="10.7535166619">
		<tag k="highway" v="path" />
		<tag k="name" v="Gamle allmannveien" />
		<tag k="ssr:stedsnr" v="901003" />
	</node>
	<node id="-351879" lat="62.2207872878" lon="10.6586845571">
		<tag k="name" v="Auma stasjon" />
		<tag k="railway" v="station" />
		<tag k="ssr:stedsnr" v="557076" />
		<tag k="train" v="yes" />
	</node>
	<node id="-352368" lat="62.4395249979" lon="10.1954499981">
>>>>>>> e1d4bc35ff8a6074a6f2e91616a996b547c36f15
		<tag k="highway" v="path" />
		<tag k="name" v="Støsætervegen" />
		<tag k="ssr:stedsnr" v="861705" />
	</node>
<<<<<<< HEAD
	<node lat="62.262413890164616" lon="10.753516661934466" id="-32083">
=======
	<node id="-353903" lat="62.242919447" lon="10.8225805565">
		<tag k="highway" v="path" />
		<tag k="name" v="Storstenvegen" />
		<tag k="ssr:stedsnr" v="842950" />
	</node>
	<node id="-351854" lat="62.4559305516" lon="10.3788194462">
>>>>>>> e1d4bc35ff8a6074a6f2e91616a996b547c36f15
		<tag k="highway" v="path" />
		<tag k="name" v="Gamle allmannveien" />
		<tag k="ssr:stedsnr" v="901003" />
	</node>
<<<<<<< HEAD
	<node lat="62.38199722552165" lon="10.611202772628852" id="-32085">
=======
	<node id="-353388" lat="62.3896111152" lon="10.6175555479">
>>>>>>> e1d4bc35ff8a6074a6f2e91616a996b547c36f15
		<tag k="ford" v="yes" />
		<tag k="name" v="Sætervadet" />
		<tag k="place" v="locality" />
<<<<<<< HEAD
		<tag k="ssr:stedsnr" v="901011" />
	</node>
	<node lat="62.29840000253885" lon="10.92140832896263" id="-32090">
=======
		<tag k="ssr:stedsnr" v="537029" />
	</node>
	<node id="-351336" lat="62.1986722195" lon="10.858394442">
>>>>>>> e1d4bc35ff8a6074a6f2e91616a996b547c36f15
		<tag k="highway" v="path" />
		<tag k="name" v="Knausveien" />
		<tag k="ssr:stedsnr" v="901265" />
	</node>
<<<<<<< HEAD
	<node lat="62.30832499993785" lon="10.901574993570577" id="-32092">
=======
	<node id="-353382" lat="62.4902750016" lon="10.1917055624">
>>>>>>> e1d4bc35ff8a6074a6f2e91616a996b547c36f15
		<tag k="highway" v="path" />
		<tag k="name" v="Øvre Svartmorkveien" />
		<tag k="ssr:stedsnr" v="901272" />
	</node>
<<<<<<< HEAD
	<node lat="62.27116388771268" lon="10.84751388347204" id="-32108">
		<tag k="highway" v="path" />
		<tag k="name" v="Østre Kvolvveien" />
		<tag k="ssr:stedsnr" v="902314" />
	</node>
	<node lat="62.11236111113269" lon="10.875761117889049" id="-32110">
=======
	<node id="-353892" lat="62.3473777809" lon="10.5775472206">
		<tag k="highway" v="path" />
		<tag k="name" v="Gamle Kongeveg" />
		<tag k="ssr:stedsnr" v="841823" />
	</node>
	<node id="-351843" lat="62.2515055551" lon="10.698699999">
		<tag k="fixme" v="consider highway=path" />
		<tag k="highway" v="track" />
		<tag k="name" v="Røsteggsæterveien" />
		<tag k="ssr:stedsnr" v="537206" />
	</node>
	<node id="-353376" lat="62.3040805579" lon="10.9069472139">
>>>>>>> e1d4bc35ff8a6074a6f2e91616a996b547c36f15
		<tag k="ford" v="yes" />
		<tag k="name" v="Rokkhusvadet" />
		<tag k="place" v="locality" />
<<<<<<< HEAD
		<tag k="ssr:stedsnr" v="902504" />
	</node>
	<node lat="62.25832777415563" lon="10.674152779604636" id="-32155">
		<tag k="aeroway" v="airstrip" />
		<tag k="name" v="Tynset flyplass" />
		<tag k="ssr:stedsnr" v="961211" />
	</node>
	<node lat="62.163005557511454" lon="10.757191664596041" id="-32194">
		<tag k="ford" v="yes" />
		<tag k="name" v="Grøtåvadet" />
		<tag k="place" v="locality" />
		<tag k="ssr:stedsnr" v="962837" />
	</node>
	<node lat="62.363474996962395" lon="10.63151388393109" id="-32267">
		<tag k="bridge" v="yes" />
		<tag k="layer" v="1" />
		<tag k="name" v="Vangbekken bru" />
		<tag k="ssr:stedsnr" v="46381" />
	</node>
	<node lat="62.33916944023279" lon="10.874933330802685" id="-32268">
=======
		<tag k="ssr:stedsnr" v="536316" />
	</node>
	<node id="-352854" lat="62.3690861105" lon="10.8041000016">
		<tag k="highway" v="path" />
		<tag k="name" v="Gamle allmannvegen" />
		<tag k="ssr:stedsnr" v="145678" />
	</node>
	<node id="-351297" lat="62.3423916633" lon="10.6234694439">
		<tag k="highway" v="path" />
		<tag k="name" v="Gamle Kongsvegen" />
		<tag k="ssr:stedsnr" v="294331" />
	</node>
	<node id="-353855" lat="62.4141444412" lon="10.4135499978">
		<tag k="bridge" v="yes" />
		<tag k="layer" v="1" />
		<tag k="name" v="Halstjern bru" />
		<tag k="ssr:stedsnr" v="835250" />
	</node>
	<node id="-351285" lat="62.2055416686" lon="10.9948472261">
		<tag k="highway" v="path" />
		<tag k="name" v="Dalavegen" />
		<tag k="ssr:stedsnr" v="294119" />
	</node>
	<node id="-352298" lat="62.3908833344" lon="10.4618500069">
>>>>>>> e1d4bc35ff8a6074a6f2e91616a996b547c36f15
		<tag k="bridge" v="yes" />
		<tag k="layer" v="1" />
		<tag k="name" v="Taraldsbekk bru" />
		<tag k="ssr:stedsnr" v="46388" />
	</node>
<<<<<<< HEAD
	<node lat="62.54826944046801" lon="10.348333331753945" id="-32269">
		<tag k="bridge" v="yes" />
		<tag k="layer" v="1" />
		<tag k="name" v="Fugleåsbekk bru" />
		<tag k="ssr:stedsnr" v="46264" />
	</node>
	<node lat="62.3022805527302" lon="10.876577784434625" id="-32286">
		<tag k="highway" v="path" />
		<tag k="name" v="Bergevangsveien" />
		<tag k="ssr:stedsnr" v="51335" />
	</node>
	<node lat="62.50910555790965" lon="10.186402778130276" id="-32293">
		<tag k="highway" v="path" />
		<tag k="name" v="Dølvadveien" />
		<tag k="ssr:stedsnr" v="51814" />
	</node>
	<node lat="62.111944440213556" lon="10.835438888869882" id="-32418">
		<tag k="highway" v="path" />
		<tag k="name" v="Gamle Rivlivegen" />
		<tag k="ssr:stedsnr" v="112650" />
	</node>
	<node lat="62.109005560056126" lon="10.76251110336364" id="-32420">
		<tag k="highway" v="path" />
		<tag k="name" v="Måssåveien" />
		<tag k="ssr:stedsnr" v="112667" />
	</node>
	<node lat="62.25230278192209" lon="10.897086119261186" id="-32433">
=======
	<node id="-352297" lat="62.2875666639" lon="10.8392944425">
		<tag k="bridge" v="yes" />
		<tag k="layer" v="1" />
		<tag k="name" v="Nordre Hugu bru" />
		<tag k="ssr:stedsnr" v="835253" />
	</node>
	<node id="-353304" lat="62.2538361145" lon="10.7837027687">
		<tag k="highway" v="path" />
		<tag k="name" v="Skarveien" />
		<tag k="ssr:stedsnr" v="416939" />
	</node>
	<node id="-352785" lat="62.2523027819" lon="10.8970861193">
>>>>>>> e1d4bc35ff8a6074a6f2e91616a996b547c36f15
		<tag k="highway" v="path" />
		<tag k="name" v="Gamle Brydalsveien" />
		<tag k="ssr:stedsnr" v="113418" />
	</node>
<<<<<<< HEAD
	<node lat="62.30413610830753" lon="10.913405545987922" id="-32521">
		<tag k="highway" v="path" />
		<tag k="name" v="Lokkingsveien" />
		<tag k="ssr:stedsnr" v="172328" />
	</node>
	<node lat="62.33236389185174" lon="10.765611104975275" id="-32546">
		<tag k="highway" v="path" />
		<tag k="name" v="Stenvegen" />
		<tag k="ssr:stedsnr" v="173094" />
	</node>
	<node lat="62.37631944685253" lon="10.513999994492846" id="-32688">
		<tag k="bridge" v="yes" />
		<tag k="layer" v="1" />
		<tag k="name" v="Nordre Skårsbekk" />
		<tag k="ssr:stedsnr" v="228246" />
	</node>
	<node lat="62.36374722393711" lon="10.611963889403869" id="-32690">
		<tag k="bridge" v="yes" />
		<tag k="layer" v="1" />
		<tag k="name" v="Tunnfoss bru" />
		<tag k="ssr:stedsnr" v="289370" />
	</node>
	<node lat="62.24815833577412" lon="10.934755562764714" id="-32728">
		<tag k="highway" v="path" />
		<tag k="name" v="Ørdveien" />
		<tag k="ssr:stedsnr" v="294472" />
	</node>
	<node lat="62.531649998997594" lon="10.360527774702607" id="-32792">
		<tag k="bridge" v="yes" />
		<tag k="layer" v="1" />
		<tag k="name" v="Hyllbekken" />
		<tag k="ssr:stedsnr" v="349282" />
	</node>
	<node lat="62.28214444659074" lon="10.769675009069228" id="-32793">
		<tag k="bridge" v="yes" />
		<tag k="layer" v="1" />
		<tag k="name" v="Tynset flomløp" />
		<tag k="ssr:stedsnr" v="349429" />
	</node>
	<node lat="62.55052222082902" lon="10.278994450379761" id="-32798">
		<tag k="fixme" v="consider highway=path" />
		<tag k="highway" v="track" />
		<tag k="name" v="Storinnsjøveien" />
		<tag k="ssr:stedsnr" v="353041" />
	</node>
	<node lat="62.214372223870434" lon="10.989794435000606" id="-32805">
		<tag k="name" v="Mosevelta" />
		<tag k="place" v="locality" />
		<tag k="ssr:stedsnr" v="354172" />
	</node>
	<node lat="62.26618333165981" lon="10.978047214743906" id="-32834">
		<tag k="highway" v="path" />
		<tag k="name" v="Klettveien" />
		<tag k="ssr:stedsnr" v="355343" />
	</node>
	<node lat="62.161983333989035" lon="10.751300003196137" id="-32847">
		<tag k="highway" v="path" />
		<tag k="name" v="Gruvveien" />
		<tag k="ssr:stedsnr" v="355821" />
	</node>
	<node lat="62.20991111059919" lon="10.806288882382688" id="-32855">
		<tag k="highway" v="path" />
		<tag k="name" v="Langsætervegen" />
		<tag k="ssr:stedsnr" v="355932" />
	</node>
	<node lat="62.25708611140026" lon="10.824627782715213" id="-32860">
		<tag k="highway" v="path" />
		<tag k="name" v="Midtmåsåveien" />
		<tag k="ssr:stedsnr" v="355943" />
=======
	<node id="-351758" lat="62.1531555578" lon="10.9337611159">
		<tag k="fixme" v="consider highway=path" />
		<tag k="highway" v="track" />
		<tag k="name" v="Dalsveien" />
		<tag k="ssr:stedsnr" v="477513" />
	</node>
	<node id="-351754" lat="62.2909444403" lon="10.3330250021">
		<tag k="ford" v="yes" />
		<tag k="name" v="Folldalsvadet" />
		<tag k="place" v="locality" />
		<tag k="ssr:stedsnr" v="477114" />
	</node>
	<node id="-351745" lat="62.2708444413" lon="10.9552500091">
		<tag k="fixme" v="consider highway=path" />
		<tag k="highway" v="track" />
		<tag k="name" v="Sødalsveien" />
		<tag k="ssr:stedsnr" v="476458" />
>>>>>>> e1d4bc35ff8a6074a6f2e91616a996b547c36f15
	</node>
</osm>
