<?xml version="1.0" encoding="UTF-8"?>
<osm version="0.6" generator="osmapis">
	<node lat="62.20731389026164" lon="10.819105555178494" id="-31582">
		<tag k="name" v="Langsæterbekken" />
		<tag k="ssr:stedsnr" v="10238" />
		<tag k="waterway" v="stream" />
	</node>
	<node lat="61.96328888670919" lon="10.977361104766306" id="-31583">
		<tag k="alt_name" v="Gammelsæteråa" />
		<tag k="name" v="Tysla" />
		<tag k="ssr:stedsnr" v="10312" />
		<tag k="waterway" v="river" />
	</node>
	<node lat="62.62740277801079" lon="10.637527770886225" id="-31587">
		<tag k="alt_name" v="Tjuvholtjørn" />
		<tag k="loc_name" v="Tjuvholttjørna" />
		<tag k="name" v="Tjuvholdtjørna" />
		<tag k="natural" v="water" />
		<tag k="ssr:stedsnr" v="11103" />
	</node>
	<node lat="62.24323333264442" lon="10.726055550311134" id="-31595">
		<tag k="name" v="Flobekken" />
		<tag k="ssr:stedsnr" v="11191" />
		<tag k="waterway" v="stream" />
	</node>
	<node lat="62.58794721889339" lon="10.323333325310825" id="-31601">
		<tag k="name" v="Fallet" />
		<tag k="natural" v="waterfall" />
		<tag k="ssr:stedsnr" v="232011" />
	</node>
	<node lat="62.582955553938994" lon="10.294991664568151" id="-31602">
		<tag k="name" v="Mussubekken" />
		<tag k="ssr:stedsnr" v="232016" />
		<tag k="waterway" v="stream" />
	</node>
	<node lat="62.40068333484019" lon="10.658536106949285" id="-31605">
		<tag k="name" v="Svartåsbekken" />
		<tag k="ssr:stedsnr" v="12806" />
		<tag k="waterway" v="stream" />
	</node>
	<node lat="62.39952500170951" lon="10.482616667042846" id="-31608">
		<tag k="alt_name" v="Håen" />
		<tag k="name" v="Håa" />
		<tag k="natural" v="water" />
		<tag k="ssr:stedsnr" v="12778" />
	</node>
	<node lat="62.38654444215314" lon="10.35177500243598" id="-31609">
		<tag k="alt_name" v="Koiehaugtjørnan" />
		<tag k="name" v="Kojehaugtjønnan" />
		<tag k="natural" v="water" />
		<tag k="ssr:stedsnr" v="12793" />
		<tag k="water" v="lake" />
	</node>
	<node lat="62.41607777735746" lon="10.404002787240035" id="-31610">
		<tag k="name" v="Svarttjønna" />
		<tag k="natural" v="water" />
		<tag k="ssr:stedsnr" v="232270" />
	</node>
	<node lat="62.53653055150271" lon="10.357708338615888" id="-31611">
		<tag k="name" v="Olkarfossen" />
		<tag k="natural" v="waterfall" />
		<tag k="ssr:stedsnr" v="232655" />
	</node>
	<node lat="62.52490000205893" lon="10.389308326950399" id="-31612">
		<tag k="name" v="Grytkroken" />
		<tag k="place" v="locality" />
		<tag k="ssr:stedsnr" v="232660" />
	</node>
	<node lat="62.370377779407214" lon="10.655197224491255" id="-31616">
		<tag k="name" v="Lonfossen" />
		<tag k="natural" v="waterfall" />
		<tag k="ssr:stedsnr" v="233034" />
	</node>
	<node lat="62.35315555146441" lon="10.74571667604649" id="-31618">
		<tag k="name" v="Vesle-Tverråa" />
		<tag k="ssr:stedsnr" v="233144" />
		<tag k="waterway" v="stream" />
	</node>
	<node lat="62.602402781200674" lon="10.434316667526222" id="-31620">
		<tag k="name" v="Sandbekken" />
		<tag k="ssr:stedsnr" v="233197" />
		<tag k="waterway" v="stream" />
	</node>
	<node lat="62.3209138859538" lon="10.529686112871254" id="-31636">
		<tag k="name" v="Øykjeklettjønnbekken" />
		<tag k="ssr:stedsnr" v="233851" />
		<tag k="waterway" v="stream" />
	</node>
	<node lat="62.309666666719814" lon="10.491888892105152" id="-31637">
		<tag k="name" v="Gjøstjønnbekken" />
		<tag k="ssr:stedsnr" v="233853" />
		<tag k="waterway" v="stream" />
	</node>
	<node lat="62.3495777812682" lon="10.487666666031016" id="-31638">
		<tag k="name" v="Svarttjønnbekken" />
		<tag k="ssr:stedsnr" v="233855" />
		<tag k="waterway" v="stream" />
	</node>
	<node lat="62.31480833479703" lon="10.571705546994473" id="-31640">
		<tag k="name" v="Stenbekken" />
		<tag k="ssr:stedsnr" v="233858" />
		<tag k="waterway" v="stream" />
	</node>
	<node lat="62.582374999780505" lon="10.109744436926539" id="-31642">
		<tag k="name" v="Storbekken" />
		<tag k="ssr:stedsnr" v="233871" />
		<tag k="waterway" v="stream" />
	</node>
	<node lat="62.27628055220424" lon="11.000916669335805" id="-31656">
		<tag k="name" v="Portan" />
		<tag k="place" v="locality" />
		<tag k="ssr:stedsnr" v="234358" />
	</node>
	<node lat="62.14515277990859" lon="10.908719445995857" id="-31660">
		<tag k="name" v="Taterbekken" />
		<tag k="ssr:stedsnr" v="234467" />
		<tag k="waterway" v="stream" />
	</node>
	<node lat="62.68742499615765" lon="10.162091672387595" id="-31664">
		<tag k="alt_name" v="Ølvatnet;Ulvatnet" />
		<tag k="name" v="Ulvvatnet" />
		<tag k="natural" v="water" />
		<tag k="ssr:stedsnr" v="28279" />
		<tag k="water" v="lake" />
	</node>
	<node lat="62.65629166598831" lon="10.331847219921684" id="-31666">
		<tag k="name" v="Sandfjellbekken" />
		<tag k="ssr:stedsnr" v="28510" />
		<tag k="waterway" v="stream" />
	</node>
	<node lat="62.11658333702917" lon="10.808405565097898" id="-31667">
		<tag k="name" v="Kvernbekken" />
		<tag k="ssr:stedsnr" v="234767" />
		<tag k="waterway" v="stream" />
	</node>
	<node lat="62.16644722418188" lon="10.766830558022196" id="-31668">
		<tag k="name" v="Styggdalsbekken" />
		<tag k="ssr:stedsnr" v="234864" />
		<tag k="waterway" v="stream" />
	</node>
	<node lat="62.55253888893782" lon="10.300888880810284" id="-31672">
		<tag k="name" v="Sagbekken" />
		<tag k="ssr:stedsnr" v="50027" />
		<tag k="waterway" v="stream" />
	</node>
	<node lat="62.48250277507367" lon="10.296483326989982" id="-31673">
		<tag k="name" v="Brentløbekken" />
		<tag k="ssr:stedsnr" v="51122" />
		<tag k="waterway" v="stream" />
	</node>
	<node lat="62.60356110767569" lon="10.421336102512816" id="-31674">
		<tag k="name" v="Storodden" />
		<tag k="natural" v="cape" />
		<tag k="ssr:stedsnr" v="51185" />
	</node>
	<node lat="62.51706388745661" lon="10.380641657041409" id="-31678">
		<tag k="name" v="Eidsfossen" />
		<tag k="natural" v="waterfall" />
		<tag k="ssr:stedsnr" v="51820" />
	</node>
	<node lat="62.27621388940159" lon="10.754802784873567" id="-31683">
		<tag k="name" v="Svensktjønna" />
		<tag k="natural" v="water" />
		<tag k="ssr:stedsnr" v="52023" />
	</node>
	<node lat="62.481613885975655" lon="10.40384999306258" id="-31687">
		<tag k="name" v="Kvennbekken" />
		<tag k="ssr:stedsnr" v="51788" />
		<tag k="waterway" v="stream" />
	</node>
	<node lat="62.6200638883774" lon="10.216491662864916" id="-31688">
		<tag k="name" v="Djupdalsbekken" />
		<tag k="ssr:stedsnr" v="51909" />
		<tag k="waterway" v="stream" />
	</node>
	<node lat="62.417561112013125" lon="10.412772219456755" id="-31689">
		<tag k="name" v="Søndre Halstjønna" />
		<tag k="natural" v="water" />
		<tag k="ssr:stedsnr" v="51969" />
	</node>
	<node lat="62.31744722459694" lon="10.621044452421662" id="-31694">
		<tag k="name" v="Maurvangtjønna" />
		<tag k="natural" v="water" />
		<tag k="ssr:stedsnr" v="52172" />
	</node>
	<node lat="62.236063892053444" lon="10.741716665100444" id="-31710">
		<tag k="name" v="Vestsætertjønna" />
		<tag k="natural" v="water" />
		<tag k="ssr:stedsnr" v="52980" />
	</node>
	<node lat="62.0779529515369" lon="10.906640640907895" id="-31727">
		<tag k="name" v="Rokktjørnan" />
		<tag k="natural" v="water" />
		<tag k="ssr:stedsnr" v="72019" />
		<tag k="water" v="lake" />
	</node>
	<node lat="62.22356666237467" lon="10.709000004382013" id="-31729">
		<tag k="alt_name" v="Riptjørna" />
		<tag k="name" v="Riptjønna" />
		<tag k="natural" v="water" />
		<tag k="ssr:stedsnr" v="72069" />
	</node>
	<node lat="62.158513886900494" lon="10.874250008233055" id="-31738">
		<tag k="alt_name" v="Steinbotntjørna" />
		<tag k="name" v="Stenbotntjønna" />
		<tag k="natural" v="water" />
		<tag k="ssr:stedsnr" v="72167" />
	</node>
	<node lat="62.48983332907404" lon="10.289122229161608" id="-31741">
		<tag k="name" v="Stillbekken" />
		<tag k="ssr:stedsnr" v="72622" />
		<tag k="waterway" v="stream" />
	</node>
	<node lat="62.48601388463733" lon="10.251677784259435" id="-31742">
		<tag k="name" v="Sløbekken" />
		<tag k="ssr:stedsnr" v="72623" />
		<tag k="waterway" v="stream" />
	</node>
	<node lat="62.402422219062686" lon="10.387302780447568" id="-31745">
		<tag k="alt_name" v="Kuverdbekken" />
		<tag k="name" v="Kuvlbekken" />
		<tag k="ssr:stedsnr" v="72765" />
		<tag k="waterway" v="stream" />
	</node>
	<node lat="62.280686114732326" lon="10.371441667146133" id="-31749">
		<tag k="name" v="Storbekken" />
		<tag k="ssr:stedsnr" v="72882" />
		<tag k="waterway" v="stream" />
	</node>
	<node lat="62.33740833008094" lon="10.581050003070176" id="-31753">
		<tag k="alt_name" v="Langtjørnbekken" />
		<tag k="name" v="Langtjønnbekken" />
		<tag k="ssr:stedsnr" v="72968" />
		<tag k="waterway" v="stream" />
	</node>
	<node lat="62.574661107034984" lon="10.26867499177882" id="-31756">
		<tag k="name" v="Liabekken" />
		<tag k="ssr:stedsnr" v="111020" />
		<tag k="waterway" v="stream" />
	</node>
	<node lat="62.337455557681295" lon="10.668375000667945" id="-31764">
		<tag k="name" v="Skruvåsbekken" />
		<tag k="natural" v="water" />
		<tag k="ssr:stedsnr" v="112080" />
	</node>
	<node lat="62.177908331475564" lon="11.077066664758743" id="-31786">
		<tag k="name" v="Storfloen" />
		<tag k="place" v="locality" />
		<tag k="ssr:stedsnr" v="113238" />
	</node>
	<node lat="62.25914167026744" lon="10.780000004551388" id="-31792">
		<tag k="name" v="Gobekkbassenget" />
		<tag k="ssr:stedsnr" v="113942" />
		<tag k="waterway" v="dam" />
	</node>
	<node lat="62.61964999887622" lon="10.121055562369303" id="-31805">
		<tag k="name" v="Langtjørna" />
		<tag k="natural" v="water" />
		<tag k="ssr:stedsnr" v="132429" />
	</node>
	<node lat="62.592894447883374" lon="10.18628332760763" id="-31812">
		<tag k="name" v="Stor-Djuptjørna" />
		<tag k="natural" v="water" />
		<tag k="ssr:stedsnr" v="133410" />
	</node>
	<node lat="62.233644340747546" lon="10.659897473399244" id="-31816">
		<tag k="name" v="Åbbortjørnan" />
		<tag k="natural" v="water" />
		<tag k="ssr:stedsnr" v="253084" />
		<tag k="water" v="lake" />
	</node>
	<node lat="62.0871499969845" lon="10.886930549024427" id="-31821">
		<tag k="name" v="Storbekken" />
		<tag k="ssr:stedsnr" v="253097" />
		<tag k="waterway" v="stream" />
	</node>
	<node lat="62.11181111340151" lon="10.938400007782962" id="-31824">
		<tag k="alt_name" v="Kvannskardtjern, s" />
		<tag k="name" v="Søndre Kvanntjønna" />
		<tag k="natural" v="water" />
		<tag k="ssr:stedsnr" v="253066" />
	</node>
	<node lat="62.170275004228735" lon="10.903650008295703" id="-31827">
		<tag k="alt_name" v="Svarthammerlitjønna" />
		<tag k="name" v="Svarthammerlitjørnan" />
		<tag k="natural" v="water" />
		<tag k="ssr:stedsnr" v="253163" />
		<tag k="water" v="lake" />
	</node>
	<node lat="62.19529166869846" lon="10.778230553962441" id="-31829">
		<tag k="name" v="Jønnbekken" />
		<tag k="ssr:stedsnr" v="253283" />
		<tag k="waterway" v="stream" />
	</node>
	<node lat="62.52211426548959" lon="10.23441999678272" id="-31835">
		<tag k="alt_name" v="Innsjøen, store;Storinnsjøen" />
		<tag k="name" v="Stor-Innsjøen" />
		<tag k="natural" v="water" />
		<tag k="ssr:stedsnr" v="254048" />
		<tag k="water" v="lake" />
	</node>
	<node lat="62.6020055577552" lon="10.328830551533253" id="-31836">
		<tag k="name" v="Sverja" />
		<tag k="ssr:stedsnr" v="254072" />
		<tag k="waterway" v="stream" />
	</node>
	<node lat="62.58877499722405" lon="10.614644446355387" id="-31839">
		<tag k="alt_name" v="Nordtjørn" />
		<tag k="name" v="Nordtjørna" />
		<tag k="natural" v="water" />
		<tag k="ssr:stedsnr" v="254081" />
	</node>
	<node lat="62.592233337318575" lon="10.591052769868107" id="-31840">
		<tag k="name" v="Holbekken" />
		<tag k="ssr:stedsnr" v="254084" />
		<tag k="waterway" v="stream" />
	</node>
	<node lat="62.62917778126778" lon="10.327886102651618" id="-31841">
		<tag k="alt_name" v="Sverjesjøen, store" />
		<tag k="name" v="Stor-Sverjesjøen" />
		<tag k="natural" v="water" />
		<tag k="ssr:stedsnr" v="254087" />
		<tag k="water" v="lake" />
	</node>
	<node lat="62.62748888711016" lon="10.413833327290167" id="-31842">
		<tag k="alt_name" v="Garåa;Galåa" />
		<tag k="name" v="Gardåa" />
		<tag k="ssr:stedsnr" v="254091" />
		<tag k="waterway" v="stream" />
	</node>
	<node lat="62.61375833081907" lon="10.3107250064896" id="-31843">
		<tag k="alt_name" v="Mosetjørn;Måssåtjønna" />
		<tag k="name" v="Måsåtjørna" />
		<tag k="natural" v="water" />
		<tag k="ssr:stedsnr" v="254095" />
	</node>
	<node lat="62.62970277641637" lon="10.450769442333915" id="-31844">
		<tag k="alt_name" v="Langvatn, øvre" />
		<tag k="name" v="Øvre Langvatnet" />
		<tag k="natural" v="water" />
		<tag k="ssr:stedsnr" v="254096" />
	</node>
	<node lat="62.66644166638234" lon="10.402219443040586" id="-31852">
		<tag k="alt_name" v="Litl-Hiåsjøen" />
		<tag k="name" v="Litlhiåsjøen" />
		<tag k="natural" v="water" />
		<tag k="old_name" v="Hiåsjøen, l" />
		<tag k="ssr:stedsnr" v="254363" />
		<tag k="water" v="lake" />
	</node>
	<node lat="62.59883888818895" lon="10.188911114257229" id="-31853">
		<tag k="alt_name" v="Reinstjørna, store" />
		<tag k="name" v="Stor-Reinstjørna" />
		<tag k="natural" v="water" />
		<tag k="ssr:stedsnr" v="254430" />
	</node>
	<node lat="62.40700555517772" lon="10.478111105368509" id="-31862">
		<tag k="name" v="Børstusjøen" />
		<tag k="natural" v="water" />
		<tag k="ssr:stedsnr" v="254790" />
		<tag k="water" v="lake" />
	</node>
	<node lat="62.26910555679772" lon="10.605094445768296" id="-31863">
		<tag k="name" v="Storbekken" />
		<tag k="ssr:stedsnr" v="254870" />
		<tag k="waterway" v="stream" />
	</node>
	<node lat="62.27224444829118" lon="10.34500832708094" id="-31864">
		<tag k="name" v="Marsjøåa" />
		<tag k="ssr:stedsnr" v="254875" />
		<tag k="waterway" v="river" />
	</node>
	<node lat="62.466558329684055" lon="10.376894435470497" id="-31870">
		<tag k="name" v="Orkelkroken" />
		<tag k="place" v="locality" />
		<tag k="ssr:stedsnr" v="254861" />
	</node>
	<node lat="62.55831388610548" lon="10.520238880317772" id="-31875">
		<tag k="alt_name" v="Innerbekken" />
		<tag k="name" v="Indre Plassæterbekken" />
		<tag k="ssr:stedsnr" v="149504" />
		<tag k="waterway" v="stream" />
	</node>
	<node lat="62.58141666577133" lon="10.343811110518267" id="-31876">
		<tag k="name" v="Kvennbekken" />
		<tag k="ssr:stedsnr" v="172021" />
		<tag k="waterway" v="stream" />
	</node>
	<node lat="62.56390555134493" lon="10.334777777764302" id="-31877">
		<tag k="name" v="Retøyan" />
		<tag k="place" v="islet" />
		<tag k="ssr:stedsnr" v="172055" />
	</node>
	<node lat="62.487277778752826" lon="10.324577768645664" id="-31883">
		<tag k="name" v="Annikabekken" />
		<tag k="ssr:stedsnr" v="172117" />
		<tag k="waterway" v="stream" />
	</node>
	<node lat="62.088883336086596" lon="10.90950277470863" id="-31885">
		<tag k="name" v="Gammelvangbekken" />
		<tag k="ssr:stedsnr" v="172410" />
		<tag k="waterway" v="stream" />
	</node>
	<node lat="62.478944447175444" lon="10.347413891701965" id="-31886">
		<tag k="name" v="Lerbekken" />
		<tag k="ssr:stedsnr" v="172807" />
		<tag k="waterway" v="stream" />
	</node>
	<node lat="62.46699722162108" lon="10.403830564052665" id="-31888">
		<tag k="name" v="Odden" />
		<tag k="natural" v="cape" />
		<tag k="ssr:stedsnr" v="172809" />
	</node>
	<node lat="62.524958334742266" lon="10.37348056206878" id="-31890">
		<tag k="name" v="Grytodden" />
		<tag k="natural" v="cape" />
		<tag k="ssr:stedsnr" v="172756" />
	</node>
	<node lat="62.52746388731254" lon="10.392758335066656" id="-31891">
		<tag k="name" v="Sagengbekkene" />
		<tag k="ssr:stedsnr" v="172761" />
		<tag k="waterway" v="stream" />
	</node>
	<node lat="62.62097222027032" lon="10.224852774183097" id="-31894">
		<tag k="name" v="Djupdalsbekken" />
		<tag k="ssr:stedsnr" v="172964" />
		<tag k="waterway" v="stream" />
	</node>
	<node lat="62.63013611257044" lon="10.225927777452327" id="-31896">
		<tag k="name" v="Bjørtjernet" />
		<tag k="natural" v="water" />
		<tag k="ssr:stedsnr" v="172968" />
	</node>
	<node lat="62.27936666244258" lon="10.503849991307307" id="-31903">
		<tag k="name" v="Hesthovtjønna" />
		<tag k="natural" v="water" />
		<tag k="ssr:stedsnr" v="173468" />
	</node>
	<node lat="62.15641944612076" lon="10.882583325408836" id="-31910">
		<tag k="name" v="Fisktjønnbekken" />
		<tag k="ssr:stedsnr" v="174523" />
		<tag k="waterway" v="stream" />
	</node>
	<node lat="62.23742222577595" lon="10.572749995918837" id="-31913">
		<tag k="name" v="Vangbekken" />
		<tag k="ssr:stedsnr" v="263340" />
		<tag k="waterway" v="stream" />
	</node>
	<node lat="62.53815000451755" lon="10.110355555117595" id="-31915">
		<tag k="name" v="Svartbekken" />
		<tag k="ssr:stedsnr" v="210410" />
		<tag k="waterway" v="stream" />
	</node>
	<node lat="62.57436388595998" lon="10.515252776099622" id="-31923">
		<tag k="name" v="Slipstensbekken" />
		<tag k="ssr:stedsnr" v="232815" />
		<tag k="waterway" v="stream" />
	</node>
	<node lat="62.35577499694492" lon="10.629083342296004" id="-31926">
		<tag k="name" v="Fossbekken" />
		<tag k="ssr:stedsnr" v="233105" />
		<tag k="waterway" v="stream" />
	</node>
	<node lat="62.32815000349154" lon="10.749013890250858" id="-31930">
		<tag k="name" v="Rødstenbekken" />
		<tag k="ssr:stedsnr" v="233133" />
		<tag k="waterway" v="stream" />
	</node>
	<node lat="62.26046667006908" lon="10.687972214384773" id="-31934">
		<tag k="name" v="Kvernstø" />
		<tag k="natural" v="beach" />
		<tag k="ssr:stedsnr" v="233234" />
	</node>
	<node lat="62.635222222374864" lon="10.215122224127276" id="-31936">
		<tag k="name" v="Liatjønna" />
		<tag k="natural" v="water" />
		<tag k="ssr:stedsnr" v="233911" />
	</node>
	<node lat="62.4532055575701" lon="10.391269453946798" id="-31944">
		<tag k="name" v="Damtjønna" />
		<tag k="natural" v="water" />
		<tag k="ssr:stedsnr" v="233978" />
	</node>
	<node lat="62.15211944579874" lon="11.035544441207923" id="-31948">
		<tag k="name" v="Storodden" />
		<tag k="natural" v="cape" />
		<tag k="ssr:stedsnr" v="234236" />
	</node>
	<node lat="62.086486110491236" lon="10.808825006632084" id="-31953">
		<tag k="alt_name" v="Hårsetbekken" />
		<tag k="name" v="Holsetbekken" />
		<tag k="ssr:stedsnr" v="253105" />
		<tag k="waterway" v="stream" />
	</node>
	<node lat="62.094091667503456" lon="10.804624990698578" id="-31954">
		<tag k="name" v="Vangbekken" />
		<tag k="ssr:stedsnr" v="253124" />
		<tag k="waterway" v="stream" />
	</node>
	<node lat="62.12330277637344" lon="10.889924995148608" id="-31956">
		<tag k="alt_name" v="Rivtjørna, s" />
		<tag k="name" v="Søndre Rivtjønna" />
		<tag k="natural" v="water" />
		<tag k="ssr:stedsnr" v="253077" />
	</node>
	<node lat="62.3526194473238" lon="10.836325007568057" id="-31962">
		<tag k="name" v="Storbekken" />
		<tag k="ssr:stedsnr" v="254182" />
		<tag k="waterway" v="stream" />
	</node>
	<node lat="62.6380888881935" lon="10.731983341189757" id="-31963">
		<tag k="name" v="Tverrfjellbekken" />
		<tag k="ssr:stedsnr" v="254183" />
		<tag k="waterway" v="stream" />
	</node>
	<node lat="62.3570750024539" lon="10.762641667321198" id="-31964">
		<tag k="alt_name" v="Kutjørna" />
		<tag k="name" v="Kutjønna" />
		<tag k="natural" v="water" />
		<tag k="ssr:stedsnr" v="254185" />
	</node>
	<node lat="62.69558055905198" lon="10.216461109563273" id="-31971">
		<tag k="name" v="Storbekken" />
		<tag k="ssr:stedsnr" v="254285" />
		<tag k="waterway" v="stream" />
	</node>
	<node lat="62.60552499943959" lon="10.08976112070142" id="-31973">
		<tag k="name" v="Skjeftlibekken" />
		<tag k="ssr:stedsnr" v="254407" />
		<tag k="waterway" v="stream" />
	</node>
	<node lat="62.613144448960966" lon="10.143008326022667" id="-31974">
		<tag k="name" v="Litltjørna" />
		<tag k="natural" v="water" />
		<tag k="ssr:stedsnr" v="254417" />
	</node>
	<node lat="62.527836108634524" lon="10.099513881261412" id="-31975">
		<tag k="name" v="Elsåa" />
		<tag k="ssr:stedsnr" v="254385" />
		<tag k="waterway" v="river" />
	</node>
	<node lat="62.44538888468967" lon="10.539113883818862" id="-31977">
		<tag k="alt_name" v="Otjørna" />
		<tag k="name" v="Otjønna" />
		<tag k="place" v="locality" />
		<tag k="ssr:stedsnr" v="254812" />
	</node>
	<node lat="62.43650278059049" lon="10.231900003211779" id="-31978">
		<tag k="name" v="Veslburu" />
		<tag k="ssr:stedsnr" v="254815" />
		<tag k="waterway" v="stream" />
	</node>
	<node lat="62.42851944696593" lon="10.571425004619348" id="-31979">
		<tag k="alt_name" v="Rytjørna" />
		<tag k="name" v="Rytjønna" />
		<tag k="natural" v="water" />
		<tag k="ssr:stedsnr" v="254826" />
	</node>
	<node lat="62.33341944033175" lon="10.633336116596777" id="-31986">
		<tag k="alt_name" v="Karivangtjønna" />
		<tag k="name" v="Karivangtjørna" />
		<tag k="natural" v="water" />
		<tag k="ssr:stedsnr" v="254939" />
	</node>
	<node lat="62.361430554652586" lon="10.711119435946546" id="-31988">
		<tag k="alt_name" v="Høgåstjern" />
		<tag k="name" v="Høgåstjønna" />
		<tag k="natural" v="water" />
		<tag k="ssr:stedsnr" v="254980" />
	</node>
	<node lat="62.60340000241087" lon="10.501894447413992" id="-31990">
		<tag k="name" v="Klettbekken" />
		<tag k="ssr:stedsnr" v="271570" />
		<tag k="waterway" v="stream" />
	</node>
	<node lat="62.26531389319022" lon="10.748416666269058" id="-31996">
		<tag k="name" v="Sagdammen" />
		<tag k="ssr:stedsnr" v="294007" />
		<tag k="waterway" v="dam" />
	</node>
	<node lat="62.26701111109318" lon="10.749688889516413" id="-31999">
		<tag k="name" v="Kvernbekken" />
		<tag k="ssr:stedsnr" v="294028" />
		<tag k="waterway" v="stream" />
	</node>
	<node lat="62.33796666402453" lon="10.775230559128238" id="-32001">
		<tag k="name" v="Diplan" />
		<tag k="natural" v="water" />
		<tag k="ssr:stedsnr" v="294102" />
	</node>
	<node lat="62.310019444953014" lon="10.536694441517618" id="-32011">
		<tag k="name" v="Savalbekken" />
		<tag k="ssr:stedsnr" v="294824" />
		<tag k="waterway" v="stream" />
	</node>
	<node lat="62.19757643153038" lon="10.764783442699722" id="-32014">
		<tag k="name" v="Vesle Tronsjøen" />
		<tag k="natural" v="water" />
		<tag k="ssr:stedsnr" v="294917" />
		<tag k="water" v="lake" />
	</node>
	<node lat="62.66896944265651" lon="10.206038879126021" id="-32016">
		<tag k="name" v="Rundtjønna" />
		<tag k="natural" v="water" />
		<tag k="ssr:stedsnr" v="294881" />
	</node>
	<node lat="62.42433333152618" lon="10.45023054639071" id="-32017">
		<tag k="name" v="Krokvangbekken" />
		<tag k="ssr:stedsnr" v="294984" />
		<tag k="waterway" v="stream" />
	</node>
	<node lat="62.17255833628694" lon="10.989366664931149" id="-32020">
		<tag k="name" v="Jammerdalsbekken" />
		<tag k="ssr:stedsnr" v="295137" />
		<tag k="waterway" v="stream" />
	</node>
	<node lat="62.18901388495139" lon="10.896199995059991" id="-32037">
		<tag k="alt_name" v="Svarttjørna" />
		<tag k="name" v="Svarttjønna" />
		<tag k="natural" v="water" />
		<tag k="ssr:stedsnr" v="314262" />
	</node>
	<node lat="62.09536944516494" lon="10.942155560684686" id="-32038">
		<tag k="name" v="Risbekken" />
		<tag k="ssr:stedsnr" v="314106" />
		<tag k="waterway" v="stream" />
	</node>
	<node lat="62.18360277858708" lon="11.041949993195388" id="-32041">
		<tag k="name" v="Gammelvangbekken" />
		<tag k="ssr:stedsnr" v="314161" />
		<tag k="waterway" v="stream" />
	</node>
	<node lat="62.52410555758466" lon="10.400027786296853" id="-32047">
		<tag k="name" v="Gryta" />
		<tag k="ssr:stedsnr" v="315054" />
		<tag k="waterway" v="stream" />
	</node>
	<node lat="62.37525555241669" lon="10.352230547291164" id="-32051">
		<tag k="alt_name" v="Måsåkluet" />
		<tag k="name" v="Måsakluet" />
		<tag k="place" v="locality" />
		<tag k="ssr:stedsnr" v="315762" />
	</node>
	<node lat="62.474705551975326" lon="10.483299998918177" id="-32054">
		<tag k="name" v="Kløftåsbekken" />
		<tag k="ssr:stedsnr" v="315863" />
		<tag k="waterway" v="stream" />
	</node>
	<node lat="62.28723611456254" lon="10.53480833471457" id="-32055">
		<tag k="name" v="Skarvdalsodden" />
		<tag k="natural" v="cape" />
		<tag k="ssr:stedsnr" v="315908" />
	</node>
	<node lat="62.33558333060182" lon="10.558383329439703" id="-32056">
		<tag k="alt_name" v="Tovåstjørna" />
		<tag k="name" v="Tovåstjønna" />
		<tag k="natural" v="water" />
		<tag k="ssr:stedsnr" v="315958" />
	</node>
	<node lat="62.33106666272671" lon="10.524283336034625" id="-32057">
		<tag k="alt_name" v="Midttjørna" />
		<tag k="name" v="Midttjønna" />
		<tag k="natural" v="water" />
		<tag k="ssr:stedsnr" v="315960" />
	</node>
	<node lat="62.343802781476725" lon="10.364625004349897" id="-32058">
		<tag k="name" v="Nørdstetjørna" />
		<tag k="natural" v="water" />
		<tag k="ssr:stedsnr" v="315963" />
	</node>
	<node lat="62.344425003863996" lon="10.513200001435774" id="-32059">
		<tag k="alt_name" v="Froståltjørna" />
		<tag k="name" v="Froståltjønna" />
		<tag k="natural" v="water" />
		<tag k="ssr:stedsnr" v="315965" />
	</node>
	<node lat="62.68395278146279" lon="10.2524138958827" id="-32060">
		<tag k="name" v="Falkbekken" />
		<tag k="ssr:stedsnr" v="331491" />
		<tag k="waterway" v="stream" />
	</node>
	<node lat="62.586749998212134" lon="10.338080564924894" id="-32061">
		<tag k="alt_name" v="Svartjønna" />
		<tag k="name" v="Svarttjørna" />
		<tag k="natural" v="water" />
		<tag k="ssr:stedsnr" v="331492" />
	</node>
	<node lat="62.389022224311255" lon="10.669347214451669" id="-32075">
		<tag k="name" v="Svartbergfossen" />
		<tag k="natural" v="waterfall" />
		<tag k="ssr:stedsnr" v="355024" />
	</node>
	<node lat="62.634611110403974" lon="10.290411119230694" id="-32076">
		<tag k="name" v="Frengstadbekken" />
		<tag k="ssr:stedsnr" v="354974" />
		<tag k="waterway" v="stream" />
	</node>
	<node lat="62.430986115047176" lon="10.413563890381065" id="-32077">
		<tag k="name" v="Vesle Blanktjønna" />
		<tag k="natural" v="water" />
		<tag k="ssr:stedsnr" v="354976" />
	</node>
	<node lat="62.132372220668834" lon="10.947377772557564" id="-32082">
		<tag k="name" v="Søndre Damtjønna" />
		<tag k="natural" v="water" />
		<tag k="ssr:stedsnr" v="355427" />
	</node>
	<node lat="62.30485000343005" lon="10.635063883288247" id="-32083">
		<tag k="alt_name" v="Franbekken" />
		<tag k="name" v="Frantjønnbekken" />
		<tag k="ssr:stedsnr" v="355189" />
		<tag k="waterway" v="stream" />
	</node>
	<node lat="62.310541670645875" lon="10.518780552624696" id="-32092">
		<tag k="name" v="Nausterodden" />
		<tag k="natural" v="cape" />
		<tag k="ssr:stedsnr" v="355800" />
	</node>
	<node lat="62.29639166606628" lon="10.330200007501903" id="-32094">
		<tag k="name" v="Rødalselva" />
		<tag k="ssr:stedsnr" v="356115" />
		<tag k="waterway" v="stream" />
	</node>
	<node lat="62.575280555774455" lon="10.430822219995532" id="-32097">
		<tag k="name" v="Kalkbekken" />
		<tag k="ssr:stedsnr" v="475195" />
		<tag k="waterway" v="stream" />
	</node>
	<node lat="62.46114166428049" lon="10.390152783103975" id="-32099">
		<tag k="name" v="Sandmælbekken" />
		<tag k="ssr:stedsnr" v="475764" />
		<tag k="waterway" v="stream" />
	</node>
	<node lat="62.56008611173208" lon="10.501508337653775" id="-32110">
		<tag k="name" v="Midtbekken" />
		<tag k="ssr:stedsnr" v="475850" />
		<tag k="waterway" v="stream" />
	</node>
	<node lat="62.388658333023066" lon="10.69063055616419" id="-32113">
		<tag k="name" v="Håan" />
		<tag k="natural" v="bay" />
		<tag k="ssr:stedsnr" v="476025" />
	</node>
	<node lat="62.31795278207284" lon="10.626055550971305" id="-32119">
		<tag k="name" v="Vesletjønna" />
		<tag k="natural" v="water" />
		<tag k="ssr:stedsnr" v="476182" />
	</node>
	<node lat="62.36922777946117" lon="10.74329444836721" id="-32124">
		<tag k="name" v="Sørstebekken" />
		<tag k="ssr:stedsnr" v="476135" />
		<tag k="waterway" v="stream" />
	</node>
	<node lat="62.29393611557957" lon="10.645636111646201" id="-32126">
		<tag k="name" v="Stormyrbekken" />
		<tag k="ssr:stedsnr" v="476140" />
		<tag k="waterway" v="stream" />
	</node>
	<node lat="62.06269721935246" lon="10.867497229551168" id="-32131">
		<tag k="name" v="Rumpa" />
		<tag k="natural" v="cape" />
		<tag k="ssr:stedsnr" v="476383" />
	</node>
	<node lat="62.301616662824294" lon="10.526666663302771" id="-32142">
		<tag k="name" v="Savalodden" />
		<tag k="natural" v="cape" />
		<tag k="ssr:stedsnr" v="476743" />
	</node>
	<node lat="62.201647224675945" lon="10.728591666910708" id="-32143">
		<tag k="name" v="Vesle Brandvollstjønna" />
		<tag k="natural" v="water" />
		<tag k="ssr:stedsnr" v="476895" />
	</node>
	<node lat="62.20087222245031" lon="10.881188884389472" id="-32156">
		<tag k="name" v="Vesletjønna" />
		<tag k="natural" v="water" />
		<tag k="ssr:stedsnr" v="477525" />
	</node>
	<node lat="62.14251667059941" lon="10.895961108143858" id="-32162">
		<tag k="name" v="Riva" />
		<tag k="ssr:stedsnr" v="375132" />
		<tag k="waterway" v="stream" />
	</node>
	<node lat="62.64923055308898" lon="10.700124997824474" id="-32164">
		<tag k="alt_name" v="Ytjørn, s" />
		<tag k="name" v="Sørytjørna" />
		<tag k="natural" v="water" />
		<tag k="ssr:stedsnr" v="375088" />
	</node>
	<node lat="62.6423333292017" lon="10.279919452883016" id="-32165">
		<tag k="alt_name" v="Nappsjøen, store" />
		<tag k="name" v="Stor-Nappsjøen" />
		<tag k="natural" v="water" />
		<tag k="ssr:stedsnr" v="375089" />
		<tag k="water" v="lake" />
	</node>
	<node lat="62.29368610951244" lon="10.394958332749379" id="-32181">
		<tag k="alt_name" v="Fjelltjønna" />
		<tag k="name" v="Fjelltjørna" />
		<tag k="natural" v="water" />
		<tag k="ssr:stedsnr" v="375906" />
	</node>
	<node lat="62.32030277886399" lon="10.343083333837173" id="-32183">
		<tag k="name" v="Steintjørna" />
		<tag k="natural" v="water" />
		<tag k="ssr:stedsnr" v="375925" />
	</node>
	<node lat="62.35233333183946" lon="10.621380561938834" id="-32192">
		<tag k="alt_name" v="Fosstjørna" />
		<tag k="name" v="Fosstjønna" />
		<tag k="natural" v="water" />
		<tag k="ssr:stedsnr" v="375977" />
	</node>
	<node lat="62.48299444339796" lon="10.391366669187427" id="-32201">
		<tag k="name" v="Odden" />
		<tag k="natural" v="cape" />
		<tag k="ssr:stedsnr" v="415811" />
	</node>
	<node lat="62.49950000140584" lon="10.371722218391962" id="-32205">
		<tag k="name" v="Søndre Lasbekken" />
		<tag k="ssr:stedsnr" v="415822" />
		<tag k="waterway" v="stream" />
	</node>
	<node lat="62.30028888708179" lon="10.595099991053813" id="-32214">
		<tag k="name" v="Gjeltbekken" />
		<tag k="ssr:stedsnr" v="416138" />
		<tag k="waterway" v="stream" />
	</node>
	<node lat="62.04157777789496" lon="10.887272217374395" id="-32217">
		<tag k="name" v="Bellingbekken" />
		<tag k="ssr:stedsnr" v="416616" />
		<tag k="waterway" v="stream" />
	</node>
	<node lat="62.309666664738266" lon="10.521852768048731" id="-32222">
		<tag k="name" v="Savalgrubba" />
		<tag k="natural" v="beach" />
		<tag k="ssr:stedsnr" v="416808" />
	</node>
	<node lat="62.20415630218003" lon="10.76909364403189" id="-32224">
		<tag k="name" v="Tronsjøen" />
		<tag k="natural" v="water" />
		<tag k="ssr:stedsnr" v="416890" />
		<tag k="water" v="lake" />
	</node>
	<node lat="62.232566669496215" lon="10.726388891638052" id="-32226">
		<tag k="name" v="Heggrøstbekken" />
		<tag k="ssr:stedsnr" v="416974" />
		<tag k="waterway" v="stream" />
	</node>
	<node lat="62.12086389062659" lon="10.931861119260018" id="-32232">
		<tag k="alt_name" v="Kvannskardtjern, nordre" />
		<tag k="name" v="Nordre Kvanntjønna" />
		<tag k="natural" v="water" />
		<tag k="ssr:stedsnr" v="435109" />
	</node>
	<node lat="62.1637999981835" lon="10.802283325724058" id="-32236">
		<tag k="alt_name" v="Høllbrøttsåa" />
		<tag k="name" v="Hellbretsåa" />
		<tag k="ssr:stedsnr" v="436122" />
		<tag k="waterway" v="stream" />
	</node>
	<node lat="62.23025278071919" lon="10.881969447730201" id="-32239">
		<tag k="alt_name" v="Veslklettjørna" />
		<tag k="name" v="Vesleklettjønna" />
		<tag k="natural" v="water" />
		<tag k="ssr:stedsnr" v="436181" />
	</node>
	<node lat="62.32938055391537" lon="10.830272212781571" id="-32242">
		<tag k="alt_name" v="Nebybekken" />
		<tag k="name" v="Nedbybekken" />
		<tag k="ssr:stedsnr" v="436220" />
		<tag k="waterway" v="stream" />
	</node>
	<node lat="62.37669166253003" lon="10.317763882176315" id="-32253">
		<tag k="name" v="Veslbekken" />
		<tag k="ssr:stedsnr" v="436714" />
		<tag k="waterway" v="stream" />
	</node>
	<node lat="62.434583333761225" lon="10.123386118527387" id="-32254">
		<tag k="name" v="Låg-Gibekken" />
		<tag k="ssr:stedsnr" v="436718" />
		<tag k="waterway" v="stream" />
	</node>
	<node lat="62.30461389240118" lon="10.54726666437444" id="-32258">
		<tag k="alt_name" v="Kviknedølstjønna" />
		<tag k="name" v="Kvikndølstjørna" />
		<tag k="natural" v="water" />
		<tag k="ssr:stedsnr" v="436916" />
	</node>
	<node lat="62.46513610866193" lon="10.405005553419338" id="-32260">
		<tag k="alt_name" v="Langtjørna, s" />
		<tag k="name" v="Søndre Langtjønna" />
		<tag k="natural" v="water" />
		<tag k="ssr:stedsnr" v="436861" />
	</node>
	<node lat="62.277450004160684" lon="10.49071666584235" id="-32263">
		<tag k="alt_name" v="Belsvik;Belsvika" />
		<tag k="name" v="Bellsvika" />
		<tag k="natural" v="bay" />
		<tag k="ssr:stedsnr" v="437854" />
	</node>
	<node lat="62.593891662278494" lon="10.379105555483886" id="-32265">
		<tag k="name" v="Budalslibekken" />
		<tag k="ssr:stedsnr" v="453511" />
		<tag k="waterway" v="stream" />
	</node>
	<node lat="62.63661111528584" lon="10.370950008065373" id="-32266">
		<tag k="name" v="Sverjesjøhøtjørna" />
		<tag k="natural" v="water" />
		<tag k="ssr:stedsnr" v="453518" />
	</node>
	<node lat="62.52817222138437" lon="10.320383327216808" id="-32267">
		<tag k="name" v="Litl-Svarttjønna" />
		<tag k="natural" v="water" />
		<tag k="ssr:stedsnr" v="475065" />
	</node>
	<node lat="62.54408888794766" lon="10.310724997784298" id="-32268">
		<tag k="name" v="Gjertrudstjønna" />
		<tag k="natural" v="water" />
		<tag k="ssr:stedsnr" v="475068" />
	</node>
	<node lat="62.53302777683482" lon="10.276027784966976" id="-32269">
		<tag k="name" v="Vakkerlibekken" />
		<tag k="ssr:stedsnr" v="475071" />
		<tag k="waterway" v="stream" />
	</node>
	<node lat="62.51913055274889" lon="10.324544449225176" id="-32271">
		<tag k="name" v="Nedre Hyllbekktjønna" />
		<tag k="natural" v="water" />
		<tag k="ssr:stedsnr" v="475119" />
	</node>
	<node lat="62.47967222477123" lon="10.31892222038654" id="-32272">
		<tag k="name" v="Buruodden" />
		<tag k="natural" v="cape" />
		<tag k="ssr:stedsnr" v="475128" />
	</node>
	<node lat="62.5516222197188" lon="10.372450006018159" id="-32273">
		<tag k="name" v="Kirkeskarbekken" />
		<tag k="ssr:stedsnr" v="475211" />
		<tag k="waterway" v="stream" />
	</node>
	<node lat="62.246347218477446" lon="10.713074993498115" id="-32281">
		<tag k="name" v="Øvre Kvernbekken" />
		<tag k="ssr:stedsnr" v="476210" />
		<tag k="waterway" v="stream" />
	</node>
	<node lat="62.63833889027207" lon="10.172980563818834" id="-32284">
		<tag k="name" v="Buskhusbekken" />
		<tag k="ssr:stedsnr" v="476903" />
		<tag k="waterway" v="stream" />
	</node>
	<node lat="62.18025277558614" lon="10.835713885313835" id="-32285">
		<tag k="name" v="Fisktjønna" />
		<tag k="natural" v="water" />
		<tag k="ssr:stedsnr" v="476929" />
	</node>
	<node lat="62.109836108365904" lon="10.777899996679341" id="-32302">
		<tag k="name" v="Skardbekken" />
		<tag k="ssr:stedsnr" v="678073" />
		<tag k="waterway" v="stream" />
	</node>
	<node lat="62.140494445604446" lon="11.032652782328695" id="-32307">
		<tag k="name" v="Midtodden" />
		<tag k="natural" v="cape" />
		<tag k="ssr:stedsnr" v="678171" />
	</node>
	<node lat="62.66483344185004" lon="10.5417214450352" id="-32311">
		<tag k="alt_name" v="Hesttjørna" />
		<tag k="name" v="Hesttjørnan" />
		<tag k="natural" v="water" />
		<tag k="ssr:stedsnr" v="678422" />
		<tag k="water" v="lake" />
	</node>
	<node lat="62.38256389270041" lon="10.463950003036501" id="-32314">
		<tag k="name" v="Sørsjøen" />
		<tag k="natural" v="water" />
		<tag k="ssr:stedsnr" v="678769" />
	</node>
	<node lat="62.47200277479893" lon="10.401738885089745" id="-32316">
		<tag k="alt_name" v="Langtjørna, nordre" />
		<tag k="name" v="Nordre Langtjønna" />
		<tag k="natural" v="water" />
		<tag k="ssr:stedsnr" v="678852" />
	</node>
	<node lat="62.26206388942577" lon="10.497680563541806" id="-32318">
		<tag k="name" v="Hardneset" />
		<tag k="natural" v="cape" />
		<tag k="ssr:stedsnr" v="679010" />
	</node>
	<node lat="62.258663893277195" lon="10.367550007478892" id="-32319">
		<tag k="alt_name" v="Hølbekken" />
		<tag k="name" v="Holbekken" />
		<tag k="ssr:stedsnr" v="679014" />
		<tag k="waterway" v="stream" />
	</node>
	<node lat="62.31709722107742" lon="10.857527782359453" id="-32326">
		<tag k="name" v="Ørka" />
		<tag k="place" v="islet" />
		<tag k="ssr:stedsnr" v="679245" />
	</node>
	<node lat="62.70004444264298" lon="10.160102772214254" id="-32331">
		<tag k="name" v="Nova" />
		<tag k="ssr:stedsnr" v="679267" />
		<tag k="waterway" v="river" />
	</node>
	<node lat="62.658050000915004" lon="10.153675008369001" id="-32332">
		<tag k="name" v="Storbekken" />
		<tag k="ssr:stedsnr" v="679341" />
		<tag k="waterway" v="stream" />
	</node>
	<node lat="62.483930557378685" lon="10.178088893972925" id="-32334">
		<tag k="name" v="Høgflobekken" />
		<tag k="ssr:stedsnr" v="679487" />
		<tag k="waterway" v="stream" />
	</node>
	<node lat="62.37527500024103" lon="10.25061666641742" id="-32336">
		<tag k="name" v="Medhøbekken" />
		<tag k="ssr:stedsnr" v="679737" />
		<tag k="waterway" v="stream" />
	</node>
	<node lat="62.32174444407317" lon="10.63445833500208" id="-32351">
		<tag k="alt_name" v="Frantjørna" />
		<tag k="name" v="Frantjønna" />
		<tag k="natural" v="water" />
		<tag k="ssr:stedsnr" v="679940" />
	</node>
	<node lat="62.10806944411725" lon="10.753936114559504" id="-32354">
		<tag k="alt_name" v="Botnlaustjørna" />
		<tag k="name" v="Botnlaustjønna" />
		<tag k="natural" v="water" />
		<tag k="ssr:stedsnr" v="496062" />
	</node>
	<node lat="62.37639166893371" lon="10.207338891313231" id="-32360">
		<tag k="name" v="Gløta" />
		<tag k="ssr:stedsnr" v="496726" />
		<tag k="waterway" v="river" />
	</node>
	<node lat="62.36588055560081" lon="10.465997223758182" id="-32361">
		<tag k="alt_name" v="Fisktjørna" />
		<tag k="name" v="Fisktjønna" />
		<tag k="natural" v="water" />
		<tag k="ssr:stedsnr" v="496750" />
	</node>
	<node lat="62.37083888480092" lon="10.341075002754936" id="-32363">
		<tag k="name" v="Borbekken" />
		<tag k="ssr:stedsnr" v="496755" />
		<tag k="waterway" v="stream" />
	</node>
	<node lat="62.32531666682019" lon="10.450680563283836" id="-32366">
		<tag k="alt_name" v="Fjelltjørna" />
		<tag k="name" v="Fjelltjønna" />
		<tag k="natural" v="water" />
		<tag k="ssr:stedsnr" v="496955" />
	</node>
	<node lat="62.528074996189986" lon="10.223302774722342" id="-32367">
		<tag k="alt_name" v="Storinna" />
		<tag k="name" v="Inna" />
		<tag k="ssr:stedsnr" v="497047" />
		<tag k="waterway" v="stream" />
	</node>
	<node lat="62.49577308945344" lon="10.408164768679557" id="-32373">
		<tag k="alt_name" v="Kverntjørna" />
		<tag k="name" v="Kverntjønna" />
		<tag k="natural" v="water" />
		<tag k="ssr:stedsnr" v="497625" />
		<tag k="water" v="lake" />
	</node>
	<node lat="62.61750555731256" lon="10.41036666475755" id="-32385">
		<tag k="name" v="Galåsanda" />
		<tag k="natural" v="beach" />
		<tag k="ssr:stedsnr" v="536166" />
	</node>
	<node lat="62.667261112367804" lon="10.163216663306141" id="-32390">
		<tag k="name" v="Sæterbekken" />
		<tag k="ssr:stedsnr" v="536886" />
		<tag k="waterway" v="stream" />
	</node>
	<node lat="62.478374999464364" lon="10.404252782703752" id="-32392">
		<tag k="name" v="Vesleengbekken" />
		<tag k="ssr:stedsnr" v="536780" />
		<tag k="waterway" v="stream" />
	</node>
	<node lat="62.684719445804284" lon="10.194691669715585" id="-32396">
		<tag k="name" v="Stakkodden" />
		<tag k="natural" v="cape" />
		<tag k="ssr:stedsnr" v="536986" />
	</node>
	<node lat="62.36924721913197" lon="10.733383327738265" id="-32399">
		<tag k="name" v="Skarvdalsbekken" />
		<tag k="ssr:stedsnr" v="537118" />
		<tag k="waterway" v="stream" />
	</node>
	<node lat="62.396461114593414" lon="10.591522217986554" id="-32405">
		<tag k="name" v="Hølbekken" />
		<tag k="ssr:stedsnr" v="537612" />
		<tag k="waterway" v="stream" />
	</node>
	<node lat="62.59501666779248" lon="10.07305832994776" id="-32422">
		<tag k="name" v="Nonsbekken" />
		<tag k="ssr:stedsnr" v="557417" />
		<tag k="waterway" v="stream" />
	</node>
	<node lat="62.440283330701526" lon="10.460825005991918" id="-32430">
		<tag k="name" v="Tunna" />
		<tag k="ssr:stedsnr" v="557815" />
		<tag k="waterway" v="river" />
	</node>
	<node lat="62.34264166815443" lon="10.349255553161711" id="-32432">
		<tag k="name" v="Borhaugtjørna" />
		<tag k="natural" v="water" />
		<tag k="ssr:stedsnr" v="557962" />
	</node>
	<node lat="62.317822224532385" lon="10.857158335015502" id="-32457">
		<tag k="name" v="Åkerøyhølen" />
		<tag k="place" v="locality" />
		<tag k="ssr:stedsnr" v="597316" />
	</node>
	<node lat="62.404536106952676" lon="10.590597218163218" id="-32460">
		<tag k="name" v="Kroktjønnodden" />
		<tag k="natural" v="cape" />
		<tag k="ssr:stedsnr" v="597656" />
	</node>
	<node lat="62.12621389141069" lon="10.868280563841141" id="-32473">
		<tag k="name" v="Veslevoltjønna" />
		<tag k="natural" v="water" />
		<tag k="ssr:stedsnr" v="598460" />
	</node>
	<node lat="62.184699999904836" lon="11.148708326401751" id="-32482">
		<tag k="name" v="Svartspeka" />
		<tag k="ssr:stedsnr" v="617184" />
		<tag k="waterway" v="river" />
	</node>
	<node lat="62.575463891626825" lon="10.643838884855702" id="-32487">
		<tag k="name" v="Bratthøbekken" />
		<tag k="natural" v="water" />
		<tag k="ssr:stedsnr" v="618085" />
	</node>
	<node lat="62.585736113965886" lon="10.35446666041302" id="-32489">
		<tag k="name" v="Snarbekken" />
		<tag k="ssr:stedsnr" v="618095" />
		<tag k="waterway" v="stream" />
	</node>
	<node lat="62.30701111062968" lon="10.975477771388423" id="-32493">
		<tag k="name" v="Vangbekken" />
		<tag k="ssr:stedsnr" v="618231" />
		<tag k="waterway" v="stream" />
	</node>
	<node lat="62.337597217851865" lon="10.816616673217874" id="-32498">
		<tag k="name" v="Taraldsbekken" />
		<tag k="ssr:stedsnr" v="618187" />
		<tag k="waterway" v="stream" />
	</node>
	<node lat="62.40835000281853" lon="10.201786116263897" id="-32503">
		<tag k="name" v="Veslbekken" />
		<tag k="ssr:stedsnr" v="618710" />
		<tag k="waterway" v="stream" />
	</node>
	<node lat="62.44011666451559" lon="10.407569440568784" id="-32504">
		<tag k="alt_name" v="Bubakktjørna" />
		<tag k="name" v="Bubakktjønna" />
		<tag k="natural" v="water" />
		<tag k="ssr:stedsnr" v="618803" />
	</node>
	<node lat="62.301758336610135" lon="10.326808339824275" id="-32507">
		<tag k="alt_name" v="Reinstjørna" />
		<tag k="name" v="Reinstjønna" />
		<tag k="natural" v="water" />
		<tag k="ssr:stedsnr" v="618909" />
	</node>
	<node lat="62.68445555169739" lon="10.191241669124153" id="-32520">
		<tag k="name" v="Tjørnodden" />
		<tag k="natural" v="cape" />
		<tag k="ssr:stedsnr" v="657994" />
	</node>
	<node lat="62.289638891923836" lon="10.47049999340867" id="-32537">
		<tag k="name" v="Brentmobekken" />
		<tag k="ssr:stedsnr" v="658784" />
		<tag k="waterway" v="stream" />
	</node>
	<node lat="62.18767500003293" lon="10.770183324349759" id="-32542">
		<tag k="name" v="Tvibotntjønna" />
		<tag k="natural" v="water" />
		<tag k="ssr:stedsnr" v="658907" />
	</node>
	<node lat="62.21517499892317" lon="10.79836666220486" id="-32544">
		<tag k="name" v="Sandbakktjønna" />
		<tag k="natural" v="water" />
		<tag k="ssr:stedsnr" v="658917" />
	</node>
	<node lat="62.63854721974642" lon="10.21444167382548" id="-32547">
		<tag k="name" v="Kalvtrøbekken" />
		<tag k="ssr:stedsnr" v="658883" />
		<tag k="waterway" v="stream" />
	</node>
	<node lat="62.6348083329512" lon="10.197644438644327" id="-32548">
		<tag k="name" v="Kvelvkammen" />
		<tag k="natural" v="water" />
		<tag k="ssr:stedsnr" v="658884" />
	</node>
	<node lat="62.64071944310592" lon="10.21483332445583" id="-32549">
		<tag k="name" v="Kvennbekken" />
		<tag k="ssr:stedsnr" v="658885" />
		<tag k="waterway" v="stream" />
	</node>
	<node lat="62.153083332742966" lon="10.877558338173104" id="-32569">
		<tag k="alt_name" v="Rivtjørna, nordre" />
		<tag k="name" v="Nordre Rivdalstjønna" />
		<tag k="natural" v="water" />
		<tag k="ssr:stedsnr" v="678188" />
	</node>
	<node lat="62.46303333175658" lon="10.389974995309407" id="-32571">
		<tag k="alt_name" v="Lomtjørna" />
		<tag k="name" v="Lomtjønna" />
		<tag k="natural" v="water" />
		<tag k="ssr:stedsnr" v="678826" />
	</node>
	<node lat="62.351655558104504" lon="10.805680551580934" id="-32572">
		<tag k="alt_name" v="Seljestadtjørna" />
		<tag k="name" v="Seljestadtjønna" />
		<tag k="natural" v="water" />
		<tag k="ssr:stedsnr" v="679178" />
	</node>
	<node lat="62.54212499799665" lon="10.24613889729249" id="-32574">
		<tag k="name" v="Litlinna" />
		<tag k="ssr:stedsnr" v="679079" />
		<tag k="waterway" v="stream" />
	</node>
	<node lat="62.58163055499965" lon="10.524894437286912" id="-32575">
		<tag k="name" v="Storbekken" />
		<tag k="ssr:stedsnr" v="679090" />
		<tag k="waterway" v="stream" />
	</node>
	<node lat="62.33051666937414" lon="10.729675007808043" id="-32576">
		<tag k="name" v="Brennbekken" />
		<tag k="ssr:stedsnr" v="679212" />
		<tag k="waterway" v="stream" />
	</node>
	<node lat="62.483624999850186" lon="10.432863884102256" id="-32579">
		<tag k="fixme" v="multiple name tags, choose one and add the other to alt_name" />
		<tag k="name" v="Vakkerslettbekken;Kvennbekken" />
		<tag k="ssr:stedsnr" v="679618" />
		<tag k="waterway" v="stream" />
	</node>
	<node lat="62.30596601951464" lon="10.500053017480461" id="-32590">
		<tag k="name" v="Gjøstjørnan" />
		<tag k="natural" v="water" />
		<tag k="ssr:stedsnr" v="679914" />
		<tag k="water" v="lake" />
	</node>
	<node lat="62.30765277370081" lon="10.33647222651013" id="-32592">
		<tag k="alt_name" v="Piktjørna" />
		<tag k="name" v="Piktjønna" />
		<tag k="natural" v="water" />
		<tag k="ssr:stedsnr" v="679918" />
	</node>
	<node lat="62.35362350208492" lon="10.474734546750177" id="-32595">
		<tag k="name" v="Lomsjøen" />
		<tag k="natural" v="water" />
		<tag k="ssr:stedsnr" v="679976" />
		<tag k="water" v="lake" />
	</node>
	<node lat="62.59778055306434" lon="10.196566669201687" id="-32597">
		<tag k="name" v="Steinbekktjørna" />
		<tag k="natural" v="water" />
		<tag k="ssr:stedsnr" v="695418" />
	</node>
	<node lat="62.58561584749803" lon="10.430282037176857" id="-32598">
		<tag k="alt_name" v="Håkåtjørn" />
		<tag k="name" v="Håkkåtjønna" />
		<tag k="natural" v="water" />
		<tag k="ssr:stedsnr" v="695503" />
	</node>
	<node lat="62.584233335774485" lon="10.282130563928066" id="-32599">
		<tag k="name" v="Mosstjønna" />
		<tag k="natural" v="water" />
		<tag k="ssr:stedsnr" v="718022" />
	</node>
	<node lat="62.5664055535549" lon="10.374708333824676" id="-32602">
		<tag k="name" v="Langkloppbekken" />
		<tag k="ssr:stedsnr" v="718219" />
		<tag k="waterway" v="stream" />
	</node>
	<node lat="62.334002781444006" lon="10.726113893259619" id="-32613">
		<tag k="name" v="Hjertbekken" />
		<tag k="ssr:stedsnr" v="719109" />
		<tag k="waterway" v="stream" />
	</node>
	<node lat="62.313258333960036" lon="10.723855546586291" id="-32615">
		<tag k="name" v="Nesset" />
		<tag k="natural" v="cape" />
		<tag k="ssr:stedsnr" v="719115" />
	</node>
	<node lat="62.2213499978424" lon="10.971130551020714" id="-32617">
		<tag k="name" v="Knausbekken" />
		<tag k="ssr:stedsnr" v="719138" />
		<tag k="waterway" v="stream" />
	</node>
	<node lat="62.35086666316464" lon="10.629447217062518" id="-32618">
		<tag k="name" v="Fossbekken" />
		<tag k="ssr:stedsnr" v="719189" />
		<tag k="waterway" v="stream" />
	</node>
	<node lat="62.36998333752123" lon="10.427461115357808" id="-32626">
		<tag k="name" v="Trolltjønnbekken" />
		<tag k="ssr:stedsnr" v="719454" />
		<tag k="waterway" v="stream" />
	</node>
	<node lat="62.07962221958617" lon="10.904394449991463" id="-32629">
		<tag k="name" v="Nordre Rokktjønna" />
		<tag k="natural" v="water" />
		<tag k="ssr:stedsnr" v="719378" />
	</node>
	<node lat="62.29469444765104" lon="10.418388880430717" id="-32634">
		<tag k="name" v="Store Fjellengtjønna" />
		<tag k="natural" v="water" />
		<tag k="ssr:stedsnr" v="719788" />
	</node>
	<node lat="62.26138889330314" lon="10.489561110298002" id="-32636">
		<tag k="name" v="Svartodden" />
		<tag k="natural" v="cape" />
		<tag k="ssr:stedsnr" v="719798" />
	</node>
	<node lat="62.24921666744659" lon="10.606877775156724" id="-32640">
		<tag k="name" v="Mølnarbekken" />
		<tag k="ssr:stedsnr" v="720238" />
		<tag k="waterway" v="stream" />
	</node>
	<node lat="62.2714722259821" lon="10.669299994214526" id="-32643">
		<tag k="name" v="Brenthaugbekken" />
		<tag k="ssr:stedsnr" v="720173" />
		<tag k="waterway" v="stream" />
	</node>
	<node lat="62.537038887988004" lon="10.340586106550704" id="-32650">
		<tag k="name" v="Svarttjønnbekken" />
		<tag k="ssr:stedsnr" v="900064" />
		<tag k="waterway" v="stream" />
	</node>
	<node lat="62.358888886742" lon="10.813466669829678" id="-32666">
		<tag k="name" v="Røslesbekken" />
		<tag k="ssr:stedsnr" v="901180" />
		<tag k="waterway" v="stream" />
	</node>
	<node lat="62.3058716396404" lon="10.494333016489534" id="-32683">
		<tag k="name" v="Vesle Gjøstjønna" />
		<tag k="natural" v="water" />
		<tag k="ssr:stedsnr" v="901740" />
	</node>
	<node lat="62.24486388655124" lon="10.686930551718842" id="-32685">
		<tag k="name" v="Fosåsbekken" />
		<tag k="ssr:stedsnr" v="901790" />
		<tag k="waterway" v="stream" />
	</node>
	<node lat="62.29932499781205" lon="10.431622216317757" id="-32686">
		<tag k="name" v="Vesle Fjellengtjønna" />
		<tag k="natural" v="water" />
		<tag k="ssr:stedsnr" v="901799" />
	</node>
	<node lat="62.162613884572615" lon="10.796352769417648" id="-32693">
		<tag k="name" v="Hellbretsåa" />
		<tag k="ssr:stedsnr" v="901853" />
		<tag k="waterway" v="stream" />
	</node>
	<node lat="62.602833332202145" lon="10.238883325846873" id="-32697">
		<tag k="name" v="Litjvassbekken" />
		<tag k="ssr:stedsnr" v="901968" />
		<tag k="waterway" v="stream" />
	</node>
	<node lat="62.25968332909994" lon="10.601083335979569" id="-32699">
		<tag k="name" v="Veslesætertjønna" />
		<tag k="natural" v="water" />
		<tag k="ssr:stedsnr" v="902155" />
	</node>
	<node lat="62.2398055597305" lon="10.99260000956962" id="-32715">
		<tag k="name" v="Jobekken" />
		<tag k="ssr:stedsnr" v="739209" />
		<tag k="waterway" v="stream" />
	</node>
	<node lat="62.52953332994704" lon="10.209197217888235" id="-32720">
		<tag k="alt_name" v="Halvorstjørna" />
		<tag k="name" v="Halvorstjønna" />
		<tag k="natural" v="water" />
		<tag k="ssr:stedsnr" v="739405" />
	</node>
	<node lat="62.37175833475687" lon="10.506533324409448" id="-32724">
		<tag k="name" v="Veslstraumen" />
		<tag k="place" v="locality" />
		<tag k="ssr:stedsnr" v="739752" />
	</node>
	<node lat="62.3005694441918" lon="10.450399992617365" id="-32725">
		<tag k="alt_name" v="Mogardstjørna" />
		<tag k="name" v="Mogardstjønna" />
		<tag k="natural" v="water" />
		<tag k="ssr:stedsnr" v="739896" />
	</node>
	<node lat="62.43395000196091" lon="10.412161107755026" id="-32727">
		<tag k="alt_name" v="Blanktjørna" />
		<tag k="name" v="Store Blanktjønna" />
		<tag k="natural" v="water" />
		<tag k="ssr:stedsnr" v="739841" />
	</node>
	<node lat="62.588941666503665" lon="10.054886111085672" id="-32731">
		<tag k="name" v="Storbekken" />
		<tag k="ssr:stedsnr" v="740445" />
		<tag k="waterway" v="stream" />
	</node>
	<node lat="62.401658330792564" lon="10.214425006496676" id="-32735">
		<tag k="name" v="Tangtjørna" />
		<tag k="natural" v="water" />
		<tag k="ssr:stedsnr" v="740741" />
	</node>
	<node lat="62.68331944478327" lon="10.413544451635302" id="-32739">
		<tag k="name" v="Kippbekken" />
		<tag k="old_name" v="Klippbekken" />
		<tag k="ssr:stedsnr" v="756521" />
		<tag k="waterway" v="stream" />
	</node>
	<node lat="62.26091388496193" lon="10.852747214372224" id="-32752">
		<tag k="name" v="Veslebekken" />
		<tag k="ssr:stedsnr" v="779460" />
		<tag k="waterway" v="stream" />
	</node>
	<node lat="62.264788892695655" lon="10.96122777020275" id="-32753">
		<tag k="name" v="Hobdbekken" />
		<tag k="ssr:stedsnr" v="779470" />
		<tag k="waterway" v="stream" />
	</node>
	<node lat="62.501338892805784" lon="10.16480833916997" id="-32756">
		<tag k="name" v="Dølvadbekken" />
		<tag k="ssr:stedsnr" v="779702" />
		<tag k="waterway" v="stream" />
	</node>
	<node lat="62.347763885741706" lon="10.85713889772909" id="-32765">
		<tag k="name" v="Veslebekken" />
		<tag k="ssr:stedsnr" v="780260" />
		<tag k="waterway" v="stream" />
	</node>
	<node lat="62.60135277332649" lon="10.243852780765428" id="-32766">
		<tag k="name" v="Skrøbekken" />
		<tag k="ssr:stedsnr" v="779954" />
		<tag k="waterway" v="stream" />
	</node>
	<node lat="62.35768055757247" lon="10.609591669984066" id="-32767">
		<tag k="name" v="Engerdalsbekken" />
		<tag k="ssr:stedsnr" v="780103" />
		<tag k="waterway" v="stream" />
	</node>
	<node lat="62.23670833557758" lon="10.660319443748572" id="-32778">
		<tag k="name" v="Nordre Åbbortjønna" />
		<tag k="natural" v="water" />
		<tag k="ssr:stedsnr" v="780748" />
	</node>
	<node lat="62.296836113167416" lon="10.425516673751856" id="-32779">
		<tag k="name" v="Fjellengtjønna" />
		<tag k="natural" v="water" />
		<tag k="ssr:stedsnr" v="780759" />
	</node>
	<node lat="62.20173055910559" lon="10.895363890379652" id="-32790">
		<tag k="alt_name" v="Krokbekken" />
		<tag k="name" v="Kroketbekken" />
		<tag k="ssr:stedsnr" v="799253" />
		<tag k="waterway" v="stream" />
	</node>
	<node lat="62.177524996090064" lon="11.027341667407429" id="-32792">
		<tag k="alt_name" v="Marabekken" />
		<tag k="name" v="Morabekken" />
		<tag k="ssr:stedsnr" v="800115" />
		<tag k="waterway" v="stream" />
	</node>
	<node lat="62.6011527817866" lon="10.364402779825447" id="-32796">
		<tag k="alt_name" v="Damtjørn" />
		<tag k="name" v="Damtjørna" />
		<tag k="natural" v="water" />
		<tag k="ssr:stedsnr" v="800084" />
	</node>
	<node lat="62.668549999828386" lon="10.495116660405104" id="-32799">
		<tag k="name" v="Grytbekktjørn" />
		<tag k="natural" v="water" />
		<tag k="ssr:stedsnr" v="800382" />
	</node>
	<node lat="62.537522218541866" lon="10.043719435862089" id="-32801">
		<tag k="alt_name" v="Elsåtjørna, store" />
		<tag k="name" v="Stor-Elsåtjørna" />
		<tag k="natural" v="water" />
		<tag k="ssr:stedsnr" v="800393" />
	</node>
	<node lat="62.46493055162141" lon="10.301474990718827" id="-32802">
		<tag k="name" v="Buru" />
		<tag k="ssr:stedsnr" v="800825" />
		<tag k="waterway" v="river" />
	</node>
	<node lat="62.337586107411596" lon="10.255341671335845" id="-32810">
		<tag k="name" v="Krokam" />
		<tag k="place" v="locality" />
		<tag k="ssr:stedsnr" v="800976" />
	</node>
	<node lat="62.059827774847214" lon="10.832630547386621" id="-32818">
		<tag k="alt_name" v="Gaupskardbekken, østre;Gaupskardbekken" />
		<tag k="name" v="Østre Gaupskardbekken" />
		<tag k="ssr:stedsnr" v="921010" />
		<tag k="waterway" v="stream" />
	</node>
	<node lat="62.16358889122559" lon="11.16147778497685" id="-32820">
		<tag k="alt_name" v="Finnrobekken, nordre" />
		<tag k="name" v="Nordre Finnrobekken" />
		<tag k="ssr:stedsnr" v="921139" />
		<tag k="waterway" v="stream" />
	</node>
	<node lat="62.6674611114406" lon="10.153027778108113" id="-32825">
		<tag k="name" v="Storfossen" />
		<tag k="natural" v="waterfall" />
		<tag k="ssr:stedsnr" v="921274" />
	</node>
	<node lat="62.66978611260398" lon="10.225866671409527" id="-32828">
		<tag k="alt_name" v="Finntjørn" />
		<tag k="name" v="Finntjørna" />
		<tag k="natural" v="water" />
		<tag k="ssr:stedsnr" v="921424" />
	</node>
	<node lat="62.37560555275722" lon="10.351261104371591" id="-32834">
		<tag k="name" v="Hoppet" />
		<tag k="natural" v="waterfall" />
		<tag k="ssr:stedsnr" v="921767" />
	</node>
	<node lat="62.3953192503474" lon="10.718037340411644" id="-32837">
		<tag k="fixme" v="multiple name tags, choose one and add the other to alt_name" />
		<tag k="name" v="Lontjørna;Stortjønna" />
		<tag k="natural" v="water" />
		<tag k="ssr:stedsnr" v="922157" />
	</node>
	<node lat="62.641155552939935" lon="10.009452785158313" id="-32843">
		<tag k="name" v="Inna" />
		<tag k="ssr:stedsnr" v="922399" />
		<tag k="waterway" v="river" />
	</node>
	<node lat="62.289455552857056" lon="10.50280000947006" id="-32849">
		<tag k="name" v="Hestotjørna" />
		<tag k="natural" v="water" />
		<tag k="ssr:stedsnr" v="922900" />
	</node>
	<node lat="62.29332499726682" lon="10.629349998182569" id="-32852">
		<tag k="name" v="Fåa" />
		<tag k="ssr:stedsnr" v="922910" />
		<tag k="waterway" v="river" />
	</node>
	<node lat="62.30397777375405" lon="10.420219447218527" id="-32853">
		<tag k="alt_name" v="Storljottjønna" />
		<tag k="name" v="Storgjottjørna" />
		<tag k="natural" v="water" />
		<tag k="ssr:stedsnr" v="922913" />
	</node>
	<node lat="62.34765833085181" lon="10.640366669297835" id="-32855">
		<tag k="alt_name" v="Svartåstjørna" />
		<tag k="name" v="Svartåstjønna" />
		<tag k="natural" v="water" />
		<tag k="ssr:stedsnr" v="922989" />
	</node>
	<node lat="62.337911108408726" lon="10.363125004919818" id="-32858">
		<tag k="name" v="Rundtjørna" />
		<tag k="natural" v="water" />
		<tag k="ssr:stedsnr" v="922952" />
	</node>
	<node lat="62.50029756264627" lon="10.389536541788221" id="-32865">
		<tag k="name" v="Stormtjønna" />
		<tag k="natural" v="water" />
		<tag k="ssr:stedsnr" v="840803" />
	</node>
	<node lat="62.540658330971986" lon="10.357969442051507" id="-32868">
		<tag k="name" v="Kvennhusøya" />
		<tag k="place" v="islet" />
		<tag k="ssr:stedsnr" v="840725" />
	</node>
	<node lat="62.67081944329943" lon="10.148844447380656" id="-32872">
		<tag k="name" v="Litlfossen" />
		<tag k="natural" v="waterfall" />
		<tag k="ssr:stedsnr" v="841000" />
	</node>
	<node lat="62.2471999973783" lon="10.706380563525324" id="-32880">
		<tag k="name" v="Nedre Kvernbekken" />
		<tag k="ssr:stedsnr" v="841227" />
		<tag k="waterway" v="stream" />
	</node>
	<node lat="62.268913885464464" lon="10.535541662518922" id="-32883">
		<tag k="name" v="Lillesandbekken" />
		<tag k="ssr:stedsnr" v="841491" />
		<tag k="waterway" v="stream" />
	</node>
	<node lat="62.34003333191881" lon="10.583527781144845" id="-32888">
		<tag k="name" v="Ryslettbekken" />
		<tag k="ssr:stedsnr" v="841826" />
		<tag k="waterway" v="stream" />
	</node>
	<node lat="62.05309166304273" lon="10.905097218538579" id="-32893">
		<tag k="name" v="Rokka" />
		<tag k="ssr:stedsnr" v="860006" />
		<tag k="waterway" v="stream" />
	</node>
	<node lat="62.19613888737629" lon="10.886633340162266" id="-32897">
		<tag k="alt_name" v="Stortjørna" />
		<tag k="name" v="Stortjønna" />
		<tag k="natural" v="water" />
		<tag k="ssr:stedsnr" v="860261" />
	</node>
	<node lat="62.25351944347738" lon="10.703841659256533" id="-32902">
		<tag k="name" v="Kvernbekken" />
		<tag k="ssr:stedsnr" v="861024" />
		<tag k="waterway" v="stream" />
	</node>
	<node lat="62.560958331530664" lon="10.251266661063658" id="-32905">
		<tag k="name" v="Kleivbekken" />
		<tag k="ssr:stedsnr" v="861074" />
		<tag k="waterway" v="stream" />
	</node>
	<node lat="62.2539638903333" lon="10.921641664899191" id="-32914">
		<tag k="alt_name" v="Lauvåstjørna" />
		<tag k="name" v="Lauvåstjønna" />
		<tag k="natural" v="water" />
		<tag k="ssr:stedsnr" v="861302" />
	</node>
	<node lat="62.396469443720896" lon="10.694875006947477" id="-32917">
		<tag k="name" v="Lona" />
		<tag k="ssr:stedsnr" v="861700" />
		<tag k="waterway" v="river" />
	</node>
	<node lat="62.404226437911646" lon="10.53186308182366" id="-32920">
		<tag k="alt_name" v="Vordtjørnan;Vestre Voltjønna" />
		<tag k="name" v="Voltjørnan" />
		<tag k="natural" v="water" />
		<tag k="ssr:stedsnr" v="861810" />
		<tag k="water" v="lake" />
	</node>
	<node lat="62.40424999947718" lon="10.499183337326235" id="-32922">
		<tag k="name" v="Knausbekken" />
		<tag k="ssr:stedsnr" v="861812" />
		<tag k="waterway" v="stream" />
	</node>
	<node lat="62.42833610992245" lon="10.370836104918341" id="-32923">
		<tag k="alt_name" v="Halstjørnbekken" />
		<tag k="name" v="Halstjønnbekken" />
		<tag k="ssr:stedsnr" v="861817" />
		<tag k="waterway" v="stream" />
	</node>
	<node lat="62.42021666485003" lon="10.473494449377831" id="-32924">
		<tag k="alt_name" v="Hølbekken" />
		<tag k="name" v="Holbekken" />
		<tag k="ssr:stedsnr" v="861819" />
		<tag k="waterway" v="stream" />
	</node>
	<node lat="62.348874035456305" lon="10.356429209562947" id="-32927">
		<tag k="name" v="Steinhaugtjørna" />
		<tag k="natural" v="water" />
		<tag k="ssr:stedsnr" v="861993" />
		<tag k="water" v="lake" />
	</node>
	<node lat="62.58045277678653" lon="10.3761500012992" id="-32931">
		<tag k="alt_name" v="Seterbekken" />
		<tag k="name" v="Sæterbekken" />
		<tag k="ssr:stedsnr" v="878566" />
		<tag k="waterway" v="stream" />
	</node>
	<node lat="62.39613055156201" lon="10.427533323847445" id="-32938">
		<tag k="name" v="Nesodden" />
		<tag k="natural" v="cape" />
		<tag k="ssr:stedsnr" v="900457" />
	</node>
	<node lat="62.520283331018305" lon="10.21715277483458" id="-32939">
		<tag k="name" v="Gammelvangbekken" />
		<tag k="ssr:stedsnr" v="900805" />
		<tag k="waterway" v="stream" />
	</node>
	<node lat="62.380186114450986" lon="10.601527784756081" id="-32944">
		<tag k="name" v="Furåsbekken" />
		<tag k="ssr:stedsnr" v="901012" />
		<tag k="waterway" v="stream" />
	</node>
	<node lat="62.08765277585943" lon="10.951449995448405" id="-32952">
		<tag k="name" v="Søndre Ropartjønna" />
		<tag k="natural" v="water" />
		<tag k="ssr:stedsnr" v="901412" />
	</node>
	<node lat="62.24743889176549" lon="10.956175003627848" id="-32954">
		<tag k="alt_name" v="Hobdbekken" />
		<tag k="name" v="Hovdebekken" />
		<tag k="ssr:stedsnr" v="901468" />
		<tag k="waterway" v="stream" />
	</node>
	<node lat="62.35776388895713" lon="10.511219439314376" id="-32957">
		<tag k="name" v="Litjønna" />
		<tag k="natural" v="water" />
		<tag k="ssr:stedsnr" v="901751" />
	</node>
	<node lat="62.372688892730714" lon="10.502594453523043" id="-32960">
		<tag k="name" v="Veslestrømmen" />
		<tag k="ssr:stedsnr" v="901760" />
		<tag k="waterway" v="rapids" />
	</node>
	<node lat="62.170100003418106" lon="10.90802777777917" id="-32971">
		<tag k="name" v="Vesletjønna" />
		<tag k="natural" v="water" />
		<tag k="ssr:stedsnr" v="902520" />
	</node>
	<node lat="62.59328333222722" lon="10.471155558823332" id="-32975">
		<tag k="name" v="Russu" />
		<tag k="ssr:stedsnr" v="921098" />
		<tag k="waterway" v="stream" />
	</node>
	<node lat="62.34165277524053" lon="10.778247229139717" id="-32977">
		<tag k="alt_name" v="Milskiftetjørna" />
		<tag k="name" v="Milskifttjønna" />
		<tag k="natural" v="water" />
		<tag k="ssr:stedsnr" v="921235" />
	</node>
	<node lat="62.20606666216217" lon="10.723452784216128" id="-32978">
		<tag k="alt_name" v="Brandvollsbekken" />
		<tag k="name" v="Brannvålsbekken" />
		<tag k="ssr:stedsnr" v="921246" />
		<tag k="waterway" v="stream" />
	</node>
	<node lat="62.634519448339766" lon="10.266672227246815" id="-32979">
		<tag k="alt_name" v="Nappsjøen, l" />
		<tag k="name" v="Litl-Nappsjøen" />
		<tag k="natural" v="water" />
		<tag k="ssr:stedsnr" v="921105" />
		<tag k="water" v="lake" />
	</node>
	<node lat="62.61723889164739" lon="10.65651943782241" id="-32983">
		<tag k="name" v="Storya" />
		<tag k="ssr:stedsnr" v="921117" />
		<tag k="waterway" v="stream" />
	</node>
	<node lat="62.17411111275299" lon="10.85836944898937" id="-32984">
		<tag k="alt_name" v="Storvoltjørna" />
		<tag k="name" v="Storvoltjønna" />
		<tag k="natural" v="water" />
		<tag k="ssr:stedsnr" v="921159" />
	</node>
	<node lat="62.142033330601635" lon="11.035538881491126" id="-32985">
		<tag k="alt_name" v="Finstadsjøen" />
		<tag k="name" v="Finnstadsjøen" />
		<tag k="natural" v="water" />
		<tag k="ssr:stedsnr" v="921200" />
		<tag k="water" v="lake" />
	</node>
	<node lat="62.195838884637155" lon="10.96457776816694" id="-32986">
		<tag k="name" v="Storbekken" />
		<tag k="ssr:stedsnr" v="921695" />
		<tag k="waterway" v="stream" />
	</node>
	<node lat="62.26801944109586" lon="10.760844447776664" id="-32991">
		<tag k="name" v="Kaldbekken" />
		<tag k="ssr:stedsnr" v="922315" />
		<tag k="waterway" v="stream" />
	</node>
	<node lat="62.60548888834217" lon="10.184175004952971" id="-32993">
		<tag k="alt_name" v="Gardsjøen, l" />
		<tag k="name" v="Litl-Gardsjøen" />
		<tag k="natural" v="water" />
		<tag k="ssr:stedsnr" v="922403" />
	</node>
	<node lat="62.58739444387377" lon="10.151111108594138" id="-32994">
		<tag k="name" v="Taraldsbekken" />
		<tag k="ssr:stedsnr" v="922416" />
		<tag k="waterway" v="stream" />
	</node>
	<node lat="62.484999997172785" lon="10.371088897353168" id="-32996">
		<tag k="alt_name" v="Bjørbekken" />
		<tag k="name" v="Bjorbekken" />
		<tag k="ssr:stedsnr" v="922624" />
		<tag k="waterway" v="stream" />
	</node>
	<node lat="62.49357222609176" lon="10.433149994982674" id="-32997">
		<tag k="name" v="Stortjørna" />
		<tag k="natural" v="water" />
		<tag k="ssr:stedsnr" v="922628" />
		<tag k="water" v="lake" />
	</node>
	<node lat="62.42003333119902" lon="10.278213879733084" id="-32999">
		<tag k="name" v="Høbekken" />
		<tag k="ssr:stedsnr" v="922793" />
		<tag k="waterway" v="stream" />
	</node>
	<node lat="62.439418039111025" lon="10.265055012034203" id="-33001">
		<tag k="alt_name" v="Børsjøen, stor" />
		<tag k="name" v="Stor-Børsjøen" />
		<tag k="natural" v="water" />
		<tag k="ssr:stedsnr" v="922822" />
		<tag k="water" v="lake" />
	</node>
	<node lat="62.34466110978208" lon="10.451055562850318" id="-33004">
		<tag k="alt_name" v="Godtjørna" />
		<tag k="name" v="Gotjønna" />
		<tag k="natural" v="water" />
		<tag k="ssr:stedsnr" v="922973" />
	</node>
	<node lat="62.33381388836908" lon="10.320538884076251" id="-33005">
		<tag k="name" v="Borrtjørna" />
		<tag k="natural" v="water" />
		<tag k="ssr:stedsnr" v="922976" />
	</node>
	<node lat="62.61860787513456" lon="10.186729380430926" id="-33007">
		<tag k="name" v="Brunatjørnan" />
		<tag k="natural" v="water" />
		<tag k="ssr:stedsnr" v="938450" />
		<tag k="water" v="lake" />
	</node>
	<node lat="62.64441944162202" lon="10.654194442900621" id="-33008">
		<tag k="name" v="Nørdre Tjuvholdtjørna" />
		<tag k="natural" v="water" />
		<tag k="ssr:stedsnr" v="938513" />
	</node>
	<node lat="62.60098889182873" lon="10.525538890890473" id="-33009">
		<tag k="name" v="Dellokan" />
		<tag k="natural" v="water" />
		<tag k="ssr:stedsnr" v="938514" />
	</node>
	<node lat="62.41394722493255" lon="10.40617223079655" id="-33010">
		<tag k="name" v="Smedplasstjønna" />
		<tag k="natural" v="water" />
		<tag k="ssr:stedsnr" v="960265" />
	</node>
	<node lat="62.53916388510851" lon="10.154638895888898" id="-33020">
		<tag k="name" v="Fiskbekken" />
		<tag k="ssr:stedsnr" v="961812" />
		<tag k="waterway" v="stream" />
	</node>
	<node lat="62.5050277739455" lon="10.36855278194018" id="-33021">
		<tag k="name" v="Nordre Lasbekken" />
		<tag k="ssr:stedsnr" v="961819" />
		<tag k="waterway" v="stream" />
	</node>
	<node lat="62.51432499849881" lon="10.379758324907337" id="-33023">
		<tag k="name" v="Dammen" />
		<tag k="ssr:stedsnr" v="961825" />
		<tag k="waterway" v="dam" />
	</node>
	<node lat="62.36010556008954" lon="10.677294440885813" id="-33029">
		<tag k="name" v="Skarbekken" />
		<tag k="ssr:stedsnr" v="962104" />
		<tag k="waterway" v="stream" />
	</node>
	<node lat="62.208077775337216" lon="10.855861112807581" id="-33044">
		<tag k="name" v="Stortjønna" />
		<tag k="natural" v="water" />
		<tag k="ssr:stedsnr" v="962485" />
	</node>
	<node lat="62.28251944721122" lon="10.468536102405004" id="-33047">
		<tag k="name" v="Belsvikbekken" />
		<tag k="ssr:stedsnr" v="962792" />
		<tag k="waterway" v="stream" />
	</node>
	<node lat="62.18989444574433" lon="10.830622221795522" id="-33049">
		<tag k="name" v="Stormyrbekken" />
		<tag k="ssr:stedsnr" v="962918" />
		<tag k="waterway" v="stream" />
	</node>
	<node lat="62.1484166659329" lon="10.78231666461505" id="-33059">
		<tag k="name" v="Søndre Livangbekken" />
		<tag k="ssr:stedsnr" v="963886" />
		<tag k="waterway" v="stream" />
	</node>
	<node lat="62.217350002572104" lon="10.652438896713655" id="-33067">
		<tag k="name" v="Auma" />
		<tag k="ssr:stedsnr" v="10067" />
		<tag k="waterway" v="river" />
	</node>
	<node lat="62.18482777612429" lon="10.734616667939788" id="-33081">
		<tag k="name" v="Gammelsæteråa" />
		<tag k="ssr:stedsnr" v="11220" />
		<tag k="waterway" v="stream" />
	</node>
	<node lat="62.14450833637431" lon="10.842200008878073" id="-33083">
		<tag k="alt_name" v="Brønnåtjørna" />
		<tag k="name" v="Brønnåtjønna" />
		<tag k="natural" v="water" />
		<tag k="ssr:stedsnr" v="11149" />
	</node>
	<node lat="62.43647777429307" lon="10.611311117576113" id="-33096">
		<tag k="name" v="Butjønna" />
		<tag k="natural" v="water" />
		<tag k="ssr:stedsnr" v="11849" />
	</node>
	<node lat="62.33483055321239" lon="10.492555560776681" id="-33098">
		<tag k="alt_name" v="Kvanntjørna" />
		<tag k="name" v="Kvanntjønna" />
		<tag k="natural" v="water" />
		<tag k="ssr:stedsnr" v="11971" />
	</node>
	<node lat="62.36485000114596" lon="10.617455546831838" id="-33100">
		<tag k="alt_name" v="Magnilfossen" />
		<tag k="name" v="Magnillfossen" />
		<tag k="natural" v="waterfall" />
		<tag k="ssr:stedsnr" v="11764" />
	</node>
	<node lat="62.29672500335082" lon="10.531994445366937" id="-33101">
		<tag k="name" v="Nabben" />
		<tag k="natural" v="cape" />
		<tag k="ssr:stedsnr" v="11916" />
	</node>
	<node lat="62.309313887881494" lon="10.278819441856966" id="-33104">
		<tag k="alt_name" v="Marsjøen, vesl" />
		<tag k="name" v="Vesl-Marsjøen" />
		<tag k="natural" v="water" />
		<tag k="ssr:stedsnr" v="11935" />
		<tag k="water" v="lake" />
	</node>
	<node lat="62.31230555524216" lon="10.339291672944452" id="-33105">
		<tag k="name" v="Revtjørna" />
		<tag k="natural" v="water" />
		<tag k="ssr:stedsnr" v="11937" />
	</node>
	<node lat="62.32477499574181" lon="10.350733331439072" id="-33109">
		<tag k="name" v="Franktjørna" />
		<tag k="natural" v="water" />
		<tag k="ssr:stedsnr" v="11966" />
	</node>
	<node lat="62.53035833502002" lon="10.307019449844317" id="-33111">
		<tag k="alt_name" v="Fuglåstjørn" />
		<tag k="name" v="Fuglåstjønna" />
		<tag k="natural" v="water" />
		<tag k="ssr:stedsnr" v="12053" />
	</node>
	<node lat="62.530174995918834" lon="10.3521361113176" id="-33112">
		<tag k="alt_name" v="Hylbekken" />
		<tag k="name" v="Hyllbekken" />
		<tag k="ssr:stedsnr" v="12055" />
		<tag k="waterway" v="stream" />
	</node>
	<node lat="62.518102019507" lon="10.319888945837384" id="-33113">
		<tag k="alt_name" v="Hylbekktjørnane" />
		<tag k="name" v="Hyllbekktjørnan" />
		<tag k="natural" v="water" />
		<tag k="ssr:stedsnr" v="12065" />
		<tag k="water" v="lake" />
	</node>
	<node lat="62.51836944710183" lon="10.398313892691073" id="-33114">
		<tag k="name" v="Vensløvbekken" />
		<tag k="ssr:stedsnr" v="12066" />
		<tag k="waterway" v="stream" />
	</node>
	<node lat="62.43189999942421" lon="10.20178332816604" id="-33119">
		<tag k="name" v="Tjørnbekken" />
		<tag k="ssr:stedsnr" v="12741" />
		<tag k="waterway" v="stream" />
	</node>
	<node lat="62.5419444460822" lon="10.33261388894397" id="-33130">
		<tag k="name" v="Krokbekken" />
		<tag k="ssr:stedsnr" v="50042" />
		<tag k="waterway" v="stream" />
	</node>
	<node lat="62.49544999766571" lon="10.36629722238232" id="-33150">
		<tag k="name" v="Fagerhaugbekken" />
		<tag k="ssr:stedsnr" v="51810" />
		<tag k="waterway" v="stream" />
	</node>
	<node lat="62.66457778228538" lon="10.151363886872739" id="-33153">
		<tag k="name" v="Storfossøya" />
		<tag k="place" v="islet" />
		<tag k="ssr:stedsnr" v="51997" />
	</node>
	<node lat="62.6297027755074" lon="10.34267222639105" id="-33158">
		<tag k="name" v="Koielibekken" />
		<tag k="ssr:stedsnr" v="51964" />
		<tag k="waterway" v="stream" />
	</node>
	<node lat="62.36620000023618" lon="10.68833611584939" id="-33166">
		<tag k="name" v="Skartjønna" />
		<tag k="natural" v="water" />
		<tag k="ssr:stedsnr" v="52089" />
	</node>
	<node lat="62.22710833317478" lon="10.9532194521506" id="-33168">
		<tag k="name" v="Knøstjønna" />
		<tag k="natural" v="water" />
		<tag k="ssr:stedsnr" v="52399" />
	</node>
	<node lat="62.26642500285318" lon="10.993394445324634" id="-33170">
		<tag k="name" v="Klettbekken" />
		<tag k="ssr:stedsnr" v="52331" />
		<tag k="waterway" v="stream" />
	</node>
	<node lat="62.302213891884506" lon="10.436449998376743" id="-33173">
		<tag k="name" v="Fjellengbekken" />
		<tag k="ssr:stedsnr" v="52777" />
		<tag k="waterway" v="stream" />
	</node>
	<node lat="62.25954999956781" lon="10.512597230150073" id="-33174">
		<tag k="name" v="Knapprasvika" />
		<tag k="natural" v="bay" />
		<tag k="ssr:stedsnr" v="52791" />
	</node>
	<node lat="62.22171110815983" lon="10.78692499047668" id="-33179">
		<tag k="name" v="Aumkroken" />
		<tag k="place" v="locality" />
		<tag k="ssr:stedsnr" v="52929" />
	</node>
	<node lat="62.11160000159446" lon="10.843672214227498" id="-33190">
		<tag k="alt_name" v="Igletjørna" />
		<tag k="name" v="Iggeltjønna" />
		<tag k="natural" v="water" />
		<tag k="ssr:stedsnr" v="71067" />
	</node>
	<node lat="62.18736666709073" lon="10.913544453472282" id="-33196">
		<tag k="alt_name" v="Reittjørna" />
		<tag k="name" v="Reittjønna" />
		<tag k="natural" v="water" />
		<tag k="ssr:stedsnr" v="71246" />
	</node>
	<node lat="62.40848392384754" lon="10.347741989473535" id="-33201">
		<tag k="name" v="Kløfttjørnan" />
		<tag k="natural" v="water" />
		<tag k="ssr:stedsnr" v="72776" />
		<tag k="water" v="lake" />
	</node>
	<node lat="62.52636666353318" lon="10.48831943704846" id="-33203">
		<tag k="name" v="Frendstadtjønna" />
		<tag k="natural" v="water" />
		<tag k="ssr:stedsnr" v="72058" />
	</node>
	<node lat="62.59460278153683" lon="10.231355550906725" id="-33207">
		<tag k="alt_name" v="Staibekken" />
		<tag k="fixme" v="multiple name tags, choose one and add the other to alt_name" />
		<tag k="name" v="Kvennbekken;Staisbekken" />
		<tag k="ssr:stedsnr" v="72092" />
		<tag k="waterway" v="stream" />
	</node>
	<node lat="62.64776111557202" lon="10.331558334662649" id="-33209">
		<tag k="alt_name" v="Sverjesjøen, l" />
		<tag k="name" v="Litl-Sverjesjøen" />
		<tag k="natural" v="water" />
		<tag k="ssr:stedsnr" v="72105" />
		<tag k="water" v="lake" />
	</node>
	<node lat="62.66069167001066" lon="10.344499993995463" id="-33216">
		<tag k="name" v="Sandfjelltjørn" />
		<tag k="natural" v="water" />
		<tag k="ssr:stedsnr" v="72373" />
	</node>
	<node lat="62.396508330750315" lon="10.472330554660699" id="-33226">
		<tag k="name" v="Børstubekken" />
		<tag k="ssr:stedsnr" v="72760" />
		<tag k="waterway" v="stream" />
	</node>
	<node lat="62.47982777481109" lon="10.399408329595268" id="-33229">
		<tag k="alt_name" v="Volltjørna" />
		<tag k="name" v="Volltjønna" />
		<tag k="natural" v="water" />
		<tag k="ssr:stedsnr" v="72845" />
	</node>
	<node lat="62.3299499995886" lon="10.270041675554863" id="-33233">
		<tag k="name" v="Medtjørnåa" />
		<tag k="ssr:stedsnr" v="72947" />
		<tag k="waterway" v="stream" />
	</node>
	<node lat="62.57878611125199" lon="10.494811107341924" id="-33236">
		<tag k="name" v="Røstbekken" />
		<tag k="ssr:stedsnr" v="89532" />
		<tag k="waterway" v="stream" />
	</node>
	<node lat="62.58511666290552" lon="10.127100009399074" id="-33237">
		<tag k="name" v="Innerdalsvatnet" />
		<tag k="natural" v="water" />
		<tag k="ssr:stedsnr" v="89434" />
		<tag k="water" v="lake" />
	</node>
	<node lat="62.51104166503672" lon="10.195819446623899" id="-33244">
		<tag k="name" v="Storlorthullet" />
		<tag k="natural" v="water" />
		<tag k="ssr:stedsnr" v="111740" />
		<tag k="water" v="pond" />
	</node>
	<node lat="62.51790555953126" lon="10.37622499944158" id="-33246">
		<tag k="name" v="Bassenget" />
		<tag k="ssr:stedsnr" v="111747" />
		<tag k="waterway" v="dam" />
	</node>
	<node lat="62.30410833386788" lon="10.427875004463823" id="-33247">
		<tag k="name" v="Stortjønna" />
		<tag k="natural" v="water" />
		<tag k="ssr:stedsnr" v="112797" />
	</node>
	<node lat="62.45102221808873" lon="10.418063894058218" id="-33250">
		<tag k="name" v="Skårbekken" />
		<tag k="ssr:stedsnr" v="112986" />
		<tag k="waterway" v="stream" />
	</node>
	<node lat="62.32891110699584" lon="10.662349998447887" id="-33270">
		<tag k="name" v="Tonnvolbekken" />
		<tag k="ssr:stedsnr" v="112205" />
		<tag k="waterway" v="stream" />
	</node>
	<node lat="62.321724998250964" lon="10.587797218895913" id="-33281">
		<tag k="name" v="Gørtjønna" />
		<tag k="natural" v="water" />
		<tag k="ssr:stedsnr" v="112838" />
	</node>
	<node lat="62.57883888547238" lon="10.152074995815363" id="-33283">
		<tag k="name" v="Fjellråbekken" />
		<tag k="ssr:stedsnr" v="112844" />
		<tag k="waterway" v="stream" />
	</node>
	<node lat="62.24217222398957" lon="10.87663610526595" id="-33290">
		<tag k="name" v="Kjurrukjelbekken" />
		<tag k="ssr:stedsnr" v="113416" />
		<tag k="waterway" v="stream" />
	</node>
	<node lat="62.27103888441561" lon="10.890377780309569" id="-33292">
		<tag k="name" v="Kjøebekken" />
		<tag k="ssr:stedsnr" v="113438" />
		<tag k="waterway" v="stream" />
	</node>
	<node lat="62.2476194425354" lon="10.857480547535618" id="-33297">
		<tag k="name" v="Sølvdalsbekken" />
		<tag k="ssr:stedsnr" v="113266" />
		<tag k="waterway" v="stream" />
	</node>
	<node lat="62.26756399518667" lon="10.496596073326693" id="-33302">
		<tag k="name" v="Hardnestjønnan" />
		<tag k="natural" v="water" />
		<tag k="ssr:stedsnr" v="113480" />
		<tag k="water" v="lake" />
	</node>
	<node lat="62.380686109333354" lon="10.521727780881726" id="-33303">
		<tag k="alt_name" v="Nordre Skårsbekken" />
		<tag k="name" v="Nørdre Skorsbekken" />
		<tag k="ssr:stedsnr" v="113714" />
		<tag k="waterway" v="stream" />
	</node>
	<node lat="62.36260555531938" lon="10.492683328739568" id="-33305">
		<tag k="name" v="Storflodammen" />
		<tag k="natural" v="water" />
		<tag k="ssr:stedsnr" v="113724" />
	</node>
	<node lat="62.25814722351326" lon="10.792391675447549" id="-33311">
		<tag k="name" v="Kaldbekkbassenget" />
		<tag k="ssr:stedsnr" v="113944" />
		<tag k="waterway" v="dam" />
	</node>
	<node lat="62.23408333376944" lon="10.723502783921397" id="-33312">
		<tag k="name" v="Heggrøsttjønna" />
		<tag k="natural" v="water" />
		<tag k="ssr:stedsnr" v="113949" />
	</node>
	<node lat="62.03588611086159" lon="10.923275004543116" id="-33315">
		<tag k="alt_name" v="Lauvrøstbekken" />
		<tag k="name" v="Lauvlirøstbekken" />
		<tag k="ssr:stedsnr" v="131050" />
		<tag k="waterway" v="stream" />
	</node>
	<node lat="62.042547553667006" lon="10.920425288846936" id="-33316">
		<tag k="fixme" v="multiple name tags, choose one and add the other to alt_name" />
		<tag k="name" v="Tørrbekken;Bunåsbekken" />
		<tag k="ssr:stedsnr" v="131056" />
		<tag k="waterway" v="stream" />
	</node>
	<node lat="62.5779861107367" lon="10.398400008862838" id="-33321">
		<tag k="name" v="Falninga" />
		<tag k="ssr:stedsnr" v="132068" />
		<tag k="waterway" v="river" />
	</node>
	<node lat="62.652643778103965" lon="10.393380980196586" id="-33327">
		<tag k="alt_name" v="Gåsengtjørnane" />
		<tag k="name" v="Gåsengtjørnan" />
		<tag k="natural" v="water" />
		<tag k="ssr:stedsnr" v="132097" />
		<tag k="water" v="lake" />
	</node>
	<node lat="62.328930551791665" lon="10.924847222291886" id="-33332">
		<tag k="name" v="Hølbekken" />
		<tag k="ssr:stedsnr" v="132225" />
		<tag k="waterway" v="stream" />
	</node>
	<node lat="62.23389813562226" lon="10.73806121981357" id="-33338">
		<tag k="alt_name" v="Sætertjønna" />
		<tag k="name" v="Sætertjørnan" />
		<tag k="natural" v="water" />
		<tag k="ssr:stedsnr" v="132200" />
		<tag k="water" v="lake" />
	</node>
	<node lat="62.31495000240517" lon="10.747497212797006" id="-33342">
		<tag k="name" v="Granbekken" />
		<tag k="ssr:stedsnr" v="132256" />
		<tag k="waterway" v="stream" />
	</node>
	<node lat="62.45651944519721" lon="10.439397220653266" id="-33344">
		<tag k="alt_name" v="Baklidalstjørna" />
		<tag k="name" v="Baklidalstjønna" />
		<tag k="natural" v="water" />
		<tag k="ssr:stedsnr" v="132840" />
	</node>
	<node lat="62.45085278145451" lon="10.345100008706424" id="-33345">
		<tag k="name" v="Storbekken" />
		<tag k="ssr:stedsnr" v="132844" />
		<tag k="waterway" v="stream" />
	</node>
	<node lat="62.44889480126111" lon="10.403496413156784" id="-33346">
		<tag k="alt_name" v="Skårtjørna" />
		<tag k="name" v="Skårtjønna" />
		<tag k="natural" v="water" />
		<tag k="ssr:stedsnr" v="132847" />
		<tag k="water" v="lake" />
	</node>
	<node lat="62.32467499984249" lon="10.555400004103499" id="-33348">
		<tag k="alt_name" v="Veslslettjørna" />
		<tag k="name" v="Veslslettjønna" />
		<tag k="natural" v="water" />
		<tag k="ssr:stedsnr" v="132941" />
	</node>
	<node lat="62.32302500251403" lon="10.345713883588187" id="-33352">
		<tag k="name" v="Vesltjørna" />
		<tag k="natural" v="water" />
		<tag k="ssr:stedsnr" v="132952" />
	</node>
	<node lat="62.36906388674172" lon="10.807113882373681" id="-33358">
		<tag k="name" v="Vardtjønna" />
		<tag k="natural" v="water" />
		<tag k="ssr:stedsnr" v="133169" />
	</node>
	<node lat="62.276288893103214" lon="10.857980547258807" id="-33359">
		<tag k="alt_name" v="Hugu, øvre;Østre Hugu;Øvre Hugubekken" />
		<tag k="name" v="Øvre Hugu" />
		<tag k="ssr:stedsnr" v="133251" />
		<tag k="waterway" v="stream" />
	</node>
	<node lat="62.4307488941428" lon="10.218784142662455" id="-33362">
		<tag k="alt_name" v="Veslbørsjøen" />
		<tag k="name" v="Vesl-Børsjøen" />
		<tag k="natural" v="water" />
		<tag k="old_name" v="Vesle Børsjøen;Børsjøen, vesl;Litlbørsjøen" />
		<tag k="ssr:stedsnr" v="133730" />
		<tag k="water" v="lake" />
	</node>
	<node lat="62.423136111038026" lon="10.197363891661272" id="-33363">
		<tag k="name" v="Tjørna" />
		<tag k="natural" v="water" />
		<tag k="ssr:stedsnr" v="133732" />
	</node>
	<node lat="62.28065277580324" lon="10.382963895219486" id="-33365">
		<tag k="alt_name" v="Stortjørna" />
		<tag k="name" v="Stortjønna" />
		<tag k="natural" v="water" />
		<tag k="ssr:stedsnr" v="133889" />
		<tag k="water" v="lake" />
	</node>
	<node lat="62.5750111115875" lon="10.186133327965285" id="-33367">
		<tag k="name" v="Søndre Taraldstjørna" />
		<tag k="natural" v="water" />
		<tag k="ssr:stedsnr" v="149399" />
	</node>
	<node lat="62.532599997969896" lon="10.335066658209488" id="-33374">
		<tag k="name" v="Blåhammerbekken" />
		<tag k="ssr:stedsnr" v="172050" />
		<tag k="waterway" v="stream" />
	</node>
	<node lat="62.25671111352694" lon="10.482861107596472" id="-33382">
		<tag k="name" v="Vesle Skolholmen" />
		<tag k="natural" v="cape" />
		<tag k="ssr:stedsnr" v="173789" />
	</node>
	<node lat="62.640477780834175" lon="10.326333332481283" id="-33387">
		<tag k="name" v="Sverjesjøbekken" />
		<tag k="ssr:stedsnr" v="172980" />
		<tag k="waterway" v="stream" />
	</node>
	<node lat="62.647580554022085" lon="10.249933337351914" id="-33388">
		<tag k="name" v="Kvenntjønna" />
		<tag k="natural" v="water" />
		<tag k="ssr:stedsnr" v="172986" />
	</node>
	<node lat="62.654008333570374" lon="10.134227783084235" id="-33390">
		<tag k="name" v="Leirbekkene" />
		<tag k="ssr:stedsnr" v="172998" />
		<tag k="waterway" v="stream" />
	</node>
	<node lat="62.362672222652435" lon="10.604011104108098" id="-33391">
		<tag k="name" v="Tunnfossen" />
		<tag k="natural" v="waterfall" />
		<tag k="ssr:stedsnr" v="173081" />
	</node>
	<node lat="62.41906111440054" lon="10.60794999796779" id="-33395">
		<tag k="name" v="Springarbekken" />
		<tag k="ssr:stedsnr" v="173043" />
		<tag k="waterway" v="stream" />
	</node>
	<node lat="62.29377777530667" lon="10.707127778310563" id="-33399">
		<tag k="name" v="Bondåsbekken" />
		<tag k="ssr:stedsnr" v="173120" />
		<tag k="waterway" v="stream" />
	</node>
	<node lat="62.36212777911804" lon="10.758741673142124" id="-33402">
		<tag k="name" v="Kvitstenbekken" />
		<tag k="ssr:stedsnr" v="173124" />
		<tag k="waterway" v="stream" />
	</node>
	<node lat="62.32579721955874" lon="10.594955558302788" id="-33405">
		<tag k="name" v="Svarthølen" />
		<tag k="natural" v="water" />
		<tag k="ssr:stedsnr" v="173177" />
	</node>
	<node lat="62.34754722395874" lon="10.62872222361823" id="-33407">
		<tag k="name" v="Ekornbekken" />
		<tag k="ssr:stedsnr" v="173185" />
		<tag k="waterway" v="stream" />
	</node>
	<node lat="62.28645277665195" lon="10.567975007474878" id="-33410">
		<tag k="name" v="Djupdalsbekken" />
		<tag k="ssr:stedsnr" v="173677" />
		<tag k="waterway" v="stream" />
	</node>
	<node lat="62.28739444328839" lon="10.586350007922949" id="-33411">
		<tag k="name" v="Slåttbekken" />
		<tag k="ssr:stedsnr" v="173682" />
		<tag k="waterway" v="stream" />
	</node>
	<node lat="62.31781388786772" lon="10.555336102440267" id="-33415">
		<tag k="name" v="Fåtjønna" />
		<tag k="natural" v="water" />
		<tag k="ssr:stedsnr" v="173819" />
	</node>
	<node lat="62.21627777818336" lon="10.825336116226424" id="-33419">
		<tag k="name" v="Rundtjønna" />
		<tag k="natural" v="water" />
		<tag k="ssr:stedsnr" v="173932" />
	</node>
	<node lat="62.42250278195876" lon="10.43300277387946" id="-33423">
		<tag k="name" v="Veslbekken" />
		<tag k="ssr:stedsnr" v="173974" />
		<tag k="waterway" v="stream" />
	</node>
	<node lat="62.429463888372204" lon="10.41069444973985" id="-33424">
		<tag k="name" v="Rundtjønna" />
		<tag k="natural" v="water" />
		<tag k="ssr:stedsnr" v="173975" />
	</node>
	<node lat="62.43329722027171" lon="10.45967499594053" id="-33425">
		<tag k="name" v="Frengstadbekken" />
		<tag k="ssr:stedsnr" v="173981" />
		<tag k="waterway" v="stream" />
	</node>
	<node lat="62.1542555563192" lon="10.851211119992303" id="-33435">
		<tag k="name" v="Ulvtjønnan" />
		<tag k="natural" v="water" />
		<tag k="ssr:stedsnr" v="174531" />
		<tag k="water" v="lake" />
	</node>
	<node lat="62.2270999955933" lon="10.74286667488585" id="-33438">
		<tag k="name" v="Hesjestøtjønna" />
		<tag k="natural" v="water" />
		<tag k="ssr:stedsnr" v="174987" />
	</node>
	<node lat="62.12520832934062" lon="10.833725002915024" id="-33445">
		<tag k="name" v="Brønnåa" />
		<tag k="ssr:stedsnr" v="192096" />
		<tag k="waterway" v="stream" />
	</node>
	<node lat="62.21993333517158" lon="10.762405559193985" id="-33446">
		<tag k="alt_name" v="Svarttjørna" />
		<tag k="name" v="Svarttjønna" />
		<tag k="natural" v="water" />
		<tag k="ssr:stedsnr" v="192212" />
	</node>
	<node lat="62.225127775509904" lon="10.869725007040932" id="-33447">
		<tag k="name" v="Storbekken" />
		<tag k="ssr:stedsnr" v="192226" />
		<tag k="waterway" v="stream" />
	</node>
	<node lat="62.214555559299605" lon="10.834486110908392" id="-33450">
		<tag k="alt_name" v="Kraggtjørna" />
		<tag k="name" v="Kraggtjønna" />
		<tag k="natural" v="water" />
		<tag k="ssr:stedsnr" v="192254" />
	</node>
	<node lat="62.25025555617732" lon="10.47515834084576" id="-33453">
		<tag k="name" v="Skolholmen" />
		<tag k="place" v="island" />
		<tag k="ssr:stedsnr" v="193025" />
	</node>
	<node lat="62.22341388977225" lon="10.53831388117291" id="-33462">
		<tag k="name" v="Sivilla" />
		<tag k="ssr:stedsnr" v="193084" />
		<tag k="waterway" v="river" />
	</node>
	<node lat="62.17900555432427" lon="10.931688888711081" id="-33464">
		<tag k="alt_name" v="Væråtjørna" />
		<tag k="name" v="Væråtjønna" />
		<tag k="natural" v="water" />
		<tag k="ssr:stedsnr" v="193146" />
	</node>
	<node lat="62.150788889869176" lon="10.897608324113747" id="-33465">
		<tag k="alt_name" v="Svarttjørna" />
		<tag k="name" v="Svarttjønna" />
		<tag k="natural" v="water" />
		<tag k="ssr:stedsnr" v="193178" />
	</node>
	<node lat="62.3195888929739" lon="10.798274996644139" id="-33467">
		<tag k="alt_name" v="Storåstjørna" />
		<tag k="name" v="Storåstjønna" />
		<tag k="natural" v="water" />
		<tag k="old_name" v="Langbrynn" />
		<tag k="ssr:stedsnr" v="193236" />
	</node>
	<node lat="62.24406110755368" lon="10.462716666033186" id="-33474">
		<tag k="name" v="Savalen" />
		<tag k="natural" v="water" />
		<tag k="ssr:stedsnr" v="193447" />
		<tag k="water" v="lake" />
	</node>
	<node lat="62.67274999712524" lon="10.174302783062828" id="-33477">
		<tag k="name" v="Vedbekken" />
		<tag k="ssr:stedsnr" v="193251" />
		<tag k="waterway" v="stream" />
	</node>
	<node lat="62.68395832899838" lon="10.399919449385013" id="-33480">
		<tag k="name" v="Hiåa" />
		<tag k="ssr:stedsnr" v="193411" />
		<tag k="waterway" v="river" />
	</node>
	<node lat="62.652825000850626" lon="10.621777777318531" id="-33481">
		<tag k="name" v="Midtya" />
		<tag k="ssr:stedsnr" v="193425" />
		<tag k="waterway" v="stream" />
	</node>
	<node lat="62.4937777771635" lon="10.131777772401826" id="-33482">
		<tag k="name" v="Midtlægerbekken" />
		<tag k="ssr:stedsnr" v="193524" />
		<tag k="waterway" v="stream" />
	</node>
	<node lat="62.31653888862239" lon="10.323774992303552" id="-33483">
		<tag k="alt_name" v="Borrebekken" />
		<tag k="name" v="Borbekken" />
		<tag k="ssr:stedsnr" v="193693" />
		<tag k="waterway" v="stream" />
	</node>
	<node lat="62.267516662403914" lon="10.821563880857147" id="-33486">
		<tag k="name" v="Storbekken" />
		<tag k="ssr:stedsnr" v="193704" />
		<tag k="waterway" v="stream" />
	</node>
	<node lat="62.368991665969986" lon="10.476527772107694" id="-33487">
		<tag k="alt_name" v="Lomsjøbekken" />
		<tag k="name" v="Lomsjøelva" />
		<tag k="ssr:stedsnr" v="193725" />
		<tag k="waterway" v="stream" />
	</node>
	<node lat="62.36700277377992" lon="10.288074995417974" id="-33488">
		<tag k="name" v="Grønhøbekken" />
		<tag k="ssr:stedsnr" v="193728" />
		<tag k="waterway" v="stream" />
	</node>
	<node lat="62.47001666266235" lon="10.500230555796659" id="-33495">
		<tag k="name" v="Kløftbekken" />
		<tag k="ssr:stedsnr" v="193868" />
		<tag k="waterway" v="stream" />
	</node>
	<node lat="62.42640833133752" lon="10.253311109074025" id="-33497">
		<tag k="name" v="Bubekken" />
		<tag k="ssr:stedsnr" v="193822" />
		<tag k="waterway" v="stream" />
	</node>
	<node lat="62.30353333551616" lon="10.290066664257074" id="-33499">
		<tag k="name" v="Fallet" />
		<tag k="natural" v="waterfall" />
		<tag k="ssr:stedsnr" v="193909" />
	</node>
	<node lat="62.34198889141918" lon="10.508111104640514" id="-33501">
		<tag k="alt_name" v="Svarttjørna" />
		<tag k="name" v="Svarttjønna" />
		<tag k="natural" v="water" />
		<tag k="ssr:stedsnr" v="193963" />
	</node>
	<node lat="62.310911109238575" lon="10.516141665912265" id="-33508">
		<tag k="name" v="Savalbotn" />
		<tag k="natural" v="bay" />
		<tag k="ssr:stedsnr" v="193917" />
	</node>
	<node lat="62.36599444557543" lon="10.375741673770941" id="-33509">
		<tag k="name" v="Rødalsbekken" />
		<tag k="ssr:stedsnr" v="193993" />
		<tag k="waterway" v="stream" />
	</node>
	<node lat="62.35652499886078" lon="10.52690834066265" id="-33510">
		<tag k="name" v="Dipilan" />
		<tag k="natural" v="water" />
		<tag k="ssr:stedsnr" v="193999" />
	</node>
	<node lat="62.54143888665763" lon="10.441786120364737" id="-33514">
		<tag k="alt_name" v="Gruvebekken" />
		<tag k="name" v="Gruvbekken" />
		<tag k="ssr:stedsnr" v="194047" />
		<tag k="waterway" v="stream" />
	</node>
	<node lat="62.52508333443115" lon="10.316016675251642" id="-33516">
		<tag k="alt_name" v="Svarttjørn;Svarttjørna" />
		<tag k="name" v="Svarttjønna" />
		<tag k="natural" v="water" />
		<tag k="ssr:stedsnr" v="194057" />
	</node>
	<node lat="62.55537777529232" lon="10.267411115783256" id="-33518">
		<tag k="alt_name" v="Innsjøen, l" />
		<tag k="name" v="Litl-Innsjøen" />
		<tag k="natural" v="water" />
		<tag k="ssr:stedsnr" v="194067" />
		<tag k="water" v="lake" />
	</node>
	<node lat="62.55081944333789" lon="10.634524993287142" id="-33519">
		<tag k="name" v="Eventjønna" />
		<tag k="natural" v="water" />
		<tag k="ssr:stedsnr" v="194073" />
	</node>
	<node lat="62.58176666825662" lon="10.206883328790815" id="-33524">
		<tag k="alt_name" v="Rensbekken" />
		<tag k="name" v="Reinsbekken" />
		<tag k="ssr:stedsnr" v="194400" />
		<tag k="waterway" v="stream" />
	</node>
	<node lat="62.39621944188461" lon="10.225930561865995" id="-33529">
		<tag k="name" v="Veslåsbekken" />
		<tag k="ssr:stedsnr" v="194769" />
		<tag k="waterway" v="stream" />
	</node>
	<node lat="62.40623580008435" lon="10.592022416996475" id="-33532">
		<tag k="alt_name" v="Kroktjønnan" />
		<tag k="name" v="Kroktjørnan" />
		<tag k="natural" v="water" />
		<tag k="ssr:stedsnr" v="194791" />
		<tag k="water" v="lake" />
	</node>
	<node lat="62.4231333353165" lon="10.54833332920897" id="-33534">
		<tag k="name" v="Magnilla" />
		<tag k="ssr:stedsnr" v="194809" />
		<tag k="waterway" v="river" />
	</node>
	<node lat="62.279252780319105" lon="10.4069333398243" id="-33537">
		<tag k="alt_name" v="Fisktjørna" />
		<tag k="name" v="Fisktjønna" />
		<tag k="natural" v="water" />
		<tag k="ssr:stedsnr" v="194879" />
	</node>
	<node lat="62.277019441073726" lon="10.470980556832542" id="-33538">
		<tag k="alt_name" v="Langtjørna" />
		<tag k="name" v="Langtjønna" />
		<tag k="natural" v="water" />
		<tag k="ssr:stedsnr" v="194881" />
	</node>
	<node lat="62.291149998692234" lon="10.462533334560787" id="-33541">
		<tag k="name" v="Nørdstetjørna" />
		<tag k="natural" v="water" />
		<tag k="ssr:stedsnr" v="194898" />
	</node>
	<node lat="62.599383333005136" lon="10.376291662609498" id="-33544">
		<tag k="name" v="Hælfjelltjørna" />
		<tag k="natural" v="water" />
		<tag k="ssr:stedsnr" v="210499" />
	</node>
	<node lat="62.6087138896459" lon="10.508591660716199" id="-33545">
		<tag k="name" v="Delbekken" />
		<tag k="ssr:stedsnr" v="210509" />
		<tag k="waterway" v="stream" />
	</node>
	<node lat="62.602916669121875" lon="10.080855556865556" id="-33547">
		<tag k="name" v="Skjeftlibekken" />
		<tag k="ssr:stedsnr" v="279958" />
		<tag k="waterway" v="stream" />
	</node>
	<node lat="62.54267778103478" lon="10.313366665340048" id="-33551">
		<tag k="name" v="Gjertrudstjønnbekken" />
		<tag k="ssr:stedsnr" v="293083" />
		<tag k="waterway" v="stream" />
	</node>
	<node lat="62.51678055371383" lon="10.315566661516772" id="-33555">
		<tag k="name" v="Øvre Hyllbekktjønna" />
		<tag k="natural" v="water" />
		<tag k="ssr:stedsnr" v="293149" />
	</node>
	<node lat="62.34708888684672" lon="10.661888890096641" id="-33559">
		<tag k="name" v="Svartåsbekken" />
		<tag k="ssr:stedsnr" v="294056" />
		<tag k="waterway" v="stream" />
	</node>
	<node lat="62.47468055215776" lon="10.405222212869976" id="-33561">
		<tag k="name" v="Bergebekken" />
		<tag k="ssr:stedsnr" v="293772" />
		<tag k="waterway" v="stream" />
	</node>
	<node lat="62.49490833570223" lon="10.391486113396978" id="-33562">
		<tag k="name" v="Kvennbekken" />
		<tag k="ssr:stedsnr" v="293782" />
		<tag k="waterway" v="stream" />
	</node>
	<node lat="62.32451944270668" lon="10.61183889713596" id="-33574">
		<tag k="name" v="Hagenbekken" />
		<tag k="ssr:stedsnr" v="294172" />
		<tag k="waterway" v="stream" />
	</node>
	<node lat="62.32401944751881" lon="10.602888880643016" id="-33579">
		<tag k="name" v="Tjønnlibekken" />
		<tag k="ssr:stedsnr" v="294176" />
		<tag k="waterway" v="stream" />
	</node>
	<node lat="62.35353888556409" lon="10.76674444283971" id="-33581">
		<tag k="name" v="Flotjønna" />
		<tag k="natural" v="water" />
		<tag k="ssr:stedsnr" v="294181" />
	</node>
	<node lat="62.36248610946004" lon="10.815930555882112" id="-33582">
		<tag k="name" v="Vardtjønnbekken" />
		<tag k="ssr:stedsnr" v="294186" />
		<tag k="waterway" v="stream" />
	</node>
	<node lat="62.54961944751632" lon="10.350802785639024" id="-33583">
		<tag k="name" v="Granenghølen" />
		<tag k="place" v="locality" />
		<tag k="ssr:stedsnr" v="294213" />
	</node>
	<node lat="62.25539444528683" lon="10.879838887286803" id="-33585">
		<tag k="name" v="Veslehugu" />
		<tag k="ssr:stedsnr" v="294467" />
		<tag k="waterway" v="stream" />
	</node>
	<node lat="62.334936114506945" lon="10.56473610307318" id="-33593">
		<tag k="name" v="Middagstjønna" />
		<tag k="natural" v="water" />
		<tag k="ssr:stedsnr" v="294845" />
	</node>
	<node lat="62.225550001757256" lon="10.945133339236367" id="-33600">
		<tag k="name" v="Knøsbekken" />
		<tag k="ssr:stedsnr" v="295444" />
		<tag k="waterway" v="stream" />
	</node>
	<node lat="62.6676694415987" lon="10.179277780967439" id="-33606">
		<tag k="alt_name" v="Breidvadstjørna;Brevadstjønna" />
		<tag k="name" v="Brevadstjørna" />
		<tag k="natural" v="water" />
		<tag k="ssr:stedsnr" v="314295" />
	</node>
	<node lat="62.08790833518281" lon="10.95114165786947" id="-33607">
		<tag k="name" v="Ropartjørnan" />
		<tag k="natural" v="water" />
		<tag k="ssr:stedsnr" v="314023" />
	</node>
	<node lat="62.17135555655239" lon="10.845700001748895" id="-33610">
		<tag k="alt_name" v="Vordbekken" />
		<tag k="name" v="Volbekken" />
		<tag k="ssr:stedsnr" v="314143" />
		<tag k="waterway" v="stream" />
	</node>
	<node lat="62.15924166435629" lon="10.73662499475514" id="-33611">
		<tag k="name" v="Grøtåa" />
		<tag k="ssr:stedsnr" v="314153" />
		<tag k="waterway" v="stream" />
	</node>
	<node lat="62.57487500131914" lon="10.48640000939985" id="-33620">
		<tag k="name" v="Svartsjøen" />
		<tag k="natural" v="water" />
		<tag k="ssr:stedsnr" v="315075" />
	</node>
	<node lat="62.460419445717896" lon="10.432600008948269" id="-33625">
		<tag k="alt_name" v="Bergebekktjørna" />
		<tag k="name" v="Bergebekktjønna" />
		<tag k="natural" v="water" />
		<tag k="ssr:stedsnr" v="314840" />
	</node>
	<node lat="62.60258333152738" lon="10.151174998138956" id="-33631">
		<tag k="alt_name" v="Larslitjønna" />
		<tag k="name" v="Larslitjørna" />
		<tag k="natural" v="water" />
		<tag k="ssr:stedsnr" v="315421" />
	</node>
	<node lat="62.25428333181882" lon="10.799330549530668" id="-33632">
		<tag k="name" v="Kvernbekken" />
		<tag k="ssr:stedsnr" v="315730" />
		<tag k="waterway" v="stream" />
	</node>
	<node lat="62.43984166423336" lon="10.593411108202451" id="-33635">
		<tag k="name" v="Busjøbekken" />
		<tag k="ssr:stedsnr" v="315834" />
		<tag k="waterway" v="stream" />
	</node>
	<node lat="62.3920361153879" lon="10.706191663544164" id="-33641">
		<tag k="name" v="Lonsjøen" />
		<tag k="natural" v="water" />
		<tag k="ssr:stedsnr" v="315783" />
	</node>
	<node lat="62.345838887304666" lon="10.59989999151019" id="-33643">
		<tag k="alt_name" v="Rødhammartjønna" />
		<tag k="name" v="Raudhåmmårtjørna" />
		<tag k="natural" v="water" />
		<tag k="ssr:stedsnr" v="315973" />
	</node>
	<node lat="62.58352500273358" lon="10.581805555867223" id="-33648">
		<tag k="alt_name" v="Heimvasstjørna" />
		<tag k="name" v="Hemvasstjønna" />
		<tag k="natural" v="water" />
		<tag k="ssr:stedsnr" v="331077" />
	</node>
	<node lat="62.58581666613155" lon="10.271872219796617" id="-33653">
		<tag k="name" v="Mosbekken" />
		<tag k="ssr:stedsnr" v="353026" />
		<tag k="waterway" v="stream" />
	</node>
	<node lat="62.091486111522464" lon="10.945525008050762" id="-33658">
		<tag k="name" v="Nordre Ropartjønna" />
		<tag k="natural" v="water" />
		<tag k="ssr:stedsnr" v="354406" />
	</node>
	<node lat="62.4906666704552" lon="10.301994443790848" id="-33659">
		<tag k="name" v="Koieengbekken" />
		<tag k="ssr:stedsnr" v="354132" />
		<tag k="waterway" v="stream" />
	</node>
	<node lat="62.48856388670458" lon="10.315697218381734" id="-33660">
		<tag k="name" v="Stakengbekken" />
		<tag k="ssr:stedsnr" v="354133" />
		<tag k="waterway" v="stream" />
	</node>
	<node lat="62.43682777512252" lon="10.409902781070338" id="-33670">
		<tag k="name" v="Kattjønna" />
		<tag k="natural" v="water" />
		<tag k="ssr:stedsnr" v="354972" />
	</node>
	<node lat="62.44436944836569" lon="10.446136112599584" id="-33671">
		<tag k="name" v="Litlengbekken" />
		<tag k="ssr:stedsnr" v="354996" />
		<tag k="waterway" v="stream" />
	</node>
	<node lat="62.355827776304636" lon="10.684272227203573" id="-33685">
		<tag k="name" v="Bergebekken" />
		<tag k="ssr:stedsnr" v="355131" />
		<tag k="waterway" v="stream" />
	</node>
	<node lat="62.3179805577709" lon="10.765647214689967" id="-33687">
		<tag k="name" v="Midtbekken" />
		<tag k="ssr:stedsnr" v="355138" />
		<tag k="waterway" v="stream" />
	</node>
	<node lat="62.14794999892141" lon="10.867083339210751" id="-33693">
		<tag k="name" v="Kjurutjønna" />
		<tag k="natural" v="water" />
		<tag k="ssr:stedsnr" v="355433" />
	</node>
	<node lat="62.334858329840124" lon="10.440619444450915" id="-33696">
		<tag k="name" v="Sparsjøbekken" />
		<tag k="ssr:stedsnr" v="355442" />
		<tag k="waterway" v="stream" />
	</node>
	<node lat="62.37908055427706" lon="10.510586118051672" id="-33701">
		<tag k="name" v="Hakkestøbekken" />
		<tag k="ssr:stedsnr" v="355698" />
		<tag k="waterway" v="stream" />
	</node>
	<node lat="62.30983888758056" lon="10.541208338900018" id="-33703">
		<tag k="name" v="Kviknedølsbekken" />
		<tag k="ssr:stedsnr" v="355815" />
		<tag k="waterway" v="stream" />
	</node>
	<node lat="62.18121389071381" lon="10.746366667354478" id="-33709">
		<tag k="name" v="Gammelsæterbekken" />
		<tag k="ssr:stedsnr" v="355913" />
		<tag k="waterway" v="stream" />
	</node>
	<node lat="62.21644999910478" lon="10.73690000027428" id="-33716">
		<tag k="name" v="Veslbekken" />
		<tag k="ssr:stedsnr" v="355884" />
		<tag k="waterway" v="stream" />
	</node>
	<node lat="62.171355553072125" lon="10.914197219644318" id="-33721">
		<tag k="name" v="Vesletjønnbekken" />
		<tag k="ssr:stedsnr" v="356483" />
		<tag k="waterway" v="stream" />
	</node>
	<node lat="62.21401389109056" lon="10.759963891050338" id="-33728">
		<tag k="alt_name" v="Trondsjøbekken" />
		<tag k="name" v="Tronsjøbekken" />
		<tag k="ssr:stedsnr" v="374219" />
		<tag k="waterway" v="stream" />
	</node>
	<node lat="62.18405000036247" lon="10.916408341129914" id="-33730">
		<tag k="name" v="Svartbekken" />
		<tag k="ssr:stedsnr" v="374167" />
		<tag k="waterway" v="stream" />
	</node>
	<node lat="62.209402778285025" lon="11.046250002777944" id="-33737">
		<tag k="name" v="Speka" />
		<tag k="ssr:stedsnr" v="374257" />
		<tag k="waterway" v="river" />
	</node>
	<node lat="62.32883055548635" lon="10.59094444777857" id="-33740">
		<tag k="alt_name" v="Vesletjørna" />
		<tag k="name" v="Vesltjønna" />
		<tag k="natural" v="water" />
		<tag k="ssr:stedsnr" v="375939" />
	</node>
	<node lat="62.333477777501614" lon="10.359366664553816" id="-33741">
		<tag k="name" v="Butjørna" />
		<tag k="natural" v="water" />
		<tag k="ssr:stedsnr" v="375947" />
	</node>
	<node lat="62.07420277568299" lon="10.895888896189984" id="-33742">
		<tag k="alt_name" v="Kalvbekktjørna" />
		<tag k="name" v="Kalvbekktjønna" />
		<tag k="natural" v="water" />
		<tag k="ssr:stedsnr" v="375012" />
	</node>
	<node lat="62.257702777497535" lon="10.475719448313816" id="-33743">
		<tag k="name" v="Flisholmen" />
		<tag k="natural" v="cape" />
		<tag k="ssr:stedsnr" v="375021" />
	</node>
	<node lat="62.1512652532871" lon="10.987704518401472" id="-33747">
		<tag k="alt_name" v="Kjøldgruvbekken" />
		<tag k="name" v="Kjøldgrubbekken" />
		<tag k="ssr:stedsnr" v="375151" />
		<tag k="waterway" v="stream" />
	</node>
</osm>
