<?xml version="1.0" encoding="UTF-8"?>
<osm generator="osmapis" version="0.6">
	<node id="-352256" lat="62.3154000028" lon="10.9680138857">
		<tag k="name" v="Hyttskrivargrubba" />
		<tag k="natural" v="valley" />
		<tag k="place" v="locality" />
		<tag k="ssr:stedsnr" v="800279" />
	</node>
	<node id="-352255" lat="62.3218944438" lon="10.9922638844">
		<tag k="alt_name" v="Telgardsvola" />
		<tag k="fixme" v="consider natural=peak for the most distinct mountains in the district" />
		<tag k="name" v="Teldalsvola" />
		<tag k="natural" v="hill" />
		<tag k="place" v="locality" />
		<tag k="ssr:stedsnr" v="800278" />
	</node>
	<node id="-352250" lat="62.3092916633" lon="10.8265416699">
		<tag k="name" v="Nysæterlia" />
		<tag k="natural" v="slope" />
		<tag k="place" v="locality" />
		<tag k="ssr:stedsnr" v="800250" />
	</node>
	<node id="-350207" lat="62.25348056" lon="10.6491305515">
		<tag k="name" v="Elvås" />
		<tag k="natural" v="slope" />
		<tag k="place" v="locality" />
		<tag k="ssr:stedsnr" v="679031" />
	</node>
	<node id="-350194" lat="62.1370277732" lon="10.817627787">
		<tag k="name" v="Vatningssletta" />
		<tag k="place" v="locality" />
		<tag k="ssr:stedsnr" v="477908" />
	</node>
	<node id="-350193" lat="62.1387000011" lon="10.8358444474">
		<tag k="name" v="Jerpvangbakken" />
		<tag k="natural" v="slope" />
		<tag k="place" v="locality" />
		<tag k="ssr:stedsnr" v="477906" />
	</node>
	<node id="-350192" lat="62.1272722262" lon="10.7676527838">
		<tag k="name" v="Slettmoen" />
		<tag k="place" v="locality" />
		<tag k="ssr:stedsnr" v="477791" />
	</node>
	<node id="-352239" lat="62.2299277758" lon="10.9186861102">
		<tag k="name" v="Oppmåshøa" />
		<tag k="natural" v="hill" />
		<tag k="place" v="locality" />
		<tag k="ssr:stedsnr" v="800197" />
	</node>
	<node id="-352236" lat="62.6566444444" lon="10.5001583309">
		<tag k="fixme" v="consider natural=peak for the most distinct mountains in the district" />
		<tag k="name" v="Russutangen" />
		<tag k="natural" v="hill" />
		<tag k="place" v="locality" />
		<tag k="ssr:stedsnr" v="800099" />
	</node>
	<node id="-350187" lat="62.2506777743" lon="10.8581666642">
		<tag k="name" v="Beitrøsta" />
		<tag k="natural" v="slope" />
		<tag k="place" v="locality" />
		<tag k="ssr:stedsnr" v="477454" />
	</node>
	<node id="-349855" lat="62.3027083348" lon="10.4641972236">
		<tag k="alt_name" v="Bangardsvorda" />
		<tag k="fixme" v="consider natural=peak for the most distinct mountains in the district" />
		<tag k="name" v="Bangardsvola" />
		<tag k="natural" v="hill" />
		<tag k="place" v="locality" />
		<tag k="ssr:stedsnr" v="315924" />
	</node>
	<node id="-352232" lat="62.5714499961" lon="10.2586333301">
		<tag k="fixme" v="consider natural=peak for the most distinct mountains in the district" />
		<tag k="name" v="Storkleiva" />
		<tag k="natural" v="hill" />
		<tag k="place" v="locality" />
		<tag k="ssr:stedsnr" v="800083" />
	</node>
	<node id="-352230" lat="62.2337361099" lon="10.6810527817">
		<tag k="name" v="Måna" />
		<tag k="natural" v="hill" />
		<tag k="place" v="locality" />
		<tag k="ssr:stedsnr" v="800080" />
	</node>
	<node id="-350179" lat="62.2433166655" lon="10.5832777736">
		<tag k="name" v="Knappåsen" />
		<tag k="natural" v="hill" />
		<tag k="place" v="locality" />
		<tag k="ssr:stedsnr" v="476818" />
	</node>
	<node id="-350175" lat="62.3464111095" lon="10.9627861029">
		<tag k="name" v="Vatninga" />
		<tag k="natural" v="slope" />
		<tag k="place" v="locality" />
		<tag k="ssr:stedsnr" v="476268" />
	</node>
	<node id="-350173" lat="62.3225361091" lon="10.9617666662">
		<tag k="name" v="Loken" />
		<tag k="natural" v="valley" />
		<tag k="place" v="locality" />
		<tag k="ssr:stedsnr" v="476304" />
	</node>
	<node id="-350202" lat="62.238224996" lon="10.8379638829">
		<tag k="fixme" v="consider natural=peak for the most distinct mountains in the district" />
		<tag k="name" v="Bratthøa" />
		<tag k="natural" v="hill" />
		<tag k="place" v="locality" />
		<tag k="ssr:stedsnr" v="678240" />
	</node>
	<node id="-352218" lat="62.134186112" lon="10.9714999935">
		<tag k="name" v="Værådalen" />
		<tag k="natural" v="valley" />
		<tag k="place" v="locality" />
		<tag k="ssr:stedsnr" v="799173" />
	</node>
	<node id="-352215" lat="62.1432361139" lon="10.8054888954">
		<tag k="name" v="Korhaugen" />
		<tag k="natural" v="hill" />
		<tag k="place" v="locality" />
		<tag k="ssr:stedsnr" v="781879" />
	</node>
	<node id="-350201" lat="62.2193027737" lon="11.0207000024">
		<tag k="alt_name" v="Kvitkua" />
		<tag k="fixme" v="consider natural=peak for the most distinct mountains in the district" />
		<tag k="name" v="Kvitkuven" />
		<tag k="natural" v="hill" />
		<tag k="place" v="locality" />
		<tag k="ssr:stedsnr" v="678216" />
	</node>
	<node id="-350162" lat="62.1773666694" lon="10.8431888819">
		<tag k="name" v="Grønndalen" />
		<tag k="natural" v="valley" />
		<tag k="place" v="locality" />
		<tag k="ssr:stedsnr" v="659493" />
	</node>
	<node id="-352209" lat="62.2620055521" lon="10.6090638934">
		<tag k="name" v="Kvannrøsta" />
		<tag k="place" v="locality" />
		<tag k="ssr:stedsnr" v="781151" />
	</node>
	<node id="-350160" lat="62.1698472216" lon="10.9548361075">
		<tag k="name" v="Illmyrbakken" />
		<tag k="natural" v="slope" />
		<tag k="place" v="locality" />
		<tag k="ssr:stedsnr" v="659491" />
	</node>
	<node id="-352207" lat="62.1537611094" lon="10.7622249997">
		<tag k="name" v="Rønningslia" />
		<tag k="natural" v="slope" />
		<tag k="place" v="locality" />
		<tag k="ssr:stedsnr" v="781032" />
	</node>
	<node id="-352206" lat="62.2433777801" lon="10.7924916757">
		<tag k="name" v="Langhaugen" />
		<tag k="natural" v="hill" />
		<tag k="place" v="locality" />
		<tag k="ssr:stedsnr" v="780929" />
	</node>
	<node id="-350157" lat="62.1215361124" lon="10.9398055492">
		<tag k="fixme" v="consider natural=peak for the most distinct mountains in the district" />
		<tag k="name" v="Vardhøa" />
		<tag k="natural" v="hill" />
		<tag k="place" v="locality" />
		<tag k="ssr:stedsnr" v="659472" />
	</node>
	<node id="-350155" lat="62.2817249959" lon="10.6922805549">
		<tag k="name" v="Brenthaugen" />
		<tag k="natural" v="hill" />
		<tag k="place" v="locality" />
		<tag k="ssr:stedsnr" v="659142" />
	</node>
	<node id="-352202" lat="62.2340666674" lon="10.5827805554">
		<tag k="fixme" v="consider natural=peak for the most distinct mountains in the district" />
		<tag k="name" v="Skolderåsen" />
		<tag k="natural" v="hill" />
		<tag k="place" v="locality" />
		<tag k="ssr:stedsnr" v="780792" />
	</node>
	<node id="-350150" lat="62.2768527811" lon="10.8264111038">
		<tag k="name" v="Ytre Grønfjellia" />
		<tag k="natural" v="slope" />
		<tag k="place" v="locality" />
		<tag k="ssr:stedsnr" v="659070" />
	</node>
	<node id="-350145" lat="62.1691277785" lon="10.7773305555">
		<tag k="name" v="Oppårostrøa" />
		<tag k="place" v="locality" />
		<tag k="ssr:stedsnr" v="658821" />
	</node>
	<node id="-350144" lat="62.236808334" lon="10.5558777782">
		<tag k="fixme" v="consider natural=peak for the most distinct mountains in the district" />
		<tag k="name" v="Hammeren" />
		<tag k="natural" v="hill" />
		<tag k="place" v="locality" />
		<tag k="ssr:stedsnr" v="658802" />
	</node>
	<node id="-350142" lat="62.2644694482" lon="10.4749277831">
		<tag k="name" v="Holman" />
		<tag k="natural" v="hill" />
		<tag k="place" v="locality" />
		<tag k="ssr:stedsnr" v="658787" />
	</node>
	<node id="-352188" lat="62.2766000016" lon="10.9786944399">
		<tag k="name" v="Brentegga" />
		<tag k="natural" v="slope" />
		<tag k="place" v="locality" />
		<tag k="ssr:stedsnr" v="780330" />
	</node>
	<node id="-352187" lat="62.343638887" lon="10.6334833388">
		<tag k="name" v="Tovåsen" />
		<tag k="natural" v="hill" />
		<tag k="place" v="locality" />
		<tag k="ssr:stedsnr" v="780309" />
	</node>
	<node id="-352185" lat="62.363161112" lon="10.7810888797">
		<tag k="name" v="Storsletta" />
		<tag k="place" v="locality" />
		<tag k="ssr:stedsnr" v="780210" />
	</node>
	<node id="-350136" lat="62.4358194416" lon="10.4610083344">
		<tag k="name" v="Djupdalen" />
		<tag k="natural" v="valley" />
		<tag k="place" v="locality" />
		<tag k="ssr:stedsnr" v="658979" />
	</node>
	<node id="-352183" lat="62.2917138888" lon="10.6680305604">
		<tag k="name" v="Rundhaugen" />
		<tag k="natural" v="hill" />
		<tag k="place" v="locality" />
		<tag k="ssr:stedsnr" v="780144" />
	</node>
	<node id="-350134" lat="62.450636114" lon="10.368516671">
		<tag k="name" v="Grønbakken" />
		<tag k="natural" v="slope" />
		<tag k="place" v="locality" />
		<tag k="ssr:stedsnr" v="658963" />
	</node>
	<node id="-352180" lat="62.2693972248" lon="10.7988305521">
		<tag k="name" v="Rundmoen" />
		<tag k="place" v="locality" />
		<tag k="ssr:stedsnr" v="780071" />
	</node>
	<node id="-350130" lat="62.1059444403" lon="10.7863305605">
		<tag k="name" v="Hokstadberget" />
		<tag k="natural" v="hill" />
		<tag k="place" v="locality" />
		<tag k="ssr:stedsnr" v="658652" />
	</node>
	<node id="-350128" lat="62.403144449" lon="10.5723861034">
		<tag k="name" v="Kroktjønnlia" />
		<tag k="natural" v="slope" />
		<tag k="place" v="locality" />
		<tag k="ssr:stedsnr" v="658641" />
	</node>
	<node id="-350126" lat="62.0563277807" lon="10.9104500091">
		<tag k="name" v="Rokkdalen" />
		<tag k="natural" v="valley" />
		<tag k="place" v="locality" />
		<tag k="ssr:stedsnr" v="658401" />
	</node>
	<node id="-350122" lat="62.4470333301" lon="10.5667055506">
		<tag k="name" v="Vesle Busjøvola" />
		<tag k="natural" v="hill" />
		<tag k="place" v="locality" />
		<tag k="ssr:stedsnr" v="658365" />
	</node>
	<node id="-350121" lat="62.3556027801" lon="10.7598916605">
		<tag k="name" v="Kutjønnåsen" />
		<tag k="natural" v="hill" />
		<tag k="place" v="locality" />
		<tag k="ssr:stedsnr" v="658204" />
	</node>
	<node id="-352167" lat="62.5936361072" lon="10.1416305469">
		<tag k="name" v="Larslia" />
		<tag k="natural" v="slope" />
		<tag k="place" v="locality" />
		<tag k="ssr:stedsnr" v="779853" />
	</node>
	<node id="-352165" lat="62.5522472187" lon="10.215833335">
		<tag k="fixme" v="consider natural=peak for the most distinct mountains in the district" />
		<tag k="name" v="Rensfjellet" />
		<tag k="natural" v="hill" />
		<tag k="place" v="locality" />
		<tag k="ssr:stedsnr" v="779796" />
	</node>
	<node id="-352162" lat="62.4910694487" lon="10.3627805558">
		<tag k="name" v="Litlfagerhaugen" />
		<tag k="natural" v="hill" />
		<tag k="place" v="locality" />
		<tag k="ssr:stedsnr" v="779782" />
	</node>
	<node id="-352161" lat="62.486424997" lon="10.3927249926">
		<tag k="name" v="Totlandåsen" />
		<tag k="natural" v="hill" />
		<tag k="place" v="locality" />
		<tag k="ssr:stedsnr" v="779780" />
	</node>
	<node id="-352158" lat="62.4987611116" lon="10.133075001">
		<tag k="name" v="Elgsåtangen" />
		<tag k="natural" v="ridge" />
		<tag k="place" v="locality" />
		<tag k="ssr:stedsnr" v="779703" />
	</node>
	<node id="-350109" lat="62.6348722247" lon="10.2429833365">
		<tag k="name" v="Kluggu" />
		<tag k="natural" v="valley" />
		<tag k="place" v="locality" />
		<tag k="ssr:stedsnr" v="657978" />
	</node>
	<node id="-352156" lat="62.2472805524" lon="10.9572805559">
		<tag k="name" v="Grasrøsta" />
		<tag k="natural" v="slope" />
		<tag k="place" v="locality" />
		<tag k="ssr:stedsnr" v="779476" />
	</node>
	<node id="-350106" lat="62.3037250038" lon="10.6605888964">
		<tag k="fixme" v="consider natural=peak for the most distinct mountains in the district" />
		<tag k="name" v="Stormyråsen" />
		<tag k="natural" v="hill" />
		<tag k="place" v="locality" />
		<tag k="ssr:stedsnr" v="658138" />
	</node>
	<node id="-352150" lat="62.2963472183" lon="10.9540222187">
		<tag k="name" v="Storløeengrøsta" />
		<tag k="natural" v="slope" />
		<tag k="place" v="locality" />
		<tag k="ssr:stedsnr" v="779326" />
	</node>
	<node id="-352148" lat="62.3057166639" lon="10.8678805597">
		<tag k="name" v="Lermælen" />
		<tag k="natural" v="slope" />
		<tag k="place" v="locality" />
		<tag k="ssr:stedsnr" v="779294" />
	</node>
	<node id="-350095" lat="62.5626986723" lon="10.4539776715">
		<tag k="name" v="Storflohaugen" />
		<tag k="natural" v="hill" />
		<tag k="place" v="locality" />
		<tag k="ssr:stedsnr" v="657200" />
	</node>
	<node id="-352142" lat="62.512997224" lon="10.2951777778">
		<tag k="name" v="Litllia" />
		<tag k="natural" v="slope" />
		<tag k="place" v="locality" />
		<tag k="ssr:stedsnr" v="779114" />
	</node>
	<node id="-350091" lat="62.5060194486" lon="10.2353833394">
		<tag k="name" v="Skaret" />
		<tag k="natural" v="valley" />
		<tag k="place" v="locality" />
		<tag k="ssr:stedsnr" v="657071" />
	</node>
	<node id="-352138" lat="62.4891944431" lon="10.26686666">
		<tag k="name" v="Sløbekkdalen" />
		<tag k="natural" v="valley" />
		<tag k="place" v="locality" />
		<tag k="ssr:stedsnr" v="779063" />
	</node>
	<node id="-350089" lat="62.4635444442" lon="10.5168361041">
		<tag k="fixme" v="consider natural=peak for the most distinct mountains in the district" />
		<tag k="name" v="Bjørntangen" />
		<tag k="natural" v="hill" />
		<tag k="place" v="locality" />
		<tag k="ssr:stedsnr" v="436866" />
	</node>
	<node id="-352135" lat="62.5843000042" lon="10.2891361022">
		<tag k="name" v="Veensberga" />
		<tag k="natural" v="hill" />
		<tag k="place" v="locality" />
		<tag k="ssr:stedsnr" v="779022" />
	</node>
	<node id="-352134" lat="62.538230551" lon="10.3303694525">
		<tag k="name" v="Rådløsbakken" />
		<tag k="natural" v="slope" />
		<tag k="place" v="locality" />
		<tag k="ssr:stedsnr" v="778060" />
	</node>
	<node id="-352130" lat="62.5437083332" lon="10.1722500058">
		<tag k="name" v="Englia" />
		<tag k="natural" v="slope" />
		<tag k="place" v="locality" />
		<tag k="ssr:stedsnr" v="756388" />
	</node>
	<node id="-350080" lat="62.6017499981" lon="10.1715166678">
		<tag k="fixme" v="consider natural=peak for the most distinct mountains in the district" />
		<tag k="name" v="Stormurhøa" />
		<tag k="natural" v="hill" />
		<tag k="place" v="locality" />
		<tag k="ssr:stedsnr" v="436412" />
	</node>
	<node id="-352127" lat="62.2840416682" lon="10.5027250015">
		<tag k="name" v="Midtberget" />
		<tag k="natural" v="hill" />
		<tag k="place" v="locality" />
		<tag k="ssr:stedsnr" v="740879" />
	</node>
	<node id="-352123" lat="62.3857861072" lon="10.5381833402">
		<tag k="fixme" v="consider natural=peak for the most distinct mountains in the district" />
		<tag k="name" v="Slettåsen" />
		<tag k="natural" v="hill" />
		<tag k="place" v="locality" />
		<tag k="ssr:stedsnr" v="740780" />
	</node>
	<node id="-350068" lat="62.2337999961" lon="10.8841333417">
		<tag k="fixme" v="consider natural=peak for the most distinct mountains in the district" />
		<tag k="name" v="Veslkletten" />
		<tag k="natural" v="hill" />
		<tag k="place" v="locality" />
		<tag k="ssr:stedsnr" v="436205" />
	</node>
	<node id="-350067" lat="62.2545944434" lon="10.6215749978">
		<tag k="fixme" v="consider natural=peak for the most distinct mountains in the district" />
		<tag k="name" v="Brekkåsen" />
		<tag k="natural" v="hill" />
		<tag k="place" v="locality" />
		<tag k="ssr:stedsnr" v="436024" />
	</node>
	<node id="-352113" lat="62.3389277782" lon="10.6090499963">
		<tag k="alt_name" v="Rødhammaren" />
		<tag k="fixme" v="consider natural=peak for the most distinct mountains in the district" />
		<tag k="name" v="Raudhåmmåren" />
		<tag k="natural" v="hill" />
		<tag k="place" v="locality" />
		<tag k="ssr:stedsnr" v="739977" />
	</node>
	<node id="-350064" lat="62.100499997" lon="10.9626027747">
		<tag k="fixme" v="consider natural=peak for the most distinct mountains in the district" />
		<tag k="name" v="Risbekkfjellet" />
		<tag k="natural" v="hill" />
		<tag k="place" v="locality" />
		<tag k="ssr:stedsnr" v="435152" />
	</node>
	<node id="-352111" lat="62.4565416692" lon="10.4449055647">
		<tag k="alt_name" v="Musmørdalshøgda" />
		<tag k="fixme" v="consider natural=peak for the most distinct mountains in the district" />
		<tag k="name" v="Myssmørdalsfjellet" />
		<tag k="natural" v="hill" />
		<tag k="place" v="locality" />
		<tag k="ssr:stedsnr" v="739849" />
	</node>
	<node id="-352109" lat="62.3312111131" lon="10.3289749949">
		<tag k="fixme" v="consider natural=peak for the most distinct mountains in the district" />
		<tag k="name" v="Storboren" />
		<tag k="natural" v="hill" />
		<tag k="place" v="locality" />
		<tag k="ssr:stedsnr" v="739952" />
	</node>
	<node id="-352108" lat="62.3319777742" lon="10.4763750031">
		<tag k="fixme" v="consider natural=peak for the most distinct mountains in the district" />
		<tag k="name" v="Tovåsen" />
		<tag k="natural" v="hill" />
		<tag k="place" v="locality" />
		<tag k="ssr:stedsnr" v="739950" />
	</node>
	<node id="-352107" lat="62.3333055565" lon="10.4027416652">
		<tag k="alt_name" v="Vollhammeren" />
		<tag k="fixme" v="consider natural=peak for the most distinct mountains in the district" />
		<tag k="name" v="Vollhåmmåren" />
		<tag k="natural" v="hill" />
		<tag k="place" v="locality" />
		<tag k="ssr:stedsnr" v="739947" />
	</node>
	<node id="-352105" lat="62.3153194486" lon="10.3844416719">
		<tag k="fixme" v="consider natural=peak for the most distinct mountains in the district" />
		<tag k="name" v="Rødalshøa" />
		<tag k="natural" v="hill" />
		<tag k="place" v="locality" />
		<tag k="ssr:stedsnr" v="739928" />
	</node>
	<node id="-352104" lat="62.2976888852" lon="10.5091333267">
		<tag k="alt_name" v="Hestoberget" />
		<tag k="name" v="Hesthovberget" />
		<tag k="natural" v="hill" />
		<tag k="place" v="locality" />
		<tag k="ssr:stedsnr" v="739900" />
	</node>
	<node id="-350055" lat="62.2805611083" lon="10.668627781">
		<tag k="name" v="Storvanglia" />
		<tag k="natural" v="slope" />
		<tag k="place" v="locality" />
		<tag k="ssr:stedsnr" v="417126" />
	</node>
	<node id="-352101" lat="62.3711638865" lon="10.7324583403">
		<tag k="name" v="Skarvdalen" />
		<tag k="natural" v="valley" />
		<tag k="place" v="locality" />
		<tag k="ssr:stedsnr" v="739733" />
	</node>
	<node id="-350050" lat="62.1255166643" lon="10.7563250007">
		<tag k="name" v="Tverrålia" />
		<tag k="natural" v="slope" />
		<tag k="place" v="locality" />
		<tag k="ssr:stedsnr" v="416726" />
	</node>
	<node id="-352095" lat="62.328849998" lon="10.9177749979">
		<tag k="alt_name" v="Gammelhaugane;Gammelhaugen" />
		<tag k="fixme" v="consider natural=peak for the most distinct mountains in the district" />
		<tag k="name" v="Gammelhaugan" />
		<tag k="natural" v="hill" />
		<tag k="place" v="locality" />
		<tag k="ssr:stedsnr" v="739233" />
	</node>
	<node id="-350045" lat="62.5655944465" lon="10.1356611124">
		<tag k="name" v="Nordvangdalen" />
		<tag k="natural" v="valley" />
		<tag k="place" v="locality" />
		<tag k="ssr:stedsnr" v="513437" />
	</node>
	<node id="-352092" lat="62.338294441" lon="10.8380555511">
		<tag k="name" v="Øylia" />
		<tag k="natural" v="slope" />
		<tag k="place" v="locality" />
		<tag k="ssr:stedsnr" v="739219" />
	</node>
	<node id="-350041" lat="62.2474472229" lon="10.7594472277">
		<tag k="name" v="Bukkhammeren" />
		<tag k="natural" v="hill" />
		<tag k="place" v="locality" />
		<tag k="ssr:stedsnr" v="416017" />
	</node>
	<node id="-350038" lat="62.2583638889" lon="10.7198472182">
		<tag k="name" v="Husbakkmoen" />
		<tag k="place" v="locality" />
		<tag k="ssr:stedsnr" v="416009" />
	</node>
	<node id="-352082" lat="62.6264888887" lon="10.5210166675">
		<tag k="fixme" v="consider natural=peak for the most distinct mountains in the district" />
		<tag k="name" v="Hestfjellet" />
		<tag k="natural" v="hill" />
		<tag k="place" v="locality" />
		<tag k="ssr:stedsnr" v="739097" />
	</node>
	<node id="-350033" lat="62.2891277752" lon="10.8756638941">
		<tag k="name" v="Hopsæterberget" />
		<tag k="natural" v="hill" />
		<tag k="place" v="locality" />
		<tag k="ssr:stedsnr" v="510714" />
	</node>
	<node id="-352076" lat="62.5852305599" lon="10.4358277818">
		<tag k="alt_name" v="Seterfjellet" />
		<tag k="fixme" v="consider natural=peak for the most distinct mountains in the district" />
		<tag k="name" v="Sæterfjellet" />
		<tag k="natural" v="hill" />
		<tag k="place" v="locality" />
		<tag k="ssr:stedsnr" v="739076" />
	</node>
	<node id="-352070" lat="61.9934583306" lon="11.0318833368">
		<tag k="fixme" v="consider natural=peak for the most distinct mountains in the district" />
		<tag k="name" v="Fonnåsfjellet" />
		<tag k="natural" v="hill" />
		<tag k="place" v="locality" />
		<tag k="ssr:stedsnr" v="738351" />
	</node>
	<node id="-352069" lat="62.198880558" lon="11.0135499973">
		<tag k="alt_name" v="Spekehogget, s;Søndre Spekehogget" />
		<tag k="name" v="Nedre Spekehogget" />
		<tag k="natural" v="gorge" />
		<tag k="ssr:stedsnr" v="738253" />
	</node>
	<node id="-350020" lat="62.3965305561" lon="10.3689999943">
		<tag k="alt_name" v="Jakobshølet" />
		<tag k="name" v="Jakobsholet" />
		<tag k="natural" v="valley" />
		<tag k="place" v="locality" />
		<tag k="ssr:stedsnr" v="375764" />
	</node>
	<node id="-350019" lat="62.5000861072" lon="10.4734388835">
		<tag k="fixme" v="consider natural=peak for the most distinct mountains in the district" />
		<tag k="name" v="Eidsfjellet" />
		<tag k="natural" v="hill" />
		<tag k="place" v="locality" />
		<tag k="ssr:stedsnr" v="375617" />
	</node>
	<node id="-352066" lat="62.2152555544" lon="10.7759055601">
		<tag k="name" v="Tylldalskjølen" />
		<tag k="natural" v="valley" />
		<tag k="place" v="locality" />
		<tag k="ssr:stedsnr" v="738203" />
	</node>
	<node id="-352059" lat="62.4563333368" lon="10.5812638945">
		<tag k="alt_name" v="Busjøvorda" />
		<tag k="fixme" v="consider natural=peak for the most distinct mountains in the district" />
		<tag k="name" v="Busjøvola" />
		<tag k="natural" v="hill" />
		<tag k="place" v="locality" />
		<tag k="ssr:stedsnr" v="618853" />
	</node>
	<node id="-352057" lat="62.3889000026" lon="10.5957138846">
		<tag k="fixme" v="consider natural=peak for the most distinct mountains in the district" />
		<tag k="name" v="Furuåsen" />
		<tag k="natural" v="hill" />
		<tag k="place" v="locality" />
		<tag k="ssr:stedsnr" v="618741" />
	</node>
	<node id="-352053" lat="62.3470694472" lon="10.6446250058">
		<tag k="fixme" v="consider natural=peak for the most distinct mountains in the district" />
		<tag k="name" v="Svartåsen" />
		<tag k="natural" v="hill" />
		<tag k="place" v="locality" />
		<tag k="ssr:stedsnr" v="618697" />
	</node>
	<node id="-352051" lat="62.6430361088" lon="10.1386777817">
		<tag k="fixme" v="consider natural=peak for the most distinct mountains in the district" />
		<tag k="name" v="Gardåtangen" />
		<tag k="natural" v="hill" />
		<tag k="place" v="locality" />
		<tag k="ssr:stedsnr" v="618466" />
	</node>
	<node id="-352049" lat="62.331816664" lon="10.5048249968">
		<tag k="fixme" v="consider natural=peak for the most distinct mountains in the district" />
		<tag k="name" v="Kustofjellet" />
		<tag k="natural" v="hill" />
		<tag k="place" v="locality" />
		<tag k="ssr:stedsnr" v="618959" />
	</node>
	<node id="-349997" lat="62.276850004" lon="10.4978166588">
		<tag k="name" v="Savalberget" />
		<tag k="natural" v="hill" />
		<tag k="place" v="locality" />
		<tag k="ssr:stedsnr" v="497886" />
	</node>
	<node id="-352044" lat="62.3081611155" lon="10.3125055544">
		<tag k="alt_name" v="Vesleborren" />
		<tag k="fixme" v="consider natural=peak for the most distinct mountains in the district" />
		<tag k="name" v="Veslboren" />
		<tag k="natural" v="hill" />
		<tag k="place" v="locality" />
		<tag k="ssr:stedsnr" v="618921" />
	</node>
	<node id="-349995" lat="62.2792916701" lon="10.6947555568">
		<tag k="alt_name" v="Fåsten" />
		<tag k="fixme" v="consider natural=peak for the most distinct mountains in the district" />
		<tag k="name" v="Fåsteinen" />
		<tag k="natural" v="hill" />
		<tag k="place" v="locality" />
		<tag k="ssr:stedsnr" v="497878" />
	</node>
	<node id="-349992" lat="62.4111472236" lon="10.2529055542">
		<tag k="name" v="Hamndalen" />
		<tag k="natural" v="valley" />
		<tag k="old_name" v="Hanndalen" />
		<tag k="place" v="locality" />
		<tag k="ssr:stedsnr" v="497796" />
	</node>
	<node id="-352039" lat="62.2917361145" lon="10.8976138827">
		<tag k="alt_name" v="Hobdsæteråsen" />
		<tag k="fixme" v="consider natural=peak for the most distinct mountains in the district" />
		<tag k="name" v="Hopsæteråsen" />
		<tag k="natural" v="hill" />
		<tag k="old_name" v="Haupsæteraasen" />
		<tag k="place" v="locality" />
		<tag k="ssr:stedsnr" v="618274" />
	</node>
	<node id="-349489" lat="62.2224805596" lon="10.7262138902">
		<tag k="name" v="Jutulhølet" />
		<tag k="natural" v="valley" />
		<tag k="place" v="locality" />
		<tag k="ssr:stedsnr" v="53054" />
	</node>
	<node id="-349987" lat="62.403447224" lon="10.1656027818">
		<tag k="alt_name" v="Låggia" />
		<tag k="fixme" v="consider natural=peak for the most distinct mountains in the district" />
		<tag k="name" v="Låg-Gia" />
		<tag k="natural" v="hill" />
		<tag k="place" v="locality" />
		<tag k="ssr:stedsnr" v="497729" />
	</node>
	<node id="-349986" lat="62.2625861151" lon="10.921380551">
		<tag k="fixme" v="consider natural=peak for the most distinct mountains in the district" />
		<tag k="name" v="Vola" />
		<tag k="natural" v="hill" />
		<tag k="place" v="locality" />
		<tag k="ssr:stedsnr" v="497725" />
	</node>
	<node id="-352033" lat="62.6293416675" lon="10.6505444461">
		<tag k="alt_name" v="Tjuvhaltangen" />
		<tag k="fixme" v="consider natural=peak for the most distinct mountains in the district" />
		<tag k="loc_name" v="Tjuvholtangen" />
		<tag k="name" v="Tjuvholdtangen" />
		<tag k="natural" v="hill" />
		<tag k="place" v="locality" />
		<tag k="ssr:stedsnr" v="618109" />
	</node>
	<node id="-352032" lat="62.6525777799" lon="10.6703805515">
		<tag k="alt_name" v="Store Ytangen" />
		<tag k="fixme" v="consider natural=peak for the most distinct mountains in the district" />
		<tag k="name" v="Stor-Ytangen" />
		<tag k="natural" v="hill" />
		<tag k="place" v="locality" />
		<tag k="ssr:stedsnr" v="618100" />
	</node>
	<node id="-349488" lat="62.2154555529" lon="10.7334388907">
		<tag k="name" v="Hesjestøegga" />
		<tag k="natural" v="hill" />
		<tag k="place" v="locality" />
		<tag k="ssr:stedsnr" v="52897" />
	</node>
	<node id="-352030" lat="62.6062388848" lon="10.375877777">
		<tag k="alt_name" v="Hardfjellet" />
		<tag k="fixme" v="consider natural=peak for the most distinct mountains in the district" />
		<tag k="name" v="Hælfjellet" />
		<tag k="natural" v="hill" />
		<tag k="place" v="locality" />
		<tag k="ssr:stedsnr" v="618088" />
	</node>
	<node id="-349980" lat="62.2943388925" lon="10.9839138929">
		<tag k="name" v="Bergekåsa" />
		<tag k="natural" v="valley" />
		<tag k="place" v="locality" />
		<tag k="ssr:stedsnr" v="497294" />
	</node>
	<node id="-349979" lat="62.5217194483" lon="10.3187638933">
		<tag k="fixme" v="consider natural=peak for the most distinct mountains in the district" />
		<tag k="name" v="Brentfjellet" />
		<tag k="natural" v="hill" />
		<tag k="place" v="locality" />
		<tag k="ssr:stedsnr" v="497048" />
	</node>
	<node id="-352025" lat="62.5488805559" lon="10.3125944508">
		<tag k="name" v="Nonshaugen" />
		<tag k="natural" v="hill" />
		<tag k="place" v="locality" />
		<tag k="ssr:stedsnr" v="618054" />
	</node>
	<node id="-352024" lat="62.5299527799" lon="10.4730833252">
		<tag k="name" v="Gråhøa" />
		<tag k="natural" v="hill" />
		<tag k="place" v="locality" />
		<tag k="ssr:stedsnr" v="618048" />
	</node>
	<node id="-352023" lat="62.5302194483" lon="10.4521083361">
		<tag k="fixme" v="consider natural=peak for the most distinct mountains in the district" />
		<tag k="name" v="Flatfjellet" />
		<tag k="natural" v="hill" />
		<tag k="place" v="locality" />
		<tag k="ssr:stedsnr" v="618046" />
	</node>
	<node id="-349974" lat="62.4490944482" lon="10.2915888906">
		<tag k="name" v="Hardbakken" />
		<tag k="natural" v="slope" />
		<tag k="place" v="locality" />
		<tag k="ssr:stedsnr" v="496845" />
	</node>
	<node id="-349972" lat="62.3765250028" lon="10.6316777824">
		<tag k="fixme" v="consider natural=peak for the most distinct mountains in the district" />
		<tag k="name" v="Lonåsen" />
		<tag k="natural" v="hill" />
		<tag k="place" v="locality" />
		<tag k="ssr:stedsnr" v="496784" />
	</node>
	<node id="-349971" lat="62.3711277777" lon="10.5541527751">
		<tag k="alt_name" v="Kviknedølskletten" />
		<tag k="name" v="Kvikndølskletten" />
		<tag k="natural" v="hill" />
		<tag k="place" v="locality" />
		<tag k="ssr:stedsnr" v="496774" />
	</node>
	<node id="-352018" lat="62.3804694476" lon="10.7413500082">
		<tag k="alt_name" v="Skarvrabbane;Skarvrabbene" />
		<tag k="fixme" v="consider natural=peak for the most distinct mountains in the district" />
		<tag k="name" v="Skarvrabban" />
		<tag k="natural" v="hill" />
		<tag k="place" v="locality" />
		<tag k="ssr:stedsnr" v="618157" />
	</node>
	<node id="-349827" lat="62.6548666628" lon="10.3073305528">
		<tag k="alt_name" v="Hammarhø;Hammerhøgda" />
		<tag k="fixme" v="consider natural=peak for the most distinct mountains in the district" />
		<tag k="name" v="Håmmårhøa" />
		<tag k="natural" v="hill" />
		<tag k="place" v="locality" />
		<tag k="ssr:stedsnr" v="314116" />
	</node>
	<node id="-349968" lat="62.3541027811" lon="10.2468000085">
		<tag k="name" v="Medtjørnskardet" />
		<tag k="natural" v="valley" />
		<tag k="place" v="locality" />
		<tag k="ssr:stedsnr" v="496984" />
	</node>
	<node id="-352015" lat="62.1994999985" lon="11.100138886">
		<tag k="name" v="Kvannriset" />
		<tag k="natural" v="slope" />
		<tag k="place" v="locality" />
		<tag k="ssr:stedsnr" v="617282" />
	</node>
	<node id="-352012" lat="62.2329805583" lon="10.7954249912">
		<tag k="alt_name" v="Grashavern" />
		<tag k="fixme" v="consider natural=peak for the most distinct mountains in the district" />
		<tag k="name" v="Grashaveren" />
		<tag k="natural" v="hill" />
		<tag k="place" v="locality" />
		<tag k="ssr:stedsnr" v="617226" />
	</node>
	<node id="-352010" lat="62.1561416674" lon="10.831855563">
		<tag k="alt_name" v="Veslvorda" />
		<tag k="fixme" v="consider natural=peak for the most distinct mountains in the district" />
		<tag k="name" v="Veslevola" />
		<tag k="natural" v="hill" />
		<tag k="place" v="locality" />
		<tag k="ssr:stedsnr" v="617217" />
	</node>
	<node id="-349959" lat="62.3361194473" lon="10.7842777766">
		<tag k="fixme" v="consider natural=peak for the most distinct mountains in the district" />
		<tag k="name" v="Gammelvangåsen" />
		<tag k="natural" v="hill" />
		<tag k="place" v="locality" />
		<tag k="ssr:stedsnr" v="496239" />
	</node>
	<node id="-349957" lat="62.1408250026" lon="11.018900001">
		<tag k="alt_name" v="Finstadkletten" />
		<tag k="fixme" v="consider natural=peak for the most distinct mountains in the district" />
		<tag k="name" v="Finnstadkletten" />
		<tag k="natural" v="hill" />
		<tag k="place" v="locality" />
		<tag k="ssr:stedsnr" v="496198" />
	</node>
	<node id="-352003" lat="62.3602583359" lon="10.7889222319">
		<tag k="alt_name" v="Nebyvola" />
		<tag k="name" v="Nedbyvola" />
		<tag k="natural" v="hill" />
		<tag k="place" v="locality" />
		<tag k="ssr:stedsnr" v="599177" />
	</node>
	<node id="-349954" lat="62.5879277785" lon="10.2279250012">
		<tag k="fixme" v="consider natural=peak for the most distinct mountains in the district" />
		<tag k="name" v="Urda" />
		<tag k="natural" v="hill" />
		<tag k="place" v="locality" />
		<tag k="ssr:stedsnr" v="496100" />
	</node>
	<node id="-351996" lat="62.1011444485" lon="10.8418305476">
		<tag k="name" v="Søgardslia" />
		<tag k="natural" v="slope" />
		<tag k="place" v="locality" />
		<tag k="ssr:stedsnr" v="598459" />
	</node>
	<node id="-351995" lat="62.2407749965" lon="10.8641611044">
		<tag k="fixme" v="consider natural=peak for the most distinct mountains in the district" />
		<tag k="name" v="Sølvåsen" />
		<tag k="natural" v="hill" />
		<tag k="place" v="locality" />
		<tag k="ssr:stedsnr" v="598438" />
	</node>
	<node id="-351994" lat="62.2397972237" lon="10.8471527704">
		<tag k="name" v="Østrabben" />
		<tag k="natural" v="hill" />
		<tag k="place" v="locality" />
		<tag k="ssr:stedsnr" v="598435" />
	</node>
	<node id="-351993" lat="62.2333249956" lon="10.925055559">
		<tag k="fixme" v="consider natural=peak for the most distinct mountains in the district" />
		<tag k="name" v="Brentkletten" />
		<tag k="natural" v="hill" />
		<tag k="place" v="locality" />
		<tag k="ssr:stedsnr" v="598430" />
	</node>
	<node id="-351992" lat="62.2848416679" lon="10.9660694508">
		<tag k="name" v="Bredmoen" />
		<tag k="place" v="locality" />
		<tag k="ssr:stedsnr" v="598357" />
	</node>
	<node id="-349481" lat="62.0823083329" lon="10.8203444407">
		<tag k="fixme" v="consider natural=peak for the most distinct mountains in the district" />
		<tag k="name" v="Vasskloppberget" />
		<tag k="natural" v="hill" />
		<tag k="place" v="locality" />
		<tag k="ssr:stedsnr" v="52607" />
	</node>
	<node id="-351988" lat="62.1669305538" lon="11.0336833259">
		<tag k="name" v="Svartrøstkampen" />
		<tag k="natural" v="hill" />
		<tag k="place" v="locality" />
		<tag k="ssr:stedsnr" v="598240" />
	</node>
	<node id="-349935" lat="62.237533329" lon="10.7505472146">
		<tag k="name" v="Nedre Ånrøsta" />
		<tag k="natural" v="hill" />
		<tag k="place" v="locality" />
		<tag k="ssr:stedsnr" v="477979" />
	</node>
	<node id="-351982" lat="62.2059833299" lon="11.0357388854">
		<tag k="name" v="Dølperhåmmåren" />
		<tag k="natural" v="hill" />
		<tag k="place" v="locality" />
		<tag k="ssr:stedsnr" v="598139" />
	</node>
	<node id="-349933" lat="62.2440638909" lon="10.8017861146">
		<tag k="name" v="Øvre Lassrøsta" />
		<tag k="natural" v="hill" />
		<tag k="place" v="locality" />
		<tag k="ssr:stedsnr" v="477963" />
	</node>
	<node id="-349932" lat="62.1328805582" lon="10.9432611087">
		<tag k="name" v="Buhaugen" />
		<tag k="natural" v="hill" />
		<tag k="place" v="locality" />
		<tag k="ssr:stedsnr" v="477493" />
	</node>
	<node id="-351979" lat="62.1409361104" lon="10.7691111059">
		<tag k="name" v="Storhammarane" />
		<tag k="natural" v="hill" />
		<tag k="place" v="locality" />
		<tag k="ssr:stedsnr" v="598045" />
	</node>
	<node id="-349928" lat="62.2450055528" lon="10.7603277728">
		<tag k="name" v="Krokbakken" />
		<tag k="natural" v="slope" />
		<tag k="place" v="locality" />
		<tag k="ssr:stedsnr" v="477051" />
	</node>
	<node id="-349926" lat="62.2838944468" lon="10.6620916709">
		<tag k="name" v="Brennlia" />
		<tag k="natural" v="slope" />
		<tag k="place" v="locality" />
		<tag k="ssr:stedsnr" v="477130" />
	</node>
	<node id="-350161" lat="62.172994448" lon="10.8954361066">
		<tag k="name" v="Svarthammeren" />
		<tag k="natural" v="hill" />
		<tag k="place" v="locality" />
		<tag k="ssr:stedsnr" v="659492" />
	</node>
	<node id="-351972" lat="62.2100611129" lon="10.7441416687">
		<tag k="name" v="Tjønnengmoen" />
		<tag k="place" v="locality" />
		<tag k="ssr:stedsnr" v="597924" />
	</node>
	<node id="-351970" lat="62.2133833314" lon="10.7266361141">
		<tag k="name" v="Nyvanghaugen" />
		<tag k="natural" v="hill" />
		<tag k="place" v="locality" />
		<tag k="ssr:stedsnr" v="597908" />
	</node>
	<node id="-351969" lat="62.168566671" lon="10.8173611152">
		<tag k="name" v="Hellbretsdalen" />
		<tag k="natural" v="valley" />
		<tag k="place" v="locality" />
		<tag k="ssr:stedsnr" v="597855" />
	</node>
	<node id="-349918" lat="62.1557333341" lon="10.8066361038">
		<tag k="name" v="Prestegardsåsen" />
		<tag k="natural" v="hill" />
		<tag k="place" v="locality" />
		<tag k="ssr:stedsnr" v="476846" />
	</node>
	<node id="-349917" lat="62.1607888896" lon="10.8140555465">
		<tag k="name" v="Volan" />
		<tag k="natural" v="hill" />
		<tag k="place" v="locality" />
		<tag k="ssr:stedsnr" v="476845" />
	</node>
	<node id="-349916" lat="62.1630750009" lon="10.7857805632">
		<tag k="name" v="Slettmoen" />
		<tag k="place" v="locality" />
		<tag k="ssr:stedsnr" v="476842" />
	</node>
	<node id="-349915" lat="62.2775388931" lon="10.3727222284">
		<tag k="name" v="Kvilrabben" />
		<tag k="natural" v="hill" />
		<tag k="place" v="locality" />
		<tag k="ssr:stedsnr" v="476797" />
	</node>
	<node id="-349911" lat="62.3074089887" lon="10.5506514">
		<tag k="alt_name" v="Kleivan" />
		<tag k="name" v="Klevan" />
		<tag k="natural" v="slope" />
		<tag k="place" v="locality" />
		<tag k="ssr:stedsnr" v="476732" />
	</node>
	<node id="-349910" lat="62.2580527797" lon="10.9546305545">
		<tag k="name" v="Hobdsåttån" />
		<tag k="natural" v="slope" />
		<tag k="place" v="locality" />
		<tag k="ssr:stedsnr" v="476451" />
	</node>
	<node id="-349909" lat="62.2659444466" lon="10.855561117">
		<tag k="name" v="Nysagbakken" />
		<tag k="natural" v="slope" />
		<tag k="place" v="locality" />
		<tag k="ssr:stedsnr" v="476445" />
	</node>
	<node id="-349906" lat="62.4771361092" lon="10.5448333316">
		<tag k="name" v="Hopenglia" />
		<tag k="natural" v="slope" />
		<tag k="place" v="locality" />
		<tag k="ssr:stedsnr" v="476337" />
	</node>
	<node id="-351951" lat="62.5498722218" lon="10.3865249968">
		<tag k="name" v="Litlkirkeskarhø" />
		<tag k="natural" v="hill" />
		<tag k="place" v="locality" />
		<tag k="ssr:stedsnr" v="597242" />
	</node>
	<node id="-351947" lat="62.3194888864" lon="10.6147499964">
		<tag k="name" v="Storhaugen" />
		<tag k="natural" v="hill" />
		<tag k="place" v="locality" />
		<tag k="ssr:stedsnr" v="597197" />
	</node>
	<node id="-351946" lat="62.3132555549" lon="10.7053055546">
		<tag k="name" v="Moanbakken" />
		<tag k="natural" v="slope" />
		<tag k="place" v="locality" />
		<tag k="ssr:stedsnr" v="597189" />
	</node>
	<node id="-351944" lat="62.6417138883" lon="10.347997223">
		<tag k="name" v="Sverjesjølia" />
		<tag k="natural" v="slope" />
		<tag k="place" v="locality" />
		<tag k="ssr:stedsnr" v="597174" />
	</node>
	<node id="-349894" lat="62.3218111091" lon="10.7873333362">
		<tag k="name" v="Vesleåsen" />
		<tag k="natural" v="hill" />
		<tag k="place" v="locality" />
		<tag k="ssr:stedsnr" v="476121" />
	</node>
	<node id="-349891" lat="62.3050388877" lon="10.7271694439">
		<tag k="name" v="Djupdalen" />
		<tag k="natural" v="valley" />
		<tag k="place" v="locality" />
		<tag k="ssr:stedsnr" v="476108" />
	</node>
	<node id="-351932" lat="62.2656111067" lon="10.7748333334">
		<tag k="name" v="Kløftmyra" />
		<tag k="place" v="locality" />
		<tag k="ssr:stedsnr" v="597005" />
	</node>
	<node id="-350154" lat="62.2252055544" lon="10.9783722232">
		<tag k="name" v="Fjøsdalen" />
		<tag k="natural" v="valley" />
		<tag k="place" v="locality" />
		<tag k="ssr:stedsnr" v="659335" />
	</node>
	<node id="-351929" lat="62.5180972183" lon="10.2035388973">
		<tag k="name" v="Storinnsjølia" />
		<tag k="natural" v="slope" />
		<tag k="place" v="locality" />
		<tag k="ssr:stedsnr" v="596755" />
	</node>
	<node id="-349880" lat="62.3647694435" lon="10.6109583404">
		<tag k="name" v="Magnileggan" />
		<tag k="natural" v="slope" />
		<tag k="place" v="locality" />
		<tag k="ssr:stedsnr" v="476028" />
	</node>
	<node id="-351926" lat="62.5327416624" lon="10.2572500076">
		<tag k="name" v="Vakkerlia" />
		<tag k="natural" v="slope" />
		<tag k="place" v="locality" />
		<tag k="ssr:stedsnr" v="596066" />
	</node>
	<node id="-349876" lat="62.2639611132" lon="10.7345944364">
		<tag k="name" v="Langegga" />
		<tag k="natural" v="hill" />
		<tag k="place" v="locality" />
		<tag k="ssr:stedsnr" v="476006" />
	</node>
	<node id="-351923" lat="62.5538666659" lon="10.2805777793">
		<tag k="name" v="Kneppet" />
		<tag k="natural" v="hill" />
		<tag k="place" v="locality" />
		<tag k="ssr:stedsnr" v="596036" />
	</node>
	<node id="-349874" lat="62.5843972226" lon="10.146869446">
		<tag k="name" v="Taraldslia" />
		<tag k="natural" v="slope" />
		<tag k="place" v="locality" />
		<tag k="ssr:stedsnr" v="475844" />
	</node>
	<node id="-351921" lat="62.5944555546" lon="10.0536888843">
		<tag k="name" v="Skordalen" />
		<tag k="natural" v="valley" />
		<tag k="place" v="locality" />
		<tag k="ssr:stedsnr" v="582958" />
	</node>
	<node id="-351918" lat="62.2010833308" lon="10.9216611152">
		<tag k="alt_name" v="Finstadhøa" />
		<tag k="fixme" v="consider natural=peak for the most distinct mountains in the district" />
		<tag k="name" v="Finnstadhøa" />
		<tag k="natural" v="hill" />
		<tag k="place" v="locality" />
		<tag k="ssr:stedsnr" v="565263" />
	</node>
	<node id="-351914" lat="62.3163388849" lon="10.404594444">
		<tag k="fixme" v="consider natural=peak for the most distinct mountains in the district" />
		<tag k="name" v="Midthøa" />
		<tag k="natural" v="hill" />
		<tag k="place" v="locality" />
		<tag k="ssr:stedsnr" v="557922" />
	</node>
	<node id="-351912" lat="62.3094527758" lon="10.4105805536">
		<tag k="fixme" v="consider natural=peak for the most distinct mountains in the district" />
		<tag k="name" v="Storgjotkletten" />
		<tag k="natural" v="hill" />
		<tag k="place" v="locality" />
		<tag k="ssr:stedsnr" v="557914" />
	</node>
	<node id="-351911" lat="62.2876166656" lon="10.5634361021">
		<tag k="name" v="Djupdalen" />
		<tag k="natural" v="valley" />
		<tag k="place" v="locality" />
		<tag k="ssr:stedsnr" v="557890" />
	</node>
	<node id="-349859" lat="62.5579111113" lon="10.3153361152">
		<tag k="name" v="Svarthammeren" />
		<tag k="natural" v="hill" />
		<tag k="place" v="locality" />
		<tag k="ssr:stedsnr" v="475056" />
	</node>
	<node id="-349858" lat="62.5559472251" lon="10.2373694395">
		<tag k="name" v="Lunninga" />
		<tag k="natural" v="hill" />
		<tag k="place" v="locality" />
		<tag k="ssr:stedsnr" v="475049" />
	</node>
	<node id="-351905" lat="62.4615083292" lon="10.339433333">
		<tag k="fixme" v="consider natural=peak for the most distinct mountains in the district" />
		<tag k="name" v="Bjørndalshøa" />
		<tag k="natural" v="hill" />
		<tag k="place" v="locality" />
		<tag k="ssr:stedsnr" v="557833" />
	</node>
	<node id="-351903" lat="62.3939861078" lon="10.2440611122">
		<tag k="name" v="Gløtkroken" />
		<tag k="place" v="locality" />
		<tag k="ssr:stedsnr" v="557778" />
	</node>
	<node id="-351897" lat="62.6952444469" lon="10.3251194372">
		<tag k="fixme" v="consider natural=peak for the most distinct mountains in the district" />
		<tag k="name" v="Sandfjellet" />
		<tag k="natural" v="hill" />
		<tag k="place" v="locality" />
		<tag k="ssr:stedsnr" v="557387" />
	</node>
	<node id="-349465" lat="62.4694916684" lon="10.4409833252">
		<tag k="name" v="Tunntjønnlia" />
		<tag k="natural" v="slope" />
		<tag k="place" v="locality" />
		<tag k="ssr:stedsnr" v="51770" />
	</node>
	<node id="-349837" lat="62.5773944477" lon="10.1736527751">
		<tag k="name" v="Taraldshøa" />
		<tag k="natural" v="hill" />
		<tag k="place" v="locality" />
		<tag k="ssr:stedsnr" v="314460" />
	</node>
	<node id="-349836" lat="62.51984167" lon="10.1426361028">
		<tag k="fixme" v="consider natural=peak for the most distinct mountains in the district" />
		<tag k="name" v="Dølvadfjellet" />
		<tag k="natural" v="hill" />
		<tag k="place" v="locality" />
		<tag k="ssr:stedsnr" v="314452" />
	</node>
	<node id="-349835" lat="62.6650111122" lon="10.5603250011">
		<tag k="alt_name" v="Skrabbtangen" />
		<tag k="fixme" v="consider natural=peak for the most distinct mountains in the district" />
		<tag k="name" v="Skrøbbtangen" />
		<tag k="natural" v="hill" />
		<tag k="place" v="locality" />
		<tag k="ssr:stedsnr" v="314426" />
	</node>
	<node id="-349804" lat="62.306427774" lon="10.7739527785">
		<tag k="alt_name" v="Vesleåsen" />
		<tag k="fixme" v="consider natural=peak for the most distinct mountains in the district" />
		<tag k="name" v="Veslåsen" />
		<tag k="natural" v="hill" />
		<tag k="place" v="locality" />
		<tag k="ssr:stedsnr" v="254706" />
	</node>
	<node id="-351875" lat="62.2015583309" lon="10.7562055647">
		<tag k="alt_name" v="Trondsjølia" />
		<tag k="name" v="Tronsjølia" />
		<tag k="natural" v="slope" />
		<tag k="place" v="locality" />
		<tag k="ssr:stedsnr" v="556281" />
	</node>
	<node id="-349803" lat="62.6135583325" lon="10.1941361138">
		<tag k="alt_name" v="Kviknebrona" />
		<tag k="fixme" v="consider natural=peak for the most distinct mountains in the district" />
		<tag k="name" v="Kviknebruna" />
		<tag k="natural" v="hill" />
		<tag k="place" v="locality" />
		<tag k="ssr:stedsnr" v="254461" />
	</node>
	<node id="-351872" lat="62.2127944422" lon="11.0768305558">
		<tag k="name" v="Spekedalen" />
		<tag k="natural" v="valley" />
		<tag k="old_name" v="Spekadalen" />
		<tag k="place" v="locality" />
		<tag k="ssr:stedsnr" v="556276" />
	</node>
	<node id="-351871" lat="62.1949138912" lon="11.1241000017">
		<tag k="name" v="Ålbyggplassen" />
		<tag k="place" v="locality" />
		<tag k="ssr:stedsnr" v="556273" />
	</node>
	<node id="-351869" lat="62.1949250041" lon="11.0445388909">
		<tag k="name" v="Midthøa" />
		<tag k="natural" v="hill" />
		<tag k="place" v="locality" />
		<tag k="ssr:stedsnr" v="556271" />
	</node>
	<node id="-351868" lat="62.1808166644" lon="10.8976277823">
		<tag k="name" v="Svartberget" />
		<tag k="natural" v="hill" />
		<tag k="place" v="locality" />
		<tag k="ssr:stedsnr" v="556270" />
	</node>
	<node id="-349819" lat="62.5818166641" lon="10.3228138797">
		<tag k="name" v="Sverjedalseggan" />
		<tag k="natural" v="hill" />
		<tag k="place" v="locality" />
		<tag k="ssr:stedsnr" v="293022" />
	</node>
	<node id="-351861" lat="62.2272000019" lon="10.7760333394">
		<tag k="name" v="Vollsvangbakken" />
		<tag k="natural" v="slope" />
		<tag k="place" v="locality" />
		<tag k="ssr:stedsnr" v="538985" />
	</node>
	<node id="-349810" lat="62.3237333367" lon="10.3512083356">
		<tag k="name" v="Rødalen" />
		<tag k="natural" v="valley" />
		<tag k="place" v="locality" />
		<tag k="ssr:stedsnr" v="254921" />
	</node>
	<node id="-349809" lat="62.3030888881" lon="10.3997750023">
		<tag k="alt_name" v="Rødalskvolvet, store;Rødalskvelvet" />
		<tag k="name" v="Store Rødalskvolvet" />
		<tag k="natural" v="valley" />
		<tag k="place" v="locality" />
		<tag k="ssr:stedsnr" v="254915" />
	</node>
	<node id="-351855" lat="62.2827305542" lon="10.874127785">
		<tag k="name" v="Berget" />
		<tag k="natural" v="hill" />
		<tag k="place" v="locality" />
		<tag k="ssr:stedsnr" v="538300" />
	</node>
	<node id="-351853" lat="62.2989638881" lon="10.3444472179">
		<tag k="name" v="Veslehølia" />
		<tag k="natural" v="slope" />
		<tag k="place" v="locality" />
		<tag k="ssr:stedsnr" v="538119" />
	</node>
	<node id="-351852" lat="62.1928416624" lon="10.8363555533">
		<tag k="name" v="Skinnaråsen" />
		<tag k="natural" v="hill" />
		<tag k="place" v="locality" />
		<tag k="ssr:stedsnr" v="537915" />
	</node>
	<node id="-351851" lat="62.2146611138" lon="10.7596750056">
		<tag k="name" v="Tronsjøbekkdalen" />
		<tag k="natural" v="valley" />
		<tag k="place" v="locality" />
		<tag k="ssr:stedsnr" v="537894" />
	</node>
	<node id="-349801" lat="62.6720499993" lon="10.3841055479">
		<tag k="alt_name" v="Litlefjell" />
		<tag k="fixme" v="consider natural=peak for the most distinct mountains in the district" />
		<tag k="name" v="Litlfjellet" />
		<tag k="natural" v="hill" />
		<tag k="place" v="locality" />
		<tag k="ssr:stedsnr" v="254358" />
	</node>
	<node id="-351847" lat="62.4671361109" lon="10.4307888943">
		<tag k="name" v="Tunntjønnhøgda" />
		<tag k="natural" v="hill" />
		<tag k="place" v="locality" />
		<tag k="ssr:stedsnr" v="537742" />
	</node>
	<node id="-351844" lat="62.3073805512" lon="10.5425916744">
		<tag k="name" v="Loken" />
		<tag k="natural" v="hill" />
		<tag k="place" v="locality" />
		<tag k="ssr:stedsnr" v="537697" />
	</node>
	<node id="-351836" lat="62.3623694457" lon="10.6616861202">
		<tag k="name" v="Løpa" />
		<tag k="natural" v="slope" />
		<tag k="place" v="locality" />
		<tag k="ssr:stedsnr" v="537100" />
	</node>
	<node id="-349786" lat="62.3578222225" lon="10.7451194365">
		<tag k="fixme" v="consider natural=peak for the most distinct mountains in the district" />
		<tag k="name" v="Rokkåsen" />
		<tag k="natural" v="hill" />
		<tag k="place" v="locality" />
		<tag k="ssr:stedsnr" v="233139" />
	</node>
	<node id="-349781" lat="62.3018194443" lon="10.7685555474">
		<tag k="name" v="Viersletta" />
		<tag k="place" v="locality" />
		<tag k="ssr:stedsnr" v="233110" />
	</node>
	<node id="-351827" lat="62.2994361139" lon="10.8662888978">
		<tag k="name" v="Bergefoten" />
		<tag k="natural" v="slope" />
		<tag k="place" v="locality" />
		<tag k="ssr:stedsnr" v="537267" />
	</node>
	<node id="-351826" lat="62.3087777781" lon="10.8661222171">
		<tag k="name" v="Sæteregga" />
		<tag k="natural" v="hill" />
		<tag k="place" v="locality" />
		<tag k="ssr:stedsnr" v="537265" />
	</node>
	<node id="-351825" lat="62.3682749999" lon="10.7814083242">
		<tag k="name" v="Lauvåsen" />
		<tag k="natural" v="slope" />
		<tag k="place" v="locality" />
		<tag k="ssr:stedsnr" v="537189" />
	</node>
	<node id="-351823" lat="62.6458805556" lon="10.1586277843">
		<tag k="name" v="Storbekklia" />
		<tag k="natural" v="slope" />
		<tag k="place" v="locality" />
		<tag k="ssr:stedsnr" v="536900" />
	</node>
	<node id="-349774" lat="62.480513891" lon="10.16034722">
		<tag k="name" v="Larshaugen" />
		<tag k="natural" v="hill" />
		<tag k="place" v="locality" />
		<tag k="ssr:stedsnr" v="232642" />
	</node>
	<node id="-351821" lat="62.6670027763" lon="10.2054277696">
		<tag k="fixme" v="consider natural=peak for the most distinct mountains in the district" />
		<tag k="name" v="Flatfjellet" />
		<tag k="natural" v="hill" />
		<tag k="place" v="locality" />
		<tag k="ssr:stedsnr" v="536884" />
	</node>
	<node id="-349772" lat="62.5528583327" lon="10.0957916615">
		<tag k="name" v="Saulia" />
		<tag k="natural" v="slope" />
		<tag k="place" v="locality" />
		<tag k="ssr:stedsnr" v="210415" />
	</node>
	<node id="-351819" lat="62.2510333349" lon="10.7210416661">
		<tag k="fixme" v="consider natural=peak for the most distinct mountains in the district" />
		<tag k="name" v="Brekkåsen" />
		<tag k="natural" v="hill" />
		<tag k="place" v="locality" />
		<tag k="ssr:stedsnr" v="537027" />
	</node>
	<node id="-351818" lat="62.6575833354" lon="10.1482999965">
		<tag k="name" v="Garådalen" />
		<tag k="natural" v="valley" />
		<tag k="place" v="locality" />
		<tag k="ssr:stedsnr" v="536995" />
	</node>
	<node id="-349769" lat="62.1333194466" lon="10.8181722225">
		<tag k="name" v="Røsberget" />
		<tag k="natural" v="hill" />
		<tag k="place" v="locality" />
		<tag k="ssr:stedsnr" v="295758" />
	</node>
	<node id="-349766" lat="62.2117166705" lon="10.8591055641">
		<tag k="name" v="Aumlia" />
		<tag k="natural" v="slope" />
		<tag k="place" v="locality" />
		<tag k="ssr:stedsnr" v="295504" />
	</node>
	<node id="-351813" lat="62.5493166657" lon="10.1296861193">
		<tag k="name" v="Grønnlihaugen" />
		<tag k="natural" v="hill" />
		<tag k="place" v="locality" />
		<tag k="ssr:stedsnr" v="536799" />
	</node>
	<node id="-349764" lat="62.2416444428" lon="10.9048333252">
		<tag k="name" v="Røvshidalen" />
		<tag k="natural" v="valley" />
		<tag k="place" v="locality" />
		<tag k="ssr:stedsnr" v="295453" />
	</node>
	<node id="-351811" lat="62.4888472203" lon="10.4000305644">
		<tag k="name" v="Klokkerliberga" />
		<tag k="natural" v="hill" />
		<tag k="place" v="locality" />
		<tag k="ssr:stedsnr" v="536783" />
	</node>
	<node id="-349761" lat="62.095363885" lon="10.8701249912">
		<tag k="fixme" v="consider natural=peak for the most distinct mountains in the district" />
		<tag k="name" v="Rivåsen" />
		<tag k="natural" v="hill" />
		<tag k="place" v="locality" />
		<tag k="ssr:stedsnr" v="295398" />
	</node>
	<node id="-349758" lat="62.2921249998" lon="10.9784222212">
		<tag k="name" v="Kusksletta" />
		<tag k="place" v="locality" />
		<tag k="ssr:stedsnr" v="295375" />
	</node>
	<node id="-349757" lat="62.2883138891" lon="10.9719749929">
		<tag k="name" v="Telkroken" />
		<tag k="place" v="locality" />
		<tag k="ssr:stedsnr" v="295374" />
	</node>
	<node id="-351804" lat="62.5289833355" lon="10.2662611043">
		<tag k="name" v="Vakkerligruva" />
		<tag k="natural" v="valley" />
		<tag k="place" v="locality" />
		<tag k="ssr:stedsnr" v="536075" />
	</node>
	<node id="-349755" lat="62.2301972247" lon="10.9712611093">
		<tag k="name" v="Storkroken" />
		<tag k="place" v="locality" />
		<tag k="ssr:stedsnr" v="295326" />
	</node>
	<node id="-349753" lat="62.3355805521" lon="10.8445611141">
		<tag k="name" v="Øylia" />
		<tag k="natural" v="slope" />
		<tag k="place" v="locality" />
		<tag k="ssr:stedsnr" v="295272" />
	</node>
	<node id="-349751" lat="62.1743972208" lon="10.9805722151">
		<tag k="name" v="Brydalsberget" />
		<tag k="natural" v="hill" />
		<tag k="place" v="locality" />
		<tag k="ssr:stedsnr" v="295139" />
	</node>
	<node id="-349749" lat="62.283680552" lon="10.6909305599">
		<tag k="name" v="Strypet" />
		<tag k="natural" v="hill" />
		<tag k="place" v="locality" />
		<tag k="ssr:stedsnr" v="295130" />
	</node>
	<node id="-349747" lat="62.6838277793" lon="10.208530565">
		<tag k="name" v="Nåvdalen" />
		<tag k="natural" v="valley" />
		<tag k="place" v="locality" />
		<tag k="ssr:stedsnr" v="294986" />
	</node>
	<node id="-349742" lat="62.661486108" lon="10.1613750067">
		<tag k="name" v="Storfossdalen" />
		<tag k="natural" v="valley" />
		<tag k="place" v="locality" />
		<tag k="ssr:stedsnr" v="294877" />
	</node>
	<node id="-349740" lat="62.1778583306" lon="10.8224972261">
		<tag k="name" v="Geithamran" />
		<tag k="natural" v="hill" />
		<tag k="place" v="locality" />
		<tag k="ssr:stedsnr" v="294848" />
	</node>
	<node id="-351787" lat="62.3887888913" lon="10.2809472288">
		<tag k="name" v="Gløtdalen" />
		<tag k="natural" v="valley" />
		<tag k="place" v="locality" />
		<tag k="ssr:stedsnr" v="436787" />
	</node>
	<node id="-349738" lat="62.3360611123" lon="10.5608305561">
		<tag k="name" v="Tovåsen" />
		<tag k="natural" v="hill" />
		<tag k="place" v="locality" />
		<tag k="ssr:stedsnr" v="294844" />
	</node>
	<node id="-349732" lat="62.22000556" lon="10.6785388961">
		<tag k="name" v="Aumeggan" />
		<tag k="natural" v="hill" />
		<tag k="place" v="locality" />
		<tag k="ssr:stedsnr" v="294757" />
	</node>
	<node id="-349731" lat="62.1141749968" lon="10.8378611177">
		<tag k="name" v="Igeltjønnrøsta" />
		<tag k="natural" v="slope" />
		<tag k="place" v="locality" />
		<tag k="ssr:stedsnr" v="294670" />
	</node>
	<node id="-349964" lat="62.3711111136" lon="10.43345">
		<tag k="fixme" v="consider natural=peak for the most distinct mountains in the district" />
		<tag k="name" v="Gløtåsen" />
		<tag k="natural" v="hill" />
		<tag k="place" v="locality" />
		<tag k="ssr:stedsnr" v="496752" />
	</node>
	<node id="-349722" lat="62.3097416635" lon="10.6235194475">
		<tag k="name" v="Vesleåsen" />
		<tag k="natural" v="hill" />
		<tag k="place" v="locality" />
		<tag k="ssr:stedsnr" v="294175" />
	</node>
	<node id="-349716" lat="62.350680556" lon="10.7373527724">
		<tag k="name" v="Langegga" />
		<tag k="natural" v="hill" />
		<tag k="place" v="locality" />
		<tag k="ssr:stedsnr" v="294118" />
	</node>
	<node id="-349705" lat="62.3396166677" lon="10.6956222279">
		<tag k="name" v="Asprøstbakkene" />
		<tag k="natural" v="slope" />
		<tag k="place" v="locality" />
		<tag k="ssr:stedsnr" v="294069" />
	</node>
	<node id="-351752" lat="62.3040777782" lon="10.9992472314">
		<tag k="alt_name" v="Veslevola" />
		<tag k="fixme" v="consider natural=peak for the most distinct mountains in the district" />
		<tag k="name" v="Veslvola" />
		<tag k="natural" v="hill" />
		<tag k="place" v="locality" />
		<tag k="ssr:stedsnr" v="436244" />
	</node>
	<node id="-351751" lat="62.0731833306" lon="10.7992305597">
		<tag k="alt_name" v="Holsetvorda;Hårsetvola" />
		<tag k="fixme" v="consider natural=peak for the most distinct mountains in the district" />
		<tag k="name" v="Holsetvola" />
		<tag k="natural" v="hill" />
		<tag k="place" v="locality" />
		<tag k="ssr:stedsnr" v="436029" />
	</node>
	<node id="-351750" lat="62.1768611111" lon="10.8617861102">
		<tag k="alt_name" v="Storvorda" />
		<tag k="fixme" v="consider natural=peak for the most distinct mountains in the district" />
		<tag k="name" v="Storvola" />
		<tag k="natural" v="hill" />
		<tag k="place" v="locality" />
		<tag k="ssr:stedsnr" v="435199" />
	</node>
	<node id="-349701" lat="62.4295583327" lon="10.6183250006">
		<tag k="name" v="Kleivdalen" />
		<tag k="natural" v="valley" />
		<tag k="place" v="locality" />
		<tag k="ssr:stedsnr" v="294042" />
	</node>
	<node id="-351747" lat="62.2114555594" lon="11.0523611131">
		<tag k="alt_name" v="Spekehogget, nordre;Nordre Spekehogget" />
		<tag k="name" v="Øver Spekehogget" />
		<tag k="natural" v="gorge" />
		<tag k="ssr:stedsnr" v="435268" />
	</node>
	<node id="-349695" lat="62.3754444446" lon="10.6447333335">
		<tag k="name" v="Hammaran" />
		<tag k="natural" v="hill" />
		<tag k="place" v="locality" />
		<tag k="ssr:stedsnr" v="294019" />
	</node>
	<node id="-351742" lat="62.2274222205" lon="10.8384499949">
		<tag k="name" v="Gammelvangsrabben" />
		<tag k="natural" v="hill" />
		<tag k="place" v="locality" />
		<tag k="ssr:stedsnr" v="417973" />
	</node>
	<node id="-349693" lat="62.5635972234" lon="10.1754277827">
		<tag k="fixme" v="consider natural=peak for the most distinct mountains in the district" />
		<tag k="name" v="Taraldshøa" />
		<tag k="natural" v="hill" />
		<tag k="place" v="locality" />
		<tag k="ssr:stedsnr" v="293792" />
	</node>
	<node id="-349692" lat="62.5389722193" lon="10.1279861137">
		<tag k="name" v="Tverrlia" />
		<tag k="natural" v="slope" />
		<tag k="place" v="locality" />
		<tag k="ssr:stedsnr" v="293789" />
	</node>
	<node id="-349439" lat="62.2486500004" lon="10.6430555591">
		<tag k="fixme" v="consider natural=peak for the most distinct mountains in the district" />
		<tag k="name" v="Elvåsen" />
		<tag k="natural" v="hill" />
		<tag k="place" v="locality" />
		<tag k="ssr:stedsnr" v="234140" />
	</node>
	<node id="-349688" lat="62.5615833306" lon="10.3550694422">
		<tag k="name" v="Djupdalen" />
		<tag k="natural" v="valley" />
		<tag k="place" v="locality" />
		<tag k="ssr:stedsnr" v="293235" />
	</node>
	<node id="-349687" lat="62.5839944451" lon="10.3763333381">
		<tag k="name" v="Månan" />
		<tag k="natural" v="hill" />
		<tag k="place" v="locality" />
		<tag k="ssr:stedsnr" v="293232" />
	</node>
	<node id="-351733" lat="62.284063893" lon="10.8191138898">
		<tag k="name" v="Storengmoen" />
		<tag k="place" v="locality" />
		<tag k="ssr:stedsnr" v="417048" />
	</node>
	<node id="-351732" lat="62.2276166708" lon="10.5671000058">
		<tag k="name" v="Sivilvanggruva" />
		<tag k="natural" v="valley" />
		<tag k="place" v="locality" />
		<tag k="ssr:stedsnr" v="416799" />
	</node>
	<node id="-351731" lat="62.2603388898" lon="10.5751527819">
		<tag k="name" v="Letklimpen" />
		<tag k="natural" v="hill" />
		<tag k="place" v="locality" />
		<tag k="ssr:stedsnr" v="416783" />
	</node>
	<node id="-351729" lat="62.2355861131" lon="10.6430499907">
		<tag k="name" v="Krokmoen" />
		<tag k="place" v="locality" />
		<tag k="ssr:stedsnr" v="416738" />
	</node>
	<node id="-349680" lat="62.5494444431" lon="10.2958611045">
		<tag k="name" v="Sæterdalene" />
		<tag k="natural" v="valley" />
		<tag k="place" v="locality" />
		<tag k="ssr:stedsnr" v="293054" />
	</node>
	<node id="-351726" lat="62.1015916672" lon="10.8938416759">
		<tag k="name" v="Rømoen" />
		<tag k="place" v="locality" />
		<tag k="ssr:stedsnr" v="416363" />
	</node>
	<node id="-351725" lat="62.2843722229" lon="10.9927666704">
		<tag k="fixme" v="consider natural=peak for the most distinct mountains in the district" />
		<tag k="name" v="Gammeldalsberget" />
		<tag k="natural" v="hill" />
		<tag k="place" v="locality" />
		<tag k="ssr:stedsnr" v="416342" />
	</node>
	<node id="-351723" lat="62.3608055598" lon="10.6401166696">
		<tag k="name" v="Fosslia" />
		<tag k="natural" v="slope" />
		<tag k="place" v="locality" />
		<tag k="ssr:stedsnr" v="416292" />
	</node>
	<node id="-349672" lat="62.2623944444" lon="10.5249916632">
		<tag k="name" v="Sjølia" />
		<tag k="natural" v="slope" />
		<tag k="place" v="locality" />
		<tag k="ssr:stedsnr" v="194007" />
	</node>
	<node id="-349669" lat="62.3025027793" lon="10.3457416699">
		<tag k="name" v="Gammeldalen" />
		<tag k="natural" v="valley" />
		<tag k="place" v="locality" />
		<tag k="ssr:stedsnr" v="193910" />
	</node>
	<node id="-349667" lat="62.3013499971" lon="10.6094083388">
		<tag k="name" v="Fådalen" />
		<tag k="natural" v="valley" />
		<tag k="place" v="locality" />
		<tag k="ssr:stedsnr" v="193903" />
	</node>
	<node id="-351713" lat="62.4172749956" lon="10.4568555638">
		<tag k="name" v="Veslmidtåsen" />
		<tag k="natural" v="hill" />
		<tag k="place" v="locality" />
		<tag k="ssr:stedsnr" v="415981" />
	</node>
	<node id="-350117" lat="62.3055277776" lon="10.8651666664">
		<tag k="name" v="Neprøstfaret" />
		<tag k="place" v="locality" />
		<tag k="ssr:stedsnr" v="658297" />
	</node>
	<node id="-351704" lat="62.6561722235" lon="10.1790499909">
		<tag k="name" v="Brevadberga" />
		<tag k="natural" v="hill" />
		<tag k="place" v="locality" />
		<tag k="ssr:stedsnr" v="415894" />
	</node>
	<node id="-351703" lat="62.5791527762" lon="10.1480611118">
		<tag k="name" v="Fjellråa" />
		<tag k="natural" v="slope" />
		<tag k="place" v="locality" />
		<tag k="ssr:stedsnr" v="415867" />
	</node>
	<node id="-351698" lat="62.5477305537" lon="10.2451805628">
		<tag k="name" v="Trekanten" />
		<tag k="natural" v="hill" />
		<tag k="place" v="locality" />
		<tag k="ssr:stedsnr" v="415821" />
	</node>
	<node id="-351697" lat="62.5297000024" lon="10.1917249984">
		<tag k="name" v="Stormyrdalen" />
		<tag k="natural" v="valley" />
		<tag k="place" v="locality" />
		<tag k="ssr:stedsnr" v="415819" />
	</node>
	<node id="-351696" lat="62.4938805535" lon="10.3894222133">
		<tag k="name" v="Steinkleva" />
		<tag k="natural" v="slope" />
		<tag k="place" v="locality" />
		<tag k="ssr:stedsnr" v="415817" />
	</node>
	<node id="-349646" lat="62.1430916688" lon="10.8692055635">
		<tag k="name" v="Randegga" />
		<tag k="natural" v="hill" />
		<tag k="place" v="locality" />
		<tag k="ssr:stedsnr" v="174532" />
	</node>
	<node id="-349642" lat="62.1260222229" lon="10.933783338">
		<tag k="name" v="Gravsburanden" />
		<tag k="natural" v="ridge" />
		<tag k="place" v="locality" />
		<tag k="ssr:stedsnr" v="174519" />
	</node>
	<node id="-351687" lat="62.4250722265" lon="10.5557666654">
		<tag k="name" v="Motrøhaugene" />
		<tag k="natural" v="hill" />
		<tag k="place" v="locality" />
		<tag k="ssr:stedsnr" v="415283" />
	</node>
	<node id="-351684" lat="62.5516666648" lon="10.4345333236">
		<tag k="name" v="Vethaugene" />
		<tag k="natural" v="hill" />
		<tag k="place" v="locality" />
		<tag k="ssr:stedsnr" v="415212" />
	</node>
	<node id="-351678" lat="62.5283999989" lon="10.3756749949">
		<tag k="name" v="Vakkerkleiva" />
		<tag k="natural" v="slope" />
		<tag k="place" v="locality" />
		<tag k="ssr:stedsnr" v="414684" />
	</node>
	<node id="-351675" lat="62.5267750013" lon="10.2909027818">
		<tag k="name" v="Gammellunningen" />
		<tag k="natural" v="hill" />
		<tag k="place" v="locality" />
		<tag k="ssr:stedsnr" v="414059" />
	</node>
	<node id="-351672" lat="62.5313666661" lon="10.3326750083">
		<tag k="name" v="Blåhammeren" />
		<tag k="natural" v="hill" />
		<tag k="place" v="locality" />
		<tag k="ssr:stedsnr" v="414049" />
	</node>
	<node id="-349621" lat="62.3124749994" lon="10.3644777755">
		<tag k="fixme" v="consider natural=peak for the most distinct mountains in the district" />
		<tag k="name" v="Gammelhøa" />
		<tag k="natural" v="hill" />
		<tag k="place" v="locality" />
		<tag k="ssr:stedsnr" v="132927" />
	</node>
	<node id="-351668" lat="62.3460138934" lon="10.9048916654">
		<tag k="name" v="Telegga" />
		<tag k="natural" v="hill" />
		<tag k="place" v="locality" />
		<tag k="ssr:stedsnr" v="416256" />
	</node>
	<node id="-351664" lat="62.2587444429" lon="10.8879888876">
		<tag k="name" v="Hugudalsåsen" />
		<tag k="natural" v="hill" />
		<tag k="place" v="locality" />
		<tag k="ssr:stedsnr" v="392888" />
	</node>
	<node id="-349615" lat="62.2083083355" lon="11.0624999952">
		<tag k="name" v="Bjørndalen" />
		<tag k="natural" v="valley" />
		<tag k="place" v="locality" />
		<tag k="ssr:stedsnr" v="131219" />
	</node>
	<node id="-349608" lat="62.2276472248" lon="10.8258750014">
		<tag k="fixme" v="consider natural=peak for the most distinct mountains in the district" />
		<tag k="name" v="Veslvangsåsen" />
		<tag k="natural" v="hill" />
		<tag k="place" v="locality" />
		<tag k="ssr:stedsnr" v="113928" />
	</node>
	<node id="-349607" lat="62.198333333" lon="10.7487999976">
		<tag k="name" v="Skarhaugen" />
		<tag k="natural" v="hill" />
		<tag k="place" v="locality" />
		<tag k="ssr:stedsnr" v="113815" />
	</node>
	<node id="-351654" lat="62.454080558" lon="10.2657749977">
		<tag k="fixme" v="consider natural=peak for the most distinct mountains in the district" />
		<tag k="name" v="Burufjellet" />
		<tag k="natural" v="hill" />
		<tag k="place" v="locality" />
		<tag k="ssr:stedsnr" v="375837" />
	</node>
	<node id="-351653" lat="62.4573416668" lon="10.3955638838">
		<tag k="name" v="Ormsletta" />
		<tag k="place" v="locality" />
		<tag k="ssr:stedsnr" v="375832" />
	</node>
	<node id="-349604" lat="62.226880555" lon="10.9744833415">
		<tag k="name" v="Veslekroken" />
		<tag k="place" v="locality" />
		<tag k="ssr:stedsnr" v="113322" />
	</node>
	<node id="-351648" lat="62.3476944445" lon="10.2764805501">
		<tag k="fixme" v="consider natural=peak for the most distinct mountains in the district" />
		<tag k="name" v="Grønhøa" />
		<tag k="natural" v="hill" />
		<tag k="place" v="locality" />
		<tag k="ssr:stedsnr" v="375990" />
	</node>
	<node id="-349598" lat="62.189127774" lon="10.777827779">
		<tag k="name" v="Storvanglia" />
		<tag k="natural" v="slope" />
		<tag k="place" v="locality" />
		<tag k="ssr:stedsnr" v="112923" />
	</node>
	<node id="-349765" lat="62.1494500043" lon="10.9098194382">
		<tag k="name" v="Tatereggan" />
		<tag k="natural" v="hill" />
		<tag k="place" v="locality" />
		<tag k="ssr:stedsnr" v="295484" />
	</node>
	<node id="-351643" lat="62.2883157501" lon="10.6820760265">
		<tag k="fixme" v="multiple name tags, choose one and add the other to alt_name; consider natural=peak for the most distinct mountains in the district" />
		<tag k="name" v="Bondåsen;Storvangåsen" />
		<tag k="natural" v="hill" />
		<tag k="place" v="locality" />
		<tag k="ssr:stedsnr" v="375892" />
	</node>
	<node id="-349593" lat="62.2575055534" lon="10.5669083352">
		<tag k="name" v="Nymohåmmårn" />
		<tag k="natural" v="hill" />
		<tag k="place" v="locality" />
		<tag k="ssr:stedsnr" v="112810" />
	</node>
	<node id="-349592" lat="62.249013892" lon="10.511575002">
		<tag k="fixme" v="consider natural=peak for the most distinct mountains in the district" />
		<tag k="name" v="Kvitstenåsen" />
		<tag k="natural" v="hill" />
		<tag k="place" v="locality" />
		<tag k="ssr:stedsnr" v="112808" />
	</node>
	<node id="-351639" lat="62.3722027747" lon="10.3270583385">
		<tag k="name" v="Tælet" />
		<tag k="natural" v="slope" />
		<tag k="place" v="locality" />
		<tag k="ssr:stedsnr" v="375731" />
	</node>
	<node id="-351638" lat="62.6253000011" lon="10.0863944522">
		<tag k="fixme" v="consider natural=peak for the most distinct mountains in the district" />
		<tag k="name" v="Kletten" />
		<tag k="natural" v="hill" />
		<tag k="place" v="locality" />
		<tag k="ssr:stedsnr" v="375443" />
	</node>
	<node id="-349763" lat="62.2382361089" lon="10.9406305517">
		<tag k="name" v="Ørdet" />
		<tag k="natural" v="slope" />
		<tag k="place" v="locality" />
		<tag k="ssr:stedsnr" v="295447" />
	</node>
	<node id="-351632" lat="62.622111113" lon="10.2769999932">
		<tag k="fixme" v="consider natural=peak for the most distinct mountains in the district" />
		<tag k="name" v="Dalhøa" />
		<tag k="natural" v="hill" />
		<tag k="place" v="locality" />
		<tag k="ssr:stedsnr" v="375098" />
	</node>
	<node id="-351631" lat="62.6533694463" lon="10.4445111143">
		<tag k="alt_name" v="Vehundbolhøgda" />
		<tag k="fixme" v="consider natural=peak for the most distinct mountains in the district" />
		<tag k="name" v="Vedhundbolhøgda" />
		<tag k="natural" v="hill" />
		<tag k="place" v="locality" />
		<tag k="ssr:stedsnr" v="375093" />
	</node>
	<node id="-349580" lat="62.3206722236" lon="10.5196111099">
		<tag k="name" v="Savalkletten" />
		<tag k="natural" v="hill" />
		<tag k="place" v="locality" />
		<tag k="ssr:stedsnr" v="254927" />
	</node>
	<node id="-349579" lat="62.4507999961" lon="10.4525555576">
		<tag k="name" v="Baklidalen" />
		<tag k="natural" v="valley" />
		<tag k="place" v="locality" />
		<tag k="ssr:stedsnr" v="254841" />
	</node>
	<node id="-349576" lat="62.3574666684" lon="10.7130000027">
		<tag k="fixme" v="consider natural=peak for the most distinct mountains in the district" />
		<tag k="name" v="Høgåsen" />
		<tag k="natural" v="hill" />
		<tag k="place" v="locality" />
		<tag k="ssr:stedsnr" v="254981" />
	</node>
	<node id="-351623" lat="62.1496777783" lon="10.7255444394">
		<tag k="alt_name" v="Flattronden" />
		<tag k="name" v="Flattron" />
		<tag k="place" v="locality" />
		<tag k="ssr:stedsnr" v="375049" />
	</node>
	<node id="-351618" lat="62.5430473944" lon="10.3869765578">
		<tag k="name" v="Kaltberget" />
		<tag k="natural" v="hill" />
		<tag k="place" v="locality" />
		<tag k="ssr:stedsnr" v="375063" />
	</node>
	<node id="-349569" lat="62.3447805567" lon="10.5968083333">
		<tag k="fixme" v="consider natural=peak for the most distinct mountains in the district" />
		<tag k="name" v="Sæteråsen" />
		<tag k="natural" v="hill" />
		<tag k="place" v="locality" />
		<tag k="ssr:stedsnr" v="254697" />
	</node>
	<node id="-349568" lat="62.377786114" lon="10.6856194432">
		<tag k="name" v="Svartberget" />
		<tag k="natural" v="hill" />
		<tag k="place" v="locality" />
		<tag k="ssr:stedsnr" v="254728" />
	</node>
	<node id="-351614" lat="62.13279444" lon="10.7626166687">
		<tag k="fixme" v="consider natural=peak for the most distinct mountains in the district" />
		<tag k="name" v="Kaldåsen" />
		<tag k="natural" v="hill" />
		<tag k="place" v="locality" />
		<tag k="ssr:stedsnr" v="374192" />
	</node>
	<node id="-351613" lat="62.1747111112" lon="10.873430559">
		<tag k="alt_name" v="Storsteinvorda;Storsteinvola" />
		<tag k="name" v="Storstenvola" />
		<tag k="natural" v="hill" />
		<tag k="place" v="locality" />
		<tag k="ssr:stedsnr" v="374177" />
	</node>
	<node id="-351612" lat="62.1770749957" lon="10.7713027772">
		<tag k="name" v="Strupen" />
		<tag k="natural" v="valley" />
		<tag k="place" v="locality" />
		<tag k="ssr:stedsnr" v="374174" />
	</node>
	<node id="-349562" lat="62.3504666627" lon="10.8157722256">
		<tag k="fixme" v="consider natural=peak for the most distinct mountains in the district" />
		<tag k="name" v="Klimpen" />
		<tag k="natural" v="hill" />
		<tag k="place" v="locality" />
		<tag k="ssr:stedsnr" v="254197" />
	</node>
	<node id="-350100" lat="62.531694446" lon="10.1108638823">
		<tag k="name" v="Skoghaugen" />
		<tag k="natural" v="hill" />
		<tag k="place" v="locality" />
		<tag k="ssr:stedsnr" v="657754" />
	</node>
	<node id="-351606" lat="62.1494361126" lon="10.8317055593">
		<tag k="fixme" v="consider natural=peak for the most distinct mountains in the district" />
		<tag k="name" v="Brønnå-åsen" />
		<tag k="natural" v="hill" />
		<tag k="place" v="locality" />
		<tag k="ssr:stedsnr" v="356862" />
	</node>
	<node id="-351605" lat="62.1305583316" lon="10.8020055589">
		<tag k="name" v="Nyheimdalen" />
		<tag k="natural" v="valley" />
		<tag k="place" v="locality" />
		<tag k="ssr:stedsnr" v="356747" />
	</node>
	<node id="-351601" lat="62.1682333347" lon="10.9803277803">
		<tag k="name" v="Jammerdalssletta" />
		<tag k="place" v="locality" />
		<tag k="ssr:stedsnr" v="356143" />
	</node>
	<node id="-351599" lat="62.2325916699" lon="10.7457166613">
		<tag k="name" v="Granholtet" />
		<tag k="natural" v="hill" />
		<tag k="place" v="locality" />
		<tag k="ssr:stedsnr" v="355976" />
	</node>
	<node id="-351596" lat="62.1851583291" lon="10.7833888977">
		<tag k="name" v="Jønnbekklia" />
		<tag k="natural" v="slope" />
		<tag k="place" v="locality" />
		<tag k="ssr:stedsnr" v="355925" />
	</node>
	<node id="-349547" lat="62.3034611075" lon="10.7872805539">
		<tag k="fixme" v="consider natural=peak for the most distinct mountains in the district" />
		<tag k="name" v="Slåttåsen" />
		<tag k="natural" v="hill" />
		<tag k="place" v="locality" />
		<tag k="ssr:stedsnr" v="254234" />
	</node>
	<node id="-351594" lat="62.1945583331" lon="10.7704055566">
		<tag k="name" v="Geitryggen" />
		<tag k="natural" v="hill" />
		<tag k="place" v="locality" />
		<tag k="ssr:stedsnr" v="355915" />
	</node>
	<node id="-349415" lat="62.0592749977" lon="10.8309000024">
		<tag k="name" v="Botnan" />
		<tag k="natural" v="valley" />
		<tag k="place" v="locality" />
		<tag k="ssr:stedsnr" v="233696" />
	</node>
	<node id="-351590" lat="62.1773750024" lon="10.7895750037">
		<tag k="name" v="Gammelsæterlia" />
		<tag k="natural" v="slope" />
		<tag k="place" v="locality" />
		<tag k="ssr:stedsnr" v="355828" />
	</node>
	<node id="-351589" lat="62.3444527807" lon="10.5702833356">
		<tag k="name" v="Blæsteregga" />
		<tag k="natural" v="hill" />
		<tag k="place" v="locality" />
		<tag k="ssr:stedsnr" v="355823" />
	</node>
	<node id="-351587" lat="62.3364361105" lon="10.5444055508">
		<tag k="fixme" v="consider natural=peak for the most distinct mountains in the district" />
		<tag k="name" v="Krokfjellet" />
		<tag k="natural" v="hill" />
		<tag k="place" v="locality" />
		<tag k="ssr:stedsnr" v="355819" />
	</node>
	<node id="-351585" lat="62.3149444471" lon="10.4978861056">
		<tag k="name" v="Rundhaugen" />
		<tag k="natural" v="hill" />
		<tag k="place" v="locality" />
		<tag k="ssr:stedsnr" v="355804" />
	</node>
	<node id="-349536" lat="62.1824694485" lon="10.9910722129">
		<tag k="name" v="Brydalen" />
		<tag k="natural" v="valley" />
		<tag k="place" v="locality" />
		<tag k="ssr:stedsnr" v="253256" />
	</node>
	<node id="-349535" lat="62.2427638925" lon="10.8603611029">
		<tag k="alt_name" v="Solvdalen" />
		<tag k="name" v="Sølvdalen" />
		<tag k="natural" v="valley" />
		<tag k="place" v="locality" />
		<tag k="ssr:stedsnr" v="253242" />
	</node>
	<node id="-351582" lat="62.1849916648" lon="10.7722527847">
		<tag k="name" v="Kalvelia" />
		<tag k="natural" v="slope" />
		<tag k="place" v="locality" />
		<tag k="ssr:stedsnr" v="355793" />
	</node>
	<node id="-351581" lat="62.2644944427" lon="10.5673722303">
		<tag k="name" v="Svartåsvola" />
		<tag k="natural" v="hill" />
		<tag k="place" v="locality" />
		<tag k="ssr:stedsnr" v="355788" />
	</node>
	<node id="-351580" lat="62.2704972193" lon="10.4039777827">
		<tag k="name" v="Halvoråsen" />
		<tag k="natural" v="hill" />
		<tag k="place" v="locality" />
		<tag k="ssr:stedsnr" v="355775" />
	</node>
	<node id="-351579" lat="62.2240916711" lon="10.6828583387">
		<tag k="name" v="Djupgrubba" />
		<tag k="natural" v="valley" />
		<tag k="place" v="locality" />
		<tag k="ssr:stedsnr" v="355735" />
	</node>
	<node id="-349529" lat="62.1061944435" lon="10.8462388936">
		<tag k="fixme" v="consider natural=peak for the most distinct mountains in the district" />
		<tag k="name" v="Søgardsåsen" />
		<tag k="natural" v="hill" />
		<tag k="place" v="locality" />
		<tag k="ssr:stedsnr" v="253135" />
	</node>
	<node id="-349525" lat="62.0816305537" lon="10.8845555636">
		<tag k="name" v="Rivvangberget" />
		<tag k="natural" v="hill" />
		<tag k="place" v="locality" />
		<tag k="ssr:stedsnr" v="253099" />
	</node>
	<node id="-351572" lat="62.1497388893" lon="10.8531472145">
		<tag k="name" v="Veslevola" />
		<tag k="natural" v="hill" />
		<tag k="place" v="locality" />
		<tag k="ssr:stedsnr" v="355436" />
	</node>
	<node id="-350094" lat="62.6248805585" lon="10.4140083238">
		<tag k="name" v="Galådalen" />
		<tag k="natural" v="valley" />
		<tag k="place" v="locality" />
		<tag k="ssr:stedsnr" v="657168" />
	</node>
	<node id="-351569" lat="62.2215027738" lon="10.8445000031">
		<tag k="fixme" v="consider natural=peak for the most distinct mountains in the district" />
		<tag k="name" v="Fjellvangåsen" />
		<tag k="natural" v="hill" />
		<tag k="place" v="locality" />
		<tag k="ssr:stedsnr" v="355398" />
	</node>
	<node id="-351568" lat="62.2116611143" lon="10.8534944457">
		<tag k="name" v="Storhaugen" />
		<tag k="natural" v="hill" />
		<tag k="place" v="locality" />
		<tag k="ssr:stedsnr" v="355397" />
	</node>
	<node id="-351564" lat="62.2896055585" lon="10.9669555582">
		<tag k="name" v="Smalmoen" />
		<tag k="place" v="locality" />
		<tag k="ssr:stedsnr" v="355333" />
	</node>
	<node id="-349514" lat="62.6154777746" lon="10.4635249951">
		<tag k="fixme" v="consider natural=peak for the most distinct mountains in the district" />
		<tag k="name" v="Langvasskneppan" />
		<tag k="natural" v="hill" />
		<tag k="place" v="locality" />
		<tag k="ssr:stedsnr" v="254076" />
	</node>
	<node id="-351557" lat="62.3168750018" lon="10.7183194373">
		<tag k="name" v="Veslesæterhammeren" />
		<tag k="place" v="locality" />
		<tag k="ssr:stedsnr" v="355132" />
	</node>
	<node id="-349508" lat="62.4545666648" lon="10.3784944354">
		<tag k="name" v="Kvikneskogen" />
		<tag k="natural" v="wood" />
		<tag k="ssr:stedsnr" v="72826" />
	</node>
	<node id="-349506" lat="62.4146444401" lon="10.4523638811">
		<tag k="fixme" v="consider natural=peak for the most distinct mountains in the district" />
		<tag k="name" v="Midtåsen" />
		<tag k="natural" v="hill" />
		<tag k="place" v="locality" />
		<tag k="ssr:stedsnr" v="72802" />
	</node>
	<node id="-351550" lat="62.2815111139" lon="10.968047227">
		<tag k="alt_name" v="Nebyegga" />
		<tag k="name" v="Nedbyegga" />
		<tag k="natural" v="hill" />
		<tag k="place" v="locality" />
		<tag k="ssr:stedsnr" v="355060" />
	</node>
	<node id="-349501" lat="62.3476388904" lon="10.9232611063">
		<tag k="name" v="Dølrøsta" />
		<tag k="place" v="locality" />
		<tag k="ssr:stedsnr" v="72220" />
	</node>
	<node id="-351548" lat="62.426155558" lon="10.6435972179">
		<tag k="fixme" v="consider natural=peak for the most distinct mountains in the district" />
		<tag k="name" v="Gjeråsen" />
		<tag k="natural" v="hill" />
		<tag k="place" v="locality" />
		<tag k="ssr:stedsnr" v="355053" />
	</node>
	<node id="-349497" lat="62.2397055565" lon="10.7424833309">
		<tag k="fixme" v="consider natural=peak for the most distinct mountains in the district" />
		<tag k="name" v="Geitryggen" />
		<tag k="natural" v="hill" />
		<tag k="place" v="locality" />
		<tag k="ssr:stedsnr" v="72202" />
	</node>
	<node id="-351540" lat="62.259430553" lon="10.7235833368">
		<tag k="name" v="Husbakken" />
		<tag k="natural" v="hill" />
		<tag k="place" v="locality" />
		<tag k="ssr:stedsnr" v="355012" />
	</node>
	<node id="-349490" lat="62.240694446" lon="10.8108000035">
		<tag k="name" v="Veslerabben" />
		<tag k="natural" v="hill" />
		<tag k="place" v="locality" />
		<tag k="ssr:stedsnr" v="53957" />
	</node>
	<node id="-351537" lat="62.6837833349" lon="10.1709083416">
		<tag k="name" v="Ulvasslia" />
		<tag k="natural" v="slope" />
		<tag k="place" v="locality" />
		<tag k="ssr:stedsnr" v="354992" />
	</node>
	<node id="-351536" lat="62.4521055592" lon="10.4085416703">
		<tag k="name" v="Skårkleva" />
		<tag k="natural" v="slope" />
		<tag k="place" v="locality" />
		<tag k="ssr:stedsnr" v="354990" />
	</node>
	<node id="-349487" lat="62.1984555575" lon="10.7720583366">
		<tag k="name" v="Storfonnbakken" />
		<tag k="natural" v="hill" />
		<tag k="place" v="locality" />
		<tag k="ssr:stedsnr" v="52920" />
	</node>
	<node id="-349486" lat="62.1744166631" lon="10.7627722308">
		<tag k="name" v="Ådalen" />
		<tag k="natural" v="valley" />
		<tag k="place" v="locality" />
		<tag k="ssr:stedsnr" v="52826" />
	</node>
	<node id="-349485" lat="62.343211111" lon="10.5846305483">
		<tag k="name" v="Gammelvanglia" />
		<tag k="natural" v="slope" />
		<tag k="place" v="locality" />
		<tag k="ssr:stedsnr" v="52818" />
	</node>
	<node id="-351532" lat="62.2589694464" lon="10.8747972141">
		<tag k="name" v="Heggrøsta" />
		<tag k="natural" v="slope" />
		<tag k="place" v="locality" />
		<tag k="ssr:stedsnr" v="354467" />
	</node>
	<node id="-351530" lat="62.066138892" lon="10.9496222166">
		<tag k="fixme" v="consider natural=peak for the most distinct mountains in the district" />
		<tag k="name" v="Nordre Skårsjøhøgda" />
		<tag k="natural" v="hill" />
		<tag k="place" v="locality" />
		<tag k="ssr:stedsnr" v="354402" />
	</node>
	<node id="-351529" lat="62.0637166701" lon="10.8859000058">
		<tag k="name" v="Jarlbruberget" />
		<tag k="natural" v="hill" />
		<tag k="place" v="locality" />
		<tag k="ssr:stedsnr" v="354399" />
	</node>
	<node id="-351528" lat="62.3061638875" lon="10.9139388833">
		<tag k="name" v="Ryan" />
		<tag k="natural" v="slope" />
		<tag k="place" v="locality" />
		<tag k="ssr:stedsnr" v="354332" />
	</node>
	<node id="-349479" lat="62.4090527785" lon="10.5846583276">
		<tag k="name" v="Kvernhushaugene" />
		<tag k="natural" v="hill" />
		<tag k="place" v="locality" />
		<tag k="ssr:stedsnr" v="52604" />
	</node>
	<node id="-349823" lat="62.2461055584" lon="10.9568666614">
		<tag k="name" v="Loddigrubba" />
		<tag k="natural" v="valley" />
		<tag k="place" v="locality" />
		<tag k="ssr:stedsnr" v="294474" />
	</node>
	<node id="-349475" lat="62.1591166683" lon="10.9896694432">
		<tag k="name" v="Rørtjønnholla" />
		<tag k="natural" v="slope" />
		<tag k="place" v="locality" />
		<tag k="ssr:stedsnr" v="52118" />
	</node>
	<node id="-349474" lat="62.3281805594" lon="10.7221194456">
		<tag k="name" v="Blæsterlia" />
		<tag k="natural" v="slope" />
		<tag k="place" v="locality" />
		<tag k="ssr:stedsnr" v="52102" />
	</node>
	<node id="-349470" lat="62.3718222253" lon="10.6237805509">
		<tag k="name" v="Gjellen" />
		<tag k="place" v="locality" />
		<tag k="ssr:stedsnr" v="52018" />
	</node>
	<node id="-349467" lat="62.5631111111" lon="10.4703944461">
		<tag k="name" v="Vinterveidalen" />
		<tag k="natural" v="valley" />
		<tag k="place" v="locality" />
		<tag k="ssr:stedsnr" v="51866" />
	</node>
	<node id="-351514" lat="62.5016055582" lon="10.2488055532">
		<tag k="name" v="Brandegghaugene" />
		<tag k="natural" v="hill" />
		<tag k="place" v="locality" />
		<tag k="ssr:stedsnr" v="354074" />
	</node>
	<node id="-351513" lat="62.5123249966" lon="10.2303888924">
		<tag k="name" v="Storinnsjølia" />
		<tag k="natural" v="slope" />
		<tag k="place" v="locality" />
		<tag k="ssr:stedsnr" v="353077" />
	</node>
	<node id="-351509" lat="62.5536777765" lon="10.2889777763">
		<tag k="name" v="Tverrlia" />
		<tag k="natural" v="slope" />
		<tag k="place" v="locality" />
		<tag k="ssr:stedsnr" v="353037" />
	</node>
	<node id="-349459" lat="62.276044442" lon="10.9967111041">
		<tag k="name" v="Kløftet" />
		<tag k="natural" v="gorge" />
		<tag k="ssr:stedsnr" v="236922" />
	</node>
	<node id="-349457" lat="62.1584388931" lon="10.7783083321">
		<tag k="name" v="Livangkletten" />
		<tag k="natural" v="hill" />
		<tag k="place" v="locality" />
		<tag k="ssr:stedsnr" v="235056" />
	</node>
	<node id="-349456" lat="62.1916194472" lon="10.7830944414">
		<tag k="name" v="Gjetvola" />
		<tag k="natural" v="hill" />
		<tag k="place" v="locality" />
		<tag k="ssr:stedsnr" v="234936" />
	</node>
	<node id="-351500" lat="62.3611611115" lon="10.3842527726">
		<tag k="fixme" v="consider natural=peak for the most distinct mountains in the district" />
		<tag k="name" v="Gløttangen" />
		<tag k="natural" v="hill" />
		<tag k="place" v="locality" />
		<tag k="ssr:stedsnr" v="315994" />
	</node>
	<node id="-349451" lat="62.1997416643" lon="10.9034472199">
		<tag k="name" v="Hammaren" />
		<tag k="natural" v="hill" />
		<tag k="place" v="locality" />
		<tag k="ssr:stedsnr" v="234479" />
	</node>
	<node id="-351494" lat="62.4289694484" lon="10.4931444517">
		<tag k="alt_name" v="Steinvorda;Steinvola" />
		<tag k="fixme" v="consider natural=peak for the most distinct mountains in the district" />
		<tag k="name" v="Stenvola" />
		<tag k="natural" v="hill" />
		<tag k="place" v="locality" />
		<tag k="ssr:stedsnr" v="315842" />
	</node>
	<node id="-351489" lat="62.3842083374" lon="10.3656888825">
		<tag k="fixme" v="consider natural=peak for the most distinct mountains in the district" />
		<tag k="name" v="Midthøa" />
		<tag k="natural" v="hill" />
		<tag k="place" v="locality" />
		<tag k="ssr:stedsnr" v="315787" />
	</node>
	<node id="-349440" lat="62.1689277824" lon="11.0759055463">
		<tag k="fixme" v="consider natural=peak for the most distinct mountains in the district" />
		<tag k="name" v="Fløyknappen" />
		<tag k="natural" v="hill" />
		<tag k="place" v="locality" />
		<tag k="ssr:stedsnr" v="234235" />
	</node>
	<node id="-351487" lat="62.4228305529" lon="10.4655083422">
		<tag k="alt_name" v="Bjørnåsen" />
		<tag k="fixme" v="consider natural=peak for the most distinct mountains in the district" />
		<tag k="name" v="Bjønnåsen" />
		<tag k="natural" v="hill" />
		<tag k="place" v="locality" />
		<tag k="ssr:stedsnr" v="315813" />
	</node>
	<node id="-349436" lat="62.184925003" lon="10.9726166727">
		<tag k="name" v="Vestre Brydalsberget" />
		<tag k="natural" v="hill" />
		<tag k="place" v="locality" />
		<tag k="ssr:stedsnr" v="234122" />
	</node>
	<node id="-351483" lat="62.4865361111" lon="10.5227194479">
		<tag k="name" v="Eidskampen" />
		<tag k="natural" v="hill" />
		<tag k="place" v="locality" />
		<tag k="ssr:stedsnr" v="315625" />
	</node>
	<node id="-349434" lat="62.3392694405" lon="10.672230553">
		<tag k="name" v="Storhammerdalen" />
		<tag k="natural" v="valley" />
		<tag k="place" v="locality" />
		<tag k="ssr:stedsnr" v="234070" />
	</node>
	<node id="-349433" lat="62.2751472258" lon="10.8146555616">
		<tag k="name" v="Hugudalen" />
		<tag k="natural" v="valley" />
		<tag k="place" v="locality" />
		<tag k="ssr:stedsnr" v="234049" />
	</node>
	<node id="-349429" lat="62.6865388886" lon="10.1690805464">
		<tag k="name" v="Ulvmoen" />
		<tag k="natural" v="hill" />
		<tag k="place" v="locality" />
		<tag k="ssr:stedsnr" v="233994" />
	</node>
	<node id="-349425" lat="62.6063472245" lon="10.2956305638">
		<tag k="name" v="Bjørgefjellet" />
		<tag k="natural" v="ridge" />
		<tag k="place" v="locality" />
		<tag k="ssr:stedsnr" v="233975" />
	</node>
	<node id="-349422" lat="62.6420138893" lon="10.1770666702">
		<tag k="name" v="Kvannlia" />
		<tag k="natural" v="slope" />
		<tag k="place" v="locality" />
		<tag k="ssr:stedsnr" v="233896" />
	</node>
	<node id="-351469" lat="62.2331833322" lon="10.5923666629">
		<tag k="alt_name" v="Huldrevangåsen" />
		<tag k="fixme" v="consider natural=peak for the most distinct mountains in the district" />
		<tag k="name" v="Hulvangåsen" />
		<tag k="natural" v="hill" />
		<tag k="place" v="locality" />
		<tag k="ssr:stedsnr" v="314090" />
	</node>
	<node id="-351468" lat="62.1196583313" lon="10.8302027839">
		<tag k="alt_name" v="Retkletten" />
		<tag k="fixme" v="consider natural=peak for the most distinct mountains in the district" />
		<tag k="name" v="Reitkletten" />
		<tag k="natural" v="hill" />
		<tag k="place" v="locality" />
		<tag k="ssr:stedsnr" v="314083" />
	</node>
	<node id="-349394" lat="62.5103083297" lon="10.3499916569">
		<tag k="name" v="Åslia" />
		<tag k="natural" v="slope" />
		<tag k="place" v="locality" />
		<tag k="ssr:stedsnr" v="232746" />
	</node>
	<node id="-349416" lat="62.5562361078" lon="10.1032833342">
		<tag k="name" v="Brattegga" />
		<tag k="natural" v="slope" />
		<tag k="place" v="locality" />
		<tag k="ssr:stedsnr" v="233819" />
	</node>
	<node id="-351463" lat="62.0208527749" lon="10.8807250023">
		<tag k="name" v="Barkaldkjølen" />
		<tag k="natural" v="ridge" />
		<tag k="place" v="locality" />
		<tag k="ssr:stedsnr" v="314050" />
	</node>
	<node id="-349414" lat="62.0360527768" lon="10.9274055649">
		<tag k="name" v="Sollikleva" />
		<tag k="natural" v="slope" />
		<tag k="place" v="locality" />
		<tag k="ssr:stedsnr" v="233625" />
	</node>
	<node id="-349411" lat="62.0921611137" lon="10.9542388968">
		<tag k="fixme" v="consider natural=peak for the most distinct mountains in the district" />
		<tag k="name" v="Roparåsen" />
		<tag k="natural" v="hill" />
		<tag k="place" v="locality" />
		<tag k="ssr:stedsnr" v="233428" />
	</node>
	<node id="-349409" lat="62.3085222185" lon="10.9067444432">
		<tag k="name" v="Øymåna" />
		<tag k="natural" v="hill" />
		<tag k="place" v="locality" />
		<tag k="ssr:stedsnr" v="233347" />
	</node>
	<node id="-351456" lat="62.408108334" lon="10.2779611191">
		<tag k="alt_name" v="Børsjøhø, store" />
		<tag k="fixme" v="consider natural=peak for the most distinct mountains in the district" />
		<tag k="name" v="Store Børsjøhø" />
		<tag k="natural" v="hill" />
		<tag k="place" v="locality" />
		<tag k="ssr:stedsnr" v="194780" />
	</node>
	<node id="-349407" lat="62.5586249965" lon="10.4039027758">
		<tag k="name" v="Vangbergene" />
		<tag k="natural" v="hill" />
		<tag k="place" v="locality" />
		<tag k="ssr:stedsnr" v="233238" />
	</node>
	<node id="-349404" lat="62.5526416696" lon="10.3928694486">
		<tag k="name" v="Langkloppdalen" />
		<tag k="natural" v="valley" />
		<tag k="place" v="locality" />
		<tag k="ssr:stedsnr" v="233233" />
	</node>
	<node id="-351451" lat="62.2836444434" lon="10.3934916633">
		<tag k="alt_name" v="Fisktjørnkletten" />
		<tag k="fixme" v="consider natural=peak for the most distinct mountains in the district" />
		<tag k="name" v="Fisktjønnkletten" />
		<tag k="natural" v="hill" />
		<tag k="place" v="locality" />
		<tag k="ssr:stedsnr" v="194886" />
	</node>
	<node id="-351448" lat="62.2755361114" lon="10.6357861135">
		<tag k="alt_name" v="Blesteråsen" />
		<tag k="fixme" v="consider natural=peak for the most distinct mountains in the district" />
		<tag k="name" v="Blæsteråsen" />
		<tag k="natural" v="hill" />
		<tag k="place" v="locality" />
		<tag k="ssr:stedsnr" v="194878" />
	</node>
	<node id="-351445" lat="62.2472083332" lon="10.8832222132">
		<tag k="alt_name" v="Vesleklettlia" />
		<tag k="name" v="Veslklettlia" />
		<tag k="natural" v="slope" />
		<tag k="place" v="locality" />
		<tag k="ssr:stedsnr" v="194294" />
	</node>
	<node id="-351444" lat="63.0555222256" lon="9.61907222116">
		<tag k="name" v="Orkdalen" />
		<tag k="natural" v="valley" />
		<tag k="place" v="locality" />
		<tag k="ssr:stedsnr" v="194263" />
	</node>
	<node id="-351442" lat="62.5159305589" lon="10.363574993">
		<tag k="fixme" v="consider natural=peak for the most distinct mountains in the district" />
		<tag k="name" v="Storåsen" />
		<tag k="natural" v="hill" />
		<tag k="place" v="locality" />
		<tag k="ssr:stedsnr" v="194334" />
	</node>
	<node id="-349392" lat="62.4895944464" lon="10.3607027767">
		<tag k="name" v="Fagerhaugdalen" />
		<tag k="natural" v="valley" />
		<tag k="place" v="locality" />
		<tag k="ssr:stedsnr" v="232739" />
	</node>
	<node id="-351437" lat="62.5330583343" lon="10.2643250048">
		<tag k="fixme" v="consider natural=peak for the most distinct mountains in the district" />
		<tag k="name" v="Vakkerlifjellet" />
		<tag k="natural" v="hill" />
		<tag k="place" v="locality" />
		<tag k="ssr:stedsnr" v="194050" />
	</node>
	<node id="-349388" lat="62.551702781" lon="10.2219861049">
		<tag k="fixme" v="consider natural=peak for the most distinct mountains in the district" />
		<tag k="name" v="Rensfjellet" />
		<tag k="natural" v="hill" />
		<tag k="place" v="locality" />
		<tag k="ssr:stedsnr" v="232030" />
	</node>
	<node id="-351433" lat="62.3517111074" lon="10.703574996">
		<tag k="name" v="Snauberget" />
		<tag k="natural" v="hill" />
		<tag k="place" v="locality" />
		<tag k="ssr:stedsnr" v="193978" />
	</node>
	<node id="-349384" lat="62.5252694478" lon="10.121977772">
		<tag k="name" v="Elsåkroken" />
		<tag k="natural" v="valley" />
		<tag k="place" v="locality" />
		<tag k="ssr:stedsnr" v="28411" />
	</node>
	<node id="-349381" lat="62.254744449" lon="10.7689861117">
		<tag k="name" v="Haverslia" />
		<tag k="natural" v="slope" />
		<tag k="place" v="locality" />
		<tag k="ssr:stedsnr" v="12331" />
	</node>
	<node id="-351425" lat="62.4675805555" lon="10.3039249928">
		<tag k="name" v="Burudalen" />
		<tag k="natural" v="valley" />
		<tag k="place" v="locality" />
		<tag k="ssr:stedsnr" v="193861" />
	</node>
	<node id="-349376" lat="62.2957166667" lon="10.5856666762">
		<tag k="fixme" v="consider natural=peak for the most distinct mountains in the district" />
		<tag k="name" v="Kvitåsen" />
		<tag k="natural" v="hill" />
		<tag k="place" v="locality" />
		<tag k="ssr:stedsnr" v="11906" />
	</node>
	<node id="-351423" lat="62.4194916633" lon="10.3591638829">
		<tag k="fixme" v="consider natural=peak for the most distinct mountains in the district" />
		<tag k="name" v="Storåsen" />
		<tag k="natural" v="hill" />
		<tag k="place" v="locality" />
		<tag k="ssr:stedsnr" v="193698" />
	</node>
	<node id="-351422" lat="62.3609638869" lon="10.5623055587">
		<tag k="fixme" v="consider natural=peak for the most distinct mountains in the district" />
		<tag k="name" v="Storåsen" />
		<tag k="natural" v="hill" />
		<tag k="place" v="locality" />
		<tag k="ssr:stedsnr" v="193695" />
	</node>
	<node id="-349366" lat="62.2377861137" lon="10.8633638809">
		<tag k="alt_name" v="Solvrabban" />
		<tag k="fixme" v="consider natural=peak for the most distinct mountains in the district" />
		<tag k="name" v="Sølvrabben" />
		<tag k="natural" v="hill" />
		<tag k="place" v="locality" />
		<tag k="ssr:stedsnr" v="11208" />
	</node>
	<node id="-351406" lat="62.2361805586" lon="11.0185750057">
		<tag k="fixme" v="consider natural=peak for the most distinct mountains in the district" />
		<tag k="name" v="Langkletten" />
		<tag k="natural" v="hill" />
		<tag k="place" v="locality" />
		<tag k="ssr:stedsnr" v="193212" />
	</node>
	<node id="-351404" lat="62.1500611116" lon="10.8546500055">
		<tag k="fixme" v="consider natural=peak for the most distinct mountains in the district" />
		<tag k="name" v="Rivåsen" />
		<tag k="natural" v="hill" />
		<tag k="place" v="locality" />
		<tag k="ssr:stedsnr" v="193179" />
	</node>
	<node id="-352455" lat="62.2831722243" lon="10.7939527706">
		<tag k="name" v="Haugrosengene" />
		<tag k="place" v="locality" />
		<tag k="ssr:stedsnr" v="963045" />
	</node>
	<node id="-351398" lat="62.192233335" lon="10.7958333416">
		<tag k="alt_name" v="Jønnbekkjevorda" />
		<tag k="fixme" v="consider natural=peak for the most distinct mountains in the district" />
		<tag k="name" v="Jønnbekkvola" />
		<tag k="natural" v="hill" />
		<tag k="place" v="locality" />
		<tag k="ssr:stedsnr" v="192267" />
	</node>
	<node id="-352309" lat="62.5978222255" lon="10.2400166712">
		<tag k="name" v="Staislia" />
		<tag k="natural" v="slope" />
		<tag k="place" v="locality" />
		<tag k="ssr:stedsnr" v="840943" />
	</node>
	<node id="-352454" lat="62.2290027748" lon="10.7243500032">
		<tag k="name" v="Stenmoen" />
		<tag k="place" v="locality" />
		<tag k="ssr:stedsnr" v="962987" />
	</node>
	<node id="-351394" lat="62.1309277802" lon="10.8287944436">
		<tag k="alt_name" v="Hemrabben" />
		<tag k="name" v="Heimrabben" />
		<tag k="natural" v="hill" />
		<tag k="place" v="locality" />
		<tag k="ssr:stedsnr" v="192099" />
	</node>
	<node id="-351390" lat="62.2322583369" lon="10.7522722192">
		<tag k="name" v="Øvre Ånrøsta" />
		<tag k="natural" v="hill" />
		<tag k="place" v="locality" />
		<tag k="ssr:stedsnr" v="174981" />
	</node>
	<node id="-351387" lat="62.2185750036" lon="10.8967555482">
		<tag k="fixme" v="consider natural=peak for the most distinct mountains in the district" />
		<tag k="name" v="Grønfjellet" />
		<tag k="natural" v="hill" />
		<tag k="place" v="locality" />
		<tag k="ssr:stedsnr" v="174480" />
	</node>
	<node id="-351386" lat="62.2216527756" lon="10.8667055601">
		<tag k="fixme" v="consider natural=peak for the most distinct mountains in the district" />
		<tag k="name" v="Aumliåsen" />
		<tag k="natural" v="hill" />
		<tag k="place" v="locality" />
		<tag k="ssr:stedsnr" v="174477" />
	</node>
	<node id="-351385" lat="62.1109388859" lon="10.9087583384">
		<tag k="fixme" v="consider natural=peak for the most distinct mountains in the district" />
		<tag k="name" v="Veslekommern" />
		<tag k="natural" v="hill" />
		<tag k="place" v="locality" />
		<tag k="ssr:stedsnr" v="174448" />
	</node>
	<node id="-351382" lat="62.1544194407" lon="11.0061055507">
		<tag k="name" v="Limstenhammeren" />
		<tag k="natural" v="hill" />
		<tag k="place" v="locality" />
		<tag k="ssr:stedsnr" v="174270" />
	</node>
	<node id="-351376" lat="62.2519972206" lon="10.6442972201">
		<tag k="name" v="Lauvåsbakkan" />
		<tag k="natural" v="slope" />
		<tag k="place" v="locality" />
		<tag k="ssr:stedsnr" v="174164" />
	</node>
	<node id="-351375" lat="62.1615611115" lon="10.9966361114">
		<tag k="name" v="Nausteregga" />
		<tag k="natural" v="slope" />
		<tag k="place" v="locality" />
		<tag k="ssr:stedsnr" v="174155" />
	</node>
	<node id="-351373" lat="62.153227778" lon="10.7775138975">
		<tag k="name" v="Åvolldalen" />
		<tag k="natural" v="valley" />
		<tag k="place" v="locality" />
		<tag k="ssr:stedsnr" v="174055" />
	</node>
	<node id="-351365" lat="62.1947361153" lon="10.8116250051">
		<tag k="name" v="Langsæterlia" />
		<tag k="natural" v="slope" />
		<tag k="place" v="locality" />
		<tag k="ssr:stedsnr" v="173925" />
	</node>
	<node id="-351364" lat="62.1551805558" lon="10.803297217">
		<tag k="name" v="Storhammaren" />
		<tag k="natural" v="hill" />
		<tag k="place" v="locality" />
		<tag k="ssr:stedsnr" v="173849" />
	</node>
	<node id="-351363" lat="62.1613361099" lon="10.7817472178">
		<tag k="name" v="Langdalen" />
		<tag k="natural" v="valley" />
		<tag k="place" v="locality" />
		<tag k="ssr:stedsnr" v="173842" />
	</node>
	<node id="-352269" lat="62.2962166711" lon="10.3560666702">
		<tag k="alt_name" v="Veslehøa" />
		<tag k="fixme" v="consider natural=peak for the most distinct mountains in the district" />
		<tag k="name" v="Veslhøa" />
		<tag k="natural" v="hill" />
		<tag k="place" v="locality" />
		<tag k="ssr:stedsnr" v="800916" />
	</node>
	<node id="-352448" lat="62.2062666656" lon="10.7310527814">
		<tag k="name" v="Åsen" />
		<tag k="natural" v="hill" />
		<tag k="place" v="locality" />
		<tag k="ssr:stedsnr" v="962891" />
	</node>
	<node id="-351358" lat="62.2266972208" lon="10.708427774">
		<tag k="name" v="Nordre Riptjønnåsen" />
		<tag k="natural" v="hill" />
		<tag k="place" v="locality" />
		<tag k="ssr:stedsnr" v="173731" />
	</node>
	<node id="-351357" lat="62.3865222186" lon="10.479586104">
		<tag k="name" v="Sørsjølia" />
		<tag k="natural" v="slope" />
		<tag k="place" v="locality" />
		<tag k="ssr:stedsnr" v="173694" />
	</node>
	<node id="-351353" lat="62.2623583314" lon="10.4241416616">
		<tag k="name" v="Sandviklia" />
		<tag k="natural" v="slope" />
		<tag k="place" v="locality" />
		<tag k="ssr:stedsnr" v="173580" />
	</node>
	<node id="-350018" lat="62.6854805572" lon="10.2946555595">
		<tag k="alt_name" v="Litle Sandfjellet" />
		<tag k="fixme" v="consider natural=peak for the most distinct mountains in the district" />
		<tag k="name" v="Litl-Sandfjellet" />
		<tag k="natural" v="hill" />
		<tag k="place" v="locality" />
		<tag k="ssr:stedsnr" v="375366" />
	</node>
	<node id="-350056" lat="62.2738388885" lon="10.6307611103">
		<tag k="fixme" v="consider natural=peak for the most distinct mountains in the district" />
		<tag k="name" v="Røstbakken" />
		<tag k="natural" v="hill" />
		<tag k="place" v="locality" />
		<tag k="ssr:stedsnr" v="417147" />
	</node>
	<node id="-351336" lat="62.3386027809" lon="10.6664611022">
		<tag k="name" v="Storhammeren" />
		<tag k="natural" v="hill" />
		<tag k="place" v="locality" />
		<tag k="ssr:stedsnr" v="173059" />
	</node>
	<node id="-351518" lat="62.5185972249" lon="10.2989611133">
		<tag k="name" v="Stillbekklia" />
		<tag k="natural" v="slope" />
		<tag k="place" v="locality" />
		<tag k="ssr:stedsnr" v="354140" />
	</node>
	<node id="-351331" lat="62.1404499985" lon="10.7419222203">
		<tag k="fixme" v="consider natural=peak for the most distinct mountains in the district" />
		<tag k="name" v="Stenpiggen" />
		<tag k="natural" v="hill" />
		<tag k="ssr:stedsnr" v="173028" />
	</node>
	<node id="-351328" lat="62.2498972193" lon="10.7527138845">
		<tag k="name" v="Langmoen" />
		<tag k="place" v="locality" />
		<tag k="ssr:stedsnr" v="173014" />
	</node>
	<node id="-351327" lat="62.26514167" lon="10.7548666757">
		<tag k="name" v="Almannrøsta" />
		<tag k="natural" v="hill" />
		<tag k="place" v="locality" />
		<tag k="ssr:stedsnr" v="173006" />
	</node>
	<node id="-351325" lat="62.6545694454" lon="10.1332805614">
		<tag k="name" v="Leirbekkdalene" />
		<tag k="natural" v="valley" />
		<tag k="place" v="locality" />
		<tag k="ssr:stedsnr" v="172997" />
	</node>
	<node id="-351320" lat="62.6134444407" lon="10.2273555537">
		<tag k="name" v="Sæterslia" />
		<tag k="natural" v="slope" />
		<tag k="place" v="locality" />
		<tag k="ssr:stedsnr" v="172965" />
	</node>
	<node id="-351316" lat="62.5794638897" lon="10.5004138802">
		<tag k="name" v="Røsthaugen" />
		<tag k="natural" v="hill" />
		<tag k="place" v="locality" />
		<tag k="ssr:stedsnr" v="172863" />
	</node>
	<node id="-351314" lat="62.4663611103" lon="10.3532694414">
		<tag k="name" v="Løkkelia" />
		<tag k="natural" v="slope" />
		<tag k="place" v="locality" />
		<tag k="ssr:stedsnr" v="172808" />
	</node>
	<node id="-351303" lat="62.2590444418" lon="10.7054305645">
		<tag k="name" v="Røstmoen" />
		<tag k="place" v="locality" />
		<tag k="ssr:stedsnr" v="172218" />
	</node>
	<node id="-352438" lat="62.2237777772" lon="10.9581361037">
		<tag k="fixme" v="consider natural=peak for the most distinct mountains in the district" />
		<tag k="name" v="Vesleknøsen" />
		<tag k="natural" v="hill" />
		<tag k="place" v="locality" />
		<tag k="ssr:stedsnr" v="962438" />
	</node>
	<node id="-351297" lat="62.539586112" lon="10.3021027698">
		<tag k="name" v="Krokbekkenga" />
		<tag k="natural" v="slope" />
		<tag k="place" v="locality" />
		<tag k="ssr:stedsnr" v="172059" />
	</node>
	<node id="-351293" lat="62.5259583378" lon="10.3121777779">
		<tag k="name" v="Svarttjønnhaugan" />
		<tag k="natural" v="hill" />
		<tag k="place" v="locality" />
		<tag k="ssr:stedsnr" v="172047" />
	</node>
	<node id="-351290" lat="62.5622527766" lon="10.2739972308">
		<tag k="name" v="Litlinnsjøhøa" />
		<tag k="natural" v="hill" />
		<tag k="place" v="locality" />
		<tag k="ssr:stedsnr" v="172037" />
	</node>
	<node id="-352436" lat="62.1034361105" lon="10.9172916577">
		<tag k="name" v="Koievola" />
		<tag k="natural" v="hill" />
		<tag k="place" v="locality" />
		<tag k="ssr:stedsnr" v="962389" />
	</node>
	<node id="-351285" lat="62.2899777814" lon="10.423358331">
		<tag k="fixme" v="consider natural=peak for the most distinct mountains in the district" />
		<tag k="name" v="Sandvikkletten" />
		<tag k="natural" v="hill" />
		<tag k="place" v="locality" />
		<tag k="ssr:stedsnr" v="133910" />
	</node>
	<node id="-351283" lat="62.4101249964" lon="10.4416805467">
		<tag k="fixme" v="consider natural=peak for the most distinct mountains in the district" />
		<tag k="name" v="Sæteråsen" />
		<tag k="natural" v="hill" />
		<tag k="place" v="locality" />
		<tag k="ssr:stedsnr" v="133797" />
	</node>
	<node id="-351280" lat="62.3886361113" lon="10.6493777738">
		<tag k="name" v="Brenna" />
		<tag k="natural" v="hill" />
		<tag k="place" v="locality" />
		<tag k="ssr:stedsnr" v="133752" />
	</node>
	<node id="-351279" lat="62.2564527814" lon="10.947916668">
		<tag k="alt_name" v="Hovde;Hobdet" />
		<tag k="name" v="Hovdet" />
		<tag k="natural" v="hill" />
		<tag k="place" v="locality" />
		<tag k="ssr:stedsnr" v="133300" />
	</node>
	<node id="-351277" lat="62.2570166636" lon="10.8114916754">
		<tag k="name" v="Grønfjellia" />
		<tag k="natural" v="slope" />
		<tag k="place" v="locality" />
		<tag k="ssr:stedsnr" v="133296" />
	</node>
	<node id="-350044" lat="62.4732722246" lon="10.5545694404">
		<tag k="name" v="Haugenglia" />
		<tag k="natural" v="slope" />
		<tag k="place" v="locality" />
		<tag k="ssr:stedsnr" v="416311" />
	</node>
	<node id="-351269" lat="62.3364666679" lon="10.5967416687">
		<tag k="alt_name" v="Ryslette" />
		<tag k="name" v="Ryslættet" />
		<tag k="place" v="locality" />
		<tag k="ssr:stedsnr" v="132960" />
	</node>
	<node id="-351263" lat="62.6535694447" lon="10.1089722262">
		<tag k="fixme" v="consider natural=peak for the most distinct mountains in the district" />
		<tag k="name" v="Langfjellet" />
		<tag k="natural" v="hill" />
		<tag k="place" v="locality" />
		<tag k="ssr:stedsnr" v="132261" />
	</node>
	<node id="-351258" lat="62.3302055592" lon="10.9810361098">
		<tag k="fixme" v="consider natural=peak for the most distinct mountains in the district" />
		<tag k="name" v="Knausen" />
		<tag k="natural" v="hill" />
		<tag k="place" v="locality" />
		<tag k="ssr:stedsnr" v="132235" />
	</node>
	<node id="-351257" lat="62.3328194482" lon="10.9498888812">
		<tag k="name" v="Teldalen" />
		<tag k="natural" v="valley" />
		<tag k="place" v="locality" />
		<tag k="ssr:stedsnr" v="132230" />
	</node>
	<node id="-351253" lat="62.1870555545" lon="11.2079888924">
		<tag k="fixme" v="consider natural=peak for the most distinct mountains in the district" />
		<tag k="name" v="Brurhøgda" />
		<tag k="natural" v="hill" />
		<tag k="place" v="locality" />
		<tag k="ssr:stedsnr" v="132210" />
	</node>
	<node id="-351252" lat="62.2380249984" lon="10.9201250091">
		<tag k="fixme" v="consider natural=peak for the most distinct mountains in the district" />
		<tag k="name" v="Lauvåskletten" />
		<tag k="natural" v="hill" />
		<tag k="place" v="locality" />
		<tag k="ssr:stedsnr" v="132203" />
	</node>
	<node id="-351240" lat="62.3426027758" lon="10.7503972184">
		<tag k="alt_name" v="Nyvangsåsen" />
		<tag k="fixme" v="consider natural=peak for the most distinct mountains in the district" />
		<tag k="name" v="Nyvangåsen" />
		<tag k="natural" v="hill" />
		<tag k="place" v="locality" />
		<tag k="ssr:stedsnr" v="132197" />
	</node>
	<node id="-351239" lat="62.1346694408" lon="10.9558000072">
		<tag k="name" v="Elghaugen" />
		<tag k="natural" v="hill" />
		<tag k="place" v="locality" />
		<tag k="ssr:stedsnr" v="132155" />
	</node>
	<node id="-351237" lat="62.120216671" lon="10.8568527775">
		<tag k="alt_name" v="Eggjevorda" />
		<tag k="fixme" v="consider natural=peak for the most distinct mountains in the district" />
		<tag k="name" v="Eggevola" />
		<tag k="natural" v="hill" />
		<tag k="place" v="locality" />
		<tag k="ssr:stedsnr" v="131086" />
	</node>
	<node id="-351230" lat="62.2235944483" lon="10.8317055558">
		<tag k="name" v="Østisletta" />
		<tag k="place" v="locality" />
		<tag k="ssr:stedsnr" v="113958" />
	</node>
	<node id="-351229" lat="62.1443611087" lon="10.8268527776">
		<tag k="name" v="Brennvola" />
		<tag k="natural" v="hill" />
		<tag k="place" v="locality" />
		<tag k="ssr:stedsnr" v="113863" />
	</node>
	<node id="-351225" lat="62.1251694471" lon="10.8241611075">
		<tag k="name" v="Hanshamran" />
		<tag k="natural" v="hill" />
		<tag k="place" v="locality" />
		<tag k="ssr:stedsnr" v="113738" />
	</node>
	<node id="-351224" lat="62.3560888847" lon="10.501055561">
		<tag k="name" v="Flatlusåsen" />
		<tag k="natural" v="hill" />
		<tag k="place" v="locality" />
		<tag k="ssr:stedsnr" v="113725" />
	</node>
	<node id="-351210" lat="62.2664999975" lon="10.9828250049">
		<tag k="name" v="Midtengstrypet" />
		<tag k="natural" v="valley" />
		<tag k="place" v="locality" />
		<tag k="ssr:stedsnr" v="113354" />
	</node>
	<node id="-351209" lat="62.335075001" lon="10.9428388932">
		<tag k="name" v="Stortelmoen" />
		<tag k="place" v="locality" />
		<tag k="ssr:stedsnr" v="113261" />
	</node>
	<node id="-351740" lat="62.1371472266" lon="10.8251416727">
		<tag k="name" v="Bekkedalen" />
		<tag k="natural" v="valley" />
		<tag k="place" v="locality" />
		<tag k="ssr:stedsnr" v="417895" />
	</node>
	<node id="-351206" lat="62.1490722192" lon="10.7773138982">
		<tag k="name" v="Kjørdalen" />
		<tag k="natural" v="valley" />
		<tag k="place" v="locality" />
		<tag k="ssr:stedsnr" v="113041" />
	</node>
	<node id="-352081" lat="62.0996416674" lon="10.7802361128">
		<tag k="alt_name" v="Vangbekkdalen" />
		<tag k="name" v="Vangdalen" />
		<tag k="natural" v="valley" />
		<tag k="place" v="locality" />
		<tag k="ssr:stedsnr" v="739094" />
	</node>
	<node id="-351203" lat="62.6782972252" lon="10.1607833304">
		<tag k="name" v="Ulvassbekkdalen" />
		<tag k="natural" v="valley" />
		<tag k="place" v="locality" />
		<tag k="ssr:stedsnr" v="112991" />
	</node>
	<node id="-349945" lat="62.1117249992" lon="10.9226333419">
		<tag k="alt_name" v="Kommern" />
		<tag k="fixme" v="consider natural=peak for the most distinct mountains in the district" />
		<tag k="name" v="Kommeren" />
		<tag k="natural" v="hill" />
		<tag k="place" v="locality" />
		<tag k="ssr:stedsnr" v="496071" />
	</node>
	<node id="-351197" lat="62.180688887" lon="10.7652750038">
		<tag k="name" v="Strupeggan" />
		<tag k="natural" v="hill" />
		<tag k="place" v="locality" />
		<tag k="ssr:stedsnr" v="112930" />
	</node>
	<node id="-351187" lat="62.074691669" lon="10.8297111076">
		<tag k="fixme" v="consider natural=peak for the most distinct mountains in the district" />
		<tag k="name" v="Revseggberget" />
		<tag k="natural" v="hill" />
		<tag k="place" v="locality" />
		<tag k="ssr:stedsnr" v="112648" />
	</node>
	<node id="-351186" lat="62.0853416651" lon="10.8053499912">
		<tag k="name" v="Hårsetdalen" />
		<tag k="natural" v="valley" />
		<tag k="place" v="locality" />
		<tag k="ssr:stedsnr" v="112644" />
	</node>
	<node id="-351177" lat="62.2481583345" lon="10.7016666713">
		<tag k="name" v="Kverndalshalla" />
		<tag k="natural" v="slope" />
		<tag k="place" v="locality" />
		<tag k="ssr:stedsnr" v="112246" />
	</node>
	<node id="-350028" lat="62.254141665" lon="11.0048916576">
		<tag k="fixme" v="consider natural=peak for the most distinct mountains in the district" />
		<tag k="name" v="Storkletten" />
		<tag k="natural" v="hill" />
		<tag k="place" v="locality" />
		<tag k="ssr:stedsnr" v="376333" />
	</node>
	<node id="-349807" lat="62.3956166634" lon="10.7062388892">
		<tag k="name" v="Sjømoen" />
		<tag k="place" v="locality" />
		<tag k="ssr:stedsnr" v="254769" />
	</node>
	<node id="-351172" lat="62.4838247812" lon="10.2775871067">
		<tag k="name" v="Langfetten" />
		<tag k="natural" v="slope" />
		<tag k="place" v="locality" />
		<tag k="ssr:stedsnr" v="112100" />
	</node>
	<node id="-351170" lat="62.488600002" lon="10.2533000093">
		<tag k="name" v="Storhaugen" />
		<tag k="natural" v="hill" />
		<tag k="place" v="locality" />
		<tag k="ssr:stedsnr" v="112096" />
	</node>
	<node id="-351169" lat="62.5038916678" lon="10.2588416674">
		<tag k="name" v="Brandegglia" />
		<tag k="natural" v="slope" />
		<tag k="place" v="locality" />
		<tag k="ssr:stedsnr" v="112094" />
	</node>
	<node id="-351168" lat="62.5201250001" lon="10.279074992">
		<tag k="name" v="Kvannhullet" />
		<tag k="natural" v="valley" />
		<tag k="place" v="locality" />
		<tag k="ssr:stedsnr" v="112090" />
	</node>
	<node id="-351166" lat="62.2989222268" lon="10.680874995">
		<tag k="name" v="Skarpåsen" />
		<tag k="natural" v="hill" />
		<tag k="place" v="locality" />
		<tag k="ssr:stedsnr" v="112167" />
	</node>
	<node id="-349685" lat="62.4858555564" lon="10.2478916681">
		<tag k="name" v="Langmyrhaugen" />
		<tag k="natural" v="hill" />
		<tag k="place" v="locality" />
		<tag k="ssr:stedsnr" v="293101" />
	</node>
	<node id="-351164" lat="62.3685888844" lon="10.755502782">
		<tag k="name" v="Storflohaugen" />
		<tag k="natural" v="hill" />
		<tag k="place" v="locality" />
		<tag k="ssr:stedsnr" v="112158" />
	</node>
	<node id="-351163" lat="62.3414055539" lon="10.7183361025">
		<tag k="name" v="Tverråakroken" />
		<tag k="natural" v="slope" />
		<tag k="place" v="locality" />
		<tag k="ssr:stedsnr" v="112141" />
	</node>
	<node id="-351162" lat="62.3130444451" lon="10.8043416681">
		<tag k="name" v="Svartåsen" />
		<tag k="natural" v="hill" />
		<tag k="place" v="locality" />
		<tag k="ssr:stedsnr" v="112140" />
	</node>
	<node id="-351159" lat="62.3085361078" lon="10.7427694371">
		<tag k="name" v="Kjurrukjølbakken" />
		<tag k="natural" v="hill" />
		<tag k="place" v="locality" />
		<tag k="ssr:stedsnr" v="112124" />
	</node>
	<node id="-351156" lat="62.5388944476" lon="10.1183111071">
		<tag k="name" v="Elsåberga" />
		<tag k="natural" v="hill" />
		<tag k="place" v="locality" />
		<tag k="ssr:stedsnr" v="111743" />
	</node>
	<node id="-351154" lat="62.4879555542" lon="10.3990888799">
		<tag k="name" v="Klokkerlia" />
		<tag k="natural" v="slope" />
		<tag k="place" v="locality" />
		<tag k="ssr:stedsnr" v="111728" />
	</node>
	<node id="-349683" lat="62.533899996" lon="10.3031916637">
		<tag k="name" v="Fuglåslia" />
		<tag k="natural" v="slope" />
		<tag k="place" v="locality" />
		<tag k="ssr:stedsnr" v="293084" />
	</node>
	<node id="-351152" lat="62.4067527739" lon="10.4186861155">
		<tag k="name" v="Strypet" />
		<tag k="natural" v="valley" />
		<tag k="place" v="locality" />
		<tag k="ssr:stedsnr" v="111436" />
	</node>
	<node id="-351150" lat="62.5325750026" lon="10.2221111159">
		<tag k="name" v="Englia" />
		<tag k="natural" v="slope" />
		<tag k="place" v="locality" />
		<tag k="ssr:stedsnr" v="111069" />
	</node>
	<node id="-351148" lat="62.5588194412" lon="10.2724555573">
		<tag k="name" v="Litlinnsjølia" />
		<tag k="natural" v="slope" />
		<tag k="place" v="locality" />
		<tag k="ssr:stedsnr" v="111038" />
	</node>
	<node id="-351147" lat="62.5536500042" lon="10.2951194459">
		<tag k="name" v="Ryphullet" />
		<tag k="natural" v="valley" />
		<tag k="place" v="locality" />
		<tag k="ssr:stedsnr" v="111034" />
	</node>
	<node id="-351144" lat="62.1719333341" lon="10.7236111078">
		<tag k="alt_name" v="Blåtronden" />
		<tag k="name" v="Blåtron" />
		<tag k="place" v="locality" />
		<tag k="ssr:stedsnr" v="89866" />
	</node>
	<node id="-351141" lat="62.2673316623" lon="11.0065942468">
		<tag k="fixme" v="multiple name tags, choose one and add the other to alt_name" />
		<tag k="name" v="Kalven;Veslkletten" />
		<tag k="natural" v="hill" />
		<tag k="place" v="locality" />
		<tag k="ssr:stedsnr" v="89380" />
	</node>
	<node id="-351138" lat="62.3392805555" lon="10.2488083426">
		<tag k="name" v="Medhøkvolvet" />
		<tag k="natural" v="valley" />
		<tag k="place" v="locality" />
		<tag k="ssr:stedsnr" v="72972" />
	</node>
	<node id="-351136" lat="62.2831500033" lon="10.5980333375">
		<tag k="alt_name" v="Bjørkåsknollen" />
		<tag k="name" v="Bjørkåsknollan" />
		<tag k="natural" v="hill" />
		<tag k="place" v="locality" />
		<tag k="ssr:stedsnr" v="72895" />
	</node>
	<node id="-351133" lat="62.3295916652" lon="10.6145166728">
		<tag k="name" v="Gruvkletten" />
		<tag k="natural" v="hill" />
		<tag k="place" v="locality" />
		<tag k="ssr:stedsnr" v="72951" />
	</node>
	<node id="-351131" lat="62.3212750036" lon="10.6525194481">
		<tag k="alt_name" v="Tunnvorda" />
		<tag k="fixme" v="consider natural=peak for the most distinct mountains in the district" />
		<tag k="name" v="Tonnvola" />
		<tag k="natural" v="hill" />
		<tag k="old_name" v="Tunnvola" />
		<tag k="place" v="locality" />
		<tag k="ssr:stedsnr" v="72938" />
	</node>
	<node id="-350079" lat="62.2476861091" lon="10.6861861071">
		<tag k="fixme" v="consider natural=peak for the most distinct mountains in the district" />
		<tag k="name" v="Fosåsen" />
		<tag k="natural" v="hill" />
		<tag k="place" v="locality" />
		<tag k="ssr:stedsnr" v="436406" />
	</node>
	<node id="-351124" lat="62.3762222259" lon="10.5614777733">
		<tag k="alt_name" v="Gråvorda" />
		<tag k="fixme" v="consider natural=peak for the most distinct mountains in the district" />
		<tag k="name" v="Gråvola" />
		<tag k="natural" v="hill" />
		<tag k="place" v="locality" />
		<tag k="ssr:stedsnr" v="72756" />
	</node>
	<node id="-351115" lat="62.6680166687" lon="10.5186944504">
		<tag k="alt_name" v="Litle Ensjøhøgda" />
		<tag k="name" v="Litl-Ensjøhøgda" />
		<tag k="natural" v="hill" />
		<tag k="place" v="locality" />
		<tag k="ssr:stedsnr" v="72370" />
	</node>
	<node id="-351112" lat="62.1635055518" lon="10.9340472254">
		<tag k="alt_name" v="Taggarvorda" />
		<tag k="fixme" v="consider natural=peak for the most distinct mountains in the district" />
		<tag k="name" v="Taggarvola" />
		<tag k="natural" v="hill" />
		<tag k="place" v="locality" />
		<tag k="ssr:stedsnr" v="72165" />
	</node>
	<node id="-351091" lat="62.1638861072" lon="10.9774444399">
		<tag k="alt_name" v="Tøråsen" />
		<tag k="fixme" v="consider natural=peak for the most distinct mountains in the district" />
		<tag k="name" v="Tørråsen" />
		<tag k="natural" v="hill" />
		<tag k="place" v="locality" />
		<tag k="ssr:stedsnr" v="71153" />
	</node>
	<node id="-351090" lat="62.1674194444" lon="11.0621916712">
		<tag k="name" v="Brennrabben" />
		<tag k="natural" v="hill" />
		<tag k="place" v="locality" />
		<tag k="ssr:stedsnr" v="71150" />
	</node>
	<node id="-351089" lat="62.2053361102" lon="11.019091675">
		<tag k="fixme" v="consider natural=peak for the most distinct mountains in the district" />
		<tag k="name" v="Dølperhammaren" />
		<tag k="natural" v="hill" />
		<tag k="place" v="locality" />
		<tag k="ssr:stedsnr" v="71267" />
	</node>
	<node id="-351088" lat="62.2126888846" lon="10.8600083253">
		<tag k="name" v="Aumdalen" />
		<tag k="natural" v="valley" />
		<tag k="place" v="locality" />
		<tag k="ssr:stedsnr" v="71258" />
	</node>
	<node id="-349873" lat="62.6097444465" lon="10.4984555601">
		<tag k="name" v="Hestfjellia" />
		<tag k="natural" v="slope" />
		<tag k="place" v="locality" />
		<tag k="ssr:stedsnr" v="475793" />
	</node>
	<node id="-351085" lat="62.1881583354" lon="10.747586103">
		<tag k="fixme" v="multiple name tags, choose one and add the other to alt_name" />
		<tag k="name" v="Kalven;Tronkalven" />
		<tag k="natural" v="hill" />
		<tag k="place" v="locality" />
		<tag k="ssr:stedsnr" v="71244" />
	</node>
	<node id="-351082" lat="62.1145750013" lon="10.7542361125">
		<tag k="fixme" v="consider natural=peak for the most distinct mountains in the district" />
		<tag k="name" v="Kinsesåsen" />
		<tag k="natural" v="hill" />
		<tag k="place" v="locality" />
		<tag k="ssr:stedsnr" v="71070" />
	</node>
	<node id="-351074" lat="62.1504222223" lon="10.7872499973">
		<tag k="name" v="Kvernegga" />
		<tag k="natural" v="slope" />
		<tag k="place" v="locality" />
		<tag k="ssr:stedsnr" v="53884" />
	</node>
	<node id="-351073" lat="62.1511388928" lon="10.7897250047">
		<tag k="name" v="Nytrødalen" />
		<tag k="natural" v="valley" />
		<tag k="place" v="locality" />
		<tag k="ssr:stedsnr" v="53879" />
	</node>
	<node id="-351070" lat="62.1479305579" lon="10.9877111039">
		<tag k="name" v="Kjøldgrubba" />
		<tag k="natural" v="valley" />
		<tag k="place" v="locality" />
		<tag k="ssr:stedsnr" v="53237" />
	</node>
	<node id="-351068" lat="62.2356444422" lon="10.7248500078">
		<tag k="name" v="Heggrøstmoen" />
		<tag k="place" v="locality" />
		<tag k="ssr:stedsnr" v="52976" />
	</node>
	<node id="-351063" lat="62.2010638904" lon="10.7887444435">
		<tag k="name" v="Måna" />
		<tag k="natural" v="slope" />
		<tag k="place" v="locality" />
		<tag k="ssr:stedsnr" v="52928" />
	</node>
	<node id="-351061" lat="62.1626888912" lon="10.764752776">
		<tag k="name" v="Grøtådalen" />
		<tag k="natural" v="valley" />
		<tag k="place" v="locality" />
		<tag k="ssr:stedsnr" v="52838" />
	</node>
	<node id="-351060" lat="62.2233583296" lon="10.7038555548">
		<tag k="name" v="Søndre Riptjønnåsen" />
		<tag k="natural" v="hill" />
		<tag k="place" v="locality" />
		<tag k="ssr:stedsnr" v="52740" />
	</node>
	<node id="-351058" lat="62.120227782" lon="10.7886027754">
		<tag k="name" v="Høybergkampen" />
		<tag k="natural" v="hill" />
		<tag k="place" v="locality" />
		<tag k="ssr:stedsnr" v="52738" />
	</node>
	<node id="-351057" lat="62.1326083353" lon="10.7349416668">
		<tag k="name" v="Rundvangmyran" />
		<tag k="natural" v="slope" />
		<tag k="place" v="locality" />
		<tag k="ssr:stedsnr" v="52737" />
	</node>
	<node id="-351053" lat="62.123074996" lon="10.8269138848">
		<tag k="name" v="Heggrøsta" />
		<tag k="natural" v="slope" />
		<tag k="place" v="locality" />
		<tag k="ssr:stedsnr" v="52724" />
	</node>
	<node id="-351051" lat="62.2341361146" lon="10.7273888973">
		<tag k="name" v="Heggrøstegga" />
		<tag k="natural" v="ridge" />
		<tag k="place" v="locality" />
		<tag k="ssr:stedsnr" v="52975" />
	</node>
	<node id="-351048" lat="62.3614027779" lon="10.4435000021">
		<tag k="name" v="Brenthaugen" />
		<tag k="natural" v="hill" />
		<tag k="place" v="locality" />
		<tag k="ssr:stedsnr" v="52443" />
	</node>
	<node id="-351047" lat="62.1186527797" lon="10.952163896">
		<tag k="name" v="Kvannskardet" />
		<tag k="natural" v="valley" />
		<tag k="place" v="locality" />
		<tag k="ssr:stedsnr" v="52429" />
	</node>
	<node id="-351045" lat="62.2742472224" lon="10.9700083316">
		<tag k="name" v="Skrømtbakken" />
		<tag k="natural" v="slope" />
		<tag k="place" v="locality" />
		<tag k="ssr:stedsnr" v="52326" />
	</node>
	<node id="-350005" lat="62.193152779" lon="11.14633055">
		<tag k="alt_name" v="Spekedalen, nordre" />
		<tag k="name" v="Nordre Spekedalen" />
		<tag k="natural" v="valley" />
		<tag k="place" v="locality" />
		<tag k="ssr:stedsnr" v="374255" />
	</node>
	<node id="-351036" lat="62.6520694474" lon="10.2343583261">
		<tag k="fixme" v="consider natural=peak for the most distinct mountains in the district" />
		<tag k="name" v="Storlifjellet" />
		<tag k="natural" v="hill" />
		<tag k="place" v="locality" />
		<tag k="ssr:stedsnr" v="51984" />
	</node>
	<node id="-351032" lat="62.2343916637" lon="10.884691673">
		<tag k="name" v="Veslekletten" />
		<tag k="natural" v="hill" />
		<tag k="place" v="locality" />
		<tag k="ssr:stedsnr" v="52044" />
	</node>
	<node id="-351029" lat="62.5457166668" lon="10.0984305528">
		<tag k="name" v="Litjfjellet" />
		<tag k="natural" v="hill" />
		<tag k="place" v="locality" />
		<tag k="ssr:stedsnr" v="51827" />
	</node>
	<node id="-351023" lat="62.5292138897" lon="10.2158944442">
		<tag k="name" v="Innhaugen" />
		<tag k="natural" v="hill" />
		<tag k="place" v="locality" />
		<tag k="ssr:stedsnr" v="51809" />
	</node>
	<node id="-351022" lat="62.4965833312" lon="10.1602972206">
		<tag k="name" v="Storhylhaugen" />
		<tag k="natural" v="hill" />
		<tag k="place" v="locality" />
		<tag k="ssr:stedsnr" v="51735" />
	</node>
	<node id="-351021" lat="62.487669441" lon="10.3597583262">
		<tag k="name" v="Fagerhaugen" />
		<tag k="natural" v="hill" />
		<tag k="place" v="locality" />
		<tag k="ssr:stedsnr" v="51799" />
	</node>
	<node id="-351019" lat="62.4645722265" lon="10.3950388847">
		<tag k="name" v="Steinkleva" />
		<tag k="natural" v="hill" />
		<tag k="place" v="locality" />
		<tag k="ssr:stedsnr" v="51783" />
	</node>
	<node id="-351018" lat="62.472408331" lon="10.4044333385">
		<tag k="name" v="Langtjønnberga" />
		<tag k="natural" v="hill" />
		<tag k="place" v="locality" />
		<tag k="ssr:stedsnr" v="51782" />
	</node>
	<node id="-350001" lat="62.0434750027" lon="10.8543083285">
		<tag k="fixme" v="consider natural=peak for the most distinct mountains in the district" />
		<tag k="name" v="Måna" />
		<tag k="natural" v="hill" />
		<tag k="place" v="locality" />
		<tag k="ssr:stedsnr" v="374066" />
	</node>
	<node id="-351012" lat="62.4052749994" lon="10.4072500087">
		<tag k="name" v="Stryphaugan" />
		<tag k="natural" v="hill" />
		<tag k="place" v="locality" />
		<tag k="ssr:stedsnr" v="50275" />
	</node>
	<node id="-351009" lat="62.5400166648" lon="10.3305999919">
		<tag k="name" v="Rundhaugan" />
		<tag k="natural" v="hill" />
		<tag k="place" v="locality" />
		<tag k="ssr:stedsnr" v="50043" />
	</node>
	<node id="-351007" lat="62.5547500002" lon="10.3336722203">
		<tag k="name" v="Hamran" />
		<tag k="natural" v="hill" />
		<tag k="place" v="locality" />
		<tag k="ssr:stedsnr" v="50032" />
	</node>
	<node id="-351000" lat="62.6860500011" lon="10.1326555625">
		<tag k="name" v="Garlia" />
		<tag k="natural" v="slope" />
		<tag k="place" v="locality" />
		<tag k="ssr:stedsnr" v="36790" />
	</node>
	<node id="-350999" lat="62.5864555596" lon="10.4913027701">
		<tag k="name" v="Ruv" />
		<tag k="natural" v="hill" />
		<tag k="place" v="locality" />
		<tag k="ssr:stedsnr" v="28526" />
	</node>
	<node id="-350997" lat="62.229202778" lon="10.9568222211">
		<tag k="alt_name" v="Storknøsen" />
		<tag k="name" v="Knausen" />
		<tag k="natural" v="hill" />
		<tag k="place" v="locality" />
		<tag k="ssr:stedsnr" v="20279" />
	</node>
	<node id="-350996" lat="62.2386583368" lon="10.8008833287">
		<tag k="alt_name" v="Storskaret" />
		<tag k="name" v="Storskardet" />
		<tag k="natural" v="valley" />
		<tag k="place" v="locality" />
		<tag k="ssr:stedsnr" v="20272" />
	</node>
	<node id="-350994" lat="62.4722000033" lon="10.5365166746">
		<tag k="name" v="Fjellenglia" />
		<tag k="natural" v="slope" />
		<tag k="place" v="locality" />
		<tag k="ssr:stedsnr" v="12853" />
	</node>
	<node id="-352329" lat="62.1669971868" lon="10.7678105763">
		<tag k="name" v="Styggdalen" />
		<tag k="natural" v="valley" />
		<tag k="place" v="locality" />
		<tag k="ssr:stedsnr" v="841845" />
	</node>
	<node id="-350987" lat="62.4026666709" lon="10.1924444482">
		<tag k="fixme" v="consider natural=peak for the most distinct mountains in the district" />
		<tag k="name" v="Kollen" />
		<tag k="natural" v="hill" />
		<tag k="place" v="locality" />
		<tag k="ssr:stedsnr" v="12734" />
	</node>
	<node id="-352385" lat="62.4403027739" lon="10.4993611044">
		<tag k="name" v="Repskårdalen" />
		<tag k="natural" v="valley" />
		<tag k="place" v="locality" />
		<tag k="ssr:stedsnr" v="861833" />
	</node>
	<node id="-350977" lat="62.4390611131" lon="10.4664777835">
		<tag k="name" v="Tunndalen" />
		<tag k="natural" v="valley" />
		<tag k="place" v="locality" />
		<tag k="ssr:stedsnr" v="11845" />
	</node>
	<node id="-350971" lat="62.3136055547" lon="10.4237055517">
		<tag k="alt_name" v="Hammarhøa" />
		<tag k="fixme" v="consider natural=peak for the most distinct mountains in the district" />
		<tag k="name" v="Håmmårhøa" />
		<tag k="natural" v="hill" />
		<tag k="place" v="locality" />
		<tag k="ssr:stedsnr" v="11942" />
	</node>
	<node id="-350959" lat="62.6829138849" lon="10.1842194534">
		<tag k="alt_name" v="Nåvåsen" />
		<tag k="fixme" v="consider natural=peak for the most distinct mountains in the district" />
		<tag k="name" v="Novåsen" />
		<tag k="natural" v="hill" />
		<tag k="place" v="locality" />
		<tag k="ssr:stedsnr" v="11248" />
	</node>
	<node id="-350958" lat="62.6468499974" lon="10.4262055467">
		<tag k="alt_name" v="Rødhammaren" />
		<tag k="fixme" v="consider natural=peak for the most distinct mountains in the district" />
		<tag k="name" v="Raudhåmmåren" />
		<tag k="natural" v="hill" />
		<tag k="place" v="locality" />
		<tag k="ssr:stedsnr" v="11088" />
	</node>
	<node id="-350957" lat="62.5964666624" lon="10.5227722171">
		<tag k="fixme" v="consider natural=peak for the most distinct mountains in the district" />
		<tag k="name" v="Svartsjølikletten" />
		<tag k="natural" v="hill" />
		<tag k="place" v="locality" />
		<tag k="ssr:stedsnr" v="11085" />
	</node>
	<node id="-349650" lat="62.6475055571" lon="10.5892388962">
		<tag k="alt_name" v="Litle Ytangen" />
		<tag k="fixme" v="consider natural=peak for the most distinct mountains in the district" />
		<tag k="name" v="Litl-Ytangen" />
		<tag k="natural" v="hill" />
		<tag k="place" v="locality" />
		<tag k="ssr:stedsnr" v="193110" />
	</node>
	<node id="-350952" lat="62.6316638895" lon="10.7280777728">
		<tag k="fixme" v="consider natural=peak for the most distinct mountains in the district" />
		<tag k="name" v="Tverrfjellflågån" />
		<tag k="natural" v="hill" />
		<tag k="place" v="locality" />
		<tag k="ssr:stedsnr" v="11185" />
	</node>
	<node id="-350949" lat="62.1563555517" lon="11.1215666576">
		<tag k="fixme" v="consider natural=peak for the most distinct mountains in the district" />
		<tag k="name" v="Vakkerfjellet" />
		<tag k="natural" v="hill" />
		<tag k="place" v="locality" />
		<tag k="ssr:stedsnr" v="11167" />
	</node>
	<node id="-350948" lat="62.1523416682" lon="10.7376305564">
		<tag k="alt_name" v="Vesltronden" />
		<tag k="fixme" v="consider natural=peak for the most distinct mountains in the district" />
		<tag k="name" v="Vesltron" />
		<tag k="natural" v="hill" />
		<tag k="place" v="locality" />
		<tag k="ssr:stedsnr" v="11164" />
	</node>
	<node id="-350929" lat="62.2234333323" lon="10.7278083419">
		<tag k="name" v="Slettmoen" />
		<tag k="place" v="locality" />
		<tag k="ssr:stedsnr" v="962972" />
	</node>
	<node id="-350928" lat="62.2406888864" lon="10.7624777872">
		<tag k="name" v="Brattbrekka" />
		<tag k="natural" v="slope" />
		<tag k="place" v="locality" />
		<tag k="ssr:stedsnr" v="962963" />
	</node>
	<node id="-350926" lat="62.220774998" lon="10.8352694474">
		<tag k="name" v="Hulderbakken" />
		<tag k="natural" v="slope" />
		<tag k="place" v="locality" />
		<tag k="ssr:stedsnr" v="962922" />
	</node>
	<node id="-350921" lat="62.3126472251" lon="10.5636749945">
		<tag k="alt_name" v="Vesle Fådal" />
		<tag k="name" v="Veslfådalen" />
		<tag k="natural" v="valley" />
		<tag k="place" v="locality" />
		<tag k="ssr:stedsnr" v="962822" />
	</node>
	<node id="-350916" lat="62.3565194429" lon="10.5597166648">
		<tag k="name" v="Vesleåsen" />
		<tag k="natural" v="hill" />
		<tag k="place" v="locality" />
		<tag k="ssr:stedsnr" v="962718" />
	</node>
	<node id="-350913" lat="62.1387916629" lon="10.8626277863">
		<tag k="name" v="Rivlia" />
		<tag k="natural" v="slope" />
		<tag k="place" v="locality" />
		<tag k="ssr:stedsnr" v="962469" />
	</node>
	<node id="-350140" lat="62.3051111134" lon="10.4359416627">
		<tag k="name" v="Fjellenget" />
		<tag k="natural" v="slope" />
		<tag k="place" v="locality" />
		<tag k="ssr:stedsnr" v="658779" />
	</node>
	<node id="-350911" lat="62.1060416711" lon="10.8928694455">
		<tag k="name" v="Rømodalen" />
		<tag k="natural" v="valley" />
		<tag k="place" v="locality" />
		<tag k="ssr:stedsnr" v="962461" />
	</node>
	<node id="-350909" lat="62.3430500043" lon="10.9436888814">
		<tag k="name" v="Langgrubba" />
		<tag k="natural" v="valley" />
		<tag k="place" v="locality" />
		<tag k="ssr:stedsnr" v="962258" />
	</node>
	<node id="-352322" lat="62.0946388885" lon="10.877336102">
		<tag k="name" v="Rivbogen" />
		<tag k="place" v="locality" />
		<tag k="ssr:stedsnr" v="841404" />
	</node>
	<node id="-350904" lat="62.3172305537" lon="10.6994222141">
		<tag k="name" v="Brennbekkslette" />
		<tag k="place" v="locality" />
		<tag k="ssr:stedsnr" v="962169" />
	</node>
	<node id="-350903" lat="62.3187138917" lon="10.7252444365">
		<tag k="name" v="Stormoen" />
		<tag k="place" v="locality" />
		<tag k="ssr:stedsnr" v="962116" />
	</node>
	<node id="-350901" lat="62.317286114" lon="10.7306250062">
		<tag k="name" v="Vesle Goromoen" />
		<tag k="place" v="locality" />
		<tag k="ssr:stedsnr" v="962112" />
	</node>
	<node id="-350900" lat="62.3022444429" lon="10.330991665">
		<tag k="name" v="Bodalen" />
		<tag k="natural" v="valley" />
		<tag k="place" v="locality" />
		<tag k="ssr:stedsnr" v="962105" />
	</node>
	<node id="-352342" lat="62.2477111091" lon="10.5861055465">
		<tag k="fixme" v="consider natural=peak for the most distinct mountains in the district" />
		<tag k="name" v="Røskåsen" />
		<tag k="natural" v="hill" />
		<tag k="place" v="locality" />
		<tag k="ssr:stedsnr" v="860486" />
	</node>
	<node id="-350890" lat="62.5836916645" lon="10.5128555472">
		<tag k="name" v="Litlkletten" />
		<tag k="natural" v="hill" />
		<tag k="place" v="locality" />
		<tag k="ssr:stedsnr" v="961857" />
	</node>
	<node id="-350888" lat="62.5074694473" lon="10.3950166585">
		<tag k="name" v="Støbergene" />
		<tag k="natural" v="hill" />
		<tag k="place" v="locality" />
		<tag k="ssr:stedsnr" v="961824" />
	</node>
	<node id="-350885" lat="62.4846250038" lon="10.3725166721">
		<tag k="fixme" v="consider natural=peak for the most distinct mountains in the district" />
		<tag k="name" v="Trangdalsberga" />
		<tag k="natural" v="hill" />
		<tag k="place" v="locality" />
		<tag k="ssr:stedsnr" v="961808" />
	</node>
	<node id="-350881" lat="62.5460777752" lon="10.3870333243">
		<tag k="name" v="Storkirkeskarhø" />
		<tag k="natural" v="hill" />
		<tag k="place" v="locality" />
		<tag k="ssr:stedsnr" v="961218" />
	</node>
	<node id="-350879" lat="62.5474055526" lon="10.4397638852">
		<tag k="name" v="Gjøkhaugen" />
		<tag k="natural" v="hill" />
		<tag k="place" v="locality" />
		<tag k="ssr:stedsnr" v="961205" />
	</node>
	<node id="-350878" lat="62.6006222194" lon="10.4366499931">
		<tag k="name" v="Sandbekkdalen" />
		<tag k="natural" v="valley" />
		<tag k="place" v="locality" />
		<tag k="ssr:stedsnr" v="961175" />
	</node>
	<node id="-350876" lat="62.5133083306" lon="10.2887861161">
		<tag k="name" v="Mattislia" />
		<tag k="natural" v="slope" />
		<tag k="place" v="locality" />
		<tag k="ssr:stedsnr" v="961117" />
	</node>
	<node id="-349636" lat="62.3132194462" lon="10.8868111184">
		<tag k="name" v="Månberget" />
		<tag k="place" v="locality" />
		<tag k="ssr:stedsnr" v="267678" />
	</node>
	<node id="-349661" lat="62.4229805546" lon="10.2897277735">
		<tag k="name" v="Skarvdalen" />
		<tag k="natural" v="valley" />
		<tag k="place" v="locality" />
		<tag k="ssr:stedsnr" v="193818" />
	</node>
	<node id="-350858" lat="62.1681333355" lon="10.8581361091">
		<tag k="fixme" v="consider natural=peak for the most distinct mountains in the district" />
		<tag k="name" v="Høyåsen" />
		<tag k="natural" v="hill" />
		<tag k="place" v="locality" />
		<tag k="ssr:stedsnr" v="921131" />
	</node>
	<node id="-351205" lat="62.2176249987" lon="10.7335750012">
		<tag k="name" v="Hesjestøsletta" />
		<tag k="place" v="locality" />
		<tag k="ssr:stedsnr" v="112897" />
	</node>
	<node id="-350851" lat="62.1947111114" lon="10.8720138835">
		<tag k="fixme" v="consider natural=peak for the most distinct mountains in the district" />
		<tag k="name" v="Engeåsen" />
		<tag k="natural" v="hill" />
		<tag k="place" v="locality" />
		<tag k="ssr:stedsnr" v="902528" />
	</node>
	<node id="-350849" lat="62.126724997" lon="10.9254138851">
		<tag k="name" v="Lundburanden" />
		<tag k="natural" v="hill" />
		<tag k="place" v="locality" />
		<tag k="ssr:stedsnr" v="902511" />
	</node>
	<node id="-350848" lat="62.1069361077" lon="10.8462972162">
		<tag k="fixme" v="consider natural=peak for the most distinct mountains in the district" />
		<tag k="name" v="Bærmyrkampen" />
		<tag k="natural" v="hill" />
		<tag k="place" v="locality" />
		<tag k="ssr:stedsnr" v="902505" />
	</node>
	<node id="-350838" lat="62.22086389" lon="10.7046444419">
		<tag k="name" v="Aumlia" />
		<tag k="natural" v="slope" />
		<tag k="place" v="locality" />
		<tag k="ssr:stedsnr" v="901764" />
	</node>
	<node id="-352431" lat="62.2920194448" lon="10.7099999963">
		<tag k="name" v="Bondåslia" />
		<tag k="natural" v="slope" />
		<tag k="place" v="locality" />
		<tag k="ssr:stedsnr" v="962132" />
	</node>
	<node id="-350834" lat="62.2675055513" lon="10.9562638872">
		<tag k="name" v="Storhaugen" />
		<tag k="natural" v="hill" />
		<tag k="place" v="locality" />
		<tag k="ssr:stedsnr" v="901467" />
	</node>
	<node id="-350832" lat="62.0886694485" lon="10.8863027731">
		<tag k="name" v="Storbekkmoen" />
		<tag k="place" v="locality" />
		<tag k="ssr:stedsnr" v="901404" />
	</node>
	<node id="-352360" lat="62.1428500002" lon="10.8828916753">
		<tag k="name" v="Rivdalen" />
		<tag k="natural" v="valley" />
		<tag k="place" v="locality" />
		<tag k="ssr:stedsnr" v="861147" />
	</node>
	<node id="-350830" lat="62.3407666682" lon="10.967874994">
		<tag k="name" v="Bjønnvanggrubba" />
		<tag k="natural" v="valley" />
		<tag k="place" v="locality" />
		<tag k="ssr:stedsnr" v="901354" />
	</node>
	<node id="-350823" lat="62.2957194462" lon="10.6786611035">
		<tag k="name" v="Almannåsen" />
		<tag k="natural" v="hill" />
		<tag k="place" v="locality" />
		<tag k="ssr:stedsnr" v="901124" />
	</node>
	<node id="-350822" lat="62.213288891" lon="11.0014499963">
		<tag k="name" v="Røstberget" />
		<tag k="natural" v="hill" />
		<tag k="place" v="locality" />
		<tag k="ssr:stedsnr" v="901122" />
	</node>
	<node id="-350821" lat="62.2134388883" lon="11.0205555499">
		<tag k="fixme" v="consider natural=peak for the most distinct mountains in the district" />
		<tag k="name" v="Tålet" />
		<tag k="natural" v="hill" />
		<tag k="place" v="locality" />
		<tag k="ssr:stedsnr" v="901120" />
	</node>
	<node id="-350820" lat="62.3038027776" lon="10.6808666573">
		<tag k="name" v="Vesleåsen" />
		<tag k="natural" v="hill" />
		<tag k="place" v="locality" />
		<tag k="ssr:stedsnr" v="901118" />
	</node>
	<node id="-350813" lat="62.5204500011" lon="10.3215944396">
		<tag k="name" v="Hyllbekklia" />
		<tag k="natural" v="slope" />
		<tag k="place" v="locality" />
		<tag k="ssr:stedsnr" v="900155" />
	</node>
	<node id="-350812" lat="62.5365555562" lon="10.271275002">
		<tag k="name" v="Vakkerlidalen" />
		<tag k="natural" v="valley" />
		<tag k="place" v="locality" />
		<tag k="ssr:stedsnr" v="900072" />
	</node>
	<node id="-350810" lat="62.5472333344" lon="10.2741249995">
		<tag k="name" v="Litlinnsjøhøgda" />
		<tag k="natural" v="hill" />
		<tag k="place" v="locality" />
		<tag k="ssr:stedsnr" v="900055" />
	</node>
	<node id="-350808" lat="62.404352776" lon="10.5054250079">
		<tag k="fixme" v="consider natural=peak for the most distinct mountains in the district" />
		<tag k="name" v="Knausen" />
		<tag k="natural" v="hill" />
		<tag k="place" v="locality" />
		<tag k="ssr:stedsnr" v="861811" />
	</node>
	<node id="-350806" lat="62.4055194469" lon="10.5471111047">
		<tag k="alt_name" v="Kroktjønnkletten" />
		<tag k="fixme" v="consider natural=peak for the most distinct mountains in the district" />
		<tag k="name" v="Kroktjørnkletten" />
		<tag k="natural" v="hill" />
		<tag k="place" v="locality" />
		<tag k="ssr:stedsnr" v="861808" />
	</node>
	<node id="-350802" lat="62.2884250005" lon="10.5768083395">
		<tag k="alt_name" v="Allmannvorda" />
		<tag k="fixme" v="consider natural=peak for the most distinct mountains in the district" />
		<tag k="name" v="Allmannvola" />
		<tag k="natural" v="hill" />
		<tag k="place" v="locality" />
		<tag k="ssr:stedsnr" v="861910" />
	</node>
	<node id="-350801" lat="62.3166388893" lon="10.8129138929">
		<tag k="fixme" v="consider natural=peak for the most distinct mountains in the district" />
		<tag k="name" v="Storåsen" />
		<tag k="natural" v="hill" />
		<tag k="place" v="locality" />
		<tag k="ssr:stedsnr" v="861714" />
	</node>
	<node id="-350797" lat="62.5577111123" lon="10.1485638858">
		<tag k="name" v="Falkberget" />
		<tag k="natural" v="hill" />
		<tag k="place" v="locality" />
		<tag k="ssr:stedsnr" v="861386" />
	</node>
	<node id="-350795" lat="62.5326083291" lon="10.0292027748">
		<tag k="name" v="Kviknelia" />
		<tag k="natural" v="slope" />
		<tag k="place" v="locality" />
		<tag k="ssr:stedsnr" v="861376" />
	</node>
	<node id="-350791" lat="62.2202888865" lon="10.9014027711">
		<tag k="fixme" v="consider natural=peak for the most distinct mountains in the district" />
		<tag k="name" v="Grønfjellet" />
		<tag k="natural" v="hill" />
		<tag k="place" v="locality" />
		<tag k="ssr:stedsnr" v="861171" />
	</node>
	<node id="-350777" lat="62.0553000041" lon="10.9527999941">
		<tag k="alt_name" v="Skorsåhøgdan" />
		<tag k="name" v="Søndre Skårsjøhøgda" />
		<tag k="natural" v="hill" />
		<tag k="place" v="locality" />
		<tag k="ssr:stedsnr" v="861017" />
	</node>
	<node id="-350776" lat="62.2570194429" lon="10.5374138929">
		<tag k="alt_name" v="Snausjøvorda" />
		<tag k="fixme" v="consider natural=peak for the most distinct mountains in the district" />
		<tag k="name" v="Snausjøvola" />
		<tag k="natural" v="hill" />
		<tag k="place" v="locality" />
		<tag k="ssr:stedsnr" v="861006" />
	</node>
	<node id="-350775" lat="62.1937444422" lon="11.0314444509">
		<tag k="name" v="Veslhøa" />
		<tag k="natural" v="hill" />
		<tag k="place" v="locality" />
		<tag k="ssr:stedsnr" v="860272" />
	</node>
	<node id="-350772" lat="62.1698250041" lon="10.9632527832">
		<tag k="name" v="Jammerdalen" />
		<tag k="natural" v="valley" />
		<tag k="place" v="locality" />
		<tag k="ssr:stedsnr" v="860158" />
	</node>
	<node id="-350768" lat="62.225261114" lon="10.8347888818">
		<tag k="fixme" v="consider natural=peak for the most distinct mountains in the district" />
		<tag k="name" v="Gammelvangsåsen" />
		<tag k="natural" v="hill" />
		<tag k="place" v="locality" />
		<tag k="ssr:stedsnr" v="842974" />
	</node>
	<node id="-350767" lat="62.2810027771" lon="10.8510416611">
		<tag k="name" v="Hugunesmoen" />
		<tag k="place" v="locality" />
		<tag k="ssr:stedsnr" v="842264" />
	</node>
	<node id="-350766" lat="62.2750416647" lon="10.6939250027">
		<tag k="name" v="Fåstenslia" />
		<tag k="natural" v="slope" />
		<tag k="place" v="locality" />
		<tag k="ssr:stedsnr" v="842153" />
	</node>
	<node id="-350757" lat="62.3677333306" lon="10.5844222211">
		<tag k="name" v="Storsandegga" />
		<tag k="natural" v="hill" />
		<tag k="place" v="locality" />
		<tag k="ssr:stedsnr" v="841714" />
	</node>
	<node id="-350756" lat="62.3652861151" lon="10.5621055576">
		<tag k="name" v="Skårdalen" />
		<tag k="natural" v="valley" />
		<tag k="place" v="locality" />
		<tag k="ssr:stedsnr" v="841712" />
	</node>
	<node id="-352347" lat="62.2327999972" lon="10.700033325">
		<tag k="name" v="Ripan" />
		<tag k="natural" v="hill" />
		<tag k="place" v="locality" />
		<tag k="ssr:stedsnr" v="861093" />
	</node>
	<node id="-350751" lat="62.2530194413" lon="10.6834583317">
		<tag k="name" v="Fosåslia" />
		<tag k="natural" v="slope" />
		<tag k="place" v="locality" />
		<tag k="ssr:stedsnr" v="841221" />
	</node>
	<node id="-350748" lat="62.2797638903" lon="10.9704583366">
		<tag k="name" v="Gammeldalsletta" />
		<tag k="place" v="locality" />
		<tag k="ssr:stedsnr" v="841370" />
	</node>
	<node id="-350747" lat="62.3331805542" lon="10.9536500071">
		<tag k="name" v="Tiurleiken" />
		<tag k="natural" v="hill" />
		<tag k="place" v="locality" />
		<tag k="ssr:stedsnr" v="841363" />
	</node>
	<node id="-350741" lat="62.1081138911" lon="10.8343333344">
		<tag k="alt_name" v="Søgårdslia" />
		<tag k="name" v="Søgardslia" />
		<tag k="natural" v="slope" />
		<tag k="place" v="locality" />
		<tag k="ssr:stedsnr" v="840661" />
	</node>
	<node id="-350740" lat="62.2476888881" lon="10.7651611098">
		<tag k="name" v="Himmelberget" />
		<tag k="natural" v="hill" />
		<tag k="place" v="locality" />
		<tag k="ssr:stedsnr" v="841011" />
	</node>
	<node id="-350739" lat="62.5886388845" lon="10.5344805639">
		<tag k="fixme" v="consider natural=peak for the most distinct mountains in the district" />
		<tag k="name" v="Grønntjønnfjellet" />
		<tag k="natural" v="hill" />
		<tag k="place" v="locality" />
		<tag k="ssr:stedsnr" v="840815" />
	</node>
	<node id="-350738" lat="62.5701083325" lon="10.5530722253">
		<tag k="name" v="Storbekkhaugan" />
		<tag k="natural" v="hill" />
		<tag k="place" v="locality" />
		<tag k="ssr:stedsnr" v="840811" />
	</node>
	<node id="-350736" lat="62.263111108" lon="10.8539111056">
		<tag k="name" v="Storhaugen" />
		<tag k="natural" v="hill" />
		<tag k="place" v="locality" />
		<tag k="ssr:stedsnr" v="840454" />
	</node>
	<node id="-350734" lat="62.5539416689" lon="10.3846888795">
		<tag k="name" v="Monslia" />
		<tag k="natural" v="slope" />
		<tag k="place" v="locality" />
		<tag k="ssr:stedsnr" v="840213" />
	</node>
	<node id="-349520" lat="62.1194999973" lon="10.7410027794">
		<tag k="alt_name" v="Eneråsen" />
		<tag k="fixme" v="consider natural=peak for the most distinct mountains in the district" />
		<tag k="name" v="Einåsen" />
		<tag k="natural" v="hill" />
		<tag k="place" v="locality" />
		<tag k="ssr:stedsnr" v="253086" />
	</node>
	<node id="-350723" lat="62.4260027737" lon="10.6047000035">
		<tag k="fixme" v="consider natural=peak for the most distinct mountains in the district" />
		<tag k="name" v="Storåsen" />
		<tag k="natural" v="hill" />
		<tag k="place" v="locality" />
		<tag k="ssr:stedsnr" v="800790" />
	</node>
	<node id="-350717" lat="62.6575499964" lon="10.4630027799">
		<tag k="name" v="Russubotn" />
		<tag k="natural" v="valley" />
		<tag k="place" v="locality" />
		<tag k="ssr:stedsnr" v="800386" />
	</node>
	<node id="-350715" lat="62.553761112" lon="10.0772750093">
		<tag k="fixme" v="consider natural=peak for the most distinct mountains in the district" />
		<tag k="name" v="Flomhøgda" />
		<tag k="natural" v="hill" />
		<tag k="place" v="locality" />
		<tag k="ssr:stedsnr" v="800419" />
	</node>
	<node id="-350709" lat="62.1427763418" lon="10.7365841971">
		<tag k="name" v="Kvannberget" />
		<tag k="natural" v="hill" />
		<tag k="place" v="locality" />
		<tag k="ssr:stedsnr" v="800153" />
	</node>
	<node id="-350708" lat="62.3560500027" lon="10.3025027763">
		<tag k="fixme" v="consider natural=peak for the most distinct mountains in the district" />
		<tag k="name" v="Rundhøa" />
		<tag k="natural" v="hill" />
		<tag k="place" v="locality" />
		<tag k="ssr:stedsnr" v="922992" />
	</node>
	<node id="-350706" lat="62.4331888862" lon="10.4921500088">
		<tag k="name" v="Jonasdalen" />
		<tag k="natural" v="valley" />
		<tag k="place" v="locality" />
		<tag k="ssr:stedsnr" v="922825" />
	</node>
	<node id="-350698" lat="62.4082694433" lon="10.6576777754">
		<tag k="fixme" v="consider natural=peak for the most distinct mountains in the district" />
		<tag k="name" v="Svartåsen" />
		<tag k="natural" v="hill" />
		<tag k="place" v="locality" />
		<tag k="ssr:stedsnr" v="922766" />
	</node>
	<node id="-350693" lat="62.4757083301" lon="10.0831083263">
		<tag k="alt_name" v="Orkelsjøtangen, Vesle" />
		<tag k="name" v="Vesle Orkelsjøtangen" />
		<tag k="natural" v="ridge" />
		<tag k="place" v="locality" />
		<tag k="ssr:stedsnr" v="922490" />
	</node>
	<node id="-350686" lat="62.2947555528" lon="10.9215805535">
		<tag k="alt_name" v="Knausan" />
		<tag k="fixme" v="consider natural=peak for the most distinct mountains in the district" />
		<tag k="name" v="Knausen" />
		<tag k="natural" v="hill" />
		<tag k="place" v="locality" />
		<tag k="ssr:stedsnr" v="922283" />
	</node>
	<node id="-349605" lat="62.2261333335" lon="10.9714222178">
		<tag k="name" v="Lereggan" />
		<tag k="natural" v="slope" />
		<tag k="place" v="locality" />
		<tag k="ssr:stedsnr" v="113323" />
	</node>
	<node id="-350677" lat="62.3071000043" lon="10.4348333327">
		<tag k="fixme" v="consider natural=peak for the most distinct mountains in the district" />
		<tag k="name" v="Fjellenghøa" />
		<tag k="natural" v="hill" />
		<tag k="place" v="locality" />
		<tag k="ssr:stedsnr" v="921919" />
	</node>
	<node id="-350676" lat="62.4680944466" lon="10.4735444535">
		<tag k="fixme" v="consider natural=peak for the most distinct mountains in the district" />
		<tag k="name" v="Kløftåsen" />
		<tag k="natural" v="hill" />
		<tag k="place" v="locality" />
		<tag k="ssr:stedsnr" v="921869" />
	</node>
	<node id="-350673" lat="62.3758916676" lon="10.5681861018">
		<tag k="name" v="Nyvangdalen" />
		<tag k="natural" v="valley" />
		<tag k="place" v="locality" />
		<tag k="ssr:stedsnr" v="921783" />
	</node>
	<node id="-350670" lat="62.3386944429" lon="10.3342305496">
		<tag k="fixme" v="consider natural=peak for the most distinct mountains in the district" />
		<tag k="name" v="Brattboren" />
		<tag k="natural" v="hill" />
		<tag k="place" v="locality" />
		<tag k="ssr:stedsnr" v="922977" />
	</node>
	<node id="-350667" lat="62.3448333327" lon="10.4090000027">
		<tag k="name" v="Vollholet" />
		<tag k="natural" v="valley" />
		<tag k="place" v="locality" />
		<tag k="ssr:stedsnr" v="922969" />
	</node>
	<node id="-349600" lat="62.2464555516" lon="10.6344222307">
		<tag k="name" v="Kvannrøsthaugen" />
		<tag k="natural" v="hill" />
		<tag k="place" v="locality" />
		<tag k="ssr:stedsnr" v="113227" />
	</node>
	<node id="-352330" lat="62.2441166697" lon="10.7892805632">
		<tag k="name" v="Tufthaugen" />
		<tag k="natural" v="hill" />
		<tag k="place" v="locality" />
		<tag k="ssr:stedsnr" v="841942" />
	</node>
	<node id="-349940" lat="62.5909888854" lon="10.2622972296">
		<tag k="name" v="Gjethammaren" />
		<tag k="natural" v="hill" />
		<tag k="place" v="locality" />
		<tag k="ssr:stedsnr" v="354949" />
	</node>
	<node id="-350645" lat="62.3356666667" lon="10.586325009">
		<tag k="name" v="Kløfthaugane" />
		<tag k="natural" v="hill" />
		<tag k="place" v="locality" />
		<tag k="ssr:stedsnr" v="780810" />
	</node>
	<node id="-350644" lat="62.2421944447" lon="10.6735833276">
		<tag k="name" v="Bjørnrøsta" />
		<tag k="natural" v="hill" />
		<tag k="place" v="locality" />
		<tag k="ssr:stedsnr" v="780736" />
	</node>
	<node id="-350643" lat="62.117513892" lon="10.7812777733">
		<tag k="name" v="Hokstadberget" />
		<tag k="natural" v="hill" />
		<tag k="place" v="locality" />
		<tag k="ssr:stedsnr" v="780713" />
	</node>
	<node id="-352328" lat="62.3458055533" lon="10.5452583243">
		<tag k="name" v="Kroklia" />
		<tag k="natural" v="slope" />
		<tag k="place" v="locality" />
		<tag k="ssr:stedsnr" v="841842" />
	</node>
	<node id="-350636" lat="62.3026416682" lon="10.7267666648">
		<tag k="name" v="Styggmyrmoen" />
		<tag k="place" v="locality" />
		<tag k="ssr:stedsnr" v="780111" />
	</node>
	<node id="-350633" lat="62.3564916689" lon="10.6149083252">
		<tag k="fixme" v="consider natural=peak for the most distinct mountains in the district" />
		<tag k="name" v="Gammelvangsåsen" />
		<tag k="natural" v="hill" />
		<tag k="place" v="locality" />
		<tag k="ssr:stedsnr" v="780105" />
	</node>
	<node id="-350912" lat="62.141527781" lon="10.9560944541">
		<tag k="name" v="Væråberget" />
		<tag k="natural" v="hill" />
		<tag k="place" v="locality" />
		<tag k="ssr:stedsnr" v="962464" />
	</node>
	<node id="-350631" lat="62.4180166636" lon="10.5953583295">
		<tag k="name" v="Langrøsta" />
		<tag k="natural" v="valley" />
		<tag k="place" v="locality" />
		<tag k="ssr:stedsnr" v="780055" />
	</node>
	<node id="-350626" lat="62.2857722187" lon="10.7520194454">
		<tag k="name" v="Kirkeggen" />
		<tag k="natural" v="slope" />
		<tag k="place" v="locality" />
		<tag k="ssr:stedsnr" v="780024" />
	</node>
	<node id="-349595" lat="62.3475055527" lon="10.5630472196">
		<tag k="name" v="Gjeltdalen" />
		<tag k="natural" v="valley" />
		<tag k="place" v="locality" />
		<tag k="ssr:stedsnr" v="112841" />
	</node>
	<node id="-350624" lat="62.256891666" lon="10.7219638844">
		<tag k="name" v="Husbakkrøsta" />
		<tag k="natural" v="slope" />
		<tag k="place" v="locality" />
		<tag k="ssr:stedsnr" v="780013" />
	</node>
	<node id="-350614" lat="62.419336112" lon="10.2454888983">
		<tag k="alt_name" v="Børsjøhø, vesle" />
		<tag k="fixme" v="consider natural=peak for the most distinct mountains in the district" />
		<tag k="name" v="Vesle Børsjøhø" />
		<tag k="natural" v="hill" />
		<tag k="place" v="locality" />
		<tag k="ssr:stedsnr" v="740803" />
	</node>
	<node id="-350613" lat="62.3975694436" lon="10.2286000057">
		<tag k="fixme" v="consider natural=peak for the most distinct mountains in the district" />
		<tag k="name" v="Veslåsen" />
		<tag k="natural" v="hill" />
		<tag k="place" v="locality" />
		<tag k="ssr:stedsnr" v="740774" />
	</node>
	<node id="-349934" lat="62.1481694431" lon="10.7905638933">
		<tag k="name" v="Åsdalen" />
		<tag k="natural" v="valley" />
		<tag k="place" v="locality" />
		<tag k="ssr:stedsnr" v="477900" />
	</node>
	<node id="-352323" lat="62.2542861146" lon="10.5456388836">
		<tag k="name" v="Snausjølia" />
		<tag k="natural" v="slope" />
		<tag k="place" v="locality" />
		<tag k="ssr:stedsnr" v="841794" />
	</node>
	<node id="-350603" lat="62.1199555538" lon="10.7948666675">
		<tag k="name" v="Klokkarbikkjedalen" />
		<tag k="natural" v="valley" />
		<tag k="place" v="locality" />
		<tag k="ssr:stedsnr" v="902777" />
	</node>
	<node id="-350602" lat="62.1368611083" lon="10.7479416692">
		<tag k="name" v="Kornfonna" />
		<tag k="natural" v="hill" />
		<tag k="place" v="locality" />
		<tag k="ssr:stedsnr" v="902773" />
	</node>
	<node id="-350594" lat="62.1653222184" lon="10.7499416637">
		<tag k="name" v="Haugsæterkletten" />
		<tag k="natural" v="hill" />
		<tag k="place" v="locality" />
		<tag k="ssr:stedsnr" v="901850" />
	</node>
	<node id="-350592" lat="62.3363027783" lon="10.5667166736">
		<tag k="name" v="Middagsknøsen" />
		<tag k="natural" v="hill" />
		<tag k="place" v="locality" />
		<tag k="ssr:stedsnr" v="901844" />
	</node>
	<node id="-350591" lat="62.1808805511" lon="10.7763722272">
		<tag k="name" v="Falldalen" />
		<tag k="natural" v="valley" />
		<tag k="place" v="locality" />
		<tag k="ssr:stedsnr" v="901951" />
	</node>
	<node id="-350589" lat="62.2070166634" lon="10.758397217">
		<tag k="name" v="Sjøbakkhaugen" />
		<tag k="natural" v="hill" />
		<tag k="place" v="locality" />
		<tag k="ssr:stedsnr" v="901928" />
	</node>
	<node id="-350585" lat="62.1730666665" lon="10.7074722166">
		<tag k="alt_name" v="Tyldalstoppen" />
		<tag k="fixme" v="consider natural=peak for the most distinct mountains in the district" />
		<tag k="name" v="Tylldalstoppen" />
		<tag k="natural" v="hill" />
		<tag k="old_name" v="Tydalstoppen" />
		<tag k="ssr:stedsnr" v="901840" />
	</node>
	<node id="-350584" lat="62.3409166673" lon="10.5765361104">
		<tag k="name" v="Vesterlia" />
		<tag k="natural" v="slope" />
		<tag k="place" v="locality" />
		<tag k="ssr:stedsnr" v="901835" />
	</node>
	<node id="-350580" lat="62.2268388929" lon="10.6307666605">
		<tag k="alt_name" v="Strømsenglia" />
		<tag k="name" v="Straumsenglia" />
		<tag k="natural" v="slope" />
		<tag k="place" v="locality" />
		<tag k="ssr:stedsnr" v="901781" />
	</node>
	<node id="-350578" lat="62.0831916681" lon="10.8907499939">
		<tag k="name" v="Storbekkroken" />
		<tag k="place" v="locality" />
		<tag k="ssr:stedsnr" v="901402" />
	</node>
	<node id="-350576" lat="62.3207527772" lon="10.9071083411">
		<tag k="name" v="Diplan" />
		<tag k="natural" v="hill" />
		<tag k="place" v="locality" />
		<tag k="ssr:stedsnr" v="901297" />
	</node>
	<node id="-350572" lat="62.307480557" lon="10.8789750093">
		<tag k="name" v="Langbakken" />
		<tag k="natural" v="slope" />
		<tag k="place" v="locality" />
		<tag k="ssr:stedsnr" v="901268" />
	</node>
	<node id="-350569" lat="62.065636108" lon="10.842724991">
		<tag k="name" v="Røeseggberget" />
		<tag k="natural" v="hill" />
		<tag k="place" v="locality" />
		<tag k="ssr:stedsnr" v="901397" />
	</node>
	<node id="-349585" lat="62.3354388892" lon="10.5054083323">
		<tag k="alt_name" v="Kvanntjørnfjellet" />
		<tag k="fixme" v="consider natural=peak for the most distinct mountains in the district" />
		<tag k="name" v="Kvanntjønnfjellet" />
		<tag k="natural" v="hill" />
		<tag k="place" v="locality" />
		<tag k="ssr:stedsnr" v="254947" />
	</node>
	<node id="-349584" lat="62.3320916676" lon="10.6643500071">
		<tag k="alt_name" v="Skruvåsen" />
		<tag k="fixme" v="consider natural=peak for the most distinct mountains in the district" />
		<tag k="name" v="Skruvsåsen" />
		<tag k="natural" v="hill" />
		<tag k="place" v="locality" />
		<tag k="ssr:stedsnr" v="254942" />
	</node>
	<node id="-350558" lat="62.2932749974" lon="10.7341055568">
		<tag k="name" v="Matberget" />
		<tag k="natural" v="hill" />
		<tag k="place" v="locality" />
		<tag k="ssr:stedsnr" v="901092" />
	</node>
	<node id="-351973" lat="62.1931555564" lon="10.74063333">
		<tag k="name" v="Storhaugen" />
		<tag k="natural" v="slope" />
		<tag k="place" v="locality" />
		<tag k="ssr:stedsnr" v="597939" />
	</node>
	<node id="-350555" lat="62.3982277781" lon="10.6744749962">
		<tag k="name" v="Skarvdalsøya" />
		<tag k="place" v="locality" />
		<tag k="ssr:stedsnr" v="901001" />
	</node>
	<node id="-350554" lat="62.4065722188" lon="10.4385333409">
		<tag k="name" v="Klimpen" />
		<tag k="natural" v="hill" />
		<tag k="place" v="locality" />
		<tag k="ssr:stedsnr" v="900475" />
	</node>
	<node id="-350553" lat="62.5591444431" lon="10.4501111034">
		<tag k="name" v="Engåsen" />
		<tag k="natural" v="hill" />
		<tag k="place" v="locality" />
		<tag k="ssr:stedsnr" v="900227" />
	</node>
	<node id="-350552" lat="62.6259444402" lon="10.4205666659">
		<tag k="name" v="Falningsjølia" />
		<tag k="natural" v="slope" />
		<tag k="place" v="locality" />
		<tag k="ssr:stedsnr" v="900199" />
	</node>
	<node id="-349446" lat="62.2869416667" lon="10.9996111195">
		<tag k="name" v="Kvitkurven" />
		<tag k="natural" v="hill" />
		<tag k="place" v="locality" />
		<tag k="ssr:stedsnr" v="234360" />
	</node>
	<node id="-350549" lat="62.1257861155" lon="10.7997111161">
		<tag k="name" v="Storegga" />
		<tag k="natural" v="slope" />
		<tag k="place" v="locality" />
		<tag k="ssr:stedsnr" v="720759" />
	</node>
	<node id="-350547" lat="62.1004055526" lon="10.9082722135">
		<tag k="name" v="Bjørnrøstkampen" />
		<tag k="natural" v="hill" />
		<tag k="place" v="locality" />
		<tag k="ssr:stedsnr" v="720409" />
	</node>
	<node id="-350546" lat="62.2590694463" lon="10.6090944473">
		<tag k="name" v="Kvannrøsthaugen" />
		<tag k="natural" v="hill" />
		<tag k="place" v="locality" />
		<tag k="ssr:stedsnr" v="720167" />
	</node>
	<node id="-350545" lat="62.2461166664" lon="10.7668138805">
		<tag k="name" v="Svarthavern" />
		<tag k="natural" v="slope" />
		<tag k="place" v="locality" />
		<tag k="ssr:stedsnr" v="720013" />
	</node>
	<node id="-350542" lat="62.4577527778" lon="10.3758333383">
		<tag k="name" v="Moan" />
		<tag k="place" v="locality" />
		<tag k="ssr:stedsnr" v="719963" />
	</node>
	<node id="-350541" lat="62.442908336" lon="10.3468777782">
		<tag k="name" v="Storhaugen" />
		<tag k="natural" v="hill" />
		<tag k="place" v="locality" />
		<tag k="ssr:stedsnr" v="719958" />
	</node>
	<node id="-350540" lat="62.2333138881" lon="10.5674555485">
		<tag k="name" v="Vanghaugen" />
		<tag k="natural" v="hill" />
		<tag k="place" v="locality" />
		<tag k="ssr:stedsnr" v="719808" />
	</node>
	<node id="-350534" lat="62.3257861084" lon="10.6032305494">
		<tag k="name" v="Tjønnlia" />
		<tag k="natural" v="slope" />
		<tag k="place" v="locality" />
		<tag k="ssr:stedsnr" v="719192" />
	</node>
	<node id="-349921" lat="62.6699555547" lon="10.1526861074">
		<tag k="name" v="Klevan" />
		<tag k="natural" v="slope" />
		<tag k="place" v="locality" />
		<tag k="ssr:stedsnr" v="477000" />
	</node>
	<node id="-350531" lat="62.3692694427" lon="10.6059166738">
		<tag k="name" v="Moan" />
		<tag k="place" v="locality" />
		<tag k="ssr:stedsnr" v="719023" />
	</node>
	<node id="-350527" lat="62.5800972239" lon="10.486750009">
		<tag k="name" v="Svartsjølia" />
		<tag k="natural" v="slope" />
		<tag k="place" v="locality" />
		<tag k="ssr:stedsnr" v="718809" />
	</node>
	<node id="-350526" lat="62.6183444421" lon="10.2595166695">
		<tag k="alt_name" v="Ulsetberga" />
		<tag k="name" v="Ølsetberga" />
		<tag k="natural" v="hill" />
		<tag k="place" v="locality" />
		<tag k="ssr:stedsnr" v="718959" />
	</node>
	<node id="-350525" lat="62.5087444472" lon="10.3912749925">
		<tag k="name" v="Koidal" />
		<tag k="natural" v="valley" />
		<tag k="place" v="locality" />
		<tag k="ssr:stedsnr" v="718782" />
	</node>
	<node id="-350522" lat="62.4843388901" lon="10.3692027753">
		<tag k="name" v="Trangdalen" />
		<tag k="natural" v="valley" />
		<tag k="place" v="locality" />
		<tag k="ssr:stedsnr" v="718766" />
	</node>
	<node id="-350519" lat="62.6222500038" lon="10.3821611044">
		<tag k="name" v="Saudalane" />
		<tag k="natural" v="valley" />
		<tag k="place" v="locality" />
		<tag k="ssr:stedsnr" v="718166" />
	</node>
	<node id="-350514" lat="62.3377916681" lon="10.3034500032">
		<tag k="name" v="Grønhøkvolvet" />
		<tag k="natural" v="valley" />
		<tag k="place" v="locality" />
		<tag k="ssr:stedsnr" v="679965" />
	</node>
	<node id="-350513" lat="62.3304722245" lon="10.5508583422">
		<tag k="fixme" v="consider natural=peak for the most distinct mountains in the district" />
		<tag k="name" v="Bratthøa" />
		<tag k="natural" v="hill" />
		<tag k="place" v="locality" />
		<tag k="ssr:stedsnr" v="679960" />
	</node>
	<node id="-350512" lat="62.412702782" lon="10.167974997">
		<tag k="name" v="Lia" />
		<tag k="natural" v="slope" />
		<tag k="place" v="locality" />
		<tag k="ssr:stedsnr" v="679723" />
	</node>
	<node id="-350510" lat="62.4311249961" lon="10.3013499902">
		<tag k="fixme" v="consider natural=peak for the most distinct mountains in the district" />
		<tag k="name" v="Gråhøa" />
		<tag k="natural" v="hill" />
		<tag k="place" v="locality" />
		<tag k="ssr:stedsnr" v="679817" />
	</node>
	<node id="-350508" lat="62.4102388931" lon="10.554727781">
		<tag k="name" v="Skarvdalen" />
		<tag k="natural" v="valley" />
		<tag k="place" v="locality" />
		<tag k="ssr:stedsnr" v="679805" />
	</node>
	<node id="-350507" lat="62.4935777747" lon="10.3387388854">
		<tag k="fixme" v="consider natural=peak for the most distinct mountains in the district" />
		<tag k="name" v="Åsfjellet" />
		<tag k="natural" v="hill" />
		<tag k="place" v="locality" />
		<tag k="ssr:stedsnr" v="679624" />
	</node>
	<node id="-349649" lat="62.6416277796" lon="10.3618333413">
		<tag k="fixme" v="consider natural=peak for the most distinct mountains in the district" />
		<tag k="name" v="Sverjesjøhøa" />
		<tag k="natural" v="hill" />
		<tag k="place" v="locality" />
		<tag k="ssr:stedsnr" v="193104" />
	</node>
	<node id="-350502" lat="62.3848527795" lon="10.7232694485">
		<tag k="name" v="Lonsjølia" />
		<tag k="natural" v="slope" />
		<tag k="place" v="locality" />
		<tag k="ssr:stedsnr" v="679160" />
	</node>
	<node id="-350489" lat="62.6585694452" lon="10.236724993">
		<tag k="alt_name" v="Storlihø" />
		<tag k="fixme" v="consider natural=peak for the most distinct mountains in the district" />
		<tag k="name" v="Storlihøa" />
		<tag k="natural" v="hill" />
		<tag k="place" v="locality" />
		<tag k="ssr:stedsnr" v="678421" />
	</node>
	<node id="-350488" lat="62.1903666645" lon="11.1160138954">
		<tag k="name" v="Spekelia" />
		<tag k="natural" v="slope" />
		<tag k="place" v="locality" />
		<tag k="ssr:stedsnr" v="678255" />
	</node>
	<node id="-350484" lat="62.1846250031" lon="11.0986833361">
		<tag k="name" v="Brenna" />
		<tag k="natural" v="hill" />
		<tag k="place" v="locality" />
		<tag k="ssr:stedsnr" v="678157" />
	</node>
	<node id="-350481" lat="62.1785749967" lon="11.1037777708">
		<tag k="name" v="Marabekkriset" />
		<tag k="natural" v="valley" />
		<tag k="place" v="locality" />
		<tag k="ssr:stedsnr" v="678132" />
	</node>
	<node id="-350478" lat="62.5972138913" lon="10.3422555509">
		<tag k="name" v="Nordfjordbrygga" />
		<tag k="place" v="locality" />
		<tag k="ssr:stedsnr" v="878520" />
	</node>
	<node id="-350477" lat="62.5338833354" lon="10.0533083279">
		<tag k="name" v="Bukkefallet" />
		<tag k="natural" v="slope" />
		<tag k="place" v="locality" />
		<tag k="ssr:stedsnr" v="878455" />
	</node>
	<node id="-350475" lat="62.6202361098" lon="10.4374416763">
		<tag k="fixme" v="consider natural=peak for the most distinct mountains in the district" />
		<tag k="name" v="Falningsjøhøa" />
		<tag k="natural" v="hill" />
		<tag k="place" v="locality" />
		<tag k="ssr:stedsnr" v="878557" />
	</node>
	<node id="-350471" lat="62.14998056" lon="10.8095361167">
		<tag k="name" v="Olsbergsberget" />
		<tag k="natural" v="hill" />
		<tag k="place" v="locality" />
		<tag k="ssr:stedsnr" v="659881" />
	</node>
	<node id="-350470" lat="62.145238889" lon="10.7810444411">
		<tag k="name" v="Storstensdalen" />
		<tag k="natural" v="valley" />
		<tag k="place" v="locality" />
		<tag k="ssr:stedsnr" v="659878" />
	</node>
	<node id="-350467" lat="62.21018333" lon="10.8159166747">
		<tag k="name" v="Tylldalslia" />
		<tag k="natural" v="slope" />
		<tag k="place" v="locality" />
		<tag k="ssr:stedsnr" v="658920" />
	</node>
	<node id="-351616" lat="62.1953638865" lon="11.0813777761">
		<tag k="name" v="Langhøa" />
		<tag k="natural" v="hill" />
		<tag k="place" v="locality" />
		<tag k="ssr:stedsnr" v="374251" />
	</node>
	<node id="-350462" lat="62.2145916625" lon="10.7455666577">
		<tag k="name" v="Langegga" />
		<tag k="natural" v="slope" />
		<tag k="place" v="locality" />
		<tag k="ssr:stedsnr" v="658886" />
	</node>
	<node id="-350456" lat="62.1146138906" lon="10.8285527698">
		<tag k="name" v="Brønnådalen" />
		<tag k="natural" v="valley" />
		<tag k="place" v="locality" />
		<tag k="ssr:stedsnr" v="658654" />
	</node>
	<node id="-350453" lat="62.3240222199" lon="10.7543722136">
		<tag k="name" v="Kjurrukjølbakken" />
		<tag k="natural" v="slope" />
		<tag k="place" v="locality" />
		<tag k="ssr:stedsnr" v="658130" />
	</node>
	<node id="-351207" lat="62.27407222" lon="10.813188889">
		<tag k="name" v="Hugudalsmoen" />
		<tag k="place" v="locality" />
		<tag k="ssr:stedsnr" v="113051" />
	</node>
	<node id="-350449" lat="62.3328416627" lon="10.9419722137">
		<tag k="name" v="Helgesgrubba" />
		<tag k="natural" v="valley" />
		<tag k="place" v="locality" />
		<tag k="ssr:stedsnr" v="658280" />
	</node>
	<node id="-350448" lat="62.4018916681" lon="10.6126583312">
		<tag k="name" v="Gjermoen" />
		<tag k="place" v="locality" />
		<tag k="ssr:stedsnr" v="658058" />
	</node>
	<node id="-350445" lat="62.5267722215" lon="10.3598083281">
		<tag k="name" v="Åsengene" />
		<tag k="natural" v="slope" />
		<tag k="place" v="locality" />
		<tag k="ssr:stedsnr" v="657670" />
	</node>
	<node id="-350438" lat="62.4128722221" lon="10.5222888905">
		<tag k="alt_name" v="Børstuvorda" />
		<tag k="fixme" v="consider natural=peak for the most distinct mountains in the district" />
		<tag k="name" v="Børstuvola" />
		<tag k="natural" v="hill" />
		<tag k="place" v="locality" />
		<tag k="ssr:stedsnr" v="618791" />
	</node>
	<node id="-350434" lat="62.4937055582" lon="10.4039999961">
		<tag k="alt_name" v="Støkletten" />
		<tag k="fixme" v="consider natural=peak for the most distinct mountains in the district" />
		<tag k="name" v="Kletten" />
		<tag k="natural" v="hill" />
		<tag k="place" v="locality" />
		<tag k="ssr:stedsnr" v="618634" />
	</node>
	<node id="-350432" lat="62.6764638911" lon="10.6491250034">
		<tag k="fixme" v="consider natural=peak for the most distinct mountains in the district" />
		<tag k="name" v="Dølbukammen" />
		<tag k="natural" v="hill" />
		<tag k="place" v="locality" />
		<tag k="ssr:stedsnr" v="618381" />
	</node>
	<node id="-350429" lat="62.661994443" lon="10.1287277699">
		<tag k="fixme" v="consider natural=peak for the most distinct mountains in the district" />
		<tag k="name" v="Flatfjellet" />
		<tag k="natural" v="hill" />
		<tag k="place" v="locality" />
		<tag k="ssr:stedsnr" v="618236" />
	</node>
	<node id="-350424" lat="62.2614495701" lon="10.5718308298">
		<tag k="fixme" v="consider natural=peak for the most distinct mountains in the district" />
		<tag k="name" v="Svartåsen" />
		<tag k="natural" v="hill" />
		<tag k="place" v="locality" />
		<tag k="ssr:stedsnr" v="618004" />
	</node>
	<node id="-350423" lat="62.2391750043" lon="10.5439277706">
		<tag k="alt_name" v="Sivilvangsklimpen" />
		<tag k="fixme" v="consider natural=peak for the most distinct mountains in the district" />
		<tag k="name" v="Klimpen" />
		<tag k="natural" v="hill" />
		<tag k="place" v="locality" />
		<tag k="ssr:stedsnr" v="617447" />
	</node>
	<node id="-350422" lat="62.2422833298" lon="10.6345222135">
		<tag k="name" v="Styggberget" />
		<tag k="natural" v="hill" />
		<tag k="place" v="locality" />
		<tag k="ssr:stedsnr" v="617445" />
	</node>
	<node id="-350420" lat="62.1710944427" lon="10.8377916599">
		<tag k="alt_name" v="Brennvorda" />
		<tag k="name" v="Brennvola" />
		<tag k="natural" v="hill" />
		<tag k="place" v="locality" />
		<tag k="ssr:stedsnr" v="617161" />
	</node>
	<node id="-350418" lat="62.1719333338" lon="11.0410833367">
		<tag k="alt_name" v="Marabekkhøgda" />
		<tag k="name" v="Marabekkhøa" />
		<tag k="natural" v="hill" />
		<tag k="place" v="locality" />
		<tag k="ssr:stedsnr" v="617156" />
	</node>
	<node id="-350417" lat="62.1718249985" lon="11.0514111183">
		<tag k="alt_name" v="Vorda" />
		<tag k="fixme" v="consider natural=peak for the most distinct mountains in the district" />
		<tag k="name" v="Vola" />
		<tag k="natural" v="hill" />
		<tag k="place" v="locality" />
		<tag k="ssr:stedsnr" v="617154" />
	</node>
	<node id="-350415" lat="62.1599722181" lon="10.9034083284">
		<tag k="alt_name" v="Abbelvorda" />
		<tag k="name" v="Abelvola" />
		<tag k="natural" v="hill" />
		<tag k="place" v="locality" />
		<tag k="ssr:stedsnr" v="617208" />
	</node>
	<node id="-350414" lat="62.174358337" lon="10.6947472309">
		<tag k="alt_name" v="Tronden" />
		<tag k="fixme" v="consider natural=peak for the most distinct mountains in the district" />
		<tag k="loc_name" v="Trondfjell" />
		<tag k="name" v="Tron" />
		<tag k="natural" v="hill" />
		<tag k="place" v="locality" />
		<tag k="ssr:stedsnr" v="617011" />
	</node>
	<node id="-350411" lat="62.167605558" lon="10.9540500028">
		<tag k="name" v="Kvitegga" />
		<tag k="natural" v="hill" />
		<tag k="place" v="locality" />
		<tag k="ssr:stedsnr" v="720502" />
	</node>
	<node id="-350410" lat="62.1550888856" lon="10.9188333419">
		<tag k="name" v="Milskiftmoen" />
		<tag k="place" v="locality" />
		<tag k="ssr:stedsnr" v="720491" />
	</node>
	<node id="-350409" lat="62.1426361134" lon="10.9305249909">
		<tag k="name" v="Dammtjønnhaugan" />
		<tag k="natural" v="hill" />
		<tag k="place" v="locality" />
		<tag k="ssr:stedsnr" v="720485" />
	</node>
	<node id="-349420" lat="62.3491916694" lon="10.5787166759">
		<tag k="name" v="Knøsen" />
		<tag k="natural" v="hill" />
		<tag k="place" v="locality" />
		<tag k="ssr:stedsnr" v="233856" />
	</node>
	<node id="-350406" lat="62.1652611104" lon="11.0674972184">
		<tag k="name" v="Vikbekkfløyet" />
		<tag k="natural" v="valley" />
		<tag k="place" v="locality" />
		<tag k="ssr:stedsnr" v="720249" />
	</node>
	<node id="-350405" lat="62.1744472224" lon="11.0465833321">
		<tag k="name" v="Skårdalen" />
		<tag k="natural" v="valley" />
		<tag k="place" v="locality" />
		<tag k="ssr:stedsnr" v="720245" />
	</node>
	<node id="-352452" lat="62.1679916692" lon="10.7871166757">
		<tag k="name" v="Veslesætereggan" />
		<tag k="natural" v="ridge" />
		<tag k="place" v="locality" />
		<tag k="ssr:stedsnr" v="962841" />
	</node>
	<node id="-352450" lat="62.1797972204" lon="10.7722250091">
		<tag k="name" v="Strupvangdalen" />
		<tag k="natural" v="valley" />
		<tag k="place" v="locality" />
		<tag k="ssr:stedsnr" v="962832" />
	</node>
	<node id="-350400" lat="62.2466416695" lon="10.7818222182">
		<tag k="name" v="Rødhammeren" />
		<tag k="natural" v="hill" />
		<tag k="place" v="locality" />
		<tag k="ssr:stedsnr" v="719938" />
	</node>
	<node id="-352447" lat="62.1332805549" lon="10.7767472197">
		<tag k="name" v="Øverbylia" />
		<tag k="natural" v="slope" />
		<tag k="place" v="locality" />
		<tag k="ssr:stedsnr" v="962741" />
	</node>
	<node id="-350398" lat="62.185655557" lon="10.7755361184">
		<tag k="name" v="Storvangdalen" />
		<tag k="natural" v="valley" />
		<tag k="place" v="locality" />
		<tag k="ssr:stedsnr" v="719916" />
	</node>
	<node id="-350396" lat="62.2193583342" lon="10.7262333344">
		<tag k="name" v="Sukkertoppen" />
		<tag k="natural" v="hill" />
		<tag k="place" v="locality" />
		<tag k="ssr:stedsnr" v="719877" />
	</node>
	<node id="-349509" lat="62.4546750024" lon="10.2298027698">
		<tag k="fixme" v="consider natural=peak for the most distinct mountains in the district" />
		<tag k="name" v="Øyabekkfjellet" />
		<tag k="natural" v="hill" />
		<tag k="place" v="locality" />
		<tag k="ssr:stedsnr" v="72834" />
	</node>
	<node id="-352441" lat="62.0965472259" lon="10.8067194383">
		<tag k="name" v="Vangbekklia" />
		<tag k="natural" v="slope" />
		<tag k="place" v="locality" />
		<tag k="ssr:stedsnr" v="962620" />
	</node>
	<node id="-352439" lat="62.2820916698" lon="10.9743694456">
		<tag k="name" v="Gammeldalsmoen" />
		<tag k="place" v="locality" />
		<tag k="ssr:stedsnr" v="962344" />
	</node>
	<node id="-350390" lat="62.2668500027" lon="10.4397888839">
		<tag k="name" v="Sandvikskollen" />
		<tag k="natural" v="hill" />
		<tag k="place" v="locality" />
		<tag k="ssr:stedsnr" v="719793" />
	</node>
	<node id="-352437" lat="62.2159999976" lon="10.8892833424">
		<tag k="name" v="Aumlihøgda" />
		<tag k="natural" v="hill" />
		<tag k="place" v="locality" />
		<tag k="ssr:stedsnr" v="962432" />
	</node>
	<node id="-350388" lat="62.2845333337" lon="10.5025999931">
		<tag k="fixme" v="consider natural=peak for the most distinct mountains in the district" />
		<tag k="name" v="Hestkletten" />
		<tag k="natural" v="hill" />
		<tag k="place" v="locality" />
		<tag k="ssr:stedsnr" v="719472" />
	</node>
	<node id="-352286" lat="62.6043027797" lon="10.0852638809">
		<tag k="name" v="Skjeftlia" />
		<tag k="natural" v="slope" />
		<tag k="place" v="locality" />
		<tag k="ssr:stedsnr" v="825957" />
	</node>
	<node id="-352433" lat="62.262230558" lon="10.9714499909">
		<tag k="name" v="Sødalsbakkan" />
		<tag k="natural" v="slope" />
		<tag k="place" v="locality" />
		<tag k="ssr:stedsnr" v="962302" />
	</node>
	<node id="-349896" lat="62.1966833296" lon="10.9669916581">
		<tag k="name" v="Kampen" />
		<tag k="natural" v="hill" />
		<tag k="place" v="locality" />
		<tag k="ssr:stedsnr" v="476136" />
	</node>
	<node id="-350382" lat="62.0517555562" lon="10.9083944369">
		<tag k="name" v="Rokkberget" />
		<tag k="natural" v="hill" />
		<tag k="place" v="locality" />
		<tag k="ssr:stedsnr" v="719372" />
	</node>
	<node id="-352426" lat="62.1736416664" lon="11.0217750074">
		<tag k="name" v="Svartrøsta" />
		<tag k="natural" v="slope" />
		<tag k="place" v="locality" />
		<tag k="ssr:stedsnr" v="962228" />
	</node>
	<node id="-352425" lat="62.1694055533" lon="11.0218305596">
		<tag k="name" v="Vikberget" />
		<tag k="natural" v="hill" />
		<tag k="place" v="locality" />
		<tag k="ssr:stedsnr" v="962226" />
	</node>
	<node id="-352424" lat="62.3509666635" lon="10.5972416759">
		<tag k="fixme" v="consider natural=peak for the most distinct mountains in the district" />
		<tag k="name" v="Svartåsen" />
		<tag k="natural" v="hill" />
		<tag k="place" v="locality" />
		<tag k="ssr:stedsnr" v="962186" />
	</node>
	<node id="-352422" lat="62.4206777741" lon="10.62375555">
		<tag k="name" v="Ånedalen" />
		<tag k="natural" v="valley" />
		<tag k="place" v="locality" />
		<tag k="ssr:stedsnr" v="962051" />
	</node>
	<node id="-352421" lat="62.2061861077" lon="10.9509833373">
		<tag k="name" v="Veslekletten" />
		<tag k="natural" v="hill" />
		<tag k="place" v="locality" />
		<tag k="ssr:stedsnr" v="962036" />
	</node>
	<node id="-350463" lat="62.1888250018" lon="10.7694166682">
		<tag k="name" v="Tvibotntjønnsletta" />
		<tag k="place" v="locality" />
		<tag k="ssr:stedsnr" v="658905" />
	</node>
	<node id="-352414" lat="62.492163891" lon="10.1860083255">
		<tag k="name" v="Storberget" />
		<tag k="natural" v="hill" />
		<tag k="place" v="locality" />
		<tag k="ssr:stedsnr" v="961736" />
	</node>
	<node id="-350363" lat="62.3420138846" lon="10.7164083421">
		<tag k="name" v="Brattbakken" />
		<tag k="natural" v="slope" />
		<tag k="place" v="locality" />
		<tag k="ssr:stedsnr" v="719073" />
	</node>
	<node id="-352409" lat="62.0631916694" lon="10.857152774">
		<tag k="name" v="Djupdalen" />
		<tag k="natural" v="valley" />
		<tag k="place" v="locality" />
		<tag k="ssr:stedsnr" v="961397" />
	</node>
	<node id="-350360" lat="62.6415361114" lon="10.2299111136">
		<tag k="name" v="Børlia" />
		<tag k="natural" v="slope" />
		<tag k="place" v="locality" />
		<tag k="ssr:stedsnr" v="718980" />
	</node>
	<node id="-352407" lat="62.5519194459" lon="10.4103694374">
		<tag k="name" v="Høgda" />
		<tag k="natural" v="hill" />
		<tag k="place" v="locality" />
		<tag k="ssr:stedsnr" v="961199" />
	</node>
	<node id="-350358" lat="62.6685416704" lon="10.1853999946">
		<tag k="name" v="Vedbekkdalen" />
		<tag k="natural" v="valley" />
		<tag k="place" v="locality" />
		<tag k="ssr:stedsnr" v="718874" />
	</node>
	<node id="-352405" lat="62.2632166696" lon="10.7122833413">
		<tag k="fixme" v="consider natural=peak for the most distinct mountains in the district" />
		<tag k="name" v="Vesleåsen" />
		<tag k="natural" v="hill" />
		<tag k="place" v="locality" />
		<tag k="ssr:stedsnr" v="961185" />
	</node>
	<node id="-350356" lat="62.5388194453" lon="10.3796527744">
		<tag k="name" v="Grøtberget" />
		<tag k="natural" v="hill" />
		<tag k="place" v="locality" />
		<tag k="ssr:stedsnr" v="718695" />
	</node>
	<node id="-350355" lat="62.5124972238" lon="10.2080444511">
		<tag k="name" v="Dølvadkirka" />
		<tag k="natural" v="valley" />
		<tag k="place" v="locality" />
		<tag k="ssr:stedsnr" v="718684" />
	</node>
	<node id="-352398" lat="62.5735666627" lon="10.2768416629">
		<tag k="name" v="Hulbekklia" />
		<tag k="natural" v="slope" />
		<tag k="place" v="locality" />
		<tag k="ssr:stedsnr" v="960030" />
	</node>
	<node id="-350349" lat="62.4890583304" lon="10.2428944379">
		<tag k="name" v="Olahaugen" />
		<tag k="natural" v="hill" />
		<tag k="place" v="locality" />
		<tag k="ssr:stedsnr" v="718082" />
	</node>
	<node id="-352394" lat="62.1714027751" lon="10.8993444424">
		<tag k="name" v="Svarthammerlia" />
		<tag k="natural" v="slope" />
		<tag k="place" v="locality" />
		<tag k="ssr:stedsnr" v="874233" />
	</node>
	<node id="-350345" lat="62.558194444" lon="10.2877833312">
		<tag k="name" v="Storslettkampen" />
		<tag k="natural" v="hill" />
		<tag k="place" v="locality" />
		<tag k="ssr:stedsnr" v="718051" />
	</node>
	<node id="-349548" lat="62.3115972191" lon="10.9056583402">
		<tag k="fixme" v="consider natural=peak for the most distinct mountains in the district" />
		<tag k="name" v="Måna" />
		<tag k="natural" v="hill" />
		<tag k="place" v="locality" />
		<tag k="ssr:stedsnr" v="254236" />
	</node>
	<node id="-350339" lat="62.2024222197" lon="10.9972388836">
		<tag k="name" v="Nedre Hoggmoen" />
		<tag k="place" v="locality" />
		<tag k="ssr:stedsnr" v="597130" />
	</node>
	<node id="-352386" lat="62.4473361124" lon="10.433219435">
		<tag k="fixme" v="consider natural=peak for the most distinct mountains in the district" />
		<tag k="name" v="Nybergåsen" />
		<tag k="natural" v="hill" />
		<tag k="place" v="locality" />
		<tag k="ssr:stedsnr" v="861838" />
	</node>
	<node id="-350337" lat="62.3687055567" lon="10.6906305584">
		<tag k="name" v="Skardalen" />
		<tag k="natural" v="valley" />
		<tag k="place" v="locality" />
		<tag k="ssr:stedsnr" v="597112" />
	</node>
	<node id="-350336" lat="62.3667388926" lon="10.6616583368">
		<tag k="name" v="Styggdalen" />
		<tag k="natural" v="valley" />
		<tag k="place" v="locality" />
		<tag k="ssr:stedsnr" v="597111" />
	</node>
	<node id="-350335" lat="62.4819027771" lon="10.2707222254">
		<tag k="name" v="Iverhullet" />
		<tag k="natural" v="valley" />
		<tag k="place" v="locality" />
		<tag k="ssr:stedsnr" v="597085" />
	</node>
	<node id="-350332" lat="62.3020611156" lon="10.9084777737">
		<tag k="name" v="Bekkedalen" />
		<tag k="natural" v="valley" />
		<tag k="place" v="locality" />
		<tag k="ssr:stedsnr" v="597058" />
	</node>
	<node id="-352378" lat="62.3235083356" lon="10.4021500043">
		<tag k="alt_name" v="Rødalskvolvet, vesle" />
		<tag k="name" v="Vesle Rødalskvolvet" />
		<tag k="natural" v="valley" />
		<tag k="place" v="locality" />
		<tag k="ssr:stedsnr" v="861957" />
	</node>
	<node id="-352376" lat="62.3280805516" lon="10.49828334">
		<tag k="name" v="Mjovasskletten" />
		<tag k="natural" v="hill" />
		<tag k="place" v="locality" />
		<tag k="ssr:stedsnr" v="861947" />
	</node>
	<node id="-352375" lat="62.3158027774" lon="10.6825111086">
		<tag k="name" v="Moanlia" />
		<tag k="natural" v="slope" />
		<tag k="place" v="locality" />
		<tag k="ssr:stedsnr" v="861938" />
	</node>
	<node id="-352366" lat="62.3234888866" lon="10.9033027785">
		<tag k="fixme" v="consider natural=peak for the most distinct mountains in the district" />
		<tag k="name" v="Såttå" />
		<tag k="natural" v="hill" />
		<tag k="place" v="locality" />
		<tag k="ssr:stedsnr" v="861249" />
	</node>
	<node id="-350312" lat="62.5504055556" lon="10.65988888">
		<tag k="fixme" v="consider natural=peak for the most distinct mountains in the district" />
		<tag k="name" v="Eventjønnhøa" />
		<tag k="natural" v="hill" />
		<tag k="place" v="locality" />
		<tag k="ssr:stedsnr" v="557077" />
	</node>
	<node id="-352358" lat="62.2966277814" lon="10.9725999946">
		<tag k="name" v="Gammeldalen" />
		<tag k="natural" v="valley" />
		<tag k="place" v="locality" />
		<tag k="ssr:stedsnr" v="861229" />
	</node>
	<node id="-352357" lat="62.2992861144" lon="10.9535611137">
		<tag k="name" v="Dalslia" />
		<tag k="natural" v="slope" />
		<tag k="place" v="locality" />
		<tag k="ssr:stedsnr" v="861225" />
	</node>
	<node id="-352352" lat="62.2458888849" lon="10.7809611143">
		<tag k="alt_name" v="Havern" />
		<tag k="fixme" v="consider natural=peak for the most distinct mountains in the district" />
		<tag k="name" v="Haveren" />
		<tag k="natural" v="hill" />
		<tag k="place" v="locality" />
		<tag k="ssr:stedsnr" v="861189" />
	</node>
	<node id="-352351" lat="62.5409583297" lon="10.5341694391">
		<tag k="fixme" v="consider natural=peak for the most distinct mountains in the district" />
		<tag k="name" v="Sætertangen" />
		<tag k="natural" v="hill" />
		<tag k="place" v="locality" />
		<tag k="ssr:stedsnr" v="861048" />
	</node>
	<node id="-350565" lat="62.3656944409" lon="10.8064750036">
		<tag k="name" v="Vardtjønnåsen" />
		<tag k="natural" v="hill" />
		<tag k="place" v="locality" />
		<tag k="ssr:stedsnr" v="901184" />
	</node>
	<node id="-350300" lat="62.1036888903" lon="10.7821611195">
		<tag k="alt_name" v="Nonsvorda" />
		<tag k="name" v="Nonsvola" />
		<tag k="natural" v="hill" />
		<tag k="place" v="locality" />
		<tag k="ssr:stedsnr" v="556062" />
	</node>
	<node id="-350299" lat="62.1024249955" lon="10.7914361165">
		<tag k="name" v="Tylldalen" />
		<tag k="natural" v="valley" />
		<tag k="old_name" v="Tyldalen" />
		<tag k="place" v="locality" />
		<tag k="ssr:stedsnr" v="556061" />
	</node>
	<node id="-350297" lat="62.5330694461" lon="10.1562833374">
		<tag k="alt_name" v="Grønlia" />
		<tag k="name" v="Grønnlia" />
		<tag k="natural" v="slope" />
		<tag k="place" v="locality" />
		<tag k="ssr:stedsnr" v="695414" />
	</node>
	<node id="-350296" lat="62.3527583367" lon="10.8161527711">
		<tag k="fixme" v="consider natural=peak for the most distinct mountains in the district" />
		<tag k="name" v="Klimpen" />
		<tag k="natural" v="hill" />
		<tag k="place" v="locality" />
		<tag k="ssr:stedsnr" v="692569" />
	</node>
	<node id="-350294" lat="60.9287583328" lon="11.4804249971">
		<tag k="name" v="Østerdalen" />
		<tag k="natural" v="valley" />
		<tag k="place" v="locality" />
		<tag k="ssr:stedsnr" v="692157" />
	</node>
	<node id="-350293" lat="62.1360277781" lon="10.7750861182">
		<tag k="name" v="Veslehammaren" />
		<tag k="natural" v="hill" />
		<tag k="place" v="locality" />
		<tag k="ssr:stedsnr" v="538773" />
	</node>
	<node id="-350291" lat="62.1361083374" lon="10.7329305642">
		<tag k="name" v="Rundvangbakkan" />
		<tag k="natural" v="slope" />
		<tag k="place" v="locality" />
		<tag k="ssr:stedsnr" v="538766" />
	</node>
	<node id="-350290" lat="62.2323694483" lon="10.9717027806">
		<tag k="name" v="Jobekkdalen" />
		<tag k="natural" v="valley" />
		<tag k="place" v="locality" />
		<tag k="ssr:stedsnr" v="538353" />
	</node>
	<node id="-350287" lat="62.4204611082" lon="10.3576472233">
		<tag k="name" v="Kløftet" />
		<tag k="natural" v="valley" />
		<tag k="place" v="locality" />
		<tag k="ssr:stedsnr" v="537967" />
	</node>
	<node id="-352333" lat="62.2002861109" lon="10.8497749939">
		<tag k="fixme" v="consider natural=peak for the most distinct mountains in the district" />
		<tag k="name" v="Kasttjønnmorkan" />
		<tag k="natural" v="hill" />
		<tag k="place" v="locality" />
		<tag k="ssr:stedsnr" v="842490" />
	</node>
	<node id="-350284" lat="62.4688944484" lon="10.4179805603">
		<tag k="name" v="Veslelia" />
		<tag k="natural" v="slope" />
		<tag k="place" v="locality" />
		<tag k="ssr:stedsnr" v="537752" />
	</node>
	<node id="-350283" lat="62.1704999985" lon="10.7938972236">
		<tag k="fixme" v="consider natural=peak for the most distinct mountains in the district" />
		<tag k="name" v="Tobruåsen" />
		<tag k="natural" v="hill" />
		<tag k="place" v="locality" />
		<tag k="ssr:stedsnr" v="537828" />
	</node>
	<node id="-350282" lat="62.1672500044" lon="10.7840249995">
		<tag k="name" v="Veslesætersåttån" />
		<tag k="natural" v="slope" />
		<tag k="place" v="locality" />
		<tag k="ssr:stedsnr" v="537826" />
	</node>
	<node id="-350281" lat="62.3519500012" lon="10.558216675">
		<tag k="name" v="Gammeltrøbakken" />
		<tag k="natural" v="slope" />
		<tag k="place" v="locality" />
		<tag k="ssr:stedsnr" v="537822" />
	</node>
	<node id="-350280" lat="62.2430111093" lon="10.6111333416">
		<tag k="name" v="Blautsteinbakkan" />
		<tag k="natural" v="slope" />
		<tag k="place" v="locality" />
		<tag k="ssr:stedsnr" v="537811" />
	</node>
	<node id="-352327" lat="62.1789361156" lon="10.7697666592">
		<tag k="name" v="Strupvangsletta" />
		<tag k="place" v="locality" />
		<tag k="ssr:stedsnr" v="841838" />
	</node>
	<node id="-352326" lat="62.3134777751" lon="10.5690888976">
		<tag k="name" v="Veslefådalslia" />
		<tag k="natural" v="slope" />
		<tag k="place" v="locality" />
		<tag k="ssr:stedsnr" v="841829" />
	</node>
	<node id="-350277" lat="62.3320638927" lon="10.95607223">
		<tag k="name" v="Storgrubba" />
		<tag k="natural" v="valley" />
		<tag k="place" v="locality" />
		<tag k="ssr:stedsnr" v="537247" />
	</node>
	<node id="-350276" lat="62.3436750033" lon="10.9620500097">
		<tag k="name" v="Branneggan" />
		<tag k="natural" v="ridge" />
		<tag k="place" v="locality" />
		<tag k="ssr:stedsnr" v="537246" />
	</node>
	<node id="-349878" lat="62.3851611133" lon="10.6071527771">
		<tag k="name" v="Furåsrabbene" />
		<tag k="natural" v="hill" />
		<tag k="place" v="locality" />
		<tag k="ssr:stedsnr" v="476020" />
	</node>
	<node id="-350274" lat="62.2633194427" lon="10.7637027822">
		<tag k="name" v="Bredmoen" />
		<tag k="place" v="locality" />
		<tag k="ssr:stedsnr" v="537011" />
	</node>
	<node id="-352316" lat="62.2916833323" lon="10.6634250071">
		<tag k="name" v="Brøttet" />
		<tag k="natural" v="slope" />
		<tag k="place" v="locality" />
		<tag k="ssr:stedsnr" v="841139" />
	</node>
	<node id="-350267" lat="62.3077861126" lon="10.6733638822">
		<tag k="alt_name" v="Kringlettåsen" />
		<tag k="fixme" v="consider natural=peak for the most distinct mountains in the district" />
		<tag k="name" v="Kringletåsen" />
		<tag k="natural" v="hill" />
		<tag k="place" v="locality" />
		<tag k="ssr:stedsnr" v="497930" />
	</node>
	<node id="-350261" lat="62.4792249995" lon="10.5088611134">
		<tag k="name" v="Fallet" />
		<tag k="place" v="locality" />
		<tag k="ssr:stedsnr" v="497858" />
	</node>
	<node id="-350256" lat="62.5615944406" lon="10.6289277696">
		<tag k="fixme" v="consider natural=peak for the most distinct mountains in the district" />
		<tag k="name" v="Grønhøa" />
		<tag k="natural" v="hill" />
		<tag k="place" v="locality" />
		<tag k="ssr:stedsnr" v="497061" />
	</node>
	<node id="-352301" lat="62.6591999964" lon="10.1530083235">
		<tag k="name" v="Storbekkdalen" />
		<tag k="natural" v="valley" />
		<tag k="place" v="locality" />
		<tag k="ssr:stedsnr" v="840995" />
	</node>
	<node id="-352300" lat="62.4540305585" lon="10.4316138796">
		<tag k="name" v="Skårfjellet" />
		<tag k="natural" v="hill" />
		<tag k="place" v="locality" />
		<tag k="ssr:stedsnr" v="840983" />
	</node>
	<node id="-352298" lat="62.5414888866" lon="10.3818777712">
		<tag k="name" v="Såttåen" />
		<tag k="natural" v="valley" />
		<tag k="place" v="locality" />
		<tag k="ssr:stedsnr" v="840734" />
	</node>
	<node id="-350249" lat="62.1709527802" lon="11.1042277836">
		<tag k="fixme" v="consider natural=peak for the most distinct mountains in the district" />
		<tag k="name" v="Brennfjellet" />
		<tag k="natural" v="hill" />
		<tag k="place" v="locality" />
		<tag k="ssr:stedsnr" v="496122" />
	</node>
	<node id="-350245" lat="62.197208329" lon="11.0714694398">
		<tag k="fixme" v="consider natural=peak for the most distinct mountains in the district" />
		<tag k="name" v="Spekehøan" />
		<tag k="natural" v="hill" />
		<tag k="place" v="locality" />
		<tag k="ssr:stedsnr" v="495253" />
	</node>
	<node id="-350241" lat="62.3608277752" lon="10.6383250044">
		<tag k="name" v="Tunndalen" />
		<tag k="natural" v="valley" />
		<tag k="place" v="locality" />
		<tag k="ssr:stedsnr" v="680000" />
	</node>
	<node id="-350240" lat="62.3648166657" lon="10.4475055648">
		<tag k="fixme" v="consider natural=peak for the most distinct mountains in the district" />
		<tag k="name" v="Skarpåsen" />
		<tag k="natural" v="hill" />
		<tag k="place" v="locality" />
		<tag k="ssr:stedsnr" v="679995" />
	</node>
	<node id="-350239" lat="62.3682611111" lon="10.7080527835">
		<tag k="alt_name" v="Tverråvorda" />
		<tag k="fixme" v="consider natural=peak for the most distinct mountains in the district" />
		<tag k="name" v="Tverrvola" />
		<tag k="natural" v="hill" />
		<tag k="old_name" v="Tverråvola" />
		<tag k="place" v="locality" />
		<tag k="ssr:stedsnr" v="679992" />
	</node>
	<node id="-350238" lat="62.3541666623" lon="10.3318250049">
		<tag k="name" v="Skrabben" />
		<tag k="natural" v="slope" />
		<tag k="place" v="locality" />
		<tag k="ssr:stedsnr" v="679988" />
	</node>
	<node id="-350236" lat="62.4788388848" lon="10.4623777794">
		<tag k="alt_name" v="Steinbekkdalen" />
		<tag k="name" v="Steindalen" />
		<tag k="natural" v="valley" />
		<tag k="place" v="locality" />
		<tag k="ssr:stedsnr" v="679846" />
	</node>
	<node id="-352282" lat="62.2733888856" lon="10.5493666692">
		<tag k="alt_name" v="Gråvorda" />
		<tag k="fixme" v="consider natural=peak for the most distinct mountains in the district" />
		<tag k="name" v="Gråvola" />
		<tag k="natural" v="hill" />
		<tag k="place" v="locality" />
		<tag k="ssr:stedsnr" v="801876" />
	</node>
	<node id="-350233" lat="62.3062916696" lon="10.457694438">
		<tag k="name" v="Mogardsdalen" />
		<tag k="natural" v="valley" />
		<tag k="place" v="locality" />
		<tag k="ssr:stedsnr" v="679920" />
	</node>
	<node id="-350229" lat="62.2938138888" lon="10.5496027754">
		<tag k="fixme" v="consider natural=peak for the most distinct mountains in the district" />
		<tag k="name" v="Kvikndølåsen" />
		<tag k="natural" v="hill" />
		<tag k="place" v="locality" />
		<tag k="ssr:stedsnr" v="679908" />
	</node>
	<node id="-350228" lat="62.2938305584" lon="10.4475083266">
		<tag k="fixme" v="consider natural=peak for the most distinct mountains in the district" />
		<tag k="name" v="Geitryggen" />
		<tag k="natural" v="hill" />
		<tag k="place" v="locality" />
		<tag k="ssr:stedsnr" v="679907" />
	</node>
	<node id="-350226" lat="62.284611108" lon="10.6051083323">
		<tag k="fixme" v="consider natural=peak for the most distinct mountains in the district" />
		<tag k="name" v="Bjørkåsen" />
		<tag k="natural" v="hill" />
		<tag k="place" v="locality" />
		<tag k="ssr:stedsnr" v="679895" />
	</node>
	<node id="-350225" lat="62.2810055591" lon="10.5396555476">
		<tag k="name" v="Skarvdalen" />
		<tag k="natural" v="valley" />
		<tag k="place" v="locality" />
		<tag k="ssr:stedsnr" v="679885" />
	</node>
	<node id="-352272" lat="62.3619388879" lon="10.5081500072">
		<tag k="alt_name" v="Strømsmoan" />
		<tag k="name" v="Straumsmoen" />
		<tag k="place" v="locality" />
		<tag k="ssr:stedsnr" v="800998" />
	</node>
	<node id="-350221" lat="62.4230138882" lon="10.3459611119">
		<tag k="name" v="Sottdalen" />
		<tag k="natural" v="valley" />
		<tag k="place" v="locality" />
		<tag k="ssr:stedsnr" v="679782" />
	</node>
	<node id="-349435" lat="62.3311111137" lon="10.6945861081">
		<tag k="name" v="Tverålia" />
		<tag k="natural" v="slope" />
		<tag k="place" v="locality" />
		<tag k="ssr:stedsnr" v="234075" />
	</node>
	<node id="-352263" lat="62.3826805582" lon="10.3859805472">
		<tag k="fixme" v="consider natural=peak for the most distinct mountains in the district" />
		<tag k="name" v="Storrabben" />
		<tag k="natural" v="hill" />
		<tag k="place" v="locality" />
		<tag k="ssr:stedsnr" v="800737" />
	</node>
	<node id="-352260" lat="62.4701250024" lon="10.3391416632">
		<tag k="name" v="Bjørndalen" />
		<tag k="natural" v="valley" />
		<tag k="place" v="locality" />
		<tag k="ssr:stedsnr" v="800855" />
	</node>
</osm>
