<?xml version="1.0" encoding="UTF-8"?>
<osm version="0.6" generator="osmapis">
	<node lat="68.45412222166195" lon="16.128513885181686" id="-40418">
		<tag k="name" v="Ørntuva" />
		<tag k="name:no" v="Ørntuva" />
		<tag k="natural" v="hill" />
		<tag k="place" v="locality" />
		<tag k="ssr:stedsnr" v="17209" />
	</node>
	<node lat="68.58936666573554" lon="16.178652766041" id="-40423">
		<tag k="fixme" v="consider natural=peak for the most distinct mountains in the district" />
		<tag k="name" v="Ruksok - Raudrapfjellet" />
		<tag k="name:no" v="Raudrapfjellet" />
		<tag k="name:se" v="Ruksok" />
		<tag k="natural" v="hill" />
		<tag k="place" v="locality" />
		<tag k="ssr:stedsnr" v="18789" />
	</node>
	<node lat="68.62232777384536" lon="16.690811102241312" id="-40427">
		<tag k="alt_name:no" v="Niptuven" />
		<tag k="name" v="Niptuva" />
		<tag k="name:no" v="Niptuva" />
		<tag k="natural" v="hill" />
		<tag k="place" v="locality" />
		<tag k="ssr:stedsnr" v="20242" />
	</node>
	<node lat="68.62839167064386" lon="16.629936112335656" id="-40428">
		<tag k="fixme" v="consider natural=peak for the most distinct mountains in the district" />
		<tag k="name" v="Heia" />
		<tag k="name:no" v="Heia" />
		<tag k="natural" v="hill" />
		<tag k="place" v="locality" />
		<tag k="ssr:stedsnr" v="20245" />
	</node>
	<node lat="68.61502777691601" lon="16.229186100734577" id="-40429">
		<tag k="name" v="Čahcariehppi" />
		<tag k="name:se" v="Čahcariehppi" />
		<tag k="natural" v="valley" />
		<tag k="old_name:se" v="Čaccarieppi" />
		<tag k="place" v="locality" />
		<tag k="ssr:stedsnr" v="20247" />
	</node>
	<node lat="68.58697500369466" lon="16.228777766897704" id="-40430">
		<tag k="name" v="Ivarskaret" />
		<tag k="name:no" v="Ivarskaret" />
		<tag k="natural" v="valley" />
		<tag k="place" v="locality" />
		<tag k="ssr:stedsnr" v="20189" />
	</node>
	<node lat="68.53151110967221" lon="16.493222211545838" id="-40431">
		<tag k="name" v="Nordtuva" />
		<tag k="name:no" v="Nordtuva" />
		<tag k="natural" v="hill" />
		<tag k="place" v="locality" />
		<tag k="ssr:stedsnr" v="20788" />
	</node>
	<node lat="68.50534166306682" lon="16.463261118856668" id="-40444">
		<tag k="fixme" v="consider natural=peak for the most distinct mountains in the district" />
		<tag k="name" v="Holtan" />
		<tag k="name:no" v="Holtan" />
		<tag k="natural" v="hill" />
		<tag k="place" v="locality" />
		<tag k="ssr:stedsnr" v="25072" />
	</node>
	<node lat="68.53490277825638" lon="16.651672218376117" id="-40446">
		<tag k="name" v="Melladalen" />
		<tag k="name:no" v="Melladalen" />
		<tag k="natural" v="valley" />
		<tag k="place" v="locality" />
		<tag k="ssr:stedsnr" v="235041" />
	</node>
	<node lat="68.52886110762188" lon="16.525902766753347" id="-40453">
		<tag k="name" v="Heihaugen" />
		<tag k="name:no" v="Heihaugen" />
		<tag k="natural" v="hill" />
		<tag k="place" v="locality" />
		<tag k="ssr:stedsnr" v="27013" />
	</node>
	<node lat="68.40295555867182" lon="16.117736116649265" id="-40455">
		<tag k="name" v="Oddeskaret" />
		<tag k="name:no" v="Oddeskaret" />
		<tag k="natural" v="valley" />
		<tag k="place" v="locality" />
		<tag k="ssr:stedsnr" v="27290" />
	</node>
	<node lat="68.40868611038928" lon="16.178180565914953" id="-40456">
		<tag k="name" v="Oddetinden" />
		<tag k="name:no" v="Oddetinden" />
		<tag k="natural" v="hill" />
		<tag k="place" v="locality" />
		<tag k="ssr:stedsnr" v="27296" />
	</node>
	<node lat="68.42253888518287" lon="16.251791655487025" id="-40462">
		<tag k="name" v="Øverdalen" />
		<tag k="name:no" v="Øverdalen" />
		<tag k="natural" v="valley" />
		<tag k="place" v="locality" />
		<tag k="ssr:stedsnr" v="27619" />
	</node>
	<node lat="68.5877361118998" lon="16.324880554256566" id="-40463">
		<tag k="name" v="Sæterdalen" />
		<tag k="name:no" v="Sæterdalen" />
		<tag k="natural" v="valley" />
		<tag k="place" v="locality" />
		<tag k="ssr:stedsnr" v="27620" />
	</node>
	<node lat="68.41933055800256" lon="16.117936105553913" id="-40466">
		<tag k="name" v="Rødsanden" />
		<tag k="name:no" v="Rødsanden" />
		<tag k="natural" v="hill" />
		<tag k="place" v="locality" />
		<tag k="ssr:stedsnr" v="27690" />
	</node>
	<node lat="68.42905277372392" lon="16.42883056287621" id="-40467">
		<tag k="name" v="Rødsteinlægda" />
		<tag k="name:no" v="Rødsteinlægda" />
		<tag k="place" v="locality" />
		<tag k="ssr:stedsnr" v="27721" />
	</node>
	<node lat="68.50271388766798" lon="16.64264167246703" id="-40468">
		<tag k="name" v="Skavlia" />
		<tag k="name:no" v="Skavlia" />
		<tag k="natural" v="slope" />
		<tag k="place" v="locality" />
		<tag k="ssr:stedsnr" v="235101" />
	</node>
	<node lat="68.52901388794477" lon="16.6512666607171" id="-40469">
		<tag k="name" v="Laslettlia" />
		<tag k="name:no" v="Laslettlia" />
		<tag k="natural" v="slope" />
		<tag k="place" v="locality" />
		<tag k="ssr:stedsnr" v="235013" />
	</node>
	<node lat="68.66886111360564" lon="17.153780563162517" id="-40475">
		<tag k="name" v="Løvmoen" />
		<tag k="name:no" v="Løvmoen" />
		<tag k="place" v="locality" />
		<tag k="ssr:stedsnr" v="235647" />
	</node>
	<node lat="68.64165555936296" lon="16.616391676685975" id="-40477">
		<tag k="name" v="Geithågen" />
		<tag k="name:no" v="Geithågen" />
		<tag k="natural" v="hill" />
		<tag k="place" v="locality" />
		<tag k="ssr:stedsnr" v="235851" />
	</node>
	<node lat="68.65323611119683" lon="16.762705549480273" id="-40479">
		<tag k="name" v="Store Lappekjelhaugen" />
		<tag k="name:no" v="Store Lappekjelhaugen" />
		<tag k="natural" v="hill" />
		<tag k="place" v="locality" />
		<tag k="ssr:stedsnr" v="235989" />
	</node>
	<node lat="68.64012222381085" lon="17.111022216556126" id="-40482">
		<tag k="name" v="Seljashola" />
		<tag k="name:no" v="Seljashola" />
		<tag k="natural" v="valley" />
		<tag k="place" v="locality" />
		<tag k="ssr:stedsnr" v="236659" />
	</node>
	<node lat="68.67514444041998" lon="17.036252779820433" id="-40484">
		<tag k="name" v="Olderskaret" />
		<tag k="name:no" v="Olderskaret" />
		<tag k="natural" v="valley" />
		<tag k="place" v="locality" />
		<tag k="ssr:stedsnr" v="236919" />
	</node>
	<node lat="68.67066110918609" lon="16.74862777421995" id="-40486">
		<tag k="fixme" v="consider natural=peak for the most distinct mountains in the district" />
		<tag k="name" v="Sandfjellet" />
		<tag k="name:no" v="Sandfjellet" />
		<tag k="natural" v="hill" />
		<tag k="place" v="locality" />
		<tag k="ssr:stedsnr" v="236968" />
	</node>
	<node lat="68.57664166501235" lon="16.235133342313862" id="-40487">
		<tag k="name" v="Langbakken" />
		<tag k="name:no" v="Langbakken" />
		<tag k="natural" v="slope" />
		<tag k="place" v="locality" />
		<tag k="ssr:stedsnr" v="41917" />
	</node>
	<node lat="68.57710555569504" lon="16.248875009758468" id="-40488">
		<tag k="name" v="Snyholrabben" />
		<tag k="name:no" v="Snyholrabben" />
		<tag k="natural" v="ridge" />
		<tag k="place" v="locality" />
		<tag k="ssr:stedsnr" v="41921" />
	</node>
	<node lat="68.51908055384445" lon="16.722038898998132" id="-40490">
		<tag k="name" v="Svartvasshaugen" />
		<tag k="name:no" v="Svartvasshaugen" />
		<tag k="natural" v="hill" />
		<tag k="place" v="locality" />
		<tag k="ssr:stedsnr" v="54002" />
	</node>
	<node lat="68.5642861145955" lon="16.717844440039798" id="-40491">
		<tag k="name" v="Grønnlia" />
		<tag k="name:no" v="Grønnlia" />
		<tag k="natural" v="slope" />
		<tag k="place" v="locality" />
		<tag k="ssr:stedsnr" v="54174" />
	</node>
	<node lat="68.69329722550157" lon="16.95725278112941" id="-40494">
		<tag k="name" v="Olderbakken" />
		<tag k="name:no" v="Olderbakken" />
		<tag k="natural" v="slope" />
		<tag k="place" v="locality" />
		<tag k="ssr:stedsnr" v="54574" />
	</node>
	<node lat="68.59074444701959" lon="16.210152784152665" id="-40504">
		<tag k="fixme" v="consider natural=peak for the most distinct mountains in the district" />
		<tag k="name" v="Vollfjellet" />
		<tag k="name:no" v="Vollfjellet" />
		<tag k="natural" v="hill" />
		<tag k="place" v="locality" />
		<tag k="ssr:stedsnr" v="78846" />
	</node>
	<node lat="68.59107499972289" lon="16.190138884902414" id="-40507">
		<tag k="name" v="Kongsvikdalen" />
		<tag k="name:no" v="Kongsvikdalen" />
		<tag k="natural" v="valley" />
		<tag k="place" v="locality" />
		<tag k="ssr:stedsnr" v="79807" />
	</node>
	<node lat="68.52814999756617" lon="16.493411119713738" id="-40509">
		<tag k="fixme" v="consider natural=peak for the most distinct mountains in the district" />
		<tag k="name" v="Sørtuva" />
		<tag k="name:no" v="Sørtuva" />
		<tag k="natural" v="hill" />
		<tag k="place" v="locality" />
		<tag k="ssr:stedsnr" v="80790" />
	</node>
	<node lat="68.6699166627413" lon="16.777944450465547" id="-40513">
		<tag k="fixme" v="consider natural=peak for the most distinct mountains in the district" />
		<tag k="name" v="Kjellåsen" />
		<tag k="name:no" v="Kjellåsen" />
		<tag k="natural" v="hill" />
		<tag k="place" v="locality" />
		<tag k="ssr:stedsnr" v="81103" />
	</node>
	<node lat="68.59182777932978" lon="16.653330556162338" id="-40516">
		<tag k="name" v="Steinbakkan" />
		<tag k="name:no" v="Steinbakkan" />
		<tag k="natural" v="slope" />
		<tag k="place" v="locality" />
		<tag k="ssr:stedsnr" v="81195" />
	</node>
	<node lat="68.5789111092369" lon="16.95422499718445" id="-40526">
		<tag k="fixme" v="multiple name tags, choose one and add the other to alt_name; consider natural=peak for the most distinct mountains in the district" />
		<tag k="name" v="Nástečohkka;Baikalágčohkka - Skittendalstinden" />
		<tag k="name:no" v="Skittendalstinden" />
		<tag k="name:se" v="Nástečohkka;Baikalágčohkka" />
		<tag k="natural" v="hill" />
		<tag k="place" v="locality" />
		<tag k="ssr:stedsnr" v="81925" />
	</node>
	<node lat="68.55352777608985" lon="16.36139443121899" id="-40533">
		<tag k="name" v="Kjerkporten" />
		<tag k="name:no" v="Kjerkporten" />
		<tag k="place" v="locality" />
		<tag k="ssr:stedsnr" v="85081" />
	</node>
	<node lat="68.66169721970623" lon="17.208086098426673" id="-40535">
		<tag k="name" v="Riidoluohkká" />
		<tag k="name:se" v="Riidoluohkká" />
		<tag k="natural" v="slope" />
		<tag k="place" v="locality" />
		<tag k="ssr:stedsnr" v="85208" />
	</node>
	<node lat="68.44354444375212" lon="16.153119440880467" id="-40538">
		<tag k="name" v="Grønnmyrhaugen" />
		<tag k="name:no" v="Grønnmyrhaugen" />
		<tag k="natural" v="hill" />
		<tag k="place" v="locality" />
		<tag k="ssr:stedsnr" v="85585" />
	</node>
	<node lat="68.44381389076595" lon="16.157549988913843" id="-40539">
		<tag k="name" v="Straumhalsen" />
		<tag k="name:no" v="Straumhalsen" />
		<tag k="place" v="locality" />
		<tag k="ssr:stedsnr" v="85586" />
	</node>
	<node lat="68.54751111348597" lon="16.13618056801911" id="-40541">
		<tag k="name" v="Storeinbakk" />
		<tag k="name:no" v="Storeinbakk" />
		<tag k="natural" v="slope" />
		<tag k="place" v="locality" />
		<tag k="ssr:stedsnr" v="85709" />
	</node>
	<node lat="68.53065555458534" lon="16.472549988025932" id="-40545">
		<tag k="name" v="Forrholtbergan" />
		<tag k="name:no" v="Forrholtbergan" />
		<tag k="natural" v="hill" />
		<tag k="place" v="locality" />
		<tag k="ssr:stedsnr" v="86682" />
	</node>
	<node lat="68.48891111180428" lon="16.15350000183898" id="-40547">
		<tag k="name" v="Storhaugen" />
		<tag k="name:no" v="Storhaugen" />
		<tag k="natural" v="hill" />
		<tag k="place" v="locality" />
		<tag k="ssr:stedsnr" v="87010" />
	</node>
	<node lat="68.47504166734147" lon="16.486488894019054" id="-40549">
		<tag k="name" v="Klokka 8-steinen" />
		<tag k="name:no" v="Klokka 8-steinen" />
		<tag k="place" v="locality" />
		<tag k="ssr:stedsnr" v="88314" />
	</node>
	<node lat="68.42812499732952" lon="16.360099994455233" id="-40554">
		<tag k="name" v="Kvardagsbakken" />
		<tag k="name:no" v="Kvardagsbakken" />
		<tag k="natural" v="slope" />
		<tag k="place" v="locality" />
		<tag k="ssr:stedsnr" v="88674" />
	</node>
	<node lat="68.53649166630018" lon="16.668838891004803" id="-40561">
		<tag k="name" v="Hestholla" />
		<tag k="name:no" v="Hestholla" />
		<tag k="natural" v="valley" />
		<tag k="place" v="locality" />
		<tag k="ssr:stedsnr" v="114024" />
	</node>
	<node lat="68.57260555762336" lon="16.631891673551507" id="-40563">
		<tag k="name" v="Skjeppholbakken" />
		<tag k="name:no" v="Skjeppholbakken" />
		<tag k="natural" v="slope" />
		<tag k="place" v="locality" />
		<tag k="ssr:stedsnr" v="114181" />
	</node>
	<node lat="68.56612777819973" lon="16.633874999681126" id="-40565">
		<tag k="name" v="Bratthammaren" />
		<tag k="name:no" v="Bratthammaren" />
		<tag k="natural" v="hill" />
		<tag k="place" v="locality" />
		<tag k="ssr:stedsnr" v="114184" />
	</node>
	<node lat="68.705227773828" lon="16.957558323180425" id="-40566">
		<tag k="name" v="Nabbeberget" />
		<tag k="name:no" v="Nabbeberget" />
		<tag k="natural" v="hill" />
		<tag k="place" v="locality" />
		<tag k="ssr:stedsnr" v="114608" />
	</node>
	<node lat="68.57959444896444" lon="17.257713884123973" id="-40567">
		<tag k="name" v="Stordalen" />
		<tag k="name:no" v="Stordalen" />
		<tag k="natural" v="valley" />
		<tag k="place" v="locality" />
		<tag k="ssr:stedsnr" v="114676" />
	</node>
	<node lat="68.60274722266739" lon="16.67697778279219" id="-40579">
		<tag k="name" v="Lysvasshaugen" />
		<tag k="name:no" v="Lysvasshaugen" />
		<tag k="natural" v="hill" />
		<tag k="place" v="locality" />
		<tag k="ssr:stedsnr" v="141206" />
	</node>
	<node lat="68.66850277864867" lon="16.805477786348302" id="-40581">
		<tag k="fixme" v="consider natural=peak for the most distinct mountains in the district" />
		<tag k="name" v="Bakåsen" />
		<tag k="name:no" v="Bakåsen" />
		<tag k="natural" v="hill" />
		<tag k="place" v="locality" />
		<tag k="ssr:stedsnr" v="141105" />
	</node>
	<node lat="68.63553333265634" lon="17.194333334735514" id="-40585">
		<tag k="fixme" v="consider natural=peak for the most distinct mountains in the district" />
		<tag k="name" v="Holtan" />
		<tag k="name:no" v="Holtan" />
		<tag k="natural" v="hill" />
		<tag k="place" v="locality" />
		<tag k="ssr:stedsnr" v="141888" />
	</node>
	<node lat="68.45340833247423" lon="16.147386117417334" id="-40589">
		<tag k="name" v="Langhaugen" />
		<tag k="name:no" v="Langhaugen" />
		<tag k="natural" v="hill" />
		<tag k="place" v="locality" />
		<tag k="ssr:stedsnr" v="145675" />
	</node>
	<node lat="68.54921388686633" lon="16.54269721662773" id="-40596">
		<tag k="name" v="Geitberget" />
		<tag k="name:no" v="Geitberget" />
		<tag k="natural" v="hill" />
		<tag k="place" v="locality" />
		<tag k="ssr:stedsnr" v="146469" />
	</node>
	<node lat="68.55124999668166" lon="16.552488878529708" id="-40597">
		<tag k="name" v="Kvitberget" />
		<tag k="name:no" v="Kvitberget" />
		<tag k="natural" v="hill" />
		<tag k="place" v="locality" />
		<tag k="ssr:stedsnr" v="146470" />
	</node>
	<node lat="68.53448889356461" lon="16.519841658995386" id="-40598">
		<tag k="fixme" v="consider natural=peak for the most distinct mountains in the district" />
		<tag k="name" v="Åsan" />
		<tag k="name:no" v="Åsan" />
		<tag k="natural" v="hill" />
		<tag k="place" v="locality" />
		<tag k="ssr:stedsnr" v="146481" />
	</node>
	<node lat="68.5402138912227" lon="16.4153972106616" id="-40599">
		<tag k="name" v="Bjørnbanken" />
		<tag k="name:no" v="Bjørnbanken" />
		<tag k="place" v="locality" />
		<tag k="ssr:stedsnr" v="146715" />
	</node>
	<node lat="68.42047777353584" lon="16.247344443563243" id="-40603">
		<tag k="name" v="Nerdalen" />
		<tag k="name:no" v="Nerdalen" />
		<tag k="natural" v="valley" />
		<tag k="place" v="locality" />
		<tag k="ssr:stedsnr" v="148414" />
	</node>
	<node lat="68.40338333470214" lon="16.148313881121634" id="-40605">
		<tag k="fixme" v="consider natural=peak for the most distinct mountains in the district" />
		<tag k="name" v="Oddeaksla" />
		<tag k="name:no" v="Oddeaksla" />
		<tag k="natural" v="hill" />
		<tag k="place" v="locality" />
		<tag k="ssr:stedsnr" v="148302" />
	</node>
	<node lat="68.40303055654275" lon="16.116102785096057" id="-40607">
		<tag k="name" v="Skarhaugen" />
		<tag k="name:no" v="Skarhaugen" />
		<tag k="natural" v="hill" />
		<tag k="place" v="locality" />
		<tag k="ssr:stedsnr" v="148306" />
	</node>
	<node lat="68.44126388731549" lon="16.17569443112882" id="-40610">
		<tag k="fixme" v="consider natural=peak for the most distinct mountains in the district" />
		<tag k="name" v="Rabban" />
		<tag k="name:no" v="Rabban" />
		<tag k="natural" v="hill" />
		<tag k="place" v="locality" />
		<tag k="ssr:stedsnr" v="148363" />
	</node>
	<node lat="68.46611111187161" lon="16.453897212812194" id="-40612">
		<tag k="name" v="Nilsteigen" />
		<tag k="name:no" v="Nilsteigen" />
		<tag k="place" v="locality" />
		<tag k="ssr:stedsnr" v="148374" />
	</node>
	<node lat="68.4537972211302" lon="16.415352781756635" id="-40614">
		<tag k="name" v="Humpen" />
		<tag k="name:no" v="Humpen" />
		<tag k="natural" v="hill" />
		<tag k="place" v="locality" />
		<tag k="ssr:stedsnr" v="148708" />
	</node>
	<node lat="68.43319721921264" lon="16.394461112196954" id="-40615">
		<tag k="name" v="Komilberget" />
		<tag k="name:no" v="Komilberget" />
		<tag k="natural" v="hill" />
		<tag k="place" v="locality" />
		<tag k="ssr:stedsnr" v="148720" />
	</node>
	<node lat="68.43759444810223" lon="16.401969454289645" id="-40616">
		<tag k="name" v="Gunnarhola" />
		<tag k="name:no" v="Gunnarhola" />
		<tag k="natural" v="valley" />
		<tag k="place" v="locality" />
		<tag k="ssr:stedsnr" v="148721" />
	</node>
	<node lat="68.42523611387696" lon="16.337608324035834" id="-40617">
		<tag k="name" v="Gammhaugen" />
		<tag k="name:no" v="Gammhaugen" />
		<tag k="natural" v="hill" />
		<tag k="place" v="locality" />
		<tag k="ssr:stedsnr" v="148763" />
	</node>
	<node lat="68.4558249985629" lon="16.38550276568181" id="-40620">
		<tag k="name" v="Slåtthaugen" />
		<tag k="name:no" v="Slåtthaugen" />
		<tag k="natural" v="hill" />
		<tag k="place" v="locality" />
		<tag k="ssr:stedsnr" v="148659" />
	</node>
	<node lat="68.44595555313023" lon="16.306222226786655" id="-40628">
		<tag k="name" v="Nituva" />
		<tag k="name:no" v="Nituva" />
		<tag k="natural" v="hill" />
		<tag k="place" v="locality" />
		<tag k="ssr:stedsnr" v="259436" />
	</node>
	<node lat="68.53179721987752" lon="16.584708334491644" id="-40636">
		<tag k="name" v="Blombakkan" />
		<tag k="name:no" v="Blombakkan" />
		<tag k="natural" v="slope" />
		<tag k="place" v="locality" />
		<tag k="ssr:stedsnr" v="175070" />
	</node>
	<node lat="68.53675555760422" lon="16.57937222570517" id="-40637">
		<tag k="name" v="Storsletta" />
		<tag k="name:no" v="Storsletta" />
		<tag k="place" v="locality" />
		<tag k="ssr:stedsnr" v="175073" />
	</node>
	<node lat="68.57814721780257" lon="16.661719450655866" id="-40638">
		<tag k="name" v="Høgåssletten" />
		<tag k="name:no" v="Høgåssletten" />
		<tag k="place" v="locality" />
		<tag k="ssr:stedsnr" v="175204" />
	</node>
	<node lat="68.56507222224849" lon="16.66830833698452" id="-40640">
		<tag k="name" v="Kvitberget" />
		<tag k="name:no" v="Kvitberget" />
		<tag k="natural" v="hill" />
		<tag k="place" v="locality" />
		<tag k="ssr:stedsnr" v="175167" />
	</node>
	<node lat="68.66402500326632" lon="16.737908330422094" id="-40642">
		<tag k="fixme" v="consider natural=peak for the most distinct mountains in the district" />
		<tag k="name" v="Kvitfjellet" />
		<tag k="name:no" v="Kvitfjellet" />
		<tag k="natural" v="hill" />
		<tag k="place" v="locality" />
		<tag k="ssr:stedsnr" v="175956" />
	</node>
	<node lat="68.67900555990931" lon="16.834777770842457" id="-40643">
		<tag k="name" v="Kvitberget" />
		<tag k="name:no" v="Kvitberget" />
		<tag k="natural" v="hill" />
		<tag k="place" v="locality" />
		<tag k="ssr:stedsnr" v="175970" />
	</node>
	<node lat="68.56820833625696" lon="16.713236116245692" id="-40644">
		<tag k="name" v="Brattbakken" />
		<tag k="name:no" v="Brattbakken" />
		<tag k="natural" v="slope" />
		<tag k="place" v="locality" />
		<tag k="ssr:stedsnr" v="262139" />
	</node>
	<node lat="68.50408055304611" lon="16.622949988103507" id="-40645">
		<tag k="fixme" v="consider natural=peak for the most distinct mountains in the district" />
		<tag k="name" v="Høgåsen" />
		<tag k="name:no" v="Høgåsen" />
		<tag k="natural" v="hill" />
		<tag k="place" v="locality" />
		<tag k="ssr:stedsnr" v="262536" />
	</node>
	<node lat="68.52785277330284" lon="16.55561112029777" id="-40646">
		<tag k="fixme" v="consider natural=peak for the most distinct mountains in the district" />
		<tag k="name" v="Kvitfjellet" />
		<tag k="name:no" v="Kvitfjellet" />
		<tag k="natural" v="hill" />
		<tag k="place" v="locality" />
		<tag k="ssr:stedsnr" v="262818" />
	</node>
	<node lat="68.61968888742904" lon="17.411499986284444" id="-40648">
		<tag k="fixme" v="consider natural=peak for the most distinct mountains in the district" />
		<tag k="name" v="Hábak" />
		<tag k="name:se" v="Hábak" />
		<tag k="natural" v="hill" />
		<tag k="place" v="locality" />
		<tag k="ssr:stedsnr" v="262912" />
	</node>
	<node lat="68.635938889239" lon="16.632316670718765" id="-40653">
		<tag k="fixme" v="consider natural=peak for the most distinct mountains in the district" />
		<tag k="name" v="Beahcevárri - Kvitnesveten" />
		<tag k="name:no" v="Kvitnesveten" />
		<tag k="name:se" v="Beahcevárri" />
		<tag k="natural" v="hill" />
		<tag k="old_name:se" v="Bæccevarri" />
		<tag k="place" v="locality" />
		<tag k="ssr:stedsnr" v="263030" />
	</node>
	<node lat="68.59059722251095" lon="16.282205546765315" id="-40654">
		<tag k="name" v="Hodegariehppi - Tindhola" />
		<tag k="name:no" v="Tindhola" />
		<tag k="name:se" v="Hodegariehppi" />
		<tag k="natural" v="valley" />
		<tag k="place" v="locality" />
		<tag k="ssr:stedsnr" v="263221" />
	</node>
	<node lat="68.54930555586103" lon="16.64961666534404" id="-40656">
		<tag k="alt_name:no" v="Løhågan" />
		<tag k="name" v="Løhaugen" />
		<tag k="name:no" v="Løhaugen" />
		<tag k="natural" v="hill" />
		<tag k="place" v="locality" />
		<tag k="ssr:stedsnr" v="263850" />
	</node>
	<node lat="68.53900000482183" lon="16.649277770266167" id="-40661">
		<tag k="name" v="Gårdsletta" />
		<tag k="name:no" v="Gårdsletta" />
		<tag k="place" v="locality" />
		<tag k="ssr:stedsnr" v="263872" />
	</node>
	<node lat="68.6805249965691" lon="17.198474996639188" id="-40663">
		<tag k="name" v="Roabanjunni" />
		<tag k="name:se" v="Roabanjunni" />
		<tag k="natural" v="ridge" />
		<tag k="place" v="locality" />
		<tag k="ssr:stedsnr" v="263973" />
	</node>
	<node lat="68.61615926044962" lon="16.850480012611808" id="-40664">
		<tag k="fixme" v="consider natural=peak for the most distinct mountains in the district" />
		<tag k="name" v="Vilgesvárri - Blåfjellet" />
		<tag k="name:no" v="Blåfjellet" />
		<tag k="name:se" v="Vilgesvárri" />
		<tag k="natural" v="hill" />
		<tag k="place" v="locality" />
		<tag k="ssr:stedsnr" v="264517" />
	</node>
	<node lat="68.5609249993581" lon="16.170672227816542" id="-40671">
		<tag k="fixme" v="consider natural=peak for the most distinct mountains in the district" />
		<tag k="name" v="Mølnskartinden" />
		<tag k="name:no" v="Mølnskartinden" />
		<tag k="natural" v="hill" />
		<tag k="place" v="locality" />
		<tag k="ssr:stedsnr" v="199857" />
	</node>
	<node lat="68.46872777934409" lon="16.140463887072762" id="-40674">
		<tag k="name" v="Kjerringdalen" />
		<tag k="name:no" v="Kjerringdalen" />
		<tag k="natural" v="valley" />
		<tag k="place" v="locality" />
		<tag k="ssr:stedsnr" v="267500" />
	</node>
	<node lat="68.56089444346911" lon="16.82361388356201" id="-40681">
		<tag k="name" v="Mersskaret - Meresgurra" />
		<tag k="name:no" v="Mersskaret" />
		<tag k="name:se" v="Meresgurra" />
		<tag k="natural" v="valley" />
		<tag k="place" v="locality" />
		<tag k="ssr:stedsnr" v="202940" />
	</node>
	<node lat="68.49904999769755" lon="16.51272221611199" id="-40685">
		<tag k="name" v="Steinbakkan" />
		<tag k="name:no" v="Steinbakkan" />
		<tag k="natural" v="slope" />
		<tag k="place" v="locality" />
		<tag k="ssr:stedsnr" v="268117" />
	</node>
	<node lat="68.49013333663147" lon="16.16623610959851" id="-40687">
		<tag k="name" v="Storlægda" />
		<tag k="name:no" v="Storlægda" />
		<tag k="natural" v="valley" />
		<tag k="place" v="locality" />
		<tag k="ssr:stedsnr" v="268070" />
	</node>
	<node lat="68.49836944142757" lon="16.521433330647575" id="-40689">
		<tag k="name" v="Sekelia" />
		<tag k="name:no" v="Sekelia" />
		<tag k="natural" v="slope" />
		<tag k="place" v="locality" />
		<tag k="ssr:stedsnr" v="268121" />
	</node>
	<node lat="68.50688610792247" lon="16.486311111364454" id="-40690">
		<tag k="name" v="Rambølian" />
		<tag k="name:no" v="Rambølian" />
		<tag k="natural" v="slope" />
		<tag k="place" v="locality" />
		<tag k="ssr:stedsnr" v="268122" />
	</node>
	<node lat="68.5184305544289" lon="16.196469436984565" id="-40692">
		<tag k="name" v="Dorteahaugen" />
		<tag k="name:no" v="Dorteahaugen" />
		<tag k="natural" v="hill" />
		<tag k="place" v="locality" />
		<tag k="ssr:stedsnr" v="268413" />
	</node>
	<node lat="68.51219444792075" lon="16.19076667217087" id="-40693">
		<tag k="name" v="Høykråbergan" />
		<tag k="name:no" v="Høykråbergan" />
		<tag k="natural" v="hill" />
		<tag k="place" v="locality" />
		<tag k="ssr:stedsnr" v="268415" />
	</node>
	<node lat="68.5695611083496" lon="16.25282777382897" id="-40698">
		<tag k="name" v="Kråkbakken" />
		<tag k="name:no" v="Kråkbakken" />
		<tag k="natural" v="slope" />
		<tag k="place" v="locality" />
		<tag k="ssr:stedsnr" v="268551" />
	</node>
	<node lat="68.53675555654905" lon="16.488519440105758" id="-40701">
		<tag k="name" v="Lian" />
		<tag k="name:no" v="Lian" />
		<tag k="natural" v="slope" />
		<tag k="place" v="locality" />
		<tag k="ssr:stedsnr" v="268669" />
	</node>
	<node lat="68.51404166605987" lon="16.21930000814175" id="-40702">
		<tag k="name" v="Renndalen" />
		<tag k="name:no" v="Renndalen" />
		<tag k="natural" v="valley" />
		<tag k="place" v="locality" />
		<tag k="ssr:stedsnr" v="207431" />
	</node>
	<node lat="68.56947778171077" lon="16.18695556786157" id="-40706">
		<tag k="fixme" v="consider natural=peak for the most distinct mountains in the district" />
		<tag k="name" v="Kvitskredfjellet" />
		<tag k="name:no" v="Kvitskredfjellet" />
		<tag k="natural" v="hill" />
		<tag k="place" v="locality" />
		<tag k="ssr:stedsnr" v="207536" />
	</node>
	<node lat="68.49830833196978" lon="16.165708329141605" id="-40708">
		<tag k="name" v="Moshaugen" />
		<tag k="name:no" v="Moshaugen" />
		<tag k="natural" v="hill" />
		<tag k="place" v="locality" />
		<tag k="ssr:stedsnr" v="269055" />
	</node>
	<node lat="68.43996667035115" lon="16.347280544493284" id="-40717">
		<tag k="name" v="Mølna i Forsen" />
		<tag k="name:no" v="Mølna i Forsen" />
		<tag k="place" v="locality" />
		<tag k="ssr:stedsnr" v="209750" />
	</node>
	<node lat="68.41293889215227" lon="16.0918333232275" id="-40720">
		<tag k="name" v="Bekkekjerran" />
		<tag k="name:no" v="Bekkekjerran" />
		<tag k="place" v="locality" />
		<tag k="ssr:stedsnr" v="270398" />
	</node>
	<node lat="68.42175832914751" lon="16.104188895456186" id="-40723">
		<tag k="name" v="Kjeldhaugen" />
		<tag k="name:no" v="Kjeldhaugen" />
		<tag k="natural" v="hill" />
		<tag k="place" v="locality" />
		<tag k="ssr:stedsnr" v="270459" />
	</node>
	<node lat="68.4170944439206" lon="16.090297226839677" id="-40729">
		<tag k="name" v="Rundhaugen" />
		<tag k="name:no" v="Rundhaugen" />
		<tag k="natural" v="hill" />
		<tag k="place" v="locality" />
		<tag k="ssr:stedsnr" v="270407" />
	</node>
	<node lat="68.4263138897812" lon="16.332297228240805" id="-40731">
		<tag k="name" v="Flota" />
		<tag k="name:no" v="Flota" />
		<tag k="place" v="locality" />
		<tag k="ssr:stedsnr" v="270540" />
	</node>
	<node lat="68.4524583355778" lon="16.386577784118543" id="-40733">
		<tag k="name" v="Forrholtan" />
		<tag k="name:no" v="Forrholtan" />
		<tag k="natural" v="hill" />
		<tag k="place" v="locality" />
		<tag k="ssr:stedsnr" v="270644" />
	</node>
	<node lat="68.44129722404008" lon="16.454811105079877" id="-40734">
		<tag k="name" v="Moen" />
		<tag k="name:no" v="Moen" />
		<tag k="place" v="locality" />
		<tag k="ssr:stedsnr" v="270843" />
	</node>
	<node lat="68.43757777454199" lon="16.438333338862172" id="-40735">
		<tag k="fixme" v="consider natural=peak for the most distinct mountains in the district" />
		<tag k="name" v="Hallarkollen" />
		<tag k="name:no" v="Hallarkollen" />
		<tag k="natural" v="hill" />
		<tag k="place" v="locality" />
		<tag k="ssr:stedsnr" v="270844" />
	</node>
	<node lat="68.55621666968226" lon="16.114236118345744" id="-40736">
		<tag k="name" v="Einhaugen" />
		<tag k="name:no" v="Einhaugen" />
		<tag k="natural" v="hill" />
		<tag k="place" v="locality" />
		<tag k="ssr:stedsnr" v="223852" />
	</node>
	<node lat="68.45186666326903" lon="16.164069445649062" id="-40737">
		<tag k="name" v="Olslia" />
		<tag k="name:no" v="Olslia" />
		<tag k="natural" v="slope" />
		<tag k="place" v="locality" />
		<tag k="ssr:stedsnr" v="449636" />
	</node>
	<node lat="68.45580833543107" lon="16.14113611214683" id="-40739">
		<tag k="name" v="Skoghola" />
		<tag k="name:no" v="Skoghola" />
		<tag k="natural" v="valley" />
		<tag k="place" v="locality" />
		<tag k="ssr:stedsnr" v="449665" />
	</node>
	<node lat="68.45279722420626" lon="16.1272333271729" id="-40740">
		<tag k="name" v="Blåbærskaret" />
		<tag k="name:no" v="Blåbærskaret" />
		<tag k="natural" v="valley" />
		<tag k="place" v="locality" />
		<tag k="ssr:stedsnr" v="449687" />
	</node>
	<node lat="68.45234444266264" lon="16.132444444639475" id="-40741">
		<tag k="name" v="Moshaugen" />
		<tag k="name:no" v="Moshaugen" />
		<tag k="natural" v="hill" />
		<tag k="place" v="locality" />
		<tag k="ssr:stedsnr" v="449691" />
	</node>
	<node lat="68.52098889291727" lon="16.666272228350955" id="-40742">
		<tag k="name" v="Bakkelia" />
		<tag k="name:no" v="Bakkelia" />
		<tag k="natural" v="slope" />
		<tag k="place" v="locality" />
		<tag k="ssr:stedsnr" v="235011" />
	</node>
	<node lat="68.53211388911609" lon="16.626733333841823" id="-40743">
		<tag k="name" v="Kallbakketua" />
		<tag k="name:no" v="Kallbakketua" />
		<tag k="natural" v="hill" />
		<tag k="place" v="locality" />
		<tag k="ssr:stedsnr" v="235081" />
	</node>
	<node lat="68.53466388858772" lon="16.624711101827202" id="-40744">
		<tag k="name" v="Kallbakkan" />
		<tag k="name:no" v="Kallbakkan" />
		<tag k="natural" v="slope" />
		<tag k="place" v="locality" />
		<tag k="ssr:stedsnr" v="235082" />
	</node>
	<node lat="68.53357500175682" lon="16.579077789356123" id="-40745">
		<tag k="name" v="Litleneset" />
		<tag k="name:no" v="Litleneset" />
		<tag k="natural" v="slope" />
		<tag k="place" v="locality" />
		<tag k="ssr:stedsnr" v="235088" />
	</node>
	<node lat="68.49407500054792" lon="16.53802222635874" id="-40747">
		<tag k="name" v="Rødholten" />
		<tag k="name:no" v="Rødholten" />
		<tag k="natural" v="hill" />
		<tag k="place" v="locality" />
		<tag k="ssr:stedsnr" v="450089" />
	</node>
	<node lat="68.49554999741231" lon="16.557669435681458" id="-40748">
		<tag k="name" v="Reingjerdan" />
		<tag k="name:no" v="Reingjerdan" />
		<tag k="natural" v="hill" />
		<tag k="place" v="locality" />
		<tag k="ssr:stedsnr" v="450091" />
	</node>
	<node lat="68.52429444544217" lon="16.525105546685268" id="-40749">
		<tag k="name" v="Kvannsletten" />
		<tag k="name:no" v="Kvannsletten" />
		<tag k="place" v="locality" />
		<tag k="ssr:stedsnr" v="450098" />
	</node>
	<node lat="68.59082499846147" lon="16.593608329072786" id="-40751">
		<tag k="name" v="Myrmoen" />
		<tag k="name:no" v="Myrmoen" />
		<tag k="place" v="locality" />
		<tag k="ssr:stedsnr" v="235254" />
	</node>
	<node lat="68.56470277745368" lon="16.730530556088265" id="-40753">
		<tag k="name" v="Hegghaugen" />
		<tag k="name:no" v="Hegghaugen" />
		<tag k="natural" v="hill" />
		<tag k="place" v="locality" />
		<tag k="ssr:stedsnr" v="235786" />
	</node>
	<node lat="68.62658888923659" lon="16.740124998674982" id="-40754">
		<tag k="name" v="Strutsen" />
		<tag k="name:no" v="Strutsen" />
		<tag k="natural" v="hill" />
		<tag k="place" v="locality" />
		<tag k="ssr:stedsnr" v="235790" />
	</node>
	<node lat="68.66091110949674" lon="16.886036117585764" id="-40755">
		<tag k="fixme" v="consider natural=peak for the most distinct mountains in the district" />
		<tag k="name" v="Reingjerdshøgda" />
		<tag k="name:no" v="Reingjerdshøgda" />
		<tag k="natural" v="hill" />
		<tag k="place" v="locality" />
		<tag k="ssr:stedsnr" v="235912" />
	</node>
	<node lat="68.65129166814093" lon="16.7820805516356" id="-40758">
		<tag k="name" v="Kvannelvberget" />
		<tag k="name:no" v="Kvannelvberget" />
		<tag k="natural" v="hill" />
		<tag k="place" v="locality" />
		<tag k="ssr:stedsnr" v="236980" />
	</node>
	<node lat="68.52397222383783" lon="16.495166671939273" id="-40762">
		<tag k="name" v="Sørtuvskaret" />
		<tag k="name:no" v="Sørtuvskaret" />
		<tag k="natural" v="valley" />
		<tag k="place" v="locality" />
		<tag k="ssr:stedsnr" v="450698" />
	</node>
	<node lat="68.53648056000164" lon="16.47513332254146" id="-40763">
		<tag k="name" v="Middagshaugen" />
		<tag k="name:no" v="Middagshaugen" />
		<tag k="natural" v="hill" />
		<tag k="place" v="locality" />
		<tag k="ssr:stedsnr" v="450699" />
	</node>
	<node lat="68.57524722150235" lon="16.416647232254338" id="-40767">
		<tag k="name" v="Mobakkryggen" />
		<tag k="name:no" v="Mobakkryggen" />
		<tag k="natural" v="ridge" />
		<tag k="place" v="locality" />
		<tag k="ssr:stedsnr" v="240242" />
	</node>
	<node lat="68.54590277368072" lon="16.30793889705898" id="-40769">
		<tag k="name" v="Havbakkan" />
		<tag k="name:no" v="Havbakkan" />
		<tag k="natural" v="slope" />
		<tag k="place" v="locality" />
		<tag k="ssr:stedsnr" v="450897" />
	</node>
	<node lat="68.42836389052523" lon="16.141113877324393" id="-40774">
		<tag k="name" v="Åkloskaret" />
		<tag k="name:no" v="Åkloskaret" />
		<tag k="natural" v="hill" />
		<tag k="place" v="locality" />
		<tag k="ssr:stedsnr" v="452380" />
	</node>
	<node lat="68.4321111074396" lon="16.132680565668604" id="-40775">
		<tag k="name" v="Damkjerran" />
		<tag k="name:no" v="Damkjerran" />
		<tag k="place" v="locality" />
		<tag k="ssr:stedsnr" v="452346" />
	</node>
	<node lat="68.42915555586255" lon="16.129661107627996" id="-40776">
		<tag k="name" v="Vågesalta" />
		<tag k="name:no" v="Vågesalta" />
		<tag k="place" v="locality" />
		<tag k="ssr:stedsnr" v="452350" />
	</node>
	<node lat="68.42847777636676" lon="16.41809998794558" id="-40781">
		<tag k="name" v="Einbakken" />
		<tag k="name:no" v="Einbakken" />
		<tag k="natural" v="slope" />
		<tag k="place" v="locality" />
		<tag k="ssr:stedsnr" v="452701" />
	</node>
	<node lat="68.41857221992267" lon="16.099744450016832" id="-40782">
		<tag k="name" v="Vardhaugan" />
		<tag k="name:no" v="Vardhaugan" />
		<tag k="natural" v="hill" />
		<tag k="place" v="locality" />
		<tag k="ssr:stedsnr" v="452654" />
	</node>
	<node lat="68.4290472239557" lon="16.365511112923805" id="-40784">
		<tag k="name" v="Mønskanakken" />
		<tag k="name:no" v="Mønskanakken" />
		<tag k="natural" v="hill" />
		<tag k="place" v="locality" />
		<tag k="ssr:stedsnr" v="452725" />
	</node>
	<node lat="68.53721944891196" lon="16.139555550414276" id="-40792">
		<tag k="name" v="Innerlia" />
		<tag k="name:no" v="Innerlia" />
		<tag k="natural" v="slope" />
		<tag k="place" v="locality" />
		<tag k="ssr:stedsnr" v="455641" />
	</node>
	<node lat="68.46409722115993" lon="16.334480543372315" id="-40795">
		<tag k="fixme" v="consider natural=peak for the most distinct mountains in the district" />
		<tag k="loc_name:se" v="Bassečohkka" />
		<tag k="name" v="Helligtinden" />
		<tag k="name:no" v="Helligtinden" />
		<tag k="natural" v="hill" />
		<tag k="place" v="locality" />
		<tag k="ssr:stedsnr" v="259406" />
	</node>
	<node lat="68.46915000109628" lon="16.335463897259874" id="-40796">
		<tag k="fixme" v="consider natural=peak for the most distinct mountains in the district" />
		<tag k="name" v="Litletinden" />
		<tag k="name:no" v="Litletinden" />
		<tag k="natural" v="hill" />
		<tag k="place" v="locality" />
		<tag k="ssr:stedsnr" v="259407" />
	</node>
	<node lat="68.60246666943223" lon="16.07415832220344" id="-40798">
		<tag k="fixme" v="consider natural=peak for the most distinct mountains in the district" />
		<tag k="name" v="Jonsheimtinden - Čoarddáčohkka" />
		<tag k="name:no" v="Jonsheimtinden" />
		<tag k="name:se" v="Čoarddáčohkka" />
		<tag k="natural" v="hill" />
		<tag k="place" v="locality" />
		<tag k="ssr:stedsnr" v="260403" />
	</node>
	<node lat="68.58684721790917" lon="17.425547226327385" id="-40801">
		<tag k="fixme" v="consider natural=peak for the most distinct mountains in the district" />
		<tag k="name" v="Váibmoborri" />
		<tag k="name:se" v="Váibmoborri" />
		<tag k="natural" v="hill" />
		<tag k="old_name:se" v="Vaibmubårri" />
		<tag k="place" v="locality" />
		<tag k="ssr:stedsnr" v="260552" />
	</node>
	<node lat="68.58597222598931" lon="16.733252769630226" id="-40812">
		<tag k="loc_name:se" v="Gurra" />
		<tag k="name" v="Reinåsdalen" />
		<tag k="name:no" v="Reinåsdalen" />
		<tag k="natural" v="valley" />
		<tag k="place" v="locality" />
		<tag k="ssr:stedsnr" v="263197" />
	</node>
	<node lat="68.65139722086052" lon="17.000750003114614" id="-40815">
		<tag k="fixme" v="consider natural=peak for the most distinct mountains in the district" />
		<tag k="name" v="Storlemmen" />
		<tag k="name:no" v="Storlemmen" />
		<tag k="natural" v="hill" />
		<tag k="place" v="locality" />
		<tag k="ssr:stedsnr" v="263895" />
	</node>
	<node lat="68.5965555541403" lon="17.001730560448504" id="-40817">
		<tag k="fixme" v="consider natural=peak for the most distinct mountains in the district" />
		<tag k="name" v="Pungdalstind" />
		<tag k="name:no" v="Pungdalstind" />
		<tag k="natural" v="hill" />
		<tag k="place" v="locality" />
		<tag k="ssr:stedsnr" v="263918" />
	</node>
	<node lat="68.52645278016676" lon="16.523391668859855" id="-40821">
		<tag k="name" v="Jordbærberget" />
		<tag k="name:no" v="Jordbærberget" />
		<tag k="natural" v="hill" />
		<tag k="place" v="locality" />
		<tag k="ssr:stedsnr" v="267008" />
	</node>
	<node lat="68.54660833435855" lon="16.536811122372765" id="-40827">
		<tag k="name" v="Stigropa" />
		<tag k="name:no" v="Stigropa" />
		<tag k="natural" v="valley" />
		<tag k="place" v="locality" />
		<tag k="ssr:stedsnr" v="268511" />
	</node>
	<node lat="68.39338888749376" lon="16.11952223226953" id="-40833">
		<tag k="name" v="Finnkjerka" />
		<tag k="name:no" v="Finnkjerka" />
		<tag k="place" v="locality" />
		<tag k="ssr:stedsnr" v="270500" />
	</node>
	<node lat="68.46594722275793" lon="16.428161105976947" id="-40834">
		<tag k="name" v="Hegga" />
		<tag k="name:no" v="Hegga" />
		<tag k="place" v="locality" />
		<tag k="ssr:stedsnr" v="270373" />
	</node>
	<node lat="68.4668916714542" lon="16.46784166031036" id="-40835">
		<tag k="name" v="Kvitberget" />
		<tag k="name:no" v="Kvitberget" />
		<tag k="natural" v="hill" />
		<tag k="place" v="locality" />
		<tag k="ssr:stedsnr" v="270378" />
	</node>
	<node lat="68.42218611085283" lon="16.416258331644176" id="-40837">
		<tag k="name" v="Storvarden" />
		<tag k="name:no" v="Storvarden" />
		<tag k="natural" v="hill" />
		<tag k="place" v="locality" />
		<tag k="ssr:stedsnr" v="270702" />
	</node>
	<node lat="68.43707500003818" lon="16.384091656144854" id="-40838">
		<tag k="name" v="Ørndragholten" />
		<tag k="name:no" v="Ørndragholten" />
		<tag k="place" v="locality" />
		<tag k="ssr:stedsnr" v="270710" />
	</node>
	<node lat="68.5578305582166" lon="16.065949994650854" id="-40841">
		<tag k="name" v="Revdalen" />
		<tag k="name:no" v="Revdalen" />
		<tag k="natural" v="valley" />
		<tag k="place" v="locality" />
		<tag k="ssr:stedsnr" v="282920" />
	</node>
	<node lat="68.51330555545628" lon="16.6492111019971" id="-40843">
		<tag k="name" v="Storlia" />
		<tag k="name:no" v="Storlia" />
		<tag k="natural" v="slope" />
		<tag k="place" v="locality" />
		<tag k="ssr:stedsnr" v="296003" />
	</node>
	<node lat="68.60786944694485" lon="16.612533338996553" id="-40844">
		<tag k="fixme" v="consider natural=peak for the most distinct mountains in the district" />
		<tag k="name" v="Borgedalsåsen" />
		<tag k="name:no" v="Borgedalsåsen" />
		<tag k="natural" v="hill" />
		<tag k="place" v="locality" />
		<tag k="ssr:stedsnr" v="296106" />
	</node>
	<node lat="68.64998333001755" lon="16.700233322546552" id="-40848">
		<tag k="name" v="Kjellbergan" />
		<tag k="name:no" v="Kjellbergan" />
		<tag k="natural" v="hill" />
		<tag k="place" v="locality" />
		<tag k="ssr:stedsnr" v="296850" />
	</node>
	<node lat="68.64488888721601" lon="16.690297217562158" id="-40849">
		<tag k="name" v="Heia" />
		<tag k="name:no" v="Heia" />
		<tag k="natural" v="hill" />
		<tag k="place" v="locality" />
		<tag k="ssr:stedsnr" v="296854" />
	</node>
	<node lat="68.67896389115022" lon="17.068308341691502" id="-40850">
		<tag k="name" v="Skarven" />
		<tag k="name:no" v="Skarven" />
		<tag k="natural" v="hill" />
		<tag k="place" v="locality" />
		<tag k="ssr:stedsnr" v="296704" />
	</node>
	<node lat="68.6343083305917" lon="16.82391109707473" id="-40852">
		<tag k="name" v="Holla" />
		<tag k="name:no" v="Holla" />
		<tag k="natural" v="valley" />
		<tag k="place" v="locality" />
		<tag k="ssr:stedsnr" v="296782" />
	</node>
	<node lat="68.55704444851426" lon="16.117758344163367" id="-40855">
		<tag k="name" v="Storlihaugen" />
		<tag k="name:no" v="Storlihaugen" />
		<tag k="natural" v="hill" />
		<tag k="place" v="locality" />
		<tag k="ssr:stedsnr" v="465833" />
	</node>
	<node lat="68.55500000077406" lon="16.115230560396522" id="-40856">
		<tag k="name" v="Langbakkan" />
		<tag k="name:no" v="Langbakkan" />
		<tag k="natural" v="slope" />
		<tag k="place" v="locality" />
		<tag k="ssr:stedsnr" v="465837" />
	</node>
	<node lat="68.57242221848824" lon="16.24410000735898" id="-40857">
		<tag k="fixme" v="consider natural=peak for the most distinct mountains in the district" />
		<tag k="name" v="Stiggelikollen" />
		<tag k="name:no" v="Stiggelikollen" />
		<tag k="natural" v="hill" />
		<tag k="place" v="locality" />
		<tag k="ssr:stedsnr" v="465933" />
	</node>
	<node lat="68.44784721839366" lon="16.550333343248294" id="-40861">
		<tag k="name" v="Innerdalen" />
		<tag k="name:no" v="Innerdalen" />
		<tag k="natural" v="valley" />
		<tag k="place" v="locality" />
		<tag k="ssr:stedsnr" v="320456" />
	</node>
	<node lat="68.55579444704877" lon="17.39607221842517" id="-40863">
		<tag k="name" v="Maridalen" />
		<tag k="natural" v="valley" />
		<tag k="place" v="locality" />
		<tag k="ssr:stedsnr" v="321509" />
	</node>
	<node lat="68.58638888874803" lon="16.787116670978122" id="-40870">
		<tag k="fixme" v="consider natural=peak for the most distinct mountains in the district" />
		<tag k="name" v="Ráhpesvárdu - Brattfjellet" />
		<tag k="name:no" v="Brattfjellet" />
		<tag k="name:se" v="Ráhpesvárdu" />
		<tag k="natural" v="hill" />
		<tag k="old_name:se" v="Rappesvardo" />
		<tag k="place" v="locality" />
		<tag k="ssr:stedsnr" v="323180" />
	</node>
	<node lat="68.63786666954701" lon="17.291325008129927" id="-40873">
		<tag k="fixme" v="consider natural=peak for the most distinct mountains in the district" />
		<tag k="name" v="Gahpir - Huva" />
		<tag k="name:no" v="Huva" />
		<tag k="name:se" v="Gahpir" />
		<tag k="natural" v="hill" />
		<tag k="place" v="locality" />
		<tag k="ssr:stedsnr" v="323883" />
	</node>
	<node lat="68.52539722232629" lon="16.263358331633984" id="-40876">
		<tag k="fixme" v="consider natural=peak for the most distinct mountains in the district" />
		<tag k="name" v="Gregusåsen" />
		<tag k="name:no" v="Gregusåsen" />
		<tag k="natural" v="hill" />
		<tag k="place" v="locality" />
		<tag k="ssr:stedsnr" v="323776" />
	</node>
	<node lat="68.44973055397293" lon="16.178158338006476" id="-40882">
		<tag k="name" v="Vedhoggan" />
		<tag k="name:no" v="Vedhoggan" />
		<tag k="place" v="locality" />
		<tag k="ssr:stedsnr" v="327611" />
	</node>
	<node lat="68.47862221929016" lon="16.544388887984578" id="-40884">
		<tag k="name" v="Jonasberget" />
		<tag k="name:no" v="Jonasberget" />
		<tag k="natural" v="hill" />
		<tag k="place" v="locality" />
		<tag k="ssr:stedsnr" v="328011" />
	</node>
	<node lat="68.48564999611862" lon="16.531238876564444" id="-40885">
		<tag k="fixme" v="consider natural=peak for the most distinct mountains in the district" />
		<tag k="name" v="Holtan" />
		<tag k="name:no" v="Holtan" />
		<tag k="natural" v="hill" />
		<tag k="place" v="locality" />
		<tag k="ssr:stedsnr" v="328012" />
	</node>
	<node lat="68.50216388916245" lon="16.50607221245753" id="-40887">
		<tag k="fixme" v="consider natural=peak for the most distinct mountains in the district" />
		<tag k="name" v="Kollan" />
		<tag k="name:no" v="Kollan" />
		<tag k="natural" v="hill" />
		<tag k="place" v="locality" />
		<tag k="ssr:stedsnr" v="328104" />
	</node>
	<node lat="68.54127499527087" lon="16.41302500916422" id="-40888">
		<tag k="name" v="Rundhaugen" />
		<tag k="name:no" v="Rundhaugen" />
		<tag k="natural" v="hill" />
		<tag k="place" v="locality" />
		<tag k="ssr:stedsnr" v="328713" />
	</node>
	<node lat="68.4933111129982" lon="16.169213881684314" id="-40889">
		<tag k="name" v="Høgholtan" />
		<tag k="name:no" v="Høgholtan" />
		<tag k="natural" v="hill" />
		<tag k="place" v="locality" />
		<tag k="ssr:stedsnr" v="329060" />
	</node>
	<node lat="68.51728333762075" lon="16.243686113358088" id="-40891">
		<tag k="name" v="Famnvedhola" />
		<tag k="name:no" v="Famnvedhola" />
		<tag k="natural" v="valley" />
		<tag k="place" v="locality" />
		<tag k="ssr:stedsnr" v="329464" />
	</node>
	<node lat="68.58706944872407" lon="16.20845833510869" id="-40897">
		<tag k="name" v="Nydalen" />
		<tag k="name:no" v="Nydalen" />
		<tag k="natural" v="valley" />
		<tag k="place" v="locality" />
		<tag k="ssr:stedsnr" v="330616" />
	</node>
	<node lat="68.42266111157417" lon="16.121111112951564" id="-40899">
		<tag k="name" v="Lombusalta" />
		<tag k="name:no" v="Lombusalta" />
		<tag k="place" v="locality" />
		<tag k="ssr:stedsnr" v="330353" />
	</node>
	<node lat="68.42723333600955" lon="16.328569440047808" id="-40901">
		<tag k="name" v="Harvollen" />
		<tag k="name:no" v="Harvollen" />
		<tag k="natural" v="hill" />
		<tag k="place" v="locality" />
		<tag k="ssr:stedsnr" v="330564" />
	</node>
	<node lat="68.42671111061915" lon="16.330630565817955" id="-40902">
		<tag k="name" v="Harvollskaftet" />
		<tag k="name:no" v="Harvollskaftet" />
		<tag k="place" v="locality" />
		<tag k="ssr:stedsnr" v="330565" />
	</node>
	<node lat="68.52185833072106" lon="16.66976388190869" id="-40908">
		<tag k="fixme" v="consider natural=peak for the most distinct mountains in the district" />
		<tag k="name" v="Vitbæråsen" />
		<tag k="name:no" v="Vitbæråsen" />
		<tag k="natural" v="hill" />
		<tag k="place" v="locality" />
		<tag k="ssr:stedsnr" v="357004" />
	</node>
	<node lat="68.52127221964427" lon="16.625313875960387" id="-40909">
		<tag k="fixme" v="consider natural=peak for the most distinct mountains in the district" />
		<tag k="name" v="Gabrielhøgda" />
		<tag k="name:no" v="Gabrielhøgda" />
		<tag k="natural" v="hill" />
		<tag k="place" v="locality" />
		<tag k="ssr:stedsnr" v="357018" />
	</node>
	<node lat="68.58548888905908" lon="16.674830554112475" id="-40910">
		<tag k="name" v="Kistemyrhågen" />
		<tag k="name:no" v="Kistemyrhågen" />
		<tag k="natural" v="hill" />
		<tag k="place" v="locality" />
		<tag k="ssr:stedsnr" v="357209" />
	</node>
	<node lat="68.58670833563923" lon="16.707844453674145" id="-40911">
		<tag k="name" v="Stordalen" />
		<tag k="name:no" v="Stordalen" />
		<tag k="natural" v="valley" />
		<tag k="place" v="locality" />
		<tag k="ssr:stedsnr" v="357214" />
	</node>
	<node lat="68.6848027750498" lon="16.966450006967868" id="-40913">
		<tag k="name" v="Lamarka" />
		<tag k="name:no" v="Lamarka" />
		<tag k="place" v="locality" />
		<tag k="ssr:stedsnr" v="357602" />
	</node>
	<node lat="68.6633416702921" lon="17.09815555436691" id="-40917">
		<tag k="fixme" v="consider natural=peak for the most distinct mountains in the district" />
		<tag k="name" v="Kollåsen" />
		<tag k="name:no" v="Kollåsen" />
		<tag k="natural" v="hill" />
		<tag k="place" v="locality" />
		<tag k="ssr:stedsnr" v="357699" />
	</node>
	<node lat="68.6602666658979" lon="16.742099987595587" id="-40920">
		<tag k="name" v="Gjelryggen" />
		<tag k="name:no" v="Gjelryggen" />
		<tag k="natural" v="ridge" />
		<tag k="place" v="locality" />
		<tag k="ssr:stedsnr" v="357955" />
	</node>
	<node lat="68.56992500229686" lon="16.718199997533198" id="-40921">
		<tag k="fixme" v="consider natural=peak for the most distinct mountains in the district" />
		<tag k="name" v="Lahøgda" />
		<tag k="name:no" v="Lahøgda" />
		<tag k="natural" v="hill" />
		<tag k="place" v="locality" />
		<tag k="ssr:stedsnr" v="478160" />
	</node>
	<node lat="68.56668888461206" lon="16.655502786141774" id="-40922">
		<tag k="name" v="Bjørnsletten" />
		<tag k="name:no" v="Bjørnsletten" />
		<tag k="place" v="locality" />
		<tag k="ssr:stedsnr" v="478163" />
	</node>
	<node lat="68.56273055362298" lon="16.71196110036521" id="-40924">
		<tag k="name" v="Høgberget" />
		<tag k="name:no" v="Høgberget" />
		<tag k="natural" v="hill" />
		<tag k="place" v="locality" />
		<tag k="ssr:stedsnr" v="478172" />
	</node>
	<node lat="68.56993888971219" lon="16.650513888836517" id="-40926">
		<tag k="name" v="Blåberget" />
		<tag k="name:no" v="Blåberget" />
		<tag k="natural" v="hill" />
		<tag k="place" v="locality" />
		<tag k="ssr:stedsnr" v="478185" />
	</node>
	<node lat="68.57172500350379" lon="16.705408343566454" id="-40927">
		<tag k="fixme" v="consider natural=peak for the most distinct mountains in the district" />
		<tag k="name" v="Hattelakollen" />
		<tag k="name:no" v="Hattelakollen" />
		<tag k="natural" v="hill" />
		<tag k="place" v="locality" />
		<tag k="ssr:stedsnr" v="478200" />
	</node>
	<node lat="68.59126944563424" lon="16.57414165648319" id="-40928">
		<tag k="name" v="Topphaugen" />
		<tag k="name:no" v="Topphaugen" />
		<tag k="natural" v="hill" />
		<tag k="place" v="locality" />
		<tag k="ssr:stedsnr" v="478234" />
	</node>
	<node lat="68.60500555738507" lon="17.331713880099272" id="-40929">
		<tag k="fixme" v="consider natural=peak for the most distinct mountains in the district" />
		<tag k="name" v="Revasshøgda" />
		<tag k="name:no" v="Revasshøgda" />
		<tag k="natural" v="hill" />
		<tag k="place" v="locality" />
		<tag k="ssr:stedsnr" v="478278" />
	</node>
	<node lat="68.68552222177827" lon="16.946830550861076" id="-40932">
		<tag k="name" v="Vassbakkan" />
		<tag k="name:no" v="Vassbakkan" />
		<tag k="natural" v="slope" />
		<tag k="place" v="locality" />
		<tag k="ssr:stedsnr" v="478576" />
	</node>
	<node lat="68.69273055779801" lon="16.942625001595697" id="-40933">
		<tag k="name" v="Mørkedalen" />
		<tag k="name:no" v="Mørkedalen" />
		<tag k="natural" v="valley" />
		<tag k="place" v="locality" />
		<tag k="ssr:stedsnr" v="478586" />
	</node>
	<node lat="68.69985000362941" lon="17.020436117904623" id="-40936">
		<tag k="name" v="Grønnlia" />
		<tag k="name:no" v="Grønnlia" />
		<tag k="natural" v="slope" />
		<tag k="place" v="locality" />
		<tag k="ssr:stedsnr" v="478648" />
	</node>
	<node lat="68.61418610682175" lon="17.206461118842864" id="-40937">
		<tag k="name" v="Nova" />
		<tag k="name:no" v="Nova" />
		<tag k="place" v="locality" />
		<tag k="ssr:stedsnr" v="478684" />
	</node>
	<node lat="68.7150166709391" lon="17.186808322337985" id="-40938">
		<tag k="name" v="Storelvdalen" />
		<tag k="name:no" v="Storelvdalen" />
		<tag k="natural" v="valley" />
		<tag k="place" v="locality" />
		<tag k="ssr:stedsnr" v="478737" />
	</node>
	<node lat="68.6622472229855" lon="16.966908341582045" id="-40939">
		<tag k="name" v="Rasmusheimdalen" />
		<tag k="name:no" v="Rasmusheimdalen" />
		<tag k="natural" v="valley" />
		<tag k="place" v="locality" />
		<tag k="ssr:stedsnr" v="478917" />
	</node>
	<node lat="68.66715000190489" lon="16.888902776555696" id="-40940">
		<tag k="name" v="Storbakkan" />
		<tag k="name:no" v="Storbakkan" />
		<tag k="natural" v="slope" />
		<tag k="place" v="locality" />
		<tag k="ssr:stedsnr" v="478895" />
	</node>
	<node lat="68.6686666686599" lon="16.919144431623376" id="-40941">
		<tag k="fixme" v="consider natural=peak for the most distinct mountains in the district" />
		<tag k="name" v="Rensååsen" />
		<tag k="name:no" v="Rensååsen" />
		<tag k="natural" v="hill" />
		<tag k="place" v="locality" />
		<tag k="ssr:stedsnr" v="478901" />
	</node>
	<node lat="68.66955277659757" lon="16.923977772613267" id="-40942">
		<tag k="name" v="Jubbasmyrhaugen" />
		<tag k="name:no" v="Jubbasmyrhaugen" />
		<tag k="natural" v="hill" />
		<tag k="place" v="locality" />
		<tag k="ssr:stedsnr" v="478902" />
	</node>
	<node lat="68.65548610862707" lon="16.898558329057085" id="-40944">
		<tag k="fixme" v="consider natural=peak for the most distinct mountains in the district" />
		<tag k="name" v="Tinden" />
		<tag k="name:no" v="Tinden" />
		<tag k="natural" v="hill" />
		<tag k="place" v="locality" />
		<tag k="ssr:stedsnr" v="478930" />
	</node>
	<node lat="68.65542221819636" lon="16.991208342159805" id="-40946">
		<tag k="name" v="Hesjestrandhaugen" />
		<tag k="name:no" v="Hesjestrandhaugen" />
		<tag k="natural" v="hill" />
		<tag k="place" v="locality" />
		<tag k="ssr:stedsnr" v="478934" />
	</node>
	<node lat="68.5369222244629" lon="16.08701666577547" id="-40950">
		<tag k="fixme" v="consider natural=peak for the most distinct mountains in the district" />
		<tag k="name" v="Middagsfjellet" />
		<tag k="natural" v="hill" />
		<tag k="place" v="locality" />
		<tag k="ssr:stedsnr" v="381207" />
	</node>
	<node lat="68.59080000068914" lon="16.833563887133593" id="-40958">
		<tag k="fixme" v="consider natural=peak for the most distinct mountains in the district" />
		<tag k="name" v="Nordfjellkjølen" />
		<tag k="name:no" v="Nordfjellkjølen" />
		<tag k="natural" v="hill" />
		<tag k="place" v="locality" />
		<tag k="ssr:stedsnr" v="383926" />
	</node>
	<node lat="68.50223611087182" lon="16.300488890924882" id="-40959">
		<tag k="name" v="Tindhola" />
		<tag k="name:no" v="Tindhola" />
		<tag k="natural" v="valley" />
		<tag k="place" v="locality" />
		<tag k="ssr:stedsnr" v="383948" />
	</node>
	<node lat="68.60861110685121" lon="16.930411112857715" id="-40967">
		<tag k="fixme" v="consider natural=peak for the most distinct mountains in the district" />
		<tag k="name" v="Ruŋggučohkka - Mikkelfjellet" />
		<tag k="name:no" v="Mikkelfjellet" />
		<tag k="name:se" v="Ruŋggučohkka" />
		<tag k="natural" v="hill" />
		<tag k="place" v="locality" />
		<tag k="ssr:stedsnr" v="384906" />
	</node>
	<node lat="68.65576666779594" lon="17.288247231377646" id="-40972">
		<tag k="name" v="Muogirnjunni" />
		<tag k="name:se" v="Muogirnjunni" />
		<tag k="place" v="locality" />
		<tag k="ssr:stedsnr" v="385251" />
	</node>
	<node lat="68.60337499651288" lon="17.38851389509633" id="-40973">
		<tag k="name" v="Čoaffi" />
		<tag k="name:se" v="Čoaffi" />
		<tag k="natural" v="hill" />
		<tag k="place" v="locality" />
		<tag k="ssr:stedsnr" v="385253" />
	</node>
	<node lat="68.70344444797558" lon="17.17893610036153" id="-40974">
		<tag k="fixme" v="consider natural=peak for the most distinct mountains in the district" />
		<tag k="name" v="Skávhlevárri - Skavlikollen" />
		<tag k="name:no" v="Skavlikollen" />
		<tag k="name:se" v="Skávhlevárri" />
		<tag k="natural" v="hill" />
		<tag k="place" v="locality" />
		<tag k="ssr:stedsnr" v="385961" />
	</node>
	<node lat="68.4574138876155" lon="16.156963888496332" id="-40976">
		<tag k="name" v="Sandbakkdalen" />
		<tag k="name:no" v="Sandbakkdalen" />
		<tag k="natural" v="valley" />
		<tag k="place" v="locality" />
		<tag k="ssr:stedsnr" v="388653" />
	</node>
	<node lat="68.54243888640444" lon="16.138704165268916" id="-40978">
		<tag k="name" v="Nordlihammaren" />
		<tag k="name:no" v="Nordlihammaren" />
		<tag k="natural" v="hill" />
		<tag k="place" v="locality" />
		<tag k="ssr:stedsnr" v="388700" />
	</node>
	<node lat="68.53011666750585" lon="16.43342777374309" id="-40980">
		<tag k="name" v="Tresletten" />
		<tag k="name:no" v="Tresletten" />
		<tag k="place" v="locality" />
		<tag k="ssr:stedsnr" v="389729" />
	</node>
	<node lat="68.52748055241007" lon="16.44023334025834" id="-40983">
		<tag k="name" v="Løbakkan" />
		<tag k="name:no" v="Løbakkan" />
		<tag k="natural" v="slope" />
		<tag k="place" v="locality" />
		<tag k="ssr:stedsnr" v="390013" />
	</node>
	<node lat="68.55903888567371" lon="16.29796945270051" id="-40984">
		<tag k="name" v="Fagersletta" />
		<tag k="name:no" v="Fagersletta" />
		<tag k="place" v="locality" />
		<tag k="ssr:stedsnr" v="390102" />
	</node>
	<node lat="68.52665555943929" lon="16.48576112032604" id="-40985">
		<tag k="name" v="Bjørnbåsbakkan" />
		<tag k="name:no" v="Bjørnbåsbakkan" />
		<tag k="natural" v="slope" />
		<tag k="place" v="locality" />
		<tag k="ssr:stedsnr" v="390044" />
	</node>
	<node lat="68.42826666885476" lon="16.171719445684197" id="-40987">
		<tag k="fixme" v="consider natural=peak for the most distinct mountains in the district" />
		<tag k="name" v="Storhallen" />
		<tag k="name:no" v="Storhallen" />
		<tag k="natural" v="hill" />
		<tag k="place" v="locality" />
		<tag k="ssr:stedsnr" v="391347" />
	</node>
	<node lat="68.39470833033069" lon="16.161636097451428" id="-40994">
		<tag k="name" v="Purkeskaret" />
		<tag k="name:no" v="Purkeskaret" />
		<tag k="natural" v="valley" />
		<tag k="place" v="locality" />
		<tag k="ssr:stedsnr" v="391438" />
	</node>
	<node lat="68.39849444413746" lon="16.172950003197766" id="-40995">
		<tag k="name" v="Lomtjønnhaugen" />
		<tag k="name:no" v="Lomtjønnhaugen" />
		<tag k="natural" v="hill" />
		<tag k="place" v="locality" />
		<tag k="ssr:stedsnr" v="391440" />
	</node>
	<node lat="68.42795832892207" lon="16.32823611758678" id="-40998">
		<tag k="name" v="Kjerkberget" />
		<tag k="name:no" v="Kjerkberget" />
		<tag k="natural" v="hill" />
		<tag k="place" v="locality" />
		<tag k="ssr:stedsnr" v="391583" />
	</node>
	<node lat="68.43405000349506" lon="16.313708322835407" id="-41000">
		<tag k="name" v="Pissmyrbakken" />
		<tag k="name:no" v="Pissmyrbakken" />
		<tag k="natural" v="slope" />
		<tag k="place" v="locality" />
		<tag k="ssr:stedsnr" v="391603" />
	</node>
	<node lat="68.41892221838883" lon="16.290005546276728" id="-41001">
		<tag k="name" v="Bakaromnen" />
		<tag k="name:no" v="Bakaromnen" />
		<tag k="place" v="locality" />
		<tag k="ssr:stedsnr" v="391609" />
	</node>
	<node lat="68.41882222242461" lon="16.146641659565848" id="-41003">
		<tag k="name" v="Forhalsen" />
		<tag k="name:no" v="Forhalsen" />
		<tag k="natural" v="hill" />
		<tag k="place" v="locality" />
		<tag k="ssr:stedsnr" v="391688" />
	</node>
	<node lat="68.44571111211265" lon="16.448266657498774" id="-41005">
		<tag k="name" v="Middagshaugen" />
		<tag k="name:no" v="Middagshaugen" />
		<tag k="natural" v="hill" />
		<tag k="place" v="locality" />
		<tag k="ssr:stedsnr" v="391789" />
	</node>
	<node lat="68.53538889012773" lon="16.68681110142395" id="-41010">
		<tag k="name" v="Grindhågen" />
		<tag k="name:no" v="Grindhågen" />
		<tag k="natural" v="hill" />
		<tag k="place" v="locality" />
		<tag k="ssr:stedsnr" v="418021" />
	</node>
	<node lat="68.59251944181291" lon="16.692102773929964" id="-41011">
		<tag k="name" v="Hustrusletten" />
		<tag k="name:no" v="Hustrusletten" />
		<tag k="place" v="locality" />
		<tag k="ssr:stedsnr" v="418210" />
	</node>
	<node lat="68.69302500079992" lon="17.03121945495784" id="-41013">
		<tag k="name" v="Steinmedalen" />
		<tag k="name:no" v="Steinmedalen" />
		<tag k="natural" v="valley" />
		<tag k="place" v="locality" />
		<tag k="ssr:stedsnr" v="418604" />
	</node>
	<node lat="68.65545277434954" lon="17.06182500634248" id="-41014">
		<tag k="name" v="Reingjerdet" />
		<tag k="name:no" v="Reingjerdet" />
		<tag k="natural" v="slope" />
		<tag k="place" v="locality" />
		<tag k="ssr:stedsnr" v="418686" />
	</node>
	<node lat="68.66944166928377" lon="16.756344433940978" id="-41015">
		<tag k="fixme" v="consider natural=peak for the most distinct mountains in the district" />
		<tag k="name" v="Nontua" />
		<tag k="name:no" v="Nontua" />
		<tag k="natural" v="hill" />
		<tag k="place" v="locality" />
		<tag k="ssr:stedsnr" v="418946" />
	</node>
	<node lat="68.64138055649356" lon="16.758747217464883" id="-41020">
		<tag k="name" v="Kråhæsbakken" />
		<tag k="name:no" v="Kråhæsbakken" />
		<tag k="natural" v="slope" />
		<tag k="place" v="locality" />
		<tag k="ssr:stedsnr" v="418992" />
	</node>
	<node lat="68.60438055180495" lon="17.389777780308656" id="-41023">
		<tag k="name" v="Gaskkaoalgi" />
		<tag k="name:se" v="Gaskkaoalgi" />
		<tag k="natural" v="ridge" />
		<tag k="place" v="locality" />
		<tag k="ssr:stedsnr" v="492214" />
	</node>
	<node lat="68.4691250019317" lon="16.559244438837244" id="-41029">
		<tag k="fixme" v="consider natural=peak for the most distinct mountains in the district" />
		<tag k="name" v="Ramnesfjellet" />
		<tag k="name:no" v="Ramnesfjellet" />
		<tag k="natural" v="hill" />
		<tag k="place" v="locality" />
		<tag k="ssr:stedsnr" v="441404" />
	</node>
	<node lat="68.60843333282963" lon="16.786369431097043" id="-41032">
		<tag k="alt_name:no" v="Snaukollen, øvre" />
		<tag k="name" v="Øvre Snaukollen" />
		<tag k="name:no" v="Øvre Snaukollen" />
		<tag k="natural" v="hill" />
		<tag k="place" v="locality" />
		<tag k="ssr:stedsnr" v="444180" />
	</node>
	<node lat="68.50750833263498" lon="16.6377000050686" id="-41035">
		<tag k="fixme" v="consider natural=peak for the most distinct mountains in the district" />
		<tag k="name" v="Bjørnåsen" />
		<tag k="name:no" v="Bjørnåsen" />
		<tag k="natural" v="hill" />
		<tag k="place" v="locality" />
		<tag k="ssr:stedsnr" v="444583" />
	</node>
	<node lat="68.58640555619102" lon="16.218486099132637" id="-41037">
		<tag k="fixme" v="consider natural=peak for the most distinct mountains in the district" />
		<tag k="name" v="Øverdalsfjellet" />
		<tag k="name:no" v="Øverdalsfjellet" />
		<tag k="natural" v="hill" />
		<tag k="place" v="locality" />
		<tag k="ssr:stedsnr" v="445175" />
	</node>
	<node lat="68.6804138862835" lon="17.18405832407542" id="-41045">
		<tag k="name" v="Ramnfløy" />
		<tag k="name:no" v="Ramnfløy" />
		<tag k="natural" v="hill" />
		<tag k="place" v="locality" />
		<tag k="ssr:stedsnr" v="445978" />
	</node>
	<node lat="68.60635000163118" lon="17.287316676300385" id="-41046">
		<tag k="name" v="Buollánborri" />
		<tag k="name:se" v="Buollánborri" />
		<tag k="natural" v="ridge" />
		<tag k="place" v="locality" />
		<tag k="ssr:stedsnr" v="446281" />
	</node>
	<node lat="68.5038833353049" lon="16.494308321762155" id="-41047">
		<tag k="name" v="Storhammaren" />
		<tag k="name:no" v="Storhammaren" />
		<tag k="natural" v="hill" />
		<tag k="place" v="locality" />
		<tag k="ssr:stedsnr" v="450103" />
	</node>
	<node lat="68.48473611364334" lon="16.168363885663812" id="-41048">
		<tag k="fixme" v="consider natural=peak for the most distinct mountains in the district" />
		<tag k="name" v="Vasstindfjellet" />
		<tag k="name:no" v="Vasstindfjellet" />
		<tag k="natural" v="hill" />
		<tag k="place" v="locality" />
		<tag k="ssr:stedsnr" v="450572" />
	</node>
	<node lat="68.51252499988865" lon="16.43952777832621" id="-41049">
		<tag k="name" v="Tverrnova" />
		<tag k="name:no" v="Tverrnova" />
		<tag k="natural" v="ridge" />
		<tag k="place" v="locality" />
		<tag k="ssr:stedsnr" v="451012" />
	</node>
	<node lat="68.53165555247898" lon="16.39149443568592" id="-41050">
		<tag k="name" v="Neset" />
		<tag k="name:no" v="Neset" />
		<tag k="place" v="locality" />
		<tag k="ssr:stedsnr" v="450780" />
	</node>
	<node lat="68.47000832969569" lon="16.511766657370128" id="-41051">
		<tag k="name" v="Brynnhågen" />
		<tag k="name:no" v="Brynnhågen" />
		<tag k="natural" v="hill" />
		<tag k="place" v="locality" />
		<tag k="ssr:stedsnr" v="452362" />
	</node>
	<node lat="68.46828611414752" lon="16.48858610106472" id="-41052">
		<tag k="name" v="Gammelgjerdet" />
		<tag k="name:no" v="Gammelgjerdet" />
		<tag k="place" v="locality" />
		<tag k="ssr:stedsnr" v="452373" />
	</node>
	<node lat="68.41839722081205" lon="16.25190833963068" id="-41055">
		<tag k="name" v="Mælen" />
		<tag k="name:no" v="Mælen" />
		<tag k="place" v="locality" />
		<tag k="ssr:stedsnr" v="452402" />
	</node>
	<node lat="68.4113083353611" lon="16.1286749926708" id="-41058">
		<tag k="name" v="Dalsbøen" />
		<tag k="name:no" v="Dalsbøen" />
		<tag k="place" v="locality" />
		<tag k="ssr:stedsnr" v="452666" />
	</node>
	<node lat="68.4133972236968" lon="16.110563898664633" id="-41059">
		<tag k="name" v="Skittenosbakkan" />
		<tag k="name:no" v="Skittenosbakkan" />
		<tag k="natural" v="slope" />
		<tag k="place" v="locality" />
		<tag k="ssr:stedsnr" v="452669" />
	</node>
	<node lat="68.39145833674769" lon="16.128830562069336" id="-41060">
		<tag k="name" v="Monvikhaugen" />
		<tag k="name:no" v="Monvikhaugen" />
		<tag k="natural" v="hill" />
		<tag k="place" v="locality" />
		<tag k="ssr:stedsnr" v="452509" />
	</node>
	<node lat="68.43024166597925" lon="16.319480557995302" id="-41061">
		<tag k="name" v="Bjørneberget" />
		<tag k="name:no" v="Bjørneberget" />
		<tag k="natural" v="hill" />
		<tag k="place" v="locality" />
		<tag k="ssr:stedsnr" v="452569" />
	</node>
	<node lat="68.43503055325517" lon="16.4407500060704" id="-41062">
		<tag k="name" v="Hallardalen" />
		<tag k="name:no" v="Hallardalen" />
		<tag k="natural" v="valley" />
		<tag k="place" v="locality" />
		<tag k="ssr:stedsnr" v="452706" />
	</node>
	<node lat="68.42229444190119" lon="16.37363054860211" id="-41063">
		<tag k="name" v="Knutsberget" />
		<tag k="name:no" v="Knutsberget" />
		<tag k="natural" v="hill" />
		<tag k="place" v="locality" />
		<tag k="ssr:stedsnr" v="452712" />
	</node>
	<node lat="68.51339999622198" lon="16.614616658797317" id="-41074">
		<tag k="name" v="Gammholla" />
		<tag k="name:no" v="Gammholla" />
		<tag k="natural" v="valley" />
		<tag k="place" v="locality" />
		<tag k="ssr:stedsnr" v="478010" />
	</node>
	<node lat="68.56710277768407" lon="17.224833340366054" id="-41078">
		<tag k="name" v="Vassbotn" />
		<tag k="name:no" v="Vassbotn" />
		<tag k="natural" v="valley" />
		<tag k="place" v="locality" />
		<tag k="ssr:stedsnr" v="478668" />
	</node>
	<node lat="68.64810555323288" lon="16.679705556702565" id="-41080">
		<tag k="name" v="Jovikdalen" />
		<tag k="name:no" v="Jovikdalen" />
		<tag k="natural" v="valley" />
		<tag k="place" v="locality" />
		<tag k="ssr:stedsnr" v="478857" />
	</node>
	<node lat="68.60262222064098" lon="16.741486106581082" id="-41082">
		<tag k="name" v="Gadas-skorra" />
		<tag k="name:se" v="Gadas-skorra" />
		<tag k="natural" v="valley" />
		<tag k="place" v="locality" />
		<tag k="ssr:stedsnr" v="478778" />
	</node>
	<node lat="68.66160833195345" lon="16.755655565861385" id="-41083">
		<tag k="name" v="Sebogberget" />
		<tag k="name:no" v="Sebogberget" />
		<tag k="natural" v="hill" />
		<tag k="place" v="locality" />
		<tag k="ssr:stedsnr" v="478964" />
	</node>
	<node lat="68.66937221805647" lon="16.838769444355208" id="-41086">
		<tag k="fixme" v="consider natural=peak for the most distinct mountains in the district" />
		<tag k="name" v="Høgda" />
		<tag k="name:no" v="Høgda" />
		<tag k="natural" v="hill" />
		<tag k="place" v="locality" />
		<tag k="ssr:stedsnr" v="478973" />
	</node>
	<node lat="68.54009166860763" lon="16.741113892352168" id="-41087">
		<tag k="name" v="Gievži" />
		<tag k="name:se" v="Gievži" />
		<tag k="natural" v="valley" />
		<tag k="place" v="locality" />
		<tag k="ssr:stedsnr" v="482410" />
	</node>
	<node lat="68.47819999831366" lon="16.39587223308897" id="-41092">
		<tag k="name" v="Siriskoltdalen" />
		<tag k="name:no" v="Siriskoltdalen" />
		<tag k="natural" v="valley" />
		<tag k="place" v="locality" />
		<tag k="ssr:stedsnr" v="502422" />
	</node>
	<node lat="68.49943888705859" lon="16.621883339313378" id="-41096">
		<tag k="name" v="Kjelda" />
		<tag k="place" v="locality" />
		<tag k="ssr:stedsnr" v="502377" />
	</node>
	<node lat="68.62835833367035" lon="16.68341388286603" id="-41102">
		<tag k="name" v="Furuhaugen" />
		<tag k="name:no" v="Furuhaugen" />
		<tag k="natural" v="hill" />
		<tag k="place" v="locality" />
		<tag k="ssr:stedsnr" v="505008" />
	</node>
	<node lat="68.58307222589396" lon="17.105788884507483" id="-41107">
		<tag k="fixme" v="consider natural=peak for the most distinct mountains in the district" />
		<tag k="name" v="Meahccevárri - Slettfjellet" />
		<tag k="name:no" v="Slettfjellet" />
		<tag k="name:se" v="Meahccevárri" />
		<tag k="natural" v="hill" />
		<tag k="place" v="locality" />
		<tag k="ssr:stedsnr" v="505904" />
	</node>
	<node lat="68.5833638928071" lon="16.87235278332649" id="-41108">
		<tag k="fixme" v="consider natural=peak for the most distinct mountains in the district" />
		<tag k="name" v="Ráhpesvárdu - Bratteberget" />
		<tag k="name:no" v="Bratteberget" />
		<tag k="name:se" v="Ráhpesvárdu" />
		<tag k="natural" v="hill" />
		<tag k="place" v="locality" />
		<tag k="ssr:stedsnr" v="505905" />
	</node>
	<node lat="68.6686333350503" lon="17.06338332687633" id="-41112">
		<tag k="fixme" v="multiple name tags, choose one and add the other to alt_name; consider natural=peak for the most distinct mountains in the district" />
		<tag k="name" v="Myklevollen;Miklevollkollen" />
		<tag k="name:no" v="Myklevollen;Miklevollkollen" />
		<tag k="natural" v="hill" />
		<tag k="place" v="locality" />
		<tag k="ssr:stedsnr" v="505977" />
	</node>
	<node lat="68.45366649028863" lon="16.14657648308426" id="-41113">
		<tag k="fixme" v="consider natural=peak for the most distinct mountains in the district" />
		<tag k="name" v="Ramnfloget" />
		<tag k="name:no" v="Ramnfloget" />
		<tag k="natural" v="hill" />
		<tag k="place" v="locality" />
		<tag k="ssr:stedsnr" v="509655" />
	</node>
	<node lat="68.54071666871509" lon="16.139708329337644" id="-41115">
		<tag k="name" v="Sørlihammaren" />
		<tag k="name:no" v="Sørlihammaren" />
		<tag k="natural" v="hill" />
		<tag k="place" v="locality" />
		<tag k="ssr:stedsnr" v="509714" />
	</node>
	<node lat="68.52424721875946" lon="16.41876665250062" id="-41117">
		<tag k="name" v="Kvannmyrbakkan" />
		<tag k="name:no" v="Kvannmyrbakkan" />
		<tag k="natural" v="slope" />
		<tag k="place" v="locality" />
		<tag k="ssr:stedsnr" v="510009" />
	</node>
	<node lat="68.57162777850056" lon="16.230974994325607" id="-41120">
		<tag k="name" v="Tverrholten" />
		<tag k="name:no" v="Tverrholten" />
		<tag k="natural" v="ridge" />
		<tag k="place" v="locality" />
		<tag k="ssr:stedsnr" v="510551" />
	</node>
	<node lat="68.56256110867083" lon="16.21239167117582" id="-41121">
		<tag k="fixme" v="consider natural=peak for the most distinct mountains in the district" />
		<tag k="name" v="Ørntuva" />
		<tag k="name:no" v="Ørntuva" />
		<tag k="natural" v="hill" />
		<tag k="place" v="locality" />
		<tag k="ssr:stedsnr" v="510559" />
	</node>
	<node lat="68.55708888767393" lon="16.19136110906045" id="-41122">
		<tag k="name" v="Mølnskarhola" />
		<tag k="name:no" v="Mølnskarhola" />
		<tag k="natural" v="valley" />
		<tag k="place" v="locality" />
		<tag k="ssr:stedsnr" v="510562" />
	</node>
	<node lat="68.53275555534944" lon="16.472461111437177" id="-41123">
		<tag k="name" v="Vedjehaugen" />
		<tag k="name:no" v="Vedjehaugen" />
		<tag k="natural" v="hill" />
		<tag k="place" v="locality" />
		<tag k="ssr:stedsnr" v="510709" />
	</node>
	<node lat="68.52264166622238" lon="16.271888890136132" id="-41124">
		<tag k="name" v="Tverrbakkan" />
		<tag k="name:no" v="Tverrbakkan" />
		<tag k="natural" v="slope" />
		<tag k="place" v="locality" />
		<tag k="ssr:stedsnr" v="510905" />
	</node>
	<node lat="68.49550277917787" lon="16.151305564821616" id="-41128">
		<tag k="name" v="Jegersberg" />
		<tag k="name:no" v="Jegersberg" />
		<tag k="natural" v="hill" />
		<tag k="place" v="locality" />
		<tag k="ssr:stedsnr" v="511012" />
	</node>
	<node lat="68.56638333295456" lon="16.27635277506771" id="-41129">
		<tag k="name" v="Karihågen" />
		<tag k="name:no" v="Karihågen" />
		<tag k="natural" v="hill" />
		<tag k="place" v="locality" />
		<tag k="ssr:stedsnr" v="512068" />
	</node>
	<node lat="68.46819166643962" lon="16.50964722721483" id="-41132">
		<tag k="name" v="Litjehågen" />
		<tag k="name:no" v="Litjehågen" />
		<tag k="natural" v="hill" />
		<tag k="place" v="locality" />
		<tag k="ssr:stedsnr" v="512367" />
	</node>
	<node lat="68.46859166832844" lon="16.452166668705658" id="-41134">
		<tag k="name" v="Nerlægda" />
		<tag k="name:no" v="Nerlægda" />
		<tag k="place" v="locality" />
		<tag k="ssr:stedsnr" v="512374" />
	</node>
	<node lat="68.49305555358411" lon="16.465008341879297" id="-41135">
		<tag k="fixme" v="consider natural=peak for the most distinct mountains in the district" />
		<tag k="name" v="Slåttnesfjellet" />
		<tag k="name:no" v="Slåttnesfjellet" />
		<tag k="natural" v="hill" />
		<tag k="place" v="locality" />
		<tag k="ssr:stedsnr" v="512382" />
	</node>
	<node lat="68.39367777496095" lon="16.10642223183856" id="-41140">
		<tag k="name" v="Litjenesklubben" />
		<tag k="name:no" v="Litjenesklubben" />
		<tag k="natural" v="hill" />
		<tag k="place" v="locality" />
		<tag k="ssr:stedsnr" v="512517" />
	</node>
	<node lat="68.39245555906615" lon="16.132955548439853" id="-41141">
		<tag k="name" v="Melkevikheia" />
		<tag k="name:no" v="Melkevikheia" />
		<tag k="natural" v="hill" />
		<tag k="place" v="locality" />
		<tag k="ssr:stedsnr" v="512479" />
	</node>
	<node lat="68.3964888887014" lon="16.12900276636535" id="-41142">
		<tag k="name" v="Dukhaugen" />
		<tag k="name:no" v="Dukhaugen" />
		<tag k="natural" v="hill" />
		<tag k="place" v="locality" />
		<tag k="ssr:stedsnr" v="512481" />
	</node>
	<node lat="68.41012500442939" lon="16.09916110576343" id="-41143">
		<tag k="name" v="Øyvikhaugan" />
		<tag k="name:no" v="Øyvikhaugan" />
		<tag k="natural" v="hill" />
		<tag k="place" v="locality" />
		<tag k="ssr:stedsnr" v="512678" />
	</node>
	<node lat="68.44217500306489" lon="16.399366659777513" id="-41152">
		<tag k="name" v="Rismåldalshøgda" />
		<tag k="name:no" v="Rismåldalshøgda" />
		<tag k="natural" v="hill" />
		<tag k="place" v="locality" />
		<tag k="ssr:stedsnr" v="684431" />
	</node>
	<node lat="68.41466111063245" lon="16.25619720917283" id="-41156">
		<tag k="name" v="Russhaugklubben" />
		<tag k="name:no" v="Russhaugklubben" />
		<tag k="natural" v="hill" />
		<tag k="place" v="locality" />
		<tag k="ssr:stedsnr" v="684472" />
	</node>
	<node lat="68.62075833603848" lon="16.208522226518454" id="-41159">
		<tag k="fixme" v="consider natural=peak for the most distinct mountains in the district" />
		<tag k="name" v="Storsteinfjellet" />
		<tag k="natural" v="hill" />
		<tag k="place" v="locality" />
		<tag k="ssr:stedsnr" v="685341" />
	</node>
	<node lat="68.50444444061512" lon="16.206530547737533" id="-41163">
		<tag k="name" v="Andreasdalen" />
		<tag k="name:no" v="Andreasdalen" />
		<tag k="natural" v="valley" />
		<tag k="place" v="locality" />
		<tag k="ssr:stedsnr" v="685788" />
	</node>
	<node lat="68.56415555248839" lon="16.038452778327535" id="-41164">
		<tag k="fixme" v="consider natural=peak for the most distinct mountains in the district" />
		<tag k="name" v="Hestfjellet" />
		<tag k="name:no" v="Hestfjellet" />
		<tag k="natural" v="hill" />
		<tag k="place" v="locality" />
		<tag k="ssr:stedsnr" v="685851" />
	</node>
	<node lat="68.59617222089402" lon="16.185961117690347" id="-41166">
		<tag k="fixme" v="consider natural=peak for the most distinct mountains in the district" />
		<tag k="name" v="Tverrfjellet" />
		<tag k="name:no" v="Tverrfjellet" />
		<tag k="natural" v="hill" />
		<tag k="place" v="locality" />
		<tag k="ssr:stedsnr" v="685813" />
	</node>
	<node lat="68.58877499660812" lon="16.5780666709787" id="-41169">
		<tag k="name" v="Rundhaugen" />
		<tag k="name:no" v="Rundhaugen" />
		<tag k="natural" v="hill" />
		<tag k="place" v="locality" />
		<tag k="ssr:stedsnr" v="539211" />
	</node>
	<node lat="68.61015555424119" lon="16.60802778423505" id="-41171">
		<tag k="fixme" v="consider natural=peak for the most distinct mountains in the district" />
		<tag k="name" v="Slettåsen" />
		<tag k="name:no" v="Slettåsen" />
		<tag k="natural" v="hill" />
		<tag k="place" v="locality" />
		<tag k="ssr:stedsnr" v="539114" />
	</node>
	<node lat="68.5888444412487" lon="16.719424997003756" id="-41172">
		<tag k="name" v="Per Iversaplassen" />
		<tag k="name:no" v="Per Iversaplassen" />
		<tag k="place" v="locality" />
		<tag k="ssr:stedsnr" v="539177" />
	</node>
	<node lat="68.58961388678125" lon="16.700969449350094" id="-41173">
		<tag k="name" v="Grønlia" />
		<tag k="name:no" v="Grønlia" />
		<tag k="natural" v="slope" />
		<tag k="place" v="locality" />
		<tag k="ssr:stedsnr" v="539178" />
	</node>
	<node lat="68.634700000447" lon="17.16415833524415" id="-41176">
		<tag k="name" v="Labergsdalen" />
		<tag k="name:no" v="Labergsdalen" />
		<tag k="natural" v="valley" />
		<tag k="place" v="locality" />
		<tag k="ssr:stedsnr" v="539619" />
	</node>
	<node lat="68.63933611324892" lon="17.127833342855713" id="-41178">
		<tag k="name" v="Storberget" />
		<tag k="name:no" v="Storberget" />
		<tag k="natural" v="hill" />
		<tag k="place" v="locality" />
		<tag k="ssr:stedsnr" v="539717" />
	</node>
	<node lat="68.66795555908891" lon="16.981480563329978" id="-41179">
		<tag k="name" v="Tømmeråsbergan" />
		<tag k="name:no" v="Tømmeråsbergan" />
		<tag k="natural" v="hill" />
		<tag k="place" v="locality" />
		<tag k="ssr:stedsnr" v="539903" />
	</node>
	<node lat="68.6599055532073" lon="16.986211104852256" id="-41180">
		<tag k="fixme" v="consider natural=peak for the most distinct mountains in the district" />
		<tag k="name" v="Langvassåsen" />
		<tag k="name:no" v="Langvassåsen" />
		<tag k="natural" v="hill" />
		<tag k="place" v="locality" />
		<tag k="ssr:stedsnr" v="539908" />
	</node>
	<node lat="68.62062777426657" lon="17.269538883731094" id="-41182">
		<tag k="name" v="Ørngruben" />
		<tag k="name:no" v="Ørngruben" />
		<tag k="natural" v="hill" />
		<tag k="place" v="locality" />
		<tag k="ssr:stedsnr" v="539664" />
	</node>
	<node lat="68.58186111412033" lon="17.323961110441623" id="-41183">
		<tag k="name" v="Nordre Rundhaugen" />
		<tag k="name:no" v="Nordre Rundhaugen" />
		<tag k="natural" v="hill" />
		<tag k="place" v="locality" />
		<tag k="ssr:stedsnr" v="539666" />
	</node>
	<node lat="68.63555833393104" lon="16.707061111605697" id="-41185">
		<tag k="name" v="Ørnhaugen" />
		<tag k="name:no" v="Ørnhaugen" />
		<tag k="natural" v="hill" />
		<tag k="place" v="locality" />
		<tag k="ssr:stedsnr" v="687016" />
	</node>
	<node lat="68.64978889118471" lon="16.80512777190188" id="-41186">
		<tag k="alt_name:no" v="Lamsoshaugen" />
		<tag k="name" v="Lamsåshaugen" />
		<tag k="name:no" v="Lamsåshaugen" />
		<tag k="natural" v="hill" />
		<tag k="place" v="locality" />
		<tag k="ssr:stedsnr" v="687022" />
	</node>
	<node lat="68.60711944234812" lon="16.584958338903448" id="-41188">
		<tag k="fixme" v="consider natural=peak for the most distinct mountains in the district" />
		<tag k="name" v="Søkkuåsen" />
		<tag k="name:no" v="Søkkuåsen" />
		<tag k="natural" v="hill" />
		<tag k="place" v="locality" />
		<tag k="ssr:stedsnr" v="687208" />
	</node>
	<node lat="68.57963055304492" lon="16.41793611431467" id="-41189">
		<tag k="alt_name" v="Sanodalen" />
		<tag k="name" v="Sandådalen" />
		<tag k="natural" v="valley" />
		<tag k="place" v="locality" />
		<tag k="ssr:stedsnr" v="687162" />
	</node>
	<node lat="68.61544999730005" lon="16.627813894822452" id="-41191">
		<tag k="fixme" v="multiple name tags, choose one and add the other to alt_name; consider natural=peak for the most distinct mountains in the district" />
		<tag k="name" v="Hermannsgropåsen;Hermangropa" />
		<tag k="name:no" v="Hermannsgropåsen;Hermangropa" />
		<tag k="natural" v="hill" />
		<tag k="place" v="locality" />
		<tag k="ssr:stedsnr" v="687227" />
	</node>
	<node lat="68.61583055543353" lon="16.67054165759867" id="-41192">
		<tag k="fixme" v="consider natural=peak for the most distinct mountains in the district" />
		<tag k="name" v="Bergåsen" />
		<tag k="name:no" v="Bergåsen" />
		<tag k="natural" v="hill" />
		<tag k="place" v="locality" />
		<tag k="ssr:stedsnr" v="687229" />
	</node>
	<node lat="68.61451944530926" lon="16.791130556350424" id="-41193">
		<tag k="name" v="Solberget" />
		<tag k="name:no" v="Solberget" />
		<tag k="natural" v="hill" />
		<tag k="place" v="locality" />
		<tag k="ssr:stedsnr" v="687230" />
	</node>
	<node lat="68.5273027743264" lon="16.412724998099826" id="-41196">
		<tag k="fixme" v="consider natural=peak for the most distinct mountains in the district" />
		<tag k="name" v="Stuhkiidoassa - Stokkåsen" />
		<tag k="name:no" v="Stokkåsen" />
		<tag k="name:se" v="Stuhkiidoassa" />
		<tag k="natural" v="hill" />
		<tag k="old_name:se" v="Stukkiidoassa" />
		<tag k="place" v="locality" />
		<tag k="ssr:stedsnr" v="687778" />
	</node>
	<node lat="68.51379999989015" lon="16.432508329241035" id="-41198">
		<tag k="name" v="Heia" />
		<tag k="name:no" v="Heia" />
		<tag k="natural" v="hill" />
		<tag k="place" v="locality" />
		<tag k="ssr:stedsnr" v="687803" />
	</node>
	<node lat="68.59260833574477" lon="17.18013889127262" id="-41204">
		<tag k="name" v="Novadalen" />
		<tag k="name:no" v="Novadalen" />
		<tag k="natural" v="valley" />
		<tag k="place" v="locality" />
		<tag k="ssr:stedsnr" v="687909" />
	</node>
	<node lat="68.58236111089491" lon="17.27091388252832" id="-41207">
		<tag k="name" v="Vaggenusheia" />
		<tag k="name:no" v="Vaggenusheia" />
		<tag k="natural" v="slope" />
		<tag k="place" v="locality" />
		<tag k="ssr:stedsnr" v="687927" />
	</node>
	<node lat="68.56747500425598" lon="17.304277765290436" id="-41208">
		<tag k="fixme" v="consider natural=peak for the most distinct mountains in the district" />
		<tag k="name" v="Hornet" />
		<tag k="name:no" v="Hornet" />
		<tag k="natural" v="hill" />
		<tag k="place" v="locality" />
		<tag k="ssr:stedsnr" v="687930" />
	</node>
	<node lat="68.50702499641665" lon="16.42089166381671" id="-41210">
		<tag k="name" v="Spannbogan" />
		<tag k="name:no" v="Spannbogan" />
		<tag k="natural" v="valley" />
		<tag k="place" v="locality" />
		<tag k="ssr:stedsnr" v="687949" />
	</node>
	<node lat="68.57858888516034" lon="16.788822211712" id="-41213">
		<tag k="name" v="Gáicagurra - Kiskaret" />
		<tag k="name:no" v="Kiskaret" />
		<tag k="name:se" v="Gáicagurra" />
		<tag k="natural" v="valley" />
		<tag k="old_name:se" v="Gaicagurra" />
		<tag k="place" v="locality" />
		<tag k="ssr:stedsnr" v="688174" />
	</node>
	<node lat="68.61823055853654" lon="16.703258334649902" id="-41215">
		<tag k="fixme" v="consider natural=peak for the most distinct mountains in the district" />
		<tag k="name" v="Hoanttasvárri - Nipfjellet" />
		<tag k="name:no" v="Nipfjellet" />
		<tag k="name:se" v="Hoanttasvárri" />
		<tag k="natural" v="hill" />
		<tag k="place" v="locality" />
		<tag k="ssr:stedsnr" v="688273" />
	</node>
	<node lat="68.62109166226287" lon="16.256055557656964" id="-41216">
		<tag k="name" v="Kråa" />
		<tag k="name:no" v="Kråa" />
		<tag k="natural" v="slope" />
		<tag k="place" v="locality" />
		<tag k="ssr:stedsnr" v="688275" />
	</node>
	<node lat="68.56400277432317" lon="16.227152784815697" id="-41221">
		<tag k="name" v="Storbakkan" />
		<tag k="name:no" v="Storbakkan" />
		<tag k="natural" v="slope" />
		<tag k="place" v="locality" />
		<tag k="ssr:stedsnr" v="692516" />
	</node>
	<node lat="68.55325000157768" lon="16.336263884850784" id="-41223">
		<tag k="name" v="Revhaugen" />
		<tag k="name:no" v="Revhaugen" />
		<tag k="natural" v="hill" />
		<tag k="place" v="locality" />
		<tag k="ssr:stedsnr" v="692072" />
	</node>
	<node lat="68.55228055527753" lon="16.329969450099096" id="-41224">
		<tag k="name" v="Skytterhågen" />
		<tag k="name:no" v="Skytterhågen" />
		<tag k="natural" v="hill" />
		<tag k="place" v="locality" />
		<tag k="ssr:stedsnr" v="692073" />
	</node>
	<node lat="68.66296666597557" lon="17.179505550032783" id="-41226">
		<tag k="name" v="Doaresbákti" />
		<tag k="name:se" v="Doaresbákti" />
		<tag k="natural" v="hill" />
		<tag k="place" v="locality" />
		<tag k="ssr:stedsnr" v="692237" />
	</node>
	<node lat="68.5460472212657" lon="16.52572500552037" id="-41227">
		<tag k="name" v="Kvitfloget" />
		<tag k="name:no" v="Kvitfloget" />
		<tag k="natural" v="hill" />
		<tag k="place" v="locality" />
		<tag k="ssr:stedsnr" v="692467" />
	</node>
	<node lat="68.4512333333495" lon="16.166919435279535" id="-41229">
		<tag k="name" v="Bukkelia" />
		<tag k="name:no" v="Bukkelia" />
		<tag k="natural" v="slope" />
		<tag k="place" v="locality" />
		<tag k="ssr:stedsnr" v="692632" />
	</node>
	<node lat="68.5179583369192" lon="16.28175000604615" id="-41233">
		<tag k="fixme" v="consider natural=peak for the most distinct mountains in the district" />
		<tag k="name" v="Tolvtuva" />
		<tag k="name:no" v="Tolvtuva" />
		<tag k="natural" v="hill" />
		<tag k="place" v="locality" />
		<tag k="ssr:stedsnr" v="565806" />
	</node>
	<node lat="68.63037500258345" lon="17.36228888447978" id="-41235">
		<tag k="name" v="Stuoračahca" />
		<tag k="name:se" v="Stuoračahca" />
		<tag k="natural" v="valley" />
		<tag k="place" v="locality" />
		<tag k="ssr:stedsnr" v="565903" />
	</node>
	<node lat="68.62551389360328" lon="16.60361110712153" id="-41236">
		<tag k="name" v="Middagshaugen" />
		<tag k="name:no" v="Middagshaugen" />
		<tag k="natural" v="hill" />
		<tag k="place" v="locality" />
		<tag k="ssr:stedsnr" v="566261" />
	</node>
	<node lat="68.53899444094657" lon="16.308491670049683" id="-41238">
		<tag k="alt_name:no" v="Storfordalen" />
		<tag k="name" v="Storforrdalen" />
		<tag k="name:no" v="Storforrdalen" />
		<tag k="natural" v="valley" />
		<tag k="place" v="locality" />
		<tag k="ssr:stedsnr" v="566759" />
	</node>
	<node lat="68.64278889266727" lon="17.0214722209127" id="-41240">
		<tag k="name" v="Jalgesláhku - Storjorddalen" />
		<tag k="name:no" v="Storjorddalen" />
		<tag k="name:se" v="Jalgesláhku" />
		<tag k="natural" v="valley" />
		<tag k="place" v="locality" />
		<tag k="ssr:stedsnr" v="566902" />
	</node>
	<node lat="68.54968055710954" lon="16.35516389309646" id="-41243">
		<tag k="name" v="Vedsletta" />
		<tag k="name:no" v="Vedsletta" />
		<tag k="place" v="locality" />
		<tag k="ssr:stedsnr" v="692893" />
	</node>
	<node lat="68.5161055550561" lon="16.193802776645462" id="-41248">
		<tag k="name" v="Dumpan" />
		<tag k="name:no" v="Dumpan" />
		<tag k="natural" v="valley" />
		<tag k="place" v="locality" />
		<tag k="ssr:stedsnr" v="693448" />
	</node>
	<node lat="68.4809333349575" lon="16.159694440968625" id="-41249">
		<tag k="name" v="Høgda" />
		<tag k="name:no" v="Høgda" />
		<tag k="natural" v="hill" />
		<tag k="place" v="locality" />
		<tag k="ssr:stedsnr" v="570402" />
	</node>
	<node lat="68.52298333113832" lon="16.24773333931363" id="-41251">
		<tag k="name" v="Greguskollen" />
		<tag k="name:no" v="Greguskollen" />
		<tag k="natural" v="hill" />
		<tag k="place" v="locality" />
		<tag k="ssr:stedsnr" v="693494" />
	</node>
	<node lat="68.45831666400473" lon="16.12473054639204" id="-41252">
		<tag k="name" v="Rebekkaberget" />
		<tag k="name:no" v="Rebekkaberget" />
		<tag k="natural" v="hill" />
		<tag k="place" v="locality" />
		<tag k="ssr:stedsnr" v="570658" />
	</node>
	<node lat="68.48161389151092" lon="16.538141675599164" id="-41254">
		<tag k="name" v="Kjerringfloget" />
		<tag k="name:no" v="Kjerringfloget" />
		<tag k="natural" v="hill" />
		<tag k="place" v="locality" />
		<tag k="ssr:stedsnr" v="571009" />
	</node>
	<node lat="68.54493333044321" lon="16.252886118299173" id="-41256">
		<tag k="name" v="Skjurikellen" />
		<tag k="name:no" v="Skjurikellen" />
		<tag k="natural" v="hill" />
		<tag k="place" v="locality" />
		<tag k="ssr:stedsnr" v="571555" />
	</node>
	<node lat="68.54447777867482" lon="16.517302768402356" id="-41257">
		<tag k="name" v="Knausen" />
		<tag k="name:no" v="Knausen" />
		<tag k="natural" v="hill" />
		<tag k="place" v="locality" />
		<tag k="ssr:stedsnr" v="571517" />
	</node>
	<node lat="68.54406389194995" lon="16.51224167873119" id="-41258">
		<tag k="name" v="Olahallen" />
		<tag k="name:no" v="Olahallen" />
		<tag k="place" v="locality" />
		<tag k="ssr:stedsnr" v="571519" />
	</node>
	<node lat="68.53340277821046" lon="16.4228611210156" id="-41260">
		<tag k="name" v="Blombakken" />
		<tag k="name:no" v="Blombakken" />
		<tag k="natural" v="slope" />
		<tag k="place" v="locality" />
		<tag k="ssr:stedsnr" v="693757" />
	</node>
	<node lat="68.55112777540376" lon="16.305061106555957" id="-41264">
		<tag k="name" v="Straumshågen" />
		<tag k="name:no" v="Straumshågen" />
		<tag k="natural" v="hill" />
		<tag k="place" v="locality" />
		<tag k="ssr:stedsnr" v="572113" />
	</node>
	<node lat="68.56551388445752" lon="16.293486114388156" id="-41265">
		<tag k="name" v="Buhågen" />
		<tag k="name:no" v="Buhågen" />
		<tag k="natural" v="hill" />
		<tag k="place" v="locality" />
		<tag k="ssr:stedsnr" v="572120" />
	</node>
	<node lat="68.42576389132088" lon="16.290238879961887" id="-41267">
		<tag k="name" v="Fingerborhola" />
		<tag k="name:no" v="Fingerborhola" />
		<tag k="natural" v="valley" />
		<tag k="place" v="locality" />
		<tag k="ssr:stedsnr" v="573551" />
	</node>
	<node lat="68.59083055197725" lon="16.328230557576635" id="-41269">
		<tag k="name" v="Skjettenskaret" />
		<tag k="name:no" v="Skjettenskaret" />
		<tag k="natural" v="valley" />
		<tag k="place" v="locality" />
		<tag k="ssr:stedsnr" v="573501" />
	</node>
	<node lat="68.41945555972949" lon="16.127916673485082" id="-41270">
		<tag k="name" v="Hundberghola" />
		<tag k="name:no" v="Hundberghola" />
		<tag k="natural" v="valley" />
		<tag k="place" v="locality" />
		<tag k="ssr:stedsnr" v="573651" />
	</node>
	<node lat="68.42551389321402" lon="16.102061103811305" id="-41273">
		<tag k="name" v="Pålberget" />
		<tag k="name:no" v="Pålberget" />
		<tag k="natural" v="hill" />
		<tag k="place" v="locality" />
		<tag k="ssr:stedsnr" v="694243" />
	</node>
	<node lat="68.39998055760223" lon="16.11798334197546" id="-41274">
		<tag k="name" v="Tøhaugen" />
		<tag k="name:no" v="Tøhaugen" />
		<tag k="natural" v="hill" />
		<tag k="place" v="locality" />
		<tag k="ssr:stedsnr" v="694245" />
	</node>
	<node lat="68.41562222075483" lon="16.12263889924273" id="-41275">
		<tag k="name" v="Krøkebærdalen" />
		<tag k="name:no" v="Krøkebærdalen" />
		<tag k="natural" v="valley" />
		<tag k="place" v="locality" />
		<tag k="ssr:stedsnr" v="694249" />
	</node>
	<node lat="68.42517222465347" lon="16.10769999470329" id="-41279">
		<tag k="name" v="Skolehaugen" />
		<tag k="name:no" v="Skolehaugen" />
		<tag k="natural" v="hill" />
		<tag k="place" v="locality" />
		<tag k="ssr:stedsnr" v="694438" />
	</node>
	<node lat="68.45101944743168" lon="16.428897226017263" id="-41282">
		<tag k="name" v="Skittendalsholtan" />
		<tag k="name:no" v="Skittendalsholtan" />
		<tag k="natural" v="valley" />
		<tag k="place" v="locality" />
		<tag k="ssr:stedsnr" v="694644" />
	</node>
	<node lat="68.43074722492153" lon="16.339863878462296" id="-41283">
		<tag k="name" v="Brattbakken" />
		<tag k="name:no" v="Brattbakken" />
		<tag k="natural" v="slope" />
		<tag k="place" v="locality" />
		<tag k="ssr:stedsnr" v="694738" />
	</node>
	<node lat="68.43584167052569" lon="16.445558325931824" id="-41285">
		<tag k="name" v="Pållappheimen" />
		<tag k="name:no" v="Pållappheimen" />
		<tag k="place" v="locality" />
		<tag k="ssr:stedsnr" v="694836" />
	</node>
	<node lat="68.43604166350134" lon="16.44370278395173" id="-41286">
		<tag k="name" v="Hallarslåka" />
		<tag k="name:no" v="Hallarslåka" />
		<tag k="place" v="locality" />
		<tag k="ssr:stedsnr" v="694837" />
	</node>
	<node lat="68.5750138874097" lon="16.377594440487837" id="-41287">
		<tag k="name" v="Blåberget" />
		<tag k="name:no" v="Blåberget" />
		<tag k="natural" v="hill" />
		<tag k="place" v="locality" />
		<tag k="ssr:stedsnr" v="585846" />
	</node>
	<node lat="68.55803888559738" lon="16.09488611705474" id="-41289">
		<tag k="name" v="Nymoen" />
		<tag k="name:no" v="Nymoen" />
		<tag k="place" v="locality" />
		<tag k="ssr:stedsnr" v="585902" />
	</node>
	<node lat="68.58244721851057" lon="16.715916652263548" id="-41290">
		<tag k="fixme" v="consider natural=peak for the most distinct mountains in the district" />
		<tag k="name" v="Roasurápma - Reinåsen" />
		<tag k="name:no" v="Reinåsen" />
		<tag k="name:se" v="Roasurápma" />
		<tag k="natural" v="hill" />
		<tag k="place" v="locality" />
		<tag k="ssr:stedsnr" v="587213" />
	</node>
	<node lat="68.6576972215159" lon="17.033038878050075" id="-41296">
		<tag k="name" v="Slåttet" />
		<tag k="name:no" v="Slåttet" />
		<tag k="place" v="locality" />
		<tag k="ssr:stedsnr" v="599607" />
	</node>
	<node lat="68.6778972231919" lon="17.15438056183814" id="-41298">
		<tag k="alt_name:no" v="Ramnflåget" />
		<tag k="name" v="Ramnfloget" />
		<tag k="name:no" v="Ramnfloget" />
		<tag k="natural" v="hill" />
		<tag k="place" v="locality" />
		<tag k="ssr:stedsnr" v="599617" />
	</node>
	<node lat="68.67192777507613" lon="17.09240556401818" id="-41299">
		<tag k="name" v="Småvikhaugan" />
		<tag k="name:no" v="Småvikhaugan" />
		<tag k="natural" v="hill" />
		<tag k="place" v="locality" />
		<tag k="ssr:stedsnr" v="599718" />
	</node>
	<node lat="68.67832777763324" lon="16.899486120853116" id="-41300">
		<tag k="name" v="Vedhøggan" />
		<tag k="name:no" v="Vedhøggan" />
		<tag k="natural" v="slope" />
		<tag k="place" v="locality" />
		<tag k="ssr:stedsnr" v="599901" />
	</node>
	<node lat="68.6637444422192" lon="16.924363875907815" id="-41302">
		<tag k="name" v="Tortenbakkan" />
		<tag k="name:no" v="Tortenbakkan" />
		<tag k="natural" v="slope" />
		<tag k="place" v="locality" />
		<tag k="ssr:stedsnr" v="599910" />
	</node>
	<node lat="68.67246110851346" lon="16.765280554191776" id="-41303">
		<tag k="fixme" v="consider natural=peak for the most distinct mountains in the district" />
		<tag k="name" v="Buskslettkollen" />
		<tag k="name:no" v="Buskslettkollen" />
		<tag k="natural" v="hill" />
		<tag k="place" v="locality" />
		<tag k="ssr:stedsnr" v="599968" />
	</node>
	<node lat="68.52213333375332" lon="16.607872218693274" id="-41313">
		<tag k="fixme" v="consider natural=peak for the most distinct mountains in the district" />
		<tag k="name" v="Gardsåsen" />
		<tag k="name:no" v="Gardsåsen" />
		<tag k="natural" v="hill" />
		<tag k="place" v="locality" />
		<tag k="ssr:stedsnr" v="626799" />
	</node>
	<node lat="68.61616727524085" lon="16.838150251041597" id="-41314">
		<tag k="fixme" v="consider natural=peak for the most distinct mountains in the district" />
		<tag k="name" v="Kvitfjellet" />
		<tag k="name:no" v="Kvitfjellet" />
		<tag k="natural" v="hill" />
		<tag k="place" v="locality" />
		<tag k="ssr:stedsnr" v="626905" />
	</node>
	<node lat="68.57136389137136" lon="17.18927777451538" id="-41315">
		<tag k="name" v="Jorbavággi - Runddalen" />
		<tag k="name:no" v="Runddalen" />
		<tag k="name:se" v="Jorbavággi" />
		<tag k="natural" v="valley" />
		<tag k="place" v="locality" />
		<tag k="ssr:stedsnr" v="626947" />
	</node>
	<node lat="68.4502833330823" lon="16.142341676491007" id="-41316">
		<tag k="name" v="Vegan" />
		<tag k="name:no" v="Vegan" />
		<tag k="place" v="locality" />
		<tag k="ssr:stedsnr" v="630621" />
	</node>
	<node lat="68.48527500383722" lon="16.53591111230271" id="-41318">
		<tag k="name" v="Oldervikhalsen" />
		<tag k="name:no" v="Oldervikhalsen" />
		<tag k="natural" v="valley" />
		<tag k="place" v="locality" />
		<tag k="ssr:stedsnr" v="631009" />
	</node>
	<node lat="68.55329166230383" lon="16.35735834236101" id="-41319">
		<tag k="name" v="Dalbakkan" />
		<tag k="name:no" v="Dalbakkan" />
		<tag k="natural" v="slope" />
		<tag k="place" v="locality" />
		<tag k="ssr:stedsnr" v="631089" />
	</node>
	<node lat="68.51341667021404" lon="16.47968890107462" id="-41321">
		<tag k="name" v="Rambødalen" />
		<tag k="name:no" v="Rambødalen" />
		<tag k="natural" v="valley" />
		<tag k="place" v="locality" />
		<tag k="ssr:stedsnr" v="631190" />
	</node>
	<node lat="68.49113888810895" lon="16.154086104300436" id="-41326">
		<tag k="name" v="Ragnvaldhaugen" />
		<tag k="name:no" v="Ragnvaldhaugen" />
		<tag k="natural" v="hill" />
		<tag k="place" v="locality" />
		<tag k="ssr:stedsnr" v="632016" />
	</node>
	<node lat="68.47263055558743" lon="16.457408334612673" id="-41336">
		<tag k="name" v="Øverlægda" />
		<tag k="name:no" v="Øverlægda" />
		<tag k="place" v="locality" />
		<tag k="ssr:stedsnr" v="633396" />
	</node>
	<node lat="68.4375999986912" lon="16.278397212209093" id="-41338">
		<tag k="name" v="Nituva" />
		<tag k="name:no" v="Nituva" />
		<tag k="natural" v="hill" />
		<tag k="place" v="locality" />
		<tag k="ssr:stedsnr" v="633580" />
	</node>
	<node lat="68.42181111313562" lon="16.29835556374276" id="-41339">
		<tag k="name" v="Purkholskaret" />
		<tag k="name:no" v="Purkholskaret" />
		<tag k="natural" v="hill" />
		<tag k="place" v="locality" />
		<tag k="ssr:stedsnr" v="633583" />
	</node>
	<node lat="68.43818611440237" lon="16.307022230653246" id="-41340">
		<tag k="name" v="Jagarholten" />
		<tag k="name:no" v="Jagarholten" />
		<tag k="natural" v="ridge" />
		<tag k="place" v="locality" />
		<tag k="ssr:stedsnr" v="633584" />
	</node>
	<node lat="68.44285833561763" lon="16.43769445530239" id="-41343">
		<tag k="fixme" v="consider natural=peak for the most distinct mountains in the district" />
		<tag k="name" v="Sørfjellet" />
		<tag k="name:no" v="Sørfjellet" />
		<tag k="natural" v="hill" />
		<tag k="place" v="locality" />
		<tag k="ssr:stedsnr" v="633878" />
	</node>
	<node lat="68.57836944289629" lon="16.225633330393094" id="-41348">
		<tag k="name" v="Løneset" />
		<tag k="name:no" v="Løneset" />
		<tag k="natural" v="slope" />
		<tag k="place" v="locality" />
		<tag k="ssr:stedsnr" v="647944" />
	</node>
	<node lat="68.52785555789997" lon="16.664819445320735" id="-41350">
		<tag k="name" v="Lundlia" />
		<tag k="name:no" v="Lundlia" />
		<tag k="natural" v="slope" />
		<tag k="place" v="locality" />
		<tag k="ssr:stedsnr" v="660005" />
	</node>
	<node lat="68.52310277492829" lon="16.639105564610297" id="-41351">
		<tag k="fixme" v="consider natural=peak for the most distinct mountains in the district" />
		<tag k="name" v="Blåbæråsen" />
		<tag k="name:no" v="Blåbæråsen" />
		<tag k="natural" v="hill" />
		<tag k="place" v="locality" />
		<tag k="ssr:stedsnr" v="660014" />
	</node>
	<node lat="68.67418333110521" lon="17.058669447715637" id="-41359">
		<tag k="fixme" v="consider natural=peak for the most distinct mountains in the district" />
		<tag k="name" v="Seljeåsen" />
		<tag k="name:no" v="Seljeåsen" />
		<tag k="natural" v="hill" />
		<tag k="place" v="locality" />
		<tag k="ssr:stedsnr" v="660703" />
	</node>
	<node lat="68.66570000121743" lon="16.964080553994656" id="-41362">
		<tag k="name" v="Bjørnhaugen" />
		<tag k="name:no" v="Bjørnhaugen" />
		<tag k="natural" v="hill" />
		<tag k="place" v="locality" />
		<tag k="ssr:stedsnr" v="660894" />
	</node>
	<node lat="68.65230833474334" lon="16.836283330651234" id="-41365">
		<tag k="name" v="Kvithammaran" />
		<tag k="name:no" v="Kvithammaran" />
		<tag k="natural" v="hill" />
		<tag k="place" v="locality" />
		<tag k="ssr:stedsnr" v="660999" />
	</node>
	<node lat="68.60211944916568" lon="16.30713332490353" id="-41366">
		<tag k="fixme" v="consider natural=peak for the most distinct mountains in the district" />
		<tag k="name" v="Skitneskartinden" />
		<tag k="name:no" v="Skitneskartinden" />
		<tag k="natural" v="hill" />
		<tag k="place" v="locality" />
		<tag k="ssr:stedsnr" v="663203" />
	</node>
	<node lat="68.60111944593298" lon="16.11029723237303" id="-41368">
		<tag k="name" v="Vielppisgohpi" />
		<tag k="name:se" v="Vielppisgohpi" />
		<tag k="natural" v="valley" />
		<tag k="place" v="locality" />
		<tag k="ssr:stedsnr" v="890672" />
	</node>
	<node lat="68.5798638884196" lon="16.225961100732064" id="-41371">
		<tag k="name" v="Labakken" />
		<tag k="name:no" v="Labakken" />
		<tag k="natural" v="slope" />
		<tag k="place" v="locality" />
		<tag k="ssr:stedsnr" v="890940" />
	</node>
	<node lat="68.59883333391471" lon="16.188852783000566" id="-41372">
		<tag k="fixme" v="consider natural=peak for the most distinct mountains in the district" />
		<tag k="name" v="Tverrfjellaksla" />
		<tag k="name:no" v="Tverrfjellaksla" />
		<tag k="natural" v="hill" />
		<tag k="place" v="locality" />
		<tag k="ssr:stedsnr" v="890942" />
	</node>
	<node lat="68.47440833358813" lon="16.53219443587838" id="-41376">
		<tag k="alt_name:no" v="Forahaugen" />
		<tag k="name" v="Forrahaugen" />
		<tag k="name:no" v="Forrahaugen" />
		<tag k="natural" v="hill" />
		<tag k="place" v="locality" />
		<tag k="ssr:stedsnr" v="684405" />
	</node>
	<node lat="68.50322500019287" lon="16.204072212907054" id="-41379">
		<tag k="name" v="Andreashøgda" />
		<tag k="name:no" v="Andreashøgda" />
		<tag k="natural" v="hill" />
		<tag k="place" v="locality" />
		<tag k="ssr:stedsnr" v="685791" />
	</node>
	<node lat="68.56242222026322" lon="16.695605542737198" id="-41386">
		<tag k="alt_name:no" v="Skjelhaugen" />
		<tag k="name" v="Skjellhågen" />
		<tag k="name:no" v="Skjellhågen" />
		<tag k="natural" v="hill" />
		<tag k="place" v="locality" />
		<tag k="ssr:stedsnr" v="687834" />
	</node>
	<node lat="68.49068888777884" lon="16.526250003715628" id="-41392">
		<tag k="name" v="Bjørnbakken" />
		<tag k="name:no" v="Bjørnbakken" />
		<tag k="natural" v="slope" />
		<tag k="place" v="locality" />
		<tag k="ssr:stedsnr" v="692112" />
	</node>
	<node lat="68.49677500208276" lon="16.530402765790466" id="-41393">
		<tag k="name" v="Tjønnan" />
		<tag k="name:no" v="Tjønnan" />
		<tag k="place" v="locality" />
		<tag k="ssr:stedsnr" v="692113" />
	</node>
	<node lat="68.57109722078998" lon="16.197030550541072" id="-41394">
		<tag k="name" v="Kvitskredhøgda" />
		<tag k="name:no" v="Kvitskredhøgda" />
		<tag k="natural" v="valley" />
		<tag k="place" v="locality" />
		<tag k="ssr:stedsnr" v="692521" />
	</node>
	<node lat="68.46083889006276" lon="16.136722233302372" id="-41395">
		<tag k="name" v="Strupen" />
		<tag k="name:no" v="Strupen" />
		<tag k="natural" v="valley" />
		<tag k="place" v="locality" />
		<tag k="ssr:stedsnr" v="692703" />
	</node>
	<node lat="68.4908416707832" lon="16.16601944626265" id="-41396">
		<tag k="name" v="Eitervågdalen" />
		<tag k="name:no" v="Eitervågdalen" />
		<tag k="natural" v="valley" />
		<tag k="place" v="locality" />
		<tag k="ssr:stedsnr" v="693070" />
	</node>
	<node lat="68.53448889151959" lon="16.234480553159692" id="-41397">
		<tag k="name" v="Elveronna" />
		<tag k="name:no" v="Elveronna" />
		<tag k="natural" v="slope" />
		<tag k="place" v="locality" />
		<tag k="ssr:stedsnr" v="693481" />
	</node>
	<node lat="68.53597222128177" lon="16.47959721312545" id="-41399">
		<tag k="name" v="Einhaugen" />
		<tag k="name:no" v="Einhaugen" />
		<tag k="natural" v="hill" />
		<tag k="place" v="locality" />
		<tag k="ssr:stedsnr" v="693705" />
	</node>
	<node lat="68.5708500042603" lon="16.434833334764292" id="-41400">
		<tag k="name" v="Munnsletta" />
		<tag k="name:no" v="Munnsletta" />
		<tag k="place" v="locality" />
		<tag k="ssr:stedsnr" v="693711" />
	</node>
	<node lat="68.43173611211047" lon="16.113588877090617" id="-41401">
		<tag k="name" v="Hjellhaugen" />
		<tag k="name:no" v="Hjellhaugen" />
		<tag k="natural" v="hill" />
		<tag k="place" v="locality" />
		<tag k="ssr:stedsnr" v="694289" />
	</node>
	<node lat="68.43201389141537" lon="16.442369433310486" id="-41407">
		<tag k="name" v="Tømmerberget" />
		<tag k="name:no" v="Tømmerberget" />
		<tag k="natural" v="hill" />
		<tag k="place" v="locality" />
		<tag k="ssr:stedsnr" v="694690" />
	</node>
	<node lat="68.4203222186246" lon="16.11566111403736" id="-41409">
		<tag k="name" v="Finnkongjota" />
		<tag k="name:no" v="Finnkongjota" />
		<tag k="natural" v="valley" />
		<tag k="place" v="locality" />
		<tag k="ssr:stedsnr" v="695676" />
	</node>
	<node lat="68.61233055508872" lon="16.611452786106632" id="-41416">
		<tag k="name" v="Glahammaren" />
		<tag k="name:no" v="Glahammaren" />
		<tag k="natural" v="hill" />
		<tag k="place" v="locality" />
		<tag k="ssr:stedsnr" v="721119" />
	</node>
	<node lat="68.64492221851594" lon="17.258652767822312" id="-41417">
		<tag k="name" v="Olderdalsberget" />
		<tag k="name:no" v="Olderdalsberget" />
		<tag k="natural" v="hill" />
		<tag k="place" v="locality" />
		<tag k="ssr:stedsnr" v="721269" />
	</node>
	<node lat="68.58376388973184" lon="17.312149998774373" id="-41421">
		<tag k="name" v="Søndre Rundhaugen" />
		<tag k="name:no" v="Søndre Rundhaugen" />
		<tag k="natural" v="hill" />
		<tag k="place" v="locality" />
		<tag k="ssr:stedsnr" v="721627" />
	</node>
	<node lat="68.6411388851289" lon="17.122072228597897" id="-41422">
		<tag k="name" v="Hellaren" />
		<tag k="name:no" v="Hellaren" />
		<tag k="natural" v="hill" />
		<tag k="place" v="locality" />
		<tag k="ssr:stedsnr" v="721674" />
	</node>
	<node lat="68.57039166984747" lon="16.783913880307484" id="-41424">
		<tag k="name" v="Ruŋkabákti - Ravnberget" />
		<tag k="name:no" v="Ravnberget" />
		<tag k="name:se" v="Ruŋkabákti" />
		<tag k="natural" v="hill" />
		<tag k="place" v="locality" />
		<tag k="ssr:stedsnr" v="721744" />
	</node>
	<node lat="68.55804166638593" lon="16.67146666236482" id="-41428">
		<tag k="name" v="Luradalen" />
		<tag k="name:no" v="Luradalen" />
		<tag k="natural" v="valley" />
		<tag k="place" v="locality" />
		<tag k="ssr:stedsnr" v="903168" />
	</node>
	<node lat="68.61271388467627" lon="16.596783340314435" id="-41429">
		<tag k="name" v="Jessegroplæppen" />
		<tag k="name:no" v="Jessegroplæppen" />
		<tag k="natural" v="slope" />
		<tag k="place" v="locality" />
		<tag k="ssr:stedsnr" v="903131" />
	</node>
	<node lat="68.56298611146391" lon="16.629305562445264" id="-41430">
		<tag k="name" v="Båtberget" />
		<tag k="name:no" v="Båtberget" />
		<tag k="natural" v="hill" />
		<tag k="place" v="locality" />
		<tag k="ssr:stedsnr" v="903183" />
	</node>
	<node lat="68.59682221848638" lon="17.354330562937335" id="-41432">
		<tag k="name" v="Ruolladievvá" />
		<tag k="name:se" v="Ruolladievvá" />
		<tag k="natural" v="hill" />
		<tag k="place" v="locality" />
		<tag k="ssr:stedsnr" v="903290" />
	</node>
	<node lat="68.49324166698213" lon="16.19467500432363" id="-41438">
		<tag k="name" v="Straumsdalen" />
		<tag k="name:no" v="Straumsdalen" />
		<tag k="natural" v="valley" />
		<tag k="place" v="locality" />
		<tag k="ssr:stedsnr" v="745180" />
	</node>
	<node lat="68.4770111121219" lon="16.274191662787885" id="-41439">
		<tag k="fixme" v="consider natural=peak for the most distinct mountains in the district" />
		<tag k="name" v="Trollfjellet" />
		<tag k="name:no" v="Trollfjellet" />
		<tag k="natural" v="hill" />
		<tag k="place" v="locality" />
		<tag k="ssr:stedsnr" v="745422" />
	</node>
	<node lat="68.43733332968885" lon="16.27705832362707" id="-41441">
		<tag k="name" v="Nattmålshøgda" />
		<tag k="name:no" v="Nattmålshøgda" />
		<tag k="natural" v="hill" />
		<tag k="place" v="locality" />
		<tag k="ssr:stedsnr" v="745478" />
	</node>
	<node lat="68.55097222226925" lon="16.129163884365955" id="-41442">
		<tag k="name" v="Olpersalia" />
		<tag k="name:no" v="Olpersalia" />
		<tag k="natural" v="slope" />
		<tag k="place" v="locality" />
		<tag k="ssr:stedsnr" v="745803" />
	</node>
	<node lat="68.56678611392292" lon="16.202613889660324" id="-41444">
		<tag k="name" v="Finngamhola" />
		<tag k="name:no" v="Finngamhola" />
		<tag k="natural" v="valley" />
		<tag k="place" v="locality" />
		<tag k="ssr:stedsnr" v="745883" />
	</node>
	<node lat="68.56344166291512" lon="16.19840555082876" id="-41445">
		<tag k="fixme" v="consider natural=peak for the most distinct mountains in the district" />
		<tag k="name" v="Stakksvollfjellet" />
		<tag k="name:no" v="Stakksvollfjellet" />
		<tag k="natural" v="hill" />
		<tag k="place" v="locality" />
		<tag k="ssr:stedsnr" v="745885" />
	</node>
	<node lat="68.69826666851371" lon="17.130925003367643" id="-41447">
		<tag k="name" v="Ørnberget" />
		<tag k="name:no" v="Ørnberget" />
		<tag k="natural" v="hill" />
		<tag k="place" v="locality" />
		<tag k="ssr:stedsnr" v="903645" />
	</node>
	<node lat="68.66831389295693" lon="17.094433337189628" id="-41448">
		<tag k="name" v="Vassdalen" />
		<tag k="name:no" v="Vassdalen" />
		<tag k="natural" v="valley" />
		<tag k="place" v="locality" />
		<tag k="ssr:stedsnr" v="903707" />
	</node>
	<node lat="68.6723083307371" lon="17.050388891186767" id="-41451">
		<tag k="name" v="Vasskollskaret" />
		<tag k="name:no" v="Vasskollskaret" />
		<tag k="natural" v="valley" />
		<tag k="place" v="locality" />
		<tag k="ssr:stedsnr" v="903685" />
	</node>
	<node lat="68.6053444476666" lon="16.630708342666857" id="-41455">
		<tag k="fixme" v="consider natural=peak for the most distinct mountains in the district" />
		<tag k="name" v="Småkollen" />
		<tag k="name:no" v="Småkollen" />
		<tag k="natural" v="hill" />
		<tag k="place" v="locality" />
		<tag k="ssr:stedsnr" v="903816" />
	</node>
	<node lat="68.59491666507776" lon="16.66148611576893" id="-41456">
		<tag k="name" v="Henrik-Mikkelhaugen" />
		<tag k="name:no" v="Henrik-Mikkelhaugen" />
		<tag k="natural" v="hill" />
		<tag k="place" v="locality" />
		<tag k="ssr:stedsnr" v="903832" />
	</node>
	<node lat="68.60036666443894" lon="16.663583321599468" id="-41457">
		<tag k="name" v="Lahaugen" />
		<tag k="name:no" v="Lahaugen" />
		<tag k="natural" v="hill" />
		<tag k="place" v="locality" />
		<tag k="ssr:stedsnr" v="903835" />
	</node>
	<node lat="68.63188610917949" lon="16.73554166247892" id="-41460">
		<tag k="fixme" v="consider natural=peak for the most distinct mountains in the district" />
		<tag k="name" v="Glefjellet" />
		<tag k="name:no" v="Glefjellet" />
		<tag k="natural" v="hill" />
		<tag k="place" v="locality" />
		<tag k="ssr:stedsnr" v="748007" />
	</node>
	<node lat="68.58808332893717" lon="16.632550009355814" id="-41464">
		<tag k="name" v="Lahøgda" />
		<tag k="name:no" v="Lahøgda" />
		<tag k="natural" v="hill" />
		<tag k="place" v="locality" />
		<tag k="ssr:stedsnr" v="748180" />
	</node>
	<node lat="68.52039444005648" lon="16.60089445057724" id="-41465">
		<tag k="alt_name:no" v="Kjerringholla" />
		<tag k="name" v="Kjerringhola" />
		<tag k="name:no" v="Kjerringhola" />
		<tag k="natural" v="valley" />
		<tag k="place" v="locality" />
		<tag k="ssr:stedsnr" v="748815" />
	</node>
	<node lat="68.53055000038238" lon="16.254744437396585" id="-41470">
		<tag k="alt_name:no" v="Ripelheia" />
		<tag k="fixme" v="consider natural=peak for the most distinct mountains in the district" />
		<tag k="name" v="Reppelheia" />
		<tag k="name:no" v="Reppelheia" />
		<tag k="natural" v="hill" />
		<tag k="place" v="locality" />
		<tag k="ssr:stedsnr" v="748765" />
	</node>
	<node lat="68.63604166968504" lon="17.17715833247326" id="-41471">
		<tag k="name" v="Áidegurra - Labergskaret" />
		<tag k="name:no" v="Labergskaret" />
		<tag k="name:se" v="Áidegurra" />
		<tag k="natural" v="valley" />
		<tag k="place" v="locality" />
		<tag k="ssr:stedsnr" v="748914" />
	</node>
	<node lat="68.63806666490687" lon="17.098719432954525" id="-41476">
		<tag k="fixme" v="consider natural=peak for the most distinct mountains in the district" />
		<tag k="name" v="Ramnfløya" />
		<tag k="name:no" v="Ramnfløya" />
		<tag k="natural" v="hill" />
		<tag k="place" v="locality" />
		<tag k="ssr:stedsnr" v="904672" />
	</node>
	<node lat="68.60465277577177" lon="16.190313894368526" id="-41477">
		<tag k="fixme" v="consider natural=peak for the most distinct mountains in the district" />
		<tag k="name" v="Tverrfjellet" />
		<tag k="name:no" v="Tverrfjellet" />
		<tag k="natural" v="hill" />
		<tag k="place" v="locality" />
		<tag k="ssr:stedsnr" v="752653" />
	</node>
	<node lat="68.56867777428204" lon="16.343877771049836" id="-41478">
		<tag k="name" v="Staurhågen" />
		<tag k="name:no" v="Staurhågen" />
		<tag k="natural" v="hill" />
		<tag k="place" v="locality" />
		<tag k="ssr:stedsnr" v="753061" />
	</node>
	<node lat="68.56825278050357" lon="16.364775006412717" id="-41479">
		<tag k="name" v="Kleivberget" />
		<tag k="name:no" v="Kleivberget" />
		<tag k="natural" v="hill" />
		<tag k="place" v="locality" />
		<tag k="ssr:stedsnr" v="753063" />
	</node>
	<node lat="68.50338055701475" lon="16.550977783945722" id="-41481">
		<tag k="name" v="Lemman" />
		<tag k="name:no" v="Lemman" />
		<tag k="natural" v="valley" />
		<tag k="place" v="locality" />
		<tag k="ssr:stedsnr" v="753071" />
	</node>
	<node lat="68.47381944177268" lon="16.136486121243095" id="-41485">
		<tag k="name" v="Linberghaugen" />
		<tag k="name:no" v="Linberghaugen" />
		<tag k="natural" v="hill" />
		<tag k="place" v="locality" />
		<tag k="ssr:stedsnr" v="753510" />
	</node>
	<node lat="68.52279166881932" lon="16.512763884645814" id="-41489">
		<tag k="name" v="Storhaugen" />
		<tag k="name:no" v="Storhaugen" />
		<tag k="natural" v="hill" />
		<tag k="place" v="locality" />
		<tag k="ssr:stedsnr" v="755018" />
	</node>
	<node lat="68.40634444448473" lon="16.206316666975667" id="-41490">
		<tag k="name" v="Jerusalem" />
		<tag k="name:no" v="Jerusalem" />
		<tag k="place" v="locality" />
		<tag k="ssr:stedsnr" v="755410" />
	</node>
	<node lat="68.42089444539282" lon="16.227897212709806" id="-41491">
		<tag k="name" v="Øverdalen" />
		<tag k="name:no" v="Øverdalen" />
		<tag k="natural" v="valley" />
		<tag k="place" v="locality" />
		<tag k="ssr:stedsnr" v="755412" />
	</node>
	<node lat="68.39543889167828" lon="16.110694454394867" id="-41492">
		<tag k="name" v="Litjeneshalsen" />
		<tag k="name:no" v="Litjeneshalsen" />
		<tag k="place" v="locality" />
		<tag k="ssr:stedsnr" v="755468" />
	</node>
	<node lat="68.47734166218129" lon="16.495822223697466" id="-41495">
		<tag k="name" v="Svarthallaren" />
		<tag k="name:no" v="Svarthallaren" />
		<tag k="natural" v="hill" />
		<tag k="place" v="locality" />
		<tag k="ssr:stedsnr" v="755350" />
	</node>
	<node lat="68.41763055462394" lon="16.112877780875728" id="-41496">
		<tag k="name" v="Reintuva" />
		<tag k="name:no" v="Reintuva" />
		<tag k="natural" v="hill" />
		<tag k="place" v="locality" />
		<tag k="ssr:stedsnr" v="755655" />
	</node>
	<node lat="68.41029999862636" lon="16.116074996666377" id="-41497">
		<tag k="name" v="Skittenosen" />
		<tag k="name:no" v="Skittenosen" />
		<tag k="place" v="locality" />
		<tag k="ssr:stedsnr" v="755657" />
	</node>
	<node lat="68.42493888693419" lon="16.382338891567162" id="-41498">
		<tag k="name" v="Balen" />
		<tag k="name:no" v="Balen" />
		<tag k="place" v="locality" />
		<tag k="ssr:stedsnr" v="755706" />
	</node>
	<node lat="68.42936944840254" lon="16.373808331018328" id="-41499">
		<tag k="name" v="Mønskallen" />
		<tag k="name:no" v="Mønskallen" />
		<tag k="natural" v="hill" />
		<tag k="place" v="locality" />
		<tag k="ssr:stedsnr" v="755715" />
	</node>
	<node lat="68.42856666480671" lon="16.33928333192082" id="-41500">
		<tag k="name" v="Gjerdhaugen" />
		<tag k="name:no" v="Gjerdhaugen" />
		<tag k="natural" v="hill" />
		<tag k="place" v="locality" />
		<tag k="ssr:stedsnr" v="755750" />
	</node>
	<node lat="68.53099444495281" lon="16.157777777635648" id="-41505">
		<tag k="name" v="Rødbergan" />
		<tag k="name:no" v="Rødbergan" />
		<tag k="natural" v="hill" />
		<tag k="place" v="locality" />
		<tag k="ssr:stedsnr" v="767931" />
	</node>
	<node lat="68.51881666602841" lon="16.622394434407457" id="-41510">
		<tag k="name" v="Gabriel-Laberget" />
		<tag k="name:no" v="Gabriel-Laberget" />
		<tag k="natural" v="hill" />
		<tag k="place" v="locality" />
		<tag k="ssr:stedsnr" v="782017" />
	</node>
	<node lat="68.51891666704472" lon="16.58189443984001" id="-41511">
		<tag k="fixme" v="consider natural=peak for the most distinct mountains in the district" />
		<tag k="name" v="Finngammhøgda" />
		<tag k="name:no" v="Finngammhøgda" />
		<tag k="natural" v="hill" />
		<tag k="place" v="locality" />
		<tag k="ssr:stedsnr" v="782022" />
	</node>
	<node lat="68.66284166331084" lon="16.761147231806667" id="-41514">
		<tag k="name" v="Sebogen" />
		<tag k="name:no" v="Sebogen" />
		<tag k="natural" v="slope" />
		<tag k="place" v="locality" />
		<tag k="ssr:stedsnr" v="782949" />
	</node>
	<node lat="68.63253055677714" lon="16.78794444074938" id="-41519">
		<tag k="fixme" v="consider natural=peak for the most distinct mountains in the district" />
		<tag k="name" v="Storkollen" />
		<tag k="name:no" v="Storkollen" />
		<tag k="natural" v="hill" />
		<tag k="place" v="locality" />
		<tag k="ssr:stedsnr" v="809008" />
	</node>
	<node lat="68.6655611160768" lon="16.74601387733347" id="-41520">
		<tag k="fixme" v="multiple name tags, choose one and add the other to alt_name; consider natural=peak for the most distinct mountains in the district" />
		<tag k="name" v="Sandfjellet;Sandberget" />
		<tag k="name:no" v="Sandfjellet;Sandberget" />
		<tag k="natural" v="hill" />
		<tag k="place" v="locality" />
		<tag k="ssr:stedsnr" v="809101" />
	</node>
	<node lat="68.57849166929522" lon="16.234016664325633" id="-41522">
		<tag k="name" v="Øverdalen" />
		<tag k="name:no" v="Øverdalen" />
		<tag k="natural" v="valley" />
		<tag k="place" v="locality" />
		<tag k="ssr:stedsnr" v="809176" />
	</node>
	<node lat="68.59076110936459" lon="16.741574988111275" id="-41523">
		<tag k="alt_name:no" v="Øyvannsskaret" />
		<tag k="name" v="Guorttesgurra - Øyvasskaret" />
		<tag k="name:no" v="Øyvasskaret" />
		<tag k="name:se" v="Guorttesgurra" />
		<tag k="natural" v="valley" />
		<tag k="old_name:se" v="Guortesgurra" />
		<tag k="place" v="locality" />
		<tag k="ssr:stedsnr" v="809189" />
	</node>
	<node lat="68.71682777658725" lon="17.1780111043423" id="-41526">
		<tag k="name" v="Skáhperámak - Skavlia" />
		<tag k="name:no" v="Skavlia" />
		<tag k="name:se" v="Skáhperámak" />
		<tag k="natural" v="slope" />
		<tag k="place" v="locality" />
		<tag k="ssr:stedsnr" v="809963" />
	</node>
	<node lat="68.53718333687925" lon="16.706225003230095" id="-41528">
		<tag k="alt_name:no" v="Boltåstuva" />
		<tag k="name" v="Boltåstua" />
		<tag k="name:no" v="Boltåstua" />
		<tag k="natural" v="hill" />
		<tag k="place" v="locality" />
		<tag k="ssr:stedsnr" v="809884" />
	</node>
	<node lat="68.54609999806226" lon="16.542238879579564" id="-41530">
		<tag k="name" v="Skruven" />
		<tag k="name:no" v="Skruven" />
		<tag k="natural" v="hill" />
		<tag k="place" v="locality" />
		<tag k="ssr:stedsnr" v="809887" />
	</node>
	<node lat="68.48009999852042" lon="16.157938878177657" id="-41534">
		<tag k="name" v="Ramnhallen" />
		<tag k="name:no" v="Ramnhallen" />
		<tag k="natural" v="hill" />
		<tag k="place" v="locality" />
		<tag k="ssr:stedsnr" v="813403" />
	</node>
	<node lat="68.49114166450364" lon="16.546469451371145" id="-41536">
		<tag k="name" v="Grønnlian" />
		<tag k="name:no" v="Grønnlian" />
		<tag k="natural" v="slope" />
		<tag k="place" v="locality" />
		<tag k="ssr:stedsnr" v="814113" />
	</node>
	<node lat="68.46849166411688" lon="16.156605559168224" id="-41537">
		<tag k="name" v="Galten" />
		<tag k="name:no" v="Galten" />
		<tag k="natural" v="hill" />
		<tag k="place" v="locality" />
		<tag k="ssr:stedsnr" v="814427" />
	</node>
	<node lat="68.50521389037284" lon="16.217924995224966" id="-41538">
		<tag k="name" v="Tronggapet" />
		<tag k="name:no" v="Tronggapet" />
		<tag k="natural" v="valley" />
		<tag k="place" v="locality" />
		<tag k="ssr:stedsnr" v="814428" />
	</node>
	<node lat="68.58344167012338" lon="16.21906112274211" id="-41540">
		<tag k="name" v="Øverdalen" />
		<tag k="name:no" v="Øverdalen" />
		<tag k="natural" v="valley" />
		<tag k="place" v="locality" />
		<tag k="ssr:stedsnr" v="814728" />
	</node>
	<node lat="68.57213888520694" lon="16.417938899013773" id="-41543">
		<tag k="name" v="Steinbakkan" />
		<tag k="name:no" v="Steinbakkan" />
		<tag k="natural" v="slope" />
		<tag k="place" v="locality" />
		<tag k="ssr:stedsnr" v="814691" />
	</node>
	<node lat="68.52421944599084" lon="16.434988885959758" id="-41546">
		<tag k="name" v="Ramnfloget" />
		<tag k="name:no" v="Ramnfloget" />
		<tag k="natural" v="hill" />
		<tag k="place" v="locality" />
		<tag k="ssr:stedsnr" v="816007" />
	</node>
	<node lat="68.4234861146556" lon="16.132530561231825" id="-41550">
		<tag k="name" v="Mølndalen" />
		<tag k="name:no" v="Mølndalen" />
		<tag k="natural" v="valley" />
		<tag k="place" v="locality" />
		<tag k="ssr:stedsnr" v="816377" />
	</node>
	<node lat="68.39711944139044" lon="16.131169436509" id="-41553">
		<tag k="name" v="Kjerråkerhaugen" />
		<tag k="name:no" v="Kjerråkerhaugen" />
		<tag k="natural" v="hill" />
		<tag k="place" v="locality" />
		<tag k="ssr:stedsnr" v="816523" />
	</node>
	<node lat="68.45764722239419" lon="16.388683332102737" id="-41558">
		<tag k="name" v="Reingjerdan" />
		<tag k="name:no" v="Reingjerdan" />
		<tag k="place" v="locality" />
		<tag k="ssr:stedsnr" v="816683" />
	</node>
	<node lat="68.57214444495611" lon="16.25230277965506" id="-41568">
		<tag k="fixme" v="consider natural=peak for the most distinct mountains in the district" />
		<tag k="name" v="Sjurikollen" />
		<tag k="name:no" v="Sjurikollen" />
		<tag k="natural" v="hill" />
		<tag k="place" v="locality" />
		<tag k="ssr:stedsnr" v="830926" />
	</node>
	<node lat="68.52935833566835" lon="16.675216655648683" id="-41570">
		<tag k="fixme" v="consider natural=peak for the most distinct mountains in the district" />
		<tag k="name" v="Ternåsen" />
		<tag k="name:no" v="Ternåsen" />
		<tag k="natural" v="hill" />
		<tag k="place" v="locality" />
		<tag k="ssr:stedsnr" v="843003" />
	</node>
	<node lat="68.56296666213976" lon="16.72311389346073" id="-41571">
		<tag k="name" v="Kudalen" />
		<tag k="name:no" v="Kudalen" />
		<tag k="natural" v="valley" />
		<tag k="place" v="locality" />
		<tag k="ssr:stedsnr" v="843178" />
	</node>
	<node lat="68.55778610897336" lon="16.66394443116986" id="-41572">
		<tag k="name" v="Titingbakken" />
		<tag k="name:no" v="Titingbakken" />
		<tag k="natural" v="slope" />
		<tag k="place" v="locality" />
		<tag k="ssr:stedsnr" v="843182" />
	</node>
	<node lat="68.65699722475034" lon="17.25955276672779" id="-41574">
		<tag k="name" v="Nessletta" />
		<tag k="name:no" v="Nessletta" />
		<tag k="place" v="locality" />
		<tag k="ssr:stedsnr" v="843285" />
	</node>
	<node lat="68.62833055141975" lon="17.235652779457354" id="-41577">
		<tag k="name" v="Staggadalen" />
		<tag k="name:no" v="Staggadalen" />
		<tag k="natural" v="valley" />
		<tag k="place" v="locality" />
		<tag k="ssr:stedsnr" v="843686" />
	</node>
	<node lat="68.41503611047862" lon="16.181575003381532" id="-41580">
		<tag k="fixme" v="consider natural=peak for the most distinct mountains in the district" />
		<tag k="name" v="Durmålstuva" />
		<tag k="name:no" v="Durmålstuva" />
		<tag k="natural" v="hill" />
		<tag k="place" v="locality" />
		<tag k="ssr:stedsnr" v="927295" />
	</node>
	<node lat="68.46507499576605" lon="16.224463886650387" id="-41581">
		<tag k="fixme" v="consider natural=peak for the most distinct mountains in the district" />
		<tag k="name" v="Kjerstadtinden" />
		<tag k="name:no" v="Kjerstadtinden" />
		<tag k="natural" v="hill" />
		<tag k="place" v="locality" />
		<tag k="ssr:stedsnr" v="927426" />
	</node>
	<node lat="68.6115638919049" lon="16.197472217264448" id="-41587">
		<tag k="fixme" v="consider natural=peak for the most distinct mountains in the district" />
		<tag k="name" v="Tverraksla" />
		<tag k="name:no" v="Tverraksla" />
		<tag k="natural" v="hill" />
		<tag k="place" v="locality" />
		<tag k="ssr:stedsnr" v="928347" />
	</node>
	<node lat="68.65352222485015" lon="16.749727776332193" id="-41591">
		<tag k="alt_name:no" v="Kisletten" />
		<tag k="name" v="Kisletta" />
		<tag k="name:no" v="Kisletta" />
		<tag k="place" v="locality" />
		<tag k="ssr:stedsnr" v="930042" />
	</node>
	<node lat="68.59583055539736" lon="16.631344446678945" id="-41599">
		<tag k="name" v="Skaskarhøgda" />
		<tag k="name:no" v="Skaskarhøgda" />
		<tag k="natural" v="hill" />
		<tag k="place" v="locality" />
		<tag k="ssr:stedsnr" v="930199" />
	</node>
	<node lat="68.57959166914343" lon="16.298313879255684" id="-41601">
		<tag k="name" v="Ørntuva" />
		<tag k="name:no" v="Ørntuva" />
		<tag k="natural" v="hill" />
		<tag k="place" v="locality" />
		<tag k="ssr:stedsnr" v="930170" />
	</node>
	<node lat="68.59160555096003" lon="16.75873056463359" id="-41602">
		<tag k="fixme" v="consider natural=peak for the most distinct mountains in the district" />
		<tag k="name" v="Bufjellet" />
		<tag k="name:no" v="Bufjellet" />
		<tag k="natural" v="hill" />
		<tag k="place" v="locality" />
		<tag k="ssr:stedsnr" v="930185" />
	</node>
	<node lat="68.51957499886377" lon="16.246963889537426" id="-41603">
		<tag k="name" v="Vasskollen" />
		<tag k="name:no" v="Vasskollen" />
		<tag k="natural" v="hill" />
		<tag k="place" v="locality" />
		<tag k="ssr:stedsnr" v="869818" />
	</node>
	<node lat="68.57746944405844" lon="16.664736113885457" id="-41606">
		<tag k="fixme" v="consider natural=peak for the most distinct mountains in the district" />
		<tag k="name" v="Høgåsen" />
		<tag k="name:no" v="Høgåsen" />
		<tag k="natural" v="hill" />
		<tag k="place" v="locality" />
		<tag k="ssr:stedsnr" v="870171" />
	</node>
	<node lat="68.57666389145739" lon="16.68335832506869" id="-41607">
		<tag k="name" v="Villdalen" />
		<tag k="name:no" v="Villdalen" />
		<tag k="natural" v="valley" />
		<tag k="place" v="locality" />
		<tag k="ssr:stedsnr" v="870172" />
	</node>
	<node lat="68.61412499715489" lon="16.817624997226133" id="-41611">
		<tag k="fixme" v="consider natural=peak for the most distinct mountains in the district" />
		<tag k="name" v="Karifjellet" />
		<tag k="name:no" v="Karifjellet" />
		<tag k="natural" v="hill" />
		<tag k="place" v="locality" />
		<tag k="ssr:stedsnr" v="930232" />
	</node>
	<node lat="68.64087777440542" lon="16.682280544418038" id="-41612">
		<tag k="fixme" v="consider natural=peak for the most distinct mountains in the district" />
		<tag k="name" v="Tennevikheia" />
		<tag k="name:no" v="Tennevikheia" />
		<tag k="natural" v="hill" />
		<tag k="place" v="locality" />
		<tag k="ssr:stedsnr" v="870020" />
	</node>
	<node lat="68.53970555248546" lon="16.662313888949047" id="-41615">
		<tag k="fixme" v="consider natural=peak for the most distinct mountains in the district" />
		<tag k="name" v="Gårdslettåsen" />
		<tag k="name:no" v="Gårdslettåsen" />
		<tag k="natural" v="hill" />
		<tag k="place" v="locality" />
		<tag k="ssr:stedsnr" v="870864" />
	</node>
	<node lat="68.64540277581109" lon="17.293361119663867" id="-41616">
		<tag k="name" v="Leaibevággi" />
		<tag k="name:se" v="Leaibevággi" />
		<tag k="natural" v="valley" />
		<tag k="place" v="locality" />
		<tag k="ssr:stedsnr" v="870875" />
	</node>
	<node lat="68.64212499634817" lon="16.938350007214776" id="-41617">
		<tag k="name" v="Sáttiidvággi" />
		<tag k="name:se" v="Sáttiidvággi" />
		<tag k="natural" v="valley" />
		<tag k="place" v="locality" />
		<tag k="ssr:stedsnr" v="870878" />
	</node>
	<node lat="68.63163632621445" lon="17.08167361247026" id="-41619">
		<tag k="fixme" v="consider natural=peak for the most distinct mountains in the district" />
		<tag k="name" v="Čoarra - Kjerringa" />
		<tag k="name:no" v="Kjerringa" />
		<tag k="name:se" v="Čoarra" />
		<tag k="natural" v="hill" />
		<tag k="place" v="locality" />
		<tag k="ssr:stedsnr" v="871865" />
	</node>
	<node lat="68.52681389249456" lon="16.32377778618017" id="-41620">
		<tag k="fixme" v="consider natural=peak for the most distinct mountains in the district" />
		<tag k="name" v="Čáhppesoaivi - Trollfjellet" />
		<tag k="name:no" v="Trollfjellet" />
		<tag k="name:se" v="Čáhppesoaivi" />
		<tag k="natural" v="hill" />
		<tag k="old_name:se" v="Čappesoaivi" />
		<tag k="place" v="locality" />
		<tag k="ssr:stedsnr" v="930628" />
	</node>
	<node lat="68.55349444576999" lon="16.66978056293914" id="-41621">
		<tag k="fixme" v="consider natural=peak for the most distinct mountains in the district" />
		<tag k="name" v="Durmålstuva" />
		<tag k="name:no" v="Durmålstuva" />
		<tag k="natural" v="hill" />
		<tag k="place" v="locality" />
		<tag k="ssr:stedsnr" v="930855" />
	</node>
	<node lat="68.54378055545911" lon="16.323849998641855" id="-41624">
		<tag k="fixme" v="consider natural=peak for the most distinct mountains in the district" />
		<tag k="name" v="Slettåsen" />
		<tag k="name:no" v="Slettåsen" />
		<tag k="natural" v="hill" />
		<tag k="place" v="locality" />
		<tag k="ssr:stedsnr" v="930865" />
	</node>
	<node lat="68.60605555900476" lon="17.172774992810076" id="-41630">
		<tag k="alt_name:no" v="Novatinden" />
		<tag k="fixme" v="consider natural=peak for the most distinct mountains in the district" />
		<tag k="name" v="Novatind" />
		<tag k="name:no" v="Novatind" />
		<tag k="natural" v="hill" />
		<tag k="place" v="locality" />
		<tag k="ssr:stedsnr" v="930915" />
	</node>
	<node lat="68.57585833368145" lon="16.355941655828506" id="-41638">
		<tag k="fixme" v="consider natural=peak for the most distinct mountains in the district" />
		<tag k="name" v="Kleivfjellet" />
		<tag k="name:no" v="Kleivfjellet" />
		<tag k="natural" v="hill" />
		<tag k="place" v="locality" />
		<tag k="ssr:stedsnr" v="931171" />
	</node>
	<node lat="68.560416669376" lon="16.183391656661094" id="-41639">
		<tag k="name" v="Mølnskaret" />
		<tag k="name:no" v="Mølnskaret" />
		<tag k="natural" v="valley" />
		<tag k="place" v="locality" />
		<tag k="ssr:stedsnr" v="875562" />
	</node>
	<node lat="68.52097777629336" lon="16.44591667738087" id="-41643">
		<tag k="name" v="Geitlia" />
		<tag k="name:no" v="Geitlia" />
		<tag k="natural" v="slope" />
		<tag k="place" v="locality" />
		<tag k="ssr:stedsnr" v="876005" />
	</node>
	<node lat="68.47095555673704" lon="16.4802388848677" id="-41649">
		<tag k="name" v="Flatbergan" />
		<tag k="name:no" v="Flatbergan" />
		<tag k="natural" v="hill" />
		<tag k="place" v="locality" />
		<tag k="ssr:stedsnr" v="876355" />
	</node>
	<node lat="68.39329722249519" lon="16.148716676959168" id="-41651">
		<tag k="name" v="Trollgjota" />
		<tag k="name:no" v="Trollgjota" />
		<tag k="place" v="locality" />
		<tag k="ssr:stedsnr" v="876407" />
	</node>
	<node lat="68.42635000100687" lon="16.10414998971615" id="-41654">
		<tag k="name" v="Sjøbubakkan" />
		<tag k="name:no" v="Sjøbubakkan" />
		<tag k="natural" v="slope" />
		<tag k="place" v="locality" />
		<tag k="ssr:stedsnr" v="876462" />
	</node>
	<node lat="68.45103055939956" lon="16.442872228147195" id="-41656">
		<tag k="name" v="Sjåhaugen" />
		<tag k="name:no" v="Sjåhaugen" />
		<tag k="natural" v="hill" />
		<tag k="place" v="locality" />
		<tag k="ssr:stedsnr" v="876664" />
	</node>
	<node lat="68.43104722155078" lon="16.3863444405506" id="-41658">
		<tag k="name" v="Klokka sju-skaret" />
		<tag k="name:no" v="Klokka sju-skaret" />
		<tag k="natural" v="valley" />
		<tag k="place" v="locality" />
		<tag k="ssr:stedsnr" v="876713" />
	</node>
	<node lat="68.4228083372142" lon="16.369161110378702" id="-41659">
		<tag k="name" v="Åberget" />
		<tag k="name:no" v="Åberget" />
		<tag k="natural" v="hill" />
		<tag k="place" v="locality" />
		<tag k="ssr:stedsnr" v="876717" />
	</node>
	<node lat="68.4324361107567" lon="16.109861119613" id="-41661">
		<tag k="name" v="Båtberget" />
		<tag k="name:no" v="Båtberget" />
		<tag k="natural" v="hill" />
		<tag k="place" v="locality" />
		<tag k="ssr:stedsnr" v="877350" />
	</node>
	<node lat="68.4292083357476" lon="16.15144167063617" id="-41663">
		<tag k="name" v="Rona" />
		<tag k="name:no" v="Rona" />
		<tag k="place" v="locality" />
		<tag k="ssr:stedsnr" v="877369" />
	</node>
	<node lat="68.45129722676548" lon="16.15094165957913" id="-41670">
		<tag k="name" v="Sandbakkan" />
		<tag k="name:no" v="Sandbakkan" />
		<tag k="natural" v="slope" />
		<tag k="place" v="locality" />
		<tag k="ssr:stedsnr" v="934633" />
	</node>
	<node lat="68.45840833062657" lon="16.130655555261665" id="-41672">
		<tag k="name" v="Struphaugen" />
		<tag k="name:no" v="Struphaugen" />
		<tag k="natural" v="hill" />
		<tag k="place" v="locality" />
		<tag k="ssr:stedsnr" v="934661" />
	</node>
	<node lat="68.53517777447423" lon="16.138813877298947" id="-41674">
		<tag k="name" v="Slåttbakkan" />
		<tag k="name:no" v="Slåttbakkan" />
		<tag k="natural" v="slope" />
		<tag k="place" v="locality" />
		<tag k="ssr:stedsnr" v="934676" />
	</node>
	<node lat="68.50271944106716" lon="16.538572214392055" id="-41676">
		<tag k="name" v="Storhola" />
		<tag k="name:no" v="Storhola" />
		<tag k="natural" v="valley" />
		<tag k="place" v="locality" />
		<tag k="ssr:stedsnr" v="935092" />
	</node>
	<node lat="68.53242222147856" lon="16.159980550106603" id="-41681">
		<tag k="name" v="Storhaugen" />
		<tag k="name:no" v="Storhaugen" />
		<tag k="natural" v="hill" />
		<tag k="place" v="locality" />
		<tag k="ssr:stedsnr" v="889919" />
	</node>
	<node lat="68.51213333634347" lon="16.576255545622782" id="-41682">
		<tag k="fixme" v="consider natural=peak for the most distinct mountains in the district" />
		<tag k="name" v="Tverråsen" />
		<tag k="name:no" v="Tverråsen" />
		<tag k="natural" v="hill" />
		<tag k="place" v="locality" />
		<tag k="ssr:stedsnr" v="903017" />
	</node>
	<node lat="68.51936111243684" lon="16.63097777277902" id="-41683">
		<tag k="name" v="Bjørnåsbakken" />
		<tag k="name:no" v="Bjørnåsbakken" />
		<tag k="natural" v="slope" />
		<tag k="place" v="locality" />
		<tag k="ssr:stedsnr" v="903021" />
	</node>
	<node lat="68.52690555272926" lon="16.59263888278747" id="-41684">
		<tag k="fixme" v="consider natural=peak for the most distinct mountains in the district" />
		<tag k="name" v="Høgda" />
		<tag k="name:no" v="Høgda" />
		<tag k="natural" v="hill" />
		<tag k="place" v="locality" />
		<tag k="ssr:stedsnr" v="903022" />
	</node>
	<node lat="68.51308888824528" lon="16.712305561657786" id="-41685">
		<tag k="name" v="Pålhågen" />
		<tag k="name:no" v="Pålhågen" />
		<tag k="natural" v="hill" />
		<tag k="place" v="locality" />
		<tag k="ssr:stedsnr" v="903001" />
	</node>
	<node lat="68.66462777610529" lon="17.239055565164104" id="-41688">
		<tag k="name" v="Geiteskaret" />
		<tag k="name:no" v="Geiteskaret" />
		<tag k="natural" v="valley" />
		<tag k="place" v="locality" />
		<tag k="ssr:stedsnr" v="903278" />
	</node>
	<node lat="68.68106944577704" lon="16.9710027809078" id="-41690">
		<tag k="name" v="Moa" />
		<tag k="name:no" v="Moa" />
		<tag k="place" v="locality" />
		<tag k="ssr:stedsnr" v="903615" />
	</node>
	<node lat="68.62465000391633" lon="16.78591387927664" id="-41692">
		<tag k="name" v="Mølleberget" />
		<tag k="name:no" v="Mølleberget" />
		<tag k="natural" v="hill" />
		<tag k="place" v="locality" />
		<tag k="ssr:stedsnr" v="903756" />
	</node>
	<node lat="68.66248055824433" lon="16.983188880126104" id="-41696">
		<tag k="name" v="Kalvholla" />
		<tag k="name:no" v="Kalvholla" />
		<tag k="natural" v="valley" />
		<tag k="place" v="locality" />
		<tag k="ssr:stedsnr" v="903915" />
	</node>
	<node lat="68.67533611411075" lon="16.903644441411366" id="-41699">
		<tag k="name" v="Lemman" />
		<tag k="name:no" v="Lemman" />
		<tag k="natural" v="hill" />
		<tag k="place" v="locality" />
		<tag k="ssr:stedsnr" v="903899" />
	</node>
	<node lat="68.47752778151902" lon="16.50656111193885" id="-41704">
		<tag k="fixme" v="consider natural=peak for the most distinct mountains in the district" />
		<tag k="name" v="Stifjellet" />
		<tag k="name:no" v="Stifjellet" />
		<tag k="natural" v="hill" />
		<tag k="place" v="locality" />
		<tag k="ssr:stedsnr" v="927420" />
	</node>
	<node lat="68.46166666363706" lon="16.352525000934108" id="-41706">
		<tag k="fixme" v="consider natural=peak for the most distinct mountains in the district" />
		<tag k="name" v="Bruna" />
		<tag k="name:no" v="Bruna" />
		<tag k="natural" v="hill" />
		<tag k="place" v="locality" />
		<tag k="ssr:stedsnr" v="927461" />
	</node>
	<node lat="68.57666666518993" lon="16.14593332479888" id="-41707">
		<tag k="fixme" v="consider natural=peak for the most distinct mountains in the district" />
		<tag k="name" v="Gamfjellet" />
		<tag k="name:no" v="Gamfjellet" />
		<tag k="natural" v="hill" />
		<tag k="place" v="locality" />
		<tag k="ssr:stedsnr" v="928830" />
	</node>
	<node lat="68.67712500488986" lon="16.764563879157343" id="-41708">
		<tag k="alt_name:no" v="Langeberget" />
		<tag k="name" v="Langberget" />
		<tag k="name:no" v="Langberget" />
		<tag k="natural" v="hill" />
		<tag k="place" v="locality" />
		<tag k="ssr:stedsnr" v="930108" />
	</node>
	<node lat="68.59748333132228" lon="16.341319437427728" id="-41709">
		<tag k="name" v="Skitneskaret" />
		<tag k="name:no" v="Skitneskaret" />
		<tag k="natural" v="valley" />
		<tag k="place" v="locality" />
		<tag k="ssr:stedsnr" v="930206" />
	</node>
	<node lat="68.53586388936829" lon="16.557491674169373" id="-41712">
		<tag k="fixme" v="consider natural=peak for the most distinct mountains in the district" />
		<tag k="name" v="Klubban" />
		<tag k="name:no" v="Klubban" />
		<tag k="natural" v="hill" />
		<tag k="place" v="locality" />
		<tag k="ssr:stedsnr" v="930796" />
	</node>
	<node lat="68.64735555861853" lon="16.88501944482377" id="-41715">
		<tag k="fixme" v="consider natural=peak for the most distinct mountains in the district" />
		<tag k="name" v="Tovikfjellet" />
		<tag k="name:no" v="Tovikfjellet" />
		<tag k="natural" v="hill" />
		<tag k="place" v="locality" />
		<tag k="ssr:stedsnr" v="930889" />
	</node>
	<node lat="68.57277222556891" lon="16.86694167640347" id="-41720">
		<tag k="alt_name:no" v="Resmåltind" />
		<tag k="fixme" v="consider natural=peak for the most distinct mountains in the district" />
		<tag k="name" v="Rismålstinden - Geassegasčohkka" />
		<tag k="name:no" v="Rismålstinden" />
		<tag k="name:se" v="Geassegasčohkka" />
		<tag k="natural" v="hill" />
		<tag k="place" v="locality" />
		<tag k="ssr:stedsnr" v="931951" />
	</node>
	<node lat="68.56975833677096" lon="17.337702767893663" id="-41721">
		<tag k="name" v="Rohči" />
		<tag k="name:se" v="Rohči" />
		<tag k="natural" v="valley" />
		<tag k="place" v="locality" />
		<tag k="ssr:stedsnr" v="932018" />
	</node>
	<node lat="68.5714916663883" lon="16.38043888237965" id="-41726">
		<tag k="name" v="Nestlihammaren" />
		<tag k="name:no" v="Nestlihammaren" />
		<tag k="natural" v="hill" />
		<tag k="place" v="locality" />
		<tag k="ssr:stedsnr" v="935078" />
	</node>
	<node lat="68.57090000006951" lon="16.411172228044016" id="-41727">
		<tag k="name" v="Brattlia" />
		<tag k="name:no" v="Brattlia" />
		<tag k="natural" v="slope" />
		<tag k="place" v="locality" />
		<tag k="ssr:stedsnr" v="935080" />
	</node>
	<node lat="68.53060832988976" lon="16.419736116416903" id="-41731">
		<tag k="name" v="Kvanto" />
		<tag k="name:no" v="Kvanto" />
		<tag k="natural" v="hill" />
		<tag k="place" v="locality" />
		<tag k="ssr:stedsnr" v="935739" />
	</node>
	<node lat="68.55965278252108" lon="16.279352771336168" id="-41733">
		<tag k="name" v="Asphågen" />
		<tag k="name:no" v="Asphågen" />
		<tag k="natural" v="hill" />
		<tag k="place" v="locality" />
		<tag k="ssr:stedsnr" v="937112" />
	</node>
	<node lat="68.44237222586293" lon="16.335583343147192" id="-41738">
		<tag k="name" v="Bulihamran" />
		<tag k="name:no" v="Bulihamran" />
		<tag k="natural" v="hill" />
		<tag k="place" v="locality" />
		<tag k="ssr:stedsnr" v="937550" />
	</node>
	<node lat="68.4254472240629" lon="16.154316676175128" id="-41739">
		<tag k="name" v="Hjertet" />
		<tag k="name:no" v="Hjertet" />
		<tag k="natural" v="hill" />
		<tag k="place" v="locality" />
		<tag k="ssr:stedsnr" v="937483" />
	</node>
	<node lat="68.40396388688272" lon="16.19616666503265" id="-41741">
		<tag k="name" v="Stien" />
		<tag k="name:no" v="Stien" />
		<tag k="natural" v="slope" />
		<tag k="place" v="locality" />
		<tag k="ssr:stedsnr" v="937435" />
	</node>
	<node lat="68.46009444180196" lon="16.398313878140332" id="-41742">
		<tag k="name" v="Bjørnhågen" />
		<tag k="name:no" v="Bjørnhågen" />
		<tag k="natural" v="hill" />
		<tag k="place" v="locality" />
		<tag k="ssr:stedsnr" v="937628" />
	</node>
	<node lat="68.43183888900393" lon="16.39909721218922" id="-41743">
		<tag k="name" v="Breivad" />
		<tag k="name:no" v="Breivad" />
		<tag k="place" v="locality" />
		<tag k="ssr:stedsnr" v="937735" />
	</node>
	<node lat="68.58113055519603" lon="16.11485832078648" id="-41746">
		<tag k="fixme" v="consider natural=peak for the most distinct mountains in the district" />
		<tag k="name" v="Doaresjuovvárri" />
		<tag k="name:se" v="Doaresjuovvárri" />
		<tag k="natural" v="hill" />
		<tag k="place" v="locality" />
		<tag k="ssr:stedsnr" v="952556" />
	</node>
	<node lat="68.56565832942465" lon="16.67526944053633" id="-41747">
		<tag k="name" v="Brokkmyrhågen" />
		<tag k="name:no" v="Brokkmyrhågen" />
		<tag k="natural" v="hill" />
		<tag k="place" v="locality" />
		<tag k="ssr:stedsnr" v="963188" />
	</node>
	<node lat="68.5723277764821" lon="16.689113892299996" id="-41748">
		<tag k="name" v="Forrheia" />
		<tag k="name:no" v="Forrheia" />
		<tag k="natural" v="hill" />
		<tag k="place" v="locality" />
		<tag k="ssr:stedsnr" v="963191" />
	</node>
	<node lat="68.61817777747984" lon="17.278044437265113" id="-41752">
		<tag k="name" v="Asphaugen" />
		<tag k="name:no" v="Asphaugen" />
		<tag k="natural" v="hill" />
		<tag k="place" v="locality" />
		<tag k="ssr:stedsnr" v="963705" />
	</node>
	<node lat="68.58161111211169" lon="17.305547211477318" id="-41753">
		<tag k="name" v="Øvste Hesjebakken" />
		<tag k="name:no" v="Øvste Hesjebakken" />
		<tag k="natural" v="slope" />
		<tag k="place" v="locality" />
		<tag k="ssr:stedsnr" v="963709" />
	</node>
	<node lat="68.69372500277565" lon="17.143100001103047" id="-41755">
		<tag k="fixme" v="consider natural=peak for the most distinct mountains in the district" />
		<tag k="name" v="Tverrfjellet" />
		<tag k="name:no" v="Tverrfjellet" />
		<tag k="natural" v="hill" />
		<tag k="place" v="locality" />
		<tag k="ssr:stedsnr" v="963691" />
	</node>
	<node lat="68.68185000402013" lon="17.15466111848698" id="-41756">
		<tag k="fixme" v="consider natural=peak for the most distinct mountains in the district" />
		<tag k="name" v="Bjerkåsen" />
		<tag k="name:no" v="Bjerkåsen" />
		<tag k="natural" v="hill" />
		<tag k="place" v="locality" />
		<tag k="ssr:stedsnr" v="963692" />
	</node>
	<node lat="68.65363333697549" lon="17.274211121466596" id="-41758">
		<tag k="name" v="Enighetsskaret" />
		<tag k="name:no" v="Enighetsskaret" />
		<tag k="natural" v="valley" />
		<tag k="place" v="locality" />
		<tag k="ssr:stedsnr" v="964306" />
	</node>
	<node lat="68.67896111179567" lon="17.015763884512904" id="-41760">
		<tag k="name" v="Ørnberget" />
		<tag k="name:no" v="Ørnberget" />
		<tag k="natural" v="hill" />
		<tag k="place" v="locality" />
		<tag k="ssr:stedsnr" v="964883" />
	</node>
	<node lat="68.583472683435" lon="16.7891476176931" id="-41762">
		<tag k="fixme" v="consider natural=peak for the most distinct mountains in the district" />
		<tag k="name" v="Gáicavárdu" />
		<tag k="name:se" v="Gáicavárdu" />
		<tag k="natural" v="hill" />
		<tag k="place" v="locality" />
		<tag k="ssr:stedsnr" v="986168" />
	</node>
	<node lat="68.45904999603319" lon="16.19327500247941" id="-41766">
		<tag k="fixme" v="consider natural=peak for the most distinct mountains in the district" />
		<tag k="name" v="Kjerstadfjellet" />
		<tag k="name:no" v="Kjerstadfjellet" />
		<tag k="natural" v="hill" />
		<tag k="place" v="locality" />
		<tag k="ssr:stedsnr" v="16145" />
	</node>
	<node lat="68.55411110752702" lon="15.997938894705074" id="-41773">
		<tag k="name" v="Revskaret" />
		<tag k="natural" v="valley" />
		<tag k="place" v="locality" />
		<tag k="ssr:stedsnr" v="17884" />
	</node>
	<node lat="68.55271666386844" lon="16.02732500577756" id="-41775">
		<tag k="fixme" v="consider natural=peak for the most distinct mountains in the district" />
		<tag k="name" v="Jorbavárri - Bollfjellet" />
		<tag k="name:no" v="Bollfjellet" />
		<tag k="name:se" v="Jorbavárri" />
		<tag k="natural" v="hill" />
		<tag k="place" v="locality" />
		<tag k="ssr:stedsnr" v="17886" />
	</node>
	<node lat="68.5427293222964" lon="16.13861609570257" id="-41776">
		<tag k="name" v="Jakoblia" />
		<tag k="name:no" v="Jakoblia" />
		<tag k="natural" v="slope" />
		<tag k="place" v="locality" />
		<tag k="ssr:stedsnr" v="17783" />
	</node>
	<node lat="68.602166666279" lon="16.730502767185513" id="-41778">
		<tag k="fixme" v="consider natural=peak for the most distinct mountains in the district" />
		<tag k="name" v="Várdu" />
		<tag k="name:se" v="Várdu" />
		<tag k="natural" v="hill" />
		<tag k="old_name:se" v="Vardo" />
		<tag k="place" v="locality" />
		<tag k="ssr:stedsnr" v="20197" />
	</node>
	<node lat="68.60043055455382" lon="16.608955543863036" id="-41779">
		<tag k="alt_name:no" v="Tømmeråsen, store" />
		<tag k="fixme" v="consider natural=peak for the most distinct mountains in the district" />
		<tag k="name" v="Stor-tømmeråsen" />
		<tag k="name:no" v="Stor-tømmeråsen" />
		<tag k="natural" v="hill" />
		<tag k="place" v="locality" />
		<tag k="ssr:stedsnr" v="20213" />
	</node>
	<node lat="68.63896110958498" lon="16.742450003107216" id="-41782">
		<tag k="name" v="Killidalen" />
		<tag k="name:no" v="Killidalen" />
		<tag k="natural" v="valley" />
		<tag k="place" v="locality" />
		<tag k="ssr:stedsnr" v="20018" />
	</node>
	<node lat="68.57107499553736" lon="16.783786119871085" id="-41784">
		<tag k="name" v="Stabbursdalen" />
		<tag k="name:no" v="Stabbursdalen" />
		<tag k="natural" v="valley" />
		<tag k="place" v="locality" />
		<tag k="ssr:stedsnr" v="20132" />
	</node>
	<node lat="68.57614444424426" lon="16.260722215722165" id="-41787">
		<tag k="alt_name:no" v="Lilletinden" />
		<tag k="fixme" v="consider natural=peak for the most distinct mountains in the district" />
		<tag k="name" v="Litletinden" />
		<tag k="name:no" v="Litletinden" />
		<tag k="natural" v="hill" />
		<tag k="place" v="locality" />
		<tag k="ssr:stedsnr" v="20154" />
	</node>
	<node lat="68.62191111550554" lon="17.264749991449534" id="-41793">
		<tag k="alt_name:no" v="Ørnberget" />
		<tag k="name" v="Luspevárri - Ørneberget" />
		<tag k="name:no" v="Ørneberget" />
		<tag k="name:se" v="Luspevárri" />
		<tag k="natural" v="hill" />
		<tag k="place" v="locality" />
		<tag k="ssr:stedsnr" v="20905" />
	</node>
	<node lat="68.62539444645728" lon="17.32974443599362" id="-41794">
		<tag k="fixme" v="consider natural=peak for the most distinct mountains in the district" />
		<tag k="name" v="Riebečohkka - Revtind" />
		<tag k="name:no" v="Revtind" />
		<tag k="name:se" v="Riebečohkka" />
		<tag k="natural" v="hill" />
		<tag k="place" v="locality" />
		<tag k="ssr:stedsnr" v="20907" />
	</node>
	<node lat="68.630797225246" lon="17.22148611607269" id="-41797">
		<tag k="fixme" v="consider natural=peak for the most distinct mountains in the district" />
		<tag k="name" v="Gurravárri - Kovanfjellet" />
		<tag k="name:no" v="Kovanfjellet" />
		<tag k="name:se" v="Gurravárri" />
		<tag k="natural" v="hill" />
		<tag k="place" v="locality" />
		<tag k="ssr:stedsnr" v="20918" />
	</node>
	<node lat="68.63327221882302" lon="16.85957498858718" id="-41798">
		<tag k="fixme" v="consider natural=peak for the most distinct mountains in the district" />
		<tag k="name" v="Mihkkalvárri - Mikkelfjellet" />
		<tag k="name:no" v="Mikkelfjellet" />
		<tag k="name:se" v="Mihkkalvárri" />
		<tag k="natural" v="hill" />
		<tag k="place" v="locality" />
		<tag k="ssr:stedsnr" v="20919" />
	</node>
	<node lat="68.54381388685422" lon="16.734488885202968" id="-41799">
		<tag k="alt_name:no" v="Mollforåsen" />
		<tag k="fixme" v="consider natural=peak for the most distinct mountains in the district" />
		<tag k="name" v="Moldforåsen" />
		<tag k="name:no" v="Moldforåsen" />
		<tag k="natural" v="hill" />
		<tag k="place" v="locality" />
		<tag k="ssr:stedsnr" v="20778" />
	</node>
	<node lat="68.53753888840302" lon="16.295227777408382" id="-41800">
		<tag k="alt_name:no" v="Hellaren" />
		<tag k="name" v="Hallaren" />
		<tag k="name:no" v="Hallaren" />
		<tag k="natural" v="hill" />
		<tag k="place" v="locality" />
		<tag k="ssr:stedsnr" v="20782" />
	</node>
	<node lat="68.51597499744274" lon="16.340349992511946" id="-41801">
		<tag k="alt_name:no" v="Svartvasshompen" />
		<tag k="fixme" v="consider natural=peak for the most distinct mountains in the district" />
		<tag k="name" v="Svartvasshumpen" />
		<tag k="name:no" v="Svartvasshumpen" />
		<tag k="natural" v="hill" />
		<tag k="place" v="locality" />
		<tag k="ssr:stedsnr" v="20812" />
	</node>
	<node lat="68.5203416700294" lon="16.323388882733806" id="-41802">
		<tag k="fixme" v="consider natural=peak for the most distinct mountains in the district" />
		<tag k="name" v="Aksla" />
		<tag k="name:no" v="Aksla" />
		<tag k="natural" v="hill" />
		<tag k="place" v="locality" />
		<tag k="ssr:stedsnr" v="20813" />
	</node>
	<node lat="68.5129305582211" lon="16.391927782077165" id="-41803">
		<tag k="name" v="Geađgeláhku" />
		<tag k="name:se" v="Geađgeláhku" />
		<tag k="natural" v="valley" />
		<tag k="old_name:se" v="Gæđgelakko" />
		<tag k="place" v="locality" />
		<tag k="ssr:stedsnr" v="20814" />
	</node>
	<node lat="68.56450833237119" lon="17.33990833841258" id="-41810">
		<tag k="fixme" v="consider natural=peak for the most distinct mountains in the district" />
		<tag k="name" v="Báltavárdu - Kjølen" />
		<tag k="name:no" v="Kjølen" />
		<tag k="name:se" v="Báltavárdu" />
		<tag k="natural" v="hill" />
		<tag k="place" v="locality" />
		<tag k="ssr:stedsnr" v="21917" />
	</node>
	<node lat="68.45376667054649" lon="16.122713893117282" id="-41812">
		<tag k="name" v="Holmhaugen, søndre" />
		<tag k="name:no" v="Holmhaugen, søndre" />
		<tag k="natural" v="hill" />
		<tag k="place" v="locality" />
		<tag k="ssr:stedsnr" v="24717" />
	</node>
	<node lat="68.47942778178576" lon="16.154002768622046" id="-41813">
		<tag k="name" v="Gjerde" />
		<tag k="name:no" v="Gjerde" />
		<tag k="place" v="locality" />
		<tag k="ssr:stedsnr" v="24457" />
	</node>
	<node lat="68.45045833428598" lon="16.176452767494183" id="-41815">
		<tag k="name" v="Storhallen" />
		<tag k="name:no" v="Storhallen" />
		<tag k="place" v="locality" />
		<tag k="ssr:stedsnr" v="24646" />
	</node>
	<node lat="68.45431944422587" lon="16.16550277416034" id="-41816">
		<tag k="fixme" v="consider natural=peak for the most distinct mountains in the district" />
		<tag k="name" v="Li-fjellet" />
		<tag k="name:no" v="Li-fjellet" />
		<tag k="natural" v="hill" />
		<tag k="place" v="locality" />
		<tag k="ssr:stedsnr" v="24647" />
	</node>
	<node lat="68.45095278107038" lon="16.145636122643104" id="-41817">
		<tag k="name" v="Skarstrandhaugen" />
		<tag k="name:no" v="Skarstrandhaugen" />
		<tag k="natural" v="hill" />
		<tag k="place" v="locality" />
		<tag k="ssr:stedsnr" v="24672" />
	</node>
	<node lat="68.50266111464025" lon="16.492716668878906" id="-41820">
		<tag k="name" v="Lillehammaren" />
		<tag k="name:no" v="Lillehammaren" />
		<tag k="natural" v="hill" />
		<tag k="place" v="locality" />
		<tag k="ssr:stedsnr" v="25109" />
	</node>
	<node lat="68.47071389163246" lon="16.16827499366558" id="-41824">
		<tag k="name" v="Valvågbotn" />
		<tag k="name:no" v="Valvågbotn" />
		<tag k="natural" v="valley" />
		<tag k="place" v="locality" />
		<tag k="ssr:stedsnr" v="25544" />
	</node>
	<node lat="68.4710527797645" lon="16.13167222560912" id="-41826">
		<tag k="name" v="Rotneshaugen" />
		<tag k="name:no" v="Rotneshaugen" />
		<tag k="natural" v="hill" />
		<tag k="place" v="locality" />
		<tag k="ssr:stedsnr" v="25554" />
	</node>
	<node lat="68.54991944222799" lon="16.3771305518784" id="-41828">
		<tag k="name" v="Holshøgda" />
		<tag k="name:no" v="Holshøgda" />
		<tag k="natural" v="hill" />
		<tag k="place" v="locality" />
		<tag k="ssr:stedsnr" v="25972" />
	</node>
	<node lat="68.49199722158151" lon="16.165713885458352" id="-41832">
		<tag k="name" v="Holtan" />
		<tag k="name:no" v="Holtan" />
		<tag k="natural" v="hill" />
		<tag k="place" v="locality" />
		<tag k="ssr:stedsnr" v="26067" />
	</node>
	<node lat="68.42997778050623" lon="16.111286120162085" id="-41833">
		<tag k="name" v="Valberget" />
		<tag k="name:no" v="Valberget" />
		<tag k="natural" v="hill" />
		<tag k="place" v="locality" />
		<tag k="ssr:stedsnr" v="27340" />
	</node>
	<node lat="68.43281944618532" lon="16.30311389833703" id="-41838">
		<tag k="name" v="Langholten" />
		<tag k="name:no" v="Langholten" />
		<tag k="natural" v="slope" />
		<tag k="place" v="locality" />
		<tag k="ssr:stedsnr" v="27600" />
	</node>
	<node lat="68.45339721905755" lon="16.41723889174129" id="-41839">
		<tag k="name" v="Humpdalen" />
		<tag k="name:no" v="Humpdalen" />
		<tag k="natural" v="valley" />
		<tag k="place" v="locality" />
		<tag k="ssr:stedsnr" v="27699" />
	</node>
	<node lat="68.4297027803657" lon="16.332505554903403" id="-41842">
		<tag k="name" v="Skittenkjerran" />
		<tag k="name:no" v="Skittenkjerran" />
		<tag k="place" v="locality" />
		<tag k="ssr:stedsnr" v="27567" />
	</node>
	<node lat="68.45455000384648" lon="16.373263882090118" id="-41843">
		<tag k="name" v="Sør-Reingjerdan" />
		<tag k="name:no" v="Sør-Reingjerdan" />
		<tag k="place" v="locality" />
		<tag k="ssr:stedsnr" v="27647" />
	</node>
	<node lat="68.42501666770052" lon="16.37610277691818" id="-41844">
		<tag k="name" v="Hesjebakkan" />
		<tag k="name:no" v="Hesjebakkan" />
		<tag k="natural" v="slope" />
		<tag k="place" v="locality" />
		<tag k="ssr:stedsnr" v="27730" />
	</node>
	<node lat="68.44305000278457" lon="16.370719434931825" id="-41846">
		<tag k="name" v="Forraholtan" />
		<tag k="name:no" v="Forraholtan" />
		<tag k="natural" v="hill" />
		<tag k="place" v="locality" />
		<tag k="ssr:stedsnr" v="27745" />
	</node>
	<node lat="68.42207222378485" lon="16.355819453271483" id="-41847">
		<tag k="name" v="Kråkneshaugen" />
		<tag k="name:no" v="Kråkneshaugen" />
		<tag k="natural" v="hill" />
		<tag k="place" v="locality" />
		<tag k="ssr:stedsnr" v="27748" />
	</node>
	<node lat="68.42689444547877" lon="16.342830543382806" id="-41848">
		<tag k="name" v="Smimyra" />
		<tag k="name:no" v="Smimyra" />
		<tag k="natural" v="hill" />
		<tag k="place" v="locality" />
		<tag k="ssr:stedsnr" v="27760" />
	</node>
	<node lat="68.59768610691914" lon="16.305888886176504" id="-41852">
		<tag k="fixme" v="consider natural=peak for the most distinct mountains in the district" />
		<tag k="name" v="Mellafjellet" />
		<tag k="name:no" v="Mellafjellet" />
		<tag k="natural" v="hill" />
		<tag k="place" v="locality" />
		<tag k="ssr:stedsnr" v="40030" />
	</node>
	<node lat="68.57805000212304" lon="16.384922214005226" id="-41853">
		<tag k="fixme" v="consider natural=peak for the most distinct mountains in the district" />
		<tag k="name" v="Lillefjellet" />
		<tag k="name:no" v="Lillefjellet" />
		<tag k="natural" v="hill" />
		<tag k="place" v="locality" />
		<tag k="ssr:stedsnr" v="39839" />
	</node>
	<node lat="68.70416667061393" lon="16.95393611849711" id="-41854">
		<tag k="name" v="Skagan" />
		<tag k="name:no" v="Skagan" />
		<tag k="natural" v="slope" />
		<tag k="place" v="locality" />
		<tag k="ssr:stedsnr" v="54589" />
	</node>
	<node lat="68.60994722013223" lon="16.580955562933827" id="-41855">
		<tag k="name" v="Brekkebakkan" />
		<tag k="name:no" v="Brekkebakkan" />
		<tag k="natural" v="slope" />
		<tag k="place" v="locality" />
		<tag k="ssr:stedsnr" v="53154" />
	</node>
	<node lat="68.58301110811345" lon="16.780913876866435" id="-41856">
		<tag k="name" v="Staburskaret" />
		<tag k="name:no" v="Staburskaret" />
		<tag k="natural" v="valley" />
		<tag k="place" v="locality" />
		<tag k="ssr:stedsnr" v="53891" />
	</node>
	<node lat="68.60265277489358" lon="16.56550555092442" id="-41858">
		<tag k="name" v="Bjørnholla" />
		<tag k="name:no" v="Bjørnholla" />
		<tag k="natural" v="valley" />
		<tag k="place" v="locality" />
		<tag k="ssr:stedsnr" v="54096" />
	</node>
	<node lat="68.55094166566286" lon="16.678169454273455" id="-41860">
		<tag k="name" v="Halvgårskarryggen" />
		<tag k="name:no" v="Halvgårskarryggen" />
		<tag k="natural" v="ridge" />
		<tag k="place" v="locality" />
		<tag k="ssr:stedsnr" v="54034" />
	</node>
	<node lat="68.60961110950099" lon="16.61632222411727" id="-41861">
		<tag k="fixme" v="consider natural=peak for the most distinct mountains in the district" />
		<tag k="name" v="Skipdalsåsen" />
		<tag k="name:no" v="Skipdalsåsen" />
		<tag k="natural" v="hill" />
		<tag k="place" v="locality" />
		<tag k="ssr:stedsnr" v="54130" />
	</node>
	<node lat="68.62700555249717" lon="17.211583339603255" id="-41864">
		<tag k="fixme" v="consider natural=peak for the most distinct mountains in the district" />
		<tag k="loc_name:no" v="Kovannakken" />
		<tag k="name" v="Gurraoaivi - Kåvannakken" />
		<tag k="name:no" v="Kåvannakken" />
		<tag k="name:se" v="Gurraoaivi" />
		<tag k="natural" v="hill" />
		<tag k="place" v="locality" />
		<tag k="ssr:stedsnr" v="54663" />
	</node>
	<node lat="68.62239166678977" lon="16.85953333856205" id="-41865">
		<tag k="name" v="Isskaret" />
		<tag k="name:no" v="Isskaret" />
		<tag k="natural" v="valley" />
		<tag k="place" v="locality" />
		<tag k="ssr:stedsnr" v="54797" />
	</node>
	<node lat="68.60315278254873" lon="16.602219436717785" id="-41866">
		<tag k="name" v="Finnsletta" />
		<tag k="name:no" v="Finnsletta" />
		<tag k="place" v="locality" />
		<tag k="ssr:stedsnr" v="54830" />
	</node>
	<node lat="68.66762221827355" lon="17.011194447544646" id="-41867">
		<tag k="name" v="Skillhågen" />
		<tag k="name:no" v="Skillhågen" />
		<tag k="natural" v="hill" />
		<tag k="place" v="locality" />
		<tag k="ssr:stedsnr" v="54928" />
	</node>
	<node lat="68.64101111200806" lon="16.91606388807878" id="-41868">
		<tag k="name" v="Tverrelvdalen" />
		<tag k="name:no" v="Tverrelvdalen" />
		<tag k="natural" v="valley" />
		<tag k="place" v="locality" />
		<tag k="ssr:stedsnr" v="54937" />
	</node>
	<node lat="68.42021567779636" lon="16.38882030678862" id="-41873">
		<tag k="name" v="Oterholet" />
		<tag k="name:no" v="Oterholet" />
		<tag k="natural" v="valley" />
		<tag k="place" v="locality" />
		<tag k="ssr:stedsnr" v="78465" />
	</node>
	<node lat="68.59738611401623" lon="16.11496667108524" id="-41877">
		<tag k="fixme" v="consider natural=peak for the most distinct mountains in the district" />
		<tag k="name" v="Juvvačohkka - Botnfjellet" />
		<tag k="name:no" v="Botnfjellet" />
		<tag k="name:se" v="Juvvačohkka" />
		<tag k="natural" v="hill" />
		<tag k="place" v="locality" />
		<tag k="ssr:stedsnr" v="78201" />
	</node>
	<node lat="68.61620000050516" lon="17.45804444366836" id="-41878">
		<tag k="alt_name:no" v="Revdalen, l" />
		<tag k="name" v="Litle Revdalen" />
		<tag k="name:no" v="Litle Revdalen" />
		<tag k="natural" v="valley" />
		<tag k="place" v="locality" />
		<tag k="ssr:stedsnr" v="78534" />
	</node>
	<node lat="68.54904166654845" lon="16.1631138803426" id="-41879">
		<tag k="fixme" v="consider natural=peak for the most distinct mountains in the district" />
		<tag k="name" v="Taraldsviktinden" />
		<tag k="name:no" v="Taraldsviktinden" />
		<tag k="natural" v="hill" />
		<tag k="place" v="locality" />
		<tag k="ssr:stedsnr" v="78758" />
	</node>
	<node lat="68.56928055172924" lon="16.126211116487823" id="-41880">
		<tag k="name" v="Nuortavággi - Norddalen" />
		<tag k="name:no" v="Norddalen" />
		<tag k="name:se" v="Nuortavággi" />
		<tag k="natural" v="valley" />
		<tag k="place" v="locality" />
		<tag k="ssr:stedsnr" v="78872" />
	</node>
	<node lat="68.56515555985582" lon="16.7910055538606" id="-41883">
		<tag k="fixme" v="consider natural=peak for the most distinct mountains in the district" />
		<tag k="loc_name:se" v="Duolbavárdu" />
		<tag k="name" v="Flatfjellet" />
		<tag k="name:no" v="Flatfjellet" />
		<tag k="natural" v="hill" />
		<tag k="place" v="locality" />
		<tag k="ssr:stedsnr" v="80136" />
	</node>
	<node lat="68.61647499980609" lon="16.720786118697042" id="-41886">
		<tag k="fixme" v="multiple name tags, choose one and add the other to alt_name" />
		<tag k="name" v="Hoanttasčohkka - Stornipen;Søndre Nipen" />
		<tag k="name:no" v="Stornipen;Søndre Nipen" />
		<tag k="name:se" v="Hoanttasčohkka" />
		<tag k="natural" v="hill" />
		<tag k="place" v="locality" />
		<tag k="ssr:stedsnr" v="80246" />
	</node>
</osm>
