<?xml version="1.0" encoding="UTF-8"?>
<osm version="0.6" generator="osmapis">
	<node lat="68.64853333168388" lon="16.78663610122962" id="-99035">
		<tag k="name" v="Kvannelva" />
		<tag k="ssr:stedsnr" v="20037" />
		<tag k="waterway" v="stream" />
	</node>
	<node lat="68.5946898815551" lon="17.3694566465736" id="-99047">
		<tag k="name" v="Revvatnet" />
		<tag k="name:no" v="Revvatnet" />
		<tag k="name:se" v="Riebejávri" />
		<tag k="natural" v="water" />
		<tag k="ssr:stedsnr" v="20935" />
		<tag k="water" v="lake" />
	</node>
	<node lat="68.6876999967853" lon="17.12653889447383" id="-99048">
		<tag k="name" v="Mølnelva" />
		<tag k="ssr:stedsnr" v="20985" />
		<tag k="waterway" v="stream" />
	</node>
	<node lat="68.66169167086699" lon="17.056586107835667" id="-99051">
		<tag k="name" v="Bjørnskarvatnet" />
		<tag k="natural" v="water" />
		<tag k="ssr:stedsnr" v="20998" />
	</node>
	<node lat="68.5165888853217" lon="16.188530546085094" id="-99058">
		<tag k="name" v="Dumpelva" />
		<tag k="ssr:stedsnr" v="25422" />
		<tag k="waterway" v="stream" />
	</node>
	<node lat="68.65852777404152" lon="16.99407222831119" id="-99085">
		<tag k="name" v="Hesjestrandfossen" />
		<tag k="natural" v="waterfall" />
		<tag k="ssr:stedsnr" v="235941" />
	</node>
	<node lat="68.67983888965458" lon="16.97498889986268" id="-99089">
		<tag k="name" v="Mobekken" />
		<tag k="ssr:stedsnr" v="235918" />
		<tag k="waterway" v="stream" />
	</node>
	<node lat="68.65054999765589" lon="17.2470055622765" id="-99092">
		<tag k="name" v="Storvika" />
		<tag k="natural" v="bay" />
		<tag k="ssr:stedsnr" v="236287" />
	</node>
	<node lat="68.64368888925499" lon="17.124897223545272" id="-99094">
		<tag k="name" v="Hestedalelva" />
		<tag k="ssr:stedsnr" v="236665" />
		<tag k="waterway" v="stream" />
	</node>
	<node lat="68.66462500352966" lon="16.987025010771163" id="-99096">
		<tag k="name" v="Lomtjønna" />
		<tag k="natural" v="water" />
		<tag k="ssr:stedsnr" v="236925" />
	</node>
	<node lat="68.58622221912661" lon="16.737908324347927" id="-99100">
		<tag k="name" v="Reinåselva" />
		<tag k="name:no" v="Reinåselva" />
		<tag k="name:se" v="Gurajohka" />
		<tag k="ssr:stedsnr" v="53886" />
		<tag k="waterway" v="stream" />
	</node>
	<node lat="68.62869444170663" lon="16.744863882256865" id="-99107">
		<tag k="name" v="Rundvatnet" />
		<tag k="natural" v="water" />
		<tag k="ssr:stedsnr" v="54779" />
	</node>
	<node lat="68.5982749995087" lon="16.862599991349853" id="-99108">
		<tag k="name" v="Nedre Skittendalvatnet" />
		<tag k="natural" v="water" />
		<tag k="ssr:stedsnr" v="54780" />
		<tag k="water" v="lake" />
	</node>
	<node lat="68.58033611258622" lon="16.200366666477958" id="-99116">
		<tag k="fixme" v="multiple name tags, choose one and add the other to alt_name" />
		<tag k="name" v="Kongsvikelva;Storelva" />
		<tag k="ssr:stedsnr" v="78856" />
		<tag k="waterway" v="river" />
	</node>
	<node lat="68.51536111434278" lon="16.432144449747895" id="-99129">
		<tag k="name" v="Mølnneselva" />
		<tag k="ssr:stedsnr" v="81810" />
		<tag k="waterway" v="stream" />
	</node>
	<node lat="68.5140833303749" lon="16.60893888194296" id="-99131">
		<tag k="alt_name" v="Litlevatnet" />
		<tag k="name" v="Litlvatnet" />
		<tag k="natural" v="water" />
		<tag k="ssr:stedsnr" v="81816" />
	</node>
	<node lat="68.51482221849928" lon="16.589780561095665" id="-99132">
		<tag k="name" v="Sennvatnet" />
		<tag k="natural" v="water" />
		<tag k="ssr:stedsnr" v="81818" />
	</node>
	<node lat="68.5974111075979" lon="17.217736104325873" id="-99140">
		<tag k="name" v="Klubbeneset" />
		<tag k="name:no" v="Klubbeneset" />
		<tag k="name:se" v="Šlubbonjárga" />
		<tag k="natural" v="cape" />
		<tag k="ssr:stedsnr" v="82233" />
	</node>
	<node lat="68.56724444616918" lon="16.349280562984937" id="-99142">
		<tag k="name" v="Sørgårdselva" />
		<tag k="ssr:stedsnr" v="85076" />
		<tag k="waterway" v="stream" />
	</node>
	<node lat="68.55086389062456" lon="16.06806944797881" id="-99180">
		<tag k="name" v="Dalelva" />
		<tag k="ssr:stedsnr" v="138207" />
		<tag k="waterway" v="river" />
	</node>
	<node lat="68.5733694486083" lon="16.098972210816413" id="-99185">
		<tag k="name" v="Kråfjellvatnet" />
		<tag k="natural" v="water" />
		<tag k="ssr:stedsnr" v="138851" />
	</node>
	<node lat="68.6334305521093" lon="16.769983341265434" id="-99187">
		<tag k="name" v="Lysvatnet" />
		<tag k="natural" v="water" />
		<tag k="ssr:stedsnr" v="141004" />
	</node>
	<node lat="68.59381388895437" lon="16.33556666748328" id="-99193">
		<tag k="name" v="Litlevatnet" />
		<tag k="natural" v="water" />
		<tag k="ssr:stedsnr" v="141186" />
	</node>
	<node lat="68.56858332967785" lon="16.236749989491532" id="-99204">
		<tag k="name" v="Strifossen" />
		<tag k="natural" v="waterfall" />
		<tag k="ssr:stedsnr" v="146515" />
	</node>
	<node lat="68.4917333314644" lon="16.24227778304841" id="-99240">
		<tag k="name" v="Straumsvatnet" />
		<tag k="natural" v="water" />
		<tag k="ssr:stedsnr" v="260413" />
	</node>
	<node lat="68.4261861095981" lon="16.357255547494525" id="-99241">
		<tag k="name" v="Storelva" />
		<tag k="ssr:stedsnr" v="260478" />
		<tag k="waterway" v="river" />
	</node>
	<node lat="68.64343055101267" lon="16.814241675356154" id="-99252">
		<tag k="name" v="Lamsoselva" />
		<tag k="ssr:stedsnr" v="175871" />
		<tag k="waterway" v="stream" />
	</node>
	<node lat="68.51927499996029" lon="16.350391672645397" id="-99258">
		<tag k="loc_name:se" v="Čáhppesjávri" />
		<tag k="name" v="Svartvatnet" />
		<tag k="name:no" v="Svartvatnet" />
		<tag k="natural" v="water" />
		<tag k="ssr:stedsnr" v="262827" />
	</node>
	<node lat="68.47166388531028" lon="16.178716654245743" id="-99284">
		<tag k="name" v="Forsdalselva" />
		<tag k="ssr:stedsnr" v="267499" />
		<tag k="waterway" v="river" />
	</node>
	<node lat="68.45702777868385" lon="16.12492223121542" id="-99288">
		<tag k="name" v="Tjønnskogtjønnene" />
		<tag k="natural" v="water" />
		<tag k="ssr:stedsnr" v="267687" />
	</node>
	<node lat="68.643969448964" lon="17.10101943651629" id="-99293">
		<tag k="name" v="Marskarelva" />
		<tag k="ssr:stedsnr" v="202907" />
		<tag k="waterway" v="stream" />
	</node>
	<node lat="68.4907777805269" lon="16.174522214929507" id="-99297">
		<tag k="name" v="Trapptrinn-elva" />
		<tag k="ssr:stedsnr" v="268041" />
		<tag k="waterway" v="stream" />
	</node>
	<node lat="68.56481389073876" lon="16.252608334815807" id="-99310">
		<tag k="name" v="Mølnelva" />
		<tag k="ssr:stedsnr" v="268553" />
		<tag k="waterway" v="stream" />
	</node>
	<node lat="68.53701110945958" lon="16.577994445698817" id="-99358">
		<tag k="name" v="Grønnslettelva" />
		<tag k="ssr:stedsnr" v="235090" />
		<tag k="waterway" v="stream" />
	</node>
	<node lat="68.62706944348642" lon="16.811244447400572" id="-99365">
		<tag k="name" v="Lassekjosen" />
		<tag k="natural" v="bay" />
		<tag k="ssr:stedsnr" v="235782" />
	</node>
	<node lat="68.5915555532394" lon="16.674619447613143" id="-99369">
		<tag k="name" v="Jarelva" />
		<tag k="ssr:stedsnr" v="235831" />
		<tag k="waterway" v="river" />
	</node>
	<node lat="68.54432499607685" lon="16.18844998896203" id="-99372">
		<tag k="name" v="Litjeelva" />
		<tag k="ssr:stedsnr" v="450598" />
		<tag k="waterway" v="stream" />
	</node>
	<node lat="68.60320000381208" lon="16.7599833244505" id="-99416">
		<tag k="name" v="Vuollejohka" />
		<tag k="name:se" v="Vuollejohka" />
		<tag k="old_name:se" v="Vuollejåkka" />
		<tag k="ssr:stedsnr" v="262205" />
		<tag k="waterway" v="stream" />
	</node>
	<node lat="68.55065278130782" lon="17.223733340664772" id="-99419">
		<tag k="name" v="Botnelva" />
		<tag k="name:no" v="Botnelva" />
		<tag k="name:se" v="Heargejohka" />
		<tag k="ssr:stedsnr" v="262595" />
		<tag k="waterway" v="stream" />
	</node>
	<node lat="68.58493055274995" lon="16.69128610817625" id="-99421">
		<tag k="alt_name:no" v="Trøsevatnet, store" />
		<tag k="name" v="Store Trøsevatnet" />
		<tag k="name:no" v="Store Trøsevatnet" />
		<tag k="name:se" v="Roasujávri" />
		<tag k="natural" v="water" />
		<tag k="ssr:stedsnr" v="263205" />
		<tag k="water" v="lake" />
	</node>
	<node lat="68.55000277790295" lon="16.512774998953766" id="-99427">
		<tag k="name" v="Osen" />
		<tag k="natural" v="bay" />
		<tag k="ssr:stedsnr" v="263843" />
	</node>
	<node lat="68.65119444242427" lon="17.068155548616087" id="-99429">
		<tag k="name" v="Ostevatnet" />
		<tag k="name:no" v="Ostevatnet" />
		<tag k="name:se" v="Vuostájávri" />
		<tag k="natural" v="water" />
		<tag k="ssr:stedsnr" v="263897" />
	</node>
	<node lat="68.65973888730684" lon="16.992602781034776" id="-99433">
		<tag k="name" v="Langvatnet" />
		<tag k="natural" v="water" />
		<tag k="ssr:stedsnr" v="263996" />
	</node>
	<node lat="68.548205553879" lon="16.307288892504243" id="-99437">
		<tag k="name" v="Gårdselva" />
		<tag k="ssr:stedsnr" v="267896" />
		<tag k="waterway" v="stream" />
	</node>
	<node lat="68.58203333009446" lon="16.64966111664025" id="-99458">
		<tag k="name" v="Skavåsbekken" />
		<tag k="ssr:stedsnr" v="296183" />
		<tag k="waterway" v="stream" />
	</node>
	<node lat="68.60988611447853" lon="16.648191679082654" id="-99460">
		<tag k="loc_name" v="Råttjønna" />
		<tag k="name" v="Råttkjønna" />
		<tag k="natural" v="water" />
		<tag k="ssr:stedsnr" v="296836" />
		<tag k="water" v="pond" />
	</node>
	<node lat="68.42513055981712" lon="16.25567222357592" id="-99476">
		<tag k="name" v="Trappelva" />
		<tag k="ssr:stedsnr" v="320484" />
		<tag k="waterway" v="stream" />
	</node>
	<node lat="68.50353889273606" lon="16.187061110661197" id="-99478">
		<tag k="name" v="Olderveita" />
		<tag k="ssr:stedsnr" v="321788" />
		<tag k="waterway" v="stream" />
	</node>
	<node lat="68.59487222383562" lon="16.287030547903104" id="-99480">
		<tag k="name" v="Tindholvatnan" />
		<tag k="natural" v="water" />
		<tag k="ssr:stedsnr" v="323207" />
	</node>
	<node lat="68.64515832939959" lon="17.23747778393938" id="-99488">
		<tag k="name" v="Saltvatnet" />
		<tag k="name:no" v="Saltvatnet" />
		<tag k="name:se" v="Sáltejávri" />
		<tag k="natural" v="water" />
		<tag k="ssr:stedsnr" v="323885" />
		<tag k="water" v="lake" />
	</node>
	<node lat="68.61575555906333" lon="17.066366658086643" id="-99491">
		<tag k="name" v="Trangdalsvatnet" />
		<tag k="name:no" v="Trangdalsvatnet" />
		<tag k="name:se" v="Ruššojávri" />
		<tag k="natural" v="water" />
		<tag k="ssr:stedsnr" v="323902" />
		<tag k="water" v="lake" />
	</node>
	<node lat="68.6297027773408" lon="16.983458341069852" id="-99492">
		<tag k="name" v="Buelva" />
		<tag k="ssr:stedsnr" v="323909" />
		<tag k="waterway" v="stream" />
	</node>
	<node lat="68.57316944594811" lon="16.65153610043856" id="-99526">
		<tag k="name" v="Tverrelva" />
		<tag k="ssr:stedsnr" v="357217" />
		<tag k="waterway" v="stream" />
	</node>
	<node lat="68.63304722547912" lon="16.80766944741458" id="-99533">
		<tag k="name" v="Geitholmen" />
		<tag k="place" v="islet" />
		<tag k="ssr:stedsnr" v="357750" />
	</node>
	<node lat="68.63995833391502" lon="17.231666656204315" id="-99545">
		<tag k="name" v="Yttervika" />
		<tag k="natural" v="bay" />
		<tag k="ssr:stedsnr" v="478288" />
	</node>
	<node lat="68.68501666895828" lon="16.97571666791696" id="-99549">
		<tag k="name" v="Stillelva" />
		<tag k="ssr:stedsnr" v="478645" />
		<tag k="waterway" v="stream" />
	</node>
	<node lat="68.46246389161728" lon="16.13683887729349" id="-99561">
		<tag k="name" v="Silsandelva" />
		<tag k="ssr:stedsnr" v="380166" />
		<tag k="waterway" v="stream" />
	</node>
	<node lat="68.49788055124793" lon="16.397997220229396" id="-99566">
		<tag k="loc_name:se" v="Nižžegurjávri" />
		<tag k="name" v="Varbergvatnet" />
		<tag k="name:no" v="Varbergvatnet" />
		<tag k="natural" v="water" />
		<tag k="ssr:stedsnr" v="381406" />
	</node>
	<node lat="68.49858889044886" lon="16.367677768364207" id="-99567">
		<tag k="name" v="Jotindvatnan" />
		<tag k="natural" v="water" />
		<tag k="ssr:stedsnr" v="381407" />
		<tag k="water" v="lake" />
	</node>
	<node lat="68.60838889087958" lon="16.15508611549659" id="-99569">
		<tag k="name" v="Jørgenhola" />
		<tag k="natural" v="water" />
		<tag k="ssr:stedsnr" v="382357" />
	</node>
	<node lat="68.63055555294207" lon="16.703361099439114" id="-99574">
		<tag k="name" v="Svartdalsvatnet" />
		<tag k="natural" v="water" />
		<tag k="ssr:stedsnr" v="384006" />
	</node>
	<node lat="68.6343638862097" lon="16.80720833648729" id="-99576">
		<tag k="name" v="Blåfjellvatnet" />
		<tag k="name:no" v="Blåfjellvatnet" />
		<tag k="name:se" v="Sáttiidvuomjávri" />
		<tag k="natural" v="water" />
		<tag k="ssr:stedsnr" v="384018" />
		<tag k="water" v="lake" />
	</node>
	<node lat="68.61790000307806" lon="16.75154166856954" id="-99579">
		<tag k="name" v="Nipvatnan" />
		<tag k="natural" v="water" />
		<tag k="ssr:stedsnr" v="384257" />
	</node>
	<node lat="68.67950277732929" lon="17.150294432343365" id="-99582">
		<tag k="name" v="Moelva" />
		<tag k="ssr:stedsnr" v="384953" />
		<tag k="waterway" v="stream" />
	</node>
	<node lat="68.52895833536772" lon="16.7273472313418" id="-99623">
		<tag k="name" v="Mølnelva" />
		<tag k="ssr:stedsnr" v="418017" />
		<tag k="waterway" v="stream" />
	</node>
	<node lat="68.71103611272223" lon="16.982783339053775" id="-99626">
		<tag k="name" v="Mølnelva" />
		<tag k="ssr:stedsnr" v="418560" />
		<tag k="waterway" v="stream" />
	</node>
	<node lat="68.6603444442503" lon="17.000686098860083" id="-99630">
		<tag k="name" v="Hesjestranda" />
		<tag k="natural" v="beach" />
		<tag k="ssr:stedsnr" v="418910" />
	</node>
	<node lat="68.64527777755842" lon="16.718338879996637" id="-99632">
		<tag k="name" v="Tennevikelva" />
		<tag k="ssr:stedsnr" v="418839" />
		<tag k="waterway" v="river" />
	</node>
	<node lat="68.52157499791548" lon="16.231236121619403" id="-99650">
		<tag k="name" v="Greguselva" />
		<tag k="ssr:stedsnr" v="444787" />
		<tag k="waterway" v="stream" />
	</node>
	<node lat="68.65427500117546" lon="17.048836107687606" id="-99658">
		<tag k="name" v="Huldrevatnet" />
		<tag k="natural" v="water" />
		<tag k="ssr:stedsnr" v="445906" />
	</node>
	<node lat="68.51615277520477" lon="16.671788878410474" id="-99685">
		<tag k="name" v="Sennvatnet" />
		<tag k="natural" v="water" />
		<tag k="ssr:stedsnr" v="478002" />
		<tag k="water" v="pond" />
	</node>
	<node lat="68.66023611048395" lon="16.766655557943388" id="-99698">
		<tag k="name" v="Sebogneset" />
		<tag k="natural" v="cape" />
		<tag k="ssr:stedsnr" v="478965" />
	</node>
	<node lat="68.49645277436356" lon="16.533949991692936" id="-99705">
		<tag k="fixme" v="multiple name tags, choose one and add the other to alt_name" />
		<tag k="name" v="Melsbøelva;Storelva" />
		<tag k="ssr:stedsnr" v="502403" />
		<tag k="waterway" v="stream" />
	</node>
	<node lat="68.49536944870553" lon="16.66582500221044" id="-99709">
		<tag k="name" v="Lavangsvatnet" />
		<tag k="name:no" v="Lavangsvatnet" />
		<tag k="name:se" v="Loabákjávri" />
		<tag k="natural" v="water" />
		<tag k="ssr:stedsnr" v="502373" />
		<tag k="water" v="lake" />
	</node>
	<node lat="68.63534166422053" lon="16.72131665544599" id="-99715">
		<tag k="alt_name" v="Lillevatnet" />
		<tag k="name" v="Litlevatnet" />
		<tag k="natural" v="water" />
		<tag k="ssr:stedsnr" v="505007" />
	</node>
	<node lat="68.58139722007951" lon="16.596386118165892" id="-99717">
		<tag k="name" v="Nerelva" />
		<tag k="ssr:stedsnr" v="505165" />
		<tag k="waterway" v="stream" />
	</node>
	<node lat="68.53912222284806" lon="16.714088900273232" id="-99719">
		<tag k="alt_name" v="Mølnevatn" />
		<tag k="name" v="Mølnevatnet" />
		<tag k="natural" v="water" />
		<tag k="ssr:stedsnr" v="505863" />
	</node>
	<node lat="68.54633888752177" lon="16.545638882692458" id="-99720">
		<tag k="name" v="Blåbærelva" />
		<tag k="ssr:stedsnr" v="505865" />
		<tag k="waterway" v="stream" />
	</node>
	<node lat="68.57820555676818" lon="17.272227782876374" id="-99723">
		<tag k="name" v="Vaggenusbekken" />
		<tag k="ssr:stedsnr" v="505915" />
		<tag k="waterway" v="stream" />
	</node>
	<node lat="68.46025000462477" lon="16.16138332875681" id="-99764">
		<tag k="name" v="Sandbakkvatnet" />
		<tag k="natural" v="water" />
		<tag k="ssr:stedsnr" v="684184" />
	</node>
	<node lat="68.51397313406068" lon="16.67955966099643" id="-99765">
		<tag k="name" v="Langvatnet" />
		<tag k="name:no" v="Langvatnet" />
		<tag k="name:se" v="Guhkesjávri" />
		<tag k="natural" v="water" />
		<tag k="ssr:stedsnr" v="684376" />
		<tag k="water" v="lake" />
	</node>
	<node lat="68.463216670526" lon="16.40922223392838" id="-99770">
		<tag k="name" v="Finnelva" />
		<tag k="ssr:stedsnr" v="684446" />
		<tag k="waterway" v="stream" />
	</node>
	<node lat="68.56308333325738" lon="16.0768999873163" id="-99780">
		<tag k="name" v="Oselva" />
		<tag k="ssr:stedsnr" v="685856" />
		<tag k="waterway" v="stream" />
	</node>
	<node lat="68.52872499724607" lon="16.615297223258185" id="-99783">
		<tag k="name" v="Gårdselva" />
		<tag k="ssr:stedsnr" v="539015" />
		<tag k="waterway" v="stream" />
	</node>
	<node lat="68.58207777733465" lon="16.702877783667976" id="-99789">
		<tag k="name" v="Holmen" />
		<tag k="place" v="islet" />
		<tag k="ssr:stedsnr" v="539181" />
	</node>
	<node lat="68.64116666450217" lon="16.974163892704752" id="-99790">
		<tag k="name" v="Middagsvatnet" />
		<tag k="natural" v="water" />
		<tag k="ssr:stedsnr" v="539579" />
	</node>
	<node lat="68.69680555525268" lon="17.00325834204258" id="-99792">
		<tag k="name" v="Skarlivatnet" />
		<tag k="natural" v="water" />
		<tag k="ssr:stedsnr" v="539631" />
	</node>
	<node lat="68.66519166936779" lon="17.038105545344493" id="-99796">
		<tag k="name" v="Kollvatnet" />
		<tag k="natural" v="water" />
		<tag k="ssr:stedsnr" v="539912" />
	</node>
	<node lat="68.54933055484926" lon="16.343858335165734" id="-99816">
		<tag k="name" v="Lomtjønna" />
		<tag k="natural" v="water" />
		<tag k="ssr:stedsnr" v="687864" />
	</node>
	<node lat="68.60352777537362" lon="17.235566660711147" id="-99820">
		<tag k="name" v="Skoddebergvatnet" />
		<tag k="name:no" v="Skoddebergvatnet" />
		<tag k="name:se" v="Skoaberjávri" />
		<tag k="natural" v="water" />
		<tag k="ssr:stedsnr" v="687912" />
		<tag k="water" v="lake" />
	</node>
	<node lat="68.58749166991001" lon="17.222011113816986" id="-99833">
		<tag k="name" v="Furuneset" />
		<tag k="name:no" v="Furuneset" />
		<tag k="name:se" v="Beahcenjárga" />
		<tag k="natural" v="cape" />
		<tag k="ssr:stedsnr" v="689262" />
	</node>
	<node lat="68.4498972228668" lon="16.13398888092185" id="-99868">
		<tag k="name" v="Stortjønna" />
		<tag k="natural" v="water" />
		<tag k="ssr:stedsnr" v="570665" />
	</node>
	<node lat="68.5405083331899" lon="16.41051666032547" id="-99881">
		<tag k="name" v="Gyltneselva" />
		<tag k="ssr:stedsnr" v="572808" />
		<tag k="waterway" v="stream" />
	</node>
	<node lat="68.65446944392656" lon="17.03208054853614" id="-99912">
		<tag k="name" v="Gimsholmen" />
		<tag k="natural" v="cape" />
		<tag k="ssr:stedsnr" v="599609" />
	</node>
	<node lat="68.52411666437769" lon="16.684472208616786" id="-99925">
		<tag k="name" v="Tennvatnet" />
		<tag k="natural" v="water" />
		<tag k="ssr:stedsnr" v="626805" />
		<tag k="water" v="lake" />
	</node>
	<node lat="68.5211000028599" lon="16.260122220285663" id="-99926">
		<tag k="name" v="Gregusvatnan" />
		<tag k="natural" v="water" />
		<tag k="ssr:stedsnr" v="626813" />
	</node>
	<node lat="68.46503055212503" lon="16.162550004595463" id="-99937">
		<tag k="name" v="Langvatnet" />
		<tag k="natural" v="water" />
		<tag k="ssr:stedsnr" v="631537" />
	</node>
	<node lat="68.5459527799252" lon="16.503538885781303" id="-99940">
		<tag k="name" v="Mølnelva" />
		<tag k="ssr:stedsnr" v="631493" />
		<tag k="waterway" v="stream" />
	</node>
	<node lat="68.56491111438179" lon="16.25862222947002" id="-99943">
		<tag k="name" v="Bekkelva" />
		<tag k="ssr:stedsnr" v="633088" />
		<tag k="waterway" v="stream" />
	</node>
	<node lat="68.51368055543551" lon="16.528255550281255" id="-99944">
		<tag k="name" v="Ingeborgelva" />
		<tag k="ssr:stedsnr" v="633110" />
		<tag k="waterway" v="stream" />
	</node>
	<node lat="68.65254444431966" lon="17.00171388605261" id="-99973">
		<tag k="name" v="Bjørnstielva" />
		<tag k="ssr:stedsnr" v="660596" />
		<tag k="waterway" v="stream" />
	</node>
	<node lat="68.66197778014882" lon="17.022413889879267" id="-99975">
		<tag k="name" v="Holmen" />
		<tag k="natural" v="cape" />
		<tag k="ssr:stedsnr" v="660906" />
	</node>
	<node lat="68.66078888993053" lon="16.99956945407296" id="-99978">
		<tag k="name" v="Lillevatnet" />
		<tag k="natural" v="water" />
		<tag k="ssr:stedsnr" v="660899" />
	</node>
	<node lat="68.57942499916952" lon="16.22863611162851" id="-99985">
		<tag k="name" v="Ramlielva" />
		<tag k="ssr:stedsnr" v="890938" />
		<tag k="waterway" v="stream" />
	</node>
	<node lat="68.57610278116928" lon="16.153647224949808" id="-99993">
		<tag k="name" v="Litlevatnet" />
		<tag k="natural" v="water" />
		<tag k="ssr:stedsnr" v="685846" />
	</node>
	<node lat="68.51872500293096" lon="16.65558055246309" id="-99998">
		<tag k="name" v="Laelva" />
		<tag k="ssr:stedsnr" v="687789" />
		<tag k="waterway" v="stream" />
	</node>
	<node lat="68.62296388653189" lon="16.851369444039467" id="-100003">
		<tag k="name" v="Isskarvatnet" />
		<tag k="natural" v="water" />
		<tag k="ssr:stedsnr" v="687895" />
	</node>
	<node lat="68.65734444419732" lon="16.965224993185863" id="-100005">
		<tag k="name" v="Tverrelva" />
		<tag k="ssr:stedsnr" v="688888" />
		<tag k="waterway" v="stream" />
	</node>
	<node lat="68.56982500445012" lon="16.398791662136087" id="-100006">
		<tag k="name" v="Reinvassbekken" />
		<tag k="ssr:stedsnr" v="692092" />
		<tag k="waterway" v="stream" />
	</node>
	<node lat="68.57752500265552" lon="17.395122231052785" id="-100033">
		<tag k="name" v="Ákšojávri" />
		<tag k="name:se" v="Ákšojávri" />
		<tag k="natural" v="water" />
		<tag k="ssr:stedsnr" v="721271" />
	</node>
	<node lat="68.57978333129556" lon="16.65859998756103" id="-100034">
		<tag k="name" v="Høgåselva" />
		<tag k="ssr:stedsnr" v="721169" />
		<tag k="waterway" v="stream" />
	</node>
	<node lat="68.6430416655258" lon="17.260974986067165" id="-100046">
		<tag k="name" v="Olderelva" />
		<tag k="ssr:stedsnr" v="903283" />
		<tag k="waterway" v="stream" />
	</node>
	<node lat="68.64907222279332" lon="16.7704055481362" id="-100049">
		<tag k="name" v="Skavelva" />
		<tag k="ssr:stedsnr" v="903979" />
		<tag k="waterway" v="stream" />
	</node>
	<node lat="68.45708611100895" lon="16.16078055669006" id="-100051">
		<tag k="name" v="Livatnet" />
		<tag k="natural" v="water" />
		<tag k="ssr:stedsnr" v="745227" />
	</node>
	<node lat="68.66274950423814" lon="17.181592426717422" id="-100061">
		<tag k="name" v="Årsandvikelva" />
		<tag k="ssr:stedsnr" v="903596" />
		<tag k="waterway" v="stream" />
	</node>
	<node lat="68.70783888769516" lon="17.116975009177054" id="-100065">
		<tag k="name" v="Hesje-elva" />
		<tag k="ssr:stedsnr" v="903723" />
		<tag k="waterway" v="stream" />
	</node>
	<node lat="68.60292500274805" lon="16.191377789678487" id="-100068">
		<tag k="name" v="Tverrfjellelva" />
		<tag k="ssr:stedsnr" v="746771" />
		<tag k="waterway" v="stream" />
	</node>
	<node lat="68.51834166494162" lon="16.732016667588315" id="-100069">
		<tag k="name" v="Sennavatnet" />
		<tag k="natural" v="water" />
		<tag k="ssr:stedsnr" v="903873" />
	</node>
	<node lat="68.593333336022" lon="17.330897226066657" id="-100073">
		<tag k="name" v="Hesteskovatnet" />
		<tag k="name:no" v="Hesteskovatnet" />
		<tag k="name:se" v="Suolojávri" />
		<tag k="natural" v="water" />
		<tag k="ssr:stedsnr" v="747916" />
	</node>
	<node lat="68.52121110724995" lon="16.252216670249467" id="-100097">
		<tag k="name" v="Nedre-Gregusvatn" />
		<tag k="natural" v="water" />
		<tag k="ssr:stedsnr" v="753403" />
		<tag k="water" v="lake" />
	</node>
	<node lat="68.64702222319085" lon="17.103077786751367" id="-100127">
		<tag k="name" v="Åse-elva" />
		<tag k="ssr:stedsnr" v="782656" />
		<tag k="waterway" v="stream" />
	</node>
	<node lat="68.60590555826991" lon="16.792730559427604" id="-100128">
		<tag k="name" v="Roggerápmajohka" />
		<tag k="name:se" v="Roggerápmajohka" />
		<tag k="ssr:stedsnr" v="782763" />
		<tag k="waterway" v="stream" />
	</node>
	<node lat="68.67168055734115" lon="16.85081388530295" id="-100130">
		<tag k="name" v="Breiteigelva" />
		<tag k="ssr:stedsnr" v="782959" />
		<tag k="waterway" v="stream" />
	</node>
	<node lat="68.59418611306306" lon="17.356583335551363" id="-100131">
		<tag k="name" v="Vullesuolu - Ola holmen" />
		<tag k="name:no" v="Ola holmen" />
		<tag k="name:se" v="Vullesuolu" />
		<tag k="place" v="islet" />
		<tag k="ssr:stedsnr" v="796255" />
	</node>
	<node lat="68.6735583373697" lon="16.88717499772495" id="-100132">
		<tag k="fixme" v="multiple name tags, choose one and add the other to alt_name" />
		<tag k="name" v="Mølnelva;Moelva" />
		<tag k="ssr:stedsnr" v="808497" />
		<tag k="waterway" v="stream" />
	</node>
	<node lat="68.51958055212367" lon="16.714438877511792" id="-100140">
		<tag k="name" v="Svartvatnet" />
		<tag k="natural" v="water" />
		<tag k="ssr:stedsnr" v="809795" />
		<tag k="water" v="lake" />
	</node>
	<node lat="68.64457221974187" lon="17.265216658428795" id="-100146">
		<tag k="name" v="Rørelva" />
		<tag k="ssr:stedsnr" v="809891" />
		<tag k="waterway" v="stream" />
	</node>
	<node lat="68.53850833408225" lon="16.479380554274197" id="-100157">
		<tag k="name" v="Heimgardselva" />
		<tag k="ssr:stedsnr" v="814685" />
		<tag k="waterway" v="stream" />
	</node>
	<node lat="68.58421389187465" lon="16.695527766035593" id="-100188">
		<tag k="name" v="Sennholmen" />
		<tag k="place" v="islet" />
		<tag k="ssr:stedsnr" v="843209" />
	</node>
	<node lat="68.63808055941034" lon="17.119986103090383" id="-100191">
		<tag k="name" v="Ytre Skredelva" />
		<tag k="ssr:stedsnr" v="843680" />
		<tag k="waterway" v="stream" />
	</node>
	<node lat="68.49625833239932" lon="16.28384167453193" id="-100194">
		<tag k="name" v="Reinsjøen" />
		<tag k="natural" v="water" />
		<tag k="ssr:stedsnr" v="927393" />
		<tag k="water" v="lake" />
	</node>
	<node lat="68.48720000317113" lon="16.312763897449717" id="-100199">
		<tag k="name" v="Kummen" />
		<tag k="natural" v="water" />
		<tag k="ssr:stedsnr" v="927437" />
	</node>
	<node lat="68.44157221869554" lon="16.264099994313355" id="-100200">
		<tag k="name" v="Kjerfjordvatnet" />
		<tag k="natural" v="water" />
		<tag k="ssr:stedsnr" v="927497" />
		<tag k="water" v="lake" />
	</node>
	<node lat="68.61674166915091" lon="16.161197226895847" id="-100201">
		<tag k="name" v="Isvatnet" />
		<tag k="natural" v="water" />
		<tag k="ssr:stedsnr" v="928330" />
	</node>
	<node lat="68.58717777223488" lon="16.806264328828448" id="-100215">
		<tag k="name" v="Geitvatnet" />
		<tag k="name:no" v="Geitvatnet" />
		<tag k="name:se" v="Gáicajávri" />
		<tag k="natural" v="water" />
		<tag k="ssr:stedsnr" v="930168" />
	</node>
	<node lat="68.51466944598202" lon="16.6736361004245" id="-100229">
		<tag k="name" v="Røstelva" />
		<tag k="ssr:stedsnr" v="870803" />
		<tag k="waterway" v="stream" />
	</node>
	<node lat="68.6149250036089" lon="16.92483611139479" id="-100244">
		<tag k="name" v="Støvelvatnet" />
		<tag k="natural" v="water" />
		<tag k="ssr:stedsnr" v="930913" />
		<tag k="water" v="lake" />
	</node>
	<node lat="68.60103055699243" lon="17.01031111970863" id="-100246">
		<tag k="name" v="Grindalsvatnet" />
		<tag k="name:no" v="Grindalsvatnet" />
		<tag k="name:se" v="Gojijávri" />
		<tag k="natural" v="water" />
		<tag k="ssr:stedsnr" v="930917" />
	</node>
	<node lat="68.68752777746253" lon="16.955836110430425" id="-100250">
		<tag k="name" v="Rensåvatnet" />
		<tag k="natural" v="water" />
		<tag k="ssr:stedsnr" v="930970" />
		<tag k="water" v="lake" />
	</node>
	<node lat="68.66422499876711" lon="16.99968887505902" id="-100252">
		<tag k="name" v="Balteskarvatnet" />
		<tag k="natural" v="water" />
		<tag k="ssr:stedsnr" v="930988" />
	</node>
	<node lat="68.55848888685937" lon="16.645213898219744" id="-100280">
		<tag k="name" v="Hansosen" />
		<tag k="natural" v="bay" />
		<tag k="ssr:stedsnr" v="879009" />
	</node>
	<node lat="68.44886667037817" lon="16.15228332276005" id="-100284">
		<tag k="name" v="Mellomosen" />
		<tag k="natural" v="bay" />
		<tag k="ssr:stedsnr" v="934632" />
	</node>
	<node lat="68.45416666738636" lon="16.14692221264643" id="-100286">
		<tag k="name" v="Vannverkets Inntaksdam" />
		<tag k="ssr:stedsnr" v="934634" />
		<tag k="waterway" v="dam" />
	</node>
	<node lat="68.45126110846265" lon="16.12976111744481" id="-100288">
		<tag k="name" v="Gårdselva" />
		<tag k="ssr:stedsnr" v="934667" />
		<tag k="waterway" v="river" />
	</node>
	<node lat="68.47463889000313" lon="16.536069436424235" id="-100292">
		<tag k="name" v="Karenelva" />
		<tag k="ssr:stedsnr" v="935096" />
		<tag k="waterway" v="stream" />
	</node>
	<node lat="68.65396389253048" lon="17.207963879975644" id="-100302">
		<tag k="name" v="Hellerelva" />
		<tag k="ssr:stedsnr" v="903277" />
		<tag k="waterway" v="stream" />
	</node>
	<node lat="68.59250278210423" lon="17.30909444406172" id="-100306">
		<tag k="name" v="Stillevatnet nedre" />
		<tag k="natural" v="water" />
		<tag k="ssr:stedsnr" v="903626" />
		<tag k="water" v="lake" />
	</node>
	<node lat="68.6208833376501" lon="16.77629444567327" id="-100308">
		<tag k="name" v="Øynes" />
		<tag k="natural" v="cape" />
		<tag k="ssr:stedsnr" v="903758" />
	</node>
	<node lat="68.65957778122251" lon="16.916024997241728" id="-100310">
		<tag k="name" v="Fjellkråa" />
		<tag k="ssr:stedsnr" v="903906" />
		<tag k="waterway" v="stream" />
	</node>
	<node lat="68.62389444712407" lon="16.887344443482068" id="-100331">
		<tag k="name" v="Isvatnet" />
		<tag k="name:no" v="Isvatnet" />
		<tag k="name:se" v="Čazajávri" />
		<tag k="natural" v="water" />
		<tag k="ssr:stedsnr" v="930892" />
		<tag k="water" v="lake" />
	</node>
	<node lat="68.61457778202733" lon="17.281600001960584" id="-100332">
		<tag k="name" v="Krokelva" />
		<tag k="name:no" v="Krokelva" />
		<tag k="name:se" v="Ájajohka" />
		<tag k="ssr:stedsnr" v="930897" />
		<tag k="waterway" v="stream" />
	</node>
	<node lat="68.5041027752014" lon="16.659105548242906" id="-100338">
		<tag k="name" v="Skomakerneset" />
		<tag k="natural" v="cape" />
		<tag k="ssr:stedsnr" v="934003" />
	</node>
	<node lat="68.50055555884455" lon="16.487308335725608" id="-100344">
		<tag k="name" v="Gårdselva" />
		<tag k="ssr:stedsnr" v="935104" />
		<tag k="waterway" v="stream" />
	</node>
	<node lat="68.61793610900132" lon="16.752680544106287" id="-100360">
		<tag k="name" v="Nedre Nipvatnan" />
		<tag k="name:no" v="Nedre Nipvatnan" />
		<tag k="name:se" v="Vuolle-Hoanttasjávri" />
		<tag k="natural" v="water" />
		<tag k="ssr:stedsnr" v="946814" />
	</node>
	<node lat="68.58446111357699" lon="16.698763897646153" id="-100365">
		<tag k="name" v="Vassneset" />
		<tag k="natural" v="cape" />
		<tag k="ssr:stedsnr" v="963222" />
	</node>
	<node lat="68.58555555976326" lon="16.695066672022215" id="-100366">
		<tag k="name" v="Skogholmen" />
		<tag k="place" v="islet" />
		<tag k="ssr:stedsnr" v="963223" />
	</node>
	<node lat="68.58517499712383" lon="17.320497207347614" id="-100369">
		<tag k="name" v="Storbekken" />
		<tag k="ssr:stedsnr" v="963712" />
		<tag k="waterway" v="stream" />
	</node>
	<node lat="68.58061388865447" lon="16.783447218904968" id="-100372">
		<tag k="name" v="Fallfossen" />
		<tag k="natural" v="waterfall" />
		<tag k="ssr:stedsnr" v="963887" />
	</node>
	<node lat="68.6434500013923" lon="17.166308333789928" id="-100374">
		<tag k="name" v="Hellelva" />
		<tag k="ssr:stedsnr" v="964710" />
		<tag k="waterway" v="stream" />
	</node>
	<node lat="68.45042777459524" lon="16.149458325219328" id="-100389">
		<tag k="name" v="Osan" />
		<tag k="natural" v="bay" />
		<tag k="ssr:stedsnr" v="17244" />
	</node>
	<node lat="68.4659750014892" lon="16.291794442965774" id="-100391">
		<tag k="name" v="Trollvatnet" />
		<tag k="natural" v="water" />
		<tag k="ssr:stedsnr" v="17440" />
		<tag k="water" v="lake" />
	</node>
	<node lat="68.55743611209122" lon="16.048494436314297" id="-100395">
		<tag k="name" v="Kjerringelva" />
		<tag k="ssr:stedsnr" v="17885" />
		<tag k="waterway" v="stream" />
	</node>
	<node lat="68.62411944726797" lon="17.461425003593195" id="-100398">
		<tag k="name" v="Riehpejávri - Isvatnet" />
		<tag k="name:no" v="Isvatnet" />
		<tag k="name:se" v="Riehpejávri" />
		<tag k="natural" v="water" />
		<tag k="old_name:se" v="Rieppejavri" />
		<tag k="ssr:stedsnr" v="18472" />
	</node>
	<node lat="68.5175416632461" lon="16.2134944414928" id="-100402">
		<tag k="name" v="Mølnelva" />
		<tag k="ssr:stedsnr" v="18728" />
		<tag k="waterway" v="stream" />
	</node>
	<node lat="68.6310388854096" lon="16.629455555841748" id="-100404">
		<tag k="name" v="Durmålsskarvatnet" />
		<tag k="natural" v="water" />
		<tag k="ssr:stedsnr" v="20024" />
	</node>
	<node lat="68.57410833068639" lon="16.288011115687407" id="-100407">
		<tag k="name" v="Skabakkelva" />
		<tag k="ssr:stedsnr" v="20150" />
		<tag k="waterway" v="stream" />
	</node>
	<node lat="68.62128055555705" lon="17.013999996688394" id="-100416">
		<tag k="name" v="Okselva" />
		<tag k="ssr:stedsnr" v="20911" />
		<tag k="waterway" v="stream" />
	</node>
	<node lat="68.63129166679649" lon="17.021702764137224" id="-100417">
		<tag k="alt_name:no" v="Storjordåa" />
		<tag k="name" v="Storjordelva" />
		<tag k="name:no" v="Storjordelva" />
		<tag k="name:se" v="Jalgeslágojohka" />
		<tag k="ssr:stedsnr" v="20917" />
		<tag k="waterway" v="river" />
	</node>
	<node lat="68.47149444676226" lon="16.164377777158478" id="-100446">
		<tag k="name" v="Botnelva" />
		<tag k="ssr:stedsnr" v="25550" />
		<tag k="waterway" v="river" />
	</node>
	<node lat="68.54009444169509" lon="16.177791667274136" id="-100448">
		<tag k="name" v="Rappelva" />
		<tag k="ssr:stedsnr" v="25568" />
		<tag k="waterway" v="stream" />
	</node>
	<node lat="68.48744999696284" lon="16.150933334560442" id="-100451">
		<tag k="name" v="Eitervågelva" />
		<tag k="ssr:stedsnr" v="26061" />
		<tag k="waterway" v="river" />
	</node>
	<node lat="68.51539999969778" lon="16.586394453986085" id="-100480">
		<tag k="name" v="Tverråselva" />
		<tag k="ssr:stedsnr" v="54021" />
		<tag k="waterway" v="stream" />
	</node>
	<node lat="68.66446389177807" lon="17.090080567144106" id="-100483">
		<tag k="name" v="Vassdalvatnet" />
		<tag k="natural" v="water" />
		<tag k="ssr:stedsnr" v="54721" />
	</node>
	<node lat="68.48117777931898" lon="16.360424993510744" id="-100497">
		<tag k="name" v="Spannbogvatnet" />
		<tag k="name:no" v="Spannbogvatnet" />
		<tag k="name:se" v="Stuorjávri" />
		<tag k="natural" v="water" />
		<tag k="ssr:stedsnr" v="77439" />
		<tag k="water" v="lake" />
	</node>
	<node lat="68.65813611123149" lon="16.77286943565661" id="-100504">
		<tag k="name" v="Sandvatnet" />
		<tag k="name:no" v="Sandvatnet" />
		<tag k="name:se" v="Sáttiidjávri" />
		<tag k="natural" v="water" />
		<tag k="ssr:stedsnr" v="80053" />
		<tag k="water" v="lake" />
	</node>
	<node lat="68.61018333525772" lon="16.80941667275972" id="-100509">
		<tag k="fixme" v="multiple name tags, choose one and add the other to alt_name" />
		<tag k="name" v="Stakkvatnet;Langvatnet" />
		<tag k="natural" v="water" />
		<tag k="ssr:stedsnr" v="80249" />
	</node>
	<node lat="68.62744999632933" lon="17.259230561542076" id="-100512">
		<tag k="name" v="Tømmerelva" />
		<tag k="ssr:stedsnr" v="80901" />
		<tag k="waterway" v="stream" />
	</node>
	<node lat="68.59941667060399" lon="16.84129721748506" id="-100513">
		<tag k="name" v="Skittendalselva" />
		<tag k="name:no" v="Skittendalselva" />
		<tag k="name:se" v="Baikalágjohka" />
		<tag k="ssr:stedsnr" v="80927" />
		<tag k="waterway" v="river" />
	</node>
	<node lat="68.58170833432712" lon="17.20730000783925" id="-100514">
		<tag k="name" v="Dalelva" />
		<tag k="ssr:stedsnr" v="80935" />
		<tag k="waterway" v="stream" />
	</node>
	<node lat="68.57821666645951" lon="17.34280833755427" id="-100516">
		<tag k="alt_name:no" v="Råkjielva" />
		<tag k="name" v="Rohčijohka - Rakjielva" />
		<tag k="name:no" v="Rakjielva" />
		<tag k="name:se" v="Rohčijohka" />
		<tag k="ssr:stedsnr" v="80939" />
		<tag k="waterway" v="stream" />
	</node>
	<node lat="68.56973333398757" lon="16.39523888471575" id="-100533">
		<tag k="name" v="Gårdsbekken" />
		<tag k="ssr:stedsnr" v="85071" />
		<tag k="waterway" v="stream" />
	</node>
	<node lat="68.59738333260475" lon="16.158716675841806" id="-100549">
		<tag k="name" v="Forsen" />
		<tag k="natural" v="waterfall" />
		<tag k="ssr:stedsnr" v="86559" />
	</node>
	<node lat="68.62437777451106" lon="16.781761116581386" id="-100594">
		<tag k="name" v="Storelva" />
		<tag k="ssr:stedsnr" v="114774" />
		<tag k="waterway" v="river" />
	</node>
	<node lat="68.67902222477387" lon="16.962786108198003" id="-100599">
		<tag k="name" v="Blomdalfossen" />
		<tag k="natural" v="waterfall" />
		<tag k="ssr:stedsnr" v="114923" />
	</node>
	<node lat="68.66045833398213" lon="16.97946110314459" id="-100602">
		<tag k="name" v="Kistefossen" />
		<tag k="natural" v="waterfall" />
		<tag k="ssr:stedsnr" v="114932" />
	</node>
	<node lat="68.60148888595978" lon="17.49247778131196" id="-100608">
		<tag k="name" v="Beađvajávri" />
		<tag k="name:se" v="Beađvajávri" />
		<tag k="natural" v="water" />
		<tag k="old_name:se" v="Bæđvajavri" />
		<tag k="ssr:stedsnr" v="138562" />
	</node>
	<node lat="68.61288055558833" lon="16.657480562802682" id="-100611">
		<tag k="fixme" v="multiple name tags, choose one and add the other to alt_name" />
		<tag k="name" v="Gjørmevatnet;Lysvatnet" />
		<tag k="natural" v="water" />
		<tag k="ssr:stedsnr" v="140223" />
	</node>
	<node lat="68.62012777801728" lon="17.191944444060244" id="-100612">
		<tag k="name" v="Novaelva" />
		<tag k="name:no" v="Novaelva" />
		<tag k="name:se" v="Várevuolijohka" />
		<tag k="ssr:stedsnr" v="140906" />
		<tag k="waterway" v="stream" />
	</node>
	<node lat="68.55826944443562" lon="17.217544438260873" id="-100624">
		<tag k="name" v="Skredelva" />
		<tag k="ssr:stedsnr" v="141918" />
		<tag k="waterway" v="stream" />
	</node>
	<node lat="68.60939722091622" lon="16.639358339280907" id="-100626">
		<tag k="alt_name" v="Lillevatnet" />
		<tag k="name" v="Litlevatnet" />
		<tag k="natural" v="water" />
		<tag k="ssr:stedsnr" v="141218" />
	</node>
	<node lat="68.55841388639602" lon="16.668402769411284" id="-100632">
		<tag k="name" v="Luraelva" />
		<tag k="ssr:stedsnr" v="141807" />
		<tag k="waterway" v="stream" />
	</node>
	<node lat="68.54727222054798" lon="16.37614166412865" id="-100635">
		<tag k="name" v="Holselva" />
		<tag k="ssr:stedsnr" v="141850" />
		<tag k="waterway" v="stream" />
	</node>
	<node lat="68.50463611255442" lon="16.310566661807023" id="-100642">
		<tag k="name" v="Tindvatnet" />
		<tag k="natural" v="water" />
		<tag k="ssr:stedsnr" v="141941" />
	</node>
	<node lat="68.58919999776651" lon="17.35699444941046" id="-100693">
		<tag k="name" v="Rohčiluokta" />
		<tag k="name:se" v="Rohčiluokta" />
		<tag k="natural" v="bay" />
		<tag k="ssr:stedsnr" v="175287" />
	</node>
	<node lat="68.58784999606686" lon="17.329591662047374" id="-100705">
		<tag k="name" v="Stillevatnet øvre" />
		<tag k="natural" v="water" />
		<tag k="ssr:stedsnr" v="175644" />
		<tag k="water" v="lake" />
	</node>
	<node lat="68.4224583353308" lon="16.247627777388537" id="-100720">
		<tag k="name" v="Øverdalselva" />
		<tag k="ssr:stedsnr" v="199490" />
		<tag k="waterway" v="stream" />
	</node>
	<node lat="68.5181083319318" lon="16.305599989434842" id="-100731">
		<tag k="loc_name:se" v="Čáhppesoaivvijávri" />
		<tag k="name" v="Trollvatnet" />
		<tag k="name:no" v="Trollvatnet" />
		<tag k="natural" v="water" />
		<tag k="ssr:stedsnr" v="202634" />
		<tag k="water" v="lake" />
	</node>
	<node lat="68.54376666599555" lon="16.700424989919306" id="-100743">
		<tag k="name" v="Beritvatnet" />
		<tag k="natural" v="water" />
		<tag k="ssr:stedsnr" v="202883" />
	</node>
	<node lat="68.51629166252924" lon="16.405466661941166" id="-100745">
		<tag k="name" v="Småvatnan" />
		<tag k="natural" v="water" />
		<tag k="ssr:stedsnr" v="202819" />
	</node>
	<node lat="68.57985833036008" lon="17.415258330970918" id="-100749">
		<tag k="name" v="Hundvatnet" />
		<tag k="name:no" v="Hundvatnet" />
		<tag k="name:se" v="Beanajávri" />
		<tag k="natural" v="water" />
		<tag k="ssr:stedsnr" v="202945" />
	</node>
	<node lat="68.50044166281444" lon="16.2652749953856" id="-100750">
		<tag k="name" v="Durmålstuvvatnan" />
		<tag k="natural" v="water" />
		<tag k="ssr:stedsnr" v="202949" />
	</node>
	<node lat="68.50653333750402" lon="16.45827222459908" id="-100751">
		<tag k="name" v="Dalselva" />
		<tag k="ssr:stedsnr" v="202956" />
		<tag k="waterway" v="stream" />
	</node>
	<node lat="68.56129444239791" lon="17.235100002749142" id="-100760">
		<tag k="alt_name:no" v="Kirstenvatnet" />
		<tag k="name" v="Kirstivatnet" />
		<tag k="name:no" v="Kirstivatnet" />
		<tag k="name:se" v="Gihtejávri" />
		<tag k="natural" v="water" />
		<tag k="ssr:stedsnr" v="202937" />
	</node>
	<node lat="68.55019444616048" lon="16.515738898953586" id="-100775">
		<tag k="name" v="Lonelva" />
		<tag k="ssr:stedsnr" v="207478" />
		<tag k="waterway" v="stream" />
	</node>
	<node lat="68.46589722111317" lon="16.148999992034845" id="-100778">
		<tag k="name" v="Silsandvatnan" />
		<tag k="natural" v="water" />
		<tag k="ssr:stedsnr" v="207528" />
		<tag k="water" v="lake" />
	</node>
	<node lat="68.56505555233652" lon="16.11374167577517" id="-100817">
		<tag k="name" v="Kråfjellelva" />
		<tag k="ssr:stedsnr" v="283935" />
		<tag k="waterway" v="stream" />
	</node>
	<node lat="68.60632499936264" lon="17.26130833522538" id="-100827">
		<tag k="name" v="Skjellodden" />
		<tag k="natural" v="cape" />
		<tag k="ssr:stedsnr" v="296243" />
	</node>
	<node lat="68.63083610675004" lon="17.16678611465831" id="-100829">
		<tag k="name" v="Kåvanelva" />
		<tag k="ssr:stedsnr" v="296600" />
		<tag k="waterway" v="stream" />
	</node>
	<node lat="68.62258333524937" lon="17.23126667560841" id="-100832">
		<tag k="name" v="Steinvatnet" />
		<tag k="natural" v="water" />
		<tag k="ssr:stedsnr" v="296659" />
	</node>
	<node lat="68.6305249966036" lon="16.747563875801717" id="-100834">
		<tag k="name" v="Lysvatnet" />
		<tag k="natural" v="water" />
		<tag k="ssr:stedsnr" v="296766" />
	</node>
	<node lat="68.59634444128457" lon="16.80174443416029" id="-100836">
		<tag k="name" v="Badjejohka" />
		<tag k="name:se" v="Badjejohka" />
		<tag k="ssr:stedsnr" v="296770" />
		<tag k="waterway" v="stream" />
	</node>
	<node lat="68.65746388797774" lon="16.841313886919433" id="-100840">
		<tag k="name" v="Bjørndalselva" />
		<tag k="ssr:stedsnr" v="296994" />
		<tag k="waterway" v="stream" />
	</node>
	<node lat="68.44790277641033" lon="16.159408344023344" id="-100845">
		<tag k="name" v="Forosen" />
		<tag k="natural" v="bay" />
		<tag k="ssr:stedsnr" v="320213" />
	</node>
	<node lat="68.64379721882764" lon="16.73498611182524" id="-100856">
		<tag k="name" v="Tennevikvatnet" />
		<tag k="natural" v="water" />
		<tag k="ssr:stedsnr" v="323043" />
		<tag k="water" v="lake" />
	</node>
	<node lat="68.66686389092831" lon="16.794972226740988" id="-100857">
		<tag k="name" v="Nikkorvatnet" />
		<tag k="natural" v="water" />
		<tag k="ssr:stedsnr" v="323104" />
	</node>
	<node lat="68.57201389038941" lon="16.729891654412757" id="-100863">
		<tag k="alt_name:no" v="Lille-Trøssevatnet;Trøsevatnet l." />
		<tag k="name" v="Litle Trøsevatnet" />
		<tag k="name:no" v="Litle Trøsevatnet" />
		<tag k="name:se" v="Unna Roasujávrráš" />
		<tag k="natural" v="water" />
		<tag k="ssr:stedsnr" v="323157" />
	</node>
	<node lat="68.63875000363228" lon="16.664458322694504" id="-100867">
		<tag k="name" v="Svartvikvatnan" />
		<tag k="natural" v="water" />
		<tag k="ssr:stedsnr" v="323020" />
	</node>
	<node lat="68.53566554877492" lon="16.76579706767472" id="-100870">
		<tag k="name" v="Storelva" />
		<tag k="name:no" v="Storelva" />
		<tag k="name:se" v="Stuorjohka" />
		<tag k="ssr:stedsnr" v="323617" />
		<tag k="waterway" v="river" />
	</node>
	<node lat="68.5340638868472" lon="16.32733332308286" id="-100872">
		<tag k="name" v="Småvatnet" />
		<tag k="natural" v="water" />
		<tag k="ssr:stedsnr" v="323760" />
		<tag k="water" v="lake" />
	</node>
	<node lat="68.64016944498476" lon="16.917713898183088" id="-100875">
		<tag k="name" v="Tverrelvvatnan" />
		<tag k="natural" v="water" />
		<tag k="ssr:stedsnr" v="323891" />
		<tag k="water" v="lake" />
	</node>
	<node lat="68.57572222252004" lon="17.208674986972838" id="-100877">
		<tag k="name" v="Runddalselva" />
		<tag k="name:no" v="Runddalselva" />
		<tag k="name:se" v="Jorbaváhjohka" />
		<tag k="ssr:stedsnr" v="323936" />
		<tag k="waterway" v="stream" />
	</node>
	<node lat="68.5102861092594" lon="16.561641665295735" id="-100878">
		<tag k="name" v="Lysvatnet" />
		<tag k="natural" v="water" />
		<tag k="ssr:stedsnr" v="323953" />
	</node>
	<node lat="68.71514444144935" lon="17.190869443773444" id="-100879">
		<tag k="name" v="Storelva" />
		<tag k="ssr:stedsnr" v="323965" />
		<tag k="waterway" v="stream" />
	</node>
	<node lat="68.57990833732414" lon="17.403599991155563" id="-100935">
		<tag k="name" v="Jovnnajávri" />
		<tag k="name:se" v="Jovnnajávri" />
		<tag k="natural" v="water" />
		<tag k="ssr:stedsnr" v="357280" />
	</node>
	<node lat="68.63657777557565" lon="16.86329444496057" id="-100941">
		<tag k="name" v="Småvatnan" />
		<tag k="natural" v="water" />
		<tag k="ssr:stedsnr" v="357772" />
	</node>
	<node lat="68.46563055751099" lon="16.544005543107204" id="-100955">
		<tag k="name" v="Ramnesvatnet" />
		<tag k="natural" v="water" />
		<tag k="ssr:stedsnr" v="380474" />
	</node>
	<node lat="68.56226666592336" lon="16.10681387775935" id="-100956">
		<tag k="fixme" v="multiple name tags, choose one and add the other to alt_name" />
		<tag k="name" v="Gårdselva;Storelva" />
		<tag k="ssr:stedsnr" v="381201" />
		<tag k="waterway" v="river" />
	</node>
	<node lat="68.57109722704843" lon="16.80626388235572" id="-100958">
		<tag k="alt_name" v="Langvatnet, l" />
		<tag k="name" v="Litle Langvatnet" />
		<tag k="natural" v="water" />
		<tag k="ssr:stedsnr" v="383130" />
	</node>
	<node lat="68.6057305596507" lon="16.66022221505303" id="-100960">
		<tag k="name" v="Langvatnet" />
		<tag k="natural" v="water" />
		<tag k="ssr:stedsnr" v="383230" />
	</node>
	<node lat="68.60976111193622" lon="16.256124989662517" id="-100962">
		<tag k="name" v="Kvanntovatnan" />
		<tag k="natural" v="water" />
		<tag k="ssr:stedsnr" v="383237" />
	</node>
	<node lat="68.61378332970848" lon="16.644149988740033" id="-100963">
		<tag k="name" v="Svartvatnet" />
		<tag k="natural" v="water" />
		<tag k="ssr:stedsnr" v="383248" />
	</node>
	<node lat="68.50206666267661" lon="16.435588879799074" id="-100964">
		<tag k="name" v="Mølnelva" />
		<tag k="ssr:stedsnr" v="383540" />
		<tag k="waterway" v="stream" />
	</node>
	<node lat="68.57049721989779" lon="16.378102770062963" id="-100966">
		<tag k="name" v="Mølnelva" />
		<tag k="ssr:stedsnr" v="383616" />
		<tag k="waterway" v="stream" />
	</node>
	<node lat="68.52768333652746" lon="16.7332972233632" id="-100967">
		<tag k="name" v="Myrvatnet" />
		<tag k="name:no" v="Myrvatnet" />
		<tag k="name:se" v="Garvajávri" />
		<tag k="natural" v="water" />
		<tag k="ssr:stedsnr" v="383803" />
	</node>
	<node lat="68.6452666631367" lon="16.80934443033194" id="-100971">
		<tag k="alt_name" v="Lamsosvatnet" />
		<tag k="name" v="Lamsåsvatnet" />
		<tag k="natural" v="water" />
		<tag k="ssr:stedsnr" v="384042" />
	</node>
	<node lat="68.57330833626591" lon="16.29691389929767" id="-100974">
		<tag k="name" v="Ulvikelva" />
		<tag k="ssr:stedsnr" v="384167" />
		<tag k="waterway" v="river" />
	</node>
	<node lat="68.578966662504" lon="16.65421388896272" id="-100975">
		<tag k="alt_name:no" v="Trøsenelva" />
		<tag k="name" v="Trøseelva" />
		<tag k="name:no" v="Trøseelva" />
		<tag k="name:se" v="Roasujohka" />
		<tag k="ssr:stedsnr" v="384170" />
		<tag k="waterway" v="river" />
	</node>
	<node lat="68.54000555948697" lon="16.314683323837283" id="-100980">
		<tag k="name" v="Sandselva" />
		<tag k="ssr:stedsnr" v="384756" />
		<tag k="waterway" v="stream" />
	</node>
	<node lat="68.45493333736874" lon="16.166433344893637" id="-101004">
		<tag k="name" v="Li-elva" />
		<tag k="ssr:stedsnr" v="388633" />
		<tag k="waterway" v="river" />
	</node>
	<node lat="68.5960750012869" lon="16.19595000688258" id="-101008">
		<tag k="name" v="Tverrelva" />
		<tag k="ssr:stedsnr" v="389420" />
		<tag k="waterway" v="stream" />
	</node>
	<node lat="68.51738611393972" lon="16.204305548658365" id="-101009">
		<tag k="name" v="Tverrløken" />
		<tag k="ssr:stedsnr" v="389445" />
		<tag k="waterway" v="stream" />
	</node>
	<node lat="68.56447777596811" lon="16.238830560181942" id="-101015">
		<tag k="name" v="Elveneset" />
		<tag k="natural" v="cape" />
		<tag k="ssr:stedsnr" v="389574" />
	</node>
	<node lat="68.5431972188941" lon="16.54270278153097" id="-101016">
		<tag k="name" v="Russetjønnene" />
		<tag k="natural" v="water" />
		<tag k="ssr:stedsnr" v="389531" />
	</node>
	<node lat="68.54575833732166" lon="16.10166665959674" id="-101018">
		<tag k="name" v="Møllelva" />
		<tag k="ssr:stedsnr" v="390180" />
		<tag k="waterway" v="stream" />
	</node>
	<node lat="68.61382777440562" lon="16.5831944497299" id="-101045">
		<tag k="name" v="Norelva" />
		<tag k="ssr:stedsnr" v="418129" />
		<tag k="waterway" v="stream" />
	</node>
	<node lat="68.63659444630761" lon="17.165522226596103" id="-101057">
		<tag k="name" v="Labergselva" />
		<tag k="ssr:stedsnr" v="418592" />
		<tag k="waterway" v="stream" />
	</node>
	<node lat="68.6078722179188" lon="16.74289999631832" id="-101063">
		<tag k="name" v="Várddojávri" />
		<tag k="name:se" v="Várddojávri" />
		<tag k="natural" v="water" />
		<tag k="ssr:stedsnr" v="418766" />
	</node>
	<node lat="68.45272222269074" lon="16.515016668946828" id="-101071">
		<tag k="name" v="Osen" />
		<tag k="natural" v="bay" />
		<tag k="ssr:stedsnr" v="442471" />
	</node>
	<node lat="68.60584721815896" lon="16.673347222734805" id="-101077">
		<tag k="fixme" v="multiple name tags, choose one and add the other to alt_name" />
		<tag k="name" v="Sekkevatnet;Lysvatnet" />
		<tag k="natural" v="water" />
		<tag k="ssr:stedsnr" v="444190" />
	</node>
	<node lat="68.60976944358985" lon="16.693355551583487" id="-101079">
		<tag k="name" v="Nipvatnet" />
		<tag k="name:no" v="Nipvatnet" />
		<tag k="name:se" v="Hoanttasjávri" />
		<tag k="natural" v="water" />
		<tag k="ssr:stedsnr" v="444208" />
	</node>
	<node lat="68.6326250036081" lon="16.94631110786728" id="-101084">
		<tag k="name" v="Lafjellvatnet" />
		<tag k="natural" v="water" />
		<tag k="ssr:stedsnr" v="444916" />
	</node>
	<node lat="68.66763610951556" lon="16.825811118360114" id="-101085">
		<tag k="name" v="Bakåsvatnet" />
		<tag k="natural" v="water" />
		<tag k="ssr:stedsnr" v="445093" />
	</node>
	<node lat="68.57287499944469" lon="17.057169451018453" id="-101086">
		<tag k="name" v="Niingsvatnet" />
		<tag k="name:no" v="Niingsvatnet" />
		<tag k="name:se" v="Meahccejávri" />
		<tag k="natural" v="water" />
		<tag k="ssr:stedsnr" v="444936" />
		<tag k="water" v="lake" />
	</node>
	<node lat="68.61866111346687" lon="16.267166656451412" id="-101093">
		<tag k="name" v="Kråvatnet" />
		<tag k="natural" v="water" />
		<tag k="ssr:stedsnr" v="445257" />
	</node>
	<node lat="68.4643055599741" lon="16.187291656638134" id="-101109">
		<tag k="name" v="Tindvatnet" />
		<tag k="natural" v="water" />
		<tag k="ssr:stedsnr" v="502159" />
	</node>
	<node lat="68.45372500192676" lon="16.304102772942954" id="-101114">
		<tag k="name" v="Tindvatnet" />
		<tag k="natural" v="water" />
		<tag k="ssr:stedsnr" v="502466" />
		<tag k="water" v="lake" />
	</node>
	<node lat="68.58997500078942" lon="16.0774305513519" id="-101115">
		<tag k="name" v="Steinvatnan" />
		<tag k="natural" v="water" />
		<tag k="ssr:stedsnr" v="503786" />
		<tag k="water" v="lake" />
	</node>
	<node lat="68.59800277573976" lon="16.819463884962953" id="-101128">
		<tag k="alt_name:no" v="Holvatnet, øvre;Øvre Hulvatnet" />
		<tag k="name" v="Øvre Holvatnet" />
		<tag k="name:no" v="Øvre Holvatnet" />
		<tag k="name:se" v="Moskijávri" />
		<tag k="natural" v="water" />
		<tag k="ssr:stedsnr" v="505201" />
	</node>
	<node lat="68.61592500444472" lon="16.767802767565403" id="-101130">
		<tag k="name" v="Suolojávri - Øyvatnet" />
		<tag k="name:no" v="Øyvatnet" />
		<tag k="name:se" v="Suolojávri" />
		<tag k="natural" v="water" />
		<tag k="old_name:no" v="Øyavatnet" />
		<tag k="old_name:se" v="Suolujavri" />
		<tag k="ssr:stedsnr" v="505244" />
		<tag k="water" v="lake" />
	</node>
	<node lat="68.53653055370236" lon="16.522327786704036" id="-101135">
		<tag k="name" v="Helldalsvatnet" />
		<tag k="place" v="locality" />
		<tag k="ssr:stedsnr" v="505775" />
	</node>
	<node lat="68.52136388999314" lon="16.65920000421091" id="-101137">
		<tag k="name" v="Moelva" />
		<tag k="ssr:stedsnr" v="505795" />
		<tag k="waterway" v="stream" />
	</node>
	<node lat="68.57683888969359" lon="17.130541659982917" id="-101147">
		<tag k="name" v="Svartvatnet" />
		<tag k="natural" v="water" />
		<tag k="ssr:stedsnr" v="505918" />
	</node>
	<node lat="68.50138888619415" lon="16.38335555981693" id="-101148">
		<tag k="alt_name" v="Jotindvatnet, nedre" />
		<tag k="name" v="Nedre Jotindvatnet" />
		<tag k="natural" v="water" />
		<tag k="ssr:stedsnr" v="505930" />
	</node>
	<node lat="68.68400000255954" lon="17.150183340430853" id="-101150">
		<tag k="name" v="Gårdselva" />
		<tag k="ssr:stedsnr" v="505958" />
		<tag k="waterway" v="stream" />
	</node>
	<node lat="68.59035833339766" lon="17.065505563214533" id="-101151">
		<tag k="name" v="Villdalsvatnet" />
		<tag k="natural" v="water" />
		<tag k="ssr:stedsnr" v="505901" />
		<tag k="water" v="lake" />
	</node>
	<node lat="68.54283889374315" lon="16.405419433669785" id="-101174">
		<tag k="name" v="Grønnvegelva" />
		<tag k="ssr:stedsnr" v="512830" />
		<tag k="waterway" v="stream" />
	</node>
	<node lat="68.55302499728565" lon="16.6526083420453" id="-101186">
		<tag k="name" v="Kolmoelva" />
		<tag k="ssr:stedsnr" v="539150" />
		<tag k="waterway" v="stream" />
	</node>
	<node lat="68.64740000037249" lon="16.8550111072513" id="-101190">
		<tag k="name" v="Steindalselva" />
		<tag k="ssr:stedsnr" v="539856" />
		<tag k="waterway" v="stream" />
	</node>
	<node lat="68.6416250006252" lon="17.132702782101394" id="-101192">
		<tag k="name" v="Stakkebakkelva" />
		<tag k="ssr:stedsnr" v="539681" />
		<tag k="waterway" v="stream" />
	</node>
	<node lat="68.45574722115687" lon="16.53832498723828" id="-101208">
		<tag k="name" v="Mølnvikelva" />
		<tag k="ssr:stedsnr" v="562467" />
		<tag k="waterway" v="stream" />
	</node>
	<node lat="68.59823055111873" lon="17.401286111369924" id="-101217">
		<tag k="alt_name:no" v="Revelva, øvre" />
		<tag k="name" v="Øvre Revelva" />
		<tag k="name:no" v="Øvre Revelva" />
		<tag k="name:se" v="Badje-Riebejohka" />
		<tag k="ssr:stedsnr" v="563523" />
		<tag k="waterway" v="river" />
	</node>
	<node lat="68.60149722235396" lon="16.126474993141578" id="-101218">
		<tag k="fixme" v="multiple name tags, choose one and add the other to alt_name" />
		<tag k="name" v="Austerforselva;Forselva" />
		<tag k="ssr:stedsnr" v="563836" />
		<tag k="waterway" v="stream" />
	</node>
	<node lat="68.56676389105138" lon="16.074977772760658" id="-101220">
		<tag k="name" v="Oselvvatnet" />
		<tag k="natural" v="water" />
		<tag k="ssr:stedsnr" v="563874" />
	</node>
	<node lat="68.55409999599206" lon="16.01195832440501" id="-101221">
		<tag k="name" v="Revskarvatnet" />
		<tag k="natural" v="water" />
		<tag k="ssr:stedsnr" v="563886" />
	</node>
	<node lat="68.59049722586579" lon="16.155363890125386" id="-101223">
		<tag k="name" v="Vesterforselva" />
		<tag k="ssr:stedsnr" v="564830" />
		<tag k="waterway" v="stream" />
	</node>
	<node lat="68.60723611236232" lon="16.67725832611896" id="-101224">
		<tag k="fixme" v="multiple name tags, choose one and add the other to alt_name" />
		<tag k="name" v="Melkevatnet;Lomkjønnvatnet" />
		<tag k="natural" v="water" />
		<tag k="ssr:stedsnr" v="565195" />
	</node>
	<node lat="68.52537777975806" lon="16.512544454143544" id="-101231">
		<tag k="name" v="Kringlevatnet" />
		<tag k="natural" v="water" />
		<tag k="ssr:stedsnr" v="565793" />
	</node>
	<node lat="68.59525277888059" lon="16.88937222063618" id="-101233">
		<tag k="name" v="Skittendalsvatnan" />
		<tag k="name:no" v="Skittendalsvatnan" />
		<tag k="name:se" v="Baikalágjávrrik" />
		<tag k="natural" v="water" />
		<tag k="old_name:se" v="Baikalagujavrit" />
		<tag k="ssr:stedsnr" v="565914" />
		<tag k="water" v="lake" />
	</node>
	<node lat="68.50265000086034" lon="16.42018055197179" id="-101237">
		<tag k="name" v="Gammelmølnelva" />
		<tag k="ssr:stedsnr" v="565940" />
		<tag k="waterway" v="stream" />
	</node>
	<node lat="68.58662777704751" lon="16.603891655327796" id="-101243">
		<tag k="name" v="Øverelva" />
		<tag k="ssr:stedsnr" v="566190" />
		<tag k="waterway" v="stream" />
	</node>
	<node lat="68.5715166660351" lon="16.820216654715857" id="-101245">
		<tag k="loc_name:no" v="Langvatnet" />
		<tag k="loc_name:se" v="Guhkesjávri" />
		<tag k="name" v="Store Langvatnet" />
		<tag k="name:no" v="Store Langvatnet" />
		<tag k="natural" v="water" />
		<tag k="old_name:no" v="Langvatnet, store" />
		<tag k="ssr:stedsnr" v="566852" />
		<tag k="water" v="lake" />
	</node>
	<node lat="68.63191388552075" lon="17.1658583243874" id="-101248">
		<tag k="fixme" v="multiple name tags, choose one and add the other to alt_name" />
		<tag k="name" v="Lomtjørna;Lomvatnet" />
		<tag k="natural" v="water" />
		<tag k="ssr:stedsnr" v="566918" />
	</node>
	<node lat="68.56773333772416" lon="16.353388883372773" id="-101255">
		<tag k="name" v="Remmelelva" />
		<tag k="ssr:stedsnr" v="570089" />
		<tag k="waterway" v="stream" />
	</node>
	<node lat="68.45251110851545" lon="16.153438887666606" id="-101256">
		<tag k="name" v="Sandbakkelva" />
		<tag k="ssr:stedsnr" v="570632" />
		<tag k="waterway" v="river" />
	</node>
	<node lat="68.51812221766758" lon="16.24302778213482" id="-101268">
		<tag k="name" v="Tverrelva" />
		<tag k="ssr:stedsnr" v="571476" />
		<tag k="waterway" v="stream" />
	</node>
	<node lat="68.52694999640104" lon="16.504277766616493" id="-101269">
		<tag k="name" v="Sørtuvvatnet" />
		<tag k="natural" v="water" />
		<tag k="ssr:stedsnr" v="571641" />
	</node>
	<node lat="68.5920361115154" lon="16.329161102898908" id="-101306">
		<tag k="name" v="Lillevatnet" />
		<tag k="natural" v="water" />
		<tag k="ssr:stedsnr" v="573728" />
	</node>
	<node lat="68.58726110675249" lon="16.687066675860432" id="-101313">
		<tag k="name" v="Langnes" />
		<tag k="natural" v="cape" />
		<tag k="ssr:stedsnr" v="599193" />
	</node>
	<node lat="68.58820555792886" lon="17.37663610022048" id="-101314">
		<tag k="name" v="Váibmosuolu - Bjørnholmen" />
		<tag k="name:no" v="Bjørnholmen" />
		<tag k="name:se" v="Váibmosuolu" />
		<tag k="place" v="islet" />
		<tag k="ssr:stedsnr" v="599272" />
	</node>
	<node lat="68.63811666693866" lon="17.122030557097585" id="-101317">
		<tag k="name" v="Indre Skredelva" />
		<tag k="ssr:stedsnr" v="599671" />
		<tag k="waterway" v="stream" />
	</node>
	<node lat="68.62482500260619" lon="16.79475833953945" id="-101318">
		<tag k="name" v="Bruneset" />
		<tag k="natural" v="cape" />
		<tag k="ssr:stedsnr" v="599771" />
	</node>
	<node lat="68.63308333559674" lon="16.831044434998976" id="-101320">
		<tag k="name" v="Hollaelva" />
		<tag k="ssr:stedsnr" v="599777" />
		<tag k="waterway" v="stream" />
	</node>
	<node lat="68.62569444254856" lon="16.73479165847713" id="-101321">
		<tag k="name" v="Glefjellvatnet" />
		<tag k="natural" v="water" />
		<tag k="ssr:stedsnr" v="599784" />
	</node>
	<node lat="68.4890083348179" lon="16.542080548487068" id="-101332">
		<tag k="name" v="Mølnelva" />
		<tag k="ssr:stedsnr" v="623392" />
		<tag k="waterway" v="stream" />
	</node>
	<node lat="68.44541389210289" lon="16.337205554290197" id="-101336">
		<tag k="name" v="Storelva" />
		<tag k="ssr:stedsnr" v="623455" />
		<tag k="waterway" v="stream" />
	</node>
	<node lat="68.60846666786419" lon="16.131638877895174" id="-101337">
		<tag k="name" v="Rundkollvatnan" />
		<tag k="natural" v="water" />
		<tag k="ssr:stedsnr" v="624380" />
	</node>
	<node lat="68.58855555972126" lon="17.475433331031017" id="-101338">
		<tag k="name" v="Stillehølan" />
		<tag k="place" v="locality" />
		<tag k="ssr:stedsnr" v="624535" />
	</node>
	<node lat="68.66000278002585" lon="16.817355560596138" id="-101342">
		<tag k="name" v="Mølnelva" />
		<tag k="ssr:stedsnr" v="626072" />
		<tag k="waterway" v="stream" />
	</node>
	<node lat="68.57574444759233" lon="16.633052777413173" id="-101345">
		<tag k="alt_name" v="Jelsåa" />
		<tag k="name" v="Gjelsåa" />
		<tag k="ssr:stedsnr" v="626187" />
		<tag k="waterway" v="stream" />
	</node>
	<node lat="68.61743333073302" lon="16.689925008229967" id="-101349">
		<tag k="name" v="Gulvatnet" />
		<tag k="natural" v="water" />
		<tag k="ssr:stedsnr" v="626242" />
	</node>
	<node lat="68.62861944644031" lon="16.84211944297759" id="-101359">
		<tag k="alt_name" v="Hollavatnet" />
		<tag k="name" v="Holavatnet" />
		<tag k="natural" v="water" />
		<tag k="ssr:stedsnr" v="626917" />
	</node>
	<node lat="68.64073333166185" lon="17.3266555430333" id="-101363">
		<tag k="name" v="Oldervatnet" />
		<tag k="name:no" v="Oldervatnet" />
		<tag k="name:se" v="Leaibejávri" />
		<tag k="natural" v="water" />
		<tag k="ssr:stedsnr" v="626887" />
	</node>
	<node lat="68.5120805539859" lon="16.233997223947604" id="-101364">
		<tag k="name" v="Stengvatnet" />
		<tag k="natural" v="water" />
		<tag k="ssr:stedsnr" v="626966" />
	</node>
	<node lat="68.4565388870139" lon="16.130011107743215" id="-101372">
		<tag k="name" v="Tjønnskogelva" />
		<tag k="ssr:stedsnr" v="630651" />
		<tag k="waterway" v="stream" />
	</node>
	<node lat="68.54959722285294" lon="16.13145555435447" id="-101378">
		<tag k="name" v="Urelva" />
		<tag k="ssr:stedsnr" v="631134" />
		<tag k="waterway" v="stream" />
	</node>
	<node lat="68.61696111159547" lon="16.74306666078802" id="-101407">
		<tag k="name" v="Øvre Nipvatnan" />
		<tag k="name:no" v="Øvre Nipvatnan" />
		<tag k="name:se" v="Badje-Hoanttasjávri" />
		<tag k="natural" v="water" />
		<tag k="ssr:stedsnr" v="642797" />
	</node>
	<node lat="68.52783888536216" lon="16.753880552916367" id="-101409">
		<tag k="name" v="Larsefossen" />
		<tag k="name:no" v="Larsefossen" />
		<tag k="name:se" v="Lássegorži" />
		<tag k="natural" v="waterfall" />
		<tag k="ssr:stedsnr" v="646648" />
	</node>
	<node lat="68.64565277545302" lon="16.81944165928886" id="-101425">
		<tag k="name" v="Bottenkjosen" />
		<tag k="natural" v="bay" />
		<tag k="ssr:stedsnr" v="660854" />
	</node>
	<node lat="68.55646944860929" lon="16.65100000003797" id="-101439">
		<tag k="name" v="Hansheimelva" />
		<tag k="ssr:stedsnr" v="721164" />
		<tag k="waterway" v="stream" />
	</node>
	<node lat="68.70649999891855" lon="16.99215554722594" id="-101443">
		<tag k="name" v="Skreelva" />
		<tag k="ssr:stedsnr" v="721560" />
		<tag k="waterway" v="stream" />
	</node>
	<node lat="68.63551388518373" lon="17.26681111578393" id="-101449">
		<tag k="name" v="Jonsåelva" />
		<tag k="ssr:stedsnr" v="721649" />
		<tag k="waterway" v="stream" />
	</node>
	<node lat="68.5845388846809" lon="16.09397500837669" id="-101460">
		<tag k="name" v="Vesterforsvatnan" />
		<tag k="natural" v="water" />
		<tag k="ssr:stedsnr" v="745863" />
		<tag k="water" v="lake" />
	</node>
	<node lat="68.56166110934933" lon="16.767011109205548" id="-101462">
		<tag k="alt_name:se" v="Luohkkájohka;Luohkkávuoljohka" />
		<tag k="loc_name:se" v="Luohkávuoljohka" />
		<tag k="name" v="Luohkkávuoljohka - Øverelva" />
		<tag k="name:no" v="Øverelva" />
		<tag k="name:se" v="Luohkkávuoljohka" />
		<tag k="old_name:se" v="Luokkajåkka" />
		<tag k="ssr:stedsnr" v="747593" />
		<tag k="waterway" v="stream" />
	</node>
	<node lat="68.64198888673987" lon="16.78869999639305" id="-101464">
		<tag k="name" v="Svartvatnet" />
		<tag k="natural" v="water" />
		<tag k="ssr:stedsnr" v="748024" />
	</node>
	<node lat="68.59774609127086" lon="16.786570090500966" id="-101468">
		<tag k="fixme" v="multiple name:no tags, choose one and add the other to alt_name:no" />
		<tag k="name" v="Roggejávri" />
		<tag k="name:no" v="Holvatnet, nedre;Hulvatnet;Nedre Holvatnet" />
		<tag k="name:se" v="Roggejávri" />
		<tag k="natural" v="water" />
		<tag k="old_name:se" v="Råggejavri" />
		<tag k="ssr:stedsnr" v="748185" />
		<tag k="water" v="lake" />
	</node>
	<node lat="68.53108055430133" lon="16.346574998248087" id="-101469">
		<tag k="loc_name:se" v="Sáttiidjávri" />
		<tag k="name" v="Sandsvatnet" />
		<tag k="name:no" v="Sandsvatnet" />
		<tag k="natural" v="water" />
		<tag k="ssr:stedsnr" v="748790" />
		<tag k="water" v="lake" />
	</node>
	<node lat="68.52658055605077" lon="16.233638888802393" id="-101470">
		<tag k="alt_name" v="Litle-elva" />
		<tag k="name" v="Litleelva" />
		<tag k="ssr:stedsnr" v="748792" />
		<tag k="waterway" v="stream" />
	</node>
	<node lat="68.54587500031835" lon="16.678919447045804" id="-101472">
		<tag k="alt_name" v="Nøkktjørna" />
		<tag k="name" v="Nøkktjønna" />
		<tag k="natural" v="water" />
		<tag k="ssr:stedsnr" v="748881" />
	</node>
	<node lat="68.64201389109829" lon="16.87167223304674" id="-101474">
		<tag k="name" v="Småvatnan" />
		<tag k="natural" v="water" />
		<tag k="ssr:stedsnr" v="748897" />
		<tag k="water" v="lake" />
	</node>
	<node lat="68.66060832878938" lon="17.259177786490604" id="-101478">
		<tag k="name" v="Segelelva" />
		<tag k="name:no" v="Segelelva" />
		<tag k="name:se" v="Borjjasjohka" />
		<tag k="ssr:stedsnr" v="748988" />
		<tag k="waterway" v="stream" />
	</node>
	<node lat="68.56786389372614" lon="16.839327766237187" id="-101484">
		<tag k="name" v="Tindvatnet" />
		<tag k="name:no" v="Tindvatnet" />
		<tag k="name:se" v="Čohkkajávri" />
		<tag k="natural" v="water" />
		<tag k="ssr:stedsnr" v="748936" />
	</node>
	<node lat="68.67498610945523" lon="16.960052763684846" id="-101489">
		<tag k="alt_name" v="Reinsåelva" />
		<tag k="name" v="Rensåelva" />
		<tag k="ssr:stedsnr" v="748998" />
		<tag k="waterway" v="river" />
	</node>
	<node lat="68.50001944770291" lon="16.216366665562006" id="-101500">
		<tag k="name" v="Buksvatnet" />
		<tag k="natural" v="water" />
		<tag k="ssr:stedsnr" v="753343" />
		<tag k="water" v="lake" />
	</node>
	<node lat="68.47962222362942" lon="16.16130000479713" id="-101505">
		<tag k="name" v="Mølnelva" />
		<tag k="ssr:stedsnr" v="753500" />
		<tag k="waterway" v="stream" />
	</node>
	<node lat="68.53675278204241" lon="16.420808330099717" id="-101506">
		<tag k="name" v="Oterstokkelva" />
		<tag k="ssr:stedsnr" v="753693" />
		<tag k="waterway" v="stream" />
	</node>
	<node lat="68.65371944506184" lon="17.013763889789725" id="-101525">
		<tag k="name" v="Storlemvatnet" />
		<tag k="natural" v="water" />
		<tag k="ssr:stedsnr" v="782560" />
	</node>
	<node lat="68.57606388837134" lon="17.243294445076774" id="-101530">
		<tag k="name" v="Vaggenusvika" />
		<tag k="natural" v="bay" />
		<tag k="ssr:stedsnr" v="782621" />
	</node>
	<node lat="68.66356944712192" lon="16.948913879138146" id="-101536">
		<tag k="name" v="Elvekrokan" />
		<tag k="natural" v="bay" />
		<tag k="ssr:stedsnr" v="782879" />
	</node>
	<node lat="68.63306944799287" lon="16.809836111367567" id="-101539">
		<tag k="name" v="Kjosen" />
		<tag k="natural" v="bay" />
		<tag k="ssr:stedsnr" v="782735" />
	</node>
	<node lat="68.63986111212346" lon="16.724124987078795" id="-101541">
		<tag k="name" v="Tverrelva" />
		<tag k="ssr:stedsnr" v="782822" />
		<tag k="waterway" v="stream" />
	</node>
	<node lat="68.64416111325649" lon="16.938880559210144" id="-101542">
		<tag k="name" v="Tverrelvvatnet" />
		<tag k="natural" v="water" />
		<tag k="ssr:stedsnr" v="782910" />
		<tag k="water" v="lake" />
	</node>
	<node lat="68.55889444750724" lon="16.19169444717686" id="-101558">
		<tag k="fixme" v="multiple name tags, choose one and add the other to alt_name" />
		<tag k="name" v="Mølnelva;Mølnskarelva" />
		<tag k="ssr:stedsnr" v="806889" />
		<tag k="waterway" v="stream" />
	</node>
	<node lat="68.61594722202545" lon="16.810519441040253" id="-101566">
		<tag k="fixme" v="multiple name tags, choose one and add the other to alt_name" />
		<tag k="name" v="Karivatnet;Lysvatnet" />
		<tag k="natural" v="water" />
		<tag k="ssr:stedsnr" v="808210" />
	</node>
	<node lat="68.64782222490103" lon="16.75620000332806" id="-101569">
		<tag k="name" v="Bruelva" />
		<tag k="ssr:stedsnr" v="809042" />
		<tag k="waterway" v="stream" />
	</node>
	<node lat="68.53762777848472" lon="16.49671112041286" id="-101570">
		<tag k="name" v="Varmoelva" />
		<tag k="ssr:stedsnr" v="808767" />
		<tag k="waterway" v="stream" />
	</node>
	<node lat="68.52453611199994" lon="16.503033340958854" id="-101571">
		<tag k="name" v="Sørtuvvatnan" />
		<tag k="natural" v="water" />
		<tag k="ssr:stedsnr" v="808778" />
	</node>
	<node lat="68.58111666843963" lon="17.389294432739227" id="-101584">
		<tag k="name" v="Auksjonselva" />
		<tag k="name:no" v="Auksjonselva" />
		<tag k="name:se" v="Ákšojohka" />
		<tag k="ssr:stedsnr" v="809936" />
		<tag k="waterway" v="stream" />
	</node>
	<node lat="68.48155277319312" lon="16.172422226953284" id="-101588">
		<tag k="name" v="Kvanntoelva" />
		<tag k="ssr:stedsnr" v="813509" />
		<tag k="waterway" v="stream" />
	</node>
	<node lat="68.53365833705097" lon="16.297947223012955" id="-101596">
		<tag k="name" v="Storforrdalselva" />
		<tag k="ssr:stedsnr" v="813864" />
		<tag k="waterway" v="stream" />
	</node>
	<node lat="68.49763889212672" lon="16.508444453888846" id="-101598">
		<tag k="name" v="Vikelva" />
		<tag k="ssr:stedsnr" v="814123" />
		<tag k="waterway" v="stream" />
	</node>
	<node lat="68.57597500059619" lon="16.358686108290307" id="-101630">
		<tag k="name" v="Kleivfjelltjønna" />
		<tag k="natural" v="water" />
		<tag k="ssr:stedsnr" v="889860" />
	</node>
	<node lat="68.47652499766244" lon="16.400333323369143" id="-101653">
		<tag k="name" v="Siriskoltdalvatnan" />
		<tag k="natural" v="water" />
		<tag k="ssr:stedsnr" v="866389" />
	</node>
	<node lat="68.41223888773456" lon="16.2375888981826" id="-101655">
		<tag k="name" v="Russhaugelva" />
		<tag k="ssr:stedsnr" v="866461" />
		<tag k="waterway" v="stream" />
	</node>
	<node lat="68.49489444509553" lon="16.184163886391122" id="-101657">
		<tag k="name" v="Straumselva" />
		<tag k="ssr:stedsnr" v="867180" />
		<tag k="waterway" v="stream" />
	</node>
	<node lat="68.5639000004452" lon="16.118958337533996" id="-101659">
		<tag k="name" v="Tverrelva" />
		<tag k="ssr:stedsnr" v="867872" />
		<tag k="waterway" v="stream" />
	</node>
	<node lat="68.60204721972454" lon="16.164172210189573" id="-101666">
		<tag k="name" v="Rundkollbekken" />
		<tag k="ssr:stedsnr" v="867836" />
		<tag k="waterway" v="stream" />
	</node>
	<node lat="68.61146111456345" lon="16.798555549946922" id="-101672">
		<tag k="alt_name" v="Reinvatn" />
		<tag k="name" v="Reinvatnet" />
		<tag k="natural" v="water" />
		<tag k="ssr:stedsnr" v="869260" />
	</node>
	<node lat="68.51007778017055" lon="16.423872214983692" id="-101674">
		<tag k="name" v="Krokelva" />
		<tag k="ssr:stedsnr" v="869646" />
		<tag k="waterway" v="stream" />
	</node>
	<node lat="68.50925555441208" lon="16.545986105977907" id="-101690">
		<tag k="name" v="Svartvatnet" />
		<tag k="natural" v="water" />
		<tag k="ssr:stedsnr" v="870944" />
	</node>
	<node lat="68.51049444619369" lon="16.41000278278509" id="-101691">
		<tag k="name" v="Krokvatnet" />
		<tag k="natural" v="water" />
		<tag k="ssr:stedsnr" v="870949" />
	</node>
	<node lat="68.66208889320997" lon="17.315241666088234" id="-101692">
		<tag k="name" v="Segeldalsvatnet" />
		<tag k="name:no" v="Segeldalsvatnet" />
		<tag k="name:se" v="Unnajávrráš" />
		<tag k="natural" v="water" />
		<tag k="ssr:stedsnr" v="870986" />
	</node>
	<node lat="68.66153055419491" lon="17.016363877120085" id="-101693">
		<tag k="name" v="Lamarkvatnet" />
		<tag k="natural" v="water" />
		<tag k="ssr:stedsnr" v="870993" />
	</node>
	<node lat="68.50249722478557" lon="16.484647226284764" id="-101698">
		<tag k="name" v="Nordelva" />
		<tag k="ssr:stedsnr" v="874125" />
		<tag k="waterway" v="stream" />
	</node>
	<node lat="68.47603333064204" lon="16.152624996151726" id="-101700">
		<tag k="name" v="Jektstrandholmen" />
		<tag k="place" v="islet" />
		<tag k="ssr:stedsnr" v="874399" />
	</node>
	<node lat="68.48310833632269" lon="16.159183338573737" id="-101702">
		<tag k="name" v="Bekkelva" />
		<tag k="ssr:stedsnr" v="874551" />
		<tag k="waterway" v="stream" />
	</node>
	<node lat="68.56813055897396" lon="16.440919438468075" id="-101711">
		<tag k="name" v="Haubakkelva" />
		<tag k="ssr:stedsnr" v="875681" />
		<tag k="waterway" v="stream" />
	</node>
	<node lat="68.53701389013216" lon="16.522688886571803" id="-101746">
		<tag k="name" v="Åsvatnet" />
		<tag k="natural" v="water" />
		<tag k="ssr:stedsnr" v="935507" />
	</node>
	<node lat="68.5911944472635" lon="16.21719999308377" id="-101752">
		<tag k="name" v="Revhågvatnet" />
		<tag k="natural" v="water" />
		<tag k="ssr:stedsnr" v="936431" />
	</node>
	<node lat="68.53460555398387" lon="16.575377778146564" id="-101786">
		<tag k="name" v="Ytterelva" />
		<tag k="ssr:stedsnr" v="963081" />
		<tag k="waterway" v="stream" />
	</node>
	<node lat="68.59975277996163" lon="16.59836666093338" id="-101791">
		<tag k="name" v="Tømmeråselva" />
		<tag k="ssr:stedsnr" v="963855" />
		<tag k="waterway" v="stream" />
	</node>
	<node lat="68.65653888507298" lon="16.91965832431203" id="-101799">
		<tag k="name" v="Elvekrokelva" />
		<tag k="ssr:stedsnr" v="964870" />
		<tag k="waterway" v="stream" />
	</node>
	<node lat="68.61196944613113" lon="17.261288876412614" id="-101801">
		<tag k="name" v="Kuvågen" />
		<tag k="natural" v="bay" />
		<tag k="ssr:stedsnr" v="964643" />
	</node>
</osm>
