<?xml version="1.0" encoding="UTF-8"?>
<osm version="0.6" generator="osmapis">
	<node lat="68.42802976862458" lon="16.344363693698188" id="-95738">
		<tag k="alt_name:no" v="Miklebostad" />
		<tag k="loc_name:se" v="Mihkkelbovllak" />
		<tag k="name" v="Myklebostad" />
		<tag k="name:no" v="Myklebostad" />
		<tag k="place" v="farm" />
		<tag k="ssr:stedsnr" v="17511" />
	</node>
	<node lat="68.67684999747242" lon="16.78366111976309" id="-95740">
		<tag k="name" v="Skjåland" />
		<tag k="place" v="farm" />
		<tag k="ssr:stedsnr" v="20092" />
	</node>
	<node lat="68.5326111123636" lon="16.66497776832113" id="-95746">
		<tag k="name" v="Nyheim" />
		<tag k="place" v="farm" />
		<tag k="ssr:stedsnr" v="20789" />
	</node>
	<node lat="68.64824741002009" lon="17.191427223421474" id="-95747">
		<tag k="alt_name" v="Opdal" />
		<tag k="name" v="Oppdal" />
		<tag k="place" v="farm" />
		<tag k="ssr:stedsnr" v="20888" />
	</node>
	<node lat="68.64096666872908" lon="17.170158322740274" id="-95748">
		<tag k="name" v="Laberget" />
		<tag k="old_name" v="Laberg" />
		<tag k="place" v="hamlet" />
		<tag k="ssr:stedsnr" v="20889" />
	</node>
	<node lat="68.54516111509753" lon="16.29392777716162" id="-95767">
		<tag k="name" v="Elvneset" />
		<tag k="place" v="farm" />
		<tag k="ssr:stedsnr" v="25875" />
	</node>
	<node lat="68.47951666968389" lon="16.531369437602464" id="-95784">
		<tag k="name" v="Nordmo" />
		<tag k="place" v="farm" />
		<tag k="ssr:stedsnr" v="30070" />
	</node>
	<node lat="68.5693064655029" lon="16.407443096813097" id="-95786">
		<tag k="name" v="Hårvik" />
		<tag k="place" v="farm" />
		<tag k="ssr:stedsnr" v="36070" />
	</node>
	<node lat="68.56923055215582" lon="16.75040276696817" id="-95803">
		<tag k="name" v="Lundlia" />
		<tag k="place" v="farm" />
		<tag k="ssr:stedsnr" v="80145" />
	</node>
	<node lat="68.52486666322861" lon="16.718661113725027" id="-95804">
		<tag k="name" v="Solstad" />
		<tag k="place" v="farm" />
		<tag k="ssr:stedsnr" v="80802" />
	</node>
	<node lat="68.64783611469069" lon="16.8363972100642" id="-95810">
		<tag k="name" v="Sáttiidvuopmi - Sandemarka" />
		<tag k="name:no" v="Sandemarka" />
		<tag k="name:se" v="Sáttiidvuopmi" />
		<tag k="place" v="hamlet" />
		<tag k="ssr:stedsnr" v="81903" />
	</node>
	<node lat="68.66905555527364" lon="17.150813881920172" id="-95817">
		<tag k="name" v="Løvmoen" />
		<tag k="place" v="farm" />
		<tag k="ssr:stedsnr" v="81996" />
	</node>
	<node lat="68.56621944759998" lon="16.71926665681704" id="-95847">
		<tag k="name" v="Skipperlaheimen" />
		<tag k="place" v="locality" />
		<tag k="ssr:stedsnr" v="235191" />
	</node>
	<node lat="68.57076944156456" lon="16.613922229138797" id="-95861">
		<tag k="name" v="Haugen" />
		<tag k="place" v="farm" />
		<tag k="ssr:stedsnr" v="114177" />
	</node>
	<node lat="68.56813055991663" lon="16.622516656368497" id="-95863">
		<tag k="name" v="Flåten" />
		<tag k="place" v="farm" />
		<tag k="ssr:stedsnr" v="114183" />
	</node>
	<node lat="68.42189444159156" lon="16.32112500069584" id="-95877">
		<tag k="alt_name" v="Skogen" />
		<tag k="name" v="Skogan" />
		<tag k="place" v="farm" />
		<tag k="ssr:stedsnr" v="138495" />
	</node>
	<node lat="68.42786389046724" lon="16.30257777765" id="-95878">
		<tag k="name" v="Nystad" />
		<tag k="place" v="isolated_dwelling" />
		<tag k="ssr:stedsnr" v="138497" />
	</node>
	<node lat="68.60264722524185" lon="16.689872212402744" id="-95882">
		<tag k="name" v="Kjønna" />
		<tag k="place" v="farm" />
		<tag k="ssr:stedsnr" v="141205" />
	</node>
	<node lat="68.66383611447382" lon="16.78151666707158" id="-95886">
		<tag k="name" v="Nylund" />
		<tag k="place" v="farm" />
		<tag k="ssr:stedsnr" v="141107" />
	</node>
	<node lat="68.56193909134693" lon="16.22939890178851" id="-95888">
		<tag k="alt_name" v="Staksvoll" />
		<tag k="name" v="Stakksvoll" />
		<tag k="place" v="farm" />
		<tag k="ssr:stedsnr" v="141131" />
	</node>
	<node lat="68.5010019433841" lon="16.48521419444249" id="-95892">
		<tag k="name" v="Rambø" />
		<tag k="place" v="farm" />
		<tag k="ssr:stedsnr" v="141931" />
	</node>
	<node lat="68.50327778005031" lon="16.64472501059955" id="-95893">
		<tag k="loc_name:se" v="Skáhperápma" />
		<tag k="name" v="Skavlia" />
		<tag k="name:no" v="Skavlia" />
		<tag k="place" v="farm" />
		<tag k="ssr:stedsnr" v="141937" />
	</node>
	<node lat="68.67823889257524" lon="16.786616665760107" id="-95922">
		<tag k="name" v="Sáhtik - Sandstrand" />
		<tag k="name:no" v="Sandstrand" />
		<tag k="name:se" v="Sáhtik" />
		<tag k="place" v="quarter" />
		<tag k="ssr:stedsnr" v="174007" />
	</node>
	<node lat="68.5804555556532" lon="16.583363896587723" id="-95923">
		<tag k="amenity" v="school" />
		<tag k="name" v="Skániid skovlá - Skånland skole" />
		<tag k="name:no" v="Skånland skole" />
		<tag k="name:se" v="Skániid skovlá" />
		<tag k="ssr:stedsnr" v="174009" />
	</node>
	<node lat="68.53275224322259" lon="16.626196635863327" id="-95924">
		<tag k="alt_name" v="Lavangen nedre" />
		<tag k="name" v="Nedre Lavangen" />
		<tag k="place" v="farm" />
		<tag k="ssr:stedsnr" v="175063" />
	</node>
	<node lat="68.59549999892677" lon="16.716888898002683" id="-95935">
		<tag k="name" v="Bø" />
		<tag k="place" v="farm" />
		<tag k="ssr:stedsnr" v="178762" />
	</node>
	<node lat="68.48057500358281" lon="16.15123887840773" id="-95936">
		<tag k="loc_name:se" v="Válváhki" />
		<tag k="name" v="Valvågen" />
		<tag k="name:no" v="Valvågen" />
		<tag k="place" v="hamlet" />
		<tag k="ssr:stedsnr" v="199175" />
	</node>
	<node lat="68.60562222611405" lon="16.69411110084538" id="-95943">
		<tag k="name" v="Midttun" />
		<tag k="place" v="farm" />
		<tag k="ssr:stedsnr" v="202202" />
	</node>
	<node lat="68.61703055731608" lon="17.270036110484394" id="-95947">
		<tag k="alt_name" v="Minde" />
		<tag k="name" v="Minne" />
		<tag k="place" v="farm" />
		<tag k="ssr:stedsnr" v="202912" />
	</node>
	<node lat="68.61446111363928" lon="17.29809999116791" id="-95948">
		<tag k="alt_name:no" v="Krokelv" />
		<tag k="name" v="Borri - Krokelva" />
		<tag k="name:no" v="Krokelva" />
		<tag k="name:se" v="Borri" />
		<tag k="place" v="hamlet" />
		<tag k="ssr:stedsnr" v="202913" />
	</node>
	<node lat="68.52549721989351" lon="16.70243888848542" id="-95951">
		<tag k="name" v="Molund" />
		<tag k="place" v="farm" />
		<tag k="ssr:stedsnr" v="202811" />
	</node>
	<node lat="68.5544504796781" lon="16.63522013909817" id="-95952">
		<tag k="name" v="Rødberg" />
		<tag k="place" v="farm" />
		<tag k="ssr:stedsnr" v="202861" />
	</node>
	<node lat="68.54850277862879" lon="16.629802785528327" id="-95953">
		<tag k="name" v="Vårtun" />
		<tag k="place" v="farm" />
		<tag k="ssr:stedsnr" v="202862" />
	</node>
	<node lat="68.54235000025223" lon="16.237408338191237" id="-95954">
		<tag k="name" v="Ripelen" />
		<tag k="place" v="locality" />
		<tag k="ssr:stedsnr" v="202871" />
	</node>
	<node lat="68.48025296724906" lon="16.154124398278295" id="-95961">
		<tag k="alt_name:no" v="Valvåg" />
		<tag k="loc_name:se" v="Válváhki" />
		<tag k="name" v="Valvågen" />
		<tag k="name:no" v="Valvågen" />
		<tag k="place" v="farm" />
		<tag k="ssr:stedsnr" v="206513" />
	</node>
	<node lat="68.56555833707607" lon="16.243058332529557" id="-95995">
		<tag k="alt_name" v="Leitet" />
		<tag k="name" v="Leite" />
		<tag k="place" v="farm" />
		<tag k="ssr:stedsnr" v="444120" />
	</node>
	<node lat="68.57309999573812" lon="16.610161110923116" id="-95996">
		<tag k="name" v="Østerråd" />
		<tag k="place" v="farm" />
		<tag k="ssr:stedsnr" v="444134" />
	</node>
	<node lat="68.60802588388653" lon="16.693529050095087" id="-95998">
		<tag k="name" v="Hoanttas - Nipen" />
		<tag k="name:no" v="Nipen" />
		<tag k="name:se" v="Hoanttas" />
		<tag k="place" v="farm" />
		<tag k="ssr:stedsnr" v="444184" />
	</node>
	<node lat="68.57515833265519" lon="16.689569452371142" id="-96000">
		<tag k="name" v="Bø" />
		<tag k="place" v="farm" />
		<tag k="ssr:stedsnr" v="239809" />
	</node>
	<node lat="68.56922500291834" lon="16.63189165821975" id="-96001">
		<tag k="name" v="Bø" />
		<tag k="place" v="farm" />
		<tag k="ssr:stedsnr" v="239812" />
	</node>
	<node lat="68.56048889034484" lon="16.708405562519708" id="-96005">
		<tag k="alt_name:no" v="Rødbergsmark" />
		<tag k="loc_name:se" v="Torbelsiida" />
		<tag k="name" v="Rødbergsmarka" />
		<tag k="name:no" v="Rødbergsmarka" />
		<tag k="place" v="hamlet" />
		<tag k="ssr:stedsnr" v="444817" />
	</node>
	<node lat="68.5897722196285" lon="16.566874990659954" id="-96008">
		<tag k="name" v="Dyrvika" />
		<tag k="place" v="farm" />
		<tag k="ssr:stedsnr" v="445186" />
	</node>
	<node lat="68.59152499997494" lon="16.57576389349381" id="-96009">
		<tag k="name" v="Damsgård" />
		<tag k="place" v="farm" />
		<tag k="ssr:stedsnr" v="445188" />
	</node>
	<node lat="68.57441599005658" lon="16.220479807805166" id="-96011">
		<tag k="name" v="Fjellvang" />
		<tag k="place" v="locality" />
		<tag k="ssr:stedsnr" v="445159" />
	</node>
	<node lat="68.58014361917077" lon="16.64220910123746" id="-96012">
		<tag k="alt_name" v="Elvehøy" />
		<tag k="name" v="Elverhøy" />
		<tag k="place" v="isolated_dwelling" />
		<tag k="ssr:stedsnr" v="445166" />
	</node>
	<node lat="68.65445555346821" lon="17.233600003409137" id="-96016">
		<tag k="alt_name:no" v="Bakkejord" />
		<tag k="name" v="Vuollegeahči - Bakkejorda" />
		<tag k="name:no" v="Bakkejorda" />
		<tag k="name:se" v="Vuollegeahči" />
		<tag k="place" v="hamlet" />
		<tag k="ssr:stedsnr" v="445905" />
	</node>
	<node lat="68.53906825576404" lon="16.473160486814947" id="-96018">
		<tag k="name" v="Ramstad" />
		<tag k="place" v="farm" />
		<tag k="ssr:stedsnr" v="445775" />
	</node>
	<node lat="68.552572219728" lon="16.543255560020476" id="-96019">
		<tag k="alt_name" v="Fjelldal, øvre" />
		<tag k="name" v="Øvre Fjelldal" />
		<tag k="place" v="quarter" />
		<tag k="ssr:stedsnr" v="445843" />
	</node>
	<node lat="68.51933055618179" lon="16.6973888983998" id="-96023">
		<tag k="name" v="Myrlund" />
		<tag k="place" v="farm" />
		<tag k="ssr:stedsnr" v="445815" />
	</node>
	<node lat="68.70497499754879" lon="16.954600002630915" id="-96027">
		<tag k="name" v="Vestrheim" />
		<tag k="place" v="farm" />
		<tag k="ssr:stedsnr" v="445958" />
	</node>
	<node lat="68.48772221837064" lon="16.53050278383191" id="-96034">
		<tag k="name" v="Elverum" />
		<tag k="place" v="farm" />
		<tag k="ssr:stedsnr" v="259384" />
	</node>
	<node lat="68.59876110960002" lon="16.568258342415394" id="-96039">
		<tag k="name" v="Nordheim" />
		<tag k="place" v="farm" />
		<tag k="ssr:stedsnr" v="262203" />
	</node>
	<node lat="68.53505833043694" lon="16.711663886268415" id="-96041">
		<tag k="name" v="Brattland" />
		<tag k="place" v="farm" />
		<tag k="ssr:stedsnr" v="262802" />
	</node>
	<node lat="68.56558889226962" lon="16.623724989474773" id="-96042">
		<tag k="name" v="Nøysomheten" />
		<tag k="place" v="farm" />
		<tag k="ssr:stedsnr" v="262860" />
	</node>
	<node lat="68.58280832891785" lon="16.572125007033232" id="-96047">
		<tag k="alt_name:se" v="Skearri" />
		<tag k="loc_name:se" v="Viervá" />
		<tag k="name" v="Skánik - Evenskjer" />
		<tag k="name:no" v="Evenskjer" />
		<tag k="name:se" v="Skánik" />
		<tag k="place" v="village" />
		<tag k="ssr:stedsnr" v="263212" />
	</node>
	<node lat="68.54823333640316" lon="16.519991666751753" id="-96051">
		<tag k="name" v="Skogmo" />
		<tag k="place" v="farm" />
		<tag k="ssr:stedsnr" v="263864" />
	</node>
	<node lat="68.48459999561595" lon="16.151369454123756" id="-96056">
		<tag k="name" v="Vetlehaimen" />
		<tag k="place" v="farm" />
		<tag k="ssr:stedsnr" v="267406" />
	</node>
	<node lat="68.5661833366966" lon="16.339844440599272" id="-96073">
		<tag k="name" v="Marentofta" />
		<tag k="place" v="farm" />
		<tag k="ssr:stedsnr" v="449093" />
	</node>
	<node lat="68.55296944829638" lon="16.551605549998065" id="-96075">
		<tag k="name" v="Kveldro" />
		<tag k="place" v="farm" />
		<tag k="ssr:stedsnr" v="449127" />
	</node>
	<node lat="68.42390277892582" lon="16.10965833756516" id="-96137">
		<tag k="name" v="Tjeldnes" />
		<tag k="place" v="farm" />
		<tag k="ssr:stedsnr" v="320257" />
	</node>
	<node lat="68.55196666627107" lon="16.531219454459414" id="-96155">
		<tag k="name" v="Nakken" />
		<tag k="place" v="farm" />
		<tag k="ssr:stedsnr" v="328468" />
	</node>
	<node lat="68.42371478808498" lon="16.10742473520814" id="-96160">
		<tag k="name" v="Tjeldnes" />
		<tag k="place" v="farm" />
		<tag k="ssr:stedsnr" v="329812" />
	</node>
	<node lat="68.67813611468462" lon="17.120925007959684" id="-96181">
		<tag k="amenity" v="school" />
		<tag k="name" v="Roaba skovlá - Grov skole" />
		<tag k="name:no" v="Grov skole" />
		<tag k="name:se" v="Roaba skovlá" />
		<tag k="ssr:stedsnr" v="356006" />
	</node>
	<node lat="68.53623333613415" lon="16.629380550104035" id="-96184">
		<tag k="name" v="Hamn" />
		<tag k="place" v="farm" />
		<tag k="ssr:stedsnr" v="357075" />
	</node>
	<node lat="68.4365242147349" lon="16.135651333215126" id="-96198">
		<tag k="name" v="Våge" />
		<tag k="place" v="farm" />
		<tag k="ssr:stedsnr" v="381258" />
	</node>
	<node lat="68.59542221880955" lon="16.58141111022356" id="-96202">
		<tag k="name" v="Litlebo" />
		<tag k="place" v="farm" />
		<tag k="ssr:stedsnr" v="384213" />
	</node>
	<node lat="68.56876388521376" lon="16.411650005926933" id="-96204">
		<tag k="name" v="Solli" />
		<tag k="place" v="farm" />
		<tag k="ssr:stedsnr" v="384163" />
	</node>
	<node lat="68.68022767755338" lon="16.868920000845" id="-96211">
		<tag k="alt_name:no" v="Tovik" />
		<tag k="loc_name:se" v="Tuviika" />
		<tag k="name" v="Tovika" />
		<tag k="name:no" v="Tovika" />
		<tag k="place" v="quarter" />
		<tag k="ssr:stedsnr" v="384958" />
	</node>
	<node lat="68.68061666947969" lon="17.058763883853857" id="-96212">
		<tag k="alt_name" v="Balteskardet;Balteskar" />
		<tag k="name" v="Balteskaret" />
		<tag k="place" v="hamlet" />
		<tag k="ssr:stedsnr" v="384959" />
	</node>
	<node lat="68.5603222242506" lon="16.760799999013795" id="-96214">
		<tag k="loc_name:se" v="Dievvá" />
		<tag k="name" v="Dalhaug" />
		<tag k="name:no" v="Dalhaug" />
		<tag k="place" v="farm" />
		<tag k="ssr:stedsnr" v="384816" />
	</node>
	<node lat="68.6435694458506" lon="17.177250004857488" id="-96243">
		<tag k="name" v="Laberg Søndre" />
		<tag k="place" v="farm" />
		<tag k="ssr:stedsnr" v="418709" />
	</node>
	<node lat="68.56878888818666" lon="16.62396110875207" id="-96250">
		<tag k="name" v="Bø" />
		<tag k="place" v="farm" />
		<tag k="ssr:stedsnr" v="421803" />
	</node>
	<node lat="68.51026111114757" lon="16.7487749966273" id="-96251">
		<tag k="loc_name:no" v="Lavangseidet" />
		<tag k="name" v="Loabákáidi" />
		<tag k="name:se" v="Loabákáidi" />
		<tag k="place" v="quarter" />
		<tag k="ssr:stedsnr" v="422414" />
	</node>
	<node lat="68.42809722111714" lon="16.308416668363545" id="-96273">
		<tag k="name" v="Sollia" />
		<tag k="place" v="isolated_dwelling" />
		<tag k="ssr:stedsnr" v="442495" />
	</node>
	<node lat="68.42658812773837" lon="16.41563244544142" id="-96274">
		<tag k="alt_name" v="Kjellstad" />
		<tag k="name" v="Kilstad" />
		<tag k="place" v="farm" />
		<tag k="ssr:stedsnr" v="442503" />
	</node>
	<node lat="68.65355273120156" lon="16.721948916487058" id="-96277">
		<tag k="alt_name:no" v="Tennevik" />
		<tag k="loc_name:se" v="Deannjaviika" />
		<tag k="name" v="Tennevika" />
		<tag k="name:no" v="Tennevika" />
		<tag k="place" v="farm" />
		<tag k="ssr:stedsnr" v="444044" />
	</node>
	<node lat="68.55613888986316" lon="16.086508324791943" id="-96313">
		<tag k="name" v="Skoglund" />
		<tag k="place" v="farm" />
		<tag k="ssr:stedsnr" v="464920" />
	</node>
	<node lat="68.58551944466933" lon="16.579808326281317" id="-96314">
		<tag k="name" v="Skánik - Skånland" />
		<tag k="name:no" v="Skånland" />
		<tag k="name:se" v="Skánik" />
		<tag k="place" v="quarter" />
		<tag k="ssr:stedsnr" v="477004" />
	</node>
	<node lat="68.68184999763479" lon="16.797963892285335" id="-96315">
		<tag k="amenity" v="school" />
		<tag k="name" v="Sáhtiid skovlá - Sandstrand skole" />
		<tag k="name:no" v="Sandstrand skole" />
		<tag k="name:se" v="Sáhtiid skovlá" />
		<tag k="ssr:stedsnr" v="477008" />
	</node>
	<node lat="68.63819999734298" lon="17.262555547816703" id="-96327">
		<tag k="name" v="Mellomvatn" />
		<tag k="place" v="farm" />
		<tag k="ssr:stedsnr" v="478286" />
	</node>
	<node lat="68.59649166705901" lon="16.16626945084373" id="-96345">
		<tag k="name" v="Dalbotnen" />
		<tag k="place" v="isolated_dwelling" />
		<tag k="ssr:stedsnr" v="503778" />
	</node>
	<node lat="68.59269539072254" lon="16.679248812683383" id="-96351">
		<tag k="loc_name:se" v="Oladievvá" />
		<tag k="name" v="Lomåsen" />
		<tag k="name:no" v="Lomåsen" />
		<tag k="place" v="farm" />
		<tag k="ssr:stedsnr" v="505203" />
	</node>
	<node lat="68.5556250009142" lon="16.351936118266437" id="-96363">
		<tag k="name" v="Berg" />
		<tag k="place" v="farm" />
		<tag k="ssr:stedsnr" v="510103" />
	</node>
	<node lat="68.51060833269283" lon="16.186586099795168" id="-96364">
		<tag k="name" v="Haga" />
		<tag k="place" v="farm" />
		<tag k="ssr:stedsnr" v="510419" />
	</node>
	<node lat="68.49163333059194" lon="16.150527782399738" id="-96370">
		<tag k="name" v="Steinstrand" />
		<tag k="place" v="farm" />
		<tag k="ssr:stedsnr" v="511008" />
	</node>
	<node lat="68.39831388707047" lon="16.117991662835692" id="-96378">
		<tag k="name" v="Tøa" />
		<tag k="place" v="farm" />
		<tag k="ssr:stedsnr" v="512507" />
	</node>
	<node lat="68.58090000150025" lon="16.71176666526099" id="-96393">
		<tag k="name" v="Rámavuolli" />
		<tag k="name:se" v="Rámavuolli" />
		<tag k="place" v="hamlet" />
		<tag k="ssr:stedsnr" v="527507" />
	</node>
	<node lat="68.56561944342124" lon="16.429699987085097" id="-96411">
		<tag k="alt_name" v="Haubakken" />
		<tag k="name" v="Høybakken" />
		<tag k="place" v="farm" />
		<tag k="ssr:stedsnr" v="565825" />
	</node>
	<node lat="68.59453611216955" lon="17.26444723162171" id="-96417">
		<tag k="alt_name" v="Annamo" />
		<tag k="name" v="Annamoen" />
		<tag k="place" v="farm" />
		<tag k="ssr:stedsnr" v="565921" />
	</node>
	<node lat="68.64681388533188" lon="17.126136101650197" id="-96421">
		<tag k="name" v="Åsen" />
		<tag k="place" v="farm" />
		<tag k="ssr:stedsnr" v="566907" />
	</node>
	<node lat="68.56594999779836" lon="16.427113876425327" id="-96433">
		<tag k="name" v="Vollan" />
		<tag k="place" v="farm" />
		<tag k="ssr:stedsnr" v="571659" />
	</node>
	<node lat="68.41621944711873" lon="16.2496388949924" id="-96451">
		<tag k="name" v="Russhaugen" />
		<tag k="place" v="farm" />
		<tag k="ssr:stedsnr" v="684490" />
	</node>
	<node lat="68.51839189038185" lon="16.190620008755204" id="-96457">
		<tag k="name" v="Dragland" />
		<tag k="place" v="farm" />
		<tag k="ssr:stedsnr" v="685772" />
	</node>
	<node lat="68.60101944862818" lon="16.565613887125632" id="-96474">
		<tag k="name" v="Fredheim" />
		<tag k="place" v="farm" />
		<tag k="ssr:stedsnr" v="687198" />
	</node>
	<node lat="68.59819999618828" lon="16.690566657653054" id="-96478">
		<tag k="name" v="Holtåsen" />
		<tag k="place" v="farm" />
		<tag k="ssr:stedsnr" v="687184" />
	</node>
	<node lat="68.5313611089072" lon="16.654625008577963" id="-96479">
		<tag k="name" v="Skogvoll" />
		<tag k="place" v="farm" />
		<tag k="ssr:stedsnr" v="687770" />
	</node>
	<node lat="68.53129721795995" lon="16.617974997666394" id="-96480">
		<tag k="name" v="Loabák - Lavangen" />
		<tag k="name:no" v="Lavangen" />
		<tag k="name:se" v="Loabák" />
		<tag k="place" v="farm" />
		<tag k="ssr:stedsnr" v="687772" />
	</node>
	<node lat="68.52929166679395" lon="16.222461119539872" id="-96482">
		<tag k="name" v="Langosen" />
		<tag k="place" v="farm" />
		<tag k="ssr:stedsnr" v="687783" />
	</node>
	<node lat="68.52333888890819" lon="16.66977500085209" id="-96485">
		<tag k="name" v="Sletta" />
		<tag k="place" v="farm" />
		<tag k="ssr:stedsnr" v="687791" />
	</node>
	<node lat="68.52951666718644" lon="16.702636104113697" id="-96486">
		<tag k="name" v="Myrvang" />
		<tag k="place" v="farm" />
		<tag k="ssr:stedsnr" v="687793" />
	</node>
	<node lat="68.5579722231107" lon="16.650961104583462" id="-96488">
		<tag k="name" v="Strålberg" />
		<tag k="place" v="farm" />
		<tag k="ssr:stedsnr" v="687837" />
	</node>
	<node lat="68.55291111272447" lon="16.75437498751992" id="-96491">
		<tag k="name" v="Utnes" />
		<tag k="place" v="farm" />
		<tag k="ssr:stedsnr" v="687859" />
	</node>
	<node lat="68.70522222284671" lon="17.114380548721712" id="-96495">
		<tag k="alt_name" v="Stræte" />
		<tag k="name" v="Strete" />
		<tag k="place" v="farm" />
		<tag k="ssr:stedsnr" v="687963" />
	</node>
	<node lat="68.6818419376565" lon="16.865069574808437" id="-96496">
		<tag k="name" v="Haugen" />
		<tag k="place" v="farm" />
		<tag k="ssr:stedsnr" v="687979" />
	</node>
	<node lat="68.5355194418234" lon="16.747969445921317" id="-96501">
		<tag k="alt_name:no" v="Planterhaugen" />
		<tag k="name" v="Lánttedievvá - Plantarhaugen" />
		<tag k="name:no" v="Plantarhaugen" />
		<tag k="name:se" v="Lánttedievvá" />
		<tag k="place" v="hamlet" />
		<tag k="ssr:stedsnr" v="688761" />
	</node>
	<node lat="68.54533889181629" lon="16.5090361190064" id="-96520">
		<tag k="name" v="Skogan" />
		<tag k="place" v="farm" />
		<tag k="ssr:stedsnr" v="631492" />
	</node>
	<node lat="68.56649999901067" lon="16.42805832184815" id="-96525">
		<tag k="name" v="Løbakken" />
		<tag k="place" v="farm" />
		<tag k="ssr:stedsnr" v="631692" />
	</node>
	<node lat="68.45021389241309" lon="16.125247230558113" id="-96550">
		<tag k="name" v="Flotta" />
		<tag k="place" v="farm" />
		<tag k="ssr:stedsnr" v="692701" />
	</node>
	<node lat="68.56686111399323" lon="16.65872776768506" id="-96589">
		<tag k="name" v="Gamman" />
		<tag k="place" v="locality" />
		<tag k="ssr:stedsnr" v="660197" />
	</node>
	<node lat="68.65661389316762" lon="17.222905544664204" id="-96590">
		<tag k="name" v="Helleren" />
		<tag k="place" v="farm" />
		<tag k="ssr:stedsnr" v="660291" />
	</node>
	<node lat="68.48797500047614" lon="16.149805557718615" id="-96601">
		<tag k="name" v="Skavstrand" />
		<tag k="place" v="farm" />
		<tag k="ssr:stedsnr" v="684155" />
	</node>
	<node lat="68.40608842593842" lon="16.205375960007572" id="-96604">
		<tag k="name" v="Geiskevika" />
		<tag k="place" v="locality" />
		<tag k="ssr:stedsnr" v="684268" />
	</node>
	<node lat="68.59739722559718" lon="16.173105548337976" id="-96608">
		<tag k="name" v="Andersheim" />
		<tag k="place" v="isolated_dwelling" />
		<tag k="ssr:stedsnr" v="685809" />
	</node>
	<node lat="68.67641666636828" lon="16.770958329333613" id="-96610">
		<tag k="name" v="Dallan" />
		<tag k="place" v="farm" />
		<tag k="ssr:stedsnr" v="687103" />
	</node>
	<node lat="68.62745300903326" lon="16.791292849988686" id="-96611">
		<tag k="name" v="Øymoen" />
		<tag k="place" v="farm" />
		<tag k="ssr:stedsnr" v="687004" />
	</node>
	<node lat="68.62794444549098" lon="17.265824987210934" id="-96613">
		<tag k="name" v="Sletta" />
		<tag k="place" v="farm" />
		<tag k="ssr:stedsnr" v="687907" />
	</node>
	<node lat="68.56166517917812" lon="17.227250454646178" id="-96616">
		<tag k="name" v="Vassbotn" />
		<tag k="place" v="farm" />
		<tag k="ssr:stedsnr" v="687922" />
	</node>
	<node lat="68.57797500049897" lon="16.584441674775906" id="-96620">
		<tag k="alt_name:no" v="Skånland, store" />
		<tag k="loc_name:se" v="Stuora Skánik" />
		<tag k="name" v="Store Skånland" />
		<tag k="name:no" v="Store Skånland" />
		<tag k="place" v="quarter" />
		<tag k="ssr:stedsnr" v="688187" />
	</node>
	<node lat="68.44802222554321" lon="16.448049991965227" id="-96636">
		<tag k="name" v="Gammelgården" />
		<tag k="place" v="farm" />
		<tag k="ssr:stedsnr" v="694633" />
	</node>
	<node lat="68.55579444202436" lon="16.101886116779703" id="-96645">
		<tag k="alt_name" v="Storvold" />
		<tag k="name" v="Storvollen" />
		<tag k="place" v="farm" />
		<tag k="ssr:stedsnr" v="708814" />
	</node>
	<node lat="68.55621389185409" lon="16.106391667204655" id="-96646">
		<tag k="name" v="Minde" />
		<tag k="place" v="farm" />
		<tag k="ssr:stedsnr" v="708815" />
	</node>
	<node lat="68.55739167022703" lon="16.105911113069297" id="-96663">
		<tag k="name" v="Brattland" />
		<tag k="place" v="farm" />
		<tag k="ssr:stedsnr" v="890836" />
	</node>
	<node lat="68.5894027816532" lon="16.695844451299777" id="-96676">
		<tag k="name" v="Grønlia" />
		<tag k="place" v="farm" />
		<tag k="ssr:stedsnr" v="748173" />
	</node>
	<node lat="68.59152222599148" lon="16.691330561192483" id="-96677">
		<tag k="name" v="Bakke" />
		<tag k="place" v="farm" />
		<tag k="ssr:stedsnr" v="748174" />
	</node>
	<node lat="68.51243611486348" lon="16.65311389937903" id="-96681">
		<tag k="name" v="Storlia" />
		<tag k="place" v="farm" />
		<tag k="ssr:stedsnr" v="748818" />
	</node>
	<node lat="68.54392222366312" lon="16.63025554471626" id="-96687">
		<tag k="alt_name" v="Breidstrand" />
		<tag k="name" v="Breistrand" />
		<tag k="place" v="farm" />
		<tag k="ssr:stedsnr" v="748877" />
	</node>
	<node lat="68.55221388906273" lon="16.379527775390333" id="-96694">
		<tag k="name" v="Øygården" />
		<tag k="place" v="farm" />
		<tag k="ssr:stedsnr" v="753067" />
	</node>
	<node lat="68.49221666728948" lon="16.150386122446474" id="-96700">
		<tag k="name" v="Sisselvolden" />
		<tag k="place" v="farm" />
		<tag k="ssr:stedsnr" v="754007" />
	</node>
	<node lat="68.53479166216036" lon="16.60784445137955" id="-96712">
		<tag k="name" v="Nygård" />
		<tag k="place" v="farm" />
		<tag k="ssr:stedsnr" v="758486" />
	</node>
	<node lat="68.55602500487595" lon="16.10780554589225" id="-96715">
		<tag k="name" v="Nordeng" />
		<tag k="place" v="farm" />
		<tag k="ssr:stedsnr" v="769806" />
	</node>
	<node lat="68.53259999705028" lon="16.708944448235638" id="-96716">
		<tag k="amenity" v="school" />
		<tag k="loc_name:se" v="Vaknjavári skuvla" />
		<tag k="name" v="Boltås skole" />
		<tag k="name:no" v="Boltås skole" />
		<tag k="ssr:stedsnr" v="781002" />
	</node>
	<node lat="68.67312221845653" lon="17.097447216262736" id="-96739">
		<tag k="name" v="Myklevold" />
		<tag k="place" v="farm" />
		<tag k="ssr:stedsnr" v="903687" />
	</node>
	<node lat="68.66639722557088" lon="16.770730553106983" id="-96751">
		<tag k="name" v="Solheim" />
		<tag k="place" v="farm" />
		<tag k="ssr:stedsnr" v="809105" />
	</node>
	<node lat="68.63369011085355" lon="16.811849596128223" id="-96752">
		<tag k="name" v="Sandemarka" />
		<tag k="place" v="farm" />
		<tag k="ssr:stedsnr" v="809007" />
	</node>
	<node lat="68.65060555189285" lon="16.728399986469455" id="-96753">
		<tag k="name" v="Nyland" />
		<tag k="place" v="locality" />
		<tag k="ssr:stedsnr" v="809040" />
	</node>
	<node lat="68.5414999964047" lon="16.5758833228767" id="-96758">
		<tag k="name" v="Landsholmen" />
		<tag k="place" v="farm" />
		<tag k="ssr:stedsnr" v="809885" />
	</node>
	<node lat="68.55501110881808" lon="16.524747230193412" id="-96763">
		<tag k="name" v="Stornakkan" />
		<tag k="place" v="farm" />
		<tag k="ssr:stedsnr" v="813107" />
	</node>
	<node lat="68.56229444454814" lon="16.23322778024162" id="-96773">
		<tag k="name" v="Laukvik" />
		<tag k="place" v="hamlet" />
		<tag k="ssr:stedsnr" v="814582" />
	</node>
	<node lat="68.53184731593184" lon="16.613116922629313" id="-96798">
		<tag k="alt_name" v="Lavangen øvre" />
		<tag k="name" v="Øvre Lavangen" />
		<tag k="place" v="farm" />
		<tag k="ssr:stedsnr" v="843083" />
	</node>
	<node lat="68.50188279318931" lon="16.489631882252674" id="-96812">
		<tag k="loc_name:se" v="Rámbidja" />
		<tag k="name" v="Rambø" />
		<tag k="name:no" v="Rambø" />
		<tag k="place" v="farm" />
		<tag k="ssr:stedsnr" v="867417" />
	</node>
	<node lat="68.49198332948924" lon="16.51837499634157" id="-96873">
		<tag k="name" v="Ramsund" />
		<tag k="place" v="village" />
		<tag k="ssr:stedsnr" v="927411" />
	</node>
	<node lat="68.57681389253486" lon="16.592486120495156" id="-96879">
		<tag k="name" v="Grøneng" />
		<tag k="place" v="farm" />
		<tag k="ssr:stedsnr" v="930157" />
	</node>
	<node lat="68.53044166594317" lon="16.68195555303042" id="-96883">
		<tag k="name" v="Åslia" />
		<tag k="place" v="farm" />
		<tag k="ssr:stedsnr" v="930798" />
	</node>
	<node lat="68.57971388794901" lon="16.722794437336155" id="-96910">
		<tag k="name" v="Roasurápma" />
		<tag k="name:se" v="Roasurápma" />
		<tag k="place" v="hamlet" />
		<tag k="ssr:stedsnr" v="952505" />
	</node>
	<node lat="68.52627777535574" lon="16.65491110332014" id="-96917">
		<tag k="name" v="Erik-heimen" />
		<tag k="place" v="locality" />
		<tag k="ssr:stedsnr" v="964005" />
	</node>
	<node lat="68.63789375343013" lon="17.233568665770882" id="-96926">
		<tag k="name" v="Kovan" />
		<tag k="place" v="farm" />
		<tag k="ssr:stedsnr" v="986312" />
	</node>
	<node lat="68.60127869205175" lon="16.689022916432272" id="-96927">
		<tag k="name" v="Tjønna" />
		<tag k="place" v="farm" />
		<tag k="ssr:stedsnr" v="986436" />
	</node>
	<node lat="68.61337945255298" lon="17.302331948270265" id="-96931">
		<tag k="name" v="Borri - Søndre Krokelv" />
		<tag k="name:no" v="Søndre Krokelv" />
		<tag k="name:se" v="Borri" />
		<tag k="place" v="farm" />
		<tag k="ssr:stedsnr" v="986313" />
	</node>
	<node lat="68.61463138348083" lon="17.295937289053324" id="-96932">
		<tag k="name" v="Borri - Nordre Krokelva" />
		<tag k="name:no" v="Nordre Krokelva" />
		<tag k="name:se" v="Borri" />
		<tag k="place" v="farm" />
		<tag k="ssr:stedsnr" v="986315" />
	</node>
	<node lat="68.57066354637348" lon="16.739459010680804" id="-96933">
		<tag k="name" v="Vannlia" />
		<tag k="place" v="farm" />
		<tag k="ssr:stedsnr" v="986317" />
	</node>
	<node lat="68.67697777409363" lon="16.795863895274046" id="-96991">
		<tag k="name" v="Limberg" />
		<tag k="place" v="farm" />
		<tag k="ssr:stedsnr" v="20097" />
	</node>
	<node lat="68.56904310253077" lon="16.657590115707517" id="-96993">
		<tag k="name" v="Roassu - Trøsen" />
		<tag k="name:no" v="Trøsen" />
		<tag k="name:se" v="Roassu" />
		<tag k="place" v="farm" />
		<tag k="ssr:stedsnr" v="20135" />
	</node>
	<node lat="68.71282500357489" lon="17.042933339087554" id="-96995">
		<tag k="alt_name:no" v="Fornes" />
		<tag k="loc_name:se" v="Beahcenjárga" />
		<tag k="name" v="Forneset" />
		<tag k="name:no" v="Forneset" />
		<tag k="place" v="hamlet" />
		<tag k="ssr:stedsnr" v="20532" />
	</node>
	<node lat="68.51821389194227" lon="16.583291655988766" id="-96999">
		<tag k="name" v="Solvang" />
		<tag k="place" v="locality" />
		<tag k="ssr:stedsnr" v="20819" />
	</node>
	<node lat="68.56309166861237" lon="16.744327773112527" id="-97002">
		<tag k="name" v="Fløystad" />
		<tag k="place" v="farm" />
		<tag k="ssr:stedsnr" v="20833" />
	</node>
	<node lat="68.55862221892467" lon="16.75880000196671" id="-97005">
		<tag k="alt_name" v="Erikjorda, nordre" />
		<tag k="name" v="Nordre Erikjorda" />
		<tag k="place" v="farm" />
		<tag k="ssr:stedsnr" v="20845" />
	</node>
	<node lat="68.55476686548907" lon="16.370633056806465" id="-97006">
		<tag k="name" v="Kalvgjerdet" />
		<tag k="place" v="locality" />
		<tag k="ssr:stedsnr" v="20852" />
	</node>
	<node lat="68.55438333697161" lon="16.334252782216595" id="-97022">
		<tag k="name" v="Osen" />
		<tag k="place" v="farm" />
		<tag k="ssr:stedsnr" v="25064" />
	</node>
	<node lat="68.48591389164206" lon="16.15054445562578" id="-97033">
		<tag k="name" v="Nygård" />
		<tag k="place" v="farm" />
		<tag k="ssr:stedsnr" v="26065" />
	</node>
	<node lat="68.56724444230882" lon="16.623286114011425" id="-97075">
		<tag k="name" v="Bø" />
		<tag k="place" v="farm" />
		<tag k="ssr:stedsnr" v="57777" />
	</node>
	<node lat="68.4781166645303" lon="16.531883324143635" id="-97078">
		<tag k="name" v="Lasletta" />
		<tag k="place" v="farm" />
		<tag k="ssr:stedsnr" v="77443" />
	</node>
	<node lat="68.55748322295817" lon="16.087134260853418" id="-97086">
		<tag k="name" v="Fiskefjorden" />
		<tag k="place" v="farm" />
		<tag k="ssr:stedsnr" v="78889" />
	</node>
	<node lat="68.6145499729695" lon="16.583105504340573" id="-97090">
		<tag k="alt_name" v="Steinsland, s" />
		<tag k="name" v="Søre Steinsland" />
		<tag k="place" v="farm" />
		<tag k="ssr:stedsnr" v="80245" />
	</node>
	<node lat="68.53488092328853" lon="16.625907581599005" id="-97096">
		<tag k="name" v="Bekkelund" />
		<tag k="place" v="farm" />
		<tag k="ssr:stedsnr" v="80773" />
	</node>
	<node lat="68.62838651382282" lon="16.813684618050655" id="-97100">
		<tag k="alt_name:no" v="Kvitfors, nordre" />
		<tag k="loc_name:se" v="Vilgesbákti" />
		<tag k="name" v="Nordre Kvitfors" />
		<tag k="name:no" v="Nordre Kvitfors" />
		<tag k="place" v="farm" />
		<tag k="ssr:stedsnr" v="81001" />
	</node>
	<node lat="68.56869166316056" lon="16.351711120717784" id="-97101">
		<tag k="name" v="Birkeland" />
		<tag k="place" v="farm" />
		<tag k="ssr:stedsnr" v="81146" />
	</node>
	<node lat="68.5783972206388" lon="16.730088886445387" id="-97103">
		<tag k="name" v="Åslia" />
		<tag k="place" v="isolated_dwelling" />
		<tag k="ssr:stedsnr" v="81153" />
	</node>
	<node lat="68.58599585167156" lon="16.70278160481319" id="-97107">
		<tag k="name" v="Solbakken" />
		<tag k="place" v="farm" />
		<tag k="ssr:stedsnr" v="81179" />
	</node>
	<node lat="68.59399722511817" lon="16.58656111677774" id="-97111">
		<tag k="name" v="Birkeland" />
		<tag k="place" v="farm" />
		<tag k="ssr:stedsnr" v="81218" />
	</node>
	<node lat="68.51808333205418" lon="16.554691665097902" id="-97112">
		<tag k="name" v="Perheimen" />
		<tag k="place" v="locality" />
		<tag k="ssr:stedsnr" v="81814" />
	</node>
	<node lat="68.53723333714942" lon="16.774124988778635" id="-97115">
		<tag k="name" v="Skáidi - Broderstad" />
		<tag k="name:no" v="Broderstad" />
		<tag k="name:se" v="Skáidi" />
		<tag k="place" v="farm" />
		<tag k="ssr:stedsnr" v="81756" />
	</node>
	<node lat="68.55606825272699" lon="16.526274299149062" id="-97119">
		<tag k="alt_name" v="Fjelldal, nedre" />
		<tag k="fixme" v="multiple name tags, choose one and add the other to alt_name" />
		<tag k="name" v="Fjelldal;Nedre Fjelldal" />
		<tag k="place" v="quarter" />
		<tag k="ssr:stedsnr" v="81848" />
	</node>
	<node lat="68.54555277442392" lon="16.507949989425626" id="-97120">
		<tag k="name" v="Nygård" />
		<tag k="place" v="farm" />
		<tag k="ssr:stedsnr" v="81866" />
	</node>
	<node lat="68.63343055490704" lon="17.26424166168782" id="-97122">
		<tag k="name" v="Saltvatnet" />
		<tag k="place" v="farm" />
		<tag k="ssr:stedsnr" v="81913" />
	</node>
	<node lat="68.68413333251809" lon="17.111080547278178" id="-97125">
		<tag k="alt_name" v="Madsvik" />
		<tag k="name" v="Matsvik" />
		<tag k="place" v="farm" />
		<tag k="ssr:stedsnr" v="81973" />
	</node>
	<node lat="68.5409191416051" lon="16.633960145342893" id="-97142">
		<tag k="loc_name:se" v="Resánda" />
		<tag k="name" v="Breistrand" />
		<tag k="name:no" v="Breistrand" />
		<tag k="place" v="farm" />
		<tag k="ssr:stedsnr" v="86025" />
	</node>
	<node lat="68.5581666689286" lon="16.1053361153857" id="-97183">
		<tag k="name" v="Haugbakken" />
		<tag k="place" v="farm" />
		<tag k="ssr:stedsnr" v="101836" />
	</node>
	<node lat="68.55542500178147" lon="16.10919721559304" id="-97184">
		<tag k="name" v="Sjøvoll" />
		<tag k="place" v="farm" />
		<tag k="ssr:stedsnr" v="101844" />
	</node>
	<node lat="68.45038333031108" lon="16.12686388318185" id="-97200">
		<tag k="name" v="Kjærstad" />
		<tag k="place" v="farm" />
		<tag k="ssr:stedsnr" v="120669" />
	</node>
	<node lat="68.51123889331164" lon="16.194244441333815" id="-97210">
		<tag k="name" v="Høykråa" />
		<tag k="place" v="farm" />
		<tag k="ssr:stedsnr" v="139772" />
	</node>
	<node lat="68.67718575530382" lon="16.77764017534202" id="-97212">
		<tag k="alt_name" v="Sandstrand, øvre" />
		<tag k="name" v="Øvre Sandstrand" />
		<tag k="place" v="farm" />
		<tag k="ssr:stedsnr" v="141120" />
	</node>
	<node lat="68.5171861123829" lon="16.72389722019481" id="-97223">
		<tag k="alt_name" v="Svartvatnet, s" />
		<tag k="name" v="Søre Svartvatnet" />
		<tag k="place" v="farm" />
		<tag k="ssr:stedsnr" v="141796" />
	</node>
	<node lat="68.5569388930325" lon="16.764458328891862" id="-97224">
		<tag k="name" v="Fjelli" />
		<tag k="place" v="farm" />
		<tag k="ssr:stedsnr" v="141821" />
	</node>
	<node lat="68.55468049870356" lon="16.353236745365813" id="-97229">
		<tag k="name" v="Hov" />
		<tag k="place" v="farm" />
		<tag k="ssr:stedsnr" v="141835" />
	</node>
	<node lat="68.54438333080823" lon="16.502849998634236" id="-97232">
		<tag k="name" v="Ranheim" />
		<tag k="place" v="farm" />
		<tag k="ssr:stedsnr" v="141861" />
	</node>
	<node lat="68.52801111181577" lon="16.67454722217878" id="-97236">
		<tag k="name" v="Tennås" />
		<tag k="place" v="farm" />
		<tag k="ssr:stedsnr" v="141767" />
	</node>
	<node lat="68.69682222494397" lon="16.92844723342896" id="-97238">
		<tag k="name" v="Elvebakken" />
		<tag k="place" v="hamlet" />
		<tag k="ssr:stedsnr" v="141942" />
	</node>
	<node lat="68.68275555439389" lon="16.8191555565401" id="-97242">
		<tag k="name" v="Tovikstranda" />
		<tag k="place" v="farm" />
		<tag k="ssr:stedsnr" v="141976" />
	</node>
	<node lat="68.49613888472825" lon="16.510522228032467" id="-97249">
		<tag k="name" v="Brenna" />
		<tag k="place" v="farm" />
		<tag k="ssr:stedsnr" v="146098" />
	</node>
	<node lat="68.59645277767937" lon="16.17679166941893" id="-97258">
		<tag k="name" v="Per Henriksaheimen" />
		<tag k="place" v="locality" />
		<tag k="ssr:stedsnr" v="146522" />
	</node>
	<node lat="68.68134134723866" lon="17.120548482782755" id="-97282">
		<tag k="name" v="Roabadállu - Grov" />
		<tag k="name:no" v="Grov" />
		<tag k="name:se" v="Roabadállu" />
		<tag k="place" v="farm" />
		<tag k="ssr:stedsnr" v="150468" />
	</node>
	<node lat="68.55800555583139" lon="16.087480548489363" id="-97289">
		<tag k="name" v="Nordheim" />
		<tag k="place" v="farm" />
		<tag k="ssr:stedsnr" v="151675" />
	</node>
	<node lat="68.55354166791716" lon="16.11724167475045" id="-97290">
		<tag k="name" v="Solvang" />
		<tag k="place" v="farm" />
		<tag k="ssr:stedsnr" v="151676" />
	</node>
	<node lat="68.55680555189488" lon="16.085902785985528" id="-97293">
		<tag k="name" v="Granheim" />
		<tag k="place" v="farm" />
		<tag k="ssr:stedsnr" v="160916" />
	</node>
	<node lat="68.53522017944239" lon="16.166369019232437" id="-97294">
		<tag k="loc_name" v="Lia" />
		<tag k="name" v="Lien" />
		<tag k="place" v="farm" />
		<tag k="ssr:stedsnr" v="160919" />
	</node>
	<node lat="68.6975555525992" lon="17.042513894737287" id="-97312">
		<tag k="name" v="Fornes" />
		<tag k="place" v="farm" />
		<tag k="ssr:stedsnr" v="175732" />
	</node>
	<node lat="68.56296389203547" lon="16.62807777269536" id="-97320">
		<tag k="building" v="commercial" />
		<tag k="name" v="Neset Gaard" />
		<tag k="ssr:stedsnr" v="176784" />
	</node>
	<node lat="68.56701111332804" lon="16.751708324114738" id="-97329">
		<tag k="name" v="Fredly" />
		<tag k="place" v="farm" />
		<tag k="ssr:stedsnr" v="202135" />
	</node>
	<node lat="68.55973610830647" lon="16.53354999285681" id="-97340">
		<tag k="name" v="Vikstranda" />
		<tag k="place" v="farm" />
		<tag k="ssr:stedsnr" v="202833" />
	</node>
	<node lat="68.53656111558166" lon="16.585974996458464" id="-97345">
		<tag k="name" v="Bakkland" />
		<tag k="place" v="farm" />
		<tag k="ssr:stedsnr" v="202788" />
	</node>
	<node lat="68.52791434828143" lon="16.720497302424718" id="-97346">
		<tag k="name" v="Myrstad" />
		<tag k="place" v="farm" />
		<tag k="ssr:stedsnr" v="202792" />
	</node>
	<node lat="68.54601111107279" lon="16.629402779449997" id="-97348">
		<tag k="name" v="Borgestad" />
		<tag k="place" v="farm" />
		<tag k="ssr:stedsnr" v="202890" />
	</node>
	<node lat="68.56165000226127" lon="16.746766676860183" id="-97351">
		<tag k="name" v="Bjerkeli" />
		<tag k="place" v="farm" />
		<tag k="ssr:stedsnr" v="202849" />
	</node>
	<node lat="68.55233333068495" lon="16.51876667351474" id="-97352">
		<tag k="name" v="Nakken" />
		<tag k="place" v="farm" />
		<tag k="ssr:stedsnr" v="202852" />
	</node>
	<node lat="68.57110555874854" lon="17.012452778675044" id="-97378">
		<tag k="fixme" v="consider tourism=alpine_hut or tourism=chalet" />
		<tag k="name" v="Blåvatnhytta" />
		<tag k="ssr:stedsnr" v="208337" />
		<tag k="tourism" v="wilderness_hut" />
	</node>
	<node lat="68.5645225189951" lon="16.260930556499396" id="-97382">
		<tag k="alt_name" v="Kongsvik" />
		<tag k="name" v="Kongsvika" />
		<tag k="place" v="farm" />
		<tag k="ssr:stedsnr" v="209074" />
	</node>
	<node lat="68.56648055092008" lon="16.760016672977304" id="-97410">
		<tag k="name" v="Vuopmegeahči - Trøsemarka" />
		<tag k="name:no" v="Trøsemarka" />
		<tag k="name:se" v="Vuopmegeahči" />
		<tag k="old_name:no" v="Trøssemarka" />
		<tag k="place" v="quarter" />
		<tag k="ssr:stedsnr" v="262134" />
	</node>
	<node lat="68.53377499710903" lon="16.62712500687256" id="-97416">
		<tag k="name" v="Hamnevoll" />
		<tag k="place" v="farm" />
		<tag k="ssr:stedsnr" v="262800" />
	</node>
	<node lat="68.70687778050686" lon="16.95681389961537" id="-97417">
		<tag k="loc_name:se" v="Dihppaviika" />
		<tag k="name" v="Djupvika" />
		<tag k="name:no" v="Djupvika" />
		<tag k="place" v="hamlet" />
		<tag k="ssr:stedsnr" v="262966" />
	</node>
	<node lat="68.7127328283985" lon="16.97805307928147" id="-97418">
		<tag k="name" v="Mollvika" />
		<tag k="place" v="farm" />
		<tag k="ssr:stedsnr" v="262967" />
	</node>
	<node lat="68.567663893001" lon="16.421197224277545" id="-97420">
		<tag k="name" v="Hansemarka" />
		<tag k="place" v="farm" />
		<tag k="ssr:stedsnr" v="263167" />
	</node>
	<node lat="68.57435516016305" lon="16.725855527763464" id="-97421">
		<tag k="name" v="Sollia" />
		<tag k="place" v="farm" />
		<tag k="ssr:stedsnr" v="263175" />
	</node>
	<node lat="68.59098170802153" lon="16.709270311049043" id="-97424">
		<tag k="name" v="Čoardá - Einejord" />
		<tag k="name:no" v="Einejord" />
		<tag k="name:se" v="Čoardá" />
		<tag k="place" v="farm" />
		<tag k="ssr:stedsnr" v="263199" />
	</node>
	<node lat="68.54492612159991" lon="16.40128816417026" id="-97425">
		<tag k="loc_name:se" v="Stuohkik" />
		<tag k="name" v="Stokke" />
		<tag k="name:no" v="Stokke" />
		<tag k="place" v="farm" />
		<tag k="ssr:stedsnr" v="263869" />
	</node>
	<node lat="68.6832001153697" lon="16.833988592388618" id="-97431">
		<tag k="name" v="Stangvik" />
		<tag k="place" v="farm" />
		<tag k="ssr:stedsnr" v="263984" />
	</node>
	<node lat="68.49203055605231" lon="16.515105549091068" id="-97442">
		<tag k="loc_name:se" v="Meresbidja" />
		<tag k="name" v="Melsbø" />
		<tag k="name:no" v="Melsbø" />
		<tag k="place" v="quarter" />
		<tag k="ssr:stedsnr" v="268111" />
	</node>
	<node lat="68.51424166386965" lon="16.189091657501642" id="-97447">
		<tag k="name" v="Nymoen" />
		<tag k="place" v="farm" />
		<tag k="ssr:stedsnr" v="268422" />
	</node>
	<node lat="68.53321111388941" lon="16.166633332797993" id="-97471">
		<tag k="name" v="Torsheim" />
		<tag k="place" v="farm" />
		<tag k="ssr:stedsnr" v="282925" />
	</node>
	<node lat="68.55561666681976" lon="16.100480565569548" id="-97472">
		<tag k="name" v="Lillevold" />
		<tag k="place" v="farm" />
		<tag k="ssr:stedsnr" v="283825" />
	</node>
	<node lat="68.55586110891247" lon="16.682533323295168" id="-97481">
		<tag k="name" v="Låveheimen" />
		<tag k="place" v="locality" />
		<tag k="ssr:stedsnr" v="296150" />
	</node>
	<node lat="68.59775000435057" lon="17.26636665769209" id="-97485">
		<tag k="name" v="Furruheimen" />
		<tag k="place" v="farm" />
		<tag k="ssr:stedsnr" v="296246" />
	</node>
	<node lat="68.56607500029851" lon="16.339975002059667" id="-97513">
		<tag k="name" v="Nystad" />
		<tag k="place" v="farm" />
		<tag k="ssr:stedsnr" v="323142" />
	</node>
	<node lat="68.56512500248714" lon="16.288230550378046" id="-97514">
		<tag k="name" v="Nymo" />
		<tag k="place" v="farm" />
		<tag k="ssr:stedsnr" v="323144" />
	</node>
	<node lat="68.55933367946686" lon="16.30609363967805" id="-97515">
		<tag k="name" v="Ballstad" />
		<tag k="place" v="farm" />
		<tag k="ssr:stedsnr" v="323146" />
	</node>
	<node lat="68.68167778089511" lon="16.805875009054926" id="-97516">
		<tag k="name" v="Stormyr" />
		<tag k="place" v="farm" />
		<tag k="ssr:stedsnr" v="323128" />
	</node>
	<node lat="68.5677138915816" lon="16.26537501222958" id="-97517">
		<tag k="name" v="Steinbakken" />
		<tag k="place" v="farm" />
		<tag k="ssr:stedsnr" v="323149" />
	</node>
	<node lat="68.57555555934124" lon="16.60346667058682" id="-97520">
		<tag k="name" v="Kvellro" />
		<tag k="place" v="farm" />
		<tag k="ssr:stedsnr" v="323169" />
	</node>
	<node lat="68.60493055967969" lon="16.567602769018215" id="-97523">
		<tag k="name" v="Djuphamn" />
		<tag k="place" v="farm" />
		<tag k="ssr:stedsnr" v="323221" />
	</node>
	<node lat="68.60795690446336" lon="16.68376736197036" id="-97524">
		<tag k="alt_name:no" v="Skånland, l;Litle Skånland" />
		<tag k="name" v="Unna Skánik - Lille Skånland" />
		<tag k="name:no" v="Lille Skånland" />
		<tag k="name:se" v="Unna Skánik" />
		<tag k="place" v="farm" />
		<tag k="ssr:stedsnr" v="323224" />
	</node>
	<node lat="68.55055277419116" lon="16.744630555717176" id="-97530">
		<tag k="name" v="Brannhaugen" />
		<tag k="place" v="farm" />
		<tag k="ssr:stedsnr" v="323850" />
	</node>
	<node lat="68.52165833646892" lon="16.70173610171476" id="-97531">
		<tag k="name" v="Nordlund" />
		<tag k="place" v="farm" />
		<tag k="ssr:stedsnr" v="323790" />
	</node>
	<node lat="68.53575624365114" lon="16.586536460209462" id="-97533">
		<tag k="alt_name" v="Otteråa" />
		<tag k="name" v="Otterå" />
		<tag k="place" v="farm" />
		<tag k="ssr:stedsnr" v="323773" />
	</node>
	<node lat="68.50063889309763" lon="16.61892221937144" id="-97542">
		<tag k="name" v="Litleåsen" />
		<tag k="place" v="locality" />
		<tag k="ssr:stedsnr" v="323970" />
	</node>
	<node lat="68.42246388958152" lon="16.107280560752976" id="-97568">
		<tag k="name" v="Gammelgården" />
		<tag k="place" v="farm" />
		<tag k="ssr:stedsnr" v="330481" />
	</node>
	<node lat="68.55569166562861" lon="16.11099999453397" id="-97585">
		<tag k="name" v="Solbakken" />
		<tag k="place" v="farm" />
		<tag k="ssr:stedsnr" v="333657" />
	</node>
	<node lat="68.55604444355814" lon="16.108836112239565" id="-97588">
		<tag k="alt_name" v="Fiskefjord østre" />
		<tag k="name" v="Østre Fiskefjord" />
		<tag k="place" v="farm" />
		<tag k="ssr:stedsnr" v="344836" />
	</node>
	<node lat="68.44858888934922" lon="16.156197221017226" id="-97609">
		<tag k="name" v="Kjærstad" />
		<tag k="place" v="farm" />
		<tag k="ssr:stedsnr" v="363639" />
	</node>
	<node lat="68.450386114502" lon="16.124827788314313" id="-97614">
		<tag k="alt_name" v="Kjærstad" />
		<tag k="name" v="Kjerstad" />
		<tag k="place" v="quarter" />
		<tag k="ssr:stedsnr" v="380200" />
	</node>
	<node lat="68.3978818171792" lon="16.125456624094994" id="-97618">
		<tag k="loc_name:se" v="Vuoddenjárga" />
		<tag k="name" v="Odden" />
		<tag k="name:no" v="Odden" />
		<tag k="place" v="farm" />
		<tag k="ssr:stedsnr" v="381316" />
	</node>
	<node lat="68.52229722374034" lon="16.64682500033957" id="-97634">
		<tag k="name" v="Landsbakk" />
		<tag k="place" v="farm" />
		<tag k="ssr:stedsnr" v="383797" />
	</node>
	<node lat="68.637511601411" lon="16.805902421342413" id="-97639">
		<tag k="name" v="Marithaugen" />
		<tag k="place" v="farm" />
		<tag k="ssr:stedsnr" v="384016" />
	</node>
	<node lat="68.68319722339675" lon="16.80583889782419" id="-97642">
		<tag k="name" v="Myreng" />
		<tag k="place" v="farm" />
		<tag k="ssr:stedsnr" v="384134" />
	</node>
	<node lat="68.58334999660522" lon="16.70783888649913" id="-97643">
		<tag k="name" v="Holtåsen" />
		<tag k="place" v="farm" />
		<tag k="ssr:stedsnr" v="384190" />
	</node>
	<node lat="68.54421294336734" lon="16.76853495512826" id="-97647">
		<tag k="name" v="Snoalta - Kvitfors" />
		<tag k="name:no" v="Kvitfors" />
		<tag k="name:se" v="Snoalta" />
		<tag k="place" v="farm" />
		<tag k="ssr:stedsnr" v="384750" />
	</node>
	<node lat="68.55405833187017" lon="16.76311389004795" id="-97648">
		<tag k="name" v="Slettbakk" />
		<tag k="place" v="farm" />
		<tag k="ssr:stedsnr" v="384829" />
	</node>
	<node lat="68.5492903760211" lon="16.393253179980764" id="-97650">
		<tag k="loc_name:se" v="Hovllák" />
		<tag k="name" v="Hol" />
		<tag k="name:no" v="Hol" />
		<tag k="place" v="farm" />
		<tag k="ssr:stedsnr" v="384844" />
	</node>
	<node lat="68.51736666450621" lon="16.572949998171325" id="-97653">
		<tag k="name" v="Fjellheim" />
		<tag k="place" v="locality" />
		<tag k="ssr:stedsnr" v="384787" />
	</node>
	<node lat="68.51151110899575" lon="16.697958336829082" id="-97655">
		<tag k="name" v="Haugli" />
		<tag k="place" v="farm" />
		<tag k="ssr:stedsnr" v="384793" />
	</node>
	<node lat="68.66081743720976" lon="17.18081860215442" id="-97656">
		<tag k="alt_name" v="Årsandvik" />
		<tag k="name" v="Årsandvika" />
		<tag k="place" v="farm" />
		<tag k="ssr:stedsnr" v="384986" />
	</node>
	<node lat="68.64441388592769" lon="17.132872218466147" id="-97657">
		<tag k="alt_name" v="Marskar;Marrskardet" />
		<tag k="name" v="Marskaret" />
		<tag k="place" v="hamlet" />
		<tag k="ssr:stedsnr" v="384880" />
	</node>
	<node lat="68.553236115632" lon="16.506855554017516" id="-97662">
		<tag k="amenity" v="school" />
		<tag k="name" v="Norges brannskole" />
		<tag k="ssr:stedsnr" v="387839" />
	</node>
	<node lat="68.52458733201277" lon="16.451161322347783" id="-97673">
		<tag k="name" v="Sandnes" />
		<tag k="place" v="farm" />
		<tag k="ssr:stedsnr" v="389090" />
	</node>
	<node lat="68.56347500432834" lon="17.233061113677113" id="-97686">
		<tag k="fixme" v="consider tourism=alpine_hut or tourism=chalet" />
		<tag k="name" v="Skoddeberghytta" />
		<tag k="ssr:stedsnr" v="390328" />
		<tag k="tourism" v="wilderness_hut" />
	</node>
	<node lat="68.42428333754911" lon="16.100855557231764" id="-97688">
		<tag k="name" v="Tjeldnessjøen" />
		<tag k="place" v="locality" />
		<tag k="ssr:stedsnr" v="391289" />
	</node>
	<node lat="68.41611110851761" lon="16.24992778739006" id="-97705">
		<tag k="name" v="Elvebakken" />
		<tag k="place" v="farm" />
		<tag k="ssr:stedsnr" v="391434" />
	</node>
	<node lat="68.42222777886771" lon="16.283180544246544" id="-97720">
		<tag k="name" v="Russvika" />
		<tag k="place" v="isolated_dwelling" />
		<tag k="ssr:stedsnr" v="400972" />
	</node>
	<node lat="68.59843610694188" lon="16.68545000355238" id="-97721">
		<tag k="loc_name:no" v="Tjønna" />
		<tag k="name" v="Vuopmi" />
		<tag k="name:se" v="Vuopmi" />
		<tag k="place" v="hamlet" />
		<tag k="ssr:stedsnr" v="404167" />
	</node>
	<node lat="68.56201666999358" lon="16.673402771084255" id="-97723">
		<tag k="name" v="Litlheimen" />
		<tag k="place" v="locality" />
		<tag k="ssr:stedsnr" v="418185" />
	</node>
	<node lat="68.65636944286605" lon="17.228450001664093" id="-97730">
		<tag k="name" v="Elvebakken" />
		<tag k="place" v="farm" />
		<tag k="ssr:stedsnr" v="418267" />
	</node>
	<node lat="68.45120277719478" lon="16.126463885711015" id="-97747">
		<tag k="name" v="Kjærstad" />
		<tag k="place" v="farm" />
		<tag k="ssr:stedsnr" v="424668" />
	</node>
	<node lat="68.44904721914848" lon="16.12413889430592" id="-97754">
		<tag k="name" v="Kjærstad" />
		<tag k="place" v="farm" />
		<tag k="ssr:stedsnr" v="484676" />
	</node>
	<node lat="68.66052500323393" lon="16.83469165844795" id="-97759">
		<tag k="historic" v="shieling" />
		<tag k="name" v="Toviksetra" />
		<tag k="place" v="isolated_dwelling" />
		<tag k="ssr:stedsnr" v="660953" />
	</node>
	<node lat="68.42445108368094" lon="16.11476533956319" id="-97774">
		<tag k="name" v="Tofte" />
		<tag k="place" v="farm" />
		<tag k="ssr:stedsnr" v="502231" />
	</node>
	<node lat="68.53492221810222" lon="16.168216668360202" id="-97778">
		<tag k="name" v="Taraldsvika" />
		<tag k="place" v="farm" />
		<tag k="ssr:stedsnr" v="503711" />
	</node>
	<node lat="68.56495559082268" lon="16.307227424643106" id="-97781">
		<tag k="alt_name" v="Ulvik" />
		<tag k="name" v="Ulvika" />
		<tag k="place" v="farm" />
		<tag k="ssr:stedsnr" v="505136" />
	</node>
	<node lat="68.62214954721621" lon="16.76704420842461" id="-97790">
		<tag k="alt_name:no" v="Øyvatn" />
		<tag k="loc_name:se" v="Suolojávri" />
		<tag k="name" v="Øyvatnet" />
		<tag k="name:no" v="Øyvatnet" />
		<tag k="place" v="farm" />
		<tag k="ssr:stedsnr" v="505256" />
	</node>
	<node lat="68.52189722338764" lon="16.718672228575553" id="-97793">
		<tag k="alt_name" v="Svartvatnet, nordre" />
		<tag k="name" v="Nordre Svartvatnet" />
		<tag k="place" v="farm" />
		<tag k="ssr:stedsnr" v="505798" />
	</node>
	<node lat="68.54087222451157" lon="16.738475009454337" id="-97797">
		<tag k="name" v="Nordheim" />
		<tag k="place" v="farm" />
		<tag k="ssr:stedsnr" v="505766" />
	</node>
	<node lat="68.55229239627538" lon="16.50435183039586" id="-97799">
		<tag k="alt_name" v="Hundvollen" />
		<tag k="name" v="Hundevollen" />
		<tag k="place" v="locality" />
		<tag k="ssr:stedsnr" v="505841" />
	</node>
	<node lat="68.55191491981638" lon="16.33333538306639" id="-97800">
		<tag k="name" v="Steinsvika" />
		<tag k="place" v="farm" />
		<tag k="ssr:stedsnr" v="505846" />
	</node>
	<node lat="68.54461922294576" lon="16.300763008986742" id="-97801">
		<tag k="loc_name:se" v="Sáttik" />
		<tag k="name" v="Sand" />
		<tag k="name:no" v="Sand" />
		<tag k="place" v="farm" />
		<tag k="ssr:stedsnr" v="505849" />
	</node>
	<node lat="68.54215555116195" lon="16.4115444474561" id="-97802">
		<tag k="name" v="Gyltnes" />
		<tag k="place" v="farm" />
		<tag k="ssr:stedsnr" v="505857" />
	</node>
	<node lat="68.68621944405731" lon="16.91300556509251" id="-97814">
		<tag k="loc_name:se" v="Reanssuk" />
		<tag k="name" v="Renså" />
		<tag k="name:no" v="Renså" />
		<tag k="place" v="hamlet" />
		<tag k="ssr:stedsnr" v="505966" />
	</node>
	<node lat="68.56799722069972" lon="16.412536115306327" id="-97825">
		<tag k="name" v="Hårvik" />
		<tag k="place" v="farm" />
		<tag k="ssr:stedsnr" v="510691" />
	</node>
	<node lat="68.42273332998256" lon="16.101622229799858" id="-97832">
		<tag k="name" v="Buhågen" />
		<tag k="place" v="farm" />
		<tag k="ssr:stedsnr" v="512268" />
	</node>
	<node lat="68.55291944425937" lon="16.71725278156695" id="-97844">
		<tag k="loc_name:no" v="Husjorda" />
		<tag k="name" v="Husmmoroggi - Husjord" />
		<tag k="name:no" v="Husjord" />
		<tag k="name:se" v="Husmmoroggi" />
		<tag k="place" v="hamlet" />
		<tag k="ssr:stedsnr" v="512977" />
	</node>
	<node lat="68.53240833051046" lon="16.70508887915851" id="-97852">
		<tag k="name" v="Vatnjavárri - Boltås" />
		<tag k="name:no" v="Boltås" />
		<tag k="name:se" v="Vatnjavárri" />
		<tag k="place" v="hamlet" />
		<tag k="ssr:stedsnr" v="538001" />
	</node>
	<node lat="68.48276944699289" lon="16.531383326311182" id="-97876">
		<tag k="name" v="Oldervika" />
		<tag k="place" v="hamlet" />
		<tag k="ssr:stedsnr" v="562427" />
	</node>
	<node lat="68.49247499919161" lon="16.150649993332994" id="-97884">
		<tag k="name" v="Innvika" />
		<tag k="place" v="farm" />
		<tag k="ssr:stedsnr" v="563151" />
	</node>
	<node lat="68.59388332983002" lon="16.193869431953967" id="-97889">
		<tag k="name" v="Sætran" />
		<tag k="place" v="isolated_dwelling" />
		<tag k="ssr:stedsnr" v="563844" />
	</node>
	<node lat="68.56775394023501" lon="16.342524233717434" id="-97894">
		<tag k="alt_name" v="Sætre" />
		<tag k="name" v="Sæter" />
		<tag k="place" v="farm" />
		<tag k="ssr:stedsnr" v="565114" />
	</node>
	<node lat="68.53138888544996" lon="16.674863883222198" id="-97898">
		<tag k="name" v="Nordås" />
		<tag k="place" v="farm" />
		<tag k="ssr:stedsnr" v="565790" />
	</node>
	<node lat="68.6309300175898" lon="16.609677467138916" id="-97903">
		<tag k="name" v="Guhtanášši - Kvitnes" />
		<tag k="name:no" v="Kvitnes" />
		<tag k="name:se" v="Guhtanášši" />
		<tag k="place" v="farm" />
		<tag k="ssr:stedsnr" v="566031" />
	</node>
	<node lat="68.61973333618838" lon="16.65749444406818" id="-97905">
		<tag k="name" v="Reinjorda" />
		<tag k="place" v="locality" />
		<tag k="ssr:stedsnr" v="566262" />
	</node>
	<node lat="68.67015278184492" lon="16.980638889567906" id="-97914">
		<tag k="name" v="Krokmyrdal" />
		<tag k="place" v="farm" />
		<tag k="ssr:stedsnr" v="567000" />
	</node>
	<node lat="68.49549721848902" lon="16.16049444879026" id="-97937">
		<tag k="name" v="Nordheim" />
		<tag k="place" v="farm" />
		<tag k="ssr:stedsnr" v="572077" />
	</node>
	<node lat="68.68205825725835" lon="16.861253228617322" id="-97989">
		<tag k="alt_name" v="Tovik Ytre;Ytre Tovik" />
		<tag k="name" v="Ytre Tovika" />
		<tag k="place" v="farm" />
		<tag k="ssr:stedsnr" v="599880" />
	</node>
	<node lat="68.54447499974933" lon="16.193277778185585" id="-98004">
		<tag k="alt_name" v="Steinhaug" />
		<tag k="name" v="Stenhaug" />
		<tag k="place" v="farm" />
		<tag k="ssr:stedsnr" v="624746" />
	</node>
	<node lat="68.56123333437709" lon="16.303980553437427" id="-98005">
		<tag k="name" v="Skilnes" />
		<tag k="place" v="farm" />
		<tag k="ssr:stedsnr" v="626163" />
	</node>
	<node lat="68.56566111368159" lon="16.276711103560217" id="-98006">
		<tag k="name" v="Åshalsen" />
		<tag k="place" v="farm" />
		<tag k="ssr:stedsnr" v="626166" />
	</node>
	<node lat="68.57297777530073" lon="16.636883327607766" id="-98007">
		<tag k="name" v="Løsletta" />
		<tag k="place" v="farm" />
		<tag k="ssr:stedsnr" v="626170" />
	</node>
	<node lat="68.59953611493229" lon="16.795630559898843" id="-98009">
		<tag k="loc_name:se" v="Vilgesvárri" />
		<tag k="name" v="Blåfjell" />
		<tag k="name:no" v="Blåfjell" />
		<tag k="place" v="locality" />
		<tag k="ssr:stedsnr" v="626225" />
	</node>
	<node lat="68.67557500402383" lon="16.77510277395691" id="-98011">
		<tag k="name" v="Skogvoll" />
		<tag k="place" v="farm" />
		<tag k="ssr:stedsnr" v="626131" />
	</node>
	<node lat="68.53488055852367" lon="16.749297222737034" id="-98015">
		<tag k="name" v="Litlegård" />
		<tag k="place" v="farm" />
		<tag k="ssr:stedsnr" v="626782" />
	</node>
	<node lat="68.53430000384307" lon="16.69262500683531" id="-98016">
		<tag k="name" v="Boltåsen" />
		<tag k="place" v="farm" />
		<tag k="ssr:stedsnr" v="626784" />
	</node>
	<node lat="68.53693610815125" lon="16.681072224552555" id="-98017">
		<tag k="loc_name:se" v="Badjesiida" />
		<tag k="name" v="Vestbakk" />
		<tag k="name:no" v="Vestbakk" />
		<tag k="place" v="farm" />
		<tag k="ssr:stedsnr" v="626785" />
	</node>
	<node lat="68.52073333615942" lon="16.453274998351606" id="-98019">
		<tag k="name" v="Erindringen" />
		<tag k="place" v="farm" />
		<tag k="ssr:stedsnr" v="626818" />
	</node>
	<node lat="68.55687499664238" lon="16.731072219657" id="-98021">
		<tag k="alt_name:no" v="Husjord, nordre" />
		<tag k="name" v="Husmmaroggi - Nordre Husjord" />
		<tag k="name:no" v="Nordre Husjord" />
		<tag k="name:se" v="Husmmaroggi" />
		<tag k="old_name:no" v="Husjord" />
		<tag k="old_name:se" v="Husmaråggi" />
		<tag k="place" v="farm" />
		<tag k="ssr:stedsnr" v="626840" />
	</node>
	<node lat="68.5263222219646" lon="16.451263896922075" id="-98023">
		<tag k="name" v="Kongsbakk" />
		<tag k="place" v="farm" />
		<tag k="ssr:stedsnr" v="626793" />
	</node>
	<node lat="68.55139006146227" lon="16.766679972459546" id="-98026">
		<tag k="loc_name:se" v="Vilgesbákti" />
		<tag k="name" v="Roggi - Erikjorda" />
		<tag k="name:no" v="Erikjorda" />
		<tag k="name:se" v="Roggi" />
		<tag k="place" v="farm" />
		<tag k="ssr:stedsnr" v="626865" />
	</node>
	<node lat="68.67643888982137" lon="17.120791675498428" id="-98032">
		<tag k="name" v="Roabadállu - Grov" />
		<tag k="name:no" v="Grov" />
		<tag k="name:se" v="Roabadállu" />
		<tag k="old_name:no" v="Grovfjord" />
		<tag k="place" v="village" />
		<tag k="ssr:stedsnr" v="626974" />
	</node>
	<node lat="68.62041388738804" lon="16.586486099130603" id="-98034">
		<tag k="name" v="Fagerlia" />
		<tag k="place" v="farm" />
		<tag k="ssr:stedsnr" v="627274" />
	</node>
	<node lat="68.62277012118523" lon="16.810287616005926" id="-98035">
		<tag k="loc_name:se" v="Vilgesvárjávri;Sáttiidvuomjávri" />
		<tag k="name" v="Blåfjellvatnet" />
		<tag k="name:no" v="Blåfjellvatnet" />
		<tag k="place" v="farm" />
		<tag k="ssr:stedsnr" v="627278" />
	</node>
	<node lat="68.53811388905254" lon="16.420091673608823" id="-98036">
		<tag k="name" v="Solheim" />
		<tag k="place" v="farm" />
		<tag k="ssr:stedsnr" v="627780" />
	</node>
	<node lat="68.55297500311859" lon="16.331708328041632" id="-98041">
		<tag k="name" v="Skytterhågen" />
		<tag k="place" v="hamlet" />
		<tag k="ssr:stedsnr" v="631073" />
	</node>
	<node lat="68.55338888455219" lon="16.550497221614243" id="-98042">
		<tag k="name" v="Utkiken" />
		<tag k="place" v="farm" />
		<tag k="ssr:stedsnr" v="631127" />
	</node>
	<node lat="68.56609999676388" lon="16.620922216060396" id="-98118">
		<tag k="name" v="Bø" />
		<tag k="place" v="farm" />
		<tag k="ssr:stedsnr" v="724780" />
	</node>
	<node lat="68.6642909707438" lon="16.720605069234548" id="-98130">
		<tag k="name" v="Lavika" />
		<tag k="place" v="farm" />
		<tag k="ssr:stedsnr" v="748092" />
	</node>
	<node lat="68.67954767018445" lon="16.792814437028962" id="-98131">
		<tag k="alt_name" v="Sandstrand, nedre" />
		<tag k="name" v="Nedre Sandstrand" />
		<tag k="place" v="farm" />
		<tag k="ssr:stedsnr" v="748115" />
	</node>
	<node lat="68.5166473329531" lon="16.697413157173763" id="-98135">
		<tag k="alt_name" v="Steinjord" />
		<tag k="name" v="Steinjorda" />
		<tag k="place" v="farm" />
		<tag k="ssr:stedsnr" v="748821" />
	</node>
	<node lat="68.56143888446876" lon="16.654552787492463" id="-98137">
		<tag k="name" v="Sørheim" />
		<tag k="place" v="farm" />
		<tag k="ssr:stedsnr" v="748835" />
	</node>
	<node lat="68.5643749991076" lon="16.6257527779659" id="-98138">
		<tag k="name" v="Nes" />
		<tag k="place" v="farm" />
		<tag k="ssr:stedsnr" v="748836" />
	</node>
	<node lat="68.56424878090913" lon="16.764771011249525" id="-98139">
		<tag k="name" v="Fjelldal" />
		<tag k="place" v="farm" />
		<tag k="ssr:stedsnr" v="748840" />
	</node>
	<node lat="68.54010277741745" lon="16.769027772027844" id="-98140">
		<tag k="name" v="Nord-Kvitfors" />
		<tag k="place" v="farm" />
		<tag k="ssr:stedsnr" v="748763" />
	</node>
	<node lat="68.52088055903717" lon="16.673927786461633" id="-98146">
		<tag k="name" v="Tennåsen" />
		<tag k="place" v="farm" />
		<tag k="ssr:stedsnr" v="748802" />
	</node>
	<node lat="68.6598044044404" lon="17.211619954449088" id="-98147">
		<tag k="alt_name" v="Helleren" />
		<tag k="name" v="Hellaren" />
		<tag k="place" v="farm" />
		<tag k="ssr:stedsnr" v="748986" />
	</node>
	<node lat="68.67088333395368" lon="17.106636120462223" id="-98151">
		<tag k="alt_name" v="Miklevoll;Miklevollen" />
		<tag k="name" v="Myklevoll" />
		<tag k="place" v="hamlet" />
		<tag k="ssr:stedsnr" v="749000" />
	</node>
	<node lat="68.55649999901465" lon="16.646855550766247" id="-98152">
		<tag k="name" v="Buvika" />
		<tag k="place" v="farm" />
		<tag k="ssr:stedsnr" v="748860" />
	</node>
	<node lat="68.50098888898002" lon="16.486511112329712" id="-98155">
		<tag k="name" v="Ramsund" />
		<tag k="place" v="quarter" />
		<tag k="ssr:stedsnr" v="748948" />
	</node>
	<node lat="68.49317222312426" lon="16.518366661264732" id="-98164">
		<tag k="amenity" v="school" />
		<tag k="name" v="Ramsund skole" />
		<tag k="ssr:stedsnr" v="753076" />
	</node>
	<node lat="68.44901779857938" lon="16.448470428944145" id="-98223">
		<tag k="alt_name" v="Breidvika" />
		<tag k="name" v="Breivika" />
		<tag k="place" v="farm" />
		<tag k="ssr:stedsnr" v="806429" />
	</node>
	<node lat="68.57142382145061" lon="16.735800817277127" id="-98232">
		<tag k="name" v="Sálljadievvá - Vatnlia" />
		<tag k="name:no" v="Vatnlia" />
		<tag k="name:se" v="Sálljadievvá" />
		<tag k="place" v="hamlet" />
		<tag k="ssr:stedsnr" v="808113" />
	</node>
	<node lat="68.5671716173465" lon="16.618774485176857" id="-98234">
		<tag k="loc_name:se" v="Bijak" />
		<tag k="name" v="Bø" />
		<tag k="name:no" v="Bø" />
		<tag k="place" v="farm" />
		<tag k="ssr:stedsnr" v="808122" />
	</node>
	<node lat="68.6170452746626" lon="16.584627105107206" id="-98235">
		<tag k="alt_name" v="Steinsland, nordre;Stensland nordre;Steinsland" />
		<tag k="name" v="Nordre Steinsland" />
		<tag k="place" v="farm" />
		<tag k="ssr:stedsnr" v="808219" />
	</node>
	<node lat="68.59786111228595" lon="16.68164999202795" id="-98247">
		<tag k="name" v="Fjellstad" />
		<tag k="place" v="farm" />
		<tag k="ssr:stedsnr" v="809197" />
	</node>
	<node lat="68.63680729809667" lon="17.225771112203685" id="-98257">
		<tag k="alt_name:no" v="Kåvan" />
		<tag k="name" v="Gurra - Kovan" />
		<tag k="name:no" v="Kovan" />
		<tag k="name:se" v="Gurra" />
		<tag k="place" v="hamlet" />
		<tag k="ssr:stedsnr" v="809915" />
	</node>
	<node lat="68.53330000059307" lon="16.622677774647638" id="-98265">
		<tag k="name" v="Lavangen" />
		<tag k="place" v="quarter" />
		<tag k="ssr:stedsnr" v="814014" />
	</node>
	<node lat="68.48981666496842" lon="16.150955561100883" id="-98274">
		<tag k="name" v="Lunden" />
		<tag k="place" v="farm" />
		<tag k="ssr:stedsnr" v="815015" />
	</node>
	<node lat="68.54008055928927" lon="16.63139999547661" id="-98277">
		<tag k="name" v="Breistrand" />
		<tag k="place" v="farm" />
		<tag k="ssr:stedsnr" v="816188" />
	</node>
	<node lat="68.56612499731283" lon="16.25367777308779" id="-98305">
		<tag k="name" v="Kongsvika" />
		<tag k="place" v="quarter" />
		<tag k="ssr:stedsnr" v="837113" />
	</node>
	<node lat="68.54286111228339" lon="16.628783340404762" id="-98306">
		<tag k="name" v="Seljevoll" />
		<tag k="place" v="farm" />
		<tag k="ssr:stedsnr" v="843072" />
	</node>
	<node lat="68.56296389203547" lon="16.62807777269536" id="-98322">
		<tag k="name" v="Neset" />
		<tag k="place" v="farm" />
		<tag k="ssr:stedsnr" v="846956" />
	</node>
	<node lat="68.56563333406257" lon="16.633077785461943" id="-98323">
		<tag k="name" v="Sjøbu-Hamartun" />
		<tag k="place" v="farm" />
		<tag k="ssr:stedsnr" v="846960" />
	</node>
	<node lat="68.59854444022359" lon="16.567247222655922" id="-98336">
		<tag k="alt_name:no" v="Litle Skånland;Skånland, l" />
		<tag k="loc_name:se" v="Uhca Skánik" />
		<tag k="name" v="Lille Skånland" />
		<tag k="name:no" v="Lille Skånland" />
		<tag k="place" v="quarter" />
		<tag k="ssr:stedsnr" v="869223" />
	</node>
	<node lat="68.56396110652756" lon="16.657311120790055" id="-98341">
		<tag k="fixme" v="multiple name tags, choose one and add the other to alt_name" />
		<tag k="name" v="Heimet;Trøsheim" />
		<tag k="place" v="farm" />
		<tag k="ssr:stedsnr" v="869846" />
	</node>
	<node lat="68.58037500341392" lon="16.71311111456526" id="-98345">
		<tag k="name" v="Roasurápma - Reinåsen" />
		<tag k="name:no" v="Reinåsen" />
		<tag k="name:se" v="Roasurápma" />
		<tag k="place" v="farm" />
		<tag k="ssr:stedsnr" v="870173" />
	</node>
	<node lat="68.57550942545559" lon="16.644371430932104" id="-98347">
		<tag k="amenity" v="school" />
		<tag k="name" v="Elvemo" />
		<tag k="ssr:stedsnr" v="870181" />
	</node>
	<node lat="68.55952499736091" lon="16.755802783210395" id="-98350">
		<tag k="name" v="Dalbakk" />
		<tag k="place" v="farm" />
		<tag k="ssr:stedsnr" v="869857" />
	</node>
	<node lat="68.56935555270461" lon="16.399502780714048" id="-98355">
		<tag k="name" v="Bakkely" />
		<tag k="place" v="farm" />
		<tag k="ssr:stedsnr" v="870165" />
	</node>
	<node lat="68.56945277669126" lon="16.369919447269133" id="-98356">
		<tag k="name" v="Kleiva" />
		<tag k="place" v="farm" />
		<tag k="ssr:stedsnr" v="870166" />
	</node>
	<node lat="68.54841388684936" lon="16.72353889395054" id="-98359">
		<tag k="alt_name" v="Husjord, s" />
		<tag k="name" v="Søre Husjord" />
		<tag k="place" v="farm" />
		<tag k="ssr:stedsnr" v="870845" />
	</node>
	<node lat="68.54682500358119" lon="16.513036107362176" id="-98360">
		<tag k="name" v="Fagerlund" />
		<tag k="place" v="farm" />
		<tag k="ssr:stedsnr" v="870861" />
	</node>
	<node lat="68.67321944707744" lon="17.120422215573456" id="-98365">
		<tag k="name" v="Jensvoll" />
		<tag k="place" v="farm" />
		<tag k="ssr:stedsnr" v="870995" />
	</node>
	<node lat="68.39730000133503" lon="16.125544443508815" id="-98401">
		<tag k="name" v="Steinåkerhøgda" />
		<tag k="place" v="farm" />
		<tag k="ssr:stedsnr" v="876516" />
	</node>
	<node lat="68.66719444499012" lon="16.730786113483465" id="-98426">
		<tag k="alt_name" v="Fornesvik" />
		<tag k="name" v="Fornesvika" />
		<tag k="place" v="farm" />
		<tag k="ssr:stedsnr" v="930091" />
	</node>
	<node lat="68.6466027797705" lon="16.81016388666106" id="-98429">
		<tag k="name" v="Elvelund" />
		<tag k="place" v="farm" />
		<tag k="ssr:stedsnr" v="930033" />
	</node>
	<node lat="68.56193611039296" lon="16.266377769263634" id="-98433">
		<tag k="name" v="Jamthusan" />
		<tag k="place" v="farm" />
		<tag k="ssr:stedsnr" v="930130" />
	</node>
	<node lat="68.56883610947091" lon="16.75833887611213" id="-98434">
		<tag k="name" v="Solheim" />
		<tag k="place" v="farm" />
		<tag k="ssr:stedsnr" v="930136" />
	</node>
	<node lat="68.57057222496395" lon="16.615944448952394" id="-98435">
		<tag k="alt_name" v="Lermo" />
		<tag k="name" v="Leirmoen" />
		<tag k="place" v="farm" />
		<tag k="ssr:stedsnr" v="930142" />
	</node>
	<node lat="68.61223333120205" lon="16.57297222611586" id="-98440">
		<tag k="name" v="Stauran" />
		<tag k="place" v="isolated_dwelling" />
		<tag k="ssr:stedsnr" v="930245" />
	</node>
	<node lat="68.55079166805093" lon="16.632252782008102" id="-98444">
		<tag k="name" v="Nyheim" />
		<tag k="place" v="farm" />
		<tag k="ssr:stedsnr" v="930862" />
	</node>
	<node lat="68.54447500012637" lon="16.39312498887667" id="-98446">
		<tag k="name" v="Øygården" />
		<tag k="place" v="farm" />
		<tag k="ssr:stedsnr" v="930867" />
	</node>
	<node lat="68.71447499599351" lon="16.991508336419777" id="-98450">
		<tag k="alt_name" v="Svellshamn" />
		<tag k="name" v="Svelshamn" />
		<tag k="place" v="hamlet" />
		<tag k="ssr:stedsnr" v="930966" />
	</node>
	<node lat="68.51668333082768" lon="16.636852771329576" id="-98453">
		<tag k="name" v="Dalan" />
		<tag k="place" v="locality" />
		<tag k="ssr:stedsnr" v="930823" />
	</node>
	<node lat="68.53935833506378" lon="16.738936106997972" id="-98462">
		<tag k="name" v="Åsheim" />
		<tag k="place" v="farm" />
		<tag k="ssr:stedsnr" v="931788" />
	</node>
	<node lat="68.55258055778779" lon="16.32332221203796" id="-98474">
		<tag k="name" v="Kristenheimen" />
		<tag k="place" v="farm" />
		<tag k="ssr:stedsnr" v="935065" />
	</node>
	<node lat="68.49518610997892" lon="16.15327221470026" id="-98481">
		<tag k="name" v="Kongsvold" />
		<tag k="place" v="farm" />
		<tag k="ssr:stedsnr" v="936010" />
	</node>
	<node lat="68.6765918409301" lon="16.774261848940014" id="-98545">
		<tag k="name" v="Ystebø" />
		<tag k="place" v="farm" />
		<tag k="ssr:stedsnr" v="974121" />
	</node>
	<node lat="68.6317074197041" lon="16.608351661812783" id="-98549">
		<tag k="name" v="Guhtanášši - Kvitnes" />
		<tag k="name:no" v="Kvitnes" />
		<tag k="name:se" v="Guhtanášši" />
		<tag k="place" v="hamlet" />
		<tag k="ssr:stedsnr" v="986152" />
	</node>
	<node lat="68.58120904098654" lon="16.580430370917632" id="-98551">
		<tag k="name" v="Stuora Skánik - Store Skånland" />
		<tag k="name:no" v="Store Skånland" />
		<tag k="name:se" v="Stuora Skánik" />
		<tag k="place" v="farm" />
		<tag k="ssr:stedsnr" v="986232" />
	</node>
	<node lat="68.59334229674805" lon="16.68830848624673" id="-98559">
		<tag k="name" v="Søndre Tjønna" />
		<tag k="old_name" v="Kjønna søndre" />
		<tag k="place" v="farm" />
		<tag k="ssr:stedsnr" v="986445" />
	</node>
	<node lat="69.65483861708206" lon="18.954055597917613" id="-98709">
		<tag k="amenity" v="school" />
		<tag k="name" v="Ishavsbyen videregående skole" />
		<tag k="ssr:stedsnr" v="1075695" />
	</node>
	<node lat="68.45087674141502" lon="16.519316293305554" id="-98712">
		<tag k="loc_name:se" v="Rápmageahči" />
		<tag k="name" v="Ramnes" />
		<tag k="name:no" v="Ramnes" />
		<tag k="place" v="farm" />
		<tag k="ssr:stedsnr" v="1076427" />
	</node>
	<node lat="68.46698743071389" lon="16.510464359898847" id="-98713">
		<tag k="name" v="Vargeneset" />
		<tag k="place" v="locality" />
		<tag k="ssr:stedsnr" v="1077247" />
	</node>
	<node lat="68.45329502341706" lon="16.520348530979025" id="-98714">
		<tag k="name" v="Myrset" />
		<tag k="place" v="locality" />
		<tag k="ssr:stedsnr" v="1077249" />
	</node>
	<node lat="68.67929668746403" lon="16.870522371360874" id="-98715">
		<tag k="alt_name" v="Indre Tovik" />
		<tag k="name" v="Indre Tovika" />
		<tag k="place" v="farm" />
		<tag k="ssr:stedsnr" v="1077175" />
	</node>
	<node lat="68.55538992197735" lon="16.53438805721994" id="-98716">
		<tag k="name" v="Fjelldal" />
		<tag k="place" v="farm" />
		<tag k="ssr:stedsnr" v="1077204" />
	</node>
	<node lat="68.49413047714704" lon="16.52492325434165" id="-98717">
		<tag k="loc_name:se" v="Meresbidja" />
		<tag k="name" v="Melsbø" />
		<tag k="name:no" v="Melsbø" />
		<tag k="place" v="farm" />
		<tag k="ssr:stedsnr" v="1077205" />
	</node>
	<node lat="68.51627856810305" lon="15.970642008167527" id="-98719">
		<tag k="name" v="Svartvatnet statsgrunn - Stuorajávrri stáhtaeana" />
		<tag k="name:no" v="Svartvatnet statsgrunn" />
		<tag k="name:se" v="Stuorajávrri stáhtaeana" />
		<tag k="place" v="locality" />
		<tag k="ssr:stedsnr" v="1080502" />
	</node>
	<node lat="68.54128248084807" lon="16.631631558356666" id="-98740">
		<tag k="loc_name:se" v="Resánda" />
		<tag k="name" v="Breistrand" />
		<tag k="name:no" v="Breistrand" />
		<tag k="place" v="quarter" />
		<tag k="ssr:stedsnr" v="1083671" />
	</node>
	<node lat="68.60884309548175" lon="16.69498070809761" id="-98793">
		<tag k="loc_name:se" v="Hoanttas" />
		<tag k="name" v="Nipen" />
		<tag k="name:no" v="Nipen" />
		<tag k="place" v="farm" />
		<tag k="ssr:stedsnr" v="1085092" />
	</node>
	<node lat="68.60836273530373" lon="16.69238041238845" id="-98794">
		<tag k="loc_name:se" v="Vuollegoahti" />
		<tag k="name" v="Nygård" />
		<tag k="name:no" v="Nygård" />
		<tag k="place" v="farm" />
		<tag k="ssr:stedsnr" v="1085093" />
	</node>
	<node lat="68.71183140023956" lon="17.04528929534612" id="-98839">
		<tag k="loc_name:se" v="Beahcenjárga" />
		<tag k="name" v="Fornes" />
		<tag k="name:no" v="Fornes" />
		<tag k="place" v="farm" />
		<tag k="ssr:stedsnr" v="1085457" />
	</node>
	<node lat="68.70657203729715" lon="16.957559804021468" id="-98840">
		<tag k="loc_name:se" v="Dihppaviika" />
		<tag k="name" v="Djupvika" />
		<tag k="name:no" v="Djupvika" />
		<tag k="place" v="farm" />
		<tag k="ssr:stedsnr" v="1085458" />
	</node>
	<node lat="68.68486618166376" lon="16.913856750101385" id="-98841">
		<tag k="loc_name:se" v="Reanssuk" />
		<tag k="name" v="Renså" />
		<tag k="name:no" v="Renså" />
		<tag k="place" v="farm" />
		<tag k="ssr:stedsnr" v="1085459" />
	</node>
	<node lat="68.68035092691797" lon="16.867025318838383" id="-98842">
		<tag k="loc_name:se" v="Tuviika" />
		<tag k="name" v="Tovika" />
		<tag k="name:no" v="Tovika" />
		<tag k="place" v="farm" />
		<tag k="ssr:stedsnr" v="1085460" />
	</node>
	<node lat="68.59368780974678" lon="16.688619493064127" id="-98865">
		<tag k="name" v="Søndre Tjønna" />
		<tag k="old_name" v="Kjønna søndre" />
		<tag k="place" v="farm" />
		<tag k="ssr:stedsnr" v="1085643" />
	</node>
</osm>
