<?xml version="1.0" encoding="UTF-8"?>
<osm generator="osmapis" version="0.6">
	<node id="-845147" lat="68.679647219" lon="16.8768916548">
		<tag k="amenity" v="place_of_worship" />
		<tag k="denomination" v="lutheran" />
		<tag k="name" v="Tovik" />
		<tag k="religion" v="christian" />
		<tag k="ssr:stedsnr" v="81999" />
	</node>
	<node id="-846010" lat="68.5541611128" lon="16.4435972204">
		<tag k="alt_name" v="Holsflua flytebåke" />
		<tag k="name" v="Holsflua lysbåke" />
		<tag k="place" v="locality" />
		<tag k="ssr:stedsnr" v="631124" />
	</node>
	<node id="-845145" lat="68.6749777775" lon="17.1244861159">
		<tag k="amenity" v="place_of_worship" />
		<tag k="denomination" v="lutheran" />
		<tag k="name" v="Astafjord" />
		<tag k="religion" v="christian" />
		<tag k="ssr:stedsnr" v="81991" />
	</node>
	<node id="-843885" lat="68.6415388915" lon="16.6144638939">
		<tag k="name" v="Geithagan" />
		<tag k="place" v="locality" />
		<tag k="ssr:stedsnr" v="151208" />
	</node>
	<node id="-846347" lat="68.5708722258" lon="16.6568888862">
		<tag k="amenity" v="community_centre" />
		<tag k="name" v="Soltun" />
		<tag k="ssr:stedsnr" v="869147" />
	</node>
	<node id="-845990" lat="68.5471999983" lon="16.3988805519">
		<tag k="amenity" v="place_of_worship" />
		<tag k="denomination" v="lutheran" />
		<tag k="name" v="Tjeldsund" />
		<tag k="religion" v="christian" />
		<tag k="ssr:stedsnr" v="626872" />
	</node>
	<node id="-845124" lat="68.5823555577" lon="16.5735722313">
		<tag k="amenity" v="place_of_worship" />
		<tag k="denomination" v="lutheran" />
		<tag k="name" v="Skånland" />
		<tag k="religion" v="christian" />
		<tag k="ssr:stedsnr" v="81155" />
	</node>
	<node id="-844134" lat="68.4188833345" lon="16.2918583425">
		<tag k="name" v="Media Thule" />
		<tag k="ssr:stedsnr" v="330618" />
		<tag k="tourism" v="attraction" />
	</node>
	<node id="-845442" lat="68.4899805593" lon="16.5222055486">
		<tag k="amenity" v="place_of_worship" />
		<tag k="denomination" v="lutheran" />
		<tag k="name" v="Ramsund kapell" />
		<tag k="religion" v="christian" />
		<tag k="ssr:stedsnr" v="207098" />
	</node>
</osm>
