<?xml version="1.0" encoding="UTF-8"?>
<<<<<<< HEAD
<osm version="0.6" generator="osmapis">
	<node lat="68.44854166715028" lon="16.434044450815623" id="-36881">
		<tag k="name" v="Stormyra" />
		<tag k="name:no" v="Stormyra" />
		<tag k="natural" v="wetland" />
		<tag k="ssr:stedsnr" v="27675" />
	</node>
	<node lat="68.58575555951803" lon="16.716955553130987" id="-36890">
		<tag k="name" v="Stormyra" />
		<tag k="name:no" v="Stormyra" />
=======
<osm generator="osmapis" version="0.6">
	<node id="-854016" lat="68.6189361095" lon="17.2057194349">
		<tag k="historic" v="shieling" />
		<tag k="name" v="Nova - Várevuolli" />
		<tag k="name:no" v="Nova" />
		<tag k="name:se" v="Várevuolli" />
		<tag k="place" v="locality" />
		<tag k="ssr:stedsnr" v="383906" />
	</node>
	<node id="-854527" lat="68.5374527812" lon="16.4152611205">
		<tag k="name" v="Limyra" />
		<tag k="natural" v="wetland" />
		<tag k="ssr:stedsnr" v="875725" />
	</node>
	<node id="-852474" lat="68.5980444411" lon="16.5872416608">
		<tag k="name" v="Øverlandsmyra" />
		<tag k="natural" v="wetland" />
		<tag k="ssr:stedsnr" v="478821" />
	</node>
	<node id="-854521" lat="68.5402472247" lon="16.1765500072">
		<tag k="name" v="Dalteigen" />
		<tag k="place" v="locality" />
		<tag k="ssr:stedsnr" v="767925" />
	</node>
	<node id="-852982" lat="68.4328722217" lon="16.3177083427">
		<tag k="name" v="Pissmyran" />
		<tag k="natural" v="wetland" />
		<tag k="ssr:stedsnr" v="877575" />
	</node>
	<node id="-852468" lat="68.6167194418" lon="17.1918083319">
		<tag k="name" v="Novasteinen" />
		<tag k="natural" v="stone" />
		<tag k="ssr:stedsnr" v="478634" />
	</node>
	<node id="-854083" lat="68.4685416636" lon="16.46412501">
		<tag k="name" v="Kvitberghagen" />
		<tag k="natural" v="wetland" />
		<tag k="ssr:stedsnr" v="391390" />
	</node>
	<node id="-853074" lat="68.5063277807" lon="16.524758343">
		<tag k="name" v="Rambømyran" />
		<tag k="natural" v="wetland" />
		<tag k="ssr:stedsnr" v="748955" />
	</node>
	<node id="-852967" lat="68.4380083307" lon="16.3587944323">
		<tag k="name" v="Vassbotnmyran" />
		<tag k="natural" v="wetland" />
		<tag k="ssr:stedsnr" v="876750" />
	</node>
	<node id="-854501" lat="68.421552775" lon="16.1157888818">
		<tag k="name" v="Kvitekra" />
		<tag k="place" v="locality" />
		<tag k="ssr:stedsnr" v="755333" />
	</node>
	<node id="-854500" lat="68.421733333" lon="16.119899999">
		<tag k="name" v="Småmølnene" />
		<tag k="place" v="locality" />
		<tag k="ssr:stedsnr" v="755331" />
	</node>
	<node id="-852962" lat="68.4481527812" lon="16.4495861184">
		<tag k="name" v="Stuflota" />
		<tag k="place" v="locality" />
		<tag k="ssr:stedsnr" v="876660" />
	</node>
	<node id="-852961" lat="68.4221861156" lon="16.2948388814">
		<tag k="name" v="Småskogan" />
		<tag k="place" v="locality" />
		<tag k="ssr:stedsnr" v="876576" />
	</node>
	<node id="-852508" lat="68.5996333334" lon="17.4198916528">
		<tag k="name" v="Šleađđujoavva" />
		<tag k="name:se" v="Šleađđujoavva" />
		<tag k="natural" v="scree" />
		<tag k="ssr:stedsnr" v="492219" />
	</node>
	<node id="-852446" lat="68.4712555575" lon="16.5083527735">
		<tag k="name" v="Trondhjemsskogen" />
		<tag k="place" v="locality" />
		<tag k="ssr:stedsnr" v="270370" />
	</node>
	<node id="-852957" lat="68.4242222248" lon="16.165197225">
		<tag k="name" v="Galtmyra" />
		<tag k="natural" v="wetland" />
		<tag k="ssr:stedsnr" v="876459" />
	</node>
	<node id="-853980" lat="68.6613027784" lon="16.7990110989">
		<tag k="name" v="Hestmyra" />
		<tag k="natural" v="wetland" />
		<tag k="ssr:stedsnr" v="357968" />
	</node>
	<node id="-852047" lat="68.4950444411" lon="16.5223916638">
		<tag k="name" v="Skjettentjønnmyra" />
		<tag k="natural" v="wetland" />
		<tag k="ssr:stedsnr" v="25103" />
	</node>
	<node id="-853975" lat="68.5965055557" lon="16.6604722194">
		<tag k="name" v="Lennemyra" />
		<tag k="natural" v="wetland" />
		<tag k="ssr:stedsnr" v="357831" />
	</node>
	<node id="-852947" lat="68.4732777748" lon="16.4727999972">
		<tag k="name" v="Storura" />
		<tag k="natural" v="scree" />
		<tag k="ssr:stedsnr" v="876353" />
	</node>
	<node id="-853970" lat="68.6895472185" lon="16.9314944464">
		<tag k="name" v="Leverjomyra" />
		<tag k="natural" v="wetland" />
		<tag k="ssr:stedsnr" v="357544" />
	</node>
	<node id="-852643" lat="68.639374999" lon="17.1487583268">
		<tag k="name" v="Storhaugmyra" />
		<tag k="natural" v="wetland" />
		<tag k="ssr:stedsnr" v="418713" />
	</node>
	<node id="-852431" lat="68.5002805603" lon="16.5061027684">
		<tag k="landuse" v="meadow" />
		<tag k="name" v="Andersenga" />
		<tag k="ssr:stedsnr" v="268115" />
	</node>
	<node id="-853956" lat="68.5652444399" lon="16.1229000063">
		<tag k="name" v="Norddalsteigen" />
		<tag k="place" v="locality" />
		<tag k="ssr:stedsnr" v="344833" />
	</node>
	<node id="-852930" lat="68.5464777792" lon="16.3711583399">
		<tag k="name" v="Mariholmyra" />
>>>>>>> e1d4bc35ff8a6074a6f2e91616a996b547c36f15
		<tag k="natural" v="wetland" />
		<tag k="ssr:stedsnr" v="235225" />
	</node>
<<<<<<< HEAD
	<node lat="68.68322777656887" lon="16.981352788250447" id="-36893">
		<tag k="name" v="Mellafuruholtet" />
		<tag k="name:no" v="Mellafuruholtet" />
=======
	<node id="-853949" lat="68.4269611103" lon="16.3467277716">
		<tag k="name" v="Klevollen" />
>>>>>>> e1d4bc35ff8a6074a6f2e91616a996b547c36f15
		<tag k="place" v="locality" />
		<tag k="ssr:stedsnr" v="235667" />
	</node>
<<<<<<< HEAD
	<node lat="68.66873332938441" lon="16.774350002334455" id="-36897">
		<tag k="name" v="Bergmyra" />
		<tag k="name:no" v="Bergmyra" />
		<tag k="natural" v="wetland" />
		<tag k="ssr:stedsnr" v="235971" />
	</node>
	<node lat="68.55298333531077" lon="16.6579500103461" id="-36909">
		<tag k="name" v="Høgbergmyra" />
		<tag k="name:no" v="Høgbergmyra" />
=======
	<node id="-853435" lat="68.6039055524" lon="16.5659361076">
		<tag k="name" v="Hamnholtet" />
		<tag k="place" v="locality" />
		<tag k="ssr:stedsnr" v="54094" />
	</node>
	<node id="-852409" lat="68.4523777748" lon="16.4404305534">
		<tag k="name" v="Skittendalsmyra" />
>>>>>>> e1d4bc35ff8a6074a6f2e91616a996b547c36f15
		<tag k="natural" v="wetland" />
		<tag k="ssr:stedsnr" v="54202" />
	</node>
<<<<<<< HEAD
	<node lat="68.68858055904707" lon="16.97566110024111" id="-36910">
		<tag k="name" v="Furuholtet" />
		<tag k="name:no" v="Furuholtet" />
		<tag k="place" v="locality" />
		<tag k="ssr:stedsnr" v="54616" />
	</node>
	<node lat="68.62016666309492" lon="16.78560833387967" id="-36912">
		<tag k="name" v="Skoppijeaggi" />
		<tag k="name:se" v="Skoppijeaggi" />
		<tag k="natural" v="wetland" />
		<tag k="ssr:stedsnr" v="54766" />
	</node>
	<node lat="68.52882500177702" lon="16.478936109198386" id="-36927">
		<tag k="alt_name:no" v="Forrholten" />
		<tag k="name" v="Forholten" />
		<tag k="name:no" v="Forholten" />
		<tag k="place" v="locality" />
		<tag k="ssr:stedsnr" v="80791" />
	</node>
	<node lat="68.55348611011712" lon="16.379230565482658" id="-36949">
		<tag k="name" v="Kalvgjerdskogen" />
		<tag k="name:no" v="Kalvgjerdskogen" />
=======
	<node id="-853943" lat="68.4292750019" lon="16.412063882">
		<tag k="name" v="Skoglægda" />
		<tag k="place" v="locality" />
		<tag k="ssr:stedsnr" v="330592" />
	</node>
	<node id="-853942" lat="68.4332111159" lon="16.3255972113">
		<tag k="name" v="Slåttmyra" />
		<tag k="natural" v="wetland" />
		<tag k="ssr:stedsnr" v="330573" />
	</node>
	<node id="-853941" lat="68.4252583376" lon="16.3252833228">
		<tag k="name" v="Storekra" />
		<tag k="place" v="locality" />
		<tag k="ssr:stedsnr" v="330568" />
	</node>
	<node id="-853841" lat="68.4193361096" lon="16.1195916635">
		<tag k="name" v="Lisamyra" />
		<tag k="natural" v="wetland" />
		<tag k="ssr:stedsnr" v="209680" />
	</node>
	<node id="-853937" lat="68.4228750022" lon="16.1426583333">
		<tag k="name" v="Mølnsteinmyran" />
		<tag k="natural" v="wetland" />
		<tag k="ssr:stedsnr" v="330493" />
	</node>
	<node id="-853934" lat="68.4290000025" lon="16.3342527724">
		<tag k="name" v="Skittenmyra" />
		<tag k="natural" v="wetland" />
		<tag k="ssr:stedsnr" v="330549" />
	</node>
	<node id="-853933" lat="68.4261222223" lon="16.1331499938">
		<tag k="name" v="Ura" />
		<tag k="natural" v="scree" />
		<tag k="ssr:stedsnr" v="330393" />
	</node>
	<node id="-853420" lat="68.4361722206" lon="16.3588388957">
		<tag k="name" v="Godmoen" />
>>>>>>> e1d4bc35ff8a6074a6f2e91616a996b547c36f15
		<tag k="place" v="locality" />
		<tag k="ssr:stedsnr" v="85077" />
	</node>
<<<<<<< HEAD
	<node lat="68.55384722356939" lon="16.353988897190316" id="-36951">
		<tag k="name" v="Amaliehagen" />
		<tag k="name:no" v="Amaliehagen" />
		<tag k="place" v="locality" />
		<tag k="ssr:stedsnr" v="85082" />
	</node>
	<node lat="68.46064722176648" lon="16.12836111476743" id="-36954">
		<tag k="name" v="Olasteinen" />
		<tag k="name:no" v="Olasteinen" />
		<tag k="natural" v="stone" />
		<tag k="ssr:stedsnr" v="85659" />
	</node>
	<node lat="68.54834444928825" lon="16.13374721296701" id="-36959">
		<tag k="name" v="Olderskogteigen" />
		<tag k="name:no" v="Olderskogteigen" />
=======
	<node id="-852124" lat="68.5220027763" lon="16.4271805644">
		<tag k="name" v="Stormyra" />
		<tag k="natural" v="wetland" />
		<tag k="ssr:stedsnr" v="87004" />
	</node>
	<node id="-853414" lat="68.4485416672" lon="16.4340444508">
		<tag k="name" v="Stormyra" />
		<tag k="natural" v="wetland" />
		<tag k="ssr:stedsnr" v="27675" />
	</node>
	<node id="-852901" lat="68.5831666646" lon="16.6675888887">
		<tag k="name" v="Kistemyren" />
		<tag k="natural" v="wetland" />
		<tag k="ssr:stedsnr" v="721190" />
	</node>
	<node id="-853408" lat="68.4260638859" lon="16.3252861165">
		<tag k="landuse" v="meadow" />
		<tag k="name" v="Bernhardåkeren" />
		<tag k="ssr:stedsnr" v="27554" />
	</node>
	<node id="-852634" lat="68.4237499957" lon="16.3466333334">
		<tag k="name" v="Gammtofta" />
		<tag k="natural" v="stone" />
		<tag k="ssr:stedsnr" v="512768" />
	</node>
	<node id="-853402" lat="68.4210222253" lon="16.1221139002">
		<tag k="name" v="Finn-O Nilsa-steinen" />
		<tag k="natural" v="stone" />
		<tag k="ssr:stedsnr" v="27346" />
	</node>
	<node id="-852887" lat="68.411777777" lon="16.1513999874">
		<tag k="name" v="Slåttlægdene" />
		<tag k="place" v="locality" />
		<tag k="ssr:stedsnr" v="573276" />
	</node>
	<node id="-852633" lat="68.4255777759" lon="16.4267583372">
		<tag k="name" v="Rødsteinen" />
		<tag k="natural" v="stone" />
		<tag k="ssr:stedsnr" v="512725" />
	</node>
	<node id="-854419" lat="68.5799805527" lon="16.2049111179">
		<tag k="name" v="Storbærmyra" />
		<tag k="natural" v="wetland" />
		<tag k="ssr:stedsnr" v="647948" />
	</node>
	<node id="-852369" lat="68.5476166653" lon="16.5358861066">
		<tag k="name" v="Fjelldalsskogan" />
>>>>>>> e1d4bc35ff8a6074a6f2e91616a996b547c36f15
		<tag k="place" v="locality" />
		<tag k="ssr:stedsnr" v="85711" />
	</node>
<<<<<<< HEAD
	<node lat="68.52200277631287" lon="16.427180564373117" id="-36963">
		<tag k="name" v="Stormyra" />
		<tag k="name:no" v="Stormyra" />
=======
	<node id="-852368" lat="68.5546500011" lon="16.6961833373">
		<tag k="name" v="Heimyra" />
>>>>>>> e1d4bc35ff8a6074a6f2e91616a996b547c36f15
		<tag k="natural" v="wetland" />
		<tag k="ssr:stedsnr" v="87004" />
	</node>
<<<<<<< HEAD
	<node lat="68.41865000248067" lon="16.164522226355917" id="-36968">
		<tag k="name" v="Blåuran" />
		<tag k="name:no" v="Blåuran" />
		<tag k="natural" v="scree" />
		<tag k="ssr:stedsnr" v="88616" />
	</node>
	<node lat="68.4565583325819" lon="16.376291666559148" id="-36970">
		<tag k="landuse" v="meadow" />
		<tag k="name" v="Blomen" />
		<tag k="name:no" v="Blomen" />
		<tag k="ssr:stedsnr" v="88575" />
	</node>
	<node lat="68.52450833374301" lon="16.625741675059537" id="-36977">
		<tag k="name" v="Gammeskarmyra" />
		<tag k="name:no" v="Gammeskarmyra" />
		<tag k="natural" v="wetland" />
		<tag k="ssr:stedsnr" v="114017" />
	</node>
	<node lat="68.43204166401523" lon="16.13555834304482" id="-37025">
		<tag k="name" v="Kjempegrava" />
		<tag k="name:no" v="Kjempegrava" />
		<tag k="natural" v="scree" />
		<tag k="ssr:stedsnr" v="148356" />
	</node>
	<node lat="68.52465555176079" lon="16.584891669842403" id="-37051">
		<tag k="name" v="Klubbmyra" />
		<tag k="name:no" v="Klubbmyra" />
		<tag k="natural" v="wetland" />
		<tag k="ssr:stedsnr" v="175015" />
	</node>
	<node lat="68.58119166833511" lon="16.62542223374213" id="-37056">
		<tag k="name" v="Åsmyra" />
		<tag k="name:no" v="Åsmyra" />
=======
	<node id="-852119" lat="68.5491444419" lon="16.3667638857">
		<tag k="name" v="Stormyra" />
		<tag k="natural" v="wetland" />
		<tag k="ssr:stedsnr" v="85967" />
	</node>
	<node id="-853893" lat="68.5392916636" lon="16.5008500001">
		<tag k="name" v="Ramstadskogan" />
		<tag k="place" v="locality" />
		<tag k="ssr:stedsnr" v="323868" />
	</node>
	<node id="-852715" lat="68.6639944475" lon="16.8283972186">
		<tag k="name" v="Bakåsmyran" />
		<tag k="natural" v="wetland" />
		<tag k="ssr:stedsnr" v="478970" />
	</node>
	<node id="-852117" lat="68.4606472218" lon="16.1283611148">
		<tag k="name" v="Olasteinen" />
		<tag k="natural" v="stone" />
		<tag k="ssr:stedsnr" v="85659" />
	</node>
	<node id="-852348" lat="68.5857555595" lon="16.7169555531">
		<tag k="name" v="Stormyra" />
		<tag k="natural" v="wetland" />
		<tag k="ssr:stedsnr" v="235225" />
	</node>
	<node id="-854395" lat="68.4698722254" lon="16.5145999888">
		<tag k="landuse" v="meadow" />
		<tag k="name" v="Bryggåkeren" />
		<tag k="ssr:stedsnr" v="633386" />
	</node>
	<node id="-854394" lat="68.4703861123" lon="16.5047555638">
		<tag k="name" v="Stormyra" />
>>>>>>> e1d4bc35ff8a6074a6f2e91616a996b547c36f15
		<tag k="natural" v="wetland" />
		<tag k="ssr:stedsnr" v="175206" />
	</node>
<<<<<<< HEAD
	<node lat="68.57622778177976" lon="16.676891662727275" id="-37072">
		<tag k="alt_name:no" v="Forrmyra" />
		<tag k="name" v="Furemyra" />
		<tag k="name:no" v="Furemyra" />
=======
	<node id="-854393" lat="68.4692777787" lon="16.5022583216">
		<tag k="name" v="Torvskjåmyra" />
>>>>>>> e1d4bc35ff8a6074a6f2e91616a996b547c36f15
		<tag k="natural" v="wetland" />
		<tag k="ssr:stedsnr" v="263177" />
	</node>
<<<<<<< HEAD
	<node lat="68.54831110731146" lon="16.658880541874762" id="-37074">
=======
	<node id="-852343" lat="68.6057527762" lon="16.8025499866">
>>>>>>> e1d4bc35ff8a6074a6f2e91616a996b547c36f15
		<tag k="name" v="Stormyra" />
		<tag k="name:no" v="Stormyra" />
		<tag k="natural" v="wetland" />
		<tag k="ssr:stedsnr" v="263852" />
	</node>
<<<<<<< HEAD
	<node lat="68.54133889021882" lon="16.52598610948376" id="-37079">
		<tag k="name" v="Skruvmyra" />
		<tag k="name:no" v="Skruvmyra" />
=======
	<node id="-854390" lat="68.5696500031" lon="16.274474994">
		<tag k="name" v="Steinbakkmyra" />
>>>>>>> e1d4bc35ff8a6074a6f2e91616a996b547c36f15
		<tag k="natural" v="wetland" />
		<tag k="ssr:stedsnr" v="263877" />
	</node>
<<<<<<< HEAD
	<node lat="68.59299444385464" lon="16.608152771074437" id="-37092">
		<tag k="name" v="Jomfrumyra" />
		<tag k="name:no" v="Jomfrumyra" />
		<tag k="natural" v="wetland" />
		<tag k="ssr:stedsnr" v="202192" />
	</node>
	<node lat="68.50028056031832" lon="16.50610276842513" id="-37101">
		<tag k="landuse" v="meadow" />
		<tag k="name" v="Andersenga" />
		<tag k="name:no" v="Andersenga" />
		<tag k="ssr:stedsnr" v="268115" />
	</node>
	<node lat="68.49405833818449" lon="16.15123054721945" id="-37127">
		<tag k="name" v="Stormyra" />
		<tag k="name:no" v="Stormyra" />
=======
	<node id="-853044" lat="68.659424998" lon="17.2281138834">
		<tag k="name" v="Saltmyra" />
		<tag k="natural" v="wetland" />
		<tag k="ssr:stedsnr" v="903279" />
	</node>
	<node id="-852850" lat="68.3976555582" lon="16.1429277863">
		<tag k="name" v="Jærmoan" />
		<tag k="natural" v="wetland" />
		<tag k="ssr:stedsnr" v="694401" />
	</node>
	<node id="-852849" lat="68.4061388921" lon="16.2082444466">
		<tag k="name" v="Jeriko" />
		<tag k="place" v="locality" />
		<tag k="ssr:stedsnr" v="694395" />
	</node>
	<node id="-852200" lat="68.4940583382" lon="16.1512305472">
		<tag k="name" v="Stormyra" />
		<tag k="natural" v="wetland" />
		<tag k="ssr:stedsnr" v="269006" />
	</node>
	<node id="-852845" lat="68.439269441" lon="16.166275001">
		<tag k="name" v="Forskogen" />
		<tag k="place" v="locality" />
		<tag k="ssr:stedsnr" v="694294" />
	</node>
	<node id="-854380" lat="68.5508388863" lon="16.548600002">
		<tag k="name" v="Trollbergmyra" />
		<tag k="natural" v="wetland" />
		<tag k="ssr:stedsnr" v="631482" />
	</node>
	<node id="-854503" lat="68.4358611136" lon="16.1373583283">
		<tag k="name" v="Gammelgården" />
		<tag k="place" v="locality" />
		<tag k="ssr:stedsnr" v="755348" />
	</node>
	<node id="-852326" lat="68.4507333339" lon="16.1596972208">
		<tag k="alt_name" v="Olsli-myra" />
		<tag k="name" v="Olslimyra" />
>>>>>>> e1d4bc35ff8a6074a6f2e91616a996b547c36f15
		<tag k="natural" v="wetland" />
		<tag k="ssr:stedsnr" v="269006" />
	</node>
<<<<<<< HEAD
	<node lat="68.42138888579956" lon="16.391966653946294" id="-37133">
=======
	<node id="-852321" lat="68.4213888858" lon="16.3919666539">
>>>>>>> e1d4bc35ff8a6074a6f2e91616a996b547c36f15
		<tag k="name" v="Molura" />
		<tag k="name:no" v="Molura" />
		<tag k="natural" v="scree" />
		<tag k="ssr:stedsnr" v="209608" />
	</node>
<<<<<<< HEAD
	<node lat="68.45433611038524" lon="16.431708330580054" id="-37135">
=======
	<node id="-852664" lat="68.6413833321" lon="17.0642222237">
		<tag k="name" v="Stordalsmyra" />
		<tag k="natural" v="wetland" />
		<tag k="ssr:stedsnr" v="660696" />
	</node>
	<node id="-852049" lat="68.5506305572" lon="16.5059083331">
		<tag k="name" v="Hundvollen" />
		<tag k="place" v="locality" />
		<tag k="ssr:stedsnr" v="25506" />
	</node>
	<node id="-853851" lat="68.4543472179" lon="16.1351388984">
		<tag k="name" v="Stormyra" />
		<tag k="natural" v="wetland" />
		<tag k="ssr:stedsnr" v="320182" />
	</node>
	<node id="-853476" lat="68.5288250018" lon="16.4789361092">
		<tag k="alt_name" v="Forrholten" />
		<tag k="name" v="Forholten" />
		<tag k="place" v="locality" />
		<tag k="ssr:stedsnr" v="80791" />
	</node>
	<node id="-852310" lat="68.6686666695" lon="17.0317694462">
		<tag k="name" v="Langemyra" />
		<tag k="natural" v="wetland" />
		<tag k="ssr:stedsnr" v="296926" />
	</node>
	<node id="-852820" lat="68.567252774" lon="16.6600333289">
		<tag k="name" v="Steinsmyra" />
		<tag k="natural" v="wetland" />
		<tag k="ssr:stedsnr" v="539161" />
	</node>
	<node id="-852307" lat="68.6713638913" lon="16.916097229">
		<tag k="name" v="Jubbasmyra" />
		<tag k="natural" v="wetland" />
		<tag k="ssr:stedsnr" v="296906" />
	</node>
	<node id="-854353" lat="68.5639861126" lon="16.6864749904">
		<tag k="alt_name" v="Brokkmyren" />
		<tag k="name" v="Brokkmyra" />
		<tag k="natural" v="wetland" />
		<tag k="ssr:stedsnr" v="626842" />
	</node>
	<node id="-853840" lat="68.4543361104" lon="16.4317083306">
>>>>>>> e1d4bc35ff8a6074a6f2e91616a996b547c36f15
		<tag k="name" v="Tjukkskognesmyra" />
		<tag k="name:no" v="Tjukkskognesmyra" />
		<tag k="natural" v="wetland" />
		<tag k="ssr:stedsnr" v="209676" />
	</node>
<<<<<<< HEAD
	<node lat="68.4193361095504" lon="16.119591663487867" id="-37136">
		<tag k="name" v="Lisamyra" />
		<tag k="name:no" v="Lisamyra" />
		<tag k="natural" v="wetland" />
		<tag k="ssr:stedsnr" v="209680" />
	</node>
	<node lat="68.695486113256" lon="17.112277786922576" id="-37138">
		<tag k="name" v="Nilsjordet" />
		<tag k="name:no" v="Nilsjordet" />
		<tag k="place" v="locality" />
		<tag k="ssr:stedsnr" v="212475" />
	</node>
	<node lat="68.43481389075838" lon="16.1375388965292" id="-37141">
		<tag k="name" v="Nebbsteinvollen" />
		<tag k="name:no" v="Nebbsteinvollen" />
		<tag k="place" v="locality" />
		<tag k="ssr:stedsnr" v="270350" />
	</node>
	<node lat="68.47125555751332" lon="16.50835277353067" id="-37142">
		<tag k="name" v="Trondhjemsskogen" />
		<tag k="name:no" v="Trondhjemsskogen" />
		<tag k="place" v="locality" />
		<tag k="ssr:stedsnr" v="270370" />
	</node>
	<node lat="68.39231389215257" lon="16.1742166638402" id="-37147">
		<tag k="name" v="Gaupura" />
		<tag k="name:no" v="Gaupura" />
		<tag k="natural" v="scree" />
		<tag k="ssr:stedsnr" v="270420" />
	</node>
	<node lat="68.57395832998361" lon="16.42368055272027" id="-37185">
		<tag k="name" v="Mobakkskogen" />
		<tag k="name:no" v="Mobakkskogen" />
		<tag k="place" v="locality" />
		<tag k="ssr:stedsnr" v="240243" />
	</node>
	<node lat="68.4304777770028" lon="16.39958888968936" id="-37188">
		<tag k="name" v="Kveldskogen" />
		<tag k="name:no" v="Kveldskogen" />
		<tag k="place" v="locality" />
		<tag k="ssr:stedsnr" v="452589" />
	</node>
	<node lat="68.4523777747544" lon="16.44043055337303" id="-37200">
		<tag k="name" v="Skittendalsmyra" />
		<tag k="name:no" v="Skittendalsmyra" />
		<tag k="natural" v="wetland" />
		<tag k="ssr:stedsnr" v="452658" />
	</node>
	<node lat="68.66819166475463" lon="16.91115555506131" id="-37236">
		<tag k="name" v="Djupvassmyra" />
		<tag k="name:no" v="Djupvassmyra" />
=======
	<node id="-853836" lat="68.4502722268" lon="16.4511777662">
		<tag k="name" v="Broka" />
		<tag k="place" v="locality" />
		<tag k="ssr:stedsnr" v="209662" />
	</node>
	<node id="-852706" lat="68.5776444403" lon="16.6387111063">
		<tag k="name" v="Møllemyrene" />
		<tag k="natural" v="wetland" />
		<tag k="ssr:stedsnr" v="478205" />
	</node>
	<node id="-853830" lat="68.4406194408" lon="16.3645361203">
		<tag k="name" v="Vedhøggan" />
		<tag k="place" v="locality" />
		<tag k="ssr:stedsnr" v="209734" />
	</node>
	<node id="-852805" lat="68.5072861152" lon="16.5429499955">
		<tag k="name" v="Svartvassmyran" />
		<tag k="natural" v="wetland" />
		<tag k="ssr:stedsnr" v="687942" />
	</node>
	<node id="-853828" lat="68.4231472234" lon="16.3346138926">
		<tag k="name" v="Dranglan" />
		<tag k="place" v="locality" />
		<tag k="ssr:stedsnr" v="209536" />
	</node>
	<node id="-854338" lat="68.5868000009" lon="16.6175888867">
		<tag k="name" v="Skånlandsmarka" />
		<tag k="place" v="locality" />
		<tag k="ssr:stedsnr" v="626202" />
	</node>
	<node id="-854667" lat="68.5574444478" lon="16.1143972168">
		<tag k="name" v="Åsteigen" />
		<tag k="place" v="locality" />
		<tag k="ssr:stedsnr" v="830832" />
	</node>
	<node id="-853823" lat="68.5687083355" lon="16.2570694533">
		<tag k="name" v="Dukan" />
		<tag k="place" v="locality" />
		<tag k="ssr:stedsnr" v="209072" />
	</node>
	<node id="-852794" lat="68.5502416656" lon="16.3638972284">
		<tag k="name" v="Torvmyra" />
		<tag k="natural" v="wetland" />
		<tag k="ssr:stedsnr" v="687854" />
	</node>
	<node id="-852279" lat="68.5649749984" lon="16.7092611083">
		<tag k="name" v="Langmyra" />
		<tag k="natural" v="wetland" />
		<tag k="ssr:stedsnr" v="296141" />
	</node>
	<node id="-853298" lat="68.4092666687" lon="16.1191277657">
		<tag k="name" v="Risøymyra" />
		<tag k="natural" v="wetland" />
		<tag k="ssr:stedsnr" v="937317" />
	</node>
	<node id="-852616" lat="68.5520027803" lon="16.319100003">
		<tag k="name" v="Stigkjerran" />
		<tag k="place" v="locality" />
		<tag k="ssr:stedsnr" v="512093" />
	</node>
	<node id="-854493" lat="68.5318583308" lon="16.153608321">
		<tag k="name" v="Vedhøggteigen" />
		<tag k="place" v="locality" />
		<tag k="ssr:stedsnr" v="753696" />
	</node>
	<node id="-853802" lat="68.4561805515" lon="16.1258027844">
		<tag k="name" v="Tjønnskogan" />
		<tag k="place" v="locality" />
		<tag k="ssr:stedsnr" v="206690" />
	</node>
	<node id="-854311" lat="68.6781333361" lon="16.9212638802">
		<tag k="name" v="Fjellmyra" />
		<tag k="natural" v="wetland" />
		<tag k="ssr:stedsnr" v="599902" />
	</node>
	<node id="-852774" lat="68.5487527768" lon="16.1333000084">
		<tag k="name" v="Urteigen" />
		<tag k="place" v="locality" />
		<tag k="ssr:stedsnr" v="692497" />
	</node>
	<node id="-854789" lat="68.5274972817" lon="16.7508947704">
		<tag k="name" v="Lássegieddi" />
		<tag k="name:se" v="Lássegieddi" />
		<tag k="place" v="locality" />
		<tag k="ssr:stedsnr" v="986249" />
	</node>
	<node id="-853103" lat="68.5851277774" lon="17.4738833208">
		<tag k="name" v="Maridalsmyran" />
		<tag k="natural" v="wetland" />
		<tag k="ssr:stedsnr" v="928492" />
	</node>
	<node id="-852817" lat="68.51448333" lon="16.6233555463">
		<tag k="name" v="Tømmermyra" />
		<tag k="natural" v="wetland" />
		<tag k="ssr:stedsnr" v="539009" />
	</node>
	<node id="-854298" lat="68.5730972205" lon="16.3752694322">
		<tag k="name" v="Svartrota" />
		<tag k="natural" v="scree" />
		<tag k="ssr:stedsnr" v="585849" />
	</node>
	<node id="-853273" lat="68.6601777757" lon="16.8103499896">
		<tag k="name" v="Ytre Hestmyra" />
		<tag k="natural" v="wetland" />
		<tag k="ssr:stedsnr" v="903966" />
	</node>
	<node id="-852099" lat="68.688580559" lon="16.9756611002">
		<tag k="name" v="Furuholtet" />
		<tag k="place" v="locality" />
		<tag k="ssr:stedsnr" v="54616" />
	</node>
	<node id="-854287" lat="68.4477500014" lon="16.4430333319">
		<tag k="name" v="Øverlandet" />
		<tag k="natural" v="beach" />
		<tag k="ssr:stedsnr" v="573632" />
		<tag k="surface" v="sand" />
	</node>
	<node id="-853262" lat="68.5681166633" lon="16.6932361162">
		<tag k="name" v="Rævholmyra" />
		<tag k="natural" v="wetland" />
		<tag k="ssr:stedsnr" v="903165" />
	</node>
	<node id="-853772" lat="68.5542249973" lon="16.7984305434">
		<tag k="name" v="Flatlandsmyran" />
		<tag k="natural" v="wetland" />
		<tag k="ssr:stedsnr" v="202844" />
	</node>
	<node id="-853258" lat="68.5390555576" lon="16.1735972243">
		<tag k="name" v="Lemteigen" />
		<tag k="place" v="locality" />
		<tag k="ssr:stedsnr" v="889913" />
	</node>
	<node id="-854280" lat="68.3977527762" lon="16.1305416735">
		<tag k="name" v="Blåsteinvollen" />
		<tag k="place" v="locality" />
		<tag k="ssr:stedsnr" v="573471" />
	</node>
	<node id="-854790" lat="68.5361195597" lon="16.7675853532">
		<tag k="name" v="Duolbárohtu" />
		<tag k="name:se" v="Duolbárohtu" />
		<tag k="place" v="locality" />
		<tag k="ssr:stedsnr" v="986269" />
	</node>
	<node id="-853765" lat="68.5929944439" lon="16.6081527711">
		<tag k="name" v="Jomfrumyra" />
		<tag k="natural" v="wetland" />
		<tag k="ssr:stedsnr" v="202192" />
	</node>
	<node id="-853250" lat="68.5462861116" lon="16.3848305626">
		<tag k="name" v="Skråpen" />
		<tag k="place" v="locality" />
		<tag k="ssr:stedsnr" v="874959" />
	</node>
	<node id="-853981" lat="68.6582444423" lon="16.76499722">
		<tag k="name" v="Selborgmyran" />
		<tag k="natural" v="wetland" />
		<tag k="ssr:stedsnr" v="357972" />
	</node>
	<node id="-854267" lat="68.4847333322" lon="16.5012611043">
		<tag k="name" v="Kobbsteinen" />
		<tag k="natural" v="stone" />
		<tag k="ssr:stedsnr" v="573331" />
	</node>
	<node id="-854775" lat="68.6494222243" lon="16.7289472325">
		<tag k="name" v="Vatnholtet" />
		<tag k="place" v="locality" />
		<tag k="ssr:stedsnr" v="964973" />
	</node>
	<node id="-854774" lat="68.654452781" lon="16.778438885">
		<tag k="name" v="Keisermyra" />
		<tag k="natural" v="wetland" />
		<tag k="ssr:stedsnr" v="964969" />
	</node>
	<node id="-854771" lat="68.6861222213" lon="16.9374388909">
		<tag k="name" v="Lamyra" />
		<tag k="natural" v="wetland" />
		<tag k="ssr:stedsnr" v="964550" />
	</node>
	<node id="-854770" lat="68.6951833323" lon="16.9486611197">
		<tag k="name" v="Myrhaugmyra" />
		<tag k="natural" v="wetland" />
		<tag k="ssr:stedsnr" v="964548" />
	</node>
	<node id="-852179" lat="68.6681916648" lon="16.9111555551">
		<tag k="name" v="Djupvassmyra" />
		<tag k="natural" v="wetland" />
		<tag k="ssr:stedsnr" v="263991" />
	</node>
	<node id="-852207" lat="68.3923138922" lon="16.1742166638">
		<tag k="name" v="Gaupura" />
		<tag k="natural" v="scree" />
		<tag k="ssr:stedsnr" v="270420" />
	</node>
	<node id="-853629" lat="68.5699611101" lon="16.4442250024">
		<tag k="name" v="Torvmyra" />
		<tag k="natural" v="wetland" />
		<tag k="ssr:stedsnr" v="141150" />
	</node>
	<node id="-852204" lat="68.4348138908" lon="16.1375388965">
		<tag k="name" v="Nebbsteinvollen" />
		<tag k="place" v="locality" />
		<tag k="ssr:stedsnr" v="270350" />
	</node>
	<node id="-854763" lat="68.6340638851" lon="16.7191777675">
		<tag k="name" v="Lamarkmyran" />
		<tag k="natural" v="wetland" />
		<tag k="ssr:stedsnr" v="963150" />
	</node>
	<node id="-852201" lat="68.5283472226" lon="16.4699972325">
		<tag k="name" v="Børsteinen" />
		<tag k="natural" v="stone" />
		<tag k="ssr:stedsnr" v="269027" />
	</node>
	<node id="-853224" lat="68.5742277794" lon="16.6513444366">
		<tag k="name" v="Vollmyra" />
		<tag k="natural" v="wetland" />
		<tag k="ssr:stedsnr" v="843218" />
	</node>
	<node id="-853201" lat="68.466008335" lon="16.4486527715">
		<tag k="name" v="Skilmyra" />
		<tag k="natural" v="wetland" />
		<tag k="ssr:stedsnr" v="937390" />
	</node>
	<node id="-854756" lat="68.5125444432" lon="16.5434472108">
		<tag k="name" v="Svartvassmyran" />
>>>>>>> e1d4bc35ff8a6074a6f2e91616a996b547c36f15
		<tag k="natural" v="wetland" />
		<tag k="ssr:stedsnr" v="263991" />
	</node>
<<<<<<< HEAD
	<node lat="68.53275555534944" lon="16.472461111437177" id="-37245">
=======
	<node id="-852195" lat="68.5327555553" lon="16.4724611114">
>>>>>>> e1d4bc35ff8a6074a6f2e91616a996b547c36f15
		<tag k="name" v="Vedjehågmyra" />
		<tag k="name:no" v="Vedjehågmyra" />
		<tag k="natural" v="wetland" />
		<tag k="ssr:stedsnr" v="268673" />
	</node>
<<<<<<< HEAD
	<node lat="68.52834722258625" lon="16.469997232453863" id="-37247">
		<tag k="name" v="Børsteinen" />
		<tag k="name:no" v="Børsteinen" />
=======
	<node id="-854242" lat="68.53268333" lon="16.141555543">
		<tag k="name" v="Liteigen" />
		<tag k="place" v="locality" />
		<tag k="ssr:stedsnr" v="570744" />
	</node>
	<node id="-853729" lat="68.6881722262" lon="16.9675833343">
		<tag k="name" v="Furuholtmyra" />
		<tag k="natural" v="wetland" />
		<tag k="ssr:stedsnr" v="175625" />
	</node>
	<node id="-854240" lat="68.5429888882" lon="16.3509638923">
		<tag k="name" v="Heimyra" />
		<tag k="natural" v="wetland" />
		<tag k="ssr:stedsnr" v="570876" />
	</node>
	<node id="-853727" lat="68.7032055534" lon="16.9709555641">
		<tag k="name" v="Durmålsmyra" />
		<tag k="natural" v="wetland" />
		<tag k="ssr:stedsnr" v="175582" />
	</node>
	<node id="-852702" lat="68.5109805536" lon="16.6235944374">
		<tag k="name" v="Høgåsmyra" />
		<tag k="natural" v="wetland" />
		<tag k="ssr:stedsnr" v="478007" />
	</node>
	<node id="-852602" lat="68.5532972206" lon="16.3390555556">
		<tag k="name" v="Tuvmyra" />
		<tag k="natural" v="wetland" />
		<tag k="ssr:stedsnr" v="510101" />
	</node>
	<node id="-854618" lat="68.4797444432" lon="16.162858339">
		<tag k="name" v="Vedhøggan" />
		<tag k="place" v="locality" />
		<tag k="ssr:stedsnr" v="813406" />
	</node>
	<node id="-853720" lat="68.5811916683" lon="16.6254222337">
		<tag k="name" v="Åsmyra" />
		<tag k="natural" v="wetland" />
		<tag k="ssr:stedsnr" v="175206" />
	</node>
	<node id="-853203" lat="68.4974055574" lon="16.4625805657">
		<tag k="name" v="Nordslåttene" />
		<tag k="natural" v="wetland" />
		<tag k="ssr:stedsnr" v="937398" />
	</node>
	<node id="-852964" lat="68.4602361149" lon="16.4198527664">
		<tag k="name" v="Finnelvmoen" />
		<tag k="natural" v="wetland" />
		<tag k="ssr:stedsnr" v="876688" />
	</node>
	<node id="-853713" lat="68.5246555518" lon="16.5848916698">
		<tag k="name" v="Klubbmyra" />
		<tag k="natural" v="wetland" />
		<tag k="ssr:stedsnr" v="175015" />
	</node>
	<node id="-853287" lat="68.4495416648" lon="16.179969442">
		<tag k="name" v="Kløftersteinen" />
		<tag k="natural" v="stone" />
		<tag k="ssr:stedsnr" v="934608" />
	</node>
	<node id="-853710" lat="68.5632749983" lon="16.111741658">
		<tag k="name" v="Middagsmyra" />
		<tag k="natural" v="wetland" />
		<tag k="ssr:stedsnr" v="162837" />
	</node>
	<node id="-852173" lat="68.5413388902" lon="16.5259861095">
		<tag k="name" v="Skruvmyra" />
		<tag k="natural" v="wetland" />
		<tag k="ssr:stedsnr" v="263877" />
	</node>
	<node id="-854729" lat="68.5790000024" lon="16.6275694339">
		<tag k="name" v="Stormyra" />
		<tag k="natural" v="wetland" />
		<tag k="ssr:stedsnr" v="870179" />
	</node>
	<node id="-852680" lat="68.6650611089" lon="16.7729249927">
		<tag k="name" v="Vassmyran" />
		<tag k="natural" v="wetland" />
		<tag k="ssr:stedsnr" v="660962" />
	</node>
	<node id="-853190" lat="68.5461638868" lon="16.3952638914">
		<tag k="name" v="Nylendan" />
		<tag k="place" v="locality" />
		<tag k="ssr:stedsnr" v="935978" />
	</node>
	<node id="-852513" lat="68.6398555522" lon="17.1797694374">
		<tag k="name" v="Rasmusmyra" />
		<tag k="natural" v="wetland" />
		<tag k="ssr:stedsnr" v="357718" />
	</node>
	<node id="-853187" lat="68.538830557" lon="16.3897944415">
		<tag k="name" v="Tegebærmyra" />
		<tag k="natural" v="wetland" />
		<tag k="ssr:stedsnr" v="935778" />
	</node>
	<node id="-852160" lat="68.5762277818" lon="16.6768916627">
		<tag k="alt_name" v="Forrmyra" />
		<tag k="name" v="Furemyra" />
		<tag k="natural" v="wetland" />
		<tag k="ssr:stedsnr" v="263177" />
	</node>
	<node id="-853695" lat="68.4204833293" lon="16.1313166701">
		<tag k="name" v="Tjukkskogen" />
		<tag k="place" v="locality" />
		<tag k="ssr:stedsnr" v="148694" />
	</node>
	<node id="-853178" lat="68.5514416662" lon="16.3695361042">
		<tag k="name" v="Remelskogen" />
		<tag k="place" v="locality" />
		<tag k="ssr:stedsnr" v="935085" />
	</node>
	<node id="-853688" lat="68.4214805575" lon="16.377741676">
		<tag k="name" v="Skogsberget" />
		<tag k="natural" v="stone" />
		<tag k="ssr:stedsnr" v="148624" />
	</node>
	<node id="-852663" lat="68.6432611091" lon="17.070599995">
		<tag k="name" v="Lappegammyra" />
		<tag k="natural" v="wetland" />
		<tag k="ssr:stedsnr" v="660695" />
	</node>
	<node id="-852662" lat="68.6412083357" lon="17.2075444475">
		<tag k="name" v="Barkebergmyren" />
		<tag k="natural" v="wetland" />
		<tag k="ssr:stedsnr" v="660298" />
	</node>
	<node id="-853683" lat="68.4130416707" lon="16.0848166793">
		<tag k="name" v="Heststrandmyra" />
		<tag k="natural" v="wetland" />
		<tag k="ssr:stedsnr" v="148390" />
	</node>
	<node id="-853680" lat="68.4868111129" lon="16.1587944404">
		<tag k="name" v="Sprangmyra" />
		<tag k="natural" v="wetland" />
		<tag k="ssr:stedsnr" v="147056" />
	</node>
	<node id="-852168" lat="68.5483111073" lon="16.6588805419">
		<tag k="name" v="Stormyra" />
		<tag k="natural" v="wetland" />
		<tag k="ssr:stedsnr" v="263852" />
	</node>
	<node id="-853677" lat="68.5413722191" lon="16.1871944493">
		<tag k="name" v="Gråsteinen" />
>>>>>>> e1d4bc35ff8a6074a6f2e91616a996b547c36f15
		<tag k="natural" v="stone" />
		<tag k="ssr:stedsnr" v="269027" />
	</node>
<<<<<<< HEAD
	<node lat="68.6713638913451" lon="16.91609722895248" id="-37270">
		<tag k="name" v="Jubbasmyra" />
		<tag k="name:no" v="Jubbasmyra" />
		<tag k="natural" v="wetland" />
		<tag k="ssr:stedsnr" v="296906" />
	</node>
	<node lat="68.66866666951307" lon="17.03176944620047" id="-37271">
		<tag k="name" v="Langemyra" />
		<tag k="name:no" v="Langemyra" />
		<tag k="natural" v="wetland" />
		<tag k="ssr:stedsnr" v="296926" />
	</node>
	<node lat="68.52378889162046" lon="16.444222228906675" id="-37310">
		<tag k="name" v="Bjønnstimyra" />
		<tag k="name:no" v="Bjønnstimyra" />
		<tag k="natural" v="wetland" />
		<tag k="ssr:stedsnr" v="330003" />
	</node>
	<node lat="68.42287500216122" lon="16.142658333349022" id="-37313">
		<tag k="name" v="Mølnsteinmyran" />
		<tag k="name:no" v="Mølnsteinmyran" />
		<tag k="natural" v="wetland" />
		<tag k="ssr:stedsnr" v="330493" />
	</node>
	<node lat="68.42525833762103" lon="16.325283322767664" id="-37320">
		<tag k="name" v="Storekra" />
		<tag k="name:no" v="Storekra" />
		<tag k="place" v="locality" />
		<tag k="ssr:stedsnr" v="330568" />
	</node>
	<node lat="68.4332111158871" lon="16.32559721127131" id="-37321">
		<tag k="name" v="Slåttmyra" />
		<tag k="name:no" v="Slåttmyra" />
		<tag k="natural" v="wetland" />
		<tag k="ssr:stedsnr" v="330573" />
	</node>
	<node lat="68.63985555221063" lon="17.179769437407842" id="-37332">
		<tag k="name" v="Rasmusmyra" />
		<tag k="name:no" v="Rasmusmyra" />
		<tag k="natural" v="wetland" />
		<tag k="ssr:stedsnr" v="357718" />
	</node>
	<node lat="68.63075000240623" lon="17.255502775208765" id="-37333">
		<tag k="name" v="Stormyra" />
		<tag k="name:no" v="Stormyra" />
		<tag k="natural" v="wetland" />
		<tag k="ssr:stedsnr" v="357659" />
	</node>
	<node lat="68.61671944179501" lon="17.19180833193232" id="-37351">
		<tag k="name" v="Novasteinen" />
		<tag k="name:no" v="Novasteinen" />
=======
	<node id="-852140" lat="68.5245083337" lon="16.6257416751">
		<tag k="name" v="Gammeskarmyra" />
		<tag k="natural" v="wetland" />
		<tag k="ssr:stedsnr" v="114017" />
	</node>
	<node id="-854556" lat="68.6422083295" lon="16.7729388815">
		<tag k="name" v="Skarmyran" />
		<tag k="natural" v="wetland" />
		<tag k="ssr:stedsnr" v="782986" />
	</node>
	<node id="-852956" lat="68.4032083292" lon="16.1977722203">
		<tag k="name" v="Pålen" />
		<tag k="natural" v="stone" />
		<tag k="ssr:stedsnr" v="876410" />
	</node>
	<node id="-853155" lat="68.5078555541" lon="16.6151166738">
		<tag k="name" v="Langmyra" />
		<tag k="natural" v="wetland" />
		<tag k="ssr:stedsnr" v="930946" />
	</node>
	<node id="-852642" lat="68.6430833323" lon="17.158516659">
		<tag k="name" v="Gammemyra" />
		<tag k="natural" v="wetland" />
		<tag k="ssr:stedsnr" v="418712" />
	</node>
	<node id="-852127" lat="68.4186500025" lon="16.1645222264">
		<tag k="name" v="Blåuran" />
		<tag k="natural" v="scree" />
		<tag k="ssr:stedsnr" v="88616" />
	</node>
	<node id="-854687" lat="68.6586388863" lon="16.816702766">
		<tag k="name" v="Nordlislettmyra" />
		<tag k="natural" v="wetland" />
		<tag k="ssr:stedsnr" v="844000" />
	</node>
	<node id="-852126" lat="68.4209194442" lon="16.4030333399">
		<tag k="name" v="Hyssteinen" />
		<tag k="natural" v="stone" />
		<tag k="ssr:stedsnr" v="88521" />
	</node>
	<node id="-853148" lat="68.4261500011" lon="16.1289333416">
		<tag k="name" v="Langmyra" />
		<tag k="natural" v="wetland" />
		<tag k="ssr:stedsnr" v="816375" />
	</node>
	<node id="-853274" lat="68.6519666636" lon="16.779299989">
		<tag k="name" v="Kvannelvmyran" />
		<tag k="natural" v="wetland" />
		<tag k="ssr:stedsnr" v="903974" />
	</node>
	<node id="-854170" lat="68.6579805563" lon="16.8053194462">
		<tag k="name" v="Trolldalsmyra" />
		<tag k="natural" v="wetland" />
		<tag k="ssr:stedsnr" v="539999" />
	</node>
	<node id="-854169" lat="68.6615749957" lon="16.8172138979">
		<tag k="name" v="Østre Hestmyra" />
		<tag k="natural" v="wetland" />
		<tag k="ssr:stedsnr" v="539960" />
	</node>
	<node id="-854168" lat="68.6704222249" lon="16.7324916662">
		<tag k="name" v="Krabbesteinen" />
		<tag k="natural" v="stone" />
		<tag k="ssr:stedsnr" v="539954" />
	</node>
	<node id="-852631" lat="68.4271750004" lon="16.1395222196">
		<tag k="name" v="Kuhola" />
		<tag k="natural" v="wetland" />
		<tag k="ssr:stedsnr" v="512385" />
	</node>
	<node id="-854677" lat="68.638522222" lon="17.2180611202">
		<tag k="name" v="Kåvhøgmyren" />
		<tag k="natural" v="wetland" />
		<tag k="ssr:stedsnr" v="843287" />
	</node>
	<node id="-852628" lat="68.4683444426" lon="16.5131111183">
		<tag k="name" v="Storekra" />
		<tag k="place" v="locality" />
		<tag k="ssr:stedsnr" v="512368" />
	</node>
	<node id="-852115" lat="68.5483444493" lon="16.133747213">
		<tag k="name" v="Olderskogteigen" />
		<tag k="place" v="locality" />
		<tag k="ssr:stedsnr" v="85711" />
	</node>
	<node id="-852625" lat="68.4711611131" lon="16.5117777831">
		<tag k="landuse" v="meadow" />
		<tag k="name" v="Trondhjemshagen" />
		<tag k="ssr:stedsnr" v="512360" />
	</node>
	<node id="-852624" lat="68.4691361139" lon="16.5143916611">
		<tag k="name" v="Nepehagen" />
		<tag k="place" v="locality" />
		<tag k="ssr:stedsnr" v="512354" />
	</node>
	<node id="-853134" lat="68.5664555598" lon="16.2857388846">
		<tag k="name" v="Myran" />
		<tag k="natural" v="wetland" />
		<tag k="ssr:stedsnr" v="816103" />
	</node>
	<node id="-854155" lat="68.5893527799" lon="16.6395888886">
		<tag k="name" v="Purkemyra" />
		<tag k="natural" v="wetland" />
		<tag k="ssr:stedsnr" v="539212" />
	</node>
	<node id="-852105" lat="68.57395833" lon="16.4236805527">
		<tag k="name" v="Mobakkskogen" />
		<tag k="place" v="locality" />
		<tag k="ssr:stedsnr" v="240243" />
	</node>
	<node id="-853128" lat="68.6506277816" lon="17.1934500022">
		<tag k="name" v="Updáljuovva" />
		<tag k="name:se" v="Updáljuovva" />
		<tag k="natural" v="scree" />
		<tag k="ssr:stedsnr" v="815323" />
	</node>
	<node id="-854150" lat="68.5301666696" lon="16.6296527901">
		<tag k="name" v="Bjørnsteinen" />
>>>>>>> e1d4bc35ff8a6074a6f2e91616a996b547c36f15
		<tag k="natural" v="stone" />
		<tag k="ssr:stedsnr" v="478634" />
	</node>
<<<<<<< HEAD
	<node lat="68.64960277618869" lon="16.822544438840257" id="-37360">
		<tag k="name" v="Lamyra" />
		<tag k="name:no" v="Lamyra" />
=======
	<node id="-852101" lat="68.6201666631" lon="16.7856083339">
		<tag k="name" v="Skoppijeaggi" />
		<tag k="name:se" v="Skoppijeaggi" />
>>>>>>> e1d4bc35ff8a6074a6f2e91616a996b547c36f15
		<tag k="natural" v="wetland" />
		<tag k="ssr:stedsnr" v="478996" />
	</node>
<<<<<<< HEAD
	<node lat="68.61893610953099" lon="17.205719434917874" id="-37374">
		<tag k="historic" v="shieling" />
		<tag k="name" v="Várevuolli - Nova" />
		<tag k="name:no" v="Nova" />
		<tag k="name:se" v="Várevuolli" />
		<tag k="place" v="locality" />
		<tag k="ssr:stedsnr" v="383906" />
	</node>
	<node lat="68.63496944436349" lon="17.22888333112813" id="-37388">
		<tag k="name" v="Kåvbergmyren" />
		<tag k="name:no" v="Kåvbergmyren" />
=======
	<node id="-852611" lat="68.5916638922" lon="16.1979500116">
		<tag k="name" v="Vollan - Bávttogieddi" />
		<tag k="name:no" v="Vollan" />
		<tag k="name:se" v="Bávttogieddi" />
		<tag k="place" v="locality" />
		<tag k="ssr:stedsnr" v="511004" />
	</node>
	<node id="-852097" lat="68.5529833353" lon="16.6579500103">
		<tag k="name" v="Høgbergmyra" />
		<tag k="natural" v="wetland" />
		<tag k="ssr:stedsnr" v="54202" />
	</node>
	<node id="-854653" lat="68.4232722189" lon="16.1531694422">
		<tag k="name" v="Skjolmyra" />
		<tag k="natural" v="wetland" />
		<tag k="ssr:stedsnr" v="816480" />
	</node>
	<node id="-854652" lat="68.4471222211" lon="16.4462888761">
		<tag k="name" v="Gårdselvmyra" />
>>>>>>> e1d4bc35ff8a6074a6f2e91616a996b547c36f15
		<tag k="natural" v="wetland" />
		<tag k="ssr:stedsnr" v="385015" />
	</node>
<<<<<<< HEAD
	<node lat="68.56897222444292" lon="16.426608345241316" id="-37399">
		<tag k="name" v="Stormyra" />
		<tag k="name:no" v="Stormyra" />
=======
	<node id="-854651" lat="68.4367194461" lon="16.3401555547">
		<tag k="name" v="Mølnmyra" />
>>>>>>> e1d4bc35ff8a6074a6f2e91616a996b547c36f15
		<tag k="natural" v="wetland" />
		<tag k="ssr:stedsnr" v="389695" />
	</node>
<<<<<<< HEAD
	<node lat="68.46854166360595" lon="16.46412500996525" id="-37413">
		<tag k="name" v="Kvitberghagen" />
		<tag k="name:no" v="Kvitberghagen" />
		<tag k="natural" v="wetland" />
		<tag k="ssr:stedsnr" v="391390" />
	</node>
	<node lat="68.5459805523201" lon="16.19544721644811" id="-37423">
		<tag k="name" v="Hyssteinen" />
		<tag k="name:no" v="Hyssteinen" />
		<tag k="natural" v="stone" />
		<tag k="ssr:stedsnr" v="394680" />
	</node>
	<node lat="68.57481944128767" lon="16.24003888576911" id="-37424">
		<tag k="name" v="Bærmyra" />
		<tag k="name:no" v="Bærmyra" />
		<tag k="natural" v="wetland" />
		<tag k="ssr:stedsnr" v="405942" />
	</node>
	<node lat="68.63329999715265" lon="17.159963877559182" id="-37434">
=======
	<node id="-854138" lat="68.6517722263" lon="16.7697305481">
		<tag k="name" v="Tverrlandsmyra" />
		<tag k="natural" v="wetland" />
		<tag k="ssr:stedsnr" v="418969" />
	</node>
	<node id="-852671" lat="68.6715888886" lon="17.0162333289">
		<tag k="name" v="Blautmyra" />
		<tag k="natural" v="wetland" />
		<tag k="ssr:stedsnr" v="660889" />
	</node>
	<node id="-854647" lat="68.421069444" lon="16.1136361022">
		<tag k="name" v="Storsteinvollen" />
		<tag k="place" v="locality" />
		<tag k="ssr:stedsnr" v="816477" />
	</node>
	<node id="-852598" lat="68.5446305552" lon="16.1364749983">
		<tag k="name" v="Olderskogen" />
		<tag k="place" v="locality" />
		<tag k="ssr:stedsnr" v="509698" />
	</node>
	<node id="-854644" lat="68.4412555555" lon="16.1407138992">
		<tag k="name" v="Tjukkvian" />
		<tag k="place" v="locality" />
		<tag k="ssr:stedsnr" v="816347" />
	</node>
	<node id="-852705" lat="68.5425638904" lon="16.6896499893">
		<tag k="name" v="Moltebærmyra" />
		<tag k="natural" v="wetland" />
		<tag k="ssr:stedsnr" v="478015" />
	</node>
	<node id="-854127" lat="68.6332999972" lon="17.1599638776">
>>>>>>> e1d4bc35ff8a6074a6f2e91616a996b547c36f15
		<tag k="name" v="Labergsholtan" />
		<tag k="name:no" v="Labergsholtan" />
		<tag k="place" v="locality" />
		<tag k="ssr:stedsnr" v="418588" />
	</node>
<<<<<<< HEAD
	<node lat="68.67799722308648" lon="16.977413880553165" id="-37436">
		<tag k="name" v="Stimyra" />
		<tag k="name:no" v="Stimyra" />
		<tag k="natural" v="wetland" />
		<tag k="ssr:stedsnr" v="418896" />
	</node>
	<node lat="68.59963333344183" lon="17.419891652845184" id="-37441">
		<tag k="name" v="Šleađđujoavva" />
		<tag k="name:se" v="Šleađđujoavva" />
		<tag k="natural" v="scree" />
		<tag k="ssr:stedsnr" v="492219" />
	</node>
	<node lat="68.45073333390941" lon="16.159697220822913" id="-37444">
		<tag k="alt_name:no" v="Olsli-myra" />
		<tag k="name" v="Olslimyra" />
		<tag k="name:no" v="Olslimyra" />
=======
	<node id="-852077" lat="68.6832277766" lon="16.9813527883">
		<tag k="name" v="Mellafuruholtet" />
		<tag k="place" v="locality" />
		<tag k="ssr:stedsnr" v="235667" />
	</node>
	<node id="-854633" lat="68.5172333324" lon="16.2102527883">
		<tag k="name" v="Kvernhusmyra" />
>>>>>>> e1d4bc35ff8a6074a6f2e91616a996b547c36f15
		<tag k="natural" v="wetland" />
		<tag k="ssr:stedsnr" v="441199" />
	</node>
<<<<<<< HEAD
	<node lat="68.60575277620109" lon="16.802549986635334" id="-37451">
		<tag k="name" v="Stormyra" />
		<tag k="name:no" v="Stormyra" />
		<tag k="natural" v="wetland" />
		<tag k="ssr:stedsnr" v="444186" />
	</node>
	<node lat="68.51098055359289" lon="16.623594437399774" id="-37490">
		<tag k="name" v="Høgåsmyra" />
		<tag k="name:no" v="Høgåsmyra" />
=======
	<node id="-853847" lat="68.6954861133" lon="17.1122777869">
		<tag k="name" v="Nilsjordet" />
		<tag k="place" v="locality" />
		<tag k="ssr:stedsnr" v="212475" />
	</node>
	<node id="-854113" lat="68.5748194413" lon="16.2400388858">
		<tag k="name" v="Bærmyra" />
>>>>>>> e1d4bc35ff8a6074a6f2e91616a996b547c36f15
		<tag k="natural" v="wetland" />
		<tag k="ssr:stedsnr" v="478007" />
	</node>
<<<<<<< HEAD
	<node lat="68.54256389041991" lon="16.689649989255326" id="-37493">
		<tag k="name" v="Moltebærmyra" />
		<tag k="name:no" v="Moltebærmyra" />
		<tag k="natural" v="wetland" />
		<tag k="ssr:stedsnr" v="478015" />
	</node>
	<node lat="68.57764444034464" lon="16.63871110631779" id="-37494">
		<tag k="name" v="Møllemyrene" />
		<tag k="name:no" v="Møllemyrene" />
		<tag k="natural" v="wetland" />
		<tag k="ssr:stedsnr" v="478205" />
	</node>
	<node lat="68.59804444113047" lon="16.587241660826123" id="-37496">
		<tag k="name" v="Øverlandsmyra" />
		<tag k="name:no" v="Øverlandsmyra" />
=======
	<node id="-854624" lat="68.5482749976" lon="16.3791527693">
		<tag k="name" v="Verselmyra" />
		<tag k="natural" v="wetland" />
		<tag k="ssr:stedsnr" v="813969" />
	</node>
	<node id="-854623" lat="68.5464444488" lon="16.3520333269">
		<tag k="name" v="Blautmyra" />
		<tag k="natural" v="wetland" />
		<tag k="ssr:stedsnr" v="813874" />
	</node>
	<node id="-854109" lat="68.5459055577" lon="16.1335500099">
		<tag k="name" v="Liksteinen" />
		<tag k="natural" v="stone" />
		<tag k="ssr:stedsnr" v="394661" />
	</node>
	<node id="-852086" lat="68.6687333294" lon="16.7743500023">
		<tag k="name" v="Bergmyra" />
		<tag k="natural" v="wetland" />
		<tag k="ssr:stedsnr" v="235971" />
	</node>
	<node id="-852057" lat="68.3992055577" lon="16.1266722128">
		<tag k="name" v="Tinghågmyra" />
>>>>>>> e1d4bc35ff8a6074a6f2e91616a996b547c36f15
		<tag k="natural" v="wetland" />
		<tag k="ssr:stedsnr" v="478821" />
	</node>
<<<<<<< HEAD
	<node lat="68.66399444745748" lon="16.828397218585007" id="-37502">
		<tag k="name" v="Bakåsmyran" />
		<tag k="name:no" v="Bakåsmyran" />
		<tag k="natural" v="wetland" />
		<tag k="ssr:stedsnr" v="478970" />
	</node>
	<node lat="68.60168333667626" lon="16.21204443825683" id="-37517">
		<tag k="alt_name:no" v="Kvannto" />
		<tag k="name" v="Kvanntomyran" />
		<tag k="name:no" v="Kvanntomyran" />
=======
	<node id="-854104" lat="68.4420333307" lon="16.4592416739">
		<tag k="name" v="Silsandvikmyra" />
		<tag k="natural" v="wetland" />
		<tag k="ssr:stedsnr" v="391874" />
	</node>
	<node id="-854103" lat="68.4394638865" lon="16.4560916565">
		<tag k="name" v="Langstrandmyra" />
>>>>>>> e1d4bc35ff8a6074a6f2e91616a996b547c36f15
		<tag k="natural" v="wetland" />
		<tag k="ssr:stedsnr" v="503780" />
	</node>
<<<<<<< HEAD
	<node lat="68.59166389224673" lon="16.1979500115814" id="-37543">
		<tag k="name" v="Bávttogieddi - Vollan" />
		<tag k="name:no" v="Vollan" />
		<tag k="name:se" v="Bávttogieddi" />
=======
	<node id="-854102" lat="68.4272444466" lon="16.4293305609">
		<tag k="name" v="Rødsteinskogen" />
>>>>>>> e1d4bc35ff8a6074a6f2e91616a996b547c36f15
		<tag k="place" v="locality" />
		<tag k="ssr:stedsnr" v="511004" />
	</node>
<<<<<<< HEAD
	<node lat="68.46834444258205" lon="16.51311111827267" id="-37550">
		<tag k="name" v="Storekra" />
		<tag k="name:no" v="Storekra" />
		<tag k="place" v="locality" />
		<tag k="ssr:stedsnr" v="512368" />
	</node>
	<node lat="68.4271750004227" lon="16.139522219574825" id="-37553">
		<tag k="name" v="Kuhola" />
		<tag k="name:no" v="Kuhola" />
=======
	<node id="-853589" lat="68.6939166642" lon="16.9204249896">
		<tag k="name" v="Elveøra" />
		<tag k="place" v="locality" />
		<tag k="ssr:stedsnr" v="114591" />
	</node>
	<node id="-853076" lat="68.6199444423" lon="17.2272166584">
		<tag k="name" v="Boarrejuovva" />
		<tag k="name:se" v="Boarrejuovva" />
		<tag k="natural" v="scree" />
		<tag k="ssr:stedsnr" v="749005" />
	</node>
	<node id="-853586" lat="68.6429805516" lon="17.2073249959">
		<tag k="name" v="Sandveimyren" />
>>>>>>> e1d4bc35ff8a6074a6f2e91616a996b547c36f15
		<tag k="natural" v="wetland" />
		<tag k="ssr:stedsnr" v="512385" />
	</node>
<<<<<<< HEAD
	<node lat="68.42557777592346" lon="16.426758337155853" id="-37561">
		<tag k="name" v="Rødsteinen" />
		<tag k="name:no" v="Rødsteinen" />
		<tag k="natural" v="stone" />
		<tag k="ssr:stedsnr" v="512725" />
	</node>
	<node lat="68.42374999574767" lon="16.346633333429686" id="-37562">
		<tag k="name" v="Gammtofta" />
		<tag k="name:no" v="Gammtofta" />
		<tag k="natural" v="stone" />
		<tag k="ssr:stedsnr" v="512768" />
	</node>
	<node lat="68.51448332998845" lon="16.62335554625342" id="-37584">
		<tag k="name" v="Tømmermyra" />
		<tag k="name:no" v="Tømmermyra" />
=======
	<node id="-853585" lat="68.5847583342" lon="16.6716583228">
		<tag k="name" v="Lille Kistemyra" />
		<tag k="natural" v="wetland" />
		<tag k="ssr:stedsnr" v="114200" />
	</node>
	<node id="-853584" lat="68.5909027793" lon="16.6689000111">
		<tag k="name" v="Vakmamyr" />
>>>>>>> e1d4bc35ff8a6074a6f2e91616a996b547c36f15
		<tag k="natural" v="wetland" />
		<tag k="ssr:stedsnr" v="539009" />
	</node>
<<<<<<< HEAD
	<node lat="68.58935277994532" lon="16.639588888565466" id="-37587">
		<tag k="name" v="Purkemyra" />
		<tag k="name:no" v="Purkemyra" />
		<tag k="natural" v="wetland" />
		<tag k="ssr:stedsnr" v="539212" />
	</node>
	<node lat="68.63403611486474" lon="16.68076667035044" id="-37601">
		<tag k="name" v="Furumarka" />
		<tag k="name:no" v="Furumarka" />
		<tag k="place" v="locality" />
		<tag k="ssr:stedsnr" v="687009" />
	</node>
	<node lat="68.55024166557014" lon="16.363897228407243" id="-37616">
		<tag k="name" v="Torvmyra" />
		<tag k="name:no" v="Torvmyra" />
		<tag k="natural" v="wetland" />
		<tag k="ssr:stedsnr" v="687854" />
	</node>
	<node lat="68.41985833660324" lon="16.102597230248133" id="-37636">
		<tag k="name" v="Dikemyra" />
		<tag k="name:no" v="Dikemyra" />
=======
	<node id="-854095" lat="68.4246611115" lon="16.4193722277">
		<tag k="name" v="Strandåkeren" />
		<tag k="place" v="locality" />
		<tag k="ssr:stedsnr" v="391723" />
	</node>
	<node id="-852056" lat="68.4101611105" lon="16.2324444532">
		<tag k="name" v="Skjærjorda" />
		<tag k="place" v="locality" />
		<tag k="ssr:stedsnr" v="27427" />
	</node>
	<node id="-852043" lat="68.4455249958" lon="16.1758055506">
		<tag k="name" v="Vonnasteinen" />
		<tag k="natural" v="stone" />
		<tag k="ssr:stedsnr" v="24641" />
	</node>
	<node id="-852407" lat="68.430477777" lon="16.3995888897">
		<tag k="name" v="Kveldskogen" />
		<tag k="place" v="locality" />
		<tag k="ssr:stedsnr" v="452589" />
	</node>
	<node id="-854600" lat="68.548416662" lon="16.7418194515">
		<tag k="name" v="Stormyra" />
>>>>>>> e1d4bc35ff8a6074a6f2e91616a996b547c36f15
		<tag k="natural" v="wetland" />
		<tag k="ssr:stedsnr" v="695656" />
	</node>
<<<<<<< HEAD
	<node lat="68.54875277680348" lon="16.133300008405396" id="-37637">
		<tag k="name" v="Urteigen" />
		<tag k="name:no" v="Urteigen" />
		<tag k="place" v="locality" />
		<tag k="ssr:stedsnr" v="692497" />
	</node>
	<node lat="68.55329999964431" lon="16.368013882904016" id="-37639">
		<tag k="name" v="Fjøsåkerrompa" />
		<tag k="name:no" v="Fjøsåkerrompa" />
		<tag k="place" v="locality" />
		<tag k="ssr:stedsnr" v="692099" />
	</node>
	<node lat="68.43926944099151" lon="16.16627500099719" id="-37688">
		<tag k="name" v="Forskogen" />
		<tag k="name:no" v="Forskogen" />
		<tag k="place" v="locality" />
		<tag k="ssr:stedsnr" v="694294" />
	</node>
	<node lat="68.40613889213328" lon="16.208244446635717" id="-37694">
		<tag k="name" v="Jeriko" />
		<tag k="name:no" v="Jeriko" />
=======
	<node id="-852236" lat="68.432041664" lon="16.135558343">
		<tag k="name" v="Kjempegrava" />
		<tag k="natural" v="scree" />
		<tag k="ssr:stedsnr" v="148356" />
	</node>
	<node id="-852550" lat="68.6016833367" lon="16.2120444383">
		<tag k="alt_name" v="Kvannto" />
		<tag k="name" v="Kvanntomyran" />
		<tag k="natural" v="wetland" />
		<tag k="ssr:stedsnr" v="503780" />
	</node>
	<node id="-853601" lat="68.6554138895" lon="16.8260972162">
		<tag k="name" v="Kvithammarmyra" />
		<tag k="natural" v="wetland" />
		<tag k="ssr:stedsnr" v="114996" />
	</node>
	<node id="-853059" lat="68.6575527808" lon="16.7433666766">
		<tag k="name" v="Bjørnåsmyran" />
		<tag k="natural" v="wetland" />
		<tag k="ssr:stedsnr" v="903983" />
	</node>
	<node id="-853057" lat="68.6427166692" lon="16.7124083276">
		<tag k="name" v="Forremarka" />
>>>>>>> e1d4bc35ff8a6074a6f2e91616a996b547c36f15
		<tag k="place" v="locality" />
		<tag k="ssr:stedsnr" v="694395" />
	</node>
<<<<<<< HEAD
	<node lat="68.39765555821727" lon="16.142927786319436" id="-37695">
		<tag k="name" v="Jærmoan" />
		<tag k="name:no" v="Jærmoan" />
=======
	<node id="-853052" lat="68.5685861082" lon="16.7349749899">
		<tag k="name" v="Torvmyra" />
>>>>>>> e1d4bc35ff8a6074a6f2e91616a996b547c36f15
		<tag k="natural" v="wetland" />
		<tag k="ssr:stedsnr" v="694401" />
	</node>
<<<<<<< HEAD
	<node lat="68.5730972204857" lon="16.375269432175127" id="-37705">
		<tag k="name" v="Svartrota" />
		<tag k="name:no" v="Svartrota" />
		<tag k="natural" v="scree" />
		<tag k="ssr:stedsnr" v="585849" />
	</node>
	<node lat="68.6781333361091" lon="16.921263880156676" id="-37718">
		<tag k="name" v="Fjellmyra" />
		<tag k="name:no" v="Fjellmyra" />
		<tag k="natural" v="wetland" />
		<tag k="ssr:stedsnr" v="599902" />
	</node>
	<node lat="68.58680000093081" lon="16.61758888674806" id="-37726">
		<tag k="name" v="Skånlandsmarka" />
		<tag k="name:no" v="Skånlandsmarka" />
		<tag k="place" v="locality" />
		<tag k="ssr:stedsnr" v="626202" />
	</node>
	<node lat="68.5508388862559" lon="16.54860000199039" id="-37740">
		<tag k="name" v="Trollbergmyra" />
		<tag k="name:no" v="Trollbergmyra" />
		<tag k="natural" v="wetland" />
		<tag k="ssr:stedsnr" v="631482" />
	</node>
	<node lat="68.46927777872065" lon="16.502258321599033" id="-37749">
		<tag k="name" v="Torvskjåmyra" />
		<tag k="name:no" v="Torvskjåmyra" />
		<tag k="natural" v="wetland" />
		<tag k="ssr:stedsnr" v="633379" />
	</node>
	<node lat="68.47038611225527" lon="16.504755563795353" id="-37750">
=======
	<node id="-854111" lat="68.5459805523" lon="16.1954472164">
		<tag k="name" v="Hyssteinen" />
		<tag k="natural" v="stone" />
		<tag k="ssr:stedsnr" v="394680" />
	</node>
	<node id="-854068" lat="68.5689722244" lon="16.4266083452">
>>>>>>> e1d4bc35ff8a6074a6f2e91616a996b547c36f15
		<tag k="name" v="Stormyra" />
		<tag k="name:no" v="Stormyra" />
		<tag k="natural" v="wetland" />
		<tag k="ssr:stedsnr" v="633380" />
	</node>
<<<<<<< HEAD
	<node lat="68.46987222537454" lon="16.514599988804353" id="-37751">
=======
	<node id="-853555" lat="68.4565583326" lon="16.3762916666">
>>>>>>> e1d4bc35ff8a6074a6f2e91616a996b547c36f15
		<tag k="landuse" v="meadow" />
		<tag k="name" v="Bryggåkeren" />
		<tag k="name:no" v="Bryggåkeren" />
		<tag k="ssr:stedsnr" v="633386" />
	</node>
<<<<<<< HEAD
	<node lat="68.57998055273154" lon="16.20491111787161" id="-37766">
		<tag k="name" v="Storbærmyra" />
		<tag k="name:no" v="Storbærmyra" />
		<tag k="natural" v="wetland" />
		<tag k="ssr:stedsnr" v="647948" />
	</node>
	<node lat="68.64120833572208" lon="17.207544447455064" id="-37770">
		<tag k="name" v="Barkebergmyren" />
		<tag k="name:no" v="Barkebergmyren" />
=======
	<node id="-852659" lat="68.5725249969" lon="16.6254333305">
		<tag k="name" v="Breimyra" />
		<tag k="natural" v="wetland" />
		<tag k="ssr:stedsnr" v="660188" />
	</node>
	<node id="-854135" lat="68.6779972231" lon="16.9774138806">
		<tag k="name" v="Stimyra" />
		<tag k="natural" v="wetland" />
		<tag k="ssr:stedsnr" v="418896" />
	</node>
	<node id="-853549" lat="68.4944694447" lon="16.4749749885">
		<tag k="name" v="Mellomslåttene" />
>>>>>>> e1d4bc35ff8a6074a6f2e91616a996b547c36f15
		<tag k="natural" v="wetland" />
		<tag k="ssr:stedsnr" v="660298" />
	</node>
<<<<<<< HEAD
	<node lat="68.57252499690127" lon="16.625433330502307" id="-37771">
		<tag k="name" v="Breimyra" />
		<tag k="name:no" v="Breimyra" />
		<tag k="natural" v="wetland" />
		<tag k="ssr:stedsnr" v="660188" />
	</node>
	<node lat="68.64326110914475" lon="17.07059999500969" id="-37772">
		<tag k="name" v="Lappegammyra" />
		<tag k="name:no" v="Lappegammyra" />
		<tag k="natural" v="wetland" />
		<tag k="ssr:stedsnr" v="660695" />
	</node>
	<node lat="68.64138333206121" lon="17.06422222374689" id="-37773">
		<tag k="name" v="Stordalsmyra" />
		<tag k="name:no" v="Stordalsmyra" />
=======
	<node id="-853546" lat="68.4687305575" lon="16.5136416688">
		<tag k="name" v="Gammelgården" />
		<tag k="place" v="locality" />
		<tag k="ssr:stedsnr" v="88300" />
	</node>
	<node id="-853028" lat="68.5161861104" lon="16.6792055569">
		<tag k="name" v="Tomasmyra" />
>>>>>>> e1d4bc35ff8a6074a6f2e91616a996b547c36f15
		<tag k="natural" v="wetland" />
		<tag k="ssr:stedsnr" v="660696" />
	</node>
<<<<<<< HEAD
	<node lat="68.67158888863086" lon="17.016233328932007" id="-37778">
		<tag k="name" v="Blautmyra" />
		<tag k="name:no" v="Blautmyra" />
		<tag k="natural" v="wetland" />
		<tag k="ssr:stedsnr" v="660889" />
	</node>
	<node lat="68.50728611515767" lon="16.542949995549186" id="-37806">
		<tag k="name" v="Svartvassmyran" />
		<tag k="name:no" v="Svartvassmyran" />
		<tag k="natural" v="wetland" />
		<tag k="ssr:stedsnr" v="687942" />
	</node>
	<node lat="68.5161861103929" lon="16.679205556896065" id="-37832">
		<tag k="name" v="Tomasmyra" />
		<tag k="name:no" v="Tomasmyra" />
=======
	<node id="-853254" lat="68.5279027755" lon="16.4444583243">
		<tag k="name" v="Rostemyra" />
		<tag k="natural" v="wetland" />
		<tag k="ssr:stedsnr" v="876018" />
	</node>
	<node id="-852827" lat="68.5532999996" lon="16.3680138829">
		<tag k="name" v="Fjøsåkerrompa" />
		<tag k="place" v="locality" />
		<tag k="ssr:stedsnr" v="692099" />
	</node>
	<node id="-852511" lat="68.6307500024" lon="17.2555027752">
		<tag k="name" v="Stormyra" />
>>>>>>> e1d4bc35ff8a6074a6f2e91616a996b547c36f15
		<tag k="natural" v="wetland" />
		<tag k="ssr:stedsnr" v="721004" />
	</node>
<<<<<<< HEAD
	<node lat="68.66017777566788" lon="16.810349989631884" id="-37850">
		<tag k="name" v="Ytre Hestmyra" />
		<tag k="name:no" v="Ytre Hestmyra" />
		<tag k="natural" v="wetland" />
		<tag k="ssr:stedsnr" v="903966" />
	</node>
	<node lat="68.65755278076388" lon="16.743366676607213" id="-37876">
		<tag k="name" v="Bjørnåsmyran" />
		<tag k="name:no" v="Bjørnåsmyran" />
=======
	<node id="-854557" lat="68.6464527794" lon="16.784747226">
		<tag k="name" v="Stimyran" />
>>>>>>> e1d4bc35ff8a6074a6f2e91616a996b547c36f15
		<tag k="natural" v="wetland" />
		<tag k="ssr:stedsnr" v="903983" />
	</node>
<<<<<<< HEAD
	<node lat="68.61994444233211" lon="17.227216658365897" id="-37891">
		<tag k="name" v="Boarrejuovva" />
		<tag k="name:se" v="Boarrejuovva" />
		<tag k="natural" v="scree" />
		<tag k="ssr:stedsnr" v="749005" />
	</node>
	<node lat="68.43586111358601" lon="16.13735832828564" id="-37911">
		<tag k="name" v="Gammelgården" />
		<tag k="name:no" v="Gammelgården" />
		<tag k="place" v="locality" />
		<tag k="ssr:stedsnr" v="755348" />
	</node>
	<node lat="68.54024722473167" lon="16.176550007195477" id="-37921">
		<tag k="name" v="Dalteigen" />
		<tag k="name:no" v="Dalteigen" />
		<tag k="place" v="locality" />
		<tag k="ssr:stedsnr" v="767925" />
	</node>
	<node lat="68.65062778162462" lon="17.19345000223839" id="-37961">
		<tag k="name" v="Updáljuovva" />
		<tag k="name:se" v="Updáljuovva" />
		<tag k="natural" v="scree" />
		<tag k="ssr:stedsnr" v="815323" />
	</node>
	<node lat="68.56645555983292" lon="16.28573888462767" id="-37964">
		<tag k="name" v="Myran" />
		<tag k="name:no" v="Myran" />
=======
	<node id="-854015" lat="68.5623666695" lon="16.7121638777">
		<tag k="fixme" v="multiple name tags, choose one and add the other to alt_name" />
		<tag k="name" v="Ginnmyra;Grindmyra" />
		<tag k="natural" v="wetland" />
		<tag k="ssr:stedsnr" v="383841" />
	</node>
	<node id="-854043" lat="68.6349694444" lon="17.2288833311">
		<tag k="name" v="Kåvbergmyren" />
		<tag k="natural" v="wetland" />
		<tag k="ssr:stedsnr" v="385015" />
	</node>
	<node id="-854040" lat="68.5418166666" lon="16.3579305587">
		<tag k="name" v="Langmyra" />
		<tag k="natural" v="wetland" />
		<tag k="ssr:stedsnr" v="384839" />
	</node>
	<node id="-853015" lat="68.4198583366" lon="16.1025972302">
		<tag k="name" v="Dikemyra" />
>>>>>>> e1d4bc35ff8a6074a6f2e91616a996b547c36f15
		<tag k="natural" v="wetland" />
		<tag k="ssr:stedsnr" v="816103" />
	</node>
<<<<<<< HEAD
	<node lat="68.42615000107737" lon="16.128933341577046" id="-37966">
		<tag k="name" v="Langmyra" />
		<tag k="name:no" v="Langmyra" />
=======
	<node id="-854034" lat="68.5177416697" lon="16.590272225">
		<tag k="name" v="Fjellmyra" />
>>>>>>> e1d4bc35ff8a6074a6f2e91616a996b547c36f15
		<tag k="natural" v="wetland" />
		<tag k="ssr:stedsnr" v="816375" />
	</node>
<<<<<<< HEAD
	<node lat="68.42106944400368" lon="16.113636102235805" id="-37971">
		<tag k="name" v="Storsteinvollen" />
		<tag k="name:no" v="Storsteinvollen" />
=======
	<node id="-853520" lat="68.5538472236" lon="16.3539888972">
		<tag k="name" v="Amaliehagen" />
>>>>>>> e1d4bc35ff8a6074a6f2e91616a996b547c36f15
		<tag k="place" v="locality" />
		<tag k="ssr:stedsnr" v="816477" />
	</node>
<<<<<<< HEAD
	<node lat="68.42327221890221" lon="16.15316944224481" id="-37972">
		<tag k="name" v="Skjolmyra" />
		<tag k="name:no" v="Skjolmyra" />
=======
	<node id="-852495" lat="68.5237888916" lon="16.4442222289">
		<tag k="name" v="Bjønnstimyra" />
>>>>>>> e1d4bc35ff8a6074a6f2e91616a996b547c36f15
		<tag k="natural" v="wetland" />
		<tag k="ssr:stedsnr" v="816480" />
	</node>
<<<<<<< HEAD
	<node lat="68.43671944605823" lon="16.340155554696103" id="-37978">
		<tag k="name" v="Mølnmyra" />
		<tag k="name:no" v="Mølnmyra" />
		<tag k="natural" v="wetland" />
		<tag k="ssr:stedsnr" v="816784" />
	</node>
	<node lat="68.55744444783551" lon="16.11439721676581" id="-37984">
		<tag k="name" v="Åsteigen" />
		<tag k="name:no" v="Åsteigen" />
=======
	<node id="-853518" lat="68.5534861101" lon="16.3792305655">
		<tag k="name" v="Kalvgjerdskogen" />
>>>>>>> e1d4bc35ff8a6074a6f2e91616a996b547c36f15
		<tag k="place" v="locality" />
		<tag k="ssr:stedsnr" v="830832" />
	</node>
<<<<<<< HEAD
	<node lat="68.63852222204126" lon="17.21806112024392" id="-37992">
		<tag k="name" v="Kåvhøgmyren" />
		<tag k="name:no" v="Kåvhøgmyren" />
		<tag k="natural" v="wetland" />
		<tag k="ssr:stedsnr" v="843287" />
	</node>
	<node lat="68.65863888632676" lon="16.81670276598815" id="-37995">
		<tag k="name" v="Nordlislettmyra" />
		<tag k="name:no" v="Nordlislettmyra" />
=======
	<node id="-854538" lat="68.6968027758" lon="16.9418916614">
		<tag k="name" v="Øvre-Kaldbekkmyr" />
>>>>>>> e1d4bc35ff8a6074a6f2e91616a996b547c36f15
		<tag k="natural" v="wetland" />
		<tag k="ssr:stedsnr" v="844000" />
	</node>
<<<<<<< HEAD
	<node lat="68.58512777739455" lon="17.47388332081109" id="-38005">
		<tag k="name" v="Maridalsmyran" />
		<tag k="name:no" v="Maridalsmyran" />
=======
	<node id="-854537" lat="68.5722194426" lon="16.6630972141">
		<tag k="name" v="Larsemyra" />
>>>>>>> e1d4bc35ff8a6074a6f2e91616a996b547c36f15
		<tag k="natural" v="wetland" />
		<tag k="ssr:stedsnr" v="928492" />
	</node>
<<<<<<< HEAD
	<node lat="68.57900000244082" lon="16.6275694339216" id="-38026">
		<tag k="name" v="Stormyra" />
		<tag k="name:no" v="Stormyra" />
		<tag k="natural" v="wetland" />
		<tag k="ssr:stedsnr" v="870179" />
	</node>
	<node lat="68.53745278117736" lon="16.415261120454126" id="-38057">
		<tag k="name" v="Limyra" />
		<tag k="name:no" v="Limyra" />
		<tag k="natural" v="wetland" />
		<tag k="ssr:stedsnr" v="875725" />
	</node>
	<node lat="68.5279027755271" lon="16.44445832427477" id="-38062">
		<tag k="name" v="Rostemyra" />
		<tag k="name:no" v="Rostemyra" />
		<tag k="natural" v="wetland" />
		<tag k="ssr:stedsnr" v="876018" />
	</node>
	<node lat="68.47327777481948" lon="16.472799997175777" id="-38065">
		<tag k="name" v="Storura" />
		<tag k="name:no" v="Storura" />
		<tag k="natural" v="scree" />
		<tag k="ssr:stedsnr" v="876353" />
	</node>
	<node lat="68.40320832917676" lon="16.197772220256578" id="-38069">
		<tag k="name" v="Pålen" />
		<tag k="name:no" v="Pålen" />
		<tag k="natural" v="stone" />
		<tag k="ssr:stedsnr" v="876410" />
	</node>
	<node lat="68.42422222484153" lon="16.165197224957385" id="-38070">
		<tag k="name" v="Galtmyra" />
		<tag k="name:no" v="Galtmyra" />
		<tag k="natural" v="wetland" />
		<tag k="ssr:stedsnr" v="876459" />
	</node>
	<node lat="68.44815278120265" lon="16.44958611837631" id="-38072">
		<tag k="name" v="Stuflota" />
		<tag k="name:no" v="Stuflota" />
		<tag k="place" v="locality" />
		<tag k="ssr:stedsnr" v="876660" />
=======
	<node id="-852486" lat="68.6496027762" lon="16.8225444388">
		<tag k="name" v="Lamyra" />
		<tag k="natural" v="wetland" />
		<tag k="ssr:stedsnr" v="478996" />
	</node>
	<node id="-852996" lat="68.6340361149" lon="16.6807666704">
		<tag k="name" v="Furumarka" />
		<tag k="place" v="locality" />
		<tag k="ssr:stedsnr" v="687009" />
	</node>
	<node id="-852923" lat="68.6560583362" lon="16.9566833257">
		<tag k="name" v="Fjellmyra" />
		<tag k="natural" v="wetland" />
		<tag k="ssr:stedsnr" v="721925" />
>>>>>>> e1d4bc35ff8a6074a6f2e91616a996b547c36f15
	</node>
</osm>
