<?xml version="1.0" encoding="UTF-8"?>
<osm version="0.6" generator="osmapis">
	<node lat="68.41389444474169" lon="16.07901110023182" id="-36836">
		<tag k="name" v="Andklakkan" />
		<tag k="name:no" v="Andklakkan" />
		<tag k="natural" v="cape" />
		<tag k="ssr:stedsnr" v="17316" />
	</node>
	<node lat="68.55620555307131" lon="16.337416655081206" id="-36850">
		<tag k="name" v="Hovsneset" />
		<tag k="name:no" v="Hovsneset" />
		<tag k="natural" v="cape" />
		<tag k="ssr:stedsnr" v="20839" />
	</node>
	<node lat="68.68915000256868" lon="16.8424666583075" id="-36855">
		<tag k="alt_name:no" v="Tovikskjær" />
		<tag k="name" v="Tovikskjeret" />
		<tag k="name:no" v="Tovikskjeret" />
		<tag k="natural" v="cape" />
		<tag k="ssr:stedsnr" v="20991" />
	</node>
	<node lat="68.66009166976063" lon="17.124211105069506" id="-36856">
		<tag k="alt_name:no" v="Furøya;Forrøya" />
		<tag k="name" v="Forøya" />
		<tag k="name:no" v="Forøya" />
		<tag k="place" v="islet" />
		<tag k="ssr:stedsnr" v="20992" />
	</node>
	<node lat="68.45219999781777" lon="16.12225556265828" id="-36858">
		<tag k="name" v="Vika" />
		<tag k="name:no" v="Vika" />
		<tag k="natural" v="bay" />
		<tag k="ssr:stedsnr" v="24709" />
	</node>
	<node lat="68.45040000376397" lon="16.14463055226307" id="-36859">
		<tag k="name" v="Skarstranda" />
		<tag k="name:no" v="Skarstranda" />
		<tag k="natural" v="beach" />
		<tag k="ssr:stedsnr" v="24676" />
	</node>
	<node lat="68.44849166830373" lon="16.14498610600914" id="-36860">
		<tag k="name" v="Blåskjærstranda" />
		<tag k="name:no" v="Blåskjærstranda" />
		<tag k="natural" v="beach" />
		<tag k="ssr:stedsnr" v="24678" />
	</node>
	<node lat="68.54053888668189" lon="16.473836116921536" id="-36865">
		<tag k="name" v="Osen" />
		<tag k="name:no" v="Osen" />
		<tag k="natural" v="bay" />
		<tag k="ssr:stedsnr" v="25687" />
	</node>
	<node lat="68.4989305563099" lon="16.156400006416423" id="-36867">
		<tag k="name" v="Attenholmen" />
		<tag k="name:no" v="Attenholmen" />
		<tag k="place" v="islet" />
		<tag k="ssr:stedsnr" v="26001" />
	</node>
	<node lat="68.49363611044768" lon="16.147311105065985" id="-36868">
		<tag k="name" v="Mellomstranda" />
		<tag k="name:no" v="Mellomstranda" />
		<tag k="natural" v="beach" />
		<tag k="ssr:stedsnr" v="26026" />
	</node>
	<node lat="68.51031110956905" lon="16.440549989503236" id="-36869">
		<tag k="name" v="Finneset" />
		<tag k="name:no" v="Finneset" />
		<tag k="natural" v="cape" />
		<tag k="ssr:stedsnr" v="27006" />
	</node>
	<node lat="68.42513610711192" lon="16.102236101566483" id="-36871">
		<tag k="name" v="Karvevika" />
		<tag k="name:no" v="Karvevika" />
		<tag k="natural" v="bay" />
		<tag k="ssr:stedsnr" v="27287" />
	</node>
	<node lat="68.4152472210514" lon="16.07219721137849" id="-36874">
		<tag k="name" v="Andklakkbakken" />
		<tag k="name:no" v="Andklakkbakken" />
		<tag k="natural" v="shoal" />
		<tag k="ssr:stedsnr" v="27414" />
	</node>
	<node lat="68.39516110936367" lon="16.12053054878954" id="-36876">
		<tag k="name" v="Åttringsosen" />
		<tag k="name:no" v="Åttringsosen" />
		<tag k="natural" v="bay" />
		<tag k="ssr:stedsnr" v="27520" />
	</node>
	<node lat="68.39127222213078" lon="16.10568054400674" id="-36877">
		<tag k="fixme" v="consider seamark:type=rock or natural=shoal" />
		<tag k="name" v="Kvalbaken" />
		<tag k="name:no" v="Kvalbaken" />
		<tag k="place" v="islet" />
		<tag k="ssr:stedsnr" v="27523" />
	</node>
	<node lat="68.42261110765172" lon="16.269277770791973" id="-36878">
		<tag k="name" v="Silsanden" />
		<tag k="name:no" v="Silsanden" />
		<tag k="natural" v="beach" />
		<tag k="ssr:stedsnr" v="27589" />
	</node>
	<node lat="68.4638500004508" lon="16.445547210390437" id="-36882">
		<tag k="name" v="Sommarnesgrunnen" />
		<tag k="name:no" v="Sommarnesgrunnen" />
		<tag k="natural" v="shoal" />
		<tag k="place" v="locality" />
		<tag k="ssr:stedsnr" v="27679" />
	</node>
	<node lat="68.45920833431934" lon="16.517325002579412" id="-36887">
		<tag k="name" v="Seljevika" />
		<tag k="name:no" v="Seljevika" />
		<tag k="natural" v="bay" />
		<tag k="ssr:stedsnr" v="30065" />
	</node>
	<node lat="68.56831944316045" lon="16.53257776585593" id="-36889">
		<tag k="name" v="Sandtorghella" />
		<tag k="name:no" v="Sandtorghella" />
		<tag k="natural" v="shoal" />
		<tag k="place" v="locality" />
		<tag k="ssr:stedsnr" v="30265" />
	</node>
	<node lat="68.64928888715258" lon="16.704883325403014" id="-36915">
		<tag k="name" v="Lillevika" />
		<tag k="name:no" v="Lillevika" />
		<tag k="natural" v="bay" />
		<tag k="ssr:stedsnr" v="54870" />
	</node>
	<node lat="68.44916667041132" lon="16.127925011332394" id="-36917">
		<tag k="name" v="Osen" />
		<tag k="name:no" v="Osen" />
		<tag k="natural" v="bay" />
		<tag k="ssr:stedsnr" v="77205" />
	</node>
	<node lat="68.49830358319855" lon="16.467795143138883" id="-36919">
		<tag k="name" v="Kvitsandneset" />
		<tag k="name:no" v="Kvitsandneset" />
		<tag k="natural" v="cape" />
		<tag k="ssr:stedsnr" v="78398" />
	</node>
	<node lat="68.50519167027761" lon="16.175213884371708" id="-36920">
		<tag k="alt_name:no" v="Skjettenbukta" />
		<tag k="name" v="Skittenbukta" />
		<tag k="name:no" v="Skittenbukta" />
		<tag k="natural" v="bay" />
		<tag k="ssr:stedsnr" v="78812" />
	</node>
	<node lat="68.51886389022431" lon="16.188024989321143" id="-36923">
		<tag k="name" v="Draglandsklubben" />
		<tag k="name:no" v="Draglandsklubben" />
		<tag k="natural" v="cape" />
		<tag k="ssr:stedsnr" v="78798" />
	</node>
	<node lat="68.699836112609" lon="17.043783337456013" id="-36929">
		<tag k="alt_name:no" v="Brenningsvika" />
		<tag k="fixme" v="multiple name tags, choose one and add the other to alt_name" />
		<tag k="name" v="Brennesvika;Brantingsvika" />
		<tag k="name:no" v="Brennesvika;Brantingsvika" />
		<tag k="natural" v="bay" />
		<tag k="ssr:stedsnr" v="80986" />
	</node>
	<node lat="68.68577777392304" lon="16.800880543853477" id="-36931">
		<tag k="name" v="Sandneset" />
		<tag k="name:no" v="Sandneset" />
		<tag k="natural" v="cape" />
		<tag k="ssr:stedsnr" v="81119" />
	</node>
	<node lat="68.55819444192664" lon="16.32625555790897" id="-36939">
		<tag k="name" v="Ballstadstraumen" />
		<tag k="name:no" v="Ballstadstraumen" />
		<tag k="natural" v="strait" />
		<tag k="ssr:stedsnr" v="81843" />
	</node>
	<node lat="68.54256944447049" lon="16.625016669272306" id="-36940">
		<tag k="alt_name:no" v="Breidstrandskjeret" />
		<tag k="fixme" v="consider seamark:type=rock or natural=shoal" />
		<tag k="name" v="Breistrandholmen" />
		<tag k="name:no" v="Breistrandholmen" />
		<tag k="place" v="islet" />
		<tag k="ssr:stedsnr" v="81883" />
	</node>
	<node lat="68.68718333185373" lon="17.09388056554493" id="-36944">
		<tag k="alt_name:no" v="Jørenskjeret" />
		<tag k="fixme" v="consider seamark:type=rock or natural=shoal" />
		<tag k="name" v="Jørenskjæret" />
		<tag k="name:no" v="Jørenskjæret" />
		<tag k="place" v="islet" />
		<tag k="ssr:stedsnr" v="81983" />
	</node>
	<node lat="68.71817499847228" lon="17.177852779098135" id="-36945">
		<tag k="name" v="Skávhlegáddi" />
		<tag k="name:se" v="Skávhlegáddi" />
		<tag k="natural" v="beach" />
		<tag k="ssr:stedsnr" v="82232" />
	</node>
	<node lat="68.44534444573469" lon="16.156766676987054" id="-36957">
		<tag k="name" v="Straumneset" />
		<tag k="name:no" v="Straumneset" />
		<tag k="natural" v="cape" />
		<tag k="ssr:stedsnr" v="85588" />
	</node>
	<node lat="68.51884722153078" lon="16.18236667316512" id="-36961">
		<tag k="name" v="Klubben" />
		<tag k="name:no" v="Klubben" />
		<tag k="natural" v="cape" />
		<tag k="ssr:stedsnr" v="86434" />
	</node>
	<node lat="68.55251944064135" lon="16.318105552612614" id="-36965">
		<tag k="fixme" v="consider seamark:type=rock or natural=shoal" />
		<tag k="name" v="Stigskjæret" />
		<tag k="name:no" v="Stigskjæret" />
		<tag k="place" v="islet" />
		<tag k="ssr:stedsnr" v="87084" />
	</node>
	<node lat="68.40902777939081" lon="16.10823055978204" id="-36969">
		<tag k="name" v="Litjeosen" />
		<tag k="name:no" v="Litjeosen" />
		<tag k="natural" v="bay" />
		<tag k="ssr:stedsnr" v="88620" />
	</node>
	<node lat="68.55553889329508" lon="16.628497217848366" id="-36972">
		<tag k="name" v="Okseberget" />
		<tag k="name:no" v="Okseberget" />
		<tag k="natural" v="cape" />
		<tag k="ssr:stedsnr" v="90006" />
	</node>
	<node lat="68.53872222345123" lon="16.625347225938572" id="-36973">
		<tag k="name" v="Lavangsholman" />
		<tag k="name:no" v="Lavangsholman" />
		<tag k="place" v="islet" />
		<tag k="ssr:stedsnr" v="90007" />
	</node>
	<node lat="68.65043889179604" lon="16.665280546160282" id="-36974">
		<tag k="name" v="Kalkovnen" />
		<tag k="name:no" v="Kalkovnen" />
		<tag k="natural" v="cape" />
		<tag k="ssr:stedsnr" v="90080" />
	</node>
	<node lat="68.66926666925228" lon="17.144380567021997" id="-36975">
		<tag k="name" v="Løene" />
		<tag k="name:no" v="Løene" />
		<tag k="natural" v="bay" />
		<tag k="ssr:stedsnr" v="90457" />
	</node>
	<node lat="68.58355000328307" lon="16.55816111513045" id="-36976">
		<tag k="fixme" v="consider seamark:type=rock or natural=shoal" />
		<tag k="loc_name:no" v="Skjeran" />
		<tag k="name" v="Skearri - Evenskjeret" />
		<tag k="name:no" v="Evenskjeret" />
		<tag k="name:se" v="Skearri" />
		<tag k="place" v="islet" />
		<tag k="ssr:stedsnr" v="91016" />
	</node>
	<node lat="68.45213610929515" lon="16.119875006727533" id="-36987">
		<tag k="name" v="Røyrholmen" />
		<tag k="name:no" v="Røyrholmen" />
		<tag k="place" v="islet" />
		<tag k="ssr:stedsnr" v="138222" />
	</node>
	<node lat="68.4469666668394" lon="16.513174999573412" id="-36988">
		<tag k="name" v="Åkervika" />
		<tag k="name:no" v="Åkervika" />
		<tag k="natural" v="bay" />
		<tag k="ssr:stedsnr" v="138451" />
	</node>
	<node lat="68.52318333218179" lon="16.210502770825805" id="-36992">
		<tag k="name" v="Holman" />
		<tag k="name:no" v="Holman" />
		<tag k="place" v="islet" />
		<tag k="ssr:stedsnr" v="138798" />
	</node>
	<node lat="68.66862777875983" lon="16.7220777874797" id="-36994">
		<tag k="name" v="Forneset" />
		<tag k="name:no" v="Forneset" />
		<tag k="natural" v="cape" />
		<tag k="ssr:stedsnr" v="141097" />
	</node>
	<node lat="68.6663583374033" lon="16.707583324254568" id="-36997">
		<tag k="name" v="Fornesbåen" />
		<tag k="name:no" v="Fornesbåen" />
		<tag k="natural" v="shoal" />
		<tag k="place" v="locality" />
		<tag k="ssr:stedsnr" v="141103" />
	</node>
	<node lat="68.5532305596691" lon="16.387222222036257" id="-37001">
		<tag k="name" v="Holsneset" />
		<tag k="name:no" v="Holsneset" />
		<tag k="natural" v="cape" />
		<tag k="ssr:stedsnr" v="141832" />
	</node>
	<node lat="68.5658055573471" lon="16.52913332349794" id="-37005">
		<tag k="name" v="Hellevoren" />
		<tag k="name:no" v="Hellevoren" />
		<tag k="natural" v="shoal" />
		<tag k="place" v="locality" />
		<tag k="ssr:stedsnr" v="145142" />
	</node>
	<node lat="68.4886694438109" lon="16.5214444536192" id="-37007">
		<tag k="name" v="Melsbøvika" />
		<tag k="name:no" v="Melsbøvika" />
		<tag k="natural" v="bay" />
		<tag k="ssr:stedsnr" v="146093" />
	</node>
	<node lat="68.51132500177542" lon="16.1799138769999" id="-37008">
		<tag k="name" v="Lilleholmen" />
		<tag k="name:no" v="Lilleholmen" />
		<tag k="natural" v="cape" />
		<tag k="ssr:stedsnr" v="146389" />
	</node>
	<node lat="68.52187500010427" lon="16.193069448331173" id="-37009">
		<tag k="fixme" v="consider seamark:type=rock or natural=shoal" />
		<tag k="name" v="Buskjæret" />
		<tag k="name:no" v="Buskjæret" />
		<tag k="place" v="islet" />
		<tag k="ssr:stedsnr" v="146392" />
	</node>
	<node lat="68.55817221820737" lon="16.208505559167786" id="-37011">
		<tag k="name" v="Staksvollstranda" />
		<tag k="name:no" v="Staksvollstranda" />
		<tag k="natural" v="beach" />
		<tag k="ssr:stedsnr" v="146520" />
	</node>
	<node lat="68.54405555238314" lon="16.456433341435012" id="-37017">
		<tag k="fixme" v="consider seamark:type=rock or natural=shoal" />
		<tag k="name" v="Buskjæran" />
		<tag k="name:no" v="Buskjæran" />
		<tag k="place" v="islet" />
		<tag k="ssr:stedsnr" v="146666" />
	</node>
	<node lat="68.5430416651771" lon="16.479011114650536" id="-37018">
		<tag k="fixme" v="consider seamark:type=rock or natural=shoal" />
		<tag k="name" v="Gresskjæret" />
		<tag k="name:no" v="Gresskjæret" />
		<tag k="place" v="islet" />
		<tag k="ssr:stedsnr" v="146671" />
	</node>
	<node lat="68.54616110856911" lon="16.28619445056328" id="-37019">
		<tag k="name" v="Lilleosneset" />
		<tag k="name:no" v="Lilleosneset" />
		<tag k="natural" v="cape" />
		<tag k="ssr:stedsnr" v="146875" />
	</node>
	<node lat="68.38676388737467" lon="16.147613899083165" id="-37021">
		<tag k="fixme" v="consider seamark:type=rock or natural=shoal" />
		<tag k="name" v="Finnkonskjeret" />
		<tag k="name:no" v="Finnkonskjeret" />
		<tag k="place" v="islet" />
		<tag k="ssr:stedsnr" v="148416" />
	</node>
	<node lat="68.42895277519106" lon="16.097627783347296" id="-37023">
		<tag k="fixme" v="consider seamark:type=rock or natural=shoal" />
		<tag k="name" v="Andreasskjæret" />
		<tag k="name:no" v="Andreasskjæret" />
		<tag k="place" v="islet" />
		<tag k="ssr:stedsnr" v="148303" />
	</node>
	<node lat="68.47325555357999" lon="16.512833319636055" id="-37028">
		<tag k="name" v="Nordgjerdneset" />
		<tag k="name:no" v="Nordgjerdneset" />
		<tag k="natural" v="cape" />
		<tag k="ssr:stedsnr" v="148367" />
	</node>
	<node lat="68.46210555674381" lon="16.424449998763272" id="-37030">
		<tag k="name" v="Kroken" />
		<tag k="name:no" v="Kroken" />
		<tag k="natural" v="bay" />
		<tag k="ssr:stedsnr" v="148703" />
	</node>
	<node lat="68.41926666602133" lon="16.319172214079163" id="-37036">
		<tag k="name" v="Stokkvika" />
		<tag k="name:no" v="Stokkvika" />
		<tag k="natural" v="bay" />
		<tag k="ssr:stedsnr" v="148608" />
	</node>
	<node lat="68.54737777851744" lon="16.622761099569544" id="-37040">
		<tag k="name" v="Salttønna" />
		<tag k="name:no" v="Salttønna" />
		<tag k="place" v="locality" />
		<tag k="seamark:type" v="rock" />
		<tag k="ssr:stedsnr" v="151012" />
	</node>
	<node lat="68.61436111257974" lon="16.57128610410449" id="-37042">
		<tag k="name" v="Ruggevika" />
		<tag k="name:no" v="Ruggevika" />
		<tag k="natural" v="bay" />
		<tag k="ssr:stedsnr" v="151273" />
	</node>
	<node lat="68.45260277519411" lon="16.16380833951418" id="-37043">
		<tag k="alt_name:no" v="Tjeldøy" />
		<tag k="name" v="Dielddasuolu - Tjeldøya" />
		<tag k="name:no" v="Tjeldøya" />
		<tag k="name:se" v="Dielddasuolu" />
		<tag k="old_name:se" v="Dieldasuolo" />
		<tag k="place" v="island" />
		<tag k="ssr:stedsnr" v="259178" />
	</node>
	<node lat="68.54746666557311" lon="16.27291389681905" id="-37075">
		<tag k="name" v="Langskjæret" />
		<tag k="name:no" v="Langskjæret" />
		<tag k="natural" v="cape" />
		<tag k="ssr:stedsnr" v="263862" />
	</node>
	<node lat="68.46137778167714" lon="16.12885000229331" id="-37082">
		<tag k="name" v="Silsandvika" />
		<tag k="name:no" v="Silsandvika" />
		<tag k="natural" v="bay" />
		<tag k="ssr:stedsnr" v="198164" />
	</node>
	<node lat="68.48057500358281" lon="16.15123887840773" id="-37083">
		<tag k="loc_name:se" v="Válváhki" />
		<tag k="name" v="Valvågen" />
		<tag k="name:no" v="Valvågen" />
		<tag k="natural" v="cape" />
		<tag k="ssr:stedsnr" v="199175" />
	</node>
	<node lat="68.42272500193067" lon="16.089738887668275" id="-37084">
		<tag k="fixme" v="consider seamark:type=rock or natural=shoal" />
		<tag k="name" v="Skarvskjæret" />
		<tag k="name:no" v="Skarvskjæret" />
		<tag k="place" v="islet" />
		<tag k="ssr:stedsnr" v="199267" />
	</node>
	<node lat="68.56683889248872" lon="16.53899444336987" id="-37086">
		<tag k="fixme" v="consider seamark:type=rock or natural=shoal" />
		<tag k="name" v="Kobbskjæran" />
		<tag k="name:no" v="Kobbskjæran" />
		<tag k="place" v="islet" />
		<tag k="ssr:stedsnr" v="267100" />
	</node>
	<node lat="68.55478888631822" lon="16.329736118414278" id="-37087">
		<tag k="fixme" v="consider seamark:type=rock or natural=shoal" />
		<tag k="name" v="Buskjæret" />
		<tag k="name:no" v="Buskjæret" />
		<tag k="place" v="islet" />
		<tag k="ssr:stedsnr" v="267051" />
	</node>
	<node lat="68.56439722035574" lon="16.364986103717825" id="-37089">
		<tag k="name" v="Sæterklåren" />
		<tag k="name:no" v="Sæterklåren" />
		<tag k="natural" v="shoal" />
		<tag k="place" v="locality" />
		<tag k="ssr:stedsnr" v="267067" />
	</node>
	<node lat="68.44919999871024" lon="16.130708336352374" id="-37095">
		<tag k="name" v="Sjøholmen" />
		<tag k="name:no" v="Sjøholmen" />
		<tag k="natural" v="cape" />
		<tag k="ssr:stedsnr" v="267689" />
	</node>
	<node lat="68.5027805538983" lon="16.17167498779228" id="-37105">
		<tag k="name" v="Skipperneset" />
		<tag k="name:no" v="Skipperneset" />
		<tag k="natural" v="cape" />
		<tag k="ssr:stedsnr" v="268071" />
	</node>
	<node lat="68.52574444456542" lon="16.218930550308873" id="-37108">
		<tag k="alt_name:no" v="Gregusbukta" />
		<tag k="name" v="Gregusosen" />
		<tag k="name:no" v="Gregusosen" />
		<tag k="natural" v="bay" />
		<tag k="ssr:stedsnr" v="268411" />
	</node>
	<node lat="68.54974444599122" lon="16.51082221573846" id="-37112">
		<tag k="name" v="Oksneset" />
		<tag k="name:no" v="Oksneset" />
		<tag k="natural" v="cape" />
		<tag k="ssr:stedsnr" v="268517" />
	</node>
	<node lat="68.44368610906324" lon="16.13887778133163" id="-37113">
		<tag k="name" v="Jorsarsa-vika" />
		<tag k="name:no" v="Jorsarsa-vika" />
		<tag k="natural" v="bay" />
		<tag k="ssr:stedsnr" v="206655" />
	</node>
	<node lat="68.5491722253157" lon="16.455919453046075" id="-37117">
		<tag k="name" v="Ramstadgrunnen" />
		<tag k="name:no" v="Ramstadgrunnen" />
		<tag k="natural" v="shoal" />
		<tag k="place" v="locality" />
		<tag k="ssr:stedsnr" v="268660" />
	</node>
	<node lat="68.52293610784194" lon="16.213066655629742" id="-37121">
		<tag k="name" v="Mellomholman" />
		<tag k="name:no" v="Mellomholman" />
		<tag k="place" v="islet" />
		<tag k="ssr:stedsnr" v="207417" />
	</node>
	<node lat="68.52468333407869" lon="16.221308324036983" id="-37122">
		<tag k="name" v="Elvholmen" />
		<tag k="name:no" v="Elvholmen" />
		<tag k="place" v="islet" />
		<tag k="ssr:stedsnr" v="207393" />
	</node>
	<node lat="68.48901944353906" lon="16.145213896157784" id="-37126">
		<tag k="name" v="Rebekkaneset" />
		<tag k="name:no" v="Rebekkaneset" />
		<tag k="natural" v="cape" />
		<tag k="ssr:stedsnr" v="269005" />
	</node>
	<node lat="68.42156944613167" lon="16.348902771320805" id="-37132">
		<tag k="name" v="Jektstrandneset" />
		<tag k="name:no" v="Jektstrandneset" />
		<tag k="natural" v="cape" />
		<tag k="ssr:stedsnr" v="209602" />
	</node>
	<node lat="68.54267499846961" lon="16.44581111293438" id="-37139">
		<tag k="name" v="Kalvøya" />
		<tag k="name:no" v="Kalvøya" />
		<tag k="place" v="islet" />
		<tag k="ssr:stedsnr" v="212689" />
	</node>
	<node lat="68.42184444367761" lon="16.347555552993228" id="-37143">
		<tag k="name" v="Hestberget" />
		<tag k="name:no" v="Hestberget" />
		<tag k="natural" v="beach" />
		<tag k="ssr:stedsnr" v="270725" />
	</node>
	<node lat="68.39200277369538" lon="16.106433331981552" id="-37145">
		<tag k="name" v="Møkkerlassan" />
		<tag k="name:no" v="Møkkerlassan" />
		<tag k="natural" v="shoal" />
		<tag k="place" v="locality" />
		<tag k="ssr:stedsnr" v="270517" />
	</node>
	<node lat="68.44499166774428" lon="16.135883325745628" id="-37155">
		<tag k="fixme" v="consider seamark:type=rock or natural=shoal" />
		<tag k="name" v="Holmskjæret" />
		<tag k="name:no" v="Holmskjæret" />
		<tag k="place" v="islet" />
		<tag k="ssr:stedsnr" v="449662" />
	</node>
	<node lat="68.50756666424512" lon="16.182061100275014" id="-37174">
		<tag k="name" v="Svenskestranda" />
		<tag k="name:no" v="Svenskestranda" />
		<tag k="natural" v="beach" />
		<tag k="ssr:stedsnr" v="450431" />
	</node>
	<node lat="68.54837499831093" lon="16.466172208570367" id="-37177">
		<tag k="name" v="Garsøygrunnen" />
		<tag k="name:no" v="Garsøygrunnen" />
		<tag k="natural" v="shoal" />
		<tag k="place" v="locality" />
		<tag k="ssr:stedsnr" v="450691" />
	</node>
	<node lat="68.54258889263403" lon="16.454502776551966" id="-37178">
		<tag k="alt_name:no" v="Valholman" />
		<tag k="name" v="Val-holmen" />
		<tag k="name:no" v="Val-holmen" />
		<tag k="place" v="islet" />
		<tag k="ssr:stedsnr" v="450692" />
	</node>
	<node lat="68.42691111036737" lon="16.11139167221558" id="-37189">
		<tag k="name" v="Skiposen" />
		<tag k="name:no" v="Skiposen" />
		<tag k="natural" v="bay" />
		<tag k="ssr:stedsnr" v="452328" />
	</node>
	<node lat="68.38896110716588" lon="16.116119447797757" id="-37195">
		<tag k="name" v="Litjenesosen" />
		<tag k="name:no" v="Litjenesosen" />
		<tag k="natural" v="bay" />
		<tag k="ssr:stedsnr" v="452521" />
	</node>
	<node lat="68.40296388540047" lon="16.09264443105148" id="-37196">
		<tag k="name" v="Bolløyosen" />
		<tag k="name:no" v="Bolløyosen" />
		<tag k="natural" v="bay" />
		<tag k="ssr:stedsnr" v="452672" />
	</node>
	<node lat="68.39981388659601" lon="16.09774444587363" id="-37197">
		<tag k="name" v="Storneset" />
		<tag k="name:no" v="Storneset" />
		<tag k="natural" v="cape" />
		<tag k="ssr:stedsnr" v="452673" />
	</node>
	<node lat="68.42337777749462" lon="16.342283329027232" id="-37203">
		<tag k="name" v="Nausthaugen" />
		<tag k="name:no" v="Nausthaugen" />
		<tag k="natural" v="beach" />
		<tag k="ssr:stedsnr" v="452750" />
	</node>
	<node lat="68.68137499745188" lon="17.09414999054016" id="-37204">
		<tag k="name" v="Valskjerflua" />
		<tag k="name:no" v="Valskjerflua" />
		<tag k="natural" v="shoal" />
		<tag k="place" v="locality" />
		<tag k="ssr:stedsnr" v="454040" />
	</node>
	<node lat="68.60542500223451" lon="16.564469439202753" id="-37205">
		<tag k="name" v="Djuphamnklubben" />
		<tag k="name:no" v="Djuphamnklubben" />
		<tag k="natural" v="cape" />
		<tag k="ssr:stedsnr" v="455021" />
	</node>
	<node lat="68.63468610670718" lon="16.60779445299327" id="-37206">
		<tag k="name" v="Kvitnesbukta" />
		<tag k="name:no" v="Kvitnesbukta" />
		<tag k="natural" v="bay" />
		<tag k="ssr:stedsnr" v="455231" />
	</node>
	<node lat="68.56585277492279" lon="16.55298888566001" id="-37207">
		<tag k="name" v="Fjelldalsholman" />
		<tag k="name:no" v="Fjelldalsholman" />
		<tag k="place" v="islet" />
		<tag k="ssr:stedsnr" v="455232" />
	</node>
	<node lat="68.54411666943294" lon="16.118244440135623" id="-37210">
		<tag k="fixme" v="consider seamark:type=rock or natural=shoal" />
		<tag k="name" v="Kobbeskjæret" />
		<tag k="name:no" v="Kobbeskjæret" />
		<tag k="place" v="islet" />
		<tag k="ssr:stedsnr" v="455643" />
	</node>
	<node lat="68.40225277764299" lon="16.084616657729814" id="-37211">
		<tag k="name" v="Bolløya" />
		<tag k="name:no" v="Bolløya" />
		<tag k="place" v="islet" />
		<tag k="ssr:stedsnr" v="259237" />
	</node>
	<node lat="68.5124361113968" lon="16.180997232913946" id="-37214">
		<tag k="name" v="Langneset" />
		<tag k="name:no" v="Langneset" />
		<tag k="natural" v="cape" />
		<tag k="ssr:stedsnr" v="260218" />
	</node>
	<node lat="68.4225222247349" lon="16.41379445665109" id="-37216">
		<tag k="name" v="Spira" />
		<tag k="name:no" v="Spira" />
		<tag k="natural" v="cape" />
		<tag k="ssr:stedsnr" v="260498" />
	</node>
	<node lat="68.44125555421505" lon="16.46273610062677" id="-37217">
		<tag k="name" v="Silsanden" />
		<tag k="name:no" v="Silsanden" />
		<tag k="natural" v="beach" />
		<tag k="ssr:stedsnr" v="260517" />
	</node>
	<node lat="68.56302778168516" lon="16.549611123158584" id="-37222">
		<tag k="name" v="Sørholmen" />
		<tag k="name:no" v="Sørholmen" />
		<tag k="place" v="islet" />
		<tag k="ssr:stedsnr" v="262848" />
	</node>
	<node lat="68.46830833764265" lon="16.127541665450106" id="-37240">
		<tag k="name" v="Tømmerberget" />
		<tag k="name:no" v="Tømmerberget" />
		<tag k="natural" v="cape" />
		<tag k="ssr:stedsnr" v="267504" />
	</node>
	<node lat="68.54333482914221" lon="16.412977311747163" id="-37246">
		<tag k="alt_name:no" v="Gyltneset" />
		<tag k="name" v="Gyltnes" />
		<tag k="name:no" v="Gyltnes" />
		<tag k="natural" v="cape" />
		<tag k="ssr:stedsnr" v="268731" />
	</node>
	<node lat="68.48988611047815" lon="16.146724987448874" id="-37248">
		<tag k="name" v="Einvikhola" />
		<tag k="name:no" v="Einvikhola" />
		<tag k="natural" v="bay" />
		<tag k="ssr:stedsnr" v="269028" />
	</node>
	<node lat="68.39394444912877" lon="16.131372213368785" id="-37249">
		<tag k="name" v="Skittenvika" />
		<tag k="name:no" v="Skittenvika" />
		<tag k="natural" v="bay" />
		<tag k="ssr:stedsnr" v="270493" />
	</node>
	<node lat="68.40439722244285" lon="16.080288886153436" id="-37256">
		<tag k="fixme" v="consider seamark:type=rock or natural=shoal" />
		<tag k="name" v="Storstabben" />
		<tag k="name:no" v="Storstabben" />
		<tag k="place" v="islet" />
		<tag k="ssr:stedsnr" v="270682" />
	</node>
	<node lat="68.45693610897892" lon="16.42272776712632" id="-37257">
		<tag k="name" v="Storelvneset" />
		<tag k="name:no" v="Storelvneset" />
		<tag k="natural" v="cape" />
		<tag k="ssr:stedsnr" v="270688" />
	</node>
	<node lat="68.59656110785455" lon="16.56277222689154" id="-37263">
		<tag k="name" v="Dyrevikneset" />
		<tag k="name:no" v="Dyrevikneset" />
		<tag k="natural" v="cape" />
		<tag k="ssr:stedsnr" v="296072" />
	</node>
	<node lat="68.66845555548922" lon="17.112683337369585" id="-37268">
		<tag k="name" v="Sandneset" />
		<tag k="name:no" v="Sandneset" />
		<tag k="natural" v="cape" />
		<tag k="ssr:stedsnr" v="296707" />
	</node>
	<node lat="68.49953889117074" lon="16.15885277639389" id="-37275">
		<tag k="fixme" v="consider seamark:type=rock or natural=shoal" />
		<tag k="name" v="Blåskjæret" />
		<tag k="name:no" v="Blåskjæret" />
		<tag k="place" v="islet" />
		<tag k="ssr:stedsnr" v="320149" />
	</node>
	<node lat="68.49890833707126" lon="16.49607500858827" id="-37276">
		<tag k="name" v="Rambøvika" />
		<tag k="name:no" v="Rambøvika" />
		<tag k="natural" v="bay" />
		<tag k="ssr:stedsnr" v="320399" />
	</node>
	<node lat="68.54093333217597" lon="16.465691674733122" id="-37288">
		<tag k="alt_name:no" v="Garsøya" />
		<tag k="name" v="Gårdsøya" />
		<tag k="name:no" v="Gårdsøya" />
		<tag k="natural" v="cape" />
		<tag k="ssr:stedsnr" v="323872" />
	</node>
	<node lat="68.53771666497985" lon="16.613344437847854" id="-37289">
		<tag k="name" v="Sør-Lavangen" />
		<tag k="name:no" v="Sør-Lavangen" />
		<tag k="natural" v="bay" />
		<tag k="ssr:stedsnr" v="323881" />
	</node>
	<node lat="68.69090555970509" lon="17.046986114154322" id="-37297">
		<tag k="alt_name:no" v="Ystevika" />
		<tag k="name" v="Ytstevika" />
		<tag k="name:no" v="Ytstevika" />
		<tag k="natural" v="bay" />
		<tag k="ssr:stedsnr" v="323983" />
	</node>
	<node lat="68.44828611137447" lon="16.171961115534813" id="-37298">
		<tag k="name" v="Smånesan" />
		<tag k="name:no" v="Smånesan" />
		<tag k="natural" v="cape" />
		<tag k="ssr:stedsnr" v="327609" />
	</node>
	<node lat="68.47601388656105" lon="16.151858330933447" id="-37300">
		<tag k="name" v="Jektstrandholmen" />
		<tag k="name:no" v="Jektstrandholmen" />
		<tag k="natural" v="cape" />
		<tag k="ssr:stedsnr" v="327510" />
	</node>
	<node lat="68.52866111002626" lon="16.446180551441643" id="-37303">
		<tag k="name" v="Osan" />
		<tag k="name:no" v="Osan" />
		<tag k="natural" v="bay" />
		<tag k="ssr:stedsnr" v="328018" />
	</node>
	<node lat="68.54171944469873" lon="16.22545278934554" id="-37307">
		<tag k="alt_name:no" v="Salttønna" />
		<tag k="fixme" v="consider seamark:type=rock or natural=shoal" />
		<tag k="name" v="Salttønn" />
		<tag k="name:no" v="Salttønn" />
		<tag k="place" v="islet" />
		<tag k="ssr:stedsnr" v="329457" />
	</node>
	<node lat="68.39788888986502" lon="16.190658335236765" id="-37311">
		<tag k="name" v="Komsen" />
		<tag k="name:no" v="Komsen" />
		<tag k="natural" v="bay" />
		<tag k="ssr:stedsnr" v="330477" />
	</node>
	<node lat="68.41587778105803" lon="16.351966678263324" id="-37323">
		<tag k="name" v="Miklebobåen" />
		<tag k="name:no" v="Miklebobåen" />
		<tag k="place" v="locality" />
		<tag k="seamark:type" v="rock" />
		<tag k="ssr:stedsnr" v="339948" />
	</node>
	<node lat="68.67853333488621" lon="17.108949998217764" id="-37331">
		<tag k="fixme" v="consider seamark:type=rock or natural=shoal" />
		<tag k="name" v="Kalveskinnskjæret" />
		<tag k="name:no" v="Kalveskinnskjæret" />
		<tag k="place" v="islet" />
		<tag k="ssr:stedsnr" v="357704" />
	</node>
	<node lat="68.6511638886421" lon="16.6961361099753" id="-37335">
		<tag k="name" v="Bjørnvika" />
		<tag k="name:no" v="Bjørnvika" />
		<tag k="natural" v="bay" />
		<tag k="ssr:stedsnr" v="357851" />
	</node>
	<node lat="68.56764444863936" lon="16.65034722625593" id="-37340">
		<tag k="name" v="Kanelesverset" />
		<tag k="name:no" v="Kanelesverset" />
		<tag k="natural" v="bay" />
		<tag k="ssr:stedsnr" v="478164" />
	</node>
	<node lat="68.57033055947831" lon="16.63903889551034" id="-37342">
		<tag k="name" v="Tyttebærneset" />
		<tag k="name:no" v="Tyttebærneset" />
		<tag k="natural" v="cape" />
		<tag k="ssr:stedsnr" v="478182" />
	</node>
	<node lat="68.51435833486609" lon="16.17906665976619" id="-37371">
		<tag k="fixme" v="consider seamark:type=rock or natural=shoal" />
		<tag k="name" v="Langnesskjæran" />
		<tag k="name:no" v="Langnesskjæran" />
		<tag k="place" v="islet" />
		<tag k="ssr:stedsnr" v="381813" />
	</node>
	<node lat="68.67065555945327" lon="16.730094454465576" id="-37380">
		<tag k="name" v="Fornesvika" />
		<tag k="name:no" v="Fornesvika" />
		<tag k="natural" v="bay" />
		<tag k="ssr:stedsnr" v="384107" />
	</node>
	<node lat="68.44724444558472" lon="16.150780549473176" id="-37392">
		<tag k="name" v="Forosbukta" />
		<tag k="name:no" v="Forosbukta" />
		<tag k="natural" v="bay" />
		<tag k="ssr:stedsnr" v="388646" />
	</node>
	<node lat="68.44990555224237" lon="16.138063878872945" id="-37394">
		<tag k="name" v="Engeneset" />
		<tag k="name:no" v="Engeneset" />
		<tag k="natural" v="cape" />
		<tag k="ssr:stedsnr" v="388690" />
	</node>
	<node lat="68.53675277461426" lon="16.434663875670562" id="-37398">
		<tag k="name" v="Ormtunga" />
		<tag k="name:no" v="Ormtunga" />
		<tag k="natural" v="shoal" />
		<tag k="place" v="locality" />
		<tag k="ssr:stedsnr" v="389731" />
	</node>
	<node lat="68.42242500294587" lon="16.09132776656929" id="-37407">
		<tag k="name" v="Skarvskjærvalen" />
		<tag k="name:no" v="Skarvskjærvalen" />
		<tag k="natural" v="shoal" />
		<tag k="place" v="locality" />
		<tag k="ssr:stedsnr" v="391295" />
	</node>
	<node lat="68.4028444471959" lon="16.105086120571098" id="-37408">
		<tag k="name" v="Storneset" />
		<tag k="name:no" v="Storneset" />
		<tag k="natural" v="cape" />
		<tag k="ssr:stedsnr" v="391298" />
	</node>
	<node lat="68.42264166882772" lon="16.12844166209804" id="-37409">
		<tag k="name" v="Røytvadet" />
		<tag k="name:no" v="Røytvadet" />
		<tag k="natural" v="shoal" />
		<tag k="place" v="locality" />
		<tag k="ssr:stedsnr" v="391404" />
	</node>
	<node lat="68.39442222342348" lon="16.11002222063077" id="-37414">
		<tag k="name" v="Karvevika" />
		<tag k="name:no" v="Karvevika" />
		<tag k="natural" v="bay" />
		<tag k="ssr:stedsnr" v="391538" />
	</node>
	<node lat="68.45929721843906" lon="16.423216673513128" id="-37416">
		<tag k="name" v="Finnelvneset" />
		<tag k="name:no" v="Finnelvneset" />
		<tag k="natural" v="cape" />
		<tag k="ssr:stedsnr" v="391703" />
	</node>
	<node lat="68.46070833619513" lon="16.441119436748817" id="-37419">
		<tag k="name" v="Skittendalsgrunnen" />
		<tag k="name:no" v="Skittendalsgrunnen" />
		<tag k="natural" v="shoal" />
		<tag k="place" v="locality" />
		<tag k="ssr:stedsnr" v="391684" />
	</node>
	<node lat="68.44671666372889" lon="16.47726388085629" id="-37421">
		<tag k="name" v="Dråttnesgrunnen" />
		<tag k="name:no" v="Dråttnesgrunnen" />
		<tag k="natural" v="shoal" />
		<tag k="place" v="locality" />
		<tag k="ssr:stedsnr" v="391785" />
	</node>
	<node lat="68.44932777675142" lon="16.118538877775798" id="-37442">
		<tag k="name" v="Røyrholman" />
		<tag k="name:no" v="Røyrholman" />
		<tag k="place" v="islet" />
		<tag k="ssr:stedsnr" v="441195" />
	</node>
	<node lat="68.44865833332338" lon="16.123958336693853" id="-37443">
		<tag k="name" v="Naustneset" />
		<tag k="name:no" v="Naustneset" />
		<tag k="natural" v="cape" />
		<tag k="ssr:stedsnr" v="441197" />
	</node>
	<node lat="68.47063055790879" lon="16.52711943500403" id="-37445">
		<tag k="alt_name:no" v="Forahaugbukta" />
		<tag k="name" v="Forrahaugbukta" />
		<tag k="name:no" v="Forrahaugbukta" />
		<tag k="natural" v="bay" />
		<tag k="ssr:stedsnr" v="441403" />
	</node>
	<node lat="68.5577944422112" lon="16.271569434103288" id="-37458">
		<tag k="alt_name:no" v="Klungnes" />
		<tag k="name" v="Klungneset" />
		<tag k="name:no" v="Klungneset" />
		<tag k="natural" v="cape" />
		<tag k="ssr:stedsnr" v="445840" />
	</node>
	<node lat="68.54425833424642" lon="16.232899996705672" id="-37459">
		<tag k="name" v="Karet" />
		<tag k="name:no" v="Karet" />
		<tag k="natural" v="cape" />
		<tag k="ssr:stedsnr" v="445880" />
	</node>
	<node lat="68.42217500417229" lon="16.095355558180547" id="-37470">
		<tag k="name" v="Småosvadet" />
		<tag k="name:no" v="Småosvadet" />
		<tag k="natural" v="bay" />
		<tag k="ssr:stedsnr" v="452269" />
	</node>
	<node lat="68.41313610916856" lon="16.250155561897508" id="-37473">
		<tag k="name" v="Litjevikholmen" />
		<tag k="name:no" v="Litjevikholmen" />
		<tag k="place" v="islet" />
		<tag k="ssr:stedsnr" v="452406" />
	</node>
	<node lat="68.41078888856002" lon="16.080466671470177" id="-37474">
		<tag k="name" v="Molvika" />
		<tag k="name:no" v="Molvika" />
		<tag k="natural" v="bay" />
		<tag k="ssr:stedsnr" v="452413" />
	</node>
	<node lat="68.64846388573149" lon="16.712869430538355" id="-37482">
		<tag k="alt_name:no" v="Finnevika" />
		<tag k="name" v="Finnvika" />
		<tag k="name:no" v="Finnvika" />
		<tag k="natural" v="bay" />
		<tag k="ssr:stedsnr" v="454072" />
	</node>
	<node lat="68.69600277416909" lon="16.92479721613289" id="-37483">
		<tag k="name" v="Elveneset" />
		<tag k="name:no" v="Elveneset" />
		<tag k="natural" v="cape" />
		<tag k="ssr:stedsnr" v="454117" />
	</node>
	<node lat="68.44346111002616" lon="16.49751110927785" id="-37484">
		<tag k="name" v="Båen" />
		<tag k="name:no" v="Båen" />
		<tag k="place" v="locality" />
		<tag k="seamark:type" v="rock" />
		<tag k="ssr:stedsnr" v="461960" />
	</node>
	<node lat="68.44293513277485" lon="16.137038582184246" id="-37506">
		<tag k="name" v="Breistrandneset" />
		<tag k="name:no" v="Breistrandneset" />
		<tag k="natural" v="cape" />
		<tag k="ssr:stedsnr" v="502202" />
	</node>
	<node lat="68.48124444729135" lon="16.5215277871259" id="-37510">
		<tag k="loc_name:se" v="Rápmanuorri" />
		<tag k="name" v="Ramsundet" />
		<tag k="name:no" v="Ramsundet" />
		<tag k="natural" v="strait" />
		<tag k="ssr:stedsnr" v="502423" />
	</node>
	<node lat="68.44623889049889" lon="16.133658332316514" id="-37511">
		<tag k="name" v="Storholmen" />
		<tag k="name:no" v="Storholmen" />
		<tag k="place" v="islet" />
		<tag k="ssr:stedsnr" v="502185" />
	</node>
	<node lat="68.48889167046607" lon="16.493602768559345" id="-37514">
		<tag k="name" v="Middagsneset" />
		<tag k="name:no" v="Middagsneset" />
		<tag k="natural" v="cape" />
		<tag k="ssr:stedsnr" v="502389" />
	</node>
	<node lat="68.67769166374991" lon="17.11206943684468" id="-37527">
		<tag k="fixme" v="multiple name tags, choose one and add the other to alt_name" />
		<tag k="name" v="Kalveskinnet;Kalvskinnsodden" />
		<tag k="name:no" v="Kalveskinnet;Kalvskinnsodden" />
		<tag k="natural" v="cape" />
		<tag k="ssr:stedsnr" v="505962" />
	</node>
	<node lat="68.4492027753764" lon="16.121477786389075" id="-37531">
		<tag k="name" v="Hesjevika" />
		<tag k="name:no" v="Hesjevika" />
		<tag k="natural" v="bay" />
		<tag k="ssr:stedsnr" v="509676" />
	</node>
	<node lat="68.46983889001304" lon="16.128466674557046" id="-37536">
		<tag k="name" v="Rotnesvika" />
		<tag k="name:no" v="Rotnesvika" />
		<tag k="natural" v="bay" />
		<tag k="ssr:stedsnr" v="510550" />
	</node>
	<node lat="68.54655278172163" lon="16.40213889194634" id="-37542">
		<tag k="name" v="Stokkosen" />
		<tag k="name:no" v="Stokkosen" />
		<tag k="natural" v="bay" />
		<tag k="ssr:stedsnr" v="510971" />
	</node>
	<node lat="68.42585277727076" lon="16.10251387613921" id="-37547">
		<tag k="name" v="Smedfjæra" />
		<tag k="name:no" v="Smedfjæra" />
		<tag k="natural" v="beach" />
		<tag k="ssr:stedsnr" v="512266" />
	</node>
	<node lat="68.39552777616119" lon="16.126624999143804" id="-37554">
		<tag k="name" v="Eldhusosen" />
		<tag k="name:no" v="Eldhusosen" />
		<tag k="natural" v="bay" />
		<tag k="ssr:stedsnr" v="512506" />
	</node>
	<node lat="68.58044166698048" lon="16.556424988456104" id="-37564">
		<tag k="fixme" v="consider seamark:type=rock or natural=shoal" />
		<tag k="name" v="Skarvskjeret" />
		<tag k="name:no" v="Skarvskjeret" />
		<tag k="place" v="islet" />
		<tag k="ssr:stedsnr" v="515235" />
	</node>
	<node lat="68.560099998554" lon="16.557811121384557" id="-37565">
		<tag k="name" v="Skutenesgrunnen" />
		<tag k="name:no" v="Skutenesgrunnen" />
		<tag k="natural" v="shoal" />
		<tag k="place" v="locality" />
		<tag k="ssr:stedsnr" v="515236" />
	</node>
	<node lat="68.49621110723476" lon="16.149613881240043" id="-37566">
		<tag k="name" v="Digermulen" />
		<tag k="name:no" v="Digermulen" />
		<tag k="natural" v="bay" />
		<tag k="ssr:stedsnr" v="684144" />
	</node>
	<node lat="68.42217500090908" lon="16.367547231944517" id="-37570">
		<tag k="name" v="Balangen" />
		<tag k="name:no" v="Balangen" />
		<tag k="natural" v="bay" />
		<tag k="ssr:stedsnr" v="684462" />
	</node>
	<node lat="68.45008889056348" lon="16.535936116969328" id="-37571">
		<tag k="name" v="Mølnvika" />
		<tag k="name:no" v="Mølnvika" />
		<tag k="natural" v="bay" />
		<tag k="ssr:stedsnr" v="684435" />
	</node>
	<node lat="68.50910833183899" lon="16.174666653871036" id="-37579">
		<tag k="name" v="Geitryggen" />
		<tag k="name:no" v="Geitryggen" />
		<tag k="place" v="islet" />
		<tag k="ssr:stedsnr" v="685782" />
	</node>
	<node lat="68.6521833308155" lon="16.69013331938666" id="-37604">
		<tag k="name" v="Helleodden" />
		<tag k="name:no" v="Helleodden" />
		<tag k="natural" v="cape" />
		<tag k="ssr:stedsnr" v="687030" />
	</node>
	<node lat="68.54755555444801" lon="16.25262777906849" id="-37619">
		<tag k="name" v="Breistranda" />
		<tag k="name:no" v="Breistranda" />
		<tag k="natural" v="beach" />
		<tag k="ssr:stedsnr" v="687868" />
	</node>
	<node lat="68.70489167044879" lon="17.072311118390182" id="-37626">
		<tag k="bay" v="fjord" />
		<tag k="name" v="Roabavuotna - Grovfjorden" />
		<tag k="name:no" v="Grovfjorden" />
		<tag k="name:se" v="Roabavuotna" />
		<tag k="natural" v="bay" />
		<tag k="ssr:stedsnr" v="687983" />
	</node>
	<node lat="68.55690832890858" lon="16.513705562625713" id="-37642">
		<tag k="alt_name:no" v="Korsnes" />
		<tag k="name" v="Korsneset" />
		<tag k="name:no" v="Korsneset" />
		<tag k="natural" v="cape" />
		<tag k="ssr:stedsnr" v="692137" />
	</node>
	<node lat="68.68364444393471" lon="17.059763877714794" id="-37647">
		<tag k="name" v="Holtet" />
		<tag k="name:no" v="Holtet" />
		<tag k="natural" v="cape" />
		<tag k="ssr:stedsnr" v="565508" />
	</node>
	<node lat="68.4464527740583" lon="16.12388889006524" id="-37648">
		<tag k="name" v="Naustvika" />
		<tag k="name:no" v="Naustvika" />
		<tag k="natural" v="bay" />
		<tag k="ssr:stedsnr" v="692696" />
	</node>
	<node lat="68.44815833576875" lon="16.15236111825732" id="-37651">
		<tag k="name" v="Valen" />
		<tag k="name:no" v="Valen" />
		<tag k="natural" v="bay" />
		<tag k="ssr:stedsnr" v="692659" />
	</node>
	<node lat="68.53855555337448" lon="16.22753332402788" id="-37656">
		<tag k="name" v="Svortvika" />
		<tag k="name:no" v="Svortvika" />
		<tag k="natural" v="bay" />
		<tag k="ssr:stedsnr" v="566765" />
	</node>
	<node lat="68.54537222144506" lon="16.28989722963408" id="-37659">
		<tag k="name" v="Elvneset" />
		<tag k="name:no" v="Elvneset" />
		<tag k="natural" v="cape" />
		<tag k="ssr:stedsnr" v="692879" />
	</node>
	<node lat="68.49796666452633" lon="16.157163894294236" id="-37661">
		<tag k="name" v="Valen" />
		<tag k="name:no" v="Valen" />
		<tag k="natural" v="bay" />
		<tag k="ssr:stedsnr" v="693002" />
	</node>
	<node lat="68.5529805564427" lon="16.556577782850326" id="-37662">
		<tag k="name" v="Hammaren" />
		<tag k="name:no" v="Hammaren" />
		<tag k="natural" v="cape" />
		<tag k="ssr:stedsnr" v="570119" />
	</node>
	<node lat="68.52193611052051" lon="16.198563882659823" id="-37663">
		<tag k="name" v="Buskjærbukta" />
		<tag k="name:no" v="Buskjærbukta" />
		<tag k="natural" v="bay" />
		<tag k="ssr:stedsnr" v="693446" />
	</node>
	<node lat="68.51700832915542" lon="16.18443056539876" id="-37664">
		<tag k="name" v="Elseneset" />
		<tag k="name:no" v="Elseneset" />
		<tag k="natural" v="cape" />
		<tag k="ssr:stedsnr" v="693447" />
	</node>
	<node lat="68.52612222284719" lon="16.22290555582446" id="-37667">
		<tag k="name" v="Langstranda" />
		<tag k="name:no" v="Langstranda" />
		<tag k="natural" v="beach" />
		<tag k="ssr:stedsnr" v="693458" />
	</node>
	<node lat="68.54985833558018" lon="16.43719167197432" id="-37672">
		<tag k="name" v="Flugrunnen" />
		<tag k="name:no" v="Flugrunnen" />
		<tag k="natural" v="shoal" />
		<tag k="place" v="locality" />
		<tag k="ssr:stedsnr" v="693698" />
	</node>
	<node lat="68.5448749959304" lon="16.451102784433523" id="-37676">
		<tag k="name" v="Kalvøygrunnen" />
		<tag k="name:no" v="Kalvøygrunnen" />
		<tag k="natural" v="shoal" />
		<tag k="place" v="locality" />
		<tag k="ssr:stedsnr" v="693754" />
	</node>
	<node lat="68.49729444776278" lon="16.15102776889166" id="-37680">
		<tag k="name" v="Tjeldholmen" />
		<tag k="name:no" v="Tjeldholmen" />
		<tag k="place" v="islet" />
		<tag k="ssr:stedsnr" v="572002" />
	</node>
	<node lat="68.4304027790265" lon="16.117947216719834" id="-37689">
		<tag k="name" v="Flatholmen" />
		<tag k="name:no" v="Flatholmen" />
		<tag k="place" v="islet" />
		<tag k="ssr:stedsnr" v="694300" />
	</node>
	<node lat="68.54383610789867" lon="16.573522218544916" id="-37709">
		<tag k="name" v="Laukhammaren" />
		<tag k="name:no" v="Laukhammaren" />
		<tag k="natural" v="cape" />
		<tag k="ssr:stedsnr" v="697013" />
	</node>
	<node lat="68.68469166743746" lon="16.8629361186867" id="-37710">
		<tag k="alt_name:no" v="Laksberget" />
		<tag k="name" v="Lakseberget" />
		<tag k="name:no" v="Lakseberget" />
		<tag k="natural" v="cape" />
		<tag k="ssr:stedsnr" v="697138" />
	</node>
	<node lat="68.68680000443906" lon="16.808386112051895" id="-37711">
		<tag k="name" v="Breifjærsteinen" />
		<tag k="name:no" v="Breifjærsteinen" />
		<tag k="place" v="locality" />
		<tag k="seamark:type" v="rock" />
		<tag k="ssr:stedsnr" v="697140" />
	</node>
	<node lat="68.55548333317451" lon="16.298686108197384" id="-37712">
		<tag k="name" v="Ballstadskallen" />
		<tag k="name:no" v="Ballstadskallen" />
		<tag k="natural" v="shoal" />
		<tag k="place" v="locality" />
		<tag k="ssr:stedsnr" v="697687" />
	</node>
	<node lat="68.47183610691992" lon="16.130080561822197" id="-37721">
		<tag k="fixme" v="multiple name tags, choose one and add the other to alt_name" />
		<tag k="name" v="Rotnesodden;Storrotnes" />
		<tag k="name:no" v="Rotnesodden;Storrotnes" />
		<tag k="natural" v="cape" />
		<tag k="ssr:stedsnr" v="623178" />
	</node>
	<node lat="68.42053888872245" lon="16.35421111190546" id="-37723">
		<tag k="name" v="Tjeldholmen" />
		<tag k="name:no" v="Tjeldholmen" />
		<tag k="place" v="islet" />
		<tag k="ssr:stedsnr" v="623478" />
	</node>
	<node lat="68.41861388509784" lon="16.270963881259753" id="-37724">
		<tag k="name" v="Russvika" />
		<tag k="name:no" v="Russvika" />
		<tag k="natural" v="bay" />
		<tag k="ssr:stedsnr" v="623510" />
	</node>
	<node lat="68.5522999999368" lon="16.43748612042322" id="-37729">
		<tag k="name" v="Holsflua" />
		<tag k="name:no" v="Holsflua" />
		<tag k="natural" v="shoal" />
		<tag k="place" v="locality" />
		<tag k="ssr:stedsnr" v="626855" />
	</node>
	<node lat="68.49711666331761" lon="16.50241943479983" id="-37737">
		<tag k="name" v="Lilleneset" />
		<tag k="name:no" v="Lilleneset" />
		<tag k="natural" v="cape" />
		<tag k="ssr:stedsnr" v="631097" />
	</node>
	<node lat="68.49474444455714" lon="16.14815555421065" id="-37744">
		<tag k="name" v="Nordstranda" />
		<tag k="name:no" v="Nordstranda" />
		<tag k="natural" v="beach" />
		<tag k="ssr:stedsnr" v="632037" />
	</node>
	<node lat="68.42000277369749" lon="16.08751666109744" id="-37747">
		<tag k="name" v="Andklakkstranda" />
		<tag k="name:no" v="Andklakkstranda" />
		<tag k="natural" v="beach" />
		<tag k="ssr:stedsnr" v="633427" />
	</node>
	<node lat="68.39025555635823" lon="16.132152768873585" id="-37748">
		<tag k="name" v="Langosen" />
		<tag k="name:no" v="Langosen" />
		<tag k="natural" v="shoal" />
		<tag k="place" v="locality" />
		<tag k="ssr:stedsnr" v="633501" />
	</node>
	<node lat="68.46590905145582" lon="16.509845356247716" id="-37752">
		<tag k="name" v="Vargnesøra" />
		<tag k="name:no" v="Vargnesøra" />
		<tag k="natural" v="cape" />
		<tag k="ssr:stedsnr" v="633390" />
	</node>
	<node lat="68.39290277976593" lon="16.120705559363657" id="-37754">
		<tag k="name" v="Tennholmsundet" />
		<tag k="name:no" v="Tennholmsundet" />
		<tag k="natural" v="strait" />
		<tag k="ssr:stedsnr" v="633513" />
	</node>
	<node lat="68.40793889017007" lon="16.092397216595305" id="-37758">
		<tag k="name" v="Heststranda" />
		<tag k="name:no" v="Heststranda" />
		<tag k="natural" v="beach" />
		<tag k="ssr:stedsnr" v="633694" />
	</node>
	<node lat="68.40505277648334" lon="16.08299721331605" id="-37759">
		<tag k="fixme" v="consider seamark:type=rock or natural=shoal" />
		<tag k="name" v="Litjestabben" />
		<tag k="name:no" v="Litjestabben" />
		<tag k="place" v="islet" />
		<tag k="ssr:stedsnr" v="633696" />
	</node>
	<node lat="68.51088888515628" lon="16.182774997847474" id="-37761">
		<tag k="name" v="Grasholmvalen" />
		<tag k="name:no" v="Grasholmvalen" />
		<tag k="natural" v="bay" />
		<tag k="ssr:stedsnr" v="636080" />
	</node>
	<node lat="68.41939444812814" lon="16.35534444492194" id="-37762">
		<tag k="name" v="Kråknesflua" />
		<tag k="name:no" v="Kråknesflua" />
		<tag k="place" v="locality" />
		<tag k="seamark:type" v="rock" />
		<tag k="ssr:stedsnr" v="704950" />
	</node>
	<node lat="68.55052499805478" lon="16.093002766748864" id="-37763">
		<tag k="alt_name:no" v="Oldernes" />
		<tag k="name" v="Olderneset" />
		<tag k="name:no" v="Olderneset" />
		<tag k="natural" v="cape" />
		<tag k="ssr:stedsnr" v="636686" />
	</node>
	<node lat="68.71403333503389" lon="16.9741083379284" id="-37774">
		<tag k="name" v="Moldvika" />
		<tag k="name:no" v="Moldvika" />
		<tag k="natural" v="bay" />
		<tag k="ssr:stedsnr" v="660589" />
	</node>
	<node lat="68.46375277781803" lon="16.1272138972123" id="-37791">
		<tag k="name" v="Silsandodden" />
		<tag k="name:no" v="Silsandodden" />
		<tag k="natural" v="cape" />
		<tag k="ssr:stedsnr" v="684166" />
	</node>
	<node lat="68.39511389096191" lon="16.0932250120218" id="-37794">
		<tag k="name" v="Kvalhausen" />
		<tag k="name:no" v="Kvalhausen" />
		<tag k="place" v="islet" />
		<tag k="ssr:stedsnr" v="684303" />
	</node>
	<node lat="68.54589721917924" lon="16.195602768069172" id="-37815">
		<tag k="name" v="Rabben" />
		<tag k="name:no" v="Rabben" />
		<tag k="natural" v="cape" />
		<tag k="ssr:stedsnr" v="693491" />
	</node>
	<node lat="68.40929444606057" lon="16.090547224273518" id="-37821">
		<tag k="name" v="Heststrandosen" />
		<tag k="name:no" v="Heststrandosen" />
		<tag k="natural" v="bay" />
		<tag k="ssr:stedsnr" v="694372" />
	</node>
	<node lat="68.39437499686369" lon="16.12707777299036" id="-37822">
		<tag k="name" v="Naustholmen" />
		<tag k="name:no" v="Naustholmen" />
		<tag k="place" v="islet" />
		<tag k="ssr:stedsnr" v="694484" />
	</node>
	<node lat="68.4055083339629" lon="16.081066659276" id="-37827">
		<tag k="name" v="Stabbsundet" />
		<tag k="name:no" v="Stabbsundet" />
		<tag k="natural" v="strait" />
		<tag k="ssr:stedsnr" v="695682" />
	</node>
	<node lat="68.45074999916908" lon="16.451091674456926" id="-37828">
		<tag k="name" v="Vargeneset" />
		<tag k="name:no" v="Vargeneset" />
		<tag k="natural" v="cape" />
		<tag k="ssr:stedsnr" v="697072" />
	</node>
	<node lat="68.5541361110701" lon="16.09214721382151" id="-37829">
		<tag k="name" v="Fiskefjordbotn" />
		<tag k="name:no" v="Fiskefjordbotn" />
		<tag k="natural" v="bay" />
		<tag k="ssr:stedsnr" v="706923" />
	</node>
	<node lat="68.56736944618117" lon="16.61316388082573" id="-37837">
		<tag k="name" v="Osen" />
		<tag k="name:no" v="Osen" />
		<tag k="natural" v="bay" />
		<tag k="ssr:stedsnr" v="721173" />
	</node>
	<node lat="68.67538888748402" lon="17.080449991828594" id="-37840">
		<tag k="name" v="Løvika" />
		<tag k="name:no" v="Løvika" />
		<tag k="natural" v="bay" />
		<tag k="ssr:stedsnr" v="721686" />
	</node>
	<node lat="68.53706389258659" lon="16.59041944716754" id="-37843">
		<tag k="name" v="Sjøtomta" />
		<tag k="name:no" v="Sjøtomta" />
		<tag k="natural" v="cape" />
		<tag k="ssr:stedsnr" v="903070" />
	</node>
	<node lat="68.53779722302204" lon="16.58601112185066" id="-37844">
		<tag k="fixme" v="consider seamark:type=rock or natural=shoal" />
		<tag k="name" v="Lavatofta" />
		<tag k="name:no" v="Lavatofta" />
		<tag k="place" v="islet" />
		<tag k="ssr:stedsnr" v="903072" />
	</node>
	<node lat="68.45950833237333" lon="16.12665832400382" id="-37852">
		<tag k="name" v="Silsanden" />
		<tag k="name:no" v="Silsanden" />
		<tag k="natural" v="beach" />
		<tag k="ssr:stedsnr" v="744141" />
	</node>
	<node lat="68.48984722428342" lon="16.141027787073263" id="-37854">
		<tag k="fixme" v="consider seamark:type=rock or natural=shoal" />
		<tag k="name" v="Høystakkskjæret" />
		<tag k="name:no" v="Høystakkskjæret" />
		<tag k="place" v="islet" />
		<tag k="ssr:stedsnr" v="745179" />
	</node>
	<node lat="68.53248055746592" lon="16.167305545685952" id="-37860">
		<tag k="fixme" v="multiple name tags, choose one and add the other to alt_name" />
		<tag k="name" v="Mulneset;Møllneset" />
		<tag k="name:no" v="Mulneset;Møllneset" />
		<tag k="natural" v="cape" />
		<tag k="ssr:stedsnr" v="745812" />
	</node>
	<node lat="68.64971944357603" lon="17.190136115418287" id="-37866">
		<tag k="name" v="Opdalkjosen" />
		<tag k="name:no" v="Opdalkjosen" />
		<tag k="natural" v="bay" />
		<tag k="ssr:stedsnr" v="903721" />
	</node>
	<node lat="68.71455555764858" lon="17.02426110030584" id="-37889">
		<tag k="name" v="Trollvika" />
		<tag k="name:no" v="Trollvika" />
		<tag k="natural" v="bay" />
		<tag k="ssr:stedsnr" v="748963" />
	</node>
	<node lat="68.68270277473135" lon="16.894827777930846" id="-37890">
		<tag k="name" v="Saltbuneset" />
		<tag k="name:no" v="Saltbuneset" />
		<tag k="natural" v="cape" />
		<tag k="ssr:stedsnr" v="748974" />
	</node>
	<node lat="68.55718888941911" lon="16.517499987763614" id="-37892">
		<tag k="name" v="Kresnes" />
		<tag k="name:no" v="Kresnes" />
		<tag k="natural" v="cape" />
		<tag k="ssr:stedsnr" v="752117" />
	</node>
	<node lat="68.52447777712162" lon="16.212774994147484" id="-37900">
		<tag k="name" v="Nordholman" />
		<tag k="name:no" v="Nordholman" />
		<tag k="place" v="islet" />
		<tag k="ssr:stedsnr" v="753367" />
	</node>
	<node lat="68.47358055991903" lon="16.13322499346065" id="-37901">
		<tag k="name" v="Linberget" />
		<tag k="name:no" v="Linberget" />
		<tag k="natural" v="cape" />
		<tag k="ssr:stedsnr" v="753506" />
	</node>
	<node lat="68.53485555178531" lon="16.428827784923232" id="-37903">
		<tag k="name" v="Langstranda" />
		<tag k="name:no" v="Langstranda" />
		<tag k="natural" v="beach" />
		<tag k="ssr:stedsnr" v="753702" />
	</node>
	<node lat="68.4875444419975" lon="16.1442861136309" id="-37904">
		<tag k="name" v="Rebekkaholmen" />
		<tag k="name:no" v="Rebekkaholmen" />
		<tag k="place" v="islet" />
		<tag k="ssr:stedsnr" v="754004" />
	</node>
	<node lat="68.43064721872896" lon="16.110702773320842" id="-37910">
		<tag k="name" v="Vikran" />
		<tag k="name:no" v="Vikran" />
		<tag k="natural" v="bay" />
		<tag k="ssr:stedsnr" v="755324" />
	</node>
	<node lat="68.6444416685218" lon="17.143286101218177" id="-37918">
		<tag k="name" v="Kvitskjerhola" />
		<tag k="name:no" v="Kvitskjerhola" />
		<tag k="natural" v="bay" />
		<tag k="ssr:stedsnr" v="757452" />
	</node>
	<node lat="68.52983611564672" lon="16.16954443847559" id="-37920">
		<tag k="name" v="Taraldsvikgrunnen" />
		<tag k="name:no" v="Taraldsvikgrunnen" />
		<tag k="natural" v="shoal" />
		<tag k="place" v="locality" />
		<tag k="ssr:stedsnr" v="758705" />
	</node>
	<node lat="68.51546666932151" lon="16.46034166908926" id="-37944">
		<tag k="alt_name:no" v="Salbuneset" />
		<tag k="name" v="Salbunes" />
		<tag k="name:no" v="Salbunes" />
		<tag k="natural" v="cape" />
		<tag k="ssr:stedsnr" v="809808" />
	</node>
	<node lat="68.56524999828989" lon="16.33675556638866" id="-37950">
		<tag k="fixme" v="consider seamark:type=rock or natural=shoal" />
		<tag k="name" v="Marentoftskjæret" />
		<tag k="name:no" v="Marentoftskjæret" />
		<tag k="place" v="islet" />
		<tag k="ssr:stedsnr" v="813081" />
	</node>
	<node lat="68.52261666705066" lon="16.198494438316594" id="-37956">
		<tag k="name" v="Buskjærgrunnen" />
		<tag k="name:no" v="Buskjærgrunnen" />
		<tag k="natural" v="shoal" />
		<tag k="place" v="locality" />
		<tag k="ssr:stedsnr" v="814452" />
	</node>
	<node lat="68.54144166895338" lon="16.461283330599667" id="-37958">
		<tag k="name" v="Garsøyneset" />
		<tag k="name:no" v="Garsøyneset" />
		<tag k="natural" v="cape" />
		<tag k="ssr:stedsnr" v="814682" />
	</node>
	<node lat="68.50876944817242" lon="16.438355544211955" id="-37965">
		<tag k="name" v="Spannbogen" />
		<tag k="name:no" v="Spannbogen" />
		<tag k="natural" v="bay" />
		<tag k="ssr:stedsnr" v="816370" />
	</node>
	<node lat="68.39339444141469" lon="16.130588887167892" id="-37968">
		<tag k="name" v="Melkevika" />
		<tag k="name:no" v="Melkevika" />
		<tag k="natural" v="bay" />
		<tag k="ssr:stedsnr" v="816518" />
	</node>
	<node lat="68.39080832939958" lon="16.13179443490518" id="-37969">
		<tag k="name" v="Langstranda" />
		<tag k="name:no" v="Langstranda" />
		<tag k="natural" v="beach" />
		<tag k="ssr:stedsnr" v="816520" />
	</node>
	<node lat="68.45494444452375" lon="16.438697231587035" id="-37976">
		<tag k="name" v="Tjukkskognesberget" />
		<tag k="name:no" v="Tjukkskognesberget" />
		<tag k="natural" v="cape" />
		<tag k="ssr:stedsnr" v="816711" />
	</node>
	<node lat="68.71525555285123" lon="16.992394442583297" id="-37980">
		<tag k="name" v="Svelshamna" />
		<tag k="name:no" v="Svelshamna" />
		<tag k="natural" v="bay" />
		<tag k="ssr:stedsnr" v="818003" />
	</node>
	<node lat="68.70125277402099" lon="16.919894431376605" id="-37981">
		<tag k="name" v="Litlegrunnen" />
		<tag k="name:no" v="Litlegrunnen" />
		<tag k="natural" v="shoal" />
		<tag k="place" v="locality" />
		<tag k="ssr:stedsnr" v="818099" />
	</node>
	<node lat="68.52992222090249" lon="16.201991658207593" id="-37982">
		<tag k="name" v="Gregusskallen" />
		<tag k="name:no" v="Gregusskallen" />
		<tag k="natural" v="shoal" />
		<tag k="place" v="locality" />
		<tag k="ssr:stedsnr" v="819679" />
	</node>
	<node lat="68.54521111107323" lon="16.4762611132865" id="-37983">
		<tag k="name" v="Nordøyodden" />
		<tag k="name:no" v="Nordøyodden" />
		<tag k="natural" v="cape" />
		<tag k="ssr:stedsnr" v="819711" />
	</node>
	<node lat="68.42103611510603" lon="16.35655832408049" id="-37999">
		<tag k="name" v="Kråkneset" />
		<tag k="name:no" v="Kråkneset" />
		<tag k="natural" v="cape" />
		<tag k="ssr:stedsnr" v="927474" />
	</node>
	<node lat="68.41948610688998" lon="16.351811117705775" id="-38000">
		<tag k="fixme" v="consider seamark:type=rock or natural=shoal" />
		<tag k="name" v="Kråknesflua" />
		<tag k="name:no" v="Kråknesflua" />
		<tag k="place" v="islet" />
		<tag k="ssr:stedsnr" v="927477" />
	</node>
	<node lat="68.54531944605797" lon="16.11418889272982" id="-38006">
		<tag k="alt_name:no" v="Kobbneset" />
		<tag k="name" v="Kobbeneset" />
		<tag k="name:no" v="Kobbeneset" />
		<tag k="natural" v="cape" />
		<tag k="ssr:stedsnr" v="928738" />
	</node>
	<node lat="68.58023611045543" lon="16.568138881799644" id="-38011">
		<tag k="name" v="Finneset" />
		<tag k="name:no" v="Finneset" />
		<tag k="natural" v="cape" />
		<tag k="ssr:stedsnr" v="930161" />
	</node>
	<node lat="68.57298333607467" lon="16.59054999346091" id="-38015">
		<tag k="alt_name:no" v="Tjeldsanden" />
		<tag k="name" v="Tjeldsand" />
		<tag k="name:no" v="Tjeldsand" />
		<tag k="natural" v="cape" />
		<tag k="ssr:stedsnr" v="930143" />
	</node>
	<node lat="68.64316388988617" lon="16.620105560088597" id="-38030">
		<tag k="alt_name:no" v="Breidvika" />
		<tag k="name" v="Breivika" />
		<tag k="name:no" v="Breivika" />
		<tag k="natural" v="bay" />
		<tag k="ssr:stedsnr" v="870023" />
	</node>
	<node lat="68.55106388488414" lon="16.55692500104213" id="-38039">
		<tag k="name" v="Laukhammarvika" />
		<tag k="name:no" v="Laukhammarvika" />
		<tag k="natural" v="bay" />
		<tag k="ssr:stedsnr" v="930860" />
	</node>
	<node lat="68.54760277973378" lon="16.259586115638733" id="-38043">
		<tag k="name" v="Finnstøa" />
		<tag k="name:no" v="Finnstøa" />
		<tag k="natural" v="bay" />
		<tag k="ssr:stedsnr" v="930871" />
	</node>
	<node lat="68.54447777511164" lon="16.487866660894518" id="-38044">
		<tag k="name" v="Valen" />
		<tag k="name:no" v="Valen" />
		<tag k="natural" v="strait" />
		<tag k="ssr:stedsnr" v="930872" />
	</node>
	<node lat="68.54026944708092" lon="16.583563897969544" id="-38045">
		<tag k="name" v="Liabukta" />
		<tag k="name:no" v="Liabukta" />
		<tag k="natural" v="bay" />
		<tag k="ssr:stedsnr" v="930879" />
	</node>
	<node lat="68.55641388729256" lon="16.284213885939177" id="-38050">
		<tag k="name" v="Tjønneset" />
		<tag k="name:no" v="Tjønneset" />
		<tag k="natural" v="cape" />
		<tag k="ssr:stedsnr" v="930840" />
	</node>
	<node lat="68.50496667029886" lon="16.456900011804883" id="-38058">
		<tag k="name" v="Straumsneset" />
		<tag k="name:no" v="Straumsneset" />
		<tag k="natural" v="cape" />
		<tag k="ssr:stedsnr" v="875671" />
	</node>
	<node lat="68.56610278121843" lon="16.318644448552522" id="-38059">
		<tag k="name" v="Ulvikstranda" />
		<tag k="name:no" v="Ulvikstranda" />
		<tag k="natural" v="beach" />
		<tag k="ssr:stedsnr" v="876105" />
	</node>
	<node lat="68.50902222329609" lon="16.433755549999756" id="-38061">
		<tag k="name" v="Kroken" />
		<tag k="name:no" v="Kroken" />
		<tag k="natural" v="bay" />
		<tag k="ssr:stedsnr" v="876008" />
	</node>
	<node lat="68.560472221502" lon="16.31300277142877" id="-38063">
		<tag k="name" v="Ballstadneset" />
		<tag k="name:no" v="Ballstadneset" />
		<tag k="natural" v="cape" />
		<tag k="ssr:stedsnr" v="876101" />
	</node>
	<node lat="68.55957499686566" lon="16.320819435551737" id="-38064">
		<tag k="fixme" v="consider seamark:type=rock or natural=shoal" />
		<tag k="name" v="Ballstadskjæret" />
		<tag k="name:no" v="Ballstadskjæret" />
		<tag k="place" v="islet" />
		<tag k="ssr:stedsnr" v="876102" />
	</node>
	<node lat="68.40824166749745" lon="16.225100008939734" id="-38067">
		<tag k="name" v="Holtet" />
		<tag k="name:no" v="Holtet" />
		<tag k="natural" v="cape" />
		<tag k="ssr:stedsnr" v="876401" />
	</node>
	<node lat="68.42373055270815" lon="16.12346112032939" id="-38079">
		<tag k="name" v="Saltosan" />
		<tag k="name:no" v="Saltosan" />
		<tag k="natural" v="beach" />
		<tag k="ssr:stedsnr" v="877359" />
	</node>
	<node lat="68.42164722177213" lon="16.409594431366536" id="-38081">
		<tag k="name" v="Molvika" />
		<tag k="name:no" v="Molvika" />
		<tag k="natural" v="bay" />
		<tag k="ssr:stedsnr" v="877618" />
	</node>
	<node lat="68.55673055943323" lon="16.607030549683444" id="-38083">
		<tag k="name" v="Tøgrunnen" />
		<tag k="name:no" v="Tøgrunnen" />
		<tag k="natural" v="shoal" />
		<tag k="place" v="locality" />
		<tag k="ssr:stedsnr" v="879012" />
	</node>
	<node lat="68.55496110742286" lon="16.508672213646875" id="-38084">
		<tag k="fixme" v="consider seamark:type=rock or natural=shoal" />
		<tag k="name" v="Steinskjæret" />
		<tag k="name:no" v="Steinskjæret" />
		<tag k="place" v="islet" />
		<tag k="ssr:stedsnr" v="880231" />
	</node>
	<node lat="68.4481722264004" lon="16.155652778021167" id="-38085">
		<tag k="name" v="Forosstranda" />
		<tag k="name:no" v="Forosstranda" />
		<tag k="natural" v="beach" />
		<tag k="ssr:stedsnr" v="934628" />
	</node>
	<node lat="68.45051944314325" lon="16.121263892038417" id="-38092">
		<tag k="name" v="Ganghaugvika" />
		<tag k="name:no" v="Ganghaugvika" />
		<tag k="natural" v="bay" />
		<tag k="ssr:stedsnr" v="934677" />
	</node>
</osm>
