<?xml version="1.0" encoding="UTF-8"?>
<osm generator="osmapis" version="0.6">
	<node id="-19712" lat="59.4145000006" lon="10.6936805483">
		<tag k="bridge" v="yes" />
		<tag k="layer" v="1" />
		<tag k="name" v="Myravegen" />
		<tag k="ssr:stedsnr" v="592478" />
	</node>
	<node id="-19711" lat="59.3058166634" lon="10.6971611109">
		<tag k="name" v="Teipa" />
		<tag k="place" v="locality" />
		<tag k="ssr:stedsnr" v="574906" />
	</node>
	<node id="-19454" lat="59.3886388927" lon="10.7264250037">
		<tag k="bridge" v="yes" />
		<tag k="layer" v="1" />
		<tag k="name" v="Bjølsen" />
		<tag k="ssr:stedsnr" v="478806" />
	</node>
	<node id="-19932" lat="59.377608469" lon="10.7487975603">
		<tag k="alt_name" v="Rygge" />
		<tag k="name" v="Rygge stasjon" />
		<tag k="railway" v="station" />
		<tag k="ssr:stedsnr" v="935074" />
		<tag k="train" v="yes" />
	</node>
	<node id="-19355" lat="59.3566666695" lon="10.7402944368">
		<tag k="bridge" v="yes" />
		<tag k="layer" v="1" />
		<tag k="name" v="Kure" />
		<tag k="ssr:stedsnr" v="289447" />
	</node>
	<node id="-19417" lat="59.4058555597" lon="10.7521250088">
		<tag k="landuse" v="industrial" />
		<tag k="name" v="Vannverket" />
		<tag k="power" v="plant" />
		<tag k="ssr:stedsnr" v="357847" />
	</node>
	<node id="-19604" lat="59.3769249978" lon="10.7493611147">
		<tag k="bridge" v="yes" />
		<tag k="layer" v="1" />
		<tag k="name" v="Rygge stasjon" />
		<tag k="ssr:stedsnr" v="228486" />
	</node>
	<node id="-19414" lat="59.3628611129" lon="10.7241833273">
		<tag k="junction" v="yes" />
		<tag k="name" v="Pytten" />
		<tag k="place" v="locality" />
		<tag k="ssr:stedsnr" v="357318" />
	</node>
	<node id="-19433" lat="59.3858361153" lon="10.7512583356">
		<tag k="bridge" v="yes" />
		<tag k="layer" v="1" />
		<tag k="name" v="Halmstad" />
		<tag k="ssr:stedsnr" v="410455" />
	</node>
	<node id="-19828" lat="59.3281972193" lon="10.7044972187">
		<tag k="highway" v="path" />
		<tag k="name" v="Bølåsveien" />
		<tag k="ssr:stedsnr" v="781436" />
	</node>
	<node id="-19667" lat="59.419677781" lon="10.7047888973">
		<tag k="bridge" v="yes" />
		<tag k="layer" v="1" />
		<tag k="name" v="Frydenlund vest" />
		<tag k="ssr:stedsnr" v="471445" />
	</node>
	<node id="-19570" lat="59.3888944426" lon="10.7441416689">
		<tag k="bridge" v="yes" />
		<tag k="layer" v="1" />
		<tag k="name" v="Patterød øst" />
		<tag k="ssr:stedsnr" v="167478" />
	</node>
	<node id="-19571" lat="59.378630554" lon="10.6587611136">
		<tag k="man_made" v="quay" />
		<tag k="name" v="Lagerhusbrygga" />
		<tag k="place" v="locality" />
		<tag k="ssr:stedsnr" v="174076" />
	</node>
	<node id="-19856" lat="59.3681361075" lon="10.684152774">
		<tag k="junction" v="yes" />
		<tag k="name" v="Evjekrysset" />
		<tag k="place" v="locality" />
		<tag k="ssr:stedsnr" v="842088" />
	</node>
	<node id="-19820" lat="59.4146416656" lon="10.7015305527">
		<tag k="bridge" v="yes" />
		<tag k="layer" v="1" />
		<tag k="name" v="Årvoldkrysset" />
		<tag k="ssr:stedsnr" v="774486" />
	</node>
	<node id="-19467" lat="59.4233805578" lon="10.7071444508">
		<tag k="bridge" v="yes" />
		<tag k="layer" v="1" />
		<tag k="name" v="Lille Storebog" />
		<tag k="ssr:stedsnr" v="896460" />
	</node>
	<node id="-19913" lat="59.3568027793" lon="10.7494361191">
		<tag k="junction" v="yes" />
		<tag k="name" v="Katrinekrysset" />
		<tag k="place" v="locality" />
		<tag k="ssr:stedsnr" v="904224" />
	</node>
	<node id="-19496" lat="59.3865111108" lon="10.6534416583">
		<tag k="leisure" v="marina" />
		<tag k="name" v="Fuglevik båthavn" />
		<tag k="ssr:stedsnr" v="53140" />
	</node>
	<node id="-19911" lat="59.3864222246" lon="10.6876666744">
		<tag k="bridge" v="yes" />
		<tag k="layer" v="1" />
		<tag k="name" v="Jokums bru" />
		<tag k="ssr:stedsnr" v="903927" />
	</node>
	<node id="-19749" lat="59.3117027811" lon="10.7013416667">
		<tag k="name" v="Flata" />
		<tag k="place" v="locality" />
		<tag k="ssr:stedsnr" v="634897" />
	</node>
	<node id="-19395" lat="59.4272222212" lon="10.7066916696">
		<tag k="bridge" v="yes" />
		<tag k="layer" v="1" />
		<tag k="name" v="Storebog vest" />
		<tag k="ssr:stedsnr" v="349499" />
	</node>
</osm>
