<?xml version="1.0" encoding="UTF-8"?>
<osm generator="osmapis" version="0.6">
	<node id="-19581" lat="59.4260277775" lon="10.6998611053">
		<tag k="name" v="Hananbukta" />
		<tag k="natural" v="bay" />
		<tag k="ssr:stedsnr" v="175060" />
	</node>
	<node id="-19960" lat="59.3976527788" lon="10.8057027755">
		<tag k="name" v="Langverp" />
		<tag k="natural" v="cape" />
		<tag k="ssr:stedsnr" v="964699" />
	</node>
	<node id="-19956" lat="59.4286722228" lon="10.6981944508">
		<tag k="name" v="Lakenet" />
		<tag k="place" v="islet" />
		<tag k="ssr:stedsnr" v="964094" />
	</node>
	<node id="-19955" lat="59.4238083328" lon="10.7005944466">
		<tag k="name" v="Hedenskapet" />
		<tag k="natural" v="bay" />
		<tag k="ssr:stedsnr" v="964088" />
	</node>
	<node id="-19954" lat="59.3873833314" lon="10.7915999933">
		<tag k="name" v="Fredskjærbekken" />
		<tag k="ssr:stedsnr" v="964026" />
		<tag k="waterway" v="stream" />
	</node>
	<node id="-19951" lat="59.409333336" lon="10.7119916725">
		<tag k="name" v="Dramstadbukta" />
		<tag k="natural" v="bay" />
		<tag k="ssr:stedsnr" v="963922" />
	</node>
	<node id="-19949" lat="59.3835111091" lon="10.6653916657">
		<tag k="name" v="Gunnarsbybekken" />
		<tag k="ssr:stedsnr" v="963622" />
		<tag k="waterway" v="stream" />
	</node>
	<node id="-19922" lat="59.4053666695" lon="10.7395750085">
		<tag k="name" v="Feøytangen" />
		<tag k="natural" v="cape" />
		<tag k="ssr:stedsnr" v="904842" />
	</node>
	<node id="-19687" lat="59.3617194452" lon="10.675336113">
		<tag k="name" v="Tjernet" />
		<tag k="natural" v="water" />
		<tag k="ssr:stedsnr" v="539036" />
		<tag k="water" v="pond" />
	</node>
	<node id="-19427" lat="59.3490166663" lon="10.678733325">
		<tag k="name" v="Botnertjernet" />
		<tag k="natural" v="water" />
		<tag k="ssr:stedsnr" v="366597" />
	</node>
	<node id="-19682" lat="59.392733334" lon="10.6928916735">
		<tag k="name" v="Løkenbekken" />
		<tag k="ssr:stedsnr" v="538908" />
		<tag k="waterway" v="stream" />
	</node>
	<node id="-19553" lat="59.4160555577" lon="10.7704500022">
		<tag k="name" v="Kjellerødtangen" />
		<tag k="natural" v="cape" />
		<tag k="ssr:stedsnr" v="115714" />
	</node>
	<node id="-19807" lat="59.4075722248" lon="10.7258222242">
		<tag k="name" v="Fiulstadsundet" />
		<tag k="natural" v="strait" />
		<tag k="ssr:stedsnr" v="721824" />
	</node>
	<node id="-19550" lat="59.3955452837" lon="10.8028303374">
		<tag k="name" v="Fredskjærkilen" />
		<tag k="natural" v="bay" />
		<tag k="ssr:stedsnr" v="115689" />
	</node>
	<node id="-19549" lat="59.3943805539" lon="10.7980805536">
		<tag k="name" v="Burøya" />
		<tag k="place" v="islet" />
		<tag k="ssr:stedsnr" v="115688" />
	</node>
	<node id="-19794" lat="59.428119441" lon="10.725950007">
		<tag k="name" v="Sandbukta" />
		<tag k="natural" v="bay" />
		<tag k="ssr:stedsnr" v="721057" />
	</node>
	<node id="-19412" lat="59.4286750001" lon="10.6987777765">
		<tag k="name" v="Puta" />
		<tag k="place" v="islet" />
		<tag k="ssr:stedsnr" v="357082" />
	</node>
	<node id="-19411" lat="59.3735611107" lon="10.7349888861">
		<tag k="name" v="Kureåa" />
		<tag k="ssr:stedsnr" v="357071" />
		<tag k="waterway" v="stream" />
	</node>
	<node id="-19410" lat="59.3504944475" lon="10.755058325">
		<tag k="name" v="Rosnesbekken" />
		<tag k="ssr:stedsnr" v="357050" />
		<tag k="waterway" v="stream" />
	</node>
	<node id="-19704" lat="59.4225277746" lon="10.7153722211">
		<tag k="name" v="Årvolltangen" />
		<tag k="natural" v="cape" />
		<tag k="ssr:stedsnr" v="548979" />
	</node>
	<node id="-19917" lat="59.3988250025" lon="10.8066277808">
		<tag k="name" v="Langverpbukta" />
		<tag k="natural" v="bay" />
		<tag k="ssr:stedsnr" v="904700" />
	</node>
	<node id="-19366" lat="59.3413416653" lon="10.686325004">
		<tag k="name" v="Støtvikbekken" />
		<tag k="ssr:stedsnr" v="296185" />
		<tag k="waterway" v="stream" />
	</node>
	<node id="-19810" lat="59.4081532564" lon="10.7283845331">
		<tag k="name" v="Feøya" />
		<tag k="place" v="islet" />
		<tag k="ssr:stedsnr" v="730318" />
	</node>
	<node id="-19657" lat="59.4080027812" lon="10.7399194434">
		<tag k="name" v="Prestholmen" />
		<tag k="natural" v="cape" />
		<tag k="ssr:stedsnr" v="418836" />
	</node>
	<node id="-19783" lat="59.3216527791" lon="10.6485499949">
		<tag k="alt_name" v="Eløydammen" />
		<tag k="name" v="Eldøydammen" />
		<tag k="natural" v="water" />
		<tag k="ssr:stedsnr" v="720119" />
	</node>
	<node id="-19653" lat="59.4093583325" lon="10.7312500053">
		<tag k="name" v="Nordbukta" />
		<tag k="natural" v="bay" />
		<tag k="ssr:stedsnr" v="418725" />
	</node>
	<node id="-19651" lat="59.395038891" lon="10.8036805533">
		<tag k="name" v="Kuskjær" />
		<tag k="place" v="islet" />
		<tag k="ssr:stedsnr" v="418696" />
	</node>
	<node id="-19659" lat="59.3964277765" lon="10.8121499977">
		<tag k="name" v="Bjørnøya" />
		<tag k="place" v="islet" />
		<tag k="ssr:stedsnr" v="427326" />
	</node>
	<node id="-19381" lat="59.4284250028" lon="10.7326611174">
		<tag k="name" v="Årvollfjorden" />
		<tag k="natural" v="bay" />
		<tag k="ssr:stedsnr" v="305364" />
	</node>
	<node id="-19769" lat="59.4002666703" lon="10.76962778">
		<tag k="name" v="Huggenesbekken" />
		<tag k="ssr:stedsnr" v="660772" />
		<tag k="waterway" v="stream" />
	</node>
	<node id="-19892" lat="59.4153583344" lon="10.7179666586">
		<tag k="alt_name" v="Sildeholmen" />
		<tag k="name" v="Store Sileholmen" />
		<tag k="place" v="islet" />
		<tag k="ssr:stedsnr" v="852967" />
	</node>
	<node id="-19510" lat="59.3968944461" lon="10.8085000082">
		<tag k="name" v="Bjørnepanna" />
		<tag k="place" v="islet" />
		<tag k="ssr:stedsnr" v="54723" />
	</node>
	<node id="-19765" lat="59.3921500023" lon="10.7930138921">
		<tag k="name" v="Kapteinbekken" />
		<tag k="ssr:stedsnr" v="660717" />
		<tag k="waterway" v="stream" />
	</node>
	<node id="-19764" lat="59.3821222226" lon="10.7211833356">
		<tag k="name" v="Bjølsenbekken" />
		<tag k="ssr:stedsnr" v="660709" />
		<tag k="waterway" v="stream" />
	</node>
	<node id="-19379" lat="59.3988083363" lon="10.7411055579">
		<tag k="name" v="Støabukta" />
		<tag k="natural" v="bay" />
		<tag k="ssr:stedsnr" v="297789" />
	</node>
	<node id="-19878" lat="59.4029138849" lon="10.7940388968">
		<tag k="name" v="Brentetangen" />
		<tag k="natural" v="cape" />
		<tag k="ssr:stedsnr" v="843781" />
	</node>
	<node id="-19492" lat="59.3582527772" lon="10.6955388838">
		<tag k="name" v="Opstadbekken" />
		<tag k="ssr:stedsnr" v="53037" />
		<tag k="waterway" v="stream" />
	</node>
	<node id="-19362" lat="59.4289250025" lon="10.6975388816">
		<tag k="name" v="Dyna" />
		<tag k="place" v="islet" />
		<tag k="ssr:stedsnr" v="296060" />
	</node>
	<node id="-19361" lat="59.4301638931" lon="10.7296499937">
		<tag k="name" v="Grevlingbukta" />
		<tag k="natural" v="bay" />
		<tag k="ssr:stedsnr" v="296059" />
	</node>
	<node id="-19615" lat="59.3825222186" lon="10.6850777853">
		<tag k="name" v="Vangsbekken" />
		<tag k="ssr:stedsnr" v="235928" />
		<tag k="waterway" v="stream" />
	</node>
	<node id="-19525" lat="59.3450333317" lon="10.7571861044">
		<tag k="name" v="Molvikbekken" />
		<tag k="ssr:stedsnr" v="114009" />
		<tag k="waterway" v="stream" />
	</node>
	<node id="-19610" lat="59.3718305561" lon="10.6742500077">
		<tag k="name" v="Evjeåa" />
		<tag k="ssr:stedsnr" v="235102" />
		<tag k="waterway" v="stream" />
	</node>
	<node id="-19737" lat="59.4014750019" lon="10.7357638846">
		<tag k="name" v="Grønøy" />
		<tag k="place" v="islet" />
		<tag k="ssr:stedsnr" v="600738" />
	</node>
	<node id="-19736" lat="59.4004861095" lon="10.8046027703">
		<tag k="name" v="Sundtangen" />
		<tag k="natural" v="cape" />
		<tag k="ssr:stedsnr" v="600728" />
	</node>
	<node id="-19587" lat="59.4169249959" lon="10.7685055533">
		<tag k="name" v="Badefjellet" />
		<tag k="natural" v="cape" />
		<tag k="ssr:stedsnr" v="175755" />
	</node>
	<node id="-19842" lat="59.4048222202" lon="10.7766638963">
		<tag k="name" v="Kilebukta" />
		<tag k="natural" v="bay" />
		<tag k="ssr:stedsnr" v="782829" />
	</node>
	<node id="-19841" lat="59.4071611068" lon="10.7552222259">
		<tag k="name" v="Kjellerødbukta" />
		<tag k="natural" v="bay" />
		<tag k="ssr:stedsnr" v="782821" />
	</node>
</osm>
