<?xml version="1.0" encoding="UTF-8"?>
<osm generator="osmapis" version="0.6">
	<node id="-19487" lat="59.2998583353" lon="10.6866583414">
		<tag k="alt_name" v="Elødøya-Sletter naturreservat" />
		<tag k="fixme" v="consider boundary=protected_area and relevant protect_class if not nature reserve" />
		<tag k="leisure" v="nature_reserve" />
		<tag k="name" v="Eldøya-Sletter naturreservat" />
		<tag k="ssr:stedsnr" v="52094" />
	</node>
	<node id="-19902" lat="59.3412888888" lon="10.7375083399">
		<tag k="fixme" v="consider boundary=protected_area and relevant protect_class if not nature reserve" />
		<tag k="leisure" v="nature_reserve" />
		<tag k="name" v="Kurefjorden naturreservat" />
		<tag k="ssr:stedsnr" v="903018" />
	</node>
	<node id="-19869" lat="59.3880305581" lon="10.670208341">
		<tag k="fixme" v="consider boundary=protected_area and relevant protect_class if not nature reserve" />
		<tag k="leisure" v="nature_reserve" />
		<tag k="name" v="Telemarkslund naturreservat" />
		<tag k="ssr:stedsnr" v="842943" />
	</node>
	<node id="-19573" lat="59.3648722266" lon="10.6788000039">
		<tag k="fixme" v="consider boundary=protected_area and relevant protect_class if not nature reserve" />
		<tag k="leisure" v="nature_reserve" />
		<tag k="name" v="Kajalunden naturreservat" />
		<tag k="ssr:stedsnr" v="174046" />
	</node>
	<node id="-19923" lat="59.3169305533" lon="10.6512222143">
		<tag k="fixme" v="consider boundary=protected_area and relevant protect_class if not nature reserve" />
		<tag k="leisure" v="nature_reserve" />
		<tag k="name" v="Eldøya naturreservat" />
		<tag k="ssr:stedsnr" v="906624" />
	</node>
	<node id="-19439" lat="59.4021722239" lon="10.665019452">
		<tag k="fixme" v="consider boundary=protected_area and relevant protect_class if not nature reserve" />
		<tag k="leisure" v="nature_reserve" />
		<tag k="name" v="Bogslunden naturreservat" />
		<tag k="ssr:stedsnr" v="477935" />
	</node>
	<node id="-19861" lat="59.3533194473" lon="10.6768916753">
		<tag k="fixme" v="consider boundary=protected_area and relevant protect_class if not nature reserve" />
		<tag k="leisure" v="nature_reserve" />
		<tag k="name" v="Vardåsen naturreservat" />
		<tag k="ssr:stedsnr" v="842207" />
	</node>
	<node id="-19363" lat="59.4101377859" lon="10.7286273151">
		<tag k="fixme" v="consider boundary=protected_area and relevant protect_class if not nature reserve" />
		<tag k="leisure" v="nature_reserve" />
		<tag k="name" v="Vestre Vansjø naturreservat" />
		<tag k="ssr:stedsnr" v="296093" />
	</node>
</osm>
