<?xml version="1.0" encoding="UTF-8"?>
<osm generator="osmapis" version="0.6">
	<node id="-19437" lat="59.3252944448" lon="10.7143888849">
		<tag k="fixme" v="consider seamark:type=rock or natural=shoal" />
		<tag k="name" v="Sørskjæret" />
		<tag k="place" v="islet" />
		<tag k="ssr:stedsnr" v="477414" />
	</node>
	<node id="-19946" lat="59.3286666625" lon="10.6647277775">
		<tag k="name" v="Festningstangen" />
		<tag k="natural" v="cape" />
		<tag k="ssr:stedsnr" v="963441" />
	</node>
	<node id="-19432" lat="59.3972249976" lon="10.624813883">
		<tag k="name" v="Nygrunnen" />
		<tag k="natural" v="shoal" />
		<tag k="place" v="locality" />
		<tag k="ssr:stedsnr" v="392913" />
	</node>
	<node id="-19431" lat="59.314961111" lon="10.6794527748">
		<tag k="alt_name" v="Engerholmbukta" />
		<tag k="name" v="Engholmbukta" />
		<tag k="natural" v="bay" />
		<tag k="ssr:stedsnr" v="392134" />
	</node>
	<node id="-19430" lat="59.3165444416" lon="10.6889805499">
		<tag k="name" v="Engholmen" />
		<tag k="natural" v="cape" />
		<tag k="ssr:stedsnr" v="366640" />
	</node>
	<node id="-19941" lat="59.335575004" lon="10.6611805533">
		<tag k="name" v="Rødstranda" />
		<tag k="natural" v="beach" />
		<tag k="place" v="locality" />
		<tag k="ssr:stedsnr" v="963105" />
	</node>
	<node id="-19940" lat="59.326402778" lon="10.6421361148">
		<tag k="alt_name" v="Eløyrabben" />
		<tag k="name" v="Eldøyrabben" />
		<tag k="place" v="islet" />
		<tag k="ssr:stedsnr" v="963104" />
	</node>
	<node id="-19426" lat="59.348747223" lon="10.6418916614">
		<tag k="alt_name" v="Botnegrunnene" />
		<tag k="name" v="Botnergrunnen" />
		<tag k="natural" v="shoal" />
		<tag k="place" v="locality" />
		<tag k="ssr:stedsnr" v="366595" />
	</node>
	<node id="-19936" lat="59.3614416693" lon="10.6645527782">
		<tag k="name" v="Posjetangen" />
		<tag k="natural" v="cape" />
		<tag k="ssr:stedsnr" v="938898" />
	</node>
	<node id="-19935" lat="59.3888999968" lon="10.6390916649">
		<tag k="name" v="Revlinghausen" />
		<tag k="place" v="locality" />
		<tag k="seamark:type" v="rock" />
		<tag k="ssr:stedsnr" v="938896" />
	</node>
	<node id="-19934" lat="59.3178694475" lon="10.698872222">
		<tag k="name" v="Husebukta" />
		<tag k="natural" v="bay" />
		<tag k="ssr:stedsnr" v="938877" />
	</node>
	<node id="-19930" lat="59.3133555536" lon="10.6378305546">
		<tag k="name" v="Hausen" />
		<tag k="natural" v="shoal" />
		<tag k="place" v="locality" />
		<tag k="ssr:stedsnr" v="913586" />
	</node>
	<node id="-19929" lat="59.3267218809" lon="10.7153214478">
		<tag k="name" v="Sildebogen" />
		<tag k="natural" v="cape" />
		<tag k="ssr:stedsnr" v="913578" />
	</node>
	<node id="-19405" lat="59.3564500005" lon="10.657538888">
		<tag k="fixme" v="consider seamark:type=rock or natural=shoal" />
		<tag k="name" v="Blåskjær" />
		<tag k="place" v="islet" />
		<tag k="ssr:stedsnr" v="356437" />
	</node>
	<node id="-19404" lat="59.3331861133" lon="10.6632444495">
		<tag k="name" v="Tollstranda" />
		<tag k="natural" v="beach" />
		<tag k="place" v="locality" />
		<tag k="ssr:stedsnr" v="356438" />
	</node>
	<node id="-19403" lat="59.3400666691" lon="10.6618916623">
		<tag k="fixme" v="consider seamark:type=rock or natural=shoal" />
		<tag k="name" v="Klokkeren" />
		<tag k="place" v="islet" />
		<tag k="ssr:stedsnr" v="356432" />
	</node>
	<node id="-19402" lat="59.3196027773" lon="10.6803805605">
		<tag k="name" v="Tatervika" />
		<tag k="natural" v="bay" />
		<tag k="ssr:stedsnr" v="356392" />
	</node>
	<node id="-19394" lat="59.3638083365" lon="10.6603611066">
		<tag k="alt_name" v="Svartsker" />
		<tag k="fixme" v="consider seamark:type=rock or natural=shoal" />
		<tag k="name" v="Svartskjær" />
		<tag k="place" v="islet" />
		<tag k="ssr:stedsnr" v="331777" />
	</node>
	<node id="-19392" lat="59.3295305559" lon="10.6510388822">
		<tag k="alt_name" v="Kollesundet" />
		<tag k="name" v="Kollsundet" />
		<tag k="natural" v="strait" />
		<tag k="ssr:stedsnr" v="306559" />
	</node>
	<node id="-19391" lat="59.3370555595" lon="10.6599805543">
		<tag k="name" v="Gårdstangen" />
		<tag k="natural" v="cape" />
		<tag k="ssr:stedsnr" v="306555" />
	</node>
	<node id="-19898" lat="59.3167333309" lon="10.6763722202">
		<tag k="name" v="Engholmstangen" />
		<tag k="natural" v="cape" />
		<tag k="ssr:stedsnr" v="902411" />
	</node>
	<node id="-19896" lat="59.3074972233" lon="10.6822305469">
		<tag k="alt_name" v="Neset" />
		<tag k="name" v="Signneset" />
		<tag k="natural" v="cape" />
		<tag k="ssr:stedsnr" v="878786" />
	</node>
	<node id="-19895" lat="59.3670722183" lon="10.6511111129">
		<tag k="name" v="Årefjordbåen" />
		<tag k="place" v="locality" />
		<tag k="seamark:type" v="rock" />
		<tag k="ssr:stedsnr" v="877991" />
	</node>
	<node id="-19893" lat="59.3330861149" lon="10.7185416676">
		<tag k="name" v="Møvik" />
		<tag k="natural" v="bay" />
		<tag k="ssr:stedsnr" v="874781" />
	</node>
	<node id="-19891" lat="59.3112111077" lon="10.6503388961">
		<tag k="name" v="Hellene" />
		<tag k="natural" v="shoal" />
		<tag k="place" v="locality" />
		<tag k="ssr:stedsnr" v="852612" />
	</node>
	<node id="-19888" lat="59.3812666672" lon="10.6357333326">
		<tag k="alt_name" v="Fuglene" />
		<tag k="name" v="Fuglen" />
		<tag k="natural" v="shoal" />
		<tag k="place" v="locality" />
		<tag k="ssr:stedsnr" v="852542" />
	</node>
	<node id="-19359" lat="59.3526138915" lon="10.6590583339">
		<tag k="name" v="Søndre Holmebukta" />
		<tag k="natural" v="bay" />
		<tag k="ssr:stedsnr" v="295432" />
	</node>
	<node id="-19353" lat="59.3812583304" lon="10.6498055576">
		<tag k="fixme" v="consider seamark:type=rock or natural=shoal" />
		<tag k="name" v="Fuglevikskjæret" />
		<tag k="place" v="islet" />
		<tag k="ssr:stedsnr" v="271911" />
	</node>
	<node id="-19352" lat="59.3026944421" lon="10.6985499968">
		<tag k="fixme" v="consider seamark:type=rock or natural=shoal" />
		<tag k="name" v="Løndommen" />
		<tag k="place" v="islet" />
		<tag k="ssr:stedsnr" v="271819" />
	</node>
	<node id="-19853" lat="59.3661277809" lon="10.6586444473">
		<tag k="name" v="Fyrikken" />
		<tag k="place" v="islet" />
		<tag k="ssr:stedsnr" v="842006" />
	</node>
	<node id="-19849" lat="59.3060055547" lon="10.6878416704">
		<tag k="name" v="Stretaneset" />
		<tag k="natural" v="cape" />
		<tag k="ssr:stedsnr" v="791627" />
	</node>
	<node id="-19824" lat="59.394697219" lon="10.6475361099">
		<tag k="name" v="Baugstangen" />
		<tag k="natural" v="cape" />
		<tag k="ssr:stedsnr" v="781131" />
	</node>
	<node id="-19823" lat="59.3351333372" lon="10.647236119">
		<tag k="name" v="Kollesten" />
		<tag k="natural" v="cape" />
		<tag k="ssr:stedsnr" v="781106" />
	</node>
	<node id="-19819" lat="59.3105805594" lon="10.6930416713">
		<tag k="fixme" v="multiple name tags, choose one and add the other to alt_name" />
		<tag k="name" v="Barselbukt;Knutvikbukta" />
		<tag k="natural" v="bay" />
		<tag k="ssr:stedsnr" v="756844" />
	</node>
	<node id="-19818" lat="59.3001361097" lon="10.6985638958">
		<tag k="name" v="Gampen" />
		<tag k="place" v="locality" />
		<tag k="seamark:type" v="rock" />
		<tag k="ssr:stedsnr" v="756783" />
	</node>
	<node id="-19813" lat="59.3747249983" lon="10.6536888836">
		<tag k="name" v="Årefjordtangen" />
		<tag k="natural" v="cape" />
		<tag k="ssr:stedsnr" v="730596" />
	</node>
	<node id="-19793" lat="59.361227779" lon="10.6709833286">
		<tag k="name" v="Leira" />
		<tag k="natural" v="shoal" />
		<tag k="place" v="locality" />
		<tag k="ssr:stedsnr" v="721046" />
	</node>
	<node id="-19792" lat="59.3792472235" lon="10.6602694445">
		<tag k="name" v="Leira" />
		<tag k="natural" v="shoal" />
		<tag k="place" v="locality" />
		<tag k="ssr:stedsnr" v="721043" />
	</node>
	<node id="-19790" lat="59.3238805525" lon="10.6688527694">
		<tag k="name" v="Andrénskjæret" />
		<tag k="place" v="islet" />
		<tag k="ssr:stedsnr" v="721003" />
	</node>
	<node id="-19787" lat="59.3215527758" lon="10.6719361124">
		<tag k="name" v="Hvitnesberget" />
		<tag k="natural" v="cape" />
		<tag k="ssr:stedsnr" v="720389" />
	</node>
	<node id="-19782" lat="59.3422410786" lon="10.6622032694">
		<tag k="alt_name" v="Sluvikbukta" />
		<tag k="loc_name" v="Stuviken;Stuvika" />
		<tag k="name" v="Stuvvika" />
		<tag k="natural" v="bay" />
		<tag k="ssr:stedsnr" v="695830" />
	</node>
	<node id="-19781" lat="59.3442500006" lon="10.6595416649">
		<tag k="name" v="Brentetangen" />
		<tag k="natural" v="cape" />
		<tag k="ssr:stedsnr" v="670562" />
	</node>
	<node id="-19780" lat="59.3400805538" lon="10.6395388841">
		<tag k="alt_name" v="Lossgrunnen" />
		<tag k="name" v="Losgrunnen" />
		<tag k="natural" v="shoal" />
		<tag k="place" v="locality" />
		<tag k="ssr:stedsnr" v="670560" />
	</node>
	<node id="-19774" lat="59.3572805583" lon="10.6661583322">
		<tag k="alt_name" v="Evjesund" />
		<tag k="name" v="Evjesundet" />
		<tag k="natural" v="strait" />
		<tag k="ssr:stedsnr" v="669588" />
	</node>
	<node id="-19752" lat="59.3100833357" lon="10.6829333272">
		<tag k="name" v="Nordre Nesbukta" />
		<tag k="natural" v="bay" />
		<tag k="ssr:stedsnr" v="659133" />
	</node>
	<node id="-19751" lat="59.3199805542" lon="10.658416665">
		<tag k="name" v="Ulkeodden" />
		<tag k="natural" v="cape" />
		<tag k="ssr:stedsnr" v="659118" />
	</node>
	<node id="-19748" lat="59.3122138882" lon="10.6812444398">
		<tag k="name" v="Oterbukta" />
		<tag k="natural" v="bay" />
		<tag k="ssr:stedsnr" v="634796" />
	</node>
	<node id="-19747" lat="59.3561611096" lon="10.6672333341">
		<tag k="name" v="Klommetangen" />
		<tag k="natural" v="cape" />
		<tag k="ssr:stedsnr" v="631865" />
	</node>
	<node id="-19746" lat="59.3591333357" lon="10.6635388923">
		<tag k="name" v="Tangen" />
		<tag k="natural" v="cape" />
		<tag k="ssr:stedsnr" v="616658" />
	</node>
	<node id="-19742" lat="59.3336388927" lon="10.7223861084">
		<tag k="fixme" v="consider seamark:type=rock or natural=shoal" />
		<tag k="name" v="Sjuskjær" />
		<tag k="place" v="islet" />
		<tag k="ssr:stedsnr" v="609434" />
	</node>
	<node id="-19718" lat="59.328202778" lon="10.6674277712">
		<tag k="name" v="Lersbaugen" />
		<tag k="natural" v="bay" />
		<tag k="ssr:stedsnr" v="598393" />
	</node>
	<node id="-19714" lat="59.3461027768" lon="10.6610444497">
		<tag k="name" v="Fristranda" />
		<tag k="natural" v="beach" />
		<tag k="place" v="locality" />
		<tag k="ssr:stedsnr" v="598414" />
	</node>
	<node id="-19713" lat="59.3408111131" lon="10.661838887">
		<tag k="fixme" v="consider seamark:type=rock or natural=shoal" />
		<tag k="name" v="Presten" />
		<tag k="place" v="islet" />
		<tag k="ssr:stedsnr" v="598413" />
	</node>
	<node id="-19710" lat="59.3282444431" lon="10.6641611167">
		<tag k="name" v="Fredriksodde" />
		<tag k="natural" v="cape" />
		<tag k="ssr:stedsnr" v="574866" />
	</node>
	<node id="-19709" lat="59.3134416636" lon="10.6822722301">
		<tag k="name" v="Langstranda" />
		<tag k="natural" v="beach" />
		<tag k="place" v="locality" />
		<tag k="ssr:stedsnr" v="574127" />
	</node>
	<node id="-19708" lat="59.3281111156" lon="10.6676805515">
		<tag k="name" v="Leirsbogen" />
		<tag k="natural" v="bay" />
		<tag k="ssr:stedsnr" v="571853" />
	</node>
	<node id="-19702" lat="59.3071527757" lon="10.6216333263">
		<tag k="name" v="Eldøygrunnen" />
		<tag k="natural" v="shoal" />
		<tag k="place" v="locality" />
		<tag k="ssr:stedsnr" v="548641" />
	</node>
	<node id="-19700" lat="59.3216166645" lon="10.6792111154">
		<tag k="alt_name" v="Rørvikbukta" />
		<tag k="name" v="Rørvika" />
		<tag k="natural" v="bay" />
		<tag k="ssr:stedsnr" v="548609" />
	</node>
	<node id="-19680" lat="59.3556027749" lon="10.6584305497">
		<tag k="name" v="Nordre Holmebukta" />
		<tag k="natural" v="bay" />
		<tag k="ssr:stedsnr" v="538464" />
	</node>
	<node id="-19677" lat="59.3055777787" lon="10.6840805538">
		<tag k="name" v="Søndre Nesbukta" />
		<tag k="natural" v="bay" />
		<tag k="ssr:stedsnr" v="538128" />
	</node>
	<node id="-19676" lat="59.3258000019" lon="10.6356666589">
		<tag k="fixme" v="consider seamark:type=rock or natural=shoal" />
		<tag k="name" v="Eldøyrevet" />
		<tag k="place" v="islet" />
		<tag k="ssr:stedsnr" v="513781" />
	</node>
	<node id="-19675" lat="59.3123305595" lon="10.707347231">
		<tag k="alt_name" v="Steinane" />
		<tag k="fixme" v="consider seamark:type=rock or natural=shoal" />
		<tag k="name" v="Steinene" />
		<tag k="place" v="islet" />
		<tag k="ssr:stedsnr" v="513777" />
	</node>
	<node id="-19674" lat="59.3223833297" lon="10.6499138806">
		<tag k="alt_name" v="Eløya" />
		<tag k="name" v="Eldøya" />
		<tag k="place" v="island" />
		<tag k="ssr:stedsnr" v="488593" />
	</node>
	<node id="-19663" lat="59.3698472195" lon="10.6536527844">
		<tag k="name" v="Rumpa" />
		<tag k="natural" v="cape" />
		<tag k="ssr:stedsnr" v="427566" />
	</node>
	<node id="-19639" lat="59.4146111114" lon="10.6385777774">
		<tag k="name" v="Espenesgrunnen" />
		<tag k="natural" v="shoal" />
		<tag k="place" v="locality" />
		<tag k="ssr:stedsnr" v="245971" />
	</node>
	<node id="-19635" lat="59.354054685" lon="10.6584633852">
		<tag k="alt_name" v="Stangarholmen" />
		<tag k="name" v="Stangerholmen" />
		<tag k="place" v="islet" />
		<tag k="ssr:stedsnr" v="245564" />
	</node>
	<node id="-19607" lat="59.3215333332" lon="10.6732527766">
		<tag k="name" v="Hvitnesbukta" />
		<tag k="natural" v="bay" />
		<tag k="ssr:stedsnr" v="235518" />
	</node>
	<node id="-19606" lat="59.3053771886" lon="10.6919797445">
		<tag k="name" v="Nordre Danmarksbukta" />
		<tag k="natural" v="bay" />
		<tag k="ssr:stedsnr" v="234114" />
	</node>
	<node id="-19605" lat="59.3097166629" lon="10.6966000076">
		<tag k="fixme" v="consider seamark:type=rock or natural=shoal" />
		<tag k="name" v="Svartskjær" />
		<tag k="place" v="islet" />
		<tag k="ssr:stedsnr" v="234116" />
	</node>
	<node id="-19603" lat="59.3746472232" lon="10.6505055485">
		<tag k="alt_name" v="Siljusskjæret" />
		<tag k="fixme" v="consider seamark:type=rock or natural=shoal" />
		<tag k="name" v="Sildumskjær" />
		<tag k="place" v="islet" />
		<tag k="ssr:stedsnr" v="210900" />
	</node>
	<node id="-19568" lat="59.3072222265" lon="10.6934666753">
		<tag k="alt_name" v="Teiebærn" />
		<tag k="name" v="Teiebærholmen" />
		<tag k="natural" v="cape" />
		<tag k="ssr:stedsnr" v="149894" />
	</node>
	<node id="-19567" lat="59.3912250014" lon="10.6492694533">
		<tag k="name" v="Kollestranda" />
		<tag k="natural" v="beach" />
		<tag k="place" v="locality" />
		<tag k="ssr:stedsnr" v="146837" />
	</node>
	<node id="-19566" lat="59.3306916646" lon="10.6592000074">
		<tag k="name" v="Larkollsundet" />
		<tag k="natural" v="strait" />
		<tag k="ssr:stedsnr" v="123649" />
	</node>
	<node id="-19565" lat="59.3328583299" lon="10.6520944493">
		<tag k="name" v="Kollen" />
		<tag k="place" v="island" />
		<tag k="ssr:stedsnr" v="123648" />
	</node>
	<node id="-19564" lat="59.3870138856" lon="10.6379472261">
		<tag k="name" v="Mellomgrunnen" />
		<tag k="natural" v="shoal" />
		<tag k="place" v="locality" />
		<tag k="ssr:stedsnr" v="123578" />
	</node>
	<node id="-19563" lat="59.4054361124" lon="10.6178944372">
		<tag k="name" v="Steinergrunnen" />
		<tag k="natural" v="shoal" />
		<tag k="place" v="locality" />
		<tag k="ssr:stedsnr" v="123556" />
	</node>
	<node id="-19561" lat="59.3449555576" lon="10.7404694445">
		<tag k="alt_name" v="Rossnesbukta" />
		<tag k="name" v="Rosnesbukta" />
		<tag k="natural" v="bay" />
		<tag k="ssr:stedsnr" v="123521" />
	</node>
	<node id="-19543" lat="59.4153277761" lon="10.7041694397">
		<tag k="name" v="Årvollbukta" />
		<tag k="natural" v="bay" />
		<tag k="ssr:stedsnr" v="115120" />
	</node>
	<node id="-19384" lat="59.3055250022" lon="10.7030250064">
		<tag k="name" v="Taralden" />
		<tag k="place" v="islet" />
		<tag k="ssr:stedsnr" v="305669" />
	</node>
	<node id="-19534" lat="59.3186305591" lon="10.6990805636">
		<tag k="name" v="Kurestekket" />
		<tag k="natural" v="cape" />
		<tag k="ssr:stedsnr" v="114394" />
	</node>
	<node id="-19532" lat="59.3287527798" lon="10.6444833379">
		<tag k="name" v="Fugleodden" />
		<tag k="natural" v="cape" />
		<tag k="ssr:stedsnr" v="114079" />
	</node>
	<node id="-19383" lat="59.3010916653" lon="10.6926222163">
		<tag k="name" v="Danmark" />
		<tag k="natural" v="cape" />
		<tag k="ssr:stedsnr" v="305668" />
	</node>
	<node id="-19523" lat="59.3382277794" lon="10.6474666749">
		<tag k="name" v="Langgrunnen" />
		<tag k="natural" v="shoal" />
		<tag k="place" v="locality" />
		<tag k="ssr:stedsnr" v="89882" />
	</node>
	<node id="-19522" lat="59.3478805562" lon="10.6615833264">
		<tag k="alt_name" v="Botnerbaugen" />
		<tag k="name" v="Botnerbogen" />
		<tag k="natural" v="bay" />
		<tag k="ssr:stedsnr" v="89832" />
	</node>
	<node id="-19521" lat="59.319669445" lon="10.7122972199">
		<tag k="name" v="Ulvegrunnen" />
		<tag k="natural" v="shoal" />
		<tag k="place" v="locality" />
		<tag k="ssr:stedsnr" v="89779" />
	</node>
	<node id="-19516" lat="59.3716555548" lon="10.6584388941">
		<tag k="bay" v="fjord" />
		<tag k="name" v="Årefjorden" />
		<tag k="natural" v="bay" />
		<tag k="ssr:stedsnr" v="63572" />
	</node>
	<node id="-19505" lat="59.3234027777" lon="10.6775111048">
		<tag k="name" v="Knarrebaugen" />
		<tag k="natural" v="bay" />
		<tag k="ssr:stedsnr" v="54010" />
	</node>
	<node id="-19499" lat="59.3207472253" lon="10.6757277804">
		<tag k="name" v="Kråke" />
		<tag k="natural" v="cape" />
		<tag k="ssr:stedsnr" v="53406" />
	</node>
	<node id="-19489" lat="59.3585055558" lon="10.6590277865">
		<tag k="name" v="Galgeberget" />
		<tag k="place" v="islet" />
		<tag k="ssr:stedsnr" v="53015" />
	</node>
	<node id="-19486" lat="59.3037888869" lon="10.6890138917">
		<tag k="name" v="Søndre Danmarksbukta" />
		<tag k="natural" v="bay" />
		<tag k="ssr:stedsnr" v="52093" />
	</node>
	<node id="-19484" lat="59.3395611089" lon="10.7302805625">
		<tag k="alt_name" v="Kureskjær" />
		<tag k="name" v="Kureskjæret" />
		<tag k="natural" v="cape" />
		<tag k="ssr:stedsnr" v="28836" />
	</node>
	<node id="-19483" lat="59.3315361073" lon="10.6627555526">
		<tag k="name" v="Sandtangen" />
		<tag k="natural" v="cape" />
		<tag k="ssr:stedsnr" v="25859" />
	</node>
	<node id="-19482" lat="59.3260361073" lon="10.6682027784">
		<tag k="alt_name" v="Kloddskjæra;Klodskjæret" />
		<tag k="fixme" v="consider seamark:type=rock or natural=shoal" />
		<tag k="name" v="Klodskjæra" />
		<tag k="place" v="islet" />
		<tag k="ssr:stedsnr" v="25858" />
	</node>
	<node id="-19478" lat="59.3980249962" lon="10.6346249961">
		<tag k="alt_name" v="Revlingen" />
		<tag k="name" v="Store Revlingen" />
		<tag k="place" v="islet" />
		<tag k="ssr:stedsnr" v="2541" />
	</node>
	<node id="-19477" lat="59.3942888901" lon="10.6357499991">
		<tag k="name" v="Lille Revlingen" />
		<tag k="place" v="islet" />
		<tag k="ssr:stedsnr" v="2542" />
	</node>
	<node id="-19471" lat="59.3746799309" lon="10.6618005">
		<tag k="name" v="Bryggeberget" />
		<tag k="natural" v="cape" />
		<tag k="ssr:stedsnr" v="987564" />
	</node>
	<node id="-19470" lat="59.3324410551" lon="10.6544763541">
		<tag k="name" v="Kirkegårdsbukta" />
		<tag k="natural" v="bay" />
		<tag k="ssr:stedsnr" v="987559" />
	</node>
</osm>
