<?xml version="1.0" encoding="UTF-8"?>
<osm generator="osmapis" version="0.6">
	<node id="-19456" lat="59.3127638893" lon="10.6847499964">
		<tag k="fixme" v="consider natural=peak for the most distinct mountains in the district" />
		<tag k="name" v="Barselberget" />
		<tag k="natural" v="hill" />
		<tag k="place" v="locality" />
		<tag k="ssr:stedsnr" v="477124" />
	</node>
	<node id="-19709" lat="59.3377000034" lon="10.7073305594">
		<tag k="fixme" v="consider natural=peak for the most distinct mountains in the district" />
		<tag k="name" v="Fugleås" />
		<tag k="natural" v="hill" />
		<tag k="place" v="locality" />
		<tag k="ssr:stedsnr" v="539175" />
	</node>
	<node id="-19704" lat="59.4043305592" lon="10.6697249937">
		<tag k="fixme" v="consider natural=peak for the most distinct mountains in the district" />
		<tag k="name" v="Carlbergåsen" />
		<tag k="natural" v="hill" />
		<tag k="place" v="locality" />
		<tag k="ssr:stedsnr" v="538910" />
	</node>
	<node id="-19571" lat="59.3932361155" lon="10.804219439">
		<tag k="name" v="Søgårdsdalen" />
		<tag k="natural" v="valley" />
		<tag k="place" v="locality" />
		<tag k="ssr:stedsnr" v="115695" />
	</node>
	<node id="-19666" lat="59.3993694469" lon="10.6608500055">
		<tag k="fixme" v="consider natural=peak for the most distinct mountains in the district" />
		<tag k="name" v="Baugsåsen" />
		<tag k="natural" v="hill" />
		<tag k="place" v="locality" />
		<tag k="ssr:stedsnr" v="417610" />
	</node>
	<node id="-19945" lat="59.322113891" lon="10.6965833334">
		<tag k="name" v="Ulvestua" />
		<tag k="natural" v="hill" />
		<tag k="place" v="locality" />
		<tag k="ssr:stedsnr" v="907174" />
	</node>
	<node id="-19816" lat="59.4298638856" lon="10.7210666596">
		<tag k="fixme" v="consider natural=peak for the most distinct mountains in the district" />
		<tag k="name" v="Ravnefjell" />
		<tag k="natural" v="hill" />
		<tag k="place" v="locality" />
		<tag k="ssr:stedsnr" v="721064" />
	</node>
	<node id="-19939" lat="59.4100555558" lon="10.7274277823">
		<tag k="fixme" v="consider natural=peak for the most distinct mountains in the district" />
		<tag k="name" v="Langberget" />
		<tag k="natural" v="hill" />
		<tag k="place" v="locality" />
		<tag k="ssr:stedsnr" v="904765" />
	</node>
	<node id="-19553" lat="59.3546166669" lon="10.7323861097">
		<tag k="name" v="Mellebyåsen" />
		<tag k="natural" v="hill" />
		<tag k="place" v="locality" />
		<tag k="ssr:stedsnr" v="114330" />
	</node>
	<node id="-19933" lat="59.3499944466" lon="10.7681888822">
		<tag k="name" v="Ottersheia" />
		<tag k="place" v="locality" />
		<tag k="ssr:stedsnr" v="904050" />
	</node>
	<node id="-19417" lat="59.363583331" lon="10.7049361144">
		<tag k="fixme" v="consider natural=peak for the most distinct mountains in the district" />
		<tag k="name" v="Kjempekastet" />
		<tag k="natural" v="hill" />
		<tag k="place" v="locality" />
		<tag k="ssr:stedsnr" v="356036" />
	</node>
	<node id="-19671" lat="59.393700004" lon="10.7802027702">
		<tag k="fixme" v="consider natural=peak for the most distinct mountains in the district" />
		<tag k="name" v="Høyås" />
		<tag k="natural" v="hill" />
		<tag k="place" v="locality" />
		<tag k="ssr:stedsnr" v="418694" />
	</node>
	<node id="-19925" lat="59.4332611109" lon="10.7310611128">
		<tag k="fixme" v="consider natural=peak for the most distinct mountains in the district" />
		<tag k="name" v="Kråkeberget" />
		<tag k="natural" v="hill" />
		<tag k="place" v="locality" />
		<tag k="ssr:stedsnr" v="903074" />
	</node>
	<node id="-19794" lat="59.355419443" lon="10.6791777725">
		<tag k="alt_name" v="Vardeåsen" />
		<tag k="fixme" v="consider natural=peak for the most distinct mountains in the district" />
		<tag k="name" v="Vardås" />
		<tag k="natural" v="hill" />
		<tag k="place" v="locality" />
		<tag k="ssr:stedsnr" v="669587" />
	</node>
	<node id="-19921" lat="59.3244777758" lon="10.6811472165">
		<tag k="name" v="Bryggebakken" />
		<tag k="place" v="locality" />
		<tag k="ssr:stedsnr" v="902444" />
	</node>
	<node id="-19403" lat="59.3682388913" lon="10.6671055517">
		<tag k="fixme" v="consider natural=peak for the most distinct mountains in the district" />
		<tag k="name" v="Røysa" />
		<tag k="natural" v="hill" />
		<tag k="place" v="locality" />
		<tag k="ssr:stedsnr" v="305610" />
	</node>
	<node id="-19784" lat="59.3870750032" lon="10.7566499919">
		<tag k="name" v="Grøtås" />
		<tag k="natural" v="hill" />
		<tag k="place" v="locality" />
		<tag k="ssr:stedsnr" v="660706" />
	</node>
	<node id="-19669" lat="59.3509055542" lon="10.7619027828">
		<tag k="fixme" v="consider natural=peak for the most distinct mountains in the district" />
		<tag k="name" v="Tuggeliteåsen" />
		<tag k="natural" v="hill" />
		<tag k="place" v="locality" />
		<tag k="ssr:stedsnr" v="418047" />
	</node>
	<node id="-19780" lat="59.3896027778" lon="10.6589972195">
		<tag k="name" v="Fuglevikåsen" />
		<tag k="natural" v="ridge" />
		<tag k="place" v="locality" />
		<tag k="ssr:stedsnr" v="660115" />
	</node>
	<node id="-19779" lat="59.3694333341" lon="10.6811722138">
		<tag k="name" v="Gullås" />
		<tag k="natural" v="hill" />
		<tag k="place" v="locality" />
		<tag k="ssr:stedsnr" v="660088" />
	</node>
	<node id="-19650" lat="59.4094000001" lon="10.7610638901">
		<tag k="name" v="Bjørndalen" />
		<tag k="natural" v="valley" />
		<tag k="place" v="locality" />
		<tag k="ssr:stedsnr" v="236840" />
	</node>
	<node id="-19521" lat="59.3308750023" lon="10.7066361129">
		<tag k="fixme" v="consider natural=peak for the most distinct mountains in the district" />
		<tag k="name" v="Bølås" />
		<tag k="natural" v="hill" />
		<tag k="place" v="locality" />
		<tag k="ssr:stedsnr" v="53439" />
	</node>
	<node id="-19774" lat="59.3200638882" lon="10.6953055482">
		<tag k="fixme" v="consider natural=peak for the most distinct mountains in the district" />
		<tag k="name" v="Matrosåsen" />
		<tag k="natural" v="hill" />
		<tag k="place" v="locality" />
		<tag k="ssr:stedsnr" v="659406" />
	</node>
	<node id="-19388" lat="59.3514000034" lon="10.7180277864">
		<tag k="fixme" v="consider natural=peak for the most distinct mountains in the district" />
		<tag k="name" v="Kureåsen" />
		<tag k="natural" v="hill" />
		<tag k="place" v="locality" />
		<tag k="ssr:stedsnr" v="296275" />
	</node>
	<node id="-19898" lat="59.3887027796" lon="10.8059305563">
		<tag k="name" v="Grevlingåsen" />
		<tag k="natural" v="hill" />
		<tag k="place" v="locality" />
		<tag k="ssr:stedsnr" v="843751" />
	</node>
	<node id="-19897" lat="59.3910027789" lon="10.8026722303">
		<tag k="fixme" v="consider natural=peak for the most distinct mountains in the district" />
		<tag k="name" v="Vardås" />
		<tag k="natural" v="hill" />
		<tag k="place" v="locality" />
		<tag k="ssr:stedsnr" v="843752" />
	</node>
	<node id="-19508" lat="59.3461750012" lon="10.745655564">
		<tag k="name" v="Kanaholmen" />
		<tag k="natural" v="hill" />
		<tag k="place" v="locality" />
		<tag k="ssr:stedsnr" v="53008" />
	</node>
	<node id="-19464" lat="59.3797388921" lon="10.6513527749">
		<tag k="name" v="Det gule berget" />
		<tag k="natural" v="cliff" />
		<tag k="ssr:stedsnr" v="478047" />
	</node>
	<node id="-19505" lat="59.3230333363" lon="10.7038361025">
		<tag k="name" v="Apalberget" />
		<tag k="natural" v="hill" />
		<tag k="place" v="locality" />
		<tag k="ssr:stedsnr" v="28897" />
	</node>
	<node id="-19375" lat="59.3204944442" lon="10.6426305561">
		<tag k="name" v="Vardeberget" />
		<tag k="natural" v="hill" />
		<tag k="place" v="locality" />
		<tag k="ssr:stedsnr" v="271987" />
	</node>
	<node id="-19372" lat="59.3188111075" lon="10.6796916706">
		<tag k="name" v="Taterberget" />
		<tag k="natural" v="hill" />
		<tag k="place" v="locality" />
		<tag k="ssr:stedsnr" v="271142" />
	</node>
	<node id="-19755" lat="59.3782250028" lon="10.7252805632">
		<tag k="name" v="Bygdetunet" />
		<tag k="place" v="locality" />
		<tag k="ssr:stedsnr" v="600327" />
	</node>
	<node id="-19751" lat="59.3525277756" lon="10.7621638946">
		<tag k="name" v="Molvikberget" />
		<tag k="natural" v="hill" />
		<tag k="place" v="locality" />
		<tag k="ssr:stedsnr" v="600053" />
	</node>
	<node id="-19873" lat="59.3911305585" lon="10.6883055564">
		<tag k="fixme" v="consider natural=peak for the most distinct mountains in the district" />
		<tag k="name" v="Smedhusåsen" />
		<tag k="natural" v="hill" />
		<tag k="place" v="locality" />
		<tag k="ssr:stedsnr" v="842887" />
	</node>
	<node id="-19518" lat="59.3398222247" lon="10.7154888926">
		<tag k="fixme" v="consider natural=peak for the most distinct mountains in the district" />
		<tag k="name" v="Hakkerås" />
		<tag k="natural" v="hill" />
		<tag k="place" v="locality" />
		<tag k="ssr:stedsnr" v="53206" />
	</node>
	<node id="-19738" lat="59.3170527807" lon="10.6948027812">
		<tag k="fixme" v="consider natural=peak for the most distinct mountains in the district" />
		<tag k="name" v="Vadberget" />
		<tag k="natural" v="hill" />
		<tag k="place" v="locality" />
		<tag k="ssr:stedsnr" v="598361" />
	</node>
	<node id="-19736" lat="59.3381944408" lon="10.6677416595">
		<tag k="fixme" v="consider natural=peak for the most distinct mountains in the district" />
		<tag k="name" v="Vardefjellet" />
		<tag k="natural" v="hill" />
		<tag k="place" v="locality" />
		<tag k="ssr:stedsnr" v="598483" />
	</node>
	<node id="-19396" lat="59.3471472248" lon="10.749538889">
		<tag k="name" v="Rosnesheia" />
		<tag k="place" v="locality" />
		<tag k="ssr:stedsnr" v="297070" />
	</node>
	<node id="-19394" lat="59.3877388883" lon="10.6698777763">
		<tag k="name" v="Telemarkslund" />
		<tag k="place" v="locality" />
		<tag k="ssr:stedsnr" v="296937" />
	</node>
	<node id="-19978" lat="59.4326388918" lon="10.7360027755">
		<tag k="name" v="Ravneberget" />
		<tag k="natural" v="cliff" />
		<tag k="ssr:stedsnr" v="964097" />
	</node>
	<node id="-19720" lat="59.3438899772" lon="10.6729172238">
		<tag k="alt_name" v="Ravnås;Botnerveten" />
		<tag k="fixme" v="consider natural=peak for the most distinct mountains in the district" />
		<tag k="name" v="Ravnåsen" />
		<tag k="natural" v="hill" />
		<tag k="place" v="locality" />
		<tag k="ssr:stedsnr" v="548586" />
	</node>
	<node id="-19847" lat="59.332544444" lon="10.7046805505">
		<tag k="fixme" v="consider natural=peak for the most distinct mountains in the district" />
		<tag k="name" v="Lindeberget" />
		<tag k="natural" v="hill" />
		<tag k="place" v="locality" />
		<tag k="ssr:stedsnr" v="781418" />
	</node>
	<node id="-19462" lat="59.3806388864" lon="10.7021138813">
		<tag k="name" v="Torgerslund" />
		<tag k="place" v="locality" />
		<tag k="ssr:stedsnr" v="477947" />
	</node>
	<node id="-19457" lat="59.3129638892" lon="10.6962861112">
		<tag k="name" v="Oterberget" />
		<tag k="natural" v="cliff" />
		<tag k="ssr:stedsnr" v="477126" />
	</node>
</osm>
