<?xml version="1.0" encoding="UTF-8"?>
<osm generator="osmapis" version="0.6">
	<node id="-19710" lat="59.3706249999" lon="10.7185583326">
		<tag k="name" v="Ødegårdskogen" />
		<tag k="place" v="locality" />
		<tag k="ssr:stedsnr" v="539283" />
	</node>
	<node id="-19965" lat="59.3431138926" lon="10.6957500009">
		<tag k="name" v="Damsmyr" />
		<tag k="natural" v="wetland" />
		<tag k="ssr:stedsnr" v="963220" />
	</node>
	<node id="-19958" lat="59.3112611109" lon="10.687050005">
		<tag k="name" v="Sørskogen" />
		<tag k="place" v="locality" />
		<tag k="ssr:stedsnr" v="962117" />
	</node>
	<node id="-19930" lat="59.3983499967" lon="10.714644437">
		<tag k="name" v="Såstadskogen" />
		<tag k="place" v="locality" />
		<tag k="ssr:stedsnr" v="903881" />
	</node>
	<node id="-19826" lat="59.3960000019" lon="10.7807305598">
		<tag k="name" v="Møkadammyra" />
		<tag k="natural" v="wetland" />
		<tag k="ssr:stedsnr" v="721700" />
	</node>
	<node id="-19824" lat="59.3821749974" lon="10.7422750084">
		<tag k="name" v="Vollskogen" />
		<tag k="place" v="locality" />
		<tag k="ssr:stedsnr" v="721691" />
	</node>
	<node id="-19566" lat="59.407188885" lon="10.7685611074">
		<tag k="name" v="Kjellerødskogen" />
		<tag k="place" v="locality" />
		<tag k="ssr:stedsnr" v="115830" />
	</node>
	<node id="-19565" lat="59.417219446" lon="10.6976583254">
		<tag k="name" v="Klostermyra" />
		<tag k="natural" v="wetland" />
		<tag k="ssr:stedsnr" v="115145" />
	</node>
	<node id="-19818" lat="59.3453166676" lon="10.7025944484">
		<tag k="name" v="Kubberødskogen" />
		<tag k="place" v="locality" />
		<tag k="ssr:stedsnr" v="721167" />
	</node>
	<node id="-19558" lat="59.3914972217" lon="10.7118833387">
		<tag k="name" v="Kypskjemarka" />
		<tag k="place" v="locality" />
		<tag k="ssr:stedsnr" v="114904" />
	</node>
	<node id="-19556" lat="59.3343305551" lon="10.6791222156">
		<tag k="name" v="Medgårdsskogen" />
		<tag k="place" v="locality" />
		<tag k="ssr:stedsnr" v="114456" />
	</node>
	<node id="-19807" lat="59.3125611094" lon="10.692752782">
		<tag k="name" v="Grefsrødmyra" />
		<tag k="natural" v="wetland" />
		<tag k="ssr:stedsnr" v="720143" />
	</node>
	<node id="-19547" lat="59.3925583329" lon="10.7423500008">
		<tag k="name" v="Gipsundskogen" />
		<tag k="place" v="locality" />
		<tag k="ssr:stedsnr" v="114031" />
	</node>
	<node id="-19546" lat="59.3569361119" lon="10.7151222187">
		<tag k="name" v="Krokemyrskogen" />
		<tag k="place" v="locality" />
		<tag k="ssr:stedsnr" v="114011" />
	</node>
	<node id="-19918" lat="59.4082805584" lon="10.6700055489">
		<tag k="name" v="Dyreskogen" />
		<tag k="place" v="locality" />
		<tag k="ssr:stedsnr" v="902115" />
	</node>
	<node id="-19529" lat="59.3843888925" lon="10.7385333343">
		<tag k="name" v="Haradalen" />
		<tag k="place" v="locality" />
		<tag k="ssr:stedsnr" v="54711" />
	</node>
	<node id="-19783" lat="59.3396749972" lon="10.69855">
		<tag k="alt_name" v="Støtvikskogen" />
		<tag k="name" v="Nedgårdskogen" />
		<tag k="place" v="locality" />
		<tag k="ssr:stedsnr" v="660214" />
	</node>
	<node id="-19777" lat="59.3731388857" lon="10.699466674">
		<tag k="name" v="Balkeskogen" />
		<tag k="place" v="locality" />
		<tag k="ssr:stedsnr" v="660080" />
	</node>
	<node id="-19392" lat="59.3860638866" lon="10.6925777856">
		<tag k="name" v="Lybyskogen" />
		<tag k="place" v="locality" />
		<tag k="ssr:stedsnr" v="296928" />
	</node>
	<node id="-19381" lat="59.3660027742" lon="10.6676833351">
		<tag k="name" v="Vestskogen" />
		<tag k="place" v="locality" />
		<tag k="ssr:stedsnr" v="296024" />
	</node>
	<node id="-19900" lat="59.3921222229" lon="10.7500777725">
		<tag k="name" v="Huggenesskogen" />
		<tag k="place" v="locality" />
		<tag k="ssr:stedsnr" v="843811" />
	</node>
	<node id="-19515" lat="59.3816222198" lon="10.6543833247">
		<tag k="name" v="Gunnarsbyneset" />
		<tag k="place" v="locality" />
		<tag k="ssr:stedsnr" v="53139" />
	</node>
	<node id="-19642" lat="59.3646083351" lon="10.7265249948">
		<tag k="name" v="Otterstadskogen" />
		<tag k="place" v="locality" />
		<tag k="ssr:stedsnr" v="236322" />
	</node>
	<node id="-19513" lat="59.3642666705" lon="10.6778388975">
		<tag k="name" v="Kajalunden" />
		<tag k="place" v="locality" />
		<tag k="ssr:stedsnr" v="53045" />
	</node>
	<node id="-19510" lat="59.3573083354" lon="10.7010861056">
		<tag k="name" v="Nærumskogen" />
		<tag k="place" v="locality" />
		<tag k="ssr:stedsnr" v="53017" />
	</node>
	<node id="-19637" lat="59.40083889" lon="10.7810722199">
		<tag k="name" v="Myrdamskogen" />
		<tag k="place" v="locality" />
		<tag k="ssr:stedsnr" v="236029" />
	</node>
	<node id="-19892" lat="59.426038888" lon="10.6935166705">
		<tag k="name" v="Solliskogen" />
		<tag k="place" v="locality" />
		<tag k="ssr:stedsnr" v="843077" />
	</node>
	<node id="-19888" lat="59.3963444437" lon="10.6585361083">
		<tag k="name" v="Strandbakkskogen" />
		<tag k="place" v="locality" />
		<tag k="ssr:stedsnr" v="842573" />
	</node>
	<node id="-19883" lat="59.3490499969" lon="10.668063884">
		<tag k="name" v="Ekelund" />
		<tag k="place" v="locality" />
		<tag k="ssr:stedsnr" v="842211" />
	</node>
	<node id="-19527" lat="59.3977027789" lon="10.7194555507">
		<tag k="name" v="Såstadskogen" />
		<tag k="place" v="locality" />
		<tag k="ssr:stedsnr" v="54763" />
	</node>
	<node id="-19746" lat="59.386527774" lon="10.8041444418">
		<tag k="name" v="Stormosen" />
		<tag k="natural" v="wetland" />
		<tag k="ssr:stedsnr" v="599733" />
	</node>
	<node id="-19419" lat="59.3657249968" lon="10.710058337">
		<tag k="name" v="Opstadskogen" />
		<tag k="place" v="locality" />
		<tag k="ssr:stedsnr" v="356093" />
	</node>
	<node id="-19437" lat="59.397886114" lon="10.7736249959">
		<tag k="name" v="Utneskogen" />
		<tag k="place" v="locality" />
		<tag k="ssr:stedsnr" v="357782" />
	</node>
	<node id="-19418" lat="59.3683555565" lon="10.694230555">
		<tag k="name" v="Hestehavna" />
		<tag k="place" v="locality" />
		<tag k="ssr:stedsnr" v="356089" />
	</node>
	<node id="-19859" lat="59.3991333295" lon="10.794069448">
		<tag k="alt_name" v="Fredskjærskogen østre" />
		<tag k="name" v="Østre Fredskjærskogen" />
		<tag k="place" v="locality" />
		<tag k="ssr:stedsnr" v="782710" />
	</node>
	<node id="-19858" lat="59.3945555586" lon="10.7852333412">
		<tag k="alt_name" v="Fredskjærskogen vestre" />
		<tag k="name" v="Vestre Fredskjærskogen" />
		<tag k="place" v="locality" />
		<tag k="ssr:stedsnr" v="782685" />
	</node>
	<node id="-19473" lat="59.3920555556" lon="10.8116388867">
		<tag k="name" v="Bjørnemyr" />
		<tag k="natural" v="wetland" />
		<tag k="ssr:stedsnr" v="478734" />
	</node>
	<node id="-19855" lat="59.3646416679" lon="10.7631611091">
		<tag k="name" v="Hermannskogen" />
		<tag k="place" v="locality" />
		<tag k="ssr:stedsnr" v="782261" />
	</node>
	<node id="-19598" lat="59.3990027802" lon="10.7053416584">
		<tag k="name" v="Hestehagen" />
		<tag k="place" v="locality" />
		<tag k="ssr:stedsnr" v="174906" />
	</node>
	<node id="-19853" lat="59.4213694477" lon="10.6997166621">
		<tag k="name" v="Årvollskogen" />
		<tag k="place" v="locality" />
		<tag k="ssr:stedsnr" v="782056" />
	</node>
	<node id="-19467" lat="59.3450888908" lon="10.6937555544">
		<tag k="name" v="Støtvikskogen" />
		<tag k="place" v="locality" />
		<tag k="ssr:stedsnr" v="478189" />
	</node>
	<node id="-19592" lat="59.3934333299" lon="10.6530388808">
		<tag k="name" v="Husebyskogen" />
		<tag k="place" v="locality" />
		<tag k="ssr:stedsnr" v="174137" />
	</node>
	<node id="-19974" lat="59.38119722" lon="10.6965416611">
		<tag k="name" v="Tøstadskogen" />
		<tag k="place" v="locality" />
		<tag k="ssr:stedsnr" v="963949" />
	</node>
	<node id="-19842" lat="59.3552083355" lon="10.6863972243">
		<tag k="name" v="Dalaskogen" />
		<tag k="place" v="locality" />
		<tag k="ssr:stedsnr" v="781025" />
	</node>
	<node id="-19713" lat="59.3755694474" lon="10.7828249919">
		<tag k="name" v="Utgjerdsmyra" />
		<tag k="natural" v="wetland" />
		<tag k="ssr:stedsnr" v="548303" />
	</node>
</osm>
