<?xml version="1.0" encoding="UTF-8"?>
<osm generator="osmapis" version="0.6">
	<node id="-19968" lat="59.3349309202" lon="10.6641423075">
		<tag k="name" v="Drolshamar" />
		<tag k="place" v="isolated_dwelling" />
		<tag k="ssr:stedsnr" v="976110" />
	</node>
	<node id="-19456" lat="59.3827972256" lon="10.7026972155">
		<tag k="alt_name" v="Tøstad øvre" />
		<tag k="name" v="Øvre Tøstad" />
		<tag k="place" v="farm" />
		<tag k="ssr:stedsnr" v="478910" />
	</node>
	<node id="-19966" lat="59.3429767223" lon="10.6615112781">
		<tag k="name" v="Finnland" />
		<tag k="place" v="farm" />
		<tag k="ssr:stedsnr" v="971510" />
	</node>
	<node id="-19965" lat="59.3421805818" lon="10.6634674361">
		<tag k="name" v="Sjøholt" />
		<tag k="place" v="farm" />
		<tag k="ssr:stedsnr" v="971508" />
	</node>
	<node id="-19964" lat="59.3408605105" lon="10.6642715662">
		<tag k="name" v="Tarvelig" />
		<tag k="place" v="farm" />
		<tag k="ssr:stedsnr" v="971507" />
	</node>
	<node id="-19451" lat="59.3914250007" lon="10.7883083347">
		<tag k="name" v="Sandli" />
		<tag k="place" v="farm" />
		<tag k="ssr:stedsnr" v="478728" />
	</node>
	<node id="-19962" lat="59.3916944432" lon="10.7671722298">
		<tag k="name" v="Sandbekk" />
		<tag k="place" v="farm" />
		<tag k="ssr:stedsnr" v="964762" />
	</node>
	<node id="-19961" lat="59.3936749992" lon="10.8062305617">
		<tag k="alt_name" v="Køia" />
		<tag k="name" v="Nordli" />
		<tag k="place" v="locality" />
		<tag k="ssr:stedsnr" v="964701" />
	</node>
	<node id="-19448" lat="59.3764861115" lon="10.7391499961">
		<tag k="alt_name" v="Rør vestre" />
		<tag k="name" v="Vestre Rør" />
		<tag k="place" v="farm" />
		<tag k="ssr:stedsnr" v="478291" />
	</node>
	<node id="-19959" lat="59.3890694422" lon="10.7567166733">
		<tag k="name" v="Sande" />
		<tag k="place" v="farm" />
		<tag k="ssr:stedsnr" v="964678" />
	</node>
	<node id="-19958" lat="59.3553583328" lon="10.7540083336">
		<tag k="alt_name" v="Rosnes nordre" />
		<tag k="name" v="Nordre Rosnes" />
		<tag k="place" v="farm" />
		<tag k="ssr:stedsnr" v="964242" />
	</node>
	<node id="-19445" lat="59.3861111106" lon="10.6566611175">
		<tag k="alt_name" v="Fuglevik mellem" />
		<tag k="name" v="Mellom-Fuglevik" />
		<tag k="place" v="hamlet" />
		<tag k="ssr:stedsnr" v="478108" />
	</node>
	<node id="-19444" lat="59.375975001" lon="10.7173694404">
		<tag k="alt_name" v="Fløgstad nordre" />
		<tag k="name" v="Nordre Fløgstad" />
		<tag k="place" v="farm" />
		<tag k="ssr:stedsnr" v="478069" />
	</node>
	<node id="-19442" lat="59.3659138929" lon="10.6892499954">
		<tag k="alt_name" v="Pålsrød vestre" />
		<tag k="name" v="Vestre Pålsrød" />
		<tag k="place" v="farm" />
		<tag k="ssr:stedsnr" v="478029" />
	</node>
	<node id="-19952" lat="59.3797638851" lon="10.6782861188">
		<tag k="alt_name" v="Hasle østre" />
		<tag k="name" v="Østre Hasle" />
		<tag k="place" v="farm" />
		<tag k="ssr:stedsnr" v="963942" />
	</node>
	<node id="-19368" lat="59.4035916655" lon="10.6585555639">
		<tag k="alt_name" v="Dyre søndre" />
		<tag k="name" v="Søndre Dyre" />
		<tag k="place" v="farm" />
		<tag k="ssr:stedsnr" v="296764" />
	</node>
	<node id="-19438" lat="59.3510222254" lon="10.6614416649">
		<tag k="alt_name" v="Botnermyra" />
		<tag k="name" v="Botnemyr" />
		<tag k="place" v="farm" />
		<tag k="ssr:stedsnr" v="477442" />
	</node>
	<node id="-19453" lat="59.3821249969" lon="10.7931361079">
		<tag k="alt_name" v="Søgård østre" />
		<tag k="name" v="Østre Søgård" />
		<tag k="place" v="farm" />
		<tag k="ssr:stedsnr" v="478739" />
	</node>
	<node id="-19948" lat="59.3356444429" lon="10.688713894">
		<tag k="alt_name" v="Støtvik søndre;Søndre Støtvik" />
		<tag k="name" v="Nedre Støtvik" />
		<tag k="place" v="farm" />
		<tag k="ssr:stedsnr" v="963472" />
	</node>
	<node id="-19947" lat="59.32790556" lon="10.6821250033">
		<tag k="name" v="Roth" />
		<tag k="place" v="farm" />
		<tag k="ssr:stedsnr" v="963448" />
	</node>
	<node id="-19434" lat="59.4093388916" lon="10.6827083404">
		<tag k="alt_name" v="Ekholt vestre" />
		<tag k="name" v="Vestre Ekholt" />
		<tag k="place" v="farm" />
		<tag k="ssr:stedsnr" v="477105" />
	</node>
	<node id="-19945" lat="59.3501527796" lon="10.7124750077">
		<tag k="alt_name" v="Nærum søndre" />
		<tag k="name" v="Søndre Nærum" />
		<tag k="place" v="farm" />
		<tag k="ssr:stedsnr" v="963252" />
	</node>
	<node id="-19942" lat="59.410194446" lon="10.6899749964">
		<tag k="alt_name" v="Breidsand" />
		<tag k="name" v="Bredsand" />
		<tag k="place" v="quarter" />
		<tag k="ssr:stedsnr" v="963117" />
	</node>
	<node id="-19429" lat="59.3216638914" lon="10.7000777844">
		<tag k="alt_name" v="Salbohuset" />
		<tag k="name" v="Salbuhuset" />
		<tag k="place" v="farm" />
		<tag k="ssr:stedsnr" v="366619" />
	</node>
	<node id="-19428" lat="59.3319555534" lon="10.6668749944">
		<tag k="name" v="Larkollen" />
		<tag k="place" v="village" />
		<tag k="ssr:stedsnr" v="366612" />
	</node>
	<node id="-19939" lat="59.3766111146" lon="10.6636083306">
		<tag k="name" v="Villskog" />
		<tag k="place" v="farm" />
		<tag k="ssr:stedsnr" v="963070" />
	</node>
	<node id="-19938" lat="59.3630138851" lon="10.685113889">
		<tag k="name" v="Nyjordet" />
		<tag k="place" v="isolated_dwelling" />
		<tag k="ssr:stedsnr" v="963036" />
	</node>
	<node id="-19425" lat="59.3987250038" lon="10.6669083297">
		<tag k="alt_name" v="Baug" />
		<tag k="name" v="Bog" />
		<tag k="place" v="farm" />
		<tag k="ssr:stedsnr" v="366541" />
	</node>
	<node id="-19424" lat="59.3930555569" lon="10.6726555566">
		<tag k="alt_name" v="Værne kloster" />
		<tag k="name" v="Verne kloster" />
		<tag k="old_name" v="Værnekloster" />
		<tag k="place" v="farm" />
		<tag k="ssr:stedsnr" v="366540" />
	</node>
	<node id="-19423" lat="59.407586114" lon="10.7136833341">
		<tag k="name" v="Dramstad" />
		<tag k="place" v="farm" />
		<tag k="ssr:stedsnr" v="366522" />
	</node>
	<node id="-19422" lat="59.3508833336" lon="10.7367138965">
		<tag k="alt_name" v="Kure søndre" />
		<tag k="name" v="Søndre Kure" />
		<tag k="place" v="farm" />
		<tag k="ssr:stedsnr" v="366502" />
	</node>
	<node id="-19933" lat="59.3744083349" lon="10.6693972238">
		<tag k="name" v="Villskog" />
		<tag k="place" v="farm" />
		<tag k="ssr:stedsnr" v="935851" />
	</node>
	<node id="-19420" lat="59.4008361155" lon="10.7890694478">
		<tag k="name" v="Fjell" />
		<tag k="place" v="farm" />
		<tag k="ssr:stedsnr" v="366308" />
	</node>
	<node id="-19931" lat="59.4149527771" lon="10.6672000066">
		<tag k="name" v="Kallum" />
		<tag k="place" v="farm" />
		<tag k="ssr:stedsnr" v="913976" />
	</node>
	<node id="-19418" lat="59.4071388907" lon="10.7224527825">
		<tag k="name" v="Enerli" />
		<tag k="place" v="isolated_dwelling" />
		<tag k="ssr:stedsnr" v="357867" />
	</node>
	<node id="-19928" lat="59.3896888857" lon="10.7004194502">
		<tag k="alt_name" v="Løken vestre" />
		<tag k="name" v="Vestre Løken" />
		<tag k="place" v="farm" />
		<tag k="ssr:stedsnr" v="913492" />
	</node>
	<node id="-19927" lat="59.3710638846" lon="10.7629833409">
		<tag k="name" v="Gon" />
		<tag k="place" v="farm" />
		<tag k="ssr:stedsnr" v="913273" />
	</node>
	<node id="-19926" lat="59.3554277752" lon="10.6955166654">
		<tag k="name" v="Li" />
		<tag k="place" v="farm" />
		<tag k="ssr:stedsnr" v="912602" />
	</node>
	<node id="-19925" lat="59.3821222182" lon="10.6715027804">
		<tag k="alt_name" v="Bakke søndre" />
		<tag k="name" v="Søndre Bakke" />
		<tag k="place" v="farm" />
		<tag k="ssr:stedsnr" v="912571" />
	</node>
	<node id="-19921" lat="59.3985888912" lon="10.7553777786">
		<tag k="alt_name" v="Huggenes mellem" />
		<tag k="name" v="Mellom-Huggenes" />
		<tag k="place" v="farm" />
		<tag k="ssr:stedsnr" v="904806" />
	</node>
	<node id="-19920" lat="59.4006250039" lon="10.7463249943">
		<tag k="alt_name" v="Huggenes vestre" />
		<tag k="name" v="Vestre Huggenes" />
		<tag k="place" v="farm" />
		<tag k="ssr:stedsnr" v="904799" />
	</node>
	<node id="-19919" lat="59.3913194441" lon="10.7616222182">
		<tag k="name" v="Solheim" />
		<tag k="place" v="farm" />
		<tag k="ssr:stedsnr" v="904787" />
	</node>
	<node id="-19406" lat="59.4018388917" lon="10.7012194507">
		<tag k="alt_name" v="Dilling nordre" />
		<tag k="name" v="Nordre Dilling" />
		<tag k="place" v="farm" />
		<tag k="ssr:stedsnr" v="356882" />
	</node>
	<node id="-19916" lat="59.3628583306" lon="10.7707583351">
		<tag k="name" v="Asgården" />
		<tag k="place" v="farm" />
		<tag k="ssr:stedsnr" v="904314" />
	</node>
	<node id="-19915" lat="59.3704138906" lon="10.7680361032">
		<tag k="name" v="Eskelund" />
		<tag k="place" v="farm" />
		<tag k="ssr:stedsnr" v="904281" />
	</node>
	<node id="-19914" lat="59.3527166525" lon="10.7485226254">
		<tag k="alt_name" v="Rosnes østre" />
		<tag k="name" v="Østre Rosnes" />
		<tag k="place" v="farm" />
		<tag k="ssr:stedsnr" v="904222" />
	</node>
	<node id="-19401" lat="59.3386999998" lon="10.6849444532">
		<tag k="alt_name" v="Støtvik mellem" />
		<tag k="name" v="Mellom-Støtvik" />
		<tag k="place" v="farm" />
		<tag k="ssr:stedsnr" v="356212" />
	</node>
	<node id="-19400" lat="59.4110638866" lon="10.6791111097">
		<tag k="amenity" v="school" />
		<tag k="name" v="Ekholt skole" />
		<tag k="ssr:stedsnr" v="356124" />
	</node>
	<node id="-19399" lat="59.3299499982" lon="10.6543138969">
		<tag k="name" v="Kollen" />
		<tag k="place" v="isolated_dwelling" />
		<tag k="ssr:stedsnr" v="356102" />
	</node>
	<node id="-19910" lat="59.4017583372" lon="10.6965499921">
		<tag k="alt_name" v="Dilling vestre" />
		<tag k="name" v="Vestre Dilling" />
		<tag k="place" v="farm" />
		<tag k="ssr:stedsnr" v="903883" />
	</node>
	<node id="-19908" lat="59.3787916686" lon="10.7273333383">
		<tag k="name" v="Ramstad" />
		<tag k="place" v="farm" />
		<tag k="ssr:stedsnr" v="903292" />
	</node>
	<node id="-19907" lat="59.3645527781" lon="10.7480416722">
		<tag k="alt_name" v="Roer" />
		<tag k="fixme" v="consider place=hamlet" />
		<tag k="name" v="Ror" />
		<tag k="place" v="farm" />
		<tag k="ssr:stedsnr" v="903267" />
	</node>
	<node id="-19905" lat="59.3834194431" lon="10.6522694415">
		<tag k="alt_name" v="Fuglevik søndre" />
		<tag k="name" v="Søndre Fuglevik" />
		<tag k="place" v="hamlet" />
		<tag k="ssr:stedsnr" v="903114" />
	</node>
	<node id="-19903" lat="59.3580611121" lon="10.6628777778">
		<tag k="alt_name" v="Tangen øvre" />
		<tag k="name" v="Øvre Tangen" />
		<tag k="place" v="isolated_dwelling" />
		<tag k="ssr:stedsnr" v="903020" />
	</node>
	<node id="-19390" lat="59.3950000007" lon="10.6868388845">
		<tag k="name" v="Grystad" />
		<tag k="place" v="isolated_dwelling" />
		<tag k="ssr:stedsnr" v="306491" />
	</node>
	<node id="-19901" lat="59.3545333322" lon="10.6599944448">
		<tag k="name" v="Holmen" />
		<tag k="place" v="farm" />
		<tag k="ssr:stedsnr" v="902474" />
	</node>
	<node id="-19388" lat="59.3866770769" lon="10.7234614622">
		<tag k="alt_name" v="Bjølsund" />
		<tag k="fixme" v="consider place=hamlet" />
		<tag k="name" v="Bjølsen" />
		<tag k="place" v="farm" />
		<tag k="ssr:stedsnr" v="306286" />
	</node>
	<node id="-19899" lat="59.3299694486" lon="10.6822638852">
		<tag k="name" v="Løvmo" />
		<tag k="place" v="farm" />
		<tag k="ssr:stedsnr" v="902440" />
	</node>
	<node id="-19386" lat="59.3579555552" lon="10.7627444443">
		<tag k="alt_name" v="Molvik nordre" />
		<tag k="name" v="Nordre Molvik" />
		<tag k="place" v="farm" />
		<tag k="ssr:stedsnr" v="306236" />
	</node>
	<node id="-19385" lat="59.3591277773" lon="10.7321750081">
		<tag k="alt_name" v="Mellem Kure;Kure midtre;Kure mellem" />
		<tag k="name" v="Mellom-Kure" />
		<tag k="place" v="farm" />
		<tag k="ssr:stedsnr" v="306235" />
	</node>
	<node id="-19894" lat="59.3817027815" lon="10.7514416671">
		<tag k="name" v="Halmstad" />
		<tag k="place" v="quarter" />
		<tag k="ssr:stedsnr" v="877351" />
	</node>
	<node id="-19380" lat="59.3952333342" lon="10.7356555626">
		<tag k="name" v="Pålebingen" />
		<tag k="place" v="quarter" />
		<tag k="ssr:stedsnr" v="297792" />
	</node>
	<node id="-19890" lat="59.3476416624" lon="10.6728666687">
		<tag k="name" v="Botner" />
		<tag k="place" v="farm" />
		<tag k="ssr:stedsnr" v="852568" />
	</node>
	<node id="-19889" lat="59.3767972198" lon="10.7041027731">
		<tag k="name" v="Navestad" />
		<tag k="place" v="farm" />
		<tag k="ssr:stedsnr" v="852544" />
	</node>
	<node id="-19376" lat="59.3592416685" lon="10.722169451">
		<tag k="name" v="Skogen" />
		<tag k="place" v="farm" />
		<tag k="ssr:stedsnr" v="297314" />
	</node>
	<node id="-19887" lat="59.3860861101" lon="10.6998861167">
		<tag k="alt_name" v="Lyby søndre" />
		<tag k="name" v="Søndre Lyby" />
		<tag k="place" v="farm" />
		<tag k="ssr:stedsnr" v="852533" />
	</node>
	<node id="-19886" lat="59.3949333314" lon="10.6646250003">
		<tag k="alt_name" v="Huseby nordre" />
		<tag k="name" v="Nordre Huseby" />
		<tag k="place" v="farm" />
		<tag k="ssr:stedsnr" v="852517" />
	</node>
	<node id="-19885" lat="59.3916138923" lon="10.6618444398">
		<tag k="alt_name" v="Huseby vestre" />
		<tag k="name" v="Vestre Huseby" />
		<tag k="place" v="farm" />
		<tag k="ssr:stedsnr" v="852518" />
	</node>
	<node id="-19884" lat="59.3370042649" lon="10.7270675015">
		<tag k="fixme" v="consider place=hamlet" />
		<tag k="name" v="Holm" />
		<tag k="place" v="farm" />
		<tag k="ssr:stedsnr" v="852462" />
	</node>
	<node id="-19883" lat="59.3964055535" lon="10.766836108">
		<tag k="name" v="Tangen" />
		<tag k="place" v="farm" />
		<tag k="ssr:stedsnr" v="852305" />
	</node>
	<node id="-19882" lat="59.3655136573" lon="10.7491780905">
		<tag k="alt_name" v="Ror nordre" />
		<tag k="name" v="Nordre Ror" />
		<tag k="place" v="farm" />
		<tag k="ssr:stedsnr" v="852286" />
	</node>
	<node id="-19881" lat="59.3679749965" lon="10.7727972234">
		<tag k="fixme" v="consider place=hamlet" />
		<tag k="name" v="Eskelund" />
		<tag k="place" v="farm" />
		<tag k="ssr:stedsnr" v="852285" />
	</node>
	<node id="-19880" lat="59.3954439203" lon="10.7240981344">
		<tag k="name" v="Såstad" />
		<tag k="place" v="farm" />
		<tag k="ssr:stedsnr" v="843825" />
	</node>
	<node id="-19356" lat="59.328724997" lon="10.7137166606">
		<tag k="alt_name" v="Sildebaugen søndre" />
		<tag k="name" v="Søndre Sildebaugen" />
		<tag k="place" v="farm" />
		<tag k="ssr:stedsnr" v="295418" />
	</node>
	<node id="-19450" lat="59.3806111076" lon="10.7451722222">
		<tag k="amenity" v="sports_centre" />
		<tag k="name" v="Ryggehallen" />
		<tag k="ssr:stedsnr" v="478719" />
	</node>
	<node id="-19365" lat="59.350324997" lon="10.6869638852">
		<tag k="name" v="Sande" />
		<tag k="place" v="isolated_dwelling" />
		<tag k="ssr:stedsnr" v="296172" />
	</node>
	<node id="-19364" lat="59.384105558" lon="10.6597166651">
		<tag k="building" v="industrial" />
		<tag k="industrial" v="factory" />
		<tag k="name" v="Fuglevik renseanlegg" />
		<tag k="ssr:stedsnr" v="296097" />
	</node>
	<node id="-19875" lat="59.3625694441" lon="10.7582861027">
		<tag k="alt_name" v="Ror østre;Østre Roer" />
		<tag k="name" v="Østre Ror" />
		<tag k="place" v="farm" />
		<tag k="ssr:stedsnr" v="843333" />
	</node>
	<node id="-19874" lat="59.3758638924" lon="10.7238750002">
		<tag k="name" v="Dyrhaug" />
		<tag k="place" v="farm" />
		<tag k="ssr:stedsnr" v="843327" />
	</node>
	<node id="-19873" lat="59.3781277815" lon="10.7541083274">
		<tag k="name" v="Vårli" />
		<tag k="place" v="farm" />
		<tag k="ssr:stedsnr" v="843272" />
	</node>
	<node id="-19872" lat="59.4133888895" lon="10.6868583253">
		<tag k="name" v="Bråten" />
		<tag k="place" v="farm" />
		<tag k="ssr:stedsnr" v="843096" />
	</node>
	<node id="-19870" lat="59.3562138865" lon="10.7612472269">
		<tag k="alt_name" v="Molvik vestre" />
		<tag k="name" v="Vestre Molvik" />
		<tag k="place" v="farm" />
		<tag k="ssr:stedsnr" v="843044" />
	</node>
	<node id="-19357" lat="59.4071444434" lon="10.6898777757">
		<tag k="amenity" v="school" />
		<tag k="name" v="Ekholt ungdomsskole" />
		<tag k="ssr:stedsnr" v="295104" />
	</node>
	<node id="-19868" lat="59.4048055516" lon="10.6535416633">
		<tag k="name" v="Festelandet" />
		<tag k="place" v="locality" />
		<tag k="ssr:stedsnr" v="842772" />
	</node>
	<node id="-19864" lat="59.3347222189" lon="10.7124194455">
		<tag k="name" v="Orefellen" />
		<tag k="place" v="farm" />
		<tag k="ssr:stedsnr" v="842388" />
	</node>
	<node id="-19863" lat="59.3762444479" lon="10.7465305595">
		<tag k="alt_name" v="Rør søndre" />
		<tag k="name" v="Søndre Rør" />
		<tag k="place" v="farm" />
		<tag k="ssr:stedsnr" v="842273" />
	</node>
	<node id="-19350" lat="59.3776166628" lon="10.7503416742">
		<tag k="name" v="Rygge" />
		<tag k="place" v="village" />
		<tag k="ssr:stedsnr" v="270339" />
	</node>
	<node id="-19860" lat="59.3398472203" lon="10.6830694442">
		<tag k="alt_name" v="Støtvik store" />
		<tag k="name" v="Store Støtvik" />
		<tag k="place" v="farm" />
		<tag k="ssr:stedsnr" v="842196" />
	</node>
	<node id="-19859" lat="59.391044442" lon="10.6557222203">
		<tag k="name" v="Kollen" />
		<tag k="place" v="farm" />
		<tag k="ssr:stedsnr" v="842116" />
	</node>
	<node id="-19858" lat="59.3880805561" lon="10.6594000064">
		<tag k="name" v="Storeng" />
		<tag k="place" v="farm" />
		<tag k="ssr:stedsnr" v="842114" />
	</node>
	<node id="-19855" lat="59.3798249959" lon="10.6776194453">
		<tag k="alt_name" v="Hasle vestre" />
		<tag k="name" v="Vestre Hasle" />
		<tag k="place" v="farm" />
		<tag k="ssr:stedsnr" v="842066" />
	</node>
	<node id="-19854" lat="59.3746361155" lon="10.6563666727">
		<tag k="name" v="Årefjord" />
		<tag k="place" v="farm" />
		<tag k="ssr:stedsnr" v="842009" />
	</node>
	<node id="-19851" lat="59.3262999995" lon="10.6861416638">
		<tag k="name" v="Nasle" />
		<tag k="place" v="farm" />
		<tag k="ssr:stedsnr" v="817894" />
	</node>
	<node id="-19850" lat="59.3861111106" lon="10.6566611175">
		<tag k="name" v="Fuglevik" />
		<tag k="place" v="quarter" />
		<tag k="ssr:stedsnr" v="813095" />
	</node>
	<node id="-19848" lat="59.3470388875" lon="10.6865500086">
		<tag k="name" v="Buberg" />
		<tag k="place" v="farm" />
		<tag k="ssr:stedsnr" v="791569" />
	</node>
	<node id="-19847" lat="59.3847333298" lon="10.6815944501">
		<tag k="name" v="Rød" />
		<tag k="place" v="farm" />
		<tag k="ssr:stedsnr" v="791521" />
	</node>
	<node id="-19846" lat="59.4008777768" lon="10.6993861119">
		<tag k="fixme" v="consider place=hamlet" />
		<tag k="name" v="Dilling" />
		<tag k="place" v="farm" />
		<tag k="ssr:stedsnr" v="791495" />
	</node>
	<node id="-19845" lat="59.400855557" lon="10.6520611087">
		<tag k="alt_name" v="Feste søndre" />
		<tag k="name" v="Søndre Feste" />
		<tag k="place" v="farm" />
		<tag k="ssr:stedsnr" v="791492" />
	</node>
	<node id="-19844" lat="59.4140944407" lon="10.7652027852">
		<tag k="name" v="Engene" />
		<tag k="place" v="farm" />
		<tag k="ssr:stedsnr" v="791308" />
	</node>
	<node id="-19843" lat="59.3623083292" lon="10.7334111181">
		<tag k="fixme" v="consider place=hamlet" />
		<tag k="name" v="Kure" />
		<tag k="place" v="farm" />
		<tag k="ssr:stedsnr" v="791257" />
	</node>
	<node id="-19840" lat="59.3930527746" lon="10.7597416677">
		<tag k="name" v="Jonsrud" />
		<tag k="place" v="farm" />
		<tag k="ssr:stedsnr" v="782760" />
	</node>
	<node id="-19839" lat="59.3940111105" lon="10.7604777726">
		<tag k="name" v="Nordli" />
		<tag k="place" v="isolated_dwelling" />
		<tag k="ssr:stedsnr" v="782744" />
	</node>
	<node id="-19835" lat="59.3863361147" lon="10.7238444533">
		<tag k="name" v="Søndre Bjølsen" />
		<tag k="place" v="farm" />
		<tag k="ssr:stedsnr" v="782653" />
	</node>
	<node id="-19831" lat="59.3627722206" lon="10.7477916753">
		<tag k="alt_name" v="Søndre Roer;Ror søndre;Rør søndre" />
		<tag k="name" v="Søndre Ror" />
		<tag k="old_name" v="Roer, s" />
		<tag k="place" v="farm" />
		<tag k="ssr:stedsnr" v="782007" />
	</node>
	<node id="-19829" lat="59.4062861118" lon="10.6929527862">
		<tag k="amenity" v="townhall" />
		<tag k="name" v="Rygge rådhus" />
		<tag k="ssr:stedsnr" v="781917" />
	</node>
	<node id="-19825" lat="59.3235500043" lon="10.7027888967">
		<tag k="name" v="Sarpemyr" />
		<tag k="place" v="farm" />
		<tag k="ssr:stedsnr" v="781407" />
	</node>
	<node id="-19822" lat="59.3769694409" lon="10.7100972137">
		<tag k="alt_name" v="Urstad søndre" />
		<tag k="name" v="Søndre Urstad" />
		<tag k="place" v="farm" />
		<tag k="ssr:stedsnr" v="781084" />
	</node>
	<node id="-19817" lat="59.3900527791" lon="10.6656194399">
		<tag k="alt_name" v="Huseby østre" />
		<tag k="name" v="Østre Huseby" />
		<tag k="place" v="farm" />
		<tag k="ssr:stedsnr" v="731485" />
	</node>
	<node id="-19816" lat="59.4048861082" lon="10.6890916642">
		<tag k="name" v="Ekholdt" />
		<tag k="place" v="farm" />
		<tag k="ssr:stedsnr" v="731473" />
	</node>
	<node id="-19815" lat="59.3369083345" lon="10.7090416645">
		<tag k="name" v="Orefellen" />
		<tag k="place" v="farm" />
		<tag k="ssr:stedsnr" v="730646" />
	</node>
	<node id="-19814" lat="59.3818194481" lon="10.6611833383">
		<tag k="name" v="Gunnarsby" />
		<tag k="place" v="farm" />
		<tag k="ssr:stedsnr" v="730599" />
	</node>
	<node id="-19812" lat="59.3880972244" lon="10.7129277819">
		<tag k="name" v="Ringnes" />
		<tag k="place" v="farm" />
		<tag k="ssr:stedsnr" v="730584" />
	</node>
	<node id="-19811" lat="59.3827111135" lon="10.6898916692">
		<tag k="alt_name" v="Vang" />
		<tag k="amenity" v="school" />
		<tag k="name" v="Vang skole" />
		<tag k="ssr:stedsnr" v="730582" />
	</node>
	<node id="-19809" lat="59.3863198794" lon="10.7238019881">
		<tag k="alt_name" v="Bjølsen søndre" />
		<tag k="name" v="Søndre Bjølsen" />
		<tag k="place" v="farm" />
		<tag k="ssr:stedsnr" v="730287" />
	</node>
	<node id="-19806" lat="59.4029111127" lon="10.72762777">
		<tag k="name" v="Sivik" />
		<tag k="place" v="isolated_dwelling" />
		<tag k="ssr:stedsnr" v="721823" />
	</node>
	<node id="-19802" lat="59.3818749988" lon="10.7526305587">
		<tag k="name" v="Sandbekk" />
		<tag k="place" v="farm" />
		<tag k="ssr:stedsnr" v="721684" />
	</node>
	<node id="-19801" lat="59.3916805583" lon="10.7286944445">
		<tag k="alt_name" v="Bjølsen nordre" />
		<tag k="name" v="Nordre Bjølsen" />
		<tag k="place" v="farm" />
		<tag k="ssr:stedsnr" v="721667" />
	</node>
	<node id="-19798" lat="59.3433111076" lon="10.6777722258">
		<tag k="name" v="Støtvikbråten" />
		<tag k="place" v="farm" />
		<tag k="ssr:stedsnr" v="721205" />
	</node>
	<node id="-19598" lat="59.3525527817" lon="10.7140499928">
		<tag k="fixme" v="consider place=hamlet" />
		<tag k="name" v="Nærum" />
		<tag k="place" v="farm" />
		<tag k="ssr:stedsnr" v="184592" />
	</node>
	<node id="-19791" lat="59.3436277804" lon="10.7211166739">
		<tag k="name" v="Bjørndalen" />
		<tag k="place" v="locality" />
		<tag k="ssr:stedsnr" v="721036" />
	</node>
	<node id="-19788" lat="59.362638886" lon="10.7288888936">
		<tag k="name" v="Kirkerød" />
		<tag k="place" v="farm" />
		<tag k="ssr:stedsnr" v="721322" />
	</node>
	<node id="-19785" lat="59.4077722264" lon="10.6870722281">
		<tag k="name" v="Bjerke" />
		<tag k="place" v="farm" />
		<tag k="ssr:stedsnr" v="720138" />
	</node>
	<node id="-19784" lat="59.4111638929" lon="10.6962972239">
		<tag k="name" v="Heimdal" />
		<tag k="place" v="locality" />
		<tag k="ssr:stedsnr" v="720137" />
	</node>
	<node id="-19779" lat="59.3446277753" lon="10.7147583363">
		<tag k="fixme" v="consider place=hamlet" />
		<tag k="name" v="Kubberød" />
		<tag k="place" v="farm" />
		<tag k="ssr:stedsnr" v="670559" />
	</node>
	<node id="-19778" lat="59.3951472253" lon="10.7628083406">
		<tag k="name" v="Huseby" />
		<tag k="place" v="farm" />
		<tag k="ssr:stedsnr" v="670298" />
	</node>
	<node id="-19777" lat="59.3854706799" lon="10.7938795717">
		<tag k="alt_name" v="Øgården" />
		<tag k="name" v="Fredskjærøgård" />
		<tag k="place" v="farm" />
		<tag k="ssr:stedsnr" v="670287" />
	</node>
	<node id="-19776" lat="59.3894805568" lon="10.76610555">
		<tag k="name" v="Sørli" />
		<tag k="place" v="farm" />
		<tag k="ssr:stedsnr" v="670285" />
	</node>
	<node id="-19772" lat="59.3690861096" lon="10.6752611187">
		<tag k="name" v="Evje" />
		<tag k="place" v="farm" />
		<tag k="ssr:stedsnr" v="669581" />
	</node>
	<node id="-19771" lat="59.3766416662" lon="10.7113972235">
		<tag k="fixme" v="consider place=hamlet" />
		<tag k="name" v="Urstad" />
		<tag k="place" v="farm" />
		<tag k="ssr:stedsnr" v="669567" />
	</node>
	<node id="-19770" lat="59.4038527806" lon="10.7213305527">
		<tag k="name" v="Fiulstad" />
		<tag k="place" v="farm" />
		<tag k="ssr:stedsnr" v="669289" />
	</node>
	<node id="-19768" lat="59.3987138886" lon="10.7680666649">
		<tag k="leisure" v="pitch" />
		<tag k="name" v="Tangenbakken" />
		<tag k="ssr:stedsnr" v="660770" />
	</node>
	<node id="-19767" lat="59.3991194404" lon="10.7568500073">
		<tag k="alt_name" v="Huggenes østre" />
		<tag k="name" v="Østre Huggenes" />
		<tag k="place" v="farm" />
		<tag k="ssr:stedsnr" v="660768" />
	</node>
	<node id="-19593" lat="59.3627555551" lon="10.6631416582">
		<tag k="name" v="Oppset" />
		<tag k="place" v="farm" />
		<tag k="ssr:stedsnr" v="179255" />
	</node>
	<node id="-19761" lat="59.3478416665" lon="10.7094222282">
		<tag k="name" v="Østli" />
		<tag k="place" v="farm" />
		<tag k="ssr:stedsnr" v="660183" />
	</node>
	<node id="-19421" lat="59.3995861142" lon="10.7554972141">
		<tag k="fixme" v="consider place=hamlet" />
		<tag k="name" v="Huggenes" />
		<tag k="place" v="farm" />
		<tag k="ssr:stedsnr" v="366312" />
	</node>
	<node id="-19755" lat="59.4021222232" lon="10.6597166698">
		<tag k="name" v="Lille Baug" />
		<tag k="place" v="farm" />
		<tag k="ssr:stedsnr" v="659790" />
	</node>
	<node id="-19754" lat="59.3330138863" lon="10.6717249955">
		<tag k="amenity" v="school" />
		<tag k="name" v="Larkollen skole" />
		<tag k="ssr:stedsnr" v="659419" />
	</node>
	<node id="-19419" lat="59.3876895726" lon="10.7849708685">
		<tag k="name" v="Fredskjær" />
		<tag k="place" v="hamlet" />
		<tag k="ssr:stedsnr" v="366291" />
	</node>
	<node id="-19744" lat="59.4061591089" lon="10.6626066619">
		<tag k="name" v="Dyre" />
		<tag k="place" v="hamlet" />
		<tag k="ssr:stedsnr" v="609477" />
	</node>
	<node id="-19743" lat="59.4030861155" lon="10.7076250041">
		<tag k="name" v="Marienlund" />
		<tag k="place" v="farm" />
		<tag k="ssr:stedsnr" v="609475" />
	</node>
	<node id="-19741" lat="59.3699539038" lon="10.7271863295">
		<tag k="fixme" v="consider place=hamlet" />
		<tag k="name" v="Otterstad" />
		<tag k="place" v="farm" />
		<tag k="ssr:stedsnr" v="609263" />
	</node>
	<node id="-19740" lat="59.3606055538" lon="10.7100583363">
		<tag k="fixme" v="consider place=hamlet" />
		<tag k="name" v="Oppstad" />
		<tag k="place" v="farm" />
		<tag k="ssr:stedsnr" v="608613" />
	</node>
	<node id="-19739" lat="59.4056388899" lon="10.718358342">
		<tag k="name" v="Vesleng" />
		<tag k="place" v="farm" />
		<tag k="ssr:stedsnr" v="600869" />
	</node>
	<node id="-19738" lat="59.3935017362" lon="10.7210169367">
		<tag k="alt_name" v="Såstad østre" />
		<tag k="name" v="Østre Såstad" />
		<tag k="place" v="farm" />
		<tag k="ssr:stedsnr" v="600793" />
	</node>
	<node id="-19735" lat="59.3942944428" lon="10.7319805467">
		<tag k="building" v="civic" />
		<tag k="name" v="Rygge brannstasjon" />
		<tag k="ssr:stedsnr" v="600679" />
	</node>
	<node id="-19733" lat="59.3718290247" lon="10.7252085642">
		<tag k="fixme" v="consider place=hamlet" />
		<tag k="name" v="Ødegården" />
		<tag k="place" v="farm" />
		<tag k="ssr:stedsnr" v="600322" />
	</node>
	<node id="-19732" lat="59.3781138888" lon="10.7645305611">
		<tag k="name" v="Rygge hageby" />
		<tag k="place" v="quarter" />
		<tag k="ssr:stedsnr" v="600282" />
	</node>
	<node id="-19731" lat="59.353705553" lon="10.7481166654">
		<tag k="alt_name" v="Rosnes vestre" />
		<tag k="name" v="Vestre Rosnes" />
		<tag k="place" v="farm" />
		<tag k="ssr:stedsnr" v="600217" />
	</node>
	<node id="-19729" lat="59.3961500026" lon="10.6666805545">
		<tag k="name" v="Oakhill" />
		<tag k="place" v="farm" />
		<tag k="ssr:stedsnr" v="599878" />
	</node>
	<node id="-19728" lat="59.339288887" lon="10.6635777722">
		<tag k="name" v="Pusterom" />
		<tag k="old_name" v="Pusterum" />
		<tag k="place" v="isolated_dwelling" />
		<tag k="ssr:stedsnr" v="599871" />
	</node>
	<node id="-19727" lat="59.3868361095" lon="10.7777472189">
		<tag k="alt_name" v="Utne østre" />
		<tag k="name" v="Østre Utne" />
		<tag k="place" v="farm" />
		<tag k="ssr:stedsnr" v="599737" />
	</node>
	<node id="-19726" lat="59.3830472206" lon="10.7900333403">
		<tag k="alt_name" v="Søgård vestre" />
		<tag k="name" v="Vestre Søgård" />
		<tag k="place" v="farm" />
		<tag k="ssr:stedsnr" v="599734" />
	</node>
	<node id="-19757" lat="59.4382833298" lon="10.7411388823">
		<tag k="name" v="Elverhøy" />
		<tag k="place" v="isolated_dwelling" />
		<tag k="ssr:stedsnr" v="660083" />
	</node>
	<node id="-19723" lat="59.3796222243" lon="10.7056694469">
		<tag k="name" v="Urstad" />
		<tag k="place" v="farm" />
		<tag k="ssr:stedsnr" v="599064" />
	</node>
	<node id="-19722" lat="59.3792777777" lon="10.6853388802">
		<tag k="name" v="Vang" />
		<tag k="place" v="farm" />
		<tag k="ssr:stedsnr" v="599061" />
	</node>
	<node id="-19415" lat="59.3923888933" lon="10.7998750075">
		<tag k="name" v="Bjerkebakke" />
		<tag k="place" v="locality" />
		<tag k="ssr:stedsnr" v="357708" />
	</node>
	<node id="-19720" lat="59.3593333369" lon="10.7124638918">
		<tag k="alt_name" v="Opstad øvre" />
		<tag k="name" v="Øvre Opstad" />
		<tag k="place" v="farm" />
		<tag k="ssr:stedsnr" v="599024" />
	</node>
	<node id="-19719" lat="59.3292361088" lon="10.7124249966">
		<tag k="alt_name" v="Sildebaugen nordre" />
		<tag k="name" v="Nordre Sildebaugen" />
		<tag k="place" v="farm" />
		<tag k="ssr:stedsnr" v="598397" />
	</node>
	<node id="-19716" lat="59.4099527764" lon="10.6641861023">
		<tag k="name" v="Kvile" />
		<tag k="place" v="farm" />
		<tag k="ssr:stedsnr" v="598123" />
	</node>
	<node id="-19413" lat="59.3501333357" lon="10.7511527745">
		<tag k="alt_name" v="Rosnes søndre" />
		<tag k="name" v="Søndre Rosnes" />
		<tag k="place" v="farm" />
		<tag k="ssr:stedsnr" v="357213" />
	</node>
	<node id="-19705" lat="59.3765972238" lon="10.7271166694">
		<tag k="name" v="Kirkegrenda" />
		<tag k="place" v="quarter" />
		<tag k="ssr:stedsnr" v="570101" />
	</node>
	<node id="-19703" lat="59.3068250001" lon="10.6829750042">
		<tag k="name" v="Signes" />
		<tag k="place" v="isolated_dwelling" />
		<tag k="ssr:stedsnr" v="548642" />
	</node>
	<node id="-19701" lat="59.3215055518" lon="10.6565583329">
		<tag k="name" v="Ulke" />
		<tag k="place" v="farm" />
		<tag k="ssr:stedsnr" v="548608" />
	</node>
	<node id="-19698" lat="59.365213717" lon="10.6924631428">
		<tag k="fixme" v="consider place=hamlet" />
		<tag k="name" v="Pålsrød" />
		<tag k="place" v="farm" />
		<tag k="ssr:stedsnr" v="548570" />
	</node>
	<node id="-19697" lat="59.3875916705" lon="10.6656388892">
		<tag k="name" v="Ekeby" />
		<tag k="place" v="farm" />
		<tag k="ssr:stedsnr" v="548546" />
	</node>
	<node id="-19696" lat="59.3907277795" lon="10.7007000059">
		<tag k="alt_name" v="Løken østre" />
		<tag k="name" v="Østre Løken" />
		<tag k="place" v="farm" />
		<tag k="ssr:stedsnr" v="548535" />
	</node>
	<node id="-19695" lat="59.3998333318" lon="10.7097861125">
		<tag k="name" v="Holter" />
		<tag k="place" v="farm" />
		<tag k="ssr:stedsnr" v="548531" />
	</node>
	<node id="-19694" lat="59.3992305538" lon="10.7287055567">
		<tag k="name" v="Moserød" />
		<tag k="place" v="farm" />
		<tag k="ssr:stedsnr" v="548332" />
	</node>
	<node id="-19693" lat="59.3934805566" lon="10.7331888805">
		<tag k="name" v="Rekkestad" />
		<tag k="place" v="isolated_dwelling" />
		<tag k="ssr:stedsnr" v="548323" />
	</node>
	<node id="-19691" lat="59.4040694412" lon="10.7579333307">
		<tag k="alt_name" v="Kjellerød østre" />
		<tag k="name" v="Østre Kjellerød" />
		<tag k="place" v="farm" />
		<tag k="ssr:stedsnr" v="539835" />
	</node>
	<node id="-19690" lat="59.3928277813" lon="10.7677944437">
		<tag k="name" v="Grønli" />
		<tag k="place" v="farm" />
		<tag k="ssr:stedsnr" v="539763" />
	</node>
	<node id="-19686" lat="59.3564416685" lon="10.7596750066">
		<tag k="name" v="Holkemyr" />
		<tag k="place" v="farm" />
		<tag k="ssr:stedsnr" v="539037" />
	</node>
	<node id="-19685" lat="59.3525638865" lon="10.6916305562">
		<tag k="name" v="Dalen" />
		<tag k="place" v="farm" />
		<tag k="ssr:stedsnr" v="539021" />
	</node>
	<node id="-19684" lat="59.4133361072" lon="10.6630138904">
		<tag k="name" v="Bjerke" />
		<tag k="place" v="quarter" />
		<tag k="ssr:stedsnr" v="539003" />
	</node>
	<node id="-19679" lat="59.3298499956" lon="10.6810611112">
		<tag k="name" v="Skogli" />
		<tag k="place" v="farm" />
		<tag k="ssr:stedsnr" v="538439" />
	</node>
	<node id="-19678" lat="59.4099305547" lon="10.6667055565">
		<tag k="amenity" v="nursing_home" />
		<tag k="name" v="Ryggeheimen" />
		<tag k="ssr:stedsnr" v="538136" />
	</node>
	<node id="-19673" lat="59.3968055562" lon="10.6919500053">
		<tag k="name" v="Fredheim" />
		<tag k="place" v="isolated_dwelling" />
		<tag k="ssr:stedsnr" v="488492" />
	</node>
	<node id="-19672" lat="59.4031611071" lon="10.6727555585">
		<tag k="name" v="Carlberg" />
		<tag k="place" v="farm" />
		<tag k="ssr:stedsnr" v="488481" />
	</node>
	<node id="-19671" lat="59.3504777775" lon="10.700788891">
		<tag k="fixme" v="consider place=hamlet" />
		<tag k="name" v="Bråtu" />
		<tag k="place" v="farm" />
		<tag k="ssr:stedsnr" v="487627" />
	</node>
	<node id="-19670" lat="59.404980553" lon="10.7746777759">
		<tag k="name" v="Kilen" />
		<tag k="place" v="farm" />
		<tag k="ssr:stedsnr" v="487323" />
	</node>
	<node id="-19669" lat="59.3901361138" lon="10.7756250048">
		<tag k="fixme" v="consider place=hamlet" />
		<tag k="name" v="Utne" />
		<tag k="place" v="farm" />
		<tag k="ssr:stedsnr" v="487315" />
	</node>
	<node id="-19668" lat="59.3962027782" lon="10.7441555517">
		<tag k="name" v="Støa" />
		<tag k="place" v="farm" />
		<tag k="ssr:stedsnr" v="487313" />
	</node>
	<node id="-19666" lat="59.4254250035" lon="10.7038277809">
		<tag k="name" v="Hanan" />
		<tag k="place" v="isolated_dwelling" />
		<tag k="ssr:stedsnr" v="427986" />
	</node>
	<node id="-19665" lat="59.3392325708" lon="10.6843072128">
		<tag k="name" v="Støtvik" />
		<tag k="place" v="hamlet" />
		<tag k="ssr:stedsnr" v="427594" />
	</node>
	<node id="-19664" lat="59.3721166667" lon="10.7055916594">
		<tag k="alt_name" v="Urstadmyra" />
		<tag k="name" v="Urstadmyr" />
		<tag k="place" v="farm" />
		<tag k="ssr:stedsnr" v="427577" />
	</node>
	<node id="-19662" lat="59.3897083365" lon="10.7174472169">
		<tag k="name" v="Østereng" />
		<tag k="place" v="farm" />
		<tag k="ssr:stedsnr" v="427534" />
	</node>
	<node id="-19661" lat="59.3534624468" lon="10.7324982695">
		<tag k="name" v="Melleby" />
		<tag k="place" v="farm" />
		<tag k="ssr:stedsnr" v="427500" />
	</node>
	<node id="-19660" lat="59.4097083306" lon="10.7707194517">
		<tag k="alt_name" v="Gamleng" />
		<tag k="name" v="Gammeleng" />
		<tag k="place" v="farm" />
		<tag k="ssr:stedsnr" v="427347" />
	</node>
	<node id="-19658" lat="59.3670444424" lon="10.6629638835">
		<tag k="name" v="Fillekken" />
		<tag k="place" v="farm" />
		<tag k="ssr:stedsnr" v="422230" />
	</node>
	<node id="-19656" lat="59.3922583365" lon="10.7667249959">
		<tag k="name" v="Rådeskogen" />
		<tag k="place" v="hamlet" />
		<tag k="ssr:stedsnr" v="418764" />
	</node>
	<node id="-19655" lat="59.3911250014" lon="10.7680222144">
		<tag k="name" v="Østli" />
		<tag k="place" v="farm" />
		<tag k="ssr:stedsnr" v="418761" />
	</node>
	<node id="-19654" lat="59.3938611129" lon="10.7671083257">
		<tag k="name" v="Berg" />
		<tag k="place" v="farm" />
		<tag k="ssr:stedsnr" v="418756" />
	</node>
	<node id="-19652" lat="59.3881083323" lon="10.7852111065">
		<tag k="alt_name" v="Fredskjær østre" />
		<tag k="name" v="Østre Fredskjær" />
		<tag k="place" v="farm" />
		<tag k="ssr:stedsnr" v="418701" />
	</node>
	<node id="-19649" lat="59.3684249966" lon="10.7728777743">
		<tag k="alt_name" v="Eskelund øvre" />
		<tag k="name" v="Øvre Eskelund" />
		<tag k="place" v="farm" />
		<tag k="ssr:stedsnr" v="418252" />
	</node>
	<node id="-19647" lat="59.3564000004" lon="10.7620833342">
		<tag k="alt_name" v="Mølvik" />
		<tag k="fixme" v="consider place=hamlet" />
		<tag k="name" v="Molvik" />
		<tag k="place" v="farm" />
		<tag k="ssr:stedsnr" v="418032" />
	</node>
	<node id="-19646" lat="59.4025166702" lon="10.7147666685">
		<tag k="name" v="Soleng" />
		<tag k="place" v="farm" />
		<tag k="ssr:stedsnr" v="417917" />
	</node>
	<node id="-19374" lat="59.3552611126" lon="10.7652083325">
		<tag k="alt_name" v="Molvik østre" />
		<tag k="name" v="Østre Molvik" />
		<tag k="place" v="farm" />
		<tag k="ssr:stedsnr" v="297063" />
	</node>
	<node id="-19643" lat="59.3256722203" lon="10.6894861171">
		<tag k="name" v="Garnbakken" />
		<tag k="place" v="hamlet" />
		<tag k="ssr:stedsnr" v="417444" />
	</node>
	<node id="-19642" lat="59.3529666675" lon="10.7131444381">
		<tag k="alt_name" v="Nærum nordre" />
		<tag k="name" v="Nordre Nærum" />
		<tag k="place" v="farm" />
		<tag k="ssr:stedsnr" v="417233" />
	</node>
	<node id="-19641" lat="59.4088388906" lon="10.6838111151">
		<tag k="alt_name" v="Ekholt østre" />
		<tag k="name" v="Østre Ekholt" />
		<tag k="place" v="farm" />
		<tag k="ssr:stedsnr" v="417096" />
	</node>
	<node id="-19640" lat="59.3769055562" lon="10.6670722208">
		<tag k="name" v="Klosterbakke" />
		<tag k="place" v="farm" />
		<tag k="ssr:stedsnr" v="417066" />
	</node>
	<node id="-19638" lat="59.3221833347" lon="10.6870277741">
		<tag k="name" v="Solstad" />
		<tag k="place" v="farm" />
		<tag k="ssr:stedsnr" v="245592" />
	</node>
	<node id="-19637" lat="59.3195361148" lon="10.6847361093">
		<tag k="alt_name" v="Ammundrød" />
		<tag k="name" v="Amundrød" />
		<tag k="place" v="farm" />
		<tag k="ssr:stedsnr" v="245591" />
	</node>
	<node id="-19636" lat="59.3268833331" lon="10.6782388934">
		<tag k="name" v="Rørvik" />
		<tag k="place" v="isolated_dwelling" />
		<tag k="ssr:stedsnr" v="245589" />
	</node>
	<node id="-19634" lat="59.3730166643" lon="10.692191666">
		<tag k="name" v="Balke" />
		<tag k="place" v="farm" />
		<tag k="ssr:stedsnr" v="245549" />
	</node>
	<node id="-19633" lat="59.3801528971" lon="10.6774932991">
		<tag k="fixme" v="consider place=hamlet" />
		<tag k="name" v="Hasle" />
		<tag k="place" v="farm" />
		<tag k="ssr:stedsnr" v="245528" />
	</node>
	<node id="-19632" lat="59.4022500011" lon="10.6530777692">
		<tag k="alt_name" v="Feste mellem;Mellem Feste" />
		<tag k="name" v="Mellom-Feste" />
		<tag k="place" v="farm" />
		<tag k="ssr:stedsnr" v="245490" />
	</node>
	<node id="-19631" lat="59.3728555521" lon="10.7257638863">
		<tag k="alt_name" v="Brua" />
		<tag k="name" v="Broen" />
		<tag k="place" v="farm" />
		<tag k="ssr:stedsnr" v="245269" />
	</node>
	<node id="-19630" lat="59.3664555531" lon="10.7631666655">
		<tag k="name" v="Pollen" />
		<tag k="place" v="farm" />
		<tag k="ssr:stedsnr" v="245261" />
	</node>
	<node id="-19628" lat="59.3944749979" lon="10.7554472147">
		<tag k="name" v="Vestheim" />
		<tag k="place" v="farm" />
		<tag k="ssr:stedsnr" v="236769" />
	</node>
	<node id="-19627" lat="59.3907583301" lon="10.7942777748">
		<tag k="name" v="Fredskjærhagen" />
		<tag k="place" v="isolated_dwelling" />
		<tag k="ssr:stedsnr" v="236701" />
	</node>
	<node id="-19626" lat="59.388230558" lon="10.7729444422">
		<tag k="alt_name" v="Utne søndre" />
		<tag k="name" v="Søndre Utne" />
		<tag k="place" v="farm" />
		<tag k="ssr:stedsnr" v="236688" />
	</node>
	<node id="-19625" lat="59.3803472249" lon="10.7360027839">
		<tag k="name" v="Voll" />
		<tag k="place" v="farm" />
		<tag k="ssr:stedsnr" v="236681" />
	</node>
	<node id="-19624" lat="59.3651194431" lon="10.7489166584">
		<tag k="alt_name" v="Roer mellem;Mellem Roer" />
		<tag k="loc_name" v="Mellom-Ror" />
		<tag k="name" v="Mellom-Roer" />
		<tag k="old_name" v="Ror mellem;Roer, m;Ror midtre" />
		<tag k="place" v="farm" />
		<tag k="ssr:stedsnr" v="236333" />
	</node>
	<node id="-19623" lat="59.3686277786" lon="10.7269916637">
		<tag k="alt_name" v="Otterstad østre" />
		<tag k="name" v="Østre Otterstad" />
		<tag k="place" v="farm" />
		<tag k="ssr:stedsnr" v="236324" />
	</node>
	<node id="-19622" lat="59.3625444471" lon="10.7312416607">
		<tag k="name" v="Furuset" />
		<tag k="place" v="farm" />
		<tag k="ssr:stedsnr" v="236321" />
	</node>
	<node id="-19620" lat="59.3623249992" lon="10.7334638905">
		<tag k="alt_name" v="Kure nordre" />
		<tag k="name" v="Nedre Kure" />
		<tag k="place" v="farm" />
		<tag k="ssr:stedsnr" v="236314" />
	</node>
	<node id="-19619" lat="59.3594083378" lon="10.7668999988">
		<tag k="alt_name" v="Molvik nordre" />
		<tag k="name" v="Nordre Molvik" />
		<tag k="place" v="farm" />
		<tag k="ssr:stedsnr" v="236308" />
	</node>
	<node id="-19618" lat="59.3578305577" lon="10.7418388846">
		<tag k="name" v="Søndre Gulland" />
		<tag k="place" v="farm" />
		<tag k="ssr:stedsnr" v="236226" />
	</node>
	<node id="-19617" lat="59.3489611091" lon="10.7354027691">
		<tag k="alt_name" v="Kure vestre" />
		<tag k="name" v="Vestre Kure" />
		<tag k="place" v="farm" />
		<tag k="ssr:stedsnr" v="236060" />
	</node>
	<node id="-19614" lat="59.3841722239" lon="10.7061111038">
		<tag k="alt_name" v="Tøstad nedre" />
		<tag k="name" v="Nedre Tøstad" />
		<tag k="place" v="farm" />
		<tag k="ssr:stedsnr" v="235920" />
	</node>
	<node id="-19613" lat="59.3676722189" lon="10.7766055518">
		<tag k="name" v="Bitten" />
		<tag k="place" v="isolated_dwelling" />
		<tag k="ssr:stedsnr" v="235342" />
	</node>
	<node id="-19612" lat="59.3648416693" lon="10.6938083299">
		<tag k="alt_name" v="Pålsrød mellem" />
		<tag k="name" v="Mellom-Pålsrød" />
		<tag k="place" v="farm" />
		<tag k="ssr:stedsnr" v="235103" />
	</node>
	<node id="-19407" lat="59.4006305561" lon="10.6913833354">
		<tag k="name" v="Nymark" />
		<tag k="place" v="farm" />
		<tag k="ssr:stedsnr" v="356885" />
	</node>
	<node id="-19609" lat="59.3608361108" lon="10.6943833393">
		<tag k="name" v="Dalen" />
		<tag k="place" v="farm" />
		<tag k="ssr:stedsnr" v="235061" />
	</node>
	<node id="-19608" lat="59.3614666672" lon="10.7108305579">
		<tag k="alt_name" v="Opstad nedre" />
		<tag k="name" v="Nedre Opstad" />
		<tag k="place" v="farm" />
		<tag k="ssr:stedsnr" v="235049" />
	</node>
	<node id="-19601" lat="59.4266000008" lon="10.707977771">
		<tag k="alt_name" v="Storebaug" />
		<tag k="name" v="Storebog" />
		<tag k="place" v="farm" />
		<tag k="ssr:stedsnr" v="184997" />
	</node>
	<node id="-19600" lat="59.3880500018" lon="10.698975002">
		<tag k="alt_name" v="Lyby nordre" />
		<tag k="name" v="Nordre Lyby" />
		<tag k="place" v="farm" />
		<tag k="ssr:stedsnr" v="184543" />
	</node>
	<node id="-19599" lat="59.3296416706" lon="10.6888555608">
		<tag k="name" v="Grefsrød" />
		<tag k="place" v="farm" />
		<tag k="ssr:stedsnr" v="184612" />
	</node>
	<node id="-19447" lat="59.366575" lon="10.7655500045">
		<tag k="alt_name" v="Eskelund nedre" />
		<tag k="name" v="Nedre Eskelund" />
		<tag k="place" v="farm" />
		<tag k="ssr:stedsnr" v="478274" />
	</node>
	<node id="-19597" lat="59.4111972208" lon="10.7626138868">
		<tag k="name" v="Nygård" />
		<tag k="place" v="farm" />
		<tag k="ssr:stedsnr" v="184319" />
	</node>
	<node id="-19596" lat="59.3967111118" lon="10.7963527761">
		<tag k="alt_name" v="Fresjerbråten" />
		<tag k="name" v="Fredskjærbråten" />
		<tag k="place" v="farm" />
		<tag k="ssr:stedsnr" v="184302" />
	</node>
	<node id="-19595" lat="59.3986750031" lon="10.7367777741">
		<tag k="name" v="Gjønes" />
		<tag k="place" v="farm" />
		<tag k="ssr:stedsnr" v="184293" />
	</node>
	<node id="-19594" lat="59.3781420617" lon="10.7442928383">
		<tag k="fixme" v="consider place=hamlet" />
		<tag k="name" v="Rør" />
		<tag k="place" v="farm" />
		<tag k="ssr:stedsnr" v="184276" />
	</node>
	<node id="-19611" lat="59.3656055536" lon="10.6957277851">
		<tag k="alt_name" v="Pålsrød østre" />
		<tag k="name" v="Østre Pålsrød" />
		<tag k="place" v="farm" />
		<tag k="ssr:stedsnr" v="235104" />
	</node>
	<node id="-19592" lat="59.4035777734" lon="10.7531333382">
		<tag k="alt_name" v="Kjellerød vestre" />
		<tag k="name" v="Vestre Kjellerød" />
		<tag k="place" v="farm" />
		<tag k="ssr:stedsnr" v="175854" />
	</node>
	<node id="-19591" lat="59.3893416638" lon="10.7288916656">
		<tag k="name" v="Jare" />
		<tag k="place" v="farm" />
		<tag k="ssr:stedsnr" v="175805" />
	</node>
	<node id="-19590" lat="59.3950944403" lon="10.7508999976">
		<tag k="name" v="Solstad" />
		<tag k="place" v="isolated_dwelling" />
		<tag k="ssr:stedsnr" v="175797" />
	</node>
	<node id="-19589" lat="59.3918916692" lon="10.7704416627">
		<tag k="name" v="Skauge" />
		<tag k="place" v="farm" />
		<tag k="ssr:stedsnr" v="175787" />
	</node>
	<node id="-19588" lat="59.4008611129" lon="10.7183277804">
		<tag k="name" v="Såstadbråten" />
		<tag k="place" v="quarter" />
		<tag k="ssr:stedsnr" v="175768" />
	</node>
	<node id="-19586" lat="59.3658036462" lon="10.7491814222">
		<tag k="alt_name" v="Ror nordre;Nordre Roer" />
		<tag k="fixme" v="consider place=hamlet" />
		<tag k="name" v="Nordre Ror" />
		<tag k="old_name" v="Roer, n" />
		<tag k="place" v="farm" />
		<tag k="ssr:stedsnr" v="175345" />
	</node>
	<node id="-19585" lat="59.3778166677" lon="10.7444472263">
		<tag k="alt_name" v="Rør nordre" />
		<tag k="name" v="Nordre Rør" />
		<tag k="place" v="farm" />
		<tag k="ssr:stedsnr" v="175290" />
	</node>
	<node id="-19584" lat="59.3756305596" lon="10.7647000072">
		<tag k="name" v="Blomsholm" />
		<tag k="place" v="farm" />
		<tag k="ssr:stedsnr" v="175279" />
	</node>
	<node id="-19582" lat="59.4229194404" lon="10.7048527714">
		<tag k="alt_name" v="Lillebog" />
		<tag k="name" v="Lillebaug" />
		<tag k="place" v="farm" />
		<tag k="ssr:stedsnr" v="175046" />
	</node>
	<node id="-19580" lat="59.415174998" lon="10.6827527843">
		<tag k="name" v="Fredensborg" />
		<tag k="place" v="quarter" />
		<tag k="ssr:stedsnr" v="175017" />
	</node>
	<node id="-19579" lat="59.4139611088" lon="10.668083335">
		<tag k="name" v="Dyre" />
		<tag k="place" v="quarter" />
		<tag k="ssr:stedsnr" v="175005" />
	</node>
	<node id="-19578" lat="59.3991694414" lon="10.6925083291">
		<tag k="loc_name" v="Nøysom" />
		<tag k="name" v="Nøisom" />
		<tag k="place" v="farm" />
		<tag k="ssr:stedsnr" v="174907" />
	</node>
	<node id="-19393" lat="59.3892694473" lon="10.7008361026">
		<tag k="alt_name" v="Løken søndre" />
		<tag k="name" v="Søndre Løken" />
		<tag k="place" v="farm" />
		<tag k="ssr:stedsnr" v="330244" />
	</node>
	<node id="-19576" lat="59.3290472221" lon="10.6680861094">
		<tag k="name" v="Støtvig hotell" />
		<tag k="ssr:stedsnr" v="174472" />
		<tag k="tourism" v="hotel" />
	</node>
	<node id="-19574" lat="59.3451916688" lon="10.7141083257">
		<tag k="alt_name" v="Kubberød vestre" />
		<tag k="name" v="Vestre Kubberød" />
		<tag k="place" v="farm" />
		<tag k="ssr:stedsnr" v="174230" />
	</node>
	<node id="-19569" lat="59.3813083368" lon="10.6816888969">
		<tag k="name" v="Haug" />
		<tag k="place" v="farm" />
		<tag k="ssr:stedsnr" v="149984" />
	</node>
	<node id="-19389" lat="59.4034805536" lon="10.6913805509">
		<tag k="name" v="Krokstad" />
		<tag k="place" v="farm" />
		<tag k="ssr:stedsnr" v="306480" />
	</node>
	<node id="-19408" lat="59.4060277814" lon="10.6670416635">
		<tag k="alt_name" v="Dyre søndre" />
		<tag k="name" v="Søndre Dyre" />
		<tag k="place" v="farm" />
		<tag k="ssr:stedsnr" v="356899" />
	</node>
	<node id="-19562" lat="59.3429444468" lon="10.7231027857">
		<tag k="name" v="Kuremyra" />
		<tag k="place" v="farm" />
		<tag k="ssr:stedsnr" v="123526" />
	</node>
	<node id="-19560" lat="59.4037333345" lon="10.7532055527">
		<tag k="fixme" v="consider place=hamlet" />
		<tag k="name" v="Kjellerød" />
		<tag k="place" v="farm" />
		<tag k="ssr:stedsnr" v="123339" />
	</node>
	<node id="-19559" lat="59.3901861099" lon="10.7561555632">
		<tag k="name" v="Nore" />
		<tag k="place" v="farm" />
		<tag k="ssr:stedsnr" v="123328" />
	</node>
	<node id="-19558" lat="59.3955914946" lon="10.7237922612">
		<tag k="fixme" v="consider place=hamlet" />
		<tag k="name" v="Såstad" />
		<tag k="place" v="farm" />
		<tag k="ssr:stedsnr" v="123326" />
	</node>
	<node id="-19557" lat="59.3871944402" lon="10.7326694372">
		<tag k="alt_name" v="Gipsen" />
		<tag k="name" v="Gipsund" />
		<tag k="place" v="farm" />
		<tag k="ssr:stedsnr" v="123318" />
	</node>
	<node id="-19556" lat="59.3721388921" lon="10.7793833389">
		<tag k="building" v="industrial" />
		<tag k="industrial" v="factory" />
		<tag k="name" v="Utne sag" />
		<tag k="ssr:stedsnr" v="123313" />
	</node>
	<node id="-19555" lat="59.393794448" lon="10.762580549">
		<tag k="name" v="Sørby" />
		<tag k="place" v="farm" />
		<tag k="ssr:stedsnr" v="115783" />
	</node>
	<node id="-19387" lat="59.3795638871" lon="10.7205250028">
		<tag k="name" v="Prestegården" />
		<tag k="place" v="farm" />
		<tag k="ssr:stedsnr" v="306278" />
	</node>
	<node id="-19552" lat="59.384741666" lon="10.7948916623">
		<tag k="name" v="Brekka" />
		<tag k="place" v="farm" />
		<tag k="ssr:stedsnr" v="115700" />
	</node>
	<node id="-19472" lat="59.4302430445" lon="10.7310285037">
		<tag k="name" v="Grevlinghuken" />
		<tag k="place" v="locality" />
		<tag k="ssr:stedsnr" v="988107" />
	</node>
	<node id="-19548" lat="59.3899583316" lon="10.7746722179">
		<tag k="alt_name" v="Utne nordre" />
		<tag k="name" v="Nordre Utne" />
		<tag k="place" v="farm" />
		<tag k="ssr:stedsnr" v="115687" />
	</node>
	<node id="-19547" lat="59.3741055563" lon="10.7256000067">
		<tag k="name" v="Knapstad" />
		<tag k="place" v="farm" />
		<tag k="ssr:stedsnr" v="115350" />
	</node>
	<node id="-19542" lat="59.3548861113" lon="10.7723666702">
		<tag k="name" v="Sarpeløkka" />
		<tag k="place" v="farm" />
		<tag k="ssr:stedsnr" v="115059" />
	</node>
	<node id="-19541" lat="59.3371027795" lon="10.7267638915">
		<tag k="name" v="Holm" />
		<tag k="place" v="farm" />
		<tag k="ssr:stedsnr" v="115011" />
	</node>
	<node id="-19540" lat="59.3835416665" lon="10.6792638824">
		<tag k="alt_name" v="Hasle vestre" />
		<tag k="name" v="Vestre Hasle" />
		<tag k="place" v="farm" />
		<tag k="ssr:stedsnr" v="114930" />
	</node>
	<node id="-19539" lat="59.3819777749" lon="10.7070555556">
		<tag k="alt_name" v="Urstad nordre" />
		<tag k="name" v="Nordre Urstad" />
		<tag k="place" v="farm" />
		<tag k="ssr:stedsnr" v="114926" />
	</node>
	<node id="-19535" lat="59.3260694482" lon="10.6740555543">
		<tag k="amenity" v="school" />
		<tag k="name" v="Rørvik skole" />
		<tag k="ssr:stedsnr" v="114401" />
	</node>
	<node id="-19531" lat="59.3931166667" lon="10.6511388852">
		<tag k="alt_name" v="Fuglevik nordre" />
		<tag k="name" v="Nordre Fuglevik" />
		<tag k="place" v="hamlet" />
		<tag k="ssr:stedsnr" v="114102" />
	</node>
	<node id="-19530" lat="59.3702055594" lon="10.6886888964">
		<tag k="name" v="Sørliåsen" />
		<tag k="place" v="farm" />
		<tag k="ssr:stedsnr" v="114067" />
	</node>
	<node id="-19529" lat="59.3781083348" lon="10.6658111111">
		<tag k="name" v="Årefjorden" />
		<tag k="place" v="isolated_dwelling" />
		<tag k="ssr:stedsnr" v="114055" />
	</node>
	<node id="-19528" lat="59.3625222182" lon="10.7007305579">
		<tag k="name" v="Grønli" />
		<tag k="place" v="isolated_dwelling" />
		<tag k="ssr:stedsnr" v="114034" />
	</node>
	<node id="-19409" lat="59.3871333352" lon="10.6994638869">
		<tag k="alt_name" v="Lyby mellem" />
		<tag k="name" v="Mellom-Lyby" />
		<tag k="place" v="farm" />
		<tag k="ssr:stedsnr" v="356932" />
	</node>
	<node id="-19370" lat="59.3874583311" lon="10.7089333407">
		<tag k="name" v="Solberg" />
		<tag k="place" v="farm" />
		<tag k="ssr:stedsnr" v="296913" />
	</node>
	<node id="-19520" lat="59.4161166688" lon="10.687749995">
		<tag k="name" v="Kvaen" />
		<tag k="place" v="farm" />
		<tag k="ssr:stedsnr" v="63974" />
	</node>
	<node id="-19519" lat="59.3263333313" lon="10.6953527705">
		<tag k="name" v="Tollefsrød" />
		<tag k="place" v="farm" />
		<tag k="ssr:stedsnr" v="63618" />
	</node>
	<node id="-19518" lat="59.335058336" lon="10.7157416701">
		<tag k="name" v="Hallingsås" />
		<tag k="place" v="farm" />
		<tag k="ssr:stedsnr" v="63615" />
	</node>
	<node id="-19517" lat="59.3609472181" lon="10.6886000024">
		<tag k="name" v="Børsebakke" />
		<tag k="place" v="farm" />
		<tag k="ssr:stedsnr" v="63587" />
	</node>
	<node id="-19515" lat="59.3835074307" lon="10.7039893932">
		<tag k="fixme" v="consider place=hamlet" />
		<tag k="name" v="Tøstad" />
		<tag k="place" v="farm" />
		<tag k="ssr:stedsnr" v="63554" />
	</node>
	<node id="-19514" lat="59.3981305573" lon="10.6522805538">
		<tag k="name" v="Strandbakken" />
		<tag k="place" v="farm" />
		<tag k="ssr:stedsnr" v="63539" />
	</node>
	<node id="-19513" lat="59.3536071358" lon="10.7517445356">
		<tag k="alt_name" v="Rossnes" />
		<tag k="fixme" v="consider place=hamlet" />
		<tag k="name" v="Rosnes" />
		<tag k="place" v="farm" />
		<tag k="ssr:stedsnr" v="63519" />
	</node>
	<node id="-19512" lat="59.3758638923" lon="10.7505749946">
		<tag k="name" v="Gate" />
		<tag k="place" v="farm" />
		<tag k="ssr:stedsnr" v="63306" />
	</node>
	<node id="-19511" lat="59.3874694428" lon="10.7845416674">
		<tag k="alt_name" v="Fredskjær vestre" />
		<tag k="name" v="Vestre Fredskjær" />
		<tag k="place" v="farm" />
		<tag k="ssr:stedsnr" v="54730" />
	</node>
	<node id="-19721" lat="59.3608611106" lon="10.7104111091">
		<tag k="alt_name" v="Opstad mellem" />
		<tag k="name" v="Mellom-Opstad" />
		<tag k="place" v="farm" />
		<tag k="ssr:stedsnr" v="599025" />
	</node>
	<node id="-19508" lat="59.3906611104" lon="10.7644583289">
		<tag k="name" v="Solbakken" />
		<tag k="place" v="farm" />
		<tag k="ssr:stedsnr" v="54791" />
	</node>
	<node id="-19506" lat="59.3387055556" lon="10.7189861194">
		<tag k="name" v="Skogli" />
		<tag k="place" v="farm" />
		<tag k="ssr:stedsnr" v="54017" />
	</node>
	<node id="-19504" lat="59.4082083317" lon="10.6984388886">
		<tag k="alt_name" v="Dilling søndre" />
		<tag k="name" v="Søndre Dilling" />
		<tag k="place" v="farm" />
		<tag k="ssr:stedsnr" v="53934" />
	</node>
	<node id="-19503" lat="59.4068861073" lon="10.6965055472">
		<tag k="fixme" v="consider place=suburb, village or hamlet" />
		<tag k="name" v="Dilling" />
		<tag k="place" v="quarter" />
		<tag k="ssr:stedsnr" v="53933" />
	</node>
	<node id="-19502" lat="59.4071833318" lon="10.6615833396">
		<tag k="alt_name" v="Dyre nordre" />
		<tag k="fixme" v="consider place=hamlet" />
		<tag k="name" v="Nordre Dyre" />
		<tag k="place" v="farm" />
		<tag k="ssr:stedsnr" v="53804" />
	</node>
	<node id="-19500" lat="59.3317027736" lon="10.6690583245">
		<tag k="name" v="Solheim" />
		<tag k="place" v="farm" />
		<tag k="ssr:stedsnr" v="53420" />
	</node>
	<node id="-19378" lat="59.3714194479" lon="10.7257444527">
		<tag k="alt_name" v="Otterstad mellem" />
		<tag k="name" v="Mellom-Otterstad" />
		<tag k="place" v="farm" />
		<tag k="ssr:stedsnr" v="297339" />
	</node>
	<node id="-19497" lat="59.344341671" lon="10.7153138881">
		<tag k="alt_name" v="Kubberød østre" />
		<tag k="name" v="Østre Kubberød" />
		<tag k="place" v="farm" />
		<tag k="ssr:stedsnr" v="53204" />
	</node>
	<node id="-19494" lat="59.3722194483" lon="10.7181638855">
		<tag k="alt_name" v="Fløgstad søndre" />
		<tag k="name" v="Søndre Fløgstad" />
		<tag k="place" v="farm" />
		<tag k="ssr:stedsnr" v="53082" />
	</node>
	<node id="-19377" lat="59.367416666" lon="10.7260861181">
		<tag k="alt_name" v="Otterstad vestre" />
		<tag k="name" v="Vestre Otterstad" />
		<tag k="place" v="farm" />
		<tag k="ssr:stedsnr" v="297336" />
	</node>
	<node id="-19491" lat="59.3577999977" lon="10.6631277774">
		<tag k="alt_name" v="Tangen nedre" />
		<tag k="name" v="Nedre Tangen" />
		<tag k="place" v="isolated_dwelling" />
		<tag k="ssr:stedsnr" v="53020" />
	</node>
	<node id="-19481" lat="59.4097111145" lon="10.6549249995">
		<tag k="alt_name" v="Feste nordre" />
		<tag k="name" v="Nordre Feste" />
		<tag k="place" v="farm" />
		<tag k="ssr:stedsnr" v="2972" />
	</node>
	<node id="-19480" lat="59.4140777753" lon="10.6981861133">
		<tag k="name" v="Årvoll" />
		<tag k="place" v="farm" />
		<tag k="ssr:stedsnr" v="2968" />
	</node>
	<node id="-19479" lat="59.383483336" lon="10.671816662">
		<tag k="alt_name" v="Bakke nordre" />
		<tag k="name" v="Nordre Bakke" />
		<tag k="place" v="farm" />
		<tag k="ssr:stedsnr" v="2556" />
	</node>
	<node id="-19476" lat="59.3413916684" lon="10.725083336">
		<tag k="name" v="Mellegård" />
		<tag k="place" v="farm" />
		<tag k="ssr:stedsnr" v="2503" />
	</node>
	<node id="-19475" lat="59.365266664" lon="10.7496583384">
		<tag k="alt_name" v="Ror midtre" />
		<tag k="name" v="Midtre Ror" />
		<tag k="place" v="farm" />
		<tag k="ssr:stedsnr" v="2299" />
	</node>
	<node id="-19474" lat="59.3677861099" lon="10.7568083395">
		<tag k="name" v="Kroken" />
		<tag k="place" v="farm" />
		<tag k="ssr:stedsnr" v="2297" />
	</node>
	<node id="-19369" lat="59.3922583364" lon="10.687180558">
		<tag k="name" v="Ek" />
		<tag k="place" v="farm" />
		<tag k="ssr:stedsnr" v="296886" />
	</node>
	<node id="-19372" lat="59.3868222205" lon="10.690080547">
		<tag k="name" v="Vesterås" />
		<tag k="place" v="farm" />
		<tag k="ssr:stedsnr" v="296930" />
	</node>
	<node id="-19969" lat="59.3497310158" lon="10.6948726648">
		<tag k="name" v="Sundby" />
		<tag k="place" v="farm" />
		<tag k="ssr:stedsnr" v="978125" />
	</node>
</osm>
