<?xml version="1.0" encoding="UTF-8"?>
<osm generator="osmapis" version="0.6">
	<node id="-19969" lat="59.3497310158" lon="10.6948726648">
		<tag k="name" v="Sundby" />
		<tag k="place" v="farm" />
		<tag k="ssr:stedsnr" v="978125" />
	</node>
	<node id="-19968" lat="59.3349309202" lon="10.6641423075">
		<tag k="name" v="Drolshamar" />
		<tag k="place" v="isolated_dwelling" />
		<tag k="ssr:stedsnr" v="976110" />
	</node>
	<node id="-19966" lat="59.3429767223" lon="10.6615112781">
		<tag k="name" v="Finnland" />
		<tag k="place" v="farm" />
		<tag k="ssr:stedsnr" v="971510" />
	</node>
	<node id="-19965" lat="59.3421805818" lon="10.6634674361">
		<tag k="name" v="Sjøholt" />
		<tag k="place" v="farm" />
		<tag k="ssr:stedsnr" v="971508" />
	</node>
	<node id="-19964" lat="59.3408605105" lon="10.6642715662">
		<tag k="name" v="Tarvelig" />
		<tag k="place" v="farm" />
		<tag k="ssr:stedsnr" v="971507" />
	</node>
	<node id="-19962" lat="59.3916944432" lon="10.7671722298">
		<tag k="name" v="Sandbekk" />
		<tag k="place" v="farm" />
		<tag k="ssr:stedsnr" v="964762" />
	</node>
	<node id="-19961" lat="59.3936749992" lon="10.8062305617">
		<tag k="alt_name" v="Køia" />
		<tag k="name" v="Nordli" />
		<tag k="place" v="locality" />
		<tag k="ssr:stedsnr" v="964701" />
	</node>
	<node id="-19960" lat="59.3976527788" lon="10.8057027755">
		<tag k="name" v="Langverp" />
		<tag k="natural" v="cape" />
		<tag k="ssr:stedsnr" v="964699" />
	</node>
	<node id="-19959" lat="59.3890694422" lon="10.7567166733">
		<tag k="name" v="Sande" />
		<tag k="place" v="farm" />
		<tag k="ssr:stedsnr" v="964678" />
	</node>
	<node id="-19958" lat="59.3553583328" lon="10.7540083336">
		<tag k="alt_name" v="Rosnes nordre" />
		<tag k="name" v="Nordre Rosnes" />
		<tag k="place" v="farm" />
		<tag k="ssr:stedsnr" v="964242" />
	</node>
	<node id="-19957" lat="59.4326388918" lon="10.7360027755">
		<tag k="name" v="Ravneberget" />
		<tag k="natural" v="cliff" />
		<tag k="ssr:stedsnr" v="964097" />
	</node>
	<node id="-19956" lat="59.4286722228" lon="10.6981944508">
		<tag k="name" v="Lakenet" />
		<tag k="place" v="islet" />
		<tag k="ssr:stedsnr" v="964094" />
	</node>
	<node id="-19955" lat="59.4238083328" lon="10.7005944466">
		<tag k="name" v="Hedenskapet" />
		<tag k="natural" v="bay" />
		<tag k="ssr:stedsnr" v="964088" />
	</node>
	<node id="-19954" lat="59.3873833314" lon="10.7915999933">
		<tag k="name" v="Fredskjærbekken" />
		<tag k="ssr:stedsnr" v="964026" />
		<tag k="waterway" v="stream" />
	</node>
	<node id="-19953" lat="59.38119722" lon="10.6965416611">
		<tag k="name" v="Tøstadskogen" />
		<tag k="place" v="locality" />
		<tag k="ssr:stedsnr" v="963949" />
	</node>
	<node id="-19952" lat="59.3797638851" lon="10.6782861188">
		<tag k="alt_name" v="Hasle østre" />
		<tag k="name" v="Østre Hasle" />
		<tag k="place" v="farm" />
		<tag k="ssr:stedsnr" v="963942" />
	</node>
	<node id="-19951" lat="59.409333336" lon="10.7119916725">
		<tag k="name" v="Dramstadbukta" />
		<tag k="natural" v="bay" />
		<tag k="ssr:stedsnr" v="963922" />
	</node>
	<node id="-19950" lat="59.3943166701" lon="10.7112527752">
		<tag k="name" v="Paradiskroken" />
		<tag k="place" v="locality" />
		<tag k="ssr:stedsnr" v="963919" />
	</node>
	<node id="-19949" lat="59.3835111091" lon="10.6653916657">
		<tag k="name" v="Gunnarsbybekken" />
		<tag k="ssr:stedsnr" v="963622" />
		<tag k="waterway" v="stream" />
	</node>
	<node id="-19948" lat="59.3356444429" lon="10.688713894">
		<tag k="alt_name" v="Støtvik søndre;Søndre Støtvik" />
		<tag k="name" v="Nedre Støtvik" />
		<tag k="place" v="farm" />
		<tag k="ssr:stedsnr" v="963472" />
	</node>
	<node id="-19947" lat="59.32790556" lon="10.6821250033">
		<tag k="name" v="Roth" />
		<tag k="place" v="farm" />
		<tag k="ssr:stedsnr" v="963448" />
	</node>
	<node id="-19946" lat="59.3286666625" lon="10.6647277775">
		<tag k="name" v="Festningstangen" />
		<tag k="natural" v="cape" />
		<tag k="ssr:stedsnr" v="963441" />
	</node>
	<node id="-19945" lat="59.3501527796" lon="10.7124750077">
		<tag k="alt_name" v="Nærum søndre" />
		<tag k="name" v="Søndre Nærum" />
		<tag k="place" v="farm" />
		<tag k="ssr:stedsnr" v="963252" />
	</node>
	<node id="-19944" lat="59.3431138926" lon="10.6957500009">
		<tag k="name" v="Damsmyr" />
		<tag k="natural" v="wetland" />
		<tag k="ssr:stedsnr" v="963220" />
	</node>
	<node id="-19943" lat="59.3756194427" lon="10.6848944489">
		<tag k="name" v="Vestli" />
		<tag k="place" v="locality" />
		<tag k="ssr:stedsnr" v="963119" />
	</node>
	<node id="-19942" lat="59.410194446" lon="10.6899749964">
		<tag k="alt_name" v="Breidsand" />
		<tag k="name" v="Bredsand" />
		<tag k="place" v="quarter" />
		<tag k="ssr:stedsnr" v="963117" />
	</node>
	<node id="-19941" lat="59.335575004" lon="10.6611805533">
		<tag k="name" v="Rødstranda" />
		<tag k="natural" v="beach" />
		<tag k="place" v="locality" />
		<tag k="ssr:stedsnr" v="963105" />
	</node>
	<node id="-19940" lat="59.326402778" lon="10.6421361148">
		<tag k="alt_name" v="Eløyrabben" />
		<tag k="name" v="Eldøyrabben" />
		<tag k="place" v="islet" />
		<tag k="ssr:stedsnr" v="963104" />
	</node>
	<node id="-19939" lat="59.3766111146" lon="10.6636083306">
		<tag k="name" v="Villskog" />
		<tag k="place" v="farm" />
		<tag k="ssr:stedsnr" v="963070" />
	</node>
	<node id="-19938" lat="59.3630138851" lon="10.685113889">
		<tag k="name" v="Nyjordet" />
		<tag k="place" v="isolated_dwelling" />
		<tag k="ssr:stedsnr" v="963036" />
	</node>
	<node id="-19937" lat="59.3112611109" lon="10.687050005">
		<tag k="name" v="Sørskogen" />
		<tag k="place" v="locality" />
		<tag k="ssr:stedsnr" v="962117" />
	</node>
	<node id="-19936" lat="59.3614416693" lon="10.6645527782">
		<tag k="name" v="Posjetangen" />
		<tag k="natural" v="cape" />
		<tag k="ssr:stedsnr" v="938898" />
	</node>
	<node id="-19935" lat="59.3888999968" lon="10.6390916649">
		<tag k="name" v="Revlinghausen" />
		<tag k="place" v="locality" />
		<tag k="seamark:type" v="rock" />
		<tag k="ssr:stedsnr" v="938896" />
	</node>
	<node id="-19934" lat="59.3178694475" lon="10.698872222">
		<tag k="name" v="Husebukta" />
		<tag k="natural" v="bay" />
		<tag k="ssr:stedsnr" v="938877" />
	</node>
	<node id="-19933" lat="59.3744083349" lon="10.6693972238">
		<tag k="name" v="Villskog" />
		<tag k="place" v="farm" />
		<tag k="ssr:stedsnr" v="935851" />
	</node>
	<node id="-19932" lat="59.377608469" lon="10.7487975603">
		<tag k="alt_name" v="Rygge" />
		<tag k="name" v="Rygge stasjon" />
		<tag k="railway" v="station" />
		<tag k="ssr:stedsnr" v="935074" />
		<tag k="train" v="yes" />
	</node>
	<node id="-19931" lat="59.4149527771" lon="10.6672000066">
		<tag k="name" v="Kallum" />
		<tag k="place" v="farm" />
		<tag k="ssr:stedsnr" v="913976" />
	</node>
	<node id="-19930" lat="59.3133555536" lon="10.6378305546">
		<tag k="name" v="Hausen" />
		<tag k="natural" v="shoal" />
		<tag k="place" v="locality" />
		<tag k="ssr:stedsnr" v="913586" />
	</node>
	<node id="-19929" lat="59.3267218809" lon="10.7153214478">
		<tag k="name" v="Sildebogen" />
		<tag k="natural" v="cape" />
		<tag k="ssr:stedsnr" v="913578" />
	</node>
	<node id="-19928" lat="59.3896888857" lon="10.7004194502">
		<tag k="alt_name" v="Løken vestre" />
		<tag k="name" v="Vestre Løken" />
		<tag k="place" v="farm" />
		<tag k="ssr:stedsnr" v="913492" />
	</node>
	<node id="-19927" lat="59.3710638846" lon="10.7629833409">
		<tag k="name" v="Gon" />
		<tag k="place" v="farm" />
		<tag k="ssr:stedsnr" v="913273" />
	</node>
	<node id="-19926" lat="59.3554277752" lon="10.6955166654">
		<tag k="name" v="Li" />
		<tag k="place" v="farm" />
		<tag k="ssr:stedsnr" v="912602" />
	</node>
	<node id="-19925" lat="59.3821222182" lon="10.6715027804">
		<tag k="alt_name" v="Bakke søndre" />
		<tag k="name" v="Søndre Bakke" />
		<tag k="place" v="farm" />
		<tag k="ssr:stedsnr" v="912571" />
	</node>
	<node id="-19924" lat="59.322113891" lon="10.6965833334">
		<tag k="name" v="Ulvestua" />
		<tag k="natural" v="hill" />
		<tag k="place" v="locality" />
		<tag k="ssr:stedsnr" v="907174" />
	</node>
	<node id="-19923" lat="59.3169305533" lon="10.6512222143">
		<tag k="fixme" v="consider boundary=protected_area and relevant protect_class if not nature reserve" />
		<tag k="leisure" v="nature_reserve" />
		<tag k="name" v="Eldøya naturreservat" />
		<tag k="ssr:stedsnr" v="906624" />
	</node>
	<node id="-19922" lat="59.4053666695" lon="10.7395750085">
		<tag k="name" v="Feøytangen" />
		<tag k="natural" v="cape" />
		<tag k="ssr:stedsnr" v="904842" />
	</node>
	<node id="-19921" lat="59.3985888912" lon="10.7553777786">
		<tag k="alt_name" v="Huggenes mellem" />
		<tag k="name" v="Mellom-Huggenes" />
		<tag k="place" v="farm" />
		<tag k="ssr:stedsnr" v="904806" />
	</node>
	<node id="-19920" lat="59.4006250039" lon="10.7463249943">
		<tag k="alt_name" v="Huggenes vestre" />
		<tag k="name" v="Vestre Huggenes" />
		<tag k="place" v="farm" />
		<tag k="ssr:stedsnr" v="904799" />
	</node>
	<node id="-19919" lat="59.3913194441" lon="10.7616222182">
		<tag k="name" v="Solheim" />
		<tag k="place" v="farm" />
		<tag k="ssr:stedsnr" v="904787" />
	</node>
	<node id="-19918" lat="59.4100555558" lon="10.7274277823">
		<tag k="fixme" v="consider natural=peak for the most distinct mountains in the district" />
		<tag k="name" v="Langberget" />
		<tag k="natural" v="hill" />
		<tag k="place" v="locality" />
		<tag k="ssr:stedsnr" v="904765" />
	</node>
	<node id="-19917" lat="59.3988250025" lon="10.8066277808">
		<tag k="name" v="Langverpbukta" />
		<tag k="natural" v="bay" />
		<tag k="ssr:stedsnr" v="904700" />
	</node>
	<node id="-19916" lat="59.3628583306" lon="10.7707583351">
		<tag k="name" v="Asgården" />
		<tag k="place" v="farm" />
		<tag k="ssr:stedsnr" v="904314" />
	</node>
	<node id="-19915" lat="59.3704138906" lon="10.7680361032">
		<tag k="name" v="Eskelund" />
		<tag k="place" v="farm" />
		<tag k="ssr:stedsnr" v="904281" />
	</node>
	<node id="-19914" lat="59.3527166525" lon="10.7485226254">
		<tag k="alt_name" v="Rosnes østre" />
		<tag k="name" v="Østre Rosnes" />
		<tag k="place" v="farm" />
		<tag k="ssr:stedsnr" v="904222" />
	</node>
	<node id="-19913" lat="59.3568027793" lon="10.7494361191">
		<tag k="junction" v="yes" />
		<tag k="name" v="Katrinekrysset" />
		<tag k="place" v="locality" />
		<tag k="ssr:stedsnr" v="904224" />
	</node>
	<node id="-19912" lat="59.3499944466" lon="10.7681888822">
		<tag k="name" v="Ottersheia" />
		<tag k="place" v="locality" />
		<tag k="ssr:stedsnr" v="904050" />
	</node>
	<node id="-19911" lat="59.3864222246" lon="10.6876666744">
		<tag k="bridge" v="yes" />
		<tag k="layer" v="1" />
		<tag k="name" v="Jokums bru" />
		<tag k="ssr:stedsnr" v="903927" />
	</node>
	<node id="-19910" lat="59.4017583372" lon="10.6965499921">
		<tag k="alt_name" v="Dilling vestre" />
		<tag k="name" v="Vestre Dilling" />
		<tag k="place" v="farm" />
		<tag k="ssr:stedsnr" v="903883" />
	</node>
	<node id="-19909" lat="59.3983499967" lon="10.714644437">
		<tag k="name" v="Såstadskogen" />
		<tag k="place" v="locality" />
		<tag k="ssr:stedsnr" v="903881" />
	</node>
	<node id="-19908" lat="59.3787916686" lon="10.7273333383">
		<tag k="name" v="Ramstad" />
		<tag k="place" v="farm" />
		<tag k="ssr:stedsnr" v="903292" />
	</node>
	<node id="-19907" lat="59.3645527781" lon="10.7480416722">
		<tag k="alt_name" v="Roer" />
		<tag k="fixme" v="consider place=hamlet" />
		<tag k="name" v="Ror" />
		<tag k="place" v="farm" />
		<tag k="ssr:stedsnr" v="903267" />
	</node>
	<node id="-19906" lat="59.3586333331" lon="10.665930548">
		<tag k="name" v="Garnbakken" />
		<tag k="place" v="locality" />
		<tag k="ssr:stedsnr" v="903113" />
	</node>
	<node id="-19905" lat="59.3834194431" lon="10.6522694415">
		<tag k="alt_name" v="Fuglevik søndre" />
		<tag k="name" v="Søndre Fuglevik" />
		<tag k="place" v="hamlet" />
		<tag k="ssr:stedsnr" v="903114" />
	</node>
	<node id="-19904" lat="59.4332611109" lon="10.7310611128">
		<tag k="fixme" v="consider natural=peak for the most distinct mountains in the district" />
		<tag k="name" v="Kråkeberget" />
		<tag k="natural" v="hill" />
		<tag k="place" v="locality" />
		<tag k="ssr:stedsnr" v="903074" />
	</node>
	<node id="-19903" lat="59.3580611121" lon="10.6628777778">
		<tag k="alt_name" v="Tangen øvre" />
		<tag k="name" v="Øvre Tangen" />
		<tag k="place" v="isolated_dwelling" />
		<tag k="ssr:stedsnr" v="903020" />
	</node>
	<node id="-19902" lat="59.3412888888" lon="10.7375083399">
		<tag k="fixme" v="consider boundary=protected_area and relevant protect_class if not nature reserve" />
		<tag k="leisure" v="nature_reserve" />
		<tag k="name" v="Kurefjorden naturreservat" />
		<tag k="ssr:stedsnr" v="903018" />
	</node>
	<node id="-19901" lat="59.3545333322" lon="10.6599944448">
		<tag k="name" v="Holmen" />
		<tag k="place" v="farm" />
		<tag k="ssr:stedsnr" v="902474" />
	</node>
	<node id="-19900" lat="59.3244777758" lon="10.6811472165">
		<tag k="name" v="Bryggebakken" />
		<tag k="place" v="locality" />
		<tag k="ssr:stedsnr" v="902444" />
	</node>
	<node id="-19899" lat="59.3299694486" lon="10.6822638852">
		<tag k="name" v="Løvmo" />
		<tag k="place" v="farm" />
		<tag k="ssr:stedsnr" v="902440" />
	</node>
	<node id="-19898" lat="59.3167333309" lon="10.6763722202">
		<tag k="name" v="Engholmstangen" />
		<tag k="natural" v="cape" />
		<tag k="ssr:stedsnr" v="902411" />
	</node>
	<node id="-19897" lat="59.4082805584" lon="10.6700055489">
		<tag k="name" v="Dyreskogen" />
		<tag k="place" v="locality" />
		<tag k="ssr:stedsnr" v="902115" />
	</node>
	<node id="-19896" lat="59.3074972233" lon="10.6822305469">
		<tag k="alt_name" v="Neset" />
		<tag k="name" v="Signneset" />
		<tag k="natural" v="cape" />
		<tag k="ssr:stedsnr" v="878786" />
	</node>
	<node id="-19895" lat="59.3670722183" lon="10.6511111129">
		<tag k="name" v="Årefjordbåen" />
		<tag k="place" v="locality" />
		<tag k="seamark:type" v="rock" />
		<tag k="ssr:stedsnr" v="877991" />
	</node>
	<node id="-19894" lat="59.3817027815" lon="10.7514416671">
		<tag k="name" v="Halmstad" />
		<tag k="place" v="quarter" />
		<tag k="ssr:stedsnr" v="877351" />
	</node>
	<node id="-19893" lat="59.3330861149" lon="10.7185416676">
		<tag k="name" v="Møvik" />
		<tag k="natural" v="bay" />
		<tag k="ssr:stedsnr" v="874781" />
	</node>
	<node id="-19892" lat="59.4153583344" lon="10.7179666586">
		<tag k="alt_name" v="Sildeholmen" />
		<tag k="name" v="Store Sileholmen" />
		<tag k="place" v="islet" />
		<tag k="ssr:stedsnr" v="852967" />
	</node>
	<node id="-19891" lat="59.3112111077" lon="10.6503388961">
		<tag k="name" v="Hellene" />
		<tag k="natural" v="shoal" />
		<tag k="place" v="locality" />
		<tag k="ssr:stedsnr" v="852612" />
	</node>
	<node id="-19890" lat="59.3476416624" lon="10.6728666687">
		<tag k="name" v="Botner" />
		<tag k="place" v="farm" />
		<tag k="ssr:stedsnr" v="852568" />
	</node>
	<node id="-19889" lat="59.3767972198" lon="10.7041027731">
		<tag k="name" v="Navestad" />
		<tag k="place" v="farm" />
		<tag k="ssr:stedsnr" v="852544" />
	</node>
	<node id="-19888" lat="59.3812666672" lon="10.6357333326">
		<tag k="alt_name" v="Fuglene" />
		<tag k="name" v="Fuglen" />
		<tag k="natural" v="shoal" />
		<tag k="place" v="locality" />
		<tag k="ssr:stedsnr" v="852542" />
	</node>
	<node id="-19887" lat="59.3860861101" lon="10.6998861167">
		<tag k="alt_name" v="Lyby søndre" />
		<tag k="name" v="Søndre Lyby" />
		<tag k="place" v="farm" />
		<tag k="ssr:stedsnr" v="852533" />
	</node>
	<node id="-19886" lat="59.3949333314" lon="10.6646250003">
		<tag k="alt_name" v="Huseby nordre" />
		<tag k="name" v="Nordre Huseby" />
		<tag k="place" v="farm" />
		<tag k="ssr:stedsnr" v="852517" />
	</node>
	<node id="-19885" lat="59.3916138923" lon="10.6618444398">
		<tag k="alt_name" v="Huseby vestre" />
		<tag k="name" v="Vestre Huseby" />
		<tag k="place" v="farm" />
		<tag k="ssr:stedsnr" v="852518" />
	</node>
	<node id="-19884" lat="59.3370042649" lon="10.7270675015">
		<tag k="fixme" v="consider place=hamlet" />
		<tag k="name" v="Holm" />
		<tag k="place" v="farm" />
		<tag k="ssr:stedsnr" v="852462" />
	</node>
	<node id="-19883" lat="59.3964055535" lon="10.766836108">
		<tag k="name" v="Tangen" />
		<tag k="place" v="farm" />
		<tag k="ssr:stedsnr" v="852305" />
	</node>
	<node id="-19882" lat="59.3655136573" lon="10.7491780905">
		<tag k="alt_name" v="Ror nordre" />
		<tag k="name" v="Nordre Ror" />
		<tag k="place" v="farm" />
		<tag k="ssr:stedsnr" v="852286" />
	</node>
	<node id="-19881" lat="59.3679749965" lon="10.7727972234">
		<tag k="fixme" v="consider place=hamlet" />
		<tag k="name" v="Eskelund" />
		<tag k="place" v="farm" />
		<tag k="ssr:stedsnr" v="852285" />
	</node>
	<node id="-19880" lat="59.3954439203" lon="10.7240981344">
		<tag k="name" v="Såstad" />
		<tag k="place" v="farm" />
		<tag k="ssr:stedsnr" v="843825" />
	</node>
	<node id="-19879" lat="59.3921222229" lon="10.7500777725">
		<tag k="name" v="Huggenesskogen" />
		<tag k="place" v="locality" />
		<tag k="ssr:stedsnr" v="843811" />
	</node>
	<node id="-19878" lat="59.4029138849" lon="10.7940388968">
		<tag k="name" v="Brentetangen" />
		<tag k="natural" v="cape" />
		<tag k="ssr:stedsnr" v="843781" />
	</node>
	<node id="-19877" lat="59.3887027796" lon="10.8059305563">
		<tag k="name" v="Grevlingåsen" />
		<tag k="natural" v="hill" />
		<tag k="place" v="locality" />
		<tag k="ssr:stedsnr" v="843751" />
	</node>
	<node id="-19876" lat="59.3910027789" lon="10.8026722303">
		<tag k="fixme" v="consider natural=peak for the most distinct mountains in the district" />
		<tag k="name" v="Vardås" />
		<tag k="natural" v="hill" />
		<tag k="place" v="locality" />
		<tag k="ssr:stedsnr" v="843752" />
	</node>
	<node id="-19875" lat="59.3625694441" lon="10.7582861027">
		<tag k="alt_name" v="Ror østre;Østre Roer" />
		<tag k="name" v="Østre Ror" />
		<tag k="place" v="farm" />
		<tag k="ssr:stedsnr" v="843333" />
	</node>
	<node id="-19874" lat="59.3758638924" lon="10.7238750002">
		<tag k="name" v="Dyrhaug" />
		<tag k="place" v="farm" />
		<tag k="ssr:stedsnr" v="843327" />
	</node>
	<node id="-19873" lat="59.3781277815" lon="10.7541083274">
		<tag k="name" v="Vårli" />
		<tag k="place" v="farm" />
		<tag k="ssr:stedsnr" v="843272" />
	</node>
	<node id="-19872" lat="59.4133888895" lon="10.6868583253">
		<tag k="name" v="Bråten" />
		<tag k="place" v="farm" />
		<tag k="ssr:stedsnr" v="843096" />
	</node>
	<node id="-19871" lat="59.426038888" lon="10.6935166705">
		<tag k="name" v="Solliskogen" />
		<tag k="place" v="locality" />
		<tag k="ssr:stedsnr" v="843077" />
	</node>
	<node id="-19870" lat="59.3562138865" lon="10.7612472269">
		<tag k="alt_name" v="Molvik vestre" />
		<tag k="name" v="Vestre Molvik" />
		<tag k="place" v="farm" />
		<tag k="ssr:stedsnr" v="843044" />
	</node>
	<node id="-19869" lat="59.3880305581" lon="10.670208341">
		<tag k="fixme" v="consider boundary=protected_area and relevant protect_class if not nature reserve" />
		<tag k="leisure" v="nature_reserve" />
		<tag k="name" v="Telemarkslund naturreservat" />
		<tag k="ssr:stedsnr" v="842943" />
	</node>
	<node id="-19868" lat="59.4048055516" lon="10.6535416633">
		<tag k="name" v="Festelandet" />
		<tag k="place" v="locality" />
		<tag k="ssr:stedsnr" v="842772" />
	</node>
	<node id="-19867" lat="59.3963444437" lon="10.6585361083">
		<tag k="name" v="Strandbakkskogen" />
		<tag k="place" v="locality" />
		<tag k="ssr:stedsnr" v="842573" />
	</node>
	<node id="-19866" lat="59.3336833306" lon="10.6645333299">
		<tag k="name" v="Tollstasjonen" />
		<tag k="place" v="locality" />
		<tag k="ssr:stedsnr" v="842437" />
	</node>
	<node id="-19865" lat="59.3271638932" lon="10.7079972289">
		<tag k="name" v="Steinkjelen" />
		<tag k="place" v="locality" />
		<tag k="ssr:stedsnr" v="842407" />
	</node>
	<node id="-19864" lat="59.3347222189" lon="10.7124194455">
		<tag k="name" v="Orefellen" />
		<tag k="place" v="farm" />
		<tag k="ssr:stedsnr" v="842388" />
	</node>
	<node id="-19863" lat="59.3762444479" lon="10.7465305595">
		<tag k="alt_name" v="Rør søndre" />
		<tag k="name" v="Søndre Rør" />
		<tag k="place" v="farm" />
		<tag k="ssr:stedsnr" v="842273" />
	</node>
	<node id="-19862" lat="59.3490499969" lon="10.668063884">
		<tag k="name" v="Ekelund" />
		<tag k="place" v="locality" />
		<tag k="ssr:stedsnr" v="842211" />
	</node>
	<node id="-19861" lat="59.3533194473" lon="10.6768916753">
		<tag k="fixme" v="consider boundary=protected_area and relevant protect_class if not nature reserve" />
		<tag k="leisure" v="nature_reserve" />
		<tag k="name" v="Vardåsen naturreservat" />
		<tag k="ssr:stedsnr" v="842207" />
	</node>
	<node id="-19860" lat="59.3398472203" lon="10.6830694442">
		<tag k="alt_name" v="Støtvik store" />
		<tag k="name" v="Store Støtvik" />
		<tag k="place" v="farm" />
		<tag k="ssr:stedsnr" v="842196" />
	</node>
	<node id="-19859" lat="59.391044442" lon="10.6557222203">
		<tag k="name" v="Kollen" />
		<tag k="place" v="farm" />
		<tag k="ssr:stedsnr" v="842116" />
	</node>
	<node id="-19858" lat="59.3880805561" lon="10.6594000064">
		<tag k="name" v="Storeng" />
		<tag k="place" v="farm" />
		<tag k="ssr:stedsnr" v="842114" />
	</node>
	<node id="-19857" lat="59.3324194484" lon="10.6508138899">
		<tag k="name" v="Kirkegården" />
		<tag k="place" v="locality" />
		<tag k="ssr:stedsnr" v="842105" />
	</node>
	<node id="-19856" lat="59.3681361075" lon="10.684152774">
		<tag k="junction" v="yes" />
		<tag k="name" v="Evjekrysset" />
		<tag k="place" v="locality" />
		<tag k="ssr:stedsnr" v="842088" />
	</node>
	<node id="-19855" lat="59.3798249959" lon="10.6776194453">
		<tag k="alt_name" v="Hasle vestre" />
		<tag k="name" v="Vestre Hasle" />
		<tag k="place" v="farm" />
		<tag k="ssr:stedsnr" v="842066" />
	</node>
	<node id="-19854" lat="59.3746361155" lon="10.6563666727">
		<tag k="name" v="Årefjord" />
		<tag k="place" v="farm" />
		<tag k="ssr:stedsnr" v="842009" />
	</node>
	<node id="-19853" lat="59.3661277809" lon="10.6586444473">
		<tag k="name" v="Fyrikken" />
		<tag k="place" v="islet" />
		<tag k="ssr:stedsnr" v="842006" />
	</node>
	<node id="-19852" lat="59.3911305585" lon="10.6883055564">
		<tag k="fixme" v="consider natural=peak for the most distinct mountains in the district" />
		<tag k="name" v="Smedhusåsen" />
		<tag k="natural" v="hill" />
		<tag k="place" v="locality" />
		<tag k="ssr:stedsnr" v="842887" />
	</node>
	<node id="-19851" lat="59.3262999995" lon="10.6861416638">
		<tag k="name" v="Nasle" />
		<tag k="place" v="farm" />
		<tag k="ssr:stedsnr" v="817894" />
	</node>
	<node id="-19850" lat="59.3861111106" lon="10.6566611175">
		<tag k="name" v="Fuglevik" />
		<tag k="place" v="quarter" />
		<tag k="ssr:stedsnr" v="813095" />
	</node>
	<node id="-19849" lat="59.3060055547" lon="10.6878416704">
		<tag k="name" v="Stretaneset" />
		<tag k="natural" v="cape" />
		<tag k="ssr:stedsnr" v="791627" />
	</node>
	<node id="-19848" lat="59.3470388875" lon="10.6865500086">
		<tag k="name" v="Buberg" />
		<tag k="place" v="farm" />
		<tag k="ssr:stedsnr" v="791569" />
	</node>
	<node id="-19847" lat="59.3847333298" lon="10.6815944501">
		<tag k="name" v="Rød" />
		<tag k="place" v="farm" />
		<tag k="ssr:stedsnr" v="791521" />
	</node>
	<node id="-19846" lat="59.4008777768" lon="10.6993861119">
		<tag k="fixme" v="consider place=hamlet" />
		<tag k="name" v="Dilling" />
		<tag k="place" v="farm" />
		<tag k="ssr:stedsnr" v="791495" />
	</node>
	<node id="-19845" lat="59.400855557" lon="10.6520611087">
		<tag k="alt_name" v="Feste søndre" />
		<tag k="name" v="Søndre Feste" />
		<tag k="place" v="farm" />
		<tag k="ssr:stedsnr" v="791492" />
	</node>
	<node id="-19844" lat="59.4140944407" lon="10.7652027852">
		<tag k="name" v="Engene" />
		<tag k="place" v="farm" />
		<tag k="ssr:stedsnr" v="791308" />
	</node>
	<node id="-19843" lat="59.3623083292" lon="10.7334111181">
		<tag k="fixme" v="consider place=hamlet" />
		<tag k="name" v="Kure" />
		<tag k="place" v="farm" />
		<tag k="ssr:stedsnr" v="791257" />
	</node>
	<node id="-19842" lat="59.4048222202" lon="10.7766638963">
		<tag k="name" v="Kilebukta" />
		<tag k="natural" v="bay" />
		<tag k="ssr:stedsnr" v="782829" />
	</node>
	<node id="-19841" lat="59.4071611068" lon="10.7552222259">
		<tag k="name" v="Kjellerødbukta" />
		<tag k="natural" v="bay" />
		<tag k="ssr:stedsnr" v="782821" />
	</node>
	<node id="-19840" lat="59.3930527746" lon="10.7597416677">
		<tag k="name" v="Jonsrud" />
		<tag k="place" v="farm" />
		<tag k="ssr:stedsnr" v="782760" />
	</node>
	<node id="-19839" lat="59.3940111105" lon="10.7604777726">
		<tag k="name" v="Nordli" />
		<tag k="place" v="isolated_dwelling" />
		<tag k="ssr:stedsnr" v="782744" />
	</node>
	<node id="-19838" lat="59.3991333295" lon="10.794069448">
		<tag k="alt_name" v="Fredskjærskogen østre" />
		<tag k="name" v="Østre Fredskjærskogen" />
		<tag k="place" v="locality" />
		<tag k="ssr:stedsnr" v="782710" />
	</node>
	<node id="-19837" lat="59.3945555586" lon="10.7852333412">
		<tag k="alt_name" v="Fredskjærskogen vestre" />
		<tag k="name" v="Vestre Fredskjærskogen" />
		<tag k="place" v="locality" />
		<tag k="ssr:stedsnr" v="782685" />
	</node>
	<node id="-19836" lat="59.3878138864" lon="10.7424611115">
		<tag k="name" v="Askebingen" />
		<tag k="place" v="locality" />
		<tag k="ssr:stedsnr" v="782674" />
	</node>
	<node id="-19835" lat="59.3863361147" lon="10.7238444533">
		<tag k="name" v="Søndre Bjølsen" />
		<tag k="place" v="farm" />
		<tag k="ssr:stedsnr" v="782653" />
	</node>
	<node id="-19834" lat="59.3646416679" lon="10.7631611091">
		<tag k="name" v="Hermannskogen" />
		<tag k="place" v="locality" />
		<tag k="ssr:stedsnr" v="782261" />
	</node>
	<node id="-19833" lat="59.4207722239" lon="10.7075999961">
		<tag k="name" v="Frydenlund" />
		<tag k="place" v="locality" />
		<tag k="ssr:stedsnr" v="782101" />
	</node>
	<node id="-19832" lat="59.4213694477" lon="10.6997166621">
		<tag k="name" v="Årvollskogen" />
		<tag k="place" v="locality" />
		<tag k="ssr:stedsnr" v="782056" />
	</node>
	<node id="-19831" lat="59.3627722206" lon="10.7477916753">
		<tag k="alt_name" v="Søndre Roer;Ror søndre;Rør søndre" />
		<tag k="name" v="Søndre Ror" />
		<tag k="old_name" v="Roer, s" />
		<tag k="place" v="farm" />
		<tag k="ssr:stedsnr" v="782007" />
	</node>
	<node id="-19830" lat="59.4089555556" lon="10.6872888907">
		<tag k="amenity" v="community_centre" />
		<tag k="name" v="Hadeland kultursenter" />
		<tag k="ssr:stedsnr" v="781929" />
	</node>
	<node id="-19829" lat="59.4062861118" lon="10.6929527862">
		<tag k="amenity" v="townhall" />
		<tag k="name" v="Rygge rådhus" />
		<tag k="ssr:stedsnr" v="781917" />
	</node>
	<node id="-19828" lat="59.3281972193" lon="10.7044972187">
		<tag k="highway" v="path" />
		<tag k="name" v="Bølåsveien" />
		<tag k="ssr:stedsnr" v="781436" />
	</node>
	<node id="-19827" lat="59.3532916666" lon="10.6574194487">
		<tag k="name" v="Fantekåken" />
		<tag k="place" v="locality" />
		<tag k="ssr:stedsnr" v="781433" />
	</node>
	<node id="-19826" lat="59.332544444" lon="10.7046805505">
		<tag k="fixme" v="consider natural=peak for the most distinct mountains in the district" />
		<tag k="name" v="Lindeberget" />
		<tag k="natural" v="hill" />
		<tag k="place" v="locality" />
		<tag k="ssr:stedsnr" v="781418" />
	</node>
	<node id="-19825" lat="59.3235500043" lon="10.7027888967">
		<tag k="name" v="Sarpemyr" />
		<tag k="place" v="farm" />
		<tag k="ssr:stedsnr" v="781407" />
	</node>
	<node id="-19824" lat="59.394697219" lon="10.6475361099">
		<tag k="name" v="Baugstangen" />
		<tag k="natural" v="cape" />
		<tag k="ssr:stedsnr" v="781131" />
	</node>
	<node id="-19823" lat="59.3351333372" lon="10.647236119">
		<tag k="name" v="Kollesten" />
		<tag k="natural" v="cape" />
		<tag k="ssr:stedsnr" v="781106" />
	</node>
	<node id="-19822" lat="59.3769694409" lon="10.7100972137">
		<tag k="alt_name" v="Urstad søndre" />
		<tag k="name" v="Søndre Urstad" />
		<tag k="place" v="farm" />
		<tag k="ssr:stedsnr" v="781084" />
	</node>
	<node id="-19821" lat="59.3552083355" lon="10.6863972243">
		<tag k="name" v="Dalaskogen" />
		<tag k="place" v="locality" />
		<tag k="ssr:stedsnr" v="781025" />
	</node>
	<node id="-19820" lat="59.4146416656" lon="10.7015305527">
		<tag k="bridge" v="yes" />
		<tag k="layer" v="1" />
		<tag k="name" v="Årvoldkrysset" />
		<tag k="ssr:stedsnr" v="774486" />
	</node>
	<node id="-19819" lat="59.3105805594" lon="10.6930416713">
		<tag k="fixme" v="multiple name tags, choose one and add the other to alt_name" />
		<tag k="name" v="Barselbukt;Knutvikbukta" />
		<tag k="natural" v="bay" />
		<tag k="ssr:stedsnr" v="756844" />
	</node>
	<node id="-19818" lat="59.3001361097" lon="10.6985638958">
		<tag k="name" v="Gampen" />
		<tag k="place" v="locality" />
		<tag k="seamark:type" v="rock" />
		<tag k="ssr:stedsnr" v="756783" />
	</node>
	<node id="-19817" lat="59.3900527791" lon="10.6656194399">
		<tag k="alt_name" v="Huseby østre" />
		<tag k="name" v="Østre Huseby" />
		<tag k="place" v="farm" />
		<tag k="ssr:stedsnr" v="731485" />
	</node>
	<node id="-19816" lat="59.4048861082" lon="10.6890916642">
		<tag k="name" v="Ekholdt" />
		<tag k="place" v="farm" />
		<tag k="ssr:stedsnr" v="731473" />
	</node>
	<node id="-19815" lat="59.3369083345" lon="10.7090416645">
		<tag k="name" v="Orefellen" />
		<tag k="place" v="farm" />
		<tag k="ssr:stedsnr" v="730646" />
	</node>
	<node id="-19814" lat="59.3818194481" lon="10.6611833383">
		<tag k="name" v="Gunnarsby" />
		<tag k="place" v="farm" />
		<tag k="ssr:stedsnr" v="730599" />
	</node>
	<node id="-19813" lat="59.3747249983" lon="10.6536888836">
		<tag k="name" v="Årefjordtangen" />
		<tag k="natural" v="cape" />
		<tag k="ssr:stedsnr" v="730596" />
	</node>
	<node id="-19812" lat="59.3880972244" lon="10.7129277819">
		<tag k="name" v="Ringnes" />
		<tag k="place" v="farm" />
		<tag k="ssr:stedsnr" v="730584" />
	</node>
	<node id="-19811" lat="59.3827111135" lon="10.6898916692">
		<tag k="alt_name" v="Vang" />
		<tag k="amenity" v="school" />
		<tag k="name" v="Vang skole" />
		<tag k="ssr:stedsnr" v="730582" />
	</node>
	<node id="-19810" lat="59.4081532564" lon="10.7283845331">
		<tag k="name" v="Feøya" />
		<tag k="place" v="islet" />
		<tag k="ssr:stedsnr" v="730318" />
	</node>
	<node id="-19809" lat="59.3863198794" lon="10.7238019881">
		<tag k="alt_name" v="Bjølsen søndre" />
		<tag k="name" v="Søndre Bjølsen" />
		<tag k="place" v="farm" />
		<tag k="ssr:stedsnr" v="730287" />
	</node>
	<node id="-19808" lat="59.4064472221" lon="10.7588861114">
		<tag k="name" v="Ekebergbingen" />
		<tag k="place" v="locality" />
		<tag k="ssr:stedsnr" v="721839" />
	</node>
	<node id="-19807" lat="59.4075722248" lon="10.7258222242">
		<tag k="name" v="Fiulstadsundet" />
		<tag k="natural" v="strait" />
		<tag k="ssr:stedsnr" v="721824" />
	</node>
	<node id="-19806" lat="59.4029111127" lon="10.72762777">
		<tag k="name" v="Sivik" />
		<tag k="place" v="isolated_dwelling" />
		<tag k="ssr:stedsnr" v="721823" />
	</node>
	<node id="-19805" lat="59.3960000019" lon="10.7807305598">
		<tag k="name" v="Møkadammyra" />
		<tag k="natural" v="wetland" />
		<tag k="ssr:stedsnr" v="721700" />
	</node>
	<node id="-19804" lat="59.3845805537" lon="10.722927777">
		<tag k="name" v="Torgautsjordet" />
		<tag k="place" v="locality" />
		<tag k="ssr:stedsnr" v="721697" />
	</node>
	<node id="-19803" lat="59.3821749974" lon="10.7422750084">
		<tag k="name" v="Vollskogen" />
		<tag k="place" v="locality" />
		<tag k="ssr:stedsnr" v="721691" />
	</node>
	<node id="-19802" lat="59.3818749988" lon="10.7526305587">
		<tag k="name" v="Sandbekk" />
		<tag k="place" v="farm" />
		<tag k="ssr:stedsnr" v="721684" />
	</node>
	<node id="-19801" lat="59.3916805583" lon="10.7286944445">
		<tag k="alt_name" v="Bjølsen nordre" />
		<tag k="name" v="Nordre Bjølsen" />
		<tag k="place" v="farm" />
		<tag k="ssr:stedsnr" v="721667" />
	</node>
	<node id="-19800" lat="59.3634305553" lon="10.7748333271">
		<tag k="name" v="Berget" />
		<tag k="place" v="locality" />
		<tag k="ssr:stedsnr" v="721299" />
	</node>
	<node id="-19799" lat="59.3793861119" lon="10.7265361163">
		<tag k="name" v="Rygge museum" />
		<tag k="ssr:stedsnr" v="721290" />
		<tag k="tourism" v="museum" />
	</node>
	<node id="-19798" lat="59.3433111076" lon="10.6777722258">
		<tag k="name" v="Støtvikbråten" />
		<tag k="place" v="farm" />
		<tag k="ssr:stedsnr" v="721205" />
	</node>
	<node id="-19797" lat="59.3453166676" lon="10.7025944484">
		<tag k="name" v="Kubberødskogen" />
		<tag k="place" v="locality" />
		<tag k="ssr:stedsnr" v="721167" />
	</node>
	<node id="-19796" lat="59.3725055598" lon="10.6628805497">
		<tag k="name" v="Storhjelm" />
		<tag k="place" v="locality" />
		<tag k="ssr:stedsnr" v="721069" />
	</node>
	<node id="-19795" lat="59.4298638856" lon="10.7210666596">
		<tag k="fixme" v="consider natural=peak for the most distinct mountains in the district" />
		<tag k="name" v="Ravnefjell" />
		<tag k="natural" v="hill" />
		<tag k="place" v="locality" />
		<tag k="ssr:stedsnr" v="721064" />
	</node>
	<node id="-19794" lat="59.428119441" lon="10.725950007">
		<tag k="name" v="Sandbukta" />
		<tag k="natural" v="bay" />
		<tag k="ssr:stedsnr" v="721057" />
	</node>
	<node id="-19793" lat="59.361227779" lon="10.6709833286">
		<tag k="name" v="Leira" />
		<tag k="natural" v="shoal" />
		<tag k="place" v="locality" />
		<tag k="ssr:stedsnr" v="721046" />
	</node>
	<node id="-19792" lat="59.3792472235" lon="10.6602694445">
		<tag k="name" v="Leira" />
		<tag k="natural" v="shoal" />
		<tag k="place" v="locality" />
		<tag k="ssr:stedsnr" v="721043" />
	</node>
	<node id="-19791" lat="59.3436277804" lon="10.7211166739">
		<tag k="name" v="Bjørndalen" />
		<tag k="place" v="locality" />
		<tag k="ssr:stedsnr" v="721036" />
	</node>
	<node id="-19790" lat="59.3238805525" lon="10.6688527694">
		<tag k="name" v="Andrénskjæret" />
		<tag k="place" v="islet" />
		<tag k="ssr:stedsnr" v="721003" />
	</node>
	<node id="-19789" lat="59.4008222238" lon="10.6602861113">
		<tag k="cemetery" v="grave" />
		<tag k="name" v="Amtmandens grav" />
		<tag k="place" v="locality" />
		<tag k="ssr:stedsnr" v="720585" />
	</node>
	<node id="-19788" lat="59.362638886" lon="10.7288888936">
		<tag k="name" v="Kirkerød" />
		<tag k="place" v="farm" />
		<tag k="ssr:stedsnr" v="721322" />
	</node>
	<node id="-19787" lat="59.3215527758" lon="10.6719361124">
		<tag k="name" v="Hvitnesberget" />
		<tag k="natural" v="cape" />
		<tag k="ssr:stedsnr" v="720389" />
	</node>
	<node id="-19786" lat="59.3125611094" lon="10.692752782">
		<tag k="name" v="Grefsrødmyra" />
		<tag k="natural" v="wetland" />
		<tag k="ssr:stedsnr" v="720143" />
	</node>
	<node id="-19785" lat="59.4077722264" lon="10.6870722281">
		<tag k="name" v="Bjerke" />
		<tag k="place" v="farm" />
		<tag k="ssr:stedsnr" v="720138" />
	</node>
	<node id="-19784" lat="59.4111638929" lon="10.6962972239">
		<tag k="name" v="Heimdal" />
		<tag k="place" v="locality" />
		<tag k="ssr:stedsnr" v="720137" />
	</node>
	<node id="-19783" lat="59.3216527791" lon="10.6485499949">
		<tag k="alt_name" v="Eløydammen" />
		<tag k="name" v="Eldøydammen" />
		<tag k="natural" v="water" />
		<tag k="ssr:stedsnr" v="720119" />
	</node>
	<node id="-19782" lat="59.3422410786" lon="10.6622032694">
		<tag k="alt_name" v="Sluvikbukta" />
		<tag k="loc_name" v="Stuviken;Stuvika" />
		<tag k="name" v="Stuvvika" />
		<tag k="natural" v="bay" />
		<tag k="ssr:stedsnr" v="695830" />
	</node>
	<node id="-19781" lat="59.3442500006" lon="10.6595416649">
		<tag k="name" v="Brentetangen" />
		<tag k="natural" v="cape" />
		<tag k="ssr:stedsnr" v="670562" />
	</node>
	<node id="-19780" lat="59.3400805538" lon="10.6395388841">
		<tag k="alt_name" v="Lossgrunnen" />
		<tag k="name" v="Losgrunnen" />
		<tag k="natural" v="shoal" />
		<tag k="place" v="locality" />
		<tag k="ssr:stedsnr" v="670560" />
	</node>
	<node id="-19779" lat="59.3446277753" lon="10.7147583363">
		<tag k="fixme" v="consider place=hamlet" />
		<tag k="name" v="Kubberød" />
		<tag k="place" v="farm" />
		<tag k="ssr:stedsnr" v="670559" />
	</node>
	<node id="-19778" lat="59.3951472253" lon="10.7628083406">
		<tag k="name" v="Huseby" />
		<tag k="place" v="farm" />
		<tag k="ssr:stedsnr" v="670298" />
	</node>
	<node id="-19777" lat="59.3854706799" lon="10.7938795717">
		<tag k="alt_name" v="Øgården" />
		<tag k="name" v="Fredskjærøgård" />
		<tag k="place" v="farm" />
		<tag k="ssr:stedsnr" v="670287" />
	</node>
	<node id="-19776" lat="59.3894805568" lon="10.76610555">
		<tag k="name" v="Sørli" />
		<tag k="place" v="farm" />
		<tag k="ssr:stedsnr" v="670285" />
	</node>
	<node id="-19775" lat="59.3796361094" lon="10.7224833397">
		<tag k="amenity" v="place_of_worship" />
		<tag k="denomination" v="lutheran" />
		<tag k="name" v="Rygge kirke" />
		<tag k="religion" v="christian" />
		<tag k="ssr:stedsnr" v="670274" />
	</node>
	<node id="-19774" lat="59.3572805583" lon="10.6661583322">
		<tag k="alt_name" v="Evjesund" />
		<tag k="name" v="Evjesundet" />
		<tag k="natural" v="strait" />
		<tag k="ssr:stedsnr" v="669588" />
	</node>
	<node id="-19773" lat="59.355419443" lon="10.6791777725">
		<tag k="alt_name" v="Vardeåsen" />
		<tag k="fixme" v="consider natural=peak for the most distinct mountains in the district" />
		<tag k="name" v="Vardås" />
		<tag k="natural" v="hill" />
		<tag k="place" v="locality" />
		<tag k="ssr:stedsnr" v="669587" />
	</node>
	<node id="-19772" lat="59.3690861096" lon="10.6752611187">
		<tag k="name" v="Evje" />
		<tag k="place" v="farm" />
		<tag k="ssr:stedsnr" v="669581" />
	</node>
	<node id="-19771" lat="59.3766416662" lon="10.7113972235">
		<tag k="fixme" v="consider place=hamlet" />
		<tag k="name" v="Urstad" />
		<tag k="place" v="farm" />
		<tag k="ssr:stedsnr" v="669567" />
	</node>
	<node id="-19770" lat="59.4038527806" lon="10.7213305527">
		<tag k="name" v="Fiulstad" />
		<tag k="place" v="farm" />
		<tag k="ssr:stedsnr" v="669289" />
	</node>
	<node id="-19769" lat="59.4002666703" lon="10.76962778">
		<tag k="name" v="Huggenesbekken" />
		<tag k="ssr:stedsnr" v="660772" />
		<tag k="waterway" v="stream" />
	</node>
	<node id="-19768" lat="59.3987138886" lon="10.7680666649">
		<tag k="leisure" v="pitch" />
		<tag k="name" v="Tangenbakken" />
		<tag k="ssr:stedsnr" v="660770" />
	</node>
	<node id="-19767" lat="59.3991194404" lon="10.7568500073">
		<tag k="alt_name" v="Huggenes østre" />
		<tag k="name" v="Østre Huggenes" />
		<tag k="place" v="farm" />
		<tag k="ssr:stedsnr" v="660768" />
	</node>
	<node id="-19766" lat="59.4105888924" lon="10.7359999983">
		<tag k="name" v="Gruva" />
		<tag k="place" v="locality" />
		<tag k="ssr:stedsnr" v="660736" />
	</node>
	<node id="-19765" lat="59.3921500023" lon="10.7930138921">
		<tag k="name" v="Kapteinbekken" />
		<tag k="ssr:stedsnr" v="660717" />
		<tag k="waterway" v="stream" />
	</node>
	<node id="-19764" lat="59.3821222226" lon="10.7211833356">
		<tag k="name" v="Bjølsenbekken" />
		<tag k="ssr:stedsnr" v="660709" />
		<tag k="waterway" v="stream" />
	</node>
	<node id="-19763" lat="59.3870750032" lon="10.7566499919">
		<tag k="name" v="Grøtås" />
		<tag k="natural" v="hill" />
		<tag k="place" v="locality" />
		<tag k="ssr:stedsnr" v="660706" />
	</node>
	<node id="-19762" lat="59.3396749972" lon="10.69855">
		<tag k="alt_name" v="Støtvikskogen" />
		<tag k="name" v="Nedgårdskogen" />
		<tag k="place" v="locality" />
		<tag k="ssr:stedsnr" v="660214" />
	</node>
	<node id="-19761" lat="59.3478416665" lon="10.7094222282">
		<tag k="name" v="Østli" />
		<tag k="place" v="farm" />
		<tag k="ssr:stedsnr" v="660183" />
	</node>
	<node id="-19760" lat="59.4134249966" lon="10.6813249944">
		<tag k="name" v="Løversbakke" />
		<tag k="place" v="locality" />
		<tag k="ssr:stedsnr" v="660165" />
	</node>
	<node id="-19759" lat="59.3896027778" lon="10.6589972195">
		<tag k="name" v="Fuglevikåsen" />
		<tag k="natural" v="ridge" />
		<tag k="place" v="locality" />
		<tag k="ssr:stedsnr" v="660115" />
	</node>
	<node id="-19758" lat="59.3694333341" lon="10.6811722138">
		<tag k="name" v="Gullås" />
		<tag k="natural" v="hill" />
		<tag k="place" v="locality" />
		<tag k="ssr:stedsnr" v="660088" />
	</node>
	<node id="-19757" lat="59.4382833298" lon="10.7411388823">
		<tag k="name" v="Elverhøy" />
		<tag k="place" v="isolated_dwelling" />
		<tag k="ssr:stedsnr" v="660083" />
	</node>
	<node id="-19756" lat="59.3731388857" lon="10.699466674">
		<tag k="name" v="Balkeskogen" />
		<tag k="place" v="locality" />
		<tag k="ssr:stedsnr" v="660080" />
	</node>
	<node id="-19755" lat="59.4021222232" lon="10.6597166698">
		<tag k="name" v="Lille Baug" />
		<tag k="place" v="farm" />
		<tag k="ssr:stedsnr" v="659790" />
	</node>
	<node id="-19754" lat="59.3330138863" lon="10.6717249955">
		<tag k="amenity" v="school" />
		<tag k="name" v="Larkollen skole" />
		<tag k="ssr:stedsnr" v="659419" />
	</node>
	<node id="-19753" lat="59.3200638882" lon="10.6953055482">
		<tag k="fixme" v="consider natural=peak for the most distinct mountains in the district" />
		<tag k="name" v="Matrosåsen" />
		<tag k="natural" v="hill" />
		<tag k="place" v="locality" />
		<tag k="ssr:stedsnr" v="659406" />
	</node>
	<node id="-19752" lat="59.3100833357" lon="10.6829333272">
		<tag k="name" v="Nordre Nesbukta" />
		<tag k="natural" v="bay" />
		<tag k="ssr:stedsnr" v="659133" />
	</node>
	<node id="-19751" lat="59.3199805542" lon="10.658416665">
		<tag k="name" v="Ulkeodden" />
		<tag k="natural" v="cape" />
		<tag k="ssr:stedsnr" v="659118" />
	</node>
	<node id="-19749" lat="59.3117027811" lon="10.7013416667">
		<tag k="name" v="Flata" />
		<tag k="place" v="locality" />
		<tag k="ssr:stedsnr" v="634897" />
	</node>
	<node id="-19748" lat="59.3122138882" lon="10.6812444398">
		<tag k="name" v="Oterbukta" />
		<tag k="natural" v="bay" />
		<tag k="ssr:stedsnr" v="634796" />
	</node>
	<node id="-19747" lat="59.3561611096" lon="10.6672333341">
		<tag k="name" v="Klommetangen" />
		<tag k="natural" v="cape" />
		<tag k="ssr:stedsnr" v="631865" />
	</node>
	<node id="-19746" lat="59.3591333357" lon="10.6635388923">
		<tag k="name" v="Tangen" />
		<tag k="natural" v="cape" />
		<tag k="ssr:stedsnr" v="616658" />
	</node>
	<node id="-19744" lat="59.4061591089" lon="10.6626066619">
		<tag k="name" v="Dyre" />
		<tag k="place" v="hamlet" />
		<tag k="ssr:stedsnr" v="609477" />
	</node>
	<node id="-19743" lat="59.4030861155" lon="10.7076250041">
		<tag k="name" v="Marienlund" />
		<tag k="place" v="farm" />
		<tag k="ssr:stedsnr" v="609475" />
	</node>
	<node id="-19742" lat="59.3336388927" lon="10.7223861084">
		<tag k="fixme" v="consider seamark:type=rock or natural=shoal" />
		<tag k="name" v="Sjuskjær" />
		<tag k="place" v="islet" />
		<tag k="ssr:stedsnr" v="609434" />
	</node>
	<node id="-19741" lat="59.3699539038" lon="10.7271863295">
		<tag k="fixme" v="consider place=hamlet" />
		<tag k="name" v="Otterstad" />
		<tag k="place" v="farm" />
		<tag k="ssr:stedsnr" v="609263" />
	</node>
	<node id="-19740" lat="59.3606055538" lon="10.7100583363">
		<tag k="fixme" v="consider place=hamlet" />
		<tag k="name" v="Oppstad" />
		<tag k="place" v="farm" />
		<tag k="ssr:stedsnr" v="608613" />
	</node>
	<node id="-19739" lat="59.4056388899" lon="10.718358342">
		<tag k="name" v="Vesleng" />
		<tag k="place" v="farm" />
		<tag k="ssr:stedsnr" v="600869" />
	</node>
	<node id="-19738" lat="59.3935017362" lon="10.7210169367">
		<tag k="alt_name" v="Såstad østre" />
		<tag k="name" v="Østre Såstad" />
		<tag k="place" v="farm" />
		<tag k="ssr:stedsnr" v="600793" />
	</node>
	<node id="-19737" lat="59.4014750019" lon="10.7357638846">
		<tag k="name" v="Grønøy" />
		<tag k="place" v="islet" />
		<tag k="ssr:stedsnr" v="600738" />
	</node>
	<node id="-19736" lat="59.4004861095" lon="10.8046027703">
		<tag k="name" v="Sundtangen" />
		<tag k="natural" v="cape" />
		<tag k="ssr:stedsnr" v="600728" />
	</node>
	<node id="-19735" lat="59.3942944428" lon="10.7319805467">
		<tag k="building" v="civic" />
		<tag k="name" v="Rygge brannstasjon" />
		<tag k="ssr:stedsnr" v="600679" />
	</node>
	<node id="-19734" lat="59.3782250028" lon="10.7252805632">
		<tag k="name" v="Bygdetunet" />
		<tag k="place" v="locality" />
		<tag k="ssr:stedsnr" v="600327" />
	</node>
	<node id="-19733" lat="59.3718290247" lon="10.7252085642">
		<tag k="fixme" v="consider place=hamlet" />
		<tag k="name" v="Ødegården" />
		<tag k="place" v="farm" />
		<tag k="ssr:stedsnr" v="600322" />
	</node>
	<node id="-19732" lat="59.3781138888" lon="10.7645305611">
		<tag k="name" v="Rygge hageby" />
		<tag k="place" v="quarter" />
		<tag k="ssr:stedsnr" v="600282" />
	</node>
	<node id="-19731" lat="59.353705553" lon="10.7481166654">
		<tag k="alt_name" v="Rosnes vestre" />
		<tag k="name" v="Vestre Rosnes" />
		<tag k="place" v="farm" />
		<tag k="ssr:stedsnr" v="600217" />
	</node>
	<node id="-19730" lat="59.3525277756" lon="10.7621638946">
		<tag k="name" v="Molvikberget" />
		<tag k="natural" v="hill" />
		<tag k="place" v="locality" />
		<tag k="ssr:stedsnr" v="600053" />
	</node>
	<node id="-19729" lat="59.3961500026" lon="10.6666805545">
		<tag k="name" v="Oakhill" />
		<tag k="place" v="farm" />
		<tag k="ssr:stedsnr" v="599878" />
	</node>
	<node id="-19728" lat="59.339288887" lon="10.6635777722">
		<tag k="name" v="Pusterom" />
		<tag k="old_name" v="Pusterum" />
		<tag k="place" v="isolated_dwelling" />
		<tag k="ssr:stedsnr" v="599871" />
	</node>
	<node id="-19727" lat="59.3868361095" lon="10.7777472189">
		<tag k="alt_name" v="Utne østre" />
		<tag k="name" v="Østre Utne" />
		<tag k="place" v="farm" />
		<tag k="ssr:stedsnr" v="599737" />
	</node>
	<node id="-19726" lat="59.3830472206" lon="10.7900333403">
		<tag k="alt_name" v="Søgård vestre" />
		<tag k="name" v="Vestre Søgård" />
		<tag k="place" v="farm" />
		<tag k="ssr:stedsnr" v="599734" />
	</node>
	<node id="-19725" lat="59.386527774" lon="10.8041444418">
		<tag k="name" v="Stormosen" />
		<tag k="natural" v="wetland" />
		<tag k="ssr:stedsnr" v="599733" />
	</node>
	<node id="-19724" lat="59.385861115" lon="10.658780555">
		<tag k="name" v="Finnebingen" />
		<tag k="place" v="locality" />
		<tag k="ssr:stedsnr" v="599107" />
	</node>
	<node id="-19723" lat="59.3796222243" lon="10.7056694469">
		<tag k="name" v="Urstad" />
		<tag k="place" v="farm" />
		<tag k="ssr:stedsnr" v="599064" />
	</node>
	<node id="-19722" lat="59.3792777777" lon="10.6853388802">
		<tag k="name" v="Vang" />
		<tag k="place" v="farm" />
		<tag k="ssr:stedsnr" v="599061" />
	</node>
	<node id="-19721" lat="59.3608611106" lon="10.7104111091">
		<tag k="alt_name" v="Opstad mellem" />
		<tag k="name" v="Mellom-Opstad" />
		<tag k="place" v="farm" />
		<tag k="ssr:stedsnr" v="599025" />
	</node>
	<node id="-19720" lat="59.3593333369" lon="10.7124638918">
		<tag k="alt_name" v="Opstad øvre" />
		<tag k="name" v="Øvre Opstad" />
		<tag k="place" v="farm" />
		<tag k="ssr:stedsnr" v="599024" />
	</node>
	<node id="-19719" lat="59.3292361088" lon="10.7124249966">
		<tag k="alt_name" v="Sildebaugen nordre" />
		<tag k="name" v="Nordre Sildebaugen" />
		<tag k="place" v="farm" />
		<tag k="ssr:stedsnr" v="598397" />
	</node>
	<node id="-19718" lat="59.328202778" lon="10.6674277712">
		<tag k="name" v="Lersbaugen" />
		<tag k="natural" v="bay" />
		<tag k="ssr:stedsnr" v="598393" />
	</node>
	<node id="-19717" lat="59.3170527807" lon="10.6948027812">
		<tag k="fixme" v="consider natural=peak for the most distinct mountains in the district" />
		<tag k="name" v="Vadberget" />
		<tag k="natural" v="hill" />
		<tag k="place" v="locality" />
		<tag k="ssr:stedsnr" v="598361" />
	</node>
	<node id="-19716" lat="59.4099527764" lon="10.6641861023">
		<tag k="name" v="Kvile" />
		<tag k="place" v="farm" />
		<tag k="ssr:stedsnr" v="598123" />
	</node>
	<node id="-19715" lat="59.3381944408" lon="10.6677416595">
		<tag k="fixme" v="consider natural=peak for the most distinct mountains in the district" />
		<tag k="name" v="Vardefjellet" />
		<tag k="natural" v="hill" />
		<tag k="place" v="locality" />
		<tag k="ssr:stedsnr" v="598483" />
	</node>
	<node id="-19714" lat="59.3461027768" lon="10.6610444497">
		<tag k="name" v="Fristranda" />
		<tag k="natural" v="beach" />
		<tag k="place" v="locality" />
		<tag k="ssr:stedsnr" v="598414" />
	</node>
	<node id="-19713" lat="59.3408111131" lon="10.661838887">
		<tag k="fixme" v="consider seamark:type=rock or natural=shoal" />
		<tag k="name" v="Presten" />
		<tag k="place" v="islet" />
		<tag k="ssr:stedsnr" v="598413" />
	</node>
	<node id="-19712" lat="59.4145000006" lon="10.6936805483">
		<tag k="bridge" v="yes" />
		<tag k="layer" v="1" />
		<tag k="name" v="Myravegen" />
		<tag k="ssr:stedsnr" v="592478" />
	</node>
	<node id="-19711" lat="59.3058166634" lon="10.6971611109">
		<tag k="name" v="Teipa" />
		<tag k="place" v="locality" />
		<tag k="ssr:stedsnr" v="574906" />
	</node>
	<node id="-19710" lat="59.3282444431" lon="10.6641611167">
		<tag k="name" v="Fredriksodde" />
		<tag k="natural" v="cape" />
		<tag k="ssr:stedsnr" v="574866" />
	</node>
	<node id="-19709" lat="59.3134416636" lon="10.6822722301">
		<tag k="name" v="Langstranda" />
		<tag k="natural" v="beach" />
		<tag k="place" v="locality" />
		<tag k="ssr:stedsnr" v="574127" />
	</node>
	<node id="-19708" lat="59.3281111156" lon="10.6676805515">
		<tag k="name" v="Leirsbogen" />
		<tag k="natural" v="bay" />
		<tag k="ssr:stedsnr" v="571853" />
	</node>
	<node id="-19707" lat="59.4092916663" lon="10.6862138879">
		<tag k="amenity" v="place_of_worship" />
		<tag k="denomination" v="lutheran" />
		<tag k="name" v="Ekholt kirke" />
		<tag k="religion" v="christian" />
		<tag k="ssr:stedsnr" v="571240" />
	</node>
	<node id="-19705" lat="59.3765972238" lon="10.7271166694">
		<tag k="name" v="Kirkegrenda" />
		<tag k="place" v="quarter" />
		<tag k="ssr:stedsnr" v="570101" />
	</node>
	<node id="-19704" lat="59.4225277746" lon="10.7153722211">
		<tag k="name" v="Årvolltangen" />
		<tag k="natural" v="cape" />
		<tag k="ssr:stedsnr" v="548979" />
	</node>
	<node id="-19703" lat="59.3068250001" lon="10.6829750042">
		<tag k="name" v="Signes" />
		<tag k="place" v="isolated_dwelling" />
		<tag k="ssr:stedsnr" v="548642" />
	</node>
	<node id="-19702" lat="59.3071527757" lon="10.6216333263">
		<tag k="name" v="Eldøygrunnen" />
		<tag k="natural" v="shoal" />
		<tag k="place" v="locality" />
		<tag k="ssr:stedsnr" v="548641" />
	</node>
	<node id="-19701" lat="59.3215055518" lon="10.6565583329">
		<tag k="name" v="Ulke" />
		<tag k="place" v="farm" />
		<tag k="ssr:stedsnr" v="548608" />
	</node>
	<node id="-19700" lat="59.3216166645" lon="10.6792111154">
		<tag k="alt_name" v="Rørvikbukta" />
		<tag k="name" v="Rørvika" />
		<tag k="natural" v="bay" />
		<tag k="ssr:stedsnr" v="548609" />
	</node>
	<node id="-19699" lat="59.3438899772" lon="10.6729172238">
		<tag k="alt_name" v="Ravnås;Botnerveten" />
		<tag k="fixme" v="consider natural=peak for the most distinct mountains in the district" />
		<tag k="name" v="Ravnåsen" />
		<tag k="natural" v="hill" />
		<tag k="place" v="locality" />
		<tag k="ssr:stedsnr" v="548586" />
	</node>
	<node id="-19698" lat="59.365213717" lon="10.6924631428">
		<tag k="fixme" v="consider place=hamlet" />
		<tag k="name" v="Pålsrød" />
		<tag k="place" v="farm" />
		<tag k="ssr:stedsnr" v="548570" />
	</node>
	<node id="-19697" lat="59.3875916705" lon="10.6656388892">
		<tag k="name" v="Ekeby" />
		<tag k="place" v="farm" />
		<tag k="ssr:stedsnr" v="548546" />
	</node>
	<node id="-19696" lat="59.3907277795" lon="10.7007000059">
		<tag k="alt_name" v="Løken østre" />
		<tag k="name" v="Østre Løken" />
		<tag k="place" v="farm" />
		<tag k="ssr:stedsnr" v="548535" />
	</node>
	<node id="-19695" lat="59.3998333318" lon="10.7097861125">
		<tag k="name" v="Holter" />
		<tag k="place" v="farm" />
		<tag k="ssr:stedsnr" v="548531" />
	</node>
	<node id="-19694" lat="59.3992305538" lon="10.7287055567">
		<tag k="name" v="Moserød" />
		<tag k="place" v="farm" />
		<tag k="ssr:stedsnr" v="548332" />
	</node>
	<node id="-19693" lat="59.3934805566" lon="10.7331888805">
		<tag k="name" v="Rekkestad" />
		<tag k="place" v="isolated_dwelling" />
		<tag k="ssr:stedsnr" v="548323" />
	</node>
	<node id="-19692" lat="59.3755694474" lon="10.7828249919">
		<tag k="name" v="Utgjerdsmyra" />
		<tag k="natural" v="wetland" />
		<tag k="ssr:stedsnr" v="548303" />
	</node>
	<node id="-19691" lat="59.4040694412" lon="10.7579333307">
		<tag k="alt_name" v="Kjellerød østre" />
		<tag k="name" v="Østre Kjellerød" />
		<tag k="place" v="farm" />
		<tag k="ssr:stedsnr" v="539835" />
	</node>
	<node id="-19690" lat="59.3928277813" lon="10.7677944437">
		<tag k="name" v="Grønli" />
		<tag k="place" v="farm" />
		<tag k="ssr:stedsnr" v="539763" />
	</node>
	<node id="-19689" lat="59.3706249999" lon="10.7185583326">
		<tag k="name" v="Ødegårdskogen" />
		<tag k="place" v="locality" />
		<tag k="ssr:stedsnr" v="539283" />
	</node>
	<node id="-19688" lat="59.3377000034" lon="10.7073305594">
		<tag k="fixme" v="consider natural=peak for the most distinct mountains in the district" />
		<tag k="name" v="Fugleås" />
		<tag k="natural" v="hill" />
		<tag k="place" v="locality" />
		<tag k="ssr:stedsnr" v="539175" />
	</node>
	<node id="-19687" lat="59.3617194452" lon="10.675336113">
		<tag k="name" v="Tjernet" />
		<tag k="natural" v="water" />
		<tag k="ssr:stedsnr" v="539036" />
		<tag k="water" v="pond" />
	</node>
	<node id="-19686" lat="59.3564416685" lon="10.7596750066">
		<tag k="name" v="Holkemyr" />
		<tag k="place" v="farm" />
		<tag k="ssr:stedsnr" v="539037" />
	</node>
	<node id="-19685" lat="59.3525638865" lon="10.6916305562">
		<tag k="name" v="Dalen" />
		<tag k="place" v="farm" />
		<tag k="ssr:stedsnr" v="539021" />
	</node>
	<node id="-19684" lat="59.4133361072" lon="10.6630138904">
		<tag k="name" v="Bjerke" />
		<tag k="place" v="quarter" />
		<tag k="ssr:stedsnr" v="539003" />
	</node>
	<node id="-19683" lat="59.4043305592" lon="10.6697249937">
		<tag k="fixme" v="consider natural=peak for the most distinct mountains in the district" />
		<tag k="name" v="Carlbergåsen" />
		<tag k="natural" v="hill" />
		<tag k="place" v="locality" />
		<tag k="ssr:stedsnr" v="538910" />
	</node>
	<node id="-19682" lat="59.392733334" lon="10.6928916735">
		<tag k="name" v="Løkenbekken" />
		<tag k="ssr:stedsnr" v="538908" />
		<tag k="waterway" v="stream" />
	</node>
	<node id="-19681" lat="59.3959944463" lon="10.6704777812">
		<tag k="cemetery" v="grave" />
		<tag k="name" v="Søsters hvile" />
		<tag k="place" v="locality" />
		<tag k="ssr:stedsnr" v="538900" />
	</node>
	<node id="-19680" lat="59.3556027749" lon="10.6584305497">
		<tag k="name" v="Nordre Holmebukta" />
		<tag k="natural" v="bay" />
		<tag k="ssr:stedsnr" v="538464" />
	</node>
	<node id="-19679" lat="59.3298499956" lon="10.6810611112">
		<tag k="name" v="Skogli" />
		<tag k="place" v="farm" />
		<tag k="ssr:stedsnr" v="538439" />
	</node>
	<node id="-19678" lat="59.4099305547" lon="10.6667055565">
		<tag k="amenity" v="nursing_home" />
		<tag k="name" v="Ryggeheimen" />
		<tag k="ssr:stedsnr" v="538136" />
	</node>
	<node id="-19677" lat="59.3055777787" lon="10.6840805538">
		<tag k="name" v="Søndre Nesbukta" />
		<tag k="natural" v="bay" />
		<tag k="ssr:stedsnr" v="538128" />
	</node>
	<node id="-19676" lat="59.3258000019" lon="10.6356666589">
		<tag k="fixme" v="consider seamark:type=rock or natural=shoal" />
		<tag k="name" v="Eldøyrevet" />
		<tag k="place" v="islet" />
		<tag k="ssr:stedsnr" v="513781" />
	</node>
	<node id="-19675" lat="59.3123305595" lon="10.707347231">
		<tag k="alt_name" v="Steinane" />
		<tag k="fixme" v="consider seamark:type=rock or natural=shoal" />
		<tag k="name" v="Steinene" />
		<tag k="place" v="islet" />
		<tag k="ssr:stedsnr" v="513777" />
	</node>
	<node id="-19674" lat="59.3223833297" lon="10.6499138806">
		<tag k="alt_name" v="Eløya" />
		<tag k="name" v="Eldøya" />
		<tag k="place" v="island" />
		<tag k="ssr:stedsnr" v="488593" />
	</node>
	<node id="-19673" lat="59.3968055562" lon="10.6919500053">
		<tag k="name" v="Fredheim" />
		<tag k="place" v="isolated_dwelling" />
		<tag k="ssr:stedsnr" v="488492" />
	</node>
	<node id="-19672" lat="59.4031611071" lon="10.6727555585">
		<tag k="name" v="Carlberg" />
		<tag k="place" v="farm" />
		<tag k="ssr:stedsnr" v="488481" />
	</node>
	<node id="-19671" lat="59.3504777775" lon="10.700788891">
		<tag k="fixme" v="consider place=hamlet" />
		<tag k="name" v="Bråtu" />
		<tag k="place" v="farm" />
		<tag k="ssr:stedsnr" v="487627" />
	</node>
	<node id="-19670" lat="59.404980553" lon="10.7746777759">
		<tag k="name" v="Kilen" />
		<tag k="place" v="farm" />
		<tag k="ssr:stedsnr" v="487323" />
	</node>
	<node id="-19669" lat="59.3901361138" lon="10.7756250048">
		<tag k="fixme" v="consider place=hamlet" />
		<tag k="name" v="Utne" />
		<tag k="place" v="farm" />
		<tag k="ssr:stedsnr" v="487315" />
	</node>
	<node id="-19668" lat="59.3962027782" lon="10.7441555517">
		<tag k="name" v="Støa" />
		<tag k="place" v="farm" />
		<tag k="ssr:stedsnr" v="487313" />
	</node>
	<node id="-19667" lat="59.419677781" lon="10.7047888973">
		<tag k="bridge" v="yes" />
		<tag k="layer" v="1" />
		<tag k="name" v="Frydenlund vest" />
		<tag k="ssr:stedsnr" v="471445" />
	</node>
	<node id="-19666" lat="59.4254250035" lon="10.7038277809">
		<tag k="name" v="Hanan" />
		<tag k="place" v="isolated_dwelling" />
		<tag k="ssr:stedsnr" v="427986" />
	</node>
	<node id="-19665" lat="59.3392325708" lon="10.6843072128">
		<tag k="name" v="Støtvik" />
		<tag k="place" v="hamlet" />
		<tag k="ssr:stedsnr" v="427594" />
	</node>
	<node id="-19664" lat="59.3721166667" lon="10.7055916594">
		<tag k="alt_name" v="Urstadmyra" />
		<tag k="name" v="Urstadmyr" />
		<tag k="place" v="farm" />
		<tag k="ssr:stedsnr" v="427577" />
	</node>
	<node id="-19663" lat="59.3698472195" lon="10.6536527844">
		<tag k="name" v="Rumpa" />
		<tag k="natural" v="cape" />
		<tag k="ssr:stedsnr" v="427566" />
	</node>
	<node id="-19662" lat="59.3897083365" lon="10.7174472169">
		<tag k="name" v="Østereng" />
		<tag k="place" v="farm" />
		<tag k="ssr:stedsnr" v="427534" />
	</node>
	<node id="-19661" lat="59.3534624468" lon="10.7324982695">
		<tag k="name" v="Melleby" />
		<tag k="place" v="farm" />
		<tag k="ssr:stedsnr" v="427500" />
	</node>
	<node id="-19660" lat="59.4097083306" lon="10.7707194517">
		<tag k="alt_name" v="Gamleng" />
		<tag k="name" v="Gammeleng" />
		<tag k="place" v="farm" />
		<tag k="ssr:stedsnr" v="427347" />
	</node>
	<node id="-19659" lat="59.3964277765" lon="10.8121499977">
		<tag k="name" v="Bjørnøya" />
		<tag k="place" v="islet" />
		<tag k="ssr:stedsnr" v="427326" />
	</node>
	<node id="-19658" lat="59.3670444424" lon="10.6629638835">
		<tag k="name" v="Fillekken" />
		<tag k="place" v="farm" />
		<tag k="ssr:stedsnr" v="422230" />
	</node>
	<node id="-19657" lat="59.4080027812" lon="10.7399194434">
		<tag k="name" v="Prestholmen" />
		<tag k="natural" v="cape" />
		<tag k="ssr:stedsnr" v="418836" />
	</node>
	<node id="-19656" lat="59.3922583365" lon="10.7667249959">
		<tag k="name" v="Rådeskogen" />
		<tag k="place" v="hamlet" />
		<tag k="ssr:stedsnr" v="418764" />
	</node>
	<node id="-19655" lat="59.3911250014" lon="10.7680222144">
		<tag k="name" v="Østli" />
		<tag k="place" v="farm" />
		<tag k="ssr:stedsnr" v="418761" />
	</node>
	<node id="-19654" lat="59.3938611129" lon="10.7671083257">
		<tag k="name" v="Berg" />
		<tag k="place" v="farm" />
		<tag k="ssr:stedsnr" v="418756" />
	</node>
	<node id="-19653" lat="59.4093583325" lon="10.7312500053">
		<tag k="name" v="Nordbukta" />
		<tag k="natural" v="bay" />
		<tag k="ssr:stedsnr" v="418725" />
	</node>
	<node id="-19652" lat="59.3881083323" lon="10.7852111065">
		<tag k="alt_name" v="Fredskjær østre" />
		<tag k="name" v="Østre Fredskjær" />
		<tag k="place" v="farm" />
		<tag k="ssr:stedsnr" v="418701" />
	</node>
	<node id="-19651" lat="59.395038891" lon="10.8036805533">
		<tag k="name" v="Kuskjær" />
		<tag k="place" v="islet" />
		<tag k="ssr:stedsnr" v="418696" />
	</node>
	<node id="-19650" lat="59.393700004" lon="10.7802027702">
		<tag k="fixme" v="consider natural=peak for the most distinct mountains in the district" />
		<tag k="name" v="Høyås" />
		<tag k="natural" v="hill" />
		<tag k="place" v="locality" />
		<tag k="ssr:stedsnr" v="418694" />
	</node>
	<node id="-19649" lat="59.3684249966" lon="10.7728777743">
		<tag k="alt_name" v="Eskelund øvre" />
		<tag k="name" v="Øvre Eskelund" />
		<tag k="place" v="farm" />
		<tag k="ssr:stedsnr" v="418252" />
	</node>
	<node id="-19648" lat="59.3509055542" lon="10.7619027828">
		<tag k="fixme" v="consider natural=peak for the most distinct mountains in the district" />
		<tag k="name" v="Tuggeliteåsen" />
		<tag k="natural" v="hill" />
		<tag k="place" v="locality" />
		<tag k="ssr:stedsnr" v="418047" />
	</node>
	<node id="-19647" lat="59.3564000004" lon="10.7620833342">
		<tag k="alt_name" v="Mølvik" />
		<tag k="fixme" v="consider place=hamlet" />
		<tag k="name" v="Molvik" />
		<tag k="place" v="farm" />
		<tag k="ssr:stedsnr" v="418032" />
	</node>
	<node id="-19646" lat="59.4025166702" lon="10.7147666685">
		<tag k="name" v="Soleng" />
		<tag k="place" v="farm" />
		<tag k="ssr:stedsnr" v="417917" />
	</node>
	<node id="-19645" lat="59.3993694469" lon="10.6608500055">
		<tag k="fixme" v="consider natural=peak for the most distinct mountains in the district" />
		<tag k="name" v="Baugsåsen" />
		<tag k="natural" v="hill" />
		<tag k="place" v="locality" />
		<tag k="ssr:stedsnr" v="417610" />
	</node>
	<node id="-19644" lat="59.3298277796" lon="10.6646444502">
		<tag k="name" v="Festningen" />
		<tag k="ssr:stedsnr" v="417443" />
		<tag k="tourism" v="attraction" />
	</node>
	<node id="-19643" lat="59.3256722203" lon="10.6894861171">
		<tag k="name" v="Garnbakken" />
		<tag k="place" v="hamlet" />
		<tag k="ssr:stedsnr" v="417444" />
	</node>
	<node id="-19642" lat="59.3529666675" lon="10.7131444381">
		<tag k="alt_name" v="Nærum nordre" />
		<tag k="name" v="Nordre Nærum" />
		<tag k="place" v="farm" />
		<tag k="ssr:stedsnr" v="417233" />
	</node>
	<node id="-19641" lat="59.4088388906" lon="10.6838111151">
		<tag k="alt_name" v="Ekholt østre" />
		<tag k="name" v="Østre Ekholt" />
		<tag k="place" v="farm" />
		<tag k="ssr:stedsnr" v="417096" />
	</node>
	<node id="-19640" lat="59.3769055562" lon="10.6670722208">
		<tag k="name" v="Klosterbakke" />
		<tag k="place" v="farm" />
		<tag k="ssr:stedsnr" v="417066" />
	</node>
	<node id="-19639" lat="59.4146111114" lon="10.6385777774">
		<tag k="name" v="Espenesgrunnen" />
		<tag k="natural" v="shoal" />
		<tag k="place" v="locality" />
		<tag k="ssr:stedsnr" v="245971" />
	</node>
	<node id="-19638" lat="59.3221833347" lon="10.6870277741">
		<tag k="name" v="Solstad" />
		<tag k="place" v="farm" />
		<tag k="ssr:stedsnr" v="245592" />
	</node>
	<node id="-19637" lat="59.3195361148" lon="10.6847361093">
		<tag k="alt_name" v="Ammundrød" />
		<tag k="name" v="Amundrød" />
		<tag k="place" v="farm" />
		<tag k="ssr:stedsnr" v="245591" />
	</node>
	<node id="-19636" lat="59.3268833331" lon="10.6782388934">
		<tag k="name" v="Rørvik" />
		<tag k="place" v="isolated_dwelling" />
		<tag k="ssr:stedsnr" v="245589" />
	</node>
	<node id="-19635" lat="59.354054685" lon="10.6584633852">
		<tag k="alt_name" v="Stangarholmen" />
		<tag k="name" v="Stangerholmen" />
		<tag k="place" v="islet" />
		<tag k="ssr:stedsnr" v="245564" />
	</node>
	<node id="-19634" lat="59.3730166643" lon="10.692191666">
		<tag k="name" v="Balke" />
		<tag k="place" v="farm" />
		<tag k="ssr:stedsnr" v="245549" />
	</node>
	<node id="-19633" lat="59.3801528971" lon="10.6774932991">
		<tag k="fixme" v="consider place=hamlet" />
		<tag k="name" v="Hasle" />
		<tag k="place" v="farm" />
		<tag k="ssr:stedsnr" v="245528" />
	</node>
	<node id="-19632" lat="59.4022500011" lon="10.6530777692">
		<tag k="alt_name" v="Feste mellem;Mellem Feste" />
		<tag k="name" v="Mellom-Feste" />
		<tag k="place" v="farm" />
		<tag k="ssr:stedsnr" v="245490" />
	</node>
	<node id="-19631" lat="59.3728555521" lon="10.7257638863">
		<tag k="alt_name" v="Brua" />
		<tag k="name" v="Broen" />
		<tag k="place" v="farm" />
		<tag k="ssr:stedsnr" v="245269" />
	</node>
	<node id="-19630" lat="59.3664555531" lon="10.7631666655">
		<tag k="name" v="Pollen" />
		<tag k="place" v="farm" />
		<tag k="ssr:stedsnr" v="245261" />
	</node>
	<node id="-19629" lat="59.4094000001" lon="10.7610638901">
		<tag k="name" v="Bjørndalen" />
		<tag k="natural" v="valley" />
		<tag k="place" v="locality" />
		<tag k="ssr:stedsnr" v="236840" />
	</node>
	<node id="-19628" lat="59.3944749979" lon="10.7554472147">
		<tag k="name" v="Vestheim" />
		<tag k="place" v="farm" />
		<tag k="ssr:stedsnr" v="236769" />
	</node>
	<node id="-19627" lat="59.3907583301" lon="10.7942777748">
		<tag k="name" v="Fredskjærhagen" />
		<tag k="place" v="isolated_dwelling" />
		<tag k="ssr:stedsnr" v="236701" />
	</node>
	<node id="-19626" lat="59.388230558" lon="10.7729444422">
		<tag k="alt_name" v="Utne søndre" />
		<tag k="name" v="Søndre Utne" />
		<tag k="place" v="farm" />
		<tag k="ssr:stedsnr" v="236688" />
	</node>
	<node id="-19625" lat="59.3803472249" lon="10.7360027839">
		<tag k="name" v="Voll" />
		<tag k="place" v="farm" />
		<tag k="ssr:stedsnr" v="236681" />
	</node>
	<node id="-19624" lat="59.3651194431" lon="10.7489166584">
		<tag k="alt_name" v="Roer mellem;Mellem Roer" />
		<tag k="loc_name" v="Mellom-Ror" />
		<tag k="name" v="Mellom-Roer" />
		<tag k="old_name" v="Ror mellem;Roer, m;Ror midtre" />
		<tag k="place" v="farm" />
		<tag k="ssr:stedsnr" v="236333" />
	</node>
	<node id="-19623" lat="59.3686277786" lon="10.7269916637">
		<tag k="alt_name" v="Otterstad østre" />
		<tag k="name" v="Østre Otterstad" />
		<tag k="place" v="farm" />
		<tag k="ssr:stedsnr" v="236324" />
	</node>
	<node id="-19622" lat="59.3625444471" lon="10.7312416607">
		<tag k="name" v="Furuset" />
		<tag k="place" v="farm" />
		<tag k="ssr:stedsnr" v="236321" />
	</node>
	<node id="-19621" lat="59.3646083351" lon="10.7265249948">
		<tag k="name" v="Otterstadskogen" />
		<tag k="place" v="locality" />
		<tag k="ssr:stedsnr" v="236322" />
	</node>
	<node id="-19620" lat="59.3623249992" lon="10.7334638905">
		<tag k="alt_name" v="Kure nordre" />
		<tag k="name" v="Nedre Kure" />
		<tag k="place" v="farm" />
		<tag k="ssr:stedsnr" v="236314" />
	</node>
	<node id="-19619" lat="59.3594083378" lon="10.7668999988">
		<tag k="alt_name" v="Molvik nordre" />
		<tag k="name" v="Nordre Molvik" />
		<tag k="place" v="farm" />
		<tag k="ssr:stedsnr" v="236308" />
	</node>
	<node id="-19618" lat="59.3578305577" lon="10.7418388846">
		<tag k="name" v="Søndre Gulland" />
		<tag k="place" v="farm" />
		<tag k="ssr:stedsnr" v="236226" />
	</node>
	<node id="-19617" lat="59.3489611091" lon="10.7354027691">
		<tag k="alt_name" v="Kure vestre" />
		<tag k="name" v="Vestre Kure" />
		<tag k="place" v="farm" />
		<tag k="ssr:stedsnr" v="236060" />
	</node>
	<node id="-19616" lat="59.40083889" lon="10.7810722199">
		<tag k="name" v="Myrdamskogen" />
		<tag k="place" v="locality" />
		<tag k="ssr:stedsnr" v="236029" />
	</node>
	<node id="-19615" lat="59.3825222186" lon="10.6850777853">
		<tag k="name" v="Vangsbekken" />
		<tag k="ssr:stedsnr" v="235928" />
		<tag k="waterway" v="stream" />
	</node>
	<node id="-19614" lat="59.3841722239" lon="10.7061111038">
		<tag k="alt_name" v="Tøstad nedre" />
		<tag k="name" v="Nedre Tøstad" />
		<tag k="place" v="farm" />
		<tag k="ssr:stedsnr" v="235920" />
	</node>
	<node id="-19613" lat="59.3676722189" lon="10.7766055518">
		<tag k="name" v="Bitten" />
		<tag k="place" v="isolated_dwelling" />
		<tag k="ssr:stedsnr" v="235342" />
	</node>
	<node id="-19612" lat="59.3648416693" lon="10.6938083299">
		<tag k="alt_name" v="Pålsrød mellem" />
		<tag k="name" v="Mellom-Pålsrød" />
		<tag k="place" v="farm" />
		<tag k="ssr:stedsnr" v="235103" />
	</node>
	<node id="-19611" lat="59.3656055536" lon="10.6957277851">
		<tag k="alt_name" v="Pålsrød østre" />
		<tag k="name" v="Østre Pålsrød" />
		<tag k="place" v="farm" />
		<tag k="ssr:stedsnr" v="235104" />
	</node>
	<node id="-19610" lat="59.3718305561" lon="10.6742500077">
		<tag k="name" v="Evjeåa" />
		<tag k="ssr:stedsnr" v="235102" />
		<tag k="waterway" v="stream" />
	</node>
	<node id="-19609" lat="59.3608361108" lon="10.6943833393">
		<tag k="name" v="Dalen" />
		<tag k="place" v="farm" />
		<tag k="ssr:stedsnr" v="235061" />
	</node>
	<node id="-19608" lat="59.3614666672" lon="10.7108305579">
		<tag k="alt_name" v="Opstad nedre" />
		<tag k="name" v="Nedre Opstad" />
		<tag k="place" v="farm" />
		<tag k="ssr:stedsnr" v="235049" />
	</node>
	<node id="-19607" lat="59.3215333332" lon="10.6732527766">
		<tag k="name" v="Hvitnesbukta" />
		<tag k="natural" v="bay" />
		<tag k="ssr:stedsnr" v="235518" />
	</node>
	<node id="-19606" lat="59.3053771886" lon="10.6919797445">
		<tag k="name" v="Nordre Danmarksbukta" />
		<tag k="natural" v="bay" />
		<tag k="ssr:stedsnr" v="234114" />
	</node>
	<node id="-19605" lat="59.3097166629" lon="10.6966000076">
		<tag k="fixme" v="consider seamark:type=rock or natural=shoal" />
		<tag k="name" v="Svartskjær" />
		<tag k="place" v="islet" />
		<tag k="ssr:stedsnr" v="234116" />
	</node>
	<node id="-19604" lat="59.3769249978" lon="10.7493611147">
		<tag k="bridge" v="yes" />
		<tag k="layer" v="1" />
		<tag k="name" v="Rygge stasjon" />
		<tag k="ssr:stedsnr" v="228486" />
	</node>
	<node id="-19603" lat="59.3746472232" lon="10.6505055485">
		<tag k="alt_name" v="Siljusskjæret" />
		<tag k="fixme" v="consider seamark:type=rock or natural=shoal" />
		<tag k="name" v="Sildumskjær" />
		<tag k="place" v="islet" />
		<tag k="ssr:stedsnr" v="210900" />
	</node>
	<node id="-19602" lat="59.3325194411" lon="10.6669194415">
		<tag k="amenity" v="place_of_worship" />
		<tag k="denomination" v="lutheran" />
		<tag k="name" v="Larkollen kirke" />
		<tag k="religion" v="christian" />
		<tag k="ssr:stedsnr" v="208314" />
	</node>
	<node id="-19601" lat="59.4266000008" lon="10.707977771">
		<tag k="alt_name" v="Storebaug" />
		<tag k="name" v="Storebog" />
		<tag k="place" v="farm" />
		<tag k="ssr:stedsnr" v="184997" />
	</node>
	<node id="-19600" lat="59.3880500018" lon="10.698975002">
		<tag k="alt_name" v="Lyby nordre" />
		<tag k="name" v="Nordre Lyby" />
		<tag k="place" v="farm" />
		<tag k="ssr:stedsnr" v="184543" />
	</node>
	<node id="-19599" lat="59.3296416706" lon="10.6888555608">
		<tag k="name" v="Grefsrød" />
		<tag k="place" v="farm" />
		<tag k="ssr:stedsnr" v="184612" />
	</node>
	<node id="-19598" lat="59.3525527817" lon="10.7140499928">
		<tag k="fixme" v="consider place=hamlet" />
		<tag k="name" v="Nærum" />
		<tag k="place" v="farm" />
		<tag k="ssr:stedsnr" v="184592" />
	</node>
	<node id="-19597" lat="59.4111972208" lon="10.7626138868">
		<tag k="name" v="Nygård" />
		<tag k="place" v="farm" />
		<tag k="ssr:stedsnr" v="184319" />
	</node>
	<node id="-19596" lat="59.3967111118" lon="10.7963527761">
		<tag k="alt_name" v="Fresjerbråten" />
		<tag k="name" v="Fredskjærbråten" />
		<tag k="place" v="farm" />
		<tag k="ssr:stedsnr" v="184302" />
	</node>
	<node id="-19595" lat="59.3986750031" lon="10.7367777741">
		<tag k="name" v="Gjønes" />
		<tag k="place" v="farm" />
		<tag k="ssr:stedsnr" v="184293" />
	</node>
	<node id="-19594" lat="59.3781420617" lon="10.7442928383">
		<tag k="fixme" v="consider place=hamlet" />
		<tag k="name" v="Rør" />
		<tag k="place" v="farm" />
		<tag k="ssr:stedsnr" v="184276" />
	</node>
	<node id="-19593" lat="59.3627555551" lon="10.6631416582">
		<tag k="name" v="Oppset" />
		<tag k="place" v="farm" />
		<tag k="ssr:stedsnr" v="179255" />
	</node>
	<node id="-19592" lat="59.4035777734" lon="10.7531333382">
		<tag k="alt_name" v="Kjellerød vestre" />
		<tag k="name" v="Vestre Kjellerød" />
		<tag k="place" v="farm" />
		<tag k="ssr:stedsnr" v="175854" />
	</node>
	<node id="-19591" lat="59.3893416638" lon="10.7288916656">
		<tag k="name" v="Jare" />
		<tag k="place" v="farm" />
		<tag k="ssr:stedsnr" v="175805" />
	</node>
	<node id="-19590" lat="59.3950944403" lon="10.7508999976">
		<tag k="name" v="Solstad" />
		<tag k="place" v="isolated_dwelling" />
		<tag k="ssr:stedsnr" v="175797" />
	</node>
	<node id="-19589" lat="59.3918916692" lon="10.7704416627">
		<tag k="name" v="Skauge" />
		<tag k="place" v="farm" />
		<tag k="ssr:stedsnr" v="175787" />
	</node>
	<node id="-19588" lat="59.4008611129" lon="10.7183277804">
		<tag k="name" v="Såstadbråten" />
		<tag k="place" v="quarter" />
		<tag k="ssr:stedsnr" v="175768" />
	</node>
	<node id="-19587" lat="59.4169249959" lon="10.7685055533">
		<tag k="name" v="Badefjellet" />
		<tag k="natural" v="cape" />
		<tag k="ssr:stedsnr" v="175755" />
	</node>
	<node id="-19586" lat="59.3658036462" lon="10.7491814222">
		<tag k="alt_name" v="Ror nordre;Nordre Roer" />
		<tag k="fixme" v="consider place=hamlet" />
		<tag k="name" v="Nordre Ror" />
		<tag k="old_name" v="Roer, n" />
		<tag k="place" v="farm" />
		<tag k="ssr:stedsnr" v="175345" />
	</node>
	<node id="-19585" lat="59.3778166677" lon="10.7444472263">
		<tag k="alt_name" v="Rør nordre" />
		<tag k="name" v="Nordre Rør" />
		<tag k="place" v="farm" />
		<tag k="ssr:stedsnr" v="175290" />
	</node>
	<node id="-19584" lat="59.3756305596" lon="10.7647000072">
		<tag k="name" v="Blomsholm" />
		<tag k="place" v="farm" />
		<tag k="ssr:stedsnr" v="175279" />
	</node>
	<node id="-19583" lat="59.4164111137" lon="10.6893000031">
		<tag k="name" v="Myra" />
		<tag k="place" v="locality" />
		<tag k="ssr:stedsnr" v="175125" />
	</node>
	<node id="-19582" lat="59.4229194404" lon="10.7048527714">
		<tag k="alt_name" v="Lillebog" />
		<tag k="name" v="Lillebaug" />
		<tag k="place" v="farm" />
		<tag k="ssr:stedsnr" v="175046" />
	</node>
	<node id="-19581" lat="59.4260277775" lon="10.6998611053">
		<tag k="name" v="Hananbukta" />
		<tag k="natural" v="bay" />
		<tag k="ssr:stedsnr" v="175060" />
	</node>
	<node id="-19580" lat="59.415174998" lon="10.6827527843">
		<tag k="name" v="Fredensborg" />
		<tag k="place" v="quarter" />
		<tag k="ssr:stedsnr" v="175017" />
	</node>
	<node id="-19579" lat="59.4139611088" lon="10.668083335">
		<tag k="name" v="Dyre" />
		<tag k="place" v="quarter" />
		<tag k="ssr:stedsnr" v="175005" />
	</node>
	<node id="-19578" lat="59.3991694414" lon="10.6925083291">
		<tag k="loc_name" v="Nøysom" />
		<tag k="name" v="Nøisom" />
		<tag k="place" v="farm" />
		<tag k="ssr:stedsnr" v="174907" />
	</node>
	<node id="-19577" lat="59.3990027802" lon="10.7053416584">
		<tag k="name" v="Hestehagen" />
		<tag k="place" v="locality" />
		<tag k="ssr:stedsnr" v="174906" />
	</node>
	<node id="-19576" lat="59.3290472221" lon="10.6680861094">
		<tag k="name" v="Støtvig hotell" />
		<tag k="ssr:stedsnr" v="174472" />
		<tag k="tourism" v="hotel" />
	</node>
	<node id="-19575" lat="59.320322223" lon="10.7038416748">
		<tag k="name" v="Hollendersten" />
		<tag k="place" v="locality" />
		<tag k="ssr:stedsnr" v="174447" />
	</node>
	<node id="-19574" lat="59.3451916688" lon="10.7141083257">
		<tag k="alt_name" v="Kubberød vestre" />
		<tag k="name" v="Vestre Kubberød" />
		<tag k="place" v="farm" />
		<tag k="ssr:stedsnr" v="174230" />
	</node>
	<node id="-19573" lat="59.3648722266" lon="10.6788000039">
		<tag k="fixme" v="consider boundary=protected_area and relevant protect_class if not nature reserve" />
		<tag k="leisure" v="nature_reserve" />
		<tag k="name" v="Kajalunden naturreservat" />
		<tag k="ssr:stedsnr" v="174046" />
	</node>
	<node id="-19572" lat="59.3934333299" lon="10.6530388808">
		<tag k="name" v="Husebyskogen" />
		<tag k="place" v="locality" />
		<tag k="ssr:stedsnr" v="174137" />
	</node>
	<node id="-19571" lat="59.378630554" lon="10.6587611136">
		<tag k="man_made" v="quay" />
		<tag k="name" v="Lagerhusbrygga" />
		<tag k="place" v="locality" />
		<tag k="ssr:stedsnr" v="174076" />
	</node>
	<node id="-19570" lat="59.3888944426" lon="10.7441416689">
		<tag k="bridge" v="yes" />
		<tag k="layer" v="1" />
		<tag k="name" v="Patterød øst" />
		<tag k="ssr:stedsnr" v="167478" />
	</node>
	<node id="-19569" lat="59.3813083368" lon="10.6816888969">
		<tag k="name" v="Haug" />
		<tag k="place" v="farm" />
		<tag k="ssr:stedsnr" v="149984" />
	</node>
	<node id="-19568" lat="59.3072222265" lon="10.6934666753">
		<tag k="alt_name" v="Teiebærn" />
		<tag k="name" v="Teiebærholmen" />
		<tag k="natural" v="cape" />
		<tag k="ssr:stedsnr" v="149894" />
	</node>
	<node id="-19567" lat="59.3912250014" lon="10.6492694533">
		<tag k="name" v="Kollestranda" />
		<tag k="natural" v="beach" />
		<tag k="place" v="locality" />
		<tag k="ssr:stedsnr" v="146837" />
	</node>
	<node id="-19566" lat="59.3306916646" lon="10.6592000074">
		<tag k="name" v="Larkollsundet" />
		<tag k="natural" v="strait" />
		<tag k="ssr:stedsnr" v="123649" />
	</node>
	<node id="-19565" lat="59.3328583299" lon="10.6520944493">
		<tag k="name" v="Kollen" />
		<tag k="place" v="island" />
		<tag k="ssr:stedsnr" v="123648" />
	</node>
	<node id="-19564" lat="59.3870138856" lon="10.6379472261">
		<tag k="name" v="Mellomgrunnen" />
		<tag k="natural" v="shoal" />
		<tag k="place" v="locality" />
		<tag k="ssr:stedsnr" v="123578" />
	</node>
	<node id="-19563" lat="59.4054361124" lon="10.6178944372">
		<tag k="name" v="Steinergrunnen" />
		<tag k="natural" v="shoal" />
		<tag k="place" v="locality" />
		<tag k="ssr:stedsnr" v="123556" />
	</node>
	<node id="-19562" lat="59.3429444468" lon="10.7231027857">
		<tag k="name" v="Kuremyra" />
		<tag k="place" v="farm" />
		<tag k="ssr:stedsnr" v="123526" />
	</node>
	<node id="-19561" lat="59.3449555576" lon="10.7404694445">
		<tag k="alt_name" v="Rossnesbukta" />
		<tag k="name" v="Rosnesbukta" />
		<tag k="natural" v="bay" />
		<tag k="ssr:stedsnr" v="123521" />
	</node>
	<node id="-19560" lat="59.4037333345" lon="10.7532055527">
		<tag k="fixme" v="consider place=hamlet" />
		<tag k="name" v="Kjellerød" />
		<tag k="place" v="farm" />
		<tag k="ssr:stedsnr" v="123339" />
	</node>
	<node id="-19559" lat="59.3901861099" lon="10.7561555632">
		<tag k="name" v="Nore" />
		<tag k="place" v="farm" />
		<tag k="ssr:stedsnr" v="123328" />
	</node>
	<node id="-19558" lat="59.3955914946" lon="10.7237922612">
		<tag k="fixme" v="consider place=hamlet" />
		<tag k="name" v="Såstad" />
		<tag k="place" v="farm" />
		<tag k="ssr:stedsnr" v="123326" />
	</node>
	<node id="-19557" lat="59.3871944402" lon="10.7326694372">
		<tag k="alt_name" v="Gipsen" />
		<tag k="name" v="Gipsund" />
		<tag k="place" v="farm" />
		<tag k="ssr:stedsnr" v="123318" />
	</node>
	<node id="-19556" lat="59.3721388921" lon="10.7793833389">
		<tag k="building" v="industrial" />
		<tag k="industrial" v="factory" />
		<tag k="name" v="Utne sag" />
		<tag k="ssr:stedsnr" v="123313" />
	</node>
	<node id="-19555" lat="59.393794448" lon="10.762580549">
		<tag k="name" v="Sørby" />
		<tag k="place" v="farm" />
		<tag k="ssr:stedsnr" v="115783" />
	</node>
	<node id="-19554" lat="59.4136194429" lon="10.759838886">
		<tag k="name" v="Bergebingen" />
		<tag k="place" v="locality" />
		<tag k="ssr:stedsnr" v="115716" />
	</node>
	<node id="-19553" lat="59.4160555577" lon="10.7704500022">
		<tag k="name" v="Kjellerødtangen" />
		<tag k="natural" v="cape" />
		<tag k="ssr:stedsnr" v="115714" />
	</node>
	<node id="-19552" lat="59.384741666" lon="10.7948916623">
		<tag k="name" v="Brekka" />
		<tag k="place" v="farm" />
		<tag k="ssr:stedsnr" v="115700" />
	</node>
	<node id="-19551" lat="59.3932361155" lon="10.804219439">
		<tag k="name" v="Søgårdsdalen" />
		<tag k="natural" v="valley" />
		<tag k="place" v="locality" />
		<tag k="ssr:stedsnr" v="115695" />
	</node>
	<node id="-19550" lat="59.3955452837" lon="10.8028303374">
		<tag k="name" v="Fredskjærkilen" />
		<tag k="natural" v="bay" />
		<tag k="ssr:stedsnr" v="115689" />
	</node>
	<node id="-19549" lat="59.3943805539" lon="10.7980805536">
		<tag k="name" v="Burøya" />
		<tag k="place" v="islet" />
		<tag k="ssr:stedsnr" v="115688" />
	</node>
	<node id="-19548" lat="59.3899583316" lon="10.7746722179">
		<tag k="alt_name" v="Utne nordre" />
		<tag k="name" v="Nordre Utne" />
		<tag k="place" v="farm" />
		<tag k="ssr:stedsnr" v="115687" />
	</node>
	<node id="-19547" lat="59.3741055563" lon="10.7256000067">
		<tag k="name" v="Knapstad" />
		<tag k="place" v="farm" />
		<tag k="ssr:stedsnr" v="115350" />
	</node>
	<node id="-19546" lat="59.407188885" lon="10.7685611074">
		<tag k="name" v="Kjellerødskogen" />
		<tag k="place" v="locality" />
		<tag k="ssr:stedsnr" v="115830" />
	</node>
	<node id="-19545" lat="59.417219446" lon="10.6976583254">
		<tag k="name" v="Klostermyra" />
		<tag k="natural" v="wetland" />
		<tag k="ssr:stedsnr" v="115145" />
	</node>
	<node id="-19543" lat="59.4153277761" lon="10.7041694397">
		<tag k="name" v="Årvollbukta" />
		<tag k="natural" v="bay" />
		<tag k="ssr:stedsnr" v="115120" />
	</node>
	<node id="-19542" lat="59.3548861113" lon="10.7723666702">
		<tag k="name" v="Sarpeløkka" />
		<tag k="place" v="farm" />
		<tag k="ssr:stedsnr" v="115059" />
	</node>
	<node id="-19541" lat="59.3371027795" lon="10.7267638915">
		<tag k="name" v="Holm" />
		<tag k="place" v="farm" />
		<tag k="ssr:stedsnr" v="115011" />
	</node>
	<node id="-19540" lat="59.3835416665" lon="10.6792638824">
		<tag k="alt_name" v="Hasle vestre" />
		<tag k="name" v="Vestre Hasle" />
		<tag k="place" v="farm" />
		<tag k="ssr:stedsnr" v="114930" />
	</node>
	<node id="-19539" lat="59.3819777749" lon="10.7070555556">
		<tag k="alt_name" v="Urstad nordre" />
		<tag k="name" v="Nordre Urstad" />
		<tag k="place" v="farm" />
		<tag k="ssr:stedsnr" v="114926" />
	</node>
	<node id="-19538" lat="59.3914972217" lon="10.7118833387">
		<tag k="name" v="Kypskjemarka" />
		<tag k="place" v="locality" />
		<tag k="ssr:stedsnr" v="114904" />
	</node>
	<node id="-19537" lat="59.4130027771" lon="10.6594916711">
		<tag k="name" v="Værlevangen" />
		<tag k="place" v="locality" />
		<tag k="ssr:stedsnr" v="114789" />
	</node>
	<node id="-19536" lat="59.3343305551" lon="10.6791222156">
		<tag k="name" v="Medgårdsskogen" />
		<tag k="place" v="locality" />
		<tag k="ssr:stedsnr" v="114456" />
	</node>
	<node id="-19535" lat="59.3260694482" lon="10.6740555543">
		<tag k="amenity" v="school" />
		<tag k="name" v="Rørvik skole" />
		<tag k="ssr:stedsnr" v="114401" />
	</node>
	<node id="-19534" lat="59.3186305591" lon="10.6990805636">
		<tag k="name" v="Kurestekket" />
		<tag k="natural" v="cape" />
		<tag k="ssr:stedsnr" v="114394" />
	</node>
	<node id="-19533" lat="59.3546166669" lon="10.7323861097">
		<tag k="name" v="Mellebyåsen" />
		<tag k="natural" v="hill" />
		<tag k="place" v="locality" />
		<tag k="ssr:stedsnr" v="114330" />
	</node>
	<node id="-19532" lat="59.3287527798" lon="10.6444833379">
		<tag k="name" v="Fugleodden" />
		<tag k="natural" v="cape" />
		<tag k="ssr:stedsnr" v="114079" />
	</node>
	<node id="-19531" lat="59.3931166667" lon="10.6511388852">
		<tag k="alt_name" v="Fuglevik nordre" />
		<tag k="name" v="Nordre Fuglevik" />
		<tag k="place" v="hamlet" />
		<tag k="ssr:stedsnr" v="114102" />
	</node>
	<node id="-19530" lat="59.3702055594" lon="10.6886888964">
		<tag k="name" v="Sørliåsen" />
		<tag k="place" v="farm" />
		<tag k="ssr:stedsnr" v="114067" />
	</node>
	<node id="-19529" lat="59.3781083348" lon="10.6658111111">
		<tag k="name" v="Årefjorden" />
		<tag k="place" v="isolated_dwelling" />
		<tag k="ssr:stedsnr" v="114055" />
	</node>
	<node id="-19528" lat="59.3625222182" lon="10.7007305579">
		<tag k="name" v="Grønli" />
		<tag k="place" v="isolated_dwelling" />
		<tag k="ssr:stedsnr" v="114034" />
	</node>
	<node id="-19527" lat="59.3925583329" lon="10.7423500008">
		<tag k="name" v="Gipsundskogen" />
		<tag k="place" v="locality" />
		<tag k="ssr:stedsnr" v="114031" />
	</node>
	<node id="-19526" lat="59.3569361119" lon="10.7151222187">
		<tag k="name" v="Krokemyrskogen" />
		<tag k="place" v="locality" />
		<tag k="ssr:stedsnr" v="114011" />
	</node>
	<node id="-19525" lat="59.3450333317" lon="10.7571861044">
		<tag k="name" v="Molvikbekken" />
		<tag k="ssr:stedsnr" v="114009" />
		<tag k="waterway" v="stream" />
	</node>
	<node id="-19524" lat="59.3714527744" lon="10.6524083414">
		<tag k="name" v="Årefjordneset" />
		<tag k="place" v="locality" />
		<tag k="ssr:stedsnr" v="114008" />
	</node>
	<node id="-19523" lat="59.3382277794" lon="10.6474666749">
		<tag k="name" v="Langgrunnen" />
		<tag k="natural" v="shoal" />
		<tag k="place" v="locality" />
		<tag k="ssr:stedsnr" v="89882" />
	</node>
	<node id="-19522" lat="59.3478805562" lon="10.6615833264">
		<tag k="alt_name" v="Botnerbaugen" />
		<tag k="name" v="Botnerbogen" />
		<tag k="natural" v="bay" />
		<tag k="ssr:stedsnr" v="89832" />
	</node>
	<node id="-19521" lat="59.319669445" lon="10.7122972199">
		<tag k="name" v="Ulvegrunnen" />
		<tag k="natural" v="shoal" />
		<tag k="place" v="locality" />
		<tag k="ssr:stedsnr" v="89779" />
	</node>
	<node id="-19520" lat="59.4161166688" lon="10.687749995">
		<tag k="name" v="Kvaen" />
		<tag k="place" v="farm" />
		<tag k="ssr:stedsnr" v="63974" />
	</node>
	<node id="-19519" lat="59.3263333313" lon="10.6953527705">
		<tag k="name" v="Tollefsrød" />
		<tag k="place" v="farm" />
		<tag k="ssr:stedsnr" v="63618" />
	</node>
	<node id="-19518" lat="59.335058336" lon="10.7157416701">
		<tag k="name" v="Hallingsås" />
		<tag k="place" v="farm" />
		<tag k="ssr:stedsnr" v="63615" />
	</node>
	<node id="-19517" lat="59.3609472181" lon="10.6886000024">
		<tag k="name" v="Børsebakke" />
		<tag k="place" v="farm" />
		<tag k="ssr:stedsnr" v="63587" />
	</node>
	<node id="-19516" lat="59.3716555548" lon="10.6584388941">
		<tag k="bay" v="fjord" />
		<tag k="name" v="Årefjorden" />
		<tag k="natural" v="bay" />
		<tag k="ssr:stedsnr" v="63572" />
	</node>
	<node id="-19515" lat="59.3835074307" lon="10.7039893932">
		<tag k="fixme" v="consider place=hamlet" />
		<tag k="name" v="Tøstad" />
		<tag k="place" v="farm" />
		<tag k="ssr:stedsnr" v="63554" />
	</node>
	<node id="-19514" lat="59.3981305573" lon="10.6522805538">
		<tag k="name" v="Strandbakken" />
		<tag k="place" v="farm" />
		<tag k="ssr:stedsnr" v="63539" />
	</node>
	<node id="-19513" lat="59.3536071358" lon="10.7517445356">
		<tag k="alt_name" v="Rossnes" />
		<tag k="fixme" v="consider place=hamlet" />
		<tag k="name" v="Rosnes" />
		<tag k="place" v="farm" />
		<tag k="ssr:stedsnr" v="63519" />
	</node>
	<node id="-19512" lat="59.3758638923" lon="10.7505749946">
		<tag k="name" v="Gate" />
		<tag k="place" v="farm" />
		<tag k="ssr:stedsnr" v="63306" />
	</node>
	<node id="-19511" lat="59.3874694428" lon="10.7845416674">
		<tag k="alt_name" v="Fredskjær vestre" />
		<tag k="name" v="Vestre Fredskjær" />
		<tag k="place" v="farm" />
		<tag k="ssr:stedsnr" v="54730" />
	</node>
	<node id="-19510" lat="59.3968944461" lon="10.8085000082">
		<tag k="name" v="Bjørnepanna" />
		<tag k="place" v="islet" />
		<tag k="ssr:stedsnr" v="54723" />
	</node>
	<node id="-19509" lat="59.3843888925" lon="10.7385333343">
		<tag k="name" v="Haradalen" />
		<tag k="place" v="locality" />
		<tag k="ssr:stedsnr" v="54711" />
	</node>
	<node id="-19508" lat="59.3906611104" lon="10.7644583289">
		<tag k="name" v="Solbakken" />
		<tag k="place" v="farm" />
		<tag k="ssr:stedsnr" v="54791" />
	</node>
	<node id="-19507" lat="59.3977027789" lon="10.7194555507">
		<tag k="name" v="Såstadskogen" />
		<tag k="place" v="locality" />
		<tag k="ssr:stedsnr" v="54763" />
	</node>
	<node id="-19506" lat="59.3387055556" lon="10.7189861194">
		<tag k="name" v="Skogli" />
		<tag k="place" v="farm" />
		<tag k="ssr:stedsnr" v="54017" />
	</node>
	<node id="-19505" lat="59.3234027777" lon="10.6775111048">
		<tag k="name" v="Knarrebaugen" />
		<tag k="natural" v="bay" />
		<tag k="ssr:stedsnr" v="54010" />
	</node>
	<node id="-19504" lat="59.4082083317" lon="10.6984388886">
		<tag k="alt_name" v="Dilling søndre" />
		<tag k="name" v="Søndre Dilling" />
		<tag k="place" v="farm" />
		<tag k="ssr:stedsnr" v="53934" />
	</node>
	<node id="-19503" lat="59.4068861073" lon="10.6965055472">
		<tag k="fixme" v="consider place=suburb, village or hamlet" />
		<tag k="name" v="Dilling" />
		<tag k="place" v="quarter" />
		<tag k="ssr:stedsnr" v="53933" />
	</node>
	<node id="-19502" lat="59.4071833318" lon="10.6615833396">
		<tag k="alt_name" v="Dyre nordre" />
		<tag k="fixme" v="consider place=hamlet" />
		<tag k="name" v="Nordre Dyre" />
		<tag k="place" v="farm" />
		<tag k="ssr:stedsnr" v="53804" />
	</node>
	<node id="-19501" lat="59.3308750023" lon="10.7066361129">
		<tag k="fixme" v="consider natural=peak for the most distinct mountains in the district" />
		<tag k="name" v="Bølås" />
		<tag k="natural" v="hill" />
		<tag k="place" v="locality" />
		<tag k="ssr:stedsnr" v="53439" />
	</node>
	<node id="-19500" lat="59.3317027736" lon="10.6690583245">
		<tag k="name" v="Solheim" />
		<tag k="place" v="farm" />
		<tag k="ssr:stedsnr" v="53420" />
	</node>
	<node id="-19499" lat="59.3207472253" lon="10.6757277804">
		<tag k="name" v="Kråke" />
		<tag k="natural" v="cape" />
		<tag k="ssr:stedsnr" v="53406" />
	</node>
	<node id="-19498" lat="59.3398222247" lon="10.7154888926">
		<tag k="fixme" v="consider natural=peak for the most distinct mountains in the district" />
		<tag k="name" v="Hakkerås" />
		<tag k="natural" v="hill" />
		<tag k="place" v="locality" />
		<tag k="ssr:stedsnr" v="53206" />
	</node>
	<node id="-19497" lat="59.344341671" lon="10.7153138881">
		<tag k="alt_name" v="Kubberød østre" />
		<tag k="name" v="Østre Kubberød" />
		<tag k="place" v="farm" />
		<tag k="ssr:stedsnr" v="53204" />
	</node>
	<node id="-19496" lat="59.3865111108" lon="10.6534416583">
		<tag k="leisure" v="marina" />
		<tag k="name" v="Fuglevik båthavn" />
		<tag k="ssr:stedsnr" v="53140" />
	</node>
	<node id="-19495" lat="59.3816222198" lon="10.6543833247">
		<tag k="name" v="Gunnarsbyneset" />
		<tag k="place" v="locality" />
		<tag k="ssr:stedsnr" v="53139" />
	</node>
	<node id="-19494" lat="59.3722194483" lon="10.7181638855">
		<tag k="alt_name" v="Fløgstad søndre" />
		<tag k="name" v="Søndre Fløgstad" />
		<tag k="place" v="farm" />
		<tag k="ssr:stedsnr" v="53082" />
	</node>
	<node id="-19493" lat="59.3642666705" lon="10.6778388975">
		<tag k="name" v="Kajalunden" />
		<tag k="place" v="locality" />
		<tag k="ssr:stedsnr" v="53045" />
	</node>
	<node id="-19492" lat="59.3582527772" lon="10.6955388838">
		<tag k="name" v="Opstadbekken" />
		<tag k="ssr:stedsnr" v="53037" />
		<tag k="waterway" v="stream" />
	</node>
	<node id="-19491" lat="59.3577999977" lon="10.6631277774">
		<tag k="alt_name" v="Tangen nedre" />
		<tag k="name" v="Nedre Tangen" />
		<tag k="place" v="isolated_dwelling" />
		<tag k="ssr:stedsnr" v="53020" />
	</node>
	<node id="-19490" lat="59.3573083354" lon="10.7010861056">
		<tag k="name" v="Nærumskogen" />
		<tag k="place" v="locality" />
		<tag k="ssr:stedsnr" v="53017" />
	</node>
	<node id="-19489" lat="59.3585055558" lon="10.6590277865">
		<tag k="name" v="Galgeberget" />
		<tag k="place" v="islet" />
		<tag k="ssr:stedsnr" v="53015" />
	</node>
	<node id="-19488" lat="59.3461750012" lon="10.745655564">
		<tag k="name" v="Kanaholmen" />
		<tag k="natural" v="hill" />
		<tag k="place" v="locality" />
		<tag k="ssr:stedsnr" v="53008" />
	</node>
	<node id="-19487" lat="59.2998583353" lon="10.6866583414">
		<tag k="alt_name" v="Elødøya-Sletter naturreservat" />
		<tag k="fixme" v="consider boundary=protected_area and relevant protect_class if not nature reserve" />
		<tag k="leisure" v="nature_reserve" />
		<tag k="name" v="Eldøya-Sletter naturreservat" />
		<tag k="ssr:stedsnr" v="52094" />
	</node>
	<node id="-19486" lat="59.3037888869" lon="10.6890138917">
		<tag k="name" v="Søndre Danmarksbukta" />
		<tag k="natural" v="bay" />
		<tag k="ssr:stedsnr" v="52093" />
	</node>
	<node id="-19485" lat="59.3230333363" lon="10.7038361025">
		<tag k="name" v="Apalberget" />
		<tag k="natural" v="hill" />
		<tag k="place" v="locality" />
		<tag k="ssr:stedsnr" v="28897" />
	</node>
	<node id="-19484" lat="59.3395611089" lon="10.7302805625">
		<tag k="alt_name" v="Kureskjær" />
		<tag k="name" v="Kureskjæret" />
		<tag k="natural" v="cape" />
		<tag k="ssr:stedsnr" v="28836" />
	</node>
	<node id="-19483" lat="59.3315361073" lon="10.6627555526">
		<tag k="name" v="Sandtangen" />
		<tag k="natural" v="cape" />
		<tag k="ssr:stedsnr" v="25859" />
	</node>
	<node id="-19482" lat="59.3260361073" lon="10.6682027784">
		<tag k="alt_name" v="Kloddskjæra;Klodskjæret" />
		<tag k="fixme" v="consider seamark:type=rock or natural=shoal" />
		<tag k="name" v="Klodskjæra" />
		<tag k="place" v="islet" />
		<tag k="ssr:stedsnr" v="25858" />
	</node>
	<node id="-19481" lat="59.4097111145" lon="10.6549249995">
		<tag k="alt_name" v="Feste nordre" />
		<tag k="name" v="Nordre Feste" />
		<tag k="place" v="farm" />
		<tag k="ssr:stedsnr" v="2972" />
	</node>
	<node id="-19480" lat="59.4140777753" lon="10.6981861133">
		<tag k="name" v="Årvoll" />
		<tag k="place" v="farm" />
		<tag k="ssr:stedsnr" v="2968" />
	</node>
	<node id="-19479" lat="59.383483336" lon="10.671816662">
		<tag k="alt_name" v="Bakke nordre" />
		<tag k="name" v="Nordre Bakke" />
		<tag k="place" v="farm" />
		<tag k="ssr:stedsnr" v="2556" />
	</node>
	<node id="-19478" lat="59.3980249962" lon="10.6346249961">
		<tag k="alt_name" v="Revlingen" />
		<tag k="name" v="Store Revlingen" />
		<tag k="place" v="islet" />
		<tag k="ssr:stedsnr" v="2541" />
	</node>
	<node id="-19477" lat="59.3942888901" lon="10.6357499991">
		<tag k="name" v="Lille Revlingen" />
		<tag k="place" v="islet" />
		<tag k="ssr:stedsnr" v="2542" />
	</node>
	<node id="-19476" lat="59.3413916684" lon="10.725083336">
		<tag k="name" v="Mellegård" />
		<tag k="place" v="farm" />
		<tag k="ssr:stedsnr" v="2503" />
	</node>
	<node id="-19475" lat="59.365266664" lon="10.7496583384">
		<tag k="alt_name" v="Ror midtre" />
		<tag k="name" v="Midtre Ror" />
		<tag k="place" v="farm" />
		<tag k="ssr:stedsnr" v="2299" />
	</node>
	<node id="-19474" lat="59.3677861099" lon="10.7568083395">
		<tag k="name" v="Kroken" />
		<tag k="place" v="farm" />
		<tag k="ssr:stedsnr" v="2297" />
	</node>
	<node id="-19472" lat="59.4302430445" lon="10.7310285037">
		<tag k="name" v="Grevlinghuken" />
		<tag k="place" v="locality" />
		<tag k="ssr:stedsnr" v="988107" />
	</node>
	<node id="-19471" lat="59.3746799309" lon="10.6618005">
		<tag k="name" v="Bryggeberget" />
		<tag k="natural" v="cape" />
		<tag k="ssr:stedsnr" v="987564" />
	</node>
	<node id="-19470" lat="59.3324410551" lon="10.6544763541">
		<tag k="name" v="Kirkegårdsbukta" />
		<tag k="natural" v="bay" />
		<tag k="ssr:stedsnr" v="987559" />
	</node>
	<node id="-19467" lat="59.4233805578" lon="10.7071444508">
		<tag k="bridge" v="yes" />
		<tag k="layer" v="1" />
		<tag k="name" v="Lille Storebog" />
		<tag k="ssr:stedsnr" v="896460" />
	</node>
	<node id="-19456" lat="59.3827972256" lon="10.7026972155">
		<tag k="alt_name" v="Tøstad øvre" />
		<tag k="name" v="Øvre Tøstad" />
		<tag k="place" v="farm" />
		<tag k="ssr:stedsnr" v="478910" />
	</node>
	<node id="-19455" lat="59.402136108" lon="10.7448166703">
		<tag k="name" v="Vaskeberget" />
		<tag k="place" v="locality" />
		<tag k="ssr:stedsnr" v="478846" />
	</node>
	<node id="-19454" lat="59.3886388927" lon="10.7264250037">
		<tag k="bridge" v="yes" />
		<tag k="layer" v="1" />
		<tag k="name" v="Bjølsen" />
		<tag k="ssr:stedsnr" v="478806" />
	</node>
	<node id="-19453" lat="59.3821249969" lon="10.7931361079">
		<tag k="alt_name" v="Søgård østre" />
		<tag k="name" v="Østre Søgård" />
		<tag k="place" v="farm" />
		<tag k="ssr:stedsnr" v="478739" />
	</node>
	<node id="-19452" lat="59.3920555556" lon="10.8116388867">
		<tag k="name" v="Bjørnemyr" />
		<tag k="natural" v="wetland" />
		<tag k="ssr:stedsnr" v="478734" />
	</node>
	<node id="-19451" lat="59.3914250007" lon="10.7883083347">
		<tag k="name" v="Sandli" />
		<tag k="place" v="farm" />
		<tag k="ssr:stedsnr" v="478728" />
	</node>
	<node id="-19450" lat="59.3806111076" lon="10.7451722222">
		<tag k="amenity" v="sports_centre" />
		<tag k="name" v="Ryggehallen" />
		<tag k="ssr:stedsnr" v="478719" />
	</node>
	<node id="-19449" lat="59.3800583378" lon="10.7246166613">
		<tag k="name" v="Teltebingen" />
		<tag k="place" v="locality" />
		<tag k="ssr:stedsnr" v="478717" />
	</node>
	<node id="-19448" lat="59.3764861115" lon="10.7391499961">
		<tag k="alt_name" v="Rør vestre" />
		<tag k="name" v="Vestre Rør" />
		<tag k="place" v="farm" />
		<tag k="ssr:stedsnr" v="478291" />
	</node>
	<node id="-19447" lat="59.366575" lon="10.7655500045">
		<tag k="alt_name" v="Eskelund nedre" />
		<tag k="name" v="Nedre Eskelund" />
		<tag k="place" v="farm" />
		<tag k="ssr:stedsnr" v="478274" />
	</node>
	<node id="-19446" lat="59.3450888908" lon="10.6937555544">
		<tag k="name" v="Støtvikskogen" />
		<tag k="place" v="locality" />
		<tag k="ssr:stedsnr" v="478189" />
	</node>
	<node id="-19445" lat="59.3861111106" lon="10.6566611175">
		<tag k="alt_name" v="Fuglevik mellem" />
		<tag k="name" v="Mellom-Fuglevik" />
		<tag k="place" v="hamlet" />
		<tag k="ssr:stedsnr" v="478108" />
	</node>
	<node id="-19444" lat="59.375975001" lon="10.7173694404">
		<tag k="alt_name" v="Fløgstad nordre" />
		<tag k="name" v="Nordre Fløgstad" />
		<tag k="place" v="farm" />
		<tag k="ssr:stedsnr" v="478069" />
	</node>
	<node id="-19443" lat="59.3797388921" lon="10.6513527749">
		<tag k="name" v="Det gule berget" />
		<tag k="natural" v="cliff" />
		<tag k="ssr:stedsnr" v="478047" />
	</node>
	<node id="-19442" lat="59.3659138929" lon="10.6892499954">
		<tag k="alt_name" v="Pålsrød vestre" />
		<tag k="name" v="Vestre Pålsrød" />
		<tag k="place" v="farm" />
		<tag k="ssr:stedsnr" v="478029" />
	</node>
	<node id="-19441" lat="59.3806388864" lon="10.7021138813">
		<tag k="name" v="Torgerslund" />
		<tag k="place" v="locality" />
		<tag k="ssr:stedsnr" v="477947" />
	</node>
	<node id="-19440" lat="59.3815083371" lon="10.7098833392">
		<tag k="amenity" v="community_centre" />
		<tag k="name" v="Noatun" />
		<tag k="ssr:stedsnr" v="477937" />
	</node>
	<node id="-19439" lat="59.4021722239" lon="10.665019452">
		<tag k="fixme" v="consider boundary=protected_area and relevant protect_class if not nature reserve" />
		<tag k="leisure" v="nature_reserve" />
		<tag k="name" v="Bogslunden naturreservat" />
		<tag k="ssr:stedsnr" v="477935" />
	</node>
	<node id="-19438" lat="59.3510222254" lon="10.6614416649">
		<tag k="alt_name" v="Botnermyra" />
		<tag k="name" v="Botnemyr" />
		<tag k="place" v="farm" />
		<tag k="ssr:stedsnr" v="477442" />
	</node>
	<node id="-19437" lat="59.3252944448" lon="10.7143888849">
		<tag k="fixme" v="consider seamark:type=rock or natural=shoal" />
		<tag k="name" v="Sørskjæret" />
		<tag k="place" v="islet" />
		<tag k="ssr:stedsnr" v="477414" />
	</node>
	<node id="-19436" lat="59.3129638892" lon="10.6962861112">
		<tag k="name" v="Oterberget" />
		<tag k="natural" v="cliff" />
		<tag k="ssr:stedsnr" v="477126" />
	</node>
	<node id="-19435" lat="59.3127638893" lon="10.6847499964">
		<tag k="fixme" v="consider natural=peak for the most distinct mountains in the district" />
		<tag k="name" v="Barselberget" />
		<tag k="natural" v="hill" />
		<tag k="place" v="locality" />
		<tag k="ssr:stedsnr" v="477124" />
	</node>
	<node id="-19434" lat="59.4093388916" lon="10.6827083404">
		<tag k="alt_name" v="Ekholt vestre" />
		<tag k="name" v="Vestre Ekholt" />
		<tag k="place" v="farm" />
		<tag k="ssr:stedsnr" v="477105" />
	</node>
	<node id="-19433" lat="59.3858361153" lon="10.7512583356">
		<tag k="bridge" v="yes" />
		<tag k="layer" v="1" />
		<tag k="name" v="Halmstad" />
		<tag k="ssr:stedsnr" v="410455" />
	</node>
	<node id="-19432" lat="59.3972249976" lon="10.624813883">
		<tag k="name" v="Nygrunnen" />
		<tag k="natural" v="shoal" />
		<tag k="place" v="locality" />
		<tag k="ssr:stedsnr" v="392913" />
	</node>
	<node id="-19431" lat="59.314961111" lon="10.6794527748">
		<tag k="alt_name" v="Engerholmbukta" />
		<tag k="name" v="Engholmbukta" />
		<tag k="natural" v="bay" />
		<tag k="ssr:stedsnr" v="392134" />
	</node>
	<node id="-19430" lat="59.3165444416" lon="10.6889805499">
		<tag k="name" v="Engholmen" />
		<tag k="natural" v="cape" />
		<tag k="ssr:stedsnr" v="366640" />
	</node>
	<node id="-19429" lat="59.3216638914" lon="10.7000777844">
		<tag k="alt_name" v="Salbohuset" />
		<tag k="name" v="Salbuhuset" />
		<tag k="place" v="farm" />
		<tag k="ssr:stedsnr" v="366619" />
	</node>
	<node id="-19428" lat="59.3319555534" lon="10.6668749944">
		<tag k="name" v="Larkollen" />
		<tag k="place" v="village" />
		<tag k="ssr:stedsnr" v="366612" />
	</node>
	<node id="-19427" lat="59.3490166663" lon="10.678733325">
		<tag k="name" v="Botnertjernet" />
		<tag k="natural" v="water" />
		<tag k="ssr:stedsnr" v="366597" />
	</node>
	<node id="-19426" lat="59.348747223" lon="10.6418916614">
		<tag k="alt_name" v="Botnegrunnene" />
		<tag k="name" v="Botnergrunnen" />
		<tag k="natural" v="shoal" />
		<tag k="place" v="locality" />
		<tag k="ssr:stedsnr" v="366595" />
	</node>
	<node id="-19425" lat="59.3987250038" lon="10.6669083297">
		<tag k="alt_name" v="Baug" />
		<tag k="name" v="Bog" />
		<tag k="place" v="farm" />
		<tag k="ssr:stedsnr" v="366541" />
	</node>
	<node id="-19424" lat="59.3930555569" lon="10.6726555566">
		<tag k="alt_name" v="Værne kloster" />
		<tag k="name" v="Verne kloster" />
		<tag k="old_name" v="Værnekloster" />
		<tag k="place" v="farm" />
		<tag k="ssr:stedsnr" v="366540" />
	</node>
	<node id="-19423" lat="59.407586114" lon="10.7136833341">
		<tag k="name" v="Dramstad" />
		<tag k="place" v="farm" />
		<tag k="ssr:stedsnr" v="366522" />
	</node>
	<node id="-19422" lat="59.3508833336" lon="10.7367138965">
		<tag k="alt_name" v="Kure søndre" />
		<tag k="name" v="Søndre Kure" />
		<tag k="place" v="farm" />
		<tag k="ssr:stedsnr" v="366502" />
	</node>
	<node id="-19421" lat="59.3995861142" lon="10.7554972141">
		<tag k="fixme" v="consider place=hamlet" />
		<tag k="name" v="Huggenes" />
		<tag k="place" v="farm" />
		<tag k="ssr:stedsnr" v="366312" />
	</node>
	<node id="-19420" lat="59.4008361155" lon="10.7890694478">
		<tag k="name" v="Fjell" />
		<tag k="place" v="farm" />
		<tag k="ssr:stedsnr" v="366308" />
	</node>
	<node id="-19419" lat="59.3876895726" lon="10.7849708685">
		<tag k="name" v="Fredskjær" />
		<tag k="place" v="hamlet" />
		<tag k="ssr:stedsnr" v="366291" />
	</node>
	<node id="-19418" lat="59.4071388907" lon="10.7224527825">
		<tag k="name" v="Enerli" />
		<tag k="place" v="isolated_dwelling" />
		<tag k="ssr:stedsnr" v="357867" />
	</node>
	<node id="-19417" lat="59.4058555597" lon="10.7521250088">
		<tag k="landuse" v="industrial" />
		<tag k="name" v="Vannverket" />
		<tag k="power" v="plant" />
		<tag k="ssr:stedsnr" v="357847" />
	</node>
	<node id="-19416" lat="59.397886114" lon="10.7736249959">
		<tag k="name" v="Utneskogen" />
		<tag k="place" v="locality" />
		<tag k="ssr:stedsnr" v="357782" />
	</node>
	<node id="-19415" lat="59.3923888933" lon="10.7998750075">
		<tag k="name" v="Bjerkebakke" />
		<tag k="place" v="locality" />
		<tag k="ssr:stedsnr" v="357708" />
	</node>
	<node id="-19414" lat="59.3628611129" lon="10.7241833273">
		<tag k="junction" v="yes" />
		<tag k="name" v="Pytten" />
		<tag k="place" v="locality" />
		<tag k="ssr:stedsnr" v="357318" />
	</node>
	<node id="-19413" lat="59.3501333357" lon="10.7511527745">
		<tag k="alt_name" v="Rosnes søndre" />
		<tag k="name" v="Søndre Rosnes" />
		<tag k="place" v="farm" />
		<tag k="ssr:stedsnr" v="357213" />
	</node>
	<node id="-19412" lat="59.4286750001" lon="10.6987777765">
		<tag k="name" v="Puta" />
		<tag k="place" v="islet" />
		<tag k="ssr:stedsnr" v="357082" />
	</node>
	<node id="-19411" lat="59.3735611107" lon="10.7349888861">
		<tag k="name" v="Kureåa" />
		<tag k="ssr:stedsnr" v="357071" />
		<tag k="waterway" v="stream" />
	</node>
	<node id="-19410" lat="59.3504944475" lon="10.755058325">
		<tag k="name" v="Rosnesbekken" />
		<tag k="ssr:stedsnr" v="357050" />
		<tag k="waterway" v="stream" />
	</node>
	<node id="-19409" lat="59.3871333352" lon="10.6994638869">
		<tag k="alt_name" v="Lyby mellem" />
		<tag k="name" v="Mellom-Lyby" />
		<tag k="place" v="farm" />
		<tag k="ssr:stedsnr" v="356932" />
	</node>
	<node id="-19408" lat="59.4060277814" lon="10.6670416635">
		<tag k="alt_name" v="Dyre søndre" />
		<tag k="name" v="Søndre Dyre" />
		<tag k="place" v="farm" />
		<tag k="ssr:stedsnr" v="356899" />
	</node>
	<node id="-19407" lat="59.4006305561" lon="10.6913833354">
		<tag k="name" v="Nymark" />
		<tag k="place" v="farm" />
		<tag k="ssr:stedsnr" v="356885" />
	</node>
	<node id="-19406" lat="59.4018388917" lon="10.7012194507">
		<tag k="alt_name" v="Dilling nordre" />
		<tag k="name" v="Nordre Dilling" />
		<tag k="place" v="farm" />
		<tag k="ssr:stedsnr" v="356882" />
	</node>
	<node id="-19405" lat="59.3564500005" lon="10.657538888">
		<tag k="fixme" v="consider seamark:type=rock or natural=shoal" />
		<tag k="name" v="Blåskjær" />
		<tag k="place" v="islet" />
		<tag k="ssr:stedsnr" v="356437" />
	</node>
	<node id="-19404" lat="59.3331861133" lon="10.6632444495">
		<tag k="name" v="Tollstranda" />
		<tag k="natural" v="beach" />
		<tag k="place" v="locality" />
		<tag k="ssr:stedsnr" v="356438" />
	</node>
	<node id="-19403" lat="59.3400666691" lon="10.6618916623">
		<tag k="fixme" v="consider seamark:type=rock or natural=shoal" />
		<tag k="name" v="Klokkeren" />
		<tag k="place" v="islet" />
		<tag k="ssr:stedsnr" v="356432" />
	</node>
	<node id="-19402" lat="59.3196027773" lon="10.6803805605">
		<tag k="name" v="Tatervika" />
		<tag k="natural" v="bay" />
		<tag k="ssr:stedsnr" v="356392" />
	</node>
	<node id="-19401" lat="59.3386999998" lon="10.6849444532">
		<tag k="alt_name" v="Støtvik mellem" />
		<tag k="name" v="Mellom-Støtvik" />
		<tag k="place" v="farm" />
		<tag k="ssr:stedsnr" v="356212" />
	</node>
	<node id="-19400" lat="59.4110638866" lon="10.6791111097">
		<tag k="amenity" v="school" />
		<tag k="name" v="Ekholt skole" />
		<tag k="ssr:stedsnr" v="356124" />
	</node>
	<node id="-19399" lat="59.3299499982" lon="10.6543138969">
		<tag k="name" v="Kollen" />
		<tag k="place" v="isolated_dwelling" />
		<tag k="ssr:stedsnr" v="356102" />
	</node>
	<node id="-19398" lat="59.3657249968" lon="10.710058337">
		<tag k="name" v="Opstadskogen" />
		<tag k="place" v="locality" />
		<tag k="ssr:stedsnr" v="356093" />
	</node>
	<node id="-19397" lat="59.3683555565" lon="10.694230555">
		<tag k="name" v="Hestehavna" />
		<tag k="place" v="locality" />
		<tag k="ssr:stedsnr" v="356089" />
	</node>
	<node id="-19396" lat="59.363583331" lon="10.7049361144">
		<tag k="fixme" v="consider natural=peak for the most distinct mountains in the district" />
		<tag k="name" v="Kjempekastet" />
		<tag k="natural" v="hill" />
		<tag k="place" v="locality" />
		<tag k="ssr:stedsnr" v="356036" />
	</node>
	<node id="-19395" lat="59.4272222212" lon="10.7066916696">
		<tag k="bridge" v="yes" />
		<tag k="layer" v="1" />
		<tag k="name" v="Storebog vest" />
		<tag k="ssr:stedsnr" v="349499" />
	</node>
	<node id="-19394" lat="59.3638083365" lon="10.6603611066">
		<tag k="alt_name" v="Svartsker" />
		<tag k="fixme" v="consider seamark:type=rock or natural=shoal" />
		<tag k="name" v="Svartskjær" />
		<tag k="place" v="islet" />
		<tag k="ssr:stedsnr" v="331777" />
	</node>
	<node id="-19393" lat="59.3892694473" lon="10.7008361026">
		<tag k="alt_name" v="Løken søndre" />
		<tag k="name" v="Søndre Løken" />
		<tag k="place" v="farm" />
		<tag k="ssr:stedsnr" v="330244" />
	</node>
	<node id="-19392" lat="59.3295305559" lon="10.6510388822">
		<tag k="alt_name" v="Kollesundet" />
		<tag k="name" v="Kollsundet" />
		<tag k="natural" v="strait" />
		<tag k="ssr:stedsnr" v="306559" />
	</node>
	<node id="-19391" lat="59.3370555595" lon="10.6599805543">
		<tag k="name" v="Gårdstangen" />
		<tag k="natural" v="cape" />
		<tag k="ssr:stedsnr" v="306555" />
	</node>
	<node id="-19390" lat="59.3950000007" lon="10.6868388845">
		<tag k="name" v="Grystad" />
		<tag k="place" v="isolated_dwelling" />
		<tag k="ssr:stedsnr" v="306491" />
	</node>
	<node id="-19389" lat="59.4034805536" lon="10.6913805509">
		<tag k="name" v="Krokstad" />
		<tag k="place" v="farm" />
		<tag k="ssr:stedsnr" v="306480" />
	</node>
	<node id="-19388" lat="59.3866770769" lon="10.7234614622">
		<tag k="alt_name" v="Bjølsund" />
		<tag k="fixme" v="consider place=hamlet" />
		<tag k="name" v="Bjølsen" />
		<tag k="place" v="farm" />
		<tag k="ssr:stedsnr" v="306286" />
	</node>
	<node id="-19387" lat="59.3795638871" lon="10.7205250028">
		<tag k="name" v="Prestegården" />
		<tag k="place" v="farm" />
		<tag k="ssr:stedsnr" v="306278" />
	</node>
	<node id="-19386" lat="59.3579555552" lon="10.7627444443">
		<tag k="alt_name" v="Molvik nordre" />
		<tag k="name" v="Nordre Molvik" />
		<tag k="place" v="farm" />
		<tag k="ssr:stedsnr" v="306236" />
	</node>
	<node id="-19385" lat="59.3591277773" lon="10.7321750081">
		<tag k="alt_name" v="Mellem Kure;Kure midtre;Kure mellem" />
		<tag k="name" v="Mellom-Kure" />
		<tag k="place" v="farm" />
		<tag k="ssr:stedsnr" v="306235" />
	</node>
	<node id="-19384" lat="59.3055250022" lon="10.7030250064">
		<tag k="name" v="Taralden" />
		<tag k="place" v="islet" />
		<tag k="ssr:stedsnr" v="305669" />
	</node>
	<node id="-19383" lat="59.3010916653" lon="10.6926222163">
		<tag k="name" v="Danmark" />
		<tag k="natural" v="cape" />
		<tag k="ssr:stedsnr" v="305668" />
	</node>
	<node id="-19382" lat="59.3682388913" lon="10.6671055517">
		<tag k="fixme" v="consider natural=peak for the most distinct mountains in the district" />
		<tag k="name" v="Røysa" />
		<tag k="natural" v="hill" />
		<tag k="place" v="locality" />
		<tag k="ssr:stedsnr" v="305610" />
	</node>
	<node id="-19381" lat="59.4284250028" lon="10.7326611174">
		<tag k="name" v="Årvollfjorden" />
		<tag k="natural" v="bay" />
		<tag k="ssr:stedsnr" v="305364" />
	</node>
	<node id="-19380" lat="59.3952333342" lon="10.7356555626">
		<tag k="name" v="Pålebingen" />
		<tag k="place" v="quarter" />
		<tag k="ssr:stedsnr" v="297792" />
	</node>
	<node id="-19379" lat="59.3988083363" lon="10.7411055579">
		<tag k="name" v="Støabukta" />
		<tag k="natural" v="bay" />
		<tag k="ssr:stedsnr" v="297789" />
	</node>
	<node id="-19378" lat="59.3714194479" lon="10.7257444527">
		<tag k="alt_name" v="Otterstad mellem" />
		<tag k="name" v="Mellom-Otterstad" />
		<tag k="place" v="farm" />
		<tag k="ssr:stedsnr" v="297339" />
	</node>
	<node id="-19377" lat="59.367416666" lon="10.7260861181">
		<tag k="alt_name" v="Otterstad vestre" />
		<tag k="name" v="Vestre Otterstad" />
		<tag k="place" v="farm" />
		<tag k="ssr:stedsnr" v="297336" />
	</node>
	<node id="-19376" lat="59.3592416685" lon="10.722169451">
		<tag k="name" v="Skogen" />
		<tag k="place" v="farm" />
		<tag k="ssr:stedsnr" v="297314" />
	</node>
	<node id="-19375" lat="59.3471472248" lon="10.749538889">
		<tag k="name" v="Rosnesheia" />
		<tag k="place" v="locality" />
		<tag k="ssr:stedsnr" v="297070" />
	</node>
	<node id="-19374" lat="59.3552611126" lon="10.7652083325">
		<tag k="alt_name" v="Molvik østre" />
		<tag k="name" v="Østre Molvik" />
		<tag k="place" v="farm" />
		<tag k="ssr:stedsnr" v="297063" />
	</node>
	<node id="-19373" lat="59.3877388883" lon="10.6698777763">
		<tag k="name" v="Telemarkslund" />
		<tag k="place" v="locality" />
		<tag k="ssr:stedsnr" v="296937" />
	</node>
	<node id="-19372" lat="59.3868222205" lon="10.690080547">
		<tag k="name" v="Vesterås" />
		<tag k="place" v="farm" />
		<tag k="ssr:stedsnr" v="296930" />
	</node>
	<node id="-19371" lat="59.3860638866" lon="10.6925777856">
		<tag k="name" v="Lybyskogen" />
		<tag k="place" v="locality" />
		<tag k="ssr:stedsnr" v="296928" />
	</node>
	<node id="-19370" lat="59.3874583311" lon="10.7089333407">
		<tag k="name" v="Solberg" />
		<tag k="place" v="farm" />
		<tag k="ssr:stedsnr" v="296913" />
	</node>
	<node id="-19369" lat="59.3922583364" lon="10.687180558">
		<tag k="name" v="Ek" />
		<tag k="place" v="farm" />
		<tag k="ssr:stedsnr" v="296886" />
	</node>
	<node id="-19368" lat="59.4035916655" lon="10.6585555639">
		<tag k="alt_name" v="Dyre søndre" />
		<tag k="name" v="Søndre Dyre" />
		<tag k="place" v="farm" />
		<tag k="ssr:stedsnr" v="296764" />
	</node>
	<node id="-19367" lat="59.3514000034" lon="10.7180277864">
		<tag k="fixme" v="consider natural=peak for the most distinct mountains in the district" />
		<tag k="name" v="Kureåsen" />
		<tag k="natural" v="hill" />
		<tag k="place" v="locality" />
		<tag k="ssr:stedsnr" v="296275" />
	</node>
	<node id="-19366" lat="59.3413416653" lon="10.686325004">
		<tag k="name" v="Støtvikbekken" />
		<tag k="ssr:stedsnr" v="296185" />
		<tag k="waterway" v="stream" />
	</node>
	<node id="-19365" lat="59.350324997" lon="10.6869638852">
		<tag k="name" v="Sande" />
		<tag k="place" v="isolated_dwelling" />
		<tag k="ssr:stedsnr" v="296172" />
	</node>
	<node id="-19364" lat="59.384105558" lon="10.6597166651">
		<tag k="building" v="industrial" />
		<tag k="industrial" v="factory" />
		<tag k="name" v="Fuglevik renseanlegg" />
		<tag k="ssr:stedsnr" v="296097" />
	</node>
	<node id="-19363" lat="59.4101377859" lon="10.7286273151">
		<tag k="fixme" v="consider boundary=protected_area and relevant protect_class if not nature reserve" />
		<tag k="leisure" v="nature_reserve" />
		<tag k="name" v="Vestre Vansjø naturreservat" />
		<tag k="ssr:stedsnr" v="296093" />
	</node>
	<node id="-19362" lat="59.4289250025" lon="10.6975388816">
		<tag k="name" v="Dyna" />
		<tag k="place" v="islet" />
		<tag k="ssr:stedsnr" v="296060" />
	</node>
	<node id="-19361" lat="59.4301638931" lon="10.7296499937">
		<tag k="name" v="Grevlingbukta" />
		<tag k="natural" v="bay" />
		<tag k="ssr:stedsnr" v="296059" />
	</node>
	<node id="-19360" lat="59.3660027742" lon="10.6676833351">
		<tag k="name" v="Vestskogen" />
		<tag k="place" v="locality" />
		<tag k="ssr:stedsnr" v="296024" />
	</node>
	<node id="-19359" lat="59.3526138915" lon="10.6590583339">
		<tag k="name" v="Søndre Holmebukta" />
		<tag k="natural" v="bay" />
		<tag k="ssr:stedsnr" v="295432" />
	</node>
	<node id="-19358" lat="59.3319888872" lon="10.6529888823">
		<tag k="name" v="Paradis" />
		<tag k="place" v="locality" />
		<tag k="ssr:stedsnr" v="295109" />
	</node>
	<node id="-19357" lat="59.4071444434" lon="10.6898777757">
		<tag k="amenity" v="school" />
		<tag k="name" v="Ekholt ungdomsskole" />
		<tag k="ssr:stedsnr" v="295104" />
	</node>
	<node id="-19356" lat="59.328724997" lon="10.7137166606">
		<tag k="alt_name" v="Sildebaugen søndre" />
		<tag k="name" v="Søndre Sildebaugen" />
		<tag k="place" v="farm" />
		<tag k="ssr:stedsnr" v="295418" />
	</node>
	<node id="-19355" lat="59.3566666695" lon="10.7402944368">
		<tag k="bridge" v="yes" />
		<tag k="layer" v="1" />
		<tag k="name" v="Kure" />
		<tag k="ssr:stedsnr" v="289447" />
	</node>
	<node id="-19354" lat="59.3204944442" lon="10.6426305561">
		<tag k="name" v="Vardeberget" />
		<tag k="natural" v="hill" />
		<tag k="place" v="locality" />
		<tag k="ssr:stedsnr" v="271987" />
	</node>
	<node id="-19353" lat="59.3812583304" lon="10.6498055576">
		<tag k="fixme" v="consider seamark:type=rock or natural=shoal" />
		<tag k="name" v="Fuglevikskjæret" />
		<tag k="place" v="islet" />
		<tag k="ssr:stedsnr" v="271911" />
	</node>
	<node id="-19352" lat="59.3026944421" lon="10.6985499968">
		<tag k="fixme" v="consider seamark:type=rock or natural=shoal" />
		<tag k="name" v="Løndommen" />
		<tag k="place" v="islet" />
		<tag k="ssr:stedsnr" v="271819" />
	</node>
	<node id="-19351" lat="59.3188111075" lon="10.6796916706">
		<tag k="name" v="Taterberget" />
		<tag k="natural" v="hill" />
		<tag k="place" v="locality" />
		<tag k="ssr:stedsnr" v="271142" />
	</node>
	<node id="-19350" lat="59.3776166628" lon="10.7503416742">
		<tag k="name" v="Rygge" />
		<tag k="place" v="village" />
		<tag k="ssr:stedsnr" v="270339" />
	</node>
</osm>
