<?xml version="1.0" encoding="UTF-8"?>
<osm version="0.6" generator="osmapis">
	<node lat="67.50066944269547" lon="12.284433330949287" id="-21067">
		<tag k="name" v="Nordre Årnhansaskallen" />
		<tag k="natural" v="shoal" />
		<tag k="place" v="locality" />
		<tag k="ssr:date" v="2016-05-10" />
		<tag k="ssr:gruppe" v="grunnerISjø" />
		<tag k="ssr:hovedgruppe" v="sjø" />
		<tag k="ssr:stedsnr" v="230641" />
		<tag k="ssr:type" v="grunneISjø" />
	</node>
	<node lat="67.47597500374388" lon="12.006619437641735" id="-21068">
		<tag k="name" v="Måsfloget" />
		<tag k="natural" v="cliff" />
		<tag k="ssr:date" v="2016-05-10" />
		<tag k="ssr:gruppe" v="terrengdetaljer" />
		<tag k="ssr:hovedgruppe" v="terreng" />
		<tag k="ssr:stedsnr" v="231128" />
		<tag k="ssr:type" v="stup" />
	</node>
	<node lat="67.50320833101694" lon="11.980500003371583" id="-21069">
		<tag k="fixme" v="consider seamark:type=rock or natural=shoal" />
		<tag k="name" v="Kvittingen" />
		<tag k="place" v="islet" />
		<tag k="ssr:date" v="2016-05-10" />
		<tag k="ssr:gruppe" v="grunnerISjø" />
		<tag k="ssr:hovedgruppe" v="sjø" />
		<tag k="ssr:stedsnr" v="231815" />
		<tag k="ssr:type" v="skjærISjø" />
	</node>
	<node lat="67.46643333569159" lon="11.94169444508695" id="-21070">
		<tag k="name" v="Nord-Måslia" />
		<tag k="natural" v="slope" />
		<tag k="place" v="locality" />
		<tag k="ssr:date" v="2016-05-10" />
		<tag k="ssr:gruppe" v="skråninger" />
		<tag k="ssr:hovedgruppe" v="terreng" />
		<tag k="ssr:stedsnr" v="232047" />
		<tag k="ssr:type" v="li" />
	</node>
	<node lat="67.48160833044163" lon="12.045583330514276" id="-21071">
		<tag k="fixme" v="consider seamark:type=rock or natural=shoal" />
		<tag k="name" v="Draggan" />
		<tag k="place" v="islet" />
		<tag k="ssr:date" v="2016-05-10" />
		<tag k="ssr:gruppe" v="grunnerISjø" />
		<tag k="ssr:hovedgruppe" v="sjø" />
		<tag k="ssr:stedsnr" v="232059" />
		<tag k="ssr:type" v="skjærISjø" />
	</node>
	<node lat="67.48408333748588" lon="12.000869453879703" id="-21072">
		<tag k="fixme" v="consider seamark:type=rock or natural=shoal" />
		<tag k="name" v="Nordveggskjeret" />
		<tag k="place" v="islet" />
		<tag k="ssr:date" v="2016-05-10" />
		<tag k="ssr:gruppe" v="grunnerISjø" />
		<tag k="ssr:hovedgruppe" v="sjø" />
		<tag k="ssr:stedsnr" v="232869" />
		<tag k="ssr:type" v="skjærISjø" />
	</node>
	<node lat="67.47971944245572" lon="12.23170555445064" id="-21073">
		<tag k="name" v="Tørrfallan" />
		<tag k="natural" v="shoal" />
		<tag k="place" v="locality" />
		<tag k="ssr:date" v="2016-05-10" />
		<tag k="ssr:gruppe" v="grunnerISjø" />
		<tag k="ssr:hovedgruppe" v="sjø" />
		<tag k="ssr:stedsnr" v="17301" />
		<tag k="ssr:type" v="grunneISjø" />
	</node>
	<node lat="67.4781583345321" lon="12.054477782776805" id="-21074">
		<tag k="fixme" v="consider seamark:type=rock or natural=shoal" />
		<tag k="name" v="Djupskjeret" />
		<tag k="place" v="islet" />
		<tag k="ssr:date" v="2016-05-10" />
		<tag k="ssr:gruppe" v="grunnerISjø" />
		<tag k="ssr:hovedgruppe" v="sjø" />
		<tag k="ssr:stedsnr" v="17305" />
		<tag k="ssr:type" v="skjærISjø" />
	</node>
	<node lat="67.43599444049033" lon="11.898513899922357" id="-21075">
		<tag k="name" v="Spjuten" />
		<tag k="natural" v="hill" />
		<tag k="place" v="locality" />
		<tag k="ssr:date" v="2016-05-10" />
		<tag k="ssr:gruppe" v="høyder" />
		<tag k="ssr:hovedgruppe" v="terreng" />
		<tag k="ssr:stedsnr" v="17308" />
		<tag k="ssr:type" v="haug" />
	</node>
	<node lat="67.43643611436941" lon="11.887349996531595" id="-21076">
		<tag k="alt_name" v="Breidnyken" />
		<tag k="fixme" v="multiple name tags, choose one and add the other to alt_name" />
		<tag k="name" v="Breien;Breinyken" />
		<tag k="natural" v="hill" />
		<tag k="place" v="locality" />
		<tag k="ssr:date" v="2016-05-10" />
		<tag k="ssr:gruppe" v="høyder" />
		<tag k="ssr:hovedgruppe" v="terreng" />
		<tag k="ssr:stedsnr" v="17311" />
		<tag k="ssr:type" v="haug" />
	</node>
	<node lat="67.4535249982566" lon="11.928930552320862" id="-21077">
		<tag k="alt_name" v="Råknesodden;Råkneset" />
		<tag k="name" v="Rokknesodden" />
		<tag k="natural" v="cape" />
		<tag k="ssr:date" v="2016-05-10" />
		<tag k="ssr:gruppe" v="kystkontur" />
		<tag k="ssr:hovedgruppe" v="sjø" />
		<tag k="ssr:stedsnr" v="17315" />
		<tag k="ssr:type" v="nesISjø" />
	</node>
	<node lat="67.41019166607943" lon="11.865508337835912" id="-21078">
		<tag k="alt_name" v="Rundskjeret" />
		<tag k="fixme" v="consider seamark:type=rock or natural=shoal" />
		<tag k="name" v="Rundskjerholmen" />
		<tag k="place" v="islet" />
		<tag k="ssr:date" v="2016-05-10" />
		<tag k="ssr:gruppe" v="grunnerISjø" />
		<tag k="ssr:hovedgruppe" v="sjø" />
		<tag k="ssr:stedsnr" v="17325" />
		<tag k="ssr:type" v="skjærISjø" />
	</node>
	<node lat="67.4100207001112" lon="11.874632354275793" id="-21079">
		<tag k="name" v="Skomvær" />
		<tag k="place" v="island" />
		<tag k="ssr:date" v="2020-03-05" />
		<tag k="ssr:gruppe" v="kystkontur" />
		<tag k="ssr:hovedgruppe" v="sjø" />
		<tag k="ssr:stedsnr" v="17326" />
		<tag k="ssr:type" v="øyISjø" />
	</node>
	<node lat="67.52706944485745" lon="12.178394449551838" id="-21080">
		<tag k="alt_name" v="Måsklubben" />
		<tag k="name" v="Måsklubban" />
		<tag k="place" v="islet" />
		<tag k="ssr:date" v="2016-05-10" />
		<tag k="ssr:gruppe" v="kystkontur" />
		<tag k="ssr:hovedgruppe" v="sjø" />
		<tag k="ssr:stedsnr" v="17355" />
		<tag k="ssr:type" v="holmeISjø" />
	</node>
	<node lat="67.51524223205917" lon="12.08717049796261" id="-21081">
		<tag k="fixme" v="consider place=hamlet" />
		<tag k="name" v="Brasen" />
		<tag k="place" v="farm" />
		<tag k="ssr:date" v="2020-03-06" />
		<tag k="ssr:gruppe" v="gardsbebyggelse" />
		<tag k="ssr:hovedgruppe" v="bebyggelse" />
		<tag k="ssr:stedsnr" v="17362" />
		<tag k="ssr:type" v="gard" />
	</node>
	<node lat="67.51628055684364" lon="12.140769442859282" id="-21082">
		<tag k="fixme" v="consider seamark:type=rock or natural=shoal" />
		<tag k="name" v="Katta" />
		<tag k="place" v="islet" />
		<tag k="ssr:date" v="2016-05-10" />
		<tag k="ssr:gruppe" v="grunnerISjø" />
		<tag k="ssr:hovedgruppe" v="sjø" />
		<tag k="ssr:stedsnr" v="17365" />
		<tag k="ssr:type" v="skjærISjø" />
	</node>
	<node lat="67.48443889107095" lon="11.860744437028842" id="-21083">
		<tag k="name" v="Nordskjortbaken" />
		<tag k="natural" v="shoal" />
		<tag k="place" v="locality" />
		<tag k="ssr:date" v="2016-05-10" />
		<tag k="ssr:gruppe" v="grunnerISjø" />
		<tag k="ssr:hovedgruppe" v="sjø" />
		<tag k="ssr:stedsnr" v="17404" />
		<tag k="ssr:type" v="grunneISjø" />
	</node>
	<node lat="67.52124166426208" lon="12.00373611840124" id="-21084">
		<tag k="alt_name" v="Havsauget" />
		<tag k="name" v="Havsøyet" />
		<tag k="natural" v="strait" />
		<tag k="ssr:date" v="2016-05-10" />
		<tag k="ssr:gruppe" v="kystkontur" />
		<tag k="ssr:hovedgruppe" v="sjø" />
		<tag k="ssr:stedsnr" v="17729" />
		<tag k="ssr:type" v="sundISjø" />
	</node>
	<node lat="67.38960277858283" lon="11.894552771595947" id="-21085">
		<tag k="name" v="Seitaren" />
		<tag k="natural" v="shoal" />
		<tag k="place" v="locality" />
		<tag k="ssr:date" v="2016-05-10" />
		<tag k="ssr:gruppe" v="grunnerISjø" />
		<tag k="ssr:hovedgruppe" v="sjø" />
		<tag k="ssr:stedsnr" v="48309" />
		<tag k="ssr:type" v="grunneISjø" />
	</node>
	<node lat="67.46005277759721" lon="11.92972223014212" id="-21086">
		<tag k="name" v="Vestdalen" />
		<tag k="natural" v="valley" />
		<tag k="place" v="locality" />
		<tag k="ssr:date" v="2016-05-10" />
		<tag k="ssr:gruppe" v="senkninger" />
		<tag k="ssr:hovedgruppe" v="terreng" />
		<tag k="ssr:stedsnr" v="50006" />
		<tag k="ssr:type" v="dal" />
	</node>
	<node lat="67.48153888464083" lon="12.010591670637629" id="-21087">
		<tag k="name" v="Melandsfloget" />
		<tag k="natural" v="cliff" />
		<tag k="ssr:date" v="2016-05-10" />
		<tag k="ssr:gruppe" v="terrengdetaljer" />
		<tag k="ssr:hovedgruppe" v="terreng" />
		<tag k="ssr:stedsnr" v="50088" />
		<tag k="ssr:type" v="stup" />
	</node>
	<node lat="67.52797499785667" lon="12.077244454622267" id="-21088">
		<tag k="fixme" v="consider seamark:type=rock or natural=shoal" />
		<tag k="name" v="Ørspengeren" />
		<tag k="place" v="islet" />
		<tag k="ssr:date" v="2016-05-10" />
		<tag k="ssr:gruppe" v="grunnerISjø" />
		<tag k="ssr:hovedgruppe" v="sjø" />
		<tag k="ssr:stedsnr" v="50677" />
		<tag k="ssr:type" v="skjærISjø" />
	</node>
	<node lat="67.51099444108608" lon="12.098627771454204" id="-21089">
		<tag k="name" v="Omundholmen" />
		<tag k="place" v="islet" />
		<tag k="ssr:date" v="2016-05-10" />
		<tag k="ssr:gruppe" v="kystkontur" />
		<tag k="ssr:hovedgruppe" v="sjø" />
		<tag k="ssr:stedsnr" v="50818" />
		<tag k="ssr:type" v="holmeISjø" />
	</node>
	<node lat="67.4669499991715" lon="12.19338055990946" id="-21090">
		<tag k="name" v="Hæssholmbakken" />
		<tag k="natural" v="shoal" />
		<tag k="place" v="locality" />
		<tag k="ssr:date" v="2016-05-10" />
		<tag k="ssr:gruppe" v="grunnerISjø" />
		<tag k="ssr:hovedgruppe" v="sjø" />
		<tag k="ssr:stedsnr" v="77273" />
		<tag k="ssr:type" v="grunneISjø" />
	</node>
	<node lat="67.52709753393538" lon="12.132278381268776" id="-21091">
		<tag k="alt_name" v="Nordneset;Nesset" />
		<tag k="name" v="Neset" />
		<tag k="place" v="hamlet" />
		<tag k="ssr:date" v="2020-03-06" />
		<tag k="ssr:gruppe" v="gardsbebyggelse" />
		<tag k="ssr:hovedgruppe" v="bebyggelse" />
		<tag k="ssr:stedsnr" v="77709" />
		<tag k="ssr:type" v="navnegard" />
	</node>
	<node lat="67.39919444746452" lon="11.846083337569585" id="-21092">
		<tag k="name" v="Flesbåan" />
		<tag k="natural" v="shoal" />
		<tag k="place" v="locality" />
		<tag k="ssr:date" v="2016-05-10" />
		<tag k="ssr:gruppe" v="grunnerISjø" />
		<tag k="ssr:hovedgruppe" v="sjø" />
		<tag k="ssr:stedsnr" v="78310" />
		<tag k="ssr:type" v="grunneISjø" />
	</node>
	<node lat="67.50648611379582" lon="12.011661119661097" id="-21093">
		<tag k="alt_name" v="Kjerringholmen" />
		<tag k="name" v="Kjerringskjeret" />
		<tag k="place" v="islet" />
		<tag k="ssr:date" v="2016-05-10" />
		<tag k="ssr:gruppe" v="kystkontur" />
		<tag k="ssr:hovedgruppe" v="sjø" />
		<tag k="ssr:stedsnr" v="78315" />
		<tag k="ssr:type" v="holmeISjø" />
	</node>
	<node lat="67.50759444458788" lon="12.149255556296902" id="-21094">
		<tag k="alt_name" v="Helløyan" />
		<tag k="name" v="Helløya" />
		<tag k="place" v="islet" />
		<tag k="ssr:date" v="2016-05-10" />
		<tag k="ssr:gruppe" v="kystkontur" />
		<tag k="ssr:hovedgruppe" v="sjø" />
		<tag k="ssr:stedsnr" v="78325" />
		<tag k="ssr:type" v="holmeISjø" />
	</node>
	<node lat="67.49187499770893" lon="12.284080556701774" id="-21095">
		<tag k="name" v="Søre Årnhansaskallen" />
		<tag k="natural" v="shoal" />
		<tag k="place" v="locality" />
		<tag k="ssr:date" v="2016-05-10" />
		<tag k="ssr:gruppe" v="grunnerISjø" />
		<tag k="ssr:hovedgruppe" v="sjø" />
		<tag k="ssr:stedsnr" v="109622" />
		<tag k="ssr:type" v="grunneISjø" />
	</node>
	<node lat="67.50931944217803" lon="12.055616674707123" id="-21096">
		<tag k="name" v="Steinsøya" />
		<tag k="place" v="islet" />
		<tag k="ssr:date" v="2016-05-10" />
		<tag k="ssr:gruppe" v="kystkontur" />
		<tag k="ssr:hovedgruppe" v="sjø" />
		<tag k="ssr:stedsnr" v="110803" />
		<tag k="ssr:type" v="holmeISjø" />
	</node>
	<node lat="67.45287222233362" lon="11.910958332715795" id="-21097">
		<tag k="name" v="Nord-Sandøyholman" />
		<tag k="place" v="islet" />
		<tag k="ssr:date" v="2016-05-10" />
		<tag k="ssr:gruppe" v="kystkontur" />
		<tag k="ssr:hovedgruppe" v="sjø" />
		<tag k="ssr:stedsnr" v="111003" />
		<tag k="ssr:type" v="holmeISjø" />
	</node>
	<node lat="67.52171388702233" lon="12.118097220716834" id="-21098">
		<tag k="name" v="Gråsonen" />
		<tag k="place" v="quarter" />
		<tag k="ssr:date" v="2016-05-10" />
		<tag k="ssr:gruppe" v="bebyggelsesområder" />
		<tag k="ssr:hovedgruppe" v="bebyggelse" />
		<tag k="ssr:stedsnr" v="111520" />
		<tag k="ssr:type" v="boligfelt" />
	</node>
	<node lat="67.52339444682933" lon="12.141627781816114" id="-21099">
		<tag k="name" v="Skausundskjeret" />
		<tag k="place" v="islet" />
		<tag k="ssr:date" v="2016-05-10" />
		<tag k="ssr:gruppe" v="kystkontur" />
		<tag k="ssr:hovedgruppe" v="sjø" />
		<tag k="ssr:stedsnr" v="111683" />
		<tag k="ssr:type" v="holmeISjø" />
	</node>
	<node lat="67.52814722542313" lon="12.139041657239941" id="-21100">
		<tag k="barrier" v="fence" />
		<tag k="name" v="Bakk-gjerdet" />
		<tag k="ssr:date" v="2016-05-10" />
		<tag k="ssr:gruppe" v="gardsbebyggelse" />
		<tag k="ssr:hovedgruppe" v="bebyggelse" />
		<tag k="ssr:stedsnr" v="111688" />
		<tag k="ssr:type" v="gjerde" />
	</node>
	<node lat="67.5322499971795" lon="12.097747219736764" id="-21101">
		<tag k="name" v="Langneset" />
		<tag k="natural" v="cape" />
		<tag k="ssr:date" v="2016-05-10" />
		<tag k="ssr:gruppe" v="kystkontur" />
		<tag k="ssr:hovedgruppe" v="sjø" />
		<tag k="ssr:stedsnr" v="137657" />
		<tag k="ssr:type" v="nesISjø" />
	</node>
	<node lat="67.42708889069229" lon="12.002113881562853" id="-21102">
		<tag k="fixme" v="consider seamark:type=rock or natural=shoal" />
		<tag k="name" v="Fiskflesa" />
		<tag k="place" v="islet" />
		<tag k="ssr:date" v="2016-05-10" />
		<tag k="ssr:gruppe" v="grunnerISjø" />
		<tag k="ssr:hovedgruppe" v="sjø" />
		<tag k="ssr:stedsnr" v="138315" />
		<tag k="ssr:type" v="skjærISjø" />
	</node>
	<node lat="67.43200000358517" lon="11.883844455094692" id="-21103">
		<tag k="name" v="Hærnykflaget" />
		<tag k="natural" v="bay" />
		<tag k="ssr:date" v="2016-05-10" />
		<tag k="ssr:gruppe" v="kystkontur" />
		<tag k="ssr:hovedgruppe" v="sjø" />
		<tag k="ssr:stedsnr" v="138316" />
		<tag k="ssr:type" v="vikISjø" />
	</node>
	<node lat="67.42512777797401" lon="11.959552783394795" id="-21104">
		<tag k="name" v="Engelskmannsgrunnen" />
		<tag k="natural" v="shoal" />
		<tag k="place" v="locality" />
		<tag k="ssr:date" v="2016-05-10" />
		<tag k="ssr:gruppe" v="grunnerISjø" />
		<tag k="ssr:hovedgruppe" v="sjø" />
		<tag k="ssr:stedsnr" v="138318" />
		<tag k="ssr:type" v="grunneISjø" />
	</node>
	<node lat="67.49548333551171" lon="12.216697218879382" id="-21105">
		<tag k="name" v="Vestrenupsbåen" />
		<tag k="natural" v="shoal" />
		<tag k="place" v="locality" />
		<tag k="ssr:date" v="2016-05-10" />
		<tag k="ssr:gruppe" v="grunnerISjø" />
		<tag k="ssr:hovedgruppe" v="sjø" />
		<tag k="ssr:stedsnr" v="138391" />
		<tag k="ssr:type" v="grunneISjø" />
	</node>
	<node lat="67.52033332897496" lon="12.250241676149647" id="-21106">
		<tag k="name" v="Persbåan" />
		<tag k="natural" v="shoal" />
		<tag k="place" v="locality" />
		<tag k="ssr:date" v="2016-05-10" />
		<tag k="ssr:gruppe" v="grunnerISjø" />
		<tag k="ssr:hovedgruppe" v="sjø" />
		<tag k="ssr:stedsnr" v="258439" />
		<tag k="ssr:type" v="grunneISjø" />
	</node>
	<node lat="67.513144445856" lon="12.06273611882206" id="-21107">
		<tag k="alt_name" v="Medøya" />
		<tag k="name" v="Meøya" />
		<tag k="place" v="islet" />
		<tag k="ssr:date" v="2016-05-10" />
		<tag k="ssr:gruppe" v="kystkontur" />
		<tag k="ssr:hovedgruppe" v="sjø" />
		<tag k="ssr:stedsnr" v="259297" />
		<tag k="ssr:type" v="holmeISjø" />
	</node>
	<node lat="67.50684444088475" lon="12.113258321818352" id="-21109">
		<tag k="fixme" v="multiple name tags, choose one and add the other to alt_name; consider seamark:type=rock or natural=shoal" />
		<tag k="name" v="Sandskjeret;Marskjerløkta" />
		<tag k="place" v="islet" />
		<tag k="ssr:date" v="2016-05-10" />
		<tag k="ssr:gruppe" v="grunnerISjø" />
		<tag k="ssr:hovedgruppe" v="sjø" />
		<tag k="ssr:stedsnr" v="259338" />
		<tag k="ssr:type" v="skjærISjø" />
	</node>
	<node lat="67.5014361109657" lon="12.061163885496947" id="-21110">
		<tag k="fixme" v="consider seamark:type=rock or natural=shoal" />
		<tag k="name" v="Trettskjeret" />
		<tag k="place" v="islet" />
		<tag k="ssr:date" v="2016-05-10" />
		<tag k="ssr:gruppe" v="grunnerISjø" />
		<tag k="ssr:hovedgruppe" v="sjø" />
		<tag k="ssr:stedsnr" v="259347" />
		<tag k="ssr:type" v="skjærISjø" />
	</node>
	<node lat="67.48464722213413" lon="11.9129999981865" id="-21111">
		<tag k="name" v="Indrelåtra" />
		<tag k="place" v="islet" />
		<tag k="ssr:date" v="2016-05-10" />
		<tag k="ssr:gruppe" v="kystkontur" />
		<tag k="ssr:hovedgruppe" v="sjø" />
		<tag k="ssr:stedsnr" v="260412" />
		<tag k="ssr:type" v="holmeISjø" />
	</node>
	<node lat="67.47082777461036" lon="12.151266675417078" id="-21112">
		<tag k="name" v="Hæssholmbelan" />
		<tag k="natural" v="shoal" />
		<tag k="place" v="locality" />
		<tag k="ssr:date" v="2016-05-10" />
		<tag k="ssr:gruppe" v="grunnerISjø" />
		<tag k="ssr:hovedgruppe" v="sjø" />
		<tag k="ssr:stedsnr" v="260329" />
		<tag k="ssr:type" v="grunneISjø" />
	</node>
	<node lat="67.50253610996688" lon="12.140211106632401" id="-21113">
		<tag k="alt_name" v="Littj-Kårklakken" />
		<tag k="name" v="Litlkårklakken" />
		<tag k="place" v="islet" />
		<tag k="ssr:date" v="2016-05-10" />
		<tag k="ssr:gruppe" v="kystkontur" />
		<tag k="ssr:hovedgruppe" v="sjø" />
		<tag k="ssr:stedsnr" v="260379" />
		<tag k="ssr:type" v="holmeISjø" />
	</node>
	<node lat="67.50250833570944" lon="12.091216663292949" id="-21114">
		<tag k="name" v="Lamholmen" />
		<tag k="place" v="islet" />
		<tag k="ssr:date" v="2016-05-10" />
		<tag k="ssr:gruppe" v="kystkontur" />
		<tag k="ssr:hovedgruppe" v="sjø" />
		<tag k="ssr:stedsnr" v="260386" />
		<tag k="ssr:type" v="holmeISjø" />
	</node>
	<node lat="67.48571944729018" lon="12.019269438404253" id="-21115">
		<tag k="alt_name" v="Grindskjeret" />
		<tag k="fixme" v="consider seamark:type=rock or natural=shoal" />
		<tag k="name" v="Grindskjeran" />
		<tag k="place" v="islet" />
		<tag k="ssr:date" v="2016-05-10" />
		<tag k="ssr:gruppe" v="grunnerISjø" />
		<tag k="ssr:hovedgruppe" v="sjø" />
		<tag k="ssr:stedsnr" v="260393" />
		<tag k="ssr:type" v="skjærISjø" />
	</node>
	<node lat="67.52485555469605" lon="11.975733330609495" id="-21116">
		<tag k="alt_name" v="Tørrbåen" />
		<tag k="name" v="Tørrbøen" />
		<tag k="natural" v="shoal" />
		<tag k="place" v="locality" />
		<tag k="ssr:date" v="2016-05-10" />
		<tag k="ssr:gruppe" v="grunnerISjø" />
		<tag k="ssr:hovedgruppe" v="sjø" />
		<tag k="ssr:stedsnr" v="260738" />
		<tag k="ssr:type" v="grunneISjø" />
	</node>
	<node lat="67.54064999977838" lon="12.16886666188824" id="-21117">
		<tag k="fixme" v="consider seamark:type=rock or natural=shoal" />
		<tag k="name" v="Storflesa" />
		<tag k="place" v="islet" />
		<tag k="ssr:date" v="2016-05-10" />
		<tag k="ssr:gruppe" v="grunnerISjø" />
		<tag k="ssr:hovedgruppe" v="sjø" />
		<tag k="ssr:stedsnr" v="260744" />
		<tag k="ssr:type" v="skjærISjø" />
	</node>
	<node lat="67.40703055840403" lon="11.942786108438689" id="-21118">
		<tag k="fixme" v="consider seamark:type=rock or natural=shoal" />
		<tag k="name" v="Austskjeret" />
		<tag k="place" v="islet" />
		<tag k="ssr:date" v="2016-05-10" />
		<tag k="ssr:gruppe" v="grunnerISjø" />
		<tag k="ssr:hovedgruppe" v="sjø" />
		<tag k="ssr:stedsnr" v="170618" />
		<tag k="ssr:type" v="skjærISjø" />
	</node>
	<node lat="67.45844721960675" lon="11.930883334091396" id="-21119">
		<tag k="name" v="Austdalsberget" />
		<tag k="natural" v="cliff" />
		<tag k="ssr:date" v="2016-05-10" />
		<tag k="ssr:gruppe" v="terrengdetaljer" />
		<tag k="ssr:hovedgruppe" v="terreng" />
		<tag k="ssr:stedsnr" v="171005" />
		<tag k="ssr:type" v="stup" />
	</node>
	<node lat="67.50725277554324" lon="12.072694454696107" id="-21120">
		<tag k="fixme" v="consider seamark:type=rock or natural=shoal" />
		<tag k="name" v="Gleaskjeret" />
		<tag k="place" v="islet" />
		<tag k="ssr:date" v="2016-05-10" />
		<tag k="ssr:gruppe" v="grunnerISjø" />
		<tag k="ssr:hovedgruppe" v="sjø" />
		<tag k="ssr:stedsnr" v="171807" />
		<tag k="ssr:type" v="skjærISjø" />
	</node>
	<node lat="67.52828333734172" lon="12.126075003512112" id="-21121">
		<tag k="name" v="Sandbergan" />
		<tag k="place" v="locality" />
		<tag k="ssr:date" v="2016-05-10" />
		<tag k="ssr:gruppe" v="bartFjell" />
		<tag k="ssr:hovedgruppe" v="markslag" />
		<tag k="ssr:stedsnr" v="171756" />
		<tag k="ssr:type" v="fjellIDagen" />
	</node>
	<node lat="67.51920555325685" lon="12.208027766551593" id="-21122">
		<tag k="fixme" v="consider seamark:type=rock or natural=shoal" />
		<tag k="name" v="Svartskjeret" />
		<tag k="place" v="islet" />
		<tag k="ssr:date" v="2016-05-10" />
		<tag k="ssr:gruppe" v="grunnerISjø" />
		<tag k="ssr:hovedgruppe" v="sjø" />
		<tag k="ssr:stedsnr" v="199315" />
		<tag k="ssr:type" v="skjærISjø" />
	</node>
	<node lat="67.516841665083" lon="12.033713887471219" id="-21123">
		<tag k="fixme" v="consider seamark:type=rock or natural=shoal" />
		<tag k="name" v="Leiskjeret" />
		<tag k="place" v="islet" />
		<tag k="ssr:date" v="2016-05-10" />
		<tag k="ssr:gruppe" v="grunnerISjø" />
		<tag k="ssr:hovedgruppe" v="sjø" />
		<tag k="ssr:stedsnr" v="199325" />
		<tag k="ssr:type" v="skjærISjø" />
	</node>
	<node lat="67.50500555909656" lon="12.020313879553502" id="-21125">
		<tag k="fixme" v="consider seamark:type=rock or natural=shoal" />
		<tag k="name" v="Flatskjeret" />
		<tag k="place" v="islet" />
		<tag k="ssr:date" v="2016-05-10" />
		<tag k="ssr:gruppe" v="grunnerISjø" />
		<tag k="ssr:hovedgruppe" v="sjø" />
		<tag k="ssr:stedsnr" v="199354" />
		<tag k="ssr:type" v="skjærISjø" />
	</node>
	<node lat="67.48674166389881" lon="12.03985556381704" id="-21126">
		<tag k="fixme" v="consider seamark:type=rock or natural=shoal" />
		<tag k="name" v="Skarvskjeret" />
		<tag k="place" v="islet" />
		<tag k="ssr:date" v="2016-05-10" />
		<tag k="ssr:gruppe" v="grunnerISjø" />
		<tag k="ssr:hovedgruppe" v="sjø" />
		<tag k="ssr:stedsnr" v="199365" />
		<tag k="ssr:type" v="skjærISjø" />
	</node>
	<node lat="67.4877027800327" lon="12.123422222234064" id="-21127">
		<tag k="name" v="Stongholmbåen" />
		<tag k="natural" v="shoal" />
		<tag k="place" v="locality" />
		<tag k="ssr:date" v="2016-05-10" />
		<tag k="ssr:gruppe" v="grunnerISjø" />
		<tag k="ssr:hovedgruppe" v="sjø" />
		<tag k="ssr:stedsnr" v="199369" />
		<tag k="ssr:type" v="grunneISjø" />
	</node>
	<node lat="67.49336944203844" lon="12.066019445825994" id="-21128">
		<tag k="alt_name" v="Værholmen" />
		<tag k="name" v="Verholmen" />
		<tag k="place" v="islet" />
		<tag k="ssr:date" v="2016-05-10" />
		<tag k="ssr:gruppe" v="kystkontur" />
		<tag k="ssr:hovedgruppe" v="sjø" />
		<tag k="ssr:stedsnr" v="199372" />
		<tag k="ssr:type" v="holmeISjø" />
	</node>
	<node lat="67.49232500266356" lon="12.13143611912484" id="-21129">
		<tag k="fixme" v="consider seamark:type=rock or natural=shoal" />
		<tag k="name" v="Vestremyrflesa" />
		<tag k="place" v="islet" />
		<tag k="ssr:date" v="2016-05-10" />
		<tag k="ssr:gruppe" v="grunnerISjø" />
		<tag k="ssr:hovedgruppe" v="sjø" />
		<tag k="ssr:stedsnr" v="199376" />
		<tag k="ssr:type" v="skjærISjø" />
	</node>
	<node lat="67.48449444088466" lon="11.959977773501132" id="-21130">
		<tag k="name" v="Vannesholmen" />
		<tag k="place" v="islet" />
		<tag k="ssr:date" v="2016-05-10" />
		<tag k="ssr:gruppe" v="kystkontur" />
		<tag k="ssr:hovedgruppe" v="sjø" />
		<tag k="ssr:stedsnr" v="199379" />
		<tag k="ssr:type" v="holmeISjø" />
	</node>
	<node lat="67.53069166238866" lon="12.19549166856731" id="-21131">
		<tag k="bay" v="fjord" />
		<tag k="name" v="Indreråsa" />
		<tag k="natural" v="bay" />
		<tag k="ssr:date" v="2016-05-10" />
		<tag k="ssr:gruppe" v="farvann" />
		<tag k="ssr:hovedgruppe" v="sjø" />
		<tag k="ssr:stedsnr" v="199704" />
		<tag k="ssr:type" v="fjord" />
	</node>
	<node lat="67.53333055893276" lon="12.192230549018456" id="-21132">
		<tag k="bay" v="fjord" />
		<tag k="name" v="Ytreråsa" />
		<tag k="natural" v="bay" />
		<tag k="ssr:date" v="2016-05-10" />
		<tag k="ssr:gruppe" v="farvann" />
		<tag k="ssr:hovedgruppe" v="sjø" />
		<tag k="ssr:stedsnr" v="199706" />
		<tag k="ssr:type" v="fjord" />
	</node>
	<node lat="67.52721111174355" lon="12.0727305517966" id="-21133">
		<tag k="name" v="Sandøyra" />
		<tag k="place" v="island" />
		<tag k="ssr:date" v="2016-05-10" />
		<tag k="ssr:gruppe" v="kystkontur" />
		<tag k="ssr:hovedgruppe" v="sjø" />
		<tag k="ssr:stedsnr" v="199714" />
		<tag k="ssr:type" v="øyISjø" />
	</node>
	<node lat="67.49780833456518" lon="12.104330553046221" id="-21134">
		<tag k="alt_name" v="Littj-Sandøya" />
		<tag k="name" v="Litl-Sandøya" />
		<tag k="place" v="islet" />
		<tag k="ssr:date" v="2016-05-10" />
		<tag k="ssr:gruppe" v="kystkontur" />
		<tag k="ssr:hovedgruppe" v="sjø" />
		<tag k="ssr:stedsnr" v="232836" />
		<tag k="ssr:type" v="holmeISjø" />
	</node>
	<node lat="67.43825555763745" lon="11.944005549168384" id="-21135">
		<tag k="name" v="Langflesa" />
		<tag k="place" v="islet" />
		<tag k="ssr:date" v="2016-05-10" />
		<tag k="ssr:gruppe" v="kystkontur" />
		<tag k="ssr:hovedgruppe" v="sjø" />
		<tag k="ssr:stedsnr" v="259240" />
		<tag k="ssr:type" v="holmeISjø" />
	</node>
	<node lat="67.43531666225827" lon="11.892072226156255" id="-21136">
		<tag k="name" v="Trenyken" />
		<tag k="place" v="island" />
		<tag k="ssr:date" v="2016-05-10" />
		<tag k="ssr:gruppe" v="kystkontur" />
		<tag k="ssr:hovedgruppe" v="sjø" />
		<tag k="ssr:stedsnr" v="259242" />
		<tag k="ssr:type" v="øyISjø" />
	</node>
	<node lat="67.42183888754886" lon="11.93356388195884" id="-21138">
		<tag k="name" v="Buværflesa" />
		<tag k="natural" v="shoal" />
		<tag k="place" v="locality" />
		<tag k="ssr:date" v="2016-05-10" />
		<tag k="ssr:gruppe" v="grunnerISjø" />
		<tag k="ssr:hovedgruppe" v="sjø" />
		<tag k="ssr:stedsnr" v="259262" />
		<tag k="ssr:type" v="grunneISjø" />
	</node>
	<node lat="67.42864722255078" lon="11.885980546060642" id="-21139">
		<tag k="fixme" v="consider seamark:type=rock or natural=shoal" />
		<tag k="name" v="Flata" />
		<tag k="place" v="islet" />
		<tag k="ssr:date" v="2016-05-10" />
		<tag k="ssr:gruppe" v="grunnerISjø" />
		<tag k="ssr:hovedgruppe" v="sjø" />
		<tag k="ssr:stedsnr" v="259269" />
		<tag k="ssr:type" v="skjærISjø" />
	</node>
	<node lat="67.51634999874182" lon="12.157011099638549" id="-21140">
		<tag k="fixme" v="consider seamark:type=rock or natural=shoal" />
		<tag k="name" v="Leiskjeret" />
		<tag k="place" v="islet" />
		<tag k="ssr:date" v="2016-05-10" />
		<tag k="ssr:gruppe" v="grunnerISjø" />
		<tag k="ssr:hovedgruppe" v="sjø" />
		<tag k="ssr:stedsnr" v="259284" />
		<tag k="ssr:type" v="skjærISjø" />
	</node>
	<node lat="67.4009388891964" lon="11.92714167639857" id="-21141">
		<tag k="fixme" v="consider seamark:type=rock or natural=shoal" />
		<tag k="name" v="Kolbeinskjeret" />
		<tag k="place" v="islet" />
		<tag k="ssr:date" v="2016-05-10" />
		<tag k="ssr:gruppe" v="grunnerISjø" />
		<tag k="ssr:hovedgruppe" v="sjø" />
		<tag k="ssr:stedsnr" v="259285" />
		<tag k="ssr:type" v="skjærISjø" />
	</node>
	<node lat="67.40308055167574" lon="11.951983326230586" id="-21142">
		<tag k="fixme" v="consider seamark:type=rock or natural=shoal" />
		<tag k="name" v="Oddskjeret" />
		<tag k="place" v="islet" />
		<tag k="ssr:date" v="2016-05-10" />
		<tag k="ssr:gruppe" v="grunnerISjø" />
		<tag k="ssr:hovedgruppe" v="sjø" />
		<tag k="ssr:stedsnr" v="259289" />
		<tag k="ssr:type" v="skjærISjø" />
	</node>
	<node lat="67.52653055558523" lon="12.101927768995385" id="-21143">
		<tag k="aeroway" v="aerodrome" />
		<tag k="alt_name" v="Røst" />
		<tag k="name" v="Røst lufthavn" />
		<tag k="ssr:date" v="2016-05-10" />
		<tag k="ssr:gruppe" v="luftfart" />
		<tag k="ssr:hovedgruppe" v="infrastruktur" />
		<tag k="ssr:stedsnr" v="284080" />
		<tag k="ssr:type" v="flyplass" />
	</node>
	<node lat="67.53236944143073" lon="12.142694455768163" id="-21144">
		<tag k="name" v="Leibåen" />
		<tag k="natural" v="shoal" />
		<tag k="place" v="locality" />
		<tag k="ssr:date" v="2016-05-10" />
		<tag k="ssr:gruppe" v="grunnerISjø" />
		<tag k="ssr:hovedgruppe" v="sjø" />
		<tag k="ssr:stedsnr" v="291377" />
		<tag k="ssr:type" v="grunneISjø" />
	</node>
	<node lat="67.45937222078673" lon="11.923169438609412" id="-21145">
		<tag k="fixme" v="consider seamark:type=rock or natural=shoal" />
		<tag k="name" v="Vestdalsflua" />
		<tag k="place" v="islet" />
		<tag k="ssr:date" v="2016-05-10" />
		<tag k="ssr:gruppe" v="grunnerISjø" />
		<tag k="ssr:hovedgruppe" v="sjø" />
		<tag k="ssr:stedsnr" v="293008" />
		<tag k="ssr:type" v="skjærISjø" />
	</node>
	<node lat="67.45049999960209" lon="11.88234722929743" id="-21146">
		<tag k="name" v="Sør-Hudfatleia" />
		<tag k="natural" v="bay" />
		<tag k="ssr:date" v="2016-05-10" />
		<tag k="ssr:gruppe" v="farvann" />
		<tag k="ssr:hovedgruppe" v="sjø" />
		<tag k="ssr:stedsnr" v="293018" />
		<tag k="ssr:type" v="sjøstykke" />
	</node>
	<node lat="67.50363888849515" lon="12.056736109949002" id="-21147">
		<tag k="name" v="Prestholmen" />
		<tag k="place" v="islet" />
		<tag k="ssr:date" v="2016-05-10" />
		<tag k="ssr:gruppe" v="kystkontur" />
		<tag k="ssr:hovedgruppe" v="sjø" />
		<tag k="ssr:stedsnr" v="320307" />
		<tag k="ssr:type" v="holmeISjø" />
	</node>
	<node lat="67.4047972252476" lon="11.977736101104622" id="-21148">
		<tag k="name" v="Oddbåen" />
		<tag k="natural" v="shoal" />
		<tag k="place" v="locality" />
		<tag k="ssr:date" v="2016-05-10" />
		<tag k="ssr:gruppe" v="grunnerISjø" />
		<tag k="ssr:hovedgruppe" v="sjø" />
		<tag k="ssr:stedsnr" v="320310" />
		<tag k="ssr:type" v="grunneISjø" />
	</node>
	<node lat="67.51028611533265" lon="12.143372222036072" id="-21149">
		<tag k="alt_name" v="Ramnnakken" />
		<tag k="name" v="Ramnnakkan" />
		<tag k="place" v="islet" />
		<tag k="ssr:date" v="2016-05-10" />
		<tag k="ssr:gruppe" v="kystkontur" />
		<tag k="ssr:hovedgruppe" v="sjø" />
		<tag k="ssr:stedsnr" v="320333" />
		<tag k="ssr:type" v="holmeISjø" />
	</node>
	<node lat="67.51288611000709" lon="12.178855555198282" id="-21150">
		<tag k="alt_name" v="Hamklakken" />
		<tag k="name" v="Hamholmen" />
		<tag k="place" v="islet" />
		<tag k="ssr:date" v="2016-05-10" />
		<tag k="ssr:gruppe" v="kystkontur" />
		<tag k="ssr:hovedgruppe" v="sjø" />
		<tag k="ssr:stedsnr" v="320336" />
		<tag k="ssr:type" v="holmeISjø" />
	</node>
	<node lat="67.49956110898863" lon="12.114269442028013" id="-21151">
		<tag k="alt_name" v="Stongholmen" />
		<tag k="name" v="Stangholmen" />
		<tag k="place" v="islet" />
		<tag k="ssr:date" v="2016-05-10" />
		<tag k="ssr:gruppe" v="kystkontur" />
		<tag k="ssr:hovedgruppe" v="sjø" />
		<tag k="ssr:stedsnr" v="320347" />
		<tag k="ssr:type" v="holmeISjø" />
	</node>
	<node lat="67.43464444435295" lon="11.90296667446549" id="-21152">
		<tag k="fixme" v="consider seamark:type=rock or natural=shoal" />
		<tag k="name" v="Spjutskjeret" />
		<tag k="place" v="islet" />
		<tag k="ssr:date" v="2016-05-10" />
		<tag k="ssr:gruppe" v="grunnerISjø" />
		<tag k="ssr:hovedgruppe" v="sjø" />
		<tag k="ssr:stedsnr" v="320292" />
		<tag k="ssr:type" v="skjærISjø" />
	</node>
	<node lat="67.51888611129048" lon="12.115191670483867" id="-21153">
		<tag k="name" v="Golan" />
		<tag k="place" v="quarter" />
		<tag k="ssr:date" v="2016-05-10" />
		<tag k="ssr:gruppe" v="bebyggelsesområder" />
		<tag k="ssr:hovedgruppe" v="bebyggelse" />
		<tag k="ssr:stedsnr" v="353549" />
		<tag k="ssr:type" v="boligfelt" />
	</node>
	<node lat="67.40920277427378" lon="11.869461112554582" id="-21154">
		<tag k="alt_name" v="Littjskomvær" />
		<tag k="name" v="Litlskomvær" />
		<tag k="natural" v="cape" />
		<tag k="ssr:date" v="2016-05-10" />
		<tag k="ssr:gruppe" v="kystkontur" />
		<tag k="ssr:hovedgruppe" v="sjø" />
		<tag k="ssr:stedsnr" v="474624" />
		<tag k="ssr:type" v="nesISjø" />
	</node>
	<node lat="67.5047999957843" lon="11.951966677640959" id="-21155">
		<tag k="fixme" v="consider seamark:type=rock or natural=shoal" />
		<tag k="name" v="Låterungan" />
		<tag k="place" v="islet" />
		<tag k="ssr:date" v="2016-05-10" />
		<tag k="ssr:gruppe" v="grunnerISjø" />
		<tag k="ssr:hovedgruppe" v="sjø" />
		<tag k="ssr:stedsnr" v="474775" />
		<tag k="ssr:type" v="skjærISjø" />
	</node>
	<node lat="67.5087916627573" lon="11.96020832381988" id="-21156">
		<tag k="name" v="Låterskolten" />
		<tag k="place" v="islet" />
		<tag k="ssr:date" v="2016-05-10" />
		<tag k="ssr:gruppe" v="kystkontur" />
		<tag k="ssr:hovedgruppe" v="sjø" />
		<tag k="ssr:stedsnr" v="474778" />
		<tag k="ssr:type" v="holmeISjø" />
	</node>
	<node lat="67.50438611499061" lon="12.07548054953495" id="-21157">
		<tag k="fixme" v="consider seamark:type=rock or natural=shoal" />
		<tag k="name" v="Kårøyskjeret" />
		<tag k="place" v="islet" />
		<tag k="ssr:date" v="2016-05-10" />
		<tag k="ssr:gruppe" v="grunnerISjø" />
		<tag k="ssr:hovedgruppe" v="sjø" />
		<tag k="ssr:stedsnr" v="474799" />
		<tag k="ssr:type" v="skjærISjø" />
	</node>
	<node lat="67.5059694420184" lon="12.091677773688524" id="-21158">
		<tag k="name" v="Kankholmen" />
		<tag k="place" v="islet" />
		<tag k="ssr:date" v="2016-05-10" />
		<tag k="ssr:gruppe" v="kystkontur" />
		<tag k="ssr:hovedgruppe" v="sjø" />
		<tag k="ssr:stedsnr" v="474802" />
		<tag k="ssr:type" v="holmeISjø" />
	</node>
	<node lat="67.48112777537384" lon="12.019313882766411" id="-21159">
		<tag k="name" v="Vishellaren" />
		<tag k="place" v="locality" />
		<tag k="ssr:date" v="2016-05-10" />
		<tag k="ssr:gruppe" v="terrengdetaljer" />
		<tag k="ssr:hovedgruppe" v="terreng" />
		<tag k="ssr:stedsnr" v="475081" />
		<tag k="ssr:type" v="heller" />
	</node>
	<node lat="67.47366111119166" lon="12.038072223246328" id="-21160">
		<tag k="fixme" v="consider seamark:type=rock or natural=shoal" />
		<tag k="name" v="Rundskjeret" />
		<tag k="place" v="islet" />
		<tag k="ssr:date" v="2016-05-10" />
		<tag k="ssr:gruppe" v="grunnerISjø" />
		<tag k="ssr:hovedgruppe" v="sjø" />
		<tag k="ssr:stedsnr" v="475082" />
		<tag k="ssr:type" v="skjærISjø" />
	</node>
	<node lat="67.51716389305778" lon="12.12330833996656" id="-21161">
		<tag k="name" v="Vardhågen" />
		<tag k="natural" v="hill" />
		<tag k="place" v="locality" />
		<tag k="ssr:date" v="2016-05-10" />
		<tag k="ssr:gruppe" v="høyder" />
		<tag k="ssr:hovedgruppe" v="terreng" />
		<tag k="ssr:stedsnr" v="475542" />
		<tag k="ssr:type" v="haug" />
	</node>
	<node lat="67.51391944573541" lon="12.099847221925728" id="-21162">
		<tag k="name" v="Tenderhågen" />
		<tag k="natural" v="hill" />
		<tag k="place" v="locality" />
		<tag k="ssr:date" v="2016-05-10" />
		<tag k="ssr:gruppe" v="høyder" />
		<tag k="ssr:hovedgruppe" v="terreng" />
		<tag k="ssr:stedsnr" v="475847" />
		<tag k="ssr:type" v="haug" />
	</node>
	<node lat="67.51603055919462" lon="12.127294436840184" id="-21164">
		<tag k="name" v="Brygga" />
		<tag k="place" v="isolated_dwelling" />
		<tag k="ssr:date" v="2016-05-10" />
		<tag k="ssr:gruppe" v="bolighus" />
		<tag k="ssr:hovedgruppe" v="bebyggelse" />
		<tag k="ssr:stedsnr" v="380328" />
		<tag k="ssr:type" v="eneboligMindreBoligbygg" />
	</node>
	<node lat="67.40958055292171" lon="11.848583340747043" id="-21165">
		<tag k="fixme" v="consider seamark:type=rock or natural=shoal" />
		<tag k="name" v="Ormen" />
		<tag k="place" v="islet" />
		<tag k="ssr:date" v="2016-05-10" />
		<tag k="ssr:gruppe" v="grunnerISjø" />
		<tag k="ssr:hovedgruppe" v="sjø" />
		<tag k="ssr:stedsnr" v="380275" />
		<tag k="ssr:type" v="skjærISjø" />
	</node>
	<node lat="67.41133333400535" lon="11.84188332793672" id="-21166">
		<tag k="name" v="Vestskjerholmen" />
		<tag k="place" v="islet" />
		<tag k="ssr:date" v="2016-05-10" />
		<tag k="ssr:gruppe" v="kystkontur" />
		<tag k="ssr:hovedgruppe" v="sjø" />
		<tag k="ssr:stedsnr" v="380277" />
		<tag k="ssr:type" v="holmeISjø" />
	</node>
	<node lat="67.56591111025902" lon="12.30725834071632" id="-21167">
		<tag k="name" v="Klavestindskallen" />
		<tag k="natural" v="shoal" />
		<tag k="place" v="locality" />
		<tag k="ssr:date" v="2016-05-10" />
		<tag k="ssr:gruppe" v="grunnerISjø" />
		<tag k="ssr:hovedgruppe" v="sjø" />
		<tag k="ssr:stedsnr" v="380468" />
		<tag k="ssr:type" v="grunneISjø" />
	</node>
	<node lat="67.57219722499954" lon="12.24605834274332" id="-21168">
		<tag k="alt_name" v="Breidnykskallen" />
		<tag k="name" v="Breinykskallen" />
		<tag k="natural" v="shoal" />
		<tag k="place" v="locality" />
		<tag k="ssr:date" v="2016-05-10" />
		<tag k="ssr:gruppe" v="grunnerISjø" />
		<tag k="ssr:hovedgruppe" v="sjø" />
		<tag k="ssr:stedsnr" v="380469" />
		<tag k="ssr:type" v="grunneISjø" />
	</node>
	<node lat="67.54809166678142" lon="12.164061111104557" id="-21169">
		<tag k="name" v="Kumannsskallen" />
		<tag k="natural" v="shoal" />
		<tag k="place" v="locality" />
		<tag k="ssr:date" v="2016-05-10" />
		<tag k="ssr:gruppe" v="grunnerISjø" />
		<tag k="ssr:hovedgruppe" v="sjø" />
		<tag k="ssr:stedsnr" v="381731" />
		<tag k="ssr:type" v="grunneISjø" />
	</node>
	<node lat="67.38960555936754" lon="11.671691656284997" id="-21170">
		<tag k="name" v="Ytterskallan" />
		<tag k="natural" v="shoal" />
		<tag k="place" v="locality" />
		<tag k="ssr:date" v="2016-05-10" />
		<tag k="ssr:gruppe" v="grunnerISjø" />
		<tag k="ssr:hovedgruppe" v="sjø" />
		<tag k="ssr:stedsnr" v="412302" />
		<tag k="ssr:type" v="grunneISjø" />
	</node>
	<node lat="67.51835832904854" lon="12.185333328671701" id="-21171">
		<tag k="fixme" v="consider seamark:type=rock or natural=shoal" />
		<tag k="name" v="Store Brattskjeret" />
		<tag k="place" v="islet" />
		<tag k="ssr:date" v="2016-05-10" />
		<tag k="ssr:gruppe" v="grunnerISjø" />
		<tag k="ssr:hovedgruppe" v="sjø" />
		<tag k="ssr:stedsnr" v="412588" />
		<tag k="ssr:type" v="skjærISjø" />
	</node>
	<node lat="67.52674444301506" lon="12.11733333382781" id="-21172">
		<tag k="name" v="Kvalvågsletta" />
		<tag k="place" v="locality" />
		<tag k="ssr:date" v="2016-05-10" />
		<tag k="ssr:gruppe" v="flater" />
		<tag k="ssr:hovedgruppe" v="terreng" />
		<tag k="ssr:stedsnr" v="414519" />
		<tag k="ssr:type" v="slette" />
	</node>
	<node lat="67.46416667073183" lon="11.94651665969095" id="-21173">
		<tag k="name" v="Gurilian" />
		<tag k="natural" v="slope" />
		<tag k="place" v="locality" />
		<tag k="ssr:date" v="2016-05-10" />
		<tag k="ssr:gruppe" v="skråninger" />
		<tag k="ssr:hovedgruppe" v="terreng" />
		<tag k="ssr:stedsnr" v="414605" />
		<tag k="ssr:type" v="li" />
	</node>
	<node lat="67.51452499901096" lon="12.116497211455158" id="-21174">
		<tag k="name" v="Grav" />
		<tag k="place" v="locality" />
		<tag k="ssr:date" v="2016-05-10" />
		<tag k="ssr:gruppe" v="terrengdetaljer" />
		<tag k="ssr:hovedgruppe" v="terreng" />
		<tag k="ssr:stedsnr" v="414842" />
		<tag k="ssr:type" v="annenTerrengdetalj" />
	</node>
	<node lat="67.38576388819192" lon="11.721799999213463" id="-21175">
		<tag k="name" v="Nilspersaskallen" />
		<tag k="natural" v="shoal" />
		<tag k="place" v="locality" />
		<tag k="ssr:date" v="2016-05-10" />
		<tag k="ssr:gruppe" v="grunnerISjø" />
		<tag k="ssr:hovedgruppe" v="sjø" />
		<tag k="ssr:stedsnr" v="441303" />
		<tag k="ssr:type" v="grunneISjø" />
	</node>
	<node lat="67.37771388956608" lon="11.764436102255228" id="-21176">
		<tag k="name" v="Seiskallen" />
		<tag k="natural" v="shoal" />
		<tag k="place" v="locality" />
		<tag k="ssr:date" v="2016-05-10" />
		<tag k="ssr:gruppe" v="grunnerISjø" />
		<tag k="ssr:hovedgruppe" v="sjø" />
		<tag k="ssr:stedsnr" v="441290" />
		<tag k="ssr:type" v="grunneISjø" />
	</node>
	<node lat="67.51619444036669" lon="12.244219448409774" id="-21177">
		<tag k="alt_name" v="Brattklakken" />
		<tag k="fixme" v="consider seamark:type=rock or natural=shoal" />
		<tag k="name" v="Litle Brattklakken" />
		<tag k="place" v="islet" />
		<tag k="ssr:date" v="2016-05-10" />
		<tag k="ssr:gruppe" v="grunnerISjø" />
		<tag k="ssr:hovedgruppe" v="sjø" />
		<tag k="ssr:stedsnr" v="441441" />
		<tag k="ssr:type" v="skjærISjø" />
	</node>
	<node lat="67.52155555909239" lon="12.104513890077992" id="-21178">
		<tag k="name" v="Røst" />
		<tag k="place" v="island" />
		<tag k="ssr:date" v="2016-05-10" />
		<tag k="ssr:gruppe" v="kystkontur" />
		<tag k="ssr:hovedgruppe" v="sjø" />
		<tag k="ssr:stedsnr" v="441706" />
		<tag k="ssr:type" v="øyISjø" />
	</node>
	<node lat="67.5285361105542" lon="12.15709443837132" id="-21179">
		<tag k="name" v="Sandholmen" />
		<tag k="place" v="islet" />
		<tag k="ssr:date" v="2016-05-10" />
		<tag k="ssr:gruppe" v="kystkontur" />
		<tag k="ssr:hovedgruppe" v="sjø" />
		<tag k="ssr:stedsnr" v="441709" />
		<tag k="ssr:type" v="holmeISjø" />
	</node>
	<node lat="67.52764722561085" lon="12.113477768064051" id="-21180">
		<tag k="name" v="Valvågen" />
		<tag k="natural" v="cape" />
		<tag k="ssr:date" v="2016-05-10" />
		<tag k="ssr:gruppe" v="kystkontur" />
		<tag k="ssr:hovedgruppe" v="sjø" />
		<tag k="ssr:stedsnr" v="441712" />
		<tag k="ssr:type" v="nesISjø" />
	</node>
	<node lat="67.4807249958797" lon="12.191999995862504" id="-21181">
		<tag k="name" v="Skolhusbakken" />
		<tag k="natural" v="shoal" />
		<tag k="place" v="locality" />
		<tag k="ssr:date" v="2016-05-10" />
		<tag k="ssr:gruppe" v="grunnerISjø" />
		<tag k="ssr:hovedgruppe" v="sjø" />
		<tag k="ssr:stedsnr" v="442303" />
		<tag k="ssr:type" v="grunneISjø" />
	</node>
	<node lat="67.45732499695666" lon="11.927230563059565" id="-21182">
		<tag k="name" v="Austdalsskjeret" />
		<tag k="natural" v="cape" />
		<tag k="ssr:date" v="2016-05-10" />
		<tag k="ssr:gruppe" v="kystkontur" />
		<tag k="ssr:hovedgruppe" v="sjø" />
		<tag k="ssr:stedsnr" v="475007" />
		<tag k="ssr:type" v="nesISjø" />
	</node>
	<node lat="67.48074166314237" lon="12.0242694392104" id="-21183">
		<tag k="name" v="Smålian" />
		<tag k="natural" v="slope" />
		<tag k="place" v="locality" />
		<tag k="ssr:date" v="2016-05-10" />
		<tag k="ssr:gruppe" v="skråninger" />
		<tag k="ssr:hovedgruppe" v="terreng" />
		<tag k="ssr:stedsnr" v="475076" />
		<tag k="ssr:type" v="li" />
	</node>
	<node lat="67.44614999947731" lon="11.917116677865504" id="-21184">
		<tag k="fixme" v="consider seamark:type=rock or natural=shoal" />
		<tag k="name" v="Nord-Nasborskjeret" />
		<tag k="place" v="islet" />
		<tag k="ssr:date" v="2016-05-10" />
		<tag k="ssr:gruppe" v="grunnerISjø" />
		<tag k="ssr:hovedgruppe" v="sjø" />
		<tag k="ssr:stedsnr" v="475607" />
		<tag k="ssr:type" v="skjærISjø" />
	</node>
	<node lat="67.52661944051728" lon="12.142674988575997" id="-21185">
		<tag k="name" v="Nes-Sundskjeret" />
		<tag k="place" v="islet" />
		<tag k="ssr:date" v="2016-05-10" />
		<tag k="ssr:gruppe" v="kystkontur" />
		<tag k="ssr:hovedgruppe" v="sjø" />
		<tag k="ssr:stedsnr" v="475708" />
		<tag k="ssr:type" v="holmeISjø" />
	</node>
	<node lat="67.52158611073284" lon="12.004327769235838" id="-21186">
		<tag k="fixme" v="consider seamark:type=rock or natural=shoal" />
		<tag k="name" v="Ravnungen" />
		<tag k="place" v="islet" />
		<tag k="ssr:date" v="2016-05-10" />
		<tag k="ssr:gruppe" v="grunnerISjø" />
		<tag k="ssr:hovedgruppe" v="sjø" />
		<tag k="ssr:stedsnr" v="475718" />
		<tag k="ssr:type" v="skjærISjø" />
	</node>
	<node lat="67.51750555741958" lon="12.117427777352205" id="-21187">
		<tag k="name" v="Røst" />
		<tag k="place" v="village" />
		<tag k="ssr:date" v="2016-05-10" />
		<tag k="ssr:gruppe" v="bebyggelsesområder" />
		<tag k="ssr:hovedgruppe" v="bebyggelse" />
		<tag k="ssr:stedsnr" v="502282" />
		<tag k="ssr:type" v="tettsted" />
	</node>
	<node lat="67.39919444716669" lon="11.875838895463906" id="-21188">
		<tag k="name" v="Våtbåan" />
		<tag k="natural" v="shoal" />
		<tag k="place" v="locality" />
		<tag k="ssr:date" v="2016-05-10" />
		<tag k="ssr:gruppe" v="grunnerISjø" />
		<tag k="ssr:hovedgruppe" v="sjø" />
		<tag k="ssr:stedsnr" v="502285" />
		<tag k="ssr:type" v="grunneISjø" />
	</node>
	<node lat="67.5077972195178" lon="12.031172226744733" id="-21190">
		<tag k="name" v="Måøya" />
		<tag k="place" v="island" />
		<tag k="ssr:date" v="2016-05-10" />
		<tag k="ssr:gruppe" v="kystkontur" />
		<tag k="ssr:hovedgruppe" v="sjø" />
		<tag k="ssr:stedsnr" v="502298" />
		<tag k="ssr:type" v="øyISjø" />
	</node>
	<node lat="67.5234853487427" lon="12.129089729092838" id="-21191">
		<tag k="fixme" v="consider place=hamlet" />
		<tag k="name" v="Meland" />
		<tag k="place" v="farm" />
		<tag k="ssr:date" v="2020-03-06" />
		<tag k="ssr:gruppe" v="gardsbebyggelse" />
		<tag k="ssr:hovedgruppe" v="bebyggelse" />
		<tag k="ssr:stedsnr" v="502305" />
		<tag k="ssr:type" v="gard" />
	</node>
	<node lat="67.52503861209621" lon="12.136148636891551" id="-21192">
		<tag k="fixme" v="consider place=hamlet" />
		<tag k="name" v="Skau" />
		<tag k="place" v="farm" />
		<tag k="ssr:date" v="2020-03-06" />
		<tag k="ssr:gruppe" v="gardsbebyggelse" />
		<tag k="ssr:hovedgruppe" v="bebyggelse" />
		<tag k="ssr:stedsnr" v="502314" />
		<tag k="ssr:type" v="gard" />
	</node>
	<node lat="67.51064166705878" lon="12.196519453099466" id="-21193">
		<tag k="name" v="Blodskiten" />
		<tag k="natural" v="shoal" />
		<tag k="place" v="locality" />
		<tag k="ssr:date" v="2016-05-10" />
		<tag k="ssr:gruppe" v="grunnerISjø" />
		<tag k="ssr:hovedgruppe" v="sjø" />
		<tag k="ssr:stedsnr" v="502324" />
		<tag k="ssr:type" v="grunneISjø" />
	</node>
	<node lat="67.5128944424214" lon="12.173930562432979" id="-21194">
		<tag k="name" v="Skauholmen" />
		<tag k="place" v="islet" />
		<tag k="ssr:date" v="2016-05-10" />
		<tag k="ssr:gruppe" v="kystkontur" />
		<tag k="ssr:hovedgruppe" v="sjø" />
		<tag k="ssr:stedsnr" v="502329" />
		<tag k="ssr:type" v="holmeISjø" />
	</node>
	<node lat="67.52179722091275" lon="11.950688882490454" id="-21195">
		<tag k="bay" v="fjord" />
		<tag k="name" v="Alkskjerleia" />
		<tag k="natural" v="bay" />
		<tag k="ssr:date" v="2016-05-10" />
		<tag k="ssr:gruppe" v="farvann" />
		<tag k="ssr:hovedgruppe" v="sjø" />
		<tag k="ssr:stedsnr" v="502702" />
		<tag k="ssr:type" v="fjord" />
	</node>
	<node lat="67.52466667073001" lon="12.039619450228846" id="-21196">
		<tag k="fixme" v="multiple name tags, choose one and add the other to alt_name" />
		<tag k="name" v="Storraudøya;Rødøya" />
		<tag k="place" v="island" />
		<tag k="ssr:date" v="2016-05-10" />
		<tag k="ssr:gruppe" v="kystkontur" />
		<tag k="ssr:hovedgruppe" v="sjø" />
		<tag k="ssr:stedsnr" v="502705" />
		<tag k="ssr:type" v="øyISjø" />
	</node>
	<node lat="67.53448055316146" lon="12.160199994586094" id="-21197">
		<tag k="name" v="Dragan" />
		<tag k="natural" v="shoal" />
		<tag k="place" v="locality" />
		<tag k="ssr:date" v="2016-05-10" />
		<tag k="ssr:gruppe" v="grunnerISjø" />
		<tag k="ssr:hovedgruppe" v="sjø" />
		<tag k="ssr:stedsnr" v="502707" />
		<tag k="ssr:type" v="grunneISjø" />
	</node>
	<node lat="67.5379083326295" lon="11.984763887146402" id="-21198">
		<tag k="name" v="Helløybakken" />
		<tag k="natural" v="shoal" />
		<tag k="place" v="locality" />
		<tag k="ssr:date" v="2016-05-10" />
		<tag k="ssr:gruppe" v="grunnerISjø" />
		<tag k="ssr:hovedgruppe" v="sjø" />
		<tag k="ssr:stedsnr" v="502714" />
		<tag k="ssr:type" v="grunneISjø" />
	</node>
	<node lat="67.50182777481042" lon="12.250588889425813" id="-21199">
		<tag k="name" v="Skamlaustaren" />
		<tag k="natural" v="shoal" />
		<tag k="place" v="locality" />
		<tag k="ssr:date" v="2016-05-11" />
		<tag k="ssr:gruppe" v="grunnerISjø" />
		<tag k="ssr:hovedgruppe" v="sjø" />
		<tag k="ssr:stedsnr" v="683416" />
		<tag k="ssr:type" v="grunneISjø" />
	</node>
	<node lat="67.52845833526582" lon="12.24724721353951" id="-21200">
		<tag k="bay" v="fjord" />
		<tag k="name" v="Blomskjerleia" />
		<tag k="natural" v="bay" />
		<tag k="ssr:date" v="2016-05-11" />
		<tag k="ssr:gruppe" v="farvann" />
		<tag k="ssr:hovedgruppe" v="sjø" />
		<tag k="ssr:stedsnr" v="683419" />
		<tag k="ssr:type" v="fjord" />
	</node>
	<node lat="67.46998611524188" lon="11.927147216010837" id="-21201">
		<tag k="fixme" v="consider seamark:type=rock or natural=shoal" />
		<tag k="name" v="Slottet" />
		<tag k="place" v="islet" />
		<tag k="ssr:date" v="2016-05-11" />
		<tag k="ssr:gruppe" v="grunnerISjø" />
		<tag k="ssr:hovedgruppe" v="sjø" />
		<tag k="ssr:stedsnr" v="684273" />
		<tag k="ssr:type" v="skjærISjø" />
	</node>
	<node lat="67.47667499616692" lon="11.921786120114099" id="-21202">
		<tag k="fixme" v="consider seamark:type=rock or natural=shoal" />
		<tag k="name" v="Skarvskjeret" />
		<tag k="place" v="islet" />
		<tag k="ssr:date" v="2016-05-11" />
		<tag k="ssr:gruppe" v="grunnerISjø" />
		<tag k="ssr:hovedgruppe" v="sjø" />
		<tag k="ssr:stedsnr" v="684274" />
		<tag k="ssr:type" v="skjærISjø" />
	</node>
	<node lat="67.445102781824" lon="11.9151888984414" id="-21203">
		<tag k="alt_name" v="Nasborskjeret" />
		<tag k="fixme" v="consider seamark:type=rock or natural=shoal" />
		<tag k="name" v="Sør-Nasborskjeret" />
		<tag k="place" v="islet" />
		<tag k="ssr:date" v="2016-05-11" />
		<tag k="ssr:gruppe" v="grunnerISjø" />
		<tag k="ssr:hovedgruppe" v="sjø" />
		<tag k="ssr:stedsnr" v="684275" />
		<tag k="ssr:type" v="skjærISjø" />
	</node>
	<node lat="67.4632111132535" lon="11.765033336334746" id="-21204">
		<tag k="name" v="Sandskjerskallen" />
		<tag k="natural" v="shoal" />
		<tag k="place" v="locality" />
		<tag k="ssr:date" v="2016-05-11" />
		<tag k="ssr:gruppe" v="grunnerISjø" />
		<tag k="ssr:hovedgruppe" v="sjø" />
		<tag k="ssr:stedsnr" v="684280" />
		<tag k="ssr:type" v="grunneISjø" />
	</node>
	<node lat="67.45581388565603" lon="11.881602766538448" id="-21205">
		<tag k="alt_name" v="Hufatleia" />
		<tag k="name" v="Nord-Hudfatleia" />
		<tag k="natural" v="strait" />
		<tag k="ssr:date" v="2016-05-11" />
		<tag k="ssr:gruppe" v="kystkontur" />
		<tag k="ssr:hovedgruppe" v="sjø" />
		<tag k="ssr:stedsnr" v="684283" />
		<tag k="ssr:type" v="sundISjø" />
	</node>
	<node lat="67.46696666406379" lon="12.09658889140133" id="-21206">
		<tag k="name" v="Korsbakkbåen" />
		<tag k="natural" v="shoal" />
		<tag k="place" v="locality" />
		<tag k="ssr:date" v="2016-05-11" />
		<tag k="ssr:gruppe" v="grunnerISjø" />
		<tag k="ssr:hovedgruppe" v="sjø" />
		<tag k="ssr:stedsnr" v="684284" />
		<tag k="ssr:type" v="grunneISjø" />
	</node>
	<node lat="67.40681388536807" lon="11.864900001651796" id="-21207">
		<tag k="fixme" v="consider seamark:type=rock or natural=shoal" />
		<tag k="name" v="Steinen" />
		<tag k="place" v="islet" />
		<tag k="ssr:date" v="2016-05-11" />
		<tag k="ssr:gruppe" v="grunnerISjø" />
		<tag k="ssr:hovedgruppe" v="sjø" />
		<tag k="ssr:stedsnr" v="684288" />
		<tag k="ssr:type" v="skjærISjø" />
	</node>
	<node lat="67.43054721908537" lon="11.821297214944517" id="-21208">
		<tag k="fixme" v="consider seamark:type=rock or natural=shoal" />
		<tag k="name" v="Havbåen" />
		<tag k="place" v="islet" />
		<tag k="ssr:date" v="2016-05-11" />
		<tag k="ssr:gruppe" v="grunnerISjø" />
		<tag k="ssr:hovedgruppe" v="sjø" />
		<tag k="ssr:stedsnr" v="684291" />
		<tag k="ssr:type" v="skjærISjø" />
	</node>
	<node lat="67.51639603435345" lon="12.083657657519785" id="-21209">
		<tag k="alt_name" v="Ytstneset" />
		<tag k="fixme" v="consider place=hamlet" />
		<tag k="name" v="Ystneset" />
		<tag k="place" v="farm" />
		<tag k="ssr:date" v="2020-03-05" />
		<tag k="ssr:gruppe" v="gardsbebyggelse" />
		<tag k="ssr:hovedgruppe" v="bebyggelse" />
		<tag k="ssr:stedsnr" v="684337" />
		<tag k="ssr:type" v="gard" />
	</node>
	<node lat="67.50705555420181" lon="12.120452780355977" id="-21210">
		<tag k="name" v="Sørholmen" />
		<tag k="place" v="islet" />
		<tag k="ssr:date" v="2016-05-11" />
		<tag k="ssr:gruppe" v="kystkontur" />
		<tag k="ssr:hovedgruppe" v="sjø" />
		<tag k="ssr:stedsnr" v="684341" />
		<tag k="ssr:type" v="holmeISjø" />
	</node>
	<node lat="67.50744999738689" lon="12.125469441976554" id="-21211">
		<tag k="name" v="Nordholmen" />
		<tag k="place" v="islet" />
		<tag k="ssr:date" v="2016-05-11" />
		<tag k="ssr:gruppe" v="kystkontur" />
		<tag k="ssr:hovedgruppe" v="sjø" />
		<tag k="ssr:stedsnr" v="684342" />
		<tag k="ssr:type" v="holmeISjø" />
	</node>
	<node lat="67.50115833266298" lon="12.16884444235194" id="-21212">
		<tag k="name" v="Kråka" />
		<tag k="place" v="islet" />
		<tag k="ssr:date" v="2016-05-11" />
		<tag k="ssr:gruppe" v="kystkontur" />
		<tag k="ssr:hovedgruppe" v="sjø" />
		<tag k="ssr:stedsnr" v="684343" />
		<tag k="ssr:type" v="holmeISjø" />
	</node>
	<node lat="67.4940861131491" lon="11.940027777189114" id="-21213">
		<tag k="fixme" v="consider seamark:type=rock or natural=shoal" />
		<tag k="name" v="Øyra" />
		<tag k="place" v="islet" />
		<tag k="ssr:date" v="2016-05-11" />
		<tag k="ssr:gruppe" v="grunnerISjø" />
		<tag k="ssr:hovedgruppe" v="sjø" />
		<tag k="ssr:stedsnr" v="684345" />
		<tag k="ssr:type" v="skjærISjø" />
	</node>
	<node lat="67.52876111119956" lon="12.178497225132517" id="-21214">
		<tag k="alt_name" v="Nordre Leiskjeret" />
		<tag k="fixme" v="consider seamark:type=rock or natural=shoal" />
		<tag k="name" v="Leiskjeret" />
		<tag k="place" v="islet" />
		<tag k="ssr:date" v="2016-05-11" />
		<tag k="ssr:gruppe" v="grunnerISjø" />
		<tag k="ssr:hovedgruppe" v="sjø" />
		<tag k="ssr:stedsnr" v="684677" />
		<tag k="ssr:type" v="skjærISjø" />
	</node>
	<node lat="67.51725277936025" lon="11.876452779869807" id="-21215">
		<tag k="name" v="Foteggbakken" />
		<tag k="natural" v="shoal" />
		<tag k="place" v="locality" />
		<tag k="ssr:date" v="2016-05-11" />
		<tag k="ssr:gruppe" v="grunnerISjø" />
		<tag k="ssr:hovedgruppe" v="sjø" />
		<tag k="ssr:stedsnr" v="684681" />
		<tag k="ssr:type" v="grunneISjø" />
	</node>
	<node lat="67.54067500377757" lon="12.094294441357315" id="-21216">
		<tag k="alt_name" v="Nattvikskjeran" />
		<tag k="name" v="Nattvika" />
		<tag k="place" v="islet" />
		<tag k="ssr:date" v="2016-05-11" />
		<tag k="ssr:gruppe" v="kystkontur" />
		<tag k="ssr:hovedgruppe" v="sjø" />
		<tag k="ssr:stedsnr" v="684692" />
		<tag k="ssr:type" v="holmeISjø" />
	</node>
	<node lat="67.53385277531285" lon="11.992422211542676" id="-21217">
		<tag k="name" v="Einsteinen" />
		<tag k="natural" v="shoal" />
		<tag k="place" v="locality" />
		<tag k="ssr:date" v="2016-05-11" />
		<tag k="ssr:gruppe" v="grunnerISjø" />
		<tag k="ssr:hovedgruppe" v="sjø" />
		<tag k="ssr:stedsnr" v="684695" />
		<tag k="ssr:type" v="grunneISjø" />
	</node>
	<node lat="67.4762722234387" lon="12.032002773749245" id="-21218">
		<tag k="name" v="Sør-Teinholmen" />
		<tag k="place" v="islet" />
		<tag k="ssr:date" v="2016-05-10" />
		<tag k="ssr:gruppe" v="kystkontur" />
		<tag k="ssr:hovedgruppe" v="sjø" />
		<tag k="ssr:stedsnr" v="535067" />
		<tag k="ssr:type" v="holmeISjø" />
	</node>
	<node lat="67.48229722118906" lon="12.007980555849167" id="-21219">
		<tag k="name" v="Vestveggen" />
		<tag k="natural" v="cliff" />
		<tag k="ssr:date" v="2016-05-10" />
		<tag k="ssr:gruppe" v="terrengdetaljer" />
		<tag k="ssr:hovedgruppe" v="terreng" />
		<tag k="ssr:stedsnr" v="535082" />
		<tag k="ssr:type" v="stup" />
	</node>
	<node lat="67.5073777754216" lon="12.066294452140646" id="-21220">
		<tag k="alt_name" v="Littj-Glea" />
		<tag k="name" v="Litlglea" />
		<tag k="place" v="islet" />
		<tag k="ssr:date" v="2016-05-10" />
		<tag k="ssr:gruppe" v="kystkontur" />
		<tag k="ssr:hovedgruppe" v="sjø" />
		<tag k="ssr:stedsnr" v="535783" />
		<tag k="ssr:type" v="holmeISjø" />
	</node>
	<node lat="67.52600555206017" lon="12.1115083279864" id="-21221">
		<tag k="cemetery" v="grave" />
		<tag k="name" v="Kjerkgården" />
		<tag k="place" v="locality" />
		<tag k="ssr:date" v="2016-05-10" />
		<tag k="ssr:gruppe" v="kulturinstitusjoner" />
		<tag k="ssr:hovedgruppe" v="kultur" />
		<tag k="ssr:stedsnr" v="536518" />
		<tag k="ssr:type" v="gravplass" />
	</node>
	<node lat="67.52730555213643" lon="12.124666677002235" id="-21222">
		<tag k="name" v="Gammelkjerka" />
		<tag k="place" v="locality" />
		<tag k="ssr:date" v="2016-05-10" />
		<tag k="ssr:gruppe" v="kulturminner" />
		<tag k="ssr:hovedgruppe" v="kultur" />
		<tag k="ssr:stedsnr" v="536523" />
		<tag k="ssr:type" v="annenKulturdetalj" />
	</node>
	<node lat="67.50056944540698" lon="12.051105561336039" id="-21223">
		<tag k="name" v="Brødran" />
		<tag k="natural" v="shoal" />
		<tag k="place" v="locality" />
		<tag k="ssr:date" v="2016-05-10" />
		<tag k="ssr:gruppe" v="grunnerISjø" />
		<tag k="ssr:hovedgruppe" v="sjø" />
		<tag k="ssr:stedsnr" v="593318" />
		<tag k="ssr:type" v="grunneISjø" />
	</node>
	<node lat="67.49779722175639" lon="12.049222225234848" id="-21224">
		<tag k="name" v="Stabben" />
		<tag k="natural" v="shoal" />
		<tag k="place" v="locality" />
		<tag k="ssr:date" v="2016-05-10" />
		<tag k="ssr:gruppe" v="grunnerISjø" />
		<tag k="ssr:hovedgruppe" v="sjø" />
		<tag k="ssr:stedsnr" v="593320" />
		<tag k="ssr:type" v="grunneISjø" />
	</node>
	<node lat="67.56286666476916" lon="12.242733327708644" id="-21225">
		<tag k="name" v="Vestre Grunnskallen" />
		<tag k="natural" v="shoal" />
		<tag k="place" v="locality" />
		<tag k="ssr:date" v="2016-05-10" />
		<tag k="ssr:gruppe" v="grunnerISjø" />
		<tag k="ssr:hovedgruppe" v="sjø" />
		<tag k="ssr:stedsnr" v="594619" />
		<tag k="ssr:type" v="grunneISjø" />
	</node>
	<node lat="67.52057222661354" lon="12.009230558759763" id="-21226">
		<tag k="fixme" v="consider seamark:type=rock or natural=shoal" />
		<tag k="name" v="Sandøydretten" />
		<tag k="place" v="islet" />
		<tag k="ssr:date" v="2016-05-10" />
		<tag k="ssr:gruppe" v="grunnerISjø" />
		<tag k="ssr:hovedgruppe" v="sjø" />
		<tag k="ssr:stedsnr" v="595723" />
		<tag k="ssr:type" v="skjærISjø" />
	</node>
	<node lat="67.45813333294757" lon="11.93415000991542" id="-21227">
		<tag k="name" v="Tufter" />
		<tag k="place" v="locality" />
		<tag k="ssr:date" v="2016-05-10" />
		<tag k="ssr:gruppe" v="bolighus" />
		<tag k="ssr:hovedgruppe" v="bebyggelse" />
		<tag k="ssr:stedsnr" v="596049" />
		<tag k="ssr:type" v="gammelBosettingsplass" />
	</node>
	<node lat="67.48209166470902" lon="12.0320611221291" id="-21228">
		<tag k="fixme" v="consider seamark:type=rock or natural=shoal" />
		<tag k="name" v="Langskjeret" />
		<tag k="place" v="islet" />
		<tag k="ssr:date" v="2016-05-10" />
		<tag k="ssr:gruppe" v="grunnerISjø" />
		<tag k="ssr:hovedgruppe" v="sjø" />
		<tag k="ssr:stedsnr" v="596068" />
		<tag k="ssr:type" v="skjærISjø" />
	</node>
	<node lat="67.51976388539425" lon="12.124547220351028" id="-21229">
		<tag k="name" v="Sverrebakkan" />
		<tag k="natural" v="slope" />
		<tag k="place" v="locality" />
		<tag k="ssr:date" v="2016-05-10" />
		<tag k="ssr:gruppe" v="skråninger" />
		<tag k="ssr:hovedgruppe" v="terreng" />
		<tag k="ssr:stedsnr" v="596502" />
		<tag k="ssr:type" v="bakke" />
	</node>
	<node lat="67.47826944101809" lon="12.034644439470563" id="-21230">
		<tag k="alt_name" v="Søre Tennholmen" />
		<tag k="name" v="Ternholman" />
		<tag k="place" v="islet" />
		<tag k="ssr:date" v="2016-05-10" />
		<tag k="ssr:gruppe" v="kystkontur" />
		<tag k="ssr:hovedgruppe" v="sjø" />
		<tag k="ssr:stedsnr" v="623259" />
		<tag k="ssr:type" v="holmeISjø" />
	</node>
	<node lat="67.44679999643319" lon="11.94370832294208" id="-21231">
		<tag k="alt_name" v="Littjlangflesa" />
		<tag k="fixme" v="consider seamark:type=rock or natural=shoal" />
		<tag k="name" v="Litllangflesa" />
		<tag k="place" v="islet" />
		<tag k="ssr:date" v="2016-05-10" />
		<tag k="ssr:gruppe" v="grunnerISjø" />
		<tag k="ssr:hovedgruppe" v="sjø" />
		<tag k="ssr:stedsnr" v="623270" />
		<tag k="ssr:type" v="skjærISjø" />
	</node>
	<node lat="67.51991111166343" lon="12.144994445105818" id="-21232">
		<tag k="name" v="Ramnholmen" />
		<tag k="place" v="islet" />
		<tag k="ssr:date" v="2016-05-10" />
		<tag k="ssr:gruppe" v="kystkontur" />
		<tag k="ssr:hovedgruppe" v="sjø" />
		<tag k="ssr:stedsnr" v="623328" />
		<tag k="ssr:type" v="holmeISjø" />
	</node>
	<node lat="67.50460832926112" lon="12.027672217588071" id="-21233">
		<tag k="name" v="Ryggholmen" />
		<tag k="place" v="islet" />
		<tag k="ssr:date" v="2016-05-10" />
		<tag k="ssr:gruppe" v="kystkontur" />
		<tag k="ssr:hovedgruppe" v="sjø" />
		<tag k="ssr:stedsnr" v="623358" />
		<tag k="ssr:type" v="holmeISjø" />
	</node>
	<node lat="67.52541111316475" lon="12.06131666050906" id="-21234">
		<tag k="alt_name" v="Ytstøyran;Øyran" />
		<tag k="name" v="Ystøran" />
		<tag k="natural" v="cape" />
		<tag k="ssr:date" v="2016-05-10" />
		<tag k="ssr:gruppe" v="kystkontur" />
		<tag k="ssr:hovedgruppe" v="sjø" />
		<tag k="ssr:stedsnr" v="623715" />
		<tag k="ssr:type" v="nesISjø" />
	</node>
	<node lat="67.5331611120422" lon="12.016205550507923" id="-21235">
		<tag k="alt_name" v="Skarvholman" />
		<tag k="name" v="Skarvholmen" />
		<tag k="place" v="islet" />
		<tag k="ssr:date" v="2016-05-10" />
		<tag k="ssr:gruppe" v="kystkontur" />
		<tag k="ssr:hovedgruppe" v="sjø" />
		<tag k="ssr:stedsnr" v="623722" />
		<tag k="ssr:type" v="holmeISjø" />
	</node>
	<node lat="67.54127499786493" lon="12.158925000600433" id="-21236">
		<tag k="fixme" v="consider seamark:type=rock or natural=shoal" />
		<tag k="name" v="Litlflesa" />
		<tag k="place" v="islet" />
		<tag k="ssr:date" v="2016-05-10" />
		<tag k="ssr:gruppe" v="grunnerISjø" />
		<tag k="ssr:hovedgruppe" v="sjø" />
		<tag k="ssr:stedsnr" v="623724" />
		<tag k="ssr:type" v="skjærISjø" />
	</node>
	<node lat="67.4093777773943" lon="11.871269441239056" id="-21237">
		<tag k="name" v="Keila" />
		<tag k="natural" v="bay" />
		<tag k="ssr:date" v="2016-05-10" />
		<tag k="ssr:gruppe" v="kystkontur" />
		<tag k="ssr:hovedgruppe" v="sjø" />
		<tag k="ssr:stedsnr" v="655613" />
		<tag k="ssr:type" v="vikISjø" />
	</node>
	<node lat="67.45519999906892" lon="11.931877775494252" id="-21238">
		<tag k="name" v="Rokkneset" />
		<tag k="natural" v="cape" />
		<tag k="ssr:date" v="2016-05-10" />
		<tag k="ssr:gruppe" v="kystkontur" />
		<tag k="ssr:hovedgruppe" v="sjø" />
		<tag k="ssr:stedsnr" v="657009" />
		<tag k="ssr:type" v="nesISjø" />
	</node>
	<node lat="67.52458889208194" lon="12.134002775815675" id="-21239">
		<tag k="name" v="Skaudungan" />
		<tag k="place" v="locality" />
		<tag k="ssr:date" v="2016-05-10" />
		<tag k="ssr:gruppe" v="flater" />
		<tag k="ssr:hovedgruppe" v="terreng" />
		<tag k="ssr:stedsnr" v="657691" />
		<tag k="ssr:type" v="slette" />
	</node>
	<node lat="67.50690000081084" lon="12.099127781023899" id="-21240">
		<tag k="fixme" v="consider seamark:type=rock or natural=shoal" />
		<tag k="name" v="Vallbeinet" />
		<tag k="place" v="islet" />
		<tag k="ssr:date" v="2016-05-10" />
		<tag k="ssr:gruppe" v="grunnerISjø" />
		<tag k="ssr:hovedgruppe" v="sjø" />
		<tag k="ssr:stedsnr" v="657831" />
		<tag k="ssr:type" v="skjærISjø" />
	</node>
	<node lat="67.49436944317094" lon="12.03474721231254" id="-21242">
		<tag k="alt_name" v="Veiskjeran" />
		<tag k="fixme" v="consider seamark:type=rock or natural=shoal" />
		<tag k="name" v="Veidskjeran" />
		<tag k="place" v="islet" />
		<tag k="ssr:date" v="2016-05-11" />
		<tag k="ssr:gruppe" v="grunnerISjø" />
		<tag k="ssr:hovedgruppe" v="sjø" />
		<tag k="ssr:stedsnr" v="684350" />
		<tag k="ssr:type" v="skjærISjø" />
	</node>
	<node lat="67.50437221871071" lon="12.05921389720365" id="-21244">
		<tag k="fixme" v="multiple name tags, choose one and add the other to alt_name" />
		<tag k="name" v="Kveldsbeita;Prestholmen" />
		<tag k="place" v="islet" />
		<tag k="ssr:date" v="2016-05-11" />
		<tag k="ssr:gruppe" v="kystkontur" />
		<tag k="ssr:hovedgruppe" v="sjø" />
		<tag k="ssr:stedsnr" v="684353" />
		<tag k="ssr:type" v="holmeISjø" />
	</node>
	<node lat="67.48283055839687" lon="12.064705547076603" id="-21245">
		<tag k="fixme" v="consider seamark:type=rock or natural=shoal" />
		<tag k="name" v="Ramnskjeret" />
		<tag k="place" v="islet" />
		<tag k="ssr:date" v="2016-05-11" />
		<tag k="ssr:gruppe" v="grunnerISjø" />
		<tag k="ssr:hovedgruppe" v="sjø" />
		<tag k="ssr:stedsnr" v="684362" />
		<tag k="ssr:type" v="skjærISjø" />
	</node>
	<node lat="67.49826388697316" lon="12.12135277938452" id="-21246">
		<tag k="alt_name" v="Daudmannsskjeret" />
		<tag k="fixme" v="consider seamark:type=rock or natural=shoal" />
		<tag k="name" v="Daumannskjeret" />
		<tag k="place" v="islet" />
		<tag k="ssr:date" v="2016-05-11" />
		<tag k="ssr:gruppe" v="grunnerISjø" />
		<tag k="ssr:hovedgruppe" v="sjø" />
		<tag k="ssr:stedsnr" v="684367" />
		<tag k="ssr:type" v="skjærISjø" />
	</node>
	<node lat="67.52837778226906" lon="11.996211102830507" id="-21247">
		<tag k="name" v="Seiflesa" />
		<tag k="natural" v="shoal" />
		<tag k="place" v="locality" />
		<tag k="ssr:date" v="2016-05-11" />
		<tag k="ssr:gruppe" v="grunnerISjø" />
		<tag k="ssr:hovedgruppe" v="sjø" />
		<tag k="ssr:stedsnr" v="684698" />
		<tag k="ssr:type" v="grunneISjø" />
	</node>
	<node lat="67.53880277851974" lon="12.112291661030374" id="-21248">
		<tag k="name" v="Nattvikbåen" />
		<tag k="natural" v="shoal" />
		<tag k="place" v="locality" />
		<tag k="ssr:date" v="2016-05-11" />
		<tag k="ssr:gruppe" v="grunnerISjø" />
		<tag k="ssr:hovedgruppe" v="sjø" />
		<tag k="ssr:stedsnr" v="684699" />
		<tag k="ssr:type" v="grunneISjø" />
	</node>
	<node lat="67.55329167100956" lon="12.08046111178409" id="-21249">
		<tag k="name" v="Nykskallen" />
		<tag k="natural" v="shoal" />
		<tag k="place" v="locality" />
		<tag k="ssr:date" v="2016-05-11" />
		<tag k="ssr:gruppe" v="grunnerISjø" />
		<tag k="ssr:hovedgruppe" v="sjø" />
		<tag k="ssr:stedsnr" v="684710" />
		<tag k="ssr:type" v="grunneISjø" />
	</node>
	<node lat="67.52775555155894" lon="12.195850008594672" id="-21250">
		<tag k="fixme" v="consider seamark:type=rock or natural=shoal" />
		<tag k="name" v="Andbakkskjeret" />
		<tag k="place" v="islet" />
		<tag k="ssr:date" v="2016-05-11" />
		<tag k="ssr:gruppe" v="grunnerISjø" />
		<tag k="ssr:hovedgruppe" v="sjø" />
		<tag k="ssr:stedsnr" v="898388" />
		<tag k="ssr:type" v="skjærISjø" />
	</node>
	<node lat="67.518283328993" lon="12.18016388934644" id="-21251">
		<tag k="alt_name" v="Littj-Brattskjeret" />
		<tag k="fixme" v="consider seamark:type=rock or natural=shoal" />
		<tag k="name" v="Litle Brattskjeret" />
		<tag k="place" v="islet" />
		<tag k="ssr:date" v="2016-05-11" />
		<tag k="ssr:gruppe" v="grunnerISjø" />
		<tag k="ssr:hovedgruppe" v="sjø" />
		<tag k="ssr:stedsnr" v="898628" />
		<tag k="ssr:type" v="skjærISjø" />
	</node>
	<node lat="67.43430555134638" lon="11.890191656323353" id="-21252">
		<tag k="fixme" v="consider seamark:type=rock or natural=shoal" />
		<tag k="name" v="Steigfluan" />
		<tag k="place" v="islet" />
		<tag k="ssr:date" v="2016-05-11" />
		<tag k="ssr:gruppe" v="grunnerISjø" />
		<tag k="ssr:hovedgruppe" v="sjø" />
		<tag k="ssr:stedsnr" v="716622" />
		<tag k="ssr:type" v="skjærISjø" />
	</node>
	<node lat="67.45211111357862" lon="11.877419443716654" id="-21253">
		<tag k="alt_name" v="Littjhudfatan" />
		<tag k="fixme" v="consider seamark:type=rock or natural=shoal" />
		<tag k="name" v="Litlhudfatan" />
		<tag k="place" v="islet" />
		<tag k="ssr:date" v="2016-05-11" />
		<tag k="ssr:gruppe" v="grunnerISjø" />
		<tag k="ssr:hovedgruppe" v="sjø" />
		<tag k="ssr:stedsnr" v="718005" />
		<tag k="ssr:type" v="skjærISjø" />
	</node>
	<node lat="67.46125277856922" lon="11.925122230154575" id="-21254">
		<tag k="name" v="Husan" />
		<tag k="place" v="locality" />
		<tag k="ssr:date" v="2016-05-11" />
		<tag k="ssr:gruppe" v="bolighus" />
		<tag k="ssr:hovedgruppe" v="bebyggelse" />
		<tag k="ssr:stedsnr" v="718009" />
		<tag k="ssr:type" v="gammelBosettingsplass" />
	</node>
	<node lat="67.48017222257423" lon="12.01143332749367" id="-21255">
		<tag k="name" v="Bunesan" />
		<tag k="natural" v="slope" />
		<tag k="place" v="locality" />
		<tag k="ssr:date" v="2016-05-11" />
		<tag k="ssr:gruppe" v="skråninger" />
		<tag k="ssr:hovedgruppe" v="terreng" />
		<tag k="ssr:stedsnr" v="718105" />
		<tag k="ssr:type" v="li" />
	</node>
	<node lat="67.52921389109929" lon="12.164494437491976" id="-21256">
		<tag k="fixme" v="consider seamark:type=rock or natural=shoal" />
		<tag k="name" v="Råsa" />
		<tag k="place" v="islet" />
		<tag k="ssr:date" v="2016-05-11" />
		<tag k="ssr:gruppe" v="grunnerISjø" />
		<tag k="ssr:hovedgruppe" v="sjø" />
		<tag k="ssr:stedsnr" v="718718" />
		<tag k="ssr:type" v="skjærISjø" />
	</node>
	<node lat="67.517819448215" lon="12.12983888826404" id="-21257">
		<tag k="man_made" v="quay" />
		<tag k="name" v="Brygga" />
		<tag k="place" v="locality" />
		<tag k="ssr:date" v="2016-05-11" />
		<tag k="ssr:gruppe" v="sjøfart" />
		<tag k="ssr:hovedgruppe" v="infrastruktur" />
		<tag k="ssr:stedsnr" v="900548" />
		<tag k="ssr:type" v="brygge" />
	</node>
	<node lat="67.51607222322649" lon="12.263872231063525" id="-21259">
		<tag k="name" v="Brattklakkskallan" />
		<tag k="natural" v="shoal" />
		<tag k="place" v="locality" />
		<tag k="ssr:date" v="2016-05-11" />
		<tag k="ssr:gruppe" v="grunnerISjø" />
		<tag k="ssr:hovedgruppe" v="sjø" />
		<tag k="ssr:stedsnr" v="744409" />
		<tag k="ssr:type" v="grunneISjø" />
	</node>
	<node lat="67.45764444077963" lon="11.945955557424583" id="-21260">
		<tag k="name" v="Eidsholmen" />
		<tag k="place" v="islet" />
		<tag k="ssr:date" v="2016-05-11" />
		<tag k="ssr:gruppe" v="kystkontur" />
		<tag k="ssr:hovedgruppe" v="sjø" />
		<tag k="ssr:stedsnr" v="745305" />
		<tag k="ssr:type" v="holmeISjø" />
	</node>
	<node lat="67.46473888556352" lon="11.978277766007155" id="-21261">
		<tag k="bay" v="fjord" />
		<tag k="name" v="Åfjorden" />
		<tag k="natural" v="bay" />
		<tag k="ssr:date" v="2016-05-11" />
		<tag k="ssr:gruppe" v="farvann" />
		<tag k="ssr:hovedgruppe" v="sjø" />
		<tag k="ssr:stedsnr" v="745306" />
		<tag k="ssr:type" v="fjord" />
	</node>
	<node lat="67.40625833070415" lon="11.871858330573232" id="-21262">
		<tag k="name" v="Smellbåleia" />
		<tag k="natural" v="strait" />
		<tag k="ssr:date" v="2016-05-11" />
		<tag k="ssr:gruppe" v="kystkontur" />
		<tag k="ssr:hovedgruppe" v="sjø" />
		<tag k="ssr:stedsnr" v="745315" />
		<tag k="ssr:type" v="sundISjø" />
	</node>
	<node lat="67.42463610807751" lon="11.895447212891467" id="-21263">
		<tag k="fixme" v="consider seamark:type=rock or natural=shoal" />
		<tag k="name" v="Spikarskjeran" />
		<tag k="place" v="islet" />
		<tag k="ssr:date" v="2016-05-11" />
		<tag k="ssr:gruppe" v="grunnerISjø" />
		<tag k="ssr:hovedgruppe" v="sjø" />
		<tag k="ssr:stedsnr" v="745319" />
		<tag k="ssr:type" v="skjærISjø" />
	</node>
	<node lat="67.42623888961239" lon="11.879719453142284" id="-21264">
		<tag k="alt_name" v="Hærnyken" />
		<tag k="name" v="Hernyken" />
		<tag k="place" v="island" />
		<tag k="ssr:date" v="2016-05-11" />
		<tag k="ssr:gruppe" v="kystkontur" />
		<tag k="ssr:hovedgruppe" v="sjø" />
		<tag k="ssr:stedsnr" v="745322" />
		<tag k="ssr:type" v="øyISjø" />
	</node>
	<node lat="67.48931110806163" lon="12.005633343535862" id="-21266">
		<tag k="name" v="Blodgrunnen" />
		<tag k="natural" v="shoal" />
		<tag k="place" v="locality" />
		<tag k="ssr:date" v="2016-05-11" />
		<tag k="ssr:gruppe" v="grunnerISjø" />
		<tag k="ssr:hovedgruppe" v="sjø" />
		<tag k="ssr:stedsnr" v="745380" />
		<tag k="ssr:type" v="grunneISjø" />
	</node>
	<node lat="67.52652777785822" lon="12.17010000888371" id="-21267">
		<tag k="fixme" v="multiple name tags, choose one and add the other to alt_name" />
		<tag k="name" v="Andholmen;Stor-Sandholmen" />
		<tag k="place" v="islet" />
		<tag k="ssr:date" v="2016-05-11" />
		<tag k="ssr:gruppe" v="kystkontur" />
		<tag k="ssr:hovedgruppe" v="sjø" />
		<tag k="ssr:stedsnr" v="745707" />
		<tag k="ssr:type" v="holmeISjø" />
	</node>
	<node lat="67.52261667102174" lon="12.010322216615988" id="-21268">
		<tag k="name" v="Sandøya" />
		<tag k="place" v="islet" />
		<tag k="ssr:date" v="2016-05-11" />
		<tag k="ssr:gruppe" v="kystkontur" />
		<tag k="ssr:hovedgruppe" v="sjø" />
		<tag k="ssr:stedsnr" v="745712" />
		<tag k="ssr:type" v="holmeISjø" />
	</node>
	<node lat="67.44862222036011" lon="11.903616656331698" id="-21269">
		<tag k="fixme" v="consider seamark:type=rock or natural=shoal" />
		<tag k="name" v="Sør-Sandøyskjeran" />
		<tag k="place" v="islet" />
		<tag k="ssr:date" v="2016-05-11" />
		<tag k="ssr:gruppe" v="grunnerISjø" />
		<tag k="ssr:hovedgruppe" v="sjø" />
		<tag k="ssr:stedsnr" v="778007" />
		<tag k="ssr:type" v="skjærISjø" />
	</node>
	<node lat="67.46988333443376" lon="11.949319441434806" id="-21270">
		<tag k="fixme" v="consider seamark:type=rock or natural=shoal" />
		<tag k="name" v="Trollskjeran" />
		<tag k="place" v="islet" />
		<tag k="ssr:date" v="2016-05-11" />
		<tag k="ssr:gruppe" v="grunnerISjø" />
		<tag k="ssr:hovedgruppe" v="sjø" />
		<tag k="ssr:stedsnr" v="778593" />
		<tag k="ssr:type" v="skjærISjø" />
	</node>
	<node lat="67.43608889081852" lon="11.999461107696225" id="-21271">
		<tag k="name" v="Flesskallan" />
		<tag k="natural" v="shoal" />
		<tag k="place" v="locality" />
		<tag k="ssr:date" v="2016-05-11" />
		<tag k="ssr:gruppe" v="grunnerISjø" />
		<tag k="ssr:hovedgruppe" v="sjø" />
		<tag k="ssr:stedsnr" v="805229" />
		<tag k="ssr:type" v="grunneISjø" />
	</node>
	<node lat="67.48019166768107" lon="12.037138885489338" id="-21272">
		<tag k="alt_name" v="Nordre Tennholmen" />
		<tag k="name" v="Nord Teinholmen" />
		<tag k="place" v="islet" />
		<tag k="ssr:date" v="2016-05-11" />
		<tag k="ssr:gruppe" v="kystkontur" />
		<tag k="ssr:hovedgruppe" v="sjø" />
		<tag k="ssr:stedsnr" v="836314" />
		<tag k="ssr:type" v="holmeISjø" />
	</node>
	<node lat="67.40763888798426" lon="11.89489999567148" id="-21273">
		<tag k="fixme" v="consider seamark:type=rock or natural=shoal" />
		<tag k="name" v="Svartskjeret" />
		<tag k="place" v="islet" />
		<tag k="ssr:date" v="2016-05-11" />
		<tag k="ssr:gruppe" v="grunnerISjø" />
		<tag k="ssr:hovedgruppe" v="sjø" />
		<tag k="ssr:stedsnr" v="838634" />
		<tag k="ssr:type" v="skjærISjø" />
	</node>
	<node lat="67.53032500336056" lon="12.088969441233449" id="-21274">
		<tag k="fixme" v="consider seamark:type=rock or natural=shoal" />
		<tag k="name" v="Heimstørspengeren" />
		<tag k="place" v="islet" />
		<tag k="ssr:date" v="2016-05-11" />
		<tag k="ssr:gruppe" v="grunnerISjø" />
		<tag k="ssr:hovedgruppe" v="sjø" />
		<tag k="ssr:stedsnr" v="839730" />
		<tag k="ssr:type" v="skjærISjø" />
	</node>
	<node lat="67.52414166996317" lon="12.144780544568182" id="-21275">
		<tag k="name" v="Torvholmen" />
		<tag k="place" v="islet" />
		<tag k="ssr:date" v="2016-05-11" />
		<tag k="ssr:gruppe" v="kystkontur" />
		<tag k="ssr:hovedgruppe" v="sjø" />
		<tag k="ssr:stedsnr" v="839732" />
		<tag k="ssr:type" v="holmeISjø" />
	</node>
	<node lat="67.6406666625269" lon="12.919197231179043" id="-21276">
		<tag k="name" v="Vestfjorden" />
		<tag k="place" v="sea" />
		<tag k="ssr:date" v="2019-12-27" />
		<tag k="ssr:gruppe" v="farvann" />
		<tag k="ssr:hovedgruppe" v="sjø" />
		<tag k="ssr:stedsnr" v="926139" />
		<tag k="ssr:type" v="havområde" />
	</node>
	<node lat="67.4801138847921" lon="12.007525006182778" id="-21277">
		<tag k="name" v="Bunesbukta" />
		<tag k="natural" v="bay" />
		<tag k="ssr:date" v="2016-05-11" />
		<tag k="ssr:gruppe" v="kystkontur" />
		<tag k="ssr:hovedgruppe" v="sjø" />
		<tag k="ssr:stedsnr" v="927374" />
		<tag k="ssr:type" v="vikISjø" />
	</node>
	<node lat="67.52178333139884" lon="12.173261107893588" id="-21278">
		<tag k="name" v="Kobbholmen" />
		<tag k="place" v="islet" />
		<tag k="ssr:date" v="2016-05-11" />
		<tag k="ssr:gruppe" v="kystkontur" />
		<tag k="ssr:hovedgruppe" v="sjø" />
		<tag k="ssr:stedsnr" v="927328" />
		<tag k="ssr:type" v="holmeISjø" />
	</node>
	<node lat="67.5081888853873" lon="11.958833334073933" id="-21279">
		<tag k="alt_name" v="Synstvestlåtra" />
		<tag k="name" v="Synstvestlåtran" />
		<tag k="place" v="islet" />
		<tag k="ssr:date" v="2016-05-11" />
		<tag k="ssr:gruppe" v="kystkontur" />
		<tag k="ssr:hovedgruppe" v="sjø" />
		<tag k="ssr:stedsnr" v="927334" />
		<tag k="ssr:type" v="holmeISjø" />
	</node>
	<node lat="67.4390583316315" lon="11.865225009472312" id="-21280">
		<tag k="name" v="Valværan" />
		<tag k="place" v="islet" />
		<tag k="ssr:date" v="2016-05-11" />
		<tag k="ssr:gruppe" v="kystkontur" />
		<tag k="ssr:hovedgruppe" v="sjø" />
		<tag k="ssr:stedsnr" v="927289" />
		<tag k="ssr:type" v="holmeISjø" />
	</node>
	<node lat="67.44720000435242" lon="11.9118249903917" id="-21281">
		<tag k="name" v="Ellevsnyken" />
		<tag k="place" v="island" />
		<tag k="ssr:date" v="2016-05-11" />
		<tag k="ssr:gruppe" v="kystkontur" />
		<tag k="ssr:hovedgruppe" v="sjø" />
		<tag k="ssr:stedsnr" v="927291" />
		<tag k="ssr:type" v="øyISjø" />
	</node>
	<node lat="67.45808055765741" lon="12.053477777984627" id="-21282">
		<tag k="name" v="Snopskjertaran" />
		<tag k="natural" v="shoal" />
		<tag k="place" v="locality" />
		<tag k="ssr:date" v="2016-05-11" />
		<tag k="ssr:gruppe" v="grunnerISjø" />
		<tag k="ssr:hovedgruppe" v="sjø" />
		<tag k="ssr:stedsnr" v="927292" />
		<tag k="ssr:type" v="grunneISjø" />
	</node>
	<node lat="67.45842500426919" lon="11.93451944736253" id="-21283">
		<tag k="name" v="Austdalen" />
		<tag k="natural" v="valley" />
		<tag k="place" v="locality" />
		<tag k="ssr:date" v="2016-05-11" />
		<tag k="ssr:gruppe" v="senkninger" />
		<tag k="ssr:hovedgruppe" v="terreng" />
		<tag k="ssr:stedsnr" v="927293" />
		<tag k="ssr:type" v="dal" />
	</node>
	<node lat="67.46925000054203" lon="12.049152786613885" id="-21284">
		<tag k="fixme" v="consider seamark:type=rock or natural=shoal" />
		<tag k="name" v="Snopskjeret" />
		<tag k="place" v="islet" />
		<tag k="ssr:date" v="2016-05-11" />
		<tag k="ssr:gruppe" v="grunnerISjø" />
		<tag k="ssr:hovedgruppe" v="sjø" />
		<tag k="ssr:stedsnr" v="927299" />
		<tag k="ssr:type" v="skjærISjø" />
	</node>
	<node lat="67.40245277764376" lon="11.794750002385225" id="-21285">
		<tag k="name" v="Mortensgrunnen" />
		<tag k="natural" v="shoal" />
		<tag k="place" v="locality" />
		<tag k="ssr:date" v="2016-05-11" />
		<tag k="ssr:gruppe" v="grunnerISjø" />
		<tag k="ssr:hovedgruppe" v="sjø" />
		<tag k="ssr:stedsnr" v="927300" />
		<tag k="ssr:type" v="grunneISjø" />
	</node>
	<node lat="67.40749444883842" lon="11.96291944302396" id="-21286">
		<tag k="fixme" v="consider seamark:type=rock or natural=shoal" />
		<tag k="name" v="Austskjeran" />
		<tag k="place" v="islet" />
		<tag k="ssr:date" v="2016-05-11" />
		<tag k="ssr:gruppe" v="grunnerISjø" />
		<tag k="ssr:hovedgruppe" v="sjø" />
		<tag k="ssr:stedsnr" v="927302" />
		<tag k="ssr:type" v="skjærISjø" />
	</node>
	<node lat="67.53050833616805" lon="12.166408323258272" id="-21287">
		<tag k="fixme" v="consider seamark:type=rock or natural=shoal" />
		<tag k="name" v="Ytreleiskjeret" />
		<tag k="place" v="islet" />
		<tag k="ssr:date" v="2016-05-11" />
		<tag k="ssr:gruppe" v="grunnerISjø" />
		<tag k="ssr:hovedgruppe" v="sjø" />
		<tag k="ssr:stedsnr" v="927687" />
		<tag k="ssr:type" v="skjærISjø" />
	</node>
	<node lat="67.51948055569613" lon="12.00100000207063" id="-21288">
		<tag k="name" v="Storsvarvøya" />
		<tag k="place" v="islet" />
		<tag k="ssr:date" v="2016-05-11" />
		<tag k="ssr:gruppe" v="kystkontur" />
		<tag k="ssr:hovedgruppe" v="sjø" />
		<tag k="ssr:stedsnr" v="927689" />
		<tag k="ssr:type" v="holmeISjø" />
	</node>
	<node lat="67.5384916643381" lon="12.016741672965072" id="-21289">
		<tag k="name" v="Hombåen" />
		<tag k="natural" v="shoal" />
		<tag k="place" v="locality" />
		<tag k="ssr:date" v="2016-05-11" />
		<tag k="ssr:gruppe" v="grunnerISjø" />
		<tag k="ssr:hovedgruppe" v="sjø" />
		<tag k="ssr:stedsnr" v="927700" />
		<tag k="ssr:type" v="grunneISjø" />
	</node>
	<node lat="67.55438055492678" lon="12.177072231089412" id="-21290">
		<tag k="name" v="Flesskallan" />
		<tag k="natural" v="shoal" />
		<tag k="place" v="locality" />
		<tag k="ssr:date" v="2016-05-11" />
		<tag k="ssr:gruppe" v="grunnerISjø" />
		<tag k="ssr:hovedgruppe" v="sjø" />
		<tag k="ssr:stedsnr" v="927709" />
		<tag k="ssr:type" v="grunneISjø" />
	</node>
	<node lat="67.54823888881556" lon="12.018805563904204" id="-21291">
		<tag k="name" v="Perlarsaskallen" />
		<tag k="natural" v="shoal" />
		<tag k="place" v="locality" />
		<tag k="ssr:date" v="2016-05-11" />
		<tag k="ssr:gruppe" v="grunnerISjø" />
		<tag k="ssr:hovedgruppe" v="sjø" />
		<tag k="ssr:stedsnr" v="927713" />
		<tag k="ssr:type" v="grunneISjø" />
	</node>
	<node lat="67.40812500113917" lon="11.883211102498255" id="-21292">
		<tag k="fixme" v="consider seamark:type=rock or natural=shoal" />
		<tag k="name" v="Smubøskjeret" />
		<tag k="place" v="islet" />
		<tag k="ssr:date" v="2016-05-11" />
		<tag k="ssr:gruppe" v="grunnerISjø" />
		<tag k="ssr:hovedgruppe" v="sjø" />
		<tag k="ssr:stedsnr" v="899622" />
		<tag k="ssr:type" v="skjærISjø" />
	</node>
	<node lat="67.41377777525362" lon="11.784052774974551" id="-21293">
		<tag k="name" v="Småskallan" />
		<tag k="natural" v="shoal" />
		<tag k="place" v="locality" />
		<tag k="ssr:date" v="2016-05-11" />
		<tag k="ssr:gruppe" v="grunnerISjø" />
		<tag k="ssr:hovedgruppe" v="sjø" />
		<tag k="ssr:stedsnr" v="927307" />
		<tag k="ssr:type" v="grunneISjø" />
	</node>
	<node lat="67.46841666320394" lon="11.949863893705981" id="-21294">
		<tag k="name" v="Sanden" />
		<tag k="place" v="farm" />
		<tag k="ssr:date" v="2016-05-11" />
		<tag k="ssr:gruppe" v="gardsbebyggelse" />
		<tag k="ssr:hovedgruppe" v="bebyggelse" />
		<tag k="ssr:stedsnr" v="927275" />
		<tag k="ssr:type" v="bruk" />
	</node>
	<node lat="67.46922500303018" lon="11.943180549480402" id="-21295">
		<tag k="alt_name" v="Skjåskjeret" />
		<tag k="fixme" v="consider seamark:type=rock or natural=shoal" />
		<tag k="name" v="Skjåskjeran" />
		<tag k="place" v="islet" />
		<tag k="ssr:date" v="2016-05-11" />
		<tag k="ssr:gruppe" v="grunnerISjø" />
		<tag k="ssr:hovedgruppe" v="sjø" />
		<tag k="ssr:stedsnr" v="927278" />
		<tag k="ssr:type" v="skjærISjø" />
	</node>
	<node lat="67.49709166667272" lon="12.058813881652599" id="-21296">
		<tag k="alt_name" v="Svinøynakken" />
		<tag k="fixme" v="consider seamark:type=rock or natural=shoal" />
		<tag k="name" v="Svinøynakkan" />
		<tag k="place" v="islet" />
		<tag k="ssr:date" v="2016-05-11" />
		<tag k="ssr:gruppe" v="grunnerISjø" />
		<tag k="ssr:hovedgruppe" v="sjø" />
		<tag k="ssr:stedsnr" v="927369" />
		<tag k="ssr:type" v="skjærISjø" />
	</node>
	<node lat="67.5041666622976" lon="12.034022232753744" id="-21297">
		<tag k="name" v="Lamholmen" />
		<tag k="place" v="islet" />
		<tag k="ssr:date" v="2016-05-11" />
		<tag k="ssr:gruppe" v="kystkontur" />
		<tag k="ssr:hovedgruppe" v="sjø" />
		<tag k="ssr:stedsnr" v="957346" />
		<tag k="ssr:type" v="holmeISjø" />
	</node>
	<node lat="67.52458611047332" lon="12.135947223893847" id="-21298">
		<tag k="man_made" v="cairn" />
		<tag k="name" v="Skauvarden" />
		<tag k="place" v="locality" />
		<tag k="ssr:date" v="2016-05-11" />
		<tag k="ssr:gruppe" v="navigasjon" />
		<tag k="ssr:hovedgruppe" v="infrastruktur" />
		<tag k="ssr:stedsnr" v="960705" />
		<tag k="ssr:type" v="varde" />
	</node>
	<node lat="67.50149166416513" lon="12.13421666733804" id="-21313">
		<tag k="alt_name" v="Store Kårklakken" />
		<tag k="name" v="Kårklakken" />
		<tag k="place" v="islet" />
		<tag k="ssr:date" v="2016-05-10" />
		<tag k="ssr:gruppe" v="kystkontur" />
		<tag k="ssr:hovedgruppe" v="sjø" />
		<tag k="ssr:stedsnr" v="17374" />
		<tag k="ssr:type" v="holmeISjø" />
	</node>
	<node lat="67.48893889336527" lon="12.036188883975175" id="-21314">
		<tag k="fixme" v="consider seamark:type=rock or natural=shoal" />
		<tag k="name" v="Skulskjeret" />
		<tag k="place" v="islet" />
		<tag k="ssr:date" v="2016-05-10" />
		<tag k="ssr:gruppe" v="grunnerISjø" />
		<tag k="ssr:hovedgruppe" v="sjø" />
		<tag k="ssr:stedsnr" v="17380" />
		<tag k="ssr:type" v="skjærISjø" />
	</node>
	<node lat="67.49931944039606" lon="12.066822232906883" id="-21315">
		<tag k="fixme" v="multiple name tags, choose one and add the other to alt_name" />
		<tag k="name" v="Skavholmen;Yokohama" />
		<tag k="place" v="islet" />
		<tag k="ssr:date" v="2016-05-10" />
		<tag k="ssr:gruppe" v="kystkontur" />
		<tag k="ssr:hovedgruppe" v="sjø" />
		<tag k="ssr:stedsnr" v="17387" />
		<tag k="ssr:type" v="holmeISjø" />
	</node>
	<node lat="67.39024166753157" lon="11.841494442623782" id="-21316">
		<tag k="name" v="Vippstøskallan" />
		<tag k="natural" v="shoal" />
		<tag k="place" v="locality" />
		<tag k="ssr:date" v="2016-05-10" />
		<tag k="ssr:gruppe" v="grunnerISjø" />
		<tag k="ssr:hovedgruppe" v="sjø" />
		<tag k="ssr:stedsnr" v="17342" />
		<tag k="ssr:type" v="grunneISjø" />
	</node>
	<node lat="67.40619999630134" lon="11.90859721786341" id="-21317">
		<tag k="alt_name" v="Leiskjeret" />
		<tag k="fixme" v="consider seamark:type=rock or natural=shoal" />
		<tag k="name" v="Leiskjeran" />
		<tag k="place" v="islet" />
		<tag k="ssr:date" v="2016-05-10" />
		<tag k="ssr:gruppe" v="grunnerISjø" />
		<tag k="ssr:hovedgruppe" v="sjø" />
		<tag k="ssr:stedsnr" v="17348" />
		<tag k="ssr:type" v="skjærISjø" />
	</node>
	<node lat="67.48101388979948" lon="12.02889443722525" id="-21318">
		<tag k="fixme" v="multiple name tags, choose one and add the other to alt_name" />
		<tag k="name" v="Gullholmen;Rødtoppen" />
		<tag k="place" v="islet" />
		<tag k="ssr:date" v="2016-05-10" />
		<tag k="ssr:gruppe" v="kystkontur" />
		<tag k="ssr:hovedgruppe" v="sjø" />
		<tag k="ssr:stedsnr" v="47355" />
		<tag k="ssr:type" v="holmeISjø" />
	</node>
	<node lat="67.48470278139577" lon="12.068769445829878" id="-21319">
		<tag k="fixme" v="consider seamark:type=rock or natural=shoal" />
		<tag k="name" v="Ramnungan" />
		<tag k="place" v="islet" />
		<tag k="ssr:date" v="2016-05-10" />
		<tag k="ssr:gruppe" v="grunnerISjø" />
		<tag k="ssr:hovedgruppe" v="sjø" />
		<tag k="ssr:stedsnr" v="47361" />
		<tag k="ssr:type" v="skjærISjø" />
	</node>
	<node lat="67.52273332915732" lon="12.18456111522384" id="-21320">
		<tag k="fixme" v="consider seamark:type=rock or natural=shoal" />
		<tag k="name" v="Målskjeret" />
		<tag k="place" v="islet" />
		<tag k="ssr:date" v="2016-05-10" />
		<tag k="ssr:gruppe" v="grunnerISjø" />
		<tag k="ssr:hovedgruppe" v="sjø" />
		<tag k="ssr:stedsnr" v="49795" />
		<tag k="ssr:type" v="skjærISjø" />
	</node>
	<node lat="67.46820277807205" lon="11.94298056426493" id="-21321">
		<tag k="name" v="Skjåberghola" />
		<tag k="natural" v="bay" />
		<tag k="ssr:date" v="2016-05-10" />
		<tag k="ssr:gruppe" v="kystkontur" />
		<tag k="ssr:hovedgruppe" v="sjø" />
		<tag k="ssr:stedsnr" v="50048" />
		<tag k="ssr:type" v="vikISjø" />
	</node>
	<node lat="67.49222222673531" lon="12.045152771207274" id="-21322">
		<tag k="fixme" v="consider seamark:type=rock or natural=shoal" />
		<tag k="name" v="Veiskjeret" />
		<tag k="place" v="islet" />
		<tag k="ssr:date" v="2016-05-10" />
		<tag k="ssr:gruppe" v="grunnerISjø" />
		<tag k="ssr:hovedgruppe" v="sjø" />
		<tag k="ssr:stedsnr" v="50057" />
		<tag k="ssr:type" v="skjærISjø" />
	</node>
	<node lat="67.5259147267399" lon="12.1264815278133" id="-21323">
		<tag k="name" v="Sankthanshågen" />
		<tag k="natural" v="hill" />
		<tag k="place" v="locality" />
		<tag k="ssr:date" v="2018-05-22" />
		<tag k="ssr:gruppe" v="høyder" />
		<tag k="ssr:hovedgruppe" v="terreng" />
		<tag k="ssr:stedsnr" v="50497" />
		<tag k="ssr:type" v="haug" />
	</node>
	<node lat="67.43508888954612" lon="11.90140276775026" id="-21324">
		<tag k="name" v="Båtleia" />
		<tag k="natural" v="strait" />
		<tag k="ssr:date" v="2016-05-10" />
		<tag k="ssr:gruppe" v="kystkontur" />
		<tag k="ssr:hovedgruppe" v="sjø" />
		<tag k="ssr:stedsnr" v="50566" />
		<tag k="ssr:type" v="sundISjø" />
	</node>
	<node lat="67.52321666249956" lon="12.133902776064293" id="-21325">
		<tag k="name" v="Vangen" />
		<tag k="natural" v="cape" />
		<tag k="ssr:date" v="2016-05-10" />
		<tag k="ssr:gruppe" v="kystkontur" />
		<tag k="ssr:hovedgruppe" v="sjø" />
		<tag k="ssr:stedsnr" v="50667" />
		<tag k="ssr:type" v="nesISjø" />
	</node>
	<node lat="67.40466944670685" lon="11.815388884238796" id="-21326">
		<tag k="name" v="Flatskallan" />
		<tag k="natural" v="shoal" />
		<tag k="place" v="locality" />
		<tag k="ssr:date" v="2016-05-10" />
		<tag k="ssr:gruppe" v="grunnerISjø" />
		<tag k="ssr:hovedgruppe" v="sjø" />
		<tag k="ssr:stedsnr" v="77280" />
		<tag k="ssr:type" v="grunneISjø" />
	</node>
	<node lat="67.41669999713697" lon="11.879024996720036" id="-21327">
		<tag k="name" v="Skomværflaget" />
		<tag k="natural" v="strait" />
		<tag k="ssr:date" v="2016-05-10" />
		<tag k="ssr:gruppe" v="kystkontur" />
		<tag k="ssr:hovedgruppe" v="sjø" />
		<tag k="ssr:stedsnr" v="77288" />
		<tag k="ssr:type" v="sundISjø" />
	</node>
	<node lat="67.41922222224845" lon="11.905686122753504" id="-21328">
		<tag k="alt_name" v="Buværet" />
		<tag k="name" v="Buvær" />
		<tag k="place" v="islet" />
		<tag k="ssr:date" v="2016-05-10" />
		<tag k="ssr:gruppe" v="kystkontur" />
		<tag k="ssr:hovedgruppe" v="sjø" />
		<tag k="ssr:stedsnr" v="77291" />
		<tag k="ssr:type" v="holmeISjø" />
	</node>
	<node lat="67.58210555627683" lon="12.245419441224138" id="-21329">
		<tag k="name" v="Spjutskallen" />
		<tag k="natural" v="shoal" />
		<tag k="place" v="locality" />
		<tag k="ssr:date" v="2016-05-10" />
		<tag k="ssr:gruppe" v="grunnerISjø" />
		<tag k="ssr:hovedgruppe" v="sjø" />
		<tag k="ssr:stedsnr" v="77459" />
		<tag k="ssr:type" v="grunneISjø" />
	</node>
	<node lat="67.51905833058737" lon="12.151641661090789" id="-21330">
		<tag k="alt_name" v="Daudmannsskjeret" />
		<tag k="fixme" v="consider seamark:type=rock or natural=shoal" />
		<tag k="name" v="Daumannskjeret" />
		<tag k="place" v="islet" />
		<tag k="ssr:date" v="2016-05-10" />
		<tag k="ssr:gruppe" v="grunnerISjø" />
		<tag k="ssr:hovedgruppe" v="sjø" />
		<tag k="ssr:stedsnr" v="77347" />
		<tag k="ssr:type" v="skjærISjø" />
	</node>
	<node lat="67.47161111548435" lon="12.050686107440646" id="-21331">
		<tag k="fixme" v="consider seamark:type=rock or natural=shoal" />
		<tag k="name" v="Steinskjeret" />
		<tag k="place" v="islet" />
		<tag k="ssr:date" v="2016-05-10" />
		<tag k="ssr:gruppe" v="grunnerISjø" />
		<tag k="ssr:hovedgruppe" v="sjø" />
		<tag k="ssr:stedsnr" v="78288" />
		<tag k="ssr:type" v="skjærISjø" />
	</node>
	<node lat="67.4741527794343" lon="12.016113899204663" id="-21332">
		<tag k="fixme" v="multiple name tags, choose one and add the other to alt_name; consider seamark:type=rock or natural=shoal" />
		<tag k="name" v="Lendersponga;Leinner" />
		<tag k="place" v="islet" />
		<tag k="ssr:date" v="2016-05-10" />
		<tag k="ssr:gruppe" v="grunnerISjø" />
		<tag k="ssr:hovedgruppe" v="sjø" />
		<tag k="ssr:stedsnr" v="78289" />
		<tag k="ssr:type" v="skjærISjø" />
	</node>
	<node lat="67.47434722137908" lon="12.004925005999505" id="-21333">
		<tag k="alt_name" v="Eidgavlen" />
		<tag k="name" v="Eigavlen" />
		<tag k="natural" v="cape" />
		<tag k="ssr:date" v="2016-05-10" />
		<tag k="ssr:gruppe" v="kystkontur" />
		<tag k="ssr:hovedgruppe" v="sjø" />
		<tag k="ssr:stedsnr" v="78290" />
		<tag k="ssr:type" v="nesISjø" />
	</node>
	<node lat="67.50927499563237" lon="12.179988894524529" id="-21334">
		<tag k="name" v="Karivika" />
		<tag k="natural" v="bay" />
		<tag k="ssr:date" v="2016-05-10" />
		<tag k="ssr:gruppe" v="kystkontur" />
		<tag k="ssr:hovedgruppe" v="sjø" />
		<tag k="ssr:stedsnr" v="78345" />
		<tag k="ssr:type" v="vikISjø" />
	</node>
	<node lat="67.48873055801567" lon="12.0844555549181" id="-21335">
		<tag k="name" v="Prestholmen" />
		<tag k="place" v="islet" />
		<tag k="ssr:date" v="2016-05-10" />
		<tag k="ssr:gruppe" v="kystkontur" />
		<tag k="ssr:hovedgruppe" v="sjø" />
		<tag k="ssr:stedsnr" v="78332" />
		<tag k="ssr:type" v="holmeISjø" />
	</node>
	<node lat="67.50904444669835" lon="12.111061118118702" id="-21336">
		<tag k="name" v="Færøya" />
		<tag k="place" v="islet" />
		<tag k="ssr:date" v="2016-05-10" />
		<tag k="ssr:gruppe" v="kystkontur" />
		<tag k="ssr:hovedgruppe" v="sjø" />
		<tag k="ssr:stedsnr" v="78336" />
		<tag k="ssr:type" v="holmeISjø" />
	</node>
	<node lat="67.51484386195997" lon="12.113908017989301" id="-21337">
		<tag k="fixme" v="consider place=hamlet" />
		<tag k="loc_name" v="Hammar" />
		<tag k="name" v="Hammer" />
		<tag k="place" v="farm" />
		<tag k="ssr:date" v="2020-03-06" />
		<tag k="ssr:gruppe" v="gardsbebyggelse" />
		<tag k="ssr:hovedgruppe" v="bebyggelse" />
		<tag k="ssr:stedsnr" v="78337" />
		<tag k="ssr:type" v="gard" />
	</node>
	<node lat="67.50471110724735" lon="12.080811114804378" id="-21338">
		<tag k="name" v="Kårøya" />
		<tag k="place" v="island" />
		<tag k="ssr:date" v="2016-05-10" />
		<tag k="ssr:gruppe" v="kystkontur" />
		<tag k="ssr:hovedgruppe" v="sjø" />
		<tag k="ssr:stedsnr" v="78352" />
		<tag k="ssr:type" v="øyISjø" />
	</node>
	<node lat="67.49771666226889" lon="12.10038056663488" id="-21339">
		<tag k="alt_name" v="Sandøya;Sandøyan" />
		<tag k="name" v="Stor-Sandøya" />
		<tag k="place" v="islet" />
		<tag k="ssr:date" v="2016-05-10" />
		<tag k="ssr:gruppe" v="kystkontur" />
		<tag k="ssr:hovedgruppe" v="sjø" />
		<tag k="ssr:stedsnr" v="78353" />
		<tag k="ssr:type" v="holmeISjø" />
	</node>
	<node lat="67.49813055756113" lon="12.09030833181387" id="-21340">
		<tag k="alt_name" v="Røstlyngværet" />
		<tag k="name" v="Røstlyngvær" />
		<tag k="place" v="islet" />
		<tag k="ssr:date" v="2016-05-10" />
		<tag k="ssr:gruppe" v="kystkontur" />
		<tag k="ssr:hovedgruppe" v="sjø" />
		<tag k="ssr:stedsnr" v="78354" />
		<tag k="ssr:type" v="holmeISjø" />
	</node>
	<node lat="67.48292500032386" lon="12.046594433590153" id="-21341">
		<tag k="alt_name" v="Hæssholmen" />
		<tag k="name" v="Hesholmen" />
		<tag k="place" v="islet" />
		<tag k="ssr:date" v="2016-05-10" />
		<tag k="ssr:gruppe" v="kystkontur" />
		<tag k="ssr:hovedgruppe" v="sjø" />
		<tag k="ssr:stedsnr" v="78360" />
		<tag k="ssr:type" v="holmeISjø" />
	</node>
	<node lat="67.48798888779648" lon="12.07808056528318" id="-21342">
		<tag k="alt_name" v="Æskjeret" />
		<tag k="fixme" v="consider seamark:type=rock or natural=shoal" />
		<tag k="name" v="Eskjeret" />
		<tag k="place" v="islet" />
		<tag k="ssr:date" v="2016-05-10" />
		<tag k="ssr:gruppe" v="grunnerISjø" />
		<tag k="ssr:hovedgruppe" v="sjø" />
		<tag k="ssr:stedsnr" v="78361" />
		<tag k="ssr:type" v="skjærISjø" />
	</node>
	<node lat="67.49482777747588" lon="12.150469441919073" id="-21343">
		<tag k="fixme" v="consider seamark:type=rock or natural=shoal" />
		<tag k="name" v="Austremyrflesa" />
		<tag k="place" v="islet" />
		<tag k="ssr:date" v="2016-05-10" />
		<tag k="ssr:gruppe" v="grunnerISjø" />
		<tag k="ssr:hovedgruppe" v="sjø" />
		<tag k="ssr:stedsnr" v="78363" />
		<tag k="ssr:type" v="skjærISjø" />
	</node>
	<node lat="67.53119166427905" lon="11.957888881647998" id="-21344">
		<tag k="name" v="Brunsøyskallen" />
		<tag k="natural" v="shoal" />
		<tag k="place" v="locality" />
		<tag k="ssr:date" v="2016-05-10" />
		<tag k="ssr:gruppe" v="grunnerISjø" />
		<tag k="ssr:hovedgruppe" v="sjø" />
		<tag k="ssr:stedsnr" v="78714" />
		<tag k="ssr:type" v="grunneISjø" />
	</node>
	<node lat="67.49301667092271" lon="12.050519448599793" id="-21345">
		<tag k="name" v="Hella" />
		<tag k="natural" v="shoal" />
		<tag k="place" v="locality" />
		<tag k="ssr:date" v="2016-05-10" />
		<tag k="ssr:gruppe" v="grunnerISjø" />
		<tag k="ssr:hovedgruppe" v="sjø" />
		<tag k="ssr:stedsnr" v="229356" />
		<tag k="ssr:type" v="grunneISjø" />
	</node>
	<node lat="67.54610832940732" lon="12.105952776064763" id="-21346">
		<tag k="name" v="Pålskallen" />
		<tag k="natural" v="shoal" />
		<tag k="place" v="locality" />
		<tag k="ssr:date" v="2016-05-10" />
		<tag k="ssr:gruppe" v="grunnerISjø" />
		<tag k="ssr:hovedgruppe" v="sjø" />
		<tag k="ssr:stedsnr" v="108347" />
		<tag k="ssr:type" v="grunneISjø" />
	</node>
	<node lat="67.52612222176678" lon="12.126927781128973" id="-21347">
		<tag k="man_made" v="tower" />
		<tag k="name" v="Røsttårnet" />
		<tag k="ssr:date" v="2016-05-10" />
		<tag k="ssr:gruppe" v="kommunikasjon" />
		<tag k="ssr:hovedgruppe" v="infrastruktur" />
		<tag k="ssr:stedsnr" v="108348" />
		<tag k="ssr:type" v="tV-Radio-EllerMobiltelefontårn" />
		<tag k="tower:type" v="communications" />
	</node>
	<node lat="67.4621055516298" lon="11.919558326694624" id="-21348">
		<tag k="alt_name" v="Ytre Husskjeret" />
		<tag k="fixme" v="consider seamark:type=rock or natural=shoal" />
		<tag k="name" v="Ytter Husskjeret" />
		<tag k="place" v="islet" />
		<tag k="ssr:date" v="2016-05-10" />
		<tag k="ssr:gruppe" v="grunnerISjø" />
		<tag k="ssr:hovedgruppe" v="sjø" />
		<tag k="ssr:stedsnr" v="109326" />
		<tag k="ssr:type" v="skjærISjø" />
	</node>
	<node lat="67.51334999667306" lon="12.112524992545323" id="-21349">
		<tag k="name" v="Kårklakken" />
		<tag k="natural" v="shoal" />
		<tag k="place" v="locality" />
		<tag k="ssr:date" v="2016-05-10" />
		<tag k="ssr:gruppe" v="grunnerIFerskvann" />
		<tag k="ssr:hovedgruppe" v="ferskvann" />
		<tag k="ssr:stedsnr" v="111827" />
		<tag k="ssr:type" v="grunne" />
	</node>
	<node lat="67.46100555213938" lon="11.934625010073438" id="-21350">
		<tag k="name" v="Storfjellet" />
		<tag k="place" v="island" />
		<tag k="ssr:date" v="2016-05-10" />
		<tag k="ssr:gruppe" v="kystkontur" />
		<tag k="ssr:hovedgruppe" v="sjø" />
		<tag k="ssr:stedsnr" v="138286" />
		<tag k="ssr:type" v="øyISjø" />
	</node>
	<node lat="67.50901666755686" lon="12.146794442983047" id="-21351">
		<tag k="fixme" v="multiple name tags, choose one and add the other to alt_name" />
		<tag k="name" v="Skauhelløya;Neshelløya" />
		<tag k="place" v="islet" />
		<tag k="ssr:date" v="2016-05-10" />
		<tag k="ssr:gruppe" v="kystkontur" />
		<tag k="ssr:hovedgruppe" v="sjø" />
		<tag k="ssr:stedsnr" v="138356" />
		<tag k="ssr:type" v="holmeISjø" />
	</node>
	<node lat="67.5121111091373" lon="12.112277774585344" id="-21352">
		<tag k="alt_name" v="Vassneset" />
		<tag k="name" v="Vasnes" />
		<tag k="place" v="farm" />
		<tag k="ssr:date" v="2016-05-10" />
		<tag k="ssr:gruppe" v="gardsbebyggelse" />
		<tag k="ssr:hovedgruppe" v="bebyggelse" />
		<tag k="ssr:stedsnr" v="138365" />
		<tag k="ssr:type" v="bruk" />
	</node>
	<node lat="67.47985555534156" lon="12.022000007372164" id="-21353">
		<tag k="name" v="Vedøya" />
		<tag k="place" v="island" />
		<tag k="ssr:date" v="2016-05-10" />
		<tag k="ssr:gruppe" v="kystkontur" />
		<tag k="ssr:hovedgruppe" v="sjø" />
		<tag k="ssr:stedsnr" v="138380" />
		<tag k="ssr:type" v="øyISjø" />
	</node>
	<node lat="67.45590833319292" lon="11.930863898725912" id="-21354">
		<tag k="name" v="Austdalsbukta" />
		<tag k="natural" v="bay" />
		<tag k="ssr:date" v="2016-05-10" />
		<tag k="ssr:gruppe" v="kystkontur" />
		<tag k="ssr:hovedgruppe" v="sjø" />
		<tag k="ssr:stedsnr" v="138300" />
		<tag k="ssr:type" v="vikISjø" />
	</node>
	<node lat="67.52352500275232" lon="12.050197218676253" id="-21355">
		<tag k="name" v="Litlraudøya" />
		<tag k="place" v="islet" />
		<tag k="ssr:date" v="2016-05-10" />
		<tag k="ssr:gruppe" v="kystkontur" />
		<tag k="ssr:hovedgruppe" v="sjø" />
		<tag k="ssr:stedsnr" v="138715" />
		<tag k="ssr:type" v="holmeISjø" />
	</node>
	<node lat="67.53433888865335" lon="11.992833326916376" id="-21356">
		<tag k="name" v="Steingrunnen" />
		<tag k="natural" v="shoal" />
		<tag k="place" v="locality" />
		<tag k="ssr:date" v="2016-05-10" />
		<tag k="ssr:gruppe" v="grunnerISjø" />
		<tag k="ssr:hovedgruppe" v="sjø" />
		<tag k="ssr:stedsnr" v="138721" />
		<tag k="ssr:type" v="grunneISjø" />
	</node>
	<node lat="67.54493333378836" lon="12.053447229801234" id="-21357">
		<tag k="name" v="Josefstaren" />
		<tag k="natural" v="shoal" />
		<tag k="place" v="locality" />
		<tag k="ssr:date" v="2016-05-10" />
		<tag k="ssr:gruppe" v="grunnerISjø" />
		<tag k="ssr:hovedgruppe" v="sjø" />
		<tag k="ssr:stedsnr" v="138724" />
		<tag k="ssr:type" v="grunneISjø" />
	</node>
	<node lat="67.52861110729951" lon="12.009219439345468" id="-21358">
		<tag k="name" v="Sandvadet" />
		<tag k="natural" v="shoal" />
		<tag k="place" v="locality" />
		<tag k="ssr:date" v="2016-05-10" />
		<tag k="ssr:gruppe" v="grunnerISjø" />
		<tag k="ssr:hovedgruppe" v="sjø" />
		<tag k="ssr:stedsnr" v="138726" />
		<tag k="ssr:type" v="grunneISjø" />
	</node>
	<node lat="67.54086388935248" lon="11.99729722266973" id="-21359">
		<tag k="bay" v="fjord" />
		<tag k="name" v="Skarvholmleia" />
		<tag k="natural" v="bay" />
		<tag k="ssr:date" v="2016-05-10" />
		<tag k="ssr:gruppe" v="farvann" />
		<tag k="ssr:hovedgruppe" v="sjø" />
		<tag k="ssr:stedsnr" v="138734" />
		<tag k="ssr:type" v="fjord" />
	</node>
	<node lat="67.51314166329044" lon="11.981291667374801" id="-21360">
		<tag k="fixme" v="consider seamark:type=rock or natural=shoal" />
		<tag k="name" v="Alkskjeret" />
		<tag k="place" v="islet" />
		<tag k="ssr:date" v="2016-05-10" />
		<tag k="ssr:gruppe" v="grunnerISjø" />
		<tag k="ssr:hovedgruppe" v="sjø" />
		<tag k="ssr:stedsnr" v="168352" />
		<tag k="ssr:type" v="skjærISjø" />
	</node>
	<node lat="67.57057222557806" lon="12.199925006087133" id="-21361">
		<tag k="name" v="Lyngmorsøyskallen" />
		<tag k="natural" v="shoal" />
		<tag k="place" v="locality" />
		<tag k="ssr:date" v="2016-05-10" />
		<tag k="ssr:gruppe" v="grunnerISjø" />
		<tag k="ssr:hovedgruppe" v="sjø" />
		<tag k="ssr:stedsnr" v="169385" />
		<tag k="ssr:type" v="grunneISjø" />
	</node>
	<node lat="67.47302500345468" lon="11.943291656141463" id="-21362">
		<tag k="name" v="Ytre Trollet" />
		<tag k="natural" v="shoal" />
		<tag k="place" v="locality" />
		<tag k="ssr:date" v="2016-05-10" />
		<tag k="ssr:gruppe" v="grunnerISjø" />
		<tag k="ssr:hovedgruppe" v="sjø" />
		<tag k="ssr:stedsnr" v="169327" />
		<tag k="ssr:type" v="grunneISjø" />
	</node>
	<node lat="67.5113055542223" lon="12.003872218682611" id="-21363">
		<tag k="fixme" v="consider seamark:type=rock or natural=shoal" />
		<tag k="name" v="Måsskjeret" />
		<tag k="place" v="islet" />
		<tag k="ssr:date" v="2016-05-10" />
		<tag k="ssr:gruppe" v="grunnerISjø" />
		<tag k="ssr:hovedgruppe" v="sjø" />
		<tag k="ssr:stedsnr" v="171792" />
		<tag k="ssr:type" v="skjærISjø" />
	</node>
	<node lat="67.51441110720958" lon="11.992491655026825" id="-21364">
		<tag k="fixme" v="consider seamark:type=rock or natural=shoal" />
		<tag k="name" v="Brunsøynakkan" />
		<tag k="place" v="islet" />
		<tag k="ssr:date" v="2016-05-10" />
		<tag k="ssr:gruppe" v="grunnerISjø" />
		<tag k="ssr:hovedgruppe" v="sjø" />
		<tag k="ssr:stedsnr" v="171755" />
		<tag k="ssr:type" v="skjærISjø" />
	</node>
	<node lat="67.51194444386269" lon="12.168941659059607" id="-21365">
		<tag k="name" v="Ramnnakkan" />
		<tag k="place" v="islet" />
		<tag k="ssr:date" v="2016-05-10" />
		<tag k="ssr:gruppe" v="kystkontur" />
		<tag k="ssr:hovedgruppe" v="sjø" />
		<tag k="ssr:stedsnr" v="171870" />
		<tag k="ssr:type" v="holmeISjø" />
	</node>
	<node lat="67.57505000237676" lon="12.43998610889157" id="-21366">
		<tag k="name" v="Røsthavet" />
		<tag k="place" v="sea" />
		<tag k="ssr:date" v="2019-12-27" />
		<tag k="ssr:gruppe" v="farvann" />
		<tag k="ssr:hovedgruppe" v="sjø" />
		<tag k="ssr:stedsnr" v="198400" />
		<tag k="ssr:type" v="havområde" />
	</node>
	<node lat="67.52407222194091" lon="12.223133340147637" id="-21367">
		<tag k="name" v="Skipbåan" />
		<tag k="natural" v="shoal" />
		<tag k="place" v="locality" />
		<tag k="ssr:date" v="2016-05-10" />
		<tag k="ssr:gruppe" v="grunnerISjø" />
		<tag k="ssr:hovedgruppe" v="sjø" />
		<tag k="ssr:stedsnr" v="198429" />
		<tag k="ssr:type" v="grunneISjø" />
	</node>
	<node lat="67.51886666596062" lon="12.052544447840335" id="-21368">
		<tag k="alt_name" v="Ytrehansøya" />
		<tag k="name" v="Hansøyan" />
		<tag k="place" v="islet" />
		<tag k="ssr:date" v="2016-05-10" />
		<tag k="ssr:gruppe" v="kystkontur" />
		<tag k="ssr:hovedgruppe" v="sjø" />
		<tag k="ssr:stedsnr" v="199326" />
		<tag k="ssr:type" v="holmeISjø" />
	</node>
	<node lat="67.49907222352927" lon="11.99890556118575" id="-21369">
		<tag k="fixme" v="consider seamark:type=rock or natural=shoal" />
		<tag k="name" v="Langskjeret" />
		<tag k="place" v="islet" />
		<tag k="ssr:date" v="2016-05-10" />
		<tag k="ssr:gruppe" v="grunnerISjø" />
		<tag k="ssr:hovedgruppe" v="sjø" />
		<tag k="ssr:stedsnr" v="199337" />
		<tag k="ssr:type" v="skjærISjø" />
	</node>
	<node lat="67.50862777547437" lon="12.091402771634518" id="-21370">
		<tag k="name" v="Korsholmen" />
		<tag k="place" v="islet" />
		<tag k="ssr:date" v="2016-05-10" />
		<tag k="ssr:gruppe" v="kystkontur" />
		<tag k="ssr:hovedgruppe" v="sjø" />
		<tag k="ssr:stedsnr" v="199343" />
		<tag k="ssr:type" v="holmeISjø" />
	</node>
	<node lat="67.49667222623603" lon="12.065388880956267" id="-21371">
		<tag k="name" v="Svinøya" />
		<tag k="place" v="island" />
		<tag k="ssr:date" v="2016-05-10" />
		<tag k="ssr:gruppe" v="kystkontur" />
		<tag k="ssr:hovedgruppe" v="sjø" />
		<tag k="ssr:stedsnr" v="199352" />
		<tag k="ssr:type" v="øyISjø" />
	</node>
	<node lat="67.46935000437547" lon="11.954397222059617" id="-21372">
		<tag k="alt_name" v="Marisneset" />
		<tag k="name" v="Maisneset" />
		<tag k="natural" v="cape" />
		<tag k="ssr:date" v="2016-05-10" />
		<tag k="ssr:gruppe" v="kystkontur" />
		<tag k="ssr:hovedgruppe" v="sjø" />
		<tag k="ssr:stedsnr" v="199281" />
		<tag k="ssr:type" v="nesISjø" />
	</node>
	<node lat="67.50927500297956" lon="12.07838055212842" id="-21373">
		<tag k="name" v="Ner-Kalvøya" />
		<tag k="natural" v="cape" />
		<tag k="ssr:date" v="2016-05-10" />
		<tag k="ssr:gruppe" v="kystkontur" />
		<tag k="ssr:hovedgruppe" v="sjø" />
		<tag k="ssr:stedsnr" v="292800" />
		<tag k="ssr:type" v="nesISjø" />
	</node>
	<node lat="67.51232777503657" lon="12.071255557474274" id="-21374">
		<tag k="fixme" v="consider seamark:type=rock or natural=shoal" />
		<tag k="name" v="Pisselen" />
		<tag k="place" v="islet" />
		<tag k="ssr:date" v="2016-05-10" />
		<tag k="ssr:gruppe" v="grunnerISjø" />
		<tag k="ssr:hovedgruppe" v="sjø" />
		<tag k="ssr:stedsnr" v="292804" />
		<tag k="ssr:type" v="skjærISjø" />
	</node>
	<node lat="67.46050555948395" lon="11.92153889344161" id="-21375">
		<tag k="alt_name" v="Indre Husskjeret" />
		<tag k="fixme" v="consider seamark:type=rock or natural=shoal" />
		<tag k="name" v="Inner Husskjeret" />
		<tag k="place" v="islet" />
		<tag k="ssr:date" v="2016-05-10" />
		<tag k="ssr:gruppe" v="grunnerISjø" />
		<tag k="ssr:hovedgruppe" v="sjø" />
		<tag k="ssr:stedsnr" v="291351" />
		<tag k="ssr:type" v="skjærISjø" />
	</node>
	<node lat="67.57783610673488" lon="12.22709999736836" id="-21376">
		<tag k="name" v="Hærnykskallen" />
		<tag k="natural" v="shoal" />
		<tag k="place" v="locality" />
		<tag k="ssr:date" v="2016-05-10" />
		<tag k="ssr:gruppe" v="grunnerISjø" />
		<tag k="ssr:hovedgruppe" v="sjø" />
		<tag k="ssr:stedsnr" v="319437" />
		<tag k="ssr:type" v="grunneISjø" />
	</node>
	<node lat="67.51142222018518" lon="12.055019435537682" id="-21377">
		<tag k="name" v="Ytresteinsøya" />
		<tag k="place" v="islet" />
		<tag k="ssr:date" v="2016-05-10" />
		<tag k="ssr:gruppe" v="kystkontur" />
		<tag k="ssr:hovedgruppe" v="sjø" />
		<tag k="ssr:stedsnr" v="320318" />
		<tag k="ssr:type" v="holmeISjø" />
	</node>
	<node lat="67.47639444271034" lon="12.016047216536771" id="-21378">
		<tag k="alt_name" v="Littjvedøya" />
		<tag k="name" v="Litlvedøya" />
		<tag k="place" v="islet" />
		<tag k="ssr:date" v="2016-05-10" />
		<tag k="ssr:gruppe" v="kystkontur" />
		<tag k="ssr:hovedgruppe" v="sjø" />
		<tag k="ssr:stedsnr" v="320272" />
		<tag k="ssr:type" v="holmeISjø" />
	</node>
	<node lat="67.46746944465488" lon="12.08384999518162" id="-21379">
		<tag k="name" v="Sandøyskallen" />
		<tag k="natural" v="shoal" />
		<tag k="place" v="locality" />
		<tag k="ssr:date" v="2016-05-10" />
		<tag k="ssr:gruppe" v="grunnerISjø" />
		<tag k="ssr:hovedgruppe" v="sjø" />
		<tag k="ssr:stedsnr" v="320280" />
		<tag k="ssr:type" v="grunneISjø" />
	</node>
	<node lat="67.52405555971458" lon="12.150758334376306" id="-21380">
		<tag k="name" v="Monsholmen" />
		<tag k="place" v="islet" />
		<tag k="ssr:date" v="2016-05-10" />
		<tag k="ssr:gruppe" v="kystkontur" />
		<tag k="ssr:hovedgruppe" v="sjø" />
		<tag k="ssr:stedsnr" v="320326" />
		<tag k="ssr:type" v="holmeISjø" />
	</node>
	<node lat="67.48016111049637" lon="12.02418333389267" id="-21381">
		<tag k="name" v="Vedøyhamna" />
		<tag k="natural" v="bay" />
		<tag k="ssr:date" v="2016-05-10" />
		<tag k="ssr:gruppe" v="kystkontur" />
		<tag k="ssr:hovedgruppe" v="sjø" />
		<tag k="ssr:stedsnr" v="320362" />
		<tag k="ssr:type" v="vikISjø" />
	</node>
	<node lat="67.47941944362984" lon="11.86477500365227" id="-21382">
		<tag k="name" v="Sørskjortbaken" />
		<tag k="natural" v="shoal" />
		<tag k="place" v="locality" />
		<tag k="ssr:date" v="2016-05-10" />
		<tag k="ssr:gruppe" v="grunnerISjø" />
		<tag k="ssr:hovedgruppe" v="sjø" />
		<tag k="ssr:stedsnr" v="320368" />
		<tag k="ssr:type" v="grunneISjø" />
	</node>
	<node lat="67.56757777690794" lon="12.167677783732664" id="-21383">
		<tag k="name" v="Ånnhammarbakken" />
		<tag k="natural" v="shoal" />
		<tag k="place" v="locality" />
		<tag k="ssr:date" v="2016-05-10" />
		<tag k="ssr:gruppe" v="grunnerISjø" />
		<tag k="ssr:hovedgruppe" v="sjø" />
		<tag k="ssr:stedsnr" v="320718" />
		<tag k="ssr:type" v="grunneISjø" />
	</node>
	<node lat="67.49572777695428" lon="12.056277787598495" id="-21384">
		<tag k="name" v="Galten" />
		<tag k="natural" v="shoal" />
		<tag k="place" v="locality" />
		<tag k="ssr:date" v="2016-05-10" />
		<tag k="ssr:gruppe" v="grunnerISjø" />
		<tag k="ssr:hovedgruppe" v="sjø" />
		<tag k="ssr:stedsnr" v="350318" />
		<tag k="ssr:type" v="grunneISjø" />
	</node>
	<node lat="67.41780833727952" lon="11.682775008221506" id="-21385">
		<tag k="name" v="Hanshansaskallen" />
		<tag k="natural" v="shoal" />
		<tag k="place" v="locality" />
		<tag k="ssr:date" v="2016-05-10" />
		<tag k="ssr:gruppe" v="grunnerISjø" />
		<tag k="ssr:hovedgruppe" v="sjø" />
		<tag k="ssr:stedsnr" v="351333" />
		<tag k="ssr:type" v="grunneISjø" />
	</node>
	<node lat="67.43637500173003" lon="11.896475000644267" id="-21386">
		<tag k="name" v="Helvete" />
		<tag k="natural" v="valley" />
		<tag k="place" v="locality" />
		<tag k="ssr:date" v="2016-05-10" />
		<tag k="ssr:gruppe" v="senkninger" />
		<tag k="ssr:hovedgruppe" v="terreng" />
		<tag k="ssr:stedsnr" v="352586" />
		<tag k="ssr:type" v="dal" />
	</node>
	<node lat="67.43671666243884" lon="11.881161119921066" id="-21387">
		<tag k="fixme" v="consider seamark:type=rock or natural=shoal" />
		<tag k="name" v="Breinykskjeran" />
		<tag k="place" v="islet" />
		<tag k="ssr:date" v="2016-05-10" />
		<tag k="ssr:gruppe" v="grunnerISjø" />
		<tag k="ssr:hovedgruppe" v="sjø" />
		<tag k="ssr:stedsnr" v="352589" />
		<tag k="ssr:type" v="skjærISjø" />
	</node>
	<node lat="67.42733611245224" lon="11.875969434917115" id="-21388">
		<tag k="name" v="Johannes" />
		<tag k="natural" v="slope" />
		<tag k="place" v="locality" />
		<tag k="ssr:date" v="2016-05-10" />
		<tag k="ssr:gruppe" v="skråninger" />
		<tag k="ssr:hovedgruppe" v="terreng" />
		<tag k="ssr:stedsnr" v="352593" />
		<tag k="ssr:type" v="bakke" />
	</node>
	<node lat="67.5253083349207" lon="12.140741674105575" id="-21389">
		<tag k="name" v="Nesvågen" />
		<tag k="natural" v="bay" />
		<tag k="ssr:date" v="2016-05-10" />
		<tag k="ssr:gruppe" v="kystkontur" />
		<tag k="ssr:hovedgruppe" v="sjø" />
		<tag k="ssr:stedsnr" v="353719" />
		<tag k="ssr:type" v="vågISjø" />
	</node>
	<node lat="67.51973610993576" lon="12.132469445329404" id="-21390">
		<tag k="name" v="Inndyr" />
		<tag k="natural" v="cape" />
		<tag k="ssr:date" v="2016-05-10" />
		<tag k="ssr:gruppe" v="kystkontur" />
		<tag k="ssr:hovedgruppe" v="sjø" />
		<tag k="ssr:stedsnr" v="353722" />
		<tag k="ssr:type" v="nesISjø" />
	</node>
	<node lat="67.58796944727933" lon="12.288133341447212" id="-21391">
		<tag k="name" v="Flua" />
		<tag k="natural" v="shoal" />
		<tag k="place" v="locality" />
		<tag k="ssr:date" v="2016-05-10" />
		<tag k="ssr:gruppe" v="grunnerISjø" />
		<tag k="ssr:hovedgruppe" v="sjø" />
		<tag k="ssr:stedsnr" v="380448" />
		<tag k="ssr:type" v="grunneISjø" />
	</node>
	<node lat="67.5120888879119" lon="12.067252786714409" id="-21392">
		<tag k="name" v="Grimsøya" />
		<tag k="place" v="island" />
		<tag k="ssr:date" v="2016-05-10" />
		<tag k="ssr:gruppe" v="kystkontur" />
		<tag k="ssr:hovedgruppe" v="sjø" />
		<tag k="ssr:stedsnr" v="380343" />
		<tag k="ssr:type" v="øyISjø" />
	</node>
	<node lat="67.50649166631821" lon="12.06903055624168" id="-21393">
		<tag k="alt_name" v="Gleda" />
		<tag k="name" v="Stor-Glea" />
		<tag k="place" v="islet" />
		<tag k="ssr:date" v="2016-05-10" />
		<tag k="ssr:gruppe" v="kystkontur" />
		<tag k="ssr:hovedgruppe" v="sjø" />
		<tag k="ssr:stedsnr" v="380344" />
		<tag k="ssr:type" v="holmeISjø" />
	</node>
	<node lat="67.5278388847127" lon="12.140280543935187" id="-21395">
		<tag k="name" v="Nedreneset" />
		<tag k="place" v="farm" />
		<tag k="ssr:date" v="2016-05-10" />
		<tag k="ssr:gruppe" v="gardsbebyggelse" />
		<tag k="ssr:hovedgruppe" v="bebyggelse" />
		<tag k="ssr:stedsnr" v="380728" />
		<tag k="ssr:type" v="bruk" />
	</node>
	<node lat="67.51418610867341" lon="12.17262499210951" id="-21396">
		<tag k="fixme" v="multiple name tags, choose one and add the other to alt_name" />
		<tag k="name" v="Litlhamklakken;Måsklubben" />
		<tag k="place" v="islet" />
		<tag k="ssr:date" v="2016-05-10" />
		<tag k="ssr:gruppe" v="kystkontur" />
		<tag k="ssr:hovedgruppe" v="sjø" />
		<tag k="ssr:stedsnr" v="381333" />
		<tag k="ssr:type" v="holmeISjø" />
	</node>
	<node lat="67.50675555173912" lon="12.081333335434223" id="-21397">
		<tag k="name" v="Tjuvøya" />
		<tag k="place" v="island" />
		<tag k="ssr:date" v="2016-05-10" />
		<tag k="ssr:gruppe" v="kystkontur" />
		<tag k="ssr:hovedgruppe" v="sjø" />
		<tag k="ssr:stedsnr" v="381342" />
		<tag k="ssr:type" v="øyISjø" />
	</node>
	<node lat="67.50172499945704" lon="12.18021944411909" id="-21398">
		<tag k="fixme" v="consider seamark:type=rock or natural=shoal" />
		<tag k="name" v="Masteskjeret" />
		<tag k="place" v="islet" />
		<tag k="ssr:date" v="2016-05-10" />
		<tag k="ssr:gruppe" v="grunnerISjø" />
		<tag k="ssr:hovedgruppe" v="sjø" />
		<tag k="ssr:stedsnr" v="381350" />
		<tag k="ssr:type" v="skjærISjø" />
	</node>
	<node lat="67.46398610788012" lon="12.00568889810122" id="-21399">
		<tag k="fixme" v="consider seamark:type=rock or natural=shoal" />
		<tag k="name" v="Slantra" />
		<tag k="place" v="islet" />
		<tag k="ssr:date" v="2016-05-10" />
		<tag k="ssr:gruppe" v="grunnerISjø" />
		<tag k="ssr:hovedgruppe" v="sjø" />
		<tag k="ssr:stedsnr" v="381279" />
		<tag k="ssr:type" v="skjærISjø" />
	</node>
	<node lat="67.47696944571997" lon="12.106813884590933" id="-21401">
		<tag k="name" v="Tindskjertaran" />
		<tag k="natural" v="shoal" />
		<tag k="place" v="locality" />
		<tag k="ssr:date" v="2016-05-10" />
		<tag k="ssr:gruppe" v="grunnerISjø" />
		<tag k="ssr:hovedgruppe" v="sjø" />
		<tag k="ssr:stedsnr" v="381288" />
		<tag k="ssr:type" v="grunneISjø" />
	</node>
	<node lat="67.47241111159728" lon="11.999783341227394" id="-21402">
		<tag k="name" v="Eidgavlsbåen" />
		<tag k="natural" v="shoal" />
		<tag k="place" v="locality" />
		<tag k="ssr:date" v="2016-05-10" />
		<tag k="ssr:gruppe" v="grunnerISjø" />
		<tag k="ssr:hovedgruppe" v="sjø" />
		<tag k="ssr:stedsnr" v="381290" />
		<tag k="ssr:type" v="grunneISjø" />
	</node>
	<node lat="67.49908055725184" lon="12.086011104137892" id="-21403">
		<tag k="name" v="Skruvholmen" />
		<tag k="place" v="islet" />
		<tag k="ssr:date" v="2016-05-10" />
		<tag k="ssr:gruppe" v="kystkontur" />
		<tag k="ssr:hovedgruppe" v="sjø" />
		<tag k="ssr:stedsnr" v="381365" />
		<tag k="ssr:type" v="holmeISjø" />
	</node>
	<node lat="67.4904055570657" lon="12.069088879459963" id="-21404">
		<tag k="alt_name" v="Littj Kvaløya" />
		<tag k="name" v="Litlkvaløya" />
		<tag k="place" v="islet" />
		<tag k="ssr:date" v="2016-05-10" />
		<tag k="ssr:gruppe" v="kystkontur" />
		<tag k="ssr:hovedgruppe" v="sjø" />
		<tag k="ssr:stedsnr" v="381376" />
		<tag k="ssr:type" v="holmeISjø" />
	</node>
	<node lat="67.49803055200036" lon="12.214602788540569" id="-21405">
		<tag k="name" v="Austrenupsbåen" />
		<tag k="natural" v="shoal" />
		<tag k="place" v="locality" />
		<tag k="ssr:date" v="2016-05-10" />
		<tag k="ssr:gruppe" v="grunnerISjø" />
		<tag k="ssr:hovedgruppe" v="sjø" />
		<tag k="ssr:stedsnr" v="381377" />
		<tag k="ssr:type" v="grunneISjø" />
	</node>
	<node lat="67.5101250038689" lon="11.964469436533529" id="-21407">
		<tag k="fixme" v="consider seamark:type=rock or natural=shoal" />
		<tag k="name" v="Steinen" />
		<tag k="place" v="islet" />
		<tag k="ssr:date" v="2016-05-10" />
		<tag k="ssr:gruppe" v="grunnerISjø" />
		<tag k="ssr:hovedgruppe" v="sjø" />
		<tag k="ssr:stedsnr" v="414766" />
		<tag k="ssr:type" v="skjærISjø" />
	</node>
	<node lat="67.51201666982796" lon="12.182991656813506" id="-21408">
		<tag k="alt_name" v="Littj-Stavøya" />
		<tag k="name" v="Litl-Stavøya" />
		<tag k="place" v="islet" />
		<tag k="ssr:date" v="2016-05-10" />
		<tag k="ssr:gruppe" v="kystkontur" />
		<tag k="ssr:hovedgruppe" v="sjø" />
		<tag k="ssr:stedsnr" v="414861" />
		<tag k="ssr:type" v="holmeISjø" />
	</node>
	<node lat="67.51703611428216" lon="12.053372216746778" id="-21409">
		<tag k="alt_name" v="Hansøyan" />
		<tag k="name" v="Storhansøya" />
		<tag k="place" v="islet" />
		<tag k="ssr:date" v="2016-05-10" />
		<tag k="ssr:gruppe" v="kystkontur" />
		<tag k="ssr:hovedgruppe" v="sjø" />
		<tag k="ssr:stedsnr" v="441319" />
		<tag k="ssr:type" v="holmeISjø" />
	</node>
	<node lat="67.51995000353035" lon="12.137758333127174" id="-21410">
		<tag k="fixme" v="consider seamark:type=rock or natural=shoal" />
		<tag k="name" v="Pålskjeret" />
		<tag k="place" v="islet" />
		<tag k="ssr:date" v="2016-05-10" />
		<tag k="ssr:gruppe" v="grunnerISjø" />
		<tag k="ssr:hovedgruppe" v="sjø" />
		<tag k="ssr:stedsnr" v="441326" />
		<tag k="ssr:type" v="skjærISjø" />
	</node>
	<node lat="67.51150555433077" lon="12.152213887858915" id="-21411">
		<tag k="name" v="Kalvholmen" />
		<tag k="place" v="islet" />
		<tag k="ssr:date" v="2016-05-10" />
		<tag k="ssr:gruppe" v="kystkontur" />
		<tag k="ssr:hovedgruppe" v="sjø" />
		<tag k="ssr:stedsnr" v="441332" />
		<tag k="ssr:type" v="holmeISjø" />
	</node>
	<node lat="67.4110305535542" lon="11.887433333367222" id="-21412">
		<tag k="fixme" v="consider seamark:type=rock or natural=shoal" />
		<tag k="name" v="Skulskjeret" />
		<tag k="place" v="islet" />
		<tag k="ssr:date" v="2016-05-10" />
		<tag k="ssr:gruppe" v="grunnerISjø" />
		<tag k="ssr:hovedgruppe" v="sjø" />
		<tag k="ssr:stedsnr" v="441274" />
		<tag k="ssr:type" v="skjærISjø" />
	</node>
	<node lat="67.42573055449569" lon="11.888827769008651" id="-21413">
		<tag k="alt_name" v="Værholmen" />
		<tag k="name" v="Verholmen" />
		<tag k="place" v="islet" />
		<tag k="ssr:date" v="2016-05-10" />
		<tag k="ssr:gruppe" v="kystkontur" />
		<tag k="ssr:hovedgruppe" v="sjø" />
		<tag k="ssr:stedsnr" v="441275" />
		<tag k="ssr:type" v="holmeISjø" />
	</node>
	<node lat="67.50150277488025" lon="12.076086109368735" id="-21414">
		<tag k="alt_name" v="Lyngværet" />
		<tag k="name" v="Lyngvær" />
		<tag k="place" v="island" />
		<tag k="ssr:date" v="2016-05-10" />
		<tag k="ssr:gruppe" v="kystkontur" />
		<tag k="ssr:hovedgruppe" v="sjø" />
		<tag k="ssr:stedsnr" v="442367" />
		<tag k="ssr:type" v="øyISjø" />
	</node>
	<node lat="67.48565555358202" lon="12.090238889784015" id="-21415">
		<tag k="fixme" v="consider seamark:type=rock or natural=shoal" />
		<tag k="name" v="Tindskjeran" />
		<tag k="place" v="islet" />
		<tag k="ssr:date" v="2016-05-10" />
		<tag k="ssr:gruppe" v="grunnerISjø" />
		<tag k="ssr:hovedgruppe" v="sjø" />
		<tag k="ssr:stedsnr" v="442376" />
		<tag k="ssr:type" v="skjærISjø" />
	</node>
	<node lat="67.52607499556089" lon="12.008527782451042" id="-21416">
		<tag k="name" v="Heggelvær" />
		<tag k="place" v="islet" />
		<tag k="ssr:date" v="2016-05-10" />
		<tag k="ssr:gruppe" v="kystkontur" />
		<tag k="ssr:hovedgruppe" v="sjø" />
		<tag k="ssr:stedsnr" v="442733" />
		<tag k="ssr:type" v="holmeISjø" />
	</node>
	<node lat="67.51294444625468" lon="12.001188883837647" id="-21417">
		<tag k="name" v="Lyngmorsøyan" />
		<tag k="place" v="islet" />
		<tag k="ssr:date" v="2016-05-10" />
		<tag k="ssr:gruppe" v="kystkontur" />
		<tag k="ssr:hovedgruppe" v="sjø" />
		<tag k="ssr:stedsnr" v="502300" />
		<tag k="ssr:type" v="holmeISjø" />
	</node>
	<node lat="67.46436667084943" lon="11.893850009804176" id="-21418">
		<tag k="fixme" v="consider seamark:type=rock or natural=shoal" />
		<tag k="name" v="Sandskjeret" />
		<tag k="place" v="islet" />
		<tag k="ssr:date" v="2016-05-10" />
		<tag k="ssr:gruppe" v="grunnerISjø" />
		<tag k="ssr:hovedgruppe" v="sjø" />
		<tag k="ssr:stedsnr" v="502243" />
		<tag k="ssr:type" v="skjærISjø" />
	</node>
	<node lat="67.47014166971836" lon="12.039972216708707" id="-21419">
		<tag k="name" v="Seksringmannen" />
		<tag k="place" v="islet" />
		<tag k="ssr:date" v="2016-05-10" />
		<tag k="ssr:gruppe" v="kystkontur" />
		<tag k="ssr:hovedgruppe" v="sjø" />
		<tag k="ssr:stedsnr" v="502246" />
		<tag k="ssr:type" v="holmeISjø" />
	</node>
	<node lat="67.43734999640446" lon="11.900319439974592" id="-21420">
		<tag k="alt_name" v="Austnestuva" />
		<tag k="name" v="Austnestua" />
		<tag k="natural" v="cape" />
		<tag k="ssr:date" v="2016-05-10" />
		<tag k="ssr:gruppe" v="kystkontur" />
		<tag k="ssr:hovedgruppe" v="sjø" />
		<tag k="ssr:stedsnr" v="502248" />
		<tag k="ssr:type" v="nesISjø" />
	</node>
	<node lat="67.45073611394501" lon="11.911116665680971" id="-21421">
		<tag k="name" v="Sandøya" />
		<tag k="place" v="island" />
		<tag k="ssr:date" v="2016-05-10" />
		<tag k="ssr:gruppe" v="kystkontur" />
		<tag k="ssr:hovedgruppe" v="sjø" />
		<tag k="ssr:stedsnr" v="502252" />
		<tag k="ssr:type" v="øyISjø" />
	</node>
	<node lat="67.45800278118121" lon="11.888374993519982" id="-21422">
		<tag k="alt_name" v="Melholmdrætten" />
		<tag k="name" v="Melholmdretten" />
		<tag k="place" v="islet" />
		<tag k="ssr:date" v="2016-05-10" />
		<tag k="ssr:gruppe" v="kystkontur" />
		<tag k="ssr:hovedgruppe" v="sjø" />
		<tag k="ssr:stedsnr" v="502256" />
		<tag k="ssr:type" v="holmeISjø" />
	</node>
	<node lat="67.45251666946625" lon="11.906111112260891" id="-21423">
		<tag k="alt_name" v="Sandøydrætten" />
		<tag k="name" v="Sandøydretten" />
		<tag k="place" v="islet" />
		<tag k="ssr:date" v="2016-05-10" />
		<tag k="ssr:gruppe" v="kystkontur" />
		<tag k="ssr:hovedgruppe" v="sjø" />
		<tag k="ssr:stedsnr" v="502258" />
		<tag k="ssr:type" v="holmeISjø" />
	</node>
	<node lat="67.45412777954216" lon="11.881838888289106" id="-21424">
		<tag k="alt_name" v="Hufatan" />
		<tag k="fixme" v="consider seamark:type=rock or natural=shoal" />
		<tag k="name" v="Hudfatan" />
		<tag k="place" v="islet" />
		<tag k="ssr:date" v="2016-05-10" />
		<tag k="ssr:gruppe" v="grunnerISjø" />
		<tag k="ssr:hovedgruppe" v="sjø" />
		<tag k="ssr:stedsnr" v="502259" />
		<tag k="ssr:type" v="skjærISjø" />
	</node>
	<node lat="67.40200000025209" lon="11.845180547908845" id="-21425">
		<tag k="fixme" v="consider seamark:type=rock or natural=shoal" />
		<tag k="name" v="Flesjan" />
		<tag k="place" v="islet" />
		<tag k="ssr:date" v="2016-05-10" />
		<tag k="ssr:gruppe" v="grunnerISjø" />
		<tag k="ssr:hovedgruppe" v="sjø" />
		<tag k="ssr:stedsnr" v="502261" />
		<tag k="ssr:type" v="skjærISjø" />
	</node>
	<node lat="67.42991388727913" lon="11.86188054865445" id="-21426">
		<tag k="fixme" v="consider seamark:type=rock or natural=shoal" />
		<tag k="name" v="Æflatskjeran" />
		<tag k="place" v="islet" />
		<tag k="ssr:date" v="2016-05-10" />
		<tag k="ssr:gruppe" v="grunnerISjø" />
		<tag k="ssr:hovedgruppe" v="sjø" />
		<tag k="ssr:stedsnr" v="502272" />
		<tag k="ssr:type" v="skjærISjø" />
	</node>
	<node lat="67.47859722505554" lon="12.005975011148813" id="-21427">
		<tag k="name" v="Hundneset" />
		<tag k="natural" v="cape" />
		<tag k="ssr:date" v="2016-05-10" />
		<tag k="ssr:gruppe" v="kystkontur" />
		<tag k="ssr:hovedgruppe" v="sjø" />
		<tag k="ssr:stedsnr" v="502355" />
		<tag k="ssr:type" v="nesISjø" />
	</node>
	<node lat="67.5173027819786" lon="12.233961112136313" id="-21429">
		<tag k="fixme" v="consider seamark:type=rock or natural=shoal" />
		<tag k="name" v="Store Brattklakken" />
		<tag k="place" v="islet" />
		<tag k="ssr:date" v="2016-05-10" />
		<tag k="ssr:gruppe" v="grunnerISjø" />
		<tag k="ssr:hovedgruppe" v="sjø" />
		<tag k="ssr:stedsnr" v="533683" />
		<tag k="ssr:type" v="skjærISjø" />
	</node>
	<node lat="67.50623333535593" lon="12.075391674686676" id="-21430">
		<tag k="name" v="Sør-Tjyvsøya" />
		<tag k="natural" v="cape" />
		<tag k="ssr:date" v="2016-05-10" />
		<tag k="ssr:gruppe" v="kystkontur" />
		<tag k="ssr:hovedgruppe" v="sjø" />
		<tag k="ssr:stedsnr" v="535789" />
		<tag k="ssr:type" v="nesISjø" />
	</node>
	<node lat="67.50820277960894" lon="12.081594443041316" id="-21431">
		<tag k="name" v="Nord-Tjyvsøya" />
		<tag k="natural" v="cape" />
		<tag k="ssr:date" v="2016-05-10" />
		<tag k="ssr:gruppe" v="kystkontur" />
		<tag k="ssr:hovedgruppe" v="sjø" />
		<tag k="ssr:stedsnr" v="535793" />
		<tag k="ssr:type" v="nesISjø" />
	</node>
	<node lat="67.50097222334804" lon="12.017772221647537" id="-21432">
		<tag k="fixme" v="consider seamark:type=rock or natural=shoal" />
		<tag k="name" v="Måsbakken" />
		<tag k="place" v="islet" />
		<tag k="ssr:date" v="2016-05-10" />
		<tag k="ssr:gruppe" v="grunnerISjø" />
		<tag k="ssr:hovedgruppe" v="sjø" />
		<tag k="ssr:stedsnr" v="535760" />
		<tag k="ssr:type" v="skjærISjø" />
	</node>
	<node lat="67.5110611113152" lon="11.9696888833252" id="-21433">
		<tag k="fixme" v="consider seamark:type=rock or natural=shoal" />
		<tag k="name" v="Alkungan" />
		<tag k="place" v="islet" />
		<tag k="ssr:date" v="2016-05-10" />
		<tag k="ssr:gruppe" v="grunnerISjø" />
		<tag k="ssr:hovedgruppe" v="sjø" />
		<tag k="ssr:stedsnr" v="535765" />
		<tag k="ssr:type" v="skjærISjø" />
	</node>
	<node lat="67.51146388535523" lon="12.176505561988796" id="-21434">
		<tag k="name" v="Stavøyhamna" />
		<tag k="natural" v="bay" />
		<tag k="ssr:date" v="2016-05-10" />
		<tag k="ssr:gruppe" v="kystkontur" />
		<tag k="ssr:hovedgruppe" v="sjø" />
		<tag k="ssr:stedsnr" v="535854" />
		<tag k="ssr:type" v="vågISjø" />
	</node>
	<node lat="67.5629888914793" lon="12.265338894889203" id="-21435">
		<tag k="name" v="Austregrunnskallen" />
		<tag k="natural" v="shoal" />
		<tag k="place" v="locality" />
		<tag k="ssr:date" v="2016-05-10" />
		<tag k="ssr:gruppe" v="grunnerISjø" />
		<tag k="ssr:hovedgruppe" v="sjø" />
		<tag k="ssr:stedsnr" v="561452" />
		<tag k="ssr:type" v="grunneISjø" />
	</node>
	<node lat="67.43629166669677" lon="11.893361116537609" id="-21436">
		<tag k="name" v="Steigen" />
		<tag k="natural" v="hill" />
		<tag k="place" v="locality" />
		<tag k="ssr:date" v="2016-05-10" />
		<tag k="ssr:gruppe" v="høyder" />
		<tag k="ssr:hovedgruppe" v="terreng" />
		<tag k="ssr:stedsnr" v="562245" />
		<tag k="ssr:type" v="haug" />
	</node>
	<node lat="67.45745277911254" lon="11.936644451770873" id="-21437">
		<tag k="name" v="Eidet" />
		<tag k="place" v="locality" />
		<tag k="ssr:date" v="2016-05-10" />
		<tag k="ssr:gruppe" v="kystkontur" />
		<tag k="ssr:hovedgruppe" v="sjø" />
		<tag k="ssr:stedsnr" v="562250" />
		<tag k="ssr:type" v="eidISjø" />
	</node>
	<node lat="67.51277500376725" lon="12.138527788564867" id="-21438">
		<tag k="name" v="Bursholmen" />
		<tag k="place" v="islet" />
		<tag k="ssr:date" v="2016-05-10" />
		<tag k="ssr:gruppe" v="kystkontur" />
		<tag k="ssr:hovedgruppe" v="sjø" />
		<tag k="ssr:stedsnr" v="562283" />
		<tag k="ssr:type" v="holmeISjø" />
	</node>
	<node lat="67.38363888800032" lon="11.80126944912758" id="-21439">
		<tag k="name" v="Notskallen" />
		<tag k="natural" v="shoal" />
		<tag k="place" v="locality" />
		<tag k="ssr:date" v="2016-05-10" />
		<tag k="ssr:gruppe" v="grunnerISjø" />
		<tag k="ssr:hovedgruppe" v="sjø" />
		<tag k="ssr:stedsnr" v="562289" />
		<tag k="ssr:type" v="grunneISjø" />
	</node>
	<node lat="67.51386666480306" lon="11.988047225624435" id="-21440">
		<tag k="name" v="Brunsøya" />
		<tag k="place" v="islet" />
		<tag k="ssr:date" v="2016-05-10" />
		<tag k="ssr:gruppe" v="kystkontur" />
		<tag k="ssr:hovedgruppe" v="sjø" />
		<tag k="ssr:stedsnr" v="562298" />
		<tag k="ssr:type" v="holmeISjø" />
	</node>
	<node lat="67.51762878095361" lon="12.118797427174387" id="-21441">
		<tag k="alt_name" v="Røst" />
		<tag k="amenity" v="place_of_worship" />
		<tag k="denomination" v="lutheran" />
		<tag k="name" v="Røst kirke" />
		<tag k="religion" v="christian" />
		<tag k="ssr:date" v="2021-10-15" />
		<tag k="ssr:gruppe" v="kulturinstitusjoner" />
		<tag k="ssr:hovedgruppe" v="kultur" />
		<tag k="ssr:stedsnr" v="562299" />
		<tag k="ssr:type" v="kirke" />
	</node>
	<node lat="67.52473055516346" lon="12.154161110022763" id="-21442">
		<tag k="name" v="Sørråkholmen" />
		<tag k="place" v="islet" />
		<tag k="ssr:date" v="2016-05-10" />
		<tag k="ssr:gruppe" v="kystkontur" />
		<tag k="ssr:hovedgruppe" v="sjø" />
		<tag k="ssr:stedsnr" v="562307" />
		<tag k="ssr:type" v="holmeISjø" />
	</node>
	<node lat="67.51418329248352" lon="12.105849484010403" id="-21443">
		<tag k="alt_name" v="Stamneset" />
		<tag k="fixme" v="consider place=hamlet" />
		<tag k="name" v="Stamnes" />
		<tag k="place" v="farm" />
		<tag k="ssr:date" v="2020-03-06" />
		<tag k="ssr:gruppe" v="gardsbebyggelse" />
		<tag k="ssr:hovedgruppe" v="bebyggelse" />
		<tag k="ssr:stedsnr" v="562318" />
		<tag k="ssr:type" v="gard" />
	</node>
	<node lat="67.51644228907149" lon="12.12428848075995" id="-21444">
		<tag k="fixme" v="consider place=hamlet" />
		<tag k="name" v="Grav" />
		<tag k="place" v="farm" />
		<tag k="ssr:date" v="2020-03-06" />
		<tag k="ssr:gruppe" v="gardsbebyggelse" />
		<tag k="ssr:hovedgruppe" v="bebyggelse" />
		<tag k="ssr:stedsnr" v="562323" />
		<tag k="ssr:type" v="gard" />
	</node>
	<node lat="67.52713055886986" lon="12.201922231211581" id="-21446">
		<tag k="fixme" v="consider seamark:type=rock or natural=shoal" />
		<tag k="name" v="Slumpskjeret" />
		<tag k="place" v="islet" />
		<tag k="ssr:date" v="2016-05-10" />
		<tag k="ssr:gruppe" v="grunnerISjø" />
		<tag k="ssr:hovedgruppe" v="sjø" />
		<tag k="ssr:stedsnr" v="562680" />
		<tag k="ssr:type" v="skjærISjø" />
	</node>
	<node lat="67.53344722325541" lon="12.16764444004321" id="-21447">
		<tag k="name" v="Raudbåen" />
		<tag k="natural" v="shoal" />
		<tag k="place" v="locality" />
		<tag k="ssr:date" v="2016-05-10" />
		<tag k="ssr:gruppe" v="grunnerISjø" />
		<tag k="ssr:hovedgruppe" v="sjø" />
		<tag k="ssr:stedsnr" v="562676" />
		<tag k="ssr:type" v="grunneISjø" />
	</node>
	<node lat="67.53560555359137" lon="12.207586119690905" id="-21448">
		<tag k="name" v="Langtaren" />
		<tag k="natural" v="shoal" />
		<tag k="place" v="locality" />
		<tag k="ssr:date" v="2016-05-10" />
		<tag k="ssr:gruppe" v="grunnerISjø" />
		<tag k="ssr:hovedgruppe" v="sjø" />
		<tag k="ssr:stedsnr" v="562673" />
		<tag k="ssr:type" v="grunneISjø" />
	</node>
	<node lat="67.52906389327359" lon="12.081855561605018" id="-21449">
		<tag k="alt_name" v="Heimstøyran" />
		<tag k="name" v="Heimstøran" />
		<tag k="natural" v="cape" />
		<tag k="ssr:date" v="2016-05-10" />
		<tag k="ssr:gruppe" v="kystkontur" />
		<tag k="ssr:hovedgruppe" v="sjø" />
		<tag k="ssr:stedsnr" v="562681" />
		<tag k="ssr:type" v="nesISjø" />
	</node>
	<node lat="67.47012777683645" lon="12.015175010727212" id="-21450">
		<tag k="name" v="Røstholmen" />
		<tag k="place" v="islet" />
		<tag k="ssr:date" v="2016-05-10" />
		<tag k="ssr:gruppe" v="kystkontur" />
		<tag k="ssr:hovedgruppe" v="sjø" />
		<tag k="ssr:stedsnr" v="563255" />
		<tag k="ssr:type" v="holmeISjø" />
	</node>
	<node lat="67.46509722190157" lon="11.951819447515884" id="-21451">
		<tag k="name" v="Skarvhella" />
		<tag k="natural" v="shoal" />
		<tag k="ssr:date" v="2016-05-10" />
		<tag k="ssr:gruppe" v="grunnerISjø" />
		<tag k="ssr:hovedgruppe" v="sjø" />
		<tag k="ssr:stedsnr" v="563256" />
		<tag k="ssr:type" v="klakkISjø" />
	</node>
	<node lat="67.49106666793209" lon="12.073852770994195" id="-21452">
		<tag k="alt_name" v="Storkvaløya;Kvaløyan" />
		<tag k="name" v="Stor Kvaløya" />
		<tag k="place" v="islet" />
		<tag k="ssr:date" v="2016-05-10" />
		<tag k="ssr:gruppe" v="kystkontur" />
		<tag k="ssr:hovedgruppe" v="sjø" />
		<tag k="ssr:stedsnr" v="563349" />
		<tag k="ssr:type" v="holmeISjø" />
	</node>
	<node lat="67.49503888684218" lon="12.108966676435175" id="-21453">
		<tag k="fixme" v="consider seamark:type=rock or natural=shoal" />
		<tag k="name" v="Kvalbaken" />
		<tag k="place" v="islet" />
		<tag k="ssr:date" v="2016-05-10" />
		<tag k="ssr:gruppe" v="grunnerISjø" />
		<tag k="ssr:hovedgruppe" v="sjø" />
		<tag k="ssr:stedsnr" v="563351" />
		<tag k="ssr:type" v="skjærISjø" />
	</node>
	<node lat="67.48549444409915" lon="11.888227781416616" id="-21454">
		<tag k="fixme" v="consider seamark:type=rock or natural=shoal" />
		<tag k="name" v="Ytrelåtra" />
		<tag k="place" v="islet" />
		<tag k="ssr:date" v="2016-05-10" />
		<tag k="ssr:gruppe" v="grunnerISjø" />
		<tag k="ssr:hovedgruppe" v="sjø" />
		<tag k="ssr:stedsnr" v="563355" />
		<tag k="ssr:type" v="skjærISjø" />
	</node>
	<node lat="67.55298055829928" lon="12.059019446058517" id="-21455">
		<tag k="name" v="Ørbogskallen" />
		<tag k="natural" v="shoal" />
		<tag k="place" v="locality" />
		<tag k="ssr:date" v="2016-05-10" />
		<tag k="ssr:gruppe" v="grunnerISjø" />
		<tag k="ssr:hovedgruppe" v="sjø" />
		<tag k="ssr:stedsnr" v="563748" />
		<tag k="ssr:type" v="grunneISjø" />
	</node>
	<node lat="67.49133888863535" lon="12.048527780049683" id="-21456">
		<tag k="name" v="Røst" />
		<tag k="place" v="island" />
		<tag k="ssr:date" v="2016-05-10" />
		<tag k="ssr:gruppe" v="kystkontur" />
		<tag k="ssr:hovedgruppe" v="sjø" />
		<tag k="ssr:stedsnr" v="594391" />
		<tag k="ssr:type" v="øygruppeISjø" />
	</node>
	<node lat="67.4077000009004" lon="11.977491668004163" id="-21457">
		<tag k="name" v="Seiflesa" />
		<tag k="natural" v="shoal" />
		<tag k="place" v="locality" />
		<tag k="ssr:date" v="2016-05-10" />
		<tag k="ssr:gruppe" v="grunnerISjø" />
		<tag k="ssr:hovedgruppe" v="sjø" />
		<tag k="ssr:stedsnr" v="594336" />
		<tag k="ssr:type" v="grunneISjø" />
	</node>
	<node lat="67.52358888688967" lon="12.004880559636423" id="-21458">
		<tag k="fixme" v="consider seamark:type=rock or natural=shoal" />
		<tag k="name" v="Steinan" />
		<tag k="place" v="islet" />
		<tag k="ssr:date" v="2016-05-10" />
		<tag k="ssr:gruppe" v="grunnerISjø" />
		<tag k="ssr:hovedgruppe" v="sjø" />
		<tag k="ssr:stedsnr" v="595725" />
		<tag k="ssr:type" v="skjærISjø" />
	</node>
	<node lat="67.4093388879701" lon="11.862199996798333" id="-21459">
		<tag k="fixme" v="consider seamark:type=rock or natural=shoal" />
		<tag k="name" v="Flesjan" />
		<tag k="place" v="islet" />
		<tag k="ssr:date" v="2016-05-10" />
		<tag k="ssr:gruppe" v="grunnerISjø" />
		<tag k="ssr:hovedgruppe" v="sjø" />
		<tag k="ssr:stedsnr" v="595588" />
		<tag k="ssr:type" v="skjærISjø" />
	</node>
	<node lat="67.51748889229758" lon="12.000999992573298" id="-21460">
		<tag k="fixme" v="consider seamark:type=rock or natural=shoal" />
		<tag k="name" v="Svarvungan" />
		<tag k="place" v="islet" />
		<tag k="ssr:date" v="2016-05-10" />
		<tag k="ssr:gruppe" v="grunnerISjø" />
		<tag k="ssr:hovedgruppe" v="sjø" />
		<tag k="ssr:stedsnr" v="596692" />
		<tag k="ssr:type" v="skjærISjø" />
	</node>
	<node lat="67.47828055774171" lon="12.02238332644862" id="-21461">
		<tag k="name" v="Surteigen" />
		<tag k="place" v="locality" />
		<tag k="ssr:date" v="2016-05-10" />
		<tag k="ssr:gruppe" v="dyrkamark" />
		<tag k="ssr:hovedgruppe" v="markslag" />
		<tag k="ssr:stedsnr" v="596071" />
		<tag k="ssr:type" v="utmark" />
	</node>
	<node lat="67.5223500020062" lon="12.138533342057382" id="-21463">
		<tag k="name" v="Demma" />
		<tag k="place" v="islet" />
		<tag k="ssr:date" v="2016-05-10" />
		<tag k="ssr:gruppe" v="kystkontur" />
		<tag k="ssr:hovedgruppe" v="sjø" />
		<tag k="ssr:stedsnr" v="596686" />
		<tag k="ssr:type" v="holmeISjø" />
	</node>
	<node lat="67.520636107642" lon="12.22319443533327" id="-21464">
		<tag k="fixme" v="consider seamark:type=rock or natural=shoal" />
		<tag k="name" v="Blomskjeret" />
		<tag k="place" v="islet" />
		<tag k="ssr:date" v="2016-05-10" />
		<tag k="ssr:gruppe" v="grunnerISjø" />
		<tag k="ssr:hovedgruppe" v="sjø" />
		<tag k="ssr:stedsnr" v="622444" />
		<tag k="ssr:type" v="skjærISjø" />
	</node>
	<node lat="67.56579722265406" lon="12.325980567157176" id="-21465">
		<tag k="name" v="Hausen" />
		<tag k="natural" v="shoal" />
		<tag k="place" v="locality" />
		<tag k="ssr:date" v="2016-05-10" />
		<tag k="ssr:gruppe" v="grunnerISjø" />
		<tag k="ssr:hovedgruppe" v="sjø" />
		<tag k="ssr:stedsnr" v="622450" />
		<tag k="ssr:type" v="grunneISjø" />
	</node>
	<node lat="67.51265000430111" lon="12.192708331797935" id="-21466">
		<tag k="name" v="Stavøyneset" />
		<tag k="natural" v="cape" />
		<tag k="ssr:date" v="2016-05-10" />
		<tag k="ssr:gruppe" v="kystkontur" />
		<tag k="ssr:hovedgruppe" v="sjø" />
		<tag k="ssr:stedsnr" v="623338" />
		<tag k="ssr:type" v="nesISjø" />
	</node>
	<node lat="67.51026388792161" lon="12.074824995530468" id="-21467">
		<tag k="name" v="Bursholmen" />
		<tag k="place" v="islet" />
		<tag k="ssr:date" v="2016-05-10" />
		<tag k="ssr:gruppe" v="kystkontur" />
		<tag k="ssr:hovedgruppe" v="sjø" />
		<tag k="ssr:stedsnr" v="623341" />
		<tag k="ssr:type" v="holmeISjø" />
	</node>
	<node lat="67.50806944420295" lon="12.164805550068893" id="-21468">
		<tag k="alt_name" v="Kyrhaugen" />
		<tag k="name" v="Kyrrhaugen" />
		<tag k="place" v="islet" />
		<tag k="ssr:date" v="2016-05-10" />
		<tag k="ssr:gruppe" v="kystkontur" />
		<tag k="ssr:hovedgruppe" v="sjø" />
		<tag k="ssr:stedsnr" v="623351" />
		<tag k="ssr:type" v="holmeISjø" />
	</node>
	<node lat="67.49334722348826" lon="11.83356110638326" id="-21469">
		<tag k="alt_name" v="Torvestbåen" />
		<tag k="name" v="Torsvestbåen" />
		<tag k="natural" v="shoal" />
		<tag k="place" v="locality" />
		<tag k="ssr:date" v="2016-05-10" />
		<tag k="ssr:gruppe" v="grunnerISjø" />
		<tag k="ssr:hovedgruppe" v="sjø" />
		<tag k="ssr:stedsnr" v="623354" />
		<tag k="ssr:type" v="grunneISjø" />
	</node>
	<node lat="67.46100277582258" lon="11.8901222274752" id="-21470">
		<tag k="name" v="Melholmen" />
		<tag k="place" v="islet" />
		<tag k="ssr:date" v="2016-05-10" />
		<tag k="ssr:gruppe" v="kystkontur" />
		<tag k="ssr:hovedgruppe" v="sjø" />
		<tag k="ssr:stedsnr" v="623276" />
		<tag k="ssr:type" v="holmeISjø" />
	</node>
	<node lat="67.41990277861805" lon="11.89545277865409" id="-21471">
		<tag k="alt_name" v="Gjellfruværet" />
		<tag k="name" v="Gjelfruvær" />
		<tag k="place" v="islet" />
		<tag k="ssr:date" v="2016-05-10" />
		<tag k="ssr:gruppe" v="kystkontur" />
		<tag k="ssr:hovedgruppe" v="sjø" />
		<tag k="ssr:stedsnr" v="623286" />
		<tag k="ssr:type" v="holmeISjø" />
	</node>
	<node lat="67.48348333586847" lon="12.00108889793095" id="-21472">
		<tag k="fixme" v="consider seamark:type=rock or natural=shoal" />
		<tag k="name" v="Veggskjeran" />
		<tag k="place" v="islet" />
		<tag k="ssr:date" v="2016-05-10" />
		<tag k="ssr:gruppe" v="grunnerISjø" />
		<tag k="ssr:hovedgruppe" v="sjø" />
		<tag k="ssr:stedsnr" v="623368" />
		<tag k="ssr:type" v="skjærISjø" />
	</node>
	<node lat="67.49347500027278" lon="12.085016671668342" id="-21473">
		<tag k="alt_name" v="Tjuvøya" />
		<tag k="name" v="Tjyvøya" />
		<tag k="place" v="islet" />
		<tag k="ssr:date" v="2016-05-10" />
		<tag k="ssr:gruppe" v="kystkontur" />
		<tag k="ssr:hovedgruppe" v="sjø" />
		<tag k="ssr:stedsnr" v="623374" />
		<tag k="ssr:type" v="holmeISjø" />
	</node>
	<node lat="67.4667999987756" lon="11.949058335328733" id="-21474">
		<tag k="name" v="Moslia" />
		<tag k="natural" v="slope" />
		<tag k="place" v="locality" />
		<tag k="ssr:date" v="2016-05-10" />
		<tag k="ssr:gruppe" v="skråninger" />
		<tag k="ssr:hovedgruppe" v="terreng" />
		<tag k="ssr:stedsnr" v="623250" />
		<tag k="ssr:type" v="li" />
	</node>
	<node lat="67.47473333698302" lon="12.084769446683714" id="-21475">
		<tag k="name" v="Ramnskjerleia" />
		<tag k="natural" v="strait" />
		<tag k="ssr:date" v="2016-05-10" />
		<tag k="ssr:gruppe" v="kystkontur" />
		<tag k="ssr:hovedgruppe" v="sjø" />
		<tag k="ssr:stedsnr" v="623257" />
		<tag k="ssr:type" v="sundISjø" />
	</node>
	<node lat="67.57343888993732" lon="12.18912499786951" id="-21477">
		<tag k="name" v="Nordbakken" />
		<tag k="natural" v="shoal" />
		<tag k="place" v="locality" />
		<tag k="ssr:date" v="2016-05-10" />
		<tag k="ssr:gruppe" v="grunnerISjø" />
		<tag k="ssr:hovedgruppe" v="sjø" />
		<tag k="ssr:stedsnr" v="623737" />
		<tag k="ssr:type" v="grunneISjø" />
	</node>
	<node lat="67.50339166383283" lon="12.010413886741633" id="-21478">
		<tag k="fixme" v="consider seamark:type=rock or natural=shoal" />
		<tag k="name" v="Kvitungan" />
		<tag k="place" v="islet" />
		<tag k="ssr:date" v="2016-05-10" />
		<tag k="ssr:gruppe" v="grunnerISjø" />
		<tag k="ssr:hovedgruppe" v="sjø" />
		<tag k="ssr:stedsnr" v="656819" />
		<tag k="ssr:type" v="skjærISjø" />
	</node>
	<node lat="67.51393610869295" lon="12.076822212124322" id="-21479">
		<tag k="name" v="Ystnes" />
		<tag k="natural" v="cape" />
		<tag k="ssr:date" v="2016-05-10" />
		<tag k="ssr:gruppe" v="kystkontur" />
		<tag k="ssr:hovedgruppe" v="sjø" />
		<tag k="ssr:stedsnr" v="656821" />
		<tag k="ssr:type" v="nesISjø" />
	</node>
	<node lat="67.5082611112281" lon="12.063161118515863" id="-21480">
		<tag k="fixme" v="consider seamark:type=rock or natural=shoal" />
		<tag k="name" v="Kveldsbeita" />
		<tag k="place" v="islet" />
		<tag k="ssr:date" v="2016-05-10" />
		<tag k="ssr:gruppe" v="grunnerISjø" />
		<tag k="ssr:hovedgruppe" v="sjø" />
		<tag k="ssr:stedsnr" v="656824" />
		<tag k="ssr:type" v="skjærISjø" />
	</node>
	<node lat="67.4827583375224" lon="12.001149991800894" id="-21481">
		<tag k="fixme" v="consider seamark:type=rock or natural=shoal" />
		<tag k="name" v="Sørveggskjeret" />
		<tag k="place" v="islet" />
		<tag k="ssr:date" v="2016-05-10" />
		<tag k="ssr:gruppe" v="grunnerISjø" />
		<tag k="ssr:hovedgruppe" v="sjø" />
		<tag k="ssr:stedsnr" v="657096" />
		<tag k="ssr:type" v="skjærISjø" />
	</node>
	<node lat="67.48355832969102" lon="12.015636103629127" id="-21482">
		<tag k="name" v="Grindteigen" />
		<tag k="natural" v="slope" />
		<tag k="place" v="locality" />
		<tag k="ssr:date" v="2016-05-10" />
		<tag k="ssr:gruppe" v="skråninger" />
		<tag k="ssr:hovedgruppe" v="terreng" />
		<tag k="ssr:stedsnr" v="657098" />
		<tag k="ssr:type" v="li" />
	</node>
	<node lat="67.48232221775723" lon="12.014622223341261" id="-21483">
		<tag k="name" v="Nesfloget" />
		<tag k="natural" v="cliff" />
		<tag k="ssr:date" v="2016-05-10" />
		<tag k="ssr:gruppe" v="terrengdetaljer" />
		<tag k="ssr:hovedgruppe" v="terreng" />
		<tag k="ssr:stedsnr" v="657101" />
		<tag k="ssr:type" v="stup" />
	</node>
	<node lat="67.52150833412902" lon="12.126363883390537" id="-21484">
		<tag k="man_made" v="cairn" />
		<tag k="name" v="Middagsvarden" />
		<tag k="place" v="locality" />
		<tag k="ssr:date" v="2016-05-10" />
		<tag k="ssr:gruppe" v="navigasjon" />
		<tag k="ssr:hovedgruppe" v="infrastruktur" />
		<tag k="ssr:stedsnr" v="657550" />
		<tag k="ssr:type" v="varde" />
	</node>
	<node lat="67.4001944478049" lon="11.902372214208693" id="-21485">
		<tag k="fixme" v="consider seamark:type=rock or natural=shoal" />
		<tag k="name" v="Bollen" />
		<tag k="place" v="islet" />
		<tag k="ssr:date" v="2016-05-11" />
		<tag k="ssr:gruppe" v="grunnerISjø" />
		<tag k="ssr:hovedgruppe" v="sjø" />
		<tag k="ssr:stedsnr" v="715357" />
		<tag k="ssr:type" v="skjærISjø" />
	</node>
	<node lat="67.51341666365344" lon="12.088300007780559" id="-21486">
		<tag k="name" v="Øver-Kalvøya" />
		<tag k="natural" v="cape" />
		<tag k="ssr:date" v="2016-05-11" />
		<tag k="ssr:gruppe" v="kystkontur" />
		<tag k="ssr:hovedgruppe" v="sjø" />
		<tag k="ssr:stedsnr" v="717795" />
		<tag k="ssr:type" v="nesISjø" />
	</node>
	<node lat="67.45351667054587" lon="11.935522227723377" id="-21487">
		<tag k="fixme" v="consider seamark:type=rock or natural=shoal" />
		<tag k="name" v="Rokknesfluan" />
		<tag k="place" v="islet" />
		<tag k="ssr:date" v="2016-05-11" />
		<tag k="ssr:gruppe" v="grunnerISjø" />
		<tag k="ssr:hovedgruppe" v="sjø" />
		<tag k="ssr:stedsnr" v="718060" />
		<tag k="ssr:type" v="skjærISjø" />
	</node>
	<node lat="67.48643333394921" lon="11.96251665796661" id="-21488">
		<tag k="fixme" v="consider seamark:type=rock or natural=shoal" />
		<tag k="name" v="Svartskjeret" />
		<tag k="place" v="islet" />
		<tag k="ssr:date" v="2016-05-11" />
		<tag k="ssr:gruppe" v="grunnerISjø" />
		<tag k="ssr:hovedgruppe" v="sjø" />
		<tag k="ssr:stedsnr" v="718858" />
		<tag k="ssr:type" v="skjærISjø" />
	</node>
	<node lat="67.46274166386836" lon="11.947550010353906" id="-21489">
		<tag k="alt_name" v="Sørskarvhella" />
		<tag k="name" v="Sør-Skarvhella" />
		<tag k="natural" v="shoal" />
		<tag k="ssr:date" v="2016-05-11" />
		<tag k="ssr:gruppe" v="grunnerISjø" />
		<tag k="ssr:hovedgruppe" v="sjø" />
		<tag k="ssr:stedsnr" v="745281" />
		<tag k="ssr:type" v="klakkISjø" />
	</node>
	<node lat="67.37078889033755" lon="11.741980566473726" id="-21490">
		<tag k="name" v="Sørskallen" />
		<tag k="natural" v="shoal" />
		<tag k="place" v="locality" />
		<tag k="ssr:date" v="2016-05-11" />
		<tag k="ssr:gruppe" v="grunnerISjø" />
		<tag k="ssr:hovedgruppe" v="sjø" />
		<tag k="ssr:stedsnr" v="745333" />
		<tag k="ssr:type" v="grunneISjø" />
	</node>
	<node lat="67.51833055602006" lon="12.19302500963884" id="-21491">
		<tag k="fixme" v="consider seamark:type=rock or natural=shoal" />
		<tag k="name" v="Langskjeret" />
		<tag k="place" v="islet" />
		<tag k="ssr:date" v="2016-05-11" />
		<tag k="ssr:gruppe" v="grunnerISjø" />
		<tag k="ssr:hovedgruppe" v="sjø" />
		<tag k="ssr:stedsnr" v="745343" />
		<tag k="ssr:type" v="skjærISjø" />
	</node>
	<node lat="67.52206388524722" lon="12.187641654582105" id="-21492">
		<tag k="alt_name" v="Littj-Låtra;Låtra" />
		<tag k="fixme" v="multiple name tags, choose one and add the other to alt_name" />
		<tag k="name" v="Nordlåtra;Litl-Låtra" />
		<tag k="place" v="islet" />
		<tag k="ssr:date" v="2016-05-11" />
		<tag k="ssr:gruppe" v="kystkontur" />
		<tag k="ssr:hovedgruppe" v="sjø" />
		<tag k="ssr:stedsnr" v="745345" />
		<tag k="ssr:type" v="holmeISjø" />
	</node>
	<node lat="67.52432778103052" lon="12.11520278230325" id="-21493">
		<tag k="fixme" v="consider place=hamlet" />
		<tag k="name" v="Røstlandet" />
		<tag k="place" v="village" />
		<tag k="ssr:date" v="2016-05-11" />
		<tag k="ssr:gruppe" v="bebyggelsesområder" />
		<tag k="ssr:hovedgruppe" v="bebyggelse" />
		<tag k="ssr:stedsnr" v="745353" />
		<tag k="ssr:type" v="bygdelagBygd" />
	</node>
	<node lat="67.5101833337839" lon="12.185297211833147" id="-21495">
		<tag k="alt_name" v="Staven" />
		<tag k="name" v="Stavøya" />
		<tag k="place" v="island" />
		<tag k="ssr:date" v="2016-05-11" />
		<tag k="ssr:gruppe" v="kystkontur" />
		<tag k="ssr:hovedgruppe" v="sjø" />
		<tag k="ssr:stedsnr" v="745365" />
		<tag k="ssr:type" v="øyISjø" />
	</node>
	<node lat="67.49547499949304" lon="11.978866658086126" id="-21496">
		<tag k="fixme" v="consider seamark:type=rock or natural=shoal" />
		<tag k="name" v="Småskjeran" />
		<tag k="place" v="islet" />
		<tag k="ssr:date" v="2016-05-11" />
		<tag k="ssr:gruppe" v="grunnerISjø" />
		<tag k="ssr:hovedgruppe" v="sjø" />
		<tag k="ssr:stedsnr" v="745366" />
		<tag k="ssr:type" v="skjærISjø" />
	</node>
	<node lat="67.5120055511912" lon="12.082438892529073" id="-21497">
		<tag k="name" v="Kalvøya" />
		<tag k="place" v="islet" />
		<tag k="ssr:date" v="2016-05-11" />
		<tag k="ssr:gruppe" v="kystkontur" />
		<tag k="ssr:hovedgruppe" v="sjø" />
		<tag k="ssr:stedsnr" v="745368" />
		<tag k="ssr:type" v="holmeISjø" />
	</node>
	<node lat="67.51577222111253" lon="12.127005559342146" id="-21498">
		<tag k="fixme" v="consider seamark:type=rock or natural=shoal" />
		<tag k="name" v="Vardan" />
		<tag k="place" v="islet" />
		<tag k="ssr:date" v="2016-05-11" />
		<tag k="ssr:gruppe" v="grunnerISjø" />
		<tag k="ssr:hovedgruppe" v="sjø" />
		<tag k="ssr:stedsnr" v="745370" />
		<tag k="ssr:type" v="skjærISjø" />
	</node>
	<node lat="67.46513055543515" lon="11.931316672745847" id="-21499">
		<tag k="name" v="Tussen" />
		<tag k="natural" v="cape" />
		<tag k="ssr:date" v="2016-05-11" />
		<tag k="ssr:gruppe" v="kystkontur" />
		<tag k="ssr:hovedgruppe" v="sjø" />
		<tag k="ssr:stedsnr" v="745285" />
		<tag k="ssr:type" v="nesISjø" />
	</node>
	<node lat="67.47821111259705" lon="11.951072233922249" id="-21500">
		<tag k="fixme" v="consider seamark:type=rock or natural=shoal" />
		<tag k="name" v="Olaskjeran" />
		<tag k="place" v="islet" />
		<tag k="ssr:date" v="2016-05-11" />
		<tag k="ssr:gruppe" v="grunnerISjø" />
		<tag k="ssr:hovedgruppe" v="sjø" />
		<tag k="ssr:stedsnr" v="745295" />
		<tag k="ssr:type" v="skjærISjø" />
	</node>
	<node lat="67.48355277404596" lon="12.011919453293755" id="-21501">
		<tag k="fixme" v="consider natural=peak for the most distinct mountains in the district" />
		<tag k="name" v="Nordveggen" />
		<tag k="natural" v="hill" />
		<tag k="place" v="locality" />
		<tag k="ssr:date" v="2016-05-11" />
		<tag k="ssr:gruppe" v="høyder" />
		<tag k="ssr:hovedgruppe" v="terreng" />
		<tag k="ssr:stedsnr" v="745390" />
		<tag k="ssr:type" v="fjell" />
	</node>
	<node lat="67.47856666857517" lon="11.842988889931181" id="-21502">
		<tag k="name" v="Steinan" />
		<tag k="natural" v="shoal" />
		<tag k="place" v="locality" />
		<tag k="ssr:date" v="2016-05-11" />
		<tag k="ssr:gruppe" v="grunnerISjø" />
		<tag k="ssr:hovedgruppe" v="sjø" />
		<tag k="ssr:stedsnr" v="745395" />
		<tag k="ssr:type" v="grunneISjø" />
	</node>
	<node lat="67.49748611099626" lon="12.23397778043697" id="-21503">
		<tag k="alt_name" v="Froan" />
		<tag k="fixme" v="consider seamark:type=rock or natural=shoal" />
		<tag k="name" v="Froen" />
		<tag k="place" v="islet" />
		<tag k="ssr:date" v="2016-05-11" />
		<tag k="ssr:gruppe" v="grunnerISjø" />
		<tag k="ssr:hovedgruppe" v="sjø" />
		<tag k="ssr:stedsnr" v="745402" />
		<tag k="ssr:type" v="skjærISjø" />
	</node>
	<node lat="67.52999722533222" lon="12.139652767609787" id="-21504">
		<tag k="alt_name" v="Grindskjeret" />
		<tag k="fixme" v="consider seamark:type=rock or natural=shoal" />
		<tag k="name" v="Nesendskjeret" />
		<tag k="place" v="islet" />
		<tag k="ssr:date" v="2016-05-11" />
		<tag k="ssr:gruppe" v="grunnerISjø" />
		<tag k="ssr:hovedgruppe" v="sjø" />
		<tag k="ssr:stedsnr" v="745728" />
		<tag k="ssr:type" v="skjærISjø" />
	</node>
	<node lat="67.53203333760189" lon="12.110266661062228" id="-21505">
		<tag k="name" v="Klubben" />
		<tag k="natural" v="cape" />
		<tag k="ssr:date" v="2016-05-11" />
		<tag k="ssr:gruppe" v="kystkontur" />
		<tag k="ssr:hovedgruppe" v="sjø" />
		<tag k="ssr:stedsnr" v="745732" />
		<tag k="ssr:type" v="nesISjø" />
	</node>
	<node lat="67.49029444491414" lon="12.04513054408768" id="-21506">
		<tag k="fixme" v="consider seamark:type=rock or natural=shoal" />
		<tag k="name" v="Kariskjeret" />
		<tag k="place" v="islet" />
		<tag k="ssr:date" v="2016-05-11" />
		<tag k="ssr:gruppe" v="grunnerISjø" />
		<tag k="ssr:hovedgruppe" v="sjø" />
		<tag k="ssr:stedsnr" v="778069" />
		<tag k="ssr:type" v="skjærISjø" />
	</node>
	<node lat="67.48256389247918" lon="12.028155558660705" id="-21507">
		<tag k="name" v="Skarvsteinan" />
		<tag k="natural" v="stone" />
		<tag k="ssr:date" v="2016-05-11" />
		<tag k="ssr:gruppe" v="løsmasseavsetninger" />
		<tag k="ssr:hovedgruppe" v="markslag" />
		<tag k="ssr:stedsnr" v="778070" />
		<tag k="ssr:type" v="stein" />
	</node>
	<node lat="67.5110861084582" lon="12.126144452112396" id="-21508">
		<tag k="fixme" v="consider seamark:type=rock or natural=shoal" />
		<tag k="name" v="Måsklubban" />
		<tag k="place" v="islet" />
		<tag k="ssr:date" v="2016-05-11" />
		<tag k="ssr:gruppe" v="grunnerISjø" />
		<tag k="ssr:hovedgruppe" v="sjø" />
		<tag k="ssr:stedsnr" v="778842" />
		<tag k="ssr:type" v="skjærISjø" />
	</node>
	<node lat="67.50846389187721" lon="11.961886102091634" id="-21509">
		<tag k="name" v="Storlåtran" />
		<tag k="place" v="islet" />
		<tag k="ssr:date" v="2016-05-11" />
		<tag k="ssr:gruppe" v="kystkontur" />
		<tag k="ssr:hovedgruppe" v="sjø" />
		<tag k="ssr:stedsnr" v="778763" />
		<tag k="ssr:type" v="holmeISjø" />
	</node>
	<node lat="67.42152222134423" lon="11.865358342123193" id="-21510">
		<tag k="fixme" v="consider seamark:type=rock or natural=shoal" />
		<tag k="name" v="Hærnykflesan" />
		<tag k="place" v="islet" />
		<tag k="ssr:date" v="2016-05-11" />
		<tag k="ssr:gruppe" v="grunnerISjø" />
		<tag k="ssr:hovedgruppe" v="sjø" />
		<tag k="ssr:stedsnr" v="805261" />
		<tag k="ssr:type" v="skjærISjø" />
	</node>
	<node lat="67.42351389042335" lon="11.87908054649435" id="-21511">
		<tag k="fixme" v="consider seamark:type=rock or natural=shoal" />
		<tag k="name" v="Olmassastøskjeran" />
		<tag k="place" v="islet" />
		<tag k="ssr:date" v="2016-05-11" />
		<tag k="ssr:gruppe" v="grunnerISjø" />
		<tag k="ssr:hovedgruppe" v="sjø" />
		<tag k="ssr:stedsnr" v="805265" />
		<tag k="ssr:type" v="skjærISjø" />
	</node>
	<node lat="67.42905833381089" lon="11.90965000725352" id="-21512">
		<tag k="alt_name" v="Grautdalen" />
		<tag k="name" v="Grautdallen" />
		<tag k="natural" v="shoal" />
		<tag k="place" v="locality" />
		<tag k="ssr:date" v="2016-05-11" />
		<tag k="ssr:gruppe" v="grunnerISjø" />
		<tag k="ssr:hovedgruppe" v="sjø" />
		<tag k="ssr:stedsnr" v="805270" />
		<tag k="ssr:type" v="grunneISjø" />
	</node>
	<node lat="67.52514166909083" lon="12.086497220682825" id="-21513">
		<tag k="alt_name" v="Ånnhammaren" />
		<tag k="fixme" v="consider natural=peak for the most distinct mountains in the district" />
		<tag k="name" v="Ånghammaren" />
		<tag k="natural" v="hill" />
		<tag k="place" v="locality" />
		<tag k="ssr:date" v="2016-05-11" />
		<tag k="ssr:gruppe" v="høyder" />
		<tag k="ssr:hovedgruppe" v="terreng" />
		<tag k="ssr:stedsnr" v="805306" />
		<tag k="ssr:type" v="ås" />
	</node>
	<node lat="67.52269166714962" lon="12.13478887800114" id="-21514">
		<tag k="name" v="Demma" />
		<tag k="place" v="locality" />
		<tag k="ssr:date" v="2016-05-11" />
		<tag k="ssr:gruppe" v="gardsbebyggelse" />
		<tag k="ssr:hovedgruppe" v="bebyggelse" />
		<tag k="ssr:stedsnr" v="805309" />
		<tag k="ssr:type" v="byggForJordbrukFiskeOgFangst" />
	</node>
	<node lat="67.5168194415792" lon="11.989391663286204" id="-21515">
		<tag k="alt_name" v="Littjsvarvøya" />
		<tag k="name" v="Litlsvarvøya" />
		<tag k="place" v="islet" />
		<tag k="ssr:date" v="2016-05-11" />
		<tag k="ssr:gruppe" v="kystkontur" />
		<tag k="ssr:hovedgruppe" v="sjø" />
		<tag k="ssr:stedsnr" v="805687" />
		<tag k="ssr:type" v="holmeISjø" />
	</node>
	<node lat="67.53275278135418" lon="12.128516674239874" id="-21516">
		<tag k="name" v="Sveinskallen" />
		<tag k="natural" v="shoal" />
		<tag k="place" v="locality" />
		<tag k="ssr:date" v="2016-05-11" />
		<tag k="ssr:gruppe" v="grunnerISjø" />
		<tag k="ssr:hovedgruppe" v="sjø" />
		<tag k="ssr:stedsnr" v="805696" />
		<tag k="ssr:type" v="grunneISjø" />
	</node>
	<node lat="67.46344722239384" lon="11.9554138850915" id="-21517">
		<tag k="alt_name" v="Skarvskjeran" />
		<tag k="fixme" v="consider seamark:type=rock or natural=shoal" />
		<tag k="name" v="Skarvskjeret" />
		<tag k="place" v="islet" />
		<tag k="ssr:date" v="2016-05-11" />
		<tag k="ssr:gruppe" v="grunnerISjø" />
		<tag k="ssr:hovedgruppe" v="sjø" />
		<tag k="ssr:stedsnr" v="806311" />
		<tag k="ssr:type" v="skjærISjø" />
	</node>
	<node lat="67.4713611134986" lon="11.950488887130202" id="-21518">
		<tag k="alt_name" v="Indre Trollet" />
		<tag k="name" v="Trollet" />
		<tag k="natural" v="shoal" />
		<tag k="place" v="locality" />
		<tag k="ssr:date" v="2016-05-11" />
		<tag k="ssr:gruppe" v="grunnerISjø" />
		<tag k="ssr:hovedgruppe" v="sjø" />
		<tag k="ssr:stedsnr" v="806281" />
		<tag k="ssr:type" v="grunneISjø" />
	</node>
	<node lat="67.40484166795486" lon="11.877805560224491" id="-21519">
		<tag k="alt_name" v="Smellbåen" />
		<tag k="fixme" v="consider seamark:type=rock or natural=shoal" />
		<tag k="name" v="Smellbåskjeret" />
		<tag k="place" v="islet" />
		<tag k="ssr:date" v="2016-05-11" />
		<tag k="ssr:gruppe" v="grunnerISjø" />
		<tag k="ssr:hovedgruppe" v="sjø" />
		<tag k="ssr:stedsnr" v="806294" />
		<tag k="ssr:type" v="skjærISjø" />
	</node>
	<node lat="67.50376111364794" lon="12.048008322703451" id="-21520">
		<tag k="name" v="Tjeldingsholmen" />
		<tag k="place" v="islet" />
		<tag k="ssr:date" v="2016-05-11" />
		<tag k="ssr:gruppe" v="kystkontur" />
		<tag k="ssr:hovedgruppe" v="sjø" />
		<tag k="ssr:stedsnr" v="806350" />
		<tag k="ssr:type" v="holmeISjø" />
	</node>
	<node lat="67.50024166619629" lon="12.083958340612261" id="-21521">
		<tag k="name" v="Marøya" />
		<tag k="place" v="islet" />
		<tag k="ssr:date" v="2016-05-11" />
		<tag k="ssr:gruppe" v="kystkontur" />
		<tag k="ssr:hovedgruppe" v="sjø" />
		<tag k="ssr:stedsnr" v="806355" />
		<tag k="ssr:type" v="holmeISjø" />
	</node>
	<node lat="67.48306944695086" lon="12.02523056249867" id="-21522">
		<tag k="name" v="Hertna" />
		<tag k="natural" v="cape" />
		<tag k="ssr:date" v="2016-05-11" />
		<tag k="ssr:gruppe" v="kystkontur" />
		<tag k="ssr:hovedgruppe" v="sjø" />
		<tag k="ssr:stedsnr" v="806361" />
		<tag k="ssr:type" v="nesISjø" />
	</node>
	<node lat="67.51553055811127" lon="12.166330558379947" id="-21523">
		<tag k="name" v="Eggeløysa" />
		<tag k="place" v="islet" />
		<tag k="ssr:date" v="2016-05-11" />
		<tag k="ssr:gruppe" v="kystkontur" />
		<tag k="ssr:hovedgruppe" v="sjø" />
		<tag k="ssr:stedsnr" v="806329" />
		<tag k="ssr:type" v="holmeISjø" />
	</node>
	<node lat="67.47978888725295" lon="12.024880551354986" id="-21524">
		<tag k="name" v="Dalteigen" />
		<tag k="place" v="locality" />
		<tag k="ssr:date" v="2016-05-11" />
		<tag k="ssr:gruppe" v="dyrkamark" />
		<tag k="ssr:hovedgruppe" v="markslag" />
		<tag k="ssr:stedsnr" v="839057" />
		<tag k="ssr:type" v="utmark" />
	</node>
	<node lat="67.46550555190036" lon="11.887663898918671" id="-21525">
		<tag k="fixme" v="consider seamark:type=rock or natural=shoal" />
		<tag k="name" v="Sandskjernakkan" />
		<tag k="place" v="islet" />
		<tag k="ssr:date" v="2016-05-11" />
		<tag k="ssr:gruppe" v="grunnerISjø" />
		<tag k="ssr:hovedgruppe" v="sjø" />
		<tag k="ssr:stedsnr" v="839071" />
		<tag k="ssr:type" v="skjærISjø" />
	</node>
	<node lat="67.48034166908091" lon="12.01837221663527" id="-21526">
		<tag k="name" v="Nonstuva" />
		<tag k="natural" v="ridge" />
		<tag k="place" v="locality" />
		<tag k="ssr:date" v="2016-05-11" />
		<tag k="ssr:gruppe" v="høyder" />
		<tag k="ssr:hovedgruppe" v="terreng" />
		<tag k="ssr:stedsnr" v="839087" />
		<tag k="ssr:type" v="rygg" />
	</node>
	<node lat="67.52736944146939" lon="12.121969449511193" id="-21527">
		<tag k="name" v="Kvalvåg" />
		<tag k="place" v="farm" />
		<tag k="ssr:date" v="2016-05-11" />
		<tag k="ssr:gruppe" v="gardsbebyggelse" />
		<tag k="ssr:hovedgruppe" v="bebyggelse" />
		<tag k="ssr:stedsnr" v="839547" />
		<tag k="ssr:type" v="bruk" />
	</node>
	<node lat="67.52237222641863" lon="12.10734444489095" id="-21528">
		<tag k="name" v="Badetjønna" />
		<tag k="natural" v="water" />
		<tag k="ssr:date" v="2016-05-11" />
		<tag k="ssr:gruppe" v="stilleståendeVann" />
		<tag k="ssr:hovedgruppe" v="ferskvann" />
		<tag k="ssr:stedsnr" v="839555" />
		<tag k="ssr:type" v="tjern" />
	</node>
	<node lat="67.52181666839623" lon="12.131061120846347" id="-21529">
		<tag k="name" v="Klokkargården" />
		<tag k="place" v="farm" />
		<tag k="ssr:date" v="2016-05-11" />
		<tag k="ssr:gruppe" v="gardsbebyggelse" />
		<tag k="ssr:hovedgruppe" v="bebyggelse" />
		<tag k="ssr:stedsnr" v="839559" />
		<tag k="ssr:type" v="bruk" />
	</node>
	<node lat="67.50150833431044" lon="12.123424992487875" id="-21530">
		<tag k="name" v="Grytøya" />
		<tag k="place" v="islet" />
		<tag k="ssr:date" v="2016-05-11" />
		<tag k="ssr:gruppe" v="kystkontur" />
		<tag k="ssr:hovedgruppe" v="sjø" />
		<tag k="ssr:stedsnr" v="839840" />
		<tag k="ssr:type" v="holmeISjø" />
	</node>
	<node lat="67.48589999985879" lon="11.950191665904251" id="-21531">
		<tag k="name" v="Kobbelvan" />
		<tag k="natural" v="shoal" />
		<tag k="place" v="locality" />
		<tag k="ssr:date" v="2016-05-11" />
		<tag k="ssr:gruppe" v="grunnerISjø" />
		<tag k="ssr:hovedgruppe" v="sjø" />
		<tag k="ssr:stedsnr" v="839858" />
		<tag k="ssr:type" v="grunneISjø" />
	</node>
	<node lat="67.44663611108065" lon="11.85645555778667" id="-21532">
		<tag k="name" v="Seifluan" />
		<tag k="natural" v="shoal" />
		<tag k="place" v="locality" />
		<tag k="ssr:date" v="2016-05-11" />
		<tag k="ssr:gruppe" v="grunnerISjø" />
		<tag k="ssr:hovedgruppe" v="sjø" />
		<tag k="ssr:stedsnr" v="866243" />
		<tag k="ssr:type" v="grunneISjø" />
	</node>
	<node lat="67.40724999793524" lon="11.929786115951975" id="-21533">
		<tag k="alt_name" v="Austskardholman" />
		<tag k="name" v="Austskarholmen" />
		<tag k="place" v="islet" />
		<tag k="ssr:date" v="2016-05-11" />
		<tag k="ssr:gruppe" v="kystkontur" />
		<tag k="ssr:hovedgruppe" v="sjø" />
		<tag k="ssr:stedsnr" v="866252" />
		<tag k="ssr:type" v="holmeISjø" />
	</node>
	<node lat="67.51191666379711" lon="11.96776943733479" id="-21534">
		<tag k="name" v="Steinlåtra" />
		<tag k="place" v="islet" />
		<tag k="ssr:date" v="2016-05-11" />
		<tag k="ssr:gruppe" v="kystkontur" />
		<tag k="ssr:hovedgruppe" v="sjø" />
		<tag k="ssr:stedsnr" v="866281" />
		<tag k="ssr:type" v="holmeISjø" />
	</node>
	<node lat="67.52144167057712" lon="12.190397223792543" id="-21535">
		<tag k="fixme" v="multiple name tags, choose one and add the other to alt_name" />
		<tag k="name" v="Sørlåtra;Stor-Låtra" />
		<tag k="place" v="islet" />
		<tag k="ssr:date" v="2016-05-11" />
		<tag k="ssr:gruppe" v="kystkontur" />
		<tag k="ssr:hovedgruppe" v="sjø" />
		<tag k="ssr:stedsnr" v="866283" />
		<tag k="ssr:type" v="holmeISjø" />
	</node>
	<node lat="67.515263546576" lon="12.098390890872224" id="-21536">
		<tag k="fixme" v="consider place=hamlet" />
		<tag k="name" v="Klakken" />
		<tag k="place" v="farm" />
		<tag k="ssr:date" v="2020-03-05" />
		<tag k="ssr:gruppe" v="gardsbebyggelse" />
		<tag k="ssr:hovedgruppe" v="bebyggelse" />
		<tag k="ssr:stedsnr" v="866312" />
		<tag k="ssr:type" v="gard" />
	</node>
	<node lat="67.50328055263594" lon="12.017091660541084" id="-21537">
		<tag k="name" v="Oterholmen" />
		<tag k="place" v="islet" />
		<tag k="ssr:date" v="2016-05-11" />
		<tag k="ssr:gruppe" v="kystkontur" />
		<tag k="ssr:hovedgruppe" v="sjø" />
		<tag k="ssr:stedsnr" v="866328" />
		<tag k="ssr:type" v="holmeISjø" />
	</node>
	<node lat="67.50788333742997" lon="12.308897226198203" id="-21538">
		<tag k="bay" v="fjord" />
		<tag k="name" v="Brattklakkleia" />
		<tag k="natural" v="bay" />
		<tag k="ssr:date" v="2016-05-11" />
		<tag k="ssr:gruppe" v="farvann" />
		<tag k="ssr:hovedgruppe" v="sjø" />
		<tag k="ssr:stedsnr" v="866421" />
		<tag k="ssr:type" v="fjord" />
	</node>
	<node lat="67.51113888900416" lon="12.288875001468567" id="-21539">
		<tag k="name" v="Seiskallen" />
		<tag k="natural" v="shoal" />
		<tag k="place" v="locality" />
		<tag k="ssr:date" v="2016-05-11" />
		<tag k="ssr:gruppe" v="grunnerISjø" />
		<tag k="ssr:hovedgruppe" v="sjø" />
		<tag k="ssr:stedsnr" v="866425" />
		<tag k="ssr:type" v="grunneISjø" />
	</node>
	<node lat="67.46429999680592" lon="11.932577774784024" id="-21540">
		<tag k="alt_name" v="Svadene" />
		<tag k="name" v="Svaen" />
		<tag k="natural" v="slope" />
		<tag k="place" v="locality" />
		<tag k="ssr:date" v="2016-05-11" />
		<tag k="ssr:gruppe" v="skråninger" />
		<tag k="ssr:hovedgruppe" v="terreng" />
		<tag k="ssr:stedsnr" v="867295" />
		<tag k="ssr:type" v="li" />
	</node>
	<node lat="67.46329722302397" lon="11.880730564563697" id="-21541">
		<tag k="alt_name" v="Sandskjerdrætten" />
		<tag k="fixme" v="consider seamark:type=rock or natural=shoal" />
		<tag k="name" v="Sandskjerdretten" />
		<tag k="place" v="islet" />
		<tag k="ssr:date" v="2016-05-11" />
		<tag k="ssr:gruppe" v="grunnerISjø" />
		<tag k="ssr:hovedgruppe" v="sjø" />
		<tag k="ssr:stedsnr" v="867300" />
		<tag k="ssr:type" v="skjærISjø" />
	</node>
	<node lat="67.4703055592367" lon="12.030255549763933" id="-21542">
		<tag k="fixme" v="consider seamark:type=rock or natural=shoal" />
		<tag k="name" v="Leiskjeret" />
		<tag k="place" v="islet" />
		<tag k="ssr:date" v="2016-05-11" />
		<tag k="ssr:gruppe" v="grunnerISjø" />
		<tag k="ssr:hovedgruppe" v="sjø" />
		<tag k="ssr:stedsnr" v="867304" />
		<tag k="ssr:type" v="skjærISjø" />
	</node>
	<node lat="67.48239722166318" lon="11.88714998891784" id="-21543">
		<tag k="alt_name" v="Bremholmen" />
		<tag k="name" v="Brimholmen" />
		<tag k="place" v="islet" />
		<tag k="ssr:date" v="2016-05-11" />
		<tag k="ssr:gruppe" v="kystkontur" />
		<tag k="ssr:hovedgruppe" v="sjø" />
		<tag k="ssr:stedsnr" v="867391" />
		<tag k="ssr:type" v="holmeISjø" />
	</node>
	<node lat="67.52279722150989" lon="12.006844444989252" id="-21544">
		<tag k="name" v="Ramnnakken" />
		<tag k="place" v="islet" />
		<tag k="ssr:date" v="2016-05-11" />
		<tag k="ssr:gruppe" v="kystkontur" />
		<tag k="ssr:hovedgruppe" v="sjø" />
		<tag k="ssr:stedsnr" v="867717" />
		<tag k="ssr:type" v="holmeISjø" />
	</node>
	<node lat="67.51338888938149" lon="11.972399990464218" id="-21545">
		<tag k="fixme" v="consider seamark:type=rock or natural=shoal" />
		<tag k="name" v="Alka" />
		<tag k="place" v="islet" />
		<tag k="ssr:date" v="2016-05-11" />
		<tag k="ssr:gruppe" v="grunnerISjø" />
		<tag k="ssr:hovedgruppe" v="sjø" />
		<tag k="ssr:stedsnr" v="960749" />
		<tag k="ssr:type" v="skjærISjø" />
	</node>
	<node lat="67.50492222025034" lon="12.086927781645146" id="-21546">
		<tag k="name" v="Holmen" />
		<tag k="place" v="islet" />
		<tag k="ssr:date" v="2016-05-11" />
		<tag k="ssr:gruppe" v="kystkontur" />
		<tag k="ssr:hovedgruppe" v="sjø" />
		<tag k="ssr:stedsnr" v="960768" />
		<tag k="ssr:type" v="holmeISjø" />
	</node>
	<node lat="67.41045400138769" lon="11.877229492527848" id="-21561">
		<tag k="name" v="Skomvær" />
		<tag k="place" v="locality" />
		<tag k="ssr:date" v="2020-03-05" />
		<tag k="ssr:gruppe" v="gardsbebyggelse" />
		<tag k="ssr:hovedgruppe" v="bebyggelse" />
		<tag k="ssr:stedsnr" v="1075871" />
		<tag k="ssr:type" v="eiendom" />
	</node>
	<node lat="67.51665684687738" lon="12.088644130158094" id="-21562">
		<tag k="name" v="Kongsjorda" />
		<tag k="place" v="locality" />
		<tag k="ssr:date" v="2020-03-06" />
		<tag k="ssr:gruppe" v="gardsbebyggelse" />
		<tag k="ssr:hovedgruppe" v="bebyggelse" />
		<tag k="ssr:stedsnr" v="1075876" />
		<tag k="ssr:type" v="eiendom" />
	</node>
</osm>
