<?xml version="1.0" encoding="UTF-8"?>
<osm version="0.6" generator="osmapis">
	<node lat="67.51041106507115" lon="12.13275314018491" id="-23905">
		<tag k="alt_name" v="Mærskjær" />
		<tag k="name" v="Mærskjærløkta" />
		<tag k="old_name" v="Merrskjeret" />
		<tag k="ssr:date" v="2020-09-15" />
		<tag k="ssr:gruppe" v="navigasjon" />
		<tag k="ssr:hovedgruppe" v="infrastruktur" />
		<tag k="ssr:stedsnr" v="259335" />
		<tag k="ssr:type" v="fyrlykt" />
	</node>
	<node lat="67.49365810678582" lon="12.060709518593502" id="-23921">
		<tag k="name" v="Værholmnakken" />
		<tag k="old_name" v="Verholmnakken" />
		<tag k="ssr:date" v="2020-09-15" />
		<tag k="ssr:gruppe" v="navigasjon" />
		<tag k="ssr:hovedgruppe" v="infrastruktur" />
		<tag k="ssr:stedsnr" v="199353" />
		<tag k="ssr:type" v="fyrlykt" />
	</node>
	<node lat="67.45290335939376" lon="11.91042727695069" id="-23934">
		<tag k="name" v="Nordre Sandøyholmene" />
		<tag k="old_name" v="Sandøyholmane, nordre" />
		<tag k="ssr:date" v="2020-09-15" />
		<tag k="ssr:gruppe" v="navigasjon" />
		<tag k="ssr:hovedgruppe" v="infrastruktur" />
		<tag k="ssr:stedsnr" v="259249" />
		<tag k="ssr:type" v="fyrlykt" />
	</node>
	<node lat="67.51323839382586" lon="11.981421975930461" id="-23960">
		<tag k="name" v="Alkskjær" />
		<tag k="old_name" v="Alkskjeret" />
		<tag k="ssr:date" v="2020-09-15" />
		<tag k="ssr:gruppe" v="navigasjon" />
		<tag k="ssr:hovedgruppe" v="infrastruktur" />
		<tag k="ssr:stedsnr" v="380317" />
		<tag k="ssr:type" v="fyrlykt" />
	</node>
	<node lat="67.51830456239226" lon="12.185527486334877" id="-23986">
		<tag k="alt_name" v="Brattskjær" />
		<tag k="name" v="Brattskjerløkta" />
		<tag k="old_name" v="Brattskjeret" />
		<tag k="ssr:date" v="2020-09-15" />
		<tag k="ssr:gruppe" v="navigasjon" />
		<tag k="ssr:hovedgruppe" v="infrastruktur" />
		<tag k="ssr:stedsnr" v="502292" />
		<tag k="ssr:type" v="fyrlykt" />
	</node>
	<node lat="67.63964999664348" lon="11.778941677493052" id="-24038">
		<tag k="name" v="Høgstubakken" />
		<tag k="ssr:date" v="2016-05-11" />
		<tag k="ssr:gruppe" v="sjøbunn" />
		<tag k="ssr:hovedgruppe" v="sjø" />
		<tag k="ssr:stedsnr" v="708985" />
		<tag k="ssr:type" v="bakkeISjø" />
	</node>
	<node lat="67.50359078420891" lon="12.059875582777515" id="-24040">
		<tag k="name" v="Prestholmnakken" />
		<tag k="ssr:date" v="2020-09-15" />
		<tag k="ssr:gruppe" v="navigasjon" />
		<tag k="ssr:hovedgruppe" v="infrastruktur" />
		<tag k="ssr:stedsnr" v="684352" />
		<tag k="ssr:type" v="fyrlykt" />
	</node>
	<node lat="67.5078527806531" lon="12.183808322379415" id="-24055">
		<tag k="name" v="Fallet" />
		<tag k="ssr:date" v="2016-05-11" />
		<tag k="ssr:gruppe" v="sjøbunn" />
		<tag k="ssr:hovedgruppe" v="sjø" />
		<tag k="ssr:stedsnr" v="900868" />
		<tag k="ssr:type" v="bakkeISjø" />
	</node>
	<node lat="67.46938162807507" lon="12.015476726032274" id="-24062">
		<tag k="name" v="Røstholmen" />
		<tag k="ssr:date" v="2020-09-15" />
		<tag k="ssr:gruppe" v="navigasjon" />
		<tag k="ssr:hovedgruppe" v="infrastruktur" />
		<tag k="ssr:stedsnr" v="745276" />
		<tag k="ssr:type" v="fyrlykt" />
	</node>
	<node lat="67.50495647039494" lon="12.071846522493294" id="-24096">
		<tag k="name" v="Tyvsøyveien" />
		<tag k="ssr:date" v="2019-05-30" />
		<tag k="ssr:gruppe" v="veg" />
		<tag k="ssr:hovedgruppe" v="infrastruktur" />
		<tag k="ssr:stedsnr" v="1001414" />
		<tag k="ssr:type" v="adressenavn" />
	</node>
	<node lat="67.50699496048304" lon="12.06999623750381" id="-24097">
		<tag k="name" v="Gleaveien" />
		<tag k="ssr:date" v="2019-05-30" />
		<tag k="ssr:gruppe" v="veg" />
		<tag k="ssr:hovedgruppe" v="infrastruktur" />
		<tag k="ssr:stedsnr" v="1001415" />
		<tag k="ssr:type" v="adressenavn" />
	</node>
	<node lat="67.52687886024887" lon="12.135540121784402" id="-24098">
		<tag k="name" v="Sandgata" />
		<tag k="ssr:date" v="2019-05-30" />
		<tag k="ssr:gruppe" v="veg" />
		<tag k="ssr:hovedgruppe" v="infrastruktur" />
		<tag k="ssr:stedsnr" v="1001416" />
		<tag k="ssr:type" v="adressenavn" />
	</node>
	<node lat="67.52721081183752" lon="12.136100922401734" id="-24099">
		<tag k="name" v="Trollvikveien" />
		<tag k="ssr:date" v="2019-05-30" />
		<tag k="ssr:gruppe" v="veg" />
		<tag k="ssr:hovedgruppe" v="infrastruktur" />
		<tag k="ssr:stedsnr" v="1001418" />
		<tag k="ssr:type" v="adressenavn" />
	</node>
	<node lat="67.52260509067357" lon="12.131763384428574" id="-24100">
		<tag k="name" v="Vangveien" />
		<tag k="ssr:date" v="2019-05-30" />
		<tag k="ssr:gruppe" v="veg" />
		<tag k="ssr:hovedgruppe" v="infrastruktur" />
		<tag k="ssr:stedsnr" v="1001419" />
		<tag k="ssr:type" v="adressenavn" />
	</node>
	<node lat="67.52454156527905" lon="12.131979341668009" id="-24101">
		<tag k="name" v="Markveien" />
		<tag k="ssr:date" v="2019-05-30" />
		<tag k="ssr:gruppe" v="veg" />
		<tag k="ssr:hovedgruppe" v="infrastruktur" />
		<tag k="ssr:stedsnr" v="1001422" />
		<tag k="ssr:type" v="adressenavn" />
	</node>
	<node lat="67.52592257596211" lon="12.13477043706854" id="-24102">
		<tag k="name" v="Hågen" />
		<tag k="ssr:date" v="2019-05-30" />
		<tag k="ssr:gruppe" v="veg" />
		<tag k="ssr:hovedgruppe" v="infrastruktur" />
		<tag k="ssr:stedsnr" v="1001424" />
		<tag k="ssr:type" v="adressenavn" />
	</node>
	<node lat="67.52627302986143" lon="12.142719076779782" id="-24103">
		<tag k="name" v="Nessvågveien" />
		<tag k="ssr:date" v="2019-05-30" />
		<tag k="ssr:gruppe" v="veg" />
		<tag k="ssr:hovedgruppe" v="infrastruktur" />
		<tag k="ssr:stedsnr" v="1001426" />
		<tag k="ssr:type" v="adressenavn" />
	</node>
	<node lat="67.52227276734088" lon="12.115635965771917" id="-24104">
		<tag k="name" v="Skomværsveien" />
		<tag k="ssr:date" v="2019-05-30" />
		<tag k="ssr:gruppe" v="veg" />
		<tag k="ssr:hovedgruppe" v="infrastruktur" />
		<tag k="ssr:stedsnr" v="1001427" />
		<tag k="ssr:type" v="adressenavn" />
	</node>
	<node lat="67.51784290396057" lon="12.119413179703113" id="-24105">
		<tag k="name" v="Kjerkveien" />
		<tag k="ssr:date" v="2019-05-30" />
		<tag k="ssr:gruppe" v="veg" />
		<tag k="ssr:hovedgruppe" v="infrastruktur" />
		<tag k="ssr:stedsnr" v="1001428" />
		<tag k="ssr:type" v="adressenavn" />
	</node>
	<node lat="67.51825715808225" lon="12.122715102081667" id="-24106">
		<tag k="name" v="Varhågen" />
		<tag k="ssr:date" v="2019-05-30" />
		<tag k="ssr:gruppe" v="veg" />
		<tag k="ssr:hovedgruppe" v="infrastruktur" />
		<tag k="ssr:stedsnr" v="1001429" />
		<tag k="ssr:type" v="adressenavn" />
	</node>
	<node lat="67.51692625444336" lon="12.125871859661741" id="-24107">
		<tag k="name" v="Varan" />
		<tag k="ssr:date" v="2019-05-30" />
		<tag k="ssr:gruppe" v="veg" />
		<tag k="ssr:hovedgruppe" v="infrastruktur" />
		<tag k="ssr:stedsnr" v="1001430" />
		<tag k="ssr:type" v="adressenavn" />
	</node>
	<node lat="67.51653814417506" lon="12.11724483957472" id="-24108">
		<tag k="name" v="Gravveien" />
		<tag k="ssr:date" v="2019-05-30" />
		<tag k="ssr:gruppe" v="veg" />
		<tag k="ssr:hovedgruppe" v="infrastruktur" />
		<tag k="ssr:stedsnr" v="1001432" />
		<tag k="ssr:type" v="adressenavn" />
	</node>
	<node lat="67.51747747078831" lon="12.11749021328283" id="-24109">
		<tag k="name" v="Flyplassveien" />
		<tag k="ssr:date" v="2019-05-30" />
		<tag k="ssr:gruppe" v="veg" />
		<tag k="ssr:hovedgruppe" v="infrastruktur" />
		<tag k="ssr:stedsnr" v="1001433" />
		<tag k="ssr:type" v="adressenavn" />
	</node>
	<node lat="67.52421323090101" lon="12.019572838044216" id="-24191">
		<tag k="name" v="Hallklakken" />
		<tag k="ssr:date" v="2020-09-15" />
		<tag k="ssr:gruppe" v="navigasjon" />
		<tag k="ssr:hovedgruppe" v="infrastruktur" />
		<tag k="ssr:stedsnr" v="380717" />
		<tag k="ssr:type" v="fyrlykt" />
	</node>
	<node lat="67.46243887728333" lon="11.920391158017726" id="-24197">
		<tag k="name" v="Ytre Husskjær" />
		<tag k="old_name" v="Husskjeret" />
		<tag k="ssr:date" v="2020-09-15" />
		<tag k="ssr:gruppe" v="navigasjon" />
		<tag k="ssr:hovedgruppe" v="infrastruktur" />
		<tag k="ssr:stedsnr" v="381286" />
		<tag k="ssr:type" v="fyrlykt" />
	</node>
	<node lat="67.51726388539946" lon="12.115638890774962" id="-24203">
		<tag k="name" v="Røst kommune" />
		<tag k="ssr:date" v="2016-05-10" />
		<tag k="ssr:gruppe" v="administrativeIndelinger" />
		<tag k="ssr:hovedgruppe" v="offentligAdministrasjon" />
		<tag k="ssr:stedsnr" v="390688" />
		<tag k="ssr:type" v="kommune" />
	</node>
	<node lat="67.2804027758844" lon="14.376388898255625" id="-24225">
		<tag k="alt_name:no" v="Nordland" />
		<tag k="loc_name:se" v="Nordlándda fylka" />
		<tag k="loc_name:sma" v="Nordlaanten fylhke" />
		<tag k="name" v="Nordland fylke - Nordlánda fylkka" />
		<tag k="name:no" v="Nordland fylke" />
		<tag k="name:smj" v="Nordlánda fylkka" />
		<tag k="ssr:date" v="2021-02-03" />
		<tag k="ssr:gruppe" v="administrativeIndelinger" />
		<tag k="ssr:hovedgruppe" v="offentligAdministrasjon" />
		<tag k="ssr:stedsnr" v="511766" />
		<tag k="ssr:type" v="fylke" />
	</node>
	<node lat="67.41088759969698" lon="11.874851037231712" id="-24242">
		<tag k="name" v="Skomvær" />
		<tag k="old_name" v="Skomvær fyr" />
		<tag k="ssr:date" v="2020-09-01" />
		<tag k="ssr:gruppe" v="navigasjon" />
		<tag k="ssr:hovedgruppe" v="infrastruktur" />
		<tag k="ssr:stedsnr" v="562264" />
		<tag k="ssr:type" v="fyrstasjon" />
	</node>
	<node lat="67.51549166399889" lon="12.058591659875173" id="-24259">
		<tag k="name" v="Hansøyflaget" />
		<tag k="ssr:date" v="2016-05-10" />
		<tag k="ssr:gruppe" v="sjøbunn" />
		<tag k="ssr:hovedgruppe" v="sjø" />
		<tag k="ssr:stedsnr" v="596693" />
		<tag k="ssr:type" v="bankeISjø" />
	</node>
	<node lat="67.52729067154314" lon="12.19456425187942" id="-24273">
		<tag k="name" v="Andbakskjær" />
		<tag k="old_name" v="Andbakskjer" />
		<tag k="ssr:date" v="2020-09-15" />
		<tag k="ssr:gruppe" v="navigasjon" />
		<tag k="ssr:hovedgruppe" v="infrastruktur" />
		<tag k="ssr:stedsnr" v="623702" />
		<tag k="ssr:type" v="fyrlykt" />
	</node>
	<node lat="67.50894041384358" lon="12.142773160668318" id="-24291">
		<tag k="name" v="Helløy" />
		<tag k="ssr:date" v="2020-09-15" />
		<tag k="ssr:gruppe" v="navigasjon" />
		<tag k="ssr:hovedgruppe" v="infrastruktur" />
		<tag k="ssr:stedsnr" v="745363" />
		<tag k="ssr:type" v="fyrlykt" />
	</node>
	<node lat="67.51627619514316" lon="12.11068554369298" id="-24344">
		<tag k="name" v="Klippenveien" />
		<tag k="ssr:date" v="2019-05-30" />
		<tag k="ssr:gruppe" v="veg" />
		<tag k="ssr:hovedgruppe" v="infrastruktur" />
		<tag k="ssr:stedsnr" v="1001391" />
		<tag k="ssr:type" v="adressenavn" />
	</node>
	<node lat="67.51375078207452" lon="12.106227944041548" id="-24345">
		<tag k="name" v="Stamnesveien" />
		<tag k="ssr:date" v="2019-05-30" />
		<tag k="ssr:gruppe" v="veg" />
		<tag k="ssr:hovedgruppe" v="infrastruktur" />
		<tag k="ssr:stedsnr" v="1001388" />
		<tag k="ssr:type" v="adressenavn" />
	</node>
	<node lat="67.51227395881511" lon="12.10963194090798" id="-24346">
		<tag k="name" v="Vassnesveien" />
		<tag k="ssr:date" v="2019-05-30" />
		<tag k="ssr:gruppe" v="veg" />
		<tag k="ssr:hovedgruppe" v="infrastruktur" />
		<tag k="ssr:stedsnr" v="1001389" />
		<tag k="ssr:type" v="adressenavn" />
	</node>
	<node lat="67.51846683094126" lon="12.116632969310922" id="-24347">
		<tag k="name" v="Golan" />
		<tag k="ssr:date" v="2019-05-30" />
		<tag k="ssr:gruppe" v="veg" />
		<tag k="ssr:hovedgruppe" v="infrastruktur" />
		<tag k="ssr:stedsnr" v="1001435" />
		<tag k="ssr:type" v="adressenavn" />
	</node>
	<node lat="67.52111892604552" lon="12.115928342850077" id="-24348">
		<tag k="name" v="Trenykveien" />
		<tag k="ssr:date" v="2019-05-30" />
		<tag k="ssr:gruppe" v="veg" />
		<tag k="ssr:hovedgruppe" v="infrastruktur" />
		<tag k="ssr:stedsnr" v="1001437" />
		<tag k="ssr:type" v="adressenavn" />
	</node>
	<node lat="67.51533305068878" lon="12.116020732086621" id="-24349">
		<tag k="name" v="Hammarsveien" />
		<tag k="ssr:date" v="2019-05-30" />
		<tag k="ssr:gruppe" v="veg" />
		<tag k="ssr:hovedgruppe" v="infrastruktur" />
		<tag k="ssr:stedsnr" v="1001394" />
		<tag k="ssr:type" v="adressenavn" />
	</node>
	<node lat="67.513555578101" lon="12.075957880349414" id="-24350">
		<tag k="name" v="Grimsøyveien" />
		<tag k="ssr:date" v="2019-05-30" />
		<tag k="ssr:gruppe" v="veg" />
		<tag k="ssr:hovedgruppe" v="infrastruktur" />
		<tag k="ssr:stedsnr" v="1001396" />
		<tag k="ssr:type" v="adressenavn" />
	</node>
	<node lat="67.51463235786223" lon="12.100626512296136" id="-24351">
		<tag k="name" v="Klakkveien" />
		<tag k="ssr:date" v="2019-05-30" />
		<tag k="ssr:gruppe" v="veg" />
		<tag k="ssr:hovedgruppe" v="infrastruktur" />
		<tag k="ssr:stedsnr" v="1001398" />
		<tag k="ssr:type" v="adressenavn" />
	</node>
	<node lat="67.51689087020732" lon="12.107878028970557" id="-24352">
		<tag k="name" v="Utrøstveien" />
		<tag k="ssr:date" v="2019-05-30" />
		<tag k="ssr:gruppe" v="veg" />
		<tag k="ssr:hovedgruppe" v="infrastruktur" />
		<tag k="ssr:stedsnr" v="1001400" />
		<tag k="ssr:type" v="adressenavn" />
	</node>
	<node lat="67.51491204282352" lon="12.102768243315781" id="-24353">
		<tag k="name" v="Tenderhågen" />
		<tag k="ssr:date" v="2019-05-30" />
		<tag k="ssr:gruppe" v="veg" />
		<tag k="ssr:hovedgruppe" v="infrastruktur" />
		<tag k="ssr:stedsnr" v="1001401" />
		<tag k="ssr:type" v="adressenavn" />
	</node>
	<node lat="67.51250003446796" lon="12.092182521104458" id="-24354">
		<tag k="name" v="Røstlandveien" />
		<tag k="ssr:date" v="2019-05-30" />
		<tag k="ssr:gruppe" v="veg" />
		<tag k="ssr:hovedgruppe" v="infrastruktur" />
		<tag k="ssr:stedsnr" v="1001405" />
		<tag k="ssr:type" v="adressenavn" />
	</node>
	<node lat="67.51315500915895" lon="12.087286172095542" id="-24355">
		<tag k="name" v="Øvre Kalvøy" />
		<tag k="ssr:date" v="2019-05-30" />
		<tag k="ssr:gruppe" v="veg" />
		<tag k="ssr:hovedgruppe" v="infrastruktur" />
		<tag k="ssr:stedsnr" v="1001408" />
		<tag k="ssr:type" v="adressenavn" />
	</node>
	<node lat="67.51446606167062" lon="12.086113215429211" id="-24356">
		<tag k="name" v="Brasen" />
		<tag k="ssr:date" v="2019-05-30" />
		<tag k="ssr:gruppe" v="veg" />
		<tag k="ssr:hovedgruppe" v="infrastruktur" />
		<tag k="ssr:stedsnr" v="1001411" />
		<tag k="ssr:type" v="adressenavn" />
	</node>
	<node lat="67.51244020010255" lon="12.088594755999626" id="-24357">
		<tag k="name" v="Ystnesveien" />
		<tag k="ssr:date" v="2019-05-30" />
		<tag k="ssr:gruppe" v="veg" />
		<tag k="ssr:hovedgruppe" v="infrastruktur" />
		<tag k="ssr:stedsnr" v="1001412" />
		<tag k="ssr:type" v="adressenavn" />
	</node>
</osm>
