<?xml version="1.0" encoding="UTF-8"?>
<osm generator="osmapis" version="0.6">
	<node id="-24915" lat="59.8725499986" lon="10.5553916721">
		<tag k="fixme" v="consider seamark:type=rock or natural=shoal" />
		<tag k="name" v="Prinseskjær" />
		<tag k="place" v="islet" />
		<tag k="ssr:stedsnr" v="327209" />
	</node>
	<node id="-25571" lat="59.8892428108" lon="10.5393732128">
		<tag k="name" v="Sandviksbukta" />
		<tag k="natural" v="bay" />
		<tag k="ssr:stedsnr" v="550853" />
	</node>
	<node id="-25054" lat="59.8834750005" lon="10.5885250023">
		<tag k="alt_name" v="Alven" />
		<tag k="name" v="Alv" />
		<tag k="place" v="islet" />
		<tag k="ssr:stedsnr" v="3833" />
	</node>
	<node id="-25044" lat="59.8741966767" lon="10.5497575901">
		<tag k="fixme" v="consider seamark:type=rock or natural=shoal" />
		<tag k="name" v="Borøyskjær" />
		<tag k="place" v="islet" />
		<tag k="ssr:stedsnr" v="986936" />
	</node>
	<node id="-25043" lat="59.8971025633" lon="10.6348874896">
		<tag k="name" v="Lagmannsholmen" />
		<tag k="place" v="islet" />
		<tag k="ssr:stedsnr" v="986454" />
	</node>
	<node id="-25553" lat="59.8877055529" lon="10.5590999994">
		<tag k="name" v="Sandkroken" />
		<tag k="natural" v="beach" />
		<tag k="place" v="locality" />
		<tag k="ssr:stedsnr" v="509266" />
	</node>
	<node id="-25552" lat="59.8765944455" lon="10.5760277797">
		<tag k="name" v="Klovodden" />
		<tag k="natural" v="cape" />
		<tag k="ssr:stedsnr" v="509243" />
	</node>
	<node id="-25551" lat="59.8678444404" lon="10.5864027837">
		<tag k="fixme" v="consider seamark:type=rock or natural=shoal" />
		<tag k="name" v="Jaktskjær" />
		<tag k="place" v="islet" />
		<tag k="ssr:stedsnr" v="509230" />
	</node>
	<node id="-26056" lat="59.8509805516" lon="10.5875472281">
		<tag k="name" v="Arnesflua" />
		<tag k="natural" v="shoal" />
		<tag k="place" v="locality" />
		<tag k="ssr:stedsnr" v="968647" />
	</node>
	<node id="-26055" lat="59.8757194431" lon="10.6262611119">
		<tag k="name" v="Østre Vassholmflua" />
		<tag k="place" v="locality" />
		<tag k="seamark:type" v="rock" />
		<tag k="ssr:stedsnr" v="968574" />
	</node>
	<node id="-26054" lat="59.8813999999" lon="10.5450777716">
		<tag k="name" v="Dynga" />
		<tag k="natural" v="shoal" />
		<tag k="place" v="locality" />
		<tag k="ssr:stedsnr" v="966742" />
	</node>
	<node id="-26048" lat="59.898383329" lon="10.6126555519">
		<tag k="name" v="Fornebulandet" />
		<tag k="natural" v="cape" />
		<tag k="ssr:stedsnr" v="935344" />
	</node>
	<node id="-26047" lat="59.8739249991" lon="10.5972500066">
		<tag k="fixme" v="consider seamark:type=rock or natural=shoal" />
		<tag k="name" v="Paradisskjær" />
		<tag k="place" v="islet" />
		<tag k="ssr:stedsnr" v="934237" />
	</node>
	<node id="-26046" lat="59.8763750036" lon="10.5984194479">
		<tag k="name" v="Svartebukta" />
		<tag k="natural" v="bay" />
		<tag k="ssr:stedsnr" v="934229" />
	</node>
	<node id="-26045" lat="59.8786694478" lon="10.5936416757">
		<tag k="name" v="Junkeren" />
		<tag k="place" v="islet" />
		<tag k="ssr:stedsnr" v="934226" />
	</node>
	<node id="-26041" lat="59.8878555594" lon="10.5318083398">
		<tag k="loc_name" v="Kadda" />
		<tag k="name" v="Kadettangen" />
		<tag k="natural" v="cape" />
		<tag k="ssr:stedsnr" v="933577" />
	</node>
	<node id="-25001" lat="59.870813888" lon="10.6190361097">
		<tag k="name" v="Vestre Vassholmflua" />
		<tag k="place" v="locality" />
		<tag k="seamark:type" v="rock" />
		<tag k="ssr:stedsnr" v="387464" />
	</node>
	<node id="-24999" lat="59.8669944442" lon="10.5871916651">
		<tag k="name" v="Jaktodden" />
		<tag k="natural" v="cape" />
		<tag k="ssr:stedsnr" v="387272" />
	</node>
	<node id="-26019" lat="59.8566027771" lon="10.5931888853">
		<tag k="fixme" v="consider seamark:type=rock or natural=shoal" />
		<tag k="name" v="Terneskjær" />
		<tag k="place" v="islet" />
		<tag k="ssr:stedsnr" v="915773" />
	</node>
	<node id="-25495" lat="59.879652776" lon="10.598058338">
		<tag k="name" v="Holsa" />
		<tag k="place" v="islet" />
		<tag k="ssr:stedsnr" v="489840" />
	</node>
	<node id="-25494" lat="59.8666749999" lon="10.5912194465">
		<tag k="alt_name" v="Krokholmen" />
		<tag k="fixme" v="consider seamark:type=rock or natural=shoal" />
		<tag k="name" v="Kråkholmen" />
		<tag k="place" v="islet" />
		<tag k="ssr:stedsnr" v="489799" />
	</node>
	<node id="-25493" lat="59.8541027782" lon="10.5882805587">
		<tag k="name" v="Gåsøya" />
		<tag k="place" v="island" />
		<tag k="ssr:stedsnr" v="489783" />
	</node>
	<node id="-26004" lat="59.8783249976" lon="10.619505557">
		<tag k="name" v="Snarøya" />
		<tag k="place" v="island" />
		<tag k="ssr:stedsnr" v="914828" />
	</node>
	<node id="-24976" lat="59.9070500043" lon="10.6391583333">
		<tag k="name" v="Svartebukta" />
		<tag k="natural" v="bay" />
		<tag k="ssr:stedsnr" v="386123" />
	</node>
	<node id="-25996" lat="59.8776388852" lon="10.5873083287">
		<tag k="alt_name" v="Salsund" />
		<tag k="name" v="Salsundet" />
		<tag k="natural" v="strait" />
		<tag k="ssr:stedsnr" v="873262" />
	</node>
	<node id="-25997" lat="59.8975861093" lon="10.6387166746">
		<tag k="name" v="Lagmannsgrunnen" />
		<tag k="natural" v="shoal" />
		<tag k="place" v="locality" />
		<tag k="ssr:stedsnr" v="907511" />
	</node>
	<node id="-25484" lat="59.8443638869" lon="10.5722583247">
		<tag k="name" v="Gåsøyrenna" />
		<tag k="place" v="locality" />
		<tag k="ssr:stedsnr" v="448481" />
	</node>
	<node id="-25995" lat="59.8948083374" lon="10.5871305524">
		<tag k="name" v="Fagerstrand" />
		<tag k="natural" v="beach" />
		<tag k="place" v="locality" />
		<tag k="ssr:stedsnr" v="873260" />
	</node>
	<node id="-25482" lat="59.8773138865" lon="10.5542416661">
		<tag k="name" v="Labukta" />
		<tag k="natural" v="bay" />
		<tag k="ssr:stedsnr" v="448292" />
	</node>
	<node id="-25481" lat="59.8776277775" lon="10.5944499953">
		<tag k="name" v="Østbukta" />
		<tag k="natural" v="bay" />
		<tag k="ssr:stedsnr" v="448288" />
	</node>
	<node id="-25480" lat="59.8691833306" lon="10.588111103">
		<tag k="alt_name" v="Svartskjæra" />
		<tag k="fixme" v="consider seamark:type=rock or natural=shoal" />
		<tag k="name" v="Svartskjær" />
		<tag k="place" v="islet" />
		<tag k="ssr:stedsnr" v="448265" />
	</node>
	<node id="-25479" lat="59.8789083359" lon="10.6220861122">
		<tag k="name" v="Lortbukta" />
		<tag k="natural" v="bay" />
		<tag k="ssr:stedsnr" v="448236" />
	</node>
	<node id="-25988" lat="59.8867555583" lon="10.539727779">
		<tag k="name" v="Bikkjebukta" />
		<tag k="natural" v="bay" />
		<tag k="old_name" v="Bikjebukta" />
		<tag k="ssr:stedsnr" v="872576" />
	</node>
	<node id="-26005" lat="59.8830805554" lon="10.5247833363">
		<tag k="name" v="Jernholmen" />
		<tag k="place" v="islet" />
		<tag k="ssr:stedsnr" v="914832" />
	</node>
	<node id="-25462" lat="59.8844861128" lon="10.5351500033">
		<tag k="name" v="Båtbukta" />
		<tag k="natural" v="bay" />
		<tag k="ssr:stedsnr" v="447509" />
	</node>
	<node id="-24932" lat="59.8776388874" lon="10.5514916648">
		<tag k="name" v="Borøya" />
		<tag k="place" v="island" />
		<tag k="ssr:stedsnr" v="367815" />
	</node>
	<node id="-24931" lat="59.8821750031" lon="10.5584416746">
		<tag k="name" v="Saraholmen" />
		<tag k="place" v="islet" />
		<tag k="ssr:stedsnr" v="367812" />
	</node>
	<node id="-24930" lat="59.8787777746" lon="10.5795611115">
		<tag k="name" v="Kjeholmen" />
		<tag k="place" v="islet" />
		<tag k="ssr:stedsnr" v="367811" />
	</node>
	<node id="-24923" lat="59.8552361104" lon="10.5877333357">
		<tag k="fixme" v="consider seamark:type=rock or natural=shoal" />
		<tag k="name" v="Gåsskjæra" />
		<tag k="place" v="islet" />
		<tag k="ssr:stedsnr" v="361638" />
	</node>
	<node id="-25434" lat="59.8863000028" lon="10.5866000089">
		<tag k="name" v="Torvøya" />
		<tag k="place" v="islet" />
		<tag k="ssr:stedsnr" v="429851" />
	</node>
	<node id="-25433" lat="59.8895305555" lon="10.5898638937">
		<tag k="name" v="Bjerkholmen" />
		<tag k="place" v="islet" />
		<tag k="ssr:stedsnr" v="429849" />
	</node>
	<node id="-25944" lat="59.8875055556" lon="10.552650006">
		<tag k="name" v="Høvikodden" />
		<tag k="natural" v="cape" />
		<tag k="ssr:stedsnr" v="854854" />
	</node>
	<node id="-25943" lat="59.8886864466" lon="10.6089997183">
		<tag k="name" v="Koksa" />
		<tag k="natural" v="bay" />
		<tag k="ssr:stedsnr" v="854847" />
	</node>
	<node id="-24918" lat="59.8688861124" lon="10.5864861082">
		<tag k="fixme" v="consider seamark:type=rock or natural=shoal" />
		<tag k="name" v="Flatskjær" />
		<tag k="place" v="islet" />
		<tag k="ssr:stedsnr" v="327230" />
	</node>
	<node id="-25939" lat="59.8849750007" lon="10.5380388966">
		<tag k="name" v="Kalvøya" />
		<tag k="place" v="island" />
		<tag k="ssr:stedsnr" v="853836" />
	</node>
	<node id="-25937" lat="59.8737833299" lon="10.5925055623">
		<tag k="name" v="Grimsøya" />
		<tag k="place" v="island" />
		<tag k="ssr:stedsnr" v="853817" />
	</node>
	<node id="-25424" lat="59.8819805548" lon="10.5971527719">
		<tag k="name" v="Langodden" />
		<tag k="natural" v="cape" />
		<tag k="ssr:stedsnr" v="428840" />
	</node>
	<node id="-25419" lat="59.8671999999" lon="10.5972861086">
		<tag k="name" v="Kråkholmflua" />
		<tag k="place" v="locality" />
		<tag k="seamark:type" v="rock" />
		<tag k="ssr:stedsnr" v="266436" />
	</node>
	<node id="-25418" lat="59.855433335" lon="10.5882555508">
		<tag k="name" v="Rosenholmen" />
		<tag k="place" v="islet" />
		<tag k="ssr:stedsnr" v="266266" />
	</node>
	<node id="-25417" lat="59.8594555555" lon="10.5809944409">
		<tag k="name" v="Bjørnen" />
		<tag k="place" v="islet" />
		<tag k="ssr:stedsnr" v="266262" />
	</node>
	<node id="-24904" lat="59.8846416657" lon="10.5432222255">
		<tag k="name" v="Østre Kalvøya bukt" />
		<tag k="natural" v="bay" />
		<tag k="ssr:stedsnr" v="326562" />
	</node>
	<node id="-25927" lat="59.8916555565" lon="10.6403194525">
		<tag k="name" v="Rolfsflua" />
		<tag k="natural" v="shoal" />
		<tag k="place" v="locality" />
		<tag k="ssr:stedsnr" v="814396" />
	</node>
	<node id="-24901" lat="59.8905916625" lon="10.5333694429">
		<tag k="fixme" v="consider seamark:type=rock or natural=shoal" />
		<tag k="name" v="Danmark" />
		<tag k="place" v="islet" />
		<tag k="ssr:stedsnr" v="326556" />
	</node>
	<node id="-25410" lat="59.8813333313" lon="10.5388277745">
		<tag k="fixme" v="consider seamark:type=rock or natural=shoal" />
		<tag k="name" v="Kalvøykalven" />
		<tag k="place" v="islet" />
		<tag k="ssr:stedsnr" v="265573" />
	</node>
	<node id="-24883" lat="59.8544083295" lon="10.5786055525">
		<tag k="fixme" v="consider seamark:type=rock or natural=shoal" />
		<tag k="name" v="Lille Mikkel" />
		<tag k="place" v="islet" />
		<tag k="ssr:stedsnr" v="325297" />
	</node>
	<node id="-25367" lat="59.9028638914" lon="10.6465750024">
		<tag k="bay" v="fjord" />
		<tag k="name" v="Lysakerfjorden" />
		<tag k="natural" v="bay" />
		<tag k="ssr:stedsnr" v="247865" />
	</node>
	<node id="-24850" lat="59.8825583345" lon="10.6057027707">
		<tag k="name" v="Hundesundet" />
		<tag k="natural" v="strait" />
		<tag k="ssr:stedsnr" v="307834" />
	</node>
	<node id="-25358" lat="59.8750548045" lon="10.5500892024">
		<tag k="name" v="Furuholmen" />
		<tag k="place" v="islet" />
		<tag k="ssr:stedsnr" v="246800" />
	</node>
	<node id="-25357" lat="59.8718138229" lon="10.5866523699">
		<tag k="alt_name" v="Ostsund, lille;Lille Ostsund" />
		<tag k="name" v="Lille Ostsundet" />
		<tag k="natural" v="strait" />
		<tag k="ssr:stedsnr" v="246795" />
	</node>
	<node id="-25867" lat="59.8398777818" lon="10.5911000043">
		<tag k="alt_name" v="Gåsungane" />
		<tag k="fixme" v="consider seamark:type=rock or natural=shoal" />
		<tag k="name" v="Gåsungene" />
		<tag k="place" v="islet" />
		<tag k="ssr:stedsnr" v="793784" />
	</node>
	<node id="-25353" lat="59.9009249976" lon="10.6410444498">
		<tag k="name" v="Grunne for gård" />
		<tag k="natural" v="shoal" />
		<tag k="place" v="locality" />
		<tag k="ssr:stedsnr" v="240583" />
	</node>
	<node id="-25859" lat="59.8779638883" lon="10.6005527772">
		<tag k="name" v="Snarøysundet" />
		<tag k="natural" v="strait" />
		<tag k="old_name" v="Snarøysund" />
		<tag k="ssr:stedsnr" v="792819" />
	</node>
	<node id="-25855" lat="59.880508331" lon="10.6239027841">
		<tag k="name" v="Snarøytangen" />
		<tag k="natural" v="cape" />
		<tag k="ssr:stedsnr" v="786568" />
	</node>
	<node id="-25338" lat="59.8920527804" lon="10.5416444436">
		<tag k="name" v="Sjøholmen" />
		<tag k="natural" v="cape" />
		<tag k="ssr:stedsnr" v="205585" />
	</node>
	<node id="-25337" lat="59.8744944453" lon="10.6021388958">
		<tag k="name" v="Ropern" />
		<tag k="natural" v="cape" />
		<tag k="ssr:stedsnr" v="205311" />
	</node>
	<node id="-25335" lat="59.8877749968" lon="10.6322388818">
		<tag k="alt_name" v="Pælvikbukta" />
		<tag k="name" v="Pelvika" />
		<tag k="natural" v="bay" />
		<tag k="ssr:stedsnr" v="205241" />
	</node>
	<node id="-25844" lat="59.8833027747" lon="10.5707472195">
		<tag k="name" v="Mortensgrunnen" />
		<tag k="natural" v="shoal" />
		<tag k="place" v="locality" />
		<tag k="ssr:stedsnr" v="751287" />
	</node>
	<node id="-25843" lat="59.8901638927" lon="10.6006166711">
		<tag k="name" v="Storøya" />
		<tag k="natural" v="cape" />
		<tag k="ssr:stedsnr" v="751285" />
	</node>
	<node id="-25842" lat="59.8875750033" lon="10.5776944499">
		<tag k="name" v="Midtørsgrunnen" />
		<tag k="natural" v="shoal" />
		<tag k="place" v="locality" />
		<tag k="ssr:stedsnr" v="751279" />
	</node>
	<node id="-25841" lat="59.863486452" lon="10.562845998">
		<tag k="name" v="Møllerengbukta" />
		<tag k="natural" v="bay" />
		<tag k="ssr:stedsnr" v="751276" />
	</node>
	<node id="-25039" lat="59.8660519161" lon="10.5556464241">
		<tag k="alt_name" v="Ostsund, store;Store Ostsund" />
		<tag k="name" v="Store Ostsundet" />
		<tag k="natural" v="strait" />
		<tag k="ssr:stedsnr" v="186828" />
	</node>
	<node id="-24903" lat="59.8918749985" lon="10.5368222278">
		<tag k="name" v="Lakseberget" />
		<tag k="natural" v="cape" />
		<tag k="ssr:stedsnr" v="326557" />
	</node>
	<node id="-25273" lat="59.8742999971" lon="10.6223111114">
		<tag k="name" v="Vassholmene" />
		<tag k="place" v="islet" />
		<tag k="ssr:stedsnr" v="185800" />
	</node>
	<node id="-25268" lat="59.8859055527" lon="10.6281166603">
		<tag k="name" v="Havna" />
		<tag k="natural" v="bay" />
		<tag k="ssr:stedsnr" v="179537" />
	</node>
	<node id="-25777" lat="59.8778222192" lon="10.5671305491">
		<tag k="name" v="Gryteberget" />
		<tag k="natural" v="shoal" />
		<tag k="place" v="locality" />
		<tag k="ssr:stedsnr" v="691294" />
	</node>
	<node id="-25776" lat="59.8879055536" lon="10.5686555631">
		<tag k="name" v="Svartodden" />
		<tag k="natural" v="cape" />
		<tag k="ssr:stedsnr" v="691285" />
	</node>
	<node id="-25775" lat="59.8588222214" lon="10.5669694503">
		<tag k="alt_name" v="Lilleousttangen" />
		<tag k="name" v="Lilleosttangen" />
		<tag k="natural" v="cape" />
		<tag k="ssr:stedsnr" v="691279" />
	</node>
	<node id="-25773" lat="59.855033337" lon="10.5929666591">
		<tag k="name" v="Taterholmen" />
		<tag k="place" v="islet" />
		<tag k="ssr:stedsnr" v="691257" />
	</node>
	<node id="-25772" lat="59.8548361147" lon="10.5749638823">
		<tag k="fixme" v="consider seamark:type=rock or natural=shoal" />
		<tag k="name" v="Måkeskjærene" />
		<tag k="place" v="islet" />
		<tag k="ssr:stedsnr" v="691252" />
	</node>
	<node id="-25256" lat="59.884963889" lon="10.5560972181">
		<tag k="name" v="Slepa" />
		<tag k="natural" v="strait" />
		<tag k="ssr:stedsnr" v="144312" />
	</node>
	<node id="-25255" lat="59.8807777779" lon="10.5691333344">
		<tag k="name" v="Flaren" />
		<tag k="natural" v="shoal" />
		<tag k="place" v="locality" />
		<tag k="ssr:stedsnr" v="144294" />
	</node>
	<node id="-25254" lat="59.8944999993" lon="10.5958611055">
		<tag k="name" v="Lilleøya" />
		<tag k="natural" v="cape" />
		<tag k="ssr:stedsnr" v="144286" />
	</node>
	<node id="-25253" lat="59.8637527761" lon="10.56200278">
		<tag k="name" v="Furustranda" />
		<tag k="natural" v="beach" />
		<tag k="place" v="locality" />
		<tag k="ssr:stedsnr" v="144269" />
	</node>
	<node id="-25252" lat="59.8725777783" lon="10.5874722294">
		<tag k="name" v="Ollebukta" />
		<tag k="natural" v="bay" />
		<tag k="ssr:stedsnr" v="144252" />
	</node>
	<node id="-25251" lat="59.8764472245" lon="10.6092027773">
		<tag k="name" v="Kongshavn" />
		<tag k="natural" v="bay" />
		<tag k="ssr:stedsnr" v="144248" />
	</node>
	<node id="-25250" lat="59.8806444461" lon="10.6259194374">
		<tag k="name" v="Framnes" />
		<tag k="natural" v="cape" />
		<tag k="ssr:stedsnr" v="144246" />
	</node>
	<node id="-24845" lat="59.8799109397" lon="10.5426163231">
		<tag k="name" v="Kalvøygrunnen" />
		<tag k="natural" v="shoal" />
		<tag k="place" v="locality" />
		<tag k="ssr:stedsnr" v="299745" />
	</node>
	<node id="-25731" lat="59.8580689501" lon="10.5813329929">
		<tag k="name" v="Bjørnerenna" />
		<tag k="natural" v="strait" />
		<tag k="ssr:stedsnr" v="672780" />
	</node>
	<node id="-25207" lat="59.8545277805" lon="10.5802638979">
		<tag k="alt_name" v="Store Mikkel" />
		<tag k="fixme" v="consider seamark:type=rock or natural=shoal" />
		<tag k="name" v="Mikkel" />
		<tag k="place" v="islet" />
		<tag k="ssr:stedsnr" v="125799" />
	</node>
	<node id="-25711" lat="59.8939250026" lon="10.6334611198">
		<tag k="name" v="Sagflisodden" />
		<tag k="natural" v="cape" />
		<tag k="ssr:stedsnr" v="664533" />
	</node>
	<node id="-25196" lat="59.8823445276" lon="10.6188690494">
		<tag k="name" v="Snarøykilen" />
		<tag k="natural" v="bay" />
		<tag k="ssr:stedsnr" v="124802" />
	</node>
	<node id="-25702" lat="59.8829611093" lon="10.6360666605">
		<tag k="name" v="Geitesteinen" />
		<tag k="place" v="locality" />
		<tag k="seamark:type" v="rock" />
		<tag k="ssr:stedsnr" v="631324" />
	</node>
	<node id="-25189" lat="59.8884499964" lon="10.6342388907">
		<tag k="name" v="Pelvikodden" />
		<tag k="natural" v="cape" />
		<tag k="ssr:stedsnr" v="84238" />
	</node>
	<node id="-25188" lat="59.875197226" lon="10.5871750032">
		<tag k="name" v="Vestvik" />
		<tag k="natural" v="bay" />
		<tag k="ssr:stedsnr" v="84297" />
	</node>
	<node id="-25699" lat="59.8763833308" lon="10.580975008">
		<tag k="name" v="Lillesundflaen" />
		<tag k="natural" v="strait" />
		<tag k="ssr:stedsnr" v="630257" />
	</node>
	<node id="-25186" lat="59.8884722262" lon="10.587280563">
		<tag k="fixme" v="consider seamark:type=rock or natural=shoal" />
		<tag k="name" v="Langskjær" />
		<tag k="place" v="islet" />
		<tag k="ssr:stedsnr" v="84282" />
	</node>
	<node id="-25697" lat="59.8568694454" lon="10.5869277729">
		<tag k="fixme" v="consider seamark:type=rock or natural=shoal" />
		<tag k="name" v="Kråkeskjær" />
		<tag k="place" v="islet" />
		<tag k="ssr:stedsnr" v="630245" />
	</node>
	<node id="-25696" lat="59.8560277761" lon="10.5811333335">
		<tag k="alt_name" v="Ihleholmen" />
		<tag k="name" v="Furuholmen" />
		<tag k="place" v="islet" />
		<tag k="ssr:stedsnr" v="630242" />
	</node>
	<node id="-25690" lat="59.8825055594" lon="10.5371777708">
		<tag k="name" v="Badebukta" />
		<tag k="natural" v="bay" />
		<tag k="ssr:stedsnr" v="629563" />
	</node>
	<node id="-25689" lat="59.8842666709" lon="10.5194888872">
		<tag k="name" v="Bjørnsvika" />
		<tag k="natural" v="bay" />
		<tag k="ssr:stedsnr" v="629555" />
	</node>
	<node id="-25187" lat="59.8748111132" lon="10.5959083349">
		<tag k="name" v="Paradisbukta" />
		<tag k="natural" v="bay" />
		<tag k="ssr:stedsnr" v="84296" />
	</node>
	<node id="-25165" lat="59.9070444411" lon="10.642105557">
		<tag k="fixme" v="consider seamark:type=rock or natural=shoal" />
		<tag k="name" v="Svarteskjær" />
		<tag k="place" v="islet" />
		<tag k="ssr:stedsnr" v="83110" />
	</node>
	<node id="-25185" lat="59.8561277779" lon="10.5910000023">
		<tag k="name" v="Mellemskjær" />
		<tag k="place" v="islet" />
		<tag k="ssr:stedsnr" v="84278" />
	</node>
	<node id="-25184" lat="59.8599277746" lon="10.5747250016">
		<tag k="name" v="Flisebukta" />
		<tag k="natural" v="bay" />
		<tag k="ssr:stedsnr" v="84273" />
	</node>
	<node id="-25150" lat="59.8608345956" lon="10.5671791198">
		<tag k="name" v="Hesthagabukta" />
		<tag k="natural" v="bay" />
		<tag k="ssr:stedsnr" v="81659" />
	</node>
	<node id="-25656" lat="59.8994220201" lon="10.6016677366">
		<tag k="name" v="Holtekilen" />
		<tag k="natural" v="bay" />
		<tag k="ssr:stedsnr" v="610910" />
	</node>
	<node id="-25652" lat="59.8923357957" lon="10.5976570609">
		<tag k="name" v="Storøykilen" />
		<tag k="natural" v="bay" />
		<tag k="ssr:stedsnr" v="610869" />
	</node>
	<node id="-25651" lat="59.8835861129" lon="10.6346499964">
		<tag k="alt_name" v="Geita" />
		<tag k="name" v="Geitholmen" />
		<tag k="place" v="islet" />
		<tag k="ssr:stedsnr" v="610850" />
	</node>
	<node id="-25137" lat="59.8685555538" lon="10.5654999953">
		<tag k="name" v="Ostøya" />
		<tag k="place" v="island" />
		<tag k="ssr:stedsnr" v="65809" />
	</node>
	<node id="-25131" lat="59.8843361092" lon="10.5805750038">
		<tag k="fixme" v="consider seamark:type=rock or natural=shoal" />
		<tag k="name" v="Selskjær" />
		<tag k="place" v="islet" />
		<tag k="ssr:stedsnr" v="64854" />
	</node>
	<node id="-25638" lat="59.8929378947" lon="10.633552396">
		<tag k="name" v="Rolfsbukta" />
		<tag k="natural" v="bay" />
		<tag k="ssr:stedsnr" v="603555" />
	</node>
	<node id="-25637" lat="59.8720527781" lon="10.6300638846">
		<tag k="name" v="Vassholmgrunnen" />
		<tag k="natural" v="shoal" />
		<tag k="place" v="locality" />
		<tag k="ssr:stedsnr" v="603543" />
	</node>
	<node id="-25634" lat="59.8781499966" lon="10.6351722271">
		<tag k="name" v="Geitegrunnen" />
		<tag k="natural" v="shoal" />
		<tag k="place" v="locality" />
		<tag k="ssr:stedsnr" v="571398" />
	</node>
	<node id="-25633" lat="59.8930333317" lon="10.5492861023">
		<tag k="name" v="Solvikbukta" />
		<tag k="natural" v="bay" />
		<tag k="ssr:stedsnr" v="569290" />
	</node>
	<node id="-25632" lat="59.8819611076" lon="10.5923250081">
		<tag k="alt_name" v="Koksetflu" />
		<tag k="name" v="Kokseflua" />
		<tag k="natural" v="shoal" />
		<tag k="place" v="locality" />
		<tag k="ssr:stedsnr" v="569268" />
	</node>
	<node id="-25631" lat="59.8549694484" lon="10.582975009">
		<tag k="alt_name" v="Mellomholmen" />
		<tag k="name" v="Mellemholmen" />
		<tag k="place" v="islet" />
		<tag k="ssr:stedsnr" v="569257" />
	</node>
	<node id="-25117" lat="59.9019333358" lon="10.6356583404">
		<tag k="name" v="Fornebukta" />
		<tag k="natural" v="bay" />
		<tag k="ssr:stedsnr" v="25364" />
	</node>
	<node id="-25112" lat="59.8389916669" lon="10.5994138918">
		<tag k="name" v="Kristoffersanden" />
		<tag k="natural" v="shoal" />
		<tag k="place" v="locality" />
		<tag k="ssr:stedsnr" v="23520" />
	</node>
	<node id="-25106" lat="59.8781388882" lon="10.6234444363">
		<tag k="fixme" v="consider seamark:type=rock or natural=shoal" />
		<tag k="name" v="Møkkalassene" />
		<tag k="place" v="islet" />
		<tag k="ssr:stedsnr" v="23269" />
	</node>
</osm>
