<?xml version="1.0" encoding="UTF-8"?>
<osm generator="osmapis" version="0.6">
	<node id="-59256" lat="59.428658501" lon="8.17517487034">
		<tag k="name" v="Talleiv RÃ¸yslands veg" />
		<tag k="ssr:date" v="2019-12-27" />
		<tag k="ssr:gruppe" v="veg" />
		<tag k="ssr:hovedgruppe" v="infrastruktur" />
		<tag k="ssr:stedsnr" v="1049893" />
		<tag k="ssr:type" v="adressenavn" />
	</node>
	<node id="-57335" lat="59.4456861135" lon="8.01387499808">
		<tag k="name" v="Tokke kommune" />
		<tag k="ssr:date" v="2019-12-27" />
		<tag k="ssr:gruppe" v="administrativeIndelinger" />
		<tag k="ssr:hovedgruppe" v="offentligAdministrasjon" />
		<tag k="ssr:stedsnr" v="935930" />
		<tag k="ssr:type" v="kommune" />
	</node>
	<node id="-56532" lat="59.4700916657" lon="8.06955278297">
		<tag k="name" v="Stavlihei" />
		<tag k="ssr:date" v="2019-12-27" />
		<tag k="ssr:gruppe" v="veg" />
		<tag k="ssr:hovedgruppe" v="infrastruktur" />
		<tag k="ssr:stedsnr" v="656478" />
		<tag k="ssr:type" v="vegstrekning" />
	</node>
	<node id="-57756" lat="59.5438861142" lon="8.04703888916">
		<tag k="name" v="Gamleveg" />
		<tag k="ssr:date" v="2019-12-27" />
		<tag k="ssr:gruppe" v="veg" />
		<tag k="ssr:hovedgruppe" v="infrastruktur" />
		<tag k="ssr:stedsnr" v="110267" />
		<tag k="ssr:type" v="vegstrekning" />
	</node>
	<node id="-59257" lat="59.2161476784" lon="9.61110301692">
		<tag k="name" v="Vestfold og Telemark fylke" />
		<tag k="ssr:date" v="2020-01-13" />
		<tag k="ssr:gruppe" v="administrativeIndelinger" />
		<tag k="ssr:hovedgruppe" v="offentligAdministrasjon" />
		<tag k="ssr:stedsnr" v="1073927" />
		<tag k="ssr:type" v="fylke" />
	</node>
</osm>
