<?xml version="1.0" encoding="UTF-8"?>
<osm version="0.6" generator="osmapis">
	<node lat="62.944872223577136" lon="7.8346361149987755" id="-8932">
		<tag k="name" v="Holtalivegen" />
		<tag k="ssr:date" v="2016-05-10" />
		<tag k="ssr:gruppe" v="veg" />
		<tag k="ssr:hovedgruppe" v="infrastruktur" />
		<tag k="ssr:stedsnr" v="458993" />
		<tag k="ssr:type" v="vegstrekning" />
	</node>
	<node lat="62.94709444579979" lon="8.062105561600934" id="-9323">
		<tag k="name" v="Varvikbrua" />
		<tag k="ssr:date" v="2016-05-11" />
		<tag k="ssr:gruppe" v="sjøbunn" />
		<tag k="ssr:hovedgruppe" v="sjø" />
		<tag k="ssr:stedsnr" v="702533" />
		<tag k="ssr:type" v="ryggISjø" />
	</node>
	<node lat="62.93303332881694" lon="7.894591658562068" id="-9792">
		<tag k="name" v="Dyrkollstien" />
		<tag k="ssr:date" v="2016-05-10" />
		<tag k="ssr:gruppe" v="sjøbunn" />
		<tag k="ssr:hovedgruppe" v="sjø" />
		<tag k="ssr:stedsnr" v="95461" />
		<tag k="ssr:type" v="renneKløftISjø" />
	</node>
	<node lat="62.97555609084245" lon="7.9959479367180295" id="-9838">
		<tag k="alt_name" v="Kvalvågfyret" />
		<tag k="name" v="Kvalvågholmen" />
		<tag k="ssr:date" v="2020-09-08" />
		<tag k="ssr:gruppe" v="navigasjon" />
		<tag k="ssr:hovedgruppe" v="infrastruktur" />
		<tag k="ssr:stedsnr" v="133890" />
		<tag k="ssr:type" v="fyrlykt" />
	</node>
	<node lat="62.73392710705581" lon="7.14918030614603" id="-9841">
		<tag k="alt_name" v="Møre og Romsdal" />
		<tag k="name" v="Møre og Romsdal fylke" />
		<tag k="ssr:date" v="2021-09-21" />
		<tag k="ssr:gruppe" v="administrativeIndelinger" />
		<tag k="ssr:hovedgruppe" v="offentligAdministrasjon" />
		<tag k="ssr:stedsnr" v="145583" />
		<tag k="ssr:type" v="fylke" />
	</node>
	<node lat="62.941805555701656" lon="7.857925006085972" id="-9873">
		<tag k="name" v="Torvikbrua" />
		<tag k="ssr:date" v="2016-05-10" />
		<tag k="ssr:gruppe" v="sjøbunn" />
		<tag k="ssr:hovedgruppe" v="sjø" />
		<tag k="ssr:stedsnr" v="155991" />
		<tag k="ssr:type" v="ryggISjø" />
	</node>
	<node lat="62.88841388745113" lon="7.924349993747258" id="-9974">
		<tag k="name" v="Øybrua" />
		<tag k="ssr:date" v="2016-05-10" />
		<tag k="ssr:gruppe" v="sjøbunn" />
		<tag k="ssr:hovedgruppe" v="sjø" />
		<tag k="ssr:stedsnr" v="217239" />
		<tag k="ssr:type" v="ryggISjø" />
	</node>
	<node lat="62.976527643471435" lon="7.776160463402907" id="-10087">
		<tag k="name" v="Kråkholmen" />
		<tag k="ssr:date" v="2020-09-08" />
		<tag k="ssr:gruppe" v="navigasjon" />
		<tag k="ssr:hovedgruppe" v="infrastruktur" />
		<tag k="ssr:stedsnr" v="315846" />
		<tag k="ssr:type" v="fyrlykt" />
	</node>
	<node lat="62.960908335797434" lon="8.02249166648664" id="-10122">
		<tag k="name" v="Bjørnastien" />
		<tag k="ssr:date" v="2016-05-10" />
		<tag k="ssr:gruppe" v="sjøbunn" />
		<tag k="ssr:hovedgruppe" v="sjø" />
		<tag k="ssr:stedsnr" v="338508" />
		<tag k="ssr:type" v="renneKløftISjø" />
	</node>
	<node lat="62.91875000334113" lon="7.925902769418111" id="-10173">
		<tag k="name" v="Nordmøre" />
		<tag k="ssr:date" v="2019-12-27" />
		<tag k="ssr:gruppe" v="terrengområder" />
		<tag k="ssr:hovedgruppe" v="terreng" />
		<tag k="ssr:stedsnr" v="389819" />
		<tag k="ssr:type" v="landskapsområde" />
	</node>
	<node lat="62.96886388498262" lon="7.775783324039437" id="-10313">
		<tag k="name" v="Gjemnessundet" />
		<tag k="ssr:date" v="2016-05-10" />
		<tag k="ssr:gruppe" v="navigasjon" />
		<tag k="ssr:hovedgruppe" v="infrastruktur" />
		<tag k="ssr:stedsnr" v="526663" />
		<tag k="ssr:type" v="fyrlykt" />
	</node>
	<node lat="62.940780553370686" lon="7.840786118467505" id="-10360">
		<tag k="name" v="Stegan" />
		<tag k="ssr:date" v="2016-05-10" />
		<tag k="ssr:gruppe" v="sjøbunn" />
		<tag k="ssr:hovedgruppe" v="sjø" />
		<tag k="ssr:stedsnr" v="581163" />
		<tag k="ssr:type" v="renneKløftISjø" />
	</node>
	<node lat="62.89378889178178" lon="7.677138885007162" id="-10401">
		<tag k="alt_name" v="Gjemnes" />
		<tag k="name" v="Gjemnes kommune" />
		<tag k="ssr:date" v="2016-05-10" />
		<tag k="ssr:gruppe" v="administrativeIndelinger" />
		<tag k="ssr:hovedgruppe" v="offentligAdministrasjon" />
		<tag k="ssr:stedsnr" v="631795" />
		<tag k="ssr:type" v="kommune" />
	</node>
	<node lat="62.94206667113683" lon="7.86105278738427" id="-10411">
		<tag k="name" v="Myrdølabrua" />
		<tag k="ssr:date" v="2016-05-10" />
		<tag k="ssr:gruppe" v="sjøbunn" />
		<tag k="ssr:hovedgruppe" v="sjø" />
		<tag k="ssr:stedsnr" v="640536" />
		<tag k="ssr:type" v="ryggISjø" />
	</node>
	<node lat="62.890703622316785" lon="7.684008149095798" id="-10828">
		<tag k="name" v="Bakken" />
		<tag k="ssr:date" v="2019-05-31" />
		<tag k="ssr:gruppe" v="veg" />
		<tag k="ssr:hovedgruppe" v="infrastruktur" />
		<tag k="ssr:stedsnr" v="1058944" />
		<tag k="ssr:type" v="adressenavn" />
	</node>
	<node lat="62.89126543513915" lon="7.681643607134771" id="-10829">
		<tag k="name" v="Flata" />
		<tag k="ssr:date" v="2019-05-31" />
		<tag k="ssr:gruppe" v="veg" />
		<tag k="ssr:hovedgruppe" v="infrastruktur" />
		<tag k="ssr:stedsnr" v="1058945" />
		<tag k="ssr:type" v="adressenavn" />
	</node>
	<node lat="62.89129485232958" lon="7.682681159929193" id="-10830">
		<tag k="name" v="Indergardsvegen" />
		<tag k="ssr:date" v="2019-05-31" />
		<tag k="ssr:gruppe" v="veg" />
		<tag k="ssr:hovedgruppe" v="infrastruktur" />
		<tag k="ssr:stedsnr" v="1058946" />
		<tag k="ssr:type" v="adressenavn" />
	</node>
	<node lat="62.903600493868275" lon="7.666613603867935" id="-10831">
		<tag k="name" v="Smålivegen" />
		<tag k="ssr:date" v="2019-05-31" />
		<tag k="ssr:gruppe" v="veg" />
		<tag k="ssr:hovedgruppe" v="infrastruktur" />
		<tag k="ssr:stedsnr" v="1058947" />
		<tag k="ssr:type" v="adressenavn" />
	</node>
	<node lat="62.91681383376853" lon="7.749846829211843" id="-10832">
		<tag k="name" v="Gammelvegen" />
		<tag k="ssr:date" v="2019-05-31" />
		<tag k="ssr:gruppe" v="veg" />
		<tag k="ssr:hovedgruppe" v="infrastruktur" />
		<tag k="ssr:stedsnr" v="1058948" />
		<tag k="ssr:type" v="adressenavn" />
	</node>
	<node lat="62.90239470357262" lon="7.666424153180149" id="-10833">
		<tag k="name" v="Skogfaret" />
		<tag k="ssr:date" v="2019-05-31" />
		<tag k="ssr:gruppe" v="veg" />
		<tag k="ssr:hovedgruppe" v="infrastruktur" />
		<tag k="ssr:stedsnr" v="1058950" />
		<tag k="ssr:type" v="adressenavn" />
	</node>
	<node lat="62.900221092644436" lon="7.667263257082125" id="-10839">
		<tag k="name" v="Storhågvegen" />
		<tag k="ssr:date" v="2019-05-31" />
		<tag k="ssr:gruppe" v="veg" />
		<tag k="ssr:hovedgruppe" v="infrastruktur" />
		<tag k="ssr:stedsnr" v="1058951" />
		<tag k="ssr:type" v="adressenavn" />
	</node>
	<node lat="62.901289429797046" lon="7.669297700048751" id="-10840">
		<tag k="name" v="Naustbekkvegen" />
		<tag k="ssr:date" v="2019-05-31" />
		<tag k="ssr:gruppe" v="veg" />
		<tag k="ssr:hovedgruppe" v="infrastruktur" />
		<tag k="ssr:stedsnr" v="1058952" />
		<tag k="ssr:type" v="adressenavn" />
	</node>
	<node lat="62.935911920384605" lon="8.067608237092532" id="-10843">
		<tag k="name" v="Skoglivegen" />
		<tag k="ssr:date" v="2019-05-31" />
		<tag k="ssr:gruppe" v="veg" />
		<tag k="ssr:hovedgruppe" v="infrastruktur" />
		<tag k="ssr:stedsnr" v="1058956" />
		<tag k="ssr:type" v="adressenavn" />
	</node>
	<node lat="62.93381704142238" lon="8.069033841537241" id="-10844">
		<tag k="name" v="Solbakken" />
		<tag k="ssr:date" v="2019-05-31" />
		<tag k="ssr:gruppe" v="veg" />
		<tag k="ssr:hovedgruppe" v="infrastruktur" />
		<tag k="ssr:stedsnr" v="1058957" />
		<tag k="ssr:type" v="adressenavn" />
	</node>
	<node lat="62.897178460052686" lon="8.08505376144198" id="-10845">
		<tag k="name" v="Raudbekkvegen" />
		<tag k="ssr:date" v="2019-05-31" />
		<tag k="ssr:gruppe" v="veg" />
		<tag k="ssr:hovedgruppe" v="infrastruktur" />
		<tag k="ssr:stedsnr" v="1058958" />
		<tag k="ssr:type" v="adressenavn" />
	</node>
	<node lat="62.94136650361998" lon="7.8581650018630755" id="-10850">
		<tag k="name" v="Smedplassvegen" />
		<tag k="ssr:date" v="2019-05-31" />
		<tag k="ssr:gruppe" v="veg" />
		<tag k="ssr:hovedgruppe" v="infrastruktur" />
		<tag k="ssr:stedsnr" v="1058963" />
		<tag k="ssr:type" v="adressenavn" />
	</node>
	<node lat="62.945831266096825" lon="7.868830149071264" id="-10851">
		<tag k="name" v="Skoghågvegen" />
		<tag k="ssr:date" v="2019-05-31" />
		<tag k="ssr:gruppe" v="veg" />
		<tag k="ssr:hovedgruppe" v="infrastruktur" />
		<tag k="ssr:stedsnr" v="1058964" />
		<tag k="ssr:type" v="adressenavn" />
	</node>
	<node lat="62.9464504105448" lon="7.866586179715825" id="-10852">
		<tag k="name" v="Hamnahågvegen" />
		<tag k="ssr:date" v="2019-05-31" />
		<tag k="ssr:gruppe" v="veg" />
		<tag k="ssr:hovedgruppe" v="infrastruktur" />
		<tag k="ssr:stedsnr" v="1058965" />
		<tag k="ssr:type" v="adressenavn" />
	</node>
	<node lat="62.89797521710782" lon="8.08367972693397" id="-10854">
		<tag k="name" v="Skyttarvegen" />
		<tag k="ssr:date" v="2019-05-31" />
		<tag k="ssr:gruppe" v="veg" />
		<tag k="ssr:hovedgruppe" v="infrastruktur" />
		<tag k="ssr:stedsnr" v="1058967" />
		<tag k="ssr:type" v="adressenavn" />
	</node>
	<node lat="62.89762108079117" lon="8.082291575344072" id="-10855">
		<tag k="name" v="Haltlivegen" />
		<tag k="ssr:date" v="2019-05-31" />
		<tag k="ssr:gruppe" v="veg" />
		<tag k="ssr:hovedgruppe" v="infrastruktur" />
		<tag k="ssr:stedsnr" v="1058968" />
		<tag k="ssr:type" v="adressenavn" />
	</node>
	<node lat="62.896755361326086" lon="8.087481303999807" id="-10856">
		<tag k="name" v="Vollabakken" />
		<tag k="ssr:date" v="2019-05-31" />
		<tag k="ssr:gruppe" v="veg" />
		<tag k="ssr:hovedgruppe" v="infrastruktur" />
		<tag k="ssr:stedsnr" v="1058970" />
		<tag k="ssr:type" v="adressenavn" />
	</node>
	<node lat="62.86849953059082" lon="7.884283354632045" id="-10857">
		<tag k="name" v="Furuhågvegen" />
		<tag k="ssr:date" v="2019-05-31" />
		<tag k="ssr:gruppe" v="veg" />
		<tag k="ssr:hovedgruppe" v="infrastruktur" />
		<tag k="ssr:stedsnr" v="1058971" />
		<tag k="ssr:type" v="adressenavn" />
	</node>
</osm>
