<?xml version="1.0" encoding="UTF-8"?>
<osm version="0.6" generator="osmapis">
	<node lat="69.86250948538769" lon="30.09556414886346" id="-36784">
		<tag k="name" v="Kjelmsøy" />
		<tag k="old_name" v="Kjelmøya" />
		<tag k="ssr:date" v="2020-11-10" />
		<tag k="ssr:gruppe" v="navigasjon" />
		<tag k="ssr:hovedgruppe" v="infrastruktur" />
		<tag k="ssr:stedsnr" v="262068" />
		<tag k="ssr:type" v="fyrlykt" />
	</node>
	<node lat="69.9671224777715" lon="29.659362474701727" id="-36863">
		<tag k="name" v="Bugøynes molo, søre" />
		<tag k="old_name" v="Søre Bugøynes molo;Bugøynes søre molo" />
		<tag k="ssr:date" v="2020-09-02" />
		<tag k="ssr:gruppe" v="navigasjon" />
		<tag k="ssr:hovedgruppe" v="infrastruktur" />
		<tag k="ssr:stedsnr" v="268604" />
		<tag k="ssr:type" v="lanterne" />
	</node>
	<node lat="69.9020861682644" lon="30.121051016020918" id="-36866">
		<tag k="name" v="Skallen" />
		<tag k="ssr:date" v="2019-12-27" />
		<tag k="ssr:gruppe" v="sjøbunn" />
		<tag k="ssr:hovedgruppe" v="sjø" />
		<tag k="ssr:stedsnr" v="210237" />
		<tag k="ssr:type" v="bakkeISjø" />
	</node>
	<node lat="69.7286083934554" lon="30.041956544432836" id="-36929">
		<tag k="loc_name:fkv" v="Etelä-Varankin kunta" />
		<tag k="loc_name:se" v="Mátta-Várjjaga gielda" />
		<tag k="name" v="Sør-Varanger kommune" />
		<tag k="name:no" v="Sør-Varanger kommune" />
		<tag k="ssr:date" v="2019-12-27" />
		<tag k="ssr:gruppe" v="administrativeIndelinger" />
		<tag k="ssr:hovedgruppe" v="offentligAdministrasjon" />
		<tag k="ssr:stedsnr" v="268631" />
		<tag k="ssr:type" v="kommune" />
	</node>
	<node lat="69.79731118947892" lon="30.799636572131398" id="-37064">
		<tag k="name" v="Skjærgården" />
		<tag k="ssr:date" v="2019-12-27" />
		<tag k="ssr:gruppe" v="sjøbunn" />
		<tag k="ssr:hovedgruppe" v="sjø" />
		<tag k="ssr:stedsnr" v="389611" />
		<tag k="ssr:type" v="bankeISjø" />
	</node>
	<node lat="69.78841779063707" lon="30.10736027963444" id="-37176">
		<tag k="name" v="Reinøy" />
		<tag k="old_name" v="Reinøya" />
		<tag k="ssr:date" v="2020-09-17" />
		<tag k="ssr:gruppe" v="navigasjon" />
		<tag k="ssr:hovedgruppe" v="infrastruktur" />
		<tag k="ssr:stedsnr" v="505117" />
		<tag k="ssr:type" v="fyrlykt" />
	</node>
	<node lat="69.80820426962562" lon="30.41863085323166" id="-37268">
		<tag k="name" v="Jarfjord" />
		<tag k="ssr:date" v="2021-01-05" />
		<tag k="ssr:gruppe" v="navigasjon" />
		<tag k="ssr:hovedgruppe" v="infrastruktur" />
		<tag k="ssr:stedsnr" v="687114" />
		<tag k="ssr:type" v="fyrlykt" />
	</node>
	<node lat="69.81552842534245" lon="29.75910693618783" id="-37299">
		<tag k="name" v="Straumen" />
		<tag k="ssr:date" v="2020-09-17" />
		<tag k="ssr:gruppe" v="navigasjon" />
		<tag k="ssr:hovedgruppe" v="infrastruktur" />
		<tag k="ssr:stedsnr" v="565011" />
		<tag k="ssr:type" v="fyrlykt" />
	</node>
	<node lat="69.965244192382" lon="29.65796012643232" id="-37318">
		<tag k="name" v="Bugøynes" />
		<tag k="ssr:date" v="2021-01-05" />
		<tag k="ssr:gruppe" v="navigasjon" />
		<tag k="ssr:hovedgruppe" v="infrastruktur" />
		<tag k="ssr:stedsnr" v="693628" />
		<tag k="ssr:type" v="fyrlykt" />
	</node>
	<node lat="69.9180823694781" lon="29.500877567733266" id="-37386">
		<tag k="name" v="Bugøyfjord" />
		<tag k="ssr:date" v="2020-11-10" />
		<tag k="ssr:gruppe" v="navigasjon" />
		<tag k="ssr:hovedgruppe" v="infrastruktur" />
		<tag k="ssr:stedsnr" v="635332" />
		<tag k="ssr:type" v="fyrlykt" />
	</node>
	<node lat="69.96777749223013" lon="29.66128210306345" id="-37564">
		<tag k="name" v="Bugøy molo, søre" />
		<tag k="old_name" v="Søre Bugøy molo;Bugøy molo" />
		<tag k="ssr:date" v="2020-09-02" />
		<tag k="ssr:gruppe" v="navigasjon" />
		<tag k="ssr:hovedgruppe" v="infrastruktur" />
		<tag k="ssr:stedsnr" v="754618" />
		<tag k="ssr:type" v="lanterne" />
	</node>
	<node lat="69.89827086069641" lon="29.757580038663146" id="-37567">
		<tag k="name" v="Brasholmen" />
		<tag k="ssr:date" v="2020-11-26" />
		<tag k="ssr:gruppe" v="navigasjon" />
		<tag k="ssr:hovedgruppe" v="infrastruktur" />
		<tag k="ssr:stedsnr" v="756552" />
		<tag k="ssr:type" v="fyrlykt" />
	</node>
	<node lat="69.87763661955461" lon="30.17425417738997" id="-37898">
		<tag k="name" v="Bøkfjord" />
		<tag k="old_name" v="Bøkfjord fyr" />
		<tag k="ssr:date" v="2020-09-01" />
		<tag k="ssr:gruppe" v="navigasjon" />
		<tag k="ssr:hovedgruppe" v="infrastruktur" />
		<tag k="ssr:stedsnr" v="19055" />
		<tag k="ssr:type" v="fyrstasjon" />
	</node>
	<node lat="69.75579711370874" lon="29.82413756356452" id="-38070">
		<tag k="name" v="Steinskjernes" />
		<tag k="old_name" v="Steinkjernes" />
		<tag k="ssr:date" v="2020-11-19" />
		<tag k="ssr:gruppe" v="navigasjon" />
		<tag k="ssr:hovedgruppe" v="infrastruktur" />
		<tag k="ssr:stedsnr" v="80052" />
		<tag k="ssr:type" v="fyrlykt" />
	</node>
	<node lat="69.11054450119937" lon="29.01069581968865" id="-38259">
		<tag k="name" v="Ylimaa" />
		<tag k="name:fkv" v="Ylimaa" />
		<tag k="ssr:date" v="2021-06-08" />
		<tag k="ssr:gruppe" v="terrengområder" />
		<tag k="ssr:hovedgruppe" v="terreng" />
		<tag k="ssr:stedsnr" v="147940" />
		<tag k="ssr:type" v="landskapsområde" />
	</node>
	<node lat="69.55798616598992" lon="29.570231770538914" id="-38261">
		<tag k="loc_name:fkv" v="Etelä-Varenki;Etelä-Varinki" />
		<tag k="name" v="Sør-Varanger" />
		<tag k="name:no" v="Sør-Varanger" />
		<tag k="ssr:date" v="2019-12-27" />
		<tag k="ssr:gruppe" v="terrengområder" />
		<tag k="ssr:hovedgruppe" v="terreng" />
		<tag k="ssr:stedsnr" v="149789" />
		<tag k="ssr:type" v="landskapsområde" />
	</node>
	<node lat="69.97330837434731" lon="29.65185696072982" id="-38971">
		<tag k="name" v="Bugøy molo, nordre" />
		<tag k="old_name" v="Nordre Bugøy molo" />
		<tag k="ssr:date" v="2020-09-02" />
		<tag k="ssr:gruppe" v="navigasjon" />
		<tag k="ssr:hovedgruppe" v="infrastruktur" />
		<tag k="ssr:stedsnr" v="511560" />
		<tag k="ssr:type" v="lanterne" />
	</node>
	<node lat="69.75716832397055" lon="29.69955718127443" id="-39080">
		<tag k="name" v="Skogerøypynten" />
		<tag k="ssr:date" v="2020-09-17" />
		<tag k="ssr:gruppe" v="navigasjon" />
		<tag k="ssr:hovedgruppe" v="infrastruktur" />
		<tag k="ssr:stedsnr" v="565050" />
		<tag k="ssr:type" v="fyrlykt" />
	</node>
	<node lat="69.97331265587786" lon="29.650311946100516" id="-39138">
		<tag k="name" v="Bugøynes  molo, nordre" />
		<tag k="old_name" v="Nordre Bugøynes  molo" />
		<tag k="ssr:date" v="2020-09-01" />
		<tag k="ssr:gruppe" v="navigasjon" />
		<tag k="ssr:hovedgruppe" v="infrastruktur" />
		<tag k="ssr:stedsnr" v="571592" />
		<tag k="ssr:type" v="lanterne" />
	</node>
	<node lat="69.92461672041709" lon="29.62970687435643" id="-39292">
		<tag k="name" v="Kasterholman" />
		<tag k="ssr:date" v="2019-12-27" />
		<tag k="ssr:gruppe" v="navigasjon" />
		<tag k="ssr:hovedgruppe" v="infrastruktur" />
		<tag k="ssr:stedsnr" v="647270" />
		<tag k="ssr:type" v="lanterne" />
	</node>
	<node lat="69.85267228539067" lon="30.130864875173273" id="-39640">
		<tag k="name" v="Trondheimsneset" />
		<tag k="ssr:date" v="2019-12-27" />
		<tag k="ssr:gruppe" v="navigasjon" />
		<tag k="ssr:hovedgruppe" v="infrastruktur" />
		<tag k="ssr:stedsnr" v="817217" />
		<tag k="ssr:type" v="fyrlykt" />
	</node>
	<node lat="70.13501115619039" lon="29.77172078216173" id="-39648">
		<tag k="name" v="Várjjat" />
		<tag k="name:se" v="Várjjat" />
		<tag k="ssr:date" v="2021-06-08" />
		<tag k="ssr:gruppe" v="terrengområder" />
		<tag k="ssr:hovedgruppe" v="terreng" />
		<tag k="ssr:stedsnr" v="822489" />
		<tag k="ssr:type" v="landskapsområde" />
	</node>
	<node lat="69.85775497270896" lon="30.038679784570192" id="-39729">
		<tag k="name" v="Kjelmsøysund" />
		<tag k="old_name" v="Kjelmøysund" />
		<tag k="ssr:date" v="2020-11-26" />
		<tag k="ssr:gruppe" v="navigasjon" />
		<tag k="ssr:hovedgruppe" v="infrastruktur" />
		<tag k="ssr:stedsnr" v="869087" />
		<tag k="ssr:type" v="fyrlykt" />
	</node>
	<node lat="69.6725960917247" lon="29.94527972672015" id="-39850">
		<tag k="name" v="Nils A. Mennas vei" />
		<tag k="ssr:date" v="2019-12-27" />
		<tag k="ssr:gruppe" v="veg" />
		<tag k="ssr:hovedgruppe" v="infrastruktur" />
		<tag k="ssr:stedsnr" v="1057692" />
		<tag k="ssr:type" v="adressenavn" />
	</node>
	<node lat="69.69529753588763" lon="29.96060989965595" id="-39851">
		<tag k="name" v="Maggadalen" />
		<tag k="ssr:date" v="2019-12-27" />
		<tag k="ssr:gruppe" v="veg" />
		<tag k="ssr:hovedgruppe" v="infrastruktur" />
		<tag k="ssr:stedsnr" v="1058233" />
		<tag k="ssr:type" v="adressenavn" />
	</node>
	<node lat="69.72050044119702" lon="30.038842596754794" id="-39852">
		<tag k="name" v="Verksveien" />
		<tag k="ssr:date" v="2019-12-27" />
		<tag k="ssr:gruppe" v="veg" />
		<tag k="ssr:hovedgruppe" v="infrastruktur" />
		<tag k="ssr:stedsnr" v="1058789" />
		<tag k="ssr:type" v="adressenavn" />
	</node>
	<node lat="69.72370049812706" lon="30.038494485190874" id="-39853">
		<tag k="name" v="Verksbakken" />
		<tag k="ssr:date" v="2019-12-27" />
		<tag k="ssr:gruppe" v="veg" />
		<tag k="ssr:hovedgruppe" v="infrastruktur" />
		<tag k="ssr:stedsnr" v="1058791" />
		<tag k="ssr:type" v="adressenavn" />
	</node>
	<node lat="69.71699877521215" lon="29.91686376729482" id="-39854">
		<tag k="name" v="Sætra" />
		<tag k="ssr:date" v="2019-12-27" />
		<tag k="ssr:gruppe" v="veg" />
		<tag k="ssr:hovedgruppe" v="infrastruktur" />
		<tag k="ssr:stedsnr" v="1059049" />
		<tag k="ssr:type" v="adressenavn" />
	</node>
	<node lat="69.41668231547492" lon="29.984173584107474" id="-39855">
		<tag k="name" v="Skrøytnesveien" />
		<tag k="ssr:date" v="2019-12-27" />
		<tag k="ssr:gruppe" v="veg" />
		<tag k="ssr:hovedgruppe" v="infrastruktur" />
		<tag k="ssr:stedsnr" v="1059474" />
		<tag k="ssr:type" v="adressenavn" />
	</node>
	<node lat="69.769079023491" lon="29.83408024910969" id="-39858">
		<tag k="name" v="Skogerøyvegen" />
		<tag k="ssr:date" v="2019-12-27" />
		<tag k="ssr:gruppe" v="veg" />
		<tag k="ssr:hovedgruppe" v="infrastruktur" />
		<tag k="ssr:stedsnr" v="1073433" />
		<tag k="ssr:type" v="vegstrekning" />
	</node>
	<node lat="70.08225403199775" lon="29.73028468656217" id="-39859">
		<tag k="fixme" v="multiple name tags, choose one and add the other to alt_name" />
		<tag k="name" v="Troms og Finnmark;Troms og Finnmark fylke - Romssa ja Finnmárkku fylka - Tromssan ja Finmarkun fylkki" />
		<tag k="name:fkv" v="Tromssan ja Finmarkun fylkki" />
		<tag k="name:no" v="Troms og Finnmark;Troms og Finnmark fylke" />
		<tag k="name:se" v="Romssa ja Finnmárkku fylka" />
		<tag k="ssr:date" v="2021-06-08" />
		<tag k="ssr:gruppe" v="administrativeIndelinger" />
		<tag k="ssr:hovedgruppe" v="offentligAdministrasjon" />
		<tag k="ssr:stedsnr" v="1073694" />
		<tag k="ssr:type" v="fylke" />
	</node>
	<node lat="69.67205746922535" lon="30.394064322966937" id="-39860">
		<tag k="name" v="Karpdalsveien" />
		<tag k="ssr:date" v="2019-12-27" />
		<tag k="ssr:gruppe" v="veg" />
		<tag k="ssr:hovedgruppe" v="infrastruktur" />
		<tag k="ssr:stedsnr" v="1074104" />
		<tag k="ssr:type" v="adressenavn" />
	</node>
	<node lat="69.68178976568244" lon="30.094760000497164" id="-39861">
		<tag k="name" v="Elvenesveien" />
		<tag k="ssr:date" v="2019-12-27" />
		<tag k="ssr:gruppe" v="veg" />
		<tag k="ssr:hovedgruppe" v="infrastruktur" />
		<tag k="ssr:stedsnr" v="1074103" />
		<tag k="ssr:type" v="adressenavn" />
	</node>
	<node lat="69.4541949719547" lon="30.050276387270124" id="-39862">
		<tag k="name" v="Svein H. Sørensens vei" />
		<tag k="ssr:date" v="2019-12-27" />
		<tag k="ssr:gruppe" v="veg" />
		<tag k="ssr:hovedgruppe" v="infrastruktur" />
		<tag k="ssr:stedsnr" v="1074106" />
		<tag k="ssr:type" v="adressenavn" />
	</node>
	<node lat="69.3286313434866" lon="29.33203512702003" id="-39863">
		<tag k="name" v="Nordvestbukta" />
		<tag k="ssr:date" v="2019-12-27" />
		<tag k="ssr:gruppe" v="veg" />
		<tag k="ssr:hovedgruppe" v="infrastruktur" />
		<tag k="ssr:stedsnr" v="1074105" />
		<tag k="ssr:type" v="adressenavn" />
	</node>
	<node lat="69.85312464537084" lon="29.3700393475583" id="-39882">
		<tag k="name" v="Myrheimveien" />
		<tag k="ssr:date" v="2020-12-21" />
		<tag k="ssr:gruppe" v="veg" />
		<tag k="ssr:hovedgruppe" v="infrastruktur" />
		<tag k="ssr:stedsnr" v="1079451" />
		<tag k="ssr:type" v="adressenavn" />
	</node>
	<node lat="69.86710362849473" lon="29.345202705296668" id="-39883">
		<tag k="name" v="Grendehusveien" />
		<tag k="ssr:date" v="2020-12-21" />
		<tag k="ssr:gruppe" v="veg" />
		<tag k="ssr:hovedgruppe" v="infrastruktur" />
		<tag k="ssr:stedsnr" v="1079452" />
		<tag k="ssr:type" v="adressenavn" />
	</node>
	<node lat="69.86815054739809" lon="29.34610107059969" id="-39884">
		<tag k="name" v="Rismyrveien" />
		<tag k="ssr:date" v="2020-12-21" />
		<tag k="ssr:gruppe" v="veg" />
		<tag k="ssr:hovedgruppe" v="infrastruktur" />
		<tag k="ssr:stedsnr" v="1079453" />
		<tag k="ssr:type" v="adressenavn" />
	</node>
	<node lat="69.7269294206447" lon="29.86433795054889" id="-39885">
		<tag k="name" v="Høybukta" />
		<tag k="ssr:date" v="2020-12-21" />
		<tag k="ssr:gruppe" v="veg" />
		<tag k="ssr:hovedgruppe" v="infrastruktur" />
		<tag k="ssr:stedsnr" v="1079454" />
		<tag k="ssr:type" v="adressenavn" />
	</node>
	<node lat="69.86759570539155" lon="30.05598135599465" id="-39887">
		<tag k="name" v="Kjelmøya" />
		<tag k="ssr:date" v="2021-02-18" />
		<tag k="ssr:gruppe" v="veg" />
		<tag k="ssr:hovedgruppe" v="infrastruktur" />
		<tag k="ssr:stedsnr" v="1080068" />
		<tag k="ssr:type" v="adressenavn" />
	</node>
	<node lat="69.62930050695292" lon="30.44724573283872" id="-39888">
		<tag k="name" v="Karpdalen" />
		<tag k="ssr:date" v="2021-02-18" />
		<tag k="ssr:gruppe" v="veg" />
		<tag k="ssr:hovedgruppe" v="infrastruktur" />
		<tag k="ssr:stedsnr" v="1080067" />
		<tag k="ssr:type" v="adressenavn" />
	</node>
	<node lat="69.65488372342261" lon="29.673757009242674" id="-39889">
		<tag k="name" v="Munkefjordfjellet" />
		<tag k="ssr:date" v="2021-02-18" />
		<tag k="ssr:gruppe" v="veg" />
		<tag k="ssr:hovedgruppe" v="infrastruktur" />
		<tag k="ssr:stedsnr" v="1080072" />
		<tag k="ssr:type" v="adressenavn" />
	</node>
	<node lat="69.77960661599641" lon="30.71125242853164" id="-39890">
		<tag k="name" v="Kobbholmfjorden" />
		<tag k="ssr:date" v="2021-02-18" />
		<tag k="ssr:gruppe" v="veg" />
		<tag k="ssr:hovedgruppe" v="infrastruktur" />
		<tag k="ssr:stedsnr" v="1080069" />
		<tag k="ssr:type" v="adressenavn" />
	</node>
	<node lat="69.71406524591758" lon="29.95798586988012" id="-39891">
		<tag k="name" v="Langfjorden hytteområde" />
		<tag k="ssr:date" v="2021-02-18" />
		<tag k="ssr:gruppe" v="veg" />
		<tag k="ssr:hovedgruppe" v="infrastruktur" />
		<tag k="ssr:stedsnr" v="1080070" />
		<tag k="ssr:type" v="adressenavn" />
	</node>
	<node lat="69.60478440824592" lon="29.88476905955197" id="-39892">
		<tag k="name" v="Midtfjordfjellet" />
		<tag k="ssr:date" v="2021-02-18" />
		<tag k="ssr:gruppe" v="veg" />
		<tag k="ssr:hovedgruppe" v="infrastruktur" />
		<tag k="ssr:stedsnr" v="1080071" />
		<tag k="ssr:type" v="adressenavn" />
	</node>
	<node lat="69.78971987545151" lon="30.138272889279484" id="-39893">
		<tag k="name" v="Reinøya" />
		<tag k="ssr:date" v="2021-02-18" />
		<tag k="ssr:gruppe" v="veg" />
		<tag k="ssr:hovedgruppe" v="infrastruktur" />
		<tag k="ssr:stedsnr" v="1080074" />
		<tag k="ssr:type" v="adressenavn" />
	</node>
	<node lat="69.62867421373805" lon="29.33533945185776" id="-39894">
		<tag k="name" v="Munkelva" />
		<tag k="ssr:date" v="2021-02-18" />
		<tag k="ssr:gruppe" v="veg" />
		<tag k="ssr:hovedgruppe" v="infrastruktur" />
		<tag k="ssr:stedsnr" v="1080073" />
		<tag k="ssr:type" v="adressenavn" />
	</node>
	<node lat="69.79345307511103" lon="30.408848526419888" id="-39895">
		<tag k="name" v="Ytre Jarfjorden" />
		<tag k="ssr:date" v="2021-02-18" />
		<tag k="ssr:gruppe" v="veg" />
		<tag k="ssr:hovedgruppe" v="infrastruktur" />
		<tag k="ssr:stedsnr" v="1080077" />
		<tag k="ssr:type" v="adressenavn" />
	</node>
	<node lat="69.83508689086575" lon="29.883019515041994" id="-39896">
		<tag k="name" v="Skogerøya" />
		<tag k="ssr:date" v="2021-02-18" />
		<tag k="ssr:gruppe" v="veg" />
		<tag k="ssr:hovedgruppe" v="infrastruktur" />
		<tag k="ssr:stedsnr" v="1080075" />
		<tag k="ssr:type" v="adressenavn" />
	</node>
	<node lat="69.75547937565662" lon="29.621483727028952" id="-39897">
		<tag k="name" v="Storbukt og Braselv hytteområde" />
		<tag k="ssr:date" v="2021-02-18" />
		<tag k="ssr:gruppe" v="veg" />
		<tag k="ssr:hovedgruppe" v="infrastruktur" />
		<tag k="ssr:stedsnr" v="1080076" />
		<tag k="ssr:type" v="adressenavn" />
	</node>
	<node lat="69.78381386720328" lon="29.684040891251133" id="-39898">
		<tag k="name" v="Valen hytteområde" />
		<tag k="ssr:date" v="2021-02-18" />
		<tag k="ssr:gruppe" v="veg" />
		<tag k="ssr:hovedgruppe" v="infrastruktur" />
		<tag k="ssr:stedsnr" v="1080079" />
		<tag k="ssr:type" v="adressenavn" />
	</node>
	<node lat="69.76389291099869" lon="30.02574766124725" id="-39899">
		<tag k="name" v="Tømmerneset" />
		<tag k="ssr:date" v="2021-02-18" />
		<tag k="ssr:gruppe" v="veg" />
		<tag k="ssr:hovedgruppe" v="infrastruktur" />
		<tag k="ssr:stedsnr" v="1080078" />
		<tag k="ssr:type" v="adressenavn" />
	</node>
	<node lat="69.87167521017228" lon="29.345556799019665" id="-39900">
		<tag k="name" v="Flomelvveien" />
		<tag k="ssr:date" v="2021-02-19" />
		<tag k="ssr:gruppe" v="veg" />
		<tag k="ssr:hovedgruppe" v="infrastruktur" />
		<tag k="ssr:stedsnr" v="1080082" />
		<tag k="ssr:type" v="adressenavn" />
	</node>
	<node lat="70.0086773599398" lon="29.357632540980887" id="-39901">
		<tag k="name" v="Storsand hytteområde" />
		<tag k="ssr:date" v="2021-02-19" />
		<tag k="ssr:gruppe" v="veg" />
		<tag k="ssr:hovedgruppe" v="infrastruktur" />
		<tag k="ssr:stedsnr" v="1080083" />
		<tag k="ssr:type" v="adressenavn" />
	</node>
	<node lat="69.82196645008868" lon="30.17501538760034" id="-39902">
		<tag k="name" v="Holmengrå" />
		<tag k="ssr:date" v="2021-03-01" />
		<tag k="ssr:gruppe" v="veg" />
		<tag k="ssr:hovedgruppe" v="infrastruktur" />
		<tag k="ssr:stedsnr" v="1080168" />
		<tag k="ssr:type" v="adressenavn" />
	</node>
	<node lat="69.94806092117794" lon="29.461101106158544" id="-39903">
		<tag k="name" v="Bugøyneshalvøya" />
		<tag k="ssr:date" v="2021-03-01" />
		<tag k="ssr:gruppe" v="veg" />
		<tag k="ssr:hovedgruppe" v="infrastruktur" />
		<tag k="ssr:stedsnr" v="1080171" />
		<tag k="ssr:type" v="adressenavn" />
	</node>
	<node lat="70.34079221605616" lon="30.852002202586988" id="-39904">
		<tag k="name" v="Jarfjordfjellet" />
		<tag k="ssr:date" v="2021-03-01" />
		<tag k="ssr:gruppe" v="veg" />
		<tag k="ssr:hovedgruppe" v="infrastruktur" />
		<tag k="ssr:stedsnr" v="1080169" />
		<tag k="ssr:type" v="adressenavn" />
	</node>
	<node lat="69.76618778603495" lon="30.17744247680954" id="-39905">
		<tag k="name" v="Rødbergveien" />
		<tag k="ssr:date" v="2021-03-01" />
		<tag k="ssr:gruppe" v="veg" />
		<tag k="ssr:hovedgruppe" v="infrastruktur" />
		<tag k="ssr:stedsnr" v="1080170" />
		<tag k="ssr:type" v="adressenavn" />
	</node>
	<node lat="69.20831542520335" lon="28.96701889261364" id="-39906">
		<tag k="name" v="Pasvikdalen" />
		<tag k="ssr:date" v="2021-03-01" />
		<tag k="ssr:gruppe" v="veg" />
		<tag k="ssr:hovedgruppe" v="infrastruktur" />
		<tag k="ssr:stedsnr" v="1080172" />
		<tag k="ssr:type" v="adressenavn" />
	</node>
	<node lat="69.58801735423329" lon="29.952923486377102" id="-39908">
		<tag k="name" v="Fjordbotnveien" />
		<tag k="ssr:date" v="2021-05-03" />
		<tag k="ssr:gruppe" v="veg" />
		<tag k="ssr:hovedgruppe" v="infrastruktur" />
		<tag k="ssr:stedsnr" v="1081088" />
		<tag k="ssr:type" v="adressenavn" />
	</node>
	<node lat="69.64707846891348" lon="29.467012990631684" id="-39909">
		<tag k="name" v="Korsdalen hytteområde" />
		<tag k="ssr:date" v="2021-05-03" />
		<tag k="ssr:gruppe" v="veg" />
		<tag k="ssr:hovedgruppe" v="infrastruktur" />
		<tag k="ssr:stedsnr" v="1081091" />
		<tag k="ssr:type" v="adressenavn" />
	</node>
	<node lat="69.16491171700427" lon="29.226443624409715" id="-39910">
		<tag k="name" v="Kjerringneset hytteområde" />
		<tag k="ssr:date" v="2021-05-03" />
		<tag k="ssr:gruppe" v="veg" />
		<tag k="ssr:hovedgruppe" v="infrastruktur" />
		<tag k="ssr:stedsnr" v="1081095" />
		<tag k="ssr:type" v="adressenavn" />
	</node>
	<node lat="69.74314642407334" lon="29.829300383642444" id="-39911">
		<tag k="name" v="Tusenvika hytteområde" />
		<tag k="ssr:date" v="2021-05-03" />
		<tag k="ssr:gruppe" v="veg" />
		<tag k="ssr:hovedgruppe" v="infrastruktur" />
		<tag k="ssr:stedsnr" v="1081097" />
		<tag k="ssr:type" v="adressenavn" />
	</node>
	<node lat="69.54255785004798" lon="29.900057398407952" id="-39912">
		<tag k="name" v="Sagvatnet hytteområde" />
		<tag k="ssr:date" v="2021-05-03" />
		<tag k="ssr:gruppe" v="veg" />
		<tag k="ssr:hovedgruppe" v="infrastruktur" />
		<tag k="ssr:stedsnr" v="1081098" />
		<tag k="ssr:type" v="adressenavn" />
	</node>
	<node lat="69.57358954537574" lon="30.01364930889124" id="-39913">
		<tag k="name" v="Skrukkebuktvatnet hytteområde" />
		<tag k="ssr:date" v="2021-05-03" />
		<tag k="ssr:gruppe" v="veg" />
		<tag k="ssr:hovedgruppe" v="infrastruktur" />
		<tag k="ssr:stedsnr" v="1081102" />
		<tag k="ssr:type" v="adressenavn" />
	</node>
	<node lat="69.3110909334613" lon="29.17528643768326" id="-39914">
		<tag k="name" v="Store Spurvvatnet hytteområde" />
		<tag k="ssr:date" v="2021-05-03" />
		<tag k="ssr:gruppe" v="veg" />
		<tag k="ssr:hovedgruppe" v="infrastruktur" />
		<tag k="ssr:stedsnr" v="1081103" />
		<tag k="ssr:type" v="adressenavn" />
	</node>
	<node lat="69.59655827657744" lon="29.970730832635315" id="-39915">
		<tag k="name" v="Ørnevatnet hytteområde" />
		<tag k="ssr:date" v="2021-05-03" />
		<tag k="ssr:gruppe" v="veg" />
		<tag k="ssr:hovedgruppe" v="infrastruktur" />
		<tag k="ssr:stedsnr" v="1081104" />
		<tag k="ssr:type" v="adressenavn" />
	</node>
	<node lat="69.57931334122927" lon="29.959156235667844" id="-39916">
		<tag k="name" v="Langfjordvatnet hytteområde" />
		<tag k="ssr:date" v="2021-05-03" />
		<tag k="ssr:gruppe" v="veg" />
		<tag k="ssr:hovedgruppe" v="infrastruktur" />
		<tag k="ssr:stedsnr" v="1081105" />
		<tag k="ssr:type" v="adressenavn" />
	</node>
	<node lat="69.74035940226656" lon="30.22909273552972" id="-39917">
		<tag k="name" v="Ropelvvatnet hytteområde" />
		<tag k="ssr:date" v="2021-05-03" />
		<tag k="ssr:gruppe" v="veg" />
		<tag k="ssr:hovedgruppe" v="infrastruktur" />
		<tag k="ssr:stedsnr" v="1081106" />
		<tag k="ssr:type" v="adressenavn" />
	</node>
	<node lat="69.74171230770797" lon="29.848663566381525" id="-39918">
		<tag k="name" v="Makkskjær hytteområde" />
		<tag k="ssr:date" v="2021-05-03" />
		<tag k="ssr:gruppe" v="veg" />
		<tag k="ssr:hovedgruppe" v="infrastruktur" />
		<tag k="ssr:stedsnr" v="1081108" />
		<tag k="ssr:type" v="adressenavn" />
	</node>
	<node lat="69.66559351130502" lon="30.346704251780828" id="-39919">
		<tag k="name" v="Pandorveien" />
		<tag k="ssr:date" v="2021-05-03" />
		<tag k="ssr:gruppe" v="veg" />
		<tag k="ssr:hovedgruppe" v="infrastruktur" />
		<tag k="ssr:stedsnr" v="1081114" />
		<tag k="ssr:type" v="adressenavn" />
	</node>
	<node lat="69.66473141358053" lon="30.460229484707515" id="-39920">
		<tag k="name" v="Storvatnet hytteområde" />
		<tag k="ssr:date" v="2021-05-03" />
		<tag k="ssr:gruppe" v="veg" />
		<tag k="ssr:hovedgruppe" v="infrastruktur" />
		<tag k="ssr:stedsnr" v="1081109" />
		<tag k="ssr:type" v="adressenavn" />
	</node>
	<node lat="69.68652701775397" lon="30.45675820869831" id="-39921">
		<tag k="name" v="Koiveien" />
		<tag k="ssr:date" v="2021-05-03" />
		<tag k="ssr:gruppe" v="veg" />
		<tag k="ssr:hovedgruppe" v="infrastruktur" />
		<tag k="ssr:stedsnr" v="1081110" />
		<tag k="ssr:type" v="adressenavn" />
	</node>
	<node lat="69.59794019580153" lon="29.449124904749308" id="-39922">
		<tag k="name" v="Brannvannet hytteområde" />
		<tag k="ssr:date" v="2021-05-03" />
		<tag k="ssr:gruppe" v="veg" />
		<tag k="ssr:hovedgruppe" v="infrastruktur" />
		<tag k="ssr:stedsnr" v="1081112" />
		<tag k="ssr:type" v="adressenavn" />
	</node>
	<node lat="69.7316325583452" lon="30.131013843646308" id="-39923">
		<tag k="name" v="Ytre Lid" />
		<tag k="ssr:date" v="2021-05-03" />
		<tag k="ssr:gruppe" v="veg" />
		<tag k="ssr:hovedgruppe" v="infrastruktur" />
		<tag k="ssr:stedsnr" v="1081113" />
		<tag k="ssr:type" v="adressenavn" />
	</node>
	<node lat="69.46870270565766" lon="30.0983121048534" id="-39926">
		<tag k="name" v="Furumoveien" />
		<tag k="ssr:date" v="2021-08-26" />
		<tag k="ssr:gruppe" v="veg" />
		<tag k="ssr:hovedgruppe" v="infrastruktur" />
		<tag k="ssr:stedsnr" v="1082046" />
		<tag k="ssr:type" v="adressenavn" />
	</node>
	<node lat="69.6784386434764" lon="30.093883719657757" id="-39927">
		<tag k="name" v="Skafferhollet" />
		<tag k="ssr:date" v="2021-11-22" />
		<tag k="ssr:gruppe" v="veg" />
		<tag k="ssr:hovedgruppe" v="infrastruktur" />
		<tag k="ssr:stedsnr" v="1082946" />
		<tag k="ssr:type" v="adressenavn" />
	</node>
</osm>
